"Longitude (x)","Latitude (y)","Station Name","Climate ID","Date/Time (LST)","Year","Month","Day","Time (LST)","Temp (°C)","Temp Flag","Dew Point Temp (°C)","Dew Point Temp Flag","Rel Hum (%)","Rel Hum Flag","Precip. Amount (mm)","Precip. Amount Flag","Wind Dir (10s deg)","Wind Dir Flag","Wind Spd (km/h)","Wind Spd Flag","Visibility (km)","Visibility Flag","Stn Press (kPa)","Stn Press Flag","Hmdx","Hmdx Flag","Wind Chill","Wind Chill Flag","Weather"
"-119.99","74.14","NANGMAGVIK LAKE","2500440","2012-02-01 00:00","2012","02","01","00:00","-39.7","","-43.6","","66","","","","15","","13","","","","99.98","","","","-52","","NA"
"-119.99","74.14","NANGMAGVIK LAKE","2500440","2012-02-01 01:00","2012","02","01","01:00","-38.6","","-42.4","","67","","","","14","","13","","","","99.95","","","","-51","","NA"
"-119.99","74.14","NANGMAGVIK LAKE","2500440","2012-02-01 02:00","2012","02","01","02:00","-37.1","","-40.8","","68","","","","16","","7","","","","99.93","","","","-46","","NA"
"-119.99","74.14","NANGMAGVIK LAKE","2500440","2012-02-01 03:00","2012","02","01","03:00","-35.7","","-39.1","","71","","","","14","","11","","","","99.91","","","","-47","","NA"
"-119.99","74.14","NANGMAGVIK LAKE","2500440","2012-02-01 04:00","2012","02","01","04:00","-32.2","","-35.1","","75","","","","17","","17","","","","99.86","","","","-45","","NA"
"-119.99","74.14","NANGMAGVIK LAKE","2500440","2012-02-01 05:00","2012","02","01","05:00","-31.2","","-34.0","","76","","","","14","","11","","","","99.87","","","","-41","","NA"
"-119.99","74.14","NANGMAGVIK LAKE","2500440","2012-02-01 06:00","2012","02","01","06:00","-30.9","","-33.7","","76","","","","17","","15","","","","99.86","","","","-43","","NA"
"-119.99","74.14","NANGMAGVIK LAKE","2500440","2012-02-01 07:00","2012","02","01","07:00","-32.2","","-35.2","","75","","","","17","","22","","","","99.84","","","","-46","","NA"
"-119.99","74.14","NANGMAGVIK LAKE","2500440","2012-02-01 08:00","2012","02","01","08:00","-32.8","","-35.8","","74","","","","17","","24","","","","99.87","","","","-48","","NA"
"-119.99","74.14","NANGMAGVIK LAKE","2500440","2012-02-01 09:00","2012","02","01","09:00","-34.0","","-37.2","","73","","","","18","","19","","","","99.89","","","","-48","","NA"
"-119.99","74.14","NANGMAGVIK LAKE","2500440","2012-02-01 10:00","2012","02","01","10:00","-34.7","","-38.0","","72","","","","16","","15","","","","99.94","","","","-47","","NA"
"-119.99","74.14","NANGMAGVIK LAKE","2500440","2012-02-01 11:00","2012","02","01","11:00","-34.8","","-38.0","","73","","","","19","","26","","","","99.92","","","","-51","","NA"
"-119.99","74.14","NANGMAGVIK LAKE","2500440","2012-02-01 12:00","2012","02","01","12:00","-35.7","","-39.1","","71","","","","18","","19","","","","99.97","","","","-50","","NA"
"-119.99","74.14","NANGMAGVIK LAKE","2500440","2012-02-01 13:00","2012","02","01","13:00","-35.8","","-39.2","","71","","","","18","","26","","","","100.02","","","","-52","","NA"
"-119.99","74.14","NANGMAGVIK LAKE","2500440","2012-02-01 14:00","2012","02","01","14:00","-36.9","","-40.4","","70","","","","18","","32","","","","100.07","","","","-55","","NA"
"-119.99","74.14","NANGMAGVIK LAKE","2500440","2012-02-01 15:00","2012","02","01","15:00","-37.7","","-41.3","","69","","","","17","","24","","","","100.16","","","","-54","","NA"
"-119.99","74.14","NANGMAGVIK LAKE","2500440","2012-02-01 16:00","2012","02","01","16:00","-37.5","","-41.1","","69","","","","19","","24","","","","100.20","","","","-54","","NA"
"-119.99","74.14","NANGMAGVIK LAKE","2500440","2012-02-01 17:00","2012","02","01","17:00","-37.7","","-41.3","","69","","","","16","","30","","","","100.24","","","","-56","","NA"
"-119.99","74.14","NANGMAGVIK LAKE","2500440","2012-02-01 18:00","2012","02","01","18:00","-38.1","","-41.8","","68","","","","15","","22","","","","100.31","","","","-54","","NA"
"-119.99","74.14","NANGMAGVIK LAKE","2500440","2012-02-01 19:00","2012","02","01","19:00","-38.0","","-41.7","","68","","","","13","","19","","","","100.33","","","","-53","","NA"
"-119.99","74.14","NANGMAGVIK LAKE","2500440","2012-02-01 20:00","2012","02","01","20:00","-38.3","","-42.0","","68","","","","14","","24","","","","100.36","","","","-55","","NA"
"-119.99","74.14","NANGMAGVIK LAKE","2500440","2012-02-01 21:00","2012","02","01","21:00","-38.2","","-42.0","","67","","","","15","","30","","","","100.33","","","","-56","","NA"
"-119.99","74.14","NANGMAGVIK LAKE","2500440","2012-02-01 22:00","2012","02","01","22:00","-38.0","","-41.8","","67","","","","17","","37","","","","100.35","","","","-58","","NA"
"-119.99","74.14","NANGMAGVIK LAKE","2500440","2012-02-01 23:00","2012","02","01","23:00","-37.7","","-41.4","","68","","","","17","","19","","","","100.48","","","","-52","","NA"
"-119.99","74.14","NANGMAGVIK LAKE","2500440","2012-02-02 00:00","2012","02","02","00:00","-38.0","","-41.7","","68","","","","17","","28","","","","100.46","","","","-56","","NA"
"-119.99","74.14","NANGMAGVIK LAKE","2500440","2012-02-02 01:00","2012","02","02","01:00","-38.7","","-42.5","","67","","","","14","","24","","","","100.51","","","","-55","","NA"
"-119.99","74.14","NANGMAGVIK LAKE","2500440","2012-02-02 02:00","2012","02","02","02:00","-38.9","","-42.7","","67","","","","16","","28","","","","100.51","","","","-57","","NA"
"-119.99","74.14","NANGMAGVIK LAKE","2500440","2012-02-02 03:00","2012","02","02","03:00","-38.1","","-41.7","","69","","","","16","","26","","","","100.49","","","","-55","","NA"
"-119.99","74.14","NANGMAGVIK LAKE","2500440","2012-02-02 04:00","2012","02","02","04:00","-38.8","","-42.6","","67","","","","15","","22","","","","100.53","","","","-55","","NA"
"-119.99","74.14","NANGMAGVIK LAKE","2500440","2012-02-02 05:00","2012","02","02","05:00","-39.8","","-43.8","","66","","","","17","","26","","","","100.50","","","","-57","","NA"
"-119.99","74.14","NANGMAGVIK LAKE","2500440","2012-02-02 06:00","2012","02","02","06:00","-39.9","","-43.8","","66","","","","15","","24","","","","100.55","","","","-57","","NA"
"-119.99","74.14","NANGMAGVIK LAKE","2500440","2012-02-02 07:00","2012","02","02","07:00","-40.1","","-44.1","","65","","","","14","","17","","","","100.45","","","","-55","","NA"
"-119.99","74.14","NANGMAGVIK LAKE","2500440","2012-02-02 08:00","2012","02","02","08:00","-40.5","","-44.5","","65","","","","15","","19","","","","100.39","","","","-56","","NA"
"-119.99","74.14","NANGMAGVIK LAKE","2500440","2012-02-02 09:00","2012","02","02","09:00","-38.8","","-42.6","","67","","","","14","","11","","","","100.32","","","","-50","","NA"
"-119.99","74.14","NANGMAGVIK LAKE","2500440","2012-02-02 10:00","2012","02","02","10:00","-39.0","","-42.8","","67","","","","14","","9","","","","100.19","","","","-49","","NA"
"-119.99","74.14","NANGMAGVIK LAKE","2500440","2012-02-02 11:00","2012","02","02","11:00","-38.5","","-42.2","","68","","","","28","","2","","","","100.13","","","","-41","","NA"
"-119.99","74.14","NANGMAGVIK LAKE","2500440","2012-02-02 12:00","2012","02","02","12:00","-38.2","","-42.0","","67","","","","32","","6","","","","100.03","","","","-46","","NA"
"-119.99","74.14","NANGMAGVIK LAKE","2500440","2012-02-02 13:00","2012","02","02","13:00","-36.4","","-39.9","","70","","","","34","","13","","","","100.06","","","","-48","","NA"
"-119.99","74.14","NANGMAGVIK LAKE","2500440","2012-02-02 14:00","2012","02","02","14:00","-36.4","","-39.9","","70","","","","34","","13","","","","100.00","","","","-48","","NA"
"-119.99","74.14","NANGMAGVIK LAKE","2500440","2012-02-02 15:00","2012","02","02","15:00","-36.7","","-40.2","","70","","","","36","","11","","","","99.92","","","","-48","","NA"
"-119.99","74.14","NANGMAGVIK LAKE","2500440","2012-02-02 16:00","2012","02","02","16:00","-34.6","","-37.8","","73","","","","35","","24","","","","99.85","","","","-50","","NA"
"-119.99","74.14","NANGMAGVIK LAKE","2500440","2012-02-02 17:00","2012","02","02","17:00","-34.3","","-37.5","","73","","","","35","","20","","","","99.87","","","","-49","","NA"
"-119.99","74.14","NANGMAGVIK LAKE","2500440","2012-02-02 18:00","2012","02","02","18:00","-34.3","","-37.5","","73","","","","34","","19","","","","99.83","","","","-48","","NA"
"-119.99","74.14","NANGMAGVIK LAKE","2500440","2012-02-02 19:00","2012","02","02","19:00","-34.4","","-37.6","","73","","","","33","","17","","","","99.87","","","","-48","","NA"
"-119.99","74.14","NANGMAGVIK LAKE","2500440","2012-02-02 20:00","2012","02","02","20:00","-34.3","","-37.5","","73","","","","33","","17","","","","99.87","","","","-47","","NA"
"-119.99","74.14","NANGMAGVIK LAKE","2500440","2012-02-02 21:00","2012","02","02","21:00","-34.5","","-37.7","","73","","","","33","","20","","","","99.94","","","","-49","","NA"
"-119.99","74.14","NANGMAGVIK LAKE","2500440","2012-02-02 22:00","2012","02","02","22:00","-35.3","","-38.7","","71","","","","36","","15","","","","99.98","","","","-48","","NA"
"-119.99","74.14","NANGMAGVIK LAKE","2500440","2012-02-02 23:00","2012","02","02","23:00","-36.2","","-39.6","","71","","","","1","","11","","","","100.10","","","","-47","","NA"
"-119.99","74.14","NANGMAGVIK LAKE","2500440","2012-02-03 00:00","2012","02","03","00:00","-36.0","","-39.4","","71","","","","36","","17","","","","100.13","","","","-50","","NA"
"-119.99","74.14","NANGMAGVIK LAKE","2500440","2012-02-03 01:00","2012","02","03","01:00","-36.7","","-40.2","","70","","","","36","","9","","","","100.21","","","","-47","","NA"
"-119.99","74.14","NANGMAGVIK LAKE","2500440","2012-02-03 02:00","2012","02","03","02:00","-36.1","","-39.5","","71","","","","36","","11","","","","100.29","","","","-47","","NA"
"-119.99","74.14","NANGMAGVIK LAKE","2500440","2012-02-03 03:00","2012","02","03","03:00","-36.2","","-39.6","","71","","","","36","","2","","","","100.33","","","","-39","","NA"
"-119.99","74.14","NANGMAGVIK LAKE","2500440","2012-02-03 04:00","2012","02","03","04:00","-35.5","","-38.7","","72","","","","35","","15","","","","100.37","","","","-48","","NA"
"-119.99","74.14","NANGMAGVIK LAKE","2500440","2012-02-03 05:00","2012","02","03","05:00","-35.0","","-38.3","","72","","","","36","","11","","","","100.49","","","","-46","","NA"
"-119.99","74.14","NANGMAGVIK LAKE","2500440","2012-02-03 06:00","2012","02","03","06:00","-34.4","","-37.6","","73","","","","1","","9","","","","100.55","","","","-44","","NA"
"-119.99","74.14","NANGMAGVIK LAKE","2500440","2012-02-03 07:00","2012","02","03","07:00","-35.1","","-38.4","","72","","","","35","","4","","","","100.59","","","","-40","","NA"
"-119.99","74.14","NANGMAGVIK LAKE","2500440","2012-02-03 08:00","2012","02","03","08:00","-35.4","","-38.8","","71","","","","35","","2","","","","100.69","","","","-38","","NA"
"-119.99","74.14","NANGMAGVIK LAKE","2500440","2012-02-03 09:00","2012","02","03","09:00","-36.2","","-39.7","","70","","","","","","0","","","","100.71","","","","","","NA"
"-119.99","74.14","NANGMAGVIK LAKE","2500440","2012-02-03 10:00","2012","02","03","10:00","-36.1","","-39.3","","72","","","","","","0","","","","100.80","","","","","","NA"
"-119.99","74.14","NANGMAGVIK LAKE","2500440","2012-02-03 11:00","2012","02","03","11:00","-38.8","","-42.5","","68","","","","15","","11","","","","100.83","","","","-50","","NA"
"-119.99","74.14","NANGMAGVIK LAKE","2500440","2012-02-03 12:00","2012","02","03","12:00","-38.5","","-42.2","","68","","","","15","","9","","","","100.90","","","","-49","","NA"
"-119.99","74.14","NANGMAGVIK LAKE","2500440","2012-02-03 13:00","2012","02","03","13:00","-39.1","","-42.9","","67","","","","15","","6","","","","100.98","","","","-47","","NA"
"-119.99","74.14","NANGMAGVIK LAKE","2500440","2012-02-03 14:00","2012","02","03","14:00","-38.4","","-42.2","","67","","","","20","","6","","","","100.96","","","","-46","","NA"
"-119.99","74.14","NANGMAGVIK LAKE","2500440","2012-02-03 15:00","2012","02","03","15:00","-38.9","","-42.6","","68","","","","17","","7","","","","100.97","","","","-48","","NA"
"-119.99","74.14","NANGMAGVIK LAKE","2500440","2012-02-03 16:00","2012","02","03","16:00","-39.8","","-43.7","","66","","","","17","","7","","","","101.04","","","","-49","","NA"
"-119.99","74.14","NANGMAGVIK LAKE","2500440","2012-02-03 17:00","2012","02","03","17:00","-39.7","","-43.5","","67","","","","16","","9","","","","101.08","","","","-50","","NA"
"-119.99","74.14","NANGMAGVIK LAKE","2500440","2012-02-03 18:00","2012","02","03","18:00","-38.7","","-42.4","","68","","","","23","","2","","","","101.03","","","","-41","","NA"
"-119.99","74.14","NANGMAGVIK LAKE","2500440","2012-02-03 19:00","2012","02","03","19:00","-39.9","","-43.8","","66","","","","18","","4","","","","101.04","","","","-45","","NA"
"-119.99","74.14","NANGMAGVIK LAKE","2500440","2012-02-03 20:00","2012","02","03","20:00","-39.9","","-44.0","","65","","","","16","","7","","","","101.02","","","","-49","","NA"
"-119.99","74.14","NANGMAGVIK LAKE","2500440","2012-02-03 21:00","2012","02","03","21:00","-38.5","","-42.1","","69","","","","","","0","","","","100.97","","","","","","NA"
"-119.99","74.14","NANGMAGVIK LAKE","2500440","2012-02-03 22:00","2012","02","03","22:00","-39.7","","-43.5","","67","","","","","","0","","","","100.92","","","","","","NA"
"-119.99","74.14","NANGMAGVIK LAKE","2500440","2012-02-03 23:00","2012","02","03","23:00","-38.5","","-42.3","","67","","","","15","","6","","","","100.90","","","","-46","","NA"
"-119.99","74.14","NANGMAGVIK LAKE","2500440","2012-02-04 00:00","2012","02","04","00:00","-37.3","","-40.7","","71","","","","33","","7","","","","100.87","","","","-46","","NA"
"-119.99","74.14","NANGMAGVIK LAKE","2500440","2012-02-04 01:00","2012","02","04","01:00","-37.2","","-40.8","","69","","","","1","","2","","","","100.97","","","","-40","","NA"
"-119.99","74.14","NANGMAGVIK LAKE","2500440","2012-02-04 02:00","2012","02","04","02:00","-36.7","","-40.2","","70","","","","36","","9","","","","101.04","","","","-47","","NA"
"-119.99","74.14","NANGMAGVIK LAKE","2500440","2012-02-04 03:00","2012","02","04","03:00","-37.3","","-40.9","","69","","","","1","","13","","","","101.10","","","","-49","","NA"
"-119.99","74.14","NANGMAGVIK LAKE","2500440","2012-02-04 04:00","2012","02","04","04:00","-37.3","","-41.0","","68","","","","1","","11","","","","101.14","","","","-48","","NA"
"-119.99","74.14","NANGMAGVIK LAKE","2500440","2012-02-04 05:00","2012","02","04","05:00","-37.6","","-41.2","","69","","","","36","","15","","","","101.15","","","","-51","","NA"
"-119.99","74.14","NANGMAGVIK LAKE","2500440","2012-02-04 06:00","2012","02","04","06:00","-37.5","","-41.1","","69","","","","36","","9","","","","101.20","","","","-47","","NA"
"-119.99","74.14","NANGMAGVIK LAKE","2500440","2012-02-04 07:00","2012","02","04","07:00","-37.1","","-40.7","","69","","","","1","","7","","","","101.23","","","","-46","","NA"
"-119.99","74.14","NANGMAGVIK LAKE","2500440","2012-02-04 08:00","2012","02","04","08:00","-36.4","","-39.9","","70","","","","1","","6","","","","101.33","","","","-44","","NA"
"-119.99","74.14","NANGMAGVIK LAKE","2500440","2012-02-04 09:00","2012","02","04","09:00","-36.8","","-40.3","","70","","","","34","","9","","","","101.38","","","","-47","","NA"
"-119.99","74.14","NANGMAGVIK LAKE","2500440","2012-02-04 10:00","2012","02","04","10:00","-36.7","","-40.2","","70","","","","35","","7","","","","101.49","","","","-45","","NA"
"-119.99","74.14","NANGMAGVIK LAKE","2500440","2012-02-04 11:00","2012","02","04","11:00","-38.2","","-42.0","","67","","","","15","","6","","","","101.52","","","","-46","","NA"
"-119.99","74.14","NANGMAGVIK LAKE","2500440","2012-02-04 12:00","2012","02","04","12:00","-37.3","","-40.9","","69","","","","14","","4","","","","101.51","","","","-43","","NA"
"-119.99","74.14","NANGMAGVIK LAKE","2500440","2012-02-04 13:00","2012","02","04","13:00","-36.9","","-40.5","","69","","","","14","","9","","","","101.61","","","","-47","","NA"
"-119.99","74.14","NANGMAGVIK LAKE","2500440","2012-02-04 14:00","2012","02","04","14:00","-36.7","","-40.3","","69","","","","16","","4","","","","101.65","","","","-42","","NA"
"-119.99","74.14","NANGMAGVIK LAKE","2500440","2012-02-04 15:00","2012","02","04","15:00","-36.0","","-39.4","","71","","","","14","","4","","","","101.80","","","","-41","","NA"
"-119.99","74.14","NANGMAGVIK LAKE","2500440","2012-02-04 16:00","2012","02","04","16:00","-35.8","","-39.2","","71","","","","15","","6","","","","101.82","","","","-43","","NA"
"-119.99","74.14","NANGMAGVIK LAKE","2500440","2012-02-04 17:00","2012","02","04","17:00","-34.5","","-37.7","","73","","","","14","","6","","","","101.80","","","","-42","","NA"
"-119.99","74.14","NANGMAGVIK LAKE","2500440","2012-02-04 18:00","2012","02","04","18:00","-33.1","","-36.3","","73","","","","14","","7","","","","101.85","","","","-41","","NA"
"-119.99","74.14","NANGMAGVIK LAKE","2500440","2012-02-04 19:00","2012","02","04","19:00","-32.7","","-35.7","","74","","","","15","","13","","","","101.92","","","","-44","","NA"
"-119.99","74.14","NANGMAGVIK LAKE","2500440","2012-02-04 20:00","2012","02","04","20:00","-30.7","","-33.4","","77","","","","15","","19","","","","101.93","","","","-44","","NA"
"-119.99","74.14","NANGMAGVIK LAKE","2500440","2012-02-04 21:00","2012","02","04","21:00","-27.9","","-30.3","","80","","","","20","","19","","","","101.98","","","","-40","","NA"
"-119.99","74.14","NANGMAGVIK LAKE","2500440","2012-02-04 22:00","2012","02","04","22:00","-26.5","","-28.7","","82","","","","16","","32","","","","101.91","","","","-41","","NA"
"-119.99","74.14","NANGMAGVIK LAKE","2500440","2012-02-04 23:00","2012","02","04","23:00","-26.0","","-28.1","","82","","","","14","","28","","","","101.99","","","","-40","","NA"
"-119.99","74.14","NANGMAGVIK LAKE","2500440","2012-02-05 00:00","2012","02","05","00:00","-25.9","","-28.0","","82","","","","16","","24","","","","102.02","","","","-39","","NA"
"-119.99","74.14","NANGMAGVIK LAKE","2500440","2012-02-05 01:00","2012","02","05","01:00","-26.0","","-28.1","","82","","","","18","","39","","","","102.05","","","","-42","","NA"
"-119.99","74.14","NANGMAGVIK LAKE","2500440","2012-02-05 02:00","2012","02","05","02:00","-27.0","","-29.3","","81","","","","18","","28","","","","102.24","","","","-41","","NA"
"-119.99","74.14","NANGMAGVIK LAKE","2500440","2012-02-05 03:00","2012","02","05","03:00","-28.0","","-30.4","","80","","","","16","","20","","","","102.30","","","","-41","","NA"
"-119.99","74.14","NANGMAGVIK LAKE","2500440","2012-02-05 04:00","2012","02","05","04:00","-26.9","","-29.1","","82","","","","18","","15","","","","102.37","","","","-38","","NA"
"-119.99","74.14","NANGMAGVIK LAKE","2500440","2012-02-05 05:00","2012","02","05","05:00","-26.1","","-28.1","","83","","","","19","","9","","","","102.49","","","","-34","","NA"
"-119.99","74.14","NANGMAGVIK LAKE","2500440","2012-02-05 06:00","2012","02","05","06:00","-25.4","","-27.6","","82","","","","27","","6","","","","102.56","","","","-31","","NA"
"-119.99","74.14","NANGMAGVIK LAKE","2500440","2012-02-05 07:00","2012","02","05","07:00","-26.1","","-28.4","","81","","","","22","","11","","","","102.54","","","","-35","","NA"
"-119.99","74.14","NANGMAGVIK LAKE","2500440","2012-02-05 08:00","2012","02","05","08:00","-26.2","","-28.3","","82","","","","24","","9","","","","102.57","","","","-34","","NA"
"-119.99","74.14","NANGMAGVIK LAKE","2500440","2012-02-05 09:00","2012","02","05","09:00","-26.8","","-29.1","","81","","","","14","","13","","","","102.56","","","","-37","","NA"
"-119.99","74.14","NANGMAGVIK LAKE","2500440","2012-02-05 10:00","2012","02","05","10:00","-26.6","","-28.8","","82","","","","16","","17","","","","102.57","","","","-38","","NA"
"-119.99","74.14","NANGMAGVIK LAKE","2500440","2012-02-05 11:00","2012","02","05","11:00","-26.2","","-28.4","","82","","","","16","","13","","","","102.61","","","","-36","","NA"
"-119.99","74.14","NANGMAGVIK LAKE","2500440","2012-02-05 12:00","2012","02","05","12:00","-25.8","","-28.1","","81","","","","16","","20","","","","102.54","","","","-38","","NA"
"-119.99","74.14","NANGMAGVIK LAKE","2500440","2012-02-05 13:00","2012","02","05","13:00","-27.8","","-30.2","","80","","","","14","","33","","","","102.50","","","","-43","","NA"
"-119.99","74.14","NANGMAGVIK LAKE","2500440","2012-02-05 14:00","2012","02","05","14:00","-26.8","","-29.0","","82","","","","17","","33","","","","102.39","","","","-42","","NA"
"-119.99","74.14","NANGMAGVIK LAKE","2500440","2012-02-05 15:00","2012","02","05","15:00","-27.1","","-29.4","","81","","","","16","","41","","","","102.33","","","","-44","","NA"
"-119.99","74.14","NANGMAGVIK LAKE","2500440","2012-02-05 16:00","2012","02","05","16:00","-27.0","","-29.3","","81","","","","14","","43","","","","102.18","","","","-44","","NA"
"-119.99","74.14","NANGMAGVIK LAKE","2500440","2012-02-05 17:00","2012","02","05","17:00","-27.7","","-30.0","","81","","","","16","","32","","","","102.15","","","","-43","","NA"
"-119.99","74.14","NANGMAGVIK LAKE","2500440","2012-02-05 18:00","2012","02","05","18:00","-27.1","","-29.4","","81","","","","15","","28","","","","102.04","","","","-41","","NA"
"-119.99","74.14","NANGMAGVIK LAKE","2500440","2012-02-05 19:00","2012","02","05","19:00","-27.2","","-29.5","","81","","","","16","","46","","","","101.89","","","","-45","","NA"
"-119.99","74.14","NANGMAGVIK LAKE","2500440","2012-02-05 20:00","2012","02","05","20:00","-26.5","","-28.7","","82","","","","14","","32","","","","101.89","","","","-41","","NA"
"-119.99","74.14","NANGMAGVIK LAKE","2500440","2012-02-05 21:00","2012","02","05","21:00","-26.0","","-28.1","","82","","","","15","","39","","","","101.74","","","","-42","","NA"
"-119.99","74.14","NANGMAGVIK LAKE","2500440","2012-02-05 22:00","2012","02","05","22:00","-23.8","","-25.5","","86","","","","17","","24","","","","101.70","","","","-36","","NA"
"-119.99","74.14","NANGMAGVIK LAKE","2500440","2012-02-05 23:00","2012","02","05","23:00","-24.9","","-26.9","","83","","","","15","","30","","","","101.71","","","","-39","","NA"
"-119.99","74.14","NANGMAGVIK LAKE","2500440","2012-02-06 00:00","2012","02","06","00:00","-24.9","","-26.9","","83","","","","16","","32","","","","101.68","","","","-39","","NA"
"-119.99","74.14","NANGMAGVIK LAKE","2500440","2012-02-06 01:00","2012","02","06","01:00","-24.4","","-26.4","","83","","","","15","","22","","","","101.67","","","","-37","","NA"
"-119.99","74.14","NANGMAGVIK LAKE","2500440","2012-02-06 02:00","2012","02","06","02:00","-24.4","","-26.4","","83","","","","13","","15","","","","101.67","","","","-35","","NA"
"-119.99","74.14","NANGMAGVIK LAKE","2500440","2012-02-06 03:00","2012","02","06","03:00","-23.8","","-25.6","","85","","","","10","","7","","","","101.67","","","","-30","","NA"
"-119.99","74.14","NANGMAGVIK LAKE","2500440","2012-02-06 04:00","2012","02","06","04:00","-22.5","","-24.2","","86","","","","35","","7","","","","101.70","","","","-29","","NA"
"-119.99","74.14","NANGMAGVIK LAKE","2500440","2012-02-06 05:00","2012","02","06","05:00","-22.5","","-24.1","","87","","","","36","","4","","","","101.69","","","","-26","","NA"
"-119.99","74.14","NANGMAGVIK LAKE","2500440","2012-02-06 06:00","2012","02","06","06:00","-22.5","","-24.3","","85","","","","35","","6","","","","101.78","","","","-28","","NA"
"-119.99","74.14","NANGMAGVIK LAKE","2500440","2012-02-06 07:00","2012","02","06","07:00","-23.4","","-25.3","","84","","","","32","","22","","","","101.73","","","","-35","","NA"
"-119.99","74.14","NANGMAGVIK LAKE","2500440","2012-02-06 08:00","2012","02","06","08:00","-25.9","","-28.0","","82","","","","32","","28","","","","101.80","","","","-40","","NA"
"-119.99","74.14","NANGMAGVIK LAKE","2500440","2012-02-06 09:00","2012","02","06","09:00","-27.0","","-29.2","","82","","","","31","","24","","","","101.85","","","","-40","","NA"
"-119.99","74.14","NANGMAGVIK LAKE","2500440","2012-02-06 10:00","2012","02","06","10:00","-28.1","","-30.5","","80","","","","32","","26","","","","101.93","","","","-42","","NA"
"-119.99","74.14","NANGMAGVIK LAKE","2500440","2012-02-06 11:00","2012","02","06","11:00","-28.6","","-31.0","","80","","","","32","","26","","","","101.98","","","","-43","","NA"
"-119.99","74.14","NANGMAGVIK LAKE","2500440","2012-02-06 12:00","2012","02","06","12:00","-28.8","","-31.3","","79","","","","32","","28","","","","102.05","","","","-44","","NA"
"-119.99","74.14","NANGMAGVIK LAKE","2500440","2012-02-06 13:00","2012","02","06","13:00","-29.6","","-32.2","","78","","","","32","","28","","","","102.20","","","","-45","","NA"
"-119.99","74.14","NANGMAGVIK LAKE","2500440","2012-02-06 14:00","2012","02","06","14:00","-30.2","","-32.8","","78","","","","30","","24","","","","102.30","","","","-44","","NA"
"-119.99","74.14","NANGMAGVIK LAKE","2500440","2012-02-06 15:00","2012","02","06","15:00","-30.9","","-33.6","","77","","","","32","","24","","","","102.40","","","","-45","","NA"
"-119.99","74.14","NANGMAGVIK LAKE","2500440","2012-02-06 16:00","2012","02","06","16:00","-31.4","","-34.2","","76","","","","32","","19","","","","102.43","","","","-45","","NA"
"-119.99","74.14","NANGMAGVIK LAKE","2500440","2012-02-06 17:00","2012","02","06","17:00","-31.7","","-34.6","","75","","","","32","","22","","","","102.49","","","","-46","","NA"
"-119.99","74.14","NANGMAGVIK LAKE","2500440","2012-02-06 18:00","2012","02","06","18:00","-32.1","","-35.0","","75","","","","33","","13","","","","102.53","","","","-43","","NA"
"-119.99","74.14","NANGMAGVIK LAKE","2500440","2012-02-06 19:00","2012","02","06","19:00","-32.5","","-35.5","","75","","","","32","","13","","","","102.62","","","","-44","","NA"
"-119.99","74.14","NANGMAGVIK LAKE","2500440","2012-02-06 20:00","2012","02","06","20:00","-32.9","","-35.9","","74","","","","31","","11","","","","102.67","","","","-43","","NA"
"-119.99","74.14","NANGMAGVIK LAKE","2500440","2012-02-06 21:00","2012","02","06","21:00","-33.2","","-36.3","","74","","","","31","","11","","","","102.72","","","","-44","","NA"
"-119.99","74.14","NANGMAGVIK LAKE","2500440","2012-02-06 22:00","2012","02","06","22:00","-33.1","","-36.1","","74","","","","32","","17","","","","102.83","","","","-46","","NA"
"-119.99","74.14","NANGMAGVIK LAKE","2500440","2012-02-06 23:00","2012","02","06","23:00","-33.6","","-36.7","","74","","","","34","","7","","","","102.86","","","","-41","","NA"
"-119.99","74.14","NANGMAGVIK LAKE","2500440","2012-02-07 00:00","2012","02","07","00:00","-33.6","","-36.7","","74","","","","30","","17","","","","102.90","","","","-47","","NA"
"-119.99","74.14","NANGMAGVIK LAKE","2500440","2012-02-07 01:00","2012","02","07","01:00","-34.0","","-37.2","","73","","","","30","","17","","","","102.96","","","","-47","","NA"
"-119.99","74.14","NANGMAGVIK LAKE","2500440","2012-02-07 02:00","2012","02","07","02:00","-33.9","","-37.0","","73","","","","30","","19","","","","103.03","","","","-48","","NA"
"-119.99","74.14","NANGMAGVIK LAKE","2500440","2012-02-07 03:00","2012","02","07","03:00","-34.0","","-37.2","","73","","","","30","","17","","","","103.10","","","","-47","","NA"
"-119.99","74.14","NANGMAGVIK LAKE","2500440","2012-02-07 04:00","2012","02","07","04:00","-34.4","","-37.7","","72","","","","30","","15","","","","103.10","","","","-47","","NA"
"-119.99","74.14","NANGMAGVIK LAKE","2500440","2012-02-07 05:00","2012","02","07","05:00","-34.6","","-37.8","","73","","","","30","","17","","","","103.13","","","","-48","","NA"
"-119.99","74.14","NANGMAGVIK LAKE","2500440","2012-02-07 06:00","2012","02","07","06:00","-34.7","","-37.9","","73","","","","1","","9","","","","103.13","","","","-44","","NA"
"-119.99","74.14","NANGMAGVIK LAKE","2500440","2012-02-07 07:00","2012","02","07","07:00","-35.0","","-38.3","","72","","","","1","","9","","","","103.17","","","","-45","","NA"
"-119.99","74.14","NANGMAGVIK LAKE","2500440","2012-02-07 08:00","2012","02","07","08:00","-35.1","","-38.4","","72","","","","1","","11","","","","103.18","","","","-46","","NA"
"-119.99","74.14","NANGMAGVIK LAKE","2500440","2012-02-07 09:00","2012","02","07","09:00","-35.2","","-38.5","","72","","","","34","","15","","","","103.22","","","","-48","","NA"
"-119.99","74.14","NANGMAGVIK LAKE","2500440","2012-02-07 10:00","2012","02","07","10:00","-34.6","","-37.8","","73","","","","34","","19","","","","103.22","","","","-49","","NA"
"-119.99","74.14","NANGMAGVIK LAKE","2500440","2012-02-07 11:00","2012","02","07","11:00","-34.5","","-37.7","","73","","","","34","","17","","","","103.19","","","","-48","","NA"
"-119.99","74.14","NANGMAGVIK LAKE","2500440","2012-02-07 12:00","2012","02","07","12:00","-35.5","","-38.8","","72","","","","36","","17","","","","103.22","","","","-49","","NA"
"-119.99","74.14","NANGMAGVIK LAKE","2500440","2012-02-07 13:00","2012","02","07","13:00","-35.5","","-38.8","","72","","","","35","","15","","","","103.32","","","","-48","","NA"
"-119.99","74.14","NANGMAGVIK LAKE","2500440","2012-02-07 14:00","2012","02","07","14:00","-35.5","","-38.8","","72","","","","36","","13","","","","103.37","","","","-47","","NA"
"-119.99","74.14","NANGMAGVIK LAKE","2500440","2012-02-07 15:00","2012","02","07","15:00","-34.5","","-37.7","","73","","","","1","","9","","","","103.40","","","","-44","","NA"
"-119.99","74.14","NANGMAGVIK LAKE","2500440","2012-02-07 16:00","2012","02","07","16:00","-35.5","","-38.9","","71","","","","31","","6","","","","103.43","","","","-43","","NA"
"-119.99","74.14","NANGMAGVIK LAKE","2500440","2012-02-07 17:00","2012","02","07","17:00","-35.9","","-39.2","","72","","","","28","","4","","","","103.42","","","","-41","","NA"
"-119.99","74.14","NANGMAGVIK LAKE","2500440","2012-02-07 18:00","2012","02","07","18:00","-35.8","","-39.1","","72","","","","28","","4","","","","103.40","","","","-41","","NA"
"-119.99","74.14","NANGMAGVIK LAKE","2500440","2012-02-07 19:00","2012","02","07","19:00","-37.2","","-40.8","","69","","","","27","","2","","","","103.37","","","","-40","","NA"
"-119.99","74.14","NANGMAGVIK LAKE","2500440","2012-02-07 20:00","2012","02","07","20:00","-37.2","","-40.7","","70","","","","16","","4","","","","103.39","","","","-42","","NA"
"-119.99","74.14","NANGMAGVIK LAKE","2500440","2012-02-07 21:00","2012","02","07","21:00","-36.5","","-39.8","","71","","","","","","0","","","","103.38","","","","","","NA"
"-119.99","74.14","NANGMAGVIK LAKE","2500440","2012-02-07 22:00","2012","02","07","22:00","-37.1","","-40.6","","70","","","","23","","2","","","","103.38","","","","-40","","NA"
"-119.99","74.14","NANGMAGVIK LAKE","2500440","2012-02-07 23:00","2012","02","07","23:00","-37.6","","-41.3","","68","","","","35","","2","","","","103.40","","","","-40","","NA"
"-119.99","74.14","NANGMAGVIK LAKE","2500440","2012-02-08 00:00","2012","02","08","00:00","-38.5","","-42.2","","68","","","","15","","2","","","","103.38","","","","-41","","NA"
"-119.99","74.14","NANGMAGVIK LAKE","2500440","2012-02-08 01:00","2012","02","08","01:00","-39.0","","-42.8","","67","","","","15","","7","","","","103.37","","","","-48","","NA"
"-119.99","74.14","NANGMAGVIK LAKE","2500440","2012-02-08 02:00","2012","02","08","02:00","-38.9","","-42.7","","67","","","","15","","6","","","","103.40","","","","-47","","NA"
"-119.99","74.14","NANGMAGVIK LAKE","2500440","2012-02-08 03:00","2012","02","08","03:00","-38.6","","-42.4","","67","","","","14","","11","","","","103.39","","","","-50","","NA"
"-119.99","74.14","NANGMAGVIK LAKE","2500440","2012-02-08 04:00","2012","02","08","04:00","-38.1","","-41.8","","68","","","","14","","11","","","","103.35","","","","-49","","NA"
"-119.99","74.14","NANGMAGVIK LAKE","2500440","2012-02-08 05:00","2012","02","08","05:00","-37.3","","-40.9","","69","","","","14","","15","","","","103.30","","","","-50","","NA"
"-119.99","74.14","NANGMAGVIK LAKE","2500440","2012-02-08 06:00","2012","02","08","06:00","-36.8","","-40.4","","69","","","","14","","11","","","","103.28","","","","-48","","NA"
"-119.99","74.14","NANGMAGVIK LAKE","2500440","2012-02-08 07:00","2012","02","08","07:00","-36.1","","-39.4","","72","","","","15","","19","","","","103.24","","","","-50","","NA"
"-119.99","74.14","NANGMAGVIK LAKE","2500440","2012-02-08 08:00","2012","02","08","08:00","-35.6","","-38.9","","72","","","","13","","20","","","","103.19","","","","-50","","NA"
"-119.99","74.14","NANGMAGVIK LAKE","2500440","2012-02-08 09:00","2012","02","08","09:00","-34.9","","-38.2","","72","","","","14","","22","","","","103.14","","","","-50","","NA"
"-119.99","74.14","NANGMAGVIK LAKE","2500440","2012-02-08 10:00","2012","02","08","10:00","-32.7","","-35.6","","75","","","","14","","20","","","","103.09","","","","-47","","NA"
"-119.99","74.14","NANGMAGVIK LAKE","2500440","2012-02-08 11:00","2012","02","08","11:00","-31.6","","-34.5","","75","","","","14","","19","","","","103.10","","","","-45","","NA"
"-119.99","74.14","NANGMAGVIK LAKE","2500440","2012-02-08 12:00","2012","02","08","12:00","-31.3","","-34.1","","76","","","","14","","22","","","","103.03","","","","-45","","NA"
"-119.99","74.14","NANGMAGVIK LAKE","2500440","2012-02-08 13:00","2012","02","08","13:00","-31.4","","-34.2","","76","","","","15","","19","","","","103.03","","","","-45","","NA"
"-119.99","74.14","NANGMAGVIK LAKE","2500440","2012-02-08 14:00","2012","02","08","14:00","-30.2","","-32.8","","78","","","","15","","17","","","","103.02","","","","-42","","NA"
"-119.99","74.14","NANGMAGVIK LAKE","2500440","2012-02-08 15:00","2012","02","08","15:00","-28.4","","-30.7","","81","","","","16","","15","","","","103.01","","","","-39","","NA"
"-119.99","74.14","NANGMAGVIK LAKE","2500440","2012-02-08 16:00","2012","02","08","16:00","-28.8","","-31.4","","78","","","","12","","17","","","","102.95","","","","-41","","NA"
"-119.99","74.14","NANGMAGVIK LAKE","2500440","2012-02-08 17:00","2012","02","08","17:00","-27.5","","-30.0","","79","","","","13","","22","","","","102.91","","","","-40","","NA"
"-119.99","74.14","NANGMAGVIK LAKE","2500440","2012-02-08 18:00","2012","02","08","18:00","-26.3","","-28.8","","79","","","","16","","24","","","","102.85","","","","-39","","NA"
"-119.99","74.14","NANGMAGVIK LAKE","2500440","2012-02-08 19:00","2012","02","08","19:00","-26.5","","-28.9","","80","","","","17","","30","","","","102.78","","","","-41","","NA"
"-119.99","74.14","NANGMAGVIK LAKE","2500440","2012-02-08 20:00","2012","02","08","20:00","-25.6","","-27.9","","81","","","","16","","30","","","","102.68","","","","-40","","NA"
"-119.99","74.14","NANGMAGVIK LAKE","2500440","2012-02-08 21:00","2012","02","08","21:00","-25.2","","-27.5","","81","","","","17","","41","","","","102.57","","","","-41","","NA"
"-119.99","74.14","NANGMAGVIK LAKE","2500440","2012-02-08 22:00","2012","02","08","22:00","-24.7","","-27.0","","81","","","","17","","50","","","","102.46","","","","-42","","NA"
"-119.99","74.14","NANGMAGVIK LAKE","2500440","2012-02-08 23:00","2012","02","08","23:00","-24.8","","-27.3","","80","","","","16","","35","","","","102.45","","","","-40","","NA"
"-119.99","74.14","NANGMAGVIK LAKE","2500440","2012-02-09 00:00","2012","02","09","00:00","-24.5","","-27.1","","79","","","","16","","43","","","","102.35","","","","-41","","NA"
"-119.99","74.14","NANGMAGVIK LAKE","2500440","2012-02-09 01:00","2012","02","09","01:00","-24.5","","-26.9","","80","","","","15","","43","","","","102.27","","","","-41","","NA"
"-119.99","74.14","NANGMAGVIK LAKE","2500440","2012-02-09 02:00","2012","02","09","02:00","-24.7","","-27.0","","81","","","","14","","43","","","","102.23","","","","-41","","NA"
"-119.99","74.14","NANGMAGVIK LAKE","2500440","2012-02-09 03:00","2012","02","09","03:00","-23.7","","-26.0","","81","","","","16","","50","","","","102.13","","","","-40","","NA"
"-119.99","74.14","NANGMAGVIK LAKE","2500440","2012-02-09 04:00","2012","02","09","04:00","-22.2","","-24.5","","82","","","","12","","41","","","","102.15","","","","-37","","NA"
"-119.99","74.14","NANGMAGVIK LAKE","2500440","2012-02-09 05:00","2012","02","09","05:00","-22.3","","-24.5","","82","","","","16","","52","","","","102.00","","","","-39","","NA"
"-119.99","74.14","NANGMAGVIK LAKE","2500440","2012-02-09 06:00","2012","02","09","06:00","-21.8","","-24.0","","82","","","","16","","44","","","","101.93","","","","-37","","NA"
"-119.99","74.14","NANGMAGVIK LAKE","2500440","2012-02-09 07:00","2012","02","09","07:00","-21.3","","-23.7","","81","","","","17","","59","","","","101.73","","","","-38","","NA"
"-119.99","74.14","NANGMAGVIK LAKE","2500440","2012-02-09 08:00","2012","02","09","08:00","-20.4","","-23.2","","78","","","","16","","41","","","","101.76","","","","-35","","NA"
"-119.99","74.14","NANGMAGVIK LAKE","2500440","2012-02-09 09:00","2012","02","09","09:00","-20.3","","-22.8","","80","","","","16","","39","","","","101.67","","","","-34","","NA"
"-119.99","74.14","NANGMAGVIK LAKE","2500440","2012-02-09 10:00","2012","02","09","10:00","-20.3","","-22.2","","85","","","","16","","39","","","","101.62","","","","-34","","NA"
"-119.99","74.14","NANGMAGVIK LAKE","2500440","2012-02-09 11:00","2012","02","09","11:00","-19.6","","-21.2","","87","","","","16","","43","","","","101.47","","","","-34","","NA"
"-119.99","74.14","NANGMAGVIK LAKE","2500440","2012-02-09 12:00","2012","02","09","12:00","-18.7","","-20.1","","89","","","","18","","57","","","","101.26","","","","-34","","NA"
"-119.99","74.14","NANGMAGVIK LAKE","2500440","2012-02-09 13:00","2012","02","09","13:00","-17.5","","-18.8","","90","","","","16","","44","","","","101.27","","","","-31","","NA"
"-119.99","74.14","NANGMAGVIK LAKE","2500440","2012-02-09 14:00","2012","02","09","14:00","-17.1","","-18.5","","89","","","","16","","43","","","","101.16","","","","-31","","NA"
"-119.99","74.14","NANGMAGVIK LAKE","2500440","2012-02-09 15:00","2012","02","09","15:00","-16.7","","-18.1","","89","","","","14","","35","","","","101.17","","","","-29","","NA"
"-119.99","74.14","NANGMAGVIK LAKE","2500440","2012-02-09 16:00","2012","02","09","16:00","-16.3","","-17.6","","90","","","","16","","41","","","","101.05","","","","-29","","NA"
"-119.99","74.14","NANGMAGVIK LAKE","2500440","2012-02-09 17:00","2012","02","09","17:00","-15.9","","-17.1","","90","","","","17","","54","","","","100.86","","","","-30","","NA"
"-119.99","74.14","NANGMAGVIK LAKE","2500440","2012-02-09 18:00","2012","02","09","18:00","-14.8","","-15.7","","93","","","","18","","39","","","","100.86","","","","-27","","NA"
"-119.99","74.14","NANGMAGVIK LAKE","2500440","2012-02-09 19:00","2012","02","09","19:00","-15.0","","-16.1","","91","","","","18","","32","","","","100.92","","","","-26","","NA"
"-119.99","74.14","NANGMAGVIK LAKE","2500440","2012-02-09 20:00","2012","02","09","20:00","-14.6","","-15.8","","91","","","","19","","30","","","","100.87","","","","-26","","NA"
"-119.99","74.14","NANGMAGVIK LAKE","2500440","2012-02-09 21:00","2012","02","09","21:00","-14.8","","-15.8","","92","","","","14","","22","","","","100.87","","","","-24","","NA"
"-119.99","74.14","NANGMAGVIK LAKE","2500440","2012-02-09 22:00","2012","02","09","22:00","-15.8","","-17.2","","89","","","","18","","24","","","","100.87","","","","-26","","NA"
"-119.99","74.14","NANGMAGVIK LAKE","2500440","2012-02-09 23:00","2012","02","09","23:00","-16.4","","-17.6","","90","","","","18","","22","","","","100.82","","","","-26","","NA"
"-119.99","74.14","NANGMAGVIK LAKE","2500440","2012-02-10 00:00","2012","02","10","00:00","-16.9","","-17.8","","93","","","","17","","20","","","","100.84","","","","-27","","NA"
"-119.99","74.14","NANGMAGVIK LAKE","2500440","2012-02-10 01:00","2012","02","10","01:00","-16.1","","-17.3","","90","","","","17","","15","","","","100.85","","","","-24","","NA"
"-119.99","74.14","NANGMAGVIK LAKE","2500440","2012-02-10 02:00","2012","02","10","02:00","-18.8","","-20.1","","89","","","","15","","17","","","","100.81","","","","-28","","NA"
"-119.99","74.14","NANGMAGVIK LAKE","2500440","2012-02-10 03:00","2012","02","10","03:00","-18.6","","-19.6","","92","","","","14","","17","","","","100.80","","","","-28","","NA"
"-119.99","74.14","NANGMAGVIK LAKE","2500440","2012-02-10 04:00","2012","02","10","04:00","-19.7","","-21.1","","89","","","","15","","11","","","","100.80","","","","-27","","NA"
"-119.99","74.14","NANGMAGVIK LAKE","2500440","2012-02-10 05:00","2012","02","10","05:00","-19.7","","-21.0","","89","","","","14","","19","","","","100.78","","","","-30","","NA"
"-119.99","74.14","NANGMAGVIK LAKE","2500440","2012-02-10 06:00","2012","02","10","06:00","-19.4","","-20.6","","90","","","","15","","19","","","","100.68","","","","-29","","NA"
"-119.99","74.14","NANGMAGVIK LAKE","2500440","2012-02-10 07:00","2012","02","10","07:00","-19.7","","-20.8","","91","","","","16","","15","","","","100.67","","","","-29","","NA"
"-119.99","74.14","NANGMAGVIK LAKE","2500440","2012-02-10 08:00","2012","02","10","08:00","-19.2","","-20.4","","90","","","","14","","19","","","","100.57","","","","-29","","NA"
"-119.99","74.14","NANGMAGVIK LAKE","2500440","2012-02-10 09:00","2012","02","10","09:00","-19.5","","-20.8","","89","","","","16","","15","","","","100.58","","","","-28","","NA"
"-119.99","74.14","NANGMAGVIK LAKE","2500440","2012-02-10 10:00","2012","02","10","10:00","-18.3","","-19.4","","91","","","","15","","2","","","","100.58","","","","-20","","NA"
"-119.99","74.14","NANGMAGVIK LAKE","2500440","2012-02-10 11:00","2012","02","10","11:00","-17.8","","-19.0","","90","","","","15","","6","","","","100.54","","","","-22","","NA"
"-119.99","74.14","NANGMAGVIK LAKE","2500440","2012-02-10 12:00","2012","02","10","12:00","-17.5","","-18.8","","90","","","","16","","13","","","","100.49","","","","-25","","NA"
"-119.99","74.14","NANGMAGVIK LAKE","2500440","2012-02-10 13:00","2012","02","10","13:00","-16.9","","-18.2","","90","","","","15","","17","","","","100.45","","","","-26","","NA"
"-119.99","74.14","NANGMAGVIK LAKE","2500440","2012-02-10 14:00","2012","02","10","14:00","-16.6","","-18.0","","89","","","","15","","17","","","","100.47","","","","-25","","NA"
"-119.99","74.14","NANGMAGVIK LAKE","2500440","2012-02-10 15:00","2012","02","10","15:00","-16.7","","-17.8","","91","","","","14","","11","","","","100.46","","","","-24","","NA"
"-119.99","74.14","NANGMAGVIK LAKE","2500440","2012-02-10 16:00","2012","02","10","16:00","-16.9","","-18.0","","91","","","","14","","13","","","","100.44","","","","-25","","NA"
"-119.99","74.14","NANGMAGVIK LAKE","2500440","2012-02-10 17:00","2012","02","10","17:00","-16.6","","-17.3","","94","","","","12","","9","","","","100.41","","","","-23","","NA"
"-119.99","74.14","NANGMAGVIK LAKE","2500440","2012-02-10 18:00","2012","02","10","18:00","-16.0","","-16.8","","94","","","","13","","6","","","","100.40","","","","-20","","NA"
"-119.99","74.14","NANGMAGVIK LAKE","2500440","2012-02-10 19:00","2012","02","10","19:00","-16.6","","-17.5","","93","","","","14","","4","","","","100.37","","","","-20","","NA"
"-119.99","74.14","NANGMAGVIK LAKE","2500440","2012-02-10 20:00","2012","02","10","20:00","-16.0","","-16.7","","94","","","","22","","4","","","","100.34","","","","-19","","NA"
"-119.99","74.14","NANGMAGVIK LAKE","2500440","2012-02-10 21:00","2012","02","10","21:00","-16.6","","-17.4","","94","","","","4","","6","","","","100.27","","","","-21","","NA"
"-119.99","74.14","NANGMAGVIK LAKE","2500440","2012-02-10 22:00","2012","02","10","22:00","-17.4","","-18.4","","92","","","","7","","24","","","","100.18","","","","-28","","NA"
"-119.99","74.14","NANGMAGVIK LAKE","2500440","2012-02-10 23:00","2012","02","10","23:00","-15.8","","-16.5","","94","","","","9","","15","","","","100.23","","","","-24","","NA"
"-119.99","74.14","NANGMAGVIK LAKE","2500440","2012-02-11 00:00","2012","02","11","00:00","-16.6","","-17.4","","94","","","","27","","4","","","","100.19","","","","-20","","NA"
"-119.99","74.14","NANGMAGVIK LAKE","2500440","2012-02-11 01:00","2012","02","11","01:00","-15.3","","-15.9","","95","","","","19","","4","","","","100.12","","","","-18","","NA"
"-119.99","74.14","NANGMAGVIK LAKE","2500440","2012-02-11 02:00","2012","02","11","02:00","-15.7","","-16.5","","94","","","","31","","2","","","","100.07","","","","-17","","NA"
"-119.99","74.14","NANGMAGVIK LAKE","2500440","2012-02-11 03:00","2012","02","11","03:00","-15.5","","-16.2","","94","","","","27","","2","","","","100.04","","","","-17","","NA"
"-119.99","74.14","NANGMAGVIK LAKE","2500440","2012-02-11 04:00","2012","02","11","04:00","-15.1","","-15.8","","94","","","","13","","2","","","","100.00","","","","-17","","NA"
"-119.99","74.14","NANGMAGVIK LAKE","2500440","2012-02-11 05:00","2012","02","11","05:00","-14.8","","-15.5","","94","","","","9","","19","","","","99.95","","","","-24","","NA"
"-119.99","74.14","NANGMAGVIK LAKE","2500440","2012-02-11 06:00","2012","02","11","06:00","-14.9","","-15.6","","94","","","","12","","6","","","","99.90","","","","-19","","NA"
"-119.99","74.14","NANGMAGVIK LAKE","2500440","2012-02-11 07:00","2012","02","11","07:00","-15.5","","-16.3","","94","","","","10","","19","","","","99.86","","","","-25","","NA"
"-119.99","74.14","NANGMAGVIK LAKE","2500440","2012-02-11 08:00","2012","02","11","08:00","-15.9","","-17.0","","91","","","","8","","11","","","","99.85","","","","-23","","NA"
"-119.99","74.14","NANGMAGVIK LAKE","2500440","2012-02-11 09:00","2012","02","11","09:00","-16.4","","-17.6","","90","","","","7","","15","","","","99.77","","","","-25","","NA"
"-119.99","74.14","NANGMAGVIK LAKE","2500440","2012-02-11 10:00","2012","02","11","10:00","-16.4","","-18.0","","87","","","","2","","9","","","","99.72","","","","-22","","NA"
"-119.99","74.14","NANGMAGVIK LAKE","2500440","2012-02-11 11:00","2012","02","11","11:00","-17.2","","-18.3","","91","","","","2","","6","","","","99.69","","","","-22","","NA"
"-119.99","74.14","NANGMAGVIK LAKE","2500440","2012-02-11 12:00","2012","02","11","12:00","-17.0","","-18.3","","90","","","","26","","2","","","","99.65","","","","-19","","NA"
"-119.99","74.14","NANGMAGVIK LAKE","2500440","2012-02-11 13:00","2012","02","11","13:00","-17.5","","-18.8","","90","","","","34","","9","","","","99.62","","","","-24","","NA"
"-119.99","74.14","NANGMAGVIK LAKE","2500440","2012-02-11 14:00","2012","02","11","14:00","-18.0","","-19.3","","90","","","","32","","7","","","","99.61","","","","-23","","NA"
"-119.99","74.14","NANGMAGVIK LAKE","2500440","2012-02-11 15:00","2012","02","11","15:00","-18.5","","-19.8","","89","","","","33","","6","","","","99.62","","","","-23","","NA"
"-119.99","74.14","NANGMAGVIK LAKE","2500440","2012-02-11 16:00","2012","02","11","16:00","-18.1","","-19.4","","90","","","","","","0","","","","99.57","","","","","","NA"
"-119.99","74.14","NANGMAGVIK LAKE","2500440","2012-02-11 17:00","2012","02","11","17:00","-17.7","","-18.9","","90","","","","26","","4","","","","99.54","","","","-21","","NA"
"-119.99","74.14","NANGMAGVIK LAKE","2500440","2012-02-11 18:00","2012","02","11","18:00","-17.2","","-18.4","","90","","","","4","","4","","","","99.50","","","","-20","","NA"
"-119.99","74.14","NANGMAGVIK LAKE","2500440","2012-02-11 19:00","2012","02","11","19:00","-17.1","","-18.3","","90","","","","31","","7","","","","99.48","","","","-22","","NA"
"-119.99","74.14","NANGMAGVIK LAKE","2500440","2012-02-11 20:00","2012","02","11","20:00","-17.8","","-19.0","","90","","","","30","","6","","","","99.46","","","","-22","","NA"
"-119.99","74.14","NANGMAGVIK LAKE","2500440","2012-02-11 21:00","2012","02","11","21:00","-18.3","","-19.6","","89","","","","4","","2","","","","99.42","","","","-20","","NA"
"-119.99","74.14","NANGMAGVIK LAKE","2500440","2012-02-11 22:00","2012","02","11","22:00","-17.9","","-19.1","","90","","","","10","","6","","","","99.39","","","","-23","","NA"
"-119.99","74.14","NANGMAGVIK LAKE","2500440","2012-02-11 23:00","2012","02","11","23:00","-17.5","","-19.1","","87","","","","20","","9","","","","99.37","","","","-24","","NA"
"-119.99","74.14","NANGMAGVIK LAKE","2500440","2012-02-12 00:00","2012","02","12","00:00","-17.5","","-19.2","","87","","","","22","","9","","","","99.37","","","","-24","","NA"
"-119.99","74.14","NANGMAGVIK LAKE","2500440","2012-02-12 01:00","2012","02","12","01:00","-17.4","","-19.1","","87","","","","18","","6","","","","99.36","","","","-22","","NA"
"-119.99","74.14","NANGMAGVIK LAKE","2500440","2012-02-12 02:00","2012","02","12","02:00","-17.4","","-19.0","","87","","","","16","","6","","","","99.33","","","","-22","","NA"
"-119.99","74.14","NANGMAGVIK LAKE","2500440","2012-02-12 03:00","2012","02","12","03:00","-17.5","","-19.2","","87","","","","21","","7","","","","99.37","","","","-23","","NA"
"-119.99","74.14","NANGMAGVIK LAKE","2500440","2012-02-12 04:00","2012","02","12","04:00","-17.7","","-19.5","","86","","","","21","","13","","","","99.37","","","","-26","","NA"
"-119.99","74.14","NANGMAGVIK LAKE","2500440","2012-02-12 05:00","2012","02","12","05:00","-17.7","","-19.5","","86","","","","19","","7","","","","99.37","","","","-23","","NA"
"-119.99","74.14","NANGMAGVIK LAKE","2500440","2012-02-12 06:00","2012","02","12","06:00","-17.9","","-19.9","","84","","","","21","","13","","","","99.36","","","","-26","","NA"
"-119.99","74.14","NANGMAGVIK LAKE","2500440","2012-02-12 07:00","2012","02","12","07:00","-18.3","","-20.4","","84","","","","19","","15","","","","99.31","","","","-27","","NA"
"-119.99","74.14","NANGMAGVIK LAKE","2500440","2012-02-12 08:00","2012","02","12","08:00","-19.6","","-21.6","","84","","","","19","","15","","","","99.32","","","","-29","","NA"
"-119.99","74.14","NANGMAGVIK LAKE","2500440","2012-02-12 09:00","2012","02","12","09:00","-19.8","","-21.8","","84","","","","17","","15","","","","99.29","","","","-29","","NA"
"-119.99","74.14","NANGMAGVIK LAKE","2500440","2012-02-12 10:00","2012","02","12","10:00","-19.1","","-21.2","","83","","","","18","","20","","","","99.28","","","","-29","","NA"
"-119.99","74.14","NANGMAGVIK LAKE","2500440","2012-02-12 11:00","2012","02","12","11:00","-19.1","","-21.2","","83","","","","19","","20","","","","99.31","","","","-29","","NA"
"-119.99","74.14","NANGMAGVIK LAKE","2500440","2012-02-12 12:00","2012","02","12","12:00","-19.1","","-21.1","","84","","","","19","","19","","","","99.32","","","","-29","","NA"
"-119.99","74.14","NANGMAGVIK LAKE","2500440","2012-02-12 13:00","2012","02","12","13:00","-19.7","","-21.6","","85","","","","19","","19","","","","99.34","","","","-30","","NA"
"-119.99","74.14","NANGMAGVIK LAKE","2500440","2012-02-12 14:00","2012","02","12","14:00","-19.5","","-21.4","","85","","","","18","","17","","","","99.36","","","","-29","","NA"
"-119.99","74.14","NANGMAGVIK LAKE","2500440","2012-02-12 15:00","2012","02","12","15:00","-19.3","","-21.3","","84","","","","18","","19","","","","99.39","","","","-29","","NA"
"-119.99","74.14","NANGMAGVIK LAKE","2500440","2012-02-12 16:00","2012","02","12","16:00","-19.3","","-21.4","","83","","","","18","","19","","","","99.42","","","","-29","","NA"
"-119.99","74.14","NANGMAGVIK LAKE","2500440","2012-02-12 17:00","2012","02","12","17:00","-19.3","","-21.3","","84","","","","17","","19","","","","99.43","","","","-29","","NA"
"-119.99","74.14","NANGMAGVIK LAKE","2500440","2012-02-12 18:00","2012","02","12","18:00","-19.3","","-21.3","","84","","","","17","","19","","","","99.41","","","","-29","","NA"
"-119.99","74.14","NANGMAGVIK LAKE","2500440","2012-02-12 19:00","2012","02","12","19:00","-19.1","","-21.0","","85","","","","16","","15","","","","99.39","","","","-28","","NA"
"-119.99","74.14","NANGMAGVIK LAKE","2500440","2012-02-12 20:00","2012","02","12","20:00","-19.1","","-21.0","","85","","","","18","","17","","","","99.38","","","","-29","","NA"
"-119.99","74.14","NANGMAGVIK LAKE","2500440","2012-02-12 21:00","2012","02","12","21:00","-19.0","","-20.9","","85","","","","18","","15","","","","99.41","","","","-28","","NA"
"-119.99","74.14","NANGMAGVIK LAKE","2500440","2012-02-12 22:00","2012","02","12","22:00","-18.9","","-20.8","","85","","","","19","","19","","","","99.45","","","","-29","","NA"
"-119.99","74.14","NANGMAGVIK LAKE","2500440","2012-02-12 23:00","2012","02","12","23:00","-18.9","","-20.7","","86","","","","19","","15","","","","99.49","","","","-28","","NA"
"-119.99","74.14","NANGMAGVIK LAKE","2500440","2012-02-13 00:00","2012","02","13","00:00","-18.9","","-20.7","","86","","","","18","","11","","","","99.53","","","","-26","","NA"
"-119.99","74.14","NANGMAGVIK LAKE","2500440","2012-02-13 01:00","2012","02","13","01:00","-19.0","","-20.8","","86","","","","19","","13","","","","99.58","","","","-27","","NA"
"-119.99","74.14","NANGMAGVIK LAKE","2500440","2012-02-13 02:00","2012","02","13","02:00","-18.9","","-20.6","","86","","","","18","","9","","","","99.58","","","","-25","","NA"
"-119.99","74.14","NANGMAGVIK LAKE","2500440","2012-02-13 03:00","2012","02","13","03:00","-18.8","","-20.5","","86","","","","18","","9","","","","99.65","","","","-25","","NA"
"-119.99","74.14","NANGMAGVIK LAKE","2500440","2012-02-13 04:00","2012","02","13","04:00","-18.9","","-20.4","","88","","","","18","","7","","","","99.68","","","","-24","","NA"
"-119.99","74.14","NANGMAGVIK LAKE","2500440","2012-02-13 05:00","2012","02","13","05:00","-18.5","","-20.1","","87","","","","13","","6","","","","99.73","","","","-23","","NA"
"-119.99","74.14","NANGMAGVIK LAKE","2500440","2012-02-13 06:00","2012","02","13","06:00","-18.3","","-19.7","","89","","","","13","","7","","","","99.76","","","","-24","","NA"
"-119.99","74.14","NANGMAGVIK LAKE","2500440","2012-02-13 07:00","2012","02","13","07:00","-18.2","","-19.6","","89","","","","12","","7","","","","99.81","","","","-24","","NA"
"-119.99","74.14","NANGMAGVIK LAKE","2500440","2012-02-13 08:00","2012","02","13","08:00","-18.0","","-19.4","","89","","","","12","","6","","","","99.81","","","","-23","","NA"
"-119.99","74.14","NANGMAGVIK LAKE","2500440","2012-02-13 09:00","2012","02","13","09:00","-17.2","","-18.5","","90","","","","34","","11","","","","99.88","","","","-24","","NA"
"-119.99","74.14","NANGMAGVIK LAKE","2500440","2012-02-13 10:00","2012","02","13","10:00","-17.5","","-18.7","","90","","","","33","","13","","","","99.94","","","","-25","","NA"
"-119.99","74.14","NANGMAGVIK LAKE","2500440","2012-02-13 11:00","2012","02","13","11:00","-17.9","","-19.3","","89","","","","32","","11","","","","100.03","","","","-25","","NA"
"-119.99","74.14","NANGMAGVIK LAKE","2500440","2012-02-13 12:00","2012","02","13","12:00","-17.8","","-19.1","","90","","","","32","","11","","","","100.07","","","","-25","","NA"
"-119.99","74.14","NANGMAGVIK LAKE","2500440","2012-02-13 13:00","2012","02","13","13:00","-17.8","","-19.2","","89","","","","32","","11","","","","100.11","","","","-25","","NA"
"-119.99","74.14","NANGMAGVIK LAKE","2500440","2012-02-13 14:00","2012","02","13","14:00","-17.8","","-19.3","","88","","","","33","","11","","","","100.17","","","","-25","","NA"
"-119.99","74.14","NANGMAGVIK LAKE","2500440","2012-02-13 15:00","2012","02","13","15:00","-17.5","","-19.1","","87","","","","32","","9","","","","100.22","","","","-24","","NA"
"-119.99","74.14","NANGMAGVIK LAKE","2500440","2012-02-13 16:00","2012","02","13","16:00","-17.9","","-19.3","","89","","","","34","","15","","","","100.28","","","","-26","","NA"
"-119.99","74.14","NANGMAGVIK LAKE","2500440","2012-02-13 17:00","2012","02","13","17:00","-18.4","","-19.8","","89","","","","36","","13","","","","100.30","","","","-26","","NA"
"-119.99","74.14","NANGMAGVIK LAKE","2500440","2012-02-13 18:00","2012","02","13","18:00","-18.4","","-19.7","","89","","","","35","","13","","","","100.35","","","","-26","","NA"
"-119.99","74.14","NANGMAGVIK LAKE","2500440","2012-02-13 19:00","2012","02","13","19:00","-18.3","","-19.6","","89","","","","34","","9","","","","100.38","","","","-25","","NA"
"-119.99","74.14","NANGMAGVIK LAKE","2500440","2012-02-13 20:00","2012","02","13","20:00","-18.4","","-19.7","","89","","","","34","","9","","","","100.40","","","","-25","","NA"
"-119.99","74.14","NANGMAGVIK LAKE","2500440","2012-02-13 21:00","2012","02","13","21:00","-18.5","","-19.7","","90","","","","32","","6","","","","100.40","","","","-23","","NA"
"-119.99","74.14","NANGMAGVIK LAKE","2500440","2012-02-13 22:00","2012","02","13","22:00","-18.9","","-20.1","","90","","","","3","","2","","","","100.39","","","","-21","","NA"
"-119.99","74.14","NANGMAGVIK LAKE","2500440","2012-02-13 23:00","2012","02","13","23:00","-19.0","","-20.2","","90","","","","2","","6","","","","100.41","","","","-24","","NA"
"-119.99","74.14","NANGMAGVIK LAKE","2500440","2012-02-14 00:00","2012","02","14","00:00","-18.9","","-20.1","","90","","","","1","","2","","","","100.44","","","","-21","","NA"
"-119.99","74.14","NANGMAGVIK LAKE","2500440","2012-02-14 01:00","2012","02","14","01:00","-18.9","","-20.0","","91","","","","27","","2","","","","100.47","","","","-21","","NA"
"-119.99","74.14","NANGMAGVIK LAKE","2500440","2012-02-14 02:00","2012","02","14","02:00","-18.9","","-20.0","","91","","","","","","0","","","","100.51","","","","","","NA"
"-119.99","74.14","NANGMAGVIK LAKE","2500440","2012-02-14 03:00","2012","02","14","03:00","-19.3","","-20.6","","89","","","","13","","2","","","","100.51","","","","-21","","NA"
"-119.99","74.14","NANGMAGVIK LAKE","2500440","2012-02-14 04:00","2012","02","14","04:00","-19.2","","-20.4","","90","","","","1","","4","","","","100.48","","","","-23","","NA"
"-119.99","74.14","NANGMAGVIK LAKE","2500440","2012-02-14 05:00","2012","02","14","05:00","-18.8","","-19.8","","92","","","","3","","7","","","","100.49","","","","-24","","NA"
"-119.99","74.14","NANGMAGVIK LAKE","2500440","2012-02-14 06:00","2012","02","14","06:00","-19.2","","-20.3","","91","","","","36","","6","","","","100.47","","","","-24","","NA"
"-119.99","74.14","NANGMAGVIK LAKE","2500440","2012-02-14 07:00","2012","02","14","07:00","-19.2","","-20.3","","91","","","","","","0","","","","100.49","","","","","","NA"
"-119.99","74.14","NANGMAGVIK LAKE","2500440","2012-02-14 08:00","2012","02","14","08:00","-19.4","","-20.5","","91","","","","","","0","","","","100.47","","","","","","NA"
"-119.99","74.14","NANGMAGVIK LAKE","2500440","2012-02-14 09:00","2012","02","14","09:00","-19.0","","-20.1","","91","","","","6","","2","","","","100.46","","","","-21","","NA"
"-119.99","74.14","NANGMAGVIK LAKE","2500440","2012-02-14 10:00","2012","02","14","10:00","-18.9","","-20.0","","91","","","","24","","6","","","","100.48","","","","-24","","NA"
"-119.99","74.14","NANGMAGVIK LAKE","2500440","2012-02-14 11:00","2012","02","14","11:00","-19.0","","-20.2","","90","","","","22","","4","","","","100.48","","","","-22","","NA"
"-119.99","74.14","NANGMAGVIK LAKE","2500440","2012-02-14 12:00","2012","02","14","12:00","-19.1","","-20.3","","90","","","","23","","2","","","","100.48","","","","-21","","NA"
"-119.99","74.14","NANGMAGVIK LAKE","2500440","2012-02-14 13:00","2012","02","14","13:00","-19.2","","-20.4","","90","","","","20","","6","","","","100.48","","","","-24","","NA"
"-119.99","74.14","NANGMAGVIK LAKE","2500440","2012-02-14 14:00","2012","02","14","14:00","-19.5","","-20.8","","89","","","","17","","6","","","","100.50","","","","-24","","NA"
"-119.99","74.14","NANGMAGVIK LAKE","2500440","2012-02-14 15:00","2012","02","14","15:00","-19.0","","-20.2","","90","","","","27","","2","","","","100.48","","","","-21","","NA"
"-119.99","74.14","NANGMAGVIK LAKE","2500440","2012-02-14 16:00","2012","02","14","16:00","-19.3","","-20.5","","90","","","","","","0","","","","100.51","","","","","","NA"
"-119.99","74.14","NANGMAGVIK LAKE","2500440","2012-02-14 17:00","2012","02","14","17:00","-20.1","","-21.4","","89","","","","34","","7","","","","100.55","","","","-26","","NA"
"-119.99","74.14","NANGMAGVIK LAKE","2500440","2012-02-14 18:00","2012","02","14","18:00","-20.3","","-21.6","","89","","","","36","","6","","","","100.54","","","","-25","","NA"
"-119.99","74.14","NANGMAGVIK LAKE","2500440","2012-02-14 19:00","2012","02","14","19:00","-20.6","","-22.0","","89","","","","1","","7","","","","100.55","","","","-26","","NA"
"-119.99","74.14","NANGMAGVIK LAKE","2500440","2012-02-14 20:00","2012","02","14","20:00","-21.6","","-23.1","","88","","","","2","","9","","","","100.57","","","","-29","","NA"
"-119.99","74.14","NANGMAGVIK LAKE","2500440","2012-02-14 21:00","2012","02","14","21:00","-23.3","","-24.9","","87","","","","32","","4","","","","100.59","","","","-27","","NA"
"-119.99","74.14","NANGMAGVIK LAKE","2500440","2012-02-14 22:00","2012","02","14","22:00","-25.4","","-27.2","","85","","","","32","","2","","","","100.61","","","","-27","","NA"
"-119.99","74.14","NANGMAGVIK LAKE","2500440","2012-02-14 23:00","2012","02","14","23:00","-27.6","","-29.8","","81","","","","26","","2","","","","100.63","","","","-30","","NA"
"-119.99","74.14","NANGMAGVIK LAKE","2500440","2012-02-15 00:00","2012","02","15","00:00","-31.5","","-34.2","","77","","","","","","0","","","","100.67","","","","","","NA"
"-119.99","74.14","NANGMAGVIK LAKE","2500440","2012-02-15 01:00","2012","02","15","01:00","-29.7","","-32.0","","80","","","","17","","6","","","","100.73","","","","-36","","NA"
"-119.99","74.14","NANGMAGVIK LAKE","2500440","2012-02-15 02:00","2012","02","15","02:00","-31.3","","-33.9","","78","","","","15","","7","","","","100.75","","","","-39","","NA"
"-119.99","74.14","NANGMAGVIK LAKE","2500440","2012-02-15 03:00","2012","02","15","03:00","-32.3","","-35.2","","75","","","","14","","9","","","","100.78","","","","-41","","NA"
"-119.99","74.14","NANGMAGVIK LAKE","2500440","2012-02-15 04:00","2012","02","15","04:00","-33.3","","-36.4","","74","","","","14","","7","","","","100.80","","","","-41","","NA"
"-119.99","74.14","NANGMAGVIK LAKE","2500440","2012-02-15 05:00","2012","02","15","05:00","-34.6","","-37.7","","73","","","","15","","9","","","","100.81","","","","-44","","NA"
"-119.99","74.14","NANGMAGVIK LAKE","2500440","2012-02-15 06:00","2012","02","15","06:00","-33.8","","-36.8","","74","","","","14","","11","","","","100.83","","","","-44","","NA"
"-119.99","74.14","NANGMAGVIK LAKE","2500440","2012-02-15 07:00","2012","02","15","07:00","-33.4","","-36.4","","74","","","","14","","11","","","","100.86","","","","-44","","NA"
"-119.99","74.14","NANGMAGVIK LAKE","2500440","2012-02-15 08:00","2012","02","15","08:00","-33.0","","-35.9","","75","","","","14","","11","","","","100.87","","","","-43","","NA"
"-119.99","74.14","NANGMAGVIK LAKE","2500440","2012-02-15 09:00","2012","02","15","09:00","-32.1","","-34.9","","76","","","","13","","15","","","","100.87","","","","-44","","NA"
"-119.99","74.14","NANGMAGVIK LAKE","2500440","2012-02-15 10:00","2012","02","15","10:00","-33.8","","-36.8","","74","","","","14","","13","","","","100.88","","","","-45","","NA"
"-119.99","74.14","NANGMAGVIK LAKE","2500440","2012-02-15 11:00","2012","02","15","11:00","-33.9","","-36.9","","74","","","","14","","13","","","","100.94","","","","-45","","NA"
"-119.99","74.14","NANGMAGVIK LAKE","2500440","2012-02-15 12:00","2012","02","15","12:00","-29.2","","-31.7","","79","","","","13","","13","","","","100.96","","","","-40","","NA"
"-119.99","74.14","NANGMAGVIK LAKE","2500440","2012-02-15 13:00","2012","02","15","13:00","-27.3","","-29.6","","81","","","","13","","13","","","","100.94","","","","-37","","NA"
"-119.99","74.14","NANGMAGVIK LAKE","2500440","2012-02-15 14:00","2012","02","15","14:00","-26.6","","-28.8","","82","","","","13","","13","","","","100.98","","","","-36","","NA"
"-119.99","74.14","NANGMAGVIK LAKE","2500440","2012-02-15 15:00","2012","02","15","15:00","-28.2","","-30.5","","81","","","","13","","17","","","","101.03","","","","-40","","NA"
"-119.99","74.14","NANGMAGVIK LAKE","2500440","2012-02-15 16:00","2012","02","15","16:00","-30.5","","-33.1","","78","","","","13","","13","","","","101.05","","","","-41","","NA"
"-119.99","74.14","NANGMAGVIK LAKE","2500440","2012-02-15 17:00","2012","02","15","17:00","-31.1","","-33.8","","77","","","","13","","15","","","","101.09","","","","-43","","NA"
"-119.99","74.14","NANGMAGVIK LAKE","2500440","2012-02-15 18:00","2012","02","15","18:00","-32.5","","-35.3","","76","","","","14","","15","","","","101.12","","","","-44","","NA"
"-119.99","74.14","NANGMAGVIK LAKE","2500440","2012-02-15 19:00","2012","02","15","19:00","-33.0","","-35.9","","75","","","","16","","13","","","","101.13","","","","-44","","NA"
"-119.99","74.14","NANGMAGVIK LAKE","2500440","2012-02-15 20:00","2012","02","15","20:00","-33.0","","-35.9","","75","","","","15","","15","","","","101.14","","","","-45","","NA"
"-119.99","74.14","NANGMAGVIK LAKE","2500440","2012-02-15 21:00","2012","02","15","21:00","-33.0","","-36.0","","74","","","","14","","13","","","","101.14","","","","-44","","NA"
"-119.99","74.14","NANGMAGVIK LAKE","2500440","2012-02-15 22:00","2012","02","15","22:00","-32.9","","-36.0","","74","","","","14","","17","","","","101.17","","","","-46","","NA"
"-119.99","74.14","NANGMAGVIK LAKE","2500440","2012-02-15 23:00","2012","02","15","23:00","-33.5","","-36.5","","74","","","","14","","17","","","","101.20","","","","-46","","NA"
"-119.99","74.14","NANGMAGVIK LAKE","2500440","2012-02-16 00:00","2012","02","16","00:00","-33.5","","-36.5","","74","","","","15","","17","","","","101.21","","","","-46","","NA"
"-119.99","74.14","NANGMAGVIK LAKE","2500440","2012-02-16 01:00","2012","02","16","01:00","-32.2","","-35.0","","76","","","","14","","15","","","","101.21","","","","-44","","NA"
"-119.99","74.14","NANGMAGVIK LAKE","2500440","2012-02-16 02:00","2012","02","16","02:00","-33.0","","-36.0","","74","","","","14","","19","","","","101.22","","","","-47","","NA"
"-119.99","74.14","NANGMAGVIK LAKE","2500440","2012-02-16 03:00","2012","02","16","03:00","-32.6","","-35.4","","76","","","","14","","17","","","","101.23","","","","-45","","NA"
"-119.99","74.14","NANGMAGVIK LAKE","2500440","2012-02-16 04:00","2012","02","16","04:00","-30.9","","-33.6","","77","","","","14","","13","","","","101.23","","","","-42","","NA"
"-119.99","74.14","NANGMAGVIK LAKE","2500440","2012-02-16 05:00","2012","02","16","05:00","-31.6","","-34.3","","77","","","","14","","17","","","","101.25","","","","-44","","NA"
"-119.99","74.14","NANGMAGVIK LAKE","2500440","2012-02-16 06:00","2012","02","16","06:00","-31.4","","-34.1","","77","","","","15","","13","","","","101.22","","","","-42","","NA"
"-119.99","74.14","NANGMAGVIK LAKE","2500440","2012-02-16 07:00","2012","02","16","07:00","-30.5","","-33.1","","78","","","","14","","15","","","","101.19","","","","-42","","NA"
"-119.99","74.14","NANGMAGVIK LAKE","2500440","2012-02-16 08:00","2012","02","16","08:00","-28.6","","-31.0","","80","","","","14","","19","","","","101.20","","","","-41","","NA"
"-119.99","74.14","NANGMAGVIK LAKE","2500440","2012-02-16 09:00","2012","02","16","09:00","-26.9","","-29.1","","82","","","","14","","15","","","","101.19","","","","-38","","NA"
"-119.99","74.14","NANGMAGVIK LAKE","2500440","2012-02-16 10:00","2012","02","16","10:00","-26.0","","-28.1","","82","","","","14","","15","","","","101.22","","","","-36","","NA"
"-119.99","74.14","NANGMAGVIK LAKE","2500440","2012-02-16 11:00","2012","02","16","11:00","-25.6","","-27.6","","83","","","","13","","11","","","","101.21","","","","-34","","NA"
"-119.99","74.14","NANGMAGVIK LAKE","2500440","2012-02-16 12:00","2012","02","16","12:00","-25.4","","-27.4","","83","","","","13","","11","","","","101.25","","","","-34","","NA"
"-119.99","74.14","NANGMAGVIK LAKE","2500440","2012-02-16 13:00","2012","02","16","13:00","-24.7","","-26.6","","84","","","","11","","9","","","","101.25","","","","-32","","NA"
"-119.99","74.14","NANGMAGVIK LAKE","2500440","2012-02-16 14:00","2012","02","16","14:00","-24.5","","-26.4","","84","","","","14","","7","","","","101.26","","","","-31","","NA"
"-119.99","74.14","NANGMAGVIK LAKE","2500440","2012-02-16 15:00","2012","02","16","15:00","-23.7","","-25.5","","85","","","","13","","2","","","","101.27","","","","-26","","NA"
"-119.99","74.14","NANGMAGVIK LAKE","2500440","2012-02-16 16:00","2012","02","16","16:00","-23.4","","-25.1","","86","","","","","","0","","","","101.25","","","","","","NA"
"-119.99","74.14","NANGMAGVIK LAKE","2500440","2012-02-16 17:00","2012","02","16","17:00","-23.0","","-24.7","","86","","","","31","","2","","","","101.25","","","","-25","","NA"
"-119.99","74.14","NANGMAGVIK LAKE","2500440","2012-02-16 18:00","2012","02","16","18:00","-22.9","","-24.6","","86","","","","18","","4","","","","101.26","","","","-27","","NA"
"-119.99","74.14","NANGMAGVIK LAKE","2500440","2012-02-16 19:00","2012","02","16","19:00","-24.2","","-26.1","","84","","","","","","0","","","","101.28","","","","","","NA"
"-119.99","74.14","NANGMAGVIK LAKE","2500440","2012-02-16 20:00","2012","02","16","20:00","-25.5","","-27.5","","83","","","","33","","7","","","","101.24","","","","-32","","NA"
"-119.99","74.14","NANGMAGVIK LAKE","2500440","2012-02-16 21:00","2012","02","16","21:00","-27.4","","-29.6","","81","","","","36","","6","","","","101.26","","","","-34","","NA"
"-119.99","74.14","NANGMAGVIK LAKE","2500440","2012-02-16 22:00","2012","02","16","22:00","-29.0","","-31.4","","80","","","","35","","9","","","","101.27","","","","-37","","NA"
"-119.99","74.14","NANGMAGVIK LAKE","2500440","2012-02-16 23:00","2012","02","16","23:00","-31.3","","-34.1","","76","","","","2","","4","","","","101.31","","","","-36","","NA"
"-119.99","74.14","NANGMAGVIK LAKE","2500440","2012-02-17 00:00","2012","02","17","00:00","-32.3","","-35.2","","75","","","","34","","6","","","","101.30","","","","-39","","NA"
"-119.99","74.14","NANGMAGVIK LAKE","2500440","2012-02-17 01:00","2012","02","17","01:00","-32.6","","-35.4","","76","","","","34","","2","","","","101.31","","","","-35","","NA"
"-119.99","74.14","NANGMAGVIK LAKE","2500440","2012-02-17 02:00","2012","02","17","02:00","-33.0","","-35.9","","75","","","","30","","2","","","","101.33","","","","-35","","NA"
"-119.99","74.14","NANGMAGVIK LAKE","2500440","2012-02-17 03:00","2012","02","17","03:00","-34.4","","-37.5","","73","","","","33","","4","","","","101.33","","","","-39","","NA"
"-119.99","74.14","NANGMAGVIK LAKE","2500440","2012-02-17 04:00","2012","02","17","04:00","-34.0","","-37.1","","73","","","","33","","7","","","","101.32","","","","-42","","NA"
"-119.99","74.14","NANGMAGVIK LAKE","2500440","2012-02-17 05:00","2012","02","17","05:00","-34.6","","-37.7","","73","","","","35","","11","","","","101.34","","","","-45","","NA"
"-119.99","74.14","NANGMAGVIK LAKE","2500440","2012-02-17 06:00","2012","02","17","06:00","-34.9","","-38.2","","72","","","","34","","9","","","","101.35","","","","-44","","NA"
"-119.99","74.14","NANGMAGVIK LAKE","2500440","2012-02-17 07:00","2012","02","17","07:00","-35.9","","-39.2","","72","","","","29","","4","","","","101.37","","","","-41","","NA"
"-119.99","74.14","NANGMAGVIK LAKE","2500440","2012-02-17 08:00","2012","02","17","08:00","-34.7","","-37.9","","73","","","","36","","9","","","","101.38","","","","-44","","NA"
"-119.99","74.14","NANGMAGVIK LAKE","2500440","2012-02-17 09:00","2012","02","17","09:00","-36.2","","-39.6","","71","","","","31","","4","","","","101.38","","","","-41","","NA"
"-119.99","74.14","NANGMAGVIK LAKE","2500440","2012-02-17 10:00","2012","02","17","10:00","-36.5","","-39.9","","71","","","","35","","6","","","","101.39","","","","-44","","NA"
"-119.99","74.14","NANGMAGVIK LAKE","2500440","2012-02-17 11:00","2012","02","17","11:00","-36.5","","-40.0","","70","","","","31","","4","","","","101.41","","","","-42","","NA"
"-119.99","74.14","NANGMAGVIK LAKE","2500440","2012-02-17 12:00","2012","02","17","12:00","-36.1","","-39.5","","71","","","","32","","6","","","","101.45","","","","-44","","NA"
"-119.99","74.14","NANGMAGVIK LAKE","2500440","2012-02-17 13:00","2012","02","17","13:00","-36.7","","-40.2","","70","","","","33","","4","","","","101.48","","","","-42","","NA"
"-119.99","74.14","NANGMAGVIK LAKE","2500440","2012-02-17 14:00","2012","02","17","14:00","-35.4","","-38.7","","72","","","","34","","6","","","","101.52","","","","-43","","NA"
"-119.99","74.14","NANGMAGVIK LAKE","2500440","2012-02-17 15:00","2012","02","17","15:00","-35.7","","-39.2","","70","","","","34","","6","","","","101.55","","","","-43","","NA"
"-119.99","74.14","NANGMAGVIK LAKE","2500440","2012-02-17 16:00","2012","02","17","16:00","-36.5","","-39.9","","71","","","","32","","4","","","","101.59","","","","-42","","NA"
"-119.99","74.14","NANGMAGVIK LAKE","2500440","2012-02-17 17:00","2012","02","17","17:00","-36.5","","-40.0","","70","","","","34","","7","","","","101.63","","","","-45","","NA"
"-119.99","74.14","NANGMAGVIK LAKE","2500440","2012-02-17 18:00","2012","02","17","18:00","-35.7","","-39.0","","72","","","","36","","7","","","","101.64","","","","-44","","NA"
"-119.99","74.14","NANGMAGVIK LAKE","2500440","2012-02-17 19:00","2012","02","17","19:00","-36.5","","-40.0","","70","","","","35","","6","","","","101.68","","","","-44","","NA"
"-119.99","74.14","NANGMAGVIK LAKE","2500440","2012-02-17 20:00","2012","02","17","20:00","-37.2","","-40.7","","70","","","","33","","4","","","","101.70","","","","-42","","NA"
"-119.99","74.14","NANGMAGVIK LAKE","2500440","2012-02-17 21:00","2012","02","17","21:00","-37.2","","-40.7","","70","","","","36","","6","","","","101.72","","","","-45","","NA"
"-119.99","74.14","NANGMAGVIK LAKE","2500440","2012-02-17 22:00","2012","02","17","22:00","-38.1","","-41.8","","68","","","","","","0","","","","101.74","","","","","","NA"
"-119.99","74.14","NANGMAGVIK LAKE","2500440","2012-02-17 23:00","2012","02","17","23:00","-38.8","","-42.5","","68","","","","","","0","","","","101.76","","","","","","NA"
"-119.99","74.14","NANGMAGVIK LAKE","2500440","2012-02-18 00:00","2012","02","18","00:00","-38.9","","-42.6","","68","","","","","","0","","","","101.81","","","","","","NA"
"-119.99","74.14","NANGMAGVIK LAKE","2500440","2012-02-18 01:00","2012","02","18","01:00","-39.3","","-43.1","","67","","","","","","0","","","","101.83","","","","","","NA"
"-119.99","74.14","NANGMAGVIK LAKE","2500440","2012-02-18 02:00","2012","02","18","02:00","-42.0","","-46.1","","64","","","","","","0","","","","101.88","","","","","","NA"
"-119.99","74.14","NANGMAGVIK LAKE","2500440","2012-02-18 03:00","2012","02","18","03:00","-42.8","","-47.1","","63","","","","","","0","","","","101.93","","","","","","NA"
"-119.99","74.14","NANGMAGVIK LAKE","2500440","2012-02-18 04:00","2012","02","18","04:00","-42.4","","-46.6","","63","","","","16","","4","","","","101.98","","","","-48","","NA"
"-119.99","74.14","NANGMAGVIK LAKE","2500440","2012-02-18 05:00","2012","02","18","05:00","-40.9","","-45.0","","65","","","","20","","2","","","","101.98","","","","-44","","NA"
"-119.99","74.14","NANGMAGVIK LAKE","2500440","2012-02-18 06:00","2012","02","18","06:00","-41.4","","-45.4","","65","","","","","","0","","","","101.98","","","","","","NA"
"-119.99","74.14","NANGMAGVIK LAKE","2500440","2012-02-18 07:00","2012","02","18","07:00","-41.2","","-45.3","","64","","","","15","","6","","","","102.01","","","","-49","","NA"
"-119.99","74.14","NANGMAGVIK LAKE","2500440","2012-02-18 08:00","2012","02","18","08:00","-43.8","","-48.2","","62","","","","16","","6","","","","102.03","","","","-52","","NA"
"-119.99","74.14","NANGMAGVIK LAKE","2500440","2012-02-18 09:00","2012","02","18","09:00","-42.5","","-46.8","","63","","","","18","","2","","","","102.05","","","","-45","","NA"
"-119.99","74.14","NANGMAGVIK LAKE","2500440","2012-02-18 10:00","2012","02","18","10:00","-43.7","","-48.2","","61","","","","16","","6","","","","102.06","","","","-52","","NA"
"-119.99","74.14","NANGMAGVIK LAKE","2500440","2012-02-18 11:00","2012","02","18","11:00","-43.1","","-47.5","","62","","","","14","","6","","","","102.09","","","","-52","","NA"
"-119.99","74.14","NANGMAGVIK LAKE","2500440","2012-02-18 12:00","2012","02","18","12:00","-42.1","","-46.4","","63","","","","15","","6","","","","102.10","","","","-50","","NA"
"-119.99","74.14","NANGMAGVIK LAKE","2500440","2012-02-18 13:00","2012","02","18","13:00","-41.4","","-45.6","","64","","","","14","","6","","","","102.12","","","","-50","","NA"
"-119.99","74.14","NANGMAGVIK LAKE","2500440","2012-02-18 14:00","2012","02","18","14:00","-40.2","","-44.3","","65","","","","15","","6","","","","102.13","","","","-48","","NA"
"-119.99","74.14","NANGMAGVIK LAKE","2500440","2012-02-18 15:00","2012","02","18","15:00","-40.7","","-44.9","","64","","","","15","","4","","","","102.15","","","","-46","","NA"
"-119.99","74.14","NANGMAGVIK LAKE","2500440","2012-02-18 16:00","2012","02","18","16:00","-40.6","","-44.6","","65","","","","16","","6","","","","102.17","","","","-49","","NA"
"-119.99","74.14","NANGMAGVIK LAKE","2500440","2012-02-18 17:00","2012","02","18","17:00","-41.3","","-45.5","","64","","","","14","","6","","","","102.18","","","","-50","","NA"
"-119.99","74.14","NANGMAGVIK LAKE","2500440","2012-02-18 18:00","2012","02","18","18:00","-40.7","","-44.7","","65","","","","14","","7","","","","102.17","","","","-50","","NA"
"-119.99","74.14","NANGMAGVIK LAKE","2500440","2012-02-18 19:00","2012","02","18","19:00","-40.9","","-45.0","","65","","","","15","","7","","","","102.19","","","","-50","","NA"
"-119.99","74.14","NANGMAGVIK LAKE","2500440","2012-02-18 20:00","2012","02","18","20:00"
"-119.99","74.14","NANGMAGVIK LAKE","2500440","2012-02-18 21:00","2012","02","18","21:00","-40.2","","-44.2","","65","","","","15","","6","","","","102.20","","","","-48","","NA"
"-119.99","74.14","NANGMAGVIK LAKE","2500440","2012-02-18 22:00","2012","02","18","22:00","-40.7","","-44.8","","65","","","","15","","6","","","","102.17","","","","-49","","NA"
"-119.99","74.14","NANGMAGVIK LAKE","2500440","2012-02-18 23:00","2012","02","18","23:00","-40.1","","-44.1","","65","","","","14","","7","","","","102.17","","","","-49","","NA"
"-119.99","74.14","NANGMAGVIK LAKE","2500440","2012-02-19 00:00","2012","02","19","00:00","-40.5","","-44.5","","65","","","","16","","6","","","","102.18","","","","-49","","NA"
"-119.99","74.14","NANGMAGVIK LAKE","2500440","2012-02-19 01:00","2012","02","19","01:00","-40.3","","-44.3","","65","","","","14","","7","","","","102.18","","","","-49","","NA"
"-119.99","74.14","NANGMAGVIK LAKE","2500440","2012-02-19 02:00","2012","02","19","02:00","-39.2","","-43.2","","66","","","","16","","6","","","","102.20","","","","-47","","NA"
"-119.99","74.14","NANGMAGVIK LAKE","2500440","2012-02-19 03:00","2012","02","19","03:00","-39.6","","-43.5","","66","","","","15","","6","","","","102.20","","","","-48","","NA"
"-119.99","74.14","NANGMAGVIK LAKE","2500440","2012-02-19 04:00","2012","02","19","04:00","-39.1","","-42.9","","67","","","","15","","7","","","","102.20","","","","-48","","NA"
"-119.99","74.14","NANGMAGVIK LAKE","2500440","2012-02-19 05:00","2012","02","19","05:00","-38.8","","-42.5","","68","","","","15","","6","","","","102.21","","","","-47","","NA"
"-119.99","74.14","NANGMAGVIK LAKE","2500440","2012-02-19 06:00","2012","02","19","06:00","-38.5","","-42.2","","68","","","","15","","6","","","","102.18","","","","-46","","NA"
"-119.99","74.14","NANGMAGVIK LAKE","2500440","2012-02-19 07:00","2012","02","19","07:00","-37.8","","-41.5","","68","","","","15","","6","","","","102.15","","","","-45","","NA"
"-119.99","74.14","NANGMAGVIK LAKE","2500440","2012-02-19 08:00","2012","02","19","08:00","-38.2","","-41.9","","68","","","","15","","6","","","","102.14","","","","-46","","NA"
"-119.99","74.14","NANGMAGVIK LAKE","2500440","2012-02-19 09:00","2012","02","19","09:00","-37.2","","-40.8","","69","","","","14","","9","","","","102.14","","","","-47","","NA"
"-119.99","74.14","NANGMAGVIK LAKE","2500440","2012-02-19 10:00","2012","02","19","10:00","-37.8","","-41.4","","69","","","","15","","7","","","","102.11","","","","-46","","NA"
"-119.99","74.14","NANGMAGVIK LAKE","2500440","2012-02-19 11:00","2012","02","19","11:00","-37.2","","-40.8","","69","","","","15","","7","","","","102.09","","","","-46","","NA"
"-119.99","74.14","NANGMAGVIK LAKE","2500440","2012-02-19 12:00","2012","02","19","12:00","-36.2","","-39.7","","70","","","","14","","7","","","","102.10","","","","-44","","NA"
"-119.99","74.14","NANGMAGVIK LAKE","2500440","2012-02-19 13:00","2012","02","19","13:00","-36.3","","-39.8","","70","","","","14","","6","","","","102.10","","","","-44","","NA"
"-119.99","74.14","NANGMAGVIK LAKE","2500440","2012-02-19 14:00","2012","02","19","14:00","-35.9","","-39.4","","70","","","","14","","6","","","","102.10","","","","-43","","NA"
"-119.99","74.14","NANGMAGVIK LAKE","2500440","2012-02-19 15:00","2012","02","19","15:00","-35.5","","-39.0","","70","","","","16","","6","","","","102.09","","","","-43","","NA"
"-119.99","74.14","NANGMAGVIK LAKE","2500440","2012-02-19 16:00","2012","02","19","16:00","-37.3","","-40.9","","69","","","","15","","6","","","","102.09","","","","-45","","NA"
"-119.99","74.14","NANGMAGVIK LAKE","2500440","2012-02-19 17:00","2012","02","19","17:00","-37.7","","-41.4","","68","","","","15","","6","","","","102.07","","","","-45","","NA"
"-119.99","74.14","NANGMAGVIK LAKE","2500440","2012-02-19 18:00","2012","02","19","18:00","-37.7","","-41.4","","68","","","","16","","4","","","","102.05","","","","-43","","NA"
"-119.99","74.14","NANGMAGVIK LAKE","2500440","2012-02-19 19:00","2012","02","19","19:00","-38.3","","-42.0","","68","","","","15","","6","","","","102.03","","","","-46","","NA"
"-119.99","74.14","NANGMAGVIK LAKE","2500440","2012-02-19 20:00","2012","02","19","20:00","-37.9","","-41.6","","68","","","","15","","6","","","","102.00","","","","-46","","NA"
"-119.99","74.14","NANGMAGVIK LAKE","2500440","2012-02-19 21:00","2012","02","19","21:00","-37.5","","-41.2","","68","","","","14","","6","","","","101.96","","","","-45","","NA"
"-119.99","74.14","NANGMAGVIK LAKE","2500440","2012-02-19 22:00","2012","02","19","22:00","-36.9","","-40.4","","70","","","","15","","7","","","","101.91","","","","-45","","NA"
"-119.99","74.14","NANGMAGVIK LAKE","2500440","2012-02-19 23:00","2012","02","19","23:00","-36.4","","-39.8","","71","","","","15","","6","","","","101.89","","","","-44","","NA"
"-119.99","74.14","NANGMAGVIK LAKE","2500440","2012-02-20 00:00","2012","02","20","00:00","-36.5","","-40.0","","70","","","","15","","6","","","","101.87","","","","-44","","NA"
"-119.99","74.14","NANGMAGVIK LAKE","2500440","2012-02-20 01:00","2012","02","20","01:00","-36.8","","-40.3","","70","","","","15","","6","","","","101.83","","","","-44","","NA"
"-119.99","74.14","NANGMAGVIK LAKE","2500440","2012-02-20 02:00","2012","02","20","02:00","-37.0","","-40.6","","69","","","","14","","4","","","","101.81","","","","-42","","NA"
"-119.99","74.14","NANGMAGVIK LAKE","2500440","2012-02-20 03:00","2012","02","20","03:00","-36.7","","-40.4","","68","","","","16","","2","","","","101.79","","","","-39","","NA"
"-119.99","74.14","NANGMAGVIK LAKE","2500440","2012-02-20 04:00","2012","02","20","04:00","-37.0","","-40.6","","69","","","","16","","2","","","","101.74","","","","-40","","NA"
"-119.99","74.14","NANGMAGVIK LAKE","2500440","2012-02-20 05:00","2012","02","20","05:00","-37.4","","-41.0","","69","","","","","","0","","","","101.70","","","","","","NA"
"-119.99","74.14","NANGMAGVIK LAKE","2500440","2012-02-20 06:00","2012","02","20","06:00","-37.1","","-40.6","","70","","","","19","","2","","","","101.64","","","","-40","","NA"
"-119.99","74.14","NANGMAGVIK LAKE","2500440","2012-02-20 07:00","2012","02","20","07:00","-38.6","","-42.4","","67","","","","17","","2","","","","101.56","","","","-41","","NA"
"-119.99","74.14","NANGMAGVIK LAKE","2500440","2012-02-20 08:00","2012","02","20","08:00","-38.7","","-42.4","","68","","","","16","","4","","","","101.50","","","","-44","","NA"
"-119.99","74.14","NANGMAGVIK LAKE","2500440","2012-02-20 09:00","2012","02","20","09:00","-38.3","","-42.0","","68","","","","","","0","","","","101.45","","","","","","NA"
"-119.99","74.14","NANGMAGVIK LAKE","2500440","2012-02-20 10:00","2012","02","20","10:00","-38.8","","-42.6","","67","","","","17","","2","","","","101.40","","","","-42","","NA"
"-119.99","74.14","NANGMAGVIK LAKE","2500440","2012-02-20 11:00","2012","02","20","11:00","-37.4","","-41.0","","69","","","","","","0","","","","101.38","","","","","","NA"
"-119.99","74.14","NANGMAGVIK LAKE","2500440","2012-02-20 12:00","2012","02","20","12:00","-38.5","","-42.4","","67","","","","16","","4","","","","101.34","","","","-44","","NA"
"-119.99","74.14","NANGMAGVIK LAKE","2500440","2012-02-20 13:00","2012","02","20","13:00","-37.5","","-41.1","","69","","","","20","","2","","","","101.29","","","","-40","","NA"
"-119.99","74.14","NANGMAGVIK LAKE","2500440","2012-02-20 14:00","2012","02","20","14:00","-37.9","","-41.6","","68","","","","","","0","","","","101.27","","","","","","NA"
"-119.99","74.14","NANGMAGVIK LAKE","2500440","2012-02-20 15:00","2012","02","20","15:00","-37.7","","-41.4","","68","","","","20","","2","","","","101.23","","","","-40","","NA"
"-119.99","74.14","NANGMAGVIK LAKE","2500440","2012-02-20 16:00","2012","02","20","16:00","-38.1","","-41.8","","68","","","","","","0","","","","101.15","","","","","","NA"
"-119.99","74.14","NANGMAGVIK LAKE","2500440","2012-02-20 17:00","2012","02","20","17:00","-37.6","","-41.3","","68","","","","","","0","","","","101.06","","","","","","NA"
"-119.99","74.14","NANGMAGVIK LAKE","2500440","2012-02-20 18:00","2012","02","20","18:00","-38.0","","-41.7","","68","","","","","","0","","","","101.03","","","","","","NA"
"-119.99","74.14","NANGMAGVIK LAKE","2500440","2012-02-20 19:00","2012","02","20","19:00","-38.0","","-41.7","","68","","","","31","","2","","","","100.94","","","","-41","","NA"
"-119.99","74.14","NANGMAGVIK LAKE","2500440","2012-02-20 20:00","2012","02","20","20:00","-37.3","","-40.8","","70","","","","34","","4","","","","100.90","","","","-43","","NA"
"-119.99","74.14","NANGMAGVIK LAKE","2500440","2012-02-20 21:00","2012","02","20","21:00","-37.8","","-41.4","","69","","","","","","0","","","","100.86","","","","","","NA"
"-119.99","74.14","NANGMAGVIK LAKE","2500440","2012-02-20 22:00","2012","02","20","22:00","-38.1","","-41.8","","68","","","","","","0","","","","100.81","","","","","","NA"
"-119.99","74.14","NANGMAGVIK LAKE","2500440","2012-02-20 23:00","2012","02","20","23:00","-37.1","","-40.7","","69","","","","35","","4","","","","100.79","","","","-42","","NA"
"-119.99","74.14","NANGMAGVIK LAKE","2500440","2012-02-21 00:00","2012","02","21","00:00","-37.3","","-40.9","","69","","","","32","","2","","","","100.78","","","","-40","","NA"
"-119.99","74.14","NANGMAGVIK LAKE","2500440","2012-02-21 01:00","2012","02","21","01:00","-36.5","","-40.0","","70","","","","33","","2","","","","100.74","","","","-39","","NA"
"-119.99","74.14","NANGMAGVIK LAKE","2500440","2012-02-21 02:00","2012","02","21","02:00","-36.0","","-39.4","","71","","","","36","","4","","","","100.73","","","","-41","","NA"
"-119.99","74.14","NANGMAGVIK LAKE","2500440","2012-02-21 03:00","2012","02","21","03:00","-35.6","","-38.9","","72","","","","35","","4","","","","100.71","","","","-41","","NA"
"-119.99","74.14","NANGMAGVIK LAKE","2500440","2012-02-21 04:00","2012","02","21","04:00","-36.1","","-39.5","","71","","","","34","","4","","","","100.68","","","","-41","","NA"
"-119.99","74.14","NANGMAGVIK LAKE","2500440","2012-02-21 05:00","2012","02","21","05:00","-35.6","","-39.0","","71","","","","36","","6","","","","100.66","","","","-43","","NA"
"-119.99","74.14","NANGMAGVIK LAKE","2500440","2012-02-21 06:00","2012","02","21","06:00","-35.1","","-38.4","","72","","","","","","0","","","","100.63","","","","","","NA"
"-119.99","74.14","NANGMAGVIK LAKE","2500440","2012-02-21 07:00","2012","02","21","07:00","-33.2","","-36.1","","75","","","","35","","2","","","","100.60","","","","-36","","NA"
"-119.99","74.14","NANGMAGVIK LAKE","2500440","2012-02-21 08:00","2012","02","21","08:00","-32.1","","-35.0","","75","","","","34","","13","","","","100.60","","","","-43","","NA"
"-119.99","74.14","NANGMAGVIK LAKE","2500440","2012-02-21 09:00","2012","02","21","09:00","-34.7","","-38.0","","72","","","","2","","6","","","","100.61","","","","-42","","NA"
"-119.99","74.14","NANGMAGVIK LAKE","2500440","2012-02-21 10:00","2012","02","21","10:00","-33.4","","-36.5","","74","","","","34","","4","","","","100.61","","","","-38","","NA"
"-119.99","74.14","NANGMAGVIK LAKE","2500440","2012-02-21 11:00","2012","02","21","11:00","-34.1","","-37.3","","73","","","","2","","4","","","","100.58","","","","-39","","NA"
"-119.99","74.14","NANGMAGVIK LAKE","2500440","2012-02-21 12:00","2012","02","21","12:00","-34.3","","-37.5","","73","","","","36","","17","","","","100.58","","","","-47","","NA"
"-119.99","74.14","NANGMAGVIK LAKE","2500440","2012-02-21 13:00","2012","02","21","13:00","-33.5","","-36.6","","74","","","","35","","15","","","","100.61","","","","-46","","NA"
"-119.99","74.14","NANGMAGVIK LAKE","2500440","2012-02-21 14:00","2012","02","21","14:00","-34.1","","-37.3","","73","","","","36","","11","","","","100.65","","","","-45","","NA"
"-119.99","74.14","NANGMAGVIK LAKE","2500440","2012-02-21 15:00","2012","02","21","15:00","-34.2","","-37.5","","72","","","","36","","7","","","","100.66","","","","-42","","NA"
"-119.99","74.14","NANGMAGVIK LAKE","2500440","2012-02-21 16:00","2012","02","21","16:00","-34.4","","-37.6","","73","","","","36","","13","","","","100.66","","","","-46","","NA"
"-119.99","74.14","NANGMAGVIK LAKE","2500440","2012-02-21 17:00","2012","02","21","17:00","-34.5","","-37.7","","73","","","","36","","11","","","","100.68","","","","-45","","NA"
"-119.99","74.14","NANGMAGVIK LAKE","2500440","2012-02-21 18:00","2012","02","21","18:00","-34.3","","-37.4","","73","","","","1","","9","","","","100.67","","","","-44","","NA"
"-119.99","74.14","NANGMAGVIK LAKE","2500440","2012-02-21 19:00","2012","02","21","19:00","-34.0","","-37.1","","73","","","","1","","13","","","","100.67","","","","-45","","NA"
"-119.99","74.14","NANGMAGVIK LAKE","2500440","2012-02-21 20:00","2012","02","21","20:00","-34.8","","-38.0","","73","","","","1","","11","","","","100.67","","","","-45","","NA"
"-119.99","74.14","NANGMAGVIK LAKE","2500440","2012-02-21 21:00","2012","02","21","21:00","-34.7","","-38.0","","72","","","","1","","13","","","","100.66","","","","-46","","NA"
"-119.99","74.14","NANGMAGVIK LAKE","2500440","2012-02-21 22:00","2012","02","21","22:00","-34.3","","-37.5","","73","","","","35","","7","","","","100.70","","","","-42","","NA"
"-119.99","74.14","NANGMAGVIK LAKE","2500440","2012-02-21 23:00","2012","02","21","23:00","-35.0","","-38.2","","73","","","","36","","11","","","","100.72","","","","-46","","NA"
"-119.99","74.14","NANGMAGVIK LAKE","2500440","2012-02-22 00:00","2012","02","22","00:00","-35.1","","-38.3","","72","","","","36","","13","","","","100.73","","","","-47","","NA"
"-119.99","74.14","NANGMAGVIK LAKE","2500440","2012-02-22 01:00","2012","02","22","01:00","-33.8","","-36.9","","74","","","","36","","7","","","","100.77","","","","-42","","NA"
"-119.99","74.14","NANGMAGVIK LAKE","2500440","2012-02-22 02:00","2012","02","22","02:00","-34.0","","-37.2","","73","","","","1","","9","","","","100.81","","","","-43","","NA"
"-119.99","74.14","NANGMAGVIK LAKE","2500440","2012-02-22 03:00","2012","02","22","03:00","-33.4","","-36.4","","74","","","","35","","7","","","","100.85","","","","-41","","NA"
"-119.99","74.14","NANGMAGVIK LAKE","2500440","2012-02-22 04:00","2012","02","22","04:00","-33.6","","-36.7","","74","","","","1","","11","","","","100.88","","","","-44","","NA"
"-119.99","74.14","NANGMAGVIK LAKE","2500440","2012-02-22 05:00","2012","02","22","05:00","-33.0","","-36.0","","74","","","","1","","13","","","","100.90","","","","-44","","NA"
"-119.99","74.14","NANGMAGVIK LAKE","2500440","2012-02-22 06:00","2012","02","22","06:00","-32.8","","-35.8","","74","","","","1","","13","","","","100.93","","","","-44","","NA"
"-119.99","74.14","NANGMAGVIK LAKE","2500440","2012-02-22 07:00","2012","02","22","07:00","-34.0","","-37.1","","73","","","","1","","11","","","","100.98","","","","-44","","NA"
"-119.99","74.14","NANGMAGVIK LAKE","2500440","2012-02-22 08:00","2012","02","22","08:00","-34.1","","-37.2","","73","","","","1","","9","","","","101.02","","","","-43","","NA"
"-119.99","74.14","NANGMAGVIK LAKE","2500440","2012-02-22 09:00","2012","02","22","09:00","-34.3","","-37.5","","73","","","","33","","2","","","","101.05","","","","-37","","NA"
"-119.99","74.14","NANGMAGVIK LAKE","2500440","2012-02-22 10:00","2012","02","22","10:00","-33.6","","-36.7","","74","","","","36","","6","","","","101.07","","","","-41","","NA"
"-119.99","74.14","NANGMAGVIK LAKE","2500440","2012-02-22 11:00","2012","02","22","11:00","-34.4","","-37.6","","73","","","","31","","2","","","","101.13","","","","-37","","NA"
"-119.99","74.14","NANGMAGVIK LAKE","2500440","2012-02-22 12:00","2012","02","22","12:00","-33.8","","-37.0","","73","","","","35","","6","","","","101.17","","","","-41","","NA"
"-119.99","74.14","NANGMAGVIK LAKE","2500440","2012-02-22 13:00","2012","02","22","13:00","-34.2","","-37.4","","73","","","","30","","2","","","","101.23","","","","-37","","NA"
"-119.99","74.14","NANGMAGVIK LAKE","2500440","2012-02-22 14:00","2012","02","22","14:00","-33.0","","-36.0","","74","","","","","","0","","","","101.28","","","","","","NA"
"-119.99","74.14","NANGMAGVIK LAKE","2500440","2012-02-22 15:00","2012","02","22","15:00","-33.5","","-36.8","","72","","","","","","0","","","","101.33","","","","","","NA"
"-119.99","74.14","NANGMAGVIK LAKE","2500440","2012-02-22 16:00","2012","02","22","16:00","-33.4","","-36.6","","73","","","","35","","4","","","","101.38","","","","-38","","NA"
"-119.99","74.14","NANGMAGVIK LAKE","2500440","2012-02-22 17:00","2012","02","22","17:00","-35.0","","-38.3","","72","","","","30","","4","","","","101.42","","","","-40","","NA"
"-119.99","74.14","NANGMAGVIK LAKE","2500440","2012-02-22 18:00","2012","02","22","18:00","-35.0","","-38.2","","73","","","","29","","4","","","","101.44","","","","-40","","NA"
"-119.99","74.14","NANGMAGVIK LAKE","2500440","2012-02-22 19:00","2012","02","22","19:00","-35.7","","-39.0","","72","","","","","","0","","","","101.48","","","","","","NA"
"-119.99","74.14","NANGMAGVIK LAKE","2500440","2012-02-22 20:00","2012","02","22","20:00"
"-119.99","74.14","NANGMAGVIK LAKE","2500440","2012-02-22 21:00","2012","02","22","21:00","-39.5","","-43.3","","67","","","","14","","4","","","","101.55","","","","-45","","NA"
"-119.99","74.14","NANGMAGVIK LAKE","2500440","2012-02-22 22:00","2012","02","22","22:00","-38.2","","-41.9","","68","","","","15","","2","","","","101.58","","","","-41","","NA"
"-119.99","74.14","NANGMAGVIK LAKE","2500440","2012-02-22 23:00","2012","02","22","23:00","-36.8","","-40.4","","69","","","","","","0","","","","101.58","","","","","","NA"
"-119.99","74.14","NANGMAGVIK LAKE","2500440","2012-02-23 00:00","2012","02","23","00:00","-38.0","","-41.7","","68","","","","","","0","","","","101.60","","","","","","NA"
"-119.99","74.14","NANGMAGVIK LAKE","2500440","2012-02-23 01:00","2012","02","23","01:00","-38.0","","-41.7","","68","","","","","","0","","","","101.65","","","","","","NA"
"-119.99","74.14","NANGMAGVIK LAKE","2500440","2012-02-23 02:00","2012","02","23","02:00","-37.1","","-40.6","","70","","","","","","0","","","","101.67","","","","","","NA"
"-119.99","74.14","NANGMAGVIK LAKE","2500440","2012-02-23 03:00","2012","02","23","03:00","-37.8","","-41.5","","68","","","","","","0","","","","101.70","","","","","","NA"
"-119.99","74.14","NANGMAGVIK LAKE","2500440","2012-02-23 04:00","2012","02","23","04:00","-36.5","","-40.0","","70","","","","","","0","","","","101.72","","","","","","NA"
"-119.99","74.14","NANGMAGVIK LAKE","2500440","2012-02-23 05:00","2012","02","23","05:00","-33.8","","-37.0","","73","","","","4","","2","","","","101.73","","","","-36","","NA"
"-119.99","74.14","NANGMAGVIK LAKE","2500440","2012-02-23 06:00","2012","02","23","06:00","-32.1","","-35.0","","75","","","","36","","4","","","","101.74","","","","-37","","NA"
"-119.99","74.14","NANGMAGVIK LAKE","2500440","2012-02-23 07:00","2012","02","23","07:00","-33.0","","-36.0","","74","","","","","","0","","","","101.75","","","","","","NA"
"-119.99","74.14","NANGMAGVIK LAKE","2500440","2012-02-23 08:00","2012","02","23","08:00","-32.7","","-35.6","","75","","","","","","0","","","","101.76","","","","","","NA"
"-119.99","74.14","NANGMAGVIK LAKE","2500440","2012-02-23 09:00","2012","02","23","09:00","-32.9","","-35.9","","74","","","","32","","2","","","","101.80","","","","-35","","NA"
"-119.99","74.14","NANGMAGVIK LAKE","2500440","2012-02-23 10:00","2012","02","23","10:00","-31.5","","-34.3","","76","","","","1","","9","","","","101.80","","","","-40","","NA"
"-119.99","74.14","NANGMAGVIK LAKE","2500440","2012-02-23 11:00","2012","02","23","11:00","-31.7","","-34.6","","75","","","","2","","7","","","","101.82","","","","-39","","NA"
"-119.99","74.14","NANGMAGVIK LAKE","2500440","2012-02-23 12:00","2012","02","23","12:00","-30.7","","-33.5","","76","","","","1","","7","","","","101.84","","","","-38","","NA"
"-119.99","74.14","NANGMAGVIK LAKE","2500440","2012-02-23 13:00","2012","02","23","13:00","-31.1","","-33.9","","76","","","","2","","7","","","","101.90","","","","-39","","NA"
"-119.99","74.14","NANGMAGVIK LAKE","2500440","2012-02-23 14:00","2012","02","23","14:00","-30.6","","-33.4","","76","","","","35","","4","","","","101.94","","","","-35","","NA"
"-119.99","74.14","NANGMAGVIK LAKE","2500440","2012-02-23 15:00","2012","02","23","15:00","-31.8","","-34.7","","75","","","","35","","2","","","","101.99","","","","-34","","NA"
"-119.99","74.14","NANGMAGVIK LAKE","2500440","2012-02-23 16:00","2012","02","23","16:00","-30.6","","-33.3","","77","","","","1","","6","","","","101.99","","","","-37","","NA"
"-119.99","74.14","NANGMAGVIK LAKE","2500440","2012-02-23 17:00","2012","02","23","17:00","-30.6","","-33.3","","77","","","","35","","4","","","","102.04","","","","-35","","NA"
"-119.99","74.14","NANGMAGVIK LAKE","2500440","2012-02-23 18:00","2012","02","23","18:00","-32.5","","-35.4","","75","","","","31","","2","","","","102.06","","","","-35","","NA"
"-119.99","74.14","NANGMAGVIK LAKE","2500440","2012-02-23 19:00","2012","02","23","19:00","-32.4","","-35.3","","75","","","","","","0","","","","102.09","","","","","","NA"
"-119.99","74.14","NANGMAGVIK LAKE","2500440","2012-02-23 20:00","2012","02","23","20:00","-33.1","","-36.1","","74","","","","","","0","","","","102.12","","","","","","NA"
"-119.99","74.14","NANGMAGVIK LAKE","2500440","2012-02-23 21:00","2012","02","23","21:00","-34.1","","-37.1","","74","","","","","","0","","","","102.15","","","","","","NA"
"-119.99","74.14","NANGMAGVIK LAKE","2500440","2012-02-23 22:00","2012","02","23","22:00","-35.9","","-39.3","","71","","","","","","0","","","","102.17","","","","","","NA"
"-119.99","74.14","NANGMAGVIK LAKE","2500440","2012-02-23 23:00","2012","02","23","23:00","-35.0","","-38.2","","73","","","","","","0","","","","102.19","","","","","","NA"
"-119.99","74.14","NANGMAGVIK LAKE","2500440","2012-02-24 00:00","2012","02","24","00:00","-34.9","","-38.1","","73","","","","","","0","","","","102.24","","","","","","NA"
"-119.99","74.14","NANGMAGVIK LAKE","2500440","2012-02-24 01:00","2012","02","24","01:00","-36.4","","-39.8","","71","","","","","","0","","","","102.29","","","","","","NA"
"-119.99","74.14","NANGMAGVIK LAKE","2500440","2012-02-24 02:00","2012","02","24","02:00","-35.4","","-38.7","","72","","","","","","0","","","","102.32","","","","","","NA"
"-119.99","74.14","NANGMAGVIK LAKE","2500440","2012-02-24 03:00","2012","02","24","03:00","-36.5","","-39.9","","71","","","","","","0","","","","102.36","","","","","","NA"
"-119.99","74.14","NANGMAGVIK LAKE","2500440","2012-02-24 04:00","2012","02","24","04:00","-37.3","","-40.9","","69","","","","","","0","","","","102.38","","","","","","NA"
"-119.99","74.14","NANGMAGVIK LAKE","2500440","2012-02-24 05:00","2012","02","24","05:00","-39.3","","-43.1","","67","","","","","","0","","","","102.41","","","","","","NA"
"-119.99","74.14","NANGMAGVIK LAKE","2500440","2012-02-24 06:00","2012","02","24","06:00","-39.2","","-43.0","","67","","","","17","","4","","","","102.44","","","","-45","","NA"
"-119.99","74.14","NANGMAGVIK LAKE","2500440","2012-02-24 07:00","2012","02","24","07:00","-36.3","","-39.6","","71","","","","15","","6","","","","102.44","","","","-44","","NA"
"-119.99","74.14","NANGMAGVIK LAKE","2500440","2012-02-24 08:00","2012","02","24","08:00","-39.2","","-43.1","","66","","","","16","","4","","","","102.47","","","","-45","","NA"
"-119.99","74.14","NANGMAGVIK LAKE","2500440","2012-02-24 09:00","2012","02","24","09:00","-39.8","","-43.7","","66","","","","16","","4","","","","102.49","","","","-45","","NA"
"-119.99","74.14","NANGMAGVIK LAKE","2500440","2012-02-24 10:00","2012","02","24","10:00","-39.3","","-43.2","","66","","","","15","","6","","","","102.51","","","","-47","","NA"
"-119.99","74.14","NANGMAGVIK LAKE","2500440","2012-02-24 11:00","2012","02","24","11:00","-38.8","","-42.6","","67","","","","15","","6","","","","102.53","","","","-47","","NA"
"-119.99","74.14","NANGMAGVIK LAKE","2500440","2012-02-24 12:00","2012","02","24","12:00","-36.9","","-40.5","","69","","","","14","","6","","","","102.54","","","","-44","","NA"
"-119.99","74.14","NANGMAGVIK LAKE","2500440","2012-02-24 13:00","2012","02","24","13:00","-36.4","","-39.9","","70","","","","14","","6","","","","102.55","","","","-44","","NA"
"-119.99","74.14","NANGMAGVIK LAKE","2500440","2012-02-24 14:00","2012","02","24","14:00","-36.3","","-39.9","","69","","","","15","","6","","","","102.56","","","","-44","","NA"
"-119.99","74.14","NANGMAGVIK LAKE","2500440","2012-02-24 15:00","2012","02","24","15:00","-34.3","","-37.6","","72","","","","16","","6","","","","102.58","","","","-41","","NA"
"-119.99","74.14","NANGMAGVIK LAKE","2500440","2012-02-24 16:00","2012","02","24","16:00","-34.7","","-38.1","","71","","","","16","","6","","","","102.60","","","","-42","","NA"
"-119.99","74.14","NANGMAGVIK LAKE","2500440","2012-02-24 17:00","2012","02","24","17:00","-35.9","","-39.3","","71","","","","15","","7","","","","102.62","","","","-44","","NA"
"-119.99","74.14","NANGMAGVIK LAKE","2500440","2012-02-24 18:00","2012","02","24","18:00","-34.0","","-37.1","","73","","","","14","","6","","","","102.61","","","","-41","","NA"
"-119.99","74.14","NANGMAGVIK LAKE","2500440","2012-02-24 19:00","2012","02","24","19:00","-33.3","","-36.4","","74","","","","14","","6","","","","102.61","","","","-40","","NA"
"-119.99","74.14","NANGMAGVIK LAKE","2500440","2012-02-24 20:00","2012","02","24","20:00","-32.8","","-35.8","","74","","","","14","","7","","","","102.60","","","","-41","","NA"
"-119.99","74.14","NANGMAGVIK LAKE","2500440","2012-02-24 21:00","2012","02","24","21:00","-33.7","","-36.8","","74","","","","14","","6","","","","102.61","","","","-41","","NA"
"-119.99","74.14","NANGMAGVIK LAKE","2500440","2012-02-24 22:00","2012","02","24","22:00","-32.8","","-35.8","","74","","","","15","","6","","","","102.61","","","","-40","","NA"
"-119.99","74.14","NANGMAGVIK LAKE","2500440","2012-02-24 23:00","2012","02","24","23:00","-32.3","","-35.2","","75","","","","15","","6","","","","102.62","","","","-39","","NA"
"-119.99","74.14","NANGMAGVIK LAKE","2500440","2012-02-25 00:00","2012","02","25","00:00","-33.8","","-36.9","","74","","","","14","","6","","","","102.64","","","","-41","","NA"
"-119.99","74.14","NANGMAGVIK LAKE","2500440","2012-02-25 01:00","2012","02","25","01:00","-33.9","","-37.0","","73","","","","16","","4","","","","102.65","","","","-39","","NA"
"-119.99","74.14","NANGMAGVIK LAKE","2500440","2012-02-25 02:00","2012","02","25","02:00","-33.9","","-37.0","","73","","","","14","","4","","","","102.66","","","","-39","","NA"
"-119.99","74.14","NANGMAGVIK LAKE","2500440","2012-02-25 03:00","2012","02","25","03:00","-33.6","","-36.7","","74","","","","15","","4","","","","102.63","","","","-38","","NA"
"-119.99","74.14","NANGMAGVIK LAKE","2500440","2012-02-25 04:00","2012","02","25","04:00","-33.6","","-36.6","","74","","","","14","","6","","","","102.67","","","","-41","","NA"
"-119.99","74.14","NANGMAGVIK LAKE","2500440","2012-02-25 05:00","2012","02","25","05:00"
"-119.99","74.14","NANGMAGVIK LAKE","2500440","2012-02-25 06:00","2012","02","25","06:00","-31.5","","-34.3","","76","","","","14","","4","","","","102.59","","","","-36","","NA"
"-119.99","74.14","NANGMAGVIK LAKE","2500440","2012-02-25 07:00","2012","02","25","07:00"
"-119.99","74.14","NANGMAGVIK LAKE","2500440","2012-02-25 08:00","2012","02","25","08:00"
"-119.99","74.14","NANGMAGVIK LAKE","2500440","2012-02-25 09:00","2012","02","25","09:00","-31.5","","-34.3","","76","","","","16","","4","","","","102.52","","","","-36","","NA"
"-119.99","74.14","NANGMAGVIK LAKE","2500440","2012-02-25 10:00","2012","02","25","10:00","-32.0","","-35.0","","75","","","","17","","4","","","","102.55","","","","-37","","NA"
"-119.99","74.14","NANGMAGVIK LAKE","2500440","2012-02-25 11:00","2012","02","25","11:00","-33.5","","-36.6","","74","","","","16","","4","","","","102.57","","","","-38","","NA"
"-119.99","74.14","NANGMAGVIK LAKE","2500440","2012-02-25 12:00","2012","02","25","12:00","-32.9","","-35.9","","74","","","","14","","4","","","","102.58","","","","-38","","NA"
"-119.99","74.14","NANGMAGVIK LAKE","2500440","2012-02-25 13:00","2012","02","25","13:00","-32.9","","-36.0","","74","","","","15","","4","","","","102.54","","","","-38","","NA"
"-119.99","74.14","NANGMAGVIK LAKE","2500440","2012-02-25 14:00","2012","02","25","14:00","-31.5","","-34.3","","76","","","","15","","4","","","","102.56","","","","-36","","NA"
"-119.99","74.14","NANGMAGVIK LAKE","2500440","2012-02-25 15:00","2012","02","25","15:00","-30.8","","-33.5","","77","","","","16","","4","","","","102.57","","","","-35","","NA"
"-119.99","74.14","NANGMAGVIK LAKE","2500440","2012-02-25 16:00","2012","02","25","16:00","-31.4","","-34.2","","76","","","","16","","4","","","","102.58","","","","-36","","NA"
"-119.99","74.14","NANGMAGVIK LAKE","2500440","2012-02-25 17:00","2012","02","25","17:00","-31.5","","-34.4","","75","","","","17","","4","","","","102.54","","","","-36","","NA"
"-119.99","74.14","NANGMAGVIK LAKE","2500440","2012-02-25 18:00","2012","02","25","18:00","-31.1","","-33.9","","76","","","","15","","4","","","","102.55","","","","-36","","NA"
"-119.99","74.14","NANGMAGVIK LAKE","2500440","2012-02-25 19:00","2012","02","25","19:00","-31.3","","-34.1","","76","","","","18","","4","","","","102.52","","","","-36","","NA"
"-119.99","74.14","NANGMAGVIK LAKE","2500440","2012-02-25 20:00","2012","02","25","20:00","-32.2","","-35.1","","75","","","","18","","4","","","","102.52","","","","-37","","NA"
"-119.99","74.14","NANGMAGVIK LAKE","2500440","2012-02-25 21:00","2012","02","25","21:00","-32.7","","-35.7","","74","","","","17","","4","","","","102.52","","","","-37","","NA"
"-119.99","74.14","NANGMAGVIK LAKE","2500440","2012-02-25 22:00","2012","02","25","22:00","-32.8","","-35.8","","74","","","","17","","4","","","","102.51","","","","-38","","NA"
"-119.99","74.14","NANGMAGVIK LAKE","2500440","2012-02-25 23:00","2012","02","25","23:00","-32.6","","-35.6","","75","","","","14","","4","","","","102.52","","","","-37","","NA"
"-119.99","74.14","NANGMAGVIK LAKE","2500440","2012-02-26 00:00","2012","02","26","00:00","-33.4","","-36.4","","74","","","","17","","4","","","","102.51","","","","-38","","NA"
"-119.99","74.14","NANGMAGVIK LAKE","2500440","2012-02-26 01:00","2012","02","26","01:00","-33.9","","-37.1","","73","","","","14","","4","","","","102.49","","","","-39","","NA"
"-119.99","74.14","NANGMAGVIK LAKE","2500440","2012-02-26 02:00","2012","02","26","02:00","-33.4","","","M","","M","","","","M","","M","","","102.48","","","","","","NA"
"-119.99","74.14","NANGMAGVIK LAKE","2500440","2012-02-26 03:00","2012","02","26","03:00","-34.0","","-37.1","","73","","","","13","","2","","","","102.47","","","","-36","","NA"
"-119.99","74.14","NANGMAGVIK LAKE","2500440","2012-02-26 04:00","2012","02","26","04:00","-34.8","","-38.0","","73","","","","13","","2","","","","102.44","","","","-37","","NA"
"-119.99","74.14","NANGMAGVIK LAKE","2500440","2012-02-26 05:00","2012","02","26","05:00","-34.6","","-37.8","","73","","","","15","","4","","","","102.41","","","","-40","","NA"
"-119.99","74.14","NANGMAGVIK LAKE","2500440","2012-02-26 06:00","2012","02","26","06:00","-35.0","","-38.3","","72","","","","13","","2","","","","102.36","","","","-38","","NA"
"-119.99","74.14","NANGMAGVIK LAKE","2500440","2012-02-26 07:00","2012","02","26","07:00","-35.8","","-39.2","","71","","","","15","","2","","","","102.31","","","","-38","","NA"
"-119.99","74.14","NANGMAGVIK LAKE","2500440","2012-02-26 08:00","2012","02","26","08:00","-36.6","","-40.1","","70","","","","14","","2","","","","102.28","","","","-39","","NA"
"-119.99","74.14","NANGMAGVIK LAKE","2500440","2012-02-26 09:00","2012","02","26","09:00","-36.2","","-39.7","","70","","","","13","","4","","","","102.24","","","","-41","","NA"
"-119.99","74.14","NANGMAGVIK LAKE","2500440","2012-02-26 10:00","2012","02","26","10:00","-36.5","","-40.0","","70","","","","13","","2","","","","102.21","","","","-39","","NA"
"-119.99","74.14","NANGMAGVIK LAKE","2500440","2012-02-26 11:00","2012","02","26","11:00","-36.4","","-39.9","","70","","","","13","","2","","","","102.17","","","","-39","","NA"
"-119.99","74.14","NANGMAGVIK LAKE","2500440","2012-02-26 12:00","2012","02","26","12:00","-36.2","","-39.6","","71","","","","14","","4","","","","102.15","","","","-41","","NA"
"-119.99","74.14","NANGMAGVIK LAKE","2500440","2012-02-26 13:00","2012","02","26","13:00","-35.5","","-38.9","","71","","","","14","","4","","","","102.12","","","","-41","","NA"
"-119.99","74.14","NANGMAGVIK LAKE","2500440","2012-02-26 14:00","2012","02","26","14:00","-35.9","","-39.3","","71","","","","14","","2","","","","102.07","","","","-38","","NA"
"-119.99","74.14","NANGMAGVIK LAKE","2500440","2012-02-26 15:00","2012","02","26","15:00","-35.9","","-39.3","","71","","","","13","","2","","","","102.04","","","","-38","","NA"
"-119.99","74.14","NANGMAGVIK LAKE","2500440","2012-02-26 16:00","2012","02","26","16:00"
"-119.99","74.14","NANGMAGVIK LAKE","2500440","2012-02-26 17:00","2012","02","26","17:00"
"-119.99","74.14","NANGMAGVIK LAKE","2500440","2012-02-26 18:00","2012","02","26","18:00","-38.0","","-41.7","","68","","","","13","","2","","","","101.88","","","","-41","","NA"
"-119.99","74.14","NANGMAGVIK LAKE","2500440","2012-02-26 19:00","2012","02","26","19:00"
"-119.99","74.14","NANGMAGVIK LAKE","2500440","2012-02-26 20:00","2012","02","26","20:00","-38.8","","-42.6","","67","","","","13","","2","","","","101.75","","","","-42","","NA"
"-119.99","74.14","NANGMAGVIK LAKE","2500440","2012-02-26 21:00","2012","02","26","21:00","-38.1","","-41.8","","68","","","","14","","2","","","","101.72","","","","-41","","NA"
"-119.99","74.14","NANGMAGVIK LAKE","2500440","2012-02-26 22:00","2012","02","26","22:00","-38.4","","-42.1","","68","","","","14","","2","","","","101.67","","","","-41","","NA"
"-119.99","74.14","NANGMAGVIK LAKE","2500440","2012-02-26 23:00","2012","02","26","23:00"
"-119.99","74.14","NANGMAGVIK LAKE","2500440","2012-02-27 00:00","2012","02","27","00:00"
"-119.99","74.14","NANGMAGVIK LAKE","2500440","2012-02-27 01:00","2012","02","27","01:00"
"-119.99","74.14","NANGMAGVIK LAKE","2500440","2012-02-27 02:00","2012","02","27","02:00"
"-119.99","74.14","NANGMAGVIK LAKE","2500440","2012-02-27 03:00","2012","02","27","03:00"
"-119.99","74.14","NANGMAGVIK LAKE","2500440","2012-02-27 04:00","2012","02","27","04:00","-41.0","","-45.1","","65","","","","","","0","","","","101.49","","","","","","NA"
"-119.99","74.14","NANGMAGVIK LAKE","2500440","2012-02-27 05:00","2012","02","27","05:00","-41.1","","-45.2","","64","","","","","","0","","","","101.46","","","","","","NA"
"-119.99","74.14","NANGMAGVIK LAKE","2500440","2012-02-27 06:00","2012","02","27","06:00","","M","","M","","M","","","","M","","M","","","","M","","","","","NA"
"-119.99","74.14","NANGMAGVIK LAKE","2500440","2012-02-27 07:00","2012","02","27","07:00"
"-119.99","74.14","NANGMAGVIK LAKE","2500440","2012-02-27 08:00","2012","02","27","08:00"
"-119.99","74.14","NANGMAGVIK LAKE","2500440","2012-02-27 09:00","2012","02","27","09:00"
"-119.99","74.14","NANGMAGVIK LAKE","2500440","2012-02-27 10:00","2012","02","27","10:00"
"-119.99","74.14","NANGMAGVIK LAKE","2500440","2012-02-27 11:00","2012","02","27","11:00"
"-119.99","74.14","NANGMAGVIK LAKE","2500440","2012-02-27 12:00","2012","02","27","12:00","-39.4","","-43.3","","66","","","","14","","2","","","","101.37","","","","-42","","NA"
"-119.99","74.14","NANGMAGVIK LAKE","2500440","2012-02-27 13:00","2012","02","27","13:00"
"-119.99","74.14","NANGMAGVIK LAKE","2500440","2012-02-27 14:00","2012","02","27","14:00","-38.4","","-42.2","","67","","","","14","","2","","","","101.35","","","","-41","","NA"
"-119.99","74.14","NANGMAGVIK LAKE","2500440","2012-02-27 15:00","2012","02","27","15:00","","M","","M","","M","","","","M","","M","","","101.35","","","","","","NA"
"-119.99","74.14","NANGMAGVIK LAKE","2500440","2012-02-27 16:00","2012","02","27","16:00"
"-119.99","74.14","NANGMAGVIK LAKE","2500440","2012-02-27 17:00","2012","02","27","17:00"
"-119.99","74.14","NANGMAGVIK LAKE","2500440","2012-02-27 18:00","2012","02","27","18:00"
"-119.99","74.14","NANGMAGVIK LAKE","2500440","2012-02-27 19:00","2012","02","27","19:00"
"-119.99","74.14","NANGMAGVIK LAKE","2500440","2012-02-27 20:00","2012","02","27","20:00","-28.6","","-31.0","","80","","","","30","","4","","","","101.32","","","","-33","","NA"
"-119.99","74.14","NANGMAGVIK LAKE","2500440","2012-02-27 21:00","2012","02","27","21:00","-29.3","","-31.9","","78","","","","32","","4","","","","101.37","","","","-34","","NA"
"-119.99","74.14","NANGMAGVIK LAKE","2500440","2012-02-27 22:00","2012","02","27","22:00","-31.3","","-34.1","","76","","","","32","","4","","","","101.39","","","","-36","","NA"
"-119.99","74.14","NANGMAGVIK LAKE","2500440","2012-02-27 23:00","2012","02","27","23:00","-32.0","","-34.9","","75","","","","33","","4","","","","101.47","","","","-37","","NA"
"-119.99","74.14","NANGMAGVIK LAKE","2500440","2012-02-28 00:00","2012","02","28","00:00","-33.1","","-36.1","","74","","","","32","","4","","","","101.52","","","","-38","","NA"
"-119.99","74.14","NANGMAGVIK LAKE","2500440","2012-02-28 01:00","2012","02","28","01:00","-34.3","","-37.5","","73","","","","33","","4","","","","101.58","","","","-39","","NA"
"-119.99","74.14","NANGMAGVIK LAKE","2500440","2012-02-28 02:00","2012","02","28","02:00","-34.3","","-37.5","","73","","","","33","","2","","","","101.62","","","","-37","","NA"
"-119.99","74.14","NANGMAGVIK LAKE","2500440","2012-02-28 03:00","2012","02","28","03:00","-34.2","","-37.4","","73","","","","32","","4","","","","101.65","","","","-39","","NA"
"-119.99","74.14","NANGMAGVIK LAKE","2500440","2012-02-28 04:00","2012","02","28","04:00","-35.6","","-38.9","","72","","","","35","","2","","","","101.70","","","","-38","","NA"
"-119.99","74.14","NANGMAGVIK LAKE","2500440","2012-02-28 05:00","2012","02","28","05:00","-35.5","","-38.8","","72","","","","35","","2","","","","101.71","","","","-38","","NA"
"-119.99","74.14","NANGMAGVIK LAKE","2500440","2012-02-28 06:00","2012","02","28","06:00","-35.7","","-39.0","","72","","","","1","","2","","","","101.74","","","","-38","","NA"
"-119.99","74.14","NANGMAGVIK LAKE","2500440","2012-02-28 07:00","2012","02","28","07:00","-35.5","","-38.9","","71","","","","1","","2","","","","101.79","","","","-38","","NA"
"-119.99","74.14","NANGMAGVIK LAKE","2500440","2012-02-28 08:00","2012","02","28","08:00","-35.9","","-39.3","","71","","","","","","0","","","","101.80","","","","","","NA"
"-119.99","74.14","NANGMAGVIK LAKE","2500440","2012-02-28 09:00","2012","02","28","09:00","-35.2","","-38.5","","72","","","","","","0","","","","101.82","","","","","","NA"
"-119.99","74.14","NANGMAGVIK LAKE","2500440","2012-02-28 10:00","2012","02","28","10:00","-37.2","","-40.8","","69","","","","","","0","","","","101.83","","","","","","NA"
"-119.99","74.14","NANGMAGVIK LAKE","2500440","2012-02-28 11:00","2012","02","28","11:00","-37.1","","-40.6","","70","","","","","","0","","","","101.85","","","","","","NA"
"-119.99","74.14","NANGMAGVIK LAKE","2500440","2012-02-28 12:00","2012","02","28","12:00","-36.1","","-39.6","","70","","","","","","0","","","","101.83","","","","","","NA"
"-119.99","74.14","NANGMAGVIK LAKE","2500440","2012-02-28 13:00","2012","02","28","13:00","-36.9","","-40.5","","69","","","","13","","2","","","","101.83","","","","-40","","NA"
"-119.99","74.14","NANGMAGVIK LAKE","2500440","2012-02-28 14:00","2012","02","28","14:00","-36.7","","-40.3","","69","","","","13","","2","","","","101.81","","","","-39","","NA"
"-119.99","74.14","NANGMAGVIK LAKE","2500440","2012-02-28 15:00","2012","02","28","15:00","-36.2","","-39.7","","70","","","","13","","2","","","","101.77","","","","-39","","NA"
"-119.99","74.14","NANGMAGVIK LAKE","2500440","2012-02-28 16:00","2012","02","28","16:00","-34.8","","-38.2","","71","","","","12","","2","","","","101.74","","","","-37","","NA"
"-119.99","74.14","NANGMAGVIK LAKE","2500440","2012-02-28 17:00","2012","02","28","17:00","-30.1","","-32.4","","80","","","","28","","2","","","","101.70","","","","-32","","NA"
"-119.99","74.14","NANGMAGVIK LAKE","2500440","2012-02-28 18:00","2012","02","28","18:00","-28.2","","-30.6","","80","","","","29","","6","","","","101.62","","","","-34","","NA"
"-119.99","74.14","NANGMAGVIK LAKE","2500440","2012-02-28 19:00","2012","02","28","19:00","-28.2","","-30.6","","80","","","","29","","6","","","","101.64","","","","-34","","NA"
"-119.99","74.14","NANGMAGVIK LAKE","2500440","2012-02-28 20:00","2012","02","28","20:00","-29.2","","-31.7","","79","","","","31","","6","","","","101.63","","","","-36","","NA"
"-119.99","74.14","NANGMAGVIK LAKE","2500440","2012-02-28 21:00","2012","02","28","21:00","-31.3","","-34.0","","77","","","","35","","6","","","","101.60","","","","-38","","NA"
"-119.99","74.14","NANGMAGVIK LAKE","2500440","2012-02-28 22:00","2012","02","28","22:00","-32.4","","-35.3","","75","","","","1","","9","","","","101.59","","","","-41","","NA"
"-119.99","74.14","NANGMAGVIK LAKE","2500440","2012-02-28 23:00","2012","02","28","23:00","-31.7","","-34.5","","76","","","","32","","15","","","","101.54","","","","-44","","NA"
"-119.99","74.14","NANGMAGVIK LAKE","2500440","2012-02-29 00:00","2012","02","29","00:00","-32.2","","-35.1","","75","","","","32","","19","","","","101.56","","","","-46","","NA"
"-119.99","74.14","NANGMAGVIK LAKE","2500440","2012-02-29 01:00","2012","02","29","01:00","-32.7","","-35.7","","74","","","","34","","9","","","","101.62","","","","-42","","NA"
"-119.99","74.14","NANGMAGVIK LAKE","2500440","2012-02-29 02:00","2012","02","29","02:00","-32.4","","-35.3","","75","","","","31","","7","","","","101.61","","","","-40","","NA"
"-119.99","74.14","NANGMAGVIK LAKE","2500440","2012-02-29 03:00","2012","02","29","03:00","-32.5","","-35.4","","75","","","","33","","13","","","","101.62","","","","-44","","NA"
"-119.99","74.14","NANGMAGVIK LAKE","2500440","2012-02-29 04:00","2012","02","29","04:00","-32.8","","-35.8","","74","","","","32","","13","","","","101.61","","","","-44","","NA"
"-119.99","74.14","NANGMAGVIK LAKE","2500440","2012-02-29 05:00","2012","02","29","05:00","-32.6","","-35.6","","75","","","","34","","13","","","","101.60","","","","-44","","NA"
"-119.99","74.14","NANGMAGVIK LAKE","2500440","2012-02-29 06:00","2012","02","29","06:00","-32.5","","-35.4","","75","","","","35","","9","","","","101.62","","","","-42","","NA"
"-119.99","74.14","NANGMAGVIK LAKE","2500440","2012-02-29 07:00","2012","02","29","07:00","-31.4","","-34.2","","76","","","","31","","7","","","","101.62","","","","-39","","NA"
"-119.99","74.14","NANGMAGVIK LAKE","2500440","2012-02-29 08:00","2012","02","29","08:00","-31.2","","-34.0","","76","","","","30","","13","","","","101.62","","","","-42","","NA"
"-119.99","74.14","NANGMAGVIK LAKE","2500440","2012-02-29 09:00","2012","02","29","09:00","-31.1","","-33.9","","76","","","","29","","11","","","","101.59","","","","-41","","NA"
"-119.99","74.14","NANGMAGVIK LAKE","2500440","2012-02-29 10:00","2012","02","29","10:00","-30.9","","-33.6","","77","","","","33","","13","","","","101.62","","","","-42","","NA"
"-119.99","74.14","NANGMAGVIK LAKE","2500440","2012-02-29 11:00","2012","02","29","11:00","-31.0","","-33.7","","77","","","","31","","13","","","","101.60","","","","-42","","NA"
"-119.99","74.14","NANGMAGVIK LAKE","2500440","2012-02-29 12:00","2012","02","29","12:00","-31.4","","-34.2","","76","","","","33","","9","","","","101.65","","","","-40","","NA"
"-119.99","74.14","NANGMAGVIK LAKE","2500440","2012-02-29 13:00","2012","02","29","13:00","-31.2","","-34.0","","76","","","","32","","13","","","","101.67","","","","-42","","NA"
"-119.99","74.14","NANGMAGVIK LAKE","2500440","2012-02-29 14:00","2012","02","29","14:00","-31.8","","-34.7","","75","","","","34","","11","","","","101.73","","","","-42","","NA"
"-119.99","74.14","NANGMAGVIK LAKE","2500440","2012-02-29 15:00","2012","02","29","15:00","-31.7","","-34.7","","75","","","","35","","7","","","","101.76","","","","-39","","NA"
"-119.99","74.14","NANGMAGVIK LAKE","2500440","2012-02-29 16:00","2012","02","29","16:00","-31.6","","-34.5","","75","","","","32","","13","","","","101.78","","","","-43","","NA"
"-119.99","74.14","NANGMAGVIK LAKE","2500440","2012-02-29 17:00","2012","02","29","17:00","-32.2","","-35.1","","75","","","","32","","15","","","","101.81","","","","-44","","NA"
"-119.99","74.14","NANGMAGVIK LAKE","2500440","2012-02-29 18:00","2012","02","29","18:00","-32.6","","-35.5","","75","","","","31","","17","","","","101.82","","","","-45","","NA"
"-119.99","74.14","NANGMAGVIK LAKE","2500440","2012-02-29 19:00","2012","02","29","19:00","-33.0","","-36.0","","74","","","","31","","11","","","","101.84","","","","-43","","NA"
"-119.99","74.14","NANGMAGVIK LAKE","2500440","2012-02-29 20:00","2012","02","29","20:00","-32.9","","-35.9","","74","","","","30","","13","","","","101.86","","","","-44","","NA"
"-119.99","74.14","NANGMAGVIK LAKE","2500440","2012-02-29 21:00","2012","02","29","21:00","-32.6","","-35.6","","75","","","","29","","13","","","","101.87","","","","-44","","NA"
"-119.99","74.14","NANGMAGVIK LAKE","2500440","2012-02-29 22:00","2012","02","29","22:00","-33.1","","-36.2","","74","","","","30","","9","","","","101.89","","","","-42","","NA"
"-119.99","74.14","NANGMAGVIK LAKE","2500440","2012-02-29 23:00","2012","02","29","23:00","-32.7","","-35.7","","74","","","","31","","7","","","","101.87","","","","-40","","NA"
