"Longitude (x)","Latitude (y)","Station Name","Climate ID","Date/Time (LST)","Year","Month","Day","Time (LST)","Temp (°C)","Temp Flag","Dew Point Temp (°C)","Dew Point Temp Flag","Rel Hum (%)","Rel Hum Flag","Precip. Amount (mm)","Precip. Amount Flag","Wind Dir (10s deg)","Wind Dir Flag","Wind Spd (km/h)","Wind Spd Flag","Visibility (km)","Visibility Flag","Stn Press (kPa)","Stn Press Flag","Hmdx","Hmdx Flag","Wind Chill","Wind Chill Flag","Weather"
"-83.36","64.19","CORAL HARBOUR A","2301002","2018-01-01 00:00","2018","01","01","00:00","-35.8","","-39.5","","70","","","","1","","12","","24.1","","100.58","","","","-47","","Ice Crystals"
"-83.36","64.19","CORAL HARBOUR A","2301002","2018-01-01 01:00","2018","01","01","01:00","-36.4","","-40.1","","70","","","","3","","8","","24.1","","100.53","","","","-45","","Ice Crystals"
"-83.36","64.19","CORAL HARBOUR A","2301002","2018-01-01 02:00","2018","01","01","02:00","-35.4","","-39.0","","70","","","","1","","10","","19.3","","100.51","","","","-46","","Ice Crystals"
"-83.36","64.19","CORAL HARBOUR A","2301002","2018-01-01 03:00","2018","01","01","03:00","-35.3","","-38.9","","70","","","","3","","13","","24.1","","100.48","","","","-47","","Ice Crystals"
"-83.36","64.19","CORAL HARBOUR A","2301002","2018-01-01 04:00","2018","01","01","04:00","-35.9","","-39.6","","70","","","","5","","6","","24.1","","100.43","","","","-43","","Ice Crystals"
"-83.36","64.19","CORAL HARBOUR A","2301002","2018-01-01 05:00","2018","01","01","05:00","-34.6","","-38.1","","71","","","","9","","9","","24.1","","100.40","","","","-44","","Ice Crystals"
"-83.36","64.19","CORAL HARBOUR A","2301002","2018-01-01 06:00","2018","01","01","06:00","-34.6","","-38.2","","71","","","","34","","10","","24.1","","100.34","","","","-45","","NA"
"-83.36","64.19","CORAL HARBOUR A","2301002","2018-01-01 07:00","2018","01","01","07:00","-36.4","","-40.1","","69","","","","35","","7","","24.1","","100.32","","","","-45","","Ice Crystals"
"-83.36","64.19","CORAL HARBOUR A","2301002","2018-01-01 08:00","2018","01","01","08:00","-33.4","","-37.0","","71","","","","6","","13","","80.5","","100.27","","","","-45","","Ice Crystals"
"-83.36","64.19","CORAL HARBOUR A","2301002","2018-01-01 09:00","2018","01","01","09:00","-31.9","","-35.3","","72","","","","6","","21","","24.1","","100.24","","","","-46","","Ice Crystals"
"-83.36","64.19","CORAL HARBOUR A","2301002","2018-01-01 10:00","2018","01","01","10:00","-31.8","","-35.2","","72","","","","6","","21","","24.1","","100.23","","","","-46","","Ice Crystals"
"-83.36","64.19","CORAL HARBOUR A","2301002","2018-01-01 11:00","2018","01","01","11:00","-31.9","","-35.3","","72","","","","6","","21","","24.1","","100.22","","","","-46","","Ice Crystals"
"-83.36","64.19","CORAL HARBOUR A","2301002","2018-01-01 12:00","2018","01","01","12:00","-31.3","","-34.6","","73","","","","7","","23","","24.1","","100.21","","","","-46","","Ice Crystals"
"-83.36","64.19","CORAL HARBOUR A","2301002","2018-01-01 13:00","2018","01","01","13:00","-31.6","","-35.1","","72","","","","7","","30","","24.1","","100.20","","","","-48","","Ice Crystals,Blowing Snow"
"-83.36","64.19","CORAL HARBOUR A","2301002","2018-01-01 14:00","2018","01","01","14:00","-31.9","","-35.3","","72","","","","7","","30","","24.1","","100.20","","","","-48","","Ice Crystals,Blowing Snow"
"-83.36","64.19","CORAL HARBOUR A","2301002","2018-01-01 15:00","2018","01","01","15:00","-32.5","","-35.9","","72","","","","6","","30","","24.1","","100.23","","","","-49","","Ice Crystals,Blowing Snow"
"-83.36","64.19","CORAL HARBOUR A","2301002","2018-01-01 16:00","2018","01","01","16:00","-31.9","","-35.4","","72","","","","7","","43","","24.1","","100.26","","","","-51","","Ice Crystals"
"-83.36","64.19","CORAL HARBOUR A","2301002","2018-01-01 17:00","2018","01","01","17:00","-31.5","","-35.0","","73","","","","6","","37","","24.1","","100.31","","","","-49","","Ice Crystals,Blowing Snow"
"-83.36","64.19","CORAL HARBOUR A","2301002","2018-01-01 18:00","2018","01","01","18:00","-31.6","","-35.0","","72","","","","7","","36","","24.1","","100.35","","","","-49","","Ice Crystals,Blowing Snow"
"-83.36","64.19","CORAL HARBOUR A","2301002","2018-01-01 19:00","2018","01","01","19:00","-33.2","","-36.9","","71","","","","7","","39","","24.1","","100.40","","","","-52","","Ice Crystals"
"-83.36","64.19","CORAL HARBOUR A","2301002","2018-01-01 20:00","2018","01","01","20:00","-32.6","","-36.1","","71","","","","6","","30","","24.1","","100.42","","","","-49","","Ice Crystals"
"-83.36","64.19","CORAL HARBOUR A","2301002","2018-01-01 21:00","2018","01","01","21:00","-31.8","","-35.2","","73","","","","5","","30","","24.1","","100.41","","","","-48","","Ice Crystals"
"-83.36","64.19","CORAL HARBOUR A","2301002","2018-01-01 22:00","2018","01","01","22:00","-31.6","","-35.0","","72","","","","4","","23","","24.1","","100.44","","","","-46","","Ice Crystals"
"-83.36","64.19","CORAL HARBOUR A","2301002","2018-01-01 23:00","2018","01","01","23:00","-34.5","","-38.1","","71","","","","3","","19","","24.1","","100.47","","","","-48","","Ice Crystals"
"-83.36","64.19","CORAL HARBOUR A","2301002","2018-01-02 00:00","2018","01","02","00:00","-34.3","","-37.9","","71","","","","36","","24","","24.1","","100.47","","","","-50","","Ice Crystals"
"-83.36","64.19","CORAL HARBOUR A","2301002","2018-01-02 01:00","2018","01","02","01:00","-34.3","","-37.9","","70","","","","2","","16","","24.1","","100.51","","","","-47","","Ice Crystals"
"-83.36","64.19","CORAL HARBOUR A","2301002","2018-01-02 02:00","2018","01","02","02:00","-34.6","","-38.2","","70","","","","35","","13","","24.1","","100.53","","","","-46","","Ice Crystals"
"-83.36","64.19","CORAL HARBOUR A","2301002","2018-01-02 03:00","2018","01","02","03:00","-34.4","","-38.0","","71","","","","36","","24","","24.1","","100.57","","","","-50","","Ice Crystals"
"-83.36","64.19","CORAL HARBOUR A","2301002","2018-01-02 04:00","2018","01","02","04:00","-34.1","","-37.7","","71","","","","36","","13","","24.1","","100.59","","","","-46","","Ice Crystals"
"-83.36","64.19","CORAL HARBOUR A","2301002","2018-01-02 05:00","2018","01","02","05:00","-34.2","","-37.8","","71","","","","35","","22","","24.1","","100.61","","","","-49","","Ice Crystals"
"-83.36","64.19","CORAL HARBOUR A","2301002","2018-01-02 06:00","2018","01","02","06:00","-34.1","","-37.7","","71","","","","2","","22","","24.1","","100.62","","","","-49","","Ice Crystals"
"-83.36","64.19","CORAL HARBOUR A","2301002","2018-01-02 07:00","2018","01","02","07:00","-33.9","","-37.4","","71","","","","35","","19","","24.1","","100.64","","","","-48","","Ice Crystals"
"-83.36","64.19","CORAL HARBOUR A","2301002","2018-01-02 08:00","2018","01","02","08:00","-33.5","","-37.1","","71","","","","1","","25","","24.1","","100.63","","","","-49","","NA"
"-83.36","64.19","CORAL HARBOUR A","2301002","2018-01-02 09:00","2018","01","02","09:00","-33.2","","-36.7","","72","","","","36","","24","","24.1","","100.65","","","","-48","","Ice Crystals"
"-83.36","64.19","CORAL HARBOUR A","2301002","2018-01-02 10:00","2018","01","02","10:00","-32.6","","-36.1","","72","","","","1","","19","","24.1","","100.65","","","","-46","","Ice Crystals"
"-83.36","64.19","CORAL HARBOUR A","2301002","2018-01-02 11:00","2018","01","02","11:00","-33.7","","-37.3","","71","","","","3","","9","","24.1","","100.66","","","","-43","","Ice Crystals"
"-83.36","64.19","CORAL HARBOUR A","2301002","2018-01-02 12:00","2018","01","02","12:00","-32.9","","-36.5","","71","","","","8","","5","","24.1","","100.67","","","","-39","","Ice Crystals"
"-83.36","64.19","CORAL HARBOUR A","2301002","2018-01-02 13:00","2018","01","02","13:00","-34.7","","-38.4","","70","","","","2","","8","","24.1","","100.67","","","","-43","","Ice Crystals"
"-83.36","64.19","CORAL HARBOUR A","2301002","2018-01-02 14:00","2018","01","02","14:00","-34.1","","-37.7","","70","","","","3","","5","","24.1","","100.69","","","","-40","","Ice Crystals"
"-83.36","64.19","CORAL HARBOUR A","2301002","2018-01-02 15:00","2018","01","02","15:00","-31.1","","-34.5","","73","","","","3","","30","","24.1","","100.71","","","","-47","","Ice Crystals"
"-83.36","64.19","CORAL HARBOUR A","2301002","2018-01-02 16:00","2018","01","02","16:00","-31.2","","-34.6","","72","","","","4","","30","","24.1","","100.78","","","","-47","","Ice Crystals"
"-83.36","64.19","CORAL HARBOUR A","2301002","2018-01-02 17:00","2018","01","02","17:00","-31.2","","-34.7","","72","","","","4","","28","","24.1","","100.85","","","","-47","","Ice Crystals"
"-83.36","64.19","CORAL HARBOUR A","2301002","2018-01-02 18:00","2018","01","02","18:00","-35.4","","-39.1","","70","","","","35","","13","","24.1","","100.89","","","","-47","","Ice Crystals"
"-83.36","64.19","CORAL HARBOUR A","2301002","2018-01-02 19:00","2018","01","02","19:00","-36.0","","-39.7","","69","","","","4","","21","","24.1","","100.92","","","","-51","","Ice Crystals"
"-83.36","64.19","CORAL HARBOUR A","2301002","2018-01-02 20:00","2018","01","02","20:00","-35.2","","-38.9","","70","","","","33","","18","","24.1","","100.94","","","","-49","","Ice Crystals"
"-83.36","64.19","CORAL HARBOUR A","2301002","2018-01-02 21:00","2018","01","02","21:00","-36.8","","-40.5","","69","","","","35","","14","","24.1","","100.97","","","","-49","","Ice Crystals"
"-83.36","64.19","CORAL HARBOUR A","2301002","2018-01-02 22:00","2018","01","02","22:00","-35.6","","-39.3","","70","","","","34","","20","","24.1","","100.99","","","","-50","","Ice Crystals"
"-83.36","64.19","CORAL HARBOUR A","2301002","2018-01-02 23:00","2018","01","02","23:00","-36.4","","-40.1","","69","","","","33","","23","","24.1","","101.01","","","","-52","","Ice Crystals"
"-83.36","64.19","CORAL HARBOUR A","2301002","2018-01-03 00:00","2018","01","03","00:00","-36.7","","-40.4","","69","","","","33","","25","","24.1","","101.05","","","","-53","","Ice Crystals"
"-83.36","64.19","CORAL HARBOUR A","2301002","2018-01-03 01:00","2018","01","03","01:00","-36.3","","-40.0","","69","","","","34","","22","","24.1","","101.05","","","","-52","","Ice Crystals"
"-83.36","64.19","CORAL HARBOUR A","2301002","2018-01-03 02:00","2018","01","03","02:00","-35.7","","-39.4","","70","","","","34","","23","","24.1","","101.10","","","","-51","","Ice Crystals"
"-83.36","64.19","CORAL HARBOUR A","2301002","2018-01-03 03:00","2018","01","03","03:00","-35.6","","-39.3","","70","","","","34","","23","","24.1","","101.15","","","","-51","","Ice Crystals"
"-83.36","64.19","CORAL HARBOUR A","2301002","2018-01-03 04:00","2018","01","03","04:00","-36.2","","-40.0","","69","","","","32","","22","","24.1","","101.18","","","","-52","","Ice Crystals"
"-83.36","64.19","CORAL HARBOUR A","2301002","2018-01-03 05:00","2018","01","03","05:00","-35.5","","-39.2","","70","","","","34","","16","","24.1","","101.25","","","","-49","","Ice Crystals"
"-83.36","64.19","CORAL HARBOUR A","2301002","2018-01-03 06:00","2018","01","03","06:00","-36.1","","-39.8","","69","","","","34","","22","","24.1","","101.31","","","","-51","","Ice Crystals"
"-83.36","64.19","CORAL HARBOUR A","2301002","2018-01-03 07:00","2018","01","03","07:00","-34.3","","-37.9","","71","","","","35","","21","","24.1","","101.32","","","","-49","","Ice Crystals"
"-83.36","64.19","CORAL HARBOUR A","2301002","2018-01-03 08:00","2018","01","03","08:00","-34.8","","-38.5","","70","","","","35","","19","","24.1","","101.33","","","","-49","","Ice Crystals"
"-83.36","64.19","CORAL HARBOUR A","2301002","2018-01-03 09:00","2018","01","03","09:00","-36.1","","-39.9","","69","","","","33","","27","","24.1","","101.37","","","","-53","","Ice Crystals"
"-83.36","64.19","CORAL HARBOUR A","2301002","2018-01-03 10:00","2018","01","03","10:00","-35.5","","-39.2","","70","","","","35","","22","","24.1","","101.38","","","","-51","","Ice Crystals"
"-83.36","64.19","CORAL HARBOUR A","2301002","2018-01-03 11:00","2018","01","03","11:00","-36.4","","-40.2","","69","","","","34","","25","","24.1","","101.43","","","","-53","","Ice Crystals"
"-83.36","64.19","CORAL HARBOUR A","2301002","2018-01-03 12:00","2018","01","03","12:00","-35.4","","-39.1","","70","","","","35","","19","","24.1","","101.44","","","","-50","","Ice Crystals,Blowing Snow"
"-83.36","64.19","CORAL HARBOUR A","2301002","2018-01-03 13:00","2018","01","03","13:00","-35.8","","-39.5","","69","","","","34","","25","","24.1","","101.44","","","","-52","","Ice Crystals"
"-83.36","64.19","CORAL HARBOUR A","2301002","2018-01-03 14:00","2018","01","03","14:00","-35.8","","-39.5","","69","","","","34","","26","","24.1","","101.46","","","","-52","","Ice Crystals"
"-83.36","64.19","CORAL HARBOUR A","2301002","2018-01-03 15:00","2018","01","03","15:00","-36.5","","-40.2","","69","","","","34","","19","","24.1","","101.50","","","","-51","","Ice Crystals"
"-83.36","64.19","CORAL HARBOUR A","2301002","2018-01-03 16:00","2018","01","03","16:00","-36.0","","-39.8","","69","","","","36","","20","","24.1","","101.53","","","","-51","","Ice Crystals"
"-83.36","64.19","CORAL HARBOUR A","2301002","2018-01-03 17:00","2018","01","03","17:00","-36.9","","-40.7","","69","","","","33","","22","","24.1","","101.57","","","","-52","","Ice Crystals"
"-83.36","64.19","CORAL HARBOUR A","2301002","2018-01-03 18:00","2018","01","03","18:00","-37.7","","-41.5","","68","","","","36","","9","","24.1","","101.62","","","","-48","","Ice Crystals"
"-83.36","64.19","CORAL HARBOUR A","2301002","2018-01-03 19:00","2018","01","03","19:00","-37.9","","-41.7","","68","","","","1","","9","","24.1","","101.64","","","","-48","","Ice Crystals"
"-83.36","64.19","CORAL HARBOUR A","2301002","2018-01-03 20:00","2018","01","03","20:00","-37.5","","-41.3","","69","","","","3","","12","","24.1","","101.67","","","","-49","","Ice Crystals"
"-83.36","64.19","CORAL HARBOUR A","2301002","2018-01-03 21:00","2018","01","03","21:00","-36.6","","-40.3","","69","","","","4","","16","","24.1","","101.67","","","","-50","","Ice Crystals"
"-83.36","64.19","CORAL HARBOUR A","2301002","2018-01-03 22:00","2018","01","03","22:00","-36.9","","-40.7","","69","","","","4","","18","","24.1","","101.69","","","","-51","","Ice Crystals"
"-83.36","64.19","CORAL HARBOUR A","2301002","2018-01-03 23:00","2018","01","03","23:00","-37.8","","-41.7","","68","","","","36","","22","","24.1","","101.71","","","","-54","","Ice Crystals"
"-83.36","64.19","CORAL HARBOUR A","2301002","2018-01-04 00:00","2018","01","04","00:00","-37.6","","-41.4","","69","","","","35","","22","","24.1","","101.74","","","","-53","","Ice Crystals"
"-83.36","64.19","CORAL HARBOUR A","2301002","2018-01-04 01:00","2018","01","04","01:00","-38.7","","-42.6","","68","","","","34","","9","","24.1","","101.78","","","","-49","","Ice Crystals"
"-83.36","64.19","CORAL HARBOUR A","2301002","2018-01-04 02:00","2018","01","04","02:00","-38.2","","-42.0","","68","","","","35","","22","","24.1","","101.83","","","","-54","","Ice Crystals"
"-83.36","64.19","CORAL HARBOUR A","2301002","2018-01-04 03:00","2018","01","04","03:00","-37.3","","-41.1","","69","","","","1","","18","","24.1","","101.88","","","","-52","","Ice Crystals"
"-83.36","64.19","CORAL HARBOUR A","2301002","2018-01-04 04:00","2018","01","04","04:00","-37.8","","-41.6","","68","","","","34","","19","","24.1","","101.93","","","","-53","","Ice Crystals"
"-83.36","64.19","CORAL HARBOUR A","2301002","2018-01-04 05:00","2018","01","04","05:00","-38.1","","-41.9","","68","","","","34","","21","","24.1","","102.00","","","","-54","","Ice Crystals"
"-83.36","64.19","CORAL HARBOUR A","2301002","2018-01-04 06:00","2018","01","04","06:00","-38.5","","-42.3","","68","","","","34","","17","","24.1","","102.00","","","","-53","","Ice Crystals"
"-83.36","64.19","CORAL HARBOUR A","2301002","2018-01-04 07:00","2018","01","04","07:00","-37.8","","-41.6","","68","","","","34","","23","","24.1","","102.06","","","","-54","","Ice Crystals"
"-83.36","64.19","CORAL HARBOUR A","2301002","2018-01-04 08:00","2018","01","04","08:00","-38.4","","-42.3","","68","","","","34","","16","","24.1","","102.11","","","","-52","","Ice Crystals"
"-83.36","64.19","CORAL HARBOUR A","2301002","2018-01-04 09:00","2018","01","04","09:00","-37.6","","-41.4","","69","","","","34","","23","","24.1","","102.15","","","","-54","","Ice Crystals"
"-83.36","64.19","CORAL HARBOUR A","2301002","2018-01-04 10:00","2018","01","04","10:00","-38.1","","-42.0","","68","","","","34","","16","","24.1","","102.19","","","","-52","","Ice Crystals"
"-83.36","64.19","CORAL HARBOUR A","2301002","2018-01-04 11:00","2018","01","04","11:00","-37.2","","-40.9","","69","","","","35","","22","","24.1","","102.22","","","","-53","","Ice Crystals"
"-83.36","64.19","CORAL HARBOUR A","2301002","2018-01-04 12:00","2018","01","04","12:00","-37.6","","-41.4","","68","","","","36","","23","","24.1","","102.24","","","","-54","","Ice Crystals"
"-83.36","64.19","CORAL HARBOUR A","2301002","2018-01-04 13:00","2018","01","04","13:00","-37.7","","-41.5","","68","","","","35","","17","","24.1","","102.24","","","","-52","","Ice Crystals"
"-83.36","64.19","CORAL HARBOUR A","2301002","2018-01-04 14:00","2018","01","04","14:00","-37.2","","-41.1","","68","","","","36","","17","","24.1","","102.27","","","","-51","","Ice Crystals"
"-83.36","64.19","CORAL HARBOUR A","2301002","2018-01-04 15:00","2018","01","04","15:00","-37.2","","-41.0","","68","","","","34","","21","","24.1","","102.31","","","","-53","","Ice Crystals"
"-83.36","64.19","CORAL HARBOUR A","2301002","2018-01-04 16:00","2018","01","04","16:00","-37.2","","-41.1","","68","","","","34","","20","","24.1","","102.36","","","","-52","","Ice Crystals"
"-83.36","64.19","CORAL HARBOUR A","2301002","2018-01-04 17:00","2018","01","04","17:00","-35.3","","-39.1","","69","","","","36","","23","","24.1","","102.38","","","","-51","","Ice Crystals"
"-83.36","64.19","CORAL HARBOUR A","2301002","2018-01-04 18:00","2018","01","04","18:00","-34.6","","-38.4","","70","","","","36","","23","","24.1","","102.42","","","","-50","","Ice Crystals"
"-83.36","64.19","CORAL HARBOUR A","2301002","2018-01-04 19:00","2018","01","04","19:00","-36.2","","-40.0","","69","","","","34","","26","","24.1","","102.42","","","","-53","","Ice Crystals"
"-83.36","64.19","CORAL HARBOUR A","2301002","2018-01-04 20:00","2018","01","04","20:00","-35.2","","-39.0","","69","","","","35","","21","","24.1","","102.40","","","","-50","","Ice Crystals"
"-83.36","64.19","CORAL HARBOUR A","2301002","2018-01-04 21:00","2018","01","04","21:00","-35.1","","-38.8","","69","","","","35","","22","","24.1","","102.40","","","","-50","","Ice Crystals"
"-83.36","64.19","CORAL HARBOUR A","2301002","2018-01-04 22:00","2018","01","04","22:00","-32.3","","-35.9","","71","","","","2","","25","","24.1","","102.37","","","","-47","","Ice Crystals"
"-83.36","64.19","CORAL HARBOUR A","2301002","2018-01-04 23:00","2018","01","04","23:00","-33.5","","-37.2","","70","","","","2","","23","","24.1","","102.34","","","","-48","","Ice Crystals"
"-83.36","64.19","CORAL HARBOUR A","2301002","2018-01-05 00:00","2018","01","05","00:00","-32.3","","-35.8","","72","","","","2","","11","","24.1","","102.36","","","","-42","","Ice Crystals"
"-83.36","64.19","CORAL HARBOUR A","2301002","2018-01-05 01:00","2018","01","05","01:00","-33.7","","-37.5","","70","","","","1","","13","","24.1","","102.36","","","","-45","","Ice Crystals"
"-83.36","64.19","CORAL HARBOUR A","2301002","2018-01-05 02:00","2018","01","05","02:00","-34.3","","-38.0","","70","","","","35","","19","","24.1","","102.35","","","","-48","","Ice Crystals"
"-83.36","64.19","CORAL HARBOUR A","2301002","2018-01-05 03:00","2018","01","05","03:00","-34.0","","-37.7","","70","","","","2","","23","","24.1","","102.38","","","","-49","","Ice Crystals"
"-83.36","64.19","CORAL HARBOUR A","2301002","2018-01-05 04:00","2018","01","05","04:00","-32.7","","-36.3","","71","","","","2","","25","","24.1","","102.39","","","","-48","","Ice Crystals"
"-83.36","64.19","CORAL HARBOUR A","2301002","2018-01-05 05:00","2018","01","05","05:00","-35.8","","-39.6","","69","","","","4","","17","","24.1","","102.35","","","","-49","","Ice Crystals"
"-83.36","64.19","CORAL HARBOUR A","2301002","2018-01-05 06:00","2018","01","05","06:00","-34.8","","-38.4","","70","","","","8","","8","","24.1","","102.31","","","","-44","","Ice Crystals"
"-83.36","64.19","CORAL HARBOUR A","2301002","2018-01-05 07:00","2018","01","05","07:00","-34.5","","-38.1","","71","","","","35","","3","","24.1","","102.35","","","","-38","","Ice Crystals"
"-83.36","64.19","CORAL HARBOUR A","2301002","2018-01-05 08:00","2018","01","05","08:00","-35.8","","-39.5","","70","","","","2","","19","","24.1","","102.26","","","","-50","","Ice Crystals"
"-83.36","64.19","CORAL HARBOUR A","2301002","2018-01-05 09:00","2018","01","05","09:00","-34.3","","-37.8","","71","","","","8","","9","","24.1","","102.28","","","","-44","","Ice Crystals"
"-83.36","64.19","CORAL HARBOUR A","2301002","2018-01-05 10:00","2018","01","05","10:00","-35.8","","-39.5","","70","","","","1","","9","","24.1","","102.22","","","","-45","","Ice Crystals"
"-83.36","64.19","CORAL HARBOUR A","2301002","2018-01-05 11:00","2018","01","05","11:00","-36.3","","-40.0","","69","","","","1","","26","","24.1","","102.14","","","","-53","","Ice Crystals"
"-83.36","64.19","CORAL HARBOUR A","2301002","2018-01-05 12:00","2018","01","05","12:00","-36.4","","-40.2","","69","","","","5","","18","","24.1","","102.10","","","","-50","","Ice Crystals"
"-83.36","64.19","CORAL HARBOUR A","2301002","2018-01-05 13:00","2018","01","05","13:00","-34.8","","-38.4","","70","","","","1","","12","","24.1","","102.02","","","","-46","","Ice Crystals"
"-83.36","64.19","CORAL HARBOUR A","2301002","2018-01-05 14:00","2018","01","05","14:00","-34.6","","-38.2","","70","","","","4","","18","","24.1","","102.00","","","","-48","","Ice Crystals"
"-83.36","64.19","CORAL HARBOUR A","2301002","2018-01-05 15:00","2018","01","05","15:00","-34.4","","-38.0","","70","","","","7","","6","","24.1","","102.00","","","","-42","","Ice Crystals"
"-83.36","64.19","CORAL HARBOUR A","2301002","2018-01-05 16:00","2018","01","05","16:00","-34.0","","-37.6","","71","","","","30","","7","","24.1","","101.98","","","","-42","","Ice Crystals"
"-83.36","64.19","CORAL HARBOUR A","2301002","2018-01-05 17:00","2018","01","05","17:00","-34.8","","-38.4","","71","","","","6","","21","","24.1","","101.94","","","","-49","","Ice Crystals"
"-83.36","64.19","CORAL HARBOUR A","2301002","2018-01-05 18:00","2018","01","05","18:00","-33.7","","-37.2","","71","","","","4","","10","","24.1","","101.90","","","","-44","","Ice Crystals"
"-83.36","64.19","CORAL HARBOUR A","2301002","2018-01-05 19:00","2018","01","05","19:00","-33.4","","-36.9","","72","","","","5","","14","","24.1","","101.85","","","","-45","","Ice Crystals"
"-83.36","64.19","CORAL HARBOUR A","2301002","2018-01-05 20:00","2018","01","05","20:00","-35.5","","-39.1","","70","","","","5","","21","","24.1","","101.76","","","","-50","","Ice Crystals"
"-83.36","64.19","CORAL HARBOUR A","2301002","2018-01-05 21:00","2018","01","05","21:00","-34.8","","-38.4","","70","","","","7","","23","","24.1","","101.66","","","","-50","","Ice Crystals"
"-83.36","64.19","CORAL HARBOUR A","2301002","2018-01-05 22:00","2018","01","05","22:00","-35.1","","-38.8","","70","","","","1","","8","","24.1","","101.56","","","","-44","","Ice Crystals"
"-83.36","64.19","CORAL HARBOUR A","2301002","2018-01-05 23:00","2018","01","05","23:00","-35.2","","-38.9","","70","","","","35","","14","","24.1","","101.48","","","","-47","","Ice Crystals"
"-83.36","64.19","CORAL HARBOUR A","2301002","2018-01-06 00:00","2018","01","06","00:00","-35.9","","-39.6","","70","","","","33","","13","","24.1","","101.39","","","","-48","","Ice Crystals"
"-83.36","64.19","CORAL HARBOUR A","2301002","2018-01-06 01:00","2018","01","06","01:00","-36.2","","-39.9","","69","","","","35","","18","","24.1","","101.27","","","","-50","","Ice Crystals"
"-83.36","64.19","CORAL HARBOUR A","2301002","2018-01-06 02:00","2018","01","06","02:00","-35.0","","-38.7","","70","","","","5","","7","","24.1","","101.21","","","","-43","","Ice Crystals"
"-83.36","64.19","CORAL HARBOUR A","2301002","2018-01-06 03:00","2018","01","06","03:00","-34.0","","-37.6","","71","","","","3","","7","","24.1","","101.14","","","","-42","","Ice Crystals"
"-83.36","64.19","CORAL HARBOUR A","2301002","2018-01-06 04:00","2018","01","06","04:00","-32.9","","-36.4","","71","","","","35","","4","","24.1","","101.07","","","","-38","","Ice Crystals"
"-83.36","64.19","CORAL HARBOUR A","2301002","2018-01-06 05:00","2018","01","06","05:00","-32.4","","-35.8","","72","","","","36","","1","","24.1","","100.99","","","","-34","","Ice Crystals"
"-83.36","64.19","CORAL HARBOUR A","2301002","2018-01-06 06:00","2018","01","06","06:00","-31.9","","-35.4","","72","","","","3","","4","","24.1","","100.89","","","","-37","","Ice Crystals"
"-83.36","64.19","CORAL HARBOUR A","2301002","2018-01-06 07:00","2018","01","06","07:00","-33.8","","-37.4","","71","","","","36","","7","","24.1","","100.80","","","","-42","","Ice Crystals"
"-83.36","64.19","CORAL HARBOUR A","2301002","2018-01-06 08:00","2018","01","06","08:00","-32.4","","-35.9","","72","","","","34","","23","","24.1","","100.67","","","","-47","","Ice Crystals"
"-83.36","64.19","CORAL HARBOUR A","2301002","2018-01-06 09:00","2018","01","06","09:00","-32.2","","-35.7","","72","","","","7","","5","","24.1","","100.61","","","","-38","","Ice Crystals"
"-83.36","64.19","CORAL HARBOUR A","2301002","2018-01-06 10:00","2018","01","06","10:00","-32.8","","-36.4","","71","","","","33","","10","","24.1","","100.55","","","","-42","","Ice Crystals"
"-83.36","64.19","CORAL HARBOUR A","2301002","2018-01-06 11:00","2018","01","06","11:00","-32.7","","-36.1","","72","","","","2","","11","","24.1","","100.46","","","","-43","","Ice Crystals"
"-83.36","64.19","CORAL HARBOUR A","2301002","2018-01-06 12:00","2018","01","06","12:00","-31.6","","-35.0","","72","","","","36","","4","","24.1","","100.39","","","","-36","","Ice Crystals"
"-83.36","64.19","CORAL HARBOUR A","2301002","2018-01-06 13:00","2018","01","06","13:00","-31.7","","-35.2","","72","","","","36","","14","","24.1","","100.29","","","","-43","","Ice Crystals"
"-83.36","64.19","CORAL HARBOUR A","2301002","2018-01-06 14:00","2018","01","06","14:00","-30.5","","-33.9","","73","","","","35","","25","","24.1","","100.20","","","","-45","","Ice Crystals"
"-83.36","64.19","CORAL HARBOUR A","2301002","2018-01-06 15:00","2018","01","06","15:00","-29.8","","-33.0","","74","","","","34","","25","","24.1","","100.16","","","","-44","","Ice Crystals"
"-83.36","64.19","CORAL HARBOUR A","2301002","2018-01-06 16:00","2018","01","06","16:00","-30.0","","-33.4","","73","","","","36","","17","","24.1","","100.14","","","","-42","","Ice Crystals"
"-83.36","64.19","CORAL HARBOUR A","2301002","2018-01-06 17:00","2018","01","06","17:00","-29.3","","-32.5","","74","","","","3","","10","","24.1","","100.12","","","","-38","","Ice Crystals"
"-83.36","64.19","CORAL HARBOUR A","2301002","2018-01-06 18:00","2018","01","06","18:00","-29.1","","-32.3","","74","","","","33","","29","","24.1","","100.04","","","","-44","","NA"
"-83.36","64.19","CORAL HARBOUR A","2301002","2018-01-06 19:00","2018","01","06","19:00","-27.8","","-30.9","","75","","","","34","","18","","24.1","","99.95","","","","-40","","Mainly Clear"
"-83.36","64.19","CORAL HARBOUR A","2301002","2018-01-06 20:00","2018","01","06","20:00","-26.2","","-29.2","","76","","","","32","","14","","24.1","","99.89","","","","-36","","NA"
"-83.36","64.19","CORAL HARBOUR A","2301002","2018-01-06 21:00","2018","01","06","21:00","-25.9","","-29.0","","76","","","","35","","12","","24.1","","99.84","","","","-35","","NA"
"-83.36","64.19","CORAL HARBOUR A","2301002","2018-01-06 22:00","2018","01","06","22:00","-26.4","","-29.4","","76","","","","30","","13","","24.1","","99.75","","","","-36","","Mainly Clear"
"-83.36","64.19","CORAL HARBOUR A","2301002","2018-01-06 23:00","2018","01","06","23:00","-25.3","","-28.3","","77","","","","28","","14","","24.1","","99.71","","","","-35","","NA"
"-83.36","64.19","CORAL HARBOUR A","2301002","2018-01-07 00:00","2018","01","07","00:00","-23.8","","-26.6","","78","","","","30","","3","","24.1","","99.69","","","","-27","","NA"
"-83.36","64.19","CORAL HARBOUR A","2301002","2018-01-07 01:00","2018","01","07","01:00","-23.6","","-26.6","","77","","","","36","","2","","24.1","","99.65","","","","-26","","Mainly Clear"
"-83.36","64.19","CORAL HARBOUR A","2301002","2018-01-07 02:00","2018","01","07","02:00","-23.3","","-26.4","","76","","","","23","","7","","24.1","","99.64","","","","-29","","NA"
"-83.36","64.19","CORAL HARBOUR A","2301002","2018-01-07 03:00","2018","01","07","03:00","-21.8","","-24.8","","77","","","","25","","7","","24.1","","99.62","","","","-28","","NA"
"-83.36","64.19","CORAL HARBOUR A","2301002","2018-01-07 04:00","2018","01","07","04:00","-22.6","","-25.6","","77","","","","20","","9","","24.1","","99.60","","","","-30","","Mostly Cloudy"
"-83.36","64.19","CORAL HARBOUR A","2301002","2018-01-07 05:00","2018","01","07","05:00","-21.2","","-24.5","","75","","","","31","","13","","24.1","","99.56","","","","-30","","NA"
"-83.36","64.19","CORAL HARBOUR A","2301002","2018-01-07 06:00","2018","01","07","06:00","-21.8","","-25.2","","74","","","","26","","11","","24.1","","99.58","","","","-30","","NA"
"-83.36","64.19","CORAL HARBOUR A","2301002","2018-01-07 07:00","2018","01","07","07:00","-21.0","","-24.3","","75","","","","31","","9","","24.1","","99.58","","","","-28","","Mostly Cloudy"
"-83.36","64.19","CORAL HARBOUR A","2301002","2018-01-07 08:00","2018","01","07","08:00","-20.8","","-24.0","","76","","","","34","","19","","24.1","","99.57","","","","-31","","Snow"
"-83.36","64.19","CORAL HARBOUR A","2301002","2018-01-07 09:00","2018","01","07","09:00","-20.8","","-23.7","","78","","","","35","","27","","24.1","","99.52","","","","-33","","Snow,Blowing Snow"
"-83.36","64.19","CORAL HARBOUR A","2301002","2018-01-07 10:00","2018","01","07","10:00","-20.7","","-23.2","","81","","","","35","","18","","24.1","","99.58","","","","-31","","Snow"
"-83.36","64.19","CORAL HARBOUR A","2301002","2018-01-07 11:00","2018","01","07","11:00","-21.0","","-23.6","","80","","","","1","","11","","24.1","","99.59","","","","-29","","Snow"
"-83.36","64.19","CORAL HARBOUR A","2301002","2018-01-07 12:00","2018","01","07","12:00","-20.7","","-23.4","","79","","","","1","","13","","24.1","","99.59","","","","-29","","Snow"
"-83.36","64.19","CORAL HARBOUR A","2301002","2018-01-07 13:00","2018","01","07","13:00","-21.0","","-23.6","","80","","","","33","","9","","24.1","","99.59","","","","-28","","Snow"
"-83.36","64.19","CORAL HARBOUR A","2301002","2018-01-07 14:00","2018","01","07","14:00","-20.4","","-22.9","","81","","","","34","","6","","24.1","","99.63","","","","-25","","Snow"
"-83.36","64.19","CORAL HARBOUR A","2301002","2018-01-07 15:00","2018","01","07","15:00","-21.4","","-23.8","","81","","","","36","","2","","24.1","","99.67","","","","-23","","Snow"
"-83.36","64.19","CORAL HARBOUR A","2301002","2018-01-07 16:00","2018","01","07","16:00","-22.3","","-25.0","","79","","","","36","","14","","24.1","","99.71","","","","-32","","Snow"
"-83.36","64.19","CORAL HARBOUR A","2301002","2018-01-07 17:00","2018","01","07","17:00","-25.0","","-28.1","","76","","","","1","","11","","24.1","","99.72","","","","-34","","Ice Crystals"
"-83.36","64.19","CORAL HARBOUR A","2301002","2018-01-07 18:00","2018","01","07","18:00","-23.8","","-27.1","","75","","","","33","","8","","24.1","","99.74","","","","-31","","Ice Crystals"
"-83.36","64.19","CORAL HARBOUR A","2301002","2018-01-07 19:00","2018","01","07","19:00","-25.5","","-28.8","","74","","","","35","","12","","24.1","","99.76","","","","-35","","Ice Crystals"
"-83.36","64.19","CORAL HARBOUR A","2301002","2018-01-07 20:00","2018","01","07","20:00","-25.6","","-29.0","","73","","","","36","","8","","24.1","","99.74","","","","-33","","Ice Crystals"
"-83.36","64.19","CORAL HARBOUR A","2301002","2018-01-07 21:00","2018","01","07","21:00","-24.8","","-28.2","","73","","","","33","","7","","24.1","","99.72","","","","-31","","Ice Crystals"
"-83.36","64.19","CORAL HARBOUR A","2301002","2018-01-07 22:00","2018","01","07","22:00","-24.4","","-27.4","","77","","","","33","","8","","24.1","","99.74","","","","-31","","Ice Crystals"
"-83.36","64.19","CORAL HARBOUR A","2301002","2018-01-07 23:00","2018","01","07","23:00","-24.0","","-26.9","","78","","","","35","","13","","24.1","","99.73","","","","-33","","Ice Crystals"
"-83.36","64.19","CORAL HARBOUR A","2301002","2018-01-08 00:00","2018","01","08","00:00","-23.5","","-26.3","","78","","","","33","","12","","24.1","","99.75","","","","-32","","Ice Crystals"
"-83.36","64.19","CORAL HARBOUR A","2301002","2018-01-08 01:00","2018","01","08","01:00","-23.5","","-26.6","","77","","","","2","","9","","24.1","","99.77","","","","-31","","Ice Crystals"
"-83.36","64.19","CORAL HARBOUR A","2301002","2018-01-08 02:00","2018","01","08","02:00","-22.6","","-25.4","","79","","","","35","","6","","24.1","","99.77","","","","-28","","Ice Crystals"
"-83.36","64.19","CORAL HARBOUR A","2301002","2018-01-08 03:00","2018","01","08","03:00","-22.7","","-25.5","","78","","","","32","","7","","19.3","","99.80","","","","-29","","Snow"
"-83.36","64.19","CORAL HARBOUR A","2301002","2018-01-08 04:00","2018","01","08","04:00","-22.0","","-24.8","","78","","","","34","","11","","19.3","","99.80","","","","-30","","Snow"
"-83.36","64.19","CORAL HARBOUR A","2301002","2018-01-08 05:00","2018","01","08","05:00","-21.6","","-24.3","","79","","","","34","","7","","19.3","","99.80","","","","-28","","Snow"
"-83.36","64.19","CORAL HARBOUR A","2301002","2018-01-08 06:00","2018","01","08","06:00","-21.1","","-23.9","","79","","","","2","","13","","19.3","","99.78","","","","-30","","Snow"
"-83.36","64.19","CORAL HARBOUR A","2301002","2018-01-08 07:00","2018","01","08","07:00","-21.5","","-24.3","","79","","","","36","","3","","19.3","","99.77","","","","-24","","Snow"
"-83.36","64.19","CORAL HARBOUR A","2301002","2018-01-08 08:00","2018","01","08","08:00","-20.7","","-23.4","","79","","","","1","","4","","19.3","","99.73","","","","-24","","Snow"
"-83.36","64.19","CORAL HARBOUR A","2301002","2018-01-08 09:00","2018","01","08","09:00","-20.7","","-23.3","","80","","","","20","","3","","9.7","","99.72","","","","-23","","Snow"
"-83.36","64.19","CORAL HARBOUR A","2301002","2018-01-08 10:00","2018","01","08","10:00","-20.1","","-22.8","","80","","","","6","","4","","19.3","","99.72","","","","-24","","Snow"
"-83.36","64.19","CORAL HARBOUR A","2301002","2018-01-08 11:00","2018","01","08","11:00","-20.3","","-22.8","","80","","","","9","","5","","19.3","","99.72","","","","-25","","Snow"
"-83.36","64.19","CORAL HARBOUR A","2301002","2018-01-08 12:00","2018","01","08","12:00","-19.8","","-22.4","","80","","","","10","","10","","6.4","","99.71","","","","-27","","Snow"
"-83.36","64.19","CORAL HARBOUR A","2301002","2018-01-08 13:00","2018","01","08","13:00","-19.1","","-21.6","","81","","","","6","","8","","6.4","","99.71","","","","-25","","Snow"
"-83.36","64.19","CORAL HARBOUR A","2301002","2018-01-08 14:00","2018","01","08","14:00","-18.9","","-21.3","","81","","","","8","","11","","1.6","","99.66","","","","-26","","Snow"
"-83.36","64.19","CORAL HARBOUR A","2301002","2018-01-08 15:00","2018","01","08","15:00","-18.7","","-21.1","","82","","","","7","","14","","9.7","","99.62","","","","-27","","Snow"
"-83.36","64.19","CORAL HARBOUR A","2301002","2018-01-08 16:00","2018","01","08","16:00","-18.8","","-21.2","","82","","","","8","","18","","9.7","","99.58","","","","-28","","Snow"
"-83.36","64.19","CORAL HARBOUR A","2301002","2018-01-08 17:00","2018","01","08","17:00","-18.2","","-20.4","","83","","","","10","","16","","9.7","","99.51","","","","-27","","Snow"
"-83.36","64.19","CORAL HARBOUR A","2301002","2018-01-08 18:00","2018","01","08","18:00","-18.0","","-20.3","","82","","","","10","","15","","3.2","","99.48","","","","-27","","Snow"
"-83.36","64.19","CORAL HARBOUR A","2301002","2018-01-08 19:00","2018","01","08","19:00","-17.5","","-19.6","","84","","","","12","","17","","1.6","","99.42","","","","-27","","Snow"
"-83.36","64.19","CORAL HARBOUR A","2301002","2018-01-08 20:00","2018","01","08","20:00","-17.5","","-19.6","","84","","","","13","","18","","1.6","","99.40","","","","-27","","Snow"
"-83.36","64.19","CORAL HARBOUR A","2301002","2018-01-08 21:00","2018","01","08","21:00","-17.2","","-19.3","","84","","","","14","","19","","1.6","","99.32","","","","-27","","Snow"
"-83.36","64.19","CORAL HARBOUR A","2301002","2018-01-08 22:00","2018","01","08","22:00","-17.3","","-19.4","","84","","","","12","","19","","1.6","","99.24","","","","-27","","Snow"
"-83.36","64.19","CORAL HARBOUR A","2301002","2018-01-08 23:00","2018","01","08","23:00","-17.4","","-19.5","","84","","","","12","","24","","1.6","","99.18","","","","-28","","Snow"
"-83.36","64.19","CORAL HARBOUR A","2301002","2018-01-09 00:00","2018","01","09","00:00","-17.7","","-19.9","","83","","","","11","","22","","4.8","","99.13","","","","-28","","Snow"
"-83.36","64.19","CORAL HARBOUR A","2301002","2018-01-09 01:00","2018","01","09","01:00","-17.8","","-20.0","","83","","","","11","","22","","4.8","","99.07","","","","-28","","Snow"
"-83.36","64.19","CORAL HARBOUR A","2301002","2018-01-09 02:00","2018","01","09","02:00","-17.8","","-20.0","","83","","","","11","","24","","4.8","","99.03","","","","-29","","Snow"
"-83.36","64.19","CORAL HARBOUR A","2301002","2018-01-09 03:00","2018","01","09","03:00","-17.8","","-20.0","","83","","","","13","","18","","1.6","","98.99","","","","-27","","Snow"
"-83.36","64.19","CORAL HARBOUR A","2301002","2018-01-09 04:00","2018","01","09","04:00","-18.1","","-20.3","","83","","","","14","","16","","1.6","","98.95","","","","-27","","Snow"
"-83.36","64.19","CORAL HARBOUR A","2301002","2018-01-09 05:00","2018","01","09","05:00","-19.0","","-21.3","","82","","","","13","","16","","4.8","","98.92","","","","-28","","Snow"
"-83.36","64.19","CORAL HARBOUR A","2301002","2018-01-09 06:00","2018","01","09","06:00","-19.7","","-22.0","","83","","","","13","","16","","9.7","","98.89","","","","-29","","Snow"
"-83.36","64.19","CORAL HARBOUR A","2301002","2018-01-09 07:00","2018","01","09","07:00","-22.1","","-24.5","","82","","","","10","","11","","19.3","","98.88","","","","-30","","Snow"
"-83.36","64.19","CORAL HARBOUR A","2301002","2018-01-09 08:00","2018","01","09","08:00","-22.9","","-25.4","","80","","","","8","","15","","19.3","","98.85","","","","-33","","Snow"
"-83.36","64.19","CORAL HARBOUR A","2301002","2018-01-09 09:00","2018","01","09","09:00","-24.1","","-26.7","","79","","","","7","","16","","24.1","","98.84","","","","-34","","Snow"
"-83.36","64.19","CORAL HARBOUR A","2301002","2018-01-09 10:00","2018","01","09","10:00","-23.3","","-25.8","","80","","","","7","","13","","24.1","","98.83","","","","-32","","Snow"
"-83.36","64.19","CORAL HARBOUR A","2301002","2018-01-09 11:00","2018","01","09","11:00","-22.7","","-25.3","","80","","","","5","","14","","24.1","","98.83","","","","-32","","Snow"
"-83.36","64.19","CORAL HARBOUR A","2301002","2018-01-09 12:00","2018","01","09","12:00","-22.8","","-25.5","","79","","","","5","","13","","19.3","","98.82","","","","-32","","Snow"
"-83.36","64.19","CORAL HARBOUR A","2301002","2018-01-09 13:00","2018","01","09","13:00","-23.2","","-25.8","","79","","","","6","","11","","24.1","","98.80","","","","-31","","Snow"
"-83.36","64.19","CORAL HARBOUR A","2301002","2018-01-09 14:00","2018","01","09","14:00","-23.4","","-26.1","","79","","","","6","","12","","24.1","","98.80","","","","-32","","Snow"
"-83.36","64.19","CORAL HARBOUR A","2301002","2018-01-09 15:00","2018","01","09","15:00","-24.6","","-27.6","","77","","","","5","","12","","24.1","","98.83","","","","-34","","Snow"
"-83.36","64.19","CORAL HARBOUR A","2301002","2018-01-09 16:00","2018","01","09","16:00","-24.1","","-26.9","","78","","","","6","","15","","24.1","","98.86","","","","-34","","Snow"
"-83.36","64.19","CORAL HARBOUR A","2301002","2018-01-09 17:00","2018","01","09","17:00","-26.4","","-29.5","","76","","","","36","","5","","24.1","","98.88","","","","-32","","Snow"
"-83.36","64.19","CORAL HARBOUR A","2301002","2018-01-09 18:00","2018","01","09","18:00","-28.9","","-31.9","","76","","","","33","","10","","24.1","","98.90","","","","-38","","Ice Crystals"
"-83.36","64.19","CORAL HARBOUR A","2301002","2018-01-09 19:00","2018","01","09","19:00","-28.6","","-31.5","","77","","","","34","","7","","24.1","","98.89","","","","-36","","Ice Crystals"
"-83.36","64.19","CORAL HARBOUR A","2301002","2018-01-09 20:00","2018","01","09","20:00","-30.9","","-34.1","","74","","","","2","","9","","24.1","","98.86","","","","-40","","Ice Crystals"
"-83.36","64.19","CORAL HARBOUR A","2301002","2018-01-09 21:00","2018","01","09","21:00","-31.5","","-34.8","","73","","","","34","","8","","24.1","","98.86","","","","-40","","Ice Crystals"
"-83.36","64.19","CORAL HARBOUR A","2301002","2018-01-09 22:00","2018","01","09","22:00","-30.7","","-33.9","","74","","","","34","","13","","24.1","","98.90","","","","-41","","Ice Crystals"
"-83.36","64.19","CORAL HARBOUR A","2301002","2018-01-09 23:00","2018","01","09","23:00","-30.5","","-33.7","","74","","","","35","","17","","24.1","","98.88","","","","-43","","Ice Crystals"
"-83.36","64.19","CORAL HARBOUR A","2301002","2018-01-10 00:00","2018","01","10","00:00","-28.7","","-31.8","","75","","","","34","","8","","24.1","","98.93","","","","-36","","Ice Crystals"
"-83.36","64.19","CORAL HARBOUR A","2301002","2018-01-10 01:00","2018","01","10","01:00","-28.0","","-31.1","","76","","","","10","","4","","24.1","","98.94","","","","-32","","Ice Crystals"
"-83.36","64.19","CORAL HARBOUR A","2301002","2018-01-10 02:00","2018","01","10","02:00","-29.1","","-32.3","","75","","","","36","","2","","24.1","","98.97","","","","-31","","Ice Crystals"
"-83.36","64.19","CORAL HARBOUR A","2301002","2018-01-10 03:00","2018","01","10","03:00","-29.6","","-32.9","","74","","","","28","","10","","24.1","","98.98","","","","-39","","Ice Crystals"
"-83.36","64.19","CORAL HARBOUR A","2301002","2018-01-10 04:00","2018","01","10","04:00","-31.3","","-34.6","","73","","","","29","","7","","24.1","","99.01","","","","-39","","Ice Crystals"
"-83.36","64.19","CORAL HARBOUR A","2301002","2018-01-10 05:00","2018","01","10","05:00","-29.4","","-32.5","","75","","","","30","","5","","24.1","","99.03","","","","-35","","Ice Crystals"
"-83.36","64.19","CORAL HARBOUR A","2301002","2018-01-10 06:00","2018","01","10","06:00","-30.9","","-34.2","","74","","","","28","","5","","24.1","","99.02","","","","-37","","Ice Crystals"
"-83.36","64.19","CORAL HARBOUR A","2301002","2018-01-10 07:00","2018","01","10","07:00","-31.2","","-34.5","","74","","","","18","","4","","24.1","","99.06","","","","-36","","Ice Crystals"
"-83.36","64.19","CORAL HARBOUR A","2301002","2018-01-10 08:00","2018","01","10","08:00","-33.5","","-37.0","","72","","","","24","","12","","24.1","","99.06","","","","-44","","Ice Crystals"
"-83.36","64.19","CORAL HARBOUR A","2301002","2018-01-10 09:00","2018","01","10","09:00","-32.0","","-35.3","","73","","","","24","","16","","19.3","","99.05","","","","-44","","Ice Crystals"
"-83.36","64.19","CORAL HARBOUR A","2301002","2018-01-10 10:00","2018","01","10","10:00","-32.0","","-35.5","","72","","","","24","","21","","24.1","","99.08","","","","-46","","Ice Crystals"
"-83.36","64.19","CORAL HARBOUR A","2301002","2018-01-10 11:00","2018","01","10","11:00","-33.1","","-36.5","","72","","","","23","","22","","24.1","","99.11","","","","-48","","Ice Crystals"
"-83.36","64.19","CORAL HARBOUR A","2301002","2018-01-10 12:00","2018","01","10","12:00","-33.8","","-37.3","","72","","","","21","","11","","24.1","","99.12","","","","-44","","Ice Crystals"
"-83.36","64.19","CORAL HARBOUR A","2301002","2018-01-10 13:00","2018","01","10","13:00","-33.4","","-36.9","","72","","","","21","","9","","24.1","","99.13","","","","-43","","Ice Crystals"
"-83.36","64.19","CORAL HARBOUR A","2301002","2018-01-10 14:00","2018","01","10","14:00","-34.8","","-38.3","","71","","","","19","","13","","24.1","","99.12","","","","-46","","Ice Crystals"
"-83.36","64.19","CORAL HARBOUR A","2301002","2018-01-10 15:00","2018","01","10","15:00","-34.4","","-37.9","","71","","","","22","","8","","24.1","","99.10","","","","-43","","Ice Crystals"
"-83.36","64.19","CORAL HARBOUR A","2301002","2018-01-10 16:00","2018","01","10","16:00","-34.8","","-38.3","","71","","","","23","","5","","24.1","","99.13","","","","-41","","Ice Crystals"
"-83.36","64.19","CORAL HARBOUR A","2301002","2018-01-10 17:00","2018","01","10","17:00","-37.5","","-41.3","","69","","","","27","","7","","24.1","","99.11","","","","-46","","Ice Crystals"
"-83.36","64.19","CORAL HARBOUR A","2301002","2018-01-10 18:00","2018","01","10","18:00","-35.9","","-39.5","","70","","","","28","","14","","24.1","","99.07","","","","-48","","Ice Crystals"
"-83.36","64.19","CORAL HARBOUR A","2301002","2018-01-10 19:00","2018","01","10","19:00","-35.4","","-39.0","","71","","","","28","","11","","24.1","","99.04","","","","-46","","Ice Crystals"
"-83.36","64.19","CORAL HARBOUR A","2301002","2018-01-10 20:00","2018","01","10","20:00","-35.4","","-39.0","","71","","","","29","","14","","24.1","","99.02","","","","-48","","Ice Crystals"
"-83.36","64.19","CORAL HARBOUR A","2301002","2018-01-10 21:00","2018","01","10","21:00","-35.2","","-38.8","","70","","","","29","","13","","19.3","","98.99","","","","-47","","Ice Crystals"
"-83.36","64.19","CORAL HARBOUR A","2301002","2018-01-10 22:00","2018","01","10","22:00","-35.2","","-38.8","","70","","","","31","","13","","24.1","","98.96","","","","-47","","Ice Crystals"
"-83.36","64.19","CORAL HARBOUR A","2301002","2018-01-10 23:00","2018","01","10","23:00","-35.2","","-38.8","","70","","","","31","","14","","24.1","","98.93","","","","-47","","Ice Crystals"
"-83.36","64.19","CORAL HARBOUR A","2301002","2018-01-11 00:00","2018","01","11","00:00","-35.9","","-39.6","","70","","","","31","","14","","24.1","","98.91","","","","-48","","Ice Crystals"
"-83.36","64.19","CORAL HARBOUR A","2301002","2018-01-11 01:00","2018","01","11","01:00","-36.5","","-40.2","","70","","","","30","","16","","24.1","","98.90","","","","-50","","Ice Crystals"
"-83.36","64.19","CORAL HARBOUR A","2301002","2018-01-11 02:00","2018","01","11","02:00","-37.6","","-41.4","","69","","","","31","","17","","24.1","","98.87","","","","-52","","Ice Crystals"
"-83.36","64.19","CORAL HARBOUR A","2301002","2018-01-11 03:00","2018","01","11","03:00","-37.3","","-41.1","","69","","","","32","","15","","24.1","","98.88","","","","-50","","Ice Crystals"
"-83.36","64.19","CORAL HARBOUR A","2301002","2018-01-11 04:00","2018","01","11","04:00","-38.6","","-42.5","","68","","","","33","","12","","24.1","","98.88","","","","-51","","Ice Crystals"
"-83.36","64.19","CORAL HARBOUR A","2301002","2018-01-11 05:00","2018","01","11","05:00","-40.3","","-44.2","","67","","","","33","","11","","24.1","","98.91","","","","-52","","Ice Crystals"
"-83.36","64.19","CORAL HARBOUR A","2301002","2018-01-11 06:00","2018","01","11","06:00","-39.9","","-43.8","","67","","","","32","","10","","19.3","","98.89","","","","-51","","Ice Crystals"
"-83.36","64.19","CORAL HARBOUR A","2301002","2018-01-11 07:00","2018","01","11","07:00","-39.3","","-43.1","","68","","","","31","","14","","19.3","","98.87","","","","-52","","Ice Crystals"
"-83.36","64.19","CORAL HARBOUR A","2301002","2018-01-11 08:00","2018","01","11","08:00","-39.5","","-43.4","","68","","","","30","","17","","24.1","","98.85","","","","-54","","Ice Crystals"
"-83.36","64.19","CORAL HARBOUR A","2301002","2018-01-11 09:00","2018","01","11","09:00","-40.7","","-44.7","","67","","","","33","","13","","24.1","","98.85","","","","-54","","Ice Crystals"
"-83.36","64.19","CORAL HARBOUR A","2301002","2018-01-11 10:00","2018","01","11","10:00","-40.2","","-44.2","","67","","","","29","","11","","24.1","","98.89","","","","-52","","Ice Crystals"
"-83.36","64.19","CORAL HARBOUR A","2301002","2018-01-11 11:00","2018","01","11","11:00","-37.9","","-41.6","","69","","","","30","","16","","24.1","","98.89","","","","-52","","Ice Crystals"
"-83.36","64.19","CORAL HARBOUR A","2301002","2018-01-11 12:00","2018","01","11","12:00","-39.3","","-43.2","","68","","","","30","","12","","24.1","","98.91","","","","-51","","Ice Crystals"
"-83.36","64.19","CORAL HARBOUR A","2301002","2018-01-11 13:00","2018","01","11","13:00","-40.0","","-44.0","","67","","","","31","","17","","24.1","","98.90","","","","-55","","Ice Crystals"
"-83.36","64.19","CORAL HARBOUR A","2301002","2018-01-11 14:00","2018","01","11","14:00","-37.1","","-40.9","","69","","","","32","","8","","24.1","","98.92","","","","-46","","Ice Crystals"
"-83.36","64.19","CORAL HARBOUR A","2301002","2018-01-11 15:00","2018","01","11","15:00","-38.4","","-42.2","","68","","","","25","","8","","24.1","","98.94","","","","-48","","Ice Crystals"
"-83.36","64.19","CORAL HARBOUR A","2301002","2018-01-11 16:00","2018","01","11","16:00","-38.1","","-41.9","","68","","","","30","","6","","24.1","","98.95","","","","-46","","Ice Crystals"
"-83.36","64.19","CORAL HARBOUR A","2301002","2018-01-11 17:00","2018","01","11","17:00","-38.8","","-42.7","","67","","","","32","","5","","24.1","","98.93","","","","-46","","Ice Crystals"
"-83.36","64.19","CORAL HARBOUR A","2301002","2018-01-11 18:00","2018","01","11","18:00","-39.2","","-43.1","","68","","","","34","","7","","24.1","","98.95","","","","-48","","Ice Crystals"
"-83.36","64.19","CORAL HARBOUR A","2301002","2018-01-11 19:00","2018","01","11","19:00","-39.5","","-43.4","","67","","","","30","","16","","24.1","","98.97","","","","-54","","Ice Crystals"
"-83.36","64.19","CORAL HARBOUR A","2301002","2018-01-11 20:00","2018","01","11","20:00","-38.8","","-42.7","","68","","","","30","","12","","24.1","","98.94","","","","-51","","Ice Crystals"
"-83.36","64.19","CORAL HARBOUR A","2301002","2018-01-11 21:00","2018","01","11","21:00","-39.9","","-43.8","","67","","","","33","","16","","24.1","","98.94","","","","-54","","Ice Crystals"
"-83.36","64.19","CORAL HARBOUR A","2301002","2018-01-11 22:00","2018","01","11","22:00","-40.4","","-44.4","","67","","","","32","","18","","24.1","","98.92","","","","-55","","Ice Crystals"
"-83.36","64.19","CORAL HARBOUR A","2301002","2018-01-11 23:00","2018","01","11","23:00","-41.1","","-45.1","","66","","","","35","","9","","24.1","","98.91","","","","-52","","Ice Crystals"
"-83.36","64.19","CORAL HARBOUR A","2301002","2018-01-12 00:00","2018","01","12","00:00","-40.8","","-44.8","","67","","","","33","","9","","24.1","","98.89","","","","-51","","Ice Crystals"
"-83.36","64.19","CORAL HARBOUR A","2301002","2018-01-12 01:00","2018","01","12","01:00","-40.0","","-43.9","","67","","","","30","","7","","24.1","","98.88","","","","-49","","Ice Crystals"
"-83.36","64.19","CORAL HARBOUR A","2301002","2018-01-12 02:00","2018","01","12","02:00","-40.8","","-44.7","","67","","","","30","","14","","24.1","","98.91","","","","-54","","Ice Crystals"
"-83.36","64.19","CORAL HARBOUR A","2301002","2018-01-12 03:00","2018","01","12","03:00","-41.0","","-45.0","","67","","","","28","","9","","24.1","","98.92","","","","-52","","Ice Crystals"
"-83.36","64.19","CORAL HARBOUR A","2301002","2018-01-12 04:00","2018","01","12","04:00","-41.8","","-45.9","","66","","","","31","","7","","24.1","","98.90","","","","-51","","Ice Crystals"
"-83.36","64.19","CORAL HARBOUR A","2301002","2018-01-12 05:00","2018","01","12","05:00","-41.4","","-45.4","","66","","","","31","","14","","24.1","","98.91","","","","-55","","Ice Crystals"
"-83.36","64.19","CORAL HARBOUR A","2301002","2018-01-12 06:00","2018","01","12","06:00","-41.1","","-45.1","","66","","","","28","","9","","24.1","","98.90","","","","-52","","Ice Crystals"
"-83.36","64.19","CORAL HARBOUR A","2301002","2018-01-12 07:00","2018","01","12","07:00","-42.3","","-46.4","","66","","","","32","","7","","24.1","","98.91","","","","-52","","Ice Crystals"
"-83.36","64.19","CORAL HARBOUR A","2301002","2018-01-12 08:00","2018","01","12","08:00","-41.1","","-45.1","","66","","","","32","","11","","19.3","","98.92","","","","-53","","Ice Crystals"
"-83.36","64.19","CORAL HARBOUR A","2301002","2018-01-12 09:00","2018","01","12","09:00","-42.3","","-46.4","","66","","","","36","","12","","24.1","","98.92","","","","-55","","Ice Crystals"
"-83.36","64.19","CORAL HARBOUR A","2301002","2018-01-12 10:00","2018","01","12","10:00","-41.7","","-45.7","","66","","","","33","","17","","24.1","","98.96","","","","-57","","Ice Crystals"
"-83.36","64.19","CORAL HARBOUR A","2301002","2018-01-12 11:00","2018","01","12","11:00","-40.4","","-44.4","","67","","","","36","","12","","19.3","","98.96","","","","-53","","Ice Crystals"
"-83.36","64.19","CORAL HARBOUR A","2301002","2018-01-12 12:00","2018","01","12","12:00","-41.6","","-45.7","","66","","","","33","","18","","24.1","","98.98","","","","-57","","Ice Crystals"
"-83.36","64.19","CORAL HARBOUR A","2301002","2018-01-12 13:00","2018","01","12","13:00","-39.4","","-43.4","","67","","","","36","","11","","24.1","","98.95","","","","-51","","Ice Crystals"
"-83.36","64.19","CORAL HARBOUR A","2301002","2018-01-12 14:00","2018","01","12","14:00","-40.0","","-44.0","","67","","","","36","","14","","24.1","","98.98","","","","-53","","Ice Crystals"
"-83.36","64.19","CORAL HARBOUR A","2301002","2018-01-12 15:00","2018","01","12","15:00","-39.3","","-43.3","","67","","","","34","","23","","24.1","","99.00","","","","-56","","Ice Crystals"
"-83.36","64.19","CORAL HARBOUR A","2301002","2018-01-12 16:00","2018","01","12","16:00","-39.6","","-43.6","","67","","","","1","","13","","24.1","","99.03","","","","-52","","Ice Crystals"
"-83.36","64.19","CORAL HARBOUR A","2301002","2018-01-12 17:00","2018","01","12","17:00","-37.4","","-41.2","","69","","","","35","","18","","24.1","","99.03","","","","-52","","Ice Crystals"
"-83.36","64.19","CORAL HARBOUR A","2301002","2018-01-12 18:00","2018","01","12","18:00","-37.0","","-40.8","","69","","","","31","","14","","24.1","","99.06","","","","-50","","Ice Crystals"
"-83.36","64.19","CORAL HARBOUR A","2301002","2018-01-12 19:00","2018","01","12","19:00","-36.2","","-39.9","","69","","","","30","","8","","24.1","","99.09","","","","-45","","Ice Crystals"
"-83.36","64.19","CORAL HARBOUR A","2301002","2018-01-12 20:00","2018","01","12","20:00","-34.7","","-38.4","","70","","","","34","","19","","24.1","","99.08","","","","-49","","Ice Crystals"
"-83.36","64.19","CORAL HARBOUR A","2301002","2018-01-12 21:00","2018","01","12","21:00","-34.2","","-37.9","","70","","","","31","","16","","24.1","","99.12","","","","-47","","Ice Crystals"
"-83.36","64.19","CORAL HARBOUR A","2301002","2018-01-12 22:00","2018","01","12","22:00","-33.2","","-36.7","","71","","","","31","","5","","24.1","","99.10","","","","-39","","Ice Crystals"
"-83.36","64.19","CORAL HARBOUR A","2301002","2018-01-12 23:00","2018","01","12","23:00","-31.4","","-34.9","","72","","","","30","","8","","24.1","","99.09","","","","-40","","Ice Crystals"
"-83.36","64.19","CORAL HARBOUR A","2301002","2018-01-13 00:00","2018","01","13","00:00","-31.9","","-35.3","","72","","","","29","","9","","24.1","","99.10","","","","-41","","Ice Crystals"
"-83.36","64.19","CORAL HARBOUR A","2301002","2018-01-13 01:00","2018","01","13","01:00","-28.9","","-32.1","","74","","","","33","","25","","19.3","","99.09","","","","-43","","Ice Crystals"
"-83.36","64.19","CORAL HARBOUR A","2301002","2018-01-13 02:00","2018","01","13","02:00","-30.5","","-33.9","","73","","","","31","","17","","19.3","","99.11","","","","-43","","Ice Crystals"
"-83.36","64.19","CORAL HARBOUR A","2301002","2018-01-13 03:00","2018","01","13","03:00","-31.6","","-35.1","","72","","","","33","","17","","19.3","","99.14","","","","-44","","Ice Crystals"
"-83.36","64.19","CORAL HARBOUR A","2301002","2018-01-13 04:00","2018","01","13","04:00","-28.9","","-32.0","","75","","","","33","","7","","19.3","","99.19","","","","-36","","Ice Crystals"
"-83.36","64.19","CORAL HARBOUR A","2301002","2018-01-13 05:00","2018","01","13","05:00","-28.6","","-31.8","","74","","","","32","","13","","19.3","","99.17","","","","-39","","Ice Crystals"
"-83.36","64.19","CORAL HARBOUR A","2301002","2018-01-13 06:00","2018","01","13","06:00","-25.8","","-28.9","","76","","","","31","","27","","19.3","","99.15","","","","-40","","Ice Crystals"
"-83.36","64.19","CORAL HARBOUR A","2301002","2018-01-13 07:00","2018","01","13","07:00","-25.6","","-28.6","","76","","","","31","","6","","19.3","","99.25","","","","-31","","Ice Crystals"
"-83.36","64.19","CORAL HARBOUR A","2301002","2018-01-13 08:00","2018","01","13","08:00","-25.3","","-28.2","","77","","","","28","","8","","19.3","","99.26","","","","-32","","Ice Crystals"
"-83.36","64.19","CORAL HARBOUR A","2301002","2018-01-13 09:00","2018","01","13","09:00","-25.0","","-28.0","","77","","","","28","","22","","19.3","","99.25","","","","-37","","Ice Crystals"
"-83.36","64.19","CORAL HARBOUR A","2301002","2018-01-13 10:00","2018","01","13","10:00","-25.0","","-28.0","","77","","","","29","","19","","19.3","","99.28","","","","-37","","Ice Crystals"
"-83.36","64.19","CORAL HARBOUR A","2301002","2018-01-13 11:00","2018","01","13","11:00","-25.9","","-28.8","","77","","","","28","","23","","19.3","","99.30","","","","-39","","Ice Crystals"
"-83.36","64.19","CORAL HARBOUR A","2301002","2018-01-13 12:00","2018","01","13","12:00","-26.4","","-29.4","","76","","","","28","","22","","19.3","","99.33","","","","-39","","Ice Crystals"
"-83.36","64.19","CORAL HARBOUR A","2301002","2018-01-13 13:00","2018","01","13","13:00","-28.3","","-31.6","","74","","","","27","","21","","19.3","","99.36","","","","-41","","Ice Crystals"
"-83.36","64.19","CORAL HARBOUR A","2301002","2018-01-13 14:00","2018","01","13","14:00","-30.5","","-33.9","","73","","","","29","","15","","24.1","","99.39","","","","-42","","Ice Crystals"
"-83.36","64.19","CORAL HARBOUR A","2301002","2018-01-13 15:00","2018","01","13","15:00","-29.4","","-32.6","","74","","","","31","","17","","24.1","","99.46","","","","-41","","Ice Crystals"
"-83.36","64.19","CORAL HARBOUR A","2301002","2018-01-13 16:00","2018","01","13","16:00","-29.9","","-33.2","","74","","","","30","","17","","24.1","","99.53","","","","-42","","Ice Crystals"
"-83.36","64.19","CORAL HARBOUR A","2301002","2018-01-13 17:00","2018","01","13","17:00","-31.2","","-34.6","","73","","","","29","","12","","24.1","","99.60","","","","-42","","Ice Crystals"
"-83.36","64.19","CORAL HARBOUR A","2301002","2018-01-13 18:00","2018","01","13","18:00","-31.7","","-35.1","","72","","","","36","","12","","24.1","","99.64","","","","-42","","Ice Crystals"
"-83.36","64.19","CORAL HARBOUR A","2301002","2018-01-13 19:00","2018","01","13","19:00","-31.4","","-34.8","","73","","","","31","","22","","24.1","","99.68","","","","-45","","Ice Crystals"
"-83.36","64.19","CORAL HARBOUR A","2301002","2018-01-13 20:00","2018","01","13","20:00","-29.4","","-32.6","","74","","","","32","","25","","24.1","","99.74","","","","-44","","Ice Crystals"
"-83.36","64.19","CORAL HARBOUR A","2301002","2018-01-13 21:00","2018","01","13","21:00","-29.9","","-33.2","","73","","","","34","","20","","24.1","","99.78","","","","-43","","Ice Crystals"
"-83.36","64.19","CORAL HARBOUR A","2301002","2018-01-13 22:00","2018","01","13","22:00","-29.0","","-32.3","","73","","","","35","","18","","24.1","","99.83","","","","-41","","Ice Crystals"
"-83.36","64.19","CORAL HARBOUR A","2301002","2018-01-13 23:00","2018","01","13","23:00","-29.9","","-33.4","","72","","","","33","","13","","24.1","","99.91","","","","-40","","Ice Crystals"
"-83.36","64.19","CORAL HARBOUR A","2301002","2018-01-14 00:00","2018","01","14","00:00","-29.0","","-32.4","","73","","","","32","","12","","24.1","","99.99","","","","-39","","Ice Crystals"
"-83.36","64.19","CORAL HARBOUR A","2301002","2018-01-14 01:00","2018","01","14","01:00","-27.9","","-31.3","","73","","","","35","","16","","24.1","","100.02","","","","-39","","Ice Crystals"
"-83.36","64.19","CORAL HARBOUR A","2301002","2018-01-14 02:00","2018","01","14","02:00","-27.9","","-31.4","","73","","","","35","","22","","24.1","","100.08","","","","-41","","Ice Crystals"
"-83.36","64.19","CORAL HARBOUR A","2301002","2018-01-14 03:00","2018","01","14","03:00","-30.8","","-34.5","","70","","","","34","","18","","24.1","","100.20","","","","-43","","Ice Crystals"
"-83.36","64.19","CORAL HARBOUR A","2301002","2018-01-14 04:00","2018","01","14","04:00","-32.4","","-36.1","","70","","","","35","","23","","24.1","","100.27","","","","-47","","Ice Crystals"
"-83.36","64.19","CORAL HARBOUR A","2301002","2018-01-14 05:00","2018","01","14","05:00","-33.4","","-37.3","","69","","","","36","","21","","24.1","","100.34","","","","-48","","Ice Crystals"
"-83.36","64.19","CORAL HARBOUR A","2301002","2018-01-14 06:00","2018","01","14","06:00","-33.8","","-37.7","","69","","","","1","","25","","24.1","","100.44","","","","-49","","Ice Crystals"
"-83.36","64.19","CORAL HARBOUR A","2301002","2018-01-14 07:00","2018","01","14","07:00","-34.1","","-38.1","","68","","","","35","","21","","24.1","","100.52","","","","-49","","Ice Crystals"
"-83.36","64.19","CORAL HARBOUR A","2301002","2018-01-14 08:00","2018","01","14","08:00","-34.7","","-38.6","","68","","","","35","","7","","24.1","","100.62","","","","-43","","Ice Crystals"
"-83.36","64.19","CORAL HARBOUR A","2301002","2018-01-14 09:00","2018","01","14","09:00","-33.9","","-37.8","","69","","","","33","","14","","24.1","","100.69","","","","-46","","Ice Crystals"
"-83.36","64.19","CORAL HARBOUR A","2301002","2018-01-14 10:00","2018","01","14","10:00","-34.0","","-37.9","","69","","","","35","","18","","24.1","","100.78","","","","-47","","Ice Crystals"
"-83.36","64.19","CORAL HARBOUR A","2301002","2018-01-14 11:00","2018","01","14","11:00","-34.3","","-38.4","","67","","","","36","","22","","24.1","","100.86","","","","-49","","Ice Crystals"
"-83.36","64.19","CORAL HARBOUR A","2301002","2018-01-14 12:00","2018","01","14","12:00","-34.3","","-38.3","","68","","","","3","","18","","24.1","","100.87","","","","-48","","Ice Crystals"
"-83.36","64.19","CORAL HARBOUR A","2301002","2018-01-14 13:00","2018","01","14","13:00","-33.9","","-37.8","","69","","","","1","","5","","24.1","","100.96","","","","-40","","Ice Crystals"
"-83.36","64.19","CORAL HARBOUR A","2301002","2018-01-14 14:00","2018","01","14","14:00","-34.8","","-38.6","","69","","","","3","","15","","24.1","","100.95","","","","-47","","Ice Crystals"
"-83.36","64.19","CORAL HARBOUR A","2301002","2018-01-14 15:00","2018","01","14","15:00","-34.1","","-38.0","","69","","","","36","","5","","24.1","","101.02","","","","-40","","Ice Crystals"
"-83.36","64.19","CORAL HARBOUR A","2301002","2018-01-14 16:00","2018","01","14","16:00","-31.5","","-35.7","","67","","","","36","","13","","24.1","","101.06","","","","-42","","Ice Crystals"
"-83.36","64.19","CORAL HARBOUR A","2301002","2018-01-14 17:00","2018","01","14","17:00","-33.5","","-37.6","","68","","","","34","","14","","24.1","","101.09","","","","-45","","Ice Crystals"
"-83.36","64.19","CORAL HARBOUR A","2301002","2018-01-14 18:00","2018","01","14","18:00","-32.0","","-36.1","","68","","","","32","","17","","24.1","","101.12","","","","-45","","Ice Crystals"
"-83.36","64.19","CORAL HARBOUR A","2301002","2018-01-14 19:00","2018","01","14","19:00","-30.9","","-35.1","","68","","","","27","","5","","24.1","","101.10","","","","-37","","Ice Crystals"
"-83.36","64.19","CORAL HARBOUR A","2301002","2018-01-14 20:00","2018","01","14","20:00","-28.8","","-32.8","","69","","","","36","","5","","24.1","","101.10","","","","-34","","Ice Crystals"
"-83.36","64.19","CORAL HARBOUR A","2301002","2018-01-14 21:00","2018","01","14","21:00","-26.8","","-31.1","","68","","","","31","","16","","24.1","","101.09","","","","-38","","Ice Crystals"
"-83.36","64.19","CORAL HARBOUR A","2301002","2018-01-14 22:00","2018","01","14","22:00","-26.1","","-30.2","","69","","","","30","","15","","24.1","","101.05","","","","-37","","Ice Crystals"
"-83.36","64.19","CORAL HARBOUR A","2301002","2018-01-14 23:00","2018","01","14","23:00","-27.0","","-30.6","","72","","","","29","","27","","9.7","","101.03","","","","-41","","Snow,Blowing Snow"
"-83.36","64.19","CORAL HARBOUR A","2301002","2018-01-15 00:00","2018","01","15","00:00","-26.7","","-30.4","","71","","","","28","","25","","12.9","","101.02","","","","-40","","Snow,Blowing Snow"
"-83.36","64.19","CORAL HARBOUR A","2301002","2018-01-15 01:00","2018","01","15","01:00","-27.4","","-31.2","","71","","","","32","","30","","19.3","","101.00","","","","-42","","Snow"
"-83.36","64.19","CORAL HARBOUR A","2301002","2018-01-15 02:00","2018","01","15","02:00","-28.6","","-32.7","","68","","","","31","","18","","24.1","","101.04","","","","-41","","Ice Crystals"
"-83.36","64.19","CORAL HARBOUR A","2301002","2018-01-15 03:00","2018","01","15","03:00","-26.5","","-30.5","","69","","","","34","","17","","24.1","","101.02","","","","-38","","Ice Crystals,Blowing Snow"
"-83.36","64.19","CORAL HARBOUR A","2301002","2018-01-15 04:00","2018","01","15","04:00","-26.6","","-30.6","","70","","","","32","","33","","19.3","","101.02","","","","-42","","Ice Crystals"
"-83.36","64.19","CORAL HARBOUR A","2301002","2018-01-15 05:00","2018","01","15","05:00","-25.4","","-29.2","","71","","","","32","","34","","19.3","","101.05","","","","-40","","Ice Crystals,Blowing Snow"
"-83.36","64.19","CORAL HARBOUR A","2301002","2018-01-15 06:00","2018","01","15","06:00","-25.9","","-29.5","","72","","","","32","","22","","24.1","","101.12","","","","-38","","Ice Crystals,Blowing Snow"
"-83.36","64.19","CORAL HARBOUR A","2301002","2018-01-15 07:00","2018","01","15","07:00","-26.5","","-30.3","","71","","","","35","","18","","24.1","","101.14","","","","-38","","Ice Crystals,Blowing Snow"
"-83.36","64.19","CORAL HARBOUR A","2301002","2018-01-15 08:00","2018","01","15","08:00","-28.8","","-32.7","","70","","","","33","","22","","24.1","","101.18","","","","-42","","Ice Crystals,Blowing Snow"
"-83.36","64.19","CORAL HARBOUR A","2301002","2018-01-15 09:00","2018","01","15","09:00","-29.4","","-33.1","","71","","","","36","","16","","24.1","","101.18","","","","-41","","Ice Crystals"
"-83.36","64.19","CORAL HARBOUR A","2301002","2018-01-15 10:00","2018","01","15","10:00","-30.5","","-34.3","","70","","","","36","","13","","24.1","","101.24","","","","-41","","Ice Crystals"
"-83.36","64.19","CORAL HARBOUR A","2301002","2018-01-15 11:00","2018","01","15","11:00","-30.4","","-34.2","","70","","","","35","","20","","24.1","","101.29","","","","-44","","Ice Crystals"
"-83.36","64.19","CORAL HARBOUR A","2301002","2018-01-15 12:00","2018","01","15","12:00","-30.4","","-34.5","","68","","","","1","","21","","24.1","","101.27","","","","-44","","Ice Crystals"
"-83.36","64.19","CORAL HARBOUR A","2301002","2018-01-15 13:00","2018","01","15","13:00","-30.3","","-34.3","","68","","","","3","","21","","24.1","","101.22","","","","-44","","Ice Crystals"
"-83.36","64.19","CORAL HARBOUR A","2301002","2018-01-15 14:00","2018","01","15","14:00","-31.7","","-35.5","","70","","","","2","","9","","24.1","","101.28","","","","-41","","Ice Crystals"
"-83.36","64.19","CORAL HARBOUR A","2301002","2018-01-15 15:00","2018","01","15","15:00","-32.6","","-36.3","","70","","","","36","","22","","24.1","","101.32","","","","-47","","Ice Crystals"
"-83.36","64.19","CORAL HARBOUR A","2301002","2018-01-15 16:00","2018","01","15","16:00","-31.8","","-35.2","","72","","","","5","","16","","24.1","","101.27","","","","-44","","Ice Crystals"
"-83.36","64.19","CORAL HARBOUR A","2301002","2018-01-15 17:00","2018","01","15","17:00","-34.0","","-37.7","","70","","","","34","","14","","24.1","","101.30","","","","-46","","Ice Crystals"
"-83.36","64.19","CORAL HARBOUR A","2301002","2018-01-15 18:00","2018","01","15","18:00","-32.9","","-36.5","","71","","","","4","","19","","24.1","","101.29","","","","-46","","Ice Crystals"
"-83.36","64.19","CORAL HARBOUR A","2301002","2018-01-15 19:00","2018","01","15","19:00","-33.6","","-37.1","","72","","","","36","","8","","24.1","","101.26","","","","-42","","Ice Crystals"
"-83.36","64.19","CORAL HARBOUR A","2301002","2018-01-15 20:00","2018","01","15","20:00","-33.3","","-36.8","","72","","","","2","","16","","24.1","","101.21","","","","-46","","Ice Crystals"
"-83.36","64.19","CORAL HARBOUR A","2301002","2018-01-15 21:00","2018","01","15","21:00","-33.8","","-37.4","","71","","","","3","","9","","24.1","","101.16","","","","-43","","Ice Crystals"
"-83.36","64.19","CORAL HARBOUR A","2301002","2018-01-15 22:00","2018","01","15","22:00","-33.1","","-36.6","","72","","","","16","","21","","24.1","","101.13","","","","-47","","Ice Crystals"
"-83.36","64.19","CORAL HARBOUR A","2301002","2018-01-15 23:00","2018","01","15","23:00","-33.2","","-36.5","","73","","","","12","","3","","24.1","","101.09","","","","-37","","Ice Crystals"
"-83.36","64.19","CORAL HARBOUR A","2301002","2018-01-16 00:00","2018","01","16","00:00","-34.0","","-37.6","","71","","","","3","","13","","24.1","","101.05","","","","-45","","Ice Crystals"
"-83.36","64.19","CORAL HARBOUR A","2301002","2018-01-16 01:00","2018","01","16","01:00","-33.7","","-37.1","","72","","","","36","","2","","24.1","","101.04","","","","-36","","Ice Crystals"
"-83.36","64.19","CORAL HARBOUR A","2301002","2018-01-16 02:00","2018","01","16","02:00","-35.2","","-38.9","","70","","","","2","","3","","24.1","","100.98","","","","-39","","Ice Crystals"
"-83.36","64.19","CORAL HARBOUR A","2301002","2018-01-16 03:00","2018","01","16","03:00","-33.4","","-37.0","","71","","","","35","","17","","24.1","","100.93","","","","-46","","Ice Crystals"
"-83.36","64.19","CORAL HARBOUR A","2301002","2018-01-16 04:00","2018","01","16","04:00","-33.7","","-37.1","","72","","","","5","","17","","24.1","","100.89","","","","-47","","Ice Crystals"
"-83.36","64.19","CORAL HARBOUR A","2301002","2018-01-16 05:00","2018","01","16","05:00","-32.4","","-35.8","","73","","","","11","","6","","24.1","","100.85","","","","-39","","Ice Crystals"
"-83.36","64.19","CORAL HARBOUR A","2301002","2018-01-16 06:00","2018","01","16","06:00","-31.9","","-35.3","","73","","","","3","","7","","24.1","","100.84","","","","-39","","Ice Crystals"
"-83.36","64.19","CORAL HARBOUR A","2301002","2018-01-16 07:00","2018","01","16","07:00","-30.1","","-33.5","","73","","","","5","","19","","1.2","","100.80","","","","-43","","Ice Crystals,Fog"
"-83.36","64.19","CORAL HARBOUR A","2301002","2018-01-16 08:00","2018","01","16","08:00","-28.6","","-31.2","","79","","","","5","","18","","1.2","","100.74","","","","-41","","Ice Crystals,Fog"
"-83.36","64.19","CORAL HARBOUR A","2301002","2018-01-16 09:00","2018","01","16","09:00","-30.3","","-33.4","","75","","","","5","","20","","1.2","","100.66","","","","-43","","Ice Crystals,Fog"
"-83.36","64.19","CORAL HARBOUR A","2301002","2018-01-16 10:00","2018","01","16","10:00","-31.6","","-35.0","","73","","","","6","","18","","12.9","","100.60","","","","-44","","Ice Crystals"
"-83.36","64.19","CORAL HARBOUR A","2301002","2018-01-16 11:00","2018","01","16","11:00","-31.0","","-34.3","","74","","","","6","","19","","19.3","","100.56","","","","-44","","Ice Crystals"
"-83.36","64.19","CORAL HARBOUR A","2301002","2018-01-16 12:00","2018","01","16","12:00","-30.1","","-33.4","","74","","","","7","","14","","16.1","","100.52","","","","-41","","Ice Crystals"
"-83.36","64.19","CORAL HARBOUR A","2301002","2018-01-16 13:00","2018","01","16","13:00","-30.6","","-33.9","","74","","","","4","","14","","19.3","","100.52","","","","-42","","Ice Crystals"
"-83.36","64.19","CORAL HARBOUR A","2301002","2018-01-16 14:00","2018","01","16","14:00","-29.6","","-32.9","","74","","","","6","","22","","19.3","","100.47","","","","-43","","Ice Crystals"
"-83.36","64.19","CORAL HARBOUR A","2301002","2018-01-16 15:00","2018","01","16","15:00","-28.2","","-31.3","","75","","","","5","","21","","19.3","","100.45","","","","-41","","Ice Crystals"
"-83.36","64.19","CORAL HARBOUR A","2301002","2018-01-16 16:00","2018","01","16","16:00","-27.6","","-30.7","","75","","","","6","","22","","19.3","","100.47","","","","-41","","Ice Crystals"
"-83.36","64.19","CORAL HARBOUR A","2301002","2018-01-16 17:00","2018","01","16","17:00","-26.9","","-29.9","","76","","","","5","","16","","19.3","","100.48","","","","-38","","Ice Crystals"
"-83.36","64.19","CORAL HARBOUR A","2301002","2018-01-16 18:00","2018","01","16","18:00","-27.4","","-30.5","","75","","","","4","","13","","19.3","","100.49","","","","-37","","Ice Crystals"
"-83.36","64.19","CORAL HARBOUR A","2301002","2018-01-16 19:00","2018","01","16","19:00","-27.1","","-30.1","","76","","","","5","","12","","19.3","","100.49","","","","-37","","Ice Crystals"
"-83.36","64.19","CORAL HARBOUR A","2301002","2018-01-16 20:00","2018","01","16","20:00","-27.5","","-30.6","","75","","","","5","","13","","24.1","","100.49","","","","-38","","Ice Crystals"
"-83.36","64.19","CORAL HARBOUR A","2301002","2018-01-16 21:00","2018","01","16","21:00","-28.0","","-31.1","","75","","","","5","","12","","4.8","","100.48","","","","-38","","Ice Crystals"
"-83.36","64.19","CORAL HARBOUR A","2301002","2018-01-16 22:00","2018","01","16","22:00","-29.4","","-32.6","","74","","","","4","","12","","4.8","","100.47","","","","-39","","Ice Crystals"
"-83.36","64.19","CORAL HARBOUR A","2301002","2018-01-16 23:00","2018","01","16","23:00","-30.7","","-34.0","","73","","","","36","","10","","4.8","","100.46","","","","-40","","Ice Crystals,Fog"
"-83.36","64.19","CORAL HARBOUR A","2301002","2018-01-17 00:00","2018","01","17","00:00","-32.7","","-36.1","","72","","","","2","","13","","19.3","","100.45","","","","-44","","Ice Crystals"
"-83.36","64.19","CORAL HARBOUR A","2301002","2018-01-17 01:00","2018","01","17","01:00","-32.6","","-36.0","","72","","","","4","","17","","19.3","","100.44","","","","-45","","Ice Crystals"
"-83.36","64.19","CORAL HARBOUR A","2301002","2018-01-17 02:00","2018","01","17","02:00","-29.1","","-32.3","","74","","","","5","","14","","0.8","","100.48","","","","-40","","Ice Crystals,Freezing Fog"
"-83.36","64.19","CORAL HARBOUR A","2301002","2018-01-17 03:00","2018","01","17","03:00","-29.7","","-33.0","","74","","","","3","","14","","0.8","","100.50","","","","-41","","Ice Crystals,Freezing Fog"
"-83.36","64.19","CORAL HARBOUR A","2301002","2018-01-17 04:00","2018","01","17","04:00","-32.0","","-35.5","","72","","","","1","","17","","1.6","","100.53","","","","-45","","Ice Crystals,Fog"
"-83.36","64.19","CORAL HARBOUR A","2301002","2018-01-17 05:00","2018","01","17","05:00","-33.3","","-36.8","","72","","","","36","","12","","19.3","","100.55","","","","-44","","Ice Crystals"
"-83.36","64.19","CORAL HARBOUR A","2301002","2018-01-17 06:00","2018","01","17","06:00","-33.3","","-36.8","","72","","","","34","","14","","24.1","","100.52","","","","-45","","Ice Crystals"
"-83.36","64.19","CORAL HARBOUR A","2301002","2018-01-17 07:00","2018","01","17","07:00","-34.4","","-38.0","","71","","","","35","","13","","24.1","","100.51","","","","-46","","Ice Crystals"
"-83.36","64.19","CORAL HARBOUR A","2301002","2018-01-17 08:00","2018","01","17","08:00","-33.2","","-36.8","","71","","","","2","","14","","24.1","","100.49","","","","-45","","Ice Crystals"
"-83.36","64.19","CORAL HARBOUR A","2301002","2018-01-17 09:00","2018","01","17","09:00","-34.2","","-37.8","","71","","","","35","","16","","24.1","","100.44","","","","-47","","Ice Crystals"
"-83.36","64.19","CORAL HARBOUR A","2301002","2018-01-17 10:00","2018","01","17","10:00","-32.0","","-35.4","","73","","","","36","","13","","24.1","","100.44","","","","-43","","Ice Crystals"
"-83.36","64.19","CORAL HARBOUR A","2301002","2018-01-17 11:00","2018","01","17","11:00","-32.4","","-35.9","","72","","","","35","","10","","24.1","","100.46","","","","-42","","Ice Crystals"
"-83.36","64.19","CORAL HARBOUR A","2301002","2018-01-17 12:00","2018","01","17","12:00","-31.5","","-34.9","","73","","","","1","","7","","24.1","","100.45","","","","-39","","Ice Crystals"
"-83.36","64.19","CORAL HARBOUR A","2301002","2018-01-17 13:00","2018","01","17","13:00","-30.2","","-33.5","","73","","","","34","","9","","24.1","","100.40","","","","-39","","Mostly Cloudy"
"-83.36","64.19","CORAL HARBOUR A","2301002","2018-01-17 14:00","2018","01","17","14:00","-30.4","","-33.8","","73","","","","35","","5","","24.1","","100.38","","","","-36","","Ice Crystals"
"-83.36","64.19","CORAL HARBOUR A","2301002","2018-01-17 15:00","2018","01","17","15:00","-30.7","","-34.1","","73","","","","34","","7","","24.1","","100.36","","","","-38","","Ice Crystals"
"-83.36","64.19","CORAL HARBOUR A","2301002","2018-01-17 16:00","2018","01","17","16:00","-31.6","","-35.0","","72","","","","36","","2","","24.1","","100.37","","","","-34","","Ice Crystals"
"-83.36","64.19","CORAL HARBOUR A","2301002","2018-01-17 17:00","2018","01","17","17:00","-32.2","","-35.7","","72","","","","33","","7","","24.1","","100.37","","","","-40","","Ice Crystals"
"-83.36","64.19","CORAL HARBOUR A","2301002","2018-01-17 18:00","2018","01","17","18:00","-31.4","","-34.7","","73","","","","6","","5","","24.1","","100.37","","","","-37","","Ice Crystals"
"-83.36","64.19","CORAL HARBOUR A","2301002","2018-01-17 19:00","2018","01","17","19:00","-30.5","","-33.7","","74","","","","8","","6","","19.3","","100.37","","","","-37","","Ice Crystals"
"-83.36","64.19","CORAL HARBOUR A","2301002","2018-01-17 20:00","2018","01","17","20:00","-31.6","","-35.0","","73","","","","4","","16","","19.3","","100.32","","","","-44","","Ice Crystals"
"-83.36","64.19","CORAL HARBOUR A","2301002","2018-01-17 21:00","2018","01","17","21:00","-32.9","","-36.5","","71","","","","4","","9","","24.1","","100.30","","","","-42","","Ice Crystals"
"-83.36","64.19","CORAL HARBOUR A","2301002","2018-01-17 22:00","2018","01","17","22:00","-34.6","","-38.2","","71","","","","34","","14","","24.1","","100.31","","","","-47","","Ice Crystals"
"-83.36","64.19","CORAL HARBOUR A","2301002","2018-01-17 23:00","2018","01","17","23:00","-34.4","","-38.0","","71","","","","2","","8","","24.1","","100.28","","","","-43","","Ice Crystals"
"-83.36","64.19","CORAL HARBOUR A","2301002","2018-01-18 00:00","2018","01","18","00:00","-33.7","","-37.2","","71","","","","36","","3","","24.1","","100.26","","","","-37","","Ice Crystals"
"-83.36","64.19","CORAL HARBOUR A","2301002","2018-01-18 01:00","2018","01","18","01:00","-34.4","","-38.0","","71","","","","33","","13","","24.1","","100.24","","","","-46","","Ice Crystals"
"-83.36","64.19","CORAL HARBOUR A","2301002","2018-01-18 02:00","2018","01","18","02:00","-36.0","","-39.6","","70","","","","34","","19","","24.1","","100.26","","","","-50","","Ice Crystals"
"-83.36","64.19","CORAL HARBOUR A","2301002","2018-01-18 03:00","2018","01","18","03:00","-35.2","","-38.9","","70","","","","1","","18","","24.1","","100.27","","","","-49","","Ice Crystals"
"-83.36","64.19","CORAL HARBOUR A","2301002","2018-01-18 04:00","2018","01","18","04:00","-34.7","","-38.3","","71","","","","2","","12","","24.1","","100.27","","","","-46","","Ice Crystals"
"-83.36","64.19","CORAL HARBOUR A","2301002","2018-01-18 05:00","2018","01","18","05:00","-36.6","","-40.4","","69","","","","35","","14","","24.1","","100.32","","","","-49","","Ice Crystals"
"-83.36","64.19","CORAL HARBOUR A","2301002","2018-01-18 06:00","2018","01","18","06:00","-35.7","","-39.4","","70","","","","34","","17","","24.1","","100.30","","","","-49","","Ice Crystals"
"-83.36","64.19","CORAL HARBOUR A","2301002","2018-01-18 07:00","2018","01","18","07:00","-36.3","","-40.0","","69","","","","3","","22","","24.1","","100.28","","","","-52","","Ice Crystals"
"-83.36","64.19","CORAL HARBOUR A","2301002","2018-01-18 08:00","2018","01","18","08:00","-36.8","","-40.5","","69","","","","34","","22","","24.1","","100.28","","","","-52","","Ice Crystals"
"-83.36","64.19","CORAL HARBOUR A","2301002","2018-01-18 09:00","2018","01","18","09:00","-34.3","","-37.9","","71","","","","1","","21","","24.1","","100.26","","","","-49","","Ice Crystals"
"-83.36","64.19","CORAL HARBOUR A","2301002","2018-01-18 10:00","2018","01","18","10:00","-33.9","","-37.4","","71","","","","1","","16","","24.1","","100.27","","","","-47","","Ice Crystals"
"-83.36","64.19","CORAL HARBOUR A","2301002","2018-01-18 11:00","2018","01","18","11:00","-33.8","","-37.4","","71","","","","34","","21","","24.1","","100.27","","","","-48","","Ice Crystals"
"-83.36","64.19","CORAL HARBOUR A","2301002","2018-01-18 12:00","2018","01","18","12:00","-34.2","","-37.8","","71","","","","35","","18","","24.1","","100.31","","","","-48","","Ice Crystals"
"-83.36","64.19","CORAL HARBOUR A","2301002","2018-01-18 13:00","2018","01","18","13:00","-32.5","","-36.0","","72","","","","34","","23","","24.1","","100.34","","","","-47","","Ice Crystals"
"-83.36","64.19","CORAL HARBOUR A","2301002","2018-01-18 14:00","2018","01","18","14:00","-33.6","","-37.2","","71","","","","34","","23","","24.1","","100.31","","","","-49","","Ice Crystals"
"-83.36","64.19","CORAL HARBOUR A","2301002","2018-01-18 15:00","2018","01","18","15:00","-33.8","","-37.4","","71","","","","35","","19","","24.1","","100.31","","","","-48","","Ice Crystals"
"-83.36","64.19","CORAL HARBOUR A","2301002","2018-01-18 16:00","2018","01","18","16:00","-33.4","","-37.0","","71","","","","5","","20","","24.1","","100.32","","","","-47","","Ice Crystals"
"-83.36","64.19","CORAL HARBOUR A","2301002","2018-01-18 17:00","2018","01","18","17:00","-32.2","","-35.7","","72","","","","7","","24","","24.1","","100.32","","","","-47","","Ice Crystals"
"-83.36","64.19","CORAL HARBOUR A","2301002","2018-01-18 18:00","2018","01","18","18:00","-33.0","","-36.5","","72","","","","4","","20","","24.1","","100.36","","","","-47","","Ice Crystals"
"-83.36","64.19","CORAL HARBOUR A","2301002","2018-01-18 19:00","2018","01","18","19:00","-32.4","","-35.9","","72","","","","3","","19","","24.1","","100.34","","","","-46","","Ice Crystals"
"-83.36","64.19","CORAL HARBOUR A","2301002","2018-01-18 20:00","2018","01","18","20:00","-32.8","","-36.2","","72","","","","6","","23","","24.1","","100.36","","","","-48","","Ice Crystals"
"-83.36","64.19","CORAL HARBOUR A","2301002","2018-01-18 21:00","2018","01","18","21:00","-30.0","","-33.3","","74","","","","35","","9","","24.1","","100.36","","","","-39","","Ice Crystals"
"-83.36","64.19","CORAL HARBOUR A","2301002","2018-01-18 22:00","2018","01","18","22:00","-30.5","","-33.9","","73","","","","32","","9","","19.3","","100.33","","","","-39","","Ice Crystals"
"-83.36","64.19","CORAL HARBOUR A","2301002","2018-01-18 23:00","2018","01","18","23:00","-28.7","","-31.9","","75","","","","36","","6","","19.3","","100.30","","","","-35","","Ice Crystals"
"-83.36","64.19","CORAL HARBOUR A","2301002","2018-01-19 00:00","2018","01","19","00:00","-28.1","","-31.2","","75","","","","35","","7","","24.1","","100.31","","","","-35","","Ice Crystals"
"-83.36","64.19","CORAL HARBOUR A","2301002","2018-01-19 01:00","2018","01","19","01:00","-28.0","","-31.1","","75","","","","2","","10","","24.1","","100.31","","","","-37","","Ice Crystals"
"-83.36","64.19","CORAL HARBOUR A","2301002","2018-01-19 02:00","2018","01","19","02:00","-26.7","","-29.8","","76","","","","2","","10","","24.1","","100.35","","","","-35","","Snow"
"-83.36","64.19","CORAL HARBOUR A","2301002","2018-01-19 03:00","2018","01","19","03:00","-26.9","","-30.0","","76","","","","34","","7","","24.1","","100.35","","","","-34","","Snow"
"-83.36","64.19","CORAL HARBOUR A","2301002","2018-01-19 04:00","2018","01","19","04:00","-27.6","","-30.7","","75","","","","36","","7","","24.1","","100.35","","","","-34","","Snow"
"-83.36","64.19","CORAL HARBOUR A","2301002","2018-01-19 05:00","2018","01","19","05:00","-26.8","","-29.9","","76","","","","2","","14","","24.1","","100.36","","","","-37","","Moderate Snow"
"-83.36","64.19","CORAL HARBOUR A","2301002","2018-01-19 06:00","2018","01","19","06:00","-26.1","","-29.0","","77","","","","4","","19","","24.1","","100.37","","","","-38","","Snow"
"-83.36","64.19","CORAL HARBOUR A","2301002","2018-01-19 07:00","2018","01","19","07:00","-25.7","","-28.7","","77","","","","5","","18","","24.1","","100.40","","","","-37","","Snow"
"-83.36","64.19","CORAL HARBOUR A","2301002","2018-01-19 08:00","2018","01","19","08:00","-25.8","","-28.7","","77","","","","5","","21","","24.1","","100.38","","","","-38","","Snow"
"-83.36","64.19","CORAL HARBOUR A","2301002","2018-01-19 09:00","2018","01","19","09:00","-25.6","","-28.6","","77","","","","5","","23","","19.3","","100.37","","","","-38","","Snow"
"-83.36","64.19","CORAL HARBOUR A","2301002","2018-01-19 10:00","2018","01","19","10:00","-25.3","","-28.2","","77","","","","6","","32","","19.3","","100.41","","","","-40","","Snow,Blowing Snow"
"-83.36","64.19","CORAL HARBOUR A","2301002","2018-01-19 11:00","2018","01","19","11:00","-25.4","","-28.4","","77","","","","6","","39","","12.9","","100.44","","","","-41","","Snow,Blowing Snow"
"-83.36","64.19","CORAL HARBOUR A","2301002","2018-01-19 12:00","2018","01","19","12:00","-26.3","","-29.3","","76","","","","5","","33","","24.1","","100.44","","","","-41","","Snow,Blowing Snow"
"-83.36","64.19","CORAL HARBOUR A","2301002","2018-01-19 13:00","2018","01","19","13:00","-26.9","","-29.9","","76","","","","4","","34","","24.1","","100.46","","","","-42","","Ice Crystals,Blowing Snow"
"-83.36","64.19","CORAL HARBOUR A","2301002","2018-01-19 14:00","2018","01","19","14:00","-26.9","","-29.9","","76","","","","5","","34","","24.1","","100.47","","","","-42","","Ice Crystals,Blowing Snow"
"-83.36","64.19","CORAL HARBOUR A","2301002","2018-01-19 15:00","2018","01","19","15:00","-27.8","","-30.9","","75","","","","5","","36","","24.1","","100.47","","","","-44","","Ice Crystals,Blowing Snow"
"-83.36","64.19","CORAL HARBOUR A","2301002","2018-01-19 16:00","2018","01","19","16:00","-27.9","","-30.9","","76","","","","4","","40","","24.1","","100.50","","","","-45","","Ice Crystals,Blowing Snow"
"-83.36","64.19","CORAL HARBOUR A","2301002","2018-01-19 17:00","2018","01","19","17:00","-28.2","","-31.4","","75","","","","5","","38","","24.1","","100.52","","","","-45","","Ice Crystals,Blowing Snow"
"-83.36","64.19","CORAL HARBOUR A","2301002","2018-01-19 18:00","2018","01","19","18:00","-28.0","","-31.1","","75","","","","5","","37","","24.1","","100.56","","","","-44","","Ice Crystals,Blowing Snow"
"-83.36","64.19","CORAL HARBOUR A","2301002","2018-01-19 19:00","2018","01","19","19:00","-28.5","","-31.6","","75","","","","5","","36","","24.1","","100.59","","","","-45","","Ice Crystals,Blowing Snow"
"-83.36","64.19","CORAL HARBOUR A","2301002","2018-01-19 20:00","2018","01","19","20:00","-29.4","","-32.6","","74","","","","3","","27","","24.1","","100.60","","","","-44","","Ice Crystals"
"-83.36","64.19","CORAL HARBOUR A","2301002","2018-01-19 21:00","2018","01","19","21:00","-30.4","","-33.6","","74","","","","36","","14","","24.1","","100.61","","","","-42","","Ice Crystals"
"-83.36","64.19","CORAL HARBOUR A","2301002","2018-01-19 22:00","2018","01","19","22:00","-30.4","","-33.8","","73","","","","2","","18","","24.1","","100.62","","","","-43","","Ice Crystals"
"-83.36","64.19","CORAL HARBOUR A","2301002","2018-01-19 23:00","2018","01","19","23:00","-30.2","","-33.5","","74","","","","34","","22","","24.1","","100.61","","","","-44","","Ice Crystals"
"-83.36","64.19","CORAL HARBOUR A","2301002","2018-01-20 00:00","2018","01","20","00:00","-32.4","","-35.9","","72","","","","32","","25","","24.1","","100.64","","","","-48","","Ice Crystals"
"-83.36","64.19","CORAL HARBOUR A","2301002","2018-01-20 01:00","2018","01","20","01:00","-30.2","","-33.5","","74","","","","1","","15","","24.1","","100.65","","","","-42","","Ice Crystals"
"-83.36","64.19","CORAL HARBOUR A","2301002","2018-01-20 02:00","2018","01","20","02:00","-29.6","","-32.8","","74","","","","2","","24","","24.1","","100.65","","","","-44","","Ice Crystals"
"-83.36","64.19","CORAL HARBOUR A","2301002","2018-01-20 03:00","2018","01","20","03:00","-30.4","","-33.8","","73","","","","2","","24","","24.1","","100.68","","","","-45","","Ice Crystals"
"-83.36","64.19","CORAL HARBOUR A","2301002","2018-01-20 04:00","2018","01","20","04:00","-32.0","","-35.3","","73","","","","1","","13","","24.1","","100.70","","","","-43","","Ice Crystals"
"-83.36","64.19","CORAL HARBOUR A","2301002","2018-01-20 05:00","2018","01","20","05:00","-33.2","","-36.7","","72","","","","33","","21","","24.1","","100.69","","","","-47","","Ice Crystals"
"-83.36","64.19","CORAL HARBOUR A","2301002","2018-01-20 06:00","2018","01","20","06:00","-32.4","","-35.9","","72","","","","33","","27","","24.1","","100.69","","","","-48","","Ice Crystals"
"-83.36","64.19","CORAL HARBOUR A","2301002","2018-01-20 07:00","2018","01","20","07:00","-31.1","","-34.4","","73","","","","34","","23","","24.1","","100.67","","","","-45","","Ice Crystals"
"-83.36","64.19","CORAL HARBOUR A","2301002","2018-01-20 08:00","2018","01","20","08:00","-26.4","","-29.5","","76","","","","36","","14","","24.1","","100.67","","","","-37","","Ice Crystals"
"-83.36","64.19","CORAL HARBOUR A","2301002","2018-01-20 09:00","2018","01","20","09:00","-25.8","","-28.7","","77","","","","3","","28","","24.1","","100.67","","","","-40","","Ice Crystals,Blowing Snow"
"-83.36","64.19","CORAL HARBOUR A","2301002","2018-01-20 10:00","2018","01","20","10:00","-28.7","","-32.0","","74","","","","33","","14","","24.1","","100.72","","","","-39","","Ice Crystals"
"-83.36","64.19","CORAL HARBOUR A","2301002","2018-01-20 11:00","2018","01","20","11:00","-29.4","","-32.7","","74","","","","33","","25","","24.1","","100.70","","","","-44","","Ice Crystals"
"-83.36","64.19","CORAL HARBOUR A","2301002","2018-01-20 12:00","2018","01","20","12:00","-28.2","","-31.4","","75","","","","34","","28","","24.1","","100.70","","","","-43","","Ice Crystals,Blowing Snow"
"-83.36","64.19","CORAL HARBOUR A","2301002","2018-01-20 13:00","2018","01","20","13:00","-27.2","","-30.3","","76","","","","35","","21","","24.1","","100.72","","","","-40","","Ice Crystals"
"-83.36","64.19","CORAL HARBOUR A","2301002","2018-01-20 14:00","2018","01","20","14:00","-25.3","","-28.4","","76","","","","36","","18","","24.1","","100.74","","","","-37","","Ice Crystals"
"-83.36","64.19","CORAL HARBOUR A","2301002","2018-01-20 15:00","2018","01","20","15:00","-25.8","","-28.8","","76","","","","2","","16","","24.1","","100.77","","","","-37","","Ice Crystals"
"-83.36","64.19","CORAL HARBOUR A","2301002","2018-01-20 16:00","2018","01","20","16:00","-28.9","","-32.1","","74","","","","3","","8","","24.1","","100.84","","","","-37","","Ice Crystals"
"-83.36","64.19","CORAL HARBOUR A","2301002","2018-01-20 17:00","2018","01","20","17:00","-27.9","","-30.9","","76","","","","31","","8","","24.1","","100.88","","","","-36","","Ice Crystals"
"-83.36","64.19","CORAL HARBOUR A","2301002","2018-01-20 18:00","2018","01","20","18:00","-29.2","","-32.4","","74","","","","34","","26","","24.1","","100.88","","","","-44","","Ice Crystals"
"-83.36","64.19","CORAL HARBOUR A","2301002","2018-01-20 19:00","2018","01","20","19:00","-29.0","","-32.2","","74","","","","35","","22","","24.1","","100.88","","","","-42","","Ice Crystals"
"-83.36","64.19","CORAL HARBOUR A","2301002","2018-01-20 20:00","2018","01","20","20:00","-29.0","","-32.2","","74","","","","34","","28","","24.1","","100.89","","","","-44","","Ice Crystals"
"-83.36","64.19","CORAL HARBOUR A","2301002","2018-01-20 21:00","2018","01","20","21:00","-28.8","","-32.0","","75","","","","35","","21","","24.1","","100.87","","","","-42","","Ice Crystals"
"-83.36","64.19","CORAL HARBOUR A","2301002","2018-01-20 22:00","2018","01","20","22:00","-27.5","","-30.5","","76","","","","35","","24","","24.1","","100.82","","","","-41","","Ice Crystals"
"-83.36","64.19","CORAL HARBOUR A","2301002","2018-01-20 23:00","2018","01","20","23:00","-28.0","","-31.2","","75","","","","1","","18","","24.1","","100.85","","","","-40","","Ice Crystals"
"-83.36","64.19","CORAL HARBOUR A","2301002","2018-01-21 00:00","2018","01","21","00:00","-27.7","","-30.8","","75","","","","3","","22","","24.1","","100.84","","","","-41","","Ice Crystals"
"-83.36","64.19","CORAL HARBOUR A","2301002","2018-01-21 01:00","2018","01","21","01:00","-26.1","","-29.2","","76","","","","34","","35","","19.3","","100.80","","","","-41","","Ice Crystals,Blowing Snow"
"-83.36","64.19","CORAL HARBOUR A","2301002","2018-01-21 02:00","2018","01","21","02:00","-25.5","","-28.9","","74","","","","2","","23","","24.1","","100.82","","","","-38","","Ice Crystals"
"-83.36","64.19","CORAL HARBOUR A","2301002","2018-01-21 03:00","2018","01","21","03:00","-25.7","","-29.1","","73","","","","35","","20","","24.1","","100.80","","","","-38","","Ice Crystals,Blowing Snow"
"-83.36","64.19","CORAL HARBOUR A","2301002","2018-01-21 04:00","2018","01","21","04:00","-25.2","","-29.0","","72","","","","36","","16","","24.1","","100.79","","","","-36","","Ice Crystals"
"-83.36","64.19","CORAL HARBOUR A","2301002","2018-01-21 05:00","2018","01","21","05:00","-25.2","","-29.0","","71","","","","36","","15","","24.1","","100.77","","","","-35","","Ice Crystals,Blowing Snow"
"-83.36","64.19","CORAL HARBOUR A","2301002","2018-01-21 06:00","2018","01","21","06:00","-24.8","","-28.8","","70","","","","1","","21","","24.1","","100.82","","","","-37","","Ice Crystals,Blowing Snow"
"-83.36","64.19","CORAL HARBOUR A","2301002","2018-01-21 07:00","2018","01","21","07:00","-26.5","","-30.2","","72","","","","1","","18","","24.1","","100.78","","","","-38","","Ice Crystals"
"-83.36","64.19","CORAL HARBOUR A","2301002","2018-01-21 08:00","2018","01","21","08:00","-26.2","","-29.6","","74","","","","36","","18","","24.1","","100.81","","","","-38","","Ice Crystals,Blowing Snow"
"-83.36","64.19","CORAL HARBOUR A","2301002","2018-01-21 09:00","2018","01","21","09:00","-26.4","","-30.0","","72","","","","1","","17","","24.1","","100.80","","","","-38","","Ice Crystals,Blowing Snow"
"-83.36","64.19","CORAL HARBOUR A","2301002","2018-01-21 10:00","2018","01","21","10:00","-26.9","","-30.7","","71","","","","32","","21","","24.1","","100.83","","","","-39","","Ice Crystals"
"-83.36","64.19","CORAL HARBOUR A","2301002","2018-01-21 11:00","2018","01","21","11:00","-25.9","","-29.8","","70","","","","34","","23","","24.1","","100.84","","","","-39","","Ice Crystals,Blowing Snow"
"-83.36","64.19","CORAL HARBOUR A","2301002","2018-01-21 12:00","2018","01","21","12:00","-26.9","","-30.8","","70","","","","34","","22","","24.1","","100.84","","","","-40","","Ice Crystals,Blowing Snow"
"-83.36","64.19","CORAL HARBOUR A","2301002","2018-01-21 13:00","2018","01","21","13:00","-26.8","","-30.6","","71","","","","34","","35","","24.1","","100.81","","","","-42","","Ice Crystals,Blowing Snow"
"-83.36","64.19","CORAL HARBOUR A","2301002","2018-01-21 14:00","2018","01","21","14:00","-27.1","","-30.9","","71","","","","34","","25","","24.1","","100.85","","","","-41","","Ice Crystals,Blowing Snow"
"-83.36","64.19","CORAL HARBOUR A","2301002","2018-01-21 15:00","2018","01","21","15:00","-27.1","","-30.6","","73","","","","33","","24","","24.1","","100.89","","","","-40","","Ice Crystals"
"-83.36","64.19","CORAL HARBOUR A","2301002","2018-01-21 16:00","2018","01","21","16:00","-27.3","","-30.9","","72","","","","32","","23","","24.1","","100.90","","","","-41","","Ice Crystals,Blowing Snow"
"-83.36","64.19","CORAL HARBOUR A","2301002","2018-01-21 17:00","2018","01","21","17:00","-26.1","","-29.5","","74","","","","34","","39","","6.4","","100.88","","","","-42","","Ice Crystals,Blowing Snow"
"-83.36","64.19","CORAL HARBOUR A","2301002","2018-01-21 18:00","2018","01","21","18:00","-26.0","","-29.4","","73","","","","36","","26","","6.4","","100.87","","","","-40","","Ice Crystals,Blowing Snow"
"-83.36","64.19","CORAL HARBOUR A","2301002","2018-01-21 19:00","2018","01","21","19:00","-26.1","","-29.4","","74","","","","1","","17","","9.7","","100.87","","","","-37","","Ice Crystals,Blowing Snow"
"-83.36","64.19","CORAL HARBOUR A","2301002","2018-01-21 20:00","2018","01","21","20:00","-26.2","","-29.4","","75","","","","35","","34","","12.9","","100.84","","","","-41","","Ice Crystals,Blowing Snow"
"-83.36","64.19","CORAL HARBOUR A","2301002","2018-01-21 21:00","2018","01","21","21:00","-26.0","","-29.3","","74","","","","1","","16","","19.3","","100.89","","","","-37","","Ice Crystals,Blowing Snow"
"-83.36","64.19","CORAL HARBOUR A","2301002","2018-01-21 22:00","2018","01","21","22:00","-25.5","","-28.9","","74","","","","36","","19","","19.3","","100.84","","","","-37","","Ice Crystals,Blowing Snow"
"-83.36","64.19","CORAL HARBOUR A","2301002","2018-01-21 23:00","2018","01","21","23:00","-25.9","","-29.5","","72","","","","34","","19","","19.3","","100.90","","","","-38","","Ice Crystals,Blowing Snow"
"-83.36","64.19","CORAL HARBOUR A","2301002","2018-01-22 00:00","2018","01","22","00:00","-25.9","","-29.5","","72","","","","4","","20","","19.3","","100.90","","","","-38","","Ice Crystals,Blowing Snow"
"-83.36","64.19","CORAL HARBOUR A","2301002","2018-01-22 01:00","2018","01","22","01:00","-26.1","","-29.6","","73","","","","2","","21","","19.3","","100.89","","","","-38","","Ice Crystals,Blowing Snow"
"-83.36","64.19","CORAL HARBOUR A","2301002","2018-01-22 02:00","2018","01","22","02:00","-26.0","","-29.4","","74","","","","36","","21","","19.3","","100.90","","","","-38","","Ice Crystals,Blowing Snow"
"-83.36","64.19","CORAL HARBOUR A","2301002","2018-01-22 03:00","2018","01","22","03:00","-26.7","","-29.9","","75","","","","34","","22","","19.3","","100.97","","","","-39","","Ice Crystals,Blowing Snow"
"-83.36","64.19","CORAL HARBOUR A","2301002","2018-01-22 04:00","2018","01","22","04:00","-26.6","","-29.9","","75","","","","35","","19","","19.3","","100.99","","","","-39","","Ice Crystals,Blowing Snow"
"-83.36","64.19","CORAL HARBOUR A","2301002","2018-01-22 05:00","2018","01","22","05:00"
"-83.36","64.19","CORAL HARBOUR A","2301002","2018-01-22 06:00","2018","01","22","06:00","-26.5","","-29.8","","74","","","","33","","27","","19.3","","101.02","","","","-40","","Ice Crystals,Blowing Snow"
"-83.36","64.19","CORAL HARBOUR A","2301002","2018-01-22 07:00","2018","01","22","07:00","-27.0","","-30.4","","74","","","","35","","25","","19.3","","101.03","","","","-41","","Ice Crystals,Blowing Snow"
"-83.36","64.19","CORAL HARBOUR A","2301002","2018-01-22 08:00","2018","01","22","08:00","-29.4","","-32.7","","73","","","","35","","16","","19.3","","101.09","","","","-41","","Ice Crystals"
"-83.36","64.19","CORAL HARBOUR A","2301002","2018-01-22 09:00","2018","01","22","09:00","-29.1","","-32.5","","73","","","","35","","19","","24.1","","101.11","","","","-42","","Ice Crystals"
"-83.36","64.19","CORAL HARBOUR A","2301002","2018-01-22 10:00","2018","01","22","10:00","-28.6","","-32.4","","70","","","","33","","22","","24.1","","101.14","","","","-42","","Ice Crystals"
"-83.36","64.19","CORAL HARBOUR A","2301002","2018-01-22 11:00","2018","01","22","11:00","-28.3","","-32.2","","70","","","","1","","18","","24.1","","101.14","","","","-40","","Ice Crystals,Blowing Snow"
"-83.36","64.19","CORAL HARBOUR A","2301002","2018-01-22 12:00","2018","01","22","12:00","-27.4","","-31.5","","69","","","","3","","29","","24.1","","101.16","","","","-42","","Ice Crystals,Blowing Snow"
"-83.36","64.19","CORAL HARBOUR A","2301002","2018-01-22 13:00","2018","01","22","13:00","-27.6","","-31.7","","69","","","","1","","16","","24.1","","101.17","","","","-39","","Ice Crystals"
"-83.36","64.19","CORAL HARBOUR A","2301002","2018-01-22 14:00","2018","01","22","14:00","-28.4","","-32.5","","69","","","","4","","18","","24.1","","101.23","","","","-40","","Ice Crystals"
"-83.36","64.19","CORAL HARBOUR A","2301002","2018-01-22 15:00","2018","01","22","15:00","-28.9","","-32.9","","69","","","","2","","21","","24.1","","101.25","","","","-42","","Ice Crystals"
"-83.36","64.19","CORAL HARBOUR A","2301002","2018-01-22 16:00","2018","01","22","16:00","-29.9","","-33.8","","70","","","","2","","11","","24.1","","101.30","","","","-40","","Ice Crystals"
"-83.36","64.19","CORAL HARBOUR A","2301002","2018-01-22 17:00","2018","01","22","17:00","-29.7","","-33.7","","69","","","","2","","25","","24.1","","101.30","","","","-44","","Ice Crystals"
"-83.36","64.19","CORAL HARBOUR A","2301002","2018-01-22 18:00","2018","01","22","18:00","-30.9","","-34.6","","70","","","","1","","23","","24.1","","101.35","","","","-45","","Ice Crystals"
"-83.36","64.19","CORAL HARBOUR A","2301002","2018-01-22 19:00","2018","01","22","19:00","-29.9","","-33.5","","71","","","","5","","16","","24.1","","101.39","","","","-42","","Ice Crystals"
"-83.36","64.19","CORAL HARBOUR A","2301002","2018-01-22 20:00","2018","01","22","20:00","-31.0","","-34.7","","71","","","","1","","17","","24.1","","101.39","","","","-43","","Ice Crystals"
"-83.36","64.19","CORAL HARBOUR A","2301002","2018-01-22 21:00","2018","01","22","21:00","-29.4","","-32.9","","72","","","","5","","23","","24.1","","101.40","","","","-43","","Ice Crystals"
"-83.36","64.19","CORAL HARBOUR A","2301002","2018-01-22 22:00","2018","01","22","22:00","-31.6","","-35.1","","72","","","","34","","16","","24.1","","101.44","","","","-44","","Ice Crystals"
"-83.36","64.19","CORAL HARBOUR A","2301002","2018-01-22 23:00","2018","01","22","23:00","-30.6","","-34.2","","71","","","","31","","7","","24.1","","101.45","","","","-38","","Ice Crystals"
"-83.36","64.19","CORAL HARBOUR A","2301002","2018-01-23 00:00","2018","01","23","00:00","-29.8","","-33.3","","73","","","","36","","2","","24.1","","101.49","","","","-32","","Ice Crystals"
"-83.36","64.19","CORAL HARBOUR A","2301002","2018-01-23 01:00","2018","01","23","01:00","-31.6","","-35.2","","71","","","","6","","7","","24.1","","101.52","","","","-39","","Ice Crystals"
"-83.36","64.19","CORAL HARBOUR A","2301002","2018-01-23 02:00","2018","01","23","02:00","-30.8","","-34.0","","74","","","","36","","7","","24.1","","101.54","","","","-38","","Ice Crystals"
"-83.36","64.19","CORAL HARBOUR A","2301002","2018-01-23 03:00","2018","01","23","03:00","-31.0","","-34.1","","75","","","","35","","16","","24.1","","101.54","","","","-43","","Ice Crystals"
"-83.36","64.19","CORAL HARBOUR A","2301002","2018-01-23 04:00","2018","01","23","04:00","-32.0","","-35.4","","72","","","","3","","13","","19.3","","101.57","","","","-43","","Ice Crystals"
"-83.36","64.19","CORAL HARBOUR A","2301002","2018-01-23 05:00","2018","01","23","05:00","-32.5","","-35.9","","72","","","","36","","13","","19.3","","101.57","","","","-44","","Ice Crystals"
"-83.36","64.19","CORAL HARBOUR A","2301002","2018-01-23 06:00","2018","01","23","06:00","-29.3","","-32.3","","76","","","","3","","14","","24.1","","101.59","","","","-40","","Ice Crystals"
"-83.36","64.19","CORAL HARBOUR A","2301002","2018-01-23 07:00","2018","01","23","07:00","-30.5","","-33.8","","74","","","","2","","21","","24.1","","101.56","","","","-44","","Ice Crystals"
"-83.36","64.19","CORAL HARBOUR A","2301002","2018-01-23 08:00","2018","01","23","08:00","-29.8","","-32.9","","76","","","","5","","3","","24.1","","101.60","","","","-33","","Ice Crystals"
"-83.36","64.19","CORAL HARBOUR A","2301002","2018-01-23 09:00","2018","01","23","09:00","-30.9","","-33.7","","76","","","","4","","3","","24.1","","101.60","","","","-34","","Ice Crystals"
"-83.36","64.19","CORAL HARBOUR A","2301002","2018-01-23 10:00","2018","01","23","10:00","-32.0","","-35.1","","75","","","","5","","7","","24.1","","101.60","","","","-40","","Ice Crystals"
"-83.36","64.19","CORAL HARBOUR A","2301002","2018-01-23 11:00","2018","01","23","11:00","-31.7","","-34.7","","75","","","","4","","13","","24.1","","101.57","","","","-43","","Ice Crystals"
"-83.36","64.19","CORAL HARBOUR A","2301002","2018-01-23 12:00","2018","01","23","12:00","-30.7","","-33.8","","75","","","","5","","4","","24.1","","101.56","","","","-35","","Ice Crystals"
"-83.36","64.19","CORAL HARBOUR A","2301002","2018-01-23 13:00","2018","01","23","13:00","-31.3","","-34.4","","74","","","","5","","3","","24.1","","101.58","","","","-35","","Ice Crystals"
"-83.36","64.19","CORAL HARBOUR A","2301002","2018-01-23 14:00","2018","01","23","14:00","-31.2","","-34.9","","71","","","","5","","11","","24.1","","101.57","","","","-41","","Ice Crystals"
"-83.36","64.19","CORAL HARBOUR A","2301002","2018-01-23 15:00","2018","01","23","15:00","-29.8","","-32.8","","76","","","","31","","3","","24.1","","101.57","","","","-33","","Ice Crystals"
"-83.36","64.19","CORAL HARBOUR A","2301002","2018-01-23 16:00","2018","01","23","16:00","-31.3","","-34.5","","75","","","","31","","6","","24.1","","101.56","","","","-38","","Ice Crystals"
"-83.36","64.19","CORAL HARBOUR A","2301002","2018-01-23 17:00","2018","01","23","17:00","-31.8","","-34.9","","74","","","","6","","8","","24.1","","101.58","","","","-40","","Ice Crystals"
"-83.36","64.19","CORAL HARBOUR A","2301002","2018-01-23 18:00","2018","01","23","18:00","-28.5","","-31.6","","75","","","","35","","23","","24.1","","101.52","","","","-42","","Ice Crystals"
"-83.36","64.19","CORAL HARBOUR A","2301002","2018-01-23 19:00","2018","01","23","19:00","-30.9","","-34.6","","70","","","","27","","3","","24.1","","101.55","","","","-34","","Ice Crystals"
"-83.36","64.19","CORAL HARBOUR A","2301002","2018-01-23 20:00","2018","01","23","20:00","-31.0","","-34.2","","74","","","","28","","5","","24.1","","101.52","","","","-37","","Ice Crystals"
"-83.36","64.19","CORAL HARBOUR A","2301002","2018-01-23 21:00","2018","01","23","21:00","-30.3","","-33.4","","75","","","","2","","5","","24.1","","101.50","","","","-36","","Ice Crystals"
"-83.36","64.19","CORAL HARBOUR A","2301002","2018-01-23 22:00","2018","01","23","22:00","-30.5","","-33.7","","74","","","","36","","2","","24.1","","101.49","","","","-33","","Ice Crystals"
"-83.36","64.19","CORAL HARBOUR A","2301002","2018-01-23 23:00","2018","01","23","23:00","-30.8","","-34.0","","74","","","","32","","5","","24.1","","101.45","","","","-37","","Ice Crystals"
"-83.36","64.19","CORAL HARBOUR A","2301002","2018-01-24 00:00","2018","01","24","00:00","-30.3","","-33.4","","75","","","","33","","19","","24.1","","101.43","","","","-43","","Ice Crystals"
"-83.36","64.19","CORAL HARBOUR A","2301002","2018-01-24 01:00","2018","01","24","01:00","-33.3","","-36.9","","71","","","","31","","16","","24.1","","101.44","","","","-46","","Ice Crystals"
"-83.36","64.19","CORAL HARBOUR A","2301002","2018-01-24 02:00","2018","01","24","02:00","-31.2","","-34.6","","73","","","","35","","15","","24.1","","101.41","","","","-43","","Ice Crystals"
"-83.36","64.19","CORAL HARBOUR A","2301002","2018-01-24 03:00","2018","01","24","03:00","-29.8","","-33.3","","72","","","","2","","4","","24.1","","101.43","","","","-34","","Ice Crystals"
"-83.36","64.19","CORAL HARBOUR A","2301002","2018-01-24 04:00","2018","01","24","04:00","-33.5","","-37.1","","71","","","","4","","8","","24.1","","101.42","","","","-42","","Ice Crystals"
"-83.36","64.19","CORAL HARBOUR A","2301002","2018-01-24 05:00","2018","01","24","05:00","-33.5","","-37.0","","71","","","","1","","10","","24.1","","101.39","","","","-43","","Ice Crystals"
"-83.36","64.19","CORAL HARBOUR A","2301002","2018-01-24 06:00","2018","01","24","06:00","-32.4","","-35.9","","72","","","","1","","8","","24.1","","101.36","","","","-41","","Ice Crystals"
"-83.36","64.19","CORAL HARBOUR A","2301002","2018-01-24 07:00","2018","01","24","07:00","-33.2","","-36.6","","73","","","","4","","3","","24.1","","101.37","","","","-37","","Ice Crystals"
"-83.36","64.19","CORAL HARBOUR A","2301002","2018-01-24 08:00","2018","01","24","08:00","-34.4","","-37.9","","72","","","","5","","4","","24.1","","101.35","","","","-39","","Ice Crystals"
"-83.36","64.19","CORAL HARBOUR A","2301002","2018-01-24 09:00","2018","01","24","09:00","-35.5","","-39.2","","70","","","","32","","8","","24.1","","101.32","","","","-44","","Ice Crystals"
"-83.36","64.19","CORAL HARBOUR A","2301002","2018-01-24 10:00","2018","01","24","10:00","-33.3","","-36.7","","72","","","","6","","7","","24.1","","101.27","","","","-41","","Ice Crystals"
"-83.36","64.19","CORAL HARBOUR A","2301002","2018-01-24 11:00","2018","01","24","11:00","-33.2","","-36.6","","72","","","","36","","2","","24.1","","101.25","","","","-36","","Ice Crystals"
"-83.36","64.19","CORAL HARBOUR A","2301002","2018-01-24 12:00","2018","01","24","12:00","-31.6","","-34.8","","74","","","","14","","5","","24.1","","101.24","","","","-37","","Ice Crystals"
"-83.36","64.19","CORAL HARBOUR A","2301002","2018-01-24 13:00","2018","01","24","13:00","-33.8","","-37.4","","71","","","","33","","7","","24.1","","101.22","","","","-42","","Ice Crystals"
"-83.36","64.19","CORAL HARBOUR A","2301002","2018-01-24 14:00","2018","01","24","14:00","-30.8","","-34.1","","73","","","","13","","4","","24.1","","101.20","","","","-35","","Ice Crystals"
"-83.36","64.19","CORAL HARBOUR A","2301002","2018-01-24 15:00","2018","01","24","15:00","-31.6","","-34.9","","73","","","","36","","1","","24.1","","101.21","","","","-33","","Ice Crystals"
"-83.36","64.19","CORAL HARBOUR A","2301002","2018-01-24 16:00","2018","01","24","16:00","-35.2","","-38.8","","70","","","","28","","7","","24.1","","101.19","","","","-43","","Ice Crystals"
"-83.36","64.19","CORAL HARBOUR A","2301002","2018-01-24 17:00","2018","01","24","17:00","-34.3","","-37.9","","71","","","","36","","2","","24.1","","101.19","","","","-37","","Ice Crystals"
"-83.36","64.19","CORAL HARBOUR A","2301002","2018-01-24 18:00","2018","01","24","18:00","-33.0","","-36.5","","72","","","","9","","4","","24.1","","101.16","","","","-38","","Ice Crystals"
"-83.36","64.19","CORAL HARBOUR A","2301002","2018-01-24 19:00","2018","01","24","19:00","-33.6","","-37.1","","72","","","","8","","7","","24.1","","101.18","","","","-41","","Ice Crystals"
"-83.36","64.19","CORAL HARBOUR A","2301002","2018-01-24 20:00","2018","01","24","20:00","-34.2","","-37.8","","71","","","","3","","14","","24.1","","101.13","","","","-46","","Ice Crystals"
"-83.36","64.19","CORAL HARBOUR A","2301002","2018-01-24 21:00","2018","01","24","21:00","-32.8","","-36.2","","72","","","","6","","8","","24.1","","101.14","","","","-41","","Ice Crystals"
"-83.36","64.19","CORAL HARBOUR A","2301002","2018-01-24 22:00","2018","01","24","22:00","-32.6","","-36.0","","73","","","","8","","9","","24.1","","101.15","","","","-42","","Ice Crystals"
"-83.36","64.19","CORAL HARBOUR A","2301002","2018-01-24 23:00","2018","01","24","23:00","-32.6","","-36.0","","73","","","","1","","5","","24.1","","101.17","","","","-39","","Ice Crystals"
"-83.36","64.19","CORAL HARBOUR A","2301002","2018-01-25 00:00","2018","01","25","00:00","-31.3","","-34.7","","73","","","","14","","3","","16.1","","101.18","","","","-35","","Ice Crystals"
"-83.36","64.19","CORAL HARBOUR A","2301002","2018-01-25 01:00","2018","01","25","01:00","-33.5","","-37.1","","71","","","","30","","8","","1.6","","101.18","","","","-42","","Ice Crystals,Fog"
"-83.36","64.19","CORAL HARBOUR A","2301002","2018-01-25 02:00","2018","01","25","02:00","-33.8","","-37.3","","71","","","","30","","5","","9.7","","101.19","","","","-40","","Ice Crystals,Fog"
"-83.36","64.19","CORAL HARBOUR A","2301002","2018-01-25 03:00","2018","01","25","03:00","-32.7","","-36.2","","72","","","","32","","31","","19.3","","101.21","","","","-49","","Ice Crystals"
"-83.36","64.19","CORAL HARBOUR A","2301002","2018-01-25 04:00","2018","01","25","04:00"
"-83.36","64.19","CORAL HARBOUR A","2301002","2018-01-25 05:00","2018","01","25","05:00"
"-83.36","64.19","CORAL HARBOUR A","2301002","2018-01-25 06:00","2018","01","25","06:00"
"-83.36","64.19","CORAL HARBOUR A","2301002","2018-01-25 07:00","2018","01","25","07:00","-32.2","","-35.7","","72","","","","36","","21","","24.1","","101.18","","","","-46","","Ice Crystals"
"-83.36","64.19","CORAL HARBOUR A","2301002","2018-01-25 08:00","2018","01","25","08:00","-33.1","","-36.6","","71","","","","1","","10","","24.1","","101.20","","","","-43","","Ice Crystals"
"-83.36","64.19","CORAL HARBOUR A","2301002","2018-01-25 09:00","2018","01","25","09:00","-33.3","","-36.9","","71","","","","2","","15","","24.1","","101.24","","","","-45","","Ice Crystals"
"-83.36","64.19","CORAL HARBOUR A","2301002","2018-01-25 10:00","2018","01","25","10:00","-33.9","","-37.5","","71","","","","1","","18","","24.1","","101.24","","","","-47","","Ice Crystals"
"-83.36","64.19","CORAL HARBOUR A","2301002","2018-01-25 11:00","2018","01","25","11:00","-33.4","","-37.0","","71","","","","36","","17","","24.1","","101.24","","","","-46","","Ice Crystals"
"-83.36","64.19","CORAL HARBOUR A","2301002","2018-01-25 12:00","2018","01","25","12:00","-33.6","","-37.2","","71","","","","35","","13","","24.1","","101.24","","","","-45","","Ice Crystals"
"-83.36","64.19","CORAL HARBOUR A","2301002","2018-01-25 13:00","2018","01","25","13:00","-33.0","","-36.6","","71","","","","1","","24","","24.1","","101.23","","","","-48","","Ice Crystals"
"-83.36","64.19","CORAL HARBOUR A","2301002","2018-01-25 14:00","2018","01","25","14:00","-33.0","","-36.6","","71","","","","1","","17","","24.1","","101.21","","","","-46","","Ice Crystals"
"-83.36","64.19","CORAL HARBOUR A","2301002","2018-01-25 15:00","2018","01","25","15:00","-34.6","","-38.3","","70","","","","34","","21","","24.1","","101.20","","","","-49","","Ice Crystals"
"-83.36","64.19","CORAL HARBOUR A","2301002","2018-01-25 16:00","2018","01","25","16:00","-32.9","","-36.4","","71","","","","34","","14","","24.1","","101.27","","","","-45","","Ice Crystals"
"-83.36","64.19","CORAL HARBOUR A","2301002","2018-01-25 17:00","2018","01","25","17:00","-31.6","","-35.1","","72","","","","34","","10","","24.1","","101.32","","","","-41","","Ice Crystals"
"-83.36","64.19","CORAL HARBOUR A","2301002","2018-01-25 18:00","2018","01","25","18:00","-31.2","","-34.7","","73","","","","36","","2","","24.1","","101.26","","","","-34","","Ice Crystals"
"-83.36","64.19","CORAL HARBOUR A","2301002","2018-01-25 19:00","2018","01","25","19:00","-31.3","","-34.7","","72","","","","2","","16","","24.1","","101.27","","","","-43","","Ice Crystals"
"-83.36","64.19","CORAL HARBOUR A","2301002","2018-01-25 20:00","2018","01","25","20:00","-31.3","","-34.8","","72","","","","3","","7","","24.1","","101.24","","","","-39","","Ice Crystals"
"-83.36","64.19","CORAL HARBOUR A","2301002","2018-01-25 21:00","2018","01","25","21:00","-31.1","","-34.6","","72","","","","34","","5","","24.1","","101.25","","","","-37","","Ice Crystals"
"-83.36","64.19","CORAL HARBOUR A","2301002","2018-01-25 22:00","2018","01","25","22:00","-30.3","","-33.7","","73","","","","9","","6","","24.1","","101.23","","","","-37","","Ice Crystals"
"-83.36","64.19","CORAL HARBOUR A","2301002","2018-01-25 23:00","2018","01","25","23:00","-30.0","","-33.4","","73","","","","11","","8","","24.1","","101.23","","","","-38","","Ice Crystals"
"-83.36","64.19","CORAL HARBOUR A","2301002","2018-01-26 00:00","2018","01","26","00:00","-29.3","","-32.7","","73","","","","12","","7","","24.1","","101.22","","","","-36","","Ice Crystals"
"-83.36","64.19","CORAL HARBOUR A","2301002","2018-01-26 01:00","2018","01","26","01:00","-29.7","","-33.1","","73","","","","11","","3","","24.1","","101.21","","","","-33","","Ice Crystals"
"-83.36","64.19","CORAL HARBOUR A","2301002","2018-01-26 02:00","2018","01","26","02:00","-29.8","","-33.2","","73","","","","29","","3","","24.1","","101.22","","","","-33","","Ice Crystals"
"-83.36","64.19","CORAL HARBOUR A","2301002","2018-01-26 03:00","2018","01","26","03:00","-31.1","","-34.5","","72","","","","26","","6","","24.1","","101.24","","","","-38","","Ice Crystals"
"-83.36","64.19","CORAL HARBOUR A","2301002","2018-01-26 04:00","2018","01","26","04:00","-29.1","","-32.5","","73","","","","11","","8","","24.1","","101.23","","","","-37","","Ice Crystals"
"-83.36","64.19","CORAL HARBOUR A","2301002","2018-01-26 05:00","2018","01","26","05:00","-28.5","","-31.9","","73","","","","12","","4","","24.1","","101.20","","","","-33","","Ice Crystals"
"-83.36","64.19","CORAL HARBOUR A","2301002","2018-01-26 06:00","2018","01","26","06:00","-29.5","","-32.9","","73","","","","19","","3","","24.1","","101.22","","","","-33","","Ice Crystals"
"-83.36","64.19","CORAL HARBOUR A","2301002","2018-01-26 07:00","2018","01","26","07:00","-29.0","","-32.3","","74","","","","36","","3","","24.1","","101.20","","","","-32","","Ice Crystals"
"-83.36","64.19","CORAL HARBOUR A","2301002","2018-01-26 08:00","2018","01","26","08:00","-27.5","","-30.8","","74","","","","5","","4","","24.1","","101.18","","","","-32","","Ice Crystals"
"-83.36","64.19","CORAL HARBOUR A","2301002","2018-01-26 09:00","2018","01","26","09:00","-28.0","","-31.3","","74","","","","12","","8","","24.1","","101.15","","","","-36","","Ice Crystals"
"-83.36","64.19","CORAL HARBOUR A","2301002","2018-01-26 10:00","2018","01","26","10:00","-25.7","","-28.9","","75","","","","10","","9","","9.7","","101.13","","","","-33","","Ice Crystals"
"-83.36","64.19","CORAL HARBOUR A","2301002","2018-01-26 11:00","2018","01","26","11:00","-26.7","","-29.8","","75","","","","14","","6","","9.7","","101.12","","","","-33","","Snow"
"-83.36","64.19","CORAL HARBOUR A","2301002","2018-01-26 12:00","2018","01","26","12:00","-26.2","","-29.3","","76","","","","20","","4","","6.4","","101.11","","","","-30","","Snow"
"-83.36","64.19","CORAL HARBOUR A","2301002","2018-01-26 13:00","2018","01","26","13:00","-25.8","","-28.9","","76","","","","36","","1","","9.7","","101.06","","","","-27","","Snow"
"-83.36","64.19","CORAL HARBOUR A","2301002","2018-01-26 14:00","2018","01","26","14:00","-25.1","","-28.1","","76","","","","11","","7","","9.7","","101.05","","","","-32","","Snow"
"-83.36","64.19","CORAL HARBOUR A","2301002","2018-01-26 15:00","2018","01","26","15:00","-24.7","","-27.6","","77","","","","6","","7","","9.7","","101.04","","","","-31","","Snow"
"-83.36","64.19","CORAL HARBOUR A","2301002","2018-01-26 16:00","2018","01","26","16:00","-24.7","","-27.7","","76","","","","6","","7","","19.3","","101.00","","","","-31","","Snow"
"-83.36","64.19","CORAL HARBOUR A","2301002","2018-01-26 17:00","2018","01","26","17:00","-25.2","","-28.3","","75","","","","10","","8","","9.7","","101.01","","","","-32","","Snow"
"-83.36","64.19","CORAL HARBOUR A","2301002","2018-01-26 18:00","2018","01","26","18:00","-25.1","","-28.3","","75","","","","36","","2","","9.7","","100.99","","","","-27","","Snow"
"-83.36","64.19","CORAL HARBOUR A","2301002","2018-01-26 19:00","2018","01","26","19:00","-25.2","","-28.5","","74","","","","15","","3","","9.7","","100.98","","","","-28","","Snow"
"-83.36","64.19","CORAL HARBOUR A","2301002","2018-01-26 20:00","2018","01","26","20:00","-25.4","","-28.7","","75","","","","14","","7","","16.1","","100.96","","","","-32","","Snow"
"-83.36","64.19","CORAL HARBOUR A","2301002","2018-01-26 21:00","2018","01","26","21:00","-24.2","","-27.5","","74","","","","9","","5","","9.7","","100.91","","","","-29","","Snow"
"-83.36","64.19","CORAL HARBOUR A","2301002","2018-01-26 22:00","2018","01","26","22:00","-28.8","","-32.4","","72","","","","2","","6","","9.7","","100.91","","","","-35","","Snow"
"-83.36","64.19","CORAL HARBOUR A","2301002","2018-01-26 23:00","2018","01","26","23:00","-30.5","","-34.0","","73","","","","36","","17","","9.7","","100.88","","","","-43","","Snow"
"-83.36","64.19","CORAL HARBOUR A","2301002","2018-01-27 00:00","2018","01","27","00:00","-30.6","","-34.0","","73","","","","1","","13","","19.3","","100.86","","","","-41","","Snow"
"-83.36","64.19","CORAL HARBOUR A","2301002","2018-01-27 01:00","2018","01","27","01:00","-30.5","","-33.8","","74","","","","3","","22","","24.1","","100.81","","","","-44","","Snow"
"-83.36","64.19","CORAL HARBOUR A","2301002","2018-01-27 02:00","2018","01","27","02:00","-32.5","","-35.8","","73","","","","34","","16","","19.3","","100.80","","","","-45","","Ice Crystals"
"-83.36","64.19","CORAL HARBOUR A","2301002","2018-01-27 03:00","2018","01","27","03:00","-33.0","","-36.4","","73","","","","35","","19","","9.7","","100.76","","","","-47","","Ice Crystals"
"-83.36","64.19","CORAL HARBOUR A","2301002","2018-01-27 04:00","2018","01","27","04:00","-32.8","","-36.2","","72","","","","36","","21","","24.1","","100.74","","","","-47","","Ice Crystals"
"-83.36","64.19","CORAL HARBOUR A","2301002","2018-01-27 05:00","2018","01","27","05:00","-33.1","","-36.6","","72","","","","34","","19","","19.3","","100.74","","","","-47","","Ice Crystals"
"-83.36","64.19","CORAL HARBOUR A","2301002","2018-01-27 06:00","2018","01","27","06:00","-33.1","","-36.4","","73","","","","1","","14","","9.7","","100.70","","","","-45","","Ice Crystals"
"-83.36","64.19","CORAL HARBOUR A","2301002","2018-01-27 07:00","2018","01","27","07:00","-32.5","","-35.7","","74","","","","2","","11","","19.3","","100.68","","","","-43","","Ice Crystals"
"-83.36","64.19","CORAL HARBOUR A","2301002","2018-01-27 08:00","2018","01","27","08:00","-29.5","","-32.4","","76","","","","2","","10","","6.4","","100.63","","","","-39","","Ice Crystals,Fog"
"-83.36","64.19","CORAL HARBOUR A","2301002","2018-01-27 09:00","2018","01","27","09:00","-28.4","","-31.4","","77","","","","1","","13","","0.4","","100.59","","","","-39","","Ice Crystals,Freezing Fog"
"-83.36","64.19","CORAL HARBOUR A","2301002","2018-01-27 10:00","2018","01","27","10:00","-29.5","","-32.6","","75","","","","8","","9","","0.4","","100.53","","","","-38","","Ice Crystals,Freezing Fog"
"-83.36","64.19","CORAL HARBOUR A","2301002","2018-01-27 11:00","2018","01","27","11:00","-32.1","","-35.5","","72","","","","9","","10","","0.6","","100.51","","","","-42","","Ice Crystals,Freezing Fog"
"-83.36","64.19","CORAL HARBOUR A","2301002","2018-01-27 12:00","2018","01","27","12:00","-30.0","","-33.3","","74","","","","14","","8","","4.8","","100.43","","","","-38","","Ice Crystals,Fog"
"-83.36","64.19","CORAL HARBOUR A","2301002","2018-01-27 13:00","2018","01","27","13:00","-27.3","","-30.4","","76","","","","36","","3","","9.7","","100.34","","","","-30","","Ice Crystals,Fog"
"-83.36","64.19","CORAL HARBOUR A","2301002","2018-01-27 14:00","2018","01","27","14:00","-28.2","","-31.4","","75","","","","36","","3","","19.3","","100.29","","","","-31","","Ice Crystals"
"-83.36","64.19","CORAL HARBOUR A","2301002","2018-01-27 15:00","2018","01","27","15:00","-28.8","","-31.9","","75","","","","2","","4","","24.1","","100.26","","","","-33","","Ice Crystals"
"-83.36","64.19","CORAL HARBOUR A","2301002","2018-01-27 16:00","2018","01","27","16:00","-31.8","","-35.1","","73","","","","1","","9","","24.1","","100.22","","","","-41","","Ice Crystals"
"-83.36","64.19","CORAL HARBOUR A","2301002","2018-01-27 17:00","2018","01","27","17:00","-31.0","","-34.3","","73","","","","1","","35","","24.1","","100.19","","","","-48","","Ice Crystals,Blowing Snow"
"-83.36","64.19","CORAL HARBOUR A","2301002","2018-01-27 18:00","2018","01","27","18:00","-31.4","","-34.8","","73","","","","36","","21","","24.1","","100.20","","","","-45","","Ice Crystals"
"-83.36","64.19","CORAL HARBOUR A","2301002","2018-01-27 19:00","2018","01","27","19:00","-30.3","","-33.5","","74","","","","36","","23","","24.1","","100.22","","","","-44","","Ice Crystals"
"-83.36","64.19","CORAL HARBOUR A","2301002","2018-01-27 20:00","2018","01","27","20:00","-31.7","","-35.1","","73","","","","34","","22","","24.1","","100.22","","","","-46","","Ice Crystals"
"-83.36","64.19","CORAL HARBOUR A","2301002","2018-01-27 21:00","2018","01","27","21:00","-32.8","","-36.2","","72","","","","33","","15","","24.1","","100.24","","","","-45","","Ice Crystals"
"-83.36","64.19","CORAL HARBOUR A","2301002","2018-01-27 22:00","2018","01","27","22:00","-32.3","","-35.8","","72","","","","1","","22","","24.1","","100.22","","","","-47","","Ice Crystals"
"-83.36","64.19","CORAL HARBOUR A","2301002","2018-01-27 23:00","2018","01","27","23:00","-31.8","","-35.2","","72","","","","2","","26","","24.1","","100.21","","","","-47","","Ice Crystals"
"-83.36","64.19","CORAL HARBOUR A","2301002","2018-01-28 00:00","2018","01","28","00:00","-32.1","","-35.5","","72","","","","1","","27","","24.1","","100.19","","","","-48","","Ice Crystals,Blowing Snow"
"-83.36","64.19","CORAL HARBOUR A","2301002","2018-01-28 01:00","2018","01","28","01:00","-30.7","","-34.0","","73","","","","1","","32","","24.1","","100.17","","","","-47","","Ice Crystals"
"-83.36","64.19","CORAL HARBOUR A","2301002","2018-01-28 02:00","2018","01","28","02:00","-33.0","","-36.5","","72","","","","35","","22","","24.1","","100.21","","","","-47","","Ice Crystals"
"-83.36","64.19","CORAL HARBOUR A","2301002","2018-01-28 03:00","2018","01","28","03:00","-31.9","","-35.3","","72","","","","34","","20","","24.1","","100.25","","","","-45","","Ice Crystals"
"-83.36","64.19","CORAL HARBOUR A","2301002","2018-01-28 04:00","2018","01","28","04:00","-32.0","","-35.5","","72","","","","36","","27","","24.1","","100.26","","","","-48","","Ice Crystals,Blowing Snow"
"-83.36","64.19","CORAL HARBOUR A","2301002","2018-01-28 05:00","2018","01","28","05:00","-32.1","","-35.6","","72","","","","34","","27","","24.1","","100.32","","","","-48","","Ice Crystals,Blowing Snow"
"-83.36","64.19","CORAL HARBOUR A","2301002","2018-01-28 06:00","2018","01","28","06:00","-30.2","","-33.4","","74","","","","36","","27","","24.1","","100.35","","","","-45","","Ice Crystals,Blowing Snow"
"-83.36","64.19","CORAL HARBOUR A","2301002","2018-01-28 07:00","2018","01","28","07:00","-30.5","","-33.9","","73","","","","35","","30","","24.1","","100.40","","","","-46","","Ice Crystals,Blowing Snow"
"-83.36","64.19","CORAL HARBOUR A","2301002","2018-01-28 08:00","2018","01","28","08:00","-30.3","","-33.6","","74","","","","36","","32","","24.1","","100.48","","","","-46","","Ice Crystals,Blowing Snow"
"-83.36","64.19","CORAL HARBOUR A","2301002","2018-01-28 09:00","2018","01","28","09:00","-29.6","","-32.9","","74","","","","9","","8","","24.1","","100.52","","","","-38","","Ice Crystals"
"-83.36","64.19","CORAL HARBOUR A","2301002","2018-01-28 10:00","2018","01","28","10:00","-29.2","","-32.4","","75","","","","17","","13","","24.1","","100.61","","","","-40","","Ice Crystals"
"-83.36","64.19","CORAL HARBOUR A","2301002","2018-01-28 11:00","2018","01","28","11:00","-28.9","","-32.1","","74","","","","34","","18","","24.1","","100.59","","","","-41","","Ice Crystals"
"-83.36","64.19","CORAL HARBOUR A","2301002","2018-01-28 12:00","2018","01","28","12:00","-27.4","","-30.5","","76","","","","35","","22","","24.1","","100.59","","","","-40","","Ice Crystals"
"-83.36","64.19","CORAL HARBOUR A","2301002","2018-01-28 13:00","2018","01","28","13:00","-27.0","","-30.1","","76","","","","36","","29","","24.1","","100.57","","","","-41","","Ice Crystals,Blowing Snow"
"-83.36","64.19","CORAL HARBOUR A","2301002","2018-01-28 14:00","2018","01","28","14:00","-27.6","","-30.7","","75","","","","34","","37","","24.1","","100.57","","","","-44","","Ice Crystals,Blowing Snow"
"-83.36","64.19","CORAL HARBOUR A","2301002","2018-01-28 15:00","2018","01","28","15:00","-28.6","","-31.8","","74","","","","36","","3","","24.1","","100.67","","","","-32","","Ice Crystals"
"-83.36","64.19","CORAL HARBOUR A","2301002","2018-01-28 16:00","2018","01","28","16:00","-29.8","","-33.2","","73","","","","32","","26","","24.1","","100.72","","","","-44","","Ice Crystals"
"-83.36","64.19","CORAL HARBOUR A","2301002","2018-01-28 17:00","2018","01","28","17:00","-30.0","","-33.3","","73","","","","33","","24","","24.1","","100.75","","","","-44","","Ice Crystals"
"-83.36","64.19","CORAL HARBOUR A","2301002","2018-01-28 18:00","2018","01","28","18:00","-30.6","","-34.0","","73","","","","31","","19","","24.1","","100.80","","","","-44","","Ice Crystals"
"-83.36","64.19","CORAL HARBOUR A","2301002","2018-01-28 19:00","2018","01","28","19:00","-30.5","","-33.9","","73","","","","33","","21","","24.1","","100.82","","","","-44","","Ice Crystals"
"-83.36","64.19","CORAL HARBOUR A","2301002","2018-01-28 20:00","2018","01","28","20:00","-30.2","","-33.5","","74","","","","31","","9","","24.1","","100.87","","","","-39","","Ice Crystals"
"-83.36","64.19","CORAL HARBOUR A","2301002","2018-01-28 21:00","2018","01","28","21:00","-29.8","","-33.1","","74","","","","29","","5","","24.1","","100.85","","","","-35","","Ice Crystals"
"-83.36","64.19","CORAL HARBOUR A","2301002","2018-01-28 22:00","2018","01","28","22:00","-27.9","","-31.1","","75","","","","35","","15","","19.3","","100.79","","","","-39","","Ice Crystals"
"-83.36","64.19","CORAL HARBOUR A","2301002","2018-01-28 23:00","2018","01","28","23:00","-29.3","","-32.7","","73","","","","30","","3","","19.3","","100.80","","","","-33","","Ice Crystals"
"-83.36","64.19","CORAL HARBOUR A","2301002","2018-01-29 00:00","2018","01","29","00:00","-29.7","","-33.2","","73","","","","3","","9","","24.1","","100.73","","","","-38","","Ice Crystals"
"-83.36","64.19","CORAL HARBOUR A","2301002","2018-01-29 01:00","2018","01","29","01:00","-32.3","","-35.8","","72","","","","30","","5","","19.3","","100.75","","","","-38","","Ice Crystals"
"-83.36","64.19","CORAL HARBOUR A","2301002","2018-01-29 02:00","2018","01","29","02:00","-30.3","","-33.8","","72","","","","8","","8","","24.1","","100.70","","","","-38","","Ice Crystals"
"-83.36","64.19","CORAL HARBOUR A","2301002","2018-01-29 03:00","2018","01","29","03:00","-31.2","","-34.8","","72","","","","0","","1","","24.1","","100.74","","","","-32","","Ice Crystals"
"-83.36","64.19","CORAL HARBOUR A","2301002","2018-01-29 04:00","2018","01","29","04:00","-31.8","","-35.2","","72","","","","10","","7","","24.1","","100.73","","","","-39","","Ice Crystals"
"-83.36","64.19","CORAL HARBOUR A","2301002","2018-01-29 05:00","2018","01","29","05:00","-31.4","","-35.0","","71","","","","15","","8","","24.1","","100.74","","","","-40","","Ice Crystals"
"-83.36","64.19","CORAL HARBOUR A","2301002","2018-01-29 06:00","2018","01","29","06:00","-30.5","","-34.1","","72","","","","29","","10","","24.1","","100.69","","","","-40","","Ice Crystals"
"-83.36","64.19","CORAL HARBOUR A","2301002","2018-01-29 07:00","2018","01","29","07:00","-31.8","","-35.4","","71","","","","34","","19","","24.1","","100.68","","","","-45","","Ice Crystals"
"-83.36","64.19","CORAL HARBOUR A","2301002","2018-01-29 08:00","2018","01","29","08:00","-31.8","","-35.4","","71","","","","29","","13","","24.1","","100.68","","","","-43","","Ice Crystals"
"-83.36","64.19","CORAL HARBOUR A","2301002","2018-01-29 09:00","2018","01","29","09:00","-31.2","","-34.9","","71","","","","12","","5","","24.1","","100.69","","","","-37","","Ice Crystals"
"-83.36","64.19","CORAL HARBOUR A","2301002","2018-01-29 10:00","2018","01","29","10:00","-32.2","","-35.8","","71","","","","25","","6","","24.1","","100.69","","","","-39","","Ice Crystals"
"-83.36","64.19","CORAL HARBOUR A","2301002","2018-01-29 11:00","2018","01","29","11:00","-32.9","","-36.6","","70","","","","33","","16","","24.1","","100.67","","","","-45","","Ice Crystals"
"-83.36","64.19","CORAL HARBOUR A","2301002","2018-01-29 12:00","2018","01","29","12:00","-31.8","","-35.5","","70","","","","36","","4","","24.1","","100.66","","","","-36","","Ice Crystals"
"-83.36","64.19","CORAL HARBOUR A","2301002","2018-01-29 13:00","2018","01","29","13:00","-30.7","","-34.8","","68","","","","34","","12","","24.1","","100.64","","","","-41","","Ice Crystals"
"-83.36","64.19","CORAL HARBOUR A","2301002","2018-01-29 14:00","2018","01","29","14:00","-33.2","","-37.4","","67","","","","36","","2","","24.1","","100.67","","","","-36","","Ice Crystals"
"-83.36","64.19","CORAL HARBOUR A","2301002","2018-01-29 15:00","2018","01","29","15:00","-32.9","","-36.7","","70","","","","29","","11","","24.1","","100.69","","","","-43","","Ice Crystals"
"-83.36","64.19","CORAL HARBOUR A","2301002","2018-01-29 16:00","2018","01","29","16:00","-33.4","","-37.2","","70","","","","7","","7","","24.1","","100.72","","","","-41","","Ice Crystals"
"-83.36","64.19","CORAL HARBOUR A","2301002","2018-01-29 17:00","2018","01","29","17:00","-36.1","","-39.8","","69","","","","32","","13","","24.1","","100.73","","","","-48","","Ice Crystals"
"-83.36","64.19","CORAL HARBOUR A","2301002","2018-01-29 18:00","2018","01","29","18:00","-33.8","","-37.5","","70","","","","23","","5","","24.1","","100.75","","","","-40","","Ice Crystals"
"-83.36","64.19","CORAL HARBOUR A","2301002","2018-01-29 19:00","2018","01","29","19:00","-34.6","","-38.4","","69","","","","31","","14","","24.1","","100.78","","","","-47","","Ice Crystals"
"-83.36","64.19","CORAL HARBOUR A","2301002","2018-01-29 20:00","2018","01","29","20:00","-35.1","","-39.1","","67","","","","34","","18","","24.1","","100.81","","","","-49","","Ice Crystals"
"-83.36","64.19","CORAL HARBOUR A","2301002","2018-01-29 21:00","2018","01","29","21:00","-36.6","","-40.5","","68","","","","34","","17","","24.1","","100.78","","","","-50","","Ice Crystals"
"-83.36","64.19","CORAL HARBOUR A","2301002","2018-01-29 22:00","2018","01","29","22:00","-36.8","","-40.7","","68","","","","35","","11","","24.1","","100.81","","","","-48","","Ice Crystals"
"-83.36","64.19","CORAL HARBOUR A","2301002","2018-01-29 23:00","2018","01","29","23:00","-36.8","","-40.7","","68","","","","32","","22","","24.1","","100.77","","","","-52","","Ice Crystals"
"-83.36","64.19","CORAL HARBOUR A","2301002","2018-01-30 00:00","2018","01","30","00:00","-36.5","","-40.3","","68","","","","34","","18","","24.1","","100.77","","","","-51","","Ice Crystals"
"-83.36","64.19","CORAL HARBOUR A","2301002","2018-01-30 01:00","2018","01","30","01:00","-36.7","","-40.4","","69","","","","34","","23","","24.1","","100.77","","","","-52","","Ice Crystals"
"-83.36","64.19","CORAL HARBOUR A","2301002","2018-01-30 02:00","2018","01","30","02:00","-37.9","","-41.8","","68","","","","32","","17","","24.1","","100.81","","","","-52","","Ice Crystals"
"-83.36","64.19","CORAL HARBOUR A","2301002","2018-01-30 03:00","2018","01","30","03:00","-36.2","","-40.2","","68","","","","13","","4","","24.1","","100.89","","","","-41","","Ice Crystals"
"-83.36","64.19","CORAL HARBOUR A","2301002","2018-01-30 04:00","2018","01","30","04:00","-38.0","","-41.8","","69","","","","31","","10","","24.1","","100.90","","","","-49","","Ice Crystals"
"-83.36","64.19","CORAL HARBOUR A","2301002","2018-01-30 05:00","2018","01","30","05:00","-38.6","","-42.6","","68","","","","32","","9","","24.1","","100.92","","","","-49","","Ice Crystals"
"-83.36","64.19","CORAL HARBOUR A","2301002","2018-01-30 06:00","2018","01","30","06:00","-38.3","","-42.3","","68","","","","32","","20","","24.1","","100.90","","","","-54","","Ice Crystals"
"-83.36","64.19","CORAL HARBOUR A","2301002","2018-01-30 07:00","2018","01","30","07:00","-37.5","","-41.4","","68","","","","33","","20","","24.1","","100.92","","","","-53","","Ice Crystals"
"-83.36","64.19","CORAL HARBOUR A","2301002","2018-01-30 08:00","2018","01","30","08:00","-36.3","","-40.0","","69","","","","35","","15","","24.1","","100.90","","","","-49","","Ice Crystals"
"-83.36","64.19","CORAL HARBOUR A","2301002","2018-01-30 09:00","2018","01","30","09:00","-37.7","","-41.5","","68","","","","33","","17","","24.1","","100.91","","","","-52","","Ice Crystals"
"-83.36","64.19","CORAL HARBOUR A","2301002","2018-01-30 10:00","2018","01","30","10:00","-36.0","","-39.9","","69","","","","36","","10","","24.1","","100.91","","","","-46","","Ice Crystals"
"-83.36","64.19","CORAL HARBOUR A","2301002","2018-01-30 11:00","2018","01","30","11:00","-35.2","","-39.1","","69","","","","32","","13","","24.1","","100.93","","","","-47","","Ice Crystals"
"-83.36","64.19","CORAL HARBOUR A","2301002","2018-01-30 12:00","2018","01","30","12:00","-35.0","","-38.9","","69","","","","30","","5","","24.1","","100.90","","","","-41","","Ice Crystals"
"-83.36","64.19","CORAL HARBOUR A","2301002","2018-01-30 13:00","2018","01","30","13:00","-35.2","","-39.2","","68","","","","32","","8","","24.1","","100.88","","","","-44","","Ice Crystals"
"-83.36","64.19","CORAL HARBOUR A","2301002","2018-01-30 14:00","2018","01","30","14:00","-35.8","","-39.9","","67","","","","32","","13","","24.1","","100.89","","","","-48","","Ice Crystals"
"-83.36","64.19","CORAL HARBOUR A","2301002","2018-01-30 15:00","2018","01","30","15:00","-35.1","","-39.4","","66","","","","36","","19","","24.1","","100.89","","","","-49","","Ice Crystals"
"-83.36","64.19","CORAL HARBOUR A","2301002","2018-01-30 16:00","2018","01","30","16:00","-38.7","","-42.9","","66","","","","24","","5","","24.1","","100.95","","","","-45","","Ice Crystals"
"-83.36","64.19","CORAL HARBOUR A","2301002","2018-01-30 17:00","2018","01","30","17:00","-37.8","","-41.6","","68","","","","27","","4","","24.1","","100.95","","","","-43","","Ice Crystals"
"-83.36","64.19","CORAL HARBOUR A","2301002","2018-01-30 18:00","2018","01","30","18:00","-37.9","","-41.8","","68","","","","36","","11","","24.1","","100.96","","","","-49","","Ice Crystals"
"-83.36","64.19","CORAL HARBOUR A","2301002","2018-01-30 19:00","2018","01","30","19:00","-38.5","","-42.4","","67","","","","8","","8","","24.1","","100.96","","","","-48","","Ice Crystals"
"-83.36","64.19","CORAL HARBOUR A","2301002","2018-01-30 20:00","2018","01","30","20:00","-40.2","","-44.2","","67","","","","34","","16","","24.1","","100.97","","","","-54","","Ice Crystals"
"-83.36","64.19","CORAL HARBOUR A","2301002","2018-01-30 21:00","2018","01","30","21:00","-39.0","","-43.0","","67","","","","1","","13","","24.1","","100.97","","","","-52","","Ice Crystals"
"-83.36","64.19","CORAL HARBOUR A","2301002","2018-01-30 22:00","2018","01","30","22:00","-39.5","","-43.5","","67","","","","34","","19","","24.1","","100.97","","","","-55","","Ice Crystals"
"-83.36","64.19","CORAL HARBOUR A","2301002","2018-01-30 23:00","2018","01","30","23:00","-38.9","","-42.8","","68","","","","35","","18","","24.1","","100.95","","","","-54","","Ice Crystals"
"-83.36","64.19","CORAL HARBOUR A","2301002","2018-01-31 00:00","2018","01","31","00:00","-38.1","","-41.9","","68","","","","3","","8","","24.1","","101.00","","","","-47","","Ice Crystals"
"-83.36","64.19","CORAL HARBOUR A","2301002","2018-01-31 01:00","2018","01","31","01:00","-36.6","","-40.5","","68","","","","1","","7","","24.1","","100.96","","","","-45","","Ice Crystals"
"-83.36","64.19","CORAL HARBOUR A","2301002","2018-01-31 02:00","2018","01","31","02:00","-38.9","","-42.8","","68","","","","28","","3","","24.1","","100.97","","","","-43","","Ice Crystals"
"-83.36","64.19","CORAL HARBOUR A","2301002","2018-01-31 03:00","2018","01","31","03:00","-40.0","","-44.0","","67","","","","36","","2","","24.1","","100.98","","","","-43","","Ice Crystals"
"-83.36","64.19","CORAL HARBOUR A","2301002","2018-01-31 04:00","2018","01","31","04:00","-39.4","","-42.8","","70","","","","12","","8","","24.1","","101.03","","","","-49","","Ice Crystals"
"-83.36","64.19","CORAL HARBOUR A","2301002","2018-01-31 05:00","2018","01","31","05:00","-38.7","","-42.2","","71","","","","7","","9","","24.1","","101.00","","","","-49","","Ice Crystals"
"-83.36","64.19","CORAL HARBOUR A","2301002","2018-01-31 06:00","2018","01","31","06:00","-41.0","","-44.6","","69","","","","10","","7","","24.1","","101.01","","","","-50","","Ice Crystals"
"-83.36","64.19","CORAL HARBOUR A","2301002","2018-01-31 07:00","2018","01","31","07:00","-40.4","","-44.1","","69","","","","5","","7","","24.1","","101.03","","","","-49","","Ice Crystals"
"-83.36","64.19","CORAL HARBOUR A","2301002","2018-01-31 08:00","2018","01","31","08:00","-40.8","","-44.6","","68","","","","1","","12","","24.1","","101.01","","","","-53","","Ice Crystals"
"-83.36","64.19","CORAL HARBOUR A","2301002","2018-01-31 09:00","2018","01","31","09:00","-39.2","","-42.6","","71","","","","5","","7","","24.1","","101.02","","","","-48","","Ice Crystals"
"-83.36","64.19","CORAL HARBOUR A","2301002","2018-01-31 10:00","2018","01","31","10:00","-39.9","","-43.6","","69","","","","5","","5","","24.1","","100.98","","","","-47","","Ice Crystals"
"-83.36","64.19","CORAL HARBOUR A","2301002","2018-01-31 11:00","2018","01","31","11:00","-40.6","","-44.6","","67","","","","32","","17","","24.1","","101.00","","","","-55","","Ice Crystals"
"-83.36","64.19","CORAL HARBOUR A","2301002","2018-01-31 12:00","2018","01","31","12:00","-38.4","","-42.3","","68","","","","33","","16","","24.1","","100.97","","","","-52","","Ice Crystals"
"-83.36","64.19","CORAL HARBOUR A","2301002","2018-01-31 13:00","2018","01","31","13:00","-37.7","","-41.6","","68","","","","35","","11","","24.1","","100.92","","","","-49","","Ice Crystals"
"-83.36","64.19","CORAL HARBOUR A","2301002","2018-01-31 14:00","2018","01","31","14:00","-36.3","","-40.0","","69","","","","10","","7","","24.1","","100.90","","","","-45","","Ice Crystals"
"-83.36","64.19","CORAL HARBOUR A","2301002","2018-01-31 15:00","2018","01","31","15:00","-37.4","","-41.3","","68","","","","2","","4","","24.1","","100.89","","","","-43","","Ice Crystals"
"-83.36","64.19","CORAL HARBOUR A","2301002","2018-01-31 16:00","2018","01","31","16:00","-38.5","","-42.4","","68","","","","36","","10","","24.1","","100.85","","","","-49","","Ice Crystals"
"-83.36","64.19","CORAL HARBOUR A","2301002","2018-01-31 17:00","2018","01","31","17:00","-38.5","","-42.4","","68","","","","2","","19","","24.1","","100.85","","","","-53","","Ice Crystals"
"-83.36","64.19","CORAL HARBOUR A","2301002","2018-01-31 18:00","2018","01","31","18:00","-39.0","","-42.9","","68","","","","35","","19","","24.1","","100.86","","","","-54","","Ice Crystals"
"-83.36","64.19","CORAL HARBOUR A","2301002","2018-01-31 19:00","2018","01","31","19:00","-39.3","","-43.2","","67","","","","34","","23","","24.1","","100.83","","","","-56","","Ice Crystals"
"-83.36","64.19","CORAL HARBOUR A","2301002","2018-01-31 20:00","2018","01","31","20:00","-40.0","","-44.0","","67","","","","34","","25","","24.1","","100.77","","","","-57","","Ice Crystals"
"-83.36","64.19","CORAL HARBOUR A","2301002","2018-01-31 21:00","2018","01","31","21:00","-39.5","","-43.5","","67","","","","34","","26","","24.1","","100.68","","","","-57","","Ice Crystals"
"-83.36","64.19","CORAL HARBOUR A","2301002","2018-01-31 22:00","2018","01","31","22:00","-38.4","","-42.4","","67","","","","35","","20","","24.1","","100.62","","","","-54","","Ice Crystals"
"-83.36","64.19","CORAL HARBOUR A","2301002","2018-01-31 23:00","2018","01","31","23:00","-39.4","","-43.4","","67","","","","35","","19","","24.1","","100.57","","","","-55","","Ice Crystals"
