"Longitude (x)","Latitude (y)","Station Name","Climate ID","Date/Time (LST)","Year","Month","Day","Time (LST)","Temp (°C)","Temp Flag","Dew Point Temp (°C)","Dew Point Temp Flag","Rel Hum (%)","Rel Hum Flag","Precip. Amount (mm)","Precip. Amount Flag","Wind Dir (10s deg)","Wind Dir Flag","Wind Spd (km/h)","Wind Spd Flag","Visibility (km)","Visibility Flag","Stn Press (kPa)","Stn Press Flag","Hmdx","Hmdx Flag","Wind Chill","Wind Chill Flag","Weather"
"-96.06","50.18","PINAWA","503B1ER","2019-03-01 00:00","2019","03","01","00:00","-18.0","","-20.4","","81","","0.0","","32","","3","","","","98.66","","","","-20","","NA"
"-96.06","50.18","PINAWA","503B1ER","2019-03-01 01:00","2019","03","01","01:00","-19.2","","-21.4","","83","","0.0","","34","","3","","","","98.71","","","","-22","","NA"
"-96.06","50.18","PINAWA","503B1ER","2019-03-01 02:00","2019","03","01","02:00","-21.4","","-23.9","","80","","0.0","","","","0","","","","98.75","","","","","","NA"
"-96.06","50.18","PINAWA","503B1ER","2019-03-01 03:00","2019","03","01","03:00","-20.8","","-23.2","","81","","0.0","","0","","1","","","","98.75","","","","-22","","NA"
"-96.06","50.18","PINAWA","503B1ER","2019-03-01 04:00","2019","03","01","04:00","-21.5","","-24.3","","78","","0.0","","18","","1","","","","98.81","","","","-22","","NA"
"-96.06","50.18","PINAWA","503B1ER","2019-03-01 05:00","2019","03","01","05:00","-23.8","","-26.6","","77","","0.0","","","","0","","","","98.83","","","","","","NA"
"-96.06","50.18","PINAWA","503B1ER","2019-03-01 06:00","2019","03","01","06:00","-25.9","","-28.7","","77","","0.0","","","","0","","","","98.87","","","","","","NA"
"-96.06","50.18","PINAWA","503B1ER","2019-03-01 07:00","2019","03","01","07:00","-27.0","","-30.0","","76","","0.0","","","","0","","","","98.95","","","","","","NA"
"-96.06","50.18","PINAWA","503B1ER","2019-03-01 08:00","2019","03","01","08:00","-26.1","","-29.9","","70","","0.0","","","","0","","","","99.04","","","","","","NA"
"-96.06","50.18","PINAWA","503B1ER","2019-03-01 09:00","2019","03","01","09:00","-22.7","","-28.0","","62","","0.2","","0","","1","","","","99.09","","","","-24","","NA"
"-96.06","50.18","PINAWA","503B1ER","2019-03-01 10:00","2019","03","01","10:00","-16.6","","-22.7","","59","","0.0","","32","","3","","","","99.10","","","","-19","","NA"
"-96.06","50.18","PINAWA","503B1ER","2019-03-01 11:00","2019","03","01","11:00","-13.1","","-20.9","","52","","0.0","","29","","3","","","","99.16","","","","-15","","NA"
"-96.06","50.18","PINAWA","503B1ER","2019-03-01 12:00","2019","03","01","12:00","-12.4","","-21.6","","46","","0.0","","34","","7","","","","99.20","","","","-17","","NA"
"-96.06","50.18","PINAWA","503B1ER","2019-03-01 13:00","2019","03","01","13:00","-12.2","","-23.0","","40","","0.0","","32","","10","","","","99.19","","","","-18","","NA"
"-96.06","50.18","PINAWA","503B1ER","2019-03-01 14:00","2019","03","01","14:00","-11.9","","-23.0","","39","","0.0","","31","","12","","","","99.19","","","","-18","","NA"
"-96.06","50.18","PINAWA","503B1ER","2019-03-01 15:00","2019","03","01","15:00","-12.4","","-22.0","","44","","0.0","","34","","15","","","","99.18","","","","-20","","NA"
"-96.06","50.18","PINAWA","503B1ER","2019-03-01 16:00","2019","03","01","16:00","-12.7","","-22.2","","45","","0.0","","30","","18","","","","99.23","","","","-21","","NA"
"-96.06","50.18","PINAWA","503B1ER","2019-03-01 17:00","2019","03","01","17:00","-13.3","","-21.8","","49","","0.0","","31","","18","","","","99.27","","","","-22","","NA"
"-96.06","50.18","PINAWA","503B1ER","2019-03-01 18:00","2019","03","01","18:00","-14.5","","-21.4","","56","","0.0","","30","","9","","","","99.32","","","","-20","","NA"
"-96.06","50.18","PINAWA","503B1ER","2019-03-01 19:00","2019","03","01","19:00","-17.6","","-23.1","","62","","0.0","","28","","4","","","","99.40","","","","-21","","NA"
"-96.06","50.18","PINAWA","503B1ER","2019-03-01 20:00","2019","03","01","20:00","-17.7","","-22.2","","68","","0.0","","32","","4","","","","99.44","","","","-21","","NA"
"-96.06","50.18","PINAWA","503B1ER","2019-03-01 21:00","2019","03","01","21:00","-19.5","","-22.6","","76","","0.0","","34","","5","","","","99.49","","","","-24","","NA"
"-96.06","50.18","PINAWA","503B1ER","2019-03-01 22:00","2019","03","01","22:00","-19.1","","-22.3","","76","","0.0","","34","","5","","","","99.52","","","","-23","","NA"
"-96.06","50.18","PINAWA","503B1ER","2019-03-01 23:00","2019","03","01","23:00","-20.7","","-23.9","","75","","0.0","","34","","5","","","","99.56","","","","-25","","NA"
"-96.06","50.18","PINAWA","503B1ER","2019-03-02 00:00","2019","03","02","00:00","-22.0","","-25.2","","75","","0.0","","34","","6","","","","99.56","","","","-27","","NA"
"-96.06","50.18","PINAWA","503B1ER","2019-03-02 01:00","2019","03","02","01:00","-23.2","","-26.2","","76","","0.0","","32","","6","","","","99.59","","","","-29","","NA"
"-96.06","50.18","PINAWA","503B1ER","2019-03-02 02:00","2019","03","02","02:00","-23.6","","-26.6","","76","","0.0","","34","","5","","","","99.63","","","","-28","","NA"
"-96.06","50.18","PINAWA","503B1ER","2019-03-02 03:00","2019","03","02","03:00","-24.0","","-26.8","","78","","0.0","","29","","7","","","","99.67","","","","-30","","NA"
"-96.06","50.18","PINAWA","503B1ER","2019-03-02 04:00","2019","03","02","04:00","-25.1","","-27.8","","78","","0.0","","30","","10","","","","99.71","","","","-33","","NA"
"-96.06","50.18","PINAWA","503B1ER","2019-03-02 05:00","2019","03","02","05:00","-25.8","","-28.6","","77","","0.0","","28","","6","","","","99.74","","","","-32","","NA"
"-96.06","50.18","PINAWA","503B1ER","2019-03-02 06:00","2019","03","02","06:00","-26.7","","-29.7","","76","","0.0","","27","","4","","","","99.76","","","","-31","","NA"
"-96.06","50.18","PINAWA","503B1ER","2019-03-02 07:00","2019","03","02","07:00","-25.1","","-27.9","","78","","0.0","","28","","10","","","","99.79","","","","-33","","NA"
"-96.06","50.18","PINAWA","503B1ER","2019-03-02 08:00","2019","03","02","08:00","-25.2","","-28.4","","74","","0.0","","29","","15","","","","99.83","","","","-35","","NA"
"-96.06","50.18","PINAWA","503B1ER","2019-03-02 09:00","2019","03","02","09:00","-24.1","","-28.0","","70","","0.0","","29","","15","","","","99.87","","","","-34","","NA"
"-96.06","50.18","PINAWA","503B1ER","2019-03-02 10:00","2019","03","02","10:00","-22.6","","-27.0","","67","","0.0","","29","","16","","","","99.90","","","","-33","","NA"
"-96.06","50.18","PINAWA","503B1ER","2019-03-02 11:00","2019","03","02","11:00","-21.5","","-27.0","","61","","0.0","","29","","19","","","","99.94","","","","-32","","NA"
"-96.06","50.18","PINAWA","503B1ER","2019-03-02 12:00","2019","03","02","12:00","-20.3","","-26.1","","60","","0.0","","30","","17","","","","99.92","","","","-30","","NA"
"-96.06","50.18","PINAWA","503B1ER","2019-03-02 13:00","2019","03","02","13:00","-19.9","","-25.8","","60","","0.0","","30","","20","","","","99.87","","","","-30","","NA"
"-96.06","50.18","PINAWA","503B1ER","2019-03-02 14:00","2019","03","02","14:00","-19.0","","-25.9","","55","","0.0","","29","","16","","","","99.80","","","","-28","","NA"
"-96.06","50.18","PINAWA","503B1ER","2019-03-02 15:00","2019","03","02","15:00","-19.3","","-26.3","","54","","0.0","","28","","16","","","","99.77","","","","-29","","NA"
"-96.06","50.18","PINAWA","503B1ER","2019-03-02 16:00","2019","03","02","16:00","-19.0","","-25.8","","55","","0.0","","26","","12","","","","99.72","","","","-27","","NA"
"-96.06","50.18","PINAWA","503B1ER","2019-03-02 17:00","2019","03","02","17:00","-19.7","","-25.9","","58","","0.0","","26","","9","","","","99.71","","","","-26","","NA"
"-96.06","50.18","PINAWA","503B1ER","2019-03-02 18:00","2019","03","02","18:00","-20.9","","-26.6","","60","","0.0","","26","","11","","","","99.67","","","","-29","","NA"
"-96.06","50.18","PINAWA","503B1ER","2019-03-02 19:00","2019","03","02","19:00","-22.2","","-27.2","","64","","0.0","","25","","6","","","","99.63","","","","-28","","NA"
"-96.06","50.18","PINAWA","503B1ER","2019-03-02 20:00","2019","03","02","20:00","-24.0","","-27.9","","70","","0.0","","19","","2","","","","99.59","","","","-26","","NA"
"-96.06","50.18","PINAWA","503B1ER","2019-03-02 21:00","2019","03","02","21:00","-24.3","","-27.8","","73","","0.0","","21","","3","","","","99.55","","","","-27","","NA"
"-96.06","50.18","PINAWA","503B1ER","2019-03-02 22:00","2019","03","02","22:00","-24.1","","-27.8","","71","","0.0","","24","","6","","","","99.48","","","","-30","","NA"
"-96.06","50.18","PINAWA","503B1ER","2019-03-02 23:00","2019","03","02","23:00","-24.5","","-28.4","","70","","0.0","","26","","8","","","","99.43","","","","-32","","NA"
"-96.06","50.18","PINAWA","503B1ER","2019-03-03 00:00","2019","03","03","00:00","-25.4","","-29.0","","72","","0.0","","26","","4","","","","99.38","","","","-29","","NA"
"-96.06","50.18","PINAWA","503B1ER","2019-03-03 01:00","2019","03","03","01:00","-26.5","","-29.9","","73","","0.0","","25","","4","","","","99.35","","","","-31","","NA"
"-96.06","50.18","PINAWA","503B1ER","2019-03-03 02:00","2019","03","03","02:00","-27.2","","-30.3","","74","","0.0","","25","","4","","","","99.33","","","","-31","","NA"
"-96.06","50.18","PINAWA","503B1ER","2019-03-03 03:00","2019","03","03","03:00","-27.7","","-31.0","","73","","0.0","","22","","3","","","","99.27","","","","-31","","NA"
"-96.06","50.18","PINAWA","503B1ER","2019-03-03 04:00","2019","03","03","04:00","-28.5","","-31.6","","74","","0.0","","26","","3","","","","99.22","","","","-32","","NA"
"-96.06","50.18","PINAWA","503B1ER","2019-03-03 05:00","2019","03","03","05:00","-28.8","","-32.1","","73","","0.0","","21","","1","","","","99.19","","","","-30","","NA"
"-96.06","50.18","PINAWA","503B1ER","2019-03-03 06:00","2019","03","03","06:00","-29.8","","-33.3","","71","","0.0","","25","","3","","","","99.16","","","","-33","","NA"
"-96.06","50.18","PINAWA","503B1ER","2019-03-03 07:00","2019","03","03","07:00","-29.4","","-32.8","","72","","0.0","","25","","4","","","","99.12","","","","-34","","NA"
"-96.06","50.18","PINAWA","503B1ER","2019-03-03 08:00","2019","03","03","08:00","-28.7","","-32.6","","69","","0.0","","23","","3","","","","99.11","","","","-32","","NA"
"-96.06","50.18","PINAWA","503B1ER","2019-03-03 09:00","2019","03","03","09:00","-25.7","","-31.0","","61","","0.0","","26","","6","","","","99.09","","","","-32","","NA"
"-96.06","50.18","PINAWA","503B1ER","2019-03-03 10:00","2019","03","03","10:00","-23.2","","-30.1","","53","","0.0","","27","","9","","","","99.04","","","","-31","","NA"
"-96.06","50.18","PINAWA","503B1ER","2019-03-03 11:00","2019","03","03","11:00","-21.4","","-29.0","","50","","0.0","","27","","11","","","","98.96","","","","-29","","NA"
"-96.06","50.18","PINAWA","503B1ER","2019-03-03 12:00","2019","03","03","12:00","-20.6","","-28.1","","51","","0.0","","27","","11","","","","98.95","","","","-28","","NA"
"-96.06","50.18","PINAWA","503B1ER","2019-03-03 13:00","2019","03","03","13:00","-20.7","","-27.6","","54","","0.0","","28","","17","","","","98.93","","","","-31","","NA"
"-96.06","50.18","PINAWA","503B1ER","2019-03-03 14:00","2019","03","03","14:00","-19.7","","-27.2","","51","","0.0","","28","","16","","","","98.85","","","","-29","","NA"
"-96.06","50.18","PINAWA","503B1ER","2019-03-03 15:00","2019","03","03","15:00","-19.8","","-26.1","","57","","0.0","","28","","15","","","","98.84","","","","-29","","NA"
"-96.06","50.18","PINAWA","503B1ER","2019-03-03 16:00","2019","03","03","16:00","-19.3","","-25.3","","59","","0.0","","28","","15","","","","98.82","","","","-28","","NA"
"-96.06","50.18","PINAWA","503B1ER","2019-03-03 17:00","2019","03","03","17:00","-18.9","","-24.9","","59","","0.0","","27","","11","","","","98.78","","","","-26","","NA"
"-96.06","50.18","PINAWA","503B1ER","2019-03-03 18:00","2019","03","03","18:00","-19.6","","-24.4","","66","","0.0","","25","","7","","","","98.76","","","","-25","","NA"
"-96.06","50.18","PINAWA","503B1ER","2019-03-03 19:00","2019","03","03","19:00","-20.6","","-24.1","","73","","0.0","","24","","7","","","","98.73","","","","-26","","NA"
"-96.06","50.18","PINAWA","503B1ER","2019-03-03 20:00","2019","03","03","20:00","-21.3","","-24.4","","76","","0.0","","25","","7","","","","98.70","","","","-27","","NA"
"-96.06","50.18","PINAWA","503B1ER","2019-03-03 21:00","2019","03","03","21:00","-20.7","","-23.5","","78","","0.0","","26","","9","","","","98.66","","","","-28","","NA"
"-96.06","50.18","PINAWA","503B1ER","2019-03-03 22:00","2019","03","03","22:00","-19.6","","-22.4","","78","","0.0","","27","","11","","","","98.60","","","","-27","","NA"
"-96.06","50.18","PINAWA","503B1ER","2019-03-03 23:00","2019","03","03","23:00","-19.1","","-21.8","","79","","0.0","","27","","13","","","","98.54","","","","-27","","NA"
"-96.06","50.18","PINAWA","503B1ER","2019-03-04 00:00","2019","03","04","00:00","-18.6","","-21.4","","79","","0.0","","27","","10","","","","98.47","","","","-26","","NA"
"-96.06","50.18","PINAWA","503B1ER","2019-03-04 01:00","2019","03","04","01:00","-18.4","","-21.2","","79","","0.0","","25","","9","","","","98.41","","","","-25","","NA"
"-96.06","50.18","PINAWA","503B1ER","2019-03-04 02:00","2019","03","04","02:00","-19.1","","-21.8","","79","","0.0","","26","","8","","","","98.35","","","","-25","","NA"
"-96.06","50.18","PINAWA","503B1ER","2019-03-04 03:00","2019","03","04","03:00","-18.5","","-21.3","","79","","0.0","","27","","12","","","","98.26","","","","-26","","NA"
"-96.06","50.18","PINAWA","503B1ER","2019-03-04 04:00","2019","03","04","04:00","-18.4","","-21.4","","78","","0.2","","27","","11","","","","98.17","","","","-26","","NA"
"-96.06","50.18","PINAWA","503B1ER","2019-03-04 05:00","2019","03","04","05:00","-17.8","","-20.5","","79","","0.0","","26","","11","","","","98.07","","","","-25","","NA"
"-96.06","50.18","PINAWA","503B1ER","2019-03-04 06:00","2019","03","04","06:00","-18.4","","-21.2","","78","","0.0","","26","","10","","","","97.98","","","","-25","","NA"
"-96.06","50.18","PINAWA","503B1ER","2019-03-04 07:00","2019","03","04","07:00","-18.6","","-21.5","","78","","0.2","","25","","8","","","","97.87","","","","-25","","NA"
"-96.06","50.18","PINAWA","503B1ER","2019-03-04 08:00","2019","03","04","08:00","-17.9","","-20.7","","78","","0.2","","25","","10","","","","97.79","","","","-25","","NA"
"-96.06","50.18","PINAWA","503B1ER","2019-03-04 09:00","2019","03","04","09:00","-17.0","","-20.0","","78","","0.3","","26","","11","","","","97.73","","","","-24","","NA"
"-96.06","50.18","PINAWA","503B1ER","2019-03-04 10:00","2019","03","04","10:00","-15.0","","-18.3","","76","","0.0","","28","","17","","","","97.69","","","","-23","","NA"
"-96.06","50.18","PINAWA","503B1ER","2019-03-04 11:00","2019","03","04","11:00","-13.6","","-17.3","","73","","0.0","","29","","24","","","","97.66","","","","-23","","NA"
"-96.06","50.18","PINAWA","503B1ER","2019-03-04 12:00","2019","03","04","12:00","-12.4","","-16.8","","70","","0.0","","29","","18","","","","97.66","","","","-20","","NA"
"-96.06","50.18","PINAWA","503B1ER","2019-03-04 13:00","2019","03","04","13:00","-11.6","","-16.5","","67","","0.0","","30","","21","","","","97.64","","","","-20","","NA"
"-96.06","50.18","PINAWA","503B1ER","2019-03-04 14:00","2019","03","04","14:00","-10.8","","-16.4","","64","","0.0","","30","","23","","","","97.63","","","","-19","","NA"
"-96.06","50.18","PINAWA","503B1ER","2019-03-04 15:00","2019","03","04","15:00","-10.8","","-15.0","","71","","0.0","","32","","24","","","","97.64","","","","-20","","NA"
"-96.06","50.18","PINAWA","503B1ER","2019-03-04 16:00","2019","03","04","16:00","-11.0","","-15.9","","67","","0.0","","31","","25","","","","97.71","","","","-20","","NA"
"-96.06","50.18","PINAWA","503B1ER","2019-03-04 17:00","2019","03","04","17:00","-12.0","","-14.8","","80","","0.0","","34","","19","","","","97.76","","","","-20","","NA"
"-96.06","50.18","PINAWA","503B1ER","2019-03-04 18:00","2019","03","04","18:00","-12.3","","-17.9","","63","","0.0","","31","","18","","","","97.83","","","","-20","","NA"
"-96.06","50.18","PINAWA","503B1ER","2019-03-04 19:00","2019","03","04","19:00","-13.3","","-19.7","","58","","0.0","","32","","20","","","","97.91","","","","-22","","NA"
"-96.06","50.18","PINAWA","503B1ER","2019-03-04 20:00","2019","03","04","20:00","-14.0","","-20.2","","59","","0.0","","32","","17","","","","97.95","","","","-22","","NA"
"-96.06","50.18","PINAWA","503B1ER","2019-03-04 21:00","2019","03","04","21:00","-14.9","","-21.0","","60","","0.0","","32","","22","","","","98.01","","","","-24","","NA"
"-96.06","50.18","PINAWA","503B1ER","2019-03-04 22:00","2019","03","04","22:00","-15.7","","-20.8","","65","","0.0","","32","","20","","","","98.07","","","","-25","","NA"
"-96.06","50.18","PINAWA","503B1ER","2019-03-04 23:00","2019","03","04","23:00","-15.8","","-20.2","","69","","0.0","","32","","17","","","","98.12","","","","-24","","NA"
"-96.06","50.18","PINAWA","503B1ER","2019-03-05 00:00","2019","03","05","00:00","-16.0","","-20.4","","69","","0.0","","32","","14","","","","98.19","","","","-24","","NA"
"-96.06","50.18","PINAWA","503B1ER","2019-03-05 01:00","2019","03","05","01:00","-16.5","","-20.3","","72","","0.0","","32","","12","","","","98.25","","","","-24","","NA"
"-96.06","50.18","PINAWA","503B1ER","2019-03-05 02:00","2019","03","05","02:00","-17.1","","-20.7","","73","","0.0","","31","","16","","","","98.31","","","","-26","","NA"
"-96.06","50.18","PINAWA","503B1ER","2019-03-05 03:00","2019","03","05","03:00","-18.4","","-22.1","","73","","0.0","","32","","17","","","","98.37","","","","-28","","NA"
"-96.06","50.18","PINAWA","503B1ER","2019-03-05 04:00","2019","03","05","04:00","-19.0","","-22.5","","74","","0.0","","31","","13","","","","98.46","","","","-27","","NA"
"-96.06","50.18","PINAWA","503B1ER","2019-03-05 05:00","2019","03","05","05:00","-20.3","","-22.9","","79","","0.0","","30","","9","","","","98.53","","","","-27","","NA"
"-96.06","50.18","PINAWA","503B1ER","2019-03-05 06:00","2019","03","05","06:00","-20.7","","-23.1","","82","","0.0","","30","","10","","","","98.56","","","","-28","","NA"
"-96.06","50.18","PINAWA","503B1ER","2019-03-05 07:00","2019","03","05","07:00","-20.9","","-23.5","","80","","0.0","","28","","6","","","","98.61","","","","-26","","NA"
"-96.06","50.18","PINAWA","503B1ER","2019-03-05 08:00","2019","03","05","08:00","-20.1","","-23.1","","77","","0.0","","29","","3","","","","98.64","","","","-23","","NA"
"-96.06","50.18","PINAWA","503B1ER","2019-03-05 09:00","2019","03","05","09:00","-18.7","","-23.0","","69","","0.0","","33","","5","","","","98.69","","","","-23","","NA"
"-96.06","50.18","PINAWA","503B1ER","2019-03-05 10:00","2019","03","05","10:00","-16.9","","-23.5","","56","","0.0","","34","","6","","","","98.73","","","","-21","","NA"
"-96.06","50.18","PINAWA","503B1ER","2019-03-05 11:00","2019","03","05","11:00","-15.2","","-23.2","","50","","0.0","","35","","7","","","","98.72","","","","-20","","NA"
"-96.06","50.18","PINAWA","503B1ER","2019-03-05 12:00","2019","03","05","12:00","-13.8","","-23.6","","43","","0.0","","32","","5","","","","98.74","","","","-17","","NA"
"-96.06","50.18","PINAWA","503B1ER","2019-03-05 13:00","2019","03","05","13:00","-12.5","","-21.3","","48","","0.0","","31","","10","","","","98.69","","","","-18","","NA"
"-96.06","50.18","PINAWA","503B1ER","2019-03-05 14:00","2019","03","05","14:00","-11.6","","-20.5","","48","","0.0","","29","","9","","","","98.65","","","","-17","","NA"
"-96.06","50.18","PINAWA","503B1ER","2019-03-05 15:00","2019","03","05","15:00","-11.3","","-20.3","","47","","0.0","","27","","10","","","","98.66","","","","-17","","NA"
"-96.06","50.18","PINAWA","503B1ER","2019-03-05 16:00","2019","03","05","16:00","-10.6","","-20.1","","46","","0.0","","26","","7","","","","98.63","","","","-15","","NA"
"-96.06","50.18","PINAWA","503B1ER","2019-03-05 17:00","2019","03","05","17:00","-10.3","","-19.4","","48","","0.0","","27","","5","","","","98.63","","","","-13","","NA"
"-96.06","50.18","PINAWA","503B1ER","2019-03-05 18:00","2019","03","05","18:00","-12.4","","-18.1","","63","","0.0","","25","","5","","","","98.63","","","","-16","","NA"
"-96.06","50.18","PINAWA","503B1ER","2019-03-05 19:00","2019","03","05","19:00","-15.6","","-19.5","","72","","0.0","","24","","3","","","","98.63","","","","-18","","NA"
"-96.06","50.18","PINAWA","503B1ER","2019-03-05 20:00","2019","03","05","20:00","-15.8","","-18.5","","80","","0.0","","21","","3","","","","98.63","","","","-18","","NA"
"-96.06","50.18","PINAWA","503B1ER","2019-03-05 21:00","2019","03","05","21:00","-15.7","","-19.0","","76","","0.0","","19","","2","","","","98.61","","","","-17","","NA"
"-96.06","50.18","PINAWA","503B1ER","2019-03-05 22:00","2019","03","05","22:00","-15.6","","-18.7","","77","","0.0","","20","","5","","","","98.60","","","","-19","","NA"
"-96.06","50.18","PINAWA","503B1ER","2019-03-05 23:00","2019","03","05","23:00","-15.2","","-18.5","","76","","0.0","","20","","4","","","","98.61","","","","-18","","NA"
"-96.06","50.18","PINAWA","503B1ER","2019-03-06 00:00","2019","03","06","00:00","-14.5","","-18.0","","75","","0.0","","24","","3","","","","98.63","","","","-17","","NA"
"-96.06","50.18","PINAWA","503B1ER","2019-03-06 01:00","2019","03","06","01:00","-13.5","","-17.3","","73","","0.0","","31","","8","","","","98.66","","","","-19","","NA"
"-96.06","50.18","PINAWA","503B1ER","2019-03-06 02:00","2019","03","06","02:00","-13.3","","-16.8","","74","","0.0","","32","","7","","","","98.71","","","","-18","","NA"
"-96.06","50.18","PINAWA","503B1ER","2019-03-06 03:00","2019","03","06","03:00","-13.4","","-16.5","","77","","0.0","","31","","11","","","","98.70","","","","-20","","NA"
"-96.06","50.18","PINAWA","503B1ER","2019-03-06 04:00","2019","03","06","04:00","-13.4","","-17.2","","73","","0.0","","32","","16","","","","98.75","","","","-21","","NA"
"-96.06","50.18","PINAWA","503B1ER","2019-03-06 05:00","2019","03","06","05:00","-13.5","","-18.5","","66","","0.0","","33","","14","","","","98.77","","","","-21","","NA"
"-96.06","50.18","PINAWA","503B1ER","2019-03-06 06:00","2019","03","06","06:00","-14.1","","-19.0","","66","","0.0","","35","","12","","","","98.84","","","","-21","","NA"
"-96.06","50.18","PINAWA","503B1ER","2019-03-06 07:00","2019","03","06","07:00","-14.5","","-20.2","","62","","0.0","","36","","10","","","","98.87","","","","-21","","NA"
"-96.06","50.18","PINAWA","503B1ER","2019-03-06 08:00","2019","03","06","08:00","-14.5","","-19.9","","63","","0.0","","31","","10","","","","98.91","","","","-21","","NA"
"-96.06","50.18","PINAWA","503B1ER","2019-03-06 09:00","2019","03","06","09:00","-14.4","","-19.0","","68","","0.0","","32","","10","","","","98.99","","","","-21","","NA"
"-96.06","50.18","PINAWA","503B1ER","2019-03-06 10:00","2019","03","06","10:00","-13.9","","-17.8","","72","","0.0","","31","","15","","","","99.07","","","","-22","","NA"
"-96.06","50.18","PINAWA","503B1ER","2019-03-06 11:00","2019","03","06","11:00","-14.2","","-21.4","","55","","0.0","","32","","21","","","","99.13","","","","-23","","NA"
"-96.06","50.18","PINAWA","503B1ER","2019-03-06 12:00","2019","03","06","12:00","-14.5","","-20.2","","62","","0.0","","31","","24","","","","99.19","","","","-24","","NA"
"-96.06","50.18","PINAWA","503B1ER","2019-03-06 13:00","2019","03","06","13:00","-14.7","","-21.7","","55","","0.0","","31","","24","","","","99.21","","","","-25","","NA"
"-96.06","50.18","PINAWA","503B1ER","2019-03-06 14:00","2019","03","06","14:00","-14.3","","-21.0","","57","","0.0","","31","","19","","","","99.23","","","","-23","","NA"
"-96.06","50.18","PINAWA","503B1ER","2019-03-06 15:00","2019","03","06","15:00","-13.9","","-19.9","","61","","0.0","","31","","23","","","","99.26","","","","-23","","NA"
"-96.06","50.18","PINAWA","503B1ER","2019-03-06 16:00","2019","03","06","16:00","-13.5","","-19.5","","60","","0.0","","31","","20","","","","99.29","","","","-22","","NA"
"-96.06","50.18","PINAWA","503B1ER","2019-03-06 17:00","2019","03","06","17:00","-13.5","","-18.9","","64","","0.0","","31","","15","","","","99.33","","","","-21","","NA"
"-96.06","50.18","PINAWA","503B1ER","2019-03-06 18:00","2019","03","06","18:00","-13.7","","-19.2","","63","","0.0","","34","","8","","","","99.35","","","","-19","","NA"
"-96.06","50.18","PINAWA","503B1ER","2019-03-06 19:00","2019","03","06","19:00","-16.4","","-20.9","","68","","0.0","","34","","4","","","","99.38","","","","-19","","NA"
"-96.06","50.18","PINAWA","503B1ER","2019-03-06 20:00","2019","03","06","20:00","-19.2","","-22.3","","77","","0.0","","25","","2","","","","99.40","","","","-21","","NA"
"-96.06","50.18","PINAWA","503B1ER","2019-03-06 21:00","2019","03","06","21:00","-17.5","","-19.5","","84","","0.0","","32","","6","","","","99.43","","","","-22","","NA"
"-96.06","50.18","PINAWA","503B1ER","2019-03-06 22:00","2019","03","06","22:00","-21.2","","-23.7","","80","","0.0","","","","0","","","","99.47","","","","","","NA"
"-96.06","50.18","PINAWA","503B1ER","2019-03-06 23:00","2019","03","06","23:00","-23.6","","-26.4","","78","","0.0","","0","","1","","","","99.47","","","","-25","","NA"
"-96.06","50.18","PINAWA","503B1ER","2019-03-07 00:00","2019","03","07","00:00","-24.1","","-26.8","","79","","0.0","","22","","3","","","","99.45","","","","-27","","NA"
"-96.06","50.18","PINAWA","503B1ER","2019-03-07 01:00","2019","03","07","01:00","-25.4","","-28.4","","76","","0.0","","23","","2","","","","99.46","","","","-27","","NA"
"-96.06","50.18","PINAWA","503B1ER","2019-03-07 02:00","2019","03","07","02:00","-26.6","","-29.8","","74","","0.0","","15","","2","","","","99.45","","","","-29","","NA"
"-96.06","50.18","PINAWA","503B1ER","2019-03-07 03:00","2019","03","07","03:00","-26.9","","-29.9","","75","","0.0","","","","0","","","","99.44","","","","","","NA"
"-96.06","50.18","PINAWA","503B1ER","2019-03-07 04:00","2019","03","07","04:00","-27.5","","-30.8","","74","","0.0","","0","","1","","","","99.46","","","","-29","","NA"
"-96.06","50.18","PINAWA","503B1ER","2019-03-07 05:00","2019","03","07","05:00","-28.4","","-31.7","","73","","0.0","","16","","1","","","","99.44","","","","-29","","NA"
"-96.06","50.18","PINAWA","503B1ER","2019-03-07 06:00","2019","03","07","06:00","-27.5","","-30.7","","74","","0.0","","20","","3","","","","99.47","","","","-31","","NA"
"-96.06","50.18","PINAWA","503B1ER","2019-03-07 07:00","2019","03","07","07:00","-25.2","","-27.8","","79","","0.0","","20","","3","","","","99.46","","","","-28","","NA"
"-96.06","50.18","PINAWA","503B1ER","2019-03-07 08:00","2019","03","07","08:00","-21.9","","-24.9","","77","","0.0","","17","","4","","","","99.41","","","","-26","","NA"
"-96.06","50.18","PINAWA","503B1ER","2019-03-07 09:00","2019","03","07","09:00","-18.1","","-22.2","","70","","0.2","","20","","5","","","","99.39","","","","-22","","NA"
"-96.06","50.18","PINAWA","503B1ER","2019-03-07 10:00","2019","03","07","10:00","-13.5","","-20.3","","57","","0.0","","20","","6","","","","99.32","","","","-18","","NA"
"-96.06","50.18","PINAWA","503B1ER","2019-03-07 11:00","2019","03","07","11:00","-10.3","","-19.7","","46","","0.0","","23","","7","","","","99.29","","","","-14","","NA"
"-96.06","50.18","PINAWA","503B1ER","2019-03-07 12:00","2019","03","07","12:00","-9.4","","-19.9","","42","","0.0","","25","","8","","","","99.25","","","","-14","","NA"
"-96.06","50.18","PINAWA","503B1ER","2019-03-07 13:00","2019","03","07","13:00","-9.0","","-19.9","","41","","0.0","","25","","10","","","","99.20","","","","-14","","NA"
"-96.06","50.18","PINAWA","503B1ER","2019-03-07 14:00","2019","03","07","14:00","-8.4","","-20.0","","39","","0.0","","24","","10","","","","99.10","","","","-13","","NA"
"-96.06","50.18","PINAWA","503B1ER","2019-03-07 15:00","2019","03","07","15:00","-8.2","","-19.7","","39","","0.0","","23","","6","","","","99.01","","","","-11","","NA"
"-96.06","50.18","PINAWA","503B1ER","2019-03-07 16:00","2019","03","07","16:00","-7.6","","-19.5","","38","","0.0","","22","","6","","","","98.93","","","","-11","","NA"
"-96.06","50.18","PINAWA","503B1ER","2019-03-07 17:00","2019","03","07","17:00","-8.5","","-18.5","","44","","0.0","","24","","6","","","","98.85","","","","-12","","NA"
"-96.06","50.18","PINAWA","503B1ER","2019-03-07 18:00","2019","03","07","18:00","-10.7","","-18.1","","54","","0.0","","25","","8","","","","98.82","","","","-15","","NA"
"-96.06","50.18","PINAWA","503B1ER","2019-03-07 19:00","2019","03","07","19:00","-12.9","","-18.4","","64","","0.0","","24","","6","","","","98.77","","","","-17","","NA"
"-96.06","50.18","PINAWA","503B1ER","2019-03-07 20:00","2019","03","07","20:00","-13.6","","-19.0","","64","","0.0","","20","","4","","","","98.70","","","","-16","","NA"
"-96.06","50.18","PINAWA","503B1ER","2019-03-07 21:00","2019","03","07","21:00","-14.4","","-19.5","","65","","0.0","","19","","6","","","","98.65","","","","-19","","NA"
"-96.06","50.18","PINAWA","503B1ER","2019-03-07 22:00","2019","03","07","22:00","-16.3","","-20.7","","69","","0.0","","17","","5","","","","98.64","","","","-20","","NA"
"-96.06","50.18","PINAWA","503B1ER","2019-03-07 23:00","2019","03","07","23:00","-16.8","","-20.4","","74","","0.0","","16","","6","","","","98.61","","","","-21","","NA"
"-96.06","50.18","PINAWA","503B1ER","2019-03-08 00:00","2019","03","08","00:00","-17.6","","-21.1","","74","","0.0","","15","","4","","","","98.55","","","","-21","","NA"
"-96.06","50.18","PINAWA","503B1ER","2019-03-08 01:00","2019","03","08","01:00","-18.4","","-20.9","","81","","0.0","","14","","4","","","","98.49","","","","-22","","NA"
"-96.06","50.18","PINAWA","503B1ER","2019-03-08 02:00","2019","03","08","02:00","-16.3","","-20.2","","72","","0.0","","17","","8","","","","98.40","","","","-22","","NA"
"-96.06","50.18","PINAWA","503B1ER","2019-03-08 03:00","2019","03","08","03:00","-17.8","","-21.3","","74","","0.0","","16","","5","","","","98.37","","","","-22","","NA"
"-96.06","50.18","PINAWA","503B1ER","2019-03-08 04:00","2019","03","08","04:00","-17.2","","-20.5","","75","","0.0","","17","","5","","","","98.30","","","","-21","","NA"
"-96.06","50.18","PINAWA","503B1ER","2019-03-08 05:00","2019","03","08","05:00","-18.0","","-20.9","","78","","0.0","","15","","3","","","","98.31","","","","-20","","NA"
"-96.06","50.18","PINAWA","503B1ER","2019-03-08 06:00","2019","03","08","06:00","-20.2","","-22.7","","80","","0.0","","12","","5","","","","98.30","","","","-25","","NA"
"-96.06","50.18","PINAWA","503B1ER","2019-03-08 07:00","2019","03","08","07:00","-18.2","","-20.4","","82","","0.0","","12","","5","","","","98.30","","","","-22","","NA"
"-96.06","50.18","PINAWA","503B1ER","2019-03-08 08:00","2019","03","08","08:00","-15.3","","-18.2","","78","","0.0","","13","","2","","","","98.26","","","","-17","","NA"
"-96.06","50.18","PINAWA","503B1ER","2019-03-08 09:00","2019","03","08","09:00","-12.1","","-16.3","","71","","0.0","","16","","5","","","","98.27","","","","-15","","NA"
"-96.06","50.18","PINAWA","503B1ER","2019-03-08 10:00","2019","03","08","10:00","-9.6","","-14.9","","65","","0.0","","16","","4","","","","98.27","","","","-12","","NA"
"-96.06","50.18","PINAWA","503B1ER","2019-03-08 11:00","2019","03","08","11:00","-8.2","","-13.5","","66","","0.0","","15","","7","","","","98.22","","","","-12","","NA"
"-96.06","50.18","PINAWA","503B1ER","2019-03-08 12:00","2019","03","08","12:00","-7.4","","-12.7","","66","","0.0","","16","","11","","","","98.21","","","","-12","","NA"
"-96.06","50.18","PINAWA","503B1ER","2019-03-08 13:00","2019","03","08","13:00","-6.6","","-12.0","","66","","0.0","","16","","11","","","","98.15","","","","-12","","NA"
"-96.06","50.18","PINAWA","503B1ER","2019-03-08 14:00","2019","03","08","14:00","-5.6","","-11.0","","65","","0.0","","16","","9","","","","98.12","","","","-10","","NA"
"-96.06","50.18","PINAWA","503B1ER","2019-03-08 15:00","2019","03","08","15:00","-5.2","","-10.5","","66","","0.0","","24","","9","","","","98.13","","","","-9","","NA"
"-96.06","50.18","PINAWA","503B1ER","2019-03-08 16:00","2019","03","08","16:00","-5.6","","-10.7","","67","","0.0","","19","","7","","","","98.10","","","","-9","","NA"
"-96.06","50.18","PINAWA","503B1ER","2019-03-08 17:00","2019","03","08","17:00","-6.3","","-10.7","","71","","0.0","","19","","9","","","","98.13","","","","-11","","NA"
"-96.06","50.18","PINAWA","503B1ER","2019-03-08 18:00","2019","03","08","18:00","-6.5","","-11.0","","71","","0.0","","18","","7","","","","98.07","","","","-10","","NA"
"-96.06","50.18","PINAWA","503B1ER","2019-03-08 19:00","2019","03","08","19:00","-6.5","","-10.5","","73","","0.0","","18","","6","","","","98.06","","","","-9","","NA"
"-96.06","50.18","PINAWA","503B1ER","2019-03-08 20:00","2019","03","08","20:00","-6.5","","-10.0","","76","","0.0","","18","","5","","","","98.04","","","","-9","","NA"
"-96.06","50.18","PINAWA","503B1ER","2019-03-08 21:00","2019","03","08","21:00","-6.4","","-9.3","","80","","0.0","","18","","8","","","","98.01","","","","-10","","NA"
"-96.06","50.18","PINAWA","503B1ER","2019-03-08 22:00","2019","03","08","22:00","-6.4","","-9.2","","81","","0.0","","18","","7","","","","98.00","","","","-10","","NA"
"-96.06","50.18","PINAWA","503B1ER","2019-03-08 23:00","2019","03","08","23:00","-6.2","","-9.1","","80","","0.0","","19","","7","","","","98.00","","","","-10","","NA"
"-96.06","50.18","PINAWA","503B1ER","2019-03-09 00:00","2019","03","09","00:00","-6.2","","-8.8","","82","","0.0","","19","","5","","","","97.96","","","","-9","","NA"
"-96.06","50.18","PINAWA","503B1ER","2019-03-09 01:00","2019","03","09","01:00","-6.1","","-8.5","","83","","0.0","","18","","5","","","","97.99","","","","-9","","NA"
"-96.06","50.18","PINAWA","503B1ER","2019-03-09 02:00","2019","03","09","02:00","-5.9","","-8.3","","84","","0.0","","17","","6","","","","97.97","","","","-9","","NA"
"-96.06","50.18","PINAWA","503B1ER","2019-03-09 03:00","2019","03","09","03:00","-5.8","","-8.1","","84","","0.0","","18","","5","","","","97.94","","","","-8","","NA"
"-96.06","50.18","PINAWA","503B1ER","2019-03-09 04:00","2019","03","09","04:00","-5.6","","-7.7","","85","","0.0","","17","","7","","","","97.94","","","","-9","","NA"
"-96.06","50.18","PINAWA","503B1ER","2019-03-09 05:00","2019","03","09","05:00","-5.5","","-7.4","","86","","0.0","","18","","5","","","","97.85","","","","-8","","NA"
"-96.06","50.18","PINAWA","503B1ER","2019-03-09 06:00","2019","03","09","06:00","-5.4","","-7.4","","86","","0.0","","17","","7","","","","97.78","","","","-9","","NA"
"-96.06","50.18","PINAWA","503B1ER","2019-03-09 07:00","2019","03","09","07:00","-5.3","","-7.4","","86","","0.0","","17","","7","","","","97.79","","","","-9","","NA"
"-96.06","50.18","PINAWA","503B1ER","2019-03-09 08:00","2019","03","09","08:00","-5.1","","-7.4","","84","","0.0","","17","","9","","","","97.78","","","","-9","","NA"
"-96.06","50.18","PINAWA","503B1ER","2019-03-09 09:00","2019","03","09","09:00","-4.8","","-7.2","","83","","0.0","","16","","11","","","","97.70","","","","-9","","NA"
"-96.06","50.18","PINAWA","503B1ER","2019-03-09 10:00","2019","03","09","10:00","-4.5","","-6.9","","83","","0.0","","16","","10","","","","97.63","","","","-9","","NA"
"-96.06","50.18","PINAWA","503B1ER","2019-03-09 11:00","2019","03","09","11:00","-3.8","","-7.0","","79","","0.0","","17","","9","","","","97.60","","","","-8","","NA"
"-96.06","50.18","PINAWA","503B1ER","2019-03-09 12:00","2019","03","09","12:00","-2.8","","-6.7","","74","","0.0","","16","","9","","","","97.58","","","","-6","","NA"
"-96.06","50.18","PINAWA","503B1ER","2019-03-09 13:00","2019","03","09","13:00","-2.4","","-5.7","","78","","0.0","","16","","10","","","","97.54","","","","-6","","NA"
"-96.06","50.18","PINAWA","503B1ER","2019-03-09 14:00","2019","03","09","14:00","-2.5","","-4.4","","87","","0.0","","24","","4","","","","97.50","","","","-4","","NA"
"-96.06","50.18","PINAWA","503B1ER","2019-03-09 15:00","2019","03","09","15:00","-2.0","","-4.6","","82","","0.5","","27","","6","","","","97.46","","","","-4","","NA"
"-96.06","50.18","PINAWA","503B1ER","2019-03-09 16:00","2019","03","09","16:00","-2.3","","-5.7","","77","","0.0","","28","","7","","","","97.45","","","","-5","","NA"
"-96.06","50.18","PINAWA","503B1ER","2019-03-09 17:00","2019","03","09","17:00","-2.8","","-6.3","","76","","0.0","","28","","4","","","","97.45","","","","-4","","NA"
"-96.06","50.18","PINAWA","503B1ER","2019-03-09 18:00","2019","03","09","18:00","-3.0","","-6.2","","78","","0.0","","34","","5","","","","97.46","","","","-5","","NA"
"-96.06","50.18","PINAWA","503B1ER","2019-03-09 19:00","2019","03","09","19:00","-3.4","","-6.4","","80","","0.0","","32","","4","","","","97.50","","","","-5","","NA"
"-96.06","50.18","PINAWA","503B1ER","2019-03-09 20:00","2019","03","09","20:00","-3.7","","-6.9","","79","","0.0","","33","","4","","","","97.53","","","","-5","","NA"
"-96.06","50.18","PINAWA","503B1ER","2019-03-09 21:00","2019","03","09","21:00","-4.4","","-8.2","","75","","0.0","","33","","7","","","","97.53","","","","-8","","NA"
"-96.06","50.18","PINAWA","503B1ER","2019-03-09 22:00","2019","03","09","22:00","-5.2","","-10.4","","67","","0.0","","31","","12","","","","97.56","","","","-10","","NA"
"-96.06","50.18","PINAWA","503B1ER","2019-03-09 23:00","2019","03","09","23:00","-5.8","","-10.9","","67","","0.0","","32","","14","","","","97.58","","","","-11","","NA"
"-96.06","50.18","PINAWA","503B1ER","2019-03-10 00:00","2019","03","10","00:00","-6.3","","-11.6","","66","","0.0","","33","","10","","","","97.62","","","","-11","","NA"
"-96.06","50.18","PINAWA","503B1ER","2019-03-10 01:00","2019","03","10","01:00","-6.6","","-12.3","","64","","0.0","","33","","14","","","","97.67","","","","-12","","NA"
"-96.06","50.18","PINAWA","503B1ER","2019-03-10 02:00","2019","03","10","02:00","-8.6","","-13.4","","68","","0.0","","33","","7","","","","97.73","","","","-12","","NA"
"-96.06","50.18","PINAWA","503B1ER","2019-03-10 03:00","2019","03","10","03:00","-10.1","","-13.7","","75","","0.0","","32","","13","","","","97.75","","","","-16","","NA"
"-96.06","50.18","PINAWA","503B1ER","2019-03-10 04:00","2019","03","10","04:00","-11.4","","-13.9","","82","","0.0","","32","","16","","","","97.80","","","","-19","","NA"
"-96.06","50.18","PINAWA","503B1ER","2019-03-10 05:00","2019","03","10","05:00","-12.0","","-14.0","","85","","0.0","","32","","14","","","","97.86","","","","-19","","NA"
"-96.06","50.18","PINAWA","503B1ER","2019-03-10 06:00","2019","03","10","06:00","-12.0","","-14.0","","85","","0.0","","32","","16","","","","97.95","","","","-19","","NA"
"-96.06","50.18","PINAWA","503B1ER","2019-03-10 07:00","2019","03","10","07:00","-12.6","","-14.3","","87","","0.0","","32","","13","","","","98.02","","","","-19","","NA"
"-96.06","50.18","PINAWA","503B1ER","2019-03-10 08:00","2019","03","10","08:00","-12.0","","-13.9","","86","","0.0","","32","","11","","","","98.06","","","","-18","","NA"
"-96.06","50.18","PINAWA","503B1ER","2019-03-10 09:00","2019","03","10","09:00","-11.5","","-13.9","","82","","0.0","","32","","19","","","","98.14","","","","-20","","NA"
"-96.06","50.18","PINAWA","503B1ER","2019-03-10 10:00","2019","03","10","10:00","-11.2","","-14.8","","75","","0.0","","32","","17","","","","98.20","","","","-19","","NA"
"-96.06","50.18","PINAWA","503B1ER","2019-03-10 11:00","2019","03","10","11:00","-10.3","","-14.5","","71","","0.0","","32","","20","","","","98.26","","","","-18","","NA"
"-96.06","50.18","PINAWA","503B1ER","2019-03-10 12:00","2019","03","10","12:00","-9.8","","-15.2","","65","","0.0","","32","","17","","","","98.32","","","","-17","","NA"
"-96.06","50.18","PINAWA","503B1ER","2019-03-10 13:00","2019","03","10","13:00","-9.4","","-14.8","","65","","0.0","","32","","21","","","","98.37","","","","-17","","NA"
"-96.06","50.18","PINAWA","503B1ER","2019-03-10 14:00","2019","03","10","14:00","-9.4","","-14.4","","67","","0.0","","31","","21","","","","98.42","","","","-17","","NA"
"-96.06","50.18","PINAWA","503B1ER","2019-03-10 15:00","2019","03","10","15:00","-9.4","","-14.7","","65","","0.0","","31","","23","","","","98.49","","","","-18","","NA"
"-96.06","50.18","PINAWA","503B1ER","2019-03-10 16:00","2019","03","10","16:00","-8.7","","-14.6","","62","","0.0","","31","","18","","","","98.55","","","","-16","","NA"
"-96.06","50.18","PINAWA","503B1ER","2019-03-10 17:00","2019","03","10","17:00","-8.9","","-14.6","","63","","0.0","","30","","17","","","","98.60","","","","-16","","NA"
"-96.06","50.18","PINAWA","503B1ER","2019-03-10 18:00","2019","03","10","18:00","-9.9","","-15.0","","66","","0.0","","31","","16","","","","98.67","","","","-17","","NA"
"-96.06","50.18","PINAWA","503B1ER","2019-03-10 19:00","2019","03","10","19:00","-11.5","","-16.2","","68","","0.0","","31","","11","","","","98.74","","","","-17","","NA"
"-96.06","50.18","PINAWA","503B1ER","2019-03-10 20:00","2019","03","10","20:00","-12.2","","-16.4","","71","","0.0","","32","","7","","","","98.79","","","","-17","","NA"
"-96.06","50.18","PINAWA","503B1ER","2019-03-10 21:00","2019","03","10","21:00","-13.6","","-17.2","","74","","0.0","","35","","3","","","","98.82","","","","-16","","NA"
"-96.06","50.18","PINAWA","503B1ER","2019-03-10 22:00","2019","03","10","22:00","-14.4","","-17.9","","74","","0.0","","32","","9","","","","98.87","","","","-20","","NA"
"-96.06","50.18","PINAWA","503B1ER","2019-03-10 23:00","2019","03","10","23:00","-15.8","","-19.1","","76","","0.0","","32","","6","","","","98.92","","","","-20","","NA"
"-96.06","50.18","PINAWA","503B1ER","2019-03-11 00:00","2019","03","11","00:00","-18.0","","-20.6","","80","","0.0","","25","","2","","","","98.98","","","","-20","","NA"
"-96.06","50.18","PINAWA","503B1ER","2019-03-11 01:00","2019","03","11","01:00","-19.2","","-21.8","","80","","0.0","","28","","4","","","","99.03","","","","-23","","NA"
"-96.06","50.18","PINAWA","503B1ER","2019-03-11 02:00","2019","03","11","02:00","-21.2","","-23.5","","82","","0.0","","26","","2","","","","99.06","","","","-23","","NA"
"-96.06","50.18","PINAWA","503B1ER","2019-03-11 03:00","2019","03","11","03:00","-22.3","","-24.5","","82","","0.0","","20","","2","","","","99.07","","","","-24","","NA"
"-96.06","50.18","PINAWA","503B1ER","2019-03-11 04:00","2019","03","11","04:00","-24.1","","-26.8","","78","","0.0","","","","0","","","","99.07","","","","","","NA"
"-96.06","50.18","PINAWA","503B1ER","2019-03-11 05:00","2019","03","11","05:00","-24.7","","-27.4","","78","","0.0","","0","","1","","","","99.08","","","","-26","","NA"
"-96.06","50.18","PINAWA","503B1ER","2019-03-11 06:00","2019","03","11","06:00","-25.8","","-28.9","","75","","0.0","","17","","2","","","","99.10","","","","-28","","NA"
"-96.06","50.18","PINAWA","503B1ER","2019-03-11 07:00","2019","03","11","07:00","-26.1","","-29.2","","75","","0.0","","16","","4","","","","99.11","","","","-30","","NA"
"-96.06","50.18","PINAWA","503B1ER","2019-03-11 08:00","2019","03","11","08:00","-20.1","","-22.9","","78","","0.2","","16","","7","","","","99.10","","","","-26","","NA"
"-96.06","50.18","PINAWA","503B1ER","2019-03-11 09:00","2019","03","11","09:00","-16.7","","-21.0","","69","","0.0","","16","","6","","","","99.10","","","","-21","","NA"
"-96.06","50.18","PINAWA","503B1ER","2019-03-11 10:00","2019","03","11","10:00","-11.2","","-18.2","","56","","0.0","","18","","5","","","","99.07","","","","-14","","NA"
"-96.06","50.18","PINAWA","503B1ER","2019-03-11 11:00","2019","03","11","11:00","-7.6","","-15.8","","52","","0.0","","17","","10","","","","99.00","","","","-12","","NA"
"-96.06","50.18","PINAWA","503B1ER","2019-03-11 12:00","2019","03","11","12:00","-4.6","","-14.3","","47","","0.0","","17","","9","","","","98.98","","","","-8","","NA"
"-96.06","50.18","PINAWA","503B1ER","2019-03-11 13:00","2019","03","11","13:00","-2.7","","-14.8","","39","","0.0","","18","","13","","","","98.84","","","","-7","","NA"
"-96.06","50.18","PINAWA","503B1ER","2019-03-11 14:00","2019","03","11","14:00","-1.5","","-14.9","","35","","0.0","","21","","8","","","","98.75","","","","-5","","NA"
"-96.06","50.18","PINAWA","503B1ER","2019-03-11 15:00","2019","03","11","15:00","-2.0","","-13.7","","40","","0.0","","18","","11","","","","98.68","","","","-6","","NA"
"-96.06","50.18","PINAWA","503B1ER","2019-03-11 16:00","2019","03","11","16:00","-1.7","","-14.0","","38","","0.0","","20","","8","","","","98.60","","","","-5","","NA"
"-96.06","50.18","PINAWA","503B1ER","2019-03-11 17:00","2019","03","11","17:00","-2.0","","-12.6","","44","","0.0","","18","","8","","","","98.55","","","","-5","","NA"
"-96.06","50.18","PINAWA","503B1ER","2019-03-11 18:00","2019","03","11","18:00","-2.8","","-10.9","","54","","0.0","","18","","11","","","","98.44","","","","-7","","NA"
"-96.06","50.18","PINAWA","503B1ER","2019-03-11 19:00","2019","03","11","19:00","-3.6","","-9.6","","63","","0.0","","16","","12","","","","98.37","","","","-8","","NA"
"-96.06","50.18","PINAWA","503B1ER","2019-03-11 20:00","2019","03","11","20:00","-5.0","","-9.8","","69","","0.0","","15","","14","","","","98.26","","","","-10","","NA"
"-96.06","50.18","PINAWA","503B1ER","2019-03-11 21:00","2019","03","11","21:00","-6.2","","-10.3","","73","","0.0","","16","","14","","","","98.18","","","","-12","","NA"
"-96.06","50.18","PINAWA","503B1ER","2019-03-11 22:00","2019","03","11","22:00","-7.1","","-10.9","","74","","0.0","","16","","13","","","","98.07","","","","-13","","NA"
"-96.06","50.18","PINAWA","503B1ER","2019-03-11 23:00","2019","03","11","23:00","-7.6","","-11.1","","76","","0.0","","16","","10","","","","98.02","","","","-12","","NA"
"-96.06","50.18","PINAWA","503B1ER","2019-03-12 00:00","2019","03","12","00:00","-7.5","","-10.8","","77","","0.0","","16","","10","","","","97.93","","","","-12","","NA"
"-96.06","50.18","PINAWA","503B1ER","2019-03-12 01:00","2019","03","12","01:00","-6.3","","-10.0","","75","","0.0","","18","","9","","","","97.88","","","","-11","","NA"
"-96.06","50.18","PINAWA","503B1ER","2019-03-12 02:00","2019","03","12","02:00","-7.4","","-10.5","","79","","0.0","","17","","10","","","","97.81","","","","-12","","NA"
"-96.06","50.18","PINAWA","503B1ER","2019-03-12 03:00","2019","03","12","03:00","-7.9","","-10.3","","83","","0.0","","17","","8","","","","97.74","","","","-12","","NA"
"-96.06","50.18","PINAWA","503B1ER","2019-03-12 04:00","2019","03","12","04:00","-8.1","","-10.2","","85","","0.0","","16","","8","","","","97.66","","","","-12","","NA"
"-96.06","50.18","PINAWA","503B1ER","2019-03-12 05:00","2019","03","12","05:00","-8.2","","-10.0","","86","","0.0","","17","","9","","","","97.56","","","","-13","","NA"
"-96.06","50.18","PINAWA","503B1ER","2019-03-12 06:00","2019","03","12","06:00","-8.7","","-10.3","","89","","0.0","","17","","10","","","","97.49","","","","-14","","NA"
"-96.06","50.18","PINAWA","503B1ER","2019-03-12 07:00","2019","03","12","07:00","-7.0","","-8.2","","91","","0.0","","17","","12","","","","97.39","","","","-12","","NA"
"-96.06","50.18","PINAWA","503B1ER","2019-03-12 08:00","2019","03","12","08:00","-5.1","","-6.8","","87","","0.0","","17","","9","","","","97.35","","","","-9","","NA"
"-96.06","50.18","PINAWA","503B1ER","2019-03-12 09:00","2019","03","12","09:00","-3.7","","-6.3","","82","","0.0","","17","","9","","","","97.34","","","","-7","","NA"
"-96.06","50.18","PINAWA","503B1ER","2019-03-12 10:00","2019","03","12","10:00","-2.8","","-6.8","","74","","0.0","","16","","12","","","","97.28","","","","-7","","NA"
"-96.06","50.18","PINAWA","503B1ER","2019-03-12 11:00","2019","03","12","11:00","-1.2","","-7.0","","64","","0.0","","15","","11","","","","97.19","","","","-5","","NA"
"-96.06","50.18","PINAWA","503B1ER","2019-03-12 12:00","2019","03","12","12:00","1.3","","-6.7","","55","","0.0","","16","","11","","","","97.11","","","","","","NA"
"-96.06","50.18","PINAWA","503B1ER","2019-03-12 13:00","2019","03","12","13:00","4.0","","-5.7","","49","","0.0","","16","","13","","","","97.00","","","","","","NA"
"-96.06","50.18","PINAWA","503B1ER","2019-03-12 14:00","2019","03","12","14:00","5.5","","-4.7","","48","","0.0","","15","","17","","","","96.91","","","","","","NA"
"-96.06","50.18","PINAWA","503B1ER","2019-03-12 15:00","2019","03","12","15:00","5.8","","-4.5","","47","","0.0","","15","","15","","","","96.86","","","","","","NA"
"-96.06","50.18","PINAWA","503B1ER","2019-03-12 16:00","2019","03","12","16:00","6.0","","-3.7","","50","","0.0","","16","","13","","","","96.86","","","","","","NA"
"-96.06","50.18","PINAWA","503B1ER","2019-03-12 17:00","2019","03","12","17:00","5.7","","-2.9","","54","","0.0","","15","","11","","","","96.82","","","","","","NA"
"-96.06","50.18","PINAWA","503B1ER","2019-03-12 18:00","2019","03","12","18:00","4.3","","-2.5","","61","","0.0","","16","","7","","","","96.83","","","","","","NA"
"-96.06","50.18","PINAWA","503B1ER","2019-03-12 19:00","2019","03","12","19:00","1.5","","-2.6","","74","","0.0","","16","","5","","","","96.84","","","","","","NA"
"-96.06","50.18","PINAWA","503B1ER","2019-03-12 20:00","2019","03","12","20:00","1.3","","-2.4","","76","","0.0","","17","","6","","","","96.84","","","","","","NA"
"-96.06","50.18","PINAWA","503B1ER","2019-03-12 21:00","2019","03","12","21:00","1.1","","-1.8","","81","","0.0","","17","","6","","","","96.84","","","","","","NA"
"-96.06","50.18","PINAWA","503B1ER","2019-03-12 22:00","2019","03","12","22:00","1.0","","-1.8","","82","","0.0","","18","","8","","","","96.83","","","","","","NA"
"-96.06","50.18","PINAWA","503B1ER","2019-03-12 23:00","2019","03","12","23:00","0.3","","-2.1","","84","","0.0","","18","","8","","","","96.86","","","","","","NA"
"-96.06","50.18","PINAWA","503B1ER","2019-03-13 00:00","2019","03","13","00:00","-1.7","","-3.6","","87","","0.0","","19","","2","","","","96.91","","","","-2","","NA"
"-96.06","50.18","PINAWA","503B1ER","2019-03-13 01:00","2019","03","13","01:00","-0.8","","-2.2","","90","","0.0","","19","","5","","","","96.96","","","","-2","","NA"
"-96.06","50.18","PINAWA","503B1ER","2019-03-13 02:00","2019","03","13","02:00","-1.0","","-2.9","","87","","0.0","","18","","6","","","","96.99","","","","-3","","NA"
"-96.06","50.18","PINAWA","503B1ER","2019-03-13 03:00","2019","03","13","03:00","-1.6","","-3.2","","89","","0.0","","16","","3","","","","96.98","","","","-3","","NA"
"-96.06","50.18","PINAWA","503B1ER","2019-03-13 04:00","2019","03","13","04:00","-1.6","","-3.2","","88","","0.0","","19","","5","","","","96.98","","","","-3","","NA"
"-96.06","50.18","PINAWA","503B1ER","2019-03-13 05:00","2019","03","13","05:00","-1.8","","-3.4","","89","","0.0","","19","","5","","","","97.06","","","","-4","","NA"
"-96.06","50.18","PINAWA","503B1ER","2019-03-13 06:00","2019","03","13","06:00","-2.0","","-3.8","","88","","0.0","","22","","6","","","","97.14","","","","-4","","NA"
"-96.06","50.18","PINAWA","503B1ER","2019-03-13 07:00","2019","03","13","07:00","-2.2","","-3.9","","88","","0.0","","18","","3","","","","97.18","","","","-3","","NA"
"-96.06","50.18","PINAWA","503B1ER","2019-03-13 08:00","2019","03","13","08:00","-2.1","","-4.0","","87","","0.0","","16","","5","","","","97.18","","","","-4","","NA"
"-96.06","50.18","PINAWA","503B1ER","2019-03-13 09:00","2019","03","13","09:00","-1.8","","-4.2","","84","","0.0","","21","","3","","","","97.25","","","","-3","","NA"
"-96.06","50.18","PINAWA","503B1ER","2019-03-13 10:00","2019","03","13","10:00"
"-96.06","50.18","PINAWA","503B1ER","2019-03-13 11:00","2019","03","13","11:00"
"-96.06","50.18","PINAWA","503B1ER","2019-03-13 12:00","2019","03","13","12:00"
"-96.06","50.18","PINAWA","503B1ER","2019-03-13 13:00","2019","03","13","13:00"
"-96.06","50.18","PINAWA","503B1ER","2019-03-13 14:00","2019","03","13","14:00","0.4","","-4.6","","69","","0.0","","36","","12","","","","97.36","","","","","","NA"
"-96.06","50.18","PINAWA","503B1ER","2019-03-13 15:00","2019","03","13","15:00","0.5","","-4.7","","68","","0.0","","34","","9","","","","97.37","","","","","","NA"
"-96.06","50.18","PINAWA","503B1ER","2019-03-13 16:00","2019","03","13","16:00","1.1","","-3.9","","69","","0.0","","33","","7","","","","97.44","","","","","","NA"
"-96.06","50.18","PINAWA","503B1ER","2019-03-13 17:00","2019","03","13","17:00","1.5","","-3.7","","68","","0.0","","1","","7","","","","97.47","","","","","","NA"
"-96.06","50.18","PINAWA","503B1ER","2019-03-13 18:00","2019","03","13","18:00","0.8","","-3.3","","74","","0.0","","36","","9","","","","97.47","","","","","","NA"
"-96.06","50.18","PINAWA","503B1ER","2019-03-13 19:00","2019","03","13","19:00","-0.1","","-3.3","","78","","0.0","","36","","9","","","","97.48","","","","-3","","NA"
"-96.06","50.18","PINAWA","503B1ER","2019-03-13 20:00","2019","03","13","20:00","0.3","","-3.1","","78","","0.0","","36","","8","","","","97.45","","","","","","NA"
"-96.06","50.18","PINAWA","503B1ER","2019-03-13 21:00","2019","03","13","21:00","0.2","","-3.0","","79","","0.0","","35","","9","","","","97.41","","","","","","NA"
"-96.06","50.18","PINAWA","503B1ER","2019-03-13 22:00","2019","03","13","22:00","0.3","","-3.1","","78","","0.0","","35","","8","","","","97.38","","","","","","NA"
"-96.06","50.18","PINAWA","503B1ER","2019-03-13 23:00","2019","03","13","23:00","0.3","","-3.1","","78","","0.0","","36","","9","","","","97.36","","","","","","NA"
"-96.06","50.18","PINAWA","503B1ER","2019-03-14 00:00","2019","03","14","00:00","0.4","","-2.9","","79","","0.0","","36","","12","","","","97.30","","","","","","NA"
"-96.06","50.18","PINAWA","503B1ER","2019-03-14 01:00","2019","03","14","01:00","1.0","","-2.8","","76","","0.0","","1","","10","","","","97.33","","","","","","NA"
"-96.06","50.18","PINAWA","503B1ER","2019-03-14 02:00","2019","03","14","02:00","0.3","","-1.9","","85","","0.0","","36","","13","","","","97.34","","","","","","NA"
"-96.06","50.18","PINAWA","503B1ER","2019-03-14 03:00","2019","03","14","03:00","-0.1","","-1.2","","92","","0.2","","1","","13","","","","97.27","","","","-4","","NA"
"-96.06","50.18","PINAWA","503B1ER","2019-03-14 04:00","2019","03","14","04:00","0.1","","-0.9","","93","","0.5","","1","","13","","","","97.24","","","","","","NA"
"-96.06","50.18","PINAWA","503B1ER","2019-03-14 05:00","2019","03","14","05:00","-0.5","","-1.5","","93","","0.0","","36","","15","","","","97.26","","","","-5","","NA"
"-96.06","50.18","PINAWA","503B1ER","2019-03-14 06:00","2019","03","14","06:00","-0.6","","-1.5","","94","","0.5","","36","","15","","","","97.27","","","","-5","","NA"
"-96.06","50.18","PINAWA","503B1ER","2019-03-14 07:00","2019","03","14","07:00","-0.8","","-1.6","","94","","0.5","","35","","19","","","","97.28","","","","-6","","NA"
"-96.06","50.18","PINAWA","503B1ER","2019-03-14 08:00","2019","03","14","08:00","-0.9","","-1.7","","94","","0.2","","35","","18","","","","97.29","","","","-6","","NA"
"-96.06","50.18","PINAWA","503B1ER","2019-03-14 09:00","2019","03","14","09:00","-1.2","","-2.0","","94","","0.2","","35","","20","","","","97.31","","","","-7","","NA"
"-96.06","50.18","PINAWA","503B1ER","2019-03-14 10:00","2019","03","14","10:00","-1.4","","-2.4","","93","","0.2","","35","","19","","","","97.36","","","","-7","","NA"
"-96.06","50.18","PINAWA","503B1ER","2019-03-14 11:00","2019","03","14","11:00","-0.6","","-2.1","","90","","0.5","","36","","14","","","","97.40","","","","-5","","NA"
"-96.06","50.18","PINAWA","503B1ER","2019-03-14 12:00","2019","03","14","12:00","-0.4","","-2.4","","86","","0.4","","36","","16","","","","97.44","","","","-5","","NA"
"-96.06","50.18","PINAWA","503B1ER","2019-03-14 13:00","2019","03","14","13:00","0.6","","-2.5","","80","","0.0","","35","","19","","","","97.44","","","","","","NA"
"-96.06","50.18","PINAWA","503B1ER","2019-03-14 14:00","2019","03","14","14:00","-0.4","","-4.6","","74","","0.0","","33","","26","","","","97.44","","","","-7","","NA"
"-96.06","50.18","PINAWA","503B1ER","2019-03-14 15:00","2019","03","14","15:00","-0.9","","-5.7","","70","","0.0","","32","","29","","","","97.51","","","","-8","","NA"
"-96.06","50.18","PINAWA","503B1ER","2019-03-14 16:00","2019","03","14","16:00","-1.2","","-6.5","","67","","0.0","","33","","28","","","","97.59","","","","-8","","NA"
"-96.06","50.18","PINAWA","503B1ER","2019-03-14 17:00","2019","03","14","17:00","-2.0","","-6.6","","71","","0.0","","33","","28","","","","97.65","","","","-9","","NA"
"-96.06","50.18","PINAWA","503B1ER","2019-03-14 18:00","2019","03","14","18:00","-2.1","","-7.0","","69","","0.0","","33","","25","","","","97.74","","","","-9","","NA"
"-96.06","50.18","PINAWA","503B1ER","2019-03-14 19:00","2019","03","14","19:00","-2.8","","-7.0","","73","","0.0","","33","","22","","","","97.85","","","","-9","","NA"
"-96.06","50.18","PINAWA","503B1ER","2019-03-14 20:00","2019","03","14","20:00","-3.3","","-7.3","","74","","0.0","","33","","19","","","","97.92","","","","-9","","NA"
"-96.06","50.18","PINAWA","503B1ER","2019-03-14 21:00","2019","03","14","21:00","-3.5","","-7.9","","71","","0.0","","33","","19","","","","97.98","","","","-9","","NA"
"-96.06","50.18","PINAWA","503B1ER","2019-03-14 22:00","2019","03","14","22:00","-4.0","","-8.4","","71","","0.0","","32","","20","","","","98.02","","","","-10","","NA"
"-96.06","50.18","PINAWA","503B1ER","2019-03-14 23:00","2019","03","14","23:00","-4.4","","-8.9","","71","","0.0","","33","","13","","","","98.07","","","","-9","","NA"
"-96.06","50.18","PINAWA","503B1ER","2019-03-15 00:00","2019","03","15","00:00","-5.3","","-9.5","","72","","0.0","","34","","6","","","","98.10","","","","-8","","NA"
"-96.06","50.18","PINAWA","503B1ER","2019-03-15 01:00","2019","03","15","01:00","-5.5","","-9.4","","74","","0.0","","32","","18","","","","98.17","","","","-12","","NA"
"-96.06","50.18","PINAWA","503B1ER","2019-03-15 02:00","2019","03","15","02:00","-5.8","","-9.5","","75","","0.0","","31","","15","","","","98.21","","","","-12","","NA"
"-96.06","50.18","PINAWA","503B1ER","2019-03-15 03:00","2019","03","15","03:00","-5.9","","-9.5","","75","","0.0","","31","","11","","","","98.22","","","","-11","","NA"
"-96.06","50.18","PINAWA","503B1ER","2019-03-15 04:00","2019","03","15","04:00","-5.3","","-9.4","","73","","0.0","","32","","14","","","","98.26","","","","-11","","NA"
"-96.06","50.18","PINAWA","503B1ER","2019-03-15 05:00","2019","03","15","05:00","-5.4","","-9.3","","74","","0.0","","32","","12","","","","98.32","","","","-10","","NA"
"-96.06","50.18","PINAWA","503B1ER","2019-03-15 06:00","2019","03","15","06:00","-5.6","","-8.4","","81","","0.0","","32","","15","","","","98.38","","","","-11","","NA"
"-96.06","50.18","PINAWA","503B1ER","2019-03-15 07:00","2019","03","15","07:00","-5.9","","-8.8","","80","","0.0","","31","","13","","","","98.44","","","","-11","","NA"
"-96.06","50.18","PINAWA","503B1ER","2019-03-15 08:00","2019","03","15","08:00"
"-96.06","50.18","PINAWA","503B1ER","2019-03-15 09:00","2019","03","15","09:00","-5.4","","-10.6","","67","","0.0","","33","","15","","","","98.58","","","","-11","","NA"
"-96.06","50.18","PINAWA","503B1ER","2019-03-15 10:00","2019","03","15","10:00","-4.9","","-11.5","","60","","0.0","","32","","22","","","","98.62","","","","-12","","NA"
"-96.06","50.18","PINAWA","503B1ER","2019-03-15 11:00","2019","03","15","11:00","-4.4","","-11.5","","57","","0.0","","33","","20","","","","98.64","","","","-11","","NA"
"-96.06","50.18","PINAWA","503B1ER","2019-03-15 12:00","2019","03","15","12:00","-4.5","","-11.4","","59","","0.0","","33","","24","","","","98.68","","","","-12","","NA"
"-96.06","50.18","PINAWA","503B1ER","2019-03-15 13:00","2019","03","15","13:00","-4.5","","-10.9","","61","","0.0","","33","","19","","","","98.70","","","","-11","","NA"
"-96.06","50.18","PINAWA","503B1ER","2019-03-15 14:00","2019","03","15","14:00","-4.3","","-9.6","","67","","0.0","","33","","17","","","","98.71","","","","-10","","NA"
"-96.06","50.18","PINAWA","503B1ER","2019-03-15 15:00","2019","03","15","15:00","-4.4","","-9.9","","65","","0.0","","34","","15","","","","98.76","","","","-10","","NA"
"-96.06","50.18","PINAWA","503B1ER","2019-03-15 16:00","2019","03","15","16:00","-4.3","","-10.1","","64","","0.0","","31","","23","","","","98.81","","","","-11","","NA"
"-96.06","50.18","PINAWA","503B1ER","2019-03-15 17:00","2019","03","15","17:00","-4.4","","-11.7","","56","","0.0","","31","","22","","","","98.87","","","","-11","","NA"
"-96.06","50.18","PINAWA","503B1ER","2019-03-15 18:00","2019","03","15","18:00","-5.1","","-12.0","","58","","0.0","","31","","21","","","","98.92","","","","-12","","NA"
"-96.06","50.18","PINAWA","503B1ER","2019-03-15 19:00","2019","03","15","19:00","-6.9","","-12.2","","66","","0.0","","34","","5","","","","98.96","","","","-9","","NA"
"-96.06","50.18","PINAWA","503B1ER","2019-03-15 20:00","2019","03","15","20:00","-8.6","","-13.6","","67","","0.0","","32","","7","","","","99.00","","","","-12","","NA"
"-96.06","50.18","PINAWA","503B1ER","2019-03-15 21:00","2019","03","15","21:00","-10.1","","-14.3","","71","","0.0","","31","","7","","","","99.03","","","","-14","","NA"
"-96.06","50.18","PINAWA","503B1ER","2019-03-15 22:00","2019","03","15","22:00","-11.6","","-15.0","","76","","0.0","","30","","5","","","","99.08","","","","-15","","NA"
"-96.06","50.18","PINAWA","503B1ER","2019-03-15 23:00","2019","03","15","23:00","-12.3","","-15.1","","79","","0.0","","33","","5","","","","99.09","","","","-16","","NA"
"-96.06","50.18","PINAWA","503B1ER","2019-03-16 00:00","2019","03","16","00:00","-14.2","","-16.3","","84","","0.0","","28","","4","","","","99.14","","","","-17","","NA"
"-96.06","50.18","PINAWA","503B1ER","2019-03-16 01:00","2019","03","16","01:00","-14.6","","-16.8","","83","","0.0","","33","","4","","","","99.18","","","","-17","","NA"
"-96.06","50.18","PINAWA","503B1ER","2019-03-16 02:00","2019","03","16","02:00","-18.1","","-20.3","","83","","0.0","","34","","3","","","","99.21","","","","-21","","NA"
"-96.06","50.18","PINAWA","503B1ER","2019-03-16 03:00","2019","03","16","03:00","-18.7","","-20.5","","85","","0.0","","24","","1","","","","99.24","","","","-20","","NA"
"-96.06","50.18","PINAWA","503B1ER","2019-03-16 04:00","2019","03","16","04:00","-20.5","","-22.8","","81","","0.0","","","","0","","","","99.26","","","","","","NA"
"-96.06","50.18","PINAWA","503B1ER","2019-03-16 05:00","2019","03","16","05:00","-21.1","","-23.4","","82","","0.0","","0","","1","","","","99.30","","","","-22","","NA"
"-96.06","50.18","PINAWA","503B1ER","2019-03-16 06:00","2019","03","16","06:00","-22.4","","-25.1","","78","","0.0","","15","","1","","","","99.31","","","","-23","","NA"
"-96.06","50.18","PINAWA","503B1ER","2019-03-16 07:00","2019","03","16","07:00","-22.0","","-24.6","","79","","0.0","","","","0","","","","99.34","","","","","","NA"
"-96.06","50.18","PINAWA","503B1ER","2019-03-16 08:00","2019","03","16","08:00","-18.1","","-21.8","","73","","0.9","","16","","4","","","","99.36","","","","-21","","NA"
"-96.06","50.18","PINAWA","503B1ER","2019-03-16 09:00","2019","03","16","09:00","-12.2","","-17.5","","65","","0.0","","18","","3","","","","99.38","","","","-14","","NA"
"-96.06","50.18","PINAWA","503B1ER","2019-03-16 10:00","2019","03","16","10:00","-8.1","","-17.1","","48","","0.0","","20","","4","","","","99.36","","","","-10","","NA"
"-96.06","50.18","PINAWA","503B1ER","2019-03-16 11:00","2019","03","16","11:00","-5.1","","-17.5","","37","","0.0","","23","","7","","","","99.33","","","","-8","","NA"
"-96.06","50.18","PINAWA","503B1ER","2019-03-16 12:00","2019","03","16","12:00","-3.3","","-16.0","","37","","0.0","","24","","9","","","","99.30","","","","-7","","NA"
"-96.06","50.18","PINAWA","503B1ER","2019-03-16 13:00","2019","03","16","13:00","-2.1","","-16.4","","32","","0.0","","24","","9","","","","99.23","","","","-6","","NA"
"-96.06","50.18","PINAWA","503B1ER","2019-03-16 14:00","2019","03","16","14:00","-1.4","","-16.8","","30","","0.0","","24","","9","","","","99.15","","","","-5","","NA"
"-96.06","50.18","PINAWA","503B1ER","2019-03-16 15:00","2019","03","16","15:00","-0.5","","-15.5","","31","","0.0","","21","","8","","","","99.10","","","","-3","","NA"
"-96.06","50.18","PINAWA","503B1ER","2019-03-16 16:00","2019","03","16","16:00","-0.7","","-14.0","","36","","0.0","","20","","7","","","","99.05","","","","-3","","NA"
"-96.06","50.18","PINAWA","503B1ER","2019-03-16 17:00","2019","03","16","17:00","-0.9","","-12.8","","40","","0.0","","20","","5","","","","99.00","","","","-3","","NA"
"-96.06","50.18","PINAWA","503B1ER","2019-03-16 18:00","2019","03","16","18:00","-1.6","","-12.1","","45","","0.0","","18","","6","","","","98.95","","","","-4","","NA"
"-96.06","50.18","PINAWA","503B1ER","2019-03-16 19:00","2019","03","16","19:00","-2.2","","-10.3","","54","","0.0","","23","","4","","","","98.93","","","","-4","","NA"
"-96.06","50.18","PINAWA","503B1ER","2019-03-16 20:00","2019","03","16","20:00","-3.1","","-7.4","","72","","0.0","","18","","4","","","","98.89","","","","-5","","NA"
"-96.06","50.18","PINAWA","503B1ER","2019-03-16 21:00","2019","03","16","21:00","-3.2","","-6.6","","77","","0.0","","18","","7","","","","98.87","","","","-6","","NA"
"-96.06","50.18","PINAWA","503B1ER","2019-03-16 22:00","2019","03","16","22:00","-3.4","","-6.3","","81","","0.0","","17","","6","","","","98.83","","","","-6","","NA"
"-96.06","50.18","PINAWA","503B1ER","2019-03-16 23:00","2019","03","16","23:00","-4.0","","-7.0","","80","","0.0","","17","","7","","","","98.81","","","","-7","","NA"
"-96.06","50.18","PINAWA","503B1ER","2019-03-17 00:00","2019","03","17","00:00","-4.3","","-7.9","","76","","0.0","","18","","5","","","","98.79","","","","-6","","NA"
"-96.06","50.18","PINAWA","503B1ER","2019-03-17 01:00","2019","03","17","01:00","-4.2","","-7.6","","77","","0.0","","16","","2","","","","98.80","","","","-5","","NA"
"-96.06","50.18","PINAWA","503B1ER","2019-03-17 02:00","2019","03","17","02:00","-5.8","","-8.3","","83","","0.0","","17","","3","","","","98.82","","","","-7","","NA"
"-96.06","50.18","PINAWA","503B1ER","2019-03-17 03:00","2019","03","17","03:00","-7.0","","-9.1","","85","","0.0","","15","","2","","","","98.83","","","","-8","","NA"
"-96.06","50.18","PINAWA","503B1ER","2019-03-17 04:00","2019","03","17","04:00","-7.5","","-9.1","","89","","0.0","","14","","2","","","","98.86","","","","-9","","NA"
"-96.06","50.18","PINAWA","503B1ER","2019-03-17 05:00","2019","03","17","05:00","-7.3","","-8.9","","88","","0.0","","13","","2","","","","98.89","","","","-8","","NA"
"-96.06","50.18","PINAWA","503B1ER","2019-03-17 06:00","2019","03","17","06:00","-7.1","","-8.7","","89","","0.0","","","","0","","","","98.94","","","","","","NA"
"-96.06","50.18","PINAWA","503B1ER","2019-03-17 07:00","2019","03","17","07:00","-6.1","","-7.2","","92","","0.0","","14","","4","","","","98.98","","","","-8","","NA"
"-96.06","50.18","PINAWA","503B1ER","2019-03-17 08:00","2019","03","17","08:00","-5.9","","-7.6","","87","","0.0","","17","","7","","","","99.04","","","","-9","","NA"
"-96.06","50.18","PINAWA","503B1ER","2019-03-17 09:00","2019","03","17","09:00","-5.6","","-7.8","","84","","0.0","","15","","6","","","","99.07","","","","-8","","NA"
"-96.06","50.18","PINAWA","503B1ER","2019-03-17 10:00","2019","03","17","10:00","-5.9","","-8.0","","85","","0.0","","16","","7","","","","99.13","","","","-9","","NA"
"-96.06","50.18","PINAWA","503B1ER","2019-03-17 11:00","2019","03","17","11:00","-4.0","","-8.5","","71","","0.0","","14","","5","","","","99.16","","","","-6","","NA"
"-96.06","50.18","PINAWA","503B1ER","2019-03-17 12:00","2019","03","17","12:00","-1.5","","-7.4","","64","","0.2","","17","","5","","","","99.14","","","","-3","","NA"
"-96.06","50.18","PINAWA","503B1ER","2019-03-17 13:00","2019","03","17","13:00","1.0","","-7.4","","53","","0.0","","20","","5","","","","99.13","","","","","","NA"
"-96.06","50.18","PINAWA","503B1ER","2019-03-17 14:00","2019","03","17","14:00","1.0","","-6.2","","59","","0.0","","1","","7","","","","99.12","","","","","","NA"
"-96.06","50.18","PINAWA","503B1ER","2019-03-17 15:00","2019","03","17","15:00","1.5","","-5.8","","58","","0.0","","1","","10","","","","99.13","","","","","","NA"
"-96.06","50.18","PINAWA","503B1ER","2019-03-17 16:00","2019","03","17","16:00","1.6","","-4.8","","63","","0.0","","35","","8","","","","99.16","","","","","","NA"
"-96.06","50.18","PINAWA","503B1ER","2019-03-17 17:00","2019","03","17","17:00","1.7","","-5.0","","61","","0.0","","33","","9","","","","99.20","","","","","","NA"
"-96.06","50.18","PINAWA","503B1ER","2019-03-17 18:00","2019","03","17","18:00","0.8","","-4.2","","69","","0.0","","29","","10","","","","99.23","","","","","","NA"
"-96.06","50.18","PINAWA","503B1ER","2019-03-17 19:00","2019","03","17","19:00","-0.2","","-4.3","","74","","0.0","","29","","5","","","","99.25","","","","-2","","NA"
"-96.06","50.18","PINAWA","503B1ER","2019-03-17 20:00","2019","03","17","20:00","-2.5","","-5.6","","79","","0.0","","28","","1","","","","99.26","","","","-3","","NA"
"-96.06","50.18","PINAWA","503B1ER","2019-03-17 21:00","2019","03","17","21:00","-3.8","","-5.8","","86","","0.0","","","","0","","","","99.26","","","","","","NA"
"-96.06","50.18","PINAWA","503B1ER","2019-03-17 22:00","2019","03","17","22:00","-4.9","","-6.3","","90","","0.0","","0","","1","","","","99.27","","","","-5","","NA"
"-96.06","50.18","PINAWA","503B1ER","2019-03-17 23:00","2019","03","17","23:00","-5.6","","-7.0","","90","","0.0","","21","","2","","","","99.29","","","","-7","","NA"
"-96.06","50.18","PINAWA","503B1ER","2019-03-18 00:00","2019","03","18","00:00","-7.3","","-8.3","","92","","0.0","","21","","1","","","","99.28","","","","-8","","NA"
"-96.06","50.18","PINAWA","503B1ER","2019-03-18 01:00","2019","03","18","01:00","-8.9","","-9.9","","92","","0.0","","20","","2","","","","99.26","","","","-10","","NA"
"-96.06","50.18","PINAWA","503B1ER","2019-03-18 02:00","2019","03","18","02:00","-9.8","","-11.1","","90","","0.0","","20","","4","","","","99.22","","","","-12","","NA"
"-96.06","50.18","PINAWA","503B1ER","2019-03-18 03:00","2019","03","18","03:00","-7.3","","-8.2","","93","","0.3","","23","","4","","","","99.17","","","","-9","","NA"
"-96.06","50.18","PINAWA","503B1ER","2019-03-18 04:00","2019","03","18","04:00","-6.9","","-7.8","","93","","0.0","","19","","2","","","","99.11","","","","-8","","NA"
"-96.06","50.18","PINAWA","503B1ER","2019-03-18 05:00","2019","03","18","05:00","-6.2","","-7.2","","92","","0.2","","19","","4","","","","99.08","","","","-8","","NA"
"-96.06","50.18","PINAWA","503B1ER","2019-03-18 06:00","2019","03","18","06:00","-6.6","","-7.9","","91","","0.0","","18","","5","","","","99.01","","","","-9","","NA"
"-96.06","50.18","PINAWA","503B1ER","2019-03-18 07:00","2019","03","18","07:00","-6.5","","-7.9","","89","","0.0","","17","","5","","","","98.94","","","","-9","","NA"
"-96.06","50.18","PINAWA","503B1ER","2019-03-18 08:00","2019","03","18","08:00"
"-96.06","50.18","PINAWA","503B1ER","2019-03-18 09:00","2019","03","18","09:00","-2.8","","-7.0","","73","","0.0","","17","","8","","","","98.76","","","","-6","","NA"
"-96.06","50.18","PINAWA","503B1ER","2019-03-18 10:00","2019","03","18","10:00","-0.4","","-6.9","","62","","0.0","","16","","5","","","","98.73","","","","-2","","NA"
"-96.06","50.18","PINAWA","503B1ER","2019-03-18 11:00","2019","03","18","11:00","0.9","","-7.0","","56","","0.0","","16","","10","","","","98.66","","","","","","NA"
"-96.06","50.18","PINAWA","503B1ER","2019-03-18 12:00","2019","03","18","12:00","3.0","","-7.8","","45","","0.0","","18","","7","","","","98.58","","","","","","NA"
"-96.06","50.18","PINAWA","503B1ER","2019-03-18 13:00","2019","03","18","13:00","3.4","","-8.0","","43","","0.0","","21","","7","","","","98.56","","","","","","NA"
"-96.06","50.18","PINAWA","503B1ER","2019-03-18 14:00","2019","03","18","14:00","3.6","","-7.8","","43","","0.0","","21","","10","","","","98.50","","","","","","NA"
"-96.06","50.18","PINAWA","503B1ER","2019-03-18 15:00","2019","03","18","15:00","2.8","","-5.4","","55","","0.0","","25","","9","","","","98.52","","","","","","NA"
"-96.06","50.18","PINAWA","503B1ER","2019-03-18 16:00","2019","03","18","16:00","2.0","","-5.2","","59","","0.0","","22","","8","","","","98.51","","","","","","NA"
"-96.06","50.18","PINAWA","503B1ER","2019-03-18 17:00","2019","03","18","17:00","2.2","","-5.3","","58","","0.0","","20","","4","","","","98.54","","","","","","NA"
"-96.06","50.18","PINAWA","503B1ER","2019-03-18 18:00","2019","03","18","18:00","2.5","","-6.0","","53","","0.0","","23","","6","","","","98.57","","","","","","NA"
"-96.06","50.18","PINAWA","503B1ER","2019-03-18 19:00","2019","03","18","19:00","1.0","","-5.5","","62","","0.0","","23","","3","","","","98.61","","","","","","NA"
"-96.06","50.18","PINAWA","503B1ER","2019-03-18 20:00","2019","03","18","20:00","-1.7","","-5.6","","75","","0.2","","16","","2","","","","98.64","","","","-2","","NA"
"-96.06","50.18","PINAWA","503B1ER","2019-03-18 21:00","2019","03","18","21:00","-3.3","","-5.8","","83","","0.0","","4","","2","","","","98.69","","","","-4","","NA"
"-96.06","50.18","PINAWA","503B1ER","2019-03-18 22:00","2019","03","18","22:00","-5.3","","-7.3","","86","","0.0","","0","","1","","","","98.69","","","","-6","","NA"
"-96.06","50.18","PINAWA","503B1ER","2019-03-18 23:00","2019","03","18","23:00","-6.8","","-8.3","","89","","0.0","","17","","2","","","","98.72","","","","-8","","NA"
"-96.06","50.18","PINAWA","503B1ER","2019-03-19 00:00","2019","03","19","00:00","-7.4","","-8.9","","89","","0.0","","0","","1","","","","98.71","","","","-8","","NA"
"-96.06","50.18","PINAWA","503B1ER","2019-03-19 01:00","2019","03","19","01:00","-8.6","","-9.8","","91","","0.0","","16","","4","","","","98.73","","","","-11","","NA"
"-96.06","50.18","PINAWA","503B1ER","2019-03-19 02:00","2019","03","19","02:00","-9.5","","-11.0","","89","","0.0","","19","","2","","","","98.74","","","","-11","","NA"
"-96.06","50.18","PINAWA","503B1ER","2019-03-19 03:00","2019","03","19","03:00","-10.5","","-11.9","","89","","0.0","","18","","3","","","","98.71","","","","-12","","NA"
"-96.06","50.18","PINAWA","503B1ER","2019-03-19 04:00","2019","03","19","04:00","-8.7","","-9.5","","94","","0.0","","17","","2","","","","98.73","","","","-10","","NA"
"-96.06","50.18","PINAWA","503B1ER","2019-03-19 05:00","2019","03","19","05:00","-7.1","","-8.2","","91","","0.0","","16","","4","","","","98.73","","","","-9","","NA"
"-96.06","50.18","PINAWA","503B1ER","2019-03-19 06:00","2019","03","19","06:00","-7.3","","-8.5","","91","","0.0","","17","","7","","","","98.70","","","","-11","","NA"
"-96.06","50.18","PINAWA","503B1ER","2019-03-19 07:00","2019","03","19","07:00","-7.4","","-8.6","","91","","0.0","","17","","6","","","","98.71","","","","-11","","NA"
"-96.06","50.18","PINAWA","503B1ER","2019-03-19 08:00","2019","03","19","08:00","-6.5","","-7.6","","92","","0.0","","18","","3","","","","98.72","","","","-8","","NA"
"-96.06","50.18","PINAWA","503B1ER","2019-03-19 09:00","2019","03","19","09:00","-5.3","","-6.4","","92","","0.0","","16","","6","","","","98.67","","","","-8","","NA"
"-96.06","50.18","PINAWA","503B1ER","2019-03-19 10:00","2019","03","19","10:00","-2.8","","-4.2","","90","","0.0","","17","","5","","","","98.58","","","","-5","","NA"
"-96.06","50.18","PINAWA","503B1ER","2019-03-19 11:00","2019","03","19","11:00","0.6","","-4.0","","71","","0.0","","23","","8","","","","98.50","","","","","","NA"
"-96.06","50.18","PINAWA","503B1ER","2019-03-19 12:00","2019","03","19","12:00","3.4","","-3.6","","60","","0.0","","20","","11","","","","98.38","","","","","","NA"
"-96.06","50.18","PINAWA","503B1ER","2019-03-19 13:00","2019","03","19","13:00","4.9","","-3.6","","54","","0.0","","22","","10","","","","98.28","","","","","","NA"
"-96.06","50.18","PINAWA","503B1ER","2019-03-19 14:00","2019","03","19","14:00","4.3","","-4.0","","55","","0.0","","25","","13","","","","98.22","","","","","","NA"
"-96.06","50.18","PINAWA","503B1ER","2019-03-19 15:00","2019","03","19","15:00","4.4","","-3.5","","56","","0.0","","21","","8","","","","98.09","","","","","","NA"
"-96.06","50.18","PINAWA","503B1ER","2019-03-19 16:00","2019","03","19","16:00","3.7","","-3.1","","61","","0.0","","22","","11","","","","98.00","","","","","","NA"
"-96.06","50.18","PINAWA","503B1ER","2019-03-19 17:00","2019","03","19","17:00","3.9","","-2.9","","61","","0.0","","24","","11","","","","97.87","","","","","","NA"
"-96.06","50.18","PINAWA","503B1ER","2019-03-19 18:00","2019","03","19","18:00","4.0","","-2.7","","61","","0.0","","24","","13","","","","97.84","","","","","","NA"
"-96.06","50.18","PINAWA","503B1ER","2019-03-19 19:00","2019","03","19","19:00","3.2","","-2.4","","67","","0.0","","24","","12","","","","97.77","","","","","","NA"
"-96.06","50.18","PINAWA","503B1ER","2019-03-19 20:00","2019","03","19","20:00","2.4","","-2.1","","72","","0.0","","25","","8","","","","97.81","","","","","","NA"
"-96.06","50.18","PINAWA","503B1ER","2019-03-19 21:00","2019","03","19","21:00","2.1","","-2.1","","73","","0.0","","26","","9","","","","97.77","","","","","","NA"
"-96.06","50.18","PINAWA","503B1ER","2019-03-19 22:00","2019","03","19","22:00","1.8","","-2.0","","76","","0.0","","27","","10","","","","97.78","","","","","","NA"
"-96.06","50.18","PINAWA","503B1ER","2019-03-19 23:00","2019","03","19","23:00","0.4","","-3.0","","78","","0.0","","29","","4","","","","97.80","","","","","","NA"
"-96.06","50.18","PINAWA","503B1ER","2019-03-20 00:00","2019","03","20","00:00","0.6","","-3.1","","76","","0.0","","30","","7","","","","97.86","","","","","","NA"
"-96.06","50.18","PINAWA","503B1ER","2019-03-20 01:00","2019","03","20","01:00","1.5","","-2.9","","73","","0.0","","33","","7","","","","97.90","","","","","","NA"
"-96.06","50.18","PINAWA","503B1ER","2019-03-20 02:00","2019","03","20","02:00","0.4","","-3.5","","75","","0.0","","33","","9","","","","97.97","","","","","","NA"
"-96.06","50.18","PINAWA","503B1ER","2019-03-20 03:00","2019","03","20","03:00","-0.7","","-3.8","","79","","0.0","","34","","7","","","","98.03","","","","-3","","NA"
"-96.06","50.18","PINAWA","503B1ER","2019-03-20 04:00","2019","03","20","04:00","-1.1","","-3.9","","82","","0.0","","35","","9","","","","98.13","","","","-4","","NA"
"-96.06","50.18","PINAWA","503B1ER","2019-03-20 05:00","2019","03","20","05:00","-1.5","","-3.9","","83","","0.0","","36","","9","","","","98.24","","","","-5","","NA"
"-96.06","50.18","PINAWA","503B1ER","2019-03-20 06:00","2019","03","20","06:00","-2.5","","-4.7","","85","","0.0","","34","","7","","","","98.37","","","","-5","","NA"
"-96.06","50.18","PINAWA","503B1ER","2019-03-20 07:00","2019","03","20","07:00","-2.5","","-4.7","","85","","0.0","","33","","6","","","","98.48","","","","-5","","NA"
"-96.06","50.18","PINAWA","503B1ER","2019-03-20 08:00","2019","03","20","08:00","-0.2","","-3.6","","78","","0.0","","36","","7","","","","98.56","","","","-3","","NA"
"-96.06","50.18","PINAWA","503B1ER","2019-03-20 09:00","2019","03","20","09:00","1.2","","-3.4","","71","","0.0","","36","","8","","","","98.61","","","","","","NA"
"-96.06","50.18","PINAWA","503B1ER","2019-03-20 10:00","2019","03","20","10:00","2.6","","-3.0","","66","","0.0","","1","","11","","","","98.67","","","","","","NA"
"-96.06","50.18","PINAWA","503B1ER","2019-03-20 11:00","2019","03","20","11:00","3.5","","-4.6","","55","","0.0","","36","","8","","","","98.71","","","","","","NA"
"-96.06","50.18","PINAWA","503B1ER","2019-03-20 12:00","2019","03","20","12:00","3.9","","-4.6","","54","","0.0","","34","","13","","","","98.71","","","","","","NA"
"-96.06","50.18","PINAWA","503B1ER","2019-03-20 13:00","2019","03","20","13:00","4.1","","-4.5","","53","","0.0","","32","","14","","","","98.76","","","","","","NA"
"-96.06","50.18","PINAWA","503B1ER","2019-03-20 14:00","2019","03","20","14:00","4.9","","-5.0","","48","","0.0","","33","","7","","","","98.74","","","","","","NA"
"-96.06","50.18","PINAWA","503B1ER","2019-03-20 15:00","2019","03","20","15:00","5.8","","-4.9","","46","","0.0","","33","","8","","","","98.70","","","","","","NA"
"-96.06","50.18","PINAWA","503B1ER","2019-03-20 16:00","2019","03","20","16:00","5.6","","-3.9","","51","","0.0","","28","","10","","","","98.71","","","","","","NA"
"-96.06","50.18","PINAWA","503B1ER","2019-03-20 17:00","2019","03","20","17:00","4.9","","-3.3","","55","","0.0","","30","","14","","","","98.71","","","","","","NA"
"-96.06","50.18","PINAWA","503B1ER","2019-03-20 18:00","2019","03","20","18:00","4.2","","-3.4","","58","","0.0","","27","","8","","","","98.71","","","","","","NA"
"-96.06","50.18","PINAWA","503B1ER","2019-03-20 19:00","2019","03","20","19:00","2.2","","-3.4","","66","","0.0","","26","","4","","","","98.70","","","","","","NA"
"-96.06","50.18","PINAWA","503B1ER","2019-03-20 20:00","2019","03","20","20:00","1.2","","-3.2","","72","","0.0","","24","","5","","","","98.66","","","","","","NA"
"-96.06","50.18","PINAWA","503B1ER","2019-03-20 21:00","2019","03","20","21:00","0.5","","-2.8","","79","","0.0","","23","","5","","","","98.61","","","","","","NA"
"-96.06","50.18","PINAWA","503B1ER","2019-03-20 22:00","2019","03","20","22:00","-0.2","","-3.0","","81","","0.0","","24","","6","","","","98.56","","","","-2","","NA"
"-96.06","50.18","PINAWA","503B1ER","2019-03-20 23:00","2019","03","20","23:00","-0.8","","-3.0","","85","","0.0","","19","","4","","","","98.49","","","","-2","","NA"
"-96.06","50.18","PINAWA","503B1ER","2019-03-21 00:00","2019","03","21","00:00","-1.2","","-3.1","","87","","0.0","","19","","6","","","","98.40","","","","-3","","NA"
"-96.06","50.18","PINAWA","503B1ER","2019-03-21 01:00","2019","03","21","01:00","-0.3","","-2.7","","84","","0.0","","20","","7","","","","98.30","","","","-3","","NA"
"-96.06","50.18","PINAWA","503B1ER","2019-03-21 02:00","2019","03","21","02:00","0.2","","-2.8","","80","","0.0","","22","","6","","","","98.21","","","","","","NA"
"-96.06","50.18","PINAWA","503B1ER","2019-03-21 03:00","2019","03","21","03:00","0.7","","-2.8","","77","","0.0","","24","","11","","","","98.12","","","","","","NA"
"-96.06","50.18","PINAWA","503B1ER","2019-03-21 04:00","2019","03","21","04:00","0.3","","-3.0","","78","","0.0","","26","","9","","","","98.11","","","","","","NA"
"-96.06","50.18","PINAWA","503B1ER","2019-03-21 05:00","2019","03","21","05:00","-0.3","","-3.0","","82","","0.0","","27","","8","","","","98.10","","","","-3","","NA"
"-96.06","50.18","PINAWA","503B1ER","2019-03-21 06:00","2019","03","21","06:00","-0.3","","-2.8","","83","","0.0","","29","","8","","","","98.15","","","","-3","","NA"
"-96.06","50.18","PINAWA","503B1ER","2019-03-21 07:00","2019","03","21","07:00","0.2","","-3.0","","79","","0.0","","31","","12","","","","98.24","","","","","","NA"
"-96.06","50.18","PINAWA","503B1ER","2019-03-21 08:00","2019","03","21","08:00","1.2","","-3.7","","70","","0.0","","33","","10","","","","98.31","","","","","","NA"
"-96.06","50.18","PINAWA","503B1ER","2019-03-21 09:00","2019","03","21","09:00","2.3","","-3.8","","64","","0.0","","34","","13","","","","98.39","","","","","","NA"
"-96.06","50.18","PINAWA","503B1ER","2019-03-21 10:00","2019","03","21","10:00","4.4","","-4.0","","54","","0.0","","36","","9","","","","98.46","","","","","","NA"
"-96.06","50.18","PINAWA","503B1ER","2019-03-21 11:00","2019","03","21","11:00","4.9","","-3.8","","53","","0.0","","32","","17","","","","98.49","","","","","","NA"
"-96.06","50.18","PINAWA","503B1ER","2019-03-21 12:00","2019","03","21","12:00","5.6","","-4.0","","50","","0.0","","32","","24","","","","98.52","","","","","","NA"
"-96.06","50.18","PINAWA","503B1ER","2019-03-21 13:00","2019","03","21","13:00","5.8","","-4.1","","49","","0.0","","33","","19","","","","98.54","","","","","","NA"
"-96.06","50.18","PINAWA","503B1ER","2019-03-21 14:00","2019","03","21","14:00","6.0","","-4.1","","48","","0.0","","32","","22","","","","98.57","","","","","","NA"
"-96.06","50.18","PINAWA","503B1ER","2019-03-21 15:00","2019","03","21","15:00","6.3","","-4.1","","47","","0.0","","34","","15","","","","98.62","","","","","","NA"
"-96.06","50.18","PINAWA","503B1ER","2019-03-21 16:00","2019","03","21","16:00","5.9","","-3.3","","52","","0.0","","32","","20","","","","98.64","","","","","","NA"
"-96.06","50.18","PINAWA","503B1ER","2019-03-21 17:00","2019","03","21","17:00","5.4","","-3.3","","54","","0.0","","34","","16","","","","98.71","","","","","","NA"
"-96.06","50.18","PINAWA","503B1ER","2019-03-21 18:00","2019","03","21","18:00","4.6","","-3.0","","58","","0.0","","32","","19","","","","98.75","","","","","","NA"
"-96.06","50.18","PINAWA","503B1ER","2019-03-21 19:00","2019","03","21","19:00","2.7","","-3.2","","65","","0.0","","33","","14","","","","98.82","","","","","","NA"
"-96.06","50.18","PINAWA","503B1ER","2019-03-21 20:00","2019","03","21","20:00","2.6","","-4.2","","61","","0.0","","33","","14","","","","98.88","","","","","","NA"
"-96.06","50.18","PINAWA","503B1ER","2019-03-21 21:00","2019","03","21","21:00","1.6","","-4.4","","64","","0.0","","34","","11","","","","98.94","","","","","","NA"
"-96.06","50.18","PINAWA","503B1ER","2019-03-21 22:00","2019","03","21","22:00","0.7","","-4.5","","69","","0.0","","34","","8","","","","98.98","","","","","","NA"
"-96.06","50.18","PINAWA","503B1ER","2019-03-21 23:00","2019","03","21","23:00","-0.1","","-4.7","","71","","0.0","","34","","7","","","","99.06","","","","-3","","NA"
"-96.06","50.18","PINAWA","503B1ER","2019-03-22 00:00","2019","03","22","00:00","-0.8","","-4.9","","74","","0.0","","36","","5","","","","99.09","","","","-2","","NA"
"-96.06","50.18","PINAWA","503B1ER","2019-03-22 01:00","2019","03","22","01:00","-2.2","","-5.3","","80","","0.0","","34","","5","","","","99.13","","","","-4","","NA"
"-96.06","50.18","PINAWA","503B1ER","2019-03-22 02:00","2019","03","22","02:00","-3.4","","-5.6","","84","","0.0","","34","","5","","","","99.20","","","","-5","","NA"
"-96.06","50.18","PINAWA","503B1ER","2019-03-22 03:00","2019","03","22","03:00","-4.8","","-6.3","","89","","0.0","","35","","3","","","","99.21","","","","-6","","NA"
"-96.06","50.18","PINAWA","503B1ER","2019-03-22 04:00","2019","03","22","04:00","-6.3","","-7.5","","91","","0.0","","7","","2","","","","99.19","","","","-7","","NA"
"-96.06","50.18","PINAWA","503B1ER","2019-03-22 05:00","2019","03","22","05:00","-7.0","","-8.0","","93","","0.0","","3","","2","","","","99.25","","","","-8","","NA"
"-96.06","50.18","PINAWA","503B1ER","2019-03-22 06:00","2019","03","22","06:00","-8.4","","-9.6","","91","","0.0","","0","","1","","","","99.29","","","","-9","","NA"
"-96.06","50.18","PINAWA","503B1ER","2019-03-22 07:00","2019","03","22","07:00","-8.6","","-10.1","","89","","0.0","","0","","1","","","","99.33","","","","-9","","NA"
"-96.06","50.18","PINAWA","503B1ER","2019-03-22 08:00","2019","03","22","08:00","-6.0","","-9.4","","77","","0.0","","15","","2","","","","99.35","","","","-7","","NA"
"-96.06","50.18","PINAWA","503B1ER","2019-03-22 09:00","2019","03","22","09:00","-1.5","","-8.5","","59","","0.0","","20","","4","","","","99.37","","","","-3","","NA"
"-96.06","50.18","PINAWA","503B1ER","2019-03-22 10:00","2019","03","22","10:00","-0.1","","-8.8","","52","","0.0","","20","","6","","","","99.35","","","","-2","","NA"
"-96.06","50.18","PINAWA","503B1ER","2019-03-22 11:00","2019","03","22","11:00","0.9","","-9.5","","46","","0.0","","20","","9","","","","99.32","","","","","","NA"
"-96.06","50.18","PINAWA","503B1ER","2019-03-22 12:00","2019","03","22","12:00","2.6","","-13.6","","29","","0.0","","13","","2","","","","99.27","","","","","","NA"
"-96.06","50.18","PINAWA","503B1ER","2019-03-22 13:00","2019","03","22","13:00","4.2","","-11.0","","32","","0.0","","17","","7","","","","99.21","","","","","","NA"
"-96.06","50.18","PINAWA","503B1ER","2019-03-22 14:00","2019","03","22","14:00","4.8","","-10.5","","32","","0.0","","16","","9","","","","99.16","","","","","","NA"
"-96.06","50.18","PINAWA","503B1ER","2019-03-22 15:00","2019","03","22","15:00","6.0","","-9.5","","32","","0.0","","16","","6","","","","99.10","","","","","","NA"
"-96.06","50.18","PINAWA","503B1ER","2019-03-22 16:00","2019","03","22","16:00","6.0","","-7.5","","37","","0.0","","24","","6","","","","99.03","","","","","","NA"
"-96.06","50.18","PINAWA","503B1ER","2019-03-22 17:00","2019","03","22","17:00","4.9","","-7.2","","41","","0.0","","25","","7","","","","98.98","","","","","","NA"
"-96.06","50.18","PINAWA","503B1ER","2019-03-22 18:00","2019","03","22","18:00","3.8","","-6.5","","47","","0.2","","26","","6","","","","98.92","","","","","","NA"
"-96.06","50.18","PINAWA","503B1ER","2019-03-22 19:00","2019","03","22","19:00","1.2","","-6.4","","57","","0.0","","23","","3","","","","98.90","","","","","","NA"
"-96.06","50.18","PINAWA","503B1ER","2019-03-22 20:00","2019","03","22","20:00","0.6","","-6.3","","60","","0.0","","18","","4","","","","98.85","","","","","","NA"
"-96.06","50.18","PINAWA","503B1ER","2019-03-22 21:00","2019","03","22","21:00","0.1","","-6.0","","63","","0.0","","18","","6","","","","98.81","","","","","","NA"
"-96.06","50.18","PINAWA","503B1ER","2019-03-22 22:00","2019","03","22","22:00","-0.9","","-6.1","","68","","0.0","","17","","5","","","","98.75","","","","-3","","NA"
"-96.06","50.18","PINAWA","503B1ER","2019-03-22 23:00","2019","03","22","23:00","-1.5","","-6.4","","69","","0.0","","18","","5","","","","98.72","","","","-3","","NA"
"-96.06","50.18","PINAWA","503B1ER","2019-03-23 00:00","2019","03","23","00:00","-2.0","","-7.1","","68","","0.0","","19","","7","","","","98.68","","","","-5","","NA"
"-96.06","50.18","PINAWA","503B1ER","2019-03-23 01:00","2019","03","23","01:00","-2.1","","-7.4","","67","","0.0","","18","","6","","","","98.64","","","","-4","","NA"
"-96.06","50.18","PINAWA","503B1ER","2019-03-23 02:00","2019","03","23","02:00","-2.1","","-7.3","","67","","0.0","","18","","7","","","","98.58","","","","-5","","NA"
"-96.06","50.18","PINAWA","503B1ER","2019-03-23 03:00","2019","03","23","03:00","-1.9","","-7.1","","67","","0.0","","18","","7","","","","98.54","","","","-5","","NA"
"-96.06","50.18","PINAWA","503B1ER","2019-03-23 04:00","2019","03","23","04:00","-2.2","","-7.3","","68","","0.0","","18","","7","","","","98.49","","","","-5","","NA"
"-96.06","50.18","PINAWA","503B1ER","2019-03-23 05:00","2019","03","23","05:00","-3.0","","-7.5","","71","","0.0","","19","","7","","","","98.49","","","","-6","","NA"
"-96.06","50.18","PINAWA","503B1ER","2019-03-23 06:00","2019","03","23","06:00","-3.7","","-7.7","","74","","0.0","","18","","8","","","","98.45","","","","-7","","NA"
"-96.06","50.18","PINAWA","503B1ER","2019-03-23 07:00","2019","03","23","07:00","-2.6","","-7.2","","70","","0.0","","19","","6","","","","98.39","","","","-5","","NA"
"-96.06","50.18","PINAWA","503B1ER","2019-03-23 08:00","2019","03","23","08:00","-0.4","","-6.7","","62","","0.0","","20","","5","","","","98.37","","","","-2","","NA"
"-96.06","50.18","PINAWA","503B1ER","2019-03-23 09:00","2019","03","23","09:00","2.9","","-6.4","","51","","0.0","","23","","6","","","","98.32","","","","","","NA"
"-96.06","50.18","PINAWA","503B1ER","2019-03-23 10:00","2019","03","23","10:00","4.2","","-5.6","","49","","0.0","","24","","11","","","","98.30","","","","","","NA"
"-96.06","50.18","PINAWA","503B1ER","2019-03-23 11:00","2019","03","23","11:00","5.0","","-5.0","","48","","0.0","","25","","13","","","","98.30","","","","","","NA"
"-96.06","50.18","PINAWA","503B1ER","2019-03-23 12:00","2019","03","23","12:00","5.9","","-4.9","","46","","0.0","","27","","10","","","","98.30","","","","","","NA"
"-96.06","50.18","PINAWA","503B1ER","2019-03-23 13:00","2019","03","23","13:00","6.5","","-4.6","","45","","0.0","","24","","10","","","","98.27","","","","","","NA"
"-96.06","50.18","PINAWA","503B1ER","2019-03-23 14:00","2019","03","23","14:00","6.4","","-4.1","","47","","0.0","","24","","9","","","","98.27","","","","","","NA"
"-96.06","50.18","PINAWA","503B1ER","2019-03-23 15:00","2019","03","23","15:00","6.4","","-3.8","","48","","0.0","","27","","9","","","","98.28","","","","","","NA"
"-96.06","50.18","PINAWA","503B1ER","2019-03-23 16:00","2019","03","23","16:00","5.8","","-2.8","","54","","0.0","","29","","11","","","","98.34","","","","","","NA"
"-96.06","50.18","PINAWA","503B1ER","2019-03-23 17:00","2019","03","23","17:00","5.8","","-2.2","","56","","0.0","","29","","11","","","","98.37","","","","","","NA"
"-96.06","50.18","PINAWA","503B1ER","2019-03-23 18:00","2019","03","23","18:00","4.9","","-1.7","","62","","0.0","","30","","10","","","","98.43","","","","","","NA"
"-96.06","50.18","PINAWA","503B1ER","2019-03-23 19:00","2019","03","23","19:00","3.4","","-1.2","","72","","0.0","","29","","10","","","","98.51","","","","","","NA"
"-96.06","50.18","PINAWA","503B1ER","2019-03-23 20:00","2019","03","23","20:00","3.2","","-1.1","","73","","0.0","","32","","10","","","","98.60","","","","","","NA"
"-96.06","50.18","PINAWA","503B1ER","2019-03-23 21:00","2019","03","23","21:00","1.9","","-3.1","","70","","0.0","","2","","17","","","","98.77","","","","","","NA"
"-96.06","50.18","PINAWA","503B1ER","2019-03-23 22:00","2019","03","23","22:00","0.2","","-4.3","","71","","0.0","","4","","19","","","","98.93","","","","","","NA"
"-96.06","50.18","PINAWA","503B1ER","2019-03-23 23:00","2019","03","23","23:00","-0.9","","-6.1","","67","","0.0","","4","","19","","","","99.04","","","","-6","","NA"
"-96.06","50.18","PINAWA","503B1ER","2019-03-24 00:00","2019","03","24","00:00","-2.3","","-9.2","","59","","0.0","","4","","17","","","","99.18","","","","-8","","NA"
"-96.06","50.18","PINAWA","503B1ER","2019-03-24 01:00","2019","03","24","01:00","-3.8","","-12.9","","49","","0.0","","5","","15","","","","99.28","","","","-9","","NA"
"-96.06","50.18","PINAWA","503B1ER","2019-03-24 02:00","2019","03","24","02:00","-5.5","","-14.6","","49","","0.0","","4","","14","","","","99.40","","","","-11","","NA"
"-96.06","50.18","PINAWA","503B1ER","2019-03-24 03:00","2019","03","24","03:00","-7.1","","-16.5","","47","","0.0","","5","","17","","","","99.46","","","","-14","","NA"
"-96.06","50.18","PINAWA","503B1ER","2019-03-24 04:00","2019","03","24","04:00","-8.5","","-17.3","","49","","0.0","","5","","15","","","","99.55","","","","-15","","NA"
"-96.06","50.18","PINAWA","503B1ER","2019-03-24 05:00","2019","03","24","05:00","-9.8","","-18.3","","50","","0.0","","5","","13","","","","99.65","","","","-16","","NA"
"-96.06","50.18","PINAWA","503B1ER","2019-03-24 06:00","2019","03","24","06:00","-11.0","","-19.8","","48","","0.0","","5","","13","","","","99.70","","","","-17","","NA"
"-96.06","50.18","PINAWA","503B1ER","2019-03-24 07:00","2019","03","24","07:00","-11.3","","-20.4","","47","","0.0","","6","","11","","","","99.79","","","","-17","","NA"
"-96.06","50.18","PINAWA","503B1ER","2019-03-24 08:00","2019","03","24","08:00","-10.8","","-21.1","","42","","0.0","","6","","9","","","","99.84","","","","-16","","NA"
"-96.06","50.18","PINAWA","503B1ER","2019-03-24 09:00","2019","03","24","09:00","-9.1","","-22.0","","35","","0.0","","7","","11","","","","99.86","","","","-15","","NA"
"-96.06","50.18","PINAWA","503B1ER","2019-03-24 10:00","2019","03","24","10:00","-8.0","","-22.7","","30","","0.0","","5","","10","","","","99.90","","","","-13","","NA"
"-96.06","50.18","PINAWA","503B1ER","2019-03-24 11:00","2019","03","24","11:00","-6.6","","-22.1","","28","","0.0","","4","","13","","","","99.88","","","","-12","","NA"
"-96.06","50.18","PINAWA","503B1ER","2019-03-24 12:00","2019","03","24","12:00","-4.7","","-21.2","","26","","0.0","","4","","13","","","","99.86","","","","-10","","NA"
"-96.06","50.18","PINAWA","503B1ER","2019-03-24 13:00","2019","03","24","13:00","-3.3","","-22.4","","21","","0.0","","3","","13","","","","99.82","","","","-8","","NA"
"-96.06","50.18","PINAWA","503B1ER","2019-03-24 14:00","2019","03","24","14:00","-1.6","","-23.9","","16","","0.0","","7","","9","","","","99.79","","","","-5","","NA"
"-96.06","50.18","PINAWA","503B1ER","2019-03-24 15:00","2019","03","24","15:00","-0.8","","-20.7","","20","","0.0","","3","","8","","","","99.79","","","","-4","","NA"
"-96.06","50.18","PINAWA","503B1ER","2019-03-24 16:00","2019","03","24","16:00","-0.7","","-18.8","","24","","0.0","","34","","11","","","","99.78","","","","-4","","NA"
"-96.06","50.18","PINAWA","503B1ER","2019-03-24 17:00","2019","03","24","17:00","-0.6","","-19.4","","23","","0.0","","35","","10","","","","99.76","","","","-4","","NA"
"-96.06","50.18","PINAWA","503B1ER","2019-03-24 18:00","2019","03","24","18:00","-1.1","","-20.4","","22","","0.0","","36","","10","","","","99.78","","","","-5","","NA"
"-96.06","50.18","PINAWA","503B1ER","2019-03-24 19:00","2019","03","24","19:00","-2.8","","-16.4","","34","","0.0","","34","","6","","","","99.82","","","","-5","","NA"
"-96.06","50.18","PINAWA","503B1ER","2019-03-24 20:00","2019","03","24","20:00","-4.7","","-16.5","","39","","0.0","","34","","7","","","","99.85","","","","-8","","NA"
"-96.06","50.18","PINAWA","503B1ER","2019-03-24 21:00","2019","03","24","21:00","-5.9","","-16.0","","45","","0.0","","34","","4","","","","99.86","","","","-8","","NA"
"-96.06","50.18","PINAWA","503B1ER","2019-03-24 22:00","2019","03","24","22:00","-7.7","","-15.1","","55","","0.0","","35","","5","","","","99.87","","","","-10","","NA"
"-96.06","50.18","PINAWA","503B1ER","2019-03-24 23:00","2019","03","24","23:00","-9.7","","-14.5","","68","","0.0","","34","","2","","","","99.90","","","","-11","","NA"
"-96.06","50.18","PINAWA","503B1ER","2019-03-25 00:00","2019","03","25","00:00","-9.2","","-14.8","","64","","0.0","","35","","6","","","","99.91","","","","-13","","NA"
"-96.06","50.18","PINAWA","503B1ER","2019-03-25 01:00","2019","03","25","01:00","-9.9","","-15.6","","63","","0.0","","36","","5","","","","99.90","","","","-13","","NA"
"-96.06","50.18","PINAWA","503B1ER","2019-03-25 02:00","2019","03","25","02:00","-11.2","","-16.0","","68","","0.0","","36","","4","","","","99.87","","","","-14","","NA"
"-96.06","50.18","PINAWA","503B1ER","2019-03-25 03:00","2019","03","25","03:00","-13.0","","-16.3","","76","","0.0","","33","","3","","","","99.89","","","","-15","","NA"
"-96.06","50.18","PINAWA","503B1ER","2019-03-25 04:00","2019","03","25","04:00","-13.0","","-16.4","","76","","0.0","","33","","3","","","","99.87","","","","-15","","NA"
"-96.06","50.18","PINAWA","503B1ER","2019-03-25 05:00","2019","03","25","05:00","-14.8","","-17.0","","83","","0.0","","34","","3","","","","99.90","","","","-17","","NA"
"-96.06","50.18","PINAWA","503B1ER","2019-03-25 06:00","2019","03","25","06:00","-16.0","","-18.1","","84","","0.0","","35","","1","","","","99.90","","","","-17","","NA"
"-96.06","50.18","PINAWA","503B1ER","2019-03-25 07:00","2019","03","25","07:00","-15.7","","-18.3","","80","","0.0","","28","","1","","","","99.91","","","","-16","","NA"
"-96.06","50.18","PINAWA","503B1ER","2019-03-25 08:00","2019","03","25","08:00","-12.4","","-18.0","","63","","0.0","","35","","4","","","","99.93","","","","-15","","NA"
"-96.06","50.18","PINAWA","503B1ER","2019-03-25 09:00","2019","03","25","09:00","-9.0","","-18.1","","47","","0.0","","28","","1","","","","99.91","","","","-10","","NA"
"-96.06","50.18","PINAWA","503B1ER","2019-03-25 10:00","2019","03","25","10:00","-5.3","","-17.5","","38","","0.0","","32","","3","","","","99.89","","","","-7","","NA"
"-96.06","50.18","PINAWA","503B1ER","2019-03-25 11:00","2019","03","25","11:00","-3.6","","-19.5","","28","","0.0","","33","","9","","","","99.89","","","","-7","","NA"
"-96.06","50.18","PINAWA","503B1ER","2019-03-25 12:00","2019","03","25","12:00","-2.4","","-17.4","","30","","0.0","","36","","9","","","","99.87","","","","-6","","NA"
"-96.06","50.18","PINAWA","503B1ER","2019-03-25 13:00","2019","03","25","13:00","-1.2","","-20.3","","22","","","M","1","","10","","","","99.83","","","","-5","","NA"
"-96.06","50.18","PINAWA","503B1ER","2019-03-25 14:00","2019","03","25","14:00","-0.3","","-20.9","","19","","","M","34","","8","","","","99.76","","","","-3","","NA"
"-96.06","50.18","PINAWA","503B1ER","2019-03-25 15:00","2019","03","25","15:00","0.0","","-18.9","","23","","","M","2","","8","","","","99.70","","","","-3","","NA"
"-96.06","50.18","PINAWA","503B1ER","2019-03-25 16:00","2019","03","25","16:00","0.8","","-18.6","","22","","","M","28","","8","","","","99.65","","","","","","NA"
"-96.06","50.18","PINAWA","503B1ER","2019-03-25 17:00","2019","03","25","17:00","0.4","","-19.8","","20","","","M","29","","10","","","","99.63","","","","","","NA"
"-96.06","50.18","PINAWA","503B1ER","2019-03-25 18:00","2019","03","25","18:00","-0.8","","-17.3","","27","","","M","29","","11","","","","99.63","","","","-5","","NA"
"-96.06","50.18","PINAWA","503B1ER","2019-03-25 19:00","2019","03","25","19:00","-2.9","","-17.9","","30","","","M","25","","1","","","","99.59","","","","-3","","NA"
"-96.06","50.18","PINAWA","503B1ER","2019-03-25 20:00","2019","03","25","20:00","-4.4","","-14.5","","45","","","M","0","","1","","","","99.54","","","","-5","","NA"
"-96.06","50.18","PINAWA","503B1ER","2019-03-25 21:00","2019","03","25","21:00","-5.8","","-13.4","","55","","","M","18","","2","","","","99.53","","","","-7","","NA"
"-96.06","50.18","PINAWA","503B1ER","2019-03-25 22:00","2019","03","25","22:00","-6.9","","-12.1","","66","","","M","20","","2","","","","99.53","","","","-8","","NA"
"-96.06","50.18","PINAWA","503B1ER","2019-03-25 23:00","2019","03","25","23:00","-8.2","","-12.4","","72","","","M","18","","2","","","","99.47","","","","-9","","NA"
"-96.06","50.18","PINAWA","503B1ER","2019-03-26 00:00","2019","03","26","00:00","-7.7","","-13.3","","64","","","M","18","","3","","","","99.42","","","","-9","","NA"
"-96.06","50.18","PINAWA","503B1ER","2019-03-26 01:00","2019","03","26","01:00","-8.3","","-13.9","","64","","","M","16","","4","","","","99.35","","","","-10","","NA"
"-96.06","50.18","PINAWA","503B1ER","2019-03-26 02:00","2019","03","26","02:00","-7.1","","-14.8","","54","","","M","16","","6","","","","99.28","","","","-10","","NA"
"-96.06","50.18","PINAWA","503B1ER","2019-03-26 03:00","2019","03","26","03:00","-7.3","","-15.1","","54","","","M","16","","6","","","","99.24","","","","-10","","NA"
"-96.06","50.18","PINAWA","503B1ER","2019-03-26 04:00","2019","03","26","04:00","-7.8","","-15.6","","53","","","M","16","","7","","","","99.19","","","","-11","","NA"
"-96.06","50.18","PINAWA","503B1ER","2019-03-26 05:00","2019","03","26","05:00","-7.7","","-15.7","","53","","","M","17","","7","","","","99.14","","","","-11","","NA"
"-96.06","50.18","PINAWA","503B1ER","2019-03-26 06:00","2019","03","26","06:00","-7.6","","-14.4","","58","","","M","16","","7","","","","99.07","","","","-11","","NA"
"-96.06","50.18","PINAWA","503B1ER","2019-03-26 07:00","2019","03","26","07:00","-6.5","","-13.6","","57","","","M","16","","10","","","","99.03","","","","-11","","NA"
"-96.06","50.18","PINAWA","503B1ER","2019-03-26 08:00","2019","03","26","08:00","-5.2","","-11.4","","62","","","M","17","","10","","","","98.97","","","","-10","","NA"
"-96.06","50.18","PINAWA","503B1ER","2019-03-26 09:00","2019","03","26","09:00","-3.0","","-8.0","","69","","","M","16","","11","","","","98.90","","","","-7","","NA"
"-96.06","50.18","PINAWA","503B1ER","2019-03-26 10:00","2019","03","26","10:00","-1.4","","-6.4","","69","","","M","16","","11","","","","98.82","","","","-5","","NA"
"-96.06","50.18","PINAWA","503B1ER","2019-03-26 11:00","2019","03","26","11:00","0.5","","-4.3","","70","","","M","17","","10","","","","98.76","","","","","","NA"
"-96.06","50.18","PINAWA","503B1ER","2019-03-26 12:00","2019","03","26","12:00","2.2","","-3.2","","68","","","M","18","","10","","","","98.69","","","","","","NA"
"-96.06","50.18","PINAWA","503B1ER","2019-03-26 13:00","2019","03","26","13:00","3.1","","-3.3","","63","","","M","18","","13","","","","98.59","","","","","","NA"
"-96.06","50.18","PINAWA","503B1ER","2019-03-26 14:00","2019","03","26","14:00","3.6","","-2.8","","63","","","M","17","","10","","","","98.53","","","","","","NA"
"-96.06","50.18","PINAWA","503B1ER","2019-03-26 15:00","2019","03","26","15:00","3.4","","-1.8","","68","","","M","19","","10","","","","98.45","","","","","","NA"
"-96.06","50.18","PINAWA","503B1ER","2019-03-26 16:00","2019","03","26","16:00","3.9","","-1.7","","66","","","M","18","","9","","","","98.38","","","","","","NA"
"-96.06","50.18","PINAWA","503B1ER","2019-03-26 17:00","2019","03","26","17:00","3.6","","-1.4","","69","","","M","19","","11","","","","98.30","","","","","","NA"
"-96.06","50.18","PINAWA","503B1ER","2019-03-26 18:00","2019","03","26","18:00","3.0","","-0.9","","76","","","M","20","","12","","","","98.26","","","","","","NA"
"-96.06","50.18","PINAWA","503B1ER","2019-03-26 19:00","2019","03","26","19:00","2.4","","-0.8","","79","","","M","18","","10","","","","98.19","","","","","","NA"
"-96.06","50.18","PINAWA","503B1ER","2019-03-26 20:00","2019","03","26","20:00","2.4","","-0.5","","81","","","M","18","","11","","","","98.14","","","","","","NA"
"-96.06","50.18","PINAWA","503B1ER","2019-03-26 21:00","2019","03","26","21:00","2.2","","-0.4","","83","","","M","18","","11","","","","98.10","","","","","","NA"
"-96.06","50.18","PINAWA","503B1ER","2019-03-26 22:00","2019","03","26","22:00","1.8","","-0.4","","85","","","M","19","","9","","","","98.06","","","","","","NA"
"-96.06","50.18","PINAWA","503B1ER","2019-03-26 23:00","2019","03","26","23:00","1.3","","-0.3","","89","","","M","19","","10","","","","98.00","","","","","","NA"
"-96.06","50.18","PINAWA","503B1ER","2019-03-27 00:00","2019","03","27","00:00","1.5","","0.2","","91","","","M","19","","7","","","","97.93","","","","","","NA"
"-96.06","50.18","PINAWA","503B1ER","2019-03-27 01:00","2019","03","27","01:00","1.7","","0.5","","92","","","M","20","","8","","","","97.87","","","","","","NA"
"-96.06","50.18","PINAWA","503B1ER","2019-03-27 02:00","2019","03","27","02:00","2.0","","1.0","","93","","","M","20","","9","","","","97.75","","","","","","NA"
"-96.06","50.18","PINAWA","503B1ER","2019-03-27 03:00","2019","03","27","03:00","2.0","","1.0","","93","","","M","20","","6","","","","97.66","","","","","","NA"
"-96.06","50.18","PINAWA","503B1ER","2019-03-27 04:00","2019","03","27","04:00","1.9","","0.9","","93","","","M","16","","9","","","","97.46","","","","","","NA"
"-96.06","50.18","PINAWA","503B1ER","2019-03-27 05:00","2019","03","27","05:00","2.1","","1.2","","94","","","M","19","","4","","","","97.45","","","","","","NA"
"-96.06","50.18","PINAWA","503B1ER","2019-03-27 06:00","2019","03","27","06:00","2.0","","1.1","","94","","","M","20","","4","","","","97.40","","","","","","NA"
"-96.06","50.18","PINAWA","503B1ER","2019-03-27 07:00","2019","03","27","07:00","1.8","","0.9","","94","","","M","17","","8","","","","97.30","","","","","","NA"
"-96.06","50.18","PINAWA","503B1ER","2019-03-27 08:00","2019","03","27","08:00","1.8","","0.9","","94","","","M","16","","6","","","","97.15","","","","","","NA"
"-96.06","50.18","PINAWA","503B1ER","2019-03-27 09:00","2019","03","27","09:00","2.4","","1.4","","93","","","M","22","","7","","","","97.15","","","","","","NA"
"-96.06","50.18","PINAWA","503B1ER","2019-03-27 10:00","2019","03","27","10:00","2.6","","-0.1","","83","","","M","17","","11","","","","97.01","","","","","","NA"
"-96.06","50.18","PINAWA","503B1ER","2019-03-27 11:00","2019","03","27","11:00","4.9","","-0.6","","68","","","M","23","","10","","","","97.07","","","","","","NA"
"-96.06","50.18","PINAWA","503B1ER","2019-03-27 12:00","2019","03","27","12:00","6.0","","-1.1","","60","","","M","26","","12","","","","97.08","","","","","","NA"
"-96.06","50.18","PINAWA","503B1ER","2019-03-27 13:00","2019","03","27","13:00","5.9","","0.3","","67","","","M","27","","13","","","","97.08","","","","","","NA"
"-96.06","50.18","PINAWA","503B1ER","2019-03-27 14:00","2019","03","27","14:00","3.8","","0.4","","79","","","M","31","","27","","","","97.22","","","","","","NA"
"-96.06","50.18","PINAWA","503B1ER","2019-03-27 15:00","2019","03","27","15:00","3.1","","-0.3","","78","","","M","31","","30","","","","97.38","","","","","","NA"
"-96.06","50.18","PINAWA","503B1ER","2019-03-27 16:00","2019","03","27","16:00","3.2","","-1.2","","73","","","M","32","","25","","","","97.58","","","","","","NA"
"-96.06","50.18","PINAWA","503B1ER","2019-03-27 17:00","2019","03","27","17:00","2.9","","-0.6","","78","","","M","31","","21","","","","97.71","","","","","","NA"
"-96.06","50.18","PINAWA","503B1ER","2019-03-27 18:00","2019","03","27","18:00","2.7","","-0.7","","78","","","M","31","","19","","","","97.83","","","","","","NA"
"-96.06","50.18","PINAWA","503B1ER","2019-03-27 19:00","2019","03","27","19:00","2.5","","-1.0","","78","","","M","31","","15","","","","97.93","","","","","","NA"
"-96.06","50.18","PINAWA","503B1ER","2019-03-27 20:00","2019","03","27","20:00","1.3","","-1.2","","83","","","M","27","","7","","","","97.99","","","","","","NA"
"-96.06","50.18","PINAWA","503B1ER","2019-03-27 21:00","2019","03","27","21:00","2.2","","-1.0","","80","","","M","26","","8","","","","98.02","","","","","","NA"
"-96.06","50.18","PINAWA","503B1ER","2019-03-27 22:00","2019","03","27","22:00","2.8","","-0.7","","78","","","M","29","","17","","","","98.08","","","","","","NA"
"-96.06","50.18","PINAWA","503B1ER","2019-03-27 23:00","2019","03","27","23:00","2.7","","-0.7","","79","","","M","30","","16","","","","98.12","","","","","","NA"
"-96.06","50.18","PINAWA","503B1ER","2019-03-28 00:00","2019","03","28","00:00","1.9","","-0.9","","82","","","M","32","","19","","","","98.21","","","","","","NA"
"-96.06","50.18","PINAWA","503B1ER","2019-03-28 01:00","2019","03","28","01:00","0.2","","-2.8","","80","","","M","34","","17","","","","98.30","","","","","","NA"
"-96.06","50.18","PINAWA","503B1ER","2019-03-28 02:00","2019","03","28","02:00","-0.2","","-4.6","","72","","","M","34","","15","","","","98.40","","","","-5","","NA"
"-96.06","50.18","PINAWA","503B1ER","2019-03-28 03:00","2019","03","28","03:00","-1.4","","-6.6","","68","","","M","33","","23","","","","98.49","","","","-7","","NA"
"-96.06","50.18","PINAWA","503B1ER","2019-03-28 04:00","2019","03","28","04:00","-1.8","","-6.5","","70","","","M","34","","15","","","","98.60","","","","-7","","NA"
"-96.06","50.18","PINAWA","503B1ER","2019-03-28 05:00","2019","03","28","05:00","-2.9","","-8.5","","66","","","M","34","","17","","","","98.73","","","","-8","","NA"
"-96.06","50.18","PINAWA","503B1ER","2019-03-28 06:00","2019","03","28","06:00","-3.8","","-9.3","","66","","","M","34","","17","","","","98.84","","","","-10","","NA"
"-96.06","50.18","PINAWA","503B1ER","2019-03-28 07:00","2019","03","28","07:00","-4.1","","-10.8","","59","","","M","32","","22","","","","98.94","","","","-11","","NA"
"-96.06","50.18","PINAWA","503B1ER","2019-03-28 08:00","2019","03","28","08:00","-3.8","","-11.1","","57","","","M","33","","21","","","","99.01","","","","-10","","NA"
"-96.06","50.18","PINAWA","503B1ER","2019-03-28 09:00","2019","03","28","09:00","-3.8","","-12.5","","51","","","M","34","","20","","","","99.05","","","","-10","","NA"
"-96.06","50.18","PINAWA","503B1ER","2019-03-28 10:00","2019","03","28","10:00","-3.4","","-13.3","","46","","","M","33","","19","","","","99.08","","","","-9","","NA"
"-96.06","50.18","PINAWA","503B1ER","2019-03-28 11:00","2019","03","28","11:00","-2.8","","-13.4","","44","","","M","34","","16","","","","99.12","","","","-8","","NA"
"-96.06","50.18","PINAWA","503B1ER","2019-03-28 12:00","2019","03","28","12:00","-2.1","","-11.2","","50","","","M","33","","15","","","","99.15","","","","-7","","NA"
"-96.06","50.18","PINAWA","503B1ER","2019-03-28 13:00","2019","03","28","13:00","-1.9","","-12.5","","44","","","M","32","","18","","","","99.15","","","","-7","","NA"
"-96.06","50.18","PINAWA","503B1ER","2019-03-28 14:00","2019","03","28","14:00","-1.8","","-12.9","","42","","","M","32","","21","","","","99.14","","","","-8","","NA"
"-96.06","50.18","PINAWA","503B1ER","2019-03-28 15:00","2019","03","28","15:00","-1.4","","-11.9","","45","","","M","34","","17","","","","99.11","","","","-7","","NA"
"-96.06","50.18","PINAWA","503B1ER","2019-03-28 16:00","2019","03","28","16:00","-1.1","","-12.5","","42","","","M","33","","15","","","","99.08","","","","-6","","NA"
"-96.06","50.18","PINAWA","503B1ER","2019-03-28 17:00","2019","03","28","17:00","-0.8","","-12.3","","42","","","M","31","","20","","","","99.05","","","","-6","","NA"
"-96.06","50.18","PINAWA","503B1ER","2019-03-28 18:00","2019","03","28","18:00","-1.7","","-11.6","","47","","","M","31","","12","","","","99.07","","","","-6","","NA"
"-96.06","50.18","PINAWA","503B1ER","2019-03-28 19:00","2019","03","28","19:00","-2.6","","-11.7","","50","","","M","32","","4","","","","99.04","","","","-4","","NA"
"-96.06","50.18","PINAWA","503B1ER","2019-03-28 20:00","2019","03","28","20:00","-4.0","","-11.1","","58","","","M","27","","2","","","","99.07","","","","-5","","NA"
"-96.06","50.18","PINAWA","503B1ER","2019-03-28 21:00","2019","03","28","21:00","-4.7","","-10.4","","64","","","M","24","","1","","","","99.07","","","","-5","","NA"
"-96.06","50.18","PINAWA","503B1ER","2019-03-28 22:00","2019","03","28","22:00","-4.6","","-9.6","","68","","","M","24","","3","","","","99.03","","","","-6","","NA"
"-96.06","50.18","PINAWA","503B1ER","2019-03-28 23:00","2019","03","28","23:00","-5.0","","-10.0","","68","","","M","22","","4","","","","99.02","","","","-7","","NA"
"-96.06","50.18","PINAWA","503B1ER","2019-03-29 00:00","2019","03","29","00:00","-5.5","","-10.1","","70","","","M","20","","3","","","","98.99","","","","-7","","NA"
"-96.06","50.18","PINAWA","503B1ER","2019-03-29 01:00","2019","03","29","01:00","-5.4","","-9.6","","72","","","M","21","","3","","","","98.94","","","","-7","","NA"
"-96.06","50.18","PINAWA","503B1ER","2019-03-29 02:00","2019","03","29","02:00","-4.5","","-8.3","","75","","","M","20","","5","","","","98.84","","","","-7","","NA"
"-96.06","50.18","PINAWA","503B1ER","2019-03-29 03:00","2019","03","29","03:00","-3.4","","-6.9","","76","","","M","21","","6","","","","98.76","","","","-6","","NA"
"-96.06","50.18","PINAWA","503B1ER","2019-03-29 04:00","2019","03","29","04:00","-3.4","","-6.7","","78","","","M","17","","6","","","","98.63","","","","-6","","NA"
"-96.06","50.18","PINAWA","503B1ER","2019-03-29 05:00","2019","03","29","05:00","-3.5","","-6.7","","78","","","M","17","","7","","","","98.53","","","","-6","","NA"
"-96.06","50.18","PINAWA","503B1ER","2019-03-29 06:00","2019","03","29","06:00","-3.3","","-6.5","","79","","","M","16","","8","","","","98.39","","","","-7","","NA"
"-96.06","50.18","PINAWA","503B1ER","2019-03-29 07:00","2019","03","29","07:00","-2.1","","-6.1","","74","","","M","18","","8","","","","98.26","","","","-5","","NA"
"-96.06","50.18","PINAWA","503B1ER","2019-03-29 08:00","2019","03","29","08:00","-1.1","","-5.5","","72","","","M","21","","9","","","","98.23","","","","-4","","NA"
"-96.06","50.18","PINAWA","503B1ER","2019-03-29 09:00","2019","03","29","09:00","-1.1","","-2.1","","93","","","M","24","","9","","","","98.16","","","","-4","","NA"
"-96.06","50.18","PINAWA","503B1ER","2019-03-29 10:00","2019","03","29","10:00","0.1","","-1.2","","91","","","M","26","","12","","","","98.14","","","","","","NA"
"-96.06","50.18","PINAWA","503B1ER","2019-03-29 11:00","2019","03","29","11:00","0.7","","-1.1","","88","","","M","27","","12","","","","98.13","","","","","","NA"
"-96.06","50.18","PINAWA","503B1ER","2019-03-29 12:00","2019","03","29","12:00","1.6","","-1.0","","83","","","M","28","","12","","","","98.14","","","","","","NA"
"-96.06","50.18","PINAWA","503B1ER","2019-03-29 13:00","2019","03","29","13:00","2.4","","-0.8","","79","","","M","29","","16","","","","98.12","","","","","","NA"
"-96.06","50.18","PINAWA","503B1ER","2019-03-29 14:00","2019","03","29","14:00","-0.3","","-2.8","","83","","","M","33","","26","","","","98.25","","","","-6","","NA"
"-96.06","50.18","PINAWA","503B1ER","2019-03-29 15:00","2019","03","29","15:00","-0.5","","-4.7","","73","","","M","33","","24","","","","98.37","","","","-6","","NA"
"-96.06","50.18","PINAWA","503B1ER","2019-03-29 16:00","2019","03","29","16:00","-1.3","","-5.6","","72","","","M","33","","21","","","","98.53","","","","-7","","NA"
"-96.06","50.18","PINAWA","503B1ER","2019-03-29 17:00","2019","03","29","17:00","-2.4","","-8.2","","64","","","M","34","","24","","","","98.68","","","","-9","","NA"
"-96.06","50.18","PINAWA","503B1ER","2019-03-29 18:00","2019","03","29","18:00","-3.8","","-11.6","","55","","","M","33","","23","","","","98.81","","","","-11","","NA"
"-96.06","50.18","PINAWA","503B1ER","2019-03-29 19:00","2019","03","29","19:00","-5.0","","-12.1","","58","","","M","34","","21","","","","98.95","","","","-12","","NA"
"-96.06","50.18","PINAWA","503B1ER","2019-03-29 20:00","2019","03","29","20:00","-5.9","","-13.6","","55","","","M","33","","19","","","","99.06","","","","-13","","NA"
"-96.06","50.18","PINAWA","503B1ER","2019-03-29 21:00","2019","03","29","21:00","-6.6","","-14.0","","56","","","M","33","","19","","","","99.13","","","","-13","","NA"
"-96.06","50.18","PINAWA","503B1ER","2019-03-29 22:00","2019","03","29","22:00","-7.3","","-13.4","","62","","","M","34","","12","","","","99.20","","","","-13","","NA"
"-96.06","50.18","PINAWA","503B1ER","2019-03-29 23:00","2019","03","29","23:00","-7.8","","-13.4","","64","","","M","34","","8","","","","99.26","","","","-12","","NA"
"-96.06","50.18","PINAWA","503B1ER","2019-03-30 00:00","2019","03","30","00:00","-8.4","","-13.7","","65","","","M","34","","5","","","","99.33","","","","-11","","NA"
"-96.06","50.18","PINAWA","503B1ER","2019-03-30 01:00","2019","03","30","01:00","-9.6","","-13.7","","72","","","M","32","","5","","","","99.36","","","","-12","","NA"
"-96.06","50.18","PINAWA","503B1ER","2019-03-30 02:00","2019","03","30","02:00","-10.8","","-14.2","","76","","","M","30","","4","","","","99.40","","","","-13","","NA"
"-96.06","50.18","PINAWA","503B1ER","2019-03-30 03:00","2019","03","30","03:00","-11.2","","-14.2","","78","","","M","31","","5","","","","99.41","","","","-14","","NA"
"-96.06","50.18","PINAWA","503B1ER","2019-03-30 04:00","2019","03","30","04:00","-11.5","","-14.7","","77","","","M","31","","4","","","","99.43","","","","-14","","NA"
"-96.06","50.18","PINAWA","503B1ER","2019-03-30 05:00","2019","03","30","05:00","-12.2","","-14.7","","82","","","M","27","","3","","","","99.49","","","","-14","","NA"
"-96.06","50.18","PINAWA","503B1ER","2019-03-30 06:00","2019","03","30","06:00","-12.8","","-14.9","","84","","","M","26","","2","","","","99.56","","","","-14","","NA"
"-96.06","50.18","PINAWA","503B1ER","2019-03-30 07:00","2019","03","30","07:00","-11.8","","-14.9","","78","","","M","25","","1","","","","99.58","","","","-12","","NA"
"-96.06","50.18","PINAWA","503B1ER","2019-03-30 08:00","2019","03","30","08:00","-8.0","","-13.4","","65","","","M","32","","9","","","","99.61","","","","-13","","NA"
"-96.06","50.18","PINAWA","503B1ER","2019-03-30 09:00","2019","03","30","09:00","-6.9","","-13.3","","60","","","M","34","","10","","","","99.62","","","","-12","","NA"
"-96.06","50.18","PINAWA","503B1ER","2019-03-30 10:00","2019","03","30","10:00","-5.0","","-13.9","","50","","","M","33","","10","","","","99.64","","","","-9","","NA"
"-96.06","50.18","PINAWA","503B1ER","2019-03-30 11:00","2019","03","30","11:00","-3.5","","-13.6","","45","","","M","32","","15","","","","99.62","","","","-9","","NA"
"-96.06","50.18","PINAWA","503B1ER","2019-03-30 12:00","2019","03","30","12:00","-2.3","","-13.4","","42","","","M","31","","12","","","","99.58","","","","-7","","NA"
"-96.06","50.18","PINAWA","503B1ER","2019-03-30 13:00","2019","03","30","13:00","-1.5","","-12.2","","44","","","M","31","","14","","","","99.55","","","","-6","","NA"
"-96.06","50.18","PINAWA","503B1ER","2019-03-30 14:00","2019","03","30","14:00","-1.1","","-12.4","","42","","","M","31","","18","","","","99.51","","","","-6","","NA"
"-96.06","50.18","PINAWA","503B1ER","2019-03-30 15:00","2019","03","30","15:00","-0.6","","-13.6","","37","","","M","31","","20","","","","99.47","","","","-6","","NA"
"-96.06","50.18","PINAWA","503B1ER","2019-03-30 16:00","2019","03","30","16:00","-0.7","","-14.7","","34","","","M","32","","20","","","","99.45","","","","-6","","NA"
"-96.06","50.18","PINAWA","503B1ER","2019-03-30 17:00","2019","03","30","17:00","-0.8","","-13.5","","38","","","M","32","","17","","","","99.42","","","","-6","","NA"
"-96.06","50.18","PINAWA","503B1ER","2019-03-30 18:00","2019","03","30","18:00","-1.1","","-13.6","","38","","","M","32","","17","","","","99.40","","","","-6","","NA"
"-96.06","50.18","PINAWA","503B1ER","2019-03-30 19:00","2019","03","30","19:00","-1.9","","-11.7","","47","","","M","34","","6","","","","99.39","","","","-4","","NA"
"-96.06","50.18","PINAWA","503B1ER","2019-03-30 20:00","2019","03","30","20:00","-4.2","","-11.5","","57","","","M","0","","1","","","","99.40","","","","-5","","NA"
"-96.06","50.18","PINAWA","503B1ER","2019-03-30 21:00","2019","03","30","21:00","-5.3","","-10.8","","65","","","M","21","","4","","","","99.39","","","","-7","","NA"
"-96.06","50.18","PINAWA","503B1ER","2019-03-30 22:00","2019","03","30","22:00","-7.4","","-11.2","","74","","","M","","","0","","","","99.37","","","","","","NA"
"-96.06","50.18","PINAWA","503B1ER","2019-03-30 23:00","2019","03","30","23:00","-8.2","","-11.3","","78","","","M","","","0","","","","99.34","","","","","","NA"
"-96.06","50.18","PINAWA","503B1ER","2019-03-31 00:00","2019","03","31","00:00","-9.3","","-11.5","","84","","","M","","","0","","","","99.31","","","","","","NA"
"-96.06","50.18","PINAWA","503B1ER","2019-03-31 01:00","2019","03","31","01:00","-10.5","","-12.6","","85","","","M","","","0","","","","99.29","","","","","","NA"
"-96.06","50.18","PINAWA","503B1ER","2019-03-31 02:00","2019","03","31","02:00","-11.4","","-13.2","","87","","","M","13","","1","","","","99.27","","","","-12","","NA"
"-96.06","50.18","PINAWA","503B1ER","2019-03-31 03:00","2019","03","31","03:00","-12.2","","-14.1","","86","","","M","16","","2","","","","99.24","","","","-13","","NA"
"-96.06","50.18","PINAWA","503B1ER","2019-03-31 04:00","2019","03","31","04:00","-12.1","","-14.1","","85","","","M","17","","2","","","","99.24","","","","-13","","NA"
"-96.06","50.18","PINAWA","503B1ER","2019-03-31 05:00","2019","03","31","05:00","-11.0","","-12.8","","86","","","M","11","","2","","","","99.24","","","","-12","","NA"
"-96.06","50.18","PINAWA","503B1ER","2019-03-31 06:00","2019","03","31","06:00","-10.5","","-12.4","","86","","","M","12","","3","","","","99.24","","","","-12","","NA"
"-96.06","50.18","PINAWA","503B1ER","2019-03-31 07:00","2019","03","31","07:00","-8.8","","-11.1","","84","","","M","11","","3","","","","99.24","","","","-10","","NA"
"-96.06","50.18","PINAWA","503B1ER","2019-03-31 08:00","2019","03","31","08:00","-4.9","","-11.2","","61","","","M","18","","2","","","","99.21","","","","-6","","NA"
"-96.06","50.18","PINAWA","503B1ER","2019-03-31 09:00","2019","03","31","09:00","-1.9","","-10.6","","51","","","M","17","","2","","","","99.20","","","","-3","","NA"
"-96.06","50.18","PINAWA","503B1ER","2019-03-31 10:00","2019","03","31","10:00","-0.2","","-11.9","","41","","","M","18","","4","","","","99.18","","","","-1","","NA"
"-96.06","50.18","PINAWA","503B1ER","2019-03-31 11:00","2019","03","31","11:00","0.2","","-11.3","","42","","","M","20","","5","","","","99.16","","","","","","NA"
"-96.06","50.18","PINAWA","503B1ER","2019-03-31 12:00","2019","03","31","12:00","1.4","","-10.0","","42","","","M","34","","7","","","","99.12","","","","","","NA"
"-96.06","50.18","PINAWA","503B1ER","2019-03-31 13:00","2019","03","31","13:00","1.4","","-11.4","","38","","","M","1","","8","","","","99.08","","","","","","NA"
"-96.06","50.18","PINAWA","503B1ER","2019-03-31 14:00","2019","03","31","14:00","1.6","","-11.4","","37","","","M","2","","7","","","","99.05","","","","","","NA"
"-96.06","50.18","PINAWA","503B1ER","2019-03-31 15:00","2019","03","31","15:00","2.0","","-10.2","","40","","","M","30","","19","","","","99.02","","","","","","NA"
"-96.06","50.18","PINAWA","503B1ER","2019-03-31 16:00","2019","03","31","16:00","2.1","","-11.0","","37","","","M","32","","15","","","","99.02","","","","","","NA"
"-96.06","50.18","PINAWA","503B1ER","2019-03-31 17:00","2019","03","31","17:00","2.4","","-11.0","","36","","","M","33","","12","","","","98.98","","","","","","NA"
"-96.06","50.18","PINAWA","503B1ER","2019-03-31 18:00","2019","03","31","18:00","2.0","","-9.2","","43","","","M","28","","11","","","","98.95","","","","","","NA"
"-96.06","50.18","PINAWA","503B1ER","2019-03-31 19:00","2019","03","31","19:00","-0.6","","-7.6","","59","","","M","27","","5","","","","98.94","","","","-2","","NA"
"-96.06","50.18","PINAWA","503B1ER","2019-03-31 20:00","2019","03","31","20:00","-0.3","","-7.0","","60","","","M","28","","4","","","","98.95","","","","-2","","NA"
"-96.06","50.18","PINAWA","503B1ER","2019-03-31 21:00","2019","03","31","21:00","-0.2","","-6.4","","63","","","M","27","","6","","","","98.96","","","","-2","","NA"
"-96.06","50.18","PINAWA","503B1ER","2019-03-31 22:00","2019","03","31","22:00","-1.3","","-4.5","","79","","","M","35","","4","","","","98.99","","","","-3","","NA"
"-96.06","50.18","PINAWA","503B1ER","2019-03-31 23:00","2019","03","31","23:00","-2.0","","-4.6","","82","","","M","36","","2","","","","98.96","","","","-3","","NA"
