"Longitude (x)","Latitude (y)","Station Name","Climate ID","Date/Time (LST)","Year","Month","Day","Time (LST)","Temp (°C)","Temp Flag","Dew Point Temp (°C)","Dew Point Temp Flag","Rel Hum (%)","Rel Hum Flag","Precip. Amount (mm)","Precip. Amount Flag","Wind Dir (10s deg)","Wind Dir Flag","Wind Spd (km/h)","Wind Spd Flag","Visibility (km)","Visibility Flag","Stn Press (kPa)","Stn Press Flag","Hmdx","Hmdx Flag","Wind Chill","Wind Chill Flag","Weather"
"-66.61","45.92","FREDERICTON CDA CS","8101605","2012-02-01 00:00","2012","02","01","00:00","-10.0","","-14.3","","71","","","","33","","7","","","","101.71","","","","-14","","NA"
"-66.61","45.92","FREDERICTON CDA CS","8101605","2012-02-01 01:00","2012","02","01","01:00","-10.1","","-13.6","","76","","","","32","","4","","","","101.69","","","","-12","","NA"
"-66.61","45.92","FREDERICTON CDA CS","8101605","2012-02-01 02:00","2012","02","01","02:00","-10.3","","-12.9","","81","","","","34","","4","","","","101.64","","","","-13","","NA"
"-66.61","45.92","FREDERICTON CDA CS","8101605","2012-02-01 03:00","2012","02","01","03:00","-9.6","","-12.3","","81","","","","4","","6","","","","101.60","","","","-13","","NA"
"-66.61","45.92","FREDERICTON CDA CS","8101605","2012-02-01 04:00","2012","02","01","04:00","-9.3","","-12.8","","76","","","","7","","7","","","","101.53","","","","-13","","NA"
"-66.61","45.92","FREDERICTON CDA CS","8101605","2012-02-01 05:00","2012","02","01","05:00","-9.4","","-13.5","","72","","","","7","","9","","","","101.48","","","","-14","","NA"
"-66.61","45.92","FREDERICTON CDA CS","8101605","2012-02-01 06:00","2012","02","01","06:00","-9.6","","-12.1","","82","","","","7","","11","","","","101.43","","","","-15","","NA"
"-66.61","45.92","FREDERICTON CDA CS","8101605","2012-02-01 07:00","2012","02","01","07:00","-9.6","","-11.4","","87","","","","7","","11","","","","101.31","","","","-15","","NA"
"-66.61","45.92","FREDERICTON CDA CS","8101605","2012-02-01 08:00","2012","02","01","08:00","-9.2","","-10.9","","87","","","","7","","11","","","","101.21","","","","-15","","NA"
"-66.61","45.92","FREDERICTON CDA CS","8101605","2012-02-01 09:00","2012","02","01","09:00","-8.8","","-10.4","","88","","","","7","","9","","","","101.17","","","","-13","","NA"
"-66.61","45.92","FREDERICTON CDA CS","8101605","2012-02-01 10:00","2012","02","01","10:00","-8.3","","-9.9","","88","","","","6","","9","","","","101.08","","","","-13","","NA"
"-66.61","45.92","FREDERICTON CDA CS","8101605","2012-02-01 11:00","2012","02","01","11:00","-7.9","","-9.5","","88","","","","7","","13","","","","100.97","","","","-14","","NA"
"-66.61","45.92","FREDERICTON CDA CS","8101605","2012-02-01 12:00","2012","02","01","12:00","-7.5","","-9.5","","86","","","","6","","11","","","","100.76","","","","-13","","NA"
"-66.61","45.92","FREDERICTON CDA CS","8101605","2012-02-01 13:00","2012","02","01","13:00","-7.1","","-9.0","","86","","","","4","","11","","","","100.66","","","","-12","","NA"
"-66.61","45.92","FREDERICTON CDA CS","8101605","2012-02-01 14:00","2012","02","01","14:00","-6.8","","-8.5","","88","","","","4","","9","","","","100.57","","","","-11","","NA"
"-66.61","45.92","FREDERICTON CDA CS","8101605","2012-02-01 15:00","2012","02","01","15:00","-6.2","","-8.2","","86","","","","6","","11","","","","100.50","","","","-11","","NA"
"-66.61","45.92","FREDERICTON CDA CS","8101605","2012-02-01 16:00","2012","02","01","16:00","-5.8","","-8.1","","84","","","","2","","11","","","","100.50","","","","-11","","NA"
"-66.61","45.92","FREDERICTON CDA CS","8101605","2012-02-01 17:00","2012","02","01","17:00","-5.9","","-8.6","","81","","","","3","","13","","","","100.49","","","","-11","","NA"
"-66.61","45.92","FREDERICTON CDA CS","8101605","2012-02-01 18:00","2012","02","01","18:00","-6.1","","-8.7","","82","","","","4","","13","","","","100.51","","","","-11","","NA"
"-66.61","45.92","FREDERICTON CDA CS","8101605","2012-02-01 19:00","2012","02","01","19:00","-6.2","","-8.4","","84","","","","1","","7","","","","100.56","","","","-10","","NA"
"-66.61","45.92","FREDERICTON CDA CS","8101605","2012-02-01 20:00","2012","02","01","20:00","-6.2","","-8.4","","84","","","","35","","9","","","","100.61","","","","-10","","NA"
"-66.61","45.92","FREDERICTON CDA CS","8101605","2012-02-01 21:00","2012","02","01","21:00","-6.1","","-8.2","","85","","","","35","","9","","","","100.66","","","","-10","","NA"
"-66.61","45.92","FREDERICTON CDA CS","8101605","2012-02-01 22:00","2012","02","01","22:00","-6.1","","-8.0","","86","","","","35","","11","","","","100.68","","","","-11","","NA"
"-66.61","45.92","FREDERICTON CDA CS","8101605","2012-02-01 23:00","2012","02","01","23:00","-6.4","","-9.0","","82","","","","34","","11","","","","100.74","","","","-11","","NA"
"-66.61","45.92","FREDERICTON CDA CS","8101605","2012-02-02 00:00","2012","02","02","00:00","-7.0","","-9.8","","80","","","","35","","13","","","","100.76","","","","-13","","NA"
"-66.61","45.92","FREDERICTON CDA CS","8101605","2012-02-02 01:00","2012","02","02","01:00","-7.3","","-9.9","","82","","","","36","","11","","","","100.81","","","","-12","","NA"
"-66.61","45.92","FREDERICTON CDA CS","8101605","2012-02-02 02:00","2012","02","02","02:00","-7.6","","-10.1","","82","","","","35","","11","","","","100.94","","","","-13","","NA"
"-66.61","45.92","FREDERICTON CDA CS","8101605","2012-02-02 03:00","2012","02","02","03:00","-8.0","","-10.7","","81","","","","36","","11","","","","100.97","","","","-13","","NA"
"-66.61","45.92","FREDERICTON CDA CS","8101605","2012-02-02 04:00","2012","02","02","04:00","-8.1","","-10.8","","81","","","","36","","7","","","","101.03","","","","-12","","NA"
"-66.61","45.92","FREDERICTON CDA CS","8101605","2012-02-02 05:00","2012","02","02","05:00","-8.1","","-10.9","","80","","","","36","","6","","","","101.16","","","","-11","","NA"
"-66.61","45.92","FREDERICTON CDA CS","8101605","2012-02-02 06:00","2012","02","02","06:00","-8.2","","-10.9","","81","","","","36","","9","","","","101.25","","","","-13","","NA"
"-66.61","45.92","FREDERICTON CDA CS","8101605","2012-02-02 07:00","2012","02","02","07:00","-8.3","","-10.9","","81","","","","36","","9","","","","101.35","","","","-13","","NA"
"-66.61","45.92","FREDERICTON CDA CS","8101605","2012-02-02 08:00","2012","02","02","08:00","-8.5","","-11.3","","80","","","","36","","9","","","","101.45","","","","-13","","NA"
"-66.61","45.92","FREDERICTON CDA CS","8101605","2012-02-02 09:00","2012","02","02","09:00","-8.6","","-11.4","","80","","","","1","","9","","","","101.52","","","","-13","","NA"
"-66.61","45.92","FREDERICTON CDA CS","8101605","2012-02-02 10:00","2012","02","02","10:00","-8.5","","-11.3","","80","","","","1","","7","","","","101.54","","","","-12","","NA"
"-66.61","45.92","FREDERICTON CDA CS","8101605","2012-02-02 11:00","2012","02","02","11:00","-8.1","","-11.4","","77","","","","35","","9","","","","101.53","","","","-13","","NA"
"-66.61","45.92","FREDERICTON CDA CS","8101605","2012-02-02 12:00","2012","02","02","12:00","-6.9","","-11.1","","72","","","","33","","6","","","","101.51","","","","-10","","NA"
"-66.61","45.92","FREDERICTON CDA CS","8101605","2012-02-02 13:00","2012","02","02","13:00","-5.9","","-10.7","","69","","","","33","","9","","","","101.48","","","","-10","","NA"
"-66.61","45.92","FREDERICTON CDA CS","8101605","2012-02-02 14:00","2012","02","02","14:00","-4.8","","-10.5","","64","","","","36","","9","","","","101.46","","","","-9","","NA"
"-66.61","45.92","FREDERICTON CDA CS","8101605","2012-02-02 15:00","2012","02","02","15:00","-4.3","","-10.0","","64","","","","2","","7","","","","101.49","","","","-7","","NA"
"-66.61","45.92","FREDERICTON CDA CS","8101605","2012-02-02 16:00","2012","02","02","16:00","-4.2","","-10.1","","63","","","","5","","4","","","","101.57","","","","-6","","NA"
"-66.61","45.92","FREDERICTON CDA CS","8101605","2012-02-02 17:00","2012","02","02","17:00","-5.5","","-9.8","","72","","","","8","","11","","","","101.55","","","","-10","","NA"
"-66.61","45.92","FREDERICTON CDA CS","8101605","2012-02-02 18:00","2012","02","02","18:00","-7.7","","-9.9","","84","","","","13","","7","","","","101.59","","","","-11","","NA"
"-66.61","45.92","FREDERICTON CDA CS","8101605","2012-02-02 19:00","2012","02","02","19:00","-8.2","","-9.7","","89","","","","17","","4","","","","101.66","","","","-10","","NA"
"-66.61","45.92","FREDERICTON CDA CS","8101605","2012-02-02 20:00","2012","02","02","20:00","-10.5","","-11.8","","90","","","","21","","4","","","","101.70","","","","-13","","NA"
"-66.61","45.92","FREDERICTON CDA CS","8101605","2012-02-02 21:00","2012","02","02","21:00","-9.9","","-11.2","","90","","","","30","","2","","","","101.71","","","","-11","","NA"
"-66.61","45.92","FREDERICTON CDA CS","8101605","2012-02-02 22:00","2012","02","02","22:00","-10.5","","-11.8","","90","","","","32","","6","","","","101.72","","","","-14","","NA"
"-66.61","45.92","FREDERICTON CDA CS","8101605","2012-02-02 23:00","2012","02","02","23:00","-10.4","","-11.8","","89","","","","28","","2","","","","101.69","","","","-12","","NA"
"-66.61","45.92","FREDERICTON CDA CS","8101605","2012-02-03 00:00","2012","02","03","00:00","-11.5","","-12.7","","91","","","","33","","9","","","","101.71","","","","-17","","NA"
"-66.61","45.92","FREDERICTON CDA CS","8101605","2012-02-03 01:00","2012","02","03","01:00","-12.9","","-14.4","","88","","","","33","","6","","","","101.72","","","","-17","","NA"
"-66.61","45.92","FREDERICTON CDA CS","8101605","2012-02-03 02:00","2012","02","03","02:00","-13.9","","-15.6","","87","","","","32","","6","","","","101.75","","","","-18","","NA"
"-66.61","45.92","FREDERICTON CDA CS","8101605","2012-02-03 03:00","2012","02","03","03:00","-14.2","","-15.8","","88","","","","33","","9","","","","101.76","","","","-20","","NA"
"-66.61","45.92","FREDERICTON CDA CS","8101605","2012-02-03 04:00","2012","02","03","04:00","-15.3","","-17.0","","87","","","","33","","13","","","","101.79","","","","-23","","NA"
"-66.61","45.92","FREDERICTON CDA CS","8101605","2012-02-03 05:00","2012","02","03","05:00","-16.1","","-18.1","","85","","","","33","","9","","","","101.82","","","","-22","","NA"
"-66.61","45.92","FREDERICTON CDA CS","8101605","2012-02-03 06:00","2012","02","03","06:00","-15.5","","-17.4","","85","","","","33","","7","","","","101.86","","","","-20","","NA"
"-66.61","45.92","FREDERICTON CDA CS","8101605","2012-02-03 07:00","2012","02","03","07:00","-17.1","","-19.0","","85","","","","33","","7","","","","101.91","","","","-22","","NA"
"-66.61","45.92","FREDERICTON CDA CS","8101605","2012-02-03 08:00","2012","02","03","08:00","-17.5","","-19.4","","85","","","","32","","9","","","","101.96","","","","-24","","NA"
"-66.61","45.92","FREDERICTON CDA CS","8101605","2012-02-03 09:00","2012","02","03","09:00","-16.2","","-18.0","","86","","","","33","","9","","","","102.00","","","","-22","","NA"
"-66.61","45.92","FREDERICTON CDA CS","8101605","2012-02-03 10:00","2012","02","03","10:00","-14.0","","-15.8","","86","","","","33","","6","","","","101.97","","","","-18","","NA"
"-66.61","45.92","FREDERICTON CDA CS","8101605","2012-02-03 11:00","2012","02","03","11:00","-10.5","","-15.1","","69","","","","34","","6","","","","101.96","","","","-14","","NA"
"-66.61","45.92","FREDERICTON CDA CS","8101605","2012-02-03 12:00","2012","02","03","12:00","-7.9","","-13.7","","63","","","","30","","15","","","","101.87","","","","-14","","NA"
"-66.61","45.92","FREDERICTON CDA CS","8101605","2012-02-03 13:00","2012","02","03","13:00","-6.3","","-14.1","","54","","","","30","","17","","","","101.78","","","","-13","","NA"
"-66.61","45.92","FREDERICTON CDA CS","8101605","2012-02-03 14:00","2012","02","03","14:00","-5.8","","-13.2","","56","","","","29","","17","","","","101.73","","","","-12","","NA"
"-66.61","45.92","FREDERICTON CDA CS","8101605","2012-02-03 15:00","2012","02","03","15:00","-5.5","","-13.1","","55","","","","29","","11","","","","101.70","","","","-10","","NA"
"-66.61","45.92","FREDERICTON CDA CS","8101605","2012-02-03 16:00","2012","02","03","16:00","-5.1","","-12.6","","56","","","","28","","13","","","","101.70","","","","-10","","NA"
"-66.61","45.92","FREDERICTON CDA CS","8101605","2012-02-03 17:00","2012","02","03","17:00","-5.8","","-12.9","","57","","","","29","","19","","","","101.72","","","","-12","","NA"
"-66.61","45.92","FREDERICTON CDA CS","8101605","2012-02-03 18:00","2012","02","03","18:00","-7.2","","-13.1","","63","","","","28","","17","","","","101.77","","","","-14","","NA"
"-66.61","45.92","FREDERICTON CDA CS","8101605","2012-02-03 19:00","2012","02","03","19:00","-8.1","","-13.6","","65","","","","31","","13","","","","101.78","","","","-14","","NA"
"-66.61","45.92","FREDERICTON CDA CS","8101605","2012-02-03 20:00","2012","02","03","20:00","-8.6","","-13.9","","65","","","","31","","11","","","","101.73","","","","-14","","NA"
"-66.61","45.92","FREDERICTON CDA CS","8101605","2012-02-03 21:00","2012","02","03","21:00","-10.7","","-14.5","","74","","","","27","","2","","","","101.72","","","","-12","","NA"
"-66.61","45.92","FREDERICTON CDA CS","8101605","2012-02-03 22:00","2012","02","03","22:00","-11.2","","-14.0","","80","","","","27","","6","","","","101.73","","","","-15","","NA"
"-66.61","45.92","FREDERICTON CDA CS","8101605","2012-02-03 23:00","2012","02","03","23:00","-13.8","","-15.5","","87","","","","34","","2","","","","101.73","","","","-15","","NA"
"-66.61","45.92","FREDERICTON CDA CS","8101605","2012-02-04 00:00","2012","02","04","00:00","-13.2","","-14.5","","90","","","","1","","2","","","","101.67","","","","-15","","NA"
"-66.61","45.92","FREDERICTON CDA CS","8101605","2012-02-04 01:00","2012","02","04","01:00","-13.2","","-14.7","","88","","","","30","","2","","","","101.64","","","","-15","","NA"
"-66.61","45.92","FREDERICTON CDA CS","8101605","2012-02-04 02:00","2012","02","04","02:00","-13.0","","-14.6","","88","","","","4","","2","","","","101.60","","","","-14","","NA"
"-66.61","45.92","FREDERICTON CDA CS","8101605","2012-02-04 03:00","2012","02","04","03:00","-12.7","","-14.5","","86","","","","","","0","","","","101.54","","","","","","NA"
"-66.61","45.92","FREDERICTON CDA CS","8101605","2012-02-04 04:00","2012","02","04","04:00","-12.2","","-13.9","","87","","","","","","0","","","","101.50","","","","","","NA"
"-66.61","45.92","FREDERICTON CDA CS","8101605","2012-02-04 05:00","2012","02","04","05:00","-12.1","","-13.9","","86","","","","5","","2","","","","101.51","","","","-13","","NA"
"-66.61","45.92","FREDERICTON CDA CS","8101605","2012-02-04 06:00","2012","02","04","06:00","-11.9","","-13.6","","87","","","","","","0","","","","101.52","","","","","","NA"
"-66.61","45.92","FREDERICTON CDA CS","8101605","2012-02-04 07:00","2012","02","04","07:00","-12.0","","-13.8","","86","","","","13","","2","","","","101.53","","","","-13","","NA"
"-66.61","45.92","FREDERICTON CDA CS","8101605","2012-02-04 08:00","2012","02","04","08:00","-11.5","","-13.3","","86","","","","","","0","","","","101.49","","","","","","NA"
"-66.61","45.92","FREDERICTON CDA CS","8101605","2012-02-04 09:00","2012","02","04","09:00","-10.2","","-12.0","","87","","","","33","","2","","","","101.50","","","","-11","","NA"
"-66.61","45.92","FREDERICTON CDA CS","8101605","2012-02-04 10:00","2012","02","04","10:00","-8.1","","-10.7","","82","","","","30","","4","","","","101.49","","","","-10","","NA"
"-66.61","45.92","FREDERICTON CDA CS","8101605","2012-02-04 11:00","2012","02","04","11:00","-6.8","","-10.8","","73","","","","30","","17","","","","101.44","","","","-13","","NA"
"-66.61","45.92","FREDERICTON CDA CS","8101605","2012-02-04 12:00","2012","02","04","12:00","-5.8","","-11.2","","66","","","","29","","19","","","","101.41","","","","-12","","NA"
"-66.61","45.92","FREDERICTON CDA CS","8101605","2012-02-04 13:00","2012","02","04","13:00","-4.6","","-12.4","","54","","","","31","","17","","","","101.30","","","","-10","","NA"
"-66.61","45.92","FREDERICTON CDA CS","8101605","2012-02-04 14:00","2012","02","04","14:00","-4.0","","-12.7","","51","","","","31","","19","","","","101.22","","","","-10","","NA"
"-66.61","45.92","FREDERICTON CDA CS","8101605","2012-02-04 15:00","2012","02","04","15:00","-4.0","","-12.7","","51","","","","30","","20","","","","101.18","","","","-10","","NA"
"-66.61","45.92","FREDERICTON CDA CS","8101605","2012-02-04 16:00","2012","02","04","16:00","-4.5","","-12.1","","55","","","","29","","28","","","","101.19","","","","-12","","NA"
"-66.61","45.92","FREDERICTON CDA CS","8101605","2012-02-04 17:00","2012","02","04","17:00","-5.5","","-12.0","","60","","","","29","","22","","","","101.26","","","","-13","","NA"
"-66.61","45.92","FREDERICTON CDA CS","8101605","2012-02-04 18:00","2012","02","04","18:00","-5.8","","-12.4","","60","","","","31","","13","","","","101.28","","","","-11","","NA"
"-66.61","45.92","FREDERICTON CDA CS","8101605","2012-02-04 19:00","2012","02","04","19:00","-6.9","","-13.4","","60","","","","33","","15","","","","101.32","","","","-13","","NA"
"-66.61","45.92","FREDERICTON CDA CS","8101605","2012-02-04 20:00","2012","02","04","20:00","-8.2","","-14.2","","62","","","","32","","11","","","","101.37","","","","-13","","NA"
"-66.61","45.92","FREDERICTON CDA CS","8101605","2012-02-04 21:00","2012","02","04","21:00","-9.3","","-15.4","","61","","","","31","","13","","","","101.39","","","","-15","","NA"
"-66.61","45.92","FREDERICTON CDA CS","8101605","2012-02-04 22:00","2012","02","04","22:00","-10.9","","-15.6","","68","","","","33","","11","","","","101.38","","","","-17","","NA"
"-66.61","45.92","FREDERICTON CDA CS","8101605","2012-02-04 23:00","2012","02","04","23:00","-11.8","","-15.6","","73","","","","31","","7","","","","101.37","","","","-16","","NA"
"-66.61","45.92","FREDERICTON CDA CS","8101605","2012-02-05 00:00","2012","02","05","00:00","-12.0","","-15.4","","76","","","","29","","6","","","","101.35","","","","-16","","NA"
"-66.61","45.92","FREDERICTON CDA CS","8101605","2012-02-05 01:00","2012","02","05","01:00","-13.4","","-15.8","","82","","","","33","","2","","","","101.32","","","","-15","","NA"
"-66.61","45.92","FREDERICTON CDA CS","8101605","2012-02-05 02:00","2012","02","05","02:00","-15.4","","-17.0","","88","","","","30","","4","","","","101.36","","","","-18","","NA"
"-66.61","45.92","FREDERICTON CDA CS","8101605","2012-02-05 03:00","2012","02","05","03:00","-17.1","","-18.8","","87","","","","32","","6","","","","101.33","","","","-22","","NA"
"-66.61","45.92","FREDERICTON CDA CS","8101605","2012-02-05 04:00","2012","02","05","04:00","-14.7","","-18.3","","74","","","","32","","6","","","","101.34","","","","-19","","NA"
"-66.61","45.92","FREDERICTON CDA CS","8101605","2012-02-05 05:00","2012","02","05","05:00","-16.6","","-18.8","","83","","","","25","","2","","","","101.34","","","","-18","","NA"
"-66.61","45.92","FREDERICTON CDA CS","8101605","2012-02-05 06:00","2012","02","05","06:00","-19.2","","-21.8","","80","","","","28","","4","","","","101.37","","","","-23","","NA"
"-66.61","45.92","FREDERICTON CDA CS","8101605","2012-02-05 07:00","2012","02","05","07:00","-19.7","","-21.4","","86","","","","31","","6","","","","101.36","","","","-25","","NA"
"-66.61","45.92","FREDERICTON CDA CS","8101605","2012-02-05 08:00","2012","02","05","08:00","-22.9","","-25.3","","81","","","","33","","6","","","","101.38","","","","-28","","NA"
"-66.61","45.92","FREDERICTON CDA CS","8101605","2012-02-05 09:00","2012","02","05","09:00","-20.4","","-22.5","","83","","","","32","","6","","","","101.39","","","","-25","","NA"
"-66.61","45.92","FREDERICTON CDA CS","8101605","2012-02-05 10:00","2012","02","05","10:00","-14.9","","-18.2","","76","","","","31","","17","","","","101.36","","","","-23","","NA"
"-66.61","45.92","FREDERICTON CDA CS","8101605","2012-02-05 11:00","2012","02","05","11:00","-12.7","","-18.3","","63","","","","30","","19","","","","101.34","","","","-21","","NA"
"-66.61","45.92","FREDERICTON CDA CS","8101605","2012-02-05 12:00","2012","02","05","12:00","-11.3","","-18.3","","56","","","","28","","19","","","","101.25","","","","-19","","NA"
"-66.61","45.92","FREDERICTON CDA CS","8101605","2012-02-05 13:00","2012","02","05","13:00","-10.1","","-17.8","","53","","","","29","","19","","","","101.17","","","","-18","","NA"
"-66.61","45.92","FREDERICTON CDA CS","8101605","2012-02-05 14:00","2012","02","05","14:00","-9.3","","-17.9","","50","","","","29","","20","","","","101.09","","","","-17","","NA"
"-66.61","45.92","FREDERICTON CDA CS","8101605","2012-02-05 15:00","2012","02","05","15:00","-8.6","","-17.7","","48","","","","29","","20","","","","101.06","","","","-16","","NA"
"-66.61","45.92","FREDERICTON CDA CS","8101605","2012-02-05 16:00","2012","02","05","16:00","-8.2","","-17.6","","47","","","","28","","22","","","","101.03","","","","-16","","NA"
"-66.61","45.92","FREDERICTON CDA CS","8101605","2012-02-05 17:00","2012","02","05","17:00","-8.1","","-17.9","","45","","","","29","","19","","","","101.04","","","","-15","","NA"
"-66.61","45.92","FREDERICTON CDA CS","8101605","2012-02-05 18:00","2012","02","05","18:00","-9.5","","-17.9","","50","","","","29","","9","","","","101.03","","","","-14","","NA"
"-66.61","45.92","FREDERICTON CDA CS","8101605","2012-02-05 19:00","2012","02","05","19:00","-12.9","","-18.4","","63","","","","26","","4","","","","101.02","","","","-16","","NA"
"-66.61","45.92","FREDERICTON CDA CS","8101605","2012-02-05 20:00","2012","02","05","20:00","-16.2","","-19.3","","77","","","","23","","6","","","","101.01","","","","-21","","NA"
"-66.61","45.92","FREDERICTON CDA CS","8101605","2012-02-05 21:00","2012","02","05","21:00","-11.7","","-17.3","","63","","","","23","","11","","","","100.99","","","","-18","","NA"
"-66.61","45.92","FREDERICTON CDA CS","8101605","2012-02-05 22:00","2012","02","05","22:00","-15.6","","-20.1","","68","","","","19","","6","","","","100.92","","","","-20","","NA"
"-66.61","45.92","FREDERICTON CDA CS","8101605","2012-02-05 23:00","2012","02","05","23:00","-13.3","","-17.8","","69","","","","21","","9","","","","100.84","","","","-19","","NA"
"-66.61","45.92","FREDERICTON CDA CS","8101605","2012-02-06 00:00","2012","02","06","00:00","-13.2","","-17.3","","71","","","","19","","7","","","","100.78","","","","-18","","NA"
"-66.61","45.92","FREDERICTON CDA CS","8101605","2012-02-06 01:00","2012","02","06","01:00","-13.5","","-17.2","","74","","","","16","","9","","","","100.65","","","","-19","","NA"
"-66.61","45.92","FREDERICTON CDA CS","8101605","2012-02-06 02:00","2012","02","06","02:00","-12.7","","-16.5","","73","","","","10","","7","","","","100.54","","","","-17","","NA"
"-66.61","45.92","FREDERICTON CDA CS","8101605","2012-02-06 03:00","2012","02","06","03:00","-10.7","","-14.6","","73","","","","10","","9","","","","100.49","","","","-16","","NA"
"-66.61","45.92","FREDERICTON CDA CS","8101605","2012-02-06 04:00","2012","02","06","04:00","-8.1","","-11.5","","76","","","","22","","11","","","","100.43","","","","-13","","NA"
"-66.61","45.92","FREDERICTON CDA CS","8101605","2012-02-06 05:00","2012","02","06","05:00","-7.4","","-9.8","","83","","","","22","","17","","","","100.33","","","","-14","","NA"
"-66.61","45.92","FREDERICTON CDA CS","8101605","2012-02-06 06:00","2012","02","06","06:00","-6.7","","-10.2","","76","","","","21","","13","","","","100.27","","","","-12","","NA"
"-66.61","45.92","FREDERICTON CDA CS","8101605","2012-02-06 07:00","2012","02","06","07:00","-5.4","","-9.4","","73","","","","22","","11","","","","100.21","","","","-10","","NA"
"-66.61","45.92","FREDERICTON CDA CS","8101605","2012-02-06 08:00","2012","02","06","08:00","-4.6","","-8.9","","72","","","","21","","17","","","","100.17","","","","-10","","NA"
"-66.61","45.92","FREDERICTON CDA CS","8101605","2012-02-06 09:00","2012","02","06","09:00","-3.7","","-8.3","","70","","","","22","","13","","","","100.19","","","","-9","","NA"
"-66.61","45.92","FREDERICTON CDA CS","8101605","2012-02-06 10:00","2012","02","06","10:00","-2.6","","-7.6","","68","","","","21","","19","","","","100.18","","","","-8","","NA"
"-66.61","45.92","FREDERICTON CDA CS","8101605","2012-02-06 11:00","2012","02","06","11:00","-1.5","","-7.1","","66","","","","22","","19","","","","100.14","","","","-7","","NA"
"-66.61","45.92","FREDERICTON CDA CS","8101605","2012-02-06 12:00","2012","02","06","12:00","-0.4","","-6.6","","63","","","","22","","19","","","","100.11","","","","-6","","NA"
"-66.61","45.92","FREDERICTON CDA CS","8101605","2012-02-06 13:00","2012","02","06","13:00","0.6","","-5.8","","62","","","","24","","15","","","","100.07","","","","","","NA"
"-66.61","45.92","FREDERICTON CDA CS","8101605","2012-02-06 14:00","2012","02","06","14:00","1.6","","-5.1","","61","","","","24","","19","","","","100.00","","","","","","NA"
"-66.61","45.92","FREDERICTON CDA CS","8101605","2012-02-06 15:00","2012","02","06","15:00","2.6","","-4.4","","60","","","","25","","19","","","","99.97","","","","","","NA"
"-66.61","45.92","FREDERICTON CDA CS","8101605","2012-02-06 16:00","2012","02","06","16:00","2.6","","-4.0","","62","","","","26","","24","","","","99.96","","","","","","NA"
"-66.61","45.92","FREDERICTON CDA CS","8101605","2012-02-06 17:00","2012","02","06","17:00","2.6","","-3.9","","62","","","","26","","19","","","","99.99","","","","","","NA"
"-66.61","45.92","FREDERICTON CDA CS","8101605","2012-02-06 18:00","2012","02","06","18:00","2.4","","-4.0","","63","","","","28","","20","","","","100.00","","","","","","NA"
"-66.61","45.92","FREDERICTON CDA CS","8101605","2012-02-06 19:00","2012","02","06","19:00","2.2","","-3.9","","64","","","","27","","19","","","","100.03","","","","","","NA"
"-66.61","45.92","FREDERICTON CDA CS","8101605","2012-02-06 20:00","2012","02","06","20:00","2.2","","-3.9","","64","","","","27","","15","","","","100.10","","","","","","NA"
"-66.61","45.92","FREDERICTON CDA CS","8101605","2012-02-06 21:00","2012","02","06","21:00","1.9","","-3.8","","66","","","","27","","15","","","","100.15","","","","","","NA"
"-66.61","45.92","FREDERICTON CDA CS","8101605","2012-02-06 22:00","2012","02","06","22:00","2.0","","-4.3","","63","","","","26","","13","","","","100.16","","","","","","NA"
"-66.61","45.92","FREDERICTON CDA CS","8101605","2012-02-06 23:00","2012","02","06","23:00","1.9","","-4.4","","63","","","","28","","15","","","","100.14","","","","","","NA"
"-66.61","45.92","FREDERICTON CDA CS","8101605","2012-02-07 00:00","2012","02","07","00:00","1.5","","-4.6","","64","","","","27","","15","","","","100.13","","","","","","NA"
"-66.61","45.92","FREDERICTON CDA CS","8101605","2012-02-07 01:00","2012","02","07","01:00","1.5","","-4.6","","64","","","","26","","11","","","","100.17","","","","","","NA"
"-66.61","45.92","FREDERICTON CDA CS","8101605","2012-02-07 02:00","2012","02","07","02:00","0.7","","-5.0","","66","","","","26","","9","","","","100.17","","","","","","NA"
"-66.61","45.92","FREDERICTON CDA CS","8101605","2012-02-07 03:00","2012","02","07","03:00","-0.4","","-5.3","","69","","","","27","","9","","","","100.21","","","","-4","","NA"
"-66.61","45.92","FREDERICTON CDA CS","8101605","2012-02-07 04:00","2012","02","07","04:00","-0.8","","-5.1","","73","","","","26","","9","","","","100.23","","","","-4","","NA"
"-66.61","45.92","FREDERICTON CDA CS","8101605","2012-02-07 05:00","2012","02","07","05:00","-0.1","","-4.9","","70","","","","28","","9","","","","100.35","","","","-3","","NA"
"-66.61","45.92","FREDERICTON CDA CS","8101605","2012-02-07 06:00","2012","02","07","06:00","-1.0","","-5.5","","71","","","","33","","9","","","","100.44","","","","-4","","NA"
"-66.61","45.92","FREDERICTON CDA CS","8101605","2012-02-07 07:00","2012","02","07","07:00","-1.8","","-9.0","","58","","","","32","","13","","","","100.56","","","","-6","","NA"
"-66.61","45.92","FREDERICTON CDA CS","8101605","2012-02-07 08:00","2012","02","07","08:00","-2.3","","-9.2","","59","","","","32","","9","","","","100.65","","","","-6","","NA"
"-66.61","45.92","FREDERICTON CDA CS","8101605","2012-02-07 09:00","2012","02","07","09:00","-2.8","","-9.5","","60","","","","34","","6","","","","100.75","","","","-5","","NA"
"-66.61","45.92","FREDERICTON CDA CS","8101605","2012-02-07 10:00","2012","02","07","10:00","-2.2","","-10.5","","53","","","","29","","20","","","","100.81","","","","-8","","NA"
"-66.61","45.92","FREDERICTON CDA CS","8101605","2012-02-07 11:00","2012","02","07","11:00","-2.3","","-10.0","","55","","","","30","","22","","","","100.86","","","","-8","","NA"
"-66.61","45.92","FREDERICTON CDA CS","8101605","2012-02-07 12:00","2012","02","07","12:00","-2.8","","-10.9","","54","","","","29","","24","","","","100.88","","","","-9","","NA"
"-66.61","45.92","FREDERICTON CDA CS","8101605","2012-02-07 13:00","2012","02","07","13:00","-3.4","","-11.4","","54","","","","29","","26","","","","100.91","","","","-10","","NA"
"-66.61","45.92","FREDERICTON CDA CS","8101605","2012-02-07 14:00","2012","02","07","14:00","-3.5","","-11.7","","53","","","","31","","24","","","","100.88","","","","-10","","NA"
"-66.61","45.92","FREDERICTON CDA CS","8101605","2012-02-07 15:00","2012","02","07","15:00","-3.3","","-12.2","","50","","","","30","","24","","","","100.87","","","","-10","","NA"
"-66.61","45.92","FREDERICTON CDA CS","8101605","2012-02-07 16:00","2012","02","07","16:00","-3.6","","-12.3","","51","","","","30","","26","","","","100.98","","","","-11","","NA"
"-66.61","45.92","FREDERICTON CDA CS","8101605","2012-02-07 17:00","2012","02","07","17:00","-4.0","","-12.8","","50","","","","31","","17","","","","101.02","","","","-10","","NA"
"-66.61","45.92","FREDERICTON CDA CS","8101605","2012-02-07 18:00","2012","02","07","18:00","-5.0","","-13.5","","51","","","","31","","15","","","","101.08","","","","-11","","NA"
"-66.61","45.92","FREDERICTON CDA CS","8101605","2012-02-07 19:00","2012","02","07","19:00","-6.4","","-14.1","","54","","","","31","","11","","","","101.21","","","","-11","","NA"
"-66.61","45.92","FREDERICTON CDA CS","8101605","2012-02-07 20:00","2012","02","07","20:00","-8.3","","-15.5","","56","","","","33","","9","","","","101.30","","","","-13","","NA"
"-66.61","45.92","FREDERICTON CDA CS","8101605","2012-02-07 21:00","2012","02","07","21:00","-9.3","","-16.6","","55","","","","33","","7","","","","101.38","","","","-13","","NA"
"-66.61","45.92","FREDERICTON CDA CS","8101605","2012-02-07 22:00","2012","02","07","22:00","-10.5","","-17.3","","57","","","","33","","9","","","","101.42","","","","-15","","NA"
"-66.61","45.92","FREDERICTON CDA CS","8101605","2012-02-07 23:00","2012","02","07","23:00","-11.5","","-17.6","","61","","","","33","","11","","","","101.51","","","","-17","","NA"
"-66.61","45.92","FREDERICTON CDA CS","8101605","2012-02-08 00:00","2012","02","08","00:00","-12.5","","-18.1","","63","","","","33","","9","","","","101.60","","","","-18","","NA"
"-66.61","45.92","FREDERICTON CDA CS","8101605","2012-02-08 01:00","2012","02","08","01:00","-12.3","","-19.9","","53","","","","30","","30","","","","101.62","","","","-23","","NA"
"-66.61","45.92","FREDERICTON CDA CS","8101605","2012-02-08 02:00","2012","02","08","02:00","-13.5","","-20.6","","55","","","","29","","19","","","","101.72","","","","-22","","NA"
"-66.61","45.92","FREDERICTON CDA CS","8101605","2012-02-08 03:00","2012","02","08","03:00","-14.7","","-20.2","","63","","","","30","","19","","","","101.76","","","","-24","","NA"
"-66.61","45.92","FREDERICTON CDA CS","8101605","2012-02-08 04:00","2012","02","08","04:00","-15.4","","-21.0","","62","","","","32","","11","","","","101.79","","","","-22","","NA"
"-66.61","45.92","FREDERICTON CDA CS","8101605","2012-02-08 05:00","2012","02","08","05:00","-16.6","","-21.8","","64","","","","24","","7","","","","101.84","","","","-22","","NA"
"-66.61","45.92","FREDERICTON CDA CS","8101605","2012-02-08 06:00","2012","02","08","06:00","-17.9","","-22.4","","68","","","","24","","6","","","","101.85","","","","-23","","NA"
"-66.61","45.92","FREDERICTON CDA CS","8101605","2012-02-08 07:00","2012","02","08","07:00","-18.6","","-22.7","","70","","","","","","0","","","","101.86","","","","","","NA"
"-66.61","45.92","FREDERICTON CDA CS","8101605","2012-02-08 08:00","2012","02","08","08:00","-18.7","","-22.5","","72","","","","26","","2","","","","101.88","","","","-20","","NA"
"-66.61","45.92","FREDERICTON CDA CS","8101605","2012-02-08 09:00","2012","02","08","09:00","-19.4","","-22.6","","76","","","","35","","2","","","","101.93","","","","-21","","NA"
"-66.61","45.92","FREDERICTON CDA CS","8101605","2012-02-08 10:00","2012","02","08","10:00","-13.7","","-20.8","","55","","","","21","","11","","","","101.90","","","","-20","","NA"
"-66.61","45.92","FREDERICTON CDA CS","8101605","2012-02-08 11:00","2012","02","08","11:00","-10.5","","-19.9","","46","","","","20","","11","","","","101.86","","","","-16","","NA"
"-66.61","45.92","FREDERICTON CDA CS","8101605","2012-02-08 12:00","2012","02","08","12:00","-8.4","","-20.2","","38","","","","21","","17","","","","101.77","","","","-15","","NA"
"-66.61","45.92","FREDERICTON CDA CS","8101605","2012-02-08 13:00","2012","02","08","13:00","-6.8","","-20.6","","32","","","","23","","17","","","","101.66","","","","-13","","NA"
"-66.61","45.92","FREDERICTON CDA CS","8101605","2012-02-08 14:00","2012","02","08","14:00","-5.1","","-19.9","","30","","","","23","","17","","","","101.57","","","","-11","","NA"
"-66.61","45.92","FREDERICTON CDA CS","8101605","2012-02-08 15:00","2012","02","08","15:00","-3.7","","-19.0","","29","","","","22","","15","","","","101.45","","","","-9","","NA"
"-66.61","45.92","FREDERICTON CDA CS","8101605","2012-02-08 16:00","2012","02","08","16:00","-3.4","","-18.2","","31","","","","22","","19","","","","101.38","","","","-9","","NA"
"-66.61","45.92","FREDERICTON CDA CS","8101605","2012-02-08 17:00","2012","02","08","17:00","-3.4","","-18.6","","30","","","","21","","13","","","","101.34","","","","-8","","NA"
"-66.61","45.92","FREDERICTON CDA CS","8101605","2012-02-08 18:00","2012","02","08","18:00","-3.8","","-19.5","","28","","","","18","","6","","","","101.32","","","","-6","","NA"
"-66.61","45.92","FREDERICTON CDA CS","8101605","2012-02-08 19:00","2012","02","08","19:00","-5.3","","-19.0","","33","","","","18","","7","","","","101.29","","","","-9","","NA"
"-66.61","45.92","FREDERICTON CDA CS","8101605","2012-02-08 20:00","2012","02","08","20:00","-6.3","","-16.4","","45","","","","19","","20","","","","101.30","","","","-13","","NA"
"-66.61","45.92","FREDERICTON CDA CS","8101605","2012-02-08 21:00","2012","02","08","21:00","-7.0","","-14.3","","56","","","","20","","15","","","","101.27","","","","-13","","NA"
"-66.61","45.92","FREDERICTON CDA CS","8101605","2012-02-08 22:00","2012","02","08","22:00","-5.8","","-11.2","","66","","","","22","","13","","","","101.23","","","","-11","","NA"
"-66.61","45.92","FREDERICTON CDA CS","8101605","2012-02-08 23:00","2012","02","08","23:00","-6.1","","-10.2","","73","","","","22","","15","","","","101.22","","","","-12","","NA"
"-66.61","45.92","FREDERICTON CDA CS","8101605","2012-02-09 00:00","2012","02","09","00:00","-7.2","","-10.5","","77","","","","21","","13","","","","101.23","","","","-13","","NA"
"-66.61","45.92","FREDERICTON CDA CS","8101605","2012-02-09 01:00","2012","02","09","01:00","-8.0","","-11.0","","79","","","","","","0","","","","101.23","","","","","","NA"
"-66.61","45.92","FREDERICTON CDA CS","8101605","2012-02-09 02:00","2012","02","09","02:00","-10.8","","-13.1","","83","","","","20","","6","","","","101.23","","","","-14","","NA"
"-66.61","45.92","FREDERICTON CDA CS","8101605","2012-02-09 03:00","2012","02","09","03:00","-8.5","","-10.3","","87","","","","20","","6","","","","101.20","","","","-12","","NA"
"-66.61","45.92","FREDERICTON CDA CS","8101605","2012-02-09 04:00","2012","02","09","04:00","-11.7","","-12.9","","91","","","","28","","4","","","","101.18","","","","-14","","NA"
"-66.61","45.92","FREDERICTON CDA CS","8101605","2012-02-09 05:00","2012","02","09","05:00","-12.9","","-14.5","","88","","","","32","","2","","","","101.19","","","","-14","","NA"
"-66.61","45.92","FREDERICTON CDA CS","8101605","2012-02-09 06:00","2012","02","09","06:00","-14.4","","-15.7","","90","","","","32","","6","","","","101.14","","","","-19","","NA"
"-66.61","45.92","FREDERICTON CDA CS","8101605","2012-02-09 07:00","2012","02","09","07:00","-14.7","","-16.2","","88","","","","31","","4","","","","101.16","","","","-18","","NA"
"-66.61","45.92","FREDERICTON CDA CS","8101605","2012-02-09 08:00","2012","02","09","08:00","-16.4","","-18.2","","86","","","","32","","7","","","","101.16","","","","-21","","NA"
"-66.61","45.92","FREDERICTON CDA CS","8101605","2012-02-09 09:00","2012","02","09","09:00","-15.8","","-17.6","","86","","","","33","","7","","","","101.16","","","","-21","","NA"
"-66.61","45.92","FREDERICTON CDA CS","8101605","2012-02-09 10:00","2012","02","09","10:00","-14.1","","-15.9","","86","","","","33","","6","","","","101.09","","","","-18","","NA"
"-66.61","45.92","FREDERICTON CDA CS","8101605","2012-02-09 11:00","2012","02","09","11:00","-10.2","","-12.5","","83","","","","32","","6","","","","101.00","","","","-14","","NA"
"-66.61","45.92","FREDERICTON CDA CS","8101605","2012-02-09 12:00","2012","02","09","12:00","-4.9","","-10.8","","63","","","","34","","6","","","","100.96","","","","-8","","NA"
"-66.61","45.92","FREDERICTON CDA CS","8101605","2012-02-09 13:00","2012","02","09","13:00","-0.9","","-9.4","","52","","","","32","","13","","","","100.85","","","","-5","","NA"
"-66.61","45.92","FREDERICTON CDA CS","8101605","2012-02-09 14:00","2012","02","09","14:00","0.1","","-9.1","","50","","","","32","","11","","","","100.81","","","","","","NA"
"-66.61","45.92","FREDERICTON CDA CS","8101605","2012-02-09 15:00","2012","02","09","15:00","1.0","","-9.6","","45","","","","32","","7","","","","100.73","","","","","","NA"
"-66.61","45.92","FREDERICTON CDA CS","8101605","2012-02-09 16:00","2012","02","09","16:00","1.9","","-9.7","","42","","","","31","","11","","","","100.70","","","","","","NA"
"-66.61","45.92","FREDERICTON CDA CS","8101605","2012-02-09 17:00","2012","02","09","17:00","1.2","","-9.9","","43","","","","29","","15","","","","100.76","","","","","","NA"
"-66.61","45.92","FREDERICTON CDA CS","8101605","2012-02-09 18:00","2012","02","09","18:00","-0.2","","-9.4","","50","","","","28","","9","","","","100.85","","","","-3","","NA"
"-66.61","45.92","FREDERICTON CDA CS","8101605","2012-02-09 19:00","2012","02","09","19:00","-1.7","","-9.3","","56","","","","30","","15","","","","100.96","","","","-7","","NA"
"-66.61","45.92","FREDERICTON CDA CS","8101605","2012-02-09 20:00","2012","02","09","20:00","-2.7","","-9.4","","60","","","","29","","9","","","","101.02","","","","-6","","NA"
"-66.61","45.92","FREDERICTON CDA CS","8101605","2012-02-09 21:00","2012","02","09","21:00","-4.1","","-9.2","","68","","","","27","","2","","","","101.07","","","","-5","","NA"
"-66.61","45.92","FREDERICTON CDA CS","8101605","2012-02-09 22:00","2012","02","09","22:00","-5.0","","-10.1","","67","","","","29","","7","","","","101.10","","","","-8","","NA"
"-66.61","45.92","FREDERICTON CDA CS","8101605","2012-02-09 23:00","2012","02","09","23:00","-6.5","","-9.9","","77","","","","32","","4","","","","101.11","","","","-8","","NA"
"-66.61","45.92","FREDERICTON CDA CS","8101605","2012-02-10 00:00","2012","02","10","00:00","-6.9","","-9.9","","79","","","","33","","4","","","","101.13","","","","-9","","NA"
"-66.61","45.92","FREDERICTON CDA CS","8101605","2012-02-10 01:00","2012","02","10","01:00","-7.8","","-9.6","","87","","","","34","","2","","","","101.17","","","","-9","","NA"
"-66.61","45.92","FREDERICTON CDA CS","8101605","2012-02-10 02:00","2012","02","10","02:00","-9.2","","-10.5","","90","","","","","","0","","","","101.20","","","","","","NA"
"-66.61","45.92","FREDERICTON CDA CS","8101605","2012-02-10 03:00","2012","02","10","03:00","-11.1","","-12.3","","91","","","","33","","7","","","","101.24","","","","-15","","NA"
"-66.61","45.92","FREDERICTON CDA CS","8101605","2012-02-10 04:00","2012","02","10","04:00","-12.5","","-13.9","","89","","","","34","","4","","","","101.28","","","","-15","","NA"
"-66.61","45.92","FREDERICTON CDA CS","8101605","2012-02-10 05:00","2012","02","10","05:00","-13.5","","-15.0","","88","","","","33","","6","","","","101.33","","","","-18","","NA"
"-66.61","45.92","FREDERICTON CDA CS","8101605","2012-02-10 06:00","2012","02","10","06:00","-14.3","","-15.9","","88","","","","33","","6","","","","101.35","","","","-18","","NA"
"-66.61","45.92","FREDERICTON CDA CS","8101605","2012-02-10 07:00","2012","02","10","07:00","-15.6","","-17.4","","86","","","","32","","6","","","","101.38","","","","-20","","NA"
"-66.61","45.92","FREDERICTON CDA CS","8101605","2012-02-10 08:00","2012","02","10","08:00","-16.2","","-18.0","","86","","","","32","","6","","","","101.42","","","","-21","","NA"
"-66.61","45.92","FREDERICTON CDA CS","8101605","2012-02-10 09:00","2012","02","10","09:00","-15.1","","-16.8","","87","","","","32","","6","","","","101.45","","","","-19","","NA"
"-66.61","45.92","FREDERICTON CDA CS","8101605","2012-02-10 10:00","2012","02","10","10:00","-12.6","","-14.3","","87","","","","32","","4","","","","101.46","","","","-15","","NA"
"-66.61","45.92","FREDERICTON CDA CS","8101605","2012-02-10 11:00","2012","02","10","11:00","-7.0","","-11.1","","73","","","","10","","7","","","","101.39","","","","-11","","NA"
"-66.61","45.92","FREDERICTON CDA CS","8101605","2012-02-10 12:00","2012","02","10","12:00","-1.8","","-8.7","","59","","","","10","","11","","","","101.31","","","","-6","","NA"
"-66.61","45.92","FREDERICTON CDA CS","8101605","2012-02-10 13:00","2012","02","10","13:00","3.5","","-7.8","","43","","","","19","","17","","","","101.19","","","","","","NA"
"-66.61","45.92","FREDERICTON CDA CS","8101605","2012-02-10 14:00","2012","02","10","14:00","4.4","","-6.4","","45","","","","21","","22","","","","101.09","","","","","","NA"
"-66.61","45.92","FREDERICTON CDA CS","8101605","2012-02-10 15:00","2012","02","10","15:00","4.7","","-5.0","","49","","","","20","","22","","","","101.03","","","","","","NA"
"-66.61","45.92","FREDERICTON CDA CS","8101605","2012-02-10 16:00","2012","02","10","16:00","4.5","","-3.0","","58","","","","17","","24","","","","100.97","","","","","","NA"
"-66.61","45.92","FREDERICTON CDA CS","8101605","2012-02-10 17:00","2012","02","10","17:00","4.0","","-1.4","","68","","","","16","","19","","","","100.94","","","","","","NA"
"-66.61","45.92","FREDERICTON CDA CS","8101605","2012-02-10 18:00","2012","02","10","18:00","2.6","","-1.6","","74","","","","15","","15","","","","100.90","","","","","","NA"
"-66.61","45.92","FREDERICTON CDA CS","8101605","2012-02-10 19:00","2012","02","10","19:00","1.0","","-2.4","","78","","","","16","","11","","","","100.90","","","","","","NA"
"-66.61","45.92","FREDERICTON CDA CS","8101605","2012-02-10 20:00","2012","02","10","20:00","0.3","","-2.5","","81","","","","18","","11","","","","100.87","","","","","","NA"
"-66.61","45.92","FREDERICTON CDA CS","8101605","2012-02-10 21:00","2012","02","10","21:00","-1.0","","-3.2","","85","","","","18","","7","","","","100.86","","","","-4","","NA"
"-66.61","45.92","FREDERICTON CDA CS","8101605","2012-02-10 22:00","2012","02","10","22:00","-1.8","","-3.5","","88","","","","20","","7","","","","100.86","","","","-4","","NA"
"-66.61","45.92","FREDERICTON CDA CS","8101605","2012-02-10 23:00","2012","02","10","23:00","-2.2","","-3.5","","91","","","","17","","6","","","","100.82","","","","-5","","NA"
"-66.61","45.92","FREDERICTON CDA CS","8101605","2012-02-11 00:00","2012","02","11","00:00","-2.6","","-3.7","","92","","","","15","","6","","","","100.76","","","","-5","","NA"
"-66.61","45.92","FREDERICTON CDA CS","8101605","2012-02-11 01:00","2012","02","11","01:00","-0.8","","-2.0","","92","","","","19","","4","","","","100.70","","","","-2","","NA"
"-66.61","45.92","FREDERICTON CDA CS","8101605","2012-02-11 02:00","2012","02","11","02:00","-1.0","","-2.3","","91","","","","32","","9","","","","100.64","","","","-4","","NA"
"-66.61","45.92","FREDERICTON CDA CS","8101605","2012-02-11 03:00","2012","02","11","03:00","-1.2","","-2.5","","91","","","","32","","6","","","","100.58","","","","-3","","NA"
"-66.61","45.92","FREDERICTON CDA CS","8101605","2012-02-11 04:00","2012","02","11","04:00","-0.9","","-2.3","","90","","","","33","","4","","","","100.56","","","","-2","","NA"
"-66.61","45.92","FREDERICTON CDA CS","8101605","2012-02-11 05:00","2012","02","11","05:00","-0.5","","-1.8","","91","","","","28","","4","","","","100.52","","","","-2","","NA"
"-66.61","45.92","FREDERICTON CDA CS","8101605","2012-02-11 06:00","2012","02","11","06:00","-0.6","","-1.9","","91","","","","33","","2","","","","100.51","","","","-1","","NA"
"-66.61","45.92","FREDERICTON CDA CS","8101605","2012-02-11 07:00","2012","02","11","07:00","-1.0","","-2.1","","92","","","","33","","9","","","","100.46","","","","-4","","NA"
"-66.61","45.92","FREDERICTON CDA CS","8101605","2012-02-11 08:00","2012","02","11","08:00","-1.0","","-2.0","","93","","","","33","","9","","","","100.48","","","","-4","","NA"
"-66.61","45.92","FREDERICTON CDA CS","8101605","2012-02-11 09:00","2012","02","11","09:00","-1.0","","-2.1","","92","","","","34","","7","","","","100.46","","","","-4","","NA"
"-66.61","45.92","FREDERICTON CDA CS","8101605","2012-02-11 10:00","2012","02","11","10:00","-1.1","","-2.1","","93","","","","33","","9","","","","100.44","","","","-4","","NA"
"-66.61","45.92","FREDERICTON CDA CS","8101605","2012-02-11 11:00","2012","02","11","11:00","-1.1","","-2.1","","93","","","","33","","9","","","","100.42","","","","-4","","NA"
"-66.61","45.92","FREDERICTON CDA CS","8101605","2012-02-11 12:00","2012","02","11","12:00","-0.9","","-1.9","","93","","","","33","","7","","","","100.37","","","","-3","","NA"
"-66.61","45.92","FREDERICTON CDA CS","8101605","2012-02-11 13:00","2012","02","11","13:00","-0.8","","-1.8","","93","","","","33","","9","","","","100.25","","","","-4","","NA"
"-66.61","45.92","FREDERICTON CDA CS","8101605","2012-02-11 14:00","2012","02","11","14:00","-0.9","","-2.0","","92","","","","33","","9","","","","100.15","","","","-4","","NA"
"-66.61","45.92","FREDERICTON CDA CS","8101605","2012-02-11 15:00","2012","02","11","15:00","-1.2","","-2.2","","93","","","","35","","13","","","","100.06","","","","-5","","NA"
"-66.61","45.92","FREDERICTON CDA CS","8101605","2012-02-11 16:00","2012","02","11","16:00","-1.4","","-2.4","","93","","","","35","","9","","","","100.02","","","","-5","","NA"
"-66.61","45.92","FREDERICTON CDA CS","8101605","2012-02-11 17:00","2012","02","11","17:00","-2.0","","-3.1","","92","","","","1","","13","","","","99.99","","","","-6","","NA"
"-66.61","45.92","FREDERICTON CDA CS","8101605","2012-02-11 18:00","2012","02","11","18:00","-3.0","","-4.1","","92","","","","35","","13","","","","99.92","","","","-8","","NA"
"-66.61","45.92","FREDERICTON CDA CS","8101605","2012-02-11 19:00","2012","02","11","19:00","-3.6","","-5.2","","89","","","","36","","15","","","","99.83","","","","-9","","NA"
"-66.61","45.92","FREDERICTON CDA CS","8101605","2012-02-11 20:00","2012","02","11","20:00","-4.6","","-6.2","","89","","","","36","","15","","","","99.82","","","","-10","","NA"
"-66.61","45.92","FREDERICTON CDA CS","8101605","2012-02-11 21:00","2012","02","11","21:00","-5.5","","-7.5","","86","","","","1","","15","","","","99.71","","","","-11","","NA"
"-66.61","45.92","FREDERICTON CDA CS","8101605","2012-02-11 22:00","2012","02","11","22:00","-6.0","","-8.0","","86","","","","36","","13","","","","99.61","","","","-11","","NA"
"-66.61","45.92","FREDERICTON CDA CS","8101605","2012-02-11 23:00","2012","02","11","23:00","-6.2","","-7.9","","88","","","","34","","13","","","","99.42","","","","-12","","NA"
"-66.61","45.92","FREDERICTON CDA CS","8101605","2012-02-12 00:00","2012","02","12","00:00","-7.2","","-8.8","","88","","","","33","","17","","","","99.31","","","","-14","","NA"
"-66.61","45.92","FREDERICTON CDA CS","8101605","2012-02-12 01:00","2012","02","12","01:00","-7.7","","-9.3","","88","","","","33","","19","","","","99.22","","","","-15","","NA"
"-66.61","45.92","FREDERICTON CDA CS","8101605","2012-02-12 02:00","2012","02","12","02:00","-9.2","","-11.2","","85","","","","32","","26","","","","99.06","","","","-18","","NA"
"-66.61","45.92","FREDERICTON CDA CS","8101605","2012-02-12 03:00","2012","02","12","03:00","-10.9","","-13.3","","82","","","","32","","22","","","","98.95","","","","-19","","NA"
"-66.61","45.92","FREDERICTON CDA CS","8101605","2012-02-12 04:00","2012","02","12","04:00","-11.9","","-15.5","","75","","","","32","","26","","","","98.90","","","","-21","","NA"
"-66.61","45.92","FREDERICTON CDA CS","8101605","2012-02-12 05:00","2012","02","12","05:00","-12.6","","-17.2","","68","","","","31","","26","","","","98.95","","","","-22","","NA"
"-66.61","45.92","FREDERICTON CDA CS","8101605","2012-02-12 06:00","2012","02","12","06:00","-12.8","","-17.5","","68","","","","31","","22","","","","99.00","","","","-22","","NA"
"-66.61","45.92","FREDERICTON CDA CS","8101605","2012-02-12 07:00","2012","02","12","07:00","-13.4","","-18.5","","65","","","","32","","24","","","","99.06","","","","-23","","NA"
"-66.61","45.92","FREDERICTON CDA CS","8101605","2012-02-12 08:00","2012","02","12","08:00","-15.0","","-19.9","","66","","","","30","","28","","","","99.19","","","","-26","","NA"
"-66.61","45.92","FREDERICTON CDA CS","8101605","2012-02-12 09:00","2012","02","12","09:00","-15.5","","-20.1","","68","","","","31","","24","","","","99.23","","","","-26","","NA"
"-66.61","45.92","FREDERICTON CDA CS","8101605","2012-02-12 10:00","2012","02","12","10:00","-15.1","","-19.9","","67","","","","31","","30","","","","99.20","","","","-26","","NA"
"-66.61","45.92","FREDERICTON CDA CS","8101605","2012-02-12 11:00","2012","02","12","11:00","-14.6","","-19.9","","64","","","","29","","26","","","","99.30","","","","-25","","NA"
"-66.61","45.92","FREDERICTON CDA CS","8101605","2012-02-12 12:00","2012","02","12","12:00","-13.9","","-19.6","","62","","","","29","","22","","","","99.41","","","","-23","","NA"
"-66.61","45.92","FREDERICTON CDA CS","8101605","2012-02-12 13:00","2012","02","12","13:00","-13.3","","-19.5","","60","","","","30","","32","","","","99.34","","","","-24","","NA"
"-66.61","45.92","FREDERICTON CDA CS","8101605","2012-02-12 14:00","2012","02","12","14:00","-12.5","","-19.9","","54","","","","30","","30","","","","99.21","","","","-23","","NA"
"-66.61","45.92","FREDERICTON CDA CS","8101605","2012-02-12 15:00","2012","02","12","15:00","-12.2","","-20.1","","52","","","","31","","28","","","","99.20","","","","-22","","NA"
"-66.61","45.92","FREDERICTON CDA CS","8101605","2012-02-12 16:00","2012","02","12","16:00","-11.8","","-20.1","","50","","","","30","","24","","","","99.24","","","","-21","","NA"
"-66.61","45.92","FREDERICTON CDA CS","8101605","2012-02-12 17:00","2012","02","12","17:00","-12.4","","-20.7","","50","","","","30","","20","","","","99.26","","","","-21","","NA"
"-66.61","45.92","FREDERICTON CDA CS","8101605","2012-02-12 18:00","2012","02","12","18:00","-13.6","","-21.9","","50","","","","31","","19","","","","99.33","","","","-22","","NA"
"-66.61","45.92","FREDERICTON CDA CS","8101605","2012-02-12 19:00","2012","02","12","19:00","-14.2","","-22.2","","51","","","","31","","15","","","","99.45","","","","-22","","NA"
"-66.61","45.92","FREDERICTON CDA CS","8101605","2012-02-12 20:00","2012","02","12","20:00","-14.9","","-23.0","","50","","","","31","","20","","","","99.58","","","","-24","","NA"
"-66.61","45.92","FREDERICTON CDA CS","8101605","2012-02-12 21:00","2012","02","12","21:00","-15.8","","-23.7","","51","","","","31","","24","","","","99.70","","","","-26","","NA"
"-66.61","45.92","FREDERICTON CDA CS","8101605","2012-02-12 22:00","2012","02","12","22:00","-16.7","","-24.7","","50","","","","30","","19","","","","99.80","","","","-26","","NA"
"-66.61","45.92","FREDERICTON CDA CS","8101605","2012-02-12 23:00","2012","02","12","23:00","-17.4","","-25.5","","49","","","","30","","24","","","","99.87","","","","-28","","NA"
"-66.61","45.92","FREDERICTON CDA CS","8101605","2012-02-13 00:00","2012","02","13","00:00","-18.1","","-26.2","","49","","","","30","","19","","","","99.93","","","","-28","","NA"
"-66.61","45.92","FREDERICTON CDA CS","8101605","2012-02-13 01:00","2012","02","13","01:00","-19.2","","-26.1","","54","","","","25","","9","","","","99.94","","","","-26","","NA"
"-66.61","45.92","FREDERICTON CDA CS","8101605","2012-02-13 02:00","2012","02","13","02:00","-20.7","","-25.8","","64","","","","22","","7","","","","99.95","","","","-26","","NA"
"-66.61","45.92","FREDERICTON CDA CS","8101605","2012-02-13 03:00","2012","02","13","03:00","-20.4","","-25.4","","64","","","","26","","13","","","","99.97","","","","-29","","NA"
"-66.61","45.92","FREDERICTON CDA CS","8101605","2012-02-13 04:00","2012","02","13","04:00","-20.7","","-25.6","","65","","","","25","","13","","","","99.98","","","","-29","","NA"
"-66.61","45.92","FREDERICTON CDA CS","8101605","2012-02-13 05:00","2012","02","13","05:00","-21.8","","-26.2","","67","","","","24","","13","","","","100.03","","","","-31","","NA"
"-66.61","45.92","FREDERICTON CDA CS","8101605","2012-02-13 06:00","2012","02","13","06:00","-22.8","","-27.0","","68","","","","24","","9","","","","100.04","","","","-30","","NA"
"-66.61","45.92","FREDERICTON CDA CS","8101605","2012-02-13 07:00","2012","02","13","07:00","-22.9","","-26.8","","70","","","","22","","13","","","","100.05","","","","-32","","NA"
"-66.61","45.92","FREDERICTON CDA CS","8101605","2012-02-13 08:00","2012","02","13","08:00","-22.3","","-26.0","","72","","","","22","","11","","","","100.09","","","","-30","","NA"
"-66.61","45.92","FREDERICTON CDA CS","8101605","2012-02-13 09:00","2012","02","13","09:00","-19.6","","-22.7","","76","","","","25","","9","","","","100.15","","","","-26","","NA"
"-66.61","45.92","FREDERICTON CDA CS","8101605","2012-02-13 10:00","2012","02","13","10:00","-17.3","","-20.5","","76","","","","22","","7","","","","100.16","","","","-23","","NA"
"-66.61","45.92","FREDERICTON CDA CS","8101605","2012-02-13 11:00","2012","02","13","11:00","-15.0","","-19.0","","71","","","","25","","17","","","","100.16","","","","-23","","NA"
"-66.61","45.92","FREDERICTON CDA CS","8101605","2012-02-13 12:00","2012","02","13","12:00","-13.5","","-20.1","","58","","","","27","","28","","","","100.15","","","","-24","","NA"
"-66.61","45.92","FREDERICTON CDA CS","8101605","2012-02-13 13:00","2012","02","13","13:00","-13.0","","-20.3","","54","","","","28","","30","","","","100.12","","","","-23","","NA"
"-66.61","45.92","FREDERICTON CDA CS","8101605","2012-02-13 14:00","2012","02","13","14:00","-12.1","","-21.5","","45","","","","28","","33","","","","100.07","","","","-23","","NA"
"-66.61","45.92","FREDERICTON CDA CS","8101605","2012-02-13 15:00","2012","02","13","15:00","-11.0","","-21.0","","43","","","","28","","32","","","","100.07","","","","-21","","NA"
"-66.61","45.92","FREDERICTON CDA CS","8101605","2012-02-13 16:00","2012","02","13","16:00","-10.2","","-22.2","","37","","","","29","","28","","","","100.11","","","","-19","","NA"
"-66.61","45.92","FREDERICTON CDA CS","8101605","2012-02-13 17:00","2012","02","13","17:00","-10.2","","-23.6","","32","","","","29","","22","","","","100.21","","","","-18","","NA"
"-66.61","45.92","FREDERICTON CDA CS","8101605","2012-02-13 18:00","2012","02","13","18:00","-11.4","","-23.5","","36","","","","28","","15","","","","100.32","","","","-18","","NA"
"-66.61","45.92","FREDERICTON CDA CS","8101605","2012-02-13 19:00","2012","02","13","19:00","-11.8","","-25.2","","32","","","","28","","20","","","","100.46","","","","-20","","NA"
"-66.61","45.92","FREDERICTON CDA CS","8101605","2012-02-13 20:00","2012","02","13","20:00","-12.9","","-25.0","","36","","","","27","","15","","","","100.55","","","","-20","","NA"
"-66.61","45.92","FREDERICTON CDA CS","8101605","2012-02-13 21:00","2012","02","13","21:00","-13.6","","-24.9","","38","","","","27","","13","","","","100.63","","","","-21","","NA"
"-66.61","45.92","FREDERICTON CDA CS","8101605","2012-02-13 22:00","2012","02","13","22:00","-18.9","","-24.7","","60","","","","15","","6","","","","100.76","","","","-24","","NA"
"-66.61","45.92","FREDERICTON CDA CS","8101605","2012-02-13 23:00","2012","02","13","23:00","-16.5","","-25.2","","47","","","","24","","4","","","","100.84","","","","-20","","NA"
"-66.61","45.92","FREDERICTON CDA CS","8101605","2012-02-14 00:00","2012","02","14","00:00","-18.7","","-26.6","","50","","","","23","","6","","","","100.94","","","","-24","","NA"
"-66.61","45.92","FREDERICTON CDA CS","8101605","2012-02-14 01:00","2012","02","14","01:00","-20.2","","-26.7","","56","","","","24","","6","","","","101.00","","","","-25","","NA"
"-66.61","45.92","FREDERICTON CDA CS","8101605","2012-02-14 02:00","2012","02","14","02:00","-18.6","","-26.7","","49","","","","22","","13","","","","101.13","","","","-27","","NA"
"-66.61","45.92","FREDERICTON CDA CS","8101605","2012-02-14 03:00","2012","02","14","03:00","-22.7","","-25.5","","78","","","","33","","9","","","","101.18","","","","-30","","NA"
"-66.61","45.92","FREDERICTON CDA CS","8101605","2012-02-14 04:00","2012","02","14","04:00","-24.4","","-26.8","","80","","","","32","","9","","","","101.27","","","","-32","","NA"
"-66.61","45.92","FREDERICTON CDA CS","8101605","2012-02-14 05:00","2012","02","14","05:00","-24.9","","-28.0","","75","","","","32","","6","","","","101.37","","","","-31","","NA"
"-66.61","45.92","FREDERICTON CDA CS","8101605","2012-02-14 06:00","2012","02","14","06:00","-26.1","","-29.3","","74","","","","33","","7","","","","101.46","","","","-33","","NA"
"-66.61","45.92","FREDERICTON CDA CS","8101605","2012-02-14 07:00","2012","02","14","07:00","-26.4","","-29.2","","77","","","","33","","15","","","","101.48","","","","-37","","NA"
"-66.61","45.92","FREDERICTON CDA CS","8101605","2012-02-14 08:00","2012","02","14","08:00","-25.7","","-28.4","","78","","","","25","","4","","","","101.58","","","","-30","","NA"
"-66.61","45.92","FREDERICTON CDA CS","8101605","2012-02-14 09:00","2012","02","14","09:00","-25.1","","-28.2","","75","","","","33","","6","","","","101.64","","","","-31","","NA"
"-66.61","45.92","FREDERICTON CDA CS","8101605","2012-02-14 10:00","2012","02","14","10:00","-22.6","","-25.9","","74","","","","33","","4","","","","101.68","","","","-26","","NA"
"-66.61","45.92","FREDERICTON CDA CS","8101605","2012-02-14 11:00","2012","02","14","11:00","-17.2","","-22.4","","64","","","","","","0","","","","101.67","","","","","","NA"
"-66.61","45.92","FREDERICTON CDA CS","8101605","2012-02-14 12:00","2012","02","14","12:00","-12.8","","-21.4","","49","","","","8","","7","","","","101.66","","","","-17","","NA"
"-66.61","45.92","FREDERICTON CDA CS","8101605","2012-02-14 13:00","2012","02","14","13:00","-10.4","","-21.0","","41","","","","11","","11","","","","101.58","","","","-16","","NA"
"-66.61","45.92","FREDERICTON CDA CS","8101605","2012-02-14 14:00","2012","02","14","14:00","-8.3","","-18.1","","45","","","","10","","13","","","","101.51","","","","-14","","NA"
"-66.61","45.92","FREDERICTON CDA CS","8101605","2012-02-14 15:00","2012","02","14","15:00","-6.1","","-16.8","","42","","","","14","","7","","","","101.43","","","","-9","","NA"
"-66.61","45.92","FREDERICTON CDA CS","8101605","2012-02-14 16:00","2012","02","14","16:00","-5.6","","-15.3","","46","","","","12","","6","","","","101.43","","","","-8","","NA"
"-66.61","45.92","FREDERICTON CDA CS","8101605","2012-02-14 17:00","2012","02","14","17:00","-4.9","","-12.6","","55","","","","9","","6","","","","101.43","","","","-8","","NA"
"-66.61","45.92","FREDERICTON CDA CS","8101605","2012-02-14 18:00","2012","02","14","18:00","-4.7","","-10.8","","62","","","","14","","4","","","","101.46","","","","-6","","NA"
"-66.61","45.92","FREDERICTON CDA CS","8101605","2012-02-14 19:00","2012","02","14","19:00","-4.7","","-10.7","","63","","","","15","","4","","","","101.50","","","","-6","","NA"
"-66.61","45.92","FREDERICTON CDA CS","8101605","2012-02-14 20:00","2012","02","14","20:00","-5.5","","-9.9","","71","","","","16","","2","","","","101.51","","","","-6","","NA"
"-66.61","45.92","FREDERICTON CDA CS","8101605","2012-02-14 21:00","2012","02","14","21:00","-6.5","","-9.6","","79","","","","17","","4","","","","101.53","","","","-8","","NA"
"-66.61","45.92","FREDERICTON CDA CS","8101605","2012-02-14 22:00","2012","02","14","22:00","-8.4","","-10.6","","84","","","","19","","2","","","","101.55","","","","-9","","NA"
"-66.61","45.92","FREDERICTON CDA CS","8101605","2012-02-14 23:00","2012","02","14","23:00","-9.2","","-10.8","","88","","","","31","","6","","","","101.58","","","","-13","","NA"
"-66.61","45.92","FREDERICTON CDA CS","8101605","2012-02-15 00:00","2012","02","15","00:00","-10.8","","-12.4","","88","","","","31","","6","","","","101.61","","","","-14","","NA"
"-66.61","45.92","FREDERICTON CDA CS","8101605","2012-02-15 01:00","2012","02","15","01:00","-11.4","","-12.7","","90","","","","33","","7","","","","101.65","","","","-16","","NA"
"-66.61","45.92","FREDERICTON CDA CS","8101605","2012-02-15 02:00","2012","02","15","02:00","-12.3","","-13.6","","90","","","","32","","7","","","","101.66","","","","-17","","NA"
"-66.61","45.92","FREDERICTON CDA CS","8101605","2012-02-15 03:00","2012","02","15","03:00","-12.2","","-13.7","","89","","","","34","","6","","","","101.67","","","","-16","","NA"
"-66.61","45.92","FREDERICTON CDA CS","8101605","2012-02-15 04:00","2012","02","15","04:00","-13.9","","-15.5","","88","","","","33","","6","","","","101.75","","","","-18","","NA"
"-66.61","45.92","FREDERICTON CDA CS","8101605","2012-02-15 05:00","2012","02","15","05:00","-13.5","","-15.2","","87","","","","33","","7","","","","101.79","","","","-18","","NA"
"-66.61","45.92","FREDERICTON CDA CS","8101605","2012-02-15 06:00","2012","02","15","06:00","-13.8","","-15.3","","88","","","","33","","7","","","","101.82","","","","-18","","NA"
"-66.61","45.92","FREDERICTON CDA CS","8101605","2012-02-15 07:00","2012","02","15","07:00","-14.0","","-15.7","","87","","","","34","","7","","","","101.84","","","","-19","","NA"
"-66.61","45.92","FREDERICTON CDA CS","8101605","2012-02-15 08:00","2012","02","15","08:00","-13.7","","-15.4","","87","","","","32","","6","","","","101.86","","","","-18","","NA"
"-66.61","45.92","FREDERICTON CDA CS","8101605","2012-02-15 09:00","2012","02","15","09:00","-12.8","","-14.5","","87","","","","33","","6","","","","101.92","","","","-17","","NA"
"-66.61","45.92","FREDERICTON CDA CS","8101605","2012-02-15 10:00","2012","02","15","10:00","-10.7","","-13.3","","81","","","","31","","2","","","","101.92","","","","-12","","NA"
"-66.61","45.92","FREDERICTON CDA CS","8101605","2012-02-15 11:00","2012","02","15","11:00","-8.5","","-10.8","","83","","","","","","0","","","","101.88","","","","","","NA"
"-66.61","45.92","FREDERICTON CDA CS","8101605","2012-02-15 12:00","2012","02","15","12:00","-3.9","","-8.1","","73","","","","","","0","","","","101.84","","","","","","NA"
"-66.61","45.92","FREDERICTON CDA CS","8101605","2012-02-15 13:00","2012","02","15","13:00","0.7","","-4.4","","69","","","","10","","4","","","","101.80","","","","","","NA"
"-66.61","45.92","FREDERICTON CDA CS","8101605","2012-02-15 14:00","2012","02","15","14:00","3.7","","-3.3","","60","","","","","","0","","","","101.74","","","","","","NA"
"-66.61","45.92","FREDERICTON CDA CS","8101605","2012-02-15 15:00","2012","02","15","15:00","4.5","","-6.5","","45","","","","13","","4","","","","101.72","","","","","","NA"
"-66.61","45.92","FREDERICTON CDA CS","8101605","2012-02-15 16:00","2012","02","15","16:00","5.4","","-6.2","","43","","","","12","","2","","","","101.73","","","","","","NA"
"-66.61","45.92","FREDERICTON CDA CS","8101605","2012-02-15 17:00","2012","02","15","17:00","3.9","","-4.6","","54","","","","9","","2","","","","101.75","","","","","","NA"
"-66.61","45.92","FREDERICTON CDA CS","8101605","2012-02-15 18:00","2012","02","15","18:00","2.2","","-3.7","","65","","","","23","","2","","","","101.77","","","","","","NA"
"-66.61","45.92","FREDERICTON CDA CS","8101605","2012-02-15 19:00","2012","02","15","19:00","1.8","","-3.8","","66","","","","18","","4","","","","101.80","","","","","","NA"
"-66.61","45.92","FREDERICTON CDA CS","8101605","2012-02-15 20:00","2012","02","15","20:00","-1.5","","-3.8","","84","","","","32","","7","","","","101.82","","","","-4","","NA"
"-66.61","45.92","FREDERICTON CDA CS","8101605","2012-02-15 21:00","2012","02","15","21:00","-3.9","","-5.8","","87","","","","32","","6","","","","101.83","","","","-7","","NA"
"-66.61","45.92","FREDERICTON CDA CS","8101605","2012-02-15 22:00","2012","02","15","22:00","-4.6","","-5.9","","91","","","","33","","6","","","","101.85","","","","-7","","NA"
"-66.61","45.92","FREDERICTON CDA CS","8101605","2012-02-15 23:00","2012","02","15","23:00","-5.2","","-6.3","","92","","","","32","","7","","","","101.86","","","","-8","","NA"
"-66.61","45.92","FREDERICTON CDA CS","8101605","2012-02-16 00:00","2012","02","16","00:00","-5.8","","-6.7","","93","","","","33","","9","","","","101.87","","","","-10","","NA"
"-66.61","45.92","FREDERICTON CDA CS","8101605","2012-02-16 01:00","2012","02","16","01:00","-6.5","","-7.4","","93","","","","32","","6","","","","101.89","","","","-9","","NA"
"-66.61","45.92","FREDERICTON CDA CS","8101605","2012-02-16 02:00","2012","02","16","02:00","-6.9","","-7.8","","93","","","","32","","7","","","","101.91","","","","-10","","NA"
"-66.61","45.92","FREDERICTON CDA CS","8101605","2012-02-16 03:00","2012","02","16","03:00","-8.3","","-9.4","","92","","","","33","","7","","","","101.93","","","","-12","","NA"
"-66.61","45.92","FREDERICTON CDA CS","8101605","2012-02-16 04:00","2012","02","16","04:00","-8.5","","-9.6","","92","","","","34","","4","","","","101.96","","","","-11","","NA"
"-66.61","45.92","FREDERICTON CDA CS","8101605","2012-02-16 05:00","2012","02","16","05:00","-8.3","","-9.4","","92","","","","34","","4","","","","102.01","","","","-10","","NA"
"-66.61","45.92","FREDERICTON CDA CS","8101605","2012-02-16 06:00","2012","02","16","06:00","-6.1","","-7.0","","93","","","","1","","6","","","","102.03","","","","-9","","NA"
"-66.61","45.92","FREDERICTON CDA CS","8101605","2012-02-16 07:00","2012","02","16","07:00","-6.1","","-7.1","","93","","","","34","","2","","","","102.03","","","","-7","","NA"
"-66.61","45.92","FREDERICTON CDA CS","8101605","2012-02-16 08:00","2012","02","16","08:00","-5.6","","-6.5","","93","","","","33","","2","","","","102.05","","","","-7","","NA"
"-66.61","45.92","FREDERICTON CDA CS","8101605","2012-02-16 09:00","2012","02","16","09:00","-4.8","","-5.7","","93","","","","21","","2","","","","102.07","","","","-6","","NA"
"-66.61","45.92","FREDERICTON CDA CS","8101605","2012-02-16 10:00","2012","02","16","10:00","-4.2","","-5.1","","93","","","","15","","2","","","","102.08","","","","-5","","NA"
"-66.61","45.92","FREDERICTON CDA CS","8101605","2012-02-16 11:00","2012","02","16","11:00","-3.6","","-4.5","","93","","","","","","0","","","","102.05","","","","","","NA"
"-66.61","45.92","FREDERICTON CDA CS","8101605","2012-02-16 12:00","2012","02","16","12:00","-2.7","","-3.6","","94","","","","30","","4","","","","102.03","","","","-4","","NA"
"-66.61","45.92","FREDERICTON CDA CS","8101605","2012-02-16 13:00","2012","02","16","13:00","-0.5","","-3.4","","81","","","","29","","2","","","","101.95","","","","-1","","NA"
"-66.61","45.92","FREDERICTON CDA CS","8101605","2012-02-16 14:00","2012","02","16","14:00","1.2","","-3.3","","72","","","","23","","2","","","","101.84","","","","","","NA"
"-66.61","45.92","FREDERICTON CDA CS","8101605","2012-02-16 15:00","2012","02","16","15:00","1.8","","-3.7","","67","","","","15","","4","","","","101.77","","","","","","NA"
"-66.61","45.92","FREDERICTON CDA CS","8101605","2012-02-16 16:00","2012","02","16","16:00","1.5","","-3.7","","68","","","","17","","7","","","","101.72","","","","","","NA"
"-66.61","45.92","FREDERICTON CDA CS","8101605","2012-02-16 17:00","2012","02","16","17:00","1.2","","-3.3","","72","","","","11","","6","","","","101.70","","","","","","NA"
"-66.61","45.92","FREDERICTON CDA CS","8101605","2012-02-16 18:00","2012","02","16","18:00","0.7","","-3.6","","73","","","","11","","6","","","","101.69","","","","","","NA"
"-66.61","45.92","FREDERICTON CDA CS","8101605","2012-02-16 19:00","2012","02","16","19:00","-0.5","","-4.0","","77","","","","14","","4","","","","101.68","","","","-2","","NA"
"-66.61","45.92","FREDERICTON CDA CS","8101605","2012-02-16 20:00","2012","02","16","20:00","-1.7","","-3.9","","85","","","","19","","2","","","","101.66","","","","-2","","NA"
"-66.61","45.92","FREDERICTON CDA CS","8101605","2012-02-16 21:00","2012","02","16","21:00","-2.4","","-4.2","","87","","","","","","0","","","","101.66","","","","","","NA"
"-66.61","45.92","FREDERICTON CDA CS","8101605","2012-02-16 22:00","2012","02","16","22:00","-1.4","","-3.6","","85","","","","14","","4","","","","101.65","","","","-3","","NA"
"-66.61","45.92","FREDERICTON CDA CS","8101605","2012-02-16 23:00","2012","02","16","23:00","-1.5","","-3.5","","86","","","","18","","6","","","","101.60","","","","-4","","NA"
"-66.61","45.92","FREDERICTON CDA CS","8101605","2012-02-17 00:00","2012","02","17","00:00","-1.8","","-3.6","","87","","","","14","","2","","","","101.51","","","","-3","","NA"
"-66.61","45.92","FREDERICTON CDA CS","8101605","2012-02-17 01:00","2012","02","17","01:00","-1.8","","-3.4","","89","","","","10","","4","","","","101.45","","","","-3","","NA"
"-66.61","45.92","FREDERICTON CDA CS","8101605","2012-02-17 02:00","2012","02","17","02:00","-2.0","","-3.3","","91","","","","10","","6","","","","101.39","","","","-4","","NA"
"-66.61","45.92","FREDERICTON CDA CS","8101605","2012-02-17 03:00","2012","02","17","03:00","-2.2","","-3.4","","91","","","","12","","6","","","","101.34","","","","-5","","NA"
"-66.61","45.92","FREDERICTON CDA CS","8101605","2012-02-17 04:00","2012","02","17","04:00","-2.6","","-3.6","","93","","","","14","","6","","","","101.28","","","","-5","","NA"
"-66.61","45.92","FREDERICTON CDA CS","8101605","2012-02-17 05:00","2012","02","17","05:00","-2.8","","-3.8","","93","","","","14","","6","","","","101.26","","","","-5","","NA"
"-66.61","45.92","FREDERICTON CDA CS","8101605","2012-02-17 06:00","2012","02","17","06:00","-2.9","","-3.9","","93","","","","13","","6","","","","101.24","","","","-5","","NA"
"-66.61","45.92","FREDERICTON CDA CS","8101605","2012-02-17 07:00","2012","02","17","07:00","-3.1","","-4.2","","92","","","","11","","9","","","","101.20","","","","-7","","NA"
"-66.61","45.92","FREDERICTON CDA CS","8101605","2012-02-17 08:00","2012","02","17","08:00","-3.3","","-4.6","","91","","","","11","","9","","","","101.20","","","","-7","","NA"
"-66.61","45.92","FREDERICTON CDA CS","8101605","2012-02-17 09:00","2012","02","17","09:00","-3.0","","-4.5","","89","","","","12","","7","","","","101.17","","","","-6","","NA"
"-66.61","45.92","FREDERICTON CDA CS","8101605","2012-02-17 10:00","2012","02","17","10:00","-2.3","","-4.2","","87","","","","11","","11","","","","101.09","","","","-6","","NA"
"-66.61","45.92","FREDERICTON CDA CS","8101605","2012-02-17 11:00","2012","02","17","11:00","-1.8","","-3.9","","86","","","","12","","13","","","","101.02","","","","-6","","NA"
"-66.61","45.92","FREDERICTON CDA CS","8101605","2012-02-17 12:00","2012","02","17","12:00","-1.4","","-2.6","","92","","","","10","","15","","","","100.92","","","","-6","","NA"
"-66.61","45.92","FREDERICTON CDA CS","8101605","2012-02-17 13:00","2012","02","17","13:00","-1.0","","-2.2","","92","","","","10","","13","","","","100.79","","","","-5","","NA"
"-66.61","45.92","FREDERICTON CDA CS","8101605","2012-02-17 14:00","2012","02","17","14:00","-0.6","","-1.8","","92","","","","10","","15","","","","100.65","","","","-5","","NA"
"-66.61","45.92","FREDERICTON CDA CS","8101605","2012-02-17 15:00","2012","02","17","15:00","0.1","","-1.2","","91","","","","11","","11","","","","100.57","","","","","","NA"
"-66.61","45.92","FREDERICTON CDA CS","8101605","2012-02-17 16:00","2012","02","17","16:00","0.1","","-0.8","","94","","","","10","","9","","","","100.50","","","","","","NA"
"-66.61","45.92","FREDERICTON CDA CS","8101605","2012-02-17 17:00","2012","02","17","17:00","0.1","","-0.8","","94","","","","10","","7","","","","100.45","","","","","","NA"
"-66.61","45.92","FREDERICTON CDA CS","8101605","2012-02-17 18:00","2012","02","17","18:00","0.0","","-0.8","","94","","","","33","","7","","","","100.46","","","","-2","","NA"
"-66.61","45.92","FREDERICTON CDA CS","8101605","2012-02-17 19:00","2012","02","17","19:00","0.0","","-0.7","","95","","","","34","","6","","","","100.46","","","","-2","","NA"
"-66.61","45.92","FREDERICTON CDA CS","8101605","2012-02-17 20:00","2012","02","17","20:00","-0.1","","-0.9","","94","","","","32","","6","","","","100.47","","","","-2","","NA"
"-66.61","45.92","FREDERICTON CDA CS","8101605","2012-02-17 21:00","2012","02","17","21:00","-0.4","","-1.4","","93","","","","30","","6","","","","100.47","","","","-2","","NA"
"-66.61","45.92","FREDERICTON CDA CS","8101605","2012-02-17 22:00","2012","02","17","22:00","-0.4","","-1.5","","92","","","","27","","6","","","","100.49","","","","-2","","NA"
"-66.61","45.92","FREDERICTON CDA CS","8101605","2012-02-17 23:00","2012","02","17","23:00","-1.3","","-2.1","","94","","","","23","","2","","","","100.42","","","","-2","","NA"
"-66.61","45.92","FREDERICTON CDA CS","8101605","2012-02-18 00:00","2012","02","18","00:00","-2.5","","-3.2","","95","","","","","","0","","","","100.35","","","","","","NA"
"-66.61","45.92","FREDERICTON CDA CS","8101605","2012-02-18 01:00","2012","02","18","01:00","-2.9","","-3.6","","95","","","","13","","2","","","","100.29","","","","-4","","NA"
"-66.61","45.92","FREDERICTON CDA CS","8101605","2012-02-18 02:00","2012","02","18","02:00","-3.1","","-3.8","","95","","","","2","","2","","","","100.24","","","","-4","","NA"
"-66.61","45.92","FREDERICTON CDA CS","8101605","2012-02-18 03:00","2012","02","18","03:00","-3.3","","-4.1","","94","","","","23","","2","","","","100.20","","","","-4","","NA"
"-66.61","45.92","FREDERICTON CDA CS","8101605","2012-02-18 04:00","2012","02","18","04:00","-4.6","","-5.5","","93","","","","28","","6","","","","100.17","","","","-7","","NA"
"-66.61","45.92","FREDERICTON CDA CS","8101605","2012-02-18 05:00","2012","02","18","05:00","-4.8","","-5.7","","93","","","","","","0","","","","100.14","","","","","","NA"
"-66.61","45.92","FREDERICTON CDA CS","8101605","2012-02-18 06:00","2012","02","18","06:00","-4.2","","-5.0","","94","","","","34","","2","","","","100.14","","","","-5","","NA"
"-66.61","45.92","FREDERICTON CDA CS","8101605","2012-02-18 07:00","2012","02","18","07:00","-4.3","","-5.1","","94","","","","35","","4","","","","100.12","","","","-6","","NA"
"-66.61","45.92","FREDERICTON CDA CS","8101605","2012-02-18 08:00","2012","02","18","08:00","-3.4","","-4.2","","94","","","","32","","4","","","","100.12","","","","-5","","NA"
"-66.61","45.92","FREDERICTON CDA CS","8101605","2012-02-18 09:00","2012","02","18","09:00","-1.9","","-2.7","","94","","","","28","","19","","","","100.12","","","","-7","","NA"
"-66.61","45.92","FREDERICTON CDA CS","8101605","2012-02-18 10:00","2012","02","18","10:00","-1.2","","-2.4","","92","","","","28","","20","","","","100.10","","","","-7","","NA"
"-66.61","45.92","FREDERICTON CDA CS","8101605","2012-02-18 11:00","2012","02","18","11:00","0.0","","-2.9","","81","","","","28","","26","","","","100.07","","","","-6","","NA"
"-66.61","45.92","FREDERICTON CDA CS","8101605","2012-02-18 12:00","2012","02","18","12:00","1.1","","-3.1","","74","","","","29","","30","","","","100.04","","","","","","NA"
"-66.61","45.92","FREDERICTON CDA CS","8101605","2012-02-18 13:00","2012","02","18","13:00","1.9","","-3.2","","69","","","","30","","28","","","","99.96","","","","","","NA"
"-66.61","45.92","FREDERICTON CDA CS","8101605","2012-02-18 14:00","2012","02","18","14:00","2.4","","-3.7","","64","","","","30","","22","","","","99.91","","","","","","NA"
"-66.61","45.92","FREDERICTON CDA CS","8101605","2012-02-18 15:00","2012","02","18","15:00","1.6","","-3.1","","71","","","","28","","15","","","","99.91","","","","","","NA"
"-66.61","45.92","FREDERICTON CDA CS","8101605","2012-02-18 16:00","2012","02","18","16:00","2.4","","-3.4","","65","","","","27","","24","","","","99.92","","","","","","NA"
"-66.61","45.92","FREDERICTON CDA CS","8101605","2012-02-18 17:00","2012","02","18","17:00","1.4","","-3.7","","69","","","","29","","17","","","","99.97","","","","","","NA"
"-66.61","45.92","FREDERICTON CDA CS","8101605","2012-02-18 18:00","2012","02","18","18:00","0.9","","-4.6","","67","","","","28","","19","","","","100.01","","","","","","NA"
"-66.61","45.92","FREDERICTON CDA CS","8101605","2012-02-18 19:00","2012","02","18","19:00","0.7","","-4.9","","66","","","","27","","19","","","","100.06","","","","","","NA"
"-66.61","45.92","FREDERICTON CDA CS","8101605","2012-02-18 20:00","2012","02","18","20:00","0.3","","-5.1","","67","","","","28","","19","","","","100.09","","","","","","NA"
"-66.61","45.92","FREDERICTON CDA CS","8101605","2012-02-18 21:00","2012","02","18","21:00","-0.1","","-5.2","","68","","","","27","","17","","","","100.16","","","","-5","","NA"
"-66.61","45.92","FREDERICTON CDA CS","8101605","2012-02-18 22:00","2012","02","18","22:00","0.1","","-5.3","","67","","","","29","","19","","","","100.19","","","","","","NA"
"-66.61","45.92","FREDERICTON CDA CS","8101605","2012-02-18 23:00","2012","02","18","23:00","-0.1","","-6.1","","64","","","","29","","22","","","","100.25","","","","-6","","NA"
"-66.61","45.92","FREDERICTON CDA CS","8101605","2012-02-19 00:00","2012","02","19","00:00","-1.1","","-5.2","","74","","","","33","","11","","","","100.28","","","","-5","","NA"
"-66.61","45.92","FREDERICTON CDA CS","8101605","2012-02-19 01:00","2012","02","19","01:00","-1.2","","-6.3","","68","","","","31","","19","","","","100.30","","","","-7","","NA"
"-66.61","45.92","FREDERICTON CDA CS","8101605","2012-02-19 02:00","2012","02","19","02:00","-1.7","","-6.2","","71","","","","30","","17","","","","100.33","","","","-7","","NA"
"-66.61","45.92","FREDERICTON CDA CS","8101605","2012-02-19 03:00","2012","02","19","03:00","-2.6","","-8.5","","64","","","","31","","26","","","","100.39","","","","-9","","NA"
"-66.61","45.92","FREDERICTON CDA CS","8101605","2012-02-19 04:00","2012","02","19","04:00","-4.1","","-9.8","","64","","","","30","","15","","","","100.47","","","","-9","","NA"
"-66.61","45.92","FREDERICTON CDA CS","8101605","2012-02-19 05:00","2012","02","19","05:00","-5.8","","-11.3","","65","","","","30","","17","","","","100.52","","","","-12","","NA"
"-66.61","45.92","FREDERICTON CDA CS","8101605","2012-02-19 06:00","2012","02","19","06:00","-6.3","","-11.5","","67","","","","29","","22","","","","100.54","","","","-14","","NA"
"-66.61","45.92","FREDERICTON CDA CS","8101605","2012-02-19 07:00","2012","02","19","07:00","-7.1","","-11.7","","70","","","","30","","24","","","","100.55","","","","-15","","NA"
"-66.61","45.92","FREDERICTON CDA CS","8101605","2012-02-19 08:00","2012","02","19","08:00","-7.1","","-11.7","","70","","","","30","","24","","","","100.62","","","","-15","","NA"
"-66.61","45.92","FREDERICTON CDA CS","8101605","2012-02-19 09:00","2012","02","19","09:00","-6.7","","-11.7","","68","","","","30","","26","","","","100.67","","","","-15","","NA"
"-66.61","45.92","FREDERICTON CDA CS","8101605","2012-02-19 10:00","2012","02","19","10:00","-5.9","","-11.8","","63","","","","30","","30","","","","100.67","","","","-14","","NA"
"-66.61","45.92","FREDERICTON CDA CS","8101605","2012-02-19 11:00","2012","02","19","11:00","-5.1","","-12.0","","58","","","","30","","32","","","","100.63","","","","-13","","NA"
"-66.61","45.92","FREDERICTON CDA CS","8101605","2012-02-19 12:00","2012","02","19","12:00","-4.4","","-11.6","","57","","","","30","","32","","","","100.59","","","","-12","","NA"
"-66.61","45.92","FREDERICTON CDA CS","8101605","2012-02-19 13:00","2012","02","19","13:00","-3.3","","-11.5","","53","","","","28","","26","","","","100.59","","","","-10","","NA"
"-66.61","45.92","FREDERICTON CDA CS","8101605","2012-02-19 14:00","2012","02","19","14:00","-2.6","","-11.3","","51","","","","30","","28","","","","100.56","","","","-10","","NA"
"-66.61","45.92","FREDERICTON CDA CS","8101605","2012-02-19 15:00","2012","02","19","15:00","-1.8","","-11.3","","48","","","","31","","20","","","","100.56","","","","-8","","NA"
"-66.61","45.92","FREDERICTON CDA CS","8101605","2012-02-19 16:00","2012","02","19","16:00","-1.3","","-11.2","","47","","","","30","","24","","","","100.62","","","","-7","","NA"
"-66.61","45.92","FREDERICTON CDA CS","8101605","2012-02-19 17:00","2012","02","19","17:00","-1.4","","-11.5","","46","","","","32","","17","","","","100.64","","","","-7","","NA"
"-66.61","45.92","FREDERICTON CDA CS","8101605","2012-02-19 18:00","2012","02","19","18:00","-2.2","","-11.5","","49","","","","30","","17","","","","100.67","","","","-8","","NA"
"-66.61","45.92","FREDERICTON CDA CS","8101605","2012-02-19 19:00","2012","02","19","19:00","-3.1","","-11.7","","51","","","","30","","13","","","","100.71","","","","-8","","NA"
"-66.61","45.92","FREDERICTON CDA CS","8101605","2012-02-19 20:00","2012","02","19","20:00","-3.8","","-11.9","","53","","","","32","","9","","","","100.72","","","","-8","","NA"
"-66.61","45.92","FREDERICTON CDA CS","8101605","2012-02-19 21:00","2012","02","19","21:00","-4.3","","-13.0","","51","","","","32","","7","","","","100.77","","","","-7","","NA"
"-66.61","45.92","FREDERICTON CDA CS","8101605","2012-02-19 22:00","2012","02","19","22:00","-4.1","","-13.2","","49","","","","32","","17","","","","100.77","","","","-10","","NA"
"-66.61","45.92","FREDERICTON CDA CS","8101605","2012-02-19 23:00","2012","02","19","23:00","-5.6","","-13.2","","55","","","","30","","13","","","","100.82","","","","-11","","NA"
"-66.61","45.92","FREDERICTON CDA CS","8101605","2012-02-20 00:00","2012","02","20","00:00","-5.9","","-12.7","","59","","","","29","","17","","","","100.83","","","","-12","","NA"
"-66.61","45.92","FREDERICTON CDA CS","8101605","2012-02-20 01:00","2012","02","20","01:00","-6.7","","-13.5","","58","","","","30","","20","","","","100.86","","","","-14","","NA"
"-66.61","45.92","FREDERICTON CDA CS","8101605","2012-02-20 02:00","2012","02","20","02:00","-7.8","","-14.2","","60","","","","30","","20","","","","100.87","","","","-15","","NA"
"-66.61","45.92","FREDERICTON CDA CS","8101605","2012-02-20 03:00","2012","02","20","03:00","-8.9","","-15.1","","61","","","","30","","17","","","","100.87","","","","-16","","NA"
"-66.61","45.92","FREDERICTON CDA CS","8101605","2012-02-20 04:00","2012","02","20","04:00","-9.6","","-15.3","","63","","","","30","","15","","","","100.84","","","","-16","","NA"
"-66.61","45.92","FREDERICTON CDA CS","8101605","2012-02-20 05:00","2012","02","20","05:00","-10.5","","-15.7","","66","","","","29","","13","","","","100.87","","","","-17","","NA"
"-66.61","45.92","FREDERICTON CDA CS","8101605","2012-02-20 06:00","2012","02","20","06:00","-11.0","","-15.8","","68","","","","30","","19","","","","100.89","","","","-19","","NA"
"-66.61","45.92","FREDERICTON CDA CS","8101605","2012-02-20 07:00","2012","02","20","07:00","-11.6","","-16.0","","70","","","","31","","15","","","","100.96","","","","-19","","NA"
"-66.61","45.92","FREDERICTON CDA CS","8101605","2012-02-20 08:00","2012","02","20","08:00","-12.0","","-16.2","","71","","","","30","","17","","","","101.01","","","","-20","","NA"
"-66.61","45.92","FREDERICTON CDA CS","8101605","2012-02-20 09:00","2012","02","20","09:00","-11.3","","-15.9","","69","","","","31","","22","","","","101.01","","","","-20","","NA"
"-66.61","45.92","FREDERICTON CDA CS","8101605","2012-02-20 10:00","2012","02","20","10:00","-9.8","","-15.5","","63","","","","31","","15","","","","100.98","","","","-16","","NA"
"-66.61","45.92","FREDERICTON CDA CS","8101605","2012-02-20 11:00","2012","02","20","11:00","-8.2","","-15.3","","57","","","","30","","20","","","","101.00","","","","-16","","NA"
"-66.61","45.92","FREDERICTON CDA CS","8101605","2012-02-20 12:00","2012","02","20","12:00","-6.7","","-15.4","","50","","","","27","","20","","","","101.00","","","","-14","","NA"
"-66.61","45.92","FREDERICTON CDA CS","8101605","2012-02-20 13:00","2012","02","20","13:00","-5.9","","-15.1","","48","","","","28","","26","","","","100.98","","","","-14","","NA"
"-66.61","45.92","FREDERICTON CDA CS","8101605","2012-02-20 14:00","2012","02","20","14:00","-5.6","","-15.3","","46","","","","29","","28","","","","100.98","","","","-14","","NA"
"-66.61","45.92","FREDERICTON CDA CS","8101605","2012-02-20 15:00","2012","02","20","15:00","-5.2","","-14.7","","47","","","","29","","30","","","","101.00","","","","-13","","NA"
"-66.61","45.92","FREDERICTON CDA CS","8101605","2012-02-20 16:00","2012","02","20","16:00","-4.9","","-15.3","","44","","","","29","","30","","","","101.02","","","","-13","","NA"
"-66.61","45.92","FREDERICTON CDA CS","8101605","2012-02-20 17:00","2012","02","20","17:00","-5.1","","-15.5","","44","","","","29","","24","","","","101.12","","","","-12","","NA"
"-66.61","45.92","FREDERICTON CDA CS","8101605","2012-02-20 18:00","2012","02","20","18:00","-6.2","","-15.9","","46","","","","29","","20","","","","101.22","","","","-13","","NA"
"-66.61","45.92","FREDERICTON CDA CS","8101605","2012-02-20 19:00","2012","02","20","19:00","-7.1","","-16.4","","47","","","","30","","15","","","","101.33","","","","-13","","NA"
"-66.61","45.92","FREDERICTON CDA CS","8101605","2012-02-20 20:00","2012","02","20","20:00","-7.7","","-17.2","","46","","","","31","","15","","","","101.42","","","","-14","","NA"
"-66.61","45.92","FREDERICTON CDA CS","8101605","2012-02-20 21:00","2012","02","20","21:00","-8.3","","-16.6","","51","","","","31","","17","","","","101.49","","","","-15","","NA"
"-66.61","45.92","FREDERICTON CDA CS","8101605","2012-02-20 22:00","2012","02","20","22:00","-8.8","","-16.2","","55","","","","32","","19","","","","101.56","","","","-16","","NA"
"-66.61","45.92","FREDERICTON CDA CS","8101605","2012-02-20 23:00","2012","02","20","23:00","-8.8","","-15.8","","57","","","","31","","20","","","","101.61","","","","-16","","NA"
"-66.61","45.92","FREDERICTON CDA CS","8101605","2012-02-21 00:00","2012","02","21","00:00","-9.3","","-16.1","","58","","","","31","","17","","","","101.62","","","","-16","","NA"
"-66.61","45.92","FREDERICTON CDA CS","8101605","2012-02-21 01:00","2012","02","21","01:00","-9.5","","-16.1","","59","","","","31","","19","","","","101.64","","","","-17","","NA"
"-66.61","45.92","FREDERICTON CDA CS","8101605","2012-02-21 02:00","2012","02","21","02:00","-9.8","","-16.1","","60","","","","31","","20","","","","101.67","","","","-18","","NA"
"-66.61","45.92","FREDERICTON CDA CS","8101605","2012-02-21 03:00","2012","02","21","03:00","-10.1","","-16.2","","61","","","","31","","20","","","","101.73","","","","-18","","NA"
"-66.61","45.92","FREDERICTON CDA CS","8101605","2012-02-21 04:00","2012","02","21","04:00","-10.3","","-16.1","","62","","","","31","","19","","","","101.72","","","","-18","","NA"
"-66.61","45.92","FREDERICTON CDA CS","8101605","2012-02-21 05:00","2012","02","21","05:00","-10.7","","-16.0","","65","","","","31","","22","","","","101.81","","","","-19","","NA"
"-66.61","45.92","FREDERICTON CDA CS","8101605","2012-02-21 06:00","2012","02","21","06:00","-11.8","","-16.2","","70","","","","32","","13","","","","101.90","","","","-18","","NA"
"-66.61","45.92","FREDERICTON CDA CS","8101605","2012-02-21 07:00","2012","02","21","07:00","-12.9","","-16.6","","74","","","","30","","4","","","","101.92","","","","-16","","NA"
"-66.61","45.92","FREDERICTON CDA CS","8101605","2012-02-21 08:00","2012","02","21","08:00","-12.8","","-16.4","","74","","","","3","","4","","","","101.99","","","","-15","","NA"
"-66.61","45.92","FREDERICTON CDA CS","8101605","2012-02-21 09:00","2012","02","21","09:00","-10.5","","-15.2","","68","","","","34","","4","","","","101.99","","","","-13","","NA"
"-66.61","45.92","FREDERICTON CDA CS","8101605","2012-02-21 10:00","2012","02","21","10:00","-8.5","","-14.3","","63","","","","34","","6","","","","101.98","","","","-12","","NA"
"-66.61","45.92","FREDERICTON CDA CS","8101605","2012-02-21 11:00","2012","02","21","11:00","-5.0","","-12.7","","55","","","","9","","2","","","","101.96","","","","-6","","NA"
"-66.61","45.92","FREDERICTON CDA CS","8101605","2012-02-21 12:00","2012","02","21","12:00","-2.9","","-12.7","","47","","","","14","","2","","","","101.91","","","","-4","","NA"
"-66.61","45.92","FREDERICTON CDA CS","8101605","2012-02-21 13:00","2012","02","21","13:00","-2.3","","-12.4","","46","","","","28","","11","","","","101.79","","","","-6","","NA"
"-66.61","45.92","FREDERICTON CDA CS","8101605","2012-02-21 14:00","2012","02","21","14:00","-1.7","","-12.1","","45","","","","27","","15","","","","101.68","","","","-7","","NA"
"-66.61","45.92","FREDERICTON CDA CS","8101605","2012-02-21 15:00","2012","02","21","15:00","-0.7","","-11.6","","43","","","","29","","11","","","","101.58","","","","-4","","NA"
"-66.61","45.92","FREDERICTON CDA CS","8101605","2012-02-21 16:00","2012","02","21","16:00","0.1","","-11.9","","40","","","","25","","7","","","","101.49","","","","","","NA"
"-66.61","45.92","FREDERICTON CDA CS","8101605","2012-02-21 17:00","2012","02","21","17:00","-0.6","","-11.1","","45","","","","32","","4","","","","101.43","","","","-2","","NA"
"-66.61","45.92","FREDERICTON CDA CS","8101605","2012-02-21 18:00","2012","02","21","18:00","-1.9","","-11.5","","48","","","","7","","2","","","","101.38","","","","-3","","NA"
"-66.61","45.92","FREDERICTON CDA CS","8101605","2012-02-21 19:00","2012","02","21","19:00","-3.6","","-10.5","","59","","","","17","","4","","","","101.36","","","","-5","","NA"
"-66.61","45.92","FREDERICTON CDA CS","8101605","2012-02-21 20:00","2012","02","21","20:00","-3.1","","-11.9","","51","","","","14","","9","","","","101.25","","","","-7","","NA"
"-66.61","45.92","FREDERICTON CDA CS","8101605","2012-02-21 21:00","2012","02","21","21:00","-5.3","","-11.1","","64","","","","15","","7","","","","101.18","","","","-9","","NA"
"-66.61","45.92","FREDERICTON CDA CS","8101605","2012-02-21 22:00","2012","02","21","22:00","-4.2","","-9.6","","66","","","","19","","13","","","","101.15","","","","-9","","NA"
"-66.61","45.92","FREDERICTON CDA CS","8101605","2012-02-21 23:00","2012","02","21","23:00","-3.9","","-8.6","","70","","","","18","","11","","","","101.07","","","","-8","","NA"
"-66.61","45.92","FREDERICTON CDA CS","8101605","2012-02-22 00:00","2012","02","22","00:00","-3.7","","-7.6","","74","","","","16","","7","","","","100.95","","","","-7","","NA"
"-66.61","45.92","FREDERICTON CDA CS","8101605","2012-02-22 01:00","2012","02","22","01:00","-3.9","","-7.6","","75","","","","9","","6","","","","100.87","","","","-7","","NA"
"-66.61","45.92","FREDERICTON CDA CS","8101605","2012-02-22 02:00","2012","02","22","02:00","-4.0","","-7.2","","78","","","","14","","4","","","","100.75","","","","-6","","NA"
"-66.61","45.92","FREDERICTON CDA CS","8101605","2012-02-22 03:00","2012","02","22","03:00","-4.1","","-7.2","","79","","","","17","","4","","","","100.61","","","","-6","","NA"
"-66.61","45.92","FREDERICTON CDA CS","8101605","2012-02-22 04:00","2012","02","22","04:00","-4.1","","-5.8","","88","","","","19","","4","","","","100.51","","","","-6","","NA"
"-66.61","45.92","FREDERICTON CDA CS","8101605","2012-02-22 05:00","2012","02","22","05:00","-4.1","","-5.3","","91","","","","17","","6","","","","100.39","","","","-7","","NA"
"-66.61","45.92","FREDERICTON CDA CS","8101605","2012-02-22 06:00","2012","02","22","06:00","-3.4","","-4.4","","93","","","","12","","2","","","","100.30","","","","-4","","NA"
"-66.61","45.92","FREDERICTON CDA CS","8101605","2012-02-22 07:00","2012","02","22","07:00","-2.9","","-3.9","","93","","","","","","0","","","","100.22","","","","","","NA"
"-66.61","45.92","FREDERICTON CDA CS","8101605","2012-02-22 08:00","2012","02","22","08:00","-2.5","","-3.5","","93","","","","","","0","","","","100.15","","","","","","NA"
"-66.61","45.92","FREDERICTON CDA CS","8101605","2012-02-22 09:00","2012","02","22","09:00","-1.8","","-2.9","","92","","","","","","0","","","","100.07","","","","","","NA"
"-66.61","45.92","FREDERICTON CDA CS","8101605","2012-02-22 10:00","2012","02","22","10:00","-0.6","","-1.8","","92","","","","15","","4","","","","99.98","","","","-2","","NA"
"-66.61","45.92","FREDERICTON CDA CS","8101605","2012-02-22 11:00","2012","02","22","11:00","0.7","","-1.0","","88","","","","16","","2","","","","99.92","","","","","","NA"
"-66.61","45.92","FREDERICTON CDA CS","8101605","2012-02-22 12:00","2012","02","22","12:00","1.4","","-0.5","","87","","","","6","","4","","","","99.84","","","","","","NA"
"-66.61","45.92","FREDERICTON CDA CS","8101605","2012-02-22 13:00","2012","02","22","13:00","2.4","","0.4","","87","","","","15","","4","","","","99.74","","","","","","NA"
"-66.61","45.92","FREDERICTON CDA CS","8101605","2012-02-22 14:00","2012","02","22","14:00","3.1","","0.6","","84","","","","17","","6","","","","99.64","","","","","","NA"
"-66.61","45.92","FREDERICTON CDA CS","8101605","2012-02-22 15:00","2012","02","22","15:00","3.5","","1.1","","84","","","","10","","6","","","","99.55","","","","","","NA"
"-66.61","45.92","FREDERICTON CDA CS","8101605","2012-02-22 16:00","2012","02","22","16:00","4.4","","1.1","","79","","","","22","","11","","","","99.50","","","","","","NA"
"-66.61","45.92","FREDERICTON CDA CS","8101605","2012-02-22 17:00","2012","02","22","17:00","4.3","","0.8","","78","","","","21","","11","","","","99.44","","","","","","NA"
"-66.61","45.92","FREDERICTON CDA CS","8101605","2012-02-22 18:00","2012","02","22","18:00","3.5","","1.0","","84","","","","20","","2","","","","99.45","","","","","","NA"
"-66.61","45.92","FREDERICTON CDA CS","8101605","2012-02-22 19:00","2012","02","22","19:00","3.1","","1.4","","89","","","","22","","6","","","","99.52","","","","","","NA"
"-66.61","45.92","FREDERICTON CDA CS","8101605","2012-02-22 20:00","2012","02","22","20:00","3.0","","1.3","","89","","","","27","","6","","","","99.57","","","","","","NA"
"-66.61","45.92","FREDERICTON CDA CS","8101605","2012-02-22 21:00","2012","02","22","21:00","1.8","","0.8","","93","","","","","","0","","","","99.58","","","","","","NA"
"-66.61","45.92","FREDERICTON CDA CS","8101605","2012-02-22 22:00","2012","02","22","22:00","1.3","","0.2","","92","","","","28","","6","","","","99.65","","","","","","NA"
"-66.61","45.92","FREDERICTON CDA CS","8101605","2012-02-22 23:00","2012","02","22","23:00","0.2","","-0.6","","94","","","","16","","4","","","","99.68","","","","","","NA"
"-66.61","45.92","FREDERICTON CDA CS","8101605","2012-02-23 00:00","2012","02","23","00:00","-2.0","","-2.7","","95","","","","13","","6","","","","99.68","","","","-4","","NA"
"-66.61","45.92","FREDERICTON CDA CS","8101605","2012-02-23 01:00","2012","02","23","01:00","-1.2","","-1.8","","96","","","","13","","4","","","","99.67","","","","-3","","NA"
"-66.61","45.92","FREDERICTON CDA CS","8101605","2012-02-23 02:00","2012","02","23","02:00","-1.8","","-2.4","","96","","","","14","","4","","","","99.63","","","","-3","","NA"
"-66.61","45.92","FREDERICTON CDA CS","8101605","2012-02-23 03:00","2012","02","23","03:00","-0.9","","-1.5","","96","","","","18","","4","","","","99.61","","","","-2","","NA"
"-66.61","45.92","FREDERICTON CDA CS","8101605","2012-02-23 04:00","2012","02","23","04:00","-0.9","","-1.5","","96","","","","16","","4","","","","99.56","","","","-2","","NA"
"-66.61","45.92","FREDERICTON CDA CS","8101605","2012-02-23 05:00","2012","02","23","05:00","-1.2","","-1.8","","96","","","","15","","6","","","","99.50","","","","-3","","NA"
"-66.61","45.92","FREDERICTON CDA CS","8101605","2012-02-23 06:00","2012","02","23","06:00","-0.7","","-1.3","","96","","","","13","","7","","","","99.44","","","","-3","","NA"
"-66.61","45.92","FREDERICTON CDA CS","8101605","2012-02-23 07:00","2012","02","23","07:00","-0.2","","-0.8","","96","","","","14","","7","","","","99.41","","","","-3","","NA"
"-66.61","45.92","FREDERICTON CDA CS","8101605","2012-02-23 08:00","2012","02","23","08:00","-0.4","","-1.0","","96","","","","16","","6","","","","99.37","","","","-2","","NA"
"-66.61","45.92","FREDERICTON CDA CS","8101605","2012-02-23 09:00","2012","02","23","09:00","0.5","","-0.2","","95","","","","13","","6","","","","99.35","","","","","","NA"
"-66.61","45.92","FREDERICTON CDA CS","8101605","2012-02-23 10:00","2012","02","23","10:00","2.1","","1.4","","95","","","","11","","7","","","","99.26","","","","","","NA"
"-66.61","45.92","FREDERICTON CDA CS","8101605","2012-02-23 11:00","2012","02","23","11:00","4.4","","2.7","","89","","","","15","","17","","","","99.22","","","","","","NA"
"-66.61","45.92","FREDERICTON CDA CS","8101605","2012-02-23 12:00","2012","02","23","12:00","4.9","","2.8","","86","","","","14","","19","","","","99.17","","","","","","NA"
"-66.61","45.92","FREDERICTON CDA CS","8101605","2012-02-23 13:00","2012","02","23","13:00","4.9","","2.9","","87","","","","16","","19","","","","99.04","","","","","","NA"
"-66.61","45.92","FREDERICTON CDA CS","8101605","2012-02-23 14:00","2012","02","23","14:00","4.5","","3.1","","91","","","","14","","9","","","","98.90","","","","","","NA"
"-66.61","45.92","FREDERICTON CDA CS","8101605","2012-02-23 15:00","2012","02","23","15:00","4.3","","2.8","","90","","","","16","","15","","","","98.81","","","","","","NA"
"-66.61","45.92","FREDERICTON CDA CS","8101605","2012-02-23 16:00","2012","02","23","16:00","3.4","","1.6","","88","","","","16","","11","","","","98.78","","","","","","NA"
"-66.61","45.92","FREDERICTON CDA CS","8101605","2012-02-23 17:00","2012","02","23","17:00","2.5","","1.1","","90","","","","21","","7","","","","98.79","","","","","","NA"
"-66.61","45.92","FREDERICTON CDA CS","8101605","2012-02-23 18:00","2012","02","23","18:00","2.0","","0.9","","92","","","","31","","6","","","","98.81","","","","","","NA"
"-66.61","45.92","FREDERICTON CDA CS","8101605","2012-02-23 19:00","2012","02","23","19:00","1.1","","-0.1","","92","","","","30","","15","","","","98.81","","","","","","NA"
"-66.61","45.92","FREDERICTON CDA CS","8101605","2012-02-23 20:00","2012","02","23","20:00","1.4","","-0.1","","90","","","","29","","24","","","","98.88","","","","","","NA"
"-66.61","45.92","FREDERICTON CDA CS","8101605","2012-02-23 21:00","2012","02","23","21:00","1.9","","-0.1","","87","","","","29","","28","","","","98.94","","","","","","NA"
"-66.61","45.92","FREDERICTON CDA CS","8101605","2012-02-23 22:00","2012","02","23","22:00","2.0","","-0.3","","85","","","","29","","32","","","","99.02","","","","","","NA"
"-66.61","45.92","FREDERICTON CDA CS","8101605","2012-02-23 23:00","2012","02","23","23:00","2.1","","-0.1","","85","","","","28","","32","","","","99.14","","","","","","NA"
"-66.61","45.92","FREDERICTON CDA CS","8101605","2012-02-24 00:00","2012","02","24","00:00","1.9","","-0.7","","83","","","","29","","33","","","","99.24","","","","","","NA"
"-66.61","45.92","FREDERICTON CDA CS","8101605","2012-02-24 01:00","2012","02","24","01:00","1.6","","-1.7","","79","","","","30","","32","","","","99.42","","","","","","NA"
"-66.61","45.92","FREDERICTON CDA CS","8101605","2012-02-24 02:00","2012","02","24","02:00","1.2","","-2.7","","75","","","","30","","32","","","","99.55","","","","","","NA"
"-66.61","45.92","FREDERICTON CDA CS","8101605","2012-02-24 03:00","2012","02","24","03:00","0.8","","-3.3","","74","","","","29","","32","","","","99.67","","","","","","NA"
"-66.61","45.92","FREDERICTON CDA CS","8101605","2012-02-24 04:00","2012","02","24","04:00","0.7","","-3.3","","75","","","","29","","30","","","","99.75","","","","","","NA"
"-66.61","45.92","FREDERICTON CDA CS","8101605","2012-02-24 05:00","2012","02","24","05:00","0.6","","-3.2","","76","","","","29","","28","","","","99.81","","","","","","NA"
"-66.61","45.92","FREDERICTON CDA CS","8101605","2012-02-24 06:00","2012","02","24","06:00","0.4","","-3.4","","76","","","","26","","20","","","","99.99","","","","","","NA"
"-66.61","45.92","FREDERICTON CDA CS","8101605","2012-02-24 07:00","2012","02","24","07:00","-0.1","","-3.4","","78","","","","28","","24","","","","100.11","","","","-6","","NA"
"-66.61","45.92","FREDERICTON CDA CS","8101605","2012-02-24 08:00","2012","02","24","08:00","-0.6","","-3.6","","80","","","","34","","7","","","","100.16","","","","-3","","NA"
"-66.61","45.92","FREDERICTON CDA CS","8101605","2012-02-24 09:00","2012","02","24","09:00","0.5","","-3.2","","76","","","","30","","13","","","","100.21","","","","","","NA"
"-66.61","45.92","FREDERICTON CDA CS","8101605","2012-02-24 10:00","2012","02","24","10:00","1.3","","-3.2","","72","","","","29","","20","","","","100.25","","","","","","NA"
"-66.61","45.92","FREDERICTON CDA CS","8101605","2012-02-24 11:00","2012","02","24","11:00","2.1","","-3.2","","68","","","","30","","20","","","","100.28","","","","","","NA"
"-66.61","45.92","FREDERICTON CDA CS","8101605","2012-02-24 12:00","2012","02","24","12:00","3.2","","-3.3","","62","","","","29","","13","","","","100.31","","","","","","NA"
"-66.61","45.92","FREDERICTON CDA CS","8101605","2012-02-24 13:00","2012","02","24","13:00","3.9","","-3.6","","58","","","","29","","13","","","","100.25","","","","","","NA"
"-66.61","45.92","FREDERICTON CDA CS","8101605","2012-02-24 14:00","2012","02","24","14:00","4.6","","-3.8","","54","","","","30","","9","","","","100.22","","","","","","NA"
"-66.61","45.92","FREDERICTON CDA CS","8101605","2012-02-24 15:00","2012","02","24","15:00","4.5","","-4.2","","53","","","","33","","9","","","","100.25","","","","","","NA"
"-66.61","45.92","FREDERICTON CDA CS","8101605","2012-02-24 16:00","2012","02","24","16:00","4.8","","-4.3","","52","","","","34","","7","","","","100.12","","","","","","NA"
"-66.61","45.92","FREDERICTON CDA CS","8101605","2012-02-24 17:00","2012","02","24","17:00","4.7","","-4.1","","53","","","","32","","4","","","","100.14","","","","","","NA"
"-66.61","45.92","FREDERICTON CDA CS","8101605","2012-02-24 18:00","2012","02","24","18:00","3.4","","-4.0","","58","","","","8","","4","","","","100.13","","","","","","NA"
"-66.61","45.92","FREDERICTON CDA CS","8101605","2012-02-24 19:00","2012","02","24","19:00","2.2","","-3.0","","68","","","","3","","2","","","","100.08","","","","","","NA"
"-66.61","45.92","FREDERICTON CDA CS","8101605","2012-02-24 20:00","2012","02","24","20:00","0.5","","-2.8","","78","","","","16","","2","","","","100.01","","","","","","NA"
"-66.61","45.92","FREDERICTON CDA CS","8101605","2012-02-24 21:00","2012","02","24","21:00","1.2","","-3.0","","74","","","","12","","7","","","","99.88","","","","","","NA"
"-66.61","45.92","FREDERICTON CDA CS","8101605","2012-02-24 22:00","2012","02","24","22:00","1.0","","-3.0","","75","","","","12","","4","","","","99.86","","","","","","NA"
"-66.61","45.92","FREDERICTON CDA CS","8101605","2012-02-24 23:00","2012","02","24","23:00","0.9","","-2.8","","76","","","","11","","7","","","","99.76","","","","","","NA"
"-66.61","45.92","FREDERICTON CDA CS","8101605","2012-02-25 00:00","2012","02","25","00:00","0.8","","-2.3","","80","","","","8","","13","","","","99.50","","","","","","NA"
"-66.61","45.92","FREDERICTON CDA CS","8101605","2012-02-25 01:00","2012","02","25","01:00","0.1","","-0.9","","93","","","","10","","20","","","","99.18","","","","","","NA"
"-66.61","45.92","FREDERICTON CDA CS","8101605","2012-02-25 02:00","2012","02","25","02:00","-0.1","","-0.9","","94","","","","8","","22","","","","98.87","","","","-6","","NA"
"-66.61","45.92","FREDERICTON CDA CS","8101605","2012-02-25 03:00","2012","02","25","03:00","-0.3","","-1.1","","94","","","","7","","22","","","","98.39","","","","-6","","NA"
"-66.61","45.92","FREDERICTON CDA CS","8101605","2012-02-25 04:00","2012","02","25","04:00","-0.6","","-1.7","","92","","","","6","","22","","","","98.03","","","","-6","","NA"
"-66.61","45.92","FREDERICTON CDA CS","8101605","2012-02-25 05:00","2012","02","25","05:00","-0.8","","-1.6","","94","","","","5","","82","","","","97.70","","","","-11","","NA"
"-66.61","45.92","FREDERICTON CDA CS","8101605","2012-02-25 06:00","2012","02","25","06:00","-0.7","","-1.5","","94","","","","5","","17","","","","97.22","","","","-6","","NA"
"-66.61","45.92","FREDERICTON CDA CS","8101605","2012-02-25 07:00","2012","02","25","07:00","-1.0","","-1.9","","94","","","","3","","17","","","","96.89","","","","-6","","NA"
"-66.61","45.92","FREDERICTON CDA CS","8101605","2012-02-25 08:00","2012","02","25","08:00","-1.4","","-2.2","","94","","","","31","","26","","","","96.98","","","","-8","","NA"
"-66.61","45.92","FREDERICTON CDA CS","8101605","2012-02-25 09:00","2012","02","25","09:00","-0.9","","-2.5","","89","","","","28","","22","","","","97.16","","","","-7","","NA"
"-66.61","45.92","FREDERICTON CDA CS","8101605","2012-02-25 10:00","2012","02","25","10:00","-0.3","","-2.2","","87","","","","27","","20","","","","97.31","","","","-6","","NA"
"-66.61","45.92","FREDERICTON CDA CS","8101605","2012-02-25 11:00","2012","02","25","11:00","0.1","","-2.0","","86","","","","26","","26","","","","97.37","","","","","","NA"
"-66.61","45.92","FREDERICTON CDA CS","8101605","2012-02-25 12:00","2012","02","25","12:00","0.3","","-2.1","","84","","","","26","","22","","","","97.42","","","","","","NA"
"-66.61","45.92","FREDERICTON CDA CS","8101605","2012-02-25 13:00","2012","02","25","13:00","0.9","","-2.1","","80","","","","27","","32","","","","97.45","","","","","","NA"
"-66.61","45.92","FREDERICTON CDA CS","8101605","2012-02-25 14:00","2012","02","25","14:00","0.8","","-1.8","","83","","","","28","","19","","","","97.50","","","","","","NA"
"-66.61","45.92","FREDERICTON CDA CS","8101605","2012-02-25 15:00","2012","02","25","15:00","1.8","","-2.1","","75","","","","28","","20","","","","97.55","","","","","","NA"
"-66.61","45.92","FREDERICTON CDA CS","8101605","2012-02-25 16:00","2012","02","25","16:00","1.7","","-1.9","","77","","","","27","","19","","","","97.62","","","","","","NA"
"-66.61","45.92","FREDERICTON CDA CS","8101605","2012-02-25 17:00","2012","02","25","17:00","1.8","","-2.3","","74","","","","27","","24","","","","97.69","","","","","","NA"
"-66.61","45.92","FREDERICTON CDA CS","8101605","2012-02-25 18:00","2012","02","25","18:00","1.3","","-2.7","","75","","","","27","","22","","","","97.79","","","","","","NA"
"-66.61","45.92","FREDERICTON CDA CS","8101605","2012-02-25 19:00","2012","02","25","19:00","-0.1","","-3.7","","77","","","","30","","28","","","","97.94","","","","-6","","NA"
"-66.61","45.92","FREDERICTON CDA CS","8101605","2012-02-25 20:00","2012","02","25","20:00","-0.2","","-4.0","","76","","","","30","","26","","","","98.12","","","","-6","","NA"
"-66.61","45.92","FREDERICTON CDA CS","8101605","2012-02-25 21:00","2012","02","25","21:00","-0.4","","-4.1","","76","","","","29","","30","","","","98.30","","","","-7","","NA"
"-66.61","45.92","FREDERICTON CDA CS","8101605","2012-02-25 22:00","2012","02","25","22:00","-0.6","","-4.3","","76","","","","28","","28","","","","98.41","","","","-7","","NA"
"-66.61","45.92","FREDERICTON CDA CS","8101605","2012-02-25 23:00","2012","02","25","23:00","-0.4","","-3.7","","78","","","","28","","22","","","","98.52","","","","-6","","NA"
"-66.61","45.92","FREDERICTON CDA CS","8101605","2012-02-26 00:00","2012","02","26","00:00","0.1","","-3.6","","76","","","","29","","24","","","","98.60","","","","","","NA"
"-66.61","45.92","FREDERICTON CDA CS","8101605","2012-02-26 01:00","2012","02","26","01:00","0.4","","-3.5","","75","","","","29","","24","","","","98.70","","","","","","NA"
"-66.61","45.92","FREDERICTON CDA CS","8101605","2012-02-26 02:00","2012","02","26","02:00","0.5","","-4.4","","70","","","","30","","37","","","","98.82","","","","","","NA"
"-66.61","45.92","FREDERICTON CDA CS","8101605","2012-02-26 03:00","2012","02","26","03:00","0.4","","-4.8","","68","","","","30","","33","","","","98.99","","","","","","NA"
"-66.61","45.92","FREDERICTON CDA CS","8101605","2012-02-26 04:00","2012","02","26","04:00","0.3","","-3.8","","74","","","","30","","30","","","","99.16","","","","","","NA"
"-66.61","45.92","FREDERICTON CDA CS","8101605","2012-02-26 05:00","2012","02","26","05:00","-0.7","","-5.6","","69","","","","30","","39","","","","99.38","","","","-8","","NA"
"-66.61","45.92","FREDERICTON CDA CS","8101605","2012-02-26 06:00","2012","02","26","06:00","-2.1","","-7.1","","69","","","","30","","41","","","","99.59","","","","-10","","NA"
"-66.61","45.92","FREDERICTON CDA CS","8101605","2012-02-26 07:00","2012","02","26","07:00","-3.0","","-8.3","","67","","","","31","","35","","","","99.84","","","","-11","","NA"
"-66.61","45.92","FREDERICTON CDA CS","8101605","2012-02-26 08:00","2012","02","26","08:00","-3.7","","-8.8","","68","","","","29","","28","","","","100.03","","","","-11","","NA"
"-66.61","45.92","FREDERICTON CDA CS","8101605","2012-02-26 09:00","2012","02","26","09:00","-4.2","","-9.3","","68","","","","30","","30","","","","100.24","","","","-12","","NA"
"-66.61","45.92","FREDERICTON CDA CS","8101605","2012-02-26 10:00","2012","02","26","10:00","-4.5","","-10.7","","62","","","","30","","43","","","","100.36","","","","-14","","NA"
"-66.61","45.92","FREDERICTON CDA CS","8101605","2012-02-26 11:00","2012","02","26","11:00","-4.7","","-10.2","","65","","","","30","","33","","","","100.56","","","","-13","","NA"
"-66.61","45.92","FREDERICTON CDA CS","8101605","2012-02-26 12:00","2012","02","26","12:00","-4.5","","-10.9","","61","","","","31","","26","","","","100.73","","","","-12","","NA"
"-66.61","45.92","FREDERICTON CDA CS","8101605","2012-02-26 13:00","2012","02","26","13:00","-4.1","","-11.3","","57","","","","30","","39","","","","100.77","","","","-13","","NA"
"-66.61","45.92","FREDERICTON CDA CS","8101605","2012-02-26 14:00","2012","02","26","14:00","-3.1","","-10.8","","55","","","","30","","35","","","","100.85","","","","-11","","NA"
"-66.61","45.92","FREDERICTON CDA CS","8101605","2012-02-26 15:00","2012","02","26","15:00","-2.9","","-11.2","","53","","","","29","","37","","","","100.95","","","","-11","","NA"
"-66.61","45.92","FREDERICTON CDA CS","8101605","2012-02-26 16:00","2012","02","26","16:00","-3.1","","-11.7","","51","","","","30","","37","","","","101.08","","","","-11","","NA"
"-66.61","45.92","FREDERICTON CDA CS","8101605","2012-02-26 17:00","2012","02","26","17:00","-3.1","","-12.3","","49","","","","30","","26","","","","101.25","","","","-10","","NA"
"-66.61","45.92","FREDERICTON CDA CS","8101605","2012-02-26 18:00","2012","02","26","18:00","-3.5","","-12.1","","51","","","","30","","22","","","","101.43","","","","-10","","NA"
"-66.61","45.92","FREDERICTON CDA CS","8101605","2012-02-26 19:00","2012","02","26","19:00","-4.0","","-12.4","","52","","","","30","","24","","","","101.59","","","","-11","","NA"
"-66.61","45.92","FREDERICTON CDA CS","8101605","2012-02-26 20:00","2012","02","26","20:00","-5.2","","-12.6","","56","","","","29","","15","","","","101.73","","","","-11","","NA"
"-66.61","45.92","FREDERICTON CDA CS","8101605","2012-02-26 21:00","2012","02","26","21:00","-5.9","","-12.9","","58","","","","29","","15","","","","101.88","","","","-12","","NA"
"-66.61","45.92","FREDERICTON CDA CS","8101605","2012-02-26 22:00","2012","02","26","22:00","-6.6","","-12.7","","62","","","","28","","17","","","","102.00","","","","-13","","NA"
"-66.61","45.92","FREDERICTON CDA CS","8101605","2012-02-26 23:00","2012","02","26","23:00","-7.8","","-13.3","","65","","","","29","","19","","","","102.08","","","","-15","","NA"
"-66.61","45.92","FREDERICTON CDA CS","8101605","2012-02-27 00:00","2012","02","27","00:00","-8.6","","-13.5","","68","","","","30","","13","","","","102.13","","","","-15","","NA"
"-66.61","45.92","FREDERICTON CDA CS","8101605","2012-02-27 01:00","2012","02","27","01:00","-9.5","","-16.8","","55","","","","30","","28","","","","102.21","","","","-19","","NA"
"-66.61","45.92","FREDERICTON CDA CS","8101605","2012-02-27 02:00","2012","02","27","02:00","-10.6","","-18.0","","54","","","","31","","19","","","","102.26","","","","-18","","NA"
"-66.61","45.92","FREDERICTON CDA CS","8101605","2012-02-27 03:00","2012","02","27","03:00","-11.5","","-18.1","","58","","","","30","","17","","","","102.27","","","","-19","","NA"
"-66.61","45.92","FREDERICTON CDA CS","8101605","2012-02-27 04:00","2012","02","27","04:00","-12.2","","-18.7","","58","","","","30","","22","","","","102.37","","","","-21","","NA"
"-66.61","45.92","FREDERICTON CDA CS","8101605","2012-02-27 05:00","2012","02","27","05:00","-12.7","","-19.0","","59","","","","29","","20","","","","102.43","","","","-21","","NA"
"-66.61","45.92","FREDERICTON CDA CS","8101605","2012-02-27 06:00","2012","02","27","06:00","-13.2","","-19.1","","61","","","","29","","17","","","","102.51","","","","-21","","NA"
"-66.61","45.92","FREDERICTON CDA CS","8101605","2012-02-27 07:00","2012","02","27","07:00","-13.6","","-19.2","","63","","","","29","","17","","","","102.52","","","","-22","","NA"
"-66.61","45.92","FREDERICTON CDA CS","8101605","2012-02-27 08:00","2012","02","27","08:00","-13.3","","-19.3","","61","","","","30","","19","","","","102.59","","","","-22","","NA"
"-66.61","45.92","FREDERICTON CDA CS","8101605","2012-02-27 09:00","2012","02","27","09:00","-13.0","","-19.4","","59","","","","31","","15","","","","102.60","","","","-20","","NA"
"-66.61","45.92","FREDERICTON CDA CS","8101605","2012-02-27 10:00","2012","02","27","10:00","-12.1","","-19.8","","53","","","","32","","6","","","","102.63","","","","-16","","NA"
"-66.61","45.92","FREDERICTON CDA CS","8101605","2012-02-27 11:00","2012","02","27","11:00","-11.2","","-18.8","","53","","","","31","","6","","","","102.56","","","","-15","","NA"
"-66.61","45.92","FREDERICTON CDA CS","8101605","2012-02-27 12:00","2012","02","27","12:00","-9.9","","-19.2","","47","","","","30","","11","","","","102.55","","","","-15","","NA"
"-66.61","45.92","FREDERICTON CDA CS","8101605","2012-02-27 13:00","2012","02","27","13:00","-9.3","","-19.0","","45","","","","30","","7","","","","102.42","","","","-13","","NA"
"-66.61","45.92","FREDERICTON CDA CS","8101605","2012-02-27 14:00","2012","02","27","14:00","-8.6","","-18.4","","45","","","","30","","6","","","","102.36","","","","-12","","NA"
"-66.61","45.92","FREDERICTON CDA CS","8101605","2012-02-27 15:00","2012","02","27","15:00","-8.1","","-17.6","","46","","","","21","","13","","","","102.28","","","","-14","","NA"
"-66.61","45.92","FREDERICTON CDA CS","8101605","2012-02-27 16:00","2012","02","27","16:00","-7.8","","-17.3","","46","","","","20","","6","","","","102.19","","","","-11","","NA"
"-66.61","45.92","FREDERICTON CDA CS","8101605","2012-02-27 17:00","2012","02","27","17:00","-7.8","","-17.0","","48","","","","14","","4","","","","102.08","","","","-10","","NA"
"-66.61","45.92","FREDERICTON CDA CS","8101605","2012-02-27 18:00","2012","02","27","18:00","-8.0","","-16.2","","52","","","","19","","7","","","","102.10","","","","-12","","NA"
"-66.61","45.92","FREDERICTON CDA CS","8101605","2012-02-27 19:00","2012","02","27","19:00","-9.3","","-11.9","","81","","","","15","","4","","","","102.12","","","","-12","","NA"
"-66.61","45.92","FREDERICTON CDA CS","8101605","2012-02-27 20:00","2012","02","27","20:00","-9.6","","-11.2","","88","","","","11","","6","","","","101.97","","","","-13","","NA"
"-66.61","45.92","FREDERICTON CDA CS","8101605","2012-02-27 21:00","2012","02","27","21:00","-9.5","","-11.1","","88","","","","9","","7","","","","101.86","","","","-13","","NA"
"-66.61","45.92","FREDERICTON CDA CS","8101605","2012-02-27 22:00","2012","02","27","22:00","-9.5","","-11.0","","89","","","","7","","6","","","","101.77","","","","-13","","NA"
"-66.61","45.92","FREDERICTON CDA CS","8101605","2012-02-27 23:00","2012","02","27","23:00","-9.3","","-10.8","","89","","","","5","","7","","","","101.64","","","","-13","","NA"
"-66.61","45.92","FREDERICTON CDA CS","8101605","2012-02-28 00:00","2012","02","28","00:00","-9.1","","-10.5","","90","","","","5","","6","","","","101.52","","","","-12","","NA"
"-66.61","45.92","FREDERICTON CDA CS","8101605","2012-02-28 01:00","2012","02","28","01:00","-9.0","","-10.5","","89","","","","5","","7","","","","101.40","","","","-13","","NA"
"-66.61","45.92","FREDERICTON CDA CS","8101605","2012-02-28 02:00","2012","02","28","02:00","-8.6","","-10.0","","90","","","","34","","4","","","","101.29","","","","-11","","NA"
"-66.61","45.92","FREDERICTON CDA CS","8101605","2012-02-28 03:00","2012","02","28","03:00","-8.5","","-9.9","","90","","","","3","","7","","","","101.21","","","","-12","","NA"
"-66.61","45.92","FREDERICTON CDA CS","8101605","2012-02-28 04:00","2012","02","28","04:00","-8.6","","-10.0","","90","","","","35","","9","","","","101.17","","","","-13","","NA"
"-66.61","45.92","FREDERICTON CDA CS","8101605","2012-02-28 05:00","2012","02","28","05:00","-8.9","","-10.4","","89","","","","36","","9","","","","101.16","","","","-14","","NA"
"-66.61","45.92","FREDERICTON CDA CS","8101605","2012-02-28 06:00","2012","02","28","06:00","-9.0","","-10.6","","88","","","","35","","9","","","","101.19","","","","-14","","NA"
"-66.61","45.92","FREDERICTON CDA CS","8101605","2012-02-28 07:00","2012","02","28","07:00","-9.2","","-10.9","","87","","","","35","","13","","","","101.22","","","","-15","","NA"
"-66.61","45.92","FREDERICTON CDA CS","8101605","2012-02-28 08:00","2012","02","28","08:00","-8.9","","-10.8","","86","","","","34","","13","","","","101.31","","","","-15","","NA"
"-66.61","45.92","FREDERICTON CDA CS","8101605","2012-02-28 09:00","2012","02","28","09:00","-8.1","","-10.2","","85","","","","35","","13","","","","101.36","","","","-14","","NA"
"-66.61","45.92","FREDERICTON CDA CS","8101605","2012-02-28 10:00","2012","02","28","10:00","-7.0","","-9.9","","80","","","","35","","17","","","","101.46","","","","-13","","NA"
"-66.61","45.92","FREDERICTON CDA CS","8101605","2012-02-28 11:00","2012","02","28","11:00","-6.2","","-9.8","","76","","","","36","","15","","","","101.54","","","","-12","","NA"
"-66.61","45.92","FREDERICTON CDA CS","8101605","2012-02-28 12:00","2012","02","28","12:00","-5.1","","-9.7","","70","","","","36","","17","","","","101.63","","","","-11","","NA"
"-66.61","45.92","FREDERICTON CDA CS","8101605","2012-02-28 13:00","2012","02","28","13:00","-4.9","","-9.0","","73","","","","34","","13","","","","101.71","","","","-10","","NA"
"-66.61","45.92","FREDERICTON CDA CS","8101605","2012-02-28 14:00","2012","02","28","14:00","-4.7","","-9.6","","69","","","","35","","17","","","","101.77","","","","-11","","NA"
"-66.61","45.92","FREDERICTON CDA CS","8101605","2012-02-28 15:00","2012","02","28","15:00","-4.4","","-7.5","","79","","","","36","","11","","","","101.82","","","","-9","","NA"
"-66.61","45.92","FREDERICTON CDA CS","8101605","2012-02-28 16:00","2012","02","28","16:00","-4.3","","-7.6","","78","","","","1","","7","","","","101.86","","","","-7","","NA"
"-66.61","45.92","FREDERICTON CDA CS","8101605","2012-02-28 17:00","2012","02","28","17:00","-4.6","","-8.0","","77","","","","34","","9","","","","101.94","","","","-8","","NA"
"-66.61","45.92","FREDERICTON CDA CS","8101605","2012-02-28 18:00","2012","02","28","18:00","-5.1","","-7.9","","81","","","","33","","9","","","","102.03","","","","-9","","NA"
"-66.61","45.92","FREDERICTON CDA CS","8101605","2012-02-28 19:00","2012","02","28","19:00","-5.3","","-9.1","","75","","","","34","","11","","","","102.12","","","","-10","","NA"
"-66.61","45.92","FREDERICTON CDA CS","8101605","2012-02-28 20:00","2012","02","28","20:00","-5.9","","-10.4","","70","","","","32","","11","","","","102.19","","","","-11","","NA"
"-66.61","45.92","FREDERICTON CDA CS","8101605","2012-02-28 21:00","2012","02","28","21:00","-7.3","","-11.7","","71","","","","31","","6","","","","102.26","","","","-10","","NA"
"-66.61","45.92","FREDERICTON CDA CS","8101605","2012-02-28 22:00","2012","02","28","22:00","-8.7","","-11.0","","83","","","","34","","2","","","","102.28","","","","-10","","NA"
"-66.61","45.92","FREDERICTON CDA CS","8101605","2012-02-28 23:00","2012","02","28","23:00","-8.2","","-10.8","","81","","","","32","","6","","","","102.29","","","","-11","","NA"
"-66.61","45.92","FREDERICTON CDA CS","8101605","2012-02-29 00:00","2012","02","29","00:00","-9.6","","-11.7","","85","","","","31","","6","","","","102.26","","","","-13","","NA"
"-66.61","45.92","FREDERICTON CDA CS","8101605","2012-02-29 01:00","2012","02","29","01:00","-11.0","","-12.9","","86","","","","28","","4","","","","102.25","","","","-13","","NA"
"-66.61","45.92","FREDERICTON CDA CS","8101605","2012-02-29 02:00","2012","02","29","02:00","-12.2","","-14.0","","86","","","","36","","2","","","","102.28","","","","-13","","NA"
"-66.61","45.92","FREDERICTON CDA CS","8101605","2012-02-29 03:00","2012","02","29","03:00","-13.8","","-15.1","","90","","","","35","","2","","","","102.27","","","","-15","","NA"
"-66.61","45.92","FREDERICTON CDA CS","8101605","2012-02-29 04:00","2012","02","29","04:00","-15.1","","-16.6","","88","","","","34","","4","","","","102.24","","","","-18","","NA"
"-66.61","45.92","FREDERICTON CDA CS","8101605","2012-02-29 05:00","2012","02","29","05:00","-15.5","","-17.1","","88","","","","34","","4","","","","102.23","","","","-18","","NA"
"-66.61","45.92","FREDERICTON CDA CS","8101605","2012-02-29 06:00","2012","02","29","06:00","-16.3","","-18.1","","86","","","","33","","2","","","","102.25","","","","-18","","NA"
"-66.61","45.92","FREDERICTON CDA CS","8101605","2012-02-29 07:00","2012","02","29","07:00","-16.4","","-18.2","","86","","","","","","0","","","","102.24","","","","","","NA"
"-66.61","45.92","FREDERICTON CDA CS","8101605","2012-02-29 08:00","2012","02","29","08:00","-16.1","","-17.8","","87","","","","34","","4","","","","102.26","","","","-19","","NA"
"-66.61","45.92","FREDERICTON CDA CS","8101605","2012-02-29 09:00","2012","02","29","09:00","-14.7","","-16.6","","85","","","","33","","4","","","","102.25","","","","-18","","NA"
"-66.61","45.92","FREDERICTON CDA CS","8101605","2012-02-29 10:00","2012","02","29","10:00","-12.2","","-13.9","","87","","","","35","","2","","","","102.21","","","","-13","","NA"
"-66.61","45.92","FREDERICTON CDA CS","8101605","2012-02-29 11:00","2012","02","29","11:00","-6.7","","-11.6","","68","","","","31","","11","","","","102.16","","","","-12","","NA"
"-66.61","45.92","FREDERICTON CDA CS","8101605","2012-02-29 12:00","2012","02","29","12:00","-6.0","","-11.5","","65","","","","31","","15","","","","102.13","","","","-12","","NA"
"-66.61","45.92","FREDERICTON CDA CS","8101605","2012-02-29 13:00","2012","02","29","13:00","-5.0","","-11.8","","59","","","","30","","15","","","","102.07","","","","-11","","NA"
"-66.61","45.92","FREDERICTON CDA CS","8101605","2012-02-29 14:00","2012","02","29","14:00","-4.2","","-11.8","","55","","","","27","","13","","","","102.02","","","","-9","","NA"
"-66.61","45.92","FREDERICTON CDA CS","8101605","2012-02-29 15:00","2012","02","29","15:00","-4.0","","-11.9","","54","","","","29","","13","","","","101.92","","","","-9","","NA"
"-66.61","45.92","FREDERICTON CDA CS","8101605","2012-02-29 16:00","2012","02","29","16:00","-3.9","","-12.3","","52","","","","29","","15","","","","101.92","","","","-9","","NA"
"-66.61","45.92","FREDERICTON CDA CS","8101605","2012-02-29 17:00","2012","02","29","17:00","-4.1","","-13.1","","50","","","","29","","17","","","","101.92","","","","-10","","NA"
"-66.61","45.92","FREDERICTON CDA CS","8101605","2012-02-29 18:00","2012","02","29","18:00","-5.0","","-13.6","","51","","","","29","","15","","","","101.99","","","","-11","","NA"
"-66.61","45.92","FREDERICTON CDA CS","8101605","2012-02-29 19:00","2012","02","29","19:00","-7.4","","-14.0","","59","","","","30","","7","","","","102.09","","","","-11","","NA"
"-66.61","45.92","FREDERICTON CDA CS","8101605","2012-02-29 20:00","2012","02","29","20:00","-9.9","","-13.9","","73","","","","36","","4","","","","102.11","","","","-12","","NA"
"-66.61","45.92","FREDERICTON CDA CS","8101605","2012-02-29 21:00","2012","02","29","21:00","-9.7","","-13.7","","73","","","","32","","6","","","","102.11","","","","-13","","NA"
"-66.61","45.92","FREDERICTON CDA CS","8101605","2012-02-29 22:00","2012","02","29","22:00","-10.4","","-13.8","","76","","","","31","","6","","","","102.05","","","","-14","","NA"
"-66.61","45.92","FREDERICTON CDA CS","8101605","2012-02-29 23:00","2012","02","29","23:00","-11.7","","-14.4","","80","","","","32","","11","","","","102.10","","","","-18","","NA"
