"Longitude (x)","Latitude (y)","Station Name","Climate ID","Date/Time (LST)","Year","Month","Day","Time (LST)","Temp (°C)","Temp Flag","Dew Point Temp (°C)","Dew Point Temp Flag","Rel Hum (%)","Rel Hum Flag","Precip. Amount (mm)","Precip. Amount Flag","Wind Dir (10s deg)","Wind Dir Flag","Wind Spd (km/h)","Wind Spd Flag","Visibility (km)","Visibility Flag","Stn Press (kPa)","Stn Press Flag","Hmdx","Hmdx Flag","Wind Chill","Wind Chill Flag","Weather"
"-75.56","45.52","OTTAWA GATINEAU A","7032682","2019-01-01 00:00","2019","01","01","00:00"
"-75.56","45.52","OTTAWA GATINEAU A","7032682","2019-01-01 01:00","2019","01","01","01:00"
"-75.56","45.52","OTTAWA GATINEAU A","7032682","2019-01-01 02:00","2019","01","01","02:00"
"-75.56","45.52","OTTAWA GATINEAU A","7032682","2019-01-01 03:00","2019","01","01","03:00"
"-75.56","45.52","OTTAWA GATINEAU A","7032682","2019-01-01 04:00","2019","01","01","04:00"
"-75.56","45.52","OTTAWA GATINEAU A","7032682","2019-01-01 05:00","2019","01","01","05:00"
"-75.56","45.52","OTTAWA GATINEAU A","7032682","2019-01-01 06:00","2019","01","01","06:00"
"-75.56","45.52","OTTAWA GATINEAU A","7032682","2019-01-01 07:00","2019","01","01","07:00","-0.4","","-2.4","","87","","","","32","","26","","24.1","","99.34","","","","-7","","Mostly Cloudy"
"-75.56","45.52","OTTAWA GATINEAU A","7032682","2019-01-01 08:00","2019","01","01","08:00","-0.1","","-2.4","","85","","","","32","","26","","24.1","","99.75","","","","-6","","NA"
"-75.56","45.52","OTTAWA GATINEAU A","7032682","2019-01-01 09:00","2019","01","01","09:00","-0.7","","-3.7","","80","","","","31","","25","","24.1","","100.07","","","","-7","","NA"
"-75.56","45.52","OTTAWA GATINEAU A","7032682","2019-01-01 10:00","2019","01","01","10:00","-2.0","","-5.1","","79","","","","31","","26","","24.1","","100.35","","","","-9","","Mostly Cloudy"
"-75.56","45.52","OTTAWA GATINEAU A","7032682","2019-01-01 11:00","2019","01","01","11:00","-3.5","","-7.7","","73","","","","32","","24","","24.1","","100.60","","","","-10","","NA"
"-75.56","45.52","OTTAWA GATINEAU A","7032682","2019-01-01 12:00","2019","01","01","12:00","-4.8","","-9.0","","73","","","","30","","21","","24.1","","100.78","","","","-11","","NA"
"-75.56","45.52","OTTAWA GATINEAU A","7032682","2019-01-01 13:00","2019","01","01","13:00","-5.1","","-9.5","","71","","","","31","","19","","24.1","","100.82","","","","-12","","Mostly Cloudy"
"-75.56","45.52","OTTAWA GATINEAU A","7032682","2019-01-01 14:00","2019","01","01","14:00","-6.1","","-12.1","","63","","","","32","","21","","24.1","","100.92","","","","-13","","NA"
"-75.56","45.52","OTTAWA GATINEAU A","7032682","2019-01-01 15:00","2019","01","01","15:00","-7.3","","-14.6","","57","","","","31","","22","","24.1","","101.15","","","","-15","","NA"
"-75.56","45.52","OTTAWA GATINEAU A","7032682","2019-01-01 16:00","2019","01","01","16:00","-8.4","","-14.8","","60","","","","30","","12","","24.1","","101.40","","","","-14","","Mostly Cloudy"
"-75.56","45.52","OTTAWA GATINEAU A","7032682","2019-01-01 17:00","2019","01","01","17:00","-10.1","","-15.2","","67","","","","31","","7","","24.1","","101.55","","","","-14","","NA"
"-75.56","45.52","OTTAWA GATINEAU A","7032682","2019-01-01 18:00","2019","01","01","18:00","-11.3","","-16.3","","67","","","","29","","11","","24.1","","101.56","","","","-17","","NA"
"-75.56","45.52","OTTAWA GATINEAU A","7032682","2019-01-01 19:00","2019","01","01","19:00","-12.7","","-16.9","","71","","","","28","","5","","24.1","","101.71","","","","-16","","Clear"
"-75.56","45.52","OTTAWA GATINEAU A","7032682","2019-01-01 20:00","2019","01","01","20:00","-13.2","","-18.0","","68","","","","31","","13","","24.1","","101.76","","","","-20","","NA"
"-75.56","45.52","OTTAWA GATINEAU A","7032682","2019-01-01 21:00","2019","01","01","21:00","-14.3","","-18.4","","71","","","","32","","8","","24.1","","101.78","","","","-20","","NA"
"-75.56","45.52","OTTAWA GATINEAU A","7032682","2019-01-01 22:00","2019","01","01","22:00"
"-75.56","45.52","OTTAWA GATINEAU A","7032682","2019-01-01 23:00","2019","01","01","23:00"
"-75.56","45.52","OTTAWA GATINEAU A","7032682","2019-01-02 00:00","2019","01","02","00:00"
"-75.56","45.52","OTTAWA GATINEAU A","7032682","2019-01-02 01:00","2019","01","02","01:00"
"-75.56","45.52","OTTAWA GATINEAU A","7032682","2019-01-02 02:00","2019","01","02","02:00"
"-75.56","45.52","OTTAWA GATINEAU A","7032682","2019-01-02 03:00","2019","01","02","03:00"
"-75.56","45.52","OTTAWA GATINEAU A","7032682","2019-01-02 04:00","2019","01","02","04:00"
"-75.56","45.52","OTTAWA GATINEAU A","7032682","2019-01-02 05:00","2019","01","02","05:00"
"-75.56","45.52","OTTAWA GATINEAU A","7032682","2019-01-02 06:00","2019","01","02","06:00"
"-75.56","45.52","OTTAWA GATINEAU A","7032682","2019-01-02 07:00","2019","01","02","07:00","-22.4","","-24.7","","82","","","","29","","4","","24.1","","102.21","","","","-26","","Mainly Clear"
"-75.56","45.52","OTTAWA GATINEAU A","7032682","2019-01-02 08:00","2019","01","02","08:00","-22.1","","-24.4","","82","","","","35","","7","","24.1","","102.29","","","","-28","","NA"
"-75.56","45.52","OTTAWA GATINEAU A","7032682","2019-01-02 09:00","2019","01","02","09:00","-20.0","","-23.6","","74","","","","33","","8","","24.1","","102.31","","","","-26","","NA"
"-75.56","45.52","OTTAWA GATINEAU A","7032682","2019-01-02 10:00","2019","01","02","10:00","-18.0","","-22.6","","68","","","","36","","2","","24.1","","102.29","","","","-20","","Clear"
"-75.56","45.52","OTTAWA GATINEAU A","7032682","2019-01-02 11:00","2019","01","02","11:00","-17.1","","-22.1","","65","","","","11","","5","","24.1","","102.21","","","","-21","","NA"
"-75.56","45.52","OTTAWA GATINEAU A","7032682","2019-01-02 12:00","2019","01","02","12:00","-15.8","","-21.1","","64","","","","7","","3","","24.1","","102.13","","","","-18","","NA"
"-75.56","45.52","OTTAWA GATINEAU A","7032682","2019-01-02 13:00","2019","01","02","13:00","-15.2","","-20.6","","64","","","","7","","4","","24.1","","102.02","","","","-18","","Mainly Clear"
"-75.56","45.52","OTTAWA GATINEAU A","7032682","2019-01-02 14:00","2019","01","02","14:00","-14.4","","-20.6","","60","","","","6","","7","","24.1","","101.94","","","","-19","","NA"
"-75.56","45.52","OTTAWA GATINEAU A","7032682","2019-01-02 15:00","2019","01","02","15:00","-13.9","","-20.3","","59","","","","7","","3","","24.1","","101.83","","","","-16","","NA"
"-75.56","45.52","OTTAWA GATINEAU A","7032682","2019-01-02 16:00","2019","01","02","16:00","-13.6","","-19.4","","62","","","","9","","9","","24.1","","101.77","","","","-19","","Mostly Cloudy"
"-75.56","45.52","OTTAWA GATINEAU A","7032682","2019-01-02 17:00","2019","01","02","17:00","-13.8","","-18.6","","67","","","","9","","7","","24.1","","101.70","","","","-18","","NA"
"-75.56","45.52","OTTAWA GATINEAU A","7032682","2019-01-02 18:00","2019","01","02","18:00","-13.5","","-17.5","","72","","","","8","","11","","24.1","","101.54","","","","-20","","NA"
"-75.56","45.52","OTTAWA GATINEAU A","7032682","2019-01-02 19:00","2019","01","02","19:00","-13.4","","-17.2","","73","","","","7","","12","","24.1","","101.42","","","","-20","","Mostly Cloudy"
"-75.56","45.52","OTTAWA GATINEAU A","7032682","2019-01-02 20:00","2019","01","02","20:00","-13.2","","-17.2","","72","","","","6","","10","","24.1","","101.30","","","","-19","","NA"
"-75.56","45.52","OTTAWA GATINEAU A","7032682","2019-01-02 21:00","2019","01","02","21:00","-12.9","","-16.4","","75","","","","8","","13","","24.1","","101.19","","","","-20","","NA"
"-75.56","45.52","OTTAWA GATINEAU A","7032682","2019-01-02 22:00","2019","01","02","22:00"
"-75.56","45.52","OTTAWA GATINEAU A","7032682","2019-01-02 23:00","2019","01","02","23:00"
"-75.56","45.52","OTTAWA GATINEAU A","7032682","2019-01-03 00:00","2019","01","03","00:00"
"-75.56","45.52","OTTAWA GATINEAU A","7032682","2019-01-03 01:00","2019","01","03","01:00"
"-75.56","45.52","OTTAWA GATINEAU A","7032682","2019-01-03 02:00","2019","01","03","02:00"
"-75.56","45.52","OTTAWA GATINEAU A","7032682","2019-01-03 03:00","2019","01","03","03:00"
"-75.56","45.52","OTTAWA GATINEAU A","7032682","2019-01-03 04:00","2019","01","03","04:00"
"-75.56","45.52","OTTAWA GATINEAU A","7032682","2019-01-03 05:00","2019","01","03","05:00"
"-75.56","45.52","OTTAWA GATINEAU A","7032682","2019-01-03 06:00","2019","01","03","06:00"
"-75.56","45.52","OTTAWA GATINEAU A","7032682","2019-01-03 07:00","2019","01","03","07:00","-12.1","","-13.4","","90","","","","36","","1","","19.3","","100.42","","","","-13","","Snow"
"-75.56","45.52","OTTAWA GATINEAU A","7032682","2019-01-03 08:00","2019","01","03","08:00","-10.8","","-12.5","","88","","","","25","","5","","19.3","","100.51","","","","-14","","Snow"
"-75.56","45.52","OTTAWA GATINEAU A","7032682","2019-01-03 09:00","2019","01","03","09:00","-10.1","","-12.3","","84","","","","23","","7","","16.1","","100.63","","","","-14","","Snow"
"-75.56","45.52","OTTAWA GATINEAU A","7032682","2019-01-03 10:00","2019","01","03","10:00","-9.5","","-11.9","","83","","","","22","","5","","6.4","","100.61","","","","-12","","Snow"
"-75.56","45.52","OTTAWA GATINEAU A","7032682","2019-01-03 11:00","2019","01","03","11:00","-9.1","","-11.8","","81","","","","0","","1","","8.1","","100.56","","","","-10","","Snow"
"-75.56","45.52","OTTAWA GATINEAU A","7032682","2019-01-03 12:00","2019","01","03","12:00","-8.2","","-10.9","","81","","","","26","","7","","12.9","","100.49","","","","-12","","Snow"
"-75.56","45.52","OTTAWA GATINEAU A","7032682","2019-01-03 13:00","2019","01","03","13:00","-7.7","","-10.6","","79","","","","21","","8","","12.9","","100.43","","","","-12","","Snow"
"-75.56","45.52","OTTAWA GATINEAU A","7032682","2019-01-03 14:00","2019","01","03","14:00","-7.2","","-10.1","","80","","","","21","","10","","12.9","","100.42","","","","-12","","Snow"
"-75.56","45.52","OTTAWA GATINEAU A","7032682","2019-01-03 15:00","2019","01","03","15:00","-7.0","","-9.6","","81","","","","23","","5","","12.9","","100.45","","","","-10","","Snow"
"-75.56","45.52","OTTAWA GATINEAU A","7032682","2019-01-03 16:00","2019","01","03","16:00","-6.9","","-9.1","","84","","","","36","","2","","16.1","","100.47","","","","-8","","Snow"
"-75.56","45.52","OTTAWA GATINEAU A","7032682","2019-01-03 17:00","2019","01","03","17:00","-7.0","","-8.8","","87","","","","9","","7","","9.7","","100.45","","","","-11","","Snow"
"-75.56","45.52","OTTAWA GATINEAU A","7032682","2019-01-03 18:00","2019","01","03","18:00","-7.1","","-8.2","","91","","","","8","","5","","8.1","","100.45","","","","-10","","Snow"
"-75.56","45.52","OTTAWA GATINEAU A","7032682","2019-01-03 19:00","2019","01","03","19:00","-7.1","","-8.0","","94","","","","7","","9","","16.1","","100.38","","","","-11","","Snow"
"-75.56","45.52","OTTAWA GATINEAU A","7032682","2019-01-03 20:00","2019","01","03","20:00","-7.0","","-7.9","","93","","","","7","","8","","12.9","","100.34","","","","-11","","Snow"
"-75.56","45.52","OTTAWA GATINEAU A","7032682","2019-01-03 21:00","2019","01","03","21:00","-6.7","","-7.7","","93","","","","9","","3","","12.9","","100.32","","","","-8","","NA"
"-75.56","45.52","OTTAWA GATINEAU A","7032682","2019-01-03 22:00","2019","01","03","22:00"
"-75.56","45.52","OTTAWA GATINEAU A","7032682","2019-01-03 23:00","2019","01","03","23:00"
"-75.56","45.52","OTTAWA GATINEAU A","7032682","2019-01-04 00:00","2019","01","04","00:00"
"-75.56","45.52","OTTAWA GATINEAU A","7032682","2019-01-04 01:00","2019","01","04","01:00"
"-75.56","45.52","OTTAWA GATINEAU A","7032682","2019-01-04 02:00","2019","01","04","02:00"
"-75.56","45.52","OTTAWA GATINEAU A","7032682","2019-01-04 03:00","2019","01","04","03:00"
"-75.56","45.52","OTTAWA GATINEAU A","7032682","2019-01-04 04:00","2019","01","04","04:00"
"-75.56","45.52","OTTAWA GATINEAU A","7032682","2019-01-04 05:00","2019","01","04","05:00"
"-75.56","45.52","OTTAWA GATINEAU A","7032682","2019-01-04 06:00","2019","01","04","06:00"
"-75.56","45.52","OTTAWA GATINEAU A","7032682","2019-01-04 07:00","2019","01","04","07:00","0.8","","-1.8","","83","","","","23","","17","","19.3","","99.87","","","","","","Cloudy"
"-75.56","45.52","OTTAWA GATINEAU A","7032682","2019-01-04 08:00","2019","01","04","08:00","0.9","","-1.8","","82","","","","24","","20","","19.3","","99.87","","","","","","NA"
"-75.56","45.52","OTTAWA GATINEAU A","7032682","2019-01-04 09:00","2019","01","04","09:00","1.1","","-1.7","","82","","","","23","","17","","19.3","","99.87","","","","","","NA"
"-75.56","45.52","OTTAWA GATINEAU A","7032682","2019-01-04 10:00","2019","01","04","10:00","1.5","","-1.4","","81","","","","23","","17","","19.3","","99.86","","","","","","Cloudy"
"-75.56","45.52","OTTAWA GATINEAU A","7032682","2019-01-04 11:00","2019","01","04","11:00","1.8","","-1.2","","81","","","","23","","21","","16.1","","99.80","","","","","","NA"
"-75.56","45.52","OTTAWA GATINEAU A","7032682","2019-01-04 12:00","2019","01","04","12:00","1.8","","-1.1","","81","","","","25","","20","","19.3","","99.81","","","","","","NA"
"-75.56","45.52","OTTAWA GATINEAU A","7032682","2019-01-04 13:00","2019","01","04","13:00","2.0","","-0.9","","81","","","","24","","20","","16.1","","99.78","","","","","","Cloudy"
"-75.56","45.52","OTTAWA GATINEAU A","7032682","2019-01-04 14:00","2019","01","04","14:00","2.0","","-0.8","","81","","","","24","","18","","16.1","","99.81","","","","","","NA"
"-75.56","45.52","OTTAWA GATINEAU A","7032682","2019-01-04 15:00","2019","01","04","15:00","2.1","","-0.7","","81","","","","24","","16","","16.1","","99.81","","","","","","NA"
"-75.56","45.52","OTTAWA GATINEAU A","7032682","2019-01-04 16:00","2019","01","04","16:00","2.0","","-0.7","","82","","","","24","","13","","16.1","","99.84","","","","","","Cloudy"
"-75.56","45.52","OTTAWA GATINEAU A","7032682","2019-01-04 17:00","2019","01","04","17:00","1.8","","-0.6","","84","","","","24","","10","","19.3","","99.85","","","","","","NA"
"-75.56","45.52","OTTAWA GATINEAU A","7032682","2019-01-04 18:00","2019","01","04","18:00","1.5","","-0.5","","86","","","","26","","5","","19.3","","99.87","","","","","","NA"
"-75.56","45.52","OTTAWA GATINEAU A","7032682","2019-01-04 19:00","2019","01","04","19:00","1.5","","-0.5","","87","","","","27","","5","","19.3","","99.90","","","","","","Cloudy"
"-75.56","45.52","OTTAWA GATINEAU A","7032682","2019-01-04 20:00","2019","01","04","20:00","1.7","","-0.5","","86","","","","25","","8","","19.3","","99.89","","","","","","NA"
"-75.56","45.52","OTTAWA GATINEAU A","7032682","2019-01-04 21:00","2019","01","04","21:00","1.5","","-0.3","","88","","","","29","","7","","19.3","","99.88","","","","","","NA"
"-75.56","45.52","OTTAWA GATINEAU A","7032682","2019-01-04 22:00","2019","01","04","22:00"
"-75.56","45.52","OTTAWA GATINEAU A","7032682","2019-01-04 23:00","2019","01","04","23:00"
"-75.56","45.52","OTTAWA GATINEAU A","7032682","2019-01-05 00:00","2019","01","05","00:00"
"-75.56","45.52","OTTAWA GATINEAU A","7032682","2019-01-05 01:00","2019","01","05","01:00"
"-75.56","45.52","OTTAWA GATINEAU A","7032682","2019-01-05 02:00","2019","01","05","02:00"
"-75.56","45.52","OTTAWA GATINEAU A","7032682","2019-01-05 03:00","2019","01","05","03:00"
"-75.56","45.52","OTTAWA GATINEAU A","7032682","2019-01-05 04:00","2019","01","05","04:00"
"-75.56","45.52","OTTAWA GATINEAU A","7032682","2019-01-05 05:00","2019","01","05","05:00"
"-75.56","45.52","OTTAWA GATINEAU A","7032682","2019-01-05 06:00","2019","01","05","06:00"
"-75.56","45.52","OTTAWA GATINEAU A","7032682","2019-01-05 07:00","2019","01","05","07:00","0.0","","-0.3","","98","","","","29","","3","","16.1","","99.78","","","","-1","","Cloudy"
"-75.56","45.52","OTTAWA GATINEAU A","7032682","2019-01-05 08:00","2019","01","05","08:00","-0.2","","-0.5","","98","","","","36","","3","","4.0","","99.81","","","","-1","","Fog"
"-75.56","45.52","OTTAWA GATINEAU A","7032682","2019-01-05 09:00","2019","01","05","09:00","0.1","","-0.2","","98","","","","4","","3","","4.0","","99.82","","","","","","Fog"
"-75.56","45.52","OTTAWA GATINEAU A","7032682","2019-01-05 10:00","2019","01","05","10:00","1.1","","0.1","","93","","","","16","","6","","4.8","","99.74","","","","","","Fog"
"-75.56","45.52","OTTAWA GATINEAU A","7032682","2019-01-05 11:00","2019","01","05","11:00","2.0","","0.3","","88","","","","36","","3","","9.7","","99.70","","","","","","Fog"
"-75.56","45.52","OTTAWA GATINEAU A","7032682","2019-01-05 12:00","2019","01","05","12:00","3.0","","0.1","","81","","","","1","","4","","16.1","","99.66","","","","","","NA"
"-75.56","45.52","OTTAWA GATINEAU A","7032682","2019-01-05 13:00","2019","01","05","13:00","3.2","","0.0","","80","","","","28","","4","","19.3","","99.60","","","","","","Mostly Cloudy"
"-75.56","45.52","OTTAWA GATINEAU A","7032682","2019-01-05 14:00","2019","01","05","14:00","2.9","","0.1","","82","","","","26","","5","","24.1","","99.63","","","","","","NA"
"-75.56","45.52","OTTAWA GATINEAU A","7032682","2019-01-05 15:00","2019","01","05","15:00","3.4","","-0.5","","75","","","","33","","8","","24.1","","99.68","","","","","","NA"
"-75.56","45.52","OTTAWA GATINEAU A","7032682","2019-01-05 16:00","2019","01","05","16:00","3.1","","-0.6","","77","","","","","","0","","24.1","","99.63","","","","","","Mostly Cloudy"
"-75.56","45.52","OTTAWA GATINEAU A","7032682","2019-01-05 17:00","2019","01","05","17:00","0.5","","-0.8","","91","","","","31","","8","","24.1","","99.74","","","","","","NA"
"-75.56","45.52","OTTAWA GATINEAU A","7032682","2019-01-05 18:00","2019","01","05","18:00","0.6","","-0.6","","91","","","","30","","7","","24.1","","99.77","","","","","","NA"
"-75.56","45.52","OTTAWA GATINEAU A","7032682","2019-01-05 19:00","2019","01","05","19:00","1.9","","-0.7","","83","","","","30","","8","","24.1","","99.82","","","","","","Mostly Cloudy"
"-75.56","45.52","OTTAWA GATINEAU A","7032682","2019-01-05 20:00","2019","01","05","20:00","0.9","","-0.6","","90","","","","28","","6","","24.1","","99.81","","","","","","NA"
"-75.56","45.52","OTTAWA GATINEAU A","7032682","2019-01-05 21:00","2019","01","05","21:00","0.9","","-0.6","","90","","","","24","","5","","24.1","","99.79","","","","","","Snow"
"-75.56","45.52","OTTAWA GATINEAU A","7032682","2019-01-05 22:00","2019","01","05","22:00"
"-75.56","45.52","OTTAWA GATINEAU A","7032682","2019-01-05 23:00","2019","01","05","23:00"
"-75.56","45.52","OTTAWA GATINEAU A","7032682","2019-01-06 00:00","2019","01","06","00:00"
"-75.56","45.52","OTTAWA GATINEAU A","7032682","2019-01-06 01:00","2019","01","06","01:00"
"-75.56","45.52","OTTAWA GATINEAU A","7032682","2019-01-06 02:00","2019","01","06","02:00"
"-75.56","45.52","OTTAWA GATINEAU A","7032682","2019-01-06 03:00","2019","01","06","03:00"
"-75.56","45.52","OTTAWA GATINEAU A","7032682","2019-01-06 04:00","2019","01","06","04:00"
"-75.56","45.52","OTTAWA GATINEAU A","7032682","2019-01-06 05:00","2019","01","06","05:00"
"-75.56","45.52","OTTAWA GATINEAU A","7032682","2019-01-06 06:00","2019","01","06","06:00"
"-75.56","45.52","OTTAWA GATINEAU A","7032682","2019-01-06 07:00","2019","01","06","07:00","-1.5","","-5.0","","77","","","","33","","22","","24.1","","100.33","","","","-7","","Snow,Blowing Snow"
"-75.56","45.52","OTTAWA GATINEAU A","7032682","2019-01-06 08:00","2019","01","06","08:00","-2.7","","-8.5","","65","","","","35","","29","","24.1","","100.53","","","","-10","","Blowing Snow"
"-75.56","45.52","OTTAWA GATINEAU A","7032682","2019-01-06 09:00","2019","01","06","09:00","-3.0","","-9.7","","60","","","","34","","37","","24.1","","100.71","","","","-11","","Blowing Snow"
"-75.56","45.52","OTTAWA GATINEAU A","7032682","2019-01-06 10:00","2019","01","06","10:00","-3.0","","-11.2","","54","","","","33","","32","","24.1","","100.90","","","","-11","","Blowing Snow"
"-75.56","45.52","OTTAWA GATINEAU A","7032682","2019-01-06 11:00","2019","01","06","11:00","-3.2","","-11.2","","54","","","","33","","25","","24.1","","101.01","","","","-10","","Snow,Blowing Snow"
"-75.56","45.52","OTTAWA GATINEAU A","7032682","2019-01-06 12:00","2019","01","06","12:00","-3.6","","-11.9","","53","","","","31","","22","","24.1","","101.06","","","","-10","","NA"
"-75.56","45.52","OTTAWA GATINEAU A","7032682","2019-01-06 13:00","2019","01","06","13:00","-4.4","","-12.3","","54","","","","33","","22","","24.1","","101.17","","","","-11","","Mostly Cloudy"
"-75.56","45.52","OTTAWA GATINEAU A","7032682","2019-01-06 14:00","2019","01","06","14:00","-5.1","","-12.9","","55","","","","32","","26","","24.1","","101.32","","","","-13","","NA"
"-75.56","45.52","OTTAWA GATINEAU A","7032682","2019-01-06 15:00","2019","01","06","15:00","-6.5","","-14.9","","52","","","","33","","23","","24.1","","101.50","","","","-14","","NA"
"-75.56","45.52","OTTAWA GATINEAU A","7032682","2019-01-06 16:00","2019","01","06","16:00","-7.1","","-14.8","","54","","","","34","","22","","24.1","","101.65","","","","-15","","Mainly Clear"
"-75.56","45.52","OTTAWA GATINEAU A","7032682","2019-01-06 17:00","2019","01","06","17:00","-7.9","","-13.1","","66","","","","33","","14","","19.3","","101.84","","","","-14","","Snow Showers"
"-75.56","45.52","OTTAWA GATINEAU A","7032682","2019-01-06 18:00","2019","01","06","18:00","-8.9","","-15.6","","59","","","","33","","11","","24.1","","102.04","","","","-14","","NA"
"-75.56","45.52","OTTAWA GATINEAU A","7032682","2019-01-06 19:00","2019","01","06","19:00","-9.6","","-15.9","","60","","","","34","","14","","24.1","","102.18","","","","-16","","Clear"
"-75.56","45.52","OTTAWA GATINEAU A","7032682","2019-01-06 20:00","2019","01","06","20:00","-10.5","","-16.4","","62","","","","33","","21","","24.1","","102.27","","","","-19","","NA"
"-75.56","45.52","OTTAWA GATINEAU A","7032682","2019-01-06 21:00","2019","01","06","21:00","-11.6","","-17.0","","65","","","","32","","13","","24.1","","102.35","","","","-18","","NA"
"-75.56","45.52","OTTAWA GATINEAU A","7032682","2019-01-06 22:00","2019","01","06","22:00"
"-75.56","45.52","OTTAWA GATINEAU A","7032682","2019-01-06 23:00","2019","01","06","23:00"
"-75.56","45.52","OTTAWA GATINEAU A","7032682","2019-01-07 00:00","2019","01","07","00:00"
"-75.56","45.52","OTTAWA GATINEAU A","7032682","2019-01-07 01:00","2019","01","07","01:00"
"-75.56","45.52","OTTAWA GATINEAU A","7032682","2019-01-07 02:00","2019","01","07","02:00"
"-75.56","45.52","OTTAWA GATINEAU A","7032682","2019-01-07 03:00","2019","01","07","03:00"
"-75.56","45.52","OTTAWA GATINEAU A","7032682","2019-01-07 04:00","2019","01","07","04:00"
"-75.56","45.52","OTTAWA GATINEAU A","7032682","2019-01-07 05:00","2019","01","07","05:00"
"-75.56","45.52","OTTAWA GATINEAU A","7032682","2019-01-07 06:00","2019","01","07","06:00"
"-75.56","45.52","OTTAWA GATINEAU A","7032682","2019-01-07 07:00","2019","01","07","07:00","-19.2","","-22.3","","77","","","","36","","1","","24.1","","102.80","","","","-20","","Mainly Clear"
"-75.56","45.52","OTTAWA GATINEAU A","7032682","2019-01-07 08:00","2019","01","07","08:00","-18.9","","-21.6","","80","","","","5","","5","","24.1","","102.83","","","","-23","","NA"
"-75.56","45.52","OTTAWA GATINEAU A","7032682","2019-01-07 09:00","2019","01","07","09:00","-17.3","","-20.3","","77","","","","36","","2","","24.1","","102.93","","","","-19","","NA"
"-75.56","45.52","OTTAWA GATINEAU A","7032682","2019-01-07 10:00","2019","01","07","10:00","-15.3","","-20.4","","65","","","","10","","5","","24.1","","102.83","","","","-19","","Mostly Cloudy"
"-75.56","45.52","OTTAWA GATINEAU A","7032682","2019-01-07 11:00","2019","01","07","11:00","-14.5","","-21.1","","58","","","","36","","1","","24.1","","102.77","","","","-15","","NA"
"-75.56","45.52","OTTAWA GATINEAU A","7032682","2019-01-07 12:00","2019","01","07","12:00","-13.8","","-20.6","","57","","","","8","","5","","24.1","","102.63","","","","-17","","NA"
"-75.56","45.52","OTTAWA GATINEAU A","7032682","2019-01-07 13:00","2019","01","07","13:00","-13.0","","-20.0","","56","","","","7","","14","","24.1","","102.46","","","","-20","","Cloudy"
"-75.56","45.52","OTTAWA GATINEAU A","7032682","2019-01-07 14:00","2019","01","07","14:00","-12.5","","-19.1","","58","","","","8","","14","","24.1","","102.34","","","","-20","","NA"
"-75.56","45.52","OTTAWA GATINEAU A","7032682","2019-01-07 15:00","2019","01","07","15:00","-12.1","","-19.3","","56","","","","8","","17","","24.1","","102.24","","","","-20","","NA"
"-75.56","45.52","OTTAWA GATINEAU A","7032682","2019-01-07 16:00","2019","01","07","16:00","-11.9","","-18.3","","59","","","","8","","14","","24.1","","102.11","","","","-19","","Cloudy"
"-75.56","45.52","OTTAWA GATINEAU A","7032682","2019-01-07 17:00","2019","01","07","17:00","-11.9","","-17.9","","62","","","","8","","17","","24.1","","101.96","","","","-20","","NA"
"-75.56","45.52","OTTAWA GATINEAU A","7032682","2019-01-07 18:00","2019","01","07","18:00","-11.7","","-18.4","","58","","","","9","","27","","24.1","","101.75","","","","-21","","NA"
"-75.56","45.52","OTTAWA GATINEAU A","7032682","2019-01-07 19:00","2019","01","07","19:00","-11.6","","-17.9","","60","","","","8","","30","","24.1","","101.58","","","","-22","","Cloudy"
"-75.56","45.52","OTTAWA GATINEAU A","7032682","2019-01-07 20:00","2019","01","07","20:00","-11.5","","-17.5","","62","","","","9","","30","","24.1","","101.44","","","","-21","","NA"
"-75.56","45.52","OTTAWA GATINEAU A","7032682","2019-01-07 21:00","2019","01","07","21:00","-12.0","","-15.5","","75","","","","8","","26","","2.4","","101.31","","","","-22","","Snow,Blowing Snow"
"-75.56","45.52","OTTAWA GATINEAU A","7032682","2019-01-07 22:00","2019","01","07","22:00"
"-75.56","45.52","OTTAWA GATINEAU A","7032682","2019-01-07 23:00","2019","01","07","23:00"
"-75.56","45.52","OTTAWA GATINEAU A","7032682","2019-01-08 00:00","2019","01","08","00:00"
"-75.56","45.52","OTTAWA GATINEAU A","7032682","2019-01-08 01:00","2019","01","08","01:00"
"-75.56","45.52","OTTAWA GATINEAU A","7032682","2019-01-08 02:00","2019","01","08","02:00"
"-75.56","45.52","OTTAWA GATINEAU A","7032682","2019-01-08 03:00","2019","01","08","03:00"
"-75.56","45.52","OTTAWA GATINEAU A","7032682","2019-01-08 04:00","2019","01","08","04:00"
"-75.56","45.52","OTTAWA GATINEAU A","7032682","2019-01-08 05:00","2019","01","08","05:00"
"-75.56","45.52","OTTAWA GATINEAU A","7032682","2019-01-08 06:00","2019","01","08","06:00"
"-75.56","45.52","OTTAWA GATINEAU A","7032682","2019-01-08 07:00","2019","01","08","07:00","-7.9","","-8.8","","93","","","","9","","10","","16.1","","99.94","","","","-13","","Cloudy"
"-75.56","45.52","OTTAWA GATINEAU A","7032682","2019-01-08 08:00","2019","01","08","08:00","-6.8","","-7.6","","94","","","","7","","7","","9.7","","100.02","","","","-10","","Freezing Drizzle,Fog"
"-75.56","45.52","OTTAWA GATINEAU A","7032682","2019-01-08 09:00","2019","01","08","09:00","-5.9","","-6.6","","95","","","","8","","5","","9.7","","100.09","","","","-8","","Freezing Drizzle,Fog"
"-75.56","45.52","OTTAWA GATINEAU A","7032682","2019-01-08 10:00","2019","01","08","10:00","-4.8","","-5.5","","95","","","","9","","9","","9.7","","100.10","","","","-9","","Freezing Drizzle,Fog"
"-75.56","45.52","OTTAWA GATINEAU A","7032682","2019-01-08 11:00","2019","01","08","11:00","-3.7","","-4.6","","94","","","","9","","6","","8.1","","100.05","","","","-6","","Fog"
"-75.56","45.52","OTTAWA GATINEAU A","7032682","2019-01-08 12:00","2019","01","08","12:00","-2.9","","-3.8","","94","","","","9","","8","","12.9","","99.99","","","","-6","","NA"
"-75.56","45.52","OTTAWA GATINEAU A","7032682","2019-01-08 13:00","2019","01","08","13:00","-2.5","","-3.3","","94","","","","7","","9","","6.4","","99.94","","","","-6","","Fog"
"-75.56","45.52","OTTAWA GATINEAU A","7032682","2019-01-08 14:00","2019","01","08","14:00","-1.5","","-2.4","","93","","","","12","","3","","6.4","","99.93","","","","-3","","Fog"
"-75.56","45.52","OTTAWA GATINEAU A","7032682","2019-01-08 15:00","2019","01","08","15:00","-1.0","","-1.8","","95","","","","7","","8","","6.4","","99.84","","","","-4","","Fog"
"-75.56","45.52","OTTAWA GATINEAU A","7032682","2019-01-08 16:00","2019","01","08","16:00","-0.6","","-1.3","","96","","","","6","","9","","6.4","","99.81","","","","-4","","Fog"
"-75.56","45.52","OTTAWA GATINEAU A","7032682","2019-01-08 17:00","2019","01","08","17:00","0.0","","-0.5","","96","","","","7","","12","","8.1","","99.76","","","","-4","","Fog"
"-75.56","45.52","OTTAWA GATINEAU A","7032682","2019-01-08 18:00","2019","01","08","18:00","0.2","","-0.3","","96","","","","7","","17","","8.1","","99.67","","","","","","Rain,Fog"
"-75.56","45.52","OTTAWA GATINEAU A","7032682","2019-01-08 19:00","2019","01","08","19:00","0.0","","-0.5","","97","","","","7","","10","","8.1","","99.65","","","","-3","","Fog"
"-75.56","45.52","OTTAWA GATINEAU A","7032682","2019-01-08 20:00","2019","01","08","20:00","0.0","","-0.4","","97","","","","7","","17","","4.8","","99.62","","","","-5","","Drizzle,Fog"
"-75.56","45.52","OTTAWA GATINEAU A","7032682","2019-01-08 21:00","2019","01","08","21:00","0.2","","-0.1","","98","","","","7","","19","","4.8","","99.45","","","","","","Rain,Fog"
"-75.56","45.52","OTTAWA GATINEAU A","7032682","2019-01-08 22:00","2019","01","08","22:00"
"-75.56","45.52","OTTAWA GATINEAU A","7032682","2019-01-08 23:00","2019","01","08","23:00"
"-75.56","45.52","OTTAWA GATINEAU A","7032682","2019-01-09 00:00","2019","01","09","00:00"
"-75.56","45.52","OTTAWA GATINEAU A","7032682","2019-01-09 01:00","2019","01","09","01:00"
"-75.56","45.52","OTTAWA GATINEAU A","7032682","2019-01-09 02:00","2019","01","09","02:00"
"-75.56","45.52","OTTAWA GATINEAU A","7032682","2019-01-09 03:00","2019","01","09","03:00"
"-75.56","45.52","OTTAWA GATINEAU A","7032682","2019-01-09 04:00","2019","01","09","04:00"
"-75.56","45.52","OTTAWA GATINEAU A","7032682","2019-01-09 05:00","2019","01","09","05:00"
"-75.56","45.52","OTTAWA GATINEAU A","7032682","2019-01-09 06:00","2019","01","09","06:00"
"-75.56","45.52","OTTAWA GATINEAU A","7032682","2019-01-09 07:00","2019","01","09","07:00","0.7","","-0.8","","90","","","","29","","12","","24.1","","99.11","","","","","","Mostly Cloudy"
"-75.56","45.52","OTTAWA GATINEAU A","7032682","2019-01-09 08:00","2019","01","09","08:00","0.7","","-1.1","","88","","","","30","","12","","24.1","","99.16","","","","","","NA"
"-75.56","45.52","OTTAWA GATINEAU A","7032682","2019-01-09 09:00","2019","01","09","09:00","0.7","","-1.3","","86","","","","29","","12","","24.1","","99.20","","","","","","NA"
"-75.56","45.52","OTTAWA GATINEAU A","7032682","2019-01-09 10:00","2019","01","09","10:00","0.8","","-1.2","","87","","","","13","","4","","24.1","","99.20","","","","","","Cloudy"
"-75.56","45.52","OTTAWA GATINEAU A","7032682","2019-01-09 11:00","2019","01","09","11:00","1.1","","-1.3","","84","","","","30","","11","","24.1","","99.15","","","","","","NA"
"-75.56","45.52","OTTAWA GATINEAU A","7032682","2019-01-09 12:00","2019","01","09","12:00","1.4","","-1.4","","81","","","","29","","21","","24.1","","99.08","","","","","","NA"
"-75.56","45.52","OTTAWA GATINEAU A","7032682","2019-01-09 13:00","2019","01","09","13:00","1.9","","-1.7","","77","","","","29","","20","","24.1","","99.08","","","","","","Cloudy"
"-75.56","45.52","OTTAWA GATINEAU A","7032682","2019-01-09 14:00","2019","01","09","14:00","2.0","","-1.8","","76","","","","29","","16","","24.1","","99.09","","","","","","NA"
"-75.56","45.52","OTTAWA GATINEAU A","7032682","2019-01-09 15:00","2019","01","09","15:00","1.8","","-3.2","","70","","","","30","","18","","16.1","","99.13","","","","","","Snow"
"-75.56","45.52","OTTAWA GATINEAU A","7032682","2019-01-09 16:00","2019","01","09","16:00","1.5","","-3.8","","68","","","","31","","18","","24.1","","99.19","","","","","","Cloudy"
"-75.56","45.52","OTTAWA GATINEAU A","7032682","2019-01-09 17:00","2019","01","09","17:00","1.1","","-3.9","","69","","","","28","","19","","19.3","","99.19","","","","","","NA"
"-75.56","45.52","OTTAWA GATINEAU A","7032682","2019-01-09 18:00","2019","01","09","18:00","0.9","","-3.7","","71","","","","29","","19","","24.1","","99.18","","","","","","Snow"
"-75.56","45.52","OTTAWA GATINEAU A","7032682","2019-01-09 19:00","2019","01","09","19:00","0.6","","-2.9","","78","","","","30","","16","","19.3","","99.19","","","","","","Snow"
"-75.56","45.52","OTTAWA GATINEAU A","7032682","2019-01-09 20:00","2019","01","09","20:00","-0.2","","-2.1","","87","","","","29","","14","","12.9","","99.18","","","","-4","","Snow"
"-75.56","45.52","OTTAWA GATINEAU A","7032682","2019-01-09 21:00","2019","01","09","21:00","0.3","","-3.7","","75","","","","31","","18","","19.3","","99.20","","","","","","Snow"
"-75.56","45.52","OTTAWA GATINEAU A","7032682","2019-01-09 22:00","2019","01","09","22:00"
"-75.56","45.52","OTTAWA GATINEAU A","7032682","2019-01-09 23:00","2019","01","09","23:00"
"-75.56","45.52","OTTAWA GATINEAU A","7032682","2019-01-10 00:00","2019","01","10","00:00"
"-75.56","45.52","OTTAWA GATINEAU A","7032682","2019-01-10 01:00","2019","01","10","01:00"
"-75.56","45.52","OTTAWA GATINEAU A","7032682","2019-01-10 02:00","2019","01","10","02:00"
"-75.56","45.52","OTTAWA GATINEAU A","7032682","2019-01-10 03:00","2019","01","10","03:00"
"-75.56","45.52","OTTAWA GATINEAU A","7032682","2019-01-10 04:00","2019","01","10","04:00"
"-75.56","45.52","OTTAWA GATINEAU A","7032682","2019-01-10 05:00","2019","01","10","05:00"
"-75.56","45.52","OTTAWA GATINEAU A","7032682","2019-01-10 06:00","2019","01","10","06:00"
"-75.56","45.52","OTTAWA GATINEAU A","7032682","2019-01-10 07:00","2019","01","10","07:00","-7.5","","-11.2","","75","","","","30","","20","","16.1","","99.92","","","","-15","","Snow,Blowing Snow"
"-75.56","45.52","OTTAWA GATINEAU A","7032682","2019-01-10 08:00","2019","01","10","08:00","-8.0","","-12.3","","71","","","","29","","21","","16.1","","100.05","","","","-16","","Snow,Blowing Snow"
"-75.56","45.52","OTTAWA GATINEAU A","7032682","2019-01-10 09:00","2019","01","10","09:00","-8.4","","-13.5","","67","","","","30","","23","","16.1","","100.16","","","","-16","","Snow,Blowing Snow"
"-75.56","45.52","OTTAWA GATINEAU A","7032682","2019-01-10 10:00","2019","01","10","10:00","-8.6","","-14.0","","65","","","","30","","22","","19.3","","100.24","","","","-16","","Blowing Snow"
"-75.56","45.52","OTTAWA GATINEAU A","7032682","2019-01-10 11:00","2019","01","10","11:00","-8.8","","-14.2","","65","","","","30","","28","","24.1","","100.26","","","","-18","","Blowing Snow"
"-75.56","45.52","OTTAWA GATINEAU A","7032682","2019-01-10 12:00","2019","01","10","12:00","-8.4","","-14.4","","63","","","","30","","22","","24.1","","100.26","","","","-16","","NA"
"-75.56","45.52","OTTAWA GATINEAU A","7032682","2019-01-10 13:00","2019","01","10","13:00","-8.4","","-14.4","","62","","","","29","","24","","24.1","","100.30","","","","-17","","Blowing Snow"
"-75.56","45.52","OTTAWA GATINEAU A","7032682","2019-01-10 14:00","2019","01","10","14:00","-8.4","","-14.9","","60","","","","29","","27","","24.1","","100.38","","","","-17","","NA"
"-75.56","45.52","OTTAWA GATINEAU A","7032682","2019-01-10 15:00","2019","01","10","15:00","-8.9","","-15.5","","60","","","","29","","29","","24.1","","100.47","","","","-18","","NA"
"-75.56","45.52","OTTAWA GATINEAU A","7032682","2019-01-10 16:00","2019","01","10","16:00","-10.0","","-16.2","","61","","","","30","","18","","24.1","","100.60","","","","-17","","Mostly Cloudy"
"-75.56","45.52","OTTAWA GATINEAU A","7032682","2019-01-10 17:00","2019","01","10","17:00","-11.0","","-16.8","","62","","","","29","","23","","24.1","","100.68","","","","-20","","NA"
"-75.56","45.52","OTTAWA GATINEAU A","7032682","2019-01-10 18:00","2019","01","10","18:00","-11.6","","-17.1","","64","","","","30","","28","","24.1","","100.71","","","","-21","","Snow"
"-75.56","45.52","OTTAWA GATINEAU A","7032682","2019-01-10 19:00","2019","01","10","19:00","-12.2","","-17.5","","65","","","","29","","29","","24.1","","100.77","","","","-22","","Snow"
"-75.56","45.52","OTTAWA GATINEAU A","7032682","2019-01-10 20:00","2019","01","10","20:00","-12.8","","-18.2","","65","","","","29","","31","","24.1","","100.83","","","","-23","","Snow"
"-75.56","45.52","OTTAWA GATINEAU A","7032682","2019-01-10 21:00","2019","01","10","21:00","-13.1","","-18.7","","63","","","","30","","23","","24.1","","100.92","","","","-22","","Snow"
"-75.56","45.52","OTTAWA GATINEAU A","7032682","2019-01-10 22:00","2019","01","10","22:00"
"-75.56","45.52","OTTAWA GATINEAU A","7032682","2019-01-10 23:00","2019","01","10","23:00"
"-75.56","45.52","OTTAWA GATINEAU A","7032682","2019-01-11 00:00","2019","01","11","00:00"
"-75.56","45.52","OTTAWA GATINEAU A","7032682","2019-01-11 01:00","2019","01","11","01:00"
"-75.56","45.52","OTTAWA GATINEAU A","7032682","2019-01-11 02:00","2019","01","11","02:00"
"-75.56","45.52","OTTAWA GATINEAU A","7032682","2019-01-11 03:00","2019","01","11","03:00"
"-75.56","45.52","OTTAWA GATINEAU A","7032682","2019-01-11 04:00","2019","01","11","04:00"
"-75.56","45.52","OTTAWA GATINEAU A","7032682","2019-01-11 05:00","2019","01","11","05:00"
"-75.56","45.52","OTTAWA GATINEAU A","7032682","2019-01-11 06:00","2019","01","11","06:00"
"-75.56","45.52","OTTAWA GATINEAU A","7032682","2019-01-11 07:00","2019","01","11","07:00","-21.1","","-26.1","","64","","","","29","","14","","24.1","","101.68","","","","-30","","Mainly Clear"
"-75.56","45.52","OTTAWA GATINEAU A","7032682","2019-01-11 08:00","2019","01","11","08:00","-21.1","","-25.4","","69","","","","30","","14","","19.3","","101.81","","","","-30","","NA"
"-75.56","45.52","OTTAWA GATINEAU A","7032682","2019-01-11 09:00","2019","01","11","09:00","-20.0","","-23.5","","74","","","","27","","13","","4.0","","101.90","","","","-28","","Snow"
"-75.56","45.52","OTTAWA GATINEAU A","7032682","2019-01-11 10:00","2019","01","11","10:00","-18.4","","-23.5","","65","","","","27","","15","","24.1","","101.94","","","","-27","","Mostly Cloudy"
"-75.56","45.52","OTTAWA GATINEAU A","7032682","2019-01-11 11:00","2019","01","11","11:00","-16.2","","-22.6","","58","","","","31","","21","","24.1","","101.91","","","","-26","","NA"
"-75.56","45.52","OTTAWA GATINEAU A","7032682","2019-01-11 12:00","2019","01","11","12:00","-15.1","","-22.8","","52","","","","28","","18","","24.1","","101.88","","","","-24","","NA"
"-75.56","45.52","OTTAWA GATINEAU A","7032682","2019-01-11 13:00","2019","01","11","13:00","-14.6","","-23.3","","48","","","","29","","17","","24.1","","101.89","","","","-23","","Clear"
"-75.56","45.52","OTTAWA GATINEAU A","7032682","2019-01-11 14:00","2019","01","11","14:00","-15.3","","-22.7","","54","","","","24","","23","","24.1","","101.92","","","","-25","","NA"
"-75.56","45.52","OTTAWA GATINEAU A","7032682","2019-01-11 15:00","2019","01","11","15:00","-15.1","","-23.1","","51","","","","24","","19","","24.1","","101.96","","","","-24","","NA"
"-75.56","45.52","OTTAWA GATINEAU A","7032682","2019-01-11 16:00","2019","01","11","16:00","-15.2","","-23.5","","50","","","","25","","21","","24.1","","102.00","","","","-25","","Clear"
"-75.56","45.52","OTTAWA GATINEAU A","7032682","2019-01-11 17:00","2019","01","11","17:00","-16.6","","-23.9","","54","","","","26","","16","","24.1","","102.05","","","","-25","","NA"
"-75.56","45.52","OTTAWA GATINEAU A","7032682","2019-01-11 18:00","2019","01","11","18:00","-17.5","","-24.1","","57","","","","27","","10","","24.1","","102.10","","","","-24","","NA"
"-75.56","45.52","OTTAWA GATINEAU A","7032682","2019-01-11 19:00","2019","01","11","19:00","-17.3","","-24.2","","56","","","","28","","8","","24.1","","102.15","","","","-23","","Clear"
"-75.56","45.52","OTTAWA GATINEAU A","7032682","2019-01-11 20:00","2019","01","11","20:00","-18.2","","-24.1","","61","","","","27","","9","","24.1","","102.22","","","","-25","","NA"
"-75.56","45.52","OTTAWA GATINEAU A","7032682","2019-01-11 21:00","2019","01","11","21:00","-19.1","","-24.4","","64","","","","28","","10","","24.1","","102.31","","","","-26","","NA"
"-75.56","45.52","OTTAWA GATINEAU A","7032682","2019-01-11 22:00","2019","01","11","22:00"
"-75.56","45.52","OTTAWA GATINEAU A","7032682","2019-01-11 23:00","2019","01","11","23:00"
"-75.56","45.52","OTTAWA GATINEAU A","7032682","2019-01-12 00:00","2019","01","12","00:00"
"-75.56","45.52","OTTAWA GATINEAU A","7032682","2019-01-12 01:00","2019","01","12","01:00"
"-75.56","45.52","OTTAWA GATINEAU A","7032682","2019-01-12 02:00","2019","01","12","02:00"
"-75.56","45.52","OTTAWA GATINEAU A","7032682","2019-01-12 03:00","2019","01","12","03:00"
"-75.56","45.52","OTTAWA GATINEAU A","7032682","2019-01-12 04:00","2019","01","12","04:00"
"-75.56","45.52","OTTAWA GATINEAU A","7032682","2019-01-12 05:00","2019","01","12","05:00"
"-75.56","45.52","OTTAWA GATINEAU A","7032682","2019-01-12 06:00","2019","01","12","06:00"
"-75.56","45.52","OTTAWA GATINEAU A","7032682","2019-01-12 07:00","2019","01","12","07:00","-24.2","","-26.8","","80","","","","36","","1","","24.1","","102.63","","","","-25","","Clear"
"-75.56","45.52","OTTAWA GATINEAU A","7032682","2019-01-12 08:00","2019","01","12","08:00","-22.4","","-25.0","","80","","","","27","","8","","24.1","","102.72","","","","-29","","NA"
"-75.56","45.52","OTTAWA GATINEAU A","7032682","2019-01-12 09:00","2019","01","12","09:00","-19.9","","-23.3","","75","","","","26","","14","","24.1","","102.80","","","","-29","","NA"
"-75.56","45.52","OTTAWA GATINEAU A","7032682","2019-01-12 10:00","2019","01","12","10:00","-17.6","","-22.8","","65","","","","25","","13","","24.1","","102.86","","","","-25","","Clear"
"-75.56","45.52","OTTAWA GATINEAU A","7032682","2019-01-12 11:00","2019","01","12","11:00","-16.3","","-22.1","","61","","","","26","","12","","24.1","","102.85","","","","-24","","NA"
"-75.56","45.52","OTTAWA GATINEAU A","7032682","2019-01-12 12:00","2019","01","12","12:00","-15.1","","-21.9","","56","","","","25","","14","","24.1","","102.79","","","","-23","","NA"
"-75.56","45.52","OTTAWA GATINEAU A","7032682","2019-01-12 13:00","2019","01","12","13:00","-14.5","","-21.7","","55","","","","25","","21","","24.1","","102.76","","","","-24","","Clear"
"-75.56","45.52","OTTAWA GATINEAU A","7032682","2019-01-12 14:00","2019","01","12","14:00","-13.2","","-20.7","","54","","","","27","","22","","24.1","","102.75","","","","-22","","NA"
"-75.56","45.52","OTTAWA GATINEAU A","7032682","2019-01-12 15:00","2019","01","12","15:00","-12.1","","-20.2","","51","","","","30","","16","","24.1","","102.75","","","","-20","","NA"
"-75.56","45.52","OTTAWA GATINEAU A","7032682","2019-01-12 16:00","2019","01","12","16:00","-12.4","","-20.4","","52","","","","29","","13","","24.1","","102.77","","","","-19","","Mainly Clear"
"-75.56","45.52","OTTAWA GATINEAU A","7032682","2019-01-12 17:00","2019","01","12","17:00","-14.5","","-20.9","","59","","","","31","","4","","24.1","","102.80","","","","-17","","NA"
"-75.56","45.52","OTTAWA GATINEAU A","7032682","2019-01-12 18:00","2019","01","12","18:00","-17.8","","-22.3","","68","","","","3","","5","","24.1","","102.88","","","","-22","","NA"
"-75.56","45.52","OTTAWA GATINEAU A","7032682","2019-01-12 19:00","2019","01","12","19:00","-19.3","","-22.8","","74","","","","34","","5","","24.1","","102.91","","","","-23","","Mainly Clear"
"-75.56","45.52","OTTAWA GATINEAU A","7032682","2019-01-12 20:00","2019","01","12","20:00","-20.1","","-23.7","","74","","","","33","","5","","24.1","","102.91","","","","-24","","NA"
"-75.56","45.52","OTTAWA GATINEAU A","7032682","2019-01-12 21:00","2019","01","12","21:00","-20.1","","-22.6","","81","","","","25","","7","","24.1","","102.89","","","","-26","","NA"
"-75.56","45.52","OTTAWA GATINEAU A","7032682","2019-01-12 22:00","2019","01","12","22:00"
"-75.56","45.52","OTTAWA GATINEAU A","7032682","2019-01-12 23:00","2019","01","12","23:00"
"-75.56","45.52","OTTAWA GATINEAU A","7032682","2019-01-13 00:00","2019","01","13","00:00"
"-75.56","45.52","OTTAWA GATINEAU A","7032682","2019-01-13 01:00","2019","01","13","01:00"
"-75.56","45.52","OTTAWA GATINEAU A","7032682","2019-01-13 02:00","2019","01","13","02:00"
"-75.56","45.52","OTTAWA GATINEAU A","7032682","2019-01-13 03:00","2019","01","13","03:00"
"-75.56","45.52","OTTAWA GATINEAU A","7032682","2019-01-13 04:00","2019","01","13","04:00"
"-75.56","45.52","OTTAWA GATINEAU A","7032682","2019-01-13 05:00","2019","01","13","05:00"
"-75.56","45.52","OTTAWA GATINEAU A","7032682","2019-01-13 06:00","2019","01","13","06:00"
"-75.56","45.52","OTTAWA GATINEAU A","7032682","2019-01-13 07:00","2019","01","13","07:00","-16.2","","-19.3","","77","","","","24","","5","","24.1","","102.81","","","","-20","","Cloudy"
"-75.56","45.52","OTTAWA GATINEAU A","7032682","2019-01-13 08:00","2019","01","13","08:00","-15.8","","-19.0","","77","","","","27","","7","","24.1","","102.80","","","","-21","","NA"
"-75.56","45.52","OTTAWA GATINEAU A","7032682","2019-01-13 09:00","2019","01","13","09:00","-14.9","","-18.0","","77","","","","24","","7","","24.1","","102.83","","","","-20","","NA"
"-75.56","45.52","OTTAWA GATINEAU A","7032682","2019-01-13 10:00","2019","01","13","10:00","-14.2","","-18.0","","73","","","","26","","7","","19.3","","102.86","","","","-19","","Snow"
"-75.56","45.52","OTTAWA GATINEAU A","7032682","2019-01-13 11:00","2019","01","13","11:00","-13.1","","-17.2","","72","","","","25","","4","","24.1","","102.78","","","","-16","","Snow"
"-75.56","45.52","OTTAWA GATINEAU A","7032682","2019-01-13 12:00","2019","01","13","12:00","-11.3","","-16.0","","69","","","","13","","4","","24.1","","102.69","","","","-14","","NA"
"-75.56","45.52","OTTAWA GATINEAU A","7032682","2019-01-13 13:00","2019","01","13","13:00","-11.2","","-15.9","","68","","","","14","","9","","24.1","","102.62","","","","-16","","Cloudy"
"-75.56","45.52","OTTAWA GATINEAU A","7032682","2019-01-13 14:00","2019","01","13","14:00","-11.0","","-15.6","","69","","","","8","","6","","24.1","","102.59","","","","-15","","NA"
"-75.56","45.52","OTTAWA GATINEAU A","7032682","2019-01-13 15:00","2019","01","13","15:00","-10.9","","-15.4","","70","","","","36","","2","","24.1","","102.55","","","","-12","","NA"
"-75.56","45.52","OTTAWA GATINEAU A","7032682","2019-01-13 16:00","2019","01","13","16:00","-10.9","","-15.6","","69","","","","36","","2","","24.1","","102.51","","","","-12","","Cloudy"
"-75.56","45.52","OTTAWA GATINEAU A","7032682","2019-01-13 17:00","2019","01","13","17:00","-11.3","","-15.4","","72","","","","36","","2","","24.1","","102.50","","","","-13","","NA"
"-75.56","45.52","OTTAWA GATINEAU A","7032682","2019-01-13 18:00","2019","01","13","18:00","-12.4","","-15.8","","76","","","","35","","5","","24.1","","102.51","","","","-16","","NA"
"-75.56","45.52","OTTAWA GATINEAU A","7032682","2019-01-13 19:00","2019","01","13","19:00","-12.3","","-15.8","","75","","","","36","","5","","24.1","","102.50","","","","-16","","Cloudy"
"-75.56","45.52","OTTAWA GATINEAU A","7032682","2019-01-13 20:00","2019","01","13","20:00","-12.8","","-16.1","","76","","","","35","","5","","24.1","","102.45","","","","-16","","NA"
"-75.56","45.52","OTTAWA GATINEAU A","7032682","2019-01-13 21:00","2019","01","13","21:00","-14.2","","-17.3","","78","","","","34","","9","","24.1","","102.43","","","","-20","","NA"
"-75.56","45.52","OTTAWA GATINEAU A","7032682","2019-01-13 22:00","2019","01","13","22:00"
"-75.56","45.52","OTTAWA GATINEAU A","7032682","2019-01-13 23:00","2019","01","13","23:00"
"-75.56","45.52","OTTAWA GATINEAU A","7032682","2019-01-14 00:00","2019","01","14","00:00"
"-75.56","45.52","OTTAWA GATINEAU A","7032682","2019-01-14 01:00","2019","01","14","01:00"
"-75.56","45.52","OTTAWA GATINEAU A","7032682","2019-01-14 02:00","2019","01","14","02:00"
"-75.56","45.52","OTTAWA GATINEAU A","7032682","2019-01-14 03:00","2019","01","14","03:00"
"-75.56","45.52","OTTAWA GATINEAU A","7032682","2019-01-14 04:00","2019","01","14","04:00"
"-75.56","45.52","OTTAWA GATINEAU A","7032682","2019-01-14 05:00","2019","01","14","05:00"
"-75.56","45.52","OTTAWA GATINEAU A","7032682","2019-01-14 06:00","2019","01","14","06:00"
"-75.56","45.52","OTTAWA GATINEAU A","7032682","2019-01-14 07:00","2019","01","14","07:00","-22.2","","-24.7","","80","","","","36","","1","","24.1","","102.09","","","","-23","","Clear"
"-75.56","45.52","OTTAWA GATINEAU A","7032682","2019-01-14 08:00","2019","01","14","08:00","-21.9","","-24.4","","81","","","","36","","2","","24.1","","102.04","","","","-24","","NA"
"-75.56","45.52","OTTAWA GATINEAU A","7032682","2019-01-14 09:00","2019","01","14","09:00","-19.9","","-22.6","","80","","","","36","","1","","24.1","","102.07","","","","-21","","NA"
"-75.56","45.52","OTTAWA GATINEAU A","7032682","2019-01-14 10:00","2019","01","14","10:00","-17.5","","-20.7","","77","","","","0","","1","","24.1","","102.07","","","","-18","","Mainly Clear"
"-75.56","45.52","OTTAWA GATINEAU A","7032682","2019-01-14 11:00","2019","01","14","11:00","-13.9","","-18.0","","72","","","","36","","1","","19.3","","101.99","","","","-15","","NA"
"-75.56","45.52","OTTAWA GATINEAU A","7032682","2019-01-14 12:00","2019","01","14","12:00","-11.8","","-16.0","","71","","","","26","","7","","24.1","","101.87","","","","-16","","NA"
"-75.56","45.52","OTTAWA GATINEAU A","7032682","2019-01-14 13:00","2019","01","14","13:00","-10.6","","-15.1","","70","","","","27","","4","","24.1","","101.75","","","","-13","","Mostly Cloudy"
"-75.56","45.52","OTTAWA GATINEAU A","7032682","2019-01-14 14:00","2019","01","14","14:00","-9.9","","-14.8","","67","","","","23","","7","","24.1","","101.68","","","","-14","","NA"
"-75.56","45.52","OTTAWA GATINEAU A","7032682","2019-01-14 15:00","2019","01","14","15:00","-9.1","","-14.7","","64","","","","25","","4","","24.1","","101.63","","","","-11","","NA"
"-75.56","45.52","OTTAWA GATINEAU A","7032682","2019-01-14 16:00","2019","01","14","16:00","-8.7","","-14.2","","64","","","","25","","3","","24.1","","101.56","","","","-10","","Mostly Cloudy"
"-75.56","45.52","OTTAWA GATINEAU A","7032682","2019-01-14 17:00","2019","01","14","17:00","-10.6","","-14.8","","72","","","","36","","2","","24.1","","101.53","","","","-12","","NA"
"-75.56","45.52","OTTAWA GATINEAU A","7032682","2019-01-14 18:00","2019","01","14","18:00","-9.2","","-13.9","","69","","","","36","","3","","24.1","","101.53","","","","-11","","NA"
"-75.56","45.52","OTTAWA GATINEAU A","7032682","2019-01-14 19:00","2019","01","14","19:00","-9.7","","-12.9","","78","","","","36","","2","","24.1","","101.49","","","","-11","","Cloudy"
"-75.56","45.52","OTTAWA GATINEAU A","7032682","2019-01-14 20:00","2019","01","14","20:00","-9.3","","-13.6","","71","","","","2","","3","","24.1","","101.42","","","","-11","","NA"
"-75.56","45.52","OTTAWA GATINEAU A","7032682","2019-01-14 21:00","2019","01","14","21:00","-9.2","","-12.9","","75","","","","4","","5","","24.1","","101.38","","","","-12","","NA"
"-75.56","45.52","OTTAWA GATINEAU A","7032682","2019-01-14 22:00","2019","01","14","22:00"
"-75.56","45.52","OTTAWA GATINEAU A","7032682","2019-01-14 23:00","2019","01","14","23:00"
"-75.56","45.52","OTTAWA GATINEAU A","7032682","2019-01-15 00:00","2019","01","15","00:00"
"-75.56","45.52","OTTAWA GATINEAU A","7032682","2019-01-15 01:00","2019","01","15","01:00"
"-75.56","45.52","OTTAWA GATINEAU A","7032682","2019-01-15 02:00","2019","01","15","02:00"
"-75.56","45.52","OTTAWA GATINEAU A","7032682","2019-01-15 03:00","2019","01","15","03:00"
"-75.56","45.52","OTTAWA GATINEAU A","7032682","2019-01-15 04:00","2019","01","15","04:00"
"-75.56","45.52","OTTAWA GATINEAU A","7032682","2019-01-15 05:00","2019","01","15","05:00"
"-75.56","45.52","OTTAWA GATINEAU A","7032682","2019-01-15 06:00","2019","01","15","06:00"
"-75.56","45.52","OTTAWA GATINEAU A","7032682","2019-01-15 07:00","2019","01","15","07:00","-8.8","","-10.4","","88","","","","36","","2","","16.1","","101.19","","","","-10","","Snow"
"-75.56","45.52","OTTAWA GATINEAU A","7032682","2019-01-15 08:00","2019","01","15","08:00","-8.9","","-10.3","","90","","","","36","","2","","19.3","","101.20","","","","-10","","Snow"
"-75.56","45.52","OTTAWA GATINEAU A","7032682","2019-01-15 09:00","2019","01","15","09:00","-8.0","","-9.9","","86","","","","36","","2","","19.3","","101.22","","","","-9","","Snow"
"-75.56","45.52","OTTAWA GATINEAU A","7032682","2019-01-15 10:00","2019","01","15","10:00","-7.2","","-9.5","","84","","","","0","","1","","16.1","","101.25","","","","-8","","Snow"
"-75.56","45.52","OTTAWA GATINEAU A","7032682","2019-01-15 11:00","2019","01","15","11:00","-6.3","","-8.7","","83","","","","11","","5","","16.1","","101.21","","","","-9","","Snow"
"-75.56","45.52","OTTAWA GATINEAU A","7032682","2019-01-15 12:00","2019","01","15","12:00","-5.8","","-8.3","","83","","","","9","","5","","19.3","","101.12","","","","-8","","Snow"
"-75.56","45.52","OTTAWA GATINEAU A","7032682","2019-01-15 13:00","2019","01","15","13:00","-5.3","","-7.8","","83","","","","10","","8","","16.1","","101.03","","","","-9","","Snow"
"-75.56","45.52","OTTAWA GATINEAU A","7032682","2019-01-15 14:00","2019","01","15","14:00","-4.9","","-7.5","","82","","","","8","","9","","12.9","","100.97","","","","-9","","Snow"
"-75.56","45.52","OTTAWA GATINEAU A","7032682","2019-01-15 15:00","2019","01","15","15:00","-4.7","","-7.1","","83","","","","7","","9","","14.5","","100.94","","","","-9","","Snow"
"-75.56","45.52","OTTAWA GATINEAU A","7032682","2019-01-15 16:00","2019","01","15","16:00","-4.7","","-6.9","","85","","","","8","","10","","9.7","","100.89","","","","-9","","Snow"
"-75.56","45.52","OTTAWA GATINEAU A","7032682","2019-01-15 17:00","2019","01","15","17:00","-5.0","","-6.5","","90","","","","7","","10","","4.8","","100.84","","","","-9","","Snow"
"-75.56","45.52","OTTAWA GATINEAU A","7032682","2019-01-15 18:00","2019","01","15","18:00","-5.0","","-6.4","","90","","","","7","","9","","6.4","","100.78","","","","-9","","Snow"
"-75.56","45.52","OTTAWA GATINEAU A","7032682","2019-01-15 19:00","2019","01","15","19:00","-5.1","","-6.4","","90","","","","8","","10","","19.3","","100.72","","","","-9","","Cloudy"
"-75.56","45.52","OTTAWA GATINEAU A","7032682","2019-01-15 20:00","2019","01","15","20:00","-5.1","","-6.5","","91","","","","8","","9","","19.3","","100.66","","","","-9","","Snow"
"-75.56","45.52","OTTAWA GATINEAU A","7032682","2019-01-15 21:00","2019","01","15","21:00","-5.2","","-6.3","","91","","","","9","","9","","19.3","","100.54","","","","-9","","Snow"
"-75.56","45.52","OTTAWA GATINEAU A","7032682","2019-01-15 22:00","2019","01","15","22:00"
"-75.56","45.52","OTTAWA GATINEAU A","7032682","2019-01-15 23:00","2019","01","15","23:00"
"-75.56","45.52","OTTAWA GATINEAU A","7032682","2019-01-16 00:00","2019","01","16","00:00"
"-75.56","45.52","OTTAWA GATINEAU A","7032682","2019-01-16 01:00","2019","01","16","01:00"
"-75.56","45.52","OTTAWA GATINEAU A","7032682","2019-01-16 02:00","2019","01","16","02:00"
"-75.56","45.52","OTTAWA GATINEAU A","7032682","2019-01-16 03:00","2019","01","16","03:00"
"-75.56","45.52","OTTAWA GATINEAU A","7032682","2019-01-16 04:00","2019","01","16","04:00"
"-75.56","45.52","OTTAWA GATINEAU A","7032682","2019-01-16 05:00","2019","01","16","05:00"
"-75.56","45.52","OTTAWA GATINEAU A","7032682","2019-01-16 06:00","2019","01","16","06:00"
"-75.56","45.52","OTTAWA GATINEAU A","7032682","2019-01-16 07:00","2019","01","16","07:00","-1.4","","-4.6","","79","","","","24","","20","","16.1","","99.89","","","","-7","","Snow"
"-75.56","45.52","OTTAWA GATINEAU A","7032682","2019-01-16 08:00","2019","01","16","08:00","-1.1","","-4.3","","79","","","","24","","28","","8.1","","99.92","","","","-8","","Snow,Blowing Snow"
"-75.56","45.52","OTTAWA GATINEAU A","7032682","2019-01-16 09:00","2019","01","16","09:00","-0.9","","-4.0","","79","","","","24","","24","","16.1","","99.91","","","","-7","","Snow"
"-75.56","45.52","OTTAWA GATINEAU A","7032682","2019-01-16 10:00","2019","01","16","10:00","0.4","","-4.0","","72","","","","23","","27","","24.1","","99.98","","","","","","Mostly Cloudy"
"-75.56","45.52","OTTAWA GATINEAU A","7032682","2019-01-16 11:00","2019","01","16","11:00","-0.9","","-4.3","","78","","","","26","","26","","16.1","","100.07","","","","-7","","Snow,Blowing Snow"
"-75.56","45.52","OTTAWA GATINEAU A","7032682","2019-01-16 12:00","2019","01","16","12:00","-2.7","","-8.4","","65","","","","31","","25","","24.1","","100.21","","","","-9","","Snow Showers,Blowing Snow"
"-75.56","45.52","OTTAWA GATINEAU A","7032682","2019-01-16 13:00","2019","01","16","13:00","-3.8","","-11.0","","58","","","","29","","31","","24.1","","100.36","","","","-12","","Snow Showers,Blowing Snow"
"-75.56","45.52","OTTAWA GATINEAU A","7032682","2019-01-16 14:00","2019","01","16","14:00","-7.2","","-16.7","","47","","","","31","","31","","24.1","","100.62","","","","-16","","Blowing Snow"
"-75.56","45.52","OTTAWA GATINEAU A","7032682","2019-01-16 15:00","2019","01","16","15:00","-8.4","","-17.5","","48","","","","31","","24","","24.1","","100.86","","","","-17","","Blowing Snow"
"-75.56","45.52","OTTAWA GATINEAU A","7032682","2019-01-16 16:00","2019","01","16","16:00","-10.3","","-19.4","","48","","","","30","","30","","24.1","","101.10","","","","-20","","Blowing Snow"
"-75.56","45.52","OTTAWA GATINEAU A","7032682","2019-01-16 17:00","2019","01","16","17:00","-11.8","","-20.2","","50","","","","31","","17","","24.1","","101.31","","","","-19","","NA"
"-75.56","45.52","OTTAWA GATINEAU A","7032682","2019-01-16 18:00","2019","01","16","18:00","-12.8","","-20.4","","53","","","","31","","20","","24.1","","101.48","","","","-21","","NA"
"-75.56","45.52","OTTAWA GATINEAU A","7032682","2019-01-16 19:00","2019","01","16","19:00","-13.8","","-20.8","","56","","","","31","","16","","24.1","","101.64","","","","-22","","Clear"
"-75.56","45.52","OTTAWA GATINEAU A","7032682","2019-01-16 20:00","2019","01","16","20:00","-15.1","","-21.4","","59","","","","30","","7","","24.1","","101.79","","","","-20","","NA"
"-75.56","45.52","OTTAWA GATINEAU A","7032682","2019-01-16 21:00","2019","01","16","21:00","-16.0","","-21.6","","62","","","","30","","15","","24.1","","101.85","","","","-24","","NA"
"-75.56","45.52","OTTAWA GATINEAU A","7032682","2019-01-16 22:00","2019","01","16","22:00"
"-75.56","45.52","OTTAWA GATINEAU A","7032682","2019-01-16 23:00","2019","01","16","23:00"
"-75.56","45.52","OTTAWA GATINEAU A","7032682","2019-01-17 00:00","2019","01","17","00:00"
"-75.56","45.52","OTTAWA GATINEAU A","7032682","2019-01-17 01:00","2019","01","17","01:00"
"-75.56","45.52","OTTAWA GATINEAU A","7032682","2019-01-17 02:00","2019","01","17","02:00"
"-75.56","45.52","OTTAWA GATINEAU A","7032682","2019-01-17 03:00","2019","01","17","03:00"
"-75.56","45.52","OTTAWA GATINEAU A","7032682","2019-01-17 04:00","2019","01","17","04:00"
"-75.56","45.52","OTTAWA GATINEAU A","7032682","2019-01-17 05:00","2019","01","17","05:00"
"-75.56","45.52","OTTAWA GATINEAU A","7032682","2019-01-17 06:00","2019","01","17","06:00"
"-75.56","45.52","OTTAWA GATINEAU A","7032682","2019-01-17 07:00","2019","01","17","07:00","-27.6","","-30.5","","77","","","","0","","1","","24.1","","102.31","","","","-29","","Mainly Clear"
"-75.56","45.52","OTTAWA GATINEAU A","7032682","2019-01-17 08:00","2019","01","17","08:00","-27.4","","-30.1","","78","","","","28","","4","","24.1","","102.35","","","","-32","","NA"
"-75.56","45.52","OTTAWA GATINEAU A","7032682","2019-01-17 09:00","2019","01","17","09:00","-25.2","","-28.5","","74","","","","36","","3","","24.1","","102.37","","","","-28","","NA"
"-75.56","45.52","OTTAWA GATINEAU A","7032682","2019-01-17 10:00","2019","01","17","10:00","-21.7","","-26.2","","68","","","","36","","2","","24.1","","102.42","","","","-24","","Clear"
"-75.56","45.52","OTTAWA GATINEAU A","7032682","2019-01-17 11:00","2019","01","17","11:00","-18.5","","-25.1","","57","","","","31","","3","","24.1","","102.37","","","","-21","","NA"
"-75.56","45.52","OTTAWA GATINEAU A","7032682","2019-01-17 12:00","2019","01","17","12:00","-17.0","","-24.3","","54","","","","11","","4","","24.1","","102.28","","","","-20","","NA"
"-75.56","45.52","OTTAWA GATINEAU A","7032682","2019-01-17 13:00","2019","01","17","13:00","-15.7","","-22.7","","56","","","","36","","2","","24.1","","102.12","","","","-17","","Mainly Clear"
"-75.56","45.52","OTTAWA GATINEAU A","7032682","2019-01-17 14:00","2019","01","17","14:00","-13.9","","-22.7","","48","","","","36","","1","","24.1","","101.99","","","","-15","","NA"
"-75.56","45.52","OTTAWA GATINEAU A","7032682","2019-01-17 15:00","2019","01","17","15:00","-14.7","","-22.2","","53","","","","10","","10","","24.1","","101.93","","","","-21","","NA"
"-75.56","45.52","OTTAWA GATINEAU A","7032682","2019-01-17 16:00","2019","01","17","16:00","-15.5","","-21.9","","59","","","","9","","10","","24.1","","101.90","","","","-22","","Mostly Cloudy"
"-75.56","45.52","OTTAWA GATINEAU A","7032682","2019-01-17 17:00","2019","01","17","17:00","-16.7","","-22.0","","64","","","","9","","8","","24.1","","101.86","","","","-22","","NA"
"-75.56","45.52","OTTAWA GATINEAU A","7032682","2019-01-17 18:00","2019","01","17","18:00","-16.8","","-21.4","","68","","","","8","","6","","24.1","","101.83","","","","-21","","NA"
"-75.56","45.52","OTTAWA GATINEAU A","7032682","2019-01-17 19:00","2019","01","17","19:00","-16.5","","-21.7","","65","","","","6","","7","","24.1","","101.79","","","","-22","","Cloudy"
"-75.56","45.52","OTTAWA GATINEAU A","7032682","2019-01-17 20:00","2019","01","17","20:00","-16.9","","-22.1","","65","","","","8","","11","","24.1","","101.72","","","","-24","","NA"
"-75.56","45.52","OTTAWA GATINEAU A","7032682","2019-01-17 21:00","2019","01","17","21:00","-16.5","","-22.4","","61","","","","8","","12","","24.1","","101.59","","","","-24","","NA"
"-75.56","45.52","OTTAWA GATINEAU A","7032682","2019-01-17 22:00","2019","01","17","22:00"
"-75.56","45.52","OTTAWA GATINEAU A","7032682","2019-01-17 23:00","2019","01","17","23:00"
"-75.56","45.52","OTTAWA GATINEAU A","7032682","2019-01-18 00:00","2019","01","18","00:00"
"-75.56","45.52","OTTAWA GATINEAU A","7032682","2019-01-18 01:00","2019","01","18","01:00"
"-75.56","45.52","OTTAWA GATINEAU A","7032682","2019-01-18 02:00","2019","01","18","02:00"
"-75.56","45.52","OTTAWA GATINEAU A","7032682","2019-01-18 03:00","2019","01","18","03:00"
"-75.56","45.52","OTTAWA GATINEAU A","7032682","2019-01-18 04:00","2019","01","18","04:00"
"-75.56","45.52","OTTAWA GATINEAU A","7032682","2019-01-18 05:00","2019","01","18","05:00"
"-75.56","45.52","OTTAWA GATINEAU A","7032682","2019-01-18 06:00","2019","01","18","06:00"
"-75.56","45.52","OTTAWA GATINEAU A","7032682","2019-01-18 07:00","2019","01","18","07:00","-14.7","","-17.3","","81","","","","9","","10","","19.3","","100.91","","","","-21","","Snow"
"-75.56","45.52","OTTAWA GATINEAU A","7032682","2019-01-18 08:00","2019","01","18","08:00","-14.4","","-16.9","","82","","","","7","","12","","4.8","","100.88","","","","-21","","Snow"
"-75.56","45.52","OTTAWA GATINEAU A","7032682","2019-01-18 09:00","2019","01","18","09:00","-14.0","","-16.4","","82","","","","8","","9","","4.0","","100.87","","","","-20","","Snow"
"-75.56","45.52","OTTAWA GATINEAU A","7032682","2019-01-18 10:00","2019","01","18","10:00","-13.5","","-15.9","","82","","","","8","","6","","4.0","","100.86","","","","-18","","Snow"
"-75.56","45.52","OTTAWA GATINEAU A","7032682","2019-01-18 11:00","2019","01","18","11:00","-13.1","","-15.8","","80","","","","36","","1","","4.0","","100.84","","","","-14","","Snow"
"-75.56","45.52","OTTAWA GATINEAU A","7032682","2019-01-18 12:00","2019","01","18","12:00","-12.0","","-15.3","","76","","","","21","","3","","3.2","","100.77","","","","-14","","Snow"
"-75.56","45.52","OTTAWA GATINEAU A","7032682","2019-01-18 13:00","2019","01","18","13:00","-11.4","","-14.5","","78","","","","36","","2","","12.9","","100.70","","","","-13","","Snow"
"-75.56","45.52","OTTAWA GATINEAU A","7032682","2019-01-18 14:00","2019","01","18","14:00","-10.5","","-14.0","","76","","","","24","","12","","19.3","","100.72","","","","-17","","NA"
"-75.56","45.52","OTTAWA GATINEAU A","7032682","2019-01-18 15:00","2019","01","18","15:00","-9.9","","-13.5","","75","","","","25","","4","","24.1","","100.76","","","","-12","","NA"
"-75.56","45.52","OTTAWA GATINEAU A","7032682","2019-01-18 16:00","2019","01","18","16:00","-9.1","","-12.1","","79","","","","26","","7","","16.1","","100.85","","","","-13","","Mostly Cloudy"
"-75.56","45.52","OTTAWA GATINEAU A","7032682","2019-01-18 17:00","2019","01","18","17:00","-9.5","","-12.6","","78","","","","25","","8","","24.1","","100.95","","","","-14","","NA"
"-75.56","45.52","OTTAWA GATINEAU A","7032682","2019-01-18 18:00","2019","01","18","18:00","-12.5","","-14.5","","85","","","","26","","6","","24.1","","101.09","","","","-16","","NA"
"-75.56","45.52","OTTAWA GATINEAU A","7032682","2019-01-18 19:00","2019","01","18","19:00","-14.7","","-16.0","","90","","","","27","","5","","24.1","","101.15","","","","-18","","Mainly Clear"
"-75.56","45.52","OTTAWA GATINEAU A","7032682","2019-01-18 20:00","2019","01","18","20:00","-10.3","","-15.2","","68","","","","35","","24","","24.1","","101.43","","","","-19","","Blowing Snow"
"-75.56","45.52","OTTAWA GATINEAU A","7032682","2019-01-18 21:00","2019","01","18","21:00","-11.7","","-16.9","","66","","","","33","","14","","24.1","","101.57","","","","-19","","NA"
"-75.56","45.52","OTTAWA GATINEAU A","7032682","2019-01-18 22:00","2019","01","18","22:00"
"-75.56","45.52","OTTAWA GATINEAU A","7032682","2019-01-18 23:00","2019","01","18","23:00"
"-75.56","45.52","OTTAWA GATINEAU A","7032682","2019-01-19 00:00","2019","01","19","00:00"
"-75.56","45.52","OTTAWA GATINEAU A","7032682","2019-01-19 01:00","2019","01","19","01:00"
"-75.56","45.52","OTTAWA GATINEAU A","7032682","2019-01-19 02:00","2019","01","19","02:00"
"-75.56","45.52","OTTAWA GATINEAU A","7032682","2019-01-19 03:00","2019","01","19","03:00"
"-75.56","45.52","OTTAWA GATINEAU A","7032682","2019-01-19 04:00","2019","01","19","04:00"
"-75.56","45.52","OTTAWA GATINEAU A","7032682","2019-01-19 05:00","2019","01","19","05:00"
"-75.56","45.52","OTTAWA GATINEAU A","7032682","2019-01-19 06:00","2019","01","19","06:00"
"-75.56","45.52","OTTAWA GATINEAU A","7032682","2019-01-19 07:00","2019","01","19","07:00","-24.2","","-30.2","","59","","","","36","","13","","24.1","","102.36","","","","-34","","Mostly Cloudy"
"-75.56","45.52","OTTAWA GATINEAU A","7032682","2019-01-19 08:00","2019","01","19","08:00","-24.2","","-30.5","","57","","","","34","","10","","24.1","","102.50","","","","-32","","NA"
"-75.56","45.52","OTTAWA GATINEAU A","7032682","2019-01-19 09:00","2019","01","19","09:00","-23.9","","-30.6","","55","","","","1","","9","","24.1","","102.55","","","","-31","","NA"
"-75.56","45.52","OTTAWA GATINEAU A","7032682","2019-01-19 10:00","2019","01","19","10:00","-23.3","","-30.4","","53","","","","1","","10","","24.1","","102.52","","","","-31","","Cloudy"
"-75.56","45.52","OTTAWA GATINEAU A","7032682","2019-01-19 11:00","2019","01","19","11:00","-22.0","","-29.7","","51","","","","6","","10","","24.1","","102.50","","","","-30","","NA"
"-75.56","45.52","OTTAWA GATINEAU A","7032682","2019-01-19 12:00","2019","01","19","12:00","-21.1","","-28.7","","51","","","","9","","13","","24.1","","102.37","","","","-30","","NA"
"-75.56","45.52","OTTAWA GATINEAU A","7032682","2019-01-19 13:00","2019","01","19","13:00","-20.9","","-27.8","","55","","","","9","","14","","24.1","","102.20","","","","-30","","Cloudy"
"-75.56","45.52","OTTAWA GATINEAU A","7032682","2019-01-19 14:00","2019","01","19","14:00","-20.4","","-28.1","","51","","","","8","","14","","24.1","","102.15","","","","-29","","NA"
"-75.56","45.52","OTTAWA GATINEAU A","7032682","2019-01-19 15:00","2019","01","19","15:00","-20.1","","-27.6","","52","","","","12","","10","","24.1","","102.17","","","","-27","","NA"
"-75.56","45.52","OTTAWA GATINEAU A","7032682","2019-01-19 16:00","2019","01","19","16:00","-20.2","","-27.2","","54","","","","9","","14","","16.1","","102.12","","","","-29","","Snow"
"-75.56","45.52","OTTAWA GATINEAU A","7032682","2019-01-19 17:00","2019","01","19","17:00","-20.3","","-24.3","","71","","","","8","","15","","3.2","","102.02","","","","-29","","Snow"
"-75.56","45.52","OTTAWA GATINEAU A","7032682","2019-01-19 18:00","2019","01","19","18:00","-20.3","","-23.6","","75","","","","10","","15","","4.8","","101.97","","","","-29","","Snow"
"-75.56","45.52","OTTAWA GATINEAU A","7032682","2019-01-19 19:00","2019","01","19","19:00","-21.0","","-24.0","","77","","","","8","","11","","8.1","","101.92","","","","-29","","Snow"
"-75.56","45.52","OTTAWA GATINEAU A","7032682","2019-01-19 20:00","2019","01","19","20:00","-21.1","","-24.3","","76","","","","8","","12","","16.1","","101.80","","","","-29","","Snow"
"-75.56","45.52","OTTAWA GATINEAU A","7032682","2019-01-19 21:00","2019","01","19","21:00","-21.3","","-24.2","","78","","","","9","","13","","16.1","","101.72","","","","-30","","Snow"
"-75.56","45.52","OTTAWA GATINEAU A","7032682","2019-01-19 22:00","2019","01","19","22:00"
"-75.56","45.52","OTTAWA GATINEAU A","7032682","2019-01-19 23:00","2019","01","19","23:00"
"-75.56","45.52","OTTAWA GATINEAU A","7032682","2019-01-20 00:00","2019","01","20","00:00"
"-75.56","45.52","OTTAWA GATINEAU A","7032682","2019-01-20 01:00","2019","01","20","01:00"
"-75.56","45.52","OTTAWA GATINEAU A","7032682","2019-01-20 02:00","2019","01","20","02:00"
"-75.56","45.52","OTTAWA GATINEAU A","7032682","2019-01-20 03:00","2019","01","20","03:00"
"-75.56","45.52","OTTAWA GATINEAU A","7032682","2019-01-20 04:00","2019","01","20","04:00"
"-75.56","45.52","OTTAWA GATINEAU A","7032682","2019-01-20 05:00","2019","01","20","05:00"
"-75.56","45.52","OTTAWA GATINEAU A","7032682","2019-01-20 06:00","2019","01","20","06:00"
"-75.56","45.52","OTTAWA GATINEAU A","7032682","2019-01-20 07:00","2019","01","20","07:00","-18.6","","-21.4","","79","","","","35","","14","","1.2","","100.37","","","","-27","","Snow"
"-75.56","45.52","OTTAWA GATINEAU A","7032682","2019-01-20 08:00","2019","01","20","08:00","-18.8","","-21.6","","79","","","","36","","10","","1.2","","100.31","","","","-26","","Snow"
"-75.56","45.52","OTTAWA GATINEAU A","7032682","2019-01-20 09:00","2019","01","20","09:00","-18.8","","-21.9","","77","","","","35","","21","","1.2","","100.23","","","","-29","","Snow"
"-75.56","45.52","OTTAWA GATINEAU A","7032682","2019-01-20 10:00","2019","01","20","10:00","-18.6","","-21.8","","76","","","","35","","21","","1.2","","100.25","","","","-29","","Snow"
"-75.56","45.52","OTTAWA GATINEAU A","7032682","2019-01-20 11:00","2019","01","20","11:00","-18.2","","-21.7","","74","","","","34","","20","","1.6","","100.08","","","","-28","","Snow"
"-75.56","45.52","OTTAWA GATINEAU A","7032682","2019-01-20 12:00","2019","01","20","12:00","-17.9","","-21.3","","75","","","","33","","13","","1.6","","100.04","","","","-26","","Snow"
"-75.56","45.52","OTTAWA GATINEAU A","7032682","2019-01-20 13:00","2019","01","20","13:00","-17.8","","-22.1","","69","","","","34","","22","","1.6","","100.08","","","","-28","","Snow"
"-75.56","45.52","OTTAWA GATINEAU A","7032682","2019-01-20 14:00","2019","01","20","14:00","-17.6","","-22.8","","64","","","","34","","26","","8.1","","100.10","","","","-29","","Snow,Blowing Snow"
"-75.56","45.52","OTTAWA GATINEAU A","7032682","2019-01-20 15:00","2019","01","20","15:00","-17.2","","-21.9","","67","","","","34","","21","","4.0","","100.14","","","","-27","","Snow,Blowing Snow"
"-75.56","45.52","OTTAWA GATINEAU A","7032682","2019-01-20 16:00","2019","01","20","16:00","-17.9","","-22.4","","69","","","","33","","22","","4.0","","100.23","","","","-28","","Snow,Blowing Snow"
"-75.56","45.52","OTTAWA GATINEAU A","7032682","2019-01-20 17:00","2019","01","20","17:00","-19.4","","-23.9","","68","","","","35","","10","","4.0","","100.36","","","","-26","","Snow,Blowing Snow"
"-75.56","45.52","OTTAWA GATINEAU A","7032682","2019-01-20 18:00","2019","01","20","18:00","-20.2","","-25.3","","65","","","","34","","23","","19.3","","100.45","","","","-31","","Snow,Blowing Snow"
"-75.56","45.52","OTTAWA GATINEAU A","7032682","2019-01-20 19:00","2019","01","20","19:00","-20.5","","-25.5","","65","","","","33","","15","","19.3","","100.55","","","","-30","","Snow,Blowing Snow"
"-75.56","45.52","OTTAWA GATINEAU A","7032682","2019-01-20 20:00","2019","01","20","20:00","-21.2","","-26.2","","65","","","","33","","20","","19.3","","100.56","","","","-32","","Snow,Blowing Snow"
"-75.56","45.52","OTTAWA GATINEAU A","7032682","2019-01-20 21:00","2019","01","20","21:00","-21.5","","-26.7","","63","","","","32","","11","","19.3","","100.59","","","","-29","","Snow,Blowing Snow"
"-75.56","45.52","OTTAWA GATINEAU A","7032682","2019-01-20 22:00","2019","01","20","22:00"
"-75.56","45.52","OTTAWA GATINEAU A","7032682","2019-01-20 23:00","2019","01","20","23:00"
"-75.56","45.52","OTTAWA GATINEAU A","7032682","2019-01-21 00:00","2019","01","21","00:00"
"-75.56","45.52","OTTAWA GATINEAU A","7032682","2019-01-21 01:00","2019","01","21","01:00"
"-75.56","45.52","OTTAWA GATINEAU A","7032682","2019-01-21 02:00","2019","01","21","02:00"
"-75.56","45.52","OTTAWA GATINEAU A","7032682","2019-01-21 03:00","2019","01","21","03:00"
"-75.56","45.52","OTTAWA GATINEAU A","7032682","2019-01-21 04:00","2019","01","21","04:00"
"-75.56","45.52","OTTAWA GATINEAU A","7032682","2019-01-21 05:00","2019","01","21","05:00"
"-75.56","45.52","OTTAWA GATINEAU A","7032682","2019-01-21 06:00","2019","01","21","06:00"
"-75.56","45.52","OTTAWA GATINEAU A","7032682","2019-01-21 07:00","2019","01","21","07:00","-23.5","","-29.0","","61","","","","31","","17","","16.1","","101.07","","","","-34","","Snow,Blowing Snow"
"-75.56","45.52","OTTAWA GATINEAU A","7032682","2019-01-21 08:00","2019","01","21","08:00","-23.6","","-29.8","","57","","","","31","","23","","19.3","","101.14","","","","-36","","Snow,Blowing Snow"
"-75.56","45.52","OTTAWA GATINEAU A","7032682","2019-01-21 09:00","2019","01","21","09:00","-23.7","","-30.9","","53","","","","30","","19","","24.1","","101.23","","","","-35","","Blowing Snow"
"-75.56","45.52","OTTAWA GATINEAU A","7032682","2019-01-21 10:00","2019","01","21","10:00","-23.4","","-31.4","","49","","","","30","","29","","24.1","","101.31","","","","-37","","Blowing Snow"
"-75.56","45.52","OTTAWA GATINEAU A","7032682","2019-01-21 11:00","2019","01","21","11:00","-22.5","","-31.4","","45","","","","31","","25","","24.1","","101.39","","","","-35","","NA"
"-75.56","45.52","OTTAWA GATINEAU A","7032682","2019-01-21 12:00","2019","01","21","12:00","-20.8","","-30.3","","43","","","","31","","24","","24.1","","101.41","","","","-32","","NA"
"-75.56","45.52","OTTAWA GATINEAU A","7032682","2019-01-21 13:00","2019","01","21","13:00","-19.2","","-27.8","","47","","","","28","","18","","24.1","","101.41","","","","-29","","Mostly Cloudy"
"-75.56","45.52","OTTAWA GATINEAU A","7032682","2019-01-21 14:00","2019","01","21","14:00","-18.2","","-28.1","","42","","","","32","","18","","24.1","","101.46","","","","-28","","Blowing Snow"
"-75.56","45.52","OTTAWA GATINEAU A","7032682","2019-01-21 15:00","2019","01","21","15:00","-16.4","","-26.8","","41","","","","31","","17","","24.1","","101.51","","","","-25","","Blowing Snow"
"-75.56","45.52","OTTAWA GATINEAU A","7032682","2019-01-21 16:00","2019","01","21","16:00","-15.7","","-26.4","","40","","","","30","","18","","24.1","","101.62","","","","-25","","Mainly Clear"
"-75.56","45.52","OTTAWA GATINEAU A","7032682","2019-01-21 17:00","2019","01","21","17:00","-16.6","","-26.4","","43","","","","31","","20","","24.1","","101.72","","","","-26","","Blowing Snow"
"-75.56","45.52","OTTAWA GATINEAU A","7032682","2019-01-21 18:00","2019","01","21","18:00","-17.3","","-26.0","","47","","","","30","","19","","24.1","","101.83","","","","-27","","NA"
"-75.56","45.52","OTTAWA GATINEAU A","7032682","2019-01-21 19:00","2019","01","21","19:00","-17.9","","-25.5","","52","","","","30","","20","","24.1","","101.97","","","","-28","","Mainly Clear"
"-75.56","45.52","OTTAWA GATINEAU A","7032682","2019-01-21 20:00","2019","01","21","20:00","-18.5","","-25.5","","55","","","","29","","14","","24.1","","102.10","","","","-27","","NA"
"-75.56","45.52","OTTAWA GATINEAU A","7032682","2019-01-21 21:00","2019","01","21","21:00","-19.1","","-25.4","","58","","","","30","","18","","24.1","","102.19","","","","-29","","NA"
"-75.56","45.52","OTTAWA GATINEAU A","7032682","2019-01-21 22:00","2019","01","21","22:00"
"-75.56","45.52","OTTAWA GATINEAU A","7032682","2019-01-21 23:00","2019","01","21","23:00"
"-75.56","45.52","OTTAWA GATINEAU A","7032682","2019-01-22 00:00","2019","01","22","00:00"
"-75.56","45.52","OTTAWA GATINEAU A","7032682","2019-01-22 01:00","2019","01","22","01:00"
"-75.56","45.52","OTTAWA GATINEAU A","7032682","2019-01-22 02:00","2019","01","22","02:00"
"-75.56","45.52","OTTAWA GATINEAU A","7032682","2019-01-22 03:00","2019","01","22","03:00"
"-75.56","45.52","OTTAWA GATINEAU A","7032682","2019-01-22 04:00","2019","01","22","04:00"
"-75.56","45.52","OTTAWA GATINEAU A","7032682","2019-01-22 05:00","2019","01","22","05:00"
"-75.56","45.52","OTTAWA GATINEAU A","7032682","2019-01-22 06:00","2019","01","22","06:00"
"-75.56","45.52","OTTAWA GATINEAU A","7032682","2019-01-22 07:00","2019","01","22","07:00","-28.8","","-31.5","","79","","","","31","","4","","24.1","","102.95","","","","-33","","Clear"
"-75.56","45.52","OTTAWA GATINEAU A","7032682","2019-01-22 08:00","2019","01","22","08:00","-29.8","","-32.6","","77","","","","31","","8","","24.1","","103.03","","","","-38","","NA"
"-75.56","45.52","OTTAWA GATINEAU A","7032682","2019-01-22 09:00","2019","01","22","09:00","-25.7","","-29.3","","73","","","","35","","3","","19.3","","103.02","","","","-29","","Ice Crystals"
"-75.56","45.52","OTTAWA GATINEAU A","7032682","2019-01-22 10:00","2019","01","22","10:00","-21.9","","-25.6","","72","","","","26","","6","","24.1","","103.06","","","","-27","","Mainly Clear"
"-75.56","45.52","OTTAWA GATINEAU A","7032682","2019-01-22 11:00","2019","01","22","11:00","-19.4","","-24.8","","63","","","","26","","10","","24.1","","103.06","","","","-26","","NA"
"-75.56","45.52","OTTAWA GATINEAU A","7032682","2019-01-22 12:00","2019","01","22","12:00","-17.2","","-24.1","","56","","","","24","","10","","24.1","","102.96","","","","-24","","NA"
"-75.56","45.52","OTTAWA GATINEAU A","7032682","2019-01-22 13:00","2019","01","22","13:00","-16.3","","-23.3","","55","","","","29","","8","","24.1","","102.90","","","","-22","","Mostly Cloudy"
"-75.56","45.52","OTTAWA GATINEAU A","7032682","2019-01-22 14:00","2019","01","22","14:00","-14.6","","-22.4","","52","","","","16","","7","","24.1","","102.82","","","","-19","","NA"
"-75.56","45.52","OTTAWA GATINEAU A","7032682","2019-01-22 15:00","2019","01","22","15:00","-14.2","","-22.1","","52","","","","21","","3","","24.1","","102.79","","","","-16","","NA"
"-75.56","45.52","OTTAWA GATINEAU A","7032682","2019-01-22 16:00","2019","01","22","16:00","-14.8","","-21.1","","59","","","","10","","10","","24.1","","102.76","","","","-21","","Cloudy"
"-75.56","45.52","OTTAWA GATINEAU A","7032682","2019-01-22 17:00","2019","01","22","17:00","-15.3","","-20.9","","63","","","","10","","13","","24.1","","102.63","","","","-23","","NA"
"-75.56","45.52","OTTAWA GATINEAU A","7032682","2019-01-22 18:00","2019","01","22","18:00","-15.7","","-20.6","","66","","","","9","","10","","24.1","","102.55","","","","-22","","NA"
"-75.56","45.52","OTTAWA GATINEAU A","7032682","2019-01-22 19:00","2019","01","22","19:00","-15.5","","-21.1","","63","","","","8","","10","","24.1","","102.44","","","","-22","","Cloudy"
"-75.56","45.52","OTTAWA GATINEAU A","7032682","2019-01-22 20:00","2019","01","22","20:00","-15.3","","-20.4","","66","","","","9","","13","","24.1","","102.32","","","","-23","","NA"
"-75.56","45.52","OTTAWA GATINEAU A","7032682","2019-01-22 21:00","2019","01","22","21:00","-15.5","","-20.3","","67","","","","8","","17","","24.1","","102.14","","","","-24","","NA"
"-75.56","45.52","OTTAWA GATINEAU A","7032682","2019-01-22 22:00","2019","01","22","22:00"
"-75.56","45.52","OTTAWA GATINEAU A","7032682","2019-01-22 23:00","2019","01","22","23:00"
"-75.56","45.52","OTTAWA GATINEAU A","7032682","2019-01-23 00:00","2019","01","23","00:00"
"-75.56","45.52","OTTAWA GATINEAU A","7032682","2019-01-23 01:00","2019","01","23","01:00"
"-75.56","45.52","OTTAWA GATINEAU A","7032682","2019-01-23 02:00","2019","01","23","02:00"
"-75.56","45.52","OTTAWA GATINEAU A","7032682","2019-01-23 03:00","2019","01","23","03:00"
"-75.56","45.52","OTTAWA GATINEAU A","7032682","2019-01-23 04:00","2019","01","23","04:00"
"-75.56","45.52","OTTAWA GATINEAU A","7032682","2019-01-23 05:00","2019","01","23","05:00"
"-75.56","45.52","OTTAWA GATINEAU A","7032682","2019-01-23 06:00","2019","01","23","06:00"
"-75.56","45.52","OTTAWA GATINEAU A","7032682","2019-01-23 07:00","2019","01","23","07:00","-11.7","","-13.3","","88","","","","8","","13","","1.6","","101.14","","","","-18","","Snow"
"-75.56","45.52","OTTAWA GATINEAU A","7032682","2019-01-23 08:00","2019","01","23","08:00","-11.5","","-13.2","","87","","","","9","","17","","2.4","","101.02","","","","-19","","Snow"
"-75.56","45.52","OTTAWA GATINEAU A","7032682","2019-01-23 09:00","2019","01","23","09:00","-11.0","","-12.8","","87","","","","8","","13","","2.4","","100.89","","","","-17","","Snow"
"-75.56","45.52","OTTAWA GATINEAU A","7032682","2019-01-23 10:00","2019","01","23","10:00","-10.1","","-11.8","","88","","","","10","","7","","3.2","","100.91","","","","-14","","Snow"
"-75.56","45.52","OTTAWA GATINEAU A","7032682","2019-01-23 11:00","2019","01","23","11:00","-9.7","","-11.2","","89","","","","10","","12","","2.4","","100.84","","","","-16","","Snow"
"-75.56","45.52","OTTAWA GATINEAU A","7032682","2019-01-23 12:00","2019","01","23","12:00","-9.0","","-10.7","","88","","","","9","","17","","2.4","","100.71","","","","-16","","Snow"
"-75.56","45.52","OTTAWA GATINEAU A","7032682","2019-01-23 13:00","2019","01","23","13:00","-8.6","","-10.1","","88","","","","8","","17","","2.4","","100.55","","","","-15","","Snow"
"-75.56","45.52","OTTAWA GATINEAU A","7032682","2019-01-23 14:00","2019","01","23","14:00","-8.1","","-9.4","","91","","","","9","","15","","1.2","","100.41","","","","-14","","Snow"
"-75.56","45.52","OTTAWA GATINEAU A","7032682","2019-01-23 15:00","2019","01","23","15:00","-8.1","","-9.3","","91","","","","8","","18","","1.2","","100.28","","","","-15","","Snow"
"-75.56","45.52","OTTAWA GATINEAU A","7032682","2019-01-23 16:00","2019","01","23","16:00","-7.9","","-9.2","","91","","","","8","","17","","0.8","","100.15","","","","-15","","Moderate Snow"
"-75.56","45.52","OTTAWA GATINEAU A","7032682","2019-01-23 17:00","2019","01","23","17:00","-7.6","","-8.8","","91","","","","8","","19","","2.0","","100.09","","","","-15","","Snow"
"-75.56","45.52","OTTAWA GATINEAU A","7032682","2019-01-23 18:00","2019","01","23","18:00","-6.7","","-8.0","","91","","","","8","","22","","12.9","","99.91","","","","-14","","Freezing Rain"
"-75.56","45.52","OTTAWA GATINEAU A","7032682","2019-01-23 19:00","2019","01","23","19:00","-5.9","","-6.6","","94","","","","8","","21","","12.9","","99.77","","","","-13","","Freezing Rain"
"-75.56","45.52","OTTAWA GATINEAU A","7032682","2019-01-23 20:00","2019","01","23","20:00","-5.5","","-6.0","","96","","","","10","","12","","3.2","","99.68","","","","-10","","Freezing Rain,Fog"
"-75.56","45.52","OTTAWA GATINEAU A","7032682","2019-01-23 21:00","2019","01","23","21:00","-5.0","","-5.4","","97","","","","9","","9","","4.8","","99.59","","","","-9","","Freezing Rain,Fog"
"-75.56","45.52","OTTAWA GATINEAU A","7032682","2019-01-23 22:00","2019","01","23","22:00"
"-75.56","45.52","OTTAWA GATINEAU A","7032682","2019-01-23 23:00","2019","01","23","23:00"
"-75.56","45.52","OTTAWA GATINEAU A","7032682","2019-01-24 00:00","2019","01","24","00:00"
"-75.56","45.52","OTTAWA GATINEAU A","7032682","2019-01-24 01:00","2019","01","24","01:00"
"-75.56","45.52","OTTAWA GATINEAU A","7032682","2019-01-24 02:00","2019","01","24","02:00"
"-75.56","45.52","OTTAWA GATINEAU A","7032682","2019-01-24 03:00","2019","01","24","03:00"
"-75.56","45.52","OTTAWA GATINEAU A","7032682","2019-01-24 04:00","2019","01","24","04:00"
"-75.56","45.52","OTTAWA GATINEAU A","7032682","2019-01-24 05:00","2019","01","24","05:00"
"-75.56","45.52","OTTAWA GATINEAU A","7032682","2019-01-24 06:00","2019","01","24","06:00"
"-75.56","45.52","OTTAWA GATINEAU A","7032682","2019-01-24 07:00","2019","01","24","07:00","0.1","","0.1","","100","","","","8","","6","","1.6","","99.04","","","","","","Rain,Fog"
"-75.56","45.52","OTTAWA GATINEAU A","7032682","2019-01-24 08:00","2019","01","24","08:00","0.4","","0.4","","100","","","","36","","2","","1.6","","99.01","","","","","","Rain,Fog"
"-75.56","45.52","OTTAWA GATINEAU A","7032682","2019-01-24 09:00","2019","01","24","09:00","0.4","","0.4","","100","","","","25","","4","","3.2","","99.03","","","","","","Rain,Fog"
"-75.56","45.52","OTTAWA GATINEAU A","7032682","2019-01-24 10:00","2019","01","24","10:00","0.5","","0.5","","100","","","","25","","7","","4.0","","98.99","","","","","","Rain,Fog"
"-75.56","45.52","OTTAWA GATINEAU A","7032682","2019-01-24 11:00","2019","01","24","11:00","1.1","","0.8","","98","","","","27","","11","","19.3","","99.00","","","","","","Rain"
"-75.56","45.52","OTTAWA GATINEAU A","7032682","2019-01-24 12:00","2019","01","24","12:00","1.6","","-0.2","","88","","","","28","","15","","16.1","","98.94","","","","","","NA"
"-75.56","45.52","OTTAWA GATINEAU A","7032682","2019-01-24 13:00","2019","01","24","13:00","1.4","","-1.4","","82","","","","29","","19","","24.1","","98.90","","","","","","Cloudy"
"-75.56","45.52","OTTAWA GATINEAU A","7032682","2019-01-24 14:00","2019","01","24","14:00","0.9","","-1.9","","82","","","","28","","21","","16.1","","98.96","","","","","","NA"
"-75.56","45.52","OTTAWA GATINEAU A","7032682","2019-01-24 15:00","2019","01","24","15:00","-0.5","","-3.8","","78","","","","29","","22","","24.1","","99.03","","","","-6","","NA"
"-75.56","45.52","OTTAWA GATINEAU A","7032682","2019-01-24 16:00","2019","01","24","16:00","-1.8","","-4.7","","80","","","","30","","18","","24.1","","99.01","","","","-7","","Cloudy"
"-75.56","45.52","OTTAWA GATINEAU A","7032682","2019-01-24 17:00","2019","01","24","17:00","-3.2","","-6.4","","79","","","","31","","23","","24.1","","99.15","","","","-10","","NA"
"-75.56","45.52","OTTAWA GATINEAU A","7032682","2019-01-24 18:00","2019","01","24","18:00","-4.0","","-7.4","","78","","","","31","","22","","24.1","","99.25","","","","-11","","NA"
"-75.56","45.52","OTTAWA GATINEAU A","7032682","2019-01-24 19:00","2019","01","24","19:00","-4.5","","-8.1","","76","","","","29","","22","","24.1","","99.33","","","","-11","","Snow"
"-75.56","45.52","OTTAWA GATINEAU A","7032682","2019-01-24 20:00","2019","01","24","20:00","-5.7","","-9.9","","72","","","","31","","22","","24.1","","99.40","","","","-13","","Snow"
"-75.56","45.52","OTTAWA GATINEAU A","7032682","2019-01-24 21:00","2019","01","24","21:00","-6.6","","-10.8","","72","","","","29","","22","","19.3","","99.50","","","","-14","","Snow"
"-75.56","45.52","OTTAWA GATINEAU A","7032682","2019-01-24 22:00","2019","01","24","22:00"
"-75.56","45.52","OTTAWA GATINEAU A","7032682","2019-01-24 23:00","2019","01","24","23:00"
"-75.56","45.52","OTTAWA GATINEAU A","7032682","2019-01-25 00:00","2019","01","25","00:00"
"-75.56","45.52","OTTAWA GATINEAU A","7032682","2019-01-25 01:00","2019","01","25","01:00"
"-75.56","45.52","OTTAWA GATINEAU A","7032682","2019-01-25 02:00","2019","01","25","02:00"
"-75.56","45.52","OTTAWA GATINEAU A","7032682","2019-01-25 03:00","2019","01","25","03:00"
"-75.56","45.52","OTTAWA GATINEAU A","7032682","2019-01-25 04:00","2019","01","25","04:00"
"-75.56","45.52","OTTAWA GATINEAU A","7032682","2019-01-25 05:00","2019","01","25","05:00"
"-75.56","45.52","OTTAWA GATINEAU A","7032682","2019-01-25 06:00","2019","01","25","06:00"
"-75.56","45.52","OTTAWA GATINEAU A","7032682","2019-01-25 07:00","2019","01","25","07:00","-11.1","","-12.5","","89","","","","6","","5","","2.4","","99.86","","","","-14","","Snow"
"-75.56","45.52","OTTAWA GATINEAU A","7032682","2019-01-25 08:00","2019","01","25","08:00","-11.0","","-12.3","","90","","","","9","","8","","6.4","","99.89","","","","-16","","Snow"
"-75.56","45.52","OTTAWA GATINEAU A","7032682","2019-01-25 09:00","2019","01","25","09:00","-10.7","","-12.1","","89","","","","8","","8","","3.2","","99.89","","","","-15","","Snow"
"-75.56","45.52","OTTAWA GATINEAU A","7032682","2019-01-25 10:00","2019","01","25","10:00","-10.0","","-11.8","","87","","","","9","","9","","12.9","","99.90","","","","-15","","Snow"
"-75.56","45.52","OTTAWA GATINEAU A","7032682","2019-01-25 11:00","2019","01","25","11:00","-8.9","","-11.0","","85","","","","9","","10","","19.3","","99.89","","","","-14","","Snow"
"-75.56","45.52","OTTAWA GATINEAU A","7032682","2019-01-25 12:00","2019","01","25","12:00","-8.1","","-10.5","","83","","","","4","","4","","24.1","","99.85","","","","-10","","Snow"
"-75.56","45.52","OTTAWA GATINEAU A","7032682","2019-01-25 13:00","2019","01","25","13:00","-3.6","","-11.0","","57","","","","25","","35","","24.1","","99.85","","","","-12","","Blowing Snow"
"-75.56","45.52","OTTAWA GATINEAU A","7032682","2019-01-25 14:00","2019","01","25","14:00","-4.2","","-10.0","","64","","","","24","","50","","1.2","","99.92","","","","-14","","Blowing Snow"
"-75.56","45.52","OTTAWA GATINEAU A","7032682","2019-01-25 15:00","2019","01","25","15:00","-5.3","","-13.2","","54","","","","27","","39","","24.1","","100.10","","","","-14","","Blowing Snow"
"-75.56","45.52","OTTAWA GATINEAU A","7032682","2019-01-25 16:00","2019","01","25","16:00","-6.1","","-17.6","","40","","","","28","","39","","24.1","","100.23","","","","-15","","Blowing Snow"
"-75.56","45.52","OTTAWA GATINEAU A","7032682","2019-01-25 17:00","2019","01","25","17:00","-7.6","","-18.6","","41","","","","28","","32","","24.1","","100.39","","","","-17","","Blowing Snow"
"-75.56","45.52","OTTAWA GATINEAU A","7032682","2019-01-25 18:00","2019","01","25","18:00","-9.2","","-16.6","","55","","","","29","","23","","24.1","","100.56","","","","-17","","NA"
"-75.56","45.52","OTTAWA GATINEAU A","7032682","2019-01-25 19:00","2019","01","25","19:00","-10.5","","-18.0","","55","","","","29","","20","","24.1","","100.75","","","","-18","","Mainly Clear"
"-75.56","45.52","OTTAWA GATINEAU A","7032682","2019-01-25 20:00","2019","01","25","20:00","-11.4","","-18.2","","58","","","","30","","16","","24.1","","100.85","","","","-19","","NA"
"-75.56","45.52","OTTAWA GATINEAU A","7032682","2019-01-25 21:00","2019","01","25","21:00","-11.7","","-18.8","","56","","","","30","","10","","24.1","","100.91","","","","-17","","NA"
"-75.56","45.52","OTTAWA GATINEAU A","7032682","2019-01-25 22:00","2019","01","25","22:00"
"-75.56","45.52","OTTAWA GATINEAU A","7032682","2019-01-25 23:00","2019","01","25","23:00"
"-75.56","45.52","OTTAWA GATINEAU A","7032682","2019-01-26 00:00","2019","01","26","00:00"
"-75.56","45.52","OTTAWA GATINEAU A","7032682","2019-01-26 01:00","2019","01","26","01:00"
"-75.56","45.52","OTTAWA GATINEAU A","7032682","2019-01-26 02:00","2019","01","26","02:00"
"-75.56","45.52","OTTAWA GATINEAU A","7032682","2019-01-26 03:00","2019","01","26","03:00"
"-75.56","45.52","OTTAWA GATINEAU A","7032682","2019-01-26 04:00","2019","01","26","04:00"
"-75.56","45.52","OTTAWA GATINEAU A","7032682","2019-01-26 05:00","2019","01","26","05:00"
"-75.56","45.52","OTTAWA GATINEAU A","7032682","2019-01-26 06:00","2019","01","26","06:00"
"-75.56","45.52","OTTAWA GATINEAU A","7032682","2019-01-26 07:00","2019","01","26","07:00","-16.9","","-21.6","","68","","","","31","","8","","24.1","","101.38","","","","-23","","Mostly Cloudy"
"-75.56","45.52","OTTAWA GATINEAU A","7032682","2019-01-26 08:00","2019","01","26","08:00","-18.5","","-22.5","","71","","","","35","","7","","24.1","","101.45","","","","-24","","NA"
"-75.56","45.52","OTTAWA GATINEAU A","7032682","2019-01-26 09:00","2019","01","26","09:00","-19.5","","-23.0","","74","","","","36","","3","","24.1","","101.50","","","","-22","","NA"
"-75.56","45.52","OTTAWA GATINEAU A","7032682","2019-01-26 10:00","2019","01","26","10:00","-20.2","","-24.2","","71","","","","36","","1","","24.1","","101.54","","","","-21","","Mainly Clear"
"-75.56","45.52","OTTAWA GATINEAU A","7032682","2019-01-26 11:00","2019","01","26","11:00","-16.5","","-20.8","","70","","","","7","","4","","24.1","","101.57","","","","-20","","NA"
"-75.56","45.52","OTTAWA GATINEAU A","7032682","2019-01-26 12:00","2019","01","26","12:00","-14.0","","-21.7","","53","","","","36","","1","","24.1","","101.53","","","","-15","","NA"
"-75.56","45.52","OTTAWA GATINEAU A","7032682","2019-01-26 13:00","2019","01","26","13:00","-13.2","","-21.7","","49","","","","12","","8","","24.1","","101.51","","","","-18","","Mainly Clear"
"-75.56","45.52","OTTAWA GATINEAU A","7032682","2019-01-26 14:00","2019","01","26","14:00","-12.4","","-21.9","","46","","","","11","","3","","24.1","","101.50","","","","-14","","NA"
"-75.56","45.52","OTTAWA GATINEAU A","7032682","2019-01-26 15:00","2019","01","26","15:00","-11.9","","-21.5","","46","","","","10","","4","","24.1","","101.52","","","","-14","","NA"
"-75.56","45.52","OTTAWA GATINEAU A","7032682","2019-01-26 16:00","2019","01","26","16:00","-12.6","","-20.9","","51","","","","10","","11","","24.1","","101.55","","","","-19","","Mainly Clear"
"-75.56","45.52","OTTAWA GATINEAU A","7032682","2019-01-26 17:00","2019","01","26","17:00","-14.9","","-21.1","","60","","","","7","","9","","24.1","","101.54","","","","-21","","NA"
"-75.56","45.52","OTTAWA GATINEAU A","7032682","2019-01-26 18:00","2019","01","26","18:00","-15.8","","-20.8","","66","","","","8","","8","","24.1","","101.55","","","","-21","","NA"
"-75.56","45.52","OTTAWA GATINEAU A","7032682","2019-01-26 19:00","2019","01","26","19:00","-19.5","","-23.3","","72","","","","3","","7","","24.1","","101.57","","","","-25","","Mostly Cloudy"
"-75.56","45.52","OTTAWA GATINEAU A","7032682","2019-01-26 20:00","2019","01","26","20:00","-17.9","","-21.4","","75","","","","6","","7","","24.1","","101.54","","","","-23","","NA"
"-75.56","45.52","OTTAWA GATINEAU A","7032682","2019-01-26 21:00","2019","01","26","21:00","-18.7","","-22.7","","71","","","","9","","8","","24.1","","101.53","","","","-25","","NA"
"-75.56","45.52","OTTAWA GATINEAU A","7032682","2019-01-26 22:00","2019","01","26","22:00"
"-75.56","45.52","OTTAWA GATINEAU A","7032682","2019-01-26 23:00","2019","01","26","23:00"
"-75.56","45.52","OTTAWA GATINEAU A","7032682","2019-01-27 00:00","2019","01","27","00:00"
"-75.56","45.52","OTTAWA GATINEAU A","7032682","2019-01-27 01:00","2019","01","27","01:00"
"-75.56","45.52","OTTAWA GATINEAU A","7032682","2019-01-27 02:00","2019","01","27","02:00"
"-75.56","45.52","OTTAWA GATINEAU A","7032682","2019-01-27 03:00","2019","01","27","03:00"
"-75.56","45.52","OTTAWA GATINEAU A","7032682","2019-01-27 04:00","2019","01","27","04:00"
"-75.56","45.52","OTTAWA GATINEAU A","7032682","2019-01-27 05:00","2019","01","27","05:00"
"-75.56","45.52","OTTAWA GATINEAU A","7032682","2019-01-27 06:00","2019","01","27","06:00"
"-75.56","45.52","OTTAWA GATINEAU A","7032682","2019-01-27 07:00","2019","01","27","07:00","-12.6","","-14.7","","84","","","","8","","23","","2.4","","100.23","","","","-22","","Snow"
"-75.56","45.52","OTTAWA GATINEAU A","7032682","2019-01-27 08:00","2019","01","27","08:00","-12.4","","-14.2","","87","","","","8","","25","","1.2","","100.04","","","","-22","","Snow"
"-75.56","45.52","OTTAWA GATINEAU A","7032682","2019-01-27 09:00","2019","01","27","09:00","-11.8","","-13.6","","87","","","","8","","26","","2.4","","99.84","","","","-21","","Snow"
"-75.56","45.52","OTTAWA GATINEAU A","7032682","2019-01-27 10:00","2019","01","27","10:00","-10.4","","-12.1","","88","","","","10","","22","","4.0","","99.65","","","","-19","","Snow"
"-75.56","45.52","OTTAWA GATINEAU A","7032682","2019-01-27 11:00","2019","01","27","11:00","-2.0","","-5.6","","77","","","","21","","29","","4.8","","99.56","","","","-9","","Blowing Snow"
"-75.56","45.52","OTTAWA GATINEAU A","7032682","2019-01-27 12:00","2019","01","27","12:00","-6.2","","-10.6","","71","","","","26","","34","","24.1","","99.87","","","","-15","","Snow,Blowing Snow"
"-75.56","45.52","OTTAWA GATINEAU A","7032682","2019-01-27 13:00","2019","01","27","13:00","-4.6","","-10.6","","63","","","","24","","29","","16.1","","99.93","","","","-12","","Snow Showers,Blowing Snow"
"-75.56","45.52","OTTAWA GATINEAU A","7032682","2019-01-27 14:00","2019","01","27","14:00","-4.6","","-11.8","","57","","","","25","","32","","19.3","","100.01","","","","-13","","Blowing Snow"
"-75.56","45.52","OTTAWA GATINEAU A","7032682","2019-01-27 15:00","2019","01","27","15:00","-7.4","","-10.4","","80","","","","27","","36","","4.0","","100.11","","","","-17","","Snow,Snow Showers,Blowing Snow"
"-75.56","45.52","OTTAWA GATINEAU A","7032682","2019-01-27 16:00","2019","01","27","16:00","-7.8","","-11.0","","78","","","","25","","17","","12.9","","100.21","","","","-14","","Snow Showers,Blowing Snow"
"-75.56","45.52","OTTAWA GATINEAU A","7032682","2019-01-27 17:00","2019","01","27","17:00","-9.2","","-13.2","","73","","","","28","","15","","24.1","","100.35","","","","-16","","NA"
"-75.56","45.52","OTTAWA GATINEAU A","7032682","2019-01-27 18:00","2019","01","27","18:00","-10.7","","-16.8","","61","","","","26","","19","","24.1","","100.54","","","","-19","","NA"
"-75.56","45.52","OTTAWA GATINEAU A","7032682","2019-01-27 19:00","2019","01","27","19:00","-11.6","","-19.6","","52","","","","27","","20","","24.1","","100.71","","","","-20","","Mainly Clear"
"-75.56","45.52","OTTAWA GATINEAU A","7032682","2019-01-27 20:00","2019","01","27","20:00","-12.7","","-22.1","","46","","","","28","","21","","24.1","","100.83","","","","-21","","NA"
"-75.56","45.52","OTTAWA GATINEAU A","7032682","2019-01-27 21:00","2019","01","27","21:00","-14.1","","-24.1","","43","","","","28","","17","","24.1","","100.93","","","","-22","","NA"
"-75.56","45.52","OTTAWA GATINEAU A","7032682","2019-01-27 22:00","2019","01","27","22:00"
"-75.56","45.52","OTTAWA GATINEAU A","7032682","2019-01-27 23:00","2019","01","27","23:00"
"-75.56","45.52","OTTAWA GATINEAU A","7032682","2019-01-28 00:00","2019","01","28","00:00"
"-75.56","45.52","OTTAWA GATINEAU A","7032682","2019-01-28 01:00","2019","01","28","01:00"
"-75.56","45.52","OTTAWA GATINEAU A","7032682","2019-01-28 02:00","2019","01","28","02:00"
"-75.56","45.52","OTTAWA GATINEAU A","7032682","2019-01-28 03:00","2019","01","28","03:00"
"-75.56","45.52","OTTAWA GATINEAU A","7032682","2019-01-28 04:00","2019","01","28","04:00"
"-75.56","45.52","OTTAWA GATINEAU A","7032682","2019-01-28 05:00","2019","01","28","05:00"
"-75.56","45.52","OTTAWA GATINEAU A","7032682","2019-01-28 06:00","2019","01","28","06:00"
"-75.56","45.52","OTTAWA GATINEAU A","7032682","2019-01-28 07:00","2019","01","28","07:00","-24.1","","-31.0","","54","","","","32","","9","","24.1","","101.65","","","","-32","","Clear"
"-75.56","45.52","OTTAWA GATINEAU A","7032682","2019-01-28 08:00","2019","01","28","08:00","-24.9","","-32.9","","48","","","","30","","12","","24.1","","101.78","","","","-34","","NA"
"-75.56","45.52","OTTAWA GATINEAU A","7032682","2019-01-28 09:00","2019","01","28","09:00","-24.4","","-33.2","","45","","","","33","","14","","24.1","","101.79","","","","-34","","NA"
"-75.56","45.52","OTTAWA GATINEAU A","7032682","2019-01-28 10:00","2019","01","28","10:00","-23.0","","-32.8","","41","","","","1","","9","","24.1","","101.91","","","","-30","","Clear"
"-75.56","45.52","OTTAWA GATINEAU A","7032682","2019-01-28 11:00","2019","01","28","11:00","-21.9","","-32.4","","39","","","","16","","4","","24.1","","101.97","","","","-26","","NA"
"-75.56","45.52","OTTAWA GATINEAU A","7032682","2019-01-28 12:00","2019","01","28","12:00","-20.8","","-31.3","","40","","","","21","","5","","24.1","","101.88","","","","-25","","NA"
"-75.56","45.52","OTTAWA GATINEAU A","7032682","2019-01-28 13:00","2019","01","28","13:00","-20.7","","-31.6","","38","","","","23","","4","","24.1","","101.79","","","","-24","","Clear"
"-75.56","45.52","OTTAWA GATINEAU A","7032682","2019-01-28 14:00","2019","01","28","14:00","-20.2","","-30.2","","41","","","","10","","7","","24.1","","101.71","","","","-26","","NA"
"-75.56","45.52","OTTAWA GATINEAU A","7032682","2019-01-28 15:00","2019","01","28","15:00","-20.0","","-30.0","","42","","","","10","","9","","24.1","","101.55","","","","-27","","NA"
"-75.56","45.52","OTTAWA GATINEAU A","7032682","2019-01-28 16:00","2019","01","28","16:00","-19.9","","-29.6","","43","","","","6","","3","","24.1","","101.53","","","","-22","","Mostly Cloudy"
"-75.56","45.52","OTTAWA GATINEAU A","7032682","2019-01-28 17:00","2019","01","28","17:00","-19.8","","-29.9","","41","","","","36","","1","","24.1","","101.47","","","","-21","","NA"
"-75.56","45.52","OTTAWA GATINEAU A","7032682","2019-01-28 18:00","2019","01","28","18:00","-20.2","","-27.8","","52","","","","35","","8","","24.1","","101.40","","","","-26","","NA"
"-75.56","45.52","OTTAWA GATINEAU A","7032682","2019-01-28 19:00","2019","01","28","19:00","-20.2","","-27.4","","54","","","","9","","7","","24.1","","101.34","","","","-26","","Mostly Cloudy"
"-75.56","45.52","OTTAWA GATINEAU A","7032682","2019-01-28 20:00","2019","01","28","20:00","-19.8","","-27.8","","50","","","","7","","16","","24.1","","101.31","","","","-29","","NA"
"-75.56","45.52","OTTAWA GATINEAU A","7032682","2019-01-28 21:00","2019","01","28","21:00","-19.0","","-26.7","","52","","","","8","","25","","24.1","","101.16","","","","-30","","NA"
"-75.56","45.52","OTTAWA GATINEAU A","7032682","2019-01-28 22:00","2019","01","28","22:00"
"-75.56","45.52","OTTAWA GATINEAU A","7032682","2019-01-28 23:00","2019","01","28","23:00"
"-75.56","45.52","OTTAWA GATINEAU A","7032682","2019-01-29 00:00","2019","01","29","00:00"
"-75.56","45.52","OTTAWA GATINEAU A","7032682","2019-01-29 01:00","2019","01","29","01:00"
"-75.56","45.52","OTTAWA GATINEAU A","7032682","2019-01-29 02:00","2019","01","29","02:00"
"-75.56","45.52","OTTAWA GATINEAU A","7032682","2019-01-29 03:00","2019","01","29","03:00"
"-75.56","45.52","OTTAWA GATINEAU A","7032682","2019-01-29 04:00","2019","01","29","04:00"
"-75.56","45.52","OTTAWA GATINEAU A","7032682","2019-01-29 05:00","2019","01","29","05:00"
"-75.56","45.52","OTTAWA GATINEAU A","7032682","2019-01-29 06:00","2019","01","29","06:00"
"-75.56","45.52","OTTAWA GATINEAU A","7032682","2019-01-29 07:00","2019","01","29","07:00","-17.1","","-19.6","","82","","","","9","","25","","1.6","","100.20","","","","-28","","Snow,Blowing Snow"
"-75.56","45.52","OTTAWA GATINEAU A","7032682","2019-01-29 08:00","2019","01","29","08:00","-16.4","","-19.2","","79","","","","9","","26","","16.1","","100.18","","","","-27","","Snow,Blowing Snow"
"-75.56","45.52","OTTAWA GATINEAU A","7032682","2019-01-29 09:00","2019","01","29","09:00","-15.5","","-18.3","","79","","","","9","","21","","16.1","","100.18","","","","-25","","Snow,Blowing Snow"
"-75.56","45.52","OTTAWA GATINEAU A","7032682","2019-01-29 10:00","2019","01","29","10:00","-14.6","","-17.1","","82","","","","9","","18","","8.1","","100.20","","","","-23","","Snow,Blowing Snow"
"-75.56","45.52","OTTAWA GATINEAU A","7032682","2019-01-29 11:00","2019","01","29","11:00","-13.4","","-15.9","","82","","","","8","","20","","16.1","","100.22","","","","-22","","Snow"
"-75.56","45.52","OTTAWA GATINEAU A","7032682","2019-01-29 12:00","2019","01","29","12:00","-12.6","","-15.2","","82","","","","8","","20","","12.9","","100.17","","","","-21","","Snow,Blowing Snow"
"-75.56","45.52","OTTAWA GATINEAU A","7032682","2019-01-29 13:00","2019","01","29","13:00","-11.8","","-14.3","","82","","","","9","","18","","4.8","","100.14","","","","-20","","Snow,Blowing Snow"
"-75.56","45.52","OTTAWA GATINEAU A","7032682","2019-01-29 14:00","2019","01","29","14:00","-11.1","","-13.3","","84","","","","9","","17","","3.2","","100.12","","","","-19","","Snow"
"-75.56","45.52","OTTAWA GATINEAU A","7032682","2019-01-29 15:00","2019","01","29","15:00","-10.8","","-12.9","","85","","","","9","","16","","4.8","","100.11","","","","-18","","Snow"
"-75.56","45.52","OTTAWA GATINEAU A","7032682","2019-01-29 16:00","2019","01","29","16:00","-10.4","","-12.4","","85","","","","8","","14","","4.0","","100.10","","","","-17","","Snow"
"-75.56","45.52","OTTAWA GATINEAU A","7032682","2019-01-29 17:00","2019","01","29","17:00","-10.2","","-12.0","","87","","","","8","","14","","4.8","","100.06","","","","-17","","Snow"
"-75.56","45.52","OTTAWA GATINEAU A","7032682","2019-01-29 18:00","2019","01","29","18:00","-10.2","","-12.0","","87","","","","8","","13","","24.1","","100.09","","","","-16","","Snow"
"-75.56","45.52","OTTAWA GATINEAU A","7032682","2019-01-29 19:00","2019","01","29","19:00","-10.2","","-11.9","","88","","","","9","","17","","19.3","","100.11","","","","-17","","Snow"
"-75.56","45.52","OTTAWA GATINEAU A","7032682","2019-01-29 20:00","2019","01","29","20:00","-10.2","","-11.8","","88","","","","8","","8","","24.1","","100.12","","","","-15","","Snow"
"-75.56","45.52","OTTAWA GATINEAU A","7032682","2019-01-29 21:00","2019","01","29","21:00","-10.2","","-11.8","","88","","","","7","","6","","24.1","","100.12","","","","-14","","Snow"
"-75.56","45.52","OTTAWA GATINEAU A","7032682","2019-01-29 22:00","2019","01","29","22:00"
"-75.56","45.52","OTTAWA GATINEAU A","7032682","2019-01-29 23:00","2019","01","29","23:00"
"-75.56","45.52","OTTAWA GATINEAU A","7032682","2019-01-30 00:00","2019","01","30","00:00"
"-75.56","45.52","OTTAWA GATINEAU A","7032682","2019-01-30 01:00","2019","01","30","01:00"
"-75.56","45.52","OTTAWA GATINEAU A","7032682","2019-01-30 02:00","2019","01","30","02:00"
"-75.56","45.52","OTTAWA GATINEAU A","7032682","2019-01-30 03:00","2019","01","30","03:00"
"-75.56","45.52","OTTAWA GATINEAU A","7032682","2019-01-30 04:00","2019","01","30","04:00"
"-75.56","45.52","OTTAWA GATINEAU A","7032682","2019-01-30 05:00","2019","01","30","05:00"
"-75.56","45.52","OTTAWA GATINEAU A","7032682","2019-01-30 06:00","2019","01","30","06:00"
"-75.56","45.52","OTTAWA GATINEAU A","7032682","2019-01-30 07:00","2019","01","30","07:00","-22.9","","-26.3","","74","","","","7","","7","","24.1","","100.13","","","","-29","","Mainly Clear"
"-75.56","45.52","OTTAWA GATINEAU A","7032682","2019-01-30 08:00","2019","01","30","08:00","-23.9","","-26.4","","80","","","","5","","6","","24.1","","100.13","","","","-30","","NA"
"-75.56","45.52","OTTAWA GATINEAU A","7032682","2019-01-30 09:00","2019","01","30","09:00","-22.3","","-25.4","","76","","","","34","","4","","24.1","","100.14","","","","-26","","NA"
"-75.56","45.52","OTTAWA GATINEAU A","7032682","2019-01-30 10:00","2019","01","30","10:00","-15.8","","-22.1","","59","","","","36","","2","","24.1","","100.08","","","","-17","","Mostly Cloudy"
"-75.56","45.52","OTTAWA GATINEAU A","7032682","2019-01-30 11:00","2019","01","30","11:00","-13.3","","-23.2","","44","","","","16","","4","","24.1","","100.06","","","","-16","","NA"
"-75.56","45.52","OTTAWA GATINEAU A","7032682","2019-01-30 12:00","2019","01","30","12:00","-11.8","","-23.6","","38","","","","24","","15","","24.1","","99.96","","","","-19","","NA"
"-75.56","45.52","OTTAWA GATINEAU A","7032682","2019-01-30 13:00","2019","01","30","13:00","-12.4","","-23.2","","41","","","","25","","15","","24.1","","99.92","","","","-20","","Mainly Clear"
"-75.56","45.52","OTTAWA GATINEAU A","7032682","2019-01-30 14:00","2019","01","30","14:00","-11.9","","-23.0","","40","","","","23","","16","","24.1","","99.91","","","","-19","","NA"
"-75.56","45.52","OTTAWA GATINEAU A","7032682","2019-01-30 15:00","2019","01","30","15:00","-11.8","","-23.9","","37","","","","22","","20","","24.1","","99.93","","","","-20","","NA"
"-75.56","45.52","OTTAWA GATINEAU A","7032682","2019-01-30 16:00","2019","01","30","16:00","-12.1","","-24.1","","37","","","","23","","34","","24.1","","100.01","","","","-23","","Blowing Snow"
"-75.56","45.52","OTTAWA GATINEAU A","7032682","2019-01-30 17:00","2019","01","30","17:00","-13.2","","-21.0","","53","","","","26","","35","","24.1","","100.12","","","","-24","","Blowing Snow"
"-75.56","45.52","OTTAWA GATINEAU A","7032682","2019-01-30 18:00","2019","01","30","18:00","-13.9","","-23.3","","46","","","","25","","24","","24.1","","100.26","","","","-24","","NA"
"-75.56","45.52","OTTAWA GATINEAU A","7032682","2019-01-30 19:00","2019","01","30","19:00","-14.9","","-24.2","","46","","","","25","","26","","24.1","","100.37","","","","-25","","Mainly Clear"
"-75.56","45.52","OTTAWA GATINEAU A","7032682","2019-01-30 20:00","2019","01","30","20:00","-16.1","","-24.2","","51","","","","24","","27","","24.1","","100.46","","","","-27","","NA"
"-75.56","45.52","OTTAWA GATINEAU A","7032682","2019-01-30 21:00","2019","01","30","21:00","-16.8","","-24.1","","54","","","","24","","26","","24.1","","100.48","","","","-28","","NA"
"-75.56","45.52","OTTAWA GATINEAU A","7032682","2019-01-30 22:00","2019","01","30","22:00"
"-75.56","45.52","OTTAWA GATINEAU A","7032682","2019-01-30 23:00","2019","01","30","23:00"
"-75.56","45.52","OTTAWA GATINEAU A","7032682","2019-01-31 00:00","2019","01","31","00:00"
"-75.56","45.52","OTTAWA GATINEAU A","7032682","2019-01-31 01:00","2019","01","31","01:00"
"-75.56","45.52","OTTAWA GATINEAU A","7032682","2019-01-31 02:00","2019","01","31","02:00"
"-75.56","45.52","OTTAWA GATINEAU A","7032682","2019-01-31 03:00","2019","01","31","03:00"
"-75.56","45.52","OTTAWA GATINEAU A","7032682","2019-01-31 04:00","2019","01","31","04:00"
"-75.56","45.52","OTTAWA GATINEAU A","7032682","2019-01-31 05:00","2019","01","31","05:00"
"-75.56","45.52","OTTAWA GATINEAU A","7032682","2019-01-31 06:00","2019","01","31","06:00"
"-75.56","45.52","OTTAWA GATINEAU A","7032682","2019-01-31 07:00","2019","01","31","07:00","-19.6","","-23.6","","71","","","","25","","13","","16.1","","100.83","","","","-28","","Mostly Cloudy"
"-75.56","45.52","OTTAWA GATINEAU A","7032682","2019-01-31 08:00","2019","01","31","08:00","-19.1","","-22.4","","76","","","","25","","18","","4.8","","100.94","","","","-29","","Snow"
"-75.56","45.52","OTTAWA GATINEAU A","7032682","2019-01-31 09:00","2019","01","31","09:00","-18.7","","-21.9","","76","","","","26","","19","","4.8","","101.04","","","","-29","","Snow"
"-75.56","45.52","OTTAWA GATINEAU A","7032682","2019-01-31 10:00","2019","01","31","10:00","-18.5","","-24.0","","62","","","","27","","19","","16.1","","101.09","","","","-28","","Snow"
"-75.56","45.52","OTTAWA GATINEAU A","7032682","2019-01-31 11:00","2019","01","31","11:00","-17.2","","-23.6","","58","","","","24","","18","","24.1","","101.15","","","","-26","","NA"
"-75.56","45.52","OTTAWA GATINEAU A","7032682","2019-01-31 12:00","2019","01","31","12:00","-16.7","","-23.8","","55","","","","26","","26","","24.1","","101.13","","","","-28","","NA"
"-75.56","45.52","OTTAWA GATINEAU A","7032682","2019-01-31 13:00","2019","01","31","13:00","-16.4","","-23.7","","54","","","","27","","39","","24.1","","101.12","","","","-29","","Mostly Cloudy"
"-75.56","45.52","OTTAWA GATINEAU A","7032682","2019-01-31 14:00","2019","01","31","14:00","-15.6","","-24.1","","49","","","","26","","33","","24.1","","101.12","","","","-27","","NA"
"-75.56","45.52","OTTAWA GATINEAU A","7032682","2019-01-31 15:00","2019","01","31","15:00","-15.4","","-24.0","","48","","","","26","","19","","24.1","","101.13","","","","-24","","NA"
"-75.56","45.52","OTTAWA GATINEAU A","7032682","2019-01-31 16:00","2019","01","31","16:00","-15.3","","-23.1","","52","","","","24","","17","","24.1","","101.18","","","","-24","","Mostly Cloudy"
"-75.56","45.52","OTTAWA GATINEAU A","7032682","2019-01-31 17:00","2019","01","31","17:00","-16.3","","-20.4","","71","","","","24","","17","","9.7","","101.22","","","","-25","","Snow"
"-75.56","45.52","OTTAWA GATINEAU A","7032682","2019-01-31 18:00","2019","01","31","18:00","-17.1","","-20.7","","74","","","","25","","10","","19.3","","101.26","","","","-24","","Snow"
"-75.56","45.52","OTTAWA GATINEAU A","7032682","2019-01-31 19:00","2019","01","31","19:00","-18.7","","-21.3","","80","","","","29","","7","","24.1","","101.29","","","","-24","","Snow"
"-75.56","45.52","OTTAWA GATINEAU A","7032682","2019-01-31 20:00","2019","01","31","20:00","-20.3","","-22.9","","80","","","","29","","7","","24.1","","101.32","","","","-26","","NA"
"-75.56","45.52","OTTAWA GATINEAU A","7032682","2019-01-31 21:00","2019","01","31","21:00","-21.0","","-24.3","","75","","","","26","","12","","24.1","","101.34","","","","-29","","NA"
"-75.56","45.52","OTTAWA GATINEAU A","7032682","2019-01-31 22:00","2019","01","31","22:00"
"-75.56","45.52","OTTAWA GATINEAU A","7032682","2019-01-31 23:00","2019","01","31","23:00"
