"Longitude (x)","Latitude (y)","Station Name","Climate ID","Date/Time (LST)","Year","Month","Day","Time (LST)","Temp (°C)","Temp Flag","Dew Point Temp (°C)","Dew Point Temp Flag","Rel Hum (%)","Rel Hum Flag","Precip. Amount (mm)","Precip. Amount Flag","Wind Dir (10s deg)","Wind Dir Flag","Wind Spd (km/h)","Wind Spd Flag","Visibility (km)","Visibility Flag","Stn Press (kPa)","Stn Press Flag","Hmdx","Hmdx Flag","Wind Chill","Wind Chill Flag","Weather"
"-90.21","51.45","PICKLE LAKE A","6016527","2012-02-01 00:00","2012","02","01","00:00"
"-90.21","51.45","PICKLE LAKE A","6016527","2012-02-01 01:00","2012","02","01","01:00"
"-90.21","51.45","PICKLE LAKE A","6016527","2012-02-01 02:00","2012","02","01","02:00"
"-90.21","51.45","PICKLE LAKE A","6016527","2012-02-01 03:00","2012","02","01","03:00"
"-90.21","51.45","PICKLE LAKE A","6016527","2012-02-01 04:00","2012","02","01","04:00"
"-90.21","51.45","PICKLE LAKE A","6016527","2012-02-01 05:00","2012","02","01","05:00"
"-90.21","51.45","PICKLE LAKE A","6016527","2012-02-01 06:00","2012","02","01","06:00","-7.2","","-7.8","","95","","","","23","","6","","19.3","","96.56","","","","-10","","Snow"
"-90.21","51.45","PICKLE LAKE A","6016527","2012-02-01 07:00","2012","02","01","07:00","-7.8","","-8.5","","95","","","","22","","7","","19.3","","96.62","","","","-11","","Snow"
"-90.21","51.45","PICKLE LAKE A","6016527","2012-02-01 08:00","2012","02","01","08:00","-7.5","","-8.1","","95","","","","23","","9","","19.3","","96.69","","","","-12","","Snow"
"-90.21","51.45","PICKLE LAKE A","6016527","2012-02-01 09:00","2012","02","01","09:00","-7.7","","-8.3","","95","","","","24","","7","","19.3","","96.77","","","","-11","","Snow"
"-90.21","51.45","PICKLE LAKE A","6016527","2012-02-01 10:00","2012","02","01","10:00","-7.2","","-7.9","","95","","","","19","","4","","24.1","","96.80","","","","-9","","Snow"
"-90.21","51.45","PICKLE LAKE A","6016527","2012-02-01 11:00","2012","02","01","11:00","-6.7","","-7.6","","93","","","","24","","7","","24.1","","96.84","","","","-10","","Snow"
"-90.21","51.45","PICKLE LAKE A","6016527","2012-02-01 12:00","2012","02","01","12:00","-6.2","","-7.2","","93","","","","21","","4","","24.1","","96.89","","","","-8","","Snow"
"-90.21","51.45","PICKLE LAKE A","6016527","2012-02-01 13:00","2012","02","01","13:00","-5.4","","-6.6","","91","","","","27","","6","","24.1","","96.87","","","","-8","","Snow"
"-90.21","51.45","PICKLE LAKE A","6016527","2012-02-01 14:00","2012","02","01","14:00","-4.3","","-6.3","","86","","","","22","","4","","24.1","","96.87","","","","-6","","Mostly Cloudy"
"-90.21","51.45","PICKLE LAKE A","6016527","2012-02-01 15:00","2012","02","01","15:00","-4.0","","-5.9","","87","","","","21","","6","","24.1","","96.87","","","","-7","","Snow"
"-90.21","51.45","PICKLE LAKE A","6016527","2012-02-01 16:00","2012","02","01","16:00","-3.8","","-5.8","","86","","","","22","","7","","24.1","","96.90","","","","-7","","Snow"
"-90.21","51.45","PICKLE LAKE A","6016527","2012-02-01 17:00","2012","02","01","17:00","-4.0","","-5.8","","87","","","","22","","7","","24.1","","96.94","","","","-7","","Snow"
"-90.21","51.45","PICKLE LAKE A","6016527","2012-02-01 18:00","2012","02","01","18:00","-4.5","","-5.8","","91","","","","21","","7","","24.1","","96.97","","","","-8","","Snow"
"-90.21","51.45","PICKLE LAKE A","6016527","2012-02-01 19:00","2012","02","01","19:00","-5.0","","-5.9","","93","","","","21","","7","","19.3","","97.00","","","","-8","","Snow"
"-90.21","51.45","PICKLE LAKE A","6016527","2012-02-01 20:00","2012","02","01","20:00","-5.0","","-5.7","","95","","","","23","","6","","19.3","","97.03","","","","-8","","Snow"
"-90.21","51.45","PICKLE LAKE A","6016527","2012-02-01 21:00","2012","02","01","21:00","-5.1","","-5.4","","98","","","","20","","4","","9.7","","97.05","","","","-7","","Snow"
"-90.21","51.45","PICKLE LAKE A","6016527","2012-02-01 22:00","2012","02","01","22:00"
"-90.21","51.45","PICKLE LAKE A","6016527","2012-02-01 23:00","2012","02","01","23:00"
"-90.21","51.45","PICKLE LAKE A","6016527","2012-02-02 00:00","2012","02","02","00:00"
"-90.21","51.45","PICKLE LAKE A","6016527","2012-02-02 01:00","2012","02","02","01:00"
"-90.21","51.45","PICKLE LAKE A","6016527","2012-02-02 02:00","2012","02","02","02:00"
"-90.21","51.45","PICKLE LAKE A","6016527","2012-02-02 03:00","2012","02","02","03:00"
"-90.21","51.45","PICKLE LAKE A","6016527","2012-02-02 04:00","2012","02","02","04:00"
"-90.21","51.45","PICKLE LAKE A","6016527","2012-02-02 05:00","2012","02","02","05:00"
"-90.21","51.45","PICKLE LAKE A","6016527","2012-02-02 06:00","2012","02","02","06:00","-4.2","","-4.5","","98","","","","20","","4","","3.2","","97.12","","","","-6","","Snow,Fog"
"-90.21","51.45","PICKLE LAKE A","6016527","2012-02-02 07:00","2012","02","02","07:00","-3.9","","-4.4","","96","","","","21","","4","","2.4","","97.15","","","","-6","","Snow,Fog"
"-90.21","51.45","PICKLE LAKE A","6016527","2012-02-02 08:00","2012","02","02","08:00","-4.0","","-4.4","","97","","","","21","","4","","4.8","","97.17","","","","-6","","Snow,Fog"
"-90.21","51.45","PICKLE LAKE A","6016527","2012-02-02 09:00","2012","02","02","09:00","-3.7","","-4.0","","98","","","","25","","6","","4.8","","97.22","","","","-6","","Snow,Fog"
"-90.21","51.45","PICKLE LAKE A","6016527","2012-02-02 10:00","2012","02","02","10:00","-3.5","","-3.8","","98","","","","27","","4","","8.0","","97.25","","","","-5","","Snow,Fog"
"-90.21","51.45","PICKLE LAKE A","6016527","2012-02-02 11:00","2012","02","02","11:00","-3.3","","-3.4","","99","","","","28","","6","","8.0","","97.31","","","","-6","","Snow,Fog"
"-90.21","51.45","PICKLE LAKE A","6016527","2012-02-02 12:00","2012","02","02","12:00","-3.0","","-3.1","","99","","","","29","","7","","12.9","","97.40","","","","-6","","Snow"
"-90.21","51.45","PICKLE LAKE A","6016527","2012-02-02 13:00","2012","02","02","13:00","-2.8","","-3.3","","96","","","","31","","13","","12.9","","97.44","","","","-7","","Snow"
"-90.21","51.45","PICKLE LAKE A","6016527","2012-02-02 14:00","2012","02","02","14:00","-3.3","","-4.0","","95","","","","33","","13","","16.1","","97.48","","","","-8","","Snow"
"-90.21","51.45","PICKLE LAKE A","6016527","2012-02-02 15:00","2012","02","02","15:00","-3.8","","-4.6","","94","","","","31","","13","","12.9","","97.54","","","","-9","","Snow"
"-90.21","51.45","PICKLE LAKE A","6016527","2012-02-02 16:00","2012","02","02","16:00","-4.3","","-5.1","","94","","","","34","","7","","12.9","","97.61","","","","-7","","Snow"
"-90.21","51.45","PICKLE LAKE A","6016527","2012-02-02 17:00","2012","02","02","17:00","-5.0","","-5.7","","95","","","","35","","11","","12.9","","97.70","","","","-10","","Snow"
"-90.21","51.45","PICKLE LAKE A","6016527","2012-02-02 18:00","2012","02","02","18:00","-6.1","","-7.1","","93","","","","34","","11","","19.3","","97.79","","","","-11","","Snow"
"-90.21","51.45","PICKLE LAKE A","6016527","2012-02-02 19:00","2012","02","02","19:00","-7.1","","-8.4","","90","","","","34","","13","","19.3","","97.88","","","","-13","","Snow"
"-90.21","51.45","PICKLE LAKE A","6016527","2012-02-02 20:00","2012","02","02","20:00","-8.7","","-10.3","","88","","","","35","","17","","19.3","","97.97","","","","-16","","Snow"
"-90.21","51.45","PICKLE LAKE A","6016527","2012-02-02 21:00","2012","02","02","21:00","-9.9","","-11.3","","89","","","","33","","9","","16.1","","98.06","","","","-15","","Snow"
"-90.21","51.45","PICKLE LAKE A","6016527","2012-02-02 22:00","2012","02","02","22:00"
"-90.21","51.45","PICKLE LAKE A","6016527","2012-02-02 23:00","2012","02","02","23:00"
"-90.21","51.45","PICKLE LAKE A","6016527","2012-02-03 00:00","2012","02","03","00:00"
"-90.21","51.45","PICKLE LAKE A","6016527","2012-02-03 01:00","2012","02","03","01:00"
"-90.21","51.45","PICKLE LAKE A","6016527","2012-02-03 02:00","2012","02","03","02:00"
"-90.21","51.45","PICKLE LAKE A","6016527","2012-02-03 03:00","2012","02","03","03:00"
"-90.21","51.45","PICKLE LAKE A","6016527","2012-02-03 04:00","2012","02","03","04:00"
"-90.21","51.45","PICKLE LAKE A","6016527","2012-02-03 05:00","2012","02","03","05:00"
"-90.21","51.45","PICKLE LAKE A","6016527","2012-02-03 06:00","2012","02","03","06:00","-15.4","","-16.0","","95","","","","26","","4","","24.1","","98.40","","","","-18","","Mainly Clear"
"-90.21","51.45","PICKLE LAKE A","6016527","2012-02-03 07:00","2012","02","03","07:00","-15.4","","-16.2","","94","","","","17","","6","","24.1","","98.34","","","","-20","","Snow"
"-90.21","51.45","PICKLE LAKE A","6016527","2012-02-03 08:00","2012","02","03","08:00","-14.5","","-15.3","","94","","","","","","0","","24.1","","98.39","","","","","","Snow"
"-90.21","51.45","PICKLE LAKE A","6016527","2012-02-03 09:00","2012","02","03","09:00","-14.0","","-15.1","","91","","","","18","","4","","24.1","","98.35","","","","-17","","Snow"
"-90.21","51.45","PICKLE LAKE A","6016527","2012-02-03 10:00","2012","02","03","10:00","-12.7","","-13.9","","91","","","","18","","6","","24.1","","98.33","","","","-17","","Snow"
"-90.21","51.45","PICKLE LAKE A","6016527","2012-02-03 11:00","2012","02","03","11:00","-11.3","","-12.8","","89","","","","19","","4","","24.1","","98.27","","","","-14","","Snow"
"-90.21","51.45","PICKLE LAKE A","6016527","2012-02-03 12:00","2012","02","03","12:00","-9.4","","-10.2","","94","","","","22","","4","","24.1","","98.27","","","","-12","","Snow"
"-90.21","51.45","PICKLE LAKE A","6016527","2012-02-03 13:00","2012","02","03","13:00","-8.3","","-8.8","","96","","","","27","","9","","8.0","","98.25","","","","-13","","Snow,Fog"
"-90.21","51.45","PICKLE LAKE A","6016527","2012-02-03 14:00","2012","02","03","14:00","-6.9","","-7.5","","95","","","","22","","6","","16.1","","98.13","","","","-10","","Snow"
"-90.21","51.45","PICKLE LAKE A","6016527","2012-02-03 15:00","2012","02","03","15:00","-6.5","","-7.5","","93","","","","23","","6","","19.3","","98.09","","","","-9","","Snow"
"-90.21","51.45","PICKLE LAKE A","6016527","2012-02-03 16:00","2012","02","03","16:00","-6.0","","-7.0","","93","","","","22","","7","","19.3","","98.01","","","","-9","","Snow"
"-90.21","51.45","PICKLE LAKE A","6016527","2012-02-03 17:00","2012","02","03","17:00","-5.2","","-6.2","","93","","","","23","","7","","19.3","","97.92","","","","-8","","Snow"
"-90.21","51.45","PICKLE LAKE A","6016527","2012-02-03 18:00","2012","02","03","18:00","-4.5","","-5.4","","93","","","","25","","7","","24.1","","97.91","","","","-8","","Snow"
"-90.21","51.45","PICKLE LAKE A","6016527","2012-02-03 19:00","2012","02","03","19:00","-4.3","","-5.1","","94","","","","24","","9","","24.1","","97.88","","","","-8","","Snow"
"-90.21","51.45","PICKLE LAKE A","6016527","2012-02-03 20:00","2012","02","03","20:00","-3.8","","-4.6","","94","","","","24","","9","","24.1","","97.86","","","","-8","","Snow"
"-90.21","51.45","PICKLE LAKE A","6016527","2012-02-03 21:00","2012","02","03","21:00","-3.3","","-4.2","","93","","","","24","","7","","24.1","","97.81","","","","-6","","Snow"
"-90.21","51.45","PICKLE LAKE A","6016527","2012-02-03 22:00","2012","02","03","22:00"
"-90.21","51.45","PICKLE LAKE A","6016527","2012-02-03 23:00","2012","02","03","23:00"
"-90.21","51.45","PICKLE LAKE A","6016527","2012-02-04 00:00","2012","02","04","00:00"
"-90.21","51.45","PICKLE LAKE A","6016527","2012-02-04 01:00","2012","02","04","01:00"
"-90.21","51.45","PICKLE LAKE A","6016527","2012-02-04 02:00","2012","02","04","02:00"
"-90.21","51.45","PICKLE LAKE A","6016527","2012-02-04 03:00","2012","02","04","03:00"
"-90.21","51.45","PICKLE LAKE A","6016527","2012-02-04 04:00","2012","02","04","04:00"
"-90.21","51.45","PICKLE LAKE A","6016527","2012-02-04 05:00","2012","02","04","05:00"
"-90.21","51.45","PICKLE LAKE A","6016527","2012-02-04 06:00","2012","02","04","06:00","-4.8","","-5.5","","95","","","","29","","15","","24.1","","97.64","","","","-10","","Cloudy"
"-90.21","51.45","PICKLE LAKE A","6016527","2012-02-04 07:00","2012","02","04","07:00","-4.7","","-5.5","","94","","","","30","","9","","24.1","","97.65","","","","-9","","Cloudy"
"-90.21","51.45","PICKLE LAKE A","6016527","2012-02-04 08:00","2012","02","04","08:00","-4.9","","-5.7","","94","","","","29","","13","","24.1","","97.68","","","","-10","","Cloudy"
"-90.21","51.45","PICKLE LAKE A","6016527","2012-02-04 09:00","2012","02","04","09:00","-5.1","","-6.0","","93","","","","28","","13","","24.1","","97.66","","","","-10","","Cloudy"
"-90.21","51.45","PICKLE LAKE A","6016527","2012-02-04 10:00","2012","02","04","10:00","-5.3","","-5.9","","96","","","","28","","11","","24.1","","97.68","","","","-10","","Cloudy"
"-90.21","51.45","PICKLE LAKE A","6016527","2012-02-04 11:00","2012","02","04","11:00","-5.3","","-6.0","","95","","","","29","","13","","24.1","","97.70","","","","-10","","Cloudy"
"-90.21","51.45","PICKLE LAKE A","6016527","2012-02-04 12:00","2012","02","04","12:00","-4.8","","-5.7","","93","","","","28","","11","","24.1","","97.71","","","","-9","","Cloudy"
"-90.21","51.45","PICKLE LAKE A","6016527","2012-02-04 13:00","2012","02","04","13:00","-4.0","","-5.5","","89","","","","27","","7","","24.1","","97.69","","","","-7","","Mostly Cloudy"
"-90.21","51.45","PICKLE LAKE A","6016527","2012-02-04 14:00","2012","02","04","14:00","-2.9","","-5.1","","85","","","","28","","7","","24.1","","97.69","","","","-6","","Mainly Clear"
"-90.21","51.45","PICKLE LAKE A","6016527","2012-02-04 15:00","2012","02","04","15:00","-1.6","","-4.6","","80","","","","29","","6","","24.1","","97.65","","","","-4","","Mainly Clear"
"-90.21","51.45","PICKLE LAKE A","6016527","2012-02-04 16:00","2012","02","04","16:00","-0.6","","-4.5","","75","","","","28","","4","","24.1","","97.66","","","","-2","","Mainly Clear"
"-90.21","51.45","PICKLE LAKE A","6016527","2012-02-04 17:00","2012","02","04","17:00","-0.5","","-4.6","","74","","","","28","","6","","24.1","","97.70","","","","-3","","Mainly Clear"
"-90.21","51.45","PICKLE LAKE A","6016527","2012-02-04 18:00","2012","02","04","18:00","-1.5","","-4.5","","80","","","","27","","4","","24.1","","97.72","","","","-3","","Mainly Clear"
"-90.21","51.45","PICKLE LAKE A","6016527","2012-02-04 19:00","2012","02","04","19:00","-2.1","","-4.5","","84","","","","26","","4","","24.1","","97.74","","","","-4","","Mostly Cloudy"
"-90.21","51.45","PICKLE LAKE A","6016527","2012-02-04 20:00","2012","02","04","20:00","-3.0","","-4.7","","88","","","","26","","7","","24.1","","97.72","","","","-6","","Mostly Cloudy"
"-90.21","51.45","PICKLE LAKE A","6016527","2012-02-04 21:00","2012","02","04","21:00","-3.6","","-4.9","","91","","","","26","","6","","24.1","","97.68","","","","-6","","Mainly Clear"
"-90.21","51.45","PICKLE LAKE A","6016527","2012-02-04 22:00","2012","02","04","22:00"
"-90.21","51.45","PICKLE LAKE A","6016527","2012-02-04 23:00","2012","02","04","23:00"
"-90.21","51.45","PICKLE LAKE A","6016527","2012-02-05 00:00","2012","02","05","00:00"
"-90.21","51.45","PICKLE LAKE A","6016527","2012-02-05 01:00","2012","02","05","01:00"
"-90.21","51.45","PICKLE LAKE A","6016527","2012-02-05 02:00","2012","02","05","02:00"
"-90.21","51.45","PICKLE LAKE A","6016527","2012-02-05 03:00","2012","02","05","03:00"
"-90.21","51.45","PICKLE LAKE A","6016527","2012-02-05 04:00","2012","02","05","04:00"
"-90.21","51.45","PICKLE LAKE A","6016527","2012-02-05 05:00","2012","02","05","05:00"
"-90.21","51.45","PICKLE LAKE A","6016527","2012-02-05 06:00","2012","02","05","06:00","-3.9","","-5.8","","87","","","","24","","17","","24.1","","97.10","","","","-10","","Mostly Cloudy"
"-90.21","51.45","PICKLE LAKE A","6016527","2012-02-05 07:00","2012","02","05","07:00","-3.8","","-5.9","","85","","","","24","","17","","24.1","","97.02","","","","-10","","Mainly Clear"
"-90.21","51.45","PICKLE LAKE A","6016527","2012-02-05 08:00","2012","02","05","08:00","-4.5","","-6.3","","87","","","","24","","15","","24.1","","96.97","","","","-10","","Mostly Cloudy"
"-90.21","51.45","PICKLE LAKE A","6016527","2012-02-05 09:00","2012","02","05","09:00","-4.8","","-6.5","","88","","","","24","","13","","24.1","","96.91","","","","-10","","Mostly Cloudy"
"-90.21","51.45","PICKLE LAKE A","6016527","2012-02-05 10:00","2012","02","05","10:00","-3.5","","-6.4","","80","","","","24","","17","","24.1","","96.79","","","","-9","","Mostly Cloudy"
"-90.21","51.45","PICKLE LAKE A","6016527","2012-02-05 11:00","2012","02","05","11:00","-2.7","","-6.5","","75","","","","24","","20","","24.1","","96.71","","","","-9","","Mainly Clear"
"-90.21","51.45","PICKLE LAKE A","6016527","2012-02-05 12:00","2012","02","05","12:00","-0.6","","-6.3","","65","","","","25","","20","","24.1","","96.64","","","","-6","","Mostly Cloudy"
"-90.21","51.45","PICKLE LAKE A","6016527","2012-02-05 13:00","2012","02","05","13:00","1.4","","-5.7","","59","","","","26","","15","","24.1","","96.56","","","","","","Mostly Cloudy"
"-90.21","51.45","PICKLE LAKE A","6016527","2012-02-05 14:00","2012","02","05","14:00","2.4","","-5.3","","57","","","","26","","13","","24.1","","96.47","","","","","","Mostly Cloudy"
"-90.21","51.45","PICKLE LAKE A","6016527","2012-02-05 15:00","2012","02","05","15:00","3.5","","-5.3","","52","","","","27","","13","","24.1","","96.45","","","","","","Mainly Clear"
"-90.21","51.45","PICKLE LAKE A","6016527","2012-02-05 16:00","2012","02","05","16:00","3.8","","-5.3","","51","","","","25","","15","","24.1","","96.38","","","","","","Mainly Clear"
"-90.21","51.45","PICKLE LAKE A","6016527","2012-02-05 17:00","2012","02","05","17:00","3.6","","-5.4","","52","","","","26","","15","","24.1","","96.34","","","","","","Mainly Clear"
"-90.21","51.45","PICKLE LAKE A","6016527","2012-02-05 18:00","2012","02","05","18:00","1.5","","-5.3","","61","","","","24","","13","","24.1","","96.32","","","","","","Mainly Clear"
"-90.21","51.45","PICKLE LAKE A","6016527","2012-02-05 19:00","2012","02","05","19:00","1.2","","-5.8","","60","","","","25","","17","","24.1","","96.33","","","","","","Mainly Clear"
"-90.21","51.45","PICKLE LAKE A","6016527","2012-02-05 20:00","2012","02","05","20:00","-0.5","","-5.9","","67","","","","26","","9","","24.1","","96.34","","","","-4","","Mainly Clear"
"-90.21","51.45","PICKLE LAKE A","6016527","2012-02-05 21:00","2012","02","05","21:00","-1.2","","-5.9","","70","","","","25","","11","","24.1","","96.31","","","","-5","","Mainly Clear"
"-90.21","51.45","PICKLE LAKE A","6016527","2012-02-05 22:00","2012","02","05","22:00"
"-90.21","51.45","PICKLE LAKE A","6016527","2012-02-05 23:00","2012","02","05","23:00"
"-90.21","51.45","PICKLE LAKE A","6016527","2012-02-06 00:00","2012","02","06","00:00"
"-90.21","51.45","PICKLE LAKE A","6016527","2012-02-06 01:00","2012","02","06","01:00"
"-90.21","51.45","PICKLE LAKE A","6016527","2012-02-06 02:00","2012","02","06","02:00"
"-90.21","51.45","PICKLE LAKE A","6016527","2012-02-06 03:00","2012","02","06","03:00"
"-90.21","51.45","PICKLE LAKE A","6016527","2012-02-06 04:00","2012","02","06","04:00"
"-90.21","51.45","PICKLE LAKE A","6016527","2012-02-06 05:00","2012","02","06","05:00"
"-90.21","51.45","PICKLE LAKE A","6016527","2012-02-06 06:00","2012","02","06","06:00","-6.4","","-8.4","","86","","","","33","","19","","24.1","","96.70","","","","-13","","Snow"
"-90.21","51.45","PICKLE LAKE A","6016527","2012-02-06 07:00","2012","02","06","07:00","-9.3","","-11.6","","83","","","","35","","19","","4.8","","96.88","","","","-17","","Snow"
"-90.21","51.45","PICKLE LAKE A","6016527","2012-02-06 08:00","2012","02","06","08:00","-11.7","","-13.6","","86","","","","35","","24","","2.4","","97.04","","","","-21","","Snow"
"-90.21","51.45","PICKLE LAKE A","6016527","2012-02-06 09:00","2012","02","06","09:00","-12.3","","-14.4","","84","","","","35","","19","","8.0","","97.20","","","","-21","","Snow"
"-90.21","51.45","PICKLE LAKE A","6016527","2012-02-06 10:00","2012","02","06","10:00","-12.7","","-15.0","","83","","","","34","","19","","16.1","","97.32","","","","-21","","Snow"
"-90.21","51.45","PICKLE LAKE A","6016527","2012-02-06 11:00","2012","02","06","11:00","-13.1","","-15.9","","79","","","","36","","24","","19.3","","97.45","","","","-23","","Snow"
"-90.21","51.45","PICKLE LAKE A","6016527","2012-02-06 12:00","2012","02","06","12:00","-12.0","","-16.0","","72","","","","35","","15","","24.1","","97.54","","","","-19","","Snow"
"-90.21","51.45","PICKLE LAKE A","6016527","2012-02-06 13:00","2012","02","06","13:00","-11.7","","-15.8","","72","","","","33","","19","","24.1","","97.61","","","","-20","","Snow"
"-90.21","51.45","PICKLE LAKE A","6016527","2012-02-06 14:00","2012","02","06","14:00","-11.5","","-15.8","","70","","","","33","","20","","24.1","","97.68","","","","-20","","Snow"
"-90.21","51.45","PICKLE LAKE A","6016527","2012-02-06 15:00","2012","02","06","15:00","-11.7","","-15.6","","73","","","","33","","20","","24.1","","97.79","","","","-20","","Snow"
"-90.21","51.45","PICKLE LAKE A","6016527","2012-02-06 16:00","2012","02","06","16:00","-11.7","","-16.7","","66","","","","33","","20","","24.1","","97.86","","","","-20","","Mainly Clear"
"-90.21","51.45","PICKLE LAKE A","6016527","2012-02-06 17:00","2012","02","06","17:00","-11.7","","-18.6","","57","","","","34","","15","","24.1","","97.97","","","","-19","","Mainly Clear"
"-90.21","51.45","PICKLE LAKE A","6016527","2012-02-06 18:00","2012","02","06","18:00","-12.8","","-21.2","","49","","","","33","","19","","24.1","","98.08","","","","-21","","Clear"
"-90.21","51.45","PICKLE LAKE A","6016527","2012-02-06 19:00","2012","02","06","19:00","-14.7","","-22.6","","51","","","","33","","13","","24.1","","98.16","","","","-22","","Clear"
"-90.21","51.45","PICKLE LAKE A","6016527","2012-02-06 20:00","2012","02","06","20:00","-15.7","","-24.3","","48","","","","33","","13","","24.1","","98.23","","","","-23","","Clear"
"-90.21","51.45","PICKLE LAKE A","6016527","2012-02-06 21:00","2012","02","06","21:00","-16.7","","-24.7","","50","","","","32","","11","","24.1","","98.28","","","","-24","","Clear"
"-90.21","51.45","PICKLE LAKE A","6016527","2012-02-06 22:00","2012","02","06","22:00"
"-90.21","51.45","PICKLE LAKE A","6016527","2012-02-06 23:00","2012","02","06","23:00"
"-90.21","51.45","PICKLE LAKE A","6016527","2012-02-07 00:00","2012","02","07","00:00"
"-90.21","51.45","PICKLE LAKE A","6016527","2012-02-07 01:00","2012","02","07","01:00"
"-90.21","51.45","PICKLE LAKE A","6016527","2012-02-07 02:00","2012","02","07","02:00"
"-90.21","51.45","PICKLE LAKE A","6016527","2012-02-07 03:00","2012","02","07","03:00"
"-90.21","51.45","PICKLE LAKE A","6016527","2012-02-07 04:00","2012","02","07","04:00"
"-90.21","51.45","PICKLE LAKE A","6016527","2012-02-07 05:00","2012","02","07","05:00"
"-90.21","51.45","PICKLE LAKE A","6016527","2012-02-07 06:00","2012","02","07","06:00","-22.4","","-27.0","","66","","","","25","","13","","24.1","","98.41","","","","-31","","Clear"
"-90.21","51.45","PICKLE LAKE A","6016527","2012-02-07 07:00","2012","02","07","07:00","-22.8","","-27.3","","67","","","","25","","11","","24.1","","98.40","","","","-31","","Clear"
"-90.21","51.45","PICKLE LAKE A","6016527","2012-02-07 08:00","2012","02","07","08:00","-22.2","","-27.4","","63","","","","26","","13","","24.1","","98.34","","","","-31","","Mainly Clear"
"-90.21","51.45","PICKLE LAKE A","6016527","2012-02-07 09:00","2012","02","07","09:00","-21.3","","-27.8","","56","","","","25","","11","","24.1","","98.27","","","","-29","","Mainly Clear"
"-90.21","51.45","PICKLE LAKE A","6016527","2012-02-07 10:00","2012","02","07","10:00","-19.4","","-27.6","","48","","","","26","","15","","24.1","","98.24","","","","-28","","Mainly Clear"
"-90.21","51.45","PICKLE LAKE A","6016527","2012-02-07 11:00","2012","02","07","11:00","-16.9","","-26.6","","43","","","","26","","11","","24.1","","98.16","","","","-24","","Mainly Clear"
"-90.21","51.45","PICKLE LAKE A","6016527","2012-02-07 12:00","2012","02","07","12:00","-13.7","","-26.1","","34","","","","26","","15","","24.1","","98.07","","","","-21","","Mainly Clear"
"-90.21","51.45","PICKLE LAKE A","6016527","2012-02-07 13:00","2012","02","07","13:00","-10.9","","-25.0","","30","","","","26","","20","","24.1","","97.93","","","","-19","","Mainly Clear"
"-90.21","51.45","PICKLE LAKE A","6016527","2012-02-07 14:00","2012","02","07","14:00","-9.4","","-24.1","","29","","","","26","","19","","24.1","","97.82","","","","-17","","Mainly Clear"
"-90.21","51.45","PICKLE LAKE A","6016527","2012-02-07 15:00","2012","02","07","15:00","-8.4","","-22.6","","31","","","","24","","17","","24.1","","97.70","","","","-15","","Mainly Clear"
"-90.21","51.45","PICKLE LAKE A","6016527","2012-02-07 16:00","2012","02","07","16:00","-7.8","","-22.1","","31","","","","24","","20","","24.1","","97.60","","","","-15","","Mainly Clear"
"-90.21","51.45","PICKLE LAKE A","6016527","2012-02-07 17:00","2012","02","07","17:00","-7.8","","-21.8","","32","","","","25","","19","","24.1","","97.50","","","","-15","","Mainly Clear"
"-90.21","51.45","PICKLE LAKE A","6016527","2012-02-07 18:00","2012","02","07","18:00","-9.2","","-21.7","","35","","","","25","","20","","24.1","","97.44","","","","-17","","Mainly Clear"
"-90.21","51.45","PICKLE LAKE A","6016527","2012-02-07 19:00","2012","02","07","19:00","-9.5","","-20.7","","40","","","","24","","26","","24.1","","97.34","","","","-18","","Mainly Clear"
"-90.21","51.45","PICKLE LAKE A","6016527","2012-02-07 20:00","2012","02","07","20:00","-9.7","","-20.1","","42","","","","25","","22","","24.1","","97.26","","","","-18","","Mainly Clear"
"-90.21","51.45","PICKLE LAKE A","6016527","2012-02-07 21:00","2012","02","07","21:00","-10.2","","-20.1","","44","","","","26","","20","","24.1","","97.25","","","","-18","","Mainly Clear"
"-90.21","51.45","PICKLE LAKE A","6016527","2012-02-07 22:00","2012","02","07","22:00"
"-90.21","51.45","PICKLE LAKE A","6016527","2012-02-07 23:00","2012","02","07","23:00"
"-90.21","51.45","PICKLE LAKE A","6016527","2012-02-08 00:00","2012","02","08","00:00"
"-90.21","51.45","PICKLE LAKE A","6016527","2012-02-08 01:00","2012","02","08","01:00"
"-90.21","51.45","PICKLE LAKE A","6016527","2012-02-08 02:00","2012","02","08","02:00"
"-90.21","51.45","PICKLE LAKE A","6016527","2012-02-08 03:00","2012","02","08","03:00"
"-90.21","51.45","PICKLE LAKE A","6016527","2012-02-08 04:00","2012","02","08","04:00"
"-90.21","51.45","PICKLE LAKE A","6016527","2012-02-08 05:00","2012","02","08","05:00"
"-90.21","51.45","PICKLE LAKE A","6016527","2012-02-08 06:00","2012","02","08","06:00","-13.7","","-18.0","","70","","","","25","","19","","24.1","","96.91","","","","-22","","Clear"
"-90.21","51.45","PICKLE LAKE A","6016527","2012-02-08 07:00","2012","02","08","07:00","-13.6","","-17.3","","74","","","","26","","17","","24.1","","96.85","","","","-22","","Mainly Clear"
"-90.21","51.45","PICKLE LAKE A","6016527","2012-02-08 08:00","2012","02","08","08:00","-13.7","","-17.0","","76","","","","25","","13","","24.1","","96.83","","","","-21","","Mainly Clear"
"-90.21","51.45","PICKLE LAKE A","6016527","2012-02-08 09:00","2012","02","08","09:00","-14.0","","-17.0","","78","","","","24","","11","","24.1","","96.79","","","","-20","","Mostly Cloudy"
"-90.21","51.45","PICKLE LAKE A","6016527","2012-02-08 10:00","2012","02","08","10:00","-12.8","","-15.8","","78","","","","25","","11","","24.1","","96.73","","","","-19","","Mostly Cloudy"
"-90.21","51.45","PICKLE LAKE A","6016527","2012-02-08 11:00","2012","02","08","11:00","-12.1","","-15.9","","73","","","","25","","13","","24.1","","96.66","","","","-19","","Mostly Cloudy"
"-90.21","51.45","PICKLE LAKE A","6016527","2012-02-08 12:00","2012","02","08","12:00","-10.6","","-14.9","","71","","","","27","","17","","24.1","","96.65","","","","-18","","Mostly Cloudy"
"-90.21","51.45","PICKLE LAKE A","6016527","2012-02-08 13:00","2012","02","08","13:00","-9.7","","-14.2","","70","","","","27","","22","","24.1","","96.57","","","","-18","","Mostly Cloudy"
"-90.21","51.45","PICKLE LAKE A","6016527","2012-02-08 14:00","2012","02","08","14:00","-8.4","","-13.4","","67","","","","27","","22","","24.1","","96.49","","","","-16","","Mostly Cloudy"
"-90.21","51.45","PICKLE LAKE A","6016527","2012-02-08 15:00","2012","02","08","15:00","-7.2","","-10.6","","77","","","","26","","20","","24.1","","96.44","","","","-14","","Mostly Cloudy"
"-90.21","51.45","PICKLE LAKE A","6016527","2012-02-08 16:00","2012","02","08","16:00","-6.4","","-12.8","","60","","","","25","","19","","24.1","","96.39","","","","-13","","Mostly Cloudy"
"-90.21","51.45","PICKLE LAKE A","6016527","2012-02-08 17:00","2012","02","08","17:00","-6.3","","-12.9","","59","","","","27","","26","","24.1","","96.41","","","","-14","","Mostly Cloudy"
"-90.21","51.45","PICKLE LAKE A","6016527","2012-02-08 18:00","2012","02","08","18:00","-7.2","","-13.0","","63","","","","29","","19","","24.1","","96.42","","","","-14","","Mostly Cloudy"
"-90.21","51.45","PICKLE LAKE A","6016527","2012-02-08 19:00","2012","02","08","19:00","-8.5","","-13.3","","68","","","","28","","15","","24.1","","96.43","","","","-15","","Mainly Clear"
"-90.21","51.45","PICKLE LAKE A","6016527","2012-02-08 20:00","2012","02","08","20:00","-9.1","","-13.1","","73","","","","29","","11","","24.1","","96.42","","","","-15","","Mainly Clear"
"-90.21","51.45","PICKLE LAKE A","6016527","2012-02-08 21:00","2012","02","08","21:00","-8.7","","-12.6","","73","","","","28","","7","","24.1","","96.40","","","","-13","","Snow"
"-90.21","51.45","PICKLE LAKE A","6016527","2012-02-08 22:00","2012","02","08","22:00"
"-90.21","51.45","PICKLE LAKE A","6016527","2012-02-08 23:00","2012","02","08","23:00"
"-90.21","51.45","PICKLE LAKE A","6016527","2012-02-09 00:00","2012","02","09","00:00"
"-90.21","51.45","PICKLE LAKE A","6016527","2012-02-09 01:00","2012","02","09","01:00"
"-90.21","51.45","PICKLE LAKE A","6016527","2012-02-09 02:00","2012","02","09","02:00"
"-90.21","51.45","PICKLE LAKE A","6016527","2012-02-09 03:00","2012","02","09","03:00"
"-90.21","51.45","PICKLE LAKE A","6016527","2012-02-09 04:00","2012","02","09","04:00"
"-90.21","51.45","PICKLE LAKE A","6016527","2012-02-09 05:00","2012","02","09","05:00"
"-90.21","51.45","PICKLE LAKE A","6016527","2012-02-09 06:00","2012","02","09","06:00","-11.7","","-13.6","","86","","","","34","","7","","16.1","","96.11","","","","-16","","Snow"
"-90.21","51.45","PICKLE LAKE A","6016527","2012-02-09 07:00","2012","02","09","07:00","-13.0","","-15.2","","84","","","","34","","19","","16.1","","96.16","","","","-21","","Snow"
"-90.21","51.45","PICKLE LAKE A","6016527","2012-02-09 08:00","2012","02","09","08:00","-16.3","","-21.4","","65","","","","33","","22","","19.3","","96.26","","","","-26","","Snow"
"-90.21","51.45","PICKLE LAKE A","6016527","2012-02-09 09:00","2012","02","09","09:00","-18.0","","-26.6","","47","","","","33","","19","","24.1","","96.33","","","","-28","","Mostly Cloudy"
"-90.21","51.45","PICKLE LAKE A","6016527","2012-02-09 10:00","2012","02","09","10:00","-19.1","","-26.2","","53","","","","32","","15","","24.1","","96.39","","","","-28","","Mostly Cloudy"
"-90.21","51.45","PICKLE LAKE A","6016527","2012-02-09 11:00","2012","02","09","11:00","-19.6","","-27.0","","52","","","","33","","11","","24.1","","96.45","","","","-27","","Mostly Cloudy"
"-90.21","51.45","PICKLE LAKE A","6016527","2012-02-09 12:00","2012","02","09","12:00","-19.7","","-26.7","","54","","","","33","","13","","24.1","","96.52","","","","-28","","Mostly Cloudy"
"-90.21","51.45","PICKLE LAKE A","6016527","2012-02-09 13:00","2012","02","09","13:00","-19.3","","-26.7","","52","","","","31","","15","","24.1","","96.55","","","","-28","","Mainly Clear"
"-90.21","51.45","PICKLE LAKE A","6016527","2012-02-09 14:00","2012","02","09","14:00","-18.1","","-26.4","","48","","","","34","","13","","24.1","","96.55","","","","-26","","Mainly Clear"
"-90.21","51.45","PICKLE LAKE A","6016527","2012-02-09 15:00","2012","02","09","15:00","-17.7","","-26.3","","47","","","","32","","11","","24.1","","96.62","","","","-25","","Mostly Cloudy"
"-90.21","51.45","PICKLE LAKE A","6016527","2012-02-09 16:00","2012","02","09","16:00","-18.3","","-26.7","","48","","","","31","","19","","24.1","","96.72","","","","-28","","Mostly Cloudy"
"-90.21","51.45","PICKLE LAKE A","6016527","2012-02-09 17:00","2012","02","09","17:00","-19.4","","-26.9","","51","","","","30","","19","","24.1","","96.84","","","","-29","","Mostly Cloudy"
"-90.21","51.45","PICKLE LAKE A","6016527","2012-02-09 18:00","2012","02","09","18:00","-20.9","","-27.7","","54","","","","34","","19","","24.1","","96.98","","","","-31","","Snow"
"-90.21","51.45","PICKLE LAKE A","6016527","2012-02-09 19:00","2012","02","09","19:00","-22.2","","-28.5","","57","","","","35","","19","","19.3","","97.11","","","","-33","","Snow"
"-90.21","51.45","PICKLE LAKE A","6016527","2012-02-09 20:00","2012","02","09","20:00","-23.3","","-29.4","","57","","","","34","","22","","19.3","","97.24","","","","-35","","Snow"
"-90.21","51.45","PICKLE LAKE A","6016527","2012-02-09 21:00","2012","02","09","21:00","-24.5","","-30.8","","56","","","","34","","26","","19.3","","97.36","","","","-38","","Snow"
"-90.21","51.45","PICKLE LAKE A","6016527","2012-02-09 22:00","2012","02","09","22:00"
"-90.21","51.45","PICKLE LAKE A","6016527","2012-02-09 23:00","2012","02","09","23:00"
"-90.21","51.45","PICKLE LAKE A","6016527","2012-02-10 00:00","2012","02","10","00:00"
"-90.21","51.45","PICKLE LAKE A","6016527","2012-02-10 01:00","2012","02","10","01:00"
"-90.21","51.45","PICKLE LAKE A","6016527","2012-02-10 02:00","2012","02","10","02:00"
"-90.21","51.45","PICKLE LAKE A","6016527","2012-02-10 03:00","2012","02","10","03:00"
"-90.21","51.45","PICKLE LAKE A","6016527","2012-02-10 04:00","2012","02","10","04:00"
"-90.21","51.45","PICKLE LAKE A","6016527","2012-02-10 05:00","2012","02","10","05:00"
"-90.21","51.45","PICKLE LAKE A","6016527","2012-02-10 06:00","2012","02","10","06:00","-28.5","","-33.1","","65","","","","29","","9","","24.1","","97.65","","","","-37","","Clear"
"-90.21","51.45","PICKLE LAKE A","6016527","2012-02-10 07:00","2012","02","10","07:00","-28.9","","-33.4","","65","","","","29","","11","","24.1","","97.67","","","","-38","","Clear"
"-90.21","51.45","PICKLE LAKE A","6016527","2012-02-10 08:00","2012","02","10","08:00","-29.1","","-33.4","","66","","","","27","","13","","24.1","","97.71","","","","-39","","Clear"
"-90.21","51.45","PICKLE LAKE A","6016527","2012-02-10 09:00","2012","02","10","09:00","-28.8","","-33.3","","65","","","","27","","11","","24.1","","97.73","","","","-38","","Clear"
"-90.21","51.45","PICKLE LAKE A","6016527","2012-02-10 10:00","2012","02","10","10:00","-28.1","","-32.9","","63","","","","27","","11","","24.1","","97.77","","","","-37","","Clear"
"-90.21","51.45","PICKLE LAKE A","6016527","2012-02-10 11:00","2012","02","10","11:00","-25.5","","-31.3","","58","","","","26","","15","","24.1","","97.80","","","","-36","","Clear"
"-90.21","51.45","PICKLE LAKE A","6016527","2012-02-10 12:00","2012","02","10","12:00","-23.0","","-30.2","","52","","","","28","","15","","24.1","","97.78","","","","-33","","Mainly Clear"
"-90.21","51.45","PICKLE LAKE A","6016527","2012-02-10 13:00","2012","02","10","13:00","-20.1","","-28.8","","46","","","","30","","19","","24.1","","97.74","","","","-30","","Mainly Clear"
"-90.21","51.45","PICKLE LAKE A","6016527","2012-02-10 14:00","2012","02","10","14:00","-19.1","","-27.6","","47","","","","29","","15","","24.1","","97.75","","","","-28","","Mostly Cloudy"
"-90.21","51.45","PICKLE LAKE A","6016527","2012-02-10 15:00","2012","02","10","15:00","-19.5","","-27.0","","51","","","","30","","22","","24.1","","97.77","","","","-30","","Mostly Cloudy"
"-90.21","51.45","PICKLE LAKE A","6016527","2012-02-10 16:00","2012","02","10","16:00","-19.8","","-27.0","","53","","","","32","","22","","24.1","","97.82","","","","-31","","Mostly Cloudy"
"-90.21","51.45","PICKLE LAKE A","6016527","2012-02-10 17:00","2012","02","10","17:00","-20.4","","-27.0","","56","","","","30","","19","","24.1","","97.81","","","","-31","","Mostly Cloudy"
"-90.21","51.45","PICKLE LAKE A","6016527","2012-02-10 18:00","2012","02","10","18:00","-20.4","","-26.8","","57","","","","29","","11","","24.1","","97.79","","","","-28","","Mostly Cloudy"
"-90.21","51.45","PICKLE LAKE A","6016527","2012-02-10 19:00","2012","02","10","19:00","-20.1","","-26.2","","58","","","","29","","11","","24.1","","97.82","","","","-28","","Mostly Cloudy"
"-90.21","51.45","PICKLE LAKE A","6016527","2012-02-10 20:00","2012","02","10","20:00","-19.9","","-25.8","","59","","","","29","","11","","24.1","","97.78","","","","-28","","Mainly Clear"
"-90.21","51.45","PICKLE LAKE A","6016527","2012-02-10 21:00","2012","02","10","21:00","-18.8","","-24.9","","59","","","","29","","15","","24.1","","97.74","","","","-28","","Mainly Clear"
"-90.21","51.45","PICKLE LAKE A","6016527","2012-02-10 22:00","2012","02","10","22:00"
"-90.21","51.45","PICKLE LAKE A","6016527","2012-02-10 23:00","2012","02","10","23:00"
"-90.21","51.45","PICKLE LAKE A","6016527","2012-02-11 00:00","2012","02","11","00:00"
"-90.21","51.45","PICKLE LAKE A","6016527","2012-02-11 01:00","2012","02","11","01:00"
"-90.21","51.45","PICKLE LAKE A","6016527","2012-02-11 02:00","2012","02","11","02:00"
"-90.21","51.45","PICKLE LAKE A","6016527","2012-02-11 03:00","2012","02","11","03:00"
"-90.21","51.45","PICKLE LAKE A","6016527","2012-02-11 04:00","2012","02","11","04:00"
"-90.21","51.45","PICKLE LAKE A","6016527","2012-02-11 05:00","2012","02","11","05:00"
"-90.21","51.45","PICKLE LAKE A","6016527","2012-02-11 06:00","2012","02","11","06:00","-21.5","","-26.3","","65","","","","28","","13","","24.1","","97.61","","","","-30","","Snow"
"-90.21","51.45","PICKLE LAKE A","6016527","2012-02-11 07:00","2012","02","11","07:00","-22.0","","-26.4","","67","","","","27","","13","","19.3","","97.60","","","","-31","","Snow"
"-90.21","51.45","PICKLE LAKE A","6016527","2012-02-11 08:00","2012","02","11","08:00","-21.9","","-26.1","","69","","","","27","","15","","19.3","","97.55","","","","-31","","Snow"
"-90.21","51.45","PICKLE LAKE A","6016527","2012-02-11 09:00","2012","02","11","09:00","-21.1","","-24.8","","72","","","","26","","13","","4.8","","97.47","","","","-30","","Snow"
"-90.21","51.45","PICKLE LAKE A","6016527","2012-02-11 10:00","2012","02","11","10:00","-20.1","","-23.9","","72","","","","26","","15","","4.8","","97.39","","","","-29","","Snow"
"-90.21","51.45","PICKLE LAKE A","6016527","2012-02-11 11:00","2012","02","11","11:00","-17.7","","-21.2","","74","","","","27","","17","","6.4","","97.36","","","","-27","","Snow"
"-90.21","51.45","PICKLE LAKE A","6016527","2012-02-11 12:00","2012","02","11","12:00","-15.5","","-19.5","","71","","","","28","","22","","24.1","","97.20","","","","-25","","Snow"
"-90.21","51.45","PICKLE LAKE A","6016527","2012-02-11 13:00","2012","02","11","13:00","-12.7","","-19.6","","56","","","","29","","26","","24.1","","97.12","","","","-22","","Mostly Cloudy"
"-90.21","51.45","PICKLE LAKE A","6016527","2012-02-11 14:00","2012","02","11","14:00","-12.3","","-21.3","","47","","","","29","","22","","24.1","","97.05","","","","-21","","Mostly Cloudy"
"-90.21","51.45","PICKLE LAKE A","6016527","2012-02-11 15:00","2012","02","11","15:00","-11.4","","-21.1","","45","","","","28","","24","","24.1","","97.01","","","","-20","","Mostly Cloudy"
"-90.21","51.45","PICKLE LAKE A","6016527","2012-02-11 16:00","2012","02","11","16:00","-10.0","","-21.4","","39","","","","27","","22","","24.1","","96.99","","","","-18","","Mostly Cloudy"
"-90.21","51.45","PICKLE LAKE A","6016527","2012-02-11 17:00","2012","02","11","17:00","-9.6","","-21.6","","37","","","","28","","26","","24.1","","96.98","","","","-18","","Mainly Clear"
"-90.21","51.45","PICKLE LAKE A","6016527","2012-02-11 18:00","2012","02","11","18:00","-10.0","","-21.8","","37","","","","27","","22","","24.1","","96.97","","","","-18","","Mostly Cloudy"
"-90.21","51.45","PICKLE LAKE A","6016527","2012-02-11 19:00","2012","02","11","19:00","-10.6","","-21.6","","40","","","","28","","22","","24.1","","97.01","","","","-19","","Mostly Cloudy"
"-90.21","51.45","PICKLE LAKE A","6016527","2012-02-11 20:00","2012","02","11","20:00","-11.2","","-22.1","","40","","","","28","","19","","24.1","","97.05","","","","-19","","Mainly Clear"
"-90.21","51.45","PICKLE LAKE A","6016527","2012-02-11 21:00","2012","02","11","21:00","-11.7","","-22.6","","40","","","","28","","17","","24.1","","97.03","","","","-19","","Mainly Clear"
"-90.21","51.45","PICKLE LAKE A","6016527","2012-02-11 22:00","2012","02","11","22:00"
"-90.21","51.45","PICKLE LAKE A","6016527","2012-02-11 23:00","2012","02","11","23:00"
"-90.21","51.45","PICKLE LAKE A","6016527","2012-02-12 00:00","2012","02","12","00:00"
"-90.21","51.45","PICKLE LAKE A","6016527","2012-02-12 01:00","2012","02","12","01:00"
"-90.21","51.45","PICKLE LAKE A","6016527","2012-02-12 02:00","2012","02","12","02:00"
"-90.21","51.45","PICKLE LAKE A","6016527","2012-02-12 03:00","2012","02","12","03:00"
"-90.21","51.45","PICKLE LAKE A","6016527","2012-02-12 04:00","2012","02","12","04:00"
"-90.21","51.45","PICKLE LAKE A","6016527","2012-02-12 05:00","2012","02","12","05:00"
"-90.21","51.45","PICKLE LAKE A","6016527","2012-02-12 06:00","2012","02","12","06:00","-15.2","","-23.3","","50","","","","26","","15","","24.1","","96.87","","","","-23","","Clear"
"-90.21","51.45","PICKLE LAKE A","6016527","2012-02-12 07:00","2012","02","12","07:00","-15.2","","-23.7","","48","","","","25","","15","","24.1","","96.83","","","","-23","","Mainly Clear"
"-90.21","51.45","PICKLE LAKE A","6016527","2012-02-12 08:00","2012","02","12","08:00","-15.5","","-24.7","","45","","","","25","","15","","24.1","","96.81","","","","-24","","Mainly Clear"
"-90.21","51.45","PICKLE LAKE A","6016527","2012-02-12 09:00","2012","02","12","09:00","-15.1","","-24.9","","43","","","","26","","19","","24.1","","96.79","","","","-24","","Mostly Cloudy"
"-90.21","51.45","PICKLE LAKE A","6016527","2012-02-12 10:00","2012","02","12","10:00","-13.5","","-24.5","","39","","","","26","","19","","24.1","","96.77","","","","-22","","Mostly Cloudy"
"-90.21","51.45","PICKLE LAKE A","6016527","2012-02-12 11:00","2012","02","12","11:00","-12.0","","-23.5","","38","","","","26","","17","","24.1","","96.72","","","","-20","","Mostly Cloudy"
"-90.21","51.45","PICKLE LAKE A","6016527","2012-02-12 12:00","2012","02","12","12:00","-10.4","","-22.4","","37","","","","26","","15","","24.1","","96.68","","","","-17","","Mostly Cloudy"
"-90.21","51.45","PICKLE LAKE A","6016527","2012-02-12 13:00","2012","02","12","13:00","-7.5","","-21.8","","31","","","","26","","17","","24.1","","96.61","","","","-14","","Mostly Cloudy"
"-90.21","51.45","PICKLE LAKE A","6016527","2012-02-12 14:00","2012","02","12","14:00","-6.2","","-20.6","","31","","","","26","","17","","24.1","","96.54","","","","-12","","Mostly Cloudy"
"-90.21","51.45","PICKLE LAKE A","6016527","2012-02-12 15:00","2012","02","12","15:00","-4.9","","-20.5","","28","","","","26","","17","","24.1","","96.48","","","","-11","","Mostly Cloudy"
"-90.21","51.45","PICKLE LAKE A","6016527","2012-02-12 16:00","2012","02","12","16:00","-4.6","","-20.5","","28","","","","24","","17","","24.1","","96.45","","","","-10","","Mostly Cloudy"
"-90.21","51.45","PICKLE LAKE A","6016527","2012-02-12 17:00","2012","02","12","17:00","-3.9","","-20.9","","25","","","","26","","17","","24.1","","96.37","","","","-10","","Mostly Cloudy"
"-90.21","51.45","PICKLE LAKE A","6016527","2012-02-12 18:00","2012","02","12","18:00","-4.7","","-20.6","","28","","","","24","","13","","24.1","","96.36","","","","-10","","Mainly Clear"
"-90.21","51.45","PICKLE LAKE A","6016527","2012-02-12 19:00","2012","02","12","19:00","-5.9","","-21.0","","29","","","","25","","17","","24.1","","96.32","","","","-12","","Mainly Clear"
"-90.21","51.45","PICKLE LAKE A","6016527","2012-02-12 20:00","2012","02","12","20:00","-6.9","","-21.8","","29","","","","24","","17","","24.1","","96.30","","","","-13","","Mainly Clear"
"-90.21","51.45","PICKLE LAKE A","6016527","2012-02-12 21:00","2012","02","12","21:00","-7.5","","-21.8","","31","","","","24","","13","","24.1","","96.27","","","","-13","","Mainly Clear"
"-90.21","51.45","PICKLE LAKE A","6016527","2012-02-12 22:00","2012","02","12","22:00"
"-90.21","51.45","PICKLE LAKE A","6016527","2012-02-12 23:00","2012","02","12","23:00"
"-90.21","51.45","PICKLE LAKE A","6016527","2012-02-13 00:00","2012","02","13","00:00"
"-90.21","51.45","PICKLE LAKE A","6016527","2012-02-13 01:00","2012","02","13","01:00"
"-90.21","51.45","PICKLE LAKE A","6016527","2012-02-13 02:00","2012","02","13","02:00"
"-90.21","51.45","PICKLE LAKE A","6016527","2012-02-13 03:00","2012","02","13","03:00"
"-90.21","51.45","PICKLE LAKE A","6016527","2012-02-13 04:00","2012","02","13","04:00"
"-90.21","51.45","PICKLE LAKE A","6016527","2012-02-13 05:00","2012","02","13","05:00"
"-90.21","51.45","PICKLE LAKE A","6016527","2012-02-13 06:00","2012","02","13","06:00","-13.5","","-20.9","","54","","","","22","","11","","24.1","","96.01","","","","-20","","Mainly Clear"
"-90.21","51.45","PICKLE LAKE A","6016527","2012-02-13 07:00","2012","02","13","07:00","-14.3","","-21.0","","57","","","","21","","11","","24.1","","95.97","","","","-21","","Mainly Clear"
"-90.21","51.45","PICKLE LAKE A","6016527","2012-02-13 08:00","2012","02","13","08:00","-15.2","","-20.9","","62","","","","21","","11","","24.1","","95.93","","","","-22","","Mainly Clear"
"-90.21","51.45","PICKLE LAKE A","6016527","2012-02-13 09:00","2012","02","13","09:00","-15.3","","-20.8","","63","","","","22","","9","","24.1","","95.92","","","","-21","","Mainly Clear"
"-90.21","51.45","PICKLE LAKE A","6016527","2012-02-13 10:00","2012","02","13","10:00","-12.7","","-19.2","","58","","","","24","","13","","24.1","","95.89","","","","-20","","Mainly Clear"
"-90.21","51.45","PICKLE LAKE A","6016527","2012-02-13 11:00","2012","02","13","11:00","-11.2","","-18.4","","55","","","","26","","7","","24.1","","95.85","","","","-15","","Mainly Clear"
"-90.21","51.45","PICKLE LAKE A","6016527","2012-02-13 12:00","2012","02","13","12:00","-8.5","","-15.9","","55","","","","27","","9","","24.1","","95.81","","","","-13","","Mainly Clear"
"-90.21","51.45","PICKLE LAKE A","6016527","2012-02-13 13:00","2012","02","13","13:00","-5.6","","-13.1","","55","","","","24","","17","","24.1","","95.73","","","","-12","","Mainly Clear"
"-90.21","51.45","PICKLE LAKE A","6016527","2012-02-13 14:00","2012","02","13","14:00","-4.0","","-12.6","","51","","","","25","","11","","24.1","","95.67","","","","-8","","Mainly Clear"
"-90.21","51.45","PICKLE LAKE A","6016527","2012-02-13 15:00","2012","02","13","15:00","-2.9","","-12.0","","49","","","","25","","15","","24.1","","95.64","","","","-8","","Mainly Clear"
"-90.21","51.45","PICKLE LAKE A","6016527","2012-02-13 16:00","2012","02","13","16:00","-2.1","","-11.8","","47","","","","26","","17","","24.1","","95.64","","","","-7","","Mainly Clear"
"-90.21","51.45","PICKLE LAKE A","6016527","2012-02-13 17:00","2012","02","13","17:00","-1.6","","-11.5","","47","","","","24","","17","","24.1","","95.58","","","","-7","","Mainly Clear"
"-90.21","51.45","PICKLE LAKE A","6016527","2012-02-13 18:00","2012","02","13","18:00","-2.2","","-11.4","","49","","","","25","","7","","24.1","","95.58","","","","-5","","Mainly Clear"
"-90.21","51.45","PICKLE LAKE A","6016527","2012-02-13 19:00","2012","02","13","19:00","-3.2","","-11.4","","53","","","","25","","4","","24.1","","95.59","","","","-5","","Mainly Clear"
"-90.21","51.45","PICKLE LAKE A","6016527","2012-02-13 20:00","2012","02","13","20:00","-5.4","","-12.2","","59","","","","24","","7","","24.1","","95.58","","","","-9","","Mainly Clear"
"-90.21","51.45","PICKLE LAKE A","6016527","2012-02-13 21:00","2012","02","13","21:00","-5.6","","-12.0","","61","","","","24","","7","","24.1","","95.56","","","","-9","","Mainly Clear"
"-90.21","51.45","PICKLE LAKE A","6016527","2012-02-13 22:00","2012","02","13","22:00"
"-90.21","51.45","PICKLE LAKE A","6016527","2012-02-13 23:00","2012","02","13","23:00"
"-90.21","51.45","PICKLE LAKE A","6016527","2012-02-14 00:00","2012","02","14","00:00"
"-90.21","51.45","PICKLE LAKE A","6016527","2012-02-14 01:00","2012","02","14","01:00"
"-90.21","51.45","PICKLE LAKE A","6016527","2012-02-14 02:00","2012","02","14","02:00"
"-90.21","51.45","PICKLE LAKE A","6016527","2012-02-14 03:00","2012","02","14","03:00"
"-90.21","51.45","PICKLE LAKE A","6016527","2012-02-14 04:00","2012","02","14","04:00"
"-90.21","51.45","PICKLE LAKE A","6016527","2012-02-14 05:00","2012","02","14","05:00"
"-90.21","51.45","PICKLE LAKE A","6016527","2012-02-14 06:00","2012","02","14","06:00","-12.9","","-14.6","","87","","","","24","","6","","24.1","","95.60","","","","-17","","Mainly Clear"
"-90.21","51.45","PICKLE LAKE A","6016527","2012-02-14 07:00","2012","02","14","07:00","-12.8","","-14.5","","87","","","","24","","6","","24.1","","95.61","","","","-17","","Mainly Clear"
"-90.21","51.45","PICKLE LAKE A","6016527","2012-02-14 08:00","2012","02","14","08:00","-14.3","","-15.6","","90","","","","24","","6","","24.1","","95.61","","","","-18","","Mainly Clear"
"-90.21","51.45","PICKLE LAKE A","6016527","2012-02-14 09:00","2012","02","14","09:00","-13.4","","-14.4","","92","","","","25","","4","","24.1","","95.65","","","","-16","","Mainly Clear"
"-90.21","51.45","PICKLE LAKE A","6016527","2012-02-14 10:00","2012","02","14","10:00","-11.7","","-14.3","","81","","","","","","0","","24.1","","95.68","","","","","","Mainly Clear"
"-90.21","51.45","PICKLE LAKE A","6016527","2012-02-14 11:00","2012","02","14","11:00","-10.2","","-13.3","","78","","","","28","","4","","24.1","","95.71","","","","-13","","Mainly Clear"
"-90.21","51.45","PICKLE LAKE A","6016527","2012-02-14 12:00","2012","02","14","12:00","-7.8","","-12.4","","69","","","","","","0","","24.1","","95.74","","","","","","Mainly Clear"
"-90.21","51.45","PICKLE LAKE A","6016527","2012-02-14 13:00","2012","02","14","13:00","-5.7","","-12.0","","61","","","","","","0","","24.1","","95.72","","","","","","Mainly Clear"
"-90.21","51.45","PICKLE LAKE A","6016527","2012-02-14 14:00","2012","02","14","14:00","-3.4","","-10.9","","56","","","","36","","4","","24.1","","95.73","","","","-5","","Mainly Clear"
"-90.21","51.45","PICKLE LAKE A","6016527","2012-02-14 15:00","2012","02","14","15:00","-1.2","","-10.4","","50","","","","","","0","","24.1","","95.74","","","","","","Mainly Clear"
"-90.21","51.45","PICKLE LAKE A","6016527","2012-02-14 16:00","2012","02","14","16:00","-0.7","","-9.9","","50","","","","","","0","","24.1","","95.76","","","","","","Mainly Clear"
"-90.21","51.45","PICKLE LAKE A","6016527","2012-02-14 17:00","2012","02","14","17:00","-0.8","","-9.8","","50","","","","20","","4","","24.1","","95.79","","","","-2","","Mainly Clear"
"-90.21","51.45","PICKLE LAKE A","6016527","2012-02-14 18:00","2012","02","14","18:00","-2.4","","-9.9","","56","","","","20","","6","","24.1","","95.84","","","","-5","","Mainly Clear"
"-90.21","51.45","PICKLE LAKE A","6016527","2012-02-14 19:00","2012","02","14","19:00","-3.6","","-10.2","","60","","","","18","","4","","24.1","","95.91","","","","-5","","Mainly Clear"
"-90.21","51.45","PICKLE LAKE A","6016527","2012-02-14 20:00","2012","02","14","20:00","-4.1","","-10.6","","61","","","","18","","4","","24.1","","95.93","","","","-6","","Mainly Clear"
"-90.21","51.45","PICKLE LAKE A","6016527","2012-02-14 21:00","2012","02","14","21:00","-5.6","","-10.9","","66","","","","18","","6","","24.1","","95.95","","","","-8","","Mainly Clear"
"-90.21","51.45","PICKLE LAKE A","6016527","2012-02-14 22:00","2012","02","14","22:00"
"-90.21","51.45","PICKLE LAKE A","6016527","2012-02-14 23:00","2012","02","14","23:00"
"-90.21","51.45","PICKLE LAKE A","6016527","2012-02-15 00:00","2012","02","15","00:00"
"-90.21","51.45","PICKLE LAKE A","6016527","2012-02-15 01:00","2012","02","15","01:00"
"-90.21","51.45","PICKLE LAKE A","6016527","2012-02-15 02:00","2012","02","15","02:00"
"-90.21","51.45","PICKLE LAKE A","6016527","2012-02-15 03:00","2012","02","15","03:00"
"-90.21","51.45","PICKLE LAKE A","6016527","2012-02-15 04:00","2012","02","15","04:00"
"-90.21","51.45","PICKLE LAKE A","6016527","2012-02-15 05:00","2012","02","15","05:00"
"-90.21","51.45","PICKLE LAKE A","6016527","2012-02-15 06:00","2012","02","15","06:00","-6.3","","-9.3","","79","","","","19","","6","","24.1","","96.20","","","","-9","","Cloudy"
"-90.21","51.45","PICKLE LAKE A","6016527","2012-02-15 07:00","2012","02","15","07:00","-6.2","","-9.2","","79","","","","18","","6","","24.1","","96.25","","","","-9","","Cloudy"
"-90.21","51.45","PICKLE LAKE A","6016527","2012-02-15 08:00","2012","02","15","08:00","-6.0","","-8.9","","80","","","","19","","6","","24.1","","96.29","","","","-9","","Cloudy"
"-90.21","51.45","PICKLE LAKE A","6016527","2012-02-15 09:00","2012","02","15","09:00","-6.1","","-8.9","","81","","","","18","","6","","24.1","","96.33","","","","-9","","Mostly Cloudy"
"-90.21","51.45","PICKLE LAKE A","6016527","2012-02-15 10:00","2012","02","15","10:00","-4.7","","-8.1","","77","","","","17","","4","","24.1","","96.35","","","","-6","","Cloudy"
"-90.21","51.45","PICKLE LAKE A","6016527","2012-02-15 11:00","2012","02","15","11:00","-3.1","","-7.4","","72","","","","","","0","","24.1","","96.37","","","","","","Mostly Cloudy"
"-90.21","51.45","PICKLE LAKE A","6016527","2012-02-15 12:00","2012","02","15","12:00","-2.2","","-7.2","","69","","","","18","","4","","24.1","","96.39","","","","-4","","Mostly Cloudy"
"-90.21","51.45","PICKLE LAKE A","6016527","2012-02-15 13:00","2012","02","15","13:00","-0.6","","-6.3","","65","","","","18","","6","","24.1","","96.37","","","","-3","","Mostly Cloudy"
"-90.21","51.45","PICKLE LAKE A","6016527","2012-02-15 14:00","2012","02","15","14:00","0.3","","-6.0","","63","","","","18","","4","","24.1","","96.36","","","","","","Cloudy"
"-90.21","51.45","PICKLE LAKE A","6016527","2012-02-15 15:00","2012","02","15","15:00","0.8","","-6.0","","60","","","","19","","6","","24.1","","96.34","","","","","","Cloudy"
"-90.21","51.45","PICKLE LAKE A","6016527","2012-02-15 16:00","2012","02","15","16:00","1.7","","-5.2","","60","","","","21","","9","","24.1","","96.32","","","","","","Cloudy"
"-90.21","51.45","PICKLE LAKE A","6016527","2012-02-15 17:00","2012","02","15","17:00","1.9","","-5.3","","59","","","","21","","9","","24.1","","96.34","","","","","","Mostly Cloudy"
"-90.21","51.45","PICKLE LAKE A","6016527","2012-02-15 18:00","2012","02","15","18:00","1.3","","-5.3","","61","","","","","","0","","24.1","","96.35","","","","","","Cloudy"
"-90.21","51.45","PICKLE LAKE A","6016527","2012-02-15 19:00","2012","02","15","19:00","0.5","","-5.3","","65","","","","19","","4","","24.1","","96.40","","","","","","Cloudy"
"-90.21","51.45","PICKLE LAKE A","6016527","2012-02-15 20:00","2012","02","15","20:00","-0.1","","-5.6","","66","","","","18","","4","","24.1","","96.39","","","","-1","","Cloudy"
"-90.21","51.45","PICKLE LAKE A","6016527","2012-02-15 21:00","2012","02","15","21:00","-0.2","","-4.7","","72","","","","21","","4","","24.1","","96.41","","","","-1","","Snow"
"-90.21","51.45","PICKLE LAKE A","6016527","2012-02-15 22:00","2012","02","15","22:00"
"-90.21","51.45","PICKLE LAKE A","6016527","2012-02-15 23:00","2012","02","15","23:00"
"-90.21","51.45","PICKLE LAKE A","6016527","2012-02-16 00:00","2012","02","16","00:00"
"-90.21","51.45","PICKLE LAKE A","6016527","2012-02-16 01:00","2012","02","16","01:00"
"-90.21","51.45","PICKLE LAKE A","6016527","2012-02-16 02:00","2012","02","16","02:00"
"-90.21","51.45","PICKLE LAKE A","6016527","2012-02-16 03:00","2012","02","16","03:00"
"-90.21","51.45","PICKLE LAKE A","6016527","2012-02-16 04:00","2012","02","16","04:00"
"-90.21","51.45","PICKLE LAKE A","6016527","2012-02-16 05:00","2012","02","16","05:00"
"-90.21","51.45","PICKLE LAKE A","6016527","2012-02-16 06:00","2012","02","16","06:00","-2.9","","-3.0","","99","","","","","","0","","3.2","","96.23","","","","","","Snow"
"-90.21","51.45","PICKLE LAKE A","6016527","2012-02-16 07:00","2012","02","16","07:00","-2.9","","-3.1","","99","","","","","","0","","9.7","","96.21","","","","","","Snow"
"-90.21","51.45","PICKLE LAKE A","6016527","2012-02-16 08:00","2012","02","16","08:00","-2.8","","-3.2","","97","","","","34","","9","","8.0","","96.23","","","","-6","","Snow"
"-90.21","51.45","PICKLE LAKE A","6016527","2012-02-16 09:00","2012","02","16","09:00","-3.3","","-4.1","","94","","","","32","","13","","16.1","","96.25","","","","-8","","Snow"
"-90.21","51.45","PICKLE LAKE A","6016527","2012-02-16 10:00","2012","02","16","10:00","-4.3","","-5.5","","91","","","","33","","15","","16.1","","96.28","","","","-10","","Snow"
"-90.21","51.45","PICKLE LAKE A","6016527","2012-02-16 11:00","2012","02","16","11:00","-5.0","","-6.1","","92","","","","33","","13","","8.0","","96.31","","","","-10","","Snow"
"-90.21","51.45","PICKLE LAKE A","6016527","2012-02-16 12:00","2012","02","16","12:00","-4.7","","-6.0","","91","","","","33","","15","","4.8","","96.32","","","","-10","","Snow"
"-90.21","51.45","PICKLE LAKE A","6016527","2012-02-16 13:00","2012","02","16","13:00","-4.4","","-6.2","","87","","","","33","","13","","6.4","","96.33","","","","-9","","Snow"
"-90.21","51.45","PICKLE LAKE A","6016527","2012-02-16 14:00","2012","02","16","14:00","-4.6","","-6.6","","86","","","","33","","15","","9.7","","96.35","","","","-10","","Snow"
"-90.21","51.45","PICKLE LAKE A","6016527","2012-02-16 15:00","2012","02","16","15:00","-4.7","","-6.8","","85","","","","32","","19","","16.1","","96.37","","","","-11","","Snow"
"-90.21","51.45","PICKLE LAKE A","6016527","2012-02-16 16:00","2012","02","16","16:00","-5.0","","-7.5","","83","","","","33","","13","","19.3","","96.42","","","","-10","","Snow"
"-90.21","51.45","PICKLE LAKE A","6016527","2012-02-16 17:00","2012","02","16","17:00","-5.7","","-7.9","","84","","","","34","","15","","19.3","","96.48","","","","-11","","Snow"
"-90.21","51.45","PICKLE LAKE A","6016527","2012-02-16 18:00","2012","02","16","18:00","-6.3","","-8.1","","87","","","","34","","13","","6.4","","96.53","","","","-12","","Snow"
"-90.21","51.45","PICKLE LAKE A","6016527","2012-02-16 19:00","2012","02","16","19:00","-6.8","","-8.0","","91","","","","32","","13","","6.4","","96.62","","","","-12","","Snow"
"-90.21","51.45","PICKLE LAKE A","6016527","2012-02-16 20:00","2012","02","16","20:00","-8.0","","-9.4","","90","","","","32","","15","","6.4","","96.66","","","","-14","","Snow"
"-90.21","51.45","PICKLE LAKE A","6016527","2012-02-16 21:00","2012","02","16","21:00","-8.4","","-10.0","","88","","","","33","","11","","19.3","","96.70","","","","-14","","Snow"
"-90.21","51.45","PICKLE LAKE A","6016527","2012-02-16 22:00","2012","02","16","22:00"
"-90.21","51.45","PICKLE LAKE A","6016527","2012-02-16 23:00","2012","02","16","23:00"
"-90.21","51.45","PICKLE LAKE A","6016527","2012-02-17 00:00","2012","02","17","00:00"
"-90.21","51.45","PICKLE LAKE A","6016527","2012-02-17 01:00","2012","02","17","01:00"
"-90.21","51.45","PICKLE LAKE A","6016527","2012-02-17 02:00","2012","02","17","02:00"
"-90.21","51.45","PICKLE LAKE A","6016527","2012-02-17 03:00","2012","02","17","03:00"
"-90.21","51.45","PICKLE LAKE A","6016527","2012-02-17 04:00","2012","02","17","04:00"
"-90.21","51.45","PICKLE LAKE A","6016527","2012-02-17 05:00","2012","02","17","05:00"
"-90.21","51.45","PICKLE LAKE A","6016527","2012-02-17 06:00","2012","02","17","06:00","-11.7","","-13.1","","89","","","","33","","7","","24.1","","96.88","","","","-16","","Snow"
"-90.21","51.45","PICKLE LAKE A","6016527","2012-02-17 07:00","2012","02","17","07:00","-12.4","","-13.9","","89","","","","35","","13","","24.1","","96.91","","","","-19","","Snow"
"-90.21","51.45","PICKLE LAKE A","6016527","2012-02-17 08:00","2012","02","17","08:00","-12.8","","-14.9","","84","","","","35","","7","","24.1","","96.98","","","","-17","","Snow"
"-90.21","51.45","PICKLE LAKE A","6016527","2012-02-17 09:00","2012","02","17","09:00","-12.7","","-15.3","","81","","","","33","","9","","24.1","","97.00","","","","-18","","Snow"
"-90.21","51.45","PICKLE LAKE A","6016527","2012-02-17 10:00","2012","02","17","10:00","-12.4","","-15.3","","79","","","","34","","6","","24.1","","97.03","","","","-16","","Snow"
"-90.21","51.45","PICKLE LAKE A","6016527","2012-02-17 11:00","2012","02","17","11:00","-12.0","","-15.5","","75","","","","34","","11","","24.1","","97.06","","","","-18","","Snow"
"-90.21","51.45","PICKLE LAKE A","6016527","2012-02-17 12:00","2012","02","17","12:00","-11.4","","-15.6","","71","","","","34","","6","","24.1","","97.07","","","","-15","","Cloudy"
"-90.21","51.45","PICKLE LAKE A","6016527","2012-02-17 13:00","2012","02","17","13:00","-11.2","","-15.3","","72","","","","33","","9","","24.1","","97.07","","","","-16","","Cloudy"
"-90.21","51.45","PICKLE LAKE A","6016527","2012-02-17 14:00","2012","02","17","14:00","-10.7","","-15.4","","68","","","","31","","9","","24.1","","97.05","","","","-16","","Snow"
"-90.21","51.45","PICKLE LAKE A","6016527","2012-02-17 15:00","2012","02","17","15:00","-10.6","","-15.4","","68","","","","31","","9","","24.1","","97.06","","","","-16","","Snow"
"-90.21","51.45","PICKLE LAKE A","6016527","2012-02-17 16:00","2012","02","17","16:00","-10.6","","-15.3","","68","","","","32","","11","","24.1","","97.09","","","","-16","","Snow"
"-90.21","51.45","PICKLE LAKE A","6016527","2012-02-17 17:00","2012","02","17","17:00","-10.7","","-15.0","","71","","","","32","","9","","24.1","","97.10","","","","-16","","Snow"
"-90.21","51.45","PICKLE LAKE A","6016527","2012-02-17 18:00","2012","02","17","18:00","-11.0","","-15.0","","72","","","","33","","9","","24.1","","97.13","","","","-16","","Snow"
"-90.21","51.45","PICKLE LAKE A","6016527","2012-02-17 19:00","2012","02","17","19:00","-11.7","","-14.9","","77","","","","35","","7","","24.1","","97.16","","","","-16","","Snow"
"-90.21","51.45","PICKLE LAKE A","6016527","2012-02-17 20:00","2012","02","17","20:00","-11.9","","-15.3","","76","","","","1","","4","","24.1","","97.16","","","","-14","","Snow"
"-90.21","51.45","PICKLE LAKE A","6016527","2012-02-17 21:00","2012","02","17","21:00","-12.4","","-15.3","","79","","","","3","","4","","19.3","","97.16","","","","-15","","Snow"
"-90.21","51.45","PICKLE LAKE A","6016527","2012-02-17 22:00","2012","02","17","22:00"
"-90.21","51.45","PICKLE LAKE A","6016527","2012-02-17 23:00","2012","02","17","23:00"
"-90.21","51.45","PICKLE LAKE A","6016527","2012-02-18 00:00","2012","02","18","00:00"
"-90.21","51.45","PICKLE LAKE A","6016527","2012-02-18 01:00","2012","02","18","01:00"
"-90.21","51.45","PICKLE LAKE A","6016527","2012-02-18 02:00","2012","02","18","02:00"
"-90.21","51.45","PICKLE LAKE A","6016527","2012-02-18 03:00","2012","02","18","03:00"
"-90.21","51.45","PICKLE LAKE A","6016527","2012-02-18 04:00","2012","02","18","04:00"
"-90.21","51.45","PICKLE LAKE A","6016527","2012-02-18 05:00","2012","02","18","05:00"
"-90.21","51.45","PICKLE LAKE A","6016527","2012-02-18 06:00","2012","02","18","06:00","-16.6","","-20.4","","72","","","","","","0","","16.1","","97.23","","","","","","Snow"
"-90.21","51.45","PICKLE LAKE A","6016527","2012-02-18 07:00","2012","02","18","07:00","-16.5","","-19.8","","76","","","","","","0","","16.1","","97.25","","","","","","Snow"
"-90.21","51.45","PICKLE LAKE A","6016527","2012-02-18 08:00","2012","02","18","08:00","-16.7","","-19.6","","78","","","","9","","4","","16.1","","97.26","","","","-20","","Snow"
"-90.21","51.45","PICKLE LAKE A","6016527","2012-02-18 09:00","2012","02","18","09:00","-16.8","","-19.6","","79","","","","9","","4","","16.1","","97.25","","","","-20","","Snow"
"-90.21","51.45","PICKLE LAKE A","6016527","2012-02-18 10:00","2012","02","18","10:00","-15.4","","-18.5","","77","","","","","","0","","16.1","","97.24","","","","","","Snow"
"-90.21","51.45","PICKLE LAKE A","6016527","2012-02-18 11:00","2012","02","18","11:00","-13.0","","-17.7","","68","","","","","","0","","19.3","","97.24","","","","","","Mostly Cloudy"
"-90.21","51.45","PICKLE LAKE A","6016527","2012-02-18 12:00","2012","02","18","12:00","-10.5","","-16.0","","64","","","","","","0","","24.1","","97.22","","","","","","Mostly Cloudy"
"-90.21","51.45","PICKLE LAKE A","6016527","2012-02-18 13:00","2012","02","18","13:00","-10.3","","-15.2","","67","","","","27","","4","","24.1","","97.16","","","","-13","","Mainly Clear"
"-90.21","51.45","PICKLE LAKE A","6016527","2012-02-18 14:00","2012","02","18","14:00","-9.3","","-14.6","","65","","","","27","","4","","24.1","","97.11","","","","-12","","Mainly Clear"
"-90.21","51.45","PICKLE LAKE A","6016527","2012-02-18 15:00","2012","02","18","15:00","-8.1","","-14.8","","58","","","","25","","6","","24.1","","97.06","","","","-11","","Mainly Clear"
"-90.21","51.45","PICKLE LAKE A","6016527","2012-02-18 16:00","2012","02","18","16:00","-6.9","","-13.3","","60","","","","23","","9","","24.1","","97.06","","","","-11","","Mainly Clear"
"-90.21","51.45","PICKLE LAKE A","6016527","2012-02-18 17:00","2012","02","18","17:00","-7.1","","-12.8","","64","","","","20","","9","","24.1","","97.07","","","","-11","","Mainly Clear"
"-90.21","51.45","PICKLE LAKE A","6016527","2012-02-18 18:00","2012","02","18","18:00","-7.2","","-12.8","","64","","","","21","","6","","24.1","","97.08","","","","-10","","Mainly Clear"
"-90.21","51.45","PICKLE LAKE A","6016527","2012-02-18 19:00","2012","02","18","19:00","-9.1","","-13.4","","71","","","","22","","6","","24.1","","97.05","","","","-12","","Mainly Clear"
"-90.21","51.45","PICKLE LAKE A","6016527","2012-02-18 20:00","2012","02","18","20:00","-10.9","","-14.2","","77","","","","20","","7","","24.1","","97.01","","","","-15","","Mainly Clear"
"-90.21","51.45","PICKLE LAKE A","6016527","2012-02-18 21:00","2012","02","18","21:00","-10.3","","-13.4","","78","","","","20","","7","","24.1","","97.01","","","","-14","","Mainly Clear"
"-90.21","51.45","PICKLE LAKE A","6016527","2012-02-18 22:00","2012","02","18","22:00"
"-90.21","51.45","PICKLE LAKE A","6016527","2012-02-18 23:00","2012","02","18","23:00"
"-90.21","51.45","PICKLE LAKE A","6016527","2012-02-19 00:00","2012","02","19","00:00"
"-90.21","51.45","PICKLE LAKE A","6016527","2012-02-19 01:00","2012","02","19","01:00"
"-90.21","51.45","PICKLE LAKE A","6016527","2012-02-19 02:00","2012","02","19","02:00"
"-90.21","51.45","PICKLE LAKE A","6016527","2012-02-19 03:00","2012","02","19","03:00"
"-90.21","51.45","PICKLE LAKE A","6016527","2012-02-19 04:00","2012","02","19","04:00"
"-90.21","51.45","PICKLE LAKE A","6016527","2012-02-19 05:00","2012","02","19","05:00"
"-90.21","51.45","PICKLE LAKE A","6016527","2012-02-19 06:00","2012","02","19","06:00","-9.1","","-10.4","","90","","","","21","","9","","24.1","","96.85","","","","-14","","Clear"
"-90.21","51.45","PICKLE LAKE A","6016527","2012-02-19 07:00","2012","02","19","07:00","-9.6","","-10.4","","94","","","","21","","11","","24.1","","96.83","","","","-15","","Mainly Clear"
"-90.21","51.45","PICKLE LAKE A","6016527","2012-02-19 08:00","2012","02","19","08:00","-10.2","","-10.7","","96","","","","23","","11","","24.1","","96.84","","","","-16","","Mainly Clear"
"-90.21","51.45","PICKLE LAKE A","6016527","2012-02-19 09:00","2012","02","19","09:00","-10.2","","-10.8","","95","","","","22","","11","","19.3","","96.84","","","","-16","","Clear"
"-90.21","51.45","PICKLE LAKE A","6016527","2012-02-19 10:00","2012","02","19","10:00","-8.4","","-9.7","","90","","","","24","","9","","19.3","","96.84","","","","-13","","Clear"
"-90.21","51.45","PICKLE LAKE A","6016527","2012-02-19 11:00","2012","02","19","11:00","-5.9","","-8.9","","79","","","","25","","6","","24.1","","96.82","","","","-9","","Mainly Clear"
"-90.21","51.45","PICKLE LAKE A","6016527","2012-02-19 12:00","2012","02","19","12:00","-4.1","","-7.7","","76","","","","28","","6","","24.1","","96.82","","","","-7","","Clear"
"-90.21","51.45","PICKLE LAKE A","6016527","2012-02-19 13:00","2012","02","19","13:00","-2.2","","-7.0","","70","","","","30","","7","","24.1","","96.79","","","","-5","","Clear"
"-90.21","51.45","PICKLE LAKE A","6016527","2012-02-19 14:00","2012","02","19","14:00","0.0","","-6.3","","63","","","","27","","11","","24.1","","96.73","","","","-4","","Clear"
"-90.21","51.45","PICKLE LAKE A","6016527","2012-02-19 15:00","2012","02","19","15:00","1.8","","-6.6","","54","","","","27","","15","","24.1","","96.69","","","","","","Clear"
"-90.21","51.45","PICKLE LAKE A","6016527","2012-02-19 16:00","2012","02","19","16:00","2.1","","-6.6","","53","","","","27","","13","","24.1","","96.67","","","","","","Mainly Clear"
"-90.21","51.45","PICKLE LAKE A","6016527","2012-02-19 17:00","2012","02","19","17:00","2.3","","-6.8","","51","","","","25","","7","","24.1","","96.67","","","","","","Mainly Clear"
"-90.21","51.45","PICKLE LAKE A","6016527","2012-02-19 18:00","2012","02","19","18:00","1.1","","-7.1","","54","","","","22","","6","","24.1","","96.69","","","","","","Mainly Clear"
"-90.21","51.45","PICKLE LAKE A","6016527","2012-02-19 19:00","2012","02","19","19:00","-0.6","","-7.0","","62","","","","20","","7","","24.1","","96.74","","","","-3","","Mainly Clear"
"-90.21","51.45","PICKLE LAKE A","6016527","2012-02-19 20:00","2012","02","19","20:00","-0.8","","-7.1","","62","","","","22","","11","","24.1","","96.77","","","","-5","","Mainly Clear"
"-90.21","51.45","PICKLE LAKE A","6016527","2012-02-19 21:00","2012","02","19","21:00","-2.4","","-7.4","","68","","","","21","","9","","24.1","","96.80","","","","-6","","Mainly Clear"
"-90.21","51.45","PICKLE LAKE A","6016527","2012-02-19 22:00","2012","02","19","22:00"
"-90.21","51.45","PICKLE LAKE A","6016527","2012-02-19 23:00","2012","02","19","23:00"
"-90.21","51.45","PICKLE LAKE A","6016527","2012-02-20 00:00","2012","02","20","00:00"
"-90.21","51.45","PICKLE LAKE A","6016527","2012-02-20 01:00","2012","02","20","01:00"
"-90.21","51.45","PICKLE LAKE A","6016527","2012-02-20 02:00","2012","02","20","02:00"
"-90.21","51.45","PICKLE LAKE A","6016527","2012-02-20 03:00","2012","02","20","03:00"
"-90.21","51.45","PICKLE LAKE A","6016527","2012-02-20 04:00","2012","02","20","04:00"
"-90.21","51.45","PICKLE LAKE A","6016527","2012-02-20 05:00","2012","02","20","05:00"
"-90.21","51.45","PICKLE LAKE A","6016527","2012-02-20 06:00","2012","02","20","06:00","-7.1","","-9.4","","84","","","","16","","7","","24.1","","96.77","","","","-11","","Mostly Cloudy"
"-90.21","51.45","PICKLE LAKE A","6016527","2012-02-20 07:00","2012","02","20","07:00","-6.5","","-9.3","","80","","","","16","","9","","24.1","","96.73","","","","-11","","Mostly Cloudy"
"-90.21","51.45","PICKLE LAKE A","6016527","2012-02-20 08:00","2012","02","20","08:00","-6.0","","-8.9","","80","","","","16","","9","","24.1","","96.72","","","","-10","","Cloudy"
"-90.21","51.45","PICKLE LAKE A","6016527","2012-02-20 09:00","2012","02","20","09:00","-5.6","","-8.7","","79","","","","16","","9","","24.1","","96.69","","","","-10","","Cloudy"
"-90.21","51.45","PICKLE LAKE A","6016527","2012-02-20 10:00","2012","02","20","10:00","-4.1","","-7.9","","75","","","","18","","11","","24.1","","96.68","","","","-9","","Cloudy"
"-90.21","51.45","PICKLE LAKE A","6016527","2012-02-20 11:00","2012","02","20","11:00","-3.3","","-7.5","","73","","","","17","","11","","24.1","","96.64","","","","-8","","Cloudy"
"-90.21","51.45","PICKLE LAKE A","6016527","2012-02-20 12:00","2012","02","20","12:00","-1.1","","-6.4","","67","","","","19","","11","","24.1","","96.60","","","","-5","","Cloudy"
"-90.21","51.45","PICKLE LAKE A","6016527","2012-02-20 13:00","2012","02","20","13:00","0.0","","-5.3","","67","","","","21","","15","","24.1","","96.51","","","","-4","","Cloudy"
"-90.21","51.45","PICKLE LAKE A","6016527","2012-02-20 14:00","2012","02","20","14:00","-0.2","","-3.6","","78","","","","19","","17","","9.7","","96.47","","","","-5","","Snow"
"-90.21","51.45","PICKLE LAKE A","6016527","2012-02-20 15:00","2012","02","20","15:00","-0.5","","-1.3","","94","","","","20","","6","","4.0","","96.44","","","","-3","","Snow"
"-90.21","51.45","PICKLE LAKE A","6016527","2012-02-20 16:00","2012","02","20","16:00","-0.1","","-0.4","","98","","","","20","","9","","1.6","","96.41","","","","-3","","Snow"
"-90.21","51.45","PICKLE LAKE A","6016527","2012-02-20 17:00","2012","02","20","17:00","0.1","","-0.2","","98","","","","19","","9","","2.4","","96.37","","","","","","Snow"
"-90.21","51.45","PICKLE LAKE A","6016527","2012-02-20 18:00","2012","02","20","18:00","-0.1","","-0.3","","99","","","","20","","6","","2.4","","96.36","","","","-2","","Snow"
"-90.21","51.45","PICKLE LAKE A","6016527","2012-02-20 19:00","2012","02","20","19:00","-0.3","","-0.3","","100","","","","20","","4","","2.4","","96.35","","","","-2","","Snow"
"-90.21","51.45","PICKLE LAKE A","6016527","2012-02-20 20:00","2012","02","20","20:00","-0.4","","-0.4","","100","","","","18","","4","","4.0","","96.31","","","","-2","","Snow"
"-90.21","51.45","PICKLE LAKE A","6016527","2012-02-20 21:00","2012","02","20","21:00","-0.2","","-0.2","","100","","","","20","","6","","2.4","","96.27","","","","-2","","Snow"
"-90.21","51.45","PICKLE LAKE A","6016527","2012-02-20 22:00","2012","02","20","22:00"
"-90.21","51.45","PICKLE LAKE A","6016527","2012-02-20 23:00","2012","02","20","23:00"
"-90.21","51.45","PICKLE LAKE A","6016527","2012-02-21 00:00","2012","02","21","00:00"
"-90.21","51.45","PICKLE LAKE A","6016527","2012-02-21 01:00","2012","02","21","01:00"
"-90.21","51.45","PICKLE LAKE A","6016527","2012-02-21 02:00","2012","02","21","02:00"
"-90.21","51.45","PICKLE LAKE A","6016527","2012-02-21 03:00","2012","02","21","03:00"
"-90.21","51.45","PICKLE LAKE A","6016527","2012-02-21 04:00","2012","02","21","04:00"
"-90.21","51.45","PICKLE LAKE A","6016527","2012-02-21 05:00","2012","02","21","05:00"
"-90.21","51.45","PICKLE LAKE A","6016527","2012-02-21 06:00","2012","02","21","06:00","-2.2","","-2.4","","99","","","","14","","7","","1.6","","95.62","","","","-5","","Snow"
"-90.21","51.45","PICKLE LAKE A","6016527","2012-02-21 07:00","2012","02","21","07:00","-2.6","","-2.9","","98","","","","12","","7","","1.2","","95.54","","","","-5","","Snow"
"-90.21","51.45","PICKLE LAKE A","6016527","2012-02-21 08:00","2012","02","21","08:00","-2.9","","-3.2","","98","","","","11","","9","","1.6","","95.45","","","","-6","","Snow"
"-90.21","51.45","PICKLE LAKE A","6016527","2012-02-21 09:00","2012","02","21","09:00","-2.9","","-3.3","","97","","","","11","","6","","2.4","","95.38","","","","-5","","Snow"
"-90.21","51.45","PICKLE LAKE A","6016527","2012-02-21 10:00","2012","02","21","10:00","-2.6","","-3.2","","96","","","","11","","6","","16.1","","95.31","","","","-5","","Snow"
"-90.21","51.45","PICKLE LAKE A","6016527","2012-02-21 11:00","2012","02","21","11:00","-2.3","","-3.7","","90","","","","12","","6","","19.3","","95.27","","","","-5","","Snow"
"-90.21","51.45","PICKLE LAKE A","6016527","2012-02-21 12:00","2012","02","21","12:00","-2.3","","-3.4","","92","","","","11","","6","","2.4","","95.20","","","","-5","","Snow"
"-90.21","51.45","PICKLE LAKE A","6016527","2012-02-21 13:00","2012","02","21","13:00","-1.9","","-2.7","","94","","","","8","","7","","2.4","","95.09","","","","-5","","Snow"
"-90.21","51.45","PICKLE LAKE A","6016527","2012-02-21 14:00","2012","02","21","14:00","-1.7","","-2.4","","95","","","","10","","9","","1.6","","95.03","","","","-5","","Snow"
"-90.21","51.45","PICKLE LAKE A","6016527","2012-02-21 15:00","2012","02","21","15:00","-1.5","","-2.1","","96","","","","9","","9","","1.6","","94.96","","","","-5","","Snow"
"-90.21","51.45","PICKLE LAKE A","6016527","2012-02-21 16:00","2012","02","21","16:00","-3.2","","-3.5","","98","","","","6","","19","","1.2","","94.95","","","","-9","","Snow"
"-90.21","51.45","PICKLE LAKE A","6016527","2012-02-21 17:00","2012","02","21","17:00","-3.7","","-4.4","","95","","","","7","","20","","2.4","","94.95","","","","-10","","Snow"
"-90.21","51.45","PICKLE LAKE A","6016527","2012-02-21 18:00","2012","02","21","18:00","-5.4","","-6.2","","94","","","","5","","19","","4.0","","94.96","","","","-12","","Snow"
"-90.21","51.45","PICKLE LAKE A","6016527","2012-02-21 19:00","2012","02","21","19:00","-6.8","","-7.8","","93","","","","6","","17","","2.4","","94.98","","","","-13","","Snow"
"-90.21","51.45","PICKLE LAKE A","6016527","2012-02-21 20:00","2012","02","21","20:00","-7.9","","-8.9","","93","","","","5","","15","","2.4","","95.00","","","","-14","","Snow"
"-90.21","51.45","PICKLE LAKE A","6016527","2012-02-21 21:00","2012","02","21","21:00","-9.4","","-10.6","","91","","","","6","","20","","4.8","","95.00","","","","-17","","Snow"
"-90.21","51.45","PICKLE LAKE A","6016527","2012-02-21 22:00","2012","02","21","22:00"
"-90.21","51.45","PICKLE LAKE A","6016527","2012-02-21 23:00","2012","02","21","23:00"
"-90.21","51.45","PICKLE LAKE A","6016527","2012-02-22 00:00","2012","02","22","00:00"
"-90.21","51.45","PICKLE LAKE A","6016527","2012-02-22 01:00","2012","02","22","01:00"
"-90.21","51.45","PICKLE LAKE A","6016527","2012-02-22 02:00","2012","02","22","02:00"
"-90.21","51.45","PICKLE LAKE A","6016527","2012-02-22 03:00","2012","02","22","03:00"
"-90.21","51.45","PICKLE LAKE A","6016527","2012-02-22 04:00","2012","02","22","04:00"
"-90.21","51.45","PICKLE LAKE A","6016527","2012-02-22 05:00","2012","02","22","05:00"
"-90.21","51.45","PICKLE LAKE A","6016527","2012-02-22 06:00","2012","02","22","06:00","-13.3","","-14.7","","89","","","","5","","7","","4.0","","94.91","","","","-18","","Snow"
"-90.21","51.45","PICKLE LAKE A","6016527","2012-02-22 07:00","2012","02","22","07:00","-13.7","","-15.0","","90","","","","4","","9","","6.4","","94.91","","","","-19","","Snow"
"-90.21","51.45","PICKLE LAKE A","6016527","2012-02-22 08:00","2012","02","22","08:00","-14.1","","-15.2","","91","","","","4","","11","","9.7","","94.95","","","","-21","","Snow"
"-90.21","51.45","PICKLE LAKE A","6016527","2012-02-22 09:00","2012","02","22","09:00","-14.5","","-15.8","","90","","","","4","","13","","12.9","","94.97","","","","-22","","Snow"
"-90.21","51.45","PICKLE LAKE A","6016527","2012-02-22 10:00","2012","02","22","10:00","-14.4","","-15.7","","90","","","","5","","11","","12.9","","94.97","","","","-21","","Snow"
"-90.21","51.45","PICKLE LAKE A","6016527","2012-02-22 11:00","2012","02","22","11:00","-13.4","","-15.3","","86","","","","3","","7","","9.7","","94.95","","","","-18","","Snow"
"-90.21","51.45","PICKLE LAKE A","6016527","2012-02-22 12:00","2012","02","22","12:00","-11.9","","-13.9","","85","","","","36","","4","","19.3","","94.93","","","","-14","","Snow"
"-90.21","51.45","PICKLE LAKE A","6016527","2012-02-22 13:00","2012","02","22","13:00","-10.9","","-12.8","","86","","","","1","","7","","16.1","","94.90","","","","-15","","Snow"
"-90.21","51.45","PICKLE LAKE A","6016527","2012-02-22 14:00","2012","02","22","14:00","-10.0","","-11.9","","86","","","","1","","7","","16.1","","94.88","","","","-14","","Snow"
"-90.21","51.45","PICKLE LAKE A","6016527","2012-02-22 15:00","2012","02","22","15:00","-9.6","","-11.7","","85","","","","2","","4","","19.3","","94.86","","","","-12","","Snow"
"-90.21","51.45","PICKLE LAKE A","6016527","2012-02-22 16:00","2012","02","22","16:00","-8.4","","-10.4","","85","","","","1","","4","","24.1","","94.89","","","","-11","","Snow"
"-90.21","51.45","PICKLE LAKE A","6016527","2012-02-22 17:00","2012","02","22","17:00","-8.4","","-10.3","","86","","","","2","","7","","24.1","","94.89","","","","-12","","Snow"
"-90.21","51.45","PICKLE LAKE A","6016527","2012-02-22 18:00","2012","02","22","18:00","-8.9","","-10.3","","90","","","","1","","4","","24.1","","94.94","","","","-11","","Snow"
"-90.21","51.45","PICKLE LAKE A","6016527","2012-02-22 19:00","2012","02","22","19:00","-9.0","","-10.5","","89","","","","4","","7","","24.1","","94.99","","","","-13","","Snow"
"-90.21","51.45","PICKLE LAKE A","6016527","2012-02-22 20:00","2012","02","22","20:00","-9.1","","-10.3","","91","","","","6","","9","","24.1","","95.02","","","","-14","","Snow"
"-90.21","51.45","PICKLE LAKE A","6016527","2012-02-22 21:00","2012","02","22","21:00","-9.5","","-10.8","","90","","","","7","","7","","12.9","","95.02","","","","-13","","Snow"
"-90.21","51.45","PICKLE LAKE A","6016527","2012-02-22 22:00","2012","02","22","22:00"
"-90.21","51.45","PICKLE LAKE A","6016527","2012-02-22 23:00","2012","02","22","23:00"
"-90.21","51.45","PICKLE LAKE A","6016527","2012-02-23 00:00","2012","02","23","00:00"
"-90.21","51.45","PICKLE LAKE A","6016527","2012-02-23 01:00","2012","02","23","01:00"
"-90.21","51.45","PICKLE LAKE A","6016527","2012-02-23 02:00","2012","02","23","02:00"
"-90.21","51.45","PICKLE LAKE A","6016527","2012-02-23 03:00","2012","02","23","03:00"
"-90.21","51.45","PICKLE LAKE A","6016527","2012-02-23 04:00","2012","02","23","04:00"
"-90.21","51.45","PICKLE LAKE A","6016527","2012-02-23 05:00","2012","02","23","05:00"
"-90.21","51.45","PICKLE LAKE A","6016527","2012-02-23 06:00","2012","02","23","06:00","-13.6","","-14.4","","94","","","","","","0","","8.0","","95.36","","","","","","Snow"
"-90.21","51.45","PICKLE LAKE A","6016527","2012-02-23 07:00","2012","02","23","07:00","-14.1","","-15.1","","92","","","","","","0","","9.7","","95.38","","","","","","Snow"
"-90.21","51.45","PICKLE LAKE A","6016527","2012-02-23 08:00","2012","02","23","08:00","-14.8","","-15.8","","92","","","","10","","4","","8.0","","95.44","","","","-18","","Snow"
"-90.21","51.45","PICKLE LAKE A","6016527","2012-02-23 09:00","2012","02","23","09:00","-15.2","","-16.8","","88","","","","","","0","","19.3","","95.51","","","","","","Mainly Clear"
"-90.21","51.45","PICKLE LAKE A","6016527","2012-02-23 10:00","2012","02","23","10:00","-13.3","","-15.4","","84","","","","","","0","","24.1","","95.58","","","","","","Mostly Cloudy"
"-90.21","51.45","PICKLE LAKE A","6016527","2012-02-23 11:00","2012","02","23","11:00","-12.5","","-14.6","","84","","","","","","0","","12.9","","95.63","","","","","","Snow"
"-90.21","51.45","PICKLE LAKE A","6016527","2012-02-23 12:00","2012","02","23","12:00","-10.2","","-13.0","","80","","","","","","0","","12.9","","95.66","","","","","","Snow"
"-90.21","51.45","PICKLE LAKE A","6016527","2012-02-23 13:00","2012","02","23","13:00","-9.0","","-11.4","","83","","","","","","0","","16.1","","95.67","","","","","","Snow"
"-90.21","51.45","PICKLE LAKE A","6016527","2012-02-23 14:00","2012","02","23","14:00","-9.5","","-12.2","","81","","","","","","0","","9.7","","95.68","","","","","","Snow"
"-90.21","51.45","PICKLE LAKE A","6016527","2012-02-23 15:00","2012","02","23","15:00","-8.4","","-11.5","","78","","","","","","0","","12.9","","95.72","","","","","","Snow"
"-90.21","51.45","PICKLE LAKE A","6016527","2012-02-23 16:00","2012","02","23","16:00","-8.0","","-10.6","","82","","","","","","0","","9.7","","95.76","","","","","","Snow"
"-90.21","51.45","PICKLE LAKE A","6016527","2012-02-23 17:00","2012","02","23","17:00","-8.0","","-9.9","","86","","","","","","0","","9.7","","95.79","","","","","","Snow"
"-90.21","51.45","PICKLE LAKE A","6016527","2012-02-23 18:00","2012","02","23","18:00","-8.2","","-9.9","","88","","","","","","0","","19.3","","95.85","","","","","","Snow"
"-90.21","51.45","PICKLE LAKE A","6016527","2012-02-23 19:00","2012","02","23","19:00","-8.7","","-9.8","","92","","","","","","0","","16.1","","95.89","","","","","","Snow"
"-90.21","51.45","PICKLE LAKE A","6016527","2012-02-23 20:00","2012","02","23","20:00","-9.3","","-10.1","","94","","","","","","0","","9.7","","95.93","","","","","","Snow"
"-90.21","51.45","PICKLE LAKE A","6016527","2012-02-23 21:00","2012","02","23","21:00","-10.4","","-10.6","","98","","","","","","0","","9.7","","95.96","","","","","","Snow"
"-90.21","51.45","PICKLE LAKE A","6016527","2012-02-23 22:00","2012","02","23","22:00"
"-90.21","51.45","PICKLE LAKE A","6016527","2012-02-23 23:00","2012","02","23","23:00"
"-90.21","51.45","PICKLE LAKE A","6016527","2012-02-24 00:00","2012","02","24","00:00"
"-90.21","51.45","PICKLE LAKE A","6016527","2012-02-24 01:00","2012","02","24","01:00"
"-90.21","51.45","PICKLE LAKE A","6016527","2012-02-24 02:00","2012","02","24","02:00"
"-90.21","51.45","PICKLE LAKE A","6016527","2012-02-24 03:00","2012","02","24","03:00"
"-90.21","51.45","PICKLE LAKE A","6016527","2012-02-24 04:00","2012","02","24","04:00"
"-90.21","51.45","PICKLE LAKE A","6016527","2012-02-24 05:00","2012","02","24","05:00"
"-90.21","51.45","PICKLE LAKE A","6016527","2012-02-24 06:00","2012","02","24","06:00","-16.8","","-17.8","","92","","","","8","","4","","16.1","","96.09","","","","-20","","Snow"
"-90.21","51.45","PICKLE LAKE A","6016527","2012-02-24 07:00","2012","02","24","07:00","-15.1","","-15.9","","94","","","","","","0","","16.1","","96.10","","","","","","Snow"
"-90.21","51.45","PICKLE LAKE A","6016527","2012-02-24 08:00","2012","02","24","08:00","-15.2","","-16.3","","91","","","","","","0","","16.1","","96.12","","","","","","Snow"
"-90.21","51.45","PICKLE LAKE A","6016527","2012-02-24 09:00","2012","02","24","09:00","-15.3","","-16.2","","93","","","","","","0","","12.9","","96.19","","","","","","Snow"
"-90.21","51.45","PICKLE LAKE A","6016527","2012-02-24 10:00","2012","02","24","10:00","-13.6","","-14.4","","94","","","","","","0","","4.8","","96.23","","","","","","Snow"
"-90.21","51.45","PICKLE LAKE A","6016527","2012-02-24 11:00","2012","02","24","11:00","-12.5","","-13.4","","93","","","","","","0","","9.7","","96.24","","","","","","Snow"
"-90.21","51.45","PICKLE LAKE A","6016527","2012-02-24 12:00","2012","02","24","12:00","-10.5","","-11.4","","93","","","","1","","4","","19.3","","96.22","","","","-13","","Snow"
"-90.21","51.45","PICKLE LAKE A","6016527","2012-02-24 13:00","2012","02","24","13:00","-9.0","","-10.6","","88","","","","3","","4","","24.1","","96.22","","","","-11","","Snow"
"-90.21","51.45","PICKLE LAKE A","6016527","2012-02-24 14:00","2012","02","24","14:00","-7.3","","-10.4","","78","","","","1","","6","","24.1","","96.23","","","","-10","","Mostly Cloudy"
"-90.21","51.45","PICKLE LAKE A","6016527","2012-02-24 15:00","2012","02","24","15:00","-7.4","","-10.3","","80","","","","1","","7","","19.3","","96.25","","","","-11","","Snow"
"-90.21","51.45","PICKLE LAKE A","6016527","2012-02-24 16:00","2012","02","24","16:00","-7.2","","-10.4","","78","","","","2","","9","","9.7","","96.30","","","","-12","","Snow"
"-90.21","51.45","PICKLE LAKE A","6016527","2012-02-24 17:00","2012","02","24","17:00","-7.7","","-9.9","","84","","","","2","","13","","4.8","","96.36","","","","-13","","Snow"
"-90.21","51.45","PICKLE LAKE A","6016527","2012-02-24 18:00","2012","02","24","18:00","-8.2","","-10.4","","84","","","","34","","9","","4.8","","96.45","","","","-13","","Snow"
"-90.21","51.45","PICKLE LAKE A","6016527","2012-02-24 19:00","2012","02","24","19:00","-8.8","","-10.3","","89","","","","35","","7","","8.0","","96.54","","","","-13","","Snow"
"-90.21","51.45","PICKLE LAKE A","6016527","2012-02-24 20:00","2012","02","24","20:00","-9.7","","-11.3","","88","","","","36","","7","","9.7","","96.60","","","","-14","","Snow"
"-90.21","51.45","PICKLE LAKE A","6016527","2012-02-24 21:00","2012","02","24","21:00","-9.7","","-11.0","","90","","","","36","","7","","9.7","","96.65","","","","-14","","Snow"
"-90.21","51.45","PICKLE LAKE A","6016527","2012-02-24 22:00","2012","02","24","22:00"
"-90.21","51.45","PICKLE LAKE A","6016527","2012-02-24 23:00","2012","02","24","23:00"
"-90.21","51.45","PICKLE LAKE A","6016527","2012-02-25 00:00","2012","02","25","00:00"
"-90.21","51.45","PICKLE LAKE A","6016527","2012-02-25 01:00","2012","02","25","01:00"
"-90.21","51.45","PICKLE LAKE A","6016527","2012-02-25 02:00","2012","02","25","02:00"
"-90.21","51.45","PICKLE LAKE A","6016527","2012-02-25 03:00","2012","02","25","03:00"
"-90.21","51.45","PICKLE LAKE A","6016527","2012-02-25 04:00","2012","02","25","04:00"
"-90.21","51.45","PICKLE LAKE A","6016527","2012-02-25 05:00","2012","02","25","05:00"
"-90.21","51.45","PICKLE LAKE A","6016527","2012-02-25 06:00","2012","02","25","06:00","-19.1","","-20.7","","87","","","","33","","4","","24.1","","97.06","","","","-22","","Clear"
"-90.21","51.45","PICKLE LAKE A","6016527","2012-02-25 07:00","2012","02","25","07:00","-19.6","","-21.1","","88","","","","30","","4","","24.1","","97.12","","","","-23","","Mainly Clear"
"-90.21","51.45","PICKLE LAKE A","6016527","2012-02-25 08:00","2012","02","25","08:00","-19.7","","-20.9","","90","","","","30","","6","","24.1","","97.19","","","","-25","","Mostly Cloudy"
"-90.21","51.45","PICKLE LAKE A","6016527","2012-02-25 09:00","2012","02","25","09:00","-19.3","","-20.5","","90","","","","32","","4","","16.1","","97.21","","","","-23","","Ice Crystals"
"-90.21","51.45","PICKLE LAKE A","6016527","2012-02-25 10:00","2012","02","25","10:00","-18.7","","-23.4","","66","","","","34","","4","","19.3","","97.28","","","","-22","","Ice Crystals"
"-90.21","51.45","PICKLE LAKE A","6016527","2012-02-25 11:00","2012","02","25","11:00","-17.6","","-22.2","","67","","","","31","","6","","24.1","","97.34","","","","-22","","Ice Crystals"
"-90.21","51.45","PICKLE LAKE A","6016527","2012-02-25 12:00","2012","02","25","12:00","-15.9","","-20.3","","69","","","","30","","9","","24.1","","97.37","","","","-22","","Ice Crystals"
"-90.21","51.45","PICKLE LAKE A","6016527","2012-02-25 13:00","2012","02","25","13:00","-15.1","","-19.8","","67","","","","31","","11","","19.3","","97.38","","","","-22","","Snow"
"-90.21","51.45","PICKLE LAKE A","6016527","2012-02-25 14:00","2012","02","25","14:00","-14.5","","-19.5","","66","","","","33","","9","","12.9","","97.37","","","","-20","","Snow"
"-90.21","51.45","PICKLE LAKE A","6016527","2012-02-25 15:00","2012","02","25","15:00","-14.5","","-20.2","","62","","","","33","","11","","24.1","","97.36","","","","-21","","Snow"
"-90.21","51.45","PICKLE LAKE A","6016527","2012-02-25 16:00","2012","02","25","16:00","-13.9","","-19.9","","60","","","","31","","9","","24.1","","97.41","","","","-20","","Snow"
"-90.21","51.45","PICKLE LAKE A","6016527","2012-02-25 17:00","2012","02","25","17:00","-14.7","","-20.6","","61","","","","33","","9","","24.1","","97.42","","","","-20","","Mainly Clear"
"-90.21","51.45","PICKLE LAKE A","6016527","2012-02-25 18:00","2012","02","25","18:00","-14.8","","-20.7","","61","","","","33","","6","","24.1","","97.48","","","","-19","","Mainly Clear"
"-90.21","51.45","PICKLE LAKE A","6016527","2012-02-25 19:00","2012","02","25","19:00","-16.2","","-21.4","","64","","","","35","","4","","24.1","","97.52","","","","-19","","Mainly Clear"
"-90.21","51.45","PICKLE LAKE A","6016527","2012-02-25 20:00","2012","02","25","20:00","-16.7","","-21.5","","66","","","","","","0","","24.1","","97.59","","","","","","Clear"
"-90.21","51.45","PICKLE LAKE A","6016527","2012-02-25 21:00","2012","02","25","21:00","-18.2","","-22.1","","71","","","","","","0","","24.1","","97.61","","","","","","Clear"
"-90.21","51.45","PICKLE LAKE A","6016527","2012-02-25 22:00","2012","02","25","22:00"
"-90.21","51.45","PICKLE LAKE A","6016527","2012-02-25 23:00","2012","02","25","23:00"
"-90.21","51.45","PICKLE LAKE A","6016527","2012-02-26 00:00","2012","02","26","00:00"
"-90.21","51.45","PICKLE LAKE A","6016527","2012-02-26 01:00","2012","02","26","01:00"
"-90.21","51.45","PICKLE LAKE A","6016527","2012-02-26 02:00","2012","02","26","02:00"
"-90.21","51.45","PICKLE LAKE A","6016527","2012-02-26 03:00","2012","02","26","03:00"
"-90.21","51.45","PICKLE LAKE A","6016527","2012-02-26 04:00","2012","02","26","04:00"
"-90.21","51.45","PICKLE LAKE A","6016527","2012-02-26 05:00","2012","02","26","05:00"
"-90.21","51.45","PICKLE LAKE A","6016527","2012-02-26 06:00","2012","02","26","06:00","-28.2","","-32.0","","70","","","","","","0","","24.1","","97.88","","","","","","Clear"
"-90.21","51.45","PICKLE LAKE A","6016527","2012-02-26 07:00","2012","02","26","07:00","-29.6","","-34.0","","66","","","","8","","6","","24.1","","97.81","","","","-36","","Mainly Clear"
"-90.21","51.45","PICKLE LAKE A","6016527","2012-02-26 08:00","2012","02","26","08:00","-29.7","","-33.6","","69","","","","9","","4","","24.1","","97.81","","","","-34","","Mostly Cloudy"
"-90.21","51.45","PICKLE LAKE A","6016527","2012-02-26 09:00","2012","02","26","09:00","-28.4","","-32.1","","70","","","","9","","6","","24.1","","97.76","","","","-35","","Mostly Cloudy"
"-90.21","51.45","PICKLE LAKE A","6016527","2012-02-26 10:00","2012","02","26","10:00","-24.5","","-28.2","","71","","","","13","","4","","24.1","","97.77","","","","-28","","Mostly Cloudy"
"-90.21","51.45","PICKLE LAKE A","6016527","2012-02-26 11:00","2012","02","26","11:00","-20.7","","-23.8","","76","","","","9","","4","","24.1","","97.78","","","","-24","","Mostly Cloudy"
"-90.21","51.45","PICKLE LAKE A","6016527","2012-02-26 12:00","2012","02","26","12:00","-16.7","","-21.2","","68","","","","","","0","","24.1","","97.73","","","","","","Cloudy"
"-90.21","51.45","PICKLE LAKE A","6016527","2012-02-26 13:00","2012","02","26","13:00","-14.6","","-22.3","","52","","","","10","","7","","24.1","","97.66","","","","-19","","Mostly Cloudy"
"-90.21","51.45","PICKLE LAKE A","6016527","2012-02-26 14:00","2012","02","26","14:00","-13.8","","-21.3","","53","","","","9","","7","","24.1","","97.62","","","","-18","","Cloudy"
"-90.21","51.45","PICKLE LAKE A","6016527","2012-02-26 15:00","2012","02","26","15:00","-13.3","","-21.8","","49","","","","8","","9","","24.1","","97.56","","","","-19","","Cloudy"
"-90.21","51.45","PICKLE LAKE A","6016527","2012-02-26 16:00","2012","02","26","16:00","-12.8","","-21.1","","50","","","","8","","9","","24.1","","97.54","","","","-18","","Cloudy"
"-90.21","51.45","PICKLE LAKE A","6016527","2012-02-26 17:00","2012","02","26","17:00","-12.8","","-21.0","","50","","","","7","","11","","24.1","","97.52","","","","-19","","Cloudy"
"-90.21","51.45","PICKLE LAKE A","6016527","2012-02-26 18:00","2012","02","26","18:00","-13.4","","-20.3","","56","","","","5","","13","","24.1","","97.56","","","","-20","","Cloudy"
"-90.21","51.45","PICKLE LAKE A","6016527","2012-02-26 19:00","2012","02","26","19:00","-14.0","","-20.4","","58","","","","4","","11","","24.1","","97.57","","","","-20","","Cloudy"
"-90.21","51.45","PICKLE LAKE A","6016527","2012-02-26 20:00","2012","02","26","20:00","-14.8","","-21.0","","59","","","","6","","9","","24.1","","97.57","","","","-21","","Mostly Cloudy"
"-90.21","51.45","PICKLE LAKE A","6016527","2012-02-26 21:00","2012","02","26","21:00","-16.1","","-21.5","","63","","","","6","","9","","24.1","","97.55","","","","-22","","Mostly Cloudy"
"-90.21","51.45","PICKLE LAKE A","6016527","2012-02-26 22:00","2012","02","26","22:00"
"-90.21","51.45","PICKLE LAKE A","6016527","2012-02-26 23:00","2012","02","26","23:00"
"-90.21","51.45","PICKLE LAKE A","6016527","2012-02-27 00:00","2012","02","27","00:00"
"-90.21","51.45","PICKLE LAKE A","6016527","2012-02-27 01:00","2012","02","27","01:00"
"-90.21","51.45","PICKLE LAKE A","6016527","2012-02-27 02:00","2012","02","27","02:00"
"-90.21","51.45","PICKLE LAKE A","6016527","2012-02-27 03:00","2012","02","27","03:00"
"-90.21","51.45","PICKLE LAKE A","6016527","2012-02-27 04:00","2012","02","27","04:00"
"-90.21","51.45","PICKLE LAKE A","6016527","2012-02-27 05:00","2012","02","27","05:00"
"-90.21","51.45","PICKLE LAKE A","6016527","2012-02-27 06:00","2012","02","27","06:00","-22.4","","-26.4","","70","","","","1","","6","","24.1","","97.66","","","","-28","","Mainly Clear"
"-90.21","51.45","PICKLE LAKE A","6016527","2012-02-27 07:00","2012","02","27","07:00","-23.2","","-27.0","","71","","","","","","0","","24.1","","97.70","","","","","","Mainly Clear"
"-90.21","51.45","PICKLE LAKE A","6016527","2012-02-27 08:00","2012","02","27","08:00","-24.2","","-27.7","","73","","","","36","","4","","24.1","","97.74","","","","-28","","Mostly Cloudy"
"-90.21","51.45","PICKLE LAKE A","6016527","2012-02-27 09:00","2012","02","27","09:00","-23.8","","-27.5","","71","","","","34","","4","","24.1","","97.80","","","","-28","","Mainly Clear"
"-90.21","51.45","PICKLE LAKE A","6016527","2012-02-27 10:00","2012","02","27","10:00","-21.2","","-26.1","","65","","","","","","0","","24.1","","97.86","","","","","","Mainly Clear"
"-90.21","51.45","PICKLE LAKE A","6016527","2012-02-27 11:00","2012","02","27","11:00","-18.3","","-24.6","","58","","","","","","0","","24.1","","97.87","","","","","","Mainly Clear"
"-90.21","51.45","PICKLE LAKE A","6016527","2012-02-27 12:00","2012","02","27","12:00","-16.2","","-24.0","","51","","","","","","0","","24.1","","97.86","","","","","","Mainly Clear"
"-90.21","51.45","PICKLE LAKE A","6016527","2012-02-27 13:00","2012","02","27","13:00","-13.8","","-22.1","","50","","","","","","0","","24.1","","97.83","","","","","","Mainly Clear"
"-90.21","51.45","PICKLE LAKE A","6016527","2012-02-27 14:00","2012","02","27","14:00","-12.2","","-22.0","","44","","","","","","0","","24.1","","97.82","","","","","","Mainly Clear"
"-90.21","51.45","PICKLE LAKE A","6016527","2012-02-27 15:00","2012","02","27","15:00","-11.7","","-22.2","","41","","","","","","0","","24.1","","97.79","","","","","","Mostly Cloudy"
"-90.21","51.45","PICKLE LAKE A","6016527","2012-02-27 16:00","2012","02","27","16:00","-10.7","","-21.8","","40","","","","30","","4","","24.1","","97.79","","","","-13","","Mostly Cloudy"
"-90.21","51.45","PICKLE LAKE A","6016527","2012-02-27 17:00","2012","02","27","17:00","-10.1","","-20.7","","42","","","","27","","4","","24.1","","97.78","","","","-12","","Mainly Clear"
"-90.21","51.45","PICKLE LAKE A","6016527","2012-02-27 18:00","2012","02","27","18:00","-10.6","","-20.8","","43","","","","27","","4","","24.1","","97.82","","","","-13","","Mainly Clear"
"-90.21","51.45","PICKLE LAKE A","6016527","2012-02-27 19:00","2012","02","27","19:00","-12.8","","-20.7","","52","","","","20","","6","","24.1","","97.87","","","","-17","","Mostly Cloudy"
"-90.21","51.45","PICKLE LAKE A","6016527","2012-02-27 20:00","2012","02","27","20:00","-14.7","","-21.1","","58","","","","19","","6","","24.1","","97.86","","","","-19","","Mainly Clear"
"-90.21","51.45","PICKLE LAKE A","6016527","2012-02-27 21:00","2012","02","27","21:00","-16.6","","-22.5","","60","","","","21","","7","","24.1","","97.82","","","","-22","","Mainly Clear"
"-90.21","51.45","PICKLE LAKE A","6016527","2012-02-27 22:00","2012","02","27","22:00"
"-90.21","51.45","PICKLE LAKE A","6016527","2012-02-27 23:00","2012","02","27","23:00"
"-90.21","51.45","PICKLE LAKE A","6016527","2012-02-28 00:00","2012","02","28","00:00"
"-90.21","51.45","PICKLE LAKE A","6016527","2012-02-28 01:00","2012","02","28","01:00"
"-90.21","51.45","PICKLE LAKE A","6016527","2012-02-28 02:00","2012","02","28","02:00"
"-90.21","51.45","PICKLE LAKE A","6016527","2012-02-28 03:00","2012","02","28","03:00"
"-90.21","51.45","PICKLE LAKE A","6016527","2012-02-28 04:00","2012","02","28","04:00"
"-90.21","51.45","PICKLE LAKE A","6016527","2012-02-28 05:00","2012","02","28","05:00"
"-90.21","51.45","PICKLE LAKE A","6016527","2012-02-28 06:00","2012","02","28","06:00","-19.8","","-23.1","","75","","","","19","","7","","24.1","","97.69","","","","-25","","Mainly Clear"
"-90.21","51.45","PICKLE LAKE A","6016527","2012-02-28 07:00","2012","02","28","07:00","-19.0","","-22.2","","76","","","","16","","4","","24.1","","97.71","","","","-22","","Mostly Cloudy"
"-90.21","51.45","PICKLE LAKE A","6016527","2012-02-28 08:00","2012","02","28","08:00","-18.7","","-21.9","","76","","","","18","","9","","24.1","","97.65","","","","-25","","Mostly Cloudy"
"-90.21","51.45","PICKLE LAKE A","6016527","2012-02-28 09:00","2012","02","28","09:00","-17.6","","-20.7","","77","","","","18","","6","","24.1","","97.63","","","","-22","","Mostly Cloudy"
"-90.21","51.45","PICKLE LAKE A","6016527","2012-02-28 10:00","2012","02","28","10:00","-15.1","","-18.1","","78","","","","","","0","","24.1","","97.61","","","","","","Mostly Cloudy"
"-90.21","51.45","PICKLE LAKE A","6016527","2012-02-28 11:00","2012","02","28","11:00","-12.4","","-16.0","","74","","","","17","","4","","24.1","","97.55","","","","-15","","Mostly Cloudy"
"-90.21","51.45","PICKLE LAKE A","6016527","2012-02-28 12:00","2012","02","28","12:00","-9.7","","-13.8","","72","","","","18","","6","","24.1","","97.50","","","","-13","","Mostly Cloudy"
"-90.21","51.45","PICKLE LAKE A","6016527","2012-02-28 13:00","2012","02","28","13:00","-8.6","","-13.5","","68","","","","20","","4","","24.1","","97.50","","","","-11","","Mostly Cloudy"
"-90.21","51.45","PICKLE LAKE A","6016527","2012-02-28 14:00","2012","02","28","14:00","-7.5","","-14.0","","60","","","","17","","6","","24.1","","97.45","","","","-11","","Cloudy"
"-90.21","51.45","PICKLE LAKE A","6016527","2012-02-28 15:00","2012","02","28","15:00","-6.7","","-14.1","","56","","","","31","","6","","24.1","","97.42","","","","-10","","Mostly Cloudy"
"-90.21","51.45","PICKLE LAKE A","6016527","2012-02-28 16:00","2012","02","28","16:00","-5.3","","-13.6","","52","","","","","","0","","24.1","","97.41","","","","","","Mostly Cloudy"
"-90.21","51.45","PICKLE LAKE A","6016527","2012-02-28 17:00","2012","02","28","17:00","-5.0","","-13.5","","51","","","","","","0","","24.1","","97.44","","","","","","Mostly Cloudy"
"-90.21","51.45","PICKLE LAKE A","6016527","2012-02-28 18:00","2012","02","28","18:00","-6.0","","-12.9","","58","","","","","","0","","24.1","","97.45","","","","","","Mostly Cloudy"
"-90.21","51.45","PICKLE LAKE A","6016527","2012-02-28 19:00","2012","02","28","19:00","-7.0","","-13.6","","59","","","","","","0","","24.1","","97.44","","","","","","Mainly Clear"
"-90.21","51.45","PICKLE LAKE A","6016527","2012-02-28 20:00","2012","02","28","20:00","-9.4","","-13.3","","73","","","","7","","7","","24.1","","97.43","","","","-13","","Mainly Clear"
"-90.21","51.45","PICKLE LAKE A","6016527","2012-02-28 21:00","2012","02","28","21:00","-10.1","","-14.2","","72","","","","6","","7","","24.1","","97.40","","","","-14","","Clear"
"-90.21","51.45","PICKLE LAKE A","6016527","2012-02-28 22:00","2012","02","28","22:00"
"-90.21","51.45","PICKLE LAKE A","6016527","2012-02-28 23:00","2012","02","28","23:00"
"-90.21","51.45","PICKLE LAKE A","6016527","2012-02-29 00:00","2012","02","29","00:00"
"-90.21","51.45","PICKLE LAKE A","6016527","2012-02-29 01:00","2012","02","29","01:00"
"-90.21","51.45","PICKLE LAKE A","6016527","2012-02-29 02:00","2012","02","29","02:00"
"-90.21","51.45","PICKLE LAKE A","6016527","2012-02-29 03:00","2012","02","29","03:00"
"-90.21","51.45","PICKLE LAKE A","6016527","2012-02-29 04:00","2012","02","29","04:00"
"-90.21","51.45","PICKLE LAKE A","6016527","2012-02-29 05:00","2012","02","29","05:00"
"-90.21","51.45","PICKLE LAKE A","6016527","2012-02-29 06:00","2012","02","29","06:00","-18.7","","-21.0","","82","","","","6","","4","","24.1","","97.08","","","","-22","","Mainly Clear"
"-90.21","51.45","PICKLE LAKE A","6016527","2012-02-29 07:00","2012","02","29","07:00","-18.7","","-21.1","","81","","","","10","","7","","24.1","","97.04","","","","-24","","Mostly Cloudy"
"-90.21","51.45","PICKLE LAKE A","6016527","2012-02-29 08:00","2012","02","29","08:00","-14.9","","-16.7","","86","","","","10","","4","","0.2","","97.04","","","","-18","","Freezing Fog"
"-90.21","51.45","PICKLE LAKE A","6016527","2012-02-29 09:00","2012","02","29","09:00","-16.2","","-18.4","","83","","","","8","","4","","19.3","","97.02","","","","-19","","Mostly Cloudy"
"-90.21","51.45","PICKLE LAKE A","6016527","2012-02-29 10:00","2012","02","29","10:00","-12.5","","-15.3","","80","","","","","","0","","24.1","","96.96","","","","","","Cloudy"
"-90.21","51.45","PICKLE LAKE A","6016527","2012-02-29 11:00","2012","02","29","11:00","-7.6","","-9.0","","90","","","","11","","6","","24.1","","96.93","","","","-11","","Cloudy"
"-90.21","51.45","PICKLE LAKE A","6016527","2012-02-29 12:00","2012","02","29","12:00","-4.5","","-9.0","","71","","","","15","","15","","24.1","","96.89","","","","-10","","Mainly Clear"
"-90.21","51.45","PICKLE LAKE A","6016527","2012-02-29 13:00","2012","02","29","13:00","-3.3","","-9.1","","64","","","","13","","15","","24.1","","96.84","","","","-8","","Mainly Clear"
"-90.21","51.45","PICKLE LAKE A","6016527","2012-02-29 14:00","2012","02","29","14:00","-2.7","","-9.4","","60","","","","13","","9","","24.1","","96.73","","","","-6","","Mainly Clear"
"-90.21","51.45","PICKLE LAKE A","6016527","2012-02-29 15:00","2012","02","29","15:00","-1.5","","-9.3","","55","","","","11","","9","","24.1","","96.60","","","","-5","","Mainly Clear"
"-90.21","51.45","PICKLE LAKE A","6016527","2012-02-29 16:00","2012","02","29","16:00","-1.2","","-9.7","","52","","","","7","","9","","24.1","","96.51","","","","-4","","Mainly Clear"
"-90.21","51.45","PICKLE LAKE A","6016527","2012-02-29 17:00","2012","02","29","17:00","-1.6","","-9.8","","54","","","","10","","6","","24.1","","96.47","","","","-4","","Mainly Clear"
"-90.21","51.45","PICKLE LAKE A","6016527","2012-02-29 18:00","2012","02","29","18:00","-2.2","","-10.5","","53","","","","10","","7","","24.1","","96.44","","","","-5","","Mainly Clear"
"-90.21","51.45","PICKLE LAKE A","6016527","2012-02-29 19:00","2012","02","29","19:00","-3.6","","-10.8","","57","","","","10","","7","","24.1","","96.43","","","","-7","","Mainly Clear"
"-90.21","51.45","PICKLE LAKE A","6016527","2012-02-29 20:00","2012","02","29","20:00","-5.3","","-11.0","","64","","","","9","","6","","24.1","","96.44","","","","-8","","Mainly Clear"
"-90.21","51.45","PICKLE LAKE A","6016527","2012-02-29 21:00","2012","02","29","21:00","-6.7","","-11.4","","69","","","","9","","6","","24.1","","96.44","","","","-10","","Mainly Clear"
"-90.21","51.45","PICKLE LAKE A","6016527","2012-02-29 22:00","2012","02","29","22:00"
"-90.21","51.45","PICKLE LAKE A","6016527","2012-02-29 23:00","2012","02","29","23:00"
