"Longitude (x)","Latitude (y)","Station Name","Climate ID","Date/Time (LST)","Year","Month","Day","Time (LST)","Temp (°C)","Temp Flag","Dew Point Temp (°C)","Dew Point Temp Flag","Rel Hum (%)","Rel Hum Flag","Precip. Amount (mm)","Precip. Amount Flag","Wind Dir (10s deg)","Wind Dir Flag","Wind Spd (km/h)","Wind Spd Flag","Visibility (km)","Visibility Flag","Stn Press (kPa)","Stn Press Flag","Hmdx","Hmdx Flag","Wind Chill","Wind Chill Flag","Weather"
"-85.81","79.99","EUREKA A","2401203","2018-03-01 00:00","2018","03","01","00:00","-19.0","","-22.2","","76","","","","24","","4","","24.1","","103.41","","","","-22","","Ice Crystals"
"-85.81","79.99","EUREKA A","2401203","2018-03-01 01:00","2018","03","01","01:00","-19.2","","-22.4","","76","","","","6","","3","","24.1","","103.44","","","","-22","","NA"
"-85.81","79.99","EUREKA A","2401203","2018-03-01 02:00","2018","03","01","02:00","-20.3","","-23.1","","79","","","","31","","7","","24.1","","103.49","","","","-26","","Ice Crystals"
"-85.81","79.99","EUREKA A","2401203","2018-03-01 03:00","2018","03","01","03:00","-20.9","","-23.9","","77","","","","30","","9","","24.1","","103.56","","","","-28","","Ice Crystals"
"-85.81","79.99","EUREKA A","2401203","2018-03-01 04:00","2018","03","01","04:00","-20.3","","-23.0","","80","","","","36","","2","","24.1","","103.58","","","","-22","","Ice Crystals"
"-85.81","79.99","EUREKA A","2401203","2018-03-01 05:00","2018","03","01","05:00","-20.2","","-22.9","","79","","","","26","","9","","24.1","","103.62","","","","-27","","Ice Crystals"
"-85.81","79.99","EUREKA A","2401203","2018-03-01 06:00","2018","03","01","06:00","-21.3","","-24.0","","79","","","","28","","4","","24.1","","103.66","","","","-25","","Snow"
"-85.81","79.99","EUREKA A","2401203","2018-03-01 07:00","2018","03","01","07:00","-21.6","","-24.3","","79","","","","36","","3","","8.1","","103.69","","","","-24","","Snow"
"-85.81","79.99","EUREKA A","2401203","2018-03-01 08:00","2018","03","01","08:00","-21.5","","-24.3","","79","","","","27","","13","","24.1","","103.71","","","","-30","","Snow"
"-85.81","79.99","EUREKA A","2401203","2018-03-01 09:00","2018","03","01","09:00","-20.6","","-23.1","","80","","","","29","","9","","24.1","","103.74","","","","-27","","Snow"
"-85.81","79.99","EUREKA A","2401203","2018-03-01 10:00","2018","03","01","10:00","-21.6","","-24.3","","79","","","","3","","3","","24.1","","103.77","","","","-24","","NA"
"-85.81","79.99","EUREKA A","2401203","2018-03-01 11:00","2018","03","01","11:00","-20.7","","-23.3","","80","","","","28","","13","","24.1","","103.81","","","","-29","","NA"
"-85.81","79.99","EUREKA A","2401203","2018-03-01 12:00","2018","03","01","12:00","-20.7","","-23.2","","80","","","","27","","9","","24.1","","103.85","","","","-28","","Cloudy"
"-85.81","79.99","EUREKA A","2401203","2018-03-01 13:00","2018","03","01","13:00","-21.9","","-24.5","","80","","","","36","","3","","24.1","","103.85","","","","-25","","NA"
"-85.81","79.99","EUREKA A","2401203","2018-03-01 14:00","2018","03","01","14:00","-22.1","","-24.7","","80","","","","8","","3","","24.1","","103.89","","","","-25","","NA"
"-85.81","79.99","EUREKA A","2401203","2018-03-01 15:00","2018","03","01","15:00","-21.7","","-24.2","","80","","","","27","","5","","24.1","","103.89","","","","-26","","Cloudy"
"-85.81","79.99","EUREKA A","2401203","2018-03-01 16:00","2018","03","01","16:00","-21.3","","-23.9","","80","","","","31","","5","","24.1","","103.90","","","","-26","","NA"
"-85.81","79.99","EUREKA A","2401203","2018-03-01 17:00","2018","03","01","17:00","-21.5","","-24.2","","80","","","","29","","7","","24.1","","103.94","","","","-27","","NA"
"-85.81","79.99","EUREKA A","2401203","2018-03-01 18:00","2018","03","01","18:00","-22.2","","-24.9","","79","","","","31","","6","","24.1","","103.94","","","","-28","","Cloudy"
"-85.81","79.99","EUREKA A","2401203","2018-03-01 19:00","2018","03","01","19:00","-22.3","","-25.0","","79","","","","28","","8","","24.1","","103.94","","","","-29","","Snow"
"-85.81","79.99","EUREKA A","2401203","2018-03-01 20:00","2018","03","01","20:00","-21.0","","-23.6","","80","","","","31","","8","","24.1","","103.94","","","","-27","","NA"
"-85.81","79.99","EUREKA A","2401203","2018-03-01 21:00","2018","03","01","21:00","-20.9","","-23.5","","80","","","","29","","9","","24.1","","103.93","","","","-28","","Mostly Cloudy"
"-85.81","79.99","EUREKA A","2401203","2018-03-01 22:00","2018","03","01","22:00","-22.3","","-25.1","","79","","","","34","","5","","24.1","","103.89","","","","-27","","NA"
"-85.81","79.99","EUREKA A","2401203","2018-03-01 23:00","2018","03","01","23:00","-21.8","","-24.5","","79","","","","30","","11","","24.1","","103.89","","","","-30","","NA"
"-85.81","79.99","EUREKA A","2401203","2018-03-02 00:00","2018","03","02","00:00","-22.4","","-25.1","","79","","","","32","","8","","24.1","","103.88","","","","-29","","Mostly Cloudy"
"-85.81","79.99","EUREKA A","2401203","2018-03-02 01:00","2018","03","02","01:00","-23.6","","-26.6","","77","","","","21","","7","","24.1","","103.86","","","","-30","","NA"
"-85.81","79.99","EUREKA A","2401203","2018-03-02 02:00","2018","03","02","02:00","-22.8","","-25.5","","79","","","","1","","4","","24.1","","103.87","","","","-27","","NA"
"-85.81","79.99","EUREKA A","2401203","2018-03-02 03:00","2018","03","02","03:00","-23.2","","-25.9","","79","","","","36","","1","","24.1","","103.88","","","","-24","","Mainly Clear"
"-85.81","79.99","EUREKA A","2401203","2018-03-02 04:00","2018","03","02","04:00","-24.1","","-26.9","","78","","","","8","","4","","24.1","","103.86","","","","-28","","NA"
"-85.81","79.99","EUREKA A","2401203","2018-03-02 05:00","2018","03","02","05:00","-24.7","","-27.6","","78","","","","36","","1","","24.1","","103.82","","","","-26","","NA"
"-85.81","79.99","EUREKA A","2401203","2018-03-02 06:00","2018","03","02","06:00","-24.7","","-27.6","","78","","","","13","","4","","24.1","","103.83","","","","-29","","Mostly Cloudy"
"-85.81","79.99","EUREKA A","2401203","2018-03-02 07:00","2018","03","02","07:00","-24.6","","-27.6","","77","","","","36","","2","","24.1","","103.82","","","","-27","","NA"
"-85.81","79.99","EUREKA A","2401203","2018-03-02 08:00","2018","03","02","08:00","-22.8","","-25.6","","79","","","","36","","2","","24.1","","103.84","","","","-25","","NA"
"-85.81","79.99","EUREKA A","2401203","2018-03-02 09:00","2018","03","02","09:00","-24.0","","-26.9","","78","","","","8","","5","","24.1","","103.87","","","","-29","","Mostly Cloudy"
"-85.81","79.99","EUREKA A","2401203","2018-03-02 10:00","2018","03","02","10:00","-24.1","","-27.0","","78","","","","5","","4","","24.1","","103.87","","","","-28","","Snow"
"-85.81","79.99","EUREKA A","2401203","2018-03-02 11:00","2018","03","02","11:00","-23.0","","-25.7","","79","","","","15","","9","","24.1","","103.88","","","","-30","","Snow"
"-85.81","79.99","EUREKA A","2401203","2018-03-02 12:00","2018","03","02","12:00","-23.9","","-26.7","","78","","","","0","","1","","24.1","","103.89","","","","-25","","Snow"
"-85.81","79.99","EUREKA A","2401203","2018-03-02 13:00","2018","03","02","13:00","-24.0","","-26.8","","78","","","","4","","3","","24.1","","103.92","","","","-27","","NA"
"-85.81","79.99","EUREKA A","2401203","2018-03-02 14:00","2018","03","02","14:00","-24.4","","-27.3","","78","","","","36","","2","","24.1","","103.96","","","","-26","","NA"
"-85.81","79.99","EUREKA A","2401203","2018-03-02 15:00","2018","03","02","15:00","-23.9","","-26.8","","77","","","","9","","5","","24.1","","104.00","","","","-29","","Mostly Cloudy"
"-85.81","79.99","EUREKA A","2401203","2018-03-02 16:00","2018","03","02","16:00","-24.1","","-27.0","","77","","","","10","","3","","24.1","","104.08","","","","-27","","NA"
"-85.81","79.99","EUREKA A","2401203","2018-03-02 17:00","2018","03","02","17:00","-24.6","","-27.5","","77","","","","36","","3","","24.1","","104.09","","","","-28","","NA"
"-85.81","79.99","EUREKA A","2401203","2018-03-02 18:00","2018","03","02","18:00","-23.8","","-26.7","","78","","","","10","","6","","24.1","","104.10","","","","-29","","Mainly Clear"
"-85.81","79.99","EUREKA A","2401203","2018-03-02 19:00","2018","03","02","19:00","-25.0","","-28.0","","77","","","","36","","1","","24.1","","104.12","","","","-26","","Ice Crystals"
"-85.81","79.99","EUREKA A","2401203","2018-03-02 20:00","2018","03","02","20:00","-25.2","","-28.3","","76","","","","7","","5","","24.1","","104.14","","","","-30","","Ice Crystals"
"-85.81","79.99","EUREKA A","2401203","2018-03-02 21:00","2018","03","02","21:00","-24.2","","-27.1","","77","","","","10","","5","","24.1","","104.13","","","","-29","","Mainly Clear"
"-85.81","79.99","EUREKA A","2401203","2018-03-02 22:00","2018","03","02","22:00","-24.1","","-27.1","","77","","","","8","","5","","24.1","","104.20","","","","-29","","Ice Crystals"
"-85.81","79.99","EUREKA A","2401203","2018-03-02 23:00","2018","03","02","23:00","-24.2","","-27.1","","77","","","","8","","5","","24.1","","104.22","","","","-29","","Ice Crystals"
"-85.81","79.99","EUREKA A","2401203","2018-03-03 00:00","2018","03","03","00:00","-24.4","","-27.4","","77","","","","13","","14","","24.1","","104.24","","","","-34","","Ice Crystals"
"-85.81","79.99","EUREKA A","2401203","2018-03-03 01:00","2018","03","03","01:00","-23.9","","-26.8","","77","","","","14","","18","","24.1","","104.23","","","","-35","","Ice Crystals"
"-85.81","79.99","EUREKA A","2401203","2018-03-03 02:00","2018","03","03","02:00","-23.6","","-26.4","","78","","","","14","","20","","24.1","","104.24","","","","-35","","Ice Crystals"
"-85.81","79.99","EUREKA A","2401203","2018-03-03 03:00","2018","03","03","03:00","-22.8","","-25.6","","78","","","","14","","16","","24.1","","104.25","","","","-33","","Ice Crystals"
"-85.81","79.99","EUREKA A","2401203","2018-03-03 04:00","2018","03","03","04:00","-21.5","","-24.2","","79","","","","14","","21","","16.1","","104.27","","","","-33","","Ice Crystals"
"-85.81","79.99","EUREKA A","2401203","2018-03-03 05:00","2018","03","03","05:00","-20.8","","-23.4","","80","","","","13","","22","","16.1","","104.22","","","","-32","","Snow"
"-85.81","79.99","EUREKA A","2401203","2018-03-03 06:00","2018","03","03","06:00","-20.3","","-23.0","","80","","","","15","","25","","24.1","","104.22","","","","-32","","Snow"
"-85.81","79.99","EUREKA A","2401203","2018-03-03 07:00","2018","03","03","07:00","-20.0","","-22.6","","80","","","","14","","23","","9.7","","104.22","","","","-31","","Snow"
"-85.81","79.99","EUREKA A","2401203","2018-03-03 08:00","2018","03","03","08:00","-19.9","","-22.4","","80","","","","16","","26","","24.1","","104.25","","","","-32","","Snow"
"-85.81","79.99","EUREKA A","2401203","2018-03-03 09:00","2018","03","03","09:00","-20.3","","-22.9","","80","","","","13","","16","","24.1","","104.25","","","","-30","","Snow,Blowing Snow"
"-85.81","79.99","EUREKA A","2401203","2018-03-03 10:00","2018","03","03","10:00","-20.7","","-23.3","","80","","","","16","","24","","24.1","","104.29","","","","-32","","Snow,Blowing Snow"
"-85.81","79.99","EUREKA A","2401203","2018-03-03 11:00","2018","03","03","11:00","-21.3","","-24.0","","79","","","","16","","21","","24.1","","104.26","","","","-32","","NA"
"-85.81","79.99","EUREKA A","2401203","2018-03-03 12:00","2018","03","03","12:00","-22.8","","-25.6","","78","","","","15","","21","","24.1","","104.27","","","","-34","","Blowing Snow"
"-85.81","79.99","EUREKA A","2401203","2018-03-03 13:00","2018","03","03","13:00","-23.7","","-26.5","","78","","","","14","","19","","24.1","","104.26","","","","-35","","NA"
"-85.81","79.99","EUREKA A","2401203","2018-03-03 14:00","2018","03","03","14:00","-23.7","","-26.6","","78","","","","14","","21","","24.1","","104.29","","","","-35","","NA"
"-85.81","79.99","EUREKA A","2401203","2018-03-03 15:00","2018","03","03","15:00","-25.0","","-28.0","","77","","","","14","","22","","24.1","","104.29","","","","-37","","Mainly Clear"
"-85.81","79.99","EUREKA A","2401203","2018-03-03 16:00","2018","03","03","16:00","-26.0","","-29.1","","76","","","","13","","25","","24.1","","104.31","","","","-39","","NA"
"-85.81","79.99","EUREKA A","2401203","2018-03-03 17:00","2018","03","03","17:00","-25.6","","-28.7","","76","","","","17","","12","","24.1","","104.35","","","","-35","","NA"
"-85.81","79.99","EUREKA A","2401203","2018-03-03 18:00","2018","03","03","18:00","-26.4","","-29.5","","76","","","","16","","22","","24.1","","104.33","","","","-39","","Clear"
"-85.81","79.99","EUREKA A","2401203","2018-03-03 19:00","2018","03","03","19:00","-27.3","","-30.4","","75","","","","2","","5","","24.1","","104.32","","","","-33","","NA"
"-85.81","79.99","EUREKA A","2401203","2018-03-03 20:00","2018","03","03","20:00","-26.6","","-29.7","","76","","","","13","","11","","24.1","","104.29","","","","-36","","NA"
"-85.81","79.99","EUREKA A","2401203","2018-03-03 21:00","2018","03","03","21:00","-27.6","","-30.9","","75","","","","14","","19","","24.1","","104.26","","","","-40","","Clear"
"-85.81","79.99","EUREKA A","2401203","2018-03-03 22:00","2018","03","03","22:00","-28.5","","-31.7","","74","","","","14","","4","","24.1","","104.23","","","","-33","","NA"
"-85.81","79.99","EUREKA A","2401203","2018-03-03 23:00","2018","03","03","23:00","-30.0","","-33.4","","73","","","","13","","12","","24.1","","104.20","","","","-40","","NA"
"-85.81","79.99","EUREKA A","2401203","2018-03-04 00:00","2018","03","04","00:00","-30.8","","-34.2","","72","","","","8","","5","","24.1","","104.13","","","","-37","","Mainly Clear"
"-85.81","79.99","EUREKA A","2401203","2018-03-04 01:00","2018","03","04","01:00","-31.2","","-34.7","","72","","","","4","","4","","24.1","","104.06","","","","-36","","NA"
"-85.81","79.99","EUREKA A","2401203","2018-03-04 02:00","2018","03","04","02:00","-30.8","","-34.2","","73","","","","32","","4","","24.1","","104.00","","","","-35","","NA"
"-85.81","79.99","EUREKA A","2401203","2018-03-04 03:00","2018","03","04","03:00","-29.8","","-33.2","","73","","","","36","","2","","24.1","","103.92","","","","-32","","Mostly Cloudy"
"-85.81","79.99","EUREKA A","2401203","2018-03-04 04:00","2018","03","04","04:00","-28.4","","-31.7","","74","","","","36","","1","","24.1","","103.87","","","","-29","","NA"
"-85.81","79.99","EUREKA A","2401203","2018-03-04 05:00","2018","03","04","05:00","-29.8","","-33.2","","73","","","","3","","4","","24.1","","103.71","","","","-34","","NA"
"-85.81","79.99","EUREKA A","2401203","2018-03-04 06:00","2018","03","04","06:00","-28.8","","-32.1","","74","","","","36","","1","","24.1","","103.61","","","","-30","","Snow"
"-85.81","79.99","EUREKA A","2401203","2018-03-04 07:00","2018","03","04","07:00","-29.0","","-32.4","","74","","","","36","","2","","24.1","","103.51","","","","-31","","NA"
"-85.81","79.99","EUREKA A","2401203","2018-03-04 08:00","2018","03","04","08:00","-28.7","","-32.0","","74","","","","30","","4","","24.1","","103.36","","","","-33","","NA"
"-85.81","79.99","EUREKA A","2401203","2018-03-04 09:00","2018","03","04","09:00","-29.7","","-33.1","","73","","","","36","","2","","24.1","","103.23","","","","-32","","Cloudy"
"-85.81","79.99","EUREKA A","2401203","2018-03-04 10:00","2018","03","04","10:00","-28.7","","-32.0","","74","","","","36","","1","","11.3","","103.13","","","","-30","","Snow"
"-85.81","79.99","EUREKA A","2401203","2018-03-04 11:00","2018","03","04","11:00","-29.1","","-32.4","","74","","","","36","","1","","4.0","","103.02","","","","-30","","Snow"
"-85.81","79.99","EUREKA A","2401203","2018-03-04 12:00","2018","03","04","12:00","-28.3","","-31.6","","74","","","","24","","3","","24.1","","102.92","","","","-32","","Snow"
"-85.81","79.99","EUREKA A","2401203","2018-03-04 13:00","2018","03","04","13:00","-28.8","","-32.1","","74","","","","36","","3","","9.7","","102.83","","","","-32","","Snow"
"-85.81","79.99","EUREKA A","2401203","2018-03-04 14:00","2018","03","04","14:00","-28.2","","-31.4","","74","","","","0","","1","","3.2","","102.73","","","","-29","","Snow"
"-85.81","79.99","EUREKA A","2401203","2018-03-04 15:00","2018","03","04","15:00","-28.4","","-31.7","","74","","","","36","","2","","3.2","","102.68","","","","-31","","Snow"
"-85.81","79.99","EUREKA A","2401203","2018-03-04 16:00","2018","03","04","16:00","-27.9","","-31.1","","74","","","","14","","6","","3.2","","102.62","","","","-34","","Snow"
"-85.81","79.99","EUREKA A","2401203","2018-03-04 17:00","2018","03","04","17:00","-26.9","","-30.1","","75","","","","36","","2","","2.4","","102.59","","","","-29","","Snow"
"-85.81","79.99","EUREKA A","2401203","2018-03-04 18:00","2018","03","04","18:00","-26.6","","-29.7","","75","","","","36","","1","","2.4","","102.56","","","","-28","","Snow"
"-85.81","79.99","EUREKA A","2401203","2018-03-04 19:00","2018","03","04","19:00","-26.4","","-29.5","","75","","","","11","","5","","4.0","","102.50","","","","-32","","Snow"
"-85.81","79.99","EUREKA A","2401203","2018-03-04 20:00","2018","03","04","20:00","-26.4","","-29.5","","75","","","","14","","16","","4.0","","102.49","","","","-37","","Snow"
"-85.81","79.99","EUREKA A","2401203","2018-03-04 21:00","2018","03","04","21:00","-25.9","","-29.0","","76","","","","13","","21","","4.0","","102.46","","","","-38","","Snow"
"-85.81","79.99","EUREKA A","2401203","2018-03-04 22:00","2018","03","04","22:00","-26.1","","-29.2","","75","","","","14","","16","","24.1","","102.44","","","","-37","","Snow"
"-85.81","79.99","EUREKA A","2401203","2018-03-04 23:00","2018","03","04","23:00","-26.2","","-29.4","","75","","","","15","","13","","24.1","","102.42","","","","-36","","NA"
"-85.81","79.99","EUREKA A","2401203","2018-03-05 00:00","2018","03","05","00:00","-23.2","","-26.1","","78","","","","14","","13","","24.1","","102.39","","","","-32","","Snow"
"-85.81","79.99","EUREKA A","2401203","2018-03-05 01:00","2018","03","05","01:00","-25.0","","-28.1","","76","","","","14","","14","","24.1","","102.39","","","","-35","","Snow"
"-85.81","79.99","EUREKA A","2401203","2018-03-05 02:00","2018","03","05","02:00","-23.1","","-25.9","","78","","","","21","","8","","24.1","","102.42","","","","-30","","NA"
"-85.81","79.99","EUREKA A","2401203","2018-03-05 03:00","2018","03","05","03:00","-22.5","","-25.4","","78","","","","16","","31","","24.1","","102.42","","","","-36","","Blowing Snow"
"-85.81","79.99","EUREKA A","2401203","2018-03-05 04:00","2018","03","05","04:00","-23.7","","-26.6","","77","","","","16","","26","","24.1","","102.44","","","","-37","","NA"
"-85.81","79.99","EUREKA A","2401203","2018-03-05 05:00","2018","03","05","05:00","-24.6","","-27.6","","77","","","","15","","22","","24.1","","102.45","","","","-37","","NA"
"-85.81","79.99","EUREKA A","2401203","2018-03-05 06:00","2018","03","05","06:00","-25.0","","-28.0","","76","","","","16","","12","","24.1","","102.46","","","","-34","","Mainly Clear"
"-85.81","79.99","EUREKA A","2401203","2018-03-05 07:00","2018","03","05","07:00","-26.3","","-29.4","","76","","","","15","","15","","24.1","","102.49","","","","-37","","NA"
"-85.81","79.99","EUREKA A","2401203","2018-03-05 08:00","2018","03","05","08:00","-26.1","","-29.2","","76","","","","14","","17","","24.1","","102.53","","","","-37","","NA"
"-85.81","79.99","EUREKA A","2401203","2018-03-05 09:00","2018","03","05","09:00","-25.9","","-29.0","","76","","","","14","","25","","24.1","","102.55","","","","-39","","Mostly Cloudy"
"-85.81","79.99","EUREKA A","2401203","2018-03-05 10:00","2018","03","05","10:00","-26.4","","-29.5","","76","","","","14","","27","","24.1","","102.56","","","","-40","","Blowing Snow"
"-85.81","79.99","EUREKA A","2401203","2018-03-05 11:00","2018","03","05","11:00","-26.3","","-29.4","","76","","","","14","","29","","24.1","","102.58","","","","-41","","Blowing Snow"
"-85.81","79.99","EUREKA A","2401203","2018-03-05 12:00","2018","03","05","12:00","-26.4","","-29.6","","75","","","","14","","25","","24.1","","102.62","","","","-40","","Blowing Snow"
"-85.81","79.99","EUREKA A","2401203","2018-03-05 13:00","2018","03","05","13:00","-26.3","","-29.4","","76","","","","15","","25","","24.1","","102.64","","","","-40","","NA"
"-85.81","79.99","EUREKA A","2401203","2018-03-05 14:00","2018","03","05","14:00","-26.3","","-29.4","","76","","","","15","","27","","24.1","","102.67","","","","-40","","NA"
"-85.81","79.99","EUREKA A","2401203","2018-03-05 15:00","2018","03","05","15:00","-26.5","","-29.6","","75","","","","14","","29","","24.1","","102.69","","","","-41","","Mostly Cloudy"
"-85.81","79.99","EUREKA A","2401203","2018-03-05 16:00","2018","03","05","16:00","-26.8","","-30.0","","75","","","","15","","19","","24.1","","102.73","","","","-39","","NA"
"-85.81","79.99","EUREKA A","2401203","2018-03-05 17:00","2018","03","05","17:00","-27.2","","-30.4","","75","","","","13","","26","","24.1","","102.75","","","","-41","","NA"
"-85.81","79.99","EUREKA A","2401203","2018-03-05 18:00","2018","03","05","18:00","-27.6","","-30.8","","75","","","","14","","30","","11.3","","102.78","","","","-42","","Snow"
"-85.81","79.99","EUREKA A","2401203","2018-03-05 19:00","2018","03","05","19:00","-27.7","","-30.9","","75","","","","14","","21","","11.3","","102.79","","","","-40","","Snow"
"-85.81","79.99","EUREKA A","2401203","2018-03-05 20:00","2018","03","05","20:00","-27.9","","-31.1","","74","","","","18","","7","","16.1","","102.81","","","","-35","","Snow"
"-85.81","79.99","EUREKA A","2401203","2018-03-05 21:00","2018","03","05","21:00","-28.7","","-32.0","","74","","","","8","","4","","12.9","","102.79","","","","-33","","Snow"
"-85.81","79.99","EUREKA A","2401203","2018-03-05 22:00","2018","03","05","22:00","-28.3","","-31.6","","74","","","","13","","21","","12.9","","102.80","","","","-41","","Snow"
"-85.81","79.99","EUREKA A","2401203","2018-03-05 23:00","2018","03","05","23:00","-28.3","","-31.6","","74","","","","14","","17","","16.1","","102.79","","","","-40","","Snow"
"-85.81","79.99","EUREKA A","2401203","2018-03-06 00:00","2018","03","06","00:00","-28.9","","-32.3","","74","","","","15","","17","","9.7","","102.80","","","","-41","","Snow"
"-85.81","79.99","EUREKA A","2401203","2018-03-06 01:00","2018","03","06","01:00","-29.1","","-32.5","","74","","","","15","","9","","4.8","","102.82","","","","-38","","Snow,Fog"
"-85.81","79.99","EUREKA A","2401203","2018-03-06 02:00","2018","03","06","02:00","-29.7","","-33.1","","73","","","","15","","9","","8.1","","102.83","","","","-38","","Ice Crystals,Fog"
"-85.81","79.99","EUREKA A","2401203","2018-03-06 03:00","2018","03","06","03:00","-29.4","","-32.7","","73","","","","15","","7","","8.1","","102.85","","","","-37","","Ice Crystals,Fog"
"-85.81","79.99","EUREKA A","2401203","2018-03-06 04:00","2018","03","06","04:00","-30.2","","-33.6","","73","","","","15","","9","","12.9","","102.88","","","","-39","","Ice Crystals"
"-85.81","79.99","EUREKA A","2401203","2018-03-06 05:00","2018","03","06","05:00","-30.1","","-33.5","","73","","","","15","","3","","16.1","","102.86","","","","-33","","Ice Crystals"
"-85.81","79.99","EUREKA A","2401203","2018-03-06 06:00","2018","03","06","06:00","-30.0","","-33.4","","73","","","","17","","4","","16.1","","102.86","","","","-35","","Ice Crystals"
"-85.81","79.99","EUREKA A","2401203","2018-03-06 07:00","2018","03","06","07:00","-32.4","","-35.9","","71","","","","13","","3","","16.1","","102.86","","","","-36","","Ice Crystals"
"-85.81","79.99","EUREKA A","2401203","2018-03-06 08:00","2018","03","06","08:00","-31.6","","-35.0","","72","","","","16","","12","","16.1","","102.89","","","","-42","","Ice Crystals"
"-85.81","79.99","EUREKA A","2401203","2018-03-06 09:00","2018","03","06","09:00","-31.6","","-35.1","","72","","","","16","","8","","19.3","","102.90","","","","-40","","Ice Crystals"
"-85.81","79.99","EUREKA A","2401203","2018-03-06 10:00","2018","03","06","10:00","-32.8","","-36.4","","71","","","","12","","3","","19.3","","102.94","","","","-36","","Snow"
"-85.81","79.99","EUREKA A","2401203","2018-03-06 11:00","2018","03","06","11:00","-33.1","","-36.8","","70","","","","12","","5","","24.1","","102.93","","","","-39","","Snow"
"-85.81","79.99","EUREKA A","2401203","2018-03-06 12:00","2018","03","06","12:00","-33.7","","-37.4","","70","","","","15","","10","","24.1","","102.90","","","","-44","","Snow"
"-85.81","79.99","EUREKA A","2401203","2018-03-06 13:00","2018","03","06","13:00","-35.1","","-38.8","","70","","","","6","","5","","24.1","","102.92","","","","-41","","Ice Crystals"
"-85.81","79.99","EUREKA A","2401203","2018-03-06 14:00","2018","03","06","14:00","-34.9","","-38.6","","70","","","","36","","3","","24.1","","102.94","","","","-39","","Ice Crystals"
"-85.81","79.99","EUREKA A","2401203","2018-03-06 15:00","2018","03","06","15:00","-34.6","","-38.3","","70","","","","14","","3","","19.3","","102.97","","","","-38","","Ice Crystals"
"-85.81","79.99","EUREKA A","2401203","2018-03-06 16:00","2018","03","06","16:00","-35.0","","-38.7","","70","","","","19","","4","","19.3","","103.01","","","","-40","","Ice Crystals"
"-85.81","79.99","EUREKA A","2401203","2018-03-06 17:00","2018","03","06","17:00","-35.5","","-39.3","","69","","","","10","","4","","24.1","","103.01","","","","-41","","NA"
"-85.81","79.99","EUREKA A","2401203","2018-03-06 18:00","2018","03","06","18:00","-37.8","","-41.7","","67","","","","36","","3","","24.1","","103.03","","","","-42","","Mainly Clear"
"-85.81","79.99","EUREKA A","2401203","2018-03-06 19:00","2018","03","06","19:00","-36.5","","-40.3","","69","","","","36","","2","","24.1","","103.03","","","","-39","","NA"
"-85.81","79.99","EUREKA A","2401203","2018-03-06 20:00","2018","03","06","20:00","-36.6","","-40.4","","69","","","","36","","1","","24.1","","103.03","","","","-38","","Snow"
"-85.81","79.99","EUREKA A","2401203","2018-03-06 21:00","2018","03","06","21:00","-36.9","","-40.7","","69","","","","11","","5","","24.1","","103.04","","","","-43","","Ice Crystals"
"-85.81","79.99","EUREKA A","2401203","2018-03-06 22:00","2018","03","06","22:00","-37.6","","-41.5","","68","","","","36","","3","","16.1","","103.06","","","","-42","","Ice Crystals"
"-85.81","79.99","EUREKA A","2401203","2018-03-06 23:00","2018","03","06","23:00","-36.8","","-40.7","","68","","","","","","0","","24.1","","103.04","","","","","","Ice Crystals"
"-85.81","79.99","EUREKA A","2401203","2018-03-07 00:00","2018","03","07","00:00","-36.9","","-40.8","","68","","","","8","","3","","12.9","","103.07","","","","-41","","Ice Crystals"
"-85.81","79.99","EUREKA A","2401203","2018-03-07 01:00","2018","03","07","01:00","-37.8","","-41.7","","68","","","","12","","6","","8.1","","103.09","","","","-45","","Ice Crystals,Fog"
"-85.81","79.99","EUREKA A","2401203","2018-03-07 02:00","2018","03","07","02:00","-37.5","","-41.4","","68","","","","13","","3","","9.7","","103.11","","","","-41","","Ice Crystals,Fog"
"-85.81","79.99","EUREKA A","2401203","2018-03-07 03:00","2018","03","07","03:00","-39.2","","-43.2","","67","","","","7","","6","","24.1","","103.15","","","","-47","","Ice Crystals"
"-85.81","79.99","EUREKA A","2401203","2018-03-07 04:00","2018","03","07","04:00","-39.2","","-43.2","","67","","","","36","","2","","24.1","","103.17","","","","-42","","Ice Crystals"
"-85.81","79.99","EUREKA A","2401203","2018-03-07 05:00","2018","03","07","05:00","-39.3","","-43.3","","67","","","","5","","4","","24.1","","103.14","","","","-45","","Ice Crystals"
"-85.81","79.99","EUREKA A","2401203","2018-03-07 06:00","2018","03","07","06:00","-38.8","","-42.8","","67","","","","13","","5","","24.1","","103.16","","","","-46","","Ice Crystals"
"-85.81","79.99","EUREKA A","2401203","2018-03-07 07:00","2018","03","07","07:00","-40.0","","-44.1","","66","","","","10","","4","","24.1","","103.17","","","","-46","","Ice Crystals"
"-85.81","79.99","EUREKA A","2401203","2018-03-07 08:00","2018","03","07","08:00","-40.1","","-44.2","","66","","","","7","","5","","24.1","","103.19","","","","-47","","NA"
"-85.81","79.99","EUREKA A","2401203","2018-03-07 09:00","2018","03","07","09:00","-39.9","","-44.0","","66","","","","10","","5","","24.1","","103.19","","","","-47","","Clear"
"-85.81","79.99","EUREKA A","2401203","2018-03-07 10:00","2018","03","07","10:00","-38.6","","-42.6","","67","","","","29","","3","","24.1","","103.19","","","","-43","","NA"
"-85.81","79.99","EUREKA A","2401203","2018-03-07 11:00","2018","03","07","11:00","-39.4","","-43.4","","67","","","","7","","4","","24.1","","103.18","","","","-45","","Ice Crystals"
"-85.81","79.99","EUREKA A","2401203","2018-03-07 12:00","2018","03","07","12:00","-38.6","","-42.6","","67","","","","36","","2","","24.1","","103.17","","","","-41","","Ice Crystals"
"-85.81","79.99","EUREKA A","2401203","2018-03-07 13:00","2018","03","07","13:00","-39.0","","-43.0","","67","","","","9","","5","","24.1","","103.21","","","","-46","","Ice Crystals"
"-85.81","79.99","EUREKA A","2401203","2018-03-07 14:00","2018","03","07","14:00","-38.2","","-42.2","","67","","","","16","","4","","24.1","","103.22","","","","-44","","Ice Crystals"
"-85.81","79.99","EUREKA A","2401203","2018-03-07 15:00","2018","03","07","15:00","-38.8","","-42.8","","67","","","","11","","6","","24.1","","103.24","","","","-47","","Ice Crystals"
"-85.81","79.99","EUREKA A","2401203","2018-03-07 16:00","2018","03","07","16:00","-38.5","","-42.5","","67","","","","14","","3","","24.1","","103.25","","","","-43","","Ice Crystals"
"-85.81","79.99","EUREKA A","2401203","2018-03-07 17:00","2018","03","07","17:00","-39.1","","-43.2","","66","","","","36","","2","","24.1","","103.30","","","","-42","","Ice Crystals"
"-85.81","79.99","EUREKA A","2401203","2018-03-07 18:00","2018","03","07","18:00","-39.3","","-43.4","","66","","","","36","","1","","24.1","","103.29","","","","-41","","Ice Crystals"
"-85.81","79.99","EUREKA A","2401203","2018-03-07 19:00","2018","03","07","19:00","-39.7","","-43.8","","66","","","","36","","2","","24.1","","103.27","","","","-42","","Ice Crystals"
"-85.81","79.99","EUREKA A","2401203","2018-03-07 20:00","2018","03","07","20:00","-39.6","","-43.8","","66","","","","12","","4","","24.1","","103.26","","","","-45","","Ice Crystals"
"-85.81","79.99","EUREKA A","2401203","2018-03-07 21:00","2018","03","07","21:00","-40.0","","-44.1","","66","","","","12","","7","","16.1","","103.27","","","","-49","","Ice Crystals"
"-85.81","79.99","EUREKA A","2401203","2018-03-07 22:00","2018","03","07","22:00","-41.7","","-45.9","","65","","","","36","","2","","9.7","","103.26","","","","-45","","Ice Crystals"
"-85.81","79.99","EUREKA A","2401203","2018-03-07 23:00","2018","03","07","23:00","-41.6","","-45.8","","65","","","","5","","3","","4.8","","103.25","","","","-46","","Ice Crystals,Fog"
"-85.81","79.99","EUREKA A","2401203","2018-03-08 00:00","2018","03","08","00:00","-40.4","","-44.6","","66","","","","36","","2","","16.1","","103.25","","","","-43","","Ice Crystals"
"-85.81","79.99","EUREKA A","2401203","2018-03-08 01:00","2018","03","08","01:00","-40.9","","-45.0","","65","","","","36","","1","","12.9","","103.28","","","","-42","","Ice Crystals"
"-85.81","79.99","EUREKA A","2401203","2018-03-08 02:00","2018","03","08","02:00","-39.9","","-44.0","","66","","","","36","","1","","16.1","","103.28","","","","-41","","Ice Crystals"
"-85.81","79.99","EUREKA A","2401203","2018-03-08 03:00","2018","03","08","03:00","-40.4","","-44.6","","65","","","","16","","4","","24.1","","103.30","","","","-46","","Ice Crystals"
"-85.81","79.99","EUREKA A","2401203","2018-03-08 04:00","2018","03","08","04:00","-41.4","","-45.6","","65","","","","8","","3","","24.1","","103.31","","","","-46","","Ice Crystals"
"-85.81","79.99","EUREKA A","2401203","2018-03-08 05:00","2018","03","08","05:00","-40.9","","-45.0","","65","","","","12","","3","","24.1","","103.27","","","","-45","","Ice Crystals"
"-85.81","79.99","EUREKA A","2401203","2018-03-08 06:00","2018","03","08","06:00","-41.2","","-45.4","","65","","","","7","","3","","24.1","","103.25","","","","-45","","Ice Crystals"
"-85.81","79.99","EUREKA A","2401203","2018-03-08 07:00","2018","03","08","07:00","-41.7","","-45.9","","65","","","","10","","4","","24.1","","103.25","","","","-47","","Ice Crystals"
"-85.81","79.99","EUREKA A","2401203","2018-03-08 08:00","2018","03","08","08:00","-40.7","","-44.8","","65","","","","36","","2","","24.1","","103.24","","","","-44","","Ice Crystals"
"-85.81","79.99","EUREKA A","2401203","2018-03-08 09:00","2018","03","08","09:00","-40.3","","-44.4","","66","","","","14","","5","","24.1","","103.23","","","","-47","","Ice Crystals"
"-85.81","79.99","EUREKA A","2401203","2018-03-08 10:00","2018","03","08","10:00","-40.8","","-45.0","","65","","","","13","","7","","24.1","","103.22","","","","-50","","Ice Crystals"
"-85.81","79.99","EUREKA A","2401203","2018-03-08 11:00","2018","03","08","11:00","-40.7","","-44.8","","66","","","","36","","1","","24.1","","103.23","","","","-42","","Ice Crystals"
"-85.81","79.99","EUREKA A","2401203","2018-03-08 12:00","2018","03","08","12:00","-41.0","","-45.2","","65","","","","5","","3","","24.1","","103.19","","","","-45","","Ice Crystals"
"-85.81","79.99","EUREKA A","2401203","2018-03-08 13:00","2018","03","08","13:00","-41.1","","-45.2","","65","","","","0","","1","","24.1","","103.19","","","","-43","","Ice Crystals"
"-85.81","79.99","EUREKA A","2401203","2018-03-08 14:00","2018","03","08","14:00","-40.0","","-44.1","","66","","","","36","","1","","24.1","","103.20","","","","-41","","Ice Crystals"
"-85.81","79.99","EUREKA A","2401203","2018-03-08 15:00","2018","03","08","15:00","-41.7","","-45.9","","65","","","","6","","5","","24.1","","103.21","","","","-49","","Ice Crystals"
"-85.81","79.99","EUREKA A","2401203","2018-03-08 16:00","2018","03","08","16:00","-42.1","","-46.4","","64","","","","9","","5","","24.1","","103.20","","","","-49","","Ice Crystals"
"-85.81","79.99","EUREKA A","2401203","2018-03-08 17:00","2018","03","08","17:00","-42.8","","-47.1","","64","","","","6","","4","","24.1","","103.22","","","","-49","","Ice Crystals"
"-85.81","79.99","EUREKA A","2401203","2018-03-08 18:00","2018","03","08","18:00","-42.0","","-46.2","","65","","","","7","","7","","24.1","","103.22","","","","-51","","Ice Crystals"
"-85.81","79.99","EUREKA A","2401203","2018-03-08 19:00","2018","03","08","19:00","-41.7","","-45.9","","65","","","","8","","5","","24.1","","103.20","","","","-49","","Ice Crystals"
"-85.81","79.99","EUREKA A","2401203","2018-03-08 20:00","2018","03","08","20:00","-41.5","","-45.8","","65","","","","11","","6","","24.1","","103.20","","","","-50","","Ice Crystals"
"-85.81","79.99","EUREKA A","2401203","2018-03-08 21:00","2018","03","08","21:00","-42.5","","-46.8","","64","","","","36","","2","","24.1","","103.19","","","","-45","","Ice Crystals"
"-85.81","79.99","EUREKA A","2401203","2018-03-08 22:00","2018","03","08","22:00","-41.6","","-45.9","","65","","","","36","","1","","24.1","","103.16","","","","-43","","Ice Crystals"
"-85.81","79.99","EUREKA A","2401203","2018-03-08 23:00","2018","03","08","23:00","-41.7","","-45.9","","65","","","","13","","3","","24.1","","103.16","","","","-46","","Ice Crystals"
"-85.81","79.99","EUREKA A","2401203","2018-03-09 00:00","2018","03","09","00:00","-42.5","","-46.8","","64","","","","36","","2","","24.1","","103.14","","","","-45","","Ice Crystals"
"-85.81","79.99","EUREKA A","2401203","2018-03-09 01:00","2018","03","09","01:00","-41.6","","-45.8","","65","","","","36","","2","","24.1","","103.15","","","","-44","","Ice Crystals"
"-85.81","79.99","EUREKA A","2401203","2018-03-09 02:00","2018","03","09","02:00","-42.6","","-46.9","","64","","","","12","","3","","24.1","","103.16","","","","-47","","Ice Crystals"
"-85.81","79.99","EUREKA A","2401203","2018-03-09 03:00","2018","03","09","03:00","-42.4","","-46.6","","64","","","","11","","4","","24.1","","103.17","","","","-48","","Ice Crystals"
"-85.81","79.99","EUREKA A","2401203","2018-03-09 04:00","2018","03","09","04:00","-43.1","","-47.5","","64","","","","9","","4","","24.1","","103.17","","","","-49","","Ice Crystals"
"-85.81","79.99","EUREKA A","2401203","2018-03-09 05:00","2018","03","09","05:00","-42.5","","-46.8","","64","","","","36","","2","","24.1","","103.13","","","","-45","","Ice Crystals"
"-85.81","79.99","EUREKA A","2401203","2018-03-09 06:00","2018","03","09","06:00","-42.6","","-46.9","","64","","","","0","","1","","24.1","","103.13","","","","-44","","Ice Crystals"
"-85.81","79.99","EUREKA A","2401203","2018-03-09 07:00","2018","03","09","07:00","-41.8","","-46.1","","64","","","","36","","2","","24.1","","103.11","","","","-45","","Ice Crystals"
"-85.81","79.99","EUREKA A","2401203","2018-03-09 08:00","2018","03","09","08:00","-42.3","","-46.6","","64","","","","13","","4","","24.1","","103.11","","","","-48","","Ice Crystals"
"-85.81","79.99","EUREKA A","2401203","2018-03-09 09:00","2018","03","09","09:00","-42.5","","-46.8","","64","","","","13","","5","","24.1","","103.12","","","","-50","","Ice Crystals"
"-85.81","79.99","EUREKA A","2401203","2018-03-09 10:00","2018","03","09","10:00","-42.9","","-47.2","","64","","","","6","","4","","24.1","","103.11","","","","-49","","Ice Crystals"
"-85.81","79.99","EUREKA A","2401203","2018-03-09 11:00","2018","03","09","11:00","-40.9","","-45.0","","65","","","","16","","7","","24.1","","103.10","","","","-50","","NA"
"-85.81","79.99","EUREKA A","2401203","2018-03-09 12:00","2018","03","09","12:00","-40.6","","-44.8","","65","","","","","","0","","24.1","","103.07","","","","","","Clear"
"-85.81","79.99","EUREKA A","2401203","2018-03-09 13:00","2018","03","09","13:00","-40.8","","-44.9","","66","","","","36","","3","","24.1","","103.07","","","","-45","","NA"
"-85.81","79.99","EUREKA A","2401203","2018-03-09 14:00","2018","03","09","14:00","-41.2","","-45.3","","65","","","","36","","2","","24.1","","103.06","","","","-44","","NA"
"-85.81","79.99","EUREKA A","2401203","2018-03-09 15:00","2018","03","09","15:00","-40.2","","-44.4","","66","","","","29","","3","","24.1","","103.08","","","","-44","","Clear"
"-85.81","79.99","EUREKA A","2401203","2018-03-09 16:00","2018","03","09","16:00","-41.5","","-45.8","","65","","","","36","","1","","24.1","","103.05","","","","-43","","NA"
"-85.81","79.99","EUREKA A","2401203","2018-03-09 17:00","2018","03","09","17:00","-41.0","","-45.2","","65","","","","36","","1","","24.1","","103.03","","","","-42","","NA"
"-85.81","79.99","EUREKA A","2401203","2018-03-09 18:00","2018","03","09","18:00","-42.0","","-46.3","","64","","","","23","","5","","24.1","","103.04","","","","-49","","Clear"
"-85.81","79.99","EUREKA A","2401203","2018-03-09 19:00","2018","03","09","19:00","-42.1","","-46.4","","64","","","","36","","2","","24.1","","103.02","","","","-45","","NA"
"-85.81","79.99","EUREKA A","2401203","2018-03-09 20:00","2018","03","09","20:00","-42.7","","-47.0","","64","","","","36","","2","","24.1","","102.99","","","","-46","","NA"
"-85.81","79.99","EUREKA A","2401203","2018-03-09 21:00","2018","03","09","21:00","-42.4","","-46.7","","64","","","","36","","1","","24.1","","102.96","","","","-44","","Clear"
"-85.81","79.99","EUREKA A","2401203","2018-03-09 22:00","2018","03","09","22:00","-42.0","","-46.3","","64","","","","36","","2","","24.1","","102.93","","","","-45","","NA"
"-85.81","79.99","EUREKA A","2401203","2018-03-09 23:00","2018","03","09","23:00","-42.6","","-46.9","","64","","","","18","","4","","24.1","","102.91","","","","-48","","NA"
"-85.81","79.99","EUREKA A","2401203","2018-03-10 00:00","2018","03","10","00:00","-42.8","","-47.1","","64","","","","13","","4","","24.1","","102.89","","","","-49","","Clear"
"-85.81","79.99","EUREKA A","2401203","2018-03-10 01:00","2018","03","10","01:00","-43.3","","-47.7","","64","","","","10","","4","","24.1","","102.87","","","","-49","","NA"
"-85.81","79.99","EUREKA A","2401203","2018-03-10 02:00","2018","03","10","02:00","-42.8","","-47.1","","64","","","","8","","4","","24.1","","102.86","","","","-49","","NA"
"-85.81","79.99","EUREKA A","2401203","2018-03-10 03:00","2018","03","10","03:00","-41.6","","-45.9","","64","","","","36","","2","","24.1","","102.83","","","","-44","","Clear"
"-85.81","79.99","EUREKA A","2401203","2018-03-10 04:00","2018","03","10","04:00","-41.7","","-46.0","","64","","","","36","","1","","24.1","","102.78","","","","-43","","NA"
"-85.81","79.99","EUREKA A","2401203","2018-03-10 05:00","2018","03","10","05:00","-42.7","","-47.1","","64","","","","13","","3","","24.1","","102.77","","","","-47","","NA"
"-85.81","79.99","EUREKA A","2401203","2018-03-10 06:00","2018","03","10","06:00","-43.3","","-47.6","","64","","","","9","","5","","24.1","","102.74","","","","-51","","Mainly Clear"
"-85.81","79.99","EUREKA A","2401203","2018-03-10 07:00","2018","03","10","07:00","-43.3","","-47.6","","64","","","","6","","7","","24.1","","102.71","","","","-53","","NA"
"-85.81","79.99","EUREKA A","2401203","2018-03-10 08:00","2018","03","10","08:00","-40.7","","-45.0","","65","","","","14","","5","","24.1","","102.67","","","","-48","","NA"
"-85.81","79.99","EUREKA A","2401203","2018-03-10 09:00","2018","03","10","09:00","-40.6","","-44.8","","65","","","","10","","3","","24.1","","102.63","","","","-45","","Mainly Clear"
"-85.81","79.99","EUREKA A","2401203","2018-03-10 10:00","2018","03","10","10:00","-38.8","","-42.9","","66","","","","11","","4","","24.1","","102.59","","","","-44","","NA"
"-85.81","79.99","EUREKA A","2401203","2018-03-10 11:00","2018","03","10","11:00","-38.6","","-42.6","","66","","","","20","","3","","24.1","","102.55","","","","-43","","NA"
"-85.81","79.99","EUREKA A","2401203","2018-03-10 12:00","2018","03","10","12:00","-40.0","","-44.2","","66","","","","11","","5","","24.1","","102.53","","","","-47","","Clear"
"-85.81","79.99","EUREKA A","2401203","2018-03-10 13:00","2018","03","10","13:00","-41.0","","-45.1","","65","","","","8","","7","","24.1","","102.49","","","","-50","","NA"
"-85.81","79.99","EUREKA A","2401203","2018-03-10 14:00","2018","03","10","14:00","-39.7","","-43.8","","66","","","","9","","4","","24.1","","102.46","","","","-45","","NA"
"-85.81","79.99","EUREKA A","2401203","2018-03-10 15:00","2018","03","10","15:00","-39.0","","-43.1","","66","","","","36","","3","","24.1","","102.45","","","","-43","","Clear"
"-85.81","79.99","EUREKA A","2401203","2018-03-10 16:00","2018","03","10","16:00","-38.9","","-43.0","","66","","","","36","","1","","24.1","","102.40","","","","-40","","NA"
"-85.81","79.99","EUREKA A","2401203","2018-03-10 17:00","2018","03","10","17:00","-39.7","","-43.9","","66","","","","14","","4","","24.1","","102.41","","","","-45","","NA"
"-85.81","79.99","EUREKA A","2401203","2018-03-10 18:00","2018","03","10","18:00","-40.3","","-44.5","","65","","","","7","","7","","24.1","","102.38","","","","-49","","Clear"
"-85.81","79.99","EUREKA A","2401203","2018-03-10 19:00","2018","03","10","19:00","-39.1","","-43.3","","66","","","","36","","3","","24.1","","102.37","","","","-43","","NA"
"-85.81","79.99","EUREKA A","2401203","2018-03-10 20:00","2018","03","10","20:00","-40.4","","-44.6","","65","","","","36","","3","","24.1","","102.33","","","","-45","","NA"
"-85.81","79.99","EUREKA A","2401203","2018-03-10 21:00","2018","03","10","21:00","-39.6","","-43.8","","66","","","","36","","3","","24.1","","102.32","","","","-44","","Clear"
"-85.81","79.99","EUREKA A","2401203","2018-03-10 22:00","2018","03","10","22:00","-40.9","","-45.1","","65","","","","13","","10","","24.1","","102.27","","","","-52","","NA"
"-85.81","79.99","EUREKA A","2401203","2018-03-10 23:00","2018","03","10","23:00","-40.5","","-44.7","","65","","","","10","","7","","24.1","","102.25","","","","-49","","NA"
"-85.81","79.99","EUREKA A","2401203","2018-03-11 00:00","2018","03","11","00:00","-41.2","","-45.5","","65","","","","7","","4","","24.1","","102.24","","","","-47","","Clear"
"-85.81","79.99","EUREKA A","2401203","2018-03-11 01:00","2018","03","11","01:00","-38.8","","-42.9","","66","","","","29","","8","","24.1","","102.22","","","","-48","","NA"
"-85.81","79.99","EUREKA A","2401203","2018-03-11 02:00","2018","03","11","02:00","-39.0","","-43.1","","66","","","","36","","2","","24.1","","102.23","","","","-42","","NA"
"-85.81","79.99","EUREKA A","2401203","2018-03-11 03:00","2018","03","11","03:00","-40.5","","-44.8","","65","","","","10","","6","","24.1","","102.21","","","","-49","","Mainly Clear"
"-85.81","79.99","EUREKA A","2401203","2018-03-11 04:00","2018","03","11","04:00","-40.3","","-44.5","","65","","","","11","","7","","24.1","","102.23","","","","-49","","NA"
"-85.81","79.99","EUREKA A","2401203","2018-03-11 05:00","2018","03","11","05:00","-39.4","","-43.6","","66","","","","7","","5","","24.1","","102.20","","","","-46","","NA"
"-85.81","79.99","EUREKA A","2401203","2018-03-11 06:00","2018","03","11","06:00","-38.5","","-42.6","","66","","","","2","","3","","24.1","","102.21","","","","-43","","Mostly Cloudy"
"-85.81","79.99","EUREKA A","2401203","2018-03-11 07:00","2018","03","11","07:00","-37.8","","-41.8","","67","","","","0","","1","","24.1","","102.20","","","","-39","","NA"
"-85.81","79.99","EUREKA A","2401203","2018-03-11 08:00","2018","03","11","08:00","-37.5","","-41.6","","67","","","","36","","2","","24.1","","102.16","","","","-40","","NA"
"-85.81","79.99","EUREKA A","2401203","2018-03-11 09:00","2018","03","11","09:00","-39.6","","-43.8","","66","","","","6","","3","","24.1","","102.17","","","","-44","","Mainly Clear"
"-85.81","79.99","EUREKA A","2401203","2018-03-11 10:00","2018","03","11","10:00","-38.4","","-42.5","","67","","","","36","","2","","24.1","","102.14","","","","-41","","NA"
"-85.81","79.99","EUREKA A","2401203","2018-03-11 11:00","2018","03","11","11:00","-38.6","","-42.7","","66","","","","8","","4","","24.1","","102.13","","","","-44","","NA"
"-85.81","79.99","EUREKA A","2401203","2018-03-11 12:00","2018","03","11","12:00","-37.3","","-41.3","","67","","","","4","","5","","24.1","","102.12","","","","-44","","Ice Crystals"
"-85.81","79.99","EUREKA A","2401203","2018-03-11 13:00","2018","03","11","13:00","-38.6","","-42.6","","67","","","","6","","3","","24.1","","102.13","","","","-43","","Ice Crystals"
"-85.81","79.99","EUREKA A","2401203","2018-03-11 14:00","2018","03","11","14:00","-37.8","","-41.8","","67","","","","36","","1","","24.1","","102.15","","","","-39","","Ice Crystals"
"-85.81","79.99","EUREKA A","2401203","2018-03-11 15:00","2018","03","11","15:00","-37.5","","-41.5","","67","","","","36","","2","","24.1","","102.21","","","","-40","","Ice Crystals"
"-85.81","79.99","EUREKA A","2401203","2018-03-11 16:00","2018","03","11","16:00","-38.2","","-42.3","","66","","","","15","","11","","24.1","","102.20","","","","-50","","Ice Crystals"
"-85.81","79.99","EUREKA A","2401203","2018-03-11 17:00","2018","03","11","17:00","-39.6","","-43.8","","65","","","","9","","3","","24.1","","102.22","","","","-44","","Ice Crystals"
"-85.81","79.99","EUREKA A","2401203","2018-03-11 18:00","2018","03","11","18:00","-40.0","","-44.2","","65","","","","8","","3","","24.1","","102.23","","","","-44","","Ice Crystals"
"-85.81","79.99","EUREKA A","2401203","2018-03-11 19:00","2018","03","11","19:00","-39.7","","-43.9","","65","","","","8","","3","","24.1","","102.24","","","","-44","","Ice Crystals"
"-85.81","79.99","EUREKA A","2401203","2018-03-11 20:00","2018","03","11","20:00","-37.6","","-41.7","","67","","","","16","","4","","24.1","","102.25","","","","-43","","Ice Crystals"
"-85.81","79.99","EUREKA A","2401203","2018-03-11 21:00","2018","03","11","21:00","-39.0","","-43.1","","66","","","","16","","4","","24.1","","102.25","","","","-44","","Ice Crystals"
"-85.81","79.99","EUREKA A","2401203","2018-03-11 22:00","2018","03","11","22:00","-39.1","","-43.2","","66","","","","7","","4","","24.1","","102.26","","","","-45","","Ice Crystals"
"-85.81","79.99","EUREKA A","2401203","2018-03-11 23:00","2018","03","11","23:00","-40.3","","-44.5","","65","","","","11","","5","","24.1","","102.28","","","","-47","","NA"
"-85.81","79.99","EUREKA A","2401203","2018-03-12 00:00","2018","03","12","00:00","-38.5","","-42.6","","66","","","","12","","4","","24.1","","102.27","","","","-44","","Clear"
"-85.81","79.99","EUREKA A","2401203","2018-03-12 01:00","2018","03","12","01:00","-40.0","","-44.2","","65","","","","7","","3","","24.1","","102.29","","","","-44","","NA"
"-85.81","79.99","EUREKA A","2401203","2018-03-12 02:00","2018","03","12","02:00","-39.4","","-43.6","","66","","","","7","","6","","24.1","","102.30","","","","-47","","NA"
"-85.81","79.99","EUREKA A","2401203","2018-03-12 03:00","2018","03","12","03:00","-39.3","","-43.5","","66","","","","8","","7","","24.1","","102.32","","","","-48","","Clear"
"-85.81","79.99","EUREKA A","2401203","2018-03-12 04:00","2018","03","12","04:00","-38.8","","-42.9","","66","","","","9","","8","","24.1","","102.34","","","","-48","","NA"
"-85.81","79.99","EUREKA A","2401203","2018-03-12 05:00","2018","03","12","05:00","-37.7","","-41.8","","67","","","","10","","13","","24.1","","102.32","","","","-50","","NA"
"-85.81","79.99","EUREKA A","2401203","2018-03-12 06:00","2018","03","12","06:00","-39.2","","-43.4","","66","","","","6","","5","","24.1","","102.33","","","","-46","","Clear"
"-85.81","79.99","EUREKA A","2401203","2018-03-12 07:00","2018","03","12","07:00","-39.6","","-43.8","","65","","","","8","","7","","24.1","","102.33","","","","-48","","NA"
"-85.81","79.99","EUREKA A","2401203","2018-03-12 08:00","2018","03","12","08:00","-38.1","","-42.2","","66","","","","11","","9","","24.1","","102.31","","","","-48","","NA"
"-85.81","79.99","EUREKA A","2401203","2018-03-12 09:00","2018","03","12","09:00","-38.7","","-42.8","","66","","","","7","","7","","24.1","","102.31","","","","-47","","Ice Crystals"
"-85.81","79.99","EUREKA A","2401203","2018-03-12 10:00","2018","03","12","10:00","-39.1","","-43.3","","66","","","","8","","6","","24.1","","102.31","","","","-47","","Ice Crystals"
"-85.81","79.99","EUREKA A","2401203","2018-03-12 11:00","2018","03","12","11:00","-38.0","","-42.0","","67","","","","6","","4","","24.1","","102.29","","","","-43","","Ice Crystals"
"-85.81","79.99","EUREKA A","2401203","2018-03-12 12:00","2018","03","12","12:00","-38.4","","-42.5","","67","","","","8","","7","","24.1","","102.27","","","","-47","","Ice Crystals"
"-85.81","79.99","EUREKA A","2401203","2018-03-12 13:00","2018","03","12","13:00","-38.4","","-42.4","","67","","","","7","","5","","24.1","","102.27","","","","-45","","Ice Crystals"
"-85.81","79.99","EUREKA A","2401203","2018-03-12 14:00","2018","03","12","14:00","-38.5","","-42.5","","67","","","","12","","6","","24.1","","102.26","","","","-46","","Ice Crystals"
"-85.81","79.99","EUREKA A","2401203","2018-03-12 15:00","2018","03","12","15:00","-39.3","","-43.5","","66","","","","9","","6","","24.1","","102.23","","","","-47","","Ice Crystals"
"-85.81","79.99","EUREKA A","2401203","2018-03-12 16:00","2018","03","12","16:00","-38.8","","-42.9","","66","","","","11","","3","","24.1","","102.23","","","","-43","","Ice Crystals"
"-85.81","79.99","EUREKA A","2401203","2018-03-12 17:00","2018","03","12","17:00","-38.0","","-42.1","","67","","","","4","","5","","24.1","","102.23","","","","-45","","Ice Crystals"
"-85.81","79.99","EUREKA A","2401203","2018-03-12 18:00","2018","03","12","18:00","-37.5","","-41.5","","67","","","","36","","3","","6.4","","102.20","","","","-41","","Snow,Fog"
"-85.81","79.99","EUREKA A","2401203","2018-03-12 19:00","2018","03","12","19:00","-36.2","","-40.1","","68","","","","7","","6","","4.0","","102.17","","","","-44","","Ice Crystals,Fog"
"-85.81","79.99","EUREKA A","2401203","2018-03-12 20:00","2018","03","12","20:00","-35.6","","-39.5","","68","","","","6","","4","","4.8","","102.12","","","","-41","","Ice Crystals,Fog"
"-85.81","79.99","EUREKA A","2401203","2018-03-12 21:00","2018","03","12","21:00","-36.1","","-40.1","","68","","","","13","","8","","24.1","","102.08","","","","-45","","Ice Crystals"
"-85.81","79.99","EUREKA A","2401203","2018-03-12 22:00","2018","03","12","22:00","-37.0","","-41.0","","68","","","","12","","12","","24.1","","102.06","","","","-49","","Ice Crystals"
"-85.81","79.99","EUREKA A","2401203","2018-03-12 23:00","2018","03","12","23:00","-36.7","","-40.7","","68","","","","12","","16","","24.1","","102.02","","","","-50","","Ice Crystals"
"-85.81","79.99","EUREKA A","2401203","2018-03-13 00:00","2018","03","13","00:00","-36.6","","-40.5","","68","","","","12","","17","","24.1","","102.01","","","","-50","","Ice Crystals"
"-85.81","79.99","EUREKA A","2401203","2018-03-13 01:00","2018","03","13","01:00","-37.0","","-40.9","","68","","","","13","","14","","24.1","","102.00","","","","-50","","Ice Crystals"
"-85.81","79.99","EUREKA A","2401203","2018-03-13 02:00","2018","03","13","02:00","-37.1","","-41.0","","68","","","","13","","18","","16.1","","102.02","","","","-51","","Ice Crystals"
"-85.81","79.99","EUREKA A","2401203","2018-03-13 03:00","2018","03","13","03:00","-37.6","","-41.6","","67","","","","13","","14","","16.1","","102.02","","","","-50","","Snow"
"-85.81","79.99","EUREKA A","2401203","2018-03-13 04:00","2018","03","13","04:00","-36.7","","-40.7","","68","","","","14","","13","","24.1","","102.02","","","","-49","","Snow"
"-85.81","79.99","EUREKA A","2401203","2018-03-13 05:00","2018","03","13","05:00","-37.6","","-41.7","","67","","","","11","","10","","24.1","","101.99","","","","-48","","Snow"
"-85.81","79.99","EUREKA A","2401203","2018-03-13 06:00","2018","03","13","06:00","-38.1","","-42.2","","67","","","","13","","15","","19.3","","101.97","","","","-51","","Snow"
"-85.81","79.99","EUREKA A","2401203","2018-03-13 07:00","2018","03","13","07:00","-37.8","","-41.8","","67","","","","13","","13","","16.1","","101.99","","","","-50","","Snow"
"-85.81","79.99","EUREKA A","2401203","2018-03-13 08:00","2018","03","13","08:00","-37.8","","-41.9","","67","","","","14","","18","","24.1","","102.01","","","","-52","","Snow"
"-85.81","79.99","EUREKA A","2401203","2018-03-13 09:00","2018","03","13","09:00","-38.7","","-42.8","","66","","","","13","","13","","24.1","","102.01","","","","-51","","Snow"
"-85.81","79.99","EUREKA A","2401203","2018-03-13 10:00","2018","03","13","10:00","-38.0","","-42.1","","67","","","","13","","15","","24.1","","102.03","","","","-51","","Snow"
"-85.81","79.99","EUREKA A","2401203","2018-03-13 11:00","2018","03","13","11:00","-37.7","","-41.7","","67","","","","15","","10","","24.1","","102.02","","","","-48","","Snow"
"-85.81","79.99","EUREKA A","2401203","2018-03-13 12:00","2018","03","13","12:00","-38.4","","-42.4","","67","","","","14","","12","","24.1","","102.03","","","","-50","","Snow"
"-85.81","79.99","EUREKA A","2401203","2018-03-13 13:00","2018","03","13","13:00","-38.2","","-42.2","","67","","","","13","","11","","16.1","","102.04","","","","-50","","Snow"
"-85.81","79.99","EUREKA A","2401203","2018-03-13 14:00","2018","03","13","14:00","-38.2","","-42.3","","67","","","","9","","5","","24.1","","102.05","","","","-45","","Snow"
"-85.81","79.99","EUREKA A","2401203","2018-03-13 15:00","2018","03","13","15:00","-38.3","","-42.4","","67","","","","6","","4","","19.3","","102.06","","","","-44","","Snow"
"-85.81","79.99","EUREKA A","2401203","2018-03-13 16:00","2018","03","13","16:00","-38.4","","-42.6","","66","","","","36","","2","","16.1","","102.05","","","","-41","","Snow"
"-85.81","79.99","EUREKA A","2401203","2018-03-13 17:00","2018","03","13","17:00","-39.4","","-43.5","","66","","","","13","","7","","24.1","","102.06","","","","-48","","NA"
"-85.81","79.99","EUREKA A","2401203","2018-03-13 18:00","2018","03","13","18:00","-40.4","","-44.6","","65","","","","11","","3","","24.1","","102.09","","","","-45","","Mainly Clear"
"-85.81","79.99","EUREKA A","2401203","2018-03-13 19:00","2018","03","13","19:00","-39.4","","-43.5","","66","","","","18","","3","","12.9","","102.09","","","","-44","","Ice Crystals"
"-85.81","79.99","EUREKA A","2401203","2018-03-13 20:00","2018","03","13","20:00","-40.0","","-44.1","","65","","","","36","","3","","12.9","","102.09","","","","-44","","Ice Crystals"
"-85.81","79.99","EUREKA A","2401203","2018-03-13 21:00","2018","03","13","21:00","-39.4","","-43.5","","66","","","","36","","2","","24.1","","102.08","","","","-42","","Ice Crystals"
"-85.81","79.99","EUREKA A","2401203","2018-03-13 22:00","2018","03","13","22:00","-40.6","","-44.8","","65","","","","10","","4","","24.1","","102.09","","","","-46","","Ice Crystals"
"-85.81","79.99","EUREKA A","2401203","2018-03-13 23:00","2018","03","13","23:00","-41.2","","-45.4","","65","","","","36","","3","","24.1","","102.07","","","","-45","","Ice Crystals"
"-85.81","79.99","EUREKA A","2401203","2018-03-14 00:00","2018","03","14","00:00","-41.1","","-45.4","","65","","","","36","","3","","16.1","","102.06","","","","-45","","Ice Crystals"
"-85.81","79.99","EUREKA A","2401203","2018-03-14 01:00","2018","03","14","01:00","-40.9","","-45.1","","65","","","","36","","1","","16.1","","102.07","","","","-42","","Ice Crystals"
"-85.81","79.99","EUREKA A","2401203","2018-03-14 02:00","2018","03","14","02:00","-40.8","","-45.0","","65","","","","36","","1","","24.1","","102.08","","","","-42","","Ice Crystals"
"-85.81","79.99","EUREKA A","2401203","2018-03-14 03:00","2018","03","14","03:00","-42.0","","-46.3","","64","","","","7","","5","","24.1","","102.10","","","","-49","","Ice Crystals"
"-85.81","79.99","EUREKA A","2401203","2018-03-14 04:00","2018","03","14","04:00","-41.6","","-45.8","","65","","","","36","","2","","24.1","","102.11","","","","-44","","Snow"
"-85.81","79.99","EUREKA A","2401203","2018-03-14 05:00","2018","03","14","05:00","-41.8","","-46.1","","64","","","","5","","3","","24.1","","102.08","","","","-46","","Snow"
"-85.81","79.99","EUREKA A","2401203","2018-03-14 06:00","2018","03","14","06:00","-40.2","","-44.4","","65","","","","21","","4","","8.1","","102.09","","","","-46","","Snow"
"-85.81","79.99","EUREKA A","2401203","2018-03-14 07:00","2018","03","14","07:00","-40.1","","-44.3","","65","","","","36","","1","","8.1","","102.09","","","","-41","","Snow"
"-85.81","79.99","EUREKA A","2401203","2018-03-14 08:00","2018","03","14","08:00","-40.2","","-44.4","","65","","","","36","","2","","24.1","","102.09","","","","-43","","Ice Crystals"
"-85.81","79.99","EUREKA A","2401203","2018-03-14 09:00","2018","03","14","09:00","-40.0","","-44.1","","65","","","","36","","1","","24.1","","102.08","","","","-41","","Ice Crystals"
"-85.81","79.99","EUREKA A","2401203","2018-03-14 10:00","2018","03","14","10:00","-40.1","","-44.3","","65","","","","9","","4","","24.1","","102.09","","","","-46","","Ice Crystals"
"-85.81","79.99","EUREKA A","2401203","2018-03-14 11:00","2018","03","14","11:00","-39.9","","-44.1","","65","","","","12","","4","","24.1","","102.11","","","","-45","","Ice Crystals"
"-85.81","79.99","EUREKA A","2401203","2018-03-14 12:00","2018","03","14","12:00","-40.7","","-44.9","","65","","","","36","","3","","24.1","","102.11","","","","-45","","Ice Crystals"
"-85.81","79.99","EUREKA A","2401203","2018-03-14 13:00","2018","03","14","13:00","-39.4","","-43.6","","66","","","","8","","3","","24.1","","102.12","","","","-44","","Snow"
"-85.81","79.99","EUREKA A","2401203","2018-03-14 14:00","2018","03","14","14:00","-38.5","","-42.6","","66","","","","36","","2","","24.1","","102.15","","","","-41","","Snow"
"-85.81","79.99","EUREKA A","2401203","2018-03-14 15:00","2018","03","14","15:00","-38.5","","-42.6","","66","","","","5","","4","","24.1","","102.18","","","","-44","","Snow"
"-85.81","79.99","EUREKA A","2401203","2018-03-14 16:00","2018","03","14","16:00","-38.2","","-42.3","","66","","","","36","","3","","24.1","","102.20","","","","-42","","Snow"
"-85.81","79.99","EUREKA A","2401203","2018-03-14 17:00","2018","03","14","17:00","-38.8","","-43.0","","66","","","","22","","4","","24.1","","102.24","","","","-44","","Ice Crystals"
"-85.81","79.99","EUREKA A","2401203","2018-03-14 18:00","2018","03","14","18:00","-39.7","","-43.9","","65","","","","36","","2","","24.1","","102.27","","","","-42","","Ice Crystals"
"-85.81","79.99","EUREKA A","2401203","2018-03-14 19:00","2018","03","14","19:00","-39.6","","-43.8","","66","","","","5","","5","","24.1","","102.31","","","","-47","","Ice Crystals"
"-85.81","79.99","EUREKA A","2401203","2018-03-14 20:00","2018","03","14","20:00","-40.7","","-45.0","","65","","","","36","","2","","24.1","","102.33","","","","-44","","Ice Crystals"
"-85.81","79.99","EUREKA A","2401203","2018-03-14 21:00","2018","03","14","21:00","-40.0","","-44.3","","65","","","","36","","1","","24.1","","102.36","","","","-41","","Ice Crystals"
"-85.81","79.99","EUREKA A","2401203","2018-03-14 22:00","2018","03","14","22:00","-40.4","","-44.7","","65","","","","9","","3","","24.1","","102.38","","","","-45","","Ice Crystals"
"-85.81","79.99","EUREKA A","2401203","2018-03-14 23:00","2018","03","14","23:00","-40.5","","-44.7","","65","","","","7","","7","","24.1","","102.39","","","","-49","","Ice Crystals"
"-85.81","79.99","EUREKA A","2401203","2018-03-15 00:00","2018","03","15","00:00","-41.2","","-45.5","","65","","","","10","","4","","24.1","","102.41","","","","-47","","Ice Crystals"
"-85.81","79.99","EUREKA A","2401203","2018-03-15 01:00","2018","03","15","01:00","-40.6","","-44.9","","65","","","","7","","5","","16.1","","102.44","","","","-48","","Ice Crystals"
"-85.81","79.99","EUREKA A","2401203","2018-03-15 02:00","2018","03","15","02:00","-41.0","","-45.3","","65","","","","36","","3","","24.1","","102.47","","","","-45","","Ice Crystals"
"-85.81","79.99","EUREKA A","2401203","2018-03-15 03:00","2018","03","15","03:00","-40.6","","-44.8","","65","","","","36","","3","","24.1","","102.51","","","","-45","","Ice Crystals"
"-85.81","79.99","EUREKA A","2401203","2018-03-15 04:00","2018","03","15","04:00","-40.7","","-44.9","","65","","","","12","","3","","16.1","","102.54","","","","-45","","Ice Crystals"
"-85.81","79.99","EUREKA A","2401203","2018-03-15 05:00","2018","03","15","05:00","-40.6","","-44.8","","65","","","","12","","5","","24.1","","102.54","","","","-48","","Ice Crystals"
"-85.81","79.99","EUREKA A","2401203","2018-03-15 06:00","2018","03","15","06:00","-41.9","","-46.2","","64","","","","6","","3","","24.1","","102.57","","","","-46","","Ice Crystals"
"-85.81","79.99","EUREKA A","2401203","2018-03-15 07:00","2018","03","15","07:00","-41.8","","-46.0","","64","","","","36","","2","","24.1","","102.57","","","","-45","","Ice Crystals"
"-85.81","79.99","EUREKA A","2401203","2018-03-15 08:00","2018","03","15","08:00","-41.2","","-45.5","","64","","","","10","","3","","24.1","","102.58","","","","-45","","Ice Crystals"
"-85.81","79.99","EUREKA A","2401203","2018-03-15 09:00","2018","03","15","09:00","-41.1","","-45.4","","64","","","","7","","4","","24.1","","102.62","","","","-47","","Ice Crystals"
"-85.81","79.99","EUREKA A","2401203","2018-03-15 10:00","2018","03","15","10:00","-39.0","","-43.1","","66","","","","0","","1","","24.1","","102.62","","","","-40","","Ice Crystals"
"-85.81","79.99","EUREKA A","2401203","2018-03-15 11:00","2018","03","15","11:00","-38.8","","-42.9","","66","","","","10","","3","","24.1","","102.63","","","","-43","","Ice Crystals"
"-85.81","79.99","EUREKA A","2401203","2018-03-15 12:00","2018","03","15","12:00","-40.0","","-44.2","","66","","","","12","","3","","24.1","","102.64","","","","-44","","Ice Crystals"
"-85.81","79.99","EUREKA A","2401203","2018-03-15 13:00","2018","03","15","13:00","-39.2","","-43.3","","66","","","","13","","4","","24.1","","102.65","","","","-45","","Ice Crystals"
"-85.81","79.99","EUREKA A","2401203","2018-03-15 14:00","2018","03","15","14:00","-39.7","","-43.8","","66","","","","36","","3","","24.1","","102.68","","","","-44","","Ice Crystals"
"-85.81","79.99","EUREKA A","2401203","2018-03-15 15:00","2018","03","15","15:00","-40.1","","-44.2","","65","","","","17","","3","","24.1","","102.71","","","","-44","","Ice Crystals"
"-85.81","79.99","EUREKA A","2401203","2018-03-15 16:00","2018","03","15","16:00","-39.9","","-44.1","","66","","","","12","","3","","24.1","","102.75","","","","-44","","Ice Crystals"
"-85.81","79.99","EUREKA A","2401203","2018-03-15 17:00","2018","03","15","17:00","-41.4","","-45.6","","64","","","","36","","3","","24.1","","102.79","","","","-46","","NA"
"-85.81","79.99","EUREKA A","2401203","2018-03-15 18:00","2018","03","15","18:00","-42.2","","-46.5","","64","","","","36","","4","","24.1","","102.82","","","","-48","","Clear"
"-85.81","79.99","EUREKA A","2401203","2018-03-15 19:00","2018","03","15","19:00","-41.5","","-45.8","","64","","","","36","","1","","24.1","","102.84","","","","-43","","NA"
"-85.81","79.99","EUREKA A","2401203","2018-03-15 20:00","2018","03","15","20:00","-42.8","","-47.1","","64","","","","36","","1","","24.1","","102.87","","","","-44","","NA"
"-85.81","79.99","EUREKA A","2401203","2018-03-15 21:00","2018","03","15","21:00","-42.9","","-47.2","","64","","","","36","","3","","24.1","","102.88","","","","-47","","Clear"
"-85.81","79.99","EUREKA A","2401203","2018-03-15 22:00","2018","03","15","22:00","-43.1","","-47.5","","63","","","","36","","2","","24.1","","102.89","","","","-46","","NA"
"-85.81","79.99","EUREKA A","2401203","2018-03-15 23:00","2018","03","15","23:00","-43.3","","-47.7","","63","","","","13","","7","","24.1","","102.92","","","","-53","","NA"
"-85.81","79.99","EUREKA A","2401203","2018-03-16 00:00","2018","03","16","00:00","-43.8","","-48.2","","63","","","","8","","3","","24.1","","102.94","","","","-48","","Clear"
"-85.81","79.99","EUREKA A","2401203","2018-03-16 01:00","2018","03","16","01:00","-43.8","","-48.2","","63","","","","36","","2","","24.1","","102.96","","","","-47","","NA"
"-85.81","79.99","EUREKA A","2401203","2018-03-16 02:00","2018","03","16","02:00","-43.9","","-48.3","","63","","","","36","","3","","24.1","","102.98","","","","-48","","NA"
"-85.81","79.99","EUREKA A","2401203","2018-03-16 03:00","2018","03","16","03:00","-43.3","","-47.6","","63","","","","36","","2","","24.1","","102.99","","","","-46","","Clear"
"-85.81","79.99","EUREKA A","2401203","2018-03-16 04:00","2018","03","16","04:00","-43.5","","-47.9","","63","","","","36","","1","","24.1","","102.98","","","","-45","","NA"
"-85.81","79.99","EUREKA A","2401203","2018-03-16 05:00","2018","03","16","05:00","-43.2","","-47.6","","63","","","","36","","3","","24.1","","103.00","","","","-48","","NA"
"-85.81","79.99","EUREKA A","2401203","2018-03-16 06:00","2018","03","16","06:00","-44.0","","-48.4","","63","","","","16","","5","","24.1","","103.03","","","","-52","","Clear"
"-85.81","79.99","EUREKA A","2401203","2018-03-16 07:00","2018","03","16","07:00","-44.3","","-48.7","","63","","","","8","","3","","24.1","","103.01","","","","-49","","NA"
"-85.81","79.99","EUREKA A","2401203","2018-03-16 08:00","2018","03","16","08:00","-43.4","","-47.8","","63","","","","11","","5","","24.1","","103.03","","","","-51","","NA"
"-85.81","79.99","EUREKA A","2401203","2018-03-16 09:00","2018","03","16","09:00","-43.2","","-47.6","","63","","","","3","","3","","24.1","","103.03","","","","-48","","Clear"
"-85.81","79.99","EUREKA A","2401203","2018-03-16 10:00","2018","03","16","10:00","-42.7","","-47.1","","64","","","","36","","1","","24.1","","103.03","","","","-44","","NA"
"-85.81","79.99","EUREKA A","2401203","2018-03-16 11:00","2018","03","16","11:00","-42.7","","-47.1","","64","","","","36","","2","","24.1","","103.05","","","","-46","","NA"
"-85.81","79.99","EUREKA A","2401203","2018-03-16 12:00","2018","03","16","12:00","-41.8","","-46.0","","64","","","","36","","2","","24.1","","103.04","","","","-45","","Clear"
"-85.81","79.99","EUREKA A","2401203","2018-03-16 13:00","2018","03","16","13:00","-41.4","","-45.7","","64","","","","11","","3","","24.1","","103.03","","","","-46","","NA"
"-85.81","79.99","EUREKA A","2401203","2018-03-16 14:00","2018","03","16","14:00","-41.4","","-45.7","","64","","","","36","","1","","24.1","","103.06","","","","-43","","NA"
"-85.81","79.99","EUREKA A","2401203","2018-03-16 15:00","2018","03","16","15:00","-41.5","","-45.8","","64","","","","18","","5","","24.1","","103.08","","","","-49","","Clear"
"-85.81","79.99","EUREKA A","2401203","2018-03-16 16:00","2018","03","16","16:00","-42.7","","-47.1","","64","","","","7","","5","","24.1","","103.08","","","","-50","","NA"
"-85.81","79.99","EUREKA A","2401203","2018-03-16 17:00","2018","03","16","17:00","-43.0","","-47.4","","63","","","","11","","5","","24.1","","103.12","","","","-50","","NA"
"-85.81","79.99","EUREKA A","2401203","2018-03-16 18:00","2018","03","16","18:00","-43.6","","-48.0","","63","","","","11","","4","","24.1","","103.11","","","","-50","","Clear"
"-85.81","79.99","EUREKA A","2401203","2018-03-16 19:00","2018","03","16","19:00","-44.3","","-48.7","","63","","","","6","","4","","24.1","","103.10","","","","-50","","NA"
"-85.81","79.99","EUREKA A","2401203","2018-03-16 20:00","2018","03","16","20:00","-43.1","","-47.5","","63","","","","36","","1","","24.1","","103.12","","","","-45","","NA"
"-85.81","79.99","EUREKA A","2401203","2018-03-16 21:00","2018","03","16","21:00","-43.0","","-47.4","","63","","","","36","","1","","24.1","","103.11","","","","-44","","Clear"
"-85.81","79.99","EUREKA A","2401203","2018-03-16 22:00","2018","03","16","22:00","-42.9","","-47.3","","63","","","","36","","3","","24.1","","103.10","","","","-47","","NA"
"-85.81","79.99","EUREKA A","2401203","2018-03-16 23:00","2018","03","16","23:00","-43.4","","-47.8","","63","","","","9","","5","","24.1","","103.12","","","","-51","","NA"
"-85.81","79.99","EUREKA A","2401203","2018-03-17 00:00","2018","03","17","00:00","-43.0","","-47.4","","64","","","","0","","1","","24.1","","103.14","","","","-44","","Clear"
"-85.81","79.99","EUREKA A","2401203","2018-03-17 01:00","2018","03","17","01:00","-42.6","","-47.0","","64","","","","28","","4","","24.1","","103.17","","","","-48","","NA"
"-85.81","79.99","EUREKA A","2401203","2018-03-17 02:00","2018","03","17","02:00","-42.5","","-46.8","","64","","","","36","","2","","24.1","","103.18","","","","-45","","NA"
"-85.81","79.99","EUREKA A","2401203","2018-03-17 03:00","2018","03","17","03:00","-42.6","","-47.0","","64","","","","36","","3","","24.1","","103.22","","","","-47","","Clear"
"-85.81","79.99","EUREKA A","2401203","2018-03-17 04:00","2018","03","17","04:00","-42.7","","-47.0","","64","","","","36","","2","","24.1","","103.21","","","","-46","","NA"
"-85.81","79.99","EUREKA A","2401203","2018-03-17 05:00","2018","03","17","05:00","-43.4","","-47.7","","63","","","","36","","3","","24.1","","103.26","","","","-48","","NA"
"-85.81","79.99","EUREKA A","2401203","2018-03-17 06:00","2018","03","17","06:00","-43.4","","-47.7","","63","","","","0","","1","","24.1","","103.28","","","","-45","","Clear"
"-85.81","79.99","EUREKA A","2401203","2018-03-17 07:00","2018","03","17","07:00","-42.7","","-47.0","","64","","","","0","","1","","24.1","","103.29","","","","-44","","NA"
"-85.81","79.99","EUREKA A","2401203","2018-03-17 08:00","2018","03","17","08:00","-41.4","","-45.7","","64","","","","36","","2","","24.1","","103.30","","","","-44","","NA"
"-85.81","79.99","EUREKA A","2401203","2018-03-17 09:00","2018","03","17","09:00","-42.8","","-47.2","","63","","","","36","","2","","24.1","","103.34","","","","-46","","Clear"
"-85.81","79.99","EUREKA A","2401203","2018-03-17 10:00","2018","03","17","10:00","-41.3","","-45.6","","64","","","","36","","1","","24.1","","103.34","","","","-43","","NA"
"-85.81","79.99","EUREKA A","2401203","2018-03-17 11:00","2018","03","17","11:00","-41.0","","-45.3","","64","","","","36","","1","","24.1","","103.34","","","","-42","","NA"
"-85.81","79.99","EUREKA A","2401203","2018-03-17 12:00","2018","03","17","12:00","-40.8","","-45.1","","65","","","","0","","1","","24.1","","103.35","","","","-42","","Clear"
"-85.81","79.99","EUREKA A","2401203","2018-03-17 13:00","2018","03","17","13:00","-41.3","","-45.7","","64","","","","2","","4","","24.1","","103.36","","","","-47","","NA"
"-85.81","79.99","EUREKA A","2401203","2018-03-17 14:00","2018","03","17","14:00","-41.0","","-45.2","","65","","","","10","","4","","24.1","","103.38","","","","-47","","NA"
"-85.81","79.99","EUREKA A","2401203","2018-03-17 15:00","2018","03","17","15:00","-42.1","","-46.4","","64","","","","11","","6","","24.1","","103.40","","","","-50","","Clear"
"-85.81","79.99","EUREKA A","2401203","2018-03-17 16:00","2018","03","17","16:00","-40.9","","-45.2","","65","","","","9","","5","","24.1","","103.39","","","","-48","","NA"
"-85.81","79.99","EUREKA A","2401203","2018-03-17 17:00","2018","03","17","17:00","-41.3","","-45.6","","64","","","","11","","5","","24.1","","103.42","","","","-48","","NA"
"-85.81","79.99","EUREKA A","2401203","2018-03-17 18:00","2018","03","17","18:00","-42.4","","-46.8","","64","","","","8","","4","","24.1","","103.41","","","","-48","","Clear"
"-85.81","79.99","EUREKA A","2401203","2018-03-17 19:00","2018","03","17","19:00","-42.0","","-46.4","","64","","","","14","","4","","24.1","","103.41","","","","-48","","NA"
"-85.81","79.99","EUREKA A","2401203","2018-03-17 20:00","2018","03","17","20:00","-41.6","","-46.0","","64","","","","3","","5","","24.1","","103.36","","","","-49","","NA"
"-85.81","79.99","EUREKA A","2401203","2018-03-17 21:00","2018","03","17","21:00","-41.7","","-46.1","","64","","","","35","","3","","24.1","","103.35","","","","-46","","Clear"
"-85.81","79.99","EUREKA A","2401203","2018-03-17 22:00","2018","03","17","22:00","-41.4","","-45.6","","64","","","","36","","1","","24.1","","103.33","","","","-43","","NA"
"-85.81","79.99","EUREKA A","2401203","2018-03-17 23:00","2018","03","17","23:00","-40.5","","-44.8","","65","","","","13","","5","","24.1","","103.30","","","","-48","","NA"
"-85.81","79.99","EUREKA A","2401203","2018-03-18 00:00","2018","03","18","00:00","-41.9","","-46.2","","64","","","","","","0","","24.1","","103.26","","","","","","Clear"
"-85.81","79.99","EUREKA A","2401203","2018-03-18 01:00","2018","03","18","01:00","-41.7","","-46.0","","64","","","","3","","4","","24.1","","103.21","","","","-47","","NA"
"-85.81","79.99","EUREKA A","2401203","2018-03-18 02:00","2018","03","18","02:00","-42.4","","-46.7","","64","","","","12","","6","","24.1","","103.19","","","","-51","","NA"
"-85.81","79.99","EUREKA A","2401203","2018-03-18 03:00","2018","03","18","03:00","-41.4","","-45.8","","64","","","","3","","3","","24.1","","103.13","","","","-46","","Clear"
"-85.81","79.99","EUREKA A","2401203","2018-03-18 04:00","2018","03","18","04:00","-41.1","","-45.4","","64","","","","","","0","","24.1","","103.08","","","","","","NA"
"-85.81","79.99","EUREKA A","2401203","2018-03-18 05:00","2018","03","18","05:00","-41.4","","-45.7","","64","","","","7","","5","","24.1","","103.02","","","","-49","","NA"
"-85.81","79.99","EUREKA A","2401203","2018-03-18 06:00","2018","03","18","06:00","-41.5","","-45.8","","64","","","","15","","4","","24.1","","102.95","","","","-47","","Clear"
"-85.81","79.99","EUREKA A","2401203","2018-03-18 07:00","2018","03","18","07:00","-41.0","","-45.4","","64","","","","36","","2","","24.1","","102.87","","","","-44","","NA"
"-85.81","79.99","EUREKA A","2401203","2018-03-18 08:00","2018","03","18","08:00","-40.0","","-44.3","","65","","","","36","","1","","24.1","","102.81","","","","-41","","Ice Crystals"
"-85.81","79.99","EUREKA A","2401203","2018-03-18 09:00","2018","03","18","09:00","-40.4","","-44.7","","64","","","","36","","2","","24.1","","102.76","","","","-43","","Ice Crystals"
"-85.81","79.99","EUREKA A","2401203","2018-03-18 10:00","2018","03","18","10:00","-41.2","","-45.5","","64","","","","14","","7","","24.1","","102.69","","","","-50","","Ice Crystals"
"-85.81","79.99","EUREKA A","2401203","2018-03-18 11:00","2018","03","18","11:00","-40.5","","-44.7","","65","","","","36","","2","","24.1","","102.65","","","","-43","","Ice Crystals"
"-85.81","79.99","EUREKA A","2401203","2018-03-18 12:00","2018","03","18","12:00","-40.5","","-44.8","","65","","","","13","","9","","24.1","","102.60","","","","-51","","Ice Crystals"
"-85.81","79.99","EUREKA A","2401203","2018-03-18 13:00","2018","03","18","13:00","-39.9","","-44.1","","65","","","","6","","3","","24.1","","102.57","","","","-44","","Ice Crystals"
"-85.81","79.99","EUREKA A","2401203","2018-03-18 14:00","2018","03","18","14:00","-39.7","","-43.9","","65","","","","11","","6","","24.1","","102.52","","","","-48","","Ice Crystals"
"-85.81","79.99","EUREKA A","2401203","2018-03-18 15:00","2018","03","18","15:00","-40.2","","-44.5","","65","","","","13","","12","","24.1","","102.49","","","","-53","","Ice Crystals"
"-85.81","79.99","EUREKA A","2401203","2018-03-18 16:00","2018","03","18","16:00","-40.0","","-44.2","","65","","","","11","","9","","24.1","","102.49","","","","-50","","NA"
"-85.81","79.99","EUREKA A","2401203","2018-03-18 17:00","2018","03","18","17:00","-40.3","","-44.6","","65","","","","9","","8","","24.1","","102.47","","","","-50","","NA"
"-85.81","79.99","EUREKA A","2401203","2018-03-18 18:00","2018","03","18","18:00","-40.8","","-45.1","","65","","","","7","","7","","24.1","","102.51","","","","-50","","Clear"
"-85.81","79.99","EUREKA A","2401203","2018-03-18 19:00","2018","03","18","19:00","-40.7","","-45.0","","65","","","","11","","7","","24.1","","102.50","","","","-50","","NA"
"-85.81","79.99","EUREKA A","2401203","2018-03-18 20:00","2018","03","18","20:00","-40.3","","-44.5","","65","","","","14","","20","","4.8","","102.53","","","","-56","","Ice Crystals,Fog"
"-85.81","79.99","EUREKA A","2401203","2018-03-18 21:00","2018","03","18","21:00","-40.8","","-45.1","","65","","","","7","","8","","24.1","","102.53","","","","-51","","Ice Crystals"
"-85.81","79.99","EUREKA A","2401203","2018-03-18 22:00","2018","03","18","22:00","-40.4","","-44.7","","65","","","","10","","4","","24.1","","102.55","","","","-46","","Ice Crystals"
"-85.81","79.99","EUREKA A","2401203","2018-03-18 23:00","2018","03","18","23:00","-41.7","","-46.1","","64","","","","5","","3","","24.1","","102.54","","","","-46","","Ice Crystals"
"-85.81","79.99","EUREKA A","2401203","2018-03-19 00:00","2018","03","19","00:00","-40.5","","-44.7","","65","","","","12","","9","","24.1","","102.54","","","","-51","","Ice Crystals"
"-85.81","79.99","EUREKA A","2401203","2018-03-19 01:00","2018","03","19","01:00","-41.1","","-45.5","","64","","","","11","","9","","24.1","","102.53","","","","-52","","Ice Crystals"
"-85.81","79.99","EUREKA A","2401203","2018-03-19 02:00","2018","03","19","02:00","-41.6","","-46.0","","64","","","","14","","7","","24.1","","102.53","","","","-51","","Ice Crystals"
"-85.81","79.99","EUREKA A","2401203","2018-03-19 03:00","2018","03","19","03:00","-40.9","","-45.2","","64","","","","7","","7","","24.1","","102.54","","","","-50","","Ice Crystals"
"-85.81","79.99","EUREKA A","2401203","2018-03-19 04:00","2018","03","19","04:00","-40.2","","-44.4","","65","","","","6","","4","","24.1","","102.48","","","","-46","","Ice Crystals"
"-85.81","79.99","EUREKA A","2401203","2018-03-19 05:00","2018","03","19","05:00","-40.3","","-44.6","","65","","","","2","","3","","24.1","","102.47","","","","-45","","Ice Crystals"
"-85.81","79.99","EUREKA A","2401203","2018-03-19 06:00","2018","03","19","06:00","-39.5","","-43.8","","65","","","","18","","4","","24.1","","102.45","","","","-45","","Ice Crystals"
"-85.81","79.99","EUREKA A","2401203","2018-03-19 07:00","2018","03","19","07:00","-41.2","","-45.5","","64","","","","36","","3","","24.1","","102.42","","","","-45","","Ice Crystals"
"-85.81","79.99","EUREKA A","2401203","2018-03-19 08:00","2018","03","19","08:00","-40.1","","-44.4","","65","","","","33","","7","","24.1","","102.44","","","","-49","","Ice Crystals"
"-85.81","79.99","EUREKA A","2401203","2018-03-19 09:00","2018","03","19","09:00","-38.7","","-42.9","","65","","","","31","","7","","24.1","","102.39","","","","-47","","Ice Crystals"
"-85.81","79.99","EUREKA A","2401203","2018-03-19 10:00","2018","03","19","10:00","-39.8","","-44.0","","65","","","","23","","8","","24.1","","102.39","","","","-49","","Ice Crystals"
"-85.81","79.99","EUREKA A","2401203","2018-03-19 11:00","2018","03","19","11:00","-39.5","","-43.8","","65","","","","30","","7","","24.1","","102.35","","","","-48","","Ice Crystals"
"-85.81","79.99","EUREKA A","2401203","2018-03-19 12:00","2018","03","19","12:00","-38.8","","-43.0","","66","","","","29","","4","","24.1","","102.34","","","","-44","","Ice Crystals"
"-85.81","79.99","EUREKA A","2401203","2018-03-19 13:00","2018","03","19","13:00","-38.6","","-42.8","","66","","","","29","","4","","24.1","","102.29","","","","-44","","Ice Crystals"
"-85.81","79.99","EUREKA A","2401203","2018-03-19 14:00","2018","03","19","14:00","-38.1","","-42.3","","66","","","","30","","3","","24.1","","102.27","","","","-42","","NA"
"-85.81","79.99","EUREKA A","2401203","2018-03-19 15:00","2018","03","19","15:00","-37.6","","-41.8","","66","","","","36","","1","","24.1","","102.24","","","","-39","","Mostly Cloudy"
"-85.81","79.99","EUREKA A","2401203","2018-03-19 16:00","2018","03","19","16:00","-38.3","","-42.4","","66","","","","17","","8","","24.1","","102.22","","","","-48","","NA"
"-85.81","79.99","EUREKA A","2401203","2018-03-19 17:00","2018","03","19","17:00","-38.6","","-42.7","","66","","","","9","","4","","24.1","","102.22","","","","-44","","NA"
"-85.81","79.99","EUREKA A","2401203","2018-03-19 18:00","2018","03","19","18:00","-40.1","","-44.4","","65","","","","11","","4","","24.1","","102.17","","","","-46","","Clear"
"-85.81","79.99","EUREKA A","2401203","2018-03-19 19:00","2018","03","19","19:00","-39.9","","-44.1","","65","","","","7","","4","","24.1","","102.14","","","","-45","","NA"
"-85.81","79.99","EUREKA A","2401203","2018-03-19 20:00","2018","03","19","20:00","-38.5","","-42.5","","67","","","","17","","7","","24.1","","102.10","","","","-47","","NA"
"-85.81","79.99","EUREKA A","2401203","2018-03-19 21:00","2018","03","19","21:00","-40.0","","-44.1","","66","","","","9","","3","","24.1","","102.06","","","","-44","","Clear"
"-85.81","79.99","EUREKA A","2401203","2018-03-19 22:00","2018","03","19","22:00","-40.1","","-44.3","","65","","","","36","","1","","24.1","","102.02","","","","-41","","NA"
"-85.81","79.99","EUREKA A","2401203","2018-03-19 23:00","2018","03","19","23:00","-39.4","","-43.5","","66","","","","7","","4","","24.1","","102.00","","","","-45","","NA"
"-85.81","79.99","EUREKA A","2401203","2018-03-20 00:00","2018","03","20","00:00","-40.5","","-44.7","","65","","","","8","","4","","24.1","","101.98","","","","-46","","Ice Crystals"
"-85.81","79.99","EUREKA A","2401203","2018-03-20 01:00","2018","03","20","01:00","-40.0","","-44.3","","65","","","","5","","4","","24.1","","101.95","","","","-46","","Ice Crystals"
"-85.81","79.99","EUREKA A","2401203","2018-03-20 02:00","2018","03","20","02:00","-36.4","","-40.4","","68","","","","2","","5","","24.1","","101.92","","","","-43","","Ice Crystals"
"-85.81","79.99","EUREKA A","2401203","2018-03-20 03:00","2018","03","20","03:00","-37.0","","-41.0","","67","","","","34","","10","","24.1","","101.86","","","","-48","","Ice Crystals"
"-85.81","79.99","EUREKA A","2401203","2018-03-20 04:00","2018","03","20","04:00","-36.8","","-40.8","","67","","","","17","","3","","24.1","","101.81","","","","-41","","Ice Crystals"
"-85.81","79.99","EUREKA A","2401203","2018-03-20 05:00","2018","03","20","05:00","-37.7","","-41.8","","67","","","","7","","4","","24.1","","101.74","","","","-43","","Ice Crystals"
"-85.81","79.99","EUREKA A","2401203","2018-03-20 06:00","2018","03","20","06:00","-39.0","","-43.1","","66","","","","11","","6","","24.1","","101.68","","","","-47","","Ice Crystals"
"-85.81","79.99","EUREKA A","2401203","2018-03-20 07:00","2018","03","20","07:00","-38.3","","-42.4","","66","","","","6","","6","","24.1","","101.63","","","","-46","","Ice Crystals"
"-85.81","79.99","EUREKA A","2401203","2018-03-20 08:00","2018","03","20","08:00","-36.8","","-40.9","","67","","","","10","","5","","24.1","","101.59","","","","-43","","Ice Crystals"
"-85.81","79.99","EUREKA A","2401203","2018-03-20 09:00","2018","03","20","09:00","-36.1","","-40.1","","68","","","","35","","4","","24.1","","101.52","","","","-41","","Ice Crystals"
"-85.81","79.99","EUREKA A","2401203","2018-03-20 10:00","2018","03","20","10:00","-35.7","","-39.7","","68","","","","31","","4","","24.1","","101.49","","","","-41","","Ice Crystals"
"-85.81","79.99","EUREKA A","2401203","2018-03-20 11:00","2018","03","20","11:00","-35.1","","-39.1","","68","","","","1","","6","","24.1","","101.44","","","","-42","","Ice Crystals"
"-85.81","79.99","EUREKA A","2401203","2018-03-20 12:00","2018","03","20","12:00","-37.2","","-41.2","","67","","","","12","","5","","24.1","","101.37","","","","-44","","Ice Crystals"
"-85.81","79.99","EUREKA A","2401203","2018-03-20 13:00","2018","03","20","13:00","-36.7","","-40.7","","67","","","","13","","8","","24.1","","101.35","","","","-46","","Ice Crystals"
"-85.81","79.99","EUREKA A","2401203","2018-03-20 14:00","2018","03","20","14:00","-37.1","","-41.2","","67","","","","10","","7","","24.1","","101.31","","","","-46","","Ice Crystals"
"-85.81","79.99","EUREKA A","2401203","2018-03-20 15:00","2018","03","20","15:00","-35.9","","-39.9","","68","","","","14","","6","","24.1","","101.31","","","","-43","","Ice Crystals"
"-85.81","79.99","EUREKA A","2401203","2018-03-20 16:00","2018","03","20","16:00","-36.9","","-40.9","","67","","","","9","","8","","24.1","","101.29","","","","-46","","Ice Crystals"
"-85.81","79.99","EUREKA A","2401203","2018-03-20 17:00","2018","03","20","17:00","-37.0","","-41.1","","67","","","","11","","5","","24.1","","101.29","","","","-44","","Ice Crystals"
"-85.81","79.99","EUREKA A","2401203","2018-03-20 18:00","2018","03","20","18:00","-38.2","","-42.2","","67","","","","8","","8","","16.1","","101.31","","","","-48","","Ice Crystals"
"-85.81","79.99","EUREKA A","2401203","2018-03-20 19:00","2018","03","20","19:00","-37.3","","-41.3","","67","","","","9","","3","","16.1","","101.32","","","","-41","","Ice Crystals"
"-85.81","79.99","EUREKA A","2401203","2018-03-20 20:00","2018","03","20","20:00","-37.0","","-41.0","","67","","","","11","","4","","24.1","","101.32","","","","-42","","Ice Crystals"
"-85.81","79.99","EUREKA A","2401203","2018-03-20 21:00","2018","03","20","21:00","-38.0","","-42.1","","67","","","","9","","8","","24.1","","101.35","","","","-47","","Ice Crystals"
"-85.81","79.99","EUREKA A","2401203","2018-03-20 22:00","2018","03","20","22:00","-37.9","","-41.9","","67","","","","36","","1","","24.1","","101.35","","","","-39","","Ice Crystals"
"-85.81","79.99","EUREKA A","2401203","2018-03-20 23:00","2018","03","20","23:00","-37.1","","-41.1","","67","","","","13","","4","","24.1","","101.38","","","","-42","","Ice Crystals"
"-85.81","79.99","EUREKA A","2401203","2018-03-21 00:00","2018","03","21","00:00","-37.9","","-42.0","","67","","","","10","","9","","24.1","","101.44","","","","-48","","Ice Crystals"
"-85.81","79.99","EUREKA A","2401203","2018-03-21 01:00","2018","03","21","01:00","-38.7","","-42.8","","67","","","","6","","4","","24.1","","101.50","","","","-44","","Ice Crystals"
"-85.81","79.99","EUREKA A","2401203","2018-03-21 02:00","2018","03","21","02:00","-38.2","","-42.3","","67","","","","12","","8","","24.1","","101.55","","","","-48","","Ice Crystals"
"-85.81","79.99","EUREKA A","2401203","2018-03-21 03:00","2018","03","21","03:00","-39.1","","-43.2","","66","","","","8","","9","","24.1","","101.61","","","","-49","","Ice Crystals"
"-85.81","79.99","EUREKA A","2401203","2018-03-21 04:00","2018","03","21","04:00","-38.8","","-42.8","","67","","","","11","","8","","24.1","","101.69","","","","-48","","Ice Crystals"
"-85.81","79.99","EUREKA A","2401203","2018-03-21 05:00","2018","03","21","05:00","-39.3","","-43.5","","66","","","","12","","5","","24.1","","101.71","","","","-46","","Ice Crystals"
"-85.81","79.99","EUREKA A","2401203","2018-03-21 06:00","2018","03","21","06:00","-38.8","","-42.9","","67","","","","10","","8","","24.1","","101.77","","","","-48","","Ice Crystals"
"-85.81","79.99","EUREKA A","2401203","2018-03-21 07:00","2018","03","21","07:00","-40.0","","-44.1","","66","","","","8","","7","","24.1","","101.80","","","","-49","","Ice Crystals"
"-85.81","79.99","EUREKA A","2401203","2018-03-21 08:00","2018","03","21","08:00","-38.3","","-42.4","","67","","","","10","","8","","19.3","","101.84","","","","-48","","Ice Crystals"
"-85.81","79.99","EUREKA A","2401203","2018-03-21 09:00","2018","03","21","09:00","-38.2","","-42.2","","67","","","","36","","3","","24.1","","101.88","","","","-42","","Ice Crystals"
"-85.81","79.99","EUREKA A","2401203","2018-03-21 10:00","2018","03","21","10:00","-37.7","","-41.8","","67","","","","11","","8","","24.1","","101.92","","","","-47","","Ice Crystals"
"-85.81","79.99","EUREKA A","2401203","2018-03-21 11:00","2018","03","21","11:00","-37.9","","-42.0","","66","","","","36","","2","","24.1","","101.96","","","","-41","","NA"
"-85.81","79.99","EUREKA A","2401203","2018-03-21 12:00","2018","03","21","12:00","-37.1","","-41.2","","67","","","","13","","9","","24.1","","102.01","","","","-47","","Ice Crystals"
"-85.81","79.99","EUREKA A","2401203","2018-03-21 13:00","2018","03","21","13:00","-37.4","","-41.5","","67","","","","10","","6","","24.1","","102.06","","","","-45","","NA"
"-85.81","79.99","EUREKA A","2401203","2018-03-21 14:00","2018","03","21","14:00","-36.4","","-40.4","","67","","","","36","","3","","24.1","","102.11","","","","-40","","NA"
"-85.81","79.99","EUREKA A","2401203","2018-03-21 15:00","2018","03","21","15:00","-35.2","","-39.1","","68","","","","4","","3","","24.1","","102.15","","","","-39","","Mainly Clear"
"-85.81","79.99","EUREKA A","2401203","2018-03-21 16:00","2018","03","21","16:00","-35.5","","-39.6","","68","","","","13","","11","","24.1","","102.18","","","","-46","","NA"
"-85.81","79.99","EUREKA A","2401203","2018-03-21 17:00","2018","03","21","17:00","-36.9","","-41.0","","67","","","","7","","4","","24.1","","102.25","","","","-42","","NA"
"-85.81","79.99","EUREKA A","2401203","2018-03-21 18:00","2018","03","21","18:00","-36.3","","-40.2","","68","","","","7","","4","","24.1","","102.26","","","","-41","","Mostly Cloudy"
"-85.81","79.99","EUREKA A","2401203","2018-03-21 19:00","2018","03","21","19:00","-35.9","","-39.8","","68","","","","13","","8","","24.1","","102.29","","","","-45","","NA"
"-85.81","79.99","EUREKA A","2401203","2018-03-21 20:00","2018","03","21","20:00","-35.5","","-39.4","","69","","","","32","","3","","24.1","","102.32","","","","-39","","NA"
"-85.81","79.99","EUREKA A","2401203","2018-03-21 21:00","2018","03","21","21:00","-36.6","","-40.6","","68","","","","13","","4","","24.1","","102.30","","","","-42","","Mainly Clear"
"-85.81","79.99","EUREKA A","2401203","2018-03-21 22:00","2018","03","21","22:00","-37.2","","-41.2","","67","","","","15","","6","","24.1","","102.33","","","","-45","","Ice Crystals"
"-85.81","79.99","EUREKA A","2401203","2018-03-21 23:00","2018","03","21","23:00","-37.2","","-41.1","","68","","","","2","","4","","24.1","","102.34","","","","-42","","Ice Crystals"
"-85.81","79.99","EUREKA A","2401203","2018-03-22 00:00","2018","03","22","00:00","-35.6","","-39.4","","69","","","","11","","7","","24.1","","102.33","","","","-44","","Ice Crystals"
"-85.81","79.99","EUREKA A","2401203","2018-03-22 01:00","2018","03","22","01:00","-36.5","","-40.5","","68","","","","14","","5","","24.1","","102.33","","","","-43","","Ice Crystals"
"-85.81","79.99","EUREKA A","2401203","2018-03-22 02:00","2018","03","22","02:00","-36.5","","-40.4","","68","","","","13","","10","","24.1","","102.33","","","","-47","","Ice Crystals"
"-85.81","79.99","EUREKA A","2401203","2018-03-22 03:00","2018","03","22","03:00","-35.1","","-38.9","","69","","","","34","","5","","16.1","","102.33","","","","-41","","Ice Crystals"
"-85.81","79.99","EUREKA A","2401203","2018-03-22 04:00","2018","03","22","04:00","-36.0","","-39.9","","68","","","","6","","3","","24.1","","102.33","","","","-40","","Ice Crystals"
"-85.81","79.99","EUREKA A","2401203","2018-03-22 05:00","2018","03","22","05:00","-37.2","","-41.2","","67","","","","15","","4","","16.1","","102.29","","","","-42","","Ice Crystals"
"-85.81","79.99","EUREKA A","2401203","2018-03-22 06:00","2018","03","22","06:00","-38.6","","-42.7","","67","","","","36","","1","","19.3","","102.29","","","","-40","","Ice Crystals"
"-85.81","79.99","EUREKA A","2401203","2018-03-22 07:00","2018","03","22","07:00","-39.6","","-43.7","","66","","","","12","","9","","16.1","","102.30","","","","-50","","Ice Crystals"
"-85.81","79.99","EUREKA A","2401203","2018-03-22 08:00","2018","03","22","08:00","-37.9","","-41.9","","67","","","","14","","11","","16.1","","102.27","","","","-49","","Ice Crystals"
"-85.81","79.99","EUREKA A","2401203","2018-03-22 09:00","2018","03","22","09:00","-37.7","","-41.7","","67","","","","16","","7","","16.1","","102.25","","","","-46","","Mostly Cloudy"
"-85.81","79.99","EUREKA A","2401203","2018-03-22 10:00","2018","03","22","10:00","-37.5","","-41.5","","67","","","","15","","11","","8.1","","102.23","","","","-49","","Fog"
"-85.81","79.99","EUREKA A","2401203","2018-03-22 11:00","2018","03","22","11:00","-37.5","","-41.6","","67","","","","15","","5","","2.8","","102.21","","","","-44","","Ice Crystals,Fog"
"-85.81","79.99","EUREKA A","2401203","2018-03-22 12:00","2018","03","22","12:00","-37.2","","-41.2","","67","","","","7","","6","","2.4","","102.19","","","","-45","","Ice Crystals,Fog"
"-85.81","79.99","EUREKA A","2401203","2018-03-22 13:00","2018","03","22","13:00","-37.0","","-41.0","","67","","","","36","","2","","4.8","","102.19","","","","-40","","Ice Crystals,Fog"
"-85.81","79.99","EUREKA A","2401203","2018-03-22 14:00","2018","03","22","14:00","-36.7","","-40.8","","67","","","","31","","4","","24.1","","102.18","","","","-42","","Ice Crystals"
"-85.81","79.99","EUREKA A","2401203","2018-03-22 15:00","2018","03","22","15:00","-35.9","","-39.9","","68","","","","36","","1","","4.8","","102.18","","","","-37","","Ice Crystals,Fog"
"-85.81","79.99","EUREKA A","2401203","2018-03-22 16:00","2018","03","22","16:00","-37.8","","-41.9","","67","","","","12","","9","","2.4","","102.18","","","","-48","","Ice Crystals,Fog"
"-85.81","79.99","EUREKA A","2401203","2018-03-22 17:00","2018","03","22","17:00","-38.5","","-42.6","","67","","","","7","","8","","2.4","","102.20","","","","-48","","Ice Crystals,Fog"
"-85.81","79.99","EUREKA A","2401203","2018-03-22 18:00","2018","03","22","18:00","-37.5","","-41.5","","67","","","","13","","12","","8.1","","102.20","","","","-49","","Ice Crystals,Fog"
"-85.81","79.99","EUREKA A","2401203","2018-03-22 19:00","2018","03","22","19:00","-38.5","","-42.5","","67","","","","13","","15","","16.1","","102.25","","","","-52","","Ice Crystals"
"-85.81","79.99","EUREKA A","2401203","2018-03-22 20:00","2018","03","22","20:00","-38.2","","-42.2","","67","","","","13","","14","","11.3","","102.26","","","","-51","","Snow"
"-85.81","79.99","EUREKA A","2401203","2018-03-22 21:00","2018","03","22","21:00","-38.8","","-42.9","","67","","","","11","","10","","11.3","","102.28","","","","-50","","Snow"
"-85.81","79.99","EUREKA A","2401203","2018-03-22 22:00","2018","03","22","22:00","-38.2","","-42.2","","67","","","","12","","17","","19.3","","102.30","","","","-52","","Snow"
"-85.81","79.99","EUREKA A","2401203","2018-03-22 23:00","2018","03","22","23:00","-38.5","","-42.6","","67","","","","10","","17","","24.1","","102.33","","","","-53","","Snow"
"-85.81","79.99","EUREKA A","2401203","2018-03-23 00:00","2018","03","23","00:00","-39.2","","-43.3","","66","","","","10","","12","","24.1","","102.36","","","","-51","","Snow"
"-85.81","79.99","EUREKA A","2401203","2018-03-23 01:00","2018","03","23","01:00","-39.1","","-43.2","","66","","","","12","","13","","16.1","","102.37","","","","-52","","Snow"
"-85.81","79.99","EUREKA A","2401203","2018-03-23 02:00","2018","03","23","02:00","-39.3","","-43.4","","66","","","","12","","11","","24.1","","102.43","","","","-51","","Snow"
"-85.81","79.99","EUREKA A","2401203","2018-03-23 03:00","2018","03","23","03:00","-41.2","","-45.4","","65","","","","7","","8","","24.1","","102.45","","","","-51","","Mainly Clear"
"-85.81","79.99","EUREKA A","2401203","2018-03-23 04:00","2018","03","23","04:00","-40.4","","-44.6","","66","","","","6","","6","","24.1","","102.49","","","","-48","","NA"
"-85.81","79.99","EUREKA A","2401203","2018-03-23 05:00","2018","03","23","05:00","-40.8","","-45.0","","65","","","","8","","5","","24.1","","102.50","","","","-48","","NA"
"-85.81","79.99","EUREKA A","2401203","2018-03-23 06:00","2018","03","23","06:00","-41.5","","-45.7","","65","","","","36","","2","","24.1","","102.51","","","","-44","","Clear"
"-85.81","79.99","EUREKA A","2401203","2018-03-23 07:00","2018","03","23","07:00","-41.0","","-45.3","","65","","","","14","","7","","24.1","","102.53","","","","-50","","NA"
"-85.81","79.99","EUREKA A","2401203","2018-03-23 08:00","2018","03","23","08:00","-40.4","","-44.6","","65","","","","36","","1","","24.1","","102.54","","","","-42","","NA"
"-85.81","79.99","EUREKA A","2401203","2018-03-23 09:00","2018","03","23","09:00","-41.1","","-45.3","","65","","","","14","","3","","24.1","","102.58","","","","-45","","Mainly Clear"
"-85.81","79.99","EUREKA A","2401203","2018-03-23 10:00","2018","03","23","10:00","-39.7","","-43.9","","65","","","","12","","9","","24.1","","102.60","","","","-50","","NA"
"-85.81","79.99","EUREKA A","2401203","2018-03-23 11:00","2018","03","23","11:00","-40.0","","-44.2","","65","","","","8","","4","","24.1","","102.62","","","","-46","","NA"
"-85.81","79.99","EUREKA A","2401203","2018-03-23 12:00","2018","03","23","12:00","-39.9","","-44.1","","65","","","","13","","3","","24.1","","102.64","","","","-44","","Clear"
"-85.81","79.99","EUREKA A","2401203","2018-03-23 13:00","2018","03","23","13:00","-38.4","","-42.5","","66","","","","10","","3","","24.1","","102.67","","","","-42","","NA"
"-85.81","79.99","EUREKA A","2401203","2018-03-23 14:00","2018","03","23","14:00","-39.9","","-44.1","","65","","","","8","","4","","24.1","","102.69","","","","-45","","NA"
"-85.81","79.99","EUREKA A","2401203","2018-03-23 15:00","2018","03","23","15:00","-38.4","","-42.5","","66","","","","36","","2","","24.1","","102.70","","","","-41","","Clear"
"-85.81","79.99","EUREKA A","2401203","2018-03-23 16:00","2018","03","23","16:00","-38.6","","-42.8","","66","","","","28","","4","","24.1","","102.73","","","","-44","","NA"
"-85.81","79.99","EUREKA A","2401203","2018-03-23 17:00","2018","03","23","17:00","-39.2","","-43.4","","66","","","","25","","3","","24.1","","102.77","","","","-43","","NA"
"-85.81","79.99","EUREKA A","2401203","2018-03-23 18:00","2018","03","23","18:00","-40.5","","-44.8","","65","","","","36","","1","","24.1","","102.79","","","","-42","","Clear"
"-85.81","79.99","EUREKA A","2401203","2018-03-23 19:00","2018","03","23","19:00","-40.9","","-45.1","","65","","","","36","","3","","24.1","","102.78","","","","-45","","NA"
"-85.81","79.99","EUREKA A","2401203","2018-03-23 20:00","2018","03","23","20:00","-41.7","","-45.9","","65","","","","36","","2","","24.1","","102.80","","","","-45","","NA"
"-85.81","79.99","EUREKA A","2401203","2018-03-23 21:00","2018","03","23","21:00","-42.0","","-46.3","","64","","","","7","","4","","24.1","","102.79","","","","-48","","Mainly Clear"
"-85.81","79.99","EUREKA A","2401203","2018-03-23 22:00","2018","03","23","22:00","-42.1","","-46.5","","64","","","","36","","2","","24.1","","102.77","","","","-45","","NA"
"-85.81","79.99","EUREKA A","2401203","2018-03-23 23:00","2018","03","23","23:00","-42.2","","-46.5","","64","","","","9","","5","","24.1","","102.76","","","","-49","","NA"
"-85.81","79.99","EUREKA A","2401203","2018-03-24 00:00","2018","03","24","00:00","-42.5","","-46.8","","64","","","","10","","5","","24.1","","102.73","","","","-50","","Mainly Clear"
"-85.81","79.99","EUREKA A","2401203","2018-03-24 01:00","2018","03","24","01:00","-42.1","","-46.4","","64","","","","8","","4","","24.1","","102.70","","","","-48","","NA"
"-85.81","79.99","EUREKA A","2401203","2018-03-24 02:00","2018","03","24","02:00","-41.1","","-45.3","","65","","","","9","","4","","24.1","","102.66","","","","-47","","NA"
"-85.81","79.99","EUREKA A","2401203","2018-03-24 03:00","2018","03","24","03:00","-39.5","","-43.7","","66","","","","8","","6","","24.1","","102.61","","","","-47","","Mostly Cloudy"
"-85.81","79.99","EUREKA A","2401203","2018-03-24 04:00","2018","03","24","04:00","-38.4","","-42.4","","67","","","","36","","2","","4.0","","102.55","","","","-41","","Snow,Fog"
"-85.81","79.99","EUREKA A","2401203","2018-03-24 05:00","2018","03","24","05:00","-38.9","","-43.0","","66","","","","14","","3","","11.3","","102.50","","","","-43","","Snow,Fog"
"-85.81","79.99","EUREKA A","2401203","2018-03-24 06:00","2018","03","24","06:00","-38.5","","-42.5","","67","","","","36","","3","","6.4","","102.46","","","","-43","","Snow,Fog"
"-85.81","79.99","EUREKA A","2401203","2018-03-24 07:00","2018","03","24","07:00","-37.8","","-41.8","","67","","","","36","","3","","16.1","","102.42","","","","-42","","Snow,Fog"
"-85.81","79.99","EUREKA A","2401203","2018-03-24 08:00","2018","03","24","08:00","-37.8","","-41.8","","67","","","","27","","5","","24.1","","102.36","","","","-44","","Snow"
"-85.81","79.99","EUREKA A","2401203","2018-03-24 09:00","2018","03","24","09:00","-37.8","","-41.8","","67","","","","36","","1","","24.1","","102.32","","","","-39","","Snow"
"-85.81","79.99","EUREKA A","2401203","2018-03-24 10:00","2018","03","24","10:00","-37.2","","-41.3","","67","","","","27","","5","","16.1","","102.30","","","","-44","","Snow"
"-85.81","79.99","EUREKA A","2401203","2018-03-24 11:00","2018","03","24","11:00","-35.9","","-40.0","","67","","","","36","","2","","16.1","","102.26","","","","-38","","Snow"
"-85.81","79.99","EUREKA A","2401203","2018-03-24 12:00","2018","03","24","12:00","-35.3","","-39.3","","68","","","","23","","6","","16.1","","102.23","","","","-43","","Snow"
"-85.81","79.99","EUREKA A","2401203","2018-03-24 13:00","2018","03","24","13:00","-34.5","","-38.4","","68","","","","25","","10","","24.1","","102.17","","","","-45","","Snow"
"-85.81","79.99","EUREKA A","2401203","2018-03-24 14:00","2018","03","24","14:00","-33.9","","-37.8","","69","","","","22","","5","","24.1","","102.18","","","","-40","","Snow"
"-85.81","79.99","EUREKA A","2401203","2018-03-24 15:00","2018","03","24","15:00","-35.9","","-39.9","","68","","","","15","","12","","24.1","","102.17","","","","-47","","Snow"
"-85.81","79.99","EUREKA A","2401203","2018-03-24 16:00","2018","03","24","16:00","-36.8","","-40.8","","67","","","","14","","14","","24.1","","102.20","","","","-49","","Snow"
"-85.81","79.99","EUREKA A","2401203","2018-03-24 17:00","2018","03","24","17:00","-36.5","","-40.5","","67","","","","14","","13","","12.9","","102.20","","","","-49","","Snow"
"-85.81","79.99","EUREKA A","2401203","2018-03-24 18:00","2018","03","24","18:00","-35.6","","-39.5","","68","","","","13","","11","","12.9","","102.20","","","","-46","","Snow"
"-85.81","79.99","EUREKA A","2401203","2018-03-24 19:00","2018","03","24","19:00","-36.5","","-40.5","","68","","","","12","","8","","24.1","","102.28","","","","-46","","Snow"
"-85.81","79.99","EUREKA A","2401203","2018-03-24 20:00","2018","03","24","20:00","-36.8","","-40.7","","68","","","","11","","6","","24.1","","102.32","","","","-44","","NA"
"-85.81","79.99","EUREKA A","2401203","2018-03-24 21:00","2018","03","24","21:00","-37.2","","-41.2","","68","","","","13","","10","","24.1","","102.32","","","","-48","","Mainly Clear"
"-85.81","79.99","EUREKA A","2401203","2018-03-24 22:00","2018","03","24","22:00","-39.3","","-43.4","","66","","","","7","","7","","24.1","","102.33","","","","-48","","NA"
"-85.81","79.99","EUREKA A","2401203","2018-03-24 23:00","2018","03","24","23:00","-39.0","","-43.0","","67","","","","6","","4","","24.1","","102.34","","","","-44","","Ice Crystals"
"-85.81","79.99","EUREKA A","2401203","2018-03-25 00:00","2018","03","25","00:00","-39.1","","-43.2","","66","","","","10","","4","","24.1","","102.33","","","","-45","","Ice Crystals"
"-85.81","79.99","EUREKA A","2401203","2018-03-25 01:00","2018","03","25","01:00","-39.6","","-43.7","","66","","","","13","","9","","24.1","","102.39","","","","-50","","Ice Crystals"
"-85.81","79.99","EUREKA A","2401203","2018-03-25 02:00","2018","03","25","02:00","-39.5","","-43.6","","66","","","","6","","7","","24.1","","102.41","","","","-48","","Ice Crystals"
"-85.81","79.99","EUREKA A","2401203","2018-03-25 03:00","2018","03","25","03:00","-39.7","","-43.8","","66","","","","5","","5","","24.1","","102.42","","","","-47","","Ice Crystals"
"-85.81","79.99","EUREKA A","2401203","2018-03-25 04:00","2018","03","25","04:00","-39.6","","-43.7","","66","","","","36","","2","","24.1","","102.44","","","","-42","","Ice Crystals"
"-85.81","79.99","EUREKA A","2401203","2018-03-25 05:00","2018","03","25","05:00","-37.6","","-41.6","","67","","","","36","","1","","24.1","","102.41","","","","-39","","Ice Crystals"
"-85.81","79.99","EUREKA A","2401203","2018-03-25 06:00","2018","03","25","06:00","-40.1","","-44.2","","66","","","","21","","8","","24.1","","102.42","","","","-50","","Ice Crystals"
"-85.81","79.99","EUREKA A","2401203","2018-03-25 07:00","2018","03","25","07:00","-40.5","","-44.7","","65","","","","11","","7","","24.1","","102.42","","","","-49","","Ice Crystals"
"-85.81","79.99","EUREKA A","2401203","2018-03-25 08:00","2018","03","25","08:00","-37.7","","-41.8","","67","","","","36","","2","","24.1","","102.38","","","","-40","","NA"
"-85.81","79.99","EUREKA A","2401203","2018-03-25 09:00","2018","03","25","09:00","-39.6","","-43.8","","66","","","","28","","7","","24.1","","102.38","","","","-48","","Mainly Clear"
"-85.81","79.99","EUREKA A","2401203","2018-03-25 10:00","2018","03","25","10:00","-38.3","","-42.4","","66","","","","1","","3","","24.1","","102.40","","","","-42","","NA"
"-85.81","79.99","EUREKA A","2401203","2018-03-25 11:00","2018","03","25","11:00","-38.0","","-42.1","","66","","","","27","","4","","24.1","","102.32","","","","-43","","NA"
"-85.81","79.99","EUREKA A","2401203","2018-03-25 12:00","2018","03","25","12:00","-38.5","","-42.7","","66","","","","6","","5","","24.1","","102.29","","","","-45","","Clear"
"-85.81","79.99","EUREKA A","2401203","2018-03-25 13:00","2018","03","25","13:00","-37.7","","-41.8","","67","","","","0","","1","","24.1","","102.30","","","","-39","","NA"
"-85.81","79.99","EUREKA A","2401203","2018-03-25 14:00","2018","03","25","14:00","-39.7","","-43.9","","65","","","","14","","8","","24.1","","102.30","","","","-49","","NA"
"-85.81","79.99","EUREKA A","2401203","2018-03-25 15:00","2018","03","25","15:00","-39.0","","-43.2","","66","","","","36","","3","","24.1","","102.24","","","","-43","","Mainly Clear"
"-85.81","79.99","EUREKA A","2401203","2018-03-25 16:00","2018","03","25","16:00","-38.8","","-42.9","","66","","","","11","","8","","24.1","","102.26","","","","-48","","NA"
"-85.81","79.99","EUREKA A","2401203","2018-03-25 17:00","2018","03","25","17:00","-37.9","","-42.0","","66","","","","36","","1","","24.1","","102.25","","","","-39","","NA"
"-85.81","79.99","EUREKA A","2401203","2018-03-25 18:00","2018","03","25","18:00","-39.1","","-43.2","","66","","","","10","","3","","24.1","","102.24","","","","-43","","Mainly Clear"
"-85.81","79.99","EUREKA A","2401203","2018-03-25 19:00","2018","03","25","19:00","-40.6","","-44.8","","65","","","","7","","4","","24.1","","102.22","","","","-46","","NA"
"-85.81","79.99","EUREKA A","2401203","2018-03-25 20:00","2018","03","25","20:00","-41.7","","-46.0","","64","","","","4","","5","","24.1","","102.21","","","","-49","","NA"
"-85.81","79.99","EUREKA A","2401203","2018-03-25 21:00","2018","03","25","21:00","-40.1","","-44.3","","66","","","","14","","4","","24.1","","102.19","","","","-46","","Clear"
"-85.81","79.99","EUREKA A","2401203","2018-03-25 22:00","2018","03","25","22:00","-41.0","","-45.2","","65","","","","6","","5","","24.1","","102.21","","","","-48","","NA"
"-85.81","79.99","EUREKA A","2401203","2018-03-25 23:00","2018","03","25","23:00","-40.1","","-44.3","","65","","","","12","","4","","24.1","","102.19","","","","-46","","NA"
"-85.81","79.99","EUREKA A","2401203","2018-03-26 00:00","2018","03","26","00:00","-41.2","","-45.5","","65","","","","9","","5","","24.1","","102.16","","","","-48","","Clear"
"-85.81","79.99","EUREKA A","2401203","2018-03-26 01:00","2018","03","26","01:00","-40.1","","-44.3","","65","","","","9","","6","","24.1","","102.15","","","","-48","","NA"
"-85.81","79.99","EUREKA A","2401203","2018-03-26 02:00","2018","03","26","02:00","-41.3","","-45.5","","65","","","","9","","5","","24.1","","102.13","","","","-48","","NA"
"-85.81","79.99","EUREKA A","2401203","2018-03-26 03:00","2018","03","26","03:00","-39.5","","-43.6","","66","","","","17","","5","","24.1","","102.14","","","","-46","","Clear"
"-85.81","79.99","EUREKA A","2401203","2018-03-26 04:00","2018","03","26","04:00","-41.2","","-45.4","","65","","","","6","","4","","24.1","","102.12","","","","-47","","NA"
"-85.81","79.99","EUREKA A","2401203","2018-03-26 05:00","2018","03","26","05:00","-39.6","","-43.8","","66","","","","13","","8","","24.1","","102.11","","","","-49","","NA"
"-85.81","79.99","EUREKA A","2401203","2018-03-26 06:00","2018","03","26","06:00","-41.3","","-45.5","","65","","","","10","","4","","24.1","","102.11","","","","-47","","Clear"
"-85.81","79.99","EUREKA A","2401203","2018-03-26 07:00","2018","03","26","07:00","-40.2","","-44.3","","66","","","","6","","5","","24.1","","102.07","","","","-47","","Ice Crystals"
"-85.81","79.99","EUREKA A","2401203","2018-03-26 08:00","2018","03","26","08:00","-38.7","","-42.9","","66","","","","36","","2","","24.1","","102.09","","","","-41","","Ice Crystals"
"-85.81","79.99","EUREKA A","2401203","2018-03-26 09:00","2018","03","26","09:00","-39.9","","-44.1","","65","","","","36","","2","","24.1","","102.07","","","","-43","","Ice Crystals"
"-85.81","79.99","EUREKA A","2401203","2018-03-26 10:00","2018","03","26","10:00","-39.4","","-43.6","","65","","","","14","","4","","24.1","","102.04","","","","-45","","Ice Crystals"
"-85.81","79.99","EUREKA A","2401203","2018-03-26 11:00","2018","03","26","11:00","-39.5","","-43.7","","65","","","","5","","3","","24.1","","102.00","","","","-44","","NA"
"-85.81","79.99","EUREKA A","2401203","2018-03-26 12:00","2018","03","26","12:00","-39.0","","-43.2","","65","","","","27","","10","","24.1","","101.95","","","","-50","","Mainly Clear"
"-85.81","79.99","EUREKA A","2401203","2018-03-26 13:00","2018","03","26","13:00","-39.7","","-43.9","","66","","","","28","","11","","24.1","","101.95","","","","-51","","Ice Crystals"
"-85.81","79.99","EUREKA A","2401203","2018-03-26 14:00","2018","03","26","14:00","-39.2","","-43.4","","65","","","","31","","4","","24.1","","101.92","","","","-45","","Ice Crystals"
"-85.81","79.99","EUREKA A","2401203","2018-03-26 15:00","2018","03","26","15:00","-39.4","","-43.7","","65","","","","29","","4","","24.1","","101.89","","","","-45","","Ice Crystals"
"-85.81","79.99","EUREKA A","2401203","2018-03-26 16:00","2018","03","26","16:00","-39.4","","-43.6","","65","","","","28","","11","","24.1","","101.89","","","","-51","","Ice Crystals"
"-85.81","79.99","EUREKA A","2401203","2018-03-26 17:00","2018","03","26","17:00","-39.0","","-43.2","","66","","","","31","","7","","24.1","","101.92","","","","-48","","Ice Crystals"
"-85.81","79.99","EUREKA A","2401203","2018-03-26 18:00","2018","03","26","18:00","-38.3","","-42.4","","66","","","","29","","8","","24.1","","101.88","","","","-48","","Ice Crystals"
"-85.81","79.99","EUREKA A","2401203","2018-03-26 19:00","2018","03","26","19:00","-39.2","","-43.3","","66","","","","31","","4","","24.1","","101.86","","","","-45","","Ice Crystals"
"-85.81","79.99","EUREKA A","2401203","2018-03-26 20:00","2018","03","26","20:00","-40.5","","-44.6","","65","","","","36","","1","","24.1","","101.83","","","","-42","","Ice Crystals"
"-85.81","79.99","EUREKA A","2401203","2018-03-26 21:00","2018","03","26","21:00","-39.7","","-43.8","","66","","","","10","","3","","24.1","","101.81","","","","-44","","Ice Crystals"
"-85.81","79.99","EUREKA A","2401203","2018-03-26 22:00","2018","03","26","22:00","-40.3","","-44.5","","65","","","","14","","6","","24.1","","101.84","","","","-48","","Ice Crystals"
"-85.81","79.99","EUREKA A","2401203","2018-03-26 23:00","2018","03","26","23:00","-40.7","","-44.9","","65","","","","36","","1","","24.1","","101.81","","","","-42","","Ice Crystals"
"-85.81","79.99","EUREKA A","2401203","2018-03-27 00:00","2018","03","27","00:00","-40.7","","-44.9","","65","","","","7","","4","","24.1","","101.79","","","","-46","","Ice Crystals"
"-85.81","79.99","EUREKA A","2401203","2018-03-27 01:00","2018","03","27","01:00","-39.1","","-43.2","","66","","","","14","","4","","24.1","","101.77","","","","-45","","Ice Crystals"
"-85.81","79.99","EUREKA A","2401203","2018-03-27 02:00","2018","03","27","02:00","-40.9","","-45.1","","65","","","","10","","4","","24.1","","101.78","","","","-47","","Ice Crystals"
"-85.81","79.99","EUREKA A","2401203","2018-03-27 03:00","2018","03","27","03:00","-40.4","","-44.6","","65","","","","36","","2","","24.1","","101.77","","","","-43","","Ice Crystals"
"-85.81","79.99","EUREKA A","2401203","2018-03-27 04:00","2018","03","27","04:00","-40.6","","-44.8","","65","","","","7","","5","","24.1","","101.74","","","","-48","","NA"
"-85.81","79.99","EUREKA A","2401203","2018-03-27 05:00","2018","03","27","05:00","-40.2","","-44.4","","66","","","","7","","5","","24.1","","101.71","","","","-47","","NA"
"-85.81","79.99","EUREKA A","2401203","2018-03-27 06:00","2018","03","27","06:00","-40.1","","-44.3","","65","","","","11","","3","","24.1","","101.74","","","","-44","","Clear"
"-85.81","79.99","EUREKA A","2401203","2018-03-27 07:00","2018","03","27","07:00","-38.6","","-42.8","","66","","","","12","","8","","24.1","","101.74","","","","-48","","NA"
"-85.81","79.99","EUREKA A","2401203","2018-03-27 08:00","2018","03","27","08:00","-38.3","","-42.4","","66","","","","12","","7","","24.1","","101.75","","","","-47","","NA"
"-85.81","79.99","EUREKA A","2401203","2018-03-27 09:00","2018","03","27","09:00","-39.0","","-43.2","","66","","","","6","","5","","24.1","","101.78","","","","-46","","Clear"
"-85.81","79.99","EUREKA A","2401203","2018-03-27 10:00","2018","03","27","10:00","-36.7","","-40.8","","67","","","","5","","5","","24.1","","101.75","","","","-43","","NA"
"-85.81","79.99","EUREKA A","2401203","2018-03-27 11:00","2018","03","27","11:00","-38.2","","-42.3","","66","","","","36","","3","","24.1","","101.76","","","","-42","","NA"
"-85.81","79.99","EUREKA A","2401203","2018-03-27 12:00","2018","03","27","12:00","-36.0","","-40.0","","67","","","","8","","4","","24.1","","101.76","","","","-41","","Clear"
"-85.81","79.99","EUREKA A","2401203","2018-03-27 13:00","2018","03","27","13:00","-36.2","","-40.3","","67","","","","10","","4","","24.1","","101.74","","","","-41","","NA"
"-85.81","79.99","EUREKA A","2401203","2018-03-27 14:00","2018","03","27","14:00","-36.3","","-40.4","","67","","","","7","","4","","24.1","","101.76","","","","-41","","NA"
"-85.81","79.99","EUREKA A","2401203","2018-03-27 15:00","2018","03","27","15:00","-34.1","","-38.1","","68","","","","36","","2","","24.1","","101.76","","","","-37","","Clear"
"-85.81","79.99","EUREKA A","2401203","2018-03-27 16:00","2018","03","27","16:00","-35.1","","-39.0","","68","","","","12","","5","","24.1","","101.78","","","","-41","","NA"
"-85.81","79.99","EUREKA A","2401203","2018-03-27 17:00","2018","03","27","17:00","-35.6","","-39.5","","68","","","","36","","3","","24.1","","101.79","","","","-39","","NA"
"-85.81","79.99","EUREKA A","2401203","2018-03-27 18:00","2018","03","27","18:00","-35.8","","-39.9","","67","","","","8","","4","","24.1","","101.82","","","","-41","","Clear"
"-85.81","79.99","EUREKA A","2401203","2018-03-27 19:00","2018","03","27","19:00","-36.4","","-40.4","","68","","","","13","","4","","24.1","","101.86","","","","-42","","NA"
"-85.81","79.99","EUREKA A","2401203","2018-03-27 20:00","2018","03","27","20:00","-36.0","","-39.9","","68","","","","12","","5","","24.1","","101.92","","","","-42","","NA"
"-85.81","79.99","EUREKA A","2401203","2018-03-27 21:00","2018","03","27","21:00","-37.0","","-41.0","","67","","","","15","","9","","24.1","","101.96","","","","-47","","Clear"
"-85.81","79.99","EUREKA A","2401203","2018-03-27 22:00","2018","03","27","22:00","-38.3","","-42.3","","67","","","","7","","6","","24.1","","102.00","","","","-46","","NA"
"-85.81","79.99","EUREKA A","2401203","2018-03-27 23:00","2018","03","27","23:00","-37.5","","-41.5","","67","","","","36","","3","","24.1","","102.01","","","","-41","","NA"
"-85.81","79.99","EUREKA A","2401203","2018-03-28 00:00","2018","03","28","00:00","-36.4","","-40.3","","68","","","","36","","3","","24.1","","102.02","","","","-40","","Clear"
"-85.81","79.99","EUREKA A","2401203","2018-03-28 01:00","2018","03","28","01:00","-35.4","","-39.3","","69","","","","14","","9","","24.1","","102.07","","","","-45","","NA"
"-85.81","79.99","EUREKA A","2401203","2018-03-28 02:00","2018","03","28","02:00","-37.0","","-41.0","","68","","","","7","","3","","24.1","","102.12","","","","-41","","NA"
"-85.81","79.99","EUREKA A","2401203","2018-03-28 03:00","2018","03","28","03:00","-35.3","","-39.2","","69","","","","30","","4","","24.1","","102.18","","","","-40","","Clear"
"-85.81","79.99","EUREKA A","2401203","2018-03-28 04:00","2018","03","28","04:00","-34.2","","-38.0","","69","","","","11","","3","","24.1","","102.22","","","","-38","","NA"
"-85.81","79.99","EUREKA A","2401203","2018-03-28 05:00","2018","03","28","05:00","-36.1","","-40.0","","68","","","","12","","4","","24.1","","102.26","","","","-41","","NA"
"-85.81","79.99","EUREKA A","2401203","2018-03-28 06:00","2018","03","28","06:00","-36.4","","-40.3","","68","","","","11","","5","","24.1","","102.31","","","","-43","","Mainly Clear"
"-85.81","79.99","EUREKA A","2401203","2018-03-28 07:00","2018","03","28","07:00","-35.3","","-39.2","","68","","","","13","","8","","24.1","","102.34","","","","-44","","NA"
"-85.81","79.99","EUREKA A","2401203","2018-03-28 08:00","2018","03","28","08:00","-35.4","","-39.3","","68","","","","36","","3","","24.1","","102.36","","","","-39","","NA"
"-85.81","79.99","EUREKA A","2401203","2018-03-28 09:00","2018","03","28","09:00","-34.5","","-38.3","","69","","","","11","","7","","24.1","","102.38","","","","-43","","Mostly Cloudy"
"-85.81","79.99","EUREKA A","2401203","2018-03-28 10:00","2018","03","28","10:00","-33.2","","-37.0","","70","","","","10","","6","","24.1","","102.42","","","","-40","","NA"
"-85.81","79.99","EUREKA A","2401203","2018-03-28 11:00","2018","03","28","11:00","-32.8","","-36.6","","69","","","","9","","8","","24.1","","102.40","","","","-41","","NA"
"-85.81","79.99","EUREKA A","2401203","2018-03-28 12:00","2018","03","28","12:00","-31.8","","-35.6","","70","","","","8","","3","","24.1","","102.40","","","","-35","","Mostly Cloudy"
"-85.81","79.99","EUREKA A","2401203","2018-03-28 13:00","2018","03","28","13:00","-32.2","","-36.0","","70","","","","7","","6","","24.1","","102.41","","","","-39","","NA"
"-85.81","79.99","EUREKA A","2401203","2018-03-28 14:00","2018","03","28","14:00","-31.6","","-35.3","","71","","","","7","","8","","24.1","","102.41","","","","-40","","NA"
"-85.81","79.99","EUREKA A","2401203","2018-03-28 15:00","2018","03","28","15:00","-31.1","","-34.8","","71","","","","5","","7","","24.1","","102.43","","","","-39","","Mostly Cloudy"
"-85.81","79.99","EUREKA A","2401203","2018-03-28 16:00","2018","03","28","16:00","-30.9","","-34.6","","70","","","","7","","4","","24.1","","102.45","","","","-35","","NA"
"-85.81","79.99","EUREKA A","2401203","2018-03-28 17:00","2018","03","28","17:00","-30.9","","-34.5","","71","","","","12","","9","","24.1","","102.49","","","","-40","","NA"
"-85.81","79.99","EUREKA A","2401203","2018-03-28 18:00","2018","03","28","18:00","-32.2","","-35.9","","71","","","","11","","10","","24.1","","102.50","","","","-42","","Mainly Clear"
"-85.81","79.99","EUREKA A","2401203","2018-03-28 19:00","2018","03","28","19:00","-34.1","","-37.9","","69","","","","7","","7","","24.1","","102.52","","","","-42","","NA"
"-85.81","79.99","EUREKA A","2401203","2018-03-28 20:00","2018","03","28","20:00","-33.2","","-36.9","","70","","","","8","","7","","24.1","","102.53","","","","-41","","NA"
"-85.81","79.99","EUREKA A","2401203","2018-03-28 21:00","2018","03","28","21:00","-33.1","","-36.8","","70","","","","7","","7","","24.1","","102.54","","","","-41","","Mainly Clear"
"-85.81","79.99","EUREKA A","2401203","2018-03-28 22:00","2018","03","28","22:00","-33.4","","-37.2","","70","","","","6","","7","","24.1","","102.54","","","","-41","","NA"
"-85.81","79.99","EUREKA A","2401203","2018-03-28 23:00","2018","03","28","23:00","-34.2","","-38.0","","70","","","","7","","5","","24.1","","102.55","","","","-40","","NA"
"-85.81","79.99","EUREKA A","2401203","2018-03-29 00:00","2018","03","29","00:00","-34.0","","-37.8","","70","","","","6","","6","","24.1","","102.57","","","","-41","","Clear"
"-85.81","79.99","EUREKA A","2401203","2018-03-29 01:00","2018","03","29","01:00","-34.2","","-37.9","","70","","","","10","","3","","24.1","","102.57","","","","-38","","NA"
"-85.81","79.99","EUREKA A","2401203","2018-03-29 02:00","2018","03","29","02:00","-33.3","","-37.0","","70","","","","11","","4","","24.1","","102.58","","","","-38","","NA"
"-85.81","79.99","EUREKA A","2401203","2018-03-29 03:00","2018","03","29","03:00","-33.1","","-36.8","","70","","","","9","","5","","24.1","","102.59","","","","-39","","Mainly Clear"
"-85.81","79.99","EUREKA A","2401203","2018-03-29 04:00","2018","03","29","04:00","-34.6","","-38.3","","69","","","","9","","7","","24.1","","102.60","","","","-43","","NA"
"-85.81","79.99","EUREKA A","2401203","2018-03-29 05:00","2018","03","29","05:00","-33.7","","-37.4","","70","","","","11","","5","","24.1","","102.57","","","","-40","","NA"
"-85.81","79.99","EUREKA A","2401203","2018-03-29 06:00","2018","03","29","06:00","-34.8","","-38.6","","69","","","","8","","5","","24.1","","102.55","","","","-41","","Mainly Clear"
"-85.81","79.99","EUREKA A","2401203","2018-03-29 07:00","2018","03","29","07:00","-34.9","","-38.8","","69","","","","8","","4","","24.1","","102.53","","","","-40","","NA"
"-85.81","79.99","EUREKA A","2401203","2018-03-29 08:00","2018","03","29","08:00","-32.8","","-36.4","","71","","","","36","","3","","24.1","","102.50","","","","-36","","NA"
"-85.81","79.99","EUREKA A","2401203","2018-03-29 09:00","2018","03","29","09:00","-34.5","","-38.3","","69","","","","6","","5","","24.1","","102.46","","","","-41","","Mainly Clear"
"-85.81","79.99","EUREKA A","2401203","2018-03-29 10:00","2018","03","29","10:00","-33.2","","-37.0","","70","","","","8","","4","","24.1","","102.45","","","","-38","","NA"
"-85.81","79.99","EUREKA A","2401203","2018-03-29 11:00","2018","03","29","11:00","-33.4","","-37.3","","69","","","","7","","4","","24.1","","102.42","","","","-38","","NA"
"-85.81","79.99","EUREKA A","2401203","2018-03-29 12:00","2018","03","29","12:00","-33.8","","-37.7","","69","","","","13","","10","","24.1","","102.38","","","","-44","","Clear"
"-85.81","79.99","EUREKA A","2401203","2018-03-29 13:00","2018","03","29","13:00","-32.3","","-36.0","","70","","","","11","","5","","24.1","","102.37","","","","-38","","NA"
"-85.81","79.99","EUREKA A","2401203","2018-03-29 14:00","2018","03","29","14:00","-32.2","","-36.0","","70","","","","7","","3","","24.1","","102.37","","","","-36","","NA"
"-85.81","79.99","EUREKA A","2401203","2018-03-29 15:00","2018","03","29","15:00","-31.1","","-34.9","","70","","","","9","","4","","24.1","","102.35","","","","-36","","Mainly Clear"
"-85.81","79.99","EUREKA A","2401203","2018-03-29 16:00","2018","03","29","16:00","-32.2","","-35.9","","71","","","","36","","1","","24.1","","102.34","","","","-33","","NA"
"-85.81","79.99","EUREKA A","2401203","2018-03-29 17:00","2018","03","29","17:00","-31.3","","-34.9","","71","","","","5","","3","","24.1","","102.35","","","","-35","","NA"
"-85.81","79.99","EUREKA A","2401203","2018-03-29 18:00","2018","03","29","18:00","-33.2","","-36.9","","70","","","","6","","7","","24.1","","102.34","","","","-41","","Mostly Cloudy"
"-85.81","79.99","EUREKA A","2401203","2018-03-29 19:00","2018","03","29","19:00","-31.7","","-35.3","","71","","","","10","","5","","24.1","","102.32","","","","-38","","NA"
"-85.81","79.99","EUREKA A","2401203","2018-03-29 20:00","2018","03","29","20:00","-32.8","","-36.5","","70","","","","7","","4","","24.1","","102.33","","","","-38","","NA"
"-85.81","79.99","EUREKA A","2401203","2018-03-29 21:00","2018","03","29","21:00","-31.9","","-35.5","","71","","","","9","","7","","24.1","","102.32","","","","-39","","Cloudy"
"-85.81","79.99","EUREKA A","2401203","2018-03-29 22:00","2018","03","29","22:00","-33.0","","-36.8","","70","","","","11","","10","","24.1","","102.31","","","","-43","","NA"
"-85.81","79.99","EUREKA A","2401203","2018-03-29 23:00","2018","03","29","23:00","-33.0","","-36.7","","70","","","","11","","7","","24.1","","102.28","","","","-41","","NA"
"-85.81","79.99","EUREKA A","2401203","2018-03-30 00:00","2018","03","30","00:00","-32.4","","-36.0","","71","","","","7","","5","","24.1","","102.30","","","","-38","","Mostly Cloudy"
"-85.81","79.99","EUREKA A","2401203","2018-03-30 01:00","2018","03","30","01:00","-32.8","","-36.5","","71","","","","6","","8","","24.1","","102.29","","","","-41","","NA"
"-85.81","79.99","EUREKA A","2401203","2018-03-30 02:00","2018","03","30","02:00","-32.6","","-36.2","","71","","","","9","","6","","24.1","","102.30","","","","-40","","NA"
"-85.81","79.99","EUREKA A","2401203","2018-03-30 03:00","2018","03","30","03:00","-31.7","","-35.3","","71","","","","7","","4","","24.1","","102.33","","","","-36","","Mostly Cloudy"
"-85.81","79.99","EUREKA A","2401203","2018-03-30 04:00","2018","03","30","04:00","-33.5","","-37.2","","70","","","","7","","5","","24.1","","102.33","","","","-40","","NA"
"-85.81","79.99","EUREKA A","2401203","2018-03-30 05:00","2018","03","30","05:00","-33.1","","-36.8","","70","","","","36","","3","","24.1","","102.32","","","","-37","","NA"
"-85.81","79.99","EUREKA A","2401203","2018-03-30 06:00","2018","03","30","06:00","-33.3","","-37.1","","70","","","","26","","4","","24.1","","102.33","","","","-38","","Cloudy"
"-85.81","79.99","EUREKA A","2401203","2018-03-30 07:00","2018","03","30","07:00","-32.7","","-36.4","","71","","","","28","","5","","24.1","","102.35","","","","-39","","NA"
"-85.81","79.99","EUREKA A","2401203","2018-03-30 08:00","2018","03","30","08:00","-33.0","","-36.7","","70","","","","28","","11","","9.7","","102.35","","","","-43","","Snow"
"-85.81","79.99","EUREKA A","2401203","2018-03-30 09:00","2018","03","30","09:00","-32.7","","-36.4","","71","","","","31","","4","","16.1","","102.37","","","","-37","","Snow"
"-85.81","79.99","EUREKA A","2401203","2018-03-30 10:00","2018","03","30","10:00","-32.7","","-36.4","","70","","","","31","","6","","19.3","","102.38","","","","-40","","Snow"
"-85.81","79.99","EUREKA A","2401203","2018-03-30 11:00","2018","03","30","11:00","-32.5","","-36.1","","71","","","","29","","8","","24.1","","102.38","","","","-41","","Snow"
"-85.81","79.99","EUREKA A","2401203","2018-03-30 12:00","2018","03","30","12:00","-31.5","","-35.1","","71","","","","29","","8","","19.3","","102.38","","","","-40","","Snow"
"-85.81","79.99","EUREKA A","2401203","2018-03-30 13:00","2018","03","30","13:00","-32.2","","-35.9","","70","","","","36","","2","","19.3","","102.39","","","","-35","","Snow"
"-85.81","79.99","EUREKA A","2401203","2018-03-30 14:00","2018","03","30","14:00","-31.1","","-34.7","","71","","","","29","","8","","24.1","","102.40","","","","-39","","Ice Crystals"
"-85.81","79.99","EUREKA A","2401203","2018-03-30 15:00","2018","03","30","15:00","-31.2","","-34.9","","71","","","","1","","3","","24.1","","102.42","","","","-35","","Ice Crystals"
"-85.81","79.99","EUREKA A","2401203","2018-03-30 16:00","2018","03","30","16:00","-29.9","","-33.4","","72","","","","24","","4","","24.1","","102.45","","","","-34","","Ice Crystals"
"-85.81","79.99","EUREKA A","2401203","2018-03-30 17:00","2018","03","30","17:00","-31.0","","-34.6","","71","","","","29","","8","","24.1","","102.52","","","","-39","","Ice Crystals"
"-85.81","79.99","EUREKA A","2401203","2018-03-30 18:00","2018","03","30","18:00","-32.1","","-35.7","","71","","","","","","0","","24.1","","102.54","","","","","","Ice Crystals"
"-85.81","79.99","EUREKA A","2401203","2018-03-30 19:00","2018","03","30","19:00","-34.0","","-37.8","","70","","","","36","","3","","24.1","","102.54","","","","-38","","Ice Crystals"
"-85.81","79.99","EUREKA A","2401203","2018-03-30 20:00","2018","03","30","20:00","-34.3","","-38.0","","70","","","","7","","3","","24.1","","102.55","","","","-38","","Ice Crystals"
"-85.81","79.99","EUREKA A","2401203","2018-03-30 21:00","2018","03","30","21:00","-34.6","","-38.4","","70","","","","17","","5","","24.1","","102.55","","","","-41","","Clear"
"-85.81","79.99","EUREKA A","2401203","2018-03-30 22:00","2018","03","30","22:00","-35.4","","-39.2","","69","","","","12","","8","","24.1","","102.57","","","","-44","","NA"
"-85.81","79.99","EUREKA A","2401203","2018-03-30 23:00","2018","03","30","23:00","-35.9","","-39.7","","69","","","","36","","3","","24.1","","102.58","","","","-40","","NA"
"-85.81","79.99","EUREKA A","2401203","2018-03-31 00:00","2018","03","31","00:00","-34.3","","-38.0","","70","","","","36","","2","","24.1","","102.58","","","","-37","","Clear"
"-85.81","79.99","EUREKA A","2401203","2018-03-31 01:00","2018","03","31","01:00","-35.4","","-39.1","","69","","","","36","","2","","24.1","","102.60","","","","-38","","NA"
"-85.81","79.99","EUREKA A","2401203","2018-03-31 02:00","2018","03","31","02:00","-34.2","","-37.9","","70","","","","12","","3","","24.1","","102.61","","","","-38","","NA"
"-85.81","79.99","EUREKA A","2401203","2018-03-31 03:00","2018","03","31","03:00","-35.0","","-38.7","","69","","","","36","","3","","24.1","","102.63","","","","-39","","Clear"
"-85.81","79.99","EUREKA A","2401203","2018-03-31 04:00","2018","03","31","04:00","-35.7","","-39.5","","69","","","","36","","1","","24.1","","102.65","","","","-37","","NA"
"-85.81","79.99","EUREKA A","2401203","2018-03-31 05:00","2018","03","31","05:00","-35.0","","-38.8","","70","","","","36","","3","","24.1","","102.63","","","","-39","","NA"
"-85.81","79.99","EUREKA A","2401203","2018-03-31 06:00","2018","03","31","06:00","-33.8","","-37.5","","70","","","","","","0","","24.1","","102.65","","","","","","Clear"
"-85.81","79.99","EUREKA A","2401203","2018-03-31 07:00","2018","03","31","07:00","-34.3","","-38.1","","70","","","","9","","7","","24.1","","102.68","","","","-42","","NA"
"-85.81","79.99","EUREKA A","2401203","2018-03-31 08:00","2018","03","31","08:00","-35.0","","-38.9","","69","","","","36","","3","","24.1","","102.69","","","","-39","","NA"
"-85.81","79.99","EUREKA A","2401203","2018-03-31 09:00","2018","03","31","09:00","-35.0","","-38.8","","69","","","","7","","3","","24.1","","102.69","","","","-39","","Clear"
"-85.81","79.99","EUREKA A","2401203","2018-03-31 10:00","2018","03","31","10:00","-33.9","","-37.7","","69","","","","5","","4","","24.1","","102.68","","","","-39","","NA"
"-85.81","79.99","EUREKA A","2401203","2018-03-31 11:00","2018","03","31","11:00","-35.7","","-39.7","","68","","","","18","","4","","24.1","","102.68","","","","-41","","NA"
"-85.81","79.99","EUREKA A","2401203","2018-03-31 12:00","2018","03","31","12:00","-33.5","","-37.3","","69","","","","13","","10","","24.1","","102.68","","","","-43","","Clear"
"-85.81","79.99","EUREKA A","2401203","2018-03-31 13:00","2018","03","31","13:00","-33.7","","-37.5","","70","","","","9","","4","","24.1","","102.68","","","","-39","","NA"
"-85.81","79.99","EUREKA A","2401203","2018-03-31 14:00","2018","03","31","14:00","-32.6","","-36.4","","70","","","","36","","1","","24.1","","102.70","","","","-34","","NA"
"-85.81","79.99","EUREKA A","2401203","2018-03-31 15:00","2018","03","31","15:00","-31.5","","-35.2","","71","","","","36","","2","","24.1","","102.72","","","","-34","","Clear"
"-85.81","79.99","EUREKA A","2401203","2018-03-31 16:00","2018","03","31","16:00","-32.6","","-36.3","","70","","","","36","","2","","24.1","","102.74","","","","-35","","NA"
"-85.81","79.99","EUREKA A","2401203","2018-03-31 17:00","2018","03","31","17:00","-32.9","","-36.7","","70","","","","8","","3","","24.1","","102.75","","","","-37","","NA"
"-85.81","79.99","EUREKA A","2401203","2018-03-31 18:00","2018","03","31","18:00","-33.8","","-37.6","","70","","","","36","","2","","24.1","","102.76","","","","-36","","Clear"
"-85.81","79.99","EUREKA A","2401203","2018-03-31 19:00","2018","03","31","19:00","-33.9","","-37.6","","70","","","","11","","4","","24.1","","102.77","","","","-39","","NA"
"-85.81","79.99","EUREKA A","2401203","2018-03-31 20:00","2018","03","31","20:00","-34.6","","-38.3","","70","","","","36","","2","","24.1","","102.81","","","","-37","","NA"
"-85.81","79.99","EUREKA A","2401203","2018-03-31 21:00","2018","03","31","21:00","-35.0","","-38.8","","69","","","","14","","5","","24.1","","102.82","","","","-41","","Clear"
"-85.81","79.99","EUREKA A","2401203","2018-03-31 22:00","2018","03","31","22:00"
"-85.81","79.99","EUREKA A","2401203","2018-03-31 23:00","2018","03","31","23:00"
