"Longitude (x)","Latitude (y)","Station Name","Climate ID","Date/Time (LST)","Year","Month","Day","Time (LST)","Temp (°C)","Temp Flag","Dew Point Temp (°C)","Dew Point Temp Flag","Rel Hum (%)","Rel Hum Flag","Precip. Amount (mm)","Precip. Amount Flag","Wind Dir (10s deg)","Wind Dir Flag","Wind Spd (km/h)","Wind Spd Flag","Visibility (km)","Visibility Flag","Stn Press (kPa)","Stn Press Flag","Hmdx","Hmdx Flag","Wind Chill","Wind Chill Flag","Weather"
"-85.81","79.99","EUREKA A","2401203","2019-02-01 00:00","2019","02","01","00:00","-40.1","","-44.3","","66","","","","9","","4","","24.1","","102.94","","","","-46","","Ice Crystals"
"-85.81","79.99","EUREKA A","2401203","2019-02-01 01:00","2019","02","01","01:00","-40.3","","-44.5","","66","","","","8","","4","","24.1","","102.90","","","","-46","","Ice Crystals"
"-85.81","79.99","EUREKA A","2401203","2019-02-01 02:00","2019","02","01","02:00","-38.1","","-42.2","","66","","","","36","","1","","24.1","","102.87","","","","-39","","Ice Crystals"
"-85.81","79.99","EUREKA A","2401203","2019-02-01 03:00","2019","02","01","03:00","-38.9","","-43.0","","66","","","","36","","1","","24.1","","102.84","","","","-40","","Ice Crystals"
"-85.81","79.99","EUREKA A","2401203","2019-02-01 04:00","2019","02","01","04:00","-39.6","","-43.7","","66","","","","14","","11","","24.1","","102.82","","","","-51","","Ice Crystals"
"-85.81","79.99","EUREKA A","2401203","2019-02-01 05:00","2019","02","01","05:00","-40.9","","-45.1","","65","","","","6","","4","","24.1","","102.79","","","","-47","","Ice Crystals"
"-85.81","79.99","EUREKA A","2401203","2019-02-01 06:00","2019","02","01","06:00","-38.0","","-42.1","","66","","","","36","","2","","24.1","","102.74","","","","-41","","Ice Crystals"
"-85.81","79.99","EUREKA A","2401203","2019-02-01 07:00","2019","02","01","07:00","-38.2","","-42.3","","67","","","","8","","4","","24.1","","102.67","","","","-44","","Ice Crystals"
"-85.81","79.99","EUREKA A","2401203","2019-02-01 08:00","2019","02","01","08:00","-38.9","","-43.0","","66","","","","7","","3","","24.1","","102.63","","","","-43","","Ice Crystals"
"-85.81","79.99","EUREKA A","2401203","2019-02-01 09:00","2019","02","01","09:00","-38.1","","-42.1","","67","","","","10","","6","","24.1","","102.59","","","","-46","","Ice Crystals"
"-85.81","79.99","EUREKA A","2401203","2019-02-01 10:00","2019","02","01","10:00","-39.2","","-43.3","","66","","","","36","","2","","24.1","","102.53","","","","-42","","Ice Crystals"
"-85.81","79.99","EUREKA A","2401203","2019-02-01 11:00","2019","02","01","11:00","-36.5","","-40.5","","67","","","","36","","3","","24.1","","102.48","","","","-40","","Ice Crystals"
"-85.81","79.99","EUREKA A","2401203","2019-02-01 12:00","2019","02","01","12:00","-39.1","","-43.2","","66","","","","17","","5","","24.1","","102.44","","","","-46","","Ice Crystals"
"-85.81","79.99","EUREKA A","2401203","2019-02-01 13:00","2019","02","01","13:00","-38.8","","-42.8","","67","","","","0","","1","","24.1","","102.38","","","","-40","","Ice Crystals"
"-85.81","79.99","EUREKA A","2401203","2019-02-01 14:00","2019","02","01","14:00","-38.0","","-42.1","","67","","","","7","","3","","24.1","","102.34","","","","-42","","Ice Crystals"
"-85.81","79.99","EUREKA A","2401203","2019-02-01 15:00","2019","02","01","15:00","-38.5","","-42.7","","66","","","","4","","5","","24.1","","102.29","","","","-45","","Ice Crystals"
"-85.81","79.99","EUREKA A","2401203","2019-02-01 16:00","2019","02","01","16:00","-37.6","","-41.6","","67","","","","18","","5","","24.1","","102.25","","","","-44","","Ice Crystals"
"-85.81","79.99","EUREKA A","2401203","2019-02-01 17:00","2019","02","01","17:00","-36.7","","-40.7","","67","","","","6","","3","","9.7","","102.23","","","","-41","","Snow"
"-85.81","79.99","EUREKA A","2401203","2019-02-01 18:00","2019","02","01","18:00","-36.0","","-40.0","","68","","","","36","","1","","24.1","","102.16","","","","-37","","Ice Crystals"
"-85.81","79.99","EUREKA A","2401203","2019-02-01 19:00","2019","02","01","19:00","-37.2","","-41.3","","67","","","","14","","7","","16.1","","102.11","","","","-46","","Ice Crystals"
"-85.81","79.99","EUREKA A","2401203","2019-02-01 20:00","2019","02","01","20:00","-36.2","","-40.2","","68","","","","4","","3","","16.1","","102.05","","","","-40","","Ice Crystals"
"-85.81","79.99","EUREKA A","2401203","2019-02-01 21:00","2019","02","01","21:00","-36.0","","-40.0","","68","","","","8","","3","","16.1","","102.00","","","","-40","","Ice Crystals"
"-85.81","79.99","EUREKA A","2401203","2019-02-01 22:00","2019","02","01","22:00"
"-85.81","79.99","EUREKA A","2401203","2019-02-01 23:00","2019","02","01","23:00"
"-85.81","79.99","EUREKA A","2401203","2019-02-02 00:00","2019","02","02","00:00","-36.2","","-40.2","","68","","","","6","","3","","24.1","","101.87","","","","-40","","Ice Crystals"
"-85.81","79.99","EUREKA A","2401203","2019-02-02 01:00","2019","02","02","01:00","-35.5","","-39.5","","68","","","","7","","3","","19.3","","101.84","","","","-39","","Ice Crystals"
"-85.81","79.99","EUREKA A","2401203","2019-02-02 02:00","2019","02","02","02:00","-35.0","","-38.9","","69","","","","10","","4","","9.7","","101.82","","","","-40","","Snow"
"-85.81","79.99","EUREKA A","2401203","2019-02-02 03:00","2019","02","02","03:00","-35.1","","-38.9","","69","","","","15","","10","","16.1","","101.82","","","","-45","","Snow"
"-85.81","79.99","EUREKA A","2401203","2019-02-02 04:00","2019","02","02","04:00","-35.5","","-39.5","","68","","","","9","","4","","16.1","","101.83","","","","-41","","Snow"
"-85.81","79.99","EUREKA A","2401203","2019-02-02 05:00","2019","02","02","05:00","-36.3","","-40.2","","68","","","","1","","3","","24.1","","101.80","","","","-40","","Snow"
"-85.81","79.99","EUREKA A","2401203","2019-02-02 06:00","2019","02","02","06:00","-36.7","","-40.6","","68","","","","14","","9","","16.1","","101.79","","","","-47","","Snow"
"-85.81","79.99","EUREKA A","2401203","2019-02-02 07:00","2019","02","02","07:00","-37.4","","-41.4","","67","","","","7","","5","","24.1","","101.80","","","","-44","","Snow"
"-85.81","79.99","EUREKA A","2401203","2019-02-02 08:00","2019","02","02","08:00","-38.6","","-42.6","","67","","","","7","","4","","24.1","","101.77","","","","-44","","Snow"
"-85.81","79.99","EUREKA A","2401203","2019-02-02 09:00","2019","02","02","09:00","-37.1","","-41.2","","67","","","","6","","4","","24.1","","101.79","","","","-42","","Ice Crystals"
"-85.81","79.99","EUREKA A","2401203","2019-02-02 10:00","2019","02","02","10:00","-37.2","","-41.2","","67","","","","11","","5","","24.1","","101.78","","","","-44","","Ice Crystals"
"-85.81","79.99","EUREKA A","2401203","2019-02-02 11:00","2019","02","02","11:00","-39.0","","-43.1","","67","","","","8","","6","","24.1","","101.79","","","","-47","","Ice Crystals"
"-85.81","79.99","EUREKA A","2401203","2019-02-02 12:00","2019","02","02","12:00","-39.2","","-43.3","","66","","","","36","","2","","24.1","","101.79","","","","-42","","Ice Crystals"
"-85.81","79.99","EUREKA A","2401203","2019-02-02 13:00","2019","02","02","13:00","-40.0","","-44.2","","66","","","","8","","8","","24.1","","101.81","","","","-50","","Ice Crystals"
"-85.81","79.99","EUREKA A","2401203","2019-02-02 14:00","2019","02","02","14:00","-39.6","","-43.7","","66","","","","9","","7","","24.1","","101.84","","","","-48","","Ice Crystals"
"-85.81","79.99","EUREKA A","2401203","2019-02-02 15:00","2019","02","02","15:00","-38.9","","-43.0","","66","","","","8","","7","","16.1","","101.85","","","","-48","","Ice Crystals"
"-85.81","79.99","EUREKA A","2401203","2019-02-02 16:00","2019","02","02","16:00","-39.3","","-43.4","","66","","","","11","","12","","16.1","","101.85","","","","-51","","Ice Crystals"
"-85.81","79.99","EUREKA A","2401203","2019-02-02 17:00","2019","02","02","17:00","-39.2","","-43.3","","66","","","","10","","7","","24.1","","101.86","","","","-48","","Ice Crystals"
"-85.81","79.99","EUREKA A","2401203","2019-02-02 18:00","2019","02","02","18:00","-39.3","","-43.4","","66","","","","11","","13","","24.1","","101.91","","","","-52","","Ice Crystals"
"-85.81","79.99","EUREKA A","2401203","2019-02-02 19:00","2019","02","02","19:00","-39.5","","-43.7","","66","","","","7","","8","","24.1","","101.92","","","","-49","","Ice Crystals"
"-85.81","79.99","EUREKA A","2401203","2019-02-02 20:00","2019","02","02","20:00","-39.1","","-43.3","","66","","","","13","","12","","9.7","","101.91","","","","-51","","Ice Crystals"
"-85.81","79.99","EUREKA A","2401203","2019-02-02 21:00","2019","02","02","21:00","-38.6","","-42.7","","66","","","","8","","6","","24.1","","101.91","","","","-46","","Ice Crystals"
"-85.81","79.99","EUREKA A","2401203","2019-02-02 22:00","2019","02","02","22:00"
"-85.81","79.99","EUREKA A","2401203","2019-02-02 23:00","2019","02","02","23:00"
"-85.81","79.99","EUREKA A","2401203","2019-02-03 00:00","2019","02","03","00:00","-38.2","","-42.3","","67","","","","13","","15","","24.1","","101.96","","","","-52","","Ice Crystals"
"-85.81","79.99","EUREKA A","2401203","2019-02-03 01:00","2019","02","03","01:00","-39.8","","-43.9","","66","","","","13","","16","","24.1","","101.98","","","","-54","","Ice Crystals"
"-85.81","79.99","EUREKA A","2401203","2019-02-03 02:00","2019","02","03","02:00","-39.3","","-43.5","","66","","","","13","","15","","24.1","","102.01","","","","-53","","Ice Crystals"
"-85.81","79.99","EUREKA A","2401203","2019-02-03 03:00","2019","02","03","03:00","-38.7","","-42.8","","66","","","","12","","16","","24.1","","102.04","","","","-53","","Ice Crystals"
"-85.81","79.99","EUREKA A","2401203","2019-02-03 04:00","2019","02","03","04:00","-38.6","","-42.7","","66","","","","13","","17","","24.1","","102.06","","","","-53","","Ice Crystals,Blowing Snow"
"-85.81","79.99","EUREKA A","2401203","2019-02-03 05:00","2019","02","03","05:00","-39.3","","-43.5","","66","","","","13","","18","","24.1","","102.12","","","","-54","","Ice Crystals,Blowing Snow"
"-85.81","79.99","EUREKA A","2401203","2019-02-03 06:00","2019","02","03","06:00","-39.5","","-43.6","","66","","","","13","","19","","24.1","","102.15","","","","-55","","Ice Crystals,Blowing Snow"
"-85.81","79.99","EUREKA A","2401203","2019-02-03 07:00","2019","02","03","07:00","-39.0","","-43.2","","66","","","","13","","19","","24.1","","102.17","","","","-54","","Ice Crystals"
"-85.81","79.99","EUREKA A","2401203","2019-02-03 08:00","2019","02","03","08:00","-39.4","","-43.5","","66","","","","13","","18","","24.1","","102.20","","","","-54","","Ice Crystals"
"-85.81","79.99","EUREKA A","2401203","2019-02-03 09:00","2019","02","03","09:00","-39.6","","-43.7","","66","","","","14","","23","","24.1","","102.17","","","","-56","","Ice Crystals"
"-85.81","79.99","EUREKA A","2401203","2019-02-03 10:00","2019","02","03","10:00","-39.0","","-43.1","","66","","","","13","","20","","19.3","","102.19","","","","-54","","Ice Crystals"
"-85.81","79.99","EUREKA A","2401203","2019-02-03 11:00","2019","02","03","11:00","-40.3","","-44.4","","66","","","","14","","18","","24.1","","102.26","","","","-55","","Ice Crystals"
"-85.81","79.99","EUREKA A","2401203","2019-02-03 12:00","2019","02","03","12:00","-39.3","","-43.4","","66","","","","14","","20","","24.1","","102.27","","","","-55","","Ice Crystals"
"-85.81","79.99","EUREKA A","2401203","2019-02-03 13:00","2019","02","03","13:00","-39.7","","-43.9","","66","","","","12","","13","","24.1","","102.31","","","","-52","","Ice Crystals"
"-85.81","79.99","EUREKA A","2401203","2019-02-03 14:00","2019","02","03","14:00","-39.6","","-43.8","","66","","","","13","","12","","24.1","","102.37","","","","-52","","Ice Crystals"
"-85.81","79.99","EUREKA A","2401203","2019-02-03 15:00","2019","02","03","15:00","-39.3","","-43.4","","66","","","","13","","18","","24.1","","102.42","","","","-54","","Ice Crystals"
"-85.81","79.99","EUREKA A","2401203","2019-02-03 16:00","2019","02","03","16:00","-39.8","","-44.0","","66","","","","14","","14","","24.1","","102.49","","","","-53","","Ice Crystals"
"-85.81","79.99","EUREKA A","2401203","2019-02-03 17:00","2019","02","03","17:00","-39.7","","-43.8","","66","","","","12","","17","","24.1","","102.56","","","","-54","","Ice Crystals"
"-85.81","79.99","EUREKA A","2401203","2019-02-03 18:00","2019","02","03","18:00","-39.8","","-43.9","","66","","","","11","","12","","24.1","","102.60","","","","-52","","Ice Crystals"
"-85.81","79.99","EUREKA A","2401203","2019-02-03 19:00","2019","02","03","19:00","-39.9","","-44.1","","66","","","","13","","17","","24.1","","102.62","","","","-54","","Ice Crystals"
"-85.81","79.99","EUREKA A","2401203","2019-02-03 20:00","2019","02","03","20:00","-40.7","","-44.9","","65","","","","12","","16","","24.1","","102.63","","","","-55","","Ice Crystals"
"-85.81","79.99","EUREKA A","2401203","2019-02-03 21:00","2019","02","03","21:00","-40.1","","-44.2","","66","","","","12","","14","","24.1","","102.67","","","","-53","","Ice Crystals"
"-85.81","79.99","EUREKA A","2401203","2019-02-03 22:00","2019","02","03","22:00"
"-85.81","79.99","EUREKA A","2401203","2019-02-03 23:00","2019","02","03","23:00"
"-85.81","79.99","EUREKA A","2401203","2019-02-04 00:00","2019","02","04","00:00","-39.6","","-43.8","","66","","","","10","","6","","24.1","","102.69","","","","-48","","Ice Crystals"
"-85.81","79.99","EUREKA A","2401203","2019-02-04 01:00","2019","02","04","01:00","-40.4","","-44.5","","66","","","","7","","3","","24.1","","102.69","","","","-45","","Ice Crystals"
"-85.81","79.99","EUREKA A","2401203","2019-02-04 02:00","2019","02","04","02:00","-39.4","","-43.6","","66","","","","11","","4","","24.1","","102.68","","","","-45","","Ice Crystals"
"-85.81","79.99","EUREKA A","2401203","2019-02-04 03:00","2019","02","04","03:00","-40.1","","-44.3","","66","","","","12","","4","","24.1","","102.69","","","","-46","","Ice Crystals"
"-85.81","79.99","EUREKA A","2401203","2019-02-04 04:00","2019","02","04","04:00","-41.4","","-45.6","","65","","","","8","","3","","24.1","","102.68","","","","-46","","Ice Crystals"
"-85.81","79.99","EUREKA A","2401203","2019-02-04 05:00","2019","02","04","05:00","-40.8","","-45.0","","65","","","","0","","1","","19.3","","102.65","","","","-42","","Ice Crystals"
"-85.81","79.99","EUREKA A","2401203","2019-02-04 06:00","2019","02","04","06:00","-40.9","","-45.1","","65","","","","8","","3","","24.1","","102.68","","","","-45","","Ice Crystals"
"-85.81","79.99","EUREKA A","2401203","2019-02-04 07:00","2019","02","04","07:00","-40.1","","-44.3","","65","","","","13","","3","","24.1","","102.63","","","","-44","","Ice Crystals"
"-85.81","79.99","EUREKA A","2401203","2019-02-04 08:00","2019","02","04","08:00","-41.1","","-45.3","","65","","","","8","","4","","24.1","","102.62","","","","-47","","Ice Crystals"
"-85.81","79.99","EUREKA A","2401203","2019-02-04 09:00","2019","02","04","09:00","-43.0","","-47.3","","64","","","","6","","5","","24.1","","102.58","","","","-50","","Ice Crystals"
"-85.81","79.99","EUREKA A","2401203","2019-02-04 10:00","2019","02","04","10:00","-41.7","","-46.0","","65","","","","6","","3","","20.9","","102.57","","","","-46","","Ice Crystals"
"-85.81","79.99","EUREKA A","2401203","2019-02-04 11:00","2019","02","04","11:00","-38.1","","-42.2","","66","","","","11","","4","","24.1","","102.54","","","","-43","","Ice Crystals"
"-85.81","79.99","EUREKA A","2401203","2019-02-04 12:00","2019","02","04","12:00","-40.7","","-44.9","","65","","","","16","","5","","24.1","","102.55","","","","-48","","Ice Crystals"
"-85.81","79.99","EUREKA A","2401203","2019-02-04 13:00","2019","02","04","13:00","-40.2","","-44.4","","65","","","","10","","7","","24.1","","102.54","","","","-49","","Ice Crystals"
"-85.81","79.99","EUREKA A","2401203","2019-02-04 14:00","2019","02","04","14:00","-41.4","","-45.6","","65","","","","9","","5","","24.1","","102.55","","","","-49","","Ice Crystals"
"-85.81","79.99","EUREKA A","2401203","2019-02-04 15:00","2019","02","04","15:00","-40.8","","-45.0","","65","","","","36","","3","","24.1","","102.58","","","","-45","","Ice Crystals"
"-85.81","79.99","EUREKA A","2401203","2019-02-04 16:00","2019","02","04","16:00","-40.6","","-44.8","","65","","","","8","","4","","24.1","","102.58","","","","-46","","Ice Crystals"
"-85.81","79.99","EUREKA A","2401203","2019-02-04 17:00","2019","02","04","17:00","-40.3","","-44.5","","65","","","","13","","12","","24.1","","102.56","","","","-53","","Ice Crystals"
"-85.81","79.99","EUREKA A","2401203","2019-02-04 18:00","2019","02","04","18:00","-41.9","","-46.2","","64","","","","9","","8","","24.1","","102.54","","","","-52","","Ice Crystals"
"-85.81","79.99","EUREKA A","2401203","2019-02-04 19:00","2019","02","04","19:00","-39.9","","-44.0","","65","","","","12","","13","","24.1","","102.56","","","","-53","","Ice Crystals"
"-85.81","79.99","EUREKA A","2401203","2019-02-04 20:00","2019","02","04","20:00","-41.1","","-45.3","","65","","","","7","","5","","24.1","","102.52","","","","-48","","Ice Crystals"
"-85.81","79.99","EUREKA A","2401203","2019-02-04 21:00","2019","02","04","21:00","-40.9","","-45.1","","65","","","","12","","8","","24.1","","102.55","","","","-51","","Ice Crystals"
"-85.81","79.99","EUREKA A","2401203","2019-02-04 22:00","2019","02","04","22:00"
"-85.81","79.99","EUREKA A","2401203","2019-02-04 23:00","2019","02","04","23:00"
"-85.81","79.99","EUREKA A","2401203","2019-02-05 00:00","2019","02","05","00:00","-40.0","","-44.2","","65","","","","12","","14","","24.1","","102.51","","","","-53","","Ice Crystals"
"-85.81","79.99","EUREKA A","2401203","2019-02-05 01:00","2019","02","05","01:00","-40.4","","-44.5","","65","","","","8","","11","","24.1","","102.52","","","","-52","","Ice Crystals"
"-85.81","79.99","EUREKA A","2401203","2019-02-05 02:00","2019","02","05","02:00","-39.7","","-43.9","","66","","","","11","","13","","24.1","","102.53","","","","-52","","Ice Crystals"
"-85.81","79.99","EUREKA A","2401203","2019-02-05 03:00","2019","02","05","03:00","-39.1","","-43.3","","66","","","","8","","10","","24.1","","102.51","","","","-50","","Ice Crystals"
"-85.81","79.99","EUREKA A","2401203","2019-02-05 04:00","2019","02","05","04:00","-38.6","","-42.8","","66","","","","13","","20","","24.1","","102.53","","","","-54","","Ice Crystals"
"-85.81","79.99","EUREKA A","2401203","2019-02-05 05:00","2019","02","05","05:00","-39.6","","-43.8","","66","","","","12","","24","","24.1","","102.50","","","","-57","","Ice Crystals"
"-85.81","79.99","EUREKA A","2401203","2019-02-05 06:00","2019","02","05","06:00","-38.2","","-42.3","","67","","","","9","","13","","24.1","","102.49","","","","-51","","Ice Crystals"
"-85.81","79.99","EUREKA A","2401203","2019-02-05 07:00","2019","02","05","07:00","-38.5","","-42.6","","66","","","","11","","17","","24.1","","102.47","","","","-53","","Ice Crystals"
"-85.81","79.99","EUREKA A","2401203","2019-02-05 08:00","2019","02","05","08:00","-38.0","","-42.1","","67","","","","9","","10","","24.1","","102.47","","","","-49","","Ice Crystals"
"-85.81","79.99","EUREKA A","2401203","2019-02-05 09:00","2019","02","05","09:00","-39.3","","-43.4","","66","","","","10","","15","","24.1","","102.44","","","","-53","","Ice Crystals"
"-85.81","79.99","EUREKA A","2401203","2019-02-05 10:00","2019","02","05","10:00","-39.2","","-43.3","","66","","","","12","","18","","24.1","","102.44","","","","-54","","Ice Crystals"
"-85.81","79.99","EUREKA A","2401203","2019-02-05 11:00","2019","02","05","11:00","-38.5","","-42.7","","66","","","","11","","17","","24.1","","102.45","","","","-53","","Ice Crystals"
"-85.81","79.99","EUREKA A","2401203","2019-02-05 12:00","2019","02","05","12:00","-38.5","","-42.6","","66","","","","12","","18","","24.1","","102.41","","","","-53","","Mostly Cloudy"
"-85.81","79.99","EUREKA A","2401203","2019-02-05 13:00","2019","02","05","13:00","-36.7","","-40.8","","67","","","","9","","4","","24.1","","102.39","","","","-42","","NA"
"-85.81","79.99","EUREKA A","2401203","2019-02-05 14:00","2019","02","05","14:00","-36.7","","-40.6","","68","","","","7","","5","","24.1","","102.37","","","","-43","","NA"
"-85.81","79.99","EUREKA A","2401203","2019-02-05 15:00","2019","02","05","15:00","-38.1","","-42.1","","67","","","","9","","7","","24.1","","102.37","","","","-47","","Mostly Cloudy"
"-85.81","79.99","EUREKA A","2401203","2019-02-05 16:00","2019","02","05","16:00","-36.6","","-40.6","","67","","","","12","","9","","24.1","","102.37","","","","-46","","NA"
"-85.81","79.99","EUREKA A","2401203","2019-02-05 17:00","2019","02","05","17:00","-38.1","","-42.1","","67","","","","12","","16","","24.1","","102.34","","","","-52","","NA"
"-85.81","79.99","EUREKA A","2401203","2019-02-05 18:00","2019","02","05","18:00","-37.9","","-42.0","","67","","","","13","","21","","24.1","","102.32","","","","-53","","Mainly Clear"
"-85.81","79.99","EUREKA A","2401203","2019-02-05 19:00","2019","02","05","19:00","-38.7","","-42.8","","66","","","","7","","9","","24.1","","102.32","","","","-49","","NA"
"-85.81","79.99","EUREKA A","2401203","2019-02-05 20:00","2019","02","05","20:00","-37.6","","-41.6","","67","","","","10","","17","","24.1","","102.26","","","","-52","","NA"
"-85.81","79.99","EUREKA A","2401203","2019-02-05 21:00","2019","02","05","21:00","-37.2","","-41.2","","67","","","","13","","21","","24.1","","102.25","","","","-53","","Mainly Clear"
"-85.81","79.99","EUREKA A","2401203","2019-02-05 22:00","2019","02","05","22:00"
"-85.81","79.99","EUREKA A","2401203","2019-02-05 23:00","2019","02","05","23:00"
"-85.81","79.99","EUREKA A","2401203","2019-02-06 00:00","2019","02","06","00:00","-35.9","","-39.9","","68","","","","13","","17","","24.1","","102.14","","","","-49","","Ice Crystals,Blowing Snow"
"-85.81","79.99","EUREKA A","2401203","2019-02-06 01:00","2019","02","06","01:00","-35.2","","-39.1","","68","","","","11","","17","","24.1","","102.16","","","","-49","","Ice Crystals,Blowing Snow"
"-85.81","79.99","EUREKA A","2401203","2019-02-06 02:00","2019","02","06","02:00","-34.9","","-38.8","","68","","","","14","","14","","24.1","","102.20","","","","-47","","Ice Crystals"
"-85.81","79.99","EUREKA A","2401203","2019-02-06 03:00","2019","02","06","03:00","-35.4","","-39.3","","68","","","","9","","9","","24.1","","102.24","","","","-45","","Ice Crystals"
"-85.81","79.99","EUREKA A","2401203","2019-02-06 04:00","2019","02","06","04:00","-34.7","","-38.5","","69","","","","36","","3","","24.1","","102.29","","","","-38","","Ice Crystals"
"-85.81","79.99","EUREKA A","2401203","2019-02-06 05:00","2019","02","06","05:00","-34.7","","-38.6","","69","","","","12","","9","","24.1","","102.33","","","","-44","","Ice Crystals"
"-85.81","79.99","EUREKA A","2401203","2019-02-06 06:00","2019","02","06","06:00","-36.9","","-40.9","","68","","","","13","","18","","24.1","","102.38","","","","-51","","Ice Crystals"
"-85.81","79.99","EUREKA A","2401203","2019-02-06 07:00","2019","02","06","07:00","-37.0","","-41.0","","68","","","","13","","12","","24.1","","102.41","","","","-49","","Ice Crystals"
"-85.81","79.99","EUREKA A","2401203","2019-02-06 08:00","2019","02","06","08:00","-37.5","","-41.5","","67","","","","13","","12","","24.1","","102.44","","","","-49","","Ice Crystals"
"-85.81","79.99","EUREKA A","2401203","2019-02-06 09:00","2019","02","06","09:00","-37.9","","-42.0","","67","","","","9","","5","","24.1","","102.49","","","","-45","","Ice Crystals"
"-85.81","79.99","EUREKA A","2401203","2019-02-06 10:00","2019","02","06","10:00","-37.8","","-41.9","","67","","","","7","","4","","11.3","","102.49","","","","-43","","Ice Crystals"
"-85.81","79.99","EUREKA A","2401203","2019-02-06 11:00","2019","02","06","11:00","-37.9","","-41.9","","67","","","","15","","12","","9.7","","102.54","","","","-50","","Ice Crystals"
"-85.81","79.99","EUREKA A","2401203","2019-02-06 12:00","2019","02","06","12:00","-36.9","","-40.9","","67","","","","14","","11","","9.7","","102.56","","","","-48","","Ice Crystals"
"-85.81","79.99","EUREKA A","2401203","2019-02-06 13:00","2019","02","06","13:00","-37.3","","-41.3","","67","","","","10","","5","","4.8","","102.61","","","","-44","","Ice Crystals"
"-85.81","79.99","EUREKA A","2401203","2019-02-06 14:00","2019","02","06","14:00","-37.3","","-41.3","","67","","","","13","","13","","4.8","","102.64","","","","-49","","Ice Crystals"
"-85.81","79.99","EUREKA A","2401203","2019-02-06 15:00","2019","02","06","15:00","-36.9","","-40.8","","67","","","","14","","14","","4.8","","102.70","","","","-49","","Ice Crystals"
"-85.81","79.99","EUREKA A","2401203","2019-02-06 16:00","2019","02","06","16:00","-34.5","","-38.4","","69","","","","20","","7","","4.8","","102.74","","","","-43","","Ice Crystals"
"-85.81","79.99","EUREKA A","2401203","2019-02-06 17:00","2019","02","06","17:00","-35.2","","-39.2","","68","","","","18","","8","","6.4","","102.78","","","","-44","","Ice Crystals"
"-85.81","79.99","EUREKA A","2401203","2019-02-06 18:00","2019","02","06","18:00","-33.7","","-37.6","","69","","","","24","","10","","6.4","","102.82","","","","-44","","Ice Crystals"
"-85.81","79.99","EUREKA A","2401203","2019-02-06 19:00","2019","02","06","19:00","-33.8","","-37.6","","69","","","","22","","5","","6.4","","102.86","","","","-40","","Ice Crystals"
"-85.81","79.99","EUREKA A","2401203","2019-02-06 20:00","2019","02","06","20:00","-35.0","","-38.8","","69","","","","14","","13","","4.8","","102.90","","","","-47","","Ice Crystals"
"-85.81","79.99","EUREKA A","2401203","2019-02-06 21:00","2019","02","06","21:00","-33.3","","-37.1","","70","","","","18","","4","","4.8","","102.91","","","","-38","","Ice Crystals"
"-85.81","79.99","EUREKA A","2401203","2019-02-06 22:00","2019","02","06","22:00"
"-85.81","79.99","EUREKA A","2401203","2019-02-06 23:00","2019","02","06","23:00"
"-85.81","79.99","EUREKA A","2401203","2019-02-07 00:00","2019","02","07","00:00","-35.2","","-39.1","","69","","","","14","","11","","11.3","","102.96","","","","-46","","Ice Crystals"
"-85.81","79.99","EUREKA A","2401203","2019-02-07 01:00","2019","02","07","01:00","-36.5","","-40.4","","68","","","","4","","5","","16.1","","102.99","","","","-43","","Ice Crystals"
"-85.81","79.99","EUREKA A","2401203","2019-02-07 02:00","2019","02","07","02:00","-36.9","","-40.8","","68","","","","8","","7","","24.1","","103.01","","","","-45","","Ice Crystals"
"-85.81","79.99","EUREKA A","2401203","2019-02-07 03:00","2019","02","07","03:00","-36.1","","-40.0","","68","","","","9","","5","","24.1","","103.03","","","","-43","","Ice Crystals"
"-85.81","79.99","EUREKA A","2401203","2019-02-07 04:00","2019","02","07","04:00","-37.3","","-41.3","","67","","","","6","","5","","24.1","","103.05","","","","-44","","Ice Crystals"
"-85.81","79.99","EUREKA A","2401203","2019-02-07 05:00","2019","02","07","05:00","-35.5","","-39.3","","69","","","","36","","2","","24.1","","103.05","","","","-38","","Ice Crystals"
"-85.81","79.99","EUREKA A","2401203","2019-02-07 06:00","2019","02","07","06:00","-35.8","","-39.7","","68","","","","9","","3","","24.1","","103.07","","","","-40","","Ice Crystals"
"-85.81","79.99","EUREKA A","2401203","2019-02-07 07:00","2019","02","07","07:00","-36.1","","-40.0","","68","","","","5","","5","","24.1","","103.08","","","","-43","","Ice Crystals"
"-85.81","79.99","EUREKA A","2401203","2019-02-07 08:00","2019","02","07","08:00","-35.8","","-39.7","","68","","","","36","","2","","24.1","","103.07","","","","-38","","Ice Crystals"
"-85.81","79.99","EUREKA A","2401203","2019-02-07 09:00","2019","02","07","09:00","-35.0","","-38.8","","69","","","","1","","4","","24.1","","103.11","","","","-40","","Ice Crystals"
"-85.81","79.99","EUREKA A","2401203","2019-02-07 10:00","2019","02","07","10:00","-35.6","","-39.6","","68","","","","29","","3","","24.1","","103.06","","","","-39","","Ice Crystals"
"-85.81","79.99","EUREKA A","2401203","2019-02-07 11:00","2019","02","07","11:00","-35.8","","-39.6","","69","","","","10","","4","","24.1","","103.06","","","","-41","","Ice Crystals"
"-85.81","79.99","EUREKA A","2401203","2019-02-07 12:00","2019","02","07","12:00","-35.8","","-39.6","","69","","","","8","","3","","24.1","","103.06","","","","-40","","Ice Crystals"
"-85.81","79.99","EUREKA A","2401203","2019-02-07 13:00","2019","02","07","13:00","-34.3","","-38.2","","69","","","","15","","5","","24.1","","103.09","","","","-41","","Ice Crystals"
"-85.81","79.99","EUREKA A","2401203","2019-02-07 14:00","2019","02","07","14:00","-35.5","","-39.3","","69","","","","7","","3","","24.1","","103.09","","","","-39","","Ice Crystals"
"-85.81","79.99","EUREKA A","2401203","2019-02-07 15:00","2019","02","07","15:00","-36.0","","-39.9","","68","","","","14","","15","","24.1","","103.11","","","","-49","","Ice Crystals"
"-85.81","79.99","EUREKA A","2401203","2019-02-07 16:00","2019","02","07","16:00","-36.6","","-40.5","","68","","","","11","","4","","24.1","","103.12","","","","-42","","Ice Crystals"
"-85.81","79.99","EUREKA A","2401203","2019-02-07 17:00","2019","02","07","17:00","-37.2","","-41.2","","68","","","","7","","4","","24.1","","103.14","","","","-42","","Ice Crystals"
"-85.81","79.99","EUREKA A","2401203","2019-02-07 18:00","2019","02","07","18:00","-36.2","","-40.1","","68","","","","33","","3","","24.1","","103.16","","","","-40","","Ice Crystals"
"-85.81","79.99","EUREKA A","2401203","2019-02-07 19:00","2019","02","07","19:00","-34.5","","-38.3","","69","","","","36","","1","","24.1","","103.15","","","","-36","","Ice Crystals"
"-85.81","79.99","EUREKA A","2401203","2019-02-07 20:00","2019","02","07","20:00","-35.8","","-39.7","","68","","","","36","","2","","24.1","","103.17","","","","-38","","Ice Crystals"
"-85.81","79.99","EUREKA A","2401203","2019-02-07 21:00","2019","02","07","21:00","-36.7","","-40.6","","68","","","","6","","5","","24.1","","103.19","","","","-43","","Ice Crystals"
"-85.81","79.99","EUREKA A","2401203","2019-02-07 22:00","2019","02","07","22:00"
"-85.81","79.99","EUREKA A","2401203","2019-02-07 23:00","2019","02","07","23:00"
"-85.81","79.99","EUREKA A","2401203","2019-02-08 00:00","2019","02","08","00:00","-35.6","","-39.5","","68","","","","4","","3","","24.1","","103.17","","","","-39","","Ice Crystals"
"-85.81","79.99","EUREKA A","2401203","2019-02-08 01:00","2019","02","08","01:00","-34.2","","-38.0","","69","","","","8","","4","","24.1","","103.17","","","","-39","","Ice Crystals"
"-85.81","79.99","EUREKA A","2401203","2019-02-08 02:00","2019","02","08","02:00","-35.4","","-39.2","","69","","","","8","","5","","24.1","","103.15","","","","-42","","Ice Crystals"
"-85.81","79.99","EUREKA A","2401203","2019-02-08 03:00","2019","02","08","03:00","-35.9","","-39.8","","69","","","","4","","4","","24.1","","103.14","","","","-41","","Ice Crystals"
"-85.81","79.99","EUREKA A","2401203","2019-02-08 04:00","2019","02","08","04:00","-34.9","","-38.7","","69","","","","6","","4","","24.1","","103.14","","","","-40","","Ice Crystals"
"-85.81","79.99","EUREKA A","2401203","2019-02-08 05:00","2019","02","08","05:00","-31.9","","-35.5","","71","","","","35","","5","","24.1","","103.12","","","","-38","","Ice Crystals"
"-85.81","79.99","EUREKA A","2401203","2019-02-08 06:00","2019","02","08","06:00","-35.6","","-39.5","","68","","","","13","","3","","24.1","","103.05","","","","-39","","Ice Crystals"
"-85.81","79.99","EUREKA A","2401203","2019-02-08 07:00","2019","02","08","07:00","-35.2","","-39.0","","69","","","","14","","8","","24.1","","103.03","","","","-44","","Ice Crystals"
"-85.81","79.99","EUREKA A","2401203","2019-02-08 08:00","2019","02","08","08:00","-35.8","","-39.7","","68","","","","8","","4","","24.1","","102.99","","","","-41","","Ice Crystals"
"-85.81","79.99","EUREKA A","2401203","2019-02-08 09:00","2019","02","08","09:00","-35.5","","-39.4","","69","","","","8","","3","","24.1","","102.96","","","","-39","","Ice Crystals"
"-85.81","79.99","EUREKA A","2401203","2019-02-08 10:00","2019","02","08","10:00","-36.5","","-40.4","","68","","","","16","","7","","24.1","","102.91","","","","-45","","Ice Crystals"
"-85.81","79.99","EUREKA A","2401203","2019-02-08 11:00","2019","02","08","11:00","-36.7","","-40.6","","68","","","","12","","6","","24.1","","102.88","","","","-44","","Ice Crystals"
"-85.81","79.99","EUREKA A","2401203","2019-02-08 12:00","2019","02","08","12:00","-36.7","","-40.6","","68","","","","13","","5","","24.1","","102.82","","","","-43","","Ice Crystals"
"-85.81","79.99","EUREKA A","2401203","2019-02-08 13:00","2019","02","08","13:00","-36.8","","-40.7","","68","","","","10","","5","","24.1","","102.74","","","","-43","","Ice Crystals"
"-85.81","79.99","EUREKA A","2401203","2019-02-08 14:00","2019","02","08","14:00","-38.2","","-42.2","","67","","","","7","","8","","24.1","","102.66","","","","-48","","Ice Crystals"
"-85.81","79.99","EUREKA A","2401203","2019-02-08 15:00","2019","02","08","15:00","-37.2","","-41.2","","68","","","","7","","6","","24.1","","102.59","","","","-45","","Ice Crystals"
"-85.81","79.99","EUREKA A","2401203","2019-02-08 16:00","2019","02","08","16:00","-36.1","","-40.0","","68","","","","12","","7","","24.1","","102.53","","","","-44","","Ice Crystals"
"-85.81","79.99","EUREKA A","2401203","2019-02-08 17:00","2019","02","08","17:00","-35.7","","-39.6","","68","","","","10","","3","","24.1","","102.46","","","","-40","","Ice Crystals"
"-85.81","79.99","EUREKA A","2401203","2019-02-08 18:00","2019","02","08","18:00","-35.4","","-39.2","","69","","","","13","","7","","24.1","","102.38","","","","-44","","Ice Crystals"
"-85.81","79.99","EUREKA A","2401203","2019-02-08 19:00","2019","02","08","19:00","-34.9","","-38.8","","69","","","","11","","11","","24.1","","102.33","","","","-46","","Ice Crystals"
"-85.81","79.99","EUREKA A","2401203","2019-02-08 20:00","2019","02","08","20:00","-34.8","","-38.7","","69","","","","10","","6","","24.1","","102.19","","","","-42","","Ice Crystals"
"-85.81","79.99","EUREKA A","2401203","2019-02-08 21:00","2019","02","08","21:00","-32.9","","-36.6","","70","","","","12","","8","","24.1","","102.08","","","","-41","","Ice Crystals"
"-85.81","79.99","EUREKA A","2401203","2019-02-08 22:00","2019","02","08","22:00"
"-85.81","79.99","EUREKA A","2401203","2019-02-08 23:00","2019","02","08","23:00"
"-85.81","79.99","EUREKA A","2401203","2019-02-09 00:00","2019","02","09","00:00","-31.4","","-35.1","","71","","","","12","","21","","24.1","","101.75","","","","-45","","Mostly Cloudy"
"-85.81","79.99","EUREKA A","2401203","2019-02-09 01:00","2019","02","09","01:00","-32.6","","-36.3","","71","","","","13","","21","","24.1","","101.66","","","","-47","","NA"
"-85.81","79.99","EUREKA A","2401203","2019-02-09 02:00","2019","02","09","02:00","-32.5","","-36.2","","70","","","","11","","14","","24.1","","101.58","","","","-44","","NA"
"-85.81","79.99","EUREKA A","2401203","2019-02-09 03:00","2019","02","09","03:00","-32.2","","-35.9","","71","","","","9","","9","","24.1","","101.48","","","","-41","","Mostly Cloudy"
"-85.81","79.99","EUREKA A","2401203","2019-02-09 04:00","2019","02","09","04:00","-32.3","","-36.0","","71","","","","13","","17","","24.1","","101.37","","","","-45","","NA"
"-85.81","79.99","EUREKA A","2401203","2019-02-09 05:00","2019","02","09","05:00","-33.0","","-36.7","","70","","","","11","","12","","24.1","","101.26","","","","-44","","NA"
"-85.81","79.99","EUREKA A","2401203","2019-02-09 06:00","2019","02","09","06:00","-33.1","","-36.8","","70","","","","9","","7","","24.1","","101.17","","","","-41","","Mostly Cloudy"
"-85.81","79.99","EUREKA A","2401203","2019-02-09 07:00","2019","02","09","07:00","-32.7","","-36.4","","70","","","","2","","5","","24.1","","101.12","","","","-39","","NA"
"-85.81","79.99","EUREKA A","2401203","2019-02-09 08:00","2019","02","09","08:00","-32.6","","-36.3","","71","","","","5","","5","","24.1","","101.07","","","","-39","","NA"
"-85.81","79.99","EUREKA A","2401203","2019-02-09 09:00","2019","02","09","09:00","-32.7","","-36.4","","70","","","","6","","8","","24.1","","101.01","","","","-41","","Cloudy"
"-85.81","79.99","EUREKA A","2401203","2019-02-09 10:00","2019","02","09","10:00","-31.6","","-35.2","","71","","","","36","","2","","24.1","","100.98","","","","-34","","NA"
"-85.81","79.99","EUREKA A","2401203","2019-02-09 11:00","2019","02","09","11:00","-30.2","","-33.8","","71","","","","21","","11","","24.1","","100.94","","","","-40","","NA"
"-85.81","79.99","EUREKA A","2401203","2019-02-09 12:00","2019","02","09","12:00","-30.9","","-34.5","","72","","","","11","","9","","24.1","","100.88","","","","-40","","Cloudy"
"-85.81","79.99","EUREKA A","2401203","2019-02-09 13:00","2019","02","09","13:00","-31.1","","-34.6","","72","","","","8","","4","","24.1","","100.89","","","","-36","","NA"
"-85.81","79.99","EUREKA A","2401203","2019-02-09 14:00","2019","02","09","14:00","-31.0","","-34.5","","72","","","","12","","3","","24.1","","100.89","","","","-34","","NA"
"-85.81","79.99","EUREKA A","2401203","2019-02-09 15:00","2019","02","09","15:00","-29.7","","-33.2","","72","","","","17","","13","","24.1","","100.90","","","","-40","","Mainly Clear"
"-85.81","79.99","EUREKA A","2401203","2019-02-09 16:00","2019","02","09","16:00","-31.8","","-35.4","","71","","","","15","","22","","24.1","","100.92","","","","-46","","NA"
"-85.81","79.99","EUREKA A","2401203","2019-02-09 17:00","2019","02","09","17:00","-30.6","","-34.1","","72","","","","14","","16","","24.1","","100.94","","","","-43","","NA"
"-85.81","79.99","EUREKA A","2401203","2019-02-09 18:00","2019","02","09","18:00","-28.7","","-32.1","","73","","","","13","","9","","24.1","","100.97","","","","-37","","Mainly Clear"
"-85.81","79.99","EUREKA A","2401203","2019-02-09 19:00","2019","02","09","19:00","-30.1","","-33.6","","72","","","","14","","15","","24.1","","101.00","","","","-42","","NA"
"-85.81","79.99","EUREKA A","2401203","2019-02-09 20:00","2019","02","09","20:00","-29.4","","-32.9","","73","","","","17","","10","","24.1","","101.05","","","","-38","","NA"
"-85.81","79.99","EUREKA A","2401203","2019-02-09 21:00","2019","02","09","21:00","-29.1","","-32.5","","73","","","","15","","14","","24.1","","101.09","","","","-40","","Clear"
"-85.81","79.99","EUREKA A","2401203","2019-02-09 22:00","2019","02","09","22:00"
"-85.81","79.99","EUREKA A","2401203","2019-02-09 23:00","2019","02","09","23:00"
"-85.81","79.99","EUREKA A","2401203","2019-02-10 00:00","2019","02","10","00:00","-30.0","","-33.5","","73","","","","6","","7","","24.1","","101.21","","","","-37","","Clear"
"-85.81","79.99","EUREKA A","2401203","2019-02-10 01:00","2019","02","10","01:00","-30.7","","-34.2","","72","","","","6","","9","","24.1","","101.28","","","","-39","","NA"
"-85.81","79.99","EUREKA A","2401203","2019-02-10 02:00","2019","02","10","02:00","-30.1","","-33.5","","73","","","","12","","9","","24.1","","101.33","","","","-39","","NA"
"-85.81","79.99","EUREKA A","2401203","2019-02-10 03:00","2019","02","10","03:00","-30.2","","-33.7","","72","","","","9","","5","","24.1","","101.39","","","","-36","","Clear"
"-85.81","79.99","EUREKA A","2401203","2019-02-10 04:00","2019","02","10","04:00","-29.3","","-32.7","","73","","","","15","","14","","24.1","","101.44","","","","-40","","NA"
"-85.81","79.99","EUREKA A","2401203","2019-02-10 05:00","2019","02","10","05:00","-30.0","","-33.5","","73","","","","16","","4","","24.1","","101.50","","","","-35","","NA"
"-85.81","79.99","EUREKA A","2401203","2019-02-10 06:00","2019","02","10","06:00","-28.5","","-31.9","","73","","","","5","","4","","24.1","","101.51","","","","-33","","Mainly Clear"
"-85.81","79.99","EUREKA A","2401203","2019-02-10 07:00","2019","02","10","07:00","-27.9","","-31.2","","74","","","","8","","3","","24.1","","101.55","","","","-31","","NA"
"-85.81","79.99","EUREKA A","2401203","2019-02-10 08:00","2019","02","10","08:00","-27.7","","-31.0","","74","","","","36","","2","","24.1","","101.58","","","","-30","","NA"
"-85.81","79.99","EUREKA A","2401203","2019-02-10 09:00","2019","02","10","09:00","-26.2","","-29.4","","75","","","","8","","3","","24.1","","101.61","","","","-29","","Mostly Cloudy"
"-85.81","79.99","EUREKA A","2401203","2019-02-10 10:00","2019","02","10","10:00","-26.7","","-29.9","","75","","","","16","","8","","24.1","","101.62","","","","-34","","NA"
"-85.81","79.99","EUREKA A","2401203","2019-02-10 11:00","2019","02","10","11:00","-27.8","","-31.1","","74","","","","14","","18","","24.1","","101.64","","","","-40","","NA"
"-85.81","79.99","EUREKA A","2401203","2019-02-10 12:00","2019","02","10","12:00","-26.8","","-30.0","","75","","","","13","","13","","24.1","","101.66","","","","-37","","Mostly Cloudy"
"-85.81","79.99","EUREKA A","2401203","2019-02-10 13:00","2019","02","10","13:00","-26.7","","-29.9","","75","","","","13","","14","","24.1","","101.66","","","","-37","","NA"
"-85.81","79.99","EUREKA A","2401203","2019-02-10 14:00","2019","02","10","14:00","-26.5","","-29.7","","75","","","","13","","17","","24.1","","101.64","","","","-38","","NA"
"-85.81","79.99","EUREKA A","2401203","2019-02-10 15:00","2019","02","10","15:00","-25.5","","-28.6","","76","","","","14","","15","","24.1","","101.66","","","","-36","","Mostly Cloudy"
"-85.81","79.99","EUREKA A","2401203","2019-02-10 16:00","2019","02","10","16:00","-26.1","","-29.3","","75","","","","12","","13","","24.1","","101.67","","","","-36","","NA"
"-85.81","79.99","EUREKA A","2401203","2019-02-10 17:00","2019","02","10","17:00","-26.0","","-29.1","","75","","","","13","","10","","24.1","","101.67","","","","-34","","NA"
"-85.81","79.99","EUREKA A","2401203","2019-02-10 18:00","2019","02","10","18:00","-25.5","","-28.6","","76","","","","11","","8","","24.1","","101.70","","","","-33","","Cloudy"
"-85.81","79.99","EUREKA A","2401203","2019-02-10 19:00","2019","02","10","19:00","-25.9","","-29.0","","76","","","","15","","11","","24.1","","101.67","","","","-35","","NA"
"-85.81","79.99","EUREKA A","2401203","2019-02-10 20:00","2019","02","10","20:00","-25.8","","-28.9","","76","","","","14","","13","","24.1","","101.67","","","","-35","","NA"
"-85.81","79.99","EUREKA A","2401203","2019-02-10 21:00","2019","02","10","21:00","-24.9","","-27.9","","76","","","","12","","10","","24.1","","101.66","","","","-33","","Cloudy"
"-85.81","79.99","EUREKA A","2401203","2019-02-10 22:00","2019","02","10","22:00"
"-85.81","79.99","EUREKA A","2401203","2019-02-10 23:00","2019","02","10","23:00"
"-85.81","79.99","EUREKA A","2401203","2019-02-11 00:00","2019","02","11","00:00","-24.5","","-27.5","","77","","","","14","","15","","24.1","","101.58","","","","-35","","Snow"
"-85.81","79.99","EUREKA A","2401203","2019-02-11 01:00","2019","02","11","01:00","-24.3","","-27.3","","77","","","","15","","24","","24.1","","101.56","","","","-37","","Snow,Blowing Snow"
"-85.81","79.99","EUREKA A","2401203","2019-02-11 02:00","2019","02","11","02:00","-24.3","","-27.3","","77","","","","15","","17","","24.1","","101.57","","","","-35","","Snow"
"-85.81","79.99","EUREKA A","2401203","2019-02-11 03:00","2019","02","11","03:00","-24.5","","-27.4","","77","","","","15","","11","","24.1","","101.57","","","","-33","","Snow"
"-85.81","79.99","EUREKA A","2401203","2019-02-11 04:00","2019","02","11","04:00","-24.2","","-27.2","","77","","","","16","","18","","24.1","","101.57","","","","-35","","Snow"
"-85.81","79.99","EUREKA A","2401203","2019-02-11 05:00","2019","02","11","05:00","-24.8","","-27.8","","77","","","","14","","14","","24.1","","101.52","","","","-35","","Snow"
"-85.81","79.99","EUREKA A","2401203","2019-02-11 06:00","2019","02","11","06:00","-24.2","","-27.2","","77","","","","15","","26","","24.1","","101.46","","","","-37","","Snow"
"-85.81","79.99","EUREKA A","2401203","2019-02-11 07:00","2019","02","11","07:00","-24.4","","-27.3","","77","","","","14","","26","","24.1","","101.43","","","","-37","","Snow"
"-85.81","79.99","EUREKA A","2401203","2019-02-11 08:00","2019","02","11","08:00","-24.2","","-27.1","","77","","","","14","","28","","24.1","","101.44","","","","-38","","Snow,Blowing Snow"
"-85.81","79.99","EUREKA A","2401203","2019-02-11 09:00","2019","02","11","09:00","-24.4","","-27.3","","77","","","","17","","21","","24.1","","101.46","","","","-36","","Snow"
"-85.81","79.99","EUREKA A","2401203","2019-02-11 10:00","2019","02","11","10:00","-24.9","","-27.9","","77","","","","15","","18","","24.1","","101.45","","","","-36","","NA"
"-85.81","79.99","EUREKA A","2401203","2019-02-11 11:00","2019","02","11","11:00","-24.7","","-27.7","","77","","","","15","","21","","24.1","","101.42","","","","-37","","NA"
"-85.81","79.99","EUREKA A","2401203","2019-02-11 12:00","2019","02","11","12:00","-25.7","","-28.8","","76","","","","14","","21","","24.1","","101.39","","","","-38","","Mainly Clear"
"-85.81","79.99","EUREKA A","2401203","2019-02-11 13:00","2019","02","11","13:00","-25.7","","-28.8","","76","","","","15","","22","","24.1","","101.37","","","","-38","","NA"
"-85.81","79.99","EUREKA A","2401203","2019-02-11 14:00","2019","02","11","14:00","-26.2","","-29.3","","76","","","","15","","22","","24.1","","101.36","","","","-39","","NA"
"-85.81","79.99","EUREKA A","2401203","2019-02-11 15:00","2019","02","11","15:00","-26.2","","-29.3","","76","","","","15","","25","","24.1","","101.36","","","","-40","","Clear"
"-85.81","79.99","EUREKA A","2401203","2019-02-11 16:00","2019","02","11","16:00","-26.3","","-29.4","","76","","","","15","","26","","24.1","","101.38","","","","-40","","NA"
"-85.81","79.99","EUREKA A","2401203","2019-02-11 17:00","2019","02","11","17:00","-26.9","","-30.1","","75","","","","15","","16","","24.1","","101.39","","","","-38","","NA"
"-85.81","79.99","EUREKA A","2401203","2019-02-11 18:00","2019","02","11","18:00","-27.0","","-30.1","","75","","","","15","","12","","24.1","","101.36","","","","-37","","Ice Crystals"
"-85.81","79.99","EUREKA A","2401203","2019-02-11 19:00","2019","02","11","19:00","-26.9","","-30.1","","75","","","","16","","14","","24.1","","101.34","","","","-37","","Ice Crystals"
"-85.81","79.99","EUREKA A","2401203","2019-02-11 20:00","2019","02","11","20:00","-27.0","","-30.1","","75","","","","15","","16","","24.1","","101.32","","","","-38","","Ice Crystals"
"-85.81","79.99","EUREKA A","2401203","2019-02-11 21:00","2019","02","11","21:00","-26.0","","-29.1","","76","","","","16","","3","","24.1","","101.28","","","","-29","","Ice Crystals"
"-85.81","79.99","EUREKA A","2401203","2019-02-11 22:00","2019","02","11","22:00"
"-85.81","79.99","EUREKA A","2401203","2019-02-11 23:00","2019","02","11","23:00"
"-85.81","79.99","EUREKA A","2401203","2019-02-12 00:00","2019","02","12","00:00","-25.5","","-28.6","","76","","","","16","","13","","24.1","","101.10","","","","-35","","Snow"
"-85.81","79.99","EUREKA A","2401203","2019-02-12 01:00","2019","02","12","01:00","-25.8","","-28.9","","76","","","","15","","19","","24.1","","101.04","","","","-38","","Snow"
"-85.81","79.99","EUREKA A","2401203","2019-02-12 02:00","2019","02","12","02:00","-25.1","","-28.1","","76","","","","15","","23","","24.1","","100.98","","","","-38","","Snow"
"-85.81","79.99","EUREKA A","2401203","2019-02-12 03:00","2019","02","12","03:00","-25.2","","-28.2","","76","","","","16","","10","","24.1","","100.92","","","","-33","","Snow"
"-85.81","79.99","EUREKA A","2401203","2019-02-12 04:00","2019","02","12","04:00","-24.4","","-27.4","","77","","","","16","","25","","24.1","","100.85","","","","-37","","Snow"
"-85.81","79.99","EUREKA A","2401203","2019-02-12 05:00","2019","02","12","05:00","-24.5","","-27.5","","77","","","","15","","28","","24.1","","100.74","","","","-38","","Snow,Blowing Snow"
"-85.81","79.99","EUREKA A","2401203","2019-02-12 06:00","2019","02","12","06:00","-24.1","","-27.0","","77","","","","15","","33","","8.1","","100.64","","","","-38","","Snow,Blowing Snow"
"-85.81","79.99","EUREKA A","2401203","2019-02-12 07:00","2019","02","12","07:00","-23.8","","-26.7","","77","","","","14","","31","","8.1","","100.55","","","","-38","","Snow,Blowing Snow"
"-85.81","79.99","EUREKA A","2401203","2019-02-12 08:00","2019","02","12","08:00","-23.4","","-26.3","","78","","","","15","","37","","4.8","","100.48","","","","-38","","Snow,Blowing Snow"
"-85.81","79.99","EUREKA A","2401203","2019-02-12 09:00","2019","02","12","09:00","-23.2","","-26.1","","78","","","","14","","36","","1.2","","100.40","","","","-38","","Snow,Blowing Snow"
"-85.81","79.99","EUREKA A","2401203","2019-02-12 10:00","2019","02","12","10:00","-23.0","","-25.8","","78","","","","15","","42","","0.6","","100.33","","","","-38","","Snow,Blowing Snow"
"-85.81","79.99","EUREKA A","2401203","2019-02-12 11:00","2019","02","12","11:00","-22.8","","-25.6","","78","","","","14","","36","","0.6","","100.21","","","","-37","","Blowing Snow"
"-85.81","79.99","EUREKA A","2401203","2019-02-12 12:00","2019","02","12","12:00","-22.6","","-25.4","","78","","","","16","","49","","0.6","","100.08","","","","-39","","Blowing Sand"
"-85.81","79.99","EUREKA A","2401203","2019-02-12 13:00","2019","02","12","13:00","-22.0","","-24.8","","79","","","","17","","50","","0.6","","100.06","","","","-38","","Blowing Snow"
"-85.81","79.99","EUREKA A","2401203","2019-02-12 14:00","2019","02","12","14:00","-21.4","","-24.1","","79","","","","14","","45","","1.2","","100.04","","","","-37","","Blowing Snow"
"-85.81","79.99","EUREKA A","2401203","2019-02-12 15:00","2019","02","12","15:00","-21.4","","-24.1","","79","","","","14","","48","","2.4","","100.00","","","","-37","","Blowing Snow"
"-85.81","79.99","EUREKA A","2401203","2019-02-12 16:00","2019","02","12","16:00","-20.9","","-23.6","","80","","","","14","","44","","2.4","","100.04","","","","-36","","Blowing Snow"
"-85.81","79.99","EUREKA A","2401203","2019-02-12 17:00","2019","02","12","17:00","-20.3","","-22.9","","80","","","","13","","35","","3.2","","100.08","","","","-34","","Blowing Snow"
"-85.81","79.99","EUREKA A","2401203","2019-02-12 18:00","2019","02","12","18:00","-19.5","","-22.1","","80","","","","14","","27","","16.1","","100.10","","","","-31","","Snow"
"-85.81","79.99","EUREKA A","2401203","2019-02-12 19:00","2019","02","12","19:00","-20.4","","-23.0","","80","","","","13","","29","","24.1","","100.10","","","","-33","","Snow"
"-85.81","79.99","EUREKA A","2401203","2019-02-12 20:00","2019","02","12","20:00","-20.3","","-23.0","","79","","","","14","","26","","24.1","","100.14","","","","-32","","Snow"
"-85.81","79.99","EUREKA A","2401203","2019-02-12 21:00","2019","02","12","21:00","-20.7","","-23.4","","79","","","","13","","23","","24.1","","100.18","","","","-32","","Snow"
"-85.81","79.99","EUREKA A","2401203","2019-02-12 22:00","2019","02","12","22:00"
"-85.81","79.99","EUREKA A","2401203","2019-02-12 23:00","2019","02","12","23:00"
"-85.81","79.99","EUREKA A","2401203","2019-02-13 00:00","2019","02","13","00:00","-21.5","","-24.3","","78","","","","13","","31","","16.1","","100.22","","","","-35","","Ice Crystals,Blowing Snow"
"-85.81","79.99","EUREKA A","2401203","2019-02-13 01:00","2019","02","13","01:00","-21.9","","-24.8","","78","","","","14","","27","","24.1","","100.30","","","","-34","","Ice Crystals,Blowing Snow"
"-85.81","79.99","EUREKA A","2401203","2019-02-13 02:00","2019","02","13","02:00","-21.7","","-24.6","","78","","","","13","","29","","24.1","","100.31","","","","-35","","Ice Crystals,Blowing Snow"
"-85.81","79.99","EUREKA A","2401203","2019-02-13 03:00","2019","02","13","03:00","-21.7","","-24.6","","78","","","","13","","31","","24.1","","100.30","","","","-35","","Ice Crystals,Blowing Snow"
"-85.81","79.99","EUREKA A","2401203","2019-02-13 04:00","2019","02","13","04:00","-23.2","","-26.1","","78","","","","13","","13","","24.1","","100.33","","","","-32","","Ice Crystals"
"-85.81","79.99","EUREKA A","2401203","2019-02-13 05:00","2019","02","13","05:00","-22.1","","-25.0","","78","","","","14","","23","","24.1","","100.24","","","","-34","","Ice Crystals"
"-85.81","79.99","EUREKA A","2401203","2019-02-13 06:00","2019","02","13","06:00","-21.5","","-24.3","","79","","","","15","","21","","9.7","","100.22","","","","-33","","Snow"
"-85.81","79.99","EUREKA A","2401203","2019-02-13 07:00","2019","02","13","07:00","-20.8","","-23.5","","79","","","","14","","23","","6.4","","100.17","","","","-32","","Snow,Blowing Snow"
"-85.81","79.99","EUREKA A","2401203","2019-02-13 08:00","2019","02","13","08:00","-20.9","","-23.7","","79","","","","14","","17","","4.8","","100.16","","","","-31","","Snow"
"-85.81","79.99","EUREKA A","2401203","2019-02-13 09:00","2019","02","13","09:00","-20.7","","-23.3","","80","","","","14","","21","","4.8","","100.12","","","","-32","","Snow"
"-85.81","79.99","EUREKA A","2401203","2019-02-13 10:00","2019","02","13","10:00","-20.6","","-23.3","","79","","","","14","","20","","24.1","","100.11","","","","-31","","Snow"
"-85.81","79.99","EUREKA A","2401203","2019-02-13 11:00","2019","02","13","11:00","-19.8","","-22.6","","79","","","","15","","22","","16.1","","100.10","","","","-31","","Snow"
"-85.81","79.99","EUREKA A","2401203","2019-02-13 12:00","2019","02","13","12:00","-19.6","","-22.4","","79","","","","14","","29","","16.1","","100.04","","","","-32","","Snow"
"-85.81","79.99","EUREKA A","2401203","2019-02-13 13:00","2019","02","13","13:00","-19.0","","-21.6","","80","","","","16","","32","","9.7","","100.01","","","","-32","","Snow"
"-85.81","79.99","EUREKA A","2401203","2019-02-13 14:00","2019","02","13","14:00","-19.2","","-21.8","","81","","","","14","","33","","4.8","","100.01","","","","-32","","Snow,Blowing Snow"
"-85.81","79.99","EUREKA A","2401203","2019-02-13 15:00","2019","02","13","15:00","-19.4","","-21.9","","80","","","","15","","33","","9.7","","100.00","","","","-32","","Snow,Blowing Snow"
"-85.81","79.99","EUREKA A","2401203","2019-02-13 16:00","2019","02","13","16:00","-19.2","","-21.8","","80","","","","14","","36","","4.8","","99.97","","","","-32","","Snow,Blowing Snow"
"-85.81","79.99","EUREKA A","2401203","2019-02-13 17:00","2019","02","13","17:00","-18.8","","-21.3","","81","","","","15","","35","","9.7","","100.01","","","","-32","","Snow,Blowing Snow"
"-85.81","79.99","EUREKA A","2401203","2019-02-13 18:00","2019","02","13","18:00","-19.3","","-21.9","","80","","","","14","","26","","9.7","","99.99","","","","-31","","Snow,Blowing Snow"
"-85.81","79.99","EUREKA A","2401203","2019-02-13 19:00","2019","02","13","19:00","-19.8","","-22.6","","79","","","","13","","31","","4.8","","99.98","","","","-32","","Snow,Blowing Snow"
"-85.81","79.99","EUREKA A","2401203","2019-02-13 20:00","2019","02","13","20:00","-19.7","","-22.4","","80","","","","14","","29","","9.7","","99.98","","","","-32","","Snow,Blowing Snow"
"-85.81","79.99","EUREKA A","2401203","2019-02-13 21:00","2019","02","13","21:00","-19.0","","-21.7","","79","","","","18","","32","","4.8","","99.97","","","","-32","","Snow,Blowing Snow"
"-85.81","79.99","EUREKA A","2401203","2019-02-13 22:00","2019","02","13","22:00"
"-85.81","79.99","EUREKA A","2401203","2019-02-13 23:00","2019","02","13","23:00"
"-85.81","79.99","EUREKA A","2401203","2019-02-14 00:00","2019","02","14","00:00","-19.5","","-22.3","","79","","","","14","","39","","2.4","","99.99","","","","-33","","Blowing Snow"
"-85.81","79.99","EUREKA A","2401203","2019-02-14 01:00","2019","02","14","01:00","-19.2","","-22.0","","79","","","","15","","39","","2.4","","100.02","","","","-33","","Blowing Snow"
"-85.81","79.99","EUREKA A","2401203","2019-02-14 02:00","2019","02","14","02:00","-19.4","","-22.4","","77","","","","14","","31","","6.4","","100.04","","","","-32","","Blowing Snow"
"-85.81","79.99","EUREKA A","2401203","2019-02-14 03:00","2019","02","14","03:00","-19.1","","-22.2","","77","","","","17","","27","","24.1","","100.04","","","","-31","","Ice Crystals,Blowing Snow"
"-85.81","79.99","EUREKA A","2401203","2019-02-14 04:00","2019","02","14","04:00","-19.4","","-22.7","","75","","","","16","","18","","24.1","","100.08","","","","-29","","Ice Crystals,Blowing Snow"
"-85.81","79.99","EUREKA A","2401203","2019-02-14 05:00","2019","02","14","05:00","-19.9","","-23.1","","77","","","","18","","32","","16.1","","100.11","","","","-33","","Ice Crystals,Blowing Snow"
"-85.81","79.99","EUREKA A","2401203","2019-02-14 06:00","2019","02","14","06:00","-20.7","","-23.7","","78","","","","16","","20","","24.1","","100.11","","","","-31","","Snow,Blowing Snow"
"-85.81","79.99","EUREKA A","2401203","2019-02-14 07:00","2019","02","14","07:00","-20.5","","-23.9","","75","","","","17","","13","","24.1","","100.19","","","","-29","","Snow"
"-85.81","79.99","EUREKA A","2401203","2019-02-14 08:00","2019","02","14","08:00","-20.7","","-24.0","","75","","","","25","","6","","24.1","","100.27","","","","-26","","Ice Crystals"
"-85.81","79.99","EUREKA A","2401203","2019-02-14 09:00","2019","02","14","09:00","-22.0","","-25.5","","74","","","","30","","16","","24.1","","100.35","","","","-32","","Ice Crystals"
"-85.81","79.99","EUREKA A","2401203","2019-02-14 10:00","2019","02","14","10:00","-23.2","","-26.3","","76","","","","26","","21","","16.1","","100.45","","","","-35","","Snow"
"-85.81","79.99","EUREKA A","2401203","2019-02-14 11:00","2019","02","14","11:00","-23.1","","-25.9","","79","","","","29","","16","","6.4","","100.51","","","","-33","","Snow"
"-85.81","79.99","EUREKA A","2401203","2019-02-14 12:00","2019","02","14","12:00","-22.9","","-25.8","","78","","","","29","","13","","6.4","","100.60","","","","-32","","Snow"
"-85.81","79.99","EUREKA A","2401203","2019-02-14 13:00","2019","02","14","13:00","-21.7","","-25.7","","71","","","","1","","29","","6.4","","100.65","","","","-35","","Snow"
"-85.81","79.99","EUREKA A","2401203","2019-02-14 14:00","2019","02","14","14:00","-21.6","","-25.6","","71","","","","35","","32","","4.8","","100.74","","","","-35","","Snow"
"-85.81","79.99","EUREKA A","2401203","2019-02-14 15:00","2019","02","14","15:00","-22.4","","-26.3","","71","","","","36","","30","","16.1","","100.82","","","","-36","","Snow"
"-85.81","79.99","EUREKA A","2401203","2019-02-14 16:00","2019","02","14","16:00","-21.9","","-26.1","","69","","","","2","","24","","4.8","","100.94","","","","-34","","Snow"
"-85.81","79.99","EUREKA A","2401203","2019-02-14 17:00","2019","02","14","17:00","-23.3","","-27.6","","69","","","","3","","29","","6.4","","101.03","","","","-37","","Snow,Blowing Snow"
"-85.81","79.99","EUREKA A","2401203","2019-02-14 18:00","2019","02","14","18:00","-25.4","","-29.1","","72","","","","5","","20","","16.1","","101.15","","","","-37","","Snow"
"-85.81","79.99","EUREKA A","2401203","2019-02-14 19:00","2019","02","14","19:00","-25.6","","-29.4","","71","","","","5","","32","","9.7","","101.24","","","","-40","","Snow,Blowing Snow"
"-85.81","79.99","EUREKA A","2401203","2019-02-14 20:00","2019","02","14","20:00","-27.4","","-31.4","","70","","","","26","","18","","9.7","","101.30","","","","-39","","Snow,Blowing Snow"
"-85.81","79.99","EUREKA A","2401203","2019-02-14 21:00","2019","02","14","21:00","-28.1","","-31.9","","71","","","","26","","16","","4.0","","101.38","","","","-39","","Blowing Snow"
"-85.81","79.99","EUREKA A","2401203","2019-02-14 22:00","2019","02","14","22:00"
"-85.81","79.99","EUREKA A","2401203","2019-02-14 23:00","2019","02","14","23:00"
"-85.81","79.99","EUREKA A","2401203","2019-02-15 00:00","2019","02","15","00:00","-26.9","","-31.7","","65","","","","2","","30","","24.1","","101.55","","","","-42","","Ice Crystals,Blowing Snow"
"-85.81","79.99","EUREKA A","2401203","2019-02-15 01:00","2019","02","15","01:00","-29.3","","-34.5","","61","","","","29","","9","","24.1","","101.56","","","","-38","","Ice Crystals"
"-85.81","79.99","EUREKA A","2401203","2019-02-15 02:00","2019","02","15","02:00","-30.3","","-35.1","","64","","","","28","","30","","24.1","","101.62","","","","-46","","Ice Crystals,Blowing Snow"
"-85.81","79.99","EUREKA A","2401203","2019-02-15 03:00","2019","02","15","03:00","-29.2","","-34.5","","61","","","","27","","21","","24.1","","101.72","","","","-42","","Ice Crystals,Blowing Snow"
"-85.81","79.99","EUREKA A","2401203","2019-02-15 04:00","2019","02","15","04:00","-29.6","","-34.9","","61","","","","27","","28","","24.1","","101.74","","","","-45","","Ice Crystals,Blowing Snow"
"-85.81","79.99","EUREKA A","2401203","2019-02-15 05:00","2019","02","15","05:00","-29.8","","-34.7","","63","","","","26","","25","","24.1","","101.75","","","","-44","","Ice Crystals,Blowing Snow"
"-85.81","79.99","EUREKA A","2401203","2019-02-15 06:00","2019","02","15","06:00","-29.2","","-34.6","","61","","","","28","","27","","24.1","","101.82","","","","-44","","Ice Crystals,Blowing Snow"
"-85.81","79.99","EUREKA A","2401203","2019-02-15 07:00","2019","02","15","07:00","-28.8","","-33.8","","63","","","","28","","27","","24.1","","101.85","","","","-43","","Ice Crystals,Blowing Snow"
"-85.81","79.99","EUREKA A","2401203","2019-02-15 08:00","2019","02","15","08:00","-29.5","","-34.5","","63","","","","26","","14","","24.1","","101.88","","","","-40","","Ice Crystals,Blowing Snow"
"-85.81","79.99","EUREKA A","2401203","2019-02-15 09:00","2019","02","15","09:00","-29.0","","-33.8","","64","","","","27","","17","","24.1","","101.92","","","","-41","","Ice Crystals,Blowing Snow"
"-85.81","79.99","EUREKA A","2401203","2019-02-15 10:00","2019","02","15","10:00","-29.3","","-33.9","","66","","","","31","","6","","24.1","","101.95","","","","-36","","Ice Crystals"
"-85.81","79.99","EUREKA A","2401203","2019-02-15 11:00","2019","02","15","11:00","-31.9","","-36.0","","68","","","","21","","9","","24.1","","102.03","","","","-41","","Ice Crystals"
"-85.81","79.99","EUREKA A","2401203","2019-02-15 12:00","2019","02","15","12:00","-32.0","","-35.9","","69","","","","15","","5","","24.1","","102.10","","","","-38","","Ice Crystals"
"-85.81","79.99","EUREKA A","2401203","2019-02-15 13:00","2019","02","15","13:00","-31.1","","-34.9","","70","","","","26","","6","","24.1","","102.14","","","","-38","","Ice Crystals"
"-85.81","79.99","EUREKA A","2401203","2019-02-15 14:00","2019","02","15","14:00","-31.5","","-35.3","","70","","","","27","","3","","24.1","","102.20","","","","-35","","Ice Crystals"
"-85.81","79.99","EUREKA A","2401203","2019-02-15 15:00","2019","02","15","15:00","-30.9","","-34.7","","70","","","","24","","5","","24.1","","102.24","","","","-37","","Snow"
"-85.81","79.99","EUREKA A","2401203","2019-02-15 16:00","2019","02","15","16:00","-32.3","","-36.0","","71","","","","13","","4","","24.1","","102.30","","","","-37","","Snow"
"-85.81","79.99","EUREKA A","2401203","2019-02-15 17:00","2019","02","15","17:00","-31.8","","-35.4","","72","","","","29","","7","","24.1","","102.35","","","","-39","","Snow"
"-85.81","79.99","EUREKA A","2401203","2019-02-15 18:00","2019","02","15","18:00","-32.4","","-36.2","","70","","","","5","","5","","24.1","","102.37","","","","-38","","Snow"
"-85.81","79.99","EUREKA A","2401203","2019-02-15 19:00","2019","02","15","19:00","-33.6","","-37.2","","71","","","","36","","1","","24.1","","102.41","","","","-35","","Snow,Blowing Snow"
"-85.81","79.99","EUREKA A","2401203","2019-02-15 20:00","2019","02","15","20:00","-31.1","","-34.7","","72","","","","26","","15","","24.1","","102.45","","","","-43","","Ice Crystals,Blowing Snow"
"-85.81","79.99","EUREKA A","2401203","2019-02-15 21:00","2019","02","15","21:00","-31.9","","-35.7","","70","","","","27","","16","","24.1","","102.54","","","","-44","","Ice Crystals,Blowing Snow"
"-85.81","79.99","EUREKA A","2401203","2019-02-15 22:00","2019","02","15","22:00"
"-85.81","79.99","EUREKA A","2401203","2019-02-15 23:00","2019","02","15","23:00"
"-85.81","79.99","EUREKA A","2401203","2019-02-16 00:00","2019","02","16","00:00","-31.4","","-35.5","","68","","","","31","","11","","24.1","","102.59","","","","-41","","Ice Crystals"
"-85.81","79.99","EUREKA A","2401203","2019-02-16 01:00","2019","02","16","01:00","-31.5","","-35.5","","68","","","","27","","21","","24.1","","102.64","","","","-45","","Ice Crystals,Blowing Snow"
"-85.81","79.99","EUREKA A","2401203","2019-02-16 02:00","2019","02","16","02:00","-31.3","","-35.4","","68","","","","27","","21","","24.1","","102.71","","","","-45","","Ice Crystals,Blowing Snow"
"-85.81","79.99","EUREKA A","2401203","2019-02-16 03:00","2019","02","16","03:00","-32.1","","-36.1","","68","","","","27","","22","","24.1","","102.77","","","","-46","","Ice Crystals,Blowing Snow"
"-85.81","79.99","EUREKA A","2401203","2019-02-16 04:00","2019","02","16","04:00","-29.7","","-33.6","","69","","","","34","","8","","24.1","","102.85","","","","-38","","Ice Crystals,Blowing Snow"
"-85.81","79.99","EUREKA A","2401203","2019-02-16 05:00","2019","02","16","05:00","-32.0","","-36.3","","67","","","","27","","19","","24.1","","102.88","","","","-45","","Ice Crystals"
"-85.81","79.99","EUREKA A","2401203","2019-02-16 06:00","2019","02","16","06:00","-36.4","","-40.1","","69","","","","15","","21","","24.1","","102.95","","","","-51","","Ice Crystals"
"-85.81","79.99","EUREKA A","2401203","2019-02-16 07:00","2019","02","16","07:00","-35.7","","-39.3","","70","","","","15","","12","","24.1","","103.02","","","","-47","","Ice Crystals"
"-85.81","79.99","EUREKA A","2401203","2019-02-16 08:00","2019","02","16","08:00","-34.0","","-37.6","","71","","","","20","","4","","24.1","","103.06","","","","-39","","Ice Crystals"
"-85.81","79.99","EUREKA A","2401203","2019-02-16 09:00","2019","02","16","09:00","-35.2","","-38.9","","69","","","","21","","8","","16.1","","103.09","","","","-44","","Ice Crystals"
"-85.81","79.99","EUREKA A","2401203","2019-02-16 10:00","2019","02","16","10:00","-36.3","","-40.0","","70","","","","12","","8","","9.7","","103.15","","","","-45","","Ice Crystals,Fog"
"-85.81","79.99","EUREKA A","2401203","2019-02-16 11:00","2019","02","16","11:00","-37.0","","-40.7","","69","","","","13","","16","","8.1","","103.18","","","","-50","","Ice Crystals,Fog"
"-85.81","79.99","EUREKA A","2401203","2019-02-16 12:00","2019","02","16","12:00","-36.6","","-40.4","","69","","","","36","","3","","8.1","","103.25","","","","-41","","Ice Crystals,Fog"
"-85.81","79.99","EUREKA A","2401203","2019-02-16 13:00","2019","02","16","13:00","-36.9","","-40.7","","69","","","","36","","3","","9.7","","103.30","","","","-41","","Ice Crystals,Fog"
"-85.81","79.99","EUREKA A","2401203","2019-02-16 14:00","2019","02","16","14:00","-36.2","","-39.9","","69","","","","36","","2","","9.7","","103.34","","","","-39","","Ice Crystals,Fog"
"-85.81","79.99","EUREKA A","2401203","2019-02-16 15:00","2019","02","16","15:00","-37.0","","-40.8","","68","","","","36","","4","","11.3","","103.36","","","","-42","","Ice Crystals"
"-85.81","79.99","EUREKA A","2401203","2019-02-16 16:00","2019","02","16","16:00","-37.0","","-40.9","","68","","","","15","","3","","14.5","","103.44","","","","-41","","Ice Crystals"
"-85.81","79.99","EUREKA A","2401203","2019-02-16 17:00","2019","02","16","17:00","-36.8","","-40.6","","69","","","","36","","2","","19.3","","103.47","","","","-39","","Ice Crystals"
"-85.81","79.99","EUREKA A","2401203","2019-02-16 18:00","2019","02","16","18:00","-38.0","","-41.9","","68","","","","12","","7","","24.1","","103.50","","","","-47","","Ice Crystals"
"-85.81","79.99","EUREKA A","2401203","2019-02-16 19:00","2019","02","16","19:00","-38.3","","-42.2","","68","","","","11","","4","","24.1","","103.56","","","","-44","","Ice Crystals"
"-85.81","79.99","EUREKA A","2401203","2019-02-16 20:00","2019","02","16","20:00","-37.2","","-41.0","","69","","","","11","","5","","24.1","","103.59","","","","-44","","Ice Crystals"
"-85.81","79.99","EUREKA A","2401203","2019-02-16 21:00","2019","02","16","21:00","-39.3","","-43.2","","68","","","","7","","5","","24.1","","103.59","","","","-46","","Ice Crystals"
"-85.81","79.99","EUREKA A","2401203","2019-02-16 22:00","2019","02","16","22:00"
"-85.81","79.99","EUREKA A","2401203","2019-02-16 23:00","2019","02","16","23:00"
"-85.81","79.99","EUREKA A","2401203","2019-02-17 00:00","2019","02","17","00:00","-38.6","","-42.6","","67","","","","36","","1","","24.1","","103.59","","","","-40","","Ice Crystals"
"-85.81","79.99","EUREKA A","2401203","2019-02-17 01:00","2019","02","17","01:00","-38.9","","-42.9","","67","","","","8","","5","","24.1","","103.58","","","","-46","","Ice Crystals"
"-85.81","79.99","EUREKA A","2401203","2019-02-17 02:00","2019","02","17","02:00","-38.3","","-42.2","","68","","","","11","","4","","24.1","","103.59","","","","-44","","Ice Crystals"
"-85.81","79.99","EUREKA A","2401203","2019-02-17 03:00","2019","02","17","03:00","-39.1","","-43.0","","67","","","","10","","5","","24.1","","103.59","","","","-46","","Ice Crystals"
"-85.81","79.99","EUREKA A","2401203","2019-02-17 04:00","2019","02","17","04:00","-38.5","","-42.4","","67","","","","11","","4","","24.1","","103.60","","","","-44","","Ice Crystals"
"-85.81","79.99","EUREKA A","2401203","2019-02-17 05:00","2019","02","17","05:00","-37.4","","-41.3","","68","","","","36","","1","","24.1","","103.59","","","","-39","","Ice Crystals"
"-85.81","79.99","EUREKA A","2401203","2019-02-17 06:00","2019","02","17","06:00","-39.1","","-43.1","","67","","","","36","","1","","24.1","","103.59","","","","-40","","Ice Crystals"
"-85.81","79.99","EUREKA A","2401203","2019-02-17 07:00","2019","02","17","07:00","-39.5","","-43.4","","67","","","","36","","3","","24.1","","103.51","","","","-44","","Ice Crystals"
"-85.81","79.99","EUREKA A","2401203","2019-02-17 08:00","2019","02","17","08:00","-39.7","","-43.7","","67","","","","36","","2","","24.1","","103.48","","","","-42","","Ice Crystals"
"-85.81","79.99","EUREKA A","2401203","2019-02-17 09:00","2019","02","17","09:00","-39.3","","-43.3","","67","","","","14","","7","","24.1","","103.45","","","","-48","","Ice Crystals"
"-85.81","79.99","EUREKA A","2401203","2019-02-17 10:00","2019","02","17","10:00","-40.5","","-44.5","","66","","","","12","","5","","24.1","","103.41","","","","-48","","Ice Crystals"
"-85.81","79.99","EUREKA A","2401203","2019-02-17 11:00","2019","02","17","11:00","-41.0","","-45.1","","66","","","","7","","6","","24.1","","103.38","","","","-49","","Ice Crystals"
"-85.81","79.99","EUREKA A","2401203","2019-02-17 12:00","2019","02","17","12:00","-39.8","","-43.8","","66","","","","8","","4","","24.1","","103.32","","","","-45","","Ice Crystals"
"-85.81","79.99","EUREKA A","2401203","2019-02-17 13:00","2019","02","17","13:00","-39.9","","-44.0","","66","","","","36","","1","","24.1","","103.26","","","","-41","","Ice Crystals"
"-85.81","79.99","EUREKA A","2401203","2019-02-17 14:00","2019","02","17","14:00","-38.2","","-42.2","","67","","","","36","","1","","24.1","","103.21","","","","-40","","Ice Crystals"
"-85.81","79.99","EUREKA A","2401203","2019-02-17 15:00","2019","02","17","15:00","-37.9","","-41.9","","67","","","","12","","4","","24.1","","103.18","","","","-43","","Ice Crystals"
"-85.81","79.99","EUREKA A","2401203","2019-02-17 16:00","2019","02","17","16:00","-38.0","","-42.0","","67","","","","15","","5","","24.1","","103.15","","","","-45","","Ice Crystals"
"-85.81","79.99","EUREKA A","2401203","2019-02-17 17:00","2019","02","17","17:00","-39.6","","-43.6","","67","","","","36","","2","","24.1","","103.10","","","","-42","","Ice Crystals"
"-85.81","79.99","EUREKA A","2401203","2019-02-17 18:00","2019","02","17","18:00","-40.3","","-44.3","","66","","","","18","","5","","24.1","","103.05","","","","-47","","Ice Crystals"
"-85.81","79.99","EUREKA A","2401203","2019-02-17 19:00","2019","02","17","19:00","-39.9","","-44.0","","66","","","","36","","3","","24.1","","103.03","","","","-44","","Ice Crystals"
"-85.81","79.99","EUREKA A","2401203","2019-02-17 20:00","2019","02","17","20:00","-38.8","","-42.8","","67","","","","31","","4","","24.1","","102.95","","","","-44","","Ice Crystals"
"-85.81","79.99","EUREKA A","2401203","2019-02-17 21:00","2019","02","17","21:00","-39.0","","-43.1","","67","","","","36","","2","","24.1","","102.84","","","","-42","","Ice Crystals"
"-85.81","79.99","EUREKA A","2401203","2019-02-17 22:00","2019","02","17","22:00"
"-85.81","79.99","EUREKA A","2401203","2019-02-17 23:00","2019","02","17","23:00"
"-85.81","79.99","EUREKA A","2401203","2019-02-18 00:00","2019","02","18","00:00","-40.3","","-44.4","","66","","","","12","","6","","24.1","","102.65","","","","-48","","Ice Crystals"
"-85.81","79.99","EUREKA A","2401203","2019-02-18 01:00","2019","02","18","01:00","-40.7","","-44.8","","66","","","","6","","5","","24.1","","102.56","","","","-48","","Ice Crystals"
"-85.81","79.99","EUREKA A","2401203","2019-02-18 02:00","2019","02","18","02:00","-40.0","","-44.1","","66","","","","6","","4","","24.1","","102.49","","","","-46","","Ice Crystals"
"-85.81","79.99","EUREKA A","2401203","2019-02-18 03:00","2019","02","18","03:00","-40.0","","-44.1","","66","","","","33","","5","","24.1","","102.44","","","","-47","","Ice Crystals"
"-85.81","79.99","EUREKA A","2401203","2019-02-18 04:00","2019","02","18","04:00","-39.4","","-43.5","","66","","","","27","","3","","24.1","","102.35","","","","-44","","Ice Crystals"
"-85.81","79.99","EUREKA A","2401203","2019-02-18 05:00","2019","02","18","05:00","-38.8","","-42.8","","67","","","","8","","3","","24.1","","102.27","","","","-43","","Ice Crystals"
"-85.81","79.99","EUREKA A","2401203","2019-02-18 06:00","2019","02","18","06:00","-39.0","","-43.1","","67","","","","15","","3","","24.1","","102.22","","","","-43","","Ice Crystals"
"-85.81","79.99","EUREKA A","2401203","2019-02-18 07:00","2019","02","18","07:00","-39.7","","-43.8","","66","","","","32","","3","","24.1","","102.13","","","","-44","","Ice Crystals"
"-85.81","79.99","EUREKA A","2401203","2019-02-18 08:00","2019","02","18","08:00","-40.0","","-44.0","","66","","","","0","","1","","16.1","","102.04","","","","-41","","Ice Crystals"
"-85.81","79.99","EUREKA A","2401203","2019-02-18 09:00","2019","02","18","09:00","-39.9","","-44.0","","66","","","","5","","3","","24.1","","101.97","","","","-44","","Ice Crystals"
"-85.81","79.99","EUREKA A","2401203","2019-02-18 10:00","2019","02","18","10:00","-40.0","","-44.1","","66","","","","7","","5","","24.1","","101.89","","","","-47","","Ice Crystals"
"-85.81","79.99","EUREKA A","2401203","2019-02-18 11:00","2019","02","18","11:00","-40.7","","-44.8","","66","","","","4","","3","","24.1","","101.83","","","","-45","","Ice Crystals"
"-85.81","79.99","EUREKA A","2401203","2019-02-18 12:00","2019","02","18","12:00","-39.1","","-43.2","","66","","","","7","","4","","24.1","","101.73","","","","-45","","Ice Crystals"
"-85.81","79.99","EUREKA A","2401203","2019-02-18 13:00","2019","02","18","13:00","-38.9","","-42.9","","67","","","","36","","3","","24.1","","101.64","","","","-43","","Ice Crystals"
"-85.81","79.99","EUREKA A","2401203","2019-02-18 14:00","2019","02","18","14:00","-39.8","","-43.8","","66","","","","36","","2","","24.1","","101.60","","","","-43","","Ice Crystals"
"-85.81","79.99","EUREKA A","2401203","2019-02-18 15:00","2019","02","18","15:00","-39.5","","-43.5","","66","","","","36","","3","","24.1","","101.55","","","","-44","","Ice Crystals"
"-85.81","79.99","EUREKA A","2401203","2019-02-18 16:00","2019","02","18","16:00","-40.0","","-44.1","","66","","","","6","","5","","24.1","","101.47","","","","-47","","Ice Crystals"
"-85.81","79.99","EUREKA A","2401203","2019-02-18 17:00","2019","02","18","17:00","-39.0","","-43.1","","66","","","","23","","4","","24.1","","101.43","","","","-44","","Ice Crystals"
"-85.81","79.99","EUREKA A","2401203","2019-02-18 18:00","2019","02","18","18:00","-39.2","","-43.3","","66","","","","33","","4","","24.1","","101.38","","","","-45","","Ice Crystals"
"-85.81","79.99","EUREKA A","2401203","2019-02-18 19:00","2019","02","18","19:00","-40.6","","-44.7","","66","","","","19","","5","","24.1","","101.33","","","","-48","","Ice Crystals"
"-85.81","79.99","EUREKA A","2401203","2019-02-18 20:00","2019","02","18","20:00","-40.5","","-44.6","","66","","","","5","","4","","24.1","","101.29","","","","-46","","Ice Crystals"
"-85.81","79.99","EUREKA A","2401203","2019-02-18 21:00","2019","02","18","21:00","-40.1","","-44.2","","66","","","","32","","4","","24.1","","101.21","","","","-46","","Ice Crystals"
"-85.81","79.99","EUREKA A","2401203","2019-02-18 22:00","2019","02","18","22:00"
"-85.81","79.99","EUREKA A","2401203","2019-02-18 23:00","2019","02","18","23:00"
"-85.81","79.99","EUREKA A","2401203","2019-02-19 00:00","2019","02","19","00:00","-39.5","","-43.6","","66","","","","36","","3","","24.1","","101.03","","","","-44","","Ice Crystals"
"-85.81","79.99","EUREKA A","2401203","2019-02-19 01:00","2019","02","19","01:00","-41.2","","-45.4","","65","","","","6","","8","","24.1","","100.97","","","","-51","","Ice Crystals"
"-85.81","79.99","EUREKA A","2401203","2019-02-19 02:00","2019","02","19","02:00","-38.6","","-42.7","","66","","","","24","","4","","24.1","","100.93","","","","-44","","Ice Crystals"
"-85.81","79.99","EUREKA A","2401203","2019-02-19 03:00","2019","02","19","03:00","-37.9","","-41.9","","67","","","","1","","3","","24.1","","100.88","","","","-42","","Ice Crystals"
"-85.81","79.99","EUREKA A","2401203","2019-02-19 04:00","2019","02","19","04:00","-38.5","","-42.6","","67","","","","","","0","","24.1","","100.87","","","","","","Ice Crystals"
"-85.81","79.99","EUREKA A","2401203","2019-02-19 05:00","2019","02","19","05:00","-39.7","","-43.8","","66","","","","36","","2","","24.1","","100.80","","","","-42","","Ice Crystals"
"-85.81","79.99","EUREKA A","2401203","2019-02-19 06:00","2019","02","19","06:00","-38.0","","-42.1","","67","","","","10","","4","","24.1","","100.77","","","","-43","","Ice Crystals"
"-85.81","79.99","EUREKA A","2401203","2019-02-19 07:00","2019","02","19","07:00","-38.8","","-42.9","","67","","","","15","","5","","16.1","","100.75","","","","-46","","Ice Crystals"
"-85.81","79.99","EUREKA A","2401203","2019-02-19 08:00","2019","02","19","08:00","-39.5","","-43.6","","66","","","","7","","4","","24.1","","100.71","","","","-45","","Ice Crystals"
"-85.81","79.99","EUREKA A","2401203","2019-02-19 09:00","2019","02","19","09:00","-38.3","","-42.3","","67","","","","26","","5","","24.1","","100.70","","","","-45","","Ice Crystals"
"-85.81","79.99","EUREKA A","2401203","2019-02-19 10:00","2019","02","19","10:00","-39.0","","-43.0","","66","","","","3","","4","","24.1","","100.66","","","","-44","","Ice Crystals"
"-85.81","79.99","EUREKA A","2401203","2019-02-19 11:00","2019","02","19","11:00","-38.2","","-42.2","","67","","","","12","","4","","24.1","","100.67","","","","-44","","Ice Crystals"
"-85.81","79.99","EUREKA A","2401203","2019-02-19 12:00","2019","02","19","12:00","-39.3","","-43.3","","66","","","","14","","5","","24.1","","100.66","","","","-46","","Ice Crystals"
"-85.81","79.99","EUREKA A","2401203","2019-02-19 13:00","2019","02","19","13:00","-39.1","","-43.2","","66","","","","6","","4","","24.1","","100.67","","","","-45","","Ice Crystals"
"-85.81","79.99","EUREKA A","2401203","2019-02-19 14:00","2019","02","19","14:00","-38.7","","-42.7","","67","","","","9","","4","","24.1","","100.68","","","","-44","","Ice Crystals"
"-85.81","79.99","EUREKA A","2401203","2019-02-19 15:00","2019","02","19","15:00","-38.9","","-43.0","","66","","","","36","","2","","24.1","","100.68","","","","-42","","Ice Crystals"
"-85.81","79.99","EUREKA A","2401203","2019-02-19 16:00","2019","02","19","16:00","-39.1","","-43.2","","66","","","","10","","7","","24.1","","100.68","","","","-48","","Ice Crystals"
"-85.81","79.99","EUREKA A","2401203","2019-02-19 17:00","2019","02","19","17:00","-40.2","","-44.3","","66","","","","8","","5","","24.1","","100.68","","","","-47","","Ice Crystals"
"-85.81","79.99","EUREKA A","2401203","2019-02-19 18:00","2019","02","19","18:00","-38.9","","-43.0","","66","","","","13","","8","","24.1","","100.69","","","","-48","","Ice Crystals"
"-85.81","79.99","EUREKA A","2401203","2019-02-19 19:00","2019","02","19","19:00","-40.1","","-44.2","","66","","","","12","","6","","24.1","","100.67","","","","-48","","Ice Crystals"
"-85.81","79.99","EUREKA A","2401203","2019-02-19 20:00","2019","02","19","20:00","-40.7","","-44.8","","66","","","","7","","5","","24.1","","100.67","","","","-48","","Ice Crystals"
"-85.81","79.99","EUREKA A","2401203","2019-02-19 21:00","2019","02","19","21:00","-40.1","","-44.2","","66","","","","7","","4","","24.1","","100.68","","","","-46","","Ice Crystals"
"-85.81","79.99","EUREKA A","2401203","2019-02-19 22:00","2019","02","19","22:00"
"-85.81","79.99","EUREKA A","2401203","2019-02-19 23:00","2019","02","19","23:00"
"-85.81","79.99","EUREKA A","2401203","2019-02-20 00:00","2019","02","20","00:00","-39.8","","-43.9","","66","","","","13","","14","","24.1","","100.60","","","","-53","","Ice Crystals"
"-85.81","79.99","EUREKA A","2401203","2019-02-20 01:00","2019","02","20","01:00","-39.9","","-43.9","","66","","","","8","","7","","24.1","","100.59","","","","-49","","Ice Crystals"
"-85.81","79.99","EUREKA A","2401203","2019-02-20 02:00","2019","02","20","02:00","-40.1","","-44.2","","66","","","","8","","5","","24.1","","100.57","","","","-47","","Ice Crystals"
"-85.81","79.99","EUREKA A","2401203","2019-02-20 03:00","2019","02","20","03:00","-39.5","","-43.6","","66","","","","12","","8","","24.1","","100.54","","","","-49","","Ice Crystals"
"-85.81","79.99","EUREKA A","2401203","2019-02-20 04:00","2019","02","20","04:00","-40.1","","-44.2","","66","","","","7","","7","","24.1","","100.50","","","","-49","","Ice Crystals"
"-85.81","79.99","EUREKA A","2401203","2019-02-20 05:00","2019","02","20","05:00","-38.8","","-42.8","","66","","","","10","","8","","24.1","","100.46","","","","-48","","Ice Crystals"
"-85.81","79.99","EUREKA A","2401203","2019-02-20 06:00","2019","02","20","06:00","-38.7","","-42.7","","67","","","","13","","17","","24.1","","100.43","","","","-53","","Ice Crystals"
"-85.81","79.99","EUREKA A","2401203","2019-02-20 07:00","2019","02","20","07:00","-38.6","","-42.7","","67","","","","13","","15","","24.1","","100.45","","","","-52","","Ice Crystals"
"-85.81","79.99","EUREKA A","2401203","2019-02-20 08:00","2019","02","20","08:00","-38.2","","-42.2","","67","","","","12","","10","","16.1","","100.43","","","","-49","","Ice Crystals"
"-85.81","79.99","EUREKA A","2401203","2019-02-20 09:00","2019","02","20","09:00","-38.5","","-42.6","","67","","","","14","","12","","9.7","","100.44","","","","-50","","Ice Crystals"
"-85.81","79.99","EUREKA A","2401203","2019-02-20 10:00","2019","02","20","10:00","-38.2","","-42.3","","67","","","","14","","16","","11.3","","100.41","","","","-52","","Snow"
"-85.81","79.99","EUREKA A","2401203","2019-02-20 11:00","2019","02","20","11:00","-38.0","","-42.0","","67","","","","14","","18","","9.7","","100.38","","","","-52","","Snow"
"-85.81","79.99","EUREKA A","2401203","2019-02-20 12:00","2019","02","20","12:00","-37.8","","-41.8","","67","","","","14","","19","","16.1","","100.35","","","","-53","","Snow"
"-85.81","79.99","EUREKA A","2401203","2019-02-20 13:00","2019","02","20","13:00","-37.7","","-41.7","","67","","","","14","","21","","16.1","","100.36","","","","-53","","Snow"
"-85.81","79.99","EUREKA A","2401203","2019-02-20 14:00","2019","02","20","14:00","-37.4","","-41.4","","67","","","","13","","20","","16.1","","100.38","","","","-52","","Snow"
"-85.81","79.99","EUREKA A","2401203","2019-02-20 15:00","2019","02","20","15:00","-37.2","","-41.2","","67","","","","13","","19","","16.1","","100.39","","","","-52","","Snow"
"-85.81","79.99","EUREKA A","2401203","2019-02-20 16:00","2019","02","20","16:00","-36.8","","-40.8","","68","","","","13","","18","","16.1","","100.40","","","","-51","","Snow"
"-85.81","79.99","EUREKA A","2401203","2019-02-20 17:00","2019","02","20","17:00","-36.6","","-40.6","","68","","","","12","","19","","16.1","","100.42","","","","-51","","Snow"
"-85.81","79.99","EUREKA A","2401203","2019-02-20 18:00","2019","02","20","18:00","-36.6","","-40.6","","68","","","","13","","20","","9.7","","100.42","","","","-51","","Snow"
"-85.81","79.99","EUREKA A","2401203","2019-02-20 19:00","2019","02","20","19:00","-36.5","","-40.5","","68","","","","14","","18","","6.4","","100.42","","","","-51","","Snow"
"-85.81","79.99","EUREKA A","2401203","2019-02-20 20:00","2019","02","20","20:00","-36.5","","-40.4","","68","","","","14","","18","","6.4","","100.42","","","","-51","","Snow"
"-85.81","79.99","EUREKA A","2401203","2019-02-20 21:00","2019","02","20","21:00","-36.5","","-40.4","","68","","","","14","","18","","2.4","","100.41","","","","-51","","Snow"
"-85.81","79.99","EUREKA A","2401203","2019-02-20 22:00","2019","02","20","22:00"
"-85.81","79.99","EUREKA A","2401203","2019-02-20 23:00","2019","02","20","23:00"
"-85.81","79.99","EUREKA A","2401203","2019-02-21 00:00","2019","02","21","00:00","-37.7","","-41.7","","67","","","","13","","16","","24.1","","100.39","","","","-51","","Ice Crystals"
"-85.81","79.99","EUREKA A","2401203","2019-02-21 01:00","2019","02","21","01:00","-37.7","","-41.7","","67","","","","13","","17","","24.1","","100.41","","","","-52","","Ice Crystals"
"-85.81","79.99","EUREKA A","2401203","2019-02-21 02:00","2019","02","21","02:00","-37.5","","-41.5","","67","","","","12","","16","","9.7","","100.42","","","","-51","","Ice Crystals"
"-85.81","79.99","EUREKA A","2401203","2019-02-21 03:00","2019","02","21","03:00","-37.7","","-41.7","","67","","","","14","","14","","4.8","","100.43","","","","-50","","Snow"
"-85.81","79.99","EUREKA A","2401203","2019-02-21 04:00","2019","02","21","04:00","-37.4","","-41.4","","67","","","","13","","14","","4.8","","100.42","","","","-50","","Snow"
"-85.81","79.99","EUREKA A","2401203","2019-02-21 05:00","2019","02","21","05:00","-37.7","","-41.7","","67","","","","12","","11","","4.8","","100.41","","","","-49","","Snow"
"-85.81","79.99","EUREKA A","2401203","2019-02-21 06:00","2019","02","21","06:00","-37.3","","-41.3","","67","","","","7","","6","","3.2","","100.38","","","","-45","","Snow"
"-85.81","79.99","EUREKA A","2401203","2019-02-21 07:00","2019","02","21","07:00","-37.5","","-41.5","","67","","","","13","","10","","4.0","","100.36","","","","-48","","Snow"
"-85.81","79.99","EUREKA A","2401203","2019-02-21 08:00","2019","02","21","08:00","-38.6","","-42.7","","67","","","","11","","8","","24.1","","100.35","","","","-48","","Snow"
"-85.81","79.99","EUREKA A","2401203","2019-02-21 09:00","2019","02","21","09:00","-39.1","","-43.1","","67","","","","7","","7","","24.1","","100.29","","","","-48","","Ice Crystals"
"-85.81","79.99","EUREKA A","2401203","2019-02-21 10:00","2019","02","21","10:00","-38.4","","-42.5","","67","","","","27","","4","","24.1","","100.25","","","","-44","","Ice Crystals"
"-85.81","79.99","EUREKA A","2401203","2019-02-21 11:00","2019","02","21","11:00","-38.6","","-42.6","","67","","","","36","","2","","24.1","","100.20","","","","-41","","Ice Crystals"
"-85.81","79.99","EUREKA A","2401203","2019-02-21 12:00","2019","02","21","12:00","-40.5","","-44.6","","66","","","","6","","3","","24.1","","100.14","","","","-45","","Ice Crystals"
"-85.81","79.99","EUREKA A","2401203","2019-02-21 13:00","2019","02","21","13:00","-38.8","","-42.9","","67","","","","36","","2","","24.1","","100.10","","","","-42","","Ice Crystals"
"-85.81","79.99","EUREKA A","2401203","2019-02-21 14:00","2019","02","21","14:00","-40.2","","-44.3","","66","","","","8","","5","","24.1","","100.03","","","","-47","","Ice Crystals"
"-85.81","79.99","EUREKA A","2401203","2019-02-21 15:00","2019","02","21","15:00","-39.7","","-43.9","","66","","","","18","","5","","24.1","","100.00","","","","-47","","Ice Crystals"
"-85.81","79.99","EUREKA A","2401203","2019-02-21 16:00","2019","02","21","16:00","-39.2","","-43.2","","66","","","","36","","1","","24.1","","99.95","","","","-41","","Ice Crystals"
"-85.81","79.99","EUREKA A","2401203","2019-02-21 17:00","2019","02","21","17:00","-40.6","","-44.8","","66","","","","36","","1","","24.1","","99.90","","","","-42","","Ice Crystals"
"-85.81","79.99","EUREKA A","2401203","2019-02-21 18:00","2019","02","21","18:00","-38.0","","-42.1","","67","","","","36","","2","","24.1","","99.82","","","","-41","","Ice Crystals"
"-85.81","79.99","EUREKA A","2401203","2019-02-21 19:00","2019","02","21","19:00","-40.4","","-44.5","","66","","","","6","","4","","24.1","","99.77","","","","-46","","Ice Crystals"
"-85.81","79.99","EUREKA A","2401203","2019-02-21 20:00","2019","02","21","20:00","-38.8","","-42.9","","66","","","","36","","2","","24.1","","99.73","","","","-42","","Ice Crystals"
"-85.81","79.99","EUREKA A","2401203","2019-02-21 21:00","2019","02","21","21:00","-39.8","","-43.9","","66","","","","14","","3","","24.1","","99.68","","","","-44","","Ice Crystals"
"-85.81","79.99","EUREKA A","2401203","2019-02-21 22:00","2019","02","21","22:00"
"-85.81","79.99","EUREKA A","2401203","2019-02-21 23:00","2019","02","21","23:00"
"-85.81","79.99","EUREKA A","2401203","2019-02-22 00:00","2019","02","22","00:00","-40.8","","-44.9","","65","","","","7","","5","","24.1","","99.57","","","","-48","","Ice Crystals"
"-85.81","79.99","EUREKA A","2401203","2019-02-22 01:00","2019","02","22","01:00","-41.0","","-45.2","","65","","","","3","","3","","16.1","","99.55","","","","-45","","Ice Crystals"
"-85.81","79.99","EUREKA A","2401203","2019-02-22 02:00","2019","02","22","02:00","-41.4","","-45.6","","65","","","","14","","4","","8.1","","99.55","","","","-47","","Ice Crystals"
"-85.81","79.99","EUREKA A","2401203","2019-02-22 03:00","2019","02","22","03:00","-41.5","","-45.7","","65","","","","15","","3","","4.0","","99.57","","","","-46","","Ice Crystals"
"-85.81","79.99","EUREKA A","2401203","2019-02-22 04:00","2019","02","22","04:00","-40.4","","-44.5","","65","","","","36","","3","","4.0","","99.56","","","","-45","","Ice Crystals"
"-85.81","79.99","EUREKA A","2401203","2019-02-22 05:00","2019","02","22","05:00","-40.3","","-44.5","","66","","","","4","","3","","3.2","","99.52","","","","-45","","Snow,Fog"
"-85.81","79.99","EUREKA A","2401203","2019-02-22 06:00","2019","02","22","06:00","-40.4","","-44.5","","65","","","","6","","5","","2.4","","99.52","","","","-47","","Ice Crystals"
"-85.81","79.99","EUREKA A","2401203","2019-02-22 07:00","2019","02","22","07:00","-40.6","","-44.8","","65","","","","36","","2","","2.4","","99.51","","","","-43","","Ice Crystals"
"-85.81","79.99","EUREKA A","2401203","2019-02-22 08:00","2019","02","22","08:00","-40.3","","-44.5","","66","","","","8","","7","","2.4","","99.54","","","","-49","","Ice Crystals"
"-85.81","79.99","EUREKA A","2401203","2019-02-22 09:00","2019","02","22","09:00","-39.8","","-44.0","","66","","","","17","","5","","2.4","","99.56","","","","-47","","Ice Crystals"
"-85.81","79.99","EUREKA A","2401203","2019-02-22 10:00","2019","02","22","10:00","-39.3","","-43.4","","66","","","","18","","5","","2.4","","99.59","","","","-46","","Ice Crystals"
"-85.81","79.99","EUREKA A","2401203","2019-02-22 11:00","2019","02","22","11:00","-40.0","","-44.1","","66","","","","12","","9","","2.4","","99.61","","","","-50","","Ice Crystals"
"-85.81","79.99","EUREKA A","2401203","2019-02-22 12:00","2019","02","22","12:00","-39.7","","-43.8","","66","","","","14","","8","","2.4","","99.67","","","","-49","","Ice Crystals"
"-85.81","79.99","EUREKA A","2401203","2019-02-22 13:00","2019","02","22","13:00","-39.3","","-43.5","","66","","","","13","","4","","2.4","","99.72","","","","-45","","Ice Crystals"
"-85.81","79.99","EUREKA A","2401203","2019-02-22 14:00","2019","02","22","14:00","-39.9","","-44.0","","66","","","","12","","5","","2.4","","99.78","","","","-47","","Ice Crystals"
"-85.81","79.99","EUREKA A","2401203","2019-02-22 15:00","2019","02","22","15:00","-39.9","","-44.0","","66","","","","36","","2","","2.4","","99.85","","","","-43","","Ice Crystals"
"-85.81","79.99","EUREKA A","2401203","2019-02-22 16:00","2019","02","22","16:00","-39.2","","-43.3","","66","","","","14","","9","","2.4","","99.90","","","","-49","","Ice Crystals"
"-85.81","79.99","EUREKA A","2401203","2019-02-22 17:00","2019","02","22","17:00","-38.2","","-42.2","","67","","","","0","","1","","2.4","","99.97","","","","-40","","Ice Crystals"
"-85.81","79.99","EUREKA A","2401203","2019-02-22 18:00","2019","02","22","18:00","-40.0","","-44.2","","66","","","","12","","8","","2.4","","100.09","","","","-50","","Ice Crystals"
"-85.81","79.99","EUREKA A","2401203","2019-02-22 19:00","2019","02","22","19:00","-39.6","","-43.8","","66","","","","12","","5","","2.4","","100.16","","","","-47","","Ice Crystals"
"-85.81","79.99","EUREKA A","2401203","2019-02-22 20:00","2019","02","22","20:00","-38.7","","-42.9","","66","","","","11","","9","","3.2","","100.24","","","","-49","","Ice Crystals"
"-85.81","79.99","EUREKA A","2401203","2019-02-22 21:00","2019","02","22","21:00","-39.0","","-43.1","","66","","","","15","","7","","2.4","","100.32","","","","-48","","Ice Crystals"
"-85.81","79.99","EUREKA A","2401203","2019-02-22 22:00","2019","02","22","22:00"
"-85.81","79.99","EUREKA A","2401203","2019-02-22 23:00","2019","02","22","23:00"
"-85.81","79.99","EUREKA A","2401203","2019-02-23 00:00","2019","02","23","00:00","-40.7","","-44.8","","66","","","","15","","16","","9.7","","100.54","","","","-55","","Ice Crystals"
"-85.81","79.99","EUREKA A","2401203","2019-02-23 01:00","2019","02","23","01:00","-39.4","","-43.5","","66","","","","13","","14","","9.7","","100.64","","","","-53","","Ice Crystals"
"-85.81","79.99","EUREKA A","2401203","2019-02-23 02:00","2019","02","23","02:00","-40.0","","-44.1","","66","","","","8","","8","","9.7","","100.73","","","","-50","","Ice Crystals"
"-85.81","79.99","EUREKA A","2401203","2019-02-23 03:00","2019","02","23","03:00","-39.2","","-43.3","","66","","","","36","","2","","9.7","","100.82","","","","-42","","Ice Crystals"
"-85.81","79.99","EUREKA A","2401203","2019-02-23 04:00","2019","02","23","04:00","-40.2","","-44.4","","66","","","","9","","6","","9.7","","100.90","","","","-48","","Ice Crystals"
"-85.81","79.99","EUREKA A","2401203","2019-02-23 05:00","2019","02","23","05:00","-41.0","","-45.1","","65","","","","6","","5","","11.3","","100.98","","","","-48","","Ice Crystals"
"-85.81","79.99","EUREKA A","2401203","2019-02-23 06:00","2019","02","23","06:00","-41.3","","-45.5","","65","","","","7","","7","","16.1","","101.07","","","","-50","","Ice Crystals"
"-85.81","79.99","EUREKA A","2401203","2019-02-23 07:00","2019","02","23","07:00","-41.4","","-45.6","","65","","","","31","","4","","19.3","","101.14","","","","-47","","Ice Crystals"
"-85.81","79.99","EUREKA A","2401203","2019-02-23 08:00","2019","02","23","08:00","-40.6","","-44.8","","65","","","","36","","2","","11.3","","101.19","","","","-43","","Ice Crystals"
"-85.81","79.99","EUREKA A","2401203","2019-02-23 09:00","2019","02","23","09:00","-41.5","","-45.7","","65","","","","8","","3","","11.3","","101.25","","","","-46","","Ice Crystals"
"-85.81","79.99","EUREKA A","2401203","2019-02-23 10:00","2019","02","23","10:00","-40.4","","-44.5","","66","","","","33","","4","","24.1","","101.29","","","","-46","","Ice Crystals"
"-85.81","79.99","EUREKA A","2401203","2019-02-23 11:00","2019","02","23","11:00","-41.7","","-46.0","","65","","","","15","","5","","24.1","","101.33","","","","-49","","Ice Crystals"
"-85.81","79.99","EUREKA A","2401203","2019-02-23 12:00","2019","02","23","12:00","-42.3","","-46.6","","65","","","","36","","4","","24.1","","101.39","","","","-48","","Ice Crystals"
"-85.81","79.99","EUREKA A","2401203","2019-02-23 13:00","2019","02","23","13:00","-40.7","","-45.0","","65","","","","36","","3","","24.1","","101.47","","","","-45","","Ice Crystals"
"-85.81","79.99","EUREKA A","2401203","2019-02-23 14:00","2019","02","23","14:00","-40.9","","-45.1","","65","","","","36","","2","","24.1","","101.52","","","","-44","","Ice Crystals"
"-85.81","79.99","EUREKA A","2401203","2019-02-23 15:00","2019","02","23","15:00","-42.8","","-47.1","","64","","","","14","","5","","24.1","","101.61","","","","-50","","Ice Crystals"
"-85.81","79.99","EUREKA A","2401203","2019-02-23 16:00","2019","02","23","16:00","-42.0","","-46.3","","64","","","","16","","4","","24.1","","101.68","","","","-48","","Ice Crystals"
"-85.81","79.99","EUREKA A","2401203","2019-02-23 17:00","2019","02","23","17:00","-43.2","","-47.5","","64","","","","3","","3","","24.1","","101.71","","","","-48","","Ice Crystals"
"-85.81","79.99","EUREKA A","2401203","2019-02-23 18:00","2019","02","23","18:00","-42.3","","-46.6","","64","","","","11","","4","","24.1","","101.74","","","","-48","","Clear"
"-85.81","79.99","EUREKA A","2401203","2019-02-23 19:00","2019","02","23","19:00","-41.9","","-46.1","","65","","","","16","","6","","24.1","","101.82","","","","-50","","Ice Crystals"
"-85.81","79.99","EUREKA A","2401203","2019-02-23 20:00","2019","02","23","20:00","-42.4","","-46.6","","64","","","","36","","2","","24.1","","101.86","","","","-45","","Ice Crystals"
"-85.81","79.99","EUREKA A","2401203","2019-02-23 21:00","2019","02","23","21:00","-42.4","","-46.7","","64","","","","","","0","","24.1","","101.89","","","","","","Ice Crystals"
"-85.81","79.99","EUREKA A","2401203","2019-02-23 22:00","2019","02","23","22:00"
"-85.81","79.99","EUREKA A","2401203","2019-02-23 23:00","2019","02","23","23:00"
"-85.81","79.99","EUREKA A","2401203","2019-02-24 00:00","2019","02","24","00:00","-43.3","","-47.5","","64","","","","36","","2","","24.1","","101.95","","","","-46","","Ice Crystals"
"-85.81","79.99","EUREKA A","2401203","2019-02-24 01:00","2019","02","24","01:00","-42.9","","-47.2","","64","","","","36","","1","","24.1","","101.97","","","","-44","","Ice Crystals"
"-85.81","79.99","EUREKA A","2401203","2019-02-24 02:00","2019","02","24","02:00","-42.4","","-46.6","","64","","","","7","","5","","24.1","","102.00","","","","-50","","Ice Crystals"
"-85.81","79.99","EUREKA A","2401203","2019-02-24 03:00","2019","02","24","03:00","-42.3","","-46.6","","64","","","","9","","4","","24.1","","102.04","","","","-48","","Ice Crystals"
"-85.81","79.99","EUREKA A","2401203","2019-02-24 04:00","2019","02","24","04:00","-43.2","","-47.5","","64","","","","7","","4","","24.1","","102.05","","","","-49","","Ice Crystals"
"-85.81","79.99","EUREKA A","2401203","2019-02-24 05:00","2019","02","24","05:00","-42.8","","-47.0","","64","","","","36","","2","","24.1","","102.07","","","","-46","","Ice Crystals"
"-85.81","79.99","EUREKA A","2401203","2019-02-24 06:00","2019","02","24","06:00","-43.0","","-47.3","","64","","","","36","","3","","24.1","","102.07","","","","-47","","Ice Crystals"
"-85.81","79.99","EUREKA A","2401203","2019-02-24 07:00","2019","02","24","07:00","-41.9","","-46.2","","64","","","","7","","4","","24.1","","102.07","","","","-48","","Ice Crystals"
"-85.81","79.99","EUREKA A","2401203","2019-02-24 08:00","2019","02","24","08:00","-42.5","","-46.8","","64","","","","6","","5","","24.1","","102.06","","","","-50","","Ice Crystals"
"-85.81","79.99","EUREKA A","2401203","2019-02-24 09:00","2019","02","24","09:00","-41.3","","-45.6","","64","","","","19","","3","","24.1","","102.05","","","","-46","","Ice Crystals"
"-85.81","79.99","EUREKA A","2401203","2019-02-24 10:00","2019","02","24","10:00","-41.6","","-45.9","","65","","","","12","","4","","24.1","","102.03","","","","-47","","Ice Crystals"
"-85.81","79.99","EUREKA A","2401203","2019-02-24 11:00","2019","02","24","11:00","-41.6","","-45.8","","65","","","","7","","4","","24.1","","102.02","","","","-47","","Ice Crystals"
"-85.81","79.99","EUREKA A","2401203","2019-02-24 12:00","2019","02","24","12:00","-43.6","","-48.0","","63","","","","7","","5","","24.1","","102.02","","","","-51","","Ice Crystals"
"-85.81","79.99","EUREKA A","2401203","2019-02-24 13:00","2019","02","24","13:00","-41.6","","-46.0","","64","","","","11","","6","","24.1","","102.02","","","","-50","","Ice Crystals"
"-85.81","79.99","EUREKA A","2401203","2019-02-24 14:00","2019","02","24","14:00","-42.3","","-46.6","","64","","","","9","","5","","24.1","","102.03","","","","-50","","Ice Crystals"
"-85.81","79.99","EUREKA A","2401203","2019-02-24 15:00","2019","02","24","15:00","-42.8","","-47.1","","64","","","","7","","5","","24.1","","102.05","","","","-50","","Ice Crystals"
"-85.81","79.99","EUREKA A","2401203","2019-02-24 16:00","2019","02","24","16:00","-43.1","","-47.4","","64","","","","13","","9","","24.1","","102.03","","","","-54","","Ice Crystals"
"-85.81","79.99","EUREKA A","2401203","2019-02-24 17:00","2019","02","24","17:00","-43.6","","-48.0","","64","","","","12","","12","","24.1","","102.04","","","","-57","","Ice Crystals"
"-85.81","79.99","EUREKA A","2401203","2019-02-24 18:00","2019","02","24","18:00","-43.3","","-47.6","","64","","","","8","","8","","24.1","","102.04","","","","-54","","Ice Crystals"
"-85.81","79.99","EUREKA A","2401203","2019-02-24 19:00","2019","02","24","19:00","-42.1","","-46.4","","64","","","","8","","6","","24.1","","102.02","","","","-50","","Ice Crystals"
"-85.81","79.99","EUREKA A","2401203","2019-02-24 20:00","2019","02","24","20:00","-42.4","","-46.7","","64","","","","9","","9","","24.1","","102.01","","","","-53","","Ice Crystals"
"-85.81","79.99","EUREKA A","2401203","2019-02-24 21:00","2019","02","24","21:00","-42.0","","-46.3","","64","","","","8","","6","","24.1","","101.99","","","","-50","","Ice Crystals"
"-85.81","79.99","EUREKA A","2401203","2019-02-24 22:00","2019","02","24","22:00"
"-85.81","79.99","EUREKA A","2401203","2019-02-24 23:00","2019","02","24","23:00"
"-85.81","79.99","EUREKA A","2401203","2019-02-25 00:00","2019","02","25","00:00","-43.3","","-47.6","","64","","","","36","","2","","24.1","","101.88","","","","-46","","Ice Crystals"
"-85.81","79.99","EUREKA A","2401203","2019-02-25 01:00","2019","02","25","01:00","-43.3","","-47.6","","64","","","","36","","1","","24.1","","101.81","","","","-45","","Ice Crystals"
"-85.81","79.99","EUREKA A","2401203","2019-02-25 02:00","2019","02","25","02:00","-42.5","","-46.8","","64","","","","10","","5","","24.1","","101.82","","","","-50","","Ice Crystals"
"-85.81","79.99","EUREKA A","2401203","2019-02-25 03:00","2019","02","25","03:00","-43.7","","-48.1","","63","","","","12","","6","","24.1","","101.81","","","","-52","","Ice Crystals"
"-85.81","79.99","EUREKA A","2401203","2019-02-25 04:00","2019","02","25","04:00","-43.5","","-47.8","","64","","","","12","","5","","24.1","","101.79","","","","-51","","Ice Crystals"
"-85.81","79.99","EUREKA A","2401203","2019-02-25 05:00","2019","02","25","05:00","-44.0","","-48.4","","63","","","","11","","9","","24.1","","101.75","","","","-55","","Ice Crystals"
"-85.81","79.99","EUREKA A","2401203","2019-02-25 06:00","2019","02","25","06:00","-44.1","","-48.5","","63","","","","7","","3","","24.1","","101.71","","","","-49","","Ice Crystals"
"-85.81","79.99","EUREKA A","2401203","2019-02-25 07:00","2019","02","25","07:00","-43.2","","-47.6","","64","","","","6","","4","","24.1","","101.66","","","","-49","","Ice Crystals"
"-85.81","79.99","EUREKA A","2401203","2019-02-25 08:00","2019","02","25","08:00","-42.5","","-46.9","","64","","","","10","","3","","24.1","","101.61","","","","-47","","Ice Crystals"
"-85.81","79.99","EUREKA A","2401203","2019-02-25 09:00","2019","02","25","09:00","-43.1","","-47.5","","64","","","","14","","13","","24.1","","101.58","","","","-57","","Ice Crystals"
"-85.81","79.99","EUREKA A","2401203","2019-02-25 10:00","2019","02","25","10:00","-44.6","","-49.0","","63","","","","7","","4","","24.1","","101.51","","","","-51","","Ice Crystals"
"-85.81","79.99","EUREKA A","2401203","2019-02-25 11:00","2019","02","25","11:00","-43.3","","-47.6","","63","","","","8","","4","","24.1","","101.46","","","","-49","","Ice Crystals"
"-85.81","79.99","EUREKA A","2401203","2019-02-25 12:00","2019","02","25","12:00","-41.5","","-45.9","","64","","","","7","","4","","24.1","","101.40","","","","-47","","Ice Crystals"
"-85.81","79.99","EUREKA A","2401203","2019-02-25 13:00","2019","02","25","13:00","-41.2","","-45.5","","64","","","","4","","4","","24.1","","101.36","","","","-47","","Ice Crystals"
"-85.81","79.99","EUREKA A","2401203","2019-02-25 14:00","2019","02","25","14:00","-42.7","","-47.1","","64","","","","36","","1","","24.1","","101.34","","","","-44","","Ice Crystals"
"-85.81","79.99","EUREKA A","2401203","2019-02-25 15:00","2019","02","25","15:00","-43.2","","-47.5","","64","","","","12","","20","","24.1","","101.31","","","","-60","","Ice Crystals"
"-85.81","79.99","EUREKA A","2401203","2019-02-25 16:00","2019","02","25","16:00","-43.4","","-47.7","","63","","","","10","","7","","24.1","","101.31","","","","-53","","Ice Crystals"
"-85.81","79.99","EUREKA A","2401203","2019-02-25 17:00","2019","02","25","17:00","-43.0","","-47.4","","64","","","","7","","9","","24.1","","101.27","","","","-54","","Ice Crystals"
"-85.81","79.99","EUREKA A","2401203","2019-02-25 18:00","2019","02","25","18:00","-41.8","","-46.1","","64","","","","10","","5","","24.1","","101.23","","","","-49","","Ice Crystals"
"-85.81","79.99","EUREKA A","2401203","2019-02-25 19:00","2019","02","25","19:00","-41.3","","-45.6","","64","","","","12","","13","","24.1","","101.20","","","","-54","","Ice Crystals"
"-85.81","79.99","EUREKA A","2401203","2019-02-25 20:00","2019","02","25","20:00","-40.1","","-44.3","","65","","","","12","","19","","24.1","","101.16","","","","-55","","Ice Crystals"
"-85.81","79.99","EUREKA A","2401203","2019-02-25 21:00","2019","02","25","21:00","-41.0","","-45.3","","65","","","","12","","19","","24.1","","101.10","","","","-57","","Ice Crystals"
"-85.81","79.99","EUREKA A","2401203","2019-02-25 22:00","2019","02","25","22:00"
"-85.81","79.99","EUREKA A","2401203","2019-02-25 23:00","2019","02","25","23:00"
"-85.81","79.99","EUREKA A","2401203","2019-02-26 00:00","2019","02","26","00:00","-41.5","","-45.8","","65","","","","10","","16","","24.1","","101.02","","","","-56","","Ice Crystals"
"-85.81","79.99","EUREKA A","2401203","2019-02-26 01:00","2019","02","26","01:00","-41.8","","-46.0","","64","","","","10","","15","","24.1","","101.02","","","","-56","","Ice Crystals"
"-85.81","79.99","EUREKA A","2401203","2019-02-26 02:00","2019","02","26","02:00","-41.5","","-45.8","","64","","","","13","","20","","24.1","","101.03","","","","-58","","Ice Crystals"
"-85.81","79.99","EUREKA A","2401203","2019-02-26 03:00","2019","02","26","03:00","-41.8","","-46.0","","64","","","","11","","10","","24.1","","101.05","","","","-53","","Ice Crystals"
"-85.81","79.99","EUREKA A","2401203","2019-02-26 04:00","2019","02","26","04:00","-42.1","","-46.4","","64","","","","7","","8","","24.1","","101.06","","","","-52","","Ice Crystals"
"-85.81","79.99","EUREKA A","2401203","2019-02-26 05:00","2019","02","26","05:00","-41.0","","-45.3","","65","","","","7","","6","","24.1","","101.07","","","","-49","","Ice Crystals"
"-85.81","79.99","EUREKA A","2401203","2019-02-26 06:00","2019","02","26","06:00","-40.9","","-45.1","","65","","","","8","","9","","24.1","","101.09","","","","-52","","Ice Crystals"
"-85.81","79.99","EUREKA A","2401203","2019-02-26 07:00","2019","02","26","07:00","-41.6","","-45.8","","65","","","","6","","7","","24.1","","101.10","","","","-51","","Ice Crystals"
"-85.81","79.99","EUREKA A","2401203","2019-02-26 08:00","2019","02","26","08:00","-42.2","","-46.5","","64","","","","10","","12","","24.1","","101.14","","","","-55","","Ice Crystals"
"-85.81","79.99","EUREKA A","2401203","2019-02-26 09:00","2019","02","26","09:00","-42.1","","-46.4","","64","","","","6","","6","","24.1","","101.19","","","","-50","","Ice Crystals"
"-85.81","79.99","EUREKA A","2401203","2019-02-26 10:00","2019","02","26","10:00","-40.3","","-44.5","","65","","","","10","","6","","24.1","","101.20","","","","-48","","Ice Crystals"
"-85.81","79.99","EUREKA A","2401203","2019-02-26 11:00","2019","02","26","11:00","-40.2","","-44.4","","65","","","","7","","4","","24.1","","101.25","","","","-46","","Ice Crystals"
"-85.81","79.99","EUREKA A","2401203","2019-02-26 12:00","2019","02","26","12:00","-40.2","","-44.5","","65","","","","7","","7","","24.1","","101.29","","","","-49","","Ice Crystals"
"-85.81","79.99","EUREKA A","2401203","2019-02-26 13:00","2019","02","26","13:00","-40.8","","-45.0","","65","","","","14","","4","","24.1","","101.36","","","","-46","","Ice Crystals"
"-85.81","79.99","EUREKA A","2401203","2019-02-26 14:00","2019","02","26","14:00","-41.1","","-45.4","","65","","","","12","","5","","24.1","","101.41","","","","-48","","Ice Crystals"
"-85.81","79.99","EUREKA A","2401203","2019-02-26 15:00","2019","02","26","15:00","-40.5","","-44.8","","65","","","","9","","7","","24.1","","101.49","","","","-49","","Ice Crystals"
"-85.81","79.99","EUREKA A","2401203","2019-02-26 16:00","2019","02","26","16:00","-40.3","","-44.5","","65","","","","10","","7","","24.1","","101.55","","","","-49","","Ice Crystals"
"-85.81","79.99","EUREKA A","2401203","2019-02-26 17:00","2019","02","26","17:00","-40.4","","-44.6","","65","","","","14","","12","","24.1","","101.63","","","","-53","","Ice Crystals"
"-85.81","79.99","EUREKA A","2401203","2019-02-26 18:00","2019","02","26","18:00","-40.6","","-44.8","","65","","","","7","","8","","24.1","","101.69","","","","-50","","Ice Crystals"
"-85.81","79.99","EUREKA A","2401203","2019-02-26 19:00","2019","02","26","19:00","-40.6","","-44.9","","65","","","","3","","4","","24.1","","101.75","","","","-46","","Ice Crystals"
"-85.81","79.99","EUREKA A","2401203","2019-02-26 20:00","2019","02","26","20:00","-39.6","","-43.8","","66","","","","16","","16","","24.1","","101.83","","","","-54","","Ice Crystals"
"-85.81","79.99","EUREKA A","2401203","2019-02-26 21:00","2019","02","26","21:00","-39.6","","-43.8","","66","","","","14","","10","","24.1","","101.87","","","","-51","","Ice Crystals"
"-85.81","79.99","EUREKA A","2401203","2019-02-26 22:00","2019","02","26","22:00"
"-85.81","79.99","EUREKA A","2401203","2019-02-26 23:00","2019","02","26","23:00"
"-85.81","79.99","EUREKA A","2401203","2019-02-27 00:00","2019","02","27","00:00","-38.9","","-43.1","","66","","","","14","","12","","24.1","","102.07","","","","-51","","Ice Crystals"
"-85.81","79.99","EUREKA A","2401203","2019-02-27 01:00","2019","02","27","01:00","-38.5","","-42.6","","66","","","","16","","11","","24.1","","102.17","","","","-50","","Ice Crystals"
"-85.81","79.99","EUREKA A","2401203","2019-02-27 02:00","2019","02","27","02:00","-39.6","","-43.7","","66","","","","6","","8","","24.1","","102.25","","","","-49","","Ice Crystals"
"-85.81","79.99","EUREKA A","2401203","2019-02-27 03:00","2019","02","27","03:00","-39.0","","-43.1","","66","","","","7","","7","","24.1","","102.33","","","","-48","","Ice Crystals"
"-85.81","79.99","EUREKA A","2401203","2019-02-27 04:00","2019","02","27","04:00","-38.5","","-42.6","","66","","","","10","","7","","24.1","","102.40","","","","-47","","Ice Crystals"
"-85.81","79.99","EUREKA A","2401203","2019-02-27 05:00","2019","02","27","05:00","-39.6","","-43.8","","66","","","","5","","5","","24.1","","102.46","","","","-47","","Ice Crystals"
"-85.81","79.99","EUREKA A","2401203","2019-02-27 06:00","2019","02","27","06:00","-37.3","","-41.3","","67","","","","8","","4","","24.1","","102.54","","","","-43","","Ice Crystals"
"-85.81","79.99","EUREKA A","2401203","2019-02-27 07:00","2019","02","27","07:00","-38.4","","-42.4","","67","","","","6","","3","","24.1","","102.62","","","","-42","","Ice Crystals"
"-85.81","79.99","EUREKA A","2401203","2019-02-27 08:00","2019","02","27","08:00","-38.7","","-42.8","","66","","","","36","","2","","24.1","","102.70","","","","-41","","Ice Crystals"
"-85.81","79.99","EUREKA A","2401203","2019-02-27 09:00","2019","02","27","09:00","-38.6","","-42.6","","66","","","","36","","2","","24.1","","102.79","","","","-41","","Ice Crystals"
"-85.81","79.99","EUREKA A","2401203","2019-02-27 10:00","2019","02","27","10:00","-39.4","","-43.6","","66","","","","26","","4","","24.1","","102.87","","","","-45","","Ice Crystals"
"-85.81","79.99","EUREKA A","2401203","2019-02-27 11:00","2019","02","27","11:00","-38.9","","-43.0","","66","","","","36","","3","","24.1","","102.92","","","","-43","","Ice Crystals"
"-85.81","79.99","EUREKA A","2401203","2019-02-27 12:00","2019","02","27","12:00","-39.2","","-43.4","","66","","","","36","","2","","24.1","","103.01","","","","-42","","Ice Crystals"
"-85.81","79.99","EUREKA A","2401203","2019-02-27 13:00","2019","02","27","13:00","-38.9","","-43.0","","66","","","","36","","2","","24.1","","103.07","","","","-42","","Ice Crystals"
"-85.81","79.99","EUREKA A","2401203","2019-02-27 14:00","2019","02","27","14:00","-39.9","","-44.1","","66","","","","16","","4","","24.1","","103.15","","","","-45","","Ice Crystals"
"-85.81","79.99","EUREKA A","2401203","2019-02-27 15:00","2019","02","27","15:00","-40.1","","-44.3","","66","","","","10","","5","","24.1","","103.25","","","","-47","","Ice Crystals"
"-85.81","79.99","EUREKA A","2401203","2019-02-27 16:00","2019","02","27","16:00","-40.2","","-44.4","","65","","","","17","","4","","24.1","","103.36","","","","-46","","Ice Crystals"
"-85.81","79.99","EUREKA A","2401203","2019-02-27 17:00","2019","02","27","17:00","-40.0","","-44.1","","66","","","","8","","5","","24.1","","103.42","","","","-47","","Ice Crystals"
"-85.81","79.99","EUREKA A","2401203","2019-02-27 18:00","2019","02","27","18:00","-39.4","","-43.5","","66","","","","16","","5","","24.1","","103.52","","","","-46","","Ice Crystals"
"-85.81","79.99","EUREKA A","2401203","2019-02-27 19:00","2019","02","27","19:00","-39.8","","-43.9","","66","","","","36","","3","","24.1","","103.57","","","","-44","","Ice Crystals"
"-85.81","79.99","EUREKA A","2401203","2019-02-27 20:00","2019","02","27","20:00","-40.2","","-44.4","","66","","","","7","","4","","24.1","","103.63","","","","-46","","Ice Crystals"
"-85.81","79.99","EUREKA A","2401203","2019-02-27 21:00","2019","02","27","21:00","-38.8","","-42.9","","66","","","","8","","3","","24.1","","103.69","","","","-43","","Ice Crystals"
"-85.81","79.99","EUREKA A","2401203","2019-02-27 22:00","2019","02","27","22:00"
"-85.81","79.99","EUREKA A","2401203","2019-02-27 23:00","2019","02","27","23:00"
"-85.81","79.99","EUREKA A","2401203","2019-02-28 00:00","2019","02","28","00:00","-39.1","","-43.2","","66","","","","9","","5","","24.1","","103.82","","","","-46","","Ice Crystals"
"-85.81","79.99","EUREKA A","2401203","2019-02-28 01:00","2019","02","28","01:00","-38.4","","-42.5","","67","","","","36","","3","","24.1","","103.87","","","","-42","","Ice Crystals"
"-85.81","79.99","EUREKA A","2401203","2019-02-28 02:00","2019","02","28","02:00","-39.5","","-43.7","","66","","","","11","","4","","24.1","","103.92","","","","-45","","Ice Crystals"
"-85.81","79.99","EUREKA A","2401203","2019-02-28 03:00","2019","02","28","03:00","-38.8","","-42.9","","66","","","","36","","3","","24.1","","103.97","","","","-43","","Ice Crystals"
"-85.81","79.99","EUREKA A","2401203","2019-02-28 04:00","2019","02","28","04:00","-37.0","","-41.0","","67","","","","18","","5","","24.1","","104.00","","","","-44","","Ice Crystals"
"-85.81","79.99","EUREKA A","2401203","2019-02-28 05:00","2019","02","28","05:00","-36.7","","-40.8","","67","","","","16","","3","","16.1","","104.02","","","","-41","","Snow"
"-85.81","79.99","EUREKA A","2401203","2019-02-28 06:00","2019","02","28","06:00","-36.9","","-40.9","","67","","","","3","","4","","24.1","","104.02","","","","-42","","Snow"
"-85.81","79.99","EUREKA A","2401203","2019-02-28 07:00","2019","02","28","07:00","-37.9","","-42.0","","67","","","","17","","4","","24.1","","104.01","","","","-43","","Snow"
"-85.81","79.99","EUREKA A","2401203","2019-02-28 08:00","2019","02","28","08:00","-36.1","","-40.1","","68","","","","18","","4","","24.1","","104.00","","","","-41","","Snow"
"-85.81","79.99","EUREKA A","2401203","2019-02-28 09:00","2019","02","28","09:00","-35.2","","-39.1","","68","","","","36","","1","","16.1","","104.01","","","","-36","","Snow"
"-85.81","79.99","EUREKA A","2401203","2019-02-28 10:00","2019","02","28","10:00","-36.5","","-40.5","","67","","","","20","","3","","9.7","","103.99","","","","-40","","Snow"
"-85.81","79.99","EUREKA A","2401203","2019-02-28 11:00","2019","02","28","11:00","-35.2","","-39.1","","68","","","","36","","3","","6.4","","103.99","","","","-39","","Snow"
"-85.81","79.99","EUREKA A","2401203","2019-02-28 12:00","2019","02","28","12:00","-34.3","","-38.2","","69","","","","19","","5","","16.1","","103.98","","","","-41","","Snow"
"-85.81","79.99","EUREKA A","2401203","2019-02-28 13:00","2019","02","28","13:00","-33.8","","-37.7","","69","","","","36","","2","","24.1","","103.95","","","","-36","","Snow"
"-85.81","79.99","EUREKA A","2401203","2019-02-28 14:00","2019","02","28","14:00","-33.8","","-37.6","","69","","","","2","","3","","16.1","","103.94","","","","-37","","Snow"
"-85.81","79.99","EUREKA A","2401203","2019-02-28 15:00","2019","02","28","15:00","-33.8","","-37.6","","69","","","","6","","3","","24.1","","103.95","","","","-37","","Snow"
"-85.81","79.99","EUREKA A","2401203","2019-02-28 16:00","2019","02","28","16:00","-34.9","","-38.8","","69","","","","8","","4","","24.1","","103.91","","","","-40","","Snow"
"-85.81","79.99","EUREKA A","2401203","2019-02-28 17:00","2019","02","28","17:00","-34.8","","-38.6","","69","","","","15","","7","","24.1","","103.89","","","","-43","","Ice Crystals"
"-85.81","79.99","EUREKA A","2401203","2019-02-28 18:00","2019","02","28","18:00","-35.6","","-39.5","","68","","","","14","","6","","24.1","","103.84","","","","-43","","Ice Crystals"
"-85.81","79.99","EUREKA A","2401203","2019-02-28 19:00","2019","02","28","19:00","-37.6","","-41.6","","67","","","","36","","3","","24.1","","103.83","","","","-42","","Ice Crystals"
"-85.81","79.99","EUREKA A","2401203","2019-02-28 20:00","2019","02","28","20:00","-35.7","","-39.6","","68","","","","16","","6","","24.1","","103.75","","","","-43","","Ice Crystals"
"-85.81","79.99","EUREKA A","2401203","2019-02-28 21:00","2019","02","28","21:00","-38.0","","-42.0","","67","","","","7","","5","","24.1","","103.70","","","","-45","","Ice Crystals"
"-85.81","79.99","EUREKA A","2401203","2019-02-28 22:00","2019","02","28","22:00"
"-85.81","79.99","EUREKA A","2401203","2019-02-28 23:00","2019","02","28","23:00"
