"Longitude (x)","Latitude (y)","Station Name","Climate ID","Date/Time (LST)","Year","Month","Day","Time (LST)","Temp (°C)","Temp Flag","Dew Point Temp (°C)","Dew Point Temp Flag","Rel Hum (%)","Rel Hum Flag","Precip. Amount (mm)","Precip. Amount Flag","Wind Dir (10s deg)","Wind Dir Flag","Wind Spd (km/h)","Wind Spd Flag","Visibility (km)","Visibility Flag","Stn Press (kPa)","Stn Press Flag","Hmdx","Hmdx Flag","Wind Chill","Wind Chill Flag","Weather"
"-85.81","79.99","EUREKA A","2401203","2019-01-01 00:00","2019","01","01","00:00","-19.9","","-22.5","","80","","","","14","","45","","9.7","","101.05","","","","-35","","Snow,Blowing Snow"
"-85.81","79.99","EUREKA A","2401203","2019-01-01 01:00","2019","01","01","01:00","-19.8","","-22.3","","80","","","","14","","43","","12.9","","101.07","","","","-34","","Snow,Blowing Snow"
"-85.81","79.99","EUREKA A","2401203","2019-01-01 02:00","2019","01","01","02:00","-20.0","","-22.6","","80","","","","14","","34","","12.9","","101.04","","","","-33","","Snow,Blowing Snow"
"-85.81","79.99","EUREKA A","2401203","2019-01-01 03:00","2019","01","01","03:00","-19.1","","-21.7","","81","","","","15","","45","","12.9","","101.02","","","","-34","","Snow,Blowing Snow"
"-85.81","79.99","EUREKA A","2401203","2019-01-01 04:00","2019","01","01","04:00","-19.5","","-22.1","","81","","","","14","","43","","12.9","","100.96","","","","-34","","Blowing Snow"
"-85.81","79.99","EUREKA A","2401203","2019-01-01 05:00","2019","01","01","05:00","-19.5","","-22.1","","80","","","","14","","32","","12.9","","100.95","","","","-32","","Blowing Snow"
"-85.81","79.99","EUREKA A","2401203","2019-01-01 06:00","2019","01","01","06:00","-19.5","","-22.1","","80","","","","14","","42","","12.9","","100.91","","","","-34","","Blowing Snow"
"-85.81","79.99","EUREKA A","2401203","2019-01-01 07:00","2019","01","01","07:00","-18.7","","-21.4","","80","","","","14","","39","","19.3","","100.91","","","","-32","","Blowing Snow"
"-85.81","79.99","EUREKA A","2401203","2019-01-01 08:00","2019","01","01","08:00","-18.9","","-21.6","","80","","","","15","","41","","16.1","","100.84","","","","-33","","Blowing Snow"
"-85.81","79.99","EUREKA A","2401203","2019-01-01 09:00","2019","01","01","09:00","-18.9","","-21.7","","79","","","","14","","25","","24.1","","100.85","","","","-30","","Blowing Snow"
"-85.81","79.99","EUREKA A","2401203","2019-01-01 10:00","2019","01","01","10:00","-19.7","","-22.5","","78","","","","14","","30","","24.1","","100.81","","","","-32","","Blowing Snow"
"-85.81","79.99","EUREKA A","2401203","2019-01-01 11:00","2019","01","01","11:00","-20.2","","-23.1","","78","","","","15","","33","","24.1","","100.70","","","","-33","","Blowing Snow"
"-85.81","79.99","EUREKA A","2401203","2019-01-01 12:00","2019","01","01","12:00","-20.1","","-23.3","","76","","","","17","","13","","24.1","","100.68","","","","-29","","Blowing Snow"
"-85.81","79.99","EUREKA A","2401203","2019-01-01 13:00","2019","01","01","13:00","-19.9","","-23.0","","76","","","","14","","32","","24.1","","100.58","","","","-33","","Blowing Snow"
"-85.81","79.99","EUREKA A","2401203","2019-01-01 14:00","2019","01","01","14:00","-20.6","","-23.9","","76","","","","16","","26","","24.1","","100.53","","","","-33","","NA"
"-85.81","79.99","EUREKA A","2401203","2019-01-01 15:00","2019","01","01","15:00","-20.9","","-24.3","","75","","","","14","","31","","24.1","","100.50","","","","-34","","Mainly Clear"
"-85.81","79.99","EUREKA A","2401203","2019-01-01 16:00","2019","01","01","16:00","-21.6","","-25.1","","74","","","","15","","25","","24.1","","100.41","","","","-34","","NA"
"-85.81","79.99","EUREKA A","2401203","2019-01-01 17:00","2019","01","01","17:00","-22.1","","-25.8","","72","","","","14","","23","","24.1","","100.38","","","","-34","","NA"
"-85.81","79.99","EUREKA A","2401203","2019-01-01 18:00","2019","01","01","18:00","-22.1","","-25.7","","73","","","","14","","28","","24.1","","100.29","","","","-35","","Clear"
"-85.81","79.99","EUREKA A","2401203","2019-01-01 19:00","2019","01","01","19:00","-22.4","","-26.4","","70","","","","17","","10","","24.1","","100.19","","","","-30","","NA"
"-85.81","79.99","EUREKA A","2401203","2019-01-01 20:00","2019","01","01","20:00","-22.4","","-26.2","","72","","","","20","","6","","24.1","","100.11","","","","-28","","NA"
"-85.81","79.99","EUREKA A","2401203","2019-01-01 21:00","2019","01","01","21:00","-21.7","","-25.8","","70","","","","16","","9","","24.1","","100.03","","","","-29","","Clear"
"-85.81","79.99","EUREKA A","2401203","2019-01-01 22:00","2019","01","01","22:00"
"-85.81","79.99","EUREKA A","2401203","2019-01-01 23:00","2019","01","01","23:00"
"-85.81","79.99","EUREKA A","2401203","2019-01-02 00:00","2019","01","02","00:00","-22.8","","-26.7","","71","","","","18","","16","","24.1","","99.85","","","","-33","","Mainly Clear"
"-85.81","79.99","EUREKA A","2401203","2019-01-02 01:00","2019","01","02","01:00","-23.2","","-27.4","","69","","","","14","","19","","24.1","","99.81","","","","-34","","NA"
"-85.81","79.99","EUREKA A","2401203","2019-01-02 02:00","2019","01","02","02:00","-23.3","","-27.5","","69","","","","14","","18","","24.1","","99.79","","","","-34","","NA"
"-85.81","79.99","EUREKA A","2401203","2019-01-02 03:00","2019","01","02","03:00","-23.3","","-27.4","","70","","","","14","","26","","24.1","","99.79","","","","-36","","Mainly Clear"
"-85.81","79.99","EUREKA A","2401203","2019-01-02 04:00","2019","01","02","04:00","-24.0","","-27.8","","72","","","","13","","17","","24.1","","99.79","","","","-35","","NA"
"-85.81","79.99","EUREKA A","2401203","2019-01-02 05:00","2019","01","02","05:00","-24.1","","-27.6","","73","","","","13","","23","","24.1","","99.76","","","","-36","","NA"
"-85.81","79.99","EUREKA A","2401203","2019-01-02 06:00","2019","01","02","06:00","-23.8","","-27.0","","75","","","","14","","21","","24.1","","99.76","","","","-36","","Mainly Clear"
"-85.81","79.99","EUREKA A","2401203","2019-01-02 07:00","2019","01","02","07:00","-25.2","","-28.3","","76","","","","15","","23","","24.1","","99.79","","","","-38","","NA"
"-85.81","79.99","EUREKA A","2401203","2019-01-02 08:00","2019","01","02","08:00","-24.9","","-27.8","","78","","","","14","","22","","24.1","","99.83","","","","-37","","NA"
"-85.81","79.99","EUREKA A","2401203","2019-01-02 09:00","2019","01","02","09:00","-24.9","","-27.7","","78","","","","15","","15","","24.1","","99.88","","","","-35","","Clear"
"-85.81","79.99","EUREKA A","2401203","2019-01-02 10:00","2019","01","02","10:00","-26.1","","-28.8","","78","","","","19","","10","","24.1","","99.92","","","","-34","","NA"
"-85.81","79.99","EUREKA A","2401203","2019-01-02 11:00","2019","01","02","11:00","-25.8","","-28.6","","78","","","","36","","1","","24.1","","99.96","","","","-27","","NA"
"-85.81","79.99","EUREKA A","2401203","2019-01-02 12:00","2019","01","02","12:00","-28.7","","-31.6","","77","","","","6","","8","","24.1","","99.99","","","","-36","","Mainly Clear"
"-85.81","79.99","EUREKA A","2401203","2019-01-02 13:00","2019","01","02","13:00","-28.6","","-31.5","","77","","","","35","","3","","24.1","","100.06","","","","-32","","NA"
"-85.81","79.99","EUREKA A","2401203","2019-01-02 14:00","2019","01","02","14:00","-27.6","","-30.5","","77","","","","36","","5","","24.1","","100.12","","","","-33","","NA"
"-85.81","79.99","EUREKA A","2401203","2019-01-02 15:00","2019","01","02","15:00","-28.6","","-31.6","","76","","","","17","","7","","24.1","","100.19","","","","-36","","Clear"
"-85.81","79.99","EUREKA A","2401203","2019-01-02 16:00","2019","01","02","16:00","-29.3","","-32.3","","76","","","","13","","5","","24.1","","100.25","","","","-35","","NA"
"-85.81","79.99","EUREKA A","2401203","2019-01-02 17:00","2019","01","02","17:00","-30.7","","-33.8","","75","","","","36","","2","","24.1","","100.32","","","","-33","","NA"
"-85.81","79.99","EUREKA A","2401203","2019-01-02 18:00","2019","01","02","18:00","-30.1","","-33.3","","74","","","","1","","3","","24.1","","100.36","","","","-33","","Clear"
"-85.81","79.99","EUREKA A","2401203","2019-01-02 19:00","2019","01","02","19:00","-29.7","","-32.9","","74","","","","11","","5","","24.1","","100.37","","","","-35","","NA"
"-85.81","79.99","EUREKA A","2401203","2019-01-02 20:00","2019","01","02","20:00","-29.5","","-32.7","","74","","","","8","","4","","24.1","","100.39","","","","-34","","NA"
"-85.81","79.99","EUREKA A","2401203","2019-01-02 21:00","2019","01","02","21:00","-30.5","","-33.8","","74","","","","5","","4","","24.1","","100.41","","","","-35","","Clear"
"-85.81","79.99","EUREKA A","2401203","2019-01-02 22:00","2019","01","02","22:00"
"-85.81","79.99","EUREKA A","2401203","2019-01-02 23:00","2019","01","02","23:00"
"-85.81","79.99","EUREKA A","2401203","2019-01-03 00:00","2019","01","03","00:00","-28.8","","-32.1","","74","","","","12","","7","","24.1","","100.51","","","","-36","","Snow"
"-85.81","79.99","EUREKA A","2401203","2019-01-03 01:00","2019","01","03","01:00","-32.2","","-35.7","","72","","","","8","","6","","24.1","","100.52","","","","-39","","Ice Crystals"
"-85.81","79.99","EUREKA A","2401203","2019-01-03 02:00","2019","01","03","02:00","-30.4","","-33.9","","73","","","","6","","4","","24.1","","100.54","","","","-35","","NA"
"-85.81","79.99","EUREKA A","2401203","2019-01-03 03:00","2019","01","03","03:00","-31.8","","-35.2","","72","","","","7","","4","","24.1","","100.56","","","","-36","","Clear"
"-85.81","79.99","EUREKA A","2401203","2019-01-03 04:00","2019","01","03","04:00","-31.5","","-34.9","","72","","","","5","","5","","24.1","","100.53","","","","-37","","Snow"
"-85.81","79.99","EUREKA A","2401203","2019-01-03 05:00","2019","01","03","05:00","-31.4","","-34.8","","72","","","","36","","3","","24.1","","100.54","","","","-35","","Snow"
"-85.81","79.99","EUREKA A","2401203","2019-01-03 06:00","2019","01","03","06:00","-30.8","","-34.2","","72","","","","13","","4","","24.1","","100.54","","","","-35","","Snow"
"-85.81","79.99","EUREKA A","2401203","2019-01-03 07:00","2019","01","03","07:00","-31.3","","-34.8","","72","","","","17","","7","","24.1","","100.54","","","","-39","","Snow"
"-85.81","79.99","EUREKA A","2401203","2019-01-03 08:00","2019","01","03","08:00","-30.9","","-34.4","","72","","","","1","","3","","24.1","","100.52","","","","-34","","Snow"
"-85.81","79.99","EUREKA A","2401203","2019-01-03 09:00","2019","01","03","09:00","-31.5","","-35.0","","72","","","","36","","2","","24.1","","100.52","","","","-34","","Snow"
"-85.81","79.99","EUREKA A","2401203","2019-01-03 10:00","2019","01","03","10:00","-31.6","","-35.0","","72","","","","6","","3","","24.1","","100.52","","","","-35","","Snow"
"-85.81","79.99","EUREKA A","2401203","2019-01-03 11:00","2019","01","03","11:00","-32.0","","-35.5","","72","","","","19","","7","","24.1","","100.52","","","","-40","","Snow"
"-85.81","79.99","EUREKA A","2401203","2019-01-03 12:00","2019","01","03","12:00","-31.5","","-35.0","","72","","","","36","","2","","24.1","","100.52","","","","-34","","Snow"
"-85.81","79.99","EUREKA A","2401203","2019-01-03 13:00","2019","01","03","13:00","-32.2","","-35.8","","71","","","","36","","2","","24.1","","100.53","","","","-35","","Snow"
"-85.81","79.99","EUREKA A","2401203","2019-01-03 14:00","2019","01","03","14:00","-33.7","","-37.3","","71","","","","10","","4","","24.1","","100.55","","","","-39","","Snow"
"-85.81","79.99","EUREKA A","2401203","2019-01-03 15:00","2019","01","03","15:00","-32.6","","-36.2","","71","","","","16","","7","","24.1","","100.58","","","","-40","","Snow"
"-85.81","79.99","EUREKA A","2401203","2019-01-03 16:00","2019","01","03","16:00","-33.8","","-37.4","","71","","","","36","","3","","24.1","","100.60","","","","-37","","Snow"
"-85.81","79.99","EUREKA A","2401203","2019-01-03 17:00","2019","01","03","17:00","-33.0","","-36.6","","71","","","","36","","2","","24.1","","100.67","","","","-35","","Snow"
"-85.81","79.99","EUREKA A","2401203","2019-01-03 18:00","2019","01","03","18:00","-32.7","","-36.2","","71","","","","8","","4","","24.1","","100.72","","","","-37","","Snow"
"-85.81","79.99","EUREKA A","2401203","2019-01-03 19:00","2019","01","03","19:00","-32.6","","-36.2","","71","","","","36","","2","","24.1","","100.75","","","","-35","","Snow"
"-85.81","79.99","EUREKA A","2401203","2019-01-03 20:00","2019","01","03","20:00","-33.3","","-36.9","","71","","","","36","","3","","24.1","","100.77","","","","-37","","Snow"
"-85.81","79.99","EUREKA A","2401203","2019-01-03 21:00","2019","01","03","21:00","-33.8","","-37.4","","71","","","","4","","3","","24.1","","100.80","","","","-37","","Snow"
"-85.81","79.99","EUREKA A","2401203","2019-01-03 22:00","2019","01","03","22:00"
"-85.81","79.99","EUREKA A","2401203","2019-01-03 23:00","2019","01","03","23:00"
"-85.81","79.99","EUREKA A","2401203","2019-01-04 00:00","2019","01","04","00:00","-32.4","","-36.0","","71","","","","8","","5","","24.1","","100.92","","","","-38","","Snow"
"-85.81","79.99","EUREKA A","2401203","2019-01-04 01:00","2019","01","04","01:00","-31.3","","-34.8","","72","","","","6","","3","","24.1","","100.95","","","","-35","","Snow"
"-85.81","79.99","EUREKA A","2401203","2019-01-04 02:00","2019","01","04","02:00","-32.0","","-35.6","","71","","","","36","","2","","24.1","","100.96","","","","-34","","NA"
"-85.81","79.99","EUREKA A","2401203","2019-01-04 03:00","2019","01","04","03:00","-32.9","","-36.5","","71","","","","16","","7","","24.1","","101.01","","","","-41","","Mainly Clear"
"-85.81","79.99","EUREKA A","2401203","2019-01-04 04:00","2019","01","04","04:00","-34.0","","-37.6","","70","","","","6","","5","","24.1","","101.02","","","","-40","","NA"
"-85.81","79.99","EUREKA A","2401203","2019-01-04 05:00","2019","01","04","05:00","-33.0","","-36.6","","71","","","","24","","3","","24.1","","101.01","","","","-37","","NA"
"-85.81","79.99","EUREKA A","2401203","2019-01-04 06:00","2019","01","04","06:00","-32.4","","-36.0","","71","","","","28","","3","","24.1","","101.01","","","","-36","","Clear"
"-85.81","79.99","EUREKA A","2401203","2019-01-04 07:00","2019","01","04","07:00","-34.7","","-38.4","","70","","","","36","","2","","24.1","","100.97","","","","-37","","Ice Crystals"
"-85.81","79.99","EUREKA A","2401203","2019-01-04 08:00","2019","01","04","08:00","-32.8","","-36.4","","71","","","","29","","8","","24.1","","100.92","","","","-41","","Ice Crystals"
"-85.81","79.99","EUREKA A","2401203","2019-01-04 09:00","2019","01","04","09:00","-33.4","","-37.0","","71","","","","28","","9","","16.1","","100.88","","","","-43","","Ice Crystals"
"-85.81","79.99","EUREKA A","2401203","2019-01-04 10:00","2019","01","04","10:00","-32.9","","-36.5","","71","","","","28","","10","","24.1","","100.84","","","","-43","","Ice Crystals"
"-85.81","79.99","EUREKA A","2401203","2019-01-04 11:00","2019","01","04","11:00","-32.8","","-36.4","","71","","","","29","","16","","9.7","","100.76","","","","-45","","Ice Crystals"
"-85.81","79.99","EUREKA A","2401203","2019-01-04 12:00","2019","01","04","12:00","-32.8","","-36.4","","71","","","","27","","10","","9.7","","100.66","","","","-42","","Ice Crystals"
"-85.81","79.99","EUREKA A","2401203","2019-01-04 13:00","2019","01","04","13:00","-32.7","","-36.3","","71","","","","26","","5","","8.1","","100.60","","","","-39","","Ice Crystals"
"-85.81","79.99","EUREKA A","2401203","2019-01-04 14:00","2019","01","04","14:00","-33.6","","-37.2","","71","","","","0","","1","","9.7","","100.51","","","","-35","","Ice Crystals"
"-85.81","79.99","EUREKA A","2401203","2019-01-04 15:00","2019","01","04","15:00","-33.6","","-37.2","","71","","","","1","","6","","12.9","","100.41","","","","-41","","Ice Crystals"
"-85.81","79.99","EUREKA A","2401203","2019-01-04 16:00","2019","01","04","16:00","-29.8","","-33.3","","72","","","","28","","4","","16.1","","100.28","","","","-34","","Ice Crystals"
"-85.81","79.99","EUREKA A","2401203","2019-01-04 17:00","2019","01","04","17:00","-31.0","","-34.5","","72","","","","27","","17","","12.9","","100.24","","","","-43","","Ice Crystals"
"-85.81","79.99","EUREKA A","2401203","2019-01-04 18:00","2019","01","04","18:00","-29.7","","-33.1","","73","","","","31","","7","","16.1","","100.17","","","","-37","","Ice Crystals"
"-85.81","79.99","EUREKA A","2401203","2019-01-04 19:00","2019","01","04","19:00","-28.4","","-31.8","","74","","","","28","","18","","9.7","","100.07","","","","-40","","Ice Crystals,Blowing Snow"
"-85.81","79.99","EUREKA A","2401203","2019-01-04 20:00","2019","01","04","20:00","-27.9","","-31.1","","74","","","","26","","15","","2.4","","99.98","","","","-39","","Blowing Snow"
"-85.81","79.99","EUREKA A","2401203","2019-01-04 21:00","2019","01","04","21:00","-27.2","","-30.4","","75","","","","27","","39","","2.4","","99.83","","","","-44","","Blowing Snow"
"-85.81","79.99","EUREKA A","2401203","2019-01-04 22:00","2019","01","04","22:00"
"-85.81","79.99","EUREKA A","2401203","2019-01-04 23:00","2019","01","04","23:00"
"-85.81","79.99","EUREKA A","2401203","2019-01-05 00:00","2019","01","05","00:00","-26.7","","-29.9","","75","","","","29","","20","","2.8","","99.65","","","","-39","","Blowing Snow"
"-85.81","79.99","EUREKA A","2401203","2019-01-05 01:00","2019","01","05","01:00","-26.9","","-30.1","","75","","","","28","","28","","1.2","","99.60","","","","-41","","Blowing Snow"
"-85.81","79.99","EUREKA A","2401203","2019-01-05 02:00","2019","01","05","02:00","-27.2","","-30.4","","75","","","","31","","15","","24.1","","99.67","","","","-38","","NA"
"-85.81","79.99","EUREKA A","2401203","2019-01-05 03:00","2019","01","05","03:00","-27.3","","-30.5","","75","","","","35","","14","","24.1","","99.68","","","","-38","","Blowing Snow"
"-85.81","79.99","EUREKA A","2401203","2019-01-05 04:00","2019","01","05","04:00","-26.5","","-29.7","","75","","","","33","","8","","24.1","","99.71","","","","-34","","Blowing Snow"
"-85.81","79.99","EUREKA A","2401203","2019-01-05 05:00","2019","01","05","05:00","-29.4","","-32.7","","74","","","","14","","24","","24.1","","99.80","","","","-43","","Blowing Snow"
"-85.81","79.99","EUREKA A","2401203","2019-01-05 06:00","2019","01","05","06:00","-28.8","","-32.1","","74","","","","15","","16","","24.1","","99.90","","","","-40","","Mostly Cloudy"
"-85.81","79.99","EUREKA A","2401203","2019-01-05 07:00","2019","01","05","07:00","-28.5","","-31.9","","74","","","","14","","14","","24.1","","100.01","","","","-39","","NA"
"-85.81","79.99","EUREKA A","2401203","2019-01-05 08:00","2019","01","05","08:00","-28.8","","-32.1","","74","","","","15","","11","","24.1","","100.14","","","","-38","","NA"
"-85.81","79.99","EUREKA A","2401203","2019-01-05 09:00","2019","01","05","09:00","-28.3","","-31.6","","74","","","","34","","5","","24.1","","100.25","","","","-34","","Cloudy"
"-85.81","79.99","EUREKA A","2401203","2019-01-05 10:00","2019","01","05","10:00","-27.5","","-30.8","","74","","","","6","","4","","24.1","","100.33","","","","-32","","Snow"
"-85.81","79.99","EUREKA A","2401203","2019-01-05 11:00","2019","01","05","11:00","-26.5","","-29.7","","75","","","","36","","4","","19.3","","100.38","","","","-31","","Snow"
"-85.81","79.99","EUREKA A","2401203","2019-01-05 12:00","2019","01","05","12:00","-26.6","","-29.8","","75","","","","36","","1","","19.3","","100.46","","","","-28","","Snow"
"-85.81","79.99","EUREKA A","2401203","2019-01-05 13:00","2019","01","05","13:00","-26.9","","-30.1","","75","","","","14","","5","","16.1","","100.56","","","","-32","","Snow"
"-85.81","79.99","EUREKA A","2401203","2019-01-05 14:00","2019","01","05","14:00","-26.6","","-29.7","","75","","","","36","","3","","24.1","","100.64","","","","-30","","Snow"
"-85.81","79.99","EUREKA A","2401203","2019-01-05 15:00","2019","01","05","15:00","-26.4","","-29.6","","75","","","","7","","3","","19.3","","100.75","","","","-29","","Snow"
"-85.81","79.99","EUREKA A","2401203","2019-01-05 16:00","2019","01","05","16:00","-26.2","","-29.4","","75","","","","9","","4","","9.7","","100.83","","","","-30","","Snow"
"-85.81","79.99","EUREKA A","2401203","2019-01-05 17:00","2019","01","05","17:00","-26.0","","-29.1","","76","","","","15","","5","","9.7","","100.94","","","","-31","","Snow"
"-85.81","79.99","EUREKA A","2401203","2019-01-05 18:00","2019","01","05","18:00","-26.3","","-29.4","","76","","","","3","","5","","8.1","","101.02","","","","-31","","Snow"
"-85.81","79.99","EUREKA A","2401203","2019-01-05 19:00","2019","01","05","19:00","-25.7","","-28.8","","76","","","","36","","3","","8.1","","101.08","","","","-29","","Snow"
"-85.81","79.99","EUREKA A","2401203","2019-01-05 20:00","2019","01","05","20:00","-26.0","","-29.1","","76","","","","8","","5","","9.7","","101.16","","","","-31","","Snow"
"-85.81","79.99","EUREKA A","2401203","2019-01-05 21:00","2019","01","05","21:00","-25.5","","-28.6","","76","","","","15","","5","","9.7","","101.20","","","","-31","","Snow"
"-85.81","79.99","EUREKA A","2401203","2019-01-05 22:00","2019","01","05","22:00"
"-85.81","79.99","EUREKA A","2401203","2019-01-05 23:00","2019","01","05","23:00"
"-85.81","79.99","EUREKA A","2401203","2019-01-06 00:00","2019","01","06","00:00","-24.5","","-27.5","","77","","","","18","","11","","24.1","","101.36","","","","-33","","Mainly Clear"
"-85.81","79.99","EUREKA A","2401203","2019-01-06 01:00","2019","01","06","01:00","-25.3","","-28.3","","76","","","","16","","14","","24.1","","101.45","","","","-35","","NA"
"-85.81","79.99","EUREKA A","2401203","2019-01-06 02:00","2019","01","06","02:00","-25.1","","-28.2","","76","","","","15","","7","","24.1","","101.52","","","","-32","","NA"
"-85.81","79.99","EUREKA A","2401203","2019-01-06 03:00","2019","01","06","03:00","-25.0","","-28.0","","76","","","","15","","10","","24.1","","101.60","","","","-33","","Cloudy"
"-85.81","79.99","EUREKA A","2401203","2019-01-06 04:00","2019","01","06","04:00","-22.5","","-25.4","","78","","","","14","","13","","24.1","","101.65","","","","-31","","NA"
"-85.81","79.99","EUREKA A","2401203","2019-01-06 05:00","2019","01","06","05:00","-22.6","","-25.5","","78","","","","15","","14","","24.1","","101.69","","","","-32","","NA"
"-85.81","79.99","EUREKA A","2401203","2019-01-06 06:00","2019","01","06","06:00","-23.1","","-26.0","","78","","","","18","","5","","24.1","","101.75","","","","-28","","Mainly Clear"
"-85.81","79.99","EUREKA A","2401203","2019-01-06 07:00","2019","01","06","07:00","-23.0","","-25.9","","78","","","","36","","2","","24.1","","101.80","","","","-25","","NA"
"-85.81","79.99","EUREKA A","2401203","2019-01-06 08:00","2019","01","06","08:00","-25.2","","-28.1","","77","","","","7","","3","","24.1","","101.85","","","","-28","","NA"
"-85.81","79.99","EUREKA A","2401203","2019-01-06 09:00","2019","01","06","09:00","-26.5","","-29.5","","76","","","","25","","4","","24.1","","101.87","","","","-31","","Clear"
"-85.81","79.99","EUREKA A","2401203","2019-01-06 10:00","2019","01","06","10:00","-29.6","","-32.9","","74","","","","3","","4","","24.1","","101.90","","","","-34","","NA"
"-85.81","79.99","EUREKA A","2401203","2019-01-06 11:00","2019","01","06","11:00","-27.3","","-30.5","","75","","","","26","","14","","24.1","","101.90","","","","-38","","NA"
"-85.81","79.99","EUREKA A","2401203","2019-01-06 12:00","2019","01","06","12:00","-26.9","","-30.0","","76","","","","31","","8","","24.1","","101.93","","","","-34","","Clear"
"-85.81","79.99","EUREKA A","2401203","2019-01-06 13:00","2019","01","06","13:00","-27.4","","-30.6","","75","","","","31","","11","","24.1","","101.95","","","","-37","","NA"
"-85.81","79.99","EUREKA A","2401203","2019-01-06 14:00","2019","01","06","14:00","-29.9","","-33.2","","74","","","","36","","5","","24.1","","101.94","","","","-36","","NA"
"-85.81","79.99","EUREKA A","2401203","2019-01-06 15:00","2019","01","06","15:00","-30.6","","-34.0","","73","","","","21","","3","","24.1","","101.98","","","","-34","","Clear"
"-85.81","79.99","EUREKA A","2401203","2019-01-06 16:00","2019","01","06","16:00","-31.4","","-34.9","","73","","","","8","","3","","24.1","","102.00","","","","-35","","NA"
"-85.81","79.99","EUREKA A","2401203","2019-01-06 17:00","2019","01","06","17:00","-31.6","","-35.0","","73","","","","35","","5","","24.1","","102.00","","","","-37","","NA"
"-85.81","79.99","EUREKA A","2401203","2019-01-06 18:00","2019","01","06","18:00","-31.5","","-35.0","","72","","","","33","","4","","24.1","","102.01","","","","-36","","Clear"
"-85.81","79.99","EUREKA A","2401203","2019-01-06 19:00","2019","01","06","19:00","-31.5","","-35.0","","72","","","","36","","3","","24.1","","102.02","","","","-35","","NA"
"-85.81","79.99","EUREKA A","2401203","2019-01-06 20:00","2019","01","06","20:00","-30.2","","-33.6","","73","","","","36","","2","","24.1","","102.01","","","","-32","","NA"
"-85.81","79.99","EUREKA A","2401203","2019-01-06 21:00","2019","01","06","21:00","-30.1","","-33.4","","73","","","","36","","1","","24.1","","102.03","","","","-31","","Clear"
"-85.81","79.99","EUREKA A","2401203","2019-01-06 22:00","2019","01","06","22:00"
"-85.81","79.99","EUREKA A","2401203","2019-01-06 23:00","2019","01","06","23:00"
"-85.81","79.99","EUREKA A","2401203","2019-01-07 00:00","2019","01","07","00:00","-33.0","","-36.5","","71","","","","8","","4","","24.1","","102.05","","","","-38","","Clear"
"-85.81","79.99","EUREKA A","2401203","2019-01-07 01:00","2019","01","07","01:00","-33.1","","-36.7","","71","","","","10","","5","","24.1","","102.07","","","","-39","","NA"
"-85.81","79.99","EUREKA A","2401203","2019-01-07 02:00","2019","01","07","02:00","-32.9","","-36.6","","71","","","","7","","4","","24.1","","102.10","","","","-38","","NA"
"-85.81","79.99","EUREKA A","2401203","2019-01-07 03:00","2019","01","07","03:00","-33.9","","-37.5","","71","","","","36","","2","","24.1","","102.13","","","","-36","","Clear"
"-85.81","79.99","EUREKA A","2401203","2019-01-07 04:00","2019","01","07","04:00","-33.1","","-36.7","","71","","","","36","","1","","24.1","","102.15","","","","-34","","NA"
"-85.81","79.99","EUREKA A","2401203","2019-01-07 05:00","2019","01","07","05:00","-31.7","","-35.2","","72","","","","8","","3","","24.1","","102.14","","","","-35","","NA"
"-85.81","79.99","EUREKA A","2401203","2019-01-07 06:00","2019","01","07","06:00","-32.7","","-36.2","","72","","","","5","","5","","24.1","","102.17","","","","-39","","Clear"
"-85.81","79.99","EUREKA A","2401203","2019-01-07 07:00","2019","01","07","07:00","-32.7","","-36.2","","72","","","","17","","4","","24.1","","102.20","","","","-37","","NA"
"-85.81","79.99","EUREKA A","2401203","2019-01-07 08:00","2019","01","07","08:00","-30.8","","-34.3","","72","","","","13","","5","","24.1","","102.20","","","","-37","","Ice Crystals"
"-85.81","79.99","EUREKA A","2401203","2019-01-07 09:00","2019","01","07","09:00","-34.4","","-38.1","","70","","","","7","","4","","24.1","","102.23","","","","-39","","Ice Crystals"
"-85.81","79.99","EUREKA A","2401203","2019-01-07 10:00","2019","01","07","10:00","-33.9","","-37.5","","71","","","","33","","3","","24.1","","102.23","","","","-38","","Ice Crystals"
"-85.81","79.99","EUREKA A","2401203","2019-01-07 11:00","2019","01","07","11:00","-32.9","","-36.5","","71","","","","36","","2","","24.1","","102.25","","","","-35","","NA"
"-85.81","79.99","EUREKA A","2401203","2019-01-07 12:00","2019","01","07","12:00","-32.8","","-36.4","","71","","","","36","","1","","24.1","","102.28","","","","-34","","Clear"
"-85.81","79.99","EUREKA A","2401203","2019-01-07 13:00","2019","01","07","13:00","-33.4","","-37.0","","71","","","","36","","3","","24.1","","102.29","","","","-37","","NA"
"-85.81","79.99","EUREKA A","2401203","2019-01-07 14:00","2019","01","07","14:00","-33.0","","-36.5","","71","","","","36","","1","","24.1","","102.31","","","","-34","","NA"
"-85.81","79.99","EUREKA A","2401203","2019-01-07 15:00","2019","01","07","15:00","-32.8","","-36.5","","71","","","","36","","1","","24.1","","102.31","","","","-34","","Ice Crystals"
"-85.81","79.99","EUREKA A","2401203","2019-01-07 16:00","2019","01","07","16:00","-32.0","","-35.6","","71","","","","10","","6","","24.1","","102.30","","","","-39","","Ice Crystals"
"-85.81","79.99","EUREKA A","2401203","2019-01-07 17:00","2019","01","07","17:00","-35.1","","-38.8","","70","","","","5","","5","","24.1","","102.31","","","","-41","","Ice Crystals"
"-85.81","79.99","EUREKA A","2401203","2019-01-07 18:00","2019","01","07","18:00","-33.8","","-37.5","","70","","","","36","","1","","24.1","","102.28","","","","-35","","Ice Crystals"
"-85.81","79.99","EUREKA A","2401203","2019-01-07 19:00","2019","01","07","19:00","-33.6","","-37.3","","71","","","","36","","3","","24.1","","102.25","","","","-37","","Ice Crystals"
"-85.81","79.99","EUREKA A","2401203","2019-01-07 20:00","2019","01","07","20:00","-34.4","","-38.0","","70","","","","36","","3","","24.1","","102.21","","","","-38","","Ice Crystals"
"-85.81","79.99","EUREKA A","2401203","2019-01-07 21:00","2019","01","07","21:00","-34.8","","-38.5","","70","","","","36","","1","","24.1","","102.16","","","","-36","","Ice Crystals"
"-85.81","79.99","EUREKA A","2401203","2019-01-07 22:00","2019","01","07","22:00"
"-85.81","79.99","EUREKA A","2401203","2019-01-07 23:00","2019","01","07","23:00"
"-85.81","79.99","EUREKA A","2401203","2019-01-08 00:00","2019","01","08","00:00","-35.2","","-38.9","","70","","","","36","","3","","24.1","","101.98","","","","-39","","Ice Crystals"
"-85.81","79.99","EUREKA A","2401203","2019-01-08 01:00","2019","01","08","01:00","-36.0","","-39.8","","69","","","","0","","1","","24.1","","101.96","","","","-37","","Ice Crystals"
"-85.81","79.99","EUREKA A","2401203","2019-01-08 02:00","2019","01","08","02:00","-36.2","","-40.0","","69","","","","30","","3","","16.1","","101.91","","","","-40","","Ice Crystals"
"-85.81","79.99","EUREKA A","2401203","2019-01-08 03:00","2019","01","08","03:00","-37.1","","-40.9","","68","","","","34","","5","","8.1","","101.84","","","","-44","","Ice Crystals"
"-85.81","79.99","EUREKA A","2401203","2019-01-08 04:00","2019","01","08","04:00","-33.5","","-37.3","","70","","","","30","","8","","9.7","","101.78","","","","-42","","Ice Crystals"
"-85.81","79.99","EUREKA A","2401203","2019-01-08 05:00","2019","01","08","05:00","-34.2","","-37.9","","70","","","","1","","7","","9.7","","101.73","","","","-42","","Ice Crystals"
"-85.81","79.99","EUREKA A","2401203","2019-01-08 06:00","2019","01","08","06:00","-33.9","","-37.6","","70","","","","36","","3","","6.4","","101.66","","","","-38","","Ice Crystals"
"-85.81","79.99","EUREKA A","2401203","2019-01-08 07:00","2019","01","08","07:00","-32.4","","-36.0","","71","","","","25","","17","","9.7","","101.57","","","","-45","","Ice Crystals"
"-85.81","79.99","EUREKA A","2401203","2019-01-08 08:00","2019","01","08","08:00","-30.9","","-34.4","","72","","","","30","","13","","6.4","","101.48","","","","-42","","Ice Crystals"
"-85.81","79.99","EUREKA A","2401203","2019-01-08 09:00","2019","01","08","09:00","-30.3","","-33.8","","72","","","","32","","19","","6.4","","101.44","","","","-43","","Ice Crystals,Blowing Snow"
"-85.81","79.99","EUREKA A","2401203","2019-01-08 10:00","2019","01","08","10:00","-30.5","","-33.9","","73","","","","28","","29","","4.8","","101.37","","","","-46","","Blowing Snow"
"-85.81","79.99","EUREKA A","2401203","2019-01-08 11:00","2019","01","08","11:00","-32.0","","-35.5","","72","","","","27","","35","","4.8","","101.31","","","","-49","","Blowing Snow"
"-85.81","79.99","EUREKA A","2401203","2019-01-08 12:00","2019","01","08","12:00","-31.8","","-35.3","","72","","","","27","","34","","4.0","","101.28","","","","-49","","Blowing Snow"
"-85.81","79.99","EUREKA A","2401203","2019-01-08 13:00","2019","01","08","13:00","-32.0","","-35.5","","71","","","","27","","26","","4.8","","101.21","","","","-47","","Blowing Snow"
"-85.81","79.99","EUREKA A","2401203","2019-01-08 14:00","2019","01","08","14:00","-31.2","","-34.7","","72","","","","28","","24","","4.8","","101.20","","","","-46","","Blowing Snow"
"-85.81","79.99","EUREKA A","2401203","2019-01-08 15:00","2019","01","08","15:00","-32.3","","-35.8","","71","","","","27","","34","","4.8","","101.18","","","","-49","","Blowing Snow"
"-85.81","79.99","EUREKA A","2401203","2019-01-08 16:00","2019","01","08","16:00","-32.9","","-36.5","","71","","","","27","","31","","4.8","","101.15","","","","-50","","Blowing Snow"
"-85.81","79.99","EUREKA A","2401203","2019-01-08 17:00","2019","01","08","17:00","-31.4","","-35.0","","71","","","","27","","34","","4.8","","101.11","","","","-48","","Blowing Snow"
"-85.81","79.99","EUREKA A","2401203","2019-01-08 18:00","2019","01","08","18:00","-32.1","","-35.6","","71","","","","28","","29","","6.4","","101.07","","","","-48","","Blowing Snow"
"-85.81","79.99","EUREKA A","2401203","2019-01-08 19:00","2019","01","08","19:00","-33.6","","-37.2","","70","","","","29","","13","","24.1","","101.03","","","","-45","","Blowing Snow"
"-85.81","79.99","EUREKA A","2401203","2019-01-08 20:00","2019","01","08","20:00","-33.9","","-37.6","","70","","","","36","","2","","24.1","","101.02","","","","-36","","NA"
"-85.81","79.99","EUREKA A","2401203","2019-01-08 21:00","2019","01","08","21:00","-35.0","","-38.8","","70","","","","20","","4","","24.1","","100.95","","","","-40","","Blowing Snow"
"-85.81","79.99","EUREKA A","2401203","2019-01-08 22:00","2019","01","08","22:00"
"-85.81","79.99","EUREKA A","2401203","2019-01-08 23:00","2019","01","08","23:00"
"-85.81","79.99","EUREKA A","2401203","2019-01-09 00:00","2019","01","09","00:00","-32.9","","-36.6","","71","","","","19","","8","","24.1","","100.93","","","","-41","","Ice Crystals"
"-85.81","79.99","EUREKA A","2401203","2019-01-09 01:00","2019","01","09","01:00","-32.4","","-36.0","","71","","","","34","","5","","24.1","","100.93","","","","-38","","Ice Crystals"
"-85.81","79.99","EUREKA A","2401203","2019-01-09 02:00","2019","01","09","02:00","-32.4","","-36.0","","71","","","","36","","2","","24.1","","100.97","","","","-35","","Ice Crystals"
"-85.81","79.99","EUREKA A","2401203","2019-01-09 03:00","2019","01","09","03:00","-32.2","","-35.8","","71","","","","24","","4","","24.1","","101.02","","","","-37","","Ice Crystals"
"-85.81","79.99","EUREKA A","2401203","2019-01-09 04:00","2019","01","09","04:00","-35.7","","-39.5","","69","","","","21","","5","","24.1","","101.07","","","","-42","","Ice Crystals"
"-85.81","79.99","EUREKA A","2401203","2019-01-09 05:00","2019","01","09","05:00","-34.6","","-38.3","","70","","","","36","","3","","24.1","","101.13","","","","-38","","Ice Crystals"
"-85.81","79.99","EUREKA A","2401203","2019-01-09 06:00","2019","01","09","06:00","-36.8","","-40.6","","69","","","","13","","9","","24.1","","101.23","","","","-47","","Ice Crystals"
"-85.81","79.99","EUREKA A","2401203","2019-01-09 07:00","2019","01","09","07:00","-36.6","","-40.5","","69","","","","18","","6","","24.1","","101.31","","","","-44","","Ice Crystals"
"-85.81","79.99","EUREKA A","2401203","2019-01-09 08:00","2019","01","09","08:00","-38.2","","-42.1","","68","","","","8","","8","","24.1","","101.41","","","","-48","","Ice Crystals"
"-85.81","79.99","EUREKA A","2401203","2019-01-09 09:00","2019","01","09","09:00","-36.0","","-39.8","","69","","","","12","","6","","24.1","","101.49","","","","-43","","Ice Crystals"
"-85.81","79.99","EUREKA A","2401203","2019-01-09 10:00","2019","01","09","10:00","-38.2","","-42.1","","68","","","","12","","10","","24.1","","101.58","","","","-49","","Ice Crystals"
"-85.81","79.99","EUREKA A","2401203","2019-01-09 11:00","2019","01","09","11:00","-38.6","","-42.6","","67","","","","8","","8","","24.1","","101.70","","","","-48","","Ice Crystals"
"-85.81","79.99","EUREKA A","2401203","2019-01-09 12:00","2019","01","09","12:00","-39.1","","-43.0","","67","","","","7","","5","","24.1","","101.83","","","","-46","","Ice Crystals"
"-85.81","79.99","EUREKA A","2401203","2019-01-09 13:00","2019","01","09","13:00","-37.9","","-41.8","","68","","","","4","","4","","24.1","","101.95","","","","-43","","Ice Crystals"
"-85.81","79.99","EUREKA A","2401203","2019-01-09 14:00","2019","01","09","14:00","-36.6","","-40.5","","68","","","","10","","4","","24.1","","102.07","","","","-42","","Ice Crystals"
"-85.81","79.99","EUREKA A","2401203","2019-01-09 15:00","2019","01","09","15:00","-38.8","","-42.7","","68","","","","8","","4","","24.1","","102.18","","","","-44","","Ice Crystals"
"-85.81","79.99","EUREKA A","2401203","2019-01-09 16:00","2019","01","09","16:00","-37.5","","-41.5","","68","","","","36","","2","","24.1","","102.30","","","","-40","","Ice Crystals"
"-85.81","79.99","EUREKA A","2401203","2019-01-09 17:00","2019","01","09","17:00","-39.1","","-43.1","","67","","","","36","","3","","24.1","","102.45","","","","-43","","Ice Crystals"
"-85.81","79.99","EUREKA A","2401203","2019-01-09 18:00","2019","01","09","18:00","-38.2","","-42.2","","67","","","","36","","2","","24.1","","102.54","","","","-41","","Ice Crystals"
"-85.81","79.99","EUREKA A","2401203","2019-01-09 19:00","2019","01","09","19:00","-38.3","","-42.3","","67","","","","36","","2","","24.1","","102.62","","","","-41","","Ice Crystals"
"-85.81","79.99","EUREKA A","2401203","2019-01-09 20:00","2019","01","09","20:00","-38.7","","-42.6","","67","","","","15","","5","","24.1","","102.73","","","","-45","","Ice Crystals"
"-85.81","79.99","EUREKA A","2401203","2019-01-09 21:00","2019","01","09","21:00","-39.8","","-43.8","","67","","","","6","","6","","24.1","","102.82","","","","-48","","Ice Crystals"
"-85.81","79.99","EUREKA A","2401203","2019-01-09 22:00","2019","01","09","22:00"
"-85.81","79.99","EUREKA A","2401203","2019-01-09 23:00","2019","01","09","23:00"
"-85.81","79.99","EUREKA A","2401203","2019-01-10 00:00","2019","01","10","00:00","-39.5","","-43.5","","67","","","","36","","3","","24.1","","103.06","","","","-44","","Ice Crystals"
"-85.81","79.99","EUREKA A","2401203","2019-01-10 01:00","2019","01","10","01:00","-38.1","","-42.1","","67","","","","23","","4","","24.1","","103.14","","","","-43","","Ice Crystals"
"-85.81","79.99","EUREKA A","2401203","2019-01-10 02:00","2019","01","10","02:00","-39.2","","-43.3","","67","","","","12","","4","","24.1","","103.22","","","","-45","","Ice Crystals"
"-85.81","79.99","EUREKA A","2401203","2019-01-10 03:00","2019","01","10","03:00","-40.0","","-44.1","","66","","","","11","","3","","24.1","","103.26","","","","-44","","Ice Crystals"
"-85.81","79.99","EUREKA A","2401203","2019-01-10 04:00","2019","01","10","04:00","-40.5","","-44.6","","66","","","","36","","2","","24.1","","103.34","","","","-43","","Ice Crystals"
"-85.81","79.99","EUREKA A","2401203","2019-01-10 05:00","2019","01","10","05:00","-40.1","","-44.1","","66","","","","36","","3","","24.1","","103.37","","","","-44","","Ice Crystals"
"-85.81","79.99","EUREKA A","2401203","2019-01-10 06:00","2019","01","10","06:00","-39.9","","-43.9","","66","","","","36","","3","","24.1","","103.39","","","","-44","","Ice Crystals"
"-85.81","79.99","EUREKA A","2401203","2019-01-10 07:00","2019","01","10","07:00","-39.4","","-43.5","","66","","","","36","","2","","24.1","","103.40","","","","-42","","Ice Crystals"
"-85.81","79.99","EUREKA A","2401203","2019-01-10 08:00","2019","01","10","08:00","-39.7","","-43.7","","67","","","","36","","2","","24.1","","103.43","","","","-42","","Ice Crystals"
"-85.81","79.99","EUREKA A","2401203","2019-01-10 09:00","2019","01","10","09:00","-38.6","","-42.6","","67","","","","36","","1","","24.1","","103.43","","","","-40","","Ice Crystals"
"-85.81","79.99","EUREKA A","2401203","2019-01-10 10:00","2019","01","10","10:00","-40.0","","-44.1","","66","","","","14","","3","","24.1","","103.46","","","","-44","","Ice Crystals"
"-85.81","79.99","EUREKA A","2401203","2019-01-10 11:00","2019","01","10","11:00","-39.4","","-43.5","","66","","","","9","","3","","24.1","","103.46","","","","-44","","Ice Crystals"
"-85.81","79.99","EUREKA A","2401203","2019-01-10 12:00","2019","01","10","12:00","-39.4","","-43.4","","66","","","","14","","6","","24.1","","103.47","","","","-47","","Ice Crystals"
"-85.81","79.99","EUREKA A","2401203","2019-01-10 13:00","2019","01","10","13:00","-40.0","","-44.0","","66","","","","12","","4","","24.1","","103.48","","","","-46","","Ice Crystals"
"-85.81","79.99","EUREKA A","2401203","2019-01-10 14:00","2019","01","10","14:00","-39.3","","-43.4","","66","","","","6","","3","","24.1","","103.48","","","","-43","","Ice Crystals"
"-85.81","79.99","EUREKA A","2401203","2019-01-10 15:00","2019","01","10","15:00","-38.2","","-42.3","","67","","","","36","","1","","16.1","","103.47","","","","-40","","Snow"
"-85.81","79.99","EUREKA A","2401203","2019-01-10 16:00","2019","01","10","16:00","-38.7","","-42.7","","67","","","","36","","1","","9.7","","103.46","","","","-40","","Snow"
"-85.81","79.99","EUREKA A","2401203","2019-01-10 17:00","2019","01","10","17:00","-39.1","","-43.1","","67","","","","24","","4","","24.1","","103.45","","","","-45","","Snow"
"-85.81","79.99","EUREKA A","2401203","2019-01-10 18:00","2019","01","10","18:00","-39.9","","-44.0","","66","","","","36","","2","","24.1","","103.43","","","","-43","","Snow"
"-85.81","79.99","EUREKA A","2401203","2019-01-10 19:00","2019","01","10","19:00","-39.4","","-43.5","","66","","","","36","","2","","24.1","","103.40","","","","-42","","Snow"
"-85.81","79.99","EUREKA A","2401203","2019-01-10 20:00","2019","01","10","20:00","-39.6","","-43.6","","66","","","","30","","3","","24.1","","103.36","","","","-44","","Ice Crystals"
"-85.81","79.99","EUREKA A","2401203","2019-01-10 21:00","2019","01","10","21:00","-39.9","","-44.0","","66","","","","32","","4","","24.1","","103.33","","","","-45","","Ice Crystals"
"-85.81","79.99","EUREKA A","2401203","2019-01-10 22:00","2019","01","10","22:00"
"-85.81","79.99","EUREKA A","2401203","2019-01-10 23:00","2019","01","10","23:00"
"-85.81","79.99","EUREKA A","2401203","2019-01-11 00:00","2019","01","11","00:00","-40.8","","-44.9","","66","","","","36","","2","","24.1","","103.27","","","","-44","","Ice Crystals"
"-85.81","79.99","EUREKA A","2401203","2019-01-11 01:00","2019","01","11","01:00","-40.6","","-44.8","","66","","","","13","","9","","24.1","","103.25","","","","-51","","Ice Crystals"
"-85.81","79.99","EUREKA A","2401203","2019-01-11 02:00","2019","01","11","02:00","-40.1","","-44.2","","66","","","","13","","9","","24.1","","103.24","","","","-51","","Ice Crystals"
"-85.81","79.99","EUREKA A","2401203","2019-01-11 03:00","2019","01","11","03:00","-40.4","","-44.5","","66","","","","5","","4","","24.1","","103.25","","","","-46","","Ice Crystals"
"-85.81","79.99","EUREKA A","2401203","2019-01-11 04:00","2019","01","11","04:00","-40.6","","-44.8","","66","","","","36","","1","","24.1","","103.24","","","","-42","","Ice Crystals"
"-85.81","79.99","EUREKA A","2401203","2019-01-11 05:00","2019","01","11","05:00","-39.9","","-44.0","","66","","","","12","","5","","12.9","","103.20","","","","-47","","Ice Crystals"
"-85.81","79.99","EUREKA A","2401203","2019-01-11 06:00","2019","01","11","06:00","-39.7","","-43.8","","66","","","","13","","5","","9.7","","103.18","","","","-47","","Snow"
"-85.81","79.99","EUREKA A","2401203","2019-01-11 07:00","2019","01","11","07:00","-38.6","","-42.6","","67","","","","36","","2","","9.7","","103.19","","","","-41","","Snow"
"-85.81","79.99","EUREKA A","2401203","2019-01-11 08:00","2019","01","11","08:00","-38.3","","-42.3","","67","","","","11","","4","","9.7","","103.20","","","","-44","","Snow"
"-85.81","79.99","EUREKA A","2401203","2019-01-11 09:00","2019","01","11","09:00","-37.9","","-41.9","","67","","","","33","","4","","19.3","","103.21","","","","-43","","Snow"
"-85.81","79.99","EUREKA A","2401203","2019-01-11 10:00","2019","01","11","10:00","-36.9","","-40.9","","68","","","","36","","1","","24.1","","103.23","","","","-38","","Snow"
"-85.81","79.99","EUREKA A","2401203","2019-01-11 11:00","2019","01","11","11:00","-37.8","","-41.8","","67","","","","36","","3","","24.1","","103.23","","","","-42","","Ice Crystals"
"-85.81","79.99","EUREKA A","2401203","2019-01-11 12:00","2019","01","11","12:00","-38.0","","-42.0","","67","","","","14","","9","","24.1","","103.26","","","","-48","","Ice Crystals"
"-85.81","79.99","EUREKA A","2401203","2019-01-11 13:00","2019","01","11","13:00","-38.5","","-42.5","","67","","","","8","","4","","24.1","","103.28","","","","-44","","Ice Crystals"
"-85.81","79.99","EUREKA A","2401203","2019-01-11 14:00","2019","01","11","14:00","-39.4","","-43.4","","67","","","","6","","5","","24.1","","103.31","","","","-46","","Ice Crystals"
"-85.81","79.99","EUREKA A","2401203","2019-01-11 15:00","2019","01","11","15:00","-38.4","","-42.4","","67","","","","8","","4","","24.1","","103.33","","","","-44","","Ice Crystals"
"-85.81","79.99","EUREKA A","2401203","2019-01-11 16:00","2019","01","11","16:00","-38.9","","-42.9","","67","","","","36","","1","","24.1","","103.35","","","","-40","","Ice Crystals"
"-85.81","79.99","EUREKA A","2401203","2019-01-11 17:00","2019","01","11","17:00","-39.6","","-43.6","","66","","","","10","","3","","24.1","","103.38","","","","-44","","Ice Crystals"
"-85.81","79.99","EUREKA A","2401203","2019-01-11 18:00","2019","01","11","18:00","-40.0","","-44.0","","66","","","","10","","4","","24.1","","103.36","","","","-46","","Ice Crystals"
"-85.81","79.99","EUREKA A","2401203","2019-01-11 19:00","2019","01","11","19:00","-38.6","","-42.6","","67","","","","36","","2","","24.1","","103.35","","","","-41","","Ice Crystals"
"-85.81","79.99","EUREKA A","2401203","2019-01-11 20:00","2019","01","11","20:00","-40.9","","-45.0","","66","","","","13","","10","","24.1","","103.35","","","","-52","","Ice Crystals"
"-85.81","79.99","EUREKA A","2401203","2019-01-11 21:00","2019","01","11","21:00","-41.5","","-45.7","","65","","","","11","","9","","24.1","","103.33","","","","-52","","Ice Crystals"
"-85.81","79.99","EUREKA A","2401203","2019-01-11 22:00","2019","01","11","22:00"
"-85.81","79.99","EUREKA A","2401203","2019-01-11 23:00","2019","01","11","23:00"
"-85.81","79.99","EUREKA A","2401203","2019-01-12 00:00","2019","01","12","00:00","-40.6","","-44.8","","65","","","","36","","2","","24.1","","103.28","","","","-43","","Ice Crystals"
"-85.81","79.99","EUREKA A","2401203","2019-01-12 01:00","2019","01","12","01:00","-42.0","","-46.2","","65","","","","17","","5","","24.1","","103.26","","","","-49","","Ice Crystals"
"-85.81","79.99","EUREKA A","2401203","2019-01-12 02:00","2019","01","12","02:00","-40.4","","-44.6","","65","","","","12","","5","","24.1","","103.24","","","","-47","","Ice Crystals"
"-85.81","79.99","EUREKA A","2401203","2019-01-12 03:00","2019","01","12","03:00","-43.2","","-47.4","","64","","","","7","","4","","24.1","","103.20","","","","-49","","Ice Crystals"
"-85.81","79.99","EUREKA A","2401203","2019-01-12 04:00","2019","01","12","04:00","-43.2","","-47.4","","64","","","","36","","1","","24.1","","103.17","","","","-45","","Ice Crystals"
"-85.81","79.99","EUREKA A","2401203","2019-01-12 05:00","2019","01","12","05:00","-40.3","","-44.4","","66","","","","36","","1","","16.1","","103.12","","","","-42","","Ice Crystals"
"-85.81","79.99","EUREKA A","2401203","2019-01-12 06:00","2019","01","12","06:00","-42.0","","-46.2","","65","","","","13","","3","","16.1","","103.05","","","","-46","","Ice Crystals"
"-85.81","79.99","EUREKA A","2401203","2019-01-12 07:00","2019","01","12","07:00","-41.9","","-46.1","","65","","","","36","","1","","8.1","","103.00","","","","-43","","Ice Crystals"
"-85.81","79.99","EUREKA A","2401203","2019-01-12 08:00","2019","01","12","08:00","-42.6","","-46.8","","64","","","","9","","3","","8.1","","102.98","","","","-47","","Ice Crystals"
"-85.81","79.99","EUREKA A","2401203","2019-01-12 09:00","2019","01","12","09:00","-43.0","","-47.2","","64","","","","36","","4","","8.1","","102.94","","","","-49","","Ice Crystals"
"-85.81","79.99","EUREKA A","2401203","2019-01-12 10:00","2019","01","12","10:00","-41.8","","-46.0","","65","","","","36","","3","","16.1","","102.89","","","","-46","","Ice Crystals"
"-85.81","79.99","EUREKA A","2401203","2019-01-12 11:00","2019","01","12","11:00","-42.1","","-46.3","","65","","","","7","","4","","24.1","","102.85","","","","-48","","Ice Crystals"
"-85.81","79.99","EUREKA A","2401203","2019-01-12 12:00","2019","01","12","12:00","-42.3","","-46.5","","64","","","","30","","4","","16.1","","102.82","","","","-48","","Ice Crystals"
"-85.81","79.99","EUREKA A","2401203","2019-01-12 13:00","2019","01","12","13:00","-42.3","","-46.6","","64","","","","6","","5","","16.1","","102.81","","","","-50","","Ice Crystals"
"-85.81","79.99","EUREKA A","2401203","2019-01-12 14:00","2019","01","12","14:00","-42.5","","-46.8","","64","","","","9","","4","","16.1","","102.79","","","","-48","","Ice Crystals"
"-85.81","79.99","EUREKA A","2401203","2019-01-12 15:00","2019","01","12","15:00","-41.5","","-45.8","","65","","","","10","","4","","16.1","","102.79","","","","-47","","Ice Crystals"
"-85.81","79.99","EUREKA A","2401203","2019-01-12 16:00","2019","01","12","16:00","-41.2","","-45.5","","65","","","","36","","1","","9.7","","102.77","","","","-43","","Ice Crystals"
"-85.81","79.99","EUREKA A","2401203","2019-01-12 17:00","2019","01","12","17:00","-41.8","","-46.0","","65","","","","15","","10","","9.7","","102.78","","","","-53","","Ice Crystals"
"-85.81","79.99","EUREKA A","2401203","2019-01-12 18:00","2019","01","12","18:00","-41.9","","-46.1","","65","","","","13","","11","","9.7","","102.77","","","","-54","","Ice Crystals"
"-85.81","79.99","EUREKA A","2401203","2019-01-12 19:00","2019","01","12","19:00","-42.4","","-46.6","","64","","","","8","","5","","9.7","","102.76","","","","-50","","Ice Crystals"
"-85.81","79.99","EUREKA A","2401203","2019-01-12 20:00","2019","01","12","20:00","-41.6","","-45.9","","65","","","","7","","6","","24.1","","102.77","","","","-50","","Ice Crystals"
"-85.81","79.99","EUREKA A","2401203","2019-01-12 21:00","2019","01","12","21:00","-41.4","","-45.7","","65","","","","12","","3","","24.1","","102.78","","","","-46","","Ice Crystals"
"-85.81","79.99","EUREKA A","2401203","2019-01-12 22:00","2019","01","12","22:00"
"-85.81","79.99","EUREKA A","2401203","2019-01-12 23:00","2019","01","12","23:00"
"-85.81","79.99","EUREKA A","2401203","2019-01-13 00:00","2019","01","13","00:00","-40.7","","-44.9","","65","","","","13","","5","","16.1","","102.76","","","","-48","","Ice Crystals"
"-85.81","79.99","EUREKA A","2401203","2019-01-13 01:00","2019","01","13","01:00","-40.8","","-45.0","","65","","","","11","","4","","16.1","","102.78","","","","-46","","Ice Crystals"
"-85.81","79.99","EUREKA A","2401203","2019-01-13 02:00","2019","01","13","02:00","-42.1","","-46.4","","65","","","","5","","7","","24.1","","102.79","","","","-51","","Ice Crystals"
"-85.81","79.99","EUREKA A","2401203","2019-01-13 03:00","2019","01","13","03:00","-40.9","","-45.1","","65","","","","13","","4","","19.3","","102.82","","","","-47","","Ice Crystals"
"-85.81","79.99","EUREKA A","2401203","2019-01-13 04:00","2019","01","13","04:00","-40.5","","-44.7","","65","","","","13","","10","","24.1","","102.83","","","","-52","","Ice Crystals"
"-85.81","79.99","EUREKA A","2401203","2019-01-13 05:00","2019","01","13","05:00","-41.4","","-45.5","","65","","","","36","","2","","16.1","","102.83","","","","-44","","Ice Crystals"
"-85.81","79.99","EUREKA A","2401203","2019-01-13 06:00","2019","01","13","06:00","-40.6","","-44.9","","65","","","","36","","1","","24.1","","102.85","","","","-42","","Ice Crystals"
"-85.81","79.99","EUREKA A","2401203","2019-01-13 07:00","2019","01","13","07:00","-39.4","","-43.6","","66","","","","14","","6","","24.1","","102.83","","","","-47","","Ice Crystals"
"-85.81","79.99","EUREKA A","2401203","2019-01-13 08:00","2019","01","13","08:00","-41.8","","-46.0","","65","","","","7","","4","","24.1","","102.80","","","","-48","","Ice Crystals"
"-85.81","79.99","EUREKA A","2401203","2019-01-13 09:00","2019","01","13","09:00","-40.7","","-44.9","","65","","","","","","0","","24.1","","102.83","","","","","","Ice Crystals"
"-85.81","79.99","EUREKA A","2401203","2019-01-13 10:00","2019","01","13","10:00","-41.1","","-45.3","","65","","","","12","","4","","24.1","","102.84","","","","-47","","Ice Crystals"
"-85.81","79.99","EUREKA A","2401203","2019-01-13 11:00","2019","01","13","11:00","-41.8","","-46.0","","65","","","","6","","4","","24.1","","102.83","","","","-48","","Ice Crystals"
"-85.81","79.99","EUREKA A","2401203","2019-01-13 12:00","2019","01","13","12:00","-40.4","","-44.6","","65","","","","36","","3","","24.1","","102.82","","","","-45","","Ice Crystals"
"-85.81","79.99","EUREKA A","2401203","2019-01-13 13:00","2019","01","13","13:00","-40.6","","-44.8","","65","","","","14","","5","","24.1","","102.81","","","","-48","","Ice Crystals"
"-85.81","79.99","EUREKA A","2401203","2019-01-13 14:00","2019","01","13","14:00","-41.0","","-45.1","","65","","","","36","","1","","24.1","","102.82","","","","-42","","Ice Crystals"
"-85.81","79.99","EUREKA A","2401203","2019-01-13 15:00","2019","01","13","15:00","-41.2","","-45.4","","65","","","","10","","4","","24.1","","102.85","","","","-47","","Ice Crystals"
"-85.81","79.99","EUREKA A","2401203","2019-01-13 16:00","2019","01","13","16:00","-41.2","","-45.4","","65","","","","7","","3","","24.1","","102.84","","","","-45","","Ice Crystals"
"-85.81","79.99","EUREKA A","2401203","2019-01-13 17:00","2019","01","13","17:00","-39.9","","-44.0","","66","","","","29","","5","","24.1","","102.86","","","","-47","","Ice Crystals"
"-85.81","79.99","EUREKA A","2401203","2019-01-13 18:00","2019","01","13","18:00","-41.2","","-45.4","","65","","","","28","","3","","24.1","","102.85","","","","-45","","Ice Crystals"
"-85.81","79.99","EUREKA A","2401203","2019-01-13 19:00","2019","01","13","19:00","-40.4","","-44.5","","65","","","","36","","2","","24.1","","102.83","","","","-43","","Ice Crystals"
"-85.81","79.99","EUREKA A","2401203","2019-01-13 20:00","2019","01","13","20:00","-41.1","","-45.3","","65","","","","7","","5","","16.1","","102.82","","","","-48","","Ice Crystals"
"-85.81","79.99","EUREKA A","2401203","2019-01-13 21:00","2019","01","13","21:00","-41.4","","-45.6","","65","","","","13","","9","","19.3","","102.79","","","","-52","","Ice Crystals"
"-85.81","79.99","EUREKA A","2401203","2019-01-13 22:00","2019","01","13","22:00"
"-85.81","79.99","EUREKA A","2401203","2019-01-13 23:00","2019","01","13","23:00"
"-85.81","79.99","EUREKA A","2401203","2019-01-14 00:00","2019","01","14","00:00","-40.2","","-44.4","","65","","","","5","","6","","24.1","","102.69","","","","-48","","Ice Crystals"
"-85.81","79.99","EUREKA A","2401203","2019-01-14 01:00","2019","01","14","01:00","-40.2","","-44.4","","66","","","","6","","4","","24.1","","102.66","","","","-46","","Ice Crystals"
"-85.81","79.99","EUREKA A","2401203","2019-01-14 02:00","2019","01","14","02:00","-39.3","","-43.5","","66","","","","36","","2","","24.1","","102.59","","","","-42","","Ice Crystals"
"-85.81","79.99","EUREKA A","2401203","2019-01-14 03:00","2019","01","14","03:00","-39.4","","-43.5","","66","","","","9","","7","","9.7","","102.54","","","","-48","","Ice Crystals"
"-85.81","79.99","EUREKA A","2401203","2019-01-14 04:00","2019","01","14","04:00","-39.9","","-44.1","","66","","","","15","","5","","8.1","","102.50","","","","-47","","Ice Crystals"
"-85.81","79.99","EUREKA A","2401203","2019-01-14 05:00","2019","01","14","05:00","-39.4","","-43.5","","66","","","","15","","13","","1.6","","102.42","","","","-52","","Snow"
"-85.81","79.99","EUREKA A","2401203","2019-01-14 06:00","2019","01","14","06:00","-37.6","","-41.7","","67","","","","13","","14","","2.0","","102.37","","","","-50","","Snow"
"-85.81","79.99","EUREKA A","2401203","2019-01-14 07:00","2019","01","14","07:00","-37.0","","-41.0","","67","","","","14","","5","","2.4","","102.33","","","","-44","","Snow"
"-85.81","79.99","EUREKA A","2401203","2019-01-14 08:00","2019","01","14","08:00","-35.6","","-39.6","","68","","","","13","","15","","2.0","","102.29","","","","-48","","Snow"
"-85.81","79.99","EUREKA A","2401203","2019-01-14 09:00","2019","01","14","09:00","-36.8","","-40.8","","68","","","","16","","14","","2.0","","102.26","","","","-49","","Snow"
"-85.81","79.99","EUREKA A","2401203","2019-01-14 10:00","2019","01","14","10:00","-36.7","","-40.6","","68","","","","27","","6","","2.4","","102.28","","","","-44","","Snow"
"-85.81","79.99","EUREKA A","2401203","2019-01-14 11:00","2019","01","14","11:00","-36.7","","-40.7","","68","","","","23","","4","","2.4","","102.25","","","","-42","","Ice Crystals"
"-85.81","79.99","EUREKA A","2401203","2019-01-14 12:00","2019","01","14","12:00","-36.7","","-40.7","","68","","","","33","","9","","4.0","","102.19","","","","-47","","Ice Crystals"
"-85.81","79.99","EUREKA A","2401203","2019-01-14 13:00","2019","01","14","13:00","-38.1","","-42.2","","67","","","","1","","3","","4.8","","102.16","","","","-42","","Ice Crystals"
"-85.81","79.99","EUREKA A","2401203","2019-01-14 14:00","2019","01","14","14:00","-38.2","","-42.2","","67","","","","13","","9","","4.8","","102.14","","","","-48","","Ice Crystals"
"-85.81","79.99","EUREKA A","2401203","2019-01-14 15:00","2019","01","14","15:00","-38.8","","-42.9","","66","","","","11","","7","","16.1","","102.10","","","","-48","","Ice Crystals"
"-85.81","79.99","EUREKA A","2401203","2019-01-14 16:00","2019","01","14","16:00","-34.6","","-38.6","","68","","","","29","","6","","16.1","","102.07","","","","-42","","Ice Crystals"
"-85.81","79.99","EUREKA A","2401203","2019-01-14 17:00","2019","01","14","17:00","-33.3","","-37.1","","69","","","","35","","9","","8.1","","102.08","","","","-43","","Ice Crystals"
"-85.81","79.99","EUREKA A","2401203","2019-01-14 18:00","2019","01","14","18:00","-30.7","","-34.4","","71","","","","27","","9","","16.1","","102.04","","","","-39","","Ice Crystals"
"-85.81","79.99","EUREKA A","2401203","2019-01-14 19:00","2019","01","14","19:00","-28.1","","-31.5","","73","","","","36","","43","","9.7","","102.01","","","","-45","","Ice Crystals"
"-85.81","79.99","EUREKA A","2401203","2019-01-14 20:00","2019","01","14","20:00","-28.7","","-32.1","","73","","","","35","","43","","1.6","","102.03","","","","-46","","Blowing Snow"
"-85.81","79.99","EUREKA A","2401203","2019-01-14 21:00","2019","01","14","21:00","-27.7","","-31.1","","73","","","","36","","45","","2.4","","102.11","","","","-45","","Ice Crystals"
"-85.81","79.99","EUREKA A","2401203","2019-01-14 22:00","2019","01","14","22:00"
"-85.81","79.99","EUREKA A","2401203","2019-01-14 23:00","2019","01","14","23:00"
"-85.81","79.99","EUREKA A","2401203","2019-01-15 00:00","2019","01","15","00:00","-28.1","","-31.4","","74","","","","36","","49","","16.1","","102.11","","","","-46","","Ice Crystals,Blowing Snow"
"-85.81","79.99","EUREKA A","2401203","2019-01-15 01:00","2019","01","15","01:00","-27.3","","-30.6","","74","","","","36","","37","","16.1","","102.13","","","","-43","","Ice Crystals,Blowing Snow"
"-85.81","79.99","EUREKA A","2401203","2019-01-15 02:00","2019","01","15","02:00","-27.6","","-30.9","","75","","","","36","","35","","2.4","","102.12","","","","-43","","Blowing Snow"
"-85.81","79.99","EUREKA A","2401203","2019-01-15 03:00","2019","01","15","03:00","-26.5","","-29.8","","74","","","","1","","44","","2.4","","102.20","","","","-43","","Blowing Snow"
"-85.81","79.99","EUREKA A","2401203","2019-01-15 04:00","2019","01","15","04:00","-29.7","","-33.1","","73","","","","29","","37","","2.4","","102.21","","","","-47","","Blowing Snow"
"-85.81","79.99","EUREKA A","2401203","2019-01-15 05:00","2019","01","15","05:00","-28.8","","-32.3","","73","","","","29","","25","","2.4","","102.16","","","","-43","","Blowing Snow"
"-85.81","79.99","EUREKA A","2401203","2019-01-15 06:00","2019","01","15","06:00","-29.6","","-33.1","","73","","","","28","","32","","2.4","","102.15","","","","-46","","Blowing Snow"
"-85.81","79.99","EUREKA A","2401203","2019-01-15 07:00","2019","01","15","07:00","-30.2","","-33.7","","72","","","","31","","20","","2.4","","102.16","","","","-43","","Blowing Snow"
"-85.81","79.99","EUREKA A","2401203","2019-01-15 08:00","2019","01","15","08:00","-29.3","","-32.8","","73","","","","26","","23","","2.4","","102.16","","","","-43","","Blowing Snow"
"-85.81","79.99","EUREKA A","2401203","2019-01-15 09:00","2019","01","15","09:00","-30.5","","-34.0","","72","","","","27","","36","","2.4","","102.17","","","","-47","","Blowing Snow"
"-85.81","79.99","EUREKA A","2401203","2019-01-15 10:00","2019","01","15","10:00","-29.4","","-32.8","","73","","","","28","","27","","1.6","","102.09","","","","-44","","Blowing Snow"
"-85.81","79.99","EUREKA A","2401203","2019-01-15 11:00","2019","01","15","11:00","-29.4","","-32.8","","73","","","","28","","23","","1.6","","102.01","","","","-43","","Blowing Snow"
"-85.81","79.99","EUREKA A","2401203","2019-01-15 12:00","2019","01","15","12:00","-29.4","","-32.9","","73","","","","29","","22","","2.4","","102.04","","","","-43","","Blowing Snow"
"-85.81","79.99","EUREKA A","2401203","2019-01-15 13:00","2019","01","15","13:00","-27.5","","-30.8","","74","","","","30","","23","","1.6","","102.06","","","","-41","","Blowing Snow"
"-85.81","79.99","EUREKA A","2401203","2019-01-15 14:00","2019","01","15","14:00","-27.6","","-31.0","","74","","","","30","","28","","3.2","","102.01","","","","-42","","Ice Crystals,Blowing Snow"
"-85.81","79.99","EUREKA A","2401203","2019-01-15 15:00","2019","01","15","15:00","-29.4","","-32.7","","73","","","","28","","29","","1.6","","102.03","","","","-45","","Blowing Snow"
"-85.81","79.99","EUREKA A","2401203","2019-01-15 16:00","2019","01","15","16:00","-28.0","","-31.4","","74","","","","30","","32","","3.2","","102.01","","","","-43","","Blowing Snow"
"-85.81","79.99","EUREKA A","2401203","2019-01-15 17:00","2019","01","15","17:00","-27.5","","-30.8","","74","","","","33","","39","","2.4","","102.02","","","","-44","","Blowing Snow"
"-85.81","79.99","EUREKA A","2401203","2019-01-15 18:00","2019","01","15","18:00","-26.3","","-29.5","","75","","","","35","","40","","16.1","","102.11","","","","-43","","Ice Crystals"
"-85.81","79.99","EUREKA A","2401203","2019-01-15 19:00","2019","01","15","19:00","-27.1","","-30.3","","75","","","","36","","34","","4.8","","102.13","","","","-43","","Ice Crystals"
"-85.81","79.99","EUREKA A","2401203","2019-01-15 20:00","2019","01","15","20:00","-27.4","","-30.6","","74","","","","35","","35","","24.1","","102.12","","","","-43","","Ice Crystals"
"-85.81","79.99","EUREKA A","2401203","2019-01-15 21:00","2019","01","15","21:00","-28.3","","-31.6","","74","","","","33","","34","","24.1","","102.12","","","","-44","","Ice Crystals"
"-85.81","79.99","EUREKA A","2401203","2019-01-15 22:00","2019","01","15","22:00"
"-85.81","79.99","EUREKA A","2401203","2019-01-15 23:00","2019","01","15","23:00"
"-85.81","79.99","EUREKA A","2401203","2019-01-16 00:00","2019","01","16","00:00","-28.4","","-31.7","","74","","","","31","","27","","24.1","","102.15","","","","-43","","Ice Crystals,Blowing Snow"
"-85.81","79.99","EUREKA A","2401203","2019-01-16 01:00","2019","01","16","01:00","-26.5","","-29.8","","75","","","","1","","38","","24.1","","102.13","","","","-43","","Ice Crystals,Blowing Snow"
"-85.81","79.99","EUREKA A","2401203","2019-01-16 02:00","2019","01","16","02:00","-27.0","","-30.4","","74","","","","36","","43","","24.1","","102.15","","","","-44","","Ice Crystals,Blowing Snow"
"-85.81","79.99","EUREKA A","2401203","2019-01-16 03:00","2019","01","16","03:00","-26.5","","-29.9","","74","","","","36","","47","","24.1","","102.17","","","","-44","","Ice Crystals,Blowing Snow"
"-85.81","79.99","EUREKA A","2401203","2019-01-16 04:00","2019","01","16","04:00","-27.1","","-30.6","","73","","","","34","","28","","24.1","","102.19","","","","-41","","Ice Crystals,Blowing Snow"
"-85.81","79.99","EUREKA A","2401203","2019-01-16 05:00","2019","01","16","05:00","-24.6","","-28.5","","71","","","","36","","32","","24.1","","102.14","","","","-39","","Ice Crystals,Blowing Snow"
"-85.81","79.99","EUREKA A","2401203","2019-01-16 06:00","2019","01","16","06:00","-27.7","","-31.7","","69","","","","28","","28","","24.1","","102.15","","","","-42","","Ice Crystals,Blowing Snow"
"-85.81","79.99","EUREKA A","2401203","2019-01-16 07:00","2019","01","16","07:00","-27.2","","-31.1","","70","","","","29","","16","","24.1","","102.16","","","","-38","","Ice Crystals,Blowing Snow"
"-85.81","79.99","EUREKA A","2401203","2019-01-16 08:00","2019","01","16","08:00","-27.4","","-31.3","","70","","","","27","","12","","24.1","","102.08","","","","-37","","Ice Crystals"
"-85.81","79.99","EUREKA A","2401203","2019-01-16 09:00","2019","01","16","09:00","-27.1","","-31.2","","69","","","","28","","18","","24.1","","102.06","","","","-39","","Ice Crystals"
"-85.81","79.99","EUREKA A","2401203","2019-01-16 10:00","2019","01","16","10:00","-28.7","","-32.6","","70","","","","30","","20","","24.1","","102.06","","","","-41","","Ice Crystals"
"-85.81","79.99","EUREKA A","2401203","2019-01-16 11:00","2019","01","16","11:00","-26.2","","-30.3","","69","","","","1","","24","","24.1","","102.03","","","","-39","","Ice Crystals"
"-85.81","79.99","EUREKA A","2401203","2019-01-16 12:00","2019","01","16","12:00","-27.4","","-31.9","","67","","","","32","","14","","24.1","","101.98","","","","-38","","Ice Crystals"
"-85.81","79.99","EUREKA A","2401203","2019-01-16 13:00","2019","01","16","13:00","-27.0","","-32.5","","61","","","","1","","8","","24.1","","101.95","","","","-34","","Ice Crystals"
"-85.81","79.99","EUREKA A","2401203","2019-01-16 14:00","2019","01","16","14:00","-27.2","","-32.1","","64","","","","31","","15","","24.1","","101.96","","","","-38","","Ice Crystals"
"-85.81","79.99","EUREKA A","2401203","2019-01-16 15:00","2019","01","16","15:00","-26.1","","-31.2","","63","","","","1","","8","","24.1","","101.95","","","","-33","","Ice Crystals"
"-85.81","79.99","EUREKA A","2401203","2019-01-16 16:00","2019","01","16","16:00","-27.1","","-32.1","","64","","","","31","","8","","24.1","","101.97","","","","-35","","Ice Crystals"
"-85.81","79.99","EUREKA A","2401203","2019-01-16 17:00","2019","01","16","17:00","-26.0","","-31.2","","63","","","","24","","6","","24.1","","101.93","","","","-32","","Ice Crystals"
"-85.81","79.99","EUREKA A","2401203","2019-01-16 18:00","2019","01","16","18:00","-26.1","","-31.2","","63","","","","35","","28","","24.1","","101.94","","","","-40","","Ice Crystals"
"-85.81","79.99","EUREKA A","2401203","2019-01-16 19:00","2019","01","16","19:00","-25.3","","-31.0","","60","","","","31","","24","","24.1","","101.91","","","","-38","","Ice Crystals"
"-85.81","79.99","EUREKA A","2401203","2019-01-16 20:00","2019","01","16","20:00","-25.5","","-30.5","","63","","","","27","","36","","24.1","","101.92","","","","-41","","Ice Crystals"
"-85.81","79.99","EUREKA A","2401203","2019-01-16 21:00","2019","01","16","21:00","-26.6","","-31.3","","65","","","","34","","10","","24.1","","101.91","","","","-35","","Ice Crystals"
"-85.81","79.99","EUREKA A","2401203","2019-01-16 22:00","2019","01","16","22:00"
"-85.81","79.99","EUREKA A","2401203","2019-01-16 23:00","2019","01","16","23:00"
"-85.81","79.99","EUREKA A","2401203","2019-01-17 00:00","2019","01","17","00:00","-27.0","","-32.8","","59","","","","31","","12","","24.1","","101.88","","","","-37","","Ice Crystals"
"-85.81","79.99","EUREKA A","2401203","2019-01-17 01:00","2019","01","17","01:00","-24.4","","-29.8","","62","","","","29","","18","","24.1","","101.88","","","","-35","","Ice Crystals"
"-85.81","79.99","EUREKA A","2401203","2019-01-17 02:00","2019","01","17","02:00","-24.4","","-29.6","","63","","","","34","","25","","24.1","","101.89","","","","-37","","Ice Crystals"
"-85.81","79.99","EUREKA A","2401203","2019-01-17 03:00","2019","01","17","03:00","-25.3","","-29.7","","67","","","","32","","26","","24.1","","101.91","","","","-39","","Ice Crystals"
"-85.81","79.99","EUREKA A","2401203","2019-01-17 04:00","2019","01","17","04:00","-25.7","","-29.8","","69","","","","35","","8","","24.1","","101.89","","","","-33","","Ice Crystals"
"-85.81","79.99","EUREKA A","2401203","2019-01-17 05:00","2019","01","17","05:00","-24.6","","-28.9","","68","","","","33","","18","","24.1","","101.91","","","","-36","","Ice Crystals"
"-85.81","79.99","EUREKA A","2401203","2019-01-17 06:00","2019","01","17","06:00","-26.0","","-29.6","","72","","","","28","","19","","24.1","","101.91","","","","-38","","Ice Crystals"
"-85.81","79.99","EUREKA A","2401203","2019-01-17 07:00","2019","01","17","07:00","-23.5","","-27.6","","70","","","","33","","21","","24.1","","101.94","","","","-35","","Ice Crystals"
"-85.81","79.99","EUREKA A","2401203","2019-01-17 08:00","2019","01","17","08:00","-26.2","","-29.7","","73","","","","26","","18","","24.1","","101.94","","","","-38","","Ice Crystals"
"-85.81","79.99","EUREKA A","2401203","2019-01-17 09:00","2019","01","17","09:00","-27.9","","-31.3","","73","","","","18","","13","","24.1","","101.94","","","","-38","","Ice Crystals"
"-85.81","79.99","EUREKA A","2401203","2019-01-17 10:00","2019","01","17","10:00","-28.9","","-32.4","","72","","","","15","","14","","24.1","","102.00","","","","-40","","Snow"
"-85.81","79.99","EUREKA A","2401203","2019-01-17 11:00","2019","01","17","11:00","-26.1","","-29.4","","74","","","","32","","7","","4.8","","101.99","","","","-33","","Ice Crystals,Blowing Snow"
"-85.81","79.99","EUREKA A","2401203","2019-01-17 12:00","2019","01","17","12:00","-24.7","","-27.8","","76","","","","30","","18","","2.4","","102.01","","","","-36","","Ice Crystals,Blowing Snow"
"-85.81","79.99","EUREKA A","2401203","2019-01-17 13:00","2019","01","17","13:00","-25.2","","-28.4","","75","","","","25","","13","","3.2","","102.02","","","","-35","","Ice Crystals,Blowing Snow"
"-85.81","79.99","EUREKA A","2401203","2019-01-17 14:00","2019","01","17","14:00","-25.3","","-28.5","","75","","","","13","","17","","9.7","","102.00","","","","-36","","Ice Crystals"
"-85.81","79.99","EUREKA A","2401203","2019-01-17 15:00","2019","01","17","15:00","-24.3","","-27.6","","75","","","","14","","12","","16.1","","102.03","","","","-33","","Ice Crystals"
"-85.81","79.99","EUREKA A","2401203","2019-01-17 16:00","2019","01","17","16:00","-24.3","","-28.0","","72","","","","11","","14","","24.1","","102.03","","","","-34","","Ice Crystals"
"-85.81","79.99","EUREKA A","2401203","2019-01-17 17:00","2019","01","17","17:00","-23.8","","-27.3","","73","","","","31","","14","","24.1","","102.02","","","","-33","","Ice Crystals,Blowing Snow"
"-85.81","79.99","EUREKA A","2401203","2019-01-17 18:00","2019","01","17","18:00","-24.0","","-27.5","","73","","","","27","","18","","24.1","","101.99","","","","-35","","Ice Crystals,Blowing Snow"
"-85.81","79.99","EUREKA A","2401203","2019-01-17 19:00","2019","01","17","19:00","-23.8","","-27.1","","74","","","","29","","21","","24.1","","101.97","","","","-36","","Ice Crystals,Blowing Snow"
"-85.81","79.99","EUREKA A","2401203","2019-01-17 20:00","2019","01","17","20:00","-24.0","","-27.1","","76","","","","27","","23","","24.1","","101.92","","","","-36","","Ice Crystals,Blowing Snow"
"-85.81","79.99","EUREKA A","2401203","2019-01-17 21:00","2019","01","17","21:00","-23.9","","-27.2","","74","","","","28","","8","","24.1","","101.88","","","","-31","","Ice Crystals"
"-85.81","79.99","EUREKA A","2401203","2019-01-17 22:00","2019","01","17","22:00"
"-85.81","79.99","EUREKA A","2401203","2019-01-17 23:00","2019","01","17","23:00"
"-85.81","79.99","EUREKA A","2401203","2019-01-18 00:00","2019","01","18","00:00","-26.2","","-29.4","","75","","","","9","","4","","24.1","","101.68","","","","-30","","Ice Crystals"
"-85.81","79.99","EUREKA A","2401203","2019-01-18 01:00","2019","01","18","01:00","-26.7","","-29.8","","76","","","","8","","5","","24.1","","101.59","","","","-32","","Ice Crystals"
"-85.81","79.99","EUREKA A","2401203","2019-01-18 02:00","2019","01","18","02:00","-27.4","","-30.4","","76","","","","10","","5","","24.1","","101.50","","","","-33","","Ice Crystals"
"-85.81","79.99","EUREKA A","2401203","2019-01-18 03:00","2019","01","18","03:00","-27.1","","-30.0","","77","","","","14","","15","","24.1","","101.42","","","","-38","","Ice Crystals"
"-85.81","79.99","EUREKA A","2401203","2019-01-18 04:00","2019","01","18","04:00","-27.1","","-30.1","","76","","","","13","","20","","24.1","","101.34","","","","-39","","Ice Crystals"
"-85.81","79.99","EUREKA A","2401203","2019-01-18 05:00","2019","01","18","05:00","-27.7","","-30.8","","75","","","","13","","21","","24.1","","101.27","","","","-40","","Ice Crystals"
"-85.81","79.99","EUREKA A","2401203","2019-01-18 06:00","2019","01","18","06:00","-28.3","","-31.5","","75","","","","12","","17","","24.1","","101.20","","","","-40","","Ice Crystals"
"-85.81","79.99","EUREKA A","2401203","2019-01-18 07:00","2019","01","18","07:00","-28.4","","-31.6","","75","","","","13","","19","","24.1","","101.17","","","","-41","","Ice Crystals"
"-85.81","79.99","EUREKA A","2401203","2019-01-18 08:00","2019","01","18","08:00","-28.9","","-32.1","","75","","","","12","","17","","24.1","","101.13","","","","-41","","Ice Crystals"
"-85.81","79.99","EUREKA A","2401203","2019-01-18 09:00","2019","01","18","09:00","-28.9","","-32.1","","74","","","","11","","10","","24.1","","101.08","","","","-38","","Ice Crystals"
"-85.81","79.99","EUREKA A","2401203","2019-01-18 10:00","2019","01","18","10:00","-30.6","","-33.8","","74","","","","12","","7","","24.1","","101.06","","","","-38","","Ice Crystals"
"-85.81","79.99","EUREKA A","2401203","2019-01-18 11:00","2019","01","18","11:00","-30.7","","-33.9","","74","","","","3","","3","","24.1","","101.03","","","","-34","","Ice Crystals"
"-85.81","79.99","EUREKA A","2401203","2019-01-18 12:00","2019","01","18","12:00","-31.5","","-34.8","","73","","","","6","","5","","24.1","","101.04","","","","-37","","Ice Crystals"
"-85.81","79.99","EUREKA A","2401203","2019-01-18 13:00","2019","01","18","13:00","-31.5","","-35.0","","72","","","","36","","1","","12.9","","101.01","","","","-33","","Ice Crystals"
"-85.81","79.99","EUREKA A","2401203","2019-01-18 14:00","2019","01","18","14:00","-29.5","","-33.0","","73","","","","35","","9","","12.9","","100.99","","","","-38","","Ice Crystals"
"-85.81","79.99","EUREKA A","2401203","2019-01-18 15:00","2019","01","18","15:00","-31.6","","-35.0","","72","","","","14","","14","","9.7","","101.02","","","","-43","","Ice Crystals"
"-85.81","79.99","EUREKA A","2401203","2019-01-18 16:00","2019","01","18","16:00","-31.7","","-35.1","","72","","","","14","","14","","9.7","","101.07","","","","-43","","Ice Crystals"
"-85.81","79.99","EUREKA A","2401203","2019-01-18 17:00","2019","01","18","17:00","-31.8","","-35.3","","72","","","","36","","2","","8.1","","101.06","","","","-34","","Ice Crystals"
"-85.81","79.99","EUREKA A","2401203","2019-01-18 18:00","2019","01","18","18:00","-29.6","","-33.0","","73","","","","29","","12","","9.7","","101.03","","","","-40","","Ice Crystals"
"-85.81","79.99","EUREKA A","2401203","2019-01-18 19:00","2019","01","18","19:00","-29.5","","-33.0","","72","","","","35","","22","","9.7","","101.01","","","","-43","","Ice Crystals"
"-85.81","79.99","EUREKA A","2401203","2019-01-18 20:00","2019","01","18","20:00","-30.9","","-34.5","","71","","","","29","","10","","16.1","","100.99","","","","-40","","Ice Crystals"
"-85.81","79.99","EUREKA A","2401203","2019-01-18 21:00","2019","01","18","21:00","-31.8","","-35.4","","71","","","","30","","7","","24.1","","100.98","","","","-39","","Ice Crystals"
"-85.81","79.99","EUREKA A","2401203","2019-01-18 22:00","2019","01","18","22:00"
"-85.81","79.99","EUREKA A","2401203","2019-01-18 23:00","2019","01","18","23:00"
"-85.81","79.99","EUREKA A","2401203","2019-01-19 00:00","2019","01","19","00:00","-32.0","","-35.6","","71","","","","32","","9","","24.1","","101.08","","","","-41","","Ice Crystals"
"-85.81","79.99","EUREKA A","2401203","2019-01-19 01:00","2019","01","19","01:00","-30.9","","-34.5","","71","","","","36","","32","","24.1","","101.10","","","","-47","","Ice Crystals,Blowing Snow"
"-85.81","79.99","EUREKA A","2401203","2019-01-19 02:00","2019","01","19","02:00","-30.6","","-34.3","","70","","","","36","","30","","24.1","","101.13","","","","-46","","Ice Crystals,Blowing Snow"
"-85.81","79.99","EUREKA A","2401203","2019-01-19 03:00","2019","01","19","03:00","-31.0","","-34.8","","70","","","","36","","29","","24.1","","101.14","","","","-47","","Ice Crystals,Blowing Snow"
"-85.81","79.99","EUREKA A","2401203","2019-01-19 04:00","2019","01","19","04:00","-30.1","","-34.2","","68","","","","36","","31","","24.1","","101.17","","","","-46","","Ice Crystals,Blowing Snow"
"-85.81","79.99","EUREKA A","2401203","2019-01-19 05:00","2019","01","19","05:00","-29.7","","-34.4","","65","","","","1","","34","","24.1","","101.17","","","","-46","","Ice Crystals,Blowing Snow"
"-85.81","79.99","EUREKA A","2401203","2019-01-19 06:00","2019","01","19","06:00","-30.1","","-34.9","","64","","","","36","","2","","24.1","","101.19","","","","-32","","Ice Crystals"
"-85.81","79.99","EUREKA A","2401203","2019-01-19 07:00","2019","01","19","07:00","-32.5","","-37.1","","65","","","","31","","13","","24.1","","101.19","","","","-44","","Ice Crystals"
"-85.81","79.99","EUREKA A","2401203","2019-01-19 08:00","2019","01","19","08:00","-32.9","","-37.3","","65","","","","36","","27","","24.1","","101.16","","","","-49","","Ice Crystals,Blowing Snow"
"-85.81","79.99","EUREKA A","2401203","2019-01-19 09:00","2019","01","19","09:00","-32.8","","-37.8","","62","","","","36","","19","","24.1","","101.16","","","","-46","","Ice Crystals,Blowing Snow"
"-85.81","79.99","EUREKA A","2401203","2019-01-19 10:00","2019","01","19","10:00","-34.0","","-38.9","","62","","","","35","","19","","24.1","","101.10","","","","-48","","Ice Crystals,Blowing Snow"
"-85.81","79.99","EUREKA A","2401203","2019-01-19 11:00","2019","01","19","11:00","-34.8","","-39.4","","64","","","","29","","21","","24.1","","101.02","","","","-49","","Ice Crystals,Blowing Snow"
"-85.81","79.99","EUREKA A","2401203","2019-01-19 12:00","2019","01","19","12:00","-32.6","","-37.4","","63","","","","27","","21","","24.1","","101.02","","","","-47","","Ice Crystals,Blowing Snow"
"-85.81","79.99","EUREKA A","2401203","2019-01-19 13:00","2019","01","19","13:00","-33.9","","-38.3","","65","","","","28","","25","","24.1","","100.98","","","","-49","","Ice Crystals,Blowing Snow"
"-85.81","79.99","EUREKA A","2401203","2019-01-19 14:00","2019","01","19","14:00","-31.9","","-37.3","","60","","","","36","","20","","24.1","","100.96","","","","-45","","Ice Crystals,Blowing Snow"
"-85.81","79.99","EUREKA A","2401203","2019-01-19 15:00","2019","01","19","15:00","-33.5","","-38.7","","61","","","","28","","22","","24.1","","100.90","","","","-48","","Ice Crystals,Blowing Snow"
"-85.81","79.99","EUREKA A","2401203","2019-01-19 16:00","2019","01","19","16:00","-30.9","","-36.4","","59","","","","35","","21","","24.1","","100.85","","","","-45","","Ice Crystals,Blowing Snow"
"-85.81","79.99","EUREKA A","2401203","2019-01-19 17:00","2019","01","19","17:00","-31.3","","-36.3","","62","","","","30","","22","","24.1","","100.84","","","","-45","","Ice Crystals,Blowing Snow"
"-85.81","79.99","EUREKA A","2401203","2019-01-19 18:00","2019","01","19","18:00","-31.6","","-36.5","","63","","","","29","","8","","24.1","","100.75","","","","-40","","Ice Crystals,Blowing Snow"
"-85.81","79.99","EUREKA A","2401203","2019-01-19 19:00","2019","01","19","19:00","-31.6","","-36.7","","62","","","","32","","25","","24.1","","100.75","","","","-47","","Ice Crystals,Blowing Snow"
"-85.81","79.99","EUREKA A","2401203","2019-01-19 20:00","2019","01","19","20:00","-32.1","","-37.1","","62","","","","32","","22","","24.1","","100.72","","","","-46","","Ice Crystals,Blowing Snow"
"-85.81","79.99","EUREKA A","2401203","2019-01-19 21:00","2019","01","19","21:00","-33.1","","-37.3","","66","","","","28","","27","","24.1","","100.69","","","","-49","","Ice Crystals,Blowing Snow"
"-85.81","79.99","EUREKA A","2401203","2019-01-19 22:00","2019","01","19","22:00"
"-85.81","79.99","EUREKA A","2401203","2019-01-19 23:00","2019","01","19","23:00"
"-85.81","79.99","EUREKA A","2401203","2019-01-20 00:00","2019","01","20","00:00","-32.0","","-37.1","","62","","","","27","","28","","24.1","","100.59","","","","-48","","Ice Crystals,Blowing Snow"
"-85.81","79.99","EUREKA A","2401203","2019-01-20 01:00","2019","01","20","01:00","-32.2","","-37.3","","62","","","","26","","9","","24.1","","100.54","","","","-41","","Ice Crystals,Blowing Snow"
"-85.81","79.99","EUREKA A","2401203","2019-01-20 02:00","2019","01","20","02:00","-31.6","","-36.4","","64","","","","31","","18","","24.1","","100.52","","","","-44","","Ice Crystals,Blowing Snow"
"-85.81","79.99","EUREKA A","2401203","2019-01-20 03:00","2019","01","20","03:00","-30.2","","-35.5","","61","","","","29","","22","","24.1","","100.56","","","","-44","","Ice Crystals"
"-85.81","79.99","EUREKA A","2401203","2019-01-20 04:00","2019","01","20","04:00","-31.6","","-36.6","","62","","","","27","","28","","24.1","","100.53","","","","-47","","Ice Crystals"
"-85.81","79.99","EUREKA A","2401203","2019-01-20 05:00","2019","01","20","05:00","-33.5","","-38.2","","63","","","","32","","14","","24.1","","100.52","","","","-45","","Ice Crystals"
"-85.81","79.99","EUREKA A","2401203","2019-01-20 06:00","2019","01","20","06:00","-31.1","","-36.2","","62","","","","34","","8","","24.1","","100.52","","","","-39","","Ice Crystals"
"-85.81","79.99","EUREKA A","2401203","2019-01-20 07:00","2019","01","20","07:00","-32.2","","-37.0","","64","","","","34","","12","","24.1","","100.51","","","","-43","","Ice Crystals,Blowing Snow"
"-85.81","79.99","EUREKA A","2401203","2019-01-20 08:00","2019","01","20","08:00","-34.0","","-38.8","","63","","","","36","","8","","24.1","","100.56","","","","-43","","Ice Crystals"
"-85.81","79.99","EUREKA A","2401203","2019-01-20 09:00","2019","01","20","09:00","-35.9","","-40.3","","65","","","","35","","14","","24.1","","100.59","","","","-48","","Ice Crystals"
"-85.81","79.99","EUREKA A","2401203","2019-01-20 10:00","2019","01","20","10:00","-36.1","","-40.4","","66","","","","6","","9","","24.1","","100.61","","","","-46","","Ice Crystals"
"-85.81","79.99","EUREKA A","2401203","2019-01-20 11:00","2019","01","20","11:00","-37.2","","-41.2","","67","","","","10","","5","","24.1","","100.69","","","","-44","","Ice Crystals"
"-85.81","79.99","EUREKA A","2401203","2019-01-20 12:00","2019","01","20","12:00","-37.3","","-41.1","","68","","","","8","","7","","24.1","","100.71","","","","-46","","Ice Crystals"
"-85.81","79.99","EUREKA A","2401203","2019-01-20 13:00","2019","01","20","13:00","-37.2","","-41.2","","67","","","","7","","5","","24.1","","100.76","","","","-44","","NA"
"-85.81","79.99","EUREKA A","2401203","2019-01-20 14:00","2019","01","20","14:00","-38.1","","-42.0","","68","","","","7","","5","","24.1","","100.82","","","","-45","","NA"
"-85.81","79.99","EUREKA A","2401203","2019-01-20 15:00","2019","01","20","15:00","-37.8","","-41.5","","69","","","","8","","3","","24.1","","100.87","","","","-42","","Clear"
"-85.81","79.99","EUREKA A","2401203","2019-01-20 16:00","2019","01","20","16:00","-38.5","","-42.3","","69","","","","6","","4","","24.1","","100.95","","","","-44","","NA"
"-85.81","79.99","EUREKA A","2401203","2019-01-20 17:00","2019","01","20","17:00","-38.5","","-42.3","","69","","","","36","","3","","24.1","","101.02","","","","-43","","Ice Crystals"
"-85.81","79.99","EUREKA A","2401203","2019-01-20 18:00","2019","01","20","18:00","-38.5","","-42.2","","69","","","","12","","4","","24.1","","101.06","","","","-44","","Ice Crystals"
"-85.81","79.99","EUREKA A","2401203","2019-01-20 19:00","2019","01","20","19:00","-39.2","","-42.9","","69","","","","17","","9","","24.1","","101.09","","","","-49","","Ice Crystals"
"-85.81","79.99","EUREKA A","2401203","2019-01-20 20:00","2019","01","20","20:00","-39.1","","-42.9","","68","","","","11","","4","","24.1","","101.12","","","","-45","","Ice Crystals"
"-85.81","79.99","EUREKA A","2401203","2019-01-20 21:00","2019","01","20","21:00","-39.4","","-43.1","","69","","","","0","","1","","24.1","","101.15","","","","-41","","Ice Crystals"
"-85.81","79.99","EUREKA A","2401203","2019-01-20 22:00","2019","01","20","22:00"
"-85.81","79.99","EUREKA A","2401203","2019-01-20 23:00","2019","01","20","23:00"
"-85.81","79.99","EUREKA A","2401203","2019-01-21 00:00","2019","01","21","00:00","-41.0","","-44.9","","67","","","","6","","4","","24.1","","101.25","","","","-47","","Ice Crystals"
"-85.81","79.99","EUREKA A","2401203","2019-01-21 01:00","2019","01","21","01:00","-40.5","","-44.4","","67","","","","20","","5","","24.1","","101.27","","","","-48","","Ice Crystals"
"-85.81","79.99","EUREKA A","2401203","2019-01-21 02:00","2019","01","21","02:00","-40.7","","-44.7","","67","","","","14","","8","","24.1","","101.30","","","","-51","","Ice Crystals"
"-85.81","79.99","EUREKA A","2401203","2019-01-21 03:00","2019","01","21","03:00","-41.2","","-45.2","","66","","","","11","","3","","24.1","","101.32","","","","-45","","Ice Crystals"
"-85.81","79.99","EUREKA A","2401203","2019-01-21 04:00","2019","01","21","04:00","-42.0","","-46.0","","66","","","","9","","4","","24.1","","101.37","","","","-48","","Ice Crystals"
"-85.81","79.99","EUREKA A","2401203","2019-01-21 05:00","2019","01","21","05:00","-42.1","","-46.2","","66","","","","7","","3","","24.1","","101.38","","","","-46","","Ice Crystals"
"-85.81","79.99","EUREKA A","2401203","2019-01-21 06:00","2019","01","21","06:00","-40.9","","-44.9","","66","","","","36","","2","","24.1","","101.40","","","","-44","","Ice Crystals"
"-85.81","79.99","EUREKA A","2401203","2019-01-21 07:00","2019","01","21","07:00","-40.5","","-44.6","","66","","","","13","","4","","24.1","","101.40","","","","-46","","Ice Crystals"
"-85.81","79.99","EUREKA A","2401203","2019-01-21 08:00","2019","01","21","08:00","-40.5","","-44.5","","67","","","","36","","1","","24.1","","101.45","","","","-42","","Ice Crystals"
"-85.81","79.99","EUREKA A","2401203","2019-01-21 09:00","2019","01","21","09:00","-40.1","","-44.1","","67","","","","15","","5","","16.1","","101.47","","","","-47","","Ice Crystals"
"-85.81","79.99","EUREKA A","2401203","2019-01-21 10:00","2019","01","21","10:00","-42.0","","-46.0","","66","","","","6","","4","","24.1","","101.51","","","","-48","","Ice Crystals"
"-85.81","79.99","EUREKA A","2401203","2019-01-21 11:00","2019","01","21","11:00","-41.4","","-45.4","","66","","","","2","","4","","24.1","","101.53","","","","-47","","Ice Crystals"
"-85.81","79.99","EUREKA A","2401203","2019-01-21 12:00","2019","01","21","12:00","-39.6","","-43.6","","67","","","","36","","1","","24.1","","101.57","","","","-41","","Ice Crystals"
"-85.81","79.99","EUREKA A","2401203","2019-01-21 13:00","2019","01","21","13:00","-40.7","","-44.8","","66","","","","13","","9","","24.1","","101.61","","","","-51","","Ice Crystals"
"-85.81","79.99","EUREKA A","2401203","2019-01-21 14:00","2019","01","21","14:00","-40.6","","-44.6","","66","","","","10","","6","","24.1","","101.65","","","","-49","","Ice Crystals"
"-85.81","79.99","EUREKA A","2401203","2019-01-21 15:00","2019","01","21","15:00","-41.4","","-45.5","","66","","","","11","","8","","24.1","","101.71","","","","-51","","Ice Crystals"
"-85.81","79.99","EUREKA A","2401203","2019-01-21 16:00","2019","01","21","16:00","-41.6","","-45.7","","66","","","","8","","8","","24.1","","101.76","","","","-52","","Ice Crystals"
"-85.81","79.99","EUREKA A","2401203","2019-01-21 17:00","2019","01","21","17:00","-41.8","","-45.9","","65","","","","7","","4","","24.1","","101.82","","","","-48","","Ice Crystals"
"-85.81","79.99","EUREKA A","2401203","2019-01-21 18:00","2019","01","21","18:00","-39.9","","-44.0","","66","","","","13","","4","","24.1","","101.86","","","","-45","","Ice Crystals"
"-85.81","79.99","EUREKA A","2401203","2019-01-21 19:00","2019","01","21","19:00","-39.4","","-43.4","","66","","","","8","","3","","24.1","","101.89","","","","-44","","Ice Crystals"
"-85.81","79.99","EUREKA A","2401203","2019-01-21 20:00","2019","01","21","20:00","-41.5","","-45.6","","66","","","","8","","4","","24.1","","101.90","","","","-47","","Ice Crystals"
"-85.81","79.99","EUREKA A","2401203","2019-01-21 21:00","2019","01","21","21:00","-39.9","","-43.9","","66","","","","0","","1","","24.1","","101.91","","","","-41","","Ice Crystals"
"-85.81","79.99","EUREKA A","2401203","2019-01-21 22:00","2019","01","21","22:00"
"-85.81","79.99","EUREKA A","2401203","2019-01-21 23:00","2019","01","21","23:00"
"-85.81","79.99","EUREKA A","2401203","2019-01-22 00:00","2019","01","22","00:00","-38.2","","-42.2","","67","","","","36","","1","","24.1","","101.98","","","","-40","","Ice Crystals"
"-85.81","79.99","EUREKA A","2401203","2019-01-22 01:00","2019","01","22","01:00","-40.0","","-44.0","","66","","","","14","","8","","24.1","","102.00","","","","-50","","Ice Crystals"
"-85.81","79.99","EUREKA A","2401203","2019-01-22 02:00","2019","01","22","02:00","-40.7","","-44.8","","66","","","","9","","4","","24.1","","101.98","","","","-46","","Ice Crystals"
"-85.81","79.99","EUREKA A","2401203","2019-01-22 03:00","2019","01","22","03:00","-39.1","","-43.2","","66","","","","36","","2","","24.1","","101.98","","","","-42","","Ice Crystals"
"-85.81","79.99","EUREKA A","2401203","2019-01-22 04:00","2019","01","22","04:00","-40.6","","-44.7","","66","","","","36","","2","","24.1","","101.98","","","","-43","","Ice Crystals"
"-85.81","79.99","EUREKA A","2401203","2019-01-22 05:00","2019","01","22","05:00","-40.1","","-44.2","","66","","","","28","","10","","24.1","","101.94","","","","-51","","Ice Crystals"
"-85.81","79.99","EUREKA A","2401203","2019-01-22 06:00","2019","01","22","06:00","-41.2","","-45.4","","66","","","","27","","5","","24.1","","101.91","","","","-48","","Ice Crystals"
"-85.81","79.99","EUREKA A","2401203","2019-01-22 07:00","2019","01","22","07:00","-41.9","","-46.1","","65","","","","35","","6","","24.1","","101.86","","","","-50","","Ice Crystals"
"-85.81","79.99","EUREKA A","2401203","2019-01-22 08:00","2019","01","22","08:00","-40.5","","-44.6","","66","","","","28","","14","","24.1","","101.81","","","","-54","","Ice Crystals"
"-85.81","79.99","EUREKA A","2401203","2019-01-22 09:00","2019","01","22","09:00","-40.9","","-45.0","","66","","","","29","","10","","24.1","","101.76","","","","-52","","Ice Crystals"
"-85.81","79.99","EUREKA A","2401203","2019-01-22 10:00","2019","01","22","10:00","-41.2","","-45.4","","65","","","","32","","4","","24.1","","101.69","","","","-47","","Ice Crystals"
"-85.81","79.99","EUREKA A","2401203","2019-01-22 11:00","2019","01","22","11:00","-36.6","","-40.7","","67","","","","28","","19","","24.1","","101.60","","","","-51","","Ice Crystals"
"-85.81","79.99","EUREKA A","2401203","2019-01-22 12:00","2019","01","22","12:00","-38.1","","-42.1","","67","","","","30","","7","","24.1","","101.51","","","","-47","","Ice Crystals"
"-85.81","79.99","EUREKA A","2401203","2019-01-22 13:00","2019","01","22","13:00","-38.8","","-42.9","","67","","","","24","","3","","24.1","","101.43","","","","-43","","Ice Crystals"
"-85.81","79.99","EUREKA A","2401203","2019-01-22 14:00","2019","01","22","14:00","-38.9","","-43.0","","67","","","","30","","11","","24.1","","101.35","","","","-50","","Ice Crystals"
"-85.81","79.99","EUREKA A","2401203","2019-01-22 15:00","2019","01","22","15:00","-41.4","","-45.6","","65","","","","13","","8","","24.1","","101.33","","","","-51","","Ice Crystals"
"-85.81","79.99","EUREKA A","2401203","2019-01-22 16:00","2019","01","22","16:00","-40.4","","-44.5","","66","","","","2","","6","","24.1","","101.27","","","","-48","","Ice Crystals"
"-85.81","79.99","EUREKA A","2401203","2019-01-22 17:00","2019","01","22","17:00","-40.9","","-45.0","","65","","","","13","","17","","24.1","","101.26","","","","-56","","Ice Crystals"
"-85.81","79.99","EUREKA A","2401203","2019-01-22 18:00","2019","01","22","18:00","-41.1","","-45.2","","65","","","","9","","4","","24.1","","101.25","","","","-47","","Ice Crystals"
"-85.81","79.99","EUREKA A","2401203","2019-01-22 19:00","2019","01","22","19:00","-38.8","","-42.9","","66","","","","13","","8","","24.1","","101.23","","","","-48","","NA"
"-85.81","79.99","EUREKA A","2401203","2019-01-22 20:00","2019","01","22","20:00","-37.8","","-41.8","","67","","","","16","","5","","24.1","","101.22","","","","-44","","NA"
"-85.81","79.99","EUREKA A","2401203","2019-01-22 21:00","2019","01","22","21:00","-37.0","","-41.0","","67","","","","13","","5","","24.1","","101.24","","","","-44","","Mainly Clear"
"-85.81","79.99","EUREKA A","2401203","2019-01-22 22:00","2019","01","22","22:00"
"-85.81","79.99","EUREKA A","2401203","2019-01-22 23:00","2019","01","22","23:00"
"-85.81","79.99","EUREKA A","2401203","2019-01-23 00:00","2019","01","23","00:00","-37.5","","-41.5","","67","","","","8","","8","","24.1","","101.40","","","","-47","","Ice Crystals"
"-85.81","79.99","EUREKA A","2401203","2019-01-23 01:00","2019","01","23","01:00","-36.2","","-40.2","","68","","","","12","","10","","24.1","","101.46","","","","-47","","Ice Crystals"
"-85.81","79.99","EUREKA A","2401203","2019-01-23 02:00","2019","01","23","02:00","-37.3","","-41.3","","68","","","","7","","8","","24.1","","101.47","","","","-47","","Ice Crystals"
"-85.81","79.99","EUREKA A","2401203","2019-01-23 03:00","2019","01","23","03:00","-36.3","","-40.3","","68","","","","13","","17","","24.1","","101.50","","","","-50","","Ice Crystals"
"-85.81","79.99","EUREKA A","2401203","2019-01-23 04:00","2019","01","23","04:00","-36.9","","-40.8","","68","","","","12","","14","","24.1","","101.52","","","","-49","","Ice Crystals"
"-85.81","79.99","EUREKA A","2401203","2019-01-23 05:00","2019","01","23","05:00","-37.6","","-41.6","","67","","","","5","","4","","24.1","","101.52","","","","-43","","Ice Crystals"
"-85.81","79.99","EUREKA A","2401203","2019-01-23 06:00","2019","01","23","06:00","-36.8","","-40.8","","68","","","","36","","1","","24.1","","101.54","","","","-38","","Ice Crystals"
"-85.81","79.99","EUREKA A","2401203","2019-01-23 07:00","2019","01","23","07:00","-36.1","","-40.1","","68","","","","11","","5","","24.1","","101.53","","","","-43","","Ice Crystals"
"-85.81","79.99","EUREKA A","2401203","2019-01-23 08:00","2019","01","23","08:00","-36.6","","-40.6","","68","","","","10","","3","","24.1","","101.52","","","","-41","","Ice Crystals"
"-85.81","79.99","EUREKA A","2401203","2019-01-23 09:00","2019","01","23","09:00","-37.0","","-40.9","","68","","","","12","","4","","24.1","","101.51","","","","-42","","Mainly Clear"
"-85.81","79.99","EUREKA A","2401203","2019-01-23 10:00","2019","01","23","10:00","-38.1","","-42.1","","67","","","","15","","4","","24.1","","101.51","","","","-43","","NA"
"-85.81","79.99","EUREKA A","2401203","2019-01-23 11:00","2019","01","23","11:00","-40.0","","-44.0","","66","","","","6","","5","","24.1","","101.51","","","","-47","","Ice Crystals"
"-85.81","79.99","EUREKA A","2401203","2019-01-23 12:00","2019","01","23","12:00","-38.4","","-42.5","","67","","","","4","","3","","24.1","","101.49","","","","-42","","Ice Crystals"
"-85.81","79.99","EUREKA A","2401203","2019-01-23 13:00","2019","01","23","13:00","-38.3","","-42.3","","67","","","","25","","4","","24.1","","101.49","","","","-44","","Ice Crystals"
"-85.81","79.99","EUREKA A","2401203","2019-01-23 14:00","2019","01","23","14:00","-38.4","","-42.4","","67","","","","36","","2","","24.1","","101.48","","","","-41","","Ice Crystals"
"-85.81","79.99","EUREKA A","2401203","2019-01-23 15:00","2019","01","23","15:00","-39.2","","-43.2","","67","","","","13","","4","","24.1","","101.47","","","","-45","","Ice Crystals"
"-85.81","79.99","EUREKA A","2401203","2019-01-23 16:00","2019","01","23","16:00","-38.6","","-42.7","","67","","","","13","","3","","24.1","","101.48","","","","-43","","Ice Crystals"
"-85.81","79.99","EUREKA A","2401203","2019-01-23 17:00","2019","01","23","17:00","-39.0","","-43.1","","67","","","","8","","4","","24.1","","101.46","","","","-44","","Ice Crystals"
"-85.81","79.99","EUREKA A","2401203","2019-01-23 18:00","2019","01","23","18:00","-38.4","","-42.4","","67","","","","7","","3","","24.1","","101.47","","","","-42","","Ice Crystals"
"-85.81","79.99","EUREKA A","2401203","2019-01-23 19:00","2019","01","23","19:00","-38.5","","-42.6","","67","","","","29","","6","","24.1","","101.44","","","","-46","","Ice Crystals"
"-85.81","79.99","EUREKA A","2401203","2019-01-23 20:00","2019","01","23","20:00","-38.6","","-42.7","","67","","","","29","","8","","24.1","","101.42","","","","-48","","Ice Crystals"
"-85.81","79.99","EUREKA A","2401203","2019-01-23 21:00","2019","01","23","21:00","-39.2","","-43.2","","67","","","","24","","3","","24.1","","101.44","","","","-43","","Ice Crystals"
"-85.81","79.99","EUREKA A","2401203","2019-01-23 22:00","2019","01","23","22:00"
"-85.81","79.99","EUREKA A","2401203","2019-01-23 23:00","2019","01","23","23:00"
"-85.81","79.99","EUREKA A","2401203","2019-01-24 00:00","2019","01","24","00:00","-40.0","","-44.1","","66","","","","7","","4","","24.1","","101.43","","","","-46","","Ice Crystals"
"-85.81","79.99","EUREKA A","2401203","2019-01-24 01:00","2019","01","24","01:00","-39.5","","-43.6","","66","","","","13","","8","","24.1","","101.47","","","","-49","","Ice Crystals"
"-85.81","79.99","EUREKA A","2401203","2019-01-24 02:00","2019","01","24","02:00","-39.5","","-43.6","","66","","","","8","","3","","24.1","","101.48","","","","-44","","Ice Crystals"
"-85.81","79.99","EUREKA A","2401203","2019-01-24 03:00","2019","01","24","03:00","-38.7","","-42.8","","66","","","","12","","5","","24.1","","101.49","","","","-45","","Ice Crystals"
"-85.81","79.99","EUREKA A","2401203","2019-01-24 04:00","2019","01","24","04:00","-39.4","","-43.5","","66","","","","7","","7","","24.1","","101.50","","","","-48","","Ice Crystals"
"-85.81","79.99","EUREKA A","2401203","2019-01-24 05:00","2019","01","24","05:00","-40.0","","-44.1","","66","","","","3","","3","","24.1","","101.50","","","","-44","","Ice Crystals"
"-85.81","79.99","EUREKA A","2401203","2019-01-24 06:00","2019","01","24","06:00","-38.2","","-42.2","","67","","","","9","","4","","24.1","","101.52","","","","-44","","Ice Crystals"
"-85.81","79.99","EUREKA A","2401203","2019-01-24 07:00","2019","01","24","07:00","-38.5","","-42.5","","67","","","","8","","5","","24.1","","101.56","","","","-45","","Ice Crystals"
"-85.81","79.99","EUREKA A","2401203","2019-01-24 08:00","2019","01","24","08:00","-38.4","","-42.5","","67","","","","8","","4","","24.1","","101.59","","","","-44","","Ice Crystals"
"-85.81","79.99","EUREKA A","2401203","2019-01-24 09:00","2019","01","24","09:00","-38.9","","-43.0","","67","","","","5","","5","","24.1","","101.59","","","","-46","","Ice Crystals"
"-85.81","79.99","EUREKA A","2401203","2019-01-24 10:00","2019","01","24","10:00","-38.0","","-42.0","","67","","","","7","","4","","24.1","","101.63","","","","-43","","Ice Crystals"
"-85.81","79.99","EUREKA A","2401203","2019-01-24 11:00","2019","01","24","11:00","-36.2","","-40.2","","68","","","","12","","9","","24.1","","101.64","","","","-46","","Ice Crystals"
"-85.81","79.99","EUREKA A","2401203","2019-01-24 12:00","2019","01","24","12:00","-37.6","","-41.6","","67","","","","9","","9","","24.1","","101.67","","","","-48","","Ice Crystals"
"-85.81","79.99","EUREKA A","2401203","2019-01-24 13:00","2019","01","24","13:00","-36.9","","-40.9","","68","","","","9","","8","","24.1","","101.69","","","","-46","","Ice Crystals"
"-85.81","79.99","EUREKA A","2401203","2019-01-24 14:00","2019","01","24","14:00","-36.3","","-40.3","","68","","","","12","","11","","24.1","","101.71","","","","-47","","NA"
"-85.81","79.99","EUREKA A","2401203","2019-01-24 15:00","2019","01","24","15:00","-38.0","","-41.9","","67","","","","7","","5","","24.1","","101.73","","","","-45","","Ice Crystals"
"-85.81","79.99","EUREKA A","2401203","2019-01-24 16:00","2019","01","24","16:00","-37.0","","-40.9","","68","","","","10","","5","","24.1","","101.77","","","","-44","","Ice Crystals"
"-85.81","79.99","EUREKA A","2401203","2019-01-24 17:00","2019","01","24","17:00","-37.3","","-41.2","","67","","","","13","","4","","24.1","","101.80","","","","-43","","Ice Crystals"
"-85.81","79.99","EUREKA A","2401203","2019-01-24 18:00","2019","01","24","18:00","-38.3","","-42.4","","67","","","","9","","4","","24.1","","101.81","","","","-44","","Ice Crystals"
"-85.81","79.99","EUREKA A","2401203","2019-01-24 19:00","2019","01","24","19:00","-38.0","","-42.0","","67","","","","9","","7","","24.1","","101.83","","","","-47","","Ice Crystals"
"-85.81","79.99","EUREKA A","2401203","2019-01-24 20:00","2019","01","24","20:00","-37.4","","-41.3","","67","","","","12","","4","","24.1","","101.85","","","","-43","","Ice Crystals"
"-85.81","79.99","EUREKA A","2401203","2019-01-24 21:00","2019","01","24","21:00","-38.0","","-42.0","","67","","","","10","","7","","24.1","","101.85","","","","-47","","Ice Crystals"
"-85.81","79.99","EUREKA A","2401203","2019-01-24 22:00","2019","01","24","22:00"
"-85.81","79.99","EUREKA A","2401203","2019-01-24 23:00","2019","01","24","23:00"
"-85.81","79.99","EUREKA A","2401203","2019-01-25 00:00","2019","01","25","00:00","-38.9","","-43.0","","66","","","","36","","1","","24.1","","101.90","","","","-40","","Ice Crystals"
"-85.81","79.99","EUREKA A","2401203","2019-01-25 01:00","2019","01","25","01:00","-37.9","","-41.9","","67","","","","11","","3","","24.1","","101.93","","","","-42","","Ice Crystals"
"-85.81","79.99","EUREKA A","2401203","2019-01-25 02:00","2019","01","25","02:00","-39.5","","-43.6","","66","","","","9","","7","","24.1","","101.95","","","","-48","","Ice Crystals"
"-85.81","79.99","EUREKA A","2401203","2019-01-25 03:00","2019","01","25","03:00","-39.0","","-43.1","","66","","","","2","","3","","24.1","","101.95","","","","-43","","Ice Crystals"
"-85.81","79.99","EUREKA A","2401203","2019-01-25 04:00","2019","01","25","04:00","-38.6","","-42.7","","67","","","","4","","3","","24.1","","101.96","","","","-43","","Ice Crystals"
"-85.81","79.99","EUREKA A","2401203","2019-01-25 05:00","2019","01","25","05:00","-37.0","","-41.0","","67","","","","10","","6","","24.1","","101.95","","","","-45","","Ice Crystals"
"-85.81","79.99","EUREKA A","2401203","2019-01-25 06:00","2019","01","25","06:00","-38.0","","-42.0","","67","","","","10","","7","","24.1","","101.96","","","","-47","","Ice Crystals"
"-85.81","79.99","EUREKA A","2401203","2019-01-25 07:00","2019","01","25","07:00","-38.5","","-42.5","","67","","","","7","","5","","24.1","","101.96","","","","-45","","Ice Crystals"
"-85.81","79.99","EUREKA A","2401203","2019-01-25 08:00","2019","01","25","08:00","-37.1","","-41.1","","67","","","","36","","3","","24.1","","101.94","","","","-41","","Ice Crystals"
"-85.81","79.99","EUREKA A","2401203","2019-01-25 09:00","2019","01","25","09:00","-36.9","","-40.9","","68","","","","13","","3","","24.1","","101.93","","","","-41","","Ice Crystals"
"-85.81","79.99","EUREKA A","2401203","2019-01-25 10:00","2019","01","25","10:00","-36.4","","-40.3","","68","","","","26","","5","","24.1","","101.93","","","","-43","","Ice Crystals"
"-85.81","79.99","EUREKA A","2401203","2019-01-25 11:00","2019","01","25","11:00","-36.1","","-40.0","","68","","","","13","","10","","24.1","","101.94","","","","-46","","Ice Crystals"
"-85.81","79.99","EUREKA A","2401203","2019-01-25 12:00","2019","01","25","12:00","-35.8","","-39.7","","68","","","","18","","5","","24.1","","101.93","","","","-42","","Ice Crystals"
"-85.81","79.99","EUREKA A","2401203","2019-01-25 13:00","2019","01","25","13:00","-36.5","","-40.4","","68","","","","9","","4","","24.1","","101.92","","","","-42","","Ice Crystals"
"-85.81","79.99","EUREKA A","2401203","2019-01-25 14:00","2019","01","25","14:00","-35.8","","-39.7","","68","","","","36","","2","","24.1","","101.92","","","","-38","","Ice Crystals"
"-85.81","79.99","EUREKA A","2401203","2019-01-25 15:00","2019","01","25","15:00","-36.4","","-40.3","","68","","","","36","","2","","24.1","","101.93","","","","-39","","Ice Crystals"
"-85.81","79.99","EUREKA A","2401203","2019-01-25 16:00","2019","01","25","16:00","-36.8","","-40.8","","68","","","","36","","1","","24.1","","101.90","","","","-38","","Ice Crystals"
"-85.81","79.99","EUREKA A","2401203","2019-01-25 17:00","2019","01","25","17:00","-34.8","","-38.6","","69","","","","12","","7","","24.1","","101.92","","","","-43","","Ice Crystals"
"-85.81","79.99","EUREKA A","2401203","2019-01-25 18:00","2019","01","25","18:00","-36.4","","-40.3","","68","","","","6","","5","","24.1","","101.91","","","","-43","","Ice Crystals"
"-85.81","79.99","EUREKA A","2401203","2019-01-25 19:00","2019","01","25","19:00","-33.7","","-37.6","","69","","","","18","","5","","24.1","","101.91","","","","-40","","Ice Crystals"
"-85.81","79.99","EUREKA A","2401203","2019-01-25 20:00","2019","01","25","20:00","-34.0","","-37.8","","69","","","","21","","4","","24.1","","101.89","","","","-39","","Ice Crystals"
"-85.81","79.99","EUREKA A","2401203","2019-01-25 21:00","2019","01","25","21:00","-37.5","","-41.4","","68","","","","9","","5","","24.1","","101.87","","","","-44","","Ice Crystals"
"-85.81","79.99","EUREKA A","2401203","2019-01-25 22:00","2019","01","25","22:00"
"-85.81","79.99","EUREKA A","2401203","2019-01-25 23:00","2019","01","25","23:00"
"-85.81","79.99","EUREKA A","2401203","2019-01-26 00:00","2019","01","26","00:00","-34.4","","-38.2","","69","","","","7","","5","","24.1","","101.84","","","","-41","","Ice Crystals"
"-85.81","79.99","EUREKA A","2401203","2019-01-26 01:00","2019","01","26","01:00","-36.2","","-40.1","","68","","","","10","","4","","24.1","","101.83","","","","-41","","Ice Crystals"
"-85.81","79.99","EUREKA A","2401203","2019-01-26 02:00","2019","01","26","02:00","-34.7","","-38.6","","69","","","","9","","4","","24.1","","101.82","","","","-40","","Ice Crystals"
"-85.81","79.99","EUREKA A","2401203","2019-01-26 03:00","2019","01","26","03:00","-36.4","","-40.4","","68","","","","7","","5","","24.1","","101.82","","","","-43","","Ice Crystals"
"-85.81","79.99","EUREKA A","2401203","2019-01-26 04:00","2019","01","26","04:00","-34.6","","-38.5","","69","","","","36","","3","","24.1","","101.83","","","","-38","","Ice Crystals"
"-85.81","79.99","EUREKA A","2401203","2019-01-26 05:00","2019","01","26","05:00","-35.1","","-39.0","","69","","","","36","","2","","24.1","","101.79","","","","-38","","NA"
"-85.81","79.99","EUREKA A","2401203","2019-01-26 06:00","2019","01","26","06:00","-34.4","","-38.2","","69","","","","36","","2","","24.1","","101.77","","","","-37","","Clear"
"-85.81","79.99","EUREKA A","2401203","2019-01-26 07:00","2019","01","26","07:00","-35.9","","-39.8","","68","","","","30","","3","","24.1","","101.75","","","","-40","","Ice Crystals"
"-85.81","79.99","EUREKA A","2401203","2019-01-26 08:00","2019","01","26","08:00","-38.4","","-42.4","","67","","","","36","","4","","24.1","","101.75","","","","-44","","Ice Crystals"
"-85.81","79.99","EUREKA A","2401203","2019-01-26 09:00","2019","01","26","09:00","-38.1","","-42.0","","67","","","","6","","3","","24.1","","101.73","","","","-42","","Ice Crystals"
"-85.81","79.99","EUREKA A","2401203","2019-01-26 10:00","2019","01","26","10:00","-38.6","","-42.6","","67","","","","33","","3","","24.1","","101.71","","","","-43","","Ice Crystals"
"-85.81","79.99","EUREKA A","2401203","2019-01-26 11:00","2019","01","26","11:00","-38.2","","-42.2","","67","","","","29","","5","","24.1","","101.70","","","","-45","","Ice Crystals"
"-85.81","79.99","EUREKA A","2401203","2019-01-26 12:00","2019","01","26","12:00","-39.0","","-43.1","","66","","","","36","","2","","24.1","","101.68","","","","-42","","Ice Crystals"
"-85.81","79.99","EUREKA A","2401203","2019-01-26 13:00","2019","01","26","13:00","-39.3","","-43.4","","66","","","","33","","3","","24.1","","101.65","","","","-43","","Ice Crystals"
"-85.81","79.99","EUREKA A","2401203","2019-01-26 14:00","2019","01","26","14:00","-38.4","","-42.4","","67","","","","36","","2","","24.1","","101.62","","","","-41","","Ice Crystals"
"-85.81","79.99","EUREKA A","2401203","2019-01-26 15:00","2019","01","26","15:00","-39.0","","-43.0","","67","","","","36","","1","","24.1","","101.62","","","","-40","","Ice Crystals"
"-85.81","79.99","EUREKA A","2401203","2019-01-26 16:00","2019","01","26","16:00","-38.9","","-43.0","","66","","","","36","","2","","24.1","","101.61","","","","-42","","Ice Crystals"
"-85.81","79.99","EUREKA A","2401203","2019-01-26 17:00","2019","01","26","17:00","-40.7","","-44.8","","66","","","","7","","5","","24.1","","101.60","","","","-48","","Ice Crystals"
"-85.81","79.99","EUREKA A","2401203","2019-01-26 18:00","2019","01","26","18:00","-39.3","","-43.4","","66","","","","0","","1","","24.1","","101.59","","","","-41","","Ice Crystals"
"-85.81","79.99","EUREKA A","2401203","2019-01-26 19:00","2019","01","26","19:00","-39.2","","-43.3","","66","","","","8","","4","","24.1","","101.56","","","","-45","","Ice Crystals"
"-85.81","79.99","EUREKA A","2401203","2019-01-26 20:00","2019","01","26","20:00","-39.3","","-43.4","","66","","","","14","","3","","24.1","","101.54","","","","-43","","Ice Crystals"
"-85.81","79.99","EUREKA A","2401203","2019-01-26 21:00","2019","01","26","21:00","-39.9","","-44.0","","66","","","","36","","2","","24.1","","101.53","","","","-43","","Ice Crystals"
"-85.81","79.99","EUREKA A","2401203","2019-01-26 22:00","2019","01","26","22:00"
"-85.81","79.99","EUREKA A","2401203","2019-01-26 23:00","2019","01","26","23:00"
"-85.81","79.99","EUREKA A","2401203","2019-01-27 00:00","2019","01","27","00:00","-40.3","","-44.5","","66","","","","36","","2","","24.1","","101.54","","","","-43","","Ice Crystals"
"-85.81","79.99","EUREKA A","2401203","2019-01-27 01:00","2019","01","27","01:00","-38.9","","-42.9","","66","","","","29","","5","","24.1","","101.54","","","","-46","","Ice Crystals"
"-85.81","79.99","EUREKA A","2401203","2019-01-27 02:00","2019","01","27","02:00","-39.0","","-43.0","","66","","","","36","","2","","24.1","","101.55","","","","-42","","Ice Crystals"
"-85.81","79.99","EUREKA A","2401203","2019-01-27 03:00","2019","01","27","03:00","-38.9","","-42.9","","67","","","","36","","1","","24.1","","101.57","","","","-40","","Ice Crystals"
"-85.81","79.99","EUREKA A","2401203","2019-01-27 04:00","2019","01","27","04:00","-40.3","","-44.4","","66","","","","5","","7","","24.1","","101.58","","","","-49","","Ice Crystals"
"-85.81","79.99","EUREKA A","2401203","2019-01-27 05:00","2019","01","27","05:00","-39.7","","-43.8","","66","","","","6","","4","","24.1","","101.61","","","","-45","","Ice Crystals"
"-85.81","79.99","EUREKA A","2401203","2019-01-27 06:00","2019","01","27","06:00","-39.5","","-43.6","","66","","","","1","","8","","24.1","","101.63","","","","-49","","Ice Crystals"
"-85.81","79.99","EUREKA A","2401203","2019-01-27 07:00","2019","01","27","07:00","-37.1","","-41.1","","67","","","","28","","5","","24.1","","101.63","","","","-44","","Ice Crystals"
"-85.81","79.99","EUREKA A","2401203","2019-01-27 08:00","2019","01","27","08:00","-37.7","","-41.7","","67","","","","31","","10","","24.1","","101.67","","","","-48","","Ice Crystals"
"-85.81","79.99","EUREKA A","2401203","2019-01-27 09:00","2019","01","27","09:00","-38.4","","-42.4","","67","","","","36","","10","","24.1","","101.69","","","","-49","","Ice Crystals"
"-85.81","79.99","EUREKA A","2401203","2019-01-27 10:00","2019","01","27","10:00","-39.3","","-43.4","","66","","","","6","","7","","19.3","","101.74","","","","-48","","Ice Crystals"
"-85.81","79.99","EUREKA A","2401203","2019-01-27 11:00","2019","01","27","11:00","-39.5","","-43.5","","66","","","","35","","4","","19.3","","101.78","","","","-45","","Ice Crystals"
"-85.81","79.99","EUREKA A","2401203","2019-01-27 12:00","2019","01","27","12:00","-41.0","","-45.2","","65","","","","14","","5","","19.3","","101.83","","","","-48","","Ice Crystals"
"-85.81","79.99","EUREKA A","2401203","2019-01-27 13:00","2019","01","27","13:00","-41.9","","-46.1","","65","","","","7","","6","","19.3","","101.83","","","","-50","","Ice Crystals"
"-85.81","79.99","EUREKA A","2401203","2019-01-27 14:00","2019","01","27","14:00","-41.4","","-45.6","","65","","","","1","","5","","19.3","","101.89","","","","-49","","Ice Crystals"
"-85.81","79.99","EUREKA A","2401203","2019-01-27 15:00","2019","01","27","15:00","-40.6","","-44.7","","65","","","","36","","2","","24.1","","101.92","","","","-43","","Ice Crystals"
"-85.81","79.99","EUREKA A","2401203","2019-01-27 16:00","2019","01","27","16:00","-41.7","","-45.9","","65","","","","15","","8","","24.1","","101.96","","","","-52","","Ice Crystals"
"-85.81","79.99","EUREKA A","2401203","2019-01-27 17:00","2019","01","27","17:00","-42.1","","-46.2","","65","","","","11","","5","","24.1","","102.03","","","","-49","","Ice Crystals"
"-85.81","79.99","EUREKA A","2401203","2019-01-27 18:00","2019","01","27","18:00","-42.0","","-46.2","","65","","","","36","","3","","24.1","","102.09","","","","-46","","Ice Crystals"
"-85.81","79.99","EUREKA A","2401203","2019-01-27 19:00","2019","01","27","19:00","-40.1","","-44.3","","65","","","","19","","3","","24.1","","102.12","","","","-44","","Ice Crystals"
"-85.81","79.99","EUREKA A","2401203","2019-01-27 20:00","2019","01","27","20:00","-42.0","","-46.2","","65","","","","9","","6","","24.1","","102.18","","","","-50","","Ice Crystals"
"-85.81","79.99","EUREKA A","2401203","2019-01-27 21:00","2019","01","27","21:00","-42.3","","-46.5","","65","","","","10","","5","","24.1","","102.20","","","","-50","","Ice Crystals"
"-85.81","79.99","EUREKA A","2401203","2019-01-27 22:00","2019","01","27","22:00"
"-85.81","79.99","EUREKA A","2401203","2019-01-27 23:00","2019","01","27","23:00"
"-85.81","79.99","EUREKA A","2401203","2019-01-28 00:00","2019","01","28","00:00","-42.9","","-47.1","","64","","","","7","","4","","24.1","","102.25","","","","-49","","Ice Crystals"
"-85.81","79.99","EUREKA A","2401203","2019-01-28 01:00","2019","01","28","01:00","-40.3","","-44.5","","65","","","","34","","4","","24.1","","102.24","","","","-46","","Ice Crystals"
"-85.81","79.99","EUREKA A","2401203","2019-01-28 02:00","2019","01","28","02:00","-41.7","","-45.9","","65","","","","14","","11","","24.1","","102.27","","","","-54","","Ice Crystals"
"-85.81","79.99","EUREKA A","2401203","2019-01-28 03:00","2019","01","28","03:00","-42.4","","-46.6","","65","","","","5","","4","","24.1","","102.32","","","","-48","","Ice Crystals"
"-85.81","79.99","EUREKA A","2401203","2019-01-28 04:00","2019","01","28","04:00","-40.6","","-44.8","","65","","","","12","","6","","24.1","","102.35","","","","-49","","Ice Crystals"
"-85.81","79.99","EUREKA A","2401203","2019-01-28 05:00","2019","01","28","05:00","-41.9","","-46.1","","65","","","","12","","5","","24.1","","102.35","","","","-49","","Ice Crystals"
"-85.81","79.99","EUREKA A","2401203","2019-01-28 06:00","2019","01","28","06:00","-41.9","","-46.1","","65","","","","10","","4","","24.1","","102.35","","","","-48","","Ice Crystals"
"-85.81","79.99","EUREKA A","2401203","2019-01-28 07:00","2019","01","28","07:00","-42.6","","-46.9","","64","","","","8","","5","","24.1","","102.39","","","","-50","","Ice Crystals"
"-85.81","79.99","EUREKA A","2401203","2019-01-28 08:00","2019","01","28","08:00","-41.8","","-46.1","","64","","","","36","","1","","24.1","","102.40","","","","-43","","Ice Crystals"
"-85.81","79.99","EUREKA A","2401203","2019-01-28 09:00","2019","01","28","09:00","-40.3","","-44.5","","65","","","","12","","5","","24.1","","102.45","","","","-47","","Ice Crystals"
"-85.81","79.99","EUREKA A","2401203","2019-01-28 10:00","2019","01","28","10:00","-40.6","","-44.8","","65","","","","23","","3","","24.1","","102.47","","","","-45","","Ice Crystals"
"-85.81","79.99","EUREKA A","2401203","2019-01-28 11:00","2019","01","28","11:00","-42.8","","-47.1","","64","","","","6","","7","","24.1","","102.50","","","","-52","","Ice Crystals"
"-85.81","79.99","EUREKA A","2401203","2019-01-28 12:00","2019","01","28","12:00","-40.5","","-44.7","","65","","","","14","","3","","24.1","","102.50","","","","-45","","Ice Crystals"
"-85.81","79.99","EUREKA A","2401203","2019-01-28 13:00","2019","01","28","13:00","-41.6","","-45.8","","65","","","","9","","5","","24.1","","102.53","","","","-49","","Ice Crystals"
"-85.81","79.99","EUREKA A","2401203","2019-01-28 14:00","2019","01","28","14:00","-42.1","","-46.3","","65","","","","4","","3","","24.1","","102.56","","","","-46","","Ice Crystals"
"-85.81","79.99","EUREKA A","2401203","2019-01-28 15:00","2019","01","28","15:00","-41.7","","-45.9","","65","","","","1","","3","","24.1","","102.60","","","","-46","","Ice Crystals"
"-85.81","79.99","EUREKA A","2401203","2019-01-28 16:00","2019","01","28","16:00","-40.9","","-45.1","","65","","","","11","","4","","24.1","","102.63","","","","-47","","Ice Crystals"
"-85.81","79.99","EUREKA A","2401203","2019-01-28 17:00","2019","01","28","17:00","-41.1","","-45.3","","65","","","","10","","4","","24.1","","102.70","","","","-47","","Ice Crystals"
"-85.81","79.99","EUREKA A","2401203","2019-01-28 18:00","2019","01","28","18:00","-41.6","","-45.8","","65","","","","10","","6","","24.1","","102.74","","","","-50","","Ice Crystals"
"-85.81","79.99","EUREKA A","2401203","2019-01-28 19:00","2019","01","28","19:00","-39.7","","-43.9","","66","","","","36","","1","","24.1","","102.79","","","","-41","","Ice Crystals"
"-85.81","79.99","EUREKA A","2401203","2019-01-28 20:00","2019","01","28","20:00","-41.4","","-45.6","","65","","","","36","","1","","24.1","","102.83","","","","-43","","Ice Crystals"
"-85.81","79.99","EUREKA A","2401203","2019-01-28 21:00","2019","01","28","21:00","-41.7","","-45.9","","65","","","","6","","5","","24.1","","102.86","","","","-49","","Ice Crystals"
"-85.81","79.99","EUREKA A","2401203","2019-01-28 22:00","2019","01","28","22:00"
"-85.81","79.99","EUREKA A","2401203","2019-01-28 23:00","2019","01","28","23:00"
"-85.81","79.99","EUREKA A","2401203","2019-01-29 00:00","2019","01","29","00:00","-40.7","","-44.9","","65","","","","2","","3","","24.1","","102.95","","","","-45","","Ice Crystals"
"-85.81","79.99","EUREKA A","2401203","2019-01-29 01:00","2019","01","29","01:00","-40.8","","-45.0","","65","","","","6","","3","","24.1","","102.97","","","","-45","","Ice Crystals"
"-85.81","79.99","EUREKA A","2401203","2019-01-29 02:00","2019","01","29","02:00","-40.0","","-44.1","","65","","","","36","","3","","24.1","","102.99","","","","-44","","Ice Crystals"
"-85.81","79.99","EUREKA A","2401203","2019-01-29 03:00","2019","01","29","03:00","-41.3","","-45.5","","65","","","","4","","4","","24.1","","103.04","","","","-47","","Ice Crystals"
"-85.81","79.99","EUREKA A","2401203","2019-01-29 04:00","2019","01","29","04:00","-40.6","","-44.8","","65","","","","5","","4","","24.1","","103.06","","","","-46","","Ice Crystals"
"-85.81","79.99","EUREKA A","2401203","2019-01-29 05:00","2019","01","29","05:00","-41.2","","-45.4","","65","","","","12","","4","","24.1","","103.08","","","","-47","","Ice Crystals"
"-85.81","79.99","EUREKA A","2401203","2019-01-29 06:00","2019","01","29","06:00","-41.3","","-45.5","","65","","","","32","","3","","24.1","","103.07","","","","-46","","Ice Crystals"
"-85.81","79.99","EUREKA A","2401203","2019-01-29 07:00","2019","01","29","07:00","-40.3","","-44.5","","65","","","","5","","6","","24.1","","103.08","","","","-48","","Ice Crystals"
"-85.81","79.99","EUREKA A","2401203","2019-01-29 08:00","2019","01","29","08:00","-40.0","","-44.2","","66","","","","6","","3","","24.1","","103.07","","","","-44","","Ice Crystals"
"-85.81","79.99","EUREKA A","2401203","2019-01-29 09:00","2019","01","29","09:00","-39.4","","-43.5","","66","","","","0","","1","","24.1","","103.06","","","","-41","","Ice Crystals"
"-85.81","79.99","EUREKA A","2401203","2019-01-29 10:00","2019","01","29","10:00","-41.2","","-45.4","","65","","","","12","","4","","24.1","","103.06","","","","-47","","Ice Crystals"
"-85.81","79.99","EUREKA A","2401203","2019-01-29 11:00","2019","01","29","11:00","-41.2","","-45.4","","65","","","","4","","3","","24.1","","103.05","","","","-45","","Ice Crystals"
"-85.81","79.99","EUREKA A","2401203","2019-01-29 12:00","2019","01","29","12:00","-39.8","","-43.9","","66","","","","0","","1","","24.1","","103.02","","","","-41","","Ice Crystals"
"-85.81","79.99","EUREKA A","2401203","2019-01-29 13:00","2019","01","29","13:00","-40.6","","-44.8","","65","","","","14","","5","","24.1","","102.99","","","","-48","","Ice Crystals"
"-85.81","79.99","EUREKA A","2401203","2019-01-29 14:00","2019","01","29","14:00","-40.6","","-44.8","","65","","","","36","","2","","19.3","","102.98","","","","-43","","Ice Crystals"
"-85.81","79.99","EUREKA A","2401203","2019-01-29 15:00","2019","01","29","15:00","-42.0","","-46.3","","65","","","","7","","5","","24.1","","102.95","","","","-49","","Ice Crystals"
"-85.81","79.99","EUREKA A","2401203","2019-01-29 16:00","2019","01","29","16:00","-41.3","","-45.6","","65","","","","6","","4","","24.1","","102.91","","","","-47","","Ice Crystals"
"-85.81","79.99","EUREKA A","2401203","2019-01-29 17:00","2019","01","29","17:00","-40.3","","-44.5","","65","","","","36","","2","","24.1","","102.91","","","","-43","","Ice Crystals"
"-85.81","79.99","EUREKA A","2401203","2019-01-29 18:00","2019","01","29","18:00","-40.6","","-44.8","","65","","","","36","","2","","24.1","","102.86","","","","-43","","Ice Crystals"
"-85.81","79.99","EUREKA A","2401203","2019-01-29 19:00","2019","01","29","19:00","-41.1","","-45.3","","65","","","","36","","2","","24.1","","102.80","","","","-44","","Ice Crystals"
"-85.81","79.99","EUREKA A","2401203","2019-01-29 20:00","2019","01","29","20:00","-41.2","","-45.4","","65","","","","36","","2","","24.1","","102.77","","","","-44","","Ice Crystals"
"-85.81","79.99","EUREKA A","2401203","2019-01-29 21:00","2019","01","29","21:00","-41.0","","-45.3","","65","","","","26","","3","","24.1","","102.73","","","","-45","","Ice Crystals"
"-85.81","79.99","EUREKA A","2401203","2019-01-29 22:00","2019","01","29","22:00"
"-85.81","79.99","EUREKA A","2401203","2019-01-29 23:00","2019","01","29","23:00"
"-85.81","79.99","EUREKA A","2401203","2019-01-30 00:00","2019","01","30","00:00","-40.5","","-44.7","","65","","","","36","","1","","24.1","","102.58","","","","-42","","Ice Crystals"
"-85.81","79.99","EUREKA A","2401203","2019-01-30 01:00","2019","01","30","01:00","-40.9","","-45.1","","65","","","","36","","2","","24.1","","102.53","","","","-44","","Ice Crystals"
"-85.81","79.99","EUREKA A","2401203","2019-01-30 02:00","2019","01","30","02:00","-40.3","","-44.5","","65","","","","36","","3","","24.1","","102.51","","","","-45","","Ice Crystals"
"-85.81","79.99","EUREKA A","2401203","2019-01-30 03:00","2019","01","30","03:00","-41.6","","-45.8","","65","","","","6","","5","","24.1","","102.48","","","","-49","","Ice Crystals"
"-85.81","79.99","EUREKA A","2401203","2019-01-30 04:00","2019","01","30","04:00","-39.1","","-43.3","","66","","","","3","","4","","24.1","","102.46","","","","-45","","Ice Crystals"
"-85.81","79.99","EUREKA A","2401203","2019-01-30 05:00","2019","01","30","05:00","-39.8","","-44.0","","66","","","","26","","6","","24.1","","102.43","","","","-48","","Ice Crystals"
"-85.81","79.99","EUREKA A","2401203","2019-01-30 06:00","2019","01","30","06:00","-41.8","","-46.0","","65","","","","22","","4","","24.1","","102.42","","","","-48","","Ice Crystals"
"-85.81","79.99","EUREKA A","2401203","2019-01-30 07:00","2019","01","30","07:00","-40.9","","-45.0","","65","","","","36","","1","","24.1","","102.40","","","","-42","","Ice Crystals"
"-85.81","79.99","EUREKA A","2401203","2019-01-30 08:00","2019","01","30","08:00","-41.8","","-46.0","","65","","","","6","","6","","24.1","","102.37","","","","-50","","Ice Crystals"
"-85.81","79.99","EUREKA A","2401203","2019-01-30 09:00","2019","01","30","09:00","-40.1","","-44.3","","65","","","","6","","6","","24.1","","102.35","","","","-48","","Ice Crystals"
"-85.81","79.99","EUREKA A","2401203","2019-01-30 10:00","2019","01","30","10:00","-40.3","","-44.5","","65","","","","8","","4","","24.1","","102.33","","","","-46","","Ice Crystals"
"-85.81","79.99","EUREKA A","2401203","2019-01-30 11:00","2019","01","30","11:00","-40.4","","-44.5","","65","","","","7","","4","","24.1","","102.34","","","","-46","","Ice Crystals"
"-85.81","79.99","EUREKA A","2401203","2019-01-30 12:00","2019","01","30","12:00","-38.5","","-42.7","","66","","","","2","","3","","24.1","","102.33","","","","-43","","Ice Crystals"
"-85.81","79.99","EUREKA A","2401203","2019-01-30 13:00","2019","01","30","13:00","-39.9","","-44.0","","66","","","","2","","3","","24.1","","102.34","","","","-44","","Ice Crystals"
"-85.81","79.99","EUREKA A","2401203","2019-01-30 14:00","2019","01","30","14:00","-39.1","","-43.3","","66","","","","36","","1","","24.1","","102.36","","","","-40","","Ice Crystals"
"-85.81","79.99","EUREKA A","2401203","2019-01-30 15:00","2019","01","30","15:00","-39.6","","-43.7","","66","","","","36","","2","","24.1","","102.38","","","","-42","","Ice Crystals"
"-85.81","79.99","EUREKA A","2401203","2019-01-30 16:00","2019","01","30","16:00","-39.8","","-43.9","","66","","","","22","","4","","24.1","","102.42","","","","-45","","Ice Crystals"
"-85.81","79.99","EUREKA A","2401203","2019-01-30 17:00","2019","01","30","17:00","-40.7","","-44.9","","65","","","","36","","3","","24.1","","102.46","","","","-45","","Ice Crystals"
"-85.81","79.99","EUREKA A","2401203","2019-01-30 18:00","2019","01","30","18:00","-40.4","","-44.6","","65","","","","7","","3","","24.1","","102.47","","","","-45","","Ice Crystals"
"-85.81","79.99","EUREKA A","2401203","2019-01-30 19:00","2019","01","30","19:00","-39.5","","-43.6","","66","","","","36","","1","","24.1","","102.50","","","","-41","","Ice Crystals"
"-85.81","79.99","EUREKA A","2401203","2019-01-30 20:00","2019","01","30","20:00","-38.4","","-42.5","","66","","","","36","","3","","24.1","","102.50","","","","-42","","Ice Crystals"
"-85.81","79.99","EUREKA A","2401203","2019-01-30 21:00","2019","01","30","21:00","-40.1","","-44.3","","65","","","","28","","3","","24.1","","102.55","","","","-44","","Ice Crystals"
"-85.81","79.99","EUREKA A","2401203","2019-01-30 22:00","2019","01","30","22:00"
"-85.81","79.99","EUREKA A","2401203","2019-01-30 23:00","2019","01","30","23:00"
"-85.81","79.99","EUREKA A","2401203","2019-01-31 00:00","2019","01","31","00:00","-40.2","","-44.4","","66","","","","14","","14","","24.1","","102.65","","","","-54","","Ice Crystals"
"-85.81","79.99","EUREKA A","2401203","2019-01-31 01:00","2019","01","31","01:00","-41.4","","-45.6","","65","","","","6","","5","","24.1","","102.69","","","","-49","","Ice Crystals"
"-85.81","79.99","EUREKA A","2401203","2019-01-31 02:00","2019","01","31","02:00","-40.1","","-44.3","","65","","","","11","","4","","24.1","","102.73","","","","-46","","Ice Crystals"
"-85.81","79.99","EUREKA A","2401203","2019-01-31 03:00","2019","01","31","03:00","-40.0","","-44.2","","65","","","","6","","3","","24.1","","102.79","","","","-44","","Ice Crystals"
"-85.81","79.99","EUREKA A","2401203","2019-01-31 04:00","2019","01","31","04:00","-39.7","","-43.8","","66","","","","7","","6","","24.1","","102.85","","","","-48","","Ice Crystals"
"-85.81","79.99","EUREKA A","2401203","2019-01-31 05:00","2019","01","31","05:00","-40.8","","-45.0","","65","","","","12","","10","","24.1","","102.86","","","","-52","","Ice Crystals"
"-85.81","79.99","EUREKA A","2401203","2019-01-31 06:00","2019","01","31","06:00","-40.9","","-45.1","","65","","","","9","","6","","24.1","","102.89","","","","-49","","Ice Crystals"
"-85.81","79.99","EUREKA A","2401203","2019-01-31 07:00","2019","01","31","07:00","-38.4","","-42.5","","66","","","","36","","3","","24.1","","102.90","","","","-42","","Ice Crystals"
"-85.81","79.99","EUREKA A","2401203","2019-01-31 08:00","2019","01","31","08:00","-39.2","","-43.3","","66","","","","10","","5","","24.1","","102.91","","","","-46","","Ice Crystals"
"-85.81","79.99","EUREKA A","2401203","2019-01-31 09:00","2019","01","31","09:00","-37.6","","-41.7","","67","","","","36","","2","","24.1","","102.93","","","","-40","","Ice Crystals"
"-85.81","79.99","EUREKA A","2401203","2019-01-31 10:00","2019","01","31","10:00","-38.1","","-42.1","","66","","","","19","","4","","24.1","","102.96","","","","-43","","Ice Crystals"
"-85.81","79.99","EUREKA A","2401203","2019-01-31 11:00","2019","01","31","11:00","-38.1","","-42.1","","67","","","","36","","3","","24.1","","102.97","","","","-42","","Ice Crystals"
"-85.81","79.99","EUREKA A","2401203","2019-01-31 12:00","2019","01","31","12:00","-39.7","","-43.9","","66","","","","24","","4","","19.3","","102.99","","","","-45","","Ice Crystals"
"-85.81","79.99","EUREKA A","2401203","2019-01-31 13:00","2019","01","31","13:00","-39.5","","-43.6","","66","","","","36","","1","","19.3","","103.01","","","","-41","","Ice Crystals"
"-85.81","79.99","EUREKA A","2401203","2019-01-31 14:00","2019","01","31","14:00","-39.5","","-43.7","","66","","","","0","","1","","24.1","","103.05","","","","-41","","Ice Crystals"
"-85.81","79.99","EUREKA A","2401203","2019-01-31 15:00","2019","01","31","15:00","-38.9","","-43.0","","66","","","","36","","1","","24.1","","103.07","","","","-40","","Ice Crystals"
"-85.81","79.99","EUREKA A","2401203","2019-01-31 16:00","2019","01","31","16:00","-39.5","","-43.7","","66","","","","36","","2","","24.1","","103.07","","","","-42","","Ice Crystals"
"-85.81","79.99","EUREKA A","2401203","2019-01-31 17:00","2019","01","31","17:00","-39.3","","-43.4","","66","","","","0","","1","","24.1","","103.12","","","","-41","","Ice Crystals"
"-85.81","79.99","EUREKA A","2401203","2019-01-31 18:00","2019","01","31","18:00","-39.6","","-43.8","","66","","","","1","","3","","24.1","","103.08","","","","-44","","Ice Crystals"
"-85.81","79.99","EUREKA A","2401203","2019-01-31 19:00","2019","01","31","19:00","-40.0","","-44.2","","66","","","","18","","6","","24.1","","103.07","","","","-48","","Ice Crystals"
"-85.81","79.99","EUREKA A","2401203","2019-01-31 20:00","2019","01","31","20:00","-40.1","","-44.2","","66","","","","5","","4","","24.1","","103.06","","","","-46","","Ice Crystals"
"-85.81","79.99","EUREKA A","2401203","2019-01-31 21:00","2019","01","31","21:00","-38.9","","-43.0","","66","","","","","","0","","24.1","","103.01","","","","","","Ice Crystals"
"-85.81","79.99","EUREKA A","2401203","2019-01-31 22:00","2019","01","31","22:00"
"-85.81","79.99","EUREKA A","2401203","2019-01-31 23:00","2019","01","31","23:00"
