"Longitude (x)","Latitude (y)","Station Name","Climate ID","Date/Time (LST)","Year","Month","Day","Time (LST)","Temp (°C)","Temp Flag","Dew Point Temp (°C)","Dew Point Temp Flag","Rel Hum (%)","Rel Hum Flag","Precip. Amount (mm)","Precip. Amount Flag","Wind Dir (10s deg)","Wind Dir Flag","Wind Spd (km/h)","Wind Spd Flag","Visibility (km)","Visibility Flag","Stn Press (kPa)","Stn Press Flag","Hmdx","Hmdx Flag","Wind Chill","Wind Chill Flag","Weather"
"-81.24","68.78","HALL BEACH AWOS","2402352","2012-02-01 00:00","2012","02","01","00:00","-31.6","","-35.8","","66","","","","35","","6","","15.0","","101.47","","","","-38","",""
"-81.24","68.78","HALL BEACH AWOS","2402352","2012-02-01 01:00","2012","02","01","01:00","-29.9","","-34.1","","67","","","","","","0","","15.0","","101.48","","","","","",""
"-81.24","68.78","HALL BEACH AWOS","2402352","2012-02-01 02:00","2012","02","01","02:00","-30.0","","-34.3","","66","","","","","","0","","15.0","","101.49","","","","","",""
"-81.24","68.78","HALL BEACH AWOS","2402352","2012-02-01 03:00","2012","02","01","03:00","-31.1","","-35.1","","68","","","","","","0","","15.0","","101.53","","","","","",""
"-81.24","68.78","HALL BEACH AWOS","2402352","2012-02-01 04:00","2012","02","01","04:00","-29.1","","-33.3","","67","","","","","","0","","5.6","","101.54","","","","","",""
"-81.24","68.78","HALL BEACH AWOS","2402352","2012-02-01 05:00","2012","02","01","05:00","-27.3","","-31.0","","71","","","","","","0","","15.0","","101.53","","","","","","Snow"
"-81.24","68.78","HALL BEACH AWOS","2402352","2012-02-01 06:00","2012","02","01","06:00","-25.7","","-28.9","","74","","","","","","0","","15.0","","101.52","","","","","",""
"-81.24","68.78","HALL BEACH AWOS","2402352","2012-02-01 07:00","2012","02","01","07:00","-20.9","","-23.8","","77","","","","18","","7","","15.0","","101.52","","","","-27","",""
"-81.24","68.78","HALL BEACH AWOS","2402352","2012-02-01 08:00","2012","02","01","08:00","-19.8","","-22.6","","78","","","","19","","9","","15.0","","101.53","","","","-27","","Snow"
"-81.24","68.78","HALL BEACH AWOS","2402352","2012-02-01 09:00","2012","02","01","09:00","-21.0","","-24.0","","77","","","","20","","7","","15.0","","101.54","","","","-27","",""
"-81.24","68.78","HALL BEACH AWOS","2402352","2012-02-01 10:00","2012","02","01","10:00","-20.5","","-23.6","","76","","","","19","","9","","15.0","","101.53","","","","-27","","Snow"
"-81.24","68.78","HALL BEACH AWOS","2402352","2012-02-01 11:00","2012","02","01","11:00","-21.5","","-24.8","","75","","","","","","0","","15.0","","101.54","","","","","","Snow"
"-81.24","68.78","HALL BEACH AWOS","2402352","2012-02-01 12:00","2012","02","01","12:00","-20.8","","-23.8","","77","","","","20","","7","","15.0","","101.53","","","","-27","",""
"-81.24","68.78","HALL BEACH AWOS","2402352","2012-02-01 13:00","2012","02","01","13:00","-18.8","","-21.6","","79","","","","19","","9","","15.0","","101.53","","","","-25","","Snow"
"-81.24","68.78","HALL BEACH AWOS","2402352","2012-02-01 14:00","2012","02","01","14:00","-21.9","","-25.4","","73","","","","23","","7","","15.0","","101.56","","","","-28","",""
"-81.24","68.78","HALL BEACH AWOS","2402352","2012-02-01 15:00","2012","02","01","15:00","-21.9","","-25.3","","74","","","","22","","4","","15.0","","101.62","","","","-26","",""
"-81.24","68.78","HALL BEACH AWOS","2402352","2012-02-01 16:00","2012","02","01","16:00","-22.0","","-25.4","","74","","","","22","","7","","15.0","","101.64","","","","-28","",""
"-81.24","68.78","HALL BEACH AWOS","2402352","2012-02-01 17:00","2012","02","01","17:00","-21.8","","-24.9","","76","","","","","","0","","15.0","","101.68","","","","","",""
"-81.24","68.78","HALL BEACH AWOS","2402352","2012-02-01 18:00","2012","02","01","18:00","-22.5","","-25.8","","74","","","","","","0","","15.0","","101.72","","","","","",""
"-81.24","68.78","HALL BEACH AWOS","2402352","2012-02-01 19:00","2012","02","01","19:00","-23.1","","-26.9","","71","","","","","","0","","15.0","","101.73","","","","","",""
"-81.24","68.78","HALL BEACH AWOS","2402352","2012-02-01 20:00","2012","02","01","20:00","-21.0","","-23.9","","77","","","","","","0","","15.0","","101.73","","","","","",""
"-81.24","68.78","HALL BEACH AWOS","2402352","2012-02-01 21:00","2012","02","01","21:00","-24.9","","-29.0","","69","","","","","","0","","15.0","","101.75","","","","","",""
"-81.24","68.78","HALL BEACH AWOS","2402352","2012-02-01 22:00","2012","02","01","22:00","-23.7","","-27.5","","71","","","","","","0","","15.0","","101.75","","","","","",""
"-81.24","68.78","HALL BEACH AWOS","2402352","2012-02-01 23:00","2012","02","01","23:00","-22.3","","-25.6","","74","","","","","","0","","15.0","","101.76","","","","","",""
"-81.24","68.78","HALL BEACH AWOS","2402352","2012-02-02 00:00","2012","02","02","00:00","-24.9","","-28.6","","71","","","","","","0","","15.0","","101.79","","","","","",""
"-81.24","68.78","HALL BEACH AWOS","2402352","2012-02-02 01:00","2012","02","02","01:00","-26.3","","-30.3","","69","","","","33","","4","","15.0","","101.83","","","","-30","",""
"-81.24","68.78","HALL BEACH AWOS","2402352","2012-02-02 02:00","2012","02","02","02:00","-26.6","","-30.7","","68","","","","23","","6","","15.0","","101.85","","","","-33","",""
"-81.24","68.78","HALL BEACH AWOS","2402352","2012-02-02 03:00","2012","02","02","03:00","-24.9","","-28.7","","71","","","","28","","6","","15.0","","101.89","","","","-31","",""
"-81.24","68.78","HALL BEACH AWOS","2402352","2012-02-02 04:00","2012","02","02","04:00","-21.8","","-25.1","","75","","","","28","","9","","15.0","","101.93","","","","-29","",""
"-81.24","68.78","HALL BEACH AWOS","2402352","2012-02-02 05:00","2012","02","02","05:00","-21.0","","-24.1","","76","","","","27","","13","","15.0","","101.94","","","","-30","",""
"-81.24","68.78","HALL BEACH AWOS","2402352","2012-02-02 06:00","2012","02","02","06:00","-20.5","","-23.6","","76","","","","25","","13","","15.0","","101.99","","","","-29","","Snow"
"-81.24","68.78","HALL BEACH AWOS","2402352","2012-02-02 07:00","2012","02","02","07:00","-20.7","","-23.8","","76","","","","25","","11","","15.0","","102.00","","","","-28","",""
"-81.24","68.78","HALL BEACH AWOS","2402352","2012-02-02 08:00","2012","02","02","08:00","-20.7","","-23.7","","77","","","","27","","15","","15.0","","102.03","","","","-30","",""
"-81.24","68.78","HALL BEACH AWOS","2402352","2012-02-02 09:00","2012","02","02","09:00","-20.7","","-23.8","","76","","","","25","","15","","15.0","","102.04","","","","-30","",""
"-81.24","68.78","HALL BEACH AWOS","2402352","2012-02-02 10:00","2012","02","02","10:00","-21.3","","-24.4","","76","","","","25","","15","","15.0","","102.04","","","","-31","",""
"-81.24","68.78","HALL BEACH AWOS","2402352","2012-02-02 11:00","2012","02","02","11:00","-24.4","","-28.1","","71","","","","26","","17","","15.0","","102.03","","","","-35","",""
"-81.24","68.78","HALL BEACH AWOS","2402352","2012-02-02 12:00","2012","02","02","12:00","-25.7","","-29.6","","70","","","","26","","15","","15.0","","102.01","","","","-36","",""
"-81.24","68.78","HALL BEACH AWOS","2402352","2012-02-02 13:00","2012","02","02","13:00","-27.4","","-31.6","","67","","","","27","","15","","15.0","","102.05","","","","-38","",""
"-81.24","68.78","HALL BEACH AWOS","2402352","2012-02-02 14:00","2012","02","02","14:00","-27.5","","-31.3","","70","","","","27","","17","","15.0","","102.04","","","","-39","",""
"-81.24","68.78","HALL BEACH AWOS","2402352","2012-02-02 15:00","2012","02","02","15:00","-27.2","","-31.6","","66","","","","25","","11","","15.0","","102.05","","","","-36","",""
"-81.24","68.78","HALL BEACH AWOS","2402352","2012-02-02 16:00","2012","02","02","16:00","-24.4","","-27.9","","73","","","","27","","9","","15.0","","102.07","","","","-32","",""
"-81.24","68.78","HALL BEACH AWOS","2402352","2012-02-02 17:00","2012","02","02","17:00","-23.2","","-26.7","","73","","","","29","","7","","15.0","","102.04","","","","-29","",""
"-81.24","68.78","HALL BEACH AWOS","2402352","2012-02-02 18:00","2012","02","02","18:00","-22.5","","-25.7","","75","","","","23","","4","","15.0","","101.97","","","","-26","",""
"-81.24","68.78","HALL BEACH AWOS","2402352","2012-02-02 19:00","2012","02","02","19:00","-23.9","","-27.6","","71","","","","22","","4","","15.0","","101.96","","","","-28","",""
"-81.24","68.78","HALL BEACH AWOS","2402352","2012-02-02 20:00","2012","02","02","20:00","-24.4","","-28.1","","71","","","","","","0","","15.0","","101.96","","","","","",""
"-81.24","68.78","HALL BEACH AWOS","2402352","2012-02-02 21:00","2012","02","02","21:00","-25.2","","-29.4","","68","","","","","","0","","15.0","","101.87","","","","","",""
"-81.24","68.78","HALL BEACH AWOS","2402352","2012-02-02 22:00","2012","02","02","22:00","-25.4","","-29.2","","70","","","","","","0","","15.0","","101.84","","","","","",""
"-81.24","68.78","HALL BEACH AWOS","2402352","2012-02-02 23:00","2012","02","02","23:00","-27.2","","-31.1","","69","","","","","","0","","15.0","","101.80","","","","","",""
"-81.24","68.78","HALL BEACH AWOS","2402352","2012-02-03 00:00","2012","02","03","00:00","-26.8","","-30.6","","70","","","","29","","4","","15.0","","101.75","","","","-31","",""
"-81.24","68.78","HALL BEACH AWOS","2402352","2012-02-03 01:00","2012","02","03","01:00","-27.2","","-30.9","","71","","","","34","","6","","15.0","","101.70","","","","-33","",""
"-81.24","68.78","HALL BEACH AWOS","2402352","2012-02-03 02:00","2012","02","03","02:00","-27.2","","-31.0","","70","","","","1","","6","","15.0","","101.66","","","","-33","",""
"-81.24","68.78","HALL BEACH AWOS","2402352","2012-02-03 03:00","2012","02","03","03:00","-24.7","","-27.9","","75","","","","","","0","","15.0","","101.58","","","","","",""
"-81.24","68.78","HALL BEACH AWOS","2402352","2012-02-03 04:00","2012","02","03","04:00","-25.0","","-29.0","","69","","","","16","","6","","15.0","","101.53","","","","-31","",""
"-81.24","68.78","HALL BEACH AWOS","2402352","2012-02-03 05:00","2012","02","03","05:00","-23.9","","-27.9","","70","","","","","","0","","15.0","","101.46","","","","","",""
"-81.24","68.78","HALL BEACH AWOS","2402352","2012-02-03 06:00","2012","02","03","06:00","-25.6","","-29.3","","71","","","","20","","7","","15.0","","101.43","","","","-32","",""
"-81.24","68.78","HALL BEACH AWOS","2402352","2012-02-03 07:00","2012","02","03","07:00","-20.5","","-23.2","","79","","","","19","","9","","15.0","","101.38","","","","-27","",""
"-81.24","68.78","HALL BEACH AWOS","2402352","2012-02-03 08:00","2012","02","03","08:00","-20.2","","-23.1","","78","","","","18","","11","","15.0","","101.27","","","","-28","",""
"-81.24","68.78","HALL BEACH AWOS","2402352","2012-02-03 09:00","2012","02","03","09:00","-19.9","","-22.9","","77","","","","18","","15","","15.0","","101.16","","","","-29","",""
"-81.24","68.78","HALL BEACH AWOS","2402352","2012-02-03 10:00","2012","02","03","10:00","-20.0","","-22.9","","78","","","","18","","15","","15.0","","101.07","","","","-29","",""
"-81.24","68.78","HALL BEACH AWOS","2402352","2012-02-03 11:00","2012","02","03","11:00","-20.2","","-23.2","","77","","","","19","","17","","15.0","","101.06","","","","-30","",""
"-81.24","68.78","HALL BEACH AWOS","2402352","2012-02-03 12:00","2012","02","03","12:00","-20.0","","-23.0","","77","","","","17","","17","","15.0","","100.90","","","","-30","",""
"-81.24","68.78","HALL BEACH AWOS","2402352","2012-02-03 13:00","2012","02","03","13:00","-19.6","","-22.6","","77","","","","17","","19","","15.0","","100.77","","","","-30","",""
"-81.24","68.78","HALL BEACH AWOS","2402352","2012-02-03 14:00","2012","02","03","14:00","-18.9","","-21.6","","79","","","","18","","22","","15.0","","100.70","","","","-30","",""
"-81.24","68.78","HALL BEACH AWOS","2402352","2012-02-03 15:00","2012","02","03","15:00","-18.2","","-20.9","","79","","","","18","","22","","15.0","","100.66","","","","-29","",""
"-81.24","68.78","HALL BEACH AWOS","2402352","2012-02-03 16:00","2012","02","03","16:00","-17.8","","-20.6","","79","","","","19","","20","","15.0","","100.65","","","","-28","",""
"-81.24","68.78","HALL BEACH AWOS","2402352","2012-02-03 17:00","2012","02","03","17:00","-16.7","","-20.9","","70","","","","19","","28","","15.0","","100.50","","","","-28","",""
"-81.24","68.78","HALL BEACH AWOS","2402352","2012-02-03 18:00","2012","02","03","18:00","-16.3","","-18.6","","82","","","","19","","22","","15.0","","100.48","","","","-26","",""
"-81.24","68.78","HALL BEACH AWOS","2402352","2012-02-03 19:00","2012","02","03","19:00","-16.0","","-18.3","","82","","","","21","","24","","15.0","","100.45","","","","-26","","Snow"
"-81.24","68.78","HALL BEACH AWOS","2402352","2012-02-03 20:00","2012","02","03","20:00","-16.1","","-18.3","","83","","","","21","","24","","15.0","","100.38","","","","-26","","Snow"
"-81.24","68.78","HALL BEACH AWOS","2402352","2012-02-03 21:00","2012","02","03","21:00","-16.5","","-16.8","","98","","","","22","","28","","2.1","","100.40","","","","-28","","Snow"
"-81.24","68.78","HALL BEACH AWOS","2402352","2012-02-03 22:00","2012","02","03","22:00","-16.5","","-19.3","","79","","","","21","","26","","11.3","","100.36","","","","-27","","Snow"
"-81.24","68.78","HALL BEACH AWOS","2402352","2012-02-03 23:00","2012","02","03","23:00","-16.4","","-19.4","","78","","","","21","","24","","15.0","","100.33","","","","-27","","Snow"
"-81.24","68.78","HALL BEACH AWOS","2402352","2012-02-04 00:00","2012","02","04","00:00","-16.2","","-18.1","","85","","","","23","","26","","15.0","","100.29","","","","-27","","Snow"
"-81.24","68.78","HALL BEACH AWOS","2402352","2012-02-04 01:00","2012","02","04","01:00","-16.0","","-18.3","","82","","","","24","","24","","15.0","","100.29","","","","-26","",""
"-81.24","68.78","HALL BEACH AWOS","2402352","2012-02-04 02:00","2012","02","04","02:00","-17.9","","-20.6","","79","","","","30","","32","","12.9","","100.32","","","","-30","","Snow"
"-81.24","68.78","HALL BEACH AWOS","2402352","2012-02-04 03:00","2012","02","04","03:00","-19.0","","-22.1","","76","","","","30","","30","","15.0","","100.40","","","","-31","","Snow"
"-81.24","68.78","HALL BEACH AWOS","2402352","2012-02-04 04:00","2012","02","04","04:00","-19.6","","-22.6","","77","","","","31","","20","","15.0","","100.45","","","","-30","","Snow"
"-81.24","68.78","HALL BEACH AWOS","2402352","2012-02-04 05:00","2012","02","04","05:00","-19.7","","-22.7","","77","","","","30","","24","","15.0","","100.49","","","","-31","","Snow"
"-81.24","68.78","HALL BEACH AWOS","2402352","2012-02-04 06:00","2012","02","04","06:00","-20.1","","-23.2","","76","","","","30","","28","","15.0","","100.53","","","","-32","",""
"-81.24","68.78","HALL BEACH AWOS","2402352","2012-02-04 07:00","2012","02","04","07:00","-20.4","","-23.5","","76","","","","30","","24","","15.0","","100.52","","","","-32","","Snow"
"-81.24","68.78","HALL BEACH AWOS","2402352","2012-02-04 08:00","2012","02","04","08:00","-20.5","","-23.7","","75","","","","29","","28","","15.0","","100.53","","","","-33","","Snow"
"-81.24","68.78","HALL BEACH AWOS","2402352","2012-02-04 09:00","2012","02","04","09:00","-20.3","","-23.3","","77","","","","30","","33","","6.4","","100.53","","","","-33","",""
"-81.24","68.78","HALL BEACH AWOS","2402352","2012-02-04 10:00","2012","02","04","10:00","-20.0","","-23.0","","77","","","","30","","30","","3.5","","100.55","","","","-33","","Snow"
"-81.24","68.78","HALL BEACH AWOS","2402352","2012-02-04 11:00","2012","02","04","11:00","-20.1","","-23.1","","77","","","","30","","30","","8.0","","100.54","","","","-33","",""
"-81.24","68.78","HALL BEACH AWOS","2402352","2012-02-04 12:00","2012","02","04","12:00","-21.8","","-34.8","","30","","","","31","","22","","15.0","","100.52","","","","-33","",""
"-81.24","68.78","HALL BEACH AWOS","2402352","2012-02-04 13:00","2012","02","04","13:00","-21.1","","-24.5","","74","","","","31","","19","","15.0","","100.48","","","","-32","",""
"-81.24","68.78","HALL BEACH AWOS","2402352","2012-02-04 14:00","2012","02","04","14:00","-20.6","","-23.7","","76","","","","30","","17","","15.0","","100.50","","","","-30","",""
"-81.24","68.78","HALL BEACH AWOS","2402352","2012-02-04 15:00","2012","02","04","15:00","-21.7","","-25.0","","75","","","","30","","26","","15.0","","100.52","","","","-34","",""
"-81.24","68.78","HALL BEACH AWOS","2402352","2012-02-04 16:00","2012","02","04","16:00","-23.5","","-27.0","","73","","","","31","","28","","15.0","","100.52","","","","-37","","Snow"
"-81.24","68.78","HALL BEACH AWOS","2402352","2012-02-04 17:00","2012","02","04","17:00","-25.7","","-29.6","","70","","","","34","","15","","15.0","","100.51","","","","-36","",""
"-81.24","68.78","HALL BEACH AWOS","2402352","2012-02-04 18:00","2012","02","04","18:00","-26.2","","-30.1","","70","","","","35","","22","","15.0","","100.51","","","","-39","",""
"-81.24","68.78","HALL BEACH AWOS","2402352","2012-02-04 19:00","2012","02","04","19:00","-27.5","","-31.4","","69","","","","33","","19","","15.0","","100.57","","","","-40","",""
"-81.24","68.78","HALL BEACH AWOS","2402352","2012-02-04 20:00","2012","02","04","20:00","-28.0","","-31.7","","71","","","","33","","17","","15.0","","100.60","","","","-40","",""
"-81.24","68.78","HALL BEACH AWOS","2402352","2012-02-04 21:00","2012","02","04","21:00","-28.8","","-33.1","","66","","","","32","","26","","15.0","","100.62","","","","-43","",""
"-81.24","68.78","HALL BEACH AWOS","2402352","2012-02-04 22:00","2012","02","04","22:00","-25.9","","-29.7","","70","","","","33","","26","","12.9","","100.60","","","","-39","",""
"-81.24","68.78","HALL BEACH AWOS","2402352","2012-02-04 23:00","2012","02","04","23:00","-24.4","","-27.8","","73","","","","34","","26","","14.5","","100.61","","","","-37","",""
"-81.24","68.78","HALL BEACH AWOS","2402352","2012-02-05 00:00","2012","02","05","00:00","-26.1","","-30.0","","70","","","","35","","20","","15.0","","100.64","","","","-38","",""
"-81.24","68.78","HALL BEACH AWOS","2402352","2012-02-05 01:00","2012","02","05","01:00","-25.3","","-28.9","","72","","","","33","","22","","15.0","","100.63","","","","-38","",""
"-81.24","68.78","HALL BEACH AWOS","2402352","2012-02-05 02:00","2012","02","05","02:00","-27.9","","-31.9","","69","","","","32","","19","","15.0","","100.65","","","","-40","",""
"-81.24","68.78","HALL BEACH AWOS","2402352","2012-02-05 03:00","2012","02","05","03:00","-28.4","","-32.6","","67","","","","32","","22","","15.0","","100.67","","","","-42","",""
"-81.24","68.78","HALL BEACH AWOS","2402352","2012-02-05 04:00","2012","02","05","04:00","-29.8","","-34.1","","66","","","","31","","13","","15.0","","100.67","","","","-40","",""
"-81.24","68.78","HALL BEACH AWOS","2402352","2012-02-05 05:00","2012","02","05","05:00","-30.5","","-34.6","","67","","","","34","","22","","12.9","","100.73","","","","-44","",""
"-81.24","68.78","HALL BEACH AWOS","2402352","2012-02-05 06:00","2012","02","05","06:00","-31.4","","-35.9","","64","","","","32","","28","","15.0","","100.77","","","","-47","",""
"-81.24","68.78","HALL BEACH AWOS","2402352","2012-02-05 07:00","2012","02","05","07:00","-31.8","","-36.1","","66","","","","32","","28","","9.7","","100.74","","","","-48","",""
"-81.24","68.78","HALL BEACH AWOS","2402352","2012-02-05 08:00","2012","02","05","08:00","-32.5","","-36.9","","65","","","","32","","30","","15.0","","100.76","","","","-49","",""
"-81.24","68.78","HALL BEACH AWOS","2402352","2012-02-05 09:00","2012","02","05","09:00","-32.0","","-36.3","","66","","","","34","","15","","5.6","","100.81","","","","-44","",""
"-81.24","68.78","HALL BEACH AWOS","2402352","2012-02-05 10:00","2012","02","05","10:00","-31.5","","-35.7","","66","","","","33","","43","","1.0","","100.72","","","","-50","","Snow"
"-81.24","68.78","HALL BEACH AWOS","2402352","2012-02-05 11:00","2012","02","05","11:00","-31.4","","-35.6","","66","","","","33","","37","","1.3","","100.72","","","","-49","",""
"-81.24","68.78","HALL BEACH AWOS","2402352","2012-02-05 12:00","2012","02","05","12:00","-30.7","","-35.0","","66","","","","32","","26","","1.4","","100.71","","","","-46","",""
"-81.24","68.78","HALL BEACH AWOS","2402352","2012-02-05 13:00","2012","02","05","13:00","-30.3","","-34.6","","66","","","","33","","44","","0.6","","100.63","","","","-49","","Snow"
"-81.24","68.78","HALL BEACH AWOS","2402352","2012-02-05 14:00","2012","02","05","14:00","-29.6","","-33.7","","68","","","","33","","43","","0.6","","100.69","","","","-47","","Snow"
"-81.24","68.78","HALL BEACH AWOS","2402352","2012-02-05 15:00","2012","02","05","15:00","-29.2","","-33.4","","67","","","","34","","44","","0.6","","100.68","","","","-47","",""
"-81.24","68.78","HALL BEACH AWOS","2402352","2012-02-05 16:00","2012","02","05","16:00","-29.2","","-33.4","","67","","","","34","","46","","0.6","","100.68","","","","-47","","Snow"
"-81.24","68.78","HALL BEACH AWOS","2402352","2012-02-05 17:00","2012","02","05","17:00","-29.6","","-33.9","","66","","","","34","","46","","0.5","","100.70","","","","-48","",""
"-81.24","68.78","HALL BEACH AWOS","2402352","2012-02-05 18:00","2012","02","05","18:00","-29.5","","-33.6","","68","","","","33","","50","","0.5","","100.73","","","","-48","","Snow"
"-81.24","68.78","HALL BEACH AWOS","2402352","2012-02-05 19:00","2012","02","05","19:00","-29.5","","-33.6","","68","","","","33","","50","","0.6","","100.71","","","","-48","","Snow"
"-81.24","68.78","HALL BEACH AWOS","2402352","2012-02-05 20:00","2012","02","05","20:00","-30.2","","-34.4","","67","","","","32","","44","","1.0","","100.69","","","","-48","","Snow"
"-81.24","68.78","HALL BEACH AWOS","2402352","2012-02-05 21:00","2012","02","05","21:00","-30.8","","-35.3","","65","","","","32","","39","","2.1","","100.67","","","","-48","",""
"-81.24","68.78","HALL BEACH AWOS","2402352","2012-02-05 22:00","2012","02","05","22:00","-31.4","","-35.6","","66","","","","32","","35","","3.2","","100.67","","","","-48","","Snow"
"-81.24","68.78","HALL BEACH AWOS","2402352","2012-02-05 23:00","2012","02","05","23:00","-31.7","","-35.9","","66","","","","32","","41","","1.9","","100.62","","","","-50","","Snow"
"-81.24","68.78","HALL BEACH AWOS","2402352","2012-02-06 00:00","2012","02","06","00:00","-31.3","","-35.5","","66","","","","32","","37","","1.8","","100.57","","","","-49","","Snow"
"-81.24","68.78","HALL BEACH AWOS","2402352","2012-02-06 01:00","2012","02","06","01:00","-30.6","","-34.8","","67","","","","34","","41","","0.6","","100.54","","","","-48","","Snow"
"-81.24","68.78","HALL BEACH AWOS","2402352","2012-02-06 02:00","2012","02","06","02:00","-30.4","","-34.8","","65","","","","33","","43","","1.8","","100.48","","","","-49","","Snow"
"-81.24","68.78","HALL BEACH AWOS","2402352","2012-02-06 03:00","2012","02","06","03:00","-29.9","","-34.1","","67","","","","32","","26","","2.9","","100.53","","","","-45","",""
"-81.24","68.78","HALL BEACH AWOS","2402352","2012-02-06 04:00","2012","02","06","04:00"
"-81.24","68.78","HALL BEACH AWOS","2402352","2012-02-06 05:00","2012","02","06","05:00","-28.5","","-32.5","","68","","","","34","","39","","1.6","","100.41","","","","-45","",""
"-81.24","68.78","HALL BEACH AWOS","2402352","2012-02-06 06:00","2012","02","06","06:00","-27.8","","-31.8","","69","","","","32","","33","","1.6","","100.42","","","","-43","",""
"-81.24","68.78","HALL BEACH AWOS","2402352","2012-02-06 07:00","2012","02","06","07:00","-27.5","","-31.5","","69","","","","33","","33","","3.1","","100.40","","","","-43","",""
"-81.24","68.78","HALL BEACH AWOS","2402352","2012-02-06 08:00","2012","02","06","08:00","-27.5","","-31.5","","69","","","","33","","41","","3.9","","100.34","","","","-44","",""
"-81.24","68.78","HALL BEACH AWOS","2402352","2012-02-06 09:00","2012","02","06","09:00","-27.0","","-31.0","","69","","","","33","","46","","2.7","","100.28","","","","-44","","Snow"
"-81.24","68.78","HALL BEACH AWOS","2402352","2012-02-06 10:00","2012","02","06","10:00","-26.9","","-30.8","","69","","","","32","","41","","1.4","","100.27","","","","-44","","Snow"
"-81.24","68.78","HALL BEACH AWOS","2402352","2012-02-06 11:00","2012","02","06","11:00","-27.8","","-31.8","","69","","","","32","","35","","5.6","","100.23","","","","-44","",""
"-81.24","68.78","HALL BEACH AWOS","2402352","2012-02-06 12:00","2012","02","06","12:00","-28.5","","-32.7","","67","","","","32","","44","","3.1","","100.13","","","","-46","","Snow"
"-81.24","68.78","HALL BEACH AWOS","2402352","2012-02-06 13:00","2012","02","06","13:00","-28.7","","-32.9","","67","","","","32","","28","","9.7","","100.10","","","","-43","","Snow"
"-81.24","68.78","HALL BEACH AWOS","2402352","2012-02-06 14:00","2012","02","06","14:00","-28.7","","-32.9","","67","","","","32","","35","","9.7","","100.02","","","","-45","",""
"-81.24","68.78","HALL BEACH AWOS","2402352","2012-02-06 15:00","2012","02","06","15:00","-29.1","","-33.3","","67","","","","32","","19","","9.7","","99.94","","","","-42","",""
"-81.24","68.78","HALL BEACH AWOS","2402352","2012-02-06 16:00","2012","02","06","16:00","-29.9","","-34.0","","67","","","","31","","19","","15.0","","99.86","","","","-43","",""
"-81.24","68.78","HALL BEACH AWOS","2402352","2012-02-06 17:00","2012","02","06","17:00","-29.3","","-33.3","","68","","","","31","","19","","15.0","","99.78","","","","-42","",""
"-81.24","68.78","HALL BEACH AWOS","2402352","2012-02-06 18:00","2012","02","06","18:00","-28.1","","-32.0","","69","","","","33","","24","","15.0","","99.65","","","","-42","",""
"-81.24","68.78","HALL BEACH AWOS","2402352","2012-02-06 19:00","2012","02","06","19:00","-25.8","","-29.6","","70","","","","33","","20","","15.0","","99.54","","","","-38","",""
"-81.24","68.78","HALL BEACH AWOS","2402352","2012-02-06 20:00","2012","02","06","20:00","-25.0","","-28.8","","71","","","","32","","24","","15.0","","99.37","","","","-38","","Snow"
"-81.24","68.78","HALL BEACH AWOS","2402352","2012-02-06 21:00","2012","02","06","21:00","-24.9","","-28.7","","71","","","","33","","26","","9.7","","99.23","","","","-38","","Snow"
"-81.24","68.78","HALL BEACH AWOS","2402352","2012-02-06 22:00","2012","02","06","22:00","-25.9","","-29.7","","70","","","","32","","19","","15.0","","99.15","","","","-38","",""
"-81.24","68.78","HALL BEACH AWOS","2402352","2012-02-06 23:00","2012","02","06","23:00","-25.4","","-29.2","","70","","","","31","","15","","15.0","","99.06","","","","-36","",""
"-81.24","68.78","HALL BEACH AWOS","2402352","2012-02-07 00:00","2012","02","07","00:00","-25.4","","-29.2","","70","","","","31","","13","","15.0","","98.94","","","","-35","","Snow"
"-81.24","68.78","HALL BEACH AWOS","2402352","2012-02-07 01:00","2012","02","07","01:00","-25.2","","-29.0","","71","","","","32","","20","","11.3","","98.82","","","","-37","","Snow"
"-81.24","68.78","HALL BEACH AWOS","2402352","2012-02-07 02:00","2012","02","07","02:00","-25.3","","-29.1","","71","","","","32","","15","","12.9","","98.75","","","","-36","","Snow"
"-81.24","68.78","HALL BEACH AWOS","2402352","2012-02-07 03:00","2012","02","07","03:00","-25.5","","-29.3","","70","","","","31","","17","","4.8","","98.65","","","","-37","","Snow"
"-81.24","68.78","HALL BEACH AWOS","2402352","2012-02-07 04:00","2012","02","07","04:00","-26.5","","-30.4","","70","","","","34","","17","","15.0","","98.57","","","","-38","",""
"-81.24","68.78","HALL BEACH AWOS","2402352","2012-02-07 05:00","2012","02","07","05:00","-25.8","","-29.7","","70","","","","34","","19","","9.7","","98.55","","","","-38","",""
"-81.24","68.78","HALL BEACH AWOS","2402352","2012-02-07 06:00","2012","02","07","06:00","-25.9","","-29.8","","70","","","","36","","22","","15.0","","98.52","","","","-38","",""
"-81.24","68.78","HALL BEACH AWOS","2402352","2012-02-07 07:00","2012","02","07","07:00","-26.2","","-30.0","","70","","","","34","","22","","15.0","","98.51","","","","-39","",""
"-81.24","68.78","HALL BEACH AWOS","2402352","2012-02-07 08:00","2012","02","07","08:00","-26.1","","-30.0","","70","","","","35","","19","","11.3","","98.54","","","","-38","",""
"-81.24","68.78","HALL BEACH AWOS","2402352","2012-02-07 09:00","2012","02","07","09:00","-26.5","","-30.4","","70","","","","36","","26","","4.0","","98.58","","","","-40","",""
"-81.24","68.78","HALL BEACH AWOS","2402352","2012-02-07 10:00","2012","02","07","10:00","-27.1","","-31.1","","69","","","","36","","26","","6.4","","98.62","","","","-41","",""
"-81.24","68.78","HALL BEACH AWOS","2402352","2012-02-07 11:00","2012","02","07","11:00","-27.3","","-31.4","","68","","","","36","","26","","4.8","","98.64","","","","-41","",""
"-81.24","68.78","HALL BEACH AWOS","2402352","2012-02-07 12:00","2012","02","07","12:00","-25.3","","-29.3","","69","","","","8","","26","","15.0","","98.71","","","","-39","",""
"-81.24","68.78","HALL BEACH AWOS","2402352","2012-02-07 13:00","2012","02","07","13:00","-26.2","","-30.2","","69","","","","8","","24","","15.0","","98.78","","","","-39","",""
"-81.24","68.78","HALL BEACH AWOS","2402352","2012-02-07 14:00","2012","02","07","14:00","-26.5","","-30.5","","69","","","","8","","28","","9.7","","98.86","","","","-41","",""
"-81.24","68.78","HALL BEACH AWOS","2402352","2012-02-07 15:00","2012","02","07","15:00","-27.5","","-31.8","","67","","","","7","","26","","15.0","","98.97","","","","-41","",""
"-81.24","68.78","HALL BEACH AWOS","2402352","2012-02-07 16:00","2012","02","07","16:00","-26.5","","-30.6","","68","","","","7","","33","","3.2","","99.04","","","","-42","",""
"-81.24","68.78","HALL BEACH AWOS","2402352","2012-02-07 17:00","2012","02","07","17:00","-26.1","","-30.3","","68","","","","7","","32","","3.7","","99.12","","","","-41","",""
"-81.24","68.78","HALL BEACH AWOS","2402352","2012-02-07 18:00","2012","02","07","18:00","-26.2","","-30.3","","68","","","","6","","35","","4.8","","99.20","","","","-42","",""
"-81.24","68.78","HALL BEACH AWOS","2402352","2012-02-07 19:00","2012","02","07","19:00","-26.6","","-30.8","","68","","","","6","","32","","8.0","","99.25","","","","-42","",""
"-81.24","68.78","HALL BEACH AWOS","2402352","2012-02-07 20:00","2012","02","07","20:00","-26.1","","-30.2","","68","","","","6","","37","","4.8","","99.27","","","","-42","",""
"-81.24","68.78","HALL BEACH AWOS","2402352","2012-02-07 21:00","2012","02","07","21:00","-25.4","","-29.3","","70","","","","5","","30","","15.0","","99.30","","","","-40","",""
"-81.24","68.78","HALL BEACH AWOS","2402352","2012-02-07 22:00","2012","02","07","22:00","-25.2","","-29.3","","69","","","","6","","33","","15.0","","99.34","","","","-40","",""
"-81.24","68.78","HALL BEACH AWOS","2402352","2012-02-07 23:00","2012","02","07","23:00","-24.9","","-29.3","","67","","","","6","","24","","15.0","","99.38","","","","-38","",""
"-81.24","68.78","HALL BEACH AWOS","2402352","2012-02-08 00:00","2012","02","08","00:00","-24.3","","-28.3","","69","","","","7","","30","","15.0","","99.43","","","","-38","",""
"-81.24","68.78","HALL BEACH AWOS","2402352","2012-02-08 01:00","2012","02","08","01:00","-24.6","","-28.6","","69","","","","7","","26","","15.0","","99.49","","","","-38","",""
"-81.24","68.78","HALL BEACH AWOS","2402352","2012-02-08 02:00","2012","02","08","02:00","-29.0","","-33.9","","63","","","","36","","26","","15.0","","99.53","","","","-43","",""
"-81.24","68.78","HALL BEACH AWOS","2402352","2012-02-08 03:00","2012","02","08","03:00","-29.7","","-34.1","","66","","","","1","","30","","15.0","","99.57","","","","-45","","Snow"
"-81.24","68.78","HALL BEACH AWOS","2402352","2012-02-08 04:00","2012","02","08","04:00","-31.3","","-35.6","","66","","","","36","","26","","15.0","","99.63","","","","-46","",""
"-81.24","68.78","HALL BEACH AWOS","2402352","2012-02-08 05:00","2012","02","08","05:00","-30.9","","-35.3","","65","","","","36","","32","","15.0","","99.64","","","","-47","","Snow"
"-81.24","68.78","HALL BEACH AWOS","2402352","2012-02-08 06:00","2012","02","08","06:00","-30.8","","-35.3","","65","","","","36","","33","","15.0","","99.67","","","","-47","","Snow"
"-81.24","68.78","HALL BEACH AWOS","2402352","2012-02-08 07:00","2012","02","08","07:00","-30.1","","-34.6","","65","","","","36","","30","","15.0","","99.73","","","","-46","","Snow"
"-81.24","68.78","HALL BEACH AWOS","2402352","2012-02-08 08:00","2012","02","08","08:00","-31.6","","-36.0","","65","","","","36","","22","","15.0","","99.78","","","","-46","",""
"-81.24","68.78","HALL BEACH AWOS","2402352","2012-02-08 09:00","2012","02","08","09:00","-30.4","","-35.0","","64","","","","36","","28","","15.0","","99.82","","","","-46","","Snow"
"-81.24","68.78","HALL BEACH AWOS","2402352","2012-02-08 10:00","2012","02","08","10:00","-31.8","","-36.3","","64","","","","36","","24","","15.0","","99.88","","","","-47","",""
"-81.24","68.78","HALL BEACH AWOS","2402352","2012-02-08 11:00","2012","02","08","11:00","-32.6","","-37.0","","65","","","","35","","26","","15.0","","99.90","","","","-48","",""
"-81.24","68.78","HALL BEACH AWOS","2402352","2012-02-08 12:00","2012","02","08","12:00","-29.7","","-34.0","","66","","","","1","","26","","15.0","","99.93","","","","-44","",""
"-81.24","68.78","HALL BEACH AWOS","2402352","2012-02-08 13:00","2012","02","08","13:00","-29.1","","-33.2","","68","","","","36","","22","","15.0","","100.01","","","","-43","",""
"-81.24","68.78","HALL BEACH AWOS","2402352","2012-02-08 14:00","2012","02","08","14:00","-29.0","","-33.2","","67","","","","36","","26","","15.0","","100.03","","","","-43","",""
"-81.24","68.78","HALL BEACH AWOS","2402352","2012-02-08 15:00","2012","02","08","15:00","-29.1","","-33.6","","65","","","","36","","26","","15.0","","100.10","","","","-44","",""
"-81.24","68.78","HALL BEACH AWOS","2402352","2012-02-08 16:00","2012","02","08","16:00","-29.2","","-33.6","","66","","","","36","","24","","15.0","","100.20","","","","-43","",""
"-81.24","68.78","HALL BEACH AWOS","2402352","2012-02-08 17:00","2012","02","08","17:00","-29.5","","-33.6","","68","","","","36","","22","","15.0","","100.28","","","","-43","",""
"-81.24","68.78","HALL BEACH AWOS","2402352","2012-02-08 18:00","2012","02","08","18:00","-29.5","","-33.7","","67","","","","1","","22","","15.0","","100.35","","","","-43","",""
"-81.24","68.78","HALL BEACH AWOS","2402352","2012-02-08 19:00","2012","02","08","19:00","-31.1","","-35.5","","65","","","","36","","20","","15.0","","100.43","","","","-44","",""
"-81.24","68.78","HALL BEACH AWOS","2402352","2012-02-08 20:00","2012","02","08","20:00","-29.1","","-33.2","","68","","","","36","","22","","15.0","","100.49","","","","-43","",""
"-81.24","68.78","HALL BEACH AWOS","2402352","2012-02-08 21:00","2012","02","08","21:00","-29.5","","-34.0","","65","","","","35","","30","","15.0","","100.52","","","","-45","",""
"-81.24","68.78","HALL BEACH AWOS","2402352","2012-02-08 22:00","2012","02","08","22:00","-29.1","","-33.2","","68","","","","35","","26","","15.0","","100.56","","","","-44","",""
"-81.24","68.78","HALL BEACH AWOS","2402352","2012-02-08 23:00","2012","02","08","23:00","-26.7","","-31.0","","67","","","","36","","33","","15.0","","100.57","","","","-42","","Snow"
"-81.24","68.78","HALL BEACH AWOS","2402352","2012-02-09 00:00","2012","02","09","00:00","-28.9","","-33.2","","66","","","","34","","32","","15.0","","100.58","","","","-45","",""
"-81.24","68.78","HALL BEACH AWOS","2402352","2012-02-09 01:00","2012","02","09","01:00","-25.5","","-29.4","","70","","","","36","","37","","15.0","","100.57","","","","-41","","Snow"
"-81.24","68.78","HALL BEACH AWOS","2402352","2012-02-09 02:00","2012","02","09","02:00","-25.4","","-29.3","","70","","","","36","","32","","15.0","","100.61","","","","-40","",""
"-81.24","68.78","HALL BEACH AWOS","2402352","2012-02-09 03:00","2012","02","09","03:00","-24.6","","-28.4","","71","","","","36","","33","","15.0","","100.63","","","","-39","",""
"-81.24","68.78","HALL BEACH AWOS","2402352","2012-02-09 04:00","2012","02","09","04:00","-24.5","","-28.2","","71","","","","36","","32","","15.0","","100.66","","","","-39","","Snow"
"-81.24","68.78","HALL BEACH AWOS","2402352","2012-02-09 05:00","2012","02","09","05:00","-25.2","","-29.2","","69","","","","35","","33","","15.0","","100.68","","","","-40","","Snow"
"-81.24","68.78","HALL BEACH AWOS","2402352","2012-02-09 06:00","2012","02","09","06:00","-26.0","","-29.8","","70","","","","35","","33","","15.0","","100.69","","","","-41","","Snow"
"-81.24","68.78","HALL BEACH AWOS","2402352","2012-02-09 07:00","2012","02","09","07:00","-23.9","","-27.3","","73","","","","36","","30","","15.0","","100.69","","","","-38","",""
"-81.24","68.78","HALL BEACH AWOS","2402352","2012-02-09 08:00","2012","02","09","08:00","-23.4","","-27.0","","72","","","","35","","35","","15.0","","100.71","","","","-38","","Snow"
"-81.24","68.78","HALL BEACH AWOS","2402352","2012-02-09 09:00","2012","02","09","09:00","-22.6","","-26.3","","72","","","","36","","35","","15.0","","100.70","","","","-37","","Snow"
"-81.24","68.78","HALL BEACH AWOS","2402352","2012-02-09 10:00","2012","02","09","10:00","-22.6","","-26.0","","74","","","","35","","24","","15.0","","100.72","","","","-35","",""
"-81.24","68.78","HALL BEACH AWOS","2402352","2012-02-09 11:00","2012","02","09","11:00","-22.0","","-25.7","","72","","","","34","","28","","15.0","","100.71","","","","-35","",""
"-81.24","68.78","HALL BEACH AWOS","2402352","2012-02-09 12:00","2012","02","09","12:00","-19.4","","-22.6","","76","","","","35","","33","","15.0","","100.67","","","","-32","",""
"-81.24","68.78","HALL BEACH AWOS","2402352","2012-02-09 13:00","2012","02","09","13:00","-19.0","","-22.1","","76","","","","34","","28","","15.0","","100.71","","","","-31","",""
"-81.24","68.78","HALL BEACH AWOS","2402352","2012-02-09 14:00","2012","02","09","14:00","-18.8","","-22.0","","76","","","","34","","26","","15.0","","100.74","","","","-30","",""
"-81.24","68.78","HALL BEACH AWOS","2402352","2012-02-09 15:00","2012","02","09","15:00","-19.3","","-22.5","","76","","","","34","","24","","15.0","","100.75","","","","-31","",""
"-81.24","68.78","HALL BEACH AWOS","2402352","2012-02-09 16:00","2012","02","09","16:00","-18.8","","-21.9","","76","","","","35","","28","","15.0","","100.79","","","","-31","",""
"-81.24","68.78","HALL BEACH AWOS","2402352","2012-02-09 17:00","2012","02","09","17:00","-19.4","","-22.5","","76","","","","34","","30","","15.0","","100.82","","","","-32","",""
"-81.24","68.78","HALL BEACH AWOS","2402352","2012-02-09 18:00","2012","02","09","18:00","-19.4","","-22.4","","77","","","","34","","28","","15.0","","100.84","","","","-31","",""
"-81.24","68.78","HALL BEACH AWOS","2402352","2012-02-09 19:00","2012","02","09","19:00","-23.0","","-26.5","","73","","","","32","","28","","15.0","","100.90","","","","-36","",""
"-81.24","68.78","HALL BEACH AWOS","2402352","2012-02-09 20:00","2012","02","09","20:00","-23.9","","-27.6","","71","","","","33","","28","","15.0","","100.90","","","","-37","","Snow"
"-81.24","68.78","HALL BEACH AWOS","2402352","2012-02-09 21:00","2012","02","09","21:00","-24.7","","-28.7","","69","","","","32","","24","","15.0","","100.92","","","","-37","","Snow"
"-81.24","68.78","HALL BEACH AWOS","2402352","2012-02-09 22:00","2012","02","09","22:00","-25.2","","-29.1","","70","","","","32","","35","","15.0","","100.94","","","","-40","","Snow"
"-81.24","68.78","HALL BEACH AWOS","2402352","2012-02-09 23:00","2012","02","09","23:00","-26.2","","-30.1","","70","","","","32","","30","","15.0","","100.98","","","","-41","","Snow"
"-81.24","68.78","HALL BEACH AWOS","2402352","2012-02-10 00:00","2012","02","10","00:00","-26.5","","-30.6","","68","","","","32","","32","","15.0","","100.95","","","","-41","","Snow"
"-81.24","68.78","HALL BEACH AWOS","2402352","2012-02-10 01:00","2012","02","10","01:00","-27.0","","-31.1","","68","","","","32","","28","","15.0","","101.01","","","","-41","","Snow"
"-81.24","68.78","HALL BEACH AWOS","2402352","2012-02-10 02:00","2012","02","10","02:00","-27.4","","-31.4","","69","","","","32","","32","","15.0","","101.09","","","","-43","","Snow"
"-81.24","68.78","HALL BEACH AWOS","2402352","2012-02-10 03:00","2012","02","10","03:00","-27.8","","-32.0","","67","","","","31","","26","","15.0","","101.06","","","","-42","","Snow"
"-81.24","68.78","HALL BEACH AWOS","2402352","2012-02-10 04:00","2012","02","10","04:00","-28.0","","-32.2","","67","","","","31","","24","","15.0","","101.06","","","","-42","",""
"-81.24","68.78","HALL BEACH AWOS","2402352","2012-02-10 05:00","2012","02","10","05:00","-27.8","","-32.1","","67","","","","31","","22","","15.0","","101.07","","","","-41","",""
"-81.24","68.78","HALL BEACH AWOS","2402352","2012-02-10 06:00","2012","02","10","06:00","-27.8","","-32.0","","67","","","","31","","20","","15.0","","101.08","","","","-40","",""
"-81.24","68.78","HALL BEACH AWOS","2402352","2012-02-10 07:00","2012","02","10","07:00","-27.8","","-31.9","","68","","","","31","","20","","15.0","","101.08","","","","-40","",""
"-81.24","68.78","HALL BEACH AWOS","2402352","2012-02-10 08:00","2012","02","10","08:00","-27.5","","-31.7","","67","","","","31","","20","","15.0","","101.12","","","","-40","",""
"-81.24","68.78","HALL BEACH AWOS","2402352","2012-02-10 09:00","2012","02","10","09:00","-26.3","","-30.6","","67","","","","31","","20","","15.0","","101.05","","","","-38","",""
"-81.24","68.78","HALL BEACH AWOS","2402352","2012-02-10 10:00","2012","02","10","10:00","-27.3","","-31.5","","67","","","","27","","11","","15.0","","101.02","","","","-36","",""
"-81.24","68.78","HALL BEACH AWOS","2402352","2012-02-10 11:00","2012","02","10","11:00","-27.0","","-31.1","","68","","","","27","","11","","15.0","","100.97","","","","-36","",""
"-81.24","68.78","HALL BEACH AWOS","2402352","2012-02-10 12:00","2012","02","10","12:00","-26.2","","-30.3","","68","","","","24","","11","","15.0","","100.97","","","","-35","",""
"-81.24","68.78","HALL BEACH AWOS","2402352","2012-02-10 13:00","2012","02","10","13:00","-25.3","","-29.3","","69","","","","23","","7","","15.0","","100.97","","","","-32","",""
"-81.24","68.78","HALL BEACH AWOS","2402352","2012-02-10 14:00","2012","02","10","14:00","-23.5","","-27.5","","70","","","","20","","9","","15.0","","100.89","","","","-31","",""
"-81.24","68.78","HALL BEACH AWOS","2402352","2012-02-10 15:00","2012","02","10","15:00","-21.0","","-24.3","","75","","","","20","","11","","15.0","","100.83","","","","-29","",""
"-81.24","68.78","HALL BEACH AWOS","2402352","2012-02-10 16:00","2012","02","10","16:00","-18.4","","-21.3","","78","","","","18","","24","","15.0","","100.78","","","","-29","",""
"-81.24","68.78","HALL BEACH AWOS","2402352","2012-02-10 17:00","2012","02","10","17:00","-17.7","","-20.4","","79","","","","17","","28","","15.0","","100.80","","","","-29","",""
"-81.24","68.78","HALL BEACH AWOS","2402352","2012-02-10 18:00","2012","02","10","18:00","-17.3","","-20.0","","79","","","","18","","24","","15.0","","100.87","","","","-28","",""
"-81.24","68.78","HALL BEACH AWOS","2402352","2012-02-10 19:00","2012","02","10","19:00","-16.8","","-19.4","","80","","","","19","","32","","15.0","","100.85","","","","-29","",""
"-81.24","68.78","HALL BEACH AWOS","2402352","2012-02-10 20:00","2012","02","10","20:00","-16.4","","-18.7","","82","","","","19","","22","","15.0","","100.93","","","","-26","",""
"-81.24","68.78","HALL BEACH AWOS","2402352","2012-02-10 21:00","2012","02","10","21:00","-16.2","","-18.4","","83","","","","19","","33","","3.7","","100.80","","","","-28","","Snow"
"-81.24","68.78","HALL BEACH AWOS","2402352","2012-02-10 22:00","2012","02","10","22:00","-16.3","","-22.3","","60","","","","19","","37","","1.4","","100.80","","","","-29","","Snow"
"-81.24","68.78","HALL BEACH AWOS","2402352","2012-02-10 23:00","2012","02","10","23:00","-16.2","","-18.4","","83","","","","19","","39","","0.8","","100.74","","","","-29","","Snow"
"-81.24","68.78","HALL BEACH AWOS","2402352","2012-02-11 00:00","2012","02","11","00:00","-15.7","","","M","","M","","","20","","43","","0.6","","100.70","","","","-29","","Snow"
"-81.24","68.78","HALL BEACH AWOS","2402352","2012-02-11 01:00","2012","02","11","01:00","-15.7","","-17.8","","84","","","","20","","41","","0.5","","100.74","","","","-29","","Snow"
"-81.24","68.78","HALL BEACH AWOS","2402352","2012-02-11 02:00","2012","02","11","02:00","-15.8","","-18.2","","82","","","","22","","41","","1.0","","100.64","","","","-29","","Snow"
"-81.24","68.78","HALL BEACH AWOS","2402352","2012-02-11 03:00","2012","02","11","03:00","-16.2","","-18.0","","86","","","","22","","32","","1.6","","100.67","","","","-28","","Snow"
"-81.24","68.78","HALL BEACH AWOS","2402352","2012-02-11 04:00","2012","02","11","04:00","-16.2","","-19.0","","79","","","","21","","30","","6.4","","100.64","","","","-28","",""
"-81.24","68.78","HALL BEACH AWOS","2402352","2012-02-11 05:00","2012","02","11","05:00","-16.3","","-18.5","","83","","","","21","","28","","6.4","","100.57","","","","-27","","Snow"
"-81.24","68.78","HALL BEACH AWOS","2402352","2012-02-11 06:00","2012","02","11","06:00","-16.0","","-19.0","","78","","","","21","","28","","1.9","","100.55","","","","-27","","Snow"
"-81.24","68.78","HALL BEACH AWOS","2402352","2012-02-11 07:00","2012","02","11","07:00","-16.0","","-18.0","","85","","","","21","","22","","2.3","","100.56","","","","-26","","Snow"
"-81.24","68.78","HALL BEACH AWOS","2402352","2012-02-11 08:00","2012","02","11","08:00","-16.0","","-16.0","","100","","","","21","","26","","2.1","","100.50","","","","-27","","Snow"
"-81.24","68.78","HALL BEACH AWOS","2402352","2012-02-11 09:00","2012","02","11","09:00","-16.2","","-18.6","","82","","","","21","","24","","1.6","","100.44","","","","-27","","Snow"
"-81.24","68.78","HALL BEACH AWOS","2402352","2012-02-11 10:00","2012","02","11","10:00","-16.5","","-18.7","","83","","","","21","","20","","2.4","","100.43","","","","-26","","Snow"
"-81.24","68.78","HALL BEACH AWOS","2402352","2012-02-11 11:00","2012","02","11","11:00","-17.6","","-20.2","","80","","","","20","","11","","15.0","","100.43","","","","-25","",""
"-81.24","68.78","HALL BEACH AWOS","2402352","2012-02-11 12:00","2012","02","11","12:00","-18.5","","-21.3","","79","","","","22","","17","","15.0","","100.44","","","","-28","",""
"-81.24","68.78","HALL BEACH AWOS","2402352","2012-02-11 13:00","2012","02","11","13:00","-16.4","","-18.8","","82","","","","20","","22","","11.3","","100.38","","","","-26","","Snow"
"-81.24","68.78","HALL BEACH AWOS","2402352","2012-02-11 14:00","2012","02","11","14:00","-16.0","","-18.0","","85","","","","18","","32","","4.0","","100.42","","","","-28","","Snow"
"-81.24","68.78","HALL BEACH AWOS","2402352","2012-02-11 15:00","2012","02","11","15:00","-16.4","","-18.8","","82","","","","18","","28","","8.0","","100.42","","","","-28","",""
"-81.24","68.78","HALL BEACH AWOS","2402352","2012-02-11 16:00","2012","02","11","16:00","-16.5","","-18.7","","83","","","","18","","26","","15.0","","100.47","","","","-27","",""
"-81.24","68.78","HALL BEACH AWOS","2402352","2012-02-11 17:00","2012","02","11","17:00","-17.5","","-20.2","","79","","","","19","","26","","15.0","","100.47","","","","-29","",""
"-81.24","68.78","HALL BEACH AWOS","2402352","2012-02-11 18:00","2012","02","11","18:00","-18.5","","-21.4","","78","","","","19","","20","","15.0","","100.47","","","","-29","",""
"-81.24","68.78","HALL BEACH AWOS","2402352","2012-02-11 19:00","2012","02","11","19:00","-18.8","","-21.7","","78","","","","19","","22","","15.0","","100.46","","","","-29","",""
"-81.24","68.78","HALL BEACH AWOS","2402352","2012-02-11 20:00","2012","02","11","20:00","-19.5","","-22.3","","78","","","","19","","17","","15.0","","100.45","","","","-29","",""
"-81.24","68.78","HALL BEACH AWOS","2402352","2012-02-11 21:00","2012","02","11","21:00","-20.3","","-23.3","","77","","","","20","","19","","15.0","","100.43","","","","-31","",""
"-81.24","68.78","HALL BEACH AWOS","2402352","2012-02-11 22:00","2012","02","11","22:00","-20.3","","-23.6","","75","","","","19","","17","","15.0","","100.41","","","","-30","",""
"-81.24","68.78","HALL BEACH AWOS","2402352","2012-02-11 23:00","2012","02","11","23:00","-18.7","","-21.3","","80","","","","19","","17","","15.0","","100.38","","","","-28","",""
"-81.24","68.78","HALL BEACH AWOS","2402352","2012-02-12 00:00","2012","02","12","00:00","-18.1","","-20.9","","79","","","","18","","13","","15.0","","100.36","","","","-26","",""
"-81.24","68.78","HALL BEACH AWOS","2402352","2012-02-12 01:00","2012","02","12","01:00","-17.7","","-20.5","","79","","","","18","","17","","15.0","","100.31","","","","-27","",""
"-81.24","68.78","HALL BEACH AWOS","2402352","2012-02-12 02:00","2012","02","12","02:00","-17.6","","-20.3","","79","","","","19","","17","","15.0","","100.29","","","","-27","",""
"-81.24","68.78","HALL BEACH AWOS","2402352","2012-02-12 03:00","2012","02","12","03:00","-17.7","","-20.5","","79","","","","19","","19","","15.0","","100.27","","","","-27","",""
"-81.24","68.78","HALL BEACH AWOS","2402352","2012-02-12 04:00","2012","02","12","04:00","-17.5","","-20.2","","79","","","","20","","19","","15.0","","100.25","","","","-27","","Snow"
"-81.24","68.78","HALL BEACH AWOS","2402352","2012-02-12 05:00","2012","02","12","05:00","-17.3","","-19.9","","80","","","","19","","17","","15.0","","100.24","","","","-26","","Snow"
"-81.24","68.78","HALL BEACH AWOS","2402352","2012-02-12 06:00","2012","02","12","06:00","-17.0","","-19.6","","80","","","","19","","15","","15.0","","100.21","","","","-25","","Snow"
"-81.24","68.78","HALL BEACH AWOS","2402352","2012-02-12 07:00","2012","02","12","07:00","-17.0","","-19.6","","80","","","","19","","11","","15.0","","100.19","","","","-24","",""
"-81.24","68.78","HALL BEACH AWOS","2402352","2012-02-12 08:00","2012","02","12","08:00","-18.6","","-21.4","","79","","","","24","","7","","15.0","","100.16","","","","-24","",""
"-81.24","68.78","HALL BEACH AWOS","2402352","2012-02-12 09:00","2012","02","12","09:00","-18.8","","-21.8","","77","","","","21","","7","","15.0","","100.14","","","","-24","","Snow"
"-81.24","68.78","HALL BEACH AWOS","2402352","2012-02-12 10:00","2012","02","12","10:00","-18.8","","-21.6","","79","","","","22","","4","","15.0","","100.12","","","","-22","","Snow"
"-81.24","68.78","HALL BEACH AWOS","2402352","2012-02-12 11:00","2012","02","12","11:00","-18.7","","-21.5","","79","","","","21","","6","","15.0","","100.11","","","","-24","","Snow"
"-81.24","68.78","HALL BEACH AWOS","2402352","2012-02-12 12:00","2012","02","12","12:00","-18.4","","-21.2","","79","","","","22","","9","","15.0","","100.08","","","","-25","","Snow"
"-81.24","68.78","HALL BEACH AWOS","2402352","2012-02-12 13:00","2012","02","12","13:00","-18.4","","-21.3","","78","","","","21","","6","","15.0","","100.09","","","","-23","",""
"-81.24","68.78","HALL BEACH AWOS","2402352","2012-02-12 14:00","2012","02","12","14:00","-18.4","","-21.2","","79","","","","21","","6","","15.0","","100.09","","","","-23","",""
"-81.24","68.78","HALL BEACH AWOS","2402352","2012-02-12 15:00","2012","02","12","15:00","-18.4","","-21.1","","79","","","","23","","7","","15.0","","100.12","","","","-24","",""
"-81.24","68.78","HALL BEACH AWOS","2402352","2012-02-12 16:00","2012","02","12","16:00","-18.2","","-21.0","","79","","","","22","","9","","15.0","","100.17","","","","-25","","Snow"
"-81.24","68.78","HALL BEACH AWOS","2402352","2012-02-12 17:00","2012","02","12","17:00","-18.6","","-21.5","","78","","","","23","","9","","15.0","","100.21","","","","-25","","Snow"
"-81.24","68.78","HALL BEACH AWOS","2402352","2012-02-12 18:00","2012","02","12","18:00","-18.4","","-21.4","","77","","","","21","","9","","15.0","","100.25","","","","-25","","Snow"
"-81.24","68.78","HALL BEACH AWOS","2402352","2012-02-12 19:00","2012","02","12","19:00","-18.3","","-21.2","","78","","","","20","","13","","15.0","","100.28","","","","-26","",""
"-81.24","68.78","HALL BEACH AWOS","2402352","2012-02-12 20:00","2012","02","12","20:00","-18.5","","-21.5","","77","","","","22","","13","","15.0","","100.30","","","","-27","",""
"-81.24","68.78","HALL BEACH AWOS","2402352","2012-02-12 21:00","2012","02","12","21:00","-18.2","","-21.2","","77","","","","21","","15","","15.0","","100.33","","","","-27","",""
"-81.24","68.78","HALL BEACH AWOS","2402352","2012-02-12 22:00","2012","02","12","22:00","-18.2","","-21.2","","77","","","","21","","11","","15.0","","100.36","","","","-25","",""
"-81.24","68.78","HALL BEACH AWOS","2402352","2012-02-12 23:00","2012","02","12","23:00","-17.4","","-20.1","","79","","","","19","","15","","15.0","","100.38","","","","-26","","Snow"
"-81.24","68.78","HALL BEACH AWOS","2402352","2012-02-13 00:00","2012","02","13","00:00","-17.0","","-19.8","","79","","","","20","","15","","15.0","","100.42","","","","-25","","Snow"
"-81.24","68.78","HALL BEACH AWOS","2402352","2012-02-13 01:00","2012","02","13","01:00","-16.2","","-18.7","","81","","","","19","","22","","15.0","","100.45","","","","-26","","Snow"
"-81.24","68.78","HALL BEACH AWOS","2402352","2012-02-13 02:00","2012","02","13","02:00","-16.0","","-18.6","","80","","","","20","","20","","15.0","","100.51","","","","-25","",""
"-81.24","68.78","HALL BEACH AWOS","2402352","2012-02-13 03:00","2012","02","13","03:00","-15.2","","-17.5","","83","","","","19","","20","","15.0","","100.57","","","","-24","","Snow"
"-81.24","68.78","HALL BEACH AWOS","2402352","2012-02-13 04:00","2012","02","13","04:00","-16.0","","-18.6","","80","","","","21","","24","","15.0","","100.64","","","","-26","",""
"-81.24","68.78","HALL BEACH AWOS","2402352","2012-02-13 05:00","2012","02","13","05:00","-16.0","","-18.7","","80","","","","19","","19","","15.0","","100.71","","","","-25","",""
"-81.24","68.78","HALL BEACH AWOS","2402352","2012-02-13 06:00","2012","02","13","06:00","-15.4","","-18.2","","79","","","","18","","17","","15.0","","100.75","","","","-24","","Snow"
"-81.24","68.78","HALL BEACH AWOS","2402352","2012-02-13 07:00","2012","02","13","07:00","-15.3","","-17.6","","83","","","","17","","19","","15.0","","100.80","","","","-24","","Snow"
"-81.24","68.78","HALL BEACH AWOS","2402352","2012-02-13 08:00","2012","02","13","08:00","-15.5","","-17.7","","83","","","","16","","22","","15.0","","100.82","","","","-25","",""
"-81.24","68.78","HALL BEACH AWOS","2402352","2012-02-13 09:00","2012","02","13","09:00","-15.6","","-17.9","","82","","","","16","","19","","15.0","","100.87","","","","-25","",""
"-81.24","68.78","HALL BEACH AWOS","2402352","2012-02-13 10:00","2012","02","13","10:00","-15.7","","-18.0","","82","","","","16","","19","","15.0","","100.89","","","","-25","",""
"-81.24","68.78","HALL BEACH AWOS","2402352","2012-02-13 11:00","2012","02","13","11:00","-15.8","","-21.7","","60","","","","16","","22","","15.0","","100.92","","","","-26","",""
"-81.24","68.78","HALL BEACH AWOS","2402352","2012-02-13 12:00","2012","02","13","12:00","-15.9","","-18.5","","80","","","","16","","20","","15.0","","100.96","","","","-25","",""
"-81.24","68.78","HALL BEACH AWOS","2402352","2012-02-13 13:00","2012","02","13","13:00","-16.0","","-21.0","","65","","","","15","","15","","15.0","","100.98","","","","-24","",""
"-81.24","68.78","HALL BEACH AWOS","2402352","2012-02-13 14:00","2012","02","13","14:00","-16.1","","-19.5","","75","","","","14","","17","","15.0","","100.97","","","","-25","",""
"-81.24","68.78","HALL BEACH AWOS","2402352","2012-02-13 15:00","2012","02","13","15:00","-16.0","","-19.1","","77","","","","14","","9","","15.0","","100.94","","","","-22","","Snow"
"-81.24","68.78","HALL BEACH AWOS","2402352","2012-02-13 16:00","2012","02","13","16:00","-15.7","","-18.6","","78","","","","12","","11","","15.0","","100.96","","","","-22","",""
"-81.24","68.78","HALL BEACH AWOS","2402352","2012-02-13 17:00","2012","02","13","17:00","-16.0","","-19.1","","77","","","","12","","13","","15.0","","100.95","","","","-24","",""
"-81.24","68.78","HALL BEACH AWOS","2402352","2012-02-13 18:00","2012","02","13","18:00","-16.2","","-19.3","","77","","","","13","","11","","15.0","","100.93","","","","-23","",""
"-81.24","68.78","HALL BEACH AWOS","2402352","2012-02-13 19:00","2012","02","13","19:00","-16.2","","-19.3","","77","","","","12","","7","","15.0","","100.88","","","","-21","",""
"-81.24","68.78","HALL BEACH AWOS","2402352","2012-02-13 20:00","2012","02","13","20:00","-16.7","","-19.9","","76","","","","9","","13","","15.0","","100.79","","","","-24","",""
"-81.24","68.78","HALL BEACH AWOS","2402352","2012-02-13 21:00","2012","02","13","21:00","-16.2","","-18.9","","80","","","","7","","11","","15.0","","100.76","","","","-23","",""
"-81.24","68.78","HALL BEACH AWOS","2402352","2012-02-13 22:00","2012","02","13","22:00","-17.8","","-20.1","","82","","","","9","","15","","15.0","","100.68","","","","-26","",""
"-81.24","68.78","HALL BEACH AWOS","2402352","2012-02-13 23:00","2012","02","13","23:00","-20.3","","-23.2","","78","","","","6","","13","","15.0","","100.60","","","","-29","",""
"-81.24","68.78","HALL BEACH AWOS","2402352","2012-02-14 00:00","2012","02","14","00:00","-20.3","","-23.4","","76","","","","5","","15","","15.0","","100.55","","","","-29","",""
"-81.24","68.78","HALL BEACH AWOS","2402352","2012-02-14 01:00","2012","02","14","01:00","-25.8","","-29.6","","70","","","","36","","20","","15.0","","100.47","","","","-38","",""
"-81.24","68.78","HALL BEACH AWOS","2402352","2012-02-14 02:00","2012","02","14","02:00","-25.9","","-29.5","","72","","","","35","","20","","15.0","","100.39","","","","-38","",""
"-81.24","68.78","HALL BEACH AWOS","2402352","2012-02-14 03:00","2012","02","14","03:00","-28.5","","-32.3","","70","","","","34","","20","","15.0","","100.36","","","","-41","",""
"-81.24","68.78","HALL BEACH AWOS","2402352","2012-02-14 04:00","2012","02","14","04:00","-30.0","","-34.3","","66","","","","34","","24","","15.0","","100.32","","","","-44","",""
"-81.24","68.78","HALL BEACH AWOS","2402352","2012-02-14 05:00","2012","02","14","05:00","-30.1","","-34.4","","66","","","","35","","17","","15.0","","100.26","","","","-42","",""
"-81.24","68.78","HALL BEACH AWOS","2402352","2012-02-14 06:00","2012","02","14","06:00","-30.4","","-34.6","","67","","","","34","","24","","15.0","","100.16","","","","-45","",""
"-81.24","68.78","HALL BEACH AWOS","2402352","2012-02-14 07:00","2012","02","14","07:00","-31.6","","-35.9","","66","","","","35","","17","","15.0","","100.12","","","","-44","",""
"-81.24","68.78","HALL BEACH AWOS","2402352","2012-02-14 08:00","2012","02","14","08:00","-32.3","","-36.7","","65","","","","33","","22","","15.0","","100.07","","","","-47","",""
"-81.24","68.78","HALL BEACH AWOS","2402352","2012-02-14 09:00","2012","02","14","09:00","-33.0","","-37.1","","67","","","","34","","20","","15.0","","100.04","","","","-47","",""
"-81.24","68.78","HALL BEACH AWOS","2402352","2012-02-14 10:00","2012","02","14","10:00","-31.5","","-35.4","","68","","","","33","","26","","15.0","","99.92","","","","-47","",""
"-81.24","68.78","HALL BEACH AWOS","2402352","2012-02-14 11:00","2012","02","14","11:00","-31.0","","-35.0","","68","","","","2","","17","","15.0","","99.91","","","","-43","",""
"-81.24","68.78","HALL BEACH AWOS","2402352","2012-02-14 12:00","2012","02","14","12:00","-32.0","","-36.4","","65","","","","35","","15","","15.0","","99.85","","","","-44","",""
"-81.24","68.78","HALL BEACH AWOS","2402352","2012-02-14 13:00","2012","02","14","13:00","-32.1","","-36.4","","66","","","","34","","15","","15.0","","99.79","","","","-44","",""
"-81.24","68.78","HALL BEACH AWOS","2402352","2012-02-14 14:00","2012","02","14","14:00","-31.8","","-36.2","","65","","","","34","","15","","15.0","","99.81","","","","-44","",""
"-81.24","68.78","HALL BEACH AWOS","2402352","2012-02-14 15:00","2012","02","14","15:00","-32.3","","-36.7","","65","","","","33","","19","","15.0","","99.80","","","","-46","",""
"-81.24","68.78","HALL BEACH AWOS","2402352","2012-02-14 16:00","2012","02","14","16:00","-31.9","","-36.0","","67","","","","34","","22","","15.0","","99.79","","","","-46","",""
"-81.24","68.78","HALL BEACH AWOS","2402352","2012-02-14 17:00","2012","02","14","17:00","-32.6","","-37.1","","64","","","","33","","22","","15.0","","99.80","","","","-47","",""
"-81.24","68.78","HALL BEACH AWOS","2402352","2012-02-14 18:00","2012","02","14","18:00","-33.1","","-37.5","","65","","","","33","","22","","15.0","","99.82","","","","-48","",""
"-81.24","68.78","HALL BEACH AWOS","2402352","2012-02-14 19:00","2012","02","14","19:00","-33.1","","-37.6","","64","","","","32","","19","","15.0","","99.80","","","","-47","",""
"-81.24","68.78","HALL BEACH AWOS","2402352","2012-02-14 20:00","2012","02","14","20:00","-32.7","","-37.1","","65","","","","34","","22","","15.0","","99.82","","","","-47","",""
"-81.24","68.78","HALL BEACH AWOS","2402352","2012-02-14 21:00","2012","02","14","21:00","-32.3","","-36.8","","64","","","","33","","20","","15.0","","99.80","","","","-46","",""
"-81.24","68.78","HALL BEACH AWOS","2402352","2012-02-14 22:00","2012","02","14","22:00","-32.2","","-36.5","","66","","","","33","","22","","15.0","","99.79","","","","-46","",""
"-81.24","68.78","HALL BEACH AWOS","2402352","2012-02-14 23:00","2012","02","14","23:00","-32.3","","-36.5","","66","","","","35","","15","","15.0","","99.81","","","","-44","",""
"-81.24","68.78","HALL BEACH AWOS","2402352","2012-02-15 00:00","2012","02","15","00:00","-32.6","","-36.8","","66","","","","33","","19","","15.0","","99.80","","","","-46","",""
"-81.24","68.78","HALL BEACH AWOS","2402352","2012-02-15 01:00","2012","02","15","01:00","-32.2","","-36.5","","66","","","","34","","17","","15.0","","99.83","","","","-45","",""
"-81.24","68.78","HALL BEACH AWOS","2402352","2012-02-15 02:00","2012","02","15","02:00","-32.1","","-36.4","","66","","","","34","","20","","15.0","","99.86","","","","-46","",""
"-81.24","68.78","HALL BEACH AWOS","2402352","2012-02-15 03:00","2012","02","15","03:00","-31.6","","-36.0","","65","","","","33","","22","","15.0","","99.87","","","","-46","",""
"-81.24","68.78","HALL BEACH AWOS","2402352","2012-02-15 04:00","2012","02","15","04:00","-31.3","","-35.5","","66","","","","33","","24","","15.0","","99.93","","","","-46","",""
"-81.24","68.78","HALL BEACH AWOS","2402352","2012-02-15 05:00","2012","02","15","05:00","-32.3","","-36.7","","65","","","","33","","20","","15.0","","99.96","","","","-46","",""
"-81.24","68.78","HALL BEACH AWOS","2402352","2012-02-15 06:00","2012","02","15","06:00","-32.0","","-36.3","","66","","","","35","","19","","15.0","","100.00","","","","-45","",""
"-81.24","68.78","HALL BEACH AWOS","2402352","2012-02-15 07:00","2012","02","15","07:00","-31.4","","-36.1","","63","","","","32","","20","","15.0","","100.02","","","","-45","",""
"-81.24","68.78","HALL BEACH AWOS","2402352","2012-02-15 08:00","2012","02","15","08:00","-31.6","","-35.6","","68","","","","34","","20","","15.0","","100.04","","","","-45","",""
"-81.24","68.78","HALL BEACH AWOS","2402352","2012-02-15 09:00","2012","02","15","09:00","-31.4","","-35.7","","66","","","","35","","17","","15.0","","100.04","","","","-44","",""
"-81.24","68.78","HALL BEACH AWOS","2402352","2012-02-15 10:00","2012","02","15","10:00","-31.1","","-35.4","","66","","","","34","","15","","15.0","","100.06","","","","-43","",""
"-81.24","68.78","HALL BEACH AWOS","2402352","2012-02-15 11:00","2012","02","15","11:00","-30.4","","-34.5","","67","","","","34","","17","","15.0","","100.11","","","","-43","",""
"-81.24","68.78","HALL BEACH AWOS","2402352","2012-02-15 12:00","2012","02","15","12:00","-28.6","","-32.7","","68","","","","32","","19","","15.0","","100.14","","","","-41","",""
"-81.24","68.78","HALL BEACH AWOS","2402352","2012-02-15 13:00","2012","02","15","13:00","-27.8","","-31.8","","69","","","","35","","13","","15.0","","100.20","","","","-38","",""
"-81.24","68.78","HALL BEACH AWOS","2402352","2012-02-15 14:00","2012","02","15","14:00","-26.1","","-30.1","","69","","","","1","","13","","15.0","","100.22","","","","-36","",""
"-81.24","68.78","HALL BEACH AWOS","2402352","2012-02-15 15:00","2012","02","15","15:00","-25.9","","-29.9","","69","","","","36","","11","","15.0","","100.23","","","","-35","",""
"-81.24","68.78","HALL BEACH AWOS","2402352","2012-02-15 16:00","2012","02","15","16:00","-26.1","","-30.1","","69","","","","32","","15","","15.0","","100.26","","","","-37","",""
"-81.24","68.78","HALL BEACH AWOS","2402352","2012-02-15 17:00","2012","02","15","17:00","-26.0","","-29.9","","70","","","","33","","15","","15.0","","100.29","","","","-36","",""
"-81.24","68.78","HALL BEACH AWOS","2402352","2012-02-15 18:00","2012","02","15","18:00","-26.6","","-30.6","","69","","","","34","","17","","15.0","","100.29","","","","-38","",""
"-81.24","68.78","HALL BEACH AWOS","2402352","2012-02-15 19:00","2012","02","15","19:00","-25.6","","-29.4","","70","","","","36","","13","","15.0","","100.28","","","","-35","",""
"-81.24","68.78","HALL BEACH AWOS","2402352","2012-02-15 20:00","2012","02","15","20:00","-25.9","","-29.9","","69","","","","34","","17","","15.0","","100.29","","","","-37","",""
"-81.24","68.78","HALL BEACH AWOS","2402352","2012-02-15 21:00","2012","02","15","21:00","-24.6","","-28.2","","72","","","","34","","17","","15.0","","100.30","","","","-35","",""
"-81.24","68.78","HALL BEACH AWOS","2402352","2012-02-15 22:00","2012","02","15","22:00","-23.4","","-26.9","","73","","","","36","","17","","15.0","","100.30","","","","-34","","Snow"
"-81.24","68.78","HALL BEACH AWOS","2402352","2012-02-15 23:00","2012","02","15","23:00","-21.4","","-24.6","","75","","","","36","","13","","11.3","","100.31","","","","-30","","Snow"
"-81.24","68.78","HALL BEACH AWOS","2402352","2012-02-16 00:00","2012","02","16","00:00","-20.9","","-23.9","","77","","","","36","","11","","15.0","","100.30","","","","-29","","Snow"
"-81.24","68.78","HALL BEACH AWOS","2402352","2012-02-16 01:00","2012","02","16","01:00","-17.3","","-19.5","","83","","","","10","","4","","15.0","","100.29","","","","-20","",""
"-81.24","68.78","HALL BEACH AWOS","2402352","2012-02-16 02:00","2012","02","16","02:00","-15.7","","-17.9","","83","","","","8","","9","","5.6","","100.28","","","","-22","","Snow"
"-81.24","68.78","HALL BEACH AWOS","2402352","2012-02-16 03:00","2012","02","16","03:00","-15.6","","-17.7","","84","","","","12","","13","","15.0","","100.30","","","","-23","","Snow"
"-81.24","68.78","HALL BEACH AWOS","2402352","2012-02-16 04:00","2012","02","16","04:00","-16.0","","-20.9","","66","","","","11","","20","","6.4","","100.30","","","","-25","","Snow"
"-81.24","68.78","HALL BEACH AWOS","2402352","2012-02-16 05:00","2012","02","16","05:00","-17.0","","-20.3","","75","","","","9","","17","","15.0","","100.32","","","","-26","","Snow"
"-81.24","68.78","HALL BEACH AWOS","2402352","2012-02-16 06:00","2012","02","16","06:00","-17.4","","-20.1","","79","","","","9","","13","","15.0","","100.34","","","","-25","","Snow"
"-81.24","68.78","HALL BEACH AWOS","2402352","2012-02-16 07:00","2012","02","16","07:00","-16.4","","-18.9","","81","","","","13","","17","","15.0","","100.36","","","","-25","","Snow"
"-81.24","68.78","HALL BEACH AWOS","2402352","2012-02-16 08:00","2012","02","16","08:00","-17.0","","-22.6","","62","","","","13","","13","","15.0","","100.38","","","","-25","","Snow"
"-81.24","68.78","HALL BEACH AWOS","2402352","2012-02-16 09:00","2012","02","16","09:00","-17.4","","-20.5","","77","","","","11","","9","","15.0","","100.39","","","","-24","","Snow"
"-81.24","68.78","HALL BEACH AWOS","2402352","2012-02-16 10:00","2012","02","16","10:00","-19.1","","-22.1","","77","","","","8","","13","","15.0","","100.39","","","","-27","","Snow"
"-81.24","68.78","HALL BEACH AWOS","2402352","2012-02-16 11:00","2012","02","16","11:00","-19.1","","-22.0","","78","","","","5","","11","","15.0","","100.38","","","","-27","","Snow"
"-81.24","68.78","HALL BEACH AWOS","2402352","2012-02-16 12:00","2012","02","16","12:00","-21.5","","-24.7","","75","","","","1","","11","","15.0","","100.39","","","","-29","","Snow"
"-81.24","68.78","HALL BEACH AWOS","2402352","2012-02-16 13:00","2012","02","16","13:00","-21.0","","-24.2","","75","","","","36","","19","","15.0","","100.38","","","","-31","","Snow"
"-81.24","68.78","HALL BEACH AWOS","2402352","2012-02-16 14:00","2012","02","16","14:00","-19.2","","-22.1","","78","","","","36","","17","","15.0","","100.39","","","","-29","","Snow"
"-81.24","68.78","HALL BEACH AWOS","2402352","2012-02-16 15:00","2012","02","16","15:00","-19.1","","-21.4","","82","","","","36","","19","","12.9","","100.43","","","","-29","","Snow"
"-81.24","68.78","HALL BEACH AWOS","2402352","2012-02-16 16:00","2012","02","16","16:00","-21.2","","-24.3","","76","","","","36","","19","","9.7","","100.44","","","","-32","","Snow"
"-81.24","68.78","HALL BEACH AWOS","2402352","2012-02-16 17:00","2012","02","16","17:00","-20.8","","-24.2","","74","","","","36","","19","","15.0","","100.46","","","","-31","","Snow"
"-81.24","68.78","HALL BEACH AWOS","2402352","2012-02-16 18:00","2012","02","16","18:00","-22.0","","-25.6","","73","","","","35","","20","","6.4","","100.48","","","","-33","","Snow"
"-81.24","68.78","HALL BEACH AWOS","2402352","2012-02-16 19:00","2012","02","16","19:00","-23.7","","-27.3","","72","","","","35","","24","","6.4","","100.50","","","","-36","",""
"-81.24","68.78","HALL BEACH AWOS","2402352","2012-02-16 20:00","2012","02","16","20:00","-22.5","","-25.9","","74","","","","36","","22","","6.4","","100.51","","","","-34","",""
"-81.24","68.78","HALL BEACH AWOS","2402352","2012-02-16 21:00","2012","02","16","21:00","-21.4","","-24.7","","75","","","","34","","24","","9.7","","100.53","","","","-33","","Snow"
"-81.24","68.78","HALL BEACH AWOS","2402352","2012-02-16 22:00","2012","02","16","22:00","-22.4","","-25.8","","74","","","","35","","28","","11.3","","100.54","","","","-35","",""
"-81.24","68.78","HALL BEACH AWOS","2402352","2012-02-16 23:00","2012","02","16","23:00","-22.1","","-25.4","","75","","","","35","","28","","12.9","","100.55","","","","-35","",""
"-81.24","68.78","HALL BEACH AWOS","2402352","2012-02-17 00:00","2012","02","17","00:00","-22.3","","-25.8","","73","","","","35","","28","","15.0","","100.58","","","","-35","",""
"-81.24","68.78","HALL BEACH AWOS","2402352","2012-02-17 01:00","2012","02","17","01:00","-21.8","","-25.0","","75","","","","35","","32","","14.5","","100.63","","","","-35","",""
"-81.24","68.78","HALL BEACH AWOS","2402352","2012-02-17 02:00","2012","02","17","02:00","-21.8","","-25.2","","74","","","","33","","26","","15.0","","100.68","","","","-34","",""
"-81.24","68.78","HALL BEACH AWOS","2402352","2012-02-17 03:00","2012","02","17","03:00","-22.0","","-25.5","","73","","","","33","","33","","4.8","","100.69","","","","-36","","Snow"
"-81.24","68.78","HALL BEACH AWOS","2402352","2012-02-17 04:00","2012","02","17","04:00","-24.3","","-28.0","","71","","","","34","","32","","8.0","","100.75","","","","-39","","Snow"
"-81.24","68.78","HALL BEACH AWOS","2402352","2012-02-17 05:00","2012","02","17","05:00","-25.7","","-29.6","","70","","","","33","","30","","14.5","","100.79","","","","-40","","Snow"
"-81.24","68.78","HALL BEACH AWOS","2402352","2012-02-17 06:00","2012","02","17","06:00","-27.9","","-32.1","","67","","","","33","","30","","15.0","","100.81","","","","-43","","Snow"
"-81.24","68.78","HALL BEACH AWOS","2402352","2012-02-17 07:00","2012","02","17","07:00","-29.3","","-33.7","","66","","","","31","","33","","15.0","","100.84","","","","-45","","Snow"
"-81.24","68.78","HALL BEACH AWOS","2402352","2012-02-17 08:00","2012","02","17","08:00","-30.2","","-33.7","","71","","","","32","","30","","","M","100.87","","","","-46","","NA"
"-81.24","68.78","HALL BEACH AWOS","2402352","2012-02-17 09:00","2012","02","17","09:00","-30.4","","-35.1","","63","","","","31","","32","","","M","100.89","","","","-47","","NA"
"-81.24","68.78","HALL BEACH AWOS","2402352","2012-02-17 10:00","2012","02","17","10:00","-30.5","","-35.0","","65","","","","32","","30","","15.0","","100.90","","","","-46","","NA"
"-81.24","68.78","HALL BEACH AWOS","2402352","2012-02-17 11:00","2012","02","17","11:00","-30.1","","-34.4","","66","","","","32","","33","","15.0","","100.89","","","","-46","","Snow"
"-81.24","68.78","HALL BEACH AWOS","2402352","2012-02-17 12:00","2012","02","17","12:00","-29.6","","-33.8","","67","","","","32","","37","","8.0","","100.91","","","","-46","","Snow"
"-81.24","68.78","HALL BEACH AWOS","2402352","2012-02-17 13:00","2012","02","17","13:00","-29.5","","-33.7","","67","","","","31","","37","","4.8","","100.96","","","","-46","","Snow"
"-81.24","68.78","HALL BEACH AWOS","2402352","2012-02-17 14:00","2012","02","17","14:00","-29.5","","-33.7","","67","","","","31","","35","","8.0","","100.94","","","","-46","","Snow"
"-81.24","68.78","HALL BEACH AWOS","2402352","2012-02-17 15:00","2012","02","17","15:00","-29.6","","-33.9","","66","","","","32","","33","","8.0","","100.96","","","","-46","","Snow"
"-81.24","68.78","HALL BEACH AWOS","2402352","2012-02-17 16:00","2012","02","17","16:00","-30.0","","-34.4","","65","","","","31","","35","","6.4","","100.99","","","","-47","","Snow"
"-81.24","68.78","HALL BEACH AWOS","2402352","2012-02-17 17:00","2012","02","17","17:00","-30.7","","-35.0","","66","","","","31","","30","","15.0","","101.04","","","","-47","","Snow"
"-81.24","68.78","HALL BEACH AWOS","2402352","2012-02-17 18:00","2012","02","17","18:00","-30.9","","-35.2","","66","","","","32","","39","","8.0","","101.03","","","","-49","","Snow"
"-81.24","68.78","HALL BEACH AWOS","2402352","2012-02-17 19:00","2012","02","17","19:00","-31.4","","-35.9","","64","","","","31","","28","","15.0","","101.07","","","","-47","","Snow"
"-81.24","68.78","HALL BEACH AWOS","2402352","2012-02-17 20:00","2012","02","17","20:00","-32.1","","-36.5","","65","","","","31","","22","","15.0","","101.10","","","","-46","","Snow"
"-81.24","68.78","HALL BEACH AWOS","2402352","2012-02-17 21:00","2012","02","17","21:00","-31.8","","-36.3","","64","","","","31","","20","","15.0","","101.11","","","","-45","",""
"-81.24","68.78","HALL BEACH AWOS","2402352","2012-02-17 22:00","2012","02","17","22:00","-31.6","","-36.1","","64","","","","31","","33","","9.7","","101.08","","","","-48","","Snow"
"-81.24","68.78","HALL BEACH AWOS","2402352","2012-02-17 23:00","2012","02","17","23:00","-31.9","","-36.3","","65","","","","31","","33","","15.0","","101.09","","","","-49","","Snow"
"-81.24","68.78","HALL BEACH AWOS","2402352","2012-02-18 00:00","2012","02","18","00:00","-32.5","","-37.0","","64","","","","30","","24","","15.0","","101.12","","","","-47","",""
"-81.24","68.78","HALL BEACH AWOS","2402352","2012-02-18 01:00","2012","02","18","01:00","-33.3","","-37.8","","64","","","","31","","24","","15.0","","101.10","","","","-48","",""
"-81.24","68.78","HALL BEACH AWOS","2402352","2012-02-18 02:00","2012","02","18","02:00","-33.2","","-37.7","","64","","","","31","","30","","15.0","","101.11","","","","-50","","Snow"
"-81.24","68.78","HALL BEACH AWOS","2402352","2012-02-18 03:00","2012","02","18","03:00","-33.9","","-38.2","","65","","","","31","","26","","15.0","","101.16","","","","-50","",""
"-81.24","68.78","HALL BEACH AWOS","2402352","2012-02-18 04:00","2012","02","18","04:00","-33.5","","-38.1","","63","","","","31","","26","","15.0","","101.20","","","","-49","",""
"-81.24","68.78","HALL BEACH AWOS","2402352","2012-02-18 05:00","2012","02","18","05:00","-33.7","","-38.3","","63","","","","30","","19","","15.0","","101.23","","","","-47","",""
"-81.24","68.78","HALL BEACH AWOS","2402352","2012-02-18 06:00","2012","02","18","06:00","-34.0","","-38.3","","65","","","","28","","22","","15.0","","101.25","","","","-49","",""
"-81.24","68.78","HALL BEACH AWOS","2402352","2012-02-18 07:00","2012","02","18","07:00","-33.9","","-37.7","","68","","","","27","","22","","15.0","","101.30","","","","-49","",""
"-81.24","68.78","HALL BEACH AWOS","2402352","2012-02-18 08:00","2012","02","18","08:00","-33.6","","-38.0","","65","","","","29","","26","","15.0","","101.29","","","","-49","",""
"-81.24","68.78","HALL BEACH AWOS","2402352","2012-02-18 09:00","2012","02","18","09:00","-33.9","","-38.1","","66","","","","28","","20","","15.0","","101.31","","","","-48","",""
"-81.24","68.78","HALL BEACH AWOS","2402352","2012-02-18 10:00","2012","02","18","10:00","-33.9","","-38.1","","66","","","","28","","11","","15.0","","101.33","","","","-44","",""
"-81.24","68.78","HALL BEACH AWOS","2402352","2012-02-18 11:00","2012","02","18","11:00","-33.0","","-37.2","","66","","","","28","","17","","15.0","","101.33","","","","-46","",""
"-81.24","68.78","HALL BEACH AWOS","2402352","2012-02-18 12:00","2012","02","18","12:00","-32.7","","-37.1","","65","","","","29","","19","","15.0","","101.37","","","","-46","",""
"-81.24","68.78","HALL BEACH AWOS","2402352","2012-02-18 13:00","2012","02","18","13:00","-31.4","","-35.7","","66","","","","30","","13","","15.0","","101.34","","","","-42","",""
"-81.24","68.78","HALL BEACH AWOS","2402352","2012-02-18 14:00","2012","02","18","14:00","-30.6","","-34.6","","68","","","","29","","6","","15.0","","101.38","","","","-37","",""
"-81.24","68.78","HALL BEACH AWOS","2402352","2012-02-18 15:00","2012","02","18","15:00","-31.4","","-35.8","","65","","","","28","","7","","15.0","","101.40","","","","-39","",""
"-81.24","68.78","HALL BEACH AWOS","2402352","2012-02-18 16:00","2012","02","18","16:00","-31.1","","-35.6","","65","","","","30","","4","","15.0","","101.42","","","","-36","",""
"-81.24","68.78","HALL BEACH AWOS","2402352","2012-02-18 17:00","2012","02","18","17:00","-30.4","","-35.2","","63","","","","","","0","","15.0","","101.43","","","","","","Snow"
"-81.24","68.78","HALL BEACH AWOS","2402352","2012-02-18 18:00","2012","02","18","18:00","-30.8","","-35.7","","62","","","","","","0","","15.0","","101.44","","","","","","Snow"
"-81.24","68.78","HALL BEACH AWOS","2402352","2012-02-18 19:00","2012","02","18","19:00","-29.2","","-33.9","","64","","","","","","0","","15.0","","101.45","","","","","","Snow"
"-81.24","68.78","HALL BEACH AWOS","2402352","2012-02-18 20:00","2012","02","18","20:00","-24.4","","-28.3","","70","","","","15","","11","","4.8","","101.44","","","","-33","","Snow"
"-81.24","68.78","HALL BEACH AWOS","2402352","2012-02-18 21:00","2012","02","18","21:00","-24.0","","-28.0","","69","","","","15","","15","","15.0","","101.42","","","","-34","","Snow"
"-81.24","68.78","HALL BEACH AWOS","2402352","2012-02-18 22:00","2012","02","18","22:00","-23.1","","-26.9","","71","","","","14","","15","","9.7","","101.41","","","","-33","","Snow"
"-81.24","68.78","HALL BEACH AWOS","2402352","2012-02-18 23:00","2012","02","18","23:00","-22.8","","-26.8","","70","","","","15","","20","","12.9","","101.40","","","","-34","",""
"-81.24","68.78","HALL BEACH AWOS","2402352","2012-02-19 00:00","2012","02","19","00:00","-22.7","","-31.3","","45","","","","16","","19","","15.0","","101.41","","","","-34","",""
"-81.24","68.78","HALL BEACH AWOS","2402352","2012-02-19 01:00","2012","02","19","01:00","-22.7","","-26.8","","69","","","","17","","20","","15.0","","101.38","","","","-34","",""
"-81.24","68.78","HALL BEACH AWOS","2402352","2012-02-19 02:00","2012","02","19","02:00","-22.5","","-26.3","","71","","","","16","","19","","8.0","","101.37","","","","-33","",""
"-81.24","68.78","HALL BEACH AWOS","2402352","2012-02-19 03:00","2012","02","19","03:00","-22.5","","-26.1","","72","","","","16","","20","","15.0","","101.37","","","","-34","","Snow"
"-81.24","68.78","HALL BEACH AWOS","2402352","2012-02-19 04:00","2012","02","19","04:00","-22.6","","-26.2","","72","","","","16","","20","","15.0","","101.38","","","","-34","","Snow"
"-81.24","68.78","HALL BEACH AWOS","2402352","2012-02-19 05:00","2012","02","19","05:00","-22.4","","-27.2","","65","","","","16","","19","","15.0","","101.38","","","","-33","","Snow"
"-81.24","68.78","HALL BEACH AWOS","2402352","2012-02-19 06:00","2012","02","19","06:00","-22.2","","-25.6","","74","","","","16","","17","","9.7","","101.40","","","","-32","","Snow"
"-81.24","68.78","HALL BEACH AWOS","2402352","2012-02-19 07:00","2012","02","19","07:00","-22.0","","-25.8","","71","","","","16","","17","","15.0","","101.39","","","","-32","",""
"-81.24","68.78","HALL BEACH AWOS","2402352","2012-02-19 08:00","2012","02","19","08:00","-21.9","","-27.6","","60","","","","16","","19","","6.4","","101.41","","","","-33","","Snow"
"-81.24","68.78","HALL BEACH AWOS","2402352","2012-02-19 09:00","2012","02","19","09:00","-22.3","","-30.6","","47","","","","16","","17","","15.0","","101.42","","","","-33","","Snow"
"-81.24","68.78","HALL BEACH AWOS","2402352","2012-02-19 10:00","2012","02","19","10:00","-21.8","","-27.5","","60","","","","15","","15","","14.5","","101.45","","","","-31","","Snow"
"-81.24","68.78","HALL BEACH AWOS","2402352","2012-02-19 11:00","2012","02","19","11:00","-21.7","","-27.6","","59","","","","14","","15","","15.0","","101.45","","","","-31","","Snow"
"-81.24","68.78","HALL BEACH AWOS","2402352","2012-02-19 12:00","2012","02","19","12:00","-21.6","","-25.6","","70","","","","15","","15","","8.0","","101.45","","","","-31","","Snow"
"-81.24","68.78","HALL BEACH AWOS","2402352","2012-02-19 13:00","2012","02","19","13:00","-21.5","","-27.2","","60","","","","15","","15","","15.0","","101.44","","","","-31","",""
"-81.24","68.78","HALL BEACH AWOS","2402352","2012-02-19 14:00","2012","02","19","14:00","-21.9","","-26.1","","69","","","","14","","15","","15.0","","101.46","","","","-31","",""
"-81.24","68.78","HALL BEACH AWOS","2402352","2012-02-19 15:00","2012","02","19","15:00","-22.0","","-25.7","","72","","","","12","","17","","15.0","","101.49","","","","-32","","Snow"
"-81.24","68.78","HALL BEACH AWOS","2402352","2012-02-19 16:00","2012","02","19","16:00","-21.8","","-27.3","","61","","","","12","","15","","15.0","","101.52","","","","-31","","Snow"
"-81.24","68.78","HALL BEACH AWOS","2402352","2012-02-19 17:00","2012","02","19","17:00","-21.9","","-26.1","","69","","","","12","","13","","15.0","","101.54","","","","-31","",""
"-81.24","68.78","HALL BEACH AWOS","2402352","2012-02-19 18:00","2012","02","19","18:00","-21.9","","-25.8","","71","","","","12","","17","","15.0","","101.57","","","","-32","",""
"-81.24","68.78","HALL BEACH AWOS","2402352","2012-02-19 19:00","2012","02","19","19:00","-22.4","","-26.2","","71","","","","13","","15","","15.0","","101.58","","","","-32","","Snow"
"-81.24","68.78","HALL BEACH AWOS","2402352","2012-02-19 20:00","2012","02","19","20:00","-23.0","","-26.8","","71","","","","13","","13","","15.0","","101.63","","","","-32","",""
"-81.24","68.78","HALL BEACH AWOS","2402352","2012-02-19 21:00","2012","02","19","21:00","-23.4","","-27.2","","71","","","","11","","11","","15.0","","101.65","","","","-32","","Snow"
"-81.24","68.78","HALL BEACH AWOS","2402352","2012-02-19 22:00","2012","02","19","22:00","-23.3","","-27.0","","72","","","","11","","11","","15.0","","101.67","","","","-32","",""
"-81.24","68.78","HALL BEACH AWOS","2402352","2012-02-19 23:00","2012","02","19","23:00","-23.1","","-26.9","","71","","","","11","","13","","15.0","","101.69","","","","-32","",""
"-81.24","68.78","HALL BEACH AWOS","2402352","2012-02-20 00:00","2012","02","20","00:00","-24.2","","-27.6","","73","","","","10","","13","","15.0","","101.68","","","","-34","",""
"-81.24","68.78","HALL BEACH AWOS","2402352","2012-02-20 01:00","2012","02","20","01:00","-24.3","","-28.2","","70","","","","10","","13","","15.0","","101.71","","","","-34","",""
"-81.24","68.78","HALL BEACH AWOS","2402352","2012-02-20 02:00","2012","02","20","02:00","-24.7","","-28.6","","70","","","","9","","13","","15.0","","101.72","","","","-34","",""
"-81.24","68.78","HALL BEACH AWOS","2402352","2012-02-20 03:00","2012","02","20","03:00","-24.9","","-28.7","","71","","","","8","","9","","15.0","","101.75","","","","-33","",""
"-81.24","68.78","HALL BEACH AWOS","2402352","2012-02-20 04:00","2012","02","20","04:00","-31.3","","-35.6","","66","","","","35","","17","","15.0","","101.77","","","","-44","",""
"-81.24","68.78","HALL BEACH AWOS","2402352","2012-02-20 05:00","2012","02","20","05:00","-32.4","","-36.7","","65","","","","35","","15","","15.0","","101.80","","","","-44","",""
"-81.24","68.78","HALL BEACH AWOS","2402352","2012-02-20 06:00","2012","02","20","06:00","-33.3","","-37.6","","65","","","","35","","19","","15.0","","101.83","","","","-47","",""
"-81.24","68.78","HALL BEACH AWOS","2402352","2012-02-20 07:00","2012","02","20","07:00","-34.4","","-38.6","","66","","","","35","","17","","15.0","","101.86","","","","-48","",""
"-81.24","68.78","HALL BEACH AWOS","2402352","2012-02-20 08:00","2012","02","20","08:00","-34.6","","-38.9","","65","","","","35","","19","","15.0","","101.86","","","","-49","",""
"-81.24","68.78","HALL BEACH AWOS","2402352","2012-02-20 09:00","2012","02","20","09:00","-35.0","","-39.2","","65","","","","35","","19","","15.0","","101.87","","","","-49","",""
"-81.24","68.78","HALL BEACH AWOS","2402352","2012-02-20 10:00","2012","02","20","10:00","-35.5","","-39.7","","65","","","","35","","17","","15.0","","101.87","","","","-49","",""
"-81.24","68.78","HALL BEACH AWOS","2402352","2012-02-20 11:00","2012","02","20","11:00","-35.2","","-39.4","","65","","","","34","","17","","15.0","","101.87","","","","-49","",""
"-81.24","68.78","HALL BEACH AWOS","2402352","2012-02-20 12:00","2012","02","20","12:00","-34.6","","-38.8","","66","","","","34","","17","","15.0","","101.85","","","","-48","",""
"-81.24","68.78","HALL BEACH AWOS","2402352","2012-02-20 13:00","2012","02","20","13:00","-34.6","","-38.9","","65","","","","33","","17","","15.0","","101.84","","","","-48","",""
"-81.24","68.78","HALL BEACH AWOS","2402352","2012-02-20 14:00","2012","02","20","14:00","-34.2","","-38.5","","65","","","","32","","19","","15.0","","101.84","","","","-48","",""
"-81.24","68.78","HALL BEACH AWOS","2402352","2012-02-20 15:00","2012","02","20","15:00","-34.1","","-38.4","","65","","","","32","","17","","15.0","","101.84","","","","-47","",""
"-81.24","68.78","HALL BEACH AWOS","2402352","2012-02-20 16:00","2012","02","20","16:00","-34.8","","-38.8","","67","","","","32","","20","","15.0","","101.82","","","","-49","",""
"-81.24","68.78","HALL BEACH AWOS","2402352","2012-02-20 17:00","2012","02","20","17:00","-35.7","","-39.9","","65","","","","32","","24","","15.0","","101.82","","","","-52","",""
"-81.24","68.78","HALL BEACH AWOS","2402352","2012-02-20 18:00","2012","02","20","18:00","-35.7","","-40.3","","63","","","","32","","20","","15.0","","101.81","","","","-50","",""
"-81.24","68.78","HALL BEACH AWOS","2402352","2012-02-20 19:00","2012","02","20","19:00","-36.4","","-40.7","","64","","","","32","","20","","15.0","","101.80","","","","-51","",""
"-81.24","68.78","HALL BEACH AWOS","2402352","2012-02-20 20:00","2012","02","20","20:00","-35.9","","-40.3","","64","","","","32","","28","","15.0","","101.79","","","","-53","",""
"-81.24","68.78","HALL BEACH AWOS","2402352","2012-02-20 21:00","2012","02","20","21:00","-37.0","","-41.1","","66","","","","32","","20","","15.0","","101.76","","","","-52","",""
"-81.24","68.78","HALL BEACH AWOS","2402352","2012-02-20 22:00","2012","02","20","22:00","-36.7","","-41.0","","64","","","","32","","22","","15.0","","101.74","","","","-52","",""
"-81.24","68.78","HALL BEACH AWOS","2402352","2012-02-20 23:00","2012","02","20","23:00","-36.5","","-41.2","","62","","","","32","","24","","15.0","","101.68","","","","-53","",""
"-81.24","68.78","HALL BEACH AWOS","2402352","2012-02-21 00:00","2012","02","21","00:00","-35.7","","-40.1","","64","","","","32","","26","","15.0","","101.65","","","","-52","",""
"-81.24","68.78","HALL BEACH AWOS","2402352","2012-02-21 01:00","2012","02","21","01:00","-36.0","","-40.3","","65","","","","32","","24","","15.0","","101.62","","","","-52","",""
"-81.24","68.78","HALL BEACH AWOS","2402352","2012-02-21 02:00","2012","02","21","02:00","-35.7","","-39.7","","67","","","","33","","24","","15.0","","101.60","","","","-52","",""
"-81.24","68.78","HALL BEACH AWOS","2402352","2012-02-21 03:00","2012","02","21","03:00","-35.5","","-39.9","","64","","","","32","","26","","15.0","","101.59","","","","-52","",""
"-81.24","68.78","HALL BEACH AWOS","2402352","2012-02-21 04:00","2012","02","21","04:00","-35.8","","-40.0","","65","","","","33","","26","","15.0","","101.61","","","","-52","",""
"-81.24","68.78","HALL BEACH AWOS","2402352","2012-02-21 05:00","2012","02","21","05:00","-34.6","","-39.0","","64","","","","32","","20","","15.0","","101.61","","","","-49","",""
"-81.24","68.78","HALL BEACH AWOS","2402352","2012-02-21 06:00","2012","02","21","06:00","-35.2","","-39.6","","64","","","","32","","15","","11.3","","101.61","","","","-48","",""
"-81.24","68.78","HALL BEACH AWOS","2402352","2012-02-21 07:00","2012","02","21","07:00","-35.1","","-39.3","","65","","","","32","","24","","11.3","","101.59","","","","-51","",""
"-81.24","68.78","HALL BEACH AWOS","2402352","2012-02-21 08:00","2012","02","21","08:00","-34.4","","-38.8","","64","","","","32","","24","","6.4","","101.57","","","","-50","",""
"-81.24","68.78","HALL BEACH AWOS","2402352","2012-02-21 09:00","2012","02","21","09:00","-34.0","","-38.2","","66","","","","32","","20","","9.7","","101.59","","","","-48","",""
"-81.24","68.78","HALL BEACH AWOS","2402352","2012-02-21 10:00","2012","02","21","10:00","-33.7","","-38.0","","65","","","","31","","28","","14.5","","101.57","","","","-50","",""
"-81.24","68.78","HALL BEACH AWOS","2402352","2012-02-21 11:00","2012","02","21","11:00","-32.6","","-36.7","","67","","","","32","","24","","15.0","","101.53","","","","-48","",""
"-81.24","68.78","HALL BEACH AWOS","2402352","2012-02-21 12:00","2012","02","21","12:00","-32.4","","-36.7","","65","","","","31","","22","","15.0","","101.51","","","","-47","",""
"-81.24","68.78","HALL BEACH AWOS","2402352","2012-02-21 13:00","2012","02","21","13:00","-31.4","","-35.8","","65","","","","32","","20","","15.0","","101.48","","","","-45","",""
"-81.24","68.78","HALL BEACH AWOS","2402352","2012-02-21 14:00","2012","02","21","14:00","-31.0","","-35.3","","66","","","","31","","24","","15.0","","101.49","","","","-45","",""
"-81.24","68.78","HALL BEACH AWOS","2402352","2012-02-21 15:00","2012","02","21","15:00","-31.1","","-35.3","","66","","","","31","","19","","15.0","","101.53","","","","-44","",""
"-81.24","68.78","HALL BEACH AWOS","2402352","2012-02-21 16:00","2012","02","21","16:00","-31.8","","-36.1","","66","","","","32","","19","","15.0","","101.54","","","","-45","",""
"-81.24","68.78","HALL BEACH AWOS","2402352","2012-02-21 17:00","2012","02","21","17:00","-32.1","","-36.4","","66","","","","31","","28","","15.0","","101.52","","","","-48","",""
"-81.24","68.78","HALL BEACH AWOS","2402352","2012-02-21 18:00","2012","02","21","18:00","-31.8","","-36.2","","65","","","","32","","20","","15.0","","101.53","","","","-45","",""
"-81.24","68.78","HALL BEACH AWOS","2402352","2012-02-21 19:00","2012","02","21","19:00","-32.3","","-36.4","","67","","","","32","","20","","15.0","","101.50","","","","-46","",""
"-81.24","68.78","HALL BEACH AWOS","2402352","2012-02-21 20:00","2012","02","21","20:00","-31.4","","-35.7","","66","","","","30","","22","","15.0","","101.48","","","","-45","",""
"-81.24","68.78","HALL BEACH AWOS","2402352","2012-02-21 21:00","2012","02","21","21:00","-31.1","","-35.5","","65","","","","30","","17","","15.0","","101.44","","","","-44","",""
"-81.24","68.78","HALL BEACH AWOS","2402352","2012-02-21 22:00","2012","02","21","22:00","-30.9","","-35.4","","65","","","","33","","13","","15.0","","101.39","","","","-42","",""
"-81.24","68.78","HALL BEACH AWOS","2402352","2012-02-21 23:00","2012","02","21","23:00","-30.1","","-34.7","","64","","","","30","","6","","15.0","","101.33","","","","-37","",""
"-81.24","68.78","HALL BEACH AWOS","2402352","2012-02-22 00:00","2012","02","22","00:00","-30.1","","-34.2","","67","","","","34","","7","","15.0","","101.29","","","","-37","",""
"-81.24","68.78","HALL BEACH AWOS","2402352","2012-02-22 01:00","2012","02","22","01:00","-30.5","","-34.3","","69","","","","","","0","","15.0","","101.27","","","","","",""
"-81.24","68.78","HALL BEACH AWOS","2402352","2012-02-22 02:00","2012","02","22","02:00","-31.9","","-36.3","","65","","","","29","","4","","15.0","","101.23","","","","-37","",""
"-81.24","68.78","HALL BEACH AWOS","2402352","2012-02-22 03:00","2012","02","22","03:00","-32.9","","-36.7","","69","","","","22","","9","","15.0","","101.22","","","","-42","",""
"-81.24","68.78","HALL BEACH AWOS","2402352","2012-02-22 04:00","2012","02","22","04:00","-32.9","","-37.0","","67","","","","","","0","","15.0","","101.22","","","","","",""
"-81.24","68.78","HALL BEACH AWOS","2402352","2012-02-22 05:00","2012","02","22","05:00","-32.1","","-36.4","","66","","","","31","","13","","15.0","","101.21","","","","-43","",""
"-81.24","68.78","HALL BEACH AWOS","2402352","2012-02-22 06:00","2012","02","22","06:00","-30.7","","-34.9","","67","","","","31","","13","","15.0","","101.16","","","","-41","",""
"-81.24","68.78","HALL BEACH AWOS","2402352","2012-02-22 07:00","2012","02","22","07:00","-28.5","","-32.7","","67","","","","28","","11","","15.0","","101.14","","","","-38","",""
"-81.24","68.78","HALL BEACH AWOS","2402352","2012-02-22 08:00","2012","02","22","08:00","-29.3","","-33.2","","69","","","","27","","19","","15.0","","101.12","","","","-42","",""
"-81.24","68.78","HALL BEACH AWOS","2402352","2012-02-22 09:00","2012","02","22","09:00","-28.6","","-32.6","","68","","","","27","","22","","15.0","","101.08","","","","-42","",""
"-81.24","68.78","HALL BEACH AWOS","2402352","2012-02-22 10:00","2012","02","22","10:00","-28.2","","-32.1","","69","","","","29","","22","","15.0","","101.07","","","","-41","",""
"-81.24","68.78","HALL BEACH AWOS","2402352","2012-02-22 11:00","2012","02","22","11:00","-27.0","","-30.8","","70","","","","29","","19","","15.0","","101.03","","","","-39","",""
"-81.24","68.78","HALL BEACH AWOS","2402352","2012-02-22 12:00","2012","02","22","12:00","-26.3","","-30.1","","70","","","","27","","20","","9.7","","101.00","","","","-38","","Snow"
"-81.24","68.78","HALL BEACH AWOS","2402352","2012-02-22 13:00","2012","02","22","13:00","-25.6","","-29.4","","70","","","","27","","13","","15.0","","100.99","","","","-35","",""
"-81.24","68.78","HALL BEACH AWOS","2402352","2012-02-22 14:00","2012","02","22","14:00","-25.5","","-29.1","","72","","","","29","","20","","12.9","","100.96","","","","-37","","Snow"
"-81.24","68.78","HALL BEACH AWOS","2402352","2012-02-22 15:00","2012","02","22","15:00","-25.2","","-28.8","","72","","","","29","","22","","12.9","","100.98","","","","-38","",""
"-81.24","68.78","HALL BEACH AWOS","2402352","2012-02-22 16:00","2012","02","22","16:00","-24.7","","-28.4","","71","","","","28","","15","","6.4","","101.00","","","","-35","","Snow"
"-81.24","68.78","HALL BEACH AWOS","2402352","2012-02-22 17:00","2012","02","22","17:00","-24.5","","-28.1","","72","","","","29","","19","","8.0","","101.00","","","","-36","","Snow"
"-81.24","68.78","HALL BEACH AWOS","2402352","2012-02-22 18:00","2012","02","22","18:00","-24.8","","-28.5","","71","","","","29","","24","","9.7","","100.99","","","","-38","",""
"-81.24","68.78","HALL BEACH AWOS","2402352","2012-02-22 19:00","2012","02","22","19:00","-25.4","","-29.2","","70","","","","30","","19","","15.0","","101.00","","","","-37","",""
"-81.24","68.78","HALL BEACH AWOS","2402352","2012-02-22 20:00","2012","02","22","20:00","-26.9","","-30.8","","69","","","","30","","19","","15.0","","100.99","","","","-39","",""
"-81.24","68.78","HALL BEACH AWOS","2402352","2012-02-22 21:00","2012","02","22","21:00","-26.9","","-30.9","","69","","","","31","","20","","15.0","","100.96","","","","-39","","Snow"
"-81.24","68.78","HALL BEACH AWOS","2402352","2012-02-22 22:00","2012","02","22","22:00","-27.2","","-31.1","","69","","","","30","","17","","15.0","","100.97","","","","-39","",""
"-81.24","68.78","HALL BEACH AWOS","2402352","2012-02-22 23:00","2012","02","22","23:00","-29.2","","-33.4","","67","","","","27","","13","","15.0","","100.96","","","","-40","",""
"-81.24","68.78","HALL BEACH AWOS","2402352","2012-02-23 00:00","2012","02","23","00:00","-28.8","","-32.1","","73","","","","26","","13","","15.0","","100.95","","","","-39","",""
"-81.24","68.78","HALL BEACH AWOS","2402352","2012-02-23 01:00","2012","02","23","01:00","-27.6","","-31.6","","69","","","","29","","19","","15.0","","100.92","","","","-40","","Snow"
"-81.24","68.78","HALL BEACH AWOS","2402352","2012-02-23 02:00","2012","02","23","02:00","-27.4","","-31.2","","70","","","","29","","11","","15.0","","100.94","","","","-37","",""
"-81.24","68.78","HALL BEACH AWOS","2402352","2012-02-23 03:00","2012","02","23","03:00","-26.9","","-30.6","","71","","","","21","","7","","15.0","","100.95","","","","-34","","Snow"
"-81.24","68.78","HALL BEACH AWOS","2402352","2012-02-23 04:00","2012","02","23","04:00","-26.6","","-30.5","","70","","","","27","","9","","15.0","","100.97","","","","-35","","Snow"
"-81.24","68.78","HALL BEACH AWOS","2402352","2012-02-23 05:00","2012","02","23","05:00","-26.5","","-30.4","","70","","","","26","","7","","15.0","","100.97","","","","-33","","Snow"
"-81.24","68.78","HALL BEACH AWOS","2402352","2012-02-23 06:00","2012","02","23","06:00","-26.2","","-30.2","","69","","","","30","","9","","15.0","","100.95","","","","-34","","Snow"
"-81.24","68.78","HALL BEACH AWOS","2402352","2012-02-23 07:00","2012","02","23","07:00","-26.7","","-30.8","","68","","","","21","","7","","15.0","","100.96","","","","-33","",""
"-81.24","68.78","HALL BEACH AWOS","2402352","2012-02-23 08:00","2012","02","23","08:00","-27.8","","-31.8","","69","","","","25","","7","","15.0","","100.98","","","","-35","","Snow"
"-81.24","68.78","HALL BEACH AWOS","2402352","2012-02-23 09:00","2012","02","23","09:00","-27.8","","-31.7","","69","","","","26","","7","","15.0","","100.97","","","","-35","","Snow"
"-81.24","68.78","HALL BEACH AWOS","2402352","2012-02-23 10:00","2012","02","23","10:00","-27.7","","-31.6","","69","","","","24","","9","","15.0","","100.97","","","","-36","",""
"-81.24","68.78","HALL BEACH AWOS","2402352","2012-02-23 11:00","2012","02","23","11:00"
"-81.24","68.78","HALL BEACH AWOS","2402352","2012-02-23 12:00","2012","02","23","12:00","-26.3","","-29.9","","72","","","","30","","9","","15.0","","100.96","","","","-34","","Snow"
"-81.24","68.78","HALL BEACH AWOS","2402352","2012-02-23 13:00","2012","02","23","13:00","-25.0","","-28.5","","73","","","","25","","6","","11.3","","100.98","","","","-31","","Snow"
"-81.24","68.78","HALL BEACH AWOS","2402352","2012-02-23 14:00","2012","02","23","14:00","-25.0","","-28.5","","73","","","","29","","7","","15.0","","101.00","","","","-31","","Snow"
"-81.24","68.78","HALL BEACH AWOS","2402352","2012-02-23 15:00","2012","02","23","15:00","-24.8","","-28.3","","73","","","","29","","9","","9.7","","101.02","","","","-32","","Snow"
"-81.24","68.78","HALL BEACH AWOS","2402352","2012-02-23 16:00","2012","02","23","16:00","-24.9","","-28.6","","71","","","","27","","7","","15.0","","101.05","","","","-31","","Snow"
"-81.24","68.78","HALL BEACH AWOS","2402352","2012-02-23 17:00","2012","02","23","17:00","-25.2","","-29.0","","71","","","","32","","6","","12.9","","101.07","","","","-31","","Snow"
"-81.24","68.78","HALL BEACH AWOS","2402352","2012-02-23 18:00","2012","02","23","18:00","-25.5","","-29.2","","71","","","","33","","6","","15.0","","101.09","","","","-31","","Snow"
"-81.24","68.78","HALL BEACH AWOS","2402352","2012-02-23 19:00","2012","02","23","19:00","-26.0","","-29.9","","70","","","","34","","4","","15.0","","101.11","","","","-30","","Snow"
"-81.24","68.78","HALL BEACH AWOS","2402352","2012-02-23 20:00","2012","02","23","20:00","-25.9","","-29.8","","70","","","","","","0","","15.0","","101.10","","","","","","Snow"
"-81.24","68.78","HALL BEACH AWOS","2402352","2012-02-23 21:00","2012","02","23","21:00","-26.0","","-29.9","","70","","","","","","0","","15.0","","101.10","","","","","","Snow"
"-81.24","68.78","HALL BEACH AWOS","2402352","2012-02-23 22:00","2012","02","23","22:00","-25.6","","-29.5","","70","","","","","","0","","15.0","","101.08","","","","","",""
"-81.24","68.78","HALL BEACH AWOS","2402352","2012-02-23 23:00","2012","02","23","23:00","-26.0","","-29.9","","70","","","","33","","7","","14.5","","101.09","","","","-33","",""
"-81.24","68.78","HALL BEACH AWOS","2402352","2012-02-24 00:00","2012","02","24","00:00","-25.2","","-28.8","","72","","","","34","","9","","9.7","","101.08","","","","-33","",""
"-81.24","68.78","HALL BEACH AWOS","2402352","2012-02-24 01:00","2012","02","24","01:00","-25.0","","-28.7","","71","","","","36","","9","","9.7","","101.10","","","","-33","",""
"-81.24","68.78","HALL BEACH AWOS","2402352","2012-02-24 02:00","2012","02","24","02:00","-26.4","","-30.2","","70","","","","34","","15","","8.0","","101.11","","","","-37","",""
"-81.24","68.78","HALL BEACH AWOS","2402352","2012-02-24 03:00","2012","02","24","03:00","-28.6","","-32.6","","68","","","","1","","13","","12.9","","101.13","","","","-39","",""
"-81.24","68.78","HALL BEACH AWOS","2402352","2012-02-24 04:00","2012","02","24","04:00","-31.1","","-35.1","","68","","","","36","","17","","15.0","","101.13","","","","-44","",""
"-81.24","68.78","HALL BEACH AWOS","2402352","2012-02-24 05:00","2012","02","24","05:00","-32.3","","-36.5","","66","","","","35","","17","","15.0","","101.17","","","","-45","",""
"-81.24","68.78","HALL BEACH AWOS","2402352","2012-02-24 06:00","2012","02","24","06:00","-31.8","","-36.1","","66","","","","35","","15","","15.0","","101.20","","","","-44","",""
"-81.24","68.78","HALL BEACH AWOS","2402352","2012-02-24 07:00","2012","02","24","07:00","-31.2","","-35.1","","68","","","","34","","17","","15.0","","101.23","","","","-44","","Snow"
"-81.24","68.78","HALL BEACH AWOS","2402352","2012-02-24 08:00","2012","02","24","08:00","-31.1","","-35.3","","66","","","","34","","19","","15.0","","101.27","","","","-44","",""
"-81.24","68.78","HALL BEACH AWOS","2402352","2012-02-24 09:00","2012","02","24","09:00","-31.1","","-35.2","","67","","","","33","","19","","15.0","","101.30","","","","-44","",""
"-81.24","68.78","HALL BEACH AWOS","2402352","2012-02-24 10:00","2012","02","24","10:00"
"-81.24","68.78","HALL BEACH AWOS","2402352","2012-02-24 11:00","2012","02","24","11:00","-29.4","","-33.5","","68","","","","32","","17","","15.0","","101.37","","","","-41","",""
"-81.24","68.78","HALL BEACH AWOS","2402352","2012-02-24 12:00","2012","02","24","12:00","-28.4","","-32.4","","68","","","","31","","22","","15.0","","101.39","","","","-42","",""
"-81.24","68.78","HALL BEACH AWOS","2402352","2012-02-24 13:00","2012","02","24","13:00","-29.3","","-33.3","","68","","","","30","","13","","15.0","","101.43","","","","-40","",""
"-81.24","68.78","HALL BEACH AWOS","2402352","2012-02-24 14:00","2012","02","24","14:00","-31.0","","-35.3","","66","","","","32","","20","","15.0","","101.48","","","","-44","",""
"-81.24","68.78","HALL BEACH AWOS","2402352","2012-02-24 15:00","2012","02","24","15:00","-31.9","","-36.3","","65","","","","32","","20","","15.0","","101.54","","","","-45","",""
"-81.24","68.78","HALL BEACH AWOS","2402352","2012-02-24 16:00","2012","02","24","16:00","-32.8","","-37.4","","63","","","","32","","22","","15.0","","101.57","","","","-47","",""
"-81.24","68.78","HALL BEACH AWOS","2402352","2012-02-24 17:00","2012","02","24","17:00","-33.4","","-37.7","","65","","","","32","","19","","15.0","","101.63","","","","-47","",""
"-81.24","68.78","HALL BEACH AWOS","2402352","2012-02-24 18:00","2012","02","24","18:00","-34.0","","-38.3","","65","","","","32","","20","","15.0","","101.67","","","","-48","",""
"-81.24","68.78","HALL BEACH AWOS","2402352","2012-02-24 19:00","2012","02","24","19:00","-35.1","","-39.5","","64","","","","31","","24","","15.0","","101.69","","","","-51","",""
"-81.24","68.78","HALL BEACH AWOS","2402352","2012-02-24 20:00","2012","02","24","20:00","-35.4","","-39.7","","65","","","","31","","20","","15.0","","101.72","","","","-50","",""
"-81.24","68.78","HALL BEACH AWOS","2402352","2012-02-24 21:00","2012","02","24","21:00","-35.9","","-40.2","","65","","","","32","","20","","15.0","","101.72","","","","-51","",""
"-81.24","68.78","HALL BEACH AWOS","2402352","2012-02-24 22:00","2012","02","24","22:00","-36.6","","-41.0","","64","","","","32","","22","","15.0","","101.73","","","","-52","",""
"-81.24","68.78","HALL BEACH AWOS","2402352","2012-02-24 23:00","2012","02","24","23:00","-37.4","","-41.7","","64","","","","33","","20","","15.0","","101.74","","","","-52","",""
"-81.24","68.78","HALL BEACH AWOS","2402352","2012-02-25 00:00","2012","02","25","00:00","-37.9","","-42.1","","65","","","","32","","24","","15.0","","101.75","","","","-54","",""
"-81.24","68.78","HALL BEACH AWOS","2402352","2012-02-25 01:00","2012","02","25","01:00","-37.8","","-42.1","","64","","","","32","","22","","15.0","","101.76","","","","-54","",""
"-81.24","68.78","HALL BEACH AWOS","2402352","2012-02-25 02:00","2012","02","25","02:00","-38.3","","-42.7","","63","","","","32","","22","","15.0","","101.79","","","","-54","",""
"-81.24","68.78","HALL BEACH AWOS","2402352","2012-02-25 03:00","2012","02","25","03:00","-37.4","","-41.5","","65","","","","32","","22","","15.0","","101.80","","","","-53","",""
"-81.24","68.78","HALL BEACH AWOS","2402352","2012-02-25 04:00","2012","02","25","04:00","-37.5","","-41.7","","65","","","","32","","20","","15.0","","101.82","","","","-53","",""
"-81.24","68.78","HALL BEACH AWOS","2402352","2012-02-25 05:00","2012","02","25","05:00","-38.4","","-42.7","","64","","","","31","","20","","15.0","","101.84","","","","-54","",""
"-81.24","68.78","HALL BEACH AWOS","2402352","2012-02-25 06:00","2012","02","25","06:00","-39.1","","-43.4","","64","","","","32","","22","","15.0","","101.83","","","","-55","",""
"-81.24","68.78","HALL BEACH AWOS","2402352","2012-02-25 07:00","2012","02","25","07:00","-39.6","","-43.9","","64","","","","32","","20","","15.0","","101.85","","","","-55","",""
"-81.24","68.78","HALL BEACH AWOS","2402352","2012-02-25 08:00","2012","02","25","08:00","-39.7","","-43.9","","64","","","","31","","19","","15.0","","101.85","","","","-55","",""
"-81.24","68.78","HALL BEACH AWOS","2402352","2012-02-25 09:00","2012","02","25","09:00","-40.3","","-44.4","","65","","","","32","","19","","15.0","","101.83","","","","-56","",""
"-81.24","68.78","HALL BEACH AWOS","2402352","2012-02-25 10:00","2012","02","25","10:00","-39.3","","-43.4","","65","","","","32","","19","","15.0","","101.85","","","","-54","",""
"-81.24","68.78","HALL BEACH AWOS","2402352","2012-02-25 11:00","2012","02","25","11:00","-38.7","","-42.6","","67","","","","32","","17","","15.0","","101.85","","","","-53","",""
"-81.24","68.78","HALL BEACH AWOS","2402352","2012-02-25 12:00","2012","02","25","12:00","-37.6","","-41.8","","65","","","","33","","22","","15.0","","101.86","","","","-53","",""
"-81.24","68.78","HALL BEACH AWOS","2402352","2012-02-25 13:00","2012","02","25","13:00","-37.1","","-41.4","","64","","","","32","","22","","15.0","","101.85","","","","-53","",""
"-81.24","68.78","HALL BEACH AWOS","2402352","2012-02-25 14:00","2012","02","25","14:00","-36.9","","-41.1","","65","","","","32","","24","","15.0","","101.85","","","","-53","",""
"-81.24","68.78","HALL BEACH AWOS","2402352","2012-02-25 15:00","2012","02","25","15:00","-37.2","","-41.5","","64","","","","31","","17","","15.0","","101.87","","","","-51","",""
"-81.24","68.78","HALL BEACH AWOS","2402352","2012-02-25 16:00","2012","02","25","16:00","-37.7","","-42.1","","63","","","","31","","20","","15.0","","101.88","","","","-53","",""
"-81.24","68.78","HALL BEACH AWOS","2402352","2012-02-25 17:00","2012","02","25","17:00","-38.6","","-43.0","","63","","","","31","","22","","15.0","","101.90","","","","-55","",""
"-81.24","68.78","HALL BEACH AWOS","2402352","2012-02-25 18:00","2012","02","25","18:00","-38.7","","-42.8","","65","","","","31","","20","","15.0","","101.90","","","","-54","",""
"-81.24","68.78","HALL BEACH AWOS","2402352","2012-02-25 19:00","2012","02","25","19:00","-39.3","","-43.8","","62","","","","32","","24","","15.0","","101.89","","","","-56","",""
"-81.24","68.78","HALL BEACH AWOS","2402352","2012-02-25 20:00","2012","02","25","20:00","-39.0","","-43.3","","64","","","","31","","22","","14.5","","101.91","","","","-55","",""
"-81.24","68.78","HALL BEACH AWOS","2402352","2012-02-25 21:00","2012","02","25","21:00","-38.7","","-42.9","","64","","","","33","","26","","9.7","","101.90","","","","-56","",""
"-81.24","68.78","HALL BEACH AWOS","2402352","2012-02-25 22:00","2012","02","25","22:00","-38.9","","-43.1","","64","","","","32","","20","","9.7","","101.92","","","","-54","",""
"-81.24","68.78","HALL BEACH AWOS","2402352","2012-02-25 23:00","2012","02","25","23:00","-38.3","","-42.3","","66","","","","32","","28","","9.7","","101.90","","","","-56","",""
"-81.24","68.78","HALL BEACH AWOS","2402352","2012-02-26 00:00","2012","02","26","00:00","-39.5","","-43.7","","64","","","","32","","19","","15.0","","101.92","","","","-55","",""
"-81.24","68.78","HALL BEACH AWOS","2402352","2012-02-26 01:00","2012","02","26","01:00","-39.7","","-43.9","","64","","","","32","","22","","15.0","","101.91","","","","-56","",""
"-81.24","68.78","HALL BEACH AWOS","2402352","2012-02-26 02:00","2012","02","26","02:00","-39.2","","-43.4","","64","","","","31","","24","","15.0","","101.93","","","","-56","",""
"-81.24","68.78","HALL BEACH AWOS","2402352","2012-02-26 03:00","2012","02","26","03:00","-38.9","","-43.1","","64","","","","32","","28","","15.0","","101.90","","","","-57","",""
"-81.24","68.78","HALL BEACH AWOS","2402352","2012-02-26 04:00","2012","02","26","04:00","-38.8","","-43.4","","62","","","","32","","30","","15.0","","101.89","","","","-57","",""
"-81.24","68.78","HALL BEACH AWOS","2402352","2012-02-26 05:00","2012","02","26","05:00","-38.8","","-43.2","","63","","","","31","","32","","15.0","","101.90","","","","-58","",""
"-81.24","68.78","HALL BEACH AWOS","2402352","2012-02-26 06:00","2012","02","26","06:00","-39.2","","-43.5","","64","","","","32","","30","","15.0","","101.92","","","","-58","",""
"-81.24","68.78","HALL BEACH AWOS","2402352","2012-02-26 07:00","2012","02","26","07:00","-38.6","","-42.9","","64","","","","31","","26","","15.0","","101.92","","","","-56","",""
"-81.24","68.78","HALL BEACH AWOS","2402352","2012-02-26 08:00","2012","02","26","08:00","-38.9","","-42.9","","66","","","","31","","28","","15.0","","101.87","","","","-57","",""
"-81.24","68.78","HALL BEACH AWOS","2402352","2012-02-26 09:00","2012","02","26","09:00","-38.3","","-42.5","","65","","","","31","","28","","15.0","","101.87","","","","-56","",""
"-81.24","68.78","HALL BEACH AWOS","2402352","2012-02-26 10:00","2012","02","26","10:00","-37.7","","-42.0","","64","","","","31","","24","","15.0","","101.83","","","","-54","",""
"-81.24","68.78","HALL BEACH AWOS","2402352","2012-02-26 11:00","2012","02","26","11:00","-36.0","","-40.2","","65","","","","32","","35","","9.7","","101.80","","","","-55","",""
"-81.24","68.78","HALL BEACH AWOS","2402352","2012-02-26 12:00","2012","02","26","12:00","-35.3","","-39.5","","65","","","","32","","33","","4.0","","101.80","","","","-53","",""
"-81.24","68.78","HALL BEACH AWOS","2402352","2012-02-26 13:00","2012","02","26","13:00","-34.9","","-39.2","","65","","","","32","","28","","4.8","","101.80","","","","-52","",""
"-81.24","68.78","HALL BEACH AWOS","2402352","2012-02-26 14:00","2012","02","26","14:00","-34.4","","-38.6","","66","","","","32","","33","","2.6","","101.77","","","","-52","","Snow"
"-81.24","68.78","HALL BEACH AWOS","2402352","2012-02-26 15:00","2012","02","26","15:00","-34.3","","-38.5","","66","","","","31","","28","","6.4","","101.76","","","","-51","",""
"-81.24","68.78","HALL BEACH AWOS","2402352","2012-02-26 16:00","2012","02","26","16:00","-34.2","","-38.4","","66","","","","30","","22","","8.0","","101.77","","","","-49","",""
"-81.24","68.78","HALL BEACH AWOS","2402352","2012-02-26 17:00","2012","02","26","17:00","-34.1","","-38.3","","66","","","","31","","35","","2.9","","101.74","","","","-52","","Snow"
"-81.24","68.78","HALL BEACH AWOS","2402352","2012-02-26 18:00","2012","02","26","18:00","-34.1","","-38.4","","65","","","","32","","35","","2.6","","101.73","","","","-52","","Snow"
"-81.24","68.78","HALL BEACH AWOS","2402352","2012-02-26 19:00","2012","02","26","19:00","-34.0","","-38.2","","66","","","","31","","37","","2.4","","101.70","","","","-52","",""
"-81.24","68.78","HALL BEACH AWOS","2402352","2012-02-26 20:00","2012","02","26","20:00","-33.8","","-38.1","","65","","","","31","","41","","1.6","","101.66","","","","-53","","Snow"
"-81.24","68.78","HALL BEACH AWOS","2402352","2012-02-26 21:00","2012","02","26","21:00","-33.3","","-37.7","","65","","","","31","","35","","1.9","","101.65","","","","-51","",""
"-81.24","68.78","HALL BEACH AWOS","2402352","2012-02-26 22:00","2012","02","26","22:00","-32.9","","-37.2","","65","","","","30","","24","","1.8","","101.64","","","","-48","",""
"-81.24","68.78","HALL BEACH AWOS","2402352","2012-02-26 23:00","2012","02","26","23:00","-32.7","","-37.1","","65","","","","31","","39","","1.0","","101.57","","","","-51","","Snow"
"-81.24","68.78","HALL BEACH AWOS","2402352","2012-02-27 00:00","2012","02","27","00:00","-32.7","","-37.0","","65","","","","31","","39","","1.0","","101.56","","","","-51","","Snow"
"-81.24","68.78","HALL BEACH AWOS","2402352","2012-02-27 01:00","2012","02","27","01:00","-32.7","","-37.1","","65","","","","31","","33","","1.6","","101.58","","","","-50","",""
"-81.24","68.78","HALL BEACH AWOS","2402352","2012-02-27 02:00","2012","02","27","02:00","-32.9","","-37.2","","65","","","","31","","39","","1.6","","101.55","","","","-51","","Snow"
"-81.24","68.78","HALL BEACH AWOS","2402352","2012-02-27 03:00","2012","02","27","03:00","-33.1","","-37.5","","65","","","","30","","37","","1.6","","101.58","","","","-51","",""
"-81.24","68.78","HALL BEACH AWOS","2402352","2012-02-27 04:00","2012","02","27","04:00","-33.2","","-37.5","","65","","","","31","","35","","1.8","","101.58","","","","-51","",""
"-81.24","68.78","HALL BEACH AWOS","2402352","2012-02-27 05:00","2012","02","27","05:00","-33.3","","-37.6","","65","","","","31","","44","","1.0","","101.54","","","","-53","","Snow"
"-81.24","68.78","HALL BEACH AWOS","2402352","2012-02-27 06:00","2012","02","27","06:00","-33.7","","-38.0","","65","","","","30","","37","","3.5","","101.59","","","","-52","",""
"-81.24","68.78","HALL BEACH AWOS","2402352","2012-02-27 07:00","2012","02","27","07:00","-33.8","","-37.9","","66","","","","30","","26","","4.0","","101.60","","","","-50","",""
"-81.24","68.78","HALL BEACH AWOS","2402352","2012-02-27 08:00","2012","02","27","08:00","-33.6","","-37.9","","65","","","","31","","32","","2.3","","101.57","","","","-51","",""
"-81.24","68.78","HALL BEACH AWOS","2402352","2012-02-27 09:00","2012","02","27","09:00","-33.2","","-37.5","","65","","","","32","","43","","1.4","","101.52","","","","-52","",""
"-81.24","68.78","HALL BEACH AWOS","2402352","2012-02-27 10:00","2012","02","27","10:00","-32.7","","-36.8","","67","","","","30","","26","","4.0","","101.59","","","","-48","",""
"-81.24","68.78","HALL BEACH AWOS","2402352","2012-02-27 11:00","2012","02","27","11:00","-31.2","","-35.3","","67","","","","30","","37","","1.9","","101.54","","","","-49","","Snow"
"-81.24","68.78","HALL BEACH AWOS","2402352","2012-02-27 12:00","2012","02","27","12:00","-31.0","","-35.1","","67","","","","30","","35","","2.6","","101.54","","","","-48","","Snow"
"-81.24","68.78","HALL BEACH AWOS","2402352","2012-02-27 13:00","2012","02","27","13:00","-30.5","","-34.7","","67","","","","31","","44","","1.8","","101.49","","","","-49","","Snow"
"-81.24","68.78","HALL BEACH AWOS","2402352","2012-02-27 14:00","2012","02","27","14:00","-29.8","","-33.9","","67","","","","31","","39","","2.4","","101.53","","","","-47","","Snow"
"-81.24","68.78","HALL BEACH AWOS","2402352","2012-02-27 15:00","2012","02","27","15:00","-29.6","","-33.8","","67","","","","30","","28","","11.3","","101.60","","","","-45","",""
"-81.24","68.78","HALL BEACH AWOS","2402352","2012-02-27 16:00","2012","02","27","16:00","-29.8","","-34.1","","66","","","","29","","24","","9.7","","101.61","","","","-44","","Snow"
"-81.24","68.78","HALL BEACH AWOS","2402352","2012-02-27 17:00","2012","02","27","17:00","-30.4","","-34.6","","67","","","","29","","22","","15.0","","101.62","","","","-44","",""
"-81.24","68.78","HALL BEACH AWOS","2402352","2012-02-27 18:00","2012","02","27","18:00","-31.1","","-35.5","","65","","","","30","","17","","15.0","","101.64","","","","-44","",""
"-81.24","68.78","HALL BEACH AWOS","2402352","2012-02-27 19:00","2012","02","27","19:00","-31.4","","-36.0","","64","","","","29","","26","","15.0","","101.61","","","","-47","",""
"-81.24","68.78","HALL BEACH AWOS","2402352","2012-02-27 20:00","2012","02","27","20:00","-31.0","","-35.1","","67","","","","30","","32","","15.0","","101.60","","","","-47","",""
"-81.24","68.78","HALL BEACH AWOS","2402352","2012-02-27 21:00","2012","02","27","21:00","-32.8","","-36.9","","67","","","","30","","22","","15.0","","101.58","","","","-47","",""
"-81.24","68.78","HALL BEACH AWOS","2402352","2012-02-27 22:00","2012","02","27","22:00","-32.6","","-36.9","","65","","","","29","","17","","15.0","","101.57","","","","-45","",""
"-81.24","68.78","HALL BEACH AWOS","2402352","2012-02-27 23:00","2012","02","27","23:00","-32.3","","-35.9","","70","","","","32","","9","","15.0","","101.54","","","","-41","",""
"-81.24","68.78","HALL BEACH AWOS","2402352","2012-02-28 00:00","2012","02","28","00:00","-33.4","","-37.4","","67","","","","29","","19","","15.0","","101.54","","","","-47","",""
"-81.24","68.78","HALL BEACH AWOS","2402352","2012-02-28 01:00","2012","02","28","01:00","-32.7","","-37.1","","65","","","","30","","15","","15.0","","101.52","","","","-45","",""
"-81.24","68.78","HALL BEACH AWOS","2402352","2012-02-28 02:00","2012","02","28","02:00","-34.3","","-38.8","","64","","","","23","","13","","15.0","","101.52","","","","-46","",""
"-81.24","68.78","HALL BEACH AWOS","2402352","2012-02-28 03:00","2012","02","28","03:00","-33.7","","-37.9","","66","","","","20","","11","","15.0","","101.53","","","","-44","",""
"-81.24","68.78","HALL BEACH AWOS","2402352","2012-02-28 04:00","2012","02","28","04:00","-33.3","","-37.6","","65","","","","23","","9","","15.0","","101.51","","","","-43","",""
"-81.24","68.78","HALL BEACH AWOS","2402352","2012-02-28 05:00","2012","02","28","05:00","-32.1","","-36.4","","66","","","","25","","19","","15.0","","101.48","","","","-45","",""
"-81.24","68.78","HALL BEACH AWOS","2402352","2012-02-28 06:00","2012","02","28","06:00","-32.1","","-36.5","","65","","","","26","","13","","15.0","","101.46","","","","-43","",""
"-81.24","68.78","HALL BEACH AWOS","2402352","2012-02-28 07:00","2012","02","28","07:00","-31.1","","-35.4","","66","","","","23","","11","","12.9","","101.43","","","","-41","","Snow"
"-81.24","68.78","HALL BEACH AWOS","2402352","2012-02-28 08:00","2012","02","28","08:00","-29.9","","-33.9","","68","","","","23","","11","","12.9","","101.40","","","","-40","","Snow"
"-81.24","68.78","HALL BEACH AWOS","2402352","2012-02-28 09:00","2012","02","28","09:00","-29.8","","-34.2","","66","","","","25","","13","","12.9","","101.35","","","","-40","",""
"-81.24","68.78","HALL BEACH AWOS","2402352","2012-02-28 10:00","2012","02","28","10:00","-27.6","","-31.4","","70","","","","20","","9","","15.0","","101.34","","","","-36","",""
"-81.24","68.78","HALL BEACH AWOS","2402352","2012-02-28 11:00","2012","02","28","11:00","-27.7","","-31.8","","68","","","","23","","9","","8.0","","101.32","","","","-36","",""
"-81.24","68.78","HALL BEACH AWOS","2402352","2012-02-28 12:00","2012","02","28","12:00","-26.2","","-30.3","","68","","","","21","","9","","4.8","","101.29","","","","-34","","Snow"
"-81.24","68.78","HALL BEACH AWOS","2402352","2012-02-28 13:00","2012","02","28","13:00","-25.2","","-29.0","","71","","","","25","","13","","6.4","","101.26","","","","-35","",""
"-81.24","68.78","HALL BEACH AWOS","2402352","2012-02-28 14:00","2012","02","28","14:00","-25.1","","-28.7","","72","","","","22","","7","","8.0","","101.24","","","","-32","",""
"-81.24","68.78","HALL BEACH AWOS","2402352","2012-02-28 15:00","2012","02","28","15:00","-25.0","","-28.7","","71","","","","21","","9","","12.9","","101.21","","","","-33","",""
"-81.24","68.78","HALL BEACH AWOS","2402352","2012-02-28 16:00","2012","02","28","16:00","-25.9","","-29.7","","70","","","","23","","13","","15.0","","101.19","","","","-36","",""
"-81.24","68.78","HALL BEACH AWOS","2402352","2012-02-28 17:00","2012","02","28","17:00","-26.9","","-30.8","","69","","","","26","","13","","15.0","","101.15","","","","-37","",""
"-81.24","68.78","HALL BEACH AWOS","2402352","2012-02-28 18:00","2012","02","28","18:00","-27.6","","-31.6","","69","","","","26","","15","","15.0","","101.13","","","","-38","",""
"-81.24","68.78","HALL BEACH AWOS","2402352","2012-02-28 19:00","2012","02","28","19:00","-28.0","","-31.9","","69","","","","27","","20","","15.0","","101.09","","","","-41","",""
"-81.24","68.78","HALL BEACH AWOS","2402352","2012-02-28 20:00","2012","02","28","20:00","-29.5","","-33.6","","68","","","","28","","13","","15.0","","101.05","","","","-40","",""
"-81.24","68.78","HALL BEACH AWOS","2402352","2012-02-28 21:00","2012","02","28","21:00","-30.8","","-35.2","","65","","","","29","","19","","15.0","","101.02","","","","-44","",""
"-81.24","68.78","HALL BEACH AWOS","2402352","2012-02-28 22:00","2012","02","28","22:00","-32.1","","-36.5","","65","","","","31","","11","","15.0","","101.01","","","","-42","",""
"-81.24","68.78","HALL BEACH AWOS","2402352","2012-02-28 23:00","2012","02","28","23:00","-32.1","","-36.4","","66","","","","33","","13","","15.0","","100.99","","","","-43","",""
"-81.24","68.78","HALL BEACH AWOS","2402352","2012-02-29 00:00","2012","02","29","00:00","-32.7","","-37.2","","64","","","","32","","15","","15.0","","100.98","","","","-45","",""
"-81.24","68.78","HALL BEACH AWOS","2402352","2012-02-29 01:00","2012","02","29","01:00","-34.8","","-39.2","","64","","","","31","","24","","15.0","","100.98","","","","-50","",""
"-81.24","68.78","HALL BEACH AWOS","2402352","2012-02-29 02:00","2012","02","29","02:00","-34.3","","-38.6","","65","","","","31","","24","","15.0","","100.98","","","","-50","",""
"-81.24","68.78","HALL BEACH AWOS","2402352","2012-02-29 03:00","2012","02","29","03:00","-34.3","","-38.7","","64","","","","30","","24","","15.0","","100.96","","","","-50","",""
"-81.24","68.78","HALL BEACH AWOS","2402352","2012-02-29 04:00","2012","02","29","04:00","-33.4","","-37.8","","65","","","","31","","20","","15.0","","100.99","","","","-47","",""
"-81.24","68.78","HALL BEACH AWOS","2402352","2012-02-29 05:00","2012","02","29","05:00","-34.0","","-38.3","","65","","","","30","","20","","15.0","","100.96","","","","-48","","Snow"
"-81.24","68.78","HALL BEACH AWOS","2402352","2012-02-29 06:00","2012","02","29","06:00","-34.6","","-38.9","","65","","","","30","","24","","15.0","","100.94","","","","-50","",""
"-81.24","68.78","HALL BEACH AWOS","2402352","2012-02-29 07:00","2012","02","29","07:00","-33.9","","-38.1","","66","","","","31","","20","","15.0","","100.94","","","","-48","",""
"-81.24","68.78","HALL BEACH AWOS","2402352","2012-02-29 08:00","2012","02","29","08:00","-35.4","","-39.8","","64","","","","30","","22","","15.0","","100.93","","","","-51","",""
"-81.24","68.78","HALL BEACH AWOS","2402352","2012-02-29 09:00","2012","02","29","09:00","-36.0","","-40.1","","66","","","","30","","30","","15.0","","100.89","","","","-53","",""
"-81.24","68.78","HALL BEACH AWOS","2402352","2012-02-29 10:00","2012","02","29","10:00","-36.5","","-40.5","","66","","","","30","","22","","15.0","","100.90","","","","-52","",""
"-81.24","68.78","HALL BEACH AWOS","2402352","2012-02-29 11:00","2012","02","29","11:00","-36.4","","-40.5","","66","","","","29","","24","","15.0","","100.86","","","","-52","",""
"-81.24","68.78","HALL BEACH AWOS","2402352","2012-02-29 12:00","2012","02","29","12:00","-36.4","","-40.3","","67","","","","30","","17","","15.0","","100.85","","","","-50","",""
"-81.24","68.78","HALL BEACH AWOS","2402352","2012-02-29 13:00","2012","02","29","13:00","-36.2","","-40.4","","65","","","","29","","24","","15.0","","100.84","","","","-52","",""
"-81.24","68.78","HALL BEACH AWOS","2402352","2012-02-29 14:00","2012","02","29","14:00","-36.0","","-40.1","","66","","","","30","","28","","4.8","","100.85","","","","-53","","Snow"
"-81.24","68.78","HALL BEACH AWOS","2402352","2012-02-29 15:00","2012","02","29","15:00","-36.4","","-40.7","","64","","","","30","","35","","4.8","","100.82","","","","-55","","Snow"
"-81.24","68.78","HALL BEACH AWOS","2402352","2012-02-29 16:00","2012","02","29","16:00","-36.9","","-41.0","","66","","","","30","","24","","4.8","","100.84","","","","-53","",""
"-81.24","68.78","HALL BEACH AWOS","2402352","2012-02-29 17:00","2012","02","29","17:00","-37.4","","-41.7","","64","","","","30","","32","","5.6","","100.82","","","","-56","",""
"-81.24","68.78","HALL BEACH AWOS","2402352","2012-02-29 18:00","2012","02","29","18:00","-38.3","","-42.7","","63","","","","31","","26","","11.3","","100.85","","","","-55","",""
"-81.24","68.78","HALL BEACH AWOS","2402352","2012-02-29 19:00","2012","02","29","19:00","-38.4","","-42.8","","63","","","","31","","30","","8.0","","100.84","","","","-57","",""
"-81.24","68.78","HALL BEACH AWOS","2402352","2012-02-29 20:00","2012","02","29","20:00","-38.1","","-42.3","","65","","","","31","","28","","14.5","","100.79","","","","-56","",""
"-81.24","68.78","HALL BEACH AWOS","2402352","2012-02-29 21:00","2012","02","29","21:00","-38.7","","-43.1","","63","","","","30","","22","","15.0","","100.76","","","","-55","",""
"-81.24","68.78","HALL BEACH AWOS","2402352","2012-02-29 22:00","2012","02","29","22:00","-39.3","","-43.7","","63","","","","31","","24","","15.0","","100.74","","","","-56","",""
"-81.24","68.78","HALL BEACH AWOS","2402352","2012-02-29 23:00","2012","02","29","23:00","-39.8","","-44.1","","63","","","","30","","20","","15.0","","100.73","","","","-55","",""
