"Longitude (x)","Latitude (y)","Station Name","Climate ID","Date/Time (LST)","Year","Month","Day","Time (LST)","Temp (°C)","Temp Flag","Dew Point Temp (°C)","Dew Point Temp Flag","Rel Hum (%)","Rel Hum Flag","Precip. Amount (mm)","Precip. Amount Flag","Wind Dir (10s deg)","Wind Dir Flag","Wind Spd (km/h)","Wind Spd Flag","Visibility (km)","Visibility Flag","Stn Press (kPa)","Stn Press Flag","Hmdx","Hmdx Flag","Wind Chill","Wind Chill Flag","Weather"
"-124.16","49.35","BALLENAS ISLAND","1020590","2012-02-01 00:00","2012","02","01","00:00","6.7","","5.4","","91","","","","12","","28","","","","100.80","","","","","","NA"
"-124.16","49.35","BALLENAS ISLAND","1020590","2012-02-01 01:00","2012","02","01","01:00","6.5","","5.0","","90","","","","13","","7","","","","100.82","","","","","","NA"
"-124.16","49.35","BALLENAS ISLAND","1020590","2012-02-01 02:00","2012","02","01","02:00","5.9","","4.4","","90","","","","27","","26","","","","100.90","","","","","","NA"
"-124.16","49.35","BALLENAS ISLAND","1020590","2012-02-01 03:00","2012","02","01","03:00","5.3","","4.0","","91","","","","20","","6","","","","100.88","","","","","","NA"
"-124.16","49.35","BALLENAS ISLAND","1020590","2012-02-01 04:00","2012","02","01","04:00","6.2","","4.6","","89","","","","29","","28","","","","100.99","","","","","","NA"
"-124.16","49.35","BALLENAS ISLAND","1020590","2012-02-01 05:00","2012","02","01","05:00","6.4","","3.7","","83","","","","29","","32","","","","101.09","","","","","","NA"
"-124.16","49.35","BALLENAS ISLAND","1020590","2012-02-01 06:00","2012","02","01","06:00","5.9","","3.6","","85","","","","29","","30","","","","101.17","","","","","","NA"
"-124.16","49.35","BALLENAS ISLAND","1020590","2012-02-01 07:00","2012","02","01","07:00","5.5","","3.5","","87","","","","25","","22","","","","101.26","","","","","","NA"
"-124.16","49.35","BALLENAS ISLAND","1020590","2012-02-01 08:00","2012","02","01","08:00","5.8","","2.6","","80","","","","30","","35","","","","101.35","","","","","","NA"
"-124.16","49.35","BALLENAS ISLAND","1020590","2012-02-01 09:00","2012","02","01","09:00","5.3","","3.0","","85","","","","26","","17","","","","101.47","","","","","","NA"
"-124.16","49.35","BALLENAS ISLAND","1020590","2012-02-01 10:00","2012","02","01","10:00","5.7","","3.3","","85","","","","27","","20","","","","101.60","","","","","","NA"
"-124.16","49.35","BALLENAS ISLAND","1020590","2012-02-01 11:00","2012","02","01","11:00","6.1","","2.9","","80","","","","30","","32","","","","101.71","","","","","","NA"
"-124.16","49.35","BALLENAS ISLAND","1020590","2012-02-01 12:00","2012","02","01","12:00","6.3","","2.9","","79","","","","30","","32","","","","101.81","","","","","","NA"
"-124.16","49.35","BALLENAS ISLAND","1020590","2012-02-01 13:00","2012","02","01","13:00","6.4","","2.9","","78","","","","28","","24","","","","101.91","","","","","","NA"
"-124.16","49.35","BALLENAS ISLAND","1020590","2012-02-01 14:00","2012","02","01","14:00","6.5","","2.8","","77","","","","29","","24","","","","102.01","","","","","","NA"
"-124.16","49.35","BALLENAS ISLAND","1020590","2012-02-01 15:00","2012","02","01","15:00","6.5","","2.9","","78","","","","27","","15","","","","102.10","","","","","","NA"
"-124.16","49.35","BALLENAS ISLAND","1020590","2012-02-01 16:00","2012","02","01","16:00","6.6","","2.3","","74","","","","30","","11","","","","102.19","","","","","","NA"
"-124.16","49.35","BALLENAS ISLAND","1020590","2012-02-01 17:00","2012","02","01","17:00","5.8","","1.9","","76","","","","18","","2","","","","102.30","","","","","","NA"
"-124.16","49.35","BALLENAS ISLAND","1020590","2012-02-01 18:00","2012","02","01","18:00","5.9","","2.1","","77","","","","10","","4","","","","102.36","","","","","","NA"
"-124.16","49.35","BALLENAS ISLAND","1020590","2012-02-01 19:00","2012","02","01","19:00","5.7","","2.6","","80","","","","14","","7","","","","102.44","","","","","","NA"
"-124.16","49.35","BALLENAS ISLAND","1020590","2012-02-01 20:00","2012","02","01","20:00","5.5","","2.8","","83","","","","13","","9","","","","102.51","","","","","","NA"
"-124.16","49.35","BALLENAS ISLAND","1020590","2012-02-01 21:00","2012","02","01","21:00","5.6","","3.4","","86","","","","12","","9","","","","102.61","","","","","","NA"
"-124.16","49.35","BALLENAS ISLAND","1020590","2012-02-01 22:00","2012","02","01","22:00","5.8","","3.6","","86","","","","12","","15","","","","102.69","","","","","","NA"
"-124.16","49.35","BALLENAS ISLAND","1020590","2012-02-01 23:00","2012","02","01","23:00","6.0","","4.0","","87","","","","11","","22","","","","102.72","","","","","","NA"
"-124.16","49.35","BALLENAS ISLAND","1020590","2012-02-02 00:00","2012","02","02","00:00","5.8","","3.7","","86","","","","11","","19","","","","102.80","","","","","","NA"
"-124.16","49.35","BALLENAS ISLAND","1020590","2012-02-02 01:00","2012","02","02","01:00","5.8","","3.8","","87","","","","12","","26","","","","102.84","","","","","","NA"
"-124.16","49.35","BALLENAS ISLAND","1020590","2012-02-02 02:00","2012","02","02","02:00","5.8","","3.9","","88","","","","12","","26","","","","102.89","","","","","","NA"
"-124.16","49.35","BALLENAS ISLAND","1020590","2012-02-02 03:00","2012","02","02","03:00","5.5","","3.9","","89","","","","13","","17","","","","102.93","","","","","","NA"
"-124.16","49.35","BALLENAS ISLAND","1020590","2012-02-02 04:00","2012","02","02","04:00","5.4","","3.9","","90","","","","12","","19","","","","102.92","","","","","","NA"
"-124.16","49.35","BALLENAS ISLAND","1020590","2012-02-02 05:00","2012","02","02","05:00","5.4","","4.1","","91","","","","12","","19","","","","102.93","","","","","","NA"
"-124.16","49.35","BALLENAS ISLAND","1020590","2012-02-02 06:00","2012","02","02","06:00","5.4","","4.1","","91","","","","12","","19","","","","102.93","","","","","","NA"
"-124.16","49.35","BALLENAS ISLAND","1020590","2012-02-02 07:00","2012","02","02","07:00","5.2","","3.9","","91","","","","12","","20","","","","102.94","","","","","","NA"
"-124.16","49.35","BALLENAS ISLAND","1020590","2012-02-02 08:00","2012","02","02","08:00","5.3","","3.9","","91","","","","12","","20","","","","102.93","","","","","","NA"
"-124.16","49.35","BALLENAS ISLAND","1020590","2012-02-02 09:00","2012","02","02","09:00","5.4","","3.9","","90","","","","12","","26","","","","102.93","","","","","","NA"
"-124.16","49.35","BALLENAS ISLAND","1020590","2012-02-02 10:00","2012","02","02","10:00","5.4","","3.9","","90","","","","12","","22","","","","102.92","","","","","","NA"
"-124.16","49.35","BALLENAS ISLAND","1020590","2012-02-02 11:00","2012","02","02","11:00","5.7","","4.1","","89","","","","12","","22","","","","102.91","","","","","","NA"
"-124.16","49.35","BALLENAS ISLAND","1020590","2012-02-02 12:00","2012","02","02","12:00","5.8","","3.9","","88","","","","12","","19","","","","102.85","","","","","","NA"
"-124.16","49.35","BALLENAS ISLAND","1020590","2012-02-02 13:00","2012","02","02","13:00","6.2","","4.3","","88","","","","10","","19","","","","102.76","","","","","","NA"
"-124.16","49.35","BALLENAS ISLAND","1020590","2012-02-02 14:00","2012","02","02","14:00","6.2","","4.1","","86","","","","10","","15","","","","102.67","","","","","","NA"
"-124.16","49.35","BALLENAS ISLAND","1020590","2012-02-02 15:00","2012","02","02","15:00","6.3","","3.9","","85","","","","8","","17","","","","102.61","","","","","","NA"
"-124.16","49.35","BALLENAS ISLAND","1020590","2012-02-02 16:00","2012","02","02","16:00","6.2","","3.9","","85","","","","6","","17","","","","102.55","","","","","","NA"
"-124.16","49.35","BALLENAS ISLAND","1020590","2012-02-02 17:00","2012","02","02","17:00","5.8","","3.8","","87","","","","5","","13","","","","102.52","","","","","","NA"
"-124.16","49.35","BALLENAS ISLAND","1020590","2012-02-02 18:00","2012","02","02","18:00","5.7","","3.6","","86","","","","6","","7","","","","102.47","","","","","","NA"
"-124.16","49.35","BALLENAS ISLAND","1020590","2012-02-02 19:00","2012","02","02","19:00","5.8","","3.3","","84","","","","28","","6","","","","102.45","","","","","","NA"
"-124.16","49.35","BALLENAS ISLAND","1020590","2012-02-02 20:00","2012","02","02","20:00","5.9","","4.2","","89","","","","26","","13","","","","102.41","","","","","","NA"
"-124.16","49.35","BALLENAS ISLAND","1020590","2012-02-02 21:00","2012","02","02","21:00","5.6","","4.1","","90","","","","24","","9","","","","102.38","","","","","","NA"
"-124.16","49.35","BALLENAS ISLAND","1020590","2012-02-02 22:00","2012","02","02","22:00","5.6","","4.3","","91","","","","24","","11","","","","102.36","","","","","","NA"
"-124.16","49.35","BALLENAS ISLAND","1020590","2012-02-02 23:00","2012","02","02","23:00","5.4","","4.1","","91","","","","23","","7","","","","102.34","","","","","","NA"
"-124.16","49.35","BALLENAS ISLAND","1020590","2012-02-03 00:00","2012","02","03","00:00","5.0","","3.8","","92","","","","24","","7","","","","102.30","","","","","","NA"
"-124.16","49.35","BALLENAS ISLAND","1020590","2012-02-03 01:00","2012","02","03","01:00","4.8","","3.7","","93","","","","22","","4","","","","102.27","","","","","","NA"
"-124.16","49.35","BALLENAS ISLAND","1020590","2012-02-03 02:00","2012","02","03","02:00","4.8","","3.6","","92","","","","","","0","","","","102.24","","","","","","NA"
"-124.16","49.35","BALLENAS ISLAND","1020590","2012-02-03 03:00","2012","02","03","03:00","4.5","","3.4","","93","","","","22","","2","","","","102.20","","","","","","NA"
"-124.16","49.35","BALLENAS ISLAND","1020590","2012-02-03 04:00","2012","02","03","04:00","4.0","","3.0","","93","","","","23","","2","","","","102.16","","","","","","NA"
"-124.16","49.35","BALLENAS ISLAND","1020590","2012-02-03 05:00","2012","02","03","05:00","4.6","","3.6","","93","","","","9","","4","","","","102.14","","","","","","NA"
"-124.16","49.35","BALLENAS ISLAND","1020590","2012-02-03 06:00","2012","02","03","06:00","4.3","","3.3","","93","","","","23","","6","","","","102.08","","","","","","NA"
"-124.16","49.35","BALLENAS ISLAND","1020590","2012-02-03 07:00","2012","02","03","07:00","4.3","","3.3","","93","","","","","","0","","","","102.03","","","","","","NA"
"-124.16","49.35","BALLENAS ISLAND","1020590","2012-02-03 08:00","2012","02","03","08:00","4.3","","3.2","","93","","","","10","","9","","","","102.02","","","","","","NA"
"-124.16","49.35","BALLENAS ISLAND","1020590","2012-02-03 09:00","2012","02","03","09:00","4.2","","3.0","","92","","","","16","","4","","","","101.98","","","","","","NA"
"-124.16","49.35","BALLENAS ISLAND","1020590","2012-02-03 10:00","2012","02","03","10:00","4.0","","3.1","","94","","","","25","","11","","","","101.96","","","","","","NA"
"-124.16","49.35","BALLENAS ISLAND","1020590","2012-02-03 11:00","2012","02","03","11:00","4.7","","3.5","","92","","","","26","","6","","","","101.94","","","","","","NA"
"-124.16","49.35","BALLENAS ISLAND","1020590","2012-02-03 12:00","2012","02","03","12:00","5.0","","3.3","","89","","","","25","","9","","","","101.90","","","","","","NA"
"-124.16","49.35","BALLENAS ISLAND","1020590","2012-02-03 13:00","2012","02","03","13:00","5.5","","3.5","","87","","","","26","","6","","","","101.83","","","","","","NA"
"-124.16","49.35","BALLENAS ISLAND","1020590","2012-02-03 14:00","2012","02","03","14:00","5.6","","3.5","","86","","","","27","","9","","","","101.77","","","","","","NA"
"-124.16","49.35","BALLENAS ISLAND","1020590","2012-02-03 15:00","2012","02","03","15:00","5.8","","3.6","","86","","","","27","","11","","","","101.77","","","","","","NA"
"-124.16","49.35","BALLENAS ISLAND","1020590","2012-02-03 16:00","2012","02","03","16:00","5.5","","3.6","","88","","","","27","","11","","","","101.74","","","","","","NA"
"-124.16","49.35","BALLENAS ISLAND","1020590","2012-02-03 17:00","2012","02","03","17:00","5.2","","3.5","","89","","","","29","","9","","","","101.74","","","","","","NA"
"-124.16","49.35","BALLENAS ISLAND","1020590","2012-02-03 18:00","2012","02","03","18:00","5.0","","3.6","","91","","","","28","","13","","","","101.76","","","","","","NA"
"-124.16","49.35","BALLENAS ISLAND","1020590","2012-02-03 19:00","2012","02","03","19:00","5.0","","3.7","","91","","","","30","","9","","","","101.80","","","","","","NA"
"-124.16","49.35","BALLENAS ISLAND","1020590","2012-02-03 20:00","2012","02","03","20:00","4.7","","3.5","","92","","","","27","","4","","","","101.80","","","","","","NA"
"-124.16","49.35","BALLENAS ISLAND","1020590","2012-02-03 21:00","2012","02","03","21:00","4.3","","3.1","","92","","","","24","","4","","","","101.81","","","","","","NA"
"-124.16","49.35","BALLENAS ISLAND","1020590","2012-02-03 22:00","2012","02","03","22:00","3.8","","2.8","","93","","","","22","","4","","","","101.83","","","","","","NA"
"-124.16","49.35","BALLENAS ISLAND","1020590","2012-02-03 23:00","2012","02","03","23:00","3.5","","2.7","","94","","","","23","","6","","","","101.89","","","","","","NA"
"-124.16","49.35","BALLENAS ISLAND","1020590","2012-02-04 00:00","2012","02","04","00:00","3.9","","3.2","","95","","","","33","","4","","","","101.96","","","","","","NA"
"-124.16","49.35","BALLENAS ISLAND","1020590","2012-02-04 01:00","2012","02","04","01:00","4.2","","3.6","","96","","","","2","","9","","","","102.01","","","","","","NA"
"-124.16","49.35","BALLENAS ISLAND","1020590","2012-02-04 02:00","2012","02","04","02:00","3.4","","2.9","","97","","","","23","","15","","","","102.04","","","","","","NA"
"-124.16","49.35","BALLENAS ISLAND","1020590","2012-02-04 03:00","2012","02","04","03:00","3.5","","3.1","","97","","","","23","","13","","","","102.07","","","","","","NA"
"-124.16","49.35","BALLENAS ISLAND","1020590","2012-02-04 04:00","2012","02","04","04:00","3.0","","2.6","","97","","","","22","","9","","","","102.07","","","","","","NA"
"-124.16","49.35","BALLENAS ISLAND","1020590","2012-02-04 05:00","2012","02","04","05:00","3.4","","3.0","","97","","","","21","","6","","","","102.11","","","","","","NA"
"-124.16","49.35","BALLENAS ISLAND","1020590","2012-02-04 06:00","2012","02","04","06:00","3.2","","2.8","","97","","","","20","","6","","","","102.13","","","","","","NA"
"-124.16","49.35","BALLENAS ISLAND","1020590","2012-02-04 07:00","2012","02","04","07:00","3.4","","3.0","","97","","","","21","","6","","","","102.14","","","","","","NA"
"-124.16","49.35","BALLENAS ISLAND","1020590","2012-02-04 08:00","2012","02","04","08:00","3.7","","3.2","","97","","","","15","","2","","","","102.14","","","","","","NA"
"-124.16","49.35","BALLENAS ISLAND","1020590","2012-02-04 09:00","2012","02","04","09:00","3.5","","3.0","","97","","","","23","","6","","","","102.17","","","","","","NA"
"-124.16","49.35","BALLENAS ISLAND","1020590","2012-02-04 10:00","2012","02","04","10:00","3.8","","3.3","","97","","","","24","","4","","","","102.17","","","","","","NA"
"-124.16","49.35","BALLENAS ISLAND","1020590","2012-02-04 11:00","2012","02","04","11:00","3.8","","3.2","","96","","","","24","","6","","","","102.18","","","","","","NA"
"-124.16","49.35","BALLENAS ISLAND","1020590","2012-02-04 12:00","2012","02","04","12:00","4.1","","3.5","","96","","","","26","","4","","","","102.14","","","","","","NA"
"-124.16","49.35","BALLENAS ISLAND","1020590","2012-02-04 13:00","2012","02","04","13:00","4.5","","3.5","","93","","","","26","","4","","","","102.05","","","","","","NA"
"-124.16","49.35","BALLENAS ISLAND","1020590","2012-02-04 14:00","2012","02","04","14:00","5.3","","3.6","","89","","","","25","","2","","","","101.98","","","","","","NA"
"-124.16","49.35","BALLENAS ISLAND","1020590","2012-02-04 15:00","2012","02","04","15:00","5.3","","3.3","","87","","","","26","","4","","","","101.94","","","","","","NA"
"-124.16","49.35","BALLENAS ISLAND","1020590","2012-02-04 16:00","2012","02","04","16:00","5.5","","3.2","","85","","","","28","","6","","","","101.93","","","","","","NA"
"-124.16","49.35","BALLENAS ISLAND","1020590","2012-02-04 17:00","2012","02","04","17:00","4.9","","3.2","","89","","","","30","","6","","","","101.91","","","","","","NA"
"-124.16","49.35","BALLENAS ISLAND","1020590","2012-02-04 18:00","2012","02","04","18:00","4.7","","3.5","","92","","","","1","","6","","","","101.91","","","","","","NA"
"-124.16","49.35","BALLENAS ISLAND","1020590","2012-02-04 19:00","2012","02","04","19:00","4.3","","3.4","","94","","","","5","","6","","","","101.92","","","","","","NA"
"-124.16","49.35","BALLENAS ISLAND","1020590","2012-02-04 20:00","2012","02","04","20:00","4.2","","3.2","","93","","","","","","0","","","","101.92","","","","","","NA"
"-124.16","49.35","BALLENAS ISLAND","1020590","2012-02-04 21:00","2012","02","04","21:00","4.2","","3.1","","93","","","","29","","2","","","","101.95","","","","","","NA"
"-124.16","49.35","BALLENAS ISLAND","1020590","2012-02-04 22:00","2012","02","04","22:00","4.0","","2.9","","93","","","","2","","2","","","","102.00","","","","","","NA"
"-124.16","49.35","BALLENAS ISLAND","1020590","2012-02-04 23:00","2012","02","04","23:00","3.5","","2.6","","94","","","","11","","7","","","","102.03","","","","","","NA"
"-124.16","49.35","BALLENAS ISLAND","1020590","2012-02-05 00:00","2012","02","05","00:00","3.2","","2.6","","96","","","","9","","7","","","","102.06","","","","","","NA"
"-124.16","49.35","BALLENAS ISLAND","1020590","2012-02-05 01:00","2012","02","05","01:00","3.0","","2.5","","97","","","","8","","11","","","","102.06","","","","","","NA"
"-124.16","49.35","BALLENAS ISLAND","1020590","2012-02-05 02:00","2012","02","05","02:00","2.9","","2.4","","97","","","","7","","9","","","","102.14","","","","","","NA"
"-124.16","49.35","BALLENAS ISLAND","1020590","2012-02-05 03:00","2012","02","05","03:00","3.0","","2.6","","97","","","","11","","13","","","","102.14","","","","","","NA"
"-124.16","49.35","BALLENAS ISLAND","1020590","2012-02-05 04:00","2012","02","05","04:00","3.0","","2.6","","97","","","","10","","13","","","","102.17","","","","","","NA"
"-124.16","49.35","BALLENAS ISLAND","1020590","2012-02-05 05:00","2012","02","05","05:00","3.0","","2.6","","97","","","","9","","15","","","","102.13","","","","","","NA"
"-124.16","49.35","BALLENAS ISLAND","1020590","2012-02-05 06:00","2012","02","05","06:00","3.0","","2.6","","97","","","","9","","13","","","","102.11","","","","","","NA"
"-124.16","49.35","BALLENAS ISLAND","1020590","2012-02-05 07:00","2012","02","05","07:00","4.1","","3.6","","97","","","","10","","13","","","","102.12","","","","","","NA"
"-124.16","49.35","BALLENAS ISLAND","1020590","2012-02-05 08:00","2012","02","05","08:00","2.8","","2.3","","97","","","","23","","7","","","","102.18","","","","","","NA"
"-124.16","49.35","BALLENAS ISLAND","1020590","2012-02-05 09:00","2012","02","05","09:00","3.7","","3.3","","97","","","","6","","6","","","","102.20","","","","","","NA"
"-124.16","49.35","BALLENAS ISLAND","1020590","2012-02-05 10:00","2012","02","05","10:00","4.3","","3.5","","95","","","","9","","2","","","","102.27","","","","","","NA"
"-124.16","49.35","BALLENAS ISLAND","1020590","2012-02-05 11:00","2012","02","05","11:00","3.7","","2.9","","94","","","","23","","9","","","","102.29","","","","","","NA"
"-124.16","49.35","BALLENAS ISLAND","1020590","2012-02-05 12:00","2012","02","05","12:00","4.2","","3.2","","93","","","","27","","11","","","","102.28","","","","","","NA"
"-124.16","49.35","BALLENAS ISLAND","1020590","2012-02-05 13:00","2012","02","05","13:00","4.6","","3.3","","91","","","","27","","13","","","","102.26","","","","","","NA"
"-124.16","49.35","BALLENAS ISLAND","1020590","2012-02-05 14:00","2012","02","05","14:00","4.9","","3.3","","89","","","","27","","7","","","","102.20","","","","","","NA"
"-124.16","49.35","BALLENAS ISLAND","1020590","2012-02-05 15:00","2012","02","05","15:00","5.3","","3.5","","88","","","","28","","7","","","","102.15","","","","","","NA"
"-124.16","49.35","BALLENAS ISLAND","1020590","2012-02-05 16:00","2012","02","05","16:00","5.4","","3.7","","89","","","","28","","9","","","","102.12","","","","","","NA"
"-124.16","49.35","BALLENAS ISLAND","1020590","2012-02-05 17:00","2012","02","05","17:00","5.4","","3.7","","89","","","","29","","15","","","","102.10","","","","","","NA"
"-124.16","49.35","BALLENAS ISLAND","1020590","2012-02-05 18:00","2012","02","05","18:00","5.5","","3.7","","88","","","","27","","13","","","","102.10","","","","","","NA"
"-124.16","49.35","BALLENAS ISLAND","1020590","2012-02-05 19:00","2012","02","05","19:00","5.0","","3.7","","91","","","","25","","15","","","","102.06","","","","","","NA"
"-124.16","49.35","BALLENAS ISLAND","1020590","2012-02-05 20:00","2012","02","05","20:00","4.5","","3.3","","92","","","","25","","17","","","","102.02","","","","","","NA"
"-124.16","49.35","BALLENAS ISLAND","1020590","2012-02-05 21:00","2012","02","05","21:00","4.0","","2.7","","91","","","","24","","19","","","","102.01","","","","","","NA"
"-124.16","49.35","BALLENAS ISLAND","1020590","2012-02-05 22:00","2012","02","05","22:00","3.9","","2.8","","93","","","","24","","17","","","","101.97","","","","","","NA"
"-124.16","49.35","BALLENAS ISLAND","1020590","2012-02-05 23:00","2012","02","05","23:00","3.5","","2.3","","92","","","","24","","17","","","","101.96","","","","","","NA"
"-124.16","49.35","BALLENAS ISLAND","1020590","2012-02-06 00:00","2012","02","06","00:00","3.6","","2.4","","92","","","","24","","19","","","","101.93","","","","","","NA"
"-124.16","49.35","BALLENAS ISLAND","1020590","2012-02-06 01:00","2012","02","06","01:00","3.5","","2.3","","92","","","","24","","15","","","","101.87","","","","","","NA"
"-124.16","49.35","BALLENAS ISLAND","1020590","2012-02-06 02:00","2012","02","06","02:00","3.4","","1.7","","89","","","","23","","13","","","","101.85","","","","","","NA"
"-124.16","49.35","BALLENAS ISLAND","1020590","2012-02-06 03:00","2012","02","06","03:00","3.6","","2.0","","89","","","","25","","11","","","","101.85","","","","","","NA"
"-124.16","49.35","BALLENAS ISLAND","1020590","2012-02-06 04:00","2012","02","06","04:00","3.6","","2.3","","91","","","","24","","9","","","","101.83","","","","","","NA"
"-124.16","49.35","BALLENAS ISLAND","1020590","2012-02-06 05:00","2012","02","06","05:00","3.4","","2.1","","91","","","","25","","9","","","","101.79","","","","","","NA"
"-124.16","49.35","BALLENAS ISLAND","1020590","2012-02-06 06:00","2012","02","06","06:00","3.1","","1.8","","91","","","","24","","11","","","","101.74","","","","","","NA"
"-124.16","49.35","BALLENAS ISLAND","1020590","2012-02-06 07:00","2012","02","06","07:00","3.1","","1.9","","92","","","","26","","9","","","","101.73","","","","","","NA"
"-124.16","49.35","BALLENAS ISLAND","1020590","2012-02-06 08:00","2012","02","06","08:00","3.1","","1.9","","92","","","","24","","9","","","","101.72","","","","","","NA"
"-124.16","49.35","BALLENAS ISLAND","1020590","2012-02-06 09:00","2012","02","06","09:00","3.7","","2.6","","93","","","","28","","7","","","","101.71","","","","","","NA"
"-124.16","49.35","BALLENAS ISLAND","1020590","2012-02-06 10:00","2012","02","06","10:00","3.9","","2.9","","93","","","","27","","9","","","","101.69","","","","","","NA"
"-124.16","49.35","BALLENAS ISLAND","1020590","2012-02-06 11:00","2012","02","06","11:00","4.1","","3.0","","93","","","","27","","11","","","","101.68","","","","","","NA"
"-124.16","49.35","BALLENAS ISLAND","1020590","2012-02-06 12:00","2012","02","06","12:00","4.3","","3.2","","93","","","","27","","11","","","","101.64","","","","","","NA"
"-124.16","49.35","BALLENAS ISLAND","1020590","2012-02-06 13:00","2012","02","06","13:00","3.6","","2.7","","94","","","","30","","13","","","","101.58","","","","","","NA"
"-124.16","49.35","BALLENAS ISLAND","1020590","2012-02-06 14:00","2012","02","06","14:00","3.9","","2.8","","93","","","","30","","11","","","","101.50","","","","","","NA"
"-124.16","49.35","BALLENAS ISLAND","1020590","2012-02-06 15:00","2012","02","06","15:00","3.4","","2.8","","96","","","","29","","9","","","","101.45","","","","","","NA"
"-124.16","49.35","BALLENAS ISLAND","1020590","2012-02-06 16:00","2012","02","06","16:00","2.9","","2.4","","97","","","","28","","11","","","","101.39","","","","","","NA"
"-124.16","49.35","BALLENAS ISLAND","1020590","2012-02-06 17:00","2012","02","06","17:00","2.8","","2.4","","97","","","","27","","7","","","","101.34","","","","","","NA"
"-124.16","49.35","BALLENAS ISLAND","1020590","2012-02-06 18:00","2012","02","06","18:00","2.5","","2.1","","97","","","","25","","9","","","","101.30","","","","","","NA"
"-124.16","49.35","BALLENAS ISLAND","1020590","2012-02-06 19:00","2012","02","06","19:00","2.3","","2.0","","98","","","","26","","9","","","","101.29","","","","","","NA"
"-124.16","49.35","BALLENAS ISLAND","1020590","2012-02-06 20:00","2012","02","06","20:00","2.2","","1.9","","98","","","","26","","7","","","","101.26","","","","","","NA"
"-124.16","49.35","BALLENAS ISLAND","1020590","2012-02-06 21:00","2012","02","06","21:00","2.0","","1.7","","98","","","","25","","9","","","","101.25","","","","","","NA"
"-124.16","49.35","BALLENAS ISLAND","1020590","2012-02-06 22:00","2012","02","06","22:00","2.0","","1.7","","98","","","","26","","7","","","","101.25","","","","","","NA"
"-124.16","49.35","BALLENAS ISLAND","1020590","2012-02-06 23:00","2012","02","06","23:00","1.9","","1.6","","98","","","","26","","7","","","","101.23","","","","","","NA"
"-124.16","49.35","BALLENAS ISLAND","1020590","2012-02-07 00:00","2012","02","07","00:00","1.7","","1.4","","98","","","","27","","9","","","","101.22","","","","","","NA"
"-124.16","49.35","BALLENAS ISLAND","1020590","2012-02-07 01:00","2012","02","07","01:00","1.3","","1.1","","99","","","","26","","9","","","","101.19","","","","","","NA"
"-124.16","49.35","BALLENAS ISLAND","1020590","2012-02-07 02:00","2012","02","07","02:00","1.5","","1.3","","99","","","","27","","7","","","","101.15","","","","","","NA"
"-124.16","49.35","BALLENAS ISLAND","1020590","2012-02-07 03:00","2012","02","07","03:00","0.9","","0.7","","99","","","","27","","11","","","","101.13","","","","","","NA"
"-124.16","49.35","BALLENAS ISLAND","1020590","2012-02-07 04:00","2012","02","07","04:00","1.3","","1.1","","99","","","","27","","13","","","","101.10","","","","","","NA"
"-124.16","49.35","BALLENAS ISLAND","1020590","2012-02-07 05:00","2012","02","07","05:00","1.5","","1.3","","99","","","","28","","7","","","","101.08","","","","","","NA"
"-124.16","49.35","BALLENAS ISLAND","1020590","2012-02-07 06:00","2012","02","07","06:00","1.4","","1.2","","99","","","","24","","7","","","","101.09","","","","","","NA"
"-124.16","49.35","BALLENAS ISLAND","1020590","2012-02-07 07:00","2012","02","07","07:00","1.0","","0.8","","99","","","","25","","4","","","","101.07","","","","","","NA"
"-124.16","49.35","BALLENAS ISLAND","1020590","2012-02-07 08:00","2012","02","07","08:00","1.0","","0.8","","99","","","","24","","6","","","","101.09","","","","","","NA"
"-124.16","49.35","BALLENAS ISLAND","1020590","2012-02-07 09:00","2012","02","07","09:00","1.1","","0.9","","99","","","","23","","2","","","","101.10","","","","","","NA"
"-124.16","49.35","BALLENAS ISLAND","1020590","2012-02-07 10:00","2012","02","07","10:00","1.5","","1.3","","99","","","","24","","6","","","","101.12","","","","","","NA"
"-124.16","49.35","BALLENAS ISLAND","1020590","2012-02-07 11:00","2012","02","07","11:00","1.9","","1.7","","99","","","","29","","6","","","","101.11","","","","","","NA"
"-124.16","49.35","BALLENAS ISLAND","1020590","2012-02-07 12:00","2012","02","07","12:00","2.3","","2.1","","99","","","","34","","2","","","","101.07","","","","","","NA"
"-124.16","49.35","BALLENAS ISLAND","1020590","2012-02-07 13:00","2012","02","07","13:00","2.2","","2.0","","99","","","","29","","4","","","","101.03","","","","","","NA"
"-124.16","49.35","BALLENAS ISLAND","1020590","2012-02-07 14:00","2012","02","07","14:00","3.0","","2.7","","98","","","","28","","11","","","","101.00","","","","","","NA"
"-124.16","49.35","BALLENAS ISLAND","1020590","2012-02-07 15:00","2012","02","07","15:00","3.0","","2.7","","98","","","","27","","11","","","","101.01","","","","","","NA"
"-124.16","49.35","BALLENAS ISLAND","1020590","2012-02-07 16:00","2012","02","07","16:00","3.3","","3.0","","98","","","","26","","11","","","","101.00","","","","","","NA"
"-124.16","49.35","BALLENAS ISLAND","1020590","2012-02-07 17:00","2012","02","07","17:00","3.5","","2.9","","96","","","","31","","9","","","","100.98","","","","","","NA"
"-124.16","49.35","BALLENAS ISLAND","1020590","2012-02-07 18:00","2012","02","07","18:00","3.5","","3.0","","97","","","","25","","9","","","","101.01","","","","","","NA"
"-124.16","49.35","BALLENAS ISLAND","1020590","2012-02-07 19:00","2012","02","07","19:00","3.3","","2.8","","97","","","","27","","9","","","","101.03","","","","","","NA"
"-124.16","49.35","BALLENAS ISLAND","1020590","2012-02-07 20:00","2012","02","07","20:00","3.1","","2.7","","97","","","","27","","6","","","","101.07","","","","","","NA"
"-124.16","49.35","BALLENAS ISLAND","1020590","2012-02-07 21:00","2012","02","07","21:00","3.4","","3.0","","97","","","","","","0","","","","101.12","","","","","","NA"
"-124.16","49.35","BALLENAS ISLAND","1020590","2012-02-07 22:00","2012","02","07","22:00","4.0","","3.6","","97","","","","11","","7","","","","101.15","","","","","","NA"
"-124.16","49.35","BALLENAS ISLAND","1020590","2012-02-07 23:00","2012","02","07","23:00","4.8","","4.3","","97","","","","8","","2","","","","101.23","","","","","","NA"
"-124.16","49.35","BALLENAS ISLAND","1020590","2012-02-08 00:00","2012","02","08","00:00","6.2","","4.2","","87","","","","13","","13","","","","101.26","","","","","","NA"
"-124.16","49.35","BALLENAS ISLAND","1020590","2012-02-08 01:00","2012","02","08","01:00","6.3","","3.7","","83","","","","14","","9","","","","101.32","","","","","","NA"
"-124.16","49.35","BALLENAS ISLAND","1020590","2012-02-08 02:00","2012","02","08","02:00","6.1","","4.3","","88","","","","11","","17","","","","101.39","","","","","","NA"
"-124.16","49.35","BALLENAS ISLAND","1020590","2012-02-08 03:00","2012","02","08","03:00","5.7","","4.3","","91","","","","12","","28","","","","101.45","","","","","","NA"
"-124.16","49.35","BALLENAS ISLAND","1020590","2012-02-08 04:00","2012","02","08","04:00","5.8","","4.7","","93","","","","12","","32","","","","101.47","","","","","","NA"
"-124.16","49.35","BALLENAS ISLAND","1020590","2012-02-08 05:00","2012","02","08","05:00","6.6","","4.6","","87","","","","11","","37","","","","101.49","","","","","","NA"
"-124.16","49.35","BALLENAS ISLAND","1020590","2012-02-08 06:00","2012","02","08","06:00","6.6","","4.7","","88","","","","11","","35","","","","101.49","","","","","","NA"
"-124.16","49.35","BALLENAS ISLAND","1020590","2012-02-08 07:00","2012","02","08","07:00","6.7","","4.8","","88","","","","10","","44","","","","101.47","","","","","","NA"
"-124.16","49.35","BALLENAS ISLAND","1020590","2012-02-08 08:00","2012","02","08","08:00","6.3","","4.1","","86","","","","12","","35","","","","101.53","","","","","","NA"
"-124.16","49.35","BALLENAS ISLAND","1020590","2012-02-08 09:00","2012","02","08","09:00","6.3","","3.9","","85","","","","13","","30","","","","101.57","","","","","","NA"
"-124.16","49.35","BALLENAS ISLAND","1020590","2012-02-08 10:00","2012","02","08","10:00","6.2","","3.8","","85","","","","12","","24","","","","101.62","","","","","","NA"
"-124.16","49.35","BALLENAS ISLAND","1020590","2012-02-08 11:00","2012","02","08","11:00","6.2","","4.1","","86","","","","12","","35","","","","101.63","","","","","","NA"
"-124.16","49.35","BALLENAS ISLAND","1020590","2012-02-08 12:00","2012","02","08","12:00","6.4","","4.2","","86","","","","13","","24","","","","101.66","","","","","","NA"
"-124.16","49.35","BALLENAS ISLAND","1020590","2012-02-08 13:00","2012","02","08","13:00","6.6","","4.7","","88","","","","12","","24","","","","101.67","","","","","","NA"
"-124.16","49.35","BALLENAS ISLAND","1020590","2012-02-08 14:00","2012","02","08","14:00","6.8","","5.0","","88","","","","12","","32","","","","101.68","","","","","","NA"
"-124.16","49.35","BALLENAS ISLAND","1020590","2012-02-08 15:00","2012","02","08","15:00","6.9","","5.2","","89","","","","12","","33","","","","101.77","","","","","","NA"
"-124.16","49.35","BALLENAS ISLAND","1020590","2012-02-08 16:00","2012","02","08","16:00","7.0","","5.5","","90","","","","12","","28","","","","101.85","","","","","","NA"
"-124.16","49.35","BALLENAS ISLAND","1020590","2012-02-08 17:00","2012","02","08","17:00","7.1","","5.6","","90","","","","12","","28","","","","101.86","","","","","","NA"
"-124.16","49.35","BALLENAS ISLAND","1020590","2012-02-08 18:00","2012","02","08","18:00","7.3","","5.9","","91","","","","12","","28","","","","101.93","","","","","","NA"
"-124.16","49.35","BALLENAS ISLAND","1020590","2012-02-08 19:00","2012","02","08","19:00","7.5","","6.0","","90","","","","13","","24","","","","102.01","","","","","","NA"
"-124.16","49.35","BALLENAS ISLAND","1020590","2012-02-08 20:00","2012","02","08","20:00","7.5","","6.1","","91","","","","13","","22","","","","102.08","","","","","","NA"
"-124.16","49.35","BALLENAS ISLAND","1020590","2012-02-08 21:00","2012","02","08","21:00","7.3","","6.1","","92","","","","12","","22","","","","102.15","","","","","","NA"
"-124.16","49.35","BALLENAS ISLAND","1020590","2012-02-08 22:00","2012","02","08","22:00","7.4","","6.3","","93","","","","12","","30","","","","102.19","","","","","","NA"
"-124.16","49.35","BALLENAS ISLAND","1020590","2012-02-08 23:00","2012","02","08","23:00","7.2","","6.1","","93","","","","12","","30","","","","102.20","","","","","","NA"
"-124.16","49.35","BALLENAS ISLAND","1020590","2012-02-09 00:00","2012","02","09","00:00","7.2","","6.2","","93","","","","11","","22","","","","102.27","","","","","","NA"
"-124.16","49.35","BALLENAS ISLAND","1020590","2012-02-09 01:00","2012","02","09","01:00","7.2","","6.2","","93","","","","12","","26","","","","102.26","","","","","","NA"
"-124.16","49.35","BALLENAS ISLAND","1020590","2012-02-09 02:00","2012","02","09","02:00","7.2","","6.2","","93","","","","12","","20","","","","102.25","","","","","","NA"
"-124.16","49.35","BALLENAS ISLAND","1020590","2012-02-09 03:00","2012","02","09","03:00","7.5","","6.2","","91","","","","12","","19","","","","102.21","","","","","","NA"
"-124.16","49.35","BALLENAS ISLAND","1020590","2012-02-09 04:00","2012","02","09","04:00","7.5","","6.1","","91","","","","13","","19","","","","102.15","","","","","","NA"
"-124.16","49.35","BALLENAS ISLAND","1020590","2012-02-09 05:00","2012","02","09","05:00","7.6","","6.2","","91","","","","14","","15","","","","102.12","","","","","","NA"
"-124.16","49.35","BALLENAS ISLAND","1020590","2012-02-09 06:00","2012","02","09","06:00","7.6","","6.1","","90","","","","13","","19","","","","102.04","","","","","","NA"
"-124.16","49.35","BALLENAS ISLAND","1020590","2012-02-09 07:00","2012","02","09","07:00","7.9","","6.1","","88","","","","13","","20","","","","101.99","","","","","","NA"
"-124.16","49.35","BALLENAS ISLAND","1020590","2012-02-09 08:00","2012","02","09","08:00","7.9","","5.9","","87","","","","13","","22","","","","101.97","","","","","","NA"
"-124.16","49.35","BALLENAS ISLAND","1020590","2012-02-09 09:00","2012","02","09","09:00","7.9","","5.8","","87","","","","12","","24","","","","101.99","","","","","","NA"
"-124.16","49.35","BALLENAS ISLAND","1020590","2012-02-09 10:00","2012","02","09","10:00","7.9","","5.8","","87","","","","12","","32","","","","101.98","","","","","","NA"
"-124.16","49.35","BALLENAS ISLAND","1020590","2012-02-09 11:00","2012","02","09","11:00","7.4","","5.8","","90","","","","12","","33","","","","102.03","","","","","","NA"
"-124.16","49.35","BALLENAS ISLAND","1020590","2012-02-09 12:00","2012","02","09","12:00","7.1","","5.9","","92","","","","12","","30","","","","102.03","","","","","","NA"
"-124.16","49.35","BALLENAS ISLAND","1020590","2012-02-09 13:00","2012","02","09","13:00","7.1","","5.8","","91","","","","12","","37","","","","101.93","","","","","","NA"
"-124.16","49.35","BALLENAS ISLAND","1020590","2012-02-09 14:00","2012","02","09","14:00","7.0","","5.9","","93","","","","12","","37","","","","101.91","","","","","","NA"
"-124.16","49.35","BALLENAS ISLAND","1020590","2012-02-09 15:00","2012","02","09","15:00","7.1","","6.1","","93","","","","12","","37","","","","101.82","","","","","","NA"
"-124.16","49.35","BALLENAS ISLAND","1020590","2012-02-09 16:00","2012","02","09","16:00","7.2","","6.3","","94","","","","13","","28","","","","101.77","","","","","","NA"
"-124.16","49.35","BALLENAS ISLAND","1020590","2012-02-09 17:00","2012","02","09","17:00","7.3","","6.4","","94","","","","12","","26","","","","101.74","","","","","","NA"
"-124.16","49.35","BALLENAS ISLAND","1020590","2012-02-09 18:00","2012","02","09","18:00","7.3","","6.6","","95","","","","12","","24","","","","101.72","","","","","","NA"
"-124.16","49.35","BALLENAS ISLAND","1020590","2012-02-09 19:00","2012","02","09","19:00","7.3","","6.8","","97","","","","11","","26","","","","101.66","","","","","","NA"
"-124.16","49.35","BALLENAS ISLAND","1020590","2012-02-09 20:00","2012","02","09","20:00","7.4","","6.8","","96","","","","13","","22","","","","101.61","","","","","","NA"
"-124.16","49.35","BALLENAS ISLAND","1020590","2012-02-09 21:00","2012","02","09","21:00","7.7","","7.0","","95","","","","12","","19","","","","101.60","","","","","","NA"
"-124.16","49.35","BALLENAS ISLAND","1020590","2012-02-09 22:00","2012","02","09","22:00","8.0","","7.2","","95","","","","13","","17","","","","101.56","","","","","","NA"
"-124.16","49.35","BALLENAS ISLAND","1020590","2012-02-09 23:00","2012","02","09","23:00","7.9","","7.2","","95","","","","13","","17","","","","101.53","","","","","","NA"
"-124.16","49.35","BALLENAS ISLAND","1020590","2012-02-10 00:00","2012","02","10","00:00","7.9","","7.2","","95","","","","13","","19","","","","101.46","","","","","","NA"
"-124.16","49.35","BALLENAS ISLAND","1020590","2012-02-10 01:00","2012","02","10","01:00","7.8","","7.1","","95","","","","11","","28","","","","101.40","","","","","","NA"
"-124.16","49.35","BALLENAS ISLAND","1020590","2012-02-10 02:00","2012","02","10","02:00","7.7","","7.1","","96","","","","11","","19","","","","101.44","","","","","","NA"
"-124.16","49.35","BALLENAS ISLAND","1020590","2012-02-10 03:00","2012","02","10","03:00","7.7","","7.1","","96","","","","11","","24","","","","101.43","","","","","","NA"
"-124.16","49.35","BALLENAS ISLAND","1020590","2012-02-10 04:00","2012","02","10","04:00","8.0","","7.2","","95","","","","12","","20","","","","101.38","","","","","","NA"
"-124.16","49.35","BALLENAS ISLAND","1020590","2012-02-10 05:00","2012","02","10","05:00","7.8","","7.0","","95","","","","12","","15","","","","101.35","","","","","","NA"
"-124.16","49.35","BALLENAS ISLAND","1020590","2012-02-10 06:00","2012","02","10","06:00","7.4","","6.8","","96","","","","6","","19","","","","101.31","","","","","","NA"
"-124.16","49.35","BALLENAS ISLAND","1020590","2012-02-10 07:00","2012","02","10","07:00","7.5","","6.8","","95","","","","7","","15","","","","101.29","","","","","","NA"
"-124.16","49.35","BALLENAS ISLAND","1020590","2012-02-10 08:00","2012","02","10","08:00","7.6","","7.0","","96","","","","8","","13","","","","101.27","","","","","","NA"
"-124.16","49.35","BALLENAS ISLAND","1020590","2012-02-10 09:00","2012","02","10","09:00","7.5","","6.9","","96","","","","11","","7","","","","101.27","","","","","","NA"
"-124.16","49.35","BALLENAS ISLAND","1020590","2012-02-10 10:00","2012","02","10","10:00","7.7","","6.8","","94","","","","11","","11","","","","101.27","","","","","","NA"
"-124.16","49.35","BALLENAS ISLAND","1020590","2012-02-10 11:00","2012","02","10","11:00","7.5","","6.8","","95","","","","6","","17","","","","101.24","","","","","","NA"
"-124.16","49.35","BALLENAS ISLAND","1020590","2012-02-10 12:00","2012","02","10","12:00","7.5","","6.8","","95","","","","6","","15","","","","101.23","","","","","","NA"
"-124.16","49.35","BALLENAS ISLAND","1020590","2012-02-10 13:00","2012","02","10","13:00","7.5","","6.8","","95","","","","6","","19","","","","101.18","","","","","","NA"
"-124.16","49.35","BALLENAS ISLAND","1020590","2012-02-10 14:00","2012","02","10","14:00","7.4","","6.7","","95","","","","9","","15","","","","101.13","","","","","","NA"
"-124.16","49.35","BALLENAS ISLAND","1020590","2012-02-10 15:00","2012","02","10","15:00","7.5","","6.7","","95","","","","5","","11","","","","101.09","","","","","","NA"
"-124.16","49.35","BALLENAS ISLAND","1020590","2012-02-10 16:00","2012","02","10","16:00","7.3","","6.5","","95","","","","3","","7","","","","101.07","","","","","","NA"
"-124.16","49.35","BALLENAS ISLAND","1020590","2012-02-10 17:00","2012","02","10","17:00","7.6","","6.7","","94","","","","4","","4","","","","101.07","","","","","","NA"
"-124.16","49.35","BALLENAS ISLAND","1020590","2012-02-10 18:00","2012","02","10","18:00","7.3","","6.6","","95","","","","28","","7","","","","101.09","","","","","","NA"
"-124.16","49.35","BALLENAS ISLAND","1020590","2012-02-10 19:00","2012","02","10","19:00","7.3","","6.8","","97","","","","26","","7","","","","101.10","","","","","","NA"
"-124.16","49.35","BALLENAS ISLAND","1020590","2012-02-10 20:00","2012","02","10","20:00","7.3","","6.8","","97","","","","24","","7","","","","101.11","","","","","","NA"
"-124.16","49.35","BALLENAS ISLAND","1020590","2012-02-10 21:00","2012","02","10","21:00","7.3","","6.9","","97","","","","25","","11","","","","101.17","","","","","","NA"
"-124.16","49.35","BALLENAS ISLAND","1020590","2012-02-10 22:00","2012","02","10","22:00","7.3","","6.9","","97","","","","25","","11","","","","101.22","","","","","","NA"
"-124.16","49.35","BALLENAS ISLAND","1020590","2012-02-10 23:00","2012","02","10","23:00","7.3","","6.9","","97","","","","25","","11","","","","101.23","","","","","","NA"
"-124.16","49.35","BALLENAS ISLAND","1020590","2012-02-11 00:00","2012","02","11","00:00","7.3","","6.9","","97","","","","24","","4","","","","101.31","","","","","","NA"
"-124.16","49.35","BALLENAS ISLAND","1020590","2012-02-11 01:00","2012","02","11","01:00","7.3","","6.9","","97","","","","31","","2","","","","101.33","","","","","","NA"
"-124.16","49.35","BALLENAS ISLAND","1020590","2012-02-11 02:00","2012","02","11","02:00","7.2","","6.8","","97","","","","1","","2","","","","101.40","","","","","","NA"
"-124.16","49.35","BALLENAS ISLAND","1020590","2012-02-11 03:00","2012","02","11","03:00","7.2","","6.8","","97","","","","8","","6","","","","101.44","","","","","","NA"
"-124.16","49.35","BALLENAS ISLAND","1020590","2012-02-11 04:00","2012","02","11","04:00","7.2","","6.8","","97","","","","11","","15","","","","101.47","","","","","","NA"
"-124.16","49.35","BALLENAS ISLAND","1020590","2012-02-11 05:00","2012","02","11","05:00","7.1","","6.7","","97","","","","11","","15","","","","101.52","","","","","","NA"
"-124.16","49.35","BALLENAS ISLAND","1020590","2012-02-11 06:00","2012","02","11","06:00","7.0","","6.5","","97","","","","11","","28","","","","101.54","","","","","","NA"
"-124.16","49.35","BALLENAS ISLAND","1020590","2012-02-11 07:00","2012","02","11","07:00","7.2","","6.3","","94","","","","11","","24","","","","101.58","","","","","","NA"
"-124.16","49.35","BALLENAS ISLAND","1020590","2012-02-11 08:00","2012","02","11","08:00","7.3","","6.1","","92","","","","12","","26","","","","101.61","","","","","","NA"
"-124.16","49.35","BALLENAS ISLAND","1020590","2012-02-11 09:00","2012","02","11","09:00","7.4","","6.1","","91","","","","12","","22","","","","101.68","","","","","","NA"
"-124.16","49.35","BALLENAS ISLAND","1020590","2012-02-11 10:00","2012","02","11","10:00","7.4","","6.0","","91","","","","12","","20","","","","101.74","","","","","","NA"
"-124.16","49.35","BALLENAS ISLAND","1020590","2012-02-11 11:00","2012","02","11","11:00","7.2","","6.0","","92","","","","11","","24","","","","101.76","","","","","","NA"
"-124.16","49.35","BALLENAS ISLAND","1020590","2012-02-11 12:00","2012","02","11","12:00","7.2","","6.2","","93","","","","11","","19","","","","101.77","","","","","","NA"
"-124.16","49.35","BALLENAS ISLAND","1020590","2012-02-11 13:00","2012","02","11","13:00","7.2","","5.9","","91","","","","11","","22","","","","101.72","","","","","","NA"
"-124.16","49.35","BALLENAS ISLAND","1020590","2012-02-11 14:00","2012","02","11","14:00","7.3","","6.0","","91","","","","12","","20","","","","101.69","","","","","","NA"
"-124.16","49.35","BALLENAS ISLAND","1020590","2012-02-11 15:00","2012","02","11","15:00","7.4","","6.1","","91","","","","12","","15","","","","101.73","","","","","","NA"
"-124.16","49.35","BALLENAS ISLAND","1020590","2012-02-11 16:00","2012","02","11","16:00","7.7","","6.1","","90","","","","11","","13","","","","101.73","","","","","","NA"
"-124.16","49.35","BALLENAS ISLAND","1020590","2012-02-11 17:00","2012","02","11","17:00","7.3","","6.0","","91","","","","10","","15","","","","101.72","","","","","","NA"
"-124.16","49.35","BALLENAS ISLAND","1020590","2012-02-11 18:00","2012","02","11","18:00","7.3","","6.0","","91","","","","10","","13","","","","101.75","","","","","","NA"
"-124.16","49.35","BALLENAS ISLAND","1020590","2012-02-11 19:00","2012","02","11","19:00","7.2","","5.9","","91","","","","10","","17","","","","101.73","","","","","","NA"
"-124.16","49.35","BALLENAS ISLAND","1020590","2012-02-11 20:00","2012","02","11","20:00","7.1","","5.8","","91","","","","11","","17","","","","101.71","","","","","","NA"
"-124.16","49.35","BALLENAS ISLAND","1020590","2012-02-11 21:00","2012","02","11","21:00","7.1","","5.3","","88","","","","12","","13","","","","101.69","","","","","","NA"
"-124.16","49.35","BALLENAS ISLAND","1020590","2012-02-11 22:00","2012","02","11","22:00","7.1","","5.5","","90","","","","12","","11","","","","101.69","","","","","","NA"
"-124.16","49.35","BALLENAS ISLAND","1020590","2012-02-11 23:00","2012","02","11","23:00","7.1","","5.5","","90","","","","12","","19","","","","101.69","","","","","","NA"
"-124.16","49.35","BALLENAS ISLAND","1020590","2012-02-12 00:00","2012","02","12","00:00","7.0","","5.6","","91","","","","12","","20","","","","101.64","","","","","","NA"
"-124.16","49.35","BALLENAS ISLAND","1020590","2012-02-12 01:00","2012","02","12","01:00","7.1","","5.6","","90","","","","12","","19","","","","101.63","","","","","","NA"
"-124.16","49.35","BALLENAS ISLAND","1020590","2012-02-12 02:00","2012","02","12","02:00","7.0","","5.7","","91","","","","11","","19","","","","101.63","","","","","","NA"
"-124.16","49.35","BALLENAS ISLAND","1020590","2012-02-12 03:00","2012","02","12","03:00","6.9","","5.7","","92","","","","12","","19","","","","101.57","","","","","","NA"
"-124.16","49.35","BALLENAS ISLAND","1020590","2012-02-12 04:00","2012","02","12","04:00","6.8","","5.7","","93","","","","11","","20","","","","101.51","","","","","","NA"
"-124.16","49.35","BALLENAS ISLAND","1020590","2012-02-12 05:00","2012","02","12","05:00","6.8","","5.9","","94","","","","11","","24","","","","101.45","","","","","","NA"
"-124.16","49.35","BALLENAS ISLAND","1020590","2012-02-12 06:00","2012","02","12","06:00","6.6","","5.7","","94","","","","11","","28","","","","101.39","","","","","","NA"
"-124.16","49.35","BALLENAS ISLAND","1020590","2012-02-12 07:00","2012","02","12","07:00","6.5","","5.6","","94","","","","11","","30","","","","101.33","","","","","","NA"
"-124.16","49.35","BALLENAS ISLAND","1020590","2012-02-12 08:00","2012","02","12","08:00","6.4","","5.5","","94","","","","11","","30","","","","101.30","","","","","","NA"
"-124.16","49.35","BALLENAS ISLAND","1020590","2012-02-12 09:00","2012","02","12","09:00","6.5","","5.5","","93","","","","11","","28","","","","101.31","","","","","","NA"
"-124.16","49.35","BALLENAS ISLAND","1020590","2012-02-12 10:00","2012","02","12","10:00","6.4","","5.5","","94","","","","11","","32","","","","101.29","","","","","","NA"
"-124.16","49.35","BALLENAS ISLAND","1020590","2012-02-12 11:00","2012","02","12","11:00","6.4","","5.5","","94","","","","11","","32","","","","101.26","","","","","","NA"
"-124.16","49.35","BALLENAS ISLAND","1020590","2012-02-12 12:00","2012","02","12","12:00","6.3","","5.4","","94","","","","11","","33","","","","101.20","","","","","","NA"
"-124.16","49.35","BALLENAS ISLAND","1020590","2012-02-12 13:00","2012","02","12","13:00","6.4","","5.5","","94","","","","11","","33","","","","101.13","","","","","","NA"
"-124.16","49.35","BALLENAS ISLAND","1020590","2012-02-12 14:00","2012","02","12","14:00","6.3","","5.4","","94","","","","11","","30","","","","101.07","","","","","","NA"
"-124.16","49.35","BALLENAS ISLAND","1020590","2012-02-12 15:00","2012","02","12","15:00","6.3","","5.4","","94","","","","11","","28","","","","101.05","","","","","","NA"
"-124.16","49.35","BALLENAS ISLAND","1020590","2012-02-12 16:00","2012","02","12","16:00","6.3","","5.4","","94","","","","11","","30","","","","101.02","","","","","","NA"
"-124.16","49.35","BALLENAS ISLAND","1020590","2012-02-12 17:00","2012","02","12","17:00","6.2","","5.4","","95","","","","11","","24","","","","101.01","","","","","","NA"
"-124.16","49.35","BALLENAS ISLAND","1020590","2012-02-12 18:00","2012","02","12","18:00","6.3","","5.6","","95","","","","11","","24","","","","101.02","","","","","","NA"
"-124.16","49.35","BALLENAS ISLAND","1020590","2012-02-12 19:00","2012","02","12","19:00","6.2","","5.5","","95","","","","11","","19","","","","101.04","","","","","","NA"
"-124.16","49.35","BALLENAS ISLAND","1020590","2012-02-12 20:00","2012","02","12","20:00","6.2","","5.5","","95","","","","10","","15","","","","101.06","","","","","","NA"
"-124.16","49.35","BALLENAS ISLAND","1020590","2012-02-12 21:00","2012","02","12","21:00","6.2","","5.5","","95","","","","","","0","","","","101.10","","","","","","NA"
"-124.16","49.35","BALLENAS ISLAND","1020590","2012-02-12 22:00","2012","02","12","22:00","5.8","","4.9","","94","","","","29","","26","","","","101.12","","","","","","NA"
"-124.16","49.35","BALLENAS ISLAND","1020590","2012-02-12 23:00","2012","02","12","23:00","6.0","","4.8","","92","","","","27","","30","","","","101.12","","","","","","NA"
"-124.16","49.35","BALLENAS ISLAND","1020590","2012-02-13 00:00","2012","02","13","00:00","6.2","","5.1","","93","","","","30","","33","","","","101.17","","","","","","NA"
"-124.16","49.35","BALLENAS ISLAND","1020590","2012-02-13 01:00","2012","02","13","01:00","6.1","","4.9","","92","","","","27","","30","","","","101.20","","","","","","NA"
"-124.16","49.35","BALLENAS ISLAND","1020590","2012-02-13 02:00","2012","02","13","02:00","5.8","","4.6","","92","","","","26","","26","","","","101.23","","","","","","NA"
"-124.16","49.35","BALLENAS ISLAND","1020590","2012-02-13 03:00","2012","02","13","03:00","6.3","","4.6","","89","","","","28","","32","","","","101.26","","","","","","NA"
"-124.16","49.35","BALLENAS ISLAND","1020590","2012-02-13 04:00","2012","02","13","04:00","6.1","","4.3","","88","","","","29","","39","","","","101.28","","","","","","NA"
"-124.16","49.35","BALLENAS ISLAND","1020590","2012-02-13 05:00","2012","02","13","05:00","6.1","","3.6","","84","","","","29","","41","","","","101.31","","","","","","NA"
"-124.16","49.35","BALLENAS ISLAND","1020590","2012-02-13 06:00","2012","02","13","06:00","6.0","","3.1","","82","","","","28","","37","","","","101.34","","","","","","NA"
"-124.16","49.35","BALLENAS ISLAND","1020590","2012-02-13 07:00","2012","02","13","07:00","5.9","","3.1","","82","","","","28","","37","","","","101.34","","","","","","NA"
"-124.16","49.35","BALLENAS ISLAND","1020590","2012-02-13 08:00","2012","02","13","08:00","5.8","","2.9","","82","","","","28","","37","","","","101.40","","","","","","NA"
"-124.16","49.35","BALLENAS ISLAND","1020590","2012-02-13 09:00","2012","02","13","09:00","5.8","","2.4","","79","","","","29","","30","","","","101.47","","","","","","NA"
"-124.16","49.35","BALLENAS ISLAND","1020590","2012-02-13 10:00","2012","02","13","10:00","5.7","","2.1","","78","","","","28","","30","","","","101.52","","","","","","NA"
"-124.16","49.35","BALLENAS ISLAND","1020590","2012-02-13 11:00","2012","02","13","11:00","5.7","","2.4","","79","","","","29","","28","","","","101.54","","","","","","NA"
"-124.16","49.35","BALLENAS ISLAND","1020590","2012-02-13 12:00","2012","02","13","12:00","5.7","","2.4","","79","","","","29","","24","","","","101.54","","","","","","NA"
"-124.16","49.35","BALLENAS ISLAND","1020590","2012-02-13 13:00","2012","02","13","13:00","5.9","","2.5","","79","","","","29","","24","","","","101.53","","","","","","NA"
"-124.16","49.35","BALLENAS ISLAND","1020590","2012-02-13 14:00","2012","02","13","14:00","6.0","","2.4","","78","","","","27","","22","","","","101.51","","","","","","NA"
"-124.16","49.35","BALLENAS ISLAND","1020590","2012-02-13 15:00","2012","02","13","15:00","6.3","","2.4","","76","","","","27","","17","","","","101.51","","","","","","NA"
"-124.16","49.35","BALLENAS ISLAND","1020590","2012-02-13 16:00","2012","02","13","16:00","6.5","","2.6","","76","","","","27","","17","","","","101.49","","","","","","NA"
"-124.16","49.35","BALLENAS ISLAND","1020590","2012-02-13 17:00","2012","02","13","17:00","6.3","","2.6","","77","","","","26","","19","","","","101.45","","","","","","NA"
"-124.16","49.35","BALLENAS ISLAND","1020590","2012-02-13 18:00","2012","02","13","18:00","6.1","","2.5","","78","","","","26","","11","","","","101.41","","","","","","NA"
"-124.16","49.35","BALLENAS ISLAND","1020590","2012-02-13 19:00","2012","02","13","19:00","6.0","","2.7","","79","","","","28","","4","","","","101.38","","","","","","NA"
"-124.16","49.35","BALLENAS ISLAND","1020590","2012-02-13 20:00","2012","02","13","20:00","5.8","","3.7","","86","","","","6","","9","","","","101.35","","","","","","NA"
"-124.16","49.35","BALLENAS ISLAND","1020590","2012-02-13 21:00","2012","02","13","21:00","5.3","","3.5","","88","","","","12","","6","","","","101.32","","","","","","NA"
"-124.16","49.35","BALLENAS ISLAND","1020590","2012-02-13 22:00","2012","02","13","22:00","5.5","","3.4","","86","","","","11","","13","","","","101.28","","","","","","NA"
"-124.16","49.35","BALLENAS ISLAND","1020590","2012-02-13 23:00","2012","02","13","23:00","5.8","","3.6","","86","","","","12","","24","","","","101.21","","","","","","NA"
"-124.16","49.35","BALLENAS ISLAND","1020590","2012-02-14 00:00","2012","02","14","00:00","5.3","","3.6","","89","","","","13","","17","","","","101.23","","","","","","NA"
"-124.16","49.35","BALLENAS ISLAND","1020590","2012-02-14 01:00","2012","02","14","01:00","5.4","","3.9","","90","","","","13","","13","","","","101.21","","","","","","NA"
"-124.16","49.35","BALLENAS ISLAND","1020590","2012-02-14 02:00","2012","02","14","02:00","5.7","","4.2","","90","","","","11","","32","","","","101.07","","","","","","NA"
"-124.16","49.35","BALLENAS ISLAND","1020590","2012-02-14 03:00","2012","02","14","03:00","5.3","","3.9","","91","","","","12","","28","","","","101.01","","","","","","NA"
"-124.16","49.35","BALLENAS ISLAND","1020590","2012-02-14 04:00","2012","02","14","04:00","5.5","","4.2","","91","","","","12","","28","","","","100.97","","","","","","NA"
"-124.16","49.35","BALLENAS ISLAND","1020590","2012-02-14 05:00","2012","02","14","05:00","5.6","","4.3","","91","","","","13","","20","","","","100.97","","","","","","NA"
"-124.16","49.35","BALLENAS ISLAND","1020590","2012-02-14 06:00","2012","02","14","06:00","5.3","","3.8","","90","","","","13","","13","","","","100.95","","","","","","NA"
"-124.16","49.35","BALLENAS ISLAND","1020590","2012-02-14 07:00","2012","02","14","07:00","5.7","","4.4","","91","","","","12","","17","","","","100.91","","","","","","NA"
"-124.16","49.35","BALLENAS ISLAND","1020590","2012-02-14 08:00","2012","02","14","08:00","6.1","","4.9","","92","","","","11","","26","","","","100.91","","","","","","NA"
"-124.16","49.35","BALLENAS ISLAND","1020590","2012-02-14 09:00","2012","02","14","09:00","5.8","","3.8","","87","","","","14","","9","","","","100.96","","","","","","NA"
"-124.16","49.35","BALLENAS ISLAND","1020590","2012-02-14 10:00","2012","02","14","10:00","6.4","","4.1","","85","","","","11","","22","","","","101.01","","","","","","NA"
"-124.16","49.35","BALLENAS ISLAND","1020590","2012-02-14 11:00","2012","02","14","11:00","6.5","","4.1","","85","","","","11","","24","","","","101.08","","","","","","NA"
"-124.16","49.35","BALLENAS ISLAND","1020590","2012-02-14 12:00","2012","02","14","12:00","6.3","","3.9","","85","","","","12","","24","","","","101.12","","","","","","NA"
"-124.16","49.35","BALLENAS ISLAND","1020590","2012-02-14 13:00","2012","02","14","13:00","6.7","","4.1","","83","","","","11","","19","","","","101.14","","","","","","NA"
"-124.16","49.35","BALLENAS ISLAND","1020590","2012-02-14 14:00","2012","02","14","14:00","7.1","","4.1","","81","","","","11","","9","","","","101.20","","","","","","NA"
"-124.16","49.35","BALLENAS ISLAND","1020590","2012-02-14 15:00","2012","02","14","15:00","7.4","","4.0","","79","","","","11","","4","","","","101.26","","","","","","NA"
"-124.16","49.35","BALLENAS ISLAND","1020590","2012-02-14 16:00","2012","02","14","16:00","7.4","","3.8","","78","","","","2","","4","","","","101.31","","","","","","NA"
"-124.16","49.35","BALLENAS ISLAND","1020590","2012-02-14 17:00","2012","02","14","17:00","6.5","","3.9","","83","","","","30","","15","","","","101.43","","","","","","NA"
"-124.16","49.35","BALLENAS ISLAND","1020590","2012-02-14 18:00","2012","02","14","18:00","6.0","","3.7","","85","","","","25","","7","","","","101.44","","","","","","NA"
"-124.16","49.35","BALLENAS ISLAND","1020590","2012-02-14 19:00","2012","02","14","19:00","5.6","","3.8","","88","","","","24","","15","","","","101.58","","","","","","NA"
"-124.16","49.35","BALLENAS ISLAND","1020590","2012-02-14 20:00","2012","02","14","20:00","5.1","","3.5","","89","","","","24","","15","","","","101.70","","","","","","NA"
"-124.16","49.35","BALLENAS ISLAND","1020590","2012-02-14 21:00","2012","02","14","21:00","4.8","","2.4","","84","","","","23","","15","","","","101.73","","","","","","NA"
"-124.16","49.35","BALLENAS ISLAND","1020590","2012-02-14 22:00","2012","02","14","22:00","4.5","","2.1","","84","","","","24","","15","","","","101.81","","","","","","NA"
"-124.16","49.35","BALLENAS ISLAND","1020590","2012-02-14 23:00","2012","02","14","23:00","4.8","","2.3","","84","","","","24","","11","","","","101.84","","","","","","NA"
"-124.16","49.35","BALLENAS ISLAND","1020590","2012-02-15 00:00","2012","02","15","00:00","4.7","","2.3","","84","","","","25","","9","","","","101.93","","","","","","NA"
"-124.16","49.35","BALLENAS ISLAND","1020590","2012-02-15 01:00","2012","02","15","01:00","4.3","","2.0","","85","","","","24","","11","","","","102.00","","","","","","NA"
"-124.16","49.35","BALLENAS ISLAND","1020590","2012-02-15 02:00","2012","02","15","02:00","4.6","","2.2","","84","","","","24","","9","","","","102.06","","","","","","NA"
"-124.16","49.35","BALLENAS ISLAND","1020590","2012-02-15 03:00","2012","02","15","03:00","3.7","","1.5","","86","","","","22","","4","","","","102.10","","","","","","NA"
"-124.16","49.35","BALLENAS ISLAND","1020590","2012-02-15 04:00","2012","02","15","04:00","4.4","","1.7","","83","","","","24","","2","","","","102.14","","","","","","NA"
"-124.16","49.35","BALLENAS ISLAND","1020590","2012-02-15 05:00","2012","02","15","05:00","3.5","","1.9","","89","","","","24","","7","","","","102.22","","","","","","NA"
"-124.16","49.35","BALLENAS ISLAND","1020590","2012-02-15 06:00","2012","02","15","06:00","3.4","","1.8","","89","","","","23","","11","","","","102.30","","","","","","NA"
"-124.16","49.35","BALLENAS ISLAND","1020590","2012-02-15 07:00","2012","02","15","07:00","3.6","","2.4","","92","","","","22","","15","","","","102.34","","","","","","NA"
"-124.16","49.35","BALLENAS ISLAND","1020590","2012-02-15 08:00","2012","02","15","08:00","3.9","","2.0","","87","","","","23","","9","","","","102.41","","","","","","NA"
"-124.16","49.35","BALLENAS ISLAND","1020590","2012-02-15 09:00","2012","02","15","09:00","4.4","","2.2","","86","","","","24","","6","","","","102.47","","","","","","NA"
"-124.16","49.35","BALLENAS ISLAND","1020590","2012-02-15 10:00","2012","02","15","10:00","4.8","","2.2","","83","","","","22","","6","","","","102.53","","","","","","NA"
"-124.16","49.35","BALLENAS ISLAND","1020590","2012-02-15 11:00","2012","02","15","11:00","6.0","","3.1","","82","","","","10","","4","","","","102.55","","","","","","NA"
"-124.16","49.35","BALLENAS ISLAND","1020590","2012-02-15 12:00","2012","02","15","12:00","6.2","","4.0","","86","","","","11","","19","","","","102.51","","","","","","NA"
"-124.16","49.35","BALLENAS ISLAND","1020590","2012-02-15 13:00","2012","02","15","13:00","6.3","","4.1","","86","","","","11","","24","","","","102.50","","","","","","NA"
"-124.16","49.35","BALLENAS ISLAND","1020590","2012-02-15 14:00","2012","02","15","14:00","6.3","","4.2","","86","","","","10","","30","","","","102.41","","","","","","NA"
"-124.16","49.35","BALLENAS ISLAND","1020590","2012-02-15 15:00","2012","02","15","15:00","6.4","","4.5","","88","","","","11","","30","","","","102.41","","","","","","NA"
"-124.16","49.35","BALLENAS ISLAND","1020590","2012-02-15 16:00","2012","02","15","16:00","6.4","","4.6","","88","","","","11","","32","","","","102.37","","","","","","NA"
"-124.16","49.35","BALLENAS ISLAND","1020590","2012-02-15 17:00","2012","02","15","17:00","6.2","","4.3","","88","","","","11","","26","","","","102.39","","","","","","NA"
"-124.16","49.35","BALLENAS ISLAND","1020590","2012-02-15 18:00","2012","02","15","18:00","6.4","","4.4","","87","","","","11","","26","","","","102.41","","","","","","NA"
"-124.16","49.35","BALLENAS ISLAND","1020590","2012-02-15 19:00","2012","02","15","19:00","6.4","","4.6","","88","","","","11","","30","","","","102.39","","","","","","NA"
"-124.16","49.35","BALLENAS ISLAND","1020590","2012-02-15 20:00","2012","02","15","20:00","6.3","","4.0","","85","","","","12","","33","","","","102.34","","","","","","NA"
"-124.16","49.35","BALLENAS ISLAND","1020590","2012-02-15 21:00","2012","02","15","21:00","6.3","","3.6","","83","","","","12","","32","","","","102.33","","","","","","NA"
"-124.16","49.35","BALLENAS ISLAND","1020590","2012-02-15 22:00","2012","02","15","22:00","6.3","","4.0","","85","","","","12","","39","","","","102.27","","","","","","NA"
"-124.16","49.35","BALLENAS ISLAND","1020590","2012-02-15 23:00","2012","02","15","23:00","6.2","","4.2","","87","","","","12","","43","","","","102.20","","","","","","NA"
"-124.16","49.35","BALLENAS ISLAND","1020590","2012-02-16 00:00","2012","02","16","00:00","6.2","","4.2","","87","","","","12","","43","","","","102.19","","","","","","NA"
"-124.16","49.35","BALLENAS ISLAND","1020590","2012-02-16 01:00","2012","02","16","01:00","6.2","","4.6","","89","","","","12","","39","","","","102.18","","","","","","NA"
"-124.16","49.35","BALLENAS ISLAND","1020590","2012-02-16 02:00","2012","02","16","02:00","6.2","","2.9","","79","","","","12","","43","","","","102.11","","","","","","NA"
"-124.16","49.35","BALLENAS ISLAND","1020590","2012-02-16 03:00","2012","02","16","03:00","6.1","","4.1","","87","","","","11","","44","","","","102.06","","","","","","NA"
"-124.16","49.35","BALLENAS ISLAND","1020590","2012-02-16 04:00","2012","02","16","04:00","5.9","","3.8","","86","","","","12","","44","","","","102.00","","","","","","NA"
"-124.16","49.35","BALLENAS ISLAND","1020590","2012-02-16 05:00","2012","02","16","05:00","5.7","","3.7","","87","","","","11","","44","","","","101.97","","","","","","NA"
"-124.16","49.35","BALLENAS ISLAND","1020590","2012-02-16 06:00","2012","02","16","06:00","5.2","","3.1","","86","","","","12","","52","","","","101.92","","","","","","NA"
"-124.16","49.35","BALLENAS ISLAND","1020590","2012-02-16 07:00","2012","02","16","07:00","5.0","","3.4","","89","","","","11","","46","","","","101.91","","","","","","NA"
"-124.16","49.35","BALLENAS ISLAND","1020590","2012-02-16 08:00","2012","02","16","08:00","5.1","","3.1","","87","","","","11","","50","","","","101.82","","","","","","NA"
"-124.16","49.35","BALLENAS ISLAND","1020590","2012-02-16 09:00","2012","02","16","09:00","5.1","","3.2","","88","","","","11","","44","","","","101.87","","","","","","NA"
"-124.16","49.35","BALLENAS ISLAND","1020590","2012-02-16 10:00","2012","02","16","10:00","4.9","","3.4","","90","","","","12","","41","","","","101.96","","","","","","NA"
"-124.16","49.35","BALLENAS ISLAND","1020590","2012-02-16 11:00","2012","02","16","11:00","4.9","","3.5","","91","","","","11","","41","","","","102.02","","","","","","NA"
"-124.16","49.35","BALLENAS ISLAND","1020590","2012-02-16 12:00","2012","02","16","12:00","5.0","","3.6","","91","","","","10","","39","","","","102.07","","","","","","NA"
"-124.16","49.35","BALLENAS ISLAND","1020590","2012-02-16 13:00","2012","02","16","13:00","5.3","","3.8","","90","","","","11","","33","","","","102.08","","","","","","NA"
"-124.16","49.35","BALLENAS ISLAND","1020590","2012-02-16 14:00","2012","02","16","14:00","5.4","","3.7","","89","","","","11","","32","","","","102.08","","","","","","NA"
"-124.16","49.35","BALLENAS ISLAND","1020590","2012-02-16 15:00","2012","02","16","15:00","5.5","","3.7","","88","","","","11","","30","","","","102.10","","","","","","NA"
"-124.16","49.35","BALLENAS ISLAND","1020590","2012-02-16 16:00","2012","02","16","16:00","5.5","","3.4","","86","","","","12","","26","","","","102.14","","","","","","NA"
"-124.16","49.35","BALLENAS ISLAND","1020590","2012-02-16 17:00","2012","02","16","17:00","5.6","","3.9","","89","","","","12","","19","","","","102.17","","","","","","NA"
"-124.16","49.35","BALLENAS ISLAND","1020590","2012-02-16 18:00","2012","02","16","18:00","5.5","","4.3","","92","","","","11","","20","","","","102.18","","","","","","NA"
"-124.16","49.35","BALLENAS ISLAND","1020590","2012-02-16 19:00","2012","02","16","19:00","5.6","","4.3","","91","","","","11","","17","","","","102.19","","","","","","NA"
"-124.16","49.35","BALLENAS ISLAND","1020590","2012-02-16 20:00","2012","02","16","20:00","5.8","","4.4","","91","","","","11","","19","","","","102.22","","","","","","NA"
"-124.16","49.35","BALLENAS ISLAND","1020590","2012-02-16 21:00","2012","02","16","21:00","5.9","","4.3","","89","","","","12","","17","","","","102.27","","","","","","NA"
"-124.16","49.35","BALLENAS ISLAND","1020590","2012-02-16 22:00","2012","02","16","22:00","5.9","","4.3","","89","","","","13","","11","","","","102.28","","","","","","NA"
"-124.16","49.35","BALLENAS ISLAND","1020590","2012-02-16 23:00","2012","02","16","23:00","6.0","","4.7","","91","","","","12","","19","","","","102.20","","","","","","NA"
"-124.16","49.35","BALLENAS ISLAND","1020590","2012-02-17 00:00","2012","02","17","00:00","5.8","","4.6","","92","","","","11","","22","","","","102.20","","","","","","NA"
"-124.16","49.35","BALLENAS ISLAND","1020590","2012-02-17 01:00","2012","02","17","01:00","6.1","","4.8","","91","","","","11","","24","","","","102.17","","","","","","NA"
"-124.16","49.35","BALLENAS ISLAND","1020590","2012-02-17 02:00","2012","02","17","02:00","6.1","","4.6","","90","","","","11","","26","","","","102.14","","","","","","NA"
"-124.16","49.35","BALLENAS ISLAND","1020590","2012-02-17 03:00","2012","02","17","03:00","6.0","","4.5","","90","","","","11","","28","","","","102.08","","","","","","NA"
"-124.16","49.35","BALLENAS ISLAND","1020590","2012-02-17 04:00","2012","02","17","04:00","5.8","","4.6","","92","","","","12","","32","","","","102.03","","","","","","NA"
"-124.16","49.35","BALLENAS ISLAND","1020590","2012-02-17 05:00","2012","02","17","05:00","5.5","","4.0","","90","","","","12","","30","","","","101.95","","","","","","NA"
"-124.16","49.35","BALLENAS ISLAND","1020590","2012-02-17 06:00","2012","02","17","06:00","5.6","","4.5","","93","","","","13","","20","","","","101.89","","","","","","NA"
"-124.16","49.35","BALLENAS ISLAND","1020590","2012-02-17 07:00","2012","02","17","07:00","5.5","","4.7","","95","","","","12","","24","","","","101.81","","","","","","NA"
"-124.16","49.35","BALLENAS ISLAND","1020590","2012-02-17 08:00","2012","02","17","08:00","5.4","","4.6","","95","","","","11","","37","","","","101.71","","","","","","NA"
"-124.16","49.35","BALLENAS ISLAND","1020590","2012-02-17 09:00","2012","02","17","09:00","5.4","","4.6","","95","","","","12","","17","","","","101.66","","","","","","NA"
"-124.16","49.35","BALLENAS ISLAND","1020590","2012-02-17 10:00","2012","02","17","10:00","5.7","","4.4","","91","","","","12","","35","","","","101.57","","","","","","NA"
"-124.16","49.35","BALLENAS ISLAND","1020590","2012-02-17 11:00","2012","02","17","11:00","6.0","","4.6","","91","","","","11","","41","","","","101.38","","","","","","NA"
"-124.16","49.35","BALLENAS ISLAND","1020590","2012-02-17 12:00","2012","02","17","12:00","5.9","","4.6","","91","","","","11","","46","","","","101.18","","","","","","NA"
"-124.16","49.35","BALLENAS ISLAND","1020590","2012-02-17 13:00","2012","02","17","13:00","6.1","","5.1","","93","","","","11","","54","","","","100.93","","","","","","NA"
"-124.16","49.35","BALLENAS ISLAND","1020590","2012-02-17 14:00","2012","02","17","14:00","6.1","","5.0","","93","","","","13","","28","","","","100.86","","","","","","NA"
"-124.16","49.35","BALLENAS ISLAND","1020590","2012-02-17 15:00","2012","02","17","15:00","6.1","","4.8","","91","","","","12","","39","","","","100.66","","","","","","NA"
"-124.16","49.35","BALLENAS ISLAND","1020590","2012-02-17 16:00","2012","02","17","16:00","6.7","","5.4","","91","","","","12","","44","","","","100.56","","","","","","NA"
"-124.16","49.35","BALLENAS ISLAND","1020590","2012-02-17 17:00","2012","02","17","17:00","6.8","","5.7","","93","","","","11","","33","","","","100.43","","","","","","NA"
"-124.16","49.35","BALLENAS ISLAND","1020590","2012-02-17 18:00","2012","02","17","18:00","6.6","","5.6","","93","","","","12","","20","","","","100.42","","","","","","NA"
"-124.16","49.35","BALLENAS ISLAND","1020590","2012-02-17 19:00","2012","02","17","19:00","6.5","","4.4","","86","","","","13","","13","","","","100.36","","","","","","NA"
"-124.16","49.35","BALLENAS ISLAND","1020590","2012-02-17 20:00","2012","02","17","20:00","6.8","","3.3","","78","","","","13","","28","","","","100.40","","","","","","NA"
"-124.16","49.35","BALLENAS ISLAND","1020590","2012-02-17 21:00","2012","02","17","21:00","6.4","","3.9","","84","","","","13","","26","","","","100.39","","","","","","NA"
"-124.16","49.35","BALLENAS ISLAND","1020590","2012-02-17 22:00","2012","02","17","22:00","6.2","","3.8","","85","","","","13","","20","","","","100.46","","","","","","NA"
"-124.16","49.35","BALLENAS ISLAND","1020590","2012-02-17 23:00","2012","02","17","23:00","5.8","","3.6","","86","","","","12","","32","","","","100.36","","","","","","NA"
"-124.16","49.35","BALLENAS ISLAND","1020590","2012-02-18 00:00","2012","02","18","00:00","6.1","","3.9","","86","","","","12","","46","","","","100.35","","","","","","NA"
"-124.16","49.35","BALLENAS ISLAND","1020590","2012-02-18 01:00","2012","02","18","01:00","6.0","","3.6","","85","","","","12","","50","","","","100.30","","","","","","NA"
"-124.16","49.35","BALLENAS ISLAND","1020590","2012-02-18 02:00","2012","02","18","02:00","5.9","","3.3","","83","","","","12","","43","","","","100.28","","","","","","NA"
"-124.16","49.35","BALLENAS ISLAND","1020590","2012-02-18 03:00","2012","02","18","03:00","5.3","","3.3","","87","","","","13","","28","","","","100.29","","","","","","NA"
"-124.16","49.35","BALLENAS ISLAND","1020590","2012-02-18 04:00","2012","02","18","04:00","5.3","","3.1","","86","","","","13","","30","","","","100.30","","","","","","NA"
"-124.16","49.35","BALLENAS ISLAND","1020590","2012-02-18 05:00","2012","02","18","05:00","5.1","","2.8","","85","","","","12","","35","","","","100.32","","","","","","NA"
"-124.16","49.35","BALLENAS ISLAND","1020590","2012-02-18 06:00","2012","02","18","06:00","4.6","","2.7","","87","","","","12","","28","","","","100.32","","","","","","NA"
"-124.16","49.35","BALLENAS ISLAND","1020590","2012-02-18 07:00","2012","02","18","07:00","5.2","","2.7","","84","","","","12","","20","","","","100.30","","","","","","NA"
"-124.16","49.35","BALLENAS ISLAND","1020590","2012-02-18 08:00","2012","02","18","08:00","5.2","","2.6","","83","","","","12","","28","","","","100.33","","","","","","NA"
"-124.16","49.35","BALLENAS ISLAND","1020590","2012-02-18 09:00","2012","02","18","09:00","5.4","","3.1","","85","","","","12","","17","","","","100.40","","","","","","NA"
"-124.16","49.35","BALLENAS ISLAND","1020590","2012-02-18 10:00","2012","02","18","10:00","6.0","","3.7","","85","","","","12","","28","","","","100.47","","","","","","NA"
"-124.16","49.35","BALLENAS ISLAND","1020590","2012-02-18 11:00","2012","02","18","11:00","5.8","","3.2","","83","","","","12","","22","","","","100.56","","","","","","NA"
"-124.16","49.35","BALLENAS ISLAND","1020590","2012-02-18 12:00","2012","02","18","12:00","6.1","","3.5","","83","","","","9","","9","","","","100.69","","","","","","NA"
"-124.16","49.35","BALLENAS ISLAND","1020590","2012-02-18 13:00","2012","02","18","13:00","5.0","","3.7","","91","","","","5","","26","","","","100.85","","","","","","NA"
"-124.16","49.35","BALLENAS ISLAND","1020590","2012-02-18 14:00","2012","02","18","14:00","5.6","","4.2","","91","","","","29","","24","","","","100.91","","","","","","NA"
"-124.16","49.35","BALLENAS ISLAND","1020590","2012-02-18 15:00","2012","02","18","15:00","5.8","","3.8","","87","","","","26","","26","","","","100.99","","","","","","NA"
"-124.16","49.35","BALLENAS ISLAND","1020590","2012-02-18 16:00","2012","02","18","16:00","6.7","","4.1","","83","","","","26","","17","","","","101.02","","","","","","NA"
"-124.16","49.35","BALLENAS ISLAND","1020590","2012-02-18 17:00","2012","02","18","17:00","6.6","","4.4","","86","","","","28","","17","","","","101.06","","","","","","NA"
"-124.16","49.35","BALLENAS ISLAND","1020590","2012-02-18 18:00","2012","02","18","18:00","6.9","","4.1","","82","","","","26","","19","","","","101.09","","","","","","NA"
"-124.16","49.35","BALLENAS ISLAND","1020590","2012-02-18 19:00","2012","02","18","19:00","6.1","","4.1","","87","","","","24","","15","","","","101.14","","","","","","NA"
"-124.16","49.35","BALLENAS ISLAND","1020590","2012-02-18 20:00","2012","02","18","20:00","5.3","","3.5","","88","","","","24","","17","","","","101.18","","","","","","NA"
"-124.16","49.35","BALLENAS ISLAND","1020590","2012-02-18 21:00","2012","02","18","21:00","5.2","","3.5","","89","","","","24","","15","","","","101.19","","","","","","NA"
"-124.16","49.35","BALLENAS ISLAND","1020590","2012-02-18 22:00","2012","02","18","22:00","5.2","","3.7","","90","","","","23","","11","","","","101.27","","","","","","NA"
"-124.16","49.35","BALLENAS ISLAND","1020590","2012-02-18 23:00","2012","02","18","23:00","5.4","","3.7","","89","","","","23","","7","","","","101.32","","","","","","NA"
"-124.16","49.35","BALLENAS ISLAND","1020590","2012-02-19 00:00","2012","02","19","00:00","5.9","","2.9","","81","","","","27","","13","","","","101.36","","","","","","NA"
"-124.16","49.35","BALLENAS ISLAND","1020590","2012-02-19 01:00","2012","02","19","01:00","5.3","","1.2","","75","","","","29","","20","","","","101.38","","","","","","NA"
"-124.16","49.35","BALLENAS ISLAND","1020590","2012-02-19 02:00","2012","02","19","02:00","5.5","","1.0","","73","","","","28","","13","","","","101.44","","","","","","NA"
"-124.16","49.35","BALLENAS ISLAND","1020590","2012-02-19 03:00","2012","02","19","03:00","5.6","","1.2","","73","","","","28","","15","","","","101.43","","","","","","NA"
"-124.16","49.35","BALLENAS ISLAND","1020590","2012-02-19 04:00","2012","02","19","04:00","5.3","","1.0","","74","","","","29","","15","","","","101.42","","","","","","NA"
"-124.16","49.35","BALLENAS ISLAND","1020590","2012-02-19 05:00","2012","02","19","05:00","5.3","","0.5","","71","","","","31","","9","","","","101.42","","","","","","NA"
"-124.16","49.35","BALLENAS ISLAND","1020590","2012-02-19 06:00","2012","02","19","06:00","4.8","","1.7","","80","","","","24","","11","","","","101.41","","","","","","NA"
"-124.16","49.35","BALLENAS ISLAND","1020590","2012-02-19 07:00","2012","02","19","07:00","4.0","","1.9","","86","","","","20","","4","","","","101.42","","","","","","NA"
"-124.16","49.35","BALLENAS ISLAND","1020590","2012-02-19 08:00","2012","02","19","08:00","4.3","","1.8","","84","","","","20","","2","","","","101.44","","","","","","NA"
"-124.16","49.35","BALLENAS ISLAND","1020590","2012-02-19 09:00","2012","02","19","09:00","4.9","","2.1","","82","","","","10","","2","","","","101.44","","","","","","NA"
"-124.16","49.35","BALLENAS ISLAND","1020590","2012-02-19 10:00","2012","02","19","10:00","5.2","","1.9","","79","","","","10","","7","","","","101.46","","","","","","NA"
"-124.16","49.35","BALLENAS ISLAND","1020590","2012-02-19 11:00","2012","02","19","11:00","5.4","","1.9","","78","","","","12","","13","","","","101.42","","","","","","NA"
"-124.16","49.35","BALLENAS ISLAND","1020590","2012-02-19 12:00","2012","02","19","12:00","5.9","","1.9","","75","","","","11","","19","","","","101.41","","","","","","NA"
"-124.16","49.35","BALLENAS ISLAND","1020590","2012-02-19 13:00","2012","02","19","13:00","6.0","","3.0","","81","","","","11","","22","","","","101.35","","","","","","NA"
"-124.16","49.35","BALLENAS ISLAND","1020590","2012-02-19 14:00","2012","02","19","14:00","5.8","","2.8","","81","","","","10","","24","","","","101.27","","","","","","NA"
"-124.16","49.35","BALLENAS ISLAND","1020590","2012-02-19 15:00","2012","02","19","15:00","6.0","","2.1","","76","","","","10","","28","","","","101.23","","","","","","NA"
"-124.16","49.35","BALLENAS ISLAND","1020590","2012-02-19 16:00","2012","02","19","16:00","6.1","","2.1","","75","","","","11","","30","","","","101.17","","","","","","NA"
"-124.16","49.35","BALLENAS ISLAND","1020590","2012-02-19 17:00","2012","02","19","17:00","6.0","","1.8","","74","","","","11","","30","","","","101.15","","","","","","NA"
"-124.16","49.35","BALLENAS ISLAND","1020590","2012-02-19 18:00","2012","02","19","18:00","6.1","","1.8","","74","","","","12","","26","","","","101.15","","","","","","NA"
"-124.16","49.35","BALLENAS ISLAND","1020590","2012-02-19 19:00","2012","02","19","19:00","5.8","","2.1","","77","","","","12","","26","","","","101.12","","","","","","NA"
"-124.16","49.35","BALLENAS ISLAND","1020590","2012-02-19 20:00","2012","02","19","20:00","5.4","","1.6","","76","","","","12","","26","","","","101.08","","","","","","NA"
"-124.16","49.35","BALLENAS ISLAND","1020590","2012-02-19 21:00","2012","02","19","21:00","5.3","","1.6","","77","","","","12","","33","","","","100.99","","","","","","NA"
"-124.16","49.35","BALLENAS ISLAND","1020590","2012-02-19 22:00","2012","02","19","22:00","5.5","","2.5","","81","","","","12","","32","","","","101.01","","","","","","NA"
"-124.16","49.35","BALLENAS ISLAND","1020590","2012-02-19 23:00","2012","02","19","23:00","5.6","","2.8","","82","","","","12","","35","","","","100.96","","","","","","NA"
"-124.16","49.35","BALLENAS ISLAND","1020590","2012-02-20 00:00","2012","02","20","00:00","5.5","","3.1","","85","","","","11","","37","","","","101.00","","","","","","NA"
"-124.16","49.35","BALLENAS ISLAND","1020590","2012-02-20 01:00","2012","02","20","01:00","5.3","","2.8","","84","","","","11","","39","","","","100.92","","","","","","NA"
"-124.16","49.35","BALLENAS ISLAND","1020590","2012-02-20 02:00","2012","02","20","02:00","5.3","","2.7","","83","","","","11","","43","","","","100.87","","","","","","NA"
"-124.16","49.35","BALLENAS ISLAND","1020590","2012-02-20 03:00","2012","02","20","03:00","5.2","","2.1","","80","","","","11","","37","","","","100.91","","","","","","NA"
"-124.16","49.35","BALLENAS ISLAND","1020590","2012-02-20 04:00","2012","02","20","04:00","4.9","","2.1","","82","","","","11","","41","","","","100.93","","","","","","NA"
"-124.16","49.35","BALLENAS ISLAND","1020590","2012-02-20 05:00","2012","02","20","05:00","4.8","","2.3","","84","","","","11","","43","","","","100.92","","","","","","NA"
"-124.16","49.35","BALLENAS ISLAND","1020590","2012-02-20 06:00","2012","02","20","06:00","4.8","","2.2","","83","","","","10","","41","","","","100.98","","","","","","NA"
"-124.16","49.35","BALLENAS ISLAND","1020590","2012-02-20 07:00","2012","02","20","07:00","4.9","","2.6","","85","","","","11","","35","","","","100.99","","","","","","NA"
"-124.16","49.35","BALLENAS ISLAND","1020590","2012-02-20 08:00","2012","02","20","08:00","5.0","","2.2","","82","","","","11","","37","","","","100.99","","","","","","NA"
"-124.16","49.35","BALLENAS ISLAND","1020590","2012-02-20 09:00","2012","02","20","09:00","5.2","","1.3","","76","","","","12","","41","","","","101.03","","","","","","NA"
"-124.16","49.35","BALLENAS ISLAND","1020590","2012-02-20 10:00","2012","02","20","10:00","5.3","","1.5","","76","","","","12","","35","","","","101.11","","","","","","NA"
"-124.16","49.35","BALLENAS ISLAND","1020590","2012-02-20 11:00","2012","02","20","11:00","5.4","","1.6","","76","","","","12","","33","","","","101.13","","","","","","NA"
"-124.16","49.35","BALLENAS ISLAND","1020590","2012-02-20 12:00","2012","02","20","12:00","5.2","","1.5","","77","","","","12","","32","","","","101.16","","","","","","NA"
"-124.16","49.35","BALLENAS ISLAND","1020590","2012-02-20 13:00","2012","02","20","13:00","4.8","","1.9","","81","","","","12","","32","","","","101.14","","","","","","NA"
"-124.16","49.35","BALLENAS ISLAND","1020590","2012-02-20 14:00","2012","02","20","14:00","5.2","","2.1","","80","","","","11","","32","","","","101.19","","","","","","NA"
"-124.16","49.35","BALLENAS ISLAND","1020590","2012-02-20 15:00","2012","02","20","15:00","5.2","","2.3","","82","","","","10","","33","","","","101.21","","","","","","NA"
"-124.16","49.35","BALLENAS ISLAND","1020590","2012-02-20 16:00","2012","02","20","16:00","5.2","","2.3","","82","","","","11","","35","","","","101.20","","","","","","NA"
"-124.16","49.35","BALLENAS ISLAND","1020590","2012-02-20 17:00","2012","02","20","17:00","5.1","","2.4","","83","","","","11","","35","","","","101.18","","","","","","NA"
"-124.16","49.35","BALLENAS ISLAND","1020590","2012-02-20 18:00","2012","02","20","18:00","5.1","","3.2","","88","","","","11","","37","","","","101.16","","","","","","NA"
"-124.16","49.35","BALLENAS ISLAND","1020590","2012-02-20 19:00","2012","02","20","19:00","4.8","","3.3","","90","","","","11","","37","","","","101.13","","","","","","NA"
"-124.16","49.35","BALLENAS ISLAND","1020590","2012-02-20 20:00","2012","02","20","20:00","4.9","","3.5","","91","","","","10","","39","","","","101.20","","","","","","NA"
"-124.16","49.35","BALLENAS ISLAND","1020590","2012-02-20 21:00","2012","02","20","21:00","4.9","","3.8","","93","","","","11","","37","","","","101.23","","","","","","NA"
"-124.16","49.35","BALLENAS ISLAND","1020590","2012-02-20 22:00","2012","02","20","22:00","5.0","","4.1","","94","","","","10","","37","","","","101.27","","","","","","NA"
"-124.16","49.35","BALLENAS ISLAND","1020590","2012-02-20 23:00","2012","02","20","23:00","5.2","","4.3","","94","","","","10","","39","","","","101.20","","","","","","NA"
"-124.16","49.35","BALLENAS ISLAND","1020590","2012-02-21 00:00","2012","02","21","00:00","5.3","","4.3","","93","","","","11","","37","","","","101.21","","","","","","NA"
"-124.16","49.35","BALLENAS ISLAND","1020590","2012-02-21 01:00","2012","02","21","01:00","5.4","","4.4","","93","","","","10","","37","","","","101.22","","","","","","NA"
"-124.16","49.35","BALLENAS ISLAND","1020590","2012-02-21 02:00","2012","02","21","02:00","5.5","","4.4","","93","","","","10","","33","","","","101.26","","","","","","NA"
"-124.16","49.35","BALLENAS ISLAND","1020590","2012-02-21 03:00","2012","02","21","03:00","5.5","","4.5","","93","","","","11","","28","","","","101.28","","","","","","NA"
"-124.16","49.35","BALLENAS ISLAND","1020590","2012-02-21 04:00","2012","02","21","04:00","5.6","","4.6","","93","","","","10","","26","","","","101.19","","","","","","NA"
"-124.16","49.35","BALLENAS ISLAND","1020590","2012-02-21 05:00","2012","02","21","05:00","5.6","","4.4","","92","","","","7","","19","","","","101.30","","","","","","NA"
"-124.16","49.35","BALLENAS ISLAND","1020590","2012-02-21 06:00","2012","02","21","06:00","5.5","","4.3","","92","","","","5","","15","","","","101.33","","","","","","NA"
"-124.16","49.35","BALLENAS ISLAND","1020590","2012-02-21 07:00","2012","02","21","07:00","5.3","","4.3","","93","","","","4","","19","","","","101.32","","","","","","NA"
"-124.16","49.35","BALLENAS ISLAND","1020590","2012-02-21 08:00","2012","02","21","08:00","5.3","","4.5","","95","","","","5","","17","","","","101.33","","","","","","NA"
"-124.16","49.35","BALLENAS ISLAND","1020590","2012-02-21 09:00","2012","02","21","09:00","5.3","","4.6","","95","","","","6","","9","","","","101.35","","","","","","NA"
"-124.16","49.35","BALLENAS ISLAND","1020590","2012-02-21 10:00","2012","02","21","10:00","5.5","","4.9","","96","","","","10","","22","","","","101.21","","","","","","NA"
"-124.16","49.35","BALLENAS ISLAND","1020590","2012-02-21 11:00","2012","02","21","11:00","5.7","","5.2","","97","","","","10","","30","","","","101.16","","","","","","NA"
"-124.16","49.35","BALLENAS ISLAND","1020590","2012-02-21 12:00","2012","02","21","12:00","5.8","","5.2","","96","","","","10","","26","","","","101.20","","","","","","NA"
"-124.16","49.35","BALLENAS ISLAND","1020590","2012-02-21 13:00","2012","02","21","13:00","6.1","","5.5","","96","","","","10","","24","","","","101.16","","","","","","NA"
"-124.16","49.35","BALLENAS ISLAND","1020590","2012-02-21 14:00","2012","02","21","14:00","6.2","","5.5","","95","","","","12","","28","","","","101.08","","","","","","NA"
"-124.16","49.35","BALLENAS ISLAND","1020590","2012-02-21 15:00","2012","02","21","15:00","6.5","","5.6","","94","","","","11","","19","","","","101.13","","","","","","NA"
"-124.16","49.35","BALLENAS ISLAND","1020590","2012-02-21 16:00","2012","02","21","16:00","6.6","","5.6","","93","","","","10","","17","","","","101.13","","","","","","NA"
"-124.16","49.35","BALLENAS ISLAND","1020590","2012-02-21 17:00","2012","02","21","17:00","6.5","","5.6","","94","","","","10","","11","","","","101.14","","","","","","NA"
"-124.16","49.35","BALLENAS ISLAND","1020590","2012-02-21 18:00","2012","02","21","18:00","6.4","","5.3","","93","","","","8","","7","","","","101.11","","","","","","NA"
"-124.16","49.35","BALLENAS ISLAND","1020590","2012-02-21 19:00","2012","02","21","19:00","6.4","","5.3","","93","","","","6","","13","","","","101.14","","","","","","NA"
"-124.16","49.35","BALLENAS ISLAND","1020590","2012-02-21 20:00","2012","02","21","20:00","6.3","","5.2","","93","","","","7","","9","","","","101.15","","","","","","NA"
"-124.16","49.35","BALLENAS ISLAND","1020590","2012-02-21 21:00","2012","02","21","21:00","6.5","","5.6","","94","","","","34","","11","","","","101.17","","","","","","NA"
"-124.16","49.35","BALLENAS ISLAND","1020590","2012-02-21 22:00","2012","02","21","22:00","6.3","","5.5","","95","","","","28","","24","","","","101.22","","","","","","NA"
"-124.16","49.35","BALLENAS ISLAND","1020590","2012-02-21 23:00","2012","02","21","23:00","6.4","","4.6","","88","","","","27","","20","","","","101.16","","","","","","NA"
"-124.16","49.35","BALLENAS ISLAND","1020590","2012-02-22 00:00","2012","02","22","00:00","6.2","","4.3","","88","","","","30","","7","","","","101.09","","","","","","NA"
"-124.16","49.35","BALLENAS ISLAND","1020590","2012-02-22 01:00","2012","02","22","01:00","5.9","","4.4","","90","","","","1","","2","","","","101.11","","","","","","NA"
"-124.16","49.35","BALLENAS ISLAND","1020590","2012-02-22 02:00","2012","02","22","02:00","5.8","","4.1","","89","","","","29","","13","","","","101.17","","","","","","NA"
"-124.16","49.35","BALLENAS ISLAND","1020590","2012-02-22 03:00","2012","02","22","03:00","5.6","","3.8","","88","","","","30","","19","","","","101.11","","","","","","NA"
"-124.16","49.35","BALLENAS ISLAND","1020590","2012-02-22 04:00","2012","02","22","04:00","5.6","","3.6","","87","","","","30","","11","","","","101.07","","","","","","NA"
"-124.16","49.35","BALLENAS ISLAND","1020590","2012-02-22 05:00","2012","02","22","05:00","5.8","","3.9","","88","","","","33","","9","","","","101.07","","","","","","NA"
"-124.16","49.35","BALLENAS ISLAND","1020590","2012-02-22 06:00","2012","02","22","06:00","6.7","","2.2","","73","","","","24","","20","","","","101.10","","","","","","NA"
"-124.16","49.35","BALLENAS ISLAND","1020590","2012-02-22 07:00","2012","02","22","07:00","7.1","","1.8","","69","","","","26","","20","","","","101.10","","","","","","NA"
"-124.16","49.35","BALLENAS ISLAND","1020590","2012-02-22 08:00","2012","02","22","08:00","7.0","","2.8","","75","","","","26","","19","","","","101.16","","","","","","NA"
"-124.16","49.35","BALLENAS ISLAND","1020590","2012-02-22 09:00","2012","02","22","09:00","7.4","","1.9","","68","","","","25","","22","","","","101.23","","","","","","NA"
"-124.16","49.35","BALLENAS ISLAND","1020590","2012-02-22 10:00","2012","02","22","10:00","8.1","","2.3","","67","","","","26","","26","","","","101.29","","","","","","NA"
"-124.16","49.35","BALLENAS ISLAND","1020590","2012-02-22 11:00","2012","02","22","11:00","8.1","","2.3","","67","","","","27","","32","","","","101.38","","","","","","NA"
"-124.16","49.35","BALLENAS ISLAND","1020590","2012-02-22 12:00","2012","02","22","12:00","8.7","","2.2","","64","","","","27","","33","","","","101.41","","","","","","NA"
"-124.16","49.35","BALLENAS ISLAND","1020590","2012-02-22 13:00","2012","02","22","13:00","9.0","","1.6","","60","","","","27","","32","","","","101.45","","","","","","NA"
"-124.16","49.35","BALLENAS ISLAND","1020590","2012-02-22 14:00","2012","02","22","14:00","9.2","","2.6","","63","","","","27","","32","","","","101.52","","","","","","NA"
"-124.16","49.35","BALLENAS ISLAND","1020590","2012-02-22 15:00","2012","02","22","15:00","8.2","","3.3","","71","","","","30","","20","","","","101.59","","","","","","NA"
"-124.16","49.35","BALLENAS ISLAND","1020590","2012-02-22 16:00","2012","02","22","16:00","7.3","","4.9","","85","","","","29","","28","","","","101.68","","","","","","NA"
"-124.16","49.35","BALLENAS ISLAND","1020590","2012-02-22 17:00","2012","02","22","17:00","7.0","","4.7","","85","","","","28","","20","","","","101.72","","","","","","NA"
"-124.16","49.35","BALLENAS ISLAND","1020590","2012-02-22 18:00","2012","02","22","18:00","6.8","","4.4","","85","","","","27","","15","","","","101.83","","","","","","NA"
"-124.16","49.35","BALLENAS ISLAND","1020590","2012-02-22 19:00","2012","02","22","19:00","7.3","","3.5","","77","","","","29","","32","","","","101.89","","","","","","NA"
"-124.16","49.35","BALLENAS ISLAND","1020590","2012-02-22 20:00","2012","02","22","20:00","7.0","","4.1","","82","","","","30","","22","","","","102.01","","","","","","NA"
"-124.16","49.35","BALLENAS ISLAND","1020590","2012-02-22 21:00","2012","02","22","21:00","6.9","","3.6","","79","","","","30","","24","","","","102.09","","","","","","NA"
"-124.16","49.35","BALLENAS ISLAND","1020590","2012-02-22 22:00","2012","02","22","22:00","6.7","","3.1","","78","","","","29","","26","","","","102.12","","","","","","NA"
"-124.16","49.35","BALLENAS ISLAND","1020590","2012-02-22 23:00","2012","02","22","23:00","6.6","","2.8","","77","","","","29","","35","","","","102.16","","","","","","NA"
"-124.16","49.35","BALLENAS ISLAND","1020590","2012-02-23 00:00","2012","02","23","00:00","6.5","","2.7","","77","","","","29","","32","","","","102.24","","","","","","NA"
"-124.16","49.35","BALLENAS ISLAND","1020590","2012-02-23 01:00","2012","02","23","01:00","6.3","","2.4","","76","","","","29","","30","","","","102.33","","","","","","NA"
"-124.16","49.35","BALLENAS ISLAND","1020590","2012-02-23 02:00","2012","02","23","02:00","6.3","","1.5","","71","","","","29","","33","","","","102.35","","","","","","NA"
"-124.16","49.35","BALLENAS ISLAND","1020590","2012-02-23 03:00","2012","02","23","03:00","6.1","","2.3","","77","","","","28","","28","","","","102.39","","","","","","NA"
"-124.16","49.35","BALLENAS ISLAND","1020590","2012-02-23 04:00","2012","02","23","04:00","5.8","","1.7","","75","","","","27","","28","","","","102.39","","","","","","NA"
"-124.16","49.35","BALLENAS ISLAND","1020590","2012-02-23 05:00","2012","02","23","05:00","4.0","","0.8","","80","","","","21","","15","","","","102.44","","","","","","NA"
"-124.16","49.35","BALLENAS ISLAND","1020590","2012-02-23 06:00","2012","02","23","06:00","5.6","","1.2","","73","","","","28","","19","","","","102.42","","","","","","NA"
"-124.16","49.35","BALLENAS ISLAND","1020590","2012-02-23 07:00","2012","02","23","07:00","5.5","","1.6","","76","","","","28","","22","","","","102.44","","","","","","NA"
"-124.16","49.35","BALLENAS ISLAND","1020590","2012-02-23 08:00","2012","02","23","08:00","4.9","","1.2","","77","","","","26","","17","","","","102.42","","","","","","NA"
"-124.16","49.35","BALLENAS ISLAND","1020590","2012-02-23 09:00","2012","02","23","09:00","4.7","","1.0","","77","","","","23","","17","","","","102.51","","","","","","NA"
"-124.16","49.35","BALLENAS ISLAND","1020590","2012-02-23 10:00","2012","02","23","10:00","5.7","","1.2","","73","","","","25","","13","","","","102.52","","","","","","NA"
"-124.16","49.35","BALLENAS ISLAND","1020590","2012-02-23 11:00","2012","02","23","11:00","5.8","","1.1","","72","","","","27","","17","","","","102.53","","","","","","NA"
"-124.16","49.35","BALLENAS ISLAND","1020590","2012-02-23 12:00","2012","02","23","12:00","6.1","","1.5","","72","","","","29","","11","","","","102.55","","","","","","NA"
"-124.16","49.35","BALLENAS ISLAND","1020590","2012-02-23 13:00","2012","02","23","13:00","6.0","","1.5","","73","","","","31","","11","","","","102.52","","","","","","NA"
"-124.16","49.35","BALLENAS ISLAND","1020590","2012-02-23 14:00","2012","02","23","14:00","6.9","","1.5","","68","","","","4","","6","","","","102.46","","","","","","NA"
"-124.16","49.35","BALLENAS ISLAND","1020590","2012-02-23 15:00","2012","02","23","15:00","6.4","","1.6","","71","","","","6","","7","","","","102.43","","","","","","NA"
"-124.16","49.35","BALLENAS ISLAND","1020590","2012-02-23 16:00","2012","02","23","16:00","6.4","","0.7","","67","","","","12","","6","","","","102.41","","","","","","NA"
"-124.16","49.35","BALLENAS ISLAND","1020590","2012-02-23 17:00","2012","02","23","17:00","6.1","","0.7","","68","","","","12","","6","","","","102.36","","","","","","NA"
"-124.16","49.35","BALLENAS ISLAND","1020590","2012-02-23 18:00","2012","02","23","18:00","6.1","","1.1","","70","","","","11","","9","","","","102.32","","","","","","NA"
"-124.16","49.35","BALLENAS ISLAND","1020590","2012-02-23 19:00","2012","02","23","19:00","6.3","","0.5","","66","","","","12","","17","","","","102.31","","","","","","NA"
"-124.16","49.35","BALLENAS ISLAND","1020590","2012-02-23 20:00","2012","02","23","20:00","6.2","","1.3","","71","","","","12","","17","","","","102.25","","","","","","NA"
"-124.16","49.35","BALLENAS ISLAND","1020590","2012-02-23 21:00","2012","02","23","21:00","5.8","","1.1","","72","","","","13","","9","","","","102.21","","","","","","NA"
"-124.16","49.35","BALLENAS ISLAND","1020590","2012-02-23 22:00","2012","02","23","22:00","5.7","","1.1","","72","","","","13","","9","","","","102.15","","","","","","NA"
"-124.16","49.35","BALLENAS ISLAND","1020590","2012-02-23 23:00","2012","02","23","23:00","4.8","","1.1","","77","","","","13","","11","","","","102.10","","","","","","NA"
"-124.16","49.35","BALLENAS ISLAND","1020590","2012-02-24 00:00","2012","02","24","00:00","4.1","","1.7","","84","","","","13","","15","","","","102.05","","","","","","NA"
"-124.16","49.35","BALLENAS ISLAND","1020590","2012-02-24 01:00","2012","02","24","01:00","4.0","","1.9","","86","","","","12","","33","","","","101.90","","","","","","NA"
"-124.16","49.35","BALLENAS ISLAND","1020590","2012-02-24 02:00","2012","02","24","02:00","4.5","","2.5","","87","","","","11","","44","","","","101.84","","","","","","NA"
"-124.16","49.35","BALLENAS ISLAND","1020590","2012-02-24 03:00","2012","02","24","03:00","4.7","","2.6","","86","","","","12","","46","","","","101.69","","","","","","NA"
"-124.16","49.35","BALLENAS ISLAND","1020590","2012-02-24 04:00","2012","02","24","04:00","4.4","","2.7","","89","","","","12","","56","","","","101.55","","","","","","NA"
"-124.16","49.35","BALLENAS ISLAND","1020590","2012-02-24 05:00","2012","02","24","05:00","3.9","","2.6","","91","","","","11","","56","","","","101.50","","","","","","NA"
"-124.16","49.35","BALLENAS ISLAND","1020590","2012-02-24 06:00","2012","02","24","06:00","4.4","","2.7","","89","","","","12","","56","","","","101.27","","","","","","NA"
"-124.16","49.35","BALLENAS ISLAND","1020590","2012-02-24 07:00","2012","02","24","07:00","5.0","","3.3","","89","","","","12","","56","","","","101.17","","","","","","NA"
"-124.16","49.35","BALLENAS ISLAND","1020590","2012-02-24 08:00","2012","02","24","08:00","4.9","","3.6","","91","","","","12","","56","","","","101.03","","","","","","NA"
"-124.16","49.35","BALLENAS ISLAND","1020590","2012-02-24 09:00","2012","02","24","09:00","5.1","","3.5","","89","","","","12","","56","","","","100.93","","","","","","NA"
"-124.16","49.35","BALLENAS ISLAND","1020590","2012-02-24 10:00","2012","02","24","10:00","5.0","","3.3","","89","","","","12","","59","","","","100.76","","","","","","NA"
"-124.16","49.35","BALLENAS ISLAND","1020590","2012-02-24 11:00","2012","02","24","11:00","5.0","","3.0","","87","","","","12","","65","","","","100.60","","","","","","NA"
"-124.16","49.35","BALLENAS ISLAND","1020590","2012-02-24 12:00","2012","02","24","12:00","4.1","","3.1","","93","","","","11","","65","","","","100.48","","","","","","NA"
"-124.16","49.35","BALLENAS ISLAND","1020590","2012-02-24 13:00","2012","02","24","13:00","4.3","","3.3","","93","","","","11","","61","","","","100.32","","","","","","NA"
"-124.16","49.35","BALLENAS ISLAND","1020590","2012-02-24 14:00","2012","02","24","14:00","4.7","","3.3","","91","","","","11","","52","","","","100.23","","","","","","NA"
"-124.16","49.35","BALLENAS ISLAND","1020590","2012-02-24 15:00","2012","02","24","15:00","5.3","","4.2","","93","","","","11","","50","","","","100.11","","","","","","NA"
"-124.16","49.35","BALLENAS ISLAND","1020590","2012-02-24 16:00","2012","02","24","16:00","5.6","","4.6","","93","","","","11","","50","","","","99.97","","","","","","NA"
"-124.16","49.35","BALLENAS ISLAND","1020590","2012-02-24 17:00","2012","02","24","17:00","5.8","","4.5","","91","","","","11","","54","","","","99.83","","","","","","NA"
"-124.16","49.35","BALLENAS ISLAND","1020590","2012-02-24 18:00","2012","02","24","18:00","6.0","","4.8","","92","","","","11","","54","","","","99.76","","","","","","NA"
"-124.16","49.35","BALLENAS ISLAND","1020590","2012-02-24 19:00","2012","02","24","19:00","6.0","","4.8","","92","","","","11","","46","","","","99.75","","","","","","NA"
"-124.16","49.35","BALLENAS ISLAND","1020590","2012-02-24 20:00","2012","02","24","20:00","6.1","","4.9","","92","","","","11","","46","","","","99.73","","","","","","NA"
"-124.16","49.35","BALLENAS ISLAND","1020590","2012-02-24 21:00","2012","02","24","21:00","6.5","","4.9","","89","","","","12","","35","","","","99.72","","","","","","NA"
"-124.16","49.35","BALLENAS ISLAND","1020590","2012-02-24 22:00","2012","02","24","22:00","6.0","","4.4","","89","","","","12","","9","","","","99.74","","","","","","NA"
"-124.16","49.35","BALLENAS ISLAND","1020590","2012-02-24 23:00","2012","02","24","23:00","5.9","","4.4","","90","","","","11","","11","","","","99.69","","","","","","NA"
"-124.16","49.35","BALLENAS ISLAND","1020590","2012-02-25 00:00","2012","02","25","00:00","6.0","","4.9","","93","","","","11","","19","","","","99.67","","","","","","NA"
"-124.16","49.35","BALLENAS ISLAND","1020590","2012-02-25 01:00","2012","02","25","01:00","6.0","","4.7","","91","","","","12","","13","","","","99.69","","","","","","NA"
"-124.16","49.35","BALLENAS ISLAND","1020590","2012-02-25 02:00","2012","02","25","02:00","6.0","","4.7","","91","","","","10","","15","","","","99.73","","","","","","NA"
"-124.16","49.35","BALLENAS ISLAND","1020590","2012-02-25 03:00","2012","02","25","03:00","4.0","","1.7","","85","","","","31","","48","","","","99.90","","","","","","NA"
"-124.16","49.35","BALLENAS ISLAND","1020590","2012-02-25 04:00","2012","02","25","04:00","4.6","","1.4","","80","","","","29","","44","","","","100.02","","","","","","NA"
"-124.16","49.35","BALLENAS ISLAND","1020590","2012-02-25 05:00","2012","02","25","05:00","5.3","","1.5","","76","","","","30","","41","","","","100.15","","","","","","NA"
"-124.16","49.35","BALLENAS ISLAND","1020590","2012-02-25 06:00","2012","02","25","06:00","5.4","","0.9","","73","","","","31","","46","","","","100.27","","","","","","NA"
"-124.16","49.35","BALLENAS ISLAND","1020590","2012-02-25 07:00","2012","02","25","07:00","5.4","","1.2","","74","","","","30","","59","","","","100.37","","","","","","NA"
"-124.16","49.35","BALLENAS ISLAND","1020590","2012-02-25 08:00","2012","02","25","08:00","5.2","","1.1","","75","","","","29","","50","","","","100.51","","","","","","NA"
"-124.16","49.35","BALLENAS ISLAND","1020590","2012-02-25 09:00","2012","02","25","09:00","5.3","","0.6","","72","","","","29","","56","","","","100.65","","","","","","NA"
"-124.16","49.35","BALLENAS ISLAND","1020590","2012-02-25 10:00","2012","02","25","10:00","5.1","","0.1","","70","","","","28","","39","","","","100.82","","","","","","NA"
"-124.16","49.35","BALLENAS ISLAND","1020590","2012-02-25 11:00","2012","02","25","11:00","5.9","","0.5","","68","","","","30","","57","","","","100.94","","","","","","NA"
"-124.16","49.35","BALLENAS ISLAND","1020590","2012-02-25 12:00","2012","02","25","12:00","6.1","","-0.4","","63","","","","30","","61","","","","101.07","","","","","","NA"
"-124.16","49.35","BALLENAS ISLAND","1020590","2012-02-25 13:00","2012","02","25","13:00","6.3","","-1.0","","60","","","","31","","61","","","","101.13","","","","","","NA"
"-124.16","49.35","BALLENAS ISLAND","1020590","2012-02-25 14:00","2012","02","25","14:00","6.5","","-1.5","","57","","","","31","","54","","","","101.24","","","","","","NA"
"-124.16","49.35","BALLENAS ISLAND","1020590","2012-02-25 15:00","2012","02","25","15:00","6.4","","-0.7","","60","","","","31","","41","","","","101.34","","","","","","NA"
"-124.16","49.35","BALLENAS ISLAND","1020590","2012-02-25 16:00","2012","02","25","16:00","6.5","","-0.3","","62","","","","31","","41","","","","101.41","","","","","","NA"
"-124.16","49.35","BALLENAS ISLAND","1020590","2012-02-25 17:00","2012","02","25","17:00","6.2","","-0.6","","62","","","","31","","44","","","","101.45","","","","","","NA"
"-124.16","49.35","BALLENAS ISLAND","1020590","2012-02-25 18:00","2012","02","25","18:00","5.8","","-0.8","","63","","","","31","","41","","","","101.53","","","","","","NA"
"-124.16","49.35","BALLENAS ISLAND","1020590","2012-02-25 19:00","2012","02","25","19:00","5.6","","-1.2","","62","","","","30","","52","","","","101.53","","","","","","NA"
"-124.16","49.35","BALLENAS ISLAND","1020590","2012-02-25 20:00","2012","02","25","20:00","5.6","","-2.1","","58","","","","31","","46","","","","101.63","","","","","","NA"
"-124.16","49.35","BALLENAS ISLAND","1020590","2012-02-25 21:00","2012","02","25","21:00","4.8","","-1.1","","66","","","","27","","28","","","","101.69","","","","","","NA"
"-124.16","49.35","BALLENAS ISLAND","1020590","2012-02-25 22:00","2012","02","25","22:00","5.0","","-1.9","","61","","","","30","","52","","","","101.68","","","","","","NA"
"-124.16","49.35","BALLENAS ISLAND","1020590","2012-02-25 23:00","2012","02","25","23:00","4.9","","-2.0","","61","","","","31","","44","","","","101.72","","","","","","NA"
"-124.16","49.35","BALLENAS ISLAND","1020590","2012-02-26 00:00","2012","02","26","00:00","4.5","","-3.4","","56","","","","29","","43","","","","101.75","","","","","","NA"
"-124.16","49.35","BALLENAS ISLAND","1020590","2012-02-26 01:00","2012","02","26","01:00","4.4","","-5.0","","50","","","","29","","43","","","","101.78","","","","","","NA"
"-124.16","49.35","BALLENAS ISLAND","1020590","2012-02-26 02:00","2012","02","26","02:00","4.3","","-5.4","","49","","","","29","","43","","","","101.81","","","","","","NA"
"-124.16","49.35","BALLENAS ISLAND","1020590","2012-02-26 03:00","2012","02","26","03:00","3.6","","-5.2","","53","","","","27","","32","","","","101.81","","","","","","NA"
"-124.16","49.35","BALLENAS ISLAND","1020590","2012-02-26 04:00","2012","02","26","04:00","3.9","","-4.0","","56","","","","30","","46","","","","101.79","","","","","","NA"
"-124.16","49.35","BALLENAS ISLAND","1020590","2012-02-26 05:00","2012","02","26","05:00","3.8","","-3.2","","60","","","","30","","50","","","","101.78","","","","","","NA"
"-124.16","49.35","BALLENAS ISLAND","1020590","2012-02-26 06:00","2012","02","26","06:00","3.5","","-2.5","","65","","","","30","","44","","","","101.80","","","","","","NA"
"-124.16","49.35","BALLENAS ISLAND","1020590","2012-02-26 07:00","2012","02","26","07:00","3.4","","-1.9","","68","","","","30","","43","","","","101.81","","","","","","NA"
"-124.16","49.35","BALLENAS ISLAND","1020590","2012-02-26 08:00","2012","02","26","08:00","3.5","","-0.9","","73","","","","31","","33","","","","101.86","","","","","","NA"
"-124.16","49.35","BALLENAS ISLAND","1020590","2012-02-26 09:00","2012","02","26","09:00","3.3","","-1.5","","71","","","","30","","39","","","","101.89","","","","","","NA"
"-124.16","49.35","BALLENAS ISLAND","1020590","2012-02-26 10:00","2012","02","26","10:00","3.2","","-1.5","","71","","","","30","","32","","","","101.93","","","","","","NA"
"-124.16","49.35","BALLENAS ISLAND","1020590","2012-02-26 11:00","2012","02","26","11:00","3.3","","-1.5","","71","","","","29","","28","","","","101.93","","","","","","NA"
"-124.16","49.35","BALLENAS ISLAND","1020590","2012-02-26 12:00","2012","02","26","12:00","4.0","","-1.5","","67","","","","30","","22","","","","101.96","","","","","","NA"
"-124.16","49.35","BALLENAS ISLAND","1020590","2012-02-26 13:00","2012","02","26","13:00","4.7","","-2.4","","60","","","","29","","20","","","","101.95","","","","","","NA"
"-124.16","49.35","BALLENAS ISLAND","1020590","2012-02-26 14:00","2012","02","26","14:00","4.7","","-3.5","","55","","","","30","","24","","","","101.96","","","","","","NA"
"-124.16","49.35","BALLENAS ISLAND","1020590","2012-02-26 15:00","2012","02","26","15:00","4.9","","-4.0","","52","","","","29","","28","","","","101.97","","","","","","NA"
"-124.16","49.35","BALLENAS ISLAND","1020590","2012-02-26 16:00","2012","02","26","16:00","5.4","","-4.1","","50","","","","30","","32","","","","101.96","","","","","","NA"
"-124.16","49.35","BALLENAS ISLAND","1020590","2012-02-26 17:00","2012","02","26","17:00","5.5","","-5.0","","47","","","","31","","35","","","","101.95","","","","","","NA"
"-124.16","49.35","BALLENAS ISLAND","1020590","2012-02-26 18:00","2012","02","26","18:00","5.3","","-7.3","","40","","","","36","","22","","","","101.99","","","","","","NA"
"-124.16","49.35","BALLENAS ISLAND","1020590","2012-02-26 19:00","2012","02","26","19:00","5.0","","-8.3","","38","","","","2","","33","","","","102.05","","","","","","NA"
"-124.16","49.35","BALLENAS ISLAND","1020590","2012-02-26 20:00","2012","02","26","20:00","4.5","","-6.4","","45","","","","3","","33","","","","102.11","","","","","","NA"
"-124.16","49.35","BALLENAS ISLAND","1020590","2012-02-26 21:00","2012","02","26","21:00","4.0","","-7.6","","42","","","","3","","26","","","","102.16","","","","","","NA"
"-124.16","49.35","BALLENAS ISLAND","1020590","2012-02-26 22:00","2012","02","26","22:00","3.7","","-8.3","","41","","","","5","","22","","","","102.17","","","","","","NA"
"-124.16","49.35","BALLENAS ISLAND","1020590","2012-02-26 23:00","2012","02","26","23:00","3.4","","-6.9","","47","","","","6","","20","","","","102.21","","","","","","NA"
"-124.16","49.35","BALLENAS ISLAND","1020590","2012-02-27 00:00","2012","02","27","00:00","1.6","","-6.6","","54","","","","20","","7","","","","102.23","","","","","","NA"
"-124.16","49.35","BALLENAS ISLAND","1020590","2012-02-27 01:00","2012","02","27","01:00","1.4","","-6.2","","57","","","","22","","11","","","","102.27","","","","","","NA"
"-124.16","49.35","BALLENAS ISLAND","1020590","2012-02-27 02:00","2012","02","27","02:00","1.1","","-6.1","","59","","","","21","","6","","","","102.28","","","","","","NA"
"-124.16","49.35","BALLENAS ISLAND","1020590","2012-02-27 03:00","2012","02","27","03:00","0.9","","-6.8","","56","","","","19","","4","","","","102.21","","","","","","NA"
"-124.16","49.35","BALLENAS ISLAND","1020590","2012-02-27 04:00","2012","02","27","04:00","0.7","","-5.2","","65","","","","18","","7","","","","102.17","","","","","","NA"
"-124.16","49.35","BALLENAS ISLAND","1020590","2012-02-27 05:00","2012","02","27","05:00","0.6","","-4.1","","71","","","","23","","17","","","","102.18","","","","","","NA"
"-124.16","49.35","BALLENAS ISLAND","1020590","2012-02-27 06:00","2012","02","27","06:00","0.3","","-4.6","","70","","","","22","","15","","","","102.21","","","","","","NA"
"-124.16","49.35","BALLENAS ISLAND","1020590","2012-02-27 07:00","2012","02","27","07:00","0.1","","-4.9","","69","","","","22","","13","","","","102.21","","","","","","NA"
"-124.16","49.35","BALLENAS ISLAND","1020590","2012-02-27 08:00","2012","02","27","08:00","0.3","","-5.0","","68","","","","20","","6","","","","102.18","","","","","","NA"
"-124.16","49.35","BALLENAS ISLAND","1020590","2012-02-27 09:00","2012","02","27","09:00","2.3","","-6.2","","53","","","","13","","9","","","","102.13","","","","","","NA"
"-124.16","49.35","BALLENAS ISLAND","1020590","2012-02-27 10:00","2012","02","27","10:00","2.3","","-5.2","","58","","","","12","","17","","","","102.07","","","","","","NA"
"-124.16","49.35","BALLENAS ISLAND","1020590","2012-02-27 11:00","2012","02","27","11:00","2.0","","-4.8","","61","","","","11","","20","","","","102.03","","","","","","NA"
"-124.16","49.35","BALLENAS ISLAND","1020590","2012-02-27 12:00","2012","02","27","12:00","2.5","","-4.8","","59","","","","11","","19","","","","102.02","","","","","","NA"
"-124.16","49.35","BALLENAS ISLAND","1020590","2012-02-27 13:00","2012","02","27","13:00","2.8","","-3.5","","63","","","","10","","24","","","","101.89","","","","","","NA"
"-124.16","49.35","BALLENAS ISLAND","1020590","2012-02-27 14:00","2012","02","27","14:00","2.8","","-4.1","","60","","","","11","","30","","","","101.78","","","","","","NA"
"-124.16","49.35","BALLENAS ISLAND","1020590","2012-02-27 15:00","2012","02","27","15:00","2.9","","-3.7","","62","","","","11","","32","","","","101.69","","","","","","NA"
"-124.16","49.35","BALLENAS ISLAND","1020590","2012-02-27 16:00","2012","02","27","16:00","3.1","","-4.1","","59","","","","12","","30","","","","101.63","","","","","","NA"
"-124.16","49.35","BALLENAS ISLAND","1020590","2012-02-27 17:00","2012","02","27","17:00","3.0","","-4.9","","56","","","","12","","28","","","","101.55","","","","","","NA"
"-124.16","49.35","BALLENAS ISLAND","1020590","2012-02-27 18:00","2012","02","27","18:00","3.0","","-4.1","","60","","","","12","","24","","","","101.48","","","","","","NA"
"-124.16","49.35","BALLENAS ISLAND","1020590","2012-02-27 19:00","2012","02","27","19:00","3.0","","-3.6","","62","","","","12","","30","","","","101.42","","","","","","NA"
"-124.16","49.35","BALLENAS ISLAND","1020590","2012-02-27 20:00","2012","02","27","20:00","3.0","","-3.7","","61","","","","12","","26","","","","101.38","","","","","","NA"
"-124.16","49.35","BALLENAS ISLAND","1020590","2012-02-27 21:00","2012","02","27","21:00","3.2","","-3.1","","63","","","","12","","28","","","","101.33","","","","","","NA"
"-124.16","49.35","BALLENAS ISLAND","1020590","2012-02-27 22:00","2012","02","27","22:00","2.9","","-3.4","","63","","","","12","","28","","","","101.26","","","","","","NA"
"-124.16","49.35","BALLENAS ISLAND","1020590","2012-02-27 23:00","2012","02","27","23:00","2.8","","-3.9","","61","","","","13","","24","","","","101.23","","","","","","NA"
"-124.16","49.35","BALLENAS ISLAND","1020590","2012-02-28 00:00","2012","02","28","00:00","2.7","","-3.4","","64","","","","13","","22","","","","101.17","","","","","","NA"
"-124.16","49.35","BALLENAS ISLAND","1020590","2012-02-28 01:00","2012","02","28","01:00","2.8","","-2.8","","67","","","","13","","19","","","","101.13","","","","","","NA"
"-124.16","49.35","BALLENAS ISLAND","1020590","2012-02-28 02:00","2012","02","28","02:00","3.0","","-2.3","","68","","","","13","","28","","","","101.04","","","","","","NA"
"-124.16","49.35","BALLENAS ISLAND","1020590","2012-02-28 03:00","2012","02","28","03:00","3.0","","-2.0","","70","","","","12","","33","","","","100.95","","","","","","NA"
"-124.16","49.35","BALLENAS ISLAND","1020590","2012-02-28 04:00","2012","02","28","04:00","3.4","","-1.9","","68","","","","12","","37","","","","100.85","","","","","","NA"
"-124.16","49.35","BALLENAS ISLAND","1020590","2012-02-28 05:00","2012","02","28","05:00","3.1","","-1.4","","72","","","","12","","35","","","","100.77","","","","","","NA"
"-124.16","49.35","BALLENAS ISLAND","1020590","2012-02-28 06:00","2012","02","28","06:00","3.4","","-1.7","","69","","","","12","","37","","","","100.69","","","","","","NA"
"-124.16","49.35","BALLENAS ISLAND","1020590","2012-02-28 07:00","2012","02","28","07:00","3.6","","-1.4","","70","","","","12","","48","","","","100.60","","","","","","NA"
"-124.16","49.35","BALLENAS ISLAND","1020590","2012-02-28 08:00","2012","02","28","08:00","3.7","","-0.6","","73","","","","11","","48","","","","100.53","","","","","","NA"
"-124.16","49.35","BALLENAS ISLAND","1020590","2012-02-28 09:00","2012","02","28","09:00","3.9","","-0.7","","72","","","","11","","46","","","","100.49","","","","","","NA"
"-124.16","49.35","BALLENAS ISLAND","1020590","2012-02-28 10:00","2012","02","28","10:00","4.1","","-0.9","","70","","","","12","","54","","","","100.41","","","","","","NA"
"-124.16","49.35","BALLENAS ISLAND","1020590","2012-02-28 11:00","2012","02","28","11:00","4.5","","-1.3","","66","","","","11","","54","","","","100.32","","","","","","NA"
"-124.16","49.35","BALLENAS ISLAND","1020590","2012-02-28 12:00","2012","02","28","12:00","4.7","","-1.0","","67","","","","12","","57","","","","100.23","","","","","","NA"
"-124.16","49.35","BALLENAS ISLAND","1020590","2012-02-28 13:00","2012","02","28","13:00","5.1","","-0.7","","66","","","","11","","59","","","","100.08","","","","","","NA"
"-124.16","49.35","BALLENAS ISLAND","1020590","2012-02-28 14:00","2012","02","28","14:00","5.2","","-0.8","","65","","","","11","","63","","","","99.96","","","","","","NA"
"-124.16","49.35","BALLENAS ISLAND","1020590","2012-02-28 15:00","2012","02","28","15:00","4.1","","0.9","","80","","","","12","","67","","","","99.82","","","","","","NA"
"-124.16","49.35","BALLENAS ISLAND","1020590","2012-02-28 16:00","2012","02","28","16:00","4.2","","1.2","","81","","","","11","","69","","","","99.70","","","","","","NA"
"-124.16","49.35","BALLENAS ISLAND","1020590","2012-02-28 17:00","2012","02","28","17:00","4.9","","-0.5","","68","","","","12","","67","","","","99.58","","","","","","NA"
"-124.16","49.35","BALLENAS ISLAND","1020590","2012-02-28 18:00","2012","02","28","18:00","3.7","","1.4","","85","","","","12","","69","","","","99.52","","","","","","NA"
"-124.16","49.35","BALLENAS ISLAND","1020590","2012-02-28 19:00","2012","02","28","19:00","3.7","","1.9","","88","","","","11","","67","","","","99.40","","","","","","NA"
"-124.16","49.35","BALLENAS ISLAND","1020590","2012-02-28 20:00","2012","02","28","20:00","4.1","","2.0","","86","","","","11","","61","","","","99.36","","","","","","NA"
"-124.16","49.35","BALLENAS ISLAND","1020590","2012-02-28 21:00","2012","02","28","21:00","3.5","","1.8","","89","","","","11","","61","","","","99.35","","","","","","NA"
"-124.16","49.35","BALLENAS ISLAND","1020590","2012-02-28 22:00","2012","02","28","22:00","3.7","","2.2","","90","","","","12","","61","","","","99.31","","","","","","NA"
"-124.16","49.35","BALLENAS ISLAND","1020590","2012-02-28 23:00","2012","02","28","23:00","4.1","","2.7","","91","","","","11","","54","","","","99.32","","","","","","NA"
"-124.16","49.35","BALLENAS ISLAND","1020590","2012-02-29 00:00","2012","02","29","00:00","4.1","","2.6","","90","","","","11","","56","","","","99.31","","","","","","NA"
"-124.16","49.35","BALLENAS ISLAND","1020590","2012-02-29 01:00","2012","02","29","01:00","3.8","","2.3","","90","","","","11","","54","","","","99.34","","","","","","NA"
"-124.16","49.35","BALLENAS ISLAND","1020590","2012-02-29 02:00","2012","02","29","02:00","4.2","","2.8","","91","","","","11","","52","","","","99.38","","","","","","NA"
"-124.16","49.35","BALLENAS ISLAND","1020590","2012-02-29 03:00","2012","02","29","03:00","4.8","","3.3","","90","","","","11","","44","","","","99.42","","","","","","NA"
"-124.16","49.35","BALLENAS ISLAND","1020590","2012-02-29 04:00","2012","02","29","04:00","4.4","","2.6","","88","","","","13","","20","","","","99.45","","","","","","NA"
"-124.16","49.35","BALLENAS ISLAND","1020590","2012-02-29 05:00","2012","02","29","05:00","4.0","","2.1","","87","","","","13","","11","","","","99.48","","","","","","NA"
"-124.16","49.35","BALLENAS ISLAND","1020590","2012-02-29 06:00","2012","02","29","06:00","3.7","","1.4","","85","","","","13","","11","","","","99.53","","","","","","NA"
"-124.16","49.35","BALLENAS ISLAND","1020590","2012-02-29 07:00","2012","02","29","07:00","4.1","","2.2","","87","","","","11","","48","","","","99.55","","","","","","NA"
"-124.16","49.35","BALLENAS ISLAND","1020590","2012-02-29 08:00","2012","02","29","08:00","3.7","","2.2","","90","","","","10","","50","","","","99.61","","","","","","NA"
"-124.16","49.35","BALLENAS ISLAND","1020590","2012-02-29 09:00","2012","02","29","09:00","3.6","","2.2","","91","","","","10","","48","","","","99.65","","","","","","NA"
"-124.16","49.35","BALLENAS ISLAND","1020590","2012-02-29 10:00","2012","02","29","10:00","4.5","","1.9","","83","","","","12","","28","","","","99.70","","","","","","NA"
"-124.16","49.35","BALLENAS ISLAND","1020590","2012-02-29 11:00","2012","02","29","11:00","4.3","","1.2","","80","","","","12","","17","","","","99.76","","","","","","NA"
"-124.16","49.35","BALLENAS ISLAND","1020590","2012-02-29 12:00","2012","02","29","12:00","3.5","","1.8","","89","","","","11","","30","","","","99.84","","","","","","NA"
"-124.16","49.35","BALLENAS ISLAND","1020590","2012-02-29 13:00","2012","02","29","13:00","3.5","","1.9","","89","","","","10","","33","","","","99.87","","","","","","NA"
"-124.16","49.35","BALLENAS ISLAND","1020590","2012-02-29 14:00","2012","02","29","14:00","3.9","","1.8","","86","","","","12","","28","","","","99.90","","","","","","NA"
"-124.16","49.35","BALLENAS ISLAND","1020590","2012-02-29 15:00","2012","02","29","15:00","4.0","","1.5","","84","","","","12","","24","","","","99.96","","","","","","NA"
"-124.16","49.35","BALLENAS ISLAND","1020590","2012-02-29 16:00","2012","02","29","16:00","4.3","","1.5","","82","","","","12","","17","","","","100.00","","","","","","NA"
"-124.16","49.35","BALLENAS ISLAND","1020590","2012-02-29 17:00","2012","02","29","17:00","4.0","","1.6","","84","","","","13","","13","","","","100.03","","","","","","NA"
"-124.16","49.35","BALLENAS ISLAND","1020590","2012-02-29 18:00","2012","02","29","18:00","4.0","","1.0","","81","","","","12","","17","","","","100.07","","","","","","NA"
"-124.16","49.35","BALLENAS ISLAND","1020590","2012-02-29 19:00","2012","02","29","19:00","3.9","","1.5","","84","","","","12","","17","","","","100.14","","","","","","NA"
"-124.16","49.35","BALLENAS ISLAND","1020590","2012-02-29 20:00","2012","02","29","20:00","3.9","","1.2","","83","","","","11","","20","","","","100.21","","","","","","NA"
"-124.16","49.35","BALLENAS ISLAND","1020590","2012-02-29 21:00","2012","02","29","21:00","3.7","","1.7","","87","","","","12","","22","","","","100.30","","","","","","NA"
"-124.16","49.35","BALLENAS ISLAND","1020590","2012-02-29 22:00","2012","02","29","22:00","2.9","","1.3","","89","","","","14","","11","","","","100.39","","","","","","NA"
"-124.16","49.35","BALLENAS ISLAND","1020590","2012-02-29 23:00","2012","02","29","23:00","2.1","","0.8","","91","","","","15","","6","","","","100.48","","","","","","NA"
