"Longitude (x)","Latitude (y)","Station Name","Climate ID","Date/Time (LST)","Year","Month","Day","Time (LST)","Temp (°C)","Temp Flag","Dew Point Temp (°C)","Dew Point Temp Flag","Rel Hum (%)","Rel Hum Flag","Precip. Amount (mm)","Precip. Amount Flag","Wind Dir (10s deg)","Wind Dir Flag","Wind Spd (km/h)","Wind Spd Flag","Visibility (km)","Visibility Flag","Stn Press (kPa)","Stn Press Flag","Hmdx","Hmdx Flag","Wind Chill","Wind Chill Flag","Weather"
"-88.34","49.15","CAMERON FALLS (AUT)","6041110","2012-02-01 00:00","2012","02","01","00:00","-4.7","","-5.8","","92","","","","35","","11","","","","98.00","","","","-9","","NA"
"-88.34","49.15","CAMERON FALLS (AUT)","6041110","2012-02-01 01:00","2012","02","01","01:00","-4.9","","-6.0","","92","","","","35","","9","","","","98.08","","","","-9","","NA"
"-88.34","49.15","CAMERON FALLS (AUT)","6041110","2012-02-01 02:00","2012","02","01","02:00","-6.2","","-7.5","","90","","","","34","","6","","","","98.20","","","","-9","","NA"
"-88.34","49.15","CAMERON FALLS (AUT)","6041110","2012-02-01 03:00","2012","02","01","03:00","-6.9","","-8.2","","90","","","","34","","6","","","","98.28","","","","-10","","NA"
"-88.34","49.15","CAMERON FALLS (AUT)","6041110","2012-02-01 04:00","2012","02","01","04:00","-7.2","","-8.6","","90","","","","33","","6","","","","98.38","","","","-10","","NA"
"-88.34","49.15","CAMERON FALLS (AUT)","6041110","2012-02-01 05:00","2012","02","01","05:00","-8.3","","-9.4","","92","","","","1","","6","","","","98.45","","","","-12","","NA"
"-88.34","49.15","CAMERON FALLS (AUT)","6041110","2012-02-01 06:00","2012","02","01","06:00","-8.8","","-9.9","","92","","","","1","","6","","","","98.49","","","","-12","","NA"
"-88.34","49.15","CAMERON FALLS (AUT)","6041110","2012-02-01 07:00","2012","02","01","07:00","-8.3","","-9.4","","92","","","","33","","4","","","","98.60","","","","-10","","NA"
"-88.34","49.15","CAMERON FALLS (AUT)","6041110","2012-02-01 08:00","2012","02","01","08:00","-8.3","","-9.5","","91","","","","1","","4","","","","98.68","","","","-10","","NA"
"-88.34","49.15","CAMERON FALLS (AUT)","6041110","2012-02-01 09:00","2012","02","01","09:00","-8.4","","-9.5","","92","","","","1","","4","","","","98.75","","","","-11","","NA"
"-88.34","49.15","CAMERON FALLS (AUT)","6041110","2012-02-01 10:00","2012","02","01","10:00","-7.8","","-9.1","","90","","","","3","","2","","","","98.84","","","","-9","","NA"
"-88.34","49.15","CAMERON FALLS (AUT)","6041110","2012-02-01 11:00","2012","02","01","11:00","-6.7","","-8.5","","87","","","","3","","2","","","","98.88","","","","-8","","NA"
"-88.34","49.15","CAMERON FALLS (AUT)","6041110","2012-02-01 12:00","2012","02","01","12:00","-5.8","","-7.8","","86","","","","3","","4","","","","98.87","","","","-8","","NA"
"-88.34","49.15","CAMERON FALLS (AUT)","6041110","2012-02-01 13:00","2012","02","01","13:00","-4.3","","-6.1","","87","","","","4","","6","","","","98.91","","","","-7","","NA"
"-88.34","49.15","CAMERON FALLS (AUT)","6041110","2012-02-01 14:00","2012","02","01","14:00","-3.9","","-5.8","","87","","","","36","","4","","","","98.91","","","","-6","","NA"
"-88.34","49.15","CAMERON FALLS (AUT)","6041110","2012-02-01 15:00","2012","02","01","15:00","-3.3","","-5.2","","87","","","","3","","6","","","","98.92","","","","-6","","NA"
"-88.34","49.15","CAMERON FALLS (AUT)","6041110","2012-02-01 16:00","2012","02","01","16:00","-3.1","","-4.8","","88","","","","3","","4","","","","98.96","","","","-5","","NA"
"-88.34","49.15","CAMERON FALLS (AUT)","6041110","2012-02-01 17:00","2012","02","01","17:00","-3.3","","-4.9","","89","","","","15","","2","","","","99.00","","","","-4","","NA"
"-88.34","49.15","CAMERON FALLS (AUT)","6041110","2012-02-01 18:00","2012","02","01","18:00","-3.6","","-4.7","","92","","","","15","","2","","","","99.02","","","","-4","","NA"
"-88.34","49.15","CAMERON FALLS (AUT)","6041110","2012-02-01 19:00","2012","02","01","19:00","-3.8","","-4.8","","93","","","","14","","4","","","","99.05","","","","-5","","NA"
"-88.34","49.15","CAMERON FALLS (AUT)","6041110","2012-02-01 20:00","2012","02","01","20:00","-3.9","","-4.8","","93","","","","","","0","","","","99.08","","","","","","NA"
"-88.34","49.15","CAMERON FALLS (AUT)","6041110","2012-02-01 21:00","2012","02","01","21:00","-3.9","","-4.8","","93","","","","6","","2","","","","99.07","","","","-5","","NA"
"-88.34","49.15","CAMERON FALLS (AUT)","6041110","2012-02-01 22:00","2012","02","01","22:00","-4.1","","-4.9","","94","","","","18","","2","","","","99.10","","","","-5","","NA"
"-88.34","49.15","CAMERON FALLS (AUT)","6041110","2012-02-01 23:00","2012","02","01","23:00","-4.2","","-5.1","","93","","","","14","","2","","","","99.10","","","","-5","","NA"
"-88.34","49.15","CAMERON FALLS (AUT)","6041110","2012-02-02 00:00","2012","02","02","00:00","-4.2","","-5.0","","94","","","","","","0","","","","99.10","","","","","","NA"
"-88.34","49.15","CAMERON FALLS (AUT)","6041110","2012-02-02 01:00","2012","02","02","01:00","-4.1","","-4.9","","94","","","","10","","2","","","","99.13","","","","-5","","NA"
"-88.34","49.15","CAMERON FALLS (AUT)","6041110","2012-02-02 02:00","2012","02","02","02:00","-4.3","","-5.1","","94","","","","7","","2","","","","99.14","","","","-5","","NA"
"-88.34","49.15","CAMERON FALLS (AUT)","6041110","2012-02-02 03:00","2012","02","02","03:00","-4.3","","-5.0","","95","","","","","","0","","","","99.17","","","","","","NA"
"-88.34","49.15","CAMERON FALLS (AUT)","6041110","2012-02-02 04:00","2012","02","02","04:00","-4.1","","-4.8","","95","","","","2","","4","","","","99.17","","","","-6","","NA"
"-88.34","49.15","CAMERON FALLS (AUT)","6041110","2012-02-02 05:00","2012","02","02","05:00","-4.3","","-5.0","","95","","","","","","0","","","","99.17","","","","","","NA"
"-88.34","49.15","CAMERON FALLS (AUT)","6041110","2012-02-02 06:00","2012","02","02","06:00","-4.1","","-4.7","","96","","","","2","","2","","","","99.20","","","","-5","","NA"
"-88.34","49.15","CAMERON FALLS (AUT)","6041110","2012-02-02 07:00","2012","02","02","07:00","-4.2","","-4.9","","95","","","","","","0","","","","99.21","","","","","","NA"
"-88.34","49.15","CAMERON FALLS (AUT)","6041110","2012-02-02 08:00","2012","02","02","08:00","-4.1","","-4.8","","95","","","","17","","2","","","","99.24","","","","-5","","NA"
"-88.34","49.15","CAMERON FALLS (AUT)","6041110","2012-02-02 09:00","2012","02","02","09:00","-4.1","","-4.7","","96","","","","","","0","","","","99.30","","","","","","NA"
"-88.34","49.15","CAMERON FALLS (AUT)","6041110","2012-02-02 10:00","2012","02","02","10:00","-3.6","","-4.3","","95","","","","4","","2","","","","99.31","","","","-4","","NA"
"-88.34","49.15","CAMERON FALLS (AUT)","6041110","2012-02-02 11:00","2012","02","02","11:00","-3.1","","-4.1","","93","","","","","","0","","","","99.31","","","","","","NA"
"-88.34","49.15","CAMERON FALLS (AUT)","6041110","2012-02-02 12:00","2012","02","02","12:00","-2.7","","-3.8","","92","","","","27","","2","","","","99.37","","","","-3","","NA"
"-88.34","49.15","CAMERON FALLS (AUT)","6041110","2012-02-02 13:00","2012","02","02","13:00","-1.6","","-3.0","","90","","","","","","0","","","","99.38","","","","","","NA"
"-88.34","49.15","CAMERON FALLS (AUT)","6041110","2012-02-02 14:00","2012","02","02","14:00","-0.5","","-1.9","","90","","","","","","0","","","","99.38","","","","","","NA"
"-88.34","49.15","CAMERON FALLS (AUT)","6041110","2012-02-02 15:00","2012","02","02","15:00","-0.5","","-2.1","","89","","","","3","","4","","","","99.38","","","","-2","","NA"
"-88.34","49.15","CAMERON FALLS (AUT)","6041110","2012-02-02 16:00","2012","02","02","16:00","0.0","","-1.5","","90","","","","4","","2","","","","99.43","","","","-1","","NA"
"-88.34","49.15","CAMERON FALLS (AUT)","6041110","2012-02-02 17:00","2012","02","02","17:00","0.4","","-0.7","","92","","","","19","","2","","","","99.49","","","","","","NA"
"-88.34","49.15","CAMERON FALLS (AUT)","6041110","2012-02-02 18:00","2012","02","02","18:00","0.7","","-0.7","","90","","","","28","","4","","","","99.54","","","","","","NA"
"-88.34","49.15","CAMERON FALLS (AUT)","6041110","2012-02-02 19:00","2012","02","02","19:00","0.8","","-0.6","","90","","","","28","","4","","","","99.60","","","","","","NA"
"-88.34","49.15","CAMERON FALLS (AUT)","6041110","2012-02-02 20:00","2012","02","02","20:00","0.6","","-0.8","","90","","","","30","","4","","","","99.66","","","","","","NA"
"-88.34","49.15","CAMERON FALLS (AUT)","6041110","2012-02-02 21:00","2012","02","02","21:00","-0.4","","-1.2","","94","","","","1","","6","","","","99.71","","","","-2","","NA"
"-88.34","49.15","CAMERON FALLS (AUT)","6041110","2012-02-02 22:00","2012","02","02","22:00","0.3","","-1.2","","90","","","","33","","4","","","","99.77","","","","","","NA"
"-88.34","49.15","CAMERON FALLS (AUT)","6041110","2012-02-02 23:00","2012","02","02","23:00","-0.2","","-1.5","","91","","","","35","","7","","","","99.80","","","","-3","","NA"
"-88.34","49.15","CAMERON FALLS (AUT)","6041110","2012-02-03 00:00","2012","02","03","00:00","-0.5","","-1.6","","92","","","","26","","2","","","","99.84","","","","-1","","NA"
"-88.34","49.15","CAMERON FALLS (AUT)","6041110","2012-02-03 01:00","2012","02","03","01:00","-0.6","","-1.7","","92","","","","34","","4","","","","99.89","","","","-2","","NA"
"-88.34","49.15","CAMERON FALLS (AUT)","6041110","2012-02-03 02:00","2012","02","03","02:00","-0.5","","-2.1","","89","","","","36","","13","","","","99.91","","","","-5","","NA"
"-88.34","49.15","CAMERON FALLS (AUT)","6041110","2012-02-03 03:00","2012","02","03","03:00","-2.9","","-5.0","","85","","","","35","","17","","","","100.04","","","","-8","","NA"
"-88.34","49.15","CAMERON FALLS (AUT)","6041110","2012-02-03 04:00","2012","02","03","04:00","-4.3","","-6.2","","87","","","","1","","19","","","","100.13","","","","-10","","NA"
"-88.34","49.15","CAMERON FALLS (AUT)","6041110","2012-02-03 05:00","2012","02","03","05:00","-5.4","","-7.5","","85","","","","1","","20","","","","100.14","","","","-12","","NA"
"-88.34","49.15","CAMERON FALLS (AUT)","6041110","2012-02-03 06:00","2012","02","03","06:00","-6.1","","-8.0","","86","","","","36","","13","","","","100.20","","","","-11","","NA"
"-88.34","49.15","CAMERON FALLS (AUT)","6041110","2012-02-03 07:00","2012","02","03","07:00","-6.9","","-9.2","","84","","","","36","","19","","","","100.26","","","","-14","","NA"
"-88.34","49.15","CAMERON FALLS (AUT)","6041110","2012-02-03 08:00","2012","02","03","08:00","-7.6","","-9.6","","86","","","","1","","24","","","","100.31","","","","-16","","NA"
"-88.34","49.15","CAMERON FALLS (AUT)","6041110","2012-02-03 09:00","2012","02","03","09:00","-8.4","","-9.7","","90","","","","1","","11","","","","100.38","","","","-14","","NA"
"-88.34","49.15","CAMERON FALLS (AUT)","6041110","2012-02-03 10:00","2012","02","03","10:00","-8.6","","-10.5","","86","","","","35","","6","","","","100.44","","","","-12","","NA"
"-88.34","49.15","CAMERON FALLS (AUT)","6041110","2012-02-03 11:00","2012","02","03","11:00","-8.4","","-10.6","","84","","","","2","","9","","","","100.45","","","","-13","","NA"
"-88.34","49.15","CAMERON FALLS (AUT)","6041110","2012-02-03 12:00","2012","02","03","12:00","-8.3","","-10.1","","87","","","","36","","6","","","","100.43","","","","-12","","NA"
"-88.34","49.15","CAMERON FALLS (AUT)","6041110","2012-02-03 13:00","2012","02","03","13:00","-7.4","","-9.4","","86","","","","36","","4","","","","100.29","","","","-9","","NA"
"-88.34","49.15","CAMERON FALLS (AUT)","6041110","2012-02-03 14:00","2012","02","03","14:00","-6.2","","-8.3","","85","","","","36","","7","","","","100.18","","","","-10","","NA"
"-88.34","49.15","CAMERON FALLS (AUT)","6041110","2012-02-03 15:00","2012","02","03","15:00","-4.5","","-7.3","","81","","","","3","","6","","","","100.15","","","","-7","","NA"
"-88.34","49.15","CAMERON FALLS (AUT)","6041110","2012-02-03 16:00","2012","02","03","16:00","-3.5","","-6.3","","81","","","","1","","9","","","","100.12","","","","-7","","NA"
"-88.34","49.15","CAMERON FALLS (AUT)","6041110","2012-02-03 17:00","2012","02","03","17:00","-2.9","","-5.7","","81","","","","7","","2","","","","100.14","","","","-4","","NA"
"-88.34","49.15","CAMERON FALLS (AUT)","6041110","2012-02-03 18:00","2012","02","03","18:00","-3.9","","-5.8","","87","","","","17","","4","","","","100.11","","","","-6","","NA"
"-88.34","49.15","CAMERON FALLS (AUT)","6041110","2012-02-03 19:00","2012","02","03","19:00","-4.9","","-6.1","","91","","","","19","","4","","","","100.05","","","","-7","","NA"
"-88.34","49.15","CAMERON FALLS (AUT)","6041110","2012-02-03 20:00","2012","02","03","20:00","-4.9","","-6.1","","91","","","","5","","2","","","","100.04","","","","-6","","NA"
"-88.34","49.15","CAMERON FALLS (AUT)","6041110","2012-02-03 21:00","2012","02","03","21:00","-5.2","","-6.2","","93","","","","2","","6","","","","100.00","","","","-8","","NA"
"-88.34","49.15","CAMERON FALLS (AUT)","6041110","2012-02-03 22:00","2012","02","03","22:00","-5.4","","-6.4","","93","","","","27","","2","","","","99.97","","","","-6","","NA"
"-88.34","49.15","CAMERON FALLS (AUT)","6041110","2012-02-03 23:00","2012","02","03","23:00","-5.2","","-6.3","","92","","","","27","","2","","","","99.90","","","","-6","","NA"
"-88.34","49.15","CAMERON FALLS (AUT)","6041110","2012-02-04 00:00","2012","02","04","00:00","-5.1","","-6.1","","93","","","","6","","2","","","","99.84","","","","-6","","NA"
"-88.34","49.15","CAMERON FALLS (AUT)","6041110","2012-02-04 01:00","2012","02","04","01:00","-5.2","","-6.2","","93","","","","15","","4","","","","99.78","","","","-7","","NA"
"-88.34","49.15","CAMERON FALLS (AUT)","6041110","2012-02-04 02:00","2012","02","04","02:00","-6.5","","-7.2","","95","","","","4","","4","","","","99.73","","","","-8","","NA"
"-88.34","49.15","CAMERON FALLS (AUT)","6041110","2012-02-04 03:00","2012","02","04","03:00","-6.6","","-7.1","","96","","","","29","","2","","","","99.70","","","","-8","","NA"
"-88.34","49.15","CAMERON FALLS (AUT)","6041110","2012-02-04 04:00","2012","02","04","04:00","-7.7","","-8.3","","95","","","","20","","4","","","","99.68","","","","-10","","NA"
"-88.34","49.15","CAMERON FALLS (AUT)","6041110","2012-02-04 05:00","2012","02","04","05:00","-9.1","","-9.9","","94","","","","21","","2","","","","99.70","","","","-10","","NA"
"-88.34","49.15","CAMERON FALLS (AUT)","6041110","2012-02-04 06:00","2012","02","04","06:00","-10.3","","-11.0","","95","","","","1","","2","","","","99.65","","","","-11","","NA"
"-88.34","49.15","CAMERON FALLS (AUT)","6041110","2012-02-04 07:00","2012","02","04","07:00","-11.0","","-11.9","","93","","","","2","","2","","","","99.61","","","","-12","","NA"
"-88.34","49.15","CAMERON FALLS (AUT)","6041110","2012-02-04 08:00","2012","02","04","08:00","-11.6","","-12.7","","92","","","","","","0","","","","99.57","","","","","","NA"
"-88.34","49.15","CAMERON FALLS (AUT)","6041110","2012-02-04 09:00","2012","02","04","09:00","-11.1","","-12.1","","92","","","","","","0","","","","99.54","","","","","","NA"
"-88.34","49.15","CAMERON FALLS (AUT)","6041110","2012-02-04 10:00","2012","02","04","10:00","-9.0","","-9.9","","93","","","","19","","2","","","","99.54","","","","-10","","NA"
"-88.34","49.15","CAMERON FALLS (AUT)","6041110","2012-02-04 11:00","2012","02","04","11:00","-7.2","","-7.9","","95","","","","36","","2","","","","99.50","","","","-8","","NA"
"-88.34","49.15","CAMERON FALLS (AUT)","6041110","2012-02-04 12:00","2012","02","04","12:00","-5.5","","-6.2","","95","","","","","","0","","","","99.49","","","","","","NA"
"-88.34","49.15","CAMERON FALLS (AUT)","6041110","2012-02-04 13:00","2012","02","04","13:00","-2.0","","-3.3","","91","","","","33","","11","","","","99.44","","","","-6","","NA"
"-88.34","49.15","CAMERON FALLS (AUT)","6041110","2012-02-04 14:00","2012","02","04","14:00","-1.3","","-3.3","","86","","","","36","","15","","","","99.44","","","","-6","","NA"
"-88.34","49.15","CAMERON FALLS (AUT)","6041110","2012-02-04 15:00","2012","02","04","15:00","-1.6","","-3.6","","86","","","","1","","19","","","","99.44","","","","-7","","NA"
"-88.34","49.15","CAMERON FALLS (AUT)","6041110","2012-02-04 16:00","2012","02","04","16:00","-1.5","","-3.7","","85","","","","35","","9","","","","99.46","","","","-5","","NA"
"-88.34","49.15","CAMERON FALLS (AUT)","6041110","2012-02-04 17:00","2012","02","04","17:00","-1.5","","-3.7","","85","","","","36","","13","","","","99.52","","","","-6","","NA"
"-88.34","49.15","CAMERON FALLS (AUT)","6041110","2012-02-04 18:00","2012","02","04","18:00","-1.8","","-4.1","","84","","","","36","","9","","","","99.58","","","","-5","","NA"
"-88.34","49.15","CAMERON FALLS (AUT)","6041110","2012-02-04 19:00","2012","02","04","19:00","-2.8","","-4.6","","87","","","","32","","2","","","","99.60","","","","-4","","NA"
"-88.34","49.15","CAMERON FALLS (AUT)","6041110","2012-02-04 20:00","2012","02","04","20:00","-4.9","","-5.7","","94","","","","30","","2","","","","99.65","","","","-6","","NA"
"-88.34","49.15","CAMERON FALLS (AUT)","6041110","2012-02-04 21:00","2012","02","04","21:00","-6.0","","-6.5","","96","","","","","","0","","","","99.65","","","","","","NA"
"-88.34","49.15","CAMERON FALLS (AUT)","6041110","2012-02-04 22:00","2012","02","04","22:00","-9.5","","-10.3","","94","","","","1","","4","","","","99.62","","","","-12","","NA"
"-88.34","49.15","CAMERON FALLS (AUT)","6041110","2012-02-04 23:00","2012","02","04","23:00","-10.7","","-11.7","","92","","","","1","","4","","","","99.58","","","","-13","","NA"
"-88.34","49.15","CAMERON FALLS (AUT)","6041110","2012-02-05 00:00","2012","02","05","00:00","-11.2","","-12.3","","92","","","","","","0","","","","99.53","","","","","","NA"
"-88.34","49.15","CAMERON FALLS (AUT)","6041110","2012-02-05 01:00","2012","02","05","01:00","-11.5","","-12.6","","92","","","","","","0","","","","99.55","","","","","","NA"
"-88.34","49.15","CAMERON FALLS (AUT)","6041110","2012-02-05 02:00","2012","02","05","02:00","-12.5","","-13.7","","91","","","","2","","4","","","","99.52","","","","-15","","NA"
"-88.34","49.15","CAMERON FALLS (AUT)","6041110","2012-02-05 03:00","2012","02","05","03:00","-12.9","","-14.2","","90","","","","1","","2","","","","99.54","","","","-14","","NA"
"-88.34","49.15","CAMERON FALLS (AUT)","6041110","2012-02-05 04:00","2012","02","05","04:00","-13.9","","-15.3","","89","","","","","","0","","","","99.52","","","","","","NA"
"-88.34","49.15","CAMERON FALLS (AUT)","6041110","2012-02-05 05:00","2012","02","05","05:00","-13.5","","-14.8","","90","","","","","","0","","","","99.51","","","","","","NA"
"-88.34","49.15","CAMERON FALLS (AUT)","6041110","2012-02-05 06:00","2012","02","05","06:00","-13.6","","-15.0","","89","","","","","","0","","","","99.48","","","","","","NA"
"-88.34","49.15","CAMERON FALLS (AUT)","6041110","2012-02-05 07:00","2012","02","05","07:00","-14.1","","-15.5","","89","","","","","","0","","","","99.43","","","","","","NA"
"-88.34","49.15","CAMERON FALLS (AUT)","6041110","2012-02-05 08:00","2012","02","05","08:00","-13.8","","-15.1","","90","","","","","","0","","","","99.41","","","","","","NA"
"-88.34","49.15","CAMERON FALLS (AUT)","6041110","2012-02-05 09:00","2012","02","05","09:00","-14.3","","-15.7","","89","","","","","","0","","","","99.32","","","","","","NA"
"-88.34","49.15","CAMERON FALLS (AUT)","6041110","2012-02-05 10:00","2012","02","05","10:00","-12.4","","-13.6","","91","","","","","","0","","","","99.21","","","","","","NA"
"-88.34","49.15","CAMERON FALLS (AUT)","6041110","2012-02-05 11:00","2012","02","05","11:00","-9.3","","-10.2","","93","","","","","","0","","","","99.15","","","","","","NA"
"-88.34","49.15","CAMERON FALLS (AUT)","6041110","2012-02-05 12:00","2012","02","05","12:00","-6.2","","-7.1","","93","","","","4","","2","","","","99.04","","","","-7","","NA"
"-88.34","49.15","CAMERON FALLS (AUT)","6041110","2012-02-05 13:00","2012","02","05","13:00","-3.6","","-4.2","","96","","","","1","","2","","","","98.90","","","","-4","","NA"
"-88.34","49.15","CAMERON FALLS (AUT)","6041110","2012-02-05 14:00","2012","02","05","14:00","-0.5","","-2.5","","86","","","","17","","4","","","","98.76","","","","-2","","NA"
"-88.34","49.15","CAMERON FALLS (AUT)","6041110","2012-02-05 15:00","2012","02","05","15:00","1.8","","-2.7","","72","","","","17","","6","","","","98.66","","","","","","NA"
"-88.34","49.15","CAMERON FALLS (AUT)","6041110","2012-02-05 16:00","2012","02","05","16:00","2.8","","-2.4","","69","","","","16","","4","","","","98.58","","","","","","NA"
"-88.34","49.15","CAMERON FALLS (AUT)","6041110","2012-02-05 17:00","2012","02","05","17:00","2.2","","-1.3","","78","","","","7","","4","","","","98.51","","","","","","NA"
"-88.34","49.15","CAMERON FALLS (AUT)","6041110","2012-02-05 18:00","2012","02","05","18:00","-1.0","","-2.3","","91","","","","36","","4","","","","98.50","","","","-2","","NA"
"-88.34","49.15","CAMERON FALLS (AUT)","6041110","2012-02-05 19:00","2012","02","05","19:00","-3.1","","-3.8","","95","","","","2","","2","","","","98.49","","","","-4","","NA"
"-88.34","49.15","CAMERON FALLS (AUT)","6041110","2012-02-05 20:00","2012","02","05","20:00","0.0","","-5.3","","67","","","","24","","6","","","","98.42","","","","-2","","NA"
"-88.34","49.15","CAMERON FALLS (AUT)","6041110","2012-02-05 21:00","2012","02","05","21:00","-0.3","","-5.6","","67","","","","24","","7","","","","98.38","","","","-3","","NA"
"-88.34","49.15","CAMERON FALLS (AUT)","6041110","2012-02-05 22:00","2012","02","05","22:00","-0.5","","-5.1","","71","","","","26","","11","","","","98.35","","","","-4","","NA"
"-88.34","49.15","CAMERON FALLS (AUT)","6041110","2012-02-05 23:00","2012","02","05","23:00","-1.5","","-4.9","","78","","","","26","","2","","","","98.34","","","","-2","","NA"
"-88.34","49.15","CAMERON FALLS (AUT)","6041110","2012-02-06 00:00","2012","02","06","00:00","-1.7","","-5.2","","77","","","","26","","4","","","","98.29","","","","-3","","NA"
"-88.34","49.15","CAMERON FALLS (AUT)","6041110","2012-02-06 01:00","2012","02","06","01:00","-2.5","","-5.4","","80","","","","35","","4","","","","98.29","","","","-4","","NA"
"-88.34","49.15","CAMERON FALLS (AUT)","6041110","2012-02-06 02:00","2012","02","06","02:00","-1.9","","-5.4","","77","","","","27","","7","","","","98.26","","","","-5","","NA"
"-88.34","49.15","CAMERON FALLS (AUT)","6041110","2012-02-06 03:00","2012","02","06","03:00","-5.4","","-7.0","","88","","","","1","","6","","","","98.28","","","","-8","","NA"
"-88.34","49.15","CAMERON FALLS (AUT)","6041110","2012-02-06 04:00","2012","02","06","04:00","-2.5","","-5.5","","80","","","","29","","6","","","","98.27","","","","-5","","NA"
"-88.34","49.15","CAMERON FALLS (AUT)","6041110","2012-02-06 05:00","2012","02","06","05:00","-3.7","","-5.7","","86","","","","33","","4","","","","98.27","","","","-5","","NA"
"-88.34","49.15","CAMERON FALLS (AUT)","6041110","2012-02-06 06:00","2012","02","06","06:00","-3.7","","-5.9","","85","","","","30","","4","","","","98.28","","","","-5","","NA"
"-88.34","49.15","CAMERON FALLS (AUT)","6041110","2012-02-06 07:00","2012","02","06","07:00","-5.9","","-6.9","","93","","","","1","","7","","","","98.33","","","","-9","","NA"
"-88.34","49.15","CAMERON FALLS (AUT)","6041110","2012-02-06 08:00","2012","02","06","08:00","-4.6","","-5.6","","93","","","","36","","4","","","","98.39","","","","-6","","NA"
"-88.34","49.15","CAMERON FALLS (AUT)","6041110","2012-02-06 09:00","2012","02","06","09:00","-3.2","","-5.2","","86","","","","34","","6","","","","98.46","","","","-6","","NA"
"-88.34","49.15","CAMERON FALLS (AUT)","6041110","2012-02-06 10:00","2012","02","06","10:00","-2.2","","-4.6","","84","","","","36","","11","","","","98.57","","","","-6","","NA"
"-88.34","49.15","CAMERON FALLS (AUT)","6041110","2012-02-06 11:00","2012","02","06","11:00","-1.8","","-4.3","","83","","","","36","","17","","","","98.65","","","","-7","","NA"
"-88.34","49.15","CAMERON FALLS (AUT)","6041110","2012-02-06 12:00","2012","02","06","12:00","-1.7","","-3.8","","86","","","","36","","20","","","","98.72","","","","-7","","NA"
"-88.34","49.15","CAMERON FALLS (AUT)","6041110","2012-02-06 13:00","2012","02","06","13:00","-3.5","","-6.7","","78","","","","36","","28","","","","98.87","","","","-11","","NA"
"-88.34","49.15","CAMERON FALLS (AUT)","6041110","2012-02-06 14:00","2012","02","06","14:00","-5.5","","-9.1","","76","","","","36","","28","","","","99.00","","","","-13","","NA"
"-88.34","49.15","CAMERON FALLS (AUT)","6041110","2012-02-06 15:00","2012","02","06","15:00","-6.4","","-10.6","","72","","","","36","","26","","","","99.13","","","","-14","","NA"
"-88.34","49.15","CAMERON FALLS (AUT)","6041110","2012-02-06 16:00","2012","02","06","16:00","-6.8","","-10.9","","73","","","","36","","32","","","","99.29","","","","-16","","NA"
"-88.34","49.15","CAMERON FALLS (AUT)","6041110","2012-02-06 17:00","2012","02","06","17:00","-7.5","","-11.5","","73","","","","1","","30","","","","99.42","","","","-16","","NA"
"-88.34","49.15","CAMERON FALLS (AUT)","6041110","2012-02-06 18:00","2012","02","06","18:00","-8.3","","-12.6","","71","","","","36","","26","","","","99.54","","","","-17","","NA"
"-88.34","49.15","CAMERON FALLS (AUT)","6041110","2012-02-06 19:00","2012","02","06","19:00","-9.3","","-13.4","","72","","","","36","","20","","","","99.65","","","","-17","","NA"
"-88.34","49.15","CAMERON FALLS (AUT)","6041110","2012-02-06 20:00","2012","02","06","20:00","-10.0","","-13.6","","75","","","","36","","20","","","","99.74","","","","-18","","NA"
"-88.34","49.15","CAMERON FALLS (AUT)","6041110","2012-02-06 21:00","2012","02","06","21:00","-11.0","","-14.8","","73","","","","35","","15","","","","99.87","","","","-18","","NA"
"-88.34","49.15","CAMERON FALLS (AUT)","6041110","2012-02-06 22:00","2012","02","06","22:00","-12.2","","-15.5","","76","","","","36","","17","","","","99.95","","","","-20","","NA"
"-88.34","49.15","CAMERON FALLS (AUT)","6041110","2012-02-06 23:00","2012","02","06","23:00","-12.7","","-15.5","","80","","","","36","","20","","","","100.04","","","","-21","","NA"
"-88.34","49.15","CAMERON FALLS (AUT)","6041110","2012-02-07 00:00","2012","02","07","00:00","-13.3","","-15.6","","83","","","","1","","15","","","","100.16","","","","-21","","NA"
"-88.34","49.15","CAMERON FALLS (AUT)","6041110","2012-02-07 01:00","2012","02","07","01:00","-15.2","","-18.8","","74","","","","36","","13","","","","100.23","","","","-23","","NA"
"-88.34","49.15","CAMERON FALLS (AUT)","6041110","2012-02-07 02:00","2012","02","07","02:00","-15.9","","-20.2","","69","","","","36","","13","","","","100.28","","","","-23","","NA"
"-88.34","49.15","CAMERON FALLS (AUT)","6041110","2012-02-07 03:00","2012","02","07","03:00","-16.8","","-20.2","","75","","","","36","","9","","","","100.35","","","","-23","","NA"
"-88.34","49.15","CAMERON FALLS (AUT)","6041110","2012-02-07 04:00","2012","02","07","04:00","-17.7","","-21.6","","72","","","","36","","6","","","","100.40","","","","-22","","NA"
"-88.34","49.15","CAMERON FALLS (AUT)","6041110","2012-02-07 05:00","2012","02","07","05:00","-18.4","","-22.3","","71","","","","34","","6","","","","100.42","","","","-23","","NA"
"-88.34","49.15","CAMERON FALLS (AUT)","6041110","2012-02-07 06:00","2012","02","07","06:00","-19.0","","-22.3","","75","","","","32","","4","","","","100.46","","","","-22","","NA"
"-88.34","49.15","CAMERON FALLS (AUT)","6041110","2012-02-07 07:00","2012","02","07","07:00","-20.0","","-21.9","","85","","","","36","","4","","","","100.50","","","","-23","","NA"
"-88.34","49.15","CAMERON FALLS (AUT)","6041110","2012-02-07 08:00","2012","02","07","08:00","-20.0","","-22.7","","79","","","","36","","4","","","","100.51","","","","-23","","NA"
"-88.34","49.15","CAMERON FALLS (AUT)","6041110","2012-02-07 09:00","2012","02","07","09:00","-20.6","","-22.9","","82","","","","6","","2","","","","100.56","","","","-22","","NA"
"-88.34","49.15","CAMERON FALLS (AUT)","6041110","2012-02-07 10:00","2012","02","07","10:00","-17.8","","-22.2","","68","","","","5","","4","","","","100.53","","","","-21","","NA"
"-88.34","49.15","CAMERON FALLS (AUT)","6041110","2012-02-07 11:00","2012","02","07","11:00","-14.9","","-23.3","","49","","","","28","","6","","","","100.46","","","","-19","","NA"
"-88.34","49.15","CAMERON FALLS (AUT)","6041110","2012-02-07 12:00","2012","02","07","12:00","-12.9","","-23.9","","39","","","","26","","9","","","","100.42","","","","-18","","NA"
"-88.34","49.15","CAMERON FALLS (AUT)","6041110","2012-02-07 13:00","2012","02","07","13:00","-11.0","","-23.4","","35","","","","31","","9","","","","100.32","","","","-16","","NA"
"-88.34","49.15","CAMERON FALLS (AUT)","6041110","2012-02-07 14:00","2012","02","07","14:00","-8.8","","-22.1","","33","","","","27","","9","","","","100.21","","","","-13","","NA"
"-88.34","49.15","CAMERON FALLS (AUT)","6041110","2012-02-07 15:00","2012","02","07","15:00","-6.6","","-23.6","","25","","","","25","","13","","","","100.08","","","","-12","","NA"
"-88.34","49.15","CAMERON FALLS (AUT)","6041110","2012-02-07 16:00","2012","02","07","16:00","-5.6","","-22.1","","26","","","","27","","11","","","","100.05","","","","-10","","NA"
"-88.34","49.15","CAMERON FALLS (AUT)","6041110","2012-02-07 17:00","2012","02","07","17:00","-5.4","","-21.2","","28","","","","24","","9","","","","99.96","","","","-9","","NA"
"-88.34","49.15","CAMERON FALLS (AUT)","6041110","2012-02-07 18:00","2012","02","07","18:00","-6.7","","-20.9","","31","","","","22","","6","","","","99.87","","","","-10","","NA"
"-88.34","49.15","CAMERON FALLS (AUT)","6041110","2012-02-07 19:00","2012","02","07","19:00","-7.8","","-20.5","","35","","","","24","","6","","","","99.78","","","","-11","","NA"
"-88.34","49.15","CAMERON FALLS (AUT)","6041110","2012-02-07 20:00","2012","02","07","20:00","-8.0","","-21.0","","34","","","","24","","7","","","","99.68","","","","-12","","NA"
"-88.34","49.15","CAMERON FALLS (AUT)","6041110","2012-02-07 21:00","2012","02","07","21:00","-8.6","","-20.6","","37","","","","25","","7","","","","99.62","","","","-12","","NA"
"-88.34","49.15","CAMERON FALLS (AUT)","6041110","2012-02-07 22:00","2012","02","07","22:00","-9.1","","-20.5","","39","","","","24","","7","","","","99.58","","","","-13","","NA"
"-88.34","49.15","CAMERON FALLS (AUT)","6041110","2012-02-07 23:00","2012","02","07","23:00","-9.4","","-20.7","","39","","","","25","","7","","","","99.56","","","","-13","","NA"
"-88.34","49.15","CAMERON FALLS (AUT)","6041110","2012-02-08 00:00","2012","02","08","00:00","-9.7","","-20.2","","42","","","","26","","7","","","","99.49","","","","-14","","NA"
"-88.34","49.15","CAMERON FALLS (AUT)","6041110","2012-02-08 01:00","2012","02","08","01:00","-10.2","","-19.4","","47","","","","33","","4","","","","99.45","","","","-13","","NA"
"-88.34","49.15","CAMERON FALLS (AUT)","6041110","2012-02-08 02:00","2012","02","08","02:00","-10.1","","-20.3","","43","","","","32","","4","","","","99.41","","","","-12","","NA"
"-88.34","49.15","CAMERON FALLS (AUT)","6041110","2012-02-08 03:00","2012","02","08","03:00","-13.4","","-17.1","","74","","","","1","","4","","","","99.37","","","","-16","","NA"
"-88.34","49.15","CAMERON FALLS (AUT)","6041110","2012-02-08 04:00","2012","02","08","04:00","-15.2","","-17.4","","83","","","","3","","4","","","","99.34","","","","-18","","NA"
"-88.34","49.15","CAMERON FALLS (AUT)","6041110","2012-02-08 05:00","2012","02","08","05:00","-16.7","","-18.4","","87","","","","1","","6","","","","99.31","","","","-21","","NA"
"-88.34","49.15","CAMERON FALLS (AUT)","6041110","2012-02-08 06:00","2012","02","08","06:00","-17.8","","-19.3","","88","","","","","","0","","","","99.29","","","","","","NA"
"-88.34","49.15","CAMERON FALLS (AUT)","6041110","2012-02-08 07:00","2012","02","08","07:00","-18.8","","-20.5","","86","","","","20","","2","","","","99.25","","","","-20","","NA"
"-88.34","49.15","CAMERON FALLS (AUT)","6041110","2012-02-08 08:00","2012","02","08","08:00","-19.6","","-21.4","","86","","","","2","","6","","","","99.18","","","","-25","","NA"
"-88.34","49.15","CAMERON FALLS (AUT)","6041110","2012-02-08 09:00","2012","02","08","09:00","-19.3","","-21.2","","85","","","","2","","6","","","","99.14","","","","-24","","NA"
"-88.34","49.15","CAMERON FALLS (AUT)","6041110","2012-02-08 10:00","2012","02","08","10:00","-12.0","","-14.6","","81","","","","26","","4","","","","99.08","","","","-15","","NA"
"-88.34","49.15","CAMERON FALLS (AUT)","6041110","2012-02-08 11:00","2012","02","08","11:00","-7.4","","-16.0","","50","","","","26","","7","","","","98.99","","","","-11","","NA"
"-88.34","49.15","CAMERON FALLS (AUT)","6041110","2012-02-08 12:00","2012","02","08","12:00","-5.0","","-15.8","","42","","","","26","","9","","","","98.92","","","","-9","","NA"
"-88.34","49.15","CAMERON FALLS (AUT)","6041110","2012-02-08 13:00","2012","02","08","13:00","-2.9","","-15.6","","37","","","","26","","17","","","","98.82","","","","-8","","NA"
"-88.34","49.15","CAMERON FALLS (AUT)","6041110","2012-02-08 14:00","2012","02","08","14:00","-0.9","","-16.2","","30","","","","25","","13","","","","98.70","","","","-5","","NA"
"-88.34","49.15","CAMERON FALLS (AUT)","6041110","2012-02-08 15:00","2012","02","08","15:00","0.5","","-16.0","","28","","","","25","","9","","","","98.59","","","","","","NA"
"-88.34","49.15","CAMERON FALLS (AUT)","6041110","2012-02-08 16:00","2012","02","08","16:00","1.0","","-15.8","","27","","","","27","","9","","","","98.53","","","","","","NA"
"-88.34","49.15","CAMERON FALLS (AUT)","6041110","2012-02-08 17:00","2012","02","08","17:00","1.1","","-15.0","","29","","","","26","","9","","","","98.49","","","","","","NA"
"-88.34","49.15","CAMERON FALLS (AUT)","6041110","2012-02-08 18:00","2012","02","08","18:00","-1.1","","-12.0","","43","","","","35","","2","","","","98.45","","","","-2","","NA"
"-88.34","49.15","CAMERON FALLS (AUT)","6041110","2012-02-08 19:00","2012","02","08","19:00","-1.5","","-15.0","","35","","","","28","","7","","","","98.45","","","","-4","","NA"
"-88.34","49.15","CAMERON FALLS (AUT)","6041110","2012-02-08 20:00","2012","02","08","20:00","-2.5","","-15.1","","37","","","","25","","6","","","","98.48","","","","-5","","NA"
"-88.34","49.15","CAMERON FALLS (AUT)","6041110","2012-02-08 21:00","2012","02","08","21:00","-3.5","","-14.7","","42","","","","26","","9","","","","98.49","","","","-7","","NA"
"-88.34","49.15","CAMERON FALLS (AUT)","6041110","2012-02-08 22:00","2012","02","08","22:00","-3.9","","-14.4","","44","","","","26","","13","","","","98.50","","","","-9","","NA"
"-88.34","49.15","CAMERON FALLS (AUT)","6041110","2012-02-08 23:00","2012","02","08","23:00","-4.5","","-13.6","","49","","","","25","","9","","","","98.49","","","","-8","","NA"
"-88.34","49.15","CAMERON FALLS (AUT)","6041110","2012-02-09 00:00","2012","02","09","00:00","-5.0","","-13.0","","53","","","","25","","6","","","","98.48","","","","-8","","NA"
"-88.34","49.15","CAMERON FALLS (AUT)","6041110","2012-02-09 01:00","2012","02","09","01:00","-5.7","","-12.4","","59","","","","26","","6","","","","98.46","","","","-9","","NA"
"-88.34","49.15","CAMERON FALLS (AUT)","6041110","2012-02-09 02:00","2012","02","09","02:00","-6.1","","-12.2","","62","","","","26","","6","","","","98.45","","","","-9","","NA"
"-88.34","49.15","CAMERON FALLS (AUT)","6041110","2012-02-09 03:00","2012","02","09","03:00","-6.4","","-11.7","","66","","","","29","","4","","","","98.42","","","","-8","","NA"
"-88.34","49.15","CAMERON FALLS (AUT)","6041110","2012-02-09 04:00","2012","02","09","04:00","-7.8","","-10.4","","82","","","","","","0","","","","98.34","","","","","","NA"
"-88.34","49.15","CAMERON FALLS (AUT)","6041110","2012-02-09 05:00","2012","02","09","05:00","-7.6","","-10.7","","78","","","","","","0","","","","98.30","","","","","","NA"
"-88.34","49.15","CAMERON FALLS (AUT)","6041110","2012-02-09 06:00","2012","02","09","06:00","-7.0","","-10.1","","79","","","","36","","4","","","","98.23","","","","-9","","NA"
"-88.34","49.15","CAMERON FALLS (AUT)","6041110","2012-02-09 07:00","2012","02","09","07:00","-7.9","","-10.4","","82","","","","28","","4","","","","98.17","","","","-10","","NA"
"-88.34","49.15","CAMERON FALLS (AUT)","6041110","2012-02-09 08:00","2012","02","09","08:00","-7.5","","-10.2","","81","","","","29","","4","","","","98.14","","","","-10","","NA"
"-88.34","49.15","CAMERON FALLS (AUT)","6041110","2012-02-09 09:00","2012","02","09","09:00","-7.6","","-10.1","","82","","","","23","","4","","","","98.11","","","","-10","","NA"
"-88.34","49.15","CAMERON FALLS (AUT)","6041110","2012-02-09 10:00","2012","02","09","10:00","-6.8","","-9.8","","79","","","","26","","7","","","","98.10","","","","-10","","NA"
"-88.34","49.15","CAMERON FALLS (AUT)","6041110","2012-02-09 11:00","2012","02","09","11:00","-6.3","","-9.8","","76","","","","26","","11","","","","98.09","","","","-11","","NA"
"-88.34","49.15","CAMERON FALLS (AUT)","6041110","2012-02-09 12:00","2012","02","09","12:00","-5.8","","-9.7","","74","","","","27","","13","","","","98.08","","","","-11","","NA"
"-88.34","49.15","CAMERON FALLS (AUT)","6041110","2012-02-09 13:00","2012","02","09","13:00","-5.3","","-9.7","","71","","","","26","","9","","","","98.04","","","","-9","","NA"
"-88.34","49.15","CAMERON FALLS (AUT)","6041110","2012-02-09 14:00","2012","02","09","14:00","-5.3","","-9.3","","73","","","","29","","7","","","","98.03","","","","-9","","NA"
"-88.34","49.15","CAMERON FALLS (AUT)","6041110","2012-02-09 15:00","2012","02","09","15:00","-6.3","","-8.2","","86","","","","35","","17","","","","98.05","","","","-13","","NA"
"-88.34","49.15","CAMERON FALLS (AUT)","6041110","2012-02-09 16:00","2012","02","09","16:00","-9.1","","-11.3","","84","","","","36","","30","","","","98.20","","","","-18","","NA"
"-88.34","49.15","CAMERON FALLS (AUT)","6041110","2012-02-09 17:00","2012","02","09","17:00","-10.2","","-14.8","","69","","","","1","","26","","","","98.32","","","","-19","","NA"
"-88.34","49.15","CAMERON FALLS (AUT)","6041110","2012-02-09 18:00","2012","02","09","18:00","-11.3","","-17.8","","59","","","","1","","20","","","","98.43","","","","-20","","NA"
"-88.34","49.15","CAMERON FALLS (AUT)","6041110","2012-02-09 19:00","2012","02","09","19:00","-13.1","","-19.3","","60","","","","36","","15","","","","98.56","","","","-21","","NA"
"-88.34","49.15","CAMERON FALLS (AUT)","6041110","2012-02-09 20:00","2012","02","09","20:00","-13.6","","-20.2","","57","","","","36","","19","","","","98.67","","","","-22","","NA"
"-88.34","49.15","CAMERON FALLS (AUT)","6041110","2012-02-09 21:00","2012","02","09","21:00","-14.1","","-19.9","","61","","","","36","","24","","","","98.76","","","","-24","","NA"
"-88.34","49.15","CAMERON FALLS (AUT)","6041110","2012-02-09 22:00","2012","02","09","22:00","-15.3","","-21.6","","59","","","","36","","19","","","","98.84","","","","-24","","NA"
"-88.34","49.15","CAMERON FALLS (AUT)","6041110","2012-02-09 23:00","2012","02","09","23:00","-16.7","","-22.1","","63","","","","36","","19","","","","98.90","","","","-26","","NA"
"-88.34","49.15","CAMERON FALLS (AUT)","6041110","2012-02-10 00:00","2012","02","10","00:00","-17.5","","-22.6","","64","","","","36","","17","","","","99.04","","","","-27","","NA"
"-88.34","49.15","CAMERON FALLS (AUT)","6041110","2012-02-10 01:00","2012","02","10","01:00","-18.3","","-22.8","","68","","","","1","","26","","","","99.18","","","","-30","","NA"
"-88.34","49.15","CAMERON FALLS (AUT)","6041110","2012-02-10 02:00","2012","02","10","02:00","-20.6","","-23.0","","81","","","","36","","24","","","","99.30","","","","-32","","NA"
"-88.34","49.15","CAMERON FALLS (AUT)","6041110","2012-02-10 03:00","2012","02","10","03:00","-22.1","","-25.3","","75","","","","36","","24","","","","99.41","","","","-34","","NA"
"-88.34","49.15","CAMERON FALLS (AUT)","6041110","2012-02-10 04:00","2012","02","10","04:00","-23.5","","-27.3","","71","","","","35","","19","","","","99.48","","","","-35","","NA"
"-88.34","49.15","CAMERON FALLS (AUT)","6041110","2012-02-10 05:00","2012","02","10","05:00","-24.6","","-28.4","","71","","","","35","","13","","","","99.51","","","","-34","","NA"
"-88.34","49.15","CAMERON FALLS (AUT)","6041110","2012-02-10 06:00","2012","02","10","06:00","-24.9","","-28.3","","73","","","","35","","13","","","","99.59","","","","-34","","NA"
"-88.34","49.15","CAMERON FALLS (AUT)","6041110","2012-02-10 07:00","2012","02","10","07:00","-25.5","","-28.7","","75","","","","33","","4","","","","99.61","","","","-30","","NA"
"-88.34","49.15","CAMERON FALLS (AUT)","6041110","2012-02-10 08:00","2012","02","10","08:00","-25.7","","-28.8","","75","","","","34","","6","","","","99.65","","","","-32","","NA"
"-88.34","49.15","CAMERON FALLS (AUT)","6041110","2012-02-10 09:00","2012","02","10","09:00","-25.5","","-28.9","","73","","","","35","","6","","","","99.71","","","","-31","","NA"
"-88.34","49.15","CAMERON FALLS (AUT)","6041110","2012-02-10 10:00","2012","02","10","10:00","-23.2","","-27.3","","69","","","","35","","17","","","","99.72","","","","-34","","NA"
"-88.34","49.15","CAMERON FALLS (AUT)","6041110","2012-02-10 11:00","2012","02","10","11:00","-22.6","","-27.2","","66","","","","35","","24","","","","99.74","","","","-35","","NA"
"-88.34","49.15","CAMERON FALLS (AUT)","6041110","2012-02-10 12:00","2012","02","10","12:00","-21.6","","-26.7","","63","","","","35","","17","","","","99.70","","","","-32","","NA"
"-88.34","49.15","CAMERON FALLS (AUT)","6041110","2012-02-10 13:00","2012","02","10","13:00","-20.7","","-24.4","","72","","","","2","","22","","","","99.66","","","","-32","","NA"
"-88.34","49.15","CAMERON FALLS (AUT)","6041110","2012-02-10 14:00","2012","02","10","14:00","-19.0","","-24.5","","62","","","","3","","19","","","","99.61","","","","-29","","NA"
"-88.34","49.15","CAMERON FALLS (AUT)","6041110","2012-02-10 15:00","2012","02","10","15:00","-17.4","","-24.3","","55","","","","3","","17","","","","99.58","","","","-26","","NA"
"-88.34","49.15","CAMERON FALLS (AUT)","6041110","2012-02-10 16:00","2012","02","10","16:00","-15.7","","-23.0","","53","","","","2","","17","","","","99.55","","","","-24","","NA"
"-88.34","49.15","CAMERON FALLS (AUT)","6041110","2012-02-10 17:00","2012","02","10","17:00","-14.8","","-22.8","","51","","","","1","","15","","","","99.56","","","","-23","","NA"
"-88.34","49.15","CAMERON FALLS (AUT)","6041110","2012-02-10 18:00","2012","02","10","18:00","-16.2","","-23.8","","52","","","","36","","13","","","","99.60","","","","-24","","NA"
"-88.34","49.15","CAMERON FALLS (AUT)","6041110","2012-02-10 19:00","2012","02","10","19:00","-17.5","","-24.9","","52","","","","35","","7","","","","99.63","","","","-23","","NA"
"-88.34","49.15","CAMERON FALLS (AUT)","6041110","2012-02-10 20:00","2012","02","10","20:00","-19.2","","-23.7","","68","","","","2","","4","","","","99.64","","","","-23","","NA"
"-88.34","49.15","CAMERON FALLS (AUT)","6041110","2012-02-10 21:00","2012","02","10","21:00","-20.7","","-23.1","","81","","","","28","","2","","","","99.66","","","","-22","","NA"
"-88.34","49.15","CAMERON FALLS (AUT)","6041110","2012-02-10 22:00","2012","02","10","22:00","-18.3","","-24.3","","59","","","","32","","6","","","","99.68","","","","-23","","NA"
"-88.34","49.15","CAMERON FALLS (AUT)","6041110","2012-02-10 23:00","2012","02","10","23:00","-18.2","","-24.2","","59","","","","25","","4","","","","99.68","","","","-21","","NA"
"-88.34","49.15","CAMERON FALLS (AUT)","6041110","2012-02-11 00:00","2012","02","11","00:00","-18.0","","-23.3","","63","","","","33","","4","","","","99.65","","","","-21","","NA"
"-88.34","49.15","CAMERON FALLS (AUT)","6041110","2012-02-11 01:00","2012","02","11","01:00","-18.2","","-22.9","","67","","","","33","","4","","","","99.65","","","","-21","","NA"
"-88.34","49.15","CAMERON FALLS (AUT)","6041110","2012-02-11 02:00","2012","02","11","02:00","-18.2","","-24.2","","59","","","","35","","4","","","","99.63","","","","-21","","NA"
"-88.34","49.15","CAMERON FALLS (AUT)","6041110","2012-02-11 03:00","2012","02","11","03:00","-17.4","","-22.9","","62","","","","35","","4","","","","99.57","","","","-21","","NA"
"-88.34","49.15","CAMERON FALLS (AUT)","6041110","2012-02-11 04:00","2012","02","11","04:00","-16.5","","-23.0","","57","","","","34","","9","","","","99.53","","","","-23","","NA"
"-88.34","49.15","CAMERON FALLS (AUT)","6041110","2012-02-11 05:00","2012","02","11","05:00","-16.3","","-22.7","","58","","","","31","","7","","","","99.48","","","","-21","","NA"
"-88.34","49.15","CAMERON FALLS (AUT)","6041110","2012-02-11 06:00","2012","02","11","06:00","-16.4","","-22.4","","60","","","","32","","11","","","","99.52","","","","-23","","NA"
"-88.34","49.15","CAMERON FALLS (AUT)","6041110","2012-02-11 07:00","2012","02","11","07:00","-17.5","","-22.8","","63","","","","29","","11","","","","99.54","","","","-25","","NA"
"-88.34","49.15","CAMERON FALLS (AUT)","6041110","2012-02-11 08:00","2012","02","11","08:00","-18.3","","-23.3","","65","","","","30","","7","","","","99.53","","","","-24","","NA"
"-88.34","49.15","CAMERON FALLS (AUT)","6041110","2012-02-11 09:00","2012","02","11","09:00","-18.3","","-23.0","","67","","","","30","","9","","","","99.53","","","","-25","","NA"
"-88.34","49.15","CAMERON FALLS (AUT)","6041110","2012-02-11 10:00","2012","02","11","10:00","-17.8","","-21.7","","71","","","","31","","11","","","","99.50","","","","-25","","NA"
"-88.34","49.15","CAMERON FALLS (AUT)","6041110","2012-02-11 11:00","2012","02","11","11:00","-16.9","","-22.3","","63","","","","33","","20","","","","99.48","","","","-27","","NA"
"-88.34","49.15","CAMERON FALLS (AUT)","6041110","2012-02-11 12:00","2012","02","11","12:00","-15.8","","-20.8","","65","","","","31","","15","","","","99.49","","","","-24","","NA"
"-88.34","49.15","CAMERON FALLS (AUT)","6041110","2012-02-11 13:00","2012","02","11","13:00","-14.0","","-18.6","","68","","","","31","","11","","","","99.37","","","","-20","","NA"
"-88.34","49.15","CAMERON FALLS (AUT)","6041110","2012-02-11 14:00","2012","02","11","14:00","-11.8","","-17.0","","65","","","","27","","9","","","","99.17","","","","-17","","NA"
"-88.34","49.15","CAMERON FALLS (AUT)","6041110","2012-02-11 15:00","2012","02","11","15:00","-10.0","","-16.6","","58","","","","26","","13","","","","99.03","","","","-16","","NA"
"-88.34","49.15","CAMERON FALLS (AUT)","6041110","2012-02-11 16:00","2012","02","11","16:00","-8.6","","-15.4","","58","","","","28","","17","","","","98.96","","","","-15","","NA"
"-88.34","49.15","CAMERON FALLS (AUT)","6041110","2012-02-11 17:00","2012","02","11","17:00","-8.5","","-17.1","","50","","","","32","","13","","","","98.97","","","","-14","","NA"
"-88.34","49.15","CAMERON FALLS (AUT)","6041110","2012-02-11 18:00","2012","02","11","18:00","-10.1","","-17.7","","54","","","","29","","15","","","","98.95","","","","-17","","NA"
"-88.34","49.15","CAMERON FALLS (AUT)","6041110","2012-02-11 19:00","2012","02","11","19:00","-10.4","","-18.6","","51","","","","31","","11","","","","98.97","","","","-16","","NA"
"-88.34","49.15","CAMERON FALLS (AUT)","6041110","2012-02-11 20:00","2012","02","11","20:00","-10.7","","-19.4","","49","","","","31","","9","","","","99.02","","","","-16","","NA"
"-88.34","49.15","CAMERON FALLS (AUT)","6041110","2012-02-11 21:00","2012","02","11","21:00","-11.1","","-20.6","","45","","","","31","","9","","","","99.09","","","","-16","","NA"
"-88.34","49.15","CAMERON FALLS (AUT)","6041110","2012-02-11 22:00","2012","02","11","22:00","-11.8","","-21.0","","46","","","","31","","7","","","","99.11","","","","-16","","NA"
"-88.34","49.15","CAMERON FALLS (AUT)","6041110","2012-02-11 23:00","2012","02","11","23:00","-11.9","","-20.6","","48","","","","31","","6","","","","99.09","","","","-16","","NA"
"-88.34","49.15","CAMERON FALLS (AUT)","6041110","2012-02-12 00:00","2012","02","12","00:00","-12.0","","-20.8","","48","","","","32","","9","","","","99.05","","","","-17","","NA"
"-88.34","49.15","CAMERON FALLS (AUT)","6041110","2012-02-12 01:00","2012","02","12","01:00","-12.5","","-21.4","","47","","","","33","","6","","","","99.04","","","","-16","","NA"
"-88.34","49.15","CAMERON FALLS (AUT)","6041110","2012-02-12 02:00","2012","02","12","02:00","-12.7","","-21.6","","47","","","","31","","6","","","","99.03","","","","-17","","NA"
"-88.34","49.15","CAMERON FALLS (AUT)","6041110","2012-02-12 03:00","2012","02","12","03:00","-13.3","","-20.8","","53","","","","34","","6","","","","99.03","","","","-17","","NA"
"-88.34","49.15","CAMERON FALLS (AUT)","6041110","2012-02-12 04:00","2012","02","12","04:00","-13.6","","-21.1","","53","","","","32","","6","","","","99.01","","","","-18","","NA"
"-88.34","49.15","CAMERON FALLS (AUT)","6041110","2012-02-12 05:00","2012","02","12","05:00","-13.8","","-21.6","","52","","","","32","","6","","","","98.99","","","","-18","","NA"
"-88.34","49.15","CAMERON FALLS (AUT)","6041110","2012-02-12 06:00","2012","02","12","06:00","-13.6","","-21.1","","53","","","","32","","7","","","","98.99","","","","-18","","NA"
"-88.34","49.15","CAMERON FALLS (AUT)","6041110","2012-02-12 07:00","2012","02","12","07:00","-13.5","","-21.1","","53","","","","33","","7","","","","98.96","","","","-18","","NA"
"-88.34","49.15","CAMERON FALLS (AUT)","6041110","2012-02-12 08:00","2012","02","12","08:00","-13.6","","-20.8","","55","","","","33","","6","","","","98.95","","","","-18","","NA"
"-88.34","49.15","CAMERON FALLS (AUT)","6041110","2012-02-12 09:00","2012","02","12","09:00","-12.7","","-20.7","","51","","","","31","","6","","","","98.92","","","","-17","","NA"
"-88.34","49.15","CAMERON FALLS (AUT)","6041110","2012-02-12 10:00","2012","02","12","10:00","-10.6","","-21.5","","40","","","","31","","13","","","","98.88","","","","-17","","NA"
"-88.34","49.15","CAMERON FALLS (AUT)","6041110","2012-02-12 11:00","2012","02","12","11:00","-8.1","","-21.7","","33","","","","31","","11","","","","98.85","","","","-13","","NA"
"-88.34","49.15","CAMERON FALLS (AUT)","6041110","2012-02-12 12:00","2012","02","12","12:00","-5.8","","-21.8","","27","","","","30","","13","","","","98.79","","","","-11","","NA"
"-88.34","49.15","CAMERON FALLS (AUT)","6041110","2012-02-12 13:00","2012","02","12","13:00","-4.0","","-20.8","","26","","","","30","","15","","","","98.71","","","","-9","","NA"
"-88.34","49.15","CAMERON FALLS (AUT)","6041110","2012-02-12 14:00","2012","02","12","14:00","-2.4","","-20.8","","23","","","","29","","15","","","","98.63","","","","-7","","NA"
"-88.34","49.15","CAMERON FALLS (AUT)","6041110","2012-02-12 15:00","2012","02","12","15:00","-1.1","","-20.6","","21","","","","30","","11","","","","98.54","","","","-5","","NA"
"-88.34","49.15","CAMERON FALLS (AUT)","6041110","2012-02-12 16:00","2012","02","12","16:00","-0.1","","-20.6","","20","","","","29","","13","","","","98.49","","","","-4","","NA"
"-88.34","49.15","CAMERON FALLS (AUT)","6041110","2012-02-12 17:00","2012","02","12","17:00","-0.2","","-19.3","","22","","","","31","","11","","","","98.45","","","","-4","","NA"
"-88.34","49.15","CAMERON FALLS (AUT)","6041110","2012-02-12 18:00","2012","02","12","18:00","-1.2","","-19.7","","23","","","","29","","6","","","","98.44","","","","-3","","NA"
"-88.34","49.15","CAMERON FALLS (AUT)","6041110","2012-02-12 19:00","2012","02","12","19:00","-2.3","","-19.4","","26","","","","26","","6","","","","98.44","","","","-5","","NA"
"-88.34","49.15","CAMERON FALLS (AUT)","6041110","2012-02-12 20:00","2012","02","12","20:00","-3.1","","-20.5","","25","","","","28","","9","","","","98.42","","","","-7","","NA"
"-88.34","49.15","CAMERON FALLS (AUT)","6041110","2012-02-12 21:00","2012","02","12","21:00","-4.4","","-19.2","","30","","","","26","","7","","","","98.39","","","","-8","","NA"
"-88.34","49.15","CAMERON FALLS (AUT)","6041110","2012-02-12 22:00","2012","02","12","22:00","-5.2","","-19.5","","32","","","","29","","6","","","","98.42","","","","-8","","NA"
"-88.34","49.15","CAMERON FALLS (AUT)","6041110","2012-02-12 23:00","2012","02","12","23:00","-5.7","","-19.0","","34","","","","28","","11","","","","98.38","","","","-10","","NA"
"-88.34","49.15","CAMERON FALLS (AUT)","6041110","2012-02-13 00:00","2012","02","13","00:00","-6.5","","-19.1","","36","","","","26","","7","","","","98.35","","","","-10","","NA"
"-88.34","49.15","CAMERON FALLS (AUT)","6041110","2012-02-13 01:00","2012","02","13","01:00","-7.0","","-19.2","","37","","","","30","","6","","","","98.34","","","","-10","","NA"
"-88.34","49.15","CAMERON FALLS (AUT)","6041110","2012-02-13 02:00","2012","02","13","02:00","-7.5","","-17.7","","44","","","","29","","4","","","","98.36","","","","-10","","NA"
"-88.34","49.15","CAMERON FALLS (AUT)","6041110","2012-02-13 03:00","2012","02","13","03:00","-11.1","","-15.7","","69","","","","35","","4","","","","98.36","","","","-14","","NA"
"-88.34","49.15","CAMERON FALLS (AUT)","6041110","2012-02-13 04:00","2012","02","13","04:00","-13.4","","-16.2","","79","","","","2","","2","","","","98.31","","","","-15","","NA"
"-88.34","49.15","CAMERON FALLS (AUT)","6041110","2012-02-13 05:00","2012","02","13","05:00","-15.9","","-18.0","","84","","","","2","","6","","","","98.30","","","","-20","","NA"
"-88.34","49.15","CAMERON FALLS (AUT)","6041110","2012-02-13 06:00","2012","02","13","06:00","-16.9","","-18.5","","87","","","","1","","6","","","","98.28","","","","-21","","NA"
"-88.34","49.15","CAMERON FALLS (AUT)","6041110","2012-02-13 07:00","2012","02","13","07:00","-18.6","","-20.4","","86","","","","1","","4","","","","98.29","","","","-22","","NA"
"-88.34","49.15","CAMERON FALLS (AUT)","6041110","2012-02-13 08:00","2012","02","13","08:00","-19.3","","-21.2","","85","","","","1","","4","","","","98.24","","","","-23","","NA"
"-88.34","49.15","CAMERON FALLS (AUT)","6041110","2012-02-13 09:00","2012","02","13","09:00","-19.4","","-21.3","","85","","","","2","","2","","","","98.22","","","","-21","","NA"
"-88.34","49.15","CAMERON FALLS (AUT)","6041110","2012-02-13 10:00","2012","02","13","10:00","-15.5","","-17.3","","86","","","","1","","6","","","","98.20","","","","-20","","NA"
"-88.34","49.15","CAMERON FALLS (AUT)","6041110","2012-02-13 11:00","2012","02","13","11:00","-10.5","","-15.0","","69","","","","4","","2","","","","98.11","","","","-12","","NA"
"-88.34","49.15","CAMERON FALLS (AUT)","6041110","2012-02-13 12:00","2012","02","13","12:00","-4.9","","-18.8","","33","","","","29","","9","","","","98.07","","","","-9","","NA"
"-88.34","49.15","CAMERON FALLS (AUT)","6041110","2012-02-13 13:00","2012","02","13","13:00","-2.4","","-18.7","","27","","","","24","","6","","","","97.99","","","","-5","","NA"
"-88.34","49.15","CAMERON FALLS (AUT)","6041110","2012-02-13 14:00","2012","02","13","14:00","0.0","","-16.3","","28","","","","18","","4","","","","97.89","","","","-1","","NA"
"-88.34","49.15","CAMERON FALLS (AUT)","6041110","2012-02-13 15:00","2012","02","13","15:00","1.5","","-13.7","","31","","","","21","","7","","","","97.82","","","","","","NA"
"-88.34","49.15","CAMERON FALLS (AUT)","6041110","2012-02-13 16:00","2012","02","13","16:00","2.1","","-12.1","","34","","","","25","","6","","","","97.75","","","","","","NA"
"-88.34","49.15","CAMERON FALLS (AUT)","6041110","2012-02-13 17:00","2012","02","13","17:00","0.8","","-13.5","","33","","","","18","","9","","","","97.71","","","","","","NA"
"-88.34","49.15","CAMERON FALLS (AUT)","6041110","2012-02-13 18:00","2012","02","13","18:00","-1.4","","-12.4","","43","","","","17","","4","","","","97.69","","","","-3","","NA"
"-88.34","49.15","CAMERON FALLS (AUT)","6041110","2012-02-13 19:00","2012","02","13","19:00","-5.4","","-9.7","","72","","","","2","","4","","","","97.67","","","","-7","","NA"
"-88.34","49.15","CAMERON FALLS (AUT)","6041110","2012-02-13 20:00","2012","02","13","20:00","-6.8","","-9.6","","80","","","","1","","4","","","","97.68","","","","-9","","NA"
"-88.34","49.15","CAMERON FALLS (AUT)","6041110","2012-02-13 21:00","2012","02","13","21:00","-7.2","","-9.6","","83","","","","","","0","","","","97.65","","","","","","NA"
"-88.34","49.15","CAMERON FALLS (AUT)","6041110","2012-02-13 22:00","2012","02","13","22:00","-9.5","","-11.6","","85","","","","1","","4","","","","97.65","","","","-12","","NA"
"-88.34","49.15","CAMERON FALLS (AUT)","6041110","2012-02-13 23:00","2012","02","13","23:00","-10.7","","-12.2","","89","","","","2","","6","","","","97.63","","","","-14","","NA"
"-88.34","49.15","CAMERON FALLS (AUT)","6041110","2012-02-14 00:00","2012","02","14","00:00","-10.7","","-12.2","","89","","","","3","","6","","","","97.63","","","","-14","","NA"
"-88.34","49.15","CAMERON FALLS (AUT)","6041110","2012-02-14 01:00","2012","02","14","01:00","-8.7","","-10.3","","88","","","","3","","2","","","","97.64","","","","-10","","NA"
"-88.34","49.15","CAMERON FALLS (AUT)","6041110","2012-02-14 02:00","2012","02","14","02:00","-7.8","","-9.8","","86","","","","1","","4","","","","97.66","","","","-10","","NA"
"-88.34","49.15","CAMERON FALLS (AUT)","6041110","2012-02-14 03:00","2012","02","14","03:00","-7.5","","-9.5","","86","","","","2","","4","","","","97.67","","","","-10","","NA"
"-88.34","49.15","CAMERON FALLS (AUT)","6041110","2012-02-14 04:00","2012","02","14","04:00","-7.5","","-9.8","","84","","","","20","","2","","","","97.65","","","","-9","","NA"
"-88.34","49.15","CAMERON FALLS (AUT)","6041110","2012-02-14 05:00","2012","02","14","05:00","-7.4","","-10.2","","80","","","","18","","2","","","","97.66","","","","-8","","NA"
"-88.34","49.15","CAMERON FALLS (AUT)","6041110","2012-02-14 06:00","2012","02","14","06:00","-6.9","","-9.1","","84","","","","","","0","","","","97.64","","","","","","NA"
"-88.34","49.15","CAMERON FALLS (AUT)","6041110","2012-02-14 07:00","2012","02","14","07:00","-6.9","","-9.2","","84","","","","19","","2","","","","97.64","","","","-8","","NA"
"-88.34","49.15","CAMERON FALLS (AUT)","6041110","2012-02-14 08:00","2012","02","14","08:00","-6.7","","-9.5","","80","","","","2","","4","","","","97.66","","","","-9","","NA"
"-88.34","49.15","CAMERON FALLS (AUT)","6041110","2012-02-14 09:00","2012","02","14","09:00","-6.6","","-9.4","","80","","","","","","0","","","","97.68","","","","","","NA"
"-88.34","49.15","CAMERON FALLS (AUT)","6041110","2012-02-14 10:00","2012","02","14","10:00","-5.0","","-8.3","","78","","","","","","0","","","","97.70","","","","","","NA"
"-88.34","49.15","CAMERON FALLS (AUT)","6041110","2012-02-14 11:00","2012","02","14","11:00","-3.3","","-9.8","","61","","","","16","","4","","","","97.71","","","","-5","","NA"
"-88.34","49.15","CAMERON FALLS (AUT)","6041110","2012-02-14 12:00","2012","02","14","12:00","-2.3","","-9.5","","58","","","","19","","2","","","","97.74","","","","-3","","NA"
"-88.34","49.15","CAMERON FALLS (AUT)","6041110","2012-02-14 13:00","2012","02","14","13:00","-1.6","","-9.2","","56","","","","18","","6","","","","97.74","","","","-4","","NA"
"-88.34","49.15","CAMERON FALLS (AUT)","6041110","2012-02-14 14:00","2012","02","14","14:00","-0.7","","-8.7","","55","","","","25","","6","","","","97.72","","","","-3","","NA"
"-88.34","49.15","CAMERON FALLS (AUT)","6041110","2012-02-14 15:00","2012","02","14","15:00","-0.3","","-8.8","","53","","","","21","","6","","","","97.74","","","","-2","","NA"
"-88.34","49.15","CAMERON FALLS (AUT)","6041110","2012-02-14 16:00","2012","02","14","16:00","0.2","","-7.9","","54","","","","22","","4","","","","97.78","","","","","","NA"
"-88.34","49.15","CAMERON FALLS (AUT)","6041110","2012-02-14 17:00","2012","02","14","17:00","0.0","","-8.7","","52","","","","22","","4","","","","97.80","","","","-1","","NA"
"-88.34","49.15","CAMERON FALLS (AUT)","6041110","2012-02-14 18:00","2012","02","14","18:00","-0.5","","-6.3","","65","","","","","","0","","","","97.87","","","","","","NA"
"-88.34","49.15","CAMERON FALLS (AUT)","6041110","2012-02-14 19:00","2012","02","14","19:00","-1.5","","-7.1","","66","","","","15","","4","","","","97.93","","","","-3","","NA"
"-88.34","49.15","CAMERON FALLS (AUT)","6041110","2012-02-14 20:00","2012","02","14","20:00","-2.0","","-7.0","","69","","","","17","","4","","","","97.96","","","","-3","","NA"
"-88.34","49.15","CAMERON FALLS (AUT)","6041110","2012-02-14 21:00","2012","02","14","21:00","-3.1","","-5.8","","82","","","","2","","2","","","","97.98","","","","-4","","NA"
"-88.34","49.15","CAMERON FALLS (AUT)","6041110","2012-02-14 22:00","2012","02","14","22:00","-3.8","","-6.1","","84","","","","1","","2","","","","98.03","","","","-5","","NA"
"-88.34","49.15","CAMERON FALLS (AUT)","6041110","2012-02-14 23:00","2012","02","14","23:00","-4.9","","-7.1","","85","","","","1","","4","","","","98.10","","","","-7","","NA"
"-88.34","49.15","CAMERON FALLS (AUT)","6041110","2012-02-15 00:00","2012","02","15","00:00","-4.8","","-7.7","","80","","","","1","","4","","","","98.14","","","","-7","","NA"
"-88.34","49.15","CAMERON FALLS (AUT)","6041110","2012-02-15 01:00","2012","02","15","01:00","-4.8","","-7.9","","79","","","","1","","4","","","","98.19","","","","-7","","NA"
"-88.34","49.15","CAMERON FALLS (AUT)","6041110","2012-02-15 02:00","2012","02","15","02:00","-4.7","","-8.3","","76","","","","1","","6","","","","98.22","","","","-7","","NA"
"-88.34","49.15","CAMERON FALLS (AUT)","6041110","2012-02-15 03:00","2012","02","15","03:00","-5.0","","-7.9","","80","","","","","","0","","","","98.26","","","","","","NA"
"-88.34","49.15","CAMERON FALLS (AUT)","6041110","2012-02-15 04:00","2012","02","15","04:00","-5.0","","-7.8","","81","","","","3","","2","","","","98.28","","","","-6","","NA"
"-88.34","49.15","CAMERON FALLS (AUT)","6041110","2012-02-15 05:00","2012","02","15","05:00","-5.2","","-8.5","","78","","","","2","","2","","","","98.30","","","","-6","","NA"
"-88.34","49.15","CAMERON FALLS (AUT)","6041110","2012-02-15 06:00","2012","02","15","06:00","-5.4","","-7.9","","83","","","","","","0","","","","98.34","","","","","","NA"
"-88.34","49.15","CAMERON FALLS (AUT)","6041110","2012-02-15 07:00","2012","02","15","07:00","-5.4","","-7.5","","85","","","","36","","2","","","","98.36","","","","-6","","NA"
"-88.34","49.15","CAMERON FALLS (AUT)","6041110","2012-02-15 08:00","2012","02","15","08:00","-5.7","","-7.8","","85","","","","","","0","","","","98.42","","","","","","NA"
"-88.34","49.15","CAMERON FALLS (AUT)","6041110","2012-02-15 09:00","2012","02","15","09:00","-5.4","","-7.5","","85","","","","","","0","","","","98.46","","","","","","NA"
"-88.34","49.15","CAMERON FALLS (AUT)","6041110","2012-02-15 10:00","2012","02","15","10:00","-4.3","","-7.3","","80","","","","","","0","","","","98.49","","","","","","NA"
"-88.34","49.15","CAMERON FALLS (AUT)","6041110","2012-02-15 11:00","2012","02","15","11:00","-2.7","","-7.0","","72","","","","","","0","","","","98.51","","","","","","NA"
"-88.34","49.15","CAMERON FALLS (AUT)","6041110","2012-02-15 12:00","2012","02","15","12:00","-1.0","","-5.4","","72","","","","","","0","","","","98.51","","","","","","NA"
"-88.34","49.15","CAMERON FALLS (AUT)","6041110","2012-02-15 13:00","2012","02","15","13:00","1.3","","-4.5","","65","","","","13","","4","","","","98.50","","","","","","NA"
"-88.34","49.15","CAMERON FALLS (AUT)","6041110","2012-02-15 14:00","2012","02","15","14:00","2.3","","-3.4","","66","","","","16","","9","","","","98.45","","","","","","NA"
"-88.34","49.15","CAMERON FALLS (AUT)","6041110","2012-02-15 15:00","2012","02","15","15:00","2.2","","-3.7","","65","","","","18","","7","","","","98.47","","","","","","NA"
"-88.34","49.15","CAMERON FALLS (AUT)","6041110","2012-02-15 16:00","2012","02","15","16:00","2.8","","-4.6","","58","","","","17","","6","","","","98.45","","","","","","NA"
"-88.34","49.15","CAMERON FALLS (AUT)","6041110","2012-02-15 17:00","2012","02","15","17:00","2.5","","-3.9","","63","","","","16","","9","","","","98.48","","","","","","NA"
"-88.34","49.15","CAMERON FALLS (AUT)","6041110","2012-02-15 18:00","2012","02","15","18:00","1.0","","-3.6","","71","","","","16","","9","","","","98.51","","","","","","NA"
"-88.34","49.15","CAMERON FALLS (AUT)","6041110","2012-02-15 19:00","2012","02","15","19:00","-1.1","","-3.7","","82","","","","16","","6","","","","98.56","","","","-3","","NA"
"-88.34","49.15","CAMERON FALLS (AUT)","6041110","2012-02-15 20:00","2012","02","15","20:00","-3.3","","-4.3","","93","","","","2","","2","","","","98.56","","","","-4","","NA"
"-88.34","49.15","CAMERON FALLS (AUT)","6041110","2012-02-15 21:00","2012","02","15","21:00","-4.6","","-5.2","","96","","","","11","","2","","","","98.55","","","","-5","","NA"
"-88.34","49.15","CAMERON FALLS (AUT)","6041110","2012-02-15 22:00","2012","02","15","22:00","-4.0","","-4.6","","96","","","","","","0","","","","98.57","","","","","","NA"
"-88.34","49.15","CAMERON FALLS (AUT)","6041110","2012-02-15 23:00","2012","02","15","23:00","-3.2","","-4.3","","92","","","","9","","2","","","","98.55","","","","-4","","NA"
"-88.34","49.15","CAMERON FALLS (AUT)","6041110","2012-02-16 00:00","2012","02","16","00:00","-4.3","","-5.0","","95","","","","13","","2","","","","98.53","","","","-5","","NA"
"-88.34","49.15","CAMERON FALLS (AUT)","6041110","2012-02-16 01:00","2012","02","16","01:00","-4.4","","-5.0","","96","","","","6","","2","","","","98.50","","","","-5","","NA"
"-88.34","49.15","CAMERON FALLS (AUT)","6041110","2012-02-16 02:00","2012","02","16","02:00","-3.8","","-4.4","","96","","","","28","","2","","","","98.48","","","","-5","","NA"
"-88.34","49.15","CAMERON FALLS (AUT)","6041110","2012-02-16 03:00","2012","02","16","03:00","-3.3","","-3.9","","96","","","","","","0","","","","98.43","","","","","","NA"
"-88.34","49.15","CAMERON FALLS (AUT)","6041110","2012-02-16 04:00","2012","02","16","04:00","-3.2","","-3.7","","96","","","","","","0","","","","98.37","","","","","","NA"
"-88.34","49.15","CAMERON FALLS (AUT)","6041110","2012-02-16 05:00","2012","02","16","05:00","-2.9","","-3.4","","96","","","","","","0","","","","98.32","","","","","","NA"
"-88.34","49.15","CAMERON FALLS (AUT)","6041110","2012-02-16 06:00","2012","02","16","06:00","-1.7","","-2.1","","97","","","","18","","4","","","","98.27","","","","-3","","NA"
"-88.34","49.15","CAMERON FALLS (AUT)","6041110","2012-02-16 07:00","2012","02","16","07:00","-1.5","","-2.0","","96","","","","18","","4","","","","98.21","","","","-3","","NA"
"-88.34","49.15","CAMERON FALLS (AUT)","6041110","2012-02-16 08:00","2012","02","16","08:00","-1.9","","-2.3","","97","","","","1","","2","","","","98.20","","","","-3","","NA"
"-88.34","49.15","CAMERON FALLS (AUT)","6041110","2012-02-16 09:00","2012","02","16","09:00","-2.0","","-2.4","","97","","","","36","","2","","","","98.19","","","","-3","","NA"
"-88.34","49.15","CAMERON FALLS (AUT)","6041110","2012-02-16 10:00","2012","02","16","10:00","-1.4","","-2.1","","95","","","","13","","2","","","","98.15","","","","-2","","NA"
"-88.34","49.15","CAMERON FALLS (AUT)","6041110","2012-02-16 11:00","2012","02","16","11:00","0.5","","-2.8","","78","","","","26","","6","","","","98.14","","","","","","NA"
"-88.34","49.15","CAMERON FALLS (AUT)","6041110","2012-02-16 12:00","2012","02","16","12:00","0.7","","-3.6","","73","","","","27","","7","","","","98.14","","","","","","NA"
"-88.34","49.15","CAMERON FALLS (AUT)","6041110","2012-02-16 13:00","2012","02","16","13:00","0.9","","-4.0","","70","","","","27","","7","","","","98.09","","","","","","NA"
"-88.34","49.15","CAMERON FALLS (AUT)","6041110","2012-02-16 14:00","2012","02","16","14:00","0.4","","-3.8","","73","","","","26","","11","","","","98.07","","","","","","NA"
"-88.34","49.15","CAMERON FALLS (AUT)","6041110","2012-02-16 15:00","2012","02","16","15:00","0.8","","-4.9","","66","","","","30","","6","","","","98.04","","","","","","NA"
"-88.34","49.15","CAMERON FALLS (AUT)","6041110","2012-02-16 16:00","2012","02","16","16:00","-0.3","","-2.6","","84","","","","28","","9","","","","98.08","","","","-3","","NA"
"-88.34","49.15","CAMERON FALLS (AUT)","6041110","2012-02-16 17:00","2012","02","16","17:00","-0.4","","-4.2","","75","","","","29","","11","","","","98.11","","","","-4","","NA"
"-88.34","49.15","CAMERON FALLS (AUT)","6041110","2012-02-16 18:00","2012","02","16","18:00","-1.9","","-4.5","","82","","","","28","","15","","","","98.18","","","","-7","","NA"
"-88.34","49.15","CAMERON FALLS (AUT)","6041110","2012-02-16 19:00","2012","02","16","19:00","-1.9","","-4.9","","80","","","","31","","9","","","","98.28","","","","-5","","NA"
"-88.34","49.15","CAMERON FALLS (AUT)","6041110","2012-02-16 20:00","2012","02","16","20:00","-2.4","","-5.9","","77","","","","32","","13","","","","98.31","","","","-7","","NA"
"-88.34","49.15","CAMERON FALLS (AUT)","6041110","2012-02-16 21:00","2012","02","16","21:00","-3.1","","-6.2","","79","","","","30","","9","","","","98.36","","","","-7","","NA"
"-88.34","49.15","CAMERON FALLS (AUT)","6041110","2012-02-16 22:00","2012","02","16","22:00","-3.9","","-6.8","","80","","","","31","","11","","","","98.40","","","","-8","","NA"
"-88.34","49.15","CAMERON FALLS (AUT)","6041110","2012-02-16 23:00","2012","02","16","23:00","-4.5","","-7.7","","78","","","","30","","11","","","","98.40","","","","-9","","NA"
"-88.34","49.15","CAMERON FALLS (AUT)","6041110","2012-02-17 00:00","2012","02","17","00:00","-4.7","","-8.7","","74","","","","32","","13","","","","98.41","","","","-10","","NA"
"-88.34","49.15","CAMERON FALLS (AUT)","6041110","2012-02-17 01:00","2012","02","17","01:00","-5.5","","-9.2","","75","","","","30","","7","","","","98.44","","","","-9","","NA"
"-88.34","49.15","CAMERON FALLS (AUT)","6041110","2012-02-17 02:00","2012","02","17","02:00","-6.4","","-9.8","","77","","","","28","","9","","","","98.47","","","","-11","","NA"
"-88.34","49.15","CAMERON FALLS (AUT)","6041110","2012-02-17 03:00","2012","02","17","03:00","-6.3","","-9.6","","77","","","","29","","7","","","","98.47","","","","-10","","NA"
"-88.34","49.15","CAMERON FALLS (AUT)","6041110","2012-02-17 04:00","2012","02","17","04:00","-6.0","","-8.9","","80","","","","33","","9","","","","98.46","","","","-10","","NA"
"-88.34","49.15","CAMERON FALLS (AUT)","6041110","2012-02-17 05:00","2012","02","17","05:00","-6.3","","-8.7","","83","","","","31","","7","","","","98.51","","","","-10","","NA"
"-88.34","49.15","CAMERON FALLS (AUT)","6041110","2012-02-17 06:00","2012","02","17","06:00","-6.6","","-8.8","","84","","","","1","","13","","","","98.56","","","","-12","","NA"
"-88.34","49.15","CAMERON FALLS (AUT)","6041110","2012-02-17 07:00","2012","02","17","07:00","-7.5","","-9.9","","83","","","","36","","9","","","","98.61","","","","-12","","NA"
"-88.34","49.15","CAMERON FALLS (AUT)","6041110","2012-02-17 08:00","2012","02","17","08:00","-7.4","","-9.2","","87","","","","36","","7","","","","98.68","","","","-11","","NA"
"-88.34","49.15","CAMERON FALLS (AUT)","6041110","2012-02-17 09:00","2012","02","17","09:00","-7.6","","-9.8","","84","","","","1","","15","","","","98.73","","","","-14","","NA"
"-88.34","49.15","CAMERON FALLS (AUT)","6041110","2012-02-17 10:00","2012","02","17","10:00","-7.7","","-10.8","","78","","","","35","","15","","","","98.77","","","","-14","","NA"
"-88.34","49.15","CAMERON FALLS (AUT)","6041110","2012-02-17 11:00","2012","02","17","11:00","-7.3","","-10.6","","77","","","","1","","17","","","","98.78","","","","-14","","NA"
"-88.34","49.15","CAMERON FALLS (AUT)","6041110","2012-02-17 12:00","2012","02","17","12:00","-6.8","","-11.1","","71","","","","1","","22","","","","98.79","","","","-14","","NA"
"-88.34","49.15","CAMERON FALLS (AUT)","6041110","2012-02-17 13:00","2012","02","17","13:00","-6.3","","-11.2","","68","","","","2","","22","","","","98.78","","","","-14","","NA"
"-88.34","49.15","CAMERON FALLS (AUT)","6041110","2012-02-17 14:00","2012","02","17","14:00","-5.6","","-10.9","","66","","","","36","","15","","","","98.79","","","","-11","","NA"
"-88.34","49.15","CAMERON FALLS (AUT)","6041110","2012-02-17 15:00","2012","02","17","15:00","-5.6","","-10.9","","66","","","","2","","19","","","","98.78","","","","-12","","NA"
"-88.34","49.15","CAMERON FALLS (AUT)","6041110","2012-02-17 16:00","2012","02","17","16:00","-5.8","","-10.1","","72","","","","1","","19","","","","98.80","","","","-12","","NA"
"-88.34","49.15","CAMERON FALLS (AUT)","6041110","2012-02-17 17:00","2012","02","17","17:00","-6.3","","-9.8","","76","","","","1","","19","","","","98.86","","","","-13","","NA"
"-88.34","49.15","CAMERON FALLS (AUT)","6041110","2012-02-17 18:00","2012","02","17","18:00","-6.9","","-10.2","","77","","","","1","","19","","","","98.90","","","","-14","","NA"
"-88.34","49.15","CAMERON FALLS (AUT)","6041110","2012-02-17 19:00","2012","02","17","19:00","-7.6","","-10.7","","78","","","","1","","11","","","","98.96","","","","-13","","NA"
"-88.34","49.15","CAMERON FALLS (AUT)","6041110","2012-02-17 20:00","2012","02","17","20:00","-8.0","","-11.0","","79","","","","1","","11","","","","98.99","","","","-13","","NA"
"-88.34","49.15","CAMERON FALLS (AUT)","6041110","2012-02-17 21:00","2012","02","17","21:00","-8.3","","-11.6","","77","","","","36","","7","","","","99.00","","","","-12","","NA"
"-88.34","49.15","CAMERON FALLS (AUT)","6041110","2012-02-17 22:00","2012","02","17","22:00","-8.5","","-12.1","","75","","","","36","","11","","","","99.02","","","","-14","","NA"
"-88.34","49.15","CAMERON FALLS (AUT)","6041110","2012-02-17 23:00","2012","02","17","23:00","-9.1","","-12.8","","74","","","","35","","11","","","","99.04","","","","-15","","NA"
"-88.34","49.15","CAMERON FALLS (AUT)","6041110","2012-02-18 00:00","2012","02","18","00:00","-9.3","","-12.5","","78","","","","36","","11","","","","99.04","","","","-15","","NA"
"-88.34","49.15","CAMERON FALLS (AUT)","6041110","2012-02-18 01:00","2012","02","18","01:00","-10.2","","-13.1","","79","","","","35","","6","","","","99.05","","","","-14","","NA"
"-88.34","49.15","CAMERON FALLS (AUT)","6041110","2012-02-18 02:00","2012","02","18","02:00","-10.5","","-12.7","","84","","","","35","","4","","","","99.05","","","","-13","","NA"
"-88.34","49.15","CAMERON FALLS (AUT)","6041110","2012-02-18 03:00","2012","02","18","03:00","-10.4","","-13.0","","81","","","","34","","6","","","","99.09","","","","-14","","NA"
"-88.34","49.15","CAMERON FALLS (AUT)","6041110","2012-02-18 04:00","2012","02","18","04:00","-10.5","","-13.2","","81","","","","33","","6","","","","99.11","","","","-14","","NA"
"-88.34","49.15","CAMERON FALLS (AUT)","6041110","2012-02-18 05:00","2012","02","18","05:00","-10.4","","-12.5","","85","","","","36","","7","","","","99.12","","","","-14","","NA"
"-88.34","49.15","CAMERON FALLS (AUT)","6041110","2012-02-18 06:00","2012","02","18","06:00","-10.6","","-12.8","","84","","","","35","","4","","","","99.13","","","","-13","","NA"
"-88.34","49.15","CAMERON FALLS (AUT)","6041110","2012-02-18 07:00","2012","02","18","07:00","-11.0","","-13.2","","84","","","","","","0","","","","99.16","","","","","","NA"
"-88.34","49.15","CAMERON FALLS (AUT)","6041110","2012-02-18 08:00","2012","02","18","08:00","-10.9","","-12.7","","87","","","","27","","4","","","","99.22","","","","-13","","NA"
"-88.34","49.15","CAMERON FALLS (AUT)","6041110","2012-02-18 09:00","2012","02","18","09:00","-11.0","","-12.9","","86","","","","32","","2","","","","99.27","","","","-12","","NA"
"-88.34","49.15","CAMERON FALLS (AUT)","6041110","2012-02-18 10:00","2012","02","18","10:00","-10.0","","-12.6","","81","","","","12","","2","","","","99.27","","","","-11","","NA"
"-88.34","49.15","CAMERON FALLS (AUT)","6041110","2012-02-18 11:00","2012","02","18","11:00","-7.8","","-12.7","","68","","","","34","","4","","","","99.23","","","","-10","","NA"
"-88.34","49.15","CAMERON FALLS (AUT)","6041110","2012-02-18 12:00","2012","02","18","12:00","-7.7","","-14.5","","58","","","","35","","15","","","","99.24","","","","-14","","NA"
"-88.34","49.15","CAMERON FALLS (AUT)","6041110","2012-02-18 13:00","2012","02","18","13:00","-6.6","","-13.4","","58","","","","30","","7","","","","99.23","","","","-10","","NA"
"-88.34","49.15","CAMERON FALLS (AUT)","6041110","2012-02-18 14:00","2012","02","18","14:00","-6.0","","-13.0","","58","","","","28","","11","","","","99.22","","","","-11","","NA"
"-88.34","49.15","CAMERON FALLS (AUT)","6041110","2012-02-18 15:00","2012","02","18","15:00","-5.7","","-12.7","","58","","","","32","","7","","","","99.18","","","","-9","","NA"
"-88.34","49.15","CAMERON FALLS (AUT)","6041110","2012-02-18 16:00","2012","02","18","16:00","-5.2","","-12.9","","55","","","","25","","7","","","","99.19","","","","-8","","NA"
"-88.34","49.15","CAMERON FALLS (AUT)","6041110","2012-02-18 17:00","2012","02","18","17:00","-4.7","","-12.0","","57","","","","29","","6","","","","99.17","","","","-7","","NA"
"-88.34","49.15","CAMERON FALLS (AUT)","6041110","2012-02-18 18:00","2012","02","18","18:00","-5.0","","-12.0","","58","","","","36","","6","","","","99.16","","","","-8","","NA"
"-88.34","49.15","CAMERON FALLS (AUT)","6041110","2012-02-18 19:00","2012","02","18","19:00","-9.0","","-11.3","","83","","","","2","","4","","","","99.18","","","","-11","","NA"
"-88.34","49.15","CAMERON FALLS (AUT)","6041110","2012-02-18 20:00","2012","02","18","20:00","-10.7","","-13.2","","82","","","","2","","2","","","","99.19","","","","-12","","NA"
"-88.34","49.15","CAMERON FALLS (AUT)","6041110","2012-02-18 21:00","2012","02","18","21:00","-13.0","","-14.2","","91","","","","2","","4","","","","99.20","","","","-16","","NA"
"-88.34","49.15","CAMERON FALLS (AUT)","6041110","2012-02-18 22:00","2012","02","18","22:00","-13.9","","-15.0","","91","","","","","","0","","","","99.22","","","","","","NA"
"-88.34","49.15","CAMERON FALLS (AUT)","6041110","2012-02-18 23:00","2012","02","18","23:00","-15.0","","-16.3","","90","","","","1","","4","","","","99.22","","","","-18","","NA"
"-88.34","49.15","CAMERON FALLS (AUT)","6041110","2012-02-19 00:00","2012","02","19","00:00","-16.3","","-17.9","","87","","","","","","0","","","","99.22","","","","","","NA"
"-88.34","49.15","CAMERON FALLS (AUT)","6041110","2012-02-19 01:00","2012","02","19","01:00","-16.8","","-18.4","","87","","","","","","0","","","","99.20","","","","","","NA"
"-88.34","49.15","CAMERON FALLS (AUT)","6041110","2012-02-19 02:00","2012","02","19","02:00","-17.9","","-19.7","","86","","","","","","0","","","","99.20","","","","","","NA"
"-88.34","49.15","CAMERON FALLS (AUT)","6041110","2012-02-19 03:00","2012","02","19","03:00","-18.4","","-20.2","","86","","","","","","0","","","","99.18","","","","","","NA"
"-88.34","49.15","CAMERON FALLS (AUT)","6041110","2012-02-19 04:00","2012","02","19","04:00","-17.5","","-19.2","","87","","","","","","0","","","","99.13","","","","","","NA"
"-88.34","49.15","CAMERON FALLS (AUT)","6041110","2012-02-19 05:00","2012","02","19","05:00","-16.1","","-17.7","","87","","","","","","0","","","","99.14","","","","","","NA"
"-88.34","49.15","CAMERON FALLS (AUT)","6041110","2012-02-19 06:00","2012","02","19","06:00","-16.1","","-17.8","","87","","","","17","","2","","","","99.14","","","","-18","","NA"
"-88.34","49.15","CAMERON FALLS (AUT)","6041110","2012-02-19 07:00","2012","02","19","07:00","-15.9","","-17.5","","87","","","","","","0","","","","99.14","","","","","","NA"
"-88.34","49.15","CAMERON FALLS (AUT)","6041110","2012-02-19 08:00","2012","02","19","08:00","-17.0","","-18.8","","86","","","","18","","2","","","","99.14","","","","-19","","NA"
"-88.34","49.15","CAMERON FALLS (AUT)","6041110","2012-02-19 09:00","2012","02","19","09:00","-16.2","","-17.9","","87","","","","20","","2","","","","99.15","","","","-18","","NA"
"-88.34","49.15","CAMERON FALLS (AUT)","6041110","2012-02-19 10:00","2012","02","19","10:00","-11.4","","-12.8","","89","","","","","","0","","","","99.14","","","","","","NA"
"-88.34","49.15","CAMERON FALLS (AUT)","6041110","2012-02-19 11:00","2012","02","19","11:00","-8.4","","-11.5","","78","","","","2","","2","","","","99.11","","","","-9","","NA"
"-88.34","49.15","CAMERON FALLS (AUT)","6041110","2012-02-19 12:00","2012","02","19","12:00","-4.0","","-11.5","","56","","","","17","","6","","","","99.07","","","","-7","","NA"
"-88.34","49.15","CAMERON FALLS (AUT)","6041110","2012-02-19 13:00","2012","02","19","13:00","0.6","","-9.1","","48","","","","18","","2","","","","99.01","","","","","","NA"
"-88.34","49.15","CAMERON FALLS (AUT)","6041110","2012-02-19 14:00","2012","02","19","14:00","0.8","","-9.5","","46","","","","15","","7","","","","98.94","","","","","","NA"
"-88.34","49.15","CAMERON FALLS (AUT)","6041110","2012-02-19 15:00","2012","02","19","15:00","1.7","","-8.2","","48","","","","16","","11","","","","98.86","","","","","","NA"
"-88.34","49.15","CAMERON FALLS (AUT)","6041110","2012-02-19 16:00","2012","02","19","16:00","2.0","","-8.2","","47","","","","15","","9","","","","98.81","","","","","","NA"
"-88.34","49.15","CAMERON FALLS (AUT)","6041110","2012-02-19 17:00","2012","02","19","17:00","2.1","","-7.8","","48","","","","17","","13","","","","98.82","","","","","","NA"
"-88.34","49.15","CAMERON FALLS (AUT)","6041110","2012-02-19 18:00","2012","02","19","18:00","0.5","","-7.5","","55","","","","18","","9","","","","98.85","","","","","","NA"
"-88.34","49.15","CAMERON FALLS (AUT)","6041110","2012-02-19 19:00","2012","02","19","19:00","-2.4","","-6.6","","73","","","","17","","2","","","","98.88","","","","-3","","NA"
"-88.34","49.15","CAMERON FALLS (AUT)","6041110","2012-02-19 20:00","2012","02","19","20:00","-5.3","","-7.3","","86","","","","2","","4","","","","98.91","","","","-7","","NA"
"-88.34","49.15","CAMERON FALLS (AUT)","6041110","2012-02-19 21:00","2012","02","19","21:00","-6.4","","-8.2","","87","","","","2","","2","","","","98.94","","","","-7","","NA"
"-88.34","49.15","CAMERON FALLS (AUT)","6041110","2012-02-19 22:00","2012","02","19","22:00","-7.1","","-8.3","","91","","","","1","","2","","","","98.97","","","","-8","","NA"
"-88.34","49.15","CAMERON FALLS (AUT)","6041110","2012-02-19 23:00","2012","02","19","23:00","-8.5","","-9.4","","93","","","","","","0","","","","99.01","","","","","","NA"
"-88.34","49.15","CAMERON FALLS (AUT)","6041110","2012-02-20 00:00","2012","02","20","00:00","-9.6","","-10.4","","94","","","","2","","2","","","","99.03","","","","-11","","NA"
"-88.34","49.15","CAMERON FALLS (AUT)","6041110","2012-02-20 01:00","2012","02","20","01:00","-11.3","","-12.2","","93","","","","","","0","","","","99.06","","","","","","NA"
"-88.34","49.15","CAMERON FALLS (AUT)","6041110","2012-02-20 02:00","2012","02","20","02:00","-12.0","","-12.9","","93","","","","","","0","","","","99.08","","","","","","NA"
"-88.34","49.15","CAMERON FALLS (AUT)","6041110","2012-02-20 03:00","2012","02","20","03:00","-12.4","","-13.5","","91","","","","","","0","","","","99.11","","","","","","NA"
"-88.34","49.15","CAMERON FALLS (AUT)","6041110","2012-02-20 04:00","2012","02","20","04:00","-13.2","","-14.3","","91","","","","","","0","","","","99.11","","","","","","NA"
"-88.34","49.15","CAMERON FALLS (AUT)","6041110","2012-02-20 05:00","2012","02","20","05:00","-13.3","","-14.5","","91","","","","","","0","","","","99.11","","","","","","NA"
"-88.34","49.15","CAMERON FALLS (AUT)","6041110","2012-02-20 06:00","2012","02","20","06:00","-12.5","","-13.6","","91","","","","19","","4","","","","99.11","","","","-15","","NA"
"-88.34","49.15","CAMERON FALLS (AUT)","6041110","2012-02-20 07:00","2012","02","20","07:00","-11.4","","-12.5","","92","","","","18","","2","","","","99.11","","","","-13","","NA"
"-88.34","49.15","CAMERON FALLS (AUT)","6041110","2012-02-20 08:00","2012","02","20","08:00","-11.1","","-12.2","","92","","","","18","","4","","","","99.10","","","","-14","","NA"
"-88.34","49.15","CAMERON FALLS (AUT)","6041110","2012-02-20 09:00","2012","02","20","09:00","-9.9","","-10.9","","92","","","","4","","2","","","","99.11","","","","-11","","NA"
"-88.34","49.15","CAMERON FALLS (AUT)","6041110","2012-02-20 10:00","2012","02","20","10:00","-7.9","","-8.8","","93","","","","1","","4","","","","99.11","","","","-10","","NA"
"-88.34","49.15","CAMERON FALLS (AUT)","6041110","2012-02-20 11:00","2012","02","20","11:00","-5.6","","-6.3","","95","","","","","","0","","","","99.07","","","","","","NA"
"-88.34","49.15","CAMERON FALLS (AUT)","6041110","2012-02-20 12:00","2012","02","20","12:00","-1.3","","-1.8","","96","","","","15","","7","","","","99.01","","","","-4","","NA"
"-88.34","49.15","CAMERON FALLS (AUT)","6041110","2012-02-20 13:00","2012","02","20","13:00","1.8","","-3.1","","70","","","","17","","22","","","","98.95","","","","","","NA"
"-88.34","49.15","CAMERON FALLS (AUT)","6041110","2012-02-20 14:00","2012","02","20","14:00","3.2","","-2.8","","65","","","","17","","15","","","","98.85","","","","","","NA"
"-88.34","49.15","CAMERON FALLS (AUT)","6041110","2012-02-20 15:00","2012","02","20","15:00","3.5","","-3.5","","60","","","","16","","24","","","","98.78","","","","","","NA"
"-88.34","49.15","CAMERON FALLS (AUT)","6041110","2012-02-20 16:00","2012","02","20","16:00","2.5","","-2.5","","70","","","","16","","17","","","","98.74","","","","","","NA"
"-88.34","49.15","CAMERON FALLS (AUT)","6041110","2012-02-20 17:00","2012","02","20","17:00","1.9","","-2.3","","74","","","","16","","15","","","","98.69","","","","","","NA"
"-88.34","49.15","CAMERON FALLS (AUT)","6041110","2012-02-20 18:00","2012","02","20","18:00","1.3","","-2.7","","75","","","","16","","11","","","","98.66","","","","","","NA"
"-88.34","49.15","CAMERON FALLS (AUT)","6041110","2012-02-20 19:00","2012","02","20","19:00","0.6","","-3.1","","76","","","","16","","9","","","","98.62","","","","","","NA"
"-88.34","49.15","CAMERON FALLS (AUT)","6041110","2012-02-20 20:00","2012","02","20","20:00","0.0","","-3.4","","78","","","","16","","9","","","","98.58","","","","-3","","NA"
"-88.34","49.15","CAMERON FALLS (AUT)","6041110","2012-02-20 21:00","2012","02","20","21:00","-0.7","","-3.6","","81","","","","17","","4","","","","98.49","","","","-2","","NA"
"-88.34","49.15","CAMERON FALLS (AUT)","6041110","2012-02-20 22:00","2012","02","20","22:00","-0.8","","-3.5","","82","","","","15","","6","","","","98.39","","","","-3","","NA"
"-88.34","49.15","CAMERON FALLS (AUT)","6041110","2012-02-20 23:00","2012","02","20","23:00","-0.6","","-3.3","","82","","","","16","","2","","","","98.31","","","","-1","","NA"
"-88.34","49.15","CAMERON FALLS (AUT)","6041110","2012-02-21 00:00","2012","02","21","00:00","0.3","","-3.5","","76","","","","15","","9","","","","98.20","","","","","","NA"
"-88.34","49.15","CAMERON FALLS (AUT)","6041110","2012-02-21 01:00","2012","02","21","01:00","0.5","","-4.7","","68","","","","15","","7","","","","98.12","","","","","","NA"
"-88.34","49.15","CAMERON FALLS (AUT)","6041110","2012-02-21 02:00","2012","02","21","02:00","-0.3","","-4.6","","73","","","","16","","9","","","","98.04","","","","-3","","NA"
"-88.34","49.15","CAMERON FALLS (AUT)","6041110","2012-02-21 03:00","2012","02","21","03:00","-0.7","","-3.4","","82","","","","17","","7","","","","97.97","","","","-3","","NA"
"-88.34","49.15","CAMERON FALLS (AUT)","6041110","2012-02-21 04:00","2012","02","21","04:00","-0.8","","-3.1","","84","","","","17","","9","","","","97.83","","","","-4","","NA"
"-88.34","49.15","CAMERON FALLS (AUT)","6041110","2012-02-21 05:00","2012","02","21","05:00","-0.7","","-3.5","","81","","","","16","","13","","","","97.71","","","","-5","","NA"
"-88.34","49.15","CAMERON FALLS (AUT)","6041110","2012-02-21 06:00","2012","02","21","06:00","-0.4","","-4.1","","76","","","","16","","15","","","","97.61","","","","-5","","NA"
"-88.34","49.15","CAMERON FALLS (AUT)","6041110","2012-02-21 07:00","2012","02","21","07:00","-0.2","","-4.1","","75","","","","16","","11","","","","97.47","","","","-4","","NA"
"-88.34","49.15","CAMERON FALLS (AUT)","6041110","2012-02-21 08:00","2012","02","21","08:00","-0.2","","-2.5","","84","","","","16","","11","","","","97.39","","","","-4","","NA"
"-88.34","49.15","CAMERON FALLS (AUT)","6041110","2012-02-21 09:00","2012","02","21","09:00","-0.2","","-1.5","","91","","","","16","","13","","","","97.32","","","","-4","","NA"
"-88.34","49.15","CAMERON FALLS (AUT)","6041110","2012-02-21 10:00","2012","02","21","10:00","0.4","","-1.4","","88","","","","16","","11","","","","97.20","","","","","","NA"
"-88.34","49.15","CAMERON FALLS (AUT)","6041110","2012-02-21 11:00","2012","02","21","11:00","0.9","","-1.5","","84","","","","16","","17","","","","97.08","","","","","","NA"
"-88.34","49.15","CAMERON FALLS (AUT)","6041110","2012-02-21 12:00","2012","02","21","12:00","0.9","","-1.8","","82","","","","16","","13","","","","96.97","","","","","","NA"
"-88.34","49.15","CAMERON FALLS (AUT)","6041110","2012-02-21 13:00","2012","02","21","13:00","0.6","","-1.4","","86","","","","16","","13","","","","96.87","","","","","","NA"
"-88.34","49.15","CAMERON FALLS (AUT)","6041110","2012-02-21 14:00","2012","02","21","14:00","0.2","","-1.0","","92","","","","16","","13","","","","96.75","","","","","","NA"
"-88.34","49.15","CAMERON FALLS (AUT)","6041110","2012-02-21 15:00","2012","02","21","15:00","0.0","","-0.7","","95","","","","15","","6","","","","96.67","","","","-2","","NA"
"-88.34","49.15","CAMERON FALLS (AUT)","6041110","2012-02-21 16:00","2012","02","21","16:00","0.0","","-0.6","","96","","","","16","","4","","","","96.59","","","","-1","","NA"
"-88.34","49.15","CAMERON FALLS (AUT)","6041110","2012-02-21 17:00","2012","02","21","17:00","0.0","","-0.5","","96","","","","15","","4","","","","96.55","","","","-1","","NA"
"-88.34","49.15","CAMERON FALLS (AUT)","6041110","2012-02-21 18:00","2012","02","21","18:00","0.0","","-0.5","","96","","","","14","","4","","","","96.50","","","","-1","","NA"
"-88.34","49.15","CAMERON FALLS (AUT)","6041110","2012-02-21 19:00","2012","02","21","19:00","0.1","","-0.3","","97","","","","10","","4","","","","96.45","","","","","","NA"
"-88.34","49.15","CAMERON FALLS (AUT)","6041110","2012-02-21 20:00","2012","02","21","20:00","0.1","","-0.3","","97","","","","10","","4","","","","96.40","","","","","","NA"
"-88.34","49.15","CAMERON FALLS (AUT)","6041110","2012-02-21 21:00","2012","02","21","21:00","-0.1","","-0.5","","97","","","","4","","6","","","","96.34","","","","-2","","NA"
"-88.34","49.15","CAMERON FALLS (AUT)","6041110","2012-02-21 22:00","2012","02","21","22:00","-0.3","","-0.7","","97","","","","4","","7","","","","96.29","","","","-3","","NA"
"-88.34","49.15","CAMERON FALLS (AUT)","6041110","2012-02-21 23:00","2012","02","21","23:00","-0.5","","-0.9","","97","","","","3","","9","","","","96.24","","","","-4","","NA"
"-88.34","49.15","CAMERON FALLS (AUT)","6041110","2012-02-22 00:00","2012","02","22","00:00","-0.7","","-1.2","","96","","","","3","","6","","","","96.20","","","","-3","","NA"
"-88.34","49.15","CAMERON FALLS (AUT)","6041110","2012-02-22 01:00","2012","02","22","01:00","-0.9","","-1.4","","96","","","","2","","6","","","","96.18","","","","-3","","NA"
"-88.34","49.15","CAMERON FALLS (AUT)","6041110","2012-02-22 02:00","2012","02","22","02:00","-1.1","","-1.5","","97","","","","1","","6","","","","96.17","","","","-3","","NA"
"-88.34","49.15","CAMERON FALLS (AUT)","6041110","2012-02-22 03:00","2012","02","22","03:00","-1.3","","-1.7","","97","","","","1","","7","","","","96.16","","","","-4","","NA"
"-88.34","49.15","CAMERON FALLS (AUT)","6041110","2012-02-22 04:00","2012","02","22","04:00","-1.1","","-1.9","","94","","","","35","","7","","","","96.14","","","","-4","","NA"
"-88.34","49.15","CAMERON FALLS (AUT)","6041110","2012-02-22 05:00","2012","02","22","05:00","-1.3","","-2.1","","94","","","","35","","11","","","","96.16","","","","-5","","NA"
"-88.34","49.15","CAMERON FALLS (AUT)","6041110","2012-02-22 06:00","2012","02","22","06:00","-1.5","","-2.3","","94","","","","35","","15","","","","96.17","","","","-6","","NA"
"-88.34","49.15","CAMERON FALLS (AUT)","6041110","2012-02-22 07:00","2012","02","22","07:00","-1.8","","-2.7","","94","","","","35","","15","","","","96.21","","","","-7","","NA"
"-88.34","49.15","CAMERON FALLS (AUT)","6041110","2012-02-22 08:00","2012","02","22","08:00","-3.6","","-4.8","","91","","","","36","","19","","","","96.27","","","","-10","","NA"
"-88.34","49.15","CAMERON FALLS (AUT)","6041110","2012-02-22 09:00","2012","02","22","09:00","-6.1","","-7.5","","90","","","","35","","17","","","","96.35","","","","-12","","NA"
"-88.34","49.15","CAMERON FALLS (AUT)","6041110","2012-02-22 10:00","2012","02","22","10:00","-7.6","","-9.2","","88","","","","35","","17","","","","96.43","","","","-14","","NA"
"-88.34","49.15","CAMERON FALLS (AUT)","6041110","2012-02-22 11:00","2012","02","22","11:00","-8.1","","-9.9","","87","","","","35","","15","","","","96.45","","","","-14","","NA"
"-88.34","49.15","CAMERON FALLS (AUT)","6041110","2012-02-22 12:00","2012","02","22","12:00","-8.5","","-10.6","","85","","","","36","","19","","","","96.49","","","","-16","","NA"
"-88.34","49.15","CAMERON FALLS (AUT)","6041110","2012-02-22 13:00","2012","02","22","13:00","-8.0","","-10.0","","85","","","","35","","17","","","","96.46","","","","-15","","NA"
"-88.34","49.15","CAMERON FALLS (AUT)","6041110","2012-02-22 14:00","2012","02","22","14:00","-7.7","","-9.9","","84","","","","36","","20","","","","96.46","","","","-15","","NA"
"-88.34","49.15","CAMERON FALLS (AUT)","6041110","2012-02-22 15:00","2012","02","22","15:00","-7.7","","-9.9","","84","","","","36","","17","","","","96.49","","","","-14","","NA"
"-88.34","49.15","CAMERON FALLS (AUT)","6041110","2012-02-22 16:00","2012","02","22","16:00","-7.8","","-10.4","","82","","","","35","","17","","","","96.54","","","","-14","","NA"
"-88.34","49.15","CAMERON FALLS (AUT)","6041110","2012-02-22 17:00","2012","02","22","17:00","-7.7","","-10.2","","82","","","","36","","15","","","","96.56","","","","-14","","NA"
"-88.34","49.15","CAMERON FALLS (AUT)","6041110","2012-02-22 18:00","2012","02","22","18:00","-8.1","","-10.3","","84","","","","36","","11","","","","96.62","","","","-13","","NA"
"-88.34","49.15","CAMERON FALLS (AUT)","6041110","2012-02-22 19:00","2012","02","22","19:00","-8.4","","-10.3","","86","","","","33","","6","","","","96.69","","","","-12","","NA"
"-88.34","49.15","CAMERON FALLS (AUT)","6041110","2012-02-22 20:00","2012","02","22","20:00","-8.2","","-9.9","","88","","","","35","","4","","","","96.72","","","","-10","","NA"
"-88.34","49.15","CAMERON FALLS (AUT)","6041110","2012-02-22 21:00","2012","02","22","21:00","-8.0","","-9.7","","88","","","","33","","4","","","","96.75","","","","-10","","NA"
"-88.34","49.15","CAMERON FALLS (AUT)","6041110","2012-02-22 22:00","2012","02","22","22:00","-8.4","","-9.9","","89","","","","34","","7","","","","96.74","","","","-12","","NA"
"-88.34","49.15","CAMERON FALLS (AUT)","6041110","2012-02-22 23:00","2012","02","22","23:00","-8.6","","-9.7","","92","","","","30","","4","","","","96.77","","","","-11","","NA"
"-88.34","49.15","CAMERON FALLS (AUT)","6041110","2012-02-23 00:00","2012","02","23","00:00","-8.9","","-10.3","","90","","","","32","","6","","","","96.79","","","","-12","","NA"
"-88.34","49.15","CAMERON FALLS (AUT)","6041110","2012-02-23 01:00","2012","02","23","01:00","-9.1","","-10.5","","90","","","","31","","4","","","","96.85","","","","-11","","NA"
"-88.34","49.15","CAMERON FALLS (AUT)","6041110","2012-02-23 02:00","2012","02","23","02:00","-9.2","","-10.5","","90","","","","35","","4","","","","96.90","","","","-11","","NA"
"-88.34","49.15","CAMERON FALLS (AUT)","6041110","2012-02-23 03:00","2012","02","23","03:00","-9.7","","-10.6","","93","","","","35","","4","","","","96.96","","","","-12","","NA"
"-88.34","49.15","CAMERON FALLS (AUT)","6041110","2012-02-23 04:00","2012","02","23","04:00","-10.3","","-11.4","","92","","","","35","","2","","","","97.01","","","","-11","","NA"
"-88.34","49.15","CAMERON FALLS (AUT)","6041110","2012-02-23 05:00","2012","02","23","05:00","-11.7","","-12.8","","92","","","","30","","2","","","","97.08","","","","-13","","NA"
"-88.34","49.15","CAMERON FALLS (AUT)","6041110","2012-02-23 06:00","2012","02","23","06:00","-11.9","","-12.7","","94","","","","1","","6","","","","97.12","","","","-16","","NA"
"-88.34","49.15","CAMERON FALLS (AUT)","6041110","2012-02-23 07:00","2012","02","23","07:00","-13.0","","-14.2","","91","","","","2","","2","","","","97.19","","","","-14","","NA"
"-88.34","49.15","CAMERON FALLS (AUT)","6041110","2012-02-23 08:00","2012","02","23","08:00","-13.7","","-15.1","","89","","","","32","","2","","","","97.27","","","","-15","","NA"
"-88.34","49.15","CAMERON FALLS (AUT)","6041110","2012-02-23 09:00","2012","02","23","09:00","-13.0","","-14.3","","90","","","","35","","4","","","","97.34","","","","-16","","NA"
"-88.34","49.15","CAMERON FALLS (AUT)","6041110","2012-02-23 10:00","2012","02","23","10:00","-11.9","","-13.1","","91","","","","36","","6","","","","97.39","","","","-16","","NA"
"-88.34","49.15","CAMERON FALLS (AUT)","6041110","2012-02-23 11:00","2012","02","23","11:00","-10.1","","-12.7","","81","","","","36","","6","","","","97.40","","","","-14","","NA"
"-88.34","49.15","CAMERON FALLS (AUT)","6041110","2012-02-23 12:00","2012","02","23","12:00","-8.8","","-12.2","","76","","","","33","","11","","","","97.43","","","","-14","","NA"
"-88.34","49.15","CAMERON FALLS (AUT)","6041110","2012-02-23 13:00","2012","02","23","13:00","-8.2","","-11.7","","76","","","","34","","11","","","","97.48","","","","-13","","NA"
"-88.34","49.15","CAMERON FALLS (AUT)","6041110","2012-02-23 14:00","2012","02","23","14:00","-7.1","","-10.6","","76","","","","1","","13","","","","97.50","","","","-13","","NA"
"-88.34","49.15","CAMERON FALLS (AUT)","6041110","2012-02-23 15:00","2012","02","23","15:00","-6.8","","-10.8","","73","","","","35","","11","","","","97.55","","","","-12","","NA"
"-88.34","49.15","CAMERON FALLS (AUT)","6041110","2012-02-23 16:00","2012","02","23","16:00","-6.4","","-9.7","","77","","","","1","","17","","","","97.56","","","","-13","","NA"
"-88.34","49.15","CAMERON FALLS (AUT)","6041110","2012-02-23 17:00","2012","02","23","17:00","-6.5","","-10.1","","76","","","","36","","11","","","","97.66","","","","-11","","NA"
"-88.34","49.15","CAMERON FALLS (AUT)","6041110","2012-02-23 18:00","2012","02","23","18:00","-7.5","","-10.3","","80","","","","1","","11","","","","97.73","","","","-13","","NA"
"-88.34","49.15","CAMERON FALLS (AUT)","6041110","2012-02-23 19:00","2012","02","23","19:00","-9.5","","-11.0","","89","","","","1","","6","","","","97.76","","","","-13","","NA"
"-88.34","49.15","CAMERON FALLS (AUT)","6041110","2012-02-23 20:00","2012","02","23","20:00","-10.4","","-12.4","","85","","","","29","","2","","","","97.84","","","","-12","","NA"
"-88.34","49.15","CAMERON FALLS (AUT)","6041110","2012-02-23 21:00","2012","02","23","21:00","-11.2","","-12.6","","89","","","","1","","6","","","","97.85","","","","-15","","NA"
"-88.34","49.15","CAMERON FALLS (AUT)","6041110","2012-02-23 22:00","2012","02","23","22:00","-11.5","","-12.5","","92","","","","35","","2","","","","97.85","","","","-13","","NA"
"-88.34","49.15","CAMERON FALLS (AUT)","6041110","2012-02-23 23:00","2012","02","23","23:00","-12.4","","-13.4","","92","","","","21","","4","","","","97.89","","","","-15","","NA"
"-88.34","49.15","CAMERON FALLS (AUT)","6041110","2012-02-24 00:00","2012","02","24","00:00","-14.4","","-15.6","","91","","","","2","","2","","","","97.88","","","","-16","","NA"
"-88.34","49.15","CAMERON FALLS (AUT)","6041110","2012-02-24 01:00","2012","02","24","01:00","-15.5","","-17.1","","88","","","","1","","2","","","","97.86","","","","-17","","NA"
"-88.34","49.15","CAMERON FALLS (AUT)","6041110","2012-02-24 02:00","2012","02","24","02:00","-15.5","","-16.9","","89","","","","1","","2","","","","97.85","","","","-17","","NA"
"-88.34","49.15","CAMERON FALLS (AUT)","6041110","2012-02-24 03:00","2012","02","24","03:00","-15.5","","-17.0","","88","","","","","","0","","","","97.84","","","","","","NA"
"-88.34","49.15","CAMERON FALLS (AUT)","6041110","2012-02-24 04:00","2012","02","24","04:00","-14.9","","-16.3","","89","","","","","","0","","","","97.84","","","","","","NA"
"-88.34","49.15","CAMERON FALLS (AUT)","6041110","2012-02-24 05:00","2012","02","24","05:00","-15.4","","-16.9","","88","","","","2","","4","","","","97.86","","","","-18","","NA"
"-88.34","49.15","CAMERON FALLS (AUT)","6041110","2012-02-24 06:00","2012","02","24","06:00","-15.9","","-17.5","","87","","","","","","0","","","","97.88","","","","","","NA"
"-88.34","49.15","CAMERON FALLS (AUT)","6041110","2012-02-24 07:00","2012","02","24","07:00","-14.1","","-15.5","","89","","","","","","0","","","","97.91","","","","","","NA"
"-88.34","49.15","CAMERON FALLS (AUT)","6041110","2012-02-24 08:00","2012","02","24","08:00","-13.1","","-14.4","","90","","","","2","","2","","","","97.93","","","","-14","","NA"
"-88.34","49.15","CAMERON FALLS (AUT)","6041110","2012-02-24 09:00","2012","02","24","09:00","-11.4","","-12.7","","90","","","","1","","2","","","","97.94","","","","-13","","NA"
"-88.34","49.15","CAMERON FALLS (AUT)","6041110","2012-02-24 10:00","2012","02","24","10:00","-8.8","","-9.8","","92","","","","1","","13","","","","97.91","","","","-15","","NA"
"-88.34","49.15","CAMERON FALLS (AUT)","6041110","2012-02-24 11:00","2012","02","24","11:00","-7.9","","-9.6","","88","","","","36","","11","","","","97.92","","","","-13","","NA"
"-88.34","49.15","CAMERON FALLS (AUT)","6041110","2012-02-24 12:00","2012","02","24","12:00","-6.4","","-9.6","","78","","","","36","","17","","","","97.86","","","","-13","","NA"
"-88.34","49.15","CAMERON FALLS (AUT)","6041110","2012-02-24 13:00","2012","02","24","13:00","-6.0","","-9.9","","74","","","","36","","20","","","","97.83","","","","-13","","NA"
"-88.34","49.15","CAMERON FALLS (AUT)","6041110","2012-02-24 14:00","2012","02","24","14:00","-6.0","","-10.2","","72","","","","36","","19","","","","97.83","","","","-13","","NA"
"-88.34","49.15","CAMERON FALLS (AUT)","6041110","2012-02-24 15:00","2012","02","24","15:00","-5.9","","-10.2","","72","","","","35","","19","","","","97.85","","","","-13","","NA"
"-88.34","49.15","CAMERON FALLS (AUT)","6041110","2012-02-24 16:00","2012","02","24","16:00","-6.0","","-10.2","","72","","","","1","","22","","","","97.94","","","","-13","","NA"
"-88.34","49.15","CAMERON FALLS (AUT)","6041110","2012-02-24 17:00","2012","02","24","17:00","-6.4","","-10.5","","73","","","","36","","19","","","","97.98","","","","-13","","NA"
"-88.34","49.15","CAMERON FALLS (AUT)","6041110","2012-02-24 18:00","2012","02","24","18:00","-6.8","","-10.3","","76","","","","1","","15","","","","98.06","","","","-13","","NA"
"-88.34","49.15","CAMERON FALLS (AUT)","6041110","2012-02-24 19:00","2012","02","24","19:00","-7.5","","-11.0","","76","","","","35","","9","","","","98.17","","","","-12","","NA"
"-88.34","49.15","CAMERON FALLS (AUT)","6041110","2012-02-24 20:00","2012","02","24","20:00","-8.3","","-11.2","","80","","","","35","","6","","","","98.21","","","","-12","","NA"
"-88.34","49.15","CAMERON FALLS (AUT)","6041110","2012-02-24 21:00","2012","02","24","21:00","-8.7","","-11.8","","78","","","","35","","15","","","","98.25","","","","-15","","NA"
"-88.34","49.15","CAMERON FALLS (AUT)","6041110","2012-02-24 22:00","2012","02","24","22:00","-9.9","","-13.2","","77","","","","34","","6","","","","98.31","","","","-13","","NA"
"-88.34","49.15","CAMERON FALLS (AUT)","6041110","2012-02-24 23:00","2012","02","24","23:00","-10.7","","-14.2","","75","","","","36","","4","","","","98.35","","","","-13","","NA"
"-88.34","49.15","CAMERON FALLS (AUT)","6041110","2012-02-25 00:00","2012","02","25","00:00","-13.8","","-15.5","","87","","","","1","","4","","","","98.40","","","","-17","","NA"
"-88.34","49.15","CAMERON FALLS (AUT)","6041110","2012-02-25 01:00","2012","02","25","01:00","-14.5","","-15.8","","90","","","","35","","2","","","","98.44","","","","-16","","NA"
"-88.34","49.15","CAMERON FALLS (AUT)","6041110","2012-02-25 02:00","2012","02","25","02:00","-13.7","","-16.8","","77","","","","35","","6","","","","98.49","","","","-18","","NA"
"-88.34","49.15","CAMERON FALLS (AUT)","6041110","2012-02-25 03:00","2012","02","25","03:00","-14.6","","-17.5","","79","","","","36","","4","","","","98.55","","","","-17","","NA"
"-88.34","49.15","CAMERON FALLS (AUT)","6041110","2012-02-25 04:00","2012","02","25","04:00","-15.5","","-19.1","","74","","","","35","","2","","","","98.62","","","","-17","","NA"
"-88.34","49.15","CAMERON FALLS (AUT)","6041110","2012-02-25 05:00","2012","02","25","05:00","-16.0","","-19.5","","74","","","","36","","2","","","","98.72","","","","-17","","NA"
"-88.34","49.15","CAMERON FALLS (AUT)","6041110","2012-02-25 06:00","2012","02","25","06:00","-16.1","","-19.9","","72","","","","36","","4","","","","98.82","","","","-19","","NA"
"-88.34","49.15","CAMERON FALLS (AUT)","6041110","2012-02-25 07:00","2012","02","25","07:00","-16.6","","-19.9","","76","","","","36","","6","","","","98.88","","","","-21","","NA"
"-88.34","49.15","CAMERON FALLS (AUT)","6041110","2012-02-25 08:00","2012","02","25","08:00","-18.6","","-20.1","","88","","","","2","","6","","","","98.94","","","","-23","","NA"
"-88.34","49.15","CAMERON FALLS (AUT)","6041110","2012-02-25 09:00","2012","02","25","09:00","-17.7","","-19.6","","85","","","","2","","6","","","","99.03","","","","-22","","NA"
"-88.34","49.15","CAMERON FALLS (AUT)","6041110","2012-02-25 10:00","2012","02","25","10:00","-13.9","","-18.3","","69","","","","1","","13","","","","99.06","","","","-21","","NA"
"-88.34","49.15","CAMERON FALLS (AUT)","6041110","2012-02-25 11:00","2012","02","25","11:00","-13.0","","-19.0","","61","","","","1","","17","","","","99.10","","","","-21","","NA"
"-88.34","49.15","CAMERON FALLS (AUT)","6041110","2012-02-25 12:00","2012","02","25","12:00","-11.6","","-18.5","","57","","","","36","","20","","","","99.17","","","","-20","","NA"
"-88.34","49.15","CAMERON FALLS (AUT)","6041110","2012-02-25 13:00","2012","02","25","13:00","-11.7","","-17.3","","63","","","","2","","17","","","","99.22","","","","-19","","NA"
"-88.34","49.15","CAMERON FALLS (AUT)","6041110","2012-02-25 14:00","2012","02","25","14:00","-11.3","","-17.9","","58","","","","2","","20","","","","99.23","","","","-20","","NA"
"-88.34","49.15","CAMERON FALLS (AUT)","6041110","2012-02-25 15:00","2012","02","25","15:00","-10.4","","-17.7","","55","","","","2","","17","","","","99.23","","","","-18","","NA"
"-88.34","49.15","CAMERON FALLS (AUT)","6041110","2012-02-25 16:00","2012","02","25","16:00","-10.0","","-16.7","","58","","","","2","","19","","","","99.27","","","","-18","","NA"
"-88.34","49.15","CAMERON FALLS (AUT)","6041110","2012-02-25 17:00","2012","02","25","17:00","-10.2","","-17.1","","57","","","","36","","15","","","","99.27","","","","-17","","NA"
"-88.34","49.15","CAMERON FALLS (AUT)","6041110","2012-02-25 18:00","2012","02","25","18:00","-10.5","","-16.4","","62","","","","1","","9","","","","99.33","","","","-15","","NA"
"-88.34","49.15","CAMERON FALLS (AUT)","6041110","2012-02-25 19:00","2012","02","25","19:00","-11.6","","-16.5","","67","","","","36","","6","","","","99.40","","","","-15","","NA"
"-88.34","49.15","CAMERON FALLS (AUT)","6041110","2012-02-25 20:00","2012","02","25","20:00","-14.1","","-16.1","","85","","","","2","","4","","","","99.45","","","","-17","","NA"
"-88.34","49.15","CAMERON FALLS (AUT)","6041110","2012-02-25 21:00","2012","02","25","21:00","-16.1","","-17.4","","90","","","","2","","4","","","","99.52","","","","-19","","NA"
"-88.34","49.15","CAMERON FALLS (AUT)","6041110","2012-02-25 22:00","2012","02","25","22:00","-18.2","","-19.9","","86","","","","1","","6","","","","99.56","","","","-23","","NA"
"-88.34","49.15","CAMERON FALLS (AUT)","6041110","2012-02-25 23:00","2012","02","25","23:00","-18.6","","-20.3","","86","","","","1","","4","","","","99.59","","","","-22","","NA"
"-88.34","49.15","CAMERON FALLS (AUT)","6041110","2012-02-26 00:00","2012","02","26","00:00","-20.2","","-22.3","","83","","","","1","","4","","","","99.66","","","","-24","","NA"
"-88.34","49.15","CAMERON FALLS (AUT)","6041110","2012-02-26 01:00","2012","02","26","01:00","-20.7","","-22.7","","84","","","","2","","4","","","","99.73","","","","-24","","NA"
"-88.34","49.15","CAMERON FALLS (AUT)","6041110","2012-02-26 02:00","2012","02","26","02:00","-21.8","","-24.1","","82","","","","2","","4","","","","99.77","","","","-25","","NA"
"-88.34","49.15","CAMERON FALLS (AUT)","6041110","2012-02-26 03:00","2012","02","26","03:00","-22.3","","-24.6","","82","","","","1","","2","","","","99.74","","","","-24","","NA"
"-88.34","49.15","CAMERON FALLS (AUT)","6041110","2012-02-26 04:00","2012","02","26","04:00","-22.0","","-24.3","","82","","","","3","","2","","","","99.78","","","","-24","","NA"
"-88.34","49.15","CAMERON FALLS (AUT)","6041110","2012-02-26 05:00","2012","02","26","05:00","-20.8","","-22.9","","83","","","","13","","2","","","","99.78","","","","-23","","NA"
"-88.34","49.15","CAMERON FALLS (AUT)","6041110","2012-02-26 06:00","2012","02","26","06:00","-19.7","","-21.8","","83","","","","36","","6","","","","99.79","","","","-25","","NA"
"-88.34","49.15","CAMERON FALLS (AUT)","6041110","2012-02-26 07:00","2012","02","26","07:00","-18.6","","-20.5","","85","","","","25","","2","","","","99.76","","","","-20","","NA"
"-88.34","49.15","CAMERON FALLS (AUT)","6041110","2012-02-26 08:00","2012","02","26","08:00","-17.5","","-19.2","","87","","","","4","","4","","","","99.73","","","","-21","","NA"
"-88.34","49.15","CAMERON FALLS (AUT)","6041110","2012-02-26 09:00","2012","02","26","09:00","-16.4","","-18.1","","87","","","","3","","4","","","","99.70","","","","-19","","NA"
"-88.34","49.15","CAMERON FALLS (AUT)","6041110","2012-02-26 10:00","2012","02","26","10:00","-14.0","","-15.5","","88","","","","3","","4","","","","99.63","","","","-17","","NA"
"-88.34","49.15","CAMERON FALLS (AUT)","6041110","2012-02-26 11:00","2012","02","26","11:00","-10.9","","-14.9","","72","","","","7","","4","","","","99.54","","","","-13","","NA"
"-88.34","49.15","CAMERON FALLS (AUT)","6041110","2012-02-26 12:00","2012","02","26","12:00","-7.9","","-15.3","","55","","","","12","","4","","","","99.44","","","","-10","","NA"
"-88.34","49.15","CAMERON FALLS (AUT)","6041110","2012-02-26 13:00","2012","02","26","13:00","-6.9","","-14.6","","54","","","","8","","7","","","","99.38","","","","-10","","NA"
"-88.34","49.15","CAMERON FALLS (AUT)","6041110","2012-02-26 14:00","2012","02","26","14:00","-6.6","","-13.7","","57","","","","7","","6","","","","99.21","","","","-10","","NA"
"-88.34","49.15","CAMERON FALLS (AUT)","6041110","2012-02-26 15:00","2012","02","26","15:00","-7.4","","-12.0","","70","","","","9","","7","","","","99.16","","","","-11","","NA"
"-88.34","49.15","CAMERON FALLS (AUT)","6041110","2012-02-26 16:00","2012","02","26","16:00","-8.3","","-10.3","","85","","","","5","","9","","","","99.07","","","","-13","","NA"
"-88.34","49.15","CAMERON FALLS (AUT)","6041110","2012-02-26 17:00","2012","02","26","17:00","-8.9","","-11.1","","84","","","","5","","11","","","","99.06","","","","-14","","NA"
"-88.34","49.15","CAMERON FALLS (AUT)","6041110","2012-02-26 18:00","2012","02","26","18:00","-9.4","","-11.5","","85","","","","4","","13","","","","99.07","","","","-15","","NA"
"-88.34","49.15","CAMERON FALLS (AUT)","6041110","2012-02-26 19:00","2012","02","26","19:00","-10.0","","-11.9","","86","","","","5","","17","","","","99.06","","","","-17","","NA"
"-88.34","49.15","CAMERON FALLS (AUT)","6041110","2012-02-26 20:00","2012","02","26","20:00","-9.8","","-12.2","","83","","","","4","","15","","","","99.03","","","","-16","","NA"
"-88.34","49.15","CAMERON FALLS (AUT)","6041110","2012-02-26 21:00","2012","02","26","21:00","-9.8","","-12.2","","83","","","","4","","11","","","","98.97","","","","-15","","NA"
"-88.34","49.15","CAMERON FALLS (AUT)","6041110","2012-02-26 22:00","2012","02","26","22:00","-9.8","","-12.5","","81","","","","4","","7","","","","98.91","","","","-14","","NA"
"-88.34","49.15","CAMERON FALLS (AUT)","6041110","2012-02-26 23:00","2012","02","26","23:00","-10.0","","-12.2","","84","","","","4","","7","","","","98.86","","","","-14","","NA"
"-88.34","49.15","CAMERON FALLS (AUT)","6041110","2012-02-27 00:00","2012","02","27","00:00","-10.3","","-13.0","","81","","","","4","","11","","","","98.81","","","","-16","","NA"
"-88.34","49.15","CAMERON FALLS (AUT)","6041110","2012-02-27 01:00","2012","02","27","01:00","-10.4","","-12.1","","87","","","","2","","13","","","","98.80","","","","-17","","NA"
"-88.34","49.15","CAMERON FALLS (AUT)","6041110","2012-02-27 02:00","2012","02","27","02:00","-10.9","","-12.9","","85","","","","1","","17","","","","98.82","","","","-18","","NA"
"-88.34","49.15","CAMERON FALLS (AUT)","6041110","2012-02-27 03:00","2012","02","27","03:00","-12.1","","-14.4","","83","","","","35","","17","","","","98.82","","","","-20","","NA"
"-88.34","49.15","CAMERON FALLS (AUT)","6041110","2012-02-27 04:00","2012","02","27","04:00","-13.3","","-15.9","","81","","","","35","","19","","","","98.86","","","","-22","","NA"
"-88.34","49.15","CAMERON FALLS (AUT)","6041110","2012-02-27 05:00","2012","02","27","05:00","-13.8","","-15.9","","84","","","","36","","19","","","","98.95","","","","-22","","NA"
"-88.34","49.15","CAMERON FALLS (AUT)","6041110","2012-02-27 06:00","2012","02","27","06:00","-14.5","","-16.6","","84","","","","35","","15","","","","99.03","","","","-22","","NA"
"-88.34","49.15","CAMERON FALLS (AUT)","6041110","2012-02-27 07:00","2012","02","27","07:00","-15.3","","-17.6","","83","","","","34","","9","","","","99.10","","","","-21","","NA"
"-88.34","49.15","CAMERON FALLS (AUT)","6041110","2012-02-27 08:00","2012","02","27","08:00","-15.6","","-18.2","","80","","","","36","","19","","","","99.18","","","","-25","","NA"
"-88.34","49.15","CAMERON FALLS (AUT)","6041110","2012-02-27 09:00","2012","02","27","09:00","-15.4","","-18.0","","80","","","","36","","15","","","","99.33","","","","-23","","NA"
"-88.34","49.15","CAMERON FALLS (AUT)","6041110","2012-02-27 10:00","2012","02","27","10:00","-14.8","","-17.9","","77","","","","36","","17","","","","99.39","","","","-23","","NA"
"-88.34","49.15","CAMERON FALLS (AUT)","6041110","2012-02-27 11:00","2012","02","27","11:00","-14.2","","-17.7","","75","","","","35","","15","","","","99.49","","","","-22","","NA"
"-88.34","49.15","CAMERON FALLS (AUT)","6041110","2012-02-27 12:00","2012","02","27","12:00","-13.5","","-18.1","","68","","","","36","","20","","","","99.58","","","","-22","","NA"
"-88.34","49.15","CAMERON FALLS (AUT)","6041110","2012-02-27 13:00","2012","02","27","13:00","-12.4","","-16.6","","71","","","","1","","22","","","","99.64","","","","-21","","NA"
"-88.34","49.15","CAMERON FALLS (AUT)","6041110","2012-02-27 14:00","2012","02","27","14:00","-11.1","","-16.3","","65","","","","1","","19","","","","99.67","","","","-19","","NA"
"-88.34","49.15","CAMERON FALLS (AUT)","6041110","2012-02-27 15:00","2012","02","27","15:00","-10.6","","-17.4","","57","","","","1","","17","","","","99.71","","","","-18","","NA"
"-88.34","49.15","CAMERON FALLS (AUT)","6041110","2012-02-27 16:00","2012","02","27","16:00","-9.3","","-17.0","","54","","","","1","","17","","","","99.77","","","","-16","","NA"
"-88.34","49.15","CAMERON FALLS (AUT)","6041110","2012-02-27 17:00","2012","02","27","17:00","-9.2","","-16.7","","54","","","","1","","17","","","","99.84","","","","-16","","NA"
"-88.34","49.15","CAMERON FALLS (AUT)","6041110","2012-02-27 18:00","2012","02","27","18:00","-10.5","","-16.5","","61","","","","2","","9","","","","99.89","","","","-15","","NA"
"-88.34","49.15","CAMERON FALLS (AUT)","6041110","2012-02-27 19:00","2012","02","27","19:00","-13.1","","-16.1","","78","","","","1","","4","","","","99.92","","","","-16","","NA"
"-88.34","49.15","CAMERON FALLS (AUT)","6041110","2012-02-27 20:00","2012","02","27","20:00","-14.3","","-15.8","","88","","","","19","","2","","","","99.97","","","","-16","","NA"
"-88.34","49.15","CAMERON FALLS (AUT)","6041110","2012-02-27 21:00","2012","02","27","21:00","-16.9","","-18.7","","86","","","","19","","2","","","","99.99","","","","-18","","NA"
"-88.34","49.15","CAMERON FALLS (AUT)","6041110","2012-02-27 22:00","2012","02","27","22:00","-19.2","","-21.0","","86","","","","1","","2","","","","99.99","","","","-21","","NA"
"-88.34","49.15","CAMERON FALLS (AUT)","6041110","2012-02-27 23:00","2012","02","27","23:00","-20.1","","-22.2","","83","","","","36","","2","","","","99.99","","","","-22","","NA"
"-88.34","49.15","CAMERON FALLS (AUT)","6041110","2012-02-28 00:00","2012","02","28","00:00","-20.0","","-22.0","","84","","","","2","","2","","","","99.97","","","","-22","","NA"
"-88.34","49.15","CAMERON FALLS (AUT)","6041110","2012-02-28 01:00","2012","02","28","01:00","-20.0","","-22.0","","84","","","","","","0","","","","99.99","","","","","","NA"
"-88.34","49.15","CAMERON FALLS (AUT)","6041110","2012-02-28 02:00","2012","02","28","02:00","-19.8","","-21.8","","84","","","","2","","2","","","","100.00","","","","-22","","NA"
"-88.34","49.15","CAMERON FALLS (AUT)","6041110","2012-02-28 03:00","2012","02","28","03:00","-19.7","","-21.7","","84","","","","3","","2","","","","100.00","","","","-21","","NA"
"-88.34","49.15","CAMERON FALLS (AUT)","6041110","2012-02-28 04:00","2012","02","28","04:00","-18.9","","-20.8","","85","","","","","","0","","","","99.97","","","","","","NA"
"-88.34","49.15","CAMERON FALLS (AUT)","6041110","2012-02-28 05:00","2012","02","28","05:00","-18.2","","-20.0","","86","","","","18","","2","","","","99.92","","","","-20","","NA"
"-88.34","49.15","CAMERON FALLS (AUT)","6041110","2012-02-28 06:00","2012","02","28","06:00","-17.3","","-19.1","","86","","","","17","","2","","","","99.93","","","","-19","","NA"
"-88.34","49.15","CAMERON FALLS (AUT)","6041110","2012-02-28 07:00","2012","02","28","07:00","-17.1","","-18.9","","86","","","","4","","2","","","","99.94","","","","-19","","NA"
"-88.34","49.15","CAMERON FALLS (AUT)","6041110","2012-02-28 08:00","2012","02","28","08:00","-17.8","","-19.7","","85","","","","17","","2","","","","99.90","","","","-19","","NA"
"-88.34","49.15","CAMERON FALLS (AUT)","6041110","2012-02-28 09:00","2012","02","28","09:00","-15.8","","-17.4","","87","","","","","","0","","","","99.87","","","","","","NA"
"-88.34","49.15","CAMERON FALLS (AUT)","6041110","2012-02-28 10:00","2012","02","28","10:00","-13.4","","-14.8","","89","","","","","","0","","","","","M","","","","","NA"
"-88.34","49.15","CAMERON FALLS (AUT)","6041110","2012-02-28 11:00","2012","02","28","11:00","-11.3","","-13.6","","83","","","","36","","2","","","","99.77","","","","-13","","NA"
"-88.34","49.15","CAMERON FALLS (AUT)","6041110","2012-02-28 12:00","2012","02","28","12:00","-6.8","","-12.0","","66","","","","16","","4","","","","99.71","","","","-9","","NA"
"-88.34","49.15","CAMERON FALLS (AUT)","6041110","2012-02-28 13:00","2012","02","28","13:00","-4.3","","-9.3","","68","","","","16","","9","","","","99.64","","","","-8","","NA"
"-88.34","49.15","CAMERON FALLS (AUT)","6041110","2012-02-28 14:00","2012","02","28","14:00","-2.7","","-7.0","","72","","","","16","","13","","","","99.54","","","","-7","","NA"
"-88.34","49.15","CAMERON FALLS (AUT)","6041110","2012-02-28 15:00","2012","02","28","15:00","-1.5","","-6.4","","69","","","","16","","11","","","","99.44","","","","-5","","NA"
"-88.34","49.15","CAMERON FALLS (AUT)","6041110","2012-02-28 16:00","2012","02","28","16:00","-1.0","","-6.6","","66","","","","18","","9","","","","99.40","","","","-4","","NA"
"-88.34","49.15","CAMERON FALLS (AUT)","6041110","2012-02-28 17:00","2012","02","28","17:00","-1.3","","-5.9","","71","","","","16","","11","","","","99.40","","","","-5","","NA"
"-88.34","49.15","CAMERON FALLS (AUT)","6041110","2012-02-28 18:00","2012","02","28","18:00","-1.5","","-5.7","","73","","","","16","","9","","","","99.37","","","","-5","","NA"
"-88.34","49.15","CAMERON FALLS (AUT)","6041110","2012-02-28 19:00","2012","02","28","19:00","-2.0","","-5.8","","75","","","","15","","6","","","","99.36","","","","-4","","NA"
"-88.34","49.15","CAMERON FALLS (AUT)","6041110","2012-02-28 20:00","2012","02","28","20:00","-2.7","","-5.6","","80","","","","15","","7","","","","99.38","","","","-6","","NA"
"-88.34","49.15","CAMERON FALLS (AUT)","6041110","2012-02-28 21:00","2012","02","28","21:00","-3.4","","-6.2","","81","","","","17","","6","","","","99.36","","","","-6","","NA"
"-88.34","49.15","CAMERON FALLS (AUT)","6041110","2012-02-28 22:00","2012","02","28","22:00","-6.7","","-7.4","","95","","","","1","","2","","","","99.33","","","","-8","","NA"
"-88.34","49.15","CAMERON FALLS (AUT)","6041110","2012-02-28 23:00","2012","02","28","23:00","-7.2","","-7.8","","95","","","","8","","2","","","","99.35","","","","-8","","NA"
"-88.34","49.15","CAMERON FALLS (AUT)","6041110","2012-02-29 00:00","2012","02","29","00:00","-6.9","","-7.7","","94","","","","3","","4","","","","99.33","","","","-9","","NA"
"-88.34","49.15","CAMERON FALLS (AUT)","6041110","2012-02-29 01:00","2012","02","29","01:00","-6.1","","-7.1","","93","","","","3","","4","","","","99.22","","","","-8","","NA"
"-88.34","49.15","CAMERON FALLS (AUT)","6041110","2012-02-29 02:00","2012","02","29","02:00","-5.0","","-6.3","","91","","","","4","","4","","","","99.17","","","","-7","","NA"
"-88.34","49.15","CAMERON FALLS (AUT)","6041110","2012-02-29 03:00","2012","02","29","03:00","-2.9","","-5.8","","80","","","","5","","6","","","","99.04","","","","-5","","NA"
"-88.34","49.15","CAMERON FALLS (AUT)","6041110","2012-02-29 04:00","2012","02","29","04:00","-2.7","","-5.6","","80","","","","4","","9","","","","98.93","","","","-6","","NA"
"-88.34","49.15","CAMERON FALLS (AUT)","6041110","2012-02-29 05:00","2012","02","29","05:00","-2.7","","-5.6","","80","","","","4","","7","","","","98.80","","","","-6","","NA"
"-88.34","49.15","CAMERON FALLS (AUT)","6041110","2012-02-29 06:00","2012","02","29","06:00","-2.4","","-5.3","","80","","","","5","","7","","","","98.73","","","","-5","","NA"
"-88.34","49.15","CAMERON FALLS (AUT)","6041110","2012-02-29 07:00","2012","02","29","07:00","-2.3","","-5.4","","79","","","","5","","9","","","","98.67","","","","-6","","NA"
"-88.34","49.15","CAMERON FALLS (AUT)","6041110","2012-02-29 08:00","2012","02","29","08:00","-2.2","","-5.4","","79","","","","5","","11","","","","98.59","","","","-6","","NA"
"-88.34","49.15","CAMERON FALLS (AUT)","6041110","2012-02-29 09:00","2012","02","29","09:00","-1.9","","-5.8","","75","","","","7","","9","","","","98.55","","","","-5","","NA"
"-88.34","49.15","CAMERON FALLS (AUT)","6041110","2012-02-29 10:00","2012","02","29","10:00","-1.8","","-6.0","","73","","","","9","","9","","","","98.52","","","","-5","","NA"
"-88.34","49.15","CAMERON FALLS (AUT)","6041110","2012-02-29 11:00","2012","02","29","11:00","-1.6","","-6.4","","70","","","","9","","13","","","","98.53","","","","-6","","NA"
"-88.34","49.15","CAMERON FALLS (AUT)","6041110","2012-02-29 12:00","2012","02","29","12:00","-1.1","","-6.6","","66","","","","9","","11","","","","98.51","","","","-5","","NA"
"-88.34","49.15","CAMERON FALLS (AUT)","6041110","2012-02-29 13:00","2012","02","29","13:00","-0.2","","-6.3","","63","","","","7","","13","","","","98.38","","","","-4","","NA"
"-88.34","49.15","CAMERON FALLS (AUT)","6041110","2012-02-29 14:00","2012","02","29","14:00","0.5","","-6.7","","58","","","","6","","13","","","","98.23","","","","","","NA"
"-88.34","49.15","CAMERON FALLS (AUT)","6041110","2012-02-29 15:00","2012","02","29","15:00","0.5","","-7.0","","57","","","","6","","13","","","","98.13","","","","","","NA"
"-88.34","49.15","CAMERON FALLS (AUT)","6041110","2012-02-29 16:00","2012","02","29","16:00","0.6","","-7.2","","56","","","","5","","15","","","","98.03","","","","","","NA"
"-88.34","49.15","CAMERON FALLS (AUT)","6041110","2012-02-29 17:00","2012","02","29","17:00","0.4","","-7.2","","57","","","","5","","17","","","","97.97","","","","","","NA"
"-88.34","49.15","CAMERON FALLS (AUT)","6041110","2012-02-29 18:00","2012","02","29","18:00","0.0","","-7.6","","57","","","","5","","9","","","","97.95","","","","-3","","NA"
"-88.34","49.15","CAMERON FALLS (AUT)","6041110","2012-02-29 19:00","2012","02","29","19:00","-0.6","","-8.0","","57","","","","4","","9","","","","97.95","","","","-4","","NA"
"-88.34","49.15","CAMERON FALLS (AUT)","6041110","2012-02-29 20:00","2012","02","29","20:00","-1.2","","-8.4","","58","","","","5","","9","","","","97.95","","","","-4","","NA"
"-88.34","49.15","CAMERON FALLS (AUT)","6041110","2012-02-29 21:00","2012","02","29","21:00","-1.7","","-9.0","","57","","","","3","","11","","","","97.93","","","","-6","","NA"
"-88.34","49.15","CAMERON FALLS (AUT)","6041110","2012-02-29 22:00","2012","02","29","22:00","-2.1","","-9.6","","56","","","","5","","6","","","","97.96","","","","-4","","NA"
"-88.34","49.15","CAMERON FALLS (AUT)","6041110","2012-02-29 23:00","2012","02","29","23:00","-2.1","","-9.5","","57","","","","4","","9","","","","97.95","","","","-6","","NA"
