"Longitude (x)","Latitude (y)","Station Name","Climate ID","Date/Time (LST)","Year","Month","Day","Time (LST)","Temp (°C)","Temp Flag","Dew Point Temp (°C)","Dew Point Temp Flag","Rel Hum (%)","Rel Hum Flag","Precip. Amount (mm)","Precip. Amount Flag","Wind Dir (10s deg)","Wind Dir Flag","Wind Spd (km/h)","Wind Spd Flag","Visibility (km)","Visibility Flag","Stn Press (kPa)","Stn Press Flag","Hmdx","Hmdx Flag","Wind Chill","Wind Chill Flag","Weather"
"-55.85","52.30","MARY'S HARBOUR A","8502592","2019-03-01 00:30","2019","03","01","00:30","-11.2","","-15.7","","70","","0.0","","27","","34","","16.1","","98.95","","","","-22","","Snow"
"-55.85","52.30","MARY'S HARBOUR A","8502592","2019-03-01 01:30","2019","03","01","01:30","-11.4","","-16.2","","68","","0.0","","30","","34","","11.3","","99.00","","","","-22","","Snow"
"-55.85","52.30","MARY'S HARBOUR A","8502592","2019-03-01 02:30","2019","03","01","02:30","-12.2","","-17.0","","68","","0.0","","28","","34","","16.1","","99.07","","","","-23","","NA"
"-55.85","52.30","MARY'S HARBOUR A","8502592","2019-03-01 03:30","2019","03","01","03:30","-12.2","","-17.0","","68","","0.0","","28","","24","","16.1","","99.15","","","","-21","","NA"
"-55.85","52.30","MARY'S HARBOUR A","8502592","2019-03-01 04:30","2019","03","01","04:30","-12.4","","-17.0","","69","","0.0","","27","","26","","16.1","","99.23","","","","-22","","NA"
"-55.85","52.30","MARY'S HARBOUR A","8502592","2019-03-01 05:30","2019","03","01","05:30","-12.3","","-17.1","","68","","0.0","","27","","32","","16.1","","99.27","","","","-23","","NA"
"-55.85","52.30","MARY'S HARBOUR A","8502592","2019-03-01 06:30","2019","03","01","06:30","-12.8","","-17.4","","69","","0.0","","27","","28","","16.1","","99.33","","","","-23","","NA"
"-55.85","52.30","MARY'S HARBOUR A","8502592","2019-03-01 07:30","2019","03","01","07:30","-12.8","","-17.0","","71","","0.0","","23","","9","","16.1","","99.46","","","","-18","","NA"
"-55.85","52.30","MARY'S HARBOUR A","8502592","2019-03-01 08:30","2019","03","01","08:30","-11.3","","-15.9","","69","","0.0","","27","","18","","16.1","","99.50","","","","-19","","NA"
"-55.85","52.30","MARY'S HARBOUR A","8502592","2019-03-01 09:30","2019","03","01","09:30","-10.3","","-14.8","","70","","0.0","","27","","22","","16.1","","99.58","","","","-19","","Snow"
"-55.85","52.30","MARY'S HARBOUR A","8502592","2019-03-01 10:30","2019","03","01","10:30","-9.3","","-13.6","","71","","0.0","","28","","28","","14.5","","99.59","","","","-18","","Snow"
"-55.85","52.30","MARY'S HARBOUR A","8502592","2019-03-01 11:30","2019","03","01","11:30","-8.0","","-13.1","","67","","0.0","","27","","21","","16.1","","99.63","","","","-16","","NA"
"-55.85","52.30","MARY'S HARBOUR A","8502592","2019-03-01 12:30","2019","03","01","12:30","-6.6","","-12.3","","64","","0.0","","26","","22","","16.1","","99.60","","","","-14","","NA"
"-55.85","52.30","MARY'S HARBOUR A","8502592","2019-03-01 13:30","2019","03","01","13:30","-6.3","","-12.3","","63","","0.0","","28","","17","","16.1","","99.58","","","","-13","","NA"
"-55.85","52.30","MARY'S HARBOUR A","8502592","2019-03-01 14:30","2019","03","01","14:30","-4.0","","-10.5","","61","","0.0","","26","","22","","16.1","","99.58","","","","-11","","NA"
"-55.85","52.30","MARY'S HARBOUR A","8502592","2019-03-01 15:30","2019","03","01","15:30","-4.0","","-11.7","","55","","0.0","","29","","26","","16.1","","99.63","","","","-11","","NA"
"-55.85","52.30","MARY'S HARBOUR A","8502592","2019-03-01 16:30","2019","03","01","16:30","-4.4","","-11.9","","56","","0.0","","26","","28","","16.1","","99.71","","","","-12","","NA"
"-55.85","52.30","MARY'S HARBOUR A","8502592","2019-03-01 17:30","2019","03","01","17:30","-7.7","","-13.4","","64","","0.0","","31","","28","","16.1","","99.84","","","","-16","","Snow"
"-55.85","52.30","MARY'S HARBOUR A","8502592","2019-03-01 18:30","2019","03","01","18:30","-8.6","","-14.5","","63","","0.0","","29","","26","","16.1","","99.96","","","","-17","","Snow"
"-55.85","52.30","MARY'S HARBOUR A","8502592","2019-03-01 19:30","2019","03","01","19:30","-9.2","","-14.8","","64","","0.0","","26","","22","","16.1","","99.99","","","","-17","","NA"
"-55.85","52.30","MARY'S HARBOUR A","8502592","2019-03-01 20:30","2019","03","01","20:30","-9.5","","-14.0","","70","","0.0","","29","","24","","4.8","","100.01","","","","-18","","Snow"
"-55.85","52.30","MARY'S HARBOUR A","8502592","2019-03-01 21:30","2019","03","01","21:30","-9.6","","-14.8","","66","","0.0","","28","","35","","16.1","","100.03","","","","-20","","NA"
"-55.85","52.30","MARY'S HARBOUR A","8502592","2019-03-01 22:30","2019","03","01","22:30","-9.7","","-15.7","","62","","0.0","","28","","37","","16.1","","100.03","","","","-20","","NA"
"-55.85","52.30","MARY'S HARBOUR A","8502592","2019-03-01 23:30","2019","03","01","23:30","-10.1","","-16.1","","62","","0.0","","28","","26","","16.1","","100.00","","","","-19","","NA"
"-55.85","52.30","MARY'S HARBOUR A","8502592","2019-03-02 00:30","2019","03","02","00:30","-10.0","","-16.0","","62","","0.0","","26","","24","","16.1","","100.00","","","","-19","","NA"
"-55.85","52.30","MARY'S HARBOUR A","8502592","2019-03-02 01:30","2019","03","02","01:30","-9.8","","-15.8","","62","","0.0","","27","","28","","16.1","","100.01","","","","-19","","NA"
"-55.85","52.30","MARY'S HARBOUR A","8502592","2019-03-02 02:30","2019","03","02","02:30","-9.8","","-14.7","","68","","0.0","","28","","28","","14.5","","100.04","","","","-19","","Snow"
"-55.85","52.30","MARY'S HARBOUR A","8502592","2019-03-02 03:30","2019","03","02","03:30","-9.8","","-14.4","","70","","0.0","","27","","34","","16.1","","100.05","","","","-20","","Snow"
"-55.85","52.30","MARY'S HARBOUR A","8502592","2019-03-02 04:30","2019","03","02","04:30","-9.8","","-15.4","","64","","0.0","","27","","26","","16.1","","100.09","","","","-19","","NA"
"-55.85","52.30","MARY'S HARBOUR A","8502592","2019-03-02 05:30","2019","03","02","05:30","-10.2","","-15.8","","64","","0.0","","27","","32","","16.1","","100.13","","","","-20","","NA"
"-55.85","52.30","MARY'S HARBOUR A","8502592","2019-03-02 06:30","2019","03","02","06:30","-10.8","","-16.4","","64","","0.0","","28","","22","","16.1","","100.20","","","","-19","","NA"
"-55.85","52.30","MARY'S HARBOUR A","8502592","2019-03-02 07:30","2019","03","02","07:30","-11.1","","-16.8","","63","","0.0","","28","","28","","16.1","","100.28","","","","-21","","NA"
"-55.85","52.30","MARY'S HARBOUR A","8502592","2019-03-02 08:30","2019","03","02","08:30","-11.0","","-16.9","","62","","0.0","","28","","22","","16.1","","100.31","","","","-20","","NA"
"-55.85","52.30","MARY'S HARBOUR A","8502592","2019-03-02 09:30","2019","03","02","09:30","-9.8","","-16.5","","58","","0.0","","28","","37","","16.1","","100.32","","","","-20","","NA"
"-55.85","52.30","MARY'S HARBOUR A","8502592","2019-03-02 10:30","2019","03","02","10:30","-8.5","","-15.9","","56","","0.0","","28","","35","","16.1","","100.34","","","","-18","","NA"
"-55.85","52.30","MARY'S HARBOUR A","8502592","2019-03-02 11:30","2019","03","02","11:30","-7.0","","-15.1","","53","","0.0","","31","","24","","16.1","","100.39","","","","-15","","NA"
"-55.85","52.30","MARY'S HARBOUR A","8502592","2019-03-02 12:30","2019","03","02","12:30","-6.4","","-14.8","","52","","0.0","","30","","30","","14.5","","100.38","","","","-15","","Snow"
"-55.85","52.30","MARY'S HARBOUR A","8502592","2019-03-02 13:30","2019","03","02","13:30","-5.4","","-14.4","","50","","0.0","","30","","28","","16.1","","100.40","","","","-13","","NA"
"-55.85","52.30","MARY'S HARBOUR A","8502592","2019-03-02 14:30","2019","03","02","14:30","-6.2","","-14.6","","52","","0.0","","30","","24","","16.1","","100.49","","","","-14","","NA"
"-55.85","52.30","MARY'S HARBOUR A","8502592","2019-03-02 15:30","2019","03","02","15:30","-5.8","","-14.4","","51","","0.0","","29","","30","","16.1","","100.56","","","","-14","","NA"
"-55.85","52.30","MARY'S HARBOUR A","8502592","2019-03-02 16:30","2019","03","02","16:30","-6.1","","-14.0","","54","","0.0","","29","","21","","16.1","","100.65","","","","-13","","NA"
"-55.85","52.30","MARY'S HARBOUR A","8502592","2019-03-02 17:30","2019","03","02","17:30","-6.7","","-14.3","","55","","0.0","","30","","21","","16.1","","100.71","","","","-14","","NA"
"-55.85","52.30","MARY'S HARBOUR A","8502592","2019-03-02 18:30","2019","03","02","18:30","-7.1","","-14.3","","57","","0.0","","30","","18","","16.1","","100.79","","","","-14","","NA"
"-55.85","52.30","MARY'S HARBOUR A","8502592","2019-03-02 19:30","2019","03","02","19:30","-7.3","","-15.6","","52","","0.0","","29","","22","","16.1","","100.86","","","","-15","","NA"
"-55.85","52.30","MARY'S HARBOUR A","8502592","2019-03-02 20:30","2019","03","02","20:30","-8.2","","-16.4","","52","","0.0","","28","","24","","16.1","","100.92","","","","-16","","NA"
"-55.85","52.30","MARY'S HARBOUR A","8502592","2019-03-02 21:30","2019","03","02","21:30","-8.4","","-16.5","","52","","0.0","","28","","13","","16.1","","100.98","","","","-14","","NA"
"-55.85","52.30","MARY'S HARBOUR A","8502592","2019-03-02 22:30","2019","03","02","22:30","-8.6","","-17.0","","51","","0.0","","30","","22","","16.1","","100.95","","","","-16","","NA"
"-55.85","52.30","MARY'S HARBOUR A","8502592","2019-03-02 23:30","2019","03","02","23:30","-9.9","","-17.6","","54","","0.0","","30","","15","","12.9","","100.94","","","","-17","","NA"
"-55.85","52.30","MARY'S HARBOUR A","8502592","2019-03-03 00:30","2019","03","03","00:30","-11.2","","-18.0","","58","","0.0","","29","","11","","16.1","","100.91","","","","-17","","NA"
"-55.85","52.30","MARY'S HARBOUR A","8502592","2019-03-03 01:30","2019","03","03","01:30","-11.9","","-18.4","","59","","0.0","","25","","9","","12.9","","100.93","","","","-17","","NA"
"-55.85","52.30","MARY'S HARBOUR A","8502592","2019-03-03 02:30","2019","03","03","02:30","-12.6","","-18.5","","62","","0.0","","28","","9","","16.1","","100.95","","","","-18","","NA"
"-55.85","52.30","MARY'S HARBOUR A","8502592","2019-03-03 03:30","2019","03","03","03:30","-11.7","","-17.6","","62","","0.0","","25","","8","","16.1","","101.02","","","","-16","","NA"
"-55.85","52.30","MARY'S HARBOUR A","8502592","2019-03-03 04:30","2019","03","03","04:30","-11.1","","-17.2","","61","","0.0","","25","","4","","16.1","","101.06","","","","-14","","NA"
"-55.85","52.30","MARY'S HARBOUR A","8502592","2019-03-03 05:30","2019","03","03","05:30","-11.1","","-15.9","","68","","0.0","","27","","8","","16.1","","101.06","","","","-16","","NA"
"-55.85","52.30","MARY'S HARBOUR A","8502592","2019-03-03 06:30","2019","03","03","06:30","-11.6","","-13.2","","88","","0.0","","32","","11","","3.2","","101.04","","","","-18","","Snow"
"-55.85","52.30","MARY'S HARBOUR A","8502592","2019-03-03 07:30","2019","03","03","07:30","-11.8","","-13.0","","91","","0.0","","29","","5","","6.4","","101.07","","","","-15","","Fog"
"-55.85","52.30","MARY'S HARBOUR A","8502592","2019-03-03 08:30","2019","03","03","08:30","-11.0","","-12.5","","89","","0.0","","32","","5","","11.3","","101.09","","","","-14","","NA"
"-55.85","52.30","MARY'S HARBOUR A","8502592","2019-03-03 09:30","2019","03","03","09:30","-10.2","","-11.7","","89","","0.0","","31","","11","","11.3","","101.06","","","","-16","","NA"
"-55.85","52.30","MARY'S HARBOUR A","8502592","2019-03-03 10:30","2019","03","03","10:30","-9.6","","-11.2","","88","","0.0","","31","","13","","12.9","","101.04","","","","-16","","Snow"
"-55.85","52.30","MARY'S HARBOUR A","8502592","2019-03-03 11:30","2019","03","03","11:30","-8.5","","-11.0","","83","","0.0","","36","","11","","16.1","","101.00","","","","-14","","Snow"
"-55.85","52.30","MARY'S HARBOUR A","8502592","2019-03-03 12:30","2019","03","03","12:30","-7.7","","-10.0","","84","","0.0","","35","","9","","9.7","","100.99","","","","-12","","Fog"
"-55.85","52.30","MARY'S HARBOUR A","8502592","2019-03-03 13:30","2019","03","03","13:30","-6.9","","-9.4","","83","","0.0","","1","","11","","11.3","","100.99","","","","-12","","NA"
"-55.85","52.30","MARY'S HARBOUR A","8502592","2019-03-03 14:30","2019","03","03","14:30","-6.8","","-9.2","","83","","0.0","","4","","9","","16.1","","100.97","","","","-11","","NA"
"-55.85","52.30","MARY'S HARBOUR A","8502592","2019-03-03 15:30","2019","03","03","15:30","-6.7","","-8.4","","88","","0.0","","2","","11","","6.4","","100.99","","","","-12","","Fog"
"-55.85","52.30","MARY'S HARBOUR A","8502592","2019-03-03 16:30","2019","03","03","16:30","-6.8","","-8.6","","87","","0.0","","2","","11","","16.1","","101.01","","","","-12","","NA"
"-55.85","52.30","MARY'S HARBOUR A","8502592","2019-03-03 17:30","2019","03","03","17:30","-7.0","","-8.1","","92","","0.0","","1","","9","","4.0","","101.03","","","","-11","","Fog"
"-55.85","52.30","MARY'S HARBOUR A","8502592","2019-03-03 18:30","2019","03","03","18:30","-7.1","","-7.9","","94","","0.0","","33","","8","","2.8","","101.09","","","","-11","","Fog"
"-55.85","52.30","MARY'S HARBOUR A","8502592","2019-03-03 19:30","2019","03","03","19:30","-7.1","","-7.9","","94","","0.0","","35","","8","","2.8","","101.15","","","","-11","","Freezing Rain,Fog"
"-55.85","52.30","MARY'S HARBOUR A","8502592","2019-03-03 20:30","2019","03","03","20:30","-7.3","","-8.4","","92","","0.0","","36","","9","","9.7","","101.20","","","","-12","","Fog"
"-55.85","52.30","MARY'S HARBOUR A","8502592","2019-03-03 21:30","2019","03","03","21:30","-7.5","","-8.6","","92","","0.0","","1","","8","","14.5","","101.22","","","","-12","","NA"
"-55.85","52.30","MARY'S HARBOUR A","8502592","2019-03-03 22:30","2019","03","03","22:30","-7.4","","-8.3","","93","","0.0","","35","","5","","6.4","","101.26","","","","-10","","Fog"
"-55.85","52.30","MARY'S HARBOUR A","8502592","2019-03-03 23:30","2019","03","03","23:30","-7.4","","-8.2","","94","","0.0","","35","","9","","3.2","","101.31","","","","-12","","Freezing Rain,Fog"
"-55.85","52.30","MARY'S HARBOUR A","8502592","2019-03-04 00:30","2019","03","04","00:30","-7.5","","-8.3","","94","","0.0","","31","","4","","2.0","","101.41","","","","-10","","Fog"
"-55.85","52.30","MARY'S HARBOUR A","8502592","2019-03-04 01:30","2019","03","04","01:30","-7.4","","-8.2","","94","","0.0","","28","","4","","2.4","","101.45","","","","-9","","Fog"
"-55.85","52.30","MARY'S HARBOUR A","8502592","2019-03-04 02:30","2019","03","04","02:30","-7.6","","-8.5","","93","","0.0","","25","","5","","2.8","","101.53","","","","-10","","Fog"
"-55.85","52.30","MARY'S HARBOUR A","8502592","2019-03-04 03:30","2019","03","04","03:30","-7.5","","-8.4","","93","","0.0","","","","0","","3.2","","101.51","","","","","","Fog"
"-55.85","52.30","MARY'S HARBOUR A","8502592","2019-03-04 04:30","2019","03","04","04:30","-7.5","","-8.5","","93","","0.0","","","","0","","16.1","","101.56","","","","","","NA"
"-55.85","52.30","MARY'S HARBOUR A","8502592","2019-03-04 05:30","2019","03","04","05:30","-7.8","","-8.9","","92","","0.0","","21","","4","","16.1","","101.68","","","","-10","","NA"
"-55.85","52.30","MARY'S HARBOUR A","8502592","2019-03-04 06:30","2019","03","04","06:30","-8.1","","-9.2","","92","","0.0","","","","0","","16.1","","101.70","","","","","","NA"
"-55.85","52.30","MARY'S HARBOUR A","8502592","2019-03-04 07:30","2019","03","04","07:30","-8.7","","-10.1","","90","","0.0","","23","","4","","16.1","","101.78","","","","-11","","NA"
"-55.85","52.30","MARY'S HARBOUR A","8502592","2019-03-04 08:30","2019","03","04","08:30","-8.3","","-9.5","","91","","0.0","","25","","4","","14.5","","101.80","","","","-10","","NA"
"-55.85","52.30","MARY'S HARBOUR A","8502592","2019-03-04 09:30","2019","03","04","09:30","-6.8","","-8.0","","91","","0.0","","","","0","","16.1","","101.78","","","","","","NA"
"-55.85","52.30","MARY'S HARBOUR A","8502592","2019-03-04 10:30","2019","03","04","10:30","-5.9","","-7.2","","91","","0.0","","32","","8","","16.1","","101.84","","","","-10","","NA"
"-55.85","52.30","MARY'S HARBOUR A","8502592","2019-03-04 11:30","2019","03","04","11:30","-5.4","","-7.1","","88","","0.0","","7","","9","","16.1","","101.80","","","","-9","","NA"
"-55.85","52.30","MARY'S HARBOUR A","8502592","2019-03-04 12:30","2019","03","04","12:30","-5.6","","-7.3","","88","","0.0","","8","","11","","16.1","","101.73","","","","-10","","NA"
"-55.85","52.30","MARY'S HARBOUR A","8502592","2019-03-04 13:30","2019","03","04","13:30","-5.6","","-7.9","","84","","0.0","","8","","17","","16.1","","101.62","","","","-12","","NA"
"-55.85","52.30","MARY'S HARBOUR A","8502592","2019-03-04 14:30","2019","03","04","14:30","-4.9","","-7.5","","82","","0.0","","9","","17","","16.1","","101.60","","","","-11","","NA"
"-55.85","52.30","MARY'S HARBOUR A","8502592","2019-03-04 15:30","2019","03","04","15:30","-5.4","","-8.5","","79","","0.0","","13","","17","","16.1","","101.56","","","","-11","","NA"
"-55.85","52.30","MARY'S HARBOUR A","8502592","2019-03-04 16:30","2019","03","04","16:30","-5.8","","-8.9","","79","","0.0","","13","","15","","16.1","","101.54","","","","-12","","NA"
"-55.85","52.30","MARY'S HARBOUR A","8502592","2019-03-04 17:30","2019","03","04","17:30","-6.1","","-8.9","","81","","0.0","","16","","13","","16.1","","101.46","","","","-11","","NA"
"-55.85","52.30","MARY'S HARBOUR A","8502592","2019-03-04 18:30","2019","03","04","18:30","-6.4","","-8.5","","85","","0.0","","13","","13","","16.1","","101.34","","","","-12","","NA"
"-55.85","52.30","MARY'S HARBOUR A","8502592","2019-03-04 19:30","2019","03","04","19:30","-6.2","","-8.3","","85","","0.0","","12","","11","","16.1","","101.26","","","","-11","","NA"
"-55.85","52.30","MARY'S HARBOUR A","8502592","2019-03-04 20:30","2019","03","04","20:30","-6.2","","-8.2","","86","","0.0","","12","","13","","16.1","","101.15","","","","-12","","NA"
"-55.85","52.30","MARY'S HARBOUR A","8502592","2019-03-04 21:30","2019","03","04","21:30","-6.4","","-8.2","","87","","0.0","","11","","15","","16.1","","100.94","","","","-12","","NA"
"-55.85","52.30","MARY'S HARBOUR A","8502592","2019-03-04 22:30","2019","03","04","22:30","-6.6","","-7.8","","91","","0.0","","11","","15","","2.0","","100.76","","","","-13","","Snow"
"-55.85","52.30","MARY'S HARBOUR A","8502592","2019-03-04 23:30","2019","03","04","23:30","-6.8","","-8.3","","89","","0.0","","12","","15","","2.0","","100.52","","","","-13","","Snow"
"-55.85","52.30","MARY'S HARBOUR A","8502592","2019-03-05 00:30","2019","03","05","00:30","-6.5","","-7.7","","91","","0.0","","9","","11","","1.6","","100.22","","","","-11","","Snow"
"-55.85","52.30","MARY'S HARBOUR A","8502592","2019-03-05 01:30","2019","03","05","01:30","-6.1","","-7.2","","92","","0.0","","8","","21","","2.0","","99.98","","","","-13","","Snow"
"-55.85","52.30","MARY'S HARBOUR A","8502592","2019-03-05 02:30","2019","03","05","02:30","-5.8","","-6.9","","92","","0.0","","8","","22","","3.6","","99.71","","","","-13","","Snow"
"-55.85","52.30","MARY'S HARBOUR A","8502592","2019-03-05 03:30","2019","03","05","03:30","-5.7","","-6.9","","91","","0.0","","8","","22","","2.8","","99.41","","","","-13","","Snow"
"-55.85","52.30","MARY'S HARBOUR A","8502592","2019-03-05 04:30","2019","03","05","04:30","-5.1","","-6.1","","93","","0.0","","7","","22","","4.0","","99.08","","","","-12","","Freezing Rain,Snow"
"-55.85","52.30","MARY'S HARBOUR A","8502592","2019-03-05 05:30","2019","03","05","05:30","-4.0","","-4.7","","95","","0.0","","8","","21","","2.0","","98.84","","","","-10","","Freezing Rain,Fog"
"-55.85","52.30","MARY'S HARBOUR A","8502592","2019-03-05 06:30","2019","03","05","06:30","-3.7","","-4.7","","93","","0.0","","12","","21","","4.8","","98.65","","","","-10","","Freezing Rain,Fog"
"-55.85","52.30","MARY'S HARBOUR A","8502592","2019-03-05 07:30","2019","03","05","07:30","-3.7","","-4.3","","96","","0.0","","6","","9","","2.4","","98.38","","","","-7","","Snow"
"-55.85","52.30","MARY'S HARBOUR A","8502592","2019-03-05 08:30","2019","03","05","08:30","-3.3","","-4.0","","95","","0.0","","7","","8","","4.8","","98.23","","","","-7","","Snow"
"-55.85","52.30","MARY'S HARBOUR A","8502592","2019-03-05 09:30","2019","03","05","09:30","-2.8","","-3.8","","93","","0.0","","34","","5","","0.6","","98.08","","","","-5","","Moderate Snow"
"-55.85","52.30","MARY'S HARBOUR A","8502592","2019-03-05 10:30","2019","03","05","10:30","-3.0","","-4.5","","89","","0.0","","31","","17","","2.4","","98.02","","","","-9","","Snow"
"-55.85","52.30","MARY'S HARBOUR A","8502592","2019-03-05 11:30","2019","03","05","11:30","-2.7","","-5.4","","82","","0.0","","27","","24","","9.7","","97.98","","","","-9","","Snow"
"-55.85","52.30","MARY'S HARBOUR A","8502592","2019-03-05 12:30","2019","03","05","12:30","-2.3","","-6.9","","71","","0.0","","26","","39","","2.8","","97.93","","","","-10","","Snow"
"-55.85","52.30","MARY'S HARBOUR A","8502592","2019-03-05 13:30","2019","03","05","13:30","-2.0","","-7.3","","67","","0.0","","25","","37","","4.8","","97.95","","","","-10","","Snow"
"-55.85","52.30","MARY'S HARBOUR A","8502592","2019-03-05 14:30","2019","03","05","14:30","-2.2","","-7.7","","66","","0.0","","25","","39","","2.8","","98.02","","","","-10","","Snow"
"-55.85","52.30","MARY'S HARBOUR A","8502592","2019-03-05 15:30","2019","03","05","15:30","-2.8","","-8.7","","64","","0.0","","26","","41","","1.2","","98.13","","","","-11","","Snow"
"-55.85","52.30","MARY'S HARBOUR A","8502592","2019-03-05 16:30","2019","03","05","16:30","-4.2","","-10.0","","64","","0.0","","25","","30","","8.1","","98.23","","","","-12","","Snow"
"-55.85","52.30","MARY'S HARBOUR A","8502592","2019-03-05 17:30","2019","03","05","17:30","-5.1","","-10.9","","64","","0.0","","25","","45","","8.1","","98.33","","","","-15","","Snow"
"-55.85","52.30","MARY'S HARBOUR A","8502592","2019-03-05 18:30","2019","03","05","18:30","-5.7","","-11.7","","63","","0.0","","25","","48","","4.8","","98.39","","","","-16","","Snow"
"-55.85","52.30","MARY'S HARBOUR A","8502592","2019-03-05 19:30","2019","03","05","19:30","-6.2","","-12.0","","64","","0.0","","25","","45","","4.0","","98.49","","","","-16","","Snow"
"-55.85","52.30","MARY'S HARBOUR A","8502592","2019-03-05 20:30","2019","03","05","20:30","-6.8","","-12.7","","63","","0.0","","25","","43","","12.9","","98.56","","","","-17","","Snow"
"-55.85","52.30","MARY'S HARBOUR A","8502592","2019-03-05 21:30","2019","03","05","21:30","-6.8","","-13.1","","61","","0.0","","25","","52","","4.0","","98.63","","","","-18","","Snow"
"-55.85","52.30","MARY'S HARBOUR A","8502592","2019-03-05 22:30","2019","03","05","22:30","-6.8","","-12.7","","63","","0.0","","25","","58","","2.0","","98.52","","","","-18","","Snow"
"-55.85","52.30","MARY'S HARBOUR A","8502592","2019-03-05 23:30","2019","03","05","23:30","-7.2","","-13.5","","61","","0.0","","25","","59","","3.2","","98.59","","","","-19","","Snow"
"-55.85","52.30","MARY'S HARBOUR A","8502592","2019-03-06 00:30","2019","03","06","00:30","-7.6","","-13.9","","61","","0.0","","25","","50","","14.5","","98.74","","","","-18","","Snow"
"-55.85","52.30","MARY'S HARBOUR A","8502592","2019-03-06 01:30","2019","03","06","01:30","-8.4","","-14.7","","61","","0.0","","24","","48","","16.1","","98.92","","","","-19","","NA"
"-55.85","52.30","MARY'S HARBOUR A","8502592","2019-03-06 02:30","2019","03","06","02:30","-8.9","","-15.1","","61","","0.0","","25","","45","","16.1","","99.02","","","","-20","","NA"
"-55.85","52.30","MARY'S HARBOUR A","8502592","2019-03-06 03:30","2019","03","06","03:30","-9.1","","-15.5","","60","","0.0","","25","","35","","16.1","","99.09","","","","-19","","NA"
"-55.85","52.30","MARY'S HARBOUR A","8502592","2019-03-06 04:30","2019","03","06","04:30","-9.1","","-15.8","","59","","0.0","","26","","35","","16.1","","99.14","","","","-19","","NA"
"-55.85","52.30","MARY'S HARBOUR A","8502592","2019-03-06 05:30","2019","03","06","05:30","-10.0","","-16.2","","61","","0.0","","26","","32","","16.1","","99.31","","","","-20","","NA"
"-55.85","52.30","MARY'S HARBOUR A","8502592","2019-03-06 06:30","2019","03","06","06:30","-10.8","","-16.8","","62","","0.0","","25","","28","","16.1","","99.38","","","","-20","","NA"
"-55.85","52.30","MARY'S HARBOUR A","8502592","2019-03-06 07:30","2019","03","06","07:30","-11.1","","-17.2","","61","","0.0","","23","","26","","16.1","","99.44","","","","-20","","NA"
"-55.85","52.30","MARY'S HARBOUR A","8502592","2019-03-06 08:30","2019","03","06","08:30","-10.6","","-17.2","","59","","0.0","","27","","18","","16.1","","99.49","","","","-18","","NA"
"-55.85","52.30","MARY'S HARBOUR A","8502592","2019-03-06 09:30","2019","03","06","09:30","-9.1","","-16.4","","56","","0.0","","24","","24","","16.1","","99.50","","","","-17","","NA"
"-55.85","52.30","MARY'S HARBOUR A","8502592","2019-03-06 10:30","2019","03","06","10:30","-7.8","","-16.3","","51","","0.0","","25","","21","","16.1","","99.48","","","","-15","","NA"
"-55.85","52.30","MARY'S HARBOUR A","8502592","2019-03-06 11:30","2019","03","06","11:30","-5.8","","-15.6","","47","","0.0","","26","","22","","16.1","","99.49","","","","-13","","NA"
"-55.85","52.30","MARY'S HARBOUR A","8502592","2019-03-06 12:30","2019","03","06","12:30","-4.5","","-15.3","","43","","0.0","","23","","28","","16.1","","99.49","","","","-12","","NA"
"-55.85","52.30","MARY'S HARBOUR A","8502592","2019-03-06 13:30","2019","03","06","13:30","-6.1","","-15.2","","49","","0.0","","22","","34","","16.1","","99.47","","","","-15","","NA"
"-55.85","52.30","MARY'S HARBOUR A","8502592","2019-03-06 14:30","2019","03","06","14:30","-6.0","","-16.1","","45","","0.0","","23","","34","","16.1","","99.49","","","","-15","","NA"
"-55.85","52.30","MARY'S HARBOUR A","8502592","2019-03-06 15:30","2019","03","06","15:30","-5.9","","-16.2","","45","","0.0","","22","","22","","16.1","","99.46","","","","-13","","NA"
"-55.85","52.30","MARY'S HARBOUR A","8502592","2019-03-06 16:30","2019","03","06","16:30","-7.0","","-16.3","","48","","0.0","","20","","21","","16.1","","99.45","","","","-14","","NA"
"-55.85","52.30","MARY'S HARBOUR A","8502592","2019-03-06 17:30","2019","03","06","17:30","-8.7","","-16.2","","55","","0.0","","22","","26","","16.1","","99.43","","","","-17","","NA"
"-55.85","52.30","MARY'S HARBOUR A","8502592","2019-03-06 18:30","2019","03","06","18:30","-10.2","","-15.4","","66","","0.0","","23","","32","","16.1","","99.39","","","","-20","","NA"
"-55.85","52.30","MARY'S HARBOUR A","8502592","2019-03-06 19:30","2019","03","06","19:30","-10.9","","-15.7","","68","","0.0","","23","","21","","16.1","","99.37","","","","-19","","NA"
"-55.85","52.30","MARY'S HARBOUR A","8502592","2019-03-06 20:30","2019","03","06","20:30","-11.5","","-16.5","","67","","0.0","","23","","15","","16.1","","99.36","","","","-19","","NA"
"-55.85","52.30","MARY'S HARBOUR A","8502592","2019-03-06 21:30","2019","03","06","21:30","-11.9","","-17.4","","64","","0.0","","24","","13","","16.1","","99.33","","","","-19","","NA"
"-55.85","52.30","MARY'S HARBOUR A","8502592","2019-03-06 22:30","2019","03","06","22:30","-13.0","","-18.7","","63","","0.0","","23","","13","","16.1","","99.26","","","","-20","","NA"
"-55.85","52.30","MARY'S HARBOUR A","8502592","2019-03-06 23:30","2019","03","06","23:30","-14.0","","-19.2","","65","","0.0","","","M","4","","16.1","","99.24","","","","-17","","NA"
"-55.85","52.30","MARY'S HARBOUR A","8502592","2019-03-07 00:30","2019","03","07","00:30","-14.5","","-19.7","","65","","0.0","","23","","5","","16.1","","99.17","","","","-18","","NA"
"-55.85","52.30","MARY'S HARBOUR A","8502592","2019-03-07 01:30","2019","03","07","01:30","-15.3","","-20.3","","66","","0.0","","22","","8","","16.1","","99.17","","","","-21","","NA"
"-55.85","52.30","MARY'S HARBOUR A","8502592","2019-03-07 02:30","2019","03","07","02:30","-17.0","","-21.9","","66","","0.0","","19","","8","","16.1","","99.16","","","","-23","","NA"
"-55.85","52.30","MARY'S HARBOUR A","8502592","2019-03-07 03:30","2019","03","07","03:30","-18.8","","-22.7","","72","","0.0","","20","","5","","16.1","","99.14","","","","-23","","NA"
"-55.85","52.30","MARY'S HARBOUR A","8502592","2019-03-07 04:30","2019","03","07","04:30","-21.2","","-24.1","","78","","0.0","","22","","13","","16.1","","99.15","","","","-30","","NA"
"-55.85","52.30","MARY'S HARBOUR A","8502592","2019-03-07 05:30","2019","03","07","05:30","-21.2","","-24.8","","73","","0.0","","24","","13","","16.1","","99.14","","","","-30","","NA"
"-55.85","52.30","MARY'S HARBOUR A","8502592","2019-03-07 06:30","2019","03","07","06:30","-22.1","","-26.2","","70","","0.0","","19","","13","","16.1","","99.18","","","","-31","","NA"
"-55.85","52.30","MARY'S HARBOUR A","8502592","2019-03-07 07:30","2019","03","07","07:30","-21.7","","-26.3","","67","","0.0","","20","","15","","16.1","","99.14","","","","-31","","NA"
"-55.85","52.30","MARY'S HARBOUR A","8502592","2019-03-07 08:30","2019","03","07","08:30","-19.5","","-26.0","","57","","0.0","","24","","17","","16.1","","99.14","","","","-29","","NA"
"-55.85","52.30","MARY'S HARBOUR A","8502592","2019-03-07 09:30","2019","03","07","09:30","-18.1","","-26.2","","50","","0.0","","24","","21","","16.1","","99.08","","","","-28","","NA"
"-55.85","52.30","MARY'S HARBOUR A","8502592","2019-03-07 10:30","2019","03","07","10:30","-17.2","","-26.3","","46","","0.0","","24","","32","","16.1","","99.00","","","","-29","","NA"
"-55.85","52.30","MARY'S HARBOUR A","8502592","2019-03-07 11:30","2019","03","07","11:30","-16.4","","-26.0","","44","","0.0","","24","","35","","16.1","","98.98","","","","-29","","NA"
"-55.85","52.30","MARY'S HARBOUR A","8502592","2019-03-07 12:30","2019","03","07","12:30","-15.8","","-25.5","","44","","0.0","","23","","39","","16.1","","98.97","","","","-28","","NA"
"-55.85","52.30","MARY'S HARBOUR A","8502592","2019-03-07 13:30","2019","03","07","13:30","-15.2","","-25.5","","42","","0.0","","24","","39","","16.1","","98.95","","","","-28","","NA"
"-55.85","52.30","MARY'S HARBOUR A","8502592","2019-03-07 14:30","2019","03","07","14:30","-15.3","","-24.6","","46","","0.0","","24","","34","","16.1","","98.97","","","","-27","","NA"
"-55.85","52.30","MARY'S HARBOUR A","8502592","2019-03-07 15:30","2019","03","07","15:30","-15.3","","-25.3","","43","","0.0","","25","","34","","16.1","","99.01","","","","-27","","NA"
"-55.85","52.30","MARY'S HARBOUR A","8502592","2019-03-07 16:30","2019","03","07","16:30","-15.1","","-24.7","","44","","0.0","","25","","34","","16.1","","99.03","","","","-27","","NA"
"-55.85","52.30","MARY'S HARBOUR A","8502592","2019-03-07 17:30","2019","03","07","17:30","-15.5","","-24.5","","47","","0.0","","25","","32","","16.1","","99.09","","","","-27","","NA"
"-55.85","52.30","MARY'S HARBOUR A","8502592","2019-03-07 18:30","2019","03","07","18:30","-16.4","","-25.1","","48","","0.0","","24","","18","","16.1","","99.17","","","","-25","","NA"
"-55.85","52.30","MARY'S HARBOUR A","8502592","2019-03-07 19:30","2019","03","07","19:30","-17.3","","-24.8","","53","","0.0","","25","","18","","16.1","","99.27","","","","-27","","NA"
"-55.85","52.30","MARY'S HARBOUR A","8502592","2019-03-07 20:30","2019","03","07","20:30","-18.1","","-25.5","","53","","0.0","","24","","17","","16.1","","99.31","","","","-27","","NA"
"-55.85","52.30","MARY'S HARBOUR A","8502592","2019-03-07 21:30","2019","03","07","21:30","-18.4","","-24.6","","59","","0.0","","23","","18","","16.1","","99.35","","","","-28","","NA"
"-55.85","52.30","MARY'S HARBOUR A","8502592","2019-03-07 22:30","2019","03","07","22:30","-17.8","","-23.6","","61","","0.0","","23","","17","","16.1","","99.42","","","","-27","","NA"
"-55.85","52.30","MARY'S HARBOUR A","8502592","2019-03-07 23:30","2019","03","07","23:30","-17.1","","-23.3","","59","","0.0","","24","","18","","16.1","","99.46","","","","-26","","NA"
"-55.85","52.30","MARY'S HARBOUR A","8502592","2019-03-08 00:30","2019","03","08","00:30","-16.6","","-22.9","","59","","0.0","","24","","21","","16.1","","99.50","","","","-26","","NA"
"-55.85","52.30","MARY'S HARBOUR A","8502592","2019-03-08 01:30","2019","03","08","01:30","-15.6","","-22.7","","55","","0.0","","26","","30","","16.1","","99.57","","","","-27","","NA"
"-55.85","52.30","MARY'S HARBOUR A","8502592","2019-03-08 02:30","2019","03","08","02:30","-15.7","","-23.0","","54","","0.0","","25","","21","","16.1","","99.63","","","","-25","","NA"
"-55.85","52.30","MARY'S HARBOUR A","8502592","2019-03-08 03:30","2019","03","08","03:30","-16.0","","-23.5","","53","","0.0","","26","","32","","16.1","","99.68","","","","-28","","NA"
"-55.85","52.30","MARY'S HARBOUR A","8502592","2019-03-08 04:30","2019","03","08","04:30","-16.1","","-23.2","","55","","0.0","","27","","34","","16.1","","99.62","","","","-28","","NA"
"-55.85","52.30","MARY'S HARBOUR A","8502592","2019-03-08 05:30","2019","03","08","05:30","-16.5","","-24.2","","52","","0.0","","26","","35","","16.1","","99.73","","","","-29","","NA"
"-55.85","52.30","MARY'S HARBOUR A","8502592","2019-03-08 06:30","2019","03","08","06:30","-17.5","","-25.2","","52","","0.0","","26","","24","","16.1","","99.80","","","","-28","","NA"
"-55.85","52.30","MARY'S HARBOUR A","8502592","2019-03-08 07:30","2019","03","08","07:30","-17.5","","-25.6","","50","","0.0","","25","","28","","16.1","","99.85","","","","-29","","NA"
"-55.85","52.30","MARY'S HARBOUR A","8502592","2019-03-08 08:30","2019","03","08","08:30","-16.5","","-25.6","","46","","0.0","","25","","30","","16.1","","99.93","","","","-28","","NA"
"-55.85","52.30","MARY'S HARBOUR A","8502592","2019-03-08 09:30","2019","03","08","09:30","-15.5","","-25.3","","44","","0.0","","24","","32","","16.1","","99.94","","","","-27","","NA"
"-55.85","52.30","MARY'S HARBOUR A","8502592","2019-03-08 10:30","2019","03","08","10:30","-14.1","","-24.7","","41","","0.0","","24","","37","","16.1","","99.92","","","","-26","","NA"
"-55.85","52.30","MARY'S HARBOUR A","8502592","2019-03-08 11:30","2019","03","08","11:30","-13.8","","-24.2","","42","","0.0","","26","","41","","16.1","","99.90","","","","-26","","NA"
"-55.85","52.30","MARY'S HARBOUR A","8502592","2019-03-08 12:30","2019","03","08","12:30","-12.8","","-24.1","","39","","0.0","","25","","39","","16.1","","99.93","","","","-24","","NA"
"-55.85","52.30","MARY'S HARBOUR A","8502592","2019-03-08 13:30","2019","03","08","13:30","-12.1","","-23.8","","38","","0.0","","25","","45","","4.8","","99.89","","","","-24","","Snow"
"-55.85","52.30","MARY'S HARBOUR A","8502592","2019-03-08 14:30","2019","03","08","14:30","-11.3","","-23.0","","38","","0.0","","25","","34","","16.1","","99.91","","","","-22","","Snow"
"-55.85","52.30","MARY'S HARBOUR A","8502592","2019-03-08 15:30","2019","03","08","15:30","-11.4","","-23.7","","36","","0.0","","25","","41","","16.1","","99.96","","","","-23","","Snow"
"-55.85","52.30","MARY'S HARBOUR A","8502592","2019-03-08 16:30","2019","03","08","16:30","-11.7","","-23.1","","39","","0.0","","26","","34","","16.1","","99.97","","","","-22","","Snow"
"-55.85","52.30","MARY'S HARBOUR A","8502592","2019-03-08 17:30","2019","03","08","17:30","-12.6","","-23.9","","39","","0.0","","25","","30","","16.1","","99.99","","","","-23","","NA"
"-55.85","52.30","MARY'S HARBOUR A","8502592","2019-03-08 18:30","2019","03","08","18:30","-13.7","","-24.1","","42","","0.0","","24","","26","","16.1","","100.05","","","","-24","","NA"
"-55.85","52.30","MARY'S HARBOUR A","8502592","2019-03-08 19:30","2019","03","08","19:30","-14.4","","-24.4","","43","","0.0","","25","","21","","16.1","","100.14","","","","-24","","NA"
"-55.85","52.30","MARY'S HARBOUR A","8502592","2019-03-08 20:30","2019","03","08","20:30","-14.8","","-24.8","","43","","0.0","","25","","22","","16.1","","100.16","","","","-24","","NA"
"-55.85","52.30","MARY'S HARBOUR A","8502592","2019-03-08 21:30","2019","03","08","21:30","-14.8","","-25.1","","42","","0.0","","24","","30","","16.1","","100.17","","","","-26","","NA"
"-55.85","52.30","MARY'S HARBOUR A","8502592","2019-03-08 22:30","2019","03","08","22:30","-14.2","","-24.2","","43","","0.0","","25","","30","","16.1","","100.14","","","","-25","","NA"
"-55.85","52.30","MARY'S HARBOUR A","8502592","2019-03-08 23:30","2019","03","08","23:30","-14.0","","-23.8","","44","","0.0","","25","","35","","16.1","","100.12","","","","-25","","NA"
"-55.85","52.30","MARY'S HARBOUR A","8502592","2019-03-09 00:30","2019","03","09","00:30","-14.1","","-23.6","","45","","0.0","","24","","39","","16.1","","100.08","","","","-26","","NA"
"-55.85","52.30","MARY'S HARBOUR A","8502592","2019-03-09 01:30","2019","03","09","01:30","-14.0","","-23.3","","46","","0.0","","25","","35","","16.1","","100.06","","","","-25","","NA"
"-55.85","52.30","MARY'S HARBOUR A","8502592","2019-03-09 02:30","2019","03","09","02:30","-14.2","","-23.2","","47","","0.0","","25","","34","","16.1","","100.05","","","","-26","","NA"
"-55.85","52.30","MARY'S HARBOUR A","8502592","2019-03-09 03:30","2019","03","09","03:30","-15.0","","-23.5","","49","","0.0","","24","","32","","16.1","","100.05","","","","-26","","NA"
"-55.85","52.30","MARY'S HARBOUR A","8502592","2019-03-09 04:30","2019","03","09","04:30","-14.8","","-23.6","","48","","0.0","","24","","34","","16.1","","100.10","","","","-26","","NA"
"-55.85","52.30","MARY'S HARBOUR A","8502592","2019-03-09 05:30","2019","03","09","05:30","-14.4","","-23.2","","48","","0.0","","24","","26","","16.1","","100.11","","","","-25","","NA"
"-55.85","52.30","MARY'S HARBOUR A","8502592","2019-03-09 06:30","2019","03","09","06:30","","M","","M","47","","0.0","","25","","32","","","M","","M","","","","","NA"
"-55.85","52.30","MARY'S HARBOUR A","8502592","2019-03-09 07:30","2019","03","09","07:30","-14.2","","-21.7","","54","","0.0","","26","","34","","","M","100.14","","","","-26","","NA"
"-55.85","52.30","MARY'S HARBOUR A","8502592","2019-03-09 08:30","2019","03","09","08:30","-13.9","","-21.8","","52","","0.0","","26","","28","","16.1","","100.22","","","","-24","","NA"
"-55.85","52.30","MARY'S HARBOUR A","8502592","2019-03-09 09:30","2019","03","09","09:30","-13.4","","-20.8","","55","","0.0","","26","","28","","","M","100.28","","","","-24","","NA"
"-55.85","52.30","MARY'S HARBOUR A","8502592","2019-03-09 10:30","2019","03","09","10:30","-13.1","","-19.7","","58","","","M","27","","32","","","M","100.33","","","","-24","","NA"
"-55.85","52.30","MARY'S HARBOUR A","8502592","2019-03-09 11:30","2019","03","09","11:30","-12.5","","-20.0","","54","","","M","27","","35","","","M","100.38","","","","-23","","NA"
"-55.85","52.30","MARY'S HARBOUR A","8502592","2019-03-09 12:30","2019","03","09","12:30","","M","","M","52","","","M","25","","32","","","M","","M","","","","","NA"
"-55.85","52.30","MARY'S HARBOUR A","8502592","2019-03-09 13:30","2019","03","09","13:30","-10.2","","-17.2","","57","","0.0","","26","","21","","","M","100.50","","","","-18","","NA"
"-55.85","52.30","MARY'S HARBOUR A","8502592","2019-03-09 14:30","2019","03","09","14:30","-9.4","","-16.5","","57","","0.0","","25","","18","","","M","100.55","","","","-17","","NA"
"-55.85","52.30","MARY'S HARBOUR A","8502592","2019-03-09 15:30","2019","03","09","15:30","-8.8","","-15.9","","57","","0.0","","28","","22","","16.1","","100.63","","","","-17","","NA"
"-55.85","52.30","MARY'S HARBOUR A","8502592","2019-03-09 16:30","2019","03","09","16:30","-9.0","","-15.4","","60","","0.0","","29","","24","","","M","100.71","","","","-17","","NA"
"-55.85","52.30","MARY'S HARBOUR A","8502592","2019-03-09 17:30","2019","03","09","17:30","-9.0","","-15.0","","62","","0.0","","28","","18","","16.1","","100.79","","","","-16","","NA"
"-55.85","52.30","MARY'S HARBOUR A","8502592","2019-03-09 18:30","2019","03","09","18:30","-9.0","","-13.9","","68","","0.0","","28","","22","","16.1","","100.85","","","","-17","","Snow"
"-55.85","52.30","MARY'S HARBOUR A","8502592","2019-03-09 19:30","2019","03","09","19:30","-8.6","","-13.5","","68","","0.0","","29","","21","","14.5","","100.91","","","","-16","","Snow"
"-55.85","52.30","MARY'S HARBOUR A","8502592","2019-03-09 20:30","2019","03","09","20:30","","M","","M","65","","0.0","","30","","22","","16.1","","","M","","","","","NA"
"-55.85","52.30","MARY'S HARBOUR A","8502592","2019-03-09 21:30","2019","03","09","21:30","-8.4","","-13.1","","69","","0.0","","30","","30","","16.1","","101.06","","","","-17","","Snow"
"-55.85","52.30","MARY'S HARBOUR A","8502592","2019-03-09 22:30","2019","03","09","22:30","-8.4","","-12.5","","73","","0.0","","30","","17","","11.3","","101.19","","","","-15","","Snow"
"-55.85","52.30","MARY'S HARBOUR A","8502592","2019-03-09 23:30","2019","03","09","23:30","-7.9","","-10.5","","82","","0.0","","30","","15","","4.0","","101.25","","","","-14","","Snow"
"-55.85","52.30","MARY'S HARBOUR A","8502592","2019-03-10 00:30","2019","03","10","00:30"
"-55.85","52.30","MARY'S HARBOUR A","8502592","2019-03-10 01:30","2019","03","10","01:30","-6.3","","-8.9","","82","","0.0","","30","","21","","4.8","","101.42","","","","-13","","Snow"
"-55.85","52.30","MARY'S HARBOUR A","8502592","2019-03-10 02:30","2019","03","10","02:30","-5.4","","-8.0","","82","","0.0","","30","","18","","9.7","","101.58","","","","-12","","Snow"
"-55.85","52.30","MARY'S HARBOUR A","8502592","2019-03-10 03:30","2019","03","10","03:30","-5.4","","-8.3","","80","","0.0","","31","","28","","8.1","","101.69","","","","-13","","Snow"
"-55.85","52.30","MARY'S HARBOUR A","8502592","2019-03-10 04:30","2019","03","10","04:30","-6.1","","-9.3","","78","","0.0","","32","","39","","3.6","","101.81","","","","-15","","Snow"
"-55.85","52.30","MARY'S HARBOUR A","8502592","2019-03-10 05:30","2019","03","10","05:30","-6.2","","-9.6","","77","","0.0","","30","","28","","16.1","","101.99","","","","-14","","NA"
"-55.85","52.30","MARY'S HARBOUR A","8502592","2019-03-10 06:30","2019","03","10","06:30","-6.0","","-9.4","","77","","0.0","","30","","24","","16.1","","102.15","","","","-13","","Snow"
"-55.85","52.30","MARY'S HARBOUR A","8502592","2019-03-10 07:30","2019","03","10","07:30","-6.7","","-10.1","","77","","0.0","","31","","34","","16.1","","102.29","","","","-16","","NA"
"-55.85","52.30","MARY'S HARBOUR A","8502592","2019-03-10 08:30","2019","03","10","08:30","-6.4","","-10.8","","71","","0.0","","30","","34","","16.1","","102.42","","","","-15","","NA"
"-55.85","52.30","MARY'S HARBOUR A","8502592","2019-03-10 09:30","2019","03","10","09:30","-5.8","","-10.6","","69","","0.0","","31","","34","","16.1","","102.52","","","","-15","","NA"
"-55.85","52.30","MARY'S HARBOUR A","8502592","2019-03-10 10:30","2019","03","10","10:30","-5.6","","-11.4","","64","","0.0","","31","","26","","16.1","","102.61","","","","-13","","NA"
"-55.85","52.30","MARY'S HARBOUR A","8502592","2019-03-10 11:30","2019","03","10","11:30","-5.2","","-11.8","","60","","0.0","","31","","22","","16.1","","102.66","","","","-12","","NA"
"-55.85","52.30","MARY'S HARBOUR A","8502592","2019-03-10 12:30","2019","03","10","12:30","-4.4","","-12.5","","54","","0.0","","30","","18","","","M","102.67","","","","-10","","NA"
"-55.85","52.30","MARY'S HARBOUR A","8502592","2019-03-10 13:30","2019","03","10","13:30","-3.5","","-12.8","","49","","0.0","","32","","18","","16.1","","102.65","","","","-9","","NA"
"-55.85","52.30","MARY'S HARBOUR A","8502592","2019-03-10 14:30","2019","03","10","14:30","-2.4","","-12.6","","46","","0.0","","","M","","M","16.1","","102.70","","","","","","NA"
"-55.85","52.30","MARY'S HARBOUR A","8502592","2019-03-10 15:30","2019","03","10","15:30","-1.6","","-12.7","","43","","0.0","","32","","13","","16.1","","102.72","","","","-6","","NA"
"-55.85","52.30","MARY'S HARBOUR A","8502592","2019-03-10 16:30","2019","03","10","16:30","-1.6","","-13.1","","42","","0.0","","33","","11","","16.1","","102.71","","","","-5","","NA"
"-55.85","52.30","MARY'S HARBOUR A","8502592","2019-03-10 17:30","2019","03","10","17:30","-2.8","","-14.3","","41","","0.0","","30","","17","","16.1","","102.74","","","","-8","","NA"
"-55.85","52.30","MARY'S HARBOUR A","8502592","2019-03-10 18:30","2019","03","10","18:30","","M","","M","43","","0.0","","","M","4","","","M","","M","","","","","NA"
"-55.85","52.30","MARY'S HARBOUR A","8502592","2019-03-10 19:30","2019","03","10","19:30","-6.3","","-17.6","","41","","0.0","","22","","5","","16.1","","102.74","","","","-9","","NA"
"-55.85","52.30","MARY'S HARBOUR A","8502592","2019-03-10 20:30","2019","03","10","20:30","","M","","M","53","","0.0","","19","","8","","16.1","","","M","","","","","NA"
"-55.85","52.30","MARY'S HARBOUR A","8502592","2019-03-10 21:30","2019","03","10","21:30","","M","","M","64","","0.0","","19","","13","","9.7","","","M","","","","","Haze"
"-55.85","52.30","MARY'S HARBOUR A","8502592","2019-03-10 22:30","2019","03","10","22:30","-11.9","","-17.0","","66","","0.0","","20","","9","","16.1","","102.63","","","","-17","","NA"
"-55.85","52.30","MARY'S HARBOUR A","8502592","2019-03-10 23:30","2019","03","10","23:30","","M","","M","69","","0.0","","25","","5","","16.1","","","M","","","","","NA"
"-55.85","52.30","MARY'S HARBOUR A","8502592","2019-03-11 00:30","2019","03","11","00:30","-11.0","","-15.6","","69","","0.0","","","M","8","","16.1","","102.55","","","","-16","","NA"
"-55.85","52.30","MARY'S HARBOUR A","8502592","2019-03-11 01:30","2019","03","11","01:30","-10.8","","-14.7","","73","","0.0","","19","","17","","16.1","","102.51","","","","-18","","NA"
"-55.85","52.30","MARY'S HARBOUR A","8502592","2019-03-11 02:30","2019","03","11","02:30","-8.5","","-13.2","","69","","0.0","","20","","8","","16.1","","102.46","","","","-13","","NA"
"-55.85","52.30","MARY'S HARBOUR A","8502592","2019-03-11 03:30","2019","03","11","03:30","-8.4","","-13.5","","67","","0.0","","21","","18","","16.1","","102.39","","","","-15","","NA"
"-55.85","52.30","MARY'S HARBOUR A","8502592","2019-03-11 04:30","2019","03","11","04:30","-11.0","","-14.7","","74","","0.0","","20","","4","","","M","102.34","","","","-13","","NA"
"-55.85","52.30","MARY'S HARBOUR A","8502592","2019-03-11 05:30","2019","03","11","05:30","-10.5","","-14.5","","73","","0.0","","18","","9","","16.1","","102.23","","","","-15","","NA"
"-55.85","52.30","MARY'S HARBOUR A","8502592","2019-03-11 06:30","2019","03","11","06:30","-9.0","","-13.2","","72","","0.0","","18","","13","","","M","102.12","","","","-15","","NA"
"-55.85","52.30","MARY'S HARBOUR A","8502592","2019-03-11 07:30","2019","03","11","07:30","-7.0","","-11.1","","73","","0.0","","18","","11","","16.1","","102.07","","","","-12","","NA"
"-55.85","52.30","MARY'S HARBOUR A","8502592","2019-03-11 08:30","2019","03","11","08:30","-5.9","","-10.8","","68","","0.0","","15","","22","","16.1","","101.96","","","","-13","","NA"
"-55.85","52.30","MARY'S HARBOUR A","8502592","2019-03-11 09:30","2019","03","11","09:30","-4.7","","-11.3","","60","","0.0","","18","","15","","16.1","","101.82","","","","-10","","NA"
"-55.85","52.30","MARY'S HARBOUR A","8502592","2019-03-11 10:30","2019","03","11","10:30","-4.1","","-10.6","","61","","0.0","","19","","18","","16.1","","101.64","","","","-10","","NA"
"-55.85","52.30","MARY'S HARBOUR A","8502592","2019-03-11 11:30","2019","03","11","11:30","-3.4","","-8.3","","69","","0.0","","19","","24","","","M","101.54","","","","-10","","NA"
"-55.85","52.30","MARY'S HARBOUR A","8502592","2019-03-11 12:30","2019","03","11","12:30","-2.1","","-7.6","","66","","0.0","","","M","","M","16.1","","101.24","","","","","","NA"
"-55.85","52.30","MARY'S HARBOUR A","8502592","2019-03-11 13:30","2019","03","11","13:30","-1.9","","-5.6","","76","","0.0","","17","","39","","2.8","","101.03","","","","-10","","Snow"
"-55.85","52.30","MARY'S HARBOUR A","8502592","2019-03-11 14:30","2019","03","11","14:30","-2.7","","-4.0","","91","","0.0","","16","","34","","","M","100.72","","","","-10","","NA"
"-55.85","52.30","MARY'S HARBOUR A","8502592","2019-03-11 15:30","2019","03","11","15:30","-1.5","","-2.8","","91","","0.0","","","M","","M","0.4","","100.54","","","","","","Heavy Snow"
"-55.85","52.30","MARY'S HARBOUR A","8502592","2019-03-11 16:30","2019","03","11","16:30","-1.9","","-3.3","","90","","0.0","","16","","34","","1.0","","100.34","","","","-9","","Snow"
"-55.85","52.30","MARY'S HARBOUR A","8502592","2019-03-11 17:30","2019","03","11","17:30","-2.0","","-3.4","","90","","0.0","","16","","34","","1.0","","100.13","","","","-10","","Snow"
"-55.85","52.30","MARY'S HARBOUR A","8502592","2019-03-11 18:30","2019","03","11","18:30","-1.7","","-2.8","","92","","0.0","","16","","41","","1.0","","99.89","","","","-10","","Snow"
"-55.85","52.30","MARY'S HARBOUR A","8502592","2019-03-11 19:30","2019","03","11","19:30","","M","","M","92","","0.0","","16","","35","","1.2","","","M","","","","","Snow"
"-55.85","52.30","MARY'S HARBOUR A","8502592","2019-03-11 20:30","2019","03","11","20:30","","M","","M","93","","0.0","","16","","34","","1.6","","","M","","","","","Snow"
"-55.85","52.30","MARY'S HARBOUR A","8502592","2019-03-11 21:30","2019","03","11","21:30","-0.3","","-1.1","","95","","0.0","","16","","35","","3.2","","99.40","","","","-7","","Snow"
"-55.85","52.30","MARY'S HARBOUR A","8502592","2019-03-11 22:30","2019","03","11","22:30","0.2","","-0.7","","94","","0.0","","17","","35","","2.8","","99.24","","","","","","Snow"
"-55.85","52.30","MARY'S HARBOUR A","8502592","2019-03-11 23:30","2019","03","11","23:30","0.4","","-0.5","","94","","0.0","","19","","32","","2.8","","99.18","","","","","","Snow"
"-55.85","52.30","MARY'S HARBOUR A","8502592","2019-03-12 00:30","2019","03","12","00:30","-0.1","","-2.8","","82","","0.0","","22","","32","","16.1","","99.13","","","","-7","","NA"
"-55.85","52.30","MARY'S HARBOUR A","8502592","2019-03-12 01:30","2019","03","12","01:30","-1.0","","-3.5","","83","","0.0","","21","","34","","16.1","","98.98","","","","-8","","NA"
"-55.85","52.30","MARY'S HARBOUR A","8502592","2019-03-12 02:30","2019","03","12","02:30","-1.1","","-3.6","","83","","0.0","","22","","30","","16.1","","98.92","","","","-8","","NA"
"-55.85","52.30","MARY'S HARBOUR A","8502592","2019-03-12 03:30","2019","03","12","03:30","-1.5","","-4.5","","80","","0.0","","22","","32","","16.1","","98.83","","","","-9","","NA"
"-55.85","52.30","MARY'S HARBOUR A","8502592","2019-03-12 04:30","2019","03","12","04:30","-2.1","","-5.1","","80","","0.0","","23","","34","","16.1","","98.85","","","","-10","","NA"
"-55.85","52.30","MARY'S HARBOUR A","8502592","2019-03-12 05:30","2019","03","12","05:30","-2.4","","-5.6","","79","","0.0","","24","","30","","16.1","","98.90","","","","-10","","NA"
"-55.85","52.30","MARY'S HARBOUR A","8502592","2019-03-12 06:30","2019","03","12","06:30","-2.2","","-5.2","","80","","0.0","","23","","28","","16.1","","98.97","","","","-9","","NA"
"-55.85","52.30","MARY'S HARBOUR A","8502592","2019-03-12 07:30","2019","03","12","07:30","-1.7","","-4.7","","80","","0.0","","23","","18","","","M","99.13","","","","-7","","NA"
"-55.85","52.30","MARY'S HARBOUR A","8502592","2019-03-12 08:30","2019","03","12","08:30","-0.9","","-3.8","","81","","0.0","","21","","13","","16.1","","99.22","","","","-5","","NA"
"-55.85","52.30","MARY'S HARBOUR A","8502592","2019-03-12 09:30","2019","03","12","09:30","-0.9","","-4.6","","76","","0.0","","33","","24","","16.1","","99.36","","","","-7","","NA"
"-55.85","52.30","MARY'S HARBOUR A","8502592","2019-03-12 10:30","2019","03","12","10:30","-0.6","","-6.0","","67","","0.0","","32","","15","","16.1","","99.47","","","","-5","","NA"
"-55.85","52.30","MARY'S HARBOUR A","8502592","2019-03-12 11:30","2019","03","12","11:30","0.0","","-6.8","","60","","0.2","","33","","13","","16.1","","99.57","","","","-4","","NA"
"-55.85","52.30","MARY'S HARBOUR A","8502592","2019-03-12 12:30","2019","03","12","12:30","","M","","M","65","","0.8","","32","","17","","","M","","M","","","","","NA"
"-55.85","52.30","MARY'S HARBOUR A","8502592","2019-03-12 13:30","2019","03","12","13:30","0.4","","-6.8","","59","","0.5","","31","","11","","16.1","","99.75","","","","","","NA"
"-55.85","52.30","MARY'S HARBOUR A","8502592","2019-03-12 14:30","2019","03","12","14:30","0.7","","-6.8","","57","","0.0","","32","","13","","16.1","","99.81","","","","","","NA"
"-55.85","52.30","MARY'S HARBOUR A","8502592","2019-03-12 15:30","2019","03","12","15:30","0.3","","-7.5","","56","","0.0","","32","","15","","","M","99.91","","","","","","NA"
"-55.85","52.30","MARY'S HARBOUR A","8502592","2019-03-12 16:30","2019","03","12","16:30","0.4","","-7.6","","55","","","M","31","","15","","","M","99.98","","","","","","NA"
"-55.85","52.30","MARY'S HARBOUR A","8502592","2019-03-12 17:30","2019","03","12","17:30","-0.5","","-7.9","","57","","0.0","","31","","13","","","M","100.10","","","","-5","","NA"
"-55.85","52.30","MARY'S HARBOUR A","8502592","2019-03-12 18:30","2019","03","12","18:30","-3.4","","-7.9","","71","","0.0","","34","","5","","12.9","","100.25","","","","-5","","NA"
"-55.85","52.30","MARY'S HARBOUR A","8502592","2019-03-12 19:30","2019","03","12","19:30","-3.9","","-8.3","","72","","0.0","","","M","4","","9.7","","100.39","","","","-6","","NA"
"-55.85","52.30","MARY'S HARBOUR A","8502592","2019-03-12 20:30","2019","03","12","20:30","-5.5","","-8.2","","81","","0.0","","33","","4","","4.8","","100.48","","","","-7","","Fog"
"-55.85","52.30","MARY'S HARBOUR A","8502592","2019-03-12 21:30","2019","03","12","21:30","-4.6","","-7.5","","80","","0.0","","30","","5","","","M","100.58","","","","-7","","NA"
"-55.85","52.30","MARY'S HARBOUR A","8502592","2019-03-12 22:30","2019","03","12","22:30","-4.5","","-6.8","","84","","0.0","","","M","","M","16.1","","100.61","","","","","","Snow"
"-55.85","52.30","MARY'S HARBOUR A","8502592","2019-03-12 23:30","2019","03","12","23:30","-3.3","","-4.4","","92","","0.0","","30","","11","","3.6","","100.67","","","","-8","","Snow"
"-55.85","52.30","MARY'S HARBOUR A","8502592","2019-03-13 00:30","2019","03","13","00:30","-3.2","","-4.8","","89","","0.0","","33","","21","","","M","100.76","","","","-9","","NA"
"-55.85","52.30","MARY'S HARBOUR A","8502592","2019-03-13 01:30","2019","03","13","01:30","-3.4","","-5.3","","87","","0.0","","","M","","M","6.4","","100.88","","","","","","Snow"
"-55.85","52.30","MARY'S HARBOUR A","8502592","2019-03-13 02:30","2019","03","13","02:30","-4.0","","-6.6","","82","","0.0","","34","","21","","16.1","","100.99","","","","-10","","Snow"
"-55.85","52.30","MARY'S HARBOUR A","8502592","2019-03-13 03:30","2019","03","13","03:30","-4.7","","-7.3","","82","","0.0","","33","","17","","16.1","","101.07","","","","-11","","NA"
"-55.85","52.30","MARY'S HARBOUR A","8502592","2019-03-13 04:30","2019","03","13","04:30","-5.4","","-8.0","","82","","0.0","","35","","11","","16.1","","101.14","","","","-10","","NA"
"-55.85","52.30","MARY'S HARBOUR A","8502592","2019-03-13 05:30","2019","03","13","05:30","-5.7","","-8.3","","82","","0.0","","33","","5","","16.1","","101.25","","","","-8","","NA"
"-55.85","52.30","MARY'S HARBOUR A","8502592","2019-03-13 06:30","2019","03","13","06:30","-6.2","","-9.1","","80","","0.0","","35","","9","","14.5","","101.33","","","","-10","","NA"
"-55.85","52.30","MARY'S HARBOUR A","8502592","2019-03-13 07:30","2019","03","13","07:30","-6.9","","-9.3","","83","","0.0","","20","","5","","16.1","","101.41","","","","-9","","NA"
"-55.85","52.30","MARY'S HARBOUR A","8502592","2019-03-13 08:30","2019","03","13","08:30","","M","","M","78","","0.0","","","M","4","","16.1","","","M","","","","","NA"
"-55.85","52.30","MARY'S HARBOUR A","8502592","2019-03-13 09:30","2019","03","13","09:30","-5.8","","-9.6","","75","","0.0","","31","","11","","16.1","","101.54","","","","-11","","NA"
"-55.85","52.30","MARY'S HARBOUR A","8502592","2019-03-13 10:30","2019","03","13","10:30","-5.3","","-9.8","","71","","0.0","","32","","11","","16.1","","101.58","","","","-10","","NA"
"-55.85","52.30","MARY'S HARBOUR A","8502592","2019-03-13 11:30","2019","03","13","11:30","-2.8","","-8.9","","63","","0.0","","31","","9","","16.1","","101.58","","","","-6","","NA"
"-55.85","52.30","MARY'S HARBOUR A","8502592","2019-03-13 12:30","2019","03","13","12:30","-1.6","","-8.4","","60","","0.0","","35","","9","","16.1","","101.59","","","","-5","","NA"
"-55.85","52.30","MARY'S HARBOUR A","8502592","2019-03-13 13:30","2019","03","13","13:30","-2.5","","-7.9","","67","","0.0","","11","","13","","16.1","","101.52","","","","-7","","NA"
"-55.85","52.30","MARY'S HARBOUR A","8502592","2019-03-13 14:30","2019","03","13","14:30","-2.2","","-7.7","","66","","0.0","","14","","15","","16.1","","101.50","","","","-7","","NA"
"-55.85","52.30","MARY'S HARBOUR A","8502592","2019-03-13 15:30","2019","03","13","15:30","-2.0","","-7.3","","67","","0.0","","16","","15","","16.1","","101.51","","","","-7","","NA"
"-55.85","52.30","MARY'S HARBOUR A","8502592","2019-03-13 16:30","2019","03","13","16:30","-2.1","","-6.1","","74","","0.0","","16","","17","","16.1","","101.52","","","","-7","","NA"
"-55.85","52.30","MARY'S HARBOUR A","8502592","2019-03-13 17:30","2019","03","13","17:30","-2.2","","-5.9","","76","","0.0","","17","","15","","16.1","","101.52","","","","-7","","NA"
"-55.85","52.30","MARY'S HARBOUR A","8502592","2019-03-13 18:30","2019","03","13","18:30","-2.9","","-6.5","","76","","0.0","","20","","17","","16.1","","101.54","","","","-8","","NA"
"-55.85","52.30","MARY'S HARBOUR A","8502592","2019-03-13 19:30","2019","03","13","19:30","-4.5","","-7.6","","79","","0.0","","22","","15","","16.1","","101.60","","","","-10","","NA"
"-55.85","52.30","MARY'S HARBOUR A","8502592","2019-03-13 20:30","2019","03","13","20:30","-5.4","","-8.3","","80","","0.0","","26","","11","","16.1","","101.61","","","","-10","","NA"
"-55.85","52.30","MARY'S HARBOUR A","8502592","2019-03-13 21:30","2019","03","13","21:30","-5.7","","-8.5","","81","","0.0","","21","","13","","16.1","","101.65","","","","-11","","NA"
"-55.85","52.30","MARY'S HARBOUR A","8502592","2019-03-13 22:30","2019","03","13","22:30","-6.1","","-9.0","","80","","0.0","","23","","11","","16.1","","101.66","","","","-11","","NA"
"-55.85","52.30","MARY'S HARBOUR A","8502592","2019-03-13 23:30","2019","03","13","23:30","-5.6","","-8.9","","78","","0.0","","25","","18","","16.1","","101.65","","","","-12","","NA"
"-55.85","52.30","MARY'S HARBOUR A","8502592","2019-03-14 00:30","2019","03","14","00:30","-5.4","","-8.8","","77","","0.0","","25","","18","","16.1","","101.63","","","","-12","","NA"
"-55.85","52.30","MARY'S HARBOUR A","8502592","2019-03-14 01:30","2019","03","14","01:30","-7.5","","-9.9","","83","","0.0","","1","","8","","16.1","","101.68","","","","-12","","NA"
"-55.85","52.30","MARY'S HARBOUR A","8502592","2019-03-14 02:30","2019","03","14","02:30","-7.5","","-10.1","","82","","0.0","","35","","4","","16.1","","101.69","","","","-10","","NA"
"-55.85","52.30","MARY'S HARBOUR A","8502592","2019-03-14 03:30","2019","03","14","03:30","-7.5","","-10.1","","82","","0.0","","25","","8","","16.1","","101.65","","","","-12","","NA"
"-55.85","52.30","MARY'S HARBOUR A","8502592","2019-03-14 04:30","2019","03","14","04:30","-9.5","","-11.4","","86","","0.0","","24","","11","","16.1","","101.64","","","","-15","","NA"
"-55.85","52.30","MARY'S HARBOUR A","8502592","2019-03-14 05:30","2019","03","14","05:30","-9.1","","-11.2","","85","","0.0","","25","","5","","16.1","","101.64","","","","-12","","NA"
"-55.85","52.30","MARY'S HARBOUR A","8502592","2019-03-14 06:30","2019","03","14","06:30","-10.9","","-12.7","","87","","0.0","","24","","9","","16.1","","101.68","","","","-16","","NA"
"-55.85","52.30","MARY'S HARBOUR A","8502592","2019-03-14 07:30","2019","03","14","07:30","-9.2","","-11.6","","83","","0.0","","27","","5","","16.1","","101.74","","","","-12","","NA"
"-55.85","52.30","MARY'S HARBOUR A","8502592","2019-03-14 08:30","2019","03","14","08:30","-7.0","","-10.9","","74","","0.0","","27","","4","","14.5","","101.76","","","","-9","","NA"
"-55.85","52.30","MARY'S HARBOUR A","8502592","2019-03-14 09:30","2019","03","14","09:30","-4.3","","-10.5","","62","","0.0","","","","0","","16.1","","101.78","","","","","","NA"
"-55.85","52.30","MARY'S HARBOUR A","8502592","2019-03-14 10:30","2019","03","14","10:30","-2.2","","-10.0","","55","","0.0","","34","","9","","16.1","","101.76","","","","-6","","NA"
"-55.85","52.30","MARY'S HARBOUR A","8502592","2019-03-14 11:30","2019","03","14","11:30","-0.8","","-10.8","","47","","0.0","","32","","8","","16.1","","101.75","","","","-4","","NA"
"-55.85","52.30","MARY'S HARBOUR A","8502592","2019-03-14 12:30","2019","03","14","12:30","-0.6","","-10.8","","46","","0.0","","5","","5","","16.1","","101.73","","","","-2","","NA"
"-55.85","52.30","MARY'S HARBOUR A","8502592","2019-03-14 13:30","2019","03","14","13:30","-1.0","","-7.6","","61","","0.0","","9","","17","","16.1","","101.72","","","","-6","","NA"
"-55.85","52.30","MARY'S HARBOUR A","8502592","2019-03-14 14:30","2019","03","14","14:30","-2.3","","-8.7","","62","","0.0","","7","","17","","16.1","","101.76","","","","-8","","NA"
"-55.85","52.30","MARY'S HARBOUR A","8502592","2019-03-14 15:30","2019","03","14","15:30","-3.0","","-7.0","","74","","0.0","","7","","11","","16.1","","101.85","","","","-7","","NA"
"-55.85","52.30","MARY'S HARBOUR A","8502592","2019-03-14 16:30","2019","03","14","16:30","-3.6","","-8.0","","72","","0.0","","6","","17","","16.1","","101.96","","","","-9","","NA"
"-55.85","52.30","MARY'S HARBOUR A","8502592","2019-03-14 17:30","2019","03","14","17:30","-5.0","","-8.3","","78","","0.0","","6","","13","","16.1","","102.02","","","","-10","","NA"
"-55.85","52.30","MARY'S HARBOUR A","8502592","2019-03-14 18:30","2019","03","14","18:30","-6.9","","-10.3","","77","","0.0","","5","","9","","16.1","","102.06","","","","-11","","NA"
"-55.85","52.30","MARY'S HARBOUR A","8502592","2019-03-14 19:30","2019","03","14","19:30","-7.8","","-10.6","","80","","0.0","","2","","11","","16.1","","102.13","","","","-13","","NA"
"-55.85","52.30","MARY'S HARBOUR A","8502592","2019-03-14 20:30","2019","03","14","20:30","-10.5","","-12.2","","87","","0.0","","28","","4","","12.9","","102.19","","","","-13","","NA"
"-55.85","52.30","MARY'S HARBOUR A","8502592","2019-03-14 21:30","2019","03","14","21:30","-12.1","","-13.7","","88","","0.0","","","M","4","","16.1","","102.24","","","","-15","","NA"
"-55.85","52.30","MARY'S HARBOUR A","8502592","2019-03-14 22:30","2019","03","14","22:30","-13.3","","-14.9","","88","","0.0","","23","","9","","16.1","","102.28","","","","-19","","NA"
"-55.85","52.30","MARY'S HARBOUR A","8502592","2019-03-14 23:30","2019","03","14","23:30","-13.6","","-15.3","","87","","0.0","","23","","8","","16.1","","102.30","","","","-19","","NA"
"-55.85","52.30","MARY'S HARBOUR A","8502592","2019-03-15 00:30","2019","03","15","00:30","-14.8","","-16.7","","86","","0.0","","23","","11","","16.1","","102.26","","","","-21","","NA"
"-55.85","52.30","MARY'S HARBOUR A","8502592","2019-03-15 01:30","2019","03","15","01:30","-15.3","","-17.1","","86","","0.0","","23","","5","","16.1","","102.28","","","","-19","","NA"
"-55.85","52.30","MARY'S HARBOUR A","8502592","2019-03-15 02:30","2019","03","15","02:30","-16.2","","-18.0","","86","","0.0","","26","","5","","16.1","","102.32","","","","-20","","NA"
"-55.85","52.30","MARY'S HARBOUR A","8502592","2019-03-15 03:30","2019","03","15","03:30","-16.4","","-18.5","","84","","0.0","","26","","8","","16.1","","102.29","","","","-22","","NA"
"-55.85","52.30","MARY'S HARBOUR A","8502592","2019-03-15 04:30","2019","03","15","04:30","-17.0","","-19.1","","84","","0.0","","24","","8","","16.1","","102.26","","","","-23","","NA"
"-55.85","52.30","MARY'S HARBOUR A","8502592","2019-03-15 05:30","2019","03","15","05:30","-17.1","","-19.1","","85","","0.0","","24","","8","","16.1","","102.25","","","","-23","","NA"
"-55.85","52.30","MARY'S HARBOUR A","8502592","2019-03-15 06:30","2019","03","15","06:30","-16.8","","-18.1","","90","","0.0","","24","","5","","2.0","","102.23","","","","-21","","Fog"
"-55.85","52.30","MARY'S HARBOUR A","8502592","2019-03-15 07:30","2019","03","15","07:30","-14.8","","-16.7","","86","","0.0","","20","","8","","16.1","","102.27","","","","-20","","NA"
"-55.85","52.30","MARY'S HARBOUR A","8502592","2019-03-15 08:30","2019","03","15","08:30","-11.2","","-12.8","","88","","0.0","","","","0","","16.1","","102.20","","","","","","NA"
"-55.85","52.30","MARY'S HARBOUR A","8502592","2019-03-15 09:30","2019","03","15","09:30","-9.8","","-12.2","","83","","0.0","","","M","4","","4.0","","102.13","","","","-12","","Fog"
"-55.85","52.30","MARY'S HARBOUR A","8502592","2019-03-15 10:30","2019","03","15","10:30","-4.2","","-8.3","","73","","0.0","","18","","21","","16.1","","102.05","","","","-11","","NA"
"-55.85","52.30","MARY'S HARBOUR A","8502592","2019-03-15 11:30","2019","03","15","11:30","-3.7","","-7.5","","75","","0.0","","16","","22","","16.1","","101.92","","","","-10","","NA"
"-55.85","52.30","MARY'S HARBOUR A","8502592","2019-03-15 12:30","2019","03","15","12:30","-3.7","","-7.0","","78","","0.0","","18","","24","","16.1","","101.81","","","","-11","","NA"
"-55.85","52.30","MARY'S HARBOUR A","8502592","2019-03-15 13:30","2019","03","15","13:30","-2.8","","-6.0","","79","","0.0","","17","","21","","16.1","","101.68","","","","-9","","NA"
"-55.85","52.30","MARY'S HARBOUR A","8502592","2019-03-15 14:30","2019","03","15","14:30","-2.4","","-5.4","","80","","0.0","","17","","30","","16.1","","101.50","","","","-10","","NA"
"-55.85","52.30","MARY'S HARBOUR A","8502592","2019-03-15 15:30","2019","03","15","15:30","-2.6","","-4.9","","84","","0.0","","17","","26","","6.4","","101.40","","","","-9","","Snow"
"-55.85","52.30","MARY'S HARBOUR A","8502592","2019-03-15 16:30","2019","03","15","16:30","-2.8","","-5.0","","85","","0.0","","18","","32","","14.5","","101.30","","","","-10","","Snow"
"-55.85","52.30","MARY'S HARBOUR A","8502592","2019-03-15 17:30","2019","03","15","17:30","-2.9","","-4.5","","89","","0.0","","15","","21","","16.1","","101.12","","","","-9","","Snow"
"-55.85","52.30","MARY'S HARBOUR A","8502592","2019-03-15 18:30","2019","03","15","18:30","-2.6","","-4.0","","90","","0.0","","17","","30","","6.4","","101.02","","","","-10","","Snow"
"-55.85","52.30","MARY'S HARBOUR A","8502592","2019-03-15 19:30","2019","03","15","19:30","-2.5","","-3.6","","92","","0.0","","16","","18","","2.0","","100.87","","","","-8","","Snow"
"-55.85","52.30","MARY'S HARBOUR A","8502592","2019-03-15 20:30","2019","03","15","20:30","-1.7","","-2.8","","92","","0.0","","17","","39","","3.2","","100.67","","","","-10","","Snow"
"-55.85","52.30","MARY'S HARBOUR A","8502592","2019-03-15 21:30","2019","03","15","21:30","-1.0","","-2.3","","91","","0.0","","17","","28","","4.8","","100.46","","","","-8","","Snow"
"-55.85","52.30","MARY'S HARBOUR A","8502592","2019-03-15 22:30","2019","03","15","22:30","-0.8","","-2.1","","91","","0.0","","17","","37","","6.4","","100.28","","","","-8","","Snow"
"-55.85","52.30","MARY'S HARBOUR A","8502592","2019-03-15 23:30","2019","03","15","23:30","-0.6","","-2.3","","88","","0.0","","17","","30","","11.3","","100.05","","","","-7","","Snow"
"-55.85","52.30","MARY'S HARBOUR A","8502592","2019-03-16 00:30","2019","03","16","00:30","0.0","","-2.4","","84","","0.0","","17","","26","","16.1","","99.90","","","","-6","","NA"
"-55.85","52.30","MARY'S HARBOUR A","8502592","2019-03-16 01:30","2019","03","16","01:30","0.3","","-1.3","","89","","0.0","","18","","30","","16.1","","99.72","","","","","","NA"
"-55.85","52.30","MARY'S HARBOUR A","8502592","2019-03-16 02:30","2019","03","16","02:30","2.0","","0.1","","87","","0.0","","20","","30","","16.1","","99.55","","","","","","NA"
"-55.85","52.30","MARY'S HARBOUR A","8502592","2019-03-16 03:30","2019","03","16","03:30","2.9","","0.7","","85","","0.5","","21","","28","","16.1","","99.46","","","","","","NA"
"-55.85","52.30","MARY'S HARBOUR A","8502592","2019-03-16 04:30","2019","03","16","04:30","2.9","","0.8","","86","","0.0","","22","","32","","16.1","","99.40","","","","","","NA"
"-55.85","52.30","MARY'S HARBOUR A","8502592","2019-03-16 05:30","2019","03","16","05:30","2.5","","0.5","","86","","0.0","","22","","26","","16.1","","99.32","","","","","","NA"
"-55.85","52.30","MARY'S HARBOUR A","8502592","2019-03-16 06:30","2019","03","16","06:30","2.2","","0.5","","88","","0.0","","22","","28","","16.1","","99.29","","","","","","NA"
"-55.85","52.30","MARY'S HARBOUR A","8502592","2019-03-16 07:30","2019","03","16","07:30","2.4","","0.6","","88","","0.0","","20","","24","","16.1","","99.30","","","","","","NA"
"-55.85","52.30","MARY'S HARBOUR A","8502592","2019-03-16 08:30","2019","03","16","08:30","2.8","","0.7","","86","","0.0","","19","","28","","16.1","","99.36","","","","","","NA"
"-55.85","52.30","MARY'S HARBOUR A","8502592","2019-03-16 09:30","2019","03","16","09:30","3.1","","0.7","","84","","0.0","","22","","24","","16.1","","99.32","","","","","","NA"
"-55.85","52.30","MARY'S HARBOUR A","8502592","2019-03-16 10:30","2019","03","16","10:30","3.2","","0.6","","83","","0.0","","20","","21","","16.1","","99.31","","","","","","NA"
"-55.85","52.30","MARY'S HARBOUR A","8502592","2019-03-16 11:30","2019","03","16","11:30","2.9","","0.5","","84","","0.0","","20","","18","","16.1","","99.27","","","","","","NA"
"-55.85","52.30","MARY'S HARBOUR A","8502592","2019-03-16 12:30","2019","03","16","12:30","2.7","","0.4","","85","","0.0","","18","","30","","16.1","","99.18","","","","","","NA"
"-55.85","52.30","MARY'S HARBOUR A","8502592","2019-03-16 13:30","2019","03","16","13:30","3.9","","0.8","","80","","0.0","","20","","13","","16.1","","99.12","","","","","","NA"
"-55.85","52.30","MARY'S HARBOUR A","8502592","2019-03-16 14:30","2019","03","16","14:30","4.4","","0.7","","77","","0.0","","21","","22","","16.1","","99.04","","","","","","NA"
"-55.85","52.30","MARY'S HARBOUR A","8502592","2019-03-16 15:30","2019","03","16","15:30","2.9","","0.3","","83","","0.0","","19","","17","","16.1","","99.06","","","","","","NA"
"-55.85","52.30","MARY'S HARBOUR A","8502592","2019-03-16 16:30","2019","03","16","16:30","3.9","","0.6","","79","","0.0","","21","","17","","16.1","","98.98","","","","","","NA"
"-55.85","52.30","MARY'S HARBOUR A","8502592","2019-03-16 17:30","2019","03","16","17:30","3.4","","0.5","","82","","0.0","","20","","17","","16.1","","98.97","","","","","","NA"
"-55.85","52.30","MARY'S HARBOUR A","8502592","2019-03-16 18:30","2019","03","16","18:30","2.4","","0.5","","87","","0.0","","21","","18","","16.1","","98.95","","","","","","NA"
"-55.85","52.30","MARY'S HARBOUR A","8502592","2019-03-16 19:30","2019","03","16","19:30","1.7","","0.1","","89","","0.0","","26","","15","","16.1","","98.95","","","","","","NA"
"-55.85","52.30","MARY'S HARBOUR A","8502592","2019-03-16 20:30","2019","03","16","20:30","1.7","","0.2","","90","","0.0","","27","","5","","16.1","","98.89","","","","","","NA"
"-55.85","52.30","MARY'S HARBOUR A","8502592","2019-03-16 21:30","2019","03","16","21:30","1.4","","0.4","","93","","0.0","","17","","18","","16.1","","98.86","","","","","","NA"
"-55.85","52.30","MARY'S HARBOUR A","8502592","2019-03-16 22:30","2019","03","16","22:30","2.4","","1.5","","94","","0.0","","16","","11","","16.1","","98.74","","","","","","NA"
"-55.85","52.30","MARY'S HARBOUR A","8502592","2019-03-16 23:30","2019","03","16","23:30","1.7","","1.0","","95","","0.0","","9","","11","","16.1","","98.59","","","","","","NA"
"-55.85","52.30","MARY'S HARBOUR A","8502592","2019-03-17 00:30","2019","03","17","00:30","1.0","","0.4","","96","","0.8","","16","","11","","12.9","","98.46","","","","","","Rain"
"-55.85","52.30","MARY'S HARBOUR A","8502592","2019-03-17 01:30","2019","03","17","01:30","1.0","","0.6","","97","","0.8","","17","","21","","16.1","","98.31","","","","","","Rain"
"-55.85","52.30","MARY'S HARBOUR A","8502592","2019-03-17 02:30","2019","03","17","02:30","2.2","","1.2","","93","","0.0","","21","","13","","16.1","","98.26","","","","","","NA"
"-55.85","52.30","MARY'S HARBOUR A","8502592","2019-03-17 03:30","2019","03","17","03:30","2.0","","0.2","","88","","0.0","","21","","37","","16.1","","98.20","","","","","","NA"
"-55.85","52.30","MARY'S HARBOUR A","8502592","2019-03-17 04:30","2019","03","17","04:30","1.1","","-1.2","","85","","0.0","","21","","30","","16.1","","98.20","","","","","","NA"
"-55.85","52.30","MARY'S HARBOUR A","8502592","2019-03-17 05:30","2019","03","17","05:30","0.3","","-2.3","","83","","0.0","","20","","39","","16.1","","98.15","","","","","","NA"
"-55.85","52.30","MARY'S HARBOUR A","8502592","2019-03-17 06:30","2019","03","17","06:30","-1.4","","-5.7","","73","","0.0","","22","","43","","16.1","","98.19","","","","-10","","NA"
"-55.85","52.30","MARY'S HARBOUR A","8502592","2019-03-17 07:30","2019","03","17","07:30","-2.2","","-7.0","","70","","0.0","","22","","54","","16.1","","98.19","","","","-11","","NA"
"-55.85","52.30","MARY'S HARBOUR A","8502592","2019-03-17 08:30","2019","03","17","08:30","-2.1","","-7.6","","66","","0.0","","22","","54","","16.1","","98.18","","","","-11","","NA"
"-55.85","52.30","MARY'S HARBOUR A","8502592","2019-03-17 09:30","2019","03","17","09:30","-2.5","","-7.4","","69","","0.0","","22","","46","","16.1","","98.28","","","","-11","","NA"
"-55.85","52.30","MARY'S HARBOUR A","8502592","2019-03-17 10:30","2019","03","17","10:30","-2.2","","-7.3","","68","","0.0","","22","","46","","16.1","","98.30","","","","-11","","NA"
"-55.85","52.30","MARY'S HARBOUR A","8502592","2019-03-17 11:30","2019","03","17","11:30","-1.7","","-6.1","","72","","0.0","","22","","35","","16.1","","98.22","","","","-9","","NA"
"-55.85","52.30","MARY'S HARBOUR A","8502592","2019-03-17 12:30","2019","03","17","12:30","-1.6","","-6.7","","68","","0.0","","22","","48","","16.1","","98.18","","","","-10","","Snow"
"-55.85","52.30","MARY'S HARBOUR A","8502592","2019-03-17 13:30","2019","03","17","13:30","-2.1","","-7.3","","68","","0.0","","22","","48","","16.1","","98.17","","","","-11","","NA"
"-55.85","52.30","MARY'S HARBOUR A","8502592","2019-03-17 14:30","2019","03","17","14:30","-2.7","","-8.8","","63","","0.0","","23","","54","","16.1","","98.30","","","","-12","","Snow"
"-55.85","52.30","MARY'S HARBOUR A","8502592","2019-03-17 15:30","2019","03","17","15:30","-3.7","","-9.0","","67","","0.0","","22","","37","","16.1","","98.40","","","","-12","","Snow"
"-55.85","52.30","MARY'S HARBOUR A","8502592","2019-03-17 16:30","2019","03","17","16:30","-4.2","","-9.5","","67","","0.0","","23","","39","","8.1","","98.45","","","","-13","","Snow"
"-55.85","52.30","MARY'S HARBOUR A","8502592","2019-03-17 17:30","2019","03","17","17:30","-5.4","","-12.7","","57","","0.0","","25","","26","","16.1","","98.58","","","","-13","","NA"
"-55.85","52.30","MARY'S HARBOUR A","8502592","2019-03-17 18:30","2019","03","17","18:30","-6.9","","-13.3","","61","","0.0","","24","","28","","16.1","","98.68","","","","-15","","NA"
"-55.85","52.30","MARY'S HARBOUR A","8502592","2019-03-17 19:30","2019","03","17","19:30","-6.9","","-12.8","","63","","0.0","","23","","30","","16.1","","98.73","","","","-15","","NA"
"-55.85","52.30","MARY'S HARBOUR A","8502592","2019-03-17 20:30","2019","03","17","20:30","-7.1","","-13.2","","62","","0.0","","24","","39","","16.1","","98.80","","","","-17","","Snow"
"-55.85","52.30","MARY'S HARBOUR A","8502592","2019-03-17 21:30","2019","03","17","21:30","-7.4","","-13.7","","61","","0.0","","24","","41","","16.1","","98.82","","","","-17","","NA"
"-55.85","52.30","MARY'S HARBOUR A","8502592","2019-03-17 22:30","2019","03","17","22:30","-7.7","","-14.2","","60","","0.0","","25","","41","","16.1","","98.83","","","","-18","","NA"
"-55.85","52.30","MARY'S HARBOUR A","8502592","2019-03-17 23:30","2019","03","17","23:30","-8.1","","-14.6","","60","","0.0","","25","","35","","16.1","","98.88","","","","-18","","NA"
"-55.85","52.30","MARY'S HARBOUR A","8502592","2019-03-18 00:30","2019","03","18","00:30","-8.3","","-14.0","","64","","0.0","","25","","43","","16.1","","98.95","","","","-19","","Snow"
"-55.85","52.30","MARY'S HARBOUR A","8502592","2019-03-18 01:30","2019","03","18","01:30","-8.5","","-13.0","","70","","0.0","","25","","39","","8.1","","99.04","","","","-19","","Snow"
"-55.85","52.30","MARY'S HARBOUR A","8502592","2019-03-18 02:30","2019","03","18","02:30","-8.6","","-12.7","","72","","0.0","","25","","35","","9.7","","99.13","","","","-18","","Snow"
"-55.85","52.30","MARY'S HARBOUR A","8502592","2019-03-18 03:30","2019","03","18","03:30","-8.5","","-12.5","","73","","0.0","","26","","32","","8.1","","99.24","","","","-18","","Snow"
"-55.85","52.30","MARY'S HARBOUR A","8502592","2019-03-18 04:30","2019","03","18","04:30","-8.4","","-12.3","","74","","0.0","","26","","34","","6.4","","99.37","","","","-18","","Snow"
"-55.85","52.30","MARY'S HARBOUR A","8502592","2019-03-18 05:30","2019","03","18","05:30","-8.2","","-12.2","","73","","0.0","","25","","30","","16.1","","99.50","","","","-17","","Snow"
"-55.85","52.30","MARY'S HARBOUR A","8502592","2019-03-18 06:30","2019","03","18","06:30","-8.2","","-12.2","","73","","0.0","","25","","24","","16.1","","99.63","","","","-16","","Snow"
"-55.85","52.30","MARY'S HARBOUR A","8502592","2019-03-18 07:30","2019","03","18","07:30","-7.7","","-11.9","","72","","0.0","","26","","22","","16.1","","99.77","","","","-15","","Snow"
"-55.85","52.30","MARY'S HARBOUR A","8502592","2019-03-18 08:30","2019","03","18","08:30","-7.0","","-11.2","","72","","0.0","","26","","17","","12.9","","99.92","","","","-13","","Snow"
"-55.85","52.30","MARY'S HARBOUR A","8502592","2019-03-18 09:30","2019","03","18","09:30","-6.2","","-10.7","","71","","0.0","","26","","17","","6.4","","100.06","","","","-12","","Snow"
"-55.85","52.30","MARY'S HARBOUR A","8502592","2019-03-18 10:30","2019","03","18","10:30","-5.5","","-10.5","","68","","0.0","","26","","26","","6.4","","100.16","","","","-13","","Snow"
"-55.85","52.30","MARY'S HARBOUR A","8502592","2019-03-18 11:30","2019","03","18","11:30","-5.0","","-9.7","","70","","0.0","","26","","18","","6.4","","100.25","","","","-11","","Snow"
"-55.85","52.30","MARY'S HARBOUR A","8502592","2019-03-18 12:30","2019","03","18","12:30","-4.2","","-10.0","","64","","0.0","","25","","22","","16.1","","100.35","","","","-11","","NA"
"-55.85","52.30","MARY'S HARBOUR A","8502592","2019-03-18 13:30","2019","03","18","13:30","-4.0","","-9.9","","64","","0.0","","25","","21","","14.5","","100.41","","","","-10","","Snow"
"-55.85","52.30","MARY'S HARBOUR A","8502592","2019-03-18 14:30","2019","03","18","14:30","-3.1","","-9.4","","62","","0.0","","26","","18","","16.1","","100.49","","","","-9","","NA"
"-55.85","52.30","MARY'S HARBOUR A","8502592","2019-03-18 15:30","2019","03","18","15:30","-3.4","","-8.7","","67","","0.0","","24","","18","","12.9","","100.58","","","","-9","","Snow"
"-55.85","52.30","MARY'S HARBOUR A","8502592","2019-03-18 16:30","2019","03","18","16:30","-4.0","","-7.9","","74","","0.0","","23","","11","","4.8","","100.65","","","","-8","","Snow"
"-55.85","52.30","MARY'S HARBOUR A","8502592","2019-03-18 17:30","2019","03","18","17:30","-5.1","","-6.6","","89","","0.0","","","M","4","","0.6","","100.78","","","","-7","","Moderate Snow"
"-55.85","52.30","MARY'S HARBOUR A","8502592","2019-03-18 18:30","2019","03","18","18:30","-6.3","","-7.7","","90","","0.0","","8","","21","","1.2","","100.87","","","","-13","","Snow"
"-55.85","52.30","MARY'S HARBOUR A","8502592","2019-03-18 19:30","2019","03","18","19:30","-6.6","","-8.0","","90","","0.0","","6","","9","","1.2","","101.02","","","","-11","","Snow"
"-55.85","52.30","MARY'S HARBOUR A","8502592","2019-03-18 20:30","2019","03","18","20:30","-7.3","","-8.9","","88","","0.0","","3","","9","","1.6","","101.13","","","","-12","","Snow"
"-55.85","52.30","MARY'S HARBOUR A","8502592","2019-03-18 21:30","2019","03","18","21:30","-8.3","","-10.1","","87","","0.0","","36","","13","","2.4","","101.22","","","","-14","","Snow"
"-55.85","52.30","MARY'S HARBOUR A","8502592","2019-03-18 22:30","2019","03","18","22:30","-9.7","","-11.6","","86","","0.0","","35","","8","","2.4","","101.26","","","","-14","","Snow"
"-55.85","52.30","MARY'S HARBOUR A","8502592","2019-03-18 23:30","2019","03","18","23:30","-10.5","","-12.8","","83","","0.0","","35","","5","","4.8","","101.29","","","","-14","","Snow"
"-55.85","52.30","MARY'S HARBOUR A","8502592","2019-03-19 00:30","2019","03","19","00:30","-11.0","","-13.2","","84","","0.0","","31","","8","","14.5","","101.31","","","","-16","","Snow"
"-55.85","52.30","MARY'S HARBOUR A","8502592","2019-03-19 01:30","2019","03","19","01:30","-11.3","","-13.8","","82","","0.0","","29","","4","","16.1","","101.34","","","","-14","","Snow"
"-55.85","52.30","MARY'S HARBOUR A","8502592","2019-03-19 02:30","2019","03","19","02:30","-11.9","","-14.2","","83","","0.0","","26","","5","","16.1","","101.36","","","","-15","","NA"
"-55.85","52.30","MARY'S HARBOUR A","8502592","2019-03-19 03:30","2019","03","19","03:30","-13.1","","-15.4","","83","","0.0","","25","","5","","16.1","","101.38","","","","-16","","NA"
"-55.85","52.30","MARY'S HARBOUR A","8502592","2019-03-19 04:30","2019","03","19","04:30","-13.1","","-15.7","","81","","0.0","","","M","4","","16.1","","101.40","","","","-16","","NA"
"-55.85","52.30","MARY'S HARBOUR A","8502592","2019-03-19 05:30","2019","03","19","05:30","-14.4","","-16.7","","83","","0.0","","24","","8","","16.1","","101.42","","","","-20","","NA"
"-55.85","52.30","MARY'S HARBOUR A","8502592","2019-03-19 06:30","2019","03","19","06:30","-14.4","","-17.0","","81","","0.0","","23","","5","","16.1","","101.48","","","","-18","","NA"
"-55.85","52.30","MARY'S HARBOUR A","8502592","2019-03-19 07:30","2019","03","19","07:30","-14.1","","-17.0","","79","","0.0","","","M","4","","16.1","","101.55","","","","-17","","NA"
"-55.85","52.30","MARY'S HARBOUR A","8502592","2019-03-19 08:30","2019","03","19","08:30","-13.3","","-17.3","","72","","0.0","","29","","8","","16.1","","101.63","","","","-18","","NA"
"-55.85","52.30","MARY'S HARBOUR A","8502592","2019-03-19 09:30","2019","03","19","09:30","-12.9","","-18.2","","65","","0.0","","29","","8","","16.1","","101.67","","","","-18","","NA"
"-55.85","52.30","MARY'S HARBOUR A","8502592","2019-03-19 10:30","2019","03","19","10:30","-12.8","","-18.3","","64","","0.0","","31","","17","","16.1","","101.69","","","","-21","","NA"
"-55.85","52.30","MARY'S HARBOUR A","8502592","2019-03-19 11:30","2019","03","19","11:30","-11.4","","-17.9","","59","","0.0","","32","","15","","16.1","","101.69","","","","-18","","NA"
"-55.85","52.30","MARY'S HARBOUR A","8502592","2019-03-19 12:30","2019","03","19","12:30","-10.9","","-17.6","","58","","0.0","","32","","18","","16.1","","101.69","","","","-19","","NA"
"-55.85","52.30","MARY'S HARBOUR A","8502592","2019-03-19 13:30","2019","03","19","13:30","-10.2","","-17.5","","56","","0.0","","32","","21","","16.1","","101.67","","","","-18","","NA"
"-55.85","52.30","MARY'S HARBOUR A","8502592","2019-03-19 14:30","2019","03","19","14:30","-9.0","","-17.4","","51","","0.0","","31","","13","","16.1","","101.67","","","","-15","","NA"
"-55.85","52.30","MARY'S HARBOUR A","8502592","2019-03-19 15:30","2019","03","19","15:30","-8.1","","-17.6","","47","","0.0","","31","","9","","16.1","","101.68","","","","-13","","NA"
"-55.85","52.30","MARY'S HARBOUR A","8502592","2019-03-19 16:30","2019","03","19","16:30","-7.9","","-17.6","","46","","0.0","","30","","11","","16.1","","101.69","","","","-13","","NA"
"-55.85","52.30","MARY'S HARBOUR A","8502592","2019-03-19 17:30","2019","03","19","17:30","-9.1","","-19.1","","45","","0.0","","30","","11","","16.1","","101.73","","","","-15","","NA"
"-55.85","52.30","MARY'S HARBOUR A","8502592","2019-03-19 18:30","2019","03","19","18:30","-10.9","","-19.9","","48","","0.0","","23","","8","","16.1","","101.77","","","","-16","","NA"
"-55.85","52.30","MARY'S HARBOUR A","8502592","2019-03-19 19:30","2019","03","19","19:30","-13.5","","-21.2","","53","","0.0","","23","","8","","16.1","","101.82","","","","-19","","NA"
"-55.85","52.30","MARY'S HARBOUR A","8502592","2019-03-19 20:30","2019","03","19","20:30","-16.3","","-22.6","","59","","0.0","","23","","13","","16.1","","101.86","","","","-24","","NA"
"-55.85","52.30","MARY'S HARBOUR A","8502592","2019-03-19 21:30","2019","03","19","21:30","-17.9","","-23.2","","64","","0.0","","23","","8","","16.1","","101.88","","","","-24","","NA"
"-55.85","52.30","MARY'S HARBOUR A","8502592","2019-03-19 22:30","2019","03","19","22:30","-18.5","","-24.4","","61","","0.0","","","M","4","","16.1","","101.86","","","","-22","","NA"
"-55.85","52.30","MARY'S HARBOUR A","8502592","2019-03-19 23:30","2019","03","19","23:30","-17.6","","-23.8","","59","","0.0","","26","","5","","12.9","","101.83","","","","-22","","NA"
"-55.85","52.30","MARY'S HARBOUR A","8502592","2019-03-20 00:30","2019","03","20","00:30","-21.1","","-25.1","","71","","0.0","","25","","8","","16.1","","101.81","","","","-28","","NA"
"-55.85","52.30","MARY'S HARBOUR A","8502592","2019-03-20 01:30","2019","03","20","01:30","-20.5","","-24.8","","69","","0.0","","22","","5","","16.1","","101.79","","","","-25","","NA"
"-55.85","52.30","MARY'S HARBOUR A","8502592","2019-03-20 02:30","2019","03","20","02:30","-20.0","","-24.0","","71","","0.0","","24","","8","","16.1","","101.76","","","","-26","","NA"
"-55.85","52.30","MARY'S HARBOUR A","8502592","2019-03-20 03:30","2019","03","20","03:30","-18.8","","-22.8","","71","","0.0","","21","","8","","16.1","","101.70","","","","-25","","NA"
"-55.85","52.30","MARY'S HARBOUR A","8502592","2019-03-20 04:30","2019","03","20","04:30","-19.0","","-22.7","","73","","0.0","","21","","5","","16.1","","101.68","","","","-23","","NA"
"-55.85","52.30","MARY'S HARBOUR A","8502592","2019-03-20 05:30","2019","03","20","05:30","-18.0","","-22.1","","71","","0.0","","21","","9","","16.1","","101.63","","","","-24","","NA"
"-55.85","52.30","MARY'S HARBOUR A","8502592","2019-03-20 06:30","2019","03","20","06:30","-17.7","","-21.9","","70","","0.0","","23","","11","","16.1","","101.59","","","","-25","","NA"
"-55.85","52.30","MARY'S HARBOUR A","8502592","2019-03-20 07:30","2019","03","20","07:30","-13.6","","-20.3","","58","","0.0","","22","","13","","16.1","","101.52","","","","-21","","NA"
"-55.85","52.30","MARY'S HARBOUR A","8502592","2019-03-20 08:30","2019","03","20","08:30","-9.4","","-18.9","","47","","0.0","","21","","11","","16.1","","101.45","","","","-15","","NA"
"-55.85","52.30","MARY'S HARBOUR A","8502592","2019-03-20 09:30","2019","03","20","09:30","-7.4","","-17.7","","44","","0.0","","23","","24","","14.5","","101.31","","","","-15","","Snow"
"-55.85","52.30","MARY'S HARBOUR A","8502592","2019-03-20 10:30","2019","03","20","10:30","-5.8","","-16.5","","43","","0.0","","21","","30","","4.8","","101.21","","","","-14","","Snow"
"-55.85","52.30","MARY'S HARBOUR A","8502592","2019-03-20 11:30","2019","03","20","11:30","-5.3","","-14.0","","51","","0.0","","22","","34","","2.8","","101.08","","","","-14","","Snow"
"-55.85","52.30","MARY'S HARBOUR A","8502592","2019-03-20 12:30","2019","03","20","12:30","-4.5","","-14.0","","48","","0.0","","23","","43","","9.7","","100.96","","","","-14","","Snow"
"-55.85","52.30","MARY'S HARBOUR A","8502592","2019-03-20 13:30","2019","03","20","13:30","-4.3","","-10.9","","60","","0.0","","23","","50","","6.4","","100.78","","","","-14","","Snow"
"-55.85","52.30","MARY'S HARBOUR A","8502592","2019-03-20 14:30","2019","03","20","14:30","-4.6","","-9.7","","68","","0.0","","22","","45","","8.1","","100.63","","","","-14","","Snow"
"-55.85","52.30","MARY'S HARBOUR A","8502592","2019-03-20 15:30","2019","03","20","15:30","-3.9","","-9.8","","64","","0.0","","23","","52","","11.3","","100.57","","","","-14","","NA"
"-55.85","52.30","MARY'S HARBOUR A","8502592","2019-03-20 16:30","2019","03","20","16:30","-4.2","","-9.3","","68","","0.0","","23","","48","","9.7","","100.48","","","","-14","","Haze"
"-55.85","52.30","MARY'S HARBOUR A","8502592","2019-03-20 17:30","2019","03","20","17:30","-4.4","","-9.5","","68","","0.0","","23","","43","","16.1","","100.54","","","","-14","","NA"
"-55.85","52.30","MARY'S HARBOUR A","8502592","2019-03-20 18:30","2019","03","20","18:30","-4.7","","-9.4","","70","","0.0","","23","","41","","16.1","","100.54","","","","-14","","NA"
"-55.85","52.30","MARY'S HARBOUR A","8502592","2019-03-20 19:30","2019","03","20","19:30","-4.4","","-8.9","","71","","0.0","","23","","54","","16.1","","100.53","","","","-14","","NA"
"-55.85","52.30","MARY'S HARBOUR A","8502592","2019-03-20 20:30","2019","03","20","20:30","-4.4","","-8.7","","72","","0.0","","23","","43","","16.1","","100.62","","","","-14","","NA"
"-55.85","52.30","MARY'S HARBOUR A","8502592","2019-03-20 21:30","2019","03","20","21:30","-4.9","","-9.6","","70","","0.0","","29","","35","","1.6","","100.91","","","","-13","","Snow"
"-55.85","52.30","MARY'S HARBOUR A","8502592","2019-03-20 22:30","2019","03","20","22:30","-7.0","","-12.1","","67","","0.0","","31","","21","","16.1","","101.11","","","","-14","","NA"
"-55.85","52.30","MARY'S HARBOUR A","8502592","2019-03-20 23:30","2019","03","20","23:30","-8.9","","-16.4","","55","","0.0","","29","","26","","16.1","","101.26","","","","-18","","NA"
"-55.85","52.30","MARY'S HARBOUR A","8502592","2019-03-21 00:30","2019","03","21","00:30","-10.9","","-18.5","","54","","0.0","","29","","24","","16.1","","101.47","","","","-20","","NA"
"-55.85","52.30","MARY'S HARBOUR A","8502592","2019-03-21 01:30","2019","03","21","01:30","-12.5","","-20.9","","50","","0.0","","30","","22","","16.1","","101.58","","","","-21","","NA"
"-55.85","52.30","MARY'S HARBOUR A","8502592","2019-03-21 02:30","2019","03","21","02:30","-13.8","","-22.1","","50","","0.0","","27","","13","","16.1","","101.72","","","","-21","","NA"
"-55.85","52.30","MARY'S HARBOUR A","8502592","2019-03-21 03:30","2019","03","21","03:30","-15.0","","-23.3","","50","","0.0","","29","","15","","16.1","","101.77","","","","-23","","NA"
"-55.85","52.30","MARY'S HARBOUR A","8502592","2019-03-21 04:30","2019","03","21","04:30","-15.8","","-23.6","","52","","0.0","","29","","5","","16.1","","101.84","","","","-20","","NA"
"-55.85","52.30","MARY'S HARBOUR A","8502592","2019-03-21 05:30","2019","03","21","05:30","-16.8","","-24.1","","54","","0.0","","","M","4","","16.1","","101.91","","","","-20","","NA"
"-55.85","52.30","MARY'S HARBOUR A","8502592","2019-03-21 06:30","2019","03","21","06:30","-17.3","","-24.3","","55","","0.0","","20","","9","","16.1","","101.94","","","","-24","","NA"
"-55.85","52.30","MARY'S HARBOUR A","8502592","2019-03-21 07:30","2019","03","21","07:30","-16.2","","-23.7","","53","","0.0","","18","","13","","16.1","","102.03","","","","-24","","NA"
"-55.85","52.30","MARY'S HARBOUR A","8502592","2019-03-21 08:30","2019","03","21","08:30","-12.8","","-21.9","","47","","0.0","","20","","17","","16.1","","102.05","","","","-21","","NA"
"-55.85","52.30","MARY'S HARBOUR A","8502592","2019-03-21 09:30","2019","03","21","09:30","-10.8","","-21.1","","43","","0.0","","21","","18","","16.1","","102.07","","","","-18","","NA"
"-55.85","52.30","MARY'S HARBOUR A","8502592","2019-03-21 10:30","2019","03","21","10:30","-9.2","","-19.9","","42","","0.0","","21","","17","","16.1","","102.04","","","","-16","","NA"
"-55.85","52.30","MARY'S HARBOUR A","8502592","2019-03-21 11:30","2019","03","21","11:30","-7.3","","-18.5","","41","","0.0","","20","","17","","16.1","","101.97","","","","-14","","NA"
"-55.85","52.30","MARY'S HARBOUR A","8502592","2019-03-21 12:30","2019","03","21","12:30","-5.2","","-17.5","","38","","0.0","","21","","18","","16.1","","101.88","","","","-11","","NA"
"-55.85","52.30","MARY'S HARBOUR A","8502592","2019-03-21 13:30","2019","03","21","13:30","-3.8","","-17.5","","34","","0.0","","21","","18","","16.1","","101.81","","","","-10","","NA"
"-55.85","52.30","MARY'S HARBOUR A","8502592","2019-03-21 14:30","2019","03","21","14:30","-3.1","","-17.1","","34","","0.0","","21","","18","","16.1","","101.77","","","","-9","","NA"
"-55.85","52.30","MARY'S HARBOUR A","8502592","2019-03-21 15:30","2019","03","21","15:30","-3.7","","-16.0","","38","","0.0","","20","","21","","16.1","","101.74","","","","-10","","NA"
"-55.85","52.30","MARY'S HARBOUR A","8502592","2019-03-21 16:30","2019","03","21","16:30","-4.7","","-16.1","","41","","0.0","","21","","26","","16.1","","101.71","","","","-12","","NA"
"-55.85","52.30","MARY'S HARBOUR A","8502592","2019-03-21 17:30","2019","03","21","17:30","-4.7","","-16.4","","40","","0.0","","21","","21","","16.1","","101.68","","","","-11","","NA"
"-55.85","52.30","MARY'S HARBOUR A","8502592","2019-03-21 18:30","2019","03","21","18:30","-4.9","","-12.7","","55","","0.0","","20","","13","","16.1","","101.62","","","","-10","","NA"
"-55.85","52.30","MARY'S HARBOUR A","8502592","2019-03-21 19:30","2019","03","21","19:30","-5.2","","-9.9","","70","","0.0","","19","","21","","16.1","","101.57","","","","-12","","Snow"
"-55.85","52.30","MARY'S HARBOUR A","8502592","2019-03-21 20:30","2019","03","21","20:30","-4.9","","-8.2","","78","","0.0","","21","","28","","16.1","","101.54","","","","-13","","NA"
"-55.85","52.30","MARY'S HARBOUR A","8502592","2019-03-21 21:30","2019","03","21","21:30","-4.1","","-6.9","","81","","0.0","","21","","28","","16.1","","101.43","","","","-12","","NA"
"-55.85","52.30","MARY'S HARBOUR A","8502592","2019-03-21 22:30","2019","03","21","22:30","-3.2","","-6.0","","81","","0.0","","22","","30","","16.1","","101.37","","","","-11","","NA"
"-55.85","52.30","MARY'S HARBOUR A","8502592","2019-03-21 23:30","2019","03","21","23:30","-3.0","","-5.7","","82","","0.0","","23","","30","","16.1","","101.29","","","","-10","","NA"
"-55.85","52.30","MARY'S HARBOUR A","8502592","2019-03-22 00:30","2019","03","22","00:30","-2.0","","-5.0","","80","","0.0","","23","","32","","16.1","","101.28","","","","-9","","NA"
"-55.85","52.30","MARY'S HARBOUR A","8502592","2019-03-22 01:30","2019","03","22","01:30","-1.8","","-4.8","","80","","0.0","","23","","26","","16.1","","101.24","","","","-8","","NA"
"-55.85","52.30","MARY'S HARBOUR A","8502592","2019-03-22 02:30","2019","03","22","02:30","-1.7","","-4.5","","81","","0.0","","22","","26","","16.1","","101.21","","","","-8","","NA"
"-55.85","52.30","MARY'S HARBOUR A","8502592","2019-03-22 03:30","2019","03","22","03:30","-1.3","","-4.7","","78","","0.0","","23","","30","","16.1","","101.15","","","","-8","","NA"
"-55.85","52.30","MARY'S HARBOUR A","8502592","2019-03-22 04:30","2019","03","22","04:30","-1.1","","-4.5","","78","","0.0","","23","","30","","16.1","","101.10","","","","-8","","NA"
"-55.85","52.30","MARY'S HARBOUR A","8502592","2019-03-22 05:30","2019","03","22","05:30","-0.7","","-4.1","","78","","0.0","","24","","28","","16.1","","101.12","","","","-7","","NA"
"-55.85","52.30","MARY'S HARBOUR A","8502592","2019-03-22 06:30","2019","03","22","06:30","-0.6","","-3.7","","80","","0.0","","22","","43","","16.1","","101.16","","","","-8","","NA"
"-55.85","52.30","MARY'S HARBOUR A","8502592","2019-03-22 07:30","2019","03","22","07:30","0.0","","-3.6","","77","","0.0","","23","","41","","16.1","","101.18","","","","-7","","NA"
"-55.85","52.30","MARY'S HARBOUR A","8502592","2019-03-22 08:30","2019","03","22","08:30","0.4","","-3.5","","75","","0.0","","21","","43","","16.1","","101.16","","","","","","NA"
"-55.85","52.30","MARY'S HARBOUR A","8502592","2019-03-22 09:30","2019","03","22","09:30","0.8","","-3.5","","73","","0.2","","22","","41","","16.1","","101.18","","","","","","NA"
"-55.85","52.30","MARY'S HARBOUR A","8502592","2019-03-22 10:30","2019","03","22","10:30","1.4","","-3.5","","70","","0.5","","22","","39","","16.1","","101.13","","","","","","NA"
"-55.85","52.30","MARY'S HARBOUR A","8502592","2019-03-22 11:30","2019","03","22","11:30","1.7","","-3.7","","67","","0.0","","22","","43","","16.1","","101.19","","","","","","NA"
"-55.85","52.30","MARY'S HARBOUR A","8502592","2019-03-22 12:30","2019","03","22","12:30","2.1","","-4.0","","64","","0.0","","21","","39","","16.1","","101.20","","","","","","NA"
"-55.85","52.30","MARY'S HARBOUR A","8502592","2019-03-22 13:30","2019","03","22","13:30","2.5","","-4.5","","60","","0.0","","22","","39","","16.1","","101.11","","","","","","NA"
"-55.85","52.30","MARY'S HARBOUR A","8502592","2019-03-22 14:30","2019","03","22","14:30","2.9","","-4.3","","59","","0.0","","21","","32","","16.1","","101.16","","","","","","NA"
"-55.85","52.30","MARY'S HARBOUR A","8502592","2019-03-22 15:30","2019","03","22","15:30","3.2","","-3.8","","60","","0.0","","21","","37","","16.1","","101.14","","","","","","NA"
"-55.85","52.30","MARY'S HARBOUR A","8502592","2019-03-22 16:30","2019","03","22","16:30","3.0","","-3.4","","63","","0.0","","21","","37","","16.1","","101.13","","","","","","NA"
"-55.85","52.30","MARY'S HARBOUR A","8502592","2019-03-22 17:30","2019","03","22","17:30","2.1","","-1.7","","76","","0.0","","22","","28","","16.1","","101.24","","","","","","NA"
"-55.85","52.30","MARY'S HARBOUR A","8502592","2019-03-22 18:30","2019","03","22","18:30","2.0","","-1.1","","80","","0.0","","19","","24","","16.1","","101.32","","","","","","NA"
"-55.85","52.30","MARY'S HARBOUR A","8502592","2019-03-22 19:30","2019","03","22","19:30","1.6","","-0.9","","83","","0.0","","20","","18","","16.1","","101.33","","","","","","NA"
"-55.85","52.30","MARY'S HARBOUR A","8502592","2019-03-22 20:30","2019","03","22","20:30","2.0","","-0.1","","86","","0.0","","19","","9","","16.1","","101.35","","","","","","NA"
"-55.85","52.30","MARY'S HARBOUR A","8502592","2019-03-22 21:30","2019","03","22","21:30","1.4","","-0.1","","90","","0.0","","13","","5","","16.1","","101.36","","","","","","NA"
"-55.85","52.30","MARY'S HARBOUR A","8502592","2019-03-22 22:30","2019","03","22","22:30","0.6","","-0.3","","94","","0.0","","","M","4","","16.1","","101.29","","","","","","Rain"
"-55.85","52.30","MARY'S HARBOUR A","8502592","2019-03-22 23:30","2019","03","22","23:30","0.4","","-0.2","","96","","0.5","","","","0","","8.1","","101.23","","","","","","Rain,Fog"
"-55.85","52.30","MARY'S HARBOUR A","8502592","2019-03-23 00:30","2019","03","23","00:30","0.2","","-0.2","","97","","1.5","","7","","9","","16.1","","101.17","","","","","","Rain"
"-55.85","52.30","MARY'S HARBOUR A","8502592","2019-03-23 01:30","2019","03","23","01:30","-0.7","","-1.4","","95","","0.0","","5","","17","","16.1","","101.14","","","","-6","","NA"
"-55.85","52.30","MARY'S HARBOUR A","8502592","2019-03-23 02:30","2019","03","23","02:30","-1.8","","-2.5","","95","","0.0","","4","","22","","2.4","","101.03","","","","-8","","Snow"
"-55.85","52.30","MARY'S HARBOUR A","8502592","2019-03-23 03:30","2019","03","23","03:30","-2.5","","-3.5","","93","","0.0","","2","","21","","16.1","","100.75","","","","-9","","NA"
"-55.85","52.30","MARY'S HARBOUR A","8502592","2019-03-23 04:30","2019","03","23","04:30","-2.2","","-2.9","","95","","0.0","","4","","28","","1.0","","100.61","","","","-9","","Snow"
"-55.85","52.30","MARY'S HARBOUR A","8502592","2019-03-23 05:30","2019","03","23","05:30","-1.6","","-2.2","","96","","0.0","","5","","24","","1.2","","100.38","","","","-8","","Snow"
"-55.85","52.30","MARY'S HARBOUR A","8502592","2019-03-23 06:30","2019","03","23","06:30","-1.7","","-2.3","","96","","0.0","","4","","22","","1.2","","100.14","","","","-8","","Snow"
"-55.85","52.30","MARY'S HARBOUR A","8502592","2019-03-23 07:30","2019","03","23","07:30","-1.0","","-1.7","","95","","0.0","","4","","35","","2.4","","99.91","","","","-8","","Snow"
"-55.85","52.30","MARY'S HARBOUR A","8502592","2019-03-23 08:30","2019","03","23","08:30","-0.3","","-0.9","","96","","0.0","","6","","30","","2.4","","99.74","","","","-7","","Freezing Rain,Fog"
"-55.85","52.30","MARY'S HARBOUR A","8502592","2019-03-23 09:30","2019","03","23","09:30","-0.1","","-0.7","","96","","0.0","","5","","26","","2.4","","99.52","","","","-6","","Snow"
"-55.85","52.30","MARY'S HARBOUR A","8502592","2019-03-23 10:30","2019","03","23","10:30","-0.1","","-0.5","","97","","0.0","","6","","22","","2.0","","99.29","","","","-6","","Snow"
"-55.85","52.30","MARY'S HARBOUR A","8502592","2019-03-23 11:30","2019","03","23","11:30","-0.3","","-0.7","","97","","0.0","","6","","15","","0.6","","99.19","","","","-5","","Moderate Snow"
"-55.85","52.30","MARY'S HARBOUR A","8502592","2019-03-23 12:30","2019","03","23","12:30","0.0","","-0.4","","97","","0.0","","3","","13","","0.4","","99.00","","","","-4","","Heavy Snow"
"-55.85","52.30","MARY'S HARBOUR A","8502592","2019-03-23 13:30","2019","03","23","13:30","0.1","","-0.3","","97","","1.8","","1","","11","","2.4","","98.85","","","","","","Rain,Fog"
"-55.85","52.30","MARY'S HARBOUR A","8502592","2019-03-23 14:30","2019","03","23","14:30","0.2","","-0.5","","95","","3.0","","35","","11","","16.1","","98.73","","","","","","Rain"
"-55.85","52.30","MARY'S HARBOUR A","8502592","2019-03-23 15:30","2019","03","23","15:30","0.1","","-0.5","","96","","2.0","","35","","5","","4.8","","98.64","","","","","","Rain,Fog"
"-55.85","52.30","MARY'S HARBOUR A","8502592","2019-03-23 16:30","2019","03","23","16:30","0.6","","-0.2","","95","","1.8","","21","","5","","16.1","","98.59","","","","","","NA"
"-55.85","52.30","MARY'S HARBOUR A","8502592","2019-03-23 17:30","2019","03","23","17:30","0.7","","-0.2","","94","","0.5","","","M","4","","6.4","","98.61","","","","","","Fog"
"-55.85","52.30","MARY'S HARBOUR A","8502592","2019-03-23 18:30","2019","03","23","18:30","0.3","","-0.1","","97","","0.2","","28","","5","","4.8","","98.52","","","","","","Fog"
"-55.85","52.30","MARY'S HARBOUR A","8502592","2019-03-23 19:30","2019","03","23","19:30","0.2","","-0.2","","97","","0.0","","27","","8","","4.0","","98.40","","","","","","Fog"
"-55.85","52.30","MARY'S HARBOUR A","8502592","2019-03-23 20:30","2019","03","23","20:30","0.4","","-0.2","","96","","0.0","","24","","8","","16.1","","98.41","","","","","","NA"
"-55.85","52.30","MARY'S HARBOUR A","8502592","2019-03-23 21:30","2019","03","23","21:30","0.5","","-0.1","","96","","0.0","","27","","8","","16.1","","98.35","","","","","","NA"
"-55.85","52.30","MARY'S HARBOUR A","8502592","2019-03-23 22:30","2019","03","23","22:30","0.4","","-0.5","","94","","0.0","","27","","8","","14.5","","98.21","","","","","","NA"
"-55.85","52.30","MARY'S HARBOUR A","8502592","2019-03-23 23:30","2019","03","23","23:30","0.2","","-0.8","","93","","0.0","","28","","11","","16.1","","98.14","","","","","","NA"
"-55.85","52.30","MARY'S HARBOUR A","8502592","2019-03-24 00:30","2019","03","24","00:30","0.3","","-1.0","","91","","0.0","","29","","15","","16.1","","98.10","","","","","","NA"
"-55.85","52.30","MARY'S HARBOUR A","8502592","2019-03-24 01:30","2019","03","24","01:30","-0.1","","-1.3","","92","","0.0","","28","","13","","8.1","","98.08","","","","-4","","Snow"
"-55.85","52.30","MARY'S HARBOUR A","8502592","2019-03-24 02:30","2019","03","24","02:30","-0.2","","-1.8","","89","","0.0","","28","","15","","16.1","","98.08","","","","-5","","Snow"
"-55.85","52.30","MARY'S HARBOUR A","8502592","2019-03-24 03:30","2019","03","24","03:30","-0.5","","-1.8","","91","","0.0","","28","","11","","9.7","","98.07","","","","-4","","Snow"
"-55.85","52.30","MARY'S HARBOUR A","8502592","2019-03-24 04:30","2019","03","24","04:30","-0.6","","-2.3","","88","","0.0","","29","","15","","16.1","","98.11","","","","-5","","NA"
"-55.85","52.30","MARY'S HARBOUR A","8502592","2019-03-24 05:30","2019","03","24","05:30","-1.2","","-2.6","","90","","0.0","","28","","18","","16.1","","98.16","","","","-6","","NA"
"-55.85","52.30","MARY'S HARBOUR A","8502592","2019-03-24 06:30","2019","03","24","06:30","-1.8","","-3.4","","89","","0.0","","29","","22","","14.5","","98.23","","","","-8","","NA"
"-55.85","52.30","MARY'S HARBOUR A","8502592","2019-03-24 07:30","2019","03","24","07:30","-1.6","","-4.0","","84","","0.0","","28","","17","","16.1","","98.33","","","","-7","","Snow"
"-55.85","52.30","MARY'S HARBOUR A","8502592","2019-03-24 08:30","2019","03","24","08:30","-1.1","","-4.1","","80","","0.0","","28","","21","","16.1","","98.38","","","","-7","","Snow"
"-55.85","52.30","MARY'S HARBOUR A","8502592","2019-03-24 09:30","2019","03","24","09:30","-1.3","","-4.7","","78","","0.0","","28","","21","","16.1","","98.46","","","","-7","","NA"
"-55.85","52.30","MARY'S HARBOUR A","8502592","2019-03-24 10:30","2019","03","24","10:30","-0.1","","-4.2","","74","","0.0","","28","","22","","16.1","","98.45","","","","-6","","NA"
"-55.85","52.30","MARY'S HARBOUR A","8502592","2019-03-24 11:30","2019","03","24","11:30","1.1","","-3.2","","73","","0.2","","25","","11","","16.1","","98.47","","","","","","NA"
"-55.85","52.30","MARY'S HARBOUR A","8502592","2019-03-24 12:30","2019","03","24","12:30","2.3","","-3.4","","66","","0.2","","24","","11","","16.1","","98.47","","","","","","NA"
"-55.85","52.30","MARY'S HARBOUR A","8502592","2019-03-24 13:30","2019","03","24","13:30","2.9","","-2.8","","66","","0.2","","24","","18","","16.1","","98.48","","","","","","NA"
"-55.85","52.30","MARY'S HARBOUR A","8502592","2019-03-24 14:30","2019","03","24","14:30","3.1","","-2.6","","66","","0.0","","26","","24","","16.1","","98.51","","","","","","NA"
"-55.85","52.30","MARY'S HARBOUR A","8502592","2019-03-24 15:30","2019","03","24","15:30","3.6","","-4.1","","57","","0.0","","24","","22","","16.1","","98.55","","","","","","NA"
"-55.85","52.30","MARY'S HARBOUR A","8502592","2019-03-24 16:30","2019","03","24","16:30","2.2","","-3.5","","66","","0.0","","23","","34","","16.1","","98.60","","","","","","NA"
"-55.85","52.30","MARY'S HARBOUR A","8502592","2019-03-24 17:30","2019","03","24","17:30","1.8","","-3.7","","67","","0.0","","23","","28","","16.1","","98.69","","","","","","NA"
"-55.85","52.30","MARY'S HARBOUR A","8502592","2019-03-24 18:30","2019","03","24","18:30","0.6","","-3.7","","73","","0.0","","24","","24","","16.1","","98.78","","","","","","Snow"
"-55.85","52.30","MARY'S HARBOUR A","8502592","2019-03-24 19:30","2019","03","24","19:30","-2.4","","-5.3","","81","","0.0","","30","","26","","4.8","","99.00","","","","-9","","Snow"
"-55.85","52.30","MARY'S HARBOUR A","8502592","2019-03-24 20:30","2019","03","24","20:30","-2.3","","-6.7","","72","","0.0","","30","","9","","16.1","","99.06","","","","-6","","NA"
"-55.85","52.30","MARY'S HARBOUR A","8502592","2019-03-24 21:30","2019","03","24","21:30","-3.1","","-6.2","","79","","0.0","","30","","11","","16.1","","99.17","","","","-7","","NA"
"-55.85","52.30","MARY'S HARBOUR A","8502592","2019-03-24 22:30","2019","03","24","22:30","-9.3","","-12.0","","81","","0.0","","30","","43","","0.6","","99.53","","","","-20","","Heavy Snow"
"-55.85","52.30","MARY'S HARBOUR A","8502592","2019-03-24 23:30","2019","03","24","23:30","-11.7","","-13.9","","84","","0.0","","30","","39","","0.4","","99.80","","","","-23","","Heavy Snow"
"-55.85","52.30","MARY'S HARBOUR A","8502592","2019-03-25 00:30","2019","03","25","00:30","-13.8","","-21.4","","53","","0.0","","29","","35","","1.6","","100.07","","","","-25","","Snow,Blowing Snow"
"-55.85","52.30","MARY'S HARBOUR A","8502592","2019-03-25 01:30","2019","03","25","01:30","-15.6","","-23.4","","52","","0.0","","30","","17","","16.1","","100.35","","","","-24","","NA"
"-55.85","52.30","MARY'S HARBOUR A","8502592","2019-03-25 02:30","2019","03","25","02:30","-18.0","","-26.1","","50","","0.0","","30","","37","","16.1","","100.50","","","","-31","","NA"
"-55.85","52.30","MARY'S HARBOUR A","8502592","2019-03-25 03:30","2019","03","25","03:30","-19.7","","-27.2","","52","","0.0","","29","","18","","16.1","","100.68","","","","-30","","NA"
"-55.85","52.30","MARY'S HARBOUR A","8502592","2019-03-25 04:30","2019","03","25","04:30","-20.4","","-27.9","","52","","0.0","","26","","15","","16.1","","100.74","","","","-30","","NA"
"-55.85","52.30","MARY'S HARBOUR A","8502592","2019-03-25 05:30","2019","03","25","05:30","-21.2","","-28.0","","55","","0.0","","26","","11","","16.1","","100.78","","","","-29","","NA"
"-55.85","52.30","MARY'S HARBOUR A","8502592","2019-03-25 06:30","2019","03","25","06:30","-21.8","","-28.2","","57","","0.0","","24","","13","","16.1","","100.80","","","","-31","","NA"
"-55.85","52.30","MARY'S HARBOUR A","8502592","2019-03-25 07:30","2019","03","25","07:30","-20.4","","-28.3","","50","","0.0","","24","","21","","16.1","","100.85","","","","-31","","NA"
"-55.85","52.30","MARY'S HARBOUR A","8502592","2019-03-25 08:30","2019","03","25","08:30","-18.9","","-28.6","","43","","0.0","","24","","17","","16.1","","100.89","","","","-28","","NA"
"-55.85","52.30","MARY'S HARBOUR A","8502592","2019-03-25 09:30","2019","03","25","09:30","-17.3","","-27.7","","41","","0.0","","23","","15","","16.1","","100.91","","","","-26","","NA"
"-55.85","52.30","MARY'S HARBOUR A","8502592","2019-03-25 10:30","2019","03","25","10:30","-16.3","","-27.4","","39","","0.0","","21","","21","","16.1","","100.88","","","","-26","","NA"
"-55.85","52.30","MARY'S HARBOUR A","8502592","2019-03-25 11:30","2019","03","25","11:30","-15.1","","-26.5","","38","","0.0","","22","","17","","16.1","","100.83","","","","-24","","NA"
"-55.85","52.30","MARY'S HARBOUR A","8502592","2019-03-25 12:30","2019","03","25","12:30","-13.3","","-26.8","","32","","0.0","","23","","26","","16.1","","100.73","","","","-23","","NA"
"-55.85","52.30","MARY'S HARBOUR A","8502592","2019-03-25 13:30","2019","03","25","13:30","-11.9","","-24.5","","35","","0.0","","27","","26","","16.1","","100.65","","","","-21","","NA"
"-55.85","52.30","MARY'S HARBOUR A","8502592","2019-03-25 14:30","2019","03","25","14:30","-10.9","","-23.5","","35","","0.0","","24","","24","","16.1","","100.63","","","","-20","","NA"
"-55.85","52.30","MARY'S HARBOUR A","8502592","2019-03-25 15:30","2019","03","25","15:30","-12.6","","-21.4","","48","","0.0","","18","","30","","16.1","","100.63","","","","-23","","NA"
"-55.85","52.30","MARY'S HARBOUR A","8502592","2019-03-25 16:30","2019","03","25","16:30","-12.1","","-21.0","","48","","0.0","","18","","18","","16.1","","100.62","","","","-20","","NA"
"-55.85","52.30","MARY'S HARBOUR A","8502592","2019-03-25 17:30","2019","03","25","17:30","-13.0","","-19.4","","59","","0.0","","17","","17","","16.1","","100.63","","","","-21","","NA"
"-55.85","52.30","MARY'S HARBOUR A","8502592","2019-03-25 18:30","2019","03","25","18:30","-13.4","","-19.4","","61","","0.0","","16","","8","","16.1","","100.63","","","","-18","","NA"
"-55.85","52.30","MARY'S HARBOUR A","8502592","2019-03-25 19:30","2019","03","25","19:30","-13.1","","-18.9","","62","","0.0","","21","","8","","16.1","","100.64","","","","-18","","NA"
"-55.85","52.30","MARY'S HARBOUR A","8502592","2019-03-25 20:30","2019","03","25","20:30","-13.2","","-16.1","","79","","0.0","","21","","8","","3.2","","100.65","","","","-18","","Snow"
"-55.85","52.30","MARY'S HARBOUR A","8502592","2019-03-25 21:30","2019","03","25","21:30","-13.1","","-15.3","","84","","0.0","","20","","9","","2.0","","100.64","","","","-19","","Snow"
"-55.85","52.30","MARY'S HARBOUR A","8502592","2019-03-25 22:30","2019","03","25","22:30","-12.6","","-14.6","","85","","0.0","","27","","11","","1.6","","100.62","","","","-19","","Snow"
"-55.85","52.30","MARY'S HARBOUR A","8502592","2019-03-25 23:30","2019","03","25","23:30","-12.1","","-14.4","","83","","0.0","","27","","5","","4.0","","100.63","","","","-15","","Snow"
"-55.85","52.30","MARY'S HARBOUR A","8502592","2019-03-26 00:30","2019","03","26","00:30","-12.9","","-16.5","","75","","0.0","","28","","21","","4.8","","100.64","","","","-22","","Snow"
"-55.85","52.30","MARY'S HARBOUR A","8502592","2019-03-26 01:30","2019","03","26","01:30","-15.4","","-19.0","","74","","0.0","","28","","15","","16.1","","100.69","","","","-23","","NA"
"-55.85","52.30","MARY'S HARBOUR A","8502592","2019-03-26 02:30","2019","03","26","02:30","-17.3","","-20.5","","77","","0.0","","27","","8","","16.1","","100.72","","","","-23","","NA"
"-55.85","52.30","MARY'S HARBOUR A","8502592","2019-03-26 03:30","2019","03","26","03:30","-19.3","","-21.9","","80","","0.0","","24","","9","","16.1","","100.79","","","","-26","","NA"
"-55.85","52.30","MARY'S HARBOUR A","8502592","2019-03-26 04:30","2019","03","26","04:30","-18.9","","-23.3","","69","","0.0","","29","","18","","16.1","","100.85","","","","-29","","NA"
"-55.85","52.30","MARY'S HARBOUR A","8502592","2019-03-26 05:30","2019","03","26","05:30","-20.3","","-24.8","","68","","0.0","","26","","15","","16.1","","100.91","","","","-29","","NA"
"-55.85","52.30","MARY'S HARBOUR A","8502592","2019-03-26 06:30","2019","03","26","06:30","-21.7","","-25.9","","69","","0.0","","","","0","","16.1","","101.02","","","","","","NA"
"-55.85","52.30","MARY'S HARBOUR A","8502592","2019-03-26 07:30","2019","03","26","07:30","-19.7","","-25.4","","61","","0.0","","25","","17","","16.1","","101.08","","","","-29","","NA"
"-55.85","52.30","MARY'S HARBOUR A","8502592","2019-03-26 08:30","2019","03","26","08:30","-17.6","","-25.7","","50","","0.0","","25","","22","","16.1","","101.14","","","","-28","","NA"
"-55.85","52.30","MARY'S HARBOUR A","8502592","2019-03-26 09:30","2019","03","26","09:30","-16.1","","-26.6","","41","","0.0","","26","","17","","12.9","","101.12","","","","-25","","NA"
"-55.85","52.30","MARY'S HARBOUR A","8502592","2019-03-26 10:30","2019","03","26","10:30","-15.1","","-25.1","","43","","0.0","","21","","18","","14.5","","101.06","","","","-24","","NA"
"-55.85","52.30","MARY'S HARBOUR A","8502592","2019-03-26 11:30","2019","03","26","11:30","-14.2","","-24.5","","42","","0.0","","24","","35","","2.8","","101.00","","","","-26","","Snow"
"-55.85","52.30","MARY'S HARBOUR A","8502592","2019-03-26 12:30","2019","03","26","12:30","-13.1","","-23.5","","42","","0.0","","22","","28","","16.1","","100.91","","","","-23","","NA"
"-55.85","52.30","MARY'S HARBOUR A","8502592","2019-03-26 13:30","2019","03","26","13:30","-12.3","","-22.0","","45","","0.0","","21","","34","","16.1","","100.84","","","","-23","","NA"
"-55.85","52.30","MARY'S HARBOUR A","8502592","2019-03-26 14:30","2019","03","26","14:30","-11.9","","-21.1","","47","","0.0","","21","","32","","16.1","","100.83","","","","-22","","NA"
"-55.85","52.30","MARY'S HARBOUR A","8502592","2019-03-26 15:30","2019","03","26","15:30","-11.1","","-19.4","","51","","0.0","","21","","28","","16.1","","100.81","","","","-21","","NA"
"-55.85","52.30","MARY'S HARBOUR A","8502592","2019-03-26 16:30","2019","03","26","16:30","-11.4","","-18.4","","57","","0.0","","22","","34","","16.1","","100.87","","","","-22","","NA"
"-55.85","52.30","MARY'S HARBOUR A","8502592","2019-03-26 17:30","2019","03","26","17:30","-11.9","","-19.0","","56","","0.0","","23","","28","","16.1","","100.92","","","","-22","","NA"
"-55.85","52.30","MARY'S HARBOUR A","8502592","2019-03-26 18:30","2019","03","26","18:30","-12.7","","-18.7","","61","","0.0","","21","","18","","16.1","","101.03","","","","-21","","NA"
"-55.85","52.30","MARY'S HARBOUR A","8502592","2019-03-26 19:30","2019","03","26","19:30","-12.8","","-17.4","","69","","0.0","","23","","17","","16.1","","101.12","","","","-21","","NA"
"-55.85","52.30","MARY'S HARBOUR A","8502592","2019-03-26 20:30","2019","03","26","20:30","-13.5","","-17.0","","75","","0.0","","25","","11","","16.1","","101.18","","","","-20","","NA"
"-55.85","52.30","MARY'S HARBOUR A","8502592","2019-03-26 21:30","2019","03","26","21:30","-13.9","","-19.9","","61","","0.0","","32","","26","","16.1","","101.34","","","","-24","","NA"
"-55.85","52.30","MARY'S HARBOUR A","8502592","2019-03-26 22:30","2019","03","26","22:30","-15.2","","-21.0","","62","","0.0","","31","","13","","11.3","","101.45","","","","-23","","NA"
"-55.85","52.30","MARY'S HARBOUR A","8502592","2019-03-26 23:30","2019","03","26","23:30","-16.1","","-21.8","","62","","0.0","","30","","17","","16.1","","101.53","","","","-25","","NA"
"-55.85","52.30","MARY'S HARBOUR A","8502592","2019-03-27 00:30","2019","03","27","00:30","-17.5","","-22.6","","65","","0.0","","27","","17","","16.1","","101.57","","","","-27","","NA"
"-55.85","52.30","MARY'S HARBOUR A","8502592","2019-03-27 01:30","2019","03","27","01:30","-20.1","","-24.1","","71","","0.0","","26","","9","","16.1","","101.60","","","","-27","","NA"
"-55.85","52.30","MARY'S HARBOUR A","8502592","2019-03-27 02:30","2019","03","27","02:30","-21.1","","-25.6","","68","","0.0","","24","","11","","16.1","","101.68","","","","-29","","NA"
"-55.85","52.30","MARY'S HARBOUR A","8502592","2019-03-27 03:30","2019","03","27","03:30","-21.5","","-26.3","","66","","0.0","","24","","13","","16.1","","101.74","","","","-30","","NA"
"-55.85","52.30","MARY'S HARBOUR A","8502592","2019-03-27 04:30","2019","03","27","04:30","-20.6","","-26.5","","60","","0.0","","24","","15","","16.1","","101.83","","","","-30","","NA"
"-55.85","52.30","MARY'S HARBOUR A","8502592","2019-03-27 05:30","2019","03","27","05:30","-21.1","","-27.0","","60","","0.0","","24","","13","","16.1","","101.89","","","","-30","","NA"
"-55.85","52.30","MARY'S HARBOUR A","8502592","2019-03-27 06:30","2019","03","27","06:30","-20.8","","-26.8","","60","","0.0","","26","","15","","16.1","","101.92","","","","-30","","NA"
"-55.85","52.30","MARY'S HARBOUR A","8502592","2019-03-27 07:30","2019","03","27","07:30","-19.1","","-26.1","","55","","0.0","","26","","21","","16.1","","102.00","","","","-30","","NA"
"-55.85","52.30","MARY'S HARBOUR A","8502592","2019-03-27 08:30","2019","03","27","08:30","-16.9","","-24.8","","51","","0.0","","26","","24","","16.1","","102.01","","","","-27","","NA"
"-55.85","52.30","MARY'S HARBOUR A","8502592","2019-03-27 09:30","2019","03","27","09:30","-13.9","","-23.2","","46","","0.0","","26","","22","","16.1","","102.06","","","","-23","","NA"
"-55.85","52.30","MARY'S HARBOUR A","8502592","2019-03-27 10:30","2019","03","27","10:30","-12.7","","-23.0","","43","","0.0","","27","","30","","16.1","","102.05","","","","-23","","NA"
"-55.85","52.30","MARY'S HARBOUR A","8502592","2019-03-27 11:30","2019","03","27","11:30","-11.2","","-22.9","","38","","0.0","","27","","22","","16.1","","102.11","","","","-20","","NA"
"-55.85","52.30","MARY'S HARBOUR A","8502592","2019-03-27 12:30","2019","03","27","12:30","-9.3","","-22.2","","35","","0.0","","27","","21","","16.1","","102.10","","","","-17","","NA"
"-55.85","52.30","MARY'S HARBOUR A","8502592","2019-03-27 13:30","2019","03","27","13:30","-7.3","","-21.9","","31","","0.0","","27","","21","","16.1","","102.09","","","","-15","","NA"
"-55.85","52.30","MARY'S HARBOUR A","8502592","2019-03-27 14:30","2019","03","27","14:30","-6.5","","-21.7","","29","","0.0","","26","","21","","16.1","","102.12","","","","-14","","NA"
"-55.85","52.30","MARY'S HARBOUR A","8502592","2019-03-27 15:30","2019","03","27","15:30","-6.0","","-21.0","","30","","0.0","","27","","21","","16.1","","102.15","","","","-13","","NA"
"-55.85","52.30","MARY'S HARBOUR A","8502592","2019-03-27 16:30","2019","03","27","16:30","-5.4","","-19.6","","32","","0.0","","26","","24","","16.1","","102.17","","","","-13","","NA"
"-55.85","52.30","MARY'S HARBOUR A","8502592","2019-03-27 17:30","2019","03","27","17:30","-5.4","","-19.7","","32","","0.0","","26","","21","","16.1","","102.24","","","","-12","","NA"
"-55.85","52.30","MARY'S HARBOUR A","8502592","2019-03-27 18:30","2019","03","27","18:30","-7.7","","-17.7","","45","","0.0","","23","","17","","16.1","","102.34","","","","-14","","NA"
"-55.85","52.30","MARY'S HARBOUR A","8502592","2019-03-27 19:30","2019","03","27","19:30","-9.9","","-18.4","","50","","0.0","","23","","17","","16.1","","102.43","","","","-17","","NA"
"-55.85","52.30","MARY'S HARBOUR A","8502592","2019-03-27 20:30","2019","03","27","20:30","-10.8","","-17.8","","57","","0.0","","23","","17","","16.1","","102.49","","","","-18","","NA"
"-55.85","52.30","MARY'S HARBOUR A","8502592","2019-03-27 21:30","2019","03","27","21:30","-11.0","","-17.4","","60","","0.0","","24","","21","","16.1","","102.51","","","","-19","","NA"
"-55.85","52.30","MARY'S HARBOUR A","8502592","2019-03-27 22:30","2019","03","27","22:30","-11.3","","-17.2","","62","","0.0","","26","","18","","16.1","","102.57","","","","-19","","NA"
"-55.85","52.30","MARY'S HARBOUR A","8502592","2019-03-27 23:30","2019","03","27","23:30","-10.4","","-16.2","","63","","0.0","","24","","18","","16.1","","102.58","","","","-18","","NA"
"-55.85","52.30","MARY'S HARBOUR A","8502592","2019-03-28 00:30","2019","03","28","00:30","-9.7","","-14.9","","66","","0.0","","22","","15","","16.1","","102.55","","","","-16","","NA"
"-55.85","52.30","MARY'S HARBOUR A","8502592","2019-03-28 01:30","2019","03","28","01:30","-9.4","","-14.6","","66","","0.0","","23","","22","","16.1","","102.51","","","","-17","","NA"
"-55.85","52.30","MARY'S HARBOUR A","8502592","2019-03-28 02:30","2019","03","28","02:30","-9.2","","-14.1","","68","","0.0","","22","","22","","16.1","","102.48","","","","-17","","NA"
"-55.85","52.30","MARY'S HARBOUR A","8502592","2019-03-28 03:30","2019","03","28","03:30","-8.9","","-13.4","","70","","0.0","","22","","18","","16.1","","102.47","","","","-16","","NA"
"-55.85","52.30","MARY'S HARBOUR A","8502592","2019-03-28 04:30","2019","03","28","04:30","-9.3","","-13.3","","73","","0.0","","19","","18","","16.1","","102.41","","","","-17","","NA"
"-55.85","52.30","MARY'S HARBOUR A","8502592","2019-03-28 05:30","2019","03","28","05:30","-8.6","","-12.1","","76","","0.0","","22","","22","","16.1","","102.39","","","","-16","","NA"
"-55.85","52.30","MARY'S HARBOUR A","8502592","2019-03-28 06:30","2019","03","28","06:30","-7.6","","-11.4","","74","","0.0","","22","","28","","16.1","","102.39","","","","-16","","NA"
"-55.85","52.30","MARY'S HARBOUR A","8502592","2019-03-28 07:30","2019","03","28","07:30","-6.2","","-10.5","","72","","0.0","","22","","32","","16.1","","102.34","","","","-15","","NA"
"-55.85","52.30","MARY'S HARBOUR A","8502592","2019-03-28 08:30","2019","03","28","08:30","-4.5","","-9.6","","68","","0.0","","23","","45","","16.1","","102.28","","","","-14","","NA"
"-55.85","52.30","MARY'S HARBOUR A","8502592","2019-03-28 09:30","2019","03","28","09:30","-2.6","","-8.5","","64","","0.0","","23","","32","","16.1","","102.27","","","","-10","","NA"
"-55.85","52.30","MARY'S HARBOUR A","8502592","2019-03-28 10:30","2019","03","28","10:30","-2.8","","-8.3","","66","","0.0","","22","","26","","16.1","","102.24","","","","-10","","NA"
"-55.85","52.30","MARY'S HARBOUR A","8502592","2019-03-28 11:30","2019","03","28","11:30","-1.8","","-7.7","","64","","0.0","","22","","28","","16.1","","102.19","","","","-9","","NA"
"-55.85","52.30","MARY'S HARBOUR A","8502592","2019-03-28 12:30","2019","03","28","12:30","-1.4","","-7.3","","64","","0.0","","21","","30","","16.1","","102.14","","","","-8","","NA"
"-55.85","52.30","MARY'S HARBOUR A","8502592","2019-03-28 13:30","2019","03","28","13:30","-0.8","","-7.4","","61","","0.0","","21","","41","","16.1","","102.03","","","","-9","","NA"
"-55.85","52.30","MARY'S HARBOUR A","8502592","2019-03-28 14:30","2019","03","28","14:30","-0.8","","-7.9","","59","","0.0","","21","","41","","16.1","","101.99","","","","-9","","NA"
"-55.85","52.30","MARY'S HARBOUR A","8502592","2019-03-28 15:30","2019","03","28","15:30","-1.0","","-8.2","","58","","0.0","","20","","28","","16.1","","101.93","","","","-8","","NA"
"-55.85","52.30","MARY'S HARBOUR A","8502592","2019-03-28 16:30","2019","03","28","16:30","-1.5","","-7.6","","63","","0.0","","21","","39","","16.1","","101.80","","","","-9","","NA"
"-55.85","52.30","MARY'S HARBOUR A","8502592","2019-03-28 17:30","2019","03","28","17:30","-1.5","","-7.3","","65","","0.0","","21","","46","","16.1","","101.73","","","","-10","","NA"
"-55.85","52.30","MARY'S HARBOUR A","8502592","2019-03-28 18:30","2019","03","28","18:30","-1.5","","-7.7","","63","","0.0","","21","","43","","16.1","","101.71","","","","-10","","NA"
"-55.85","52.30","MARY'S HARBOUR A","8502592","2019-03-28 19:30","2019","03","28","19:30","-1.7","","-8.7","","59","","0.0","","21","","32","","16.1","","101.72","","","","-9","","NA"
"-55.85","52.30","MARY'S HARBOUR A","8502592","2019-03-28 20:30","2019","03","28","20:30","-1.3","","-9.9","","52","","0.0","","22","","43","","16.1","","101.68","","","","-9","","NA"
"-55.85","52.30","MARY'S HARBOUR A","8502592","2019-03-28 21:30","2019","03","28","21:30","-1.5","","-8.1","","61","","0.0","","21","","41","","16.1","","101.69","","","","-9","","NA"
"-55.85","52.30","MARY'S HARBOUR A","8502592","2019-03-28 22:30","2019","03","28","22:30","-1.0","","-7.2","","63","","0.0","","22","","48","","16.1","","101.61","","","","-9","","NA"
"-55.85","52.30","MARY'S HARBOUR A","8502592","2019-03-28 23:30","2019","03","28","23:30","-0.7","","-6.3","","66","","0.0","","22","","45","","16.1","","101.52","","","","-9","","NA"
"-55.85","52.30","MARY'S HARBOUR A","8502592","2019-03-29 00:30","2019","03","29","00:30","-0.8","","-6.0","","68","","0.0","","23","","39","","16.1","","101.52","","","","-8","","NA"
"-55.85","52.30","MARY'S HARBOUR A","8502592","2019-03-29 01:30","2019","03","29","01:30","-1.1","","-5.9","","70","","0.0","","23","","41","","16.1","","101.50","","","","-9","","NA"
"-55.85","52.30","MARY'S HARBOUR A","8502592","2019-03-29 02:30","2019","03","29","02:30","-1.4","","-6.0","","71","","0.0","","22","","28","","16.1","","101.48","","","","-8","","NA"
"-55.85","52.30","MARY'S HARBOUR A","8502592","2019-03-29 03:30","2019","03","29","03:30","-1.5","","-6.1","","71","","0.0","","22","","35","","16.1","","101.42","","","","-9","","NA"
"-55.85","52.30","MARY'S HARBOUR A","8502592","2019-03-29 04:30","2019","03","29","04:30","-1.3","","-5.7","","72","","0.0","","23","","54","","16.1","","101.33","","","","-10","","NA"
"-55.85","52.30","MARY'S HARBOUR A","8502592","2019-03-29 05:30","2019","03","29","05:30","-1.3","","-5.3","","75","","0.0","","23","","43","","16.1","","101.39","","","","-9","","NA"
"-55.85","52.30","MARY'S HARBOUR A","8502592","2019-03-29 06:30","2019","03","29","06:30","-1.3","","-5.2","","75","","0.0","","22","","37","","16.1","","101.36","","","","-9","","NA"
"-55.85","52.30","MARY'S HARBOUR A","8502592","2019-03-29 07:30","2019","03","29","07:30","-1.3","","-5.0","","76","","0.0","","23","","45","","16.1","","101.34","","","","-10","","NA"
"-55.85","52.30","MARY'S HARBOUR A","8502592","2019-03-29 08:30","2019","03","29","08:30","-0.7","","-4.8","","74","","0.0","","22","","45","","16.1","","101.29","","","","-9","","NA"
"-55.85","52.30","MARY'S HARBOUR A","8502592","2019-03-29 09:30","2019","03","29","09:30","-0.1","","-4.2","","74","","0.0","","23","","43","","16.1","","101.34","","","","-8","","NA"
"-55.85","52.30","MARY'S HARBOUR A","8502592","2019-03-29 10:30","2019","03","29","10:30","0.8","","-3.9","","71","","0.0","","23","","45","","16.1","","101.36","","","","","","NA"
"-55.85","52.30","MARY'S HARBOUR A","8502592","2019-03-29 11:30","2019","03","29","11:30","1.7","","-3.6","","68","","0.0","","23","","48","","16.1","","101.31","","","","","","NA"
"-55.85","52.30","MARY'S HARBOUR A","8502592","2019-03-29 12:30","2019","03","29","12:30","2.0","","-3.1","","69","","0.0","","22","","45","","16.1","","101.27","","","","","","NA"
"-55.85","52.30","MARY'S HARBOUR A","8502592","2019-03-29 13:30","2019","03","29","13:30","2.3","","-2.6","","70","","0.0","","22","","37","","16.1","","101.30","","","","","","NA"
"-55.85","52.30","MARY'S HARBOUR A","8502592","2019-03-29 14:30","2019","03","29","14:30","2.1","","-2.6","","71","","0.0","","22","","37","","16.1","","101.28","","","","","","NA"
"-55.85","52.30","MARY'S HARBOUR A","8502592","2019-03-29 15:30","2019","03","29","15:30","2.0","","-2.3","","73","","0.0","","22","","37","","16.1","","101.35","","","","","","NA"
"-55.85","52.30","MARY'S HARBOUR A","8502592","2019-03-29 16:30","2019","03","29","16:30","1.8","","-2.2","","75","","0.0","","21","","28","","16.1","","101.36","","","","","","NA"
"-55.85","52.30","MARY'S HARBOUR A","8502592","2019-03-29 17:30","2019","03","29","17:30","1.6","","-2.1","","77","","0.0","","20","","22","","16.1","","101.37","","","","","","NA"
"-55.85","52.30","MARY'S HARBOUR A","8502592","2019-03-29 18:30","2019","03","29","18:30","1.4","","-1.9","","79","","0.0","","20","","22","","16.1","","101.35","","","","","","NA"
"-55.85","52.30","MARY'S HARBOUR A","8502592","2019-03-29 19:30","2019","03","29","19:30","1.3","","-1.4","","82","","0.0","","20","","28","","16.1","","101.33","","","","","","NA"
"-55.85","52.30","MARY'S HARBOUR A","8502592","2019-03-29 20:30","2019","03","29","20:30","1.2","","-1.0","","85","","0.0","","20","","26","","16.1","","101.33","","","","","","Rain"
"-55.85","52.30","MARY'S HARBOUR A","8502592","2019-03-29 21:30","2019","03","29","21:30","1.2","","-0.7","","87","","0.0","","19","","28","","16.1","","101.29","","","","","","Rain"
"-55.85","52.30","MARY'S HARBOUR A","8502592","2019-03-29 22:30","2019","03","29","22:30","1.0","","-0.5","","90","","0.0","","19","","22","","16.1","","101.23","","","","","","NA"
"-55.85","52.30","MARY'S HARBOUR A","8502592","2019-03-29 23:30","2019","03","29","23:30","1.3","","-0.3","","89","","0.0","","20","","28","","16.1","","101.16","","","","","","NA"
"-55.85","52.30","MARY'S HARBOUR A","8502592","2019-03-30 00:30","2019","03","30","00:30","1.4","","-0.9","","85","","0.0","","20","","26","","16.1","","101.10","","","","","","Rain"
"-55.85","52.30","MARY'S HARBOUR A","8502592","2019-03-30 01:30","2019","03","30","01:30","1.1","","-1.0","","86","","0.0","","22","","26","","16.1","","101.13","","","","","","NA"
"-55.85","52.30","MARY'S HARBOUR A","8502592","2019-03-30 02:30","2019","03","30","02:30","1.0","","-1.6","","83","","0.0","","23","","26","","16.1","","101.18","","","","","","NA"
"-55.85","52.30","MARY'S HARBOUR A","8502592","2019-03-30 03:30","2019","03","30","03:30","0.7","","-1.9","","83","","0.0","","25","","17","","16.1","","101.28","","","","","","NA"
"-55.85","52.30","MARY'S HARBOUR A","8502592","2019-03-30 04:30","2019","03","30","04:30","-2.1","","-3.8","","88","","0.0","","35","","22","","9.7","","101.47","","","","-8","","Snow"
"-55.85","52.30","MARY'S HARBOUR A","8502592","2019-03-30 05:30","2019","03","30","05:30","-3.3","","-7.1","","75","","0.0","","35","","22","","16.1","","101.68","","","","-10","","NA"
"-55.85","52.30","MARY'S HARBOUR A","8502592","2019-03-30 06:30","2019","03","30","06:30","-3.9","","-8.2","","72","","0.0","","34","","21","","16.1","","101.86","","","","-10","","NA"
"-55.85","52.30","MARY'S HARBOUR A","8502592","2019-03-30 07:30","2019","03","30","07:30","-4.4","","-8.4","","74","","0.0","","34","","17","","16.1","","101.99","","","","-10","","Snow"
"-55.85","52.30","MARY'S HARBOUR A","8502592","2019-03-30 08:30","2019","03","30","08:30","-4.5","","-8.8","","72","","0.0","","34","","18","","16.1","","102.12","","","","-11","","NA"
"-55.85","52.30","MARY'S HARBOUR A","8502592","2019-03-30 09:30","2019","03","30","09:30","-5.1","","-9.4","","72","","0.0","","36","","11","","16.1","","102.23","","","","-10","","NA"
"-55.85","52.30","MARY'S HARBOUR A","8502592","2019-03-30 10:30","2019","03","30","10:30","-4.3","","-9.4","","68","","0.0","","4","","13","","16.1","","102.31","","","","-9","","NA"
"-55.85","52.30","MARY'S HARBOUR A","8502592","2019-03-30 11:30","2019","03","30","11:30","-4.1","","-9.1","","68","","0.0","","7","","13","","16.1","","102.32","","","","-9","","NA"
"-55.85","52.30","MARY'S HARBOUR A","8502592","2019-03-30 12:30","2019","03","30","12:30","-3.1","","-9.4","","62","","0.0","","8","","5","","16.1","","102.35","","","","-5","","NA"
"-55.85","52.30","MARY'S HARBOUR A","8502592","2019-03-30 13:30","2019","03","30","13:30","-2.7","","-8.0","","67","","0.0","","11","","17","","16.1","","102.34","","","","-8","","NA"
"-55.85","52.30","MARY'S HARBOUR A","8502592","2019-03-30 14:30","2019","03","30","14:30","-2.9","","-7.1","","73","","0.0","","14","","22","","16.1","","102.33","","","","-9","","NA"
"-55.85","52.30","MARY'S HARBOUR A","8502592","2019-03-30 15:30","2019","03","30","15:30","-2.0","","-6.3","","73","","0.0","","16","","24","","16.1","","102.33","","","","-8","","NA"
"-55.85","52.30","MARY'S HARBOUR A","8502592","2019-03-30 16:30","2019","03","30","16:30","-2.7","","-6.8","","73","","0.0","","16","","28","","16.1","","102.31","","","","-10","","NA"
"-55.85","52.30","MARY'S HARBOUR A","8502592","2019-03-30 17:30","2019","03","30","17:30","-2.4","","-8.8","","62","","0.0","","18","","15","","16.1","","102.40","","","","-7","","NA"
"-55.85","52.30","MARY'S HARBOUR A","8502592","2019-03-30 18:30","2019","03","30","18:30","-3.1","","-11.9","","51","","0.0","","19","","17","","16.1","","102.43","","","","-9","","NA"
"-55.85","52.30","MARY'S HARBOUR A","8502592","2019-03-30 19:30","2019","03","30","19:30","-3.7","","-13.7","","46","","0.0","","20","","18","","16.1","","102.52","","","","-10","","NA"
"-55.85","52.30","MARY'S HARBOUR A","8502592","2019-03-30 20:30","2019","03","30","20:30","-4.2","","-12.7","","52","","0.0","","20","","15","","16.1","","102.48","","","","-10","","NA"
"-55.85","52.30","MARY'S HARBOUR A","8502592","2019-03-30 21:30","2019","03","30","21:30","-4.4","","-12.4","","54","","0.0","","21","","15","","16.1","","102.46","","","","-10","","NA"
"-55.85","52.30","MARY'S HARBOUR A","8502592","2019-03-30 22:30","2019","03","30","22:30","-4.9","","-12.0","","58","","0.0","","21","","11","","16.1","","102.46","","","","-9","","NA"
"-55.85","52.30","MARY'S HARBOUR A","8502592","2019-03-30 23:30","2019","03","30","23:30","-4.9","","-11.4","","61","","0.0","","17","","5","","16.1","","102.42","","","","-7","","NA"
"-55.85","52.30","MARY'S HARBOUR A","8502592","2019-03-31 00:30","2019","03","31","00:30","-4.6","","-11.8","","58","","0.0","","19","","9","","16.1","","102.40","","","","-8","","NA"
"-55.85","52.30","MARY'S HARBOUR A","8502592","2019-03-31 01:30","2019","03","31","01:30","-4.4","","-11.3","","59","","0.0","","16","","9","","16.1","","102.37","","","","-8","","NA"
"-55.85","52.30","MARY'S HARBOUR A","8502592","2019-03-31 02:30","2019","03","31","02:30","-4.3","","-9.7","","66","","0.0","","17","","9","","16.1","","102.35","","","","-8","","NA"
"-55.85","52.30","MARY'S HARBOUR A","8502592","2019-03-31 03:30","2019","03","31","03:30","-4.2","","-8.3","","73","","0.0","","17","","8","","16.1","","102.30","","","","-8","","NA"
"-55.85","52.30","MARY'S HARBOUR A","8502592","2019-03-31 04:30","2019","03","31","04:30","-3.3","","-6.7","","77","","0.0","","","M","4","","16.1","","102.22","","","","-5","","NA"
"-55.85","52.30","MARY'S HARBOUR A","8502592","2019-03-31 05:30","2019","03","31","05:30","-3.0","","-4.6","","89","","0.0","","18","","8","","3.6","","102.18","","","","-6","","Snow"
"-55.85","52.30","MARY'S HARBOUR A","8502592","2019-03-31 06:30","2019","03","31","06:30","-3.0","","-4.0","","93","","0.0","","18","","5","","1.6","","102.15","","","","-5","","Snow"
"-55.85","52.30","MARY'S HARBOUR A","8502592","2019-03-31 07:30","2019","03","31","07:30","-2.5","","-3.8","","91","","0.0","","13","","9","","9.7","","102.06","","","","-6","","Snow"
"-55.85","52.30","MARY'S HARBOUR A","8502592","2019-03-31 08:30","2019","03","31","08:30","-2.3","","-3.4","","92","","0.0","","13","","13","","11.3","","102.03","","","","-7","","Snow"
"-55.85","52.30","MARY'S HARBOUR A","8502592","2019-03-31 09:30","2019","03","31","09:30","-2.0","","-3.1","","92","","0.0","","13","","11","","4.0","","101.93","","","","-6","","Snow"
"-55.85","52.30","MARY'S HARBOUR A","8502592","2019-03-31 10:30","2019","03","31","10:30","-1.8","","-2.8","","93","","0.0","","13","","11","","4.0","","101.88","","","","-6","","Snow"
"-55.85","52.30","MARY'S HARBOUR A","8502592","2019-03-31 11:30","2019","03","31","11:30","-1.4","","-2.5","","93","","0.0","","13","","13","","16.1","","101.76","","","","-6","","Snow"
"-55.85","52.30","MARY'S HARBOUR A","8502592","2019-03-31 12:30","2019","03","31","12:30","-1.3","","-2.1","","94","","0.0","","13","","13","","16.1","","101.61","","","","-6","","NA"
"-55.85","52.30","MARY'S HARBOUR A","8502592","2019-03-31 13:30","2019","03","31","13:30","-0.2","","-1.2","","93","","0.0","","14","","9","","16.1","","101.53","","","","-3","","NA"
"-55.85","52.30","MARY'S HARBOUR A","8502592","2019-03-31 14:30","2019","03","31","14:30","1.0","","-0.5","","90","","0.0","","16","","17","","16.1","","101.39","","","","","","NA"
"-55.85","52.30","MARY'S HARBOUR A","8502592","2019-03-31 15:30","2019","03","31","15:30","1.4","","0.2","","92","","1.8","","13","","21","","16.1","","101.33","","","","","","NA"
"-55.85","52.30","MARY'S HARBOUR A","8502592","2019-03-31 16:30","2019","03","31","16:30","4.6","","2.5","","86","","0.2","","22","","11","","16.1","","101.27","","","","","","NA"
"-55.85","52.30","MARY'S HARBOUR A","8502592","2019-03-31 17:30","2019","03","31","17:30","3.0","","1.4","","89","","0.0","","17","","22","","16.1","","101.22","","","","","","NA"
"-55.85","52.30","MARY'S HARBOUR A","8502592","2019-03-31 18:30","2019","03","31","18:30","4.3","","2.1","","86","","0.0","","18","","17","","16.1","","101.16","","","","","","NA"
"-55.85","52.30","MARY'S HARBOUR A","8502592","2019-03-31 19:30","2019","03","31","19:30","3.5","","2.0","","90","","0.0","","17","","21","","16.1","","101.15","","","","","","NA"
"-55.85","52.30","MARY'S HARBOUR A","8502592","2019-03-31 20:30","2019","03","31","20:30","4.4","","2.5","","88","","0.0","","19","","5","","16.1","","101.14","","","","","","NA"
"-55.85","52.30","MARY'S HARBOUR A","8502592","2019-03-31 21:30","2019","03","31","21:30","5.0","","2.2","","82","","0.0","","20","","15","","16.1","","101.09","","","","","","NA"
"-55.85","52.30","MARY'S HARBOUR A","8502592","2019-03-31 22:30","2019","03","31","22:30","5.1","","1.0","","75","","0.0","","18","","11","","16.1","","101.05","","","","","","NA"
"-55.85","52.30","MARY'S HARBOUR A","8502592","2019-03-31 23:30","2019","03","31","23:30","4.8","","0.2","","72","","0.0","","14","","13","","16.1","","100.99","","","","","","NA"
