"Longitude (x)","Latitude (y)","Station Name","Climate ID","Date/Time (LST)","Year","Month","Day","Time (LST)","Temp (°C)","Temp Flag","Dew Point Temp (°C)","Dew Point Temp Flag","Rel Hum (%)","Rel Hum Flag","Precip. Amount (mm)","Precip. Amount Flag","Wind Dir (10s deg)","Wind Dir Flag","Wind Spd (km/h)","Wind Spd Flag","Visibility (km)","Visibility Flag","Stn Press (kPa)","Stn Press Flag","Hmdx","Hmdx Flag","Wind Chill","Wind Chill Flag","Weather"
"-121.67","69.67","KEATS POINT","2202663","2018-01-01 00:00","2018","01","01","00:00","-21.1","","","","","M","","","26","","15","","","","97.88","","","","-30","","NA"
"-121.67","69.67","KEATS POINT","2202663","2018-01-01 01:00","2018","01","01","01:00","-22.6","","","","","M","","","29","","19","","","","97.92","","","","-33","","NA"
"-121.67","69.67","KEATS POINT","2202663","2018-01-01 02:00","2018","01","01","02:00","-22.9","","","","","M","","","29","","19","","","","97.93","","","","-34","","NA"
"-121.67","69.67","KEATS POINT","2202663","2018-01-01 03:00","2018","01","01","03:00","-22.4","","","","","M","","","26","","22","","","","97.98","","","","-34","","NA"
"-121.67","69.67","KEATS POINT","2202663","2018-01-01 04:00","2018","01","01","04:00","-22.2","","","","","M","","","25","","15","","","","97.99","","","","-32","","NA"
"-121.67","69.67","KEATS POINT","2202663","2018-01-01 05:00","2018","01","01","05:00","-21.1","","","","","M","","","27","","13","","","","97.99","","","","-30","","NA"
"-121.67","69.67","KEATS POINT","2202663","2018-01-01 06:00","2018","01","01","06:00","-20.3","","","","","M","","","30","","17","","","","97.98","","","","-30","","NA"
"-121.67","69.67","KEATS POINT","2202663","2018-01-01 07:00","2018","01","01","07:00","-20.9","","","","","M","","","28","","33","","","","97.98","","","","-34","","NA"
"-121.67","69.67","KEATS POINT","2202663","2018-01-01 08:00","2018","01","01","08:00","-21.4","","","","","M","","","","M","","M","","","98.00","","","","","","NA"
"-121.67","69.67","KEATS POINT","2202663","2018-01-01 09:00","2018","01","01","09:00","-21.6","","","","","M","","","28","","19","","","","98.00","","","","-32","","NA"
"-121.67","69.67","KEATS POINT","2202663","2018-01-01 10:00","2018","01","01","10:00","-21.9","","","","","M","","","28","","17","","","","98.01","","","","-32","","NA"
"-121.67","69.67","KEATS POINT","2202663","2018-01-01 11:00","2018","01","01","11:00","-22.0","","","","","M","","","","M","","M","","","98.03","","","","","","NA"
"-121.67","69.67","KEATS POINT","2202663","2018-01-01 12:00","2018","01","01","12:00","-22.2","","","","","M","","","","M","","M","","","98.06","","","","","","NA"
"-121.67","69.67","KEATS POINT","2202663","2018-01-01 13:00","2018","01","01","13:00","-22.5","","","","","M","","","10","","39","","","","98.08","","","","-37","","NA"
"-121.67","69.67","KEATS POINT","2202663","2018-01-01 14:00","2018","01","01","14:00","-22.6","","","","","M","","","10","","41","","","","98.10","","","","-38","","NA"
"-121.67","69.67","KEATS POINT","2202663","2018-01-01 15:00","2018","01","01","15:00","-23.2","","","","","M","","","","M","","M","","","98.14","","","","","","NA"
"-121.67","69.67","KEATS POINT","2202663","2018-01-01 16:00","2018","01","01","16:00","-23.3","","","","","M","","","","M","","M","","","98.18","","","","","","NA"
"-121.67","69.67","KEATS POINT","2202663","2018-01-01 17:00","2018","01","01","17:00","-24.9","","","","","M","","","","M","","M","","","98.18","","","","","","NA"
"-121.67","69.67","KEATS POINT","2202663","2018-01-01 18:00","2018","01","01","18:00","-25.3","","","","","M","","","","M","","M","","","98.21","","","","","","NA"
"-121.67","69.67","KEATS POINT","2202663","2018-01-01 19:00","2018","01","01","19:00","-26.0","","","","","M","","","23","","9","","","","98.25","","","","-34","","NA"
"-121.67","69.67","KEATS POINT","2202663","2018-01-01 20:00","2018","01","01","20:00","-26.0","","","","","M","","","24","","13","","","","98.24","","","","-36","","NA"
"-121.67","69.67","KEATS POINT","2202663","2018-01-01 21:00","2018","01","01","21:00","-25.7","","","","","M","","","19","","11","","","","98.26","","","","-34","","NA"
"-121.67","69.67","KEATS POINT","2202663","2018-01-01 22:00","2018","01","01","22:00","-24.8","","","","","M","","","10","","11","","","","98.26","","","","-33","","NA"
"-121.67","69.67","KEATS POINT","2202663","2018-01-01 23:00","2018","01","01","23:00","-25.8","","","","","M","","","13","","6","","","","98.31","","","","-32","","NA"
"-121.67","69.67","KEATS POINT","2202663","2018-01-02 00:00","2018","01","02","00:00","-24.3","","","","","M","","","12","","19","","","","98.32","","","","-36","","NA"
"-121.67","69.67","KEATS POINT","2202663","2018-01-02 01:00","2018","01","02","01:00","-24.2","","","","","M","","","13","","19","","","","98.33","","","","-36","","NA"
"-121.67","69.67","KEATS POINT","2202663","2018-01-02 02:00","2018","01","02","02:00","-21.4","","","","","M","","","12","","20","","","","98.30","","","","-32","","NA"
"-121.67","69.67","KEATS POINT","2202663","2018-01-02 03:00","2018","01","02","03:00","-19.1","","","","","M","","","13","","13","","","","98.31","","","","-27","","NA"
"-121.67","69.67","KEATS POINT","2202663","2018-01-02 04:00","2018","01","02","04:00","-21.2","","","","","M","","","11","","13","","","","98.30","","","","-30","","NA"
"-121.67","69.67","KEATS POINT","2202663","2018-01-02 05:00","2018","01","02","05:00","-22.3","","","","","M","","","10","","17","","","","98.27","","","","-33","","NA"
"-121.67","69.67","KEATS POINT","2202663","2018-01-02 06:00","2018","01","02","06:00","-22.0","","","","","M","","","12","","17","","","","98.22","","","","-32","","NA"
"-121.67","69.67","KEATS POINT","2202663","2018-01-02 07:00","2018","01","02","07:00","-19.2","","","","","M","","","14","","13","","","","98.16","","","","-27","","NA"
"-121.67","69.67","KEATS POINT","2202663","2018-01-02 08:00","2018","01","02","08:00","-18.6","","","","","M","","","16","","24","","","","98.13","","","","-30","","NA"
"-121.67","69.67","KEATS POINT","2202663","2018-01-02 09:00","2018","01","02","09:00","-18.9","","","","","M","","","17","","22","","","","98.13","","","","-30","","NA"
"-121.67","69.67","KEATS POINT","2202663","2018-01-02 10:00","2018","01","02","10:00","-19.1","","","","","M","","","16","","24","","","","98.09","","","","-30","","NA"
"-121.67","69.67","KEATS POINT","2202663","2018-01-02 11:00","2018","01","02","11:00","-19.2","","","","","M","","","16","","31","","","","98.08","","","","-32","","NA"
"-121.67","69.67","KEATS POINT","2202663","2018-01-02 12:00","2018","01","02","12:00","-19.2","","","","","M","","","16","","31","","","","98.10","","","","-32","","NA"
"-121.67","69.67","KEATS POINT","2202663","2018-01-02 13:00","2018","01","02","13:00","-18.9","","","","","M","","","15","","33","","","","98.06","","","","-32","","NA"
"-121.67","69.67","KEATS POINT","2202663","2018-01-02 14:00","2018","01","02","14:00","-19.0","","","","","M","","","12","","22","","","","98.02","","","","-30","","NA"
"-121.67","69.67","KEATS POINT","2202663","2018-01-02 15:00","2018","01","02","15:00","-17.9","","","","","M","","","11","","26","","","","97.98","","","","-29","","NA"
"-121.67","69.67","KEATS POINT","2202663","2018-01-02 16:00","2018","01","02","16:00","-18.6","","","","","M","","","14","","24","","","","98.00","","","","-30","","NA"
"-121.67","69.67","KEATS POINT","2202663","2018-01-02 17:00","2018","01","02","17:00","-17.7","","","","","M","","","16","","39","","","","97.96","","","","-31","","NA"
"-121.67","69.67","KEATS POINT","2202663","2018-01-02 18:00","2018","01","02","18:00","-16.4","","","","","M","","","15","","37","","","","97.91","","","","-29","","NA"
"-121.67","69.67","KEATS POINT","2202663","2018-01-02 19:00","2018","01","02","19:00","-17.9","","","","","M","","","16","","35","","","","97.90","","","","-31","","NA"
"-121.67","69.67","KEATS POINT","2202663","2018-01-02 20:00","2018","01","02","20:00","-16.8","","","","","M","","","16","","39","","","","97.87","","","","-30","","NA"
"-121.67","69.67","KEATS POINT","2202663","2018-01-02 21:00","2018","01","02","21:00","-17.0","","","","","M","","","15","","39","","","","97.79","","","","-30","","NA"
"-121.67","69.67","KEATS POINT","2202663","2018-01-02 22:00","2018","01","02","22:00","-17.4","","","","","M","","","13","","31","","","","97.74","","","","-29","","NA"
"-121.67","69.67","KEATS POINT","2202663","2018-01-02 23:00","2018","01","02","23:00","-16.5","","","","","M","","","15","","48","","","","97.71","","","","-30","","NA"
"-121.67","69.67","KEATS POINT","2202663","2018-01-03 00:00","2018","01","03","00:00","-16.9","","","","","M","","","15","","44","","","","97.70","","","","-30","","NA"
"-121.67","69.67","KEATS POINT","2202663","2018-01-03 01:00","2018","01","03","01:00","-16.3","","","","","M","","","14","","44","","","","97.63","","","","-30","","NA"
"-121.67","69.67","KEATS POINT","2202663","2018-01-03 02:00","2018","01","03","02:00","-15.4","","","","","M","","","13","","35","","","","97.59","","","","-27","","NA"
"-121.67","69.67","KEATS POINT","2202663","2018-01-03 03:00","2018","01","03","03:00","-14.8","","","","","M","","","15","","46","","","","97.53","","","","-28","","NA"
"-121.67","69.67","KEATS POINT","2202663","2018-01-03 04:00","2018","01","03","04:00","-14.4","","","","","M","","","17","","43","","","","97.48","","","","-27","","NA"
"-121.67","69.67","KEATS POINT","2202663","2018-01-03 05:00","2018","01","03","05:00","-13.5","","","","","M","","","16","","50","","","","97.43","","","","-27","","NA"
"-121.67","69.67","KEATS POINT","2202663","2018-01-03 06:00","2018","01","03","06:00","-14.5","","","","","M","","","10","","33","","","","97.35","","","","-26","","NA"
"-121.67","69.67","KEATS POINT","2202663","2018-01-03 07:00","2018","01","03","07:00","-14.0","","","","","M","","","9","","33","","","","97.30","","","","-25","","NA"
"-121.67","69.67","KEATS POINT","2202663","2018-01-03 08:00","2018","01","03","08:00","-12.3","","","","","M","","","18","","11","","","","97.28","","","","-18","","NA"
"-121.67","69.67","KEATS POINT","2202663","2018-01-03 09:00","2018","01","03","09:00","-12.1","","","","","M","","","13","","35","","","","97.20","","","","-23","","NA"
"-121.67","69.67","KEATS POINT","2202663","2018-01-03 10:00","2018","01","03","10:00","-12.8","","","","","M","","","5","","7","","","","97.23","","","","-17","","NA"
"-121.67","69.67","KEATS POINT","2202663","2018-01-03 11:00","2018","01","03","11:00","-14.0","","","","","M","","","6","","13","","","","97.20","","","","-21","","NA"
"-121.67","69.67","KEATS POINT","2202663","2018-01-03 12:00","2018","01","03","12:00","-11.9","","","","","M","","","1","","6","","","","97.14","","","","-16","","NA"
"-121.67","69.67","KEATS POINT","2202663","2018-01-03 13:00","2018","01","03","13:00","-13.4","","","","","M","","","29","","11","","","","97.15","","","","-20","","NA"
"-121.67","69.67","KEATS POINT","2202663","2018-01-03 14:00","2018","01","03","14:00","-12.7","","","","","M","","","23","","7","","","","97.13","","","","-17","","NA"
"-121.67","69.67","KEATS POINT","2202663","2018-01-03 15:00","2018","01","03","15:00","-11.9","","","","","M","","","29","","9","","","","97.13","","","","-17","","NA"
"-121.67","69.67","KEATS POINT","2202663","2018-01-03 16:00","2018","01","03","16:00","-11.7","","","","","M","","","20","","7","","","","97.08","","","","-16","","NA"
"-121.67","69.67","KEATS POINT","2202663","2018-01-03 17:00","2018","01","03","17:00","-11.1","","","","","M","","","26","","6","","","","97.04","","","","-15","","NA"
"-121.67","69.67","KEATS POINT","2202663","2018-01-03 18:00","2018","01","03","18:00","-12.0","","","","","M","","","28","","11","","","","97.02","","","","-18","","NA"
"-121.67","69.67","KEATS POINT","2202663","2018-01-03 19:00","2018","01","03","19:00","-12.3","","","","","M","","","1","","11","","","","97.01","","","","-18","","NA"
"-121.67","69.67","KEATS POINT","2202663","2018-01-03 20:00","2018","01","03","20:00","-13.1","","","","","M","","","33","","6","","","","97.00","","","","-17","","NA"
"-121.67","69.67","KEATS POINT","2202663","2018-01-03 21:00","2018","01","03","21:00","-13.1","","","","","M","","","27","","6","","","","96.99","","","","-17","","NA"
"-121.67","69.67","KEATS POINT","2202663","2018-01-03 22:00","2018","01","03","22:00","-11.4","","","","","M","","","17","","7","","","","97.00","","","","-16","","NA"
"-121.67","69.67","KEATS POINT","2202663","2018-01-03 23:00","2018","01","03","23:00","-12.7","","","","","M","","","7","","9","","","","97.03","","","","-18","","NA"
"-121.67","69.67","KEATS POINT","2202663","2018-01-04 00:00","2018","01","04","00:00","-10.8","","","","","M","","","20","","26","","","","97.04","","","","-20","","NA"
"-121.67","69.67","KEATS POINT","2202663","2018-01-04 01:00","2018","01","04","01:00","-11.3","","","","","M","","","21","","13","","","","97.06","","","","-18","","NA"
"-121.67","69.67","KEATS POINT","2202663","2018-01-04 02:00","2018","01","04","02:00","-11.5","","","","","M","","","23","","19","","","","97.10","","","","-20","","NA"
"-121.67","69.67","KEATS POINT","2202663","2018-01-04 03:00","2018","01","04","03:00","-11.7","","","","","M","","","25","","15","","","","97.14","","","","-19","","NA"
"-121.67","69.67","KEATS POINT","2202663","2018-01-04 04:00","2018","01","04","04:00","-11.9","","","","","M","","","22","","9","","","","97.17","","","","-17","","NA"
"-121.67","69.67","KEATS POINT","2202663","2018-01-04 05:00","2018","01","04","05:00","-12.3","","","","","M","","","23","","4","","","","97.16","","","","-15","","NA"
"-121.67","69.67","KEATS POINT","2202663","2018-01-04 06:00","2018","01","04","06:00","-12.2","","","","","M","","","21","","7","","","","97.16","","","","-17","","NA"
"-121.67","69.67","KEATS POINT","2202663","2018-01-04 07:00","2018","01","04","07:00","-12.8","","","","","M","","","16","","9","","","","97.16","","","","-18","","NA"
"-121.67","69.67","KEATS POINT","2202663","2018-01-04 08:00","2018","01","04","08:00","-13.1","","","","","M","","","2","","7","","","","97.19","","","","-18","","NA"
"-121.67","69.67","KEATS POINT","2202663","2018-01-04 09:00","2018","01","04","09:00","-12.8","","","","","M","","","27","","17","","","","97.23","","","","-21","","NA"
"-121.67","69.67","KEATS POINT","2202663","2018-01-04 10:00","2018","01","04","10:00","-13.8","","","","","M","","","30","","6","","","","97.26","","","","-18","","NA"
"-121.67","69.67","KEATS POINT","2202663","2018-01-04 11:00","2018","01","04","11:00","-13.6","","","","","M","","","34","","11","","","","97.33","","","","-20","","NA"
"-121.67","69.67","KEATS POINT","2202663","2018-01-04 12:00","2018","01","04","12:00","-13.5","","","","","M","","","","","0","","","","97.37","","","","","","NA"
"-121.67","69.67","KEATS POINT","2202663","2018-01-04 13:00","2018","01","04","13:00","-13.4","","","","","M","","","","","0","","","","97.36","","","","","","NA"
"-121.67","69.67","KEATS POINT","2202663","2018-01-04 14:00","2018","01","04","14:00","-13.7","","","","","M","","","8","","7","","","","97.35","","","","-18","","NA"
"-121.67","69.67","KEATS POINT","2202663","2018-01-04 15:00","2018","01","04","15:00","-13.1","","","","","M","","","1","","6","","","","97.42","","","","-17","","NA"
"-121.67","69.67","KEATS POINT","2202663","2018-01-04 16:00","2018","01","04","16:00","-13.5","","","","","M","","","","","0","","","","97.47","","","","","","NA"
"-121.67","69.67","KEATS POINT","2202663","2018-01-04 17:00","2018","01","04","17:00","-13.7","","","","","M","","","13","","7","","","","97.43","","","","-18","","NA"
"-121.67","69.67","KEATS POINT","2202663","2018-01-04 18:00","2018","01","04","18:00","-13.7","","","","","M","","","","","0","","","","97.44","","","","","","NA"
"-121.67","69.67","KEATS POINT","2202663","2018-01-04 19:00","2018","01","04","19:00","-13.6","","","","","M","","","35","","4","","","","97.46","","","","-16","","NA"
"-121.67","69.67","KEATS POINT","2202663","2018-01-04 20:00","2018","01","04","20:00","-13.1","","","","","M","","","3","","4","","","","97.47","","","","-16","","NA"
"-121.67","69.67","KEATS POINT","2202663","2018-01-04 21:00","2018","01","04","21:00","-14.7","","","","","M","","","25","","6","","","","97.47","","","","-19","","NA"
"-121.67","69.67","KEATS POINT","2202663","2018-01-04 22:00","2018","01","04","22:00","-13.6","","","","","M","","","20","","4","","","","97.46","","","","-16","","NA"
"-121.67","69.67","KEATS POINT","2202663","2018-01-04 23:00","2018","01","04","23:00","-13.5","","","","","M","","","29","","7","","","","97.46","","","","-18","","NA"
"-121.67","69.67","KEATS POINT","2202663","2018-01-05 00:00","2018","01","05","00:00","-12.8","","","","","M","","","13","","7","","","","97.44","","","","-17","","NA"
"-121.67","69.67","KEATS POINT","2202663","2018-01-05 01:00","2018","01","05","01:00","-14.2","","","","","M","","","7","","15","","","","97.44","","","","-22","","NA"
"-121.67","69.67","KEATS POINT","2202663","2018-01-05 02:00","2018","01","05","02:00","-14.3","","","","","M","","","11","","19","","","","97.43","","","","-23","","NA"
"-121.67","69.67","KEATS POINT","2202663","2018-01-05 03:00","2018","01","05","03:00","-14.7","","","","","M","","","9","","17","","","","97.42","","","","-23","","NA"
"-121.67","69.67","KEATS POINT","2202663","2018-01-05 04:00","2018","01","05","04:00","-14.6","","","","","M","","","10","","9","","","","97.45","","","","-20","","NA"
"-121.67","69.67","KEATS POINT","2202663","2018-01-05 05:00","2018","01","05","05:00","-15.5","","","","","M","","","10","","7","","","","97.43","","","","-20","","NA"
"-121.67","69.67","KEATS POINT","2202663","2018-01-05 06:00","2018","01","05","06:00","-13.0","","","","","M","","","28","","4","","","","97.38","","","","-16","","NA"
"-121.67","69.67","KEATS POINT","2202663","2018-01-05 07:00","2018","01","05","07:00","-13.6","","","","","M","","","25","","6","","","","97.39","","","","-18","","NA"
"-121.67","69.67","KEATS POINT","2202663","2018-01-05 08:00","2018","01","05","08:00","-14.0","","","","","M","","","27","","9","","","","97.33","","","","-20","","NA"
"-121.67","69.67","KEATS POINT","2202663","2018-01-05 09:00","2018","01","05","09:00","-14.6","","","","","M","","","29","","4","","","","97.31","","","","-17","","NA"
"-121.67","69.67","KEATS POINT","2202663","2018-01-05 10:00","2018","01","05","10:00","-14.7","","","","","M","","","","","0","","","","97.30","","","","","","NA"
"-121.67","69.67","KEATS POINT","2202663","2018-01-05 11:00","2018","01","05","11:00","-14.6","","","","","M","","","","","0","","","","97.31","","","","","","NA"
"-121.67","69.67","KEATS POINT","2202663","2018-01-05 12:00","2018","01","05","12:00","-15.4","","","","","M","","","","","0","","","","97.31","","","","","","NA"
"-121.67","69.67","KEATS POINT","2202663","2018-01-05 13:00","2018","01","05","13:00","-15.4","","","","","M","","","","","0","","","","97.27","","","","","","NA"
"-121.67","69.67","KEATS POINT","2202663","2018-01-05 14:00","2018","01","05","14:00","-14.9","","","","","M","","","","","0","","","","97.25","","","","","","NA"
"-121.67","69.67","KEATS POINT","2202663","2018-01-05 15:00","2018","01","05","15:00","-14.4","","","","","M","","","11","","6","","","","97.19","","","","-19","","NA"
"-121.67","69.67","KEATS POINT","2202663","2018-01-05 16:00","2018","01","05","16:00","-14.2","","","","","M","","","10","","4","","","","97.23","","","","-17","","NA"
"-121.67","69.67","KEATS POINT","2202663","2018-01-05 17:00","2018","01","05","17:00","-14.3","","","","","M","","","14","","13","","","","97.15","","","","-21","","NA"
"-121.67","69.67","KEATS POINT","2202663","2018-01-05 18:00","2018","01","05","18:00","-14.1","","","","","M","","","10","","9","","","","97.11","","","","-20","","NA"
"-121.67","69.67","KEATS POINT","2202663","2018-01-05 19:00","2018","01","05","19:00","-14.0","","","","","M","","","31","","9","","","","97.06","","","","-20","","NA"
"-121.67","69.67","KEATS POINT","2202663","2018-01-05 20:00","2018","01","05","20:00","-14.1","","","","","M","","","","","0","","","","96.98","","","","","","NA"
"-121.67","69.67","KEATS POINT","2202663","2018-01-05 21:00","2018","01","05","21:00","-14.5","","","","","M","","","","","0","","","","96.94","","","","","","NA"
"-121.67","69.67","KEATS POINT","2202663","2018-01-05 22:00","2018","01","05","22:00","-14.2","","","","","M","","","22","","17","","","","96.89","","","","-22","","NA"
"-121.67","69.67","KEATS POINT","2202663","2018-01-05 23:00","2018","01","05","23:00","-14.5","","","","","M","","","16","","13","","","","96.87","","","","-22","","NA"
"-121.67","69.67","KEATS POINT","2202663","2018-01-06 00:00","2018","01","06","00:00","-15.6","","","","","M","","","23","","37","","","","96.81","","","","-28","","NA"
"-121.67","69.67","KEATS POINT","2202663","2018-01-06 01:00","2018","01","06","01:00","-16.1","","","","","M","","","24","","39","","","","96.78","","","","-29","","NA"
"-121.67","69.67","KEATS POINT","2202663","2018-01-06 02:00","2018","01","06","02:00","-16.5","","","","","M","","","24","","48","","","","96.72","","","","-30","","NA"
"-121.67","69.67","KEATS POINT","2202663","2018-01-06 03:00","2018","01","06","03:00","-16.7","","","","","M","","","24","","50","","","","96.70","","","","-31","","NA"
"-121.67","69.67","KEATS POINT","2202663","2018-01-06 04:00","2018","01","06","04:00","-16.8","","","","","M","","","26","","43","","","","96.68","","","","-30","","NA"
"-121.67","69.67","KEATS POINT","2202663","2018-01-06 05:00","2018","01","06","05:00","-17.4","","","","","M","","","27","","41","","","","96.64","","","","-31","","NA"
"-121.67","69.67","KEATS POINT","2202663","2018-01-06 06:00","2018","01","06","06:00","-18.5","","","","","M","","","25","","43","","","","96.62","","","","-33","","NA"
"-121.67","69.67","KEATS POINT","2202663","2018-01-06 07:00","2018","01","06","07:00","-18.6","","","","","M","","","26","","41","","","","96.66","","","","-32","","NA"
"-121.67","69.67","KEATS POINT","2202663","2018-01-06 08:00","2018","01","06","08:00","-18.0","","","","","M","","","25","","41","","","","96.66","","","","-32","","NA"
"-121.67","69.67","KEATS POINT","2202663","2018-01-06 09:00","2018","01","06","09:00","-18.5","","","","","M","","","26","","37","","","","96.67","","","","-32","","NA"
"-121.67","69.67","KEATS POINT","2202663","2018-01-06 10:00","2018","01","06","10:00","-19.5","","","","","M","","","27","","39","","","","96.70","","","","-33","","NA"
"-121.67","69.67","KEATS POINT","2202663","2018-01-06 11:00","2018","01","06","11:00","-20.1","","","","","M","","","28","","39","","","","96.73","","","","-34","","NA"
"-121.67","69.67","KEATS POINT","2202663","2018-01-06 12:00","2018","01","06","12:00","-20.3","","","","","M","","","29","","37","","","","96.72","","","","-34","","NA"
"-121.67","69.67","KEATS POINT","2202663","2018-01-06 13:00","2018","01","06","13:00","-19.9","","","","","M","","","28","","33","","","","96.73","","","","-33","","NA"
"-121.67","69.67","KEATS POINT","2202663","2018-01-06 14:00","2018","01","06","14:00","-19.5","","","","","M","","","28","","33","","","","96.70","","","","-32","","NA"
"-121.67","69.67","KEATS POINT","2202663","2018-01-06 15:00","2018","01","06","15:00","-19.1","","","","","M","","","28","","35","","","","96.68","","","","-32","","NA"
"-121.67","69.67","KEATS POINT","2202663","2018-01-06 16:00","2018","01","06","16:00","-19.3","","","","","M","","","28","","39","","","","96.67","","","","-33","","NA"
"-121.67","69.67","KEATS POINT","2202663","2018-01-06 17:00","2018","01","06","17:00","-18.8","","","","","M","","","28","","39","","","","96.64","","","","-32","","NA"
"-121.67","69.67","KEATS POINT","2202663","2018-01-06 18:00","2018","01","06","18:00","-18.3","","","","","M","","","28","","39","","","","96.60","","","","-32","","NA"
"-121.67","69.67","KEATS POINT","2202663","2018-01-06 19:00","2018","01","06","19:00","-18.5","","","","","M","","","30","","31","","","","96.58","","","","-31","","NA"
"-121.67","69.67","KEATS POINT","2202663","2018-01-06 20:00","2018","01","06","20:00","-18.8","","","","","M","","","29","","35","","","","96.54","","","","-32","","NA"
"-121.67","69.67","KEATS POINT","2202663","2018-01-06 21:00","2018","01","06","21:00","-19.4","","","","","M","","","29","","41","","","","96.52","","","","-33","","NA"
"-121.67","69.67","KEATS POINT","2202663","2018-01-06 22:00","2018","01","06","22:00","-20.0","","","","","M","","","28","","46","","","","96.49","","","","-35","","NA"
"-121.67","69.67","KEATS POINT","2202663","2018-01-06 23:00","2018","01","06","23:00","-20.6","","","","","M","","","28","","44","","","","96.52","","","","-35","","NA"
"-121.67","69.67","KEATS POINT","2202663","2018-01-07 00:00","2018","01","07","00:00","-21.2","","","","","M","","","29","","37","","","","96.55","","","","-35","","NA"
"-121.67","69.67","KEATS POINT","2202663","2018-01-07 01:00","2018","01","07","01:00","-21.7","","","","","M","","","29","","35","","","","96.57","","","","-36","","NA"
"-121.67","69.67","KEATS POINT","2202663","2018-01-07 02:00","2018","01","07","02:00","-22.5","","","","","M","","","29","","39","","","","96.59","","","","-37","","NA"
"-121.67","69.67","KEATS POINT","2202663","2018-01-07 03:00","2018","01","07","03:00","-22.8","","","","","M","","","28","","39","","","","96.63","","","","-38","","NA"
"-121.67","69.67","KEATS POINT","2202663","2018-01-07 04:00","2018","01","07","04:00","-22.9","","","","","M","","","28","","37","","","","96.64","","","","-38","","NA"
"-121.67","69.67","KEATS POINT","2202663","2018-01-07 05:00","2018","01","07","05:00","-23.0","","","","","M","","","28","","37","","","","96.67","","","","-38","","NA"
"-121.67","69.67","KEATS POINT","2202663","2018-01-07 06:00","2018","01","07","06:00","-23.4","","","","","M","","","29","","31","","","","96.71","","","","-37","","NA"
"-121.67","69.67","KEATS POINT","2202663","2018-01-07 07:00","2018","01","07","07:00","-23.4","","","","","M","","","29","","31","","","","96.75","","","","-37","","NA"
"-121.67","69.67","KEATS POINT","2202663","2018-01-07 08:00","2018","01","07","08:00","-23.8","","","","","M","","","29","","30","","","","96.76","","","","-38","","NA"
"-121.67","69.67","KEATS POINT","2202663","2018-01-07 09:00","2018","01","07","09:00","-24.3","","","","","M","","","28","","30","","","","96.79","","","","-38","","NA"
"-121.67","69.67","KEATS POINT","2202663","2018-01-07 10:00","2018","01","07","10:00","-24.8","","","","","M","","","28","","28","","","","96.88","","","","-38","","NA"
"-121.67","69.67","KEATS POINT","2202663","2018-01-07 11:00","2018","01","07","11:00","-25.1","","","","","M","","","27","","28","","","","96.91","","","","-39","","NA"
"-121.67","69.67","KEATS POINT","2202663","2018-01-07 12:00","2018","01","07","12:00","-25.0","","","","","M","","","28","","30","","","","97.00","","","","-39","","NA"
"-121.67","69.67","KEATS POINT","2202663","2018-01-07 13:00","2018","01","07","13:00","-24.7","","","","","M","","","27","","30","","","","97.05","","","","-39","","NA"
"-121.67","69.67","KEATS POINT","2202663","2018-01-07 14:00","2018","01","07","14:00","-24.2","","","","","M","","","27","","31","","","","97.12","","","","-38","","NA"
"-121.67","69.67","KEATS POINT","2202663","2018-01-07 15:00","2018","01","07","15:00","-23.5","","","","","M","","","28","","28","","","","97.20","","","","-37","","NA"
"-121.67","69.67","KEATS POINT","2202663","2018-01-07 16:00","2018","01","07","16:00","-23.3","","","","","M","","","29","","28","","","","97.27","","","","-36","","NA"
"-121.67","69.67","KEATS POINT","2202663","2018-01-07 17:00","2018","01","07","17:00","-22.9","","","","","M","","","29","","26","","","","97.34","","","","-36","","NA"
"-121.67","69.67","KEATS POINT","2202663","2018-01-07 18:00","2018","01","07","18:00","-22.6","","","","","M","","","29","","24","","","","97.39","","","","-35","","NA"
"-121.67","69.67","KEATS POINT","2202663","2018-01-07 19:00","2018","01","07","19:00","-22.5","","","","","M","","","29","","22","","","","97.42","","","","-34","","NA"
"-121.67","69.67","KEATS POINT","2202663","2018-01-07 20:00","2018","01","07","20:00","-22.3","","","","","M","","","29","","24","","","","97.48","","","","-34","","NA"
"-121.67","69.67","KEATS POINT","2202663","2018-01-07 21:00","2018","01","07","21:00","-22.3","","","","","M","","","30","","24","","","","97.54","","","","-34","","NA"
"-121.67","69.67","KEATS POINT","2202663","2018-01-07 22:00","2018","01","07","22:00","-22.4","","","","","M","","","30","","22","","","","97.59","","","","-34","","NA"
"-121.67","69.67","KEATS POINT","2202663","2018-01-07 23:00","2018","01","07","23:00","-22.5","","","","","M","","","32","","22","","","","97.68","","","","-34","","NA"
"-121.67","69.67","KEATS POINT","2202663","2018-01-08 00:00","2018","01","08","00:00","-22.3","","","","","M","","","32","","24","","","","97.75","","","","-34","","NA"
"-121.67","69.67","KEATS POINT","2202663","2018-01-08 01:00","2018","01","08","01:00","-22.3","","","","","M","","","34","","26","","","","97.83","","","","-35","","NA"
"-121.67","69.67","KEATS POINT","2202663","2018-01-08 02:00","2018","01","08","02:00","-23.2","","","","","M","","","36","","20","","","","97.87","","","","-35","","NA"
"-121.67","69.67","KEATS POINT","2202663","2018-01-08 03:00","2018","01","08","03:00","-25.0","","","","","M","","","36","","9","","","","97.93","","","","-33","","NA"
"-121.67","69.67","KEATS POINT","2202663","2018-01-08 04:00","2018","01","08","04:00","-25.1","","","","","M","","","28","","9","","","","97.95","","","","-33","","NA"
"-121.67","69.67","KEATS POINT","2202663","2018-01-08 05:00","2018","01","08","05:00","-26.9","","","","","M","","","29","","15","","","","97.99","","","","-38","","NA"
"-121.67","69.67","KEATS POINT","2202663","2018-01-08 06:00","2018","01","08","06:00","-27.8","","","","","M","","","29","","19","","","","98.02","","","","-40","","NA"
"-121.67","69.67","KEATS POINT","2202663","2018-01-08 07:00","2018","01","08","07:00","-29.4","","","","","M","","","32","","17","","","","98.09","","","","-41","","NA"
"-121.67","69.67","KEATS POINT","2202663","2018-01-08 08:00","2018","01","08","08:00","-29.2","","","","","M","","","30","","15","","","","98.11","","","","-40","","NA"
"-121.67","69.67","KEATS POINT","2202663","2018-01-08 09:00","2018","01","08","09:00","-30.0","","","","","M","","","28","","20","","","","98.17","","","","-43","","NA"
"-121.67","69.67","KEATS POINT","2202663","2018-01-08 10:00","2018","01","08","10:00","-28.7","","","","","M","","","28","","26","","","","98.17","","","","-43","","NA"
"-121.67","69.67","KEATS POINT","2202663","2018-01-08 11:00","2018","01","08","11:00","-28.7","","","","","M","","","29","","33","","","","98.21","","","","-45","","NA"
"-121.67","69.67","KEATS POINT","2202663","2018-01-08 12:00","2018","01","08","12:00","-28.2","","","","","M","","","28","","28","","","","98.27","","","","-43","","NA"
"-121.67","69.67","KEATS POINT","2202663","2018-01-08 13:00","2018","01","08","13:00","-27.7","","","","","M","","","28","","28","","","","98.30","","","","-42","","NA"
"-121.67","69.67","KEATS POINT","2202663","2018-01-08 14:00","2018","01","08","14:00","-27.2","","","","","M","","","27","","33","","","","98.30","","","","-43","","NA"
"-121.67","69.67","KEATS POINT","2202663","2018-01-08 15:00","2018","01","08","15:00","-26.7","","","","","M","","","29","","24","","","","98.40","","","","-40","","NA"
"-121.67","69.67","KEATS POINT","2202663","2018-01-08 16:00","2018","01","08","16:00","-26.7","","","","","M","","","28","","24","","","","98.44","","","","-40","","NA"
"-121.67","69.67","KEATS POINT","2202663","2018-01-08 17:00","2018","01","08","17:00","-26.5","","","","","M","","","30","","31","","","","98.45","","","","-41","","NA"
"-121.67","69.67","KEATS POINT","2202663","2018-01-08 18:00","2018","01","08","18:00","-25.1","","","","","M","","","28","","19","","","","98.44","","","","-37","","NA"
"-121.67","69.67","KEATS POINT","2202663","2018-01-08 19:00","2018","01","08","19:00","-24.8","","","","","M","","","28","","33","","","","98.38","","","","-39","","NA"
"-121.67","69.67","KEATS POINT","2202663","2018-01-08 20:00","2018","01","08","20:00","-25.1","","","","","M","","","27","","41","","","","98.35","","","","-41","","NA"
"-121.67","69.67","KEATS POINT","2202663","2018-01-08 21:00","2018","01","08","21:00","-25.5","","","","","M","","","27","","50","","","","98.30","","","","-43","","NA"
"-121.67","69.67","KEATS POINT","2202663","2018-01-08 22:00","2018","01","08","22:00","-25.6","","","","","M","","","28","","44","","","","98.31","","","","-42","","NA"
"-121.67","69.67","KEATS POINT","2202663","2018-01-08 23:00","2018","01","08","23:00","-25.8","","","","","M","","","27","","46","","","","98.32","","","","-43","","NA"
"-121.67","69.67","KEATS POINT","2202663","2018-01-09 00:00","2018","01","09","00:00","-26.3","","","","","M","","","27","","41","","","","98.37","","","","-43","","NA"
"-121.67","69.67","KEATS POINT","2202663","2018-01-09 01:00","2018","01","09","01:00","-27.1","","","","","M","","","26","","52","","","","98.36","","","","-45","","NA"
"-121.67","69.67","KEATS POINT","2202663","2018-01-09 02:00","2018","01","09","02:00","-27.8","","","","","M","","","25","","52","","","","98.32","","","","-46","","NA"
"-121.67","69.67","KEATS POINT","2202663","2018-01-09 03:00","2018","01","09","03:00","-27.5","","","","","M","","","25","","52","","","","98.37","","","","-46","","NA"
"-121.67","69.67","KEATS POINT","2202663","2018-01-09 04:00","2018","01","09","04:00","-27.9","","","","","M","","","25","","56","","","","98.33","","","","-47","","NA"
"-121.67","69.67","KEATS POINT","2202663","2018-01-09 05:00","2018","01","09","05:00","-28.2","","","","","M","","","26","","52","","","","98.30","","","","-47","","NA"
"-121.67","69.67","KEATS POINT","2202663","2018-01-09 06:00","2018","01","09","06:00","-26.5","","","","","M","","","27","","43","","","","98.30","","","","-43","","NA"
"-121.67","69.67","KEATS POINT","2202663","2018-01-09 07:00","2018","01","09","07:00","-27.8","","","","","M","","","26","","44","","","","98.33","","","","-45","","NA"
"-121.67","69.67","KEATS POINT","2202663","2018-01-09 08:00","2018","01","09","08:00","-27.1","","","","","M","","","26","","52","","","","98.30","","","","-45","","NA"
"-121.67","69.67","KEATS POINT","2202663","2018-01-09 09:00","2018","01","09","09:00","-27.8","","","","","M","","","26","","56","","","","98.26","","","","-47","","NA"
"-121.67","69.67","KEATS POINT","2202663","2018-01-09 10:00","2018","01","09","10:00","-26.8","","","","","M","","","26","","52","","","","98.31","","","","-45","","NA"
"-121.67","69.67","KEATS POINT","2202663","2018-01-09 11:00","2018","01","09","11:00","-25.7","","","","","M","","","27","","48","","","","98.21","","","","-43","","NA"
"-121.67","69.67","KEATS POINT","2202663","2018-01-09 12:00","2018","01","09","12:00","-26.3","","","","","M","","","27","","33","","","","98.36","","","","-41","","NA"
"-121.67","69.67","KEATS POINT","2202663","2018-01-09 13:00","2018","01","09","13:00","-26.5","","","","","M","","","26","","44","","","","98.36","","","","-43","","NA"
"-121.67","69.67","KEATS POINT","2202663","2018-01-09 14:00","2018","01","09","14:00","-26.1","","","","","M","","","27","","33","","","","98.36","","","","-41","","NA"
"-121.67","69.67","KEATS POINT","2202663","2018-01-09 15:00","2018","01","09","15:00","-25.3","","","","","M","","","28","","26","","","","98.39","","","","-39","","NA"
"-121.67","69.67","KEATS POINT","2202663","2018-01-09 16:00","2018","01","09","16:00","-25.3","","","","","M","","","28","","28","","","","98.42","","","","-39","","NA"
"-121.67","69.67","KEATS POINT","2202663","2018-01-09 17:00","2018","01","09","17:00","-25.8","","","","","M","","","26","","33","","","","98.38","","","","-41","","NA"
"-121.67","69.67","KEATS POINT","2202663","2018-01-09 18:00","2018","01","09","18:00","-25.8","","","","","M","","","27","","30","","","","98.39","","","","-40","","NA"
"-121.67","69.67","KEATS POINT","2202663","2018-01-09 19:00","2018","01","09","19:00","-26.1","","","","","M","","","24","","26","","","","98.42","","","","-40","","NA"
"-121.67","69.67","KEATS POINT","2202663","2018-01-09 20:00","2018","01","09","20:00","-25.2","","","","","M","","","28","","19","","","","98.43","","","","-37","","NA"
"-121.67","69.67","KEATS POINT","2202663","2018-01-09 21:00","2018","01","09","21:00","-25.0","","","","","M","","","28","","17","","","","98.41","","","","-36","","NA"
"-121.67","69.67","KEATS POINT","2202663","2018-01-09 22:00","2018","01","09","22:00","-24.9","","","","","M","","","25","","19","","","","98.41","","","","-36","","NA"
"-121.67","69.67","KEATS POINT","2202663","2018-01-09 23:00","2018","01","09","23:00","-25.2","","","","","M","","","27","","19","","","","98.39","","","","-37","","NA"
"-121.67","69.67","KEATS POINT","2202663","2018-01-10 00:00","2018","01","10","00:00","-24.6","","","","","M","","","25","","26","","","","98.40","","","","-38","","NA"
"-121.67","69.67","KEATS POINT","2202663","2018-01-10 01:00","2018","01","10","01:00","-24.8","","","","","M","","","28","","39","","","","98.31","","","","-40","","NA"
"-121.67","69.67","KEATS POINT","2202663","2018-01-10 02:00","2018","01","10","02:00","-25.0","","","","","M","","","27","","35","","","","98.32","","","","-40","","NA"
"-121.67","69.67","KEATS POINT","2202663","2018-01-10 03:00","2018","01","10","03:00","-25.1","","","","","M","","","28","","28","","","","98.34","","","","-39","","NA"
"-121.67","69.67","KEATS POINT","2202663","2018-01-10 04:00","2018","01","10","04:00","-25.7","","","","","M","","","25","","26","","","","98.33","","","","-39","","NA"
"-121.67","69.67","KEATS POINT","2202663","2018-01-10 05:00","2018","01","10","05:00","-25.5","","","","","M","","","26","","31","","","","98.31","","","","-40","","NA"
"-121.67","69.67","KEATS POINT","2202663","2018-01-10 06:00","2018","01","10","06:00","-24.9","","","","","M","","","26","","30","","","","98.32","","","","-39","","NA"
"-121.67","69.67","KEATS POINT","2202663","2018-01-10 07:00","2018","01","10","07:00","-25.2","","","","","M","","","25","","28","","","","98.34","","","","-39","","NA"
"-121.67","69.67","KEATS POINT","2202663","2018-01-10 08:00","2018","01","10","08:00","-24.4","","","","","M","","","28","","26","","","","98.35","","","","-37","","NA"
"-121.67","69.67","KEATS POINT","2202663","2018-01-10 09:00","2018","01","10","09:00","-23.6","","","","","M","","","29","","19","","","","98.38","","","","-35","","NA"
"-121.67","69.67","KEATS POINT","2202663","2018-01-10 10:00","2018","01","10","10:00","-23.6","","","","","M","","","27","","22","","","","98.40","","","","-36","","NA"
"-121.67","69.67","KEATS POINT","2202663","2018-01-10 11:00","2018","01","10","11:00","-24.4","","","","","M","","","25","","20","","","","98.37","","","","-36","","NA"
"-121.67","69.67","KEATS POINT","2202663","2018-01-10 12:00","2018","01","10","12:00","-23.9","","","","","M","","","26","","22","","","","98.40","","","","-36","","NA"
"-121.67","69.67","KEATS POINT","2202663","2018-01-10 13:00","2018","01","10","13:00","-23.9","","","","","M","","","27","","20","","","","98.40","","","","-35","","NA"
"-121.67","69.67","KEATS POINT","2202663","2018-01-10 14:00","2018","01","10","14:00","-24.1","","","","","M","","","26","","22","","","","98.42","","","","-36","","NA"
"-121.67","69.67","KEATS POINT","2202663","2018-01-10 15:00","2018","01","10","15:00","-23.5","","","","","M","","","27","","24","","","","98.42","","","","-36","","NA"
"-121.67","69.67","KEATS POINT","2202663","2018-01-10 16:00","2018","01","10","16:00","-23.0","","","","","M","","","28","","20","","","","98.43","","","","-34","","NA"
"-121.67","69.67","KEATS POINT","2202663","2018-01-10 17:00","2018","01","10","17:00","-22.3","","","","","M","","","29","","31","","","","98.43","","","","-36","","NA"
"-121.67","69.67","KEATS POINT","2202663","2018-01-10 18:00","2018","01","10","18:00","-22.5","","","","","M","","","28","","20","","","","98.47","","","","-34","","NA"
"-121.67","69.67","KEATS POINT","2202663","2018-01-10 19:00","2018","01","10","19:00","-22.3","","","","","M","","","28","","17","","","","98.48","","","","-33","","NA"
"-121.67","69.67","KEATS POINT","2202663","2018-01-10 20:00","2018","01","10","20:00","-22.8","","","","","M","","","28","","15","","","","98.48","","","","-33","","NA"
"-121.67","69.67","KEATS POINT","2202663","2018-01-10 21:00","2018","01","10","21:00","-22.5","","","","","M","","","26","","13","","","","98.46","","","","-31","","NA"
"-121.67","69.67","KEATS POINT","2202663","2018-01-10 22:00","2018","01","10","22:00","-23.4","","","","","M","","","24","","19","","","","98.45","","","","-34","","NA"
"-121.67","69.67","KEATS POINT","2202663","2018-01-10 23:00","2018","01","10","23:00","-23.1","","","","","M","","","26","","13","","","","98.44","","","","-32","","NA"
"-121.67","69.67","KEATS POINT","2202663","2018-01-11 00:00","2018","01","11","00:00","-23.2","","","","","M","","","28","","15","","","","98.43","","","","-33","","NA"
"-121.67","69.67","KEATS POINT","2202663","2018-01-11 01:00","2018","01","11","01:00","-23.2","","","","","M","","","25","","11","","","","98.46","","","","-31","","NA"
"-121.67","69.67","KEATS POINT","2202663","2018-01-11 02:00","2018","01","11","02:00","-23.3","","","","","M","","","25","","15","","","","98.50","","","","-33","","NA"
"-121.67","69.67","KEATS POINT","2202663","2018-01-11 03:00","2018","01","11","03:00","-23.2","","","","","M","","","24","","26","","","","98.49","","","","-36","","NA"
"-121.67","69.67","KEATS POINT","2202663","2018-01-11 04:00","2018","01","11","04:00","-23.6","","","","","M","","","24","","26","","","","98.50","","","","-36","","NA"
"-121.67","69.67","KEATS POINT","2202663","2018-01-11 05:00","2018","01","11","05:00","-23.7","","","","","M","","","25","","35","","","","98.48","","","","-38","","NA"
"-121.67","69.67","KEATS POINT","2202663","2018-01-11 06:00","2018","01","11","06:00","-23.9","","","","","M","","","24","","33","","","","98.46","","","","-38","","NA"
"-121.67","69.67","KEATS POINT","2202663","2018-01-11 07:00","2018","01","11","07:00","-23.6","","","","","M","","","23","","26","","","","98.47","","","","-36","","NA"
"-121.67","69.67","KEATS POINT","2202663","2018-01-11 08:00","2018","01","11","08:00","-22.9","","","","","M","","","25","","22","","","","98.45","","","","-35","","NA"
"-121.67","69.67","KEATS POINT","2202663","2018-01-11 09:00","2018","01","11","09:00","-21.9","","","","","M","","","26","","17","","","","98.42","","","","-32","","NA"
"-121.67","69.67","KEATS POINT","2202663","2018-01-11 10:00","2018","01","11","10:00","-21.9","","","","","M","","","25","","22","","","","98.40","","","","-33","","NA"
"-121.67","69.67","KEATS POINT","2202663","2018-01-11 11:00","2018","01","11","11:00","-22.4","","","","","M","","","26","","26","","","","98.40","","","","-35","","NA"
"-121.67","69.67","KEATS POINT","2202663","2018-01-11 12:00","2018","01","11","12:00","-22.1","","","","","M","","","24","","24","","","","98.41","","","","-34","","NA"
"-121.67","69.67","KEATS POINT","2202663","2018-01-11 13:00","2018","01","11","13:00","-22.3","","","","","M","","","26","","26","","","","98.37","","","","-35","","NA"
"-121.67","69.67","KEATS POINT","2202663","2018-01-11 14:00","2018","01","11","14:00","-22.3","","","","","M","","","24","","26","","","","98.40","","","","-35","","NA"
"-121.67","69.67","KEATS POINT","2202663","2018-01-11 15:00","2018","01","11","15:00","-22.0","","","","","M","","","24","","28","","","","98.39","","","","-35","","NA"
"-121.67","69.67","KEATS POINT","2202663","2018-01-11 16:00","2018","01","11","16:00","-22.0","","","","","M","","","24","","31","","","","98.35","","","","-35","","NA"
"-121.67","69.67","KEATS POINT","2202663","2018-01-11 17:00","2018","01","11","17:00","-21.4","","","","","M","","","24","","31","","","","98.29","","","","-35","","NA"
"-121.67","69.67","KEATS POINT","2202663","2018-01-11 18:00","2018","01","11","18:00","-21.7","","","","","M","","","23","","31","","","","98.26","","","","-35","","NA"
"-121.67","69.67","KEATS POINT","2202663","2018-01-11 19:00","2018","01","11","19:00","-21.2","","","","","M","","","22","","37","","","","98.25","","","","-35","","NA"
"-121.67","69.67","KEATS POINT","2202663","2018-01-11 20:00","2018","01","11","20:00","-20.8","","","","","M","","","23","","33","","","","98.22","","","","-34","","NA"
"-121.67","69.67","KEATS POINT","2202663","2018-01-11 21:00","2018","01","11","21:00","-20.4","","","","","M","","","23","","41","","","","98.15","","","","-35","","NA"
"-121.67","69.67","KEATS POINT","2202663","2018-01-11 22:00","2018","01","11","22:00","-21.6","","","","","M","","","23","","33","","","","98.10","","","","-35","","NA"
"-121.67","69.67","KEATS POINT","2202663","2018-01-11 23:00","2018","01","11","23:00","-21.0","","","","","M","","","22","","41","","","","98.06","","","","-36","","NA"
"-121.67","69.67","KEATS POINT","2202663","2018-01-12 00:00","2018","01","12","00:00","-20.8","","","","","M","","","22","","41","","","","98.04","","","","-35","","NA"
"-121.67","69.67","KEATS POINT","2202663","2018-01-12 01:00","2018","01","12","01:00","-20.9","","","","","M","","","22","","48","","","","98.01","","","","-36","","NA"
"-121.67","69.67","KEATS POINT","2202663","2018-01-12 02:00","2018","01","12","02:00","-20.8","","","","","M","","","22","","48","","","","97.99","","","","-36","","NA"
"-121.67","69.67","KEATS POINT","2202663","2018-01-12 03:00","2018","01","12","03:00","-20.9","","","","","M","","","22","","44","","","","97.98","","","","-36","","NA"
"-121.67","69.67","KEATS POINT","2202663","2018-01-12 04:00","2018","01","12","04:00","-21.0","","","","","M","","","22","","48","","","","97.92","","","","-37","","NA"
"-121.67","69.67","KEATS POINT","2202663","2018-01-12 05:00","2018","01","12","05:00","-20.8","","","","","M","","","22","","54","","","","97.89","","","","-37","","NA"
"-121.67","69.67","KEATS POINT","2202663","2018-01-12 06:00","2018","01","12","06:00","-20.3","","","","","M","","","22","","52","","","","97.85","","","","-36","","NA"
"-121.67","69.67","KEATS POINT","2202663","2018-01-12 07:00","2018","01","12","07:00","-20.2","","","","","M","","","22","","50","","","","97.81","","","","-36","","NA"
"-121.67","69.67","KEATS POINT","2202663","2018-01-12 08:00","2018","01","12","08:00","-20.6","","","","","M","","","22","","43","","","","97.77","","","","-35","","NA"
"-121.67","69.67","KEATS POINT","2202663","2018-01-12 09:00","2018","01","12","09:00","-20.9","","","","","M","","","22","","44","","","","97.71","","","","-36","","NA"
"-121.67","69.67","KEATS POINT","2202663","2018-01-12 10:00","2018","01","12","10:00","-20.3","","","","","M","","","23","","46","","","","97.70","","","","-35","","NA"
"-121.67","69.67","KEATS POINT","2202663","2018-01-12 11:00","2018","01","12","11:00","-20.1","","","","","M","","","22","","52","","","","97.63","","","","-36","","NA"
"-121.67","69.67","KEATS POINT","2202663","2018-01-12 12:00","2018","01","12","12:00","-19.9","","","","","M","","","22","","50","","","","97.56","","","","-35","","NA"
"-121.67","69.67","KEATS POINT","2202663","2018-01-12 13:00","2018","01","12","13:00","-19.6","","","","","M","","","22","","46","","","","97.55","","","","-34","","NA"
"-121.67","69.67","KEATS POINT","2202663","2018-01-12 14:00","2018","01","12","14:00","-19.9","","","","","M","","","22","","54","","","","97.54","","","","-36","","NA"
"-121.67","69.67","KEATS POINT","2202663","2018-01-12 15:00","2018","01","12","15:00","-20.5","","","","","M","","","23","","44","","","","97.54","","","","-35","","NA"
"-121.67","69.67","KEATS POINT","2202663","2018-01-12 16:00","2018","01","12","16:00","-20.8","","","","","M","","","23","","48","","","","97.54","","","","-36","","NA"
"-121.67","69.67","KEATS POINT","2202663","2018-01-12 17:00","2018","01","12","17:00","-20.9","","","","","M","","","22","","48","","","","97.52","","","","-36","","NA"
"-121.67","69.67","KEATS POINT","2202663","2018-01-12 18:00","2018","01","12","18:00","-21.9","","","","","M","","","23","","41","","","","97.54","","","","-37","","NA"
"-121.67","69.67","KEATS POINT","2202663","2018-01-12 19:00","2018","01","12","19:00","-23.2","","","","","M","","","23","","31","","","","97.50","","","","-37","","NA"
"-121.67","69.67","KEATS POINT","2202663","2018-01-12 20:00","2018","01","12","20:00","-21.5","","","","","M","","","23","","43","","","","97.52","","","","-37","","NA"
"-121.67","69.67","KEATS POINT","2202663","2018-01-12 21:00","2018","01","12","21:00","-23.4","","","","","M","","","23","","31","","","","97.50","","","","-37","","NA"
"-121.67","69.67","KEATS POINT","2202663","2018-01-12 22:00","2018","01","12","22:00","-23.3","","","","","M","","","23","","26","","","","97.54","","","","-36","","NA"
"-121.67","69.67","KEATS POINT","2202663","2018-01-12 23:00","2018","01","12","23:00","-23.8","","","","","M","","","23","","33","","","","97.54","","","","-38","","NA"
"-121.67","69.67","KEATS POINT","2202663","2018-01-13 00:00","2018","01","13","00:00","-24.3","","","","","M","","","23","","39","","","","97.59","","","","-40","","NA"
"-121.67","69.67","KEATS POINT","2202663","2018-01-13 01:00","2018","01","13","01:00","-24.4","","","","","M","","","25","","35","","","","97.63","","","","-39","","NA"
"-121.67","69.67","KEATS POINT","2202663","2018-01-13 02:00","2018","01","13","02:00","-24.1","","","","","M","","","25","","33","","","","97.70","","","","-38","","NA"
"-121.67","69.67","KEATS POINT","2202663","2018-01-13 03:00","2018","01","13","03:00","-23.7","","","","","M","","","24","","41","","","","97.73","","","","-39","","NA"
"-121.67","69.67","KEATS POINT","2202663","2018-01-13 04:00","2018","01","13","04:00","-23.6","","","","","M","","","25","","35","","","","97.78","","","","-38","","NA"
"-121.67","69.67","KEATS POINT","2202663","2018-01-13 05:00","2018","01","13","05:00","-23.1","","","","","M","","","25","","35","","","","97.78","","","","-37","","NA"
"-121.67","69.67","KEATS POINT","2202663","2018-01-13 06:00","2018","01","13","06:00","-22.7","","","","","M","","","28","","26","","","","97.90","","","","-35","","NA"
"-121.67","69.67","KEATS POINT","2202663","2018-01-13 07:00","2018","01","13","07:00","-24.0","","","","","M","","","25","","30","","","","97.93","","","","-38","","NA"
"-121.67","69.67","KEATS POINT","2202663","2018-01-13 08:00","2018","01","13","08:00","-23.6","","","","","M","","","25","","30","","","","97.99","","","","-37","","NA"
"-121.67","69.67","KEATS POINT","2202663","2018-01-13 09:00","2018","01","13","09:00","-23.8","","","","","M","","","23","","22","","","","98.06","","","","-36","","NA"
"-121.67","69.67","KEATS POINT","2202663","2018-01-13 10:00","2018","01","13","10:00","-22.8","","","","","M","","","23","","20","","","","98.15","","","","-34","","NA"
"-121.67","69.67","KEATS POINT","2202663","2018-01-13 11:00","2018","01","13","11:00","-23.7","","","","","M","","","24","","26","","","","98.17","","","","-37","","NA"
"-121.67","69.67","KEATS POINT","2202663","2018-01-13 12:00","2018","01","13","12:00","-24.9","","","","","M","","","22","","35","","","","98.23","","","","-40","","NA"
"-121.67","69.67","KEATS POINT","2202663","2018-01-13 13:00","2018","01","13","13:00","-23.4","","","","","M","","","23","","37","","","","98.34","","","","-38","","NA"
"-121.67","69.67","KEATS POINT","2202663","2018-01-13 14:00","2018","01","13","14:00","-24.2","","","","","M","","","23","","37","","","","98.44","","","","-39","","NA"
"-121.67","69.67","KEATS POINT","2202663","2018-01-13 15:00","2018","01","13","15:00","-24.0","","","","","M","","","23","","33","","","","98.57","","","","-38","","NA"
"-121.67","69.67","KEATS POINT","2202663","2018-01-13 16:00","2018","01","13","16:00","-23.6","","","","","M","","","23","","28","","","","98.64","","","","-37","","NA"
"-121.67","69.67","KEATS POINT","2202663","2018-01-13 17:00","2018","01","13","17:00","-22.2","","","","","M","","","23","","22","","","","98.71","","","","-34","","NA"
"-121.67","69.67","KEATS POINT","2202663","2018-01-13 18:00","2018","01","13","18:00","-20.3","","","","","M","","","22","","7","","","","98.77","","","","-26","","NA"
"-121.67","69.67","KEATS POINT","2202663","2018-01-13 19:00","2018","01","13","19:00","-19.3","","","","","M","","","22","","6","","","","98.80","","","","-24","","NA"
"-121.67","69.67","KEATS POINT","2202663","2018-01-13 20:00","2018","01","13","20:00","-19.8","","","","","M","","","9","","9","","","","98.84","","","","-27","","NA"
"-121.67","69.67","KEATS POINT","2202663","2018-01-13 21:00","2018","01","13","21:00","-19.5","","","","","M","","","7","","6","","","","98.83","","","","-24","","NA"
"-121.67","69.67","KEATS POINT","2202663","2018-01-13 22:00","2018","01","13","22:00","-19.2","","","","","M","","","8","","7","","","","98.86","","","","-25","","NA"
"-121.67","69.67","KEATS POINT","2202663","2018-01-13 23:00","2018","01","13","23:00","-18.9","","","","","M","","","17","","9","","","","98.85","","","","-25","","NA"
"-121.67","69.67","KEATS POINT","2202663","2018-01-14 00:00","2018","01","14","00:00","-17.9","","","","","M","","","9","","13","","","","98.89","","","","-26","","NA"
"-121.67","69.67","KEATS POINT","2202663","2018-01-14 01:00","2018","01","14","01:00","-17.7","","","","","M","","","12","","15","","","","98.91","","","","-26","","NA"
"-121.67","69.67","KEATS POINT","2202663","2018-01-14 02:00","2018","01","14","02:00","-16.2","","","","","M","","","15","","13","","","","98.90","","","","-24","","NA"
"-121.67","69.67","KEATS POINT","2202663","2018-01-14 03:00","2018","01","14","03:00","-14.7","","","","","M","","","16","","24","","","","98.91","","","","-25","","NA"
"-121.67","69.67","KEATS POINT","2202663","2018-01-14 04:00","2018","01","14","04:00","-14.5","","","","","M","","","15","","33","","","","98.83","","","","-26","","NA"
"-121.67","69.67","KEATS POINT","2202663","2018-01-14 05:00","2018","01","14","05:00","-13.7","","","","","M","","","14","","37","","","","98.76","","","","-25","","NA"
"-121.67","69.67","KEATS POINT","2202663","2018-01-14 06:00","2018","01","14","06:00","-12.7","","","","","M","","","16","","39","","","","98.74","","","","-24","","NA"
"-121.67","69.67","KEATS POINT","2202663","2018-01-14 07:00","2018","01","14","07:00","-13.2","","","","","M","","","14","","35","","","","98.53","","","","-24","","NA"
"-121.67","69.67","KEATS POINT","2202663","2018-01-14 08:00","2018","01","14","08:00","-12.7","","","","","M","","","15","","35","","","","98.45","","","","-24","","NA"
"-121.67","69.67","KEATS POINT","2202663","2018-01-14 09:00","2018","01","14","09:00","-12.3","","","","","M","","","16","","46","","","","98.22","","","","-25","","NA"
"-121.67","69.67","KEATS POINT","2202663","2018-01-14 10:00","2018","01","14","10:00","-11.8","","","","","M","","","15","","46","","","","98.07","","","","-24","","NA"
"-121.67","69.67","KEATS POINT","2202663","2018-01-14 11:00","2018","01","14","11:00","-10.4","","","","","M","","","15","","52","","","","97.82","","","","-22","","NA"
"-121.67","69.67","KEATS POINT","2202663","2018-01-14 12:00","2018","01","14","12:00","-10.4","","","","","M","","","15","","35","","","","97.82","","","","-21","","NA"
"-121.67","69.67","KEATS POINT","2202663","2018-01-14 13:00","2018","01","14","13:00","-4.9","","","","","M","","","13","","15","","","","97.64","","","","-10","","NA"
"-121.67","69.67","KEATS POINT","2202663","2018-01-14 14:00","2018","01","14","14:00","-6.6","","","","","M","","","19","","19","","","","97.42","","","","-13","","NA"
"-121.67","69.67","KEATS POINT","2202663","2018-01-14 15:00","2018","01","14","15:00","-10.3","","","","","M","","","32","","11","","","","97.14","","","","-16","","NA"
"-121.67","69.67","KEATS POINT","2202663","2018-01-14 16:00","2018","01","14","16:00","-8.2","","","","","M","","","","M","","M","","","96.80","","","","","","NA"
"-121.67","69.67","KEATS POINT","2202663","2018-01-14 17:00","2018","01","14","17:00","-8.3","","","","","M","","","","M","","M","","","96.48","","","","","","NA"
"-121.67","69.67","KEATS POINT","2202663","2018-01-14 18:00","2018","01","14","18:00","-9.9","","","","","M","","","","M","","M","","","96.53","","","","","","NA"
"-121.67","69.67","KEATS POINT","2202663","2018-01-14 19:00","2018","01","14","19:00","-10.0","","","","","M","","","21","","72","","","","96.44","","","","-23","","NA"
"-121.67","69.67","KEATS POINT","2202663","2018-01-14 20:00","2018","01","14","20:00","-10.1","","","","","M","","","21","","57","","","","96.43","","","","-23","","NA"
"-121.67","69.67","KEATS POINT","2202663","2018-01-14 21:00","2018","01","14","21:00","-9.5","","","","","M","","","21","","50","","","","96.39","","","","-21","","NA"
"-121.67","69.67","KEATS POINT","2202663","2018-01-14 22:00","2018","01","14","22:00","-9.1","","","","","M","","","21","","39","","","","96.36","","","","-19","","NA"
"-121.67","69.67","KEATS POINT","2202663","2018-01-14 23:00","2018","01","14","23:00","-8.7","","","","","M","","","21","","43","","","","96.32","","","","-19","","NA"
"-121.67","69.67","KEATS POINT","2202663","2018-01-15 00:00","2018","01","15","00:00","-7.9","","","","","M","","","21","","39","","","","96.29","","","","-18","","NA"
"-121.67","69.67","KEATS POINT","2202663","2018-01-15 01:00","2018","01","15","01:00","-6.9","","","","","M","","","19","","39","","","","96.29","","","","-17","","NA"
"-121.67","69.67","KEATS POINT","2202663","2018-01-15 02:00","2018","01","15","02:00","-5.7","","","","","M","","","24","","6","","","","96.34","","","","-9","","NA"
"-121.67","69.67","KEATS POINT","2202663","2018-01-15 03:00","2018","01","15","03:00","-7.5","","","","","M","","","15","","17","","","","96.37","","","","-14","","NA"
"-121.67","69.67","KEATS POINT","2202663","2018-01-15 04:00","2018","01","15","04:00","-5.9","","","","","M","","","5","","4","","","","96.32","","","","-8","","NA"
"-121.67","69.67","KEATS POINT","2202663","2018-01-15 05:00","2018","01","15","05:00","-7.6","","","","","M","","","27","","7","","","","96.32","","","","-11","","NA"
"-121.67","69.67","KEATS POINT","2202663","2018-01-15 06:00","2018","01","15","06:00","-7.1","","","","","M","","","5","","7","","","","96.27","","","","-11","","NA"
"-121.67","69.67","KEATS POINT","2202663","2018-01-15 07:00","2018","01","15","07:00","-6.3","","","","","M","","","36","","9","","","","96.24","","","","-11","","NA"
"-121.67","69.67","KEATS POINT","2202663","2018-01-15 08:00","2018","01","15","08:00","-8.9","","","","","M","","","11","","17","","","","96.23","","","","-16","","NA"
"-121.67","69.67","KEATS POINT","2202663","2018-01-15 09:00","2018","01","15","09:00","-9.3","","","","","M","","","10","","13","","","","96.25","","","","-15","","NA"
"-121.67","69.67","KEATS POINT","2202663","2018-01-15 10:00","2018","01","15","10:00","-7.9","","","","","M","","","11","","20","","","","96.25","","","","-15","","NA"
"-121.67","69.67","KEATS POINT","2202663","2018-01-15 11:00","2018","01","15","11:00","-8.0","","","","","M","","","12","","24","","","","96.19","","","","-16","","NA"
"-121.67","69.67","KEATS POINT","2202663","2018-01-15 12:00","2018","01","15","12:00","-6.2","","","","","M","","","12","","22","","","","96.13","","","","-13","","NA"
"-121.67","69.67","KEATS POINT","2202663","2018-01-15 13:00","2018","01","15","13:00","-7.0","","","","","M","","","11","","20","","","","96.12","","","","-14","","NA"
"-121.67","69.67","KEATS POINT","2202663","2018-01-15 14:00","2018","01","15","14:00","-7.2","","","","","M","","","10","","20","","","","96.11","","","","-14","","NA"
"-121.67","69.67","KEATS POINT","2202663","2018-01-15 15:00","2018","01","15","15:00","-3.6","","","","","M","","","12","","17","","","","96.09","","","","-9","","NA"
"-121.67","69.67","KEATS POINT","2202663","2018-01-15 16:00","2018","01","15","16:00","-3.3","","","","","M","","","12","","20","","","","96.04","","","","-9","","NA"
"-121.67","69.67","KEATS POINT","2202663","2018-01-15 17:00","2018","01","15","17:00","-7.2","","","","","M","","","10","","17","","","","96.06","","","","-14","","NA"
"-121.67","69.67","KEATS POINT","2202663","2018-01-15 18:00","2018","01","15","18:00","-8.7","","","","","M","","","9","","20","","","","96.05","","","","-16","","NA"
"-121.67","69.67","KEATS POINT","2202663","2018-01-15 19:00","2018","01","15","19:00","-5.7","","","","","M","","","4","","6","","","","96.10","","","","-9","","NA"
"-121.67","69.67","KEATS POINT","2202663","2018-01-15 20:00","2018","01","15","20:00","-7.4","","","","","M","","","","M","","M","","","96.07","","","","","","NA"
"-121.67","69.67","KEATS POINT","2202663","2018-01-15 21:00","2018","01","15","21:00","-6.8","","","","","M","","","","M","","M","","","96.08","","","","","","NA"
"-121.67","69.67","KEATS POINT","2202663","2018-01-15 22:00","2018","01","15","22:00","-6.6","","","","","M","","","","M","","M","","","96.06","","","","","","NA"
"-121.67","69.67","KEATS POINT","2202663","2018-01-15 23:00","2018","01","15","23:00","-7.9","","","","","M","","","","M","","M","","","96.19","","","","","","NA"
"-121.67","69.67","KEATS POINT","2202663","2018-01-16 00:00","2018","01","16","00:00","-4.4","","","","","M","","","","M","","M","","","96.28","","","","","","NA"
"-121.67","69.67","KEATS POINT","2202663","2018-01-16 01:00","2018","01","16","01:00","-5.6","","","","","M","","","","M","","M","","","96.37","","","","","","NA"
"-121.67","69.67","KEATS POINT","2202663","2018-01-16 02:00","2018","01","16","02:00","-5.6","","","","","M","","","","M","","M","","","96.44","","","","","","NA"
"-121.67","69.67","KEATS POINT","2202663","2018-01-16 03:00","2018","01","16","03:00","-5.3","","","","","M","","","","M","","M","","","96.51","","","","","","NA"
"-121.67","69.67","KEATS POINT","2202663","2018-01-16 04:00","2018","01","16","04:00","-5.5","","","","","M","","","","M","","M","","","96.58","","","","","","NA"
"-121.67","69.67","KEATS POINT","2202663","2018-01-16 05:00","2018","01","16","05:00","-6.1","","","","","M","","","","M","","M","","","96.61","","","","","","NA"
"-121.67","69.67","KEATS POINT","2202663","2018-01-16 06:00","2018","01","16","06:00","-6.3","","","","","M","","","","M","","M","","","96.67","","","","","","NA"
"-121.67","69.67","KEATS POINT","2202663","2018-01-16 07:00","2018","01","16","07:00","-7.7","","","","","M","","","","M","","M","","","96.71","","","","","","NA"
"-121.67","69.67","KEATS POINT","2202663","2018-01-16 08:00","2018","01","16","08:00","-6.6","","","","","M","","","","M","","M","","","96.72","","","","","","NA"
"-121.67","69.67","KEATS POINT","2202663","2018-01-16 09:00","2018","01","16","09:00","-7.0","","","","","M","","","","M","","M","","","96.76","","","","","","NA"
"-121.67","69.67","KEATS POINT","2202663","2018-01-16 10:00","2018","01","16","10:00","-6.8","","","","","M","","","","M","","M","","","96.78","","","","","","NA"
"-121.67","69.67","KEATS POINT","2202663","2018-01-16 11:00","2018","01","16","11:00","-8.0","","","","","M","","","","M","","M","","","96.79","","","","","","NA"
"-121.67","69.67","KEATS POINT","2202663","2018-01-16 12:00","2018","01","16","12:00","-8.7","","","","","M","","","","M","","M","","","96.77","","","","","","NA"
"-121.67","69.67","KEATS POINT","2202663","2018-01-16 13:00","2018","01","16","13:00","-9.5","","","","","M","","","","M","","M","","","96.78","","","","","","NA"
"-121.67","69.67","KEATS POINT","2202663","2018-01-16 14:00","2018","01","16","14:00","-9.9","","","","","M","","","","M","","M","","","96.79","","","","","","NA"
"-121.67","69.67","KEATS POINT","2202663","2018-01-16 15:00","2018","01","16","15:00","-10.6","","","","","M","","","","M","","M","","","96.86","","","","","","NA"
"-121.67","69.67","KEATS POINT","2202663","2018-01-16 16:00","2018","01","16","16:00","-11.5","","","","","M","","","","M","","M","","","96.84","","","","","","NA"
"-121.67","69.67","KEATS POINT","2202663","2018-01-16 17:00","2018","01","16","17:00","-7.5","","","","","M","","","","M","","M","","","96.84","","","","","","NA"
"-121.67","69.67","KEATS POINT","2202663","2018-01-16 18:00","2018","01","16","18:00","-8.5","","","","","M","","","","M","","M","","","96.80","","","","","","NA"
"-121.67","69.67","KEATS POINT","2202663","2018-01-16 19:00","2018","01","16","19:00","-9.9","","","","","M","","","","M","","M","","","96.76","","","","","","NA"
"-121.67","69.67","KEATS POINT","2202663","2018-01-16 20:00","2018","01","16","20:00","-11.5","","","","","M","","","","M","","M","","","96.73","","","","","","NA"
"-121.67","69.67","KEATS POINT","2202663","2018-01-16 21:00","2018","01","16","21:00","-11.6","","","","","M","","","","M","","M","","","96.72","","","","","","NA"
"-121.67","69.67","KEATS POINT","2202663","2018-01-16 22:00","2018","01","16","22:00","-11.9","","","","","M","","","","M","","M","","","96.65","","","","","","NA"
"-121.67","69.67","KEATS POINT","2202663","2018-01-16 23:00","2018","01","16","23:00","-11.5","","","","","M","","","","M","","M","","","96.65","","","","","","NA"
"-121.67","69.67","KEATS POINT","2202663","2018-01-17 00:00","2018","01","17","00:00","-12.1","","","","","M","","","","M","","M","","","96.71","","","","","","NA"
"-121.67","69.67","KEATS POINT","2202663","2018-01-17 01:00","2018","01","17","01:00","-12.6","","","","","M","","","","M","","M","","","96.71","","","","","","NA"
"-121.67","69.67","KEATS POINT","2202663","2018-01-17 02:00","2018","01","17","02:00","-12.5","","","","","M","","","","M","","M","","","96.70","","","","","","NA"
"-121.67","69.67","KEATS POINT","2202663","2018-01-17 03:00","2018","01","17","03:00","-12.2","","","","","M","","","","M","","M","","","96.70","","","","","","NA"
"-121.67","69.67","KEATS POINT","2202663","2018-01-17 04:00","2018","01","17","04:00","-12.0","","","","","M","","","","M","","M","","","96.74","","","","","","NA"
"-121.67","69.67","KEATS POINT","2202663","2018-01-17 05:00","2018","01","17","05:00","-12.1","","","","","M","","","","M","","M","","","96.72","","","","","","NA"
"-121.67","69.67","KEATS POINT","2202663","2018-01-17 06:00","2018","01","17","06:00","-12.1","","","","","M","","","","M","","M","","","96.64","","","","","","NA"
"-121.67","69.67","KEATS POINT","2202663","2018-01-17 07:00","2018","01","17","07:00","-12.8","","","","","M","","","","M","","M","","","96.59","","","","","","NA"
"-121.67","69.67","KEATS POINT","2202663","2018-01-17 08:00","2018","01","17","08:00","-12.4","","","","","M","","","","M","","M","","","96.58","","","","","","NA"
"-121.67","69.67","KEATS POINT","2202663","2018-01-17 09:00","2018","01","17","09:00","-12.5","","","","","M","","","","M","","M","","","96.54","","","","","","NA"
"-121.67","69.67","KEATS POINT","2202663","2018-01-17 10:00","2018","01","17","10:00","-12.1","","","","","M","","","","M","","M","","","96.52","","","","","","NA"
"-121.67","69.67","KEATS POINT","2202663","2018-01-17 11:00","2018","01","17","11:00","-11.4","","","","","M","","","","M","","M","","","96.52","","","","","","NA"
"-121.67","69.67","KEATS POINT","2202663","2018-01-17 12:00","2018","01","17","12:00","-12.1","","","","","M","","","","M","","M","","","96.54","","","","","","NA"
"-121.67","69.67","KEATS POINT","2202663","2018-01-17 13:00","2018","01","17","13:00","-12.2","","","","","M","","","","M","","M","","","96.47","","","","","","NA"
"-121.67","69.67","KEATS POINT","2202663","2018-01-17 14:00","2018","01","17","14:00","-14.0","","","","","M","","","","M","","M","","","96.50","","","","","","NA"
"-121.67","69.67","KEATS POINT","2202663","2018-01-17 15:00","2018","01","17","15:00","-12.6","","","","","M","","","","M","","M","","","96.44","","","","","","NA"
"-121.67","69.67","KEATS POINT","2202663","2018-01-17 16:00","2018","01","17","16:00","-13.0","","","","","M","","","","M","","M","","","96.40","","","","","","NA"
"-121.67","69.67","KEATS POINT","2202663","2018-01-17 17:00","2018","01","17","17:00","-13.5","","","","","M","","","","M","","M","","","96.35","","","","","","NA"
"-121.67","69.67","KEATS POINT","2202663","2018-01-17 18:00","2018","01","17","18:00","-12.5","","","","","M","","","","M","","M","","","96.33","","","","","","NA"
"-121.67","69.67","KEATS POINT","2202663","2018-01-17 19:00","2018","01","17","19:00","-11.6","","","","","M","","","","M","","M","","","96.32","","","","","","NA"
"-121.67","69.67","KEATS POINT","2202663","2018-01-17 20:00","2018","01","17","20:00","-12.3","","","","","M","","","","M","","M","","","96.26","","","","","","NA"
"-121.67","69.67","KEATS POINT","2202663","2018-01-17 21:00","2018","01","17","21:00","-12.2","","","","","M","","","","M","","M","","","96.22","","","","","","NA"
"-121.67","69.67","KEATS POINT","2202663","2018-01-17 22:00","2018","01","17","22:00","-12.7","","","","","M","","","","M","","M","","","96.17","","","","","","NA"
"-121.67","69.67","KEATS POINT","2202663","2018-01-17 23:00","2018","01","17","23:00","-13.6","","","","","M","","","","M","","M","","","96.15","","","","","","NA"
"-121.67","69.67","KEATS POINT","2202663","2018-01-18 00:00","2018","01","18","00:00","-14.1","","","","","M","","","","M","","M","","","96.15","","","","","","NA"
"-121.67","69.67","KEATS POINT","2202663","2018-01-18 01:00","2018","01","18","01:00","-14.5","","","","","M","","","","M","","M","","","96.14","","","","","","NA"
"-121.67","69.67","KEATS POINT","2202663","2018-01-18 02:00","2018","01","18","02:00","-14.4","","","","","M","","","","M","","M","","","96.08","","","","","","NA"
"-121.67","69.67","KEATS POINT","2202663","2018-01-18 03:00","2018","01","18","03:00","-13.8","","","","","M","","","","M","","M","","","96.06","","","","","","NA"
"-121.67","69.67","KEATS POINT","2202663","2018-01-18 04:00","2018","01","18","04:00","-13.7","","","","","M","","","","M","","M","","","96.06","","","","","","NA"
"-121.67","69.67","KEATS POINT","2202663","2018-01-18 05:00","2018","01","18","05:00","-13.9","","","","","M","","","","M","","M","","","96.02","","","","","","NA"
"-121.67","69.67","KEATS POINT","2202663","2018-01-18 06:00","2018","01","18","06:00","-13.8","","","","","M","","","","M","","M","","","96.01","","","","","","NA"
"-121.67","69.67","KEATS POINT","2202663","2018-01-18 07:00","2018","01","18","07:00","-14.3","","","","","M","","","","M","","M","","","95.93","","","","","","NA"
"-121.67","69.67","KEATS POINT","2202663","2018-01-18 08:00","2018","01","18","08:00","-14.2","","","","","M","","","","M","","M","","","95.96","","","","","","NA"
"-121.67","69.67","KEATS POINT","2202663","2018-01-18 09:00","2018","01","18","09:00","-14.6","","","","","M","","","","M","","M","","","95.97","","","","","","NA"
"-121.67","69.67","KEATS POINT","2202663","2018-01-18 10:00","2018","01","18","10:00","-15.4","","","","","M","","","","M","","M","","","95.99","","","","","","NA"
"-121.67","69.67","KEATS POINT","2202663","2018-01-18 11:00","2018","01","18","11:00","-16.5","","","","","M","","","","M","","M","","","95.96","","","","","","NA"
"-121.67","69.67","KEATS POINT","2202663","2018-01-18 12:00","2018","01","18","12:00","-15.8","","","","","M","","","","M","","M","","","95.96","","","","","","NA"
"-121.67","69.67","KEATS POINT","2202663","2018-01-18 13:00","2018","01","18","13:00","-15.7","","","","","M","","","","M","","M","","","96.00","","","","","","NA"
"-121.67","69.67","KEATS POINT","2202663","2018-01-18 14:00","2018","01","18","14:00","-16.3","","","","","M","","","","M","","M","","","95.97","","","","","","NA"
"-121.67","69.67","KEATS POINT","2202663","2018-01-18 15:00","2018","01","18","15:00","-16.3","","","","","M","","","","M","","M","","","95.98","","","","","","NA"
"-121.67","69.67","KEATS POINT","2202663","2018-01-18 16:00","2018","01","18","16:00","-16.9","","","","","M","","","","M","","M","","","96.00","","","","","","NA"
"-121.67","69.67","KEATS POINT","2202663","2018-01-18 17:00","2018","01","18","17:00","-16.9","","","","","M","","","","M","","M","","","96.01","","","","","","NA"
"-121.67","69.67","KEATS POINT","2202663","2018-01-18 18:00","2018","01","18","18:00","-17.2","","","","","M","","","","M","","M","","","96.02","","","","","","NA"
"-121.67","69.67","KEATS POINT","2202663","2018-01-18 19:00","2018","01","18","19:00","-18.6","","","","","M","","","","M","","M","","","96.03","","","","","","NA"
"-121.67","69.67","KEATS POINT","2202663","2018-01-18 20:00","2018","01","18","20:00","-19.1","","","","","M","","","","M","","M","","","96.02","","","","","","NA"
"-121.67","69.67","KEATS POINT","2202663","2018-01-18 21:00","2018","01","18","21:00","-19.3","","","","","M","","","","M","","M","","","96.03","","","","","","NA"
"-121.67","69.67","KEATS POINT","2202663","2018-01-18 22:00","2018","01","18","22:00","-19.5","","","","","M","","","","M","","M","","","96.10","","","","","","NA"
"-121.67","69.67","KEATS POINT","2202663","2018-01-18 23:00","2018","01","18","23:00","-19.4","","","","","M","","","","M","","M","","","96.09","","","","","","NA"
"-121.67","69.67","KEATS POINT","2202663","2018-01-19 00:00","2018","01","19","00:00","-19.4","","","","","M","","","","M","","M","","","96.09","","","","","","NA"
"-121.67","69.67","KEATS POINT","2202663","2018-01-19 01:00","2018","01","19","01:00","-19.9","","","","","M","","","","M","","M","","","96.11","","","","","","NA"
"-121.67","69.67","KEATS POINT","2202663","2018-01-19 02:00","2018","01","19","02:00","-19.2","","","","","M","","","","M","","M","","","96.13","","","","","","NA"
"-121.67","69.67","KEATS POINT","2202663","2018-01-19 03:00","2018","01","19","03:00","-19.7","","","","","M","","","","M","","M","","","96.23","","","","","","NA"
"-121.67","69.67","KEATS POINT","2202663","2018-01-19 04:00","2018","01","19","04:00","-19.0","","","","","M","","","","M","","M","","","96.33","","","","","","NA"
"-121.67","69.67","KEATS POINT","2202663","2018-01-19 05:00","2018","01","19","05:00","-20.6","","","","","M","","","","M","","M","","","96.33","","","","","","NA"
"-121.67","69.67","KEATS POINT","2202663","2018-01-19 06:00","2018","01","19","06:00","-19.3","","","","","M","","","","M","","M","","","96.32","","","","","","NA"
"-121.67","69.67","KEATS POINT","2202663","2018-01-19 07:00","2018","01","19","07:00","-18.3","","","","","M","","","","M","","M","","","96.36","","","","","","NA"
"-121.67","69.67","KEATS POINT","2202663","2018-01-19 08:00","2018","01","19","08:00","-17.9","","","","","M","","","","M","","M","","","96.39","","","","","","NA"
"-121.67","69.67","KEATS POINT","2202663","2018-01-19 09:00","2018","01","19","09:00","-18.5","","","","","M","","","","M","","M","","","96.37","","","","","","NA"
"-121.67","69.67","KEATS POINT","2202663","2018-01-19 10:00","2018","01","19","10:00","-17.6","","","","","M","","","","M","","M","","","96.41","","","","","","NA"
"-121.67","69.67","KEATS POINT","2202663","2018-01-19 11:00","2018","01","19","11:00","-17.4","","","","","M","","","","M","","M","","","96.44","","","","","","NA"
"-121.67","69.67","KEATS POINT","2202663","2018-01-19 12:00","2018","01","19","12:00","-16.9","","","","","M","","","","M","","M","","","96.47","","","","","","NA"
"-121.67","69.67","KEATS POINT","2202663","2018-01-19 13:00","2018","01","19","13:00","-16.4","","","","","M","","","","M","","M","","","96.48","","","","","","NA"
"-121.67","69.67","KEATS POINT","2202663","2018-01-19 14:00","2018","01","19","14:00","-16.1","","","","","M","","","","M","","M","","","96.53","","","","","","NA"
"-121.67","69.67","KEATS POINT","2202663","2018-01-19 15:00","2018","01","19","15:00","-15.9","","","","","M","","","","M","","M","","","96.55","","","","","","NA"
"-121.67","69.67","KEATS POINT","2202663","2018-01-19 16:00","2018","01","19","16:00","-15.6","","","","","M","","","","M","","M","","","96.60","","","","","","NA"
"-121.67","69.67","KEATS POINT","2202663","2018-01-19 17:00","2018","01","19","17:00","-15.0","","","","","M","","","","M","","M","","","96.64","","","","","","NA"
"-121.67","69.67","KEATS POINT","2202663","2018-01-19 18:00","2018","01","19","18:00","-15.0","","","","","M","","","","M","","M","","","96.65","","","","","","NA"
"-121.67","69.67","KEATS POINT","2202663","2018-01-19 19:00","2018","01","19","19:00","-14.4","","","","","M","","","","M","","M","","","96.66","","","","","","NA"
"-121.67","69.67","KEATS POINT","2202663","2018-01-19 20:00","2018","01","19","20:00","-14.1","","","","","M","","","","M","","M","","","96.69","","","","","","NA"
"-121.67","69.67","KEATS POINT","2202663","2018-01-19 21:00","2018","01","19","21:00","-13.9","","","","","M","","","","M","","M","","","96.69","","","","","","NA"
"-121.67","69.67","KEATS POINT","2202663","2018-01-19 22:00","2018","01","19","22:00","-15.1","","","","","M","","","","M","","M","","","96.74","","","","","","NA"
"-121.67","69.67","KEATS POINT","2202663","2018-01-19 23:00","2018","01","19","23:00","-15.2","","","","","M","","","","M","","M","","","96.78","","","","","","NA"
"-121.67","69.67","KEATS POINT","2202663","2018-01-20 00:00","2018","01","20","00:00","-14.9","","","","","M","","","","M","","M","","","96.79","","","","","","NA"
"-121.67","69.67","KEATS POINT","2202663","2018-01-20 01:00","2018","01","20","01:00","-15.4","","","","","M","","","","M","","M","","","96.83","","","","","","NA"
"-121.67","69.67","KEATS POINT","2202663","2018-01-20 02:00","2018","01","20","02:00","-15.5","","","","","M","","","","M","","M","","","96.88","","","","","","NA"
"-121.67","69.67","KEATS POINT","2202663","2018-01-20 03:00","2018","01","20","03:00","-15.7","","","","","M","","","","M","","M","","","96.91","","","","","","NA"
"-121.67","69.67","KEATS POINT","2202663","2018-01-20 04:00","2018","01","20","04:00","-15.8","","","","","M","","","","M","","M","","","96.93","","","","","","NA"
"-121.67","69.67","KEATS POINT","2202663","2018-01-20 05:00","2018","01","20","05:00","-15.7","","","","","M","","","","M","","M","","","96.95","","","","","","NA"
"-121.67","69.67","KEATS POINT","2202663","2018-01-20 06:00","2018","01","20","06:00","-15.5","","","","","M","","","","M","","M","","","97.00","","","","","","NA"
"-121.67","69.67","KEATS POINT","2202663","2018-01-20 07:00","2018","01","20","07:00","-15.7","","","","","M","","","","M","","M","","","97.01","","","","","","NA"
"-121.67","69.67","KEATS POINT","2202663","2018-01-20 08:00","2018","01","20","08:00","-15.4","","","","","M","","","","M","","M","","","97.05","","","","","","NA"
"-121.67","69.67","KEATS POINT","2202663","2018-01-20 09:00","2018","01","20","09:00","-15.0","","","","","M","","","","M","","M","","","97.08","","","","","","NA"
"-121.67","69.67","KEATS POINT","2202663","2018-01-20 10:00","2018","01","20","10:00","-15.7","","","","","M","","","","M","","M","","","97.11","","","","","","NA"
"-121.67","69.67","KEATS POINT","2202663","2018-01-20 11:00","2018","01","20","11:00","-15.7","","","","","M","","","","M","","M","","","97.18","","","","","","NA"
"-121.67","69.67","KEATS POINT","2202663","2018-01-20 12:00","2018","01","20","12:00","-15.9","","","","","M","","","","M","","M","","","97.22","","","","","","NA"
"-121.67","69.67","KEATS POINT","2202663","2018-01-20 13:00","2018","01","20","13:00","-15.4","","","","","M","","","","M","","M","","","97.25","","","","","","NA"
"-121.67","69.67","KEATS POINT","2202663","2018-01-20 14:00","2018","01","20","14:00","-15.9","","","","","M","","","","M","","M","","","97.28","","","","","","NA"
"-121.67","69.67","KEATS POINT","2202663","2018-01-20 15:00","2018","01","20","15:00","-16.6","","","","","M","","","","M","","M","","","97.31","","","","","","NA"
"-121.67","69.67","KEATS POINT","2202663","2018-01-20 16:00","2018","01","20","16:00","-17.2","","","","","M","","","","M","","M","","","97.39","","","","","","NA"
"-121.67","69.67","KEATS POINT","2202663","2018-01-20 17:00","2018","01","20","17:00","-17.5","","","","","M","","","","M","","M","","","97.40","","","","","","NA"
"-121.67","69.67","KEATS POINT","2202663","2018-01-20 18:00","2018","01","20","18:00","-17.9","","","","","M","","","","M","","M","","","97.42","","","","","","NA"
"-121.67","69.67","KEATS POINT","2202663","2018-01-20 19:00","2018","01","20","19:00","-17.9","","","","","M","","","","M","","M","","","97.45","","","","","","NA"
"-121.67","69.67","KEATS POINT","2202663","2018-01-20 20:00","2018","01","20","20:00","-18.0","","","","","M","","","","M","","M","","","97.45","","","","","","NA"
"-121.67","69.67","KEATS POINT","2202663","2018-01-20 21:00","2018","01","20","21:00","-18.0","","","","","M","","","","M","","M","","","97.50","","","","","","NA"
"-121.67","69.67","KEATS POINT","2202663","2018-01-20 22:00","2018","01","20","22:00","-18.8","","","","","M","","","","M","","M","","","97.58","","","","","","NA"
"-121.67","69.67","KEATS POINT","2202663","2018-01-20 23:00","2018","01","20","23:00","-18.9","","","","","M","","","","M","","M","","","97.64","","","","","","NA"
"-121.67","69.67","KEATS POINT","2202663","2018-01-21 00:00","2018","01","21","00:00","-19.4","","","","","M","","","","M","","M","","","97.67","","","","","","NA"
"-121.67","69.67","KEATS POINT","2202663","2018-01-21 01:00","2018","01","21","01:00","-19.5","","","","","M","","","","M","","M","","","97.69","","","","","","NA"
"-121.67","69.67","KEATS POINT","2202663","2018-01-21 02:00","2018","01","21","02:00","-19.4","","","","","M","","","","M","","M","","","97.75","","","","","","NA"
"-121.67","69.67","KEATS POINT","2202663","2018-01-21 03:00","2018","01","21","03:00","-19.6","","","","","M","","","","M","","M","","","97.79","","","","","","NA"
"-121.67","69.67","KEATS POINT","2202663","2018-01-21 04:00","2018","01","21","04:00","-19.8","","","","","M","","","","M","","M","","","97.83","","","","","","NA"
"-121.67","69.67","KEATS POINT","2202663","2018-01-21 05:00","2018","01","21","05:00","-20.0","","","","","M","","","","M","","M","","","97.88","","","","","","NA"
"-121.67","69.67","KEATS POINT","2202663","2018-01-21 06:00","2018","01","21","06:00","-19.7","","","","","M","","","","M","","M","","","97.90","","","","","","NA"
"-121.67","69.67","KEATS POINT","2202663","2018-01-21 07:00","2018","01","21","07:00","-19.2","","","","","M","","","","M","","M","","","97.95","","","","","","NA"
"-121.67","69.67","KEATS POINT","2202663","2018-01-21 08:00","2018","01","21","08:00","-19.0","","","","","M","","","","M","","M","","","97.96","","","","","","NA"
"-121.67","69.67","KEATS POINT","2202663","2018-01-21 09:00","2018","01","21","09:00","-19.2","","","","","M","","","","M","","M","","","97.98","","","","","","NA"
"-121.67","69.67","KEATS POINT","2202663","2018-01-21 10:00","2018","01","21","10:00","-19.2","","","","","M","","","","M","","M","","","97.99","","","","","","NA"
"-121.67","69.67","KEATS POINT","2202663","2018-01-21 11:00","2018","01","21","11:00","-19.0","","","","","M","","","","M","","M","","","98.03","","","","","","NA"
"-121.67","69.67","KEATS POINT","2202663","2018-01-21 12:00","2018","01","21","12:00","-18.9","","","","","M","","","","M","","M","","","98.05","","","","","","NA"
"-121.67","69.67","KEATS POINT","2202663","2018-01-21 13:00","2018","01","21","13:00","-18.8","","","","","M","","","","M","","M","","","98.07","","","","","","NA"
"-121.67","69.67","KEATS POINT","2202663","2018-01-21 14:00","2018","01","21","14:00","-18.9","","","","","M","","","33","","74","","","","98.10","","","","-36","","NA"
"-121.67","69.67","KEATS POINT","2202663","2018-01-21 15:00","2018","01","21","15:00","-18.9","","","","","M","","","","","","M","","","98.11","","","","","","NA"
"-121.67","69.67","KEATS POINT","2202663","2018-01-21 16:00","2018","01","21","16:00","-18.9","","","","","M","","","","","","M","","","98.11","","","","","","NA"
"-121.67","69.67","KEATS POINT","2202663","2018-01-21 17:00","2018","01","21","17:00","-18.9","","","","","M","","","","M","","M","","","98.10","","","","","","NA"
"-121.67","69.67","KEATS POINT","2202663","2018-01-21 18:00","2018","01","21","18:00","-19.0","","","","","M","","","","M","","M","","","98.10","","","","","","NA"
"-121.67","69.67","KEATS POINT","2202663","2018-01-21 19:00","2018","01","21","19:00","-19.0","","","","","M","","","","M","","M","","","98.08","","","","","","NA"
"-121.67","69.67","KEATS POINT","2202663","2018-01-21 20:00","2018","01","21","20:00","-18.9","","","","","M","","","33","","76","","","","98.06","","","","-36","","NA"
"-121.67","69.67","KEATS POINT","2202663","2018-01-21 21:00","2018","01","21","21:00","-19.3","","","","","M","","","","M","","M","","","98.07","","","","","","NA"
"-121.67","69.67","KEATS POINT","2202663","2018-01-21 22:00","2018","01","21","22:00","-19.6","","","","","M","","","","M","","M","","","98.03","","","","","","NA"
"-121.67","69.67","KEATS POINT","2202663","2018-01-21 23:00","2018","01","21","23:00","-20.0","","","","","M","","","","M","","M","","","98.04","","","","","","NA"
"-121.67","69.67","KEATS POINT","2202663","2018-01-22 00:00","2018","01","22","00:00","-19.9","","","","","M","","","","M","","M","","","98.01","","","","","","NA"
"-121.67","69.67","KEATS POINT","2202663","2018-01-22 01:00","2018","01","22","01:00","-19.5","","","","","M","","","","M","","M","","","98.01","","","","","","NA"
"-121.67","69.67","KEATS POINT","2202663","2018-01-22 02:00","2018","01","22","02:00","-19.2","","","","","M","","","","M","","M","","","97.99","","","","","","NA"
"-121.67","69.67","KEATS POINT","2202663","2018-01-22 03:00","2018","01","22","03:00","-19.2","","","","","M","","","","M","","M","","","98.00","","","","","","NA"
"-121.67","69.67","KEATS POINT","2202663","2018-01-22 04:00","2018","01","22","04:00","-18.8","","","","","M","","","","M","","M","","","97.99","","","","","","NA"
"-121.67","69.67","KEATS POINT","2202663","2018-01-22 05:00","2018","01","22","05:00","-19.2","","","","","M","","","36","","111","","","","97.99","","","","-39","","NA"
"-121.67","69.67","KEATS POINT","2202663","2018-01-22 06:00","2018","01","22","06:00","-19.0","","","","","M","","","","M","","M","","","97.96","","","","","","NA"
"-121.67","69.67","KEATS POINT","2202663","2018-01-22 07:00","2018","01","22","07:00","-18.7","","","","","M","","","","M","","M","","","97.94","","","","","","NA"
"-121.67","69.67","KEATS POINT","2202663","2018-01-22 08:00","2018","01","22","08:00","-18.8","","","","","M","","","","M","","M","","","97.90","","","","","","NA"
"-121.67","69.67","KEATS POINT","2202663","2018-01-22 09:00","2018","01","22","09:00","-18.5","","","","","M","","","","M","","M","","","97.87","","","","","","NA"
"-121.67","69.67","KEATS POINT","2202663","2018-01-22 10:00","2018","01","22","10:00","-18.9","","","","","M","","","","M","","M","","","97.90","","","","","","NA"
"-121.67","69.67","KEATS POINT","2202663","2018-01-22 11:00","2018","01","22","11:00","-19.1","","","","","M","","","","M","","M","","","97.92","","","","","","NA"
"-121.67","69.67","KEATS POINT","2202663","2018-01-22 12:00","2018","01","22","12:00","-19.2","","","","","M","","","33","","67","","","","97.94","","","","-36","","NA"
"-121.67","69.67","KEATS POINT","2202663","2018-01-22 13:00","2018","01","22","13:00","-18.5","","","","","M","","","","M","","M","","","97.92","","","","","","NA"
"-121.67","69.67","KEATS POINT","2202663","2018-01-22 14:00","2018","01","22","14:00","-17.8","","","","","M","","","","M","","M","","","97.94","","","","","","NA"
"-121.67","69.67","KEATS POINT","2202663","2018-01-22 15:00","2018","01","22","15:00","-18.5","","","","","M","","","33","","67","","","","97.95","","","","-35","","NA"
"-121.67","69.67","KEATS POINT","2202663","2018-01-22 16:00","2018","01","22","16:00","-17.4","","","","","M","","","","M","","M","","","97.96","","","","","","NA"
"-121.67","69.67","KEATS POINT","2202663","2018-01-22 17:00","2018","01","22","17:00","-17.0","","","","","M","","","","M","","M","","","97.94","","","","","","NA"
"-121.67","69.67","KEATS POINT","2202663","2018-01-22 18:00","2018","01","22","18:00","-17.8","","","","","M","","","","M","","M","","","97.92","","","","","","NA"
"-121.67","69.67","KEATS POINT","2202663","2018-01-22 19:00","2018","01","22","19:00","-17.8","","","","","M","","","","M","","M","","","97.92","","","","","","NA"
"-121.67","69.67","KEATS POINT","2202663","2018-01-22 20:00","2018","01","22","20:00","-17.4","","","","","M","","","","M","","M","","","97.93","","","","","","NA"
"-121.67","69.67","KEATS POINT","2202663","2018-01-22 21:00","2018","01","22","21:00","-18.5","","","","","M","","","","M","","M","","","97.93","","","","","","NA"
"-121.67","69.67","KEATS POINT","2202663","2018-01-22 22:00","2018","01","22","22:00","-17.9","","","","","M","","","","M","65","","","","97.92","","","","-34","","NA"
"-121.67","69.67","KEATS POINT","2202663","2018-01-22 23:00","2018","01","22","23:00","-18.3","","","","","M","","","","M","65","","","","97.93","","","","-35","","NA"
"-121.67","69.67","KEATS POINT","2202663","2018-01-23 00:00","2018","01","23","00:00","-18.2","","","","","M","","","","M","","M","","","97.92","","","","","","NA"
"-121.67","69.67","KEATS POINT","2202663","2018-01-23 01:00","2018","01","23","01:00","-18.9","","","","","M","","","","M","65","","","","97.91","","","","-35","","NA"
"-121.67","69.67","KEATS POINT","2202663","2018-01-23 02:00","2018","01","23","02:00","-18.0","","","","","M","","","33","","37","","","","97.94","","","","-31","","NA"
"-121.67","69.67","KEATS POINT","2202663","2018-01-23 03:00","2018","01","23","03:00","-17.9","","","","","M","","","33","","57","","","","97.96","","","","-33","","NA"
"-121.67","69.67","KEATS POINT","2202663","2018-01-23 04:00","2018","01","23","04:00","-18.0","","","","","M","","","","M","","M","","","97.95","","","","","","NA"
"-121.67","69.67","KEATS POINT","2202663","2018-01-23 05:00","2018","01","23","05:00","-18.0","","","","","M","","","33","","65","","","","97.95","","","","-34","","NA"
"-121.67","69.67","KEATS POINT","2202663","2018-01-23 06:00","2018","01","23","06:00","-18.2","","","","","M","","","33","","67","","","","97.93","","","","-35","","NA"
"-121.67","69.67","KEATS POINT","2202663","2018-01-23 07:00","2018","01","23","07:00","-18.1","","","","","M","","","34","","56","","","","97.91","","","","-33","","NA"
"-121.67","69.67","KEATS POINT","2202663","2018-01-23 08:00","2018","01","23","08:00","-17.9","","","","","M","","","34","","81","","","","97.92","","","","-35","","NA"
"-121.67","69.67","KEATS POINT","2202663","2018-01-23 09:00","2018","01","23","09:00","-17.7","","","","","M","","","","M","","M","","","97.92","","","","","","NA"
"-121.67","69.67","KEATS POINT","2202663","2018-01-23 10:00","2018","01","23","10:00","-17.4","","","","","M","","","33","","59","","","","97.92","","","","-33","","NA"
"-121.67","69.67","KEATS POINT","2202663","2018-01-23 11:00","2018","01","23","11:00","-17.4","","","","","M","","","8","","19","","","","97.92","","","","-27","","NA"
"-121.67","69.67","KEATS POINT","2202663","2018-01-23 12:00","2018","01","23","12:00","-17.3","","","","","M","","","33","","61","","","","97.94","","","","-33","","NA"
"-121.67","69.67","KEATS POINT","2202663","2018-01-23 13:00","2018","01","23","13:00","-17.3","","","","","M","","","","M","","M","","","97.92","","","","","","NA"
"-121.67","69.67","KEATS POINT","2202663","2018-01-23 14:00","2018","01","23","14:00","-17.2","","","","","M","","","","M","","M","","","97.92","","","","","","NA"
"-121.67","69.67","KEATS POINT","2202663","2018-01-23 15:00","2018","01","23","15:00","-17.8","","","","","M","","","","M","","M","","","97.91","","","","","","NA"
"-121.67","69.67","KEATS POINT","2202663","2018-01-23 16:00","2018","01","23","16:00","-18.0","","","","","M","","","","M","","M","","","97.88","","","","","","NA"
"-121.67","69.67","KEATS POINT","2202663","2018-01-23 17:00","2018","01","23","17:00","-18.1","","","","","M","","","27","","69","","","","97.87","","","","-35","","NA"
"-121.67","69.67","KEATS POINT","2202663","2018-01-23 18:00","2018","01","23","18:00","-18.1","","","","","M","","","","M","","M","","","97.83","","","","","","NA"
"-121.67","69.67","KEATS POINT","2202663","2018-01-23 19:00","2018","01","23","19:00","-18.1","","","","","M","","","","M","","M","","","97.78","","","","","","NA"
"-121.67","69.67","KEATS POINT","2202663","2018-01-23 20:00","2018","01","23","20:00","-18.1","","","","","M","","","27","","70","","","","97.78","","","","-35","","NA"
"-121.67","69.67","KEATS POINT","2202663","2018-01-23 21:00","2018","01","23","21:00","-18.5","","","","","M","","","27","","33","","","","97.79","","","","-31","","NA"
"-121.67","69.67","KEATS POINT","2202663","2018-01-23 22:00","2018","01","23","22:00","-18.6","","","","","M","","","27","","20","","","","97.79","","","","-29","","NA"
"-121.67","69.67","KEATS POINT","2202663","2018-01-23 23:00","2018","01","23","23:00","-18.6","","","","","M","","","27","","19","","","","97.81","","","","-28","","NA"
"-121.67","69.67","KEATS POINT","2202663","2018-01-24 00:00","2018","01","24","00:00","-18.8","","","","","M","","","","M","","M","","","97.80","","","","","","NA"
"-121.67","69.67","KEATS POINT","2202663","2018-01-24 01:00","2018","01","24","01:00","-19.0","","","","","M","","","","M","","M","","","97.79","","","","","","NA"
"-121.67","69.67","KEATS POINT","2202663","2018-01-24 02:00","2018","01","24","02:00","-20.0","","","","","M","","","","M","","M","","","97.83","","","","","","NA"
"-121.67","69.67","KEATS POINT","2202663","2018-01-24 03:00","2018","01","24","03:00","-19.7","","","","","M","","","27","","26","","","","97.82","","","","-31","","NA"
"-121.67","69.67","KEATS POINT","2202663","2018-01-24 04:00","2018","01","24","04:00","-19.9","","","","","M","","","","M","","M","","","97.83","","","","","","NA"
"-121.67","69.67","KEATS POINT","2202663","2018-01-24 05:00","2018","01","24","05:00","-20.3","","","","","M","","","","M","","M","","","97.85","","","","","","NA"
"-121.67","69.67","KEATS POINT","2202663","2018-01-24 06:00","2018","01","24","06:00","-20.1","","","","","M","","","","M","","M","","","97.82","","","","","","NA"
"-121.67","69.67","KEATS POINT","2202663","2018-01-24 07:00","2018","01","24","07:00","-19.8","","","","","M","","","","","0","","","","97.85","","","","","","NA"
"-121.67","69.67","KEATS POINT","2202663","2018-01-24 08:00","2018","01","24","08:00","-20.1","","","","","M","","","33","","15","","","","97.84","","","","-29","","NA"
"-121.67","69.67","KEATS POINT","2202663","2018-01-24 09:00","2018","01","24","09:00","-19.7","","","","","M","","","","M","","M","","","97.84","","","","","","NA"
"-121.67","69.67","KEATS POINT","2202663","2018-01-24 10:00","2018","01","24","10:00","-19.1","","","","","M","","","","M","","M","","","97.84","","","","","","NA"
"-121.67","69.67","KEATS POINT","2202663","2018-01-24 11:00","2018","01","24","11:00","-19.3","","","","","M","","","","M","","M","","","97.86","","","","","","NA"
"-121.67","69.67","KEATS POINT","2202663","2018-01-24 12:00","2018","01","24","12:00","-19.1","","","","","M","","","","M","","M","","","97.90","","","","","","NA"
"-121.67","69.67","KEATS POINT","2202663","2018-01-24 13:00","2018","01","24","13:00","-18.9","","","","","M","","","","M","","M","","","97.92","","","","","","NA"
"-121.67","69.67","KEATS POINT","2202663","2018-01-24 14:00","2018","01","24","14:00","-19.1","","","","","M","","","","M","","M","","","97.95","","","","","","NA"
"-121.67","69.67","KEATS POINT","2202663","2018-01-24 15:00","2018","01","24","15:00","-19.0","","","","","M","","","","M","","M","","","97.96","","","","","","NA"
"-121.67","69.67","KEATS POINT","2202663","2018-01-24 16:00","2018","01","24","16:00","-20.3","","","","","M","","","","M","","M","","","97.97","","","","","","NA"
"-121.67","69.67","KEATS POINT","2202663","2018-01-24 17:00","2018","01","24","17:00","-21.4","","","","","M","","","","M","","M","","","97.96","","","","","","NA"
"-121.67","69.67","KEATS POINT","2202663","2018-01-24 18:00","2018","01","24","18:00","-21.8","","","","","M","","","","M","","M","","","97.99","","","","","","NA"
"-121.67","69.67","KEATS POINT","2202663","2018-01-24 19:00","2018","01","24","19:00","-20.8","","","","","M","","","","M","","M","","","97.99","","","","","","NA"
"-121.67","69.67","KEATS POINT","2202663","2018-01-24 20:00","2018","01","24","20:00","-22.3","","","","","M","","","","M","","M","","","97.99","","","","","","NA"
"-121.67","69.67","KEATS POINT","2202663","2018-01-24 21:00","2018","01","24","21:00","-21.5","","","","","M","","","","M","","M","","","98.00","","","","","","NA"
"-121.67","69.67","KEATS POINT","2202663","2018-01-24 22:00","2018","01","24","22:00","-21.3","","","","","M","","","","M","","M","","","98.03","","","","","","NA"
"-121.67","69.67","KEATS POINT","2202663","2018-01-24 23:00","2018","01","24","23:00","-22.2","","","","","M","","","9","","63","","","","98.05","","","","-40","","NA"
"-121.67","69.67","KEATS POINT","2202663","2018-01-25 00:00","2018","01","25","00:00","-22.5","","","","","M","","","","M","","M","","","98.08","","","","","","NA"
"-121.67","69.67","KEATS POINT","2202663","2018-01-25 01:00","2018","01","25","01:00","-22.5","","","","","M","","","","M","","M","","","98.08","","","","","","NA"
"-121.67","69.67","KEATS POINT","2202663","2018-01-25 02:00","2018","01","25","02:00","-22.4","","","","","M","","","","M","","M","","","98.10","","","","","","NA"
"-121.67","69.67","KEATS POINT","2202663","2018-01-25 03:00","2018","01","25","03:00","-22.7","","","","","M","","","","M","65","","","","98.13","","","","-41","","NA"
"-121.67","69.67","KEATS POINT","2202663","2018-01-25 04:00","2018","01","25","04:00","-23.1","","","","","M","","","","M","63","","","","98.14","","","","-41","","NA"
"-121.67","69.67","KEATS POINT","2202663","2018-01-25 05:00","2018","01","25","05:00","-23.1","","","","","M","","","27","","30","","","","98.12","","","","-37","","NA"
"-121.67","69.67","KEATS POINT","2202663","2018-01-25 06:00","2018","01","25","06:00","-23.3","","","","","M","","","","M","","M","","","98.11","","","","","","NA"
"-121.67","69.67","KEATS POINT","2202663","2018-01-25 07:00","2018","01","25","07:00","-22.9","","","","","M","","","","M","","M","","","98.14","","","","","","NA"
"-121.67","69.67","KEATS POINT","2202663","2018-01-25 08:00","2018","01","25","08:00","-24.1","","","","","M","","","","M","","M","","","98.19","","","","","","NA"
"-121.67","69.67","KEATS POINT","2202663","2018-01-25 09:00","2018","01","25","09:00","-24.4","","","","","M","","","","M","","M","","","98.18","","","","","","NA"
"-121.67","69.67","KEATS POINT","2202663","2018-01-25 10:00","2018","01","25","10:00","-24.7","","","","","M","","","","M","","M","","","98.22","","","","","","NA"
"-121.67","69.67","KEATS POINT","2202663","2018-01-25 11:00","2018","01","25","11:00","-23.7","","","","","M","","","","M","","M","","","98.26","","","","","","NA"
"-121.67","69.67","KEATS POINT","2202663","2018-01-25 12:00","2018","01","25","12:00","-23.7","","","","","M","","","27","","69","","","","98.27","","","","-42","","NA"
"-121.67","69.67","KEATS POINT","2202663","2018-01-25 13:00","2018","01","25","13:00","-24.7","","","","","M","","","27","","69","","","","98.29","","","","-44","","NA"
"-121.67","69.67","KEATS POINT","2202663","2018-01-25 14:00","2018","01","25","14:00","-25.2","","","","","M","","","27","","33","","","","98.32","","","","-40","","NA"
"-121.67","69.67","KEATS POINT","2202663","2018-01-25 15:00","2018","01","25","15:00","-25.4","","","","","M","","","","M","","M","","","98.37","","","","","","NA"
"-121.67","69.67","KEATS POINT","2202663","2018-01-25 16:00","2018","01","25","16:00","-24.7","","","","","M","","","","M","","M","","","98.41","","","","","","NA"
"-121.67","69.67","KEATS POINT","2202663","2018-01-25 17:00","2018","01","25","17:00","-24.8","","","","","M","","","","M","","M","","","98.46","","","","","","NA"
"-121.67","69.67","KEATS POINT","2202663","2018-01-25 18:00","2018","01","25","18:00","-24.0","","","","","M","","","","M","","M","","","98.48","","","","","","NA"
"-121.67","69.67","KEATS POINT","2202663","2018-01-25 19:00","2018","01","25","19:00","-23.7","","","","","M","","","","M","","M","","","98.51","","","","","","NA"
"-121.67","69.67","KEATS POINT","2202663","2018-01-25 20:00","2018","01","25","20:00","-23.2","","","","","M","","","","M","","M","","","98.57","","","","","","NA"
"-121.67","69.67","KEATS POINT","2202663","2018-01-25 21:00","2018","01","25","21:00","-23.5","","","","","M","","","","","0","","","","98.58","","","","","","NA"
"-121.67","69.67","KEATS POINT","2202663","2018-01-25 22:00","2018","01","25","22:00","-21.4","","","","","M","","","","M","","M","","","98.60","","","","","","NA"
"-121.67","69.67","KEATS POINT","2202663","2018-01-25 23:00","2018","01","25","23:00","-22.0","","","","","M","","","","M","","M","","","98.63","","","","","","NA"
"-121.67","69.67","KEATS POINT","2202663","2018-01-26 00:00","2018","01","26","00:00","-21.7","","","","","M","","","","M","","M","","","98.66","","","","","","NA"
"-121.67","69.67","KEATS POINT","2202663","2018-01-26 01:00","2018","01","26","01:00","-22.2","","","","","M","","","","M","","M","","","98.70","","","","","","NA"
"-121.67","69.67","KEATS POINT","2202663","2018-01-26 02:00","2018","01","26","02:00","-20.5","","","","","M","","","","M","","M","","","98.74","","","","","","NA"
"-121.67","69.67","KEATS POINT","2202663","2018-01-26 03:00","2018","01","26","03:00","-20.5","","","","","M","","","","M","","M","","","98.75","","","","","","NA"
"-121.67","69.67","KEATS POINT","2202663","2018-01-26 04:00","2018","01","26","04:00","-20.2","","","","","M","","","","M","","M","","","98.78","","","","","","NA"
"-121.67","69.67","KEATS POINT","2202663","2018-01-26 05:00","2018","01","26","05:00","-20.0","","","","","M","","","","M","","M","","","98.79","","","","","","NA"
"-121.67","69.67","KEATS POINT","2202663","2018-01-26 06:00","2018","01","26","06:00","-19.7","","","","","M","","","","M","","M","","","98.78","","","","","","NA"
"-121.67","69.67","KEATS POINT","2202663","2018-01-26 07:00","2018","01","26","07:00","-19.1","","","","","M","","","","M","","M","","","98.83","","","","","","NA"
"-121.67","69.67","KEATS POINT","2202663","2018-01-26 08:00","2018","01","26","08:00","-18.7","","","","","M","","","","M","","M","","","98.83","","","","","","NA"
"-121.67","69.67","KEATS POINT","2202663","2018-01-26 09:00","2018","01","26","09:00","-18.5","","","","","M","","","","M","","M","","","98.86","","","","","","NA"
"-121.67","69.67","KEATS POINT","2202663","2018-01-26 10:00","2018","01","26","10:00","-18.8","","","","","M","","","","M","","M","","","98.86","","","","","","NA"
"-121.67","69.67","KEATS POINT","2202663","2018-01-26 11:00","2018","01","26","11:00","-19.1","","","","","M","","","","M","","M","","","98.90","","","","","","NA"
"-121.67","69.67","KEATS POINT","2202663","2018-01-26 12:00","2018","01","26","12:00","-18.5","","","","","M","","","","M","","M","","","98.91","","","","","","NA"
"-121.67","69.67","KEATS POINT","2202663","2018-01-26 13:00","2018","01","26","13:00","-18.3","","","","","M","","","","M","","M","","","98.94","","","","","","NA"
"-121.67","69.67","KEATS POINT","2202663","2018-01-26 14:00","2018","01","26","14:00","-17.9","","","","","M","","","","M","","M","","","98.96","","","","","","NA"
"-121.67","69.67","KEATS POINT","2202663","2018-01-26 15:00","2018","01","26","15:00","-17.6","","","","","M","","","","M","","M","","","99.01","","","","","","NA"
"-121.67","69.67","KEATS POINT","2202663","2018-01-26 16:00","2018","01","26","16:00","-18.8","","","","","M","","","","M","","M","","","99.03","","","","","","NA"
"-121.67","69.67","KEATS POINT","2202663","2018-01-26 17:00","2018","01","26","17:00","-17.3","","","","","M","","","","M","","M","","","99.04","","","","","","NA"
"-121.67","69.67","KEATS POINT","2202663","2018-01-26 18:00","2018","01","26","18:00","-17.8","","","","","M","","","","M","","M","","","99.05","","","","","","NA"
"-121.67","69.67","KEATS POINT","2202663","2018-01-26 19:00","2018","01","26","19:00","-18.1","","","","","M","","","","M","","M","","","99.07","","","","","","NA"
"-121.67","69.67","KEATS POINT","2202663","2018-01-26 20:00","2018","01","26","20:00","-17.9","","","","","M","","","","M","","M","","","99.08","","","","","","NA"
"-121.67","69.67","KEATS POINT","2202663","2018-01-26 21:00","2018","01","26","21:00","-18.9","","","","","M","","","","M","","M","","","99.09","","","","","","NA"
"-121.67","69.67","KEATS POINT","2202663","2018-01-26 22:00","2018","01","26","22:00","-18.8","","","","","M","","","","M","","M","","","99.10","","","","","","NA"
"-121.67","69.67","KEATS POINT","2202663","2018-01-26 23:00","2018","01","26","23:00","-18.1","","","","","M","","","","M","","M","","","99.20","","","","","","NA"
"-121.67","69.67","KEATS POINT","2202663","2018-01-27 00:00","2018","01","27","00:00","-17.9","","","","","M","","","","M","","M","","","99.19","","","","","","NA"
"-121.67","69.67","KEATS POINT","2202663","2018-01-27 01:00","2018","01","27","01:00","-18.2","","","","","M","","","9","","69","","","","99.20","","","","-35","","NA"
"-121.67","69.67","KEATS POINT","2202663","2018-01-27 02:00","2018","01","27","02:00","-18.5","","","","","M","","","","M","56","","","","99.21","","","","-34","","NA"
"-121.67","69.67","KEATS POINT","2202663","2018-01-27 03:00","2018","01","27","03:00","-18.8","","","","","M","","","","M","","M","","","99.25","","","","","","NA"
"-121.67","69.67","KEATS POINT","2202663","2018-01-27 04:00","2018","01","27","04:00","-19.0","","","","","M","","","","M","","M","","","99.28","","","","","","NA"
"-121.67","69.67","KEATS POINT","2202663","2018-01-27 05:00","2018","01","27","05:00","-19.1","","","","","M","","","","M","","M","","","99.34","","","","","","NA"
"-121.67","69.67","KEATS POINT","2202663","2018-01-27 06:00","2018","01","27","06:00","-18.9","","","","","M","","","","M","","M","","","99.36","","","","","","NA"
"-121.67","69.67","KEATS POINT","2202663","2018-01-27 07:00","2018","01","27","07:00","-18.6","","","","","M","","","","","","M","","","99.36","","","","","","NA"
"-121.67","69.67","KEATS POINT","2202663","2018-01-27 08:00","2018","01","27","08:00","-18.3","","","","","M","","","","M","","M","","","99.36","","","","","","NA"
"-121.67","69.67","KEATS POINT","2202663","2018-01-27 09:00","2018","01","27","09:00","-18.7","","","","","M","","","","M","","M","","","99.37","","","","","","NA"
"-121.67","69.67","KEATS POINT","2202663","2018-01-27 10:00","2018","01","27","10:00","-20.2","","","","","M","","","","","","M","","","99.39","","","","","","NA"
"-121.67","69.67","KEATS POINT","2202663","2018-01-27 11:00","2018","01","27","11:00","-19.8","","","","","M","","","","","","M","","","99.38","","","","","","NA"
"-121.67","69.67","KEATS POINT","2202663","2018-01-27 12:00","2018","01","27","12:00","-21.7","","","","","M","","","","M","","M","","","99.41","","","","","","NA"
"-121.67","69.67","KEATS POINT","2202663","2018-01-27 13:00","2018","01","27","13:00","-21.2","","","","","M","","","","M","","M","","","99.43","","","","","","NA"
"-121.67","69.67","KEATS POINT","2202663","2018-01-27 14:00","2018","01","27","14:00","-22.8","","","","","M","","","","M","","M","","","99.45","","","","","","NA"
"-121.67","69.67","KEATS POINT","2202663","2018-01-27 15:00","2018","01","27","15:00","-21.5","","","","","M","","","","M","","M","","","99.48","","","","","","NA"
"-121.67","69.67","KEATS POINT","2202663","2018-01-27 16:00","2018","01","27","16:00","-22.0","","","","","M","","","","M","","M","","","99.50","","","","","","NA"
"-121.67","69.67","KEATS POINT","2202663","2018-01-27 17:00","2018","01","27","17:00","-22.0","","","","","M","","","","M","","M","","","99.49","","","","","","NA"
"-121.67","69.67","KEATS POINT","2202663","2018-01-27 18:00","2018","01","27","18:00","-23.9","","","","","M","","","","M","","M","","","99.52","","","","","","NA"
"-121.67","69.67","KEATS POINT","2202663","2018-01-27 19:00","2018","01","27","19:00","-22.4","","","","","M","","","33","","106","","","","99.51","","","","-44","","NA"
"-121.67","69.67","KEATS POINT","2202663","2018-01-27 20:00","2018","01","27","20:00","-22.6","","","","","M","","","","M","","M","","","99.51","","","","","","NA"
"-121.67","69.67","KEATS POINT","2202663","2018-01-27 21:00","2018","01","27","21:00","-22.2","","","","","M","","","","M","","M","","","99.56","","","","","","NA"
"-121.67","69.67","KEATS POINT","2202663","2018-01-27 22:00","2018","01","27","22:00","-21.9","","","","","M","","","","M","","M","","","99.50","","","","","","NA"
"-121.67","69.67","KEATS POINT","2202663","2018-01-27 23:00","2018","01","27","23:00","-21.2","","","","","M","","","","M","","M","","","99.47","","","","","","NA"
"-121.67","69.67","KEATS POINT","2202663","2018-01-28 00:00","2018","01","28","00:00","-22.0","","","","","M","","","","M","","M","","","99.45","","","","","","NA"
"-121.67","69.67","KEATS POINT","2202663","2018-01-28 01:00","2018","01","28","01:00","-21.8","","","","","M","","","","M","","M","","","99.45","","","","","","NA"
"-121.67","69.67","KEATS POINT","2202663","2018-01-28 02:00","2018","01","28","02:00","-21.6","","","","","M","","","","M","","M","","","99.44","","","","","","NA"
"-121.67","69.67","KEATS POINT","2202663","2018-01-28 03:00","2018","01","28","03:00","-21.9","","","","","M","","","","M","","M","","","99.42","","","","","","NA"
"-121.67","69.67","KEATS POINT","2202663","2018-01-28 04:00","2018","01","28","04:00","-22.0","","","","","M","","","","M","","M","","","99.42","","","","","","NA"
"-121.67","69.67","KEATS POINT","2202663","2018-01-28 05:00","2018","01","28","05:00","-22.1","","","","","M","","","","M","","M","","","99.39","","","","","","NA"
"-121.67","69.67","KEATS POINT","2202663","2018-01-28 06:00","2018","01","28","06:00","-22.0","","","","","M","","","","M","","M","","","99.38","","","","","","NA"
"-121.67","69.67","KEATS POINT","2202663","2018-01-28 07:00","2018","01","28","07:00","-22.5","","","","","M","","","","M","","M","","","99.33","","","","","","NA"
"-121.67","69.67","KEATS POINT","2202663","2018-01-28 08:00","2018","01","28","08:00","-21.9","","","","","M","","","","M","","M","","","99.32","","","","","","NA"
"-121.67","69.67","KEATS POINT","2202663","2018-01-28 09:00","2018","01","28","09:00","-21.9","","","","","M","","","","M","","M","","","99.30","","","","","","NA"
"-121.67","69.67","KEATS POINT","2202663","2018-01-28 10:00","2018","01","28","10:00","-22.7","","","","","M","","","","M","","M","","","99.25","","","","","","NA"
"-121.67","69.67","KEATS POINT","2202663","2018-01-28 11:00","2018","01","28","11:00","-23.4","","","","","M","","","","","","M","","","99.25","","","","","","NA"
"-121.67","69.67","KEATS POINT","2202663","2018-01-28 12:00","2018","01","28","12:00","-23.8","","","","","M","","","3","","169","","","","99.21","","","","-49","","NA"
"-121.67","69.67","KEATS POINT","2202663","2018-01-28 13:00","2018","01","28","13:00","-23.8","","","","","M","","","","","","M","","","99.25","","","","","","NA"
"-121.67","69.67","KEATS POINT","2202663","2018-01-28 14:00","2018","01","28","14:00","-23.5","","","","","M","","","","M","","M","","","99.23","","","","","","NA"
"-121.67","69.67","KEATS POINT","2202663","2018-01-28 15:00","2018","01","28","15:00","-23.6","","","","","M","","","","","","M","","","99.22","","","","","","NA"
"-121.67","69.67","KEATS POINT","2202663","2018-01-28 16:00","2018","01","28","16:00","-23.9","","","","","M","","","","M","","M","","","99.27","","","","","","NA"
"-121.67","69.67","KEATS POINT","2202663","2018-01-28 17:00","2018","01","28","17:00","-23.7","","","","","M","","","","","","M","","","99.18","","","","","","NA"
"-121.67","69.67","KEATS POINT","2202663","2018-01-28 18:00","2018","01","28","18:00","-23.7","","","","","M","","","","","","M","","","99.16","","","","","","NA"
"-121.67","69.67","KEATS POINT","2202663","2018-01-28 19:00","2018","01","28","19:00","-24.4","","","","","M","","","","M","","M","","","99.17","","","","","","NA"
"-121.67","69.67","KEATS POINT","2202663","2018-01-28 20:00","2018","01","28","20:00","-24.2","","","","","M","","","","M","","M","","","99.13","","","","","","NA"
"-121.67","69.67","KEATS POINT","2202663","2018-01-28 21:00","2018","01","28","21:00","-23.2","","","","","M","","","","M","","M","","","99.06","","","","","","NA"
"-121.67","69.67","KEATS POINT","2202663","2018-01-28 22:00","2018","01","28","22:00","-23.4","","","","","M","","","","M","","M","","","99.04","","","","","","NA"
"-121.67","69.67","KEATS POINT","2202663","2018-01-28 23:00","2018","01","28","23:00","-23.2","","","","","M","","","","M","","M","","","99.00","","","","","","NA"
"-121.67","69.67","KEATS POINT","2202663","2018-01-29 00:00","2018","01","29","00:00","-22.7","","","","","M","","","","M","","M","","","98.99","","","","","","NA"
"-121.67","69.67","KEATS POINT","2202663","2018-01-29 01:00","2018","01","29","01:00","-23.2","","","","","M","","","","M","","M","","","98.97","","","","","","NA"
"-121.67","69.67","KEATS POINT","2202663","2018-01-29 02:00","2018","01","29","02:00","-22.8","","","","","M","","","","","","M","","","98.95","","","","","","NA"
"-121.67","69.67","KEATS POINT","2202663","2018-01-29 03:00","2018","01","29","03:00","-22.6","","","","","M","","","","M","","M","","","98.90","","","","","","NA"
"-121.67","69.67","KEATS POINT","2202663","2018-01-29 04:00","2018","01","29","04:00","-22.4","","","","","M","","","","M","","M","","","98.86","","","","","","NA"
"-121.67","69.67","KEATS POINT","2202663","2018-01-29 05:00","2018","01","29","05:00","-21.9","","","","","M","","","","M","","M","","","98.79","","","","","","NA"
"-121.67","69.67","KEATS POINT","2202663","2018-01-29 06:00","2018","01","29","06:00","-22.4","","","","","M","","","","M","","M","","","98.75","","","","","","NA"
"-121.67","69.67","KEATS POINT","2202663","2018-01-29 07:00","2018","01","29","07:00","-22.2","","","","","M","","","","M","","M","","","98.72","","","","","","NA"
"-121.67","69.67","KEATS POINT","2202663","2018-01-29 08:00","2018","01","29","08:00","-22.0","","","","","M","","","","M","","M","","","98.64","","","","","","NA"
"-121.67","69.67","KEATS POINT","2202663","2018-01-29 09:00","2018","01","29","09:00","-21.4","","","","","M","","","","M","","M","","","98.62","","","","","","NA"
"-121.67","69.67","KEATS POINT","2202663","2018-01-29 10:00","2018","01","29","10:00","-21.8","","","","","M","","","35","","81","","","","98.57","","","","-41","","NA"
"-121.67","69.67","KEATS POINT","2202663","2018-01-29 11:00","2018","01","29","11:00","-21.9","","","","","M","","","35","","78","","","","98.50","","","","-41","","NA"
"-121.67","69.67","KEATS POINT","2202663","2018-01-29 12:00","2018","01","29","12:00","-21.9","","","","","M","","","35","","113","","","","98.47","","","","-43","","NA"
"-121.67","69.67","KEATS POINT","2202663","2018-01-29 13:00","2018","01","29","13:00","-22.6","","","","","M","","","","M","","M","","","98.42","","","","","","NA"
"-121.67","69.67","KEATS POINT","2202663","2018-01-29 14:00","2018","01","29","14:00","-21.0","","","","","M","","","13","","59","","","","98.39","","","","-38","","NA"
"-121.67","69.67","KEATS POINT","2202663","2018-01-29 15:00","2018","01","29","15:00","-22.8","","","","","M","","","","M","","M","","","98.36","","","","","","NA"
"-121.67","69.67","KEATS POINT","2202663","2018-01-29 16:00","2018","01","29","16:00","-23.0","","","","","M","","","","M","","M","","","98.33","","","","","","NA"
"-121.67","69.67","KEATS POINT","2202663","2018-01-29 17:00","2018","01","29","17:00","-22.5","","","","","M","","","","M","","M","","","98.29","","","","","","NA"
"-121.67","69.67","KEATS POINT","2202663","2018-01-29 18:00","2018","01","29","18:00","-24.5","","","","","M","","","","M","","M","","","98.28","","","","","","NA"
"-121.67","69.67","KEATS POINT","2202663","2018-01-29 19:00","2018","01","29","19:00","-23.6","","","","","M","","","","M","","M","","","98.27","","","","","","NA"
"-121.67","69.67","KEATS POINT","2202663","2018-01-29 20:00","2018","01","29","20:00","-24.7","","","","","M","","","","M","","M","","","98.23","","","","","","NA"
"-121.67","69.67","KEATS POINT","2202663","2018-01-29 21:00","2018","01","29","21:00","-24.0","","","","","M","","","","M","","M","","","98.22","","","","","","NA"
"-121.67","69.67","KEATS POINT","2202663","2018-01-29 22:00","2018","01","29","22:00","-25.0","","","","","M","","","","M","","M","","","98.20","","","","","","NA"
"-121.67","69.67","KEATS POINT","2202663","2018-01-29 23:00","2018","01","29","23:00","-26.1","","","","","M","","","","M","","M","","","98.21","","","","","","NA"
"-121.67","69.67","KEATS POINT","2202663","2018-01-30 00:00","2018","01","30","00:00","-26.6","","","","","M","","","","M","","M","","","98.22","","","","","","NA"
"-121.67","69.67","KEATS POINT","2202663","2018-01-30 01:00","2018","01","30","01:00","-25.9","","","","","M","","","","M","","M","","","98.23","","","","","","NA"
"-121.67","69.67","KEATS POINT","2202663","2018-01-30 02:00","2018","01","30","02:00","-26.3","","","","","M","","","","M","","M","","","98.27","","","","","","NA"
"-121.67","69.67","KEATS POINT","2202663","2018-01-30 03:00","2018","01","30","03:00","-26.3","","","","","M","","","","M","","M","","","98.31","","","","","","NA"
"-121.67","69.67","KEATS POINT","2202663","2018-01-30 04:00","2018","01","30","04:00","-26.5","","","","","M","","","","M","","M","","","98.36","","","","","","NA"
"-121.67","69.67","KEATS POINT","2202663","2018-01-30 05:00","2018","01","30","05:00","-26.0","","","","","M","","","","M","","M","","","98.36","","","","","","NA"
"-121.67","69.67","KEATS POINT","2202663","2018-01-30 06:00","2018","01","30","06:00","-25.9","","","","","M","","","","M","","M","","","98.38","","","","","","NA"
"-121.67","69.67","KEATS POINT","2202663","2018-01-30 07:00","2018","01","30","07:00","-24.7","","","","","M","","","","M","","M","","","98.41","","","","","","NA"
"-121.67","69.67","KEATS POINT","2202663","2018-01-30 08:00","2018","01","30","08:00","-23.7","","","","","M","","","33","","89","","","","98.45","","","","-44","","NA"
"-121.67","69.67","KEATS POINT","2202663","2018-01-30 09:00","2018","01","30","09:00","-23.6","","","","","M","","","","M","","M","","","98.49","","","","","","NA"
"-121.67","69.67","KEATS POINT","2202663","2018-01-30 10:00","2018","01","30","10:00","-24.2","","","","","M","","","","M","","M","","","98.55","","","","","","NA"
"-121.67","69.67","KEATS POINT","2202663","2018-01-30 11:00","2018","01","30","11:00","-23.1","","","","","M","","","","M","","M","","","98.61","","","","","","NA"
"-121.67","69.67","KEATS POINT","2202663","2018-01-30 12:00","2018","01","30","12:00","-24.5","","","","","M","","","","M","","M","","","98.65","","","","","","NA"
"-121.67","69.67","KEATS POINT","2202663","2018-01-30 13:00","2018","01","30","13:00","-24.2","","","","","M","","","","","","M","","","98.71","","","","","","NA"
"-121.67","69.67","KEATS POINT","2202663","2018-01-30 14:00","2018","01","30","14:00","-23.8","","","","","M","","","","M","","M","","","98.77","","","","","","NA"
"-121.67","69.67","KEATS POINT","2202663","2018-01-30 15:00","2018","01","30","15:00","-23.5","","","","","M","","","","M","","M","","","98.81","","","","","","NA"
"-121.67","69.67","KEATS POINT","2202663","2018-01-30 16:00","2018","01","30","16:00","-23.3","","","","","M","","","","M","","M","","","98.87","","","","","","NA"
"-121.67","69.67","KEATS POINT","2202663","2018-01-30 17:00","2018","01","30","17:00","-23.3","","","","","M","","","","","","M","","","98.92","","","","","","NA"
"-121.67","69.67","KEATS POINT","2202663","2018-01-30 18:00","2018","01","30","18:00","-22.9","","","","","M","","","","M","","M","","","98.97","","","","","","NA"
"-121.67","69.67","KEATS POINT","2202663","2018-01-30 19:00","2018","01","30","19:00","-23.7","","","","","M","","","","M","","M","","","99.03","","","","","","NA"
"-121.67","69.67","KEATS POINT","2202663","2018-01-30 20:00","2018","01","30","20:00","-24.2","","","","","M","","","","M","","M","","","99.09","","","","","","NA"
"-121.67","69.67","KEATS POINT","2202663","2018-01-30 21:00","2018","01","30","21:00","-24.5","","","","","M","","","","M","","M","","","99.12","","","","","","NA"
"-121.67","69.67","KEATS POINT","2202663","2018-01-30 22:00","2018","01","30","22:00","-23.6","","","","","M","","","","M","","M","","","99.16","","","","","","NA"
"-121.67","69.67","KEATS POINT","2202663","2018-01-30 23:00","2018","01","30","23:00","-23.4","","","","","M","","","","M","","M","","","99.18","","","","","","NA"
"-121.67","69.67","KEATS POINT","2202663","2018-01-31 00:00","2018","01","31","00:00","-24.5","","","","","M","","","","M","","M","","","99.22","","","","","","NA"
"-121.67","69.67","KEATS POINT","2202663","2018-01-31 01:00","2018","01","31","01:00","-25.0","","","","","M","","","","M","","M","","","99.26","","","","","","NA"
"-121.67","69.67","KEATS POINT","2202663","2018-01-31 02:00","2018","01","31","02:00","-25.4","","","","","M","","","","M","","M","","","99.35","","","","","","NA"
"-121.67","69.67","KEATS POINT","2202663","2018-01-31 03:00","2018","01","31","03:00","-24.6","","","","","M","","","","M","","M","","","99.38","","","","","","NA"
"-121.67","69.67","KEATS POINT","2202663","2018-01-31 04:00","2018","01","31","04:00","-24.1","","","","","M","","","","M","","M","","","99.41","","","","","","NA"
"-121.67","69.67","KEATS POINT","2202663","2018-01-31 05:00","2018","01","31","05:00","-24.3","","","","","M","","","","M","","M","","","99.43","","","","","","NA"
"-121.67","69.67","KEATS POINT","2202663","2018-01-31 06:00","2018","01","31","06:00","-24.6","","","","","M","","","","M","","M","","","99.43","","","","","","NA"
"-121.67","69.67","KEATS POINT","2202663","2018-01-31 07:00","2018","01","31","07:00","-24.6","","","","","M","","","","M","","M","","","99.43","","","","","","NA"
"-121.67","69.67","KEATS POINT","2202663","2018-01-31 08:00","2018","01","31","08:00","-23.8","","","","","M","","","","M","","M","","","99.44","","","","","","NA"
"-121.67","69.67","KEATS POINT","2202663","2018-01-31 09:00","2018","01","31","09:00","-24.2","","","","","M","","","","M","","M","","","99.43","","","","","","NA"
"-121.67","69.67","KEATS POINT","2202663","2018-01-31 10:00","2018","01","31","10:00","-24.6","","","","","M","","","","M","","M","","","99.43","","","","","","NA"
"-121.67","69.67","KEATS POINT","2202663","2018-01-31 11:00","2018","01","31","11:00","-24.6","","","","","M","","","","M","","M","","","99.40","","","","","","NA"
"-121.67","69.67","KEATS POINT","2202663","2018-01-31 12:00","2018","01","31","12:00","-25.0","","","","","M","","","","M","","M","","","99.42","","","","","","NA"
"-121.67","69.67","KEATS POINT","2202663","2018-01-31 13:00","2018","01","31","13:00","-25.7","","","","","M","","","","M","","M","","","99.41","","","","","","NA"
"-121.67","69.67","KEATS POINT","2202663","2018-01-31 14:00","2018","01","31","14:00","-25.6","","","","","M","","","","M","","M","","","99.44","","","","","","NA"
"-121.67","69.67","KEATS POINT","2202663","2018-01-31 15:00","2018","01","31","15:00","-25.5","","","","","M","","","","M","","M","","","99.43","","","","","","NA"
"-121.67","69.67","KEATS POINT","2202663","2018-01-31 16:00","2018","01","31","16:00","-25.5","","","","","M","","","","M","","M","","","99.40","","","","","","NA"
"-121.67","69.67","KEATS POINT","2202663","2018-01-31 17:00","2018","01","31","17:00","-25.5","","","","","M","","","","M","","M","","","99.40","","","","","","NA"
"-121.67","69.67","KEATS POINT","2202663","2018-01-31 18:00","2018","01","31","18:00","-25.4","","","","","M","","","","M","","M","","","99.42","","","","","","NA"
"-121.67","69.67","KEATS POINT","2202663","2018-01-31 19:00","2018","01","31","19:00","-25.8","","","","","M","","","","M","","M","","","99.40","","","","","","NA"
"-121.67","69.67","KEATS POINT","2202663","2018-01-31 20:00","2018","01","31","20:00","-25.9","","","","","M","","","","M","","M","","","99.39","","","","","","NA"
"-121.67","69.67","KEATS POINT","2202663","2018-01-31 21:00","2018","01","31","21:00","-26.2","","","","","M","","","","M","","M","","","99.37","","","","","","NA"
"-121.67","69.67","KEATS POINT","2202663","2018-01-31 22:00","2018","01","31","22:00","-26.7","","","","","M","","","","M","","M","","","99.36","","","","","","NA"
"-121.67","69.67","KEATS POINT","2202663","2018-01-31 23:00","2018","01","31","23:00","-26.6","","","","","M","","","","M","","M","","","99.34","","","","","","NA"
