"Longitude (x)","Latitude (y)","Station Name","Climate ID","Date/Time (LST)","Year","Month","Day","Time (LST)","Temp (°C)","Temp Flag","Dew Point Temp (°C)","Dew Point Temp Flag","Rel Hum (%)","Rel Hum Flag","Precip. Amount (mm)","Precip. Amount Flag","Wind Dir (10s deg)","Wind Dir Flag","Wind Spd (km/h)","Wind Spd Flag","Visibility (km)","Visibility Flag","Stn Press (kPa)","Stn Press Flag","Hmdx","Hmdx Flag","Wind Chill","Wind Chill Flag","Weather"
"-121.67","69.67","KEATS POINT","2202663","2018-03-01 00:00","2018","03","01","00:00","-29.3","","","","","M","","","25","","56","","","","98.59","","","","-49","","NA"
"-121.67","69.67","KEATS POINT","2202663","2018-03-01 01:00","2018","03","01","01:00","-29.9","","","","","M","","","25","","61","","","","98.64","","","","-50","","NA"
"-121.67","69.67","KEATS POINT","2202663","2018-03-01 02:00","2018","03","01","02:00","-30.5","","","","","M","","","24","","50","","","","98.74","","","","-50","","NA"
"-121.67","69.67","KEATS POINT","2202663","2018-03-01 03:00","2018","03","01","03:00","-30.8","","","","","M","","","23","","46","","","","98.79","","","","-50","","NA"
"-121.67","69.67","KEATS POINT","2202663","2018-03-01 04:00","2018","03","01","04:00","-31.0","","","","","M","","","23","","54","","","","98.78","","","","-51","","NA"
"-121.67","69.67","KEATS POINT","2202663","2018-03-01 05:00","2018","03","01","05:00","-31.6","","","","","M","","","24","","57","","","","98.89","","","","-52","","NA"
"-121.67","69.67","KEATS POINT","2202663","2018-03-01 06:00","2018","03","01","06:00","-31.5","","","","","M","","","24","","56","","","","98.93","","","","-52","","NA"
"-121.67","69.67","KEATS POINT","2202663","2018-03-01 07:00","2018","03","01","07:00","-31.9","","","","","M","","","23","","52","","","","98.99","","","","-52","","NA"
"-121.67","69.67","KEATS POINT","2202663","2018-03-01 08:00","2018","03","01","08:00","-31.9","","","","","M","","","24","","59","","","","98.93","","","","-53","","NA"
"-121.67","69.67","KEATS POINT","2202663","2018-03-01 09:00","2018","03","01","09:00","-31.8","","","","","M","","","23","","59","","","","98.91","","","","-53","","NA"
"-121.67","69.67","KEATS POINT","2202663","2018-03-01 10:00","2018","03","01","10:00","-31.6","","","","","M","","","24","","61","","","","98.97","","","","-53","","NA"
"-121.67","69.67","KEATS POINT","2202663","2018-03-01 11:00","2018","03","01","11:00","-31.6","","","","","M","","","24","","61","","","","99.00","","","","-53","","NA"
"-121.67","69.67","KEATS POINT","2202663","2018-03-01 12:00","2018","03","01","12:00","-31.1","","","","","M","","","25","","59","","","","99.14","","","","-52","","NA"
"-121.67","69.67","KEATS POINT","2202663","2018-03-01 13:00","2018","03","01","13:00","-31.0","","","","","M","","","23","","56","","","","99.09","","","","-51","","NA"
"-121.67","69.67","KEATS POINT","2202663","2018-03-01 14:00","2018","03","01","14:00","-30.9","","","","","M","","","23","","50","","","","99.18","","","","-50","","NA"
"-121.67","69.67","KEATS POINT","2202663","2018-03-01 15:00","2018","03","01","15:00","-30.9","","","","","M","","","22","","46","","","","99.21","","","","-50","","NA"
"-121.67","69.67","KEATS POINT","2202663","2018-03-01 16:00","2018","03","01","16:00","-31.0","","","","","M","","","22","","46","","","","99.25","","","","-50","","NA"
"-121.67","69.67","KEATS POINT","2202663","2018-03-01 17:00","2018","03","01","17:00","-31.3","","","","","M","","","22","","44","","","","99.28","","","","-50","","NA"
"-121.67","69.67","KEATS POINT","2202663","2018-03-01 18:00","2018","03","01","18:00","-31.6","","","","","M","","","22","","44","","","","99.32","","","","-50","","NA"
"-121.67","69.67","KEATS POINT","2202663","2018-03-01 19:00","2018","03","01","19:00","-31.7","","","","","M","","","22","","52","","","","99.35","","","","-52","","NA"
"-121.67","69.67","KEATS POINT","2202663","2018-03-01 20:00","2018","03","01","20:00","-31.3","","","","","M","","","21","","52","","","","99.33","","","","-51","","NA"
"-121.67","69.67","KEATS POINT","2202663","2018-03-01 21:00","2018","03","01","21:00","-30.8","","","","","M","","","21","","48","","","","99.32","","","","-50","","NA"
"-121.67","69.67","KEATS POINT","2202663","2018-03-01 22:00","2018","03","01","22:00","-30.3","","","","","M","","","21","","50","","","","99.35","","","","-49","","NA"
"-121.67","69.67","KEATS POINT","2202663","2018-03-01 23:00","2018","03","01","23:00","-30.2","","","","","M","","","21","","43","","","","99.33","","","","-48","","NA"
"-121.67","69.67","KEATS POINT","2202663","2018-03-02 00:00","2018","03","02","00:00","-29.7","","","","","M","","","21","","33","","","","99.37","","","","-46","","NA"
"-121.67","69.67","KEATS POINT","2202663","2018-03-02 01:00","2018","03","02","01:00","-29.8","","","","","M","","","36","","4","","","","99.41","","","","-34","","NA"
"-121.67","69.67","KEATS POINT","2202663","2018-03-02 02:00","2018","03","02","02:00","-29.6","","","","","M","","","32","","4","","","","99.42","","","","-34","","NA"
"-121.67","69.67","KEATS POINT","2202663","2018-03-02 03:00","2018","03","02","03:00","-30.1","","","","","M","","","28","","9","","","","99.45","","","","-39","","NA"
"-121.67","69.67","KEATS POINT","2202663","2018-03-02 04:00","2018","03","02","04:00","-30.4","","","","","M","","","24","","20","","","","99.44","","","","-44","","NA"
"-121.67","69.67","KEATS POINT","2202663","2018-03-02 05:00","2018","03","02","05:00","-30.1","","","","","M","","","24","","26","","","","99.41","","","","-45","","NA"
"-121.67","69.67","KEATS POINT","2202663","2018-03-02 06:00","2018","03","02","06:00","-30.8","","","","","M","","","9","","11","","","","99.41","","","","-41","","NA"
"-121.67","69.67","KEATS POINT","2202663","2018-03-02 07:00","2018","03","02","07:00","-31.1","","","","","M","","","10","","9","","","","99.41","","","","-40","","NA"
"-121.67","69.67","KEATS POINT","2202663","2018-03-02 08:00","2018","03","02","08:00","-30.4","","","","","M","","","34","","9","","","","99.42","","","","-39","","NA"
"-121.67","69.67","KEATS POINT","2202663","2018-03-02 09:00","2018","03","02","09:00","-29.8","","","","","M","","","2","","6","","","","99.42","","","","-36","","NA"
"-121.67","69.67","KEATS POINT","2202663","2018-03-02 10:00","2018","03","02","10:00","-29.6","","","","","M","","","10","","6","","","","99.38","","","","-36","","NA"
"-121.67","69.67","KEATS POINT","2202663","2018-03-02 11:00","2018","03","02","11:00","-28.2","","","","","M","","","35","","6","","","","99.39","","","","-34","","NA"
"-121.67","69.67","KEATS POINT","2202663","2018-03-02 12:00","2018","03","02","12:00","-28.3","","","","","M","","","5","","6","","","","99.35","","","","-35","","NA"
"-121.67","69.67","KEATS POINT","2202663","2018-03-02 13:00","2018","03","02","13:00","-27.2","","","","","M","","","5","","6","","","","99.33","","","","-33","","NA"
"-121.67","69.67","KEATS POINT","2202663","2018-03-02 14:00","2018","03","02","14:00","-26.6","","","","","M","","","5","","9","","","","99.32","","","","-35","","NA"
"-121.67","69.67","KEATS POINT","2202663","2018-03-02 15:00","2018","03","02","15:00","-26.3","","","","","M","","","5","","9","","","","99.30","","","","-34","","NA"
"-121.67","69.67","KEATS POINT","2202663","2018-03-02 16:00","2018","03","02","16:00","-24.3","","","","","M","","","22","","26","","","","99.26","","","","-37","","NA"
"-121.67","69.67","KEATS POINT","2202663","2018-03-02 17:00","2018","03","02","17:00","-23.4","","","","","M","","","22","","22","","","","99.25","","","","-35","","NA"
"-121.67","69.67","KEATS POINT","2202663","2018-03-02 18:00","2018","03","02","18:00","-24.7","","","","","M","","","10","","13","","","","99.21","","","","-34","","NA"
"-121.67","69.67","KEATS POINT","2202663","2018-03-02 19:00","2018","03","02","19:00","-23.3","","","","","M","","","20","","6","","","","99.19","","","","-29","","NA"
"-121.67","69.67","KEATS POINT","2202663","2018-03-02 20:00","2018","03","02","20:00","-22.6","","","","","M","","","17","","15","","","","99.15","","","","-32","","NA"
"-121.67","69.67","KEATS POINT","2202663","2018-03-02 21:00","2018","03","02","21:00","-20.3","","","","","M","","","21","","19","","","","99.12","","","","-31","","NA"
"-121.67","69.67","KEATS POINT","2202663","2018-03-02 22:00","2018","03","02","22:00","-21.2","","","","","M","","","9","","9","","","","99.10","","","","-28","","NA"
"-121.67","69.67","KEATS POINT","2202663","2018-03-02 23:00","2018","03","02","23:00","-22.4","","","","","M","","","15","","17","","","","99.08","","","","-33","","NA"
"-121.67","69.67","KEATS POINT","2202663","2018-03-03 00:00","2018","03","03","00:00","-22.6","","","","","M","","","14","","11","","","","99.02","","","","-31","","NA"
"-121.67","69.67","KEATS POINT","2202663","2018-03-03 01:00","2018","03","03","01:00","-21.8","","","","","M","","","","","0","","","","98.99","","","","","","NA"
"-121.67","69.67","KEATS POINT","2202663","2018-03-03 02:00","2018","03","03","02:00","-22.1","","","","","M","","","20","","6","","","","98.94","","","","-27","","NA"
"-121.67","69.67","KEATS POINT","2202663","2018-03-03 03:00","2018","03","03","03:00","-21.7","","","","","M","","","18","","6","","","","98.88","","","","-27","","NA"
"-121.67","69.67","KEATS POINT","2202663","2018-03-03 04:00","2018","03","03","04:00","-20.8","","","","","M","","","","","0","","","","98.85","","","","","","NA"
"-121.67","69.67","KEATS POINT","2202663","2018-03-03 05:00","2018","03","03","05:00","-21.8","","","","","M","","","16","","9","","","","98.80","","","","-29","","NA"
"-121.67","69.67","KEATS POINT","2202663","2018-03-03 06:00","2018","03","03","06:00","-20.9","","","","","M","","","11","","13","","","","98.72","","","","-30","","NA"
"-121.67","69.67","KEATS POINT","2202663","2018-03-03 07:00","2018","03","03","07:00","-21.6","","","","","M","","","10","","15","","","","98.68","","","","-31","","NA"
"-121.67","69.67","KEATS POINT","2202663","2018-03-03 08:00","2018","03","03","08:00","-21.8","","","","","M","","","11","","13","","","","98.64","","","","-31","","NA"
"-121.67","69.67","KEATS POINT","2202663","2018-03-03 09:00","2018","03","03","09:00","-21.4","","","","","M","","","23","","6","","","","98.62","","","","-27","","NA"
"-121.67","69.67","KEATS POINT","2202663","2018-03-03 10:00","2018","03","03","10:00","-20.6","","","","","M","","","3","","7","","","","98.59","","","","-26","","NA"
"-121.67","69.67","KEATS POINT","2202663","2018-03-03 11:00","2018","03","03","11:00","-21.3","","","","","M","","","30","","7","","","","98.54","","","","-27","","NA"
"-121.67","69.67","KEATS POINT","2202663","2018-03-03 12:00","2018","03","03","12:00","-19.7","","","","","M","","","19","","9","","","","98.51","","","","-26","","NA"
"-121.67","69.67","KEATS POINT","2202663","2018-03-03 13:00","2018","03","03","13:00","-20.0","","","","","M","","","25","","7","","","","98.48","","","","-26","","NA"
"-121.67","69.67","KEATS POINT","2202663","2018-03-03 14:00","2018","03","03","14:00","-18.6","","","","","M","","","6","","6","","","","98.45","","","","-23","","NA"
"-121.67","69.67","KEATS POINT","2202663","2018-03-03 15:00","2018","03","03","15:00","-18.6","","","","","M","","","9","","7","","","","98.43","","","","-24","","NA"
"-121.67","69.67","KEATS POINT","2202663","2018-03-03 16:00","2018","03","03","16:00","-17.6","","","","","M","","","10","","7","","","","98.39","","","","-23","","NA"
"-121.67","69.67","KEATS POINT","2202663","2018-03-03 17:00","2018","03","03","17:00","-19.1","","","","","M","","","13","","7","","","","98.34","","","","-25","","NA"
"-121.67","69.67","KEATS POINT","2202663","2018-03-03 18:00","2018","03","03","18:00","-20.5","","","","","M","","","13","","11","","","","98.33","","","","-28","","NA"
"-121.67","69.67","KEATS POINT","2202663","2018-03-03 19:00","2018","03","03","19:00","-18.3","","","","","M","","","18","","11","","","","98.28","","","","-26","","NA"
"-121.67","69.67","KEATS POINT","2202663","2018-03-03 20:00","2018","03","03","20:00","-18.1","","","","","M","","","19","","13","","","","98.27","","","","-26","","NA"
"-121.67","69.67","KEATS POINT","2202663","2018-03-03 21:00","2018","03","03","21:00","-19.5","","","","","M","","","18","","15","","","","98.24","","","","-28","","NA"
"-121.67","69.67","KEATS POINT","2202663","2018-03-03 22:00","2018","03","03","22:00","-19.4","","","","","M","","","19","","19","","","","98.21","","","","-29","","NA"
"-121.67","69.67","KEATS POINT","2202663","2018-03-03 23:00","2018","03","03","23:00","-20.7","","","","","M","","","22","","31","","","","98.15","","","","-34","","NA"
"-121.67","69.67","KEATS POINT","2202663","2018-03-04 00:00","2018","03","04","00:00","-20.9","","","","","M","","","21","","37","","","","98.12","","","","-35","","NA"
"-121.67","69.67","KEATS POINT","2202663","2018-03-04 01:00","2018","03","04","01:00","-20.0","","","","","M","","","21","","41","","","","98.09","","","","-34","","NA"
"-121.67","69.67","KEATS POINT","2202663","2018-03-04 02:00","2018","03","04","02:00","-19.7","","","","","M","","","21","","35","","","","98.10","","","","-33","","NA"
"-121.67","69.67","KEATS POINT","2202663","2018-03-04 03:00","2018","03","04","03:00","-18.3","","","","","M","","","22","","20","","","","98.11","","","","-28","","NA"
"-121.67","69.67","KEATS POINT","2202663","2018-03-04 04:00","2018","03","04","04:00","-18.2","","","","","M","","","23","","33","","","","98.07","","","","-31","","NA"
"-121.67","69.67","KEATS POINT","2202663","2018-03-04 05:00","2018","03","04","05:00","-17.3","","","","","M","","","22","","41","","","","98.00","","","","-31","","NA"
"-121.67","69.67","KEATS POINT","2202663","2018-03-04 06:00","2018","03","04","06:00","-16.1","","","","","M","","","21","","41","","","","97.99","","","","-29","","NA"
"-121.67","69.67","KEATS POINT","2202663","2018-03-04 07:00","2018","03","04","07:00","-15.7","","","","","M","","","22","","46","","","","97.92","","","","-29","","NA"
"-121.67","69.67","KEATS POINT","2202663","2018-03-04 08:00","2018","03","04","08:00","-15.4","","","","","M","","","21","","57","","","","97.86","","","","-30","","NA"
"-121.67","69.67","KEATS POINT","2202663","2018-03-04 09:00","2018","03","04","09:00","-14.7","","","","","M","","","21","","59","","","","97.85","","","","-29","","NA"
"-121.67","69.67","KEATS POINT","2202663","2018-03-04 10:00","2018","03","04","10:00","-13.9","","","","","M","","","22","","50","","","","97.88","","","","-27","","NA"
"-121.67","69.67","KEATS POINT","2202663","2018-03-04 11:00","2018","03","04","11:00","-13.5","","","","","M","","","24","","57","","","","97.88","","","","-27","","NA"
"-121.67","69.67","KEATS POINT","2202663","2018-03-04 12:00","2018","03","04","12:00","-12.5","","","","","M","","","25","","65","","","","97.84","","","","-26","","NA"
"-121.67","69.67","KEATS POINT","2202663","2018-03-04 13:00","2018","03","04","13:00","-12.9","","","","","M","","","25","","63","","","","97.90","","","","-27","","NA"
"-121.67","69.67","KEATS POINT","2202663","2018-03-04 14:00","2018","03","04","14:00","-13.5","","","","","M","","","24","","69","","","","97.95","","","","-28","","NA"
"-121.67","69.67","KEATS POINT","2202663","2018-03-04 15:00","2018","03","04","15:00","-14.2","","","","","M","","","25","","63","","","","98.03","","","","-29","","NA"
"-121.67","69.67","KEATS POINT","2202663","2018-03-04 16:00","2018","03","04","16:00","-14.8","","","","","M","","","25","","59","","","","98.14","","","","-29","","NA"
"-121.67","69.67","KEATS POINT","2202663","2018-03-04 17:00","2018","03","04","17:00","-15.5","","","","","M","","","25","","52","","","","98.23","","","","-29","","NA"
"-121.67","69.67","KEATS POINT","2202663","2018-03-04 18:00","2018","03","04","18:00","-14.8","","","","","M","","","25","","54","","","","98.32","","","","-29","","NA"
"-121.67","69.67","KEATS POINT","2202663","2018-03-04 19:00","2018","03","04","19:00","-14.2","","","","","M","","","23","","46","","","","98.35","","","","-27","","NA"
"-121.67","69.67","KEATS POINT","2202663","2018-03-04 20:00","2018","03","04","20:00","-13.6","","","","","M","","","23","","41","","","","98.41","","","","-26","","NA"
"-121.67","69.67","KEATS POINT","2202663","2018-03-04 21:00","2018","03","04","21:00","-12.7","","","","","M","","","23","","41","","","","98.40","","","","-24","","NA"
"-121.67","69.67","KEATS POINT","2202663","2018-03-04 22:00","2018","03","04","22:00","-12.3","","","","","M","","","23","","46","","","","98.40","","","","-25","","NA"
"-121.67","69.67","KEATS POINT","2202663","2018-03-04 23:00","2018","03","04","23:00","-12.1","","","","","M","","","24","","48","","","","98.41","","","","-24","","NA"
"-121.67","69.67","KEATS POINT","2202663","2018-03-05 00:00","2018","03","05","00:00","-11.5","","","","","M","","","24","","48","","","","98.43","","","","-24","","NA"
"-121.67","69.67","KEATS POINT","2202663","2018-03-05 01:00","2018","03","05","01:00","-11.7","","","","","M","","","22","","46","","","","98.40","","","","-24","","NA"
"-121.67","69.67","KEATS POINT","2202663","2018-03-05 02:00","2018","03","05","02:00","-12.1","","","","","M","","","22","","44","","","","98.44","","","","-24","","NA"
"-121.67","69.67","KEATS POINT","2202663","2018-03-05 03:00","2018","03","05","03:00","-12.1","","","","","M","","","22","","41","","","","98.47","","","","-24","","NA"
"-121.67","69.67","KEATS POINT","2202663","2018-03-05 04:00","2018","03","05","04:00","-11.6","","","","","M","","","23","","54","","","","98.44","","","","-24","","NA"
"-121.67","69.67","KEATS POINT","2202663","2018-03-05 05:00","2018","03","05","05:00","-11.0","","","","","M","","","23","","50","","","","98.49","","","","-23","","NA"
"-121.67","69.67","KEATS POINT","2202663","2018-03-05 06:00","2018","03","05","06:00","-11.3","","","","","M","","","22","","44","","","","98.50","","","","-23","","NA"
"-121.67","69.67","KEATS POINT","2202663","2018-03-05 07:00","2018","03","05","07:00","-11.4","","","","","M","","","22","","43","","","","98.49","","","","-23","","NA"
"-121.67","69.67","KEATS POINT","2202663","2018-03-05 08:00","2018","03","05","08:00","-11.4","","","","","M","","","23","","46","","","","98.49","","","","-23","","NA"
"-121.67","69.67","KEATS POINT","2202663","2018-03-05 09:00","2018","03","05","09:00","-11.1","","","","","M","","","23","","48","","","","98.54","","","","-23","","NA"
"-121.67","69.67","KEATS POINT","2202663","2018-03-05 10:00","2018","03","05","10:00","-10.5","","","","","M","","","25","","43","","","","98.57","","","","-22","","NA"
"-121.67","69.67","KEATS POINT","2202663","2018-03-05 11:00","2018","03","05","11:00","-11.1","","","","","M","","","25","","43","","","","98.57","","","","-23","","NA"
"-121.67","69.67","KEATS POINT","2202663","2018-03-05 12:00","2018","03","05","12:00","-11.0","","","","","M","","","24","","48","","","","98.56","","","","-23","","NA"
"-121.67","69.67","KEATS POINT","2202663","2018-03-05 13:00","2018","03","05","13:00","-11.1","","","","","M","","","24","","46","","","","98.60","","","","-23","","NA"
"-121.67","69.67","KEATS POINT","2202663","2018-03-05 14:00","2018","03","05","14:00","-10.6","","","","","M","","","23","","43","","","","98.61","","","","-22","","NA"
"-121.67","69.67","KEATS POINT","2202663","2018-03-05 15:00","2018","03","05","15:00","-10.9","","","","","M","","","22","","44","","","","98.57","","","","-22","","NA"
"-121.67","69.67","KEATS POINT","2202663","2018-03-05 16:00","2018","03","05","16:00","-11.3","","","","","M","","","22","","41","","","","98.60","","","","-23","","NA"
"-121.67","69.67","KEATS POINT","2202663","2018-03-05 17:00","2018","03","05","17:00","-11.7","","","","","M","","","21","","50","","","","98.63","","","","-24","","NA"
"-121.67","69.67","KEATS POINT","2202663","2018-03-05 18:00","2018","03","05","18:00","-12.2","","","","","M","","","21","","52","","","","98.58","","","","-25","","NA"
"-121.67","69.67","KEATS POINT","2202663","2018-03-05 19:00","2018","03","05","19:00","-11.9","","","","","M","","","21","","50","","","","98.56","","","","-24","","NA"
"-121.67","69.67","KEATS POINT","2202663","2018-03-05 20:00","2018","03","05","20:00","-11.8","","","","","M","","","21","","48","","","","98.58","","","","-24","","NA"
"-121.67","69.67","KEATS POINT","2202663","2018-03-05 21:00","2018","03","05","21:00","-11.7","","","","","M","","","21","","43","","","","98.59","","","","-23","","NA"
"-121.67","69.67","KEATS POINT","2202663","2018-03-05 22:00","2018","03","05","22:00","-12.1","","","","","M","","","21","","41","","","","98.58","","","","-24","","NA"
"-121.67","69.67","KEATS POINT","2202663","2018-03-05 23:00","2018","03","05","23:00","-11.6","","","","","M","","","21","","57","","","","98.52","","","","-25","","NA"
"-121.67","69.67","KEATS POINT","2202663","2018-03-06 00:00","2018","03","06","00:00","-12.2","","","","","M","","","21","","50","","","","98.55","","","","-25","","NA"
"-121.67","69.67","KEATS POINT","2202663","2018-03-06 01:00","2018","03","06","01:00","-12.5","","","","","M","","","20","","50","","","","98.57","","","","-25","","NA"
"-121.67","69.67","KEATS POINT","2202663","2018-03-06 02:00","2018","03","06","02:00","-12.3","","","","","M","","","20","","48","","","","98.54","","","","-25","","NA"
"-121.67","69.67","KEATS POINT","2202663","2018-03-06 03:00","2018","03","06","03:00","-12.5","","","","","M","","","20","","59","","","","98.49","","","","-26","","NA"
"-121.67","69.67","KEATS POINT","2202663","2018-03-06 04:00","2018","03","06","04:00","-12.8","","","","","M","","","21","","57","","","","98.44","","","","-26","","NA"
"-121.67","69.67","KEATS POINT","2202663","2018-03-06 05:00","2018","03","06","05:00","-13.0","","","","","M","","","20","","54","","","","98.43","","","","-26","","NA"
"-121.67","69.67","KEATS POINT","2202663","2018-03-06 06:00","2018","03","06","06:00","-12.1","","","","","M","","","20","","59","","","","98.38","","","","-25","","NA"
"-121.67","69.67","KEATS POINT","2202663","2018-03-06 07:00","2018","03","06","07:00","-12.2","","","","","M","","","20","","59","","","","98.37","","","","-26","","NA"
"-121.67","69.67","KEATS POINT","2202663","2018-03-06 08:00","2018","03","06","08:00","-12.7","","","","","M","","","20","","59","","","","98.34","","","","-26","","NA"
"-121.67","69.67","KEATS POINT","2202663","2018-03-06 09:00","2018","03","06","09:00","-12.1","","","","","M","","","20","","56","","","","98.31","","","","-25","","NA"
"-121.67","69.67","KEATS POINT","2202663","2018-03-06 10:00","2018","03","06","10:00","-12.0","","","","","M","","","20","","56","","","","98.27","","","","-25","","NA"
"-121.67","69.67","KEATS POINT","2202663","2018-03-06 11:00","2018","03","06","11:00","-11.8","","","","","M","","","20","","50","","","","98.27","","","","-24","","NA"
"-121.67","69.67","KEATS POINT","2202663","2018-03-06 12:00","2018","03","06","12:00","-11.8","","","","","M","","","20","","52","","","","98.27","","","","-24","","NA"
"-121.67","69.67","KEATS POINT","2202663","2018-03-06 13:00","2018","03","06","13:00","-11.7","","","","","M","","","20","","43","","","","98.28","","","","-23","","NA"
"-121.67","69.67","KEATS POINT","2202663","2018-03-06 14:00","2018","03","06","14:00","-11.1","","","","","M","","","20","","43","","","","98.25","","","","-23","","NA"
"-121.67","69.67","KEATS POINT","2202663","2018-03-06 15:00","2018","03","06","15:00","-11.0","","","","","M","","","16","","20","","","","98.28","","","","-19","","NA"
"-121.67","69.67","KEATS POINT","2202663","2018-03-06 16:00","2018","03","06","16:00","-11.2","","","","","M","","","20","","43","","","","98.16","","","","-23","","NA"
"-121.67","69.67","KEATS POINT","2202663","2018-03-06 17:00","2018","03","06","17:00","-11.9","","","","","M","","","20","","43","","","","98.12","","","","-24","","NA"
"-121.67","69.67","KEATS POINT","2202663","2018-03-06 18:00","2018","03","06","18:00","-12.0","","","","","M","","","20","","39","","","","98.05","","","","-23","","NA"
"-121.67","69.67","KEATS POINT","2202663","2018-03-06 19:00","2018","03","06","19:00","-12.0","","","","","M","","","20","","39","","","","98.00","","","","-23","","NA"
"-121.67","69.67","KEATS POINT","2202663","2018-03-06 20:00","2018","03","06","20:00","-11.8","","","","","M","","","18","","46","","","","97.96","","","","-24","","NA"
"-121.67","69.67","KEATS POINT","2202663","2018-03-06 21:00","2018","03","06","21:00","-12.4","","","","","M","","","19","","44","","","","97.92","","","","-24","","NA"
"-121.67","69.67","KEATS POINT","2202663","2018-03-06 22:00","2018","03","06","22:00","-13.3","","","","","M","","","18","","31","","","","97.94","","","","-24","","NA"
"-121.67","69.67","KEATS POINT","2202663","2018-03-06 23:00","2018","03","06","23:00","-14.4","","","","","M","","","16","","20","","","","97.93","","","","-23","","NA"
"-121.67","69.67","KEATS POINT","2202663","2018-03-07 00:00","2018","03","07","00:00","-14.5","","","","","M","","","19","","33","","","","97.88","","","","-26","","NA"
"-121.67","69.67","KEATS POINT","2202663","2018-03-07 01:00","2018","03","07","01:00","-14.0","","","","","M","","","21","","33","","","","97.81","","","","-25","","NA"
"-121.67","69.67","KEATS POINT","2202663","2018-03-07 02:00","2018","03","07","02:00","-12.9","","","","","M","","","21","","41","","","","97.79","","","","-25","","NA"
"-121.67","69.67","KEATS POINT","2202663","2018-03-07 03:00","2018","03","07","03:00","-13.9","","","","","M","","","21","","35","","","","97.74","","","","-25","","NA"
"-121.67","69.67","KEATS POINT","2202663","2018-03-07 04:00","2018","03","07","04:00","-12.9","","","","","M","","","20","","33","","","","97.69","","","","-24","","NA"
"-121.67","69.67","KEATS POINT","2202663","2018-03-07 05:00","2018","03","07","05:00","-12.4","","","","","M","","","1","","11","","","","97.72","","","","-18","","NA"
"-121.67","69.67","KEATS POINT","2202663","2018-03-07 06:00","2018","03","07","06:00","-13.9","","","","","M","","","21","","26","","","","97.68","","","","-24","","NA"
"-121.67","69.67","KEATS POINT","2202663","2018-03-07 07:00","2018","03","07","07:00","-13.4","","","","","M","","","21","","31","","","","97.64","","","","-24","","NA"
"-121.67","69.67","KEATS POINT","2202663","2018-03-07 08:00","2018","03","07","08:00","-14.3","","","","","M","","","21","","31","","","","97.59","","","","-25","","NA"
"-121.67","69.67","KEATS POINT","2202663","2018-03-07 09:00","2018","03","07","09:00","-13.5","","","","","M","","","20","","30","","","","97.55","","","","-24","","NA"
"-121.67","69.67","KEATS POINT","2202663","2018-03-07 10:00","2018","03","07","10:00","-13.3","","","","","M","","","21","","28","","","","97.53","","","","-24","","NA"
"-121.67","69.67","KEATS POINT","2202663","2018-03-07 11:00","2018","03","07","11:00","-13.8","","","","","M","","","21","","24","","","","97.52","","","","-23","","NA"
"-121.67","69.67","KEATS POINT","2202663","2018-03-07 12:00","2018","03","07","12:00","-13.7","","","","","M","","","21","","28","","","","97.51","","","","-24","","NA"
"-121.67","69.67","KEATS POINT","2202663","2018-03-07 13:00","2018","03","07","13:00","-13.4","","","","","M","","","21","","31","","","","97.50","","","","-24","","NA"
"-121.67","69.67","KEATS POINT","2202663","2018-03-07 14:00","2018","03","07","14:00","-13.3","","","","","M","","","20","","30","","","","97.49","","","","-24","","NA"
"-121.67","69.67","KEATS POINT","2202663","2018-03-07 15:00","2018","03","07","15:00","-13.3","","","","","M","","","21","","33","","","","97.48","","","","-24","","NA"
"-121.67","69.67","KEATS POINT","2202663","2018-03-07 16:00","2018","03","07","16:00","-13.4","","","","","M","","","20","","33","","","","97.45","","","","-24","","NA"
"-121.67","69.67","KEATS POINT","2202663","2018-03-07 17:00","2018","03","07","17:00","-13.5","","","","","M","","","21","","20","","","","97.47","","","","-22","","NA"
"-121.67","69.67","KEATS POINT","2202663","2018-03-07 18:00","2018","03","07","18:00","-13.2","","","","","M","","","20","","17","","","","97.46","","","","-21","","NA"
"-121.67","69.67","KEATS POINT","2202663","2018-03-07 19:00","2018","03","07","19:00","-13.4","","","","","M","","","21","","15","","","","97.47","","","","-21","","NA"
"-121.67","69.67","KEATS POINT","2202663","2018-03-07 20:00","2018","03","07","20:00","-14.0","","","","","M","","","21","","20","","","","97.40","","","","-23","","NA"
"-121.67","69.67","KEATS POINT","2202663","2018-03-07 21:00","2018","03","07","21:00","-14.6","","","","","M","","","21","","17","","","","97.38","","","","-23","","NA"
"-121.67","69.67","KEATS POINT","2202663","2018-03-07 22:00","2018","03","07","22:00","-14.6","","","","","M","","","21","","22","","","","97.35","","","","-24","","NA"
"-121.67","69.67","KEATS POINT","2202663","2018-03-07 23:00","2018","03","07","23:00","-15.3","","","","","M","","","22","","26","","","","97.32","","","","-26","","NA"
"-121.67","69.67","KEATS POINT","2202663","2018-03-08 00:00","2018","03","08","00:00","-14.8","","","","","M","","","20","","20","","","","97.29","","","","-24","","NA"
"-121.67","69.67","KEATS POINT","2202663","2018-03-08 01:00","2018","03","08","01:00","-15.2","","","","","M","","","21","","19","","","","97.28","","","","-24","","NA"
"-121.67","69.67","KEATS POINT","2202663","2018-03-08 02:00","2018","03","08","02:00","-15.1","","","","","M","","","19","","24","","","","97.25","","","","-25","","NA"
"-121.67","69.67","KEATS POINT","2202663","2018-03-08 03:00","2018","03","08","03:00","-14.8","","","","","M","","","16","","15","","","","97.22","","","","-23","","NA"
"-121.67","69.67","KEATS POINT","2202663","2018-03-08 04:00","2018","03","08","04:00","-15.0","","","","","M","","","20","","11","","","","97.17","","","","-22","","NA"
"-121.67","69.67","KEATS POINT","2202663","2018-03-08 05:00","2018","03","08","05:00","-14.6","","","","","M","","","34","","4","","","","97.13","","","","-17","","NA"
"-121.67","69.67","KEATS POINT","2202663","2018-03-08 06:00","2018","03","08","06:00","-15.0","","","","","M","","","6","","4","","","","97.09","","","","-18","","NA"
"-121.67","69.67","KEATS POINT","2202663","2018-03-08 07:00","2018","03","08","07:00","-14.7","","","","","M","","","","","0","","","","97.04","","","","","","NA"
"-121.67","69.67","KEATS POINT","2202663","2018-03-08 08:00","2018","03","08","08:00","-14.5","","","","","M","","","","","0","","","","97.02","","","","","","NA"
"-121.67","69.67","KEATS POINT","2202663","2018-03-08 09:00","2018","03","08","09:00","-14.7","","","","","M","","","13","","11","","","","96.96","","","","-21","","NA"
"-121.67","69.67","KEATS POINT","2202663","2018-03-08 10:00","2018","03","08","10:00","-14.5","","","","","M","","","20","","4","","","","96.92","","","","-17","","NA"
"-121.67","69.67","KEATS POINT","2202663","2018-03-08 11:00","2018","03","08","11:00","-13.9","","","","","M","","","10","","7","","","","96.90","","","","-19","","NA"
"-121.67","69.67","KEATS POINT","2202663","2018-03-08 12:00","2018","03","08","12:00","-14.7","","","","","M","","","30","","6","","","","96.86","","","","-19","","NA"
"-121.67","69.67","KEATS POINT","2202663","2018-03-08 13:00","2018","03","08","13:00","-14.0","","","","","M","","","","","0","","","","96.85","","","","","","NA"
"-121.67","69.67","KEATS POINT","2202663","2018-03-08 14:00","2018","03","08","14:00","-15.7","","","","","M","","","9","","13","","","","96.80","","","","-23","","NA"
"-121.67","69.67","KEATS POINT","2202663","2018-03-08 15:00","2018","03","08","15:00","-14.9","","","","","M","","","13","","20","","","","96.78","","","","-24","","NA"
"-121.67","69.67","KEATS POINT","2202663","2018-03-08 16:00","2018","03","08","16:00","-17.6","","","","","M","","","11","","20","","","","96.74","","","","-27","","NA"
"-121.67","69.67","KEATS POINT","2202663","2018-03-08 17:00","2018","03","08","17:00","-19.3","","","","","M","","","12","","24","","","","96.74","","","","-31","","NA"
"-121.67","69.67","KEATS POINT","2202663","2018-03-08 18:00","2018","03","08","18:00","-21.7","","","","","M","","","11","","24","","","","96.70","","","","-34","","NA"
"-121.67","69.67","KEATS POINT","2202663","2018-03-08 19:00","2018","03","08","19:00","-21.2","","","","","M","","","12","","24","","","","96.69","","","","-33","","NA"
"-121.67","69.67","KEATS POINT","2202663","2018-03-08 20:00","2018","03","08","20:00","-20.5","","","","","M","","","12","","28","","","","96.62","","","","-33","","NA"
"-121.67","69.67","KEATS POINT","2202663","2018-03-08 21:00","2018","03","08","21:00","-24.2","","","","","M","","","11","","31","","","","96.59","","","","-38","","NA"
"-121.67","69.67","KEATS POINT","2202663","2018-03-08 22:00","2018","03","08","22:00","-22.3","","","","","M","","","11","","35","","","","96.55","","","","-36","","NA"
"-121.67","69.67","KEATS POINT","2202663","2018-03-08 23:00","2018","03","08","23:00","-23.7","","","","","M","","","11","","30","","","","96.52","","","","-37","","NA"
"-121.67","69.67","KEATS POINT","2202663","2018-03-09 00:00","2018","03","09","00:00","-22.0","","","","","M","","","12","","28","","","","96.52","","","","-35","","NA"
"-121.67","69.67","KEATS POINT","2202663","2018-03-09 01:00","2018","03","09","01:00","-23.8","","","","","M","","","11","","24","","","","96.51","","","","-36","","NA"
"-121.67","69.67","KEATS POINT","2202663","2018-03-09 02:00","2018","03","09","02:00","-24.1","","","","","M","","","9","","22","","","","96.52","","","","-36","","NA"
"-121.67","69.67","KEATS POINT","2202663","2018-03-09 03:00","2018","03","09","03:00","-23.7","","","","","M","","","10","","20","","","","96.54","","","","-35","","NA"
"-121.67","69.67","KEATS POINT","2202663","2018-03-09 04:00","2018","03","09","04:00","-22.9","","","","","M","","","9","","20","","","","96.53","","","","-34","","NA"
"-121.67","69.67","KEATS POINT","2202663","2018-03-09 05:00","2018","03","09","05:00","-23.1","","","","","M","","","10","","28","","","","96.52","","","","-36","","NA"
"-121.67","69.67","KEATS POINT","2202663","2018-03-09 06:00","2018","03","09","06:00","-23.1","","","","","M","","","11","","35","","","","96.49","","","","-37","","NA"
"-121.67","69.67","KEATS POINT","2202663","2018-03-09 07:00","2018","03","09","07:00","-23.2","","","","","M","","","10","","33","","","","96.49","","","","-37","","NA"
"-121.67","69.67","KEATS POINT","2202663","2018-03-09 08:00","2018","03","09","08:00","-23.3","","","","","M","","","10","","28","","","","96.49","","","","-36","","NA"
"-121.67","69.67","KEATS POINT","2202663","2018-03-09 09:00","2018","03","09","09:00","-23.6","","","","","M","","","10","","30","","","","96.51","","","","-37","","NA"
"-121.67","69.67","KEATS POINT","2202663","2018-03-09 10:00","2018","03","09","10:00","-23.5","","","","","M","","","10","","26","","","","96.56","","","","-36","","NA"
"-121.67","69.67","KEATS POINT","2202663","2018-03-09 11:00","2018","03","09","11:00","-23.5","","","","","M","","","9","","31","","","","96.51","","","","-37","","NA"
"-121.67","69.67","KEATS POINT","2202663","2018-03-09 12:00","2018","03","09","12:00","-23.7","","","","","M","","","9","","31","","","","96.52","","","","-38","","NA"
"-121.67","69.67","KEATS POINT","2202663","2018-03-09 13:00","2018","03","09","13:00","-23.7","","","","","M","","","9","","37","","","","96.48","","","","-39","","NA"
"-121.67","69.67","KEATS POINT","2202663","2018-03-09 14:00","2018","03","09","14:00","-24.0","","","","","M","","","10","","37","","","","96.49","","","","-39","","NA"
"-121.67","69.67","KEATS POINT","2202663","2018-03-09 15:00","2018","03","09","15:00","-24.1","","","","","M","","","9","","37","","","","96.48","","","","-39","","NA"
"-121.67","69.67","KEATS POINT","2202663","2018-03-09 16:00","2018","03","09","16:00","-24.0","","","","","M","","","10","","33","","","","96.47","","","","-38","","NA"
"-121.67","69.67","KEATS POINT","2202663","2018-03-09 17:00","2018","03","09","17:00","-24.3","","","","","M","","","10","","35","","","","96.49","","","","-39","","NA"
"-121.67","69.67","KEATS POINT","2202663","2018-03-09 18:00","2018","03","09","18:00","-25.1","","","","","M","","","10","","35","","","","96.47","","","","-40","","NA"
"-121.67","69.67","KEATS POINT","2202663","2018-03-09 19:00","2018","03","09","19:00","-26.0","","","","","M","","","10","","39","","","","96.45","","","","-42","","NA"
"-121.67","69.67","KEATS POINT","2202663","2018-03-09 20:00","2018","03","09","20:00","-26.8","","","","","M","","","10","","31","","","","96.45","","","","-42","","NA"
"-121.67","69.67","KEATS POINT","2202663","2018-03-09 21:00","2018","03","09","21:00","-27.3","","","","","M","","","10","","33","","","","96.45","","","","-43","","NA"
"-121.67","69.67","KEATS POINT","2202663","2018-03-09 22:00","2018","03","09","22:00","-27.6","","","","","M","","","10","","35","","","","96.44","","","","-43","","NA"
"-121.67","69.67","KEATS POINT","2202663","2018-03-09 23:00","2018","03","09","23:00","-27.8","","","","","M","","","10","","31","","","","96.46","","","","-43","","NA"
"-121.67","69.67","KEATS POINT","2202663","2018-03-10 00:00","2018","03","10","00:00","-27.9","","","","","M","","","10","","31","","","","96.46","","","","-43","","NA"
"-121.67","69.67","KEATS POINT","2202663","2018-03-10 01:00","2018","03","10","01:00","-28.4","","","","","M","","","10","","33","","","","96.43","","","","-44","","NA"
"-121.67","69.67","KEATS POINT","2202663","2018-03-10 02:00","2018","03","10","02:00","-28.5","","","","","M","","","11","","31","","","","96.47","","","","-44","","NA"
"-121.67","69.67","KEATS POINT","2202663","2018-03-10 03:00","2018","03","10","03:00","-28.2","","","","","M","","","12","","30","","","","96.48","","","","-43","","NA"
"-121.67","69.67","KEATS POINT","2202663","2018-03-10 04:00","2018","03","10","04:00","-27.7","","","","","M","","","12","","35","","","","96.48","","","","-44","","NA"
"-121.67","69.67","KEATS POINT","2202663","2018-03-10 05:00","2018","03","10","05:00","-28.4","","","","","M","","","9","","28","","","","96.51","","","","-43","","NA"
"-121.67","69.67","KEATS POINT","2202663","2018-03-10 06:00","2018","03","10","06:00","-27.8","","","","","M","","","9","","31","","","","96.56","","","","-43","","NA"
"-121.67","69.67","KEATS POINT","2202663","2018-03-10 07:00","2018","03","10","07:00","-26.9","","","","","M","","","10","","30","","","","96.59","","","","-42","","NA"
"-121.67","69.67","KEATS POINT","2202663","2018-03-10 08:00","2018","03","10","08:00","-26.9","","","","","M","","","10","","30","","","","96.64","","","","-42","","NA"
"-121.67","69.67","KEATS POINT","2202663","2018-03-10 09:00","2018","03","10","09:00","-26.8","","","","","M","","","10","","31","","","","96.65","","","","-42","","NA"
"-121.67","69.67","KEATS POINT","2202663","2018-03-10 10:00","2018","03","10","10:00","-26.9","","","","","M","","","9","","31","","","","96.68","","","","-42","","NA"
"-121.67","69.67","KEATS POINT","2202663","2018-03-10 11:00","2018","03","10","11:00","-26.9","","","","","M","","","10","","30","","","","96.72","","","","-42","","NA"
"-121.67","69.67","KEATS POINT","2202663","2018-03-10 12:00","2018","03","10","12:00","-26.7","","","","","M","","","10","","26","","","","96.79","","","","-40","","NA"
"-121.67","69.67","KEATS POINT","2202663","2018-03-10 13:00","2018","03","10","13:00","-26.9","","","","","M","","","10","","24","","","","96.85","","","","-40","","NA"
"-121.67","69.67","KEATS POINT","2202663","2018-03-10 14:00","2018","03","10","14:00","-26.8","","","","","M","","","9","","22","","","","96.90","","","","-40","","NA"
"-121.67","69.67","KEATS POINT","2202663","2018-03-10 15:00","2018","03","10","15:00","-26.8","","","","","M","","","9","","24","","","","96.97","","","","-40","","NA"
"-121.67","69.67","KEATS POINT","2202663","2018-03-10 16:00","2018","03","10","16:00","-27.2","","","","","M","","","10","","26","","","","97.01","","","","-41","","NA"
"-121.67","69.67","KEATS POINT","2202663","2018-03-10 17:00","2018","03","10","17:00","-27.4","","","","","M","","","10","","22","","","","97.06","","","","-40","","NA"
"-121.67","69.67","KEATS POINT","2202663","2018-03-10 18:00","2018","03","10","18:00","-28.1","","","","","M","","","11","","22","","","","97.13","","","","-41","","NA"
"-121.67","69.67","KEATS POINT","2202663","2018-03-10 19:00","2018","03","10","19:00","-28.1","","","","","M","","","10","","22","","","","97.15","","","","-41","","NA"
"-121.67","69.67","KEATS POINT","2202663","2018-03-10 20:00","2018","03","10","20:00","-27.5","","","","","M","","","11","","22","","","","97.19","","","","-40","","NA"
"-121.67","69.67","KEATS POINT","2202663","2018-03-10 21:00","2018","03","10","21:00","-27.6","","","","","M","","","10","","20","","","","97.21","","","","-40","","NA"
"-121.67","69.67","KEATS POINT","2202663","2018-03-10 22:00","2018","03","10","22:00","-27.5","","","","","M","","","10","","19","","","","97.26","","","","-40","","NA"
"-121.67","69.67","KEATS POINT","2202663","2018-03-10 23:00","2018","03","10","23:00","-28.2","","","","","M","","","10","","19","","","","97.30","","","","-41","","NA"
"-121.67","69.67","KEATS POINT","2202663","2018-03-11 00:00","2018","03","11","00:00","-28.9","","","","","M","","","10","","19","","","","97.36","","","","-41","","NA"
"-121.67","69.67","KEATS POINT","2202663","2018-03-11 01:00","2018","03","11","01:00","-28.3","","","","","M","","","11","","24","","","","97.39","","","","-42","","NA"
"-121.67","69.67","KEATS POINT","2202663","2018-03-11 02:00","2018","03","11","02:00","-28.4","","","","","M","","","10","","19","","","","97.44","","","","-41","","NA"
"-121.67","69.67","KEATS POINT","2202663","2018-03-11 03:00","2018","03","11","03:00","-28.1","","","","","M","","","9","","11","","","","97.50","","","","-37","","NA"
"-121.67","69.67","KEATS POINT","2202663","2018-03-11 04:00","2018","03","11","04:00","-24.3","","","","","M","","","30","","6","","","","97.57","","","","-30","","NA"
"-121.67","69.67","KEATS POINT","2202663","2018-03-11 05:00","2018","03","11","05:00","-24.6","","","","","M","","","11","","11","","","","97.60","","","","-33","","NA"
"-121.67","69.67","KEATS POINT","2202663","2018-03-11 06:00","2018","03","11","06:00","-24.1","","","","","M","","","10","","7","","","","97.62","","","","-30","","NA"
"-121.67","69.67","KEATS POINT","2202663","2018-03-11 07:00","2018","03","11","07:00","-23.6","","","","","M","","","10","","7","","","","97.65","","","","-30","","NA"
"-121.67","69.67","KEATS POINT","2202663","2018-03-11 08:00","2018","03","11","08:00","-25.2","","","","","M","","","10","","11","","","","97.69","","","","-34","","NA"
"-121.67","69.67","KEATS POINT","2202663","2018-03-11 09:00","2018","03","11","09:00","-20.5","","","","","M","","","27","","9","","","","97.75","","","","-27","","NA"
"-121.67","69.67","KEATS POINT","2202663","2018-03-11 10:00","2018","03","11","10:00","-19.7","","","","","M","","","","","0","","","","97.77","","","","","","NA"
"-121.67","69.67","KEATS POINT","2202663","2018-03-11 11:00","2018","03","11","11:00","-18.8","","","","","M","","","16","","4","","","","97.80","","","","-22","","NA"
"-121.67","69.67","KEATS POINT","2202663","2018-03-11 12:00","2018","03","11","12:00","-20.1","","","","","M","","","11","","11","","","","97.86","","","","-28","","NA"
"-121.67","69.67","KEATS POINT","2202663","2018-03-11 13:00","2018","03","11","13:00","-18.9","","","","","M","","","12","","9","","","","97.91","","","","-25","","NA"
"-121.67","69.67","KEATS POINT","2202663","2018-03-11 14:00","2018","03","11","14:00","-18.7","","","","","M","","","10","","13","","","","97.91","","","","-27","","NA"
"-121.67","69.67","KEATS POINT","2202663","2018-03-11 15:00","2018","03","11","15:00","-17.9","","","","","M","","","11","","13","","","","97.92","","","","-26","","NA"
"-121.67","69.67","KEATS POINT","2202663","2018-03-11 16:00","2018","03","11","16:00","-19.4","","","","","M","","","11","","15","","","","97.89","","","","-28","","NA"
"-121.67","69.67","KEATS POINT","2202663","2018-03-11 17:00","2018","03","11","17:00","-19.2","","","","","M","","","11","","11","","","","97.88","","","","-27","","NA"
"-121.67","69.67","KEATS POINT","2202663","2018-03-11 18:00","2018","03","11","18:00","-19.2","","","","","M","","","12","","13","","","","97.86","","","","-27","","NA"
"-121.67","69.67","KEATS POINT","2202663","2018-03-11 19:00","2018","03","11","19:00","-20.3","","","","","M","","","11","","17","","","","97.85","","","","-30","","NA"
"-121.67","69.67","KEATS POINT","2202663","2018-03-11 20:00","2018","03","11","20:00","-20.1","","","","","M","","","10","","17","","","","97.80","","","","-30","","NA"
"-121.67","69.67","KEATS POINT","2202663","2018-03-11 21:00","2018","03","11","21:00","-21.2","","","","","M","","","12","","26","","","","97.75","","","","-33","","NA"
"-121.67","69.67","KEATS POINT","2202663","2018-03-11 22:00","2018","03","11","22:00","-20.2","","","","","M","","","11","","22","","","","97.68","","","","-31","","NA"
"-121.67","69.67","KEATS POINT","2202663","2018-03-11 23:00","2018","03","11","23:00","-22.6","","","","","M","","","11","","26","","","","97.65","","","","-35","","NA"
"-121.67","69.67","KEATS POINT","2202663","2018-03-12 00:00","2018","03","12","00:00","-21.9","","","","","M","","","10","","20","","","","97.62","","","","-33","","NA"
"-121.67","69.67","KEATS POINT","2202663","2018-03-12 01:00","2018","03","12","01:00","-21.8","","","","","M","","","11","","24","","","","97.57","","","","-34","","NA"
"-121.67","69.67","KEATS POINT","2202663","2018-03-12 02:00","2018","03","12","02:00","-20.5","","","","","M","","","11","","22","","","","97.52","","","","-32","","NA"
"-121.67","69.67","KEATS POINT","2202663","2018-03-12 03:00","2018","03","12","03:00","-24.2","","","","","M","","","11","","26","","","","97.40","","","","-37","","NA"
"-121.67","69.67","KEATS POINT","2202663","2018-03-12 04:00","2018","03","12","04:00","-23.3","","","","","M","","","11","","35","","","","97.28","","","","-38","","NA"
"-121.67","69.67","KEATS POINT","2202663","2018-03-12 05:00","2018","03","12","05:00","-25.3","","","","","M","","","11","","33","","","","97.16","","","","-40","","NA"
"-121.67","69.67","KEATS POINT","2202663","2018-03-12 06:00","2018","03","12","06:00","-25.4","","","","","M","","","11","","35","","","","97.18","","","","-41","","NA"
"-121.67","69.67","KEATS POINT","2202663","2018-03-12 07:00","2018","03","12","07:00","-25.8","","","","","M","","","10","","41","","","","97.07","","","","-42","","NA"
"-121.67","69.67","KEATS POINT","2202663","2018-03-12 08:00","2018","03","12","08:00","-25.7","","","","","M","","","10","","37","","","","97.00","","","","-41","","NA"
"-121.67","69.67","KEATS POINT","2202663","2018-03-12 09:00","2018","03","12","09:00","-25.3","","","","","M","","","10","","33","","","","96.99","","","","-40","","NA"
"-121.67","69.67","KEATS POINT","2202663","2018-03-12 10:00","2018","03","12","10:00","-25.3","","","","","M","","","9","","46","","","","96.90","","","","-42","","NA"
"-121.67","69.67","KEATS POINT","2202663","2018-03-12 11:00","2018","03","12","11:00","-25.8","","","","","M","","","10","","44","","","","96.94","","","","-42","","NA"
"-121.67","69.67","KEATS POINT","2202663","2018-03-12 12:00","2018","03","12","12:00","-26.0","","","","","M","","","10","","48","","","","96.92","","","","-43","","NA"
"-121.67","69.67","KEATS POINT","2202663","2018-03-12 13:00","2018","03","12","13:00","-25.6","","","","","M","","","10","","50","","","","96.93","","","","-43","","NA"
"-121.67","69.67","KEATS POINT","2202663","2018-03-12 14:00","2018","03","12","14:00","-24.5","","","","","M","","","10","","41","","","","96.98","","","","-40","","NA"
"-121.67","69.67","KEATS POINT","2202663","2018-03-12 15:00","2018","03","12","15:00","-25.3","","","","","M","","","9","","46","","","","97.05","","","","-42","","NA"
"-121.67","69.67","KEATS POINT","2202663","2018-03-12 16:00","2018","03","12","16:00","-25.3","","","","","M","","","10","","44","","","","97.08","","","","-42","","NA"
"-121.67","69.67","KEATS POINT","2202663","2018-03-12 17:00","2018","03","12","17:00","-25.3","","","","","M","","","10","","43","","","","97.08","","","","-42","","NA"
"-121.67","69.67","KEATS POINT","2202663","2018-03-12 18:00","2018","03","12","18:00","-25.1","","","","","M","","","10","","46","","","","97.13","","","","-42","","NA"
"-121.67","69.67","KEATS POINT","2202663","2018-03-12 19:00","2018","03","12","19:00","-24.9","","","","","M","","","10","","48","","","","97.17","","","","-42","","NA"
"-121.67","69.67","KEATS POINT","2202663","2018-03-12 20:00","2018","03","12","20:00","-25.2","","","","","M","","","10","","46","","","","97.24","","","","-42","","NA"
"-121.67","69.67","KEATS POINT","2202663","2018-03-12 21:00","2018","03","12","21:00","-24.9","","","","","M","","","10","","44","","","","97.30","","","","-41","","NA"
"-121.67","69.67","KEATS POINT","2202663","2018-03-12 22:00","2018","03","12","22:00","-24.0","","","","","M","","","9","","46","","","","97.40","","","","-40","","NA"
"-121.67","69.67","KEATS POINT","2202663","2018-03-12 23:00","2018","03","12","23:00","-23.6","","","","","M","","","10","","41","","","","97.40","","","","-39","","NA"
"-121.67","69.67","KEATS POINT","2202663","2018-03-13 00:00","2018","03","13","00:00","-22.9","","","","","M","","","10","","44","","","","97.43","","","","-39","","NA"
"-121.67","69.67","KEATS POINT","2202663","2018-03-13 01:00","2018","03","13","01:00","-24.3","","","","","M","","","10","","41","","","","97.49","","","","-40","","NA"
"-121.67","69.67","KEATS POINT","2202663","2018-03-13 02:00","2018","03","13","02:00","-24.7","","","","","M","","","10","","41","","","","97.56","","","","-41","","NA"
"-121.67","69.67","KEATS POINT","2202663","2018-03-13 03:00","2018","03","13","03:00","-24.4","","","","","M","","","11","","39","","","","97.57","","","","-40","","NA"
"-121.67","69.67","KEATS POINT","2202663","2018-03-13 04:00","2018","03","13","04:00","-24.2","","","","","M","","","10","","31","","","","97.56","","","","-38","","NA"
"-121.67","69.67","KEATS POINT","2202663","2018-03-13 05:00","2018","03","13","05:00","-25.0","","","","","M","","","10","","31","","","","97.62","","","","-39","","NA"
"-121.67","69.67","KEATS POINT","2202663","2018-03-13 06:00","2018","03","13","06:00","-25.1","","","","","M","","","10","","33","","","","97.57","","","","-40","","NA"
"-121.67","69.67","KEATS POINT","2202663","2018-03-13 07:00","2018","03","13","07:00","-24.6","","","","","M","","","10","","28","","","","97.56","","","","-38","","NA"
"-121.67","69.67","KEATS POINT","2202663","2018-03-13 08:00","2018","03","13","08:00","-24.7","","","","","M","","","10","","24","","","","97.57","","","","-37","","NA"
"-121.67","69.67","KEATS POINT","2202663","2018-03-13 09:00","2018","03","13","09:00","-22.7","","","","","M","","","11","","7","","","","97.58","","","","-29","","NA"
"-121.67","69.67","KEATS POINT","2202663","2018-03-13 10:00","2018","03","13","10:00","-20.0","","","","","M","","","11","","15","","","","97.55","","","","-29","","NA"
"-121.67","69.67","KEATS POINT","2202663","2018-03-13 11:00","2018","03","13","11:00","-11.9","","","","","M","","","20","","19","","","","97.51","","","","-20","","NA"
"-121.67","69.67","KEATS POINT","2202663","2018-03-13 12:00","2018","03","13","12:00","-12.0","","","","","M","","","21","","28","","","","97.50","","","","-22","","NA"
"-121.67","69.67","KEATS POINT","2202663","2018-03-13 13:00","2018","03","13","13:00","-11.4","","","","","M","","","21","","15","","","","97.47","","","","-18","","NA"
"-121.67","69.67","KEATS POINT","2202663","2018-03-13 14:00","2018","03","13","14:00","-14.9","","","","","M","","","13","","7","","","","97.49","","","","-20","","NA"
"-121.67","69.67","KEATS POINT","2202663","2018-03-13 15:00","2018","03","13","15:00","-11.4","","","","","M","","","20","","17","","","","97.44","","","","-19","","NA"
"-121.67","69.67","KEATS POINT","2202663","2018-03-13 16:00","2018","03","13","16:00","-11.3","","","","","M","","","22","","11","","","","97.40","","","","-17","","NA"
"-121.67","69.67","KEATS POINT","2202663","2018-03-13 17:00","2018","03","13","17:00","-12.5","","","","","M","","","10","","11","","","","97.38","","","","-19","","NA"
"-121.67","69.67","KEATS POINT","2202663","2018-03-13 18:00","2018","03","13","18:00","-12.1","","","","","M","","","11","","15","","","","97.34","","","","-19","","NA"
"-121.67","69.67","KEATS POINT","2202663","2018-03-13 19:00","2018","03","13","19:00","-12.2","","","","","M","","","10","","9","","","","97.33","","","","-17","","NA"
"-121.67","69.67","KEATS POINT","2202663","2018-03-13 20:00","2018","03","13","20:00","-11.6","","","","","M","","","10","","7","","","","97.32","","","","-16","","NA"
"-121.67","69.67","KEATS POINT","2202663","2018-03-13 21:00","2018","03","13","21:00","-12.3","","","","","M","","","11","","13","","","","97.32","","","","-19","","NA"
"-121.67","69.67","KEATS POINT","2202663","2018-03-13 22:00","2018","03","13","22:00","-11.5","","","","","M","","","10","","6","","","","97.32","","","","-15","","NA"
"-121.67","69.67","KEATS POINT","2202663","2018-03-13 23:00","2018","03","13","23:00","-11.9","","","","","M","","","10","","7","","","","97.34","","","","-16","","NA"
"-121.67","69.67","KEATS POINT","2202663","2018-03-14 00:00","2018","03","14","00:00","-11.2","","","","","M","","","11","","9","","","","97.34","","","","-16","","NA"
"-121.67","69.67","KEATS POINT","2202663","2018-03-14 01:00","2018","03","14","01:00","-11.5","","","","","M","","","10","","7","","","","97.36","","","","-16","","NA"
"-121.67","69.67","KEATS POINT","2202663","2018-03-14 02:00","2018","03","14","02:00","-11.0","","","","","M","","","11","","7","","","","97.36","","","","-15","","NA"
"-121.67","69.67","KEATS POINT","2202663","2018-03-14 03:00","2018","03","14","03:00","-14.7","","","","","M","","","10","","13","","","","97.42","","","","-22","","NA"
"-121.67","69.67","KEATS POINT","2202663","2018-03-14 04:00","2018","03","14","04:00","-14.5","","","","","M","","","12","","15","","","","97.45","","","","-22","","NA"
"-121.67","69.67","KEATS POINT","2202663","2018-03-14 05:00","2018","03","14","05:00","-13.0","","","","","M","","","10","","11","","","","97.47","","","","-19","","NA"
"-121.67","69.67","KEATS POINT","2202663","2018-03-14 06:00","2018","03","14","06:00","-19.1","","","","","M","","","9","","15","","","","97.49","","","","-28","","NA"
"-121.67","69.67","KEATS POINT","2202663","2018-03-14 07:00","2018","03","14","07:00","-20.1","","","","","M","","","10","","19","","","","97.49","","","","-30","","NA"
"-121.67","69.67","KEATS POINT","2202663","2018-03-14 08:00","2018","03","14","08:00","-20.6","","","","","M","","","10","","22","","","","97.51","","","","-32","","NA"
"-121.67","69.67","KEATS POINT","2202663","2018-03-14 09:00","2018","03","14","09:00","-20.5","","","","","M","","","9","","22","","","","97.53","","","","-32","","NA"
"-121.67","69.67","KEATS POINT","2202663","2018-03-14 10:00","2018","03","14","10:00","-20.7","","","","","M","","","10","","30","","","","97.52","","","","-33","","NA"
"-121.67","69.67","KEATS POINT","2202663","2018-03-14 11:00","2018","03","14","11:00","-20.0","","","","","M","","","10","","31","","","","97.51","","","","-33","","NA"
"-121.67","69.67","KEATS POINT","2202663","2018-03-14 12:00","2018","03","14","12:00","-20.2","","","","","M","","","10","","33","","","","97.53","","","","-33","","NA"
"-121.67","69.67","KEATS POINT","2202663","2018-03-14 13:00","2018","03","14","13:00","-19.5","","","","","M","","","10","","33","","","","97.56","","","","-32","","NA"
"-121.67","69.67","KEATS POINT","2202663","2018-03-14 14:00","2018","03","14","14:00","-19.7","","","","","M","","","10","","35","","","","97.57","","","","-33","","NA"
"-121.67","69.67","KEATS POINT","2202663","2018-03-14 15:00","2018","03","14","15:00","-17.9","","","","","M","","","10","","33","","","","97.62","","","","-30","","NA"
"-121.67","69.67","KEATS POINT","2202663","2018-03-14 16:00","2018","03","14","16:00","-18.8","","","","","M","","","10","","28","","","","97.63","","","","-31","","NA"
"-121.67","69.67","KEATS POINT","2202663","2018-03-14 17:00","2018","03","14","17:00","-19.2","","","","","M","","","10","","30","","","","97.61","","","","-32","","NA"
"-121.67","69.67","KEATS POINT","2202663","2018-03-14 18:00","2018","03","14","18:00","-13.2","","","","","M","","","11","","41","","","","97.62","","","","-25","","NA"
"-121.67","69.67","KEATS POINT","2202663","2018-03-14 19:00","2018","03","14","19:00","-15.0","","","","","M","","","11","","31","","","","97.66","","","","-26","","NA"
"-121.67","69.67","KEATS POINT","2202663","2018-03-14 20:00","2018","03","14","20:00","-15.7","","","","","M","","","11","","41","","","","97.67","","","","-29","","NA"
"-121.67","69.67","KEATS POINT","2202663","2018-03-14 21:00","2018","03","14","21:00","-14.8","","","","","M","","","10","","41","","","","97.69","","","","-27","","NA"
"-121.67","69.67","KEATS POINT","2202663","2018-03-14 22:00","2018","03","14","22:00","-16.0","","","","","M","","","10","","41","","","","97.66","","","","-29","","NA"
"-121.67","69.67","KEATS POINT","2202663","2018-03-14 23:00","2018","03","14","23:00","-14.4","","","","","M","","","11","","39","","","","97.65","","","","-27","","NA"
"-121.67","69.67","KEATS POINT","2202663","2018-03-15 00:00","2018","03","15","00:00","-13.5","","","","","M","","","11","","54","","","","97.65","","","","-27","","NA"
"-121.67","69.67","KEATS POINT","2202663","2018-03-15 01:00","2018","03","15","01:00","-18.4","","","","","M","","","11","","46","","","","97.65","","","","-33","","NA"
"-121.67","69.67","KEATS POINT","2202663","2018-03-15 02:00","2018","03","15","02:00","-19.7","","","","","M","","","10","","46","","","","97.65","","","","-35","","NA"
"-121.67","69.67","KEATS POINT","2202663","2018-03-15 03:00","2018","03","15","03:00","-21.4","","","","","M","","","10","","50","","","","97.61","","","","-37","","NA"
"-121.67","69.67","KEATS POINT","2202663","2018-03-15 04:00","2018","03","15","04:00","-23.5","","","","","M","","","10","","54","","","","97.56","","","","-41","","NA"
"-121.67","69.67","KEATS POINT","2202663","2018-03-15 05:00","2018","03","15","05:00","-23.7","","","","","M","","","10","","50","","","","97.54","","","","-40","","NA"
"-121.67","69.67","KEATS POINT","2202663","2018-03-15 06:00","2018","03","15","06:00","-24.3","","","","","M","","","10","","48","","","","97.47","","","","-41","","NA"
"-121.67","69.67","KEATS POINT","2202663","2018-03-15 07:00","2018","03","15","07:00","-23.9","","","","","M","","","10","","59","","","","97.39","","","","-42","","NA"
"-121.67","69.67","KEATS POINT","2202663","2018-03-15 08:00","2018","03","15","08:00","-24.2","","","","","M","","","11","","67","","","","97.36","","","","-43","","NA"
"-121.67","69.67","KEATS POINT","2202663","2018-03-15 09:00","2018","03","15","09:00","-23.7","","","","","M","","","10","","65","","","","97.30","","","","-42","","NA"
"-121.67","69.67","KEATS POINT","2202663","2018-03-15 10:00","2018","03","15","10:00","-24.1","","","","","M","","","10","","67","","","","97.26","","","","-43","","NA"
"-121.67","69.67","KEATS POINT","2202663","2018-03-15 11:00","2018","03","15","11:00","-24.2","","","","","M","","","","M","","M","","","97.13","","","","","","NA"
"-121.67","69.67","KEATS POINT","2202663","2018-03-15 12:00","2018","03","15","12:00","-23.3","","","","","M","","","9","","69","","","","97.09","","","","-42","","NA"
"-121.67","69.67","KEATS POINT","2202663","2018-03-15 13:00","2018","03","15","13:00","-23.9","","","","","M","","","","M","","M","","","97.04","","","","","","NA"
"-121.67","69.67","KEATS POINT","2202663","2018-03-15 14:00","2018","03","15","14:00","-23.9","","","","","M","","","","M","","M","","","96.99","","","","","","NA"
"-121.67","69.67","KEATS POINT","2202663","2018-03-15 15:00","2018","03","15","15:00","-23.7","","","","","M","","","10","","57","","","","96.99","","","","-41","","NA"
"-121.67","69.67","KEATS POINT","2202663","2018-03-15 16:00","2018","03","15","16:00","-23.4","","","","","M","","","10","","50","","","","96.99","","","","-40","","NA"
"-121.67","69.67","KEATS POINT","2202663","2018-03-15 17:00","2018","03","15","17:00","-22.9","","","","","M","","","10","","46","","","","96.90","","","","-39","","NA"
"-121.67","69.67","KEATS POINT","2202663","2018-03-15 18:00","2018","03","15","18:00","-22.2","","","","","M","","","11","","43","","","","96.81","","","","-37","","NA"
"-121.67","69.67","KEATS POINT","2202663","2018-03-15 19:00","2018","03","15","19:00","-20.8","","","","","M","","","11","","33","","","","96.77","","","","-34","","NA"
"-121.67","69.67","KEATS POINT","2202663","2018-03-15 20:00","2018","03","15","20:00","-16.3","","","","","M","","","7","","39","","","","96.75","","","","-29","","NA"
"-121.67","69.67","KEATS POINT","2202663","2018-03-15 21:00","2018","03","15","21:00","-12.6","","","","","M","","","20","","41","","","","96.66","","","","-24","","NA"
"-121.67","69.67","KEATS POINT","2202663","2018-03-15 22:00","2018","03","15","22:00","-12.4","","","","","M","","","21","","43","","","","96.61","","","","-24","","NA"
"-121.67","69.67","KEATS POINT","2202663","2018-03-15 23:00","2018","03","15","23:00","-12.3","","","","","M","","","23","","30","","","","96.63","","","","-23","","NA"
"-121.67","69.67","KEATS POINT","2202663","2018-03-16 00:00","2018","03","16","00:00","-12.4","","","","","M","","","23","","37","","","","96.60","","","","-24","","NA"
"-121.67","69.67","KEATS POINT","2202663","2018-03-16 01:00","2018","03","16","01:00","-12.0","","","","","M","","","24","","39","","","","96.58","","","","-23","","NA"
"-121.67","69.67","KEATS POINT","2202663","2018-03-16 02:00","2018","03","16","02:00","-11.4","","","","","M","","","24","","43","","","","96.58","","","","-23","","NA"
"-121.67","69.67","KEATS POINT","2202663","2018-03-16 03:00","2018","03","16","03:00","-10.6","","","","","M","","","26","","35","","","","96.59","","","","-21","","NA"
"-121.67","69.67","KEATS POINT","2202663","2018-03-16 04:00","2018","03","16","04:00","-11.1","","","","","M","","","26","","50","","","","96.57","","","","-23","","NA"
"-121.67","69.67","KEATS POINT","2202663","2018-03-16 05:00","2018","03","16","05:00","-12.2","","","","","M","","","26","","54","","","","96.55","","","","-25","","NA"
"-121.67","69.67","KEATS POINT","2202663","2018-03-16 06:00","2018","03","16","06:00","-12.7","","","","","M","","","26","","65","","","","96.54","","","","-27","","NA"
"-121.67","69.67","KEATS POINT","2202663","2018-03-16 07:00","2018","03","16","07:00","-13.5","","","","","M","","","25","","67","","","","96.53","","","","-28","","NA"
"-121.67","69.67","KEATS POINT","2202663","2018-03-16 08:00","2018","03","16","08:00","-14.4","","","","","M","","","25","","74","","","","96.55","","","","-30","","NA"
"-121.67","69.67","KEATS POINT","2202663","2018-03-16 09:00","2018","03","16","09:00","-15.6","","","","","M","","","25","","72","","","","96.63","","","","-31","","NA"
"-121.67","69.67","KEATS POINT","2202663","2018-03-16 10:00","2018","03","16","10:00","-15.7","","","","","M","","","","M","","M","","","96.72","","","","","","NA"
"-121.67","69.67","KEATS POINT","2202663","2018-03-16 11:00","2018","03","16","11:00","-15.7","","","","","M","","","26","","67","","","","96.76","","","","-31","","NA"
"-121.67","69.67","KEATS POINT","2202663","2018-03-16 12:00","2018","03","16","12:00","-15.6","","","","","M","","","27","","65","","","","96.92","","","","-31","","NA"
"-121.67","69.67","KEATS POINT","2202663","2018-03-16 13:00","2018","03","16","13:00","-15.5","","","","","M","","","27","","61","","","","97.02","","","","-30","","NA"
"-121.67","69.67","KEATS POINT","2202663","2018-03-16 14:00","2018","03","16","14:00","-15.8","","","","","M","","","27","","52","","","","97.10","","","","-30","","NA"
"-121.67","69.67","KEATS POINT","2202663","2018-03-16 15:00","2018","03","16","15:00","-16.4","","","","","M","","","25","","59","","","","97.09","","","","-31","","NA"
"-121.67","69.67","KEATS POINT","2202663","2018-03-16 16:00","2018","03","16","16:00","-16.4","","","","","M","","","26","","54","","","","97.19","","","","-31","","NA"
"-121.67","69.67","KEATS POINT","2202663","2018-03-16 17:00","2018","03","16","17:00","-16.6","","","","","M","","","23","","56","","","","97.25","","","","-31","","NA"
"-121.67","69.67","KEATS POINT","2202663","2018-03-16 18:00","2018","03","16","18:00","-17.1","","","","","M","","","22","","48","","","","97.25","","","","-31","","NA"
"-121.67","69.67","KEATS POINT","2202663","2018-03-16 19:00","2018","03","16","19:00","-17.6","","","","","M","","","21","","54","","","","97.28","","","","-33","","NA"
"-121.67","69.67","KEATS POINT","2202663","2018-03-16 20:00","2018","03","16","20:00","-17.8","","","","","M","","","22","","41","","","","97.36","","","","-31","","NA"
"-121.67","69.67","KEATS POINT","2202663","2018-03-16 21:00","2018","03","16","21:00","-17.6","","","","","M","","","22","","52","","","","97.39","","","","-32","","NA"
"-121.67","69.67","KEATS POINT","2202663","2018-03-16 22:00","2018","03","16","22:00","-17.3","","","","","M","","","22","","50","","","","97.40","","","","-32","","NA"
"-121.67","69.67","KEATS POINT","2202663","2018-03-16 23:00","2018","03","16","23:00","-17.0","","","","","M","","","22","","46","","","","97.44","","","","-31","","NA"
"-121.67","69.67","KEATS POINT","2202663","2018-03-17 00:00","2018","03","17","00:00","-16.4","","","","","M","","","22","","48","","","","97.49","","","","-30","","NA"
"-121.67","69.67","KEATS POINT","2202663","2018-03-17 01:00","2018","03","17","01:00","-16.1","","","","","M","","","21","","48","","","","97.52","","","","-30","","NA"
"-121.67","69.67","KEATS POINT","2202663","2018-03-17 02:00","2018","03","17","02:00","-15.6","","","","","M","","","22","","41","","","","97.53","","","","-28","","NA"
"-121.67","69.67","KEATS POINT","2202663","2018-03-17 03:00","2018","03","17","03:00","-16.1","","","","","M","","","22","","37","","","","97.58","","","","-29","","NA"
"-121.67","69.67","KEATS POINT","2202663","2018-03-17 04:00","2018","03","17","04:00","-16.0","","","","","M","","","22","","33","","","","97.66","","","","-28","","NA"
"-121.67","69.67","KEATS POINT","2202663","2018-03-17 05:00","2018","03","17","05:00","-15.5","","","","","M","","","22","","26","","","","97.69","","","","-26","","NA"
"-121.67","69.67","KEATS POINT","2202663","2018-03-17 06:00","2018","03","17","06:00","-15.3","","","","","M","","","21","","15","","","","97.75","","","","-23","","NA"
"-121.67","69.67","KEATS POINT","2202663","2018-03-17 07:00","2018","03","17","07:00","-14.9","","","","","M","","","","","0","","","","97.78","","","","","","NA"
"-121.67","69.67","KEATS POINT","2202663","2018-03-17 08:00","2018","03","17","08:00","-15.8","","","","","M","","","","","0","","","","97.80","","","","","","NA"
"-121.67","69.67","KEATS POINT","2202663","2018-03-17 09:00","2018","03","17","09:00","-14.0","","","","","M","","","25","","6","","","","97.80","","","","-18","","NA"
"-121.67","69.67","KEATS POINT","2202663","2018-03-17 10:00","2018","03","17","10:00","-13.8","","","","","M","","","20","","4","","","","97.81","","","","-17","","NA"
"-121.67","69.67","KEATS POINT","2202663","2018-03-17 11:00","2018","03","17","11:00","-12.5","","","","","M","","","14","","4","","","","97.80","","","","-15","","NA"
"-121.67","69.67","KEATS POINT","2202663","2018-03-17 12:00","2018","03","17","12:00","-14.6","","","","","M","","","1","","6","","","","97.83","","","","-19","","NA"
"-121.67","69.67","KEATS POINT","2202663","2018-03-17 13:00","2018","03","17","13:00","-15.0","","","","","M","","","9","","11","","","","97.84","","","","-22","","NA"
"-121.67","69.67","KEATS POINT","2202663","2018-03-17 14:00","2018","03","17","14:00","-14.8","","","","","M","","","12","","11","","","","97.82","","","","-21","","NA"
"-121.67","69.67","KEATS POINT","2202663","2018-03-17 15:00","2018","03","17","15:00","-13.2","","","","","M","","","6","","7","","","","97.80","","","","-18","","NA"
"-121.67","69.67","KEATS POINT","2202663","2018-03-17 16:00","2018","03","17","16:00","-12.3","","","","","M","","","8","","6","","","","97.77","","","","-16","","NA"
"-121.67","69.67","KEATS POINT","2202663","2018-03-17 17:00","2018","03","17","17:00","-12.6","","","","","M","","","12","","13","","","","97.73","","","","-19","","NA"
"-121.67","69.67","KEATS POINT","2202663","2018-03-17 18:00","2018","03","17","18:00","-12.0","","","","","M","","","12","","11","","","","97.69","","","","-18","","NA"
"-121.67","69.67","KEATS POINT","2202663","2018-03-17 19:00","2018","03","17","19:00","-11.2","","","","","M","","","12","","13","","","","97.65","","","","-18","","NA"
"-121.67","69.67","KEATS POINT","2202663","2018-03-17 20:00","2018","03","17","20:00","-10.5","","","","","M","","","","","0","","","","97.62","","","","","","NA"
"-121.67","69.67","KEATS POINT","2202663","2018-03-17 21:00","2018","03","17","21:00","-11.4","","","","","M","","","22","","22","","","","97.59","","","","-20","","NA"
"-121.67","69.67","KEATS POINT","2202663","2018-03-17 22:00","2018","03","17","22:00","-15.4","","","","","M","","","24","","57","","","","97.54","","","","-30","","NA"
"-121.67","69.67","KEATS POINT","2202663","2018-03-17 23:00","2018","03","17","23:00","-16.8","","","","","M","","","25","","50","","","","97.61","","","","-31","","NA"
"-121.67","69.67","KEATS POINT","2202663","2018-03-18 00:00","2018","03","18","00:00","-18.1","","","","","M","","","25","","61","","","","97.63","","","","-34","","NA"
"-121.67","69.67","KEATS POINT","2202663","2018-03-18 01:00","2018","03","18","01:00","-19.6","","","","","M","","","24","","46","","","","97.71","","","","-34","","NA"
"-121.67","69.67","KEATS POINT","2202663","2018-03-18 02:00","2018","03","18","02:00","-20.0","","","","","M","","","25","","50","","","","97.76","","","","-35","","NA"
"-121.67","69.67","KEATS POINT","2202663","2018-03-18 03:00","2018","03","18","03:00","-20.4","","","","","M","","","25","","52","","","","97.79","","","","-36","","NA"
"-121.67","69.67","KEATS POINT","2202663","2018-03-18 04:00","2018","03","18","04:00","-20.6","","","","","M","","","26","","43","","","","97.80","","","","-35","","NA"
"-121.67","69.67","KEATS POINT","2202663","2018-03-18 05:00","2018","03","18","05:00","-20.5","","","","","M","","","27","","50","","","","97.82","","","","-36","","NA"
"-121.67","69.67","KEATS POINT","2202663","2018-03-18 06:00","2018","03","18","06:00","-20.9","","","","","M","","","27","","41","","","","97.87","","","","-35","","NA"
"-121.67","69.67","KEATS POINT","2202663","2018-03-18 07:00","2018","03","18","07:00","-21.5","","","","","M","","","27","","39","","","","97.91","","","","-36","","NA"
"-121.67","69.67","KEATS POINT","2202663","2018-03-18 08:00","2018","03","18","08:00","-21.1","","","","","M","","","26","","43","","","","97.87","","","","-36","","NA"
"-121.67","69.67","KEATS POINT","2202663","2018-03-18 09:00","2018","03","18","09:00","-21.0","","","","","M","","","26","","35","","","","97.90","","","","-35","","NA"
"-121.67","69.67","KEATS POINT","2202663","2018-03-18 10:00","2018","03","18","10:00","-21.7","","","","","M","","","25","","37","","","","97.89","","","","-36","","NA"
"-121.67","69.67","KEATS POINT","2202663","2018-03-18 11:00","2018","03","18","11:00","-21.6","","","","","M","","","24","","35","","","","97.90","","","","-36","","NA"
"-121.67","69.67","KEATS POINT","2202663","2018-03-18 12:00","2018","03","18","12:00","-21.8","","","","","M","","","25","","41","","","","97.91","","","","-37","","NA"
"-121.67","69.67","KEATS POINT","2202663","2018-03-18 13:00","2018","03","18","13:00","-22.0","","","","","M","","","24","","33","","","","97.89","","","","-36","","NA"
"-121.67","69.67","KEATS POINT","2202663","2018-03-18 14:00","2018","03","18","14:00","-21.7","","","","","M","","","24","","28","","","","97.90","","","","-34","","NA"
"-121.67","69.67","KEATS POINT","2202663","2018-03-18 15:00","2018","03","18","15:00","-21.5","","","","","M","","","23","","31","","","","97.88","","","","-35","","NA"
"-121.67","69.67","KEATS POINT","2202663","2018-03-18 16:00","2018","03","18","16:00","-21.0","","","","","M","","","24","","20","","","","97.86","","","","-32","","NA"
"-121.67","69.67","KEATS POINT","2202663","2018-03-18 17:00","2018","03","18","17:00","-20.5","","","","","M","","","28","","11","","","","97.86","","","","-28","","NA"
"-121.67","69.67","KEATS POINT","2202663","2018-03-18 18:00","2018","03","18","18:00","-21.1","","","","","M","","","26","","17","","","","97.84","","","","-31","","NA"
"-121.67","69.67","KEATS POINT","2202663","2018-03-18 19:00","2018","03","18","19:00","-23.2","","","","","M","","","33","","7","","","","97.82","","","","-29","","NA"
"-121.67","69.67","KEATS POINT","2202663","2018-03-18 20:00","2018","03","18","20:00","-24.5","","","","","M","","","27","","6","","","","97.83","","","","-30","","NA"
"-121.67","69.67","KEATS POINT","2202663","2018-03-18 21:00","2018","03","18","21:00","-24.7","","","","","M","","","","","0","","","","97.81","","","","","","NA"
"-121.67","69.67","KEATS POINT","2202663","2018-03-18 22:00","2018","03","18","22:00","-23.9","","","","","M","","","12","","4","","","","97.79","","","","-28","","NA"
"-121.67","69.67","KEATS POINT","2202663","2018-03-18 23:00","2018","03","18","23:00","-23.9","","","","","M","","","10","","6","","","","97.76","","","","-30","","NA"
"-121.67","69.67","KEATS POINT","2202663","2018-03-19 00:00","2018","03","19","00:00","-25.2","","","","","M","","","10","","9","","","","97.73","","","","-33","","NA"
"-121.67","69.67","KEATS POINT","2202663","2018-03-19 01:00","2018","03","19","01:00","-23.7","","","","","M","","","12","","13","","","","97.73","","","","-33","","NA"
"-121.67","69.67","KEATS POINT","2202663","2018-03-19 02:00","2018","03","19","02:00","-24.2","","","","","M","","","10","","19","","","","97.70","","","","-36","","NA"
"-121.67","69.67","KEATS POINT","2202663","2018-03-19 03:00","2018","03","19","03:00","-24.0","","","","","M","","","12","","17","","","","97.69","","","","-35","","NA"
"-121.67","69.67","KEATS POINT","2202663","2018-03-19 04:00","2018","03","19","04:00","-24.0","","","","","M","","","10","","11","","","","97.71","","","","-32","","NA"
"-121.67","69.67","KEATS POINT","2202663","2018-03-19 05:00","2018","03","19","05:00","-23.9","","","","","M","","","12","","11","","","","97.69","","","","-32","","NA"
"-121.67","69.67","KEATS POINT","2202663","2018-03-19 06:00","2018","03","19","06:00","-24.0","","","","","M","","","14","","9","","","","97.69","","","","-31","","NA"
"-121.67","69.67","KEATS POINT","2202663","2018-03-19 07:00","2018","03","19","07:00","-23.2","","","","","M","","","13","","11","","","","97.68","","","","-31","","NA"
"-121.67","69.67","KEATS POINT","2202663","2018-03-19 08:00","2018","03","19","08:00","-23.9","","","","","M","","","11","","13","","","","97.67","","","","-33","","NA"
"-121.67","69.67","KEATS POINT","2202663","2018-03-19 09:00","2018","03","19","09:00","-24.0","","","","","M","","","12","","13","","","","97.66","","","","-33","","NA"
"-121.67","69.67","KEATS POINT","2202663","2018-03-19 10:00","2018","03","19","10:00","-24.2","","","","","M","","","10","","6","","","","97.67","","","","-30","","NA"
"-121.67","69.67","KEATS POINT","2202663","2018-03-19 11:00","2018","03","19","11:00","-24.0","","","","","M","","","11","","13","","","","97.68","","","","-33","","NA"
"-121.67","69.67","KEATS POINT","2202663","2018-03-19 12:00","2018","03","19","12:00","-24.1","","","","","M","","","9","","9","","","","97.66","","","","-32","","NA"
"-121.67","69.67","KEATS POINT","2202663","2018-03-19 13:00","2018","03","19","13:00","-24.0","","","","","M","","","10","","19","","","","97.68","","","","-35","","NA"
"-121.67","69.67","KEATS POINT","2202663","2018-03-19 14:00","2018","03","19","14:00","-23.5","","","","","M","","","10","","20","","","","97.69","","","","-35","","NA"
"-121.67","69.67","KEATS POINT","2202663","2018-03-19 15:00","2018","03","19","15:00","-23.4","","","","","M","","","10","","20","","","","97.69","","","","-35","","NA"
"-121.67","69.67","KEATS POINT","2202663","2018-03-19 16:00","2018","03","19","16:00","-23.7","","","","","M","","","10","","19","","","","97.70","","","","-35","","NA"
"-121.67","69.67","KEATS POINT","2202663","2018-03-19 17:00","2018","03","19","17:00","-24.0","","","","","M","","","10","","20","","","","97.70","","","","-36","","NA"
"-121.67","69.67","KEATS POINT","2202663","2018-03-19 18:00","2018","03","19","18:00","-24.4","","","","","M","","","11","","17","","","","97.72","","","","-35","","NA"
"-121.67","69.67","KEATS POINT","2202663","2018-03-19 19:00","2018","03","19","19:00","-25.5","","","","","M","","","11","","19","","","","97.73","","","","-37","","NA"
"-121.67","69.67","KEATS POINT","2202663","2018-03-19 20:00","2018","03","19","20:00","-26.1","","","","","M","","","10","","19","","","","97.73","","","","-38","","NA"
"-121.67","69.67","KEATS POINT","2202663","2018-03-19 21:00","2018","03","19","21:00","-26.8","","","","","M","","","11","","22","","","","97.73","","","","-40","","NA"
"-121.67","69.67","KEATS POINT","2202663","2018-03-19 22:00","2018","03","19","22:00","-25.1","","","","","M","","","12","","19","","","","97.76","","","","-37","","NA"
"-121.67","69.67","KEATS POINT","2202663","2018-03-19 23:00","2018","03","19","23:00","-23.9","","","","","M","","","11","","20","","","","97.78","","","","-35","","NA"
"-121.67","69.67","KEATS POINT","2202663","2018-03-20 00:00","2018","03","20","00:00","-23.5","","","","","M","","","11","","17","","","","97.81","","","","-34","","NA"
"-121.67","69.67","KEATS POINT","2202663","2018-03-20 01:00","2018","03","20","01:00","-25.6","","","","","M","","","10","","19","","","","97.83","","","","-37","","NA"
"-121.67","69.67","KEATS POINT","2202663","2018-03-20 02:00","2018","03","20","02:00","-25.7","","","","","M","","","11","","22","","","","97.86","","","","-38","","NA"
"-121.67","69.67","KEATS POINT","2202663","2018-03-20 03:00","2018","03","20","03:00","-26.7","","","","","M","","","11","","20","","","","97.87","","","","-39","","NA"
"-121.67","69.67","KEATS POINT","2202663","2018-03-20 04:00","2018","03","20","04:00","-27.5","","","","","M","","","10","","20","","","","97.88","","","","-40","","NA"
"-121.67","69.67","KEATS POINT","2202663","2018-03-20 05:00","2018","03","20","05:00","-26.7","","","","","M","","","10","","19","","","","97.92","","","","-39","","NA"
"-121.67","69.67","KEATS POINT","2202663","2018-03-20 06:00","2018","03","20","06:00","-26.8","","","","","M","","","11","","22","","","","97.95","","","","-40","","NA"
"-121.67","69.67","KEATS POINT","2202663","2018-03-20 07:00","2018","03","20","07:00","-26.1","","","","","M","","","11","","17","","","","97.97","","","","-37","","NA"
"-121.67","69.67","KEATS POINT","2202663","2018-03-20 08:00","2018","03","20","08:00","-23.7","","","","","M","","","12","","24","","","","98.01","","","","-36","","NA"
"-121.67","69.67","KEATS POINT","2202663","2018-03-20 09:00","2018","03","20","09:00","-25.2","","","","","M","","","11","","26","","","","98.02","","","","-39","","NA"
"-121.67","69.67","KEATS POINT","2202663","2018-03-20 10:00","2018","03","20","10:00","-24.8","","","","","M","","","11","","22","","","","98.06","","","","-37","","NA"
"-121.67","69.67","KEATS POINT","2202663","2018-03-20 11:00","2018","03","20","11:00","-24.2","","","","","M","","","10","","22","","","","98.08","","","","-36","","NA"
"-121.67","69.67","KEATS POINT","2202663","2018-03-20 12:00","2018","03","20","12:00","-24.9","","","","","M","","","10","","20","","","","98.14","","","","-37","","NA"
"-121.67","69.67","KEATS POINT","2202663","2018-03-20 13:00","2018","03","20","13:00","-25.3","","","","","M","","","10","","20","","","","98.21","","","","-37","","NA"
"-121.67","69.67","KEATS POINT","2202663","2018-03-20 14:00","2018","03","20","14:00","-23.8","","","","","M","","","10","","20","","","","98.26","","","","-35","","NA"
"-121.67","69.67","KEATS POINT","2202663","2018-03-20 15:00","2018","03","20","15:00","-22.6","","","","","M","","","11","","24","","","","98.31","","","","-35","","NA"
"-121.67","69.67","KEATS POINT","2202663","2018-03-20 16:00","2018","03","20","16:00","-21.8","","","","","M","","","10","","20","","","","98.36","","","","-33","","NA"
"-121.67","69.67","KEATS POINT","2202663","2018-03-20 17:00","2018","03","20","17:00","-22.8","","","","","M","","","11","","19","","","","98.40","","","","-34","","NA"
"-121.67","69.67","KEATS POINT","2202663","2018-03-20 18:00","2018","03","20","18:00","-22.3","","","","","M","","","12","","26","","","","98.42","","","","-35","","NA"
"-121.67","69.67","KEATS POINT","2202663","2018-03-20 19:00","2018","03","20","19:00","-22.9","","","","","M","","","12","","24","","","","98.47","","","","-35","","NA"
"-121.67","69.67","KEATS POINT","2202663","2018-03-20 20:00","2018","03","20","20:00","-20.3","","","","","M","","","12","","20","","","","98.53","","","","-31","","NA"
"-121.67","69.67","KEATS POINT","2202663","2018-03-20 21:00","2018","03","20","21:00","-19.7","","","","","M","","","12","","20","","","","98.56","","","","-30","","NA"
"-121.67","69.67","KEATS POINT","2202663","2018-03-20 22:00","2018","03","20","22:00","-21.1","","","","","M","","","11","","13","","","","98.61","","","","-30","","NA"
"-121.67","69.67","KEATS POINT","2202663","2018-03-20 23:00","2018","03","20","23:00","-19.5","","","","","M","","","16","","4","","","","98.68","","","","-23","","NA"
"-121.67","69.67","KEATS POINT","2202663","2018-03-21 00:00","2018","03","21","00:00","-19.0","","","","","M","","","28","","7","","","","98.74","","","","-24","","NA"
"-121.67","69.67","KEATS POINT","2202663","2018-03-21 01:00","2018","03","21","01:00","-18.7","","","","","M","","","27","","4","","","","98.78","","","","-22","","NA"
"-121.67","69.67","KEATS POINT","2202663","2018-03-21 02:00","2018","03","21","02:00","-18.2","","","","","M","","","18","","7","","","","98.80","","","","-24","","NA"
"-121.67","69.67","KEATS POINT","2202663","2018-03-21 03:00","2018","03","21","03:00","-18.6","","","","","M","","","18","","9","","","","98.83","","","","-25","","NA"
"-121.67","69.67","KEATS POINT","2202663","2018-03-21 04:00","2018","03","21","04:00","-18.4","","","","","M","","","21","","7","","","","98.87","","","","-24","","NA"
"-121.67","69.67","KEATS POINT","2202663","2018-03-21 05:00","2018","03","21","05:00","-18.8","","","","","M","","","23","","11","","","","98.90","","","","-26","","NA"
"-121.67","69.67","KEATS POINT","2202663","2018-03-21 06:00","2018","03","21","06:00","-19.2","","","","","M","","","24","","9","","","","98.95","","","","-26","","NA"
"-121.67","69.67","KEATS POINT","2202663","2018-03-21 07:00","2018","03","21","07:00","-19.1","","","","","M","","","24","","7","","","","99.00","","","","-25","","NA"
"-121.67","69.67","KEATS POINT","2202663","2018-03-21 08:00","2018","03","21","08:00","-18.6","","","","","M","","","19","","9","","","","99.03","","","","-25","","NA"
"-121.67","69.67","KEATS POINT","2202663","2018-03-21 09:00","2018","03","21","09:00","-17.7","","","","","M","","","1","","6","","","","99.07","","","","-22","","NA"
"-121.67","69.67","KEATS POINT","2202663","2018-03-21 10:00","2018","03","21","10:00","-18.3","","","","","M","","","22","","30","","","","99.09","","","","-30","","NA"
"-121.67","69.67","KEATS POINT","2202663","2018-03-21 11:00","2018","03","21","11:00","-18.3","","","","","M","","","21","","28","","","","99.13","","","","-30","","NA"
"-121.67","69.67","KEATS POINT","2202663","2018-03-21 12:00","2018","03","21","12:00","-18.7","","","","","M","","","21","","31","","","","99.18","","","","-31","","NA"
"-121.67","69.67","KEATS POINT","2202663","2018-03-21 13:00","2018","03","21","13:00","-18.8","","","","","M","","","22","","24","","","","99.23","","","","-30","","NA"
"-121.67","69.67","KEATS POINT","2202663","2018-03-21 14:00","2018","03","21","14:00","-18.4","","","","","M","","","21","","26","","","","99.26","","","","-30","","NA"
"-121.67","69.67","KEATS POINT","2202663","2018-03-21 15:00","2018","03","21","15:00","-18.5","","","","","M","","","21","","28","","","","99.29","","","","-30","","NA"
"-121.67","69.67","KEATS POINT","2202663","2018-03-21 16:00","2018","03","21","16:00","-19.2","","","","","M","","","22","","33","","","","99.29","","","","-32","","NA"
"-121.67","69.67","KEATS POINT","2202663","2018-03-21 17:00","2018","03","21","17:00","-20.1","","","","","M","","","23","","37","","","","99.29","","","","-34","","NA"
"-121.67","69.67","KEATS POINT","2202663","2018-03-21 18:00","2018","03","21","18:00","-20.9","","","","","M","","","22","","43","","","","99.31","","","","-36","","NA"
"-121.67","69.67","KEATS POINT","2202663","2018-03-21 19:00","2018","03","21","19:00","-21.5","","","","","M","","","21","","46","","","","99.33","","","","-37","","NA"
"-121.67","69.67","KEATS POINT","2202663","2018-03-21 20:00","2018","03","21","20:00","-21.8","","","","","M","","","22","","48","","","","99.36","","","","-38","","NA"
"-121.67","69.67","KEATS POINT","2202663","2018-03-21 21:00","2018","03","21","21:00","-21.7","","","","","M","","","23","","41","","","","99.37","","","","-37","","NA"
"-121.67","69.67","KEATS POINT","2202663","2018-03-21 22:00","2018","03","21","22:00","-21.9","","","","","M","","","24","","44","","","","99.36","","","","-37","","NA"
"-121.67","69.67","KEATS POINT","2202663","2018-03-21 23:00","2018","03","21","23:00","-22.3","","","","","M","","","22","","46","","","","99.34","","","","-38","","NA"
"-121.67","69.67","KEATS POINT","2202663","2018-03-22 00:00","2018","03","22","00:00","-23.4","","","","","M","","","22","","41","","","","99.36","","","","-39","","NA"
"-121.67","69.67","KEATS POINT","2202663","2018-03-22 01:00","2018","03","22","01:00","-22.8","","","","","M","","","22","","46","","","","99.36","","","","-39","","NA"
"-121.67","69.67","KEATS POINT","2202663","2018-03-22 02:00","2018","03","22","02:00","-23.4","","","","","M","","","23","","46","","","","99.37","","","","-40","","NA"
"-121.67","69.67","KEATS POINT","2202663","2018-03-22 03:00","2018","03","22","03:00","-23.3","","","","","M","","","23","","41","","","","99.38","","","","-39","","NA"
"-121.67","69.67","KEATS POINT","2202663","2018-03-22 04:00","2018","03","22","04:00","-23.2","","","","","M","","","22","","44","","","","99.37","","","","-39","","NA"
"-121.67","69.67","KEATS POINT","2202663","2018-03-22 05:00","2018","03","22","05:00","-23.3","","","","","M","","","22","","43","","","","99.30","","","","-39","","NA"
"-121.67","69.67","KEATS POINT","2202663","2018-03-22 06:00","2018","03","22","06:00","-23.5","","","","","M","","","21","","54","","","","99.23","","","","-41","","NA"
"-121.67","69.67","KEATS POINT","2202663","2018-03-22 07:00","2018","03","22","07:00","-22.8","","","","","M","","","22","","46","","","","99.21","","","","-39","","NA"
"-121.67","69.67","KEATS POINT","2202663","2018-03-22 08:00","2018","03","22","08:00","-22.5","","","","","M","","","22","","46","","","","99.16","","","","-38","","NA"
"-121.67","69.67","KEATS POINT","2202663","2018-03-22 09:00","2018","03","22","09:00","-21.1","","","","","M","","","21","","44","","","","99.12","","","","-36","","NA"
"-121.67","69.67","KEATS POINT","2202663","2018-03-22 10:00","2018","03","22","10:00","-20.2","","","","","M","","","21","","43","","","","99.06","","","","-35","","NA"
"-121.67","69.67","KEATS POINT","2202663","2018-03-22 11:00","2018","03","22","11:00","-18.2","","","","","M","","","21","","41","","","","99.01","","","","-32","","NA"
"-121.67","69.67","KEATS POINT","2202663","2018-03-22 12:00","2018","03","22","12:00","-17.5","","","","","M","","","22","","30","","","","98.98","","","","-29","","NA"
"-121.67","69.67","KEATS POINT","2202663","2018-03-22 13:00","2018","03","22","13:00","-17.1","","","","","M","","","22","","30","","","","98.93","","","","-29","","NA"
"-121.67","69.67","KEATS POINT","2202663","2018-03-22 14:00","2018","03","22","14:00","-16.7","","","","","M","","","23","","30","","","","98.86","","","","-28","","NA"
"-121.67","69.67","KEATS POINT","2202663","2018-03-22 15:00","2018","03","22","15:00","-16.7","","","","","M","","","22","","26","","","","98.78","","","","-28","","NA"
"-121.67","69.67","KEATS POINT","2202663","2018-03-22 16:00","2018","03","22","16:00","-16.5","","","","","M","","","23","","24","","","","98.71","","","","-27","","NA"
"-121.67","69.67","KEATS POINT","2202663","2018-03-22 17:00","2018","03","22","17:00","-16.0","","","","","M","","","26","","20","","","","98.66","","","","-25","","NA"
"-121.67","69.67","KEATS POINT","2202663","2018-03-22 18:00","2018","03","22","18:00","-16.0","","","","","M","","","","","0","","","","98.58","","","","","","NA"
"-121.67","69.67","KEATS POINT","2202663","2018-03-22 19:00","2018","03","22","19:00","-16.1","","","","","M","","","16","","11","","","","98.52","","","","-23","","NA"
"-121.67","69.67","KEATS POINT","2202663","2018-03-22 20:00","2018","03","22","20:00","-16.7","","","","","M","","","21","","31","","","","98.42","","","","-28","","NA"
"-121.67","69.67","KEATS POINT","2202663","2018-03-22 21:00","2018","03","22","21:00","-17.1","","","","","M","","","21","","39","","","","98.35","","","","-30","","NA"
"-121.67","69.67","KEATS POINT","2202663","2018-03-22 22:00","2018","03","22","22:00","-17.2","","","","","M","","","20","","19","","","","98.37","","","","-27","","NA"
"-121.67","69.67","KEATS POINT","2202663","2018-03-22 23:00","2018","03","22","23:00","-17.8","","","","","M","","","21","","22","","","","98.34","","","","-28","","NA"
"-121.67","69.67","KEATS POINT","2202663","2018-03-23 00:00","2018","03","23","00:00","-18.0","","","","","M","","","21","","24","","","","98.31","","","","-29","","NA"
"-121.67","69.67","KEATS POINT","2202663","2018-03-23 01:00","2018","03","23","01:00","-18.3","","","","","M","","","21","","24","","","","98.29","","","","-29","","NA"
"-121.67","69.67","KEATS POINT","2202663","2018-03-23 02:00","2018","03","23","02:00","-18.6","","","","","M","","","21","","24","","","","98.24","","","","-30","","NA"
"-121.67","69.67","KEATS POINT","2202663","2018-03-23 03:00","2018","03","23","03:00","-17.8","","","","","M","","","21","","22","","","","98.21","","","","-28","","NA"
"-121.67","69.67","KEATS POINT","2202663","2018-03-23 04:00","2018","03","23","04:00","-17.9","","","","","M","","","20","","15","","","","98.19","","","","-26","","NA"
"-121.67","69.67","KEATS POINT","2202663","2018-03-23 05:00","2018","03","23","05:00","-18.5","","","","","M","","","21","","19","","","","98.16","","","","-28","","NA"
"-121.67","69.67","KEATS POINT","2202663","2018-03-23 06:00","2018","03","23","06:00","-19.0","","","","","M","","","21","","17","","","","98.17","","","","-28","","NA"
"-121.67","69.67","KEATS POINT","2202663","2018-03-23 07:00","2018","03","23","07:00","-19.8","","","","","M","","","24","","24","","","","98.18","","","","-31","","NA"
"-121.67","69.67","KEATS POINT","2202663","2018-03-23 08:00","2018","03","23","08:00","-20.5","","","","","M","","","24","","20","","","","98.19","","","","-31","","NA"
"-121.67","69.67","KEATS POINT","2202663","2018-03-23 09:00","2018","03","23","09:00","-19.7","","","","","M","","","22","","13","","","","98.21","","","","-28","","NA"
"-121.67","69.67","KEATS POINT","2202663","2018-03-23 10:00","2018","03","23","10:00","-21.3","","","","","M","","","23","","26","","","","98.21","","","","-33","","NA"
"-121.67","69.67","KEATS POINT","2202663","2018-03-23 11:00","2018","03","23","11:00","-21.2","","","","","M","","","24","","28","","","","98.23","","","","-34","","NA"
"-121.67","69.67","KEATS POINT","2202663","2018-03-23 12:00","2018","03","23","12:00","-20.6","","","","","M","","","28","","22","","","","98.25","","","","-32","","NA"
"-121.67","69.67","KEATS POINT","2202663","2018-03-23 13:00","2018","03","23","13:00","-21.8","","","","","M","","","29","","26","","","","98.31","","","","-34","","NA"
"-121.67","69.67","KEATS POINT","2202663","2018-03-23 14:00","2018","03","23","14:00","-22.1","","","","","M","","","29","","24","","","","98.32","","","","-34","","NA"
"-121.67","69.67","KEATS POINT","2202663","2018-03-23 15:00","2018","03","23","15:00","-22.2","","","","","M","","","29","","20","","","","98.34","","","","-33","","NA"
"-121.67","69.67","KEATS POINT","2202663","2018-03-23 16:00","2018","03","23","16:00","-22.4","","","","","M","","","28","","20","","","","98.33","","","","-34","","NA"
"-121.67","69.67","KEATS POINT","2202663","2018-03-23 17:00","2018","03","23","17:00","-23.2","","","","","M","","","28","","19","","","","98.31","","","","-34","","NA"
"-121.67","69.67","KEATS POINT","2202663","2018-03-23 18:00","2018","03","23","18:00","-24.1","","","","","M","","","28","","20","","","","98.31","","","","-36","","NA"
"-121.67","69.67","KEATS POINT","2202663","2018-03-23 19:00","2018","03","23","19:00","-24.7","","","","","M","","","26","","22","","","","98.29","","","","-37","","NA"
"-121.67","69.67","KEATS POINT","2202663","2018-03-23 20:00","2018","03","23","20:00","-25.5","","","","","M","","","25","","17","","","","98.29","","","","-37","","NA"
"-121.67","69.67","KEATS POINT","2202663","2018-03-23 21:00","2018","03","23","21:00","-26.0","","","","","M","","","25","","17","","","","98.26","","","","-37","","NA"
"-121.67","69.67","KEATS POINT","2202663","2018-03-23 22:00","2018","03","23","22:00","-25.9","","","","","M","","","25","","28","","","","98.27","","","","-40","","NA"
"-121.67","69.67","KEATS POINT","2202663","2018-03-23 23:00","2018","03","23","23:00","-26.7","","","","","M","","","25","","22","","","","98.25","","","","-39","","NA"
"-121.67","69.67","KEATS POINT","2202663","2018-03-24 00:00","2018","03","24","00:00","-26.0","","","","","M","","","27","","15","","","","98.18","","","","-36","","NA"
"-121.67","69.67","KEATS POINT","2202663","2018-03-24 01:00","2018","03","24","01:00","-26.6","","","","","M","","","23","","15","","","","98.12","","","","-37","","NA"
"-121.67","69.67","KEATS POINT","2202663","2018-03-24 02:00","2018","03","24","02:00","-26.8","","","","","M","","","23","","13","","","","98.11","","","","-37","","NA"
"-121.67","69.67","KEATS POINT","2202663","2018-03-24 03:00","2018","03","24","03:00","-27.1","","","","","M","","","22","","13","","","","98.07","","","","-37","","NA"
"-121.67","69.67","KEATS POINT","2202663","2018-03-24 04:00","2018","03","24","04:00","-26.9","","","","","M","","","22","","11","","","","98.03","","","","-36","","NA"
"-121.67","69.67","KEATS POINT","2202663","2018-03-24 05:00","2018","03","24","05:00","-27.0","","","","","M","","","21","","11","","","","98.02","","","","-36","","NA"
"-121.67","69.67","KEATS POINT","2202663","2018-03-24 06:00","2018","03","24","06:00","-27.2","","","","","M","","","18","","9","","","","98.00","","","","-35","","NA"
"-121.67","69.67","KEATS POINT","2202663","2018-03-24 07:00","2018","03","24","07:00","-27.4","","","","","M","","","20","","11","","","","97.97","","","","-37","","NA"
"-121.67","69.67","KEATS POINT","2202663","2018-03-24 08:00","2018","03","24","08:00"
"-121.67","69.67","KEATS POINT","2202663","2018-03-24 09:00","2018","03","24","09:00","-26.6","","","","","M","","","","","0","","","","97.91","","","","","","NA"
"-121.67","69.67","KEATS POINT","2202663","2018-03-24 10:00","2018","03","24","10:00","-26.9","","","","","M","","","3","","7","","","","97.89","","","","-34","","NA"
"-121.67","69.67","KEATS POINT","2202663","2018-03-24 11:00","2018","03","24","11:00","-27.3","","","","","M","","","32","","13","","","","97.87","","","","-37","","NA"
"-121.67","69.67","KEATS POINT","2202663","2018-03-24 12:00","2018","03","24","12:00","-27.3","","","","","M","","","32","","9","","","","97.87","","","","-35","","NA"
"-121.67","69.67","KEATS POINT","2202663","2018-03-24 13:00","2018","03","24","13:00","-27.4","","","","","M","","","3","","9","","","","97.86","","","","-36","","NA"
"-121.67","69.67","KEATS POINT","2202663","2018-03-24 14:00","2018","03","24","14:00","-27.3","","","","","M","","","2","","9","","","","97.89","","","","-35","","NA"
"-121.67","69.67","KEATS POINT","2202663","2018-03-24 15:00","2018","03","24","15:00","-27.8","","","","","M","","","33","","9","","","","97.90","","","","-36","","NA"
"-121.67","69.67","KEATS POINT","2202663","2018-03-24 16:00","2018","03","24","16:00","-28.1","","","","","M","","","31","","11","","","","97.90","","","","-37","","NA"
"-121.67","69.67","KEATS POINT","2202663","2018-03-24 17:00","2018","03","24","17:00","-28.1","","","","","M","","","31","","15","","","","97.87","","","","-39","","NA"
"-121.67","69.67","KEATS POINT","2202663","2018-03-24 18:00","2018","03","24","18:00","-28.3","","","","","M","","","28","","15","","","","97.86","","","","-39","","NA"
"-121.67","69.67","KEATS POINT","2202663","2018-03-24 19:00","2018","03","24","19:00","-28.9","","","","","M","","","28","","15","","","","97.86","","","","-40","","NA"
"-121.67","69.67","KEATS POINT","2202663","2018-03-24 20:00","2018","03","24","20:00","-29.3","","","","","M","","","30","","19","","","","97.86","","","","-42","","NA"
"-121.67","69.67","KEATS POINT","2202663","2018-03-24 21:00","2018","03","24","21:00","-30.0","","","","","M","","","30","","15","","","","97.86","","","","-41","","NA"
"-121.67","69.67","KEATS POINT","2202663","2018-03-24 22:00","2018","03","24","22:00","-30.4","","","","","M","","","28","","11","","","","97.85","","","","-40","","NA"
"-121.67","69.67","KEATS POINT","2202663","2018-03-24 23:00","2018","03","24","23:00","-30.8","","","","","M","","","28","","9","","","","97.84","","","","-40","","NA"
"-121.67","69.67","KEATS POINT","2202663","2018-03-25 00:00","2018","03","25","00:00","-30.9","","","","","M","","","29","","11","","","","97.80","","","","-41","","NA"
"-121.67","69.67","KEATS POINT","2202663","2018-03-25 01:00","2018","03","25","01:00","-30.8","","","","","M","","","28","","9","","","","97.81","","","","-40","","NA"
"-121.67","69.67","KEATS POINT","2202663","2018-03-25 02:00","2018","03","25","02:00","-31.0","","","","","M","","","28","","13","","","","97.78","","","","-42","","NA"
"-121.67","69.67","KEATS POINT","2202663","2018-03-25 03:00","2018","03","25","03:00","-30.7","","","","","M","","","30","","15","","","","97.78","","","","-42","","NA"
"-121.67","69.67","KEATS POINT","2202663","2018-03-25 04:00","2018","03","25","04:00","-31.4","","","","","M","","","28","","17","","","","97.74","","","","-44","","NA"
"-121.67","69.67","KEATS POINT","2202663","2018-03-25 05:00","2018","03","25","05:00","-31.0","","","","","M","","","28","","15","","","","97.72","","","","-43","","NA"
"-121.67","69.67","KEATS POINT","2202663","2018-03-25 06:00","2018","03","25","06:00","-31.5","","","","","M","","","28","","15","","","","97.70","","","","-43","","NA"
"-121.67","69.67","KEATS POINT","2202663","2018-03-25 07:00","2018","03","25","07:00","-31.3","","","","","M","","","29","","17","","","","97.68","","","","-44","","NA"
"-121.67","69.67","KEATS POINT","2202663","2018-03-25 08:00","2018","03","25","08:00","-31.6","","","","","M","","","28","","15","","","","97.67","","","","-43","","NA"
"-121.67","69.67","KEATS POINT","2202663","2018-03-25 09:00","2018","03","25","09:00","-30.5","","","","","M","","","28","","13","","","","97.65","","","","-41","","NA"
"-121.67","69.67","KEATS POINT","2202663","2018-03-25 10:00","2018","03","25","10:00","-30.1","","","","","M","","","29","","17","","","","97.64","","","","-42","","NA"
"-121.67","69.67","KEATS POINT","2202663","2018-03-25 11:00","2018","03","25","11:00","-29.5","","","","","M","","","30","","19","","","","97.64","","","","-42","","NA"
"-121.67","69.67","KEATS POINT","2202663","2018-03-25 12:00","2018","03","25","12:00","-28.9","","","","","M","","","30","","17","","","","97.60","","","","-41","","NA"
"-121.67","69.67","KEATS POINT","2202663","2018-03-25 13:00","2018","03","25","13:00","-29.0","","","","","M","","","28","","20","","","","97.56","","","","-42","","NA"
"-121.67","69.67","KEATS POINT","2202663","2018-03-25 14:00","2018","03","25","14:00","-28.5","","","","","M","","","27","","22","","","","97.53","","","","-42","","NA"
"-121.67","69.67","KEATS POINT","2202663","2018-03-25 15:00","2018","03","25","15:00","-28.1","","","","","M","","","26","","26","","","","97.50","","","","-42","","NA"
"-121.67","69.67","KEATS POINT","2202663","2018-03-25 16:00","2018","03","25","16:00","-28.5","","","","","M","","","24","","33","","","","97.47","","","","-44","","NA"
"-121.67","69.67","KEATS POINT","2202663","2018-03-25 17:00","2018","03","25","17:00","-28.8","","","","","M","","","24","","41","","","","97.41","","","","-46","","NA"
"-121.67","69.67","KEATS POINT","2202663","2018-03-25 18:00","2018","03","25","18:00","-29.1","","","","","M","","","23","","41","","","","97.33","","","","-46","","NA"
"-121.67","69.67","KEATS POINT","2202663","2018-03-25 19:00","2018","03","25","19:00","-29.3","","","","","M","","","23","","44","","","","97.28","","","","-47","","NA"
"-121.67","69.67","KEATS POINT","2202663","2018-03-25 20:00","2018","03","25","20:00","-30.0","","","","","M","","","22","","44","","","","97.23","","","","-48","","NA"
"-121.67","69.67","KEATS POINT","2202663","2018-03-25 21:00","2018","03","25","21:00","-29.9","","","","","M","","","22","","48","","","","97.17","","","","-49","","NA"
"-121.67","69.67","KEATS POINT","2202663","2018-03-25 22:00","2018","03","25","22:00","-29.8","","","","","M","","","23","","39","","","","97.14","","","","-47","","NA"
"-121.67","69.67","KEATS POINT","2202663","2018-03-25 23:00","2018","03","25","23:00","-30.2","","","","","M","","","22","","50","","","","97.06","","","","-49","","NA"
"-121.67","69.67","KEATS POINT","2202663","2018-03-26 00:00","2018","03","26","00:00","-30.7","","","","","M","","","22","","48","","","","97.00","","","","-50","","NA"
"-121.67","69.67","KEATS POINT","2202663","2018-03-26 01:00","2018","03","26","01:00","-31.5","","","","","M","","","21","","48","","","","96.96","","","","-51","","NA"
"-121.67","69.67","KEATS POINT","2202663","2018-03-26 02:00","2018","03","26","02:00","-31.4","","","","","M","","","21","","56","","","","96.87","","","","-52","","NA"
"-121.67","69.67","KEATS POINT","2202663","2018-03-26 03:00","2018","03","26","03:00","-30.5","","","","","M","","","23","","57","","","","96.75","","","","-51","","NA"
"-121.67","69.67","KEATS POINT","2202663","2018-03-26 04:00","2018","03","26","04:00","-29.9","","","","","M","","","24","","65","","","","96.77","","","","-51","","NA"
"-121.67","69.67","KEATS POINT","2202663","2018-03-26 05:00","2018","03","26","05:00","-29.4","","","","","M","","","24","","57","","","","96.72","","","","-49","","NA"
"-121.67","69.67","KEATS POINT","2202663","2018-03-26 06:00","2018","03","26","06:00","-30.1","","","","","M","","","25","","57","","","","96.79","","","","-50","","NA"
"-121.67","69.67","KEATS POINT","2202663","2018-03-26 07:00","2018","03","26","07:00","-29.6","","","","","M","","","26","","50","","","","96.81","","","","-48","","NA"
"-121.67","69.67","KEATS POINT","2202663","2018-03-26 08:00","2018","03","26","08:00","-29.5","","","","","M","","","26","","46","","","","96.82","","","","-48","","NA"
"-121.67","69.67","KEATS POINT","2202663","2018-03-26 09:00","2018","03","26","09:00","-28.5","","","","","M","","","27","","35","","","","96.88","","","","-45","","NA"
"-121.67","69.67","KEATS POINT","2202663","2018-03-26 10:00","2018","03","26","10:00","-28.6","","","","","M","","","25","","35","","","","96.88","","","","-45","","NA"
"-121.67","69.67","KEATS POINT","2202663","2018-03-26 11:00","2018","03","26","11:00","-27.2","","","","","M","","","26","","30","","","","96.87","","","","-42","","NA"
"-121.67","69.67","KEATS POINT","2202663","2018-03-26 12:00","2018","03","26","12:00","-26.8","","","","","M","","","27","","26","","","","96.92","","","","-41","","NA"
"-121.67","69.67","KEATS POINT","2202663","2018-03-26 13:00","2018","03","26","13:00","-26.6","","","","","M","","","26","","26","","","","96.93","","","","-40","","NA"
"-121.67","69.67","KEATS POINT","2202663","2018-03-26 14:00","2018","03","26","14:00","-26.3","","","","","M","","","25","","30","","","","96.97","","","","-41","","NA"
"-121.67","69.67","KEATS POINT","2202663","2018-03-26 15:00","2018","03","26","15:00","-26.6","","","","","M","","","25","","28","","","","96.98","","","","-41","","NA"
"-121.67","69.67","KEATS POINT","2202663","2018-03-26 16:00","2018","03","26","16:00","-27.0","","","","","M","","","25","","31","","","","97.00","","","","-42","","NA"
"-121.67","69.67","KEATS POINT","2202663","2018-03-26 17:00","2018","03","26","17:00","-26.9","","","","","M","","","25","","31","","","","96.99","","","","-42","","NA"
"-121.67","69.67","KEATS POINT","2202663","2018-03-26 18:00","2018","03","26","18:00","-27.9","","","","","M","","","23","","31","","","","96.98","","","","-43","","NA"
"-121.67","69.67","KEATS POINT","2202663","2018-03-26 19:00","2018","03","26","19:00","-27.7","","","","","M","","","24","","28","","","","97.01","","","","-42","","NA"
"-121.67","69.67","KEATS POINT","2202663","2018-03-26 20:00","2018","03","26","20:00","-29.1","","","","","M","","","24","","28","","","","97.00","","","","-44","","NA"
"-121.67","69.67","KEATS POINT","2202663","2018-03-26 21:00","2018","03","26","21:00","-29.3","","","","","M","","","23","","28","","","","96.99","","","","-44","","NA"
"-121.67","69.67","KEATS POINT","2202663","2018-03-26 22:00","2018","03","26","22:00","-29.0","","","","","M","","","23","","30","","","","96.96","","","","-44","","NA"
"-121.67","69.67","KEATS POINT","2202663","2018-03-26 23:00","2018","03","26","23:00","-29.1","","","","","M","","","23","","28","","","","96.94","","","","-44","","NA"
"-121.67","69.67","KEATS POINT","2202663","2018-03-27 00:00","2018","03","27","00:00","-28.8","","","","","M","","","23","","26","","","","96.95","","","","-43","","NA"
"-121.67","69.67","KEATS POINT","2202663","2018-03-27 01:00","2018","03","27","01:00","-28.8","","","","","M","","","23","","22","","","","96.95","","","","-42","","NA"
"-121.67","69.67","KEATS POINT","2202663","2018-03-27 02:00","2018","03","27","02:00","-29.0","","","","","M","","","23","","28","","","","96.95","","","","-44","","NA"
"-121.67","69.67","KEATS POINT","2202663","2018-03-27 03:00","2018","03","27","03:00","-28.9","","","","","M","","","24","","24","","","","96.99","","","","-43","","NA"
"-121.67","69.67","KEATS POINT","2202663","2018-03-27 04:00","2018","03","27","04:00","-28.9","","","","","M","","","23","","26","","","","97.00","","","","-43","","NA"
"-121.67","69.67","KEATS POINT","2202663","2018-03-27 05:00","2018","03","27","05:00","-28.5","","","","","M","","","24","","22","","","","97.02","","","","-42","","NA"
"-121.67","69.67","KEATS POINT","2202663","2018-03-27 06:00","2018","03","27","06:00","-28.7","","","","","M","","","30","","6","","","","97.06","","","","-35","","NA"
"-121.67","69.67","KEATS POINT","2202663","2018-03-27 07:00","2018","03","27","07:00","-28.4","","","","","M","","","33","","4","","","","97.09","","","","-33","","NA"
"-121.67","69.67","KEATS POINT","2202663","2018-03-27 08:00","2018","03","27","08:00","-29.3","","","","","M","","","7","","4","","","","97.12","","","","-34","","NA"
"-121.67","69.67","KEATS POINT","2202663","2018-03-27 09:00","2018","03","27","09:00","-28.2","","","","","M","","","6","","4","","","","97.19","","","","-33","","NA"
"-121.67","69.67","KEATS POINT","2202663","2018-03-27 10:00","2018","03","27","10:00","-28.4","","","","","M","","","","","0","","","","97.23","","","","","","NA"
"-121.67","69.67","KEATS POINT","2202663","2018-03-27 11:00","2018","03","27","11:00","-27.2","","","","","M","","","10","","4","","","","97.28","","","","-31","","NA"
"-121.67","69.67","KEATS POINT","2202663","2018-03-27 12:00","2018","03","27","12:00","-27.2","","","","","M","","","12","","4","","","","97.34","","","","-31","","NA"
"-121.67","69.67","KEATS POINT","2202663","2018-03-27 13:00","2018","03","27","13:00","-27.7","","","","","M","","","7","","9","","","","97.41","","","","-36","","NA"
"-121.67","69.67","KEATS POINT","2202663","2018-03-27 14:00","2018","03","27","14:00","-27.3","","","","","M","","","6","","9","","","","97.49","","","","-35","","NA"
"-121.67","69.67","KEATS POINT","2202663","2018-03-27 15:00","2018","03","27","15:00","-27.3","","","","","M","","","9","","9","","","","97.60","","","","-35","","NA"
"-121.67","69.67","KEATS POINT","2202663","2018-03-27 16:00","2018","03","27","16:00","-27.6","","","","","M","","","8","","9","","","","97.68","","","","-36","","NA"
"-121.67","69.67","KEATS POINT","2202663","2018-03-27 17:00","2018","03","27","17:00","-28.0","","","","","M","","","10","","11","","","","97.76","","","","-37","","NA"
"-121.67","69.67","KEATS POINT","2202663","2018-03-27 18:00","2018","03","27","18:00","-29.1","","","","","M","","","11","","11","","","","97.84","","","","-39","","NA"
"-121.67","69.67","KEATS POINT","2202663","2018-03-27 19:00","2018","03","27","19:00","-30.1","","","","","M","","","10","","13","","","","97.91","","","","-41","","NA"
"-121.67","69.67","KEATS POINT","2202663","2018-03-27 20:00","2018","03","27","20:00","-30.2","","","","","M","","","10","","13","","","","98.00","","","","-41","","NA"
"-121.67","69.67","KEATS POINT","2202663","2018-03-27 21:00","2018","03","27","21:00","-30.6","","","","","M","","","11","","15","","","","98.07","","","","-42","","NA"
"-121.67","69.67","KEATS POINT","2202663","2018-03-27 22:00","2018","03","27","22:00","-30.1","","","","","M","","","11","","13","","","","98.12","","","","-41","","NA"
"-121.67","69.67","KEATS POINT","2202663","2018-03-27 23:00","2018","03","27","23:00","-30.5","","","","","M","","","10","","13","","","","98.18","","","","-41","","NA"
"-121.67","69.67","KEATS POINT","2202663","2018-03-28 00:00","2018","03","28","00:00","-30.1","","","","","M","","","10","","11","","","","98.26","","","","-40","","NA"
"-121.67","69.67","KEATS POINT","2202663","2018-03-28 01:00","2018","03","28","01:00","-30.4","","","","","M","","","9","","11","","","","98.34","","","","-40","","NA"
"-121.67","69.67","KEATS POINT","2202663","2018-03-28 02:00","2018","03","28","02:00","-30.4","","","","","M","","","14","","13","","","","98.40","","","","-41","","NA"
"-121.67","69.67","KEATS POINT","2202663","2018-03-28 03:00","2018","03","28","03:00","-28.8","","","","","M","","","10","","11","","","","98.49","","","","-38","","NA"
"-121.67","69.67","KEATS POINT","2202663","2018-03-28 04:00","2018","03","28","04:00","-28.8","","","","","M","","","12","","7","","","","98.57","","","","-36","","NA"
"-121.67","69.67","KEATS POINT","2202663","2018-03-28 05:00","2018","03","28","05:00","-28.6","","","","","M","","","11","","9","","","","98.65","","","","-37","","NA"
"-121.67","69.67","KEATS POINT","2202663","2018-03-28 06:00","2018","03","28","06:00","-28.5","","","","","M","","","11","","11","","","","98.68","","","","-38","","NA"
"-121.67","69.67","KEATS POINT","2202663","2018-03-28 07:00","2018","03","28","07:00","-28.8","","","","","M","","","12","","7","","","","98.74","","","","-36","","NA"
"-121.67","69.67","KEATS POINT","2202663","2018-03-28 08:00","2018","03","28","08:00","-28.1","","","","","M","","","9","","6","","","","98.79","","","","-34","","NA"
"-121.67","69.67","KEATS POINT","2202663","2018-03-28 09:00","2018","03","28","09:00","-27.4","","","","","M","","","12","","6","","","","98.82","","","","-34","","NA"
"-121.67","69.67","KEATS POINT","2202663","2018-03-28 10:00","2018","03","28","10:00","-27.2","","","","","M","","","7","","4","","","","98.89","","","","-31","","NA"
"-121.67","69.67","KEATS POINT","2202663","2018-03-28 11:00","2018","03","28","11:00","-25.2","","","","","M","","","","","0","","","","98.93","","","","","","NA"
"-121.67","69.67","KEATS POINT","2202663","2018-03-28 12:00","2018","03","28","12:00","-25.3","","","","","M","","","18","","4","","","","98.99","","","","-29","","NA"
"-121.67","69.67","KEATS POINT","2202663","2018-03-28 13:00","2018","03","28","13:00","-25.8","","","","","M","","","5","","4","","","","99.03","","","","-30","","NA"
"-121.67","69.67","KEATS POINT","2202663","2018-03-28 14:00","2018","03","28","14:00","-25.3","","","","","M","","","29","","7","","","","99.06","","","","-32","","NA"
"-121.67","69.67","KEATS POINT","2202663","2018-03-28 15:00","2018","03","28","15:00","-26.3","","","","","M","","","31","","11","","","","99.11","","","","-35","","NA"
"-121.67","69.67","KEATS POINT","2202663","2018-03-28 16:00","2018","03","28","16:00","-25.9","","","","","M","","","29","","9","","","","99.17","","","","-34","","NA"
"-121.67","69.67","KEATS POINT","2202663","2018-03-28 17:00","2018","03","28","17:00","-25.6","","","","","M","","","28","","9","","","","99.19","","","","-33","","NA"
"-121.67","69.67","KEATS POINT","2202663","2018-03-28 18:00","2018","03","28","18:00","-25.7","","","","","M","","","29","","7","","","","99.20","","","","-32","","NA"
"-121.67","69.67","KEATS POINT","2202663","2018-03-28 19:00","2018","03","28","19:00","-26.4","","","","","M","","","30","","11","","","","99.23","","","","-35","","NA"
"-121.67","69.67","KEATS POINT","2202663","2018-03-28 20:00","2018","03","28","20:00","-27.0","","","","","M","","","28","","7","","","","99.25","","","","-34","","NA"
"-121.67","69.67","KEATS POINT","2202663","2018-03-28 21:00","2018","03","28","21:00","-27.3","","","","","M","","","30","","11","","","","99.27","","","","-36","","NA"
"-121.67","69.67","KEATS POINT","2202663","2018-03-28 22:00","2018","03","28","22:00","-27.2","","","","","M","","","19","","9","","","","99.27","","","","-35","","NA"
"-121.67","69.67","KEATS POINT","2202663","2018-03-28 23:00","2018","03","28","23:00","-26.5","","","","","M","","","18","","9","","","","99.29","","","","-34","","NA"
"-121.67","69.67","KEATS POINT","2202663","2018-03-29 00:00","2018","03","29","00:00","-26.4","","","","","M","","","28","","7","","","","99.30","","","","-33","","NA"
"-121.67","69.67","KEATS POINT","2202663","2018-03-29 01:00","2018","03","29","01:00","-26.4","","","","","M","","","29","","7","","","","99.34","","","","-33","","NA"
"-121.67","69.67","KEATS POINT","2202663","2018-03-29 02:00","2018","03","29","02:00","-26.4","","","","","M","","","26","","9","","","","99.32","","","","-34","","NA"
"-121.67","69.67","KEATS POINT","2202663","2018-03-29 03:00","2018","03","29","03:00","-26.0","","","","","M","","","28","","9","","","","99.34","","","","-34","","NA"
"-121.67","69.67","KEATS POINT","2202663","2018-03-29 04:00","2018","03","29","04:00","-25.8","","","","","M","","","29","","9","","","","99.35","","","","-34","","NA"
"-121.67","69.67","KEATS POINT","2202663","2018-03-29 05:00","2018","03","29","05:00","-24.9","","","","","M","","","27","","7","","","","99.37","","","","-31","","NA"
"-121.67","69.67","KEATS POINT","2202663","2018-03-29 06:00","2018","03","29","06:00","-25.2","","","","","M","","","28","","9","","","","99.38","","","","-33","","NA"
"-121.67","69.67","KEATS POINT","2202663","2018-03-29 07:00","2018","03","29","07:00","-25.0","","","","","M","","","26","","9","","","","99.37","","","","-33","","NA"
"-121.67","69.67","KEATS POINT","2202663","2018-03-29 08:00","2018","03","29","08:00","-24.3","","","","","M","","","27","","11","","","","99.37","","","","-33","","NA"
"-121.67","69.67","KEATS POINT","2202663","2018-03-29 09:00","2018","03","29","09:00","-23.3","","","","","M","","","28","","9","","","","99.38","","","","-31","","NA"
"-121.67","69.67","KEATS POINT","2202663","2018-03-29 10:00","2018","03","29","10:00","-22.5","","","","","M","","","26","","11","","","","99.38","","","","-31","","NA"
"-121.67","69.67","KEATS POINT","2202663","2018-03-29 11:00","2018","03","29","11:00","-21.0","","","","","M","","","28","","9","","","","99.39","","","","-28","","NA"
"-121.67","69.67","KEATS POINT","2202663","2018-03-29 12:00","2018","03","29","12:00","-20.7","","","","","M","","","27","","7","","","","99.41","","","","-26","","NA"
"-121.67","69.67","KEATS POINT","2202663","2018-03-29 13:00","2018","03","29","13:00","-19.9","","","","","M","","","28","","9","","","","99.41","","","","-27","","NA"
"-121.67","69.67","KEATS POINT","2202663","2018-03-29 14:00","2018","03","29","14:00","-19.4","","","","","M","","","28","","11","","","","99.42","","","","-27","","NA"
"-121.67","69.67","KEATS POINT","2202663","2018-03-29 15:00","2018","03","29","15:00","-18.5","","","","","M","","","29","","11","","","","99.42","","","","-26","","NA"
"-121.67","69.67","KEATS POINT","2202663","2018-03-29 16:00","2018","03","29","16:00","-18.2","","","","","M","","","29","","9","","","","99.41","","","","-25","","NA"
"-121.67","69.67","KEATS POINT","2202663","2018-03-29 17:00","2018","03","29","17:00","-18.1","","","","","M","","","30","","7","","","","99.41","","","","-23","","NA"
"-121.67","69.67","KEATS POINT","2202663","2018-03-29 18:00","2018","03","29","18:00","-17.6","","","","","M","","","19","","7","","","","99.38","","","","-23","","NA"
"-121.67","69.67","KEATS POINT","2202663","2018-03-29 19:00","2018","03","29","19:00","-18.1","","","","","M","","","26","","7","","","","99.32","","","","-23","","NA"
"-121.67","69.67","KEATS POINT","2202663","2018-03-29 20:00","2018","03","29","20:00","-18.5","","","","","M","","","17","","6","","","","99.30","","","","-23","","NA"
"-121.67","69.67","KEATS POINT","2202663","2018-03-29 21:00","2018","03","29","21:00","-17.7","","","","","M","","","19","","6","","","","99.28","","","","-22","","NA"
"-121.67","69.67","KEATS POINT","2202663","2018-03-29 22:00","2018","03","29","22:00","-17.4","","","","","M","","","26","","6","","","","99.27","","","","-22","","NA"
"-121.67","69.67","KEATS POINT","2202663","2018-03-29 23:00","2018","03","29","23:00","-17.1","","","","","M","","","22","","11","","","","99.25","","","","-24","","NA"
"-121.67","69.67","KEATS POINT","2202663","2018-03-30 00:00","2018","03","30","00:00","-17.6","","","","","M","","","19","","19","","","","99.20","","","","-27","","NA"
"-121.67","69.67","KEATS POINT","2202663","2018-03-30 01:00","2018","03","30","01:00","-17.2","","","","","M","","","22","","33","","","","99.14","","","","-29","","NA"
"-121.67","69.67","KEATS POINT","2202663","2018-03-30 02:00","2018","03","30","02:00","-18.4","","","","","M","","","21","","50","","","","99.04","","","","-33","","NA"
"-121.67","69.67","KEATS POINT","2202663","2018-03-30 03:00","2018","03","30","03:00","-18.0","","","","","M","","","21","","59","","","","98.95","","","","-34","","NA"
"-121.67","69.67","KEATS POINT","2202663","2018-03-30 04:00","2018","03","30","04:00","-18.8","","","","","M","","","21","","61","","","","98.91","","","","-35","","NA"
"-121.67","69.67","KEATS POINT","2202663","2018-03-30 05:00","2018","03","30","05:00","-19.2","","","","","M","","","22","","50","","","","98.95","","","","-34","","NA"
"-121.67","69.67","KEATS POINT","2202663","2018-03-30 06:00","2018","03","30","06:00","-20.0","","","","","M","","","22","","52","","","","98.92","","","","-36","","NA"
"-121.67","69.67","KEATS POINT","2202663","2018-03-30 07:00","2018","03","30","07:00","-20.3","","","","","M","","","21","","57","","","","98.91","","","","-37","","NA"
"-121.67","69.67","KEATS POINT","2202663","2018-03-30 08:00","2018","03","30","08:00","-20.0","","","","","M","","","21","","59","","","","98.89","","","","-36","","NA"
"-121.67","69.67","KEATS POINT","2202663","2018-03-30 09:00","2018","03","30","09:00","-19.1","","","","","M","","","22","","54","","","","98.90","","","","-35","","NA"
"-121.67","69.67","KEATS POINT","2202663","2018-03-30 10:00","2018","03","30","10:00","-18.6","","","","","M","","","22","","44","","","","98.87","","","","-33","","NA"
"-121.67","69.67","KEATS POINT","2202663","2018-03-30 11:00","2018","03","30","11:00","-18.1","","","","","M","","","22","","50","","","","98.87","","","","-33","","NA"
"-121.67","69.67","KEATS POINT","2202663","2018-03-30 12:00","2018","03","30","12:00","-17.3","","","","","M","","","22","","43","","","","98.85","","","","-31","","NA"
"-121.67","69.67","KEATS POINT","2202663","2018-03-30 13:00","2018","03","30","13:00","-16.4","","","","","M","","","22","","46","","","","98.82","","","","-30","","NA"
"-121.67","69.67","KEATS POINT","2202663","2018-03-30 14:00","2018","03","30","14:00","-16.0","","","","","M","","","22","","50","","","","98.80","","","","-30","","NA"
"-121.67","69.67","KEATS POINT","2202663","2018-03-30 15:00","2018","03","30","15:00","-15.8","","","","","M","","","22","","44","","","","98.79","","","","-29","","NA"
"-121.67","69.67","KEATS POINT","2202663","2018-03-30 16:00","2018","03","30","16:00","-15.3","","","","","M","","","23","","46","","","","98.79","","","","-29","","NA"
"-121.67","69.67","KEATS POINT","2202663","2018-03-30 17:00","2018","03","30","17:00","-15.6","","","","","M","","","22","","44","","","","98.79","","","","-29","","NA"
"-121.67","69.67","KEATS POINT","2202663","2018-03-30 18:00","2018","03","30","18:00","-15.9","","","","","M","","","23","","41","","","","98.78","","","","-29","","NA"
"-121.67","69.67","KEATS POINT","2202663","2018-03-30 19:00","2018","03","30","19:00","-17.0","","","","","M","","","23","","41","","","","98.75","","","","-30","","NA"
"-121.67","69.67","KEATS POINT","2202663","2018-03-30 20:00","2018","03","30","20:00","-18.0","","","","","M","","","23","","37","","","","98.77","","","","-31","","NA"
"-121.67","69.67","KEATS POINT","2202663","2018-03-30 21:00","2018","03","30","21:00","-19.0","","","","","M","","","24","","43","","","","98.78","","","","-33","","NA"
"-121.67","69.67","KEATS POINT","2202663","2018-03-30 22:00","2018","03","30","22:00","-18.9","","","","","M","","","24","","37","","","","98.76","","","","-32","","NA"
"-121.67","69.67","KEATS POINT","2202663","2018-03-30 23:00","2018","03","30","23:00","-17.6","","","","","M","","","24","","50","","","","98.72","","","","-32","","NA"
"-121.67","69.67","KEATS POINT","2202663","2018-03-31 00:00","2018","03","31","00:00","-18.7","","","","","M","","","24","","41","","","","98.76","","","","-33","","NA"
"-121.67","69.67","KEATS POINT","2202663","2018-03-31 01:00","2018","03","31","01:00","-18.4","","","","","M","","","24","","43","","","","98.75","","","","-32","","NA"
"-121.67","69.67","KEATS POINT","2202663","2018-03-31 02:00","2018","03","31","02:00","-18.8","","","","","M","","","25","","33","","","","98.77","","","","-32","","NA"
"-121.67","69.67","KEATS POINT","2202663","2018-03-31 03:00","2018","03","31","03:00","-17.3","","","","","M","","","24","","39","","","","98.76","","","","-30","","NA"
"-121.67","69.67","KEATS POINT","2202663","2018-03-31 04:00","2018","03","31","04:00","-18.1","","","","","M","","","23","","24","","","","98.79","","","","-29","","NA"
"-121.67","69.67","KEATS POINT","2202663","2018-03-31 05:00","2018","03","31","05:00","-17.5","","","","","M","","","23","","28","","","","98.80","","","","-29","","NA"
"-121.67","69.67","KEATS POINT","2202663","2018-03-31 06:00","2018","03","31","06:00","-16.2","","","","","M","","","24","","20","","","","98.84","","","","-26","","NA"
"-121.67","69.67","KEATS POINT","2202663","2018-03-31 07:00","2018","03","31","07:00","-15.8","","","","","M","","","26","","19","","","","98.87","","","","-25","","NA"
"-121.67","69.67","KEATS POINT","2202663","2018-03-31 08:00","2018","03","31","08:00","-14.8","","","","","M","","","25","","13","","","","98.86","","","","-22","","NA"
"-121.67","69.67","KEATS POINT","2202663","2018-03-31 09:00","2018","03","31","09:00","-13.3","","","","","M","","","25","","9","","","","98.82","","","","-19","","NA"
"-121.67","69.67","KEATS POINT","2202663","2018-03-31 10:00","2018","03","31","10:00","-12.9","","","","","M","","","29","","13","","","","98.80","","","","-20","","NA"
"-121.67","69.67","KEATS POINT","2202663","2018-03-31 11:00","2018","03","31","11:00","-12.8","","","","","M","","","29","","13","","","","98.78","","","","-20","","NA"
"-121.67","69.67","KEATS POINT","2202663","2018-03-31 12:00","2018","03","31","12:00","-12.4","","","","","M","","","29","","17","","","","98.77","","","","-20","","NA"
"-121.67","69.67","KEATS POINT","2202663","2018-03-31 13:00","2018","03","31","13:00","-11.9","","","","","M","","","30","","13","","","","98.77","","","","-19","","NA"
"-121.67","69.67","KEATS POINT","2202663","2018-03-31 14:00","2018","03","31","14:00","-12.2","","","","","M","","","29","","17","","","","98.76","","","","-20","","NA"
"-121.67","69.67","KEATS POINT","2202663","2018-03-31 15:00","2018","03","31","15:00","-11.7","","","","","M","","","29","","13","","","","98.73","","","","-18","","NA"
"-121.67","69.67","KEATS POINT","2202663","2018-03-31 16:00","2018","03","31","16:00","-12.7","","","","","M","","","28","","15","","","","98.71","","","","-20","","NA"
"-121.67","69.67","KEATS POINT","2202663","2018-03-31 17:00","2018","03","31","17:00","-12.8","","","","","M","","","32","","17","","","","98.67","","","","-21","","NA"
"-121.67","69.67","KEATS POINT","2202663","2018-03-31 18:00","2018","03","31","18:00","-14.1","","","","","M","","","28","","9","","","","98.66","","","","-20","","NA"
"-121.67","69.67","KEATS POINT","2202663","2018-03-31 19:00","2018","03","31","19:00","-13.4","","","","","M","","","24","","15","","","","98.59","","","","-21","","NA"
"-121.67","69.67","KEATS POINT","2202663","2018-03-31 20:00","2018","03","31","20:00","-13.6","","","","","M","","","31","","6","","","","98.56","","","","-18","","NA"
"-121.67","69.67","KEATS POINT","2202663","2018-03-31 21:00","2018","03","31","21:00","-15.9","","","","","M","","","","","0","","","","98.51","","","","","","NA"
"-121.67","69.67","KEATS POINT","2202663","2018-03-31 22:00","2018","03","31","22:00","-14.8","","","","","M","","","8","","11","","","","98.46","","","","-21","","NA"
"-121.67","69.67","KEATS POINT","2202663","2018-03-31 23:00","2018","03","31","23:00","-14.9","","","","","M","","","23","","4","","","","98.39","","","","-18","","NA"
