"Longitude (x)","Latitude (y)","Station Name","Climate ID","Date/Time (LST)","Year","Month","Day","Time (LST)","Temp (°C)","Temp Flag","Dew Point Temp (°C)","Dew Point Temp Flag","Rel Hum (%)","Rel Hum Flag","Precip. Amount (mm)","Precip. Amount Flag","Wind Dir (10s deg)","Wind Dir Flag","Wind Spd (km/h)","Wind Spd Flag","Visibility (km)","Visibility Flag","Stn Press (kPa)","Stn Press Flag","Hmdx","Hmdx Flag","Wind Chill","Wind Chill Flag","Weather"
"-108.52","54.13","MEADOW LAKE A","4065063","2019-03-01 00:00","2019","03","01","00:00","-18.7","","-20.6","","85","","","M","36","","8","","","M","96.35","","","","-25","","NA"
"-108.52","54.13","MEADOW LAKE A","4065063","2019-03-01 01:00","2019","03","01","01:00","-20.0","","-22.1","","84","","","M","36","","9","","","M","96.42","","","","-27","","NA"
"-108.52","54.13","MEADOW LAKE A","4065063","2019-03-01 02:00","2019","03","01","02:00","-19.7","","-22.0","","83","","","M","2","","18","","","M","96.52","","","","-30","","NA"
"-108.52","54.13","MEADOW LAKE A","4065063","2019-03-01 03:00","2019","03","01","03:00","-20.8","","-23.8","","77","","","M","1","","19","","","M","96.62","","","","-31","","NA"
"-108.52","54.13","MEADOW LAKE A","4065063","2019-03-01 04:00","2019","03","01","04:00","-21.8","","-24.8","","77","","","M","36","","22","","","M","96.72","","","","-33","","NA"
"-108.52","54.13","MEADOW LAKE A","4065063","2019-03-01 05:00","2019","03","01","05:00","-22.6","","-25.8","","76","","","M","35","","16","","","M","96.83","","","","-33","","NA"
"-108.52","54.13","MEADOW LAKE A","4065063","2019-03-01 06:00","2019","03","01","06:00","-23.3","","-26.5","","76","","","M","34","","18","","","M","96.95","","","","-34","","NA"
"-108.52","54.13","MEADOW LAKE A","4065063","2019-03-01 07:00","2019","03","01","07:00","-24.2","","-27.7","","73","","","M","33","","18","","","M","97.06","","","","-35","","NA"
"-108.52","54.13","MEADOW LAKE A","4065063","2019-03-01 08:00","2019","03","01","08:00","-26.0","","-29.2","","75","","","M","33","","15","","","M","97.17","","","","-36","","NA"
"-108.52","54.13","MEADOW LAKE A","4065063","2019-03-01 09:00","2019","03","01","09:00","-26.7","","-30.8","","69","","","M","35","","17","","","M","97.25","","","","-38","","NA"
"-108.52","54.13","MEADOW LAKE A","4065063","2019-03-01 10:00","2019","03","01","10:00","-26.0","","-30.4","","67","","","M","35","","17","","","M","97.36","","","","-37","","NA"
"-108.52","54.13","MEADOW LAKE A","4065063","2019-03-01 11:00","2019","03","01","11:00","-25.6","","-30.0","","68","","","M","34","","14","","","M","97.42","","","","-36","","NA"
"-108.52","54.13","MEADOW LAKE A","4065063","2019-03-01 12:00","2019","03","01","12:00","-23.6","","-28.7","","64","","","M","36","","14","","","M","97.49","","","","-33","","NA"
"-108.52","54.13","MEADOW LAKE A","4065063","2019-03-01 13:00","2019","03","01","13:00","-22.7","","-28.4","","61","","","M","36","","17","","","M","97.54","","","","-33","","NA"
"-108.52","54.13","MEADOW LAKE A","4065063","2019-03-01 14:00","2019","03","01","14:00","-22.4","","-28.4","","59","","","M","34","","17","","","M","97.56","","","","-33","","NA"
"-108.52","54.13","MEADOW LAKE A","4065063","2019-03-01 15:00","2019","03","01","15:00","-21.9","","-27.8","","60","","","M","33","","12","","","M","97.56","","","","-30","","NA"
"-108.52","54.13","MEADOW LAKE A","4065063","2019-03-01 16:00","2019","03","01","16:00","-21.6","","-28.0","","57","","","M","33","","21","","","M","97.58","","","","-33","","NA"
"-108.52","54.13","MEADOW LAKE A","4065063","2019-03-01 17:00","2019","03","01","17:00","-22.2","","-28.1","","60","","","M","34","","19","","","M","97.63","","","","-33","","NA"
"-108.52","54.13","MEADOW LAKE A","4065063","2019-03-01 18:00","2019","03","01","18:00","-24.1","","-29.9","","60","","","M","34","","14","","","M","97.69","","","","-34","","NA"
"-108.52","54.13","MEADOW LAKE A","4065063","2019-03-01 19:00","2019","03","01","19:00","-25.6","","-30.7","","63","","","M","33","","14","","","M","97.75","","","","-36","","NA"
"-108.52","54.13","MEADOW LAKE A","4065063","2019-03-01 20:00","2019","03","01","20:00","-26.3","","-30.9","","66","","","M","33","","11","","","M","97.82","","","","-35","","NA"
"-108.52","54.13","MEADOW LAKE A","4065063","2019-03-01 21:00","2019","03","01","21:00","-27.9","","-32.2","","68","","","M","30","","9","","","M","97.84","","","","-36","","NA"
"-108.52","54.13","MEADOW LAKE A","4065063","2019-03-01 22:00","2019","03","01","22:00","-27.6","","-31.0","","73","","","M","32","","10","","","M","97.85","","","","-36","","NA"
"-108.52","54.13","MEADOW LAKE A","4065063","2019-03-01 23:00","2019","03","01","23:00","-32.0","","-34.8","","77","","","M","31","","11","","","M","97.88","","","","-42","","NA"
"-108.52","54.13","MEADOW LAKE A","4065063","2019-03-02 00:00","2019","03","02","00:00","-30.6","","-33.4","","77","","","M","29","","13","","","M","97.90","","","","-41","","NA"
"-108.52","54.13","MEADOW LAKE A","4065063","2019-03-02 01:00","2019","03","02","01:00","-31.9","","-35.1","","74","","","M","27","","14","","","M","97.92","","","","-43","","NA"
"-108.52","54.13","MEADOW LAKE A","4065063","2019-03-02 02:00","2019","03","02","02:00","-34.2","","-37.0","","77","","","M","27","","14","","","M","97.92","","","","-46","","NA"
"-108.52","54.13","MEADOW LAKE A","4065063","2019-03-02 03:00","2019","03","02","03:00","-33.0","","-36.0","","75","","","M","25","","14","","","M","97.94","","","","-45","","NA"
"-108.52","54.13","MEADOW LAKE A","4065063","2019-03-02 04:00","2019","03","02","04:00","-33.4","","-36.4","","75","","","M","27","","16","","","M","97.93","","","","-46","","NA"
"-108.52","54.13","MEADOW LAKE A","4065063","2019-03-02 05:00","2019","03","02","05:00","-30.7","","-34.0","","73","","","M","27","","16","","","M","97.91","","","","-43","","NA"
"-108.52","54.13","MEADOW LAKE A","4065063","2019-03-02 06:00","2019","03","02","06:00","-31.5","","-34.7","","74","","","M","26","","12","","","M","97.94","","","","-42","","NA"
"-108.52","54.13","MEADOW LAKE A","4065063","2019-03-02 07:00","2019","03","02","07:00","-31.1","","-34.3","","74","","","M","27","","18","","","M","97.95","","","","-44","","NA"
"-108.52","54.13","MEADOW LAKE A","4065063","2019-03-02 08:00","2019","03","02","08:00","-30.2","","-33.5","","74","","","M","27","","20","","","M","97.92","","","","-43","","NA"
"-108.52","54.13","MEADOW LAKE A","4065063","2019-03-02 09:00","2019","03","02","09:00","-31.3","","-34.5","","74","","","M","25","","13","","","M","97.93","","","","-42","","NA"
"-108.52","54.13","MEADOW LAKE A","4065063","2019-03-02 10:00","2019","03","02","10:00","-27.5","","-30.8","","74","","","M","29","","16","","","M","97.93","","","","-39","","NA"
"-108.52","54.13","MEADOW LAKE A","4065063","2019-03-02 11:00","2019","03","02","11:00","-25.5","","-29.2","","72","","","M","29","","22","","","M","97.88","","","","-38","","NA"
"-108.52","54.13","MEADOW LAKE A","4065063","2019-03-02 12:00","2019","03","02","12:00","-24.1","","-29.3","","63","","","M","30","","18","","","M","97.86","","","","-35","","NA"
"-108.52","54.13","MEADOW LAKE A","4065063","2019-03-02 13:00","2019","03","02","13:00","-22.6","","-28.1","","62","","","M","29","","22","","","M","97.79","","","","-34","","NA"
"-108.52","54.13","MEADOW LAKE A","4065063","2019-03-02 14:00","2019","03","02","14:00","-21.1","","-27.1","","59","","","M","29","","17","","","M","97.74","","","","-31","","NA"
"-108.52","54.13","MEADOW LAKE A","4065063","2019-03-02 15:00","2019","03","02","15:00","-20.1","","-26.2","","59","","","M","27","","20","","","M","97.65","","","","-31","","NA"
"-108.52","54.13","MEADOW LAKE A","4065063","2019-03-02 16:00","2019","03","02","16:00","-18.0","","-25.4","","53","","","M","30","","20","","","M","97.61","","","","-28","","NA"
"-108.52","54.13","MEADOW LAKE A","4065063","2019-03-02 17:00","2019","03","02","17:00","-16.9","","-24.8","","51","","","M","31","","19","","","M","97.58","","","","-26","","NA"
"-108.52","54.13","MEADOW LAKE A","4065063","2019-03-02 18:00","2019","03","02","18:00","-17.0","","-23.6","","57","","","M","31","","22","","","M","97.56","","","","-27","","NA"
"-108.52","54.13","MEADOW LAKE A","4065063","2019-03-02 19:00","2019","03","02","19:00","-17.7","","-24.0","","58","","","M","33","","18","","","M","97.59","","","","-27","","NA"
"-108.52","54.13","MEADOW LAKE A","4065063","2019-03-02 20:00","2019","03","02","20:00","-17.7","","-25.4","","52","","","M","33","","26","","","M","97.61","","","","-29","","NA"
"-108.52","54.13","MEADOW LAKE A","4065063","2019-03-02 21:00","2019","03","02","21:00","-18.6","","-25.6","","55","","","M","33","","24","","","M","97.62","","","","-30","","NA"
"-108.52","54.13","MEADOW LAKE A","4065063","2019-03-02 22:00","2019","03","02","22:00","-20.6","","-26.6","","59","","","M","32","","20","","","M","97.65","","","","-31","","NA"
"-108.52","54.13","MEADOW LAKE A","4065063","2019-03-02 23:00","2019","03","02","23:00","-21.9","","-27.6","","60","","","M","32","","20","","","M","97.69","","","","-33","","NA"
"-108.52","54.13","MEADOW LAKE A","4065063","2019-03-03 00:00","2019","03","03","00:00","-23.1","","-28.6","","62","","","M","29","","17","","","M","97.65","","","","-34","","NA"
"-108.52","54.13","MEADOW LAKE A","4065063","2019-03-03 01:00","2019","03","03","01:00","-25.0","","-29.7","","65","","","M","28","","15","","","M","97.63","","","","-35","","NA"
"-108.52","54.13","MEADOW LAKE A","4065063","2019-03-03 02:00","2019","03","03","02:00","-25.6","","-29.9","","68","","","M","27","","14","","","M","97.62","","","","-36","","NA"
"-108.52","54.13","MEADOW LAKE A","4065063","2019-03-03 03:00","2019","03","03","03:00","-22.4","","-27.7","","63","","","M","30","","21","","","M","97.62","","","","-34","","NA"
"-108.52","54.13","MEADOW LAKE A","4065063","2019-03-03 04:00","2019","03","03","04:00","-22.3","","-27.1","","66","","","M","28","","21","","","M","97.59","","","","-34","","NA"
"-108.52","54.13","MEADOW LAKE A","4065063","2019-03-03 05:00","2019","03","03","05:00","-22.4","","-26.7","","69","","","M","28","","18","","","M","97.53","","","","-33","","NA"
"-108.52","54.13","MEADOW LAKE A","4065063","2019-03-03 06:00","2019","03","03","06:00","-22.0","","-26.4","","68","","","M","27","","23","","","M","97.50","","","","-34","","NA"
"-108.52","54.13","MEADOW LAKE A","4065063","2019-03-03 07:00","2019","03","03","07:00","-21.9","","-25.9","","70","","","M","27","","20","","","M","97.48","","","","-33","","NA"
"-108.52","54.13","MEADOW LAKE A","4065063","2019-03-03 08:00","2019","03","03","08:00","-20.8","","-25.5","","67","","","M","27","","22","","","M","97.46","","","","-32","","NA"
"-108.52","54.13","MEADOW LAKE A","4065063","2019-03-03 09:00","2019","03","03","09:00","-19.9","","-25.3","","63","","","M","28","","22","","","M","97.41","","","","-31","","NA"
"-108.52","54.13","MEADOW LAKE A","4065063","2019-03-03 10:00","2019","03","03","10:00","-19.5","","-25.3","","61","","","M","28","","23","","","M","97.38","","","","-31","","NA"
"-108.52","54.13","MEADOW LAKE A","4065063","2019-03-03 11:00","2019","03","03","11:00","-18.4","","-24.4","","60","","","M","28","","21","","","M","97.37","","","","-29","","NA"
"-108.52","54.13","MEADOW LAKE A","4065063","2019-03-03 12:00","2019","03","03","12:00","-16.4","","-23.3","","56","","","M","29","","22","","","M","97.32","","","","-26","","NA"
"-108.52","54.13","MEADOW LAKE A","4065063","2019-03-03 13:00","2019","03","03","13:00","-14.2","","-21.6","","54","","","M","29","","19","","","M","97.27","","","","-23","","NA"
"-108.52","54.13","MEADOW LAKE A","4065063","2019-03-03 14:00","2019","03","03","14:00","-12.7","","-20.4","","53","","","M","29","","27","","","M","97.18","","","","-23","","NA"
"-108.52","54.13","MEADOW LAKE A","4065063","2019-03-03 15:00","2019","03","03","15:00","-11.9","","-20.1","","51","","","M","30","","25","","","M","97.16","","","","-21","","NA"
"-108.52","54.13","MEADOW LAKE A","4065063","2019-03-03 16:00","2019","03","03","16:00","-11.5","","-18.6","","56","","","M","31","","23","","","M","97.13","","","","-20","","NA"
"-108.52","54.13","MEADOW LAKE A","4065063","2019-03-03 17:00","2019","03","03","17:00","-11.4","","-18.7","","55","","","M","31","","22","","","M","97.12","","","","-20","","NA"
"-108.52","54.13","MEADOW LAKE A","4065063","2019-03-03 18:00","2019","03","03","18:00","-12.5","","-19.6","","56","","","M","32","","22","","","M","97.11","","","","-21","","NA"
"-108.52","54.13","MEADOW LAKE A","4065063","2019-03-03 19:00","2019","03","03","19:00","-12.5","","-20.2","","53","","","M","31","","19","","","M","97.10","","","","-21","","NA"
"-108.52","54.13","MEADOW LAKE A","4065063","2019-03-03 20:00","2019","03","03","20:00","-13.0","","-20.6","","54","","","M","30","","20","","","M","97.10","","","","-22","","NA"
"-108.52","54.13","MEADOW LAKE A","4065063","2019-03-03 21:00","2019","03","03","21:00","-15.4","","-21.2","","61","","","M","30","","20","","","M","97.10","","","","-25","","NA"
"-108.52","54.13","MEADOW LAKE A","4065063","2019-03-03 22:00","2019","03","03","22:00","-19.2","","-23.6","","68","","","M","26","","15","","","M","97.11","","","","-28","","NA"
"-108.52","54.13","MEADOW LAKE A","4065063","2019-03-03 23:00","2019","03","03","23:00","-20.3","","-24.7","","68","","","M","26","","16","","","M","97.06","","","","-30","","NA"
"-108.52","54.13","MEADOW LAKE A","4065063","2019-03-04 00:00","2019","03","04","00:00","-16.7","","-21.8","","65","","","M","27","","18","","","M","97.00","","","","-26","","NA"
"-108.52","54.13","MEADOW LAKE A","4065063","2019-03-04 01:00","2019","03","04","01:00","-14.9","","-21.2","","59","","","M","27","","24","","","M","96.93","","","","-25","","NA"
"-108.52","54.13","MEADOW LAKE A","4065063","2019-03-04 02:00","2019","03","04","02:00","-16.2","","-22.1","","61","","","M","27","","17","","","M","96.94","","","","-25","","NA"
"-108.52","54.13","MEADOW LAKE A","4065063","2019-03-04 03:00","2019","03","04","03:00","-14.5","","-20.6","","61","","","M","27","","21","","","M","96.89","","","","-24","","NA"
"-108.52","54.13","MEADOW LAKE A","4065063","2019-03-04 04:00","2019","03","04","04:00","-15.1","","-21.2","","60","","","M","27","","29","","","M","96.81","","","","-26","","NA"
"-108.52","54.13","MEADOW LAKE A","4065063","2019-03-04 05:00","2019","03","04","05:00","-15.8","","-21.6","","62","","","M","28","","28","","","M","96.79","","","","-27","","NA"
"-108.52","54.13","MEADOW LAKE A","4065063","2019-03-04 06:00","2019","03","04","06:00","-16.3","","-21.7","","64","","","M","27","","27","","","M","96.75","","","","-27","","NA"
"-108.52","54.13","MEADOW LAKE A","4065063","2019-03-04 07:00","2019","03","04","07:00","-15.7","","-21.5","","61","","","M","28","","28","","","M","96.72","","","","-27","","NA"
"-108.52","54.13","MEADOW LAKE A","4065063","2019-03-04 08:00","2019","03","04","08:00","-14.8","","-20.6","","62","","","M","28","","30","","","M","96.68","","","","-26","","NA"
"-108.52","54.13","MEADOW LAKE A","4065063","2019-03-04 09:00","2019","03","04","09:00","-14.7","","-20.3","","63","","","M","29","","35","","","M","96.64","","","","-26","","NA"
"-108.52","54.13","MEADOW LAKE A","4065063","2019-03-04 10:00","2019","03","04","10:00","-14.4","","-19.9","","63","","","M","29","","31","","","M","96.63","","","","-25","","NA"
"-108.52","54.13","MEADOW LAKE A","4065063","2019-03-04 11:00","2019","03","04","11:00","-13.8","","-19.5","","62","","","M","29","","33","","","M","96.61","","","","-25","","NA"
"-108.52","54.13","MEADOW LAKE A","4065063","2019-03-04 12:00","2019","03","04","12:00","-12.2","","-18.4","","60","","","M","29","","30","","","M","96.57","","","","-22","","NA"
"-108.52","54.13","MEADOW LAKE A","4065063","2019-03-04 13:00","2019","03","04","13:00","-9.6","","-17.3","","54","","","M","30","","24","","","M","96.57","","","","-18","","NA"
"-108.52","54.13","MEADOW LAKE A","4065063","2019-03-04 14:00","2019","03","04","14:00","-8.1","","-16.3","","52","","","M","29","","21","","","M","96.54","","","","-16","","NA"
"-108.52","54.13","MEADOW LAKE A","4065063","2019-03-04 15:00","2019","03","04","15:00","-6.2","","-15.7","","48","","","M","31","","26","","","M","96.53","","","","-14","","NA"
"-108.52","54.13","MEADOW LAKE A","4065063","2019-03-04 16:00","2019","03","04","16:00","-6.1","","-15.6","","47","","","M","31","","25","","","M","96.54","","","","-14","","NA"
"-108.52","54.13","MEADOW LAKE A","4065063","2019-03-04 17:00","2019","03","04","17:00","-5.5","","-14.6","","49","","","M","31","","22","","","M","96.55","","","","-13","","NA"
"-108.52","54.13","MEADOW LAKE A","4065063","2019-03-04 18:00","2019","03","04","18:00","-6.0","","-13.6","","55","","","M","31","","25","","","M","96.56","","","","-14","","NA"
"-108.52","54.13","MEADOW LAKE A","4065063","2019-03-04 19:00","2019","03","04","19:00","-5.9","","-13.1","","57","","","M","31","","26","","","M","96.56","","","","-14","","NA"
"-108.52","54.13","MEADOW LAKE A","4065063","2019-03-04 20:00","2019","03","04","20:00","-5.6","","-13.4","","55","","","M","31","","23","","","M","96.61","","","","-13","","NA"
"-108.52","54.13","MEADOW LAKE A","4065063","2019-03-04 21:00","2019","03","04","21:00","-5.2","","-14.3","","49","","","M","30","","26","","","M","96.62","","","","-13","","NA"
"-108.52","54.13","MEADOW LAKE A","4065063","2019-03-04 22:00","2019","03","04","22:00","-5.3","","-14.2","","50","","","M","31","","23","","","M","96.65","","","","-12","","NA"
"-108.52","54.13","MEADOW LAKE A","4065063","2019-03-04 23:00","2019","03","04","23:00","-5.6","","-14.0","","52","","","M","31","","18","","","M","96.64","","","","-12","","NA"
"-108.52","54.13","MEADOW LAKE A","4065063","2019-03-05 00:00","2019","03","05","00:00","-6.7","","-13.6","","58","","","M","29","","19","","","M","96.62","","","","-14","","NA"
"-108.52","54.13","MEADOW LAKE A","4065063","2019-03-05 01:00","2019","03","05","01:00","-8.6","","-15.2","","59","","","M","28","","17","","","M","96.64","","","","-15","","NA"
"-108.52","54.13","MEADOW LAKE A","4065063","2019-03-05 02:00","2019","03","05","02:00","-8.4","","-15.1","","58","","","M","27","","17","","","M","96.64","","","","-15","","NA"
"-108.52","54.13","MEADOW LAKE A","4065063","2019-03-05 03:00","2019","03","05","03:00","-8.7","","-15.2","","60","","","M","27","","21","","","M","96.63","","","","-16","","NA"
"-108.52","54.13","MEADOW LAKE A","4065063","2019-03-05 04:00","2019","03","05","04:00","-9.7","","-15.6","","62","","","M","27","","16","","","M","96.62","","","","-17","","NA"
"-108.52","54.13","MEADOW LAKE A","4065063","2019-03-05 05:00","2019","03","05","05:00","-9.0","","-15.7","","59","","","M","31","","24","","","M","96.67","","","","-17","","NA"
"-108.52","54.13","MEADOW LAKE A","4065063","2019-03-05 06:00","2019","03","05","06:00","-13.1","","-18.9","","63","","","M","31","","14","","","M","96.67","","","","-20","","NA"
"-108.52","54.13","MEADOW LAKE A","4065063","2019-03-05 07:00","2019","03","05","07:00","-15.7","","-20.2","","68","","","M","28","","14","","","M","96.67","","","","-23","","NA"
"-108.52","54.13","MEADOW LAKE A","4065063","2019-03-05 08:00","2019","03","05","08:00","-15.2","","-19.7","","69","","","M","27","","10","","","M","96.68","","","","-21","","NA"
"-108.52","54.13","MEADOW LAKE A","4065063","2019-03-05 09:00","2019","03","05","09:00","-18.6","","-22.4","","72","","","M","26","","16","","","M","96.68","","","","-28","","NA"
"-108.52","54.13","MEADOW LAKE A","4065063","2019-03-05 10:00","2019","03","05","10:00","-14.0","","-18.8","","67","","","M","30","","19","","","M","96.69","","","","-23","","NA"
"-108.52","54.13","MEADOW LAKE A","4065063","2019-03-05 11:00","2019","03","05","11:00","-13.7","","-18.4","","68","","","M","34","","18","","","M","96.75","","","","-22","","NA"
"-108.52","54.13","MEADOW LAKE A","4065063","2019-03-05 12:00","2019","03","05","12:00","-13.2","","-18.4","","65","","","M","33","","20","","","M","96.75","","","","-22","","NA"
"-108.52","54.13","MEADOW LAKE A","4065063","2019-03-05 13:00","2019","03","05","13:00","-12.2","","-17.8","","64","","","M","33","","18","","","M","96.77","","","","-20","","NA"
"-108.52","54.13","MEADOW LAKE A","4065063","2019-03-05 14:00","2019","03","05","14:00","-11.6","","-17.0","","64","","","M","34","","14","","","M","96.76","","","","-18","","NA"
"-108.52","54.13","MEADOW LAKE A","4065063","2019-03-05 15:00","2019","03","05","15:00","-10.4","","-15.9","","64","","","M","32","","15","","","M","96.72","","","","-17","","NA"
"-108.52","54.13","MEADOW LAKE A","4065063","2019-03-05 16:00","2019","03","05","16:00","-9.6","","-15.6","","62","","","M","32","","15","","","M","96.71","","","","-16","","NA"
"-108.52","54.13","MEADOW LAKE A","4065063","2019-03-05 17:00","2019","03","05","17:00","-9.6","","-16.1","","60","","","M","32","","9","","","M","96.71","","","","-14","","NA"
"-108.52","54.13","MEADOW LAKE A","4065063","2019-03-05 18:00","2019","03","05","18:00","-10.2","","-16.8","","59","","","M","35","","15","","","M","96.72","","","","-17","","NA"
"-108.52","54.13","MEADOW LAKE A","4065063","2019-03-05 19:00","2019","03","05","19:00","-12.5","","-18.1","","64","","","M","36","","17","","","M","96.75","","","","-20","","NA"
"-108.52","54.13","MEADOW LAKE A","4065063","2019-03-05 20:00","2019","03","05","20:00","-13.6","","-19.7","","61","","","M","5","","20","","","M","96.83","","","","-22","","NA"
"-108.52","54.13","MEADOW LAKE A","4065063","2019-03-05 21:00","2019","03","05","21:00","-15.2","","-20.6","","64","","","M","4","","18","","","M","96.90","","","","-24","","NA"
"-108.52","54.13","MEADOW LAKE A","4065063","2019-03-05 22:00","2019","03","05","22:00","-16.7","","-21.2","","69","","","M","3","","14","","","M","96.98","","","","-25","","NA"
"-108.52","54.13","MEADOW LAKE A","4065063","2019-03-05 23:00","2019","03","05","23:00","-18.6","","-22.2","","74","","","M","4","","14","","","M","97.05","","","","-27","","NA"
"-108.52","54.13","MEADOW LAKE A","4065063","2019-03-06 00:00","2019","03","06","00:00","-16.8","","-20.4","","75","","","M","4","","15","","","M","97.09","","","","-25","","NA"
"-108.52","54.13","MEADOW LAKE A","4065063","2019-03-06 01:00","2019","03","06","01:00","-16.2","","-19.7","","75","","","M","6","","4","","","M","97.09","","","","-19","","NA"
"-108.52","54.13","MEADOW LAKE A","4065063","2019-03-06 02:00","2019","03","06","02:00","-16.6","","-19.3","","79","","","M","27","","5","","","M","97.13","","","","-20","","NA"
"-108.52","54.13","MEADOW LAKE A","4065063","2019-03-06 03:00","2019","03","06","03:00","-16.3","","-19.2","","78","","","M","21","","3","","","M","97.16","","","","-19","","NA"
"-108.52","54.13","MEADOW LAKE A","4065063","2019-03-06 04:00","2019","03","06","04:00","-15.8","","-19.1","","76","","","M","1","","4","","","M","97.17","","","","-19","","NA"
"-108.52","54.13","MEADOW LAKE A","4065063","2019-03-06 05:00","2019","03","06","05:00","-15.6","","-19.2","","75","","","M","34","","3","","","M","97.16","","","","-18","","NA"
"-108.52","54.13","MEADOW LAKE A","4065063","2019-03-06 06:00","2019","03","06","06:00","-16.1","","-19.3","","77","","","M","20","","3","","","M","97.15","","","","-18","","NA"
"-108.52","54.13","MEADOW LAKE A","4065063","2019-03-06 07:00","2019","03","06","07:00","-16.7","","-19.5","","79","","","M","29","","3","","","M","97.12","","","","-19","","NA"
"-108.52","54.13","MEADOW LAKE A","4065063","2019-03-06 08:00","2019","03","06","08:00","-17.4","","-20.1","","80","","","M","29","","3","","","M","97.11","","","","-20","","NA"
"-108.52","54.13","MEADOW LAKE A","4065063","2019-03-06 09:00","2019","03","06","09:00","-17.5","","-20.5","","78","","","M","31","","5","","","M","97.14","","","","-21","","NA"
"-108.52","54.13","MEADOW LAKE A","4065063","2019-03-06 10:00","2019","03","06","10:00","-17.8","","-20.8","","78","","","M","27","","4","","","M","97.16","","","","-21","","NA"
"-108.52","54.13","MEADOW LAKE A","4065063","2019-03-06 11:00","2019","03","06","11:00","-15.7","","-19.6","","72","","","M","34","","3","","","M","97.17","","","","-18","","NA"
"-108.52","54.13","MEADOW LAKE A","4065063","2019-03-06 12:00","2019","03","06","12:00","-13.1","","-18.1","","67","","","M","2","","7","","","M","97.14","","","","-18","","NA"
"-108.52","54.13","MEADOW LAKE A","4065063","2019-03-06 13:00","2019","03","06","13:00","-12.1","","-17.7","","64","","","M","3","","8","","","M","97.09","","","","-17","","NA"
"-108.52","54.13","MEADOW LAKE A","4065063","2019-03-06 14:00","2019","03","06","14:00","-12.2","","-18.0","","63","","","M","6","","7","","","M","97.02","","","","-17","","NA"
"-108.52","54.13","MEADOW LAKE A","4065063","2019-03-06 15:00","2019","03","06","15:00","-11.2","","-17.9","","58","","","M","4","","2","","","M","96.97","","","","-12","","NA"
"-108.52","54.13","MEADOW LAKE A","4065063","2019-03-06 16:00","2019","03","06","16:00","-11.7","","-17.6","","62","","","M","30","","1","","","M","96.90","","","","-12","","NA"
"-108.52","54.13","MEADOW LAKE A","4065063","2019-03-06 17:00","2019","03","06","17:00","-12.6","","-17.4","","68","","","M","28","","9","","","M","96.84","","","","-18","","NA"
"-108.52","54.13","MEADOW LAKE A","4065063","2019-03-06 18:00","2019","03","06","18:00","-14.2","","-18.8","","68","","","M","27","","13","","","M","96.73","","","","-21","","NA"
"-108.52","54.13","MEADOW LAKE A","4065063","2019-03-06 19:00","2019","03","06","19:00","-16.6","","-20.1","","75","","","M","27","","8","","","M","96.70","","","","-22","","NA"
"-108.52","54.13","MEADOW LAKE A","4065063","2019-03-06 20:00","2019","03","06","20:00","-17.5","","-20.5","","78","","","M","21","","3","","","M","96.64","","","","-20","","NA"
"-108.52","54.13","MEADOW LAKE A","4065063","2019-03-06 21:00","2019","03","06","21:00","-18.0","","-20.1","","83","","","M","18","","8","","","M","96.61","","","","-24","","NA"
"-108.52","54.13","MEADOW LAKE A","4065063","2019-03-06 22:00","2019","03","06","22:00","-20.9","","-24.1","","75","","","M","17","","7","","","M","96.56","","","","-27","","NA"
"-108.52","54.13","MEADOW LAKE A","4065063","2019-03-06 23:00","2019","03","06","23:00","-23.4","","-25.9","","80","","","M","13","","6","","","M","96.50","","","","-29","","NA"
"-108.52","54.13","MEADOW LAKE A","4065063","2019-03-07 00:00","2019","03","07","00:00","-23.7","","-25.8","","83","","","M","20","","2","","","M","96.46","","","","-26","","NA"
"-108.52","54.13","MEADOW LAKE A","4065063","2019-03-07 01:00","2019","03","07","01:00","-24.1","","-26.2","","83","","","M","33","","1","","","M","96.39","","","","-25","","NA"
"-108.52","54.13","MEADOW LAKE A","4065063","2019-03-07 02:00","2019","03","07","02:00","-25.2","","-27.6","","81","","","M","8","","2","","","M","96.30","","","","-27","","NA"
"-108.52","54.13","MEADOW LAKE A","4065063","2019-03-07 03:00","2019","03","07","03:00","-27.7","","-30.5","","78","","","M","12","","2","","","M","96.23","","","","-30","","NA"
"-108.52","54.13","MEADOW LAKE A","4065063","2019-03-07 04:00","2019","03","07","04:00","-27.6","","-30.4","","78","","","M","18","","2","","","M","96.16","","","","-30","","NA"
"-108.52","54.13","MEADOW LAKE A","4065063","2019-03-07 05:00","2019","03","07","05:00","-27.6","","-30.4","","78","","","M","15","","4","","","M","96.03","","","","-32","","NA"
"-108.52","54.13","MEADOW LAKE A","4065063","2019-03-07 06:00","2019","03","07","06:00","-30.1","","-33.1","","75","","","M","36","","5","","","M","95.99","","","","-36","","NA"
"-108.52","54.13","MEADOW LAKE A","4065063","2019-03-07 07:00","2019","03","07","07:00","-30.4","","-33.5","","75","","","M","18","","3","","","M","95.90","","","","-34","","NA"
"-108.52","54.13","MEADOW LAKE A","4065063","2019-03-07 08:00","2019","03","07","08:00","-31.6","","-34.8","","74","","","M","8","","5","","","M","95.81","","","","-37","","NA"
"-108.52","54.13","MEADOW LAKE A","4065063","2019-03-07 09:00","2019","03","07","09:00","-30.1","","-33.2","","75","","","M","1","","4","","","M","95.75","","","","-35","","NA"
"-108.52","54.13","MEADOW LAKE A","4065063","2019-03-07 10:00","2019","03","07","10:00","-26.2","","-29.0","","77","","","M","7","","7","","","M","95.70","","","","-33","","NA"
"-108.52","54.13","MEADOW LAKE A","4065063","2019-03-07 11:00","2019","03","07","11:00","-20.6","","-23.1","","81","","","M","25","","1","","","M","95.63","","","","-21","","NA"
"-108.52","54.13","MEADOW LAKE A","4065063","2019-03-07 12:00","2019","03","07","12:00","-18.6","","-20.9","","83","","","M","33","","8","","","M","95.59","","","","-25","","NA"
"-108.52","54.13","MEADOW LAKE A","4065063","2019-03-07 13:00","2019","03","07","13:00","-16.3","","-18.5","","83","","","M","34","","7","","","M","95.53","","","","-21","","NA"
"-108.52","54.13","MEADOW LAKE A","4065063","2019-03-07 14:00","2019","03","07","14:00","-13.3","","-18.4","","66","","","M","32","","9","","","M","95.45","","","","-19","","NA"
"-108.52","54.13","MEADOW LAKE A","4065063","2019-03-07 15:00","2019","03","07","15:00","-10.6","","-17.9","","55","","","M","1","","11","","","M","95.33","","","","-16","","NA"
"-108.52","54.13","MEADOW LAKE A","4065063","2019-03-07 16:00","2019","03","07","16:00","-9.8","","-15.5","","63","","","M","34","","11","","","M","95.28","","","","-15","","NA"
"-108.52","54.13","MEADOW LAKE A","4065063","2019-03-07 17:00","2019","03","07","17:00","-9.2","","-13.7","","70","","","M","31","","7","","","M","95.23","","","","-13","","NA"
"-108.52","54.13","MEADOW LAKE A","4065063","2019-03-07 18:00","2019","03","07","18:00","-9.3","","-14.5","","66","","","M","30","","8","","","M","95.19","","","","-14","","NA"
"-108.52","54.13","MEADOW LAKE A","4065063","2019-03-07 19:00","2019","03","07","19:00","-9.7","","-14.5","","68","","","M","32","","10","","","M","95.14","","","","-15","","NA"
"-108.52","54.13","MEADOW LAKE A","4065063","2019-03-07 20:00","2019","03","07","20:00","-9.5","","-15.3","","63","","","M","16","","7","","","M","95.16","","","","-13","","NA"
"-108.52","54.13","MEADOW LAKE A","4065063","2019-03-07 21:00","2019","03","07","21:00","-9.7","","-15.2","","65","","","M","27","","7","","","M","95.17","","","","-14","","NA"
"-108.52","54.13","MEADOW LAKE A","4065063","2019-03-07 22:00","2019","03","07","22:00","-10.4","","-14.9","","70","","","M","25","","7","","","M","95.14","","","","-14","","NA"
"-108.52","54.13","MEADOW LAKE A","4065063","2019-03-07 23:00","2019","03","07","23:00","-11.3","","-16.2","","67","","","M","27","","6","","","M","95.14","","","","-15","","NA"
"-108.52","54.13","MEADOW LAKE A","4065063","2019-03-08 00:00","2019","03","08","00:00","-12.2","","-15.9","","74","","","M","28","","8","","","M","95.12","","","","-17","","NA"
"-108.52","54.13","MEADOW LAKE A","4065063","2019-03-08 01:00","2019","03","08","01:00","-12.5","","-15.2","","80","","","M","7","","7","","","M","95.09","","","","-17","","NA"
"-108.52","54.13","MEADOW LAKE A","4065063","2019-03-08 02:00","2019","03","08","02:00","-11.8","","-15.3","","75","","","M","10","","3","","","M","95.04","","","","-14","","NA"
"-108.52","54.13","MEADOW LAKE A","4065063","2019-03-08 03:00","2019","03","08","03:00","-11.7","","-15.0","","76","","","M","6","","3","","","M","94.97","","","","-14","","NA"
"-108.52","54.13","MEADOW LAKE A","4065063","2019-03-08 04:00","2019","03","08","04:00","-11.5","","-14.7","","77","","","M","30","","3","","","M","94.95","","","","-13","","NA"
"-108.52","54.13","MEADOW LAKE A","4065063","2019-03-08 05:00","2019","03","08","05:00","-11.3","","-15.1","","74","","","M","25","","9","","","M","94.93","","","","-16","","NA"
"-108.52","54.13","MEADOW LAKE A","4065063","2019-03-08 06:00","2019","03","08","06:00","-11.6","","-15.2","","75","","","M","26","","9","","","M","94.88","","","","-17","","NA"
"-108.52","54.13","MEADOW LAKE A","4065063","2019-03-08 07:00","2019","03","08","07:00","-11.8","","-15.1","","77","","","M","27","","4","","","M","94.84","","","","-14","","NA"
"-108.52","54.13","MEADOW LAKE A","4065063","2019-03-08 08:00","2019","03","08","08:00","-12.5","","-15.3","","80","","","M","24","","3","","","M","94.80","","","","-14","","NA"
"-108.52","54.13","MEADOW LAKE A","4065063","2019-03-08 09:00","2019","03","08","09:00","-13.2","","-15.6","","82","","","M","14","","3","","","M","94.80","","","","-15","","NA"
"-108.52","54.13","MEADOW LAKE A","4065063","2019-03-08 10:00","2019","03","08","10:00","-12.4","","-15.3","","79","","","M","0","","1","","","M","94.80","","","","-13","","NA"
"-108.52","54.13","MEADOW LAKE A","4065063","2019-03-08 11:00","2019","03","08","11:00","-11.3","","-15.3","","73","","","M","8","","3","","","M","94.71","","","","-13","","NA"
"-108.52","54.13","MEADOW LAKE A","4065063","2019-03-08 12:00","2019","03","08","12:00","-10.7","","-15.0","","71","","","M","35","","5","","","M","94.68","","","","-14","","NA"
"-108.52","54.13","MEADOW LAKE A","4065063","2019-03-08 13:00","2019","03","08","13:00","-10.5","","-14.7","","72","","","M","23","","8","","","M","94.68","","","","-15","","NA"
"-108.52","54.13","MEADOW LAKE A","4065063","2019-03-08 14:00","2019","03","08","14:00","-10.4","","-13.6","","77","","","M","24","","9","","","M","94.67","","","","-15","","NA"
"-108.52","54.13","MEADOW LAKE A","4065063","2019-03-08 15:00","2019","03","08","15:00","-10.3","","-12.8","","82","","","M","25","","14","","","M","94.67","","","","-17","","NA"
"-108.52","54.13","MEADOW LAKE A","4065063","2019-03-08 16:00","2019","03","08","16:00","-10.3","","-12.7","","83","","","M","25","","13","","","M","94.66","","","","-17","","NA"
"-108.52","54.13","MEADOW LAKE A","4065063","2019-03-08 17:00","2019","03","08","17:00","-10.0","","-12.0","","85","","","M","25","","10","","","M","94.68","","","","-15","","NA"
"-108.52","54.13","MEADOW LAKE A","4065063","2019-03-08 18:00","2019","03","08","18:00","-9.9","","-11.9","","86","","","M","25","","10","","","M","94.69","","","","-15","","NA"
"-108.52","54.13","MEADOW LAKE A","4065063","2019-03-08 19:00","2019","03","08","19:00","-9.8","","-11.5","","88","","","M","25","","11","","","M","94.70","","","","-15","","NA"
"-108.52","54.13","MEADOW LAKE A","4065063","2019-03-08 20:00","2019","03","08","20:00","-9.7","","-11.2","","89","","","M","27","","12","","","M","94.77","","","","-16","","NA"
"-108.52","54.13","MEADOW LAKE A","4065063","2019-03-08 21:00","2019","03","08","21:00","-9.9","","-11.5","","89","","","M","25","","11","","","M","94.79","","","","-15","","NA"
"-108.52","54.13","MEADOW LAKE A","4065063","2019-03-08 22:00","2019","03","08","22:00","-9.6","","-11.3","","88","","","M","28","","17","","","M","94.80","","","","-17","","NA"
"-108.52","54.13","MEADOW LAKE A","4065063","2019-03-08 23:00","2019","03","08","23:00","-9.9","","-11.8","","86","","","M","30","","13","","","M","94.82","","","","-16","","NA"
"-108.52","54.13","MEADOW LAKE A","4065063","2019-03-09 00:00","2019","03","09","00:00","-12.0","","-14.2","","84","","","M","27","","16","","","M","94.84","","","","-19","","NA"
"-108.52","54.13","MEADOW LAKE A","4065063","2019-03-09 01:00","2019","03","09","01:00","-11.5","","-13.2","","87","","","M","27","","17","","","M","94.89","","","","-19","","NA"
"-108.52","54.13","MEADOW LAKE A","4065063","2019-03-09 02:00","2019","03","09","02:00","-13.8","","-15.6","","87","","","M","28","","16","","","M","94.93","","","","-22","","NA"
"-108.52","54.13","MEADOW LAKE A","4065063","2019-03-09 03:00","2019","03","09","03:00","-8.2","","-12.8","","69","","","M","30","","18","","","M","94.99","","","","-15","","NA"
"-108.52","54.13","MEADOW LAKE A","4065063","2019-03-09 04:00","2019","03","09","04:00","-9.0","","-14.3","","66","","","M","30","","19","","","M","95.04","","","","-16","","NA"
"-108.52","54.13","MEADOW LAKE A","4065063","2019-03-09 05:00","2019","03","09","05:00","-11.3","","-15.8","","70","","","M","30","","17","","","M","95.10","","","","-19","","NA"
"-108.52","54.13","MEADOW LAKE A","4065063","2019-03-09 06:00","2019","03","09","06:00","-15.9","","-19.6","","73","","","M","29","","16","","","M","95.18","","","","-24","","NA"
"-108.52","54.13","MEADOW LAKE A","4065063","2019-03-09 07:00","2019","03","09","07:00","-17.3","","-20.8","","75","","","M","30","","15","","","M","95.27","","","","-26","","NA"
"-108.52","54.13","MEADOW LAKE A","4065063","2019-03-09 08:00","2019","03","09","08:00","-19.9","","-21.8","","85","","","M","26","","12","","","M","95.33","","","","-28","","NA"
"-108.52","54.13","MEADOW LAKE A","4065063","2019-03-09 09:00","2019","03","09","09:00","-15.9","","-18.2","","83","","","M","26","","10","","","M","95.42","","","","-22","","NA"
"-108.52","54.13","MEADOW LAKE A","4065063","2019-03-09 10:00","2019","03","09","10:00","-13.8","","-17.1","","77","","","M","29","","17","","","M","95.49","","","","-22","","NA"
"-108.52","54.13","MEADOW LAKE A","4065063","2019-03-09 11:00","2019","03","09","11:00","-11.0","","-15.1","","72","","","M","30","","16","","","M","95.53","","","","-18","","NA"
"-108.52","54.13","MEADOW LAKE A","4065063","2019-03-09 12:00","2019","03","09","12:00","-9.5","","-14.1","","69","","","M","32","","14","","","M","95.53","","","","-16","","NA"
"-108.52","54.13","MEADOW LAKE A","4065063","2019-03-09 13:00","2019","03","09","13:00","-7.9","","-12.7","","69","","","M","31","","18","","","M","95.56","","","","-15","","NA"
"-108.52","54.13","MEADOW LAKE A","4065063","2019-03-09 14:00","2019","03","09","14:00","-7.7","","-12.4","","69","","","M","32","","16","","","M","95.58","","","","-14","","NA"
"-108.52","54.13","MEADOW LAKE A","4065063","2019-03-09 15:00","2019","03","09","15:00","-7.4","","-12.4","","67","","","M","30","","9","","","M","95.57","","","","-12","","NA"
"-108.52","54.13","MEADOW LAKE A","4065063","2019-03-09 16:00","2019","03","09","16:00","-7.3","","-12.4","","67","","","M","24","","9","","","M","95.61","","","","-12","","NA"
"-108.52","54.13","MEADOW LAKE A","4065063","2019-03-09 17:00","2019","03","09","17:00","-8.3","","-12.6","","71","","","M","24","","17","","","M","95.65","","","","-15","","NA"
"-108.52","54.13","MEADOW LAKE A","4065063","2019-03-09 18:00","2019","03","09","18:00","-8.9","","-12.9","","73","","","M","23","","15","","","M","95.69","","","","-15","","NA"
"-108.52","54.13","MEADOW LAKE A","4065063","2019-03-09 19:00","2019","03","09","19:00","-10.4","","-14.2","","74","","","M","24","","13","","","M","95.71","","","","-17","","NA"
"-108.52","54.13","MEADOW LAKE A","4065063","2019-03-09 20:00","2019","03","09","20:00","-13.7","","-17.5","","73","","","M","32","","11","","","M","95.75","","","","-20","","NA"
"-108.52","54.13","MEADOW LAKE A","4065063","2019-03-09 21:00","2019","03","09","21:00","-11.9","","-15.5","","75","","","M","36","","8","","","M","95.81","","","","-17","","NA"
"-108.52","54.13","MEADOW LAKE A","4065063","2019-03-09 22:00","2019","03","09","22:00","-15.7","","-18.0","","83","","","M","35","","5","","","M","95.84","","","","-19","","NA"
"-108.52","54.13","MEADOW LAKE A","4065063","2019-03-09 23:00","2019","03","09","23:00","-18.3","","-20.1","","86","","","M","22","","4","","","M","95.88","","","","-22","","NA"
"-108.52","54.13","MEADOW LAKE A","4065063","2019-03-10 00:00","2019","03","10","00:00","-21.0","","-22.7","","86","","","M","24","","10","","","M","95.93","","","","-28","","NA"
"-108.52","54.13","MEADOW LAKE A","4065063","2019-03-10 01:00","2019","03","10","01:00","-21.9","","-23.8","","85","","","M","25","","9","","","M","95.95","","","","-29","","NA"
"-108.52","54.13","MEADOW LAKE A","4065063","2019-03-10 02:00","2019","03","10","02:00","-21.4","","-23.5","","84","","","M","22","","6","","","M","95.98","","","","-27","","NA"
"-108.52","54.13","MEADOW LAKE A","4065063","2019-03-10 03:00","2019","03","10","03:00","-23.2","","-25.4","","82","","","M","24","","5","","","M","95.99","","","","-28","","NA"
"-108.52","54.13","MEADOW LAKE A","4065063","2019-03-10 04:00","2019","03","10","04:00","-23.3","","-25.4","","83","","","M","24","","5","","","M","96.01","","","","-28","","NA"
"-108.52","54.13","MEADOW LAKE A","4065063","2019-03-10 05:00","2019","03","10","05:00","-23.8","","-26.2","","81","","","M","23","","7","","","M","96.02","","","","-30","","NA"
"-108.52","54.13","MEADOW LAKE A","4065063","2019-03-10 06:00","2019","03","10","06:00","-24.2","","-26.6","","80","","","M","21","","4","","","M","96.05","","","","-28","","NA"
"-108.52","54.13","MEADOW LAKE A","4065063","2019-03-10 07:00","2019","03","10","07:00","-24.9","","-27.4","","80","","","M","18","","3","","","M","96.08","","","","-28","","NA"
"-108.52","54.13","MEADOW LAKE A","4065063","2019-03-10 08:00","2019","03","10","08:00","-25.5","","-28.1","","80","","","M","27","","4","","","M","96.06","","","","-30","","NA"
"-108.52","54.13","MEADOW LAKE A","4065063","2019-03-10 09:00","2019","03","10","09:00","-24.9","","-27.7","","78","","","M","13","","1","","","M","96.07","","","","-26","","NA"
"-108.52","54.13","MEADOW LAKE A","4065063","2019-03-10 10:00","2019","03","10","10:00","-22.6","","-25.4","","79","","","M","17","","2","","","M","96.07","","","","-24","","NA"
"-108.52","54.13","MEADOW LAKE A","4065063","2019-03-10 11:00","2019","03","10","11:00","-19.1","","-21.9","","79","","","M","1","","3","","","M","96.05","","","","-22","","NA"
"-108.52","54.13","MEADOW LAKE A","4065063","2019-03-10 12:00","2019","03","10","12:00","-15.2","","-18.5","","76","","","M","11","","3","","","M","96.02","","","","-17","","NA"
"-108.52","54.13","MEADOW LAKE A","4065063","2019-03-10 13:00","2019","03","10","13:00","-11.0","","-15.4","","71","","","M","8","","5","","","M","95.98","","","","-14","","NA"
"-108.52","54.13","MEADOW LAKE A","4065063","2019-03-10 14:00","2019","03","10","14:00","-8.3","","-12.7","","71","","","M","19","","4","","","M","95.96","","","","-10","","NA"
"-108.52","54.13","MEADOW LAKE A","4065063","2019-03-10 15:00","2019","03","10","15:00","-4.7","","-10.6","","64","","","M","25","","23","","","M","95.91","","","","-12","","NA"
"-108.52","54.13","MEADOW LAKE A","4065063","2019-03-10 16:00","2019","03","10","16:00","-4.7","","-10.7","","63","","","M","24","","19","","","M","95.84","","","","-11","","NA"
"-108.52","54.13","MEADOW LAKE A","4065063","2019-03-10 17:00","2019","03","10","17:00","-4.4","","-11.3","","59","","","M","21","","16","","","M","95.81","","","","-10","","NA"
"-108.52","54.13","MEADOW LAKE A","4065063","2019-03-10 18:00","2019","03","10","18:00","-4.6","","-11.6","","58","","","M","20","","16","","","M","95.72","","","","-10","","NA"
"-108.52","54.13","MEADOW LAKE A","4065063","2019-03-10 19:00","2019","03","10","19:00","-8.0","","-14.4","","61","","","M","22","","8","","","M","95.70","","","","-12","","NA"
"-108.52","54.13","MEADOW LAKE A","4065063","2019-03-10 20:00","2019","03","10","20:00","-7.9","","-14.1","","61","","","M","21","","19","","","M","95.68","","","","-15","","NA"
"-108.52","54.13","MEADOW LAKE A","4065063","2019-03-10 21:00","2019","03","10","21:00","-9.3","","-14.2","","68","","","M","17","","17","","","M","95.59","","","","-16","","NA"
"-108.52","54.13","MEADOW LAKE A","4065063","2019-03-10 22:00","2019","03","10","22:00","-9.7","","-14.3","","69","","","M","18","","14","","","M","95.46","","","","-16","","NA"
"-108.52","54.13","MEADOW LAKE A","4065063","2019-03-10 23:00","2019","03","10","23:00","-9.2","","-13.9","","69","","","M","23","","19","","","M","95.45","","","","-17","","NA"
"-108.52","54.13","MEADOW LAKE A","4065063","2019-03-11 00:00","2019","03","11","00:00","-7.5","","-12.6","","67","","","M","22","","22","","","M","95.37","","","","-15","","NA"
"-108.52","54.13","MEADOW LAKE A","4065063","2019-03-11 01:00","2019","03","11","01:00","-7.7","","-12.7","","68","","","M","23","","17","","","M","95.33","","","","-14","","NA"
"-108.52","54.13","MEADOW LAKE A","4065063","2019-03-11 02:00","2019","03","11","02:00","-9.7","","-13.9","","72","","","M","21","","18","","","M","95.26","","","","-17","","NA"
"-108.52","54.13","MEADOW LAKE A","4065063","2019-03-11 03:00","2019","03","11","03:00","-7.3","","-12.5","","67","","","M","20","","12","","","M","95.15","","","","-13","","NA"
"-108.52","54.13","MEADOW LAKE A","4065063","2019-03-11 04:00","2019","03","11","04:00","-8.2","","-13.5","","66","","","M","18","","8","","","M","95.08","","","","-12","","NA"
"-108.52","54.13","MEADOW LAKE A","4065063","2019-03-11 05:00","2019","03","11","05:00","-7.5","","-12.7","","66","","","M","27","","5","","","M","95.04","","","","-10","","NA"
"-108.52","54.13","MEADOW LAKE A","4065063","2019-03-11 06:00","2019","03","11","06:00","-7.5","","-12.9","","66","","","M","20","","9","","","M","94.96","","","","-12","","NA"
"-108.52","54.13","MEADOW LAKE A","4065063","2019-03-11 07:00","2019","03","11","07:00","-7.9","","-12.0","","73","","","M","24","","14","","","M","94.98","","","","-14","","NA"
"-108.52","54.13","MEADOW LAKE A","4065063","2019-03-11 08:00","2019","03","11","08:00","-7.1","","-11.3","","72","","","M","24","","13","","","M","94.91","","","","-13","","NA"
"-108.52","54.13","MEADOW LAKE A","4065063","2019-03-11 09:00","2019","03","11","09:00","-7.0","","-11.0","","73","","","M","20","","7","","","M","94.84","","","","-11","","NA"
"-108.52","54.13","MEADOW LAKE A","4065063","2019-03-11 10:00","2019","03","11","10:00","-6.9","","-11.7","","69","","","M","25","","18","","","M","94.85","","","","-14","","NA"
"-108.52","54.13","MEADOW LAKE A","4065063","2019-03-11 11:00","2019","03","11","11:00","-4.5","","-10.9","","61","","","M","14","","5","","","M","94.78","","","","-7","","NA"
"-108.52","54.13","MEADOW LAKE A","4065063","2019-03-11 12:00","2019","03","11","12:00","-5.0","","-9.7","","70","","","M","2","","9","","","M","94.77","","","","-9","","NA"
"-108.52","54.13","MEADOW LAKE A","4065063","2019-03-11 13:00","2019","03","11","13:00","-2.2","","-9.6","","57","","","M","7","","4","","","M","94.70","","","","-4","","NA"
"-108.52","54.13","MEADOW LAKE A","4065063","2019-03-11 14:00","2019","03","11","14:00","-0.2","","-8.5","","54","","","M","21","","1","","","M","94.60","","","","-1","","NA"
"-108.52","54.13","MEADOW LAKE A","4065063","2019-03-11 15:00","2019","03","11","15:00","2.2","","-6.9","","51","","","M","25","","10","","","M","94.54","","","","","","NA"
"-108.52","54.13","MEADOW LAKE A","4065063","2019-03-11 16:00","2019","03","11","16:00","2.5","","-6.5","","52","","","M","25","","25","","","M","94.49","","","","","","NA"
"-108.52","54.13","MEADOW LAKE A","4065063","2019-03-11 17:00","2019","03","11","17:00","1.7","","-5.8","","58","","","M","25","","15","","","M","94.43","","","","","","NA"
"-108.52","54.13","MEADOW LAKE A","4065063","2019-03-11 18:00","2019","03","11","18:00","0.9","","-5.0","","65","","","M","25","","14","","","M","94.40","","","","","","NA"
"-108.52","54.13","MEADOW LAKE A","4065063","2019-03-11 19:00","2019","03","11","19:00","0.4","","-5.6","","64","","","M","28","","5","","","M","94.37","","","","","","NA"
"-108.52","54.13","MEADOW LAKE A","4065063","2019-03-11 20:00","2019","03","11","20:00","-1.4","","-6.2","","70","","","M","32","","4","","","M","94.33","","","","-3","","NA"
"-108.52","54.13","MEADOW LAKE A","4065063","2019-03-11 21:00","2019","03","11","21:00","-1.7","","-8.1","","62","","","M","23","","9","","","M","94.26","","","","-5","","NA"
"-108.52","54.13","MEADOW LAKE A","4065063","2019-03-11 22:00","2019","03","11","22:00","-5.1","","-8.8","","76","","","M","31","","4","","","M","94.20","","","","-7","","NA"
"-108.52","54.13","MEADOW LAKE A","4065063","2019-03-11 23:00","2019","03","11","23:00","-4.6","","-9.1","","71","","","M","1","","6","","","M","94.14","","","","-7","","NA"
"-108.52","54.13","MEADOW LAKE A","4065063","2019-03-12 00:00","2019","03","12","00:00","-4.3","","-8.4","","73","","","M","33","","9","","","M","94.10","","","","-8","","NA"
"-108.52","54.13","MEADOW LAKE A","4065063","2019-03-12 01:00","2019","03","12","01:00","-4.6","","-8.0","","77","","","M","4","","5","","","M","94.06","","","","-7","","NA"
"-108.52","54.13","MEADOW LAKE A","4065063","2019-03-12 02:00","2019","03","12","02:00","-5.0","","-7.6","","82","","","M","26","","9","","","M","94.09","","","","-9","","NA"
"-108.52","54.13","MEADOW LAKE A","4065063","2019-03-12 03:00","2019","03","12","03:00","-5.4","","-7.5","","85","","","M","22","","5","","","M","94.03","","","","-8","","NA"
"-108.52","54.13","MEADOW LAKE A","4065063","2019-03-12 04:00","2019","03","12","04:00","-5.9","","-8.9","","80","","","M","26","","5","","","M","94.03","","","","-8","","NA"
"-108.52","54.13","MEADOW LAKE A","4065063","2019-03-12 05:00","2019","03","12","05:00","-5.5","","-8.1","","82","","","M","24","","4","","","M","93.96","","","","-7","","NA"
"-108.52","54.13","MEADOW LAKE A","4065063","2019-03-12 06:00","2019","03","12","06:00","-6.9","","-9.2","","83","","","M","26","","15","","","M","93.96","","","","-13","","NA"
"-108.52","54.13","MEADOW LAKE A","4065063","2019-03-12 07:00","2019","03","12","07:00","-7.8","","-9.9","","85","","","M","26","","9","","","M","93.97","","","","-12","","NA"
"-108.52","54.13","MEADOW LAKE A","4065063","2019-03-12 08:00","2019","03","12","08:00","-9.5","","-11.5","","86","","","M","23","","9","","","M","93.99","","","","-14","","NA"
"-108.52","54.13","MEADOW LAKE A","4065063","2019-03-12 09:00","2019","03","12","09:00","-8.9","","-10.9","","85","","","M","24","","11","","","M","94.01","","","","-14","","NA"
"-108.52","54.13","MEADOW LAKE A","4065063","2019-03-12 10:00","2019","03","12","10:00","-4.3","","-8.3","","74","","","M","23","","18","","","M","94.05","","","","-10","","NA"
"-108.52","54.13","MEADOW LAKE A","4065063","2019-03-12 11:00","2019","03","12","11:00","-1.0","","-6.2","","68","","","M","27","","16","","","M","94.04","","","","-6","","NA"
"-108.52","54.13","MEADOW LAKE A","4065063","2019-03-12 12:00","2019","03","12","12:00","0.9","","-4.9","","65","","","M","26","","19","","","M","94.05","","","","","","NA"
"-108.52","54.13","MEADOW LAKE A","4065063","2019-03-12 13:00","2019","03","12","13:00","2.4","","-3.9","","63","","","M","25","","20","","","M","94.10","","","","","","NA"
"-108.52","54.13","MEADOW LAKE A","4065063","2019-03-12 14:00","2019","03","12","14:00","3.6","","-3.0","","62","","","M","26","","19","","","M","94.10","","","","","","NA"
"-108.52","54.13","MEADOW LAKE A","4065063","2019-03-12 15:00","2019","03","12","15:00","4.4","","-2.6","","61","","","M","27","","27","","","M","94.11","","","","","","NA"
"-108.52","54.13","MEADOW LAKE A","4065063","2019-03-12 16:00","2019","03","12","16:00","4.2","","-2.0","","64","","","M","27","","18","","","M","94.13","","","","","","NA"
"-108.52","54.13","MEADOW LAKE A","4065063","2019-03-12 17:00","2019","03","12","17:00","4.0","","-1.6","","67","","","M","27","","20","","","M","94.20","","","","","","NA"
"-108.52","54.13","MEADOW LAKE A","4065063","2019-03-12 18:00","2019","03","12","18:00","3.2","","-1.0","","74","","","M","30","","17","","","M","94.28","","","","","","NA"
"-108.52","54.13","MEADOW LAKE A","4065063","2019-03-12 19:00","2019","03","12","19:00","2.4","","-1.1","","78","","","M","29","","14","","","M","94.37","","","","","","NA"
"-108.52","54.13","MEADOW LAKE A","4065063","2019-03-12 20:00","2019","03","12","20:00","2.4","","-1.8","","74","","","M","30","","17","","","M","94.48","","","","","","NA"
"-108.52","54.13","MEADOW LAKE A","4065063","2019-03-12 21:00","2019","03","12","21:00","3.0","","-2.4","","68","","","M","31","","18","","","M","94.54","","","","","","NA"
"-108.52","54.13","MEADOW LAKE A","4065063","2019-03-12 22:00","2019","03","12","22:00","0.8","","-2.6","","78","","","M","29","","10","","","M","94.61","","","","","","NA"
"-108.52","54.13","MEADOW LAKE A","4065063","2019-03-12 23:00","2019","03","12","23:00","-0.6","","-3.0","","84","","","M","26","","7","","","M","94.70","","","","-3","","NA"
"-108.52","54.13","MEADOW LAKE A","4065063","2019-03-13 00:00","2019","03","13","00:00","-1.7","","-4.0","","85","","","M","32","","4","","","M","94.78","","","","-3","","NA"
"-108.52","54.13","MEADOW LAKE A","4065063","2019-03-13 01:00","2019","03","13","01:00","-3.9","","-5.6","","88","","","M","25","","13","","","M","94.85","","","","-9","","NA"
"-108.52","54.13","MEADOW LAKE A","4065063","2019-03-13 02:00","2019","03","13","02:00","-4.9","","-6.6","","88","","","M","24","","10","","","M","94.99","","","","-9","","NA"
"-108.52","54.13","MEADOW LAKE A","4065063","2019-03-13 03:00","2019","03","13","03:00","-5.7","","-7.7","","86","","","M","27","","6","","","M","95.08","","","","-9","","NA"
"-108.52","54.13","MEADOW LAKE A","4065063","2019-03-13 04:00","2019","03","13","04:00","-6.8","","-8.7","","86","","","M","25","","14","","","M","95.14","","","","-13","","NA"
"-108.52","54.13","MEADOW LAKE A","4065063","2019-03-13 05:00","2019","03","13","05:00","-9.6","","-11.2","","88","","","M","25","","17","","","M","95.23","","","","-17","","NA"
"-108.52","54.13","MEADOW LAKE A","4065063","2019-03-13 06:00","2019","03","13","06:00","-9.2","","-10.6","","90","","","M","24","","11","","","M","95.34","","","","-15","","NA"
"-108.52","54.13","MEADOW LAKE A","4065063","2019-03-13 07:00","2019","03","13","07:00","-9.3","","-10.4","","92","","","M","24","","9","","","M","95.43","","","","-14","","NA"
"-108.52","54.13","MEADOW LAKE A","4065063","2019-03-13 08:00","2019","03","13","08:00","-10.6","","-11.7","","91","","","M","25","","14","","","M","95.53","","","","-17","","NA"
"-108.52","54.13","MEADOW LAKE A","4065063","2019-03-13 09:00","2019","03","13","09:00","-9.1","","-10.4","","90","","","M","24","","14","","","M","95.58","","","","-15","","NA"
"-108.52","54.13","MEADOW LAKE A","4065063","2019-03-13 10:00","2019","03","13","10:00","-5.5","","-8.1","","82","","","M","23","","10","","","M","95.65","","","","-10","","NA"
"-108.52","54.13","MEADOW LAKE A","4065063","2019-03-13 11:00","2019","03","13","11:00","-2.9","","-6.4","","77","","","M","26","","12","","","M","95.74","","","","-7","","NA"
"-108.52","54.13","MEADOW LAKE A","4065063","2019-03-13 12:00","2019","03","13","12:00","-0.1","","-4.6","","72","","","M","24","","12","","","M","95.80","","","","-4","","NA"
"-108.52","54.13","MEADOW LAKE A","4065063","2019-03-13 13:00","2019","03","13","13:00","1.4","","-4.1","","67","","","M","24","","13","","","M","95.82","","","","","","NA"
"-108.52","54.13","MEADOW LAKE A","4065063","2019-03-13 14:00","2019","03","13","14:00","3.2","","-4.4","","57","","","M","27","","18","","","M","95.84","","","","","","NA"
"-108.52","54.13","MEADOW LAKE A","4065063","2019-03-13 15:00","2019","03","13","15:00","3.6","","-4.0","","58","","","M","25","","18","","","M","95.88","","","","","","NA"
"-108.52","54.13","MEADOW LAKE A","4065063","2019-03-13 16:00","2019","03","13","16:00","3.7","","-4.6","","55","","","M","27","","17","","","M","95.89","","","","","","NA"
"-108.52","54.13","MEADOW LAKE A","4065063","2019-03-13 17:00","2019","03","13","17:00","3.0","","-4.0","","60","","","M","26","","14","","","M","95.93","","","","","","NA"
"-108.52","54.13","MEADOW LAKE A","4065063","2019-03-13 18:00","2019","03","13","18:00","2.1","","-4.3","","62","","","M","26","","13","","","M","96.00","","","","","","NA"
"-108.52","54.13","MEADOW LAKE A","4065063","2019-03-13 19:00","2019","03","13","19:00","-0.2","","-4.8","","71","","","M","26","","12","","","M","96.03","","","","-4","","NA"
"-108.52","54.13","MEADOW LAKE A","4065063","2019-03-13 20:00","2019","03","13","20:00","-1.2","","-6.5","","67","","","M","25","","16","","","M","96.08","","","","-6","","NA"
"-108.52","54.13","MEADOW LAKE A","4065063","2019-03-13 21:00","2019","03","13","21:00","-3.1","","-6.9","","75","","","M","26","","8","","","M","96.14","","","","-6","","NA"
"-108.52","54.13","MEADOW LAKE A","4065063","2019-03-13 22:00","2019","03","13","22:00","-3.5","","-7.8","","73","","","M","23","","14","","","M","96.19","","","","-9","","NA"
"-108.52","54.13","MEADOW LAKE A","4065063","2019-03-13 23:00","2019","03","13","23:00","-5.1","","-8.6","","77","","","M","25","","16","","","M","96.21","","","","-11","","NA"
"-108.52","54.13","MEADOW LAKE A","4065063","2019-03-14 00:00","2019","03","14","00:00","-6.1","","-9.2","","79","","","M","23","","16","","","M","96.22","","","","-12","","NA"
"-108.52","54.13","MEADOW LAKE A","4065063","2019-03-14 01:00","2019","03","14","01:00","-6.0","","-9.8","","75","","","M","23","","17","","","M","96.21","","","","-12","","NA"
"-108.52","54.13","MEADOW LAKE A","4065063","2019-03-14 02:00","2019","03","14","02:00","-7.1","","-10.7","","76","","","M","24","","9","","","M","96.24","","","","-11","","NA"
"-108.52","54.13","MEADOW LAKE A","4065063","2019-03-14 03:00","2019","03","14","03:00","-6.3","","-10.6","","71","","","M","26","","19","","","M","96.29","","","","-13","","NA"
"-108.52","54.13","MEADOW LAKE A","4065063","2019-03-14 04:00","2019","03","14","04:00","-6.7","","-10.6","","74","","","M","20","","9","","","M","96.28","","","","-11","","NA"
"-108.52","54.13","MEADOW LAKE A","4065063","2019-03-14 05:00","2019","03","14","05:00","-7.0","","-10.8","","74","","","M","26","","17","","","M","96.30","","","","-13","","NA"
"-108.52","54.13","MEADOW LAKE A","4065063","2019-03-14 06:00","2019","03","14","06:00","-6.7","","-9.9","","78","","","M","26","","8","","","M","96.33","","","","-11","","NA"
"-108.52","54.13","MEADOW LAKE A","4065063","2019-03-14 07:00","2019","03","14","07:00","-8.8","","-11.7","","80","","","M","26","","14","","","M","96.37","","","","-15","","NA"
"-108.52","54.13","MEADOW LAKE A","4065063","2019-03-14 08:00","2019","03","14","08:00","-9.8","","-12.3","","82","","","M","23","","10","","","M","96.39","","","","-15","","NA"
"-108.52","54.13","MEADOW LAKE A","4065063","2019-03-14 09:00","2019","03","14","09:00","-7.2","","-9.9","","81","","","M","26","","10","","","M","96.41","","","","-12","","NA"
"-108.52","54.13","MEADOW LAKE A","4065063","2019-03-14 10:00","2019","03","14","10:00","-5.0","","-8.3","","77","","","M","26","","11","","","M","96.46","","","","-10","","NA"
"-108.52","54.13","MEADOW LAKE A","4065063","2019-03-14 11:00","2019","03","14","11:00","-2.6","","-6.4","","75","","","M","25","","12","","","M","96.49","","","","-7","","NA"
"-108.52","54.13","MEADOW LAKE A","4065063","2019-03-14 12:00","2019","03","14","12:00","-0.8","","-4.3","","77","","","M","28","","8","","","M","96.50","","","","-4","","NA"
"-108.52","54.13","MEADOW LAKE A","4065063","2019-03-14 13:00","2019","03","14","13:00","0.6","","-4.1","","71","","","M","24","","11","","","M","96.48","","","","","","NA"
"-108.52","54.13","MEADOW LAKE A","4065063","2019-03-14 14:00","2019","03","14","14:00","1.8","","-3.9","","66","","","M","26","","6","","","M","96.43","","","","","","NA"
"-108.52","54.13","MEADOW LAKE A","4065063","2019-03-14 15:00","2019","03","14","15:00","3.1","","-4.8","","57","","","M","31","","16","","","M","96.39","","","","","","NA"
"-108.52","54.13","MEADOW LAKE A","4065063","2019-03-14 16:00","2019","03","14","16:00","2.8","","-4.2","","60","","","M","32","","9","","","M","96.38","","","","","","NA"
"-108.52","54.13","MEADOW LAKE A","4065063","2019-03-14 17:00","2019","03","14","17:00","3.5","","-5.5","","52","","","M","26","","5","","","M","96.37","","","","","","NA"
"-108.52","54.13","MEADOW LAKE A","4065063","2019-03-14 18:00","2019","03","14","18:00","2.8","","-5.5","","55","","","M","31","","7","","","M","96.35","","","","","","NA"
"-108.52","54.13","MEADOW LAKE A","4065063","2019-03-14 19:00","2019","03","14","19:00","2.2","","-6.7","","52","","","M","30","","7","","","M","96.33","","","","","","NA"
"-108.52","54.13","MEADOW LAKE A","4065063","2019-03-14 20:00","2019","03","14","20:00","-1.1","","-6.3","","68","","","M","23","","7","","","M","96.34","","","","-4","","NA"
"-108.52","54.13","MEADOW LAKE A","4065063","2019-03-14 21:00","2019","03","14","21:00","-4.7","","-8.1","","78","","","M","24","","7","","","M","96.37","","","","-8","","NA"
"-108.52","54.13","MEADOW LAKE A","4065063","2019-03-14 22:00","2019","03","14","22:00","-4.3","","-7.9","","76","","","M","23","","8","","","M","96.37","","","","-8","","NA"
"-108.52","54.13","MEADOW LAKE A","4065063","2019-03-14 23:00","2019","03","14","23:00","-7.1","","-9.7","","82","","","M","10","","6","","","M","96.37","","","","-10","","NA"
"-108.52","54.13","MEADOW LAKE A","4065063","2019-03-15 00:00","2019","03","15","00:00","-7.5","","-9.4","","86","","","M","19","","2","","","M","96.37","","","","-9","","NA"
"-108.52","54.13","MEADOW LAKE A","4065063","2019-03-15 01:00","2019","03","15","01:00","-9.0","","-11.4","","83","","","M","22","","2","","","M","96.34","","","","-10","","NA"
"-108.52","54.13","MEADOW LAKE A","4065063","2019-03-15 02:00","2019","03","15","02:00","-9.6","","-11.2","","89","","","M","12","","3","","","M","96.33","","","","-11","","NA"
"-108.52","54.13","MEADOW LAKE A","4065063","2019-03-15 03:00","2019","03","15","03:00","-9.8","","-10.8","","93","","","M","24","","3","","","M","96.33","","","","-12","","NA"
"-108.52","54.13","MEADOW LAKE A","4065063","2019-03-15 04:00","2019","03","15","04:00","-10.0","","-11.0","","92","","","M","14","","3","","","M","96.30","","","","-12","","NA"
"-108.52","54.13","MEADOW LAKE A","4065063","2019-03-15 05:00","2019","03","15","05:00","-11.1","","-12.3","","91","","","M","13","","4","","","M","96.26","","","","-14","","NA"
"-108.52","54.13","MEADOW LAKE A","4065063","2019-03-15 06:00","2019","03","15","06:00","-10.6","","-11.7","","91","","","M","14","","3","","","M","96.24","","","","-12","","NA"
"-108.52","54.13","MEADOW LAKE A","4065063","2019-03-15 07:00","2019","03","15","07:00","-9.7","","-11.4","","87","","","M","15","","6","","","M","96.21","","","","-13","","NA"
"-108.52","54.13","MEADOW LAKE A","4065063","2019-03-15 08:00","2019","03","15","08:00","-7.4","","-10.3","","80","","","M","13","","14","","","M","96.16","","","","-13","","NA"
"-108.52","54.13","MEADOW LAKE A","4065063","2019-03-15 09:00","2019","03","15","09:00","-6.9","","-9.8","","80","","","M","17","","4","","","M","96.16","","","","-9","","NA"
"-108.52","54.13","MEADOW LAKE A","4065063","2019-03-15 10:00","2019","03","15","10:00","-2.7","","-7.6","","69","","","M","27","","11","","","M","96.20","","","","-7","","NA"
"-108.52","54.13","MEADOW LAKE A","4065063","2019-03-15 11:00","2019","03","15","11:00","-1.5","","-6.7","","67","","","M","23","","22","","","M","96.17","","","","-7","","NA"
"-108.52","54.13","MEADOW LAKE A","4065063","2019-03-15 12:00","2019","03","15","12:00","0.9","","-5.0","","65","","","M","24","","13","","","M","96.12","","","","","","NA"
"-108.52","54.13","MEADOW LAKE A","4065063","2019-03-15 13:00","2019","03","15","13:00","0.4","","-5.7","","64","","","M","25","","22","","","M","96.13","","","","","","NA"
"-108.52","54.13","MEADOW LAKE A","4065063","2019-03-15 14:00","2019","03","15","14:00","1.2","","-4.3","","67","","","M","24","","20","","","M","96.08","","","","","","NA"
"-108.52","54.13","MEADOW LAKE A","4065063","2019-03-15 15:00","2019","03","15","15:00","2.4","","-4.0","","63","","","M","24","","17","","","M","96.05","","","","","","NA"
"-108.52","54.13","MEADOW LAKE A","4065063","2019-03-15 16:00","2019","03","15","16:00","2.6","","-3.3","","65","","","M","25","","22","","","M","96.05","","","","","","NA"
"-108.52","54.13","MEADOW LAKE A","4065063","2019-03-15 17:00","2019","03","15","17:00","2.1","","-3.1","","69","","","M","24","","21","","","M","96.07","","","","","","NA"
"-108.52","54.13","MEADOW LAKE A","4065063","2019-03-15 18:00","2019","03","15","18:00","1.8","","-2.7","","72","","","M","27","","12","","","M","96.13","","","","","","NA"
"-108.52","54.13","MEADOW LAKE A","4065063","2019-03-15 19:00","2019","03","15","19:00","1.0","","-2.9","","76","","","M","26","","17","","","M","96.15","","","","","","NA"
"-108.52","54.13","MEADOW LAKE A","4065063","2019-03-15 20:00","2019","03","15","20:00","-0.5","","-2.5","","86","","","M","29","","11","","","M","96.21","","","","-4","","NA"
"-108.52","54.13","MEADOW LAKE A","4065063","2019-03-15 21:00","2019","03","15","21:00","-2.3","","-3.5","","92","","","M","25","","14","","","M","96.23","","","","-7","","NA"
"-108.52","54.13","MEADOW LAKE A","4065063","2019-03-15 22:00","2019","03","15","22:00","-3.9","","-5.5","","89","","","M","25","","14","","","M","96.24","","","","-9","","NA"
"-108.52","54.13","MEADOW LAKE A","4065063","2019-03-15 23:00","2019","03","15","23:00","-4.0","","-5.4","","90","","","M","25","","16","","","M","96.27","","","","-10","","NA"
"-108.52","54.13","MEADOW LAKE A","4065063","2019-03-16 00:00","2019","03","16","00:00","-4.7","","-6.8","","85","","","M","25","","16","","","M","96.28","","","","-10","","NA"
"-108.52","54.13","MEADOW LAKE A","4065063","2019-03-16 01:00","2019","03","16","01:00","-3.4","","-6.8","","77","","","M","26","","22","","","M","96.30","","","","-10","","NA"
"-108.52","54.13","MEADOW LAKE A","4065063","2019-03-16 02:00","2019","03","16","02:00","-4.4","","-8.0","","76","","","M","26","","19","","","M","96.34","","","","-11","","NA"
"-108.52","54.13","MEADOW LAKE A","4065063","2019-03-16 03:00","2019","03","16","03:00","-5.3","","-8.9","","76","","","M","25","","18","","","M","96.38","","","","-12","","NA"
"-108.52","54.13","MEADOW LAKE A","4065063","2019-03-16 04:00","2019","03","16","04:00","-5.8","","-9.7","","74","","","M","26","","19","","","M","96.38","","","","-12","","NA"
"-108.52","54.13","MEADOW LAKE A","4065063","2019-03-16 05:00","2019","03","16","05:00","-7.0","","-10.7","","75","","","M","24","","13","","","M","96.41","","","","-13","","NA"
"-108.52","54.13","MEADOW LAKE A","4065063","2019-03-16 06:00","2019","03","16","06:00","-6.8","","-11.7","","68","","","M","24","","15","","","M","96.45","","","","-13","","NA"
"-108.52","54.13","MEADOW LAKE A","4065063","2019-03-16 07:00","2019","03","16","07:00","-7.2","","-11.2","","74","","","M","24","","20","","","M","96.47","","","","-14","","NA"
"-108.52","54.13","MEADOW LAKE A","4065063","2019-03-16 08:00","2019","03","16","08:00","-7.0","","-11.2","","72","","","M","25","","20","","","M","96.50","","","","-14","","NA"
"-108.52","54.13","MEADOW LAKE A","4065063","2019-03-16 09:00","2019","03","16","09:00","-6.5","","-10.8","","72","","","M","25","","15","","","M","96.51","","","","-12","","NA"
"-108.52","54.13","MEADOW LAKE A","4065063","2019-03-16 10:00","2019","03","16","10:00","-4.0","","-9.0","","68","","","M","26","","13","","","M","96.53","","","","-9","","NA"
"-108.52","54.13","MEADOW LAKE A","4065063","2019-03-16 11:00","2019","03","16","11:00","-1.3","","-7.4","","63","","","M","23","","15","","","M","96.51","","","","-6","","NA"
"-108.52","54.13","MEADOW LAKE A","4065063","2019-03-16 12:00","2019","03","16","12:00","0.8","","-5.7","","62","","","M","28","","12","","","M","96.51","","","","","","NA"
"-108.52","54.13","MEADOW LAKE A","4065063","2019-03-16 13:00","2019","03","16","13:00","2.3","","-5.2","","58","","","M","27","","17","","","M","96.49","","","","","","NA"
"-108.52","54.13","MEADOW LAKE A","4065063","2019-03-16 14:00","2019","03","16","14:00","3.1","","-4.5","","58","","","M","28","","14","","","M","96.48","","","","","","NA"
"-108.52","54.13","MEADOW LAKE A","4065063","2019-03-16 15:00","2019","03","16","15:00","3.6","","-4.9","","54","","","M","27","","16","","","M","96.47","","","","","","NA"
"-108.52","54.13","MEADOW LAKE A","4065063","2019-03-16 16:00","2019","03","16","16:00","3.6","","-4.6","","55","","","M","27","","12","","","M","96.46","","","","","","NA"
"-108.52","54.13","MEADOW LAKE A","4065063","2019-03-16 17:00","2019","03","16","17:00","3.3","","-4.8","","55","","","M","27","","14","","","M","96.47","","","","","","NA"
"-108.52","54.13","MEADOW LAKE A","4065063","2019-03-16 18:00","2019","03","16","18:00","3.0","","-5.6","","53","","","M","27","","16","","","M","96.48","","","","","","NA"
"-108.52","54.13","MEADOW LAKE A","4065063","2019-03-16 19:00","2019","03","16","19:00","0.6","","-6.0","","62","","","M","27","","15","","","M","96.48","","","","","","NA"
"-108.52","54.13","MEADOW LAKE A","4065063","2019-03-16 20:00","2019","03","16","20:00","-1.0","","-8.1","","59","","","M","28","","14","","","M","96.50","","","","-5","","NA"
"-108.52","54.13","MEADOW LAKE A","4065063","2019-03-16 21:00","2019","03","16","21:00","-1.6","","-9.0","","57","","","M","28","","16","","","M","96.55","","","","-7","","NA"
"-108.52","54.13","MEADOW LAKE A","4065063","2019-03-16 22:00","2019","03","16","22:00","-3.6","","-9.4","","65","","","M","26","","10","","","M","96.57","","","","-8","","NA"
"-108.52","54.13","MEADOW LAKE A","4065063","2019-03-16 23:00","2019","03","16","23:00","-6.2","","-11.0","","69","","","M","25","","13","","","M","96.60","","","","-12","","NA"
"-108.52","54.13","MEADOW LAKE A","4065063","2019-03-17 00:00","2019","03","17","00:00","-5.5","","-10.4","","69","","","M","36","","4","","","M","96.65","","","","-7","","NA"
"-108.52","54.13","MEADOW LAKE A","4065063","2019-03-17 01:00","2019","03","17","01:00","-8.0","","-11.7","","75","","","M","22","","9","","","M","96.66","","","","-13","","NA"
"-108.52","54.13","MEADOW LAKE A","4065063","2019-03-17 02:00","2019","03","17","02:00","-7.8","","-12.0","","72","","","M","24","","12","","","M","96.68","","","","-13","","NA"
"-108.52","54.13","MEADOW LAKE A","4065063","2019-03-17 03:00","2019","03","17","03:00","-8.9","","-13.0","","73","","","M","24","","11","","","M","96.70","","","","-14","","NA"
"-108.52","54.13","MEADOW LAKE A","4065063","2019-03-17 04:00","2019","03","17","04:00","-9.1","","-13.1","","73","","","M","24","","12","","","M","96.70","","","","-15","","NA"
"-108.52","54.13","MEADOW LAKE A","4065063","2019-03-17 05:00","2019","03","17","05:00","-8.9","","-12.7","","74","","","M","23","","5","","","M","96.71","","","","-12","","NA"
"-108.52","54.13","MEADOW LAKE A","4065063","2019-03-17 06:00","2019","03","17","06:00","-10.6","","-14.5","","73","","","M","25","","9","","","M","96.74","","","","-16","","NA"
"-108.52","54.13","MEADOW LAKE A","4065063","2019-03-17 07:00","2019","03","17","07:00","-7.0","","-11.6","","70","","","M","22","","10","","","M","96.77","","","","-12","","NA"
"-108.52","54.13","MEADOW LAKE A","4065063","2019-03-17 08:00","2019","03","17","08:00","-9.3","","-13.6","","72","","","M","21","","10","","","M","96.74","","","","-14","","NA"
"-108.52","54.13","MEADOW LAKE A","4065063","2019-03-17 09:00","2019","03","17","09:00","-7.8","","-12.4","","70","","","M","20","","7","","","M","96.71","","","","-11","","NA"
"-108.52","54.13","MEADOW LAKE A","4065063","2019-03-17 10:00","2019","03","17","10:00","-5.7","","-11.0","","66","","","M","16","","5","","","M","96.66","","","","-8","","NA"
"-108.52","54.13","MEADOW LAKE A","4065063","2019-03-17 11:00","2019","03","17","11:00","1.5","","-7.1","","53","","","M","24","","19","","","M","96.66","","","","","","NA"
"-108.52","54.13","MEADOW LAKE A","4065063","2019-03-17 12:00","2019","03","17","12:00","3.5","","-5.6","","51","","","M","23","","20","","","M","96.60","","","","","","NA"
"-108.52","54.13","MEADOW LAKE A","4065063","2019-03-17 13:00","2019","03","17","13:00","4.4","","-4.0","","55","","","M","22","","13","","","M","96.54","","","","","","NA"
"-108.52","54.13","MEADOW LAKE A","4065063","2019-03-17 14:00","2019","03","17","14:00","3.8","","-3.5","","59","","","M","25","","24","","","M","96.48","","","","","","NA"
"-108.52","54.13","MEADOW LAKE A","4065063","2019-03-17 15:00","2019","03","17","15:00","3.0","","-3.2","","64","","","M","25","","26","","","M","96.45","","","","","","NA"
"-108.52","54.13","MEADOW LAKE A","4065063","2019-03-17 16:00","2019","03","17","16:00","3.5","","-2.3","","65","","","M","24","","22","","","M","96.41","","","","","","NA"
"-108.52","54.13","MEADOW LAKE A","4065063","2019-03-17 17:00","2019","03","17","17:00","4.1","","-2.0","","64","","","M","24","","20","","","M","96.36","","","","","","NA"
"-108.52","54.13","MEADOW LAKE A","4065063","2019-03-17 18:00","2019","03","17","18:00","3.7","","-2.3","","65","","","M","23","","24","","","M","96.35","","","","","","NA"
"-108.52","54.13","MEADOW LAKE A","4065063","2019-03-17 19:00","2019","03","17","19:00","1.9","","-2.0","","75","","","M","24","","19","","","M","96.36","","","","","","NA"
"-108.52","54.13","MEADOW LAKE A","4065063","2019-03-17 20:00","2019","03","17","20:00","1.0","","-2.1","","80","","","M","23","","17","","","M","96.30","","","","","","NA"
"-108.52","54.13","MEADOW LAKE A","4065063","2019-03-17 21:00","2019","03","17","21:00","1.7","","-1.6","","79","","","M","23","","22","","","M","96.23","","","","","","NA"
"-108.52","54.13","MEADOW LAKE A","4065063","2019-03-17 22:00","2019","03","17","22:00","0.9","","-1.7","","83","","","M","25","","19","","","M","96.27","","","","","","NA"
"-108.52","54.13","MEADOW LAKE A","4065063","2019-03-17 23:00","2019","03","17","23:00","-0.1","","-2.3","","85","","","M","24","","17","","","M","96.28","","","","-5","","NA"
"-108.52","54.13","MEADOW LAKE A","4065063","2019-03-18 00:00","2019","03","18","00:00","-0.2","","-2.5","","85","","","M","25","","21","","","M","96.26","","","","-6","","NA"
"-108.52","54.13","MEADOW LAKE A","4065063","2019-03-18 01:00","2019","03","18","01:00","0.8","","-2.3","","79","","","M","26","","22","","","M","96.26","","","","","","NA"
"-108.52","54.13","MEADOW LAKE A","4065063","2019-03-18 02:00","2019","03","18","02:00","-0.2","","-3.0","","81","","","M","26","","19","","","M","96.23","","","","-5","","NA"
"-108.52","54.13","MEADOW LAKE A","4065063","2019-03-18 03:00","2019","03","18","03:00","0.1","","-3.0","","79","","","M","27","","19","","","M","96.19","","","","","","NA"
"-108.52","54.13","MEADOW LAKE A","4065063","2019-03-18 04:00","2019","03","18","04:00","0.2","","-3.4","","77","","","M","27","","22","","","M","96.19","","","","","","NA"
"-108.52","54.13","MEADOW LAKE A","4065063","2019-03-18 05:00","2019","03","18","05:00","-1.3","","-4.4","","79","","","M","28","","14","","","M","96.20","","","","-6","","NA"
"-108.52","54.13","MEADOW LAKE A","4065063","2019-03-18 06:00","2019","03","18","06:00","-3.9","","-6.3","","83","","","M","26","","13","","","M","96.28","","","","-9","","NA"
"-108.52","54.13","MEADOW LAKE A","4065063","2019-03-18 07:00","2019","03","18","07:00","-5.0","","-7.0","","86","","","M","27","","9","","","M","96.31","","","","-9","","NA"
"-108.52","54.13","MEADOW LAKE A","4065063","2019-03-18 08:00","2019","03","18","08:00","-2.7","","-5.4","","82","","","M","26","","12","","","M","96.35","","","","-7","","NA"
"-108.52","54.13","MEADOW LAKE A","4065063","2019-03-18 09:00","2019","03","18","09:00","-2.4","","-5.4","","80","","","M","28","","13","","","M","96.39","","","","-7","","NA"
"-108.52","54.13","MEADOW LAKE A","4065063","2019-03-18 10:00","2019","03","18","10:00","1.2","","-3.6","","70","","","M","30","","20","","","M","96.41","","","","","","NA"
"-108.52","54.13","MEADOW LAKE A","4065063","2019-03-18 11:00","2019","03","18","11:00","3.4","","-2.4","","66","","","M","28","","15","","","M","96.42","","","","","","NA"
"-108.52","54.13","MEADOW LAKE A","4065063","2019-03-18 12:00","2019","03","18","12:00","4.3","","-2.1","","63","","","M","29","","14","","","M","96.42","","","","","","NA"
"-108.52","54.13","MEADOW LAKE A","4065063","2019-03-18 13:00","2019","03","18","13:00","5.4","","-2.5","","57","","","M","30","","13","","","M","96.42","","","","","","NA"
"-108.52","54.13","MEADOW LAKE A","4065063","2019-03-18 14:00","2019","03","18","14:00","6.1","","-2.4","","54","","","M","29","","13","","","M","96.41","","","","","","NA"
"-108.52","54.13","MEADOW LAKE A","4065063","2019-03-18 15:00","2019","03","18","15:00","6.2","","-1.5","","58","","","M","25","","11","","","M","96.38","","","","","","NA"
"-108.52","54.13","MEADOW LAKE A","4065063","2019-03-18 16:00","2019","03","18","16:00","4.9","","-1.9","","61","","","M","27","","16","","","M","96.37","","","","","","NA"
"-108.52","54.13","MEADOW LAKE A","4065063","2019-03-18 17:00","2019","03","18","17:00","4.4","","-2.0","","63","","","M","26","","15","","","M","96.37","","","","","","NA"
"-108.52","54.13","MEADOW LAKE A","4065063","2019-03-18 18:00","2019","03","18","18:00","4.6","","-2.8","","59","","","M","26","","15","","","M","96.40","","","","","","NA"
"-108.52","54.13","MEADOW LAKE A","4065063","2019-03-18 19:00","2019","03","18","19:00","1.9","","-3.0","","70","","","M","24","","16","","","M","96.36","","","","","","NA"
"-108.52","54.13","MEADOW LAKE A","4065063","2019-03-18 20:00","2019","03","18","20:00","2.0","","-3.5","","67","","","M","23","","12","","","M","96.34","","","","","","NA"
"-108.52","54.13","MEADOW LAKE A","4065063","2019-03-18 21:00","2019","03","18","21:00","1.3","","-4.1","","67","","","M","23","","16","","","M","96.30","","","","","","NA"
"-108.52","54.13","MEADOW LAKE A","4065063","2019-03-18 22:00","2019","03","18","22:00","1.2","","-2.7","","75","","","M","24","","21","","","M","96.29","","","","","","NA"
"-108.52","54.13","MEADOW LAKE A","4065063","2019-03-18 23:00","2019","03","18","23:00","0.1","","-3.2","","79","","","M","24","","19","","","M","96.25","","","","","","NA"
"-108.52","54.13","MEADOW LAKE A","4065063","2019-03-19 00:00","2019","03","19","00:00","0.4","","-3.2","","77","","","M","24","","18","","","M","96.25","","","","","","NA"
"-108.52","54.13","MEADOW LAKE A","4065063","2019-03-19 01:00","2019","03","19","01:00","0.1","","-3.2","","78","","","M","23","","16","","","M","96.19","","","","","","NA"
"-108.52","54.13","MEADOW LAKE A","4065063","2019-03-19 02:00","2019","03","19","02:00","0.3","","-3.0","","79","","","M","25","","18","","","M","96.15","","","","","","NA"
"-108.52","54.13","MEADOW LAKE A","4065063","2019-03-19 03:00","2019","03","19","03:00","-0.1","","-3.1","","80","","","M","25","","14","","","M","96.12","","","","-4","","NA"
"-108.52","54.13","MEADOW LAKE A","4065063","2019-03-19 04:00","2019","03","19","04:00","0.5","","-2.9","","78","","","M","24","","20","","","M","96.07","","","","","","NA"
"-108.52","54.13","MEADOW LAKE A","4065063","2019-03-19 05:00","2019","03","19","05:00","1.1","","-2.5","","77","","","M","26","","22","","","M","96.02","","","","","","NA"
"-108.52","54.13","MEADOW LAKE A","4065063","2019-03-19 06:00","2019","03","19","06:00","1.2","","-2.9","","74","","","M","26","","19","","","M","95.99","","","","","","NA"
"-108.52","54.13","MEADOW LAKE A","4065063","2019-03-19 07:00","2019","03","19","07:00","0.2","","-3.3","","78","","","M","25","","18","","","M","96.00","","","","","","NA"
"-108.52","54.13","MEADOW LAKE A","4065063","2019-03-19 08:00","2019","03","19","08:00","-0.1","","-3.2","","80","","","M","25","","14","","","M","96.01","","","","-4","","NA"
"-108.52","54.13","MEADOW LAKE A","4065063","2019-03-19 09:00","2019","03","19","09:00","1.3","","-2.4","","76","","","M","24","","17","","","M","95.98","","","","","","NA"
"-108.52","54.13","MEADOW LAKE A","4065063","2019-03-19 10:00","2019","03","19","10:00","3.3","","-1.1","","73","","","M","25","","16","","","M","95.97","","","","","","NA"
"-108.52","54.13","MEADOW LAKE A","4065063","2019-03-19 11:00","2019","03","19","11:00","4.6","","-0.9","","67","","","M","23","","13","","","M","96.01","","","","","","NA"
"-108.52","54.13","MEADOW LAKE A","4065063","2019-03-19 12:00","2019","03","19","12:00","4.9","","-0.6","","67","","","M","25","","16","","","M","96.02","","","","","","NA"
"-108.52","54.13","MEADOW LAKE A","4065063","2019-03-19 13:00","2019","03","19","13:00","7.1","","-0.1","","60","","","M","24","","14","","","M","96.05","","","","","","NA"
"-108.52","54.13","MEADOW LAKE A","4065063","2019-03-19 14:00","2019","03","19","14:00","7.4","","-0.6","","57","","","M","24","","16","","","M","96.05","","","","","","NA"
"-108.52","54.13","MEADOW LAKE A","4065063","2019-03-19 15:00","2019","03","19","15:00","8.5","","-0.2","","54","","","M","24","","14","","","M","96.03","","","","","","NA"
"-108.52","54.13","MEADOW LAKE A","4065063","2019-03-19 16:00","2019","03","19","16:00","9.5","","0.0","","52","","","M","23","","11","","","M","95.99","","","","","","NA"
"-108.52","54.13","MEADOW LAKE A","4065063","2019-03-19 17:00","2019","03","19","17:00","9.2","","-0.7","","50","","","M","23","","12","","","M","95.98","","","","","","NA"
"-108.52","54.13","MEADOW LAKE A","4065063","2019-03-19 18:00","2019","03","19","18:00","10.0","","-1.4","","45","","","M","24","","13","","","M","95.97","","","","","","NA"
"-108.52","54.13","MEADOW LAKE A","4065063","2019-03-19 19:00","2019","03","19","19:00","5.3","","-1.0","","64","","","M","26","","12","","","M","96.01","","","","","","NA"
"-108.52","54.13","MEADOW LAKE A","4065063","2019-03-19 20:00","2019","03","19","20:00","5.7","","-1.6","","59","","","M","23","","12","","","M","96.02","","","","","","NA"
"-108.52","54.13","MEADOW LAKE A","4065063","2019-03-19 21:00","2019","03","19","21:00","6.6","","-1.9","","55","","","M","7","","4","","","M","96.07","","","","","","NA"
"-108.52","54.13","MEADOW LAKE A","4065063","2019-03-19 22:00","2019","03","19","22:00","2.7","","-2.0","","71","","","M","21","","7","","","M","96.11","","","","","","NA"
"-108.52","54.13","MEADOW LAKE A","4065063","2019-03-19 23:00","2019","03","19","23:00","0.1","","-3.2","","78","","","M","24","","6","","","M","96.14","","","","","","NA"
"-108.52","54.13","MEADOW LAKE A","4065063","2019-03-20 00:00","2019","03","20","00:00","-0.6","","-3.3","","82","","","M","25","","12","","","M","96.20","","","","-5","","NA"
"-108.52","54.13","MEADOW LAKE A","4065063","2019-03-20 01:00","2019","03","20","01:00","-0.6","","-3.6","","80","","","M","25","","11","","","M","96.21","","","","-4","","NA"
"-108.52","54.13","MEADOW LAKE A","4065063","2019-03-20 02:00","2019","03","20","02:00","0.6","","-3.8","","72","","","M","24","","12","","","M","96.22","","","","","","NA"
"-108.52","54.13","MEADOW LAKE A","4065063","2019-03-20 03:00","2019","03","20","03:00","0.0","","-4.2","","73","","","M","22","","10","","","M","96.18","","","","-3","","NA"
"-108.52","54.13","MEADOW LAKE A","4065063","2019-03-20 04:00","2019","03","20","04:00","0.5","","-4.1","","71","","","M","24","","10","","","M","96.15","","","","","","NA"
"-108.52","54.13","MEADOW LAKE A","4065063","2019-03-20 05:00","2019","03","20","05:00","0.2","","-4.5","","71","","","M","25","","12","","","M","96.16","","","","","","NA"
"-108.52","54.13","MEADOW LAKE A","4065063","2019-03-20 06:00","2019","03","20","06:00","-0.4","","-4.3","","75","","","M","26","","14","","","M","96.16","","","","-5","","NA"
"-108.52","54.13","MEADOW LAKE A","4065063","2019-03-20 07:00","2019","03","20","07:00","-0.3","","-4.7","","72","","","M","26","","10","","","M","96.18","","","","-4","","NA"
"-108.52","54.13","MEADOW LAKE A","4065063","2019-03-20 08:00","2019","03","20","08:00","-0.4","","-4.6","","73","","","M","24","","9","","","M","96.20","","","","-4","","NA"
"-108.52","54.13","MEADOW LAKE A","4065063","2019-03-20 09:00","2019","03","20","09:00","1.0","","-3.2","","74","","","M","20","","6","","","M","96.17","","","","","","NA"
"-108.52","54.13","MEADOW LAKE A","4065063","2019-03-20 10:00","2019","03","20","10:00","4.8","","-2.4","","59","","","M","25","","12","","","M","96.14","","","","","","NA"
"-108.52","54.13","MEADOW LAKE A","4065063","2019-03-20 11:00","2019","03","20","11:00","6.4","","-1.8","","56","","","M","27","","14","","","M","96.18","","","","","","NA"
"-108.52","54.13","MEADOW LAKE A","4065063","2019-03-20 12:00","2019","03","20","12:00","7.9","","-1.8","","50","","","M","27","","8","","","M","96.18","","","","","","NA"
"-108.52","54.13","MEADOW LAKE A","4065063","2019-03-20 13:00","2019","03","20","13:00","8.6","","-0.9","","51","","","M","25","","13","","","M","96.13","","","","","","NA"
"-108.52","54.13","MEADOW LAKE A","4065063","2019-03-20 14:00","2019","03","20","14:00","10.1","","-1.2","","45","","","M","26","","17","","","M","96.08","","","","","","NA"
"-108.52","54.13","MEADOW LAKE A","4065063","2019-03-20 15:00","2019","03","20","15:00","9.5","","-0.3","","50","","","M","25","","19","","","M","96.01","","","","","","NA"
"-108.52","54.13","MEADOW LAKE A","4065063","2019-03-20 16:00","2019","03","20","16:00","9.8","","-1.2","","46","","","M","25","","17","","","M","95.99","","","","","","NA"
"-108.52","54.13","MEADOW LAKE A","4065063","2019-03-20 17:00","2019","03","20","17:00","9.5","","-1.0","","48","","","M","26","","15","","","M","95.96","","","","","","NA"
"-108.52","54.13","MEADOW LAKE A","4065063","2019-03-20 18:00","2019","03","20","18:00","7.9","","-0.8","","54","","","M","25","","16","","","M","95.95","","","","","","NA"
"-108.52","54.13","MEADOW LAKE A","4065063","2019-03-20 19:00","2019","03","20","19:00","5.2","","-1.2","","63","","","M","25","","18","","","M","95.95","","","","","","NA"
"-108.52","54.13","MEADOW LAKE A","4065063","2019-03-20 20:00","2019","03","20","20:00","4.9","","-1.7","","63","","","M","24","","20","","","M","95.95","","","","","","NA"
"-108.52","54.13","MEADOW LAKE A","4065063","2019-03-20 21:00","2019","03","20","21:00","4.5","","-2.1","","63","","","M","27","","17","","","M","96.01","","","","","","NA"
"-108.52","54.13","MEADOW LAKE A","4065063","2019-03-20 22:00","2019","03","20","22:00","2.8","","-2.6","","68","","","M","31","","11","","","M","96.09","","","","","","NA"
"-108.52","54.13","MEADOW LAKE A","4065063","2019-03-20 23:00","2019","03","20","23:00","1.0","","-2.8","","76","","","M","28","","10","","","M","96.13","","","","","","NA"
"-108.52","54.13","MEADOW LAKE A","4065063","2019-03-21 00:00","2019","03","21","00:00","0.2","","-3.3","","77","","","M","27","","7","","","M","96.20","","","","","","NA"
"-108.52","54.13","MEADOW LAKE A","4065063","2019-03-21 01:00","2019","03","21","01:00","-1.2","","-4.5","","78","","","M","24","","9","","","M","96.27","","","","-4","","NA"
"-108.52","54.13","MEADOW LAKE A","4065063","2019-03-21 02:00","2019","03","21","02:00","-1.8","","-4.4","","82","","","M","29","","2","","","M","96.34","","","","-3","","NA"
"-108.52","54.13","MEADOW LAKE A","4065063","2019-03-21 03:00","2019","03","21","03:00","-2.5","","-4.8","","84","","","M","0","","1","","","M","96.41","","","","-3","","NA"
"-108.52","54.13","MEADOW LAKE A","4065063","2019-03-21 04:00","2019","03","21","04:00","-4.2","","-6.0","","87","","","M","2","","3","","","M","96.44","","","","-5","","NA"
"-108.52","54.13","MEADOW LAKE A","4065063","2019-03-21 05:00","2019","03","21","05:00","-4.5","","-5.9","","90","","","M","27","","1","","","M","96.47","","","","-5","","NA"
"-108.52","54.13","MEADOW LAKE A","4065063","2019-03-21 06:00","2019","03","21","06:00","-5.7","","-7.0","","91","","","M","26","","3","","","M","96.51","","","","-7","","NA"
"-108.52","54.13","MEADOW LAKE A","4065063","2019-03-21 07:00","2019","03","21","07:00","-7.8","","-8.7","","93","","","M","2","","7","","","M","96.55","","","","-11","","NA"
"-108.52","54.13","MEADOW LAKE A","4065063","2019-03-21 08:00","2019","03","21","08:00","-5.8","","-7.5","","88","","","M","5","","5","","","M","96.56","","","","-8","","NA"
"-108.52","54.13","MEADOW LAKE A","4065063","2019-03-21 09:00","2019","03","21","09:00","-4.1","","-6.5","","83","","","M","9","","2","","","M","96.59","","","","-5","","NA"
"-108.52","54.13","MEADOW LAKE A","4065063","2019-03-21 10:00","2019","03","21","10:00","-1.1","","-4.3","","78","","","M","4","","12","","","M","96.61","","","","-5","","NA"
"-108.52","54.13","MEADOW LAKE A","4065063","2019-03-21 11:00","2019","03","21","11:00","1.8","","-1.8","","77","","","M","5","","7","","","M","96.61","","","","","","NA"
"-108.52","54.13","MEADOW LAKE A","4065063","2019-03-21 12:00","2019","03","21","12:00","4.5","","-1.8","","64","","","M","6","","6","","","M","96.58","","","","","","NA"
"-108.52","54.13","MEADOW LAKE A","4065063","2019-03-21 13:00","2019","03","21","13:00","6.4","","-1.4","","58","","","M","9","","15","","","M","96.56","","","","","","NA"
"-108.52","54.13","MEADOW LAKE A","4065063","2019-03-21 14:00","2019","03","21","14:00","9.9","","-3.8","","38","","","M","12","","23","","","M","96.51","","","","","","NA"
"-108.52","54.13","MEADOW LAKE A","4065063","2019-03-21 15:00","2019","03","21","15:00","10.4","","-3.9","","36","","","M","13","","19","","","M","96.46","","","","","","NA"
"-108.52","54.13","MEADOW LAKE A","4065063","2019-03-21 16:00","2019","03","21","16:00","8.1","","-2.1","","49","","","M","10","","12","","","M","96.46","","","","","","NA"
"-108.52","54.13","MEADOW LAKE A","4065063","2019-03-21 17:00","2019","03","21","17:00","10.8","","-2.8","","38","","","M","18","","5","","","M","96.41","","","","","","NA"
"-108.52","54.13","MEADOW LAKE A","4065063","2019-03-21 18:00","2019","03","21","18:00","10.4","","-3.2","","38","","","M","13","","9","","","M","96.37","","","","","","NA"
"-108.52","54.13","MEADOW LAKE A","4065063","2019-03-21 19:00","2019","03","21","19:00","9.1","","-3.4","","41","","","M","13","","16","","","M","96.31","","","","","","NA"
"-108.52","54.13","MEADOW LAKE A","4065063","2019-03-21 20:00","2019","03","21","20:00","6.3","","-3.2","","50","","","M","13","","12","","","M","96.29","","","","","","NA"
"-108.52","54.13","MEADOW LAKE A","4065063","2019-03-21 21:00","2019","03","21","21:00","6.8","","-4.4","","45","","","M","12","","14","","","M","96.25","","","","","","NA"
"-108.52","54.13","MEADOW LAKE A","4065063","2019-03-21 22:00","2019","03","21","22:00","3.2","","-4.3","","58","","","M","12","","8","","","M","96.24","","","","","","NA"
"-108.52","54.13","MEADOW LAKE A","4065063","2019-03-21 23:00","2019","03","21","23:00","3.9","","-4.2","","56","","","M","13","","9","","","M","96.22","","","","","","NA"
"-108.52","54.13","MEADOW LAKE A","4065063","2019-03-22 00:00","2019","03","22","00:00","3.5","","-4.3","","57","","","M","13","","16","","","M","96.18","","","","","","NA"
"-108.52","54.13","MEADOW LAKE A","4065063","2019-03-22 01:00","2019","03","22","01:00","1.7","","-4.2","","65","","","M","12","","14","","","M","96.11","","","","","","NA"
"-108.52","54.13","MEADOW LAKE A","4065063","2019-03-22 02:00","2019","03","22","02:00","-1.4","","-4.6","","79","","","M","10","","14","","","M","96.03","","","","-6","","NA"
"-108.52","54.13","MEADOW LAKE A","4065063","2019-03-22 03:00","2019","03","22","03:00","-0.7","","-3.3","","83","","","M","8","","7","","","M","96.00","","","","-3","","NA"
"-108.52","54.13","MEADOW LAKE A","4065063","2019-03-22 04:00","2019","03","22","04:00","-4.0","","-5.7","","88","","","M","9","","4","","","M","95.92","","","","-6","","NA"
"-108.52","54.13","MEADOW LAKE A","4065063","2019-03-22 05:00","2019","03","22","05:00","-4.5","","-6.4","","87","","","M","14","","5","","","M","95.85","","","","-7","","NA"
"-108.52","54.13","MEADOW LAKE A","4065063","2019-03-22 06:00","2019","03","22","06:00","-5.1","","-6.1","","92","","","M","9","","2","","","M","95.78","","","","-6","","NA"
"-108.52","54.13","MEADOW LAKE A","4065063","2019-03-22 07:00","2019","03","22","07:00","-4.4","","-5.0","","95","","","M","9","","5","","","M","95.73","","","","-7","","NA"
"-108.52","54.13","MEADOW LAKE A","4065063","2019-03-22 08:00","2019","03","22","08:00","-6.4","","-7.5","","92","","","M","34","","5","","","M","95.69","","","","-9","","NA"
"-108.52","54.13","MEADOW LAKE A","4065063","2019-03-22 09:00","2019","03","22","09:00","-4.0","","-5.1","","92","","","M","32","","5","","","M","95.64","","","","-6","","NA"
"-108.52","54.13","MEADOW LAKE A","4065063","2019-03-22 10:00","2019","03","22","10:00","-1.9","","-4.0","","86","","","M","2","","4","","","M","95.59","","","","-3","","NA"
"-108.52","54.13","MEADOW LAKE A","4065063","2019-03-22 11:00","2019","03","22","11:00","1.7","","-0.9","","83","","","M","4","","8","","","M","95.57","","","","","","NA"
"-108.52","54.13","MEADOW LAKE A","4065063","2019-03-22 12:00","2019","03","22","12:00","3.1","","0.1","","81","","","M","3","","8","","","M","95.58","","","","","","NA"
"-108.52","54.13","MEADOW LAKE A","4065063","2019-03-22 13:00","2019","03","22","13:00","5.4","","0.4","","70","","","M","25","","2","","","M","95.53","","","","","","NA"
"-108.52","54.13","MEADOW LAKE A","4065063","2019-03-22 14:00","2019","03","22","14:00","7.0","","1.6","","68","","","M","0","","1","","","M","95.49","","","","","","NA"
"-108.52","54.13","MEADOW LAKE A","4065063","2019-03-22 15:00","2019","03","22","15:00","9.5","","1.7","","58","","","M","25","","4","","","M","95.43","","","","","","NA"
"-108.52","54.13","MEADOW LAKE A","4065063","2019-03-22 16:00","2019","03","22","16:00","7.4","","2.0","","68","","","M","7","","2","","","M","95.40","","","","","","NA"
"-108.52","54.13","MEADOW LAKE A","4065063","2019-03-22 17:00","2019","03","22","17:00","9.3","","1.0","","56","","","M","26","","7","","","M","95.38","","","","","","NA"
"-108.52","54.13","MEADOW LAKE A","4065063","2019-03-22 18:00","2019","03","22","18:00","8.3","","0.2","","56","","","M","27","","28","","","M","95.36","","","","","","NA"
"-108.52","54.13","MEADOW LAKE A","4065063","2019-03-22 19:00","2019","03","22","19:00","4.6","","0.0","","72","","","M","24","","15","","","M","95.41","","","","","","NA"
"-108.52","54.13","MEADOW LAKE A","4065063","2019-03-22 20:00","2019","03","22","20:00","2.8","","-0.1","","81","","","M","23","","13","","","M","95.39","","","","","","NA"
"-108.52","54.13","MEADOW LAKE A","4065063","2019-03-22 21:00","2019","03","22","21:00","2.9","","-1.0","","75","","","M","24","","12","","","M","95.41","","","","","","NA"
"-108.52","54.13","MEADOW LAKE A","4065063","2019-03-22 22:00","2019","03","22","22:00","2.8","","-0.2","","80","","","M","27","","10","","","M","95.44","","","","","","NA"
"-108.52","54.13","MEADOW LAKE A","4065063","2019-03-22 23:00","2019","03","22","23:00","1.3","","-0.4","","88","","","M","28","","8","","","M","95.47","","","","","","NA"
"-108.52","54.13","MEADOW LAKE A","4065063","2019-03-23 00:00","2019","03","23","00:00","0.1","","-1.6","","88","","","M","29","","13","","","M","95.51","","","","","","NA"
"-108.52","54.13","MEADOW LAKE A","4065063","2019-03-23 01:00","2019","03","23","01:00","-0.9","","-2.4","","90","","","M","23","","9","","","M","95.49","","","","-4","","NA"
"-108.52","54.13","MEADOW LAKE A","4065063","2019-03-23 02:00","2019","03","23","02:00","-1.4","","-2.4","","93","","","M","26","","8","","","M","95.51","","","","-4","","NA"
"-108.52","54.13","MEADOW LAKE A","4065063","2019-03-23 03:00","2019","03","23","03:00","-0.9","","-1.6","","96","","","M","26","","4","","","M","95.57","","","","-2","","NA"
"-108.52","54.13","MEADOW LAKE A","4065063","2019-03-23 04:00","2019","03","23","04:00","-3.3","","-3.6","","98","","","M","33","","4","","","M","95.60","","","","-5","","NA"
"-108.52","54.13","MEADOW LAKE A","4065063","2019-03-23 05:00","2019","03","23","05:00","-4.4","","-4.5","","99","","","M","1","","8","","","M","95.65","","","","-8","","NA"
"-108.52","54.13","MEADOW LAKE A","4065063","2019-03-23 06:00","2019","03","23","06:00","-3.7","","-3.7","","100","","","M","36","","4","","","M","95.74","","","","-5","","NA"
"-108.52","54.13","MEADOW LAKE A","4065063","2019-03-23 07:00","2019","03","23","07:00","-5.3","","-5.6","","98","","","M","36","","3","","","M","95.80","","","","-7","","NA"
"-108.52","54.13","MEADOW LAKE A","4065063","2019-03-23 08:00","2019","03","23","08:00","-4.7","","-4.9","","98","","","M","24","","4","","","M","95.90","","","","-6","","NA"
"-108.52","54.13","MEADOW LAKE A","4065063","2019-03-23 09:00","2019","03","23","09:00","-1.9","","-1.9","","100","","","M","3","","3","","","M","95.98","","","","-3","","NA"
"-108.52","54.13","MEADOW LAKE A","4065063","2019-03-23 10:00","2019","03","23","10:00","0.8","","-1.2","","87","","","M","7","","5","","","M","96.06","","","","","","NA"
"-108.52","54.13","MEADOW LAKE A","4065063","2019-03-23 11:00","2019","03","23","11:00","3.3","","-0.6","","76","","","M","35","","2","","","M","96.15","","","","","","NA"
"-108.52","54.13","MEADOW LAKE A","4065063","2019-03-23 12:00","2019","03","23","12:00","5.1","","-0.4","","68","","","M","2","","5","","","M","96.24","","","","","","NA"
"-108.52","54.13","MEADOW LAKE A","4065063","2019-03-23 13:00","2019","03","23","13:00","7.0","","-1.3","","56","","","M","6","","21","","","M","96.28","","","","","","NA"
"-108.52","54.13","MEADOW LAKE A","4065063","2019-03-23 14:00","2019","03","23","14:00","6.3","","-1.3","","58","","","M","4","","21","","","M","96.37","","","","","","NA"
"-108.52","54.13","MEADOW LAKE A","4065063","2019-03-23 15:00","2019","03","23","15:00","6.2","","-1.4","","58","","","M","5","","21","","","M","96.41","","","","","","NA"
"-108.52","54.13","MEADOW LAKE A","4065063","2019-03-23 16:00","2019","03","23","16:00","6.2","","-1.3","","59","","","M","5","","18","","","M","96.46","","","","","","NA"
"-108.52","54.13","MEADOW LAKE A","4065063","2019-03-23 17:00","2019","03","23","17:00","5.4","","-0.9","","64","","","M","4","","22","","","M","96.55","","","","","","NA"
"-108.52","54.13","MEADOW LAKE A","4065063","2019-03-23 18:00","2019","03","23","18:00","3.5","","-1.5","","70","","","M","5","","28","","","M","96.68","","","","","","NA"
"-108.52","54.13","MEADOW LAKE A","4065063","2019-03-23 19:00","2019","03","23","19:00","1.8","","-2.1","","76","","","M","5","","22","","","M","96.80","","","","","","NA"
"-108.52","54.13","MEADOW LAKE A","4065063","2019-03-23 20:00","2019","03","23","20:00","0.6","","-2.4","","80","","","M","8","","22","","","M","96.93","","","","","","NA"
"-108.52","54.13","MEADOW LAKE A","4065063","2019-03-23 21:00","2019","03","23","21:00","-0.4","","-3.4","","80","","","M","6","","18","","","M","97.04","","","","-5","","NA"
"-108.52","54.13","MEADOW LAKE A","4065063","2019-03-23 22:00","2019","03","23","22:00","-1.2","","-4.1","","81","","","M","7","","17","","","M","97.10","","","","-6","","NA"
"-108.52","54.13","MEADOW LAKE A","4065063","2019-03-23 23:00","2019","03","23","23:00","-2.3","","-4.8","","83","","","M","7","","16","","","M","97.15","","","","-7","","NA"
"-108.52","54.13","MEADOW LAKE A","4065063","2019-03-24 00:00","2019","03","24","00:00","-3.1","","-6.1","","80","","","M","6","","16","","","M","97.20","","","","-8","","NA"
"-108.52","54.13","MEADOW LAKE A","4065063","2019-03-24 01:00","2019","03","24","01:00","-4.4","","-7.2","","81","","","M","5","","12","","","M","97.25","","","","-9","","NA"
"-108.52","54.13","MEADOW LAKE A","4065063","2019-03-24 02:00","2019","03","24","02:00","-5.4","","-8.2","","80","","","M","5","","10","","","M","97.27","","","","-10","","NA"
"-108.52","54.13","MEADOW LAKE A","4065063","2019-03-24 03:00","2019","03","24","03:00","-6.2","","-8.9","","81","","","M","5","","10","","","M","97.29","","","","-11","","NA"
"-108.52","54.13","MEADOW LAKE A","4065063","2019-03-24 04:00","2019","03","24","04:00","-7.3","","-10.0","","81","","","M","5","","10","","","M","97.29","","","","-12","","NA"
"-108.52","54.13","MEADOW LAKE A","4065063","2019-03-24 05:00","2019","03","24","05:00","-7.5","","-10.3","","80","","","M","4","","13","","","M","97.30","","","","-13","","NA"
"-108.52","54.13","MEADOW LAKE A","4065063","2019-03-24 06:00","2019","03","24","06:00","-9.4","","-11.1","","88","","","M","3","","10","","","M","97.32","","","","-15","","NA"
"-108.52","54.13","MEADOW LAKE A","4065063","2019-03-24 07:00","2019","03","24","07:00","-9.8","","-11.5","","88","","","M","5","","9","","","M","97.33","","","","-15","","NA"
"-108.52","54.13","MEADOW LAKE A","4065063","2019-03-24 08:00","2019","03","24","08:00","-8.1","","-10.2","","85","","","M","7","","5","","","M","97.35","","","","-11","","NA"
"-108.52","54.13","MEADOW LAKE A","4065063","2019-03-24 09:00","2019","03","24","09:00","-7.4","","-9.3","","87","","","M","33","","2","","","M","97.35","","","","-8","","NA"
"-108.52","54.13","MEADOW LAKE A","4065063","2019-03-24 10:00","2019","03","24","10:00","-5.3","","-7.7","","83","","","M","36","","5","","","M","97.35","","","","-8","","NA"
"-108.52","54.13","MEADOW LAKE A","4065063","2019-03-24 11:00","2019","03","24","11:00","-3.2","","-6.4","","79","","","M","3","","4","","","M","97.37","","","","-5","","NA"
"-108.52","54.13","MEADOW LAKE A","4065063","2019-03-24 12:00","2019","03","24","12:00","-1.7","","-5.3","","76","","","M","2","","6","","","M","97.36","","","","-4","","NA"
"-108.52","54.13","MEADOW LAKE A","4065063","2019-03-24 13:00","2019","03","24","13:00","-0.7","","-4.0","","79","","","M","5","","7","","","M","97.34","","","","-3","","NA"
"-108.52","54.13","MEADOW LAKE A","4065063","2019-03-24 14:00","2019","03","24","14:00","0.4","","-3.7","","74","","","M","2","","7","","","M","97.30","","","","","","NA"
"-108.52","54.13","MEADOW LAKE A","4065063","2019-03-24 15:00","2019","03","24","15:00","1.2","","-2.8","","75","","","M","36","","7","","","M","97.25","","","","","","NA"
"-108.52","54.13","MEADOW LAKE A","4065063","2019-03-24 16:00","2019","03","24","16:00","1.1","","-3.4","","72","","","M","36","","10","","","M","97.22","","","","","","NA"
"-108.52","54.13","MEADOW LAKE A","4065063","2019-03-24 17:00","2019","03","24","17:00","1.2","","-3.0","","74","","","M","35","","9","","","M","97.19","","","","","","NA"
"-108.52","54.13","MEADOW LAKE A","4065063","2019-03-24 18:00","2019","03","24","18:00","1.1","","-3.6","","71","","","M","35","","10","","","M","97.16","","","","","","NA"
"-108.52","54.13","MEADOW LAKE A","4065063","2019-03-24 19:00","2019","03","24","19:00","0.4","","-4.9","","68","","","M","33","","8","","","M","97.14","","","","","","NA"
"-108.52","54.13","MEADOW LAKE A","4065063","2019-03-24 20:00","2019","03","24","20:00","-1.0","","-5.5","","72","","","M","29","","9","","","M","97.15","","","","-4","","NA"
"-108.52","54.13","MEADOW LAKE A","4065063","2019-03-24 21:00","2019","03","24","21:00","-1.0","","-7.7","","61","","","M","25","","14","","","M","97.15","","","","-5","","NA"
"-108.52","54.13","MEADOW LAKE A","4065063","2019-03-24 22:00","2019","03","24","22:00","-2.4","","-4.6","","85","","","M","22","","8","","","M","97.13","","","","-6","","NA"
"-108.52","54.13","MEADOW LAKE A","4065063","2019-03-24 23:00","2019","03","24","23:00","-3.1","","-5.1","","86","","","M","23","","12","","","M","97.12","","","","-8","","NA"
"-108.52","54.13","MEADOW LAKE A","4065063","2019-03-25 00:00","2019","03","25","00:00","-3.5","","-5.2","","88","","","M","23","","9","","","M","97.10","","","","-7","","NA"
"-108.52","54.13","MEADOW LAKE A","4065063","2019-03-25 01:00","2019","03","25","01:00","-4.8","","-6.6","","87","","","M","17","","4","","","M","97.08","","","","-7","","NA"
"-108.52","54.13","MEADOW LAKE A","4065063","2019-03-25 02:00","2019","03","25","02:00","-6.8","","-7.9","","92","","","M","19","","3","","","M","97.06","","","","-8","","NA"
"-108.52","54.13","MEADOW LAKE A","4065063","2019-03-25 03:00","2019","03","25","03:00","-6.2","","-6.7","","96","","","M","24","","2","","","M","97.02","","","","-7","","NA"
"-108.52","54.13","MEADOW LAKE A","4065063","2019-03-25 04:00","2019","03","25","04:00","-5.3","","-6.9","","88","","","M","21","","9","","","M","96.96","","","","-9","","NA"
"-108.52","54.13","MEADOW LAKE A","4065063","2019-03-25 05:00","2019","03","25","05:00","-5.9","","-6.7","","94","","","M","20","","7","","","M","96.93","","","","-9","","NA"
"-108.52","54.13","MEADOW LAKE A","4065063","2019-03-25 06:00","2019","03","25","06:00","-5.9","","-7.1","","91","","","M","19","","5","","","M","96.89","","","","-8","","NA"
"-108.52","54.13","MEADOW LAKE A","4065063","2019-03-25 07:00","2019","03","25","07:00","-7.4","","-8.0","","95","","","M","15","","4","","","M","96.82","","","","-9","","NA"
"-108.52","54.13","MEADOW LAKE A","4065063","2019-03-25 08:00","2019","03","25","08:00","-7.4","","-8.1","","95","","","M","13","","4","","","M","96.81","","","","-9","","NA"
"-108.52","54.13","MEADOW LAKE A","4065063","2019-03-25 09:00","2019","03","25","09:00","-4.8","","-5.3","","97","","","M","12","","6","","","M","96.76","","","","-8","","NA"
"-108.52","54.13","MEADOW LAKE A","4065063","2019-03-25 10:00","2019","03","25","10:00","-3.3","","-5.8","","83","","","M","7","","5","","","M","96.70","","","","-5","","NA"
"-108.52","54.13","MEADOW LAKE A","4065063","2019-03-25 11:00","2019","03","25","11:00","-1.8","","-6.0","","73","","","M","6","","7","","","M","96.65","","","","-4","","NA"
"-108.52","54.13","MEADOW LAKE A","4065063","2019-03-25 12:00","2019","03","25","12:00","-0.2","","-5.4","","68","","","M","1","","6","","","M","96.58","","","","-2","","NA"
"-108.52","54.13","MEADOW LAKE A","4065063","2019-03-25 13:00","2019","03","25","13:00","1.4","","-3.3","","71","","","M","6","","10","","","M","96.47","","","","","","NA"
"-108.52","54.13","MEADOW LAKE A","4065063","2019-03-25 14:00","2019","03","25","14:00","2.8","","-1.6","","72","","","M","2","","4","","","M","96.36","","","","","","NA"
"-108.52","54.13","MEADOW LAKE A","4065063","2019-03-25 15:00","2019","03","25","15:00","3.3","","-1.4","","72","","","M","34","","9","","","M","96.27","","","","","","NA"
"-108.52","54.13","MEADOW LAKE A","4065063","2019-03-25 16:00","2019","03","25","16:00","5.1","","-1.9","","61","","","M","34","","3","","","M","96.21","","","","","","NA"
"-108.52","54.13","MEADOW LAKE A","4065063","2019-03-25 17:00","2019","03","25","17:00","3.7","","-1.3","","70","","","M","25","","14","","","M","96.14","","","","","","NA"
"-108.52","54.13","MEADOW LAKE A","4065063","2019-03-25 18:00","2019","03","25","18:00","3.0","","-1.8","","71","","","M","25","","17","","","M","96.09","","","","","","NA"
"-108.52","54.13","MEADOW LAKE A","4065063","2019-03-25 19:00","2019","03","25","19:00","2.3","","-2.1","","73","","","M","23","","14","","","M","96.06","","","","","","NA"
"-108.52","54.13","MEADOW LAKE A","4065063","2019-03-25 20:00","2019","03","25","20:00","1.8","","-2.5","","73","","","M","21","","18","","","M","95.98","","","","","","NA"
"-108.52","54.13","MEADOW LAKE A","4065063","2019-03-25 21:00","2019","03","25","21:00","1.0","","-3.0","","75","","","M","20","","12","","","M","95.91","","","","","","NA"
"-108.52","54.13","MEADOW LAKE A","4065063","2019-03-25 22:00","2019","03","25","22:00","1.7","","-3.0","","71","","","M","18","","12","","","M","95.84","","","","","","NA"
"-108.52","54.13","MEADOW LAKE A","4065063","2019-03-25 23:00","2019","03","25","23:00","1.8","","-2.7","","72","","","M","18","","17","","","M","95.77","","","","","","NA"
"-108.52","54.13","MEADOW LAKE A","4065063","2019-03-26 00:00","2019","03","26","00:00","1.2","","-1.7","","81","","","M","26","","7","","","M","95.77","","","","","","NA"
"-108.52","54.13","MEADOW LAKE A","4065063","2019-03-26 01:00","2019","03","26","01:00","0.6","","-0.9","","90","","","M","0","","1","","","M","95.73","","","","","","NA"
"-108.52","54.13","MEADOW LAKE A","4065063","2019-03-26 02:00","2019","03","26","02:00","1.0","","-1.5","","84","","","M","14","","7","","","M","95.61","","","","","","NA"
"-108.52","54.13","MEADOW LAKE A","4065063","2019-03-26 03:00","2019","03","26","03:00","1.5","","-1.6","","80","","","M","18","","6","","","M","95.55","","","","","","NA"
"-108.52","54.13","MEADOW LAKE A","4065063","2019-03-26 04:00","2019","03","26","04:00","1.3","","-1.0","","85","","","M","25","","10","","","M","95.55","","","","","","NA"
"-108.52","54.13","MEADOW LAKE A","4065063","2019-03-26 05:00","2019","03","26","05:00","1.0","","-0.6","","89","","","M","25","","9","","","M","95.47","","","","","","NA"
"-108.52","54.13","MEADOW LAKE A","4065063","2019-03-26 06:00","2019","03","26","06:00","1.0","","-0.8","","88","","","M","17","","1","","","M","95.40","","","","","","NA"
"-108.52","54.13","MEADOW LAKE A","4065063","2019-03-26 07:00","2019","03","26","07:00","0.7","","-0.7","","90","","","M","19","","3","","","M","95.39","","","","","","NA"
"-108.52","54.13","MEADOW LAKE A","4065063","2019-03-26 08:00","2019","03","26","08:00","0.6","","-0.7","","91","","","M","9","","1","","","M","95.34","","","","","","NA"
"-108.52","54.13","MEADOW LAKE A","4065063","2019-03-26 09:00","2019","03","26","09:00","1.6","","-0.4","","87","","","M","20","","3","","","M","95.31","","","","","","NA"
"-108.52","54.13","MEADOW LAKE A","4065063","2019-03-26 10:00","2019","03","26","10:00","2.1","","-0.1","","85","","","M","28","","5","","","M","95.32","","","","","","NA"
"-108.52","54.13","MEADOW LAKE A","4065063","2019-03-26 11:00","2019","03","26","11:00","2.3","","0.1","","86","","","M","35","","5","","","M","95.32","","","","","","NA"
"-108.52","54.13","MEADOW LAKE A","4065063","2019-03-26 12:00","2019","03","26","12:00","2.9","","0.7","","85","","","M","3","","5","","","M","95.29","","","","","","NA"
"-108.52","54.13","MEADOW LAKE A","4065063","2019-03-26 13:00","2019","03","26","13:00","3.0","","0.8","","85","","","M","36","","8","","","M","95.26","","","","","","NA"
"-108.52","54.13","MEADOW LAKE A","4065063","2019-03-26 14:00","2019","03","26","14:00","3.6","","0.5","","80","","","M","4","","5","","","M","95.21","","","","","","NA"
"-108.52","54.13","MEADOW LAKE A","4065063","2019-03-26 15:00","2019","03","26","15:00","3.6","","0.7","","82","","","M","5","","5","","","M","95.14","","","","","","NA"
"-108.52","54.13","MEADOW LAKE A","4065063","2019-03-26 16:00","2019","03","26","16:00","3.6","","1.1","","84","","","M","34","","4","","","M","95.13","","","","","","NA"
"-108.52","54.13","MEADOW LAKE A","4065063","2019-03-26 17:00","2019","03","26","17:00","2.8","","1.1","","88","","","M","33","","8","","","M","95.16","","","","","","NA"
"-108.52","54.13","MEADOW LAKE A","4065063","2019-03-26 18:00","2019","03","26","18:00","2.4","","1.0","","90","","","M","35","","7","","","M","95.17","","","","","","NA"
"-108.52","54.13","MEADOW LAKE A","4065063","2019-03-26 19:00","2019","03","26","19:00","2.4","","0.6","","88","","","M","33","","5","","","M","95.19","","","","","","NA"
"-108.52","54.13","MEADOW LAKE A","4065063","2019-03-26 20:00","2019","03","26","20:00","2.4","","0.7","","89","","","M","3","","3","","","M","95.19","","","","","","NA"
"-108.52","54.13","MEADOW LAKE A","4065063","2019-03-26 21:00","2019","03","26","21:00","1.5","","0.5","","93","","","M","33","","4","","","M","95.22","","","","","","NA"
"-108.52","54.13","MEADOW LAKE A","4065063","2019-03-26 22:00","2019","03","26","22:00","1.0","","0.5","","96","","","M","32","","12","","","M","95.26","","","","","","NA"
"-108.52","54.13","MEADOW LAKE A","4065063","2019-03-26 23:00","2019","03","26","23:00","0.7","","0.1","","96","","","M","34","","9","","","M","95.28","","","","","","NA"
"-108.52","54.13","MEADOW LAKE A","4065063","2019-03-27 00:00","2019","03","27","00:00","0.6","","0.2","","97","","","M","30","","9","","","M","95.33","","","","","","NA"
"-108.52","54.13","MEADOW LAKE A","4065063","2019-03-27 01:00","2019","03","27","01:00","0.4","","0.2","","98","","","M","26","","5","","","M","95.40","","","","","","NA"
"-108.52","54.13","MEADOW LAKE A","4065063","2019-03-27 02:00","2019","03","27","02:00","-0.1","","-0.2","","100","","","M","33","","15","","","M","95.46","","","","-5","","NA"
"-108.52","54.13","MEADOW LAKE A","4065063","2019-03-27 03:00","2019","03","27","03:00","0.1","","-1.0","","93","","","M","34","","17","","","M","95.53","","","","","","NA"
"-108.52","54.13","MEADOW LAKE A","4065063","2019-03-27 04:00","2019","03","27","04:00","1.1","","-1.1","","85","","","M","34","","22","","","M","95.60","","","","","","NA"
"-108.52","54.13","MEADOW LAKE A","4065063","2019-03-27 05:00","2019","03","27","05:00","0.8","","-1.3","","85","","","M","31","","13","","","M","95.69","","","","","","NA"
"-108.52","54.13","MEADOW LAKE A","4065063","2019-03-27 06:00","2019","03","27","06:00","1.1","","-1.6","","82","","","M","33","","21","","","M","95.78","","","","","","NA"
"-108.52","54.13","MEADOW LAKE A","4065063","2019-03-27 07:00","2019","03","27","07:00","0.8","","-2.2","","81","","","M","33","","21","","","M","95.85","","","","","","NA"
"-108.52","54.13","MEADOW LAKE A","4065063","2019-03-27 08:00","2019","03","27","08:00","0.6","","-3.4","","74","","","M","33","","21","","","M","95.93","","","","","","NA"
"-108.52","54.13","MEADOW LAKE A","4065063","2019-03-27 09:00","2019","03","27","09:00","0.7","","-3.7","","72","","","M","33","","17","","","M","95.98","","","","","","NA"
"-108.52","54.13","MEADOW LAKE A","4065063","2019-03-27 10:00","2019","03","27","10:00","1.1","","-4.2","","68","","","M","32","","21","","","M","96.02","","","","","","NA"
"-108.52","54.13","MEADOW LAKE A","4065063","2019-03-27 11:00","2019","03","27","11:00","1.2","","-4.2","","67","","","M","33","","16","","","M","96.07","","","","","","NA"
"-108.52","54.13","MEADOW LAKE A","4065063","2019-03-27 12:00","2019","03","27","12:00","1.8","","-3.9","","66","","","M","32","","18","","","M","96.10","","","","","","NA"
"-108.52","54.13","MEADOW LAKE A","4065063","2019-03-27 13:00","2019","03","27","13:00","1.9","","-4.8","","61","","","M","33","","25","","","M","96.12","","","","","","NA"
"-108.52","54.13","MEADOW LAKE A","4065063","2019-03-27 14:00","2019","03","27","14:00","2.3","","-5.0","","58","","","M","32","","24","","","M","96.15","","","","","","NA"
"-108.52","54.13","MEADOW LAKE A","4065063","2019-03-27 15:00","2019","03","27","15:00","2.5","","-4.2","","61","","","M","33","","19","","","M","96.18","","","","","","NA"
"-108.52","54.13","MEADOW LAKE A","4065063","2019-03-27 16:00","2019","03","27","16:00","2.2","","-4.3","","62","","","M","35","","22","","","M","96.21","","","","","","NA"
"-108.52","54.13","MEADOW LAKE A","4065063","2019-03-27 17:00","2019","03","27","17:00","2.4","","-4.1","","62","","","M","33","","13","","","M","96.20","","","","","","NA"
"-108.52","54.13","MEADOW LAKE A","4065063","2019-03-27 18:00","2019","03","27","18:00","2.3","","-5.2","","58","","","M","34","","18","","","M","96.25","","","","","","NA"
"-108.52","54.13","MEADOW LAKE A","4065063","2019-03-27 19:00","2019","03","27","19:00","1.4","","-5.0","","63","","","M","35","","16","","","M","96.31","","","","","","NA"
"-108.52","54.13","MEADOW LAKE A","4065063","2019-03-27 20:00","2019","03","27","20:00","-0.5","","-5.6","","68","","","M","36","","11","","","M","96.39","","","","-4","","NA"
"-108.52","54.13","MEADOW LAKE A","4065063","2019-03-27 21:00","2019","03","27","21:00","-1.9","","-6.5","","71","","","M","35","","13","","","M","96.47","","","","-6","","NA"
"-108.52","54.13","MEADOW LAKE A","4065063","2019-03-27 22:00","2019","03","27","22:00","-2.7","","-7.2","","72","","","M","32","","7","","","M","96.51","","","","-6","","NA"
"-108.52","54.13","MEADOW LAKE A","4065063","2019-03-27 23:00","2019","03","27","23:00","-3.3","","-8.2","","69","","","M","29","","10","","","M","96.58","","","","-7","","NA"
"-108.52","54.13","MEADOW LAKE A","4065063","2019-03-28 00:00","2019","03","28","00:00","-5.3","","-8.9","","76","","","M","2","","9","","","M","96.66","","","","-9","","NA"
"-108.52","54.13","MEADOW LAKE A","4065063","2019-03-28 01:00","2019","03","28","01:00","-3.7","","-7.7","","74","","","M","36","","6","","","M","96.72","","","","-6","","NA"
"-108.52","54.13","MEADOW LAKE A","4065063","2019-03-28 02:00","2019","03","28","02:00","-5.2","","-7.2","","86","","","M","22","","8","","","M","96.75","","","","-9","","NA"
"-108.52","54.13","MEADOW LAKE A","4065063","2019-03-28 03:00","2019","03","28","03:00","-5.8","","-7.3","","89","","","M","23","","10","","","M","96.76","","","","-10","","NA"
"-108.52","54.13","MEADOW LAKE A","4065063","2019-03-28 04:00","2019","03","28","04:00","-5.3","","-7.5","","84","","","M","24","","14","","","M","96.78","","","","-11","","NA"
"-108.52","54.13","MEADOW LAKE A","4065063","2019-03-28 05:00","2019","03","28","05:00","-4.6","","-8.0","","78","","","M","22","","4","","","M","96.77","","","","-6","","NA"
"-108.52","54.13","MEADOW LAKE A","4065063","2019-03-28 06:00","2019","03","28","06:00","-6.3","","-8.3","","86","","","M","21","","7","","","M","96.76","","","","-10","","NA"
"-108.52","54.13","MEADOW LAKE A","4065063","2019-03-28 07:00","2019","03","28","07:00","-6.2","","-8.2","","86","","","M","23","","12","","","M","96.74","","","","-11","","NA"
"-108.52","54.13","MEADOW LAKE A","4065063","2019-03-28 08:00","2019","03","28","08:00","-3.2","","-6.7","","77","","","M","24","","16","","","M","96.72","","","","-9","","NA"
"-108.52","54.13","MEADOW LAKE A","4065063","2019-03-28 09:00","2019","03","28","09:00","-1.0","","-5.7","","71","","","M","24","","15","","","M","96.71","","","","-6","","NA"
"-108.52","54.13","MEADOW LAKE A","4065063","2019-03-28 10:00","2019","03","28","10:00","0.6","","-5.7","","63","","","M","25","","22","","","M","96.69","","","","","","NA"
"-108.52","54.13","MEADOW LAKE A","4065063","2019-03-28 11:00","2019","03","28","11:00","2.1","","-4.7","","61","","","M","24","","30","","","M","96.63","","","","","","NA"
"-108.52","54.13","MEADOW LAKE A","4065063","2019-03-28 12:00","2019","03","28","12:00","3.2","","-3.6","","61","","","M","24","","26","","","M","96.58","","","","","","NA"
"-108.52","54.13","MEADOW LAKE A","4065063","2019-03-28 13:00","2019","03","28","13:00","4.6","","-2.8","","58","","","M","24","","25","","","M","96.47","","","","","","NA"
"-108.52","54.13","MEADOW LAKE A","4065063","2019-03-28 14:00","2019","03","28","14:00","5.8","","-2.6","","55","","","M","25","","23","","","M","96.37","","","","","","NA"
"-108.52","54.13","MEADOW LAKE A","4065063","2019-03-28 15:00","2019","03","28","15:00","6.6","","-3.1","","50","","","M","26","","29","","","M","96.30","","","","","","NA"
"-108.52","54.13","MEADOW LAKE A","4065063","2019-03-28 16:00","2019","03","28","16:00","6.0","","-3.1","","52","","","M","27","","30","","","M","96.23","","","","","","NA"
"-108.52","54.13","MEADOW LAKE A","4065063","2019-03-28 17:00","2019","03","28","17:00","5.6","","-2.5","","56","","","M","28","","25","","","M","96.20","","","","","","NA"
"-108.52","54.13","MEADOW LAKE A","4065063","2019-03-28 18:00","2019","03","28","18:00","5.7","","-2.5","","56","","","M","28","","27","","","M","96.18","","","","","","NA"
"-108.52","54.13","MEADOW LAKE A","4065063","2019-03-28 19:00","2019","03","28","19:00","5.1","","-2.1","","59","","","M","27","","22","","","M","96.15","","","","","","NA"
"-108.52","54.13","MEADOW LAKE A","4065063","2019-03-28 20:00","2019","03","28","20:00","4.1","","-1.9","","65","","","M","26","","18","","","M","96.14","","","","","","NA"
"-108.52","54.13","MEADOW LAKE A","4065063","2019-03-28 21:00","2019","03","28","21:00","4.1","","-2.0","","64","","","M","26","","20","","","M","96.15","","","","","","NA"
"-108.52","54.13","MEADOW LAKE A","4065063","2019-03-28 22:00","2019","03","28","22:00","3.4","","-2.0","","68","","","M","28","","18","","","M","96.20","","","","","","NA"
"-108.52","54.13","MEADOW LAKE A","4065063","2019-03-28 23:00","2019","03","28","23:00","2.6","","-1.6","","74","","","M","2","","14","","","M","96.30","","","","","","NA"
"-108.52","54.13","MEADOW LAKE A","4065063","2019-03-29 00:00","2019","03","29","00:00","1.7","","-2.6","","73","","","M","1","","24","","","M","96.40","","","","","","NA"
"-108.52","54.13","MEADOW LAKE A","4065063","2019-03-29 01:00","2019","03","29","01:00","0.7","","-4.3","","69","","","M","36","","24","","","M","96.48","","","","","","NA"
"-108.52","54.13","MEADOW LAKE A","4065063","2019-03-29 02:00","2019","03","29","02:00","-1.1","","-4.8","","76","","","M","31","","12","","","M","96.53","","","","-5","","NA"
"-108.52","54.13","MEADOW LAKE A","4065063","2019-03-29 03:00","2019","03","29","03:00","-1.6","","-5.3","","76","","","M","32","","15","","","M","96.57","","","","-6","","NA"
"-108.52","54.13","MEADOW LAKE A","4065063","2019-03-29 04:00","2019","03","29","04:00","-1.1","","-5.0","","75","","","M","31","","13","","","M","96.60","","","","-5","","NA"
"-108.52","54.13","MEADOW LAKE A","4065063","2019-03-29 05:00","2019","03","29","05:00","-1.0","","-5.3","","73","","","M","31","","14","","","M","96.63","","","","-5","","NA"
"-108.52","54.13","MEADOW LAKE A","4065063","2019-03-29 06:00","2019","03","29","06:00","-0.6","","-5.6","","69","","","M","36","","23","","","M","96.69","","","","-6","","NA"
"-108.52","54.13","MEADOW LAKE A","4065063","2019-03-29 07:00","2019","03","29","07:00","-1.1","","-4.5","","77","","","M","1","","18","","","M","96.77","","","","-6","","NA"
"-108.52","54.13","MEADOW LAKE A","4065063","2019-03-29 08:00","2019","03","29","08:00","-1.1","","-6.4","","67","","","M","36","","22","","","M","96.84","","","","-7","","NA"
"-108.52","54.13","MEADOW LAKE A","4065063","2019-03-29 09:00","2019","03","29","09:00","-0.9","","-6.1","","68","","","M","1","","22","","","M","96.90","","","","-7","","NA"
"-108.52","54.13","MEADOW LAKE A","4065063","2019-03-29 10:00","2019","03","29","10:00","-0.8","","-5.2","","72","","","M","4","","14","","","M","96.99","","","","-5","","NA"
"-108.52","54.13","MEADOW LAKE A","4065063","2019-03-29 11:00","2019","03","29","11:00","0.4","","-4.5","","69","","","M","1","","16","","","M","97.04","","","","","","NA"
"-108.52","54.13","MEADOW LAKE A","4065063","2019-03-29 12:00","2019","03","29","12:00","0.2","","-5.8","","64","","","M","34","","17","","","M","97.06","","","","","","NA"
"-108.52","54.13","MEADOW LAKE A","4065063","2019-03-29 13:00","2019","03","29","13:00","1.5","","-4.6","","64","","","M","1","","7","","","M","97.09","","","","","","NA"
"-108.52","54.13","MEADOW LAKE A","4065063","2019-03-29 14:00","2019","03","29","14:00","1.8","","-5.7","","58","","","M","33","","8","","","M","97.12","","","","","","NA"
"-108.52","54.13","MEADOW LAKE A","4065063","2019-03-29 15:00","2019","03","29","15:00","2.8","","-6.0","","52","","","M","1","","10","","","M","97.09","","","","","","NA"
"-108.52","54.13","MEADOW LAKE A","4065063","2019-03-29 16:00","2019","03","29","16:00","3.4","","-6.2","","49","","","M","30","","4","","","M","97.10","","","","","","NA"
"-108.52","54.13","MEADOW LAKE A","4065063","2019-03-29 17:00","2019","03","29","17:00","2.7","","-7.9","","46","","","M","25","","4","","","M","97.09","","","","","","NA"
"-108.52","54.13","MEADOW LAKE A","4065063","2019-03-29 18:00","2019","03","29","18:00","3.3","","-7.1","","46","","","M","19","","7","","","M","97.06","","","","","","NA"
"-108.52","54.13","MEADOW LAKE A","4065063","2019-03-29 19:00","2019","03","29","19:00","2.6","","-7.4","","48","","","M","15","","5","","","M","97.04","","","","","","NA"
"-108.52","54.13","MEADOW LAKE A","4065063","2019-03-29 20:00","2019","03","29","20:00","1.4","","-7.0","","54","","","M","19","","7","","","M","97.02","","","","","","NA"
"-108.52","54.13","MEADOW LAKE A","4065063","2019-03-29 21:00","2019","03","29","21:00","0.0","","-6.5","","62","","","M","23","","10","","","M","97.02","","","","-3","","NA"
"-108.52","54.13","MEADOW LAKE A","4065063","2019-03-29 22:00","2019","03","29","22:00","-2.1","","-6.7","","71","","","M","22","","9","","","M","97.00","","","","-6","","NA"
"-108.52","54.13","MEADOW LAKE A","4065063","2019-03-29 23:00","2019","03","29","23:00","-1.1","","-5.6","","72","","","M","22","","11","","","M","96.98","","","","-5","","NA"
"-108.52","54.13","MEADOW LAKE A","4065063","2019-03-30 00:00","2019","03","30","00:00","-1.1","","-5.4","","73","","","M","21","","10","","","M","96.94","","","","-5","","NA"
"-108.52","54.13","MEADOW LAKE A","4065063","2019-03-30 01:00","2019","03","30","01:00","-0.5","","-5.1","","72","","","M","23","","7","","","M","96.94","","","","-3","","NA"
"-108.52","54.13","MEADOW LAKE A","4065063","2019-03-30 02:00","2019","03","30","02:00","-0.5","","-5.7","","68","","","M","20","","9","","","M","96.86","","","","-4","","NA"
"-108.52","54.13","MEADOW LAKE A","4065063","2019-03-30 03:00","2019","03","30","03:00","-0.9","","-6.0","","69","","","M","18","","7","","","M","96.81","","","","-3","","NA"
"-108.52","54.13","MEADOW LAKE A","4065063","2019-03-30 04:00","2019","03","30","04:00","-0.7","","-5.2","","72","","","M","22","","13","","","M","96.74","","","","-5","","NA"
"-108.52","54.13","MEADOW LAKE A","4065063","2019-03-30 05:00","2019","03","30","05:00","0.4","","-4.6","","70","","","M","21","","10","","","M","96.70","","","","","","NA"
"-108.52","54.13","MEADOW LAKE A","4065063","2019-03-30 06:00","2019","03","30","06:00","0.3","","-4.6","","69","","","M","19","","9","","","M","96.62","","","","","","NA"
"-108.52","54.13","MEADOW LAKE A","4065063","2019-03-30 07:00","2019","03","30","07:00","0.5","","-4.0","","72","","","M","12","","8","","","M","96.56","","","","","","NA"
"-108.52","54.13","MEADOW LAKE A","4065063","2019-03-30 08:00","2019","03","30","08:00","0.8","","-3.8","","72","","","M","11","","8","","","M","96.53","","","","","","NA"
"-108.52","54.13","MEADOW LAKE A","4065063","2019-03-30 09:00","2019","03","30","09:00","0.5","","-2.6","","80","","","M","6","","5","","","M","96.51","","","","","","NA"
"-108.52","54.13","MEADOW LAKE A","4065063","2019-03-30 10:00","2019","03","30","10:00","3.7","","-2.7","","63","","","M","25","","16","","","M","96.46","","","","","","NA"
"-108.52","54.13","MEADOW LAKE A","4065063","2019-03-30 11:00","2019","03","30","11:00","3.9","","-2.9","","61","","","M","28","","17","","","M","96.46","","","","","","NA"
"-108.52","54.13","MEADOW LAKE A","4065063","2019-03-30 12:00","2019","03","30","12:00","5.2","","-1.8","","61","","","M","30","","13","","","M","96.50","","","","","","NA"
"-108.52","54.13","MEADOW LAKE A","4065063","2019-03-30 13:00","2019","03","30","13:00","6.2","","-1.4","","58","","","M","35","","10","","","M","96.51","","","","","","NA"
"-108.52","54.13","MEADOW LAKE A","4065063","2019-03-30 14:00","2019","03","30","14:00","7.8","","-1.0","","54","","","M","3","","7","","","M","96.54","","","","","","NA"
"-108.52","54.13","MEADOW LAKE A","4065063","2019-03-30 15:00","2019","03","30","15:00","7.3","","-0.5","","57","","","M","2","","26","","","M","96.60","","","","","","NA"
"-108.52","54.13","MEADOW LAKE A","4065063","2019-03-30 16:00","2019","03","30","16:00","5.4","","-2.0","","58","","","M","1","","27","","","M","96.67","","","","","","NA"
"-108.52","54.13","MEADOW LAKE A","4065063","2019-03-30 17:00","2019","03","30","17:00","4.6","","-1.9","","63","","","M","3","","17","","","M","96.76","","","","","","NA"
"-108.52","54.13","MEADOW LAKE A","4065063","2019-03-30 18:00","2019","03","30","18:00","3.7","","-2.8","","63","","","M","3","","20","","","M","96.83","","","","","","NA"
"-108.52","54.13","MEADOW LAKE A","4065063","2019-03-30 19:00","2019","03","30","19:00","2.5","","-3.5","","65","","","M","3","","20","","","M","96.88","","","","","","NA"
"-108.52","54.13","MEADOW LAKE A","4065063","2019-03-30 20:00","2019","03","30","20:00","1.8","","-3.0","","70","","","M","2","","15","","","M","96.94","","","","","","NA"
"-108.52","54.13","MEADOW LAKE A","4065063","2019-03-30 21:00","2019","03","30","21:00","1.3","","-3.5","","71","","","M","3","","13","","","M","97.00","","","","","","NA"
"-108.52","54.13","MEADOW LAKE A","4065063","2019-03-30 22:00","2019","03","30","22:00","0.9","","-3.6","","72","","","M","2","","12","","","M","97.02","","","","","","NA"
"-108.52","54.13","MEADOW LAKE A","4065063","2019-03-30 23:00","2019","03","30","23:00","0.3","","-3.1","","78","","","M","2","","8","","","M","97.06","","","","","","NA"
"-108.52","54.13","MEADOW LAKE A","4065063","2019-03-31 00:00","2019","03","31","00:00","0.2","","-3.3","","77","","","M","36","","7","","","M","97.07","","","","","","NA"
"-108.52","54.13","MEADOW LAKE A","4065063","2019-03-31 01:00","2019","03","31","01:00","0.3","","-4.2","","72","","","M","36","","18","","","M","97.09","","","","","","NA"
"-108.52","54.13","MEADOW LAKE A","4065063","2019-03-31 02:00","2019","03","31","02:00","-1.1","","-4.9","","75","","","M","3","","17","","","M","97.15","","","","-6","","NA"
"-108.52","54.13","MEADOW LAKE A","4065063","2019-03-31 03:00","2019","03","31","03:00","-1.6","","-5.5","","75","","","M","36","","11","","","M","97.16","","","","-5","","NA"
"-108.52","54.13","MEADOW LAKE A","4065063","2019-03-31 04:00","2019","03","31","04:00","-3.0","","-5.9","","80","","","M","33","","9","","","M","97.16","","","","-7","","NA"
"-108.52","54.13","MEADOW LAKE A","4065063","2019-03-31 05:00","2019","03","31","05:00","-2.7","","-6.7","","74","","","M","33","","12","","","M","97.19","","","","-7","","NA"
"-108.52","54.13","MEADOW LAKE A","4065063","2019-03-31 06:00","2019","03","31","06:00","-3.2","","-6.5","","78","","","M","34","","10","","","M","97.22","","","","-7","","NA"
"-108.52","54.13","MEADOW LAKE A","4065063","2019-03-31 07:00","2019","03","31","07:00","-3.3","","-6.5","","78","","","M","35","","10","","","M","97.25","","","","-7","","NA"
"-108.52","54.13","MEADOW LAKE A","4065063","2019-03-31 08:00","2019","03","31","08:00","-3.2","","-6.0","","81","","","M","33","","9","","","M","97.27","","","","-7","","NA"
"-108.52","54.13","MEADOW LAKE A","4065063","2019-03-31 09:00","2019","03","31","09:00","-2.6","","-6.3","","76","","","M","36","","10","","","M","97.26","","","","-6","","NA"
"-108.52","54.13","MEADOW LAKE A","4065063","2019-03-31 10:00","2019","03","31","10:00","-1.8","","-6.9","","68","","","M","2","","9","","","M","97.23","","","","-5","","NA"
"-108.52","54.13","MEADOW LAKE A","4065063","2019-03-31 11:00","2019","03","31","11:00","-1.5","","-8.7","","58","","","M","12","","3","","","M","97.20","","","","-3","","NA"
"-108.52","54.13","MEADOW LAKE A","4065063","2019-03-31 12:00","2019","03","31","12:00","-1.0","","-8.8","","56","","","M","31","","7","","","M","97.14","","","","-4","","NA"
"-108.52","54.13","MEADOW LAKE A","4065063","2019-03-31 13:00","2019","03","31","13:00","0.0","","-7.9","","56","","","M","24","","6","","","M","97.05","","","","-2","","NA"
"-108.52","54.13","MEADOW LAKE A","4065063","2019-03-31 14:00","2019","03","31","14:00","0.8","","-8.4","","50","","","M","5","","5","","","M","96.97","","","","","","NA"
"-108.52","54.13","MEADOW LAKE A","4065063","2019-03-31 15:00","2019","03","31","15:00","1.6","","-8.5","","47","","","M","27","","7","","","M","96.86","","","","","","NA"
"-108.52","54.13","MEADOW LAKE A","4065063","2019-03-31 16:00","2019","03","31","16:00","3.2","","-7.4","","46","","","M","25","","16","","","M","96.73","","","","","","NA"
"-108.52","54.13","MEADOW LAKE A","4065063","2019-03-31 17:00","2019","03","31","17:00","2.9","","-7.7","","46","","","M","24","","12","","","M","96.63","","","","","","NA"
"-108.52","54.13","MEADOW LAKE A","4065063","2019-03-31 18:00","2019","03","31","18:00","2.7","","-7.7","","47","","","M","25","","12","","","M","96.56","","","","","","NA"
"-108.52","54.13","MEADOW LAKE A","4065063","2019-03-31 19:00","2019","03","31","19:00","2.0","","-6.1","","55","","","M","22","","8","","","M","96.49","","","","","","NA"
"-108.52","54.13","MEADOW LAKE A","4065063","2019-03-31 20:00","2019","03","31","20:00","1.3","","-3.2","","72","","","M","25","","7","","","M","96.44","","","","","","NA"
"-108.52","54.13","MEADOW LAKE A","4065063","2019-03-31 21:00","2019","03","31","21:00","-0.5","","-3.7","","79","","","M","24","","8","","","M","96.39","","","","-3","","NA"
"-108.52","54.13","MEADOW LAKE A","4065063","2019-03-31 22:00","2019","03","31","22:00","-1.4","","-5.6","","73","","","M","24","","10","","","M","96.35","","","","-5","","NA"
"-108.52","54.13","MEADOW LAKE A","4065063","2019-03-31 23:00","2019","03","31","23:00","-1.3","","-5.4","","74","","","M","23","","15","","","M","96.26","","","","-6","","NA"
