"Longitude (x)","Latitude (y)","Station Name","Climate ID","Date/Time (LST)","Year","Month","Day","Time (LST)","Temp (°C)","Temp Flag","Dew Point Temp (°C)","Dew Point Temp Flag","Rel Hum (%)","Rel Hum Flag","Precip. Amount (mm)","Precip. Amount Flag","Wind Dir (10s deg)","Wind Dir Flag","Wind Spd (km/h)","Wind Spd Flag","Visibility (km)","Visibility Flag","Stn Press (kPa)","Stn Press Flag","Hmdx","Hmdx Flag","Wind Chill","Wind Chill Flag","Weather"
"-70.78","47.08","CAP-TOURMENTE","7041JG6","2012-02-01 00:00","2012","02","01","00:00","-7.4","","-10.6","","78","","","","5","","7","","","","101.71","","","","-11","","NA"
"-70.78","47.08","CAP-TOURMENTE","7041JG6","2012-02-01 01:00","2012","02","01","01:00","-7.4","","-10.6","","78","","","","12","","2","","","","101.66","","","","-8","","NA"
"-70.78","47.08","CAP-TOURMENTE","7041JG6","2012-02-01 02:00","2012","02","01","02:00","-7.3","","-10.5","","78","","","","2","","9","","","","101.56","","","","-12","","NA"
"-70.78","47.08","CAP-TOURMENTE","7041JG6","2012-02-01 03:00","2012","02","01","03:00","-7.2","","-10.0","","80","","","","5","","11","","","","101.50","","","","-12","","NA"
"-70.78","47.08","CAP-TOURMENTE","7041JG6","2012-02-01 04:00","2012","02","01","04:00","-7.0","","-10.0","","79","","","","3","","7","","","","101.41","","","","-11","","NA"
"-70.78","47.08","CAP-TOURMENTE","7041JG6","2012-02-01 05:00","2012","02","01","05:00","-7.0","","-9.5","","82","","","","4","","11","","","","101.30","","","","-12","","NA"
"-70.78","47.08","CAP-TOURMENTE","7041JG6","2012-02-01 06:00","2012","02","01","06:00","-7.1","","-9.6","","82","","","","5","","11","","","","101.22","","","","-12","","NA"
"-70.78","47.08","CAP-TOURMENTE","7041JG6","2012-02-01 07:00","2012","02","01","07:00","-6.8","","-10.0","","78","","","","4","","9","","","","101.14","","","","-11","","NA"
"-70.78","47.08","CAP-TOURMENTE","7041JG6","2012-02-01 08:00","2012","02","01","08:00","-7.0","","-9.6","","82","","","","6","","13","","","","101.11","","","","-13","","NA"
"-70.78","47.08","CAP-TOURMENTE","7041JG6","2012-02-01 09:00","2012","02","01","09:00","-6.9","","-9.9","","79","","","","5","","9","","","","101.10","","","","-11","","NA"
"-70.78","47.08","CAP-TOURMENTE","7041JG6","2012-02-01 10:00","2012","02","01","10:00","-6.8","","-10.0","","78","","","","7","","6","","","","101.08","","","","-10","","NA"
"-70.78","47.08","CAP-TOURMENTE","7041JG6","2012-02-01 11:00","2012","02","01","11:00","-6.6","","-10.7","","73","","","","7","","19","","","","101.05","","","","-13","","NA"
"-70.78","47.08","CAP-TOURMENTE","7041JG6","2012-02-01 12:00","2012","02","01","12:00","-6.7","","-10.3","","76","","","","8","","30","","","","100.97","","","","-15","","NA"
"-70.78","47.08","CAP-TOURMENTE","7041JG6","2012-02-01 13:00","2012","02","01","13:00","-6.7","","-9.6","","80","","","","7","","33","","","","100.86","","","","-16","","NA"
"-70.78","47.08","CAP-TOURMENTE","7041JG6","2012-02-01 14:00","2012","02","01","14:00","-6.4","","-9.4","","79","","","","7","","26","","","","100.92","","","","-14","","NA"
"-70.78","47.08","CAP-TOURMENTE","7041JG6","2012-02-01 15:00","2012","02","01","15:00","-6.3","","-9.7","","77","","","","8","","28","","","","100.92","","","","-14","","NA"
"-70.78","47.08","CAP-TOURMENTE","7041JG6","2012-02-01 16:00","2012","02","01","16:00","-6.3","","-9.9","","76","","","","7","","28","","","","100.98","","","","-14","","NA"
"-70.78","47.08","CAP-TOURMENTE","7041JG6","2012-02-01 17:00","2012","02","01","17:00","-6.3","","-10.3","","73","","","","7","","19","","","","101.08","","","","-13","","NA"
"-70.78","47.08","CAP-TOURMENTE","7041JG6","2012-02-01 18:00","2012","02","01","18:00","-6.5","","-10.9","","71","","","","6","","11","","","","101.15","","","","-11","","NA"
"-70.78","47.08","CAP-TOURMENTE","7041JG6","2012-02-01 19:00","2012","02","01","19:00","-6.3","","-11.3","","68","","","","6","","11","","","","101.23","","","","-11","","NA"
"-70.78","47.08","CAP-TOURMENTE","7041JG6","2012-02-01 20:00","2012","02","01","20:00","-6.5","","-11.0","","70","","","","7","","4","","","","101.31","","","","-8","","NA"
"-70.78","47.08","CAP-TOURMENTE","7041JG6","2012-02-01 21:00","2012","02","01","21:00","-6.5","","-11.4","","68","","","","16","","2","","","","101.40","","","","-7","","NA"
"-70.78","47.08","CAP-TOURMENTE","7041JG6","2012-02-01 22:00","2012","02","01","22:00","-6.6","","-12.1","","65","","","","5","","7","","","","101.48","","","","-10","","NA"
"-70.78","47.08","CAP-TOURMENTE","7041JG6","2012-02-01 23:00","2012","02","01","23:00","-7.2","","-11.4","","72","","","","1","","2","","","","101.58","","","","-8","","NA"
"-70.78","47.08","CAP-TOURMENTE","7041JG6","2012-02-02 00:00","2012","02","02","00:00","-7.1","","-12.1","","67","","","","15","","2","","","","101.63","","","","-8","","NA"
"-70.78","47.08","CAP-TOURMENTE","7041JG6","2012-02-02 01:00","2012","02","02","01:00","-7.2","","-12.4","","66","","","","35","","4","","","","101.68","","","","-9","","NA"
"-70.78","47.08","CAP-TOURMENTE","7041JG6","2012-02-02 02:00","2012","02","02","02:00","-7.4","","-12.5","","67","","","","14","","4","","","","101.78","","","","-9","","NA"
"-70.78","47.08","CAP-TOURMENTE","7041JG6","2012-02-02 03:00","2012","02","02","03:00","-7.6","","-12.5","","68","","","","10","","6","","","","101.80","","","","-11","","NA"
"-70.78","47.08","CAP-TOURMENTE","7041JG6","2012-02-02 04:00","2012","02","02","04:00","-8.0","","-12.8","","68","","","","25","","6","","","","101.89","","","","-11","","NA"
"-70.78","47.08","CAP-TOURMENTE","7041JG6","2012-02-02 05:00","2012","02","02","05:00","-8.9","","-12.5","","75","","","","30","","2","","","","101.99","","","","-10","","NA"
"-70.78","47.08","CAP-TOURMENTE","7041JG6","2012-02-02 06:00","2012","02","02","06:00","-8.7","","-12.4","","75","","","","36","","2","","","","102.07","","","","-10","","NA"
"-70.78","47.08","CAP-TOURMENTE","7041JG6","2012-02-02 07:00","2012","02","02","07:00","-8.3","","-12.7","","71","","","","21","","4","","","","102.12","","","","-10","","NA"
"-70.78","47.08","CAP-TOURMENTE","7041JG6","2012-02-02 08:00","2012","02","02","08:00","-8.0","","-13.6","","64","","","","34","","4","","","","102.19","","","","-10","","NA"
"-70.78","47.08","CAP-TOURMENTE","7041JG6","2012-02-02 09:00","2012","02","02","09:00","-7.7","","-13.2","","65","","","","7","","19","","","","102.17","","","","-15","","NA"
"-70.78","47.08","CAP-TOURMENTE","7041JG6","2012-02-02 10:00","2012","02","02","10:00","-7.5","","-12.1","","70","","","","8","","20","","","","102.20","","","","-15","","NA"
"-70.78","47.08","CAP-TOURMENTE","7041JG6","2012-02-02 11:00","2012","02","02","11:00","-7.8","","-12.2","","71","","","","9","","19","","","","102.23","","","","-15","","NA"
"-70.78","47.08","CAP-TOURMENTE","7041JG6","2012-02-02 12:00","2012","02","02","12:00","-7.3","","-11.4","","72","","","","8","","22","","","","102.21","","","","-15","","NA"
"-70.78","47.08","CAP-TOURMENTE","7041JG6","2012-02-02 13:00","2012","02","02","13:00","-7.4","","-11.3","","74","","","","9","","19","","","","102.21","","","","-14","","NA"
"-70.78","47.08","CAP-TOURMENTE","7041JG6","2012-02-02 14:00","2012","02","02","14:00","-7.2","","-10.2","","79","","","","9","","19","","","","102.18","","","","-14","","NA"
"-70.78","47.08","CAP-TOURMENTE","7041JG6","2012-02-02 15:00","2012","02","02","15:00","-7.4","","-10.3","","80","","","","9","","17","","","","102.21","","","","-14","","NA"
"-70.78","47.08","CAP-TOURMENTE","7041JG6","2012-02-02 16:00","2012","02","02","16:00","-7.3","","-10.3","","79","","","","9","","11","","","","102.26","","","","-12","","NA"
"-70.78","47.08","CAP-TOURMENTE","7041JG6","2012-02-02 17:00","2012","02","02","17:00","-9.0","","-11.2","","84","","","","29","","4","","","","102.30","","","","-11","","NA"
"-70.78","47.08","CAP-TOURMENTE","7041JG6","2012-02-02 18:00","2012","02","02","18:00","-10.7","","-12.9","","84","","","","32","","6","","","","102.37","","","","-14","","NA"
"-70.78","47.08","CAP-TOURMENTE","7041JG6","2012-02-02 19:00","2012","02","02","19:00","-11.7","","-13.6","","86","","","","33","","7","","","","102.41","","","","-16","","NA"
"-70.78","47.08","CAP-TOURMENTE","7041JG6","2012-02-02 20:00","2012","02","02","20:00","-11.4","","-13.1","","87","","","","32","","7","","","","102.43","","","","-16","","NA"
"-70.78","47.08","CAP-TOURMENTE","7041JG6","2012-02-02 21:00","2012","02","02","21:00","-9.5","","-12.4","","79","","","","35","","13","","","","102.45","","","","-16","","NA"
"-70.78","47.08","CAP-TOURMENTE","7041JG6","2012-02-02 22:00","2012","02","02","22:00","-10.3","","-13.3","","79","","","","32","","7","","","","102.49","","","","-14","","NA"
"-70.78","47.08","CAP-TOURMENTE","7041JG6","2012-02-02 23:00","2012","02","02","23:00","-10.7","","-13.7","","79","","","","31","","7","","","","102.51","","","","-15","","NA"
"-70.78","47.08","CAP-TOURMENTE","7041JG6","2012-02-03 00:00","2012","02","03","00:00","-10.7","","-14.3","","75","","","","34","","9","","","","102.51","","","","-16","","NA"
"-70.78","47.08","CAP-TOURMENTE","7041JG6","2012-02-03 01:00","2012","02","03","01:00","-11.7","","-15.6","","73","","","","34","","9","","","","102.53","","","","-17","","NA"
"-70.78","47.08","CAP-TOURMENTE","7041JG6","2012-02-03 02:00","2012","02","03","02:00","-11.2","","-15.9","","68","","","","34","","9","","","","102.55","","","","-16","","NA"
"-70.78","47.08","CAP-TOURMENTE","7041JG6","2012-02-03 03:00","2012","02","03","03:00","-12.0","","-16.6","","69","","","","32","","7","","","","102.58","","","","-16","","NA"
"-70.78","47.08","CAP-TOURMENTE","7041JG6","2012-02-03 04:00","2012","02","03","04:00","-12.7","","-16.7","","72","","","","33","","6","","","","102.60","","","","-17","","NA"
"-70.78","47.08","CAP-TOURMENTE","7041JG6","2012-02-03 05:00","2012","02","03","05:00","-14.2","","-17.6","","75","","","","29","","9","","","","102.67","","","","-20","","NA"
"-70.78","47.08","CAP-TOURMENTE","7041JG6","2012-02-03 06:00","2012","02","03","06:00","-15.6","","-18.1","","81","","","","33","","4","","","","102.73","","","","-19","","NA"
"-70.78","47.08","CAP-TOURMENTE","7041JG6","2012-02-03 07:00","2012","02","03","07:00","-17.1","","-19.0","","85","","","","26","","6","","","","102.74","","","","-22","","NA"
"-70.78","47.08","CAP-TOURMENTE","7041JG6","2012-02-03 08:00","2012","02","03","08:00","-14.7","","-17.7","","78","","","","26","","9","","","","102.77","","","","-20","","NA"
"-70.78","47.08","CAP-TOURMENTE","7041JG6","2012-02-03 09:00","2012","02","03","09:00","-13.9","","-18.3","","69","","","","25","","7","","","","102.77","","","","-19","","NA"
"-70.78","47.08","CAP-TOURMENTE","7041JG6","2012-02-03 10:00","2012","02","03","10:00","-12.0","","-15.2","","77","","","","24","","9","","","","102.77","","","","-17","","NA"
"-70.78","47.08","CAP-TOURMENTE","7041JG6","2012-02-03 11:00","2012","02","03","11:00","-10.7","","-14.3","","75","","","","24","","9","","","","102.72","","","","-16","","NA"
"-70.78","47.08","CAP-TOURMENTE","7041JG6","2012-02-03 12:00","2012","02","03","12:00","-9.7","","-13.9","","71","","","","23","","11","","","","102.62","","","","-15","","NA"
"-70.78","47.08","CAP-TOURMENTE","7041JG6","2012-02-03 13:00","2012","02","03","13:00","-8.2","","-13.0","","68","","","","26","","11","","","","102.52","","","","-13","","NA"
"-70.78","47.08","CAP-TOURMENTE","7041JG6","2012-02-03 14:00","2012","02","03","14:00","-6.4","","-11.5","","67","","","","26","","9","","","","102.47","","","","-11","","NA"
"-70.78","47.08","CAP-TOURMENTE","7041JG6","2012-02-03 15:00","2012","02","03","15:00","-6.0","","-10.8","","69","","","","25","","11","","","","102.43","","","","-11","","NA"
"-70.78","47.08","CAP-TOURMENTE","7041JG6","2012-02-03 16:00","2012","02","03","16:00","-6.1","","-10.5","","71","","","","26","","13","","","","102.39","","","","-11","","NA"
"-70.78","47.08","CAP-TOURMENTE","7041JG6","2012-02-03 17:00","2012","02","03","17:00","-6.5","","-10.5","","73","","","","27","","11","","","","102.34","","","","-11","","NA"
"-70.78","47.08","CAP-TOURMENTE","7041JG6","2012-02-03 18:00","2012","02","03","18:00","-6.3","","-10.2","","74","","","","27","","13","","","","102.32","","","","-12","","NA"
"-70.78","47.08","CAP-TOURMENTE","7041JG6","2012-02-03 19:00","2012","02","03","19:00","-6.0","","-10.0","","73","","","","27","","9","","","","102.30","","","","-10","","NA"
"-70.78","47.08","CAP-TOURMENTE","7041JG6","2012-02-03 20:00","2012","02","03","20:00","-6.0","","-9.4","","77","","","","27","","2","","","","102.26","","","","-7","","NA"
"-70.78","47.08","CAP-TOURMENTE","7041JG6","2012-02-03 21:00","2012","02","03","21:00","-5.9","","-9.3","","77","","","","26","","6","","","","102.24","","","","-9","","NA"
"-70.78","47.08","CAP-TOURMENTE","7041JG6","2012-02-03 22:00","2012","02","03","22:00","-6.3","","-9.4","","79","","","","15","","2","","","","102.19","","","","-7","","NA"
"-70.78","47.08","CAP-TOURMENTE","7041JG6","2012-02-03 23:00","2012","02","03","23:00","-6.4","","-9.2","","80","","","","9","","4","","","","102.10","","","","-8","","NA"
"-70.78","47.08","CAP-TOURMENTE","7041JG6","2012-02-04 00:00","2012","02","04","00:00","-6.7","","-9.2","","82","","","","30","","6","","","","102.11","","","","-10","","NA"
"-70.78","47.08","CAP-TOURMENTE","7041JG6","2012-02-04 01:00","2012","02","04","01:00","-8.4","","-10.1","","88","","","","31","","4","","","","102.10","","","","-11","","NA"
"-70.78","47.08","CAP-TOURMENTE","7041JG6","2012-02-04 02:00","2012","02","04","02:00","-8.6","","-10.8","","84","","","","31","","2","","","","102.06","","","","-10","","NA"
"-70.78","47.08","CAP-TOURMENTE","7041JG6","2012-02-04 03:00","2012","02","04","03:00","-8.2","","-11.0","","80","","","","30","","4","","","","102.05","","","","-10","","NA"
"-70.78","47.08","CAP-TOURMENTE","7041JG6","2012-02-04 04:00","2012","02","04","04:00","-8.5","","-12.5","","73","","","","35","","7","","","","102.07","","","","-12","","NA"
"-70.78","47.08","CAP-TOURMENTE","7041JG6","2012-02-04 05:00","2012","02","04","05:00","-8.9","","-12.3","","76","","","","30","","6","","","","102.09","","","","-12","","NA"
"-70.78","47.08","CAP-TOURMENTE","7041JG6","2012-02-04 06:00","2012","02","04","06:00","-6.6","","-12.7","","62","","","","26","","9","","","","102.11","","","","-11","","NA"
"-70.78","47.08","CAP-TOURMENTE","7041JG6","2012-02-04 07:00","2012","02","04","07:00","-6.8","","-14.5","","54","","","","1","","17","","","","102.16","","","","-13","","NA"
"-70.78","47.08","CAP-TOURMENTE","7041JG6","2012-02-04 08:00","2012","02","04","08:00","-7.1","","-15.0","","53","","","","1","","19","","","","102.24","","","","-14","","NA"
"-70.78","47.08","CAP-TOURMENTE","7041JG6","2012-02-04 09:00","2012","02","04","09:00","-6.1","","-15.1","","49","","","","36","","17","","","","102.25","","","","-12","","NA"
"-70.78","47.08","CAP-TOURMENTE","7041JG6","2012-02-04 10:00","2012","02","04","10:00","-4.9","","-15.1","","45","","","","2","","11","","","","102.26","","","","-9","","NA"
"-70.78","47.08","CAP-TOURMENTE","7041JG6","2012-02-04 11:00","2012","02","04","11:00","-3.8","","-14.9","","42","","","","1","","6","","","","102.21","","","","-6","","NA"
"-70.78","47.08","CAP-TOURMENTE","7041JG6","2012-02-04 12:00","2012","02","04","12:00","-4.8","","-11.8","","58","","","","14","","9","","","","102.15","","","","-9","","NA"
"-70.78","47.08","CAP-TOURMENTE","7041JG6","2012-02-04 13:00","2012","02","04","13:00","-4.7","","-12.8","","53","","","","14","","6","","","","102.11","","","","-7","","NA"
"-70.78","47.08","CAP-TOURMENTE","7041JG6","2012-02-04 14:00","2012","02","04","14:00","-4.2","","-12.5","","52","","","","20","","6","","","","102.06","","","","-7","","NA"
"-70.78","47.08","CAP-TOURMENTE","7041JG6","2012-02-04 15:00","2012","02","04","15:00","-4.5","","-11.1","","60","","","","20","","6","","","","102.02","","","","-7","","NA"
"-70.78","47.08","CAP-TOURMENTE","7041JG6","2012-02-04 16:00","2012","02","04","16:00","-3.9","","-12.2","","52","","","","35","","2","","","","102.01","","","","-5","","NA"
"-70.78","47.08","CAP-TOURMENTE","7041JG6","2012-02-04 17:00","2012","02","04","17:00","-6.4","","-14.8","","51","","","","34","","7","","","","102.04","","","","-10","","NA"
"-70.78","47.08","CAP-TOURMENTE","7041JG6","2012-02-04 18:00","2012","02","04","18:00","-7.7","","-16.4","","50","","","","1","","9","","","","102.11","","","","-12","","NA"
"-70.78","47.08","CAP-TOURMENTE","7041JG6","2012-02-04 19:00","2012","02","04","19:00","-8.6","","-17.0","","51","","","","36","","19","","","","102.16","","","","-16","","NA"
"-70.78","47.08","CAP-TOURMENTE","7041JG6","2012-02-04 20:00","2012","02","04","20:00","-9.3","","-17.4","","52","","","","1","","20","","","","102.20","","","","-17","","NA"
"-70.78","47.08","CAP-TOURMENTE","7041JG6","2012-02-04 21:00","2012","02","04","21:00","-10.1","","-17.6","","54","","","","36","","19","","","","102.19","","","","-18","","NA"
"-70.78","47.08","CAP-TOURMENTE","7041JG6","2012-02-04 22:00","2012","02","04","22:00","-10.9","","-18.0","","56","","","","36","","13","","","","102.15","","","","-17","","NA"
"-70.78","47.08","CAP-TOURMENTE","7041JG6","2012-02-04 23:00","2012","02","04","23:00","-12.4","","-18.5","","60","","","","2","","7","","","","102.13","","","","-17","","NA"
"-70.78","47.08","CAP-TOURMENTE","7041JG6","2012-02-05 00:00","2012","02","05","00:00","-14.4","","-19.1","","67","","","","34","","7","","","","102.12","","","","-19","","NA"
"-70.78","47.08","CAP-TOURMENTE","7041JG6","2012-02-05 01:00","2012","02","05","01:00","-13.3","","-19.2","","61","","","","34","","13","","","","102.07","","","","-20","","NA"
"-70.78","47.08","CAP-TOURMENTE","7041JG6","2012-02-05 02:00","2012","02","05","02:00","-13.4","","-19.5","","60","","","","36","","13","","","","102.07","","","","-20","","NA"
"-70.78","47.08","CAP-TOURMENTE","7041JG6","2012-02-05 03:00","2012","02","05","03:00","-13.4","","-19.7","","59","","","","30","","7","","","","102.06","","","","-18","","NA"
"-70.78","47.08","CAP-TOURMENTE","7041JG6","2012-02-05 04:00","2012","02","05","04:00","-17.8","","-21.5","","73","","","","33","","4","","","","102.09","","","","-21","","NA"
"-70.78","47.08","CAP-TOURMENTE","7041JG6","2012-02-05 05:00","2012","02","05","05:00","-19.2","","-23.2","","71","","","","34","","4","","","","102.09","","","","-23","","NA"
"-70.78","47.08","CAP-TOURMENTE","7041JG6","2012-02-05 06:00","2012","02","05","06:00","-15.9","","-20.6","","67","","","","29","","7","","","","102.09","","","","-21","","NA"
"-70.78","47.08","CAP-TOURMENTE","7041JG6","2012-02-05 07:00","2012","02","05","07:00","-17.1","","-20.0","","78","","","","27","","11","","","","102.06","","","","-24","","NA"
"-70.78","47.08","CAP-TOURMENTE","7041JG6","2012-02-05 08:00","2012","02","05","08:00","-16.3","","-20.1","","72","","","","25","","6","","","","102.11","","","","-21","","NA"
"-70.78","47.08","CAP-TOURMENTE","7041JG6","2012-02-05 09:00","2012","02","05","09:00","-14.9","","-19.4","","68","","","","24","","9","","","","102.10","","","","-21","","NA"
"-70.78","47.08","CAP-TOURMENTE","7041JG6","2012-02-05 10:00","2012","02","05","10:00","-13.8","","-18.2","","69","","","","24","","9","","","","102.06","","","","-19","","NA"
"-70.78","47.08","CAP-TOURMENTE","7041JG6","2012-02-05 11:00","2012","02","05","11:00","-12.4","","-17.1","","68","","","","24","","11","","","","101.98","","","","-18","","NA"
"-70.78","47.08","CAP-TOURMENTE","7041JG6","2012-02-05 12:00","2012","02","05","12:00","-10.6","","-15.7","","66","","","","24","","11","","","","101.86","","","","-16","","NA"
"-70.78","47.08","CAP-TOURMENTE","7041JG6","2012-02-05 13:00","2012","02","05","13:00","-8.8","","-14.6","","63","","","","23","","9","","","","101.73","","","","-13","","NA"
"-70.78","47.08","CAP-TOURMENTE","7041JG6","2012-02-05 14:00","2012","02","05","14:00","-7.5","","-14.5","","57","","","","26","","15","","","","101.67","","","","-14","","NA"
"-70.78","47.08","CAP-TOURMENTE","7041JG6","2012-02-05 15:00","2012","02","05","15:00","-7.6","","-13.6","","62","","","","26","","13","","","","101.58","","","","-13","","NA"
"-70.78","47.08","CAP-TOURMENTE","7041JG6","2012-02-05 16:00","2012","02","05","16:00","-7.9","","-13.0","","67","","","","27","","13","","","","101.49","","","","-14","","NA"
"-70.78","47.08","CAP-TOURMENTE","7041JG6","2012-02-05 17:00","2012","02","05","17:00","-7.8","","-12.6","","68","","","","25","","20","","","","101.41","","","","-15","","NA"
"-70.78","47.08","CAP-TOURMENTE","7041JG6","2012-02-05 18:00","2012","02","05","18:00","-8.0","","-12.8","","68","","","","25","","22","","","","101.41","","","","-16","","NA"
"-70.78","47.08","CAP-TOURMENTE","7041JG6","2012-02-05 19:00","2012","02","05","19:00","-8.4","","-13.0","","69","","","","24","","15","","","","101.38","","","","-15","","NA"
"-70.78","47.08","CAP-TOURMENTE","7041JG6","2012-02-05 20:00","2012","02","05","20:00","-8.3","","-11.2","","80","","","","26","","15","","","","101.31","","","","-15","","NA"
"-70.78","47.08","CAP-TOURMENTE","7041JG6","2012-02-05 21:00","2012","02","05","21:00","-8.2","","-10.7","","82","","","","25","","17","","","","101.20","","","","-15","","NA"
"-70.78","47.08","CAP-TOURMENTE","7041JG6","2012-02-05 22:00","2012","02","05","22:00","-7.8","","-10.4","","82","","","","26","","15","","","","101.04","","","","-14","","NA"
"-70.78","47.08","CAP-TOURMENTE","7041JG6","2012-02-05 23:00","2012","02","05","23:00","-7.6","","-9.4","","87","","","","26","","15","","","","100.95","","","","-14","","NA"
"-70.78","47.08","CAP-TOURMENTE","7041JG6","2012-02-06 00:00","2012","02","06","00:00","-6.9","","-8.9","","86","","","","26","","15","","","","100.81","","","","-13","","NA"
"-70.78","47.08","CAP-TOURMENTE","7041JG6","2012-02-06 01:00","2012","02","06","01:00","-6.3","","-8.1","","87","","","","27","","13","","","","100.68","","","","-12","","NA"
"-70.78","47.08","CAP-TOURMENTE","7041JG6","2012-02-06 02:00","2012","02","06","02:00","-5.3","","-7.1","","87","","","","26","","13","","","","100.64","","","","-10","","NA"
"-70.78","47.08","CAP-TOURMENTE","7041JG6","2012-02-06 03:00","2012","02","06","03:00","-4.1","","-6.1","","86","","","","25","","13","","","","100.55","","","","-9","","NA"
"-70.78","47.08","CAP-TOURMENTE","7041JG6","2012-02-06 04:00","2012","02","06","04:00","-3.9","","-5.1","","91","","","","26","","11","","","","100.50","","","","-8","","NA"
"-70.78","47.08","CAP-TOURMENTE","7041JG6","2012-02-06 05:00","2012","02","06","05:00","-2.6","","-5.0","","84","","","","26","","15","","","","100.46","","","","-8","","NA"
"-70.78","47.08","CAP-TOURMENTE","7041JG6","2012-02-06 06:00","2012","02","06","06:00","-2.0","","-4.5","","83","","","","25","","20","","","","100.46","","","","-8","","NA"
"-70.78","47.08","CAP-TOURMENTE","7041JG6","2012-02-06 07:00","2012","02","06","07:00","-1.6","","-4.0","","84","","","","25","","19","","","","100.42","","","","-7","","NA"
"-70.78","47.08","CAP-TOURMENTE","7041JG6","2012-02-06 08:00","2012","02","06","08:00","-1.1","","-3.8","","82","","","","25","","20","","","","100.44","","","","-7","","NA"
"-70.78","47.08","CAP-TOURMENTE","7041JG6","2012-02-06 09:00","2012","02","06","09:00","-0.6","","-3.3","","82","","","","25","","19","","","","100.43","","","","-6","","NA"
"-70.78","47.08","CAP-TOURMENTE","7041JG6","2012-02-06 10:00","2012","02","06","10:00","0.0","","-3.1","","80","","","","25","","19","","","","100.39","","","","-5","","NA"
"-70.78","47.08","CAP-TOURMENTE","7041JG6","2012-02-06 11:00","2012","02","06","11:00","0.5","","-2.8","","78","","","","25","","20","","","","100.35","","","","","","NA"
"-70.78","47.08","CAP-TOURMENTE","7041JG6","2012-02-06 12:00","2012","02","06","12:00","0.9","","-2.4","","79","","","","25","","22","","","","100.30","","","","","","NA"
"-70.78","47.08","CAP-TOURMENTE","7041JG6","2012-02-06 13:00","2012","02","06","13:00","1.0","","-2.2","","79","","","","25","","19","","","","100.22","","","","","","NA"
"-70.78","47.08","CAP-TOURMENTE","7041JG6","2012-02-06 14:00","2012","02","06","14:00","1.5","","-2.3","","76","","","","25","","17","","","","100.24","","","","","","NA"
"-70.78","47.08","CAP-TOURMENTE","7041JG6","2012-02-06 15:00","2012","02","06","15:00","1.7","","-2.6","","73","","","","25","","17","","","","100.25","","","","","","NA"
"-70.78","47.08","CAP-TOURMENTE","7041JG6","2012-02-06 16:00","2012","02","06","16:00","1.5","","-2.5","","75","","","","25","","15","","","","100.30","","","","","","NA"
"-70.78","47.08","CAP-TOURMENTE","7041JG6","2012-02-06 17:00","2012","02","06","17:00","1.3","","-2.6","","75","","","","26","","11","","","","100.38","","","","","","NA"
"-70.78","47.08","CAP-TOURMENTE","7041JG6","2012-02-06 18:00","2012","02","06","18:00","1.3","","-2.3","","77","","","","25","","15","","","","100.46","","","","","","NA"
"-70.78","47.08","CAP-TOURMENTE","7041JG6","2012-02-06 19:00","2012","02","06","19:00","0.9","","-2.1","","80","","","","28","","7","","","","100.49","","","","","","NA"
"-70.78","47.08","CAP-TOURMENTE","7041JG6","2012-02-06 20:00","2012","02","06","20:00","0.8","","-2.4","","79","","","","29","","4","","","","100.50","","","","","","NA"
"-70.78","47.08","CAP-TOURMENTE","7041JG6","2012-02-06 21:00","2012","02","06","21:00","1.3","","-2.7","","75","","","","28","","6","","","","100.56","","","","","","NA"
"-70.78","47.08","CAP-TOURMENTE","7041JG6","2012-02-06 22:00","2012","02","06","22:00","1.2","","-3.0","","74","","","","28","","7","","","","100.61","","","","","","NA"
"-70.78","47.08","CAP-TOURMENTE","7041JG6","2012-02-06 23:00","2012","02","06","23:00","-0.4","","-4.3","","75","","","","30","","6","","","","100.68","","","","-2","","NA"
"-70.78","47.08","CAP-TOURMENTE","7041JG6","2012-02-07 00:00","2012","02","07","00:00","-0.4","","-6.6","","63","","","","28","","6","","","","100.73","","","","-2","","NA"
"-70.78","47.08","CAP-TOURMENTE","7041JG6","2012-02-07 01:00","2012","02","07","01:00","-1.3","","-9.7","","53","","","","3","","6","","","","100.85","","","","-4","","NA"
"-70.78","47.08","CAP-TOURMENTE","7041JG6","2012-02-07 02:00","2012","02","07","02:00","-2.2","","-10.5","","53","","","","28","","9","","","","100.96","","","","-6","","NA"
"-70.78","47.08","CAP-TOURMENTE","7041JG6","2012-02-07 03:00","2012","02","07","03:00","-5.5","","-9.6","","73","","","","32","","6","","","","101.04","","","","-8","","NA"
"-70.78","47.08","CAP-TOURMENTE","7041JG6","2012-02-07 04:00","2012","02","07","04:00","-4.4","","-11.7","","57","","","","31","","7","","","","101.12","","","","-8","","NA"
"-70.78","47.08","CAP-TOURMENTE","7041JG6","2012-02-07 05:00","2012","02","07","05:00","-5.2","","-12.4","","57","","","","31","","9","","","","101.23","","","","-9","","NA"
"-70.78","47.08","CAP-TOURMENTE","7041JG6","2012-02-07 06:00","2012","02","07","06:00","-7.0","","-13.1","","62","","","","28","","13","","","","101.34","","","","-13","","NA"
"-70.78","47.08","CAP-TOURMENTE","7041JG6","2012-02-07 07:00","2012","02","07","07:00","-7.0","","-14.6","","55","","","","29","","9","","","","101.43","","","","-11","","NA"
"-70.78","47.08","CAP-TOURMENTE","7041JG6","2012-02-07 08:00","2012","02","07","08:00","-7.1","","-15.8","","50","","","","27","","7","","","","101.55","","","","-11","","NA"
"-70.78","47.08","CAP-TOURMENTE","7041JG6","2012-02-07 09:00","2012","02","07","09:00","-6.4","","-16.3","","45","","","","32","","7","","","","101.61","","","","-10","","NA"
"-70.78","47.08","CAP-TOURMENTE","7041JG6","2012-02-07 10:00","2012","02","07","10:00","-6.3","","-17.9","","39","","","","33","","13","","","","101.68","","","","-12","","NA"
"-70.78","47.08","CAP-TOURMENTE","7041JG6","2012-02-07 11:00","2012","02","07","11:00","-5.5","","-17.9","","37","","","","34","","9","","","","101.70","","","","-10","","NA"
"-70.78","47.08","CAP-TOURMENTE","7041JG6","2012-02-07 12:00","2012","02","07","12:00","-4.4","","-17.8","","34","","","","25","","7","","","","101.66","","","","-8","","NA"
"-70.78","47.08","CAP-TOURMENTE","7041JG6","2012-02-07 13:00","2012","02","07","13:00","-4.3","","-18.5","","32","","","","28","","9","","","","101.68","","","","-8","","NA"
"-70.78","47.08","CAP-TOURMENTE","7041JG6","2012-02-07 14:00","2012","02","07","14:00","-4.5","","-18.5","","33","","","","27","","6","","","","101.74","","","","-7","","NA"
"-70.78","47.08","CAP-TOURMENTE","7041JG6","2012-02-07 15:00","2012","02","07","15:00","-5.5","","-17.4","","39","","","","25","","9","","","","101.83","","","","-10","","NA"
"-70.78","47.08","CAP-TOURMENTE","7041JG6","2012-02-07 16:00","2012","02","07","16:00","-6.1","","-18.4","","37","","","","30","","9","","","","101.91","","","","-10","","NA"
"-70.78","47.08","CAP-TOURMENTE","7041JG6","2012-02-07 17:00","2012","02","07","17:00","-7.8","","-18.3","","43","","","","29","","6","","","","101.99","","","","-11","","NA"
"-70.78","47.08","CAP-TOURMENTE","7041JG6","2012-02-07 18:00","2012","02","07","18:00","-11.3","","-17.1","","62","","","","32","","6","","","","102.11","","","","-15","","NA"
"-70.78","47.08","CAP-TOURMENTE","7041JG6","2012-02-07 19:00","2012","02","07","19:00","-11.8","","-19.1","","55","","","","25","","9","","","","102.17","","","","-17","","NA"
"-70.78","47.08","CAP-TOURMENTE","7041JG6","2012-02-07 20:00","2012","02","07","20:00","-12.7","","-19.3","","58","","","","34","","2","","","","102.20","","","","-14","","NA"
"-70.78","47.08","CAP-TOURMENTE","7041JG6","2012-02-07 21:00","2012","02","07","21:00","-15.3","","-20.4","","65","","","","33","","6","","","","102.23","","","","-20","","NA"
"-70.78","47.08","CAP-TOURMENTE","7041JG6","2012-02-07 22:00","2012","02","07","22:00","-15.2","","-21.6","","58","","","","31","","7","","","","102.28","","","","-20","","NA"
"-70.78","47.08","CAP-TOURMENTE","7041JG6","2012-02-07 23:00","2012","02","07","23:00","-15.3","","-22.3","","55","","","","32","","11","","","","102.24","","","","-22","","NA"
"-70.78","47.08","CAP-TOURMENTE","7041JG6","2012-02-08 00:00","2012","02","08","00:00","-13.7","","-21.7","","51","","","","28","","15","","","","102.31","","","","-21","","NA"
"-70.78","47.08","CAP-TOURMENTE","7041JG6","2012-02-08 01:00","2012","02","08","01:00","-17.0","","-21.8","","66","","","","32","","6","","","","102.29","","","","-22","","NA"
"-70.78","47.08","CAP-TOURMENTE","7041JG6","2012-02-08 02:00","2012","02","08","02:00","-18.2","","-22.3","","70","","","","32","","4","","","","102.26","","","","-21","","NA"
"-70.78","47.08","CAP-TOURMENTE","7041JG6","2012-02-08 03:00","2012","02","08","03:00","-16.5","","-22.3","","61","","","","28","","6","","","","102.26","","","","-21","","NA"
"-70.78","47.08","CAP-TOURMENTE","7041JG6","2012-02-08 04:00","2012","02","08","04:00","-15.3","","-21.4","","60","","","","27","","15","","","","102.18","","","","-23","","NA"
"-70.78","47.08","CAP-TOURMENTE","7041JG6","2012-02-08 05:00","2012","02","08","05:00","-15.6","","-21.9","","58","","","","28","","11","","","","102.16","","","","-22","","NA"
"-70.78","47.08","CAP-TOURMENTE","7041JG6","2012-02-08 06:00","2012","02","08","06:00","-15.4","","-21.4","","60","","","","29","","13","","","","102.12","","","","-23","","NA"
"-70.78","47.08","CAP-TOURMENTE","7041JG6","2012-02-08 07:00","2012","02","08","07:00","-15.8","","-20.6","","67","","","","29","","2","","","","102.14","","","","-17","","NA"
"-70.78","47.08","CAP-TOURMENTE","7041JG6","2012-02-08 08:00","2012","02","08","08:00","-14.0","","-19.6","","63","","","","24","","19","","","","102.12","","","","-23","","NA"
"-70.78","47.08","CAP-TOURMENTE","7041JG6","2012-02-08 09:00","2012","02","08","09:00","-12.3","","-19.2","","56","","","","26","","17","","","","102.06","","","","-20","","NA"
"-70.78","47.08","CAP-TOURMENTE","7041JG6","2012-02-08 10:00","2012","02","08","10:00","-11.5","","-18.1","","58","","","","24","","22","","","","102.04","","","","-20","","NA"
"-70.78","47.08","CAP-TOURMENTE","7041JG6","2012-02-08 11:00","2012","02","08","11:00","-9.9","","-18.0","","52","","","","25","","19","","","","101.92","","","","-18","","NA"
"-70.78","47.08","CAP-TOURMENTE","7041JG6","2012-02-08 12:00","2012","02","08","12:00","-8.1","","-17.5","","47","","","","24","","28","","","","101.79","","","","-17","","NA"
"-70.78","47.08","CAP-TOURMENTE","7041JG6","2012-02-08 13:00","2012","02","08","13:00","-6.8","","-16.4","","46","","","","25","","24","","","","101.68","","","","-14","","NA"
"-70.78","47.08","CAP-TOURMENTE","7041JG6","2012-02-08 14:00","2012","02","08","14:00","-5.5","","-15.8","","44","","","","25","","20","","","","101.55","","","","-12","","NA"
"-70.78","47.08","CAP-TOURMENTE","7041JG6","2012-02-08 15:00","2012","02","08","15:00","-4.8","","-15.3","","44","","","","25","","22","","","","101.51","","","","-12","","NA"
"-70.78","47.08","CAP-TOURMENTE","7041JG6","2012-02-08 16:00","2012","02","08","16:00","-4.7","","-15.6","","42","","","","25","","20","","","","101.46","","","","-11","","NA"
"-70.78","47.08","CAP-TOURMENTE","7041JG6","2012-02-08 17:00","2012","02","08","17:00","-6.0","","-14.9","","49","","","","25","","17","","","","101.42","","","","-12","","NA"
"-70.78","47.08","CAP-TOURMENTE","7041JG6","2012-02-08 18:00","2012","02","08","18:00","-7.8","","-15.5","","54","","","","26","","13","","","","101.40","","","","-14","","NA"
"-70.78","47.08","CAP-TOURMENTE","7041JG6","2012-02-08 19:00","2012","02","08","19:00","-8.3","","-14.7","","60","","","","27","","11","","","","101.40","","","","-14","","NA"
"-70.78","47.08","CAP-TOURMENTE","7041JG6","2012-02-08 20:00","2012","02","08","20:00","-9.1","","-13.8","","69","","","","26","","9","","","","101.37","","","","-14","","NA"
"-70.78","47.08","CAP-TOURMENTE","7041JG6","2012-02-08 21:00","2012","02","08","21:00","-8.5","","-13.1","","69","","","","28","","11","","","","101.35","","","","-14","","NA"
"-70.78","47.08","CAP-TOURMENTE","7041JG6","2012-02-08 22:00","2012","02","08","22:00","-7.7","","-12.7","","67","","","","25","","11","","","","101.35","","","","-13","","NA"
"-70.78","47.08","CAP-TOURMENTE","7041JG6","2012-02-08 23:00","2012","02","08","23:00","-8.1","","-12.3","","72","","","","27","","7","","","","101.37","","","","-12","","NA"
"-70.78","47.08","CAP-TOURMENTE","7041JG6","2012-02-09 00:00","2012","02","09","00:00","-7.7","","-11.5","","74","","","","28","","7","","","","101.38","","","","-11","","NA"
"-70.78","47.08","CAP-TOURMENTE","7041JG6","2012-02-09 01:00","2012","02","09","01:00","-7.6","","-11.6","","73","","","","28","","7","","","","101.36","","","","-11","","NA"
"-70.78","47.08","CAP-TOURMENTE","7041JG6","2012-02-09 02:00","2012","02","09","02:00","-7.7","","-11.5","","74","","","","28","","7","","","","101.34","","","","-11","","NA"
"-70.78","47.08","CAP-TOURMENTE","7041JG6","2012-02-09 03:00","2012","02","09","03:00","-7.9","","-11.0","","78","","","","27","","7","","","","101.30","","","","-12","","NA"
"-70.78","47.08","CAP-TOURMENTE","7041JG6","2012-02-09 04:00","2012","02","09","04:00","-8.2","","-11.5","","77","","","","27","","7","","","","101.28","","","","-12","","NA"
"-70.78","47.08","CAP-TOURMENTE","7041JG6","2012-02-09 05:00","2012","02","09","05:00","-7.2","","-10.6","","77","","","","26","","11","","","","101.26","","","","-12","","NA"
"-70.78","47.08","CAP-TOURMENTE","7041JG6","2012-02-09 06:00","2012","02","09","06:00","-7.6","","-10.4","","80","","","","26","","9","","","","101.28","","","","-12","","NA"
"-70.78","47.08","CAP-TOURMENTE","7041JG6","2012-02-09 07:00","2012","02","09","07:00","-6.7","","-9.8","","79","","","","27","","9","","","","101.32","","","","-11","","NA"
"-70.78","47.08","CAP-TOURMENTE","7041JG6","2012-02-09 08:00","2012","02","09","08:00","-6.4","","-9.5","","79","","","","27","","9","","","","101.36","","","","-11","","NA"
"-70.78","47.08","CAP-TOURMENTE","7041JG6","2012-02-09 09:00","2012","02","09","09:00","-5.0","","-8.6","","76","","","","25","","11","","","","101.38","","","","-10","","NA"
"-70.78","47.08","CAP-TOURMENTE","7041JG6","2012-02-09 10:00","2012","02","09","10:00","-4.0","","-8.6","","70","","","","27","","13","","","","101.38","","","","-9","","NA"
"-70.78","47.08","CAP-TOURMENTE","7041JG6","2012-02-09 11:00","2012","02","09","11:00","-3.1","","-8.3","","67","","","","27","","15","","","","101.36","","","","-8","","NA"
"-70.78","47.08","CAP-TOURMENTE","7041JG6","2012-02-09 12:00","2012","02","09","12:00","-2.3","","-8.5","","62","","","","26","","17","","","","101.29","","","","-8","","NA"
"-70.78","47.08","CAP-TOURMENTE","7041JG6","2012-02-09 13:00","2012","02","09","13:00","-2.0","","-8.1","","63","","","","26","","13","","","","101.25","","","","-6","","NA"
"-70.78","47.08","CAP-TOURMENTE","7041JG6","2012-02-09 14:00","2012","02","09","14:00","-1.7","","-7.9","","63","","","","25","","13","","","","101.22","","","","-6","","NA"
"-70.78","47.08","CAP-TOURMENTE","7041JG6","2012-02-09 15:00","2012","02","09","15:00","-0.9","","-7.6","","60","","","","25","","13","","","","101.23","","","","-5","","NA"
"-70.78","47.08","CAP-TOURMENTE","7041JG6","2012-02-09 16:00","2012","02","09","16:00","-1.0","","-7.4","","62","","","","25","","4","","","","101.23","","","","-2","","NA"
"-70.78","47.08","CAP-TOURMENTE","7041JG6","2012-02-09 17:00","2012","02","09","17:00","-2.1","","-7.6","","66","","","","27","","4","","","","101.29","","","","-4","","NA"
"-70.78","47.08","CAP-TOURMENTE","7041JG6","2012-02-09 18:00","2012","02","09","18:00","-4.4","","-7.7","","78","","","","28","","4","","","","101.36","","","","-6","","NA"
"-70.78","47.08","CAP-TOURMENTE","7041JG6","2012-02-09 19:00","2012","02","09","19:00","-6.4","","-8.1","","88","","","","33","","4","","","","101.35","","","","-8","","NA"
"-70.78","47.08","CAP-TOURMENTE","7041JG6","2012-02-09 20:00","2012","02","09","20:00","-8.3","","-10.1","","87","","","","34","","2","","","","101.41","","","","-9","","NA"
"-70.78","47.08","CAP-TOURMENTE","7041JG6","2012-02-09 21:00","2012","02","09","21:00","-7.9","","-9.0","","92","","","","30","","4","","","","101.41","","","","-10","","NA"
"-70.78","47.08","CAP-TOURMENTE","7041JG6","2012-02-09 22:00","2012","02","09","22:00","-9.8","","-10.8","","92","","","","29","","4","","","","101.42","","","","-12","","NA"
"-70.78","47.08","CAP-TOURMENTE","7041JG6","2012-02-09 23:00","2012","02","09","23:00","-9.6","","-10.6","","92","","","","31","","6","","","","101.40","","","","-13","","NA"
"-70.78","47.08","CAP-TOURMENTE","7041JG6","2012-02-10 00:00","2012","02","10","00:00","-8.9","","-9.6","","95","","","","28","","6","","","","101.40","","","","-12","","NA"
"-70.78","47.08","CAP-TOURMENTE","7041JG6","2012-02-10 01:00","2012","02","10","01:00","-9.3","","-10.7","","90","","","","27","","6","","","","101.37","","","","-13","","NA"
"-70.78","47.08","CAP-TOURMENTE","7041JG6","2012-02-10 02:00","2012","02","10","02:00","-6.7","","-8.0","","90","","","","26","","7","","","","101.37","","","","-10","","NA"
"-70.78","47.08","CAP-TOURMENTE","7041JG6","2012-02-10 03:00","2012","02","10","03:00","-4.8","","-7.4","","82","","","","27","","9","","","","101.32","","","","-9","","NA"
"-70.78","47.08","CAP-TOURMENTE","7041JG6","2012-02-10 04:00","2012","02","10","04:00","-5.3","","-7.2","","86","","","","25","","9","","","","101.28","","","","-9","","NA"
"-70.78","47.08","CAP-TOURMENTE","7041JG6","2012-02-10 05:00","2012","02","10","05:00","-4.2","","-6.0","","87","","","","27","","9","","","","101.29","","","","-8","","NA"
"-70.78","47.08","CAP-TOURMENTE","7041JG6","2012-02-10 06:00","2012","02","10","06:00","-2.8","","-5.1","","84","","","","26","","11","","","","101.28","","","","-7","","NA"
"-70.78","47.08","CAP-TOURMENTE","7041JG6","2012-02-10 07:00","2012","02","10","07:00","-2.2","","-4.9","","82","","","","25","","13","","","","101.31","","","","-7","","NA"
"-70.78","47.08","CAP-TOURMENTE","7041JG6","2012-02-10 08:00","2012","02","10","08:00","-2.0","","-5.1","","79","","","","25","","15","","","","101.32","","","","-7","","NA"
"-70.78","47.08","CAP-TOURMENTE","7041JG6","2012-02-10 09:00","2012","02","10","09:00","-2.4","","-5.2","","81","","","","26","","13","","","","101.37","","","","-7","","NA"
"-70.78","47.08","CAP-TOURMENTE","7041JG6","2012-02-10 10:00","2012","02","10","10:00","-2.1","","-4.6","","83","","","","26","","7","","","","101.34","","","","-5","","NA"
"-70.78","47.08","CAP-TOURMENTE","7041JG6","2012-02-10 11:00","2012","02","10","11:00","-1.6","","-4.5","","81","","","","24","","11","","","","101.31","","","","-5","","NA"
"-70.78","47.08","CAP-TOURMENTE","7041JG6","2012-02-10 12:00","2012","02","10","12:00","-1.5","","-3.6","","86","","","","25","","15","","","","101.26","","","","-6","","NA"
"-70.78","47.08","CAP-TOURMENTE","7041JG6","2012-02-10 13:00","2012","02","10","13:00","-1.4","","-3.2","","88","","","","25","","9","","","","101.19","","","","-5","","NA"
"-70.78","47.08","CAP-TOURMENTE","7041JG6","2012-02-10 14:00","2012","02","10","14:00","-0.5","","-3.8","","78","","","","26","","9","","","","101.14","","","","-4","","NA"
"-70.78","47.08","CAP-TOURMENTE","7041JG6","2012-02-10 15:00","2012","02","10","15:00","-0.1","","-3.8","","76","","","","27","","7","","","","101.17","","","","-3","","NA"
"-70.78","47.08","CAP-TOURMENTE","7041JG6","2012-02-10 16:00","2012","02","10","16:00","0.5","","-4.8","","68","","","","24","","15","","","","101.14","","","","","","NA"
"-70.78","47.08","CAP-TOURMENTE","7041JG6","2012-02-10 17:00","2012","02","10","17:00","-0.3","","-4.8","","72","","","","25","","9","","","","101.13","","","","-3","","NA"
"-70.78","47.08","CAP-TOURMENTE","7041JG6","2012-02-10 18:00","2012","02","10","18:00","-1.6","","-5.5","","75","","","","27","","4","","","","101.12","","","","-3","","NA"
"-70.78","47.08","CAP-TOURMENTE","7041JG6","2012-02-10 19:00","2012","02","10","19:00","-3.0","","-5.3","","84","","","","29","","4","","","","101.14","","","","-5","","NA"
"-70.78","47.08","CAP-TOURMENTE","7041JG6","2012-02-10 20:00","2012","02","10","20:00","-4.5","","-6.1","","89","","","","28","","4","","","","101.10","","","","-6","","NA"
"-70.78","47.08","CAP-TOURMENTE","7041JG6","2012-02-10 21:00","2012","02","10","21:00","-4.4","","-6.1","","88","","","","28","","2","","","","101.09","","","","-5","","NA"
"-70.78","47.08","CAP-TOURMENTE","7041JG6","2012-02-10 22:00","2012","02","10","22:00","-4.6","","-6.4","","87","","","","31","","7","","","","101.04","","","","-8","","NA"
"-70.78","47.08","CAP-TOURMENTE","7041JG6","2012-02-10 23:00","2012","02","10","23:00","-5.9","","-7.4","","89","","","","34","","6","","","","101.06","","","","-9","","NA"
"-70.78","47.08","CAP-TOURMENTE","7041JG6","2012-02-11 00:00","2012","02","11","00:00","-4.5","","-7.6","","79","","","","9","","20","","","","101.06","","","","-11","","NA"
"-70.78","47.08","CAP-TOURMENTE","7041JG6","2012-02-11 01:00","2012","02","11","01:00","-5.8","","-8.1","","84","","","","7","","28","","","","101.09","","","","-14","","NA"
"-70.78","47.08","CAP-TOURMENTE","7041JG6","2012-02-11 02:00","2012","02","11","02:00","-6.8","","-8.7","","86","","","","7","","32","","","","101.17","","","","-16","","NA"
"-70.78","47.08","CAP-TOURMENTE","7041JG6","2012-02-11 03:00","2012","02","11","03:00","-8.3","","-9.3","","92","","","","7","","37","","","","101.19","","","","-18","","NA"
"-70.78","47.08","CAP-TOURMENTE","7041JG6","2012-02-11 04:00","2012","02","11","04:00","-9.7","","-10.8","","92","","","","7","","43","","","","101.23","","","","-21","","NA"
"-70.78","47.08","CAP-TOURMENTE","7041JG6","2012-02-11 05:00","2012","02","11","05:00","-10.4","","-12.0","","88","","","","7","","41","","","","101.30","","","","-21","","NA"
"-70.78","47.08","CAP-TOURMENTE","7041JG6","2012-02-11 06:00","2012","02","11","06:00","-11.0","","-13.2","","84","","","","7","","37","","","","101.30","","","","-22","","NA"
"-70.78","47.08","CAP-TOURMENTE","7041JG6","2012-02-11 07:00","2012","02","11","07:00","-11.5","","-13.9","","82","","","","7","","33","","","","101.34","","","","-22","","NA"
"-70.78","47.08","CAP-TOURMENTE","7041JG6","2012-02-11 08:00","2012","02","11","08:00","-12.0","","-14.9","","79","","","","7","","24","","","","101.41","","","","-21","","NA"
"-70.78","47.08","CAP-TOURMENTE","7041JG6","2012-02-11 09:00","2012","02","11","09:00","-12.2","","-16.2","","72","","","","7","","20","","","","101.40","","","","-21","","NA"
"-70.78","47.08","CAP-TOURMENTE","7041JG6","2012-02-11 10:00","2012","02","11","10:00","-12.0","","-16.4","","70","","","","8","","20","","","","101.42","","","","-20","","NA"
"-70.78","47.08","CAP-TOURMENTE","7041JG6","2012-02-11 11:00","2012","02","11","11:00","-12.0","","-16.3","","70","","","","7","","28","","","","101.40","","","","-22","","NA"
"-70.78","47.08","CAP-TOURMENTE","7041JG6","2012-02-11 12:00","2012","02","11","12:00","-11.6","","-16.2","","69","","","","8","","28","","","","101.28","","","","-21","","NA"
"-70.78","47.08","CAP-TOURMENTE","7041JG6","2012-02-11 13:00","2012","02","11","13:00","-11.6","","-16.1","","69","","","","7","","32","","","","101.14","","","","-22","","NA"
"-70.78","47.08","CAP-TOURMENTE","7041JG6","2012-02-11 14:00","2012","02","11","14:00","-11.3","","-15.4","","72","","","","8","","30","","","","101.09","","","","-21","","NA"
"-70.78","47.08","CAP-TOURMENTE","7041JG6","2012-02-11 15:00","2012","02","11","15:00","-11.3","","-15.4","","72","","","","7","","28","","","","101.10","","","","-21","","NA"
"-70.78","47.08","CAP-TOURMENTE","7041JG6","2012-02-11 16:00","2012","02","11","16:00","-11.5","","-14.4","","79","","","","8","","28","","","","101.06","","","","-21","","NA"
"-70.78","47.08","CAP-TOURMENTE","7041JG6","2012-02-11 17:00","2012","02","11","17:00","-11.5","","-15.2","","74","","","","7","","22","","","","101.03","","","","-20","","NA"
"-70.78","47.08","CAP-TOURMENTE","7041JG6","2012-02-11 18:00","2012","02","11","18:00","-13.0","","-16.3","","76","","","","1","","6","","","","101.03","","","","-17","","NA"
"-70.78","47.08","CAP-TOURMENTE","7041JG6","2012-02-11 19:00","2012","02","11","19:00","-12.2","","-16.4","","71","","","","34","","9","","","","100.98","","","","-17","","NA"
"-70.78","47.08","CAP-TOURMENTE","7041JG6","2012-02-11 20:00","2012","02","11","20:00","-12.2","","-16.6","","70","","","","34","","7","","","","100.95","","","","-17","","NA"
"-70.78","47.08","CAP-TOURMENTE","7041JG6","2012-02-11 21:00","2012","02","11","21:00","-13.0","","-17.6","","68","","","","34","","7","","","","100.92","","","","-18","","NA"
"-70.78","47.08","CAP-TOURMENTE","7041JG6","2012-02-11 22:00","2012","02","11","22:00","-13.5","","-18.2","","68","","","","34","","9","","","","100.86","","","","-19","","NA"
"-70.78","47.08","CAP-TOURMENTE","7041JG6","2012-02-11 23:00","2012","02","11","23:00","-14.0","","-18.8","","67","","","","32","","6","","","","100.82","","","","-18","","NA"
"-70.78","47.08","CAP-TOURMENTE","7041JG6","2012-02-12 00:00","2012","02","12","00:00","-14.9","","-20.5","","62","","","","35","","7","","","","100.76","","","","-20","","NA"
"-70.78","47.08","CAP-TOURMENTE","7041JG6","2012-02-12 01:00","2012","02","12","01:00","-15.5","","-22.3","","56","","","","35","","15","","","","100.70","","","","-24","","NA"
"-70.78","47.08","CAP-TOURMENTE","7041JG6","2012-02-12 02:00","2012","02","12","02:00","-16.3","","-23.6","","53","","","","35","","17","","","","100.61","","","","-25","","NA"
"-70.78","47.08","CAP-TOURMENTE","7041JG6","2012-02-12 03:00","2012","02","12","03:00","-17.0","","-24.0","","55","","","","35","","22","","","","100.46","","","","-27","","NA"
"-70.78","47.08","CAP-TOURMENTE","7041JG6","2012-02-12 04:00","2012","02","12","04:00","-17.5","","-24.7","","53","","","","36","","20","","","","100.41","","","","-27","","NA"
"-70.78","47.08","CAP-TOURMENTE","7041JG6","2012-02-12 05:00","2012","02","12","05:00","-17.8","","-24.9","","54","","","","35","","22","","","","100.34","","","","-28","","NA"
"-70.78","47.08","CAP-TOURMENTE","7041JG6","2012-02-12 06:00","2012","02","12","06:00","-17.9","","-25.4","","52","","","","36","","20","","","","100.32","","","","-28","","NA"
"-70.78","47.08","CAP-TOURMENTE","7041JG6","2012-02-12 07:00","2012","02","12","07:00","-17.6","","-25.1","","52","","","","1","","22","","","","100.35","","","","-28","","NA"
"-70.78","47.08","CAP-TOURMENTE","7041JG6","2012-02-12 08:00","2012","02","12","08:00","-17.3","","-25.3","","50","","","","1","","19","","","","100.38","","","","-27","","NA"
"-70.78","47.08","CAP-TOURMENTE","7041JG6","2012-02-12 09:00","2012","02","12","09:00","-16.5","","-25.5","","46","","","","1","","17","","","","100.39","","","","-25","","NA"
"-70.78","47.08","CAP-TOURMENTE","7041JG6","2012-02-12 10:00","2012","02","12","10:00","-15.2","","-26.1","","39","","","","35","","9","","","","100.40","","","","-21","","NA"
"-70.78","47.08","CAP-TOURMENTE","7041JG6","2012-02-12 11:00","2012","02","12","11:00","-14.1","","-26.1","","35","","","","3","","11","","","","100.41","","","","-21","","NA"
"-70.78","47.08","CAP-TOURMENTE","7041JG6","2012-02-12 12:00","2012","02","12","12:00","-13.5","","-26.4","","33","","","","8","","7","","","","100.35","","","","-18","","NA"
"-70.78","47.08","CAP-TOURMENTE","7041JG6","2012-02-12 13:00","2012","02","12","13:00","-12.6","","-26.0","","32","","","","28","","7","","","","100.33","","","","-17","","NA"
"-70.78","47.08","CAP-TOURMENTE","7041JG6","2012-02-12 14:00","2012","02","12","14:00","-12.4","","-25.8","","32","","","","31","","9","","","","100.31","","","","-18","","NA"
"-70.78","47.08","CAP-TOURMENTE","7041JG6","2012-02-12 15:00","2012","02","12","15:00","-13.0","","-26.4","","32","","","","27","","11","","","","100.38","","","","-19","","NA"
"-70.78","47.08","CAP-TOURMENTE","7041JG6","2012-02-12 16:00","2012","02","12","16:00","-14.2","","-26.7","","34","","","","26","","9","","","","100.47","","","","-20","","NA"
"-70.78","47.08","CAP-TOURMENTE","7041JG6","2012-02-12 17:00","2012","02","12","17:00","-16.0","","-27.1","","38","","","","27","","11","","","","100.56","","","","-23","","NA"
"-70.78","47.08","CAP-TOURMENTE","7041JG6","2012-02-12 18:00","2012","02","12","18:00","-19.4","","-26.4","","54","","","","29","","4","","","","100.62","","","","-23","","NA"
"-70.78","47.08","CAP-TOURMENTE","7041JG6","2012-02-12 19:00","2012","02","12","19:00","-20.5","","-25.5","","64","","","","28","","6","","","","100.64","","","","-26","","NA"
"-70.78","47.08","CAP-TOURMENTE","7041JG6","2012-02-12 20:00","2012","02","12","20:00","-22.0","","-26.5","","67","","","","32","","6","","","","100.65","","","","-27","","NA"
"-70.78","47.08","CAP-TOURMENTE","7041JG6","2012-02-12 21:00","2012","02","12","21:00","-24.0","","-27.0","","76","","","","31","","6","","","","100.63","","","","-30","","NA"
"-70.78","47.08","CAP-TOURMENTE","7041JG6","2012-02-12 22:00","2012","02","12","22:00","-24.1","","-26.9","","78","","","","30","","4","","","","100.63","","","","-28","","NA"
"-70.78","47.08","CAP-TOURMENTE","7041JG6","2012-02-12 23:00","2012","02","12","23:00","-24.1","","-27.2","","75","","","","32","","6","","","","100.64","","","","-30","","NA"
"-70.78","47.08","CAP-TOURMENTE","7041JG6","2012-02-13 00:00","2012","02","13","00:00","-23.6","","-26.8","","75","","","","27","","6","","","","100.60","","","","-29","","NA"
"-70.78","47.08","CAP-TOURMENTE","7041JG6","2012-02-13 01:00","2012","02","13","01:00","-22.6","","-25.8","","75","","","","27","","6","","","","100.54","","","","-28","","NA"
"-70.78","47.08","CAP-TOURMENTE","7041JG6","2012-02-13 02:00","2012","02","13","02:00","-23.9","","-27.4","","73","","","","30","","6","","","","100.49","","","","-30","","NA"
"-70.78","47.08","CAP-TOURMENTE","7041JG6","2012-02-13 03:00","2012","02","13","03:00","-23.9","","-27.2","","74","","","","32","","7","","","","100.41","","","","-30","","NA"
"-70.78","47.08","CAP-TOURMENTE","7041JG6","2012-02-13 04:00","2012","02","13","04:00","-23.4","","-26.3","","77","","","","29","","6","","","","100.44","","","","-29","","NA"
"-70.78","47.08","CAP-TOURMENTE","7041JG6","2012-02-13 05:00","2012","02","13","05:00","-22.6","","-25.3","","79","","","","29","","6","","","","100.46","","","","-28","","NA"
"-70.78","47.08","CAP-TOURMENTE","7041JG6","2012-02-13 06:00","2012","02","13","06:00","-24.5","","-27.4","","77","","","","31","","7","","","","100.47","","","","-31","","NA"
"-70.78","47.08","CAP-TOURMENTE","7041JG6","2012-02-13 07:00","2012","02","13","07:00","-23.7","","-26.9","","75","","","","31","","6","","","","100.58","","","","-29","","NA"
"-70.78","47.08","CAP-TOURMENTE","7041JG6","2012-02-13 08:00","2012","02","13","08:00","-19.4","","-25.7","","57","","","","30","","2","","","","100.71","","","","-21","","NA"
"-70.78","47.08","CAP-TOURMENTE","7041JG6","2012-02-13 09:00","2012","02","13","09:00","-17.1","","-29.3","","34","","","","25","","15","","","","100.74","","","","-26","","NA"
"-70.78","47.08","CAP-TOURMENTE","7041JG6","2012-02-13 10:00","2012","02","13","10:00","-16.1","","-30.4","","28","","","","23","","15","","","","100.80","","","","-24","","NA"
"-70.78","47.08","CAP-TOURMENTE","7041JG6","2012-02-13 11:00","2012","02","13","11:00","-15.0","","-30.1","","26","","","","25","","20","","","","100.78","","","","-24","","NA"
"-70.78","47.08","CAP-TOURMENTE","7041JG6","2012-02-13 12:00","2012","02","13","12:00","-13.9","","-28.4","","28","","","","24","","19","","","","100.77","","","","-23","","NA"
"-70.78","47.08","CAP-TOURMENTE","7041JG6","2012-02-13 13:00","2012","02","13","13:00","-12.9","","-28.3","","26","","","","25","","19","","","","100.77","","","","-21","","NA"
"-70.78","47.08","CAP-TOURMENTE","7041JG6","2012-02-13 14:00","2012","02","13","14:00","-12.2","","-28.3","","25","","","","26","","17","","","","100.79","","","","-20","","NA"
"-70.78","47.08","CAP-TOURMENTE","7041JG6","2012-02-13 15:00","2012","02","13","15:00","-12.2","","-27.3","","27","","","","24","","15","","","","100.86","","","","-19","","NA"
"-70.78","47.08","CAP-TOURMENTE","7041JG6","2012-02-13 16:00","2012","02","13","16:00","-12.3","","-26.3","","30","","","","25","","13","","","","100.92","","","","-19","","NA"
"-70.78","47.08","CAP-TOURMENTE","7041JG6","2012-02-13 17:00","2012","02","13","17:00","-13.8","","-26.5","","33","","","","26","","11","","","","101.01","","","","-20","","NA"
"-70.78","47.08","CAP-TOURMENTE","7041JG6","2012-02-13 18:00","2012","02","13","18:00","-15.9","","-26.0","","42","","","","25","","7","","","","101.10","","","","-21","","NA"
"-70.78","47.08","CAP-TOURMENTE","7041JG6","2012-02-13 19:00","2012","02","13","19:00","-16.4","","-26.4","","42","","","","28","","7","","","","101.22","","","","-21","","NA"
"-70.78","47.08","CAP-TOURMENTE","7041JG6","2012-02-13 20:00","2012","02","13","20:00","-19.5","","-26.0","","56","","","","33","","6","","","","101.30","","","","-24","","NA"
"-70.78","47.08","CAP-TOURMENTE","7041JG6","2012-02-13 21:00","2012","02","13","21:00","-20.7","","-26.9","","58","","","","32","","7","","","","101.35","","","","-26","","NA"
"-70.78","47.08","CAP-TOURMENTE","7041JG6","2012-02-13 22:00","2012","02","13","22:00","-20.4","","-27.0","","56","","","","33","","7","","","","101.37","","","","-26","","NA"
"-70.78","47.08","CAP-TOURMENTE","7041JG6","2012-02-13 23:00","2012","02","13","23:00","-19.1","","-26.2","","53","","","","33","","9","","","","101.35","","","","-26","","NA"
"-70.78","47.08","CAP-TOURMENTE","7041JG6","2012-02-14 00:00","2012","02","14","00:00","-18.6","","-26.2","","51","","","","32","","7","","","","101.35","","","","-24","","NA"
"-70.78","47.08","CAP-TOURMENTE","7041JG6","2012-02-14 01:00","2012","02","14","01:00","-18.7","","-26.2","","52","","","","28","","9","","","","101.40","","","","-25","","NA"
"-70.78","47.08","CAP-TOURMENTE","7041JG6","2012-02-14 02:00","2012","02","14","02:00","-19.7","","-27.1","","52","","","","32","","6","","","","101.45","","","","-25","","NA"
"-70.78","47.08","CAP-TOURMENTE","7041JG6","2012-02-14 03:00","2012","02","14","03:00","-22.1","","-27.0","","64","","","","33","","6","","","","101.50","","","","-27","","NA"
"-70.78","47.08","CAP-TOURMENTE","7041JG6","2012-02-14 04:00","2012","02","14","04:00","-20.8","","-25.8","","64","","","","27","","6","","","","101.53","","","","-26","","NA"
"-70.78","47.08","CAP-TOURMENTE","7041JG6","2012-02-14 05:00","2012","02","14","05:00","-15.4","","-24.3","","46","","","","32","","7","","","","101.54","","","","-20","","NA"
"-70.78","47.08","CAP-TOURMENTE","7041JG6","2012-02-14 06:00","2012","02","14","06:00","-13.9","","-22.8","","47","","","","29","","6","","","","101.46","","","","-18","","NA"
"-70.78","47.08","CAP-TOURMENTE","7041JG6","2012-02-14 07:00","2012","02","14","07:00","-14.1","","-20.9","","56","","","","36","","2","","","","101.52","","","","-15","","NA"
"-70.78","47.08","CAP-TOURMENTE","7041JG6","2012-02-14 08:00","2012","02","14","08:00","-12.5","","-20.0","","53","","","","31","","2","","","","101.51","","","","-14","","NA"
"-70.78","47.08","CAP-TOURMENTE","7041JG6","2012-02-14 09:00","2012","02","14","09:00","-12.1","","-18.7","","58","","","","24","","4","","","","101.52","","","","-15","","NA"
"-70.78","47.08","CAP-TOURMENTE","7041JG6","2012-02-14 10:00","2012","02","14","10:00","-10.8","","-18.7","","52","","","","26","","4","","","","101.52","","","","-13","","NA"
"-70.78","47.08","CAP-TOURMENTE","7041JG6","2012-02-14 11:00","2012","02","14","11:00","-10.0","","-17.3","","55","","","","24","","9","","","","101.48","","","","-15","","NA"
"-70.78","47.08","CAP-TOURMENTE","7041JG6","2012-02-14 12:00","2012","02","14","12:00","-8.5","","-14.1","","64","","","","26","","13","","","","101.41","","","","-14","","NA"
"-70.78","47.08","CAP-TOURMENTE","7041JG6","2012-02-14 13:00","2012","02","14","13:00","-4.9","","-12.3","","56","","","","27","","9","","","","101.32","","","","-9","","NA"
"-70.78","47.08","CAP-TOURMENTE","7041JG6","2012-02-14 14:00","2012","02","14","14:00","-3.7","","-11.1","","56","","","","26","","11","","","","101.30","","","","-8","","NA"
"-70.78","47.08","CAP-TOURMENTE","7041JG6","2012-02-14 15:00","2012","02","14","15:00","-2.0","","-9.0","","59","","","","27","","9","","","","101.33","","","","-5","","NA"
"-70.78","47.08","CAP-TOURMENTE","7041JG6","2012-02-14 16:00","2012","02","14","16:00","-1.6","","-7.7","","63","","","","25","","17","","","","101.35","","","","-7","","NA"
"-70.78","47.08","CAP-TOURMENTE","7041JG6","2012-02-14 17:00","2012","02","14","17:00","-2.7","","-7.5","","69","","","","27","","11","","","","101.41","","","","-7","","NA"
"-70.78","47.08","CAP-TOURMENTE","7041JG6","2012-02-14 18:00","2012","02","14","18:00","-2.9","","-7.1","","73","","","","28","","4","","","","101.50","","","","-4","","NA"
"-70.78","47.08","CAP-TOURMENTE","7041JG6","2012-02-14 19:00","2012","02","14","19:00","-2.8","","-7.1","","72","","","","28","","6","","","","101.53","","","","-5","","NA"
"-70.78","47.08","CAP-TOURMENTE","7041JG6","2012-02-14 20:00","2012","02","14","20:00","-3.5","","-7.3","","75","","","","24","","2","","","","101.59","","","","-4","","NA"
"-70.78","47.08","CAP-TOURMENTE","7041JG6","2012-02-14 21:00","2012","02","14","21:00","-2.4","","-5.4","","80","","","","28","","7","","","","101.61","","","","-5","","NA"
"-70.78","47.08","CAP-TOURMENTE","7041JG6","2012-02-14 22:00","2012","02","14","22:00","-2.8","","-5.0","","85","","","","27","","7","","","","101.62","","","","-6","","NA"
"-70.78","47.08","CAP-TOURMENTE","7041JG6","2012-02-14 23:00","2012","02","14","23:00","-3.0","","-4.8","","87","","","","25","","2","","","","101.64","","","","-4","","NA"
"-70.78","47.08","CAP-TOURMENTE","7041JG6","2012-02-15 00:00","2012","02","15","00:00","-5.7","","-6.8","","92","","","","27","","6","","","","101.68","","","","-9","","NA"
"-70.78","47.08","CAP-TOURMENTE","7041JG6","2012-02-15 01:00","2012","02","15","01:00","-4.2","","-5.1","","93","","","","27","","7","","","","101.71","","","","-7","","NA"
"-70.78","47.08","CAP-TOURMENTE","7041JG6","2012-02-15 02:00","2012","02","15","02:00","-2.8","","-5.0","","85","","","","25","","6","","","","101.75","","","","-5","","NA"
"-70.78","47.08","CAP-TOURMENTE","7041JG6","2012-02-15 03:00","2012","02","15","03:00","-4.4","","-5.9","","89","","","","24","","4","","","","101.78","","","","-6","","NA"
"-70.78","47.08","CAP-TOURMENTE","7041JG6","2012-02-15 04:00","2012","02","15","04:00","-4.9","","-5.9","","93","","","","24","","4","","","","101.84","","","","-7","","NA"
"-70.78","47.08","CAP-TOURMENTE","7041JG6","2012-02-15 05:00","2012","02","15","05:00","-4.3","","-5.3","","93","","","","25","","6","","","","101.88","","","","-7","","NA"
"-70.78","47.08","CAP-TOURMENTE","7041JG6","2012-02-15 06:00","2012","02","15","06:00","-3.8","","-4.9","","92","","","","25","","4","","","","101.91","","","","-5","","NA"
"-70.78","47.08","CAP-TOURMENTE","7041JG6","2012-02-15 07:00","2012","02","15","07:00","-5.8","","-6.5","","95","","","","23","","4","","","","101.97","","","","-8","","NA"
"-70.78","47.08","CAP-TOURMENTE","7041JG6","2012-02-15 08:00","2012","02","15","08:00","-4.0","","-4.8","","94","","","","26","","4","","","","102.02","","","","-6","","NA"
"-70.78","47.08","CAP-TOURMENTE","7041JG6","2012-02-15 09:00","2012","02","15","09:00","-1.2","","-4.4","","79","","","","24","","6","","","","102.06","","","","-3","","NA"
"-70.78","47.08","CAP-TOURMENTE","7041JG6","2012-02-15 10:00","2012","02","15","10:00","1.3","","-3.9","","68","","","","26","","6","","","","102.07","","","","","","NA"
"-70.78","47.08","CAP-TOURMENTE","7041JG6","2012-02-15 11:00","2012","02","15","11:00","1.0","","-3.8","","70","","","","16","","4","","","","102.09","","","","","","NA"
"-70.78","47.08","CAP-TOURMENTE","7041JG6","2012-02-15 12:00","2012","02","15","12:00","1.1","","-3.8","","70","","","","17","","6","","","","102.07","","","","","","NA"
"-70.78","47.08","CAP-TOURMENTE","7041JG6","2012-02-15 13:00","2012","02","15","13:00","1.6","","-3.7","","68","","","","15","","4","","","","102.04","","","","","","NA"
"-70.78","47.08","CAP-TOURMENTE","7041JG6","2012-02-15 14:00","2012","02","15","14:00","2.8","","-3.6","","63","","","","24","","6","","","","102.05","","","","","","NA"
"-70.78","47.08","CAP-TOURMENTE","7041JG6","2012-02-15 15:00","2012","02","15","15:00","2.4","","-2.9","","68","","","","18","","2","","","","102.09","","","","","","NA"
"-70.78","47.08","CAP-TOURMENTE","7041JG6","2012-02-15 16:00","2012","02","15","16:00","2.8","","-3.2","","65","","","","27","","2","","","","102.09","","","","","","NA"
"-70.78","47.08","CAP-TOURMENTE","7041JG6","2012-02-15 17:00","2012","02","15","17:00","1.7","","-2.1","","76","","","","21","","2","","","","102.15","","","","","","NA"
"-70.78","47.08","CAP-TOURMENTE","7041JG6","2012-02-15 18:00","2012","02","15","18:00","0.3","","-1.8","","86","","","","28","","2","","","","102.20","","","","","","NA"
"-70.78","47.08","CAP-TOURMENTE","7041JG6","2012-02-15 19:00","2012","02","15","19:00","-0.2","","-1.9","","88","","","","31","","4","","","","102.22","","","","-1","","NA"
"-70.78","47.08","CAP-TOURMENTE","7041JG6","2012-02-15 20:00","2012","02","15","20:00","-0.7","","-2.3","","89","","","","","","0","","","","102.24","","","","","","NA"
"-70.78","47.08","CAP-TOURMENTE","7041JG6","2012-02-15 21:00","2012","02","15","21:00","-0.9","","-2.1","","92","","","","30","","4","","","","102.26","","","","-2","","NA"
"-70.78","47.08","CAP-TOURMENTE","7041JG6","2012-02-15 22:00","2012","02","15","22:00","-1.0","","-2.4","","90","","","","29","","2","","","","102.27","","","","-2","","NA"
"-70.78","47.08","CAP-TOURMENTE","7041JG6","2012-02-15 23:00","2012","02","15","23:00","-1.0","","-2.3","","91","","","","24","","4","","","","102.28","","","","-2","","NA"
"-70.78","47.08","CAP-TOURMENTE","7041JG6","2012-02-16 00:00","2012","02","16","00:00","-0.5","","-2.3","","88","","","","26","","6","","","","102.28","","","","-3","","NA"
"-70.78","47.08","CAP-TOURMENTE","7041JG6","2012-02-16 01:00","2012","02","16","01:00","-0.5","","-2.3","","88","","","","25","","7","","","","102.28","","","","-3","","NA"
"-70.78","47.08","CAP-TOURMENTE","7041JG6","2012-02-16 02:00","2012","02","16","02:00","0.1","","-2.0","","86","","","","26","","6","","","","102.32","","","","","","NA"
"-70.78","47.08","CAP-TOURMENTE","7041JG6","2012-02-16 03:00","2012","02","16","03:00","-0.8","","-1.8","","93","","","","26","","4","","","","102.29","","","","-2","","NA"
"-70.78","47.08","CAP-TOURMENTE","7041JG6","2012-02-16 04:00","2012","02","16","04:00","-1.3","","-2.0","","95","","","","14","","2","","","","102.29","","","","-2","","NA"
"-70.78","47.08","CAP-TOURMENTE","7041JG6","2012-02-16 05:00","2012","02","16","05:00","-1.0","","-1.7","","95","","","","","","0","","","","102.31","","","","","","NA"
"-70.78","47.08","CAP-TOURMENTE","7041JG6","2012-02-16 06:00","2012","02","16","06:00","-1.1","","-1.7","","96","","","","7","","4","","","","102.30","","","","-2","","NA"
"-70.78","47.08","CAP-TOURMENTE","7041JG6","2012-02-16 07:00","2012","02","16","07:00","-0.4","","-1.0","","96","","","","5","","4","","","","102.32","","","","-2","","NA"
"-70.78","47.08","CAP-TOURMENTE","7041JG6","2012-02-16 08:00","2012","02","16","08:00","-0.4","","-1.0","","96","","","","9","","2","","","","102.35","","","","-1","","NA"
"-70.78","47.08","CAP-TOURMENTE","7041JG6","2012-02-16 09:00","2012","02","16","09:00","-0.1","","-0.9","","94","","","","12","","2","","","","102.35","","","","-1","","NA"
"-70.78","47.08","CAP-TOURMENTE","7041JG6","2012-02-16 10:00","2012","02","16","10:00","0.1","","-1.0","","92","","","","10","","6","","","","102.32","","","","","","NA"
"-70.78","47.08","CAP-TOURMENTE","7041JG6","2012-02-16 11:00","2012","02","16","11:00","0.0","","-1.1","","92","","","","9","","7","","","","102.26","","","","-2","","NA"
"-70.78","47.08","CAP-TOURMENTE","7041JG6","2012-02-16 12:00","2012","02","16","12:00","0.1","","-1.1","","92","","","","9","","6","","","","102.18","","","","","","NA"
"-70.78","47.08","CAP-TOURMENTE","7041JG6","2012-02-16 13:00","2012","02","16","13:00","0.2","","-1.1","","91","","","","9","","7","","","","102.11","","","","","","NA"
"-70.78","47.08","CAP-TOURMENTE","7041JG6","2012-02-16 14:00","2012","02","16","14:00","0.0","","-1.2","","92","","","","9","","7","","","","102.02","","","","-2","","NA"
"-70.78","47.08","CAP-TOURMENTE","7041JG6","2012-02-16 15:00","2012","02","16","15:00","0.0","","-1.1","","92","","","","9","","6","","","","101.96","","","","-2","","NA"
"-70.78","47.08","CAP-TOURMENTE","7041JG6","2012-02-16 16:00","2012","02","16","16:00","0.0","","-0.9","","94","","","","9","","4","","","","101.90","","","","-1","","NA"
"-70.78","47.08","CAP-TOURMENTE","7041JG6","2012-02-16 17:00","2012","02","16","17:00","-0.3","","-1.0","","95","","","","7","","6","","","","101.88","","","","-2","","NA"
"-70.78","47.08","CAP-TOURMENTE","7041JG6","2012-02-16 18:00","2012","02","16","18:00","-1.1","","-1.8","","95","","","","5","","2","","","","101.85","","","","-2","","NA"
"-70.78","47.08","CAP-TOURMENTE","7041JG6","2012-02-16 19:00","2012","02","16","19:00","-1.4","","-1.8","","97","","","","27","","4","","","","101.83","","","","-3","","NA"
"-70.78","47.08","CAP-TOURMENTE","7041JG6","2012-02-16 20:00","2012","02","16","20:00","-2.0","","-2.4","","97","","","","9","","2","","","","101.78","","","","-3","","NA"
"-70.78","47.08","CAP-TOURMENTE","7041JG6","2012-02-16 21:00","2012","02","16","21:00","-2.2","","-2.5","","98","","","","24","","7","","","","101.66","","","","-5","","NA"
"-70.78","47.08","CAP-TOURMENTE","7041JG6","2012-02-16 22:00","2012","02","16","22:00","-3.0","","-3.3","","98","","","","26","","4","","","","101.55","","","","-5","","NA"
"-70.78","47.08","CAP-TOURMENTE","7041JG6","2012-02-16 23:00","2012","02","16","23:00","-1.7","","-2.0","","98","","","","26","","6","","","","101.46","","","","-4","","NA"
"-70.78","47.08","CAP-TOURMENTE","7041JG6","2012-02-17 00:00","2012","02","17","00:00","-1.5","","-1.9","","97","","","","29","","4","","","","101.38","","","","-3","","NA"
"-70.78","47.08","CAP-TOURMENTE","7041JG6","2012-02-17 01:00","2012","02","17","01:00","-1.1","","-2.0","","94","","","","25","","7","","","","101.28","","","","-4","","NA"
"-70.78","47.08","CAP-TOURMENTE","7041JG6","2012-02-17 02:00","2012","02","17","02:00","-0.4","","-1.1","","95","","","","27","","6","","","","101.21","","","","-2","","NA"
"-70.78","47.08","CAP-TOURMENTE","7041JG6","2012-02-17 03:00","2012","02","17","03:00","-0.7","","-1.2","","96","","","","21","","2","","","","101.08","","","","-1","","NA"
"-70.78","47.08","CAP-TOURMENTE","7041JG6","2012-02-17 04:00","2012","02","17","04:00","-0.6","","-1.0","","97","","","","27","","2","","","","101.00","","","","-1","","NA"
"-70.78","47.08","CAP-TOURMENTE","7041JG6","2012-02-17 05:00","2012","02","17","05:00","-0.2","","-0.5","","98","","","","18","","2","","","","100.93","","","","-1","","NA"
"-70.78","47.08","CAP-TOURMENTE","7041JG6","2012-02-17 06:00","2012","02","17","06:00","0.1","","-0.2","","98","","","","26","","2","","","","100.90","","","","","","NA"
"-70.78","47.08","CAP-TOURMENTE","7041JG6","2012-02-17 07:00","2012","02","17","07:00","0.1","","-0.2","","98","","","","4","","2","","","","100.85","","","","","","NA"
"-70.78","47.08","CAP-TOURMENTE","7041JG6","2012-02-17 08:00","2012","02","17","08:00","0.2","","-0.1","","98","","","","","","0","","","","100.84","","","","","","NA"
"-70.78","47.08","CAP-TOURMENTE","7041JG6","2012-02-17 09:00","2012","02","17","09:00","0.3","","0.0","","98","","","","","","0","","","","100.80","","","","","","NA"
"-70.78","47.08","CAP-TOURMENTE","7041JG6","2012-02-17 10:00","2012","02","17","10:00","0.3","","-0.1","","97","","","","27","","4","","","","100.77","","","","","","NA"
"-70.78","47.08","CAP-TOURMENTE","7041JG6","2012-02-17 11:00","2012","02","17","11:00","1.0","","0.3","","95","","","","27","","6","","","","100.76","","","","","","NA"
"-70.78","47.08","CAP-TOURMENTE","7041JG6","2012-02-17 12:00","2012","02","17","12:00","1.8","","0.9","","94","","","","28","","7","","","","100.68","","","","","","NA"
"-70.78","47.08","CAP-TOURMENTE","7041JG6","2012-02-17 13:00","2012","02","17","13:00","2.6","","1.3","","91","","","","26","","6","","","","100.64","","","","","","NA"
"-70.78","47.08","CAP-TOURMENTE","7041JG6","2012-02-17 14:00","2012","02","17","14:00","2.6","","0.3","","85","","","","26","","9","","","","100.64","","","","","","NA"
"-70.78","47.08","CAP-TOURMENTE","7041JG6","2012-02-17 15:00","2012","02","17","15:00","2.4","","-0.7","","80","","","","25","","11","","","","100.65","","","","","","NA"
"-70.78","47.08","CAP-TOURMENTE","7041JG6","2012-02-17 16:00","2012","02","17","16:00","2.3","","-1.4","","77","","","","25","","15","","","","100.67","","","","","","NA"
"-70.78","47.08","CAP-TOURMENTE","7041JG6","2012-02-17 17:00","2012","02","17","17:00","1.5","","-1.1","","83","","","","25","","9","","","","100.72","","","","","","NA"
"-70.78","47.08","CAP-TOURMENTE","7041JG6","2012-02-17 18:00","2012","02","17","18:00","1.8","","-1.8","","77","","","","26","","9","","","","100.75","","","","","","NA"
"-70.78","47.08","CAP-TOURMENTE","7041JG6","2012-02-17 19:00","2012","02","17","19:00","1.3","","-1.8","","80","","","","26","","7","","","","100.75","","","","","","NA"
"-70.78","47.08","CAP-TOURMENTE","7041JG6","2012-02-17 20:00","2012","02","17","20:00","0.7","","-1.3","","86","","","","28","","6","","","","100.74","","","","","","NA"
"-70.78","47.08","CAP-TOURMENTE","7041JG6","2012-02-17 21:00","2012","02","17","21:00","0.5","","-1.2","","88","","","","31","","4","","","","100.74","","","","","","NA"
"-70.78","47.08","CAP-TOURMENTE","7041JG6","2012-02-17 22:00","2012","02","17","22:00","0.8","","-1.6","","84","","","","29","","6","","","","100.70","","","","","","NA"
"-70.78","47.08","CAP-TOURMENTE","7041JG6","2012-02-17 23:00","2012","02","17","23:00","-0.2","","-1.9","","88","","","","31","","4","","","","100.65","","","","-1","","NA"
"-70.78","47.08","CAP-TOURMENTE","7041JG6","2012-02-18 00:00","2012","02","18","00:00","0.3","","-2.0","","85","","","","30","","6","","","","100.59","","","","","","NA"
"-70.78","47.08","CAP-TOURMENTE","7041JG6","2012-02-18 01:00","2012","02","18","01:00","-0.3","","-2.3","","86","","","","30","","6","","","","100.56","","","","-2","","NA"
"-70.78","47.08","CAP-TOURMENTE","7041JG6","2012-02-18 02:00","2012","02","18","02:00","-0.5","","-3.0","","83","","","","30","","7","","","","100.56","","","","-3","","NA"
"-70.78","47.08","CAP-TOURMENTE","7041JG6","2012-02-18 03:00","2012","02","18","03:00","-0.5","","-2.8","","84","","","","28","","6","","","","100.52","","","","-3","","NA"
"-70.78","47.08","CAP-TOURMENTE","7041JG6","2012-02-18 04:00","2012","02","18","04:00","-0.6","","-3.0","","84","","","","28","","7","","","","100.52","","","","-3","","NA"
"-70.78","47.08","CAP-TOURMENTE","7041JG6","2012-02-18 05:00","2012","02","18","05:00","-0.3","","-2.9","","83","","","","28","","7","","","","100.56","","","","-3","","NA"
"-70.78","47.08","CAP-TOURMENTE","7041JG6","2012-02-18 06:00","2012","02","18","06:00","-1.0","","-3.2","","85","","","","28","","13","","","","100.59","","","","-5","","NA"
"-70.78","47.08","CAP-TOURMENTE","7041JG6","2012-02-18 07:00","2012","02","18","07:00","-1.3","","-3.5","","85","","","","28","","7","","","","100.61","","","","-4","","NA"
"-70.78","47.08","CAP-TOURMENTE","7041JG6","2012-02-18 08:00","2012","02","18","08:00","-0.9","","-3.8","","81","","","","28","","11","","","","100.64","","","","-5","","NA"
"-70.78","47.08","CAP-TOURMENTE","7041JG6","2012-02-18 09:00","2012","02","18","09:00","0.6","","-4.8","","67","","","","25","","11","","","","100.63","","","","","","NA"
"-70.78","47.08","CAP-TOURMENTE","7041JG6","2012-02-18 10:00","2012","02","18","10:00","1.0","","-6.9","","56","","","","25","","17","","","","100.64","","","","","","NA"
"-70.78","47.08","CAP-TOURMENTE","7041JG6","2012-02-18 11:00","2012","02","18","11:00","1.6","","-7.0","","53","","","","26","","19","","","","100.63","","","","","","NA"
"-70.78","47.08","CAP-TOURMENTE","7041JG6","2012-02-18 12:00","2012","02","18","12:00","1.3","","-6.9","","54","","","","25","","17","","","","100.59","","","","","","NA"
"-70.78","47.08","CAP-TOURMENTE","7041JG6","2012-02-18 13:00","2012","02","18","13:00","1.8","","-6.9","","52","","","","25","","17","","","","100.57","","","","","","NA"
"-70.78","47.08","CAP-TOURMENTE","7041JG6","2012-02-18 14:00","2012","02","18","14:00","1.6","","-7.0","","53","","","","24","","19","","","","100.61","","","","","","NA"
"-70.78","47.08","CAP-TOURMENTE","7041JG6","2012-02-18 15:00","2012","02","18","15:00","1.7","","-7.5","","50","","","","26","","19","","","","100.68","","","","","","NA"
"-70.78","47.08","CAP-TOURMENTE","7041JG6","2012-02-18 16:00","2012","02","18","16:00","0.5","","-7.3","","56","","","","25","","11","","","","100.71","","","","","","NA"
"-70.78","47.08","CAP-TOURMENTE","7041JG6","2012-02-18 17:00","2012","02","18","17:00","0.0","","-7.8","","56","","","","26","","7","","","","100.74","","","","-2","","NA"
"-70.78","47.08","CAP-TOURMENTE","7041JG6","2012-02-18 18:00","2012","02","18","18:00","-0.5","","-7.0","","61","","","","27","","9","","","","100.80","","","","-4","","NA"
"-70.78","47.08","CAP-TOURMENTE","7041JG6","2012-02-18 19:00","2012","02","18","19:00","-1.1","","-8.2","","58","","","","26","","11","","","","100.85","","","","-5","","NA"
"-70.78","47.08","CAP-TOURMENTE","7041JG6","2012-02-18 20:00","2012","02","18","20:00","-2.0","","-9.4","","57","","","","25","","9","","","","100.94","","","","-5","","NA"
"-70.78","47.08","CAP-TOURMENTE","7041JG6","2012-02-18 21:00","2012","02","18","21:00","-2.9","","-9.9","","58","","","","20","","4","","","","101.04","","","","-4","","NA"
"-70.78","47.08","CAP-TOURMENTE","7041JG6","2012-02-18 22:00","2012","02","18","22:00","-3.5","","-9.6","","63","","","","23","","6","","","","101.07","","","","-6","","NA"
"-70.78","47.08","CAP-TOURMENTE","7041JG6","2012-02-18 23:00","2012","02","18","23:00","-3.7","","-10.6","","59","","","","25","","6","","","","101.12","","","","-6","","NA"
"-70.78","47.08","CAP-TOURMENTE","7041JG6","2012-02-19 00:00","2012","02","19","00:00","-4.1","","-11.2","","58","","","","26","","9","","","","101.18","","","","-8","","NA"
"-70.78","47.08","CAP-TOURMENTE","7041JG6","2012-02-19 01:00","2012","02","19","01:00","-5.3","","-11.5","","62","","","","25","","7","","","","101.23","","","","-9","","NA"
"-70.78","47.08","CAP-TOURMENTE","7041JG6","2012-02-19 02:00","2012","02","19","02:00","-5.8","","-12.2","","61","","","","27","","9","","","","101.36","","","","-10","","NA"
"-70.78","47.08","CAP-TOURMENTE","7041JG6","2012-02-19 03:00","2012","02","19","03:00","-6.5","","-12.5","","62","","","","27","","11","","","","101.40","","","","-11","","NA"
"-70.78","47.08","CAP-TOURMENTE","7041JG6","2012-02-19 04:00","2012","02","19","04:00","-9.8","","-13.0","","77","","","","30","","4","","","","101.41","","","","-12","","NA"
"-70.78","47.08","CAP-TOURMENTE","7041JG6","2012-02-19 05:00","2012","02","19","05:00","-9.9","","-13.6","","74","","","","29","","6","","","","101.46","","","","-13","","NA"
"-70.78","47.08","CAP-TOURMENTE","7041JG6","2012-02-19 06:00","2012","02","19","06:00","-10.8","","-14.2","","76","","","","26","","6","","","","101.49","","","","-14","","NA"
"-70.78","47.08","CAP-TOURMENTE","7041JG6","2012-02-19 07:00","2012","02","19","07:00","-10.3","","-13.9","","75","","","","27","","6","","","","101.56","","","","-14","","NA"
"-70.78","47.08","CAP-TOURMENTE","7041JG6","2012-02-19 08:00","2012","02","19","08:00","-8.1","","-14.5","","60","","","","25","","7","","","","101.58","","","","-12","","NA"
"-70.78","47.08","CAP-TOURMENTE","7041JG6","2012-02-19 09:00","2012","02","19","09:00","-7.0","","-13.1","","62","","","","26","","11","","","","101.59","","","","-12","","NA"
"-70.78","47.08","CAP-TOURMENTE","7041JG6","2012-02-19 10:00","2012","02","19","10:00","-5.9","","-13.6","","54","","","","26","","11","","","","101.57","","","","-11","","NA"
"-70.78","47.08","CAP-TOURMENTE","7041JG6","2012-02-19 11:00","2012","02","19","11:00","-4.4","","-12.3","","54","","","","25","","7","","","","101.57","","","","-8","","NA"
"-70.78","47.08","CAP-TOURMENTE","7041JG6","2012-02-19 12:00","2012","02","19","12:00","-4.0","","-11.9","","54","","","","25","","15","","","","101.52","","","","-9","","NA"
"-70.78","47.08","CAP-TOURMENTE","7041JG6","2012-02-19 13:00","2012","02","19","13:00","-3.2","","-11.3","","53","","","","27","","15","","","","101.47","","","","-8","","NA"
"-70.78","47.08","CAP-TOURMENTE","7041JG6","2012-02-19 14:00","2012","02","19","14:00","-2.5","","-11.2","","51","","","","26","","11","","","","101.45","","","","-7","","NA"
"-70.78","47.08","CAP-TOURMENTE","7041JG6","2012-02-19 15:00","2012","02","19","15:00","-2.0","","-11.1","","50","","","","26","","13","","","","101.46","","","","-6","","NA"
"-70.78","47.08","CAP-TOURMENTE","7041JG6","2012-02-19 16:00","2012","02","19","16:00","-2.1","","-12.1","","46","","","","26","","17","","","","101.46","","","","-7","","NA"
"-70.78","47.08","CAP-TOURMENTE","7041JG6","2012-02-19 17:00","2012","02","19","17:00","-3.7","","-12.5","","50","","","","27","","9","","","","101.55","","","","-7","","NA"
"-70.78","47.08","CAP-TOURMENTE","7041JG6","2012-02-19 18:00","2012","02","19","18:00","-4.9","","-13.0","","53","","","","27","","9","","","","101.61","","","","-9","","NA"
"-70.78","47.08","CAP-TOURMENTE","7041JG6","2012-02-19 19:00","2012","02","19","19:00","-5.5","","-14.0","","51","","","","25","","9","","","","101.62","","","","-10","","NA"
"-70.78","47.08","CAP-TOURMENTE","7041JG6","2012-02-19 20:00","2012","02","19","20:00","-6.5","","-14.6","","53","","","","25","","7","","","","101.62","","","","-10","","NA"
"-70.78","47.08","CAP-TOURMENTE","7041JG6","2012-02-19 21:00","2012","02","19","21:00","-10.1","","-13.4","","77","","","","28","","6","","","","101.61","","","","-14","","NA"
"-70.78","47.08","CAP-TOURMENTE","7041JG6","2012-02-19 22:00","2012","02","19","22:00","-11.4","","-14.8","","76","","","","33","","7","","","","101.61","","","","-16","","NA"
"-70.78","47.08","CAP-TOURMENTE","7041JG6","2012-02-19 23:00","2012","02","19","23:00","-12.2","","-15.3","","78","","","","35","","9","","","","101.63","","","","-17","","NA"
"-70.78","47.08","CAP-TOURMENTE","7041JG6","2012-02-20 00:00","2012","02","20","00:00","-9.6","","-15.4","","63","","","","34","","13","","","","101.62","","","","-16","","NA"
"-70.78","47.08","CAP-TOURMENTE","7041JG6","2012-02-20 01:00","2012","02","20","01:00","-9.4","","-15.8","","60","","","","36","","19","","","","101.62","","","","-17","","NA"
"-70.78","47.08","CAP-TOURMENTE","7041JG6","2012-02-20 02:00","2012","02","20","02:00","-9.9","","-16.3","","59","","","","36","","19","","","","101.66","","","","-18","","NA"
"-70.78","47.08","CAP-TOURMENTE","7041JG6","2012-02-20 03:00","2012","02","20","03:00","-10.5","","-17.0","","59","","","","36","","19","","","","101.68","","","","-18","","NA"
"-70.78","47.08","CAP-TOURMENTE","7041JG6","2012-02-20 04:00","2012","02","20","04:00","-11.4","","-17.5","","61","","","","35","","9","","","","101.76","","","","-17","","NA"
"-70.78","47.08","CAP-TOURMENTE","7041JG6","2012-02-20 05:00","2012","02","20","05:00","-12.8","","-17.8","","66","","","","35","","7","","","","101.81","","","","-17","","NA"
"-70.78","47.08","CAP-TOURMENTE","7041JG6","2012-02-20 06:00","2012","02","20","06:00","-11.9","","-18.1","","60","","","","36","","7","","","","101.82","","","","-16","","NA"
"-70.78","47.08","CAP-TOURMENTE","7041JG6","2012-02-20 07:00","2012","02","20","07:00","-11.8","","-18.5","","57","","","","36","","13","","","","101.89","","","","-18","","NA"
"-70.78","47.08","CAP-TOURMENTE","7041JG6","2012-02-20 08:00","2012","02","20","08:00","-9.9","","-19.8","","44","","","","35","","13","","","","101.91","","","","-16","","NA"
"-70.78","47.08","CAP-TOURMENTE","7041JG6","2012-02-20 09:00","2012","02","20","09:00","-7.2","","-19.5","","37","","","","29","","7","","","","101.96","","","","-11","","NA"
"-70.78","47.08","CAP-TOURMENTE","7041JG6","2012-02-20 10:00","2012","02","20","10:00","-8.0","","-15.7","","54","","","","24","","13","","","","101.99","","","","-14","","NA"
"-70.78","47.08","CAP-TOURMENTE","7041JG6","2012-02-20 11:00","2012","02","20","11:00","-7.5","","-16.1","","50","","","","18","","9","","","","102.03","","","","-12","","NA"
"-70.78","47.08","CAP-TOURMENTE","7041JG6","2012-02-20 12:00","2012","02","20","12:00","-6.3","","-15.1","","50","","","","20","","7","","","","102.02","","","","-10","","NA"
"-70.78","47.08","CAP-TOURMENTE","7041JG6","2012-02-20 13:00","2012","02","20","13:00","-5.3","","-12.9","","55","","","","20","","6","","","","102.01","","","","-8","","NA"
"-70.78","47.08","CAP-TOURMENTE","7041JG6","2012-02-20 14:00","2012","02","20","14:00","-5.0","","-12.9","","54","","","","18","","2","","","","102.02","","","","-6","","NA"
"-70.78","47.08","CAP-TOURMENTE","7041JG6","2012-02-20 15:00","2012","02","20","15:00","-3.0","","-12.1","","49","","","","26","","13","","","","102.01","","","","-8","","NA"
"-70.78","47.08","CAP-TOURMENTE","7041JG6","2012-02-20 16:00","2012","02","20","16:00","-2.0","","-10.6","","52","","","","26","","9","","","","102.01","","","","-5","","NA"
"-70.78","47.08","CAP-TOURMENTE","7041JG6","2012-02-20 17:00","2012","02","20","17:00","-2.7","","-11.1","","52","","","","27","","7","","","","102.09","","","","-6","","NA"
"-70.78","47.08","CAP-TOURMENTE","7041JG6","2012-02-20 18:00","2012","02","20","18:00","-5.3","","-11.7","","61","","","","26","","6","","","","102.22","","","","-8","","NA"
"-70.78","47.08","CAP-TOURMENTE","7041JG6","2012-02-20 19:00","2012","02","20","19:00","-7.6","","-11.7","","72","","","","31","","4","","","","102.30","","","","-10","","NA"
"-70.78","47.08","CAP-TOURMENTE","7041JG6","2012-02-20 20:00","2012","02","20","20:00","-9.1","","-12.6","","76","","","","29","","6","","","","102.37","","","","-12","","NA"
"-70.78","47.08","CAP-TOURMENTE","7041JG6","2012-02-20 21:00","2012","02","20","21:00","-10.4","","-13.3","","79","","","","32","","6","","","","102.41","","","","-14","","NA"
"-70.78","47.08","CAP-TOURMENTE","7041JG6","2012-02-20 22:00","2012","02","20","22:00","-10.9","","-13.5","","81","","","","30","","4","","","","102.44","","","","-13","","NA"
"-70.78","47.08","CAP-TOURMENTE","7041JG6","2012-02-20 23:00","2012","02","20","23:00","-11.8","","-14.1","","83","","","","31","","6","","","","102.46","","","","-16","","NA"
"-70.78","47.08","CAP-TOURMENTE","7041JG6","2012-02-21 00:00","2012","02","21","00:00","-11.8","","-14.3","","82","","","","32","","7","","","","102.45","","","","-16","","NA"
"-70.78","47.08","CAP-TOURMENTE","7041JG6","2012-02-21 01:00","2012","02","21","01:00","-12.9","","-15.5","","81","","","","31","","7","","","","102.45","","","","-17","","NA"
"-70.78","47.08","CAP-TOURMENTE","7041JG6","2012-02-21 02:00","2012","02","21","02:00","-12.7","","-14.9","","84","","","","32","","6","","","","102.46","","","","-17","","NA"
"-70.78","47.08","CAP-TOURMENTE","7041JG6","2012-02-21 03:00","2012","02","21","03:00","-14.3","","-15.8","","88","","","","32","","6","","","","102.44","","","","-18","","NA"
"-70.78","47.08","CAP-TOURMENTE","7041JG6","2012-02-21 04:00","2012","02","21","04:00","-13.6","","-15.7","","84","","","","33","","4","","","","102.42","","","","-16","","NA"
"-70.78","47.08","CAP-TOURMENTE","7041JG6","2012-02-21 05:00","2012","02","21","05:00","-12.1","","-14.0","","86","","","","30","","6","","","","102.44","","","","-16","","NA"
"-70.78","47.08","CAP-TOURMENTE","7041JG6","2012-02-21 06:00","2012","02","21","06:00","-15.7","","-17.4","","87","","","","29","","6","","","","102.43","","","","-20","","NA"
"-70.78","47.08","CAP-TOURMENTE","7041JG6","2012-02-21 07:00","2012","02","21","07:00","-14.2","","-15.9","","87","","","","26","","6","","","","102.45","","","","-18","","NA"
"-70.78","47.08","CAP-TOURMENTE","7041JG6","2012-02-21 08:00","2012","02","21","08:00","-9.4","","-13.1","","74","","","","30","","6","","","","102.45","","","","-13","","NA"
"-70.78","47.08","CAP-TOURMENTE","7041JG6","2012-02-21 09:00","2012","02","21","09:00","-7.9","","-11.9","","73","","","","25","","11","","","","102.41","","","","-13","","NA"
"-70.78","47.08","CAP-TOURMENTE","7041JG6","2012-02-21 10:00","2012","02","21","10:00","-6.2","","-10.5","","72","","","","23","","9","","","","102.27","","","","-10","","NA"
"-70.78","47.08","CAP-TOURMENTE","7041JG6","2012-02-21 11:00","2012","02","21","11:00","-4.4","","-8.9","","71","","","","22","","6","","","","102.13","","","","-7","","NA"
"-70.78","47.08","CAP-TOURMENTE","7041JG6","2012-02-21 12:00","2012","02","21","12:00","-4.0","","-8.8","","69","","","","19","","6","","","","101.98","","","","-7","","NA"
"-70.78","47.08","CAP-TOURMENTE","7041JG6","2012-02-21 13:00","2012","02","21","13:00","-3.3","","-8.0","","70","","","","15","","4","","","","101.88","","","","-5","","NA"
"-70.78","47.08","CAP-TOURMENTE","7041JG6","2012-02-21 14:00","2012","02","21","14:00","-0.8","","-6.7","","64","","","","27","","6","","","","101.73","","","","-3","","NA"
"-70.78","47.08","CAP-TOURMENTE","7041JG6","2012-02-21 15:00","2012","02","21","15:00","0.4","","-6.6","","59","","","","26","","7","","","","101.59","","","","","","NA"
"-70.78","47.08","CAP-TOURMENTE","7041JG6","2012-02-21 16:00","2012","02","21","16:00","0.1","","-6.9","","59","","","","26","","7","","","","101.44","","","","","","NA"
"-70.78","47.08","CAP-TOURMENTE","7041JG6","2012-02-21 17:00","2012","02","21","17:00","-1.7","","-6.0","","72","","","","33","","4","","","","101.28","","","","-3","","NA"
"-70.78","47.08","CAP-TOURMENTE","7041JG6","2012-02-21 18:00","2012","02","21","18:00","-0.3","","-7.4","","59","","","","34","","6","","","","101.18","","","","-2","","NA"
"-70.78","47.08","CAP-TOURMENTE","7041JG6","2012-02-21 19:00","2012","02","21","19:00","-3.0","","-4.8","","87","","","","35","","2","","","","101.08","","","","-4","","NA"
"-70.78","47.08","CAP-TOURMENTE","7041JG6","2012-02-21 20:00","2012","02","21","20:00","-3.9","","-6.5","","82","","","","36","","4","","","","100.97","","","","-6","","NA"
"-70.78","47.08","CAP-TOURMENTE","7041JG6","2012-02-21 21:00","2012","02","21","21:00","-3.7","","-6.6","","80","","","","28","","4","","","","100.88","","","","-5","","NA"
"-70.78","47.08","CAP-TOURMENTE","7041JG6","2012-02-21 22:00","2012","02","21","22:00","-4.8","","-7.4","","82","","","","32","","4","","","","100.82","","","","-7","","NA"
"-70.78","47.08","CAP-TOURMENTE","7041JG6","2012-02-21 23:00","2012","02","21","23:00","-3.7","","-7.8","","73","","","","33","","6","","","","100.74","","","","-6","","NA"
"-70.78","47.08","CAP-TOURMENTE","7041JG6","2012-02-22 00:00","2012","02","22","00:00","-4.2","","-8.3","","73","","","","32","","4","","","","100.64","","","","-6","","NA"
"-70.78","47.08","CAP-TOURMENTE","7041JG6","2012-02-22 01:00","2012","02","22","01:00","-4.4","","-7.7","","78","","","","28","","4","","","","100.60","","","","-6","","NA"
"-70.78","47.08","CAP-TOURMENTE","7041JG6","2012-02-22 02:00","2012","02","22","02:00","-4.8","","-7.7","","80","","","","36","","2","","","","100.49","","","","-6","","NA"
"-70.78","47.08","CAP-TOURMENTE","7041JG6","2012-02-22 03:00","2012","02","22","03:00","-4.7","","-7.1","","83","","","","34","","2","","","","100.44","","","","-6","","NA"
"-70.78","47.08","CAP-TOURMENTE","7041JG6","2012-02-22 04:00","2012","02","22","04:00","-3.9","","-6.4","","83","","","","","","0","","","","100.36","","","","","","NA"
"-70.78","47.08","CAP-TOURMENTE","7041JG6","2012-02-22 05:00","2012","02","22","05:00","-4.0","","-6.0","","86","","","","29","","2","","","","100.28","","","","-5","","NA"
"-70.78","47.08","CAP-TOURMENTE","7041JG6","2012-02-22 06:00","2012","02","22","06:00","-3.9","","-5.7","","87","","","","","","0","","","","100.20","","","","","","NA"
"-70.78","47.08","CAP-TOURMENTE","7041JG6","2012-02-22 07:00","2012","02","22","07:00","-3.4","","-5.1","","88","","","","28","","2","","","","100.15","","","","-4","","NA"
"-70.78","47.08","CAP-TOURMENTE","7041JG6","2012-02-22 08:00","2012","02","22","08:00","-2.5","","-4.3","","87","","","","26","","4","","","","100.08","","","","-4","","NA"
"-70.78","47.08","CAP-TOURMENTE","7041JG6","2012-02-22 09:00","2012","02","22","09:00","-2.2","","-3.2","","93","","","","23","","2","","","","100.00","","","","-3","","NA"
"-70.78","47.08","CAP-TOURMENTE","7041JG6","2012-02-22 10:00","2012","02","22","10:00","-1.5","","-2.7","","92","","","","21","","2","","","","99.93","","","","-2","","NA"
"-70.78","47.08","CAP-TOURMENTE","7041JG6","2012-02-22 11:00","2012","02","22","11:00","-1.3","","-2.4","","92","","","","10","","4","","","","99.84","","","","-3","","NA"
"-70.78","47.08","CAP-TOURMENTE","7041JG6","2012-02-22 12:00","2012","02","22","12:00","-0.6","","-1.9","","91","","","","15","","2","","","","99.74","","","","-1","","NA"
"-70.78","47.08","CAP-TOURMENTE","7041JG6","2012-02-22 13:00","2012","02","22","13:00","-0.8","","-2.1","","91","","","","21","","2","","","","99.67","","","","-1","","NA"
"-70.78","47.08","CAP-TOURMENTE","7041JG6","2012-02-22 14:00","2012","02","22","14:00","-1.1","","-1.8","","95","","","","22","","6","","","","99.62","","","","-3","","NA"
"-70.78","47.08","CAP-TOURMENTE","7041JG6","2012-02-22 15:00","2012","02","22","15:00","0.1","","-0.8","","94","","","","27","","6","","","","99.60","","","","","","NA"
"-70.78","47.08","CAP-TOURMENTE","7041JG6","2012-02-22 16:00","2012","02","22","16:00","1.2","","-0.3","","90","","","","27","","6","","","","99.60","","","","","","NA"
"-70.78","47.08","CAP-TOURMENTE","7041JG6","2012-02-22 17:00","2012","02","22","17:00","1.1","","-0.2","","91","","","","29","","6","","","","99.59","","","","","","NA"
"-70.78","47.08","CAP-TOURMENTE","7041JG6","2012-02-22 18:00","2012","02","22","18:00","-0.6","","-1.1","","96","","","","31","","4","","","","99.63","","","","-2","","NA"
"-70.78","47.08","CAP-TOURMENTE","7041JG6","2012-02-22 19:00","2012","02","22","19:00","-1.5","","-1.8","","98","","","","31","","4","","","","99.63","","","","-3","","NA"
"-70.78","47.08","CAP-TOURMENTE","7041JG6","2012-02-22 20:00","2012","02","22","20:00","-1.4","","-1.7","","98","","","","27","","4","","","","99.67","","","","-3","","NA"
"-70.78","47.08","CAP-TOURMENTE","7041JG6","2012-02-22 21:00","2012","02","22","21:00","0.2","","-0.2","","97","","","","28","","6","","","","99.69","","","","","","NA"
"-70.78","47.08","CAP-TOURMENTE","7041JG6","2012-02-22 22:00","2012","02","22","22:00","0.3","","-0.1","","97","","","","28","","4","","","","99.68","","","","","","NA"
"-70.78","47.08","CAP-TOURMENTE","7041JG6","2012-02-22 23:00","2012","02","22","23:00","0.6","","-0.1","","95","","","","27","","6","","","","99.64","","","","","","NA"
"-70.78","47.08","CAP-TOURMENTE","7041JG6","2012-02-23 00:00","2012","02","23","00:00","0.7","","-0.2","","94","","","","30","","4","","","","99.60","","","","","","NA"
"-70.78","47.08","CAP-TOURMENTE","7041JG6","2012-02-23 01:00","2012","02","23","01:00","0.3","","-0.2","","96","","","","28","","4","","","","99.63","","","","","","NA"
"-70.78","47.08","CAP-TOURMENTE","7041JG6","2012-02-23 02:00","2012","02","23","02:00","0.6","","0.0","","96","","","","29","","4","","","","99.57","","","","","","NA"
"-70.78","47.08","CAP-TOURMENTE","7041JG6","2012-02-23 03:00","2012","02","23","03:00","0.7","","0.0","","95","","","","30","","4","","","","99.52","","","","","","NA"
"-70.78","47.08","CAP-TOURMENTE","7041JG6","2012-02-23 04:00","2012","02","23","04:00","0.2","","-0.2","","97","","","","","","0","","","","99.51","","","","","","NA"
"-70.78","47.08","CAP-TOURMENTE","7041JG6","2012-02-23 05:00","2012","02","23","05:00","0.1","","-0.3","","97","","","","32","","2","","","","99.50","","","","","","NA"
"-70.78","47.08","CAP-TOURMENTE","7041JG6","2012-02-23 06:00","2012","02","23","06:00","0.1","","-0.2","","98","","","","","","0","","","","99.45","","","","","","NA"
"-70.78","47.08","CAP-TOURMENTE","7041JG6","2012-02-23 07:00","2012","02","23","07:00","0.3","","0.0","","98","","","","6","","6","","","","99.46","","","","","","NA"
"-70.78","47.08","CAP-TOURMENTE","7041JG6","2012-02-23 08:00","2012","02","23","08:00","0.4","","0.1","","98","","","","25","","4","","","","99.53","","","","","","NA"
"-70.78","47.08","CAP-TOURMENTE","7041JG6","2012-02-23 09:00","2012","02","23","09:00","0.3","","-0.2","","96","","","","11","","4","","","","99.55","","","","","","NA"
"-70.78","47.08","CAP-TOURMENTE","7041JG6","2012-02-23 10:00","2012","02","23","10:00","0.5","","-0.3","","94","","","","10","","4","","","","99.53","","","","","","NA"
"-70.78","47.08","CAP-TOURMENTE","7041JG6","2012-02-23 11:00","2012","02","23","11:00","0.4","","-0.3","","95","","","","8","","6","","","","99.56","","","","","","NA"
"-70.78","47.08","CAP-TOURMENTE","7041JG6","2012-02-23 12:00","2012","02","23","12:00","0.9","","-0.3","","92","","","","13","","4","","","","99.52","","","","","","NA"
"-70.78","47.08","CAP-TOURMENTE","7041JG6","2012-02-23 13:00","2012","02","23","13:00","1.3","","-0.4","","88","","","","19","","4","","","","99.50","","","","","","NA"
"-70.78","47.08","CAP-TOURMENTE","7041JG6","2012-02-23 14:00","2012","02","23","14:00","1.6","","0.1","","90","","","","20","","4","","","","99.54","","","","","","NA"
"-70.78","47.08","CAP-TOURMENTE","7041JG6","2012-02-23 15:00","2012","02","23","15:00","1.8","","0.2","","89","","","","","","0","","","","99.59","","","","","","NA"
"-70.78","47.08","CAP-TOURMENTE","7041JG6","2012-02-23 16:00","2012","02","23","16:00","1.5","","0.2","","91","","","","17","","4","","","","99.65","","","","","","NA"
"-70.78","47.08","CAP-TOURMENTE","7041JG6","2012-02-23 17:00","2012","02","23","17:00","0.7","","0.0","","95","","","","6","","9","","","","99.76","","","","","","NA"
"-70.78","47.08","CAP-TOURMENTE","7041JG6","2012-02-23 18:00","2012","02","23","18:00","0.1","","-0.5","","96","","","","9","","2","","","","99.89","","","","","","NA"
"-70.78","47.08","CAP-TOURMENTE","7041JG6","2012-02-23 19:00","2012","02","23","19:00","0.1","","-0.5","","96","","","","13","","4","","","","100.02","","","","","","NA"
"-70.78","47.08","CAP-TOURMENTE","7041JG6","2012-02-23 20:00","2012","02","23","20:00","-0.3","","-0.8","","96","","","","23","","6","","","","100.12","","","","-2","","NA"
"-70.78","47.08","CAP-TOURMENTE","7041JG6","2012-02-23 21:00","2012","02","23","21:00","-0.9","","-1.3","","97","","","","26","","4","","","","100.20","","","","-2","","NA"
"-70.78","47.08","CAP-TOURMENTE","7041JG6","2012-02-23 22:00","2012","02","23","22:00","-2.3","","-3.0","","95","","","","28","","6","","","","100.28","","","","-5","","NA"
"-70.78","47.08","CAP-TOURMENTE","7041JG6","2012-02-23 23:00","2012","02","23","23:00","-2.4","","-3.4","","93","","","","26","","4","","","","100.34","","","","-4","","NA"
"-70.78","47.08","CAP-TOURMENTE","7041JG6","2012-02-24 00:00","2012","02","24","00:00","-3.8","","-4.4","","96","","","","34","","4","","","","100.40","","","","-5","","NA"
"-70.78","47.08","CAP-TOURMENTE","7041JG6","2012-02-24 01:00","2012","02","24","01:00","-4.5","","-5.2","","95","","","","30","","6","","","","100.46","","","","-7","","NA"
"-70.78","47.08","CAP-TOURMENTE","7041JG6","2012-02-24 02:00","2012","02","24","02:00","-4.6","","-5.4","","94","","","","31","","6","","","","100.44","","","","-7","","NA"
"-70.78","47.08","CAP-TOURMENTE","7041JG6","2012-02-24 03:00","2012","02","24","03:00","-5.1","","-6.0","","93","","","","32","","7","","","","100.46","","","","-8","","NA"
"-70.78","47.08","CAP-TOURMENTE","7041JG6","2012-02-24 04:00","2012","02","24","04:00","-6.0","","-7.3","","90","","","","28","","7","","","","100.45","","","","-9","","NA"
"-70.78","47.08","CAP-TOURMENTE","7041JG6","2012-02-24 05:00","2012","02","24","05:00","-6.8","","-7.9","","92","","","","29","","6","","","","100.67","","","","-10","","NA"
"-70.78","47.08","CAP-TOURMENTE","7041JG6","2012-02-24 06:00","2012","02","24","06:00","-6.8","","-8.2","","90","","","","28","","6","","","","100.70","","","","-10","","NA"
"-70.78","47.08","CAP-TOURMENTE","7041JG6","2012-02-24 07:00","2012","02","24","07:00","-5.6","","-7.2","","88","","","","35","","7","","","","100.68","","","","-9","","NA"
"-70.78","47.08","CAP-TOURMENTE","7041JG6","2012-02-24 08:00","2012","02","24","08:00","0.1","","-6.8","","60","","","","7","","6","","","","100.71","","","","","","NA"
"-70.78","47.08","CAP-TOURMENTE","7041JG6","2012-02-24 09:00","2012","02","24","09:00","0.9","","-7.0","","55","","","","31","","9","","","","100.72","","","","","","NA"
"-70.78","47.08","CAP-TOURMENTE","7041JG6","2012-02-24 10:00","2012","02","24","10:00","-0.8","","-4.7","","75","","","","24","","6","","","","100.74","","","","-3","","NA"
"-70.78","47.08","CAP-TOURMENTE","7041JG6","2012-02-24 11:00","2012","02","24","11:00","-0.4","","-5.5","","68","","","","23","","6","","","","100.78","","","","-2","","NA"
"-70.78","47.08","CAP-TOURMENTE","7041JG6","2012-02-24 12:00","2012","02","24","12:00","0.1","","-4.8","","70","","","","14","","4","","","","100.69","","","","","","NA"
"-70.78","47.08","CAP-TOURMENTE","7041JG6","2012-02-24 13:00","2012","02","24","13:00","0.1","","-5.1","","68","","","","18","","2","","","","100.66","","","","","","NA"
"-70.78","47.08","CAP-TOURMENTE","7041JG6","2012-02-24 14:00","2012","02","24","14:00","0.8","","-5.1","","65","","","","10","","13","","","","100.46","","","","","","NA"
"-70.78","47.08","CAP-TOURMENTE","7041JG6","2012-02-24 15:00","2012","02","24","15:00","0.6","","-5.3","","65","","","","9","","19","","","","100.42","","","","","","NA"
"-70.78","47.08","CAP-TOURMENTE","7041JG6","2012-02-24 16:00","2012","02","24","16:00","1.1","","-5.6","","61","","","","7","","13","","","","100.31","","","","","","NA"
"-70.78","47.08","CAP-TOURMENTE","7041JG6","2012-02-24 17:00","2012","02","24","17:00","1.5","","-4.8","","63","","","","5","","11","","","","100.21","","","","","","NA"
"-70.78","47.08","CAP-TOURMENTE","7041JG6","2012-02-24 18:00","2012","02","24","18:00","2.2","","-3.6","","65","","","","4","","22","","","","100.06","","","","","","NA"
"-70.78","47.08","CAP-TOURMENTE","7041JG6","2012-02-24 19:00","2012","02","24","19:00","2.5","","-4.0","","62","","","","3","","26","","","","99.94","","","","","","NA"
"-70.78","47.08","CAP-TOURMENTE","7041JG6","2012-02-24 20:00","2012","02","24","20:00","1.2","","-2.5","","76","","","","3","","20","","","","99.85","","","","","","NA"
"-70.78","47.08","CAP-TOURMENTE","7041JG6","2012-02-24 21:00","2012","02","24","21:00","0.2","","-1.0","","92","","","","3","","24","","","","99.74","","","","","","NA"
"-70.78","47.08","CAP-TOURMENTE","7041JG6","2012-02-24 22:00","2012","02","24","22:00","0.8","","-0.2","","93","","","","4","","22","","","","99.68","","","","","","NA"
"-70.78","47.08","CAP-TOURMENTE","7041JG6","2012-02-24 23:00","2012","02","24","23:00","0.6","","-0.2","","94","","","","4","","20","","","","99.43","","","","","","NA"
"-70.78","47.08","CAP-TOURMENTE","7041JG6","2012-02-25 00:00","2012","02","25","00:00","0.3","","-0.2","","96","","","","4","","22","","","","99.24","","","","","","NA"
"-70.78","47.08","CAP-TOURMENTE","7041JG6","2012-02-25 01:00","2012","02","25","01:00","0.2","","-0.1","","98","","","","5","","24","","","","99.09","","","","","","NA"
"-70.78","47.08","CAP-TOURMENTE","7041JG6","2012-02-25 02:00","2012","02","25","02:00","0.0","","-0.3","","98","","","","4","","24","","","","98.84","","","","-6","","NA"
"-70.78","47.08","CAP-TOURMENTE","7041JG6","2012-02-25 03:00","2012","02","25","03:00","-0.3","","-0.6","","98","","","","5","","22","","","","98.64","","","","-6","","NA"
"-70.78","47.08","CAP-TOURMENTE","7041JG6","2012-02-25 04:00","2012","02","25","04:00","0.0","","-0.4","","97","","","","5","","24","","","","98.50","","","","-6","","NA"
"-70.78","47.08","CAP-TOURMENTE","7041JG6","2012-02-25 05:00","2012","02","25","05:00","-0.2","","-0.8","","96","","","","5","","22","","","","98.42","","","","-6","","NA"
"-70.78","47.08","CAP-TOURMENTE","7041JG6","2012-02-25 06:00","2012","02","25","06:00","-0.1","","-0.7","","96","","","","6","","22","","","","98.36","","","","-6","","NA"
"-70.78","47.08","CAP-TOURMENTE","7041JG6","2012-02-25 07:00","2012","02","25","07:00","-0.2","","-0.8","","96","","","","7","","20","","","","98.36","","","","-5","","NA"
"-70.78","47.08","CAP-TOURMENTE","7041JG6","2012-02-25 08:00","2012","02","25","08:00","-0.1","","-0.9","","94","","","","7","","17","","","","98.36","","","","-5","","NA"
"-70.78","47.08","CAP-TOURMENTE","7041JG6","2012-02-25 09:00","2012","02","25","09:00","-0.3","","-1.4","","92","","","","7","","30","","","","98.34","","","","-7","","NA"
"-70.78","47.08","CAP-TOURMENTE","7041JG6","2012-02-25 10:00","2012","02","25","10:00","0.0","","-1.0","","93","","","","8","","17","","","","98.36","","","","-5","","NA"
"-70.78","47.08","CAP-TOURMENTE","7041JG6","2012-02-25 11:00","2012","02","25","11:00","0.0","","-1.0","","93","","","","8","","20","","","","98.38","","","","-5","","NA"
"-70.78","47.08","CAP-TOURMENTE","7041JG6","2012-02-25 12:00","2012","02","25","12:00","0.3","","-0.8","","92","","","","22","","4","","","","98.43","","","","","","NA"
"-70.78","47.08","CAP-TOURMENTE","7041JG6","2012-02-25 13:00","2012","02","25","13:00","0.0","","-0.7","","95","","","","22","","4","","","","98.52","","","","-1","","NA"
"-70.78","47.08","CAP-TOURMENTE","7041JG6","2012-02-25 14:00","2012","02","25","14:00","0.3","","-0.7","","93","","","","26","","9","","","","98.59","","","","","","NA"
"-70.78","47.08","CAP-TOURMENTE","7041JG6","2012-02-25 15:00","2012","02","25","15:00","0.3","","-0.4","","95","","","","25","","6","","","","98.70","","","","","","NA"
"-70.78","47.08","CAP-TOURMENTE","7041JG6","2012-02-25 16:00","2012","02","25","16:00","0.1","","-0.5","","96","","","","24","","6","","","","98.82","","","","","","NA"
"-70.78","47.08","CAP-TOURMENTE","7041JG6","2012-02-25 17:00","2012","02","25","17:00","-0.2","","-0.9","","95","","","","26","","7","","","","98.93","","","","-3","","NA"
"-70.78","47.08","CAP-TOURMENTE","7041JG6","2012-02-25 18:00","2012","02","25","18:00","-0.5","","-1.1","","96","","","","27","","7","","","","99.05","","","","-3","","NA"
"-70.78","47.08","CAP-TOURMENTE","7041JG6","2012-02-25 19:00","2012","02","25","19:00","-1.5","","-1.9","","97","","","","32","","2","","","","99.19","","","","-2","","NA"
"-70.78","47.08","CAP-TOURMENTE","7041JG6","2012-02-25 20:00","2012","02","25","20:00","-1.3","","-1.7","","97","","","","29","","6","","","","99.31","","","","-4","","NA"
"-70.78","47.08","CAP-TOURMENTE","7041JG6","2012-02-25 21:00","2012","02","25","21:00","0.5","","-4.0","","72","","","","29","","9","","","","99.49","","","","","","NA"
"-70.78","47.08","CAP-TOURMENTE","7041JG6","2012-02-25 22:00","2012","02","25","22:00","-0.6","","-5.3","","70","","","","26","","6","","","","99.73","","","","-3","","NA"
"-70.78","47.08","CAP-TOURMENTE","7041JG6","2012-02-25 23:00","2012","02","25","23:00","-1.8","","-5.7","","75","","","","30","","6","","","","99.90","","","","-4","","NA"
"-70.78","47.08","CAP-TOURMENTE","7041JG6","2012-02-26 00:00","2012","02","26","00:00","-2.5","","-8.8","","62","","","","27","","9","","","","100.13","","","","-6","","NA"
"-70.78","47.08","CAP-TOURMENTE","7041JG6","2012-02-26 01:00","2012","02","26","01:00","-3.9","","-10.7","","59","","","","26","","11","","","","100.36","","","","-8","","NA"
"-70.78","47.08","CAP-TOURMENTE","7041JG6","2012-02-26 02:00","2012","02","26","02:00","-5.0","","-12.1","","57","","","","27","","11","","","","100.54","","","","-10","","NA"
"-70.78","47.08","CAP-TOURMENTE","7041JG6","2012-02-26 03:00","2012","02","26","03:00","-5.8","","-12.4","","60","","","","28","","6","","","","100.76","","","","-9","","NA"
"-70.78","47.08","CAP-TOURMENTE","7041JG6","2012-02-26 04:00","2012","02","26","04:00","-6.6","","-13.8","","57","","","","26","","11","","","","100.94","","","","-12","","NA"
"-70.78","47.08","CAP-TOURMENTE","7041JG6","2012-02-26 05:00","2012","02","26","05:00","-8.4","","-14.2","","63","","","","27","","6","","","","101.12","","","","-12","","NA"
"-70.78","47.08","CAP-TOURMENTE","7041JG6","2012-02-26 06:00","2012","02","26","06:00","-8.6","","-14.8","","61","","","","25","","6","","","","101.27","","","","-12","","NA"
"-70.78","47.08","CAP-TOURMENTE","7041JG6","2012-02-26 07:00","2012","02","26","07:00","-8.8","","-15.7","","57","","","","27","","4","","","","101.44","","","","-11","","NA"
"-70.78","47.08","CAP-TOURMENTE","7041JG6","2012-02-26 08:00","2012","02","26","08:00","-8.0","","-16.6","","50","","","","23","","7","","","","101.59","","","","-12","","NA"
"-70.78","47.08","CAP-TOURMENTE","7041JG6","2012-02-26 09:00","2012","02","26","09:00","-7.1","","-16.6","","47","","","","34","","7","","","","101.74","","","","-11","","NA"
"-70.78","47.08","CAP-TOURMENTE","7041JG6","2012-02-26 10:00","2012","02","26","10:00","-6.5","","-16.1","","46","","","","22","","7","","","","101.83","","","","-10","","NA"
"-70.78","47.08","CAP-TOURMENTE","7041JG6","2012-02-26 11:00","2012","02","26","11:00","-5.5","","-15.2","","46","","","","23","","13","","","","101.87","","","","-11","","NA"
"-70.78","47.08","CAP-TOURMENTE","7041JG6","2012-02-26 12:00","2012","02","26","12:00","-3.5","","-15.7","","38","","","","25","","13","","","","101.93","","","","-8","","NA"
"-70.78","47.08","CAP-TOURMENTE","7041JG6","2012-02-26 13:00","2012","02","26","13:00","-3.1","","-17.0","","33","","","","26","","15","","","","101.96","","","","-8","","NA"
"-70.78","47.08","CAP-TOURMENTE","7041JG6","2012-02-26 14:00","2012","02","26","14:00","-4.2","","-15.9","","40","","","","25","","22","","","","102.09","","","","-11","","NA"
"-70.78","47.08","CAP-TOURMENTE","7041JG6","2012-02-26 15:00","2012","02","26","15:00","-4.0","","-15.4","","41","","","","26","","19","","","","102.24","","","","-10","","NA"
"-70.78","47.08","CAP-TOURMENTE","7041JG6","2012-02-26 16:00","2012","02","26","16:00","-4.8","","-15.2","","44","","","","26","","15","","","","102.36","","","","-10","","NA"
"-70.78","47.08","CAP-TOURMENTE","7041JG6","2012-02-26 17:00","2012","02","26","17:00","-6.5","","-16.4","","45","","","","27","","15","","","","102.53","","","","-12","","NA"
"-70.78","47.08","CAP-TOURMENTE","7041JG6","2012-02-26 18:00","2012","02","26","18:00","-8.7","","-14.8","","61","","","","28","","6","","","","102.61","","","","-12","","NA"
"-70.78","47.08","CAP-TOURMENTE","7041JG6","2012-02-26 19:00","2012","02","26","19:00","-10.6","","-15.3","","68","","","","30","","2","","","","102.72","","","","-12","","NA"
"-70.78","47.08","CAP-TOURMENTE","7041JG6","2012-02-26 20:00","2012","02","26","20:00","-11.6","","-15.1","","75","","","","29","","4","","","","102.77","","","","-14","","NA"
"-70.78","47.08","CAP-TOURMENTE","7041JG6","2012-02-26 21:00","2012","02","26","21:00","-13.1","","-17.0","","72","","","","32","","6","","","","102.82","","","","-17","","NA"
"-70.78","47.08","CAP-TOURMENTE","7041JG6","2012-02-26 22:00","2012","02","26","22:00","-14.8","","-17.9","","77","","","","33","","6","","","","102.91","","","","-19","","NA"
"-70.78","47.08","CAP-TOURMENTE","7041JG6","2012-02-26 23:00","2012","02","26","23:00","-15.3","","-18.2","","78","","","","33","","7","","","","102.91","","","","-20","","NA"
"-70.78","47.08","CAP-TOURMENTE","7041JG6","2012-02-27 00:00","2012","02","27","00:00","-12.2","","-19.2","","56","","","","36","","15","","","","102.88","","","","-19","","NA"
"-70.78","47.08","CAP-TOURMENTE","7041JG6","2012-02-27 01:00","2012","02","27","01:00","-12.9","","-19.8","","56","","","","36","","17","","","","102.97","","","","-21","","NA"
"-70.78","47.08","CAP-TOURMENTE","7041JG6","2012-02-27 02:00","2012","02","27","02:00","-12.9","","-20.3","","54","","","","36","","19","","","","102.97","","","","-21","","NA"
"-70.78","47.08","CAP-TOURMENTE","7041JG6","2012-02-27 03:00","2012","02","27","03:00","-13.3","","-21.1","","52","","","","36","","19","","","","102.99","","","","-22","","NA"
"-70.78","47.08","CAP-TOURMENTE","7041JG6","2012-02-27 04:00","2012","02","27","04:00","-13.6","","-20.8","","55","","","","35","","17","","","","103.02","","","","-22","","NA"
"-70.78","47.08","CAP-TOURMENTE","7041JG6","2012-02-27 05:00","2012","02","27","05:00","-13.3","","-19.4","","60","","","","35","","11","","","","103.08","","","","-20","","NA"
"-70.78","47.08","CAP-TOURMENTE","7041JG6","2012-02-27 06:00","2012","02","27","06:00","-13.6","","-17.4","","73","","","","1","","4","","","","103.07","","","","-16","","NA"
"-70.78","47.08","CAP-TOURMENTE","7041JG6","2012-02-27 07:00","2012","02","27","07:00","-13.1","","-16.8","","74","","","","33","","6","","","","103.03","","","","-17","","NA"
"-70.78","47.08","CAP-TOURMENTE","7041JG6","2012-02-27 08:00","2012","02","27","08:00","-11.3","","-16.2","","67","","","","33","","4","","","","103.02","","","","-14","","NA"
"-70.78","47.08","CAP-TOURMENTE","7041JG6","2012-02-27 09:00","2012","02","27","09:00","-10.8","","-16.0","","65","","","","8","","6","","","","102.97","","","","-14","","NA"
"-70.78","47.08","CAP-TOURMENTE","7041JG6","2012-02-27 10:00","2012","02","27","10:00","-10.4","","-15.8","","65","","","","9","","4","","","","102.92","","","","-13","","NA"
"-70.78","47.08","CAP-TOURMENTE","7041JG6","2012-02-27 11:00","2012","02","27","11:00","-10.2","","-15.6","","65","","","","8","","9","","","","102.78","","","","-15","","NA"
"-70.78","47.08","CAP-TOURMENTE","7041JG6","2012-02-27 12:00","2012","02","27","12:00","-9.7","","-14.7","","67","","","","9","","19","","","","102.64","","","","-17","","NA"
"-70.78","47.08","CAP-TOURMENTE","7041JG6","2012-02-27 13:00","2012","02","27","13:00","-9.1","","-14.6","","64","","","","9","","20","","","","102.46","","","","-17","","NA"
"-70.78","47.08","CAP-TOURMENTE","7041JG6","2012-02-27 14:00","2012","02","27","14:00","-8.8","","-14.3","","64","","","","8","","22","","","","102.30","","","","-17","","NA"
"-70.78","47.08","CAP-TOURMENTE","7041JG6","2012-02-27 15:00","2012","02","27","15:00","-7.7","","-12.8","","67","","","","6","","6","","","","102.19","","","","-11","","NA"
"-70.78","47.08","CAP-TOURMENTE","7041JG6","2012-02-27 16:00","2012","02","27","16:00","-7.7","","-11.2","","76","","","","5","","17","","","","102.11","","","","-14","","NA"
"-70.78","47.08","CAP-TOURMENTE","7041JG6","2012-02-27 17:00","2012","02","27","17:00","-8.3","","-10.8","","82","","","","3","","6","","","","102.07","","","","-12","","NA"
"-70.78","47.08","CAP-TOURMENTE","7041JG6","2012-02-27 18:00","2012","02","27","18:00","-8.1","","-11.4","","77","","","","36","","4","","","","102.01","","","","-10","","NA"
"-70.78","47.08","CAP-TOURMENTE","7041JG6","2012-02-27 19:00","2012","02","27","19:00","-8.1","","-11.8","","75","","","","36","","9","","","","101.95","","","","-13","","NA"
"-70.78","47.08","CAP-TOURMENTE","7041JG6","2012-02-27 20:00","2012","02","27","20:00","-7.8","","-10.5","","81","","","","2","","4","","","","101.87","","","","-10","","NA"
"-70.78","47.08","CAP-TOURMENTE","7041JG6","2012-02-27 21:00","2012","02","27","21:00","-7.6","","-10.3","","81","","","","29","","4","","","","101.81","","","","-10","","NA"
"-70.78","47.08","CAP-TOURMENTE","7041JG6","2012-02-27 22:00","2012","02","27","22:00","-7.7","","-10.3","","82","","","","26","","6","","","","101.74","","","","-11","","NA"
"-70.78","47.08","CAP-TOURMENTE","7041JG6","2012-02-27 23:00","2012","02","27","23:00","-7.7","","-11.3","","75","","","","31","","6","","","","101.71","","","","-11","","NA"
"-70.78","47.08","CAP-TOURMENTE","7041JG6","2012-02-28 00:00","2012","02","28","00:00","-7.5","","-11.5","","73","","","","26","","7","","","","101.70","","","","-11","","NA"
"-70.78","47.08","CAP-TOURMENTE","7041JG6","2012-02-28 01:00","2012","02","28","01:00","-7.8","","-12.0","","72","","","","29","","7","","","","101.78","","","","-11","","NA"
"-70.78","47.08","CAP-TOURMENTE","7041JG6","2012-02-28 02:00","2012","02","28","02:00","-8.2","","-12.2","","73","","","","33","","9","","","","101.83","","","","-13","","NA"
"-70.78","47.08","CAP-TOURMENTE","7041JG6","2012-02-28 03:00","2012","02","28","03:00","-8.0","","-12.3","","71","","","","34","","9","","","","101.91","","","","-13","","NA"
"-70.78","47.08","CAP-TOURMENTE","7041JG6","2012-02-28 04:00","2012","02","28","04:00","-8.1","","-12.4","","71","","","","34","","7","","","","102.01","","","","-12","","NA"
"-70.78","47.08","CAP-TOURMENTE","7041JG6","2012-02-28 05:00","2012","02","28","05:00","-8.2","","-12.8","","69","","","","3","","6","","","","102.11","","","","-11","","NA"
"-70.78","47.08","CAP-TOURMENTE","7041JG6","2012-02-28 06:00","2012","02","28","06:00","-8.6","","-13.6","","67","","","","1","","9","","","","102.21","","","","-13","","NA"
"-70.78","47.08","CAP-TOURMENTE","7041JG6","2012-02-28 07:00","2012","02","28","07:00","-8.7","","-13.6","","68","","","","35","","7","","","","102.33","","","","-13","","NA"
"-70.78","47.08","CAP-TOURMENTE","7041JG6","2012-02-28 08:00","2012","02","28","08:00","-7.6","","-13.0","","65","","","","2","","2","","","","102.46","","","","-9","","NA"
"-70.78","47.08","CAP-TOURMENTE","7041JG6","2012-02-28 09:00","2012","02","28","09:00","-7.4","","-14.3","","58","","","","6","","7","","","","102.57","","","","-11","","NA"
"-70.78","47.08","CAP-TOURMENTE","7041JG6","2012-02-28 10:00","2012","02","28","10:00","-5.8","","-13.3","","55","","","","11","","7","","","","102.67","","","","-9","","NA"
"-70.78","47.08","CAP-TOURMENTE","7041JG6","2012-02-28 11:00","2012","02","28","11:00","-5.8","","-12.5","","59","","","","16","","4","","","","102.73","","","","-8","","NA"
"-70.78","47.08","CAP-TOURMENTE","7041JG6","2012-02-28 12:00","2012","02","28","12:00","-6.0","","-10.8","","69","","","","15","","6","","","","102.68","","","","-9","","NA"
"-70.78","47.08","CAP-TOURMENTE","7041JG6","2012-02-28 13:00","2012","02","28","13:00","-6.0","","-9.7","","75","","","","19","","6","","","","102.67","","","","-9","","NA"
"-70.78","47.08","CAP-TOURMENTE","7041JG6","2012-02-28 14:00","2012","02","28","14:00","-5.0","","-9.8","","69","","","","24","","9","","","","102.63","","","","-9","","NA"
"-70.78","47.08","CAP-TOURMENTE","7041JG6","2012-02-28 15:00","2012","02","28","15:00","-4.9","","-9.2","","72","","","","20","","7","","","","102.63","","","","-8","","NA"
"-70.78","47.08","CAP-TOURMENTE","7041JG6","2012-02-28 16:00","2012","02","28","16:00","-3.7","","-9.3","","65","","","","23","","7","","","","102.61","","","","-7","","NA"
"-70.78","47.08","CAP-TOURMENTE","7041JG6","2012-02-28 17:00","2012","02","28","17:00","-5.0","","-10.7","","64","","","","24","","9","","","","102.62","","","","-9","","NA"
"-70.78","47.08","CAP-TOURMENTE","7041JG6","2012-02-28 18:00","2012","02","28","18:00","-7.8","","-10.6","","80","","","","31","","4","","","","102.66","","","","-10","","NA"
"-70.78","47.08","CAP-TOURMENTE","7041JG6","2012-02-28 19:00","2012","02","28","19:00","-9.4","","-11.7","","83","","","","32","","7","","","","102.68","","","","-13","","NA"
"-70.78","47.08","CAP-TOURMENTE","7041JG6","2012-02-28 20:00","2012","02","28","20:00","-10.4","","-13.5","","78","","","","31","","6","","","","102.70","","","","-14","","NA"
"-70.78","47.08","CAP-TOURMENTE","7041JG6","2012-02-28 21:00","2012","02","28","21:00","-9.7","","-12.6","","79","","","","27","","9","","","","102.72","","","","-15","","NA"
"-70.78","47.08","CAP-TOURMENTE","7041JG6","2012-02-28 22:00","2012","02","28","22:00","-12.5","","-13.9","","89","","","","29","","4","","","","102.72","","","","-15","","NA"
"-70.78","47.08","CAP-TOURMENTE","7041JG6","2012-02-28 23:00","2012","02","28","23:00","-12.7","","-14.5","","86","","","","35","","4","","","","102.69","","","","-15","","NA"
"-70.78","47.08","CAP-TOURMENTE","7041JG6","2012-02-29 00:00","2012","02","29","00:00","-11.8","","-14.4","","81","","","","1","","4","","","","102.70","","","","-14","","NA"
"-70.78","47.08","CAP-TOURMENTE","7041JG6","2012-02-29 01:00","2012","02","29","01:00","-11.9","","-14.4","","82","","","","33","","4","","","","102.72","","","","-14","","NA"
"-70.78","47.08","CAP-TOURMENTE","7041JG6","2012-02-29 02:00","2012","02","29","02:00","-11.1","","-14.8","","74","","","","30","","9","","","","102.66","","","","-16","","NA"
"-70.78","47.08","CAP-TOURMENTE","7041JG6","2012-02-29 03:00","2012","02","29","03:00","-14.5","","-17.1","","81","","","","32","","6","","","","102.65","","","","-19","","NA"
"-70.78","47.08","CAP-TOURMENTE","7041JG6","2012-02-29 04:00","2012","02","29","04:00","-15.2","","-17.7","","81","","","","32","","6","","","","102.64","","","","-19","","NA"
"-70.78","47.08","CAP-TOURMENTE","7041JG6","2012-02-29 05:00","2012","02","29","05:00","-16.0","","-19.0","","78","","","","29","","7","","","","102.68","","","","-21","","NA"
"-70.78","47.08","CAP-TOURMENTE","7041JG6","2012-02-29 06:00","2012","02","29","06:00","-13.3","","-17.3","","72","","","","28","","9","","","","102.65","","","","-19","","NA"
"-70.78","47.08","CAP-TOURMENTE","7041JG6","2012-02-29 07:00","2012","02","29","07:00","-11.3","","-16.4","","66","","","","2","","7","","","","102.67","","","","-16","","NA"
"-70.78","47.08","CAP-TOURMENTE","7041JG6","2012-02-29 08:00","2012","02","29","08:00","-11.3","","-16.6","","65","","","","36","","4","","","","102.72","","","","-14","","NA"
"-70.78","47.08","CAP-TOURMENTE","7041JG6","2012-02-29 09:00","2012","02","29","09:00","-10.0","","-16.2","","60","","","","24","","6","","","","102.74","","","","-14","","NA"
"-70.78","47.08","CAP-TOURMENTE","7041JG6","2012-02-29 10:00","2012","02","29","10:00","-8.3","","-14.1","","63","","","","19","","4","","","","102.72","","","","-10","","NA"
"-70.78","47.08","CAP-TOURMENTE","7041JG6","2012-02-29 11:00","2012","02","29","11:00","-7.4","","-12.7","","66","","","","16","","4","","","","102.69","","","","-9","","NA"
"-70.78","47.08","CAP-TOURMENTE","7041JG6","2012-02-29 12:00","2012","02","29","12:00","-6.2","","-11.0","","69","","","","8","","4","","","","102.65","","","","-8","","NA"
"-70.78","47.08","CAP-TOURMENTE","7041JG6","2012-02-29 13:00","2012","02","29","13:00","-6.4","","-11.9","","65","","","","6","","4","","","","102.55","","","","-8","","NA"
"-70.78","47.08","CAP-TOURMENTE","7041JG6","2012-02-29 14:00","2012","02","29","14:00","-5.5","","-12.3","","59","","","","11","","6","","","","102.49","","","","-8","","NA"
"-70.78","47.08","CAP-TOURMENTE","7041JG6","2012-02-29 15:00","2012","02","29","15:00","-5.9","","-12.8","","58","","","","9","","7","","","","102.43","","","","-9","","NA"
"-70.78","47.08","CAP-TOURMENTE","7041JG6","2012-02-29 16:00","2012","02","29","16:00","-6.2","","-14.5","","52","","","","9","","13","","","","102.41","","","","-12","","NA"
"-70.78","47.08","CAP-TOURMENTE","7041JG6","2012-02-29 17:00","2012","02","29","17:00","-7.2","","-14.8","","55","","","","9","","9","","","","102.45","","","","-12","","NA"
"-70.78","47.08","CAP-TOURMENTE","7041JG6","2012-02-29 18:00","2012","02","29","18:00","-9.6","","-14.4","","68","","","","35","","4","","","","102.44","","","","-12","","NA"
"-70.78","47.08","CAP-TOURMENTE","7041JG6","2012-02-29 19:00","2012","02","29","19:00","-7.6","","-15.1","","55","","","","35","","7","","","","102.42","","","","-11","","NA"
"-70.78","47.08","CAP-TOURMENTE","7041JG6","2012-02-29 20:00","2012","02","29","20:00","-7.8","","-15.3","","55","","","","2","","11","","","","102.29","","","","-13","","NA"
"-70.78","47.08","CAP-TOURMENTE","7041JG6","2012-02-29 21:00","2012","02","29","21:00","-6.8","","-12.4","","64","","","","3","","13","","","","102.31","","","","-12","","NA"
"-70.78","47.08","CAP-TOURMENTE","7041JG6","2012-02-29 22:00","2012","02","29","22:00","-6.8","","-13.0","","61","","","","2","","13","","","","102.33","","","","-12","","NA"
"-70.78","47.08","CAP-TOURMENTE","7041JG6","2012-02-29 23:00","2012","02","29","23:00","-6.3","","-13.2","","58","","","","4","","15","","","","102.27","","","","-12","","NA"
