"Longitude (x)","Latitude (y)","Station Name","Climate ID","Date/Time (LST)","Year","Month","Day","Time (LST)","Temp (°C)","Temp Flag","Dew Point Temp (°C)","Dew Point Temp Flag","Rel Hum (%)","Rel Hum Flag","Precip. Amount (mm)","Precip. Amount Flag","Wind Dir (10s deg)","Wind Dir Flag","Wind Spd (km/h)","Wind Spd Flag","Visibility (km)","Visibility Flag","Stn Press (kPa)","Stn Press Flag","Hmdx","Hmdx Flag","Wind Chill","Wind Chill Flag","Weather"
"-85.05","73.01","ARCTIC BAY","2400399","2019-04-01 00:00","2019","04","01","00:00","-21.6","","-26.0","","68","","","M","","M","4","","","M","100.87","","","","-25","","NA"
"-85.05","73.01","ARCTIC BAY","2400399","2019-04-01 01:00","2019","04","01","01:00","-21.8","","-25.0","","76","","","M","","","0","","","M","100.89","","","","","","NA"
"-85.05","73.01","ARCTIC BAY","2400399","2019-04-01 02:00","2019","04","01","02:00","-22.1","","-25.3","","76","","","M","","","0","","","M","100.92","","","","","","NA"
"-85.05","73.01","ARCTIC BAY","2400399","2019-04-01 03:00","2019","04","01","03:00","-21.7","","-25.0","","75","","","M","","M","4","","","M","100.93","","","","-25","","NA"
"-85.05","73.01","ARCTIC BAY","2400399","2019-04-01 04:00","2019","04","01","04:00","-22.4","","-25.4","","77","","","M","","","0","","","M","100.96","","","","","","NA"
"-85.05","73.01","ARCTIC BAY","2400399","2019-04-01 05:00","2019","04","01","05:00","-21.9","","-24.9","","77","","","M","","","0","","","M","100.96","","","","","","NA"
"-85.05","73.01","ARCTIC BAY","2400399","2019-04-01 06:00","2019","04","01","06:00","-22.0","","-25.0","","77","","","M","","","0","","","M","100.98","","","","","","NA"
"-85.05","73.01","ARCTIC BAY","2400399","2019-04-01 07:00","2019","04","01","07:00","-21.8","","-25.0","","76","","","M","","","0","","","M","100.98","","","","","","NA"
"-85.05","73.01","ARCTIC BAY","2400399","2019-04-01 08:00","2019","04","01","08:00","-21.3","","-24.4","","77","","","M","","","0","","","M","100.99","","","","","","NA"
"-85.05","73.01","ARCTIC BAY","2400399","2019-04-01 09:00","2019","04","01","09:00","-21.0","","-24.4","","75","","","M","","M","4","","","M","101.00","","","","-25","","NA"
"-85.05","73.01","ARCTIC BAY","2400399","2019-04-01 10:00","2019","04","01","10:00","-23.5","","-26.0","","80","","","M","10","","5","","","M","101.03","","","","-28","","NA"
"-85.05","73.01","ARCTIC BAY","2400399","2019-04-01 11:00","2019","04","01","11:00","-21.2","","-24.5","","75","","","M","","","0","","","M","101.03","","","","","","NA"
"-85.05","73.01","ARCTIC BAY","2400399","2019-04-01 12:00","2019","04","01","12:00","-20.1","","-23.5","","75","","","M","","","0","","","M","101.01","","","","","","NA"
"-85.05","73.01","ARCTIC BAY","2400399","2019-04-01 13:00","2019","04","01","13:00","-21.1","","-24.1","","77","","","M","11","","5","","","M","101.04","","","","-26","","NA"
"-85.05","73.01","ARCTIC BAY","2400399","2019-04-01 14:00","2019","04","01","14:00","-18.9","","-22.8","","72","","","M","18","","5","","","M","101.05","","","","-23","","NA"
"-85.05","73.01","ARCTIC BAY","2400399","2019-04-01 15:00","2019","04","01","15:00","-18.5","","-22.2","","73","","","M","31","","8","","","M","101.07","","","","-24","","NA"
"-85.05","73.01","ARCTIC BAY","2400399","2019-04-01 16:00","2019","04","01","16:00","-20.1","","-23.2","","77","","","M","24","","4","","","M","101.08","","","","-24","","NA"
"-85.05","73.01","ARCTIC BAY","2400399","2019-04-01 17:00","2019","04","01","17:00","-19.9","","-22.9","","78","","","M","","M","4","","","M","101.12","","","","-23","","NA"
"-85.05","73.01","ARCTIC BAY","2400399","2019-04-01 18:00","2019","04","01","18:00","-20.1","","-23.3","","76","","","M","","M","4","","","M","101.15","","","","-24","","NA"
"-85.05","73.01","ARCTIC BAY","2400399","2019-04-01 19:00","2019","04","01","19:00","-19.8","","-23.1","","75","","","M","","","0","","","M","101.19","","","","","","NA"
"-85.05","73.01","ARCTIC BAY","2400399","2019-04-01 20:00","2019","04","01","20:00","-19.4","","-23.6","","70","","","M","","","0","","","M","101.24","","","","","","NA"
"-85.05","73.01","ARCTIC BAY","2400399","2019-04-01 21:00","2019","04","01","21:00","-23.0","","-25.3","","82","","","M","","","0","","","M","101.27","","","","","","NA"
"-85.05","73.01","ARCTIC BAY","2400399","2019-04-01 22:00","2019","04","01","22:00","-21.4","","-24.6","","76","","","M","","","0","","","M","101.25","","","","","","NA"
"-85.05","73.01","ARCTIC BAY","2400399","2019-04-01 23:00","2019","04","01","23:00","-21.0","","-24.9","","72","","","M","","M","4","","","M","101.23","","","","-25","","NA"
"-85.05","73.01","ARCTIC BAY","2400399","2019-04-02 00:00","2019","04","02","00:00","-22.2","","-25.5","","75","","","M","15","","11","","","M","101.21","","","","-30","","NA"
"-85.05","73.01","ARCTIC BAY","2400399","2019-04-02 01:00","2019","04","02","01:00","-22.6","","-26.0","","74","","","M","11","","11","","","M","101.20","","","","-31","","NA"
"-85.05","73.01","ARCTIC BAY","2400399","2019-04-02 02:00","2019","04","02","02:00","-21.3","","-25.6","","69","","","M","","","0","","","M","101.17","","","","","","NA"
"-85.05","73.01","ARCTIC BAY","2400399","2019-04-02 03:00","2019","04","02","03:00","-21.2","","-25.7","","68","","","M","","","0","","","M","101.15","","","","","","NA"
"-85.05","73.01","ARCTIC BAY","2400399","2019-04-02 04:00","2019","04","02","04:00","-21.3","","-26.1","","66","","","M","10","","11","","","M","101.11","","","","-29","","NA"
"-85.05","73.01","ARCTIC BAY","2400399","2019-04-02 05:00","2019","04","02","05:00","-21.5","","-26.7","","64","","","M","","M","4","","","M","101.08","","","","-25","","NA"
"-85.05","73.01","ARCTIC BAY","2400399","2019-04-02 06:00","2019","04","02","06:00","-21.8","","-26.3","","68","","","M","","","0","","","M","101.05","","","","","","NA"
"-85.05","73.01","ARCTIC BAY","2400399","2019-04-02 07:00","2019","04","02","07:00","-21.6","","-26.4","","66","","","M","","","0","","","M","101.02","","","","","","NA"
"-85.05","73.01","ARCTIC BAY","2400399","2019-04-02 08:00","2019","04","02","08:00","-22.6","","-26.9","","69","","","M","","M","4","","","M","100.97","","","","-26","","NA"
"-85.05","73.01","ARCTIC BAY","2400399","2019-04-02 09:00","2019","04","02","09:00","-23.6","","-28.0","","68","","","M","","M","4","","","M","100.92","","","","-27","","NA"
"-85.05","73.01","ARCTIC BAY","2400399","2019-04-02 10:00","2019","04","02","10:00","-22.1","","-26.5","","68","","","M","","","0","","","M","100.86","","","","","","NA"
"-85.05","73.01","ARCTIC BAY","2400399","2019-04-02 11:00","2019","04","02","11:00","-22.8","","-26.7","","71","","","M","","M","4","","","M","100.77","","","","-27","","NA"
"-85.05","73.01","ARCTIC BAY","2400399","2019-04-02 12:00","2019","04","02","12:00","-20.9","","-25.4","","68","","","M","28","","4","","","M","100.69","","","","-24","","NA"
"-85.05","73.01","ARCTIC BAY","2400399","2019-04-02 13:00","2019","04","02","13:00","-22.0","","-25.5","","74","","","M","","","0","","","M","100.63","","","","","","NA"
"-85.05","73.01","ARCTIC BAY","2400399","2019-04-02 14:00","2019","04","02","14:00","-21.1","","-25.1","","71","","","M","","M","4","","","M","100.59","","","","-25","","NA"
"-85.05","73.01","ARCTIC BAY","2400399","2019-04-02 15:00","2019","04","02","15:00","-19.6","","-24.2","","68","","","M","","","0","","","M","100.55","","","","","","NA"
"-85.05","73.01","ARCTIC BAY","2400399","2019-04-02 16:00","2019","04","02","16:00","-20.7","","-24.7","","71","","","M","","","0","","","M","100.48","","","","","","NA"
"-85.05","73.01","ARCTIC BAY","2400399","2019-04-02 17:00","2019","04","02","17:00","-19.4","","-23.9","","68","","","M","","","0","","","M","100.44","","","","","","NA"
"-85.05","73.01","ARCTIC BAY","2400399","2019-04-02 18:00","2019","04","02","18:00","-19.3","","-23.5","","70","","","M","","M","4","","","M","100.38","","","","-23","","NA"
"-85.05","73.01","ARCTIC BAY","2400399","2019-04-02 19:00","2019","04","02","19:00","-20.0","","-23.8","","73","","","M","","M","4","","","M","100.31","","","","-23","","NA"
"-85.05","73.01","ARCTIC BAY","2400399","2019-04-02 20:00","2019","04","02","20:00","-21.1","","-24.3","","76","","","M","","M","4","","","M","100.27","","","","-25","","NA"
"-85.05","73.01","ARCTIC BAY","2400399","2019-04-02 21:00","2019","04","02","21:00","-21.8","","-24.3","","81","","","M","","M","4","","","M","100.19","","","","-25","","NA"
"-85.05","73.01","ARCTIC BAY","2400399","2019-04-02 22:00","2019","04","02","22:00","-19.9","","-22.0","","83","","","M","34","","5","","","M","100.08","","","","-24","","NA"
"-85.05","73.01","ARCTIC BAY","2400399","2019-04-02 23:00","2019","04","02","23:00","-21.4","","-23.1","","87","","","M","","M","4","","","M","99.97","","","","-25","","NA"
"-85.05","73.01","ARCTIC BAY","2400399","2019-04-03 00:00","2019","04","03","00:00","-21.2","","-23.1","","85","","","M","","M","4","","","M","99.88","","","","-25","","NA"
"-85.05","73.01","ARCTIC BAY","2400399","2019-04-03 01:00","2019","04","03","01:00","-21.4","","-23.7","","82","","","M","","M","4","","","M","99.81","","","","-25","","NA"
"-85.05","73.01","ARCTIC BAY","2400399","2019-04-03 02:00","2019","04","03","02:00","-23.3","","-25.5","","83","","","M","8","","5","","","M","99.75","","","","-28","","NA"
"-85.05","73.01","ARCTIC BAY","2400399","2019-04-03 03:00","2019","04","03","03:00","-22.6","","-25.5","","78","","","M","","M","4","","","M","99.69","","","","-26","","NA"
"-85.05","73.01","ARCTIC BAY","2400399","2019-04-03 04:00","2019","04","03","04:00","-23.7","","-26.2","","80","","","M","","M","4","","","M","99.63","","","","-28","","NA"
"-85.05","73.01","ARCTIC BAY","2400399","2019-04-03 05:00","2019","04","03","05:00","-23.1","","-26.7","","73","","","M","33","","8","","","M","99.56","","","","-30","","NA"
"-85.05","73.01","ARCTIC BAY","2400399","2019-04-03 06:00","2019","04","03","06:00","-23.8","","-26.6","","78","","","M","9","","4","","","M","99.51","","","","-28","","NA"
"-85.05","73.01","ARCTIC BAY","2400399","2019-04-03 07:00","2019","04","03","07:00","-23.3","","-26.6","","75","","","M","","M","5","","","M","99.49","","","","-28","","NA"
"-85.05","73.01","ARCTIC BAY","2400399","2019-04-03 08:00","2019","04","03","08:00","-22.2","","-25.9","","73","","","M","","M","4","","","M","99.47","","","","-26","","NA"
"-85.05","73.01","ARCTIC BAY","2400399","2019-04-03 09:00","2019","04","03","09:00","-22.5","","-26.4","","71","","","M","27","","5","","","M","99.42","","","","-27","","NA"
"-85.05","73.01","ARCTIC BAY","2400399","2019-04-03 10:00","2019","04","03","10:00","-22.8","","-26.6","","72","","","M","","M","4","","","M","99.42","","","","-27","","NA"
"-85.05","73.01","ARCTIC BAY","2400399","2019-04-03 11:00","2019","04","03","11:00","-23.5","","-27.6","","70","","","M","26","","8","","","M","99.39","","","","-30","","NA"
"-85.05","73.01","ARCTIC BAY","2400399","2019-04-03 12:00","2019","04","03","12:00","-22.1","","-26.7","","67","","","M","28","","11","","","M","99.42","","","","-30","","NA"
"-85.05","73.01","ARCTIC BAY","2400399","2019-04-03 13:00","2019","04","03","13:00","-22.7","","-26.6","","71","","","M","","M","4","","","M","99.45","","","","-26","","NA"
"-85.05","73.01","ARCTIC BAY","2400399","2019-04-03 14:00","2019","04","03","14:00","-21.6","","-26.1","","68","","","M","13","","8","","","M","99.51","","","","-28","","NA"
"-85.05","73.01","ARCTIC BAY","2400399","2019-04-03 15:00","2019","04","03","15:00","-21.6","","-26.1","","68","","","M","27","","8","","","M","99.59","","","","-28","","NA"
"-85.05","73.01","ARCTIC BAY","2400399","2019-04-03 16:00","2019","04","03","16:00","-21.3","","-26.4","","64","","","M","29","","9","","","M","99.68","","","","-28","","NA"
"-85.05","73.01","ARCTIC BAY","2400399","2019-04-03 17:00","2019","04","03","17:00","-21.5","","-26.6","","64","","","M","31","","11","","","M","99.71","","","","-29","","NA"
"-85.05","73.01","ARCTIC BAY","2400399","2019-04-03 18:00","2019","04","03","18:00","-22.1","","-26.9","","66","","","M","30","","8","","","M","99.75","","","","-29","","NA"
"-85.05","73.01","ARCTIC BAY","2400399","2019-04-03 19:00","2019","04","03","19:00","-22.1","","-27.1","","65","","","M","12","","4","","","M","99.83","","","","-26","","NA"
"-85.05","73.01","ARCTIC BAY","2400399","2019-04-03 20:00","2019","04","03","20:00","-24.5","","-28.5","","70","","","M","11","","17","","","M","99.92","","","","-35","","NA"
"-85.05","73.01","ARCTIC BAY","2400399","2019-04-03 21:00","2019","04","03","21:00","-25.5","","-28.9","","74","","","M","","","0","","","M","100.02","","","","","","NA"
"-85.05","73.01","ARCTIC BAY","2400399","2019-04-03 22:00","2019","04","03","22:00","-25.0","","-28.8","","71","","","M","8","","13","","","M","100.09","","","","-34","","NA"
"-85.05","73.01","ARCTIC BAY","2400399","2019-04-03 23:00","2019","04","03","23:00","-25.6","","-29.5","","71","","","M","","","0","","","M","100.21","","","","","","NA"
"-85.05","73.01","ARCTIC BAY","2400399","2019-04-04 00:00","2019","04","04","00:00","-25.3","","-28.9","","72","","","M","10","","5","","","M","100.32","","","","-30","","NA"
"-85.05","73.01","ARCTIC BAY","2400399","2019-04-04 01:00","2019","04","04","01:00","-24.8","","-28.6","","71","","","M","","M","4","","","M","100.39","","","","-29","","NA"
"-85.05","73.01","ARCTIC BAY","2400399","2019-04-04 02:00","2019","04","04","02:00","-26.8","","-30.5","","72","","","M","","","0","","","M","100.50","","","","","","NA"
"-85.05","73.01","ARCTIC BAY","2400399","2019-04-04 03:00","2019","04","04","03:00","-25.9","","-29.5","","73","","","M","9","","5","","","M","100.62","","","","-31","","NA"
"-85.05","73.01","ARCTIC BAY","2400399","2019-04-04 04:00","2019","04","04","04:00","-26.5","","-30.1","","72","","","M","6","","5","","","M","100.69","","","","-32","","NA"
"-85.05","73.01","ARCTIC BAY","2400399","2019-04-04 05:00","2019","04","04","05:00","-27.7","","-31.3","","72","","","M","","M","4","","","M","100.78","","","","-32","","NA"
"-85.05","73.01","ARCTIC BAY","2400399","2019-04-04 06:00","2019","04","04","06:00","-28.7","","-32.0","","74","","","M","","M","4","","","M","100.84","","","","-33","","NA"
"-85.05","73.01","ARCTIC BAY","2400399","2019-04-04 07:00","2019","04","04","07:00","-28.1","","-31.6","","73","","","M","25","","8","","","M","100.88","","","","-36","","NA"
"-85.05","73.01","ARCTIC BAY","2400399","2019-04-04 08:00","2019","04","04","08:00","-27.5","","-31.1","","72","","","M","","","0","","","M","100.94","","","","","","NA"
"-85.05","73.01","ARCTIC BAY","2400399","2019-04-04 09:00","2019","04","04","09:00","-26.9","","-30.8","","70","","","M","29","","5","","","M","101.05","","","","-32","","NA"
"-85.05","73.01","ARCTIC BAY","2400399","2019-04-04 10:00","2019","04","04","10:00","-26.0","","-30.0","","70","","","M","29","","9","","","M","101.13","","","","-34","","NA"
"-85.05","73.01","ARCTIC BAY","2400399","2019-04-04 11:00","2019","04","04","11:00","-25.0","","-29.1","","70","","","M","7","","5","","","M","101.20","","","","-30","","NA"
"-85.05","73.01","ARCTIC BAY","2400399","2019-04-04 12:00","2019","04","04","12:00","-24.4","","-28.4","","70","","","M","","M","4","","","M","101.26","","","","-28","","NA"
"-85.05","73.01","ARCTIC BAY","2400399","2019-04-04 13:00","2019","04","04","13:00","-24.2","","-27.9","","72","","","M","","M","4","","","M","101.29","","","","-28","","NA"
"-85.05","73.01","ARCTIC BAY","2400399","2019-04-04 14:00","2019","04","04","14:00","-23.5","","-27.6","","70","","","M","","M","","M","","M","101.36","","","","","","NA"
"-85.05","73.01","ARCTIC BAY","2400399","2019-04-04 15:00","2019","04","04","15:00","-23.5","","-27.2","","72","","","M","","","0","","","M","101.40","","","","","","NA"
"-85.05","73.01","ARCTIC BAY","2400399","2019-04-04 16:00","2019","04","04","16:00","-23.2","","-26.9","","72","","","M","","","0","","","M","101.46","","","","","","NA"
"-85.05","73.01","ARCTIC BAY","2400399","2019-04-04 17:00","2019","04","04","17:00","-23.6","","-26.7","","76","","","M","8","","5","","","M","101.50","","","","-28","","NA"
"-85.05","73.01","ARCTIC BAY","2400399","2019-04-04 18:00","2019","04","04","18:00","-23.9","","-27.0","","76","","","M","","","0","","","M","101.56","","","","","","NA"
"-85.05","73.01","ARCTIC BAY","2400399","2019-04-04 19:00","2019","04","04","19:00","-25.2","","-27.9","","79","","","M","","M","4","","","M","101.60","","","","-29","","NA"
"-85.05","73.01","ARCTIC BAY","2400399","2019-04-04 20:00","2019","04","04","20:00","-25.6","","-28.5","","77","","","M","","M","4","","","M","101.65","","","","-30","","NA"
"-85.05","73.01","ARCTIC BAY","2400399","2019-04-04 21:00","2019","04","04","21:00","-26.8","","-30.1","","74","","","M","9","","5","","","M","101.69","","","","-32","","NA"
"-85.05","73.01","ARCTIC BAY","2400399","2019-04-04 22:00","2019","04","04","22:00","-26.5","","-29.6","","76","","","M","27","","4","","","M","101.74","","","","-31","","NA"
"-85.05","73.01","ARCTIC BAY","2400399","2019-04-04 23:00","2019","04","04","23:00","-26.7","","-29.7","","76","","","M","12","","4","","","M","101.79","","","","-31","","NA"
"-85.05","73.01","ARCTIC BAY","2400399","2019-04-05 00:00","2019","04","05","00:00","-27.2","","-30.6","","74","","","M","4","","4","","","M","101.83","","","","-31","","NA"
"-85.05","73.01","ARCTIC BAY","2400399","2019-04-05 01:00","2019","04","05","01:00","-27.2","","-30.4","","75","","","M","","","0","","","M","101.87","","","","","","NA"
"-85.05","73.01","ARCTIC BAY","2400399","2019-04-05 02:00","2019","04","05","02:00","-27.8","","-30.9","","76","","","M","","","0","","","M","101.90","","","","","","NA"
"-85.05","73.01","ARCTIC BAY","2400399","2019-04-05 03:00","2019","04","05","03:00","-28.6","","-31.6","","76","","","M","","","0","","","M","101.95","","","","","","NA"
"-85.05","73.01","ARCTIC BAY","2400399","2019-04-05 04:00","2019","04","05","04:00","-28.4","","-31.5","","75","","","M","","M","4","","","M","101.98","","","","-33","","NA"
"-85.05","73.01","ARCTIC BAY","2400399","2019-04-05 05:00","2019","04","05","05:00","-27.8","","-30.8","","76","","","M","","","0","","","M","101.99","","","","","","NA"
"-85.05","73.01","ARCTIC BAY","2400399","2019-04-05 06:00","2019","04","05","06:00","-27.1","","-30.5","","73","","","M","","","0","","","M","102.00","","","","","","NA"
"-85.05","73.01","ARCTIC BAY","2400399","2019-04-05 07:00","2019","04","05","07:00","-28.5","","-31.6","","75","","","M","","M","4","","","M","102.00","","","","-33","","NA"
"-85.05","73.01","ARCTIC BAY","2400399","2019-04-05 08:00","2019","04","05","08:00","-27.6","","-31.1","","73","","","M","","M","4","","","M","102.02","","","","-32","","NA"
"-85.05","73.01","ARCTIC BAY","2400399","2019-04-05 09:00","2019","04","05","09:00","-27.1","","-30.6","","73","","","M","","","0","","","M","102.01","","","","","","NA"
"-85.05","73.01","ARCTIC BAY","2400399","2019-04-05 10:00","2019","04","05","10:00","-26.6","","-30.1","","73","","","M","","M","4","","","M","102.03","","","","-31","","NA"
"-85.05","73.01","ARCTIC BAY","2400399","2019-04-05 11:00","2019","04","05","11:00","-26.0","","-29.4","","74","","","M","13","","4","","","M","102.01","","","","-30","","NA"
"-85.05","73.01","ARCTIC BAY","2400399","2019-04-05 12:00","2019","04","05","12:00","-25.6","","-29.5","","70","","","M","","","0","","","M","101.98","","","","","","NA"
"-85.05","73.01","ARCTIC BAY","2400399","2019-04-05 13:00","2019","04","05","13:00","-25.3","","-29.1","","72","","","M","12","","5","","","M","101.98","","","","-30","","NA"
"-85.05","73.01","ARCTIC BAY","2400399","2019-04-05 14:00","2019","04","05","14:00","-24.1","","-28.0","","71","","","M","","M","4","","","M","101.93","","","","-28","","NA"
"-85.05","73.01","ARCTIC BAY","2400399","2019-04-05 15:00","2019","04","05","15:00","-23.9","","-27.7","","72","","","M","","","0","","","M","101.93","","","","","","NA"
"-85.05","73.01","ARCTIC BAY","2400399","2019-04-05 16:00","2019","04","05","16:00","-24.1","","-27.8","","72","","","M","11","","4","","","M","101.92","","","","-28","","NA"
"-85.05","73.01","ARCTIC BAY","2400399","2019-04-05 17:00","2019","04","05","17:00","-24.3","","-28.0","","72","","","M","","","0","","","M","101.88","","","","","","NA"
"-85.05","73.01","ARCTIC BAY","2400399","2019-04-05 18:00","2019","04","05","18:00","-24.9","","-28.1","","75","","","M","12","","5","","","M","101.87","","","","-30","","NA"
"-85.05","73.01","ARCTIC BAY","2400399","2019-04-05 19:00","2019","04","05","19:00","-23.9","","-27.8","","71","","","M","","","0","","","M","101.83","","","","","","NA"
"-85.05","73.01","ARCTIC BAY","2400399","2019-04-05 20:00","2019","04","05","20:00","-24.5","","-27.9","","74","","","M","","","0","","","M","101.81","","","","","","NA"
"-85.05","73.01","ARCTIC BAY","2400399","2019-04-05 21:00","2019","04","05","21:00","-24.6","","-28.3","","72","","","M","","","0","","","M","101.77","","","","","","NA"
"-85.05","73.01","ARCTIC BAY","2400399","2019-04-05 22:00","2019","04","05","22:00","-24.5","","-28.2","","72","","","M","10","","4","","","M","101.75","","","","-28","","NA"
"-85.05","73.01","ARCTIC BAY","2400399","2019-04-05 23:00","2019","04","05","23:00","-24.5","","-28.1","","73","","","M","","","0","","","M","101.72","","","","","","NA"
"-85.05","73.01","ARCTIC BAY","2400399","2019-04-06 00:00","2019","04","06","00:00","-25.3","","-28.8","","73","","","M","","M","4","","","M","101.71","","","","-29","","NA"
"-85.05","73.01","ARCTIC BAY","2400399","2019-04-06 01:00","2019","04","06","01:00","-25.1","","-28.5","","74","","","M","","","0","","","M","101.68","","","","","","NA"
"-85.05","73.01","ARCTIC BAY","2400399","2019-04-06 02:00","2019","04","06","02:00","-25.2","","-28.6","","74","","","M","","","0","","","M","101.67","","","","","","NA"
"-85.05","73.01","ARCTIC BAY","2400399","2019-04-06 03:00","2019","04","06","03:00","-24.8","","-28.3","","74","","","M","","","0","","","M","101.65","","","","","","NA"
"-85.05","73.01","ARCTIC BAY","2400399","2019-04-06 04:00","2019","04","06","04:00","-25.7","","-30.6","","64","","","M","","","0","","","M","101.65","","","","","","NA"
"-85.05","73.01","ARCTIC BAY","2400399","2019-04-06 05:00","2019","04","06","05:00","-25.8","","-28.9","","76","","","M","12","","5","","","M","101.63","","","","-31","","NA"
"-85.05","73.01","ARCTIC BAY","2400399","2019-04-06 06:00","2019","04","06","06:00","-24.6","","-28.6","","70","","","M","9","","4","","","M","101.59","","","","-29","","NA"
"-85.05","73.01","ARCTIC BAY","2400399","2019-04-06 07:00","2019","04","06","07:00","-25.9","","-29.7","","71","","","M","35","","5","","","M","101.59","","","","-31","","NA"
"-85.05","73.01","ARCTIC BAY","2400399","2019-04-06 08:00","2019","04","06","08:00","-25.3","","-29.7","","68","","","M","","","0","","","M","101.59","","","","","","NA"
"-85.05","73.01","ARCTIC BAY","2400399","2019-04-06 09:00","2019","04","06","09:00","-25.1","","-28.9","","71","","","M","","M","4","","","M","101.57","","","","-29","","NA"
"-85.05","73.01","ARCTIC BAY","2400399","2019-04-06 10:00","2019","04","06","10:00","-23.9","","-28.1","","69","","","M","11","","5","","","M","101.57","","","","-29","","NA"
"-85.05","73.01","ARCTIC BAY","2400399","2019-04-06 11:00","2019","04","06","11:00","-21.9","","-26.3","","68","","","M","","M","4","","","M","101.56","","","","-26","","NA"
"-85.05","73.01","ARCTIC BAY","2400399","2019-04-06 12:00","2019","04","06","12:00","-23.0","","-27.1","","70","","","M","","M","4","","","M","101.55","","","","-27","","NA"
"-85.05","73.01","ARCTIC BAY","2400399","2019-04-06 13:00","2019","04","06","13:00","-21.4","","-26.3","","66","","","M","","M","4","","","M","101.56","","","","-25","","NA"
"-85.05","73.01","ARCTIC BAY","2400399","2019-04-06 14:00","2019","04","06","14:00","-21.5","","-25.8","","69","","","M","","","0","","","M","101.58","","","","","","NA"
"-85.05","73.01","ARCTIC BAY","2400399","2019-04-06 15:00","2019","04","06","15:00","-20.9","","-25.0","","70","","","M","","M","4","","","M","101.60","","","","-24","","NA"
"-85.05","73.01","ARCTIC BAY","2400399","2019-04-06 16:00","2019","04","06","16:00","-19.8","","-24.5","","67","","","M","11","","4","","","M","101.60","","","","-23","","NA"
"-85.05","73.01","ARCTIC BAY","2400399","2019-04-06 17:00","2019","04","06","17:00","-19.8","","-24.4","","67","","","M","","","0","","","M","101.62","","","","","","NA"
"-85.05","73.01","ARCTIC BAY","2400399","2019-04-06 18:00","2019","04","06","18:00","-19.0","","-24.5","","62","","","M","","M","4","","","M","101.64","","","","-22","","NA"
"-85.05","73.01","ARCTIC BAY","2400399","2019-04-06 19:00","2019","04","06","19:00","-19.8","","-24.4","","67","","","M","","","0","","","M","101.63","","","","","","NA"
"-85.05","73.01","ARCTIC BAY","2400399","2019-04-06 20:00","2019","04","06","20:00","-19.6","","-24.6","","65","","","M","","","0","","","M","101.64","","","","","","NA"
"-85.05","73.01","ARCTIC BAY","2400399","2019-04-06 21:00","2019","04","06","21:00","-20.3","","-24.7","","69","","","M","","","0","","","M","101.64","","","","","","NA"
"-85.05","73.01","ARCTIC BAY","2400399","2019-04-06 22:00","2019","04","06","22:00","-20.4","","-24.9","","68","","","M","","","0","","","M","101.64","","","","","","NA"
"-85.05","73.01","ARCTIC BAY","2400399","2019-04-06 23:00","2019","04","06","23:00","-19.2","","-23.9","","67","","","M","","","0","","","M","101.64","","","","","","NA"
"-85.05","73.01","ARCTIC BAY","2400399","2019-04-07 00:00","2019","04","07","00:00","-19.9","","-24.2","","69","","","M","","M","4","","","M","101.63","","","","-23","","NA"
"-85.05","73.01","ARCTIC BAY","2400399","2019-04-07 01:00","2019","04","07","01:00","-20.7","","-24.0","","75","","","M","","M","4","","","M","101.61","","","","-24","","NA"
"-85.05","73.01","ARCTIC BAY","2400399","2019-04-07 02:00","2019","04","07","02:00","-20.4","","-24.3","","72","","","M","12","","5","","","M","101.62","","","","-25","","NA"
"-85.05","73.01","ARCTIC BAY","2400399","2019-04-07 03:00","2019","04","07","03:00","-19.9","","-24.2","","69","","","M","","M","4","","","M","101.61","","","","-23","","NA"
"-85.05","73.01","ARCTIC BAY","2400399","2019-04-07 04:00","2019","04","07","04:00","-20.7","","-25.0","","69","","","M","9","","5","","","M","101.60","","","","-25","","NA"
"-85.05","73.01","ARCTIC BAY","2400399","2019-04-07 05:00","2019","04","07","05:00","-21.5","","-25.2","","72","","","M","13","","9","","","M","101.59","","","","-29","","NA"
"-85.05","73.01","ARCTIC BAY","2400399","2019-04-07 06:00","2019","04","07","06:00","-21.8","","-25.4","","73","","","M","","","0","","","M","101.58","","","","","","NA"
"-85.05","73.01","ARCTIC BAY","2400399","2019-04-07 07:00","2019","04","07","07:00","-19.9","","-23.8","","72","","","M","23","","5","","","M","101.54","","","","-24","","NA"
"-85.05","73.01","ARCTIC BAY","2400399","2019-04-07 08:00","2019","04","07","08:00","-21.5","","-25.0","","74","","","M","","M","4","","","M","101.52","","","","-25","","NA"
"-85.05","73.01","ARCTIC BAY","2400399","2019-04-07 09:00","2019","04","07","09:00","-21.2","","-25.0","","72","","","M","9","","5","","","M","101.50","","","","-26","","NA"
"-85.05","73.01","ARCTIC BAY","2400399","2019-04-07 10:00","2019","04","07","10:00","-19.1","","-23.2","","71","","","M","","M","4","","","M","101.48","","","","-22","","NA"
"-85.05","73.01","ARCTIC BAY","2400399","2019-04-07 11:00","2019","04","07","11:00","-17.8","","-21.7","","72","","","M","16","","5","","","M","101.46","","","","-22","","NA"
"-85.05","73.01","ARCTIC BAY","2400399","2019-04-07 12:00","2019","04","07","12:00","-18.2","","-21.7","","74","","","M","11","","5","","","M","101.43","","","","-22","","NA"
"-85.05","73.01","ARCTIC BAY","2400399","2019-04-07 13:00","2019","04","07","13:00","-17.1","","-21.0","","72","","","M","12","","9","","","M","101.43","","","","-23","","NA"
"-85.05","73.01","ARCTIC BAY","2400399","2019-04-07 14:00","2019","04","07","14:00","-16.2","","-20.4","","71","","","M","","","0","","","M","101.44","","","","","","NA"
"-85.05","73.01","ARCTIC BAY","2400399","2019-04-07 15:00","2019","04","07","15:00","-15.6","","-20.4","","67","","","M","","","0","","","M","101.45","","","","","","NA"
"-85.05","73.01","ARCTIC BAY","2400399","2019-04-07 16:00","2019","04","07","16:00","-15.9","","-20.1","","71","","","M","","","0","","","M","101.46","","","","","","NA"
"-85.05","73.01","ARCTIC BAY","2400399","2019-04-07 17:00","2019","04","07","17:00","-15.8","","-19.7","","73","","","M","","","0","","","M","101.47","","","","","","NA"
"-85.05","73.01","ARCTIC BAY","2400399","2019-04-07 18:00","2019","04","07","18:00","-15.8","","-19.6","","73","","","M","","","0","","","M","101.50","","","","","","NA"
"-85.05","73.01","ARCTIC BAY","2400399","2019-04-07 19:00","2019","04","07","19:00","-15.4","","-18.0","","81","","","M","30","","4","","","M","101.51","","","","-18","","NA"
"-85.05","73.01","ARCTIC BAY","2400399","2019-04-07 20:00","2019","04","07","20:00","-15.8","","-17.9","","84","","","M","25","","4","","","M","101.55","","","","-19","","NA"
"-85.05","73.01","ARCTIC BAY","2400399","2019-04-07 21:00","2019","04","07","21:00","-16.9","","-18.8","","85","","","M","","M","4","","","M","101.59","","","","-20","","NA"
"-85.05","73.01","ARCTIC BAY","2400399","2019-04-07 22:00","2019","04","07","22:00","-16.3","","-18.6","","83","","","M","","","0","","","M","101.62","","","","","","NA"
"-85.05","73.01","ARCTIC BAY","2400399","2019-04-07 23:00","2019","04","07","23:00","-16.9","","-18.7","","86","","","M","","","0","","","M","101.68","","","","","","NA"
"-85.05","73.01","ARCTIC BAY","2400399","2019-04-08 00:00","2019","04","08","00:00","-17.3","","-19.1","","86","","","M","","M","4","","","M","101.72","","","","-20","","NA"
"-85.05","73.01","ARCTIC BAY","2400399","2019-04-08 01:00","2019","04","08","01:00","-17.2","","-19.2","","85","","","M","32","","5","","","M","101.76","","","","-21","","NA"
"-85.05","73.01","ARCTIC BAY","2400399","2019-04-08 02:00","2019","04","08","02:00","-17.1","","-19.2","","84","","","M","29","","5","","","M","101.78","","","","-21","","NA"
"-85.05","73.01","ARCTIC BAY","2400399","2019-04-08 03:00","2019","04","08","03:00","-17.4","","-19.6","","83","","","M","31","","9","","","M","101.85","","","","-24","","NA"
"-85.05","73.01","ARCTIC BAY","2400399","2019-04-08 04:00","2019","04","08","04:00","-17.3","","-19.7","","82","","","M","30","","5","","","M","101.91","","","","-21","","NA"
"-85.05","73.01","ARCTIC BAY","2400399","2019-04-08 05:00","2019","04","08","05:00","-17.1","","-19.3","","83","","","M","","M","4","","","M","101.96","","","","-20","","NA"
"-85.05","73.01","ARCTIC BAY","2400399","2019-04-08 06:00","2019","04","08","06:00","-17.5","","-19.5","","85","","","M","","","0","","","M","102.00","","","","","","NA"
"-85.05","73.01","ARCTIC BAY","2400399","2019-04-08 07:00","2019","04","08","07:00","-18.6","","-20.7","","84","","","M","8","","5","","","M","102.02","","","","-23","","NA"
"-85.05","73.01","ARCTIC BAY","2400399","2019-04-08 08:00","2019","04","08","08:00","-20.0","","-22.5","","81","","","M","8","","5","","","M","102.05","","","","-24","","NA"
"-85.05","73.01","ARCTIC BAY","2400399","2019-04-08 09:00","2019","04","08","09:00","-19.1","","-21.6","","81","","","M","3","","4","","","M","102.07","","","","-22","","NA"
"-85.05","73.01","ARCTIC BAY","2400399","2019-04-08 10:00","2019","04","08","10:00","-20.0","","-22.5","","81","","","M","","M","4","","","M","102.10","","","","-23","","NA"
"-85.05","73.01","ARCTIC BAY","2400399","2019-04-08 11:00","2019","04","08","11:00","-18.8","","-21.6","","79","","","M","","","0","","","M","102.15","","","","","","NA"
"-85.05","73.01","ARCTIC BAY","2400399","2019-04-08 12:00","2019","04","08","12:00","-19.9","","-22.8","","78","","","M","10","","4","","","M","102.16","","","","-23","","NA"
"-85.05","73.01","ARCTIC BAY","2400399","2019-04-08 13:00","2019","04","08","13:00","-19.6","","-22.8","","76","","","M","","M","4","","","M","102.21","","","","-23","","NA"
"-85.05","73.01","ARCTIC BAY","2400399","2019-04-08 14:00","2019","04","08","14:00","-20.2","","-23.0","","79","","","M","","M","4","","","M","102.23","","","","-24","","NA"
"-85.05","73.01","ARCTIC BAY","2400399","2019-04-08 15:00","2019","04","08","15:00","-19.8","","-22.7","","78","","","M","11","","5","","","M","102.26","","","","-24","","NA"
"-85.05","73.01","ARCTIC BAY","2400399","2019-04-08 16:00","2019","04","08","16:00","-20.2","","-23.0","","79","","","M","10","","8","","","M","102.29","","","","-26","","NA"
"-85.05","73.01","ARCTIC BAY","2400399","2019-04-08 17:00","2019","04","08","17:00","-20.6","","-23.4","","79","","","M","8","","8","","","M","102.30","","","","-27","","NA"
"-85.05","73.01","ARCTIC BAY","2400399","2019-04-08 18:00","2019","04","08","18:00","-21.0","","-23.4","","81","","","M","","","0","","","M","102.32","","","","","","NA"
"-85.05","73.01","ARCTIC BAY","2400399","2019-04-08 19:00","2019","04","08","19:00","-21.0","","-23.7","","79","","","M","31","","5","","","M","102.35","","","","-25","","NA"
"-85.05","73.01","ARCTIC BAY","2400399","2019-04-08 20:00","2019","04","08","20:00","-22.0","","-24.5","","81","","","M","28","","5","","","M","102.35","","","","-27","","NA"
"-85.05","73.01","ARCTIC BAY","2400399","2019-04-08 21:00","2019","04","08","21:00","-22.2","","-24.5","","82","","","M","","","0","","","M","102.37","","","","","","NA"
"-85.05","73.01","ARCTIC BAY","2400399","2019-04-08 22:00","2019","04","08","22:00","-22.3","","-24.7","","81","","","M","","","0","","","M","102.38","","","","","","NA"
"-85.05","73.01","ARCTIC BAY","2400399","2019-04-08 23:00","2019","04","08","23:00","-24.0","","-26.2","","83","","","M","","M","4","","","M","102.37","","","","-28","","NA"
"-85.05","73.01","ARCTIC BAY","2400399","2019-04-09 00:00","2019","04","09","00:00","-24.0","","-26.4","","81","","","M","10","","5","","","M","102.38","","","","-29","","NA"
"-85.05","73.01","ARCTIC BAY","2400399","2019-04-09 01:00","2019","04","09","01:00","-24.4","","-26.6","","82","","","M","","","0","","","M","102.37","","","","","","NA"
"-85.05","73.01","ARCTIC BAY","2400399","2019-04-09 02:00","2019","04","09","02:00","-25.3","","-27.8","","80","","","M","","","0","","","M","102.38","","","","","","NA"
"-85.05","73.01","ARCTIC BAY","2400399","2019-04-09 03:00","2019","04","09","03:00","-26.0","","-28.2","","82","","","M","","","0","","","M","102.37","","","","","","NA"
"-85.05","73.01","ARCTIC BAY","2400399","2019-04-09 04:00","2019","04","09","04:00","-26.1","","-28.3","","82","","","M","","M","4","","","M","102.35","","","","-30","","NA"
"-85.05","73.01","ARCTIC BAY","2400399","2019-04-09 05:00","2019","04","09","05:00","-25.8","","-28.2","","81","","","M","","","0","","","M","102.35","","","","","","NA"
"-85.05","73.01","ARCTIC BAY","2400399","2019-04-09 06:00","2019","04","09","06:00","-23.5","","-25.5","","84","","","M","","M","4","","","M","102.32","","","","-27","","NA"
"-85.05","73.01","ARCTIC BAY","2400399","2019-04-09 07:00","2019","04","09","07:00","-21.5","","-24.0","","81","","","M","","M","4","","","M","102.30","","","","-25","","NA"
"-85.05","73.01","ARCTIC BAY","2400399","2019-04-09 08:00","2019","04","09","08:00","-19.9","","-22.8","","78","","","M","","","0","","","M","102.28","","","","","","NA"
"-85.05","73.01","ARCTIC BAY","2400399","2019-04-09 09:00","2019","04","09","09:00","-18.5","","-22.1","","74","","","M","","M","4","","","M","102.26","","","","-22","","NA"
"-85.05","73.01","ARCTIC BAY","2400399","2019-04-09 10:00","2019","04","09","10:00","-17.8","","-21.2","","75","","","M","28","","13","","","M","102.28","","","","-26","","NA"
"-85.05","73.01","ARCTIC BAY","2400399","2019-04-09 11:00","2019","04","09","11:00","-17.7","","-20.7","","78","","","M","28","","11","","","M","102.26","","","","-25","","NA"
"-85.05","73.01","ARCTIC BAY","2400399","2019-04-09 12:00","2019","04","09","12:00","-16.4","","-20.0","","74","","","M","13","","9","","","M","102.23","","","","-22","","NA"
"-85.05","73.01","ARCTIC BAY","2400399","2019-04-09 13:00","2019","04","09","13:00","-15.0","","-19.4","","70","","","M","11","","24","","","M","102.20","","","","-25","","NA"
"-85.05","73.01","ARCTIC BAY","2400399","2019-04-09 14:00","2019","04","09","14:00","-14.0","","-18.9","","67","","","M","9","","28","","","M","102.21","","","","-24","","NA"
"-85.05","73.01","ARCTIC BAY","2400399","2019-04-09 15:00","2019","04","09","15:00","-13.8","","-18.4","","69","","","M","9","","26","","","M","102.20","","","","-24","","NA"
"-85.05","73.01","ARCTIC BAY","2400399","2019-04-09 16:00","2019","04","09","16:00","-14.1","","-18.5","","70","","","M","8","","32","","","M","102.20","","","","-25","","NA"
"-85.05","73.01","ARCTIC BAY","2400399","2019-04-09 17:00","2019","04","09","17:00","-13.6","","-18.5","","67","","","M","9","","26","","","M","102.18","","","","-24","","NA"
"-85.05","73.01","ARCTIC BAY","2400399","2019-04-09 18:00","2019","04","09","18:00","-14.0","","-18.7","","68","","","M","7","","28","","","M","102.18","","","","-24","","NA"
"-85.05","73.01","ARCTIC BAY","2400399","2019-04-09 19:00","2019","04","09","19:00","-14.1","","-19.0","","67","","","M","7","","28","","","M","102.19","","","","-25","","NA"
"-85.05","73.01","ARCTIC BAY","2400399","2019-04-09 20:00","2019","04","09","20:00","-15.3","","-19.4","","71","","","M","6","","26","","","M","102.19","","","","-26","","NA"
"-85.05","73.01","ARCTIC BAY","2400399","2019-04-09 21:00","2019","04","09","21:00","-15.5","","-19.6","","71","","","M","7","","30","","","M","102.18","","","","-27","","NA"
"-85.05","73.01","ARCTIC BAY","2400399","2019-04-09 22:00","2019","04","09","22:00","-15.3","","-19.4","","71","","","M","7","","35","","","M","102.18","","","","-27","","NA"
"-85.05","73.01","ARCTIC BAY","2400399","2019-04-09 23:00","2019","04","09","23:00","-14.9","","-18.8","","73","","","M","6","","28","","","M","102.16","","","","-26","","NA"
"-85.05","73.01","ARCTIC BAY","2400399","2019-04-10 00:00","2019","04","10","00:00","-14.1","","-18.4","","70","","","M","7","","30","","","M","102.14","","","","-25","","NA"
"-85.05","73.01","ARCTIC BAY","2400399","2019-04-10 01:00","2019","04","10","01:00","-13.4","","-18.0","","69","","","M","7","","30","","","M","102.13","","","","-24","","NA"
"-85.05","73.01","ARCTIC BAY","2400399","2019-04-10 02:00","2019","04","10","02:00","-13.2","","-17.7","","69","","","M","7","","32","","","M","102.12","","","","-24","","NA"
"-85.05","73.01","ARCTIC BAY","2400399","2019-04-10 03:00","2019","04","10","03:00","-13.0","","-17.2","","71","","","M","7","","32","","","M","102.10","","","","-24","","NA"
"-85.05","73.01","ARCTIC BAY","2400399","2019-04-10 04:00","2019","04","10","04:00","-12.6","","-16.8","","71","","","M","7","","28","","","M","102.08","","","","-23","","NA"
"-85.05","73.01","ARCTIC BAY","2400399","2019-04-10 05:00","2019","04","10","05:00","-12.3","","-16.5","","71","","","M","7","","28","","","M","102.06","","","","-22","","NA"
"-85.05","73.01","ARCTIC BAY","2400399","2019-04-10 06:00","2019","04","10","06:00","-11.8","","-16.0","","72","","","M","7","","24","","","M","102.03","","","","-21","","NA"
"-85.05","73.01","ARCTIC BAY","2400399","2019-04-10 07:00","2019","04","10","07:00","-11.2","","-15.6","","70","","","M","10","","15","","","M","102.01","","","","-18","","NA"
"-85.05","73.01","ARCTIC BAY","2400399","2019-04-10 08:00","2019","04","10","08:00","-10.7","","-15.2","","70","","","M","8","","22","","","M","101.97","","","","-19","","NA"
"-85.05","73.01","ARCTIC BAY","2400399","2019-04-10 09:00","2019","04","10","09:00","-10.5","","-14.5","","73","","","M","8","","18","","","M","101.97","","","","-18","","NA"
"-85.05","73.01","ARCTIC BAY","2400399","2019-04-10 10:00","2019","04","10","10:00","-10.3","","-14.3","","73","","","M","7","","28","","","M","101.93","","","","-20","","NA"
"-85.05","73.01","ARCTIC BAY","2400399","2019-04-10 11:00","2019","04","10","11:00","-9.9","","-13.4","","76","","","M","8","","18","","","M","101.92","","","","-17","","NA"
"-85.05","73.01","ARCTIC BAY","2400399","2019-04-10 12:00","2019","04","10","12:00","-9.8","","-12.5","","81","","","M","10","","13","","","M","101.91","","","","-16","","NA"
"-85.05","73.01","ARCTIC BAY","2400399","2019-04-10 13:00","2019","04","10","13:00","-9.7","","-12.9","","78","","","M","9","","22","","","M","101.86","","","","-18","","NA"
"-85.05","73.01","ARCTIC BAY","2400399","2019-04-10 14:00","2019","04","10","14:00","-9.4","","-12.2","","80","","","M","10","","5","","","M","101.86","","","","-12","","NA"
"-85.05","73.01","ARCTIC BAY","2400399","2019-04-10 15:00","2019","04","10","15:00","-9.4","","-11.6","","84","","","M","7","","8","","","M","101.83","","","","-14","","NA"
"-85.05","73.01","ARCTIC BAY","2400399","2019-04-10 16:00","2019","04","10","16:00","-9.5","","-11.4","","86","","","M","12","","15","","","M","101.80","","","","-16","","NA"
"-85.05","73.01","ARCTIC BAY","2400399","2019-04-10 17:00","2019","04","10","17:00","-9.5","","-11.3","","87","","","M","13","","15","","","M","101.78","","","","-16","","NA"
"-85.05","73.01","ARCTIC BAY","2400399","2019-04-10 18:00","2019","04","10","18:00","-9.2","","-11.0","","87","","","M","11","","11","","","M","101.77","","","","-15","","NA"
"-85.05","73.01","ARCTIC BAY","2400399","2019-04-10 19:00","2019","04","10","19:00","-9.4","","-11.0","","88","","","M","","","0","","","M","101.76","","","","","","NA"
"-85.05","73.01","ARCTIC BAY","2400399","2019-04-10 20:00","2019","04","10","20:00","-9.8","","-11.3","","89","","","M","","M","5","","","M","101.76","","","","-13","","NA"
"-85.05","73.01","ARCTIC BAY","2400399","2019-04-10 21:00","2019","04","10","21:00","-9.9","","-11.5","","89","","","M","24","","8","","","M","101.77","","","","-14","","NA"
"-85.05","73.01","ARCTIC BAY","2400399","2019-04-10 22:00","2019","04","10","22:00","-10.4","","-11.6","","91","","","M","28","","9","","","M","101.76","","","","-15","","NA"
"-85.05","73.01","ARCTIC BAY","2400399","2019-04-10 23:00","2019","04","10","23:00","-11.2","","-12.4","","91","","","M","16","","8","","","M","101.76","","","","-16","","NA"
"-85.05","73.01","ARCTIC BAY","2400399","2019-04-11 00:00","2019","04","11","00:00","-11.2","","-12.6","","89","","","M","31","","5","","","M","101.74","","","","-14","","NA"
"-85.05","73.01","ARCTIC BAY","2400399","2019-04-11 01:00","2019","04","11","01:00","-11.4","","-12.9","","89","","","M","30","","15","","","M","101.74","","","","-18","","NA"
"-85.05","73.01","ARCTIC BAY","2400399","2019-04-11 02:00","2019","04","11","02:00","-11.6","","-13.1","","89","","","M","31","","5","","","M","101.76","","","","-15","","NA"
"-85.05","73.01","ARCTIC BAY","2400399","2019-04-11 03:00","2019","04","11","03:00","-13.5","","-15.0","","89","","","M","28","","8","","","M","101.76","","","","-19","","NA"
"-85.05","73.01","ARCTIC BAY","2400399","2019-04-11 04:00","2019","04","11","04:00","-12.5","","-14.0","","89","","","M","28","","11","","","M","101.79","","","","-19","","NA"
"-85.05","73.01","ARCTIC BAY","2400399","2019-04-11 05:00","2019","04","11","05:00","-12.7","","-14.2","","89","","","M","26","","8","","","M","101.79","","","","-18","","NA"
"-85.05","73.01","ARCTIC BAY","2400399","2019-04-11 06:00","2019","04","11","06:00","-12.3","","-14.2","","86","","","M","29","","5","","","M","101.81","","","","-16","","NA"
"-85.05","73.01","ARCTIC BAY","2400399","2019-04-11 07:00","2019","04","11","07:00","-12.5","","-14.0","","89","","","M","","","0","","","M","101.82","","","","","","NA"
"-85.05","73.01","ARCTIC BAY","2400399","2019-04-11 08:00","2019","04","11","08:00","-12.6","","-14.5","","86","","","M","8","","4","","","M","101.84","","","","-15","","NA"
"-85.05","73.01","ARCTIC BAY","2400399","2019-04-11 09:00","2019","04","11","09:00","-12.3","","-14.3","","85","","","M","","M","4","","","M","101.85","","","","-15","","NA"
"-85.05","73.01","ARCTIC BAY","2400399","2019-04-11 10:00","2019","04","11","10:00","-13.3","","-15.2","","86","","","M","27","","11","","","M","101.88","","","","-20","","NA"
"-85.05","73.01","ARCTIC BAY","2400399","2019-04-11 11:00","2019","04","11","11:00","-15.1","","-17.4","","83","","","M","","M","4","","","M","101.90","","","","-18","","NA"
"-85.05","73.01","ARCTIC BAY","2400399","2019-04-11 12:00","2019","04","11","12:00","-14.5","","-16.8","","83","","","M","","","0","","","M","101.90","","","","","","NA"
"-85.05","73.01","ARCTIC BAY","2400399","2019-04-11 13:00","2019","04","11","13:00","-13.6","","-16.2","","81","","","M","31","","4","","","M","101.90","","","","-16","","NA"
"-85.05","73.01","ARCTIC BAY","2400399","2019-04-11 14:00","2019","04","11","14:00","-13.7","","-16.2","","82","","","M","","","0","","","M","101.91","","","","","","NA"
"-85.05","73.01","ARCTIC BAY","2400399","2019-04-11 15:00","2019","04","11","15:00","-13.8","","-16.0","","84","","","M","","","0","","","M","101.94","","","","","","NA"
"-85.05","73.01","ARCTIC BAY","2400399","2019-04-11 16:00","2019","04","11","16:00","-14.0","","-16.2","","84","","","M","25","","13","","","M","101.94","","","","-21","","NA"
"-85.05","73.01","ARCTIC BAY","2400399","2019-04-11 17:00","2019","04","11","17:00","-14.1","","-16.5","","82","","","M","31","","17","","","M","101.94","","","","-22","","NA"
"-85.05","73.01","ARCTIC BAY","2400399","2019-04-11 18:00","2019","04","11","18:00","-15.0","","-17.4","","82","","","M","28","","15","","","M","101.94","","","","-23","","NA"
"-85.05","73.01","ARCTIC BAY","2400399","2019-04-11 19:00","2019","04","11","19:00","-15.2","","-17.5","","83","","","M","31","","8","","","M","101.95","","","","-21","","NA"
"-85.05","73.01","ARCTIC BAY","2400399","2019-04-11 20:00","2019","04","11","20:00","-15.7","","-18.2","","81","","","M","28","","11","","","M","101.96","","","","-22","","NA"
"-85.05","73.01","ARCTIC BAY","2400399","2019-04-11 21:00","2019","04","11","21:00","-17.0","","-19.4","","82","","","M","","","0","","","M","101.95","","","","","","NA"
"-85.05","73.01","ARCTIC BAY","2400399","2019-04-11 22:00","2019","04","11","22:00","-18.5","","-20.9","","82","","","M","25","","8","","","M","101.95","","","","-24","","NA"
"-85.05","73.01","ARCTIC BAY","2400399","2019-04-11 23:00","2019","04","11","23:00","-17.3","","-19.7","","82","","","M","","M","4","","","M","101.93","","","","-20","","NA"
"-85.05","73.01","ARCTIC BAY","2400399","2019-04-12 00:00","2019","04","12","00:00","-19.4","","-21.5","","84","","","M","27","","5","","","M","101.92","","","","-24","","NA"
"-85.05","73.01","ARCTIC BAY","2400399","2019-04-12 01:00","2019","04","12","01:00","-20.2","","-22.5","","82","","","M","","","0","","","M","101.88","","","","","","NA"
"-85.05","73.01","ARCTIC BAY","2400399","2019-04-12 02:00","2019","04","12","02:00","-19.3","","-21.7","","82","","","M","27","","4","","","M","101.87","","","","-23","","NA"
"-85.05","73.01","ARCTIC BAY","2400399","2019-04-12 03:00","2019","04","12","03:00","-18.8","","-21.1","","83","","","M","","","0","","","M","101.85","","","","","","NA"
"-85.05","73.01","ARCTIC BAY","2400399","2019-04-12 04:00","2019","04","12","04:00","-18.3","","-19.7","","89","","","M","4","","13","","","M","101.84","","","","-26","","NA"
"-85.05","73.01","ARCTIC BAY","2400399","2019-04-12 05:00","2019","04","12","05:00","-18.1","","-19.5","","89","","","M","6","","9","","","M","101.83","","","","-24","","NA"
"-85.05","73.01","ARCTIC BAY","2400399","2019-04-12 06:00","2019","04","12","06:00","-19.9","","-21.7","","86","","","M","6","","18","","","M","101.81","","","","-30","","NA"
"-85.05","73.01","ARCTIC BAY","2400399","2019-04-12 07:00","2019","04","12","07:00","-19.0","","-20.7","","86","","","M","5","","5","","","M","101.78","","","","-23","","NA"
"-85.05","73.01","ARCTIC BAY","2400399","2019-04-12 08:00","2019","04","12","08:00","-18.6","","-20.1","","88","","","M","","M","4","","","M","101.78","","","","-22","","NA"
"-85.05","73.01","ARCTIC BAY","2400399","2019-04-12 09:00","2019","04","12","09:00","-19.0","","-20.5","","88","","","M","5","","8","","","M","101.77","","","","-25","","NA"
"-85.05","73.01","ARCTIC BAY","2400399","2019-04-12 10:00","2019","04","12","10:00","-19.2","","-20.9","","86","","","M","8","","9","","","M","101.73","","","","-26","","NA"
"-85.05","73.01","ARCTIC BAY","2400399","2019-04-12 11:00","2019","04","12","11:00","-19.8","","-21.9","","84","","","M","27","","5","","","M","101.71","","","","-24","","NA"
"-85.05","73.01","ARCTIC BAY","2400399","2019-04-12 12:00","2019","04","12","12:00","-19.7","","-21.6","","85","","","M","","","0","","","M","101.68","","","","","","NA"
"-85.05","73.01","ARCTIC BAY","2400399","2019-04-12 13:00","2019","04","12","13:00","-20.0","","-22.1","","84","","","M","","","0","","","M","101.66","","","","","","NA"
"-85.05","73.01","ARCTIC BAY","2400399","2019-04-12 14:00","2019","04","12","14:00","-19.5","","-21.6","","84","","","M","26","","4","","","M","101.65","","","","-23","","NA"
"-85.05","73.01","ARCTIC BAY","2400399","2019-04-12 15:00","2019","04","12","15:00","-21.1","","-23.4","","82","","","M","","","0","","","M","101.65","","","","","","NA"
"-85.05","73.01","ARCTIC BAY","2400399","2019-04-12 16:00","2019","04","12","16:00","-20.5","","-22.9","","81","","","M","","M","4","","","M","101.65","","","","-24","","NA"
"-85.05","73.01","ARCTIC BAY","2400399","2019-04-12 17:00","2019","04","12","17:00","-20.9","","-23.5","","80","","","M","","","0","","","M","101.65","","","","","","NA"
"-85.05","73.01","ARCTIC BAY","2400399","2019-04-12 18:00","2019","04","12","18:00","-22.1","","-24.4","","82","","","M","8","","4","","","M","101.62","","","","-26","","NA"
"-85.05","73.01","ARCTIC BAY","2400399","2019-04-12 19:00","2019","04","12","19:00","-21.4","","-24.6","","76","","","M","14","","4","","","M","101.59","","","","-25","","NA"
"-85.05","73.01","ARCTIC BAY","2400399","2019-04-12 20:00","2019","04","12","20:00","-23.2","","-25.8","","80","","","M","28","","5","","","M","101.56","","","","-28","","NA"
"-85.05","73.01","ARCTIC BAY","2400399","2019-04-12 21:00","2019","04","12","21:00","-23.9","","-26.7","","78","","","M","","M","4","","","M","101.54","","","","-28","","NA"
"-85.05","73.01","ARCTIC BAY","2400399","2019-04-12 22:00","2019","04","12","22:00","-24.6","","-27.3","","79","","","M","","","0","","","M","101.53","","","","","","NA"
"-85.05","73.01","ARCTIC BAY","2400399","2019-04-12 23:00","2019","04","12","23:00","-25.1","","-27.1","","84","","","M","","","0","","","M","101.47","","","","","","NA"
"-85.05","73.01","ARCTIC BAY","2400399","2019-04-13 00:00","2019","04","13","00:00","-25.5","","-28.2","","79","","","M","","","0","","","M","101.44","","","","","","NA"
"-85.05","73.01","ARCTIC BAY","2400399","2019-04-13 01:00","2019","04","13","01:00","-24.1","","-27.1","","77","","","M","","","0","","","M","101.40","","","","","","NA"
"-85.05","73.01","ARCTIC BAY","2400399","2019-04-13 02:00","2019","04","13","02:00","-25.6","","-27.8","","82","","","M","","","0","","","M","101.35","","","","","","NA"
"-85.05","73.01","ARCTIC BAY","2400399","2019-04-13 03:00","2019","04","13","03:00","-25.7","","-28.1","","81","","","M","","","0","","","M","101.33","","","","","","NA"
"-85.05","73.01","ARCTIC BAY","2400399","2019-04-13 04:00","2019","04","13","04:00","-27.8","","-30.4","","79","","","M","","","0","","","M","101.30","","","","","","NA"
"-85.05","73.01","ARCTIC BAY","2400399","2019-04-13 05:00","2019","04","13","05:00","-25.9","","-28.8","","77","","","M","","","0","","","M","101.26","","","","","","NA"
"-85.05","73.01","ARCTIC BAY","2400399","2019-04-13 06:00","2019","04","13","06:00","-26.9","","-29.4","","80","","","M","","","0","","","M","101.23","","","","","","NA"
"-85.05","73.01","ARCTIC BAY","2400399","2019-04-13 07:00","2019","04","13","07:00","-26.4","","-29.6","","75","","","M","","M","4","","","M","101.20","","","","-31","","NA"
"-85.05","73.01","ARCTIC BAY","2400399","2019-04-13 08:00","2019","04","13","08:00","-25.8","","-28.4","","80","","","M","6","","4","","","M","101.13","","","","-30","","NA"
"-85.05","73.01","ARCTIC BAY","2400399","2019-04-13 09:00","2019","04","13","09:00","-26.9","","-29.7","","78","","","M","","M","4","","","M","101.07","","","","-31","","NA"
"-85.05","73.01","ARCTIC BAY","2400399","2019-04-13 10:00","2019","04","13","10:00","-26.8","","-29.6","","78","","","M","","M","4","","","M","101.04","","","","-31","","NA"
"-85.05","73.01","ARCTIC BAY","2400399","2019-04-13 11:00","2019","04","13","11:00","-25.9","","-28.7","","78","","","M","","","0","","","M","100.98","","","","","","NA"
"-85.05","73.01","ARCTIC BAY","2400399","2019-04-13 12:00","2019","04","13","12:00","-25.1","","-28.0","","78","","","M","","","0","","","M","100.96","","","","","","NA"
"-85.05","73.01","ARCTIC BAY","2400399","2019-04-13 13:00","2019","04","13","13:00","-24.8","","-27.7","","77","","","M","","","0","","","M","100.94","","","","","","NA"
"-85.05","73.01","ARCTIC BAY","2400399","2019-04-13 14:00","2019","04","13","14:00","-24.2","","-27.7","","73","","","M","","M","4","","","M","100.92","","","","-28","","NA"
"-85.05","73.01","ARCTIC BAY","2400399","2019-04-13 15:00","2019","04","13","15:00","-23.5","","-26.9","","74","","","M","32","","5","","","M","100.94","","","","-28","","NA"
"-85.05","73.01","ARCTIC BAY","2400399","2019-04-13 16:00","2019","04","13","16:00","-23.9","","-27.5","","73","","","M","","","0","","","M","100.98","","","","","","NA"
"-85.05","73.01","ARCTIC BAY","2400399","2019-04-13 17:00","2019","04","13","17:00","-24.1","","-27.6","","74","","","M","","","0","","","M","101.02","","","","","","NA"
"-85.05","73.01","ARCTIC BAY","2400399","2019-04-13 18:00","2019","04","13","18:00","-24.3","","-28.1","","72","","","M","","","0","","","M","101.05","","","","","","NA"
"-85.05","73.01","ARCTIC BAY","2400399","2019-04-13 19:00","2019","04","13","19:00","-23.7","","-27.9","","69","","","M","","","0","","","M","101.07","","","","","","NA"
"-85.05","73.01","ARCTIC BAY","2400399","2019-04-13 20:00","2019","04","13","20:00","-24.6","","-28.5","","71","","","M","","","0","","","M","101.09","","","","","","NA"
"-85.05","73.01","ARCTIC BAY","2400399","2019-04-13 21:00","2019","04","13","21:00","-25.2","","-29.2","","70","","","M","7","","4","","","M","101.10","","","","-29","","NA"
"-85.05","73.01","ARCTIC BAY","2400399","2019-04-13 22:00","2019","04","13","22:00","-26.1","","-30.1","","70","","","M","31","","8","","","M","101.11","","","","-33","","NA"
"-85.05","73.01","ARCTIC BAY","2400399","2019-04-13 23:00","2019","04","13","23:00","-27.5","","-31.4","","70","","","M","4","","5","","","M","101.11","","","","-33","","NA"
"-85.05","73.01","ARCTIC BAY","2400399","2019-04-14 00:00","2019","04","14","00:00","-26.9","","-30.5","","72","","","M","","","0","","","M","101.09","","","","","","NA"
"-85.05","73.01","ARCTIC BAY","2400399","2019-04-14 01:00","2019","04","14","01:00","-27.5","","-31.1","","72","","","M","","","0","","","M","101.11","","","","","","NA"
"-85.05","73.01","ARCTIC BAY","2400399","2019-04-14 02:00","2019","04","14","02:00","-28.5","","-32.0","","73","","","M","27","","5","","","M","101.10","","","","-34","","NA"
"-85.05","73.01","ARCTIC BAY","2400399","2019-04-14 03:00","2019","04","14","03:00","-29.0","","-31.9","","77","","","M","","","0","","","M","101.11","","","","","","NA"
"-85.05","73.01","ARCTIC BAY","2400399","2019-04-14 04:00","2019","04","14","04:00","-29.7","","-32.6","","76","","","M","5","","5","","","M","101.11","","","","-35","","NA"
"-85.05","73.01","ARCTIC BAY","2400399","2019-04-14 05:00","2019","04","14","05:00","-28.0","","-31.3","","74","","","M","","","0","","","M","101.11","","","","","","NA"
"-85.05","73.01","ARCTIC BAY","2400399","2019-04-14 06:00","2019","04","14","06:00","-30.0","","-33.0","","76","","","M","29","","5","","","M","101.10","","","","-36","","NA"
"-85.05","73.01","ARCTIC BAY","2400399","2019-04-14 07:00","2019","04","14","07:00","-29.9","","-32.8","","76","","","M","","","0","","","M","101.06","","","","","","NA"
"-85.05","73.01","ARCTIC BAY","2400399","2019-04-14 08:00","2019","04","14","08:00","-29.2","","-32.5","","74","","","M","","","0","","","M","101.05","","","","","","NA"
"-85.05","73.01","ARCTIC BAY","2400399","2019-04-14 09:00","2019","04","14","09:00","-30.2","","-33.5","","74","","","M","","","0","","","M","101.06","","","","","","NA"
"-85.05","73.01","ARCTIC BAY","2400399","2019-04-14 10:00","2019","04","14","10:00","-29.6","","-32.9","","74","","","M","9","","5","","","M","101.02","","","","-35","","NA"
"-85.05","73.01","ARCTIC BAY","2400399","2019-04-14 11:00","2019","04","14","11:00","-28.7","","-32.0","","74","","","M","10","","4","","","M","100.99","","","","-33","","NA"
"-85.05","73.01","ARCTIC BAY","2400399","2019-04-14 12:00","2019","04","14","12:00","-28.4","","-31.7","","74","","","M","27","","4","","","M","100.96","","","","-33","","NA"
"-85.05","73.01","ARCTIC BAY","2400399","2019-04-14 13:00","2019","04","14","13:00","-26.8","","-30.4","","72","","","M","","","0","","","M","100.96","","","","","","NA"
"-85.05","73.01","ARCTIC BAY","2400399","2019-04-14 14:00","2019","04","14","14:00","-25.9","","-30.0","","69","","","M","","","0","","","M","100.96","","","","","","NA"
"-85.05","73.01","ARCTIC BAY","2400399","2019-04-14 15:00","2019","04","14","15:00","-26.5","","-29.8","","74","","","M","","","0","","","M","100.95","","","","","","NA"
"-85.05","73.01","ARCTIC BAY","2400399","2019-04-14 16:00","2019","04","14","16:00","-26.3","","-30.1","","71","","","M","","","0","","","M","100.99","","","","","","NA"
"-85.05","73.01","ARCTIC BAY","2400399","2019-04-14 17:00","2019","04","14","17:00","-26.5","","-30.2","","72","","","M","","","0","","","M","101.02","","","","","","NA"
"-85.05","73.01","ARCTIC BAY","2400399","2019-04-14 18:00","2019","04","14","18:00","-26.8","","-30.2","","74","","","M","","M","4","","","M","101.01","","","","-31","","NA"
"-85.05","73.01","ARCTIC BAY","2400399","2019-04-14 19:00","2019","04","14","19:00","-27.3","","-30.8","","73","","","M","8","","5","","","M","101.02","","","","-33","","NA"
"-85.05","73.01","ARCTIC BAY","2400399","2019-04-14 20:00","2019","04","14","20:00","-26.7","","-31.1","","67","","","M","","M","4","","","M","101.01","","","","-31","","NA"
"-85.05","73.01","ARCTIC BAY","2400399","2019-04-14 21:00","2019","04","14","21:00","-27.7","","-31.8","","69","","","M","","","0","","","M","100.98","","","","","","NA"
"-85.05","73.01","ARCTIC BAY","2400399","2019-04-14 22:00","2019","04","14","22:00","-28.4","","-32.5","","69","","","M","","","0","","","M","100.97","","","","","","NA"
"-85.05","73.01","ARCTIC BAY","2400399","2019-04-14 23:00","2019","04","14","23:00","-28.2","","-32.8","","66","","","M","","M","4","","","M","100.96","","","","-33","","NA"
"-85.05","73.01","ARCTIC BAY","2400399","2019-04-15 00:00","2019","04","15","00:00","-28.5","","-33.1","","65","","","M","","","0","","","M","100.95","","","","","","NA"
"-85.05","73.01","ARCTIC BAY","2400399","2019-04-15 01:00","2019","04","15","01:00","-29.4","","-34.0","","65","","","M","","M","4","","","M","100.91","","","","-34","","NA"
"-85.05","73.01","ARCTIC BAY","2400399","2019-04-15 02:00","2019","04","15","02:00","-29.9","","-34.2","","67","","","M","","M","4","","","M","100.88","","","","-34","","NA"
"-85.05","73.01","ARCTIC BAY","2400399","2019-04-15 03:00","2019","04","15","03:00","-30.4","","-34.7","","67","","","M","","M","4","","","M","100.87","","","","-35","","NA"
"-85.05","73.01","ARCTIC BAY","2400399","2019-04-15 04:00","2019","04","15","04:00","-30.6","","-34.4","","70","","","M","","M","4","","","M","100.86","","","","-35","","NA"
"-85.05","73.01","ARCTIC BAY","2400399","2019-04-15 05:00","2019","04","15","05:00","-31.7","","-35.5","","70","","","M","","M","4","","","M","100.87","","","","-36","","NA"
"-85.05","73.01","ARCTIC BAY","2400399","2019-04-15 06:00","2019","04","15","06:00","-32.1","","-35.6","","72","","","M","","","0","","","M","100.85","","","","","","NA"
"-85.05","73.01","ARCTIC BAY","2400399","2019-04-15 07:00","2019","04","15","07:00","-32.8","","-36.1","","73","","","M","10","","8","","","M","100.84","","","","-41","","NA"
"-85.05","73.01","ARCTIC BAY","2400399","2019-04-15 08:00","2019","04","15","08:00","-32.5","","-36.1","","71","","","M","","","0","","","M","100.84","","","","","","NA"
"-85.05","73.01","ARCTIC BAY","2400399","2019-04-15 09:00","2019","04","15","09:00","-31.8","","-35.6","","70","","","M","","","0","","","M","100.83","","","","","","NA"
"-85.05","73.01","ARCTIC BAY","2400399","2019-04-15 10:00","2019","04","15","10:00","-32.0","","-35.8","","70","","","M","","","0","","","M","100.81","","","","","","NA"
"-85.05","73.01","ARCTIC BAY","2400399","2019-04-15 11:00","2019","04","15","11:00","-31.2","","-35.3","","68","","","M","","","0","","","M","100.77","","","","","","NA"
"-85.05","73.01","ARCTIC BAY","2400399","2019-04-15 12:00","2019","04","15","12:00","-30.3","","-34.4","","68","","","M","","","0","","","M","100.76","","","","","","NA"
"-85.05","73.01","ARCTIC BAY","2400399","2019-04-15 13:00","2019","04","15","13:00","-29.5","","-33.5","","69","","","M","","","0","","","M","100.77","","","","","","NA"
"-85.05","73.01","ARCTIC BAY","2400399","2019-04-15 14:00","2019","04","15","14:00","-28.7","","-33.2","","66","","","M","","","0","","","M","100.77","","","","","","NA"
"-85.05","73.01","ARCTIC BAY","2400399","2019-04-15 15:00","2019","04","15","15:00","-28.6","","-32.7","","69","","","M","","","0","","","M","100.76","","","","","","NA"
"-85.05","73.01","ARCTIC BAY","2400399","2019-04-15 16:00","2019","04","15","16:00","-27.6","","-31.8","","68","","","M","33","","13","","","M","100.78","","","","-38","","NA"
"-85.05","73.01","ARCTIC BAY","2400399","2019-04-15 17:00","2019","04","15","17:00","-27.7","","-32.6","","64","","","M","30","","9","","","M","100.81","","","","-36","","NA"
"-85.05","73.01","ARCTIC BAY","2400399","2019-04-15 18:00","2019","04","15","18:00","-27.9","","-32.4","","66","","","M","32","","5","","","M","100.83","","","","-33","","NA"
"-85.05","73.01","ARCTIC BAY","2400399","2019-04-15 19:00","2019","04","15","19:00","-28.8","","-32.4","","72","","","M","","M","4","","","M","100.82","","","","-33","","NA"
"-85.05","73.01","ARCTIC BAY","2400399","2019-04-15 20:00","2019","04","15","20:00","-29.0","","-32.5","","72","","","M","12","","9","","","M","100.82","","","","-37","","NA"
"-85.05","73.01","ARCTIC BAY","2400399","2019-04-15 21:00","2019","04","15","21:00","-28.5","","-32.4","","70","","","M","9","","9","","","M","100.81","","","","-37","","NA"
"-85.05","73.01","ARCTIC BAY","2400399","2019-04-15 22:00","2019","04","15","22:00","-29.1","","-33.2","","69","","","M","8","","9","","","M","100.81","","","","-38","","NA"
"-85.05","73.01","ARCTIC BAY","2400399","2019-04-15 23:00","2019","04","15","23:00","-29.2","","-33.7","","66","","","M","7","","9","","","M","100.79","","","","-38","","NA"
"-85.05","73.01","ARCTIC BAY","2400399","2019-04-16 00:00","2019","04","16","00:00","-29.2","","-33.9","","65","","","M","8","","13","","","M","100.79","","","","-40","","NA"
"-85.05","73.01","ARCTIC BAY","2400399","2019-04-16 01:00","2019","04","16","01:00","-29.1","","-33.6","","66","","","M","9","","8","","","M","100.78","","","","-37","","NA"
"-85.05","73.01","ARCTIC BAY","2400399","2019-04-16 02:00","2019","04","16","02:00","-29.8","","-34.5","","65","","","M","8","","11","","","M","100.81","","","","-39","","NA"
"-85.05","73.01","ARCTIC BAY","2400399","2019-04-16 03:00","2019","04","16","03:00","-30.5","","-35.4","","63","","","M","14","","8","","","M","100.83","","","","-39","","NA"
"-85.05","73.01","ARCTIC BAY","2400399","2019-04-16 04:00","2019","04","16","04:00","-31.9","","-36.0","","68","","","M","","M","4","","","M","100.90","","","","-37","","NA"
"-85.05","73.01","ARCTIC BAY","2400399","2019-04-16 05:00","2019","04","16","05:00","-31.8","","-35.9","","68","","","M","","","0","","","M","100.92","","","","","","NA"
"-85.05","73.01","ARCTIC BAY","2400399","2019-04-16 06:00","2019","04","16","06:00","-31.2","","-35.6","","66","","","M","27","","4","","","M","100.96","","","","-36","","NA"
"-85.05","73.01","ARCTIC BAY","2400399","2019-04-16 07:00","2019","04","16","07:00","-30.6","","-34.9","","67","","","M","30","","5","","","M","100.98","","","","-36","","NA"
"-85.05","73.01","ARCTIC BAY","2400399","2019-04-16 08:00","2019","04","16","08:00","-29.8","","-34.4","","65","","","M","","M","4","","","M","101.03","","","","-34","","NA"
"-85.05","73.01","ARCTIC BAY","2400399","2019-04-16 09:00","2019","04","16","09:00","-29.4","","-34.0","","65","","","M","","","0","","","M","101.03","","","","","","NA"
"-85.05","73.01","ARCTIC BAY","2400399","2019-04-16 10:00","2019","04","16","10:00","-28.6","","-33.3","","65","","","M","","M","4","","","M","101.06","","","","-33","","NA"
"-85.05","73.01","ARCTIC BAY","2400399","2019-04-16 11:00","2019","04","16","11:00","-27.8","","-32.2","","67","","","M","","","0","","","M","101.11","","","","","","NA"
"-85.05","73.01","ARCTIC BAY","2400399","2019-04-16 12:00","2019","04","16","12:00","-27.5","","-31.6","","69","","","M","","M","4","","","M","101.12","","","","-32","","NA"
"-85.05","73.01","ARCTIC BAY","2400399","2019-04-16 13:00","2019","04","16","13:00","-26.2","","-30.3","","69","","","M","","M","5","","","M","101.16","","","","-31","","NA"
"-85.05","73.01","ARCTIC BAY","2400399","2019-04-16 14:00","2019","04","16","14:00","-25.7","","-29.7","","70","","","M","","M","4","","","M","101.17","","","","-30","","NA"
"-85.05","73.01","ARCTIC BAY","2400399","2019-04-16 15:00","2019","04","16","15:00","-25.1","","-29.2","","70","","","M","","","0","","","M","101.22","","","","","","NA"
"-85.05","73.01","ARCTIC BAY","2400399","2019-04-16 16:00","2019","04","16","16:00","-24.0","","-28.8","","65","","","M","","M","4","","","M","101.23","","","","-28","","NA"
"-85.05","73.01","ARCTIC BAY","2400399","2019-04-16 17:00","2019","04","16","17:00","-24.9","","-28.6","","72","","","M","32","","5","","","M","101.28","","","","-30","","NA"
"-85.05","73.01","ARCTIC BAY","2400399","2019-04-16 18:00","2019","04","16","18:00","-24.8","","-28.7","","71","","","M","","","0","","","M","101.30","","","","","","NA"
"-85.05","73.01","ARCTIC BAY","2400399","2019-04-16 19:00","2019","04","16","19:00","-25.4","","-28.7","","75","","","M","10","","4","","","M","101.31","","","","-29","","NA"
"-85.05","73.01","ARCTIC BAY","2400399","2019-04-16 20:00","2019","04","16","20:00","-25.5","","-29.5","","70","","","M","5","","9","","","M","101.30","","","","-33","","NA"
"-85.05","73.01","ARCTIC BAY","2400399","2019-04-16 21:00","2019","04","16","21:00","-27.2","","-30.8","","72","","","M","8","","5","","","M","101.30","","","","-32","","NA"
"-85.05","73.01","ARCTIC BAY","2400399","2019-04-16 22:00","2019","04","16","22:00","-27.4","","-31.5","","69","","","M","28","","5","","","M","101.31","","","","-33","","NA"
"-85.05","73.01","ARCTIC BAY","2400399","2019-04-16 23:00","2019","04","16","23:00","-29.4","","-32.7","","74","","","M","26","","4","","","M","101.30","","","","-34","","NA"
"-85.05","73.01","ARCTIC BAY","2400399","2019-04-17 00:00","2019","04","17","00:00","-28.7","","-32.4","","71","","","M","","M","4","","","M","101.29","","","","-33","","NA"
"-85.05","73.01","ARCTIC BAY","2400399","2019-04-17 01:00","2019","04","17","01:00","-29.5","","-33.1","","72","","","M","","M","4","","","M","101.30","","","","-34","","NA"
"-85.05","73.01","ARCTIC BAY","2400399","2019-04-17 02:00","2019","04","17","02:00","-29.6","","-33.5","","70","","","M","","M","5","","","M","101.31","","","","-35","","NA"
"-85.05","73.01","ARCTIC BAY","2400399","2019-04-17 03:00","2019","04","17","03:00","-31.2","","-34.7","","72","","","M","10","","5","","","M","101.33","","","","-37","","NA"
"-85.05","73.01","ARCTIC BAY","2400399","2019-04-17 04:00","2019","04","17","04:00","-31.3","","-34.8","","72","","","M","","M","4","","","M","101.34","","","","-36","","NA"
"-85.05","73.01","ARCTIC BAY","2400399","2019-04-17 05:00","2019","04","17","05:00","-30.5","","-34.6","","68","","","M","","M","4","","","M","101.33","","","","-35","","NA"
"-85.05","73.01","ARCTIC BAY","2400399","2019-04-17 06:00","2019","04","17","06:00","-31.4","","-35.7","","67","","","M","","M","4","","","M","101.32","","","","-36","","NA"
"-85.05","73.01","ARCTIC BAY","2400399","2019-04-17 07:00","2019","04","17","07:00","-31.4","","-35.2","","70","","","M","","M","4","","","M","101.29","","","","-36","","NA"
"-85.05","73.01","ARCTIC BAY","2400399","2019-04-17 08:00","2019","04","17","08:00","-31.4","","-35.3","","69","","","M","","M","4","","","M","101.29","","","","-36","","NA"
"-85.05","73.01","ARCTIC BAY","2400399","2019-04-17 09:00","2019","04","17","09:00","-31.2","","-35.0","","70","","","M","","","0","","","M","101.26","","","","","","NA"
"-85.05","73.01","ARCTIC BAY","2400399","2019-04-17 10:00","2019","04","17","10:00","-29.8","","-34.1","","67","","","M","32","","9","","","M","101.25","","","","-38","","NA"
"-85.05","73.01","ARCTIC BAY","2400399","2019-04-17 11:00","2019","04","17","11:00","-28.7","","-33.2","","66","","","M","27","","5","","","M","101.21","","","","-34","","NA"
"-85.05","73.01","ARCTIC BAY","2400399","2019-04-17 12:00","2019","04","17","12:00","-28.5","","-33.2","","65","","","M","27","","8","","","M","101.21","","","","-36","","NA"
"-85.05","73.01","ARCTIC BAY","2400399","2019-04-17 13:00","2019","04","17","13:00","-27.7","","-32.3","","66","","","M","26","","5","","","M","101.20","","","","-33","","NA"
"-85.05","73.01","ARCTIC BAY","2400399","2019-04-17 14:00","2019","04","17","14:00","-27.5","","-31.9","","67","","","M","","","0","","","M","101.19","","","","","","NA"
"-85.05","73.01","ARCTIC BAY","2400399","2019-04-17 15:00","2019","04","17","15:00","-26.8","","-31.4","","66","","","M","","","0","","","M","101.21","","","","","","NA"
"-85.05","73.01","ARCTIC BAY","2400399","2019-04-17 16:00","2019","04","17","16:00","-26.6","","-31.1","","67","","","M","","","0","","","M","101.21","","","","","","NA"
"-85.05","73.01","ARCTIC BAY","2400399","2019-04-17 17:00","2019","04","17","17:00","-26.5","","-30.9","","67","","","M","6","","5","","","M","101.22","","","","-32","","NA"
"-85.05","73.01","ARCTIC BAY","2400399","2019-04-17 18:00","2019","04","17","18:00","-26.9","","-30.5","","72","","","M","","M","4","","","M","101.22","","","","-31","","NA"
"-85.05","73.01","ARCTIC BAY","2400399","2019-04-17 19:00","2019","04","17","19:00","-26.1","","-30.1","","70","","","M","","","0","","","M","101.20","","","","","","NA"
"-85.05","73.01","ARCTIC BAY","2400399","2019-04-17 20:00","2019","04","17","20:00","-26.2","","-29.9","","72","","","M","","","0","","","M","101.18","","","","","","NA"
"-85.05","73.01","ARCTIC BAY","2400399","2019-04-17 21:00","2019","04","17","21:00","-26.3","","-29.7","","74","","","M","","","0","","","M","101.18","","","","","","NA"
"-85.05","73.01","ARCTIC BAY","2400399","2019-04-17 22:00","2019","04","17","22:00","-26.0","","-29.1","","76","","","M","","","0","","","M","101.15","","","","","","NA"
"-85.05","73.01","ARCTIC BAY","2400399","2019-04-17 23:00","2019","04","17","23:00","-26.1","","-29.3","","75","","","M","","","0","","","M","101.14","","","","","","NA"
"-85.05","73.01","ARCTIC BAY","2400399","2019-04-18 00:00","2019","04","18","00:00","-26.1","","-29.2","","76","","","M","","","0","","","M","101.11","","","","","","NA"
"-85.05","73.01","ARCTIC BAY","2400399","2019-04-18 01:00","2019","04","18","01:00","-26.9","","-30.3","","73","","","M","11","","5","","","M","101.12","","","","-32","","NA"
"-85.05","73.01","ARCTIC BAY","2400399","2019-04-18 02:00","2019","04","18","02:00","-26.1","","-29.5","","74","","","M","","M","4","","","M","101.10","","","","-30","","NA"
"-85.05","73.01","ARCTIC BAY","2400399","2019-04-18 03:00","2019","04","18","03:00","-26.4","","-29.7","","74","","","M","29","","5","","","M","101.10","","","","-32","","NA"
"-85.05","73.01","ARCTIC BAY","2400399","2019-04-18 04:00","2019","04","18","04:00","-26.7","","-30.0","","74","","","M","31","","11","","","M","101.11","","","","-36","","NA"
"-85.05","73.01","ARCTIC BAY","2400399","2019-04-18 05:00","2019","04","18","05:00","-26.9","","-30.1","","75","","","M","31","","9","","","M","101.08","","","","-35","","NA"
"-85.05","73.01","ARCTIC BAY","2400399","2019-04-18 06:00","2019","04","18","06:00","-26.4","","-29.9","","73","","","M","31","","11","","","M","101.09","","","","-35","","NA"
"-85.05","73.01","ARCTIC BAY","2400399","2019-04-18 07:00","2019","04","18","07:00","-27.3","","-30.6","","74","","","M","11","","8","","","M","101.10","","","","-35","","NA"
"-85.05","73.01","ARCTIC BAY","2400399","2019-04-18 08:00","2019","04","18","08:00","-27.6","","-31.4","","71","","","M","34","","8","","","M","101.09","","","","-35","","NA"
"-85.05","73.01","ARCTIC BAY","2400399","2019-04-18 09:00","2019","04","18","09:00","-27.3","","-31.4","","69","","","M","12","","8","","","M","101.07","","","","-35","","NA"
"-85.05","73.01","ARCTIC BAY","2400399","2019-04-18 10:00","2019","04","18","10:00","-26.1","","-30.2","","69","","","M","28","","4","","","M","101.05","","","","-30","","NA"
"-85.05","73.01","ARCTIC BAY","2400399","2019-04-18 11:00","2019","04","18","11:00","-25.8","","-30.1","","68","","","M","","M","4","","","M","101.03","","","","-30","","NA"
"-85.05","73.01","ARCTIC BAY","2400399","2019-04-18 12:00","2019","04","18","12:00","-25.3","","-29.9","","66","","","M","","M","4","","","M","101.03","","","","-29","","NA"
"-85.05","73.01","ARCTIC BAY","2400399","2019-04-18 13:00","2019","04","18","13:00","-24.9","","-29.7","","65","","","M","30","","4","","","M","101.03","","","","-29","","NA"
"-85.05","73.01","ARCTIC BAY","2400399","2019-04-18 14:00","2019","04","18","14:00","-24.5","","-29.5","","64","","","M","30","","8","","","M","101.03","","","","-32","","NA"
"-85.05","73.01","ARCTIC BAY","2400399","2019-04-18 15:00","2019","04","18","15:00","-24.7","","-29.6","","65","","","M","","","0","","","M","101.03","","","","","","NA"
"-85.05","73.01","ARCTIC BAY","2400399","2019-04-18 16:00","2019","04","18","16:00","-24.5","","-29.2","","66","","","M","30","","8","","","M","101.00","","","","-32","","NA"
"-85.05","73.01","ARCTIC BAY","2400399","2019-04-18 17:00","2019","04","18","17:00","-24.8","","-29.3","","67","","","M","31","","13","","","M","101.01","","","","-34","","NA"
"-85.05","73.01","ARCTIC BAY","2400399","2019-04-18 18:00","2019","04","18","18:00","-25.0","","-29.2","","69","","","M","31","","15","","","M","100.99","","","","-35","","NA"
"-85.05","73.01","ARCTIC BAY","2400399","2019-04-18 19:00","2019","04","18","19:00","-26.0","","-30.1","","69","","","M","11","","5","","","M","100.97","","","","-31","","NA"
"-85.05","73.01","ARCTIC BAY","2400399","2019-04-18 20:00","2019","04","18","20:00","-26.4","","-30.0","","72","","","M","","","0","","","M","100.94","","","","","","NA"
"-85.05","73.01","ARCTIC BAY","2400399","2019-04-18 21:00","2019","04","18","21:00","-25.3","","-30.3","","64","","","M","8","","8","","","M","100.89","","","","-32","","NA"
"-85.05","73.01","ARCTIC BAY","2400399","2019-04-18 22:00","2019","04","18","22:00","-26.9","","-31.5","","66","","","M","10","","5","","","M","100.85","","","","-32","","NA"
"-85.05","73.01","ARCTIC BAY","2400399","2019-04-18 23:00","2019","04","18","23:00","-27.3","","-31.3","","70","","","M","33","","4","","","M","100.82","","","","-32","","NA"
"-85.05","73.01","ARCTIC BAY","2400399","2019-04-19 00:00","2019","04","19","00:00","-28.2","","-32.0","","71","","","M","32","","5","","","M","100.78","","","","-34","","NA"
"-85.05","73.01","ARCTIC BAY","2400399","2019-04-19 01:00","2019","04","19","01:00","-28.6","","-32.7","","69","","","M","35","","5","","","M","100.77","","","","-34","","NA"
"-85.05","73.01","ARCTIC BAY","2400399","2019-04-19 02:00","2019","04","19","02:00","-28.3","","-32.9","","66","","","M","","","0","","","M","100.76","","","","","","NA"
"-85.05","73.01","ARCTIC BAY","2400399","2019-04-19 03:00","2019","04","19","03:00","-28.1","","-32.4","","68","","","M","","M","4","","","M","100.76","","","","-32","","NA"
"-85.05","73.01","ARCTIC BAY","2400399","2019-04-19 04:00","2019","04","19","04:00","-28.8","","-33.1","","68","","","M","","","0","","","M","100.73","","","","","","NA"
"-85.05","73.01","ARCTIC BAY","2400399","2019-04-19 05:00","2019","04","19","05:00","-28.5","","-33.1","","65","","","M","","","0","","","M","100.71","","","","","","NA"
"-85.05","73.01","ARCTIC BAY","2400399","2019-04-19 06:00","2019","04","19","06:00","-29.1","","-33.9","","64","","","M","","M","4","","","M","100.72","","","","-34","","NA"
"-85.05","73.01","ARCTIC BAY","2400399","2019-04-19 07:00","2019","04","19","07:00","-29.0","","-33.9","","64","","","M","","M","4","","","M","100.70","","","","-33","","NA"
"-85.05","73.01","ARCTIC BAY","2400399","2019-04-19 08:00","2019","04","19","08:00","-29.2","","-34.1","","64","","","M","","","0","","","M","100.67","","","","","","NA"
"-85.05","73.01","ARCTIC BAY","2400399","2019-04-19 09:00","2019","04","19","09:00","-28.1","","-33.3","","62","","","M","","","0","","","M","100.67","","","","","","NA"
"-85.05","73.01","ARCTIC BAY","2400399","2019-04-19 10:00","2019","04","19","10:00","-27.2","","-32.3","","63","","","M","31","","8","","","M","100.63","","","","-35","","NA"
"-85.05","73.01","ARCTIC BAY","2400399","2019-04-19 11:00","2019","04","19","11:00","-27.4","","-32.3","","64","","","M","","M","4","","","M","100.62","","","","-32","","NA"
"-85.05","73.01","ARCTIC BAY","2400399","2019-04-19 12:00","2019","04","19","12:00","-26.5","","-31.6","","63","","","M","28","","4","","","M","100.60","","","","-31","","NA"
"-85.05","73.01","ARCTIC BAY","2400399","2019-04-19 13:00","2019","04","19","13:00","-26.1","","-31.2","","63","","","M","12","","4","","","M","100.59","","","","-30","","NA"
"-85.05","73.01","ARCTIC BAY","2400399","2019-04-19 14:00","2019","04","19","14:00","-25.4","","-30.9","","61","","","M","","","0","","","M","100.60","","","","","","NA"
"-85.05","73.01","ARCTIC BAY","2400399","2019-04-19 15:00","2019","04","19","15:00","-25.2","","-30.2","","64","","","M","31","","9","","","M","100.59","","","","-33","","NA"
"-85.05","73.01","ARCTIC BAY","2400399","2019-04-19 16:00","2019","04","19","16:00","-24.6","","-30.2","","61","","","M","28","","5","","","M","100.59","","","","-29","","NA"
"-85.05","73.01","ARCTIC BAY","2400399","2019-04-19 17:00","2019","04","19","17:00","-24.9","","-30.4","","61","","","M","31","","9","","","M","100.58","","","","-33","","NA"
"-85.05","73.01","ARCTIC BAY","2400399","2019-04-19 18:00","2019","04","19","18:00","-24.9","","-30.6","","60","","","M","30","","5","","","M","100.59","","","","-30","","NA"
"-85.05","73.01","ARCTIC BAY","2400399","2019-04-19 19:00","2019","04","19","19:00","-26.2","","-31.4","","62","","","M","","","0","","","M","100.59","","","","","","NA"
"-85.05","73.01","ARCTIC BAY","2400399","2019-04-19 20:00","2019","04","19","20:00","-26.1","","-31.2","","63","","","M","","","0","","","M","100.58","","","","","","NA"
"-85.05","73.01","ARCTIC BAY","2400399","2019-04-19 21:00","2019","04","19","21:00","-27.1","","-32.0","","64","","","M","","","0","","","M","100.58","","","","","","NA"
"-85.05","73.01","ARCTIC BAY","2400399","2019-04-19 22:00","2019","04","19","22:00","-26.8","","-31.3","","67","","","M","","","0","","","M","100.58","","","","","","NA"
"-85.05","73.01","ARCTIC BAY","2400399","2019-04-19 23:00","2019","04","19","23:00","-26.8","","-31.9","","63","","","M","","M","4","","","M","100.56","","","","-31","","NA"
"-85.05","73.01","ARCTIC BAY","2400399","2019-04-20 00:00","2019","04","20","00:00","-26.7","","-31.6","","64","","","M","","","0","","","M","100.55","","","","","","NA"
"-85.05","73.01","ARCTIC BAY","2400399","2019-04-20 01:00","2019","04","20","01:00","-28.0","","-32.2","","68","","","M","36","","8","","","M","100.56","","","","-36","","NA"
"-85.05","73.01","ARCTIC BAY","2400399","2019-04-20 02:00","2019","04","20","02:00","-28.8","","-32.8","","70","","","M","11","","9","","","M","100.58","","","","-37","","NA"
"-85.05","73.01","ARCTIC BAY","2400399","2019-04-20 03:00","2019","04","20","03:00","-28.0","","-32.3","","67","","","M","","M","4","","","M","100.59","","","","-32","","NA"
"-85.05","73.01","ARCTIC BAY","2400399","2019-04-20 04:00","2019","04","20","04:00","-28.9","","-33.0","","68","","","M","","","0","","","M","100.60","","","","","","NA"
"-85.05","73.01","ARCTIC BAY","2400399","2019-04-20 05:00","2019","04","20","05:00","-28.9","","-32.9","","69","","","M","25","","5","","","M","100.60","","","","-34","","NA"
"-85.05","73.01","ARCTIC BAY","2400399","2019-04-20 06:00","2019","04","20","06:00","-27.9","","-32.3","","67","","","M","","","0","","","M","100.61","","","","","","NA"
"-85.05","73.01","ARCTIC BAY","2400399","2019-04-20 07:00","2019","04","20","07:00","-28.2","","-32.9","","65","","","M","","M","4","","","M","100.62","","","","-33","","NA"
"-85.05","73.01","ARCTIC BAY","2400399","2019-04-20 08:00","2019","04","20","08:00","-27.5","","-32.4","","64","","","M","","","0","","","M","100.63","","","","","","NA"
"-85.05","73.01","ARCTIC BAY","2400399","2019-04-20 09:00","2019","04","20","09:00","-26.0","","-31.2","","62","","","M","","M","4","","","M","100.64","","","","-30","","NA"
"-85.05","73.01","ARCTIC BAY","2400399","2019-04-20 10:00","2019","04","20","10:00","-27.1","","-31.8","","65","","","M","","","0","","","M","100.62","","","","","","NA"
"-85.05","73.01","ARCTIC BAY","2400399","2019-04-20 11:00","2019","04","20","11:00","-25.9","","-30.7","","65","","","M","","","0","","","M","100.62","","","","","","NA"
"-85.05","73.01","ARCTIC BAY","2400399","2019-04-20 12:00","2019","04","20","12:00","-25.2","","-30.2","","64","","","M","","M","4","","","M","100.63","","","","-29","","NA"
"-85.05","73.01","ARCTIC BAY","2400399","2019-04-20 13:00","2019","04","20","13:00","-23.8","","-28.9","","64","","","M","","","0","","","M","100.66","","","","","","NA"
"-85.05","73.01","ARCTIC BAY","2400399","2019-04-20 14:00","2019","04","20","14:00","-23.3","","-28.5","","63","","","M","7","","4","","","M","100.66","","","","-27","","NA"
"-85.05","73.01","ARCTIC BAY","2400399","2019-04-20 15:00","2019","04","20","15:00","-22.8","","-27.7","","65","","","M","9","","5","","","M","100.67","","","","-27","","NA"
"-85.05","73.01","ARCTIC BAY","2400399","2019-04-20 16:00","2019","04","20","16:00","-21.6","","-26.3","","67","","","M","11","","11","","","M","100.67","","","","-30","","NA"
"-85.05","73.01","ARCTIC BAY","2400399","2019-04-20 17:00","2019","04","20","17:00","-19.4","","-24.1","","67","","","M","34","","32","","","M","100.69","","","","-32","","NA"
"-85.05","73.01","ARCTIC BAY","2400399","2019-04-20 18:00","2019","04","20","18:00","-19.9","","-24.7","","66","","","M","31","","24","","","M","100.73","","","","-31","","NA"
"-85.05","73.01","ARCTIC BAY","2400399","2019-04-20 19:00","2019","04","20","19:00","-20.4","","-25.2","","66","","","M","35","","30","","","M","100.72","","","","-33","","NA"
"-85.05","73.01","ARCTIC BAY","2400399","2019-04-20 20:00","2019","04","20","20:00","-21.6","","-25.9","","69","","","M","31","","30","","","M","100.73","","","","-35","","NA"
"-85.05","73.01","ARCTIC BAY","2400399","2019-04-20 21:00","2019","04","20","21:00","-22.0","","-26.6","","67","","","M","35","","9","","","M","100.74","","","","-29","","NA"
"-85.05","73.01","ARCTIC BAY","2400399","2019-04-20 22:00","2019","04","20","22:00","-24.3","","-28.3","","70","","","M","","M","4","","","M","100.75","","","","-28","","NA"
"-85.05","73.01","ARCTIC BAY","2400399","2019-04-20 23:00","2019","04","20","23:00","-24.1","","-28.3","","69","","","M","","M","9","","","M","100.74","","","","-32","","NA"
"-85.05","73.01","ARCTIC BAY","2400399","2019-04-21 00:00","2019","04","21","00:00","-25.5","","-29.8","","68","","","M","17","","4","","","M","100.75","","","","-30","","NA"
"-85.05","73.01","ARCTIC BAY","2400399","2019-04-21 01:00","2019","04","21","01:00","-25.4","","-29.1","","72","","","M","","","0","","","M","100.76","","","","","","NA"
"-85.05","73.01","ARCTIC BAY","2400399","2019-04-21 02:00","2019","04","21","02:00","-25.6","","-29.6","","70","","","M","","","0","","","M","100.76","","","","","","NA"
"-85.05","73.01","ARCTIC BAY","2400399","2019-04-21 03:00","2019","04","21","03:00","-25.9","","-30.2","","68","","","M","","M","5","","","M","100.74","","","","-31","","NA"
"-85.05","73.01","ARCTIC BAY","2400399","2019-04-21 04:00","2019","04","21","04:00","-26.0","","-30.9","","65","","","M","","","0","","","M","100.72","","","","","","NA"
"-85.05","73.01","ARCTIC BAY","2400399","2019-04-21 05:00","2019","04","21","05:00","-26.0","","-30.0","","70","","","M","","","0","","","M","100.70","","","","","","NA"
"-85.05","73.01","ARCTIC BAY","2400399","2019-04-21 06:00","2019","04","21","06:00","-26.9","","-31.2","","68","","","M","","","0","","","M","100.67","","","","","","NA"
"-85.05","73.01","ARCTIC BAY","2400399","2019-04-21 07:00","2019","04","21","07:00","-27.1","","-31.2","","69","","","M","","M","4","","","M","100.65","","","","-31","","NA"
"-85.05","73.01","ARCTIC BAY","2400399","2019-04-21 08:00","2019","04","21","08:00","-26.6","","-30.6","","70","","","M","","M","4","","","M","100.62","","","","-31","","NA"
"-85.05","73.01","ARCTIC BAY","2400399","2019-04-21 09:00","2019","04","21","09:00","-26.4","","-30.2","","71","","","M","","","0","","","M","100.57","","","","","","NA"
"-85.05","73.01","ARCTIC BAY","2400399","2019-04-21 10:00","2019","04","21","10:00","-25.7","","-29.8","","69","","","M","","","0","","","M","100.54","","","","","","NA"
"-85.05","73.01","ARCTIC BAY","2400399","2019-04-21 11:00","2019","04","21","11:00","-25.6","","-29.2","","73","","","M","","","0","","","M","100.51","","","","","","NA"
"-85.05","73.01","ARCTIC BAY","2400399","2019-04-21 12:00","2019","04","21","12:00","-24.4","","-28.5","","70","","","M","","","0","","","M","100.49","","","","","","NA"
"-85.05","73.01","ARCTIC BAY","2400399","2019-04-21 13:00","2019","04","21","13:00","-23.7","","-27.7","","70","","","M","","","0","","","M","100.48","","","","","","NA"
"-85.05","73.01","ARCTIC BAY","2400399","2019-04-21 14:00","2019","04","21","14:00","-24.1","","-27.9","","71","","","M","","","0","","","M","100.49","","","","","","NA"
"-85.05","73.01","ARCTIC BAY","2400399","2019-04-21 15:00","2019","04","21","15:00","-22.9","","-27.6","","66","","","M","","","0","","","M","100.50","","","","","","NA"
"-85.05","73.01","ARCTIC BAY","2400399","2019-04-21 16:00","2019","04","21","16:00","-23.4","","-27.9","","67","","","M","","","0","","","M","100.51","","","","","","NA"
"-85.05","73.01","ARCTIC BAY","2400399","2019-04-21 17:00","2019","04","21","17:00","-23.8","","-28.2","","68","","","M","","","0","","","M","100.52","","","","","","NA"
"-85.05","73.01","ARCTIC BAY","2400399","2019-04-21 18:00","2019","04","21","18:00","-24.0","","-27.7","","72","","","M","","","0","","","M","100.53","","","","","","NA"
"-85.05","73.01","ARCTIC BAY","2400399","2019-04-21 19:00","2019","04","21","19:00","-24.4","","-27.5","","76","","","M","","","0","","","M","100.53","","","","","","NA"
"-85.05","73.01","ARCTIC BAY","2400399","2019-04-21 20:00","2019","04","21","20:00","-25.3","","-28.1","","78","","","M","","","0","","","M","100.56","","","","","","NA"
"-85.05","73.01","ARCTIC BAY","2400399","2019-04-21 21:00","2019","04","21","21:00","-25.5","","-28.4","","77","","","M","","M","4","","","M","100.56","","","","-30","","NA"
"-85.05","73.01","ARCTIC BAY","2400399","2019-04-21 22:00","2019","04","21","22:00","-24.6","","-28.2","","73","","","M","","","0","","","M","100.56","","","","","","NA"
"-85.05","73.01","ARCTIC BAY","2400399","2019-04-21 23:00","2019","04","21","23:00","-26.1","","-29.2","","76","","","M","35","","9","","","M","100.58","","","","-34","","NA"
"-85.05","73.01","ARCTIC BAY","2400399","2019-04-22 00:00","2019","04","22","00:00","-25.9","","-28.7","","78","","","M","","M","4","","","M","100.61","","","","-30","","NA"
"-85.05","73.01","ARCTIC BAY","2400399","2019-04-22 01:00","2019","04","22","01:00","-26.7","","-29.5","","78","","","M","8","","5","","","M","100.64","","","","-32","","NA"
"-85.05","73.01","ARCTIC BAY","2400399","2019-04-22 02:00","2019","04","22","02:00","-27.4","","-30.3","","77","","","M","","","0","","","M","100.67","","","","","","NA"
"-85.05","73.01","ARCTIC BAY","2400399","2019-04-22 03:00","2019","04","22","03:00","-27.1","","-30.5","","73","","","M","9","","8","","","M","100.69","","","","-35","","NA"
"-85.05","73.01","ARCTIC BAY","2400399","2019-04-22 04:00","2019","04","22","04:00","-27.8","","-30.6","","78","","","M","","","0","","","M","100.75","","","","","","NA"
"-85.05","73.01","ARCTIC BAY","2400399","2019-04-22 05:00","2019","04","22","05:00","-27.3","","-30.1","","78","","","M","","M","4","","","M","100.74","","","","-32","","NA"
"-85.05","73.01","ARCTIC BAY","2400399","2019-04-22 06:00","2019","04","22","06:00","-27.2","","-30.5","","74","","","M","8","","5","","","M","100.77","","","","-32","","NA"
"-85.05","73.01","ARCTIC BAY","2400399","2019-04-22 07:00","2019","04","22","07:00","-29.1","","-32.2","","75","","","M","","","0","","","M","100.75","","","","","","NA"
"-85.05","73.01","ARCTIC BAY","2400399","2019-04-22 08:00","2019","04","22","08:00","-30.5","","-34.1","","71","","","M","10","","8","","","M","100.79","","","","-39","","NA"
"-85.05","73.01","ARCTIC BAY","2400399","2019-04-22 09:00","2019","04","22","09:00","-28.3","","-32.0","","71","","","M","8","","5","","","M","100.82","","","","-34","","NA"
"-85.05","73.01","ARCTIC BAY","2400399","2019-04-22 10:00","2019","04","22","10:00","-26.8","","-30.7","","70","","","M","","","0","","","M","100.82","","","","","","NA"
"-85.05","73.01","ARCTIC BAY","2400399","2019-04-22 11:00","2019","04","22","11:00","-25.6","","-29.6","","70","","","M","","M","4","","","M","100.79","","","","-30","","NA"
"-85.05","73.01","ARCTIC BAY","2400399","2019-04-22 12:00","2019","04","22","12:00","-24.9","","-28.9","","70","","","M","","","0","","","M","100.79","","","","","","NA"
"-85.05","73.01","ARCTIC BAY","2400399","2019-04-22 13:00","2019","04","22","13:00","-23.4","","-28.1","","66","","","M","","","0","","","M","100.80","","","","","","NA"
"-85.05","73.01","ARCTIC BAY","2400399","2019-04-22 14:00","2019","04","22","14:00","-23.0","","-27.8","","66","","","M","28","","5","","","M","100.80","","","","-28","","NA"
"-85.05","73.01","ARCTIC BAY","2400399","2019-04-22 15:00","2019","04","22","15:00","-22.6","","-27.6","","65","","","M","33","","5","","","M","100.83","","","","-27","","NA"
"-85.05","73.01","ARCTIC BAY","2400399","2019-04-22 16:00","2019","04","22","16:00","-22.4","","-26.5","","70","","","M","","M","4","","","M","100.85","","","","-26","","NA"
"-85.05","73.01","ARCTIC BAY","2400399","2019-04-22 17:00","2019","04","22","17:00","-22.3","","-26.4","","70","","","M","","M","4","","","M","100.86","","","","-26","","NA"
"-85.05","73.01","ARCTIC BAY","2400399","2019-04-22 18:00","2019","04","22","18:00","-22.6","","-26.5","","71","","","M","","M","4","","","M","100.86","","","","-26","","NA"
"-85.05","73.01","ARCTIC BAY","2400399","2019-04-22 19:00","2019","04","22","19:00","-22.6","","-26.4","","72","","","M","","","0","","","M","100.87","","","","","","NA"
"-85.05","73.01","ARCTIC BAY","2400399","2019-04-22 20:00","2019","04","22","20:00","-24.6","","-28.6","","70","","","M","6","","5","","","M","100.90","","","","-29","","NA"
"-85.05","73.01","ARCTIC BAY","2400399","2019-04-22 21:00","2019","04","22","21:00","-25.0","","-29.5","","67","","","M","","","0","","","M","100.92","","","","","","NA"
"-85.05","73.01","ARCTIC BAY","2400399","2019-04-22 22:00","2019","04","22","22:00","-24.5","","-28.7","","69","","","M","","","0","","","M","100.92","","","","","","NA"
"-85.05","73.01","ARCTIC BAY","2400399","2019-04-22 23:00","2019","04","22","23:00","-25.4","","-29.7","","68","","","M","","","0","","","M","100.94","","","","","","NA"
"-85.05","73.01","ARCTIC BAY","2400399","2019-04-23 00:00","2019","04","23","00:00","-27.3","","-30.5","","75","","","M","28","","8","","","M","100.95","","","","-35","","NA"
"-85.05","73.01","ARCTIC BAY","2400399","2019-04-23 01:00","2019","04","23","01:00","-26.1","","-30.1","","70","","","M","33","","4","","","M","100.97","","","","-30","","NA"
"-85.05","73.01","ARCTIC BAY","2400399","2019-04-23 02:00","2019","04","23","02:00","-25.8","","-30.1","","68","","","M","12","","8","","","M","101.00","","","","-33","","NA"
"-85.05","73.01","ARCTIC BAY","2400399","2019-04-23 03:00","2019","04","23","03:00","-27.4","","-30.9","","73","","","M","","","0","","","M","101.04","","","","","","NA"
"-85.05","73.01","ARCTIC BAY","2400399","2019-04-23 04:00","2019","04","23","04:00","-29.6","","-33.2","","72","","","M","","","0","","","M","101.09","","","","","","NA"
"-85.05","73.01","ARCTIC BAY","2400399","2019-04-23 05:00","2019","04","23","05:00","-28.3","","-32.0","","71","","","M","","","0","","","M","101.09","","","","","","NA"
"-85.05","73.01","ARCTIC BAY","2400399","2019-04-23 06:00","2019","04","23","06:00","-28.2","","-32.3","","69","","","M","","","0","","","M","101.12","","","","","","NA"
"-85.05","73.01","ARCTIC BAY","2400399","2019-04-23 07:00","2019","04","23","07:00","-29.2","","-32.9","","71","","","M","28","","4","","","M","101.12","","","","-34","","NA"
"-85.05","73.01","ARCTIC BAY","2400399","2019-04-23 08:00","2019","04","23","08:00","-28.4","","-32.4","","69","","","M","","","0","","","M","101.16","","","","","","NA"
"-85.05","73.01","ARCTIC BAY","2400399","2019-04-23 09:00","2019","04","23","09:00","-28.6","","-32.5","","70","","","M","","","0","","","M","101.15","","","","","","NA"
"-85.05","73.01","ARCTIC BAY","2400399","2019-04-23 10:00","2019","04","23","10:00","-27.3","","-31.7","","67","","","M","","","0","","","M","101.18","","","","","","NA"
"-85.05","73.01","ARCTIC BAY","2400399","2019-04-23 11:00","2019","04","23","11:00","-26.3","","-30.7","","67","","","M","","M","5","","","M","101.18","","","","-31","","NA"
"-85.05","73.01","ARCTIC BAY","2400399","2019-04-23 12:00","2019","04","23","12:00","-25.1","","-29.9","","65","","","M","","M","4","","","M","101.18","","","","-29","","NA"
"-85.05","73.01","ARCTIC BAY","2400399","2019-04-23 13:00","2019","04","23","13:00","-24.7","","-29.5","","65","","","M","11","","8","","","M","101.19","","","","-32","","NA"
"-85.05","73.01","ARCTIC BAY","2400399","2019-04-23 14:00","2019","04","23","14:00","-24.0","","-28.8","","65","","","M","14","","5","","","M","101.21","","","","-29","","NA"
"-85.05","73.01","ARCTIC BAY","2400399","2019-04-23 15:00","2019","04","23","15:00","-23.9","","-28.5","","67","","","M","14","","4","","","M","101.23","","","","-28","","NA"
"-85.05","73.01","ARCTIC BAY","2400399","2019-04-23 16:00","2019","04","23","16:00","-23.8","","-28.3","","67","","","M","","","0","","","M","101.25","","","","","","NA"
"-85.05","73.01","ARCTIC BAY","2400399","2019-04-23 17:00","2019","04","23","17:00","-23.6","","-27.8","","69","","","M","27","","4","","","M","101.28","","","","-27","","NA"
"-85.05","73.01","ARCTIC BAY","2400399","2019-04-23 18:00","2019","04","23","18:00","-23.3","","-27.6","","69","","","M","19","","4","","","M","101.28","","","","-27","","NA"
"-85.05","73.01","ARCTIC BAY","2400399","2019-04-23 19:00","2019","04","23","19:00","-24.0","","-27.9","","71","","","M","","","0","","","M","101.27","","","","","","NA"
"-85.05","73.01","ARCTIC BAY","2400399","2019-04-23 20:00","2019","04","23","20:00","-24.4","","-28.2","","72","","","M","8","","4","","","M","101.26","","","","-28","","NA"
"-85.05","73.01","ARCTIC BAY","2400399","2019-04-23 21:00","2019","04","23","21:00","-24.3","","-27.7","","74","","","M","","","0","","","M","101.27","","","","","","NA"
"-85.05","73.01","ARCTIC BAY","2400399","2019-04-23 22:00","2019","04","23","22:00","-25.7","","-29.7","","70","","","M","6","","4","","","M","101.27","","","","-30","","NA"
"-85.05","73.01","ARCTIC BAY","2400399","2019-04-23 23:00","2019","04","23","23:00","-26.8","","-30.7","","70","","","M","8","","11","","","M","101.26","","","","-36","","NA"
"-85.05","73.01","ARCTIC BAY","2400399","2019-04-24 00:00","2019","04","24","00:00","-25.4","","-29.9","","67","","","M","7","","9","","","M","101.26","","","","-33","","NA"
"-85.05","73.01","ARCTIC BAY","2400399","2019-04-24 01:00","2019","04","24","01:00","-25.5","","-30.1","","66","","","M","13","","9","","","M","101.27","","","","-33","","NA"
"-85.05","73.01","ARCTIC BAY","2400399","2019-04-24 02:00","2019","04","24","02:00","-26.2","","-31.4","","62","","","M","","M","4","","","M","101.30","","","","-30","","NA"
"-85.05","73.01","ARCTIC BAY","2400399","2019-04-24 03:00","2019","04","24","03:00","-28.2","","-31.6","","73","","","M","29","","5","","","M","101.29","","","","-34","","NA"
"-85.05","73.01","ARCTIC BAY","2400399","2019-04-24 04:00","2019","04","24","04:00","-28.2","","-31.6","","73","","","M","26","","8","","","M","101.30","","","","-36","","NA"
"-85.05","73.01","ARCTIC BAY","2400399","2019-04-24 05:00","2019","04","24","05:00","-28.3","","-32.1","","71","","","M","30","","9","","","M","101.29","","","","-37","","NA"
"-85.05","73.01","ARCTIC BAY","2400399","2019-04-24 06:00","2019","04","24","06:00","-28.4","","-32.1","","72","","","M","10","","5","","","M","101.28","","","","-34","","NA"
"-85.05","73.01","ARCTIC BAY","2400399","2019-04-24 07:00","2019","04","24","07:00","-27.4","","-31.1","","71","","","M","35","","5","","","M","101.26","","","","-33","","NA"
"-85.05","73.01","ARCTIC BAY","2400399","2019-04-24 08:00","2019","04","24","08:00","-27.4","","-31.2","","71","","","M","","","0","","","M","101.26","","","","","","NA"
"-85.05","73.01","ARCTIC BAY","2400399","2019-04-24 09:00","2019","04","24","09:00","-26.3","","-30.2","","71","","","M","","M","4","","","M","101.25","","","","-30","","NA"
"-85.05","73.01","ARCTIC BAY","2400399","2019-04-24 10:00","2019","04","24","10:00","-25.9","","-29.9","","70","","","M","","","0","","","M","101.21","","","","","","NA"
"-85.05","73.01","ARCTIC BAY","2400399","2019-04-24 11:00","2019","04","24","11:00","-25.3","","-29.3","","70","","","M","","","0","","","M","101.19","","","","","","NA"
"-85.05","73.01","ARCTIC BAY","2400399","2019-04-24 12:00","2019","04","24","12:00","-25.1","","-28.9","","71","","","M","27","","8","","","M","101.17","","","","-32","","NA"
"-85.05","73.01","ARCTIC BAY","2400399","2019-04-24 13:00","2019","04","24","13:00","-24.5","","-28.5","","70","","","M","26","","4","","","M","101.15","","","","-28","","NA"
"-85.05","73.01","ARCTIC BAY","2400399","2019-04-24 14:00","2019","04","24","14:00","-24.3","","-28.3","","70","","","M","","","0","","","M","101.14","","","","","","NA"
"-85.05","73.01","ARCTIC BAY","2400399","2019-04-24 15:00","2019","04","24","15:00","-24.1","","-28.0","","71","","","M","25","","5","","","M","101.15","","","","-29","","NA"
"-85.05","73.01","ARCTIC BAY","2400399","2019-04-24 16:00","2019","04","24","16:00","-23.9","","-27.5","","73","","","M","26","","8","","","M","101.14","","","","-31","","NA"
"-85.05","73.01","ARCTIC BAY","2400399","2019-04-24 17:00","2019","04","24","17:00","-23.7","","-27.5","","71","","","M","26","","5","","","M","101.15","","","","-28","","NA"
"-85.05","73.01","ARCTIC BAY","2400399","2019-04-24 18:00","2019","04","24","18:00","-24.8","","-28.0","","75","","","M","26","","11","","","M","101.14","","","","-33","","NA"
"-85.05","73.01","ARCTIC BAY","2400399","2019-04-24 19:00","2019","04","24","19:00","-25.2","","-28.4","","75","","","M","28","","5","","","M","101.16","","","","-30","","NA"
"-85.05","73.01","ARCTIC BAY","2400399","2019-04-24 20:00","2019","04","24","20:00","-25.9","","-29.0","","76","","","M","9","","4","","","M","101.15","","","","-30","","NA"
"-85.05","73.01","ARCTIC BAY","2400399","2019-04-24 21:00","2019","04","24","21:00","-26.5","","-29.4","","77","","","M","11","","4","","","M","101.15","","","","-31","","NA"
"-85.05","73.01","ARCTIC BAY","2400399","2019-04-24 22:00","2019","04","24","22:00","-26.6","","-29.8","","75","","","M","","","0","","","M","101.17","","","","","","NA"
"-85.05","73.01","ARCTIC BAY","2400399","2019-04-24 23:00","2019","04","24","23:00","-26.2","","-29.3","","76","","","M","","","0","","","M","101.17","","","","","","NA"
"-85.05","73.01","ARCTIC BAY","2400399","2019-04-25 00:00","2019","04","25","00:00","-28.6","","-31.5","","77","","","M","10","","5","","","M","101.18","","","","-34","","NA"
"-85.05","73.01","ARCTIC BAY","2400399","2019-04-25 01:00","2019","04","25","01:00","-26.9","","-30.5","","72","","","M","","","0","","","M","101.19","","","","","","NA"
"-85.05","73.01","ARCTIC BAY","2400399","2019-04-25 02:00","2019","04","25","02:00","-28.0","","-31.5","","73","","","M","","M","4","","","M","101.20","","","","-32","","NA"
"-85.05","73.01","ARCTIC BAY","2400399","2019-04-25 03:00","2019","04","25","03:00","-27.1","","-31.0","","70","","","M","","M","4","","","M","101.20","","","","-31","","NA"
"-85.05","73.01","ARCTIC BAY","2400399","2019-04-25 04:00","2019","04","25","04:00","-27.5","","-31.3","","71","","","M","","","0","","","M","101.19","","","","","","NA"
"-85.05","73.01","ARCTIC BAY","2400399","2019-04-25 05:00","2019","04","25","05:00","-27.6","","-31.4","","71","","","M","","M","4","","","M","101.17","","","","-32","","NA"
"-85.05","73.01","ARCTIC BAY","2400399","2019-04-25 06:00","2019","04","25","06:00","-28.0","","-31.8","","71","","","M","30","","5","","","M","101.17","","","","-33","","NA"
"-85.05","73.01","ARCTIC BAY","2400399","2019-04-25 07:00","2019","04","25","07:00","-27.9","","-32.3","","67","","","M","30","","5","","","M","101.18","","","","-33","","NA"
"-85.05","73.01","ARCTIC BAY","2400399","2019-04-25 08:00","2019","04","25","08:00","-25.9","","-30.3","","67","","","M","","","0","","","M","101.16","","","","","","NA"
"-85.05","73.01","ARCTIC BAY","2400399","2019-04-25 09:00","2019","04","25","09:00","-26.2","","-30.7","","66","","","M","","","0","","","M","101.13","","","","","","NA"
"-85.05","73.01","ARCTIC BAY","2400399","2019-04-25 10:00","2019","04","25","10:00","-25.8","","-30.2","","67","","","M","","","0","","","M","101.07","","","","","","NA"
"-85.05","73.01","ARCTIC BAY","2400399","2019-04-25 11:00","2019","04","25","11:00","-24.5","","-29.5","","64","","","M","32","","5","","","M","101.02","","","","-29","","NA"
"-85.05","73.01","ARCTIC BAY","2400399","2019-04-25 12:00","2019","04","25","12:00","-23.7","","-28.7","","64","","","M","32","","9","","","M","100.97","","","","-31","","NA"
"-85.05","73.01","ARCTIC BAY","2400399","2019-04-25 13:00","2019","04","25","13:00","-23.0","","-28.1","","64","","","M","","M","4","","","M","100.92","","","","-27","","NA"
"-85.05","73.01","ARCTIC BAY","2400399","2019-04-25 14:00","2019","04","25","14:00","-22.8","","-27.6","","66","","","M","","","0","","","M","100.87","","","","","","NA"
"-85.05","73.01","ARCTIC BAY","2400399","2019-04-25 15:00","2019","04","25","15:00","-22.8","","-27.7","","65","","","M","","","0","","","M","100.84","","","","","","NA"
"-85.05","73.01","ARCTIC BAY","2400399","2019-04-25 16:00","2019","04","25","16:00","-22.6","","-27.6","","64","","","M","","","0","","","M","100.81","","","","","","NA"
"-85.05","73.01","ARCTIC BAY","2400399","2019-04-25 17:00","2019","04","25","17:00","-23.0","","-27.2","","69","","","M","7","","4","","","M","100.77","","","","-27","","NA"
"-85.05","73.01","ARCTIC BAY","2400399","2019-04-25 18:00","2019","04","25","18:00","-23.3","","-27.5","","69","","","M","","","0","","","M","100.76","","","","","","NA"
"-85.05","73.01","ARCTIC BAY","2400399","2019-04-25 19:00","2019","04","25","19:00","-23.7","","-27.7","","70","","","M","","M","4","","","M","100.73","","","","-28","","NA"
"-85.05","73.01","ARCTIC BAY","2400399","2019-04-25 20:00","2019","04","25","20:00","-23.7","","-27.7","","70","","","M","","","0","","","M","100.71","","","","","","NA"
"-85.05","73.01","ARCTIC BAY","2400399","2019-04-25 21:00","2019","04","25","21:00","-23.3","","-27.5","","69","","","M","","","0","","","M","100.70","","","","","","NA"
"-85.05","73.01","ARCTIC BAY","2400399","2019-04-25 22:00","2019","04","25","22:00","-23.3","","-27.4","","70","","","M","","","0","","","M","100.66","","","","","","NA"
"-85.05","73.01","ARCTIC BAY","2400399","2019-04-25 23:00","2019","04","25","23:00","-22.9","","-27.6","","66","","","M","35","","5","","","M","100.65","","","","-28","","NA"
"-85.05","73.01","ARCTIC BAY","2400399","2019-04-26 00:00","2019","04","26","00:00","-21.7","","-27.2","","62","","","M","","M","4","","","M","100.60","","","","-25","","NA"
"-85.05","73.01","ARCTIC BAY","2400399","2019-04-26 01:00","2019","04","26","01:00","-22.4","","-28.6","","58","","","M","","M","4","","","M","100.55","","","","-26","","NA"
"-85.05","73.01","ARCTIC BAY","2400399","2019-04-26 02:00","2019","04","26","02:00","-23.7","","-29.0","","63","","","M","","","0","","","M","100.51","","","","","","NA"
"-85.05","73.01","ARCTIC BAY","2400399","2019-04-26 03:00","2019","04","26","03:00","-23.7","","-28.6","","65","","","M","","M","5","","","M","100.51","","","","-28","","NA"
"-85.05","73.01","ARCTIC BAY","2400399","2019-04-26 04:00","2019","04","26","04:00","-21.0","","-26.0","","65","","","M","","","0","","","M","100.45","","","","","","NA"
"-85.05","73.01","ARCTIC BAY","2400399","2019-04-26 05:00","2019","04","26","05:00","-23.5","","-28.3","","66","","","M","","M","4","","","M","100.42","","","","-27","","NA"
"-85.05","73.01","ARCTIC BAY","2400399","2019-04-26 06:00","2019","04","26","06:00","-21.0","","-24.7","","73","","","M","4","","5","","","M","100.37","","","","-25","","NA"
"-85.05","73.01","ARCTIC BAY","2400399","2019-04-26 07:00","2019","04","26","07:00","-21.4","","-25.7","","69","","","M","14","","5","","","M","100.35","","","","-26","","NA"
"-85.05","73.01","ARCTIC BAY","2400399","2019-04-26 08:00","2019","04","26","08:00","-22.6","","-25.5","","77","","","M","6","","11","","","M","100.34","","","","-31","","NA"
"-85.05","73.01","ARCTIC BAY","2400399","2019-04-26 09:00","2019","04","26","09:00","-19.7","","-23.7","","71","","","M","13","","5","","","M","100.34","","","","-24","","NA"
"-85.05","73.01","ARCTIC BAY","2400399","2019-04-26 10:00","2019","04","26","10:00","-18.0","","-21.8","","73","","","M","","","0","","","M","100.33","","","","","","NA"
"-85.05","73.01","ARCTIC BAY","2400399","2019-04-26 11:00","2019","04","26","11:00","-17.1","","-21.0","","72","","","M","","","0","","","M","100.34","","","","","","NA"
"-85.05","73.01","ARCTIC BAY","2400399","2019-04-26 12:00","2019","04","26","12:00","-14.2","","-19.5","","65","","","M","17","","8","","","M","100.34","","","","-19","","NA"
"-85.05","73.01","ARCTIC BAY","2400399","2019-04-26 13:00","2019","04","26","13:00","-13.0","","-18.6","","63","","","M","","M","4","","","M","100.36","","","","-16","","NA"
"-85.05","73.01","ARCTIC BAY","2400399","2019-04-26 14:00","2019","04","26","14:00","-12.2","","-18.3","","61","","","M","12","","8","","","M","100.38","","","","-17","","NA"
"-85.05","73.01","ARCTIC BAY","2400399","2019-04-26 15:00","2019","04","26","15:00","-12.2","","-16.9","","69","","","M","11","","15","","","M","100.42","","","","-19","","NA"
"-85.05","73.01","ARCTIC BAY","2400399","2019-04-26 16:00","2019","04","26","16:00","-11.9","","-16.2","","71","","","M","11","","13","","","M","100.46","","","","-19","","NA"
"-85.05","73.01","ARCTIC BAY","2400399","2019-04-26 17:00","2019","04","26","17:00","-12.4","","-15.9","","75","","","M","12","","18","","","M","100.51","","","","-20","","NA"
"-85.05","73.01","ARCTIC BAY","2400399","2019-04-26 18:00","2019","04","26","18:00","-12.7","","-16.6","","73","","","M","12","","21","","","M","100.56","","","","-21","","NA"
"-85.05","73.01","ARCTIC BAY","2400399","2019-04-26 19:00","2019","04","26","19:00","-13.3","","-17.0","","74","","","M","11","","21","","","M","100.61","","","","-22","","NA"
"-85.05","73.01","ARCTIC BAY","2400399","2019-04-26 20:00","2019","04","26","20:00","-14.1","","-16.8","","80","","","M","21","","8","","","M","100.68","","","","-19","","NA"
"-85.05","73.01","ARCTIC BAY","2400399","2019-04-26 21:00","2019","04","26","21:00","-14.9","","-16.9","","85","","","M","22","","4","","","M","100.74","","","","-18","","NA"
"-85.05","73.01","ARCTIC BAY","2400399","2019-04-26 22:00","2019","04","26","22:00","-15.0","","-17.7","","80","","","M","10","","11","","","M","100.78","","","","-22","","NA"
"-85.05","73.01","ARCTIC BAY","2400399","2019-04-26 23:00","2019","04","26","23:00","-15.6","","-18.4","","79","","","M","14","","11","","","M","100.88","","","","-22","","NA"
"-85.05","73.01","ARCTIC BAY","2400399","2019-04-27 00:00","2019","04","27","00:00","-17.3","","-21.7","","69","","","M","12","","24","","","M","101.02","","","","-28","","NA"
"-85.05","73.01","ARCTIC BAY","2400399","2019-04-27 01:00","2019","04","27","01:00","-18.4","","-23.7","","64","","","M","12","","18","","","M","101.18","","","","-28","","NA"
"-85.05","73.01","ARCTIC BAY","2400399","2019-04-27 02:00","2019","04","27","02:00","-19.0","","-23.8","","67","","","M","12","","30","","","M","101.35","","","","-31","","NA"
"-85.05","73.01","ARCTIC BAY","2400399","2019-04-27 03:00","2019","04","27","03:00","-19.4","","-24.5","","64","","","M","12","","32","","","M","101.46","","","","-32","","NA"
"-85.05","73.01","ARCTIC BAY","2400399","2019-04-27 04:00","2019","04","27","04:00","-20.2","","-25.5","","63","","","M","11","","32","","","M","101.60","","","","-33","","NA"
"-85.05","73.01","ARCTIC BAY","2400399","2019-04-27 05:00","2019","04","27","05:00","-20.3","","-26.3","","60","","","M","13","","30","","","M","101.73","","","","-33","","NA"
"-85.05","73.01","ARCTIC BAY","2400399","2019-04-27 06:00","2019","04","27","06:00","-20.7","","-26.0","","63","","","M","12","","30","","","M","101.81","","","","-33","","NA"
"-85.05","73.01","ARCTIC BAY","2400399","2019-04-27 07:00","2019","04","27","07:00","-20.3","","-26.0","","61","","","M","13","","26","","","M","101.95","","","","-32","","NA"
"-85.05","73.01","ARCTIC BAY","2400399","2019-04-27 08:00","2019","04","27","08:00","-20.9","","-26.4","","62","","","M","13","","24","","","M","102.05","","","","-33","","NA"
"-85.05","73.01","ARCTIC BAY","2400399","2019-04-27 09:00","2019","04","27","09:00","-20.2","","-26.4","","59","","","M","13","","26","","","M","102.14","","","","-32","","NA"
"-85.05","73.01","ARCTIC BAY","2400399","2019-04-27 10:00","2019","04","27","10:00","-19.2","","-24.9","","61","","","M","13","","24","","","M","102.23","","","","-30","","NA"
"-85.05","73.01","ARCTIC BAY","2400399","2019-04-27 11:00","2019","04","27","11:00","-19.1","","-25.3","","59","","","M","13","","32","","","M","102.30","","","","-32","","NA"
"-85.05","73.01","ARCTIC BAY","2400399","2019-04-27 12:00","2019","04","27","12:00","-19.0","","-24.6","","62","","","M","11","","30","","","M","102.36","","","","-31","","NA"
"-85.05","73.01","ARCTIC BAY","2400399","2019-04-27 13:00","2019","04","27","13:00","-19.0","","-23.4","","69","","","M","12","","32","","","M","102.42","","","","-32","","NA"
"-85.05","73.01","ARCTIC BAY","2400399","2019-04-27 14:00","2019","04","27","14:00","-18.8","","-23.1","","69","","","M","12","","26","","","M","102.46","","","","-30","","NA"
"-85.05","73.01","ARCTIC BAY","2400399","2019-04-27 15:00","2019","04","27","15:00","-17.8","","-22.8","","66","","","M","12","","21","","","M","102.48","","","","-28","","NA"
"-85.05","73.01","ARCTIC BAY","2400399","2019-04-27 16:00","2019","04","27","16:00","-17.5","","-23.0","","63","","","M","11","","15","","","M","102.54","","","","-26","","NA"
"-85.05","73.01","ARCTIC BAY","2400399","2019-04-27 17:00","2019","04","27","17:00","-17.6","","-22.9","","64","","","M","11","","8","","","M","102.57","","","","-23","","NA"
"-85.05","73.01","ARCTIC BAY","2400399","2019-04-27 18:00","2019","04","27","18:00","-19.4","","-22.9","","74","","","M","31","","18","","","M","102.58","","","","-29","","NA"
"-85.05","73.01","ARCTIC BAY","2400399","2019-04-27 19:00","2019","04","27","19:00","-20.0","","-23.8","","72","","","M","29","","17","","","M","102.56","","","","-30","","NA"
"-85.05","73.01","ARCTIC BAY","2400399","2019-04-27 20:00","2019","04","27","20:00","-20.6","","-24.4","","72","","","M","31","","15","","","M","102.56","","","","-30","","NA"
"-85.05","73.01","ARCTIC BAY","2400399","2019-04-27 21:00","2019","04","27","21:00","-21.2","","-25.0","","72","","","M","31","","21","","","M","102.53","","","","-32","","NA"
"-85.05","73.01","ARCTIC BAY","2400399","2019-04-27 22:00","2019","04","27","22:00","-21.1","","-25.6","","68","","","M","32","","15","","","M","102.51","","","","-30","","NA"
"-85.05","73.01","ARCTIC BAY","2400399","2019-04-27 23:00","2019","04","27","23:00","-22.1","","-25.8","","72","","","M","","","0","","","M","102.45","","","","","","NA"
"-85.05","73.01","ARCTIC BAY","2400399","2019-04-28 00:00","2019","04","28","00:00","-21.5","","-25.6","","70","","","M","","","0","","","M","102.41","","","","","","NA"
"-85.05","73.01","ARCTIC BAY","2400399","2019-04-28 01:00","2019","04","28","01:00","-22.2","","-26.3","","70","","","M","8","","5","","","M","102.36","","","","-27","","NA"
"-85.05","73.01","ARCTIC BAY","2400399","2019-04-28 02:00","2019","04","28","02:00","-21.3","","-25.9","","67","","","M","","","0","","","M","102.33","","","","","","NA"
"-85.05","73.01","ARCTIC BAY","2400399","2019-04-28 03:00","2019","04","28","03:00","-20.9","","-25.7","","66","","","M","","","0","","","M","102.27","","","","","","NA"
"-85.05","73.01","ARCTIC BAY","2400399","2019-04-28 04:00","2019","04","28","04:00","-21.3","","-25.9","","67","","","M","27","","4","","","M","102.21","","","","-25","","NA"
"-85.05","73.01","ARCTIC BAY","2400399","2019-04-28 05:00","2019","04","28","05:00","-20.6","","-25.9","","63","","","M","","","0","","","M","102.18","","","","","","NA"
"-85.05","73.01","ARCTIC BAY","2400399","2019-04-28 06:00","2019","04","28","06:00","-20.9","","-26.4","","62","","","M","","","0","","","M","102.15","","","","","","NA"
"-85.05","73.01","ARCTIC BAY","2400399","2019-04-28 07:00","2019","04","28","07:00","-20.6","","-25.8","","64","","","M","","M","4","","","M","102.11","","","","-24","","NA"
"-85.05","73.01","ARCTIC BAY","2400399","2019-04-28 08:00","2019","04","28","08:00","-18.5","","-24.9","","58","","","M","","","0","","","M","102.10","","","","","","NA"
"-85.05","73.01","ARCTIC BAY","2400399","2019-04-28 09:00","2019","04","28","09:00","-18.2","","-24.2","","60","","","M","","","0","","","M","102.07","","","","","","NA"
"-85.05","73.01","ARCTIC BAY","2400399","2019-04-28 10:00","2019","04","28","10:00","-18.4","","-22.5","","70","","","M","","M","4","","","M","102.04","","","","-22","","NA"
"-85.05","73.01","ARCTIC BAY","2400399","2019-04-28 11:00","2019","04","28","11:00","-16.8","","-21.2","","69","","","M","","M","4","","","M","102.00","","","","-20","","NA"
"-85.05","73.01","ARCTIC BAY","2400399","2019-04-28 12:00","2019","04","28","12:00","-15.5","","-19.9","","69","","","M","","M","4","","","M","101.99","","","","-18","","NA"
"-85.05","73.01","ARCTIC BAY","2400399","2019-04-28 13:00","2019","04","28","13:00","-14.8","","-18.7","","73","","","M","","","0","","","M","101.94","","","","","","NA"
"-85.05","73.01","ARCTIC BAY","2400399","2019-04-28 14:00","2019","04","28","14:00","-14.0","","-18.2","","71","","","M","","M","4","","","M","101.95","","","","-17","","NA"
"-85.05","73.01","ARCTIC BAY","2400399","2019-04-28 15:00","2019","04","28","15:00","-11.5","","-16.9","","65","","","M","","M","5","","","M","101.93","","","","-15","","NA"
"-85.05","73.01","ARCTIC BAY","2400399","2019-04-28 16:00","2019","04","28","16:00","-10.7","","-17.1","","60","","","M","30","","11","","","M","101.91","","","","-16","","NA"
"-85.05","73.01","ARCTIC BAY","2400399","2019-04-28 17:00","2019","04","28","17:00","-11.7","","-16.3","","69","","","M","","M","4","","","M","101.91","","","","-14","","NA"
"-85.05","73.01","ARCTIC BAY","2400399","2019-04-28 18:00","2019","04","28","18:00","-10.7","","-15.5","","68","","","M","30","","8","","","M","101.90","","","","-15","","NA"
"-85.05","73.01","ARCTIC BAY","2400399","2019-04-28 19:00","2019","04","28","19:00","-10.5","","-13.9","","77","","","M","","M","4","","","M","101.89","","","","-13","","NA"
"-85.05","73.01","ARCTIC BAY","2400399","2019-04-28 20:00","2019","04","28","20:00","-10.5","","-12.8","","83","","","M","","M","8","","","M","101.88","","","","-15","","NA"
"-85.05","73.01","ARCTIC BAY","2400399","2019-04-28 21:00","2019","04","28","21:00","-10.1","","-11.9","","87","","","M","","","0","","","M","101.82","","","","","","NA"
"-85.05","73.01","ARCTIC BAY","2400399","2019-04-28 22:00","2019","04","28","22:00","-10.5","","-12.0","","89","","","M","","","0","","","M","101.79","","","","","","NA"
"-85.05","73.01","ARCTIC BAY","2400399","2019-04-28 23:00","2019","04","28","23:00","-10.0","","-11.9","","86","","","M","33","","4","","","M","101.74","","","","-12","","NA"
"-85.05","73.01","ARCTIC BAY","2400399","2019-04-29 00:00","2019","04","29","00:00","-9.4","","-10.9","","89","","","M","10","","4","","","M","101.70","","","","-12","","NA"
"-85.05","73.01","ARCTIC BAY","2400399","2019-04-29 01:00","2019","04","29","01:00","-10.9","","-11.9","","93","","","M","10","","5","","","M","101.71","","","","-14","","NA"
"-85.05","73.01","ARCTIC BAY","2400399","2019-04-29 02:00","2019","04","29","02:00","-10.0","","-11.2","","91","","","M","","","0","","","M","101.69","","","","","","NA"
"-85.05","73.01","ARCTIC BAY","2400399","2019-04-29 03:00","2019","04","29","03:00","-10.7","","-12.0","","90","","","M","36","","8","","","M","101.65","","","","-15","","NA"
"-85.05","73.01","ARCTIC BAY","2400399","2019-04-29 04:00","2019","04","29","04:00","-10.2","","-11.6","","90","","","M","9","","5","","","M","101.67","","","","-13","","NA"
"-85.05","73.01","ARCTIC BAY","2400399","2019-04-29 05:00","2019","04","29","05:00","-10.0","","-12.0","","85","","","M","","M","4","","","M","101.66","","","","-12","","NA"
"-85.05","73.01","ARCTIC BAY","2400399","2019-04-29 06:00","2019","04","29","06:00","-9.2","","-11.6","","83","","","M","22","","5","","","M","101.65","","","","-12","","NA"
"-85.05","73.01","ARCTIC BAY","2400399","2019-04-29 07:00","2019","04","29","07:00","-6.8","","-10.2","","77","","","M","","M","5","","","M","101.62","","","","-9","","NA"
"-85.05","73.01","ARCTIC BAY","2400399","2019-04-29 08:00","2019","04","29","08:00","-3.8","","-7.7","","75","","","M","6","","22","","","M","101.59","","","","-10","","NA"
"-85.05","73.01","ARCTIC BAY","2400399","2019-04-29 09:00","2019","04","29","09:00","-4.7","","-8.2","","77","","","M","","M","4","","","M","101.61","","","","-6","","NA"
"-85.05","73.01","ARCTIC BAY","2400399","2019-04-29 10:00","2019","04","29","10:00","-3.3","","-7.8","","71","","","M","10","","21","","","M","101.60","","","","-10","","NA"
"-85.05","73.01","ARCTIC BAY","2400399","2019-04-29 11:00","2019","04","29","11:00","-3.6","","-7.5","","74","","","M","11","","17","","","M","101.60","","","","-9","","NA"
"-85.05","73.01","ARCTIC BAY","2400399","2019-04-29 12:00","2019","04","29","12:00","-3.6","","-7.2","","76","","","M","10","","13","","","M","101.62","","","","-8","","NA"
"-85.05","73.01","ARCTIC BAY","2400399","2019-04-29 13:00","2019","04","29","13:00","-2.4","","-6.9","","71","","","M","10","","13","","","M","101.61","","","","-7","","NA"
"-85.05","73.01","ARCTIC BAY","2400399","2019-04-29 14:00","2019","04","29","14:00","-2.6","","-6.4","","75","","","M","15","","15","","","M","101.65","","","","-8","","NA"
"-85.05","73.01","ARCTIC BAY","2400399","2019-04-29 15:00","2019","04","29","15:00","-2.1","","-5.8","","76","","","M","11","","15","","","M","101.71","","","","-7","","NA"
"-85.05","73.01","ARCTIC BAY","2400399","2019-04-29 16:00","2019","04","29","16:00","-1.6","","-5.3","","76","","","M","10","","28","","","M","101.67","","","","-8","","NA"
"-85.05","73.01","ARCTIC BAY","2400399","2019-04-29 17:00","2019","04","29","17:00","-1.0","","-5.2","","73","","","M","10","","32","","","M","101.72","","","","-8","","NA"
"-85.05","73.01","ARCTIC BAY","2400399","2019-04-29 18:00","2019","04","29","18:00","-0.8","","-5.0","","73","","","M","9","","26","","","M","101.75","","","","-7","","NA"
"-85.05","73.01","ARCTIC BAY","2400399","2019-04-29 19:00","2019","04","29","19:00","-0.8","","-4.9","","74","","","M","7","","17","","","M","101.79","","","","-6","","NA"
"-85.05","73.01","ARCTIC BAY","2400399","2019-04-29 20:00","2019","04","29","20:00","-0.7","","-4.3","","77","","","M","6","","18","","","M","101.81","","","","-6","","NA"
"-85.05","73.01","ARCTIC BAY","2400399","2019-04-29 21:00","2019","04","29","21:00","-1.1","","-4.6","","77","","","M","5","","18","","","M","101.82","","","","-6","","NA"
"-85.05","73.01","ARCTIC BAY","2400399","2019-04-29 22:00","2019","04","29","22:00","-2.2","","-4.9","","82","","","M","30","","13","","","M","101.85","","","","-7","","NA"
"-85.05","73.01","ARCTIC BAY","2400399","2019-04-29 23:00","2019","04","29","23:00","-2.5","","-4.7","","85","","","M","","M","4","","","M","101.89","","","","-4","","NA"
"-85.05","73.01","ARCTIC BAY","2400399","2019-04-30 00:00","2019","04","30","00:00","-2.4","","-5.1","","82","","","M","32","","5","","","M","101.92","","","","-4","","NA"
"-85.05","73.01","ARCTIC BAY","2400399","2019-04-30 01:00","2019","04","30","01:00","-1.8","","-4.7","","81","","","M","31","","5","","","M","101.93","","","","-4","","NA"
"-85.05","73.01","ARCTIC BAY","2400399","2019-04-30 02:00","2019","04","30","02:00","-3.0","","-5.2","","85","","","M","31","","5","","","M","101.96","","","","-5","","NA"
"-85.05","73.01","ARCTIC BAY","2400399","2019-04-30 03:00","2019","04","30","03:00","-3.7","","-5.3","","89","","","M","","M","4","","","M","101.99","","","","-5","","NA"
"-85.05","73.01","ARCTIC BAY","2400399","2019-04-30 04:00","2019","04","30","04:00","-3.5","","-4.9","","90","","","M","","","0","","","M","102.02","","","","","","NA"
"-85.05","73.01","ARCTIC BAY","2400399","2019-04-30 05:00","2019","04","30","05:00","-3.1","","-4.8","","88","","","M","34","","5","","","M","102.02","","","","-5","","NA"
"-85.05","73.01","ARCTIC BAY","2400399","2019-04-30 06:00","2019","04","30","06:00","-4.2","","-5.0","","94","","","M","","M","4","","","M","102.09","","","","-6","","NA"
"-85.05","73.01","ARCTIC BAY","2400399","2019-04-30 07:00","2019","04","30","07:00","-4.0","","-4.6","","96","","","M","","","0","","","M","102.13","","","","","","NA"
"-85.05","73.01","ARCTIC BAY","2400399","2019-04-30 08:00","2019","04","30","08:00","-4.0","","-4.6","","96","","","M","","","0","","","M","102.17","","","","","","NA"
"-85.05","73.01","ARCTIC BAY","2400399","2019-04-30 09:00","2019","04","30","09:00","-3.5","","-4.3","","94","","","M","","","0","","","M","102.18","","","","","","NA"
"-85.05","73.01","ARCTIC BAY","2400399","2019-04-30 10:00","2019","04","30","10:00","-3.9","","-4.9","","93","","","M","29","","5","","","M","102.19","","","","-6","","NA"
"-85.05","73.01","ARCTIC BAY","2400399","2019-04-30 11:00","2019","04","30","11:00","-4.1","","-5.1","","93","","","M","28","","8","","","M","102.23","","","","-8","","NA"
"-85.05","73.01","ARCTIC BAY","2400399","2019-04-30 12:00","2019","04","30","12:00","-3.9","","-4.9","","93","","","M","26","","8","","","M","102.28","","","","-7","","NA"
"-85.05","73.01","ARCTIC BAY","2400399","2019-04-30 13:00","2019","04","30","13:00","-4.6","","-5.4","","94","","","M","27","","11","","","M","102.35","","","","-9","","NA"
"-85.05","73.01","ARCTIC BAY","2400399","2019-04-30 14:00","2019","04","30","14:00","-4.4","","-5.4","","93","","","M","27","","21","","","M","102.35","","","","-11","","NA"
"-85.05","73.01","ARCTIC BAY","2400399","2019-04-30 15:00","2019","04","30","15:00","-4.3","","-5.4","","92","","","M","27","","15","","","M","102.41","","","","-10","","NA"
"-85.05","73.01","ARCTIC BAY","2400399","2019-04-30 16:00","2019","04","30","16:00","-4.4","","-5.7","","91","","","M","27","","15","","","M","102.42","","","","-10","","NA"
"-85.05","73.01","ARCTIC BAY","2400399","2019-04-30 17:00","2019","04","30","17:00","-4.8","","-6.5","","88","","","M","26","","22","","","M","102.46","","","","-12","","NA"
"-85.05","73.01","ARCTIC BAY","2400399","2019-04-30 18:00","2019","04","30","18:00","-4.6","","-6.4","","87","","","M","32","","17","","","M","102.50","","","","-10","","NA"
"-85.05","73.01","ARCTIC BAY","2400399","2019-04-30 19:00","2019","04","30","19:00","-5.4","","-6.1","","95","","","M","27","","13","","","M","102.48","","","","-11","","NA"
"-85.05","73.01","ARCTIC BAY","2400399","2019-04-30 20:00","2019","04","30","20:00","-5.9","","-6.6","","95","","","M","31","","11","","","M","102.50","","","","-11","","NA"
"-85.05","73.01","ARCTIC BAY","2400399","2019-04-30 21:00","2019","04","30","21:00","-6.3","","-6.8","","96","","","M","26","","15","","","M","102.53","","","","-12","","NA"
"-85.05","73.01","ARCTIC BAY","2400399","2019-04-30 22:00","2019","04","30","22:00","-6.5","","-7.0","","96","","","M","26","","15","","","M","102.50","","","","-12","","NA"
"-85.05","73.01","ARCTIC BAY","2400399","2019-04-30 23:00","2019","04","30","23:00","-6.9","","-7.3","","97","","","M","24","","18","","","M","102.50","","","","-14","","NA"
