"Longitude (x)","Latitude (y)","Station Name","Climate ID","Date/Time (LST)","Year","Month","Day","Time (LST)","Temp (°C)","Temp Flag","Dew Point Temp (°C)","Dew Point Temp Flag","Rel Hum (%)","Rel Hum Flag","Precip. Amount (mm)","Precip. Amount Flag","Wind Dir (10s deg)","Wind Dir Flag","Wind Spd (km/h)","Wind Spd Flag","Visibility (km)","Visibility Flag","Stn Press (kPa)","Stn Press Flag","Hmdx","Hmdx Flag","Wind Chill","Wind Chill Flag","Weather"
"-111.93","60.03","FORT SMITH CLIMATE","2202202","2018-04-01 00:00","2018","04","01","00:00","-14.9","","-20.8","","61","","0.0","","24","","5","","","","99.73","","","","-18","","NA"
"-111.93","60.03","FORT SMITH CLIMATE","2202202","2018-04-01 01:00","2018","04","01","01:00","-14.0","","-19.9","","61","","0.0","","29","","5","","","","99.72","","","","-17","","NA"
"-111.93","60.03","FORT SMITH CLIMATE","2202202","2018-04-01 02:00","2018","04","01","02:00","-15.0","","-20.4","","63","","0.0","","27","","6","","","","99.72","","","","-19","","NA"
"-111.93","60.03","FORT SMITH CLIMATE","2202202","2018-04-01 03:00","2018","04","01","03:00","-17.4","","-21.7","","69","","0.0","","0","","1","","","","99.70","","","","-18","","NA"
"-111.93","60.03","FORT SMITH CLIMATE","2202202","2018-04-01 04:00","2018","04","01","04:00","-16.6","","-21.2","","68","","0.0","","28","","3","","","","99.68","","","","-19","","NA"
"-111.93","60.03","FORT SMITH CLIMATE","2202202","2018-04-01 05:00","2018","04","01","05:00","-16.9","","-21.5","","67","","0.3","","31","","4","","","","99.69","","","","-20","","NA"
"-111.93","60.03","FORT SMITH CLIMATE","2202202","2018-04-01 06:00","2018","04","01","06:00","-17.4","","-21.8","","69","","0.3","","35","","4","","","","99.69","","","","-21","","NA"
"-111.93","60.03","FORT SMITH CLIMATE","2202202","2018-04-01 07:00","2018","04","01","07:00","-17.2","","-22.2","","65","","0.0","","35","","3","","","","99.67","","","","-20","","NA"
"-111.93","60.03","FORT SMITH CLIMATE","2202202","2018-04-01 08:00","2018","04","01","08:00","-16.1","","-22.6","","57","","0.3","","5","","4","","","","99.66","","","","-19","","NA"
"-111.93","60.03","FORT SMITH CLIMATE","2202202","2018-04-01 09:00","2018","04","01","09:00","-15.4","","-23.3","","51","","0.5","","0","","1","","","","99.64","","","","-16","","NA"
"-111.93","60.03","FORT SMITH CLIMATE","2202202","2018-04-01 10:00","2018","04","01","10:00","-12.6","","-23.4","","40","","0.0","","3","","3","","","","99.64","","","","-15","","NA"
"-111.93","60.03","FORT SMITH CLIMATE","2202202","2018-04-01 11:00","2018","04","01","11:00","-12.7","","-22.1","","45","","0.0","","30","","6","","","","99.62","","","","-17","","NA"
"-111.93","60.03","FORT SMITH CLIMATE","2202202","2018-04-01 12:00","2018","04","01","12:00","-11.0","","-22.4","","39","","0.0","","3","","4","","","","99.59","","","","-13","","NA"
"-111.93","60.03","FORT SMITH CLIMATE","2202202","2018-04-01 13:00","2018","04","01","13:00","-9.8","","-22.0","","36","","0.0","","12","","3","","","","99.56","","","","-12","","NA"
"-111.93","60.03","FORT SMITH CLIMATE","2202202","2018-04-01 14:00","2018","04","01","14:00","-9.4","","-20.9","","39","","0.0","","25","","4","","","","99.53","","","","-12","","NA"
"-111.93","60.03","FORT SMITH CLIMATE","2202202","2018-04-01 15:00","2018","04","01","15:00","-9.4","","-19.6","","43","","0.0","","31","","9","","","","99.50","","","","-14","","NA"
"-111.93","60.03","FORT SMITH CLIMATE","2202202","2018-04-01 16:00","2018","04","01","16:00","-9.5","","-20.2","","42","","0.0","","32","","8","","","","99.51","","","","-14","","NA"
"-111.93","60.03","FORT SMITH CLIMATE","2202202","2018-04-01 17:00","2018","04","01","17:00","-9.9","","-19.2","","46","","0.0","","33","","9","","","","99.49","","","","-15","","NA"
"-111.93","60.03","FORT SMITH CLIMATE","2202202","2018-04-01 18:00","2018","04","01","18:00","-10.2","","-19.0","","48","","0.0","","34","","4","","","","99.48","","","","-13","","NA"
"-111.93","60.03","FORT SMITH CLIMATE","2202202","2018-04-01 19:00","2018","04","01","19:00","-10.9","","-19.1","","51","","0.0","","1","","4","","","","99.47","","","","-13","","NA"
"-111.93","60.03","FORT SMITH CLIMATE","2202202","2018-04-01 20:00","2018","04","01","20:00","-11.7","","-19.6","","52","","0.0","","2","","4","","","","99.49","","","","-14","","NA"
"-111.93","60.03","FORT SMITH CLIMATE","2202202","2018-04-01 21:00","2018","04","01","21:00","-12.5","","-19.1","","58","","0.0","","","","0","","","","99.48","","","","","","NA"
"-111.93","60.03","FORT SMITH CLIMATE","2202202","2018-04-01 22:00","2018","04","01","22:00","-13.2","","-19.1","","61","","0.0","","","","0","","","","99.47","","","","","","NA"
"-111.93","60.03","FORT SMITH CLIMATE","2202202","2018-04-01 23:00","2018","04","01","23:00","-12.8","","-19.5","","57","","0.0","","7","","2","","","","99.46","","","","-14","","NA"
"-111.93","60.03","FORT SMITH CLIMATE","2202202","2018-04-02 00:00","2018","04","02","00:00","-13.2","","-19.3","","60","","0.0","","","","0","","","","99.47","","","","","","NA"
"-111.93","60.03","FORT SMITH CLIMATE","2202202","2018-04-02 01:00","2018","04","02","01:00","-13.9","","-19.7","","62","","0.0","","12","","4","","","","99.49","","","","-17","","NA"
"-111.93","60.03","FORT SMITH CLIMATE","2202202","2018-04-02 02:00","2018","04","02","02:00","-14.9","","-19.6","","67","","0.0","","","","0","","","","99.50","","","","","","NA"
"-111.93","60.03","FORT SMITH CLIMATE","2202202","2018-04-02 03:00","2018","04","02","03:00","-15.1","","-18.9","","72","","0.0","","26","","2","","","","99.49","","","","-17","","NA"
"-111.93","60.03","FORT SMITH CLIMATE","2202202","2018-04-02 04:00","2018","04","02","04:00","-15.8","","-19.4","","74","","0.0","","26","","3","","","","99.50","","","","-18","","NA"
"-111.93","60.03","FORT SMITH CLIMATE","2202202","2018-04-02 05:00","2018","04","02","05:00","-16.9","","-20.0","","77","","0.0","","23","","4","","","","99.52","","","","-20","","NA"
"-111.93","60.03","FORT SMITH CLIMATE","2202202","2018-04-02 06:00","2018","04","02","06:00","-18.1","","-20.9","","79","","0.0","","27","","5","","","","99.53","","","","-22","","NA"
"-111.93","60.03","FORT SMITH CLIMATE","2202202","2018-04-02 07:00","2018","04","02","07:00","-19.2","","-22.1","","78","","0.0","","27","","2","","","","99.55","","","","-21","","NA"
"-111.93","60.03","FORT SMITH CLIMATE","2202202","2018-04-02 08:00","2018","04","02","08:00","-16.9","","-22.6","","61","","0.3","","0","","1","","","","99.55","","","","-18","","NA"
"-111.93","60.03","FORT SMITH CLIMATE","2202202","2018-04-02 09:00","2018","04","02","09:00","-14.5","","-22.6","","50","","0.5","","21","","2","","","","99.55","","","","-16","","NA"
"-111.93","60.03","FORT SMITH CLIMATE","2202202","2018-04-02 10:00","2018","04","02","10:00","-11.7","","-21.1","","46","","0.0","","25","","4","","","","99.56","","","","-14","","NA"
"-111.93","60.03","FORT SMITH CLIMATE","2202202","2018-04-02 11:00","2018","04","02","11:00","-10.9","","-20.3","","46","","0.0","","27","","9","","","","99.56","","","","-16","","NA"
"-111.93","60.03","FORT SMITH CLIMATE","2202202","2018-04-02 12:00","2018","04","02","12:00","-10.3","","-20.7","","42","","0.0","","26","","7","","","","99.59","","","","-14","","NA"
"-111.93","60.03","FORT SMITH CLIMATE","2202202","2018-04-02 13:00","2018","04","02","13:00","-9.8","","-20.5","","41","","0.0","","30","","9","","","","99.62","","","","-15","","NA"
"-111.93","60.03","FORT SMITH CLIMATE","2202202","2018-04-02 14:00","2018","04","02","14:00","-9.6","","-19.9","","43","","0.0","","30","","10","","","","99.65","","","","-15","","NA"
"-111.93","60.03","FORT SMITH CLIMATE","2202202","2018-04-02 15:00","2018","04","02","15:00","-8.8","","-20.7","","37","","0.0","","28","","8","","","","99.67","","","","-13","","NA"
"-111.93","60.03","FORT SMITH CLIMATE","2202202","2018-04-02 16:00","2018","04","02","16:00","-9.1","","-20.7","","38","","0.0","","29","","11","","","","99.71","","","","-15","","NA"
"-111.93","60.03","FORT SMITH CLIMATE","2202202","2018-04-02 17:00","2018","04","02","17:00","-9.6","","-20.5","","41","","0.0","","29","","11","","","","99.73","","","","-15","","NA"
"-111.93","60.03","FORT SMITH CLIMATE","2202202","2018-04-02 18:00","2018","04","02","18:00","-12.6","","-21.5","","47","","0.0","","26","","13","","","","99.78","","","","-19","","NA"
"-111.93","60.03","FORT SMITH CLIMATE","2202202","2018-04-02 19:00","2018","04","02","19:00","-15.3","","-22.7","","53","","0.0","","26","","12","","","","99.87","","","","-22","","NA"
"-111.93","60.03","FORT SMITH CLIMATE","2202202","2018-04-02 20:00","2018","04","02","20:00","-16.9","","-23.3","","57","","0.0","","27","","10","","","","99.92","","","","-24","","NA"
"-111.93","60.03","FORT SMITH CLIMATE","2202202","2018-04-02 21:00","2018","04","02","21:00","-18.2","","-23.9","","61","","0.0","","27","","9","","","","99.94","","","","-25","","NA"
"-111.93","60.03","FORT SMITH CLIMATE","2202202","2018-04-02 22:00","2018","04","02","22:00","-19.4","","-24.4","","65","","0.0","","27","","6","","","","99.96","","","","-24","","NA"
"-111.93","60.03","FORT SMITH CLIMATE","2202202","2018-04-02 23:00","2018","04","02","23:00","-20.4","","-24.8","","68","","0.0","","28","","6","","","","99.99","","","","-25","","NA"
"-111.93","60.03","FORT SMITH CLIMATE","2202202","2018-04-03 00:00","2018","04","03","00:00","-21.4","","-25.2","","72","","0.0","","26","","7","","","","100.02","","","","-27","","NA"
"-111.93","60.03","FORT SMITH CLIMATE","2202202","2018-04-03 01:00","2018","04","03","01:00","-21.9","","-25.4","","74","","0.0","","27","","9","","","","100.04","","","","-29","","NA"
"-111.93","60.03","FORT SMITH CLIMATE","2202202","2018-04-03 02:00","2018","04","03","02:00","-22.7","","-25.7","","76","","0.0","","26","","7","","","","100.07","","","","-29","","NA"
"-111.93","60.03","FORT SMITH CLIMATE","2202202","2018-04-03 03:00","2018","04","03","03:00","-22.8","","-25.7","","77","","0.0","","25","","6","","","","100.08","","","","-28","","NA"
"-111.93","60.03","FORT SMITH CLIMATE","2202202","2018-04-03 04:00","2018","04","03","04:00","-23.3","","-26.2","","77","","0.0","","25","","7","","","","100.09","","","","-29","","NA"
"-111.93","60.03","FORT SMITH CLIMATE","2202202","2018-04-03 05:00","2018","04","03","05:00","-23.7","","-26.5","","77","","0.0","","26","","7","","","","100.11","","","","-30","","NA"
"-111.93","60.03","FORT SMITH CLIMATE","2202202","2018-04-03 06:00","2018","04","03","06:00","-24.7","","-27.6","","77","","0.0","","23","","5","","","","100.10","","","","-30","","NA"
"-111.93","60.03","FORT SMITH CLIMATE","2202202","2018-04-03 07:00","2018","04","03","07:00","-23.3","","-26.9","","73","","0.3","","26","","6","","","","100.09","","","","-29","","NA"
"-111.93","60.03","FORT SMITH CLIMATE","2202202","2018-04-03 08:00","2018","04","03","08:00","-21.3","","-26.1","","65","","0.3","","29","","5","","","","100.07","","","","-26","","NA"
"-111.93","60.03","FORT SMITH CLIMATE","2202202","2018-04-03 09:00","2018","04","03","09:00","-18.4","","-24.8","","57","","0.0","","27","","7","","","","100.05","","","","-24","","NA"
"-111.93","60.03","FORT SMITH CLIMATE","2202202","2018-04-03 10:00","2018","04","03","10:00","-15.5","","-24.2","","47","","0.0","","27","","13","","","","100.03","","","","-23","","NA"
"-111.93","60.03","FORT SMITH CLIMATE","2202202","2018-04-03 11:00","2018","04","03","11:00","-14.5","","-24.0","","44","","0.0","","28","","14","","","","100.03","","","","-22","","NA"
"-111.93","60.03","FORT SMITH CLIMATE","2202202","2018-04-03 12:00","2018","04","03","12:00","-13.0","","-24.1","","39","","0.0","","26","","12","","","","99.99","","","","-20","","NA"
"-111.93","60.03","FORT SMITH CLIMATE","2202202","2018-04-03 13:00","2018","04","03","13:00","-12.6","","-23.5","","40","","0.0","","26","","13","","","","99.99","","","","-19","","NA"
"-111.93","60.03","FORT SMITH CLIMATE","2202202","2018-04-03 14:00","2018","04","03","14:00","-11.9","","-23.5","","37","","0.0","","27","","12","","","","99.99","","","","-18","","NA"
"-111.93","60.03","FORT SMITH CLIMATE","2202202","2018-04-03 15:00","2018","04","03","15:00","-11.2","","-23.1","","37","","0.0","","29","","12","","","","99.98","","","","-17","","NA"
"-111.93","60.03","FORT SMITH CLIMATE","2202202","2018-04-03 16:00","2018","04","03","16:00","-11.7","","-23.3","","38","","0.0","","26","","15","","","","99.96","","","","-19","","NA"
"-111.93","60.03","FORT SMITH CLIMATE","2202202","2018-04-03 17:00","2018","04","03","17:00","-12.2","","-23.5","","39","","0.0","","27","","16","","","","99.94","","","","-20","","NA"
"-111.93","60.03","FORT SMITH CLIMATE","2202202","2018-04-03 18:00","2018","04","03","18:00","-13.1","","-23.7","","41","","0.0","","27","","13","","","","99.92","","","","-20","","NA"
"-111.93","60.03","FORT SMITH CLIMATE","2202202","2018-04-03 19:00","2018","04","03","19:00","-15.0","","-23.9","","47","","0.0","","28","","11","","","","99.90","","","","-22","","NA"
"-111.93","60.03","FORT SMITH CLIMATE","2202202","2018-04-03 20:00","2018","04","03","20:00","-16.5","","-24.3","","51","","0.0","","27","","7","","","","99.92","","","","-22","","NA"
"-111.93","60.03","FORT SMITH CLIMATE","2202202","2018-04-03 21:00","2018","04","03","21:00","-17.3","","-24.3","","55","","0.0","","28","","7","","","","99.88","","","","-23","","NA"
"-111.93","60.03","FORT SMITH CLIMATE","2202202","2018-04-03 22:00","2018","04","03","22:00","-17.6","","-24.0","","57","","0.0","","28","","8","","","","99.83","","","","-23","","NA"
"-111.93","60.03","FORT SMITH CLIMATE","2202202","2018-04-03 23:00","2018","04","03","23:00","-18.1","","-24.1","","59","","0.0","","25","","9","","","","99.79","","","","-24","","NA"
"-111.93","60.03","FORT SMITH CLIMATE","2202202","2018-04-04 00:00","2018","04","04","00:00","-18.2","","-23.8","","61","","0.0","","26","","11","","","","99.74","","","","-25","","NA"
"-111.93","60.03","FORT SMITH CLIMATE","2202202","2018-04-04 01:00","2018","04","04","01:00","-18.1","","-23.1","","65","","0.0","","26","","10","","","","99.73","","","","-25","","NA"
"-111.93","60.03","FORT SMITH CLIMATE","2202202","2018-04-04 02:00","2018","04","04","02:00","-18.4","","-22.3","","71","","0.0","","26","","9","","","","99.70","","","","-25","","NA"
"-111.93","60.03","FORT SMITH CLIMATE","2202202","2018-04-04 03:00","2018","04","04","03:00","-17.9","","-20.8","","78","","0.0","","26","","10","","","","99.69","","","","-25","","NA"
"-111.93","60.03","FORT SMITH CLIMATE","2202202","2018-04-04 04:00","2018","04","04","04:00","-17.6","","-20.3","","79","","0.2","","26","","12","","","","99.66","","","","-25","","NA"
"-111.93","60.03","FORT SMITH CLIMATE","2202202","2018-04-04 05:00","2018","04","04","05:00","-17.2","","-19.9","","80","","0.0","","27","","12","","","","99.64","","","","-25","","NA"
"-111.93","60.03","FORT SMITH CLIMATE","2202202","2018-04-04 06:00","2018","04","04","06:00","-17.4","","-20.3","","78","","0.2","","28","","12","","","","99.65","","","","-25","","NA"
"-111.93","60.03","FORT SMITH CLIMATE","2202202","2018-04-04 07:00","2018","04","04","07:00","-17.4","","-20.5","","76","","0.0","","28","","13","","","","99.68","","","","-25","","NA"
"-111.93","60.03","FORT SMITH CLIMATE","2202202","2018-04-04 08:00","2018","04","04","08:00","-17.1","","-20.3","","76","","0.0","","29","","14","","","","99.69","","","","-25","","NA"
"-111.93","60.03","FORT SMITH CLIMATE","2202202","2018-04-04 09:00","2018","04","04","09:00","-16.9","","-20.3","","75","","0.0","","29","","13","","","","99.72","","","","-25","","NA"
"-111.93","60.03","FORT SMITH CLIMATE","2202202","2018-04-04 10:00","2018","04","04","10:00","-16.2","","-20.1","","72","","0.0","","28","","17","","","","99.74","","","","-25","","NA"
"-111.93","60.03","FORT SMITH CLIMATE","2202202","2018-04-04 11:00","2018","04","04","11:00","-15.1","","-19.6","","69","","0.0","","29","","13","","","","99.79","","","","-22","","NA"
"-111.93","60.03","FORT SMITH CLIMATE","2202202","2018-04-04 12:00","2018","04","04","12:00","-14.3","","-18.8","","69","","0.0","","30","","15","","","","99.82","","","","-22","","NA"
"-111.93","60.03","FORT SMITH CLIMATE","2202202","2018-04-04 13:00","2018","04","04","13:00","-13.3","","-18.0","","68","","0.2","","31","","13","","","","99.89","","","","-20","","NA"
"-111.93","60.03","FORT SMITH CLIMATE","2202202","2018-04-04 14:00","2018","04","04","14:00","-12.6","","-17.9","","64","","0.0","","30","","14","","","","99.92","","","","-20","","NA"
"-111.93","60.03","FORT SMITH CLIMATE","2202202","2018-04-04 15:00","2018","04","04","15:00","-11.9","","-18.1","","60","","0.0","","28","","14","","","","99.95","","","","-19","","NA"
"-111.93","60.03","FORT SMITH CLIMATE","2202202","2018-04-04 16:00","2018","04","04","16:00","-11.2","","-17.8","","58","","0.0","","27","","17","","","","99.96","","","","-19","","NA"
"-111.93","60.03","FORT SMITH CLIMATE","2202202","2018-04-04 17:00","2018","04","04","17:00","-11.1","","-16.7","","63","","0.0","","29","","15","","","","99.99","","","","-18","","NA"
"-111.93","60.03","FORT SMITH CLIMATE","2202202","2018-04-04 18:00","2018","04","04","18:00","-11.5","","-15.3","","73","","0.0","","28","","15","","","","100.03","","","","-19","","NA"
"-111.93","60.03","FORT SMITH CLIMATE","2202202","2018-04-04 19:00","2018","04","04","19:00","-13.4","","-16.5","","77","","0.0","","2","","7","","","","100.16","","","","-18","","NA"
"-111.93","60.03","FORT SMITH CLIMATE","2202202","2018-04-04 20:00","2018","04","04","20:00","-15.4","","-21.4","","60","","0.0","","2","","12","","","","100.28","","","","-22","","NA"
"-111.93","60.03","FORT SMITH CLIMATE","2202202","2018-04-04 21:00","2018","04","04","21:00","-17.3","","-23.7","","58","","0.0","","35","","5","","","","100.37","","","","-21","","NA"
"-111.93","60.03","FORT SMITH CLIMATE","2202202","2018-04-04 22:00","2018","04","04","22:00","-20.0","","-24.7","","66","","0.0","","34","","2","","","","100.45","","","","-22","","NA"
"-111.93","60.03","FORT SMITH CLIMATE","2202202","2018-04-04 23:00","2018","04","04","23:00","-21.1","","-26.0","","65","","0.0","","35","","2","","","","100.54","","","","-23","","NA"
"-111.93","60.03","FORT SMITH CLIMATE","2202202","2018-04-05 00:00","2018","04","05","00:00","-20.9","","-25.8","","65","","0.0","","36","","2","","","","100.60","","","","-23","","NA"
"-111.93","60.03","FORT SMITH CLIMATE","2202202","2018-04-05 01:00","2018","04","05","01:00","-21.8","","-26.2","","68","","0.0","","34","","6","","","","100.68","","","","-27","","NA"
"-111.93","60.03","FORT SMITH CLIMATE","2202202","2018-04-05 02:00","2018","04","05","02:00","-23.8","","-27.5","","72","","0.0","","30","","2","","","","100.78","","","","-26","","NA"
"-111.93","60.03","FORT SMITH CLIMATE","2202202","2018-04-05 03:00","2018","04","05","03:00","-23.5","","-27.4","","70","","0.0","","29","","1","","","","100.86","","","","-24","","NA"
"-111.93","60.03","FORT SMITH CLIMATE","2202202","2018-04-05 04:00","2018","04","05","04:00","-23.5","","-27.0","","73","","0.0","","29","","6","","","","100.95","","","","-29","","NA"
"-111.93","60.03","FORT SMITH CLIMATE","2202202","2018-04-05 05:00","2018","04","05","05:00","-24.6","","-27.7","","75","","0.0","","29","","8","","","","101.02","","","","-32","","NA"
"-111.93","60.03","FORT SMITH CLIMATE","2202202","2018-04-05 06:00","2018","04","05","06:00","-25.4","","-28.4","","76","","0.0","","30","","6","","","","101.11","","","","-31","","NA"
"-111.93","60.03","FORT SMITH CLIMATE","2202202","2018-04-05 07:00","2018","04","05","07:00","-24.1","","-28.0","","70","","0.0","","29","","6","","","","101.17","","","","-30","","NA"
"-111.93","60.03","FORT SMITH CLIMATE","2202202","2018-04-05 08:00","2018","04","05","08:00","-21.6","","-26.8","","62","","0.3","","31","","6","","","","101.23","","","","-27","","NA"
"-111.93","60.03","FORT SMITH CLIMATE","2202202","2018-04-05 09:00","2018","04","05","09:00","-19.2","","-25.6","","57","","0.0","","29","","8","","","","101.28","","","","-25","","NA"
"-111.93","60.03","FORT SMITH CLIMATE","2202202","2018-04-05 10:00","2018","04","05","10:00","-17.2","","-25.2","","50","","0.0","","28","","7","","","","101.33","","","","-22","","NA"
"-111.93","60.03","FORT SMITH CLIMATE","2202202","2018-04-05 11:00","2018","04","05","11:00","-14.9","","-22.8","","51","","0.0","","29","","10","","","","101.35","","","","-21","","NA"
"-111.93","60.03","FORT SMITH CLIMATE","2202202","2018-04-05 12:00","2018","04","05","12:00","-13.5","","-22.1","","48","","0.0","","31","","9","","","","101.38","","","","-19","","NA"
"-111.93","60.03","FORT SMITH CLIMATE","2202202","2018-04-05 13:00","2018","04","05","13:00","-12.6","","-22.0","","45","","0.0","","29","","10","","","","101.38","","","","-18","","NA"
"-111.93","60.03","FORT SMITH CLIMATE","2202202","2018-04-05 14:00","2018","04","05","14:00","-10.7","","-21.7","","40","","0.2","","29","","11","","","","101.38","","","","-16","","NA"
"-111.93","60.03","FORT SMITH CLIMATE","2202202","2018-04-05 15:00","2018","04","05","15:00","-9.5","","-22.7","","33","","0.0","","27","","11","","","","101.35","","","","-15","","NA"
"-111.93","60.03","FORT SMITH CLIMATE","2202202","2018-04-05 16:00","2018","04","05","16:00","-8.9","","-22.6","","32","","0.0","","31","","11","","","","101.33","","","","-14","","NA"
"-111.93","60.03","FORT SMITH CLIMATE","2202202","2018-04-05 17:00","2018","04","05","17:00","-8.8","","-22.4","","33","","0.0","","30","","9","","","","101.30","","","","-13","","NA"
"-111.93","60.03","FORT SMITH CLIMATE","2202202","2018-04-05 18:00","2018","04","05","18:00","-9.4","","-22.8","","33","","0.0","","30","","11","","","","101.28","","","","-15","","NA"
"-111.93","60.03","FORT SMITH CLIMATE","2202202","2018-04-05 19:00","2018","04","05","19:00","-10.7","","-22.6","","37","","0.0","","29","","8","","","","101.28","","","","-15","","NA"
"-111.93","60.03","FORT SMITH CLIMATE","2202202","2018-04-05 20:00","2018","04","05","20:00","-12.0","","-22.4","","42","","0.0","","28","","8","","","","101.29","","","","-17","","NA"
"-111.93","60.03","FORT SMITH CLIMATE","2202202","2018-04-05 21:00","2018","04","05","21:00","-13.3","","-22.9","","44","","0.0","","27","","5","","","","101.28","","","","-17","","NA"
"-111.93","60.03","FORT SMITH CLIMATE","2202202","2018-04-05 22:00","2018","04","05","22:00","-14.4","","-23.2","","47","","0.0","","27","","6","","","","101.28","","","","-19","","NA"
"-111.93","60.03","FORT SMITH CLIMATE","2202202","2018-04-05 23:00","2018","04","05","23:00","-15.4","","-23.1","","52","","0.0","","28","","7","","","","101.28","","","","-20","","NA"
"-111.93","60.03","FORT SMITH CLIMATE","2202202","2018-04-06 00:00","2018","04","06","00:00","-16.4","","-22.8","","58","","0.0","","30","","4","","","","101.26","","","","-19","","NA"
"-111.93","60.03","FORT SMITH CLIMATE","2202202","2018-04-06 01:00","2018","04","06","01:00","-17.5","","-22.6","","64","","0.0","","27","","4","","","","101.25","","","","-21","","NA"
"-111.93","60.03","FORT SMITH CLIMATE","2202202","2018-04-06 02:00","2018","04","06","02:00","-20.3","","-25.5","","63","","0.0","","25","","3","","","","101.23","","","","-23","","NA"
"-111.93","60.03","FORT SMITH CLIMATE","2202202","2018-04-06 03:00","2018","04","06","03:00","-21.3","","-24.6","","74","","0.0","","24","","1","","","","101.21","","","","-22","","NA"
"-111.93","60.03","FORT SMITH CLIMATE","2202202","2018-04-06 04:00","2018","04","06","04:00","-22.6","","-25.9","","74","","0.0","","0","","1","","","","101.20","","","","-24","","NA"
"-111.93","60.03","FORT SMITH CLIMATE","2202202","2018-04-06 05:00","2018","04","06","05:00","-23.0","","-26.1","","76","","0.0","","20","","2","","","","101.19","","","","-25","","NA"
"-111.93","60.03","FORT SMITH CLIMATE","2202202","2018-04-06 06:00","2018","04","06","06:00","-23.4","","-26.7","","74","","0.0","","","","0","","","","101.16","","","","","","NA"
"-111.93","60.03","FORT SMITH CLIMATE","2202202","2018-04-06 07:00","2018","04","06","07:00","-21.9","","-26.6","","65","","0.5","","2","","3","","","","101.10","","","","-25","","NA"
"-111.93","60.03","FORT SMITH CLIMATE","2202202","2018-04-06 08:00","2018","04","06","08:00","-16.7","","-25.2","","48","","0.7","","30","","1","","","","101.08","","","","-17","","NA"
"-111.93","60.03","FORT SMITH CLIMATE","2202202","2018-04-06 09:00","2018","04","06","09:00","-14.0","","-21.5","","53","","0.3","","35","","2","","","","101.03","","","","-15","","NA"
"-111.93","60.03","FORT SMITH CLIMATE","2202202","2018-04-06 10:00","2018","04","06","10:00","-8.8","","-20.8","","37","","0.0","","0","","1","","","","100.98","","","","-9","","NA"
"-111.93","60.03","FORT SMITH CLIMATE","2202202","2018-04-06 11:00","2018","04","06","11:00","-8.7","","-18.6","","44","","0.3","","35","","6","","","","100.92","","","","-12","","NA"
"-111.93","60.03","FORT SMITH CLIMATE","2202202","2018-04-06 12:00","2018","04","06","12:00","-7.2","","-17.4","","44","","0.0","","3","","10","","","","100.85","","","","-12","","NA"
"-111.93","60.03","FORT SMITH CLIMATE","2202202","2018-04-06 13:00","2018","04","06","13:00","-5.8","","-17.1","","40","","0.0","","4","","10","","","","100.78","","","","-10","","NA"
"-111.93","60.03","FORT SMITH CLIMATE","2202202","2018-04-06 14:00","2018","04","06","14:00","-4.9","","-17.2","","38","","0.0","","2","","10","","","","100.69","","","","-9","","NA"
"-111.93","60.03","FORT SMITH CLIMATE","2202202","2018-04-06 15:00","2018","04","06","15:00","-3.5","","-18.8","","30","","0.0","","13","","4","","","","100.62","","","","-5","","NA"
"-111.93","60.03","FORT SMITH CLIMATE","2202202","2018-04-06 16:00","2018","04","06","16:00","-4.5","","-19.1","","31","","0.0","","14","","6","","","","100.54","","","","-7","","NA"
"-111.93","60.03","FORT SMITH CLIMATE","2202202","2018-04-06 17:00","2018","04","06","17:00","-4.3","","-18.6","","32","","0.0","","14","","10","","","","100.47","","","","-8","","NA"
"-111.93","60.03","FORT SMITH CLIMATE","2202202","2018-04-06 18:00","2018","04","06","18:00","-4.9","","-18.9","","33","","0.0","","15","","7","","","","100.39","","","","-8","","NA"
"-111.93","60.03","FORT SMITH CLIMATE","2202202","2018-04-06 19:00","2018","04","06","19:00","-6.3","","-18.5","","37","","0.0","","17","","6","","","","100.32","","","","-9","","NA"
"-111.93","60.03","FORT SMITH CLIMATE","2202202","2018-04-06 20:00","2018","04","06","20:00","-9.9","","-18.4","","50","","0.0","","14","","4","","","","100.27","","","","-12","","NA"
"-111.93","60.03","FORT SMITH CLIMATE","2202202","2018-04-06 21:00","2018","04","06","21:00","-10.8","","-18.2","","55","","0.0","","12","","5","","","","100.25","","","","-14","","NA"
"-111.93","60.03","FORT SMITH CLIMATE","2202202","2018-04-06 22:00","2018","04","06","22:00","-10.0","","-17.8","","52","","0.0","","12","","7","","","","100.24","","","","-14","","NA"
"-111.93","60.03","FORT SMITH CLIMATE","2202202","2018-04-06 23:00","2018","04","06","23:00","-11.3","","-18.8","","53","","0.0","","15","","9","","","","100.21","","","","-16","","NA"
"-111.93","60.03","FORT SMITH CLIMATE","2202202","2018-04-07 00:00","2018","04","07","00:00","-12.2","","-19.3","","55","","0.0","","15","","9","","","","100.17","","","","-17","","NA"
"-111.93","60.03","FORT SMITH CLIMATE","2202202","2018-04-07 01:00","2018","04","07","01:00","-13.5","","-19.5","","60","","0.0","","14","","7","","","","100.15","","","","-18","","NA"
"-111.93","60.03","FORT SMITH CLIMATE","2202202","2018-04-07 02:00","2018","04","07","02:00","-13.2","","-18.8","","63","","0.0","","15","","8","","","","100.08","","","","-18","","NA"
"-111.93","60.03","FORT SMITH CLIMATE","2202202","2018-04-07 03:00","2018","04","07","03:00","-14.0","","-19.6","","63","","0.0","","14","","7","","","","100.04","","","","-19","","NA"
"-111.93","60.03","FORT SMITH CLIMATE","2202202","2018-04-07 04:00","2018","04","07","04:00","-15.3","","-19.8","","68","","0.0","","12","","4","","","","100.01","","","","-18","","NA"
"-111.93","60.03","FORT SMITH CLIMATE","2202202","2018-04-07 05:00","2018","04","07","05:00","-15.6","","-20.0","","69","","0.0","","12","","6","","","","99.94","","","","-20","","NA"
"-111.93","60.03","FORT SMITH CLIMATE","2202202","2018-04-07 06:00","2018","04","07","06:00","-16.2","","-20.5","","69","","0.0","","12","","6","","","","99.90","","","","-21","","NA"
"-111.93","60.03","FORT SMITH CLIMATE","2202202","2018-04-07 07:00","2018","04","07","07:00","-14.8","","-20.6","","62","","0.0","","10","","8","","","","99.86","","","","-20","","NA"
"-111.93","60.03","FORT SMITH CLIMATE","2202202","2018-04-07 08:00","2018","04","07","08:00","-12.0","","-20.1","","51","","0.2","","11","","8","","","","99.81","","","","-17","","NA"
"-111.93","60.03","FORT SMITH CLIMATE","2202202","2018-04-07 09:00","2018","04","07","09:00","-8.9","","-20.1","","40","","0.0","","11","","8","","","","99.74","","","","-13","","NA"
"-111.93","60.03","FORT SMITH CLIMATE","2202202","2018-04-07 10:00","2018","04","07","10:00","-6.5","","-20.0","","33","","0.0","","11","","9","","","","99.67","","","","-11","","NA"
"-111.93","60.03","FORT SMITH CLIMATE","2202202","2018-04-07 11:00","2018","04","07","11:00","-5.1","","-19.1","","32","","0.0","","13","","11","","","","99.61","","","","-10","","NA"
"-111.93","60.03","FORT SMITH CLIMATE","2202202","2018-04-07 12:00","2018","04","07","12:00","-4.2","","-18.0","","33","","0.0","","8","","14","","","","99.56","","","","-9","","NA"
"-111.93","60.03","FORT SMITH CLIMATE","2202202","2018-04-07 13:00","2018","04","07","13:00","-2.8","","-17.9","","30","","0.0","","6","","10","","","","99.51","","","","-7","","NA"
"-111.93","60.03","FORT SMITH CLIMATE","2202202","2018-04-07 14:00","2018","04","07","14:00","-2.6","","-17.9","","30","","0.0","","5","","12","","","","99.46","","","","-7","","NA"
"-111.93","60.03","FORT SMITH CLIMATE","2202202","2018-04-07 15:00","2018","04","07","15:00","-2.0","","-18.4","","27","","0.0","","7","","10","","","","99.41","","","","-6","","NA"
"-111.93","60.03","FORT SMITH CLIMATE","2202202","2018-04-07 16:00","2018","04","07","16:00","-1.9","","-18.0","","28","","0.0","","6","","9","","","","99.35","","","","-5","","NA"
"-111.93","60.03","FORT SMITH CLIMATE","2202202","2018-04-07 17:00","2018","04","07","17:00","-2.3","","-18.3","","28","","0.0","","7","","9","","","","99.31","","","","-6","","NA"
"-111.93","60.03","FORT SMITH CLIMATE","2202202","2018-04-07 18:00","2018","04","07","18:00","-3.1","","-18.4","","30","","0.0","","7","","6","","","","99.25","","","","-6","","NA"
"-111.93","60.03","FORT SMITH CLIMATE","2202202","2018-04-07 19:00","2018","04","07","19:00","-5.0","","-17.6","","36","","0.0","","9","","9","","","","99.21","","","","-9","","NA"
"-111.93","60.03","FORT SMITH CLIMATE","2202202","2018-04-07 20:00","2018","04","07","20:00","-6.7","","-17.5","","42","","0.0","","6","","7","","","","99.23","","","","-10","","NA"
"-111.93","60.03","FORT SMITH CLIMATE","2202202","2018-04-07 21:00","2018","04","07","21:00","-8.9","","-17.8","","49","","0.0","","7","","7","","","","99.24","","","","-13","","NA"
"-111.93","60.03","FORT SMITH CLIMATE","2202202","2018-04-07 22:00","2018","04","07","22:00","-10.0","","-18.1","","51","","0.0","","9","","6","","","","99.26","","","","-14","","NA"
"-111.93","60.03","FORT SMITH CLIMATE","2202202","2018-04-07 23:00","2018","04","07","23:00","-10.5","","-18.8","","50","","0.0","","10","","6","","","","99.26","","","","-14","","NA"
"-111.93","60.03","FORT SMITH CLIMATE","2202202","2018-04-08 00:00","2018","04","08","00:00","-11.5","","-19.1","","53","","0.0","","12","","4","","","","99.25","","","","-14","","NA"
"-111.93","60.03","FORT SMITH CLIMATE","2202202","2018-04-08 01:00","2018","04","08","01:00","-12.6","","-19.4","","57","","0.0","","11","","2","","","","99.23","","","","-14","","NA"
"-111.93","60.03","FORT SMITH CLIMATE","2202202","2018-04-08 02:00","2018","04","08","02:00","-14.9","","-20.5","","62","","0.0","","10","","2","","","","99.19","","","","-16","","NA"
"-111.93","60.03","FORT SMITH CLIMATE","2202202","2018-04-08 03:00","2018","04","08","03:00","-14.5","","-19.6","","65","","0.0","","6","","4","","","","99.14","","","","-17","","NA"
"-111.93","60.03","FORT SMITH CLIMATE","2202202","2018-04-08 04:00","2018","04","08","04:00","-14.4","","-19.7","","64","","0.0","","7","","4","","","","99.11","","","","-17","","NA"
"-111.93","60.03","FORT SMITH CLIMATE","2202202","2018-04-08 05:00","2018","04","08","05:00","-16.9","","-20.4","","74","","0.0","","8","","3","","","","99.11","","","","-19","","NA"
"-111.93","60.03","FORT SMITH CLIMATE","2202202","2018-04-08 06:00","2018","04","08","06:00","-15.2","","-19.6","","69","","0.0","","8","","4","","","","99.10","","","","-18","","NA"
"-111.93","60.03","FORT SMITH CLIMATE","2202202","2018-04-08 07:00","2018","04","08","07:00","-12.9","","-19.4","","58","","0.0","","8","","3","","","","99.10","","","","-15","","NA"
"-111.93","60.03","FORT SMITH CLIMATE","2202202","2018-04-08 08:00","2018","04","08","08:00","-10.7","","-19.3","","49","","0.0","","14","","7","","","","99.10","","","","-15","","NA"
"-111.93","60.03","FORT SMITH CLIMATE","2202202","2018-04-08 09:00","2018","04","08","09:00","-8.0","","-19.0","","41","","0.0","","11","","5","","","","99.09","","","","-11","","NA"
"-111.93","60.03","FORT SMITH CLIMATE","2202202","2018-04-08 10:00","2018","04","08","10:00","-5.8","","-18.2","","37","","0.2","","6","","6","","","","99.10","","","","-9","","NA"
"-111.93","60.03","FORT SMITH CLIMATE","2202202","2018-04-08 11:00","2018","04","08","11:00","-2.7","","-17.9","","30","","0.0","","6","","5","","","","99.07","","","","-5","","NA"
"-111.93","60.03","FORT SMITH CLIMATE","2202202","2018-04-08 12:00","2018","04","08","12:00","-1.0","","-16.8","","29","","0.0","","6","","6","","","","99.04","","","","-3","","NA"
"-111.93","60.03","FORT SMITH CLIMATE","2202202","2018-04-08 13:00","2018","04","08","13:00","2.0","","-15.6","","26","","0.0","","6","","6","","","","99.02","","","","","","NA"
"-111.93","60.03","FORT SMITH CLIMATE","2202202","2018-04-08 14:00","2018","04","08","14:00","3.2","","-16.3","","22","","0.0","","23","","5","","","","99.01","","","","","","NA"
"-111.93","60.03","FORT SMITH CLIMATE","2202202","2018-04-08 15:00","2018","04","08","15:00","3.4","","-17.0","","21","","0.0","","3","","8","","","","99.00","","","","","","NA"
"-111.93","60.03","FORT SMITH CLIMATE","2202202","2018-04-08 16:00","2018","04","08","16:00","3.7","","-17.4","","20","","0.0","","1","","5","","","","98.99","","","","","","NA"
"-111.93","60.03","FORT SMITH CLIMATE","2202202","2018-04-08 17:00","2018","04","08","17:00","3.7","","-17.4","","20","","0.0","","13","","2","","","","98.98","","","","","","NA"
"-111.93","60.03","FORT SMITH CLIMATE","2202202","2018-04-08 18:00","2018","04","08","18:00","2.9","","-18.6","","19","","0.0","","26","","7","","","","99.00","","","","","","NA"
"-111.93","60.03","FORT SMITH CLIMATE","2202202","2018-04-08 19:00","2018","04","08","19:00","-2.5","","-17.1","","32","","0.0","","21","","3","","","","99.02","","","","-4","","NA"
"-111.93","60.03","FORT SMITH CLIMATE","2202202","2018-04-08 20:00","2018","04","08","20:00","-4.6","","-17.3","","36","","0.0","","16","","1","","","","99.04","","","","-5","","NA"
"-111.93","60.03","FORT SMITH CLIMATE","2202202","2018-04-08 21:00","2018","04","08","21:00","-6.0","","-17.2","","41","","0.0","","17","","2","","","","99.07","","","","-7","","NA"
"-111.93","60.03","FORT SMITH CLIMATE","2202202","2018-04-08 22:00","2018","04","08","22:00","-7.8","","-17.1","","47","","0.0","","","","0","","","","99.07","","","","","","NA"
"-111.93","60.03","FORT SMITH CLIMATE","2202202","2018-04-08 23:00","2018","04","08","23:00","-8.9","","-17.3","","51","","0.0","","0","","1","","","","99.09","","","","-9","","NA"
"-111.93","60.03","FORT SMITH CLIMATE","2202202","2018-04-09 00:00","2018","04","09","00:00","-8.9","","-18.4","","46","","0.0","","25","","4","","","","99.08","","","","-11","","NA"
"-111.93","60.03","FORT SMITH CLIMATE","2202202","2018-04-09 01:00","2018","04","09","01:00","-9.7","","-17.7","","52","","0.0","","26","","4","","","","99.12","","","","-12","","NA"
"-111.93","60.03","FORT SMITH CLIMATE","2202202","2018-04-09 02:00","2018","04","09","02:00","-7.4","","-16.8","","47","","0.6","","26","","6","","","","99.14","","","","-11","","NA"
"-111.93","60.03","FORT SMITH CLIMATE","2202202","2018-04-09 03:00","2018","04","09","03:00","-9.1","","-16.9","","53","","0.0","","26","","8","","","","99.17","","","","-13","","NA"
"-111.93","60.03","FORT SMITH CLIMATE","2202202","2018-04-09 04:00","2018","04","09","04:00","-10.6","","-16.3","","63","","0.0","","26","","8","","","","99.19","","","","-15","","NA"
"-111.93","60.03","FORT SMITH CLIMATE","2202202","2018-04-09 05:00","2018","04","09","05:00","-11.7","","-16.6","","67","","0.0","","25","","7","","","","99.22","","","","-16","","NA"
"-111.93","60.03","FORT SMITH CLIMATE","2202202","2018-04-09 06:00","2018","04","09","06:00","-12.7","","-16.9","","71","","0.0","","27","","6","","","","99.23","","","","-17","","NA"
"-111.93","60.03","FORT SMITH CLIMATE","2202202","2018-04-09 07:00","2018","04","09","07:00","-11.8","","-17.6","","62","","0.0","","28","","5","","","","99.27","","","","-15","","NA"
"-111.93","60.03","FORT SMITH CLIMATE","2202202","2018-04-09 08:00","2018","04","09","08:00","-9.4","","-17.1","","54","","0.3","","28","","7","","","","99.29","","","","-13","","NA"
"-111.93","60.03","FORT SMITH CLIMATE","2202202","2018-04-09 09:00","2018","04","09","09:00","-6.1","","-16.8","","43","","0.0","","25","","6","","","","99.28","","","","-9","","NA"
"-111.93","60.03","FORT SMITH CLIMATE","2202202","2018-04-09 10:00","2018","04","09","10:00","-3.4","","-17.0","","34","","0.0","","26","","9","","","","99.27","","","","-7","","NA"
"-111.93","60.03","FORT SMITH CLIMATE","2202202","2018-04-09 11:00","2018","04","09","11:00","-1.7","","-16.8","","31","","0.0","","26","","9","","","","99.28","","","","-5","","NA"
"-111.93","60.03","FORT SMITH CLIMATE","2202202","2018-04-09 12:00","2018","04","09","12:00","-0.8","","-17.1","","28","","0.0","","29","","11","","","","99.27","","","","-5","","NA"
"-111.93","60.03","FORT SMITH CLIMATE","2202202","2018-04-09 13:00","2018","04","09","13:00","0.2","","-17.1","","26","","0.0","","24","","11","","","","99.25","","","","","","NA"
"-111.93","60.03","FORT SMITH CLIMATE","2202202","2018-04-09 14:00","2018","04","09","14:00","0.7","","-17.1","","25","","0.0","","26","","12","","","","99.24","","","","","","NA"
"-111.93","60.03","FORT SMITH CLIMATE","2202202","2018-04-09 15:00","2018","04","09","15:00","1.0","","-17.2","","24","","0.0","","27","","12","","","","99.24","","","","","","NA"
"-111.93","60.03","FORT SMITH CLIMATE","2202202","2018-04-09 16:00","2018","04","09","16:00","0.9","","-16.5","","26","","0.0","","29","","11","","","","99.25","","","","","","NA"
"-111.93","60.03","FORT SMITH CLIMATE","2202202","2018-04-09 17:00","2018","04","09","17:00","0.1","","-16.2","","28","","0.0","","29","","13","","","","99.24","","","","","","NA"
"-111.93","60.03","FORT SMITH CLIMATE","2202202","2018-04-09 18:00","2018","04","09","18:00","-1.4","","-16.7","","30","","0.0","","30","","13","","","","99.27","","","","-6","","NA"
"-111.93","60.03","FORT SMITH CLIMATE","2202202","2018-04-09 19:00","2018","04","09","19:00","-3.2","","-17.2","","33","","0.0","","30","","12","","","","99.28","","","","-8","","NA"
"-111.93","60.03","FORT SMITH CLIMATE","2202202","2018-04-09 20:00","2018","04","09","20:00","-5.0","","-15.6","","43","","0.0","","31","","12","","","","99.34","","","","-10","","NA"
"-111.93","60.03","FORT SMITH CLIMATE","2202202","2018-04-09 21:00","2018","04","09","21:00","-7.7","","-17.8","","44","","0.0","","33","","9","","","","99.42","","","","-12","","NA"
"-111.93","60.03","FORT SMITH CLIMATE","2202202","2018-04-09 22:00","2018","04","09","22:00","-9.3","","-18.7","","46","","0.0","","33","","10","","","","99.49","","","","-14","","NA"
"-111.93","60.03","FORT SMITH CLIMATE","2202202","2018-04-09 23:00","2018","04","09","23:00","-10.9","","-19.3","","50","","0.0","","33","","7","","","","99.53","","","","-15","","NA"
"-111.93","60.03","FORT SMITH CLIMATE","2202202","2018-04-10 00:00","2018","04","10","00:00","-12.8","","-19.7","","56","","0.0","","32","","6","","","","99.59","","","","-17","","NA"
"-111.93","60.03","FORT SMITH CLIMATE","2202202","2018-04-10 01:00","2018","04","10","01:00","-14.4","","-20.4","","60","","0.0","","29","","4","","","","99.65","","","","-17","","NA"
"-111.93","60.03","FORT SMITH CLIMATE","2202202","2018-04-10 02:00","2018","04","10","02:00","-17.0","","-22.7","","61","","0.0","","31","","2","","","","99.71","","","","-19","","NA"
"-111.93","60.03","FORT SMITH CLIMATE","2202202","2018-04-10 03:00","2018","04","10","03:00","-16.8","","-21.5","","67","","0.0","","28","","4","","","","99.76","","","","-20","","NA"
"-111.93","60.03","FORT SMITH CLIMATE","2202202","2018-04-10 04:00","2018","04","10","04:00","-17.1","","-21.8","","67","","0.0","","27","","5","","","","99.81","","","","-21","","NA"
"-111.93","60.03","FORT SMITH CLIMATE","2202202","2018-04-10 05:00","2018","04","10","05:00","-18.5","","-23.3","","66","","0.3","","25","","4","","","","99.87","","","","-22","","NA"
"-111.93","60.03","FORT SMITH CLIMATE","2202202","2018-04-10 06:00","2018","04","10","06:00","-18.3","","-22.1","","72","","0.0","","25","","5","","","","99.91","","","","-22","","NA"
"-111.93","60.03","FORT SMITH CLIMATE","2202202","2018-04-10 07:00","2018","04","10","07:00","-16.8","","-21.8","","65","","0.3","","30","","6","","","","99.91","","","","-21","","NA"
"-111.93","60.03","FORT SMITH CLIMATE","2202202","2018-04-10 08:00","2018","04","10","08:00","-14.6","","-21.4","","56","","0.0","","30","","6","","","","99.89","","","","-19","","NA"
"-111.93","60.03","FORT SMITH CLIMATE","2202202","2018-04-10 09:00","2018","04","10","09:00","-12.1","","-20.6","","49","","0.0","","31","","7","","","","99.88","","","","-16","","NA"
"-111.93","60.03","FORT SMITH CLIMATE","2202202","2018-04-10 10:00","2018","04","10","10:00","-10.9","","-20.3","","46","","0.0","","32","","11","","","","99.93","","","","-17","","NA"
"-111.93","60.03","FORT SMITH CLIMATE","2202202","2018-04-10 11:00","2018","04","10","11:00","-9.6","","-19.6","","44","","0.0","","28","","13","","","","99.93","","","","-16","","NA"
"-111.93","60.03","FORT SMITH CLIMATE","2202202","2018-04-10 12:00","2018","04","10","12:00","-8.1","","-19.7","","39","","0.0","","33","","9","","","","99.85","","","","-13","","NA"
"-111.93","60.03","FORT SMITH CLIMATE","2202202","2018-04-10 13:00","2018","04","10","13:00","-7.3","","-20.0","","36","","0.0","","30","","10","","","","99.80","","","","-12","","NA"
"-111.93","60.03","FORT SMITH CLIMATE","2202202","2018-04-10 14:00","2018","04","10","14:00","-6.3","","-20.2","","32","","0.0","","29","","9","","","","99.76","","","","-11","","NA"
"-111.93","60.03","FORT SMITH CLIMATE","2202202","2018-04-10 15:00","2018","04","10","15:00","-5.7","","-20.3","","31","","0.0","","29","","8","","","","99.72","","","","-9","","NA"
"-111.93","60.03","FORT SMITH CLIMATE","2202202","2018-04-10 16:00","2018","04","10","16:00","-5.2","","-19.8","","31","","0.0","","29","","7","","","","99.66","","","","-8","","NA"
"-111.93","60.03","FORT SMITH CLIMATE","2202202","2018-04-10 17:00","2018","04","10","17:00","-5.4","","-19.1","","33","","0.0","","25","","9","","","","99.57","","","","-9","","NA"
"-111.93","60.03","FORT SMITH CLIMATE","2202202","2018-04-10 18:00","2018","04","10","18:00","-6.3","","-20.5","","32","","0.0","","27","","10","","","","99.48","","","","-11","","NA"
"-111.93","60.03","FORT SMITH CLIMATE","2202202","2018-04-10 19:00","2018","04","10","19:00","-7.6","","-20.9","","33","","0.0","","29","","7","","","","99.41","","","","-11","","NA"
"-111.93","60.03","FORT SMITH CLIMATE","2202202","2018-04-10 20:00","2018","04","10","20:00","-9.7","","-20.3","","42","","0.0","","28","","6","","","","99.40","","","","-13","","NA"
"-111.93","60.03","FORT SMITH CLIMATE","2202202","2018-04-10 21:00","2018","04","10","21:00","-11.5","","-20.8","","46","","0.0","","30","","6","","","","99.42","","","","-15","","NA"
"-111.93","60.03","FORT SMITH CLIMATE","2202202","2018-04-10 22:00","2018","04","10","22:00","-13.0","","-21.2","","50","","0.0","","28","","6","","","","99.39","","","","-17","","NA"
"-111.93","60.03","FORT SMITH CLIMATE","2202202","2018-04-10 23:00","2018","04","10","23:00","-14.5","","-21.7","","54","","0.0","","29","","6","","","","99.38","","","","-19","","NA"
"-111.93","60.03","FORT SMITH CLIMATE","2202202","2018-04-11 00:00","2018","04","11","00:00","-15.8","","-22.0","","59","","0.0","","28","","5","","","","99.36","","","","-20","","NA"
"-111.93","60.03","FORT SMITH CLIMATE","2202202","2018-04-11 01:00","2018","04","11","01:00","-17.2","","-22.8","","62","","0.0","","28","","5","","","","99.34","","","","-21","","NA"
"-111.93","60.03","FORT SMITH CLIMATE","2202202","2018-04-11 02:00","2018","04","11","02:00","-19.1","","-23.7","","67","","0.0","","28","","3","","","","99.31","","","","-22","","NA"
"-111.93","60.03","FORT SMITH CLIMATE","2202202","2018-04-11 03:00","2018","04","11","03:00","-19.8","","-23.7","","71","","0.0","","27","","3","","","","99.31","","","","-22","","NA"
"-111.93","60.03","FORT SMITH CLIMATE","2202202","2018-04-11 04:00","2018","04","11","04:00","-20.5","","-24.3","","72","","0.0","","25","","3","","","","99.31","","","","-23","","NA"
"-111.93","60.03","FORT SMITH CLIMATE","2202202","2018-04-11 05:00","2018","04","11","05:00","-20.6","","-24.2","","73","","0.0","","28","","3","","","","99.33","","","","-23","","NA"
"-111.93","60.03","FORT SMITH CLIMATE","2202202","2018-04-11 06:00","2018","04","11","06:00","-21.0","","-24.4","","74","","0.0","","27","","4","","","","99.32","","","","-25","","NA"
"-111.93","60.03","FORT SMITH CLIMATE","2202202","2018-04-11 07:00","2018","04","11","07:00","-19.1","","-23.7","","67","","0.6","","30","","4","","","","99.29","","","","-22","","NA"
"-111.93","60.03","FORT SMITH CLIMATE","2202202","2018-04-11 08:00","2018","04","11","08:00","-16.0","","-22.9","","56","","0.6","","32","","3","","","","99.31","","","","-18","","NA"
"-111.93","60.03","FORT SMITH CLIMATE","2202202","2018-04-11 09:00","2018","04","11","09:00","-13.9","","-22.6","","48","","0.0","","22","","3","","","","99.33","","","","-16","","NA"
"-111.93","60.03","FORT SMITH CLIMATE","2202202","2018-04-11 10:00","2018","04","11","10:00","-10.3","","-22.9","","35","","0.0","","17","","2","","","","99.34","","","","-11","","NA"
"-111.93","60.03","FORT SMITH CLIMATE","2202202","2018-04-11 11:00","2018","04","11","11:00","-9.1","","-20.3","","40","","0.2","","32","","8","","","","99.32","","","","-13","","NA"
"-111.93","60.03","FORT SMITH CLIMATE","2202202","2018-04-11 12:00","2018","04","11","12:00","-8.2","","-19.8","","39","","0.0","","30","","9","","","","99.30","","","","-13","","NA"
"-111.93","60.03","FORT SMITH CLIMATE","2202202","2018-04-11 13:00","2018","04","11","13:00","-7.3","","-19.6","","37","","0.0","","32","","7","","","","99.28","","","","-11","","NA"
"-111.93","60.03","FORT SMITH CLIMATE","2202202","2018-04-11 14:00","2018","04","11","14:00","-6.2","","-20.9","","30","","0.0","","35","","7","","","","99.28","","","","-10","","NA"
"-111.93","60.03","FORT SMITH CLIMATE","2202202","2018-04-11 15:00","2018","04","11","15:00","-5.2","","-20.1","","30","","0.0","","31","","5","","","","99.26","","","","-7","","NA"
"-111.93","60.03","FORT SMITH CLIMATE","2202202","2018-04-11 16:00","2018","04","11","16:00","-5.4","","-20.2","","30","","0.0","","33","","5","","","","99.24","","","","-8","","NA"
"-111.93","60.03","FORT SMITH CLIMATE","2202202","2018-04-11 17:00","2018","04","11","17:00","-5.9","","-21.5","","28","","0.0","","33","","6","","","","99.22","","","","-9","","NA"
"-111.93","60.03","FORT SMITH CLIMATE","2202202","2018-04-11 18:00","2018","04","11","18:00","-6.2","","-21.7","","28","","0.0","","30","","5","","","","99.18","","","","-9","","NA"
"-111.93","60.03","FORT SMITH CLIMATE","2202202","2018-04-11 19:00","2018","04","11","19:00","-7.9","","-21.5","","32","","0.0","","33","","6","","","","99.17","","","","-11","","NA"
"-111.93","60.03","FORT SMITH CLIMATE","2202202","2018-04-11 20:00","2018","04","11","20:00","-11.9","","-21.7","","44","","0.0","","25","","2","","","","99.18","","","","-13","","NA"
"-111.93","60.03","FORT SMITH CLIMATE","2202202","2018-04-11 21:00","2018","04","11","21:00","-13.4","","-21.1","","52","","0.0","","","","0","","","","99.20","","","","","","NA"
"-111.93","60.03","FORT SMITH CLIMATE","2202202","2018-04-11 22:00","2018","04","11","22:00","-15.8","","-22.5","","57","","0.0","","12","","1","","","","99.23","","","","-17","","NA"
"-111.93","60.03","FORT SMITH CLIMATE","2202202","2018-04-11 23:00","2018","04","11","23:00","-17.2","","-23.3","","59","","0.0","","8","","3","","","","99.21","","","","-20","","NA"
"-111.93","60.03","FORT SMITH CLIMATE","2202202","2018-04-12 00:00","2018","04","12","00:00","-15.7","","-22.2","","58","","0.0","","7","","4","","","","99.19","","","","-19","","NA"
"-111.93","60.03","FORT SMITH CLIMATE","2202202","2018-04-12 01:00","2018","04","12","01:00","-17.1","","-23.2","","59","","0.0","","8","","3","","","","99.16","","","","-19","","NA"
"-111.93","60.03","FORT SMITH CLIMATE","2202202","2018-04-12 02:00","2018","04","12","02:00","-18.0","","-23.0","","65","","0.0","","11","","3","","","","99.17","","","","-20","","NA"
"-111.93","60.03","FORT SMITH CLIMATE","2202202","2018-04-12 03:00","2018","04","12","03:00","-19.8","","-23.3","","73","","0.0","","11","","2","","","","99.16","","","","-22","","NA"
"-111.93","60.03","FORT SMITH CLIMATE","2202202","2018-04-12 04:00","2018","04","12","04:00","-20.5","","-23.6","","76","","0.0","","10","","3","","","","99.16","","","","-23","","NA"
"-111.93","60.03","FORT SMITH CLIMATE","2202202","2018-04-12 05:00","2018","04","12","05:00","-20.7","","-23.5","","78","","0.0","","10","","3","","","","99.16","","","","-23","","NA"
"-111.93","60.03","FORT SMITH CLIMATE","2202202","2018-04-12 06:00","2018","04","12","06:00","-20.4","","-23.2","","78","","0.0","","10","","2","","","","99.19","","","","-22","","NA"
"-111.93","60.03","FORT SMITH CLIMATE","2202202","2018-04-12 07:00","2018","04","12","07:00","-15.3","","-21.8","","58","","0.6","","13","","5","","","","99.17","","","","-19","","NA"
"-111.93","60.03","FORT SMITH CLIMATE","2202202","2018-04-12 08:00","2018","04","12","08:00","-12.2","","-22.1","","43","","0.2","","12","","3","","","","99.17","","","","-14","","NA"
"-111.93","60.03","FORT SMITH CLIMATE","2202202","2018-04-12 09:00","2018","04","12","09:00","-9.7","","-20.7","","40","","0.0","","5","","6","","","","99.18","","","","-13","","NA"
"-111.93","60.03","FORT SMITH CLIMATE","2202202","2018-04-12 10:00","2018","04","12","10:00","-7.2","","-21.5","","31","","0.0","","7","","7","","","","99.19","","","","-11","","NA"
"-111.93","60.03","FORT SMITH CLIMATE","2202202","2018-04-12 11:00","2018","04","12","11:00","-5.1","","-19.7","","31","","0.0","","5","","7","","","","99.16","","","","-8","","NA"
"-111.93","60.03","FORT SMITH CLIMATE","2202202","2018-04-12 12:00","2018","04","12","12:00","-3.8","","-19.3","","29","","0.0","","5","","9","","","","99.15","","","","-8","","NA"
"-111.93","60.03","FORT SMITH CLIMATE","2202202","2018-04-12 13:00","2018","04","12","13:00","-2.1","","-18.7","","27","","0.0","","5","","9","","","","99.14","","","","-6","","NA"
"-111.93","60.03","FORT SMITH CLIMATE","2202202","2018-04-12 14:00","2018","04","12","14:00","-1.4","","-19.2","","25","","0.0","","5","","10","","","","99.11","","","","-5","","NA"
"-111.93","60.03","FORT SMITH CLIMATE","2202202","2018-04-12 15:00","2018","04","12","15:00","-0.8","","-20.3","","21","","0.0","","4","","11","","","","99.08","","","","-5","","NA"
"-111.93","60.03","FORT SMITH CLIMATE","2202202","2018-04-12 16:00","2018","04","12","16:00","-0.1","","-19.8","","21","","0.0","","4","","9","","","","99.10","","","","-3","","NA"
"-111.93","60.03","FORT SMITH CLIMATE","2202202","2018-04-12 17:00","2018","04","12","17:00","-0.5","","-19.9","","22","","0.0","","6","","11","","","","99.11","","","","-4","","NA"
"-111.93","60.03","FORT SMITH CLIMATE","2202202","2018-04-12 18:00","2018","04","12","18:00","-1.0","","-20.2","","22","","0.0","","7","","8","","","","99.13","","","","-4","","NA"
"-111.93","60.03","FORT SMITH CLIMATE","2202202","2018-04-12 19:00","2018","04","12","19:00","-2.2","","-19.9","","24","","0.0","","9","","8","","","","99.14","","","","-5","","NA"
"-111.93","60.03","FORT SMITH CLIMATE","2202202","2018-04-12 20:00","2018","04","12","20:00","-4.1","","-19.1","","30","","0.0","","10","","8","","","","99.18","","","","-8","","NA"
"-111.93","60.03","FORT SMITH CLIMATE","2202202","2018-04-12 21:00","2018","04","12","21:00","-5.7","","-19.1","","34","","0.0","","10","","5","","","","99.23","","","","-8","","NA"
"-111.93","60.03","FORT SMITH CLIMATE","2202202","2018-04-12 22:00","2018","04","12","22:00","-7.4","","-20.0","","36","","0.0","","9","","6","","","","99.24","","","","-11","","NA"
"-111.93","60.03","FORT SMITH CLIMATE","2202202","2018-04-12 23:00","2018","04","12","23:00","-8.7","","-21.1","","36","","0.0","","10","","6","","","","99.29","","","","-12","","NA"
"-111.93","60.03","FORT SMITH CLIMATE","2202202","2018-04-13 00:00","2018","04","13","00:00","-10.2","","-21.6","","39","","0.0","","12","","6","","","","99.30","","","","-14","","NA"
"-111.93","60.03","FORT SMITH CLIMATE","2202202","2018-04-13 01:00","2018","04","13","01:00","-10.5","","-21.3","","41","","0.0","","11","","6","","","","99.30","","","","-14","","NA"
"-111.93","60.03","FORT SMITH CLIMATE","2202202","2018-04-13 02:00","2018","04","13","02:00","-10.6","","-21.1","","42","","0.0","","8","","5","","","","99.30","","","","-14","","NA"
"-111.93","60.03","FORT SMITH CLIMATE","2202202","2018-04-13 03:00","2018","04","13","03:00","-11.3","","-20.8","","45","","0.0","","8","","4","","","","99.27","","","","-14","","NA"
"-111.93","60.03","FORT SMITH CLIMATE","2202202","2018-04-13 04:00","2018","04","13","04:00","-12.0","","-20.8","","48","","0.0","","8","","3","","","","99.28","","","","-14","","NA"
"-111.93","60.03","FORT SMITH CLIMATE","2202202","2018-04-13 05:00","2018","04","13","05:00","-11.2","","-20.5","","46","","0.4","","10","","7","","","","99.27","","","","-15","","NA"
"-111.93","60.03","FORT SMITH CLIMATE","2202202","2018-04-13 06:00","2018","04","13","06:00","-10.9","","-20.3","","46","","0.0","","10","","9","","","","99.27","","","","-16","","NA"
"-111.93","60.03","FORT SMITH CLIMATE","2202202","2018-04-13 07:00","2018","04","13","07:00","-9.7","","-20.1","","43","","0.0","","11","","9","","","","99.27","","","","-15","","NA"
"-111.93","60.03","FORT SMITH CLIMATE","2202202","2018-04-13 08:00","2018","04","13","08:00","-7.5","","-19.3","","38","","0.0","","12","","11","","","","99.26","","","","-13","","NA"
"-111.93","60.03","FORT SMITH CLIMATE","2202202","2018-04-13 09:00","2018","04","13","09:00","-4.8","","-18.4","","34","","0.2","","11","","12","","","","99.23","","","","-10","","NA"
"-111.93","60.03","FORT SMITH CLIMATE","2202202","2018-04-13 10:00","2018","04","13","10:00","-1.6","","-17.5","","29","","0.0","","11","","12","","","","99.20","","","","-6","","NA"
"-111.93","60.03","FORT SMITH CLIMATE","2202202","2018-04-13 11:00","2018","04","13","11:00","0.1","","-16.3","","28","","0.0","","13","","12","","","","99.17","","","","","","NA"
"-111.93","60.03","FORT SMITH CLIMATE","2202202","2018-04-13 12:00","2018","04","13","12:00","2.1","","-15.0","","27","","0.2","","11","","13","","","","99.13","","","","","","NA"
"-111.93","60.03","FORT SMITH CLIMATE","2202202","2018-04-13 13:00","2018","04","13","13:00","3.9","","-13.9","","26","","0.0","","11","","14","","","","99.08","","","","","","NA"
"-111.93","60.03","FORT SMITH CLIMATE","2202202","2018-04-13 14:00","2018","04","13","14:00","4.9","","-13.1","","26","","0.0","","11","","14","","","","99.03","","","","","","NA"
"-111.93","60.03","FORT SMITH CLIMATE","2202202","2018-04-13 15:00","2018","04","13","15:00","5.0","","-10.5","","31","","0.0","","10","","14","","","","99.00","","","","","","NA"
"-111.93","60.03","FORT SMITH CLIMATE","2202202","2018-04-13 16:00","2018","04","13","16:00","5.6","","-9.1","","34","","0.0","","13","","14","","","","98.96","","","","","","NA"
"-111.93","60.03","FORT SMITH CLIMATE","2202202","2018-04-13 17:00","2018","04","13","17:00","4.9","","-8.7","","37","","0.0","","12","","14","","","","98.94","","","","","","NA"
"-111.93","60.03","FORT SMITH CLIMATE","2202202","2018-04-13 18:00","2018","04","13","18:00","5.0","","-8.1","","38","","0.0","","12","","11","","","","98.91","","","","","","NA"
"-111.93","60.03","FORT SMITH CLIMATE","2202202","2018-04-13 19:00","2018","04","13","19:00","4.5","","-8.1","","39","","0.0","","11","","7","","","","98.84","","","","","","NA"
"-111.93","60.03","FORT SMITH CLIMATE","2202202","2018-04-13 20:00","2018","04","13","20:00","3.4","","-5.1","","54","","0.0","","12","","7","","","","98.81","","","","","","NA"
"-111.93","60.03","FORT SMITH CLIMATE","2202202","2018-04-13 21:00","2018","04","13","21:00","3.0","","-4.1","","59","","0.0","","11","","7","","","","98.79","","","","","","NA"
"-111.93","60.03","FORT SMITH CLIMATE","2202202","2018-04-13 22:00","2018","04","13","22:00","3.0","","-3.7","","62","","0.0","","11","","7","","","","98.75","","","","","","NA"
"-111.93","60.03","FORT SMITH CLIMATE","2202202","2018-04-13 23:00","2018","04","13","23:00","2.9","","-3.4","","63","","0.0","","11","","7","","","","98.70","","","","","","NA"
"-111.93","60.03","FORT SMITH CLIMATE","2202202","2018-04-14 00:00","2018","04","14","00:00","2.2","","-3.9","","64","","0.0","","9","","4","","","","98.65","","","","","","NA"
"-111.93","60.03","FORT SMITH CLIMATE","2202202","2018-04-14 01:00","2018","04","14","01:00","1.6","","-3.2","","71","","0.0","","12","","8","","","","98.61","","","","","","NA"
"-111.93","60.03","FORT SMITH CLIMATE","2202202","2018-04-14 02:00","2018","04","14","02:00","1.1","","-2.7","","76","","0.0","","12","","9","","","","98.59","","","","","","NA"
"-111.93","60.03","FORT SMITH CLIMATE","2202202","2018-04-14 03:00","2018","04","14","03:00","0.6","","-2.7","","79","","0.0","","12","","9","","","","98.57","","","","","","NA"
"-111.93","60.03","FORT SMITH CLIMATE","2202202","2018-04-14 04:00","2018","04","14","04:00","0.0","","-2.8","","81","","0.0","","13","","10","","","","98.57","","","","-3","","NA"
"-111.93","60.03","FORT SMITH CLIMATE","2202202","2018-04-14 05:00","2018","04","14","05:00","-0.4","","-2.9","","83","","0.0","","13","","9","","","","98.59","","","","-4","","NA"
"-111.93","60.03","FORT SMITH CLIMATE","2202202","2018-04-14 06:00","2018","04","14","06:00","-0.4","","-3.0","","83","","0.0","","13","","9","","","","98.58","","","","-4","","NA"
"-111.93","60.03","FORT SMITH CLIMATE","2202202","2018-04-14 07:00","2018","04","14","07:00","1.0","","-3.0","","74","","0.0","","13","","11","","","","98.59","","","","","","NA"
"-111.93","60.03","FORT SMITH CLIMATE","2202202","2018-04-14 08:00","2018","04","14","08:00","2.6","","-2.9","","67","","0.0","","15","","18","","","","98.55","","","","","","NA"
"-111.93","60.03","FORT SMITH CLIMATE","2202202","2018-04-14 09:00","2018","04","14","09:00","4.2","","-3.0","","59","","0.0","","14","","14","","","","98.51","","","","","","NA"
"-111.93","60.03","FORT SMITH CLIMATE","2202202","2018-04-14 10:00","2018","04","14","10:00","5.2","","-3.3","","54","","0.0","","11","","13","","","","98.51","","","","","","NA"
"-111.93","60.03","FORT SMITH CLIMATE","2202202","2018-04-14 11:00","2018","04","14","11:00","6.7","","-3.4","","49","","0.0","","12","","13","","","","98.50","","","","","","NA"
"-111.93","60.03","FORT SMITH CLIMATE","2202202","2018-04-14 12:00","2018","04","14","12:00","7.1","","-3.3","","48","","0.0","","12","","14","","","","98.48","","","","","","NA"
"-111.93","60.03","FORT SMITH CLIMATE","2202202","2018-04-14 13:00","2018","04","14","13:00","7.5","","-3.1","","47","","0.0","","11","","10","","","","98.45","","","","","","NA"
"-111.93","60.03","FORT SMITH CLIMATE","2202202","2018-04-14 14:00","2018","04","14","14:00","9.4","","-3.5","","40","","0.0","","14","","13","","","","98.43","","","","","","NA"
"-111.93","60.03","FORT SMITH CLIMATE","2202202","2018-04-14 15:00","2018","04","14","15:00","8.7","","-3.3","","43","","0.0","","13","","13","","","","98.46","","","","","","NA"
"-111.93","60.03","FORT SMITH CLIMATE","2202202","2018-04-14 16:00","2018","04","14","16:00","8.3","","-2.8","","46","","0.0","","12","","11","","","","98.48","","","","","","NA"
"-111.93","60.03","FORT SMITH CLIMATE","2202202","2018-04-14 17:00","2018","04","14","17:00","7.5","","-2.5","","49","","0.0","","14","","15","","","","98.53","","","","","","NA"
"-111.93","60.03","FORT SMITH CLIMATE","2202202","2018-04-14 18:00","2018","04","14","18:00","6.1","","-2.0","","56","","0.0","","15","","10","","","","98.57","","","","","","NA"
"-111.93","60.03","FORT SMITH CLIMATE","2202202","2018-04-14 19:00","2018","04","14","19:00","4.8","","-1.9","","62","","0.0","","16","","9","","","","98.61","","","","","","NA"
"-111.93","60.03","FORT SMITH CLIMATE","2202202","2018-04-14 20:00","2018","04","14","20:00","3.8","","-2.0","","66","","0.0","","9","","3","","","","98.61","","","","","","NA"
"-111.93","60.03","FORT SMITH CLIMATE","2202202","2018-04-14 21:00","2018","04","14","21:00","3.1","","-1.7","","71","","0.0","","8","","5","","","","98.62","","","","","","NA"
"-111.93","60.03","FORT SMITH CLIMATE","2202202","2018-04-14 22:00","2018","04","14","22:00","2.5","","-1.5","","75","","0.0","","8","","6","","","","98.63","","","","","","NA"
"-111.93","60.03","FORT SMITH CLIMATE","2202202","2018-04-14 23:00","2018","04","14","23:00","2.0","","-1.3","","79","","0.0","","7","","4","","","","98.64","","","","","","NA"
"-111.93","60.03","FORT SMITH CLIMATE","2202202","2018-04-15 00:00","2018","04","15","00:00","1.0","","-1.7","","83","","0.0","","5","","4","","","","98.68","","","","","","NA"
"-111.93","60.03","FORT SMITH CLIMATE","2202202","2018-04-15 01:00","2018","04","15","01:00","0.3","","-1.7","","87","","0.0","","5","","4","","","","98.69","","","","","","NA"
"-111.93","60.03","FORT SMITH CLIMATE","2202202","2018-04-15 02:00","2018","04","15","02:00","-0.1","","-1.7","","89","","0.0","","3","","4","","","","98.70","","","","-1","","NA"
"-111.93","60.03","FORT SMITH CLIMATE","2202202","2018-04-15 03:00","2018","04","15","03:00","-0.1","","-1.4","","91","","0.0","","4","","2","","","","98.72","","","","-1","","NA"
"-111.93","60.03","FORT SMITH CLIMATE","2202202","2018-04-15 04:00","2018","04","15","04:00","-0.2","","-1.4","","92","","0.0","","3","","2","","","","98.78","","","","-1","","NA"
"-111.93","60.03","FORT SMITH CLIMATE","2202202","2018-04-15 05:00","2018","04","15","05:00","-0.3","","-1.5","","91","","0.0","","30","","2","","","","98.84","","","","-1","","NA"
"-111.93","60.03","FORT SMITH CLIMATE","2202202","2018-04-15 06:00","2018","04","15","06:00","0.0","","-1.6","","89","","0.0","","35","","1","","","","98.90","","","","0","","NA"
"-111.93","60.03","FORT SMITH CLIMATE","2202202","2018-04-15 07:00","2018","04","15","07:00","0.5","","-1.5","","87","","0.0","","24","","3","","","","98.95","","","","","","NA"
"-111.93","60.03","FORT SMITH CLIMATE","2202202","2018-04-15 08:00","2018","04","15","08:00","1.1","","-1.4","","83","","0.0","","27","","4","","","","98.99","","","","","","NA"
"-111.93","60.03","FORT SMITH CLIMATE","2202202","2018-04-15 09:00","2018","04","15","09:00","1.6","","-1.3","","81","","0.0","","28","","8","","","","99.05","","","","","","NA"
"-111.93","60.03","FORT SMITH CLIMATE","2202202","2018-04-15 10:00","2018","04","15","10:00","1.6","","-1.2","","82","","0.0","","29","","10","","","","99.11","","","","","","NA"
"-111.93","60.03","FORT SMITH CLIMATE","2202202","2018-04-15 11:00","2018","04","15","11:00","1.6","","-1.5","","80","","0.0","","30","","12","","","","99.17","","","","","","NA"
"-111.93","60.03","FORT SMITH CLIMATE","2202202","2018-04-15 12:00","2018","04","15","12:00","0.2","","-3.4","","77","","0.0","","26","","15","","","","99.27","","","","","","NA"
"-111.93","60.03","FORT SMITH CLIMATE","2202202","2018-04-15 13:00","2018","04","15","13:00","-0.8","","-4.5","","76","","0.0","","28","","15","","","","99.37","","","","-5","","NA"
"-111.93","60.03","FORT SMITH CLIMATE","2202202","2018-04-15 14:00","2018","04","15","14:00","-1.0","","-5.2","","73","","0.0","","28","","14","","","","99.44","","","","-5","","NA"
"-111.93","60.03","FORT SMITH CLIMATE","2202202","2018-04-15 15:00","2018","04","15","15:00","-1.4","","-5.7","","73","","0.0","","26","","12","","","","99.52","","","","-5","","NA"
"-111.93","60.03","FORT SMITH CLIMATE","2202202","2018-04-15 16:00","2018","04","15","16:00","-2.5","","-5.5","","79","","0.0","","26","","12","","","","99.61","","","","-7","","NA"
"-111.93","60.03","FORT SMITH CLIMATE","2202202","2018-04-15 17:00","2018","04","15","17:00","-2.9","","-6.0","","79","","0.0","","29","","11","","","","99.65","","","","-7","","NA"
"-111.93","60.03","FORT SMITH CLIMATE","2202202","2018-04-15 18:00","2018","04","15","18:00","-3.2","","-6.3","","80","","0.0","","27","","12","","","","99.71","","","","-8","","NA"
"-111.93","60.03","FORT SMITH CLIMATE","2202202","2018-04-15 19:00","2018","04","15","19:00","-3.6","","-6.2","","82","","0.0","","27","","11","","","","99.76","","","","-8","","NA"
"-111.93","60.03","FORT SMITH CLIMATE","2202202","2018-04-15 20:00","2018","04","15","20:00","-4.0","","-6.2","","85","","0.0","","27","","10","","","","99.81","","","","-8","","NA"
"-111.93","60.03","FORT SMITH CLIMATE","2202202","2018-04-15 21:00","2018","04","15","21:00","-4.5","","-6.2","","88","","0.0","","28","","11","","","","99.86","","","","-9","","NA"
"-111.93","60.03","FORT SMITH CLIMATE","2202202","2018-04-15 22:00","2018","04","15","22:00","-4.8","","-6.4","","89","","0.0","","28","","8","","","","99.89","","","","-8","","NA"
"-111.93","60.03","FORT SMITH CLIMATE","2202202","2018-04-15 23:00","2018","04","15","23:00","-5.0","","-6.6","","88","","0.0","","28","","9","","","","99.90","","","","-9","","NA"
"-111.93","60.03","FORT SMITH CLIMATE","2202202","2018-04-16 00:00","2018","04","16","00:00","-5.1","","-6.7","","88","","0.0","","28","","9","","","","99.90","","","","-9","","NA"
"-111.93","60.03","FORT SMITH CLIMATE","2202202","2018-04-16 01:00","2018","04","16","01:00","-5.0","","-6.5","","89","","0.0","","28","","7","","","","99.90","","","","-8","","NA"
"-111.93","60.03","FORT SMITH CLIMATE","2202202","2018-04-16 02:00","2018","04","16","02:00","-4.9","","-6.4","","89","","0.0","","29","","8","","","","99.91","","","","-8","","NA"
"-111.93","60.03","FORT SMITH CLIMATE","2202202","2018-04-16 03:00","2018","04","16","03:00","-4.9","","-6.5","","89","","0.0","","28","","9","","","","99.93","","","","-9","","NA"
"-111.93","60.03","FORT SMITH CLIMATE","2202202","2018-04-16 04:00","2018","04","16","04:00","-5.0","","-6.5","","89","","0.0","","29","","9","","","","99.95","","","","-9","","NA"
"-111.93","60.03","FORT SMITH CLIMATE","2202202","2018-04-16 05:00","2018","04","16","05:00","-5.2","","-6.9","","88","","0.0","","30","","9","","","","99.94","","","","-9","","NA"
"-111.93","60.03","FORT SMITH CLIMATE","2202202","2018-04-16 06:00","2018","04","16","06:00","-5.4","","-7.0","","88","","0.0","","29","","7","","","","99.96","","","","-9","","NA"
"-111.93","60.03","FORT SMITH CLIMATE","2202202","2018-04-16 07:00","2018","04","16","07:00","-5.8","","-7.5","","88","","0.0","","29","","10","","","","99.96","","","","-10","","NA"
"-111.93","60.03","FORT SMITH CLIMATE","2202202","2018-04-16 08:00","2018","04","16","08:00","-5.9","","-7.9","","86","","0.0","","29","","9","","","","99.96","","","","-10","","NA"
"-111.93","60.03","FORT SMITH CLIMATE","2202202","2018-04-16 09:00","2018","04","16","09:00","-5.6","","-7.7","","85","","0.0","","29","","8","","","","99.95","","","","-9","","NA"
"-111.93","60.03","FORT SMITH CLIMATE","2202202","2018-04-16 10:00","2018","04","16","10:00","-5.2","","-7.8","","82","","0.0","","31","","10","","","","99.92","","","","-10","","NA"
"-111.93","60.03","FORT SMITH CLIMATE","2202202","2018-04-16 11:00","2018","04","16","11:00","-4.5","","-7.4","","80","","0.2","","32","","9","","","","99.92","","","","-8","","NA"
"-111.93","60.03","FORT SMITH CLIMATE","2202202","2018-04-16 12:00","2018","04","16","12:00","-3.8","","-7.3","","77","","0.0","","31","","8","","","","99.88","","","","-7","","NA"
"-111.93","60.03","FORT SMITH CLIMATE","2202202","2018-04-16 13:00","2018","04","16","13:00","-3.0","","-6.9","","75","","0.0","","30","","8","","","","99.89","","","","-6","","NA"
"-111.93","60.03","FORT SMITH CLIMATE","2202202","2018-04-16 14:00","2018","04","16","14:00","-2.1","","-6.6","","71","","0.0","","31","","9","","","","99.83","","","","-6","","NA"
"-111.93","60.03","FORT SMITH CLIMATE","2202202","2018-04-16 15:00","2018","04","16","15:00","-0.7","","-5.6","","70","","0.0","","31","","10","","","","99.74","","","","-4","","NA"
"-111.93","60.03","FORT SMITH CLIMATE","2202202","2018-04-16 16:00","2018","04","16","16:00","0.2","","-4.6","","70","","0.0","","31","","10","","","","99.74","","","","","","NA"
"-111.93","60.03","FORT SMITH CLIMATE","2202202","2018-04-16 17:00","2018","04","16","17:00","0.5","","-4.2","","71","","0.0","","31","","7","","","","99.71","","","","","","NA"
"-111.93","60.03","FORT SMITH CLIMATE","2202202","2018-04-16 18:00","2018","04","16","18:00","0.7","","-3.8","","72","","0.0","","32","","8","","","","99.65","","","","","","NA"
"-111.93","60.03","FORT SMITH CLIMATE","2202202","2018-04-16 19:00","2018","04","16","19:00","0.0","","-4.1","","74","","0.0","","31","","5","","","","99.56","","","","-2","","NA"
"-111.93","60.03","FORT SMITH CLIMATE","2202202","2018-04-16 20:00","2018","04","16","20:00","-1.4","","-4.3","","80","","0.0","","30","","5","","","","99.56","","","","-3","","NA"
"-111.93","60.03","FORT SMITH CLIMATE","2202202","2018-04-16 21:00","2018","04","16","21:00","-2.2","","-4.5","","84","","0.0","","29","","2","","","","99.51","","","","-3","","NA"
"-111.93","60.03","FORT SMITH CLIMATE","2202202","2018-04-16 22:00","2018","04","16","22:00","-2.5","","-4.8","","85","","0.0","","33","","5","","","","99.48","","","","-4","","NA"
"-111.93","60.03","FORT SMITH CLIMATE","2202202","2018-04-16 23:00","2018","04","16","23:00","-2.2","","-4.6","","84","","0.0","","4","","3","","","","99.43","","","","-3","","NA"
"-111.93","60.03","FORT SMITH CLIMATE","2202202","2018-04-17 00:00","2018","04","17","00:00","-2.7","","-5.0","","84","","0.0","","5","","4","","","","99.34","","","","-4","","NA"
"-111.93","60.03","FORT SMITH CLIMATE","2202202","2018-04-17 01:00","2018","04","17","01:00","-2.2","","-4.8","","82","","0.0","","7","","6","","","","99.28","","","","-5","","NA"
"-111.93","60.03","FORT SMITH CLIMATE","2202202","2018-04-17 02:00","2018","04","17","02:00","-1.6","","-4.4","","81","","0.0","","3","","7","","","","99.21","","","","-4","","NA"
"-111.93","60.03","FORT SMITH CLIMATE","2202202","2018-04-17 03:00","2018","04","17","03:00","-1.4","","-4.1","","82","","0.0","","3","","8","","","","99.10","","","","-4","","NA"
"-111.93","60.03","FORT SMITH CLIMATE","2202202","2018-04-17 04:00","2018","04","17","04:00","-1.2","","-4.1","","81","","0.0","","3","","11","","","","99.01","","","","-5","","NA"
"-111.93","60.03","FORT SMITH CLIMATE","2202202","2018-04-17 05:00","2018","04","17","05:00","-0.9","","-3.5","","82","","0.0","","4","","7","","","","98.94","","","","-3","","NA"
"-111.93","60.03","FORT SMITH CLIMATE","2202202","2018-04-17 06:00","2018","04","17","06:00","-1.3","","-2.9","","89","","0.0","","4","","8","","","","98.86","","","","-4","","NA"
"-111.93","60.03","FORT SMITH CLIMATE","2202202","2018-04-17 07:00","2018","04","17","07:00","-1.0","","-3.2","","85","","0.0","","4","","8","","","","98.80","","","","-4","","NA"
"-111.93","60.03","FORT SMITH CLIMATE","2202202","2018-04-17 08:00","2018","04","17","08:00","-0.4","","-3.5","","80","","0.0","","4","","9","","","","98.68","","","","-4","","NA"
"-111.93","60.03","FORT SMITH CLIMATE","2202202","2018-04-17 09:00","2018","04","17","09:00","0.0","","-3.7","","76","","0.0","","5","","8","","","","98.64","","","","-3","","NA"
"-111.93","60.03","FORT SMITH CLIMATE","2202202","2018-04-17 10:00","2018","04","17","10:00","1.5","","-3.8","","68","","0.2","","5","","8","","","","98.56","","","","","","NA"
"-111.93","60.03","FORT SMITH CLIMATE","2202202","2018-04-17 11:00","2018","04","17","11:00","1.4","","-2.8","","74","","0.0","","7","","8","","","","98.48","","","","","","NA"
"-111.93","60.03","FORT SMITH CLIMATE","2202202","2018-04-17 12:00","2018","04","17","12:00","2.2","","-4.3","","62","","0.0","","5","","9","","","","98.39","","","","","","NA"
"-111.93","60.03","FORT SMITH CLIMATE","2202202","2018-04-17 13:00","2018","04","17","13:00","2.2","","-4.1","","63","","0.0","","7","","8","","","","98.37","","","","","","NA"
"-111.93","60.03","FORT SMITH CLIMATE","2202202","2018-04-17 14:00","2018","04","17","14:00","1.9","","-3.4","","68","","0.0","","7","","11","","","","98.32","","","","","","NA"
"-111.93","60.03","FORT SMITH CLIMATE","2202202","2018-04-17 15:00","2018","04","17","15:00","1.5","","-2.4","","76","","0.0","","7","","8","","","","98.28","","","","","","NA"
"-111.93","60.03","FORT SMITH CLIMATE","2202202","2018-04-17 16:00","2018","04","17","16:00","1.1","","-1.6","","82","","0.0","","7","","5","","","","98.26","","","","","","NA"
"-111.93","60.03","FORT SMITH CLIMATE","2202202","2018-04-17 17:00","2018","04","17","17:00","0.9","","-1.5","","84","","0.5","","8","","6","","","","98.25","","","","","","NA"
"-111.93","60.03","FORT SMITH CLIMATE","2202202","2018-04-17 18:00","2018","04","17","18:00","0.5","","-0.8","","91","","0.9","","5","","5","","","","98.18","","","","","","NA"
"-111.93","60.03","FORT SMITH CLIMATE","2202202","2018-04-17 19:00","2018","04","17","19:00","0.3","","-0.6","","93","","0.2","","7","","4","","","","98.11","","","","","","NA"
"-111.93","60.03","FORT SMITH CLIMATE","2202202","2018-04-17 20:00","2018","04","17","20:00","0.3","","-0.6","","94","","0.2","","8","","3","","","","98.08","","","","","","NA"
"-111.93","60.03","FORT SMITH CLIMATE","2202202","2018-04-17 21:00","2018","04","17","21:00","0.4","","-0.4","","94","","0.2","","11","","4","","","","98.03","","","","","","NA"
"-111.93","60.03","FORT SMITH CLIMATE","2202202","2018-04-17 22:00","2018","04","17","22:00","0.3","","-0.5","","94","","0.2","","14","","4","","","","97.96","","","","","","NA"
"-111.93","60.03","FORT SMITH CLIMATE","2202202","2018-04-17 23:00","2018","04","17","23:00","0.2","","-0.5","","95","","0.2","","14","","3","","","","97.94","","","","","","NA"
"-111.93","60.03","FORT SMITH CLIMATE","2202202","2018-04-18 00:00","2018","04","18","00:00","0.2","","-0.5","","95","","0.3","","16","","6","","","","97.93","","","","","","NA"
"-111.93","60.03","FORT SMITH CLIMATE","2202202","2018-04-18 01:00","2018","04","18","01:00","0.2","","-0.6","","95","","0.6","","22","","7","","","","97.96","","","","","","NA"
"-111.93","60.03","FORT SMITH CLIMATE","2202202","2018-04-18 02:00","2018","04","18","02:00","-0.1","","-1.0","","94","","0.0","","23","","10","","","","98.02","","","","-3","","NA"
"-111.93","60.03","FORT SMITH CLIMATE","2202202","2018-04-18 03:00","2018","04","18","03:00","-0.7","","-1.8","","92","","0.5","","23","","10","","","","98.05","","","","-4","","NA"
"-111.93","60.03","FORT SMITH CLIMATE","2202202","2018-04-18 04:00","2018","04","18","04:00","-1.4","","-2.5","","92","","0.0","","22","","15","","","","98.14","","","","-6","","NA"
"-111.93","60.03","FORT SMITH CLIMATE","2202202","2018-04-18 05:00","2018","04","18","05:00","-3.0","","-4.6","","89","","0.0","","22","","13","","","","98.23","","","","-8","","NA"
"-111.93","60.03","FORT SMITH CLIMATE","2202202","2018-04-18 06:00","2018","04","18","06:00","-3.7","","-5.1","","90","","0.0","","20","","11","","","","98.29","","","","-8","","NA"
"-111.93","60.03","FORT SMITH CLIMATE","2202202","2018-04-18 07:00","2018","04","18","07:00","-3.0","","-4.6","","89","","0.3","","21","","12","","","","98.34","","","","-7","","NA"
"-111.93","60.03","FORT SMITH CLIMATE","2202202","2018-04-18 08:00","2018","04","18","08:00","-2.5","","-4.5","","86","","0.3","","21","","16","","","","98.39","","","","-8","","NA"
"-111.93","60.03","FORT SMITH CLIMATE","2202202","2018-04-18 09:00","2018","04","18","09:00","-1.8","","-4.5","","82","","0.0","","23","","15","","","","98.45","","","","-7","","NA"
"-111.93","60.03","FORT SMITH CLIMATE","2202202","2018-04-18 10:00","2018","04","18","10:00","-0.4","","-3.9","","77","","0.2","","23","","16","","","","98.51","","","","-5","","NA"
"-111.93","60.03","FORT SMITH CLIMATE","2202202","2018-04-18 11:00","2018","04","18","11:00","0.4","","-3.8","","73","","0.0","","21","","16","","","","98.57","","","","","","NA"
"-111.93","60.03","FORT SMITH CLIMATE","2202202","2018-04-18 12:00","2018","04","18","12:00","1.7","","-3.7","","67","","0.0","","19","","16","","","","98.58","","","","","","NA"
"-111.93","60.03","FORT SMITH CLIMATE","2202202","2018-04-18 13:00","2018","04","18","13:00","1.5","","-1.9","","78","","0.0","","23","","9","","","","98.63","","","","","","NA"
"-111.93","60.03","FORT SMITH CLIMATE","2202202","2018-04-18 14:00","2018","04","18","14:00","2.7","","-4.1","","61","","0.3","","23","","17","","","","98.71","","","","","","NA"
"-111.93","60.03","FORT SMITH CLIMATE","2202202","2018-04-18 15:00","2018","04","18","15:00","1.9","","-4.0","","65","","0.0","","23","","18","","","","98.81","","","","","","NA"
"-111.93","60.03","FORT SMITH CLIMATE","2202202","2018-04-18 16:00","2018","04","18","16:00","1.4","","-5.5","","60","","0.2","","24","","14","","","","98.91","","","","","","NA"
"-111.93","60.03","FORT SMITH CLIMATE","2202202","2018-04-18 17:00","2018","04","18","17:00","2.0","","-8.9","","44","","0.0","","25","","18","","","","99.02","","","","","","NA"
"-111.93","60.03","FORT SMITH CLIMATE","2202202","2018-04-18 18:00","2018","04","18","18:00","1.9","","-8.9","","44","","0.0","","25","","13","","","","99.05","","","","","","NA"
"-111.93","60.03","FORT SMITH CLIMATE","2202202","2018-04-18 19:00","2018","04","18","19:00","0.9","","-8.3","","50","","0.0","","28","","7","","","","99.10","","","","","","NA"
"-111.93","60.03","FORT SMITH CLIMATE","2202202","2018-04-18 20:00","2018","04","18","20:00","-1.5","","-8.2","","61","","0.0","","27","","3","","","","99.14","","","","-3","","NA"
"-111.93","60.03","FORT SMITH CLIMATE","2202202","2018-04-18 21:00","2018","04","18","21:00","-4.0","","-7.2","","78","","0.0","","13","","1","","","","99.16","","","","-4","","NA"
"-111.93","60.03","FORT SMITH CLIMATE","2202202","2018-04-18 22:00","2018","04","18","22:00","-6.0","","-8.3","","84","","0.0","","12","","4","","","","99.17","","","","-8","","NA"
"-111.93","60.03","FORT SMITH CLIMATE","2202202","2018-04-18 23:00","2018","04","18","23:00","-5.7","","-7.7","","85","","0.0","","11","","2","","","","99.19","","","","-7","","NA"
"-111.93","60.03","FORT SMITH CLIMATE","2202202","2018-04-19 00:00","2018","04","19","00:00","-6.0","","-7.7","","88","","0.0","","12","","4","","","","99.19","","","","-8","","NA"
"-111.93","60.03","FORT SMITH CLIMATE","2202202","2018-04-19 01:00","2018","04","19","01:00","-5.2","","-8.2","","80","","0.0","","10","","5","","","","99.17","","","","-7","","NA"
"-111.93","60.03","FORT SMITH CLIMATE","2202202","2018-04-19 02:00","2018","04","19","02:00","-4.0","","-8.6","","70","","0.0","","11","","4","","","","99.14","","","","-6","","NA"
"-111.93","60.03","FORT SMITH CLIMATE","2202202","2018-04-19 03:00","2018","04","19","03:00","-3.1","","-8.7","","65","","0.0","","11","","7","","","","99.09","","","","-6","","NA"
"-111.93","60.03","FORT SMITH CLIMATE","2202202","2018-04-19 04:00","2018","04","19","04:00","-2.6","","-8.7","","63","","0.0","","13","","7","","","","99.04","","","","-5","","NA"
"-111.93","60.03","FORT SMITH CLIMATE","2202202","2018-04-19 05:00","2018","04","19","05:00","-2.6","","-8.5","","64","","0.0","","11","","8","","","","98.95","","","","-6","","NA"
"-111.93","60.03","FORT SMITH CLIMATE","2202202","2018-04-19 06:00","2018","04","19","06:00","-1.7","","-7.5","","64","","0.0","","13","","10","","","","98.89","","","","-5","","NA"
"-111.93","60.03","FORT SMITH CLIMATE","2202202","2018-04-19 07:00","2018","04","19","07:00","1.2","","-5.9","","59","","0.0","","14","","12","","","","98.81","","","","","","NA"
"-111.93","60.03","FORT SMITH CLIMATE","2202202","2018-04-19 08:00","2018","04","19","08:00","3.1","","-5.4","","54","","0.0","","15","","13","","","","98.76","","","","","","NA"
"-111.93","60.03","FORT SMITH CLIMATE","2202202","2018-04-19 09:00","2018","04","19","09:00","5.3","","-5.3","","46","","0.2","","15","","14","","","","98.72","","","","","","NA"
"-111.93","60.03","FORT SMITH CLIMATE","2202202","2018-04-19 10:00","2018","04","19","10:00","8.5","","-6.2","","35","","0.0","","15","","12","","","","98.65","","","","","","NA"
"-111.93","60.03","FORT SMITH CLIMATE","2202202","2018-04-19 11:00","2018","04","19","11:00","10.0","","-6.1","","32","","0.0","","16","","16","","","","98.59","","","","","","NA"
"-111.93","60.03","FORT SMITH CLIMATE","2202202","2018-04-19 12:00","2018","04","19","12:00","10.9","","-5.9","","30","","0.0","","17","","22","","","","98.54","","","","","","NA"
"-111.93","60.03","FORT SMITH CLIMATE","2202202","2018-04-19 13:00","2018","04","19","13:00","11.4","","-5.5","","30","","0.0","","18","","20","","","","98.51","","","","","","NA"
"-111.93","60.03","FORT SMITH CLIMATE","2202202","2018-04-19 14:00","2018","04","19","14:00","11.7","","-5.6","","29","","0.0","","18","","21","","","","98.47","","","","","","NA"
"-111.93","60.03","FORT SMITH CLIMATE","2202202","2018-04-19 15:00","2018","04","19","15:00","11.3","","-5.1","","31","","0.0","","19","","21","","","","98.44","","","","","","NA"
"-111.93","60.03","FORT SMITH CLIMATE","2202202","2018-04-19 16:00","2018","04","19","16:00","11.1","","-5.3","","31","","0.0","","18","","19","","","","98.41","","","","","","NA"
"-111.93","60.03","FORT SMITH CLIMATE","2202202","2018-04-19 17:00","2018","04","19","17:00","11.0","","-5.2","","32","","0.0","","17","","13","","","","98.38","","","","","","NA"
"-111.93","60.03","FORT SMITH CLIMATE","2202202","2018-04-19 18:00","2018","04","19","18:00","10.7","","-5.3","","32","","0.0","","17","","11","","","","98.33","","","","","","NA"
"-111.93","60.03","FORT SMITH CLIMATE","2202202","2018-04-19 19:00","2018","04","19","19:00","9.7","","-5.6","","33","","0.0","","16","","8","","","","98.30","","","","","","NA"
"-111.93","60.03","FORT SMITH CLIMATE","2202202","2018-04-19 20:00","2018","04","19","20:00","7.9","","-4.8","","40","","0.0","","14","","6","","","","98.27","","","","","","NA"
"-111.93","60.03","FORT SMITH CLIMATE","2202202","2018-04-19 21:00","2018","04","19","21:00","7.4","","-4.7","","42","","0.0","","14","","10","","","","98.20","","","","","","NA"
"-111.93","60.03","FORT SMITH CLIMATE","2202202","2018-04-19 22:00","2018","04","19","22:00","6.7","","-4.8","","44","","0.0","","15","","10","","","","98.17","","","","","","NA"
"-111.93","60.03","FORT SMITH CLIMATE","2202202","2018-04-19 23:00","2018","04","19","23:00","6.3","","-4.6","","46","","0.0","","15","","11","","","","98.15","","","","","","NA"
"-111.93","60.03","FORT SMITH CLIMATE","2202202","2018-04-20 00:00","2018","04","20","00:00","6.4","","-4.5","","46","","0.0","","15","","13","","","","98.13","","","","","","NA"
"-111.93","60.03","FORT SMITH CLIMATE","2202202","2018-04-20 01:00","2018","04","20","01:00","5.2","","-4.7","","49","","0.0","","15","","14","","","","98.11","","","","","","NA"
"-111.93","60.03","FORT SMITH CLIMATE","2202202","2018-04-20 02:00","2018","04","20","02:00","4.8","","-4.6","","50","","0.0","","15","","14","","","","98.09","","","","","","NA"
"-111.93","60.03","FORT SMITH CLIMATE","2202202","2018-04-20 03:00","2018","04","20","03:00","4.6","","-4.5","","52","","0.0","","15","","10","","","","98.07","","","","","","NA"
"-111.93","60.03","FORT SMITH CLIMATE","2202202","2018-04-20 04:00","2018","04","20","04:00","3.7","","-4.5","","55","","0.0","","15","","6","","","","98.06","","","","","","NA"
"-111.93","60.03","FORT SMITH CLIMATE","2202202","2018-04-20 05:00","2018","04","20","05:00","3.3","","-4.5","","57","","0.0","","15","","7","","","","98.06","","","","","","NA"
"-111.93","60.03","FORT SMITH CLIMATE","2202202","2018-04-20 06:00","2018","04","20","06:00","3.7","","-4.5","","55","","0.0","","14","","6","","","","98.06","","","","","","NA"
"-111.93","60.03","FORT SMITH CLIMATE","2202202","2018-04-20 07:00","2018","04","20","07:00","6.1","","-4.2","","48","","0.0","","15","","6","","","","98.05","","","","","","NA"
"-111.93","60.03","FORT SMITH CLIMATE","2202202","2018-04-20 08:00","2018","04","20","08:00","7.9","","-3.6","","44","","0.0","","19","","12","","","","98.07","","","","","","NA"
"-111.93","60.03","FORT SMITH CLIMATE","2202202","2018-04-20 09:00","2018","04","20","09:00","9.0","","-3.9","","40","","0.0","","19","","15","","","","98.07","","","","","","NA"
"-111.93","60.03","FORT SMITH CLIMATE","2202202","2018-04-20 10:00","2018","04","20","10:00","9.3","","-4.0","","39","","0.0","","19","","15","","","","98.10","","","","","","NA"
"-111.93","60.03","FORT SMITH CLIMATE","2202202","2018-04-20 11:00","2018","04","20","11:00","10.3","","-3.6","","37","","0.0","","20","","13","","","","98.16","","","","","","NA"
"-111.93","60.03","FORT SMITH CLIMATE","2202202","2018-04-20 12:00","2018","04","20","12:00","11.4","","-4.7","","32","","0.0","","20","","14","","","","98.17","","","","","","NA"
"-111.93","60.03","FORT SMITH CLIMATE","2202202","2018-04-20 13:00","2018","04","20","13:00","12.3","","-4.1","","32","","0.0","","20","","16","","","","98.21","","","","","","NA"
"-111.93","60.03","FORT SMITH CLIMATE","2202202","2018-04-20 14:00","2018","04","20","14:00","12.8","","-4.6","","30","","0.0","","19","","14","","","","98.25","","","","","","NA"
"-111.93","60.03","FORT SMITH CLIMATE","2202202","2018-04-20 15:00","2018","04","20","15:00","12.1","","-4.4","","31","","0.0","","19","","15","","","","98.30","","","","","","NA"
"-111.93","60.03","FORT SMITH CLIMATE","2202202","2018-04-20 16:00","2018","04","20","16:00","11.3","","-4.8","","32","","0.0","","16","","10","","","","98.36","","","","","","NA"
"-111.93","60.03","FORT SMITH CLIMATE","2202202","2018-04-20 17:00","2018","04","20","17:00","12.8","","-5.1","","28","","0.0","","24","","4","","","","98.41","","","","","","NA"
"-111.93","60.03","FORT SMITH CLIMATE","2202202","2018-04-20 18:00","2018","04","20","18:00","12.2","","-6.7","","26","","0.0","","22","","9","","","","98.46","","","","","","NA"
"-111.93","60.03","FORT SMITH CLIMATE","2202202","2018-04-20 19:00","2018","04","20","19:00","11.2","","-7.0","","27","","0.0","","23","","8","","","","98.52","","","","","","NA"
"-111.93","60.03","FORT SMITH CLIMATE","2202202","2018-04-20 20:00","2018","04","20","20:00","8.8","","-6.5","","33","","0.0","","25","","6","","","","98.59","","","","","","NA"
"-111.93","60.03","FORT SMITH CLIMATE","2202202","2018-04-20 21:00","2018","04","20","21:00","7.9","","-5.7","","37","","0.0","","31","","5","","","","98.65","","","","","","NA"
"-111.93","60.03","FORT SMITH CLIMATE","2202202","2018-04-20 22:00","2018","04","20","22:00","6.0","","-6.6","","40","","0.0","","35","","3","","","","98.68","","","","","","NA"
"-111.93","60.03","FORT SMITH CLIMATE","2202202","2018-04-20 23:00","2018","04","20","23:00","5.7","","-6.8","","40","","0.0","","33","","2","","","","98.76","","","","","","NA"
"-111.93","60.03","FORT SMITH CLIMATE","2202202","2018-04-21 00:00","2018","04","21","00:00","4.9","","-6.7","","43","","0.0","","35","","3","","","","98.81","","","","","","NA"
"-111.93","60.03","FORT SMITH CLIMATE","2202202","2018-04-21 01:00","2018","04","21","01:00","2.7","","-5.6","","54","","0.0","","9","","2","","","","98.84","","","","","","NA"
"-111.93","60.03","FORT SMITH CLIMATE","2202202","2018-04-21 02:00","2018","04","21","02:00","0.8","","-5.9","","61","","0.0","","12","","2","","","","98.86","","","","","","NA"
"-111.93","60.03","FORT SMITH CLIMATE","2202202","2018-04-21 03:00","2018","04","21","03:00","-0.2","","-5.8","","66","","0.0","","0","","1","","","","98.91","","","","-1","","NA"
"-111.93","60.03","FORT SMITH CLIMATE","2202202","2018-04-21 04:00","2018","04","21","04:00","0.6","","-5.8","","62","","0.4","","30","","6","","","","98.94","","","","","","NA"
"-111.93","60.03","FORT SMITH CLIMATE","2202202","2018-04-21 05:00","2018","04","21","05:00","1.2","","-5.8","","59","","0.0","","32","","4","","","","98.97","","","","","","NA"
"-111.93","60.03","FORT SMITH CLIMATE","2202202","2018-04-21 06:00","2018","04","21","06:00","0.9","","-5.2","","64","","0.0","","34","","5","","","","98.99","","","","","","NA"
"-111.93","60.03","FORT SMITH CLIMATE","2202202","2018-04-21 07:00","2018","04","21","07:00","2.9","","-5.5","","54","","0.2","","36","","5","","","","98.99","","","","","","NA"
"-111.93","60.03","FORT SMITH CLIMATE","2202202","2018-04-21 08:00","2018","04","21","08:00","4.4","","-5.6","","48","","0.0","","2","","9","","","","99.00","","","","","","NA"
"-111.93","60.03","FORT SMITH CLIMATE","2202202","2018-04-21 09:00","2018","04","21","09:00","6.2","","-6.1","","41","","0.0","","3","","11","","","","98.96","","","","","","NA"
"-111.93","60.03","FORT SMITH CLIMATE","2202202","2018-04-21 10:00","2018","04","21","10:00","7.7","","-6.5","","36","","0.0","","2","","9","","","","98.96","","","","","","NA"
"-111.93","60.03","FORT SMITH CLIMATE","2202202","2018-04-21 11:00","2018","04","21","11:00","9.0","","-6.3","","33","","0.0","","3","","10","","","","98.93","","","","","","NA"
"-111.93","60.03","FORT SMITH CLIMATE","2202202","2018-04-21 12:00","2018","04","21","12:00","9.6","","-6.6","","31","","0.0","","3","","11","","","","98.91","","","","","","NA"
"-111.93","60.03","FORT SMITH CLIMATE","2202202","2018-04-21 13:00","2018","04","21","13:00","9.9","","-6.4","","31","","0.0","","2","","9","","","","98.88","","","","","","NA"
"-111.93","60.03","FORT SMITH CLIMATE","2202202","2018-04-21 14:00","2018","04","21","14:00","10.4","","-6.8","","29","","0.0","","3","","9","","","","98.86","","","","","","NA"
"-111.93","60.03","FORT SMITH CLIMATE","2202202","2018-04-21 15:00","2018","04","21","15:00","10.3","","-6.7","","30","","0.0","","2","","9","","","","98.80","","","","","","NA"
"-111.93","60.03","FORT SMITH CLIMATE","2202202","2018-04-21 16:00","2018","04","21","16:00","10.9","","-6.6","","28","","0.0","","3","","9","","","","98.76","","","","","","NA"
"-111.93","60.03","FORT SMITH CLIMATE","2202202","2018-04-21 17:00","2018","04","21","17:00","10.0","","-6.0","","32","","0.0","","2","","12","","","","98.76","","","","","","NA"
"-111.93","60.03","FORT SMITH CLIMATE","2202202","2018-04-21 18:00","2018","04","21","18:00","8.9","","-5.3","","36","","0.0","","2","","9","","","","98.75","","","","","","NA"
"-111.93","60.03","FORT SMITH CLIMATE","2202202","2018-04-21 19:00","2018","04","21","19:00","8.1","","-4.6","","40","","0.0","","2","","8","","","","98.76","","","","","","NA"
"-111.93","60.03","FORT SMITH CLIMATE","2202202","2018-04-21 20:00","2018","04","21","20:00","6.8","","-3.8","","47","","0.0","","3","","9","","","","98.78","","","","","","NA"
"-111.93","60.03","FORT SMITH CLIMATE","2202202","2018-04-21 21:00","2018","04","21","21:00","6.3","","-3.7","","49","","0.0","","3","","7","","","","98.76","","","","","","NA"
"-111.93","60.03","FORT SMITH CLIMATE","2202202","2018-04-21 22:00","2018","04","21","22:00","5.6","","-3.5","","52","","0.0","","3","","7","","","","98.73","","","","","","NA"
"-111.93","60.03","FORT SMITH CLIMATE","2202202","2018-04-21 23:00","2018","04","21","23:00","5.3","","-3.4","","54","","0.0","","3","","6","","","","98.73","","","","","","NA"
"-111.93","60.03","FORT SMITH CLIMATE","2202202","2018-04-22 00:00","2018","04","22","00:00","4.7","","-3.0","","57","","0.0","","2","","8","","","","98.73","","","","","","NA"
"-111.93","60.03","FORT SMITH CLIMATE","2202202","2018-04-22 01:00","2018","04","22","01:00","4.0","","-2.7","","62","","0.0","","4","","5","","","","98.75","","","","","","NA"
"-111.93","60.03","FORT SMITH CLIMATE","2202202","2018-04-22 02:00","2018","04","22","02:00","3.6","","-2.6","","64","","0.0","","3","","8","","","","98.74","","","","","","NA"
"-111.93","60.03","FORT SMITH CLIMATE","2202202","2018-04-22 03:00","2018","04","22","03:00","3.2","","-2.7","","65","","0.0","","2","","7","","","","98.77","","","","","","NA"
"-111.93","60.03","FORT SMITH CLIMATE","2202202","2018-04-22 04:00","2018","04","22","04:00","2.3","","-2.9","","69","","0.0","","1","","6","","","","98.77","","","","","","NA"
"-111.93","60.03","FORT SMITH CLIMATE","2202202","2018-04-22 05:00","2018","04","22","05:00","1.5","","-2.9","","73","","0.0","","35","","4","","","","98.79","","","","","","NA"
"-111.93","60.03","FORT SMITH CLIMATE","2202202","2018-04-22 06:00","2018","04","22","06:00","1.4","","-3.2","","71","","0.0","","35","","3","","","","98.83","","","","","","NA"
"-111.93","60.03","FORT SMITH CLIMATE","2202202","2018-04-22 07:00","2018","04","22","07:00","1.6","","-3.3","","70","","0.0","","34","","6","","","","98.88","","","","","","NA"
"-111.93","60.03","FORT SMITH CLIMATE","2202202","2018-04-22 08:00","2018","04","22","08:00","2.2","","-3.7","","65","","0.0","","29","","8","","","","98.86","","","","","","NA"
"-111.93","60.03","FORT SMITH CLIMATE","2202202","2018-04-22 09:00","2018","04","22","09:00","3.1","","-3.6","","61","","0.0","","28","","10","","","","98.86","","","","","","NA"
"-111.93","60.03","FORT SMITH CLIMATE","2202202","2018-04-22 10:00","2018","04","22","10:00","3.7","","-3.9","","58","","0.0","","31","","10","","","","98.93","","","","","","NA"
"-111.93","60.03","FORT SMITH CLIMATE","2202202","2018-04-22 11:00","2018","04","22","11:00","4.9","","-3.7","","53","","0.0","","30","","11","","","","98.95","","","","","","NA"
"-111.93","60.03","FORT SMITH CLIMATE","2202202","2018-04-22 12:00","2018","04","22","12:00","5.6","","-4.6","","48","","0.0","","32","","12","","","","98.99","","","","","","NA"
"-111.93","60.03","FORT SMITH CLIMATE","2202202","2018-04-22 13:00","2018","04","22","13:00","6.7","","-4.3","","45","","0.0","","31","","9","","","","99.04","","","","","","NA"
"-111.93","60.03","FORT SMITH CLIMATE","2202202","2018-04-22 14:00","2018","04","22","14:00","6.6","","-2.8","","51","","0.0","","28","","15","","","","99.08","","","","","","NA"
"-111.93","60.03","FORT SMITH CLIMATE","2202202","2018-04-22 15:00","2018","04","22","15:00","3.8","","-2.6","","63","","0.0","","26","","16","","","","99.22","","","","","","NA"
"-111.93","60.03","FORT SMITH CLIMATE","2202202","2018-04-22 16:00","2018","04","22","16:00","1.8","","-3.4","","68","","0.0","","26","","16","","","","99.32","","","","","","NA"
"-111.93","60.03","FORT SMITH CLIMATE","2202202","2018-04-22 17:00","2018","04","22","17:00","0.6","","-4.4","","69","","0.0","","25","","16","","","","99.42","","","","","","NA"
"-111.93","60.03","FORT SMITH CLIMATE","2202202","2018-04-22 18:00","2018","04","22","18:00","-0.8","","-4.4","","77","","0.0","","25","","15","","","","99.51","","","","-5","","NA"
"-111.93","60.03","FORT SMITH CLIMATE","2202202","2018-04-22 19:00","2018","04","22","19:00","-2.1","","-3.8","","88","","0.0","","27","","11","","","","99.57","","","","-6","","NA"
"-111.93","60.03","FORT SMITH CLIMATE","2202202","2018-04-22 20:00","2018","04","22","20:00","-2.3","","-3.8","","90","","0.0","","28","","8","","","","99.60","","","","-5","","NA"
"-111.93","60.03","FORT SMITH CLIMATE","2202202","2018-04-22 21:00","2018","04","22","21:00","-2.1","","-3.7","","89","","0.0","","26","","6","","","","99.63","","","","-4","","NA"
"-111.93","60.03","FORT SMITH CLIMATE","2202202","2018-04-22 22:00","2018","04","22","22:00","-2.2","","-3.6","","90","","0.0","","26","","6","","","","99.64","","","","-5","","NA"
"-111.93","60.03","FORT SMITH CLIMATE","2202202","2018-04-22 23:00","2018","04","22","23:00","-2.2","","-3.5","","91","","0.0","","25","","6","","","","99.66","","","","-5","","NA"
"-111.93","60.03","FORT SMITH CLIMATE","2202202","2018-04-23 00:00","2018","04","23","00:00","-2.3","","-3.9","","89","","0.0","","27","","8","","","","99.70","","","","-5","","NA"
"-111.93","60.03","FORT SMITH CLIMATE","2202202","2018-04-23 01:00","2018","04","23","01:00","-2.4","","-4.4","","87","","0.0","","28","","10","","","","99.74","","","","-6","","NA"
"-111.93","60.03","FORT SMITH CLIMATE","2202202","2018-04-23 02:00","2018","04","23","02:00","-2.5","","-4.3","","87","","0.0","","27","","8","","","","99.78","","","","-6","","NA"
"-111.93","60.03","FORT SMITH CLIMATE","2202202","2018-04-23 03:00","2018","04","23","03:00","-2.6","","-4.4","","88","","0.0","","30","","6","","","","99.84","","","","-5","","NA"
"-111.93","60.03","FORT SMITH CLIMATE","2202202","2018-04-23 04:00","2018","04","23","04:00","-2.9","","-5.0","","86","","0.0","","30","","9","","","","99.92","","","","-6","","NA"
"-111.93","60.03","FORT SMITH CLIMATE","2202202","2018-04-23 05:00","2018","04","23","05:00","-3.1","","-5.0","","87","","0.0","","28","","5","","","","99.96","","","","-5","","NA"
"-111.93","60.03","FORT SMITH CLIMATE","2202202","2018-04-23 06:00","2018","04","23","06:00","-2.9","","-5.3","","84","","0.0","","26","","2","","","","99.98","","","","-4","","NA"
"-111.93","60.03","FORT SMITH CLIMATE","2202202","2018-04-23 07:00","2018","04","23","07:00","-2.2","","-5.3","","79","","0.3","","23","","8","","","","100.01","","","","-5","","NA"
"-111.93","60.03","FORT SMITH CLIMATE","2202202","2018-04-23 08:00","2018","04","23","08:00","-0.9","","-5.5","","71","","0.0","","24","","8","","","","100.04","","","","-4","","NA"
"-111.93","60.03","FORT SMITH CLIMATE","2202202","2018-04-23 09:00","2018","04","23","09:00","0.6","","-6.7","","58","","0.0","","21","","7","","","","100.04","","","","","","NA"
"-111.93","60.03","FORT SMITH CLIMATE","2202202","2018-04-23 10:00","2018","04","23","10:00","2.2","","-8.6","","45","","0.2","","18","","4","","","","100.02","","","","","","NA"
"-111.93","60.03","FORT SMITH CLIMATE","2202202","2018-04-23 11:00","2018","04","23","11:00","4.8","","-10.0","","33","","0.0","","20","","2","","","","99.98","","","","","","NA"
"-111.93","60.03","FORT SMITH CLIMATE","2202202","2018-04-23 12:00","2018","04","23","12:00","6.3","","-9.0","","33","","0.4","","26","","3","","","","99.97","","","","","","NA"
"-111.93","60.03","FORT SMITH CLIMATE","2202202","2018-04-23 13:00","2018","04","23","13:00","6.9","","-9.3","","30","","0.0","","19","","9","","","","99.94","","","","","","NA"
"-111.93","60.03","FORT SMITH CLIMATE","2202202","2018-04-23 14:00","2018","04","23","14:00","7.5","","-8.0","","33","","0.0","","19","","10","","","","99.88","","","","","","NA"
"-111.93","60.03","FORT SMITH CLIMATE","2202202","2018-04-23 15:00","2018","04","23","15:00","8.9","","-8.2","","29","","0.0","","19","","7","","","","99.82","","","","","","NA"
"-111.93","60.03","FORT SMITH CLIMATE","2202202","2018-04-23 16:00","2018","04","23","16:00","9.2","","-8.4","","28","","0.0","","17","","7","","","","99.77","","","","","","NA"
"-111.93","60.03","FORT SMITH CLIMATE","2202202","2018-04-23 17:00","2018","04","23","17:00","9.8","","-8.5","","27","","0.0","","17","","10","","","","99.69","","","","","","NA"
"-111.93","60.03","FORT SMITH CLIMATE","2202202","2018-04-23 18:00","2018","04","23","18:00","10.0","","-8.3","","27","","0.0","","18","","7","","","","99.63","","","","","","NA"
"-111.93","60.03","FORT SMITH CLIMATE","2202202","2018-04-23 19:00","2018","04","23","19:00","8.2","","-7.5","","32","","0.0","","14","","4","","","","99.57","","","","","","NA"
"-111.93","60.03","FORT SMITH CLIMATE","2202202","2018-04-23 20:00","2018","04","23","20:00","7.6","","-4.1","","43","","0.5","","14","","8","","","","99.51","","","","","","NA"
"-111.93","60.03","FORT SMITH CLIMATE","2202202","2018-04-23 21:00","2018","04","23","21:00","6.8","","-3.8","","47","","0.0","","14","","11","","","","99.46","","","","","","NA"
"-111.93","60.03","FORT SMITH CLIMATE","2202202","2018-04-23 22:00","2018","04","23","22:00","6.0","","-4.2","","48","","0.0","","13","","8","","","","99.43","","","","","","NA"
"-111.93","60.03","FORT SMITH CLIMATE","2202202","2018-04-23 23:00","2018","04","23","23:00","5.0","","-4.6","","50","","0.0","","14","","9","","","","99.38","","","","","","NA"
"-111.93","60.03","FORT SMITH CLIMATE","2202202","2018-04-24 00:00","2018","04","24","00:00","4.2","","-4.7","","52","","0.0","","13","","9","","","","99.29","","","","","","NA"
"-111.93","60.03","FORT SMITH CLIMATE","2202202","2018-04-24 01:00","2018","04","24","01:00","3.1","","-4.8","","56","","0.0","","13","","7","","","","99.20","","","","","","NA"
"-111.93","60.03","FORT SMITH CLIMATE","2202202","2018-04-24 02:00","2018","04","24","02:00","2.7","","-5.2","","56","","0.0","","13","","8","","","","99.10","","","","","","NA"
"-111.93","60.03","FORT SMITH CLIMATE","2202202","2018-04-24 03:00","2018","04","24","03:00","2.5","","-5.3","","56","","0.0","","12","","4","","","","98.98","","","","","","NA"
"-111.93","60.03","FORT SMITH CLIMATE","2202202","2018-04-24 04:00","2018","04","24","04:00","2.4","","-5.5","","56","","0.0","","11","","5","","","","98.85","","","","","","NA"
"-111.93","60.03","FORT SMITH CLIMATE","2202202","2018-04-24 05:00","2018","04","24","05:00","2.0","","-5.3","","58","","0.0","","13","","6","","","","98.76","","","","","","NA"
"-111.93","60.03","FORT SMITH CLIMATE","2202202","2018-04-24 06:00","2018","04","24","06:00","2.5","","-5.0","","58","","0.0","","13","","5","","","","98.68","","","","","","NA"
"-111.93","60.03","FORT SMITH CLIMATE","2202202","2018-04-24 07:00","2018","04","24","07:00","3.1","","-4.6","","57","","0.0","","14","","5","","","","98.62","","","","","","NA"
"-111.93","60.03","FORT SMITH CLIMATE","2202202","2018-04-24 08:00","2018","04","24","08:00","4.6","","-4.6","","51","","0.0","","17","","3","","","","98.55","","","","","","NA"
"-111.93","60.03","FORT SMITH CLIMATE","2202202","2018-04-24 09:00","2018","04","24","09:00","6.4","","-4.1","","47","","0.3","","12","","6","","","","98.44","","","","","","NA"
"-111.93","60.03","FORT SMITH CLIMATE","2202202","2018-04-24 10:00","2018","04","24","10:00","7.9","","-4.4","","41","","0.0","","17","","7","","","","98.36","","","","","","NA"
"-111.93","60.03","FORT SMITH CLIMATE","2202202","2018-04-24 11:00","2018","04","24","11:00","9.3","","-3.9","","39","","0.0","","16","","6","","","","98.29","","","","","","NA"
"-111.93","60.03","FORT SMITH CLIMATE","2202202","2018-04-24 12:00","2018","04","24","12:00","10.2","","-3.3","","39","","0.0","","19","","9","","","","98.31","","","","","","NA"
"-111.93","60.03","FORT SMITH CLIMATE","2202202","2018-04-24 13:00","2018","04","24","13:00","10.9","","-3.2","","37","","0.0","","23","","16","","","","98.26","","","","","","NA"
"-111.93","60.03","FORT SMITH CLIMATE","2202202","2018-04-24 14:00","2018","04","24","14:00","11.3","","-2.7","","38","","0.0","","23","","15","","","","98.30","","","","","","NA"
"-111.93","60.03","FORT SMITH CLIMATE","2202202","2018-04-24 15:00","2018","04","24","15:00","10.0","","-1.6","","44","","0.0","","23","","21","","","","98.38","","","","","","NA"
"-111.93","60.03","FORT SMITH CLIMATE","2202202","2018-04-24 16:00","2018","04","24","16:00","7.5","","0.9","","63","","0.0","","26","","24","","","","98.51","","","","","","NA"
"-111.93","60.03","FORT SMITH CLIMATE","2202202","2018-04-24 17:00","2018","04","24","17:00","8.1","","1.0","","61","","0.0","","23","","17","","","","98.52","","","","","","NA"
"-111.93","60.03","FORT SMITH CLIMATE","2202202","2018-04-24 18:00","2018","04","24","18:00","9.0","","0.5","","55","","0.0","","23","","14","","","","98.51","","","","","","NA"
"-111.93","60.03","FORT SMITH CLIMATE","2202202","2018-04-24 19:00","2018","04","24","19:00","9.3","","-0.2","","52","","0.0","","23","","15","","","","98.51","","","","","","NA"
"-111.93","60.03","FORT SMITH CLIMATE","2202202","2018-04-24 20:00","2018","04","24","20:00","8.3","","-0.1","","55","","0.0","","24","","9","","","","98.54","","","","","","NA"
"-111.93","60.03","FORT SMITH CLIMATE","2202202","2018-04-24 21:00","2018","04","24","21:00","7.1","","-0.5","","59","","0.0","","30","","8","","","","98.60","","","","","","NA"
"-111.93","60.03","FORT SMITH CLIMATE","2202202","2018-04-24 22:00","2018","04","24","22:00","6.0","","-2.0","","56","","0.0","","30","","8","","","","98.66","","","","","","NA"
"-111.93","60.03","FORT SMITH CLIMATE","2202202","2018-04-24 23:00","2018","04","24","23:00","4.6","","-2.7","","59","","0.0","","28","","7","","","","98.72","","","","","","NA"
"-111.93","60.03","FORT SMITH CLIMATE","2202202","2018-04-25 00:00","2018","04","25","00:00","3.7","","-2.7","","63","","0.0","","25","","11","","","","98.77","","","","","","NA"
"-111.93","60.03","FORT SMITH CLIMATE","2202202","2018-04-25 01:00","2018","04","25","01:00","2.2","","-2.7","","70","","0.0","","26","","10","","","","98.85","","","","","","NA"
"-111.93","60.03","FORT SMITH CLIMATE","2202202","2018-04-25 02:00","2018","04","25","02:00","0.6","","-3.1","","76","","0.0","","29","","7","","","","98.91","","","","","","NA"
"-111.93","60.03","FORT SMITH CLIMATE","2202202","2018-04-25 03:00","2018","04","25","03:00","-0.6","","-3.2","","83","","0.0","","26","","5","","","","98.97","","","","-2","","NA"
"-111.93","60.03","FORT SMITH CLIMATE","2202202","2018-04-25 04:00","2018","04","25","04:00","-1.7","","-3.3","","89","","0.0","","28","","6","","","","99.05","","","","-4","","NA"
"-111.93","60.03","FORT SMITH CLIMATE","2202202","2018-04-25 05:00","2018","04","25","05:00","-1.8","","-3.2","","90","","0.0","","31","","7","","","","99.12","","","","-4","","NA"
"-111.93","60.03","FORT SMITH CLIMATE","2202202","2018-04-25 06:00","2018","04","25","06:00","-1.2","","-2.9","","88","","0.2","","34","","5","","","","99.17","","","","-3","","NA"
"-111.93","60.03","FORT SMITH CLIMATE","2202202","2018-04-25 07:00","2018","04","25","07:00","-1.0","","-2.9","","87","","0.0","","35","","3","","","","99.21","","","","-2","","NA"
"-111.93","60.03","FORT SMITH CLIMATE","2202202","2018-04-25 08:00","2018","04","25","08:00","-0.7","","-3.2","","83","","0.2","","35","","3","","","","99.19","","","","-2","","NA"
"-111.93","60.03","FORT SMITH CLIMATE","2202202","2018-04-25 09:00","2018","04","25","09:00","0.4","","-3.1","","77","","0.0","","17","","3","","","","99.25","","","","","","NA"
"-111.93","60.03","FORT SMITH CLIMATE","2202202","2018-04-25 10:00","2018","04","25","10:00","3.2","","-2.7","","65","","0.0","","17","","3","","","","99.19","","","","","","NA"
"-111.93","60.03","FORT SMITH CLIMATE","2202202","2018-04-25 11:00","2018","04","25","11:00","5.1","","-3.0","","56","","0.0","","10","","5","","","","99.17","","","","","","NA"
"-111.93","60.03","FORT SMITH CLIMATE","2202202","2018-04-25 12:00","2018","04","25","12:00","6.8","","-3.0","","50","","0.0","","6","","7","","","","99.05","","","","","","NA"
"-111.93","60.03","FORT SMITH CLIMATE","2202202","2018-04-25 13:00","2018","04","25","13:00","8.9","","-3.9","","40","","0.0","","12","","10","","","","98.98","","","","","","NA"
"-111.93","60.03","FORT SMITH CLIMATE","2202202","2018-04-25 14:00","2018","04","25","14:00","10.1","","-5.3","","34","","0.2","","13","","9","","","","98.89","","","","","","NA"
"-111.93","60.03","FORT SMITH CLIMATE","2202202","2018-04-25 15:00","2018","04","25","15:00","10.1","","-4.2","","36","","0.0","","15","","12","","","","98.80","","","","","","NA"
"-111.93","60.03","FORT SMITH CLIMATE","2202202","2018-04-25 16:00","2018","04","25","16:00","11.4","","-4.2","","33","","0.0","","13","","11","","","","98.70","","","","","","NA"
"-111.93","60.03","FORT SMITH CLIMATE","2202202","2018-04-25 17:00","2018","04","25","17:00","11.0","","-3.6","","36","","0.0","","12","","7","","","","98.57","","","","","","NA"
"-111.93","60.03","FORT SMITH CLIMATE","2202202","2018-04-25 18:00","2018","04","25","18:00","10.3","","-3.0","","39","","0.0","","12","","8","","","","98.48","","","","","","NA"
"-111.93","60.03","FORT SMITH CLIMATE","2202202","2018-04-25 19:00","2018","04","25","19:00","9.1","","-1.5","","47","","0.0","","11","","7","","","","98.38","","","","","","NA"
"-111.93","60.03","FORT SMITH CLIMATE","2202202","2018-04-25 20:00","2018","04","25","20:00","7.5","","-1.5","","53","","0.0","","10","","7","","","","98.32","","","","","","NA"
"-111.93","60.03","FORT SMITH CLIMATE","2202202","2018-04-25 21:00","2018","04","25","21:00","6.8","","-2.2","","53","","0.0","","15","","7","","","","98.24","","","","","","NA"
"-111.93","60.03","FORT SMITH CLIMATE","2202202","2018-04-25 22:00","2018","04","25","22:00","4.3","","-1.8","","65","","0.0","","14","","6","","","","98.18","","","","","","NA"
"-111.93","60.03","FORT SMITH CLIMATE","2202202","2018-04-25 23:00","2018","04","25","23:00","1.2","","-2.8","","74","","0.0","","20","","5","","","","98.23","","","","","","NA"
"-111.93","60.03","FORT SMITH CLIMATE","2202202","2018-04-26 00:00","2018","04","26","00:00","6.8","","-2.7","","50","","0.0","","24","","12","","","","98.26","","","","","","NA"
"-111.93","60.03","FORT SMITH CLIMATE","2202202","2018-04-26 01:00","2018","04","26","01:00","5.9","","-2.4","","55","","0.0","","25","","12","","","","98.35","","","","","","NA"
"-111.93","60.03","FORT SMITH CLIMATE","2202202","2018-04-26 02:00","2018","04","26","02:00","5.1","","-2.1","","60","","0.0","","26","","15","","","","98.42","","","","","","NA"
"-111.93","60.03","FORT SMITH CLIMATE","2202202","2018-04-26 03:00","2018","04","26","03:00","4.0","","-1.9","","65","","0.0","","28","","12","","","","98.51","","","","","","NA"
"-111.93","60.03","FORT SMITH CLIMATE","2202202","2018-04-26 04:00","2018","04","26","04:00","3.3","","-1.7","","69","","0.0","","29","","12","","","","98.62","","","","","","NA"
"-111.93","60.03","FORT SMITH CLIMATE","2202202","2018-04-26 05:00","2018","04","26","05:00","2.7","","-2.1","","71","","0.0","","28","","13","","","","98.72","","","","","","NA"
"-111.93","60.03","FORT SMITH CLIMATE","2202202","2018-04-26 06:00","2018","04","26","06:00","3.1","","-1.5","","71","","0.0","","27","","15","","","","98.85","","","","","","NA"
"-111.93","60.03","FORT SMITH CLIMATE","2202202","2018-04-26 07:00","2018","04","26","07:00","4.3","","-0.9","","69","","0.0","","29","","17","","","","98.98","","","","","","NA"
"-111.93","60.03","FORT SMITH CLIMATE","2202202","2018-04-26 08:00","2018","04","26","08:00","5.1","","-0.8","","65","","0.0","","29","","18","","","","99.07","","","","","","NA"
"-111.93","60.03","FORT SMITH CLIMATE","2202202","2018-04-26 09:00","2018","04","26","09:00","5.2","","-0.6","","66","","0.0","","29","","16","","","","99.20","","","","","","NA"
"-111.93","60.03","FORT SMITH CLIMATE","2202202","2018-04-26 10:00","2018","04","26","10:00","6.7","","0.1","","62","","0.0","","29","","16","","","","99.26","","","","","","NA"
"-111.93","60.03","FORT SMITH CLIMATE","2202202","2018-04-26 11:00","2018","04","26","11:00","9.0","","0.3","","54","","0.0","","28","","14","","","","99.28","","","","","","NA"
"-111.93","60.03","FORT SMITH CLIMATE","2202202","2018-04-26 12:00","2018","04","26","12:00","10.4","","-0.5","","47","","0.0","","25","","18","","","","99.31","","","","","","NA"
"-111.93","60.03","FORT SMITH CLIMATE","2202202","2018-04-26 13:00","2018","04","26","13:00","12.3","","-1.8","","37","","0.0","","27","","14","","","","99.33","","","","","","NA"
"-111.93","60.03","FORT SMITH CLIMATE","2202202","2018-04-26 14:00","2018","04","26","14:00","12.3","","-6.1","","27","","0.0","","26","","18","","","","99.36","","","","","","NA"
"-111.93","60.03","FORT SMITH CLIMATE","2202202","2018-04-26 15:00","2018","04","26","15:00","12.3","","-6.2","","27","","0.0","","27","","22","","","","99.40","","","","","","NA"
"-111.93","60.03","FORT SMITH CLIMATE","2202202","2018-04-26 16:00","2018","04","26","16:00","12.7","","-7.2","","24","","0.0","","31","","16","","","","99.40","","","","","","NA"
"-111.93","60.03","FORT SMITH CLIMATE","2202202","2018-04-26 17:00","2018","04","26","17:00","12.6","","-6.6","","26","","0.0","","29","","13","","","","99.42","","","","","","NA"
"-111.93","60.03","FORT SMITH CLIMATE","2202202","2018-04-26 18:00","2018","04","26","18:00","11.8","","-6.8","","26","","0.0","","28","","13","","","","99.43","","","","","","NA"
"-111.93","60.03","FORT SMITH CLIMATE","2202202","2018-04-26 19:00","2018","04","26","19:00","11.0","","-7.0","","28","","0.0","","29","","7","","","","99.42","","","","","","NA"
"-111.93","60.03","FORT SMITH CLIMATE","2202202","2018-04-26 20:00","2018","04","26","20:00","6.7","","-6.6","","38","","0.0","","21","","3","","","","99.40","","","","","","NA"
"-111.93","60.03","FORT SMITH CLIMATE","2202202","2018-04-26 21:00","2018","04","26","21:00","2.9","","-5.8","","53","","0.0","","","","0","","","","99.41","","","","","","NA"
"-111.93","60.03","FORT SMITH CLIMATE","2202202","2018-04-26 22:00","2018","04","26","22:00","1.6","","-5.7","","58","","0.0","","16","","4","","","","99.38","","","","","","NA"
"-111.93","60.03","FORT SMITH CLIMATE","2202202","2018-04-26 23:00","2018","04","26","23:00","0.5","","-5.7","","63","","0.0","","0","","1","","","","99.35","","","","","","NA"
"-111.93","60.03","FORT SMITH CLIMATE","2202202","2018-04-27 00:00","2018","04","27","00:00","-0.1","","-5.9","","65","","0.0","","13","","2","","","","99.36","","","","-1","","NA"
"-111.93","60.03","FORT SMITH CLIMATE","2202202","2018-04-27 01:00","2018","04","27","01:00","-1.6","","-5.7","","73","","0.0","","12","","1","","","","99.36","","","","-2","","NA"
"-111.93","60.03","FORT SMITH CLIMATE","2202202","2018-04-27 02:00","2018","04","27","02:00","-1.7","","-4.8","","80","","0.0","","","","0","","","","99.36","","","","","","NA"
"-111.93","60.03","FORT SMITH CLIMATE","2202202","2018-04-27 03:00","2018","04","27","03:00","-1.6","","-4.4","","81","","0.0","","13","","1","","","","99.33","","","","-2","","NA"
"-111.93","60.03","FORT SMITH CLIMATE","2202202","2018-04-27 04:00","2018","04","27","04:00","-2.1","","-5.1","","80","","0.0","","10","","4","","","","99.30","","","","-4","","NA"
"-111.93","60.03","FORT SMITH CLIMATE","2202202","2018-04-27 05:00","2018","04","27","05:00","-0.1","","-5.0","","69","","0.0","","10","","4","","","","99.25","","","","-1","","NA"
"-111.93","60.03","FORT SMITH CLIMATE","2202202","2018-04-27 06:00","2018","04","27","06:00","3.6","","-5.1","","53","","0.4","","12","","7","","","","99.17","","","","","","NA"
"-111.93","60.03","FORT SMITH CLIMATE","2202202","2018-04-27 07:00","2018","04","27","07:00","4.2","","-4.1","","55","","0.3","","4","","3","","","","99.09","","","","","","NA"
"-111.93","60.03","FORT SMITH CLIMATE","2202202","2018-04-27 08:00","2018","04","27","08:00","9.0","","-4.6","","38","","0.0","","6","","5","","","","98.98","","","","","","NA"
"-111.93","60.03","FORT SMITH CLIMATE","2202202","2018-04-27 09:00","2018","04","27","09:00","10.7","","-5.0","","33","","0.0","","7","","10","","","","98.87","","","","","","NA"
"-111.93","60.03","FORT SMITH CLIMATE","2202202","2018-04-27 10:00","2018","04","27","10:00","12.2","","-5.0","","30","","0.0","","7","","11","","","","98.76","","","","","","NA"
"-111.93","60.03","FORT SMITH CLIMATE","2202202","2018-04-27 11:00","2018","04","27","11:00","12.9","","-4.8","","29","","0.0","","8","","10","","","","98.66","","","","","","NA"
"-111.93","60.03","FORT SMITH CLIMATE","2202202","2018-04-27 12:00","2018","04","27","12:00","14.3","","-4.7","","26","","0.2","","7","","8","","","","98.58","","","","","","NA"
"-111.93","60.03","FORT SMITH CLIMATE","2202202","2018-04-27 13:00","2018","04","27","13:00","15.9","","-4.4","","24","","0.0","","7","","9","","","","98.46","","","","","","NA"
"-111.93","60.03","FORT SMITH CLIMATE","2202202","2018-04-27 14:00","2018","04","27","14:00","16.8","","-4.5","","23","","0.0","","7","","10","","","","98.31","","","","","","NA"
"-111.93","60.03","FORT SMITH CLIMATE","2202202","2018-04-27 15:00","2018","04","27","15:00","17.8","","-3.8","","23","","0.0","","8","","10","","","","98.19","","","","","","NA"
"-111.93","60.03","FORT SMITH CLIMATE","2202202","2018-04-27 16:00","2018","04","27","16:00","16.7","","-4.6","","23","","0.0","","7","","10","","","","98.11","","","","","","NA"
"-111.93","60.03","FORT SMITH CLIMATE","2202202","2018-04-27 17:00","2018","04","27","17:00","18.4","","-3.8","","22","","0.0","","10","","11","","","","97.99","","","","","","NA"
"-111.93","60.03","FORT SMITH CLIMATE","2202202","2018-04-27 18:00","2018","04","27","18:00","17.3","","-3.8","","23","","0.0","","8","","8","","","","97.89","","","","","","NA"
"-111.93","60.03","FORT SMITH CLIMATE","2202202","2018-04-27 19:00","2018","04","27","19:00","15.5","","-3.4","","27","","0.0","","9","","8","","","","97.84","","","","","","NA"
"-111.93","60.03","FORT SMITH CLIMATE","2202202","2018-04-27 20:00","2018","04","27","20:00","12.4","","-3.3","","33","","0.0","","9","","5","","","","97.82","","","","","","NA"
"-111.93","60.03","FORT SMITH CLIMATE","2202202","2018-04-27 21:00","2018","04","27","21:00","7.9","","-2.3","","49","","0.0","","13","","4","","","","97.82","","","","","","NA"
"-111.93","60.03","FORT SMITH CLIMATE","2202202","2018-04-27 22:00","2018","04","27","22:00","6.0","","-2.5","","55","","0.0","","25","","2","","","","97.84","","","","","","NA"
"-111.93","60.03","FORT SMITH CLIMATE","2202202","2018-04-27 23:00","2018","04","27","23:00","3.6","","-2.8","","63","","0.0","","24","","6","","","","97.85","","","","","","NA"
"-111.93","60.03","FORT SMITH CLIMATE","2202202","2018-04-28 00:00","2018","04","28","00:00","7.8","","-2.2","","49","","0.6","","24","","8","","","","97.85","","","","","","NA"
"-111.93","60.03","FORT SMITH CLIMATE","2202202","2018-04-28 01:00","2018","04","28","01:00","6.4","","-2.3","","54","","0.0","","25","","8","","","","97.83","","","","","","NA"
"-111.93","60.03","FORT SMITH CLIMATE","2202202","2018-04-28 02:00","2018","04","28","02:00","5.1","","-2.7","","57","","0.0","","25","","10","","","","97.81","","","","","","NA"
"-111.93","60.03","FORT SMITH CLIMATE","2202202","2018-04-28 03:00","2018","04","28","03:00","3.7","","-2.8","","63","","0.0","","25","","8","","","","97.78","","","","","","NA"
"-111.93","60.03","FORT SMITH CLIMATE","2202202","2018-04-28 04:00","2018","04","28","04:00","2.7","","-2.8","","67","","0.0","","26","","5","","","","97.78","","","","","","NA"
"-111.93","60.03","FORT SMITH CLIMATE","2202202","2018-04-28 05:00","2018","04","28","05:00","2.9","","-2.4","","68","","0.0","","28","","8","","","","97.85","","","","","","NA"
"-111.93","60.03","FORT SMITH CLIMATE","2202202","2018-04-28 06:00","2018","04","28","06:00","3.0","","-1.7","","71","","0.0","","28","","7","","","","97.89","","","","","","NA"
"-111.93","60.03","FORT SMITH CLIMATE","2202202","2018-04-28 07:00","2018","04","28","07:00","2.9","","-1.0","","76","","0.0","","29","","8","","","","97.92","","","","","","NA"
"-111.93","60.03","FORT SMITH CLIMATE","2202202","2018-04-28 08:00","2018","04","28","08:00","3.0","","-0.8","","76","","0.0","","32","","6","","","","97.90","","","","","","NA"
"-111.93","60.03","FORT SMITH CLIMATE","2202202","2018-04-28 09:00","2018","04","28","09:00","3.3","","-0.6","","76","","0.0","","30","","6","","","","97.94","","","","","","NA"
"-111.93","60.03","FORT SMITH CLIMATE","2202202","2018-04-28 10:00","2018","04","28","10:00","3.9","","-0.2","","75","","0.0","","32","","6","","","","97.94","","","","","","NA"
"-111.93","60.03","FORT SMITH CLIMATE","2202202","2018-04-28 11:00","2018","04","28","11:00","3.9","","0.7","","80","","0.0","","31","","5","","","","97.94","","","","","","NA"
"-111.93","60.03","FORT SMITH CLIMATE","2202202","2018-04-28 12:00","2018","04","28","12:00","4.0","","0.8","","80","","0.0","","35","","3","","","","97.90","","","","","","NA"
"-111.93","60.03","FORT SMITH CLIMATE","2202202","2018-04-28 13:00","2018","04","28","13:00","4.6","","1.2","","79","","0.0","","31","","9","","","","97.90","","","","","","NA"
"-111.93","60.03","FORT SMITH CLIMATE","2202202","2018-04-28 14:00","2018","04","28","14:00","5.1","","1.2","","75","","0.0","","32","","8","","","","97.92","","","","","","NA"
"-111.93","60.03","FORT SMITH CLIMATE","2202202","2018-04-28 15:00","2018","04","28","15:00","5.8","","1.0","","72","","0.0","","32","","9","","","","97.96","","","","","","NA"
"-111.93","60.03","FORT SMITH CLIMATE","2202202","2018-04-28 16:00","2018","04","28","16:00","5.7","","1.3","","73","","0.0","","31","","7","","","","98.01","","","","","","NA"
"-111.93","60.03","FORT SMITH CLIMATE","2202202","2018-04-28 17:00","2018","04","28","17:00","5.3","","1.7","","77","","0.0","","32","","10","","","","98.04","","","","","","NA"
"-111.93","60.03","FORT SMITH CLIMATE","2202202","2018-04-28 18:00","2018","04","28","18:00","4.7","","2.2","","84","","0.0","","32","","5","","","","98.09","","","","","","NA"
"-111.93","60.03","FORT SMITH CLIMATE","2202202","2018-04-28 19:00","2018","04","28","19:00","4.4","","1.9","","84","","0.2","","31","","2","","","","98.12","","","","","","NA"
"-111.93","60.03","FORT SMITH CLIMATE","2202202","2018-04-28 20:00","2018","04","28","20:00","3.9","","1.7","","85","","0.0","","36","","4","","","","98.19","","","","","","NA"
"-111.93","60.03","FORT SMITH CLIMATE","2202202","2018-04-28 21:00","2018","04","28","21:00","3.0","","0.6","","84","","0.0","","33","","4","","","","98.30","","","","","","NA"
"-111.93","60.03","FORT SMITH CLIMATE","2202202","2018-04-28 22:00","2018","04","28","22:00","2.6","","-2.1","","71","","0.0","","33","","8","","","","98.37","","","","","","NA"
"-111.93","60.03","FORT SMITH CLIMATE","2202202","2018-04-28 23:00","2018","04","28","23:00","1.9","","-3.2","","69","","0.0","","32","","7","","","","98.44","","","","","","NA"
"-111.93","60.03","FORT SMITH CLIMATE","2202202","2018-04-29 00:00","2018","04","29","00:00","0.7","","-4.0","","71","","0.0","","31","","5","","","","98.53","","","","","","NA"
"-111.93","60.03","FORT SMITH CLIMATE","2202202","2018-04-29 01:00","2018","04","29","01:00","-1.2","","-4.4","","79","","0.0","","21","","3","","","","98.57","","","","-2","","NA"
"-111.93","60.03","FORT SMITH CLIMATE","2202202","2018-04-29 02:00","2018","04","29","02:00","-0.9","","-4.4","","77","","0.0","","26","","5","","","","98.66","","","","-3","","NA"
"-111.93","60.03","FORT SMITH CLIMATE","2202202","2018-04-29 03:00","2018","04","29","03:00","-1.4","","-4.8","","78","","0.0","","28","","8","","","","98.75","","","","-4","","NA"
"-111.93","60.03","FORT SMITH CLIMATE","2202202","2018-04-29 04:00","2018","04","29","04:00","-2.8","","-5.6","","81","","0.0","","24","","3","","","","98.80","","","","-4","","NA"
"-111.93","60.03","FORT SMITH CLIMATE","2202202","2018-04-29 05:00","2018","04","29","05:00","-1.9","","-4.8","","81","","0.0","","25","","6","","","","98.86","","","","-4","","NA"
"-111.93","60.03","FORT SMITH CLIMATE","2202202","2018-04-29 06:00","2018","04","29","06:00","-1.2","","-4.6","","78","","0.0","","21","","5","","","","98.89","","","","-3","","NA"
"-111.93","60.03","FORT SMITH CLIMATE","2202202","2018-04-29 07:00","2018","04","29","07:00","1.6","","-4.1","","66","","0.3","","21","","4","","","","98.89","","","","","","NA"
"-111.93","60.03","FORT SMITH CLIMATE","2202202","2018-04-29 08:00","2018","04","29","08:00","3.8","","-4.1","","56","","0.0","","24","","9","","","","98.93","","","","","","NA"
"-111.93","60.03","FORT SMITH CLIMATE","2202202","2018-04-29 09:00","2018","04","29","09:00","5.9","","-2.6","","55","","0.0","","27","","12","","","","98.95","","","","","","NA"
"-111.93","60.03","FORT SMITH CLIMATE","2202202","2018-04-29 10:00","2018","04","29","10:00","7.2","","-4.4","","44","","0.0","","28","","13","","","","98.98","","","","","","NA"
"-111.93","60.03","FORT SMITH CLIMATE","2202202","2018-04-29 11:00","2018","04","29","11:00","7.4","","-6.5","","37","","0.0","","29","","15","","","","99.02","","","","","","NA"
"-111.93","60.03","FORT SMITH CLIMATE","2202202","2018-04-29 12:00","2018","04","29","12:00","7.9","","-7.4","","33","","0.0","","27","","20","","","","99.04","","","","","","NA"
"-111.93","60.03","FORT SMITH CLIMATE","2202202","2018-04-29 13:00","2018","04","29","13:00","8.3","","-8.3","","30","","0.0","","26","","19","","","","99.06","","","","","","NA"
"-111.93","60.03","FORT SMITH CLIMATE","2202202","2018-04-29 14:00","2018","04","29","14:00","8.5","","-8.2","","30","","0.0","","28","","17","","","","99.07","","","","","","NA"
"-111.93","60.03","FORT SMITH CLIMATE","2202202","2018-04-29 15:00","2018","04","29","15:00","8.6","","-8.2","","30","","0.0","","30","","13","","","","99.08","","","","","","NA"
"-111.93","60.03","FORT SMITH CLIMATE","2202202","2018-04-29 16:00","2018","04","29","16:00","8.9","","-8.6","","28","","0.0","","29","","13","","","","99.08","","","","","","NA"
"-111.93","60.03","FORT SMITH CLIMATE","2202202","2018-04-29 17:00","2018","04","29","17:00","9.4","","-8.3","","28","","0.0","","27","","9","","","","99.06","","","","","","NA"
"-111.93","60.03","FORT SMITH CLIMATE","2202202","2018-04-29 18:00","2018","04","29","18:00","9.3","","-8.9","","27","","0.0","","22","","2","","","","99.02","","","","","","NA"
"-111.93","60.03","FORT SMITH CLIMATE","2202202","2018-04-29 19:00","2018","04","29","19:00","6.7","","-8.1","","34","","0.0","","4","","3","","","","98.97","","","","","","NA"
"-111.93","60.03","FORT SMITH CLIMATE","2202202","2018-04-29 20:00","2018","04","29","20:00","5.2","","-7.9","","38","","0.0","","6","","4","","","","98.94","","","","","","NA"
"-111.93","60.03","FORT SMITH CLIMATE","2202202","2018-04-29 21:00","2018","04","29","21:00","3.2","","-7.6","","45","","0.0","","9","","5","","","","98.91","","","","","","NA"
"-111.93","60.03","FORT SMITH CLIMATE","2202202","2018-04-29 22:00","2018","04","29","22:00","4.0","","-7.2","","44","","0.0","","11","","4","","","","98.87","","","","","","NA"
"-111.93","60.03","FORT SMITH CLIMATE","2202202","2018-04-29 23:00","2018","04","29","23:00","3.4","","-7.3","","45","","0.0","","12","","7","","","","98.80","","","","","","NA"
"-111.93","60.03","FORT SMITH CLIMATE","2202202","2018-04-30 00:00","2018","04","30","00:00","2.7","","-6.9","","49","","0.0","","3","","4","","","","98.77","","","","","","NA"
"-111.93","60.03","FORT SMITH CLIMATE","2202202","2018-04-30 01:00","2018","04","30","01:00","3.5","","-6.8","","47","","0.0","","11","","4","","","","98.70","","","","","","NA"
"-111.93","60.03","FORT SMITH CLIMATE","2202202","2018-04-30 02:00","2018","04","30","02:00","2.6","","-6.2","","52","","0.0","","8","","3","","","","98.64","","","","","","NA"
"-111.93","60.03","FORT SMITH CLIMATE","2202202","2018-04-30 03:00","2018","04","30","03:00","2.1","","-5.4","","57","","0.0","","28","","6","","","","98.62","","","","","","NA"
"-111.93","60.03","FORT SMITH CLIMATE","2202202","2018-04-30 04:00","2018","04","30","04:00","0.9","","-3.7","","71","","0.0","","10","","4","","","","98.52","","","","","","NA"
"-111.93","60.03","FORT SMITH CLIMATE","2202202","2018-04-30 05:00","2018","04","30","05:00","1.7","","-3.7","","67","","0.0","","11","","2","","","","98.50","","","","","","NA"
"-111.93","60.03","FORT SMITH CLIMATE","2202202","2018-04-30 06:00","2018","04","30","06:00","2.1","","-3.3","","68","","0.0","","31","","6","","","","98.46","","","","","","NA"
"-111.93","60.03","FORT SMITH CLIMATE","2202202","2018-04-30 07:00","2018","04","30","07:00","4.5","","-3.4","","57","","0.0","","19","","3","","","","98.45","","","","","","NA"
"-111.93","60.03","FORT SMITH CLIMATE","2202202","2018-04-30 08:00","2018","04","30","08:00","6.0","","-3.3","","51","","0.2","","30","","2","","","","98.41","","","","","","NA"
"-111.93","60.03","FORT SMITH CLIMATE","2202202","2018-04-30 09:00","2018","04","30","09:00","6.9","","-4.1","","45","","0.0","","1","","4","","","","98.36","","","","","","NA"
"-111.93","60.03","FORT SMITH CLIMATE","2202202","2018-04-30 10:00","2018","04","30","10:00","8.3","","-3.9","","42","","0.0","","1","","4","","","","98.33","","","","","","NA"
"-111.93","60.03","FORT SMITH CLIMATE","2202202","2018-04-30 11:00","2018","04","30","11:00","10.0","","-3.6","","38","","0.0","","1","","8","","","","98.28","","","","","","NA"
"-111.93","60.03","FORT SMITH CLIMATE","2202202","2018-04-30 12:00","2018","04","30","12:00","10.8","","-4.0","","35","","0.0","","1","","10","","","","98.19","","","","","","NA"
"-111.93","60.03","FORT SMITH CLIMATE","2202202","2018-04-30 13:00","2018","04","30","13:00","11.2","","-3.6","","35","","0.0","","6","","9","","","","98.13","","","","","","NA"
"-111.93","60.03","FORT SMITH CLIMATE","2202202","2018-04-30 14:00","2018","04","30","14:00","12.5","","-4.5","","30","","0.0","","2","","9","","","","98.07","","","","","","NA"
"-111.93","60.03","FORT SMITH CLIMATE","2202202","2018-04-30 15:00","2018","04","30","15:00","11.7","","-4.5","","32","","0.0","","8","","6","","","","98.04","","","","","","NA"
"-111.93","60.03","FORT SMITH CLIMATE","2202202","2018-04-30 16:00","2018","04","30","16:00","10.3","","-0.9","","46","","0.0","","13","","12","","","","98.09","","","","","","NA"
"-111.93","60.03","FORT SMITH CLIMATE","2202202","2018-04-30 17:00","2018","04","30","17:00","11.0","","-1.3","","42","","0.0","","26","","3","","","","98.07","","","","","","NA"
"-111.93","60.03","FORT SMITH CLIMATE","2202202","2018-04-30 18:00","2018","04","30","18:00","9.9","","-0.6","","48","","0.0","","27","","7","","","","98.07","","","","","","NA"
"-111.93","60.03","FORT SMITH CLIMATE","2202202","2018-04-30 19:00","2018","04","30","19:00","9.2","","0.1","","53","","0.0","","26","","4","","","","98.08","","","","","","NA"
"-111.93","60.03","FORT SMITH CLIMATE","2202202","2018-04-30 20:00","2018","04","30","20:00","6.5","","3.3","","79","","0.0","","21","","8","","","","98.14","","","","","","NA"
"-111.93","60.03","FORT SMITH CLIMATE","2202202","2018-04-30 21:00","2018","04","30","21:00","5.2","","3.8","","91","","0.0","","1","","3","","","","98.15","","","","","","NA"
"-111.93","60.03","FORT SMITH CLIMATE","2202202","2018-04-30 22:00","2018","04","30","22:00","4.7","","3.6","","93","","0.0","","3","","1","","","","98.15","","","","","","NA"
"-111.93","60.03","FORT SMITH CLIMATE","2202202","2018-04-30 23:00","2018","04","30","23:00","3.3","","2.5","","95","","0.0","","0","","1","","","","98.15","","","","","","NA"
