"Longitude (x)","Latitude (y)","Station Name","Climate ID","Date/Time (LST)","Year","Month","Day","Time (LST)","Temp (°C)","Temp Flag","Dew Point Temp (°C)","Dew Point Temp Flag","Rel Hum (%)","Rel Hum Flag","Precip. Amount (mm)","Precip. Amount Flag","Wind Dir (10s deg)","Wind Dir Flag","Wind Spd (km/h)","Wind Spd Flag","Visibility (km)","Visibility Flag","Stn Press (kPa)","Stn Press Flag","Hmdx","Hmdx Flag","Wind Chill","Wind Chill Flag","Weather"
"-52.94","48.17","GRATES COVE","840B053","2012-02-01 00:30","2012","02","01","00:30","-9.2","","-12.9","","74","","","","","M","44","","","","100.98","","","","-20","","NA"
"-52.94","48.17","GRATES COVE","840B053","2012-02-01 01:30","2012","02","01","01:30","-8.9","","-12.8","","73","","","","","M","43","","","","101.02","","","","-20","","NA"
"-52.94","48.17","GRATES COVE","840B053","2012-02-01 02:30","2012","02","01","02:30","-8.8","","-12.7","","73","","","","","M","48","","","","101.07","","","","-20","","NA"
"-52.94","48.17","GRATES COVE","840B053","2012-02-01 03:30","2012","02","01","03:30","-8.9","","-12.6","","75","","","","","M","44","","","","101.08","","","","-20","","NA"
"-52.94","48.17","GRATES COVE","840B053","2012-02-01 04:30","2012","02","01","04:30","-9.0","","-13.2","","72","","","","","M","41","","","","101.13","","","","-20","","NA"
"-52.94","48.17","GRATES COVE","840B053","2012-02-01 05:30","2012","02","01","05:30","-8.9","","-12.7","","74","","","","","M","39","","","","101.17","","","","-19","","NA"
"-52.94","48.17","GRATES COVE","840B053","2012-02-01 06:30","2012","02","01","06:30","-9.1","","-12.9","","74","","","","","M","43","","","","101.22","","","","-20","","NA"
"-52.94","48.17","GRATES COVE","840B053","2012-02-01 07:30","2012","02","01","07:30","-9.1","","-12.6","","76","","","","","M","39","","","","101.32","","","","-19","","NA"
"-52.94","48.17","GRATES COVE","840B053","2012-02-01 08:30","2012","02","01","08:30","-9.2","","-12.9","","74","","","","","M","41","","","","101.38","","","","-20","","NA"
"-52.94","48.17","GRATES COVE","840B053","2012-02-01 09:30","2012","02","01","09:30","-9.0","","-13.1","","72","","","","","M","39","","","","101.43","","","","-19","","NA"
"-52.94","48.17","GRATES COVE","840B053","2012-02-01 10:30","2012","02","01","10:30","-8.6","","-12.8","","72","","","","","M","39","","","","101.45","","","","-19","","NA"
"-52.94","48.17","GRATES COVE","840B053","2012-02-01 11:30","2012","02","01","11:30","-8.1","","-12.8","","69","","","","","M","43","","","","101.41","","","","-19","","NA"
"-52.94","48.17","GRATES COVE","840B053","2012-02-01 12:30","2012","02","01","12:30","-8.1","","-12.7","","69","","","","","M","37","","","","101.35","","","","-18","","NA"
"-52.94","48.17","GRATES COVE","840B053","2012-02-01 13:30","2012","02","01","13:30","-7.3","","-12.0","","69","","","","","M","32","","","","101.33","","","","-16","","NA"
"-52.94","48.17","GRATES COVE","840B053","2012-02-01 14:30","2012","02","01","14:30","-6.6","","-11.7","","67","","","","","M","26","","","","101.35","","","","-15","","NA"
"-52.94","48.17","GRATES COVE","840B053","2012-02-01 15:30","2012","02","01","15:30","-6.3","","-11.1","","69","","","","","M","28","","","","101.33","","","","-14","","NA"
"-52.94","48.17","GRATES COVE","840B053","2012-02-01 16:30","2012","02","01","16:30","-6.6","","-11.2","","70","","","","","M","26","","","","101.36","","","","-15","","NA"
"-52.94","48.17","GRATES COVE","840B053","2012-02-01 17:30","2012","02","01","17:30","-6.7","","-11.6","","68","","","","","M","26","","","","101.37","","","","-15","","NA"
"-52.94","48.17","GRATES COVE","840B053","2012-02-01 18:30","2012","02","01","18:30","-6.5","","-11.1","","70","","","","","M","22","","","","101.42","","","","-14","","NA"
"-52.94","48.17","GRATES COVE","840B053","2012-02-01 19:30","2012","02","01","19:30","-6.2","","-10.7","","70","","","","","M","24","","","","101.41","","","","-14","","NA"
"-52.94","48.17","GRATES COVE","840B053","2012-02-01 20:30","2012","02","01","20:30","-6.2","","-11.1","","68","","","","","M","22","","","","101.33","","","","-13","","NA"
"-52.94","48.17","GRATES COVE","840B053","2012-02-01 21:30","2012","02","01","21:30","-6.3","","-10.9","","70","","","","","M","13","","","","101.28","","","","-12","","NA"
"-52.94","48.17","GRATES COVE","840B053","2012-02-01 22:30","2012","02","01","22:30","-7.3","","-11.2","","74","","","","","M","6","","","","101.24","","","","-10","","NA"
"-52.94","48.17","GRATES COVE","840B053","2012-02-01 23:30","2012","02","01","23:30","-7.3","","-11.1","","74","","","","","M","6","","","","101.17","","","","-10","","NA"
"-52.94","48.17","GRATES COVE","840B053","2012-02-02 00:30","2012","02","02","00:30","-6.9","","-11.0","","73","","","","","M","2","","","","101.06","","","","-8","","NA"
"-52.94","48.17","GRATES COVE","840B053","2012-02-02 01:30","2012","02","02","01:30","-6.3","","-9.8","","76","","","","","M","2","","","","101.02","","","","-7","","NA"
"-52.94","48.17","GRATES COVE","840B053","2012-02-02 02:30","2012","02","02","02:30","-5.7","","-9.3","","76","","","","","M","9","","","","100.92","","","","-10","","NA"
"-52.94","48.17","GRATES COVE","840B053","2012-02-02 03:30","2012","02","02","03:30","-5.2","","-8.6","","77","","","","","M","15","","","","100.80","","","","-11","","NA"
"-52.94","48.17","GRATES COVE","840B053","2012-02-02 04:30","2012","02","02","04:30","-5.6","","-6.8","","91","","","","","M","17","","","","100.67","","","","-12","","NA"
"-52.94","48.17","GRATES COVE","840B053","2012-02-02 05:30","2012","02","02","05:30","-5.4","","-6.1","","95","","","","","M","22","","","","100.58","","","","-12","","NA"
"-52.94","48.17","GRATES COVE","840B053","2012-02-02 06:30","2012","02","02","06:30","-5.1","","-5.7","","96","","","","","M","28","","","","100.48","","","","-13","","NA"
"-52.94","48.17","GRATES COVE","840B053","2012-02-02 07:30","2012","02","02","07:30","-5.3","","-5.9","","96","","","","","M","32","","","","100.46","","","","-14","","NA"
"-52.94","48.17","GRATES COVE","840B053","2012-02-02 08:30","2012","02","02","08:30","-5.1","","-5.7","","96","","","","","M","32","","","","100.42","","","","-13","","NA"
"-52.94","48.17","GRATES COVE","840B053","2012-02-02 09:30","2012","02","02","09:30","-5.1","","-6.1","","93","","","","","M","37","","","","100.42","","","","-14","","NA"
"-52.94","48.17","GRATES COVE","840B053","2012-02-02 10:30","2012","02","02","10:30","-5.0","","-6.8","","87","","","","","M","32","","","","100.45","","","","-13","","NA"
"-52.94","48.17","GRATES COVE","840B053","2012-02-02 11:30","2012","02","02","11:30","-4.3","","-8.1","","75","","","","","M","33","","","","100.41","","","","-12","","NA"
"-52.94","48.17","GRATES COVE","840B053","2012-02-02 12:30","2012","02","02","12:30","-4.3","","-8.4","","73","","","","","M","37","","","","100.41","","","","-13","","NA"
"-52.94","48.17","GRATES COVE","840B053","2012-02-02 13:30","2012","02","02","13:30","-4.1","","-8.0","","74","","","","","M","33","","","","100.45","","","","-12","","NA"
"-52.94","48.17","GRATES COVE","840B053","2012-02-02 14:30","2012","02","02","14:30","-4.4","","-8.5","","73","","","","","M","32","","","","100.51","","","","-12","","NA"
"-52.94","48.17","GRATES COVE","840B053","2012-02-02 15:30","2012","02","02","15:30","-4.8","","-8.2","","77","","","","","M","26","","","","100.63","","","","-12","","NA"
"-52.94","48.17","GRATES COVE","840B053","2012-02-02 16:30","2012","02","02","16:30","-5.6","","-9.4","","75","","","","","M","24","","","","100.75","","","","-13","","NA"
"-52.94","48.17","GRATES COVE","840B053","2012-02-02 17:30","2012","02","02","17:30","-6.1","","-10.2","","73","","","","","M","19","","","","100.84","","","","-13","","NA"
"-52.94","48.17","GRATES COVE","840B053","2012-02-02 18:30","2012","02","02","18:30","-6.6","","-10.1","","76","","","","","M","15","","","","100.93","","","","-13","","NA"
"-52.94","48.17","GRATES COVE","840B053","2012-02-02 19:30","2012","02","02","19:30","-6.9","","-10.5","","75","","","","","M","19","","","","101.00","","","","-14","","NA"
"-52.94","48.17","GRATES COVE","840B053","2012-02-02 20:30","2012","02","02","20:30","-7.1","","-10.5","","77","","","","","M","19","","","","101.09","","","","-14","","NA"
"-52.94","48.17","GRATES COVE","840B053","2012-02-02 21:30","2012","02","02","21:30","-7.2","","-10.3","","78","","","","","M","13","","","","101.14","","","","-13","","NA"
"-52.94","48.17","GRATES COVE","840B053","2012-02-02 22:30","2012","02","02","22:30","-8.2","","-11.0","","80","","","","","M","17","","","","101.21","","","","-15","","NA"
"-52.94","48.17","GRATES COVE","840B053","2012-02-02 23:30","2012","02","02","23:30","-8.4","","-11.2","","80","","","","","M","15","","","","101.19","","","","-15","","NA"
"-52.94","48.17","GRATES COVE","840B053","2012-02-03 00:30","2012","02","03","00:30","-8.7","","-11.6","","79","","","","","M","11","","","","101.14","","","","-14","","NA"
"-52.94","48.17","GRATES COVE","840B053","2012-02-03 01:30","2012","02","03","01:30","-8.6","","-11.7","","78","","","","","M","6","","","","101.19","","","","-12","","NA"
"-52.94","48.17","GRATES COVE","840B053","2012-02-03 02:30","2012","02","03","02:30","-8.9","","-12.0","","78","","","","","M","4","","","","101.25","","","","-11","","NA"
"-52.94","48.17","GRATES COVE","840B053","2012-02-03 03:30","2012","02","03","03:30","-8.8","","-11.8","","79","","","","","M","7","","","","101.26","","","","-13","","NA"
"-52.94","48.17","GRATES COVE","840B053","2012-02-03 04:30","2012","02","03","04:30","-8.5","","-11.7","","78","","","","","M","7","","","","101.27","","","","-12","","NA"
"-52.94","48.17","GRATES COVE","840B053","2012-02-03 05:30","2012","02","03","05:30","-8.2","","-11.4","","78","","","","","M","6","","","","101.30","","","","-11","","NA"
"-52.94","48.17","GRATES COVE","840B053","2012-02-03 06:30","2012","02","03","06:30","-8.2","","-11.3","","78","","","","","M","6","","","","101.33","","","","-11","","NA"
"-52.94","48.17","GRATES COVE","840B053","2012-02-03 07:30","2012","02","03","07:30","-8.9","","-11.9","","79","","","","","M","4","","","","101.36","","","","-11","","NA"
"-52.94","48.17","GRATES COVE","840B053","2012-02-03 08:30","2012","02","03","08:30","-8.3","","-11.5","","78","","","","","M","2","","","","101.34","","","","-9","","NA"
"-52.94","48.17","GRATES COVE","840B053","2012-02-03 09:30","2012","02","03","09:30","-6.8","","-10.4","","75","","","","","M","6","","","","101.34","","","","-10","","NA"
"-52.94","48.17","GRATES COVE","840B053","2012-02-03 10:30","2012","02","03","10:30","-6.4","","-10.2","","74","","","","","M","7","","","","101.28","","","","-10","","NA"
"-52.94","48.17","GRATES COVE","840B053","2012-02-03 11:30","2012","02","03","11:30","-6.2","","-10.5","","72","","","","","M","6","","","","101.26","","","","-9","","NA"
"-52.94","48.17","GRATES COVE","840B053","2012-02-03 12:30","2012","02","03","12:30","-5.5","","-9.7","","72","","","","","M","13","","","","101.14","","","","-11","","NA"
"-52.94","48.17","GRATES COVE","840B053","2012-02-03 13:30","2012","02","03","13:30","-5.8","","-9.7","","74","","","","","M","15","","","","101.01","","","","-12","","NA"
"-52.94","48.17","GRATES COVE","840B053","2012-02-03 14:30","2012","02","03","14:30","-5.5","","-9.4","","74","","","","","M","17","","","","100.96","","","","-12","","NA"
"-52.94","48.17","GRATES COVE","840B053","2012-02-03 15:30","2012","02","03","15:30","-5.0","","-8.8","","75","","","","","M","26","","","","100.89","","","","-12","","NA"
"-52.94","48.17","GRATES COVE","840B053","2012-02-03 16:30","2012","02","03","16:30","-4.5","","-8.0","","76","","","","","M","24","","","","100.90","","","","-12","","NA"
"-52.94","48.17","GRATES COVE","840B053","2012-02-03 17:30","2012","02","03","17:30","-4.6","","-8.5","","74","","","","","M","28","","","","100.81","","","","-12","","NA"
"-52.94","48.17","GRATES COVE","840B053","2012-02-03 18:30","2012","02","03","18:30","-4.4","","-7.6","","78","","","","","M","33","","","","100.67","","","","-13","","NA"
"-52.94","48.17","GRATES COVE","840B053","2012-02-03 19:30","2012","02","03","19:30","-4.2","","-7.3","","79","","","","","M","39","","","","100.57","","","","-13","","NA"
"-52.94","48.17","GRATES COVE","840B053","2012-02-03 20:30","2012","02","03","20:30","-4.1","","-7.1","","80","","","","","M","43","","","","100.51","","","","-13","","NA"
"-52.94","48.17","GRATES COVE","840B053","2012-02-03 21:30","2012","02","03","21:30","-4.1","","-7.3","","78","","","","","M","44","","","","100.40","","","","-13","","NA"
"-52.94","48.17","GRATES COVE","840B053","2012-02-03 22:30","2012","02","03","22:30","-4.2","","-7.1","","80","","","","","M","52","","","","100.17","","","","-14","","NA"
"-52.94","48.17","GRATES COVE","840B053","2012-02-03 23:30","2012","02","03","23:30","-4.1","","-6.8","","81","","","","","M","56","","","","99.95","","","","-14","","NA"
"-52.94","48.17","GRATES COVE","840B053","2012-02-04 00:30","2012","02","04","00:30","-4.4","","-6.8","","83","","","","","M","61","","","","99.77","","","","-15","","NA"
"-52.94","48.17","GRATES COVE","840B053","2012-02-04 01:30","2012","02","04","01:30","-4.0","","-6.2","","85","","","","","M","56","","","","99.84","","","","-14","","NA"
"-52.94","48.17","GRATES COVE","840B053","2012-02-04 02:30","2012","02","04","02:30","-4.2","","-5.1","","93","","","","","M","61","","","","99.63","","","","-15","","NA"
"-52.94","48.17","GRATES COVE","840B053","2012-02-04 03:30","2012","02","04","03:30","-4.3","","-5.0","","95","","","","","M","63","","","","99.46","","","","-15","","NA"
"-52.94","48.17","GRATES COVE","840B053","2012-02-04 04:30","2012","02","04","04:30","-3.7","","-4.2","","96","","","","","M","67","","","","99.30","","","","-14","","NA"
"-52.94","48.17","GRATES COVE","840B053","2012-02-04 05:30","2012","02","04","05:30","-3.7","","-4.2","","96","","","","","M","69","","","","99.17","","","","-14","","NA"
"-52.94","48.17","GRATES COVE","840B053","2012-02-04 06:30","2012","02","04","06:30","-3.8","","-4.4","","96","","","","","M","69","","","","99.13","","","","-15","","NA"
"-52.94","48.17","GRATES COVE","840B053","2012-02-04 07:30","2012","02","04","07:30","-3.9","","-4.5","","96","","","","","M","67","","","","99.09","","","","-15","","NA"
"-52.94","48.17","GRATES COVE","840B053","2012-02-04 08:30","2012","02","04","08:30","-3.8","","-4.4","","96","","","","","M","61","","","","98.93","","","","-14","","NA"
"-52.94","48.17","GRATES COVE","840B053","2012-02-04 09:30","2012","02","04","09:30","-3.8","","-4.6","","94","","","","","M","50","","","","98.92","","","","-13","","NA"
"-52.94","48.17","GRATES COVE","840B053","2012-02-04 10:30","2012","02","04","10:30","-4.4","","-5.1","","95","","","","","M","39","","","","98.88","","","","-13","","NA"
"-52.94","48.17","GRATES COVE","840B053","2012-02-04 11:30","2012","02","04","11:30","-4.1","","-4.9","","94","","","","","M","41","","","","98.76","","","","-13","","NA"
"-52.94","48.17","GRATES COVE","840B053","2012-02-04 12:30","2012","02","04","12:30","-3.3","","-4.4","","92","","","","","M","44","","","","98.64","","","","-12","","NA"
"-52.94","48.17","GRATES COVE","840B053","2012-02-04 13:30","2012","02","04","13:30","-2.9","","-3.8","","93","","","","","M","41","","","","98.56","","","","-11","","NA"
"-52.94","48.17","GRATES COVE","840B053","2012-02-04 14:30","2012","02","04","14:30","-2.4","","-3.2","","94","","","","","M","44","","","","98.51","","","","-11","","NA"
"-52.94","48.17","GRATES COVE","840B053","2012-02-04 15:30","2012","02","04","15:30","-2.1","","-2.8","","95","","","","","M","43","","","","98.49","","","","-10","","NA"
"-52.94","48.17","GRATES COVE","840B053","2012-02-04 16:30","2012","02","04","16:30","-2.2","","-3.2","","93","","","","","M","44","","","","98.48","","","","-11","","NA"
"-52.94","48.17","GRATES COVE","840B053","2012-02-04 17:30","2012","02","04","17:30","-2.6","","-4.0","","90","","","","","M","48","","","","98.49","","","","-12","","NA"
"-52.94","48.17","GRATES COVE","840B053","2012-02-04 18:30","2012","02","04","18:30","-2.8","","-4.2","","90","","","","","M","46","","","","98.51","","","","-12","","NA"
"-52.94","48.17","GRATES COVE","840B053","2012-02-04 19:30","2012","02","04","19:30","-2.9","","-4.5","","89","","","","","M","46","","","","98.51","","","","-12","","NA"
"-52.94","48.17","GRATES COVE","840B053","2012-02-04 20:30","2012","02","04","20:30","-2.8","","-4.4","","89","","","","","M","50","","","","98.53","","","","-12","","NA"
"-52.94","48.17","GRATES COVE","840B053","2012-02-04 21:30","2012","02","04","21:30","-2.8","","-4.6","","87","","","","","M","50","","","","98.55","","","","-12","","NA"
"-52.94","48.17","GRATES COVE","840B053","2012-02-04 22:30","2012","02","04","22:30","-2.7","","-4.4","","88","","","","","M","56","","","","98.55","","","","-12","","NA"
"-52.94","48.17","GRATES COVE","840B053","2012-02-04 23:30","2012","02","04","23:30","-2.8","","-4.4","","89","","","","","M","56","","","","98.56","","","","-12","","NA"
"-52.94","48.17","GRATES COVE","840B053","2012-02-05 00:30","2012","02","05","00:30","-3.0","","-4.1","","92","","","","","M","50","","","","98.60","","","","-12","","NA"
"-52.94","48.17","GRATES COVE","840B053","2012-02-05 01:30","2012","02","05","01:30","-3.3","","-3.9","","96","","","","","M","48","","","","98.64","","","","-12","","NA"
"-52.94","48.17","GRATES COVE","840B053","2012-02-05 02:30","2012","02","05","02:30","-3.3","","-4.0","","95","","","","","M","50","","","","98.68","","","","-13","","NA"
"-52.94","48.17","GRATES COVE","840B053","2012-02-05 03:30","2012","02","05","03:30","-3.4","","-4.3","","93","","","","","M","50","","","","98.74","","","","-13","","NA"
"-52.94","48.17","GRATES COVE","840B053","2012-02-05 04:30","2012","02","05","04:30","-3.8","","-4.9","","92","","","","","M","48","","","","98.81","","","","-13","","NA"
"-52.94","48.17","GRATES COVE","840B053","2012-02-05 05:30","2012","02","05","05:30","-4.1","","-6.2","","85","","","","","M","54","","","","98.90","","","","-14","","NA"
"-52.94","48.17","GRATES COVE","840B053","2012-02-05 06:30","2012","02","05","06:30","-4.4","","-6.3","","87","","","","","M","44","","","","98.99","","","","-14","","NA"
"-52.94","48.17","GRATES COVE","840B053","2012-02-05 07:30","2012","02","05","07:30","-4.5","","-7.3","","81","","","","","M","46","","","","99.10","","","","-14","","NA"
"-52.94","48.17","GRATES COVE","840B053","2012-02-05 08:30","2012","02","05","08:30","-4.7","","-7.5","","81","","","","","M","46","","","","99.17","","","","-14","","NA"
"-52.94","48.17","GRATES COVE","840B053","2012-02-05 09:30","2012","02","05","09:30","-4.7","","-7.8","","79","","","","","M","44","","","","99.23","","","","-14","","NA"
"-52.94","48.17","GRATES COVE","840B053","2012-02-05 10:30","2012","02","05","10:30","-4.8","","-8.4","","76","","","","","M","41","","","","99.29","","","","-14","","NA"
"-52.94","48.17","GRATES COVE","840B053","2012-02-05 11:30","2012","02","05","11:30","-4.3","","-8.1","","75","","","","","M","35","","","","99.31","","","","-13","","NA"
"-52.94","48.17","GRATES COVE","840B053","2012-02-05 12:30","2012","02","05","12:30","-4.0","","-8.1","","73","","","","","M","37","","","","99.34","","","","-12","","NA"
"-52.94","48.17","GRATES COVE","840B053","2012-02-05 13:30","2012","02","05","13:30","-4.0","","-9.0","","68","","","","","M","37","","","","99.34","","","","-12","","NA"
"-52.94","48.17","GRATES COVE","840B053","2012-02-05 14:30","2012","02","05","14:30","-3.7","","-9.8","","63","","","","","M","37","","","","99.40","","","","-12","","NA"
"-52.94","48.17","GRATES COVE","840B053","2012-02-05 15:30","2012","02","05","15:30","-3.8","","-10.5","","60","","","","","M","37","","","","99.44","","","","-12","","NA"
"-52.94","48.17","GRATES COVE","840B053","2012-02-05 16:30","2012","02","05","16:30","-3.8","","-10.4","","60","","","","","M","33","","","","99.50","","","","-12","","NA"
"-52.94","48.17","GRATES COVE","840B053","2012-02-05 17:30","2012","02","05","17:30","-3.6","","-9.8","","62","","","","","M","37","","","","99.54","","","","-12","","NA"
"-52.94","48.17","GRATES COVE","840B053","2012-02-05 18:30","2012","02","05","18:30","-3.9","","-10.0","","63","","","","","M","44","","","","99.58","","","","-13","","NA"
"-52.94","48.17","GRATES COVE","840B053","2012-02-05 19:30","2012","02","05","19:30","-4.6","","-10.3","","64","","","","","M","46","","","","99.66","","","","-14","","NA"
"-52.94","48.17","GRATES COVE","840B053","2012-02-05 20:30","2012","02","05","20:30","-4.9","","-10.3","","66","","","","","M","37","","","","99.70","","","","-14","","NA"
"-52.94","48.17","GRATES COVE","840B053","2012-02-05 21:30","2012","02","05","21:30","-5.1","","-10.5","","66","","","","","M","43","","","","99.73","","","","-14","","NA"
"-52.94","48.17","GRATES COVE","840B053","2012-02-05 22:30","2012","02","05","22:30","-6.1","","-10.6","","70","","","","","M","48","","","","99.76","","","","-16","","NA"
"-52.94","48.17","GRATES COVE","840B053","2012-02-05 23:30","2012","02","05","23:30","-7.0","","-10.7","","75","","","","","M","33","","","","99.80","","","","-16","","NA"
"-52.94","48.17","GRATES COVE","840B053","2012-02-06 00:30","2012","02","06","00:30","-7.5","","-11.1","","75","","","","","M","37","","","","99.83","","","","-17","","NA"
"-52.94","48.17","GRATES COVE","840B053","2012-02-06 01:30","2012","02","06","01:30","-8.3","","-11.9","","75","","","","","M","35","","","","99.84","","","","-18","","NA"
"-52.94","48.17","GRATES COVE","840B053","2012-02-06 02:30","2012","02","06","02:30","-8.2","","-12.0","","74","","","","","M","41","","","","99.85","","","","-18","","NA"
"-52.94","48.17","GRATES COVE","840B053","2012-02-06 03:30","2012","02","06","03:30","-7.9","","-11.7","","74","","","","","M","37","","","","99.87","","","","-18","","NA"
"-52.94","48.17","GRATES COVE","840B053","2012-02-06 04:30","2012","02","06","04:30","-7.6","","-11.5","","74","","","","","M","39","","","","99.91","","","","-17","","NA"
"-52.94","48.17","GRATES COVE","840B053","2012-02-06 05:30","2012","02","06","05:30","-7.4","","-11.3","","74","","","","","M","39","","","","99.92","","","","-17","","NA"
"-52.94","48.17","GRATES COVE","840B053","2012-02-06 06:30","2012","02","06","06:30","-7.5","","-11.3","","74","","","","","M","37","","","","99.94","","","","-17","","NA"
"-52.94","48.17","GRATES COVE","840B053","2012-02-06 07:30","2012","02","06","07:30","-7.2","","-11.0","","74","","","","","M","35","","","","100.00","","","","-16","","NA"
"-52.94","48.17","GRATES COVE","840B053","2012-02-06 08:30","2012","02","06","08:30","-6.8","","-11.1","","71","","","","","M","30","","","","100.05","","","","-15","","NA"
"-52.94","48.17","GRATES COVE","840B053","2012-02-06 09:30","2012","02","06","09:30","-6.6","","-10.4","","74","","","","","M","37","","","","100.10","","","","-16","","NA"
"-52.94","48.17","GRATES COVE","840B053","2012-02-06 10:30","2012","02","06","10:30","-6.0","","-10.1","","73","","","","","M","39","","","","100.13","","","","-15","","NA"
"-52.94","48.17","GRATES COVE","840B053","2012-02-06 11:30","2012","02","06","11:30","-5.4","","-10.2","","69","","","","","M","33","","","","100.12","","","","-14","","NA"
"-52.94","48.17","GRATES COVE","840B053","2012-02-06 12:30","2012","02","06","12:30","-5.0","","-10.1","","67","","","","","M","33","","","","100.08","","","","-13","","NA"
"-52.94","48.17","GRATES COVE","840B053","2012-02-06 13:30","2012","02","06","13:30","-4.3","","-9.3","","68","","","","","M","35","","","","100.03","","","","-13","","NA"
"-52.94","48.17","GRATES COVE","840B053","2012-02-06 14:30","2012","02","06","14:30","-3.9","","-8.4","","71","","","","","M","32","","","","99.98","","","","-12","","NA"
"-52.94","48.17","GRATES COVE","840B053","2012-02-06 15:30","2012","02","06","15:30","-3.0","","-7.6","","71","","","","","M","35","","","","99.98","","","","-11","","NA"
"-52.94","48.17","GRATES COVE","840B053","2012-02-06 16:30","2012","02","06","16:30","-3.0","","-7.4","","72","","","","","M","39","","","","99.97","","","","-11","","NA"
"-52.94","48.17","GRATES COVE","840B053","2012-02-06 17:30","2012","02","06","17:30","-3.1","","-7.6","","71","","","","","M","35","","","","99.96","","","","-11","","NA"
"-52.94","48.17","GRATES COVE","840B053","2012-02-06 18:30","2012","02","06","18:30","-3.6","","-7.1","","77","","","","","M","26","","","","99.94","","","","-11","","NA"
"-52.94","48.17","GRATES COVE","840B053","2012-02-06 19:30","2012","02","06","19:30","-3.5","","-6.8","","78","","","","","M","33","","","","99.86","","","","-11","","NA"
"-52.94","48.17","GRATES COVE","840B053","2012-02-06 20:30","2012","02","06","20:30","-2.9","","-5.2","","84","","","","","M","41","","","","99.77","","","","-11","","NA"
"-52.94","48.17","GRATES COVE","840B053","2012-02-06 21:30","2012","02","06","21:30","-2.6","","-4.1","","89","","","","","M","44","","","","99.65","","","","-11","","NA"
"-52.94","48.17","GRATES COVE","840B053","2012-02-06 22:30","2012","02","06","22:30","-2.4","","-3.4","","93","","","","","M","33","","","","99.65","","","","-10","","NA"
"-52.94","48.17","GRATES COVE","840B053","2012-02-06 23:30","2012","02","06","23:30","-1.8","","-3.4","","89","","","","","M","35","","","","99.67","","","","-9","","NA"
"-52.94","48.17","GRATES COVE","840B053","2012-02-07 00:30","2012","02","07","00:30","-1.9","","-3.3","","90","","","","","M","33","","","","99.67","","","","-9","","NA"
"-52.94","48.17","GRATES COVE","840B053","2012-02-07 01:30","2012","02","07","01:30","-1.8","","-2.5","","95","","","","","M","32","","","","99.68","","","","-9","","NA"
"-52.94","48.17","GRATES COVE","840B053","2012-02-07 02:30","2012","02","07","02:30","-1.8","","-4.2","","84","","","","","M","33","","","","99.68","","","","-9","","NA"
"-52.94","48.17","GRATES COVE","840B053","2012-02-07 03:30","2012","02","07","03:30","-1.6","","-4.6","","80","","","","","M","30","","","","99.68","","","","-9","","NA"
"-52.94","48.17","GRATES COVE","840B053","2012-02-07 04:30","2012","02","07","04:30","-1.4","","-4.5","","79","","","","","M","28","","","","99.70","","","","-8","","NA"
"-52.94","48.17","GRATES COVE","840B053","2012-02-07 05:30","2012","02","07","05:30","-1.0","","-4.1","","79","","","","","M","33","","","","99.71","","","","-8","","NA"
"-52.94","48.17","GRATES COVE","840B053","2012-02-07 06:30","2012","02","07","06:30","-1.4","","-3.8","","84","","","","","M","28","","","","99.71","","","","-8","","NA"
"-52.94","48.17","GRATES COVE","840B053","2012-02-07 07:30","2012","02","07","07:30","-1.8","","-3.6","","87","","","","","M","30","","","","99.72","","","","-9","","NA"
"-52.94","48.17","GRATES COVE","840B053","2012-02-07 08:30","2012","02","07","08:30","-1.7","","-3.5","","87","","","","","M","28","","","","99.76","","","","-8","","NA"
"-52.94","48.17","GRATES COVE","840B053","2012-02-07 09:30","2012","02","07","09:30","-0.4","","-2.6","","85","","","","","M","30","","","","99.75","","","","-7","","NA"
"-52.94","48.17","GRATES COVE","840B053","2012-02-07 10:30","2012","02","07","10:30","0.5","","-1.5","","86","","","","","M","37","","","","99.77","","","","","","NA"
"-52.94","48.17","GRATES COVE","840B053","2012-02-07 11:30","2012","02","07","11:30","1.2","","-1.1","","85","","","","","M","44","","","","99.78","","","","","","NA"
"-52.94","48.17","GRATES COVE","840B053","2012-02-07 12:30","2012","02","07","12:30","0.6","","-0.4","","93","","","","","M","37","","","","99.78","","","","","","NA"
"-52.94","48.17","GRATES COVE","840B053","2012-02-07 13:30","2012","02","07","13:30","0.0","","-0.7","","95","","","","","M","28","","","","99.82","","","","-6","","NA"
"-52.94","48.17","GRATES COVE","840B053","2012-02-07 14:30","2012","02","07","14:30","0.4","","-1.8","","85","","","","","M","24","","","","99.84","","","","","","NA"
"-52.94","48.17","GRATES COVE","840B053","2012-02-07 15:30","2012","02","07","15:30","0.3","","-1.9","","85","","","","","M","26","","","","99.90","","","","","","NA"
"-52.94","48.17","GRATES COVE","840B053","2012-02-07 16:30","2012","02","07","16:30","0.1","","-2.3","","84","","","","","M","28","","","","99.96","","","","","","NA"
"-52.94","48.17","GRATES COVE","840B053","2012-02-07 17:30","2012","02","07","17:30","0.0","","-1.9","","87","","","","","M","26","","","","100.06","","","","-6","","NA"
"-52.94","48.17","GRATES COVE","840B053","2012-02-07 18:30","2012","02","07","18:30","0.0","","-1.9","","87","","","","","M","24","","","","100.14","","","","-6","","NA"
"-52.94","48.17","GRATES COVE","840B053","2012-02-07 19:30","2012","02","07","19:30","-0.6","","-2.6","","86","","","","","M","6","","","","100.23","","","","-3","","NA"
"-52.94","48.17","GRATES COVE","840B053","2012-02-07 20:30","2012","02","07","20:30","-0.5","","-4.7","","73","","","","","M","24","","","","100.30","","","","-6","","NA"
"-52.94","48.17","GRATES COVE","840B053","2012-02-07 21:30","2012","02","07","21:30","-1.1","","-5.4","","73","","","","","M","28","","","","100.34","","","","-8","","NA"
"-52.94","48.17","GRATES COVE","840B053","2012-02-07 22:30","2012","02","07","22:30","-1.6","","-5.4","","75","","","","","M","20","","","","100.38","","","","-7","","NA"
"-52.94","48.17","GRATES COVE","840B053","2012-02-07 23:30","2012","02","07","23:30","-2.1","","-5.9","","75","","","","","M","24","","","","100.36","","","","-8","","NA"
"-52.94","48.17","GRATES COVE","840B053","2012-02-08 00:30","2012","02","08","00:30","-2.8","","-6.2","","77","","","","","M","17","","","","100.38","","","","-8","","NA"
"-52.94","48.17","GRATES COVE","840B053","2012-02-08 01:30","2012","02","08","01:30","-3.4","","-7.3","","74","","","","","M","20","","","","100.43","","","","-10","","NA"
"-52.94","48.17","GRATES COVE","840B053","2012-02-08 02:30","2012","02","08","02:30","-3.6","","-8.9","","67","","","","","M","20","","","","100.43","","","","-10","","NA"
"-52.94","48.17","GRATES COVE","840B053","2012-02-08 03:30","2012","02","08","03:30","-3.9","","-7.9","","74","","","","","M","15","","","","100.45","","","","-9","","NA"
"-52.94","48.17","GRATES COVE","840B053","2012-02-08 04:30","2012","02","08","04:30","-3.3","","-9.7","","61","","","","","M","19","","","","100.45","","","","-9","","NA"
"-52.94","48.17","GRATES COVE","840B053","2012-02-08 05:30","2012","02","08","05:30","-3.3","","-9.3","","63","","","","","M","19","","","","100.48","","","","-9","","NA"
"-52.94","48.17","GRATES COVE","840B053","2012-02-08 06:30","2012","02","08","06:30","-3.4","","-6.7","","78","","","","","M","24","","","","100.51","","","","-10","","NA"
"-52.94","48.17","GRATES COVE","840B053","2012-02-08 07:30","2012","02","08","07:30","-4.0","","-6.6","","82","","","","","M","30","","","","100.59","","","","-12","","NA"
"-52.94","48.17","GRATES COVE","840B053","2012-02-08 08:30","2012","02","08","08:30","-4.3","","-7.4","","79","","","","","M","26","","","","100.68","","","","-12","","NA"
"-52.94","48.17","GRATES COVE","840B053","2012-02-08 09:30","2012","02","08","09:30","-4.0","","-8.1","","73","","","","","M","28","","","","100.72","","","","-11","","NA"
"-52.94","48.17","GRATES COVE","840B053","2012-02-08 10:30","2012","02","08","10:30","-3.6","","-10.4","","59","","","","","M","30","","","","100.77","","","","-11","","NA"
"-52.94","48.17","GRATES COVE","840B053","2012-02-08 11:30","2012","02","08","11:30","-3.4","","-9.6","","62","","","","","M","30","","","","100.81","","","","-11","","NA"
"-52.94","48.17","GRATES COVE","840B053","2012-02-08 12:30","2012","02","08","12:30","-3.9","","-11.3","","56","","","","","M","33","","","","100.85","","","","-12","","NA"
"-52.94","48.17","GRATES COVE","840B053","2012-02-08 13:30","2012","02","08","13:30","-4.1","","-10.5","","61","","","","","M","32","","","","100.86","","","","-12","","NA"
"-52.94","48.17","GRATES COVE","840B053","2012-02-08 14:30","2012","02","08","14:30","-4.3","","-10.2","","63","","","","","M","30","","","","100.93","","","","-12","","NA"
"-52.94","48.17","GRATES COVE","840B053","2012-02-08 15:30","2012","02","08","15:30","-4.2","","-9.8","","65","","","","","M","28","","","","101.03","","","","-12","","NA"
"-52.94","48.17","GRATES COVE","840B053","2012-02-08 16:30","2012","02","08","16:30","-4.2","","-10.6","","61","","","","","M","30","","","","101.07","","","","-12","","NA"
"-52.94","48.17","GRATES COVE","840B053","2012-02-08 17:30","2012","02","08","17:30","-4.4","","-10.4","","63","","","","","M","30","","","","101.16","","","","-12","","NA"
"-52.94","48.17","GRATES COVE","840B053","2012-02-08 18:30","2012","02","08","18:30","-4.8","","-9.9","","67","","","","","M","32","","","","101.21","","","","-13","","NA"
"-52.94","48.17","GRATES COVE","840B053","2012-02-08 19:30","2012","02","08","19:30","-5.0","","-10.1","","67","","","","","M","37","","","","101.29","","","","-14","","NA"
"-52.94","48.17","GRATES COVE","840B053","2012-02-08 20:30","2012","02","08","20:30","-5.0","","-9.4","","71","","","","","M","39","","","","101.39","","","","-14","","NA"
"-52.94","48.17","GRATES COVE","840B053","2012-02-08 21:30","2012","02","08","21:30","-5.6","","-9.6","","73","","","","","M","39","","","","101.46","","","","-15","","NA"
"-52.94","48.17","GRATES COVE","840B053","2012-02-08 22:30","2012","02","08","22:30","-5.7","","-9.3","","76","","","","","M","37","","","","101.53","","","","-15","","NA"
"-52.94","48.17","GRATES COVE","840B053","2012-02-08 23:30","2012","02","08","23:30","-4.6","","-7.6","","80","","","","","M","28","","","","101.59","","","","-12","","NA"
"-52.94","48.17","GRATES COVE","840B053","2012-02-09 00:30","2012","02","09","00:30","-3.9","","-7.2","","78","","","","","M","33","","","","101.62","","","","-12","","NA"
"-52.94","48.17","GRATES COVE","840B053","2012-02-09 01:30","2012","02","09","01:30","-3.8","","-7.8","","74","","","","","M","39","","","","101.67","","","","-12","","NA"
"-52.94","48.17","GRATES COVE","840B053","2012-02-09 02:30","2012","02","09","02:30","-3.4","","-7.4","","74","","","","","M","39","","","","101.72","","","","-12","","NA"
"-52.94","48.17","GRATES COVE","840B053","2012-02-09 03:30","2012","02","09","03:30","-3.6","","-7.4","","75","","","","","M","22","","","","101.76","","","","-10","","NA"
"-52.94","48.17","GRATES COVE","840B053","2012-02-09 04:30","2012","02","09","04:30","-3.4","","-7.2","","75","","","","","M","24","","","","101.75","","","","-10","","NA"
"-52.94","48.17","GRATES COVE","840B053","2012-02-09 05:30","2012","02","09","05:30","-2.5","","-6.0","","77","","","","","M","22","","","","101.82","","","","-9","","NA"
"-52.94","48.17","GRATES COVE","840B053","2012-02-09 06:30","2012","02","09","06:30","-2.0","","-5.8","","75","","","","","M","26","","","","101.86","","","","-9","","NA"
"-52.94","48.17","GRATES COVE","840B053","2012-02-09 07:30","2012","02","09","07:30","-2.1","","-5.8","","76","","","","","M","24","","","","101.91","","","","-8","","NA"
"-52.94","48.17","GRATES COVE","840B053","2012-02-09 08:30","2012","02","09","08:30","-2.2","","-5.7","","77","","","","","M","17","","","","101.97","","","","-8","","NA"
"-52.94","48.17","GRATES COVE","840B053","2012-02-09 09:30","2012","02","09","09:30","-1.8","","-5.7","","75","","","","","M","26","","","","101.97","","","","-8","","NA"
"-52.94","48.17","GRATES COVE","840B053","2012-02-09 10:30","2012","02","09","10:30","-1.1","","-5.3","","73","","","","","M","26","","","","102.02","","","","-7","","NA"
"-52.94","48.17","GRATES COVE","840B053","2012-02-09 11:30","2012","02","09","11:30","-1.0","","-5.3","","73","","","","","M","24","","","","101.93","","","","-7","","NA"
"-52.94","48.17","GRATES COVE","840B053","2012-02-09 12:30","2012","02","09","12:30","-0.2","","-4.7","","72","","","","","M","26","","","","101.87","","","","-6","","NA"
"-52.94","48.17","GRATES COVE","840B053","2012-02-09 13:30","2012","02","09","13:30","-0.1","","-4.1","","74","","","","","M","28","","","","101.72","","","","-6","","NA"
"-52.94","48.17","GRATES COVE","840B053","2012-02-09 14:30","2012","02","09","14:30","0.8","","-3.3","","74","","","","","M","32","","","","101.74","","","","","","NA"
"-52.94","48.17","GRATES COVE","840B053","2012-02-09 15:30","2012","02","09","15:30","0.9","","-3.0","","75","","","","","M","26","","","","101.71","","","","","","NA"
"-52.94","48.17","GRATES COVE","840B053","2012-02-09 16:30","2012","02","09","16:30","0.1","","-2.0","","86","","","","","M","28","","","","101.68","","","","","","NA"
"-52.94","48.17","GRATES COVE","840B053","2012-02-09 17:30","2012","02","09","17:30","0.0","","-1.8","","88","","","","","M","22","","","","101.56","","","","-6","","NA"
"-52.94","48.17","GRATES COVE","840B053","2012-02-09 18:30","2012","02","09","18:30","0.4","","-1.5","","87","","","","","M","24","","","","101.53","","","","","","NA"
"-52.94","48.17","GRATES COVE","840B053","2012-02-09 19:30","2012","02","09","19:30","0.0","","-2.0","","86","","","","","M","46","","","","101.36","","","","-8","","NA"
"-52.94","48.17","GRATES COVE","840B053","2012-02-09 20:30","2012","02","09","20:30","0.0","","-2.2","","85","","","","","M","50","","","","101.35","","","","-8","","NA"
"-52.94","48.17","GRATES COVE","840B053","2012-02-09 21:30","2012","02","09","21:30","-1.1","","-1.6","","96","","","","","M","32","","","","101.25","","","","-8","","NA"
"-52.94","48.17","GRATES COVE","840B053","2012-02-09 22:30","2012","02","09","22:30","-1.0","","-1.3","","98","","","","","M","28","","","","101.04","","","","-8","","NA"
"-52.94","48.17","GRATES COVE","840B053","2012-02-09 23:30","2012","02","09","23:30","-1.0","","-1.3","","98","","","","","M","33","","","","100.69","","","","-8","","NA"
"-52.94","48.17","GRATES COVE","840B053","2012-02-10 00:30","2012","02","10","00:30","-1.0","","-1.2","","99","","","","","M","48","","","","100.39","","","","-9","","NA"
"-52.94","48.17","GRATES COVE","840B053","2012-02-10 01:30","2012","02","10","01:30","-0.6","","-0.8","","99","","","","","M","57","","","","99.93","","","","-9","","NA"
"-52.94","48.17","GRATES COVE","840B053","2012-02-10 02:30","2012","02","10","02:30","0.2","","0.0","","99","","","","","M","52","","","","99.65","","","","","","NA"
"-52.94","48.17","GRATES COVE","840B053","2012-02-10 03:30","2012","02","10","03:30","0.3","","0.1","","99","","","","","M","41","","","","99.24","","","","","","NA"
"-52.94","48.17","GRATES COVE","840B053","2012-02-10 04:30","2012","02","10","04:30","0.8","","0.6","","99","","","","","M","28","","","","98.99","","","","","","NA"
"-52.94","48.17","GRATES COVE","840B053","2012-02-10 05:30","2012","02","10","05:30","1.9","","1.7","","99","","","","","M","28","","","","98.74","","","","","","NA"
"-52.94","48.17","GRATES COVE","840B053","2012-02-10 06:30","2012","02","10","06:30","1.7","","1.5","","99","","","","","M","19","","","","98.61","","","","","","NA"
"-52.94","48.17","GRATES COVE","840B053","2012-02-10 07:30","2012","02","10","07:30","1.7","","1.5","","99","","","","","M","4","","","","98.61","","","","","","NA"
"-52.94","48.17","GRATES COVE","840B053","2012-02-10 08:30","2012","02","10","08:30","0.3","","0.2","","99","","","","","M","19","","","","98.66","","","","","","NA"
"-52.94","48.17","GRATES COVE","840B053","2012-02-10 09:30","2012","02","10","09:30","0.3","","0.2","","99","","","","","M","17","","","","98.82","","","","","","NA"
"-52.94","48.17","GRATES COVE","840B053","2012-02-10 10:30","2012","02","10","10:30","0.2","","0.1","","99","","","","","M","26","","","","98.96","","","","","","NA"
"-52.94","48.17","GRATES COVE","840B053","2012-02-10 11:30","2012","02","10","11:30","0.2","","0.1","","99","","","","","M","35","","","","99.12","","","","","","NA"
"-52.94","48.17","GRATES COVE","840B053","2012-02-10 12:30","2012","02","10","12:30","0.3","","0.1","","99","","","","","M","52","","","","99.33","","","","","","NA"
"-52.94","48.17","GRATES COVE","840B053","2012-02-10 13:30","2012","02","10","13:30","0.3","","-0.1","","97","","","","","M","41","","","","99.67","","","","","","NA"
"-52.94","48.17","GRATES COVE","840B053","2012-02-10 14:30","2012","02","10","14:30","0.4","","-0.6","","93","","","","","M","43","","","","99.94","","","","","","NA"
"-52.94","48.17","GRATES COVE","840B053","2012-02-10 15:30","2012","02","10","15:30","0.4","","-0.8","","92","","","","","M","43","","","","100.14","","","","","","NA"
"-52.94","48.17","GRATES COVE","840B053","2012-02-10 16:30","2012","02","10","16:30","-0.2","","-1.3","","92","","","","","M","39","","","","100.51","","","","-8","","NA"
"-52.94","48.17","GRATES COVE","840B053","2012-02-10 17:30","2012","02","10","17:30","-0.5","","-2.3","","88","","","","","M","37","","","","100.76","","","","-8","","NA"
"-52.94","48.17","GRATES COVE","840B053","2012-02-10 18:30","2012","02","10","18:30","-1.1","","-3.2","","86","","","","","M","35","","","","101.03","","","","-8","","NA"
"-52.94","48.17","GRATES COVE","840B053","2012-02-10 19:30","2012","02","10","19:30","-1.7","","-3.5","","87","","","","","M","22","","","","101.16","","","","-8","","NA"
"-52.94","48.17","GRATES COVE","840B053","2012-02-10 20:30","2012","02","10","20:30","-1.6","","-3.9","","84","","","","","M","22","","","","101.26","","","","-8","","NA"
"-52.94","48.17","GRATES COVE","840B053","2012-02-10 21:30","2012","02","10","21:30","-1.5","","-4.1","","82","","","","","M","24","","","","101.32","","","","-8","","NA"
"-52.94","48.17","GRATES COVE","840B053","2012-02-10 22:30","2012","02","10","22:30","-1.4","","-3.6","","85","","","","","M","24","","","","101.43","","","","-8","","NA"
"-52.94","48.17","GRATES COVE","840B053","2012-02-10 23:30","2012","02","10","23:30","-1.8","","-4.1","","84","","","","","M","26","","","","101.48","","","","-8","","NA"
"-52.94","48.17","GRATES COVE","840B053","2012-02-11 00:30","2012","02","11","00:30","-2.1","","-5.2","","79","","","","","M","28","","","","101.57","","","","-9","","NA"
"-52.94","48.17","GRATES COVE","840B053","2012-02-11 01:30","2012","02","11","01:30","-2.5","","-4.9","","84","","","","","M","22","","","","101.65","","","","-9","","NA"
"-52.94","48.17","GRATES COVE","840B053","2012-02-11 02:30","2012","02","11","02:30","-2.4","","-5.2","","81","","","","","M","22","","","","101.69","","","","-9","","NA"
"-52.94","48.17","GRATES COVE","840B053","2012-02-11 03:30","2012","02","11","03:30","-4.4","","-6.4","","86","","","","","M","13","","","","101.73","","","","-9","","NA"
"-52.94","48.17","GRATES COVE","840B053","2012-02-11 04:30","2012","02","11","04:30","-4.0","","-5.7","","88","","","","","M","15","","","","101.78","","","","-9","","NA"
"-52.94","48.17","GRATES COVE","840B053","2012-02-11 05:30","2012","02","11","05:30","-3.6","","-4.9","","91","","","","","M","19","","","","101.81","","","","-10","","NA"
"-52.94","48.17","GRATES COVE","840B053","2012-02-11 06:30","2012","02","11","06:30","-4.3","","-5.8","","89","","","","","M","15","","","","101.81","","","","-10","","NA"
"-52.94","48.17","GRATES COVE","840B053","2012-02-11 07:30","2012","02","11","07:30","-3.0","","-4.9","","87","","","","","M","19","","","","101.87","","","","-9","","NA"
"-52.94","48.17","GRATES COVE","840B053","2012-02-11 08:30","2012","02","11","08:30","-2.4","","-4.5","","85","","","","","M","7","","","","101.90","","","","-5","","NA"
"-52.94","48.17","GRATES COVE","840B053","2012-02-11 09:30","2012","02","11","09:30","-1.6","","-4.0","","84","","","","","M","9","","","","101.91","","","","-5","","NA"
"-52.94","48.17","GRATES COVE","840B053","2012-02-11 10:30","2012","02","11","10:30","-1.3","","-4.0","","82","","","","","M","26","","","","101.90","","","","-8","","NA"
"-52.94","48.17","GRATES COVE","840B053","2012-02-11 11:30","2012","02","11","11:30","-0.9","","-3.4","","83","","","","","M","32","","","","101.90","","","","-8","","NA"
"-52.94","48.17","GRATES COVE","840B053","2012-02-11 12:30","2012","02","11","12:30","-0.1","","-2.5","","84","","","","","M","22","","","","101.86","","","","-6","","NA"
"-52.94","48.17","GRATES COVE","840B053","2012-02-11 13:30","2012","02","11","13:30","0.3","","-2.1","","84","","","","","M","22","","","","101.79","","","","","","NA"
"-52.94","48.17","GRATES COVE","840B053","2012-02-11 14:30","2012","02","11","14:30","1.2","","-1.7","","81","","","","","M","15","","","","101.75","","","","","","NA"
"-52.94","48.17","GRATES COVE","840B053","2012-02-11 15:30","2012","02","11","15:30","1.2","","-1.3","","83","","","","","M","20","","","","101.78","","","","","","NA"
"-52.94","48.17","GRATES COVE","840B053","2012-02-11 16:30","2012","02","11","16:30","1.7","","-0.6","","85","","","","","M","37","","","","101.72","","","","","","NA"
"-52.94","48.17","GRATES COVE","840B053","2012-02-11 17:30","2012","02","11","17:30","0.4","","-0.8","","92","","","","","M","32","","","","101.72","","","","","","NA"
"-52.94","48.17","GRATES COVE","840B053","2012-02-11 18:30","2012","02","11","18:30","0.5","","-0.3","","94","","","","","M","43","","","","101.60","","","","","","NA"
"-52.94","48.17","GRATES COVE","840B053","2012-02-11 19:30","2012","02","11","19:30","1.5","","0.3","","92","","","","","M","44","","","","101.60","","","","","","NA"
"-52.94","48.17","GRATES COVE","840B053","2012-02-11 20:30","2012","02","11","20:30","0.8","","0.2","","96","","","","","M","43","","","","101.50","","","","","","NA"
"-52.94","48.17","GRATES COVE","840B053","2012-02-11 21:30","2012","02","11","21:30","2.1","","1.2","","94","","","","","M","32","","","","101.46","","","","","","NA"
"-52.94","48.17","GRATES COVE","840B053","2012-02-11 22:30","2012","02","11","22:30","1.7","","1.0","","95","","","","","M","54","","","","101.32","","","","","","NA"
"-52.94","48.17","GRATES COVE","840B053","2012-02-11 23:30","2012","02","11","23:30","1.8","","1.0","","94","","","","","M","61","","","","101.22","","","","","","NA"
"-52.94","48.17","GRATES COVE","840B053","2012-02-12 00:30","2012","02","12","00:30","1.4","","0.7","","95","","","","","M","43","","","","101.15","","","","","","NA"
"-52.94","48.17","GRATES COVE","840B053","2012-02-12 01:30","2012","02","12","01:30","1.3","","0.7","","96","","","","","M","46","","","","100.87","","","","","","NA"
"-52.94","48.17","GRATES COVE","840B053","2012-02-12 02:30","2012","02","12","02:30","1.9","","0.8","","92","","","","","M","69","","","","100.76","","","","","","NA"
"-52.94","48.17","GRATES COVE","840B053","2012-02-12 03:30","2012","02","12","03:30","1.8","","0.5","","91","","","","","M","63","","","","100.63","","","","","","NA"
"-52.94","48.17","GRATES COVE","840B053","2012-02-12 04:30","2012","02","12","04:30","2.1","","0.5","","89","","","","","M","48","","","","100.41","","","","","","NA"
"-52.94","48.17","GRATES COVE","840B053","2012-02-12 05:30","2012","02","12","05:30","2.6","","1.0","","89","","","","","M","54","","","","100.19","","","","","","NA"
"-52.94","48.17","GRATES COVE","840B053","2012-02-12 06:30","2012","02","12","06:30","3.3","","1.6","","89","","","","","M","61","","","","99.77","","","","","","NA"
"-52.94","48.17","GRATES COVE","840B053","2012-02-12 07:30","2012","02","12","07:30","3.7","","1.9","","88","","","","","M","69","","","","99.58","","","","","","NA"
"-52.94","48.17","GRATES COVE","840B053","2012-02-12 08:30","2012","02","12","08:30","3.3","","2.6","","95","","","","","M","74","","","","99.51","","","","","","NA"
"-52.94","48.17","GRATES COVE","840B053","2012-02-12 09:30","2012","02","12","09:30","3.7","","3.3","","97","","","","","M","63","","","","99.44","","","","","","NA"
"-52.94","48.17","GRATES COVE","840B053","2012-02-12 10:30","2012","02","12","10:30","3.9","","3.5","","97","","","","","M","63","","","","99.38","","","","","","NA"
"-52.94","48.17","GRATES COVE","840B053","2012-02-12 11:30","2012","02","12","11:30","4.5","","4.1","","97","","","","","M","63","","","","99.22","","","","","","NA"
"-52.94","48.17","GRATES COVE","840B053","2012-02-12 12:30","2012","02","12","12:30","5.1","","4.7","","97","","","","","M","65","","","","99.05","","","","","","NA"
"-52.94","48.17","GRATES COVE","840B053","2012-02-12 13:30","2012","02","12","13:30","5.4","","5.0","","97","","","","","M","57","","","","99.01","","","","","","NA"
"-52.94","48.17","GRATES COVE","840B053","2012-02-12 14:30","2012","02","12","14:30","5.1","","4.7","","97","","","","","M","63","","","","98.90","","","","","","NA"
"-52.94","48.17","GRATES COVE","840B053","2012-02-12 15:30","2012","02","12","15:30","5.2","","4.8","","97","","","","","M","50","","","","98.89","","","","","","NA"
"-52.94","48.17","GRATES COVE","840B053","2012-02-12 16:30","2012","02","12","16:30","5.2","","4.9","","98","","","","","M","54","","","","98.81","","","","","","NA"
"-52.94","48.17","GRATES COVE","840B053","2012-02-12 17:30","2012","02","12","17:30","5.9","","5.5","","97","","","","","M","56","","","","98.78","","","","","","NA"
"-52.94","48.17","GRATES COVE","840B053","2012-02-12 18:30","2012","02","12","18:30","6.0","","5.6","","97","","","","","M","54","","","","98.69","","","","","","NA"
"-52.94","48.17","GRATES COVE","840B053","2012-02-12 19:30","2012","02","12","19:30","5.9","","5.6","","98","","","","","M","54","","","","98.59","","","","","","NA"
"-52.94","48.17","GRATES COVE","840B053","2012-02-12 20:30","2012","02","12","20:30","5.7","","5.4","","98","","","","","M","54","","","","98.49","","","","","","NA"
"-52.94","48.17","GRATES COVE","840B053","2012-02-12 21:30","2012","02","12","21:30","6.1","","5.8","","98","","","","","M","69","","","","98.27","","","","","","NA"
"-52.94","48.17","GRATES COVE","840B053","2012-02-12 22:30","2012","02","12","22:30","6.3","","6.0","","98","","","","","M","54","","","","98.24","","","","","","NA"
"-52.94","48.17","GRATES COVE","840B053","2012-02-12 23:30","2012","02","12","23:30","7.1","","6.8","","98","","","","","M","50","","","","98.18","","","","","","NA"
"-52.94","48.17","GRATES COVE","840B053","2012-02-13 00:30","2012","02","13","00:30","7.4","","7.1","","98","","","","","M","39","","","","98.22","","","","","","NA"
"-52.94","48.17","GRATES COVE","840B053","2012-02-13 01:30","2012","02","13","01:30","6.7","","6.4","","98","","","","","M","46","","","","98.07","","","","","","NA"
"-52.94","48.17","GRATES COVE","840B053","2012-02-13 02:30","2012","02","13","02:30","6.6","","6.2","","97","","","","","M","46","","","","98.19","","","","","","NA"
"-52.94","48.17","GRATES COVE","840B053","2012-02-13 03:30","2012","02","13","03:30","6.8","","6.3","","97","","","","","M","30","","","","98.21","","","","","","NA"
"-52.94","48.17","GRATES COVE","840B053","2012-02-13 04:30","2012","02","13","04:30","2.3","","1.8","","96","","","","","M","44","","","","98.32","","","","","","NA"
"-52.94","48.17","GRATES COVE","840B053","2012-02-13 05:30","2012","02","13","05:30","1.6","","1.1","","96","","","","","M","33","","","","98.54","","","","","","NA"
"-52.94","48.17","GRATES COVE","840B053","2012-02-13 06:30","2012","02","13","06:30","0.8","","-0.3","","92","","","","","M","48","","","","98.70","","","","","","NA"
"-52.94","48.17","GRATES COVE","840B053","2012-02-13 07:30","2012","02","13","07:30","0.2","","-1.2","","90","","","","","M","57","","","","98.83","","","","","","NA"
"-52.94","48.17","GRATES COVE","840B053","2012-02-13 08:30","2012","02","13","08:30","-0.5","","-2.8","","84","","","","","M","59","","","","98.95","","","","-9","","NA"
"-52.94","48.17","GRATES COVE","840B053","2012-02-13 09:30","2012","02","13","09:30","-1.0","","-4.1","","79","","","","","M","61","","","","99.16","","","","-10","","NA"
"-52.94","48.17","GRATES COVE","840B053","2012-02-13 10:30","2012","02","13","10:30","-0.9","","-4.2","","78","","","","","M","52","","","","99.29","","","","-10","","NA"
"-52.94","48.17","GRATES COVE","840B053","2012-02-13 11:30","2012","02","13","11:30","-0.9","","-6.5","","66","","","","","M","52","","","","99.44","","","","-10","","NA"
"-52.94","48.17","GRATES COVE","840B053","2012-02-13 12:30","2012","02","13","12:30","-1.9","","-4.8","","81","","","","","M","46","","","","99.51","","","","-10","","NA"
"-52.94","48.17","GRATES COVE","840B053","2012-02-13 13:30","2012","02","13","13:30","-2.3","","-7.6","","67","","","","","M","48","","","","99.58","","","","-11","","NA"
"-52.94","48.17","GRATES COVE","840B053","2012-02-13 14:30","2012","02","13","14:30","-2.2","","-7.2","","69","","","","","M","50","","","","99.61","","","","-11","","NA"
"-52.94","48.17","GRATES COVE","840B053","2012-02-13 15:30","2012","02","13","15:30","-3.0","","-6.5","","77","","","","","M","50","","","","99.71","","","","-12","","NA"
"-52.94","48.17","GRATES COVE","840B053","2012-02-13 16:30","2012","02","13","16:30","-3.7","","-9.7","","63","","","","","M","52","","","","99.80","","","","-13","","NA"
"-52.94","48.17","GRATES COVE","840B053","2012-02-13 17:30","2012","02","13","17:30","-4.8","","-10.7","","63","","","","","M","61","","","","99.97","","","","-15","","NA"
"-52.94","48.17","GRATES COVE","840B053","2012-02-13 18:30","2012","02","13","18:30","-5.7","","-12.0","","61","","","","","M","65","","","","100.13","","","","-17","","NA"
"-52.94","48.17","GRATES COVE","840B053","2012-02-13 19:30","2012","02","13","19:30","-5.9","","-11.5","","65","","","","","M","57","","","","100.26","","","","-17","","NA"
"-52.94","48.17","GRATES COVE","840B053","2012-02-13 20:30","2012","02","13","20:30","-6.3","","-13.7","","56","","","","","M","63","","","","100.41","","","","-18","","NA"
"-52.94","48.17","GRATES COVE","840B053","2012-02-13 21:30","2012","02","13","21:30","-6.5","","-13.7","","57","","","","","M","56","","","","100.57","","","","-17","","NA"
"-52.94","48.17","GRATES COVE","840B053","2012-02-13 22:30","2012","02","13","22:30","-7.0","","-11.9","","68","","","","","M","43","","","","100.61","","","","-17","","NA"
"-52.94","48.17","GRATES COVE","840B053","2012-02-13 23:30","2012","02","13","23:30","-6.3","","-12.8","","60","","","","","M","37","","","","100.62","","","","-16","","NA"
"-52.94","48.17","GRATES COVE","840B053","2012-02-14 00:30","2012","02","14","00:30","-7.2","","-12.8","","64","","","","","M","24","","","","100.63","","","","-15","","NA"
"-52.94","48.17","GRATES COVE","840B053","2012-02-14 01:30","2012","02","14","01:30","-5.5","","-10.5","","68","","","","","M","37","","","","100.59","","","","-14","","NA"
"-52.94","48.17","GRATES COVE","840B053","2012-02-14 02:30","2012","02","14","02:30","-4.8","","-9.3","","71","","","","","M","48","","","","100.52","","","","-15","","NA"
"-52.94","48.17","GRATES COVE","840B053","2012-02-14 03:30","2012","02","14","03:30","-3.8","","-8.2","","71","","","","","M","52","","","","100.53","","","","-13","","NA"
"-52.94","48.17","GRATES COVE","840B053","2012-02-14 04:30","2012","02","14","04:30","-3.0","","-7.0","","74","","","","","M","46","","","","100.63","","","","-12","","NA"
"-52.94","48.17","GRATES COVE","840B053","2012-02-14 05:30","2012","02","14","05:30","-4.2","","-5.4","","91","","","","","M","26","","","","100.82","","","","-11","","NA"
"-52.94","48.17","GRATES COVE","840B053","2012-02-14 06:30","2012","02","14","06:30","-3.4","","-7.6","","73","","","","","M","33","","","","100.87","","","","-11","","NA"
"-52.94","48.17","GRATES COVE","840B053","2012-02-14 07:30","2012","02","14","07:30","-4.7","","-6.7","","86","","","","","M","32","","","","101.00","","","","-13","","NA"
"-52.94","48.17","GRATES COVE","840B053","2012-02-14 08:30","2012","02","14","08:30","-4.9","","-7.8","","80","","","","","M","26","","","","101.12","","","","-12","","NA"
"-52.94","48.17","GRATES COVE","840B053","2012-02-14 09:30","2012","02","14","09:30","-4.6","","-9.0","","71","","","","","M","33","","","","101.22","","","","-13","","NA"
"-52.94","48.17","GRATES COVE","840B053","2012-02-14 10:30","2012","02","14","10:30","-3.9","","-10.2","","62","","","","","M","43","","","","101.32","","","","-13","","NA"
"-52.94","48.17","GRATES COVE","840B053","2012-02-14 11:30","2012","02","14","11:30","-4.0","","-9.3","","67","","","","","M","39","","","","101.38","","","","-13","","NA"
"-52.94","48.17","GRATES COVE","840B053","2012-02-14 12:30","2012","02","14","12:30","-3.7","","-9.3","","65","","","","","M","43","","","","101.41","","","","-13","","NA"
"-52.94","48.17","GRATES COVE","840B053","2012-02-14 13:30","2012","02","14","13:30","-3.5","","-9.8","","62","","","","","M","43","","","","101.45","","","","-12","","NA"
"-52.94","48.17","GRATES COVE","840B053","2012-02-14 14:30","2012","02","14","14:30","-3.5","","-9.0","","66","","","","","M","41","","","","101.52","","","","-12","","NA"
"-52.94","48.17","GRATES COVE","840B053","2012-02-14 15:30","2012","02","14","15:30","-2.6","","-8.4","","64","","","","","M","37","","","","101.63","","","","-11","","NA"
"-52.94","48.17","GRATES COVE","840B053","2012-02-14 16:30","2012","02","14","16:30","-3.2","","-9.4","","62","","","","","M","33","","","","101.72","","","","-11","","NA"
"-52.94","48.17","GRATES COVE","840B053","2012-02-14 17:30","2012","02","14","17:30","-3.6","","-9.5","","64","","","","","M","33","","","","101.83","","","","-12","","NA"
"-52.94","48.17","GRATES COVE","840B053","2012-02-14 18:30","2012","02","14","18:30","-3.7","","-9.9","","62","","","","","M","32","","","","101.97","","","","-12","","NA"
"-52.94","48.17","GRATES COVE","840B053","2012-02-14 19:30","2012","02","14","19:30","-3.8","","-9.0","","67","","","","","M","33","","","","102.11","","","","-12","","NA"
"-52.94","48.17","GRATES COVE","840B053","2012-02-14 20:30","2012","02","14","20:30","-4.5","","-8.9","","71","","","","","M","33","","","","102.21","","","","-13","","NA"
"-52.94","48.17","GRATES COVE","840B053","2012-02-14 21:30","2012","02","14","21:30","-4.8","","-9.1","","72","","","","","M","37","","","","102.31","","","","-14","","NA"
"-52.94","48.17","GRATES COVE","840B053","2012-02-14 22:30","2012","02","14","22:30","-5.0","","-9.4","","71","","","","","M","32","","","","102.40","","","","-13","","NA"
"-52.94","48.17","GRATES COVE","840B053","2012-02-14 23:30","2012","02","14","23:30","-5.0","","-9.4","","71","","","","","M","32","","","","102.50","","","","-13","","NA"
"-52.94","48.17","GRATES COVE","840B053","2012-02-15 00:30","2012","02","15","00:30","-5.1","","-9.2","","73","","","","","M","26","","","","102.61","","","","-13","","NA"
"-52.94","48.17","GRATES COVE","840B053","2012-02-15 01:30","2012","02","15","01:30","-4.9","","-8.8","","74","","","","","M","28","","","","102.64","","","","-13","","NA"
"-52.94","48.17","GRATES COVE","840B053","2012-02-15 02:30","2012","02","15","02:30","-4.9","","-7.9","","79","","","","","M","17","","","","102.67","","","","-11","","NA"
"-52.94","48.17","GRATES COVE","840B053","2012-02-15 03:30","2012","02","15","03:30","-6.4","","-9.4","","79","","","","","M","17","","","","102.75","","","","-13","","NA"
"-52.94","48.17","GRATES COVE","840B053","2012-02-15 04:30","2012","02","15","04:30","-6.1","","-9.2","","79","","","","","M","20","","","","102.76","","","","-13","","NA"
"-52.94","48.17","GRATES COVE","840B053","2012-02-15 05:30","2012","02","15","05:30","-5.8","","-8.9","","79","","","","","M","20","","","","102.77","","","","-13","","NA"
"-52.94","48.17","GRATES COVE","840B053","2012-02-15 06:30","2012","02","15","06:30","-6.0","","-9.1","","79","","","","","M","7","","","","102.79","","","","-9","","NA"
"-52.94","48.17","GRATES COVE","840B053","2012-02-15 07:30","2012","02","15","07:30","-4.9","","-8.2","","78","","","","","M","26","","","","102.82","","","","-12","","NA"
"-52.94","48.17","GRATES COVE","840B053","2012-02-15 08:30","2012","02","15","08:30","-3.4","","-7.4","","74","","","","","M","13","","","","102.85","","","","-8","","NA"
"-52.94","48.17","GRATES COVE","840B053","2012-02-15 09:30","2012","02","15","09:30","-2.4","","-5.8","","77","","","","","M","24","","","","102.87","","","","-9","","NA"
"-52.94","48.17","GRATES COVE","840B053","2012-02-15 10:30","2012","02","15","10:30","-1.8","","-5.5","","76","","","","","M","17","","","","102.83","","","","-7","","NA"
"-52.94","48.17","GRATES COVE","840B053","2012-02-15 11:30","2012","02","15","11:30","-1.4","","-5.3","","75","","","","","M","22","","","","102.77","","","","-7","","NA"
"-52.94","48.17","GRATES COVE","840B053","2012-02-15 12:30","2012","02","15","12:30","-0.4","","-5.2","","70","","","","","M","20","","","","102.74","","","","-6","","NA"
"-52.94","48.17","GRATES COVE","840B053","2012-02-15 13:30","2012","02","15","13:30","0.7","","-5.4","","64","","","","","M","15","","","","102.71","","","","","","NA"
"-52.94","48.17","GRATES COVE","840B053","2012-02-15 14:30","2012","02","15","14:30","1.1","","-5.0","","64","","","","","M","15","","","","102.70","","","","","","NA"
"-52.94","48.17","GRATES COVE","840B053","2012-02-15 15:30","2012","02","15","15:30","0.3","","-3.6","","75","","","","","M","2","","","","102.64","","","","","","NA"
"-52.94","48.17","GRATES COVE","840B053","2012-02-15 16:30","2012","02","15","16:30","0.1","","-3.6","","76","","","","","M","11","","","","102.58","","","","","","NA"
"-52.94","48.17","GRATES COVE","840B053","2012-02-15 17:30","2012","02","15","17:30","-0.5","","-2.7","","85","","","","","M","6","","","","102.54","","","","-3","","NA"
"-52.94","48.17","GRATES COVE","840B053","2012-02-15 18:30","2012","02","15","18:30","-0.3","","-2.4","","86","","","","","M","13","","","","102.52","","","","-4","","NA"
"-52.94","48.17","GRATES COVE","840B053","2012-02-15 19:30","2012","02","15","19:30","-0.3","","-2.0","","88","","","","","M","22","","","","102.49","","","","-6","","NA"
"-52.94","48.17","GRATES COVE","840B053","2012-02-15 20:30","2012","02","15","20:30","-0.1","","-2.0","","87","","","","","M","6","","","","102.51","","","","-2","","NA"
"-52.94","48.17","GRATES COVE","840B053","2012-02-15 21:30","2012","02","15","21:30","-0.2","","-1.7","","90","","","","","M","7","","","","102.47","","","","-3","","NA"
"-52.94","48.17","GRATES COVE","840B053","2012-02-15 22:30","2012","02","15","22:30","-0.3","","-1.4","","92","","","","","M","9","","","","102.41","","","","-3","","NA"
"-52.94","48.17","GRATES COVE","840B053","2012-02-15 23:30","2012","02","15","23:30","-0.6","","-1.1","","96","","","","","M","7","","","","102.34","","","","-3","","NA"
"-52.94","48.17","GRATES COVE","840B053","2012-02-16 00:30","2012","02","16","00:30","-0.4","","-0.8","","97","","","","","M","19","","","","102.24","","","","-6","","NA"
"-52.94","48.17","GRATES COVE","840B053","2012-02-16 01:30","2012","02","16","01:30","-0.4","","-0.7","","98","","","","","M","15","","","","102.15","","","","-5","","NA"
"-52.94","48.17","GRATES COVE","840B053","2012-02-16 02:30","2012","02","16","02:30","-0.3","","-0.5","","99","","","","","M","17","","","","102.07","","","","-5","","NA"
"-52.94","48.17","GRATES COVE","840B053","2012-02-16 03:30","2012","02","16","03:30","-0.3","","-0.5","","99","","","","","M","19","","","","102.01","","","","-5","","NA"
"-52.94","48.17","GRATES COVE","840B053","2012-02-16 04:30","2012","02","16","04:30","-0.1","","-0.3","","99","","","","","M","26","","","","101.90","","","","-6","","NA"
"-52.94","48.17","GRATES COVE","840B053","2012-02-16 05:30","2012","02","16","05:30","0.1","","-0.1","","99","","","","","M","35","","","","101.86","","","","","","NA"
"-52.94","48.17","GRATES COVE","840B053","2012-02-16 06:30","2012","02","16","06:30","0.1","","-0.1","","99","","","","","M","35","","","","101.76","","","","","","NA"
"-52.94","48.17","GRATES COVE","840B053","2012-02-16 07:30","2012","02","16","07:30","0.2","","0.0","","99","","","","","M","33","","","","101.74","","","","","","NA"
"-52.94","48.17","GRATES COVE","840B053","2012-02-16 08:30","2012","02","16","08:30","0.1","","-0.1","","99","","","","","M","22","","","","101.71","","","","","","NA"
"-52.94","48.17","GRATES COVE","840B053","2012-02-16 09:30","2012","02","16","09:30","0.2","","0.0","","99","","","","","M","15","","","","101.68","","","","","","NA"
"-52.94","48.17","GRATES COVE","840B053","2012-02-16 10:30","2012","02","16","10:30","0.3","","0.1","","99","","","","","M","30","","","","101.68","","","","","","NA"
"-52.94","48.17","GRATES COVE","840B053","2012-02-16 11:30","2012","02","16","11:30","0.4","","0.2","","99","","","","","M","28","","","","101.63","","","","","","NA"
"-52.94","48.17","GRATES COVE","840B053","2012-02-16 12:30","2012","02","16","12:30","0.3","","0.1","","99","","","","","M","26","","","","101.55","","","","","","NA"
"-52.94","48.17","GRATES COVE","840B053","2012-02-16 13:30","2012","02","16","13:30","0.3","","0.1","","99","","","","","M","26","","","","101.44","","","","","","NA"
"-52.94","48.17","GRATES COVE","840B053","2012-02-16 14:30","2012","02","16","14:30","0.2","","0.0","","99","","","","","M","26","","","","101.36","","","","","","NA"
"-52.94","48.17","GRATES COVE","840B053","2012-02-16 15:30","2012","02","16","15:30","0.2","","0.0","","99","","","","","M","24","","","","101.33","","","","","","NA"
"-52.94","48.17","GRATES COVE","840B053","2012-02-16 16:30","2012","02","16","16:30","0.1","","-0.1","","99","","","","","M","20","","","","101.26","","","","","","NA"
"-52.94","48.17","GRATES COVE","840B053","2012-02-16 17:30","2012","02","16","17:30","0.1","","-0.1","","99","","","","","M","19","","","","101.18","","","","","","NA"
"-52.94","48.17","GRATES COVE","840B053","2012-02-16 18:30","2012","02","16","18:30","0.2","","0.0","","99","","","","","M","20","","","","101.10","","","","","","NA"
"-52.94","48.17","GRATES COVE","840B053","2012-02-16 19:30","2012","02","16","19:30","0.3","","0.1","","99","","","","","M","19","","","","101.05","","","","","","NA"
"-52.94","48.17","GRATES COVE","840B053","2012-02-16 20:30","2012","02","16","20:30","0.3","","0.1","","99","","","","","M","17","","","","100.98","","","","","","NA"
"-52.94","48.17","GRATES COVE","840B053","2012-02-16 21:30","2012","02","16","21:30","0.4","","0.2","","99","","","","","M","20","","","","100.90","","","","","","NA"
"-52.94","48.17","GRATES COVE","840B053","2012-02-16 22:30","2012","02","16","22:30","0.6","","0.4","","99","","","","","M","28","","","","100.70","","","","","","NA"
"-52.94","48.17","GRATES COVE","840B053","2012-02-16 23:30","2012","02","16","23:30","0.9","","0.7","","99","","","","","M","37","","","","100.49","","","","","","NA"
"-52.94","48.17","GRATES COVE","840B053","2012-02-17 00:30","2012","02","17","00:30","1.5","","1.3","","99","","","","","M","37","","","","100.38","","","","","","NA"
"-52.94","48.17","GRATES COVE","840B053","2012-02-17 01:30","2012","02","17","01:30","2.3","","2.1","","99","","","","","M","32","","","","100.27","","","","","","NA"
"-52.94","48.17","GRATES COVE","840B053","2012-02-17 02:30","2012","02","17","02:30","3.0","","2.8","","99","","","","","M","37","","","","100.19","","","","","","NA"
"-52.94","48.17","GRATES COVE","840B053","2012-02-17 03:30","2012","02","17","03:30","3.2","","3.0","","99","","","","","M","32","","","","100.11","","","","","","NA"
"-52.94","48.17","GRATES COVE","840B053","2012-02-17 04:30","2012","02","17","04:30","3.0","","2.8","","99","","","","","M","39","","","","100.01","","","","","","NA"
"-52.94","48.17","GRATES COVE","840B053","2012-02-17 05:30","2012","02","17","05:30","2.8","","2.6","","99","","","","","M","41","","","","99.96","","","","","","NA"
"-52.94","48.17","GRATES COVE","840B053","2012-02-17 06:30","2012","02","17","06:30","4.0","","3.7","","98","","","","","M","46","","","","99.93","","","","","","NA"
"-52.94","48.17","GRATES COVE","840B053","2012-02-17 07:30","2012","02","17","07:30","0.9","","0.7","","99","","","","","M","20","","","","100.06","","","","","","NA"
"-52.94","48.17","GRATES COVE","840B053","2012-02-17 08:30","2012","02","17","08:30","0.6","","0.4","","99","","","","","M","20","","","","100.17","","","","","","NA"
"-52.94","48.17","GRATES COVE","840B053","2012-02-17 09:30","2012","02","17","09:30","0.7","","0.5","","99","","","","","M","24","","","","100.21","","","","","","NA"
"-52.94","48.17","GRATES COVE","840B053","2012-02-17 10:30","2012","02","17","10:30","0.6","","0.4","","99","","","","","M","28","","","","100.27","","","","","","NA"
"-52.94","48.17","GRATES COVE","840B053","2012-02-17 11:30","2012","02","17","11:30","1.0","","0.8","","99","","","","","M","17","","","","100.33","","","","","","NA"
"-52.94","48.17","GRATES COVE","840B053","2012-02-17 12:30","2012","02","17","12:30","0.9","","0.5","","97","","","","","M","20","","","","100.33","","","","","","NA"
"-52.94","48.17","GRATES COVE","840B053","2012-02-17 13:30","2012","02","17","13:30","1.4","","0.7","","95","","","","","M","17","","","","100.32","","","","","","NA"
"-52.94","48.17","GRATES COVE","840B053","2012-02-17 14:30","2012","02","17","14:30","0.8","","-0.1","","94","","","","","M","15","","","","100.34","","","","","","NA"
"-52.94","48.17","GRATES COVE","840B053","2012-02-17 15:30","2012","02","17","15:30","0.7","","-0.3","","93","","","","","M","13","","","","100.37","","","","","","NA"
"-52.94","48.17","GRATES COVE","840B053","2012-02-17 16:30","2012","02","17","16:30","0.4","","-0.6","","93","","","","","M","19","","","","100.34","","","","","","NA"
"-52.94","48.17","GRATES COVE","840B053","2012-02-17 17:30","2012","02","17","17:30","0.2","","-0.8","","93","","","","","M","22","","","","100.40","","","","","","NA"
"-52.94","48.17","GRATES COVE","840B053","2012-02-17 18:30","2012","02","17","18:30","-0.4","","-1.3","","94","","","","","M","32","","","","100.40","","","","-7","","NA"
"-52.94","48.17","GRATES COVE","840B053","2012-02-17 19:30","2012","02","17","19:30","-0.8","","-1.6","","94","","","","","M","24","","","","100.35","","","","-7","","NA"
"-52.94","48.17","GRATES COVE","840B053","2012-02-17 20:30","2012","02","17","20:30","-1.1","","-1.8","","95","","","","","M","17","","","","100.32","","","","-6","","NA"
"-52.94","48.17","GRATES COVE","840B053","2012-02-17 21:30","2012","02","17","21:30","-1.5","","-2.4","","94","","","","","M","24","","","","100.33","","","","-8","","NA"
"-52.94","48.17","GRATES COVE","840B053","2012-02-17 22:30","2012","02","17","22:30","-1.6","","-2.5","","94","","","","","M","22","","","","100.30","","","","-8","","NA"
"-52.94","48.17","GRATES COVE","840B053","2012-02-17 23:30","2012","02","17","23:30","-1.9","","-2.8","","94","","","","","M","22","","","","100.29","","","","-8","","NA"
"-52.94","48.17","GRATES COVE","840B053","2012-02-18 00:30","2012","02","18","00:30","-2.1","","-2.9","","94","","","","","M","22","","","","100.27","","","","-8","","NA"
"-52.94","48.17","GRATES COVE","840B053","2012-02-18 01:30","2012","02","18","01:30","-2.0","","-2.8","","94","","","","","M","24","","","","100.26","","","","-8","","NA"
"-52.94","48.17","GRATES COVE","840B053","2012-02-18 02:30","2012","02","18","02:30","-1.9","","-2.7","","94","","","","","M","20","","","","100.29","","","","-8","","NA"
"-52.94","48.17","GRATES COVE","840B053","2012-02-18 03:30","2012","02","18","03:30","-1.9","","-2.8","","94","","","","","M","24","","","","100.31","","","","-8","","NA"
"-52.94","48.17","GRATES COVE","840B053","2012-02-18 04:30","2012","02","18","04:30","-1.8","","-2.8","","93","","","","","M","22","","","","100.35","","","","-8","","NA"
"-52.94","48.17","GRATES COVE","840B053","2012-02-18 05:30","2012","02","18","05:30","-1.5","","-2.5","","93","","","","","M","20","","","","100.38","","","","-7","","NA"
"-52.94","48.17","GRATES COVE","840B053","2012-02-18 06:30","2012","02","18","06:30","-1.5","","-2.7","","92","","","","","M","19","","","","100.39","","","","-7","","NA"
"-52.94","48.17","GRATES COVE","840B053","2012-02-18 07:30","2012","02","18","07:30","-1.5","","-2.9","","90","","","","","M","17","","","","100.44","","","","-7","","NA"
"-52.94","48.17","GRATES COVE","840B053","2012-02-18 08:30","2012","02","18","08:30","-1.1","","-2.8","","88","","","","","M","13","","","","100.49","","","","-5","","NA"
"-52.94","48.17","GRATES COVE","840B053","2012-02-18 09:30","2012","02","18","09:30","-0.3","","-2.8","","83","","","","","M","15","","","","100.52","","","","-5","","NA"
"-52.94","48.17","GRATES COVE","840B053","2012-02-18 10:30","2012","02","18","10:30","-0.4","","-2.9","","83","","","","","M","15","","","","100.51","","","","-5","","NA"
"-52.94","48.17","GRATES COVE","840B053","2012-02-18 11:30","2012","02","18","11:30","-0.2","","-2.6","","84","","","","","M","11","","","","100.52","","","","-4","","NA"
"-52.94","48.17","GRATES COVE","840B053","2012-02-18 12:30","2012","02","18","12:30","-0.1","","-2.5","","84","","","","","M","4","","","","100.39","","","","-1","","NA"
"-52.94","48.17","GRATES COVE","840B053","2012-02-18 13:30","2012","02","18","13:30","0.8","","-2.3","","80","","","","","M","7","","","","100.25","","","","","","NA"
"-52.94","48.17","GRATES COVE","840B053","2012-02-18 14:30","2012","02","18","14:30","-0.6","","-3.0","","84","","","","","M","17","","","","100.29","","","","-6","","NA"
"-52.94","48.17","GRATES COVE","840B053","2012-02-18 15:30","2012","02","18","15:30","-0.9","","-2.7","","88","","","","","M","17","","","","100.22","","","","-6","","NA"
"-52.94","48.17","GRATES COVE","840B053","2012-02-18 16:30","2012","02","18","16:30","-1.3","","-2.7","","90","","","","","M","20","","","","100.13","","","","-7","","NA"
"-52.94","48.17","GRATES COVE","840B053","2012-02-18 17:30","2012","02","18","17:30","-1.4","","-2.8","","90","","","","","M","20","","","","100.01","","","","-7","","NA"
"-52.94","48.17","GRATES COVE","840B053","2012-02-18 18:30","2012","02","18","18:30","-1.4","","-2.4","","93","","","","","M","30","","","","99.95","","","","-8","","NA"
"-52.94","48.17","GRATES COVE","840B053","2012-02-18 19:30","2012","02","18","19:30","-1.2","","-2.3","","92","","","","","M","44","","","","99.71","","","","-9","","NA"
"-52.94","48.17","GRATES COVE","840B053","2012-02-18 20:30","2012","02","18","20:30","-0.7","","-1.9","","92","","","","","M","26","","","","99.64","","","","-7","","NA"
"-52.94","48.17","GRATES COVE","840B053","2012-02-18 21:30","2012","02","18","21:30","-0.5","","-1.2","","95","","","","","M","33","","","","99.39","","","","-7","","NA"
"-52.94","48.17","GRATES COVE","840B053","2012-02-18 22:30","2012","02","18","22:30","-0.4","","-0.7","","98","","","","","M","35","","","","99.18","","","","-7","","NA"
"-52.94","48.17","GRATES COVE","840B053","2012-02-18 23:30","2012","02","18","23:30","0.2","","0.0","","99","","","","","M","35","","","","98.98","","","","","","NA"
"-52.94","48.17","GRATES COVE","840B053","2012-02-19 00:30","2012","02","19","00:30","0.4","","0.2","","99","","","","","M","32","","","","98.85","","","","","","NA"
"-52.94","48.17","GRATES COVE","840B053","2012-02-19 01:30","2012","02","19","01:30","0.9","","0.7","","99","","","","","M","24","","","","98.73","","","","","","NA"
"-52.94","48.17","GRATES COVE","840B053","2012-02-19 02:30","2012","02","19","02:30","0.5","","0.2","","98","","","","","M","26","","","","98.69","","","","","","NA"
"-52.94","48.17","GRATES COVE","840B053","2012-02-19 03:30","2012","02","19","03:30","0.6","","-1.1","","88","","","","","M","32","","","","98.59","","","","","","NA"
"-52.94","48.17","GRATES COVE","840B053","2012-02-19 04:30","2012","02","19","04:30","0.5","","-1.3","","88","","","","","M","44","","","","98.52","","","","","","NA"
"-52.94","48.17","GRATES COVE","840B053","2012-02-19 05:30","2012","02","19","05:30","0.2","","-1.0","","92","","","","","M","46","","","","98.41","","","","","","NA"
"-52.94","48.17","GRATES COVE","840B053","2012-02-19 06:30","2012","02","19","06:30","0.3","","-0.9","","92","","","","","M","46","","","","98.34","","","","","","NA"
"-52.94","48.17","GRATES COVE","840B053","2012-02-19 07:30","2012","02","19","07:30","0.4","","-1.0","","90","","","","","M","35","","","","98.35","","","","","","NA"
"-52.94","48.17","GRATES COVE","840B053","2012-02-19 08:30","2012","02","19","08:30","0.7","","-1.7","","84","","","","","M","44","","","","98.37","","","","","","NA"
"-52.94","48.17","GRATES COVE","840B053","2012-02-19 09:30","2012","02","19","09:30","0.7","","-2.0","","82","","","","","M","52","","","","98.36","","","","","","NA"
"-52.94","48.17","GRATES COVE","840B053","2012-02-19 10:30","2012","02","19","10:30","0.7","","-2.0","","82","","","","","M","56","","","","98.33","","","","","","NA"
"-52.94","48.17","GRATES COVE","840B053","2012-02-19 11:30","2012","02","19","11:30","0.6","","-2.3","","81","","","","","M","56","","","","98.34","","","","","","NA"
"-52.94","48.17","GRATES COVE","840B053","2012-02-19 12:30","2012","02","19","12:30","0.6","","-2.3","","81","","","","","M","50","","","","98.31","","","","","","NA"
"-52.94","48.17","GRATES COVE","840B053","2012-02-19 13:30","2012","02","19","13:30","0.6","","-2.3","","81","","","","","M","46","","","","98.23","","","","","","NA"
"-52.94","48.17","GRATES COVE","840B053","2012-02-19 14:30","2012","02","19","14:30","0.5","","-2.0","","83","","","","","M","61","","","","98.21","","","","","","NA"
"-52.94","48.17","GRATES COVE","840B053","2012-02-19 15:30","2012","02","19","15:30","0.0","","-1.9","","87","","","","","M","65","","","","98.19","","","","-9","","NA"
"-52.94","48.17","GRATES COVE","840B053","2012-02-19 16:30","2012","02","19","16:30","0.2","","-2.2","","84","","","","","M","54","","","","98.28","","","","","","NA"
"-52.94","48.17","GRATES COVE","840B053","2012-02-19 17:30","2012","02","19","17:30","0.0","","-2.7","","82","","","","","M","57","","","","98.29","","","","-9","","NA"
"-52.94","48.17","GRATES COVE","840B053","2012-02-19 18:30","2012","02","19","18:30","-0.4","","-2.6","","85","","","","","M","57","","","","98.33","","","","-9","","NA"
"-52.94","48.17","GRATES COVE","840B053","2012-02-19 19:30","2012","02","19","19:30","-0.1","","-2.8","","82","","","","","M","54","","","","98.36","","","","-9","","NA"
"-52.94","48.17","GRATES COVE","840B053","2012-02-19 20:30","2012","02","19","20:30","-0.4","","-3.4","","80","","","","","M","56","","","","98.36","","","","-9","","NA"
"-52.94","48.17","GRATES COVE","840B053","2012-02-19 21:30","2012","02","19","21:30","-1.1","","-3.3","","85","","","","","M","54","","","","98.41","","","","-10","","NA"
"-52.94","48.17","GRATES COVE","840B053","2012-02-19 22:30","2012","02","19","22:30","-1.1","","-4.0","","81","","","","","M","52","","","","98.44","","","","-10","","NA"
"-52.94","48.17","GRATES COVE","840B053","2012-02-19 23:30","2012","02","19","23:30","-1.1","","-4.1","","80","","","","","M","56","","","","98.45","","","","-10","","NA"
"-52.94","48.17","GRATES COVE","840B053","2012-02-20 00:30","2012","02","20","00:30","-1.7","","-4.5","","81","","","","","M","52","","","","98.51","","","","-11","","NA"
"-52.94","48.17","GRATES COVE","840B053","2012-02-20 01:30","2012","02","20","01:30","-2.0","","-4.8","","81","","","","","M","52","","","","98.58","","","","-11","","NA"
"-52.94","48.17","GRATES COVE","840B053","2012-02-20 02:30","2012","02","20","02:30","-2.4","","-5.4","","80","","","","","M","48","","","","98.69","","","","-11","","NA"
"-52.94","48.17","GRATES COVE","840B053","2012-02-20 03:30","2012","02","20","03:30","-2.6","","-5.4","","81","","","","","M","48","","","","98.76","","","","-12","","NA"
"-52.94","48.17","GRATES COVE","840B053","2012-02-20 04:30","2012","02","20","04:30","-2.5","","-5.7","","79","","","","","M","54","","","","98.85","","","","-12","","NA"
"-52.94","48.17","GRATES COVE","840B053","2012-02-20 05:30","2012","02","20","05:30","-2.5","","-5.9","","77","","","","","M","50","","","","98.96","","","","-12","","NA"
"-52.94","48.17","GRATES COVE","840B053","2012-02-20 06:30","2012","02","20","06:30","-2.5","","-5.6","","79","","","","","M","39","","","","99.04","","","","-11","","NA"
"-52.94","48.17","GRATES COVE","840B053","2012-02-20 07:30","2012","02","20","07:30","-2.7","","-5.7","","80","","","","","M","37","","","","99.16","","","","-11","","NA"
"-52.94","48.17","GRATES COVE","840B053","2012-02-20 08:30","2012","02","20","08:30","-2.9","","-6.1","","79","","","","","M","43","","","","99.23","","","","-12","","NA"
"-52.94","48.17","GRATES COVE","840B053","2012-02-20 09:30","2012","02","20","09:30","-3.2","","-6.6","","77","","","","","M","41","","","","99.34","","","","-12","","NA"
"-52.94","48.17","GRATES COVE","840B053","2012-02-20 10:30","2012","02","20","10:30","-3.0","","-6.3","","78","","","","","M","39","","","","99.42","","","","-11","","NA"
"-52.94","48.17","GRATES COVE","840B053","2012-02-20 11:30","2012","02","20","11:30","-2.6","","-6.8","","73","","","","","M","39","","","","99.43","","","","-11","","NA"
"-52.94","48.17","GRATES COVE","840B053","2012-02-20 12:30","2012","02","20","12:30","-2.0","","-5.9","","75","","","","","M","41","","","","99.38","","","","-10","","NA"
"-52.94","48.17","GRATES COVE","840B053","2012-02-20 13:30","2012","02","20","13:30","-2.1","","-5.8","","76","","","","","M","41","","","","99.41","","","","-10","","NA"
"-52.94","48.17","GRATES COVE","840B053","2012-02-20 14:30","2012","02","20","14:30","-1.4","","-5.1","","76","","","","","M","39","","","","99.43","","","","-9","","NA"
"-52.94","48.17","GRATES COVE","840B053","2012-02-20 15:30","2012","02","20","15:30","-1.5","","-5.2","","76","","","","","M","32","","","","99.49","","","","-9","","NA"
"-52.94","48.17","GRATES COVE","840B053","2012-02-20 16:30","2012","02","20","16:30","-1.3","","-5.3","","74","","","","","M","35","","","","99.53","","","","-9","","NA"
"-52.94","48.17","GRATES COVE","840B053","2012-02-20 17:30","2012","02","20","17:30","-1.1","","-6.0","","69","","","","","M","30","","","","99.60","","","","-8","","NA"
"-52.94","48.17","GRATES COVE","840B053","2012-02-20 18:30","2012","02","20","18:30","-0.9","","-5.2","","73","","","","","M","28","","","","99.67","","","","-7","","NA"
"-52.94","48.17","GRATES COVE","840B053","2012-02-20 19:30","2012","02","20","19:30","-1.6","","-6.1","","71","","","","","M","30","","","","99.73","","","","-9","","NA"
"-52.94","48.17","GRATES COVE","840B053","2012-02-20 20:30","2012","02","20","20:30","-2.0","","-6.4","","72","","","","","M","24","","","","99.78","","","","-8","","NA"
"-52.94","48.17","GRATES COVE","840B053","2012-02-20 21:30","2012","02","20","21:30","-2.5","","-6.3","","75","","","","","M","22","","","","99.80","","","","-9","","NA"
"-52.94","48.17","GRATES COVE","840B053","2012-02-20 22:30","2012","02","20","22:30","-2.9","","-6.6","","76","","","","","M","20","","","","99.84","","","","-9","","NA"
"-52.94","48.17","GRATES COVE","840B053","2012-02-20 23:30","2012","02","20","23:30","-3.5","","-7.2","","75","","","","","M","19","","","","99.83","","","","-9","","NA"
"-52.94","48.17","GRATES COVE","840B053","2012-02-21 00:30","2012","02","21","00:30","-4.1","","-8.0","","74","","","","","M","19","","","","99.84","","","","-10","","NA"
"-52.94","48.17","GRATES COVE","840B053","2012-02-21 01:30","2012","02","21","01:30","-4.0","","-7.3","","78","","","","","M","19","","","","99.88","","","","-10","","NA"
"-52.94","48.17","GRATES COVE","840B053","2012-02-21 02:30","2012","02","21","02:30","-4.2","","-7.6","","77","","","","","M","20","","","","99.90","","","","-11","","NA"
"-52.94","48.17","GRATES COVE","840B053","2012-02-21 03:30","2012","02","21","03:30","-4.4","","-7.5","","79","","","","","M","17","","","","99.88","","","","-10","","NA"
"-52.94","48.17","GRATES COVE","840B053","2012-02-21 04:30","2012","02","21","04:30","-4.2","","-6.9","","81","","","","","M","22","","","","99.91","","","","-11","","NA"
"-52.94","48.17","GRATES COVE","840B053","2012-02-21 05:30","2012","02","21","05:30","-4.5","","-7.6","","79","","","","","M","24","","","","99.94","","","","-12","","NA"
"-52.94","48.17","GRATES COVE","840B053","2012-02-21 06:30","2012","02","21","06:30","-4.9","","-8.0","","79","","","","","M","24","","","","99.97","","","","-12","","NA"
"-52.94","48.17","GRATES COVE","840B053","2012-02-21 07:30","2012","02","21","07:30","-5.1","","-8.4","","78","","","","","M","20","","","","100.03","","","","-12","","NA"
"-52.94","48.17","GRATES COVE","840B053","2012-02-21 08:30","2012","02","21","08:30","-5.1","","-8.2","","79","","","","","M","26","","","","100.11","","","","-13","","NA"
"-52.94","48.17","GRATES COVE","840B053","2012-02-21 09:30","2012","02","21","09:30","-5.3","","-8.7","","77","","","","","M","24","","","","100.16","","","","-13","","NA"
"-52.94","48.17","GRATES COVE","840B053","2012-02-21 10:30","2012","02","21","10:30","-5.5","","-8.6","","79","","","","","M","22","","","","100.18","","","","-13","","NA"
"-52.94","48.17","GRATES COVE","840B053","2012-02-21 11:30","2012","02","21","11:30","-5.7","","-9.3","","76","","","","","M","24","","","","100.20","","","","-13","","NA"
"-52.94","48.17","GRATES COVE","840B053","2012-02-21 12:30","2012","02","21","12:30","-5.5","","-9.4","","74","","","","","M","20","","","","100.17","","","","-12","","NA"
"-52.94","48.17","GRATES COVE","840B053","2012-02-21 13:30","2012","02","21","13:30","-5.0","","-8.7","","75","","","","","M","22","","","","100.13","","","","-12","","NA"
"-52.94","48.17","GRATES COVE","840B053","2012-02-21 14:30","2012","02","21","14:30","-5.0","","-9.6","","70","","","","","M","20","","","","100.14","","","","-12","","NA"
"-52.94","48.17","GRATES COVE","840B053","2012-02-21 15:30","2012","02","21","15:30","-5.1","","-9.5","","71","","","","","M","26","","","","100.19","","","","-13","","NA"
"-52.94","48.17","GRATES COVE","840B053","2012-02-21 16:30","2012","02","21","16:30","-5.0","","-10.2","","67","","","","","M","30","","","","100.25","","","","-13","","NA"
"-52.94","48.17","GRATES COVE","840B053","2012-02-21 17:30","2012","02","21","17:30","-5.4","","-9.6","","72","","","","","M","32","","","","100.32","","","","-14","","NA"
"-52.94","48.17","GRATES COVE","840B053","2012-02-21 18:30","2012","02","21","18:30","-5.7","","-9.3","","76","","","","","M","30","","","","100.38","","","","-14","","NA"
"-52.94","48.17","GRATES COVE","840B053","2012-02-21 19:30","2012","02","21","19:30","-5.8","","-9.6","","74","","","","","M","33","","","","100.41","","","","-14","","NA"
"-52.94","48.17","GRATES COVE","840B053","2012-02-21 20:30","2012","02","21","20:30","-5.8","","-9.0","","78","","","","","M","32","","","","100.47","","","","-14","","NA"
"-52.94","48.17","GRATES COVE","840B053","2012-02-21 21:30","2012","02","21","21:30","-5.7","","-8.8","","79","","","","","M","22","","","","100.52","","","","-13","","NA"
"-52.94","48.17","GRATES COVE","840B053","2012-02-21 22:30","2012","02","21","22:30","-5.9","","-9.1","","78","","","","","M","22","","","","100.52","","","","-13","","NA"
"-52.94","48.17","GRATES COVE","840B053","2012-02-21 23:30","2012","02","21","23:30","-5.8","","-8.8","","79","","","","","M","33","","","","100.53","","","","-14","","NA"
"-52.94","48.17","GRATES COVE","840B053","2012-02-22 00:30","2012","02","22","00:30","-5.8","","-8.8","","79","","","","","M","28","","","","100.59","","","","-14","","NA"
"-52.94","48.17","GRATES COVE","840B053","2012-02-22 01:30","2012","02","22","01:30","-6.1","","-9.0","","80","","","","","M","24","","","","100.68","","","","-14","","NA"
"-52.94","48.17","GRATES COVE","840B053","2012-02-22 02:30","2012","02","22","02:30","-6.5","","-9.3","","80","","","","","M","26","","","","100.72","","","","-14","","NA"
"-52.94","48.17","GRATES COVE","840B053","2012-02-22 03:30","2012","02","22","03:30","-7.0","","-9.8","","80","","","","","M","24","","","","100.73","","","","-15","","NA"
"-52.94","48.17","GRATES COVE","840B053","2012-02-22 04:30","2012","02","22","04:30","-7.3","","-9.8","","82","","","","","M","20","","","","100.80","","","","-14","","NA"
"-52.94","48.17","GRATES COVE","840B053","2012-02-22 05:30","2012","02","22","05:30","-7.7","","-10.3","","82","","","","","M","17","","","","100.88","","","","-14","","NA"
"-52.94","48.17","GRATES COVE","840B053","2012-02-22 06:30","2012","02","22","06:30","-7.9","","-10.3","","83","","","","","M","19","","","","100.92","","","","-15","","NA"
"-52.94","48.17","GRATES COVE","840B053","2012-02-22 07:30","2012","02","22","07:30","-7.4","","-10.2","","80","","","","","M","30","","","","101.02","","","","-16","","NA"
"-52.94","48.17","GRATES COVE","840B053","2012-02-22 08:30","2012","02","22","08:30","-6.9","","-9.7","","80","","","","","M","30","","","","101.05","","","","-15","","NA"
"-52.94","48.17","GRATES COVE","840B053","2012-02-22 09:30","2012","02","22","09:30","-5.8","","-8.6","","81","","","","","M","28","","","","101.04","","","","-14","","NA"
"-52.94","48.17","GRATES COVE","840B053","2012-02-22 10:30","2012","02","22","10:30","-4.9","","-7.7","","81","","","","","M","32","","","","101.05","","","","-13","","NA"
"-52.94","48.17","GRATES COVE","840B053","2012-02-22 11:30","2012","02","22","11:30","-3.9","","-7.7","","75","","","","","M","28","","","","101.03","","","","-11","","NA"
"-52.94","48.17","GRATES COVE","840B053","2012-02-22 12:30","2012","02","22","12:30","-3.4","","-7.3","","74","","","","","M","26","","","","100.93","","","","-10","","NA"
"-52.94","48.17","GRATES COVE","840B053","2012-02-22 13:30","2012","02","22","13:30","-2.6","","-6.4","","75","","","","","M","39","","","","100.94","","","","-11","","NA"
"-52.94","48.17","GRATES COVE","840B053","2012-02-22 14:30","2012","02","22","14:30","-2.1","","-6.1","","74","","","","","M","33","","","","100.88","","","","-10","","NA"
"-52.94","48.17","GRATES COVE","840B053","2012-02-22 15:30","2012","02","22","15:30","-1.5","","-5.4","","75","","","","","M","37","","","","100.91","","","","-9","","NA"
"-52.94","48.17","GRATES COVE","840B053","2012-02-22 16:30","2012","02","22","16:30","-1.2","","-4.7","","77","","","","","M","37","","","","100.88","","","","-9","","NA"
"-52.94","48.17","GRATES COVE","840B053","2012-02-22 17:30","2012","02","22","17:30","-1.4","","-5.1","","76","","","","","M","28","","","","100.86","","","","-8","","NA"
"-52.94","48.17","GRATES COVE","840B053","2012-02-22 18:30","2012","02","22","18:30","-1.9","","-5.2","","78","","","","","M","19","","","","100.78","","","","-7","","NA"
"-52.94","48.17","GRATES COVE","840B053","2012-02-22 19:30","2012","02","22","19:30","-1.4","","-4.6","","79","","","","","M","22","","","","100.78","","","","-7","","NA"
"-52.94","48.17","GRATES COVE","840B053","2012-02-22 20:30","2012","02","22","20:30","-1.1","","-3.7","","82","","","","","M","28","","","","100.67","","","","-8","","NA"
"-52.94","48.17","GRATES COVE","840B053","2012-02-22 21:30","2012","02","22","21:30","-1.9","","-2.5","","96","","","","","M","24","","","","100.58","","","","-8","","NA"
"-52.94","48.17","GRATES COVE","840B053","2012-02-22 22:30","2012","02","22","22:30","-1.1","","-1.5","","97","","","","","M","41","","","","100.42","","","","-9","","NA"
"-52.94","48.17","GRATES COVE","840B053","2012-02-22 23:30","2012","02","22","23:30","-0.7","","-1.0","","98","","","","","M","44","","","","100.19","","","","-9","","NA"
"-52.94","48.17","GRATES COVE","840B053","2012-02-23 00:30","2012","02","23","00:30","-0.1","","-0.4","","98","","","","","M","50","","","","99.96","","","","-8","","NA"
"-52.94","48.17","GRATES COVE","840B053","2012-02-23 01:30","2012","02","23","01:30","1.3","","1.0","","98","","","","","M","56","","","","99.78","","","","","","NA"
"-52.94","48.17","GRATES COVE","840B053","2012-02-23 02:30","2012","02","23","02:30","2.1","","1.8","","98","","","","","M","54","","","","99.68","","","","","","NA"
"-52.94","48.17","GRATES COVE","840B053","2012-02-23 03:30","2012","02","23","03:30","2.3","","2.0","","98","","","","","M","33","","","","99.64","","","","","","NA"
"-52.94","48.17","GRATES COVE","840B053","2012-02-23 04:30","2012","02","23","04:30","3.6","","3.2","","97","","","","","M","32","","","","99.63","","","","","","NA"
"-52.94","48.17","GRATES COVE","840B053","2012-02-23 05:30","2012","02","23","05:30","3.7","","3.1","","96","","","","","M","26","","","","99.61","","","","","","NA"
"-52.94","48.17","GRATES COVE","840B053","2012-02-23 06:30","2012","02","23","06:30","3.5","","2.8","","95","","","","","M","39","","","","99.60","","","","","","NA"
"-52.94","48.17","GRATES COVE","840B053","2012-02-23 07:30","2012","02","23","07:30","2.1","","1.5","","96","","","","","M","32","","","","99.75","","","","","","NA"
"-52.94","48.17","GRATES COVE","840B053","2012-02-23 08:30","2012","02","23","08:30","1.6","","1.0","","96","","","","","M","30","","","","99.85","","","","","","NA"
"-52.94","48.17","GRATES COVE","840B053","2012-02-23 09:30","2012","02","23","09:30","1.8","","1.1","","95","","","","","M","37","","","","99.87","","","","","","NA"
"-52.94","48.17","GRATES COVE","840B053","2012-02-23 10:30","2012","02","23","10:30","1.8","","0.9","","94","","","","","M","39","","","","99.96","","","","","","NA"
"-52.94","48.17","GRATES COVE","840B053","2012-02-23 11:30","2012","02","23","11:30","1.8","","0.8","","93","","","","","M","39","","","","100.02","","","","","","NA"
"-52.94","48.17","GRATES COVE","840B053","2012-02-23 12:30","2012","02","23","12:30","2.2","","1.0","","92","","","","","M","41","","","","100.05","","","","","","NA"
"-52.94","48.17","GRATES COVE","840B053","2012-02-23 13:30","2012","02","23","13:30","2.6","","0.8","","88","","","","","M","35","","","","100.12","","","","","","NA"
"-52.94","48.17","GRATES COVE","840B053","2012-02-23 14:30","2012","02","23","14:30","2.7","","1.0","","89","","","","","M","35","","","","100.20","","","","","","NA"
"-52.94","48.17","GRATES COVE","840B053","2012-02-23 15:30","2012","02","23","15:30","3.1","","1.0","","86","","","","","M","35","","","","100.33","","","","","","NA"
"-52.94","48.17","GRATES COVE","840B053","2012-02-23 16:30","2012","02","23","16:30","2.7","","0.9","","88","","","","","M","26","","","","100.30","","","","","","NA"
"-52.94","48.17","GRATES COVE","840B053","2012-02-23 17:30","2012","02","23","17:30","1.9","","0.8","","92","","","","","M","24","","","","100.47","","","","","","NA"
"-52.94","48.17","GRATES COVE","840B053","2012-02-23 18:30","2012","02","23","18:30","2.3","","0.9","","90","","","","","M","11","","","","100.58","","","","","","NA"
"-52.94","48.17","GRATES COVE","840B053","2012-02-23 19:30","2012","02","23","19:30","2.4","","1.1","","91","","","","","M","9","","","","100.57","","","","","","NA"
"-52.94","48.17","GRATES COVE","840B053","2012-02-23 20:30","2012","02","23","20:30","2.1","","0.7","","90","","","","","M","9","","","","100.55","","","","","","NA"
"-52.94","48.17","GRATES COVE","840B053","2012-02-23 21:30","2012","02","23","21:30","1.5","","0.5","","93","","","","","M","19","","","","100.43","","","","","","NA"
"-52.94","48.17","GRATES COVE","840B053","2012-02-23 22:30","2012","02","23","22:30","1.1","","0.3","","94","","","","","M","9","","","","100.18","","","","","","NA"
"-52.94","48.17","GRATES COVE","840B053","2012-02-23 23:30","2012","02","23","23:30","0.3","","-0.2","","96","","","","","M","15","","","","100.00","","","","","","NA"
"-52.94","48.17","GRATES COVE","840B053","2012-02-24 00:30","2012","02","24","00:30","1.0","","0.2","","94","","","","","M","28","","","","99.86","","","","","","NA"
"-52.94","48.17","GRATES COVE","840B053","2012-02-24 01:30","2012","02","24","01:30","0.4","","-0.2","","96","","","","","M","35","","","","99.80","","","","","","NA"
"-52.94","48.17","GRATES COVE","840B053","2012-02-24 02:30","2012","02","24","02:30","0.2","","-0.1","","98","","","","","M","33","","","","99.55","","","","","","NA"
"-52.94","48.17","GRATES COVE","840B053","2012-02-24 03:30","2012","02","24","03:30","0.3","","0.1","","99","","","","","M","46","","","","99.29","","","","","","NA"
"-52.94","48.17","GRATES COVE","840B053","2012-02-24 04:30","2012","02","24","04:30","0.0","","-0.2","","99","","","","","M","32","","","","99.06","","","","-7","","NA"
"-52.94","48.17","GRATES COVE","840B053","2012-02-24 05:30","2012","02","24","05:30","0.0","","-0.2","","99","","","","","M","24","","","","98.84","","","","-6","","NA"
"-52.94","48.17","GRATES COVE","840B053","2012-02-24 06:30","2012","02","24","06:30","0.7","","0.5","","99","","","","","M","52","","","","98.62","","","","","","NA"
"-52.94","48.17","GRATES COVE","840B053","2012-02-24 07:30","2012","02","24","07:30","0.9","","0.7","","99","","","","","M","43","","","","98.51","","","","","","NA"
"-52.94","48.17","GRATES COVE","840B053","2012-02-24 08:30","2012","02","24","08:30","2.1","","1.9","","99","","","","","M","22","","","","98.57","","","","","","NA"
"-52.94","48.17","GRATES COVE","840B053","2012-02-24 09:30","2012","02","24","09:30","2.7","","2.4","","98","","","","","M","19","","","","98.55","","","","","","NA"
"-52.94","48.17","GRATES COVE","840B053","2012-02-24 10:30","2012","02","24","10:30","2.7","","2.4","","98","","","","","M","20","","","","98.54","","","","","","NA"
"-52.94","48.17","GRATES COVE","840B053","2012-02-24 11:30","2012","02","24","11:30","3.4","","2.3","","92","","","","","M","28","","","","98.48","","","","","","NA"
"-52.94","48.17","GRATES COVE","840B053","2012-02-24 12:30","2012","02","24","12:30","2.9","","1.9","","93","","","","","M","30","","","","98.40","","","","","","NA"
"-52.94","48.17","GRATES COVE","840B053","2012-02-24 13:30","2012","02","24","13:30","2.6","","1.7","","94","","","","","M","22","","","","98.35","","","","","","NA"
"-52.94","48.17","GRATES COVE","840B053","2012-02-24 14:30","2012","02","24","14:30","2.3","","0.5","","88","","","","","M","28","","","","98.35","","","","","","NA"
"-52.94","48.17","GRATES COVE","840B053","2012-02-24 15:30","2012","02","24","15:30","1.7","","0.2","","90","","","","","M","35","","","","98.39","","","","","","NA"
"-52.94","48.17","GRATES COVE","840B053","2012-02-24 16:30","2012","02","24","16:30","1.5","","0.4","","92","","","","","M","37","","","","98.42","","","","","","NA"
"-52.94","48.17","GRATES COVE","840B053","2012-02-24 17:30","2012","02","24","17:30","1.3","","0.3","","93","","","","","M","39","","","","98.50","","","","","","NA"
"-52.94","48.17","GRATES COVE","840B053","2012-02-24 18:30","2012","02","24","18:30","1.2","","0.5","","95","","","","","M","44","","","","98.57","","","","","","NA"
"-52.94","48.17","GRATES COVE","840B053","2012-02-24 19:30","2012","02","24","19:30","1.5","","0.6","","94","","","","","M","41","","","","98.67","","","","","","NA"
"-52.94","48.17","GRATES COVE","840B053","2012-02-24 20:30","2012","02","24","20:30","1.1","","-0.5","","89","","","","","M","30","","","","98.78","","","","","","NA"
"-52.94","48.17","GRATES COVE","840B053","2012-02-24 21:30","2012","02","24","21:30","1.1","","-0.5","","89","","","","","M","35","","","","98.90","","","","","","NA"
"-52.94","48.17","GRATES COVE","840B053","2012-02-24 22:30","2012","02","24","22:30","1.0","","-0.4","","90","","","","","M","33","","","","99.06","","","","","","NA"
"-52.94","48.17","GRATES COVE","840B053","2012-02-24 23:30","2012","02","24","23:30","0.8","","-0.1","","94","","","","","M","39","","","","99.21","","","","","","NA"
"-52.94","48.17","GRATES COVE","840B053","2012-02-25 00:30","2012","02","25","00:30","0.9","","-0.6","","90","","","","","M","44","","","","99.38","","","","","","NA"
"-52.94","48.17","GRATES COVE","840B053","2012-02-25 01:30","2012","02","25","01:30","0.5","","-0.8","","91","","","","","M","43","","","","99.54","","","","","","NA"
"-52.94","48.17","GRATES COVE","840B053","2012-02-25 02:30","2012","02","25","02:30","0.3","","-0.7","","93","","","","","M","35","","","","99.72","","","","","","NA"
"-52.94","48.17","GRATES COVE","840B053","2012-02-25 03:30","2012","02","25","03:30","0.0","","-0.5","","96","","","","","M","24","","","","99.87","","","","-6","","NA"
"-52.94","48.17","GRATES COVE","840B053","2012-02-25 04:30","2012","02","25","04:30","-0.1","","-0.4","","98","","","","","M","20","","","","100.03","","","","-5","","NA"
"-52.94","48.17","GRATES COVE","840B053","2012-02-25 05:30","2012","02","25","05:30","-0.2","","-0.5","","98","","","","","M","22","","","","100.00","","","","-6","","NA"
"-52.94","48.17","GRATES COVE","840B053","2012-02-25 06:30","2012","02","25","06:30","-0.3","","-0.6","","98","","","","","M","17","","","","100.12","","","","-5","","NA"
"-52.94","48.17","GRATES COVE","840B053","2012-02-25 07:30","2012","02","25","07:30","-0.6","","-1.2","","96","","","","","M","28","","","","100.02","","","","-7","","NA"
"-52.94","48.17","GRATES COVE","840B053","2012-02-25 08:30","2012","02","25","08:30","-0.7","","-1.3","","96","","","","","M","19","","","","100.04","","","","-6","","NA"
"-52.94","48.17","GRATES COVE","840B053","2012-02-25 09:30","2012","02","25","09:30","-0.6","","-1.1","","96","","","","","M","19","","","","100.08","","","","-6","","NA"
"-52.94","48.17","GRATES COVE","840B053","2012-02-25 10:30","2012","02","25","10:30","-0.7","","-1.2","","96","","","","","M","15","","","","99.97","","","","-5","","NA"
"-52.94","48.17","GRATES COVE","840B053","2012-02-25 11:30","2012","02","25","11:30","-0.9","","-1.3","","97","","","","","M","15","","","","99.84","","","","-6","","NA"
"-52.94","48.17","GRATES COVE","840B053","2012-02-25 12:30","2012","02","25","12:30","-1.0","","-1.3","","98","","","","","M","22","","","","99.53","","","","-7","","NA"
"-52.94","48.17","GRATES COVE","840B053","2012-02-25 13:30","2012","02","25","13:30","-1.0","","-1.3","","98","","","","","M","33","","","","99.23","","","","-8","","NA"
"-52.94","48.17","GRATES COVE","840B053","2012-02-25 14:30","2012","02","25","14:30","-1.0","","-1.2","","99","","","","","M","43","","","","98.74","","","","-9","","NA"
"-52.94","48.17","GRATES COVE","840B053","2012-02-25 15:30","2012","02","25","15:30","-0.5","","-0.7","","99","","","","","M","37","","","","98.54","","","","-8","","NA"
"-52.94","48.17","GRATES COVE","840B053","2012-02-25 16:30","2012","02","25","16:30","-0.3","","-0.5","","99","","","","","M","63","","","","98.06","","","","-9","","NA"
"-52.94","48.17","GRATES COVE","840B053","2012-02-25 17:30","2012","02","25","17:30","0.1","","-0.2","","98","","","","","M","56","","","","97.96","","","","","","NA"
"-52.94","48.17","GRATES COVE","840B053","2012-02-25 18:30","2012","02","25","18:30","0.1","","-0.1","","99","","","","","M","44","","","","97.91","","","","","","NA"
"-52.94","48.17","GRATES COVE","840B053","2012-02-25 19:30","2012","02","25","19:30","1.8","","1.5","","98","","","","","M","37","","","","97.83","","","","","","NA"
"-52.94","48.17","GRATES COVE","840B053","2012-02-25 20:30","2012","02","25","20:30","2.8","","1.1","","89","","","","","M","46","","","","97.88","","","","","","NA"
"-52.94","48.17","GRATES COVE","840B053","2012-02-25 21:30","2012","02","25","21:30","2.7","","0.1","","83","","","","","M","57","","","","97.88","","","","","","NA"
"-52.94","48.17","GRATES COVE","840B053","2012-02-25 22:30","2012","02","25","22:30","2.7","","0.1","","83","","","","","M","57","","","","97.86","","","","","","NA"
"-52.94","48.17","GRATES COVE","840B053","2012-02-25 23:30","2012","02","25","23:30","2.6","","-0.1","","82","","","","","M","57","","","","97.87","","","","","","NA"
"-52.94","48.17","GRATES COVE","840B053","2012-02-26 00:30","2012","02","26","00:30","2.6","","-0.3","","81","","","","","M","56","","","","97.90","","","","","","NA"
"-52.94","48.17","GRATES COVE","840B053","2012-02-26 01:30","2012","02","26","01:30","2.7","","-0.4","","80","","","","","M","61","","","","97.92","","","","","","NA"
"-52.94","48.17","GRATES COVE","840B053","2012-02-26 02:30","2012","02","26","02:30","2.6","","-0.6","","79","","","","","M","56","","","","97.92","","","","","","NA"
"-52.94","48.17","GRATES COVE","840B053","2012-02-26 03:30","2012","02","26","03:30","2.4","","-0.9","","79","","","","","M","44","","","","97.86","","","","","","NA"
"-52.94","48.17","GRATES COVE","840B053","2012-02-26 04:30","2012","02","26","04:30","2.4","","-1.1","","78","","","","","M","48","","","","97.88","","","","","","NA"
"-52.94","48.17","GRATES COVE","840B053","2012-02-26 05:30","2012","02","26","05:30","2.5","","-1.0","","78","","","","","M","43","","","","97.88","","","","","","NA"
"-52.94","48.17","GRATES COVE","840B053","2012-02-26 06:30","2012","02","26","06:30","2.4","","-1.2","","77","","","","","M","44","","","","97.85","","","","","","NA"
"-52.94","48.17","GRATES COVE","840B053","2012-02-26 07:30","2012","02","26","07:30","1.9","","-1.2","","80","","","","","M","46","","","","97.90","","","","","","NA"
"-52.94","48.17","GRATES COVE","840B053","2012-02-26 08:30","2012","02","26","08:30","2.0","","-1.2","","79","","","","","M","39","","","","97.89","","","","","","NA"
"-52.94","48.17","GRATES COVE","840B053","2012-02-26 09:30","2012","02","26","09:30","1.7","","-2.4","","74","","","","","M","59","","","","97.92","","","","","","NA"
"-52.94","48.17","GRATES COVE","840B053","2012-02-26 10:30","2012","02","26","10:30","1.6","","-3.1","","71","","","","","M","59","","","","97.97","","","","","","NA"
"-52.94","48.17","GRATES COVE","840B053","2012-02-26 11:30","2012","02","26","11:30","1.2","","-3.2","","72","","","","","M","63","","","","97.94","","","","","","NA"
"-52.94","48.17","GRATES COVE","840B053","2012-02-26 12:30","2012","02","26","12:30","1.4","","-3.1","","72","","","","","M","61","","","","97.90","","","","","","NA"
"-52.94","48.17","GRATES COVE","840B053","2012-02-26 13:30","2012","02","26","13:30","1.1","","-3.3","","72","","","","","M","57","","","","97.90","","","","","","NA"
"-52.94","48.17","GRATES COVE","840B053","2012-02-26 14:30","2012","02","26","14:30","1.1","","-2.4","","77","","","","","M","56","","","","97.86","","","","","","NA"
"-52.94","48.17","GRATES COVE","840B053","2012-02-26 15:30","2012","02","26","15:30","1.2","","-1.3","","83","","","","","M","63","","","","97.80","","","","","","NA"
"-52.94","48.17","GRATES COVE","840B053","2012-02-26 16:30","2012","02","26","16:30","0.8","","-0.4","","92","","","","","M","52","","","","97.96","","","","","","NA"
"-52.94","48.17","GRATES COVE","840B053","2012-02-26 17:30","2012","02","26","17:30","0.7","","-1.1","","88","","","","","M","32","","","","98.25","","","","","","NA"
"-52.94","48.17","GRATES COVE","840B053","2012-02-26 18:30","2012","02","26","18:30","0.4","","-1.3","","88","","","","","M","43","","","","98.47","","","","","","NA"
"-52.94","48.17","GRATES COVE","840B053","2012-02-26 19:30","2012","02","26","19:30","-0.1","","-1.5","","90","","","","","M","37","","","","98.75","","","","-7","","NA"
"-52.94","48.17","GRATES COVE","840B053","2012-02-26 20:30","2012","02","26","20:30","-0.5","","-1.2","","95","","","","","M","39","","","","99.01","","","","-8","","NA"
"-52.94","48.17","GRATES COVE","840B053","2012-02-26 21:30","2012","02","26","21:30","-0.4","","-2.4","","86","","","","","M","32","","","","99.23","","","","-7","","NA"
"-52.94","48.17","GRATES COVE","840B053","2012-02-26 22:30","2012","02","26","22:30","-0.5","","-3.1","","83","","","","","M","35","","","","99.42","","","","-8","","NA"
"-52.94","48.17","GRATES COVE","840B053","2012-02-26 23:30","2012","02","26","23:30","-0.7","","-3.1","","84","","","","","M","30","","","","99.60","","","","-7","","NA"
"-52.94","48.17","GRATES COVE","840B053","2012-02-27 00:30","2012","02","27","00:30","-1.1","","-3.2","","86","","","","","M","39","","","","99.83","","","","-9","","NA"
"-52.94","48.17","GRATES COVE","840B053","2012-02-27 01:30","2012","02","27","01:30","-1.3","","-4.6","","78","","","","","M","33","","","","99.95","","","","-8","","NA"
"-52.94","48.17","GRATES COVE","840B053","2012-02-27 02:30","2012","02","27","02:30","-1.5","","-5.3","","75","","","","","M","35","","","","100.11","","","","-9","","NA"
"-52.94","48.17","GRATES COVE","840B053","2012-02-27 03:30","2012","02","27","03:30","-1.9","","-5.6","","76","","","","","M","26","","","","100.24","","","","-8","","NA"
"-52.94","48.17","GRATES COVE","840B053","2012-02-27 04:30","2012","02","27","04:30","-2.1","","-6.1","","74","","","","","M","30","","","","100.40","","","","-9","","NA"
"-52.94","48.17","GRATES COVE","840B053","2012-02-27 05:30","2012","02","27","05:30","-2.2","","-5.7","","77","","","","","M","37","","","","100.53","","","","-10","","NA"
"-52.94","48.17","GRATES COVE","840B053","2012-02-27 06:30","2012","02","27","06:30","-2.5","","-6.1","","76","","","","","M","32","","","","100.63","","","","-10","","NA"
"-52.94","48.17","GRATES COVE","840B053","2012-02-27 07:30","2012","02","27","07:30","-2.8","","-6.7","","74","","","","","M","32","","","","100.78","","","","-10","","NA"
"-52.94","48.17","GRATES COVE","840B053","2012-02-27 08:30","2012","02","27","08:30","-2.7","","-6.5","","75","","","","","M","22","","","","100.85","","","","-9","","NA"
"-52.94","48.17","GRATES COVE","840B053","2012-02-27 09:30","2012","02","27","09:30","-2.3","","-6.1","","75","","","","","M","20","","","","100.91","","","","-8","","NA"
"-52.94","48.17","GRATES COVE","840B053","2012-02-27 10:30","2012","02","27","10:30","-2.0","","-6.3","","72","","","","","M","26","","","","100.98","","","","-9","","NA"
"-52.94","48.17","GRATES COVE","840B053","2012-02-27 11:30","2012","02","27","11:30","-1.8","","-6.1","","72","","","","","M","19","","","","101.02","","","","-7","","NA"
"-52.94","48.17","GRATES COVE","840B053","2012-02-27 12:30","2012","02","27","12:30","-1.3","","-6.5","","68","","","","","M","17","","","","101.02","","","","-6","","NA"
"-52.94","48.17","GRATES COVE","840B053","2012-02-27 13:30","2012","02","27","13:30","-1.0","","-7.0","","64","","","","","M","11","","","","101.03","","","","-5","","NA"
"-52.94","48.17","GRATES COVE","840B053","2012-02-27 14:30","2012","02","27","14:30","-0.4","","-7.3","","60","","","","","M","7","","","","101.07","","","","-3","","NA"
"-52.94","48.17","GRATES COVE","840B053","2012-02-27 15:30","2012","02","27","15:30","-0.4","","-7.6","","58","","","","","M","22","","","","101.07","","","","-6","","NA"
"-52.94","48.17","GRATES COVE","840B053","2012-02-27 16:30","2012","02","27","16:30","-0.6","","-7.6","","59","","","","","M","28","","","","101.10","","","","-7","","NA"
"-52.94","48.17","GRATES COVE","840B053","2012-02-27 17:30","2012","02","27","17:30","-1.2","","-8.0","","60","","","","","M","30","","","","101.14","","","","-8","","NA"
"-52.94","48.17","GRATES COVE","840B053","2012-02-27 18:30","2012","02","27","18:30","-0.8","","-7.6","","60","","","","","M","26","","","","101.15","","","","-7","","NA"
"-52.94","48.17","GRATES COVE","840B053","2012-02-27 19:30","2012","02","27","19:30","-0.7","","-7.1","","62","","","","","M","28","","","","101.16","","","","-7","","NA"
"-52.94","48.17","GRATES COVE","840B053","2012-02-27 20:30","2012","02","27","20:30","-2.9","","-5.3","","83","","","","","M","30","","","","101.25","","","","-10","","NA"
"-52.94","48.17","GRATES COVE","840B053","2012-02-27 21:30","2012","02","27","21:30","-4.2","","-5.9","","88","","","","","M","35","","","","101.33","","","","-13","","NA"
"-52.94","48.17","GRATES COVE","840B053","2012-02-27 22:30","2012","02","27","22:30","-5.1","","-7.4","","84","","","","","M","22","","","","101.40","","","","-12","","NA"
"-52.94","48.17","GRATES COVE","840B053","2012-02-27 23:30","2012","02","27","23:30","-6.0","","-9.8","","74","","","","","M","24","","","","101.49","","","","-13","","NA"
"-52.94","48.17","GRATES COVE","840B053","2012-02-28 00:30","2012","02","28","00:30","-7.2","","-11.4","","72","","","","","M","26","","","","101.58","","","","-15","","NA"
"-52.94","48.17","GRATES COVE","840B053","2012-02-28 01:30","2012","02","28","01:30","-8.2","","-11.8","","75","","","","","M","26","","","","101.61","","","","-17","","NA"
"-52.94","48.17","GRATES COVE","840B053","2012-02-28 02:30","2012","02","28","02:30","-8.7","","-12.5","","74","","","","","M","26","","","","101.64","","","","-17","","NA"
"-52.94","48.17","GRATES COVE","840B053","2012-02-28 03:30","2012","02","28","03:30","-9.1","","-12.8","","74","","","","","M","19","","","","101.66","","","","-17","","NA"
"-52.94","48.17","GRATES COVE","840B053","2012-02-28 04:30","2012","02","28","04:30","-9.5","","-13.5","","73","","","","","M","20","","","","101.72","","","","-17","","NA"
"-52.94","48.17","GRATES COVE","840B053","2012-02-28 05:30","2012","02","28","05:30","-9.7","","-13.6","","73","","","","","M","19","","","","101.76","","","","-17","","NA"
"-52.94","48.17","GRATES COVE","840B053","2012-02-28 06:30","2012","02","28","06:30","-9.8","","-13.3","","76","","","","","M","15","","","","101.71","","","","-16","","NA"
"-52.94","48.17","GRATES COVE","840B053","2012-02-28 07:30","2012","02","28","07:30","-9.4","","-12.9","","76","","","","","M","19","","","","101.77","","","","-17","","NA"
"-52.94","48.17","GRATES COVE","840B053","2012-02-28 08:30","2012","02","28","08:30","-9.0","","-12.5","","76","","","","","M","20","","","","101.78","","","","-17","","NA"
"-52.94","48.17","GRATES COVE","840B053","2012-02-28 09:30","2012","02","28","09:30","-9.0","","-12.5","","76","","","","","M","11","","","","101.79","","","","-14","","NA"
"-52.94","48.17","GRATES COVE","840B053","2012-02-28 10:30","2012","02","28","10:30","-8.7","","-12.5","","74","","","","","M","11","","","","101.74","","","","-14","","NA"
"-52.94","48.17","GRATES COVE","840B053","2012-02-28 11:30","2012","02","28","11:30","-7.9","","-11.7","","74","","","","","M","7","","","","101.68","","","","-12","","NA"
"-52.94","48.17","GRATES COVE","840B053","2012-02-28 12:30","2012","02","28","12:30","-7.4","","-12.5","","67","","","","","M","6","","","","101.64","","","","-11","","NA"
"-52.94","48.17","GRATES COVE","840B053","2012-02-28 13:30","2012","02","28","13:30","-6.7","","-12.0","","66","","","","","M","4","","","","101.61","","","","-9","","NA"
"-52.94","48.17","GRATES COVE","840B053","2012-02-28 14:30","2012","02","28","14:30","-7.5","","-13.0","","65","","","","","M","6","","","","101.61","","","","-11","","NA"
"-52.94","48.17","GRATES COVE","840B053","2012-02-28 15:30","2012","02","28","15:30","-7.5","","-12.0","","70","","","","","M","7","","","","101.58","","","","-11","","NA"
"-52.94","48.17","GRATES COVE","840B053","2012-02-28 16:30","2012","02","28","16:30","-7.7","","-12.2","","70","","","","","M","9","","","","101.55","","","","-12","","NA"
"-52.94","48.17","GRATES COVE","840B053","2012-02-28 17:30","2012","02","28","17:30","-7.9","","-11.7","","74","","","","","M","15","","","","101.49","","","","-14","","NA"
"-52.94","48.17","GRATES COVE","840B053","2012-02-28 18:30","2012","02","28","18:30","-7.7","","-11.2","","76","","","","","M","15","","","","101.46","","","","-14","","NA"
"-52.94","48.17","GRATES COVE","840B053","2012-02-28 19:30","2012","02","28","19:30","-7.6","","-11.1","","76","","","","","M","15","","","","101.48","","","","-14","","NA"
"-52.94","48.17","GRATES COVE","840B053","2012-02-28 20:30","2012","02","28","20:30","-7.5","","-11.0","","76","","","","","M","11","","","","101.48","","","","-13","","NA"
"-52.94","48.17","GRATES COVE","840B053","2012-02-28 21:30","2012","02","28","21:30","-7.2","","-10.6","","77","","","","","M","15","","","","101.44","","","","-13","","NA"
"-52.94","48.17","GRATES COVE","840B053","2012-02-28 22:30","2012","02","28","22:30","-7.2","","-10.8","","75","","","","","M","19","","","","101.38","","","","-14","","NA"
"-52.94","48.17","GRATES COVE","840B053","2012-02-28 23:30","2012","02","28","23:30","-7.1","","-10.6","","76","","","","","M","20","","","","101.33","","","","-14","","NA"
"-52.94","48.17","GRATES COVE","840B053","2012-02-29 00:30","2012","02","29","00:30","-7.4","","-11.4","","73","","","","","M","28","","","","101.29","","","","-16","","NA"
"-52.94","48.17","GRATES COVE","840B053","2012-02-29 01:30","2012","02","29","01:30","-7.2","","-10.7","","76","","","","","M","26","","","","101.26","","","","-15","","NA"
"-52.94","48.17","GRATES COVE","840B053","2012-02-29 02:30","2012","02","29","02:30","-7.4","","-11.8","","71","","","","","M","35","","","","101.20","","","","-17","","NA"
"-52.94","48.17","GRATES COVE","840B053","2012-02-29 03:30","2012","02","29","03:30","-7.4","","-11.8","","71","","","","","M","32","","","","101.21","","","","-16","","NA"
"-52.94","48.17","GRATES COVE","840B053","2012-02-29 04:30","2012","02","29","04:30","-7.6","","-12.6","","67","","","","","M","32","","","","101.16","","","","-17","","NA"
"-52.94","48.17","GRATES COVE","840B053","2012-02-29 05:30","2012","02","29","05:30","-7.5","","-12.1","","70","","","","","M","28","","","","101.16","","","","-16","","NA"
"-52.94","48.17","GRATES COVE","840B053","2012-02-29 06:30","2012","02","29","06:30","-7.5","","-11.1","","75","","","","","M","24","","","","101.19","","","","-15","","NA"
"-52.94","48.17","GRATES COVE","840B053","2012-02-29 07:30","2012","02","29","07:30","-7.6","","-11.2","","75","","","","","M","26","","","","101.25","","","","-16","","NA"
"-52.94","48.17","GRATES COVE","840B053","2012-02-29 08:30","2012","02","29","08:30","-7.9","","-11.9","","73","","","","","M","26","","","","101.27","","","","-16","","NA"
"-52.94","48.17","GRATES COVE","840B053","2012-02-29 09:30","2012","02","29","09:30","-7.9","","-12.2","","71","","","","","M","22","","","","101.27","","","","-16","","NA"
"-52.94","48.17","GRATES COVE","840B053","2012-02-29 10:30","2012","02","29","10:30","-7.8","","-11.7","","74","","","","","M","17","","","","101.25","","","","-14","","NA"
"-52.94","48.17","GRATES COVE","840B053","2012-02-29 11:30","2012","02","29","11:30","-7.9","","-12.1","","72","","","","","M","15","","","","101.21","","","","-14","","NA"
"-52.94","48.17","GRATES COVE","840B053","2012-02-29 12:30","2012","02","29","12:30","-8.0","","-12.9","","68","","","","","M","13","","","","101.15","","","","-14","","NA"
"-52.94","48.17","GRATES COVE","840B053","2012-02-29 13:30","2012","02","29","13:30","-7.6","","-13.3","","64","","","","","M","15","","","","101.10","","","","-14","","NA"
"-52.94","48.17","GRATES COVE","840B053","2012-02-29 14:30","2012","02","29","14:30","-7.6","","-12.7","","67","","","","","M","17","","","","101.09","","","","-14","","NA"
"-52.94","48.17","GRATES COVE","840B053","2012-02-29 15:30","2012","02","29","15:30","-7.2","","-12.9","","64","","","","","M","15","","","","101.09","","","","-13","","NA"
"-52.94","48.17","GRATES COVE","840B053","2012-02-29 16:30","2012","02","29","16:30","-7.3","","-13.0","","64","","","","","M","13","","","","101.11","","","","-13","","NA"
"-52.94","48.17","GRATES COVE","840B053","2012-02-29 17:30","2012","02","29","17:30","-7.4","","-14.3","","58","","","","","M","15","","","","101.10","","","","-14","","NA"
"-52.94","48.17","GRATES COVE","840B053","2012-02-29 18:30","2012","02","29","18:30","-7.3","","-13.0","","64","","","","","M","15","","","","101.14","","","","-13","","NA"
"-52.94","48.17","GRATES COVE","840B053","2012-02-29 19:30","2012","02","29","19:30","-7.5","","-12.2","","69","","","","","M","15","","","","101.16","","","","-14","","NA"
"-52.94","48.17","GRATES COVE","840B053","2012-02-29 20:30","2012","02","29","20:30","-8.0","","-12.9","","68","","","","","M","19","","","","101.18","","","","-15","","NA"
"-52.94","48.17","GRATES COVE","840B053","2012-02-29 21:30","2012","02","29","21:30","-8.3","","-12.9","","69","","","","","M","17","","","","101.19","","","","-15","","NA"
"-52.94","48.17","GRATES COVE","840B053","2012-02-29 22:30","2012","02","29","22:30","-8.6","","-12.2","","75","","","","","M","19","","","","101.20","","","","-16","","NA"
"-52.94","48.17","GRATES COVE","840B053","2012-02-29 23:30","2012","02","29","23:30","-9.0","","-12.4","","76","","","","","M","19","","","","101.19","","","","-16","","NA"
