"Longitude (x)","Latitude (y)","Station Name","Climate ID","Date/Time (LST)","Year","Month","Day","Time (LST)","Temp (°C)","Temp Flag","Dew Point Temp (°C)","Dew Point Temp Flag","Rel Hum (%)","Rel Hum Flag","Precip. Amount (mm)","Precip. Amount Flag","Wind Dir (10s deg)","Wind Dir Flag","Wind Spd (km/h)","Wind Spd Flag","Visibility (km)","Visibility Flag","Stn Press (kPa)","Stn Press Flag","Hmdx","Hmdx Flag","Wind Chill","Wind Chill Flag","Weather"
"-52.94","48.17","GRATES COVE","840B053","2019-04-01 00:30","2019","04","01","00:30","4.2","","4.2","","100","","","M","25","","14","","","","101.24","","","","","","NA"
"-52.94","48.17","GRATES COVE","840B053","2019-04-01 01:30","2019","04","01","01:30","3.3","","3.3","","100","","","M","10","","5","","","","101.09","","","","","","NA"
"-52.94","48.17","GRATES COVE","840B053","2019-04-01 02:30","2019","04","01","02:30","4.7","","4.7","","100","","","M","18","","20","","","","100.94","","","","","","NA"
"-52.94","48.17","GRATES COVE","840B053","2019-04-01 03:30","2019","04","01","03:30","4.5","","4.5","","100","","","M","18","","42","","","","100.69","","","","","","NA"
"-52.94","48.17","GRATES COVE","840B053","2019-04-01 04:30","2019","04","01","04:30","4.5","","4.5","","100","","","M","15","","25","","","","100.60","","","","","","NA"
"-52.94","48.17","GRATES COVE","840B053","2019-04-01 05:30","2019","04","01","05:30","4.1","","4.1","","100","","","M","17","","42","","","","100.36","","","","","","NA"
"-52.94","48.17","GRATES COVE","840B053","2019-04-01 06:30","2019","04","01","06:30","3.4","","3.3","","99","","","M","15","","32","","","","100.23","","","","","","NA"
"-52.94","48.17","GRATES COVE","840B053","2019-04-01 07:30","2019","04","01","07:30","3.9","","3.8","","99","","","M","18","","42","","","","100.01","","","","","","NA"
"-52.94","48.17","GRATES COVE","840B053","2019-04-01 08:30","2019","04","01","08:30","4.1","","3.9","","99","","","M","19","","21","","","","100.04","","","","","","NA"
"-52.94","48.17","GRATES COVE","840B053","2019-04-01 09:30","2019","04","01","09:30","7.5","","6.8","","95","","","M","21","","11","","","","99.98","","","","","","NA"
"-52.94","48.17","GRATES COVE","840B053","2019-04-01 10:30","2019","04","01","10:30","8.5","","7.3","","92","","","M","24","","12","","","","99.89","","","","","","NA"
"-52.94","48.17","GRATES COVE","840B053","2019-04-01 11:30","2019","04","01","11:30","9.8","","7.9","","88","","","M","24","","15","","","","99.89","","","","","","NA"
"-52.94","48.17","GRATES COVE","840B053","2019-04-01 12:30","2019","04","01","12:30","7.0","","5.1","","88","","","M","4","","6","","","","99.87","","","","","","NA"
"-52.94","48.17","GRATES COVE","840B053","2019-04-01 13:30","2019","04","01","13:30","8.7","","6.6","","86","","","M","9","","6","","","","99.79","","","","","","NA"
"-52.94","48.17","GRATES COVE","840B053","2019-04-01 14:30","2019","04","01","14:30","14.6","","11.0","","79","","","M","20","","27","","","","99.70","","","","","","NA"
"-52.94","48.17","GRATES COVE","840B053","2019-04-01 15:30","2019","04","01","15:30","13.5","","10.8","","84","","","M","20","","40","","","","99.56","","","","","","NA"
"-52.94","48.17","GRATES COVE","840B053","2019-04-01 16:30","2019","04","01","16:30","12.8","","9.7","","82","","","M","22","","30","","","","99.61","","","","","","NA"
"-52.94","48.17","GRATES COVE","840B053","2019-04-01 17:30","2019","04","01","17:30","13.0","","10.9","","87","","","M","22","","20","","","","99.48","","","","","","NA"
"-52.94","48.17","GRATES COVE","840B053","2019-04-01 18:30","2019","04","01","18:30","10.1","","9.5","","97","","","M","20","","44","","","","99.23","","","","","","NA"
"-52.94","48.17","GRATES COVE","840B053","2019-04-01 19:30","2019","04","01","19:30","9.5","","9.2","","98","","","M","20","","43","","","","99.19","","","","","","NA"
"-52.94","48.17","GRATES COVE","840B053","2019-04-01 20:30","2019","04","01","20:30","7.9","","7.6","","98","","","M","21","","38","","","","99.10","","","","","","NA"
"-52.94","48.17","GRATES COVE","840B053","2019-04-01 21:30","2019","04","01","21:30","9.0","","8.4","","96","","","M","22","","21","","","","99.29","","","","","","NA"
"-52.94","48.17","GRATES COVE","840B053","2019-04-01 22:30","2019","04","01","22:30","5.4","","4.0","","90","","","M","25","","46","","","","99.09","","","","","","NA"
"-52.94","48.17","GRATES COVE","840B053","2019-04-01 23:30","2019","04","01","23:30","3.0","","1.3","","89","","","M","25","","45","","","","99.20","","","","","","NA"
"-52.94","48.17","GRATES COVE","840B053","2019-04-02 00:30","2019","04","02","00:30","1.2","","-1.6","","82","","","M","26","","52","","","","99.35","","","","","","NA"
"-52.94","48.17","GRATES COVE","840B053","2019-04-02 01:30","2019","04","02","01:30","0.1","","-3.9","","74","","","M","28","","56","","","","99.56","","","","","","NA"
"-52.94","48.17","GRATES COVE","840B053","2019-04-02 02:30","2019","04","02","02:30","-0.3","","-4.4","","74","","","M","27","","49","","","","99.78","","","","-8","","NA"
"-52.94","48.17","GRATES COVE","840B053","2019-04-02 03:30","2019","04","02","03:30","-0.6","","-4.4","","75","","","M","27","","42","","","","99.87","","","","-8","","NA"
"-52.94","48.17","GRATES COVE","840B053","2019-04-02 04:30","2019","04","02","04:30","-0.5","","-4.4","","75","","","M","27","","44","","","","100.12","","","","-8","","NA"
"-52.94","48.17","GRATES COVE","840B053","2019-04-02 05:30","2019","04","02","05:30","-0.5","","-4.5","","75","","","M","27","","48","","","","100.20","","","","-9","","NA"
"-52.94","48.17","GRATES COVE","840B053","2019-04-02 06:30","2019","04","02","06:30","-0.6","","-5.3","","70","","","M","27","","53","","","","100.49","","","","-9","","NA"
"-52.94","48.17","GRATES COVE","840B053","2019-04-02 07:30","2019","04","02","07:30","-0.3","","-6.1","","65","","","M","28","","54","","","","100.66","","","","-9","","NA"
"-52.94","48.17","GRATES COVE","840B053","2019-04-02 08:30","2019","04","02","08:30","-0.2","","-7.5","","58","","","M","28","","58","","","","100.76","","","","-9","","NA"
"-52.94","48.17","GRATES COVE","840B053","2019-04-02 09:30","2019","04","02","09:30","0.1","","-7.1","","58","","","M","28","","56","","","","100.93","","","","","","NA"
"-52.94","48.17","GRATES COVE","840B053","2019-04-02 10:30","2019","04","02","10:30","0.4","","-7.6","","55","","","M","27","","53","","","","101.11","","","","","","NA"
"-52.94","48.17","GRATES COVE","840B053","2019-04-02 11:30","2019","04","02","11:30","1.3","","-7.2","","53","","","M","28","","48","","","","101.35","","","","","","NA"
"-52.94","48.17","GRATES COVE","840B053","2019-04-02 12:30","2019","04","02","12:30","1.4","","-7.7","","51","","","M","28","","46","","","","101.47","","","","","","NA"
"-52.94","48.17","GRATES COVE","840B053","2019-04-02 13:30","2019","04","02","13:30","2.2","","-8.4","","45","","","M","28","","36","","","","101.64","","","","","","NA"
"-52.94","48.17","GRATES COVE","840B053","2019-04-02 14:30","2019","04","02","14:30","2.4","","-6.9","","50","","","M","28","","36","","","","101.71","","","","","","NA"
"-52.94","48.17","GRATES COVE","840B053","2019-04-02 15:30","2019","04","02","15:30","2.3","","-6.9","","50","","","M","28","","45","","","","101.78","","","","","","NA"
"-52.94","48.17","GRATES COVE","840B053","2019-04-02 16:30","2019","04","02","16:30","1.6","","-5.5","","59","","","M","26","","45","","","","101.88","","","","","","NA"
"-52.94","48.17","GRATES COVE","840B053","2019-04-02 17:30","2019","04","02","17:30","1.3","","-4.5","","65","","","M","25","","44","","","","102.07","","","","","","NA"
"-52.94","48.17","GRATES COVE","840B053","2019-04-02 18:30","2019","04","02","18:30","0.5","","-3.9","","72","","","M","26","","43","","","","102.20","","","","","","NA"
"-52.94","48.17","GRATES COVE","840B053","2019-04-02 19:30","2019","04","02","19:30","0.3","","-3.8","","74","","","M","26","","47","","","","102.40","","","","","","NA"
"-52.94","48.17","GRATES COVE","840B053","2019-04-02 20:30","2019","04","02","20:30","0.4","","-4.0","","73","","","M","26","","47","","","","102.53","","","","","","NA"
"-52.94","48.17","GRATES COVE","840B053","2019-04-02 21:30","2019","04","02","21:30","0.2","","-3.6","","76","","","M","26","","37","","","","102.71","","","","","","NA"
"-52.94","48.17","GRATES COVE","840B053","2019-04-02 22:30","2019","04","02","22:30","0.1","","-3.7","","76","","","M","26","","36","","","","102.82","","","","","","NA"
"-52.94","48.17","GRATES COVE","840B053","2019-04-02 23:30","2019","04","02","23:30","0.1","","-3.8","","75","","","M","26","","36","","","","102.93","","","","","","NA"
"-52.94","48.17","GRATES COVE","840B053","2019-04-03 00:30","2019","04","03","00:30","0.1","","-4.1","","73","","","M","25","","38","","","","103.06","","","","","","NA"
"-52.94","48.17","GRATES COVE","840B053","2019-04-03 01:30","2019","04","03","01:30","-0.1","","-3.6","","77","","","M","25","","35","","","","103.21","","","","-7","","NA"
"-52.94","48.17","GRATES COVE","840B053","2019-04-03 02:30","2019","04","03","02:30","-0.7","","-3.8","","80","","","M","24","","30","","","","103.12","","","","-7","","NA"
"-52.94","48.17","GRATES COVE","840B053","2019-04-03 03:30","2019","04","03","03:30","-0.5","","-3.8","","79","","","M","25","","24","","","","103.23","","","","-6","","NA"
"-52.94","48.17","GRATES COVE","840B053","2019-04-03 04:30","2019","04","03","04:30","-0.9","","-3.3","","83","","","M","24","","28","","","","103.25","","","","-7","","NA"
"-52.94","48.17","GRATES COVE","840B053","2019-04-03 05:30","2019","04","03","05:30","-1.6","","-3.9","","84","","","M","23","","26","","","","103.22","","","","-8","","NA"
"-52.94","48.17","GRATES COVE","840B053","2019-04-03 06:30","2019","04","03","06:30","-0.8","","-4.2","","78","","","M","23","","22","","","","103.25","","","","-7","","NA"
"-52.94","48.17","GRATES COVE","840B053","2019-04-03 07:30","2019","04","03","07:30","1.4","","-4.1","","67","","","M","23","","22","","","","103.31","","","","","","NA"
"-52.94","48.17","GRATES COVE","840B053","2019-04-03 08:30","2019","04","03","08:30","2.9","","-4.9","","57","","","M","23","","20","","","","103.23","","","","","","NA"
"-52.94","48.17","GRATES COVE","840B053","2019-04-03 09:30","2019","04","03","09:30","3.7","","-3.3","","60","","","M","2","","4","","","","103.29","","","","","","NA"
"-52.94","48.17","GRATES COVE","840B053","2019-04-03 10:30","2019","04","03","10:30","3.7","","-2.3","","65","","","M","18","","12","","","","103.30","","","","","","NA"
"-52.94","48.17","GRATES COVE","840B053","2019-04-03 11:30","2019","04","03","11:30","2.3","","-2.9","","69","","","M","6","","5","","","","103.18","","","","","","NA"
"-52.94","48.17","GRATES COVE","840B053","2019-04-03 12:30","2019","04","03","12:30","6.0","","-9.4","","32","","","M","18","","23","","","","103.08","","","","","","NA"
"-52.94","48.17","GRATES COVE","840B053","2019-04-03 13:30","2019","04","03","13:30","4.2","","-8.9","","38","","","M","17","","29","","","","102.92","","","","","","NA"
"-52.94","48.17","GRATES COVE","840B053","2019-04-03 14:30","2019","04","03","14:30","4.7","","-10.0","","34","","","M","17","","35","","","","102.85","","","","","","NA"
"-52.94","48.17","GRATES COVE","840B053","2019-04-03 15:30","2019","04","03","15:30","3.0","","-8.4","","43","","","M","18","","38","","","","102.73","","","","","","NA"
"-52.94","48.17","GRATES COVE","840B053","2019-04-03 16:30","2019","04","03","16:30","1.1","","-4.4","","67","","","M","18","","35","","","","102.63","","","","","","NA"
"-52.94","48.17","GRATES COVE","840B053","2019-04-03 17:30","2019","04","03","17:30","0.5","","-3.4","","75","","","M","16","","35","","","","102.39","","","","","","NA"
"-52.94","48.17","GRATES COVE","840B053","2019-04-03 18:30","2019","04","03","18:30","-0.4","","-2.5","","86","","","M","16","","26","","","","102.29","","","","-7","","NA"
"-52.94","48.17","GRATES COVE","840B053","2019-04-03 19:30","2019","04","03","19:30","-0.5","","-2.4","","87","","","M","12","","22","","","","102.05","","","","-6","","NA"
"-52.94","48.17","GRATES COVE","840B053","2019-04-03 20:30","2019","04","03","20:30","-0.2","","-2.4","","85","","","M","15","","37","","","","101.68","","","","-7","","NA"
"-52.94","48.17","GRATES COVE","840B053","2019-04-03 21:30","2019","04","03","21:30","0.5","","-1.3","","88","","","M","16","","45","","","","101.37","","","","","","NA"
"-52.94","48.17","GRATES COVE","840B053","2019-04-03 22:30","2019","04","03","22:30","1.0","","-0.3","","91","","","M","16","","59","","","","100.84","","","","","","NA"
"-52.94","48.17","GRATES COVE","840B053","2019-04-03 23:30","2019","04","03","23:30","1.0","","0.3","","95","","","M","15","","59","","","","100.56","","","","","","NA"
"-52.94","48.17","GRATES COVE","840B053","2019-04-04 00:30","2019","04","04","00:30","2.0","","1.4","","96","","","M","17","","42","","","","100.33","","","","","","NA"
"-52.94","48.17","GRATES COVE","840B053","2019-04-04 01:30","2019","04","04","01:30","2.7","","2.1","","96","","","M","16","","78","","","","99.85","","","","","","NA"
"-52.94","48.17","GRATES COVE","840B053","2019-04-04 02:30","2019","04","04","02:30","3.0","","2.5","","97","","","M","18","","58","","","","99.73","","","","","","NA"
"-52.94","48.17","GRATES COVE","840B053","2019-04-04 03:30","2019","04","04","03:30","4.2","","3.6","","96","","","M","19","","37","","","","99.57","","","","","","NA"
"-52.94","48.17","GRATES COVE","840B053","2019-04-04 04:30","2019","04","04","04:30","3.7","","1.9","","89","","","M","23","","49","","","","99.37","","","","","","NA"
"-52.94","48.17","GRATES COVE","840B053","2019-04-04 05:30","2019","04","04","05:30","2.3","","0.1","","86","","","M","25","","60","","","","99.38","","","","","","NA"
"-52.94","48.17","GRATES COVE","840B053","2019-04-04 06:30","2019","04","04","06:30","2.0","","-0.3","","84","","","M","25","","52","","","","99.59","","","","","","NA"
"-52.94","48.17","GRATES COVE","840B053","2019-04-04 07:30","2019","04","04","07:30","1.9","","-0.4","","84","","","M","25","","55","","","","99.67","","","","","","NA"
"-52.94","48.17","GRATES COVE","840B053","2019-04-04 08:30","2019","04","04","08:30","2.1","","-0.1","","85","","","M","25","","52","","","","99.68","","","","","","NA"
"-52.94","48.17","GRATES COVE","840B053","2019-04-04 09:30","2019","04","04","09:30","3.1","","-0.2","","79","","","M","25","","52","","","","99.81","","","","","","NA"
"-52.94","48.17","GRATES COVE","840B053","2019-04-04 10:30","2019","04","04","10:30","4.1","","-0.8","","70","","","M","25","","57","","","","99.74","","","","","","NA"
"-52.94","48.17","GRATES COVE","840B053","2019-04-04 11:30","2019","04","04","11:30","4.4","","-1.8","","64","","","M","25","","71","","","","99.50","","","","","","NA"
"-52.94","48.17","GRATES COVE","840B053","2019-04-04 12:30","2019","04","04","12:30","4.5","","-2.1","","62","","","M","25","","57","","","","99.46","","","","","","NA"
"-52.94","48.17","GRATES COVE","840B053","2019-04-04 13:30","2019","04","04","13:30","4.7","","-3.3","","56","","","M","25","","56","","","","99.38","","","","","","NA"
"-52.94","48.17","GRATES COVE","840B053","2019-04-04 14:30","2019","04","04","14:30","3.9","","-3.1","","60","","","M","25","","56","","","","99.35","","","","","","NA"
"-52.94","48.17","GRATES COVE","840B053","2019-04-04 15:30","2019","04","04","15:30","3.2","","-4.1","","59","","","M","25","","60","","","","99.30","","","","","","NA"
"-52.94","48.17","GRATES COVE","840B053","2019-04-04 16:30","2019","04","04","16:30","2.0","","-3.4","","68","","","M","25","","65","","","","99.31","","","","","","NA"
"-52.94","48.17","GRATES COVE","840B053","2019-04-04 17:30","2019","04","04","17:30","0.5","","-3.3","","76","","","M","25","","53","","","","99.37","","","","","","NA"
"-52.94","48.17","GRATES COVE","840B053","2019-04-04 18:30","2019","04","04","18:30","0.1","","-3.7","","75","","","M","25","","51","","","","99.41","","","","","","NA"
"-52.94","48.17","GRATES COVE","840B053","2019-04-04 19:30","2019","04","04","19:30","-0.3","","-4.2","","75","","","M","25","","52","","","","99.46","","","","-9","","NA"
"-52.94","48.17","GRATES COVE","840B053","2019-04-04 20:30","2019","04","04","20:30","-0.4","","-5.3","","70","","","M","25","","52","","","","99.44","","","","-9","","NA"
"-52.94","48.17","GRATES COVE","840B053","2019-04-04 21:30","2019","04","04","21:30","-0.2","","-5.1","","69","","","M","25","","56","","","","99.37","","","","-9","","NA"
"-52.94","48.17","GRATES COVE","840B053","2019-04-04 22:30","2019","04","04","22:30","-0.2","","-6.5","","63","","","M","26","","65","","","","99.36","","","","-9","","NA"
"-52.94","48.17","GRATES COVE","840B053","2019-04-04 23:30","2019","04","04","23:30","-0.3","","-5.4","","68","","","M","25","","61","","","","99.30","","","","-9","","NA"
"-52.94","48.17","GRATES COVE","840B053","2019-04-05 00:30","2019","04","05","00:30","-0.8","","-4.6","","76","","","M","26","","62","","","","99.34","","","","-10","","NA"
"-52.94","48.17","GRATES COVE","840B053","2019-04-05 01:30","2019","04","05","01:30","-1.0","","-6.0","","69","","","M","26","","60","","","","99.37","","","","-10","","NA"
"-52.94","48.17","GRATES COVE","840B053","2019-04-05 02:30","2019","04","05","02:30","-1.2","","-5.7","","72","","","M","26","","56","","","","99.42","","","","-10","","NA"
"-52.94","48.17","GRATES COVE","840B053","2019-04-05 03:30","2019","04","05","03:30","-1.5","","-5.2","","76","","","M","27","","55","","","","99.44","","","","-11","","NA"
"-52.94","48.17","GRATES COVE","840B053","2019-04-05 04:30","2019","04","05","04:30","-1.7","","-7.0","","67","","","M","27","","65","","","","99.40","","","","-11","","NA"
"-52.94","48.17","GRATES COVE","840B053","2019-04-05 05:30","2019","04","05","05:30","-1.7","","-6.2","","71","","","M","26","","57","","","","99.46","","","","-11","","NA"
"-52.94","48.17","GRATES COVE","840B053","2019-04-05 06:30","2019","04","05","06:30","-1.9","","-7.0","","68","","","M","26","","60","","","","99.48","","","","-11","","NA"
"-52.94","48.17","GRATES COVE","840B053","2019-04-05 07:30","2019","04","05","07:30","-1.5","","-7.0","","66","","","M","26","","59","","","","99.51","","","","-11","","NA"
"-52.94","48.17","GRATES COVE","840B053","2019-04-05 08:30","2019","04","05","08:30","-1.3","","-6.9","","65","","","M","26","","59","","","","99.54","","","","-11","","NA"
"-52.94","48.17","GRATES COVE","840B053","2019-04-05 09:30","2019","04","05","09:30","-1.2","","-6.0","","70","","","M","26","","58","","","","99.56","","","","-10","","NA"
"-52.94","48.17","GRATES COVE","840B053","2019-04-05 10:30","2019","04","05","10:30","-0.7","","-5.8","","68","","","M","26","","53","","","","99.54","","","","-9","","NA"
"-52.94","48.17","GRATES COVE","840B053","2019-04-05 11:30","2019","04","05","11:30","-0.2","","-5.4","","68","","","M","26","","50","","","","99.56","","","","-8","","NA"
"-52.94","48.17","GRATES COVE","840B053","2019-04-05 12:30","2019","04","05","12:30","0.8","","-4.6","","67","","","M","27","","42","","","","99.60","","","","","","NA"
"-52.94","48.17","GRATES COVE","840B053","2019-04-05 13:30","2019","04","05","13:30","0.7","","-6.2","","60","","","M","27","","49","","","","99.63","","","","","","NA"
"-52.94","48.17","GRATES COVE","840B053","2019-04-05 14:30","2019","04","05","14:30","1.1","","-6.3","","58","","","M","27","","46","","","","99.69","","","","","","NA"
"-52.94","48.17","GRATES COVE","840B053","2019-04-05 15:30","2019","04","05","15:30","0.9","","-5.6","","62","","","M","28","","42","","","","99.78","","","","","","NA"
"-52.94","48.17","GRATES COVE","840B053","2019-04-05 16:30","2019","04","05","16:30","0.4","","-6.0","","62","","","M","28","","45","","","","99.90","","","","","","NA"
"-52.94","48.17","GRATES COVE","840B053","2019-04-05 17:30","2019","04","05","17:30","0.1","","-5.4","","67","","","M","28","","31","","","","100.07","","","","","","NA"
"-52.94","48.17","GRATES COVE","840B053","2019-04-05 18:30","2019","04","05","18:30","-0.3","","-6.5","","63","","","M","30","","43","","","","100.22","","","","-8","","NA"
"-52.94","48.17","GRATES COVE","840B053","2019-04-05 19:30","2019","04","05","19:30","-1.2","","-7.3","","63","","","M","31","","45","","","","100.43","","","","-9","","NA"
"-52.94","48.17","GRATES COVE","840B053","2019-04-05 20:30","2019","04","05","20:30","-1.8","","-8.7","","59","","","M","32","","40","","","","100.60","","","","-10","","NA"
"-52.94","48.17","GRATES COVE","840B053","2019-04-05 21:30","2019","04","05","21:30","-1.8","","-7.9","","63","","","M","31","","39","","","","100.74","","","","-10","","NA"
"-52.94","48.17","GRATES COVE","840B053","2019-04-05 22:30","2019","04","05","22:30","-2.4","","-8.5","","63","","","M","30","","39","","","","100.83","","","","-11","","NA"
"-52.94","48.17","GRATES COVE","840B053","2019-04-05 23:30","2019","04","05","23:30","-2.9","","-8.9","","63","","","M","30","","35","","","","100.92","","","","-11","","NA"
"-52.94","48.17","GRATES COVE","840B053","2019-04-06 00:30","2019","04","06","00:30","-3.1","","-8.5","","66","","","M","29","","35","","","","100.99","","","","-11","","NA"
"-52.94","48.17","GRATES COVE","840B053","2019-04-06 01:30","2019","04","06","01:30","-3.3","","-9.2","","64","","","M","28","","35","","","","101.08","","","","-11","","NA"
"-52.94","48.17","GRATES COVE","840B053","2019-04-06 02:30","2019","04","06","02:30","-3.7","","-9.3","","65","","","M","28","","34","","","","101.16","","","","-12","","NA"
"-52.94","48.17","GRATES COVE","840B053","2019-04-06 03:30","2019","04","06","03:30","-3.7","","-9.0","","66","","","M","28","","35","","","","101.21","","","","-12","","NA"
"-52.94","48.17","GRATES COVE","840B053","2019-04-06 04:30","2019","04","06","04:30","-3.5","","-8.9","","66","","","M","28","","36","","","","101.27","","","","-12","","NA"
"-52.94","48.17","GRATES COVE","840B053","2019-04-06 05:30","2019","04","06","05:30","-3.4","","-8.3","","69","","","M","28","","28","","","","101.33","","","","-11","","NA"
"-52.94","48.17","GRATES COVE","840B053","2019-04-06 06:30","2019","04","06","06:30","-2.6","","-8.5","","64","","","M","28","","31","","","","101.40","","","","-10","","NA"
"-52.94","48.17","GRATES COVE","840B053","2019-04-06 07:30","2019","04","06","07:30","-2.4","","-7.6","","67","","","M","28","","35","","","","101.44","","","","-10","","NA"
"-52.94","48.17","GRATES COVE","840B053","2019-04-06 08:30","2019","04","06","08:30","-1.3","","-7.4","","63","","","M","27","","29","","","","101.46","","","","-8","","NA"
"-52.94","48.17","GRATES COVE","840B053","2019-04-06 09:30","2019","04","06","09:30","-0.5","","-7.0","","61","","","M","26","","30","","","","101.46","","","","-7","","NA"
"-52.94","48.17","GRATES COVE","840B053","2019-04-06 10:30","2019","04","06","10:30","0.6","","-7.5","","54","","","M","26","","28","","","","101.46","","","","","","NA"
"-52.94","48.17","GRATES COVE","840B053","2019-04-06 11:30","2019","04","06","11:30","1.2","","-8.0","","50","","","M","26","","35","","","","101.45","","","","","","NA"
"-52.94","48.17","GRATES COVE","840B053","2019-04-06 12:30","2019","04","06","12:30","1.6","","-5.8","","58","","","M","25","","41","","","","101.42","","","","","","NA"
"-52.94","48.17","GRATES COVE","840B053","2019-04-06 13:30","2019","04","06","13:30","2.4","","-6.7","","51","","","M","25","","33","","","","101.38","","","","","","NA"
"-52.94","48.17","GRATES COVE","840B053","2019-04-06 14:30","2019","04","06","14:30","2.7","","-6.9","","49","","","M","25","","34","","","","101.32","","","","","","NA"
"-52.94","48.17","GRATES COVE","840B053","2019-04-06 15:30","2019","04","06","15:30","2.7","","-8.2","","45","","","M","25","","33","","","","101.27","","","","","","NA"
"-52.94","48.17","GRATES COVE","840B053","2019-04-06 16:30","2019","04","06","16:30","2.8","","-8.4","","43","","","M","25","","31","","","","101.18","","","","","","NA"
"-52.94","48.17","GRATES COVE","840B053","2019-04-06 17:30","2019","04","06","17:30","2.3","","-8.5","","45","","","M","25","","47","","","","101.10","","","","","","NA"
"-52.94","48.17","GRATES COVE","840B053","2019-04-06 18:30","2019","04","06","18:30","0.8","","-5.1","","65","","","M","26","","34","","","","101.14","","","","","","NA"
"-52.94","48.17","GRATES COVE","840B053","2019-04-06 19:30","2019","04","06","19:30","-0.7","","-2.1","","90","","","M","24","","20","","","","101.09","","","","-6","","NA"
"-52.94","48.17","GRATES COVE","840B053","2019-04-06 20:30","2019","04","06","20:30","-0.9","","-1.8","","94","","","M","21","","16","","","","101.00","","","","-6","","NA"
"-52.94","48.17","GRATES COVE","840B053","2019-04-06 21:30","2019","04","06","21:30","-1.0","","-1.7","","95","","","M","21","","15","","","","100.89","","","","-6","","NA"
"-52.94","48.17","GRATES COVE","840B053","2019-04-06 22:30","2019","04","06","22:30","-0.8","","-1.3","","96","","","M","20","","13","","","","100.78","","","","-5","","NA"
"-52.94","48.17","GRATES COVE","840B053","2019-04-06 23:30","2019","04","06","23:30","-0.8","","-1.5","","95","","","M","21","","22","","","","100.63","","","","-7","","NA"
"-52.94","48.17","GRATES COVE","840B053","2019-04-07 00:30","2019","04","07","00:30","-0.4","","-1.1","","95","","","M","22","","19","","","","100.53","","","","-6","","NA"
"-52.94","48.17","GRATES COVE","840B053","2019-04-07 01:30","2019","04","07","01:30","-0.1","","-0.6","","97","","","M","23","","14","","","","100.42","","","","-4","","NA"
"-52.94","48.17","GRATES COVE","840B053","2019-04-07 02:30","2019","04","07","02:30","0.0","","-0.6","","96","","","M","23","","14","","","","100.33","","","","-4","","NA"
"-52.94","48.17","GRATES COVE","840B053","2019-04-07 03:30","2019","04","07","03:30","0.2","","-0.6","","95","","","M","24","","14","","","","100.19","","","","","","NA"
"-52.94","48.17","GRATES COVE","840B053","2019-04-07 04:30","2019","04","07","04:30","0.0","","-0.7","","95","","","M","26","","13","","","","100.09","","","","-4","","NA"
"-52.94","48.17","GRATES COVE","840B053","2019-04-07 05:30","2019","04","07","05:30","-0.2","","-0.7","","97","","","M","27","","12","","","","100.02","","","","-4","","NA"
"-52.94","48.17","GRATES COVE","840B053","2019-04-07 06:30","2019","04","07","06:30","-0.6","","-0.8","","98","","","M","29","","13","","","","100.00","","","","-5","","NA"
"-52.94","48.17","GRATES COVE","840B053","2019-04-07 07:30","2019","04","07","07:30","-0.5","","-0.7","","99","","","M","29","","14","","","","99.98","","","","-5","","NA"
"-52.94","48.17","GRATES COVE","840B053","2019-04-07 08:30","2019","04","07","08:30","-0.6","","-0.8","","99","","","M","30","","16","","","","99.99","","","","-5","","NA"
"-52.94","48.17","GRATES COVE","840B053","2019-04-07 09:30","2019","04","07","09:30","-0.4","","-0.7","","98","","","M","33","","18","","","","100.00","","","","-5","","NA"
"-52.94","48.17","GRATES COVE","840B053","2019-04-07 10:30","2019","04","07","10:30","0.0","","-1.1","","93","","","M","35","","18","","","","100.06","","","","-5","","NA"
"-52.94","48.17","GRATES COVE","840B053","2019-04-07 11:30","2019","04","07","11:30","0.0","","-0.8","","95","","","M","35","","15","","","","100.06","","","","-4","","NA"
"-52.94","48.17","GRATES COVE","840B053","2019-04-07 12:30","2019","04","07","12:30","0.8","","-0.7","","90","","","M","33","","16","","","","100.02","","","","","","NA"
"-52.94","48.17","GRATES COVE","840B053","2019-04-07 13:30","2019","04","07","13:30","-0.2","","-1.5","","90","","","M","36","","17","","","","100.03","","","","-5","","NA"
"-52.94","48.17","GRATES COVE","840B053","2019-04-07 14:30","2019","04","07","14:30","0.5","","-1.7","","85","","","M","33","","17","","","","100.03","","","","","","NA"
"-52.94","48.17","GRATES COVE","840B053","2019-04-07 15:30","2019","04","07","15:30","0.5","","-1.9","","84","","","M","32","","21","","","","100.03","","","","","","NA"
"-52.94","48.17","GRATES COVE","840B053","2019-04-07 16:30","2019","04","07","16:30","0.3","","-2.3","","83","","","M","30","","23","","","","100.05","","","","","","NA"
"-52.94","48.17","GRATES COVE","840B053","2019-04-07 17:30","2019","04","07","17:30","0.4","","-2.7","","79","","","M","29","","20","","","","100.04","","","","","","NA"
"-52.94","48.17","GRATES COVE","840B053","2019-04-07 18:30","2019","04","07","18:30","-0.1","","-2.8","","82","","","M","30","","11","","","","99.99","","","","-4","","NA"
"-52.94","48.17","GRATES COVE","840B053","2019-04-07 19:30","2019","04","07","19:30","-0.4","","-3.2","","81","","","M","27","","10","","","","99.99","","","","-4","","NA"
"-52.94","48.17","GRATES COVE","840B053","2019-04-07 20:30","2019","04","07","20:30","-0.6","","-2.9","","84","","","M","20","","4","","","","99.91","","","","-2","","NA"
"-52.94","48.17","GRATES COVE","840B053","2019-04-07 21:30","2019","04","07","21:30","0.2","","-1.5","","88","","","M","23","","9","","","","99.77","","","","","","NA"
"-52.94","48.17","GRATES COVE","840B053","2019-04-07 22:30","2019","04","07","22:30","-0.7","","-1.2","","96","","","M","26","","41","","","","99.60","","","","-8","","NA"
"-52.94","48.17","GRATES COVE","840B053","2019-04-07 23:30","2019","04","07","23:30","-1.8","","-3.0","","92","","","M","30","","55","","","","99.59","","","","-11","","NA"
"-52.94","48.17","GRATES COVE","840B053","2019-04-08 00:30","2019","04","08","00:30","-2.5","","-3.2","","95","","","M","32","","34","","","","99.62","","","","-10","","NA"
"-52.94","48.17","GRATES COVE","840B053","2019-04-08 01:30","2019","04","08","01:30","-2.7","","-6.1","","77","","","M","30","","48","","","","99.64","","","","-12","","NA"
"-52.94","48.17","GRATES COVE","840B053","2019-04-08 02:30","2019","04","08","02:30","-3.3","","-6.7","","77","","","M","31","","46","","","","99.64","","","","-12","","NA"
"-52.94","48.17","GRATES COVE","840B053","2019-04-08 03:30","2019","04","08","03:30","-4.1","","-7.8","","75","","","M","31","","52","","","","99.61","","","","-14","","NA"
"-52.94","48.17","GRATES COVE","840B053","2019-04-08 04:30","2019","04","08","04:30","-4.3","","-7.4","","79","","","M","30","","44","","","","99.59","","","","-14","","NA"
"-52.94","48.17","GRATES COVE","840B053","2019-04-08 05:30","2019","04","08","05:30","-5.2","","-7.1","","87","","","M","30","","44","","","","99.61","","","","-15","","NA"
"-52.94","48.17","GRATES COVE","840B053","2019-04-08 06:30","2019","04","08","06:30","-4.6","","-6.5","","87","","","M","30","","40","","","","99.63","","","","-14","","NA"
"-52.94","48.17","GRATES COVE","840B053","2019-04-08 07:30","2019","04","08","07:30","-3.8","","-5.4","","88","","","M","30","","39","","","","99.66","","","","-12","","NA"
"-52.94","48.17","GRATES COVE","840B053","2019-04-08 08:30","2019","04","08","08:30","-3.1","","-4.2","","93","","","M","31","","37","","","","99.73","","","","-11","","NA"
"-52.94","48.17","GRATES COVE","840B053","2019-04-08 09:30","2019","04","08","09:30","-1.6","","-3.0","","90","","","M","1","","30","","","","99.80","","","","-9","","NA"
"-52.94","48.17","GRATES COVE","840B053","2019-04-08 10:30","2019","04","08","10:30","-1.5","","-4.2","","82","","","M","1","","28","","","","99.92","","","","-8","","NA"
"-52.94","48.17","GRATES COVE","840B053","2019-04-08 11:30","2019","04","08","11:30","-1.5","","-4.6","","80","","","M","1","","24","","","","100.02","","","","-8","","NA"
"-52.94","48.17","GRATES COVE","840B053","2019-04-08 12:30","2019","04","08","12:30","-2.3","","-5.4","","79","","","M","36","","28","","","","100.12","","","","-9","","NA"
"-52.94","48.17","GRATES COVE","840B053","2019-04-08 13:30","2019","04","08","13:30","-3.0","","-6.0","","80","","","M","36","","37","","","","100.18","","","","-11","","NA"
"-52.94","48.17","GRATES COVE","840B053","2019-04-08 14:30","2019","04","08","14:30","-2.9","","-6.6","","76","","","M","34","","35","","","","100.25","","","","-11","","NA"
"-52.94","48.17","GRATES COVE","840B053","2019-04-08 15:30","2019","04","08","15:30","-2.2","","-6.4","","73","","","M","33","","37","","","","100.27","","","","-10","","NA"
"-52.94","48.17","GRATES COVE","840B053","2019-04-08 16:30","2019","04","08","16:30","-1.9","","-7.0","","68","","","M","33","","40","","","","100.26","","","","-10","","NA"
"-52.94","48.17","GRATES COVE","840B053","2019-04-08 17:30","2019","04","08","17:30","-1.8","","-7.4","","66","","","M","33","","36","","","","100.28","","","","-9","","NA"
"-52.94","48.17","GRATES COVE","840B053","2019-04-08 18:30","2019","04","08","18:30","-1.8","","-7.3","","66","","","M","33","","33","","","","100.31","","","","-9","","NA"
"-52.94","48.17","GRATES COVE","840B053","2019-04-08 19:30","2019","04","08","19:30","-2.1","","-7.3","","68","","","M","34","","34","","","","100.34","","","","-10","","NA"
"-52.94","48.17","GRATES COVE","840B053","2019-04-08 20:30","2019","04","08","20:30","-2.1","","-7.7","","65","","","M","32","","38","","","","100.36","","","","-10","","NA"
"-52.94","48.17","GRATES COVE","840B053","2019-04-08 21:30","2019","04","08","21:30","-2.5","","-7.3","","70","","","M","32","","27","","","","100.37","","","","-9","","NA"
"-52.94","48.17","GRATES COVE","840B053","2019-04-08 22:30","2019","04","08","22:30","-3.0","","-8.7","","65","","","M","32","","37","","","","100.37","","","","-11","","NA"
"-52.94","48.17","GRATES COVE","840B053","2019-04-08 23:30","2019","04","08","23:30","-3.8","","-8.9","","68","","","M","31","","34","","","","100.32","","","","-12","","NA"
"-52.94","48.17","GRATES COVE","840B053","2019-04-09 00:30","2019","04","09","00:30","-4.3","","-8.9","","70","","","M","31","","39","","","","100.29","","","","-13","","NA"
"-52.94","48.17","GRATES COVE","840B053","2019-04-09 01:30","2019","04","09","01:30","-4.7","","-9.1","","71","","","M","30","","34","","","","100.26","","","","-13","","NA"
"-52.94","48.17","GRATES COVE","840B053","2019-04-09 02:30","2019","04","09","02:30","-5.0","","-9.4","","71","","","M","30","","34","","","","100.23","","","","-13","","NA"
"-52.94","48.17","GRATES COVE","840B053","2019-04-09 03:30","2019","04","09","03:30","-5.7","","-9.7","","73","","","M","28","","32","","","","100.15","","","","-14","","NA"
"-52.94","48.17","GRATES COVE","840B053","2019-04-09 04:30","2019","04","09","04:30","-6.0","","-9.8","","75","","","M","29","","27","","","","100.08","","","","-14","","NA"
"-52.94","48.17","GRATES COVE","840B053","2019-04-09 05:30","2019","04","09","05:30","-6.5","","-10.2","","75","","","M","28","","33","","","","100.00","","","","-15","","NA"
"-52.94","48.17","GRATES COVE","840B053","2019-04-09 06:30","2019","04","09","06:30","-5.8","","-10.3","","71","","","M","28","","33","","","","99.94","","","","-14","","NA"
"-52.94","48.17","GRATES COVE","840B053","2019-04-09 07:30","2019","04","09","07:30","-4.6","","-10.5","","63","","","M","28","","32","","","","99.87","","","","-13","","NA"
"-52.94","48.17","GRATES COVE","840B053","2019-04-09 08:30","2019","04","09","08:30","-4.7","","-10.3","","65","","","M","27","","36","","","","99.76","","","","-13","","NA"
"-52.94","48.17","GRATES COVE","840B053","2019-04-09 09:30","2019","04","09","09:30","-3.3","","-8.9","","65","","","M","27","","34","","","","99.70","","","","-11","","NA"
"-52.94","48.17","GRATES COVE","840B053","2019-04-09 10:30","2019","04","09","10:30","-2.3","","-9.0","","60","","","M","26","","41","","","","99.59","","","","-11","","NA"
"-52.94","48.17","GRATES COVE","840B053","2019-04-09 11:30","2019","04","09","11:30","-1.1","","-8.8","","56","","","M","26","","39","","","","99.52","","","","-9","","NA"
"-52.94","48.17","GRATES COVE","840B053","2019-04-09 12:30","2019","04","09","12:30","-0.1","","-8.7","","52","","","M","26","","44","","","","99.38","","","","-8","","NA"
"-52.94","48.17","GRATES COVE","840B053","2019-04-09 13:30","2019","04","09","13:30","0.6","","-8.8","","49","","","M","26","","42","","","","99.31","","","","","","NA"
"-52.94","48.17","GRATES COVE","840B053","2019-04-09 14:30","2019","04","09","14:30","1.5","","-8.5","","48","","","M","26","","42","","","","99.25","","","","","","NA"
"-52.94","48.17","GRATES COVE","840B053","2019-04-09 15:30","2019","04","09","15:30","1.5","","-9.0","","45","","","M","26","","40","","","","99.15","","","","","","NA"
"-52.94","48.17","GRATES COVE","840B053","2019-04-09 16:30","2019","04","09","16:30","1.5","","-8.1","","49","","","M","26","","41","","","","99.10","","","","","","NA"
"-52.94","48.17","GRATES COVE","840B053","2019-04-09 17:30","2019","04","09","17:30","1.0","","-7.1","","55","","","M","25","","42","","","","99.06","","","","","","NA"
"-52.94","48.17","GRATES COVE","840B053","2019-04-09 18:30","2019","04","09","18:30","0.7","","-6.7","","58","","","M","27","","34","","","","99.09","","","","","","NA"
"-52.94","48.17","GRATES COVE","840B053","2019-04-09 19:30","2019","04","09","19:30","0.2","","-5.6","","65","","","M","29","","24","","","","99.15","","","","","","NA"
"-52.94","48.17","GRATES COVE","840B053","2019-04-09 20:30","2019","04","09","20:30","0.3","","-6.3","","61","","","M","31","","29","","","","99.19","","","","","","NA"
"-52.94","48.17","GRATES COVE","840B053","2019-04-09 21:30","2019","04","09","21:30","-0.2","","-6.4","","63","","","M","29","","25","","","","99.23","","","","-6","","NA"
"-52.94","48.17","GRATES COVE","840B053","2019-04-09 22:30","2019","04","09","22:30","-0.7","","-6.6","","64","","","M","28","","28","","","","99.20","","","","-7","","NA"
"-52.94","48.17","GRATES COVE","840B053","2019-04-09 23:30","2019","04","09","23:30","-1.2","","-6.1","","69","","","M","27","","24","","","","99.16","","","","-7","","NA"
"-52.94","48.17","GRATES COVE","840B053","2019-04-10 00:30","2019","04","10","00:30","-1.4","","-5.6","","73","","","M","27","","30","","","","99.17","","","","-8","","NA"
"-52.94","48.17","GRATES COVE","840B053","2019-04-10 01:30","2019","04","10","01:30","-1.2","","-5.2","","74","","","M","27","","30","","","","99.12","","","","-8","","NA"
"-52.94","48.17","GRATES COVE","840B053","2019-04-10 02:30","2019","04","10","02:30","-1.4","","-5.0","","77","","","M","27","","31","","","","99.08","","","","-8","","NA"
"-52.94","48.17","GRATES COVE","840B053","2019-04-10 03:30","2019","04","10","03:30","-1.5","","-4.6","","79","","","M","27","","36","","","","99.03","","","","-9","","NA"
"-52.94","48.17","GRATES COVE","840B053","2019-04-10 04:30","2019","04","10","04:30","-1.5","","-4.7","","79","","","M","27","","33","","","","99.05","","","","-9","","NA"
"-52.94","48.17","GRATES COVE","840B053","2019-04-10 05:30","2019","04","10","05:30","-1.6","","-4.4","","81","","","M","27","","31","","","","99.02","","","","-9","","NA"
"-52.94","48.17","GRATES COVE","840B053","2019-04-10 06:30","2019","04","10","06:30","-0.8","","-4.0","","79","","","M","27","","32","","","","98.95","","","","-8","","NA"
"-52.94","48.17","GRATES COVE","840B053","2019-04-10 07:30","2019","04","10","07:30","-0.1","","-3.1","","80","","","M","26","","30","","","","98.99","","","","-7","","NA"
"-52.94","48.17","GRATES COVE","840B053","2019-04-10 08:30","2019","04","10","08:30","1.4","","-2.4","","76","","","M","26","","33","","","","98.96","","","","","","NA"
"-52.94","48.17","GRATES COVE","840B053","2019-04-10 09:30","2019","04","10","09:30","0.8","","-3.2","","75","","","M","27","","39","","","","98.95","","","","","","NA"
"-52.94","48.17","GRATES COVE","840B053","2019-04-10 10:30","2019","04","10","10:30","1.3","","-2.9","","74","","","M","25","","36","","","","98.98","","","","","","NA"
"-52.94","48.17","GRATES COVE","840B053","2019-04-10 11:30","2019","04","10","11:30","1.8","","-1.7","","78","","","M","27","","30","","","","98.94","","","","","","NA"
"-52.94","48.17","GRATES COVE","840B053","2019-04-10 12:30","2019","04","10","12:30","3.2","","-0.3","","78","","","M","28","","24","","","","98.91","","","","","","NA"
"-52.94","48.17","GRATES COVE","840B053","2019-04-10 13:30","2019","04","10","13:30","2.7","","-1.1","","76","","","M","28","","22","","","","98.89","","","","","","NA"
"-52.94","48.17","GRATES COVE","840B053","2019-04-10 14:30","2019","04","10","14:30","2.6","","-1.4","","75","","","M","30","","20","","","","98.91","","","","","","NA"
"-52.94","48.17","GRATES COVE","840B053","2019-04-10 15:30","2019","04","10","15:30","2.5","","-1.3","","76","","","M","33","","21","","","","98.90","","","","","","NA"
"-52.94","48.17","GRATES COVE","840B053","2019-04-10 16:30","2019","04","10","16:30","2.0","","-1.1","","80","","","M","33","","15","","","","98.90","","","","","","NA"
"-52.94","48.17","GRATES COVE","840B053","2019-04-10 17:30","2019","04","10","17:30","1.9","","-1.6","","78","","","M","32","","15","","","","98.91","","","","","","NA"
"-52.94","48.17","GRATES COVE","840B053","2019-04-10 18:30","2019","04","10","18:30","1.3","","-1.5","","82","","","M","33","","16","","","","98.91","","","","","","NA"
"-52.94","48.17","GRATES COVE","840B053","2019-04-10 19:30","2019","04","10","19:30","1.0","","-1.0","","86","","","M","35","","10","","","","98.94","","","","","","NA"
"-52.94","48.17","GRATES COVE","840B053","2019-04-10 20:30","2019","04","10","20:30","0.8","","-0.8","","89","","","M","31","","15","","","","98.99","","","","","","NA"
"-52.94","48.17","GRATES COVE","840B053","2019-04-10 21:30","2019","04","10","21:30","0.9","","-1.0","","87","","","M","29","","18","","","","99.01","","","","","","NA"
"-52.94","48.17","GRATES COVE","840B053","2019-04-10 22:30","2019","04","10","22:30","0.5","","-1.0","","90","","","M","30","","16","","","","99.01","","","","","","NA"
"-52.94","48.17","GRATES COVE","840B053","2019-04-10 23:30","2019","04","10","23:30","0.2","","-1.1","","91","","","M","31","","13","","","","98.99","","","","","","NA"
"-52.94","48.17","GRATES COVE","840B053","2019-04-11 00:30","2019","04","11","00:30","0.3","","-0.8","","92","","","M","32","","15","","","","98.98","","","","","","NA"
"-52.94","48.17","GRATES COVE","840B053","2019-04-11 01:30","2019","04","11","01:30","0.1","","-1.0","","92","","","M","30","","15","","","","98.98","","","","","","NA"
"-52.94","48.17","GRATES COVE","840B053","2019-04-11 02:30","2019","04","11","02:30","0.1","","-0.9","","93","","","M","30","","17","","","","98.98","","","","","","NA"
"-52.94","48.17","GRATES COVE","840B053","2019-04-11 03:30","2019","04","11","03:30","0.0","","-1.1","","92","","","M","31","","16","","","","99.01","","","","-5","","NA"
"-52.94","48.17","GRATES COVE","840B053","2019-04-11 04:30","2019","04","11","04:30","0.3","","-1.1","","90","","","M","30","","22","","","","99.03","","","","","","NA"
"-52.94","48.17","GRATES COVE","840B053","2019-04-11 05:30","2019","04","11","05:30","0.1","","-1.7","","88","","","M","30","","21","","","","99.05","","","","","","NA"
"-52.94","48.17","GRATES COVE","840B053","2019-04-11 06:30","2019","04","11","06:30","0.0","","-0.7","","95","","","M","29","","23","","","","99.11","","","","-6","","NA"
"-52.94","48.17","GRATES COVE","840B053","2019-04-11 07:30","2019","04","11","07:30","0.2","","-0.7","","94","","","M","29","","19","","","","99.17","","","","","","NA"
"-52.94","48.17","GRATES COVE","840B053","2019-04-11 08:30","2019","04","11","08:30","0.6","","-0.3","","94","","","M","29","","20","","","","99.21","","","","","","NA"
"-52.94","48.17","GRATES COVE","840B053","2019-04-11 09:30","2019","04","11","09:30","1.4","","-0.7","","86","","","M","33","","19","","","","99.23","","","","","","NA"
"-52.94","48.17","GRATES COVE","840B053","2019-04-11 10:30","2019","04","11","10:30","1.5","","-0.1","","89","","","M","32","","17","","","","99.27","","","","","","NA"
"-52.94","48.17","GRATES COVE","840B053","2019-04-11 11:30","2019","04","11","11:30","1.5","","0.8","","95","","","M","33","","19","","","","99.28","","","","","","NA"
"-52.94","48.17","GRATES COVE","840B053","2019-04-11 12:30","2019","04","11","12:30","1.9","","0.4","","90","","","M","32","","23","","","","99.30","","","","","","NA"
"-52.94","48.17","GRATES COVE","840B053","2019-04-11 13:30","2019","04","11","13:30","2.1","","-1.3","","78","","","M","32","","17","","","","99.33","","","","","","NA"
"-52.94","48.17","GRATES COVE","840B053","2019-04-11 14:30","2019","04","11","14:30","1.9","","-1.6","","78","","","M","34","","16","","","","99.37","","","","","","NA"
"-52.94","48.17","GRATES COVE","840B053","2019-04-11 15:30","2019","04","11","15:30","1.7","","-1.6","","79","","","M","35","","24","","","","99.41","","","","","","NA"
"-52.94","48.17","GRATES COVE","840B053","2019-04-11 16:30","2019","04","11","16:30","1.4","","-1.4","","81","","","M","33","","27","","","","99.48","","","","","","NA"
"-52.94","48.17","GRATES COVE","840B053","2019-04-11 17:30","2019","04","11","17:30","0.6","","-1.0","","89","","","M","34","","24","","","","99.59","","","","","","NA"
"-52.94","48.17","GRATES COVE","840B053","2019-04-11 18:30","2019","04","11","18:30","0.1","","-0.7","","95","","","M","33","","24","","","","99.70","","","","","","NA"
"-52.94","48.17","GRATES COVE","840B053","2019-04-11 19:30","2019","04","11","19:30","0.0","","-0.7","","95","","","M","34","","21","","","","99.81","","","","-5","","NA"
"-52.94","48.17","GRATES COVE","840B053","2019-04-11 20:30","2019","04","11","20:30","-0.1","","-0.8","","95","","","M","36","","28","","","","99.90","","","","-6","","NA"
"-52.94","48.17","GRATES COVE","840B053","2019-04-11 21:30","2019","04","11","21:30","0.0","","-1.0","","93","","","M","34","","26","","","","99.99","","","","-6","","NA"
"-52.94","48.17","GRATES COVE","840B053","2019-04-11 22:30","2019","04","11","22:30","-0.2","","-0.8","","95","","","M","34","","24","","","","100.04","","","","-6","","NA"
"-52.94","48.17","GRATES COVE","840B053","2019-04-11 23:30","2019","04","11","23:30","-0.1","","-1.2","","92","","","M","33","","28","","","","100.08","","","","-6","","NA"
"-52.94","48.17","GRATES COVE","840B053","2019-04-12 00:30","2019","04","12","00:30","0.0","","-1.4","","90","","","M","33","","33","","","","100.13","","","","-7","","NA"
"-52.94","48.17","GRATES COVE","840B053","2019-04-12 01:30","2019","04","12","01:30","-0.4","","-1.3","","93","","","M","33","","27","","","","100.21","","","","-7","","NA"
"-52.94","48.17","GRATES COVE","840B053","2019-04-12 02:30","2019","04","12","02:30","-0.6","","-1.4","","94","","","M","35","","24","","","","100.30","","","","-7","","NA"
"-52.94","48.17","GRATES COVE","840B053","2019-04-12 03:30","2019","04","12","03:30","-0.7","","-1.7","","93","","","M","34","","24","","","","100.39","","","","-7","","NA"
"-52.94","48.17","GRATES COVE","840B053","2019-04-12 04:30","2019","04","12","04:30","-0.8","","-1.5","","95","","","M","33","","28","","","","100.48","","","","-7","","NA"
"-52.94","48.17","GRATES COVE","840B053","2019-04-12 05:30","2019","04","12","05:30","-0.9","","-1.7","","94","","","M","34","","24","","","","100.60","","","","-7","","NA"
"-52.94","48.17","GRATES COVE","840B053","2019-04-12 06:30","2019","04","12","06:30","-0.5","","-2.4","","87","","","M","35","","20","","","","100.69","","","","-6","","NA"
"-52.94","48.17","GRATES COVE","840B053","2019-04-12 07:30","2019","04","12","07:30","-0.1","","-2.2","","86","","","M","33","","18","","","","100.71","","","","-5","","NA"
"-52.94","48.17","GRATES COVE","840B053","2019-04-12 08:30","2019","04","12","08:30","0.2","","-2.6","","81","","","M","33","","30","","","","100.70","","","","","","NA"
"-52.94","48.17","GRATES COVE","840B053","2019-04-12 09:30","2019","04","12","09:30","0.7","","-2.5","","79","","","M","35","","16","","","","100.70","","","","","","NA"
"-52.94","48.17","GRATES COVE","840B053","2019-04-12 10:30","2019","04","12","10:30","1.9","","-2.5","","73","","","M","33","","22","","","","100.67","","","","","","NA"
"-52.94","48.17","GRATES COVE","840B053","2019-04-12 11:30","2019","04","12","11:30","1.4","","-2.9","","73","","","M","30","","18","","","","100.68","","","","","","NA"
"-52.94","48.17","GRATES COVE","840B053","2019-04-12 12:30","2019","04","12","12:30","2.5","","-2.6","","69","","","M","32","","11","","","","100.62","","","","","","NA"
"-52.94","48.17","GRATES COVE","840B053","2019-04-12 13:30","2019","04","12","13:30","0.7","","-3.0","","76","","","M","4","","11","","","","100.61","","","","","","NA"
"-52.94","48.17","GRATES COVE","840B053","2019-04-12 14:30","2019","04","12","14:30","1.0","","-3.8","","71","","","M","2","","21","","","","100.60","","","","","","NA"
"-52.94","48.17","GRATES COVE","840B053","2019-04-12 15:30","2019","04","12","15:30","1.0","","-4.6","","66","","","M","2","","27","","","","100.57","","","","","","NA"
"-52.94","48.17","GRATES COVE","840B053","2019-04-12 16:30","2019","04","12","16:30","1.0","","-4.8","","65","","","M","2","","21","","","","100.65","","","","","","NA"
"-52.94","48.17","GRATES COVE","840B053","2019-04-12 17:30","2019","04","12","17:30","-0.7","","-3.7","","80","","","M","4","","21","","","","100.73","","","","-6","","NA"
"-52.94","48.17","GRATES COVE","840B053","2019-04-12 18:30","2019","04","12","18:30","-1.3","","-4.5","","79","","","M","6","","15","","","","100.78","","","","-6","","NA"
"-52.94","48.17","GRATES COVE","840B053","2019-04-12 19:30","2019","04","12","19:30","-1.1","","-4.5","","78","","","M","3","","22","","","","100.84","","","","-7","","NA"
"-52.94","48.17","GRATES COVE","840B053","2019-04-12 20:30","2019","04","12","20:30","-0.8","","-5.7","","69","","","M","1","","13","","","","100.94","","","","-5","","NA"
"-52.94","48.17","GRATES COVE","840B053","2019-04-12 21:30","2019","04","12","21:30","-1.1","","-5.8","","70","","","M","32","","15","","","","100.98","","","","-6","","NA"
"-52.94","48.17","GRATES COVE","840B053","2019-04-12 22:30","2019","04","12","22:30","-1.0","","-5.8","","70","","","M","30","","16","","","","100.98","","","","-6","","NA"
"-52.94","48.17","GRATES COVE","840B053","2019-04-12 23:30","2019","04","12","23:30","-0.7","","-6.8","","63","","","M","27","","18","","","","100.97","","","","-6","","NA"
"-52.94","48.17","GRATES COVE","840B053","2019-04-13 00:30","2019","04","13","00:30","-0.4","","-6.4","","64","","","M","29","","26","","","","101.02","","","","-7","","NA"
"-52.94","48.17","GRATES COVE","840B053","2019-04-13 01:30","2019","04","13","01:30","-0.9","","-5.4","","71","","","M","30","","29","","","","101.01","","","","-8","","NA"
"-52.94","48.17","GRATES COVE","840B053","2019-04-13 02:30","2019","04","13","02:30","-1.3","","-5.8","","71","","","M","31","","21","","","","101.02","","","","-7","","NA"
"-52.94","48.17","GRATES COVE","840B053","2019-04-13 03:30","2019","04","13","03:30","-1.5","","-5.7","","73","","","M","30","","21","","","","101.07","","","","-7","","NA"
"-52.94","48.17","GRATES COVE","840B053","2019-04-13 04:30","2019","04","13","04:30","-1.5","","-5.5","","74","","","M","29","","20","","","","101.09","","","","-7","","NA"
"-52.94","48.17","GRATES COVE","840B053","2019-04-13 05:30","2019","04","13","05:30","-1.4","","-5.7","","72","","","M","30","","27","","","","101.12","","","","-8","","NA"
"-52.94","48.17","GRATES COVE","840B053","2019-04-13 06:30","2019","04","13","06:30","-1.0","","-5.5","","72","","","M","30","","24","","","","101.22","","","","-7","","NA"
"-52.94","48.17","GRATES COVE","840B053","2019-04-13 07:30","2019","04","13","07:30","-0.5","","-5.0","","72","","","M","29","","22","","","","101.28","","","","-6","","NA"
"-52.94","48.17","GRATES COVE","840B053","2019-04-13 08:30","2019","04","13","08:30","0.1","","-5.9","","64","","","M","29","","19","","","","101.28","","","","","","NA"
"-52.94","48.17","GRATES COVE","840B053","2019-04-13 09:30","2019","04","13","09:30","1.4","","-7.9","","50","","","M","27","","20","","","","101.22","","","","","","NA"
"-52.94","48.17","GRATES COVE","840B053","2019-04-13 10:30","2019","04","13","10:30","2.0","","-6.3","","54","","","M","27","","21","","","","101.20","","","","","","NA"
"-52.94","48.17","GRATES COVE","840B053","2019-04-13 11:30","2019","04","13","11:30","4.1","","-8.4","","40","","","M","26","","23","","","","101.13","","","","","","NA"
"-52.94","48.17","GRATES COVE","840B053","2019-04-13 12:30","2019","04","13","12:30","5.2","","-6.9","","41","","","M","26","","26","","","","101.06","","","","","","NA"
"-52.94","48.17","GRATES COVE","840B053","2019-04-13 13:30","2019","04","13","13:30","5.9","","-6.9","","39","","","M","25","","27","","","","100.98","","","","","","NA"
"-52.94","48.17","GRATES COVE","840B053","2019-04-13 14:30","2019","04","13","14:30","6.4","","-6.0","","41","","","M","26","","25","","","","100.93","","","","","","NA"
"-52.94","48.17","GRATES COVE","840B053","2019-04-13 15:30","2019","04","13","15:30","6.2","","-5.5","","43","","","M","25","","30","","","","100.83","","","","","","NA"
"-52.94","48.17","GRATES COVE","840B053","2019-04-13 16:30","2019","04","13","16:30","5.3","","-5.5","","46","","","M","24","","35","","","","100.71","","","","","","NA"
"-52.94","48.17","GRATES COVE","840B053","2019-04-13 17:30","2019","04","13","17:30","3.7","","-5.3","","52","","","M","25","","39","","","","100.69","","","","","","NA"
"-52.94","48.17","GRATES COVE","840B053","2019-04-13 18:30","2019","04","13","18:30","3.3","","-4.2","","58","","","M","25","","36","","","","100.63","","","","","","NA"
"-52.94","48.17","GRATES COVE","840B053","2019-04-13 19:30","2019","04","13","19:30","3.0","","-4.4","","58","","","M","25","","31","","","","100.63","","","","","","NA"
"-52.94","48.17","GRATES COVE","840B053","2019-04-13 20:30","2019","04","13","20:30","2.8","","-4.4","","59","","","M","25","","32","","","","100.43","","","","","","NA"
"-52.94","48.17","GRATES COVE","840B053","2019-04-13 21:30","2019","04","13","21:30","2.6","","-7.3","","48","","","M","25","","27","","","","100.42","","","","","","NA"
"-52.94","48.17","GRATES COVE","840B053","2019-04-13 22:30","2019","04","13","22:30","1.7","","-5.7","","58","","","M","25","","36","","","","100.29","","","","","","NA"
"-52.94","48.17","GRATES COVE","840B053","2019-04-13 23:30","2019","04","13","23:30","1.0","","-3.9","","69","","","M","26","","23","","","","100.22","","","","","","NA"
"-52.94","48.17","GRATES COVE","840B053","2019-04-14 00:30","2019","04","14","00:30","1.1","","-2.4","","78","","","M","26","","21","","","","100.08","","","","","","NA"
"-52.94","48.17","GRATES COVE","840B053","2019-04-14 01:30","2019","04","14","01:30","1.2","","-0.8","","86","","","M","25","","31","","","","99.90","","","","","","NA"
"-52.94","48.17","GRATES COVE","840B053","2019-04-14 02:30","2019","04","14","02:30","1.4","","0.2","","92","","","M","25","","24","","","","99.75","","","","","","NA"
"-52.94","48.17","GRATES COVE","840B053","2019-04-14 03:30","2019","04","14","03:30","1.5","","0.5","","93","","","M","26","","20","","","","99.68","","","","","","NA"
"-52.94","48.17","GRATES COVE","840B053","2019-04-14 04:30","2019","04","14","04:30","1.5","","0.7","","94","","","M","25","","19","","","","99.57","","","","","","NA"
"-52.94","48.17","GRATES COVE","840B053","2019-04-14 05:30","2019","04","14","05:30","1.4","","0.8","","96","","","M","25","","32","","","","99.47","","","","","","NA"
"-52.94","48.17","GRATES COVE","840B053","2019-04-14 06:30","2019","04","14","06:30","1.5","","1.0","","97","","","M","26","","38","","","","99.50","","","","","","NA"
"-52.94","48.17","GRATES COVE","840B053","2019-04-14 07:30","2019","04","14","07:30","2.7","","2.0","","96","","","M","25","","25","","","","99.37","","","","","","NA"
"-52.94","48.17","GRATES COVE","840B053","2019-04-14 08:30","2019","04","14","08:30","2.4","","2.0","","97","","","M","27","","23","","","","99.37","","","","","","NA"
"-52.94","48.17","GRATES COVE","840B053","2019-04-14 09:30","2019","04","14","09:30","3.2","","2.7","","97","","","M","26","","36","","","","99.26","","","","","","NA"
"-52.94","48.17","GRATES COVE","840B053","2019-04-14 10:30","2019","04","14","10:30","1.9","","1.3","","96","","","M","27","","35","","","","99.26","","","","","","NA"
"-52.94","48.17","GRATES COVE","840B053","2019-04-14 11:30","2019","04","14","11:30","4.5","","3.6","","94","","","M","27","","34","","","","99.31","","","","","","NA"
"-52.94","48.17","GRATES COVE","840B053","2019-04-14 12:30","2019","04","14","12:30","5.0","","3.0","","87","","","M","27","","28","","","","99.33","","","","","","NA"
"-52.94","48.17","GRATES COVE","840B053","2019-04-14 13:30","2019","04","14","13:30","6.1","","3.2","","82","","","M","27","","24","","","","99.24","","","","","","NA"
"-52.94","48.17","GRATES COVE","840B053","2019-04-14 14:30","2019","04","14","14:30","5.2","","2.9","","85","","","M","28","","18","","","","99.27","","","","","","NA"
"-52.94","48.17","GRATES COVE","840B053","2019-04-14 15:30","2019","04","14","15:30","4.3","","0.5","","76","","","M","30","","33","","","","99.35","","","","","","NA"
"-52.94","48.17","GRATES COVE","840B053","2019-04-14 16:30","2019","04","14","16:30","3.3","","-0.5","","76","","","M","32","","20","","","","99.49","","","","","","NA"
"-52.94","48.17","GRATES COVE","840B053","2019-04-14 17:30","2019","04","14","17:30","1.4","","0.2","","92","","","M","2","","24","","","","99.62","","","","","","NA"
"-52.94","48.17","GRATES COVE","840B053","2019-04-14 18:30","2019","04","14","18:30","1.8","","-0.9","","83","","","M","1","","17","","","","99.79","","","","","","NA"
"-52.94","48.17","GRATES COVE","840B053","2019-04-14 19:30","2019","04","14","19:30","1.6","","-1.5","","80","","","M","1","","27","","","","99.90","","","","","","NA"
"-52.94","48.17","GRATES COVE","840B053","2019-04-14 20:30","2019","04","14","20:30","1.1","","-1.8","","81","","","M","1","","23","","","","100.07","","","","","","NA"
"-52.94","48.17","GRATES COVE","840B053","2019-04-14 21:30","2019","04","14","21:30","0.2","","-1.7","","87","","","M","34","","15","","","","100.21","","","","","","NA"
"-52.94","48.17","GRATES COVE","840B053","2019-04-14 22:30","2019","04","14","22:30","0.5","","-1.5","","86","","","M","34","","16","","","","100.34","","","","","","NA"
"-52.94","48.17","GRATES COVE","840B053","2019-04-14 23:30","2019","04","14","23:30","0.3","","-1.5","","88","","","M","35","","14","","","","100.41","","","","","","NA"
"-52.94","48.17","GRATES COVE","840B053","2019-04-15 00:30","2019","04","15","00:30","-0.2","","-1.8","","89","","","M","36","","14","","","","100.41","","","","-4","","NA"
"-52.94","48.17","GRATES COVE","840B053","2019-04-15 01:30","2019","04","15","01:30","-0.7","","-2.0","","91","","","M","1","","7","","","","100.49","","","","-3","","NA"
"-52.94","48.17","GRATES COVE","840B053","2019-04-15 02:30","2019","04","15","02:30","-1.0","","-2.4","","91","","","M","31","","8","","","","100.57","","","","-4","","NA"
"-52.94","48.17","GRATES COVE","840B053","2019-04-15 03:30","2019","04","15","03:30","-1.1","","-2.3","","92","","","M","30","","12","","","","100.64","","","","-5","","NA"
"-52.94","48.17","GRATES COVE","840B053","2019-04-15 04:30","2019","04","15","04:30","-1.4","","-2.6","","92","","","M","29","","8","","","","100.67","","","","-4","","NA"
"-52.94","48.17","GRATES COVE","840B053","2019-04-15 05:30","2019","04","15","05:30","-1.2","","-3.1","","87","","","M","28","","1","","","","100.76","","","","-2","","NA"
"-52.94","48.17","GRATES COVE","840B053","2019-04-15 06:30","2019","04","15","06:30","0.9","","-1.8","","82","","","M","18","","2","","","","100.82","","","","","","NA"
"-52.94","48.17","GRATES COVE","840B053","2019-04-15 07:30","2019","04","15","07:30","1.7","","-2.6","","73","","","M","8","","2","","","","100.87","","","","","","NA"
"-52.94","48.17","GRATES COVE","840B053","2019-04-15 08:30","2019","04","15","08:30","2.3","","-1.9","","74","","","M","9","","4","","","","100.91","","","","","","NA"
"-52.94","48.17","GRATES COVE","840B053","2019-04-15 09:30","2019","04","15","09:30","2.1","","-1.5","","77","","","M","7","","7","","","","100.95","","","","","","NA"
"-52.94","48.17","GRATES COVE","840B053","2019-04-15 10:30","2019","04","15","10:30","4.7","","-0.6","","68","","","M","11","","4","","","","100.87","","","","","","NA"
"-52.94","48.17","GRATES COVE","840B053","2019-04-15 11:30","2019","04","15","11:30","5.3","","-4.2","","50","","","M","18","","15","","","","100.80","","","","","","NA"
"-52.94","48.17","GRATES COVE","840B053","2019-04-15 12:30","2019","04","15","12:30","3.9","","-5.2","","52","","","M","18","","25","","","","100.79","","","","","","NA"
"-52.94","48.17","GRATES COVE","840B053","2019-04-15 13:30","2019","04","15","13:30","4.9","","-5.5","","47","","","M","16","","23","","","","100.80","","","","","","NA"
"-52.94","48.17","GRATES COVE","840B053","2019-04-15 14:30","2019","04","15","14:30","3.2","","-5.6","","52","","","M","17","","31","","","","100.72","","","","","","NA"
"-52.94","48.17","GRATES COVE","840B053","2019-04-15 15:30","2019","04","15","15:30","2.5","","-5.8","","54","","","M","17","","36","","","","100.67","","","","","","NA"
"-52.94","48.17","GRATES COVE","840B053","2019-04-15 16:30","2019","04","15","16:30","1.8","","-4.8","","62","","","M","19","","35","","","","100.61","","","","","","NA"
"-52.94","48.17","GRATES COVE","840B053","2019-04-15 17:30","2019","04","15","17:30","1.0","","-3.3","","73","","","M","20","","32","","","","100.58","","","","","","NA"
"-52.94","48.17","GRATES COVE","840B053","2019-04-15 18:30","2019","04","15","18:30","0.1","","-1.7","","87","","","M","18","","33","","","","100.55","","","","","","NA"
"-52.94","48.17","GRATES COVE","840B053","2019-04-15 19:30","2019","04","15","19:30","-0.2","","-2.3","","86","","","M","17","","30","","","","100.59","","","","-7","","NA"
"-52.94","48.17","GRATES COVE","840B053","2019-04-15 20:30","2019","04","15","20:30","-0.5","","-2.1","","89","","","M","17","","21","","","","100.54","","","","-6","","NA"
"-52.94","48.17","GRATES COVE","840B053","2019-04-15 21:30","2019","04","15","21:30","-0.5","","-2.0","","89","","","M","15","","26","","","","100.33","","","","-7","","NA"
"-52.94","48.17","GRATES COVE","840B053","2019-04-15 22:30","2019","04","15","22:30","-0.7","","-1.7","","93","","","M","14","","15","","","","100.18","","","","-5","","NA"
"-52.94","48.17","GRATES COVE","840B053","2019-04-15 23:30","2019","04","15","23:30","-0.9","","-1.8","","94","","","M","13","","7","","","","99.94","","","","-3","","NA"
"-52.94","48.17","GRATES COVE","840B053","2019-04-16 00:30","2019","04","16","00:30","-0.8","","-1.6","","94","","","M","14","","6","","","","99.65","","","","-3","","NA"
"-52.94","48.17","GRATES COVE","840B053","2019-04-16 01:30","2019","04","16","01:30","-0.8","","-1.4","","96","","","M","14","","55","","","","99.34","","","","-10","","NA"
"-52.94","48.17","GRATES COVE","840B053","2019-04-16 02:30","2019","04","16","02:30","-0.8","","-1.4","","96","","","M","14","","56","","","","99.08","","","","-10","","NA"
"-52.94","48.17","GRATES COVE","840B053","2019-04-16 03:30","2019","04","16","03:30","-0.1","","-0.6","","96","","","M","16","","45","","","","99.00","","","","-8","","NA"
"-52.94","48.17","GRATES COVE","840B053","2019-04-16 04:30","2019","04","16","04:30","-0.1","","-0.7","","96","","","M","16","","38","","","","98.83","","","","-7","","NA"
"-52.94","48.17","GRATES COVE","840B053","2019-04-16 05:30","2019","04","16","05:30","-0.1","","-0.6","","97","","","M","17","","46","","","","98.67","","","","-8","","NA"
"-52.94","48.17","GRATES COVE","840B053","2019-04-16 06:30","2019","04","16","06:30","0.0","","-0.4","","97","","","M","12","","19","","","","98.63","","","","-5","","NA"
"-52.94","48.17","GRATES COVE","840B053","2019-04-16 07:30","2019","04","16","07:30","0.3","","-0.1","","98","","","M","14","","18","","","","98.56","","","","","","NA"
"-52.94","48.17","GRATES COVE","840B053","2019-04-16 08:30","2019","04","16","08:30","0.6","","0.2","","97","","","M","15","","16","","","","98.42","","","","","","NA"
"-52.94","48.17","GRATES COVE","840B053","2019-04-16 09:30","2019","04","16","09:30","1.8","","1.5","","98","","","M","11","","11","","","","98.37","","","","","","NA"
"-52.94","48.17","GRATES COVE","840B053","2019-04-16 10:30","2019","04","16","10:30","4.6","","4.0","","96","","","M","21","","24","","","","98.20","","","","","","NA"
"-52.94","48.17","GRATES COVE","840B053","2019-04-16 11:30","2019","04","16","11:30","7.8","","6.7","","93","","","M","22","","21","","","","98.12","","","","","","NA"
"-52.94","48.17","GRATES COVE","840B053","2019-04-16 12:30","2019","04","16","12:30","6.9","","6.0","","95","","","M","20","","20","","","","98.01","","","","","","NA"
"-52.94","48.17","GRATES COVE","840B053","2019-04-16 13:30","2019","04","16","13:30","6.8","","6.4","","98","","","M","19","","9","","","","97.93","","","","","","NA"
"-52.94","48.17","GRATES COVE","840B053","2019-04-16 14:30","2019","04","16","14:30","5.6","","5.2","","98","","","M","30","","10","","","","97.82","","","","","","NA"
"-52.94","48.17","GRATES COVE","840B053","2019-04-16 15:30","2019","04","16","15:30","4.3","","4.0","","98","","","M","31","","7","","","","97.78","","","","","","NA"
"-52.94","48.17","GRATES COVE","840B053","2019-04-16 16:30","2019","04","16","16:30","3.7","","3.4","","98","","","M","26","","35","","","","97.63","","","","","","NA"
"-52.94","48.17","GRATES COVE","840B053","2019-04-16 17:30","2019","04","16","17:30","3.5","","3.2","","98","","","M","25","","31","","","","97.58","","","","","","NA"
"-52.94","48.17","GRATES COVE","840B053","2019-04-16 18:30","2019","04","16","18:30","3.3","","2.6","","95","","","M","25","","28","","","","97.53","","","","","","NA"
"-52.94","48.17","GRATES COVE","840B053","2019-04-16 19:30","2019","04","16","19:30","2.8","","2.1","","95","","","M","24","","15","","","","97.46","","","","","","NA"
"-52.94","48.17","GRATES COVE","840B053","2019-04-16 20:30","2019","04","16","20:30","2.0","","1.4","","96","","","M","22","","35","","","","97.32","","","","","","NA"
"-52.94","48.17","GRATES COVE","840B053","2019-04-16 21:30","2019","04","16","21:30","2.2","","1.3","","94","","","M","29","","10","","","","97.36","","","","","","NA"
"-52.94","48.17","GRATES COVE","840B053","2019-04-16 22:30","2019","04","16","22:30","1.0","","0.3","","95","","","M","25","","38","","","","97.24","","","","","","NA"
"-52.94","48.17","GRATES COVE","840B053","2019-04-16 23:30","2019","04","16","23:30","0.9","","0.1","","94","","","M","25","","40","","","","97.18","","","","","","NA"
"-52.94","48.17","GRATES COVE","840B053","2019-04-17 00:30","2019","04","17","00:30","0.5","","-0.1","","96","","","M","25","","36","","","","97.12","","","","","","NA"
"-52.94","48.17","GRATES COVE","840B053","2019-04-17 01:30","2019","04","17","01:30","0.3","","-0.2","","96","","","M","25","","39","","","","97.10","","","","","","NA"
"-52.94","48.17","GRATES COVE","840B053","2019-04-17 02:30","2019","04","17","02:30","0.3","","-0.4","","95","","","M","25","","41","","","","97.09","","","","","","NA"
"-52.94","48.17","GRATES COVE","840B053","2019-04-17 03:30","2019","04","17","03:30","0.2","","-0.2","","97","","","M","25","","43","","","","97.07","","","","","","NA"
"-52.94","48.17","GRATES COVE","840B053","2019-04-17 04:30","2019","04","17","04:30","0.2","","-0.3","","97","","","M","26","","35","","","","97.09","","","","","","NA"
"-52.94","48.17","GRATES COVE","840B053","2019-04-17 05:30","2019","04","17","05:30","0.1","","-0.2","","97","","","M","28","","30","","","","97.13","","","","","","NA"
"-52.94","48.17","GRATES COVE","840B053","2019-04-17 06:30","2019","04","17","06:30","0.1","","-0.5","","96","","","M","30","","30","","","","97.21","","","","","","NA"
"-52.94","48.17","GRATES COVE","840B053","2019-04-17 07:30","2019","04","17","07:30","0.0","","-0.5","","96","","","M","35","","26","","","","97.28","","","","-6","","NA"
"-52.94","48.17","GRATES COVE","840B053","2019-04-17 08:30","2019","04","17","08:30","0.0","","-0.4","","98","","","M","1","","18","","","","97.40","","","","-5","","NA"
"-52.94","48.17","GRATES COVE","840B053","2019-04-17 09:30","2019","04","17","09:30","0.1","","-0.6","","95","","","M","2","","34","","","","97.53","","","","","","NA"
"-52.94","48.17","GRATES COVE","840B053","2019-04-17 10:30","2019","04","17","10:30","0.4","","-0.8","","91","","","M","2","","46","","","","97.68","","","","","","NA"
"-52.94","48.17","GRATES COVE","840B053","2019-04-17 11:30","2019","04","17","11:30","0.5","","-1.0","","90","","","M","2","","54","","","","97.77","","","","","","NA"
"-52.94","48.17","GRATES COVE","840B053","2019-04-17 12:30","2019","04","17","12:30","0.7","","-0.7","","90","","","M","2","","55","","","","97.90","","","","","","NA"
"-52.94","48.17","GRATES COVE","840B053","2019-04-17 13:30","2019","04","17","13:30","0.8","","-0.9","","88","","","M","2","","53","","","","98.01","","","","","","NA"
"-52.94","48.17","GRATES COVE","840B053","2019-04-17 14:30","2019","04","17","14:30","0.4","","-1.0","","90","","","M","2","","52","","","","98.06","","","","","","NA"
"-52.94","48.17","GRATES COVE","840B053","2019-04-17 15:30","2019","04","17","15:30","0.0","","-1.1","","93","","","M","2","","52","","","","98.17","","","","-8","","NA"
"-52.94","48.17","GRATES COVE","840B053","2019-04-17 16:30","2019","04","17","16:30","-0.1","","-1.4","","91","","","M","2","","58","","","","98.39","","","","-9","","NA"
"-52.94","48.17","GRATES COVE","840B053","2019-04-17 17:30","2019","04","17","17:30","-0.2","","-1.7","","90","","","M","2","","53","","","","98.61","","","","-9","","NA"
"-52.94","48.17","GRATES COVE","840B053","2019-04-17 18:30","2019","04","17","18:30","-0.4","","-2.1","","88","","","M","2","","51","","","","98.86","","","","-9","","NA"
"-52.94","48.17","GRATES COVE","840B053","2019-04-17 19:30","2019","04","17","19:30","-0.3","","-2.5","","86","","","M","2","","46","","","","99.09","","","","-8","","NA"
"-52.94","48.17","GRATES COVE","840B053","2019-04-17 20:30","2019","04","17","20:30","-0.5","","-2.6","","86","","","M","2","","34","","","","99.37","","","","-8","","NA"
"-52.94","48.17","GRATES COVE","840B053","2019-04-17 21:30","2019","04","17","21:30","-0.5","","-2.6","","86","","","M","2","","30","","","","99.58","","","","-7","","NA"
"-52.94","48.17","GRATES COVE","840B053","2019-04-17 22:30","2019","04","17","22:30","-0.5","","-2.8","","84","","","M","1","","26","","","","99.74","","","","-7","","NA"
"-52.94","48.17","GRATES COVE","840B053","2019-04-17 23:30","2019","04","17","23:30","-0.6","","-3.0","","84","","","M","1","","27","","","","99.85","","","","-7","","NA"
"-52.94","48.17","GRATES COVE","840B053","2019-04-18 00:30","2019","04","18","00:30","-0.7","","-3.0","","84","","","M","1","","25","","","","99.93","","","","-7","","NA"
"-52.94","48.17","GRATES COVE","840B053","2019-04-18 01:30","2019","04","18","01:30","-0.8","","-3.2","","84","","","M","1","","25","","","","100.02","","","","-7","","NA"
"-52.94","48.17","GRATES COVE","840B053","2019-04-18 02:30","2019","04","18","02:30","-0.8","","-3.3","","83","","","M","1","","26","","","","100.15","","","","-7","","NA"
"-52.94","48.17","GRATES COVE","840B053","2019-04-18 03:30","2019","04","18","03:30","-0.9","","-3.2","","84","","","M","1","","23","","","","100.25","","","","-7","","NA"
"-52.94","48.17","GRATES COVE","840B053","2019-04-18 04:30","2019","04","18","04:30","-0.9","","-3.3","","84","","","M","1","","23","","","","100.35","","","","-7","","NA"
"-52.94","48.17","GRATES COVE","840B053","2019-04-18 05:30","2019","04","18","05:30","-0.9","","-3.2","","85","","","M","1","","24","","","","100.48","","","","-7","","NA"
"-52.94","48.17","GRATES COVE","840B053","2019-04-18 06:30","2019","04","18","06:30","-0.9","","-3.1","","85","","","M","1","","21","","","","100.63","","","","-7","","NA"
"-52.94","48.17","GRATES COVE","840B053","2019-04-18 07:30","2019","04","18","07:30","-0.9","","-3.2","","84","","","M","1","","22","","","","100.78","","","","-7","","NA"
"-52.94","48.17","GRATES COVE","840B053","2019-04-18 08:30","2019","04","18","08:30","-0.8","","-3.4","","82","","","M","1","","24","","","","100.90","","","","-7","","NA"
"-52.94","48.17","GRATES COVE","840B053","2019-04-18 09:30","2019","04","18","09:30","-0.7","","-3.6","","81","","","M","1","","21","","","","101.00","","","","-6","","NA"
"-52.94","48.17","GRATES COVE","840B053","2019-04-18 10:30","2019","04","18","10:30","-0.5","","-3.6","","79","","","M","1","","16","","","","101.16","","","","-5","","NA"
"-52.94","48.17","GRATES COVE","840B053","2019-04-18 11:30","2019","04","18","11:30","-0.4","","-3.6","","79","","","M","1","","19","","","","101.21","","","","-6","","NA"
"-52.94","48.17","GRATES COVE","840B053","2019-04-18 12:30","2019","04","18","12:30","-0.3","","-3.6","","78","","","M","36","","23","","","","101.30","","","","-6","","NA"
"-52.94","48.17","GRATES COVE","840B053","2019-04-18 13:30","2019","04","18","13:30","0.0","","-3.7","","76","","","M","36","","26","","","","101.40","","","","-6","","NA"
"-52.94","48.17","GRATES COVE","840B053","2019-04-18 14:30","2019","04","18","14:30","-0.2","","-3.7","","77","","","M","1","","17","","","","101.39","","","","-5","","NA"
"-52.94","48.17","GRATES COVE","840B053","2019-04-18 15:30","2019","04","18","15:30","-0.1","","-3.7","","77","","","M","36","","17","","","","101.50","","","","-5","","NA"
"-52.94","48.17","GRATES COVE","840B053","2019-04-18 16:30","2019","04","18","16:30","-0.3","","-4.4","","74","","","M","1","","20","","","","101.58","","","","-6","","NA"
"-52.94","48.17","GRATES COVE","840B053","2019-04-18 17:30","2019","04","18","17:30","-0.5","","-5.1","","71","","","M","1","","15","","","","101.65","","","","-5","","NA"
"-52.94","48.17","GRATES COVE","840B053","2019-04-18 18:30","2019","04","18","18:30","-0.6","","-5.0","","72","","","M","1","","12","","","","101.78","","","","-5","","NA"
"-52.94","48.17","GRATES COVE","840B053","2019-04-18 19:30","2019","04","18","19:30","-0.8","","-5.1","","73","","","M","1","","10","","","","101.81","","","","-4","","NA"
"-52.94","48.17","GRATES COVE","840B053","2019-04-18 20:30","2019","04","18","20:30","-1.1","","-4.5","","78","","","M","36","","8","","","","101.89","","","","-4","","NA"
"-52.94","48.17","GRATES COVE","840B053","2019-04-18 21:30","2019","04","18","21:30","-1.6","","-5.0","","78","","","M","2","","4","","","","101.90","","","","-3","","NA"
"-52.94","48.17","GRATES COVE","840B053","2019-04-18 22:30","2019","04","18","22:30","-2.4","","-5.4","","79","","","M","28","","1","","","","101.97","","","","-3","","NA"
"-52.94","48.17","GRATES COVE","840B053","2019-04-18 23:30","2019","04","18","23:30","-3.6","","-7.5","","74","","","M","23","","3","","","","101.96","","","","-5","","NA"
"-52.94","48.17","GRATES COVE","840B053","2019-04-19 00:30","2019","04","19","00:30","-2.9","","-7.4","","71","","","M","22","","14","","","","102.01","","","","-8","","NA"
"-52.94","48.17","GRATES COVE","840B053","2019-04-19 01:30","2019","04","19","01:30","-3.3","","-7.1","","75","","","M","22","","14","","","","101.91","","","","-8","","NA"
"-52.94","48.17","GRATES COVE","840B053","2019-04-19 02:30","2019","04","19","02:30","-2.7","","-6.1","","77","","","M","22","","12","","","","101.89","","","","-7","","NA"
"-52.94","48.17","GRATES COVE","840B053","2019-04-19 03:30","2019","04","19","03:30","-2.6","","-5.3","","82","","","M","23","","18","","","","101.85","","","","-8","","NA"
"-52.94","48.17","GRATES COVE","840B053","2019-04-19 04:30","2019","04","19","04:30","-2.3","","-4.9","","83","","","M","24","","21","","","","101.88","","","","-8","","NA"
"-52.94","48.17","GRATES COVE","840B053","2019-04-19 05:30","2019","04","19","05:30","-2.4","","-4.8","","84","","","M","23","","14","","","","101.94","","","","-7","","NA"
"-52.94","48.17","GRATES COVE","840B053","2019-04-19 06:30","2019","04","19","06:30","-0.1","","-2.9","","82","","","M","22","","5","","","","102.01","","","","-2","","NA"
"-52.94","48.17","GRATES COVE","840B053","2019-04-19 07:30","2019","04","19","07:30","0.9","","-3.4","","73","","","M","25","","17","","","","101.98","","","","","","NA"
"-52.94","48.17","GRATES COVE","840B053","2019-04-19 08:30","2019","04","19","08:30","2.3","","-3.6","","65","","","M","25","","23","","","","101.94","","","","","","NA"
"-52.94","48.17","GRATES COVE","840B053","2019-04-19 09:30","2019","04","19","09:30","4.0","","-4.2","","55","","","M","25","","24","","","","101.92","","","","","","NA"
"-52.94","48.17","GRATES COVE","840B053","2019-04-19 10:30","2019","04","19","10:30","3.9","","-3.7","","57","","","M","26","","22","","","","101.86","","","","","","NA"
"-52.94","48.17","GRATES COVE","840B053","2019-04-19 11:30","2019","04","19","11:30","4.7","","-4.2","","52","","","M","25","","31","","","","101.76","","","","","","NA"
"-52.94","48.17","GRATES COVE","840B053","2019-04-19 12:30","2019","04","19","12:30","4.6","","-3.6","","55","","","M","24","","19","","","","101.76","","","","","","NA"
"-52.94","48.17","GRATES COVE","840B053","2019-04-19 13:30","2019","04","19","13:30","4.2","","-4.9","","52","","","M","21","","26","","","","101.67","","","","","","NA"
"-52.94","48.17","GRATES COVE","840B053","2019-04-19 14:30","2019","04","19","14:30","2.7","","-4.8","","58","","","M","21","","27","","","","101.59","","","","","","NA"
"-52.94","48.17","GRATES COVE","840B053","2019-04-19 15:30","2019","04","19","15:30","-0.5","","-1.5","","93","","","M","21","","33","","","","101.38","","","","-7","","NA"
"-52.94","48.17","GRATES COVE","840B053","2019-04-19 16:30","2019","04","19","16:30","-0.4","","-1.4","","93","","","M","18","","44","","","","101.20","","","","-8","","NA"
"-52.94","48.17","GRATES COVE","840B053","2019-04-19 17:30","2019","04","19","17:30","-0.4","","-1.0","","96","","","M","17","","36","","","","101.13","","","","-8","","NA"
"-52.94","48.17","GRATES COVE","840B053","2019-04-19 18:30","2019","04","19","18:30","-0.1","","-0.5","","97","","","M","19","","43","","","","100.96","","","","-8","","NA"
"-52.94","48.17","GRATES COVE","840B053","2019-04-19 19:30","2019","04","19","19:30","0.7","","0.2","","96","","","M","20","","49","","","","100.92","","","","","","NA"
"-52.94","48.17","GRATES COVE","840B053","2019-04-19 20:30","2019","04","19","20:30","1.3","","0.8","","96","","","M","22","","45","","","","100.97","","","","","","NA"
"-52.94","48.17","GRATES COVE","840B053","2019-04-19 21:30","2019","04","19","21:30","2.2","","1.7","","97","","","M","22","","41","","","","100.94","","","","","","NA"
"-52.94","48.17","GRATES COVE","840B053","2019-04-19 22:30","2019","04","19","22:30","2.8","","1.9","","94","","","M","22","","48","","","","100.83","","","","","","NA"
"-52.94","48.17","GRATES COVE","840B053","2019-04-19 23:30","2019","04","19","23:30","3.8","","3.0","","94","","","M","23","","41","","","","100.80","","","","","","NA"
"-52.94","48.17","GRATES COVE","840B053","2019-04-20 00:30","2019","04","20","00:30","4.9","","3.9","","93","","","M","25","","31","","","","100.79","","","","","","NA"
"-52.94","48.17","GRATES COVE","840B053","2019-04-20 01:30","2019","04","20","01:30","4.6","","3.6","","94","","","M","25","","46","","","","100.58","","","","","","NA"
"-52.94","48.17","GRATES COVE","840B053","2019-04-20 02:30","2019","04","20","02:30","3.9","","3.4","","96","","","M","25","","43","","","","100.44","","","","","","NA"
"-52.94","48.17","GRATES COVE","840B053","2019-04-20 03:30","2019","04","20","03:30","3.5","","3.2","","98","","","M","26","","40","","","","100.45","","","","","","NA"
"-52.94","48.17","GRATES COVE","840B053","2019-04-20 04:30","2019","04","20","04:30","3.8","","3.5","","98","","","M","25","","41","","","","100.58","","","","","","NA"
"-52.94","48.17","GRATES COVE","840B053","2019-04-20 05:30","2019","04","20","05:30","4.3","","3.6","","96","","","M","26","","33","","","","100.75","","","","","","NA"
"-52.94","48.17","GRATES COVE","840B053","2019-04-20 06:30","2019","04","20","06:30","4.1","","3.4","","95","","","M","26","","32","","","","100.82","","","","","","NA"
"-52.94","48.17","GRATES COVE","840B053","2019-04-20 07:30","2019","04","20","07:30","4.3","","3.6","","95","","","M","26","","30","","","","100.94","","","","","","NA"
"-52.94","48.17","GRATES COVE","840B053","2019-04-20 08:30","2019","04","20","08:30","4.1","","3.4","","96","","","M","27","","28","","","","101.02","","","","","","NA"
"-52.94","48.17","GRATES COVE","840B053","2019-04-20 09:30","2019","04","20","09:30","4.2","","3.4","","95","","","M","26","","21","","","","101.16","","","","","","NA"
"-52.94","48.17","GRATES COVE","840B053","2019-04-20 10:30","2019","04","20","10:30","4.3","","3.7","","96","","","M","27","","21","","","","101.36","","","","","","NA"
"-52.94","48.17","GRATES COVE","840B053","2019-04-20 11:30","2019","04","20","11:30","5.2","","4.1","","93","","","M","27","","17","","","","101.59","","","","","","NA"
"-52.94","48.17","GRATES COVE","840B053","2019-04-20 12:30","2019","04","20","12:30","5.5","","4.3","","92","","","M","28","","12","","","","101.59","","","","","","NA"
"-52.94","48.17","GRATES COVE","840B053","2019-04-20 13:30","2019","04","20","13:30","5.2","","3.8","","91","","","M","28","","10","","","","101.42","","","","","","NA"
"-52.94","48.17","GRATES COVE","840B053","2019-04-20 14:30","2019","04","20","14:30","5.9","","4.0","","87","","","M","27","","7","","","","101.54","","","","","","NA"
"-52.94","48.17","GRATES COVE","840B053","2019-04-20 15:30","2019","04","20","15:30","5.3","","3.8","","90","","","M","11","","3","","","","101.50","","","","","","NA"
"-52.94","48.17","GRATES COVE","840B053","2019-04-20 16:30","2019","04","20","16:30","4.7","","3.0","","89","","","M","13","","9","","","","101.37","","","","","","NA"
"-52.94","48.17","GRATES COVE","840B053","2019-04-20 17:30","2019","04","20","17:30","4.2","","3.4","","94","","","M","13","","5","","","","101.38","","","","","","NA"
"-52.94","48.17","GRATES COVE","840B053","2019-04-20 18:30","2019","04","20","18:30","3.7","","3.0","","95","","","M","15","","8","","","","101.50","","","","","","NA"
"-52.94","48.17","GRATES COVE","840B053","2019-04-20 19:30","2019","04","20","19:30","3.1","","2.6","","96","","","M","15","","9","","","","101.58","","","","","","NA"
"-52.94","48.17","GRATES COVE","840B053","2019-04-20 20:30","2019","04","20","20:30","3.0","","2.5","","97","","","M","12","","7","","","","101.72","","","","","","NA"
"-52.94","48.17","GRATES COVE","840B053","2019-04-20 21:30","2019","04","20","21:30","3.8","","2.7","","92","","","M","21","","16","","","","101.93","","","","","","NA"
"-52.94","48.17","GRATES COVE","840B053","2019-04-20 22:30","2019","04","20","22:30","2.7","","2.2","","96","","","M","14","","5","","","","101.82","","","","","","NA"
"-52.94","48.17","GRATES COVE","840B053","2019-04-20 23:30","2019","04","20","23:30","1.0","","0.8","","98","","","M","18","","5","","","","101.77","","","","","","NA"
"-52.94","48.17","GRATES COVE","840B053","2019-04-21 00:30","2019","04","21","00:30","1.8","","1.3","","97","","","M","23","","12","","","","101.97","","","","","","NA"
"-52.94","48.17","GRATES COVE","840B053","2019-04-21 01:30","2019","04","21","01:30","1.1","","0.8","","98","","","M","2","","3","","","","102.04","","","","","","NA"
"-52.94","48.17","GRATES COVE","840B053","2019-04-21 02:30","2019","04","21","02:30","1.5","","1.3","","98","","","M","20","","3","","","","102.13","","","","","","NA"
"-52.94","48.17","GRATES COVE","840B053","2019-04-21 03:30","2019","04","21","03:30","2.4","","1.2","","92","","","M","","","0","","","","102.27","","","","","","NA"
"-52.94","48.17","GRATES COVE","840B053","2019-04-21 04:30","2019","04","21","04:30","2.0","","1.2","","95","","","M","10","","5","","","","102.41","","","","","","NA"
"-52.94","48.17","GRATES COVE","840B053","2019-04-21 05:30","2019","04","21","05:30","1.9","","0.7","","92","","","M","17","","2","","","","102.46","","","","","","NA"
"-52.94","48.17","GRATES COVE","840B053","2019-04-21 06:30","2019","04","21","06:30","2.5","","1.1","","91","","","M","5","","3","","","","102.84","","","","","","NA"
"-52.94","48.17","GRATES COVE","840B053","2019-04-21 07:30","2019","04","21","07:30","5.5","","2.7","","82","","","M","17","","20","","","","103.03","","","","","","NA"
"-52.94","48.17","GRATES COVE","840B053","2019-04-21 08:30","2019","04","21","08:30","5.9","","2.7","","80","","","M","16","","18","","","","102.96","","","","","","NA"
"-52.94","48.17","GRATES COVE","840B053","2019-04-21 09:30","2019","04","21","09:30","5.3","","2.5","","82","","","M","17","","27","","","","102.66","","","","","","NA"
"-52.94","48.17","GRATES COVE","840B053","2019-04-21 10:30","2019","04","21","10:30","5.7","","2.1","","77","","","M","17","","46","","","","102.42","","","","","","NA"
"-52.94","48.17","GRATES COVE","840B053","2019-04-21 11:30","2019","04","21","11:30","4.9","","2.3","","84","","","M","17","","38","","","","102.38","","","","","","NA"
"-52.94","48.17","GRATES COVE","840B053","2019-04-21 12:30","2019","04","21","12:30","5.2","","3.5","","89","","","M","19","","43","","","","102.30","","","","","","NA"
"-52.94","48.17","GRATES COVE","840B053","2019-04-21 13:30","2019","04","21","13:30","4.9","","3.6","","91","","","M","19","","32","","","","102.27","","","","","","NA"
"-52.94","48.17","GRATES COVE","840B053","2019-04-21 14:30","2019","04","21","14:30","6.2","","3.9","","85","","","M","20","","37","","","","102.26","","","","","","NA"
"-52.94","48.17","GRATES COVE","840B053","2019-04-21 15:30","2019","04","21","15:30","6.4","","4.9","","90","","","M","22","","28","","","","102.08","","","","","","NA"
"-52.94","48.17","GRATES COVE","840B053","2019-04-21 16:30","2019","04","21","16:30","5.7","","4.5","","92","","","M","29","","15","","","","102.02","","","","","","NA"
"-52.94","48.17","GRATES COVE","840B053","2019-04-21 17:30","2019","04","21","17:30","5.2","","4.5","","95","","","M","29","","16","","","","101.93","","","","","","NA"
"-52.94","48.17","GRATES COVE","840B053","2019-04-21 18:30","2019","04","21","18:30","9.2","","8.7","","96","","","M","25","","37","","","","101.95","","","","","","NA"
"-52.94","48.17","GRATES COVE","840B053","2019-04-21 19:30","2019","04","21","19:30","9.0","","8.7","","98","","","M","25","","39","","","","101.91","","","","","","NA"
"-52.94","48.17","GRATES COVE","840B053","2019-04-21 20:30","2019","04","21","20:30","10.0","","9.1","","94","","","M","24","","41","","","","101.87","","","","","","NA"
"-52.94","48.17","GRATES COVE","840B053","2019-04-21 21:30","2019","04","21","21:30","9.6","","8.6","","93","","","M","25","","43","","","","101.82","","","","","","NA"
"-52.94","48.17","GRATES COVE","840B053","2019-04-21 22:30","2019","04","21","22:30","9.5","","8.7","","95","","","M","25","","48","","","","101.72","","","","","","NA"
"-52.94","48.17","GRATES COVE","840B053","2019-04-21 23:30","2019","04","21","23:30","8.8","","8.3","","97","","","M","25","","55","","","","101.57","","","","","","NA"
"-52.94","48.17","GRATES COVE","840B053","2019-04-22 00:30","2019","04","22","00:30","9.0","","8.6","","97","","","M","26","","50","","","","101.51","","","","","","NA"
"-52.94","48.17","GRATES COVE","840B053","2019-04-22 01:30","2019","04","22","01:30","6.7","","6.3","","97","","","M","26","","44","","","","101.44","","","","","","NA"
"-52.94","48.17","GRATES COVE","840B053","2019-04-22 02:30","2019","04","22","02:30","9.8","","8.6","","92","","","M","25","","53","","","","101.41","","","","","","NA"
"-52.94","48.17","GRATES COVE","840B053","2019-04-22 03:30","2019","04","22","03:30","11.0","","9.7","","92","","","M","25","","50","","","","101.38","","","","","","NA"
"-52.94","48.17","GRATES COVE","840B053","2019-04-22 04:30","2019","04","22","04:30","10.7","","9.5","","92","","","M","25","","44","","","","101.30","","","","","","NA"
"-52.94","48.17","GRATES COVE","840B053","2019-04-22 05:30","2019","04","22","05:30","11.4","","10.3","","93","","","M","25","","45","","","","101.28","","","","","","NA"
"-52.94","48.17","GRATES COVE","840B053","2019-04-22 06:30","2019","04","22","06:30","10.9","","10.1","","95","","","M","25","","53","","","","101.21","","","","","","NA"
"-52.94","48.17","GRATES COVE","840B053","2019-04-22 07:30","2019","04","22","07:30","10.5","","9.9","","96","","","M","25","","51","","","","101.28","","","","","","NA"
"-52.94","48.17","GRATES COVE","840B053","2019-04-22 08:30","2019","04","22","08:30","10.7","","9.6","","93","","","M","25","","51","","","","101.39","","","","","","NA"
"-52.94","48.17","GRATES COVE","840B053","2019-04-22 09:30","2019","04","22","09:30","10.6","","9.1","","91","","","M","25","","47","","","","101.33","","","","","","NA"
"-52.94","48.17","GRATES COVE","840B053","2019-04-22 10:30","2019","04","22","10:30","10.5","","8.9","","90","","","M","25","","39","","","","101.29","","","","","","NA"
"-52.94","48.17","GRATES COVE","840B053","2019-04-22 11:30","2019","04","22","11:30","10.6","","8.8","","89","","","M","24","","45","","","","101.25","","","","","","NA"
"-52.94","48.17","GRATES COVE","840B053","2019-04-22 12:30","2019","04","22","12:30","11.9","","9.7","","86","","","M","25","","38","","","","101.41","","","","","","NA"
"-52.94","48.17","GRATES COVE","840B053","2019-04-22 13:30","2019","04","22","13:30","10.0","","8.3","","89","","","M","25","","45","","","","101.07","","","","","","NA"
"-52.94","48.17","GRATES COVE","840B053","2019-04-22 14:30","2019","04","22","14:30","9.5","","8.0","","91","","","M","25","","44","","","","101.08","","","","","","NA"
"-52.94","48.17","GRATES COVE","840B053","2019-04-22 15:30","2019","04","22","15:30","9.6","","8.4","","92","","","M","25","","33","","","","101.19","","","","","","NA"
"-52.94","48.17","GRATES COVE","840B053","2019-04-22 16:30","2019","04","22","16:30","9.3","","8.2","","93","","","M","25","","38","","","","101.23","","","","","","NA"
"-52.94","48.17","GRATES COVE","840B053","2019-04-22 17:30","2019","04","22","17:30","9.7","","8.4","","92","","","M","25","","36","","","","101.26","","","","","","NA"
"-52.94","48.17","GRATES COVE","840B053","2019-04-22 18:30","2019","04","22","18:30","9.3","","8.0","","92","","","M","25","","36","","","","101.24","","","","","","NA"
"-52.94","48.17","GRATES COVE","840B053","2019-04-22 19:30","2019","04","22","19:30","4.1","","3.8","","98","","","M","32","","18","","","","101.28","","","","","","NA"
"-52.94","48.17","GRATES COVE","840B053","2019-04-22 20:30","2019","04","22","20:30","4.9","","4.8","","99","","","M","27","","22","","","","101.53","","","","","","NA"
"-52.94","48.17","GRATES COVE","840B053","2019-04-22 21:30","2019","04","22","21:30","5.8","","5.5","","98","","","M","27","","19","","","","101.57","","","","","","NA"
"-52.94","48.17","GRATES COVE","840B053","2019-04-22 22:30","2019","04","22","22:30","5.5","","5.1","","98","","","M","27","","17","","","","101.55","","","","","","NA"
"-52.94","48.17","GRATES COVE","840B053","2019-04-22 23:30","2019","04","22","23:30","5.1","","4.7","","97","","","M","28","","16","","","","101.51","","","","","","NA"
"-52.94","48.17","GRATES COVE","840B053","2019-04-23 00:30","2019","04","23","00:30","4.3","","4.1","","99","","","M","29","","10","","","","101.58","","","","","","NA"
"-52.94","48.17","GRATES COVE","840B053","2019-04-23 01:30","2019","04","23","01:30","4.1","","3.7","","97","","","M","31","","9","","","","101.61","","","","","","NA"
"-52.94","48.17","GRATES COVE","840B053","2019-04-23 02:30","2019","04","23","02:30","3.7","","1.6","","86","","","M","8","","4","","","","101.64","","","","","","NA"
"-52.94","48.17","GRATES COVE","840B053","2019-04-23 03:30","2019","04","23","03:30","1.2","","-0.1","","91","","","M","8","","7","","","","101.70","","","","","","NA"
"-52.94","48.17","GRATES COVE","840B053","2019-04-23 04:30","2019","04","23","04:30","0.6","","-0.3","","94","","","M","9","","7","","","","101.76","","","","","","NA"
"-52.94","48.17","GRATES COVE","840B053","2019-04-23 05:30","2019","04","23","05:30","0.7","","-0.2","","94","","","M","11","","9","","","","101.85","","","","","","NA"
"-52.94","48.17","GRATES COVE","840B053","2019-04-23 06:30","2019","04","23","06:30","1.0","","-0.7","","89","","","M","11","","10","","","","101.91","","","","","","NA"
"-52.94","48.17","GRATES COVE","840B053","2019-04-23 07:30","2019","04","23","07:30","1.9","","-1.1","","80","","","M","10","","11","","","","101.96","","","","","","NA"
"-52.94","48.17","GRATES COVE","840B053","2019-04-23 08:30","2019","04","23","08:30","2.4","","-0.2","","83","","","M","9","","14","","","","102.04","","","","","","NA"
"-52.94","48.17","GRATES COVE","840B053","2019-04-23 09:30","2019","04","23","09:30","2.9","","-0.2","","80","","","M","8","","17","","","","102.11","","","","","","NA"
"-52.94","48.17","GRATES COVE","840B053","2019-04-23 10:30","2019","04","23","10:30","3.3","","-0.8","","75","","","M","8","","18","","","","102.17","","","","","","NA"
"-52.94","48.17","GRATES COVE","840B053","2019-04-23 11:30","2019","04","23","11:30","3.1","","-0.8","","75","","","M","8","","17","","","","102.16","","","","","","NA"
"-52.94","48.17","GRATES COVE","840B053","2019-04-23 12:30","2019","04","23","12:30","2.4","","-1.5","","75","","","M","9","","15","","","","102.16","","","","","","NA"
"-52.94","48.17","GRATES COVE","840B053","2019-04-23 13:30","2019","04","23","13:30","2.0","","-2.2","","74","","","M","8","","14","","","","102.18","","","","","","NA"
"-52.94","48.17","GRATES COVE","840B053","2019-04-23 14:30","2019","04","23","14:30","1.5","","-2.2","","76","","","M","9","","16","","","","102.17","","","","","","NA"
"-52.94","48.17","GRATES COVE","840B053","2019-04-23 15:30","2019","04","23","15:30","1.6","","-2.6","","74","","","M","10","","16","","","","102.15","","","","","","NA"
"-52.94","48.17","GRATES COVE","840B053","2019-04-23 16:30","2019","04","23","16:30","0.5","","-2.6","","80","","","M","10","","15","","","","102.13","","","","","","NA"
"-52.94","48.17","GRATES COVE","840B053","2019-04-23 17:30","2019","04","23","17:30","0.4","","-2.6","","80","","","M","10","","14","","","","102.15","","","","","","NA"
"-52.94","48.17","GRATES COVE","840B053","2019-04-23 18:30","2019","04","23","18:30","-0.1","","-2.4","","85","","","M","10","","14","","","","102.11","","","","-4","","NA"
"-52.94","48.17","GRATES COVE","840B053","2019-04-23 19:30","2019","04","23","19:30","-0.1","","-2.4","","85","","","M","10","","10","","","","102.11","","","","-3","","NA"
"-52.94","48.17","GRATES COVE","840B053","2019-04-23 20:30","2019","04","23","20:30","-0.4","","-2.1","","88","","","M","10","","13","","","","102.14","","","","-5","","NA"
"-52.94","48.17","GRATES COVE","840B053","2019-04-23 21:30","2019","04","23","21:30","-0.5","","-2.1","","88","","","M","11","","11","","","","102.06","","","","-4","","NA"
"-52.94","48.17","GRATES COVE","840B053","2019-04-23 22:30","2019","04","23","22:30","-0.5","","-2.7","","85","","","M","11","","10","","","","101.99","","","","-4","","NA"
"-52.94","48.17","GRATES COVE","840B053","2019-04-23 23:30","2019","04","23","23:30","-0.5","","-3.1","","83","","","M","11","","13","","","","101.89","","","","-5","","NA"
"-52.94","48.17","GRATES COVE","840B053","2019-04-24 00:30","2019","04","24","00:30","-0.6","","-2.7","","86","","","M","10","","14","","","","101.81","","","","-5","","NA"
"-52.94","48.17","GRATES COVE","840B053","2019-04-24 01:30","2019","04","24","01:30","-0.7","","-3.1","","84","","","M","10","","14","","","","101.75","","","","-5","","NA"
"-52.94","48.17","GRATES COVE","840B053","2019-04-24 02:30","2019","04","24","02:30","-0.8","","-2.8","","87","","","M","10","","18","","","","101.66","","","","-6","","NA"
"-52.94","48.17","GRATES COVE","840B053","2019-04-24 03:30","2019","04","24","03:30","-1.1","","-2.7","","89","","","M","10","","24","","","","101.59","","","","-7","","NA"
"-52.94","48.17","GRATES COVE","840B053","2019-04-24 04:30","2019","04","24","04:30","-1.2","","-2.2","","92","","","M","10","","22","","","","101.50","","","","-7","","NA"
"-52.94","48.17","GRATES COVE","840B053","2019-04-24 05:30","2019","04","24","05:30","-1.2","","-2.4","","92","","","M","11","","20","","","","101.40","","","","-7","","NA"
"-52.94","48.17","GRATES COVE","840B053","2019-04-24 06:30","2019","04","24","06:30","-1.4","","-2.9","","90","","","M","10","","13","","","","101.32","","","","-6","","NA"
"-52.94","48.17","GRATES COVE","840B053","2019-04-24 07:30","2019","04","24","07:30","-1.5","","-2.4","","93","","","M","10","","6","","","","101.22","","","","-4","","NA"
"-52.94","48.17","GRATES COVE","840B053","2019-04-24 08:30","2019","04","24","08:30","-1.5","","-2.6","","92","","","M","10","","6","","","","101.01","","","","-4","","NA"
"-52.94","48.17","GRATES COVE","840B053","2019-04-24 09:30","2019","04","24","09:30","-1.4","","-2.1","","95","","","M","10","","4","","","","100.99","","","","-3","","NA"
"-52.94","48.17","GRATES COVE","840B053","2019-04-24 10:30","2019","04","24","10:30","-1.1","","-1.5","","97","","","M","10","","4","","","","100.91","","","","-2","","NA"
"-52.94","48.17","GRATES COVE","840B053","2019-04-24 11:30","2019","04","24","11:30","-1.2","","-1.6","","97","","","M","11","","4","","","","100.50","","","","-3","","NA"
"-52.94","48.17","GRATES COVE","840B053","2019-04-24 12:30","2019","04","24","12:30","-0.9","","-1.4","","96","","","M","11","","3","","","","100.43","","","","-2","","NA"
"-52.94","48.17","GRATES COVE","840B053","2019-04-24 13:30","2019","04","24","13:30","-0.8","","-1.3","","97","","","M","10","","3","","","","100.29","","","","-2","","NA"
"-52.94","48.17","GRATES COVE","840B053","2019-04-24 14:30","2019","04","24","14:30","-0.8","","-1.3","","97","","","M","9","","3","","","","100.21","","","","-2","","NA"
"-52.94","48.17","GRATES COVE","840B053","2019-04-24 15:30","2019","04","24","15:30","-0.8","","-1.2","","97","","","M","9","","3","","","","100.19","","","","-2","","NA"
"-52.94","48.17","GRATES COVE","840B053","2019-04-24 16:30","2019","04","24","16:30","-0.8","","-1.1","","98","","","M","8","","3","","","","100.16","","","","-2","","NA"
"-52.94","48.17","GRATES COVE","840B053","2019-04-24 17:30","2019","04","24","17:30","-0.7","","-0.9","","98","","","M","7","","3","","","","100.24","","","","-2","","NA"
"-52.94","48.17","GRATES COVE","840B053","2019-04-24 18:30","2019","04","24","18:30","-0.9","","-1.1","","99","","","M","6","","2","","","","100.32","","","","-2","","NA"
"-52.94","48.17","GRATES COVE","840B053","2019-04-24 19:30","2019","04","24","19:30","-0.9","","-1.0","","99","","","M","6","","3","","","","100.41","","","","-2","","NA"
"-52.94","48.17","GRATES COVE","840B053","2019-04-24 20:30","2019","04","24","20:30","-0.7","","-0.9","","99","","","M","5","","3","","","","100.51","","","","-2","","NA"
"-52.94","48.17","GRATES COVE","840B053","2019-04-24 21:30","2019","04","24","21:30","-0.9","","-1.1","","98","","","M","4","","3","","","","100.60","","","","-2","","NA"
"-52.94","48.17","GRATES COVE","840B053","2019-04-24 22:30","2019","04","24","22:30","-0.9","","-1.2","","98","","","M","5","","3","","","","100.64","","","","-2","","NA"
"-52.94","48.17","GRATES COVE","840B053","2019-04-24 23:30","2019","04","24","23:30","-0.7","","-1.1","","97","","","M","6","","3","","","","100.72","","","","-2","","NA"
"-52.94","48.17","GRATES COVE","840B053","2019-04-25 00:30","2019","04","25","00:30","-0.7","","-1.3","","96","","","M","5","","2","","","","100.82","","","","-1","","NA"
"-52.94","48.17","GRATES COVE","840B053","2019-04-25 01:30","2019","04","25","01:30","-0.8","","-1.4","","96","","","M","5","","2","","","","100.90","","","","-1","","NA"
"-52.94","48.17","GRATES COVE","840B053","2019-04-25 02:30","2019","04","25","02:30","-0.8","","-1.5","","96","","","M","5","","2","","","","100.97","","","","-1","","NA"
"-52.94","48.17","GRATES COVE","840B053","2019-04-25 03:30","2019","04","25","03:30","-0.9","","-1.6","","95","","","M","5","","2","","","","101.04","","","","-2","","NA"
"-52.94","48.17","GRATES COVE","840B053","2019-04-25 04:30","2019","04","25","04:30","-0.9","","-1.5","","96","","","M","5","","2","","","","101.08","","","","-2","","NA"
"-52.94","48.17","GRATES COVE","840B053","2019-04-25 05:30","2019","04","25","05:30","-0.7","","-1.5","","95","","","M","7","","2","","","","101.11","","","","-1","","NA"
"-52.94","48.17","GRATES COVE","840B053","2019-04-25 06:30","2019","04","25","06:30","-0.4","","-1.3","","93","","","M","7","","2","","","","101.16","","","","-1","","NA"
"-52.94","48.17","GRATES COVE","840B053","2019-04-25 07:30","2019","04","25","07:30","-0.2","","-1.1","","94","","","M","7","","2","","","","101.21","","","","-1","","NA"
"-52.94","48.17","GRATES COVE","840B053","2019-04-25 08:30","2019","04","25","08:30","-0.2","","-1.0","","94","","","M","7","","2","","","","101.17","","","","-1","","NA"
"-52.94","48.17","GRATES COVE","840B053","2019-04-25 09:30","2019","04","25","09:30","0.0","","-1.0","","93","","","M","8","","2","","","","101.26","","","","-1","","NA"
"-52.94","48.17","GRATES COVE","840B053","2019-04-25 10:30","2019","04","25","10:30","0.4","","-0.7","","93","","","M","9","","16","","","","101.30","","","","","","NA"
"-52.94","48.17","GRATES COVE","840B053","2019-04-25 11:30","2019","04","25","11:30","0.4","","-0.6","","93","","","M","10","","22","","","","101.27","","","","","","NA"
"-52.94","48.17","GRATES COVE","840B053","2019-04-25 12:30","2019","04","25","12:30","0.5","","-0.6","","93","","","M","11","","19","","","","101.22","","","","","","NA"
"-52.94","48.17","GRATES COVE","840B053","2019-04-25 13:30","2019","04","25","13:30","0.4","","-0.6","","94","","","M","10","","25","","","","101.14","","","","","","NA"
"-52.94","48.17","GRATES COVE","840B053","2019-04-25 14:30","2019","04","25","14:30","0.2","","-0.6","","94","","","M","11","","27","","","","101.06","","","","","","NA"
"-52.94","48.17","GRATES COVE","840B053","2019-04-25 15:30","2019","04","25","15:30","0.0","","-0.5","","97","","","M","11","","33","","","","100.96","","","","-7","","NA"
"-52.94","48.17","GRATES COVE","840B053","2019-04-25 16:30","2019","04","25","16:30","-0.1","","-0.4","","98","","","M","11","","36","","","","100.81","","","","-7","","NA"
"-52.94","48.17","GRATES COVE","840B053","2019-04-25 17:30","2019","04","25","17:30","-0.1","","-0.3","","99","","","M","11","","32","","","","100.83","","","","-7","","NA"
"-52.94","48.17","GRATES COVE","840B053","2019-04-25 18:30","2019","04","25","18:30","0.1","","-0.1","","99","","","M","12","","33","","","","100.75","","","","","","NA"
"-52.94","48.17","GRATES COVE","840B053","2019-04-25 19:30","2019","04","25","19:30","0.0","","-0.2","","99","","","M","11","","36","","","","100.60","","","","-7","","NA"
"-52.94","48.17","GRATES COVE","840B053","2019-04-25 20:30","2019","04","25","20:30","-0.1","","-0.2","","99","","","M","11","","38","","","","100.50","","","","-7","","NA"
"-52.94","48.17","GRATES COVE","840B053","2019-04-25 21:30","2019","04","25","21:30","-0.1","","-0.2","","99","","","M","11","","39","","","","100.44","","","","-7","","NA"
"-52.94","48.17","GRATES COVE","840B053","2019-04-25 22:30","2019","04","25","22:30","0.0","","-0.1","","99","","","M","12","","31","","","","100.37","","","","-7","","NA"
"-52.94","48.17","GRATES COVE","840B053","2019-04-25 23:30","2019","04","25","23:30","0.0","","-0.2","","99","","","M","11","","26","","","","100.25","","","","-6","","NA"
"-52.94","48.17","GRATES COVE","840B053","2019-04-26 00:30","2019","04","26","00:30","0.0","","-0.1","","99","","","M","11","","23","","","","100.10","","","","-6","","NA"
"-52.94","48.17","GRATES COVE","840B053","2019-04-26 01:30","2019","04","26","01:30","-0.1","","-0.2","","99","","","M","11","","20","","","","100.03","","","","-5","","NA"
"-52.94","48.17","GRATES COVE","840B053","2019-04-26 02:30","2019","04","26","02:30","-0.2","","-0.2","","99","","","M","10","","13","","","","99.93","","","","-4","","NA"
"-52.94","48.17","GRATES COVE","840B053","2019-04-26 03:30","2019","04","26","03:30","-0.2","","-0.3","","99","","","M","9","","5","","","","99.82","","","","-2","","NA"
"-52.94","48.17","GRATES COVE","840B053","2019-04-26 04:30","2019","04","26","04:30","-0.3","","-0.3","","100","","","M","9","","15","","","","99.72","","","","-5","","NA"
"-52.94","48.17","GRATES COVE","840B053","2019-04-26 05:30","2019","04","26","05:30","-0.2","","-0.3","","100","","","M","8","","11","","","","99.71","","","","-4","","NA"
"-52.94","48.17","GRATES COVE","840B053","2019-04-26 06:30","2019","04","26","06:30","-0.2","","-0.3","","100","","","M","8","","11","","","","99.66","","","","-4","","NA"
"-52.94","48.17","GRATES COVE","840B053","2019-04-26 07:30","2019","04","26","07:30","-0.2","","-0.2","","99","","","M","7","","9","","","","99.72","","","","-3","","NA"
"-52.94","48.17","GRATES COVE","840B053","2019-04-26 08:30","2019","04","26","08:30","-0.1","","-0.2","","99","","","M","6","","9","","","","99.70","","","","-3","","NA"
"-52.94","48.17","GRATES COVE","840B053","2019-04-26 09:30","2019","04","26","09:30","0.0","","-0.1","","99","","","M","5","","7","","","","99.79","","","","-2","","NA"
"-52.94","48.17","GRATES COVE","840B053","2019-04-26 10:30","2019","04","26","10:30","0.2","","0.0","","99","","","M","5","","38","","","","99.79","","","","","","NA"
"-52.94","48.17","GRATES COVE","840B053","2019-04-26 11:30","2019","04","26","11:30","0.2","","0.0","","99","","","M","4","","38","","","","99.91","","","","","","NA"
"-52.94","48.17","GRATES COVE","840B053","2019-04-26 12:30","2019","04","26","12:30","0.3","","0.1","","99","","","M","3","","41","","","","99.98","","","","","","NA"
"-52.94","48.17","GRATES COVE","840B053","2019-04-26 13:30","2019","04","26","13:30","0.3","","0.0","","98","","","M","3","","38","","","","100.11","","","","","","NA"
"-52.94","48.17","GRATES COVE","840B053","2019-04-26 14:30","2019","04","26","14:30","0.1","","-0.2","","98","","","M","2","","43","","","","100.21","","","","","","NA"
"-52.94","48.17","GRATES COVE","840B053","2019-04-26 15:30","2019","04","26","15:30","0.1","","-0.4","","96","","","M","3","","47","","","","100.32","","","","","","NA"
"-52.94","48.17","GRATES COVE","840B053","2019-04-26 16:30","2019","04","26","16:30","0.0","","-0.4","","97","","","M","3","","49","","","","100.44","","","","-8","","NA"
"-52.94","48.17","GRATES COVE","840B053","2019-04-26 17:30","2019","04","26","17:30","-0.1","","-0.6","","96","","","M","3","","46","","","","100.56","","","","-8","","NA"
"-52.94","48.17","GRATES COVE","840B053","2019-04-26 18:30","2019","04","26","18:30","-0.1","","-0.8","","95","","","M","3","","39","","","","100.72","","","","-7","","NA"
"-52.94","48.17","GRATES COVE","840B053","2019-04-26 19:30","2019","04","26","19:30","-0.2","","-0.9","","95","","","M","3","","38","","","","100.83","","","","-7","","NA"
"-52.94","48.17","GRATES COVE","840B053","2019-04-26 20:30","2019","04","26","20:30","0.0","","-1.0","","93","","","M","2","","32","","","","100.99","","","","-7","","NA"
"-52.94","48.17","GRATES COVE","840B053","2019-04-26 21:30","2019","04","26","21:30","0.0","","-1.1","","92","","","M","2","","25","","","","101.09","","","","-6","","NA"
"-52.94","48.17","GRATES COVE","840B053","2019-04-26 22:30","2019","04","26","22:30","-0.3","","-1.1","","94","","","M","2","","17","","","","101.15","","","","-5","","NA"
"-52.94","48.17","GRATES COVE","840B053","2019-04-26 23:30","2019","04","26","23:30","-0.3","","-1.3","","93","","","M","2","","24","","","","101.20","","","","-6","","NA"
"-52.94","48.17","GRATES COVE","840B053","2019-04-27 00:30","2019","04","27","00:30","-0.6","","-1.5","","94","","","M","2","","17","","","","101.26","","","","-6","","NA"
"-52.94","48.17","GRATES COVE","840B053","2019-04-27 01:30","2019","04","27","01:30","-0.7","","-1.6","","94","","","M","35","","14","","","","101.36","","","","-5","","NA"
"-52.94","48.17","GRATES COVE","840B053","2019-04-27 02:30","2019","04","27","02:30","-0.9","","-1.6","","95","","","M","2","","6","","","","101.41","","","","-3","","NA"
"-52.94","48.17","GRATES COVE","840B053","2019-04-27 03:30","2019","04","27","03:30","-0.9","","-1.6","","95","","","M","2","","7","","","","101.50","","","","-3","","NA"
"-52.94","48.17","GRATES COVE","840B053","2019-04-27 04:30","2019","04","27","04:30","-0.9","","-1.7","","95","","","M","3","","18","","","","101.54","","","","-6","","NA"
"-52.94","48.17","GRATES COVE","840B053","2019-04-27 05:30","2019","04","27","05:30","-0.9","","-1.8","","94","","","M","4","","23","","","","101.57","","","","-7","","NA"
"-52.94","48.17","GRATES COVE","840B053","2019-04-27 06:30","2019","04","27","06:30","-1.0","","-2.0","","93","","","M","3","","19","","","","101.69","","","","-6","","NA"
"-52.94","48.17","GRATES COVE","840B053","2019-04-27 07:30","2019","04","27","07:30","-1.0","","-2.0","","93","","","M","3","","16","","","","101.76","","","","-6","","NA"
"-52.94","48.17","GRATES COVE","840B053","2019-04-27 08:30","2019","04","27","08:30","-1.3","","-2.0","","95","","","M","4","","17","","","","101.81","","","","-6","","NA"
"-52.94","48.17","GRATES COVE","840B053","2019-04-27 09:30","2019","04","27","09:30","-1.2","","-2.0","","94","","","M","4","","12","","","","101.84","","","","-5","","NA"
"-52.94","48.17","GRATES COVE","840B053","2019-04-27 10:30","2019","04","27","10:30","-0.5","","-1.5","","93","","","M","6","","10","","","","101.87","","","","-4","","NA"
"-52.94","48.17","GRATES COVE","840B053","2019-04-27 11:30","2019","04","27","11:30","-0.3","","-1.7","","90","","","M","7","","8","","","","101.89","","","","-3","","NA"
"-52.94","48.17","GRATES COVE","840B053","2019-04-27 12:30","2019","04","27","12:30","0.3","","-1.9","","85","","","M","8","","9","","","","101.88","","","","","","NA"
"-52.94","48.17","GRATES COVE","840B053","2019-04-27 13:30","2019","04","27","13:30","0.4","","-1.8","","86","","","M","9","","12","","","","101.89","","","","","","NA"
"-52.94","48.17","GRATES COVE","840B053","2019-04-27 14:30","2019","04","27","14:30","0.7","","-1.7","","84","","","M","10","","13","","","","101.84","","","","","","NA"
"-52.94","48.17","GRATES COVE","840B053","2019-04-27 15:30","2019","04","27","15:30","1.5","","-1.2","","83","","","M","9","","13","","","","101.83","","","","","","NA"
"-52.94","48.17","GRATES COVE","840B053","2019-04-27 16:30","2019","04","27","16:30","0.5","","-1.6","","86","","","M","14","","15","","","","101.85","","","","","","NA"
"-52.94","48.17","GRATES COVE","840B053","2019-04-27 17:30","2019","04","27","17:30","0.2","","-1.7","","87","","","M","12","","10","","","","101.81","","","","","","NA"
"-52.94","48.17","GRATES COVE","840B053","2019-04-27 18:30","2019","04","27","18:30","-0.9","","-2.0","","93","","","M","9","","10","","","","101.79","","","","-4","","NA"
"-52.94","48.17","GRATES COVE","840B053","2019-04-27 19:30","2019","04","27","19:30","-1.1","","-1.8","","95","","","M","19","","26","","","","101.72","","","","-7","","NA"
"-52.94","48.17","GRATES COVE","840B053","2019-04-27 20:30","2019","04","27","20:30","-0.8","","-1.5","","95","","","M","20","","39","","","","101.71","","","","-8","","NA"
"-52.94","48.17","GRATES COVE","840B053","2019-04-27 21:30","2019","04","27","21:30","-0.5","","-1.4","","93","","","M","20","","30","","","","101.75","","","","-7","","NA"
"-52.94","48.17","GRATES COVE","840B053","2019-04-27 22:30","2019","04","27","22:30","-0.7","","-1.6","","94","","","M","15","","20","","","","101.77","","","","-6","","NA"
"-52.94","48.17","GRATES COVE","840B053","2019-04-27 23:30","2019","04","27","23:30","-0.5","","-1.4","","94","","","M","16","","12","","","","101.74","","","","-4","","NA"
"-52.94","48.17","GRATES COVE","840B053","2019-04-28 00:30","2019","04","28","00:30","-1.1","","-1.5","","97","","","M","17","","29","","","","101.60","","","","-8","","NA"
"-52.94","48.17","GRATES COVE","840B053","2019-04-28 01:30","2019","04","28","01:30","-0.7","","-0.9","","99","","","M","15","","24","","","","101.63","","","","-7","","NA"
"-52.94","48.17","GRATES COVE","840B053","2019-04-28 02:30","2019","04","28","02:30","-0.6","","-0.8","","99","","","M","19","","12","","","","101.61","","","","-5","","NA"
"-52.94","48.17","GRATES COVE","840B053","2019-04-28 03:30","2019","04","28","03:30","0.2","","-0.1","","98","","","M","19","","23","","","","101.56","","","","","","NA"
"-52.94","48.17","GRATES COVE","840B053","2019-04-28 04:30","2019","04","28","04:30","0.0","","-0.4","","97","","","M","17","","21","","","","101.51","","","","-5","","NA"
"-52.94","48.17","GRATES COVE","840B053","2019-04-28 05:30","2019","04","28","05:30","0.2","","-0.2","","97","","","M","17","","26","","","","101.48","","","","","","NA"
"-52.94","48.17","GRATES COVE","840B053","2019-04-28 06:30","2019","04","28","06:30","0.4","","-0.1","","97","","","M","17","","22","","","","101.49","","","","","","NA"
"-52.94","48.17","GRATES COVE","840B053","2019-04-28 07:30","2019","04","28","07:30","0.8","","0.0","","94","","","M","18","","33","","","","101.41","","","","","","NA"
"-52.94","48.17","GRATES COVE","840B053","2019-04-28 08:30","2019","04","28","08:30","1.3","","0.3","","93","","","M","17","","28","","","","101.35","","","","","","NA"
"-52.94","48.17","GRATES COVE","840B053","2019-04-28 09:30","2019","04","28","09:30","1.0","","0.1","","93","","","M","16","","29","","","","101.27","","","","","","NA"
"-52.94","48.17","GRATES COVE","840B053","2019-04-28 10:30","2019","04","28","10:30","1.9","","0.5","","90","","","M","16","","39","","","","101.15","","","","","","NA"
"-52.94","48.17","GRATES COVE","840B053","2019-04-28 11:30","2019","04","28","11:30","2.1","","0.9","","92","","","M","16","","51","","","","100.79","","","","","","NA"
"-52.94","48.17","GRATES COVE","840B053","2019-04-28 12:30","2019","04","28","12:30","1.7","","1.1","","96","","","M","17","","63","","","","100.63","","","","","","NA"
"-52.94","48.17","GRATES COVE","840B053","2019-04-28 13:30","2019","04","28","13:30","2.3","","1.4","","94","","","M","18","","46","","","","100.75","","","","","","NA"
"-52.94","48.17","GRATES COVE","840B053","2019-04-28 14:30","2019","04","28","14:30","2.6","","1.9","","95","","","M","19","","27","","","","100.80","","","","","","NA"
"-52.94","48.17","GRATES COVE","840B053","2019-04-28 15:30","2019","04","28","15:30","3.6","","2.7","","94","","","M","19","","37","","","","100.71","","","","","","NA"
"-52.94","48.17","GRATES COVE","840B053","2019-04-28 16:30","2019","04","28","16:30","3.2","","2.3","","94","","","M","20","","40","","","","100.67","","","","","","NA"
"-52.94","48.17","GRATES COVE","840B053","2019-04-28 17:30","2019","04","28","17:30","4.4","","3.4","","94","","","M","22","","27","","","","100.71","","","","","","NA"
"-52.94","48.17","GRATES COVE","840B053","2019-04-28 18:30","2019","04","28","18:30","4.6","","3.7","","94","","","M","22","","19","","","","100.79","","","","","","NA"
"-52.94","48.17","GRATES COVE","840B053","2019-04-28 19:30","2019","04","28","19:30","3.7","","2.9","","94","","","M","24","","9","","","","100.82","","","","","","NA"
"-52.94","48.17","GRATES COVE","840B053","2019-04-28 20:30","2019","04","28","20:30","4.0","","2.9","","93","","","M","22","","11","","","","100.84","","","","","","NA"
"-52.94","48.17","GRATES COVE","840B053","2019-04-28 21:30","2019","04","28","21:30","5.1","","3.5","","90","","","M","24","","16","","","","100.89","","","","","","NA"
"-52.94","48.17","GRATES COVE","840B053","2019-04-28 22:30","2019","04","28","22:30","-0.3","","-1.0","","95","","","M","16","","3","","","","100.82","","","","-1","","NA"
"-52.94","48.17","GRATES COVE","840B053","2019-04-28 23:30","2019","04","28","23:30","-0.1","","-0.5","","97","","","M","22","","4","","","","100.84","","","","-1","","NA"
"-52.94","48.17","GRATES COVE","840B053","2019-04-29 00:30","2019","04","29","00:30","2.5","","0.8","","89","","","M","26","","9","","","","100.80","","","","","","NA"
"-52.94","48.17","GRATES COVE","840B053","2019-04-29 01:30","2019","04","29","01:30","3.3","","2.2","","93","","","M","24","","13","","","","100.77","","","","","","NA"
"-52.94","48.17","GRATES COVE","840B053","2019-04-29 02:30","2019","04","29","02:30","1.8","","1.3","","97","","","M","19","","2","","","","100.70","","","","","","NA"
"-52.94","48.17","GRATES COVE","840B053","2019-04-29 03:30","2019","04","29","03:30","1.1","","-0.1","","92","","","M","32","","11","","","","100.65","","","","","","NA"
"-52.94","48.17","GRATES COVE","840B053","2019-04-29 04:30","2019","04","29","04:30","0.5","","0.1","","97","","","M","24","","6","","","","100.64","","","","","","NA"
"-52.94","48.17","GRATES COVE","840B053","2019-04-29 05:30","2019","04","29","05:30","2.1","","1.8","","98","","","M","26","","13","","","","100.67","","","","","","NA"
"-52.94","48.17","GRATES COVE","840B053","2019-04-29 06:30","2019","04","29","06:30","2.0","","1.8","","99","","","M","26","","18","","","","100.65","","","","","","NA"
"-52.94","48.17","GRATES COVE","840B053","2019-04-29 07:30","2019","04","29","07:30","2.4","","2.2","","98","","","M","26","","16","","","","100.63","","","","","","NA"
"-52.94","48.17","GRATES COVE","840B053","2019-04-29 08:30","2019","04","29","08:30","2.7","","2.4","","98","","","M","28","","11","","","","100.57","","","","","","NA"
"-52.94","48.17","GRATES COVE","840B053","2019-04-29 09:30","2019","04","29","09:30","4.2","","3.9","","98","","","M","24","","9","","","","100.51","","","","","","NA"
"-52.94","48.17","GRATES COVE","840B053","2019-04-29 10:30","2019","04","29","10:30","2.4","","1.9","","97","","","M","9","","3","","","","100.41","","","","","","NA"
"-52.94","48.17","GRATES COVE","840B053","2019-04-29 11:30","2019","04","29","11:30","2.5","","2.1","","97","","","M","2","","6","","","","100.30","","","","","","NA"
"-52.94","48.17","GRATES COVE","840B053","2019-04-29 12:30","2019","04","29","12:30","3.3","","1.5","","88","","","M","29","","17","","","","100.16","","","","","","NA"
"-52.94","48.17","GRATES COVE","840B053","2019-04-29 13:30","2019","04","29","13:30","2.8","","0.8","","86","","","M","29","","15","","","","100.00","","","","","","NA"
"-52.94","48.17","GRATES COVE","840B053","2019-04-29 14:30","2019","04","29","14:30","4.9","","1.9","","81","","","M","25","","11","","","","99.88","","","","","","NA"
"-52.94","48.17","GRATES COVE","840B053","2019-04-29 15:30","2019","04","29","15:30","4.2","","2.6","","89","","","M","20","","26","","","","99.73","","","","","","NA"
"-52.94","48.17","GRATES COVE","840B053","2019-04-29 16:30","2019","04","29","16:30","4.2","","2.3","","88","","","M","25","","23","","","","99.67","","","","","","NA"
"-52.94","48.17","GRATES COVE","840B053","2019-04-29 17:30","2019","04","29","17:30","2.7","","0.6","","86","","","M","25","","40","","","","99.62","","","","","","NA"
"-52.94","48.17","GRATES COVE","840B053","2019-04-29 18:30","2019","04","29","18:30","2.4","","0.3","","86","","","M","25","","51","","","","99.58","","","","","","NA"
"-52.94","48.17","GRATES COVE","840B053","2019-04-29 19:30","2019","04","29","19:30","1.1","","-1.1","","85","","","M","25","","57","","","","99.60","","","","","","NA"
"-52.94","48.17","GRATES COVE","840B053","2019-04-29 20:30","2019","04","29","20:30","1.0","","-0.8","","88","","","M","25","","44","","","","99.73","","","","","","NA"
"-52.94","48.17","GRATES COVE","840B053","2019-04-29 21:30","2019","04","29","21:30","0.6","","-2.7","","78","","","M","27","","41","","","","99.83","","","","","","NA"
"-52.94","48.17","GRATES COVE","840B053","2019-04-29 22:30","2019","04","29","22:30","0.4","","-3.9","","73","","","M","28","","39","","","","99.84","","","","","","NA"
"-52.94","48.17","GRATES COVE","840B053","2019-04-29 23:30","2019","04","29","23:30","0.0","","-4.1","","74","","","M","28","","51","","","","99.79","","","","-8","","NA"
"-52.94","48.17","GRATES COVE","840B053","2019-04-30 00:30","2019","04","30","00:30","-0.1","","-4.9","","70","","","M","28","","45","","","","99.83","","","","-8","","NA"
"-52.94","48.17","GRATES COVE","840B053","2019-04-30 01:30","2019","04","30","01:30","-0.2","","-5.0","","70","","","M","27","","43","","","","99.81","","","","-8","","NA"
"-52.94","48.17","GRATES COVE","840B053","2019-04-30 02:30","2019","04","30","02:30","-0.4","","-4.5","","74","","","M","27","","47","","","","99.77","","","","-8","","NA"
"-52.94","48.17","GRATES COVE","840B053","2019-04-30 03:30","2019","04","30","03:30","-0.6","","-4.0","","78","","","M","26","","49","","","","99.76","","","","-9","","NA"
"-52.94","48.17","GRATES COVE","840B053","2019-04-30 04:30","2019","04","30","04:30","-0.2","","-4.2","","74","","","M","27","","46","","","","99.82","","","","-8","","NA"
"-52.94","48.17","GRATES COVE","840B053","2019-04-30 05:30","2019","04","30","05:30","0.2","","-4.1","","73","","","M","26","","48","","","","99.87","","","","","","NA"
"-52.94","48.17","GRATES COVE","840B053","2019-04-30 06:30","2019","04","30","06:30","0.3","","-4.4","","71","","","M","26","","44","","","","99.94","","","","","","NA"
"-52.94","48.17","GRATES COVE","840B053","2019-04-30 07:30","2019","04","30","07:30","0.5","","-4.8","","68","","","M","27","","43","","","","99.93","","","","","","NA"
"-52.94","48.17","GRATES COVE","840B053","2019-04-30 08:30","2019","04","30","08:30","0.3","","-4.9","","68","","","M","27","","47","","","","99.96","","","","","","NA"
"-52.94","48.17","GRATES COVE","840B053","2019-04-30 09:30","2019","04","30","09:30","0.7","","-5.4","","64","","","M","28","","46","","","","99.91","","","","","","NA"
"-52.94","48.17","GRATES COVE","840B053","2019-04-30 10:30","2019","04","30","10:30","1.2","","-6.0","","59","","","M","27","","48","","","","99.92","","","","","","NA"
"-52.94","48.17","GRATES COVE","840B053","2019-04-30 11:30","2019","04","30","11:30","1.8","","-6.1","","56","","","M","27","","49","","","","99.90","","","","","","NA"
"-52.94","48.17","GRATES COVE","840B053","2019-04-30 12:30","2019","04","30","12:30","1.7","","-5.2","","60","","","M","27","","48","","","","99.89","","","","","","NA"
"-52.94","48.17","GRATES COVE","840B053","2019-04-30 13:30","2019","04","30","13:30","1.6","","-4.8","","62","","","M","27","","43","","","","99.83","","","","","","NA"
"-52.94","48.17","GRATES COVE","840B053","2019-04-30 14:30","2019","04","30","14:30","1.4","","-5.4","","60","","","M","27","","49","","","","99.84","","","","","","NA"
"-52.94","48.17","GRATES COVE","840B053","2019-04-30 15:30","2019","04","30","15:30","1.6","","-5.6","","59","","","M","28","","39","","","","99.84","","","","","","NA"
"-52.94","48.17","GRATES COVE","840B053","2019-04-30 16:30","2019","04","30","16:30","1.2","","-5.4","","61","","","M","28","","41","","","","99.88","","","","","","NA"
"-52.94","48.17","GRATES COVE","840B053","2019-04-30 17:30","2019","04","30","17:30","1.1","","-5.4","","62","","","M","27","","44","","","","99.86","","","","","","NA"
"-52.94","48.17","GRATES COVE","840B053","2019-04-30 18:30","2019","04","30","18:30","0.6","","-5.1","","65","","","M","28","","41","","","","99.89","","","","","","NA"
"-52.94","48.17","GRATES COVE","840B053","2019-04-30 19:30","2019","04","30","19:30","0.3","","-4.5","","70","","","M","27","","41","","","","99.91","","","","","","NA"
"-52.94","48.17","GRATES COVE","840B053","2019-04-30 20:30","2019","04","30","20:30","0.1","","-4.8","","70","","","M","27","","42","","","","99.96","","","","","","NA"
"-52.94","48.17","GRATES COVE","840B053","2019-04-30 21:30","2019","04","30","21:30","-0.3","","-4.3","","74","","","M","27","","36","","","","99.92","","","","-7","","NA"
"-52.94","48.17","GRATES COVE","840B053","2019-04-30 22:30","2019","04","30","22:30","-0.4","","-4.5","","74","","","M","26","","42","","","","99.86","","","","-8","","NA"
"-52.94","48.17","GRATES COVE","840B053","2019-04-30 23:30","2019","04","30","23:30","-0.6","","-4.8","","73","","","M","26","","40","","","","99.84","","","","-8","","NA"
