"Longitude (x)","Latitude (y)","Station Name","Climate ID","Date/Time (LST)","Year","Month","Day","Time (LST)","Temp (°C)","Temp Flag","Dew Point Temp (°C)","Dew Point Temp Flag","Rel Hum (%)","Rel Hum Flag","Precip. Amount (mm)","Precip. Amount Flag","Wind Dir (10s deg)","Wind Dir Flag","Wind Spd (km/h)","Wind Spd Flag","Visibility (km)","Visibility Flag","Stn Press (kPa)","Stn Press Flag","Hmdx","Hmdx Flag","Wind Chill","Wind Chill Flag","Weather"
"-61.68","56.55","NAIN A","8502801","2018-01-01 00:00","2018","01","01","00:00"
"-61.68","56.55","NAIN A","8502801","2018-01-01 01:00","2018","01","01","01:00"
"-61.68","56.55","NAIN A","8502801","2018-01-01 02:00","2018","01","01","02:00"
"-61.68","56.55","NAIN A","8502801","2018-01-01 03:00","2018","01","01","03:00"
"-61.68","56.55","NAIN A","8502801","2018-01-01 04:00","2018","01","01","04:00"
"-61.68","56.55","NAIN A","8502801","2018-01-01 05:00","2018","01","01","05:00","-12.3","","-16.1","","73","","","","30","","26","","24.1","","101.37","","","","-22","","Mainly Clear"
"-61.68","56.55","NAIN A","8502801","2018-01-01 06:00","2018","01","01","06:00","-12.0","","-15.9","","73","","","","30","","30","","24.1","","101.37","","","","-22","","NA"
"-61.68","56.55","NAIN A","8502801","2018-01-01 07:00","2018","01","01","07:00","-10.7","","-14.9","","71","","","","29","","20","","24.1","","101.38","","","","-19","","Snow Showers"
"-61.68","56.55","NAIN A","8502801","2018-01-01 08:00","2018","01","01","08:00","-11.1","","-15.6","","69","","","","30","","28","","24.1","","101.37","","","","-21","","Snow Showers"
"-61.68","56.55","NAIN A","8502801","2018-01-01 09:00","2018","01","01","09:00","-10.3","","-15.5","","66","","","","25","","8","","24.1","","101.43","","","","-15","","NA"
"-61.68","56.55","NAIN A","8502801","2018-01-01 10:00","2018","01","01","10:00","-11.1","","-15.6","","69","","","","28","","17","","24.1","","101.46","","","","-19","","NA"
"-61.68","56.55","NAIN A","8502801","2018-01-01 11:00","2018","01","01","11:00","-10.7","","-15.5","","68","","","","28","","5","","24.1","","101.44","","","","-14","","Mostly Cloudy"
"-61.68","56.55","NAIN A","8502801","2018-01-01 12:00","2018","01","01","12:00","-10.7","","-15.7","","67","","","","27","","20","","24.1","","101.40","","","","-19","","NA"
"-61.68","56.55","NAIN A","8502801","2018-01-01 13:00","2018","01","01","13:00","-10.8","","-15.7","","67","","","","27","","21","","24.1","","101.39","","","","-19","","NA"
"-61.68","56.55","NAIN A","8502801","2018-01-01 14:00","2018","01","01","14:00","-11.0","","-15.9","","68","","","","27","","19","","24.1","","101.40","","","","-19","","Cloudy"
"-61.68","56.55","NAIN A","8502801","2018-01-01 15:00","2018","01","01","15:00","-10.8","","-15.6","","68","","","","26","","4","","24.1","","101.43","","","","-13","","NA"
"-61.68","56.55","NAIN A","8502801","2018-01-01 16:00","2018","01","01","16:00","-11.6","","-15.4","","73","","","","35","","7","","24.1","","101.45","","","","-16","","NA"
"-61.68","56.55","NAIN A","8502801","2018-01-01 17:00","2018","01","01","17:00","-12.6","","-17.0","","70","","","","18","","5","","24.1","","101.50","","","","-16","","Mostly Cloudy"
"-61.68","56.55","NAIN A","8502801","2018-01-01 18:00","2018","01","01","18:00","-13.4","","-17.8","","70","","","","26","","9","","24.1","","101.53","","","","-19","","NA"
"-61.68","56.55","NAIN A","8502801","2018-01-01 19:00","2018","01","01","19:00","-15.0","","-19.2","","71","","","","29","","11","","24.1","","101.57","","","","-22","","NA"
"-61.68","56.55","NAIN A","8502801","2018-01-01 20:00","2018","01","01","20:00","-16.4","","-19.3","","78","","","","1","","5","","24.1","","101.57","","","","-20","","Mainly Clear"
"-61.68","56.55","NAIN A","8502801","2018-01-01 21:00","2018","01","01","21:00"
"-61.68","56.55","NAIN A","8502801","2018-01-01 22:00","2018","01","01","22:00"
"-61.68","56.55","NAIN A","8502801","2018-01-01 23:00","2018","01","01","23:00"
"-61.68","56.55","NAIN A","8502801","2018-01-02 00:00","2018","01","02","00:00"
"-61.68","56.55","NAIN A","8502801","2018-01-02 01:00","2018","01","02","01:00"
"-61.68","56.55","NAIN A","8502801","2018-01-02 02:00","2018","01","02","02:00"
"-61.68","56.55","NAIN A","8502801","2018-01-02 03:00","2018","01","02","03:00"
"-61.68","56.55","NAIN A","8502801","2018-01-02 04:00","2018","01","02","04:00"
"-61.68","56.55","NAIN A","8502801","2018-01-02 05:00","2018","01","02","05:00","-15.7","","-19.7","","72","","","","33","","4","","24.1","","101.61","","","","-19","","Mostly Cloudy"
"-61.68","56.55","NAIN A","8502801","2018-01-02 06:00","2018","01","02","06:00","-15.4","","-19.4","","72","","","","30","","8","","24.1","","101.58","","","","-21","","NA"
"-61.68","56.55","NAIN A","8502801","2018-01-02 07:00","2018","01","02","07:00","-15.6","","-19.5","","72","","","","17","","7","","24.1","","101.60","","","","-21","","NA"
"-61.68","56.55","NAIN A","8502801","2018-01-02 08:00","2018","01","02","08:00","-15.4","","-19.1","","74","","","","17","","5","","24.1","","101.61","","","","-19","","Cloudy"
"-61.68","56.55","NAIN A","8502801","2018-01-02 09:00","2018","01","02","09:00","-15.1","","-18.9","","73","","","","36","","1","","24.1","","101.61","","","","-16","","Snow Showers"
"-61.68","56.55","NAIN A","8502801","2018-01-02 10:00","2018","01","02","10:00","-14.8","","-18.9","","71","","","","28","","3","","24.1","","101.63","","","","-17","","Snow Showers"
"-61.68","56.55","NAIN A","8502801","2018-01-02 11:00","2018","01","02","11:00","-14.4","","-18.4","","72","","","","36","","2","","24.1","","101.60","","","","-16","","Snow Showers"
"-61.68","56.55","NAIN A","8502801","2018-01-02 12:00","2018","01","02","12:00","-14.1","","-18.2","","71","","","","36","","2","","24.1","","101.56","","","","-15","","Snow Showers"
"-61.68","56.55","NAIN A","8502801","2018-01-02 13:00","2018","01","02","13:00","-13.7","","-17.3","","74","","","","36","","3","","24.1","","101.52","","","","-16","","Snow Showers"
"-61.68","56.55","NAIN A","8502801","2018-01-02 14:00","2018","01","02","14:00","-13.3","","-16.6","","76","","","","0","","1","","24.1","","101.47","","","","-14","","Snow Showers"
"-61.68","56.55","NAIN A","8502801","2018-01-02 15:00","2018","01","02","15:00","-13.1","","-16.4","","76","","","","36","","1","","24.1","","101.48","","","","-14","","Snow Showers"
"-61.68","56.55","NAIN A","8502801","2018-01-02 16:00","2018","01","02","16:00","-12.8","","-16.1","","77","","","","20","","3","","20.9","","101.48","","","","-15","","Snow Showers"
"-61.68","56.55","NAIN A","8502801","2018-01-02 17:00","2018","01","02","17:00","-12.6","","-15.8","","77","","","","36","","1","","20.9","","101.49","","","","-13","","Snow Showers"
"-61.68","56.55","NAIN A","8502801","2018-01-02 18:00","2018","01","02","18:00","-12.8","","-14.9","","84","","","","0","","1","","17.7","","101.47","","","","-13","","Snow Showers"
"-61.68","56.55","NAIN A","8502801","2018-01-02 19:00","2018","01","02","19:00","-12.6","","-14.4","","86","","","","35","","6","","17.7","","101.47","","","","-17","","Snow Showers"
"-61.68","56.55","NAIN A","8502801","2018-01-02 20:00","2018","01","02","20:00","-12.6","","-14.3","","87","","","","36","","1","","4.0","","101.47","","","","-13","","Snow"
"-61.68","56.55","NAIN A","8502801","2018-01-02 21:00","2018","01","02","21:00"
"-61.68","56.55","NAIN A","8502801","2018-01-02 22:00","2018","01","02","22:00"
"-61.68","56.55","NAIN A","8502801","2018-01-02 23:00","2018","01","02","23:00"
"-61.68","56.55","NAIN A","8502801","2018-01-03 00:00","2018","01","03","00:00"
"-61.68","56.55","NAIN A","8502801","2018-01-03 01:00","2018","01","03","01:00"
"-61.68","56.55","NAIN A","8502801","2018-01-03 02:00","2018","01","03","02:00"
"-61.68","56.55","NAIN A","8502801","2018-01-03 03:00","2018","01","03","03:00"
"-61.68","56.55","NAIN A","8502801","2018-01-03 04:00","2018","01","03","04:00"
"-61.68","56.55","NAIN A","8502801","2018-01-03 05:00","2018","01","03","05:00","-13.3","","-14.6","","89","","","","36","","1","","24.1","","101.32","","","","-14","","Snow Showers"
"-61.68","56.55","NAIN A","8502801","2018-01-03 06:00","2018","01","03","06:00","-13.1","","-14.4","","90","","","","27","","4","","24.1","","101.34","","","","-16","","Snow Showers"
"-61.68","56.55","NAIN A","8502801","2018-01-03 07:00","2018","01","03","07:00","-13.5","","-15.0","","89","","","","36","","1","","24.1","","101.38","","","","-14","","Snow Showers"
"-61.68","56.55","NAIN A","8502801","2018-01-03 08:00","2018","01","03","08:00","-13.5","","-14.9","","89","","","","36","","3","","24.1","","101.42","","","","-16","","Snow Showers"
"-61.68","56.55","NAIN A","8502801","2018-01-03 09:00","2018","01","03","09:00","-14.4","","-15.4","","92","","","","28","","3","","24.1","","101.47","","","","-17","","NA"
"-61.68","56.55","NAIN A","8502801","2018-01-03 10:00","2018","01","03","10:00","-14.6","","-15.7","","91","","","","36","","1","","24.1","","101.50","","","","-15","","NA"
"-61.68","56.55","NAIN A","8502801","2018-01-03 11:00","2018","01","03","11:00","-15.0","","-16.3","","90","","","","34","","4","","24.1","","101.52","","","","-18","","Mostly Cloudy"
"-61.68","56.55","NAIN A","8502801","2018-01-03 12:00","2018","01","03","12:00","-14.3","","-15.7","","89","","","","18","","4","","24.1","","101.53","","","","-17","","NA"
"-61.68","56.55","NAIN A","8502801","2018-01-03 13:00","2018","01","03","13:00","-14.0","","-15.2","","91","","","","32","","3","","24.1","","101.51","","","","-16","","NA"
"-61.68","56.55","NAIN A","8502801","2018-01-03 14:00","2018","01","03","14:00","-15.0","","-16.1","","91","","","","36","","1","","24.1","","101.51","","","","-16","","Mostly Cloudy"
"-61.68","56.55","NAIN A","8502801","2018-01-03 15:00","2018","01","03","15:00","-15.0","","-16.2","","91","","","","36","","3","","24.1","","101.52","","","","-17","","NA"
"-61.68","56.55","NAIN A","8502801","2018-01-03 16:00","2018","01","03","16:00","-15.7","","-16.9","","91","","","","2","","4","","24.1","","101.56","","","","-19","","NA"
"-61.68","56.55","NAIN A","8502801","2018-01-03 17:00","2018","01","03","17:00","-14.4","","-15.5","","92","","","","3","","4","","24.1","","101.58","","","","-17","","Mainly Clear"
"-61.68","56.55","NAIN A","8502801","2018-01-03 18:00","2018","01","03","18:00","-15.0","","-16.3","","90","","","","36","","3","","24.1","","101.60","","","","-17","","NA"
"-61.68","56.55","NAIN A","8502801","2018-01-03 19:00","2018","01","03","19:00","-13.7","","-14.8","","91","","","","33","","4","","24.1","","101.59","","","","-16","","NA"
"-61.68","56.55","NAIN A","8502801","2018-01-03 20:00","2018","01","03","20:00","-12.8","","-13.9","","91","","","","30","","3","","24.1","","101.60","","","","-15","","Cloudy"
"-61.68","56.55","NAIN A","8502801","2018-01-03 21:00","2018","01","03","21:00"
"-61.68","56.55","NAIN A","8502801","2018-01-03 22:00","2018","01","03","22:00"
"-61.68","56.55","NAIN A","8502801","2018-01-03 23:00","2018","01","03","23:00"
"-61.68","56.55","NAIN A","8502801","2018-01-04 00:00","2018","01","04","00:00"
"-61.68","56.55","NAIN A","8502801","2018-01-04 01:00","2018","01","04","01:00"
"-61.68","56.55","NAIN A","8502801","2018-01-04 02:00","2018","01","04","02:00"
"-61.68","56.55","NAIN A","8502801","2018-01-04 03:00","2018","01","04","03:00"
"-61.68","56.55","NAIN A","8502801","2018-01-04 04:00","2018","01","04","04:00"
"-61.68","56.55","NAIN A","8502801","2018-01-04 05:00","2018","01","04","05:00","-8.9","","-10.4","","89","","","","21","","7","","24.1","","101.40","","","","-13","","Mostly Cloudy"
"-61.68","56.55","NAIN A","8502801","2018-01-04 06:00","2018","01","04","06:00","-11.4","","-14.6","","78","","","","25","","21","","24.1","","101.46","","","","-20","","NA"
"-61.68","56.55","NAIN A","8502801","2018-01-04 07:00","2018","01","04","07:00","-13.8","","-17.7","","73","","","","30","","23","","24.1","","101.56","","","","-23","","NA"
"-61.68","56.55","NAIN A","8502801","2018-01-04 08:00","2018","01","04","08:00","-16.2","","-20.6","","69","","","","17","","40","","24.1","","101.69","","","","-29","","Mostly Cloudy"
"-61.68","56.55","NAIN A","8502801","2018-01-04 09:00","2018","01","04","09:00","-18.6","","-23.0","","69","","","","23","","31","","24.1","","101.75","","","","-31","","NA"
"-61.68","56.55","NAIN A","8502801","2018-01-04 10:00","2018","01","04","10:00","-19.4","","-23.8","","69","","","","23","","32","","24.1","","101.76","","","","-32","","NA"
"-61.68","56.55","NAIN A","8502801","2018-01-04 11:00","2018","01","04","11:00","-19.6","","-24.5","","65","","","","17","","23","","24.1","","101.88","","","","-31","","Mainly Clear"
"-61.68","56.55","NAIN A","8502801","2018-01-04 12:00","2018","01","04","12:00","-19.6","","-25.1","","62","","","","22","","20","","24.1","","101.95","","","","-30","","NA"
"-61.68","56.55","NAIN A","8502801","2018-01-04 13:00","2018","01","04","13:00","-19.2","","-24.4","","64","","","","25","","41","","24.1","","102.01","","","","-33","","NA"
"-61.68","56.55","NAIN A","8502801","2018-01-04 14:00","2018","01","04","14:00","-19.1","","-23.9","","66","","","","28","","41","","24.1","","101.87","","","","-33","","Mainly Clear"
"-61.68","56.55","NAIN A","8502801","2018-01-04 15:00","2018","01","04","15:00","-20.1","","-26.1","","60","","","","24","","34","","24.1","","102.04","","","","-33","","NA"
"-61.68","56.55","NAIN A","8502801","2018-01-04 16:00","2018","01","04","16:00","-21.6","","-27.2","","61","","","","22","","27","","24.1","","102.23","","","","-34","","NA"
"-61.68","56.55","NAIN A","8502801","2018-01-04 17:00","2018","01","04","17:00","-21.3","","-27.3","","59","","","","23","","20","","24.1","","102.28","","","","-32","","Mostly Cloudy"
"-61.68","56.55","NAIN A","8502801","2018-01-04 18:00","2018","01","04","18:00","-19.9","","-26.0","","59","","","","27","","26","","24.1","","102.26","","","","-32","","NA"
"-61.68","56.55","NAIN A","8502801","2018-01-04 19:00","2018","01","04","19:00","-21.1","","-26.9","","60","","","","25","","19","","24.1","","102.25","","","","-32","","NA"
"-61.68","56.55","NAIN A","8502801","2018-01-04 20:00","2018","01","04","20:00","-21.9","","-27.9","","59","","","","21","","17","","24.1","","102.28","","","","-32","","Mostly Cloudy"
"-61.68","56.55","NAIN A","8502801","2018-01-04 21:00","2018","01","04","21:00"
"-61.68","56.55","NAIN A","8502801","2018-01-04 22:00","2018","01","04","22:00"
"-61.68","56.55","NAIN A","8502801","2018-01-04 23:00","2018","01","04","23:00"
"-61.68","56.55","NAIN A","8502801","2018-01-05 00:00","2018","01","05","00:00"
"-61.68","56.55","NAIN A","8502801","2018-01-05 01:00","2018","01","05","01:00"
"-61.68","56.55","NAIN A","8502801","2018-01-05 02:00","2018","01","05","02:00"
"-61.68","56.55","NAIN A","8502801","2018-01-05 03:00","2018","01","05","03:00"
"-61.68","56.55","NAIN A","8502801","2018-01-05 04:00","2018","01","05","04:00"
"-61.68","56.55","NAIN A","8502801","2018-01-05 05:00","2018","01","05","05:00","-19.3","","-22.4","","76","","","","29","","17","","6.4","","101.66","","","","-29","","Snow"
"-61.68","56.55","NAIN A","8502801","2018-01-05 06:00","2018","01","05","06:00","-19.0","","-22.1","","77","","","","29","","17","","6.4","","101.51","","","","-28","","Snow"
"-61.68","56.55","NAIN A","8502801","2018-01-05 07:00","2018","01","05","07:00","-18.4","","-21.2","","79","","","","30","","17","","4.8","","101.36","","","","-28","","Snow"
"-61.68","56.55","NAIN A","8502801","2018-01-05 08:00","2018","01","05","08:00","-17.6","","-20.4","","79","","","","30","","16","","2.4","","101.20","","","","-26","","Snow"
"-61.68","56.55","NAIN A","8502801","2018-01-05 09:00","2018","01","05","09:00","-15.5","","-17.9","","82","","","","32","","12","","1.2","","101.03","","","","-23","","Snow"
"-61.68","56.55","NAIN A","8502801","2018-01-05 10:00","2018","01","05","10:00","-14.8","","-16.8","","85","","","","31","","11","","0.8","","100.81","","","","-21","","Moderate Snow"
"-61.68","56.55","NAIN A","8502801","2018-01-05 11:00","2018","01","05","11:00","-11.9","","-13.5","","88","","","","34","","22","","0.8","","100.50","","","","-21","","Snow"
"-61.68","56.55","NAIN A","8502801","2018-01-05 12:00","2018","01","05","12:00","-6.9","","-7.3","","97","","","","5","","34","","0.6","","100.20","","","","-16","","Moderate Snow,Blowing Snow"
"-61.68","56.55","NAIN A","8502801","2018-01-05 13:00","2018","01","05","13:00","-6.3","","-6.8","","96","","","","5","","46","","0.4","","99.95","","","","-16","","Moderate Snow,Blowing Snow"
"-61.68","56.55","NAIN A","8502801","2018-01-05 14:00","2018","01","05","14:00","-5.4","","-5.9","","97","","","","5","","48","","0.6","","99.71","","","","-15","","Moderate Snow,Blowing Snow"
"-61.68","56.55","NAIN A","8502801","2018-01-05 15:00","2018","01","05","15:00","-4.8","","-5.4","","95","","","","4","","55","","1.6","","99.46","","","","-15","","Snow,Blowing Snow"
"-61.68","56.55","NAIN A","8502801","2018-01-05 16:00","2018","01","05","16:00","-4.4","","-4.9","","97","","","","3","","55","","0.4","","99.21","","","","-15","","Moderate Snow,Blowing Snow"
"-61.68","56.55","NAIN A","8502801","2018-01-05 17:00","2018","01","05","17:00","-3.9","","-4.0","","99","","","","2","","59","","1.2","","98.95","","","","-14","","Snow,Blowing Snow"
"-61.68","56.55","NAIN A","8502801","2018-01-05 18:00","2018","01","05","18:00","-3.4","","-3.4","","100","","","","5","","55","","1.6","","98.68","","","","-13","","Snow,Blowing Snow"
"-61.68","56.55","NAIN A","8502801","2018-01-05 19:00","2018","01","05","19:00","-2.6","","-2.6","","100","","","","2","","68","","1.6","","98.43","","","","-13","","Snow,Blowing Snow"
"-61.68","56.55","NAIN A","8502801","2018-01-05 20:00","2018","01","05","20:00","-2.0","","-2.0","","100","","","","2","","69","","1.6","","98.17","","","","-12","","Snow,Blowing Snow"
"-61.68","56.55","NAIN A","8502801","2018-01-05 21:00","2018","01","05","21:00"
"-61.68","56.55","NAIN A","8502801","2018-01-05 22:00","2018","01","05","22:00"
"-61.68","56.55","NAIN A","8502801","2018-01-05 23:00","2018","01","05","23:00"
"-61.68","56.55","NAIN A","8502801","2018-01-06 00:00","2018","01","06","00:00"
"-61.68","56.55","NAIN A","8502801","2018-01-06 01:00","2018","01","06","01:00"
"-61.68","56.55","NAIN A","8502801","2018-01-06 02:00","2018","01","06","02:00"
"-61.68","56.55","NAIN A","8502801","2018-01-06 03:00","2018","01","06","03:00"
"-61.68","56.55","NAIN A","8502801","2018-01-06 04:00","2018","01","06","04:00"
"-61.68","56.55","NAIN A","8502801","2018-01-06 05:00","2018","01","06","05:00","-6.4","","-7.9","","89","","","","33","","56","","2.0","","96.81","","","","-17","","Snow,Blowing Snow"
"-61.68","56.55","NAIN A","8502801","2018-01-06 06:00","2018","01","06","06:00","-6.0","","-7.2","","92","","","","33","","43","","2.0","","96.81","","","","-16","","Snow,Blowing Snow"
"-61.68","56.55","NAIN A","8502801","2018-01-06 07:00","2018","01","06","07:00","-6.3","","-7.7","","90","","","","33","","39","","2.0","","96.80","","","","-16","","Snow,Blowing Snow"
"-61.68","56.55","NAIN A","8502801","2018-01-06 08:00","2018","01","06","08:00","-6.6","","-7.6","","93","","","","33","","43","","2.0","","96.79","","","","-17","","Snow,Blowing Snow"
"-61.68","56.55","NAIN A","8502801","2018-01-06 09:00","2018","01","06","09:00","-6.6","","-7.0","","97","","","","33","","46","","0.8","","96.75","","","","-17","","Moderate Snow,Blowing Snow"
"-61.68","56.55","NAIN A","8502801","2018-01-06 10:00","2018","01","06","10:00","-6.7","","-7.0","","97","","","","34","","48","","2.0","","96.73","","","","-17","","Moderate Snow,Blowing Snow"
"-61.68","56.55","NAIN A","8502801","2018-01-06 11:00","2018","01","06","11:00","-6.0","","-6.6","","95","","","","34","","32","","19.3","","96.78","","","","-15","","Snow"
"-61.68","56.55","NAIN A","8502801","2018-01-06 12:00","2018","01","06","12:00","-5.4","","-6.0","","95","","","","34","","26","","24.1","","96.77","","","","-13","","Snow"
"-61.68","56.55","NAIN A","8502801","2018-01-06 13:00","2018","01","06","13:00","-5.4","","-5.8","","97","","","","34","","25","","8.1","","96.81","","","","-13","","Snow"
"-61.68","56.55","NAIN A","8502801","2018-01-06 14:00","2018","01","06","14:00","-4.4","","-4.4","","100","","","","34","","18","","0.8","","96.84","","","","-10","","Moderate Snow"
"-61.68","56.55","NAIN A","8502801","2018-01-06 15:00","2018","01","06","15:00","-4.9","","-5.7","","95","","","","34","","24","","8.1","","96.91","","","","-12","","Snow,Snow Pellets"
"-61.68","56.55","NAIN A","8502801","2018-01-06 16:00","2018","01","06","16:00","-5.3","","-6.3","","93","","","","32","","38","","11.3","","97.00","","","","-14","","Snow"
"-61.68","56.55","NAIN A","8502801","2018-01-06 17:00","2018","01","06","17:00","-6.8","","-8.2","","90","","","","31","","45","","1.6","","97.11","","","","-17","","Snow"
"-61.68","56.55","NAIN A","8502801","2018-01-06 18:00","2018","01","06","18:00","-8.6","","-10.0","","89","","","","30","","52","","1.6","","97.18","","","","-20","","Snow"
"-61.68","56.55","NAIN A","8502801","2018-01-06 19:00","2018","01","06","19:00","-9.0","","-10.2","","91","","","","30","","59","","1.6","","97.25","","","","-21","","Snow,Blowing Snow"
"-61.68","56.55","NAIN A","8502801","2018-01-06 20:00","2018","01","06","20:00","-9.9","","-11.2","","90","","","","30","","58","","1.6","","97.32","","","","-22","","Snow,Blowing Snow"
"-61.68","56.55","NAIN A","8502801","2018-01-06 21:00","2018","01","06","21:00"
"-61.68","56.55","NAIN A","8502801","2018-01-06 22:00","2018","01","06","22:00"
"-61.68","56.55","NAIN A","8502801","2018-01-06 23:00","2018","01","06","23:00"
"-61.68","56.55","NAIN A","8502801","2018-01-07 00:00","2018","01","07","00:00"
"-61.68","56.55","NAIN A","8502801","2018-01-07 01:00","2018","01","07","01:00"
"-61.68","56.55","NAIN A","8502801","2018-01-07 02:00","2018","01","07","02:00"
"-61.68","56.55","NAIN A","8502801","2018-01-07 03:00","2018","01","07","03:00"
"-61.68","56.55","NAIN A","8502801","2018-01-07 04:00","2018","01","07","04:00"
"-61.68","56.55","NAIN A","8502801","2018-01-07 05:00","2018","01","07","05:00","-16.0","","-19.0","","78","","","","29","","49","","9.7","","97.93","","","","-30","","Blowing Snow"
"-61.68","56.55","NAIN A","8502801","2018-01-07 06:00","2018","01","07","06:00","-15.9","","-18.7","","79","","","","29","","42","","4.0","","97.95","","","","-29","","Blowing Snow"
"-61.68","56.55","NAIN A","8502801","2018-01-07 07:00","2018","01","07","07:00","-16.3","","-19.1","","79","","","","28","","50","","3.2","","98.00","","","","-30","","Blowing Snow"
"-61.68","56.55","NAIN A","8502801","2018-01-07 08:00","2018","01","07","08:00","-16.4","","-19.1","","80","","","","29","","64","","2.0","","98.12","","","","-32","","Blowing Snow"
"-61.68","56.55","NAIN A","8502801","2018-01-07 09:00","2018","01","07","09:00","-16.8","","-19.4","","80","","","","29","","51","","2.0","","98.20","","","","-31","","Blowing Snow"
"-61.68","56.55","NAIN A","8502801","2018-01-07 10:00","2018","01","07","10:00","-16.1","","-18.9","","80","","","","28","","31","","2.4","","98.29","","","","-28","","Snow"
"-61.68","56.55","NAIN A","8502801","2018-01-07 11:00","2018","01","07","11:00","-15.9","","-18.1","","83","","","","29","","50","","0.8","","98.31","","","","-30","","Moderate Snow"
"-61.68","56.55","NAIN A","8502801","2018-01-07 12:00","2018","01","07","12:00","-15.6","","-18.5","","79","","","","30","","52","","4.0","","98.33","","","","-30","","Snow"
"-61.68","56.55","NAIN A","8502801","2018-01-07 13:00","2018","01","07","13:00","-15.3","","-18.3","","78","","","","29","","50","","3.2","","98.35","","","","-29","","Snow,Blowing Snow"
"-61.68","56.55","NAIN A","8502801","2018-01-07 14:00","2018","01","07","14:00","-13.9","","-17.1","","77","","","","29","","48","","9.7","","98.39","","","","-27","","Snow,Blowing Snow"
"-61.68","56.55","NAIN A","8502801","2018-01-07 15:00","2018","01","07","15:00","-14.9","","-18.1","","77","","","","28","","41","","16.1","","98.50","","","","-27","","Snow,Blowing Snow"
"-61.68","56.55","NAIN A","8502801","2018-01-07 16:00","2018","01","07","16:00","-14.6","","-17.9","","76","","","","27","","27","","20.9","","98.65","","","","-25","","Snow"
"-61.68","56.55","NAIN A","8502801","2018-01-07 17:00","2018","01","07","17:00","-13.6","","-17.4","","74","","","","28","","35","","24.1","","98.74","","","","-25","","Snow"
"-61.68","56.55","NAIN A","8502801","2018-01-07 18:00","2018","01","07","18:00","-15.6","","-18.8","","77","","","","29","","28","","24.1","","98.81","","","","-26","","Snow"
"-61.68","56.55","NAIN A","8502801","2018-01-07 19:00","2018","01","07","19:00","-15.6","","-19.2","","74","","","","29","","39","","20.9","","98.89","","","","-28","","Snow"
"-61.68","56.55","NAIN A","8502801","2018-01-07 20:00","2018","01","07","20:00","-15.5","","-19.1","","74","","","","28","","22","","24.1","","98.92","","","","-25","","Snow"
"-61.68","56.55","NAIN A","8502801","2018-01-07 21:00","2018","01","07","21:00"
"-61.68","56.55","NAIN A","8502801","2018-01-07 22:00","2018","01","07","22:00"
"-61.68","56.55","NAIN A","8502801","2018-01-07 23:00","2018","01","07","23:00"
"-61.68","56.55","NAIN A","8502801","2018-01-08 00:00","2018","01","08","00:00"
"-61.68","56.55","NAIN A","8502801","2018-01-08 01:00","2018","01","08","01:00"
"-61.68","56.55","NAIN A","8502801","2018-01-08 02:00","2018","01","08","02:00"
"-61.68","56.55","NAIN A","8502801","2018-01-08 03:00","2018","01","08","03:00"
"-61.68","56.55","NAIN A","8502801","2018-01-08 04:00","2018","01","08","04:00"
"-61.68","56.55","NAIN A","8502801","2018-01-08 05:00","2018","01","08","05:00","-12.6","","-15.2","","81","","","","28","","23","","2.4","","99.56","","","","-22","","Snow"
"-61.68","56.55","NAIN A","8502801","2018-01-08 06:00","2018","01","08","06:00","-11.9","","-14.6","","80","","","","28","","20","","2.4","","99.71","","","","-20","","Snow"
"-61.68","56.55","NAIN A","8502801","2018-01-08 07:00","2018","01","08","07:00","-11.9","","-15.7","","74","","","","27","","22","","19.3","","99.83","","","","-21","","Snow"
"-61.68","56.55","NAIN A","8502801","2018-01-08 08:00","2018","01","08","08:00","-11.6","","-15.8","","71","","","","24","","10","","24.1","","99.99","","","","-17","","Cloudy"
"-61.68","56.55","NAIN A","8502801","2018-01-08 09:00","2018","01","08","09:00","-12.3","","-16.8","","70","","","","16","","10","","24.1","","100.10","","","","-18","","NA"
"-61.68","56.55","NAIN A","8502801","2018-01-08 10:00","2018","01","08","10:00","-12.7","","-17.4","","68","","","","20","","4","","24.1","","100.19","","","","-15","","NA"
"-61.68","56.55","NAIN A","8502801","2018-01-08 11:00","2018","01","08","11:00","-12.2","","-17.0","","68","","","","10","","5","","24.1","","100.20","","","","-15","","Mostly Cloudy"
"-61.68","56.55","NAIN A","8502801","2018-01-08 12:00","2018","01","08","12:00","-12.2","","-16.9","","69","","","","0","","1","","24.1","","100.25","","","","-13","","NA"
"-61.68","56.55","NAIN A","8502801","2018-01-08 13:00","2018","01","08","13:00","-13.5","","-18.5","","66","","","","25","","15","","24.1","","100.31","","","","-21","","NA"
"-61.68","56.55","NAIN A","8502801","2018-01-08 14:00","2018","01","08","14:00","-14.7","","-19.7","","66","","","","19","","15","","24.1","","100.40","","","","-23","","Clear"
"-61.68","56.55","NAIN A","8502801","2018-01-08 15:00","2018","01","08","15:00","-15.3","","-20.3","","66","","","","30","","7","","24.1","","100.47","","","","-20","","NA"
"-61.68","56.55","NAIN A","8502801","2018-01-08 16:00","2018","01","08","16:00","-15.2","","-20.1","","66","","","","8","","6","","24.1","","100.56","","","","-19","","NA"
"-61.68","56.55","NAIN A","8502801","2018-01-08 17:00","2018","01","08","17:00","-16.4","","-20.8","","69","","","","14","","3","","24.1","","100.66","","","","-19","","Clear"
"-61.68","56.55","NAIN A","8502801","2018-01-08 18:00","2018","01","08","18:00","-16.1","","-21.5","","64","","","","36","","3","","24.1","","100.71","","","","-18","","NA"
"-61.68","56.55","NAIN A","8502801","2018-01-08 19:00","2018","01","08","19:00","-16.8","","-21.9","","65","","","","13","","5","","24.1","","100.75","","","","-21","","NA"
"-61.68","56.55","NAIN A","8502801","2018-01-08 20:00","2018","01","08","20:00","-17.6","","-22.4","","67","","","","30","","4","","24.1","","100.77","","","","-21","","Clear"
"-61.68","56.55","NAIN A","8502801","2018-01-08 21:00","2018","01","08","21:00"
"-61.68","56.55","NAIN A","8502801","2018-01-08 22:00","2018","01","08","22:00"
"-61.68","56.55","NAIN A","8502801","2018-01-08 23:00","2018","01","08","23:00"
"-61.68","56.55","NAIN A","8502801","2018-01-09 00:00","2018","01","09","00:00"
"-61.68","56.55","NAIN A","8502801","2018-01-09 01:00","2018","01","09","01:00"
"-61.68","56.55","NAIN A","8502801","2018-01-09 02:00","2018","01","09","02:00"
"-61.68","56.55","NAIN A","8502801","2018-01-09 03:00","2018","01","09","03:00"
"-61.68","56.55","NAIN A","8502801","2018-01-09 04:00","2018","01","09","04:00"
"-61.68","56.55","NAIN A","8502801","2018-01-09 05:00","2018","01","09","05:00","-22.4","","-26.2","","71","","","","36","","3","","24.1","","100.73","","","","-25","","Clear"
"-61.68","56.55","NAIN A","8502801","2018-01-09 06:00","2018","01","09","06:00","-22.6","","-27.5","","65","","","","36","","2","","24.1","","100.73","","","","-24","","NA"
"-61.68","56.55","NAIN A","8502801","2018-01-09 07:00","2018","01","09","07:00","-21.8","","-26.2","","68","","","","36","","3","","24.1","","100.69","","","","-25","","NA"
"-61.68","56.55","NAIN A","8502801","2018-01-09 08:00","2018","01","09","08:00","-20.9","","-25.8","","66","","","","16","","3","","24.1","","100.66","","","","-24","","Clear"
"-61.68","56.55","NAIN A","8502801","2018-01-09 09:00","2018","01","09","09:00","-23.0","","-26.9","","71","","","","17","","5","","24.1","","100.62","","","","-28","","NA"
"-61.68","56.55","NAIN A","8502801","2018-01-09 10:00","2018","01","09","10:00","-20.4","","-25.0","","67","","","","36","","2","","24.1","","100.59","","","","-22","","NA"
"-61.68","56.55","NAIN A","8502801","2018-01-09 11:00","2018","01","09","11:00","-19.8","","-24.2","","68","","","","36","","3","","24.1","","100.50","","","","-22","","Snow Showers"
"-61.68","56.55","NAIN A","8502801","2018-01-09 12:00","2018","01","09","12:00","-19.1","","-23.7","","67","","","","17","","5","","24.1","","100.43","","","","-23","","Snow Showers"
"-61.68","56.55","NAIN A","8502801","2018-01-09 13:00","2018","01","09","13:00","-18.4","","-23.3","","66","","","","36","","2","","24.1","","100.37","","","","-20","","Snow Showers"
"-61.68","56.55","NAIN A","8502801","2018-01-09 14:00","2018","01","09","14:00","-17.6","","-22.3","","67","","","","29","","5","","24.1","","100.29","","","","-22","","Snow Showers"
"-61.68","56.55","NAIN A","8502801","2018-01-09 15:00","2018","01","09","15:00","-17.1","","-21.1","","71","","","","13","","7","","24.1","","100.23","","","","-22","","Snow Showers"
"-61.68","56.55","NAIN A","8502801","2018-01-09 16:00","2018","01","09","16:00","-16.6","","-20.2","","74","","","","20","","8","","24.1","","100.19","","","","-22","","Snow Showers"
"-61.68","56.55","NAIN A","8502801","2018-01-09 17:00","2018","01","09","17:00","-16.3","","-19.6","","76","","","","13","","9","","24.1","","100.18","","","","-22","","Snow Showers"
"-61.68","56.55","NAIN A","8502801","2018-01-09 18:00","2018","01","09","18:00","-16.2","","-19.3","","77","","","","13","","8","","24.1","","100.17","","","","-22","","Snow Showers"
"-61.68","56.55","NAIN A","8502801","2018-01-09 19:00","2018","01","09","19:00","-16.0","","-18.9","","78","","","","36","","3","","24.1","","100.11","","","","-18","","Snow Showers"
"-61.68","56.55","NAIN A","8502801","2018-01-09 20:00","2018","01","09","20:00","-16.0","","-18.9","","78","","","","19","","8","","24.1","","100.08","","","","-22","","Snow Showers"
"-61.68","56.55","NAIN A","8502801","2018-01-09 21:00","2018","01","09","21:00"
"-61.68","56.55","NAIN A","8502801","2018-01-09 22:00","2018","01","09","22:00"
"-61.68","56.55","NAIN A","8502801","2018-01-09 23:00","2018","01","09","23:00"
"-61.68","56.55","NAIN A","8502801","2018-01-10 00:00","2018","01","10","00:00"
"-61.68","56.55","NAIN A","8502801","2018-01-10 01:00","2018","01","10","01:00"
"-61.68","56.55","NAIN A","8502801","2018-01-10 02:00","2018","01","10","02:00"
"-61.68","56.55","NAIN A","8502801","2018-01-10 03:00","2018","01","10","03:00"
"-61.68","56.55","NAIN A","8502801","2018-01-10 04:00","2018","01","10","04:00"
"-61.68","56.55","NAIN A","8502801","2018-01-10 05:00","2018","01","10","05:00","-14.9","","-20.7","","61","","","","28","","27","","24.1","","100.16","","","","-25","","Cloudy"
"-61.68","56.55","NAIN A","8502801","2018-01-10 06:00","2018","01","10","06:00","-16.4","","-20.9","","68","","","","30","","52","","24.1","","100.26","","","","-31","","NA"
"-61.68","56.55","NAIN A","8502801","2018-01-10 07:00","2018","01","10","07:00","-17.3","","-21.7","","69","","","","29","","43","","24.1","","100.38","","","","-31","","Blowing Snow"
"-61.68","56.55","NAIN A","8502801","2018-01-10 08:00","2018","01","10","08:00","-17.8","","-22.2","","69","","","","29","","49","","24.1","","100.47","","","","-32","","Blowing Snow"
"-61.68","56.55","NAIN A","8502801","2018-01-10 09:00","2018","01","10","09:00","-18.5","","-23.3","","66","","","","29","","52","","24.1","","100.56","","","","-34","","Blowing Snow"
"-61.68","56.55","NAIN A","8502801","2018-01-10 10:00","2018","01","10","10:00","-19.1","","-24.1","","65","","","","29","","54","","24.1","","100.66","","","","-35","","Blowing Snow"
"-61.68","56.55","NAIN A","8502801","2018-01-10 11:00","2018","01","10","11:00","-19.4","","-24.8","","63","","","","29","","55","","24.1","","100.71","","","","-35","","Blowing Snow"
"-61.68","56.55","NAIN A","8502801","2018-01-10 12:00","2018","01","10","12:00","-20.0","","-25.1","","64","","","","29","","55","","24.1","","100.77","","","","-36","","Blowing Snow"
"-61.68","56.55","NAIN A","8502801","2018-01-10 13:00","2018","01","10","13:00","-20.1","","-25.1","","65","","","","29","","54","","24.1","","100.80","","","","-36","","Blowing Snow"
"-61.68","56.55","NAIN A","8502801","2018-01-10 14:00","2018","01","10","14:00","-20.5","","-25.4","","66","","","","29","","52","","24.1","","100.89","","","","-36","","Blowing Snow"
"-61.68","56.55","NAIN A","8502801","2018-01-10 15:00","2018","01","10","15:00","-21.1","","-26.1","","65","","","","28","","32","","24.1","","101.00","","","","-34","","Blowing Snow"
"-61.68","56.55","NAIN A","8502801","2018-01-10 16:00","2018","01","10","16:00","-21.8","","-26.7","","65","","","","29","","46","","24.1","","101.06","","","","-37","","Blowing Snow"
"-61.68","56.55","NAIN A","8502801","2018-01-10 17:00","2018","01","10","17:00","-21.6","","-26.6","","65","","","","27","","59","","24.1","","101.16","","","","-39","","Blowing Snow"
"-61.68","56.55","NAIN A","8502801","2018-01-10 18:00","2018","01","10","18:00","-21.7","","-27.3","","61","","","","25","","26","","24.1","","101.17","","","","-34","","NA"
"-61.68","56.55","NAIN A","8502801","2018-01-10 19:00","2018","01","10","19:00","-21.6","","-27.3","","61","","","","28","","40","","24.1","","101.22","","","","-36","","NA"
"-61.68","56.55","NAIN A","8502801","2018-01-10 20:00","2018","01","10","20:00","-21.6","","-27.1","","61","","","","28","","36","","24.1","","101.20","","","","-36","","Clear"
"-61.68","56.55","NAIN A","8502801","2018-01-10 21:00","2018","01","10","21:00"
"-61.68","56.55","NAIN A","8502801","2018-01-10 22:00","2018","01","10","22:00"
"-61.68","56.55","NAIN A","8502801","2018-01-10 23:00","2018","01","10","23:00"
"-61.68","56.55","NAIN A","8502801","2018-01-11 00:00","2018","01","11","00:00"
"-61.68","56.55","NAIN A","8502801","2018-01-11 01:00","2018","01","11","01:00"
"-61.68","56.55","NAIN A","8502801","2018-01-11 02:00","2018","01","11","02:00"
"-61.68","56.55","NAIN A","8502801","2018-01-11 03:00","2018","01","11","03:00"
"-61.68","56.55","NAIN A","8502801","2018-01-11 04:00","2018","01","11","04:00"
"-61.68","56.55","NAIN A","8502801","2018-01-11 05:00","2018","01","11","05:00","-19.4","","-22.9","","74","","","","20","","10","","24.1","","100.47","","","","-26","","Snow Showers"
"-61.68","56.55","NAIN A","8502801","2018-01-11 06:00","2018","01","11","06:00","-19.0","","-22.0","","77","","","","19","","12","","11.3","","100.39","","","","-27","","Snow"
"-61.68","56.55","NAIN A","8502801","2018-01-11 07:00","2018","01","11","07:00","-18.2","","-21.5","","76","","","","24","","14","","9.7","","100.29","","","","-27","","Snow"
"-61.68","56.55","NAIN A","8502801","2018-01-11 08:00","2018","01","11","08:00","-18.1","","-21.0","","78","","","","22","","8","","24.1","","100.20","","","","-24","","Snow Showers"
"-61.68","56.55","NAIN A","8502801","2018-01-11 09:00","2018","01","11","09:00","-18.0","","-21.1","","77","","","","20","","19","","24.1","","100.16","","","","-28","","NA"
"-61.68","56.55","NAIN A","8502801","2018-01-11 10:00","2018","01","11","10:00","-16.7","","-20.7","","72","","","","20","","5","","24.1","","100.16","","","","-21","","NA"
"-61.68","56.55","NAIN A","8502801","2018-01-11 11:00","2018","01","11","11:00","-17.0","","-20.1","","77","","","","3","","5","","24.1","","100.09","","","","-21","","Cloudy"
"-61.68","56.55","NAIN A","8502801","2018-01-11 12:00","2018","01","11","12:00","-16.5","","-19.9","","76","","","","5","","4","","24.1","","100.04","","","","-20","","NA"
"-61.68","56.55","NAIN A","8502801","2018-01-11 13:00","2018","01","11","13:00","-15.9","","-19.4","","75","","","","28","","5","","24.1","","100.03","","","","-20","","NA"
"-61.68","56.55","NAIN A","8502801","2018-01-11 14:00","2018","01","11","14:00","-14.3","","-17.5","","77","","","","33","","8","","24.1","","100.02","","","","-20","","Cloudy"
"-61.68","56.55","NAIN A","8502801","2018-01-11 15:00","2018","01","11","15:00","-14.9","","-17.8","","79","","","","33","","5","","24.1","","100.05","","","","-18","","NA"
"-61.68","56.55","NAIN A","8502801","2018-01-11 16:00","2018","01","11","16:00","-13.6","","-17.3","","74","","","","36","","2","","24.1","","100.19","","","","-15","","NA"
"-61.68","56.55","NAIN A","8502801","2018-01-11 17:00","2018","01","11","17:00","-9.9","","-14.6","","69","","","","25","","20","","24.1","","100.24","","","","-18","","Mainly Clear"
"-61.68","56.55","NAIN A","8502801","2018-01-11 18:00","2018","01","11","18:00","-9.9","","-15.7","","63","","","","31","","4","","24.1","","100.28","","","","-12","","NA"
"-61.68","56.55","NAIN A","8502801","2018-01-11 19:00","2018","01","11","19:00","-10.8","","-16.8","","62","","","","32","","9","","24.1","","100.33","","","","-16","","NA"
"-61.68","56.55","NAIN A","8502801","2018-01-11 20:00","2018","01","11","20:00","-11.4","","-17.5","","61","","","","28","","27","","24.1","","100.36","","","","-21","","Cloudy"
"-61.68","56.55","NAIN A","8502801","2018-01-11 21:00","2018","01","11","21:00"
"-61.68","56.55","NAIN A","8502801","2018-01-11 22:00","2018","01","11","22:00"
"-61.68","56.55","NAIN A","8502801","2018-01-11 23:00","2018","01","11","23:00"
"-61.68","56.55","NAIN A","8502801","2018-01-12 00:00","2018","01","12","00:00"
"-61.68","56.55","NAIN A","8502801","2018-01-12 01:00","2018","01","12","01:00"
"-61.68","56.55","NAIN A","8502801","2018-01-12 02:00","2018","01","12","02:00"
"-61.68","56.55","NAIN A","8502801","2018-01-12 03:00","2018","01","12","03:00"
"-61.68","56.55","NAIN A","8502801","2018-01-12 04:00","2018","01","12","04:00"
"-61.68","56.55","NAIN A","8502801","2018-01-12 05:00","2018","01","12","05:00","-14.4","","-18.5","","71","","","","29","","11","","2.4","","100.34","","","","-21","","Snow"
"-61.68","56.55","NAIN A","8502801","2018-01-12 06:00","2018","01","12","06:00","-14.8","","-17.5","","80","","","","31","","11","","2.0","","100.28","","","","-21","","Snow"
"-61.68","56.55","NAIN A","8502801","2018-01-12 07:00","2018","01","12","07:00","-15.1","","-17.6","","81","","","","30","","21","","2.0","","100.33","","","","-25","","Snow"
"-61.68","56.55","NAIN A","8502801","2018-01-12 08:00","2018","01","12","08:00","-15.0","","-17.7","","80","","","","28","","23","","2.0","","100.25","","","","-25","","Snow"
"-61.68","56.55","NAIN A","8502801","2018-01-12 09:00","2018","01","12","09:00","-14.8","","-17.6","","79","","","","29","","23","","8.1","","100.14","","","","-25","","Snow"
"-61.68","56.55","NAIN A","8502801","2018-01-12 10:00","2018","01","12","10:00","-14.7","","-17.4","","80","","","","31","","18","","2.4","","100.16","","","","-23","","Snow"
"-61.68","56.55","NAIN A","8502801","2018-01-12 11:00","2018","01","12","11:00","-14.6","","-17.1","","81","","","","30","","21","","2.4","","100.05","","","","-24","","Snow"
"-61.68","56.55","NAIN A","8502801","2018-01-12 12:00","2018","01","12","12:00","-14.4","","-16.9","","82","","","","30","","24","","1.2","","99.98","","","","-24","","Snow"
"-61.68","56.55","NAIN A","8502801","2018-01-12 13:00","2018","01","12","13:00","-14.4","","-16.9","","81","","","","30","","27","","4.8","","99.96","","","","-25","","Snow"
"-61.68","56.55","NAIN A","8502801","2018-01-12 14:00","2018","01","12","14:00","-14.2","","-16.6","","82","","","","31","","28","","2.0","","99.96","","","","-25","","Snow"
"-61.68","56.55","NAIN A","8502801","2018-01-12 15:00","2018","01","12","15:00","-14.1","","-16.4","","83","","","","30","","29","","2.0","","99.97","","","","-25","","Snow"
"-61.68","56.55","NAIN A","8502801","2018-01-12 16:00","2018","01","12","16:00","-14.0","","-16.3","","83","","","","30","","25","","2.4","","100.03","","","","-24","","Snow"
"-61.68","56.55","NAIN A","8502801","2018-01-12 17:00","2018","01","12","17:00","-14.1","","-17.4","","77","","","","33","","31","","4.8","","100.09","","","","-25","","Snow"
"-61.68","56.55","NAIN A","8502801","2018-01-12 18:00","2018","01","12","18:00","-14.0","","-17.0","","79","","","","32","","21","","3.2","","100.10","","","","-23","","Snow"
"-61.68","56.55","NAIN A","8502801","2018-01-12 19:00","2018","01","12","19:00","-14.1","","-16.7","","80","","","","31","","21","","4.0","","100.12","","","","-23","","Snow"
"-61.68","56.55","NAIN A","8502801","2018-01-12 20:00","2018","01","12","20:00","-14.1","","-16.4","","83","","","","30","","35","","3.2","","100.23","","","","-26","","Snow"
"-61.68","56.55","NAIN A","8502801","2018-01-12 21:00","2018","01","12","21:00"
"-61.68","56.55","NAIN A","8502801","2018-01-12 22:00","2018","01","12","22:00"
"-61.68","56.55","NAIN A","8502801","2018-01-12 23:00","2018","01","12","23:00"
"-61.68","56.55","NAIN A","8502801","2018-01-13 00:00","2018","01","13","00:00"
"-61.68","56.55","NAIN A","8502801","2018-01-13 01:00","2018","01","13","01:00"
"-61.68","56.55","NAIN A","8502801","2018-01-13 02:00","2018","01","13","02:00"
"-61.68","56.55","NAIN A","8502801","2018-01-13 03:00","2018","01","13","03:00"
"-61.68","56.55","NAIN A","8502801","2018-01-13 04:00","2018","01","13","04:00"
"-61.68","56.55","NAIN A","8502801","2018-01-13 05:00","2018","01","13","05:00","-23.1","","-28.0","","65","","","","28","","43","","24.1","","101.01","","","","-39","","Blowing Snow"
"-61.68","56.55","NAIN A","8502801","2018-01-13 06:00","2018","01","13","06:00","-23.6","","-28.4","","66","","","","29","","50","","24.1","","101.12","","","","-40","","Blowing Snow"
"-61.68","56.55","NAIN A","8502801","2018-01-13 07:00","2018","01","13","07:00","-24.0","","-29.0","","64","","","","28","","39","","24.1","","101.16","","","","-39","","Blowing Snow"
"-61.68","56.55","NAIN A","8502801","2018-01-13 08:00","2018","01","13","08:00","-24.1","","-29.9","","60","","","","26","","23","","24.1","","101.24","","","","-36","","Mainly Clear"
"-61.68","56.55","NAIN A","8502801","2018-01-13 09:00","2018","01","13","09:00","-24.6","","-30.4","","59","","","","28","","20","","24.1","","101.33","","","","-36","","NA"
"-61.68","56.55","NAIN A","8502801","2018-01-13 10:00","2018","01","13","10:00","-24.6","","-30.9","","57","","","","29","","32","","24.1","","101.42","","","","-39","","NA"
"-61.68","56.55","NAIN A","8502801","2018-01-13 11:00","2018","01","13","11:00","-25.4","","-31.5","","58","","","","29","","23","","24.1","","101.50","","","","-38","","Mainly Clear"
"-61.68","56.55","NAIN A","8502801","2018-01-13 12:00","2018","01","13","12:00","-25.5","","-32.1","","55","","","","27","","17","","24.1","","101.49","","","","-37","","NA"
"-61.68","56.55","NAIN A","8502801","2018-01-13 13:00","2018","01","13","13:00","-25.6","","-31.7","","58","","","","27","","45","","24.1","","101.46","","","","-42","","Blowing Snow"
"-61.68","56.55","NAIN A","8502801","2018-01-13 14:00","2018","01","13","14:00","-26.1","","-32.2","","57","","","","28","","17","","24.1","","101.51","","","","-37","","Cloudy"
"-61.68","56.55","NAIN A","8502801","2018-01-13 15:00","2018","01","13","15:00","-26.6","","-31.8","","62","","","","28","","59","","24.1","","101.47","","","","-45","","Blowing Snow"
"-61.68","56.55","NAIN A","8502801","2018-01-13 16:00","2018","01","13","16:00","-27.0","","-33.4","","55","","","","28","","27","","24.1","","101.59","","","","-41","","NA"
"-61.68","56.55","NAIN A","8502801","2018-01-13 17:00","2018","01","13","17:00","-27.1","","-33.4","","56","","","","28","","26","","24.1","","101.61","","","","-41","","Cloudy"
"-61.68","56.55","NAIN A","8502801","2018-01-13 18:00","2018","01","13","18:00","-26.6","","-33.3","","54","","","","31","","29","","24.1","","101.69","","","","-41","","NA"
"-61.68","56.55","NAIN A","8502801","2018-01-13 19:00","2018","01","13","19:00","-27.0","","-33.4","","56","","","","30","","15","","24.1","","101.78","","","","-38","","NA"
"-61.68","56.55","NAIN A","8502801","2018-01-13 20:00","2018","01","13","20:00","-27.3","","-34.2","","53","","","","25","","9","","24.1","","101.90","","","","-35","","Clear"
"-61.68","56.55","NAIN A","8502801","2018-01-13 21:00","2018","01","13","21:00"
"-61.68","56.55","NAIN A","8502801","2018-01-13 22:00","2018","01","13","22:00"
"-61.68","56.55","NAIN A","8502801","2018-01-13 23:00","2018","01","13","23:00"
"-61.68","56.55","NAIN A","8502801","2018-01-14 00:00","2018","01","14","00:00"
"-61.68","56.55","NAIN A","8502801","2018-01-14 01:00","2018","01","14","01:00"
"-61.68","56.55","NAIN A","8502801","2018-01-14 02:00","2018","01","14","02:00"
"-61.68","56.55","NAIN A","8502801","2018-01-14 03:00","2018","01","14","03:00"
"-61.68","56.55","NAIN A","8502801","2018-01-14 04:00","2018","01","14","04:00"
"-61.68","56.55","NAIN A","8502801","2018-01-14 05:00","2018","01","14","05:00","-27.8","","-33.5","","59","","","","22","","6","","24.1","","101.98","","","","-34","","Clear"
"-61.68","56.55","NAIN A","8502801","2018-01-14 06:00","2018","01","14","06:00","-29.5","","-34.9","","61","","","","16","","12","","24.1","","102.07","","","","-40","","NA"
"-61.68","56.55","NAIN A","8502801","2018-01-14 07:00","2018","01","14","07:00","-28.1","","-33.8","","59","","","","18","","5","","24.1","","102.11","","","","-33","","NA"
"-61.68","56.55","NAIN A","8502801","2018-01-14 08:00","2018","01","14","08:00","-27.2","","-32.9","","59","","","","28","","26","","24.1","","102.14","","","","-41","","Clear"
"-61.68","56.55","NAIN A","8502801","2018-01-14 09:00","2018","01","14","09:00","-27.0","","-32.3","","61","","","","27","","32","","24.1","","102.17","","","","-42","","NA"
"-61.68","56.55","NAIN A","8502801","2018-01-14 10:00","2018","01","14","10:00","-26.5","","-32.4","","58","","","","29","","29","","24.1","","102.24","","","","-41","","NA"
"-61.68","56.55","NAIN A","8502801","2018-01-14 11:00","2018","01","14","11:00","-25.6","","-32.1","","56","","","","36","","1","","24.1","","102.27","","","","-27","","Clear"
"-61.68","56.55","NAIN A","8502801","2018-01-14 12:00","2018","01","14","12:00","-24.8","","-31.3","","56","","","","28","","26","","24.1","","102.20","","","","-38","","NA"
"-61.68","56.55","NAIN A","8502801","2018-01-14 13:00","2018","01","14","13:00","-24.8","","-31.1","","57","","","","28","","34","","24.1","","102.18","","","","-40","","NA"
"-61.68","56.55","NAIN A","8502801","2018-01-14 14:00","2018","01","14","14:00","-24.4","","-30.9","","56","","","","28","","27","","24.1","","102.25","","","","-38","","Clear"
"-61.68","56.55","NAIN A","8502801","2018-01-14 15:00","2018","01","14","15:00","-24.3","","-30.3","","58","","","","27","","22","","24.1","","102.32","","","","-36","","NA"
"-61.68","56.55","NAIN A","8502801","2018-01-14 16:00","2018","01","14","16:00","-25.3","","-31.2","","59","","","","22","","13","","24.1","","102.41","","","","-35","","NA"
"-61.68","56.55","NAIN A","8502801","2018-01-14 17:00","2018","01","14","17:00","-24.0","","-29.8","","60","","","","28","","24","","24.1","","102.46","","","","-37","","Clear"
"-61.68","56.55","NAIN A","8502801","2018-01-14 18:00","2018","01","14","18:00","-23.7","","-29.5","","59","","","","29","","42","","24.1","","102.54","","","","-39","","NA"
"-61.68","56.55","NAIN A","8502801","2018-01-14 19:00","2018","01","14","19:00","-23.8","","-29.8","","59","","","","30","","23","","24.1","","102.62","","","","-36","","NA"
"-61.68","56.55","NAIN A","8502801","2018-01-14 20:00","2018","01","14","20:00","-24.4","","-30.6","","57","","","","23","","16","","24.1","","102.72","","","","-35","","Clear"
"-61.68","56.55","NAIN A","8502801","2018-01-14 21:00","2018","01","14","21:00"
"-61.68","56.55","NAIN A","8502801","2018-01-14 22:00","2018","01","14","22:00"
"-61.68","56.55","NAIN A","8502801","2018-01-14 23:00","2018","01","14","23:00"
"-61.68","56.55","NAIN A","8502801","2018-01-15 00:00","2018","01","15","00:00"
"-61.68","56.55","NAIN A","8502801","2018-01-15 01:00","2018","01","15","01:00"
"-61.68","56.55","NAIN A","8502801","2018-01-15 02:00","2018","01","15","02:00"
"-61.68","56.55","NAIN A","8502801","2018-01-15 03:00","2018","01","15","03:00"
"-61.68","56.55","NAIN A","8502801","2018-01-15 04:00","2018","01","15","04:00"
"-61.68","56.55","NAIN A","8502801","2018-01-15 05:00","2018","01","15","05:00","-23.7","","-29.6","","59","","","","29","","34","","24.1","","103.11","","","","-38","","Clear"
"-61.68","56.55","NAIN A","8502801","2018-01-15 06:00","2018","01","15","06:00","-23.9","","-30.1","","58","","","","29","","45","","24.1","","103.16","","","","-40","","NA"
"-61.68","56.55","NAIN A","8502801","2018-01-15 07:00","2018","01","15","07:00","-23.9","","-29.2","","62","","","","28","","51","","24.1","","103.14","","","","-41","","NA"
"-61.68","56.55","NAIN A","8502801","2018-01-15 08:00","2018","01","15","08:00","-23.4","","-28.9","","62","","","","30","","43","","24.1","","103.26","","","","-39","","Clear"
"-61.68","56.55","NAIN A","8502801","2018-01-15 09:00","2018","01","15","09:00","-23.6","","-29.5","","59","","","","27","","34","","24.1","","103.33","","","","-38","","NA"
"-61.68","56.55","NAIN A","8502801","2018-01-15 10:00","2018","01","15","10:00","-23.7","","-29.9","","58","","","","25","","13","","24.1","","103.40","","","","-33","","NA"
"-61.68","56.55","NAIN A","8502801","2018-01-15 11:00","2018","01","15","11:00","-23.5","","-29.9","","56","","","","26","","25","","24.1","","103.44","","","","-36","","Clear"
"-61.68","56.55","NAIN A","8502801","2018-01-15 12:00","2018","01","15","12:00","-22.9","","-29.6","","56","","","","27","","27","","24.1","","103.41","","","","-36","","NA"
"-61.68","56.55","NAIN A","8502801","2018-01-15 13:00","2018","01","15","13:00","-22.9","","-29.4","","56","","","","30","","28","","24.1","","103.48","","","","-36","","NA"
"-61.68","56.55","NAIN A","8502801","2018-01-15 14:00","2018","01","15","14:00","-22.3","","-28.9","","56","","","","28","","27","","24.1","","103.49","","","","-35","","Clear"
"-61.68","56.55","NAIN A","8502801","2018-01-15 15:00","2018","01","15","15:00","-22.4","","-28.4","","59","","","","28","","36","","24.1","","103.52","","","","-37","","NA"
"-61.68","56.55","NAIN A","8502801","2018-01-15 16:00","2018","01","15","16:00","-22.4","","-28.0","","61","","","","26","","45","","24.1","","103.53","","","","-38","","NA"
"-61.68","56.55","NAIN A","8502801","2018-01-15 17:00","2018","01","15","17:00","-21.9","","-28.0","","58","","","","25","","33","","24.1","","103.60","","","","-36","","Clear"
"-61.68","56.55","NAIN A","8502801","2018-01-15 18:00","2018","01","15","18:00","-21.9","","-28.0","","59","","","","24","","26","","24.1","","103.62","","","","-34","","NA"
"-61.68","56.55","NAIN A","8502801","2018-01-15 19:00","2018","01","15","19:00","-21.2","","-27.6","","57","","","","27","","26","","24.1","","103.60","","","","-33","","NA"
"-61.68","56.55","NAIN A","8502801","2018-01-15 20:00","2018","01","15","20:00","-20.8","","-27.2","","57","","","","30","","27","","24.1","","103.53","","","","-33","","Clear"
"-61.68","56.55","NAIN A","8502801","2018-01-15 21:00","2018","01","15","21:00"
"-61.68","56.55","NAIN A","8502801","2018-01-15 22:00","2018","01","15","22:00"
"-61.68","56.55","NAIN A","8502801","2018-01-15 23:00","2018","01","15","23:00"
"-61.68","56.55","NAIN A","8502801","2018-01-16 00:00","2018","01","16","00:00"
"-61.68","56.55","NAIN A","8502801","2018-01-16 01:00","2018","01","16","01:00"
"-61.68","56.55","NAIN A","8502801","2018-01-16 02:00","2018","01","16","02:00"
"-61.68","56.55","NAIN A","8502801","2018-01-16 03:00","2018","01","16","03:00"
"-61.68","56.55","NAIN A","8502801","2018-01-16 04:00","2018","01","16","04:00"
"-61.68","56.55","NAIN A","8502801","2018-01-16 05:00","2018","01","16","05:00","-20.1","","-25.6","","62","","","","36","","11","","24.1","","103.18","","","","-28","","Clear"
"-61.68","56.55","NAIN A","8502801","2018-01-16 06:00","2018","01","16","06:00","-21.2","","-27.4","","58","","","","21","","7","","24.1","","103.16","","","","-27","","NA"
"-61.68","56.55","NAIN A","8502801","2018-01-16 07:00","2018","01","16","07:00","-21.1","","-27.0","","60","","","","22","","9","","24.1","","103.10","","","","-28","","NA"
"-61.68","56.55","NAIN A","8502801","2018-01-16 08:00","2018","01","16","08:00","-21.9","","-27.1","","63","","","","26","","17","","24.1","","102.98","","","","-32","","Clear"
"-61.68","56.55","NAIN A","8502801","2018-01-16 09:00","2018","01","16","09:00","-21.8","","-27.1","","63","","","","29","","25","","24.1","","102.86","","","","-34","","NA"
"-61.68","56.55","NAIN A","8502801","2018-01-16 10:00","2018","01","16","10:00","-22.0","","-27.4","","63","","","","26","","3","","24.1","","102.77","","","","-25","","NA"
"-61.68","56.55","NAIN A","8502801","2018-01-16 11:00","2018","01","16","11:00","-22.2","","-27.9","","61","","","","27","","8","","24.1","","102.68","","","","-29","","Clear"
"-61.68","56.55","NAIN A","8502801","2018-01-16 12:00","2018","01","16","12:00","-21.6","","-28.2","","56","","","","30","","5","","24.1","","102.56","","","","-26","","NA"
"-61.68","56.55","NAIN A","8502801","2018-01-16 13:00","2018","01","16","13:00","-20.3","","-27.2","","55","","","","27","","13","","24.1","","102.44","","","","-29","","NA"
"-61.68","56.55","NAIN A","8502801","2018-01-16 14:00","2018","01","16","14:00","-19.7","","-26.6","","55","","","","27","","26","","24.1","","102.32","","","","-31","","Clear"
"-61.68","56.55","NAIN A","8502801","2018-01-16 15:00","2018","01","16","15:00","-21.0","","-26.9","","60","","","","28","","5","","24.1","","102.28","","","","-25","","NA"
"-61.68","56.55","NAIN A","8502801","2018-01-16 16:00","2018","01","16","16:00","-21.7","","-26.9","","64","","","","36","","2","","24.1","","102.26","","","","-24","","NA"
"-61.68","56.55","NAIN A","8502801","2018-01-16 17:00","2018","01","16","17:00","-20.8","","-26.4","","62","","","","22","","19","","24.1","","102.15","","","","-31","","Clear"
"-61.68","56.55","NAIN A","8502801","2018-01-16 18:00","2018","01","16","18:00","-21.4","","-26.4","","65","","","","3","","4","","24.1","","102.11","","","","-25","","NA"
"-61.68","56.55","NAIN A","8502801","2018-01-16 19:00","2018","01","16","19:00","-21.5","","-26.8","","63","","","","6","","4","","24.1","","102.04","","","","-25","","NA"
"-61.68","56.55","NAIN A","8502801","2018-01-16 20:00","2018","01","16","20:00","-20.8","","-26.1","","63","","","","26","","17","","24.1","","101.98","","","","-31","","Clear"
"-61.68","56.55","NAIN A","8502801","2018-01-16 21:00","2018","01","16","21:00"
"-61.68","56.55","NAIN A","8502801","2018-01-16 22:00","2018","01","16","22:00"
"-61.68","56.55","NAIN A","8502801","2018-01-16 23:00","2018","01","16","23:00"
"-61.68","56.55","NAIN A","8502801","2018-01-17 00:00","2018","01","17","00:00"
"-61.68","56.55","NAIN A","8502801","2018-01-17 01:00","2018","01","17","01:00"
"-61.68","56.55","NAIN A","8502801","2018-01-17 02:00","2018","01","17","02:00"
"-61.68","56.55","NAIN A","8502801","2018-01-17 03:00","2018","01","17","03:00"
"-61.68","56.55","NAIN A","8502801","2018-01-17 04:00","2018","01","17","04:00"
"-61.68","56.55","NAIN A","8502801","2018-01-17 05:00","2018","01","17","05:00","-19.5","","-24.7","","64","","","","28","","17","","24.1","","101.66","","","","-29","","Clear"
"-61.68","56.55","NAIN A","8502801","2018-01-17 06:00","2018","01","17","06:00","-19.1","","-24.6","","63","","","","27","","5","","24.1","","101.64","","","","-23","","NA"
"-61.68","56.55","NAIN A","8502801","2018-01-17 07:00","2018","01","17","07:00","-20.5","","-25.2","","67","","","","17","","9","","24.1","","101.63","","","","-27","","NA"
"-61.68","56.55","NAIN A","8502801","2018-01-17 08:00","2018","01","17","08:00","-20.6","","-25.1","","68","","","","18","","7","","24.1","","101.59","","","","-26","","Mainly Clear"
"-61.68","56.55","NAIN A","8502801","2018-01-17 09:00","2018","01","17","09:00","-18.6","","-24.4","","61","","","","31","","11","","24.1","","101.57","","","","-26","","NA"
"-61.68","56.55","NAIN A","8502801","2018-01-17 10:00","2018","01","17","10:00","-16.9","","-22.8","","61","","","","26","","23","","24.1","","101.54","","","","-27","","NA"
"-61.68","56.55","NAIN A","8502801","2018-01-17 11:00","2018","01","17","11:00","-16.1","","-22.0","","61","","","","26","","23","","24.1","","101.52","","","","-26","","Cloudy"
"-61.68","56.55","NAIN A","8502801","2018-01-17 12:00","2018","01","17","12:00","-16.0","","-22.0","","60","","","","27","","19","","24.1","","101.44","","","","-25","","NA"
"-61.68","56.55","NAIN A","8502801","2018-01-17 13:00","2018","01","17","13:00","-15.8","","-21.8","","60","","","","24","","23","","24.1","","101.36","","","","-26","","NA"
"-61.68","56.55","NAIN A","8502801","2018-01-17 14:00","2018","01","17","14:00","-15.6","","-21.7","","60","","","","24","","22","","24.1","","101.31","","","","-25","","Cloudy"
"-61.68","56.55","NAIN A","8502801","2018-01-17 15:00","2018","01","17","15:00","-16.0","","-21.4","","64","","","","12","","4","","24.1","","101.30","","","","-19","","NA"
"-61.68","56.55","NAIN A","8502801","2018-01-17 16:00","2018","01","17","16:00","-16.5","","-22.0","","63","","","","36","","2","","24.1","","101.25","","","","-18","","NA"
"-61.68","56.55","NAIN A","8502801","2018-01-17 17:00","2018","01","17","17:00","-16.6","","-22.3","","62","","","","18","","5","","24.1","","101.22","","","","-20","","Cloudy"
"-61.68","56.55","NAIN A","8502801","2018-01-17 18:00","2018","01","17","18:00","-17.7","","-22.5","","66","","","","22","","17","","24.1","","101.18","","","","-27","","NA"
"-61.68","56.55","NAIN A","8502801","2018-01-17 19:00","2018","01","17","19:00","-17.9","","-22.8","","67","","","","0","","1","","24.1","","101.15","","","","-19","","NA"
"-61.68","56.55","NAIN A","8502801","2018-01-17 20:00","2018","01","17","20:00","-17.6","","-23.4","","61","","","","21","","5","","24.1","","101.12","","","","-22","","Cloudy"
"-61.68","56.55","NAIN A","8502801","2018-01-17 21:00","2018","01","17","21:00"
"-61.68","56.55","NAIN A","8502801","2018-01-17 22:00","2018","01","17","22:00"
"-61.68","56.55","NAIN A","8502801","2018-01-17 23:00","2018","01","17","23:00"
"-61.68","56.55","NAIN A","8502801","2018-01-18 00:00","2018","01","18","00:00"
"-61.68","56.55","NAIN A","8502801","2018-01-18 01:00","2018","01","18","01:00"
"-61.68","56.55","NAIN A","8502801","2018-01-18 02:00","2018","01","18","02:00"
"-61.68","56.55","NAIN A","8502801","2018-01-18 03:00","2018","01","18","03:00"
"-61.68","56.55","NAIN A","8502801","2018-01-18 04:00","2018","01","18","04:00"
"-61.68","56.55","NAIN A","8502801","2018-01-18 05:00","2018","01","18","05:00","-18.0","","-24.1","","60","","","","23","","15","","24.1","","100.59","","","","-27","","Mostly Cloudy"
"-61.68","56.55","NAIN A","8502801","2018-01-18 06:00","2018","01","18","06:00","-18.1","","-23.6","","63","","","","24","","15","","24.1","","100.54","","","","-27","","NA"
"-61.68","56.55","NAIN A","8502801","2018-01-18 07:00","2018","01","18","07:00","-18.4","","-22.6","","70","","","","21","","7","","24.1","","100.46","","","","-24","","Snow Showers"
"-61.68","56.55","NAIN A","8502801","2018-01-18 08:00","2018","01","18","08:00","-18.7","","-22.3","","74","","","","19","","6","","19.3","","100.43","","","","-24","","Snow Showers"
"-61.68","56.55","NAIN A","8502801","2018-01-18 09:00","2018","01","18","09:00","-18.5","","-21.8","","76","","","","19","","8","","6.4","","100.36","","","","-24","","Snow"
"-61.68","56.55","NAIN A","8502801","2018-01-18 10:00","2018","01","18","10:00","-17.9","","-21.5","","74","","","","20","","10","","9.7","","100.32","","","","-25","","Snow"
"-61.68","56.55","NAIN A","8502801","2018-01-18 11:00","2018","01","18","11:00","-17.5","","-20.6","","77","","","","22","","7","","6.4","","100.25","","","","-23","","Snow"
"-61.68","56.55","NAIN A","8502801","2018-01-18 12:00","2018","01","18","12:00","-17.1","","-20.2","","77","","","","36","","1","","6.4","","100.16","","","","-18","","Snow"
"-61.68","56.55","NAIN A","8502801","2018-01-18 13:00","2018","01","18","13:00","-17.1","","-19.8","","81","","","","35","","5","","14.5","","100.07","","","","-21","","Snow"
"-61.68","56.55","NAIN A","8502801","2018-01-18 14:00","2018","01","18","14:00","-17.2","","-19.9","","80","","","","5","","3","","24.1","","100.01","","","","-20","","Snow"
"-61.68","56.55","NAIN A","8502801","2018-01-18 15:00","2018","01","18","15:00","-17.2","","-19.7","","81","","","","36","","1","","24.1","","99.98","","","","-18","","NA"
"-61.68","56.55","NAIN A","8502801","2018-01-18 16:00","2018","01","18","16:00","-17.2","","-19.7","","81","","","","19","","3","","24.1","","99.98","","","","-20","","NA"
"-61.68","56.55","NAIN A","8502801","2018-01-18 17:00","2018","01","18","17:00","-17.3","","-20.1","","79","","","","31","","6","","24.1","","99.96","","","","-22","","Cloudy"
"-61.68","56.55","NAIN A","8502801","2018-01-18 18:00","2018","01","18","18:00","-18.0","","-20.7","","80","","","","30","","8","","24.1","","99.94","","","","-24","","NA"
"-61.68","56.55","NAIN A","8502801","2018-01-18 19:00","2018","01","18","19:00","-17.4","","-20.4","","78","","","","28","","14","","24.1","","99.91","","","","-26","","NA"
"-61.68","56.55","NAIN A","8502801","2018-01-18 20:00","2018","01","18","20:00","-17.2","","-20.1","","79","","","","28","","18","","24.1","","99.90","","","","-26","","Cloudy"
"-61.68","56.55","NAIN A","8502801","2018-01-18 21:00","2018","01","18","21:00"
"-61.68","56.55","NAIN A","8502801","2018-01-18 22:00","2018","01","18","22:00"
"-61.68","56.55","NAIN A","8502801","2018-01-18 23:00","2018","01","18","23:00"
"-61.68","56.55","NAIN A","8502801","2018-01-19 00:00","2018","01","19","00:00"
"-61.68","56.55","NAIN A","8502801","2018-01-19 01:00","2018","01","19","01:00"
"-61.68","56.55","NAIN A","8502801","2018-01-19 02:00","2018","01","19","02:00"
"-61.68","56.55","NAIN A","8502801","2018-01-19 03:00","2018","01","19","03:00"
"-61.68","56.55","NAIN A","8502801","2018-01-19 04:00","2018","01","19","04:00"
"-61.68","56.55","NAIN A","8502801","2018-01-19 05:00","2018","01","19","05:00","-19.4","","-22.4","","77","","","","20","","4","","24.1","","99.88","","","","-23","","Mainly Clear"
"-61.68","56.55","NAIN A","8502801","2018-01-19 06:00","2018","01","19","06:00","-17.8","","-22.7","","66","","","","36","","3","","24.1","","99.89","","","","-20","","NA"
"-61.68","56.55","NAIN A","8502801","2018-01-19 07:00","2018","01","19","07:00","-17.9","","-23.0","","65","","","","23","","8","","24.1","","99.92","","","","-24","","NA"
"-61.68","56.55","NAIN A","8502801","2018-01-19 08:00","2018","01","19","08:00","-19.1","","-23.7","","68","","","","36","","2","","24.1","","99.96","","","","-21","","Mainly Clear"
"-61.68","56.55","NAIN A","8502801","2018-01-19 09:00","2018","01","19","09:00","-18.8","","-23.8","","65","","","","24","","7","","24.1","","100.00","","","","-24","","NA"
"-61.68","56.55","NAIN A","8502801","2018-01-19 10:00","2018","01","19","10:00","-18.7","","-24.4","","62","","","","28","","7","","24.1","","100.04","","","","-24","","NA"
"-61.68","56.55","NAIN A","8502801","2018-01-19 11:00","2018","01","19","11:00","-18.0","","-24.6","","57","","","","27","","14","","24.1","","100.02","","","","-26","","Clear"
"-61.68","56.55","NAIN A","8502801","2018-01-19 12:00","2018","01","19","12:00","-17.3","","-23.7","","58","","","","29","","24","","24.1","","99.98","","","","-28","","NA"
"-61.68","56.55","NAIN A","8502801","2018-01-19 13:00","2018","01","19","13:00","-17.4","","-23.7","","59","","","","28","","19","","24.1","","99.98","","","","-27","","NA"
"-61.68","56.55","NAIN A","8502801","2018-01-19 14:00","2018","01","19","14:00","-17.4","","-23.7","","58","","","","27","","15","","24.1","","99.99","","","","-26","","Clear"
"-61.68","56.55","NAIN A","8502801","2018-01-19 15:00","2018","01","19","15:00","-18.3","","-24.2","","61","","","","28","","27","","24.1","","100.07","","","","-30","","NA"
"-61.68","56.55","NAIN A","8502801","2018-01-19 16:00","2018","01","19","16:00","-19.1","","-24.5","","63","","","","29","","33","","24.1","","100.06","","","","-32","","NA"
"-61.68","56.55","NAIN A","8502801","2018-01-19 17:00","2018","01","19","17:00","-19.5","","-24.9","","63","","","","28","","31","","24.1","","100.08","","","","-32","","Clear"
"-61.68","56.55","NAIN A","8502801","2018-01-19 18:00","2018","01","19","18:00","-19.5","","-24.8","","63","","","","29","","34","","24.1","","100.08","","","","-33","","NA"
"-61.68","56.55","NAIN A","8502801","2018-01-19 19:00","2018","01","19","19:00","-19.4","","-25.1","","62","","","","30","","32","","24.1","","100.06","","","","-32","","NA"
"-61.68","56.55","NAIN A","8502801","2018-01-19 20:00","2018","01","19","20:00","-20.2","","-25.6","","63","","","","28","","26","","24.1","","100.05","","","","-32","","Clear"
"-61.68","56.55","NAIN A","8502801","2018-01-19 21:00","2018","01","19","21:00"
"-61.68","56.55","NAIN A","8502801","2018-01-19 22:00","2018","01","19","22:00"
"-61.68","56.55","NAIN A","8502801","2018-01-19 23:00","2018","01","19","23:00"
"-61.68","56.55","NAIN A","8502801","2018-01-20 00:00","2018","01","20","00:00"
"-61.68","56.55","NAIN A","8502801","2018-01-20 01:00","2018","01","20","01:00"
"-61.68","56.55","NAIN A","8502801","2018-01-20 02:00","2018","01","20","02:00"
"-61.68","56.55","NAIN A","8502801","2018-01-20 03:00","2018","01","20","03:00"
"-61.68","56.55","NAIN A","8502801","2018-01-20 04:00","2018","01","20","04:00"
"-61.68","56.55","NAIN A","8502801","2018-01-20 05:00","2018","01","20","05:00","-22.0","","-28.2","","58","","","","36","","1","","24.1","","99.65","","","","-23","","Clear"
"-61.68","56.55","NAIN A","8502801","2018-01-20 06:00","2018","01","20","06:00","-22.9","","-28.1","","63","","","","18","","9","","24.1","","99.54","","","","-30","","NA"
"-61.68","56.55","NAIN A","8502801","2018-01-20 07:00","2018","01","20","07:00","-24.4","","-29.1","","66","","","","19","","12","","24.1","","99.44","","","","-33","","NA"
"-61.68","56.55","NAIN A","8502801","2018-01-20 08:00","2018","01","20","08:00","-23.5","","-28.5","","64","","","","20","","11","","24.1","","99.36","","","","-32","","Clear"
"-61.68","56.55","NAIN A","8502801","2018-01-20 09:00","2018","01","20","09:00","-21.9","","-27.6","","60","","","","36","","1","","24.1","","99.29","","","","-23","","NA"
"-61.68","56.55","NAIN A","8502801","2018-01-20 10:00","2018","01","20","10:00","-21.2","","-26.8","","61","","","","20","","3","","24.1","","99.22","","","","-24","","NA"
"-61.68","56.55","NAIN A","8502801","2018-01-20 11:00","2018","01","20","11:00","-19.5","","-26.9","","53","","","","29","","5","","24.1","","99.11","","","","-24","","Clear"
"-61.68","56.55","NAIN A","8502801","2018-01-20 12:00","2018","01","20","12:00","-18.7","","-25.5","","56","","","","0","","1","","24.1","","99.02","","","","-20","","NA"
"-61.68","56.55","NAIN A","8502801","2018-01-20 13:00","2018","01","20","13:00","-18.0","","-24.9","","56","","","","21","","21","","24.1","","98.93","","","","-28","","NA"
"-61.68","56.55","NAIN A","8502801","2018-01-20 14:00","2018","01","20","14:00","-17.3","","-24.2","","56","","","","21","","16","","24.1","","98.85","","","","-26","","Clear"
"-61.68","56.55","NAIN A","8502801","2018-01-20 15:00","2018","01","20","15:00","-16.5","","-22.8","","59","","","","22","","12","","24.1","","98.80","","","","-24","","NA"
"-61.68","56.55","NAIN A","8502801","2018-01-20 16:00","2018","01","20","16:00","-17.4","","-23.2","","61","","","","36","","1","","24.1","","98.73","","","","-18","","NA"
"-61.68","56.55","NAIN A","8502801","2018-01-20 17:00","2018","01","20","17:00","-18.4","","-23.3","","66","","","","20","","15","","24.1","","98.66","","","","-27","","Clear"
"-61.68","56.55","NAIN A","8502801","2018-01-20 18:00","2018","01","20","18:00","-18.3","","-23.1","","66","","","","20","","13","","24.1","","98.61","","","","-26","","NA"
"-61.68","56.55","NAIN A","8502801","2018-01-20 19:00","2018","01","20","19:00","-14.4","","-19.4","","67","","","","25","","7","","24.1","","98.56","","","","-19","","NA"
"-61.68","56.55","NAIN A","8502801","2018-01-20 20:00","2018","01","20","20:00","-15.5","","-20.4","","67","","","","22","","18","","24.1","","98.54","","","","-24","","Mostly Cloudy"
"-61.68","56.55","NAIN A","8502801","2018-01-20 21:00","2018","01","20","21:00"
"-61.68","56.55","NAIN A","8502801","2018-01-20 22:00","2018","01","20","22:00"
"-61.68","56.55","NAIN A","8502801","2018-01-20 23:00","2018","01","20","23:00"
"-61.68","56.55","NAIN A","8502801","2018-01-21 00:00","2018","01","21","00:00"
"-61.68","56.55","NAIN A","8502801","2018-01-21 01:00","2018","01","21","01:00"
"-61.68","56.55","NAIN A","8502801","2018-01-21 02:00","2018","01","21","02:00"
"-61.68","56.55","NAIN A","8502801","2018-01-21 03:00","2018","01","21","03:00"
"-61.68","56.55","NAIN A","8502801","2018-01-21 04:00","2018","01","21","04:00"
"-61.68","56.55","NAIN A","8502801","2018-01-21 05:00","2018","01","21","05:00","-7.7","","-10.1","","83","","","","31","","35","","8.1","","98.81","","","","-17","","Snow,Blowing Snow"
"-61.68","56.55","NAIN A","8502801","2018-01-21 06:00","2018","01","21","06:00","-8.3","","-10.7","","83","","","","32","","51","","12.9","","98.90","","","","-20","","Snow Showers,Blowing Snow"
"-61.68","56.55","NAIN A","8502801","2018-01-21 07:00","2018","01","21","07:00","-8.7","","-10.9","","84","","","","33","","45","","17.7","","99.00","","","","-20","","Snow Showers,Blowing Snow"
"-61.68","56.55","NAIN A","8502801","2018-01-21 08:00","2018","01","21","08:00","-8.7","","-12.1","","77","","","","29","","37","","24.1","","99.18","","","","-19","","Snow Showers"
"-61.68","56.55","NAIN A","8502801","2018-01-21 09:00","2018","01","21","09:00","-9.5","","-13.3","","74","","","","33","","27","","24.1","","99.22","","","","-18","","NA"
"-61.68","56.55","NAIN A","8502801","2018-01-21 10:00","2018","01","21","10:00","-10.2","","-14.1","","73","","","","33","","17","","24.1","","99.31","","","","-17","","NA"
"-61.68","56.55","NAIN A","8502801","2018-01-21 11:00","2018","01","21","11:00","-10.6","","-14.1","","76","","","","33","","16","","24.1","","99.36","","","","-18","","Mostly Cloudy"
"-61.68","56.55","NAIN A","8502801","2018-01-21 12:00","2018","01","21","12:00","-11.2","","-15.1","","73","","","","30","","34","","24.1","","99.40","","","","-22","","NA"
"-61.68","56.55","NAIN A","8502801","2018-01-21 13:00","2018","01","21","13:00","-12.5","","-17.6","","66","","","","29","","20","","24.1","","99.45","","","","-21","","NA"
"-61.68","56.55","NAIN A","8502801","2018-01-21 14:00","2018","01","21","14:00","-13.1","","-18.6","","64","","","","28","","28","","24.1","","99.53","","","","-23","","Clear"
"-61.68","56.55","NAIN A","8502801","2018-01-21 15:00","2018","01","21","15:00","-14.2","","-19.4","","65","","","","29","","17","","24.1","","99.60","","","","-22","","NA"
"-61.68","56.55","NAIN A","8502801","2018-01-21 16:00","2018","01","21","16:00","-14.6","","-19.6","","66","","","","28","","12","","24.1","","99.66","","","","-21","","NA"
"-61.68","56.55","NAIN A","8502801","2018-01-21 17:00","2018","01","21","17:00","-14.6","","-19.4","","67","","","","28","","11","","24.1","","99.76","","","","-21","","Mainly Clear"
"-61.68","56.55","NAIN A","8502801","2018-01-21 18:00","2018","01","21","18:00","-14.5","","-19.3","","68","","","","29","","23","","24.1","","99.81","","","","-24","","NA"
"-61.68","56.55","NAIN A","8502801","2018-01-21 19:00","2018","01","21","19:00","-14.8","","-19.7","","67","","","","29","","37","","24.1","","99.84","","","","-27","","NA"
"-61.68","56.55","NAIN A","8502801","2018-01-21 20:00","2018","01","21","20:00","-15.7","","-20.3","","68","","","","30","","43","","24.1","","99.87","","","","-29","","Clear"
"-61.68","56.55","NAIN A","8502801","2018-01-21 21:00","2018","01","21","21:00"
"-61.68","56.55","NAIN A","8502801","2018-01-21 22:00","2018","01","21","22:00"
"-61.68","56.55","NAIN A","8502801","2018-01-21 23:00","2018","01","21","23:00"
"-61.68","56.55","NAIN A","8502801","2018-01-22 00:00","2018","01","22","00:00"
"-61.68","56.55","NAIN A","8502801","2018-01-22 01:00","2018","01","22","01:00"
"-61.68","56.55","NAIN A","8502801","2018-01-22 02:00","2018","01","22","02:00"
"-61.68","56.55","NAIN A","8502801","2018-01-22 03:00","2018","01","22","03:00"
"-61.68","56.55","NAIN A","8502801","2018-01-22 04:00","2018","01","22","04:00"
"-61.68","56.55","NAIN A","8502801","2018-01-22 05:00","2018","01","22","05:00","-17.4","","-22.4","","66","","","","29","","50","","24.1","","100.15","","","","-32","","Blowing Snow"
"-61.68","56.55","NAIN A","8502801","2018-01-22 06:00","2018","01","22","06:00","-17.0","","-22.5","","63","","","","29","","53","","24.1","","100.21","","","","-32","","Blowing Snow"
"-61.68","56.55","NAIN A","8502801","2018-01-22 07:00","2018","01","22","07:00","-18.3","","-23.6","","64","","","","28","","37","","24.1","","100.32","","","","-31","","Blowing Snow"
"-61.68","56.55","NAIN A","8502801","2018-01-22 08:00","2018","01","22","08:00","-18.6","","-23.4","","66","","","","28","","42","","24.1","","100.27","","","","-33","","Mostly Cloudy"
"-61.68","56.55","NAIN A","8502801","2018-01-22 09:00","2018","01","22","09:00","-19.1","","-23.4","","69","","","","29","","48","","24.1","","100.33","","","","-34","","NA"
"-61.68","56.55","NAIN A","8502801","2018-01-22 10:00","2018","01","22","10:00","-18.7","","-23.1","","69","","","","29","","49","","24.1","","100.42","","","","-34","","NA"
"-61.68","56.55","NAIN A","8502801","2018-01-22 11:00","2018","01","22","11:00","-18.7","","-22.6","","72","","","","29","","58","","24.1","","100.45","","","","-34","","Mainly Clear"
"-61.68","56.55","NAIN A","8502801","2018-01-22 12:00","2018","01","22","12:00","-18.0","","-22.5","","68","","","","29","","52","","24.1","","100.51","","","","-33","","NA"
"-61.68","56.55","NAIN A","8502801","2018-01-22 13:00","2018","01","22","13:00","-18.0","","-22.6","","67","","","","29","","49","","24.1","","100.56","","","","-33","","NA"
"-61.68","56.55","NAIN A","8502801","2018-01-22 14:00","2018","01","22","14:00","-18.0","","-23.1","","65","","","","29","","42","","24.1","","100.63","","","","-32","","Mostly Cloudy"
"-61.68","56.55","NAIN A","8502801","2018-01-22 15:00","2018","01","22","15:00","-18.0","","-23.2","","64","","","","28","","45","","24.1","","100.73","","","","-32","","NA"
"-61.68","56.55","NAIN A","8502801","2018-01-22 16:00","2018","01","22","16:00","-18.0","","-23.3","","64","","","","29","","36","","24.1","","100.86","","","","-31","","NA"
"-61.68","56.55","NAIN A","8502801","2018-01-22 17:00","2018","01","22","17:00","-18.1","","-23.3","","64","","","","30","","50","","24.1","","100.89","","","","-33","","Mostly Cloudy"
"-61.68","56.55","NAIN A","8502801","2018-01-22 18:00","2018","01","22","18:00","-19.1","","-23.8","","67","","","","29","","45","","24.1","","101.01","","","","-34","","NA"
"-61.68","56.55","NAIN A","8502801","2018-01-22 19:00","2018","01","22","19:00","-19.1","","-23.9","","67","","","","29","","52","","24.1","","101.09","","","","-34","","Blowing Snow"
"-61.68","56.55","NAIN A","8502801","2018-01-22 20:00","2018","01","22","20:00","-19.3","","-24.1","","66","","","","29","","36","","24.1","","101.19","","","","-33","","Mainly Clear"
"-61.68","56.55","NAIN A","8502801","2018-01-22 21:00","2018","01","22","21:00"
"-61.68","56.55","NAIN A","8502801","2018-01-22 22:00","2018","01","22","22:00"
"-61.68","56.55","NAIN A","8502801","2018-01-22 23:00","2018","01","22","23:00"
"-61.68","56.55","NAIN A","8502801","2018-01-23 00:00","2018","01","23","00:00"
"-61.68","56.55","NAIN A","8502801","2018-01-23 01:00","2018","01","23","01:00"
"-61.68","56.55","NAIN A","8502801","2018-01-23 02:00","2018","01","23","02:00"
"-61.68","56.55","NAIN A","8502801","2018-01-23 03:00","2018","01","23","03:00"
"-61.68","56.55","NAIN A","8502801","2018-01-23 04:00","2018","01","23","04:00"
"-61.68","56.55","NAIN A","8502801","2018-01-23 05:00","2018","01","23","05:00","-19.0","","-24.1","","65","","","","28","","26","","24.1","","101.71","","","","-31","","Cloudy"
"-61.68","56.55","NAIN A","8502801","2018-01-23 06:00","2018","01","23","06:00","-19.3","","-24.4","","65","","","","30","","25","","24.1","","101.76","","","","-31","","NA"
"-61.68","56.55","NAIN A","8502801","2018-01-23 07:00","2018","01","23","07:00","-21.6","","-26.7","","64","","","","22","","13","","24.1","","101.86","","","","-30","","NA"
"-61.68","56.55","NAIN A","8502801","2018-01-23 08:00","2018","01","23","08:00","-20.4","","-25.9","","62","","","","29","","23","","24.1","","101.86","","","","-32","","Clear"
"-61.68","56.55","NAIN A","8502801","2018-01-23 09:00","2018","01","23","09:00","-22.2","","-27.4","","63","","","","22","","12","","24.1","","101.90","","","","-31","","NA"
"-61.68","56.55","NAIN A","8502801","2018-01-23 10:00","2018","01","23","10:00","-20.7","","-26.2","","62","","","","28","","16","","24.1","","101.94","","","","-30","","NA"
"-61.68","56.55","NAIN A","8502801","2018-01-23 11:00","2018","01","23","11:00","-20.9","","-27.3","","58","","","","23","","28","","24.1","","101.96","","","","-33","","Clear"
"-61.68","56.55","NAIN A","8502801","2018-01-23 12:00","2018","01","23","12:00","-19.6","","-26.0","","57","","","","27","","13","","24.1","","101.89","","","","-28","","NA"
"-61.68","56.55","NAIN A","8502801","2018-01-23 13:00","2018","01","23","13:00","-18.9","","-25.7","","56","","","","25","","18","","24.1","","101.84","","","","-29","","NA"
"-61.68","56.55","NAIN A","8502801","2018-01-23 14:00","2018","01","23","14:00","-19.2","","-26.1","","55","","","","23","","18","","24.1","","101.82","","","","-29","","Clear"
"-61.68","56.55","NAIN A","8502801","2018-01-23 15:00","2018","01","23","15:00","-18.4","","-25.4","","55","","","","24","","4","","24.1","","101.87","","","","-22","","NA"
"-61.68","56.55","NAIN A","8502801","2018-01-23 16:00","2018","01","23","16:00","-19.9","","-26.5","","57","","","","22","","9","","24.1","","101.92","","","","-27","","NA"
"-61.68","56.55","NAIN A","8502801","2018-01-23 17:00","2018","01","23","17:00","-19.6","","-26.7","","54","","","","17","","9","","24.1","","101.94","","","","-26","","Mainly Clear"
"-61.68","56.55","NAIN A","8502801","2018-01-23 18:00","2018","01","23","18:00","-20.7","","-25.8","","64","","","","3","","15","","24.1","","101.96","","","","-30","","NA"
"-61.68","56.55","NAIN A","8502801","2018-01-23 19:00","2018","01","23","19:00","-20.4","","-26.2","","60","","","","36","","2","","24.1","","101.98","","","","-22","","NA"
"-61.68","56.55","NAIN A","8502801","2018-01-23 20:00","2018","01","23","20:00","-21.5","","-26.2","","66","","","","28","","6","","24.1","","102.02","","","","-27","","Mainly Clear"
"-61.68","56.55","NAIN A","8502801","2018-01-23 21:00","2018","01","23","21:00"
"-61.68","56.55","NAIN A","8502801","2018-01-23 22:00","2018","01","23","22:00"
"-61.68","56.55","NAIN A","8502801","2018-01-23 23:00","2018","01","23","23:00"
"-61.68","56.55","NAIN A","8502801","2018-01-24 00:00","2018","01","24","00:00"
"-61.68","56.55","NAIN A","8502801","2018-01-24 01:00","2018","01","24","01:00"
"-61.68","56.55","NAIN A","8502801","2018-01-24 02:00","2018","01","24","02:00"
"-61.68","56.55","NAIN A","8502801","2018-01-24 03:00","2018","01","24","03:00"
"-61.68","56.55","NAIN A","8502801","2018-01-24 04:00","2018","01","24","04:00"
"-61.68","56.55","NAIN A","8502801","2018-01-24 05:00","2018","01","24","05:00","-18.8","","-24.2","","63","","","","29","","12","","24.1","","101.51","","","","-27","","Cloudy"
"-61.68","56.55","NAIN A","8502801","2018-01-24 06:00","2018","01","24","06:00","-18.4","","-23.3","","66","","","","30","","8","","19.3","","101.43","","","","-24","","Snow"
"-61.68","56.55","NAIN A","8502801","2018-01-24 07:00","2018","01","24","07:00","-18.3","","-21.4","","77","","","","30","","7","","4.8","","101.29","","","","-24","","Snow"
"-61.68","56.55","NAIN A","8502801","2018-01-24 08:00","2018","01","24","08:00","-18.3","","-20.9","","81","","","","35","","11","","2.4","","101.16","","","","-26","","Snow"
"-61.68","56.55","NAIN A","8502801","2018-01-24 09:00","2018","01","24","09:00","-17.4","","-19.5","","83","","","","34","","14","","1.2","","101.03","","","","-26","","Snow"
"-61.68","56.55","NAIN A","8502801","2018-01-24 10:00","2018","01","24","10:00","-14.7","","-16.4","","87","","","","30","","10","","0.8","","100.94","","","","-21","","Moderate Snow"
"-61.68","56.55","NAIN A","8502801","2018-01-24 11:00","2018","01","24","11:00","-12.2","","-14.1","","86","","","","7","","15","","0.8","","100.78","","","","-19","","Moderate Snow"
"-61.68","56.55","NAIN A","8502801","2018-01-24 12:00","2018","01","24","12:00","-10.6","","-12.3","","87","","","","4","","35","","0.8","","100.52","","","","-21","","Moderate Snow"
"-61.68","56.55","NAIN A","8502801","2018-01-24 13:00","2018","01","24","13:00","-10.9","","-12.6","","87","","","","2","","54","","0.8","","100.23","","","","-23","","Moderate Snow,Blowing Snow"
"-61.68","56.55","NAIN A","8502801","2018-01-24 14:00","2018","01","24","14:00","-10.3","","-12.0","","88","","","","2","","54","","0.8","","100.05","","","","-23","","Moderate Snow,Blowing Snow"
"-61.68","56.55","NAIN A","8502801","2018-01-24 15:00","2018","01","24","15:00","-10.2","","-11.8","","88","","","","2","","58","","0.8","","99.91","","","","-23","","Moderate Snow,Blowing Snow"
"-61.68","56.55","NAIN A","8502801","2018-01-24 16:00","2018","01","24","16:00","-9.3","","-10.5","","91","","","","2","","53","","0.8","","99.78","","","","-21","","Moderate Snow,Blowing Snow"
"-61.68","56.55","NAIN A","8502801","2018-01-24 17:00","2018","01","24","17:00","-9.6","","-10.7","","92","","","","35","","47","","2.0","","99.64","","","","-21","","Snow,Blowing Snow"
"-61.68","56.55","NAIN A","8502801","2018-01-24 18:00","2018","01","24","18:00","-10.3","","-11.5","","91","","","","35","","53","","2.0","","99.50","","","","-22","","Snow,Blowing Snow"
"-61.68","56.55","NAIN A","8502801","2018-01-24 19:00","2018","01","24","19:00","-12.0","","-13.4","","89","","","","33","","49","","2.0","","99.42","","","","-24","","Snow,Blowing Snow"
"-61.68","56.55","NAIN A","8502801","2018-01-24 20:00","2018","01","24","20:00","-12.4","","-13.7","","90","","","","33","","48","","1.6","","99.34","","","","-25","","Snow,Blowing Snow"
"-61.68","56.55","NAIN A","8502801","2018-01-24 21:00","2018","01","24","21:00"
"-61.68","56.55","NAIN A","8502801","2018-01-24 22:00","2018","01","24","22:00"
"-61.68","56.55","NAIN A","8502801","2018-01-24 23:00","2018","01","24","23:00"
"-61.68","56.55","NAIN A","8502801","2018-01-25 00:00","2018","01","25","00:00"
"-61.68","56.55","NAIN A","8502801","2018-01-25 01:00","2018","01","25","01:00"
"-61.68","56.55","NAIN A","8502801","2018-01-25 02:00","2018","01","25","02:00"
"-61.68","56.55","NAIN A","8502801","2018-01-25 03:00","2018","01","25","03:00"
"-61.68","56.55","NAIN A","8502801","2018-01-25 04:00","2018","01","25","04:00"
"-61.68","56.55","NAIN A","8502801","2018-01-25 05:00","2018","01","25","05:00","-9.0","","-11.6","","81","","","","31","","48","","6.4","","99.12","","","","-20","","Snow,Blowing Snow"
"-61.68","56.55","NAIN A","8502801","2018-01-25 06:00","2018","01","25","06:00","-8.7","","-11.1","","83","","","","32","","47","","8.1","","99.15","","","","-20","","Snow,Blowing Snow"
"-61.68","56.55","NAIN A","8502801","2018-01-25 07:00","2018","01","25","07:00","-8.1","","-10.2","","85","","","","32","","49","","4.8","","99.19","","","","-19","","Snow,Blowing Snow"
"-61.68","56.55","NAIN A","8502801","2018-01-25 08:00","2018","01","25","08:00","-7.7","","-10.0","","84","","","","32","","52","","2.4","","99.26","","","","-19","","Snow,Blowing Snow"
"-61.68","56.55","NAIN A","8502801","2018-01-25 09:00","2018","01","25","09:00","-7.4","","-11.0","","75","","","","31","","45","","8.1","","99.34","","","","-18","","Snow,Blowing Snow"
"-61.68","56.55","NAIN A","8502801","2018-01-25 10:00","2018","01","25","10:00","-8.1","","-11.5","","77","","","","30","","50","","24.1","","99.42","","","","-19","","Snow"
"-61.68","56.55","NAIN A","8502801","2018-01-25 11:00","2018","01","25","11:00","-9.7","","-13.2","","75","","","","30","","56","","24.1","","99.49","","","","-22","","Snow,Blowing Snow"
"-61.68","56.55","NAIN A","8502801","2018-01-25 12:00","2018","01","25","12:00","-10.8","","-14.5","","74","","","","29","","49","","24.1","","99.52","","","","-23","","Snow,Blowing Snow"
"-61.68","56.55","NAIN A","8502801","2018-01-25 13:00","2018","01","25","13:00","-11.5","","-15.5","","73","","","","29","","51","","24.1","","99.60","","","","-24","","Snow Showers,Blowing Snow"
"-61.68","56.55","NAIN A","8502801","2018-01-25 14:00","2018","01","25","14:00","-10.9","","-15.9","","67","","","","28","","38","","24.1","","99.70","","","","-22","","Snow Showers,Blowing Snow"
"-61.68","56.55","NAIN A","8502801","2018-01-25 15:00","2018","01","25","15:00","-10.7","","-16.1","","65","","","","29","","43","","24.1","","99.77","","","","-22","","Snow Showers,Blowing Snow"
"-61.68","56.55","NAIN A","8502801","2018-01-25 16:00","2018","01","25","16:00","-11.3","","-16.1","","68","","","","30","","55","","24.1","","99.91","","","","-24","","Snow Showers,Blowing Snow"
"-61.68","56.55","NAIN A","8502801","2018-01-25 17:00","2018","01","25","17:00","-12.1","","-16.8","","68","","","","30","","45","","24.1","","100.02","","","","-24","","Blowing Snow"
"-61.68","56.55","NAIN A","8502801","2018-01-25 18:00","2018","01","25","18:00","-12.4","","-17.0","","69","","","","30","","66","","24.1","","100.12","","","","-26","","Blowing Snow"
"-61.68","56.55","NAIN A","8502801","2018-01-25 19:00","2018","01","25","19:00","-13.2","","-18.4","","65","","","","29","","47","","24.1","","100.31","","","","-26","","Blowing Snow"
"-61.68","56.55","NAIN A","8502801","2018-01-25 20:00","2018","01","25","20:00","-13.9","","-19.3","","64","","","","29","","40","","24.1","","100.38","","","","-26","","Blowing Snow"
"-61.68","56.55","NAIN A","8502801","2018-01-25 21:00","2018","01","25","21:00"
"-61.68","56.55","NAIN A","8502801","2018-01-25 22:00","2018","01","25","22:00"
"-61.68","56.55","NAIN A","8502801","2018-01-25 23:00","2018","01","25","23:00"
"-61.68","56.55","NAIN A","8502801","2018-01-26 00:00","2018","01","26","00:00"
"-61.68","56.55","NAIN A","8502801","2018-01-26 01:00","2018","01","26","01:00"
"-61.68","56.55","NAIN A","8502801","2018-01-26 02:00","2018","01","26","02:00"
"-61.68","56.55","NAIN A","8502801","2018-01-26 03:00","2018","01","26","03:00"
"-61.68","56.55","NAIN A","8502801","2018-01-26 04:00","2018","01","26","04:00"
"-61.68","56.55","NAIN A","8502801","2018-01-26 05:00","2018","01","26","05:00","-20.6","","-26.5","","60","","","","29","","37","","24.1","","101.23","","","","-34","","Clear"
"-61.68","56.55","NAIN A","8502801","2018-01-26 06:00","2018","01","26","06:00","-20.4","","-27.4","","54","","","","21","","9","","24.1","","101.35","","","","-27","","NA"
"-61.68","56.55","NAIN A","8502801","2018-01-26 07:00","2018","01","26","07:00","-21.2","","-27.0","","60","","","","29","","49","","24.1","","101.41","","","","-37","","NA"
"-61.68","56.55","NAIN A","8502801","2018-01-26 08:00","2018","01","26","08:00","-21.9","","-27.4","","61","","","","28","","36","","24.1","","101.53","","","","-36","","Clear"
"-61.68","56.55","NAIN A","8502801","2018-01-26 09:00","2018","01","26","09:00","-22.4","","-27.5","","64","","","","30","","48","","24.1","","101.52","","","","-38","","NA"
"-61.68","56.55","NAIN A","8502801","2018-01-26 10:00","2018","01","26","10:00","-21.7","","-27.5","","60","","","","28","","39","","24.1","","101.64","","","","-36","","NA"
"-61.68","56.55","NAIN A","8502801","2018-01-26 11:00","2018","01","26","11:00","-22.1","","-26.6","","67","","","","29","","46","","24.1","","101.65","","","","-38","","Blowing Snow"
"-61.68","56.55","NAIN A","8502801","2018-01-26 12:00","2018","01","26","12:00","-22.7","","-27.1","","68","","","","29","","52","","24.1","","101.72","","","","-39","","Blowing Snow"
"-61.68","56.55","NAIN A","8502801","2018-01-26 13:00","2018","01","26","13:00","-22.3","","-27.0","","66","","","","29","","47","","24.1","","101.74","","","","-38","","Blowing Snow"
"-61.68","56.55","NAIN A","8502801","2018-01-26 14:00","2018","01","26","14:00","-21.3","","-26.1","","66","","","","29","","50","","24.1","","101.75","","","","-37","","Blowing Snow"
"-61.68","56.55","NAIN A","8502801","2018-01-26 15:00","2018","01","26","15:00","-21.3","","-26.0","","66","","","","30","","58","","24.1","","101.85","","","","-38","","Blowing Snow"
"-61.68","56.55","NAIN A","8502801","2018-01-26 16:00","2018","01","26","16:00","-21.8","","-26.8","","64","","","","30","","40","","24.1","","101.96","","","","-37","","Blowing Snow"
"-61.68","56.55","NAIN A","8502801","2018-01-26 17:00","2018","01","26","17:00","-22.3","","-27.1","","65","","","","29","","43","","24.1","","102.00","","","","-38","","Blowing Snow"
"-61.68","56.55","NAIN A","8502801","2018-01-26 18:00","2018","01","26","18:00","-22.4","","-27.1","","66","","","","29","","49","","24.1","","102.05","","","","-39","","Blowing Snow"
"-61.68","56.55","NAIN A","8502801","2018-01-26 19:00","2018","01","26","19:00","-22.5","","-27.6","","64","","","","29","","41","","24.1","","102.13","","","","-38","","Blowing Snow"
"-61.68","56.55","NAIN A","8502801","2018-01-26 20:00","2018","01","26","20:00","-22.1","","-27.9","","60","","","","30","","48","","24.1","","102.15","","","","-38","","Blowing Snow"
"-61.68","56.55","NAIN A","8502801","2018-01-26 21:00","2018","01","26","21:00"
"-61.68","56.55","NAIN A","8502801","2018-01-26 22:00","2018","01","26","22:00"
"-61.68","56.55","NAIN A","8502801","2018-01-26 23:00","2018","01","26","23:00"
"-61.68","56.55","NAIN A","8502801","2018-01-27 00:00","2018","01","27","00:00"
"-61.68","56.55","NAIN A","8502801","2018-01-27 01:00","2018","01","27","01:00"
"-61.68","56.55","NAIN A","8502801","2018-01-27 02:00","2018","01","27","02:00"
"-61.68","56.55","NAIN A","8502801","2018-01-27 03:00","2018","01","27","03:00"
"-61.68","56.55","NAIN A","8502801","2018-01-27 04:00","2018","01","27","04:00"
"-61.68","56.55","NAIN A","8502801","2018-01-27 05:00","2018","01","27","05:00","-23.5","","-29.1","","61","","","","21","","9","","24.1","","102.24","","","","-31","","Clear"
"-61.68","56.55","NAIN A","8502801","2018-01-27 06:00","2018","01","27","06:00","-22.9","","-28.3","","62","","","","10","","9","","24.1","","102.18","","","","-30","","NA"
"-61.68","56.55","NAIN A","8502801","2018-01-27 07:00","2018","01","27","07:00","-23.2","","-28.8","","61","","","","20","","15","","24.1","","102.20","","","","-33","","NA"
"-61.68","56.55","NAIN A","8502801","2018-01-27 08:00","2018","01","27","08:00","-23.4","","-28.6","","63","","","","25","","14","","24.1","","102.16","","","","-33","","Clear"
"-61.68","56.55","NAIN A","8502801","2018-01-27 09:00","2018","01","27","09:00","-23.1","","-28.2","","64","","","","19","","7","","24.1","","102.15","","","","-29","","NA"
"-61.68","56.55","NAIN A","8502801","2018-01-27 10:00","2018","01","27","10:00","-21.5","","-27.1","","61","","","","25","","7","","24.1","","102.12","","","","-27","","NA"
"-61.68","56.55","NAIN A","8502801","2018-01-27 11:00","2018","01","27","11:00","-21.7","","-27.6","","59","","","","22","","9","","24.1","","102.01","","","","-29","","Mainly Clear"
"-61.68","56.55","NAIN A","8502801","2018-01-27 12:00","2018","01","27","12:00","-21.3","","-27.3","","59","","","","36","","3","","24.1","","101.91","","","","-24","","NA"
"-61.68","56.55","NAIN A","8502801","2018-01-27 13:00","2018","01","27","13:00","-20.8","","-26.9","","58","","","","21","","4","","24.1","","101.82","","","","-24","","NA"
"-61.68","56.55","NAIN A","8502801","2018-01-27 14:00","2018","01","27","14:00","-20.9","","-26.4","","62","","","","3","","5","","24.1","","101.67","","","","-25","","Mostly Cloudy"
"-61.68","56.55","NAIN A","8502801","2018-01-27 15:00","2018","01","27","15:00","-21.1","","-25.9","","66","","","","0","","1","","24.1","","101.56","","","","-22","","NA"
"-61.68","56.55","NAIN A","8502801","2018-01-27 16:00","2018","01","27","16:00","-21.0","","-26.7","","61","","","","20","","8","","24.1","","101.51","","","","-27","","NA"
"-61.68","56.55","NAIN A","8502801","2018-01-27 17:00","2018","01","27","17:00","-21.0","","-26.2","","64","","","","20","","9","","24.1","","101.44","","","","-28","","Mostly Cloudy"
"-61.68","56.55","NAIN A","8502801","2018-01-27 18:00","2018","01","27","18:00","-20.8","","-25.9","","64","","","","16","","4","","24.1","","101.30","","","","-24","","NA"
"-61.68","56.55","NAIN A","8502801","2018-01-27 19:00","2018","01","27","19:00","-20.6","","-24.5","","71","","","","7","","7","","22.5","","101.18","","","","-26","","Snow"
"-61.68","56.55","NAIN A","8502801","2018-01-27 20:00","2018","01","27","20:00","-20.8","","-23.9","","76","","","","29","","14","","6.4","","101.06","","","","-30","","Snow"
"-61.68","56.55","NAIN A","8502801","2018-01-27 21:00","2018","01","27","21:00"
"-61.68","56.55","NAIN A","8502801","2018-01-27 22:00","2018","01","27","22:00"
"-61.68","56.55","NAIN A","8502801","2018-01-27 23:00","2018","01","27","23:00"
"-61.68","56.55","NAIN A","8502801","2018-01-28 00:00","2018","01","28","00:00"
"-61.68","56.55","NAIN A","8502801","2018-01-28 01:00","2018","01","28","01:00"
"-61.68","56.55","NAIN A","8502801","2018-01-28 02:00","2018","01","28","02:00"
"-61.68","56.55","NAIN A","8502801","2018-01-28 03:00","2018","01","28","03:00"
"-61.68","56.55","NAIN A","8502801","2018-01-28 04:00","2018","01","28","04:00"
"-61.68","56.55","NAIN A","8502801","2018-01-28 05:00","2018","01","28","05:00","-18.9","","-21.9","","77","","","","29","","13","","11.3","","100.17","","","","-27","","Snow"
"-61.68","56.55","NAIN A","8502801","2018-01-28 06:00","2018","01","28","06:00","-18.6","","-21.6","","77","","","","30","","12","","11.3","","100.09","","","","-26","","Snow"
"-61.68","56.55","NAIN A","8502801","2018-01-28 07:00","2018","01","28","07:00","-18.4","","-21.4","","78","","","","30","","12","","8.1","","100.07","","","","-26","","Snow"
"-61.68","56.55","NAIN A","8502801","2018-01-28 08:00","2018","01","28","08:00","-18.1","","-21.1","","78","","","","29","","8","","6.4","","100.06","","","","-24","","Snow"
"-61.68","56.55","NAIN A","8502801","2018-01-28 09:00","2018","01","28","09:00","-18.2","","-21.1","","78","","","","30","","10","","9.7","","100.02","","","","-25","","Snow"
"-61.68","56.55","NAIN A","8502801","2018-01-28 10:00","2018","01","28","10:00","-18.1","","-21.0","","78","","","","29","","11","","11.3","","100.01","","","","-25","","Snow"
"-61.68","56.55","NAIN A","8502801","2018-01-28 11:00","2018","01","28","11:00","-17.2","","-20.4","","77","","","","29","","10","","12.9","","99.99","","","","-24","","Snow"
"-61.68","56.55","NAIN A","8502801","2018-01-28 12:00","2018","01","28","12:00","-17.0","","-20.2","","77","","","","28","","20","","8.1","","99.92","","","","-27","","Snow"
"-61.68","56.55","NAIN A","8502801","2018-01-28 13:00","2018","01","28","13:00","-16.6","","-19.9","","75","","","","29","","15","","24.1","","99.89","","","","-25","","Snow"
"-61.68","56.55","NAIN A","8502801","2018-01-28 14:00","2018","01","28","14:00","-15.9","","-19.5","","74","","","","28","","21","","8.1","","99.92","","","","-26","","Snow"
"-61.68","56.55","NAIN A","8502801","2018-01-28 15:00","2018","01","28","15:00","-16.9","","-20.1","","76","","","","29","","18","","24.1","","100.00","","","","-26","","Snow"
"-61.68","56.55","NAIN A","8502801","2018-01-28 16:00","2018","01","28","16:00","-15.6","","-19.2","","74","","","","27","","16","","24.1","","100.07","","","","-24","","NA"
"-61.68","56.55","NAIN A","8502801","2018-01-28 17:00","2018","01","28","17:00","-15.8","","-19.7","","73","","","","25","","10","","19.3","","100.10","","","","-22","","Snow"
"-61.68","56.55","NAIN A","8502801","2018-01-28 18:00","2018","01","28","18:00","-15.5","","-20.0","","69","","","","28","","29","","16.1","","100.17","","","","-27","","Snow"
"-61.68","56.55","NAIN A","8502801","2018-01-28 19:00","2018","01","28","19:00","-15.9","","-20.2","","70","","","","29","","36","","24.1","","100.20","","","","-28","","Snow Showers"
"-61.68","56.55","NAIN A","8502801","2018-01-28 20:00","2018","01","28","20:00","-15.7","","-19.8","","72","","","","29","","47","","24.1","","100.21","","","","-29","","Snow Showers,Blowing Snow"
"-61.68","56.55","NAIN A","8502801","2018-01-28 21:00","2018","01","28","21:00"
"-61.68","56.55","NAIN A","8502801","2018-01-28 22:00","2018","01","28","22:00"
"-61.68","56.55","NAIN A","8502801","2018-01-28 23:00","2018","01","28","23:00"
"-61.68","56.55","NAIN A","8502801","2018-01-29 00:00","2018","01","29","00:00"
"-61.68","56.55","NAIN A","8502801","2018-01-29 01:00","2018","01","29","01:00"
"-61.68","56.55","NAIN A","8502801","2018-01-29 02:00","2018","01","29","02:00"
"-61.68","56.55","NAIN A","8502801","2018-01-29 03:00","2018","01","29","03:00"
"-61.68","56.55","NAIN A","8502801","2018-01-29 04:00","2018","01","29","04:00"
"-61.68","56.55","NAIN A","8502801","2018-01-29 05:00","2018","01","29","05:00","-19.6","","-23.6","","71","","","","30","","72","","1.6","","100.62","","","","-37","","Snow,Blowing Snow"
"-61.68","56.55","NAIN A","8502801","2018-01-29 06:00","2018","01","29","06:00","-20.2","","-23.7","","74","","","","28","","62","","2.4","","100.76","","","","-37","","Snow,Blowing Snow"
"-61.68","56.55","NAIN A","8502801","2018-01-29 07:00","2018","01","29","07:00","-20.4","","-24.2","","72","","","","28","","70","","4.8","","100.89","","","","-38","","Snow,Blowing Snow"
"-61.68","56.55","NAIN A","8502801","2018-01-29 08:00","2018","01","29","08:00","-20.5","","-24.3","","72","","","","29","","70","","4.8","","100.92","","","","-38","","Snow,Blowing Snow"
"-61.68","56.55","NAIN A","8502801","2018-01-29 09:00","2018","01","29","09:00","-20.9","","-24.8","","72","","","","29","","68","","4.8","","101.06","","","","-38","","Snow,Blowing Snow"
"-61.68","56.55","NAIN A","8502801","2018-01-29 10:00","2018","01","29","10:00","-21.2","","-25.5","","69","","","","29","","54","","8.1","","101.19","","","","-37","","Snow,Blowing Snow"
"-61.68","56.55","NAIN A","8502801","2018-01-29 11:00","2018","01","29","11:00","-20.5","","-25.2","","67","","","","29","","45","","19.3","","101.30","","","","-35","","Snow,Blowing Snow"
"-61.68","56.55","NAIN A","8502801","2018-01-29 12:00","2018","01","29","12:00","-21.0","","-25.3","","69","","","","28","","53","","24.1","","101.38","","","","-37","","Blowing Snow"
"-61.68","56.55","NAIN A","8502801","2018-01-29 13:00","2018","01","29","13:00","-21.1","","-25.5","","68","","","","28","","57","","14.5","","101.46","","","","-38","","Blowing Snow"
"-61.68","56.55","NAIN A","8502801","2018-01-29 14:00","2018","01","29","14:00","-21.4","","-25.8","","68","","","","28","","57","","20.9","","101.54","","","","-38","","Blowing Snow"
"-61.68","56.55","NAIN A","8502801","2018-01-29 15:00","2018","01","29","15:00","-21.6","","-26.3","","67","","","","29","","50","","20.9","","101.68","","","","-38","","Blowing Snow"
"-61.68","56.55","NAIN A","8502801","2018-01-29 16:00","2018","01","29","16:00","-21.4","","-26.3","","65","","","","29","","53","","24.1","","101.80","","","","-38","","Blowing Snow"
"-61.68","56.55","NAIN A","8502801","2018-01-29 17:00","2018","01","29","17:00","-21.4","","-26.7","","63","","","","29","","45","","24.1","","101.95","","","","-37","","Blowing Snow"
"-61.68","56.55","NAIN A","8502801","2018-01-29 18:00","2018","01","29","18:00","-21.6","","-26.7","","64","","","","29","","50","","24.1","","102.10","","","","-38","","Blowing Snow"
"-61.68","56.55","NAIN A","8502801","2018-01-29 19:00","2018","01","29","19:00","-21.6","","-26.8","","64","","","","28","","50","","24.1","","102.23","","","","-38","","Blowing Snow"
"-61.68","56.55","NAIN A","8502801","2018-01-29 20:00","2018","01","29","20:00","-21.6","","-26.5","","65","","","","28","","58","","24.1","","102.27","","","","-38","","Blowing Snow"
"-61.68","56.55","NAIN A","8502801","2018-01-29 21:00","2018","01","29","21:00"
"-61.68","56.55","NAIN A","8502801","2018-01-29 22:00","2018","01","29","22:00"
"-61.68","56.55","NAIN A","8502801","2018-01-29 23:00","2018","01","29","23:00"
"-61.68","56.55","NAIN A","8502801","2018-01-30 00:00","2018","01","30","00:00"
"-61.68","56.55","NAIN A","8502801","2018-01-30 01:00","2018","01","30","01:00"
"-61.68","56.55","NAIN A","8502801","2018-01-30 02:00","2018","01","30","02:00"
"-61.68","56.55","NAIN A","8502801","2018-01-30 03:00","2018","01","30","03:00"
"-61.68","56.55","NAIN A","8502801","2018-01-30 04:00","2018","01","30","04:00"
"-61.68","56.55","NAIN A","8502801","2018-01-30 05:00","2018","01","30","05:00","-22.4","","-29.4","","54","","","","24","","6","","24.1","","102.91","","","","-28","","Clear"
"-61.68","56.55","NAIN A","8502801","2018-01-30 06:00","2018","01","30","06:00","-22.6","","-29.1","","57","","","","27","","20","","24.1","","102.92","","","","-34","","NA"
"-61.68","56.55","NAIN A","8502801","2018-01-30 07:00","2018","01","30","07:00","-23.8","","-29.9","","58","","","","22","","14","","24.1","","103.00","","","","-33","","NA"
"-61.68","56.55","NAIN A","8502801","2018-01-30 08:00","2018","01","30","08:00","-22.2","","-29.2","","54","","","","25","","16","","24.1","","103.03","","","","-32","","Clear"
"-61.68","56.55","NAIN A","8502801","2018-01-30 09:00","2018","01","30","09:00","-23.6","","-29.8","","58","","","","24","","27","","24.1","","103.06","","","","-37","","NA"
"-61.68","56.55","NAIN A","8502801","2018-01-30 10:00","2018","01","30","10:00","-23.0","","-29.3","","57","","","","36","","1","","24.1","","103.06","","","","-24","","NA"
"-61.68","56.55","NAIN A","8502801","2018-01-30 11:00","2018","01","30","11:00","-21.6","","-28.2","","56","","","","29","","29","","24.1","","103.05","","","","-34","","Clear"
"-61.68","56.55","NAIN A","8502801","2018-01-30 12:00","2018","01","30","12:00","-21.4","","-28.5","","53","","","","23","","12","","24.1","","103.04","","","","-30","","NA"
"-61.68","56.55","NAIN A","8502801","2018-01-30 13:00","2018","01","30","13:00","-20.9","","-28.0","","54","","","","27","","4","","24.1","","103.01","","","","-24","","NA"
"-61.68","56.55","NAIN A","8502801","2018-01-30 14:00","2018","01","30","14:00","-21.2","","-27.6","","57","","","","28","","13","","24.1","","102.95","","","","-30","","Clear"
"-61.68","56.55","NAIN A","8502801","2018-01-30 15:00","2018","01","30","15:00","-21.1","","-27.8","","56","","","","23","","13","","24.1","","102.97","","","","-30","","NA"
"-61.68","56.55","NAIN A","8502801","2018-01-30 16:00","2018","01","30","16:00","-21.7","","-27.9","","58","","","","27","","9","","24.1","","102.94","","","","-29","","NA"
"-61.68","56.55","NAIN A","8502801","2018-01-30 17:00","2018","01","30","17:00","-22.1","","-28.4","","57","","","","29","","8","","24.1","","102.94","","","","-29","","Mainly Clear"
"-61.68","56.55","NAIN A","8502801","2018-01-30 18:00","2018","01","30","18:00","-21.7","","-27.6","","60","","","","28","","22","","24.1","","102.94","","","","-33","","NA"
"-61.68","56.55","NAIN A","8502801","2018-01-30 19:00","2018","01","30","19:00","-21.8","","-28.2","","57","","","","31","","7","","24.1","","102.91","","","","-28","","NA"
"-61.68","56.55","NAIN A","8502801","2018-01-30 20:00","2018","01","30","20:00","-23.4","","-29.0","","61","","","","14","","8","","24.1","","102.88","","","","-30","","Mostly Cloudy"
"-61.68","56.55","NAIN A","8502801","2018-01-30 21:00","2018","01","30","21:00"
"-61.68","56.55","NAIN A","8502801","2018-01-30 22:00","2018","01","30","22:00"
"-61.68","56.55","NAIN A","8502801","2018-01-30 23:00","2018","01","30","23:00"
"-61.68","56.55","NAIN A","8502801","2018-01-31 00:00","2018","01","31","00:00"
"-61.68","56.55","NAIN A","8502801","2018-01-31 01:00","2018","01","31","01:00"
"-61.68","56.55","NAIN A","8502801","2018-01-31 02:00","2018","01","31","02:00"
"-61.68","56.55","NAIN A","8502801","2018-01-31 03:00","2018","01","31","03:00"
"-61.68","56.55","NAIN A","8502801","2018-01-31 04:00","2018","01","31","04:00"
"-61.68","56.55","NAIN A","8502801","2018-01-31 05:00","2018","01","31","05:00","-22.7","","-27.6","","65","","","","30","","28","","24.1","","102.23","","","","-36","","Mostly Cloudy"
"-61.68","56.55","NAIN A","8502801","2018-01-31 06:00","2018","01","31","06:00","-22.2","","-27.5","","63","","","","30","","33","","24.1","","102.16","","","","-36","","NA"
"-61.68","56.55","NAIN A","8502801","2018-01-31 07:00","2018","01","31","07:00","-21.6","","-27.0","","62","","","","31","","32","","24.1","","102.11","","","","-35","","NA"
"-61.68","56.55","NAIN A","8502801","2018-01-31 08:00","2018","01","31","08:00","-21.3","","-25.5","","69","","","","30","","40","","4.8","","101.96","","","","-36","","Snow"
"-61.68","56.55","NAIN A","8502801","2018-01-31 09:00","2018","01","31","09:00","-20.8","","-24.2","","75","","","","31","","42","","2.0","","101.72","","","","-35","","Snow,Blowing Snow"
"-61.68","56.55","NAIN A","8502801","2018-01-31 10:00","2018","01","31","10:00","-19.9","","-23.1","","76","","","","30","","36","","2.0","","101.54","","","","-33","","Snow,Blowing Snow"
"-61.68","56.55","NAIN A","8502801","2018-01-31 11:00","2018","01","31","11:00","-18.8","","-22.2","","75","","","","30","","40","","2.4","","101.37","","","","-33","","Snow,Blowing Snow"
"-61.68","56.55","NAIN A","8502801","2018-01-31 12:00","2018","01","31","12:00","-17.8","","-21.1","","76","","","","30","","41","","1.6","","101.19","","","","-31","","Snow,Blowing Snow"
"-61.68","56.55","NAIN A","8502801","2018-01-31 13:00","2018","01","31","13:00","-17.5","","-20.7","","77","","","","32","","58","","1.6","","100.87","","","","-33","","Snow,Blowing Snow"
"-61.68","56.55","NAIN A","8502801","2018-01-31 14:00","2018","01","31","14:00","-17.3","","-21.1","","73","","","","31","","42","","12.9","","100.76","","","","-31","","Snow,Blowing Snow"
"-61.68","56.55","NAIN A","8502801","2018-01-31 15:00","2018","01","31","15:00","-16.8","","-20.6","","73","","","","31","","52","","11.3","","100.63","","","","-31","","Snow,Blowing Snow"
"-61.68","56.55","NAIN A","8502801","2018-01-31 16:00","2018","01","31","16:00","-16.5","","-20.1","","74","","","","31","","54","","11.3","","100.54","","","","-31","","Snow,Blowing Snow"
"-61.68","56.55","NAIN A","8502801","2018-01-31 17:00","2018","01","31","17:00","-16.4","","-20.3","","72","","","","31","","60","","22.5","","100.46","","","","-31","","Blowing Snow"
"-61.68","56.55","NAIN A","8502801","2018-01-31 18:00","2018","01","31","18:00","-16.2","","-20.3","","71","","","","30","","60","","22.5","","100.43","","","","-31","","Blowing Snow"
"-61.68","56.55","NAIN A","8502801","2018-01-31 19:00","2018","01","31","19:00","-15.8","","-20.4","","68","","","","30","","59","","20.9","","100.37","","","","-31","","Blowing Snow"
"-61.68","56.55","NAIN A","8502801","2018-01-31 20:00","2018","01","31","20:00","-15.3","","-20.4","","65","","","","32","","59","","24.1","","100.31","","","","-30","","Blowing Snow"
"-61.68","56.55","NAIN A","8502801","2018-01-31 21:00","2018","01","31","21:00"
"-61.68","56.55","NAIN A","8502801","2018-01-31 22:00","2018","01","31","22:00"
"-61.68","56.55","NAIN A","8502801","2018-01-31 23:00","2018","01","31","23:00"
