"Longitude (x)","Latitude (y)","Station Name","Climate ID","Date/Time (LST)","Year","Month","Day","Time (LST)","Temp (°C)","Temp Flag","Dew Point Temp (°C)","Dew Point Temp Flag","Rel Hum (%)","Rel Hum Flag","Precip. Amount (mm)","Precip. Amount Flag","Wind Dir (10s deg)","Wind Dir Flag","Wind Spd (km/h)","Wind Spd Flag","Visibility (km)","Visibility Flag","Stn Press (kPa)","Stn Press Flag","Hmdx","Hmdx Flag","Wind Chill","Wind Chill Flag","Weather"
"-61.68","56.55","NAIN A","8502801","2019-02-01 00:00","2019","02","01","00:00"
"-61.68","56.55","NAIN A","8502801","2019-02-01 01:00","2019","02","01","01:00"
"-61.68","56.55","NAIN A","8502801","2019-02-01 02:00","2019","02","01","02:00"
"-61.68","56.55","NAIN A","8502801","2019-02-01 03:00","2019","02","01","03:00"
"-61.68","56.55","NAIN A","8502801","2019-02-01 04:00","2019","02","01","04:00"
"-61.68","56.55","NAIN A","8502801","2019-02-01 05:00","2019","02","01","05:00","-23.1","","-28.5","","62","","","","26","","39","","24.1","","98.72","","","","-38","","Clear"
"-61.68","56.55","NAIN A","8502801","2019-02-01 06:00","2019","02","01","06:00","-24.1","","-30.1","","58","","","","27","","32","","24.1","","98.74","","","","-38","","NA"
"-61.68","56.55","NAIN A","8502801","2019-02-01 07:00","2019","02","01","07:00","-25.0","","-31.0","","58","","","","27","","31","","24.1","","98.74","","","","-39","","NA"
"-61.68","56.55","NAIN A","8502801","2019-02-01 08:00","2019","02","01","08:00","-25.7","","-31.8","","58","","","","26","","32","","24.1","","98.78","","","","-40","","Clear"
"-61.68","56.55","NAIN A","8502801","2019-02-01 09:00","2019","02","01","09:00","-26.2","","-32.3","","57","","","","25","","28","","24.1","","98.80","","","","-40","","NA"
"-61.68","56.55","NAIN A","8502801","2019-02-01 10:00","2019","02","01","10:00","-26.1","","-32.9","","54","","","","25","","32","","24.1","","98.85","","","","-41","","NA"
"-61.68","56.55","NAIN A","8502801","2019-02-01 11:00","2019","02","01","11:00","-26.1","","-33.1","","53","","","","26","","38","","24.1","","98.85","","","","-42","","Clear"
"-61.68","56.55","NAIN A","8502801","2019-02-01 12:00","2019","02","01","12:00","-26.0","","-32.9","","53","","","","26","","34","","24.1","","98.78","","","","-41","","NA"
"-61.68","56.55","NAIN A","8502801","2019-02-01 13:00","2019","02","01","13:00","-26.1","","-32.7","","55","","","","26","","32","","24.1","","98.71","","","","-41","","NA"
"-61.68","56.55","NAIN A","8502801","2019-02-01 14:00","2019","02","01","14:00","-26.1","","-32.8","","54","","","","26","","28","","24.1","","98.70","","","","-40","","Clear"
"-61.68","56.55","NAIN A","8502801","2019-02-01 15:00","2019","02","01","15:00","-26.1","","-32.6","","55","","","","27","","27","","24.1","","98.74","","","","-40","","NA"
"-61.68","56.55","NAIN A","8502801","2019-02-01 16:00","2019","02","01","16:00","-26.1","","-32.5","","56","","","","26","","21","","24.1","","98.75","","","","-38","","NA"
"-61.68","56.55","NAIN A","8502801","2019-02-01 17:00","2019","02","01","17:00","-26.2","","-32.7","","55","","","","26","","18","","24.1","","98.76","","","","-38","","Mainly Clear"
"-61.68","56.55","NAIN A","8502801","2019-02-01 18:00","2019","02","01","18:00","-26.2","","-32.7","","55","","","","25","","15","","24.1","","98.77","","","","-37","","NA"
"-61.68","56.55","NAIN A","8502801","2019-02-01 19:00","2019","02","01","19:00","-25.8","","-32.5","","55","","","","26","","21","","24.1","","98.73","","","","-38","","NA"
"-61.68","56.55","NAIN A","8502801","2019-02-01 20:00","2019","02","01","20:00","-25.5","","-32.0","","56","","","","25","","30","","24.1","","98.65","","","","-40","","Clear"
"-61.68","56.55","NAIN A","8502801","2019-02-01 21:00","2019","02","01","21:00"
"-61.68","56.55","NAIN A","8502801","2019-02-01 22:00","2019","02","01","22:00"
"-61.68","56.55","NAIN A","8502801","2019-02-01 23:00","2019","02","01","23:00"
"-61.68","56.55","NAIN A","8502801","2019-02-02 00:00","2019","02","02","00:00"
"-61.68","56.55","NAIN A","8502801","2019-02-02 01:00","2019","02","02","01:00"
"-61.68","56.55","NAIN A","8502801","2019-02-02 02:00","2019","02","02","02:00"
"-61.68","56.55","NAIN A","8502801","2019-02-02 03:00","2019","02","02","03:00"
"-61.68","56.55","NAIN A","8502801","2019-02-02 04:00","2019","02","02","04:00"
"-61.68","56.55","NAIN A","8502801","2019-02-02 05:00","2019","02","02","05:00","-30.6","","-34.8","","68","","","","30","","3","","24.1","","98.59","","","","-34","","Clear"
"-61.68","56.55","NAIN A","8502801","2019-02-02 06:00","2019","02","02","06:00","-29.2","","-33.3","","68","","","","36","","3","","24.1","","98.60","","","","-33","","NA"
"-61.68","56.55","NAIN A","8502801","2019-02-02 07:00","2019","02","02","07:00","-28.9","","-32.5","","72","","","","36","","1","","24.1","","98.61","","","","-30","","NA"
"-61.68","56.55","NAIN A","8502801","2019-02-02 08:00","2019","02","02","08:00","-30.0","","-34.0","","69","","","","36","","2","","24.1","","98.61","","","","-32","","Mainly Clear"
"-61.68","56.55","NAIN A","8502801","2019-02-02 09:00","2019","02","02","09:00","-29.8","","-34.1","","67","","","","36","","1","","24.1","","98.63","","","","-31","","NA"
"-61.68","56.55","NAIN A","8502801","2019-02-02 10:00","2019","02","02","10:00","-25.2","","-31.5","","57","","","","36","","2","","24.1","","98.60","","","","-27","","NA"
"-61.68","56.55","NAIN A","8502801","2019-02-02 11:00","2019","02","02","11:00","-24.4","","-30.6","","58","","","","34","","5","","24.1","","98.57","","","","-29","","Mainly Clear"
"-61.68","56.55","NAIN A","8502801","2019-02-02 12:00","2019","02","02","12:00","-22.1","","-28.3","","58","","","","13","","3","","24.1","","98.54","","","","-25","","NA"
"-61.68","56.55","NAIN A","8502801","2019-02-02 13:00","2019","02","02","13:00","-23.1","","-28.4","","62","","","","29","","8","","24.1","","98.56","","","","-30","","NA"
"-61.68","56.55","NAIN A","8502801","2019-02-02 14:00","2019","02","02","14:00","-23.3","","-27.5","","69","","","","34","","10","","24.1","","98.59","","","","-31","","Cloudy"
"-61.68","56.55","NAIN A","8502801","2019-02-02 15:00","2019","02","02","15:00","-21.3","","-25.7","","68","","","","3","","3","","24.1","","98.62","","","","-24","","NA"
"-61.68","56.55","NAIN A","8502801","2019-02-02 16:00","2019","02","02","16:00","-20.7","","-24.3","","73","","","","1","","6","","24.1","","98.66","","","","-26","","NA"
"-61.68","56.55","NAIN A","8502801","2019-02-02 17:00","2019","02","02","17:00","-19.4","","-22.1","","79","","","","4","","5","","4.8","","98.70","","","","-24","","Snow"
"-61.68","56.55","NAIN A","8502801","2019-02-02 18:00","2019","02","02","18:00","-19.5","","-22.3","","79","","","","1","","3","","6.4","","98.76","","","","-22","","Snow"
"-61.68","56.55","NAIN A","8502801","2019-02-02 19:00","2019","02","02","19:00","-16.3","","-19.4","","77","","","","29","","14","","11.3","","98.78","","","","-24","","Snow"
"-61.68","56.55","NAIN A","8502801","2019-02-02 20:00","2019","02","02","20:00","-20.2","","-23.0","","79","","","","36","","12","","8.1","","98.82","","","","-28","","Snow"
"-61.68","56.55","NAIN A","8502801","2019-02-02 21:00","2019","02","02","21:00"
"-61.68","56.55","NAIN A","8502801","2019-02-02 22:00","2019","02","02","22:00"
"-61.68","56.55","NAIN A","8502801","2019-02-02 23:00","2019","02","02","23:00"
"-61.68","56.55","NAIN A","8502801","2019-02-03 00:00","2019","02","03","00:00"
"-61.68","56.55","NAIN A","8502801","2019-02-03 01:00","2019","02","03","01:00"
"-61.68","56.55","NAIN A","8502801","2019-02-03 02:00","2019","02","03","02:00"
"-61.68","56.55","NAIN A","8502801","2019-02-03 03:00","2019","02","03","03:00"
"-61.68","56.55","NAIN A","8502801","2019-02-03 04:00","2019","02","03","04:00"
"-61.68","56.55","NAIN A","8502801","2019-02-03 05:00","2019","02","03","05:00","-20.6","","-24.6","","71","","","","29","","21","","24.1","","99.56","","","","-31","","Clear"
"-61.68","56.55","NAIN A","8502801","2019-02-03 06:00","2019","02","03","06:00","-19.5","","-24.2","","67","","","","28","","21","","24.1","","99.63","","","","-30","","NA"
"-61.68","56.55","NAIN A","8502801","2019-02-03 07:00","2019","02","03","07:00","-19.0","","-24.2","","64","","","","13","","7","","24.1","","99.71","","","","-24","","NA"
"-61.68","56.55","NAIN A","8502801","2019-02-03 08:00","2019","02","03","08:00","-18.8","","-24.4","","62","","","","19","","5","","24.1","","99.73","","","","-23","","Mainly Clear"
"-61.68","56.55","NAIN A","8502801","2019-02-03 09:00","2019","02","03","09:00","-16.9","","-23.4","","58","","","","23","","7","","24.1","","99.73","","","","-22","","NA"
"-61.68","56.55","NAIN A","8502801","2019-02-03 10:00","2019","02","03","10:00","-14.4","","-20.5","","61","","","","30","","35","","24.1","","99.74","","","","-26","","NA"
"-61.68","56.55","NAIN A","8502801","2019-02-03 11:00","2019","02","03","11:00","-12.7","","-18.7","","61","","","","27","","32","","24.1","","99.77","","","","-23","","Blowing Snow"
"-61.68","56.55","NAIN A","8502801","2019-02-03 12:00","2019","02","03","12:00","-12.0","","-18.2","","61","","","","27","","32","","24.1","","99.77","","","","-22","","NA"
"-61.68","56.55","NAIN A","8502801","2019-02-03 13:00","2019","02","03","13:00","-11.2","","-17.1","","62","","","","27","","39","","24.1","","99.77","","","","-22","","Blowing Snow"
"-61.68","56.55","NAIN A","8502801","2019-02-03 14:00","2019","02","03","14:00","-11.6","","-17.2","","64","","","","27","","32","","24.1","","99.82","","","","-22","","Blowing Snow"
"-61.68","56.55","NAIN A","8502801","2019-02-03 15:00","2019","02","03","15:00","-11.6","","-16.9","","65","","","","28","","33","","24.1","","99.86","","","","-22","","NA"
"-61.68","56.55","NAIN A","8502801","2019-02-03 16:00","2019","02","03","16:00","-11.7","","-16.3","","69","","","","29","","45","","24.1","","99.94","","","","-24","","NA"
"-61.68","56.55","NAIN A","8502801","2019-02-03 17:00","2019","02","03","17:00","-12.5","","-16.5","","72","","","","28","","32","","24.1","","100.09","","","","-23","","Blowing Snow"
"-61.68","56.55","NAIN A","8502801","2019-02-03 18:00","2019","02","03","18:00","-13.3","","-17.4","","72","","","","29","","47","","24.1","","100.19","","","","-26","","Blowing Snow"
"-61.68","56.55","NAIN A","8502801","2019-02-03 19:00","2019","02","03","19:00","-14.1","","-18.2","","71","","","","28","","42","","24.1","","100.18","","","","-26","","Blowing Snow"
"-61.68","56.55","NAIN A","8502801","2019-02-03 20:00","2019","02","03","20:00","-13.9","","-18.5","","69","","","","29","","47","","24.1","","100.27","","","","-27","","Blowing Snow"
"-61.68","56.55","NAIN A","8502801","2019-02-03 21:00","2019","02","03","21:00"
"-61.68","56.55","NAIN A","8502801","2019-02-03 22:00","2019","02","03","22:00"
"-61.68","56.55","NAIN A","8502801","2019-02-03 23:00","2019","02","03","23:00"
"-61.68","56.55","NAIN A","8502801","2019-02-04 00:00","2019","02","04","00:00"
"-61.68","56.55","NAIN A","8502801","2019-02-04 01:00","2019","02","04","01:00"
"-61.68","56.55","NAIN A","8502801","2019-02-04 02:00","2019","02","04","02:00"
"-61.68","56.55","NAIN A","8502801","2019-02-04 03:00","2019","02","04","03:00"
"-61.68","56.55","NAIN A","8502801","2019-02-04 04:00","2019","02","04","04:00"
"-61.68","56.55","NAIN A","8502801","2019-02-04 05:00","2019","02","04","05:00","-14.3","","-19.9","","63","","","","28","","39","","24.1","","100.48","","","","-26","","Cloudy"
"-61.68","56.55","NAIN A","8502801","2019-02-04 06:00","2019","02","04","06:00","-14.7","","-20.7","","61","","","","26","","18","","24.1","","100.57","","","","-23","","NA"
"-61.68","56.55","NAIN A","8502801","2019-02-04 07:00","2019","02","04","07:00","-15.0","","-21.0","","61","","","","26","","20","","24.1","","100.59","","","","-24","","NA"
"-61.68","56.55","NAIN A","8502801","2019-02-04 08:00","2019","02","04","08:00","-15.3","","-21.4","","60","","","","26","","4","","24.1","","100.62","","","","-18","","Cloudy"
"-61.68","56.55","NAIN A","8502801","2019-02-04 09:00","2019","02","04","09:00","-15.3","","-21.0","","62","","","","29","","26","","24.1","","100.60","","","","-26","","NA"
"-61.68","56.55","NAIN A","8502801","2019-02-04 10:00","2019","02","04","10:00","-15.5","","-21.3","","62","","","","27","","16","","24.1","","100.63","","","","-24","","NA"
"-61.68","56.55","NAIN A","8502801","2019-02-04 11:00","2019","02","04","11:00","-15.9","","-22.2","","59","","","","29","","24","","24.1","","100.63","","","","-26","","Mostly Cloudy"
"-61.68","56.55","NAIN A","8502801","2019-02-04 12:00","2019","02","04","12:00","-15.8","","-23.0","","54","","","","29","","17","","24.1","","100.63","","","","-24","","NA"
"-61.68","56.55","NAIN A","8502801","2019-02-04 13:00","2019","02","04","13:00","-16.0","","-23.4","","54","","","","27","","28","","24.1","","100.64","","","","-27","","NA"
"-61.68","56.55","NAIN A","8502801","2019-02-04 14:00","2019","02","04","14:00","-16.6","","-23.6","","55","","","","28","","19","","24.1","","100.68","","","","-26","","Clear"
"-61.68","56.55","NAIN A","8502801","2019-02-04 15:00","2019","02","04","15:00","-16.9","","-24.0","","55","","","","27","","21","","24.1","","100.72","","","","-27","","NA"
"-61.68","56.55","NAIN A","8502801","2019-02-04 16:00","2019","02","04","16:00","-17.6","","-24.2","","57","","","","29","","32","","24.1","","100.79","","","","-30","","NA"
"-61.68","56.55","NAIN A","8502801","2019-02-04 17:00","2019","02","04","17:00","-18.0","","-24.4","","58","","","","29","","27","","24.1","","100.88","","","","-29","","Clear"
"-61.68","56.55","NAIN A","8502801","2019-02-04 18:00","2019","02","04","18:00","-18.4","","-24.8","","58","","","","29","","23","","24.1","","100.96","","","","-29","","NA"
"-61.68","56.55","NAIN A","8502801","2019-02-04 19:00","2019","02","04","19:00","-18.4","","-25.3","","56","","","","28","","26","","24.1","","101.04","","","","-30","","NA"
"-61.68","56.55","NAIN A","8502801","2019-02-04 20:00","2019","02","04","20:00","-18.7","","-25.1","","58","","","","29","","26","","24.1","","101.09","","","","-30","","Clear"
"-61.68","56.55","NAIN A","8502801","2019-02-04 21:00","2019","02","04","21:00"
"-61.68","56.55","NAIN A","8502801","2019-02-04 22:00","2019","02","04","22:00"
"-61.68","56.55","NAIN A","8502801","2019-02-04 23:00","2019","02","04","23:00"
"-61.68","56.55","NAIN A","8502801","2019-02-05 00:00","2019","02","05","00:00"
"-61.68","56.55","NAIN A","8502801","2019-02-05 01:00","2019","02","05","01:00"
"-61.68","56.55","NAIN A","8502801","2019-02-05 02:00","2019","02","05","02:00"
"-61.68","56.55","NAIN A","8502801","2019-02-05 03:00","2019","02","05","03:00"
"-61.68","56.55","NAIN A","8502801","2019-02-05 04:00","2019","02","05","04:00"
"-61.68","56.55","NAIN A","8502801","2019-02-05 05:00","2019","02","05","05:00","-24.5","","-28.0","","73","","","","18","","8","","24.1","","101.50","","","","-32","","Clear"
"-61.68","56.55","NAIN A","8502801","2019-02-05 06:00","2019","02","05","06:00","-23.4","","-27.6","","69","","","","15","","7","","24.1","","101.51","","","","-30","","NA"
"-61.68","56.55","NAIN A","8502801","2019-02-05 07:00","2019","02","05","07:00","-24.2","","-27.9","","72","","","","18","","5","","24.1","","101.54","","","","-29","","NA"
"-61.68","56.55","NAIN A","8502801","2019-02-05 08:00","2019","02","05","08:00","-27.0","","-31.1","","69","","","","16","","8","","24.1","","101.65","","","","-34","","Clear"
"-61.68","56.55","NAIN A","8502801","2019-02-05 09:00","2019","02","05","09:00","-24.3","","-28.3","","70","","","","20","","3","","24.1","","101.61","","","","-27","","NA"
"-61.68","56.55","NAIN A","8502801","2019-02-05 10:00","2019","02","05","10:00","-23.4","","-27.9","","67","","","","36","","1","","24.1","","101.60","","","","-24","","NA"
"-61.68","56.55","NAIN A","8502801","2019-02-05 11:00","2019","02","05","11:00","-22.2","","-27.5","","63","","","","","","0","","24.1","","101.62","","","","","","Mostly Cloudy"
"-61.68","56.55","NAIN A","8502801","2019-02-05 12:00","2019","02","05","12:00","-22.0","","-27.4","","62","","","","36","","2","","24.1","","101.56","","","","-24","","NA"
"-61.68","56.55","NAIN A","8502801","2019-02-05 13:00","2019","02","05","13:00","-21.2","","-26.2","","65","","","","17","","5","","24.1","","101.56","","","","-26","","NA"
"-61.68","56.55","NAIN A","8502801","2019-02-05 14:00","2019","02","05","14:00","-21.6","","-26.6","","65","","","","27","","4","","24.1","","101.57","","","","-25","","Mostly Cloudy"
"-61.68","56.55","NAIN A","8502801","2019-02-05 15:00","2019","02","05","15:00","-20.5","","-26.3","","61","","","","19","","9","","24.1","","101.60","","","","-27","","NA"
"-61.68","56.55","NAIN A","8502801","2019-02-05 16:00","2019","02","05","16:00","-20.5","","-26.2","","61","","","","32","","6","","24.1","","101.59","","","","-26","","NA"
"-61.68","56.55","NAIN A","8502801","2019-02-05 17:00","2019","02","05","17:00","-20.3","","-26.1","","61","","","","36","","1","","24.1","","101.64","","","","-21","","Mostly Cloudy"
"-61.68","56.55","NAIN A","8502801","2019-02-05 18:00","2019","02","05","18:00","-22.5","","-27.8","","63","","","","15","","5","","24.1","","101.66","","","","-27","","NA"
"-61.68","56.55","NAIN A","8502801","2019-02-05 19:00","2019","02","05","19:00","-22.6","","-27.0","","68","","","","28","","6","","24.1","","101.70","","","","-28","","NA"
"-61.68","56.55","NAIN A","8502801","2019-02-05 20:00","2019","02","05","20:00","-22.6","","-26.5","","71","","","","36","","2","","24.1","","101.71","","","","-24","","Clear"
"-61.68","56.55","NAIN A","8502801","2019-02-05 21:00","2019","02","05","21:00"
"-61.68","56.55","NAIN A","8502801","2019-02-05 22:00","2019","02","05","22:00"
"-61.68","56.55","NAIN A","8502801","2019-02-05 23:00","2019","02","05","23:00"
"-61.68","56.55","NAIN A","8502801","2019-02-06 00:00","2019","02","06","00:00"
"-61.68","56.55","NAIN A","8502801","2019-02-06 01:00","2019","02","06","01:00"
"-61.68","56.55","NAIN A","8502801","2019-02-06 02:00","2019","02","06","02:00"
"-61.68","56.55","NAIN A","8502801","2019-02-06 03:00","2019","02","06","03:00"
"-61.68","56.55","NAIN A","8502801","2019-02-06 04:00","2019","02","06","04:00"
"-61.68","56.55","NAIN A","8502801","2019-02-06 05:00","2019","02","06","05:00","-22.8","","-26.6","","71","","","","21","","3","","24.1","","102.02","","","","-26","","Clear"
"-61.68","56.55","NAIN A","8502801","2019-02-06 06:00","2019","02","06","06:00","-22.8","","-26.5","","72","","","","36","","2","","24.1","","102.06","","","","-25","","NA"
"-61.68","56.55","NAIN A","8502801","2019-02-06 07:00","2019","02","06","07:00","-19.9","","-25.3","","63","","","","8","","4","","24.1","","102.12","","","","-23","","NA"
"-61.68","56.55","NAIN A","8502801","2019-02-06 08:00","2019","02","06","08:00","-19.0","","-25.1","","59","","","","26","","6","","24.1","","102.17","","","","-24","","Mainly Clear"
"-61.68","56.55","NAIN A","8502801","2019-02-06 09:00","2019","02","06","09:00","-19.2","","-25.8","","57","","","","26","","10","","24.1","","102.25","","","","-26","","NA"
"-61.68","56.55","NAIN A","8502801","2019-02-06 10:00","2019","02","06","10:00","-19.0","","-26.1","","54","","","","27","","22","","24.1","","102.29","","","","-30","","NA"
"-61.68","56.55","NAIN A","8502801","2019-02-06 11:00","2019","02","06","11:00","-19.1","","-26.7","","52","","","","27","","27","","24.1","","102.31","","","","-31","","Clear"
"-61.68","56.55","NAIN A","8502801","2019-02-06 12:00","2019","02","06","12:00","-19.6","","-26.7","","54","","","","27","","9","","24.1","","102.33","","","","-26","","NA"
"-61.68","56.55","NAIN A","8502801","2019-02-06 13:00","2019","02","06","13:00","-19.6","","-26.9","","53","","","","28","","11","","24.1","","102.34","","","","-27","","NA"
"-61.68","56.55","NAIN A","8502801","2019-02-06 14:00","2019","02","06","14:00","-20.7","","-28.0","","53","","","","28","","23","","24.1","","102.37","","","","-32","","Clear"
"-61.68","56.55","NAIN A","8502801","2019-02-06 15:00","2019","02","06","15:00","-21.1","","-28.4","","53","","","","26","","16","","24.1","","102.42","","","","-31","","NA"
"-61.68","56.55","NAIN A","8502801","2019-02-06 16:00","2019","02","06","16:00","-22.2","","-29.1","","54","","","","32","","13","","24.1","","102.45","","","","-31","","NA"
"-61.68","56.55","NAIN A","8502801","2019-02-06 17:00","2019","02","06","17:00","-23.5","","-30.2","","55","","","","23","","7","","24.1","","102.47","","","","-30","","Mostly Cloudy"
"-61.68","56.55","NAIN A","8502801","2019-02-06 18:00","2019","02","06","18:00","-23.4","","-30.0","","55","","","","25","","16","","24.1","","102.53","","","","-34","","NA"
"-61.68","56.55","NAIN A","8502801","2019-02-06 19:00","2019","02","06","19:00","-23.9","","-30.3","","56","","","","22","","11","","24.1","","102.57","","","","-32","","NA"
"-61.68","56.55","NAIN A","8502801","2019-02-06 20:00","2019","02","06","20:00","-24.6","","-30.7","","58","","","","21","","14","","24.1","","102.59","","","","-34","","Clear"
"-61.68","56.55","NAIN A","8502801","2019-02-06 21:00","2019","02","06","21:00"
"-61.68","56.55","NAIN A","8502801","2019-02-06 22:00","2019","02","06","22:00"
"-61.68","56.55","NAIN A","8502801","2019-02-06 23:00","2019","02","06","23:00"
"-61.68","56.55","NAIN A","8502801","2019-02-07 00:00","2019","02","07","00:00"
"-61.68","56.55","NAIN A","8502801","2019-02-07 01:00","2019","02","07","01:00"
"-61.68","56.55","NAIN A","8502801","2019-02-07 02:00","2019","02","07","02:00"
"-61.68","56.55","NAIN A","8502801","2019-02-07 03:00","2019","02","07","03:00"
"-61.68","56.55","NAIN A","8502801","2019-02-07 04:00","2019","02","07","04:00"
"-61.68","56.55","NAIN A","8502801","2019-02-07 05:00","2019","02","07","05:00","-24.2","","-31.3","","53","","","","28","","43","","24.1","","102.61","","","","-40","","Clear"
"-61.68","56.55","NAIN A","8502801","2019-02-07 06:00","2019","02","07","06:00","-24.4","","-31.1","","55","","","","29","","35","","24.1","","102.58","","","","-39","","NA"
"-61.68","56.55","NAIN A","8502801","2019-02-07 07:00","2019","02","07","07:00","-25.4","","-31.6","","57","","","","29","","25","","24.1","","102.62","","","","-39","","NA"
"-61.68","56.55","NAIN A","8502801","2019-02-07 08:00","2019","02","07","08:00","-25.4","","-32.0","","55","","","","23","","5","","24.1","","102.66","","","","-30","","Mostly Cloudy"
"-61.68","56.55","NAIN A","8502801","2019-02-07 09:00","2019","02","07","09:00","-24.4","","-31.1","","55","","","","23","","7","","24.1","","102.62","","","","-31","","NA"
"-61.68","56.55","NAIN A","8502801","2019-02-07 10:00","2019","02","07","10:00","-24.3","","-30.7","","56","","","","28","","7","","24.1","","102.65","","","","-31","","NA"
"-61.68","56.55","NAIN A","8502801","2019-02-07 11:00","2019","02","07","11:00","-22.8","","-29.9","","53","","","","29","","17","","24.1","","102.63","","","","-33","","Mostly Cloudy"
"-61.68","56.55","NAIN A","8502801","2019-02-07 12:00","2019","02","07","12:00","-22.9","","-29.7","","55","","","","30","","16","","24.1","","102.60","","","","-33","","NA"
"-61.68","56.55","NAIN A","8502801","2019-02-07 13:00","2019","02","07","13:00","-22.6","","-29.7","","53","","","","28","","28","","24.1","","102.57","","","","-36","","NA"
"-61.68","56.55","NAIN A","8502801","2019-02-07 14:00","2019","02","07","14:00","-22.0","","-29.4","","52","","","","28","","21","","24.1","","102.57","","","","-33","","Mostly Cloudy"
"-61.68","56.55","NAIN A","8502801","2019-02-07 15:00","2019","02","07","15:00","-22.3","","-29.4","","54","","","","14","","5","","24.1","","102.58","","","","-27","","NA"
"-61.68","56.55","NAIN A","8502801","2019-02-07 16:00","2019","02","07","16:00","-22.7","","-29.5","","55","","","","25","","8","","24.1","","102.55","","","","-29","","NA"
"-61.68","56.55","NAIN A","8502801","2019-02-07 17:00","2019","02","07","17:00","-23.5","","-29.9","","56","","","","16","","8","","24.1","","102.59","","","","-30","","Mainly Clear"
"-61.68","56.55","NAIN A","8502801","2019-02-07 18:00","2019","02","07","18:00","-23.9","","-30.0","","58","","","","13","","14","","24.1","","102.62","","","","-34","","NA"
"-61.68","56.55","NAIN A","8502801","2019-02-07 19:00","2019","02","07","19:00","-24.2","","-30.6","","56","","","","26","","9","","24.1","","102.63","","","","-32","","NA"
"-61.68","56.55","NAIN A","8502801","2019-02-07 20:00","2019","02","07","20:00","-25.7","","-31.5","","59","","","","21","","15","","24.1","","102.64","","","","-36","","Clear"
"-61.68","56.55","NAIN A","8502801","2019-02-07 21:00","2019","02","07","21:00"
"-61.68","56.55","NAIN A","8502801","2019-02-07 22:00","2019","02","07","22:00"
"-61.68","56.55","NAIN A","8502801","2019-02-07 23:00","2019","02","07","23:00"
"-61.68","56.55","NAIN A","8502801","2019-02-08 00:00","2019","02","08","00:00"
"-61.68","56.55","NAIN A","8502801","2019-02-08 01:00","2019","02","08","01:00"
"-61.68","56.55","NAIN A","8502801","2019-02-08 02:00","2019","02","08","02:00"
"-61.68","56.55","NAIN A","8502801","2019-02-08 03:00","2019","02","08","03:00"
"-61.68","56.55","NAIN A","8502801","2019-02-08 04:00","2019","02","08","04:00"
"-61.68","56.55","NAIN A","8502801","2019-02-08 05:00","2019","02","08","05:00","-27.6","","-31.8","","69","","","","28","","10","","24.1","","102.52","","","","-36","","Clear"
"-61.68","56.55","NAIN A","8502801","2019-02-08 06:00","2019","02","08","06:00","-27.4","","-31.8","","67","","","","19","","4","","24.1","","102.48","","","","-32","","NA"
"-61.68","56.55","NAIN A","8502801","2019-02-08 07:00","2019","02","08","07:00","-28.9","","-33.9","","63","","","","15","","3","","24.1","","102.45","","","","-32","","NA"
"-61.68","56.55","NAIN A","8502801","2019-02-08 08:00","2019","02","08","08:00","-28.7","","-33.1","","67","","","","11","","3","","24.1","","102.41","","","","-32","","Mainly Clear"
"-61.68","56.55","NAIN A","8502801","2019-02-08 09:00","2019","02","08","09:00","-29.2","","-33.3","","69","","","","32","","4","","24.1","","102.27","","","","-34","","NA"
"-61.68","56.55","NAIN A","8502801","2019-02-08 10:00","2019","02","08","10:00","-28.0","","-32.7","","65","","","","36","","2","","24.1","","102.22","","","","-30","","NA"
"-61.68","56.55","NAIN A","8502801","2019-02-08 11:00","2019","02","08","11:00","-27.8","","-32.0","","68","","","","30","","3","","24.1","","102.14","","","","-31","","Mostly Cloudy"
"-61.68","56.55","NAIN A","8502801","2019-02-08 12:00","2019","02","08","12:00","-27.2","","-31.8","","66","","","","36","","1","","24.1","","101.95","","","","-28","","NA"
"-61.68","56.55","NAIN A","8502801","2019-02-08 13:00","2019","02","08","13:00","-26.1","","-30.6","","67","","","","1","","3","","24.1","","101.85","","","","-29","","NA"
"-61.68","56.55","NAIN A","8502801","2019-02-08 14:00","2019","02","08","14:00","-24.8","","-29.2","","67","","","","29","","6","","24.1","","101.67","","","","-31","","Snow Showers"
"-61.68","56.55","NAIN A","8502801","2019-02-08 15:00","2019","02","08","15:00","-24.0","","-28.2","","69","","","","33","","8","","4.8","","101.55","","","","-31","","Snow"
"-61.68","56.55","NAIN A","8502801","2019-02-08 16:00","2019","02","08","16:00","-23.4","","-27.0","","73","","","","32","","9","","1.6","","101.39","","","","-31","","Snow"
"-61.68","56.55","NAIN A","8502801","2019-02-08 17:00","2019","02","08","17:00","-22.8","","-26.2","","75","","","","36","","3","","1.6","","101.16","","","","-26","","Snow"
"-61.68","56.55","NAIN A","8502801","2019-02-08 18:00","2019","02","08","18:00","-21.3","","-24.4","","77","","","","36","","2","","1.6","","100.87","","","","-23","","Snow"
"-61.68","56.55","NAIN A","8502801","2019-02-08 19:00","2019","02","08","19:00","-19.0","","-21.9","","78","","","","36","","3","","1.6","","100.70","","","","-21","","Snow"
"-61.68","56.55","NAIN A","8502801","2019-02-08 20:00","2019","02","08","20:00","-17.9","","-20.6","","80","","","","10","","12","","1.6","","100.53","","","","-25","","Snow"
"-61.68","56.55","NAIN A","8502801","2019-02-08 21:00","2019","02","08","21:00"
"-61.68","56.55","NAIN A","8502801","2019-02-08 22:00","2019","02","08","22:00"
"-61.68","56.55","NAIN A","8502801","2019-02-08 23:00","2019","02","08","23:00"
"-61.68","56.55","NAIN A","8502801","2019-02-09 00:00","2019","02","09","00:00"
"-61.68","56.55","NAIN A","8502801","2019-02-09 01:00","2019","02","09","01:00"
"-61.68","56.55","NAIN A","8502801","2019-02-09 02:00","2019","02","09","02:00"
"-61.68","56.55","NAIN A","8502801","2019-02-09 03:00","2019","02","09","03:00"
"-61.68","56.55","NAIN A","8502801","2019-02-09 04:00","2019","02","09","04:00"
"-61.68","56.55","NAIN A","8502801","2019-02-09 05:00","2019","02","09","05:00","-9.6","","-11.3","","87","","","","5","","25","","1.6","","98.65","","","","-18","","Snow,Blowing Snow"
"-61.68","56.55","NAIN A","8502801","2019-02-09 06:00","2019","02","09","06:00","-8.8","","-10.5","","88","","","","4","","32","","1.6","","98.49","","","","-18","","Snow,Blowing Snow"
"-61.68","56.55","NAIN A","8502801","2019-02-09 07:00","2019","02","09","07:00","-8.8","","-10.5","","87","","","","3","","32","","1.6","","98.35","","","","-18","","Snow,Blowing Snow"
"-61.68","56.55","NAIN A","8502801","2019-02-09 08:00","2019","02","09","08:00","-7.6","","-9.3","","87","","","","3","","37","","1.6","","98.21","","","","-17","","Snow,Blowing Snow"
"-61.68","56.55","NAIN A","8502801","2019-02-09 09:00","2019","02","09","09:00","-7.2","","-8.6","","90","","","","35","","33","","2.4","","98.13","","","","-16","","Snow,Blowing Snow"
"-61.68","56.55","NAIN A","8502801","2019-02-09 10:00","2019","02","09","10:00","-7.2","","-9.1","","87","","","","31","","32","","2.0","","98.04","","","","-16","","Snow,Blowing Snow"
"-61.68","56.55","NAIN A","8502801","2019-02-09 11:00","2019","02","09","11:00","-7.0","","-8.8","","87","","","","31","","39","","2.0","","97.92","","","","-17","","Snow,Blowing Snow"
"-61.68","56.55","NAIN A","8502801","2019-02-09 12:00","2019","02","09","12:00","-6.4","","-8.3","","86","","","","31","","43","","2.0","","97.78","","","","-16","","Snow,Blowing Snow"
"-61.68","56.55","NAIN A","8502801","2019-02-09 13:00","2019","02","09","13:00","-4.6","","-6.2","","89","","","","32","","34","","1.2","","97.65","","","","-13","","Snow,Blowing Snow"
"-61.68","56.55","NAIN A","8502801","2019-02-09 14:00","2019","02","09","14:00","-2.7","","-4.1","","90","","","","2","","50","","0.4","","97.56","","","","-12","","Moderate Snow,Blowing Snow"
"-61.68","56.55","NAIN A","8502801","2019-02-09 15:00","2019","02","09","15:00","-2.9","","-4.0","","92","","","","1","","57","","0.4","","97.57","","","","-13","","Moderate Snow,Blowing Snow"
"-61.68","56.55","NAIN A","8502801","2019-02-09 16:00","2019","02","09","16:00","-3.0","","-4.3","","91","","","","35","","52","","1.2","","97.59","","","","-12","","Snow,Blowing Snow"
"-61.68","56.55","NAIN A","8502801","2019-02-09 17:00","2019","02","09","17:00","-3.1","","-4.2","","92","","","","35","","59","","0.8","","97.62","","","","-13","","Moderate Snow,Blowing Snow"
"-61.68","56.55","NAIN A","8502801","2019-02-09 18:00","2019","02","09","18:00","-3.2","","-4.2","","93","","","","34","","47","","2.0","","97.63","","","","-12","","Snow,Blowing Snow"
"-61.68","56.55","NAIN A","8502801","2019-02-09 19:00","2019","02","09","19:00","-3.4","","-4.4","","93","","","","33","","52","","0.4","","97.63","","","","-13","","Heavy Snow,Blowing Snow"
"-61.68","56.55","NAIN A","8502801","2019-02-09 20:00","2019","02","09","20:00","-3.7","","-4.6","","93","","","","35","","65","","0.4","","97.66","","","","-14","","Heavy Snow,Blowing Snow"
"-61.68","56.55","NAIN A","8502801","2019-02-09 21:00","2019","02","09","21:00"
"-61.68","56.55","NAIN A","8502801","2019-02-09 22:00","2019","02","09","22:00"
"-61.68","56.55","NAIN A","8502801","2019-02-09 23:00","2019","02","09","23:00"
"-61.68","56.55","NAIN A","8502801","2019-02-10 00:00","2019","02","10","00:00"
"-61.68","56.55","NAIN A","8502801","2019-02-10 01:00","2019","02","10","01:00"
"-61.68","56.55","NAIN A","8502801","2019-02-10 02:00","2019","02","10","02:00"
"-61.68","56.55","NAIN A","8502801","2019-02-10 03:00","2019","02","10","03:00"
"-61.68","56.55","NAIN A","8502801","2019-02-10 04:00","2019","02","10","04:00"
"-61.68","56.55","NAIN A","8502801","2019-02-10 05:00","2019","02","10","05:00","-8.7","","-10.3","","88","","","","27","","87","","0.2","","97.99","","","","-23","","Snow,Blowing Snow"
"-61.68","56.55","NAIN A","8502801","2019-02-10 06:00","2019","02","10","06:00","-8.8","","-10.5","","88","","","","27","","89","","0.2","","97.97","","","","-23","","Snow,Blowing Snow"
"-61.68","56.55","NAIN A","8502801","2019-02-10 07:00","2019","02","10","07:00","-10.1","","-11.9","","86","","","","27","","84","","0.4","","97.97","","","","-24","","Snow,Blowing Snow"
"-61.68","56.55","NAIN A","8502801","2019-02-10 08:00","2019","02","10","08:00","-11.4","","-13.4","","86","","","","27","","84","","0.4","","97.98","","","","-26","","Snow,Blowing Snow"
"-61.68","56.55","NAIN A","8502801","2019-02-10 09:00","2019","02","10","09:00","-12.8","","-14.8","","85","","","","32","","93","","0.2","","97.82","","","","-29","","Snow,Blowing Snow"
"-61.68","56.55","NAIN A","8502801","2019-02-10 10:00","2019","02","10","10:00","-13.1","","-15.1","","85","","","","32","","84","","0.2","","97.86","","","","-29","","Snow,Blowing Snow"
"-61.68","56.55","NAIN A","8502801","2019-02-10 11:00","2019","02","10","11:00","-11.4","","-15.8","","70","","","","32","","84","","0.2","","97.95","","","","-26","","Snow,Blowing Snow"
"-61.68","56.55","NAIN A","8502801","2019-02-10 12:00","2019","02","10","12:00","-13.5","","-15.8","","83","","","","32","","89","","0.4","","98.01","","","","-30","","Snow,Blowing Snow"
"-61.68","56.55","NAIN A","8502801","2019-02-10 13:00","2019","02","10","13:00","-13.5","","-15.8","","83","","","","32","","89","","0.4","","98.07","","","","-30","","Snow,Blowing Snow"
"-61.68","56.55","NAIN A","8502801","2019-02-10 14:00","2019","02","10","14:00","-14.3","","-16.6","","83","","","","32","","89","","0.6","","98.12","","","","-31","","Snow,Blowing Snow"
"-61.68","56.55","NAIN A","8502801","2019-02-10 15:00","2019","02","10","15:00","-13.9","","-16.1","","83","","","","32","","80","","0.4","","98.15","","","","-30","","Snow,Blowing Snow"
"-61.68","56.55","NAIN A","8502801","2019-02-10 16:00","2019","02","10","16:00","-13.3","","-15.8","","82","","","","29","","54","","0.6","","98.20","","","","-27","","Snow,Blowing Snow"
"-61.68","56.55","NAIN A","8502801","2019-02-10 17:00","2019","02","10","17:00","-13.9","","-15.3","","89","","","","27","","78","","0.4","","98.12","","","","-29","","Snow,Blowing Snow"
"-61.68","56.55","NAIN A","8502801","2019-02-10 18:00","2019","02","10","18:00","-11.5","","-13.4","","86","","","","32","","81","","0.4","","98.15","","","","-26","","Snow,Blowing Snow"
"-61.68","56.55","NAIN A","8502801","2019-02-10 19:00","2019","02","10","19:00","-10.5","","-12.2","","87","","","","32","","76","","0.4","","98.19","","","","-24","","Snow,Blowing Snow"
"-61.68","56.55","NAIN A","8502801","2019-02-10 20:00","2019","02","10","20:00","-9.3","","-11.0","","88","","","","30","","68","","0.6","","98.22","","","","-22","","Snow,Blowing Snow"
"-61.68","56.55","NAIN A","8502801","2019-02-10 21:00","2019","02","10","21:00"
"-61.68","56.55","NAIN A","8502801","2019-02-10 22:00","2019","02","10","22:00"
"-61.68","56.55","NAIN A","8502801","2019-02-10 23:00","2019","02","10","23:00"
"-61.68","56.55","NAIN A","8502801","2019-02-11 00:00","2019","02","11","00:00"
"-61.68","56.55","NAIN A","8502801","2019-02-11 01:00","2019","02","11","01:00"
"-61.68","56.55","NAIN A","8502801","2019-02-11 02:00","2019","02","11","02:00"
"-61.68","56.55","NAIN A","8502801","2019-02-11 03:00","2019","02","11","03:00"
"-61.68","56.55","NAIN A","8502801","2019-02-11 04:00","2019","02","11","04:00"
"-61.68","56.55","NAIN A","8502801","2019-02-11 05:00","2019","02","11","05:00","-8.0","","-10.1","","85","","","","33","","54","","4.8","","99.27","","","","-19","","Snow,Blowing Snow"
"-61.68","56.55","NAIN A","8502801","2019-02-11 06:00","2019","02","11","06:00","-7.9","","-10.8","","80","","","","32","","55","","6.4","","99.43","","","","-19","","Snow,Blowing Snow"
"-61.68","56.55","NAIN A","8502801","2019-02-11 07:00","2019","02","11","07:00","-8.5","","-11.0","","83","","","","33","","59","","2.4","","99.52","","","","-20","","Snow,Blowing Snow"
"-61.68","56.55","NAIN A","8502801","2019-02-11 08:00","2019","02","11","08:00","-8.6","","-11.7","","79","","","","32","","40","","4.8","","99.69","","","","-19","","Snow,Blowing Snow"
"-61.68","56.55","NAIN A","8502801","2019-02-11 09:00","2019","02","11","09:00","-8.9","","-12.0","","79","","","","30","","48","","6.4","","99.83","","","","-20","","Snow"
"-61.68","56.55","NAIN A","8502801","2019-02-11 10:00","2019","02","11","10:00","-9.1","","-13.3","","72","","","","32","","36","","20.9","","99.92","","","","-19","","Snow Showers"
"-61.68","56.55","NAIN A","8502801","2019-02-11 11:00","2019","02","11","11:00","-9.2","","-13.5","","72","","","","32","","54","","20.9","","99.89","","","","-21","","Snow Showers,Blowing Snow"
"-61.68","56.55","NAIN A","8502801","2019-02-11 12:00","2019","02","11","12:00","-8.8","","-13.7","","68","","","","32","","49","","24.1","","99.99","","","","-20","","Snow Showers,Blowing Snow"
"-61.68","56.55","NAIN A","8502801","2019-02-11 13:00","2019","02","11","13:00","-8.3","","-14.8","","60","","","","33","","36","","24.1","","100.06","","","","-18","","NA"
"-61.68","56.55","NAIN A","8502801","2019-02-11 14:00","2019","02","11","14:00","-9.7","","-14.3","","69","","","","30","","56","","24.1","","100.11","","","","-22","","Cloudy"
"-61.68","56.55","NAIN A","8502801","2019-02-11 15:00","2019","02","11","15:00","-11.2","","-14.8","","75","","","","30","","50","","24.1","","100.25","","","","-23","","NA"
"-61.68","56.55","NAIN A","8502801","2019-02-11 16:00","2019","02","11","16:00","-11.7","","-15.5","","74","","","","30","","60","","24.1","","100.35","","","","-25","","Blowing Snow"
"-61.68","56.55","NAIN A","8502801","2019-02-11 17:00","2019","02","11","17:00","-12.7","","-15.7","","78","","","","30","","75","","20.9","","100.45","","","","-28","","Blowing Snow"
"-61.68","56.55","NAIN A","8502801","2019-02-11 18:00","2019","02","11","18:00","-13.0","","-16.2","","77","","","","30","","64","","20.9","","100.52","","","","-27","","Blowing Snow"
"-61.68","56.55","NAIN A","8502801","2019-02-11 19:00","2019","02","11","19:00","-13.5","","-17.1","","75","","","","30","","55","","22.5","","100.64","","","","-27","","Blowing Snow"
"-61.68","56.55","NAIN A","8502801","2019-02-11 20:00","2019","02","11","20:00","-14.4","","-18.5","","71","","","","28","","50","","24.1","","100.76","","","","-28","","Blowing Snow"
"-61.68","56.55","NAIN A","8502801","2019-02-11 21:00","2019","02","11","21:00"
"-61.68","56.55","NAIN A","8502801","2019-02-11 22:00","2019","02","11","22:00"
"-61.68","56.55","NAIN A","8502801","2019-02-11 23:00","2019","02","11","23:00"
"-61.68","56.55","NAIN A","8502801","2019-02-12 00:00","2019","02","12","00:00"
"-61.68","56.55","NAIN A","8502801","2019-02-12 01:00","2019","02","12","01:00"
"-61.68","56.55","NAIN A","8502801","2019-02-12 02:00","2019","02","12","02:00"
"-61.68","56.55","NAIN A","8502801","2019-02-12 03:00","2019","02","12","03:00"
"-61.68","56.55","NAIN A","8502801","2019-02-12 04:00","2019","02","12","04:00"
"-61.68","56.55","NAIN A","8502801","2019-02-12 05:00","2019","02","12","05:00","-17.9","","-22.7","","66","","","","30","","64","","24.1","","101.35","","","","-34","","Blowing Snow"
"-61.68","56.55","NAIN A","8502801","2019-02-12 06:00","2019","02","12","06:00","-18.0","","-22.9","","66","","","","28","","48","","24.1","","101.48","","","","-32","","Blowing Snow"
"-61.68","56.55","NAIN A","8502801","2019-02-12 07:00","2019","02","12","07:00","-18.7","","-24.1","","63","","","","29","","44","","24.1","","101.52","","","","-33","","NA"
"-61.68","56.55","NAIN A","8502801","2019-02-12 08:00","2019","02","12","08:00","-18.8","","-25.2","","57","","","","25","","16","","24.1","","101.63","","","","-28","","Mostly Cloudy"
"-61.68","56.55","NAIN A","8502801","2019-02-12 09:00","2019","02","12","09:00","-19.6","","-25.5","","60","","","","28","","30","","24.1","","101.67","","","","-32","","NA"
"-61.68","56.55","NAIN A","8502801","2019-02-12 10:00","2019","02","12","10:00","-20.1","","-26.1","","59","","","","28","","20","","24.1","","101.74","","","","-31","","NA"
"-61.68","56.55","NAIN A","8502801","2019-02-12 11:00","2019","02","12","11:00","-19.7","","-26.3","","57","","","","29","","27","","24.1","","101.76","","","","-32","","Mostly Cloudy"
"-61.68","56.55","NAIN A","8502801","2019-02-12 12:00","2019","02","12","12:00","-19.4","","-25.9","","57","","","","28","","22","","24.1","","101.76","","","","-30","","NA"
"-61.68","56.55","NAIN A","8502801","2019-02-12 13:00","2019","02","12","13:00","-19.7","","-26.1","","58","","","","29","","32","","24.1","","101.73","","","","-33","","NA"
"-61.68","56.55","NAIN A","8502801","2019-02-12 14:00","2019","02","12","14:00","-19.2","","-25.5","","58","","","","28","","29","","24.1","","101.77","","","","-31","","Mainly Clear"
"-61.68","56.55","NAIN A","8502801","2019-02-12 15:00","2019","02","12","15:00","-18.8","","-25.3","","57","","","","29","","32","","24.1","","101.77","","","","-31","","NA"
"-61.68","56.55","NAIN A","8502801","2019-02-12 16:00","2019","02","12","16:00","-19.0","","-24.8","","61","","","","30","","50","","24.1","","101.78","","","","-34","","NA"
"-61.68","56.55","NAIN A","8502801","2019-02-12 17:00","2019","02","12","17:00","-18.8","","-25.3","","57","","","","30","","44","","24.1","","101.84","","","","-33","","Clear"
"-61.68","56.55","NAIN A","8502801","2019-02-12 18:00","2019","02","12","18:00","-19.7","","-25.9","","59","","","","30","","40","","24.1","","101.89","","","","-34","","NA"
"-61.68","56.55","NAIN A","8502801","2019-02-12 19:00","2019","02","12","19:00","-20.4","","-26.4","","60","","","","28","","32","","24.1","","101.94","","","","-33","","NA"
"-61.68","56.55","NAIN A","8502801","2019-02-12 20:00","2019","02","12","20:00","-20.9","","-26.4","","62","","","","29","","39","","24.1","","101.93","","","","-35","","Blowing Snow"
"-61.68","56.55","NAIN A","8502801","2019-02-12 21:00","2019","02","12","21:00"
"-61.68","56.55","NAIN A","8502801","2019-02-12 22:00","2019","02","12","22:00"
"-61.68","56.55","NAIN A","8502801","2019-02-12 23:00","2019","02","12","23:00"
"-61.68","56.55","NAIN A","8502801","2019-02-13 00:00","2019","02","13","00:00"
"-61.68","56.55","NAIN A","8502801","2019-02-13 01:00","2019","02","13","01:00"
"-61.68","56.55","NAIN A","8502801","2019-02-13 02:00","2019","02","13","02:00"
"-61.68","56.55","NAIN A","8502801","2019-02-13 03:00","2019","02","13","03:00"
"-61.68","56.55","NAIN A","8502801","2019-02-13 04:00","2019","02","13","04:00"
"-61.68","56.55","NAIN A","8502801","2019-02-13 05:00","2019","02","13","05:00","-19.5","","-25.3","","60","","","","30","","40","","24.1","","101.80","","","","-33","","Clear"
"-61.68","56.55","NAIN A","8502801","2019-02-13 06:00","2019","02","13","06:00","-19.6","","-24.9","","64","","","","30","","54","","24.1","","101.76","","","","-35","","Blowing Snow"
"-61.68","56.55","NAIN A","8502801","2019-02-13 07:00","2019","02","13","07:00","-20.4","","-25.2","","66","","","","29","","44","","24.1","","101.79","","","","-35","","Blowing Snow"
"-61.68","56.55","NAIN A","8502801","2019-02-13 08:00","2019","02","13","08:00","-20.1","","-25.2","","64","","","","29","","30","","24.1","","101.79","","","","-33","","Clear"
"-61.68","56.55","NAIN A","8502801","2019-02-13 09:00","2019","02","13","09:00","-19.7","","-25.2","","63","","","","30","","33","","24.1","","101.78","","","","-33","","NA"
"-61.68","56.55","NAIN A","8502801","2019-02-13 10:00","2019","02","13","10:00","-18.7","","-24.5","","61","","","","30","","33","","24.1","","101.84","","","","-31","","NA"
"-61.68","56.55","NAIN A","8502801","2019-02-13 11:00","2019","02","13","11:00","-18.3","","-24.7","","58","","","","27","","14","","24.1","","101.85","","","","-27","","Clear"
"-61.68","56.55","NAIN A","8502801","2019-02-13 12:00","2019","02","13","12:00","-17.3","","-23.8","","58","","","","10","","4","","24.1","","101.81","","","","-20","","NA"
"-61.68","56.55","NAIN A","8502801","2019-02-13 13:00","2019","02","13","13:00","-17.4","","-24.2","","56","","","","36","","2","","24.1","","101.75","","","","-19","","NA"
"-61.68","56.55","NAIN A","8502801","2019-02-13 14:00","2019","02","13","14:00","-18.6","","-23.4","","66","","","","10","","5","","24.1","","101.73","","","","-23","","Clear"
"-61.68","56.55","NAIN A","8502801","2019-02-13 15:00","2019","02","13","15:00","-17.2","","-23.6","","58","","","","1","","8","","24.1","","101.70","","","","-23","","NA"
"-61.68","56.55","NAIN A","8502801","2019-02-13 16:00","2019","02","13","16:00","-16.4","","-23.4","","55","","","","22","","5","","24.1","","101.69","","","","-20","","NA"
"-61.68","56.55","NAIN A","8502801","2019-02-13 17:00","2019","02","13","17:00","-19.4","","-24.3","","65","","","","2","","3","","24.1","","101.73","","","","-22","","Clear"
"-61.68","56.55","NAIN A","8502801","2019-02-13 18:00","2019","02","13","18:00","-18.7","","-23.8","","64","","","","21","","3","","24.1","","101.71","","","","-21","","NA"
"-61.68","56.55","NAIN A","8502801","2019-02-13 19:00","2019","02","13","19:00","-19.9","","-24.6","","67","","","","36","","2","","24.1","","101.69","","","","-22","","NA"
"-61.68","56.55","NAIN A","8502801","2019-02-13 20:00","2019","02","13","20:00","-22.8","","-27.0","","69","","","","27","","7","","24.1","","101.66","","","","-29","","Clear"
"-61.68","56.55","NAIN A","8502801","2019-02-13 21:00","2019","02","13","21:00"
"-61.68","56.55","NAIN A","8502801","2019-02-13 22:00","2019","02","13","22:00"
"-61.68","56.55","NAIN A","8502801","2019-02-13 23:00","2019","02","13","23:00"
"-61.68","56.55","NAIN A","8502801","2019-02-14 00:00","2019","02","14","00:00"
"-61.68","56.55","NAIN A","8502801","2019-02-14 01:00","2019","02","14","01:00"
"-61.68","56.55","NAIN A","8502801","2019-02-14 02:00","2019","02","14","02:00"
"-61.68","56.55","NAIN A","8502801","2019-02-14 03:00","2019","02","14","03:00"
"-61.68","56.55","NAIN A","8502801","2019-02-14 04:00","2019","02","14","04:00"
"-61.68","56.55","NAIN A","8502801","2019-02-14 05:00","2019","02","14","05:00","-23.9","","-26.9","","77","","","","29","","9","","24.1","","101.44","","","","-31","","Clear"
"-61.68","56.55","NAIN A","8502801","2019-02-14 06:00","2019","02","14","06:00","-24.8","","-27.5","","79","","","","36","","2","","24.1","","101.44","","","","-27","","NA"
"-61.68","56.55","NAIN A","8502801","2019-02-14 07:00","2019","02","14","07:00","-27.4","","-30.8","","74","","","","32","","3","","24.1","","101.43","","","","-31","","NA"
"-61.68","56.55","NAIN A","8502801","2019-02-14 08:00","2019","02","14","08:00","-25.3","","-28.0","","79","","","","8","","3","","24.1","","101.44","","","","-28","","Clear"
"-61.68","56.55","NAIN A","8502801","2019-02-14 09:00","2019","02","14","09:00","-24.9","","-27.9","","77","","","","32","","3","","24.1","","101.44","","","","-28","","NA"
"-61.68","56.55","NAIN A","8502801","2019-02-14 10:00","2019","02","14","10:00","-24.2","","-28.1","","71","","","","35","","9","","24.1","","101.46","","","","-32","","NA"
"-61.68","56.55","NAIN A","8502801","2019-02-14 11:00","2019","02","14","11:00","-22.7","","-26.8","","70","","","","18","","7","","24.1","","101.41","","","","-29","","Clear"
"-61.68","56.55","NAIN A","8502801","2019-02-14 12:00","2019","02","14","12:00","-17.9","","-24.0","","60","","","","31","","14","","24.1","","101.40","","","","-26","","NA"
"-61.68","56.55","NAIN A","8502801","2019-02-14 13:00","2019","02","14","13:00","-19.3","","-24.0","","67","","","","36","","2","","24.1","","101.39","","","","-21","","NA"
"-61.68","56.55","NAIN A","8502801","2019-02-14 14:00","2019","02","14","14:00","-19.4","","-24.6","","64","","","","16","","8","","24.1","","101.40","","","","-26","","Clear"
"-61.68","56.55","NAIN A","8502801","2019-02-14 15:00","2019","02","14","15:00","-18.8","","-23.9","","65","","","","16","","8","","24.1","","101.44","","","","-25","","NA"
"-61.68","56.55","NAIN A","8502801","2019-02-14 16:00","2019","02","14","16:00","-18.0","","-23.7","","61","","","","16","","5","","24.1","","101.46","","","","-22","","NA"
"-61.68","56.55","NAIN A","8502801","2019-02-14 17:00","2019","02","14","17:00","-17.6","","-22.2","","68","","","","36","","2","","24.1","","101.52","","","","-19","","Mostly Cloudy"
"-61.68","56.55","NAIN A","8502801","2019-02-14 18:00","2019","02","14","18:00","-15.3","","-21.2","","61","","","","28","","20","","24.1","","101.55","","","","-25","","NA"
"-61.68","56.55","NAIN A","8502801","2019-02-14 19:00","2019","02","14","19:00","-14.7","","-21.0","","59","","","","28","","14","","24.1","","101.60","","","","-22","","NA"
"-61.68","56.55","NAIN A","8502801","2019-02-14 20:00","2019","02","14","20:00","-15.8","","-21.6","","61","","","","29","","16","","24.1","","101.63","","","","-24","","Cloudy"
"-61.68","56.55","NAIN A","8502801","2019-02-14 21:00","2019","02","14","21:00"
"-61.68","56.55","NAIN A","8502801","2019-02-14 22:00","2019","02","14","22:00"
"-61.68","56.55","NAIN A","8502801","2019-02-14 23:00","2019","02","14","23:00"
"-61.68","56.55","NAIN A","8502801","2019-02-15 00:00","2019","02","15","00:00"
"-61.68","56.55","NAIN A","8502801","2019-02-15 01:00","2019","02","15","01:00"
"-61.68","56.55","NAIN A","8502801","2019-02-15 02:00","2019","02","15","02:00"
"-61.68","56.55","NAIN A","8502801","2019-02-15 03:00","2019","02","15","03:00"
"-61.68","56.55","NAIN A","8502801","2019-02-15 04:00","2019","02","15","04:00"
"-61.68","56.55","NAIN A","8502801","2019-02-15 05:00","2019","02","15","05:00","-23.6","","-26.2","","79","","","","36","","1","","24.1","","101.92","","","","-25","","Clear"
"-61.68","56.55","NAIN A","8502801","2019-02-15 06:00","2019","02","15","06:00","-24.9","","-28.0","","76","","","","29","","4","","24.1","","101.95","","","","-29","","NA"
"-61.68","56.55","NAIN A","8502801","2019-02-15 07:00","2019","02","15","07:00","-24.2","","-27.1","","77","","","","16","","6","","24.1","","102.01","","","","-30","","NA"
"-61.68","56.55","NAIN A","8502801","2019-02-15 08:00","2019","02","15","08:00","-24.5","","-27.6","","76","","","","36","","1","","24.1","","102.04","","","","-25","","Mainly Clear"
"-61.68","56.55","NAIN A","8502801","2019-02-15 09:00","2019","02","15","09:00","-24.9","","-28.3","","74","","","","32","","4","","24.1","","102.04","","","","-29","","NA"
"-61.68","56.55","NAIN A","8502801","2019-02-15 10:00","2019","02","15","10:00","-22.8","","-27.7","","65","","","","10","","3","","24.1","","102.08","","","","-26","","NA"
"-61.68","56.55","NAIN A","8502801","2019-02-15 11:00","2019","02","15","11:00","-22.9","","-26.9","","70","","","","31","","4","","24.1","","102.05","","","","-27","","Mostly Cloudy"
"-61.68","56.55","NAIN A","8502801","2019-02-15 12:00","2019","02","15","12:00","-19.5","","-25.5","","60","","","","31","","3","","24.1","","102.03","","","","-22","","NA"
"-61.68","56.55","NAIN A","8502801","2019-02-15 13:00","2019","02","15","13:00","-19.6","","-24.7","","65","","","","33","","4","","24.1","","101.99","","","","-23","","NA"
"-61.68","56.55","NAIN A","8502801","2019-02-15 14:00","2019","02","15","14:00","-19.3","","-25.3","","59","","","","29","","7","","24.1","","101.97","","","","-25","","Mainly Clear"
"-61.68","56.55","NAIN A","8502801","2019-02-15 15:00","2019","02","15","15:00","-18.9","","-23.8","","66","","","","36","","2","","24.1","","102.00","","","","-21","","NA"
"-61.68","56.55","NAIN A","8502801","2019-02-15 16:00","2019","02","15","16:00","-18.1","","-24.8","","56","","","","36","","2","","24.1","","101.98","","","","-20","","NA"
"-61.68","56.55","NAIN A","8502801","2019-02-15 17:00","2019","02","15","17:00","-19.9","","-24.8","","66","","","","36","","2","","24.1","","102.02","","","","-22","","Mostly Cloudy"
"-61.68","56.55","NAIN A","8502801","2019-02-15 18:00","2019","02","15","18:00","-21.0","","-24.8","","72","","","","36","","1","","24.1","","102.00","","","","-22","","NA"
"-61.68","56.55","NAIN A","8502801","2019-02-15 19:00","2019","02","15","19:00","-21.0","","-25.0","","71","","","","16","","3","","24.1","","101.97","","","","-24","","NA"
"-61.68","56.55","NAIN A","8502801","2019-02-15 20:00","2019","02","15","20:00","-22.6","","-27.3","","67","","","","14","","5","","24.1","","101.97","","","","-27","","Mainly Clear"
"-61.68","56.55","NAIN A","8502801","2019-02-15 21:00","2019","02","15","21:00"
"-61.68","56.55","NAIN A","8502801","2019-02-15 22:00","2019","02","15","22:00"
"-61.68","56.55","NAIN A","8502801","2019-02-15 23:00","2019","02","15","23:00"
"-61.68","56.55","NAIN A","8502801","2019-02-16 00:00","2019","02","16","00:00"
"-61.68","56.55","NAIN A","8502801","2019-02-16 01:00","2019","02","16","01:00"
"-61.68","56.55","NAIN A","8502801","2019-02-16 02:00","2019","02","16","02:00"
"-61.68","56.55","NAIN A","8502801","2019-02-16 03:00","2019","02","16","03:00"
"-61.68","56.55","NAIN A","8502801","2019-02-16 04:00","2019","02","16","04:00"
"-61.68","56.55","NAIN A","8502801","2019-02-16 05:00","2019","02","16","05:00","-23.3","","-26.2","","78","","","","19","","5","","24.1","","101.45","","","","-28","","Mainly Clear"
"-61.68","56.55","NAIN A","8502801","2019-02-16 06:00","2019","02","16","06:00","-23.4","","-26.3","","78","","","","36","","3","","24.1","","101.38","","","","-26","","NA"
"-61.68","56.55","NAIN A","8502801","2019-02-16 07:00","2019","02","16","07:00","-23.1","","-25.9","","78","","","","36","","3","","24.1","","101.27","","","","-26","","NA"
"-61.68","56.55","NAIN A","8502801","2019-02-16 08:00","2019","02","16","08:00","-22.3","","-25.2","","78","","","","8","","3","","24.1","","101.19","","","","-25","","Cloudy"
"-61.68","56.55","NAIN A","8502801","2019-02-16 09:00","2019","02","16","09:00","-20.1","","-23.0","","78","","","","36","","1","","14.5","","101.09","","","","-21","","Snow"
"-61.68","56.55","NAIN A","8502801","2019-02-16 10:00","2019","02","16","10:00","-17.0","","-19.4","","82","","","","32","","7","","2.4","","100.95","","","","-22","","Snow"
"-61.68","56.55","NAIN A","8502801","2019-02-16 11:00","2019","02","16","11:00","-15.8","","-18.5","","80","","","","27","","3","","2.4","","100.88","","","","-18","","Snow"
"-61.68","56.55","NAIN A","8502801","2019-02-16 12:00","2019","02","16","12:00","-14.8","","-17.3","","82","","","","32","","8","","2.4","","100.67","","","","-20","","Snow"
"-61.68","56.55","NAIN A","8502801","2019-02-16 13:00","2019","02","16","13:00","-13.8","","-16.1","","83","","","","31","","10","","1.2","","100.41","","","","-20","","Snow"
"-61.68","56.55","NAIN A","8502801","2019-02-16 14:00","2019","02","16","14:00","-11.1","","-13.5","","83","","","","21","","4","","1.2","","100.21","","","","-14","","Snow"
"-61.68","56.55","NAIN A","8502801","2019-02-16 15:00","2019","02","16","15:00","-10.3","","-12.0","","87","","","","6","","14","","1.2","","100.01","","","","-17","","Snow"
"-61.68","56.55","NAIN A","8502801","2019-02-16 16:00","2019","02","16","16:00","-9.5","","-11.2","","88","","","","32","","4","","2.0","","99.88","","","","-12","","Snow"
"-61.68","56.55","NAIN A","8502801","2019-02-16 17:00","2019","02","16","17:00","-8.2","","-9.5","","90","","","","4","","3","","2.0","","99.68","","","","-10","","Snow"
"-61.68","56.55","NAIN A","8502801","2019-02-16 18:00","2019","02","16","18:00","-8.0","","-9.7","","88","","","","14","","12","","2.0","","99.58","","","","-13","","Snow"
"-61.68","56.55","NAIN A","8502801","2019-02-16 19:00","2019","02","16","19:00","-8.6","","-10.2","","88","","","","36","","1","","2.4","","99.47","","","","-9","","Snow"
"-61.68","56.55","NAIN A","8502801","2019-02-16 20:00","2019","02","16","20:00","-9.2","","-11.1","","86","","","","29","","16","","2.4","","99.36","","","","-16","","Snow"
"-61.68","56.55","NAIN A","8502801","2019-02-16 21:00","2019","02","16","21:00"
"-61.68","56.55","NAIN A","8502801","2019-02-16 22:00","2019","02","16","22:00"
"-61.68","56.55","NAIN A","8502801","2019-02-16 23:00","2019","02","16","23:00"
"-61.68","56.55","NAIN A","8502801","2019-02-17 00:00","2019","02","17","00:00"
"-61.68","56.55","NAIN A","8502801","2019-02-17 01:00","2019","02","17","01:00"
"-61.68","56.55","NAIN A","8502801","2019-02-17 02:00","2019","02","17","02:00"
"-61.68","56.55","NAIN A","8502801","2019-02-17 03:00","2019","02","17","03:00"
"-61.68","56.55","NAIN A","8502801","2019-02-17 04:00","2019","02","17","04:00"
"-61.68","56.55","NAIN A","8502801","2019-02-17 05:00","2019","02","17","05:00","-13.7","","-15.5","","86","","","","36","","1","","24.1","","98.64","","","","-14","","Mostly Cloudy"
"-61.68","56.55","NAIN A","8502801","2019-02-17 06:00","2019","02","17","06:00","-12.7","","-14.4","","87","","","","9","","4","","24.1","","98.59","","","","-15","","NA"
"-61.68","56.55","NAIN A","8502801","2019-02-17 07:00","2019","02","17","07:00","-12.0","","-13.7","","88","","","","20","","8","","24.1","","98.51","","","","-17","","Snow Showers"
"-61.68","56.55","NAIN A","8502801","2019-02-17 08:00","2019","02","17","08:00","-12.7","","-14.5","","86","","","","36","","2","","24.1","","98.47","","","","-14","","Snow Showers"
"-61.68","56.55","NAIN A","8502801","2019-02-17 09:00","2019","02","17","09:00","-13.2","","-15.1","","86","","","","","","0","","24.1","","98.40","","","","","","Snow Showers"
"-61.68","56.55","NAIN A","8502801","2019-02-17 10:00","2019","02","17","10:00","-11.8","","-13.7","","86","","","","32","","3","","24.1","","98.36","","","","-14","","Snow Showers"
"-61.68","56.55","NAIN A","8502801","2019-02-17 11:00","2019","02","17","11:00","-10.8","","-12.4","","88","","","","36","","2","","24.1","","98.30","","","","-12","","Snow Showers"
"-61.68","56.55","NAIN A","8502801","2019-02-17 12:00","2019","02","17","12:00","-9.3","","-11.0","","88","","","","9","","5","","2.4","","98.25","","","","-12","","Snow"
"-61.68","56.55","NAIN A","8502801","2019-02-17 13:00","2019","02","17","13:00","-7.2","","-10.1","","80","","","","28","","29","","4.8","","98.17","","","","-16","","Snow"
"-61.68","56.55","NAIN A","8502801","2019-02-17 14:00","2019","02","17","14:00","-7.8","","-10.8","","79","","","","29","","39","","4.8","","98.10","","","","-18","","Snow"
"-61.68","56.55","NAIN A","8502801","2019-02-17 15:00","2019","02","17","15:00","-8.1","","-11.3","","78","","","","29","","28","","3.2","","98.03","","","","-17","","Snow"
"-61.68","56.55","NAIN A","8502801","2019-02-17 16:00","2019","02","17","16:00","-8.4","","-11.7","","77","","","","29","","41","","24.1","","97.98","","","","-19","","NA"
"-61.68","56.55","NAIN A","8502801","2019-02-17 17:00","2019","02","17","17:00","-7.5","","-10.7","","78","","","","30","","56","","24.1","","97.93","","","","-19","","Blowing Snow"
"-61.68","56.55","NAIN A","8502801","2019-02-17 18:00","2019","02","17","18:00","-6.8","","-9.5","","81","","","","27","","42","","19.3","","97.93","","","","-17","","Snow,Blowing Snow"
"-61.68","56.55","NAIN A","8502801","2019-02-17 19:00","2019","02","17","19:00","-5.3","","-7.1","","87","","","","30","","45","","8.1","","97.89","","","","-15","","Snow,Blowing Snow"
"-61.68","56.55","NAIN A","8502801","2019-02-17 20:00","2019","02","17","20:00","-4.2","","-6.5","","84","","","","32","","49","","9.7","","97.91","","","","-14","","Snow,Blowing Snow"
"-61.68","56.55","NAIN A","8502801","2019-02-17 21:00","2019","02","17","21:00"
"-61.68","56.55","NAIN A","8502801","2019-02-17 22:00","2019","02","17","22:00"
"-61.68","56.55","NAIN A","8502801","2019-02-17 23:00","2019","02","17","23:00"
"-61.68","56.55","NAIN A","8502801","2019-02-18 00:00","2019","02","18","00:00"
"-61.68","56.55","NAIN A","8502801","2019-02-18 01:00","2019","02","18","01:00"
"-61.68","56.55","NAIN A","8502801","2019-02-18 02:00","2019","02","18","02:00"
"-61.68","56.55","NAIN A","8502801","2019-02-18 03:00","2019","02","18","03:00"
"-61.68","56.55","NAIN A","8502801","2019-02-18 04:00","2019","02","18","04:00"
"-61.68","56.55","NAIN A","8502801","2019-02-18 05:00","2019","02","18","05:00","-9.7","","-11.5","","87","","","","32","","89","","0.4","","98.27","","","","-24","","Snow,Blowing Snow"
"-61.68","56.55","NAIN A","8502801","2019-02-18 06:00","2019","02","18","06:00","-9.0","","-10.8","","87","","","","30","","68","","0.8","","98.40","","","","-22","","Snow,Blowing Snow"
"-61.68","56.55","NAIN A","8502801","2019-02-18 07:00","2019","02","18","07:00","-9.8","","-11.7","","86","","","","30","","67","","0.8","","98.52","","","","-23","","Snow,Blowing Snow"
"-61.68","56.55","NAIN A","8502801","2019-02-18 08:00","2019","02","18","08:00","-9.9","","-12.1","","84","","","","30","","72","","0.8","","98.68","","","","-23","","Snow,Blowing Snow"
"-61.68","56.55","NAIN A","8502801","2019-02-18 09:00","2019","02","18","09:00","-10.3","","-13.0","","81","","","","30","","73","","2.0","","98.77","","","","-24","","Snow,Blowing Snow"
"-61.68","56.55","NAIN A","8502801","2019-02-18 10:00","2019","02","18","10:00","-10.3","","-13.3","","79","","","","30","","71","","4.0","","98.91","","","","-24","","Blowing Snow"
"-61.68","56.55","NAIN A","8502801","2019-02-18 11:00","2019","02","18","11:00","-10.9","","-14.0","","78","","","","29","","58","","20.9","","99.09","","","","-24","","Blowing Snow"
"-61.68","56.55","NAIN A","8502801","2019-02-18 12:00","2019","02","18","12:00","-10.1","","-14.9","","68","","","","27","","30","","24.1","","99.22","","","","-20","","NA"
"-61.68","56.55","NAIN A","8502801","2019-02-18 13:00","2019","02","18","13:00","-11.5","","-15.4","","73","","","","31","","72","","12.9","","99.17","","","","-26","","Blowing Snow"
"-61.68","56.55","NAIN A","8502801","2019-02-18 14:00","2019","02","18","14:00","-12.0","","-16.2","","71","","","","29","","59","","24.1","","99.36","","","","-25","","Blowing Snow"
"-61.68","56.55","NAIN A","8502801","2019-02-18 15:00","2019","02","18","15:00","-13.1","","-17.7","","69","","","","28","","50","","24.1","","99.50","","","","-26","","NA"
"-61.68","56.55","NAIN A","8502801","2019-02-18 16:00","2019","02","18","16:00","-14.4","","-18.4","","72","","","","29","","41","","24.1","","99.55","","","","-27","","NA"
"-61.68","56.55","NAIN A","8502801","2019-02-18 17:00","2019","02","18","17:00","-14.8","","-20.0","","65","","","","29","","50","","24.1","","99.67","","","","-28","","Mostly Cloudy"
"-61.68","56.55","NAIN A","8502801","2019-02-18 18:00","2019","02","18","18:00","-15.8","","-20.4","","68","","","","29","","43","","24.1","","99.77","","","","-29","","Blowing Snow"
"-61.68","56.55","NAIN A","8502801","2019-02-18 19:00","2019","02","18","19:00","-16.8","","-22.5","","62","","","","28","","37","","24.1","","99.88","","","","-29","","NA"
"-61.68","56.55","NAIN A","8502801","2019-02-18 20:00","2019","02","18","20:00","-17.7","","-22.4","","67","","","","29","","40","","24.1","","99.92","","","","-31","","Mainly Clear"
"-61.68","56.55","NAIN A","8502801","2019-02-18 21:00","2019","02","18","21:00"
"-61.68","56.55","NAIN A","8502801","2019-02-18 22:00","2019","02","18","22:00"
"-61.68","56.55","NAIN A","8502801","2019-02-18 23:00","2019","02","18","23:00"
"-61.68","56.55","NAIN A","8502801","2019-02-19 00:00","2019","02","19","00:00"
"-61.68","56.55","NAIN A","8502801","2019-02-19 01:00","2019","02","19","01:00"
"-61.68","56.55","NAIN A","8502801","2019-02-19 02:00","2019","02","19","02:00"
"-61.68","56.55","NAIN A","8502801","2019-02-19 03:00","2019","02","19","03:00"
"-61.68","56.55","NAIN A","8502801","2019-02-19 04:00","2019","02","19","04:00"
"-61.68","56.55","NAIN A","8502801","2019-02-19 05:00","2019","02","19","05:00","-18.9","","-24.5","","62","","","","30","","46","","24.1","","100.09","","","","-33","","Blowing Snow"
"-61.68","56.55","NAIN A","8502801","2019-02-19 06:00","2019","02","19","06:00","-18.7","","-23.9","","64","","","","30","","50","","24.1","","100.09","","","","-34","","Blowing Snow"
"-61.68","56.55","NAIN A","8502801","2019-02-19 07:00","2019","02","19","07:00","-18.9","","-23.9","","65","","","","30","","38","","24.1","","100.12","","","","-32","","Blowing Snow"
"-61.68","56.55","NAIN A","8502801","2019-02-19 08:00","2019","02","19","08:00","-19.2","","-24.2","","65","","","","30","","37","","24.1","","100.16","","","","-33","","Blowing Snow"
"-61.68","56.55","NAIN A","8502801","2019-02-19 09:00","2019","02","19","09:00","-19.6","","-25.0","","63","","","","29","","35","","24.1","","100.17","","","","-33","","Blowing Snow"
"-61.68","56.55","NAIN A","8502801","2019-02-19 10:00","2019","02","19","10:00","-20.2","","-25.5","","63","","","","30","","45","","24.1","","100.15","","","","-35","","Blowing Snow"
"-61.68","56.55","NAIN A","8502801","2019-02-19 11:00","2019","02","19","11:00","-20.9","","-26.2","","63","","","","29","","49","","24.1","","100.14","","","","-37","","Blowing Snow"
"-61.68","56.55","NAIN A","8502801","2019-02-19 12:00","2019","02","19","12:00","-21.0","","-26.7","","61","","","","29","","56","","24.1","","100.14","","","","-37","","Blowing Snow"
"-61.68","56.55","NAIN A","8502801","2019-02-19 13:00","2019","02","19","13:00","-21.4","","-27.1","","61","","","","29","","39","","24.1","","100.18","","","","-36","","Blowing Snow"
"-61.68","56.55","NAIN A","8502801","2019-02-19 14:00","2019","02","19","14:00","-21.9","","-27.5","","61","","","","29","","38","","24.1","","100.18","","","","-36","","Blowing Snow"
"-61.68","56.55","NAIN A","8502801","2019-02-19 15:00","2019","02","19","15:00","-22.4","","-28.0","","61","","","","28","","40","","24.1","","100.21","","","","-37","","Blowing Snow"
"-61.68","56.55","NAIN A","8502801","2019-02-19 16:00","2019","02","19","16:00","-23.0","","-28.4","","62","","","","29","","49","","24.1","","100.23","","","","-39","","Blowing Snow"
"-61.68","56.55","NAIN A","8502801","2019-02-19 17:00","2019","02","19","17:00","-23.9","","-28.9","","64","","","","29","","50","","24.1","","100.28","","","","-41","","Mostly Cloudy"
"-61.68","56.55","NAIN A","8502801","2019-02-19 18:00","2019","02","19","18:00","-24.1","","-29.3","","63","","","","29","","48","","24.1","","100.34","","","","-41","","Blowing Snow"
"-61.68","56.55","NAIN A","8502801","2019-02-19 19:00","2019","02","19","19:00","-24.4","","-29.2","","65","","","","30","","49","","24.1","","100.38","","","","-41","","Blowing Snow"
"-61.68","56.55","NAIN A","8502801","2019-02-19 20:00","2019","02","19","20:00","-24.7","","-29.5","","65","","","","30","","62","","24.1","","100.41","","","","-43","","Blowing Snow"
"-61.68","56.55","NAIN A","8502801","2019-02-19 21:00","2019","02","19","21:00"
"-61.68","56.55","NAIN A","8502801","2019-02-19 22:00","2019","02","19","22:00"
"-61.68","56.55","NAIN A","8502801","2019-02-19 23:00","2019","02","19","23:00"
"-61.68","56.55","NAIN A","8502801","2019-02-20 00:00","2019","02","20","00:00"
"-61.68","56.55","NAIN A","8502801","2019-02-20 01:00","2019","02","20","01:00"
"-61.68","56.55","NAIN A","8502801","2019-02-20 02:00","2019","02","20","02:00"
"-61.68","56.55","NAIN A","8502801","2019-02-20 03:00","2019","02","20","03:00"
"-61.68","56.55","NAIN A","8502801","2019-02-20 04:00","2019","02","20","04:00"
"-61.68","56.55","NAIN A","8502801","2019-02-20 05:00","2019","02","20","05:00","-25.9","","-31.2","","62","","","","29","","47","","24.1","","100.58","","","","-43","","Clear"
"-61.68","56.55","NAIN A","8502801","2019-02-20 06:00","2019","02","20","06:00","-25.9","","-31.5","","60","","","","29","","34","","24.1","","100.63","","","","-41","","NA"
"-61.68","56.55","NAIN A","8502801","2019-02-20 07:00","2019","02","20","07:00","-25.9","","-31.7","","59","","","","29","","27","","24.1","","100.66","","","","-40","","NA"
"-61.68","56.55","NAIN A","8502801","2019-02-20 08:00","2019","02","20","08:00","-25.7","","-31.7","","58","","","","29","","25","","24.1","","100.73","","","","-39","","Mainly Clear"
"-61.68","56.55","NAIN A","8502801","2019-02-20 09:00","2019","02","20","09:00","-24.5","","-31.1","","55","","","","29","","28","","24.1","","100.74","","","","-38","","NA"
"-61.68","56.55","NAIN A","8502801","2019-02-20 10:00","2019","02","20","10:00","-23.9","","-31.0","","53","","","","28","","21","","24.1","","100.76","","","","-36","","NA"
"-61.68","56.55","NAIN A","8502801","2019-02-20 11:00","2019","02","20","11:00","-23.4","","-30.5","","53","","","","29","","30","","24.1","","100.78","","","","-37","","Mainly Clear"
"-61.68","56.55","NAIN A","8502801","2019-02-20 12:00","2019","02","20","12:00","-23.4","","-30.3","","54","","","","28","","32","","24.1","","100.79","","","","-37","","NA"
"-61.68","56.55","NAIN A","8502801","2019-02-20 13:00","2019","02","20","13:00","-23.0","","-29.7","","55","","","","29","","23","","24.1","","100.77","","","","-35","","NA"
"-61.68","56.55","NAIN A","8502801","2019-02-20 14:00","2019","02","20","14:00","-22.5","","-27.2","","66","","","","29","","33","","24.1","","100.79","","","","-36","","Clear"
"-61.68","56.55","NAIN A","8502801","2019-02-20 15:00","2019","02","20","15:00","-22.1","","-28.9","","55","","","","29","","30","","24.1","","100.81","","","","-35","","NA"
"-61.68","56.55","NAIN A","8502801","2019-02-20 16:00","2019","02","20","16:00","-22.3","","-28.5","","58","","","","28","","30","","24.1","","100.82","","","","-36","","NA"
"-61.68","56.55","NAIN A","8502801","2019-02-20 17:00","2019","02","20","17:00","-22.3","","-28.3","","59","","","","29","","38","","24.1","","100.86","","","","-37","","Clear"
"-61.68","56.55","NAIN A","8502801","2019-02-20 18:00","2019","02","20","18:00","-22.2","","-27.6","","62","","","","30","","41","","24.1","","100.90","","","","-37","","NA"
"-61.68","56.55","NAIN A","8502801","2019-02-20 19:00","2019","02","20","19:00","-23.1","","-28.0","","65","","","","30","","59","","24.1","","100.92","","","","-41","","NA"
"-61.68","56.55","NAIN A","8502801","2019-02-20 20:00","2019","02","20","20:00","-22.2","","-27.6","","62","","","","28","","55","","24.1","","100.95","","","","-39","","Blowing Snow"
"-61.68","56.55","NAIN A","8502801","2019-02-20 21:00","2019","02","20","21:00"
"-61.68","56.55","NAIN A","8502801","2019-02-20 22:00","2019","02","20","22:00"
"-61.68","56.55","NAIN A","8502801","2019-02-20 23:00","2019","02","20","23:00"
"-61.68","56.55","NAIN A","8502801","2019-02-21 00:00","2019","02","21","00:00"
"-61.68","56.55","NAIN A","8502801","2019-02-21 01:00","2019","02","21","01:00"
"-61.68","56.55","NAIN A","8502801","2019-02-21 02:00","2019","02","21","02:00"
"-61.68","56.55","NAIN A","8502801","2019-02-21 03:00","2019","02","21","03:00"
"-61.68","56.55","NAIN A","8502801","2019-02-21 04:00","2019","02","21","04:00"
"-61.68","56.55","NAIN A","8502801","2019-02-21 05:00","2019","02","21","05:00","-21.9","","-27.7","","60","","","","29","","53","","24.1","","100.66","","","","-38","","Blowing Snow"
"-61.68","56.55","NAIN A","8502801","2019-02-21 06:00","2019","02","21","06:00","-21.7","","-27.9","","58","","","","29","","57","","24.1","","100.60","","","","-39","","Blowing Snow"
"-61.68","56.55","NAIN A","8502801","2019-02-21 07:00","2019","02","21","07:00","-21.7","","-27.7","","59","","","","29","","32","","24.1","","100.64","","","","-35","","Blowing Snow"
"-61.68","56.55","NAIN A","8502801","2019-02-21 08:00","2019","02","21","08:00","-21.1","","-27.1","","59","","","","29","","42","","24.1","","100.47","","","","-36","","Blowing Snow"
"-61.68","56.55","NAIN A","8502801","2019-02-21 09:00","2019","02","21","09:00","-20.1","","-27.0","","55","","","","29","","34","","24.1","","100.43","","","","-33","","Blowing Snow"
"-61.68","56.55","NAIN A","8502801","2019-02-21 10:00","2019","02","21","10:00","-19.5","","-26.0","","57","","","","28","","37","","24.1","","100.33","","","","-33","","Blowing Snow"
"-61.68","56.55","NAIN A","8502801","2019-02-21 11:00","2019","02","21","11:00","-18.6","","-26.0","","53","","","","26","","26","","24.1","","100.27","","","","-30","","Blowing Snow"
"-61.68","56.55","NAIN A","8502801","2019-02-21 12:00","2019","02","21","12:00","-18.5","","-26.3","","51","","","","29","","27","","24.1","","100.24","","","","-30","","NA"
"-61.68","56.55","NAIN A","8502801","2019-02-21 13:00","2019","02","21","13:00","-18.6","","-25.4","","56","","","","26","","13","","24.1","","100.11","","","","-27","","NA"
"-61.68","56.55","NAIN A","8502801","2019-02-21 14:00","2019","02","21","14:00","-18.4","","-25.4","","55","","","","28","","55","","24.1","","100.14","","","","-34","","Clear"
"-61.68","56.55","NAIN A","8502801","2019-02-21 15:00","2019","02","21","15:00","-18.8","","-25.3","","57","","","","28","","48","","24.1","","100.10","","","","-34","","NA"
"-61.68","56.55","NAIN A","8502801","2019-02-21 16:00","2019","02","21","16:00","-18.9","","-25.4","","57","","","","28","","33","","24.1","","100.08","","","","-32","","NA"
"-61.68","56.55","NAIN A","8502801","2019-02-21 17:00","2019","02","21","17:00","-19.2","","-25.7","","57","","","","31","","35","","24.1","","100.15","","","","-32","","Clear"
"-61.68","56.55","NAIN A","8502801","2019-02-21 18:00","2019","02","21","18:00","-19.1","","-25.8","","56","","","","29","","25","","24.1","","100.15","","","","-30","","NA"
"-61.68","56.55","NAIN A","8502801","2019-02-21 19:00","2019","02","21","19:00","-19.2","","-25.5","","58","","","","31","","21","","24.1","","100.07","","","","-30","","NA"
"-61.68","56.55","NAIN A","8502801","2019-02-21 20:00","2019","02","21","20:00","-19.3","","-25.6","","58","","","","29","","27","","24.1","","99.98","","","","-31","","Clear"
"-61.68","56.55","NAIN A","8502801","2019-02-21 21:00","2019","02","21","21:00"
"-61.68","56.55","NAIN A","8502801","2019-02-21 22:00","2019","02","21","22:00"
"-61.68","56.55","NAIN A","8502801","2019-02-21 23:00","2019","02","21","23:00"
"-61.68","56.55","NAIN A","8502801","2019-02-22 00:00","2019","02","22","00:00"
"-61.68","56.55","NAIN A","8502801","2019-02-22 01:00","2019","02","22","01:00"
"-61.68","56.55","NAIN A","8502801","2019-02-22 02:00","2019","02","22","02:00"
"-61.68","56.55","NAIN A","8502801","2019-02-22 03:00","2019","02","22","03:00"
"-61.68","56.55","NAIN A","8502801","2019-02-22 04:00","2019","02","22","04:00"
"-61.68","56.55","NAIN A","8502801","2019-02-22 05:00","2019","02","22","05:00","-24.0","","-30.7","","55","","","","30","","45","","24.1","","100.01","","","","-40","","Clear"
"-61.68","56.55","NAIN A","8502801","2019-02-22 06:00","2019","02","22","06:00","-25.5","","-31.0","","61","","","","29","","64","","24.1","","100.00","","","","-45","","NA"
"-61.68","56.55","NAIN A","8502801","2019-02-22 07:00","2019","02","22","07:00","-26.6","","-31.7","","63","","","","29","","52","","24.1","","100.17","","","","-45","","NA"
"-61.68","56.55","NAIN A","8502801","2019-02-22 08:00","2019","02","22","08:00","-26.7","","-32.0","","62","","","","30","","44","","24.1","","100.25","","","","-44","","Mainly Clear"
"-61.68","56.55","NAIN A","8502801","2019-02-22 09:00","2019","02","22","09:00","-26.1","","-31.7","","60","","","","31","","65","","24.1","","100.27","","","","-45","","Blowing Snow"
"-61.68","56.55","NAIN A","8502801","2019-02-22 10:00","2019","02","22","10:00","-25.3","","-31.0","","60","","","","30","","61","","24.1","","100.35","","","","-44","","Blowing Snow"
"-61.68","56.55","NAIN A","8502801","2019-02-22 11:00","2019","02","22","11:00","-24.9","","-31.0","","58","","","","30","","60","","24.1","","100.39","","","","-43","","Blowing Snow"
"-61.68","56.55","NAIN A","8502801","2019-02-22 12:00","2019","02","22","12:00","-24.7","","-31.1","","56","","","","29","","54","","24.1","","100.48","","","","-42","","Blowing Snow"
"-61.68","56.55","NAIN A","8502801","2019-02-22 13:00","2019","02","22","13:00","-24.2","","-30.5","","57","","","","28","","40","","24.1","","100.55","","","","-40","","Blowing Snow"
"-61.68","56.55","NAIN A","8502801","2019-02-22 14:00","2019","02","22","14:00","-23.6","","-30.1","","56","","","","30","","41","","24.1","","100.62","","","","-39","","Blowing Snow"
"-61.68","56.55","NAIN A","8502801","2019-02-22 15:00","2019","02","22","15:00","-23.7","","-29.6","","59","","","","30","","48","","24.1","","100.68","","","","-40","","Blowing Snow"
"-61.68","56.55","NAIN A","8502801","2019-02-22 16:00","2019","02","22","16:00","-23.8","","-29.5","","60","","","","29","","43","","24.1","","100.75","","","","-40","","Blowing Snow"
"-61.68","56.55","NAIN A","8502801","2019-02-22 17:00","2019","02","22","17:00","-23.4","","-29.7","","57","","","","29","","28","","24.1","","100.83","","","","-37","","Blowing Snow"
"-61.68","56.55","NAIN A","8502801","2019-02-22 18:00","2019","02","22","18:00","-23.4","","-29.3","","59","","","","29","","30","","24.1","","100.90","","","","-37","","Blowing Snow"
"-61.68","56.55","NAIN A","8502801","2019-02-22 19:00","2019","02","22","19:00","-22.8","","-28.6","","60","","","","30","","55","","24.1","","100.92","","","","-40","","Blowing Snow"
"-61.68","56.55","NAIN A","8502801","2019-02-22 20:00","2019","02","22","20:00","-22.4","","-27.5","","64","","","","30","","52","","24.1","","100.91","","","","-39","","Blowing Snow"
"-61.68","56.55","NAIN A","8502801","2019-02-22 21:00","2019","02","22","21:00"
"-61.68","56.55","NAIN A","8502801","2019-02-22 22:00","2019","02","22","22:00"
"-61.68","56.55","NAIN A","8502801","2019-02-22 23:00","2019","02","22","23:00"
"-61.68","56.55","NAIN A","8502801","2019-02-23 00:00","2019","02","23","00:00"
"-61.68","56.55","NAIN A","8502801","2019-02-23 01:00","2019","02","23","01:00"
"-61.68","56.55","NAIN A","8502801","2019-02-23 02:00","2019","02","23","02:00"
"-61.68","56.55","NAIN A","8502801","2019-02-23 03:00","2019","02","23","03:00"
"-61.68","56.55","NAIN A","8502801","2019-02-23 04:00","2019","02","23","04:00"
"-61.68","56.55","NAIN A","8502801","2019-02-23 05:00","2019","02","23","05:00","-19.9","","-25.8","","60","","","","30","","39","","24.1","","101.04","","","","-34","","Mainly Clear"
"-61.68","56.55","NAIN A","8502801","2019-02-23 06:00","2019","02","23","06:00","-19.9","","-25.8","","60","","","","29","","41","","24.1","","101.05","","","","-34","","NA"
"-61.68","56.55","NAIN A","8502801","2019-02-23 07:00","2019","02","23","07:00","-20.1","","-26.4","","58","","","","29","","31","","24.1","","101.06","","","","-33","","NA"
"-61.68","56.55","NAIN A","8502801","2019-02-23 08:00","2019","02","23","08:00","-20.5","","-26.8","","58","","","","28","","23","","24.1","","101.08","","","","-32","","Clear"
"-61.68","56.55","NAIN A","8502801","2019-02-23 09:00","2019","02","23","09:00","-20.0","","-26.3","","58","","","","29","","42","","24.1","","101.07","","","","-34","","NA"
"-61.68","56.55","NAIN A","8502801","2019-02-23 10:00","2019","02","23","10:00","-19.4","","-26.2","","56","","","","29","","33","","24.1","","101.11","","","","-32","","NA"
"-61.68","56.55","NAIN A","8502801","2019-02-23 11:00","2019","02","23","11:00","-18.4","","-26.2","","51","","","","30","","40","","24.1","","101.11","","","","-32","","Clear"
"-61.68","56.55","NAIN A","8502801","2019-02-23 12:00","2019","02","23","12:00","-18.4","","-25.3","","55","","","","30","","48","","24.1","","101.07","","","","-33","","NA"
"-61.68","56.55","NAIN A","8502801","2019-02-23 13:00","2019","02","23","13:00","-17.6","","-25.9","","49","","","","29","","32","","24.1","","101.11","","","","-30","","NA"
"-61.68","56.55","NAIN A","8502801","2019-02-23 14:00","2019","02","23","14:00","-17.7","","-24.8","","54","","","","30","","49","","24.1","","101.11","","","","-32","","Clear"
"-61.68","56.55","NAIN A","8502801","2019-02-23 15:00","2019","02","23","15:00","-17.6","","-24.4","","56","","","","29","","46","","24.1","","101.22","","","","-32","","NA"
"-61.68","56.55","NAIN A","8502801","2019-02-23 16:00","2019","02","23","16:00","-17.8","","-24.5","","56","","","","28","","46","","24.1","","101.28","","","","-32","","NA"
"-61.68","56.55","NAIN A","8502801","2019-02-23 17:00","2019","02","23","17:00","-18.4","","-24.3","","60","","","","31","","65","","24.1","","101.25","","","","-35","","Blowing Snow"
"-61.68","56.55","NAIN A","8502801","2019-02-23 18:00","2019","02","23","18:00","-18.9","","-24.6","","61","","","","30","","54","","24.1","","101.38","","","","-34","","NA"
"-61.68","56.55","NAIN A","8502801","2019-02-23 19:00","2019","02","23","19:00","-19.5","","-25.1","","62","","","","30","","50","","24.1","","101.46","","","","-35","","NA"
"-61.68","56.55","NAIN A","8502801","2019-02-23 20:00","2019","02","23","20:00","-19.5","","-25.1","","61","","","","30","","49","","24.1","","101.50","","","","-35","","Clear"
"-61.68","56.55","NAIN A","8502801","2019-02-23 21:00","2019","02","23","21:00"
"-61.68","56.55","NAIN A","8502801","2019-02-23 22:00","2019","02","23","22:00"
"-61.68","56.55","NAIN A","8502801","2019-02-23 23:00","2019","02","23","23:00"
"-61.68","56.55","NAIN A","8502801","2019-02-24 00:00","2019","02","24","00:00"
"-61.68","56.55","NAIN A","8502801","2019-02-24 01:00","2019","02","24","01:00"
"-61.68","56.55","NAIN A","8502801","2019-02-24 02:00","2019","02","24","02:00"
"-61.68","56.55","NAIN A","8502801","2019-02-24 03:00","2019","02","24","03:00"
"-61.68","56.55","NAIN A","8502801","2019-02-24 04:00","2019","02","24","04:00"
"-61.68","56.55","NAIN A","8502801","2019-02-24 05:00","2019","02","24","05:00","-18.8","","-24.9","","60","","","","30","","37","","24.1","","101.63","","","","-32","","Clear"
"-61.68","56.55","NAIN A","8502801","2019-02-24 06:00","2019","02","24","06:00","-18.6","","-24.4","","60","","","","30","","49","","24.1","","101.65","","","","-33","","NA"
"-61.68","56.55","NAIN A","8502801","2019-02-24 07:00","2019","02","24","07:00","-18.5","","-24.6","","60","","","","30","","48","","24.1","","101.63","","","","-33","","NA"
"-61.68","56.55","NAIN A","8502801","2019-02-24 08:00","2019","02","24","08:00","-17.9","","-24.8","","56","","","","31","","39","","24.1","","101.70","","","","-31","","Clear"
"-61.68","56.55","NAIN A","8502801","2019-02-24 09:00","2019","02","24","09:00","-17.7","","-24.2","","58","","","","30","","39","","24.1","","101.64","","","","-31","","NA"
"-61.68","56.55","NAIN A","8502801","2019-02-24 10:00","2019","02","24","10:00","-16.9","","-24.1","","54","","","","28","","27","","24.1","","101.61","","","","-28","","NA"
"-61.68","56.55","NAIN A","8502801","2019-02-24 11:00","2019","02","24","11:00","-15.5","","-23.4","","51","","","","30","","22","","24.1","","101.53","","","","-25","","Clear"
"-61.68","56.55","NAIN A","8502801","2019-02-24 12:00","2019","02","24","12:00","-14.8","","-23.0","","50","","","","2","","8","","24.1","","101.48","","","","-20","","NA"
"-61.68","56.55","NAIN A","8502801","2019-02-24 13:00","2019","02","24","13:00","-14.9","","-22.6","","52","","","","27","","23","","24.1","","101.38","","","","-25","","NA"
"-61.68","56.55","NAIN A","8502801","2019-02-24 14:00","2019","02","24","14:00","-14.1","","-21.9","","52","","","","28","","22","","24.1","","101.32","","","","-23","","Clear"
"-61.68","56.55","NAIN A","8502801","2019-02-24 15:00","2019","02","24","15:00","-13.6","","-21.3","","53","","","","29","","31","","24.1","","101.33","","","","-24","","NA"
"-61.68","56.55","NAIN A","8502801","2019-02-24 16:00","2019","02","24","16:00","-14.4","","-21.7","","55","","","","29","","28","","24.1","","101.34","","","","-25","","NA"
"-61.68","56.55","NAIN A","8502801","2019-02-24 17:00","2019","02","24","17:00","-15.1","","-21.8","","57","","","","28","","20","","24.1","","101.26","","","","-24","","Clear"
"-61.68","56.55","NAIN A","8502801","2019-02-24 18:00","2019","02","24","18:00","-16.1","","-22.2","","60","","","","29","","24","","24.1","","101.23","","","","-26","","NA"
"-61.68","56.55","NAIN A","8502801","2019-02-24 19:00","2019","02","24","19:00","-17.4","","-23.2","","61","","","","13","","7","","24.1","","101.26","","","","-23","","NA"
"-61.68","56.55","NAIN A","8502801","2019-02-24 20:00","2019","02","24","20:00","-18.5","","-23.7","","64","","","","18","","11","","24.1","","101.26","","","","-26","","Clear"
"-61.68","56.55","NAIN A","8502801","2019-02-24 21:00","2019","02","24","21:00"
"-61.68","56.55","NAIN A","8502801","2019-02-24 22:00","2019","02","24","22:00"
"-61.68","56.55","NAIN A","8502801","2019-02-24 23:00","2019","02","24","23:00"
"-61.68","56.55","NAIN A","8502801","2019-02-25 00:00","2019","02","25","00:00"
"-61.68","56.55","NAIN A","8502801","2019-02-25 01:00","2019","02","25","01:00"
"-61.68","56.55","NAIN A","8502801","2019-02-25 02:00","2019","02","25","02:00"
"-61.68","56.55","NAIN A","8502801","2019-02-25 03:00","2019","02","25","03:00"
"-61.68","56.55","NAIN A","8502801","2019-02-25 04:00","2019","02","25","04:00"
"-61.68","56.55","NAIN A","8502801","2019-02-25 05:00","2019","02","25","05:00","-22.7","","-26.2","","73","","","","0","","1","","24.1","","100.94","","","","-24","","Clear"
"-61.68","56.55","NAIN A","8502801","2019-02-25 06:00","2019","02","25","06:00","-23.6","","-26.9","","75","","","","18","","7","","24.1","","100.93","","","","-30","","NA"
"-61.68","56.55","NAIN A","8502801","2019-02-25 07:00","2019","02","25","07:00","-24.9","","-27.9","","77","","","","13","","4","","24.1","","100.96","","","","-29","","NA"
"-61.68","56.55","NAIN A","8502801","2019-02-25 08:00","2019","02","25","08:00","-24.7","","-27.9","","75","","","","18","","7","","24.1","","100.97","","","","-31","","Mainly Clear"
"-61.68","56.55","NAIN A","8502801","2019-02-25 09:00","2019","02","25","09:00","-24.5","","-27.8","","75","","","","34","","12","","24.1","","100.93","","","","-33","","NA"
"-61.68","56.55","NAIN A","8502801","2019-02-25 10:00","2019","02","25","10:00","-23.3","","-26.5","","75","","","","7","","3","","24.1","","100.89","","","","-26","","NA"
"-61.68","56.55","NAIN A","8502801","2019-02-25 11:00","2019","02","25","11:00","-22.3","","-25.7","","74","","","","35","","12","","24.1","","100.85","","","","-31","","Mostly Cloudy"
"-61.68","56.55","NAIN A","8502801","2019-02-25 12:00","2019","02","25","12:00","-20.9","","-24.4","","74","","","","34","","4","","24.1","","100.77","","","","-24","","NA"
"-61.68","56.55","NAIN A","8502801","2019-02-25 13:00","2019","02","25","13:00","-19.4","","-23.5","","70","","","","33","","8","","24.1","","100.73","","","","-26","","NA"
"-61.68","56.55","NAIN A","8502801","2019-02-25 14:00","2019","02","25","14:00","-17.5","","-21.1","","74","","","","31","","4","","24.1","","100.70","","","","-21","","Mostly Cloudy"
"-61.68","56.55","NAIN A","8502801","2019-02-25 15:00","2019","02","25","15:00","-18.5","","-22.5","","71","","","","34","","12","","24.1","","100.67","","","","-26","","NA"
"-61.68","56.55","NAIN A","8502801","2019-02-25 16:00","2019","02","25","16:00","-15.6","","-19.8","","70","","","","32","","10","","24.1","","100.63","","","","-22","","NA"
"-61.68","56.55","NAIN A","8502801","2019-02-25 17:00","2019","02","25","17:00","-15.8","","-19.4","","74","","","","32","","9","","24.1","","100.62","","","","-22","","Mostly Cloudy"
"-61.68","56.55","NAIN A","8502801","2019-02-25 18:00","2019","02","25","18:00","-15.8","","-19.4","","74","","","","30","","10","","24.1","","100.59","","","","-22","","NA"
"-61.68","56.55","NAIN A","8502801","2019-02-25 19:00","2019","02","25","19:00","-15.2","","-19.9","","68","","","","33","","8","","24.1","","100.57","","","","-21","","NA"
"-61.68","56.55","NAIN A","8502801","2019-02-25 20:00","2019","02","25","20:00","-16.3","","-20.4","","71","","","","33","","9","","24.1","","100.51","","","","-22","","Cloudy"
"-61.68","56.55","NAIN A","8502801","2019-02-25 21:00","2019","02","25","21:00"
"-61.68","56.55","NAIN A","8502801","2019-02-25 22:00","2019","02","25","22:00"
"-61.68","56.55","NAIN A","8502801","2019-02-25 23:00","2019","02","25","23:00"
"-61.68","56.55","NAIN A","8502801","2019-02-26 00:00","2019","02","26","00:00"
"-61.68","56.55","NAIN A","8502801","2019-02-26 01:00","2019","02","26","01:00"
"-61.68","56.55","NAIN A","8502801","2019-02-26 02:00","2019","02","26","02:00"
"-61.68","56.55","NAIN A","8502801","2019-02-26 03:00","2019","02","26","03:00"
"-61.68","56.55","NAIN A","8502801","2019-02-26 04:00","2019","02","26","04:00"
"-61.68","56.55","NAIN A","8502801","2019-02-26 05:00","2019","02","26","05:00","-10.9","","-14.2","","76","","","","34","","13","","24.1","","100.12","","","","-17","","Snow Showers"
"-61.68","56.55","NAIN A","8502801","2019-02-26 06:00","2019","02","26","06:00","-9.9","","-13.6","","74","","","","32","","11","","24.1","","100.10","","","","-15","","Snow Showers"
"-61.68","56.55","NAIN A","8502801","2019-02-26 07:00","2019","02","26","07:00","-9.0","","-12.9","","73","","","","32","","25","","24.1","","100.05","","","","-17","","Snow Showers"
"-61.68","56.55","NAIN A","8502801","2019-02-26 08:00","2019","02","26","08:00","-9.0","","-12.8","","74","","","","32","","31","","24.1","","99.98","","","","-18","","Snow Showers"
"-61.68","56.55","NAIN A","8502801","2019-02-26 09:00","2019","02","26","09:00","-8.6","","-12.7","","73","","","","32","","29","","24.1","","99.97","","","","-18","","Snow Showers"
"-61.68","56.55","NAIN A","8502801","2019-02-26 10:00","2019","02","26","10:00","-8.4","","-12.2","","74","","","","33","","34","","24.1","","99.94","","","","-18","","Snow Showers"
"-61.68","56.55","NAIN A","8502801","2019-02-26 11:00","2019","02","26","11:00","-7.4","","-11.3","","74","","","","31","","34","","24.1","","99.87","","","","-17","","Snow Showers"
"-61.68","56.55","NAIN A","8502801","2019-02-26 12:00","2019","02","26","12:00","-6.2","","-10.1","","74","","","","35","","32","","24.1","","99.78","","","","-15","","Snow Showers"
"-61.68","56.55","NAIN A","8502801","2019-02-26 13:00","2019","02","26","13:00","-5.7","","-9.1","","77","","","","1","","30","","11.3","","99.71","","","","-14","","Snow Showers"
"-61.68","56.55","NAIN A","8502801","2019-02-26 14:00","2019","02","26","14:00","-6.0","","-9.1","","79","","","","34","","34","","17.7","","99.71","","","","-15","","Snow Showers"
"-61.68","56.55","NAIN A","8502801","2019-02-26 15:00","2019","02","26","15:00","-5.4","","-8.6","","78","","","","35","","36","","19.3","","99.70","","","","-14","","Snow Showers"
"-61.68","56.55","NAIN A","8502801","2019-02-26 16:00","2019","02","26","16:00","-5.4","","-8.8","","77","","","","35","","30","","24.1","","99.71","","","","-14","","Snow Showers"
"-61.68","56.55","NAIN A","8502801","2019-02-26 17:00","2019","02","26","17:00","-6.4","","-9.4","","79","","","","34","","42","","17.7","","99.69","","","","-16","","Snow Showers"
"-61.68","56.55","NAIN A","8502801","2019-02-26 18:00","2019","02","26","18:00","-6.3","","-10.4","","73","","","","36","","42","","17.7","","99.77","","","","-16","","Snow Showers"
"-61.68","56.55","NAIN A","8502801","2019-02-26 19:00","2019","02","26","19:00","-7.4","","-11.1","","75","","","","33","","42","","19.3","","99.75","","","","-17","","Snow Showers"
"-61.68","56.55","NAIN A","8502801","2019-02-26 20:00","2019","02","26","20:00","-7.7","","-11.6","","74","","","","33","","44","","24.1","","99.74","","","","-18","","Snow Showers"
"-61.68","56.55","NAIN A","8502801","2019-02-26 21:00","2019","02","26","21:00"
"-61.68","56.55","NAIN A","8502801","2019-02-26 22:00","2019","02","26","22:00"
"-61.68","56.55","NAIN A","8502801","2019-02-26 23:00","2019","02","26","23:00"
"-61.68","56.55","NAIN A","8502801","2019-02-27 00:00","2019","02","27","00:00"
"-61.68","56.55","NAIN A","8502801","2019-02-27 01:00","2019","02","27","01:00"
"-61.68","56.55","NAIN A","8502801","2019-02-27 02:00","2019","02","27","02:00"
"-61.68","56.55","NAIN A","8502801","2019-02-27 03:00","2019","02","27","03:00"
"-61.68","56.55","NAIN A","8502801","2019-02-27 04:00","2019","02","27","04:00"
"-61.68","56.55","NAIN A","8502801","2019-02-27 05:00","2019","02","27","05:00","-8.4","","-12.2","","74","","","","32","","54","","19.3","","99.74","","","","-20","","Blowing Snow"
"-61.68","56.55","NAIN A","8502801","2019-02-27 06:00","2019","02","27","06:00","-8.5","","-12.3","","74","","","","32","","58","","24.1","","99.69","","","","-20","","Blowing Snow"
"-61.68","56.55","NAIN A","8502801","2019-02-27 07:00","2019","02","27","07:00","-8.3","","-12.7","","71","","","","32","","68","","19.3","","99.75","","","","-21","","Blowing Snow"
"-61.68","56.55","NAIN A","8502801","2019-02-27 08:00","2019","02","27","08:00","-8.4","","-13.2","","69","","","","32","","66","","20.9","","99.78","","","","-21","","Blowing Snow"
"-61.68","56.55","NAIN A","8502801","2019-02-27 09:00","2019","02","27","09:00","-8.6","","-14.4","","63","","","","32","","67","","22.5","","99.78","","","","-21","","Snow Showers,Blowing Snow"
"-61.68","56.55","NAIN A","8502801","2019-02-27 10:00","2019","02","27","10:00","-8.4","","-14.3","","63","","","","32","","45","","22.5","","99.83","","","","-19","","Blowing Snow"
"-61.68","56.55","NAIN A","8502801","2019-02-27 11:00","2019","02","27","11:00","-8.7","","-14.4","","64","","","","31","","43","","22.5","","99.82","","","","-19","","Blowing Snow"
"-61.68","56.55","NAIN A","8502801","2019-02-27 12:00","2019","02","27","12:00","-8.8","","-15.0","","61","","","","31","","56","","19.3","","99.75","","","","-21","","Blowing Snow"
"-61.68","56.55","NAIN A","8502801","2019-02-27 13:00","2019","02","27","13:00","-8.7","","-14.9","","61","","","","30","","40","","24.1","","99.69","","","","-19","","Blowing Snow"
"-61.68","56.55","NAIN A","8502801","2019-02-27 14:00","2019","02","27","14:00","-8.5","","-14.7","","61","","","","32","","41","","24.1","","99.66","","","","-19","","Cloudy"
"-61.68","56.55","NAIN A","8502801","2019-02-27 15:00","2019","02","27","15:00","-8.2","","-14.8","","59","","","","32","","47","","24.1","","99.69","","","","-19","","NA"
"-61.68","56.55","NAIN A","8502801","2019-02-27 16:00","2019","02","27","16:00","-9.7","","-14.9","","66","","","","30","","49","","24.1","","99.67","","","","-21","","NA"
"-61.68","56.55","NAIN A","8502801","2019-02-27 17:00","2019","02","27","17:00","-10.6","","-13.4","","80","","","","30","","53","","2.4","","99.66","","","","-23","","Snow,Blowing Snow"
"-61.68","56.55","NAIN A","8502801","2019-02-27 18:00","2019","02","27","18:00","-9.8","","-12.4","","81","","","","31","","48","","2.4","","99.61","","","","-21","","Snow,Blowing Snow"
"-61.68","56.55","NAIN A","8502801","2019-02-27 19:00","2019","02","27","19:00","-9.6","","-11.8","","84","","","","30","","52","","2.4","","99.58","","","","-21","","Snow,Blowing Snow"
"-61.68","56.55","NAIN A","8502801","2019-02-27 20:00","2019","02","27","20:00","-9.2","","-12.0","","81","","","","30","","50","","6.4","","99.53","","","","-21","","Snow,Blowing Snow"
"-61.68","56.55","NAIN A","8502801","2019-02-27 21:00","2019","02","27","21:00"
"-61.68","56.55","NAIN A","8502801","2019-02-27 22:00","2019","02","27","22:00"
"-61.68","56.55","NAIN A","8502801","2019-02-27 23:00","2019","02","27","23:00"
"-61.68","56.55","NAIN A","8502801","2019-02-28 00:00","2019","02","28","00:00"
"-61.68","56.55","NAIN A","8502801","2019-02-28 01:00","2019","02","28","01:00"
"-61.68","56.55","NAIN A","8502801","2019-02-28 02:00","2019","02","28","02:00"
"-61.68","56.55","NAIN A","8502801","2019-02-28 03:00","2019","02","28","03:00"
"-61.68","56.55","NAIN A","8502801","2019-02-28 04:00","2019","02","28","04:00"
"-61.68","56.55","NAIN A","8502801","2019-02-28 05:00","2019","02","28","05:00","-10.1","","-12.2","","85","","","","29","","37","","1.6","","99.43","","","","-21","","Snow,Blowing Snow"
"-61.68","56.55","NAIN A","8502801","2019-02-28 06:00","2019","02","28","06:00","-10.4","","-12.3","","86","","","","30","","54","","1.6","","99.41","","","","-23","","Snow,Blowing Snow"
"-61.68","56.55","NAIN A","8502801","2019-02-28 07:00","2019","02","28","07:00","-11.2","","-13.5","","83","","","","29","","43","","2.4","","99.44","","","","-23","","Snow,Blowing Snow"
"-61.68","56.55","NAIN A","8502801","2019-02-28 08:00","2019","02","28","08:00","-11.8","","-14.2","","82","","","","29","","42","","2.4","","99.40","","","","-23","","Snow,Blowing Snow"
"-61.68","56.55","NAIN A","8502801","2019-02-28 09:00","2019","02","28","09:00","-10.3","","-12.9","","82","","","","31","","50","","2.0","","99.39","","","","-22","","Snow,Blowing Snow"
"-61.68","56.55","NAIN A","8502801","2019-02-28 10:00","2019","02","28","10:00","-10.6","","-13.4","","80","","","","32","","57","","2.0","","99.28","","","","-23","","Snow,Blowing Snow"
"-61.68","56.55","NAIN A","8502801","2019-02-28 11:00","2019","02","28","11:00","-11.1","","-13.6","","82","","","","30","","46","","2.0","","99.31","","","","-23","","Snow,Blowing Snow"
"-61.68","56.55","NAIN A","8502801","2019-02-28 12:00","2019","02","28","12:00","-10.8","","-13.1","","83","","","","30","","46","","0.8","","99.21","","","","-22","","Moderate Snow,Blowing Snow"
"-61.68","56.55","NAIN A","8502801","2019-02-28 13:00","2019","02","28","13:00","-10.2","","-12.9","","81","","","","31","","60","","2.0","","99.11","","","","-23","","Snow,Snow Showers,Blowing Snow"
"-61.68","56.55","NAIN A","8502801","2019-02-28 14:00","2019","02","28","14:00","-9.7","","-11.5","","87","","","","30","","54","","0.4","","99.11","","","","-22","","Moderate Snow,Blowing Snow"
"-61.68","56.55","NAIN A","8502801","2019-02-28 15:00","2019","02","28","15:00","-8.7","","-11.2","","82","","","","31","","52","","6.4","","99.12","","","","-20","","Snow,Blowing Snow"
"-61.68","56.55","NAIN A","8502801","2019-02-28 16:00","2019","02","28","16:00","-8.0","","-10.8","","81","","","","30","","48","","8.1","","99.17","","","","-19","","Snow,Blowing Snow"
"-61.68","56.55","NAIN A","8502801","2019-02-28 17:00","2019","02","28","17:00","-8.1","","-10.2","","85","","","","31","","45","","4.8","","99.16","","","","-19","","Snow,Blowing Snow"
"-61.68","56.55","NAIN A","8502801","2019-02-28 18:00","2019","02","28","18:00","-7.6","","-9.7","","85","","","","31","","44","","1.6","","99.24","","","","-18","","Snow,Blowing Snow"
"-61.68","56.55","NAIN A","8502801","2019-02-28 19:00","2019","02","28","19:00","-7.2","","-9.5","","84","","","","32","","41","","2.0","","99.29","","","","-17","","Snow,Blowing Snow"
"-61.68","56.55","NAIN A","8502801","2019-02-28 20:00","2019","02","28","20:00","-6.8","","-9.3","","82","","","","32","","43","","2.0","","99.35","","","","-17","","Snow,Blowing Snow"
"-61.68","56.55","NAIN A","8502801","2019-02-28 21:00","2019","02","28","21:00"
"-61.68","56.55","NAIN A","8502801","2019-02-28 22:00","2019","02","28","22:00"
"-61.68","56.55","NAIN A","8502801","2019-02-28 23:00","2019","02","28","23:00"
