"Longitude (x)","Latitude (y)","Station Name","Climate ID","Date/Time (LST)","Year","Month","Day","Time (LST)","Temp (°C)","Temp Flag","Dew Point Temp (°C)","Dew Point Temp Flag","Rel Hum (%)","Rel Hum Flag","Precip. Amount (mm)","Precip. Amount Flag","Wind Dir (10s deg)","Wind Dir Flag","Wind Spd (km/h)","Wind Spd Flag","Visibility (km)","Visibility Flag","Stn Press (kPa)","Stn Press Flag","Hmdx","Hmdx Flag","Wind Chill","Wind Chill Flag","Weather"
"-61.68","56.55","NAIN A","8502801","2019-03-01 00:00","2019","03","01","00:00"
"-61.68","56.55","NAIN A","8502801","2019-03-01 01:00","2019","03","01","01:00"
"-61.68","56.55","NAIN A","8502801","2019-03-01 02:00","2019","03","01","02:00"
"-61.68","56.55","NAIN A","8502801","2019-03-01 03:00","2019","03","01","03:00"
"-61.68","56.55","NAIN A","8502801","2019-03-01 04:00","2019","03","01","04:00"
"-61.68","56.55","NAIN A","8502801","2019-03-01 05:00","2019","03","01","05:00","-10.5","","-13.7","","78","","","","29","","41","","24.1","","99.60","","","","-22","","Cloudy"
"-61.68","56.55","NAIN A","8502801","2019-03-01 06:00","2019","03","01","06:00","-11.9","","-14.5","","81","","","","29","","41","","24.1","","99.60","","","","-23","","NA"
"-61.68","56.55","NAIN A","8502801","2019-03-01 07:00","2019","03","01","07:00","-11.3","","-15.2","","73","","","","30","","43","","24.1","","99.67","","","","-23","","NA"
"-61.68","56.55","NAIN A","8502801","2019-03-01 08:00","2019","03","01","08:00","-11.2","","-15.4","","72","","","","29","","36","","24.1","","99.71","","","","-22","","Cloudy"
"-61.68","56.55","NAIN A","8502801","2019-03-01 09:00","2019","03","01","09:00","-10.6","","-14.4","","74","","","","30","","34","","8.1","","99.75","","","","-21","","Snow"
"-61.68","56.55","NAIN A","8502801","2019-03-01 10:00","2019","03","01","10:00","-10.6","","-13.3","","81","","","","28","","32","","2.4","","99.77","","","","-21","","Snow"
"-61.68","56.55","NAIN A","8502801","2019-03-01 11:00","2019","03","01","11:00","-9.6","","-12.7","","78","","","","30","","35","","2.0","","99.70","","","","-20","","Snow"
"-61.68","56.55","NAIN A","8502801","2019-03-01 12:00","2019","03","01","12:00","-9.1","","-11.6","","82","","","","29","","41","","1.6","","99.64","","","","-20","","Snow"
"-61.68","56.55","NAIN A","8502801","2019-03-01 13:00","2019","03","01","13:00","-8.9","","-11.2","","84","","","","30","","41","","1.2","","99.64","","","","-19","","Snow,Blowing Snow"
"-61.68","56.55","NAIN A","8502801","2019-03-01 14:00","2019","03","01","14:00","-8.7","","-11.8","","79","","","","28","","34","","2.4","","99.71","","","","-18","","Snow,Blowing Snow"
"-61.68","56.55","NAIN A","8502801","2019-03-01 15:00","2019","03","01","15:00","-8.6","","-12.4","","74","","","","27","","39","","9.7","","99.77","","","","-19","","Snow,Blowing Snow"
"-61.68","56.55","NAIN A","8502801","2019-03-01 16:00","2019","03","01","16:00","-9.2","","-12.6","","77","","","","30","","55","","24.1","","99.79","","","","-21","","Snow Showers,Blowing Snow"
"-61.68","56.55","NAIN A","8502801","2019-03-01 17:00","2019","03","01","17:00","-10.0","","-13.3","","77","","","","30","","52","","24.1","","99.86","","","","-22","","Snow Showers,Blowing Snow"
"-61.68","56.55","NAIN A","8502801","2019-03-01 18:00","2019","03","01","18:00","-10.5","","-13.5","","79","","","","31","","70","","24.1","","99.93","","","","-24","","Snow Showers,Blowing Snow"
"-61.68","56.55","NAIN A","8502801","2019-03-01 19:00","2019","03","01","19:00","-10.7","","-15.1","","70","","","","28","","37","","24.1","","100.09","","","","-21","","Snow Showers,Blowing Snow"
"-61.68","56.55","NAIN A","8502801","2019-03-01 20:00","2019","03","01","20:00","-11.4","","-15.1","","74","","","","28","","42","","24.1","","100.11","","","","-23","","Snow Showers,Blowing Snow"
"-61.68","56.55","NAIN A","8502801","2019-03-01 21:00","2019","03","01","21:00"
"-61.68","56.55","NAIN A","8502801","2019-03-01 22:00","2019","03","01","22:00"
"-61.68","56.55","NAIN A","8502801","2019-03-01 23:00","2019","03","01","23:00"
"-61.68","56.55","NAIN A","8502801","2019-03-02 00:00","2019","03","02","00:00"
"-61.68","56.55","NAIN A","8502801","2019-03-02 01:00","2019","03","02","01:00"
"-61.68","56.55","NAIN A","8502801","2019-03-02 02:00","2019","03","02","02:00"
"-61.68","56.55","NAIN A","8502801","2019-03-02 03:00","2019","03","02","03:00"
"-61.68","56.55","NAIN A","8502801","2019-03-02 04:00","2019","03","02","04:00"
"-61.68","56.55","NAIN A","8502801","2019-03-02 05:00","2019","03","02","05:00","-13.8","","-18.1","","70","","","","28","","47","","24.1","","100.38","","","","-27","","Blowing Snow"
"-61.68","56.55","NAIN A","8502801","2019-03-02 06:00","2019","03","02","06:00","-14.7","","-18.4","","73","","","","30","","59","","24.1","","100.40","","","","-29","","Blowing Snow"
"-61.68","56.55","NAIN A","8502801","2019-03-02 07:00","2019","03","02","07:00","-14.8","","-19.2","","70","","","","29","","47","","24.1","","100.48","","","","-28","","Blowing Snow"
"-61.68","56.55","NAIN A","8502801","2019-03-02 08:00","2019","03","02","08:00","-14.8","","-19.5","","68","","","","30","","45","","24.1","","100.54","","","","-28","","Blowing Snow"
"-61.68","56.55","NAIN A","8502801","2019-03-02 09:00","2019","03","02","09:00","-14.8","","-20.0","","65","","","","29","","46","","24.1","","100.59","","","","-28","","Blowing Snow"
"-61.68","56.55","NAIN A","8502801","2019-03-02 10:00","2019","03","02","10:00","-15.0","","-20.0","","66","","","","29","","53","","24.1","","100.65","","","","-29","","Blowing Snow"
"-61.68","56.55","NAIN A","8502801","2019-03-02 11:00","2019","03","02","11:00","-14.0","","-20.6","","58","","","","28","","30","","24.1","","100.71","","","","-25","","Mostly Cloudy"
"-61.68","56.55","NAIN A","8502801","2019-03-02 12:00","2019","03","02","12:00","-13.0","","-20.5","","54","","","","29","","36","","24.1","","100.71","","","","-24","","NA"
"-61.68","56.55","NAIN A","8502801","2019-03-02 13:00","2019","03","02","13:00","-11.1","","-20.9","","45","","","","26","","16","","24.1","","100.70","","","","-18","","NA"
"-61.68","56.55","NAIN A","8502801","2019-03-02 14:00","2019","03","02","14:00","-12.1","","-20.4","","51","","","","28","","19","","24.1","","100.76","","","","-20","","Clear"
"-61.68","56.55","NAIN A","8502801","2019-03-02 15:00","2019","03","02","15:00","-13.1","","-21.1","","52","","","","28","","28","","24.1","","100.79","","","","-23","","NA"
"-61.68","56.55","NAIN A","8502801","2019-03-02 16:00","2019","03","02","16:00","-14.1","","-21.5","","54","","","","27","","19","","24.1","","100.85","","","","-23","","NA"
"-61.68","56.55","NAIN A","8502801","2019-03-02 17:00","2019","03","02","17:00","-15.1","","-22.4","","54","","","","26","","4","","24.1","","100.91","","","","-18","","Mainly Clear"
"-61.68","56.55","NAIN A","8502801","2019-03-02 18:00","2019","03","02","18:00","-16.4","","-22.9","","58","","","","17","","5","","24.1","","100.97","","","","-20","","NA"
"-61.68","56.55","NAIN A","8502801","2019-03-02 19:00","2019","03","02","19:00","-16.9","","-23.7","","56","","","","36","","2","","24.1","","101.02","","","","-18","","NA"
"-61.68","56.55","NAIN A","8502801","2019-03-02 20:00","2019","03","02","20:00","-16.4","","-23.6","","55","","","","22","","4","","24.1","","101.01","","","","-19","","Clear"
"-61.68","56.55","NAIN A","8502801","2019-03-02 21:00","2019","03","02","21:00"
"-61.68","56.55","NAIN A","8502801","2019-03-02 22:00","2019","03","02","22:00"
"-61.68","56.55","NAIN A","8502801","2019-03-02 23:00","2019","03","02","23:00"
"-61.68","56.55","NAIN A","8502801","2019-03-03 00:00","2019","03","03","00:00"
"-61.68","56.55","NAIN A","8502801","2019-03-03 01:00","2019","03","03","01:00"
"-61.68","56.55","NAIN A","8502801","2019-03-03 02:00","2019","03","03","02:00"
"-61.68","56.55","NAIN A","8502801","2019-03-03 03:00","2019","03","03","03:00"
"-61.68","56.55","NAIN A","8502801","2019-03-03 04:00","2019","03","03","04:00"
"-61.68","56.55","NAIN A","8502801","2019-03-03 05:00","2019","03","03","05:00","-20.0","","-25.4","","63","","","","36","","3","","24.1","","101.08","","","","-23","","Clear"
"-61.68","56.55","NAIN A","8502801","2019-03-03 06:00","2019","03","03","06:00","-19.7","","-25.6","","60","","","","36","","2","","24.1","","101.09","","","","-21","","NA"
"-61.68","56.55","NAIN A","8502801","2019-03-03 07:00","2019","03","03","07:00","-19.2","","-25.9","","56","","","","5","","3","","24.1","","101.09","","","","-22","","NA"
"-61.68","56.55","NAIN A","8502801","2019-03-03 08:00","2019","03","03","08:00","-18.2","","-25.3","","54","","","","28","","9","","24.1","","101.11","","","","-25","","Mostly Cloudy"
"-61.68","56.55","NAIN A","8502801","2019-03-03 09:00","2019","03","03","09:00","-16.9","","-24.6","","52","","","","36","","2","","24.1","","101.09","","","","-18","","NA"
"-61.68","56.55","NAIN A","8502801","2019-03-03 10:00","2019","03","03","10:00","-15.8","","-23.1","","55","","","","29","","16","","24.1","","101.06","","","","-24","","NA"
"-61.68","56.55","NAIN A","8502801","2019-03-03 11:00","2019","03","03","11:00","-14.7","","-23.2","","49","","","","29","","19","","24.1","","101.08","","","","-24","","Mainly Clear"
"-61.68","56.55","NAIN A","8502801","2019-03-03 12:00","2019","03","03","12:00","-14.4","","-23.0","","49","","","","29","","13","","24.1","","101.06","","","","-22","","NA"
"-61.68","56.55","NAIN A","8502801","2019-03-03 13:00","2019","03","03","13:00","-13.8","","-21.6","","53","","","","30","","13","","24.1","","101.05","","","","-21","","NA"
"-61.68","56.55","NAIN A","8502801","2019-03-03 14:00","2019","03","03","14:00","-13.3","","-20.9","","54","","","","30","","13","","24.1","","101.05","","","","-20","","Mostly Cloudy"
"-61.68","56.55","NAIN A","8502801","2019-03-03 15:00","2019","03","03","15:00","-13.7","","-20.7","","56","","","","30","","9","","24.1","","101.07","","","","-19","","NA"
"-61.68","56.55","NAIN A","8502801","2019-03-03 16:00","2019","03","03","16:00","-13.6","","-20.9","","55","","","","31","","13","","24.1","","101.10","","","","-21","","NA"
"-61.68","56.55","NAIN A","8502801","2019-03-03 17:00","2019","03","03","17:00","-13.6","","-21.2","","53","","","","25","","11","","24.1","","101.14","","","","-20","","Cloudy"
"-61.68","56.55","NAIN A","8502801","2019-03-03 18:00","2019","03","03","18:00","-14.0","","-21.8","","52","","","","25","","14","","24.1","","101.17","","","","-21","","NA"
"-61.68","56.55","NAIN A","8502801","2019-03-03 19:00","2019","03","03","19:00","-15.7","","-21.5","","62","","","","30","","7","","24.1","","101.20","","","","-21","","NA"
"-61.68","56.55","NAIN A","8502801","2019-03-03 20:00","2019","03","03","20:00","-15.1","","-21.7","","57","","","","28","","15","","24.1","","101.26","","","","-23","","Cloudy"
"-61.68","56.55","NAIN A","8502801","2019-03-03 21:00","2019","03","03","21:00"
"-61.68","56.55","NAIN A","8502801","2019-03-03 22:00","2019","03","03","22:00"
"-61.68","56.55","NAIN A","8502801","2019-03-03 23:00","2019","03","03","23:00"
"-61.68","56.55","NAIN A","8502801","2019-03-04 00:00","2019","03","04","00:00"
"-61.68","56.55","NAIN A","8502801","2019-03-04 01:00","2019","03","04","01:00"
"-61.68","56.55","NAIN A","8502801","2019-03-04 02:00","2019","03","04","02:00"
"-61.68","56.55","NAIN A","8502801","2019-03-04 03:00","2019","03","04","03:00"
"-61.68","56.55","NAIN A","8502801","2019-03-04 04:00","2019","03","04","04:00"
"-61.68","56.55","NAIN A","8502801","2019-03-04 05:00","2019","03","04","05:00","-16.4","","-22.0","","62","","","","36","","1","","24.1","","101.44","","","","-17","","Mostly Cloudy"
"-61.68","56.55","NAIN A","8502801","2019-03-04 06:00","2019","03","04","06:00","-17.4","","-23.8","","58","","","","22","","9","","24.1","","101.44","","","","-24","","NA"
"-61.68","56.55","NAIN A","8502801","2019-03-04 07:00","2019","03","04","07:00","-17.7","","-23.8","","60","","","","36","","3","","24.1","","101.47","","","","-20","","NA"
"-61.68","56.55","NAIN A","8502801","2019-03-04 08:00","2019","03","04","08:00","-17.4","","-24.3","","55","","","","29","","5","","24.1","","101.48","","","","-21","","Clear"
"-61.68","56.55","NAIN A","8502801","2019-03-04 09:00","2019","03","04","09:00","-17.9","","-24.9","","55","","","","5","","7","","24.1","","101.44","","","","-23","","NA"
"-61.68","56.55","NAIN A","8502801","2019-03-04 10:00","2019","03","04","10:00","-16.1","","-23.0","","56","","","","27","","4","","24.1","","101.45","","","","-19","","NA"
"-61.68","56.55","NAIN A","8502801","2019-03-04 11:00","2019","03","04","11:00","-16.2","","-22.9","","57","","","","36","","3","","24.1","","101.46","","","","-18","","Clear"
"-61.68","56.55","NAIN A","8502801","2019-03-04 12:00","2019","03","04","12:00","-12.7","","-21.5","","48","","","","24","","11","","24.1","","101.44","","","","-19","","NA"
"-61.68","56.55","NAIN A","8502801","2019-03-04 13:00","2019","03","04","13:00","-14.5","","-21.3","","57","","","","7","","5","","24.1","","101.39","","","","-18","","NA"
"-61.68","56.55","NAIN A","8502801","2019-03-04 14:00","2019","03","04","14:00","-13.5","","-20.2","","57","","","","34","","4","","24.1","","101.31","","","","-16","","Clear"
"-61.68","56.55","NAIN A","8502801","2019-03-04 15:00","2019","03","04","15:00","-13.8","","-20.0","","60","","","","29","","5","","24.1","","101.30","","","","-17","","NA"
"-61.68","56.55","NAIN A","8502801","2019-03-04 16:00","2019","03","04","16:00","-12.6","","-20.1","","54","","","","15","","4","","24.1","","101.28","","","","-15","","NA"
"-61.68","56.55","NAIN A","8502801","2019-03-04 17:00","2019","03","04","17:00","-14.2","","-20.8","","58","","","","36","","1","","24.1","","101.26","","","","-15","","Clear"
"-61.68","56.55","NAIN A","8502801","2019-03-04 18:00","2019","03","04","18:00","-16.4","","-21.7","","64","","","","30","","5","","24.1","","101.22","","","","-20","","NA"
"-61.68","56.55","NAIN A","8502801","2019-03-04 19:00","2019","03","04","19:00","-15.6","","-21.5","","61","","","","28","","7","","24.1","","101.20","","","","-21","","NA"
"-61.68","56.55","NAIN A","8502801","2019-03-04 20:00","2019","03","04","20:00","-16.5","","-21.8","","64","","","","30","","4","","24.1","","101.14","","","","-20","","Clear"
"-61.68","56.55","NAIN A","8502801","2019-03-04 21:00","2019","03","04","21:00"
"-61.68","56.55","NAIN A","8502801","2019-03-04 22:00","2019","03","04","22:00"
"-61.68","56.55","NAIN A","8502801","2019-03-04 23:00","2019","03","04","23:00"
"-61.68","56.55","NAIN A","8502801","2019-03-05 00:00","2019","03","05","00:00"
"-61.68","56.55","NAIN A","8502801","2019-03-05 01:00","2019","03","05","01:00"
"-61.68","56.55","NAIN A","8502801","2019-03-05 02:00","2019","03","05","02:00"
"-61.68","56.55","NAIN A","8502801","2019-03-05 03:00","2019","03","05","03:00"
"-61.68","56.55","NAIN A","8502801","2019-03-05 04:00","2019","03","05","04:00"
"-61.68","56.55","NAIN A","8502801","2019-03-05 05:00","2019","03","05","05:00","-15.3","","-19.2","","72","","","","29","","13","","22.5","","100.31","","","","-23","","Snow"
"-61.68","56.55","NAIN A","8502801","2019-03-05 06:00","2019","03","05","06:00","-15.2","","-18.7","","75","","","","33","","15","","22.5","","100.21","","","","-23","","Snow"
"-61.68","56.55","NAIN A","8502801","2019-03-05 07:00","2019","03","05","07:00","-15.1","","-17.9","","79","","","","31","","20","","3.2","","100.08","","","","-24","","Snow"
"-61.68","56.55","NAIN A","8502801","2019-03-05 08:00","2019","03","05","08:00","-14.4","","-17.4","","78","","","","30","","27","","4.0","","99.97","","","","-25","","Snow"
"-61.68","56.55","NAIN A","8502801","2019-03-05 09:00","2019","03","05","09:00","-13.5","","-16.4","","79","","","","32","","27","","3.2","","99.83","","","","-24","","Snow"
"-61.68","56.55","NAIN A","8502801","2019-03-05 10:00","2019","03","05","10:00","-12.8","","-15.8","","78","","","","32","","37","","3.2","","99.67","","","","-24","","Snow"
"-61.68","56.55","NAIN A","8502801","2019-03-05 11:00","2019","03","05","11:00","-11.8","","-15.2","","76","","","","31","","35","","6.4","","99.55","","","","-23","","Snow"
"-61.68","56.55","NAIN A","8502801","2019-03-05 12:00","2019","03","05","12:00","-11.2","","-14.7","","76","","","","32","","46","","6.4","","99.36","","","","-23","","Snow,Blowing Snow"
"-61.68","56.55","NAIN A","8502801","2019-03-05 13:00","2019","03","05","13:00","-10.7","","-13.8","","78","","","","32","","53","","2.4","","99.26","","","","-23","","Snow,Blowing Snow"
"-61.68","56.55","NAIN A","8502801","2019-03-05 14:00","2019","03","05","14:00","-10.2","","-13.6","","76","","","","31","","52","","2.4","","99.20","","","","-22","","Snow,Blowing Snow"
"-61.68","56.55","NAIN A","8502801","2019-03-05 15:00","2019","03","05","15:00","-10.3","","-13.8","","76","","","","30","","58","","6.4","","99.14","","","","-23","","Snow,Blowing Snow"
"-61.68","56.55","NAIN A","8502801","2019-03-05 16:00","2019","03","05","16:00","-10.5","","-13.6","","78","","","","32","","55","","4.8","","99.10","","","","-23","","Snow,Blowing Snow"
"-61.68","56.55","NAIN A","8502801","2019-03-05 17:00","2019","03","05","17:00","-10.3","","-13.6","","77","","","","31","","61","","8.1","","99.10","","","","-23","","Snow,Blowing Snow"
"-61.68","56.55","NAIN A","8502801","2019-03-05 18:00","2019","03","05","18:00","-10.2","","-13.1","","79","","","","32","","58","","6.4","","99.10","","","","-23","","Snow,Blowing Snow"
"-61.68","56.55","NAIN A","8502801","2019-03-05 19:00","2019","03","05","19:00","-10.1","","-12.7","","82","","","","32","","53","","2.4","","99.09","","","","-22","","Snow,Blowing Snow"
"-61.68","56.55","NAIN A","8502801","2019-03-05 20:00","2019","03","05","20:00","-9.9","","-12.7","","81","","","","31","","43","","3.2","","99.09","","","","-21","","Snow,Blowing Snow"
"-61.68","56.55","NAIN A","8502801","2019-03-05 21:00","2019","03","05","21:00"
"-61.68","56.55","NAIN A","8502801","2019-03-05 22:00","2019","03","05","22:00"
"-61.68","56.55","NAIN A","8502801","2019-03-05 23:00","2019","03","05","23:00"
"-61.68","56.55","NAIN A","8502801","2019-03-06 00:00","2019","03","06","00:00"
"-61.68","56.55","NAIN A","8502801","2019-03-06 01:00","2019","03","06","01:00"
"-61.68","56.55","NAIN A","8502801","2019-03-06 02:00","2019","03","06","02:00"
"-61.68","56.55","NAIN A","8502801","2019-03-06 03:00","2019","03","06","03:00"
"-61.68","56.55","NAIN A","8502801","2019-03-06 04:00","2019","03","06","04:00"
"-61.68","56.55","NAIN A","8502801","2019-03-06 05:00","2019","03","06","05:00","-10.0","","-14.8","","68","","","","30","","33","","12.9","","99.09","","","","-20","","Snow,Blowing Snow"
"-61.68","56.55","NAIN A","8502801","2019-03-06 06:00","2019","03","06","06:00","-10.2","","-15.4","","66","","","","29","","35","","24.1","","99.10","","","","-20","","Snow,Blowing Snow"
"-61.68","56.55","NAIN A","8502801","2019-03-06 07:00","2019","03","06","07:00","-10.5","","-15.9","","65","","","","30","","35","","24.1","","99.06","","","","-21","","Blowing Snow"
"-61.68","56.55","NAIN A","8502801","2019-03-06 08:00","2019","03","06","08:00","-11.1","","-16.5","","65","","","","29","","32","","24.1","","99.11","","","","-21","","Snow Showers"
"-61.68","56.55","NAIN A","8502801","2019-03-06 09:00","2019","03","06","09:00","-11.5","","-16.5","","67","","","","29","","40","","20.9","","99.05","","","","-23","","Snow Showers,Blowing Snow"
"-61.68","56.55","NAIN A","8502801","2019-03-06 10:00","2019","03","06","10:00","-11.5","","-15.1","","75","","","","29","","36","","2.4","","99.04","","","","-22","","Snow,Blowing Snow"
"-61.68","56.55","NAIN A","8502801","2019-03-06 11:00","2019","03","06","11:00","-11.8","","-14.2","","83","","","","29","","39","","0.8","","99.00","","","","-23","","Moderate Snow,Blowing Snow"
"-61.68","56.55","NAIN A","8502801","2019-03-06 12:00","2019","03","06","12:00","-11.9","","-14.2","","84","","","","28","","40","","0.8","","98.95","","","","-23","","Moderate Snow,Blowing Snow"
"-61.68","56.55","NAIN A","8502801","2019-03-06 13:00","2019","03","06","13:00","-12.1","","-14.4","","83","","","","28","","42","","0.8","","98.91","","","","-24","","Moderate Snow,Blowing Snow"
"-61.68","56.55","NAIN A","8502801","2019-03-06 14:00","2019","03","06","14:00","-11.9","","-14.1","","85","","","","29","","52","","0.8","","98.85","","","","-25","","Moderate Snow,Blowing Snow"
"-61.68","56.55","NAIN A","8502801","2019-03-06 15:00","2019","03","06","15:00","-12.1","","-14.3","","84","","","","29","","52","","0.8","","98.81","","","","-25","","Moderate Snow,Blowing Snow"
"-61.68","56.55","NAIN A","8502801","2019-03-06 16:00","2019","03","06","16:00","-13.2","","-15.5","","83","","","","29","","63","","0.6","","98.79","","","","-27","","Snow,Blowing Snow"
"-61.68","56.55","NAIN A","8502801","2019-03-06 17:00","2019","03","06","17:00","-13.9","","-16.0","","84","","","","30","","58","","0.4","","98.76","","","","-28","","Moderate Snow,Blowing Snow"
"-61.68","56.55","NAIN A","8502801","2019-03-06 18:00","2019","03","06","18:00","-14.0","","-16.2","","84","","","","29","","55","","0.4","","98.80","","","","-28","","Moderate Snow,Blowing Snow"
"-61.68","56.55","NAIN A","8502801","2019-03-06 19:00","2019","03","06","19:00","-14.7","","-16.9","","83","","","","29","","50","","0.6","","98.79","","","","-28","","Moderate Snow,Blowing Snow"
"-61.68","56.55","NAIN A","8502801","2019-03-06 20:00","2019","03","06","20:00","-15.2","","-17.6","","83","","","","29","","50","","0.8","","98.75","","","","-29","","Snow,Blowing Snow"
"-61.68","56.55","NAIN A","8502801","2019-03-06 21:00","2019","03","06","21:00"
"-61.68","56.55","NAIN A","8502801","2019-03-06 22:00","2019","03","06","22:00"
"-61.68","56.55","NAIN A","8502801","2019-03-06 23:00","2019","03","06","23:00"
"-61.68","56.55","NAIN A","8502801","2019-03-07 00:00","2019","03","07","00:00"
"-61.68","56.55","NAIN A","8502801","2019-03-07 01:00","2019","03","07","01:00"
"-61.68","56.55","NAIN A","8502801","2019-03-07 02:00","2019","03","07","02:00"
"-61.68","56.55","NAIN A","8502801","2019-03-07 03:00","2019","03","07","03:00"
"-61.68","56.55","NAIN A","8502801","2019-03-07 04:00","2019","03","07","04:00"
"-61.68","56.55","NAIN A","8502801","2019-03-07 05:00","2019","03","07","05:00","-15.6","","-18.9","","77","","","","28","","38","","2.0","","98.19","","","","-28","","Snow,Blowing Snow"
"-61.68","56.55","NAIN A","8502801","2019-03-07 06:00","2019","03","07","06:00","-16.0","","-18.8","","80","","","","28","","37","","2.0","","98.22","","","","-28","","Snow,Blowing Snow"
"-61.68","56.55","NAIN A","8502801","2019-03-07 07:00","2019","03","07","07:00","-16.6","","-19.3","","80","","","","28","","47","","1.0","","98.21","","","","-30","","Snow,Blowing Snow"
"-61.68","56.55","NAIN A","8502801","2019-03-07 08:00","2019","03","07","08:00","-16.9","","-19.6","","80","","","","29","","52","","0.0","","98.24","","","","-31","","Snow,Blowing Snow"
"-61.68","56.55","NAIN A","8502801","2019-03-07 09:00","2019","03","07","09:00","-17.0","","-19.9","","79","","","","29","","45","","0.8","","98.25","","","","-31","","Snow,Blowing Snow"
"-61.68","56.55","NAIN A","8502801","2019-03-07 10:00","2019","03","07","10:00","-17.0","","-19.8","","79","","","","29","","45","","0.6","","98.28","","","","-31","","Snow,Blowing Snow"
"-61.68","56.55","NAIN A","8502801","2019-03-07 11:00","2019","03","07","11:00","-17.2","","-20.1","","78","","","","29","","55","","1.0","","98.31","","","","-32","","Snow,Blowing Snow"
"-61.68","56.55","NAIN A","8502801","2019-03-07 12:00","2019","03","07","12:00","-17.2","","-20.2","","78","","","","29","","46","","1.6","","98.32","","","","-31","","Snow,Blowing Snow"
"-61.68","56.55","NAIN A","8502801","2019-03-07 13:00","2019","03","07","13:00","-17.7","","-20.6","","78","","","","29","","48","","1.0","","98.31","","","","-32","","Snow,Blowing Snow"
"-61.68","56.55","NAIN A","8502801","2019-03-07 14:00","2019","03","07","14:00","-17.9","","-20.8","","78","","","","29","","58","","0.8","","98.34","","","","-33","","Moderate Snow,Blowing Snow"
"-61.68","56.55","NAIN A","8502801","2019-03-07 15:00","2019","03","07","15:00","-17.8","","-20.5","","80","","","","29","","59","","0.6","","98.42","","","","-33","","Snow,Blowing Snow"
"-61.68","56.55","NAIN A","8502801","2019-03-07 16:00","2019","03","07","16:00","-17.9","","-20.6","","79","","","","32","","78","","0.2","","98.49","","","","-35","","Snow,Blowing Snow"
"-61.68","56.55","NAIN A","8502801","2019-03-07 17:00","2019","03","07","17:00","-18.4","","-21.1","","79","","","","32","","72","","1.6","","98.57","","","","-35","","Snow,Blowing Snow"
"-61.68","56.55","NAIN A","8502801","2019-03-07 18:00","2019","03","07","18:00","-18.6","","-21.4","","79","","","","30","","60","","1.6","","98.71","","","","-35","","Snow,Blowing Snow"
"-61.68","56.55","NAIN A","8502801","2019-03-07 19:00","2019","03","07","19:00","-18.7","","-21.4","","80","","","","27","","65","","1.6","","98.66","","","","-35","","Snow,Blowing Snow"
"-61.68","56.55","NAIN A","8502801","2019-03-07 20:00","2019","03","07","20:00","-18.7","","-21.5","","79","","","","30","","55","","1.6","","98.77","","","","-34","","Snow,Blowing Snow"
"-61.68","56.55","NAIN A","8502801","2019-03-07 21:00","2019","03","07","21:00"
"-61.68","56.55","NAIN A","8502801","2019-03-07 22:00","2019","03","07","22:00"
"-61.68","56.55","NAIN A","8502801","2019-03-07 23:00","2019","03","07","23:00"
"-61.68","56.55","NAIN A","8502801","2019-03-08 00:00","2019","03","08","00:00"
"-61.68","56.55","NAIN A","8502801","2019-03-08 01:00","2019","03","08","01:00"
"-61.68","56.55","NAIN A","8502801","2019-03-08 02:00","2019","03","08","02:00"
"-61.68","56.55","NAIN A","8502801","2019-03-08 03:00","2019","03","08","03:00"
"-61.68","56.55","NAIN A","8502801","2019-03-08 04:00","2019","03","08","04:00"
"-61.68","56.55","NAIN A","8502801","2019-03-08 05:00","2019","03","08","05:00","-20.4","","-23.9","","74","","","","29","","58","","4.8","","99.01","","","","-37","","Snow,Blowing Snow"
"-61.68","56.55","NAIN A","8502801","2019-03-08 06:00","2019","03","08","06:00","-20.8","","-24.2","","74","","","","29","","58","","6.4","","99.00","","","","-37","","Snow,Blowing Snow"
"-61.68","56.55","NAIN A","8502801","2019-03-08 07:00","2019","03","08","07:00","-21.3","","-25.1","","72","","","","29","","59","","24.1","","99.05","","","","-38","","Snow Showers,Blowing Snow"
"-61.68","56.55","NAIN A","8502801","2019-03-08 08:00","2019","03","08","08:00","-21.6","","-25.2","","73","","","","29","","56","","24.1","","99.09","","","","-38","","Snow Showers,Blowing Snow"
"-61.68","56.55","NAIN A","8502801","2019-03-08 09:00","2019","03","08","09:00","-20.9","","-25.1","","70","","","","29","","45","","24.1","","99.09","","","","-36","","Snow Showers,Blowing Snow"
"-61.68","56.55","NAIN A","8502801","2019-03-08 10:00","2019","03","08","10:00","-20.5","","-24.7","","70","","","","29","","59","","24.1","","99.09","","","","-37","","Snow Showers,Blowing Snow"
"-61.68","56.55","NAIN A","8502801","2019-03-08 11:00","2019","03","08","11:00","-19.9","","-24.1","","70","","","","29","","56","","24.1","","99.08","","","","-36","","Snow Showers,Blowing Snow"
"-61.68","56.55","NAIN A","8502801","2019-03-08 12:00","2019","03","08","12:00","-18.9","","-23.1","","70","","","","29","","50","","24.1","","99.01","","","","-34","","Snow Showers,Blowing Snow"
"-61.68","56.55","NAIN A","8502801","2019-03-08 13:00","2019","03","08","13:00","-18.8","","-22.6","","72","","","","30","","60","","24.1","","99.00","","","","-35","","Snow Showers,Blowing Snow"
"-61.68","56.55","NAIN A","8502801","2019-03-08 14:00","2019","03","08","14:00","-19.0","","-22.1","","76","","","","29","","59","","1.0","","99.00","","","","-35","","Snow Showers,Blowing Snow"
"-61.68","56.55","NAIN A","8502801","2019-03-08 15:00","2019","03","08","15:00","-18.6","","-21.6","","78","","","","30","","60","","0.4","","99.02","","","","-35","","Moderate Snow,Blowing Snow"
"-61.68","56.55","NAIN A","8502801","2019-03-08 16:00","2019","03","08","16:00","-18.4","","-20.9","","81","","","","29","","46","","0.2","","99.12","","","","-33","","Moderate Snow,Blowing Snow"
"-61.68","56.55","NAIN A","8502801","2019-03-08 17:00","2019","03","08","17:00","-18.0","","-20.9","","79","","","","32","","71","","0.4","","99.13","","","","-35","","Moderate Snow,Blowing Snow"
"-61.68","56.55","NAIN A","8502801","2019-03-08 18:00","2019","03","08","18:00","-17.6","","-20.2","","81","","","","29","","46","","0.4","","99.20","","","","-32","","Moderate Snow,Blowing Snow"
"-61.68","56.55","NAIN A","8502801","2019-03-08 19:00","2019","03","08","19:00","-17.1","","-19.6","","81","","","","29","","57","","0.4","","99.19","","","","-32","","Moderate Snow,Blowing Snow"
"-61.68","56.55","NAIN A","8502801","2019-03-08 20:00","2019","03","08","20:00","-16.3","","-19.2","","79","","","","29","","52","","2.0","","99.20","","","","-31","","Snow,Blowing Snow"
"-61.68","56.55","NAIN A","8502801","2019-03-08 21:00","2019","03","08","21:00"
"-61.68","56.55","NAIN A","8502801","2019-03-08 22:00","2019","03","08","22:00"
"-61.68","56.55","NAIN A","8502801","2019-03-08 23:00","2019","03","08","23:00"
"-61.68","56.55","NAIN A","8502801","2019-03-09 00:00","2019","03","09","00:00"
"-61.68","56.55","NAIN A","8502801","2019-03-09 01:00","2019","03","09","01:00"
"-61.68","56.55","NAIN A","8502801","2019-03-09 02:00","2019","03","09","02:00"
"-61.68","56.55","NAIN A","8502801","2019-03-09 03:00","2019","03","09","03:00"
"-61.68","56.55","NAIN A","8502801","2019-03-09 04:00","2019","03","09","04:00"
"-61.68","56.55","NAIN A","8502801","2019-03-09 05:00","2019","03","09","05:00","-10.4","","-13.4","","79","","","","31","","47","","8.1","","99.94","","","","-22","","Snow,Blowing Snow"
"-61.68","56.55","NAIN A","8502801","2019-03-09 06:00","2019","03","09","06:00","-9.5","","-12.6","","78","","","","31","","47","","6.4","","100.07","","","","-21","","Snow,Blowing Snow"
"-61.68","56.55","NAIN A","8502801","2019-03-09 07:00","2019","03","09","07:00","-8.7","","-11.7","","79","","","","32","","50","","19.3","","100.23","","","","-20","","Snow,Blowing Snow"
"-61.68","56.55","NAIN A","8502801","2019-03-09 08:00","2019","03","09","08:00","-8.4","","-11.8","","76","","","","31","","52","","22.5","","100.35","","","","-20","","Snow,Blowing Snow"
"-61.68","56.55","NAIN A","8502801","2019-03-09 09:00","2019","03","09","09:00","-7.5","","-11.6","","73","","","","32","","51","","24.1","","100.50","","","","-18","","Blowing Snow"
"-61.68","56.55","NAIN A","8502801","2019-03-09 10:00","2019","03","09","10:00","-6.5","","-11.7","","67","","","","32","","35","","24.1","","100.67","","","","-16","","Blowing Snow"
"-61.68","56.55","NAIN A","8502801","2019-03-09 11:00","2019","03","09","11:00","-6.1","","-11.6","","65","","","","33","","38","","24.1","","100.82","","","","-15","","Blowing Snow"
"-61.68","56.55","NAIN A","8502801","2019-03-09 12:00","2019","03","09","12:00","-6.2","","-11.4","","67","","","","31","","46","","24.1","","100.94","","","","-16","","Blowing Snow"
"-61.68","56.55","NAIN A","8502801","2019-03-09 13:00","2019","03","09","13:00","-7.3","","-12.9","","64","","","","31","","51","","24.1","","101.08","","","","-18","","NA"
"-61.68","56.55","NAIN A","8502801","2019-03-09 14:00","2019","03","09","14:00","-8.1","","-13.1","","67","","","","30","","42","","24.1","","101.20","","","","-18","","Mostly Cloudy"
"-61.68","56.55","NAIN A","8502801","2019-03-09 15:00","2019","03","09","15:00","-7.4","","-13.3","","63","","","","29","","33","","24.1","","101.37","","","","-17","","NA"
"-61.68","56.55","NAIN A","8502801","2019-03-09 16:00","2019","03","09","16:00","-8.4","","-13.6","","66","","","","28","","34","","24.1","","101.49","","","","-18","","NA"
"-61.68","56.55","NAIN A","8502801","2019-03-09 17:00","2019","03","09","17:00","-8.7","","-14.4","","64","","","","29","","36","","24.1","","101.61","","","","-19","","Mostly Cloudy"
"-61.68","56.55","NAIN A","8502801","2019-03-09 18:00","2019","03","09","18:00","-10.2","","-15.0","","68","","","","29","","41","","24.1","","101.69","","","","-21","","NA"
"-61.68","56.55","NAIN A","8502801","2019-03-09 19:00","2019","03","09","19:00","-11.2","","-16.0","","68","","","","29","","49","","24.1","","101.83","","","","-23","","Blowing Snow"
"-61.68","56.55","NAIN A","8502801","2019-03-09 20:00","2019","03","09","20:00","-11.7","","-16.9","","66","","","","30","","57","","24.1","","101.93","","","","-25","","Blowing Snow"
"-61.68","56.55","NAIN A","8502801","2019-03-09 21:00","2019","03","09","21:00"
"-61.68","56.55","NAIN A","8502801","2019-03-09 22:00","2019","03","09","22:00"
"-61.68","56.55","NAIN A","8502801","2019-03-09 23:00","2019","03","09","23:00"
"-61.68","56.55","NAIN A","8502801","2019-03-10 00:00","2019","03","10","00:00"
"-61.68","56.55","NAIN A","8502801","2019-03-10 01:00","2019","03","10","01:00"
"-61.68","56.55","NAIN A","8502801","2019-03-10 02:00","2019","03","10","02:00"
"-61.68","56.55","NAIN A","8502801","2019-03-10 03:00","2019","03","10","03:00"
"-61.68","56.55","NAIN A","8502801","2019-03-10 04:00","2019","03","10","04:00","-16.7","","-23.0","","59","","","","15","","8","","24.1","","102.54","","","","-22","","NA"
"-61.68","56.55","NAIN A","8502801","2019-03-10 05:00","2019","03","10","05:00","-17.8","","-23.5","","62","","","","17","","7","","24.1","","102.58","","","","-23","","Clear"
"-61.68","56.55","NAIN A","8502801","2019-03-10 06:00","2019","03","10","06:00","-17.9","","-23.6","","62","","","","19","","5","","24.1","","102.60","","","","-22","","NA"
"-61.68","56.55","NAIN A","8502801","2019-03-10 07:00","2019","03","10","07:00","-17.6","","-23.2","","62","","","","21","","5","","24.1","","102.62","","","","-22","","NA"
"-61.68","56.55","NAIN A","8502801","2019-03-10 08:00","2019","03","10","08:00","-18.4","","-24.0","","62","","","","6","","5","","24.1","","102.66","","","","-22","","Mainly Clear"
"-61.68","56.55","NAIN A","8502801","2019-03-10 09:00","2019","03","10","09:00","-16.9","","-23.2","","58","","","","34","","10","","24.1","","102.65","","","","-24","","NA"
"-61.68","56.55","NAIN A","8502801","2019-03-10 10:00","2019","03","10","10:00","-15.7","","-22.8","","55","","","","23","","16","","24.1","","102.71","","","","-24","","NA"
"-61.68","56.55","NAIN A","8502801","2019-03-10 11:00","2019","03","10","11:00","-15.0","","-22.5","","54","","","","20","","15","","24.1","","102.70","","","","-23","","Mostly Cloudy"
"-61.68","56.55","NAIN A","8502801","2019-03-10 12:00","2019","03","10","12:00","-13.8","","-22.2","","49","","","","23","","4","","24.1","","102.62","","","","-17","","NA"
"-61.68","56.55","NAIN A","8502801","2019-03-10 13:00","2019","03","10","13:00","-13.5","","-20.8","","55","","","","26","","18","","24.1","","102.61","","","","-22","","NA"
"-61.68","56.55","NAIN A","8502801","2019-03-10 14:00","2019","03","10","14:00","-14.0","","-21.4","","54","","","","22","","21","","24.1","","102.53","","","","-23","","Cloudy"
"-61.68","56.55","NAIN A","8502801","2019-03-10 15:00","2019","03","10","15:00","-13.7","","-21.7","","52","","","","24","","24","","24.1","","102.52","","","","-23","","NA"
"-61.68","56.55","NAIN A","8502801","2019-03-10 16:00","2019","03","10","16:00","-13.2","","-21.3","","51","","","","24","","19","","24.1","","102.40","","","","-22","","NA"
"-61.68","56.55","NAIN A","8502801","2019-03-10 17:00","2019","03","10","17:00","-13.9","","-21.0","","56","","","","23","","33","","24.1","","102.36","","","","-25","","Cloudy"
"-61.68","56.55","NAIN A","8502801","2019-03-10 18:00","2019","03","10","18:00","-14.2","","-21.5","","55","","","","24","","29","","24.1","","102.29","","","","-25","","NA"
"-61.68","56.55","NAIN A","8502801","2019-03-10 19:00","2019","03","10","19:00","-14.2","","-21.4","","55","","","","24","","21","","24.1","","102.19","","","","-23","","NA"
"-61.68","56.55","NAIN A","8502801","2019-03-10 20:00","2019","03","10","20:00"
"-61.68","56.55","NAIN A","8502801","2019-03-10 21:00","2019","03","10","21:00"
"-61.68","56.55","NAIN A","8502801","2019-03-10 22:00","2019","03","10","22:00"
"-61.68","56.55","NAIN A","8502801","2019-03-10 23:00","2019","03","10","23:00"
"-61.68","56.55","NAIN A","8502801","2019-03-11 00:00","2019","03","11","00:00"
"-61.68","56.55","NAIN A","8502801","2019-03-11 01:00","2019","03","11","01:00"
"-61.68","56.55","NAIN A","8502801","2019-03-11 02:00","2019","03","11","02:00"
"-61.68","56.55","NAIN A","8502801","2019-03-11 03:00","2019","03","11","03:00"
"-61.68","56.55","NAIN A","8502801","2019-03-11 04:00","2019","03","11","04:00","-16.7","","-21.2","","68","","","","36","","3","","24.1","","101.07","","","","-19","","NA"
"-61.68","56.55","NAIN A","8502801","2019-03-11 05:00","2019","03","11","05:00","-16.6","","-20.6","","72","","","","36","","1","","24.1","","100.90","","","","-17","","Cloudy"
"-61.68","56.55","NAIN A","8502801","2019-03-11 06:00","2019","03","11","06:00","-17.1","","-20.2","","77","","","","36","","1","","24.1","","100.78","","","","-18","","NA"
"-61.68","56.55","NAIN A","8502801","2019-03-11 07:00","2019","03","11","07:00","-16.1","","-19.9","","73","","","","35","","6","","24.1","","100.68","","","","-21","","NA"
"-61.68","56.55","NAIN A","8502801","2019-03-11 08:00","2019","03","11","08:00","-15.7","","-18.4","","80","","","","17","","6","","6.4","","100.59","","","","-20","","Snow"
"-61.68","56.55","NAIN A","8502801","2019-03-11 09:00","2019","03","11","09:00","-15.3","","-17.9","","80","","","","16","","4","","9.7","","100.48","","","","-18","","Snow"
"-61.68","56.55","NAIN A","8502801","2019-03-11 10:00","2019","03","11","10:00","-15.0","","-17.6","","81","","","","36","","2","","14.5","","100.40","","","","-16","","Snow"
"-61.68","56.55","NAIN A","8502801","2019-03-11 11:00","2019","03","11","11:00","-13.8","","-16.6","","79","","","","17","","4","","8.1","","100.32","","","","-17","","Snow"
"-61.68","56.55","NAIN A","8502801","2019-03-11 12:00","2019","03","11","12:00","-13.2","","-16.0","","80","","","","36","","1","","6.4","","100.23","","","","-14","","Snow"
"-61.68","56.55","NAIN A","8502801","2019-03-11 13:00","2019","03","11","13:00","-11.9","","-14.5","","81","","","","34","","10","","9.7","","100.14","","","","-18","","Snow"
"-61.68","56.55","NAIN A","8502801","2019-03-11 14:00","2019","03","11","14:00","-11.8","","-14.1","","83","","","","35","","11","","19.3","","100.06","","","","-18","","Snow"
"-61.68","56.55","NAIN A","8502801","2019-03-11 15:00","2019","03","11","15:00","-11.1","","-13.8","","81","","","","3","","6","","22.5","","100.04","","","","-15","","Snow"
"-61.68","56.55","NAIN A","8502801","2019-03-11 16:00","2019","03","11","16:00","-10.8","","-13.4","","81","","","","5","","9","","16.1","","100.01","","","","-16","","Snow"
"-61.68","56.55","NAIN A","8502801","2019-03-11 17:00","2019","03","11","17:00","-11.1","","-13.4","","83","","","","3","","11","","12.9","","100.02","","","","-17","","Snow"
"-61.68","56.55","NAIN A","8502801","2019-03-11 18:00","2019","03","11","18:00","-11.6","","-13.9","","83","","","","3","","13","","12.9","","100.01","","","","-18","","Snow"
"-61.68","56.55","NAIN A","8502801","2019-03-11 19:00","2019","03","11","19:00","-11.8","","-14.0","","84","","","","33","","12","","17.7","","99.98","","","","-18","","Snow"
"-61.68","56.55","NAIN A","8502801","2019-03-11 20:00","2019","03","11","20:00"
"-61.68","56.55","NAIN A","8502801","2019-03-11 21:00","2019","03","11","21:00"
"-61.68","56.55","NAIN A","8502801","2019-03-11 22:00","2019","03","11","22:00"
"-61.68","56.55","NAIN A","8502801","2019-03-11 23:00","2019","03","11","23:00"
"-61.68","56.55","NAIN A","8502801","2019-03-12 00:00","2019","03","12","00:00"
"-61.68","56.55","NAIN A","8502801","2019-03-12 01:00","2019","03","12","01:00"
"-61.68","56.55","NAIN A","8502801","2019-03-12 02:00","2019","03","12","02:00"
"-61.68","56.55","NAIN A","8502801","2019-03-12 03:00","2019","03","12","03:00"
"-61.68","56.55","NAIN A","8502801","2019-03-12 04:00","2019","03","12","04:00","-9.6","","-13.0","","77","","","","30","","43","","24.1","","99.55","","","","-21","","NA"
"-61.68","56.55","NAIN A","8502801","2019-03-12 05:00","2019","03","12","05:00","-8.1","","-11.8","","75","","","","30","","40","","22.5","","99.58","","","","-18","","Cloudy"
"-61.68","56.55","NAIN A","8502801","2019-03-12 06:00","2019","03","12","06:00","-7.5","","-10.5","","79","","","","31","","45","","22.5","","99.62","","","","-18","","NA"
"-61.68","56.55","NAIN A","8502801","2019-03-12 07:00","2019","03","12","07:00","-5.8","","-8.4","","82","","","","32","","41","","20.9","","99.69","","","","-15","","Blowing Snow"
"-61.68","56.55","NAIN A","8502801","2019-03-12 08:00","2019","03","12","08:00","-5.7","","-8.3","","82","","","","33","","37","","12.9","","99.80","","","","-15","","Snow Showers,Blowing Snow"
"-61.68","56.55","NAIN A","8502801","2019-03-12 09:00","2019","03","12","09:00","-5.3","","-7.8","","83","","","","34","","33","","17.7","","99.92","","","","-14","","Snow Showers,Blowing Snow"
"-61.68","56.55","NAIN A","8502801","2019-03-12 10:00","2019","03","12","10:00","-5.5","","-9.4","","74","","","","33","","24","","24.1","","100.09","","","","-13","","NA"
"-61.68","56.55","NAIN A","8502801","2019-03-12 11:00","2019","03","12","11:00","-5.3","","-10.0","","70","","","","32","","24","","24.1","","100.20","","","","-13","","Mostly Cloudy"
"-61.68","56.55","NAIN A","8502801","2019-03-12 12:00","2019","03","12","12:00","-2.9","","-10.1","","57","","","","32","","35","","24.1","","100.29","","","","-11","","NA"
"-61.68","56.55","NAIN A","8502801","2019-03-12 13:00","2019","03","12","13:00","-5.2","","-13.5","","52","","","","32","","26","","24.1","","100.35","","","","-13","","NA"
"-61.68","56.55","NAIN A","8502801","2019-03-12 14:00","2019","03","12","14:00","-5.5","","-11.0","","65","","","","33","","27","","24.1","","100.42","","","","-13","","Mostly Cloudy"
"-61.68","56.55","NAIN A","8502801","2019-03-12 15:00","2019","03","12","15:00","-6.2","","-12.4","","62","","","","32","","29","","24.1","","100.56","","","","-14","","NA"
"-61.68","56.55","NAIN A","8502801","2019-03-12 16:00","2019","03","12","16:00","-6.3","","-12.1","","63","","","","32","","22","","24.1","","100.66","","","","-14","","NA"
"-61.68","56.55","NAIN A","8502801","2019-03-12 17:00","2019","03","12","17:00","-6.3","","-12.5","","62","","","","32","","25","","24.1","","100.76","","","","-14","","Mostly Cloudy"
"-61.68","56.55","NAIN A","8502801","2019-03-12 18:00","2019","03","12","18:00","-6.8","","-12.9","","62","","","","33","","24","","24.1","","100.83","","","","-14","","NA"
"-61.68","56.55","NAIN A","8502801","2019-03-12 19:00","2019","03","12","19:00","-7.1","","-13.1","","62","","","","32","","23","","24.1","","100.92","","","","-15","","NA"
"-61.68","56.55","NAIN A","8502801","2019-03-12 20:00","2019","03","12","20:00"
"-61.68","56.55","NAIN A","8502801","2019-03-12 21:00","2019","03","12","21:00"
"-61.68","56.55","NAIN A","8502801","2019-03-12 22:00","2019","03","12","22:00"
"-61.68","56.55","NAIN A","8502801","2019-03-12 23:00","2019","03","12","23:00"
"-61.68","56.55","NAIN A","8502801","2019-03-13 00:00","2019","03","13","00:00"
"-61.68","56.55","NAIN A","8502801","2019-03-13 01:00","2019","03","13","01:00"
"-61.68","56.55","NAIN A","8502801","2019-03-13 02:00","2019","03","13","02:00"
"-61.68","56.55","NAIN A","8502801","2019-03-13 03:00","2019","03","13","03:00"
"-61.68","56.55","NAIN A","8502801","2019-03-13 04:00","2019","03","13","04:00","-12.4","","-14.6","","84","","","","29","","12","","20.9","","101.25","","","","-19","","Snow"
"-61.68","56.55","NAIN A","8502801","2019-03-13 05:00","2019","03","13","05:00","-12.4","","-14.5","","85","","","","11","","4","","20.9","","101.29","","","","-15","","Snow"
"-61.68","56.55","NAIN A","8502801","2019-03-13 06:00","2019","03","13","06:00","-12.6","","-14.4","","86","","","","31","","4","","12.9","","101.29","","","","-15","","Snow"
"-61.68","56.55","NAIN A","8502801","2019-03-13 07:00","2019","03","13","07:00","-12.7","","-14.6","","86","","","","3","","7","","16.1","","101.31","","","","-17","","Snow"
"-61.68","56.55","NAIN A","8502801","2019-03-13 08:00","2019","03","13","08:00","-12.1","","-16.3","","71","","","","24","","18","","24.1","","101.35","","","","-20","","Snow"
"-61.68","56.55","NAIN A","8502801","2019-03-13 09:00","2019","03","13","09:00","-11.8","","-17.1","","65","","","","24","","3","","24.1","","101.37","","","","-14","","NA"
"-61.68","56.55","NAIN A","8502801","2019-03-13 10:00","2019","03","13","10:00","-11.2","","-16.0","","68","","","","28","","12","","24.1","","101.40","","","","-17","","NA"
"-61.68","56.55","NAIN A","8502801","2019-03-13 11:00","2019","03","13","11:00","-10.7","","-18.8","","51","","","","27","","17","","24.1","","101.41","","","","-18","","Mostly Cloudy"
"-61.68","56.55","NAIN A","8502801","2019-03-13 12:00","2019","03","13","12:00","-10.9","","-17.5","","58","","","","27","","19","","24.1","","101.41","","","","-19","","NA"
"-61.68","56.55","NAIN A","8502801","2019-03-13 13:00","2019","03","13","13:00","-10.5","","-17.1","","59","","","","28","","13","","24.1","","101.38","","","","-17","","NA"
"-61.68","56.55","NAIN A","8502801","2019-03-13 14:00","2019","03","13","14:00","-10.3","","-16.5","","61","","","","29","","11","","24.1","","101.35","","","","-16","","Mostly Cloudy"
"-61.68","56.55","NAIN A","8502801","2019-03-13 15:00","2019","03","13","15:00","-10.7","","-17.5","","58","","","","28","","9","","24.1","","101.37","","","","-16","","NA"
"-61.68","56.55","NAIN A","8502801","2019-03-13 16:00","2019","03","13","16:00","-11.5","","-17.9","","60","","","","28","","10","","24.1","","101.39","","","","-17","","NA"
"-61.68","56.55","NAIN A","8502801","2019-03-13 17:00","2019","03","13","17:00","-12.2","","-18.1","","62","","","","29","","10","","24.1","","101.41","","","","-18","","Mostly Cloudy"
"-61.68","56.55","NAIN A","8502801","2019-03-13 18:00","2019","03","13","18:00","-11.9","","-18.0","","61","","","","28","","13","","24.1","","101.47","","","","-19","","NA"
"-61.68","56.55","NAIN A","8502801","2019-03-13 19:00","2019","03","13","19:00","-14.1","","-19.1","","67","","","","27","","6","","24.1","","101.50","","","","-18","","NA"
"-61.68","56.55","NAIN A","8502801","2019-03-13 20:00","2019","03","13","20:00"
"-61.68","56.55","NAIN A","8502801","2019-03-13 21:00","2019","03","13","21:00"
"-61.68","56.55","NAIN A","8502801","2019-03-13 22:00","2019","03","13","22:00"
"-61.68","56.55","NAIN A","8502801","2019-03-13 23:00","2019","03","13","23:00"
"-61.68","56.55","NAIN A","8502801","2019-03-14 00:00","2019","03","14","00:00"
"-61.68","56.55","NAIN A","8502801","2019-03-14 01:00","2019","03","14","01:00"
"-61.68","56.55","NAIN A","8502801","2019-03-14 02:00","2019","03","14","02:00"
"-61.68","56.55","NAIN A","8502801","2019-03-14 03:00","2019","03","14","03:00"
"-61.68","56.55","NAIN A","8502801","2019-03-14 04:00","2019","03","14","04:00","-19.2","","-22.6","","75","","","","36","","1","","24.1","","101.72","","","","-20","","NA"
"-61.68","56.55","NAIN A","8502801","2019-03-14 05:00","2019","03","14","05:00","-20.8","","-23.4","","80","","","","18","","12","","24.1","","101.79","","","","-29","","Clear"
"-61.68","56.55","NAIN A","8502801","2019-03-14 06:00","2019","03","14","06:00","-19.3","","-22.6","","75","","","","20","","4","","24.1","","101.84","","","","-23","","NA"
"-61.68","56.55","NAIN A","8502801","2019-03-14 07:00","2019","03","14","07:00","-20.4","","-23.8","","75","","","","17","","7","","24.1","","101.90","","","","-26","","NA"
"-61.68","56.55","NAIN A","8502801","2019-03-14 08:00","2019","03","14","08:00","-19.8","","-23.5","","72","","","","16","","5","","24.1","","101.96","","","","-24","","Clear"
"-61.68","56.55","NAIN A","8502801","2019-03-14 09:00","2019","03","14","09:00","-19.7","","-23.6","","72","","","","19","","7","","24.1","","102.02","","","","-25","","NA"
"-61.68","56.55","NAIN A","8502801","2019-03-14 10:00","2019","03","14","10:00","-17.5","","-21.8","","70","","","","19","","7","","24.1","","102.03","","","","-23","","NA"
"-61.68","56.55","NAIN A","8502801","2019-03-14 11:00","2019","03","14","11:00","-17.2","","-21.8","","68","","","","16","","7","","24.1","","102.04","","","","-22","","Clear"
"-61.68","56.55","NAIN A","8502801","2019-03-14 12:00","2019","03","14","12:00","-14.7","","-20.1","","64","","","","17","","5","","24.1","","102.05","","","","-18","","NA"
"-61.68","56.55","NAIN A","8502801","2019-03-14 13:00","2019","03","14","13:00","-13.5","","-19.2","","63","","","","18","","6","","24.1","","102.04","","","","-18","","NA"
"-61.68","56.55","NAIN A","8502801","2019-03-14 14:00","2019","03","14","14:00","-13.1","","-20.1","","56","","","","14","","4","","24.1","","102.04","","","","-16","","Clear"
"-61.68","56.55","NAIN A","8502801","2019-03-14 15:00","2019","03","14","15:00","-12.6","","-18.5","","62","","","","14","","4","","24.1","","102.11","","","","-15","","NA"
"-61.68","56.55","NAIN A","8502801","2019-03-14 16:00","2019","03","14","16:00","-12.5","","-18.9","","59","","","","14","","5","","24.1","","102.12","","","","-16","","NA"
"-61.68","56.55","NAIN A","8502801","2019-03-14 17:00","2019","03","14","17:00","-12.4","","-19.1","","58","","","","17","","3","","24.1","","102.13","","","","-14","","Clear"
"-61.68","56.55","NAIN A","8502801","2019-03-14 18:00","2019","03","14","18:00","-17.0","","-21.4","","70","","","","36","","1","","24.1","","102.12","","","","-18","","NA"
"-61.68","56.55","NAIN A","8502801","2019-03-14 19:00","2019","03","14","19:00","-15.3","","-19.2","","72","","","","31","","4","","24.1","","102.18","","","","-18","","NA"
"-61.68","56.55","NAIN A","8502801","2019-03-14 20:00","2019","03","14","20:00"
"-61.68","56.55","NAIN A","8502801","2019-03-14 21:00","2019","03","14","21:00"
"-61.68","56.55","NAIN A","8502801","2019-03-14 22:00","2019","03","14","22:00"
"-61.68","56.55","NAIN A","8502801","2019-03-14 23:00","2019","03","14","23:00"
"-61.68","56.55","NAIN A","8502801","2019-03-15 00:00","2019","03","15","00:00"
"-61.68","56.55","NAIN A","8502801","2019-03-15 01:00","2019","03","15","01:00"
"-61.68","56.55","NAIN A","8502801","2019-03-15 02:00","2019","03","15","02:00"
"-61.68","56.55","NAIN A","8502801","2019-03-15 03:00","2019","03","15","03:00"
"-61.68","56.55","NAIN A","8502801","2019-03-15 04:00","2019","03","15","04:00","-22.0","","-24.2","","83","","","","30","","7","","24.1","","101.87","","","","-28","","NA"
"-61.68","56.55","NAIN A","8502801","2019-03-15 05:00","2019","03","15","05:00","-22.7","","-25.5","","78","","","","36","","2","","24.1","","101.78","","","","-25","","Mainly Clear"
"-61.68","56.55","NAIN A","8502801","2019-03-15 06:00","2019","03","15","06:00","-23.3","","-25.6","","81","","","","32","","3","","24.1","","101.70","","","","-26","","NA"
"-61.68","56.55","NAIN A","8502801","2019-03-15 07:00","2019","03","15","07:00","-22.1","","-24.4","","82","","","","35","","3","","24.1","","101.59","","","","-25","","NA"
"-61.68","56.55","NAIN A","8502801","2019-03-15 08:00","2019","03","15","08:00","-20.8","","-23.1","","82","","","","36","","2","","24.1","","101.48","","","","-23","","Cloudy"
"-61.68","56.55","NAIN A","8502801","2019-03-15 09:00","2019","03","15","09:00","-19.6","","-22.1","","81","","","","36","","1","","24.1","","101.26","","","","-20","","NA"
"-61.68","56.55","NAIN A","8502801","2019-03-15 10:00","2019","03","15","10:00","-17.4","","-19.9","","81","","","","35","","5","","24.1","","101.12","","","","-21","","NA"
"-61.68","56.55","NAIN A","8502801","2019-03-15 11:00","2019","03","15","11:00","-15.7","","-18.4","","80","","","","30","","7","","9.7","","100.95","","","","-21","","Snow"
"-61.68","56.55","NAIN A","8502801","2019-03-15 12:00","2019","03","15","12:00","-13.9","","-16.6","","81","","","","36","","3","","2.0","","100.71","","","","-16","","Snow"
"-61.68","56.55","NAIN A","8502801","2019-03-15 13:00","2019","03","15","13:00","-10.9","","-13.2","","83","","","","9","","30","","2.8","","100.43","","","","-21","","Snow"
"-61.68","56.55","NAIN A","8502801","2019-03-15 14:00","2019","03","15","14:00","-8.8","","-11.0","","84","","","","15","","27","","1.6","","100.17","","","","-18","","Snow"
"-61.68","56.55","NAIN A","8502801","2019-03-15 15:00","2019","03","15","15:00","-7.8","","-9.8","","86","","","","14","","39","","2.4","","99.93","","","","-18","","Snow"
"-61.68","56.55","NAIN A","8502801","2019-03-15 16:00","2019","03","15","16:00","-6.8","","-8.5","","88","","","","15","","36","","1.6","","99.71","","","","-16","","Snow"
"-61.68","56.55","NAIN A","8502801","2019-03-15 17:00","2019","03","15","17:00","-5.6","","-7.1","","89","","","","14","","40","","1.6","","99.51","","","","-15","","Snow"
"-61.68","56.55","NAIN A","8502801","2019-03-15 18:00","2019","03","15","18:00","-5.0","","-6.4","","90","","","","14","","35","","2.0","","99.32","","","","-14","","Snow"
"-61.68","56.55","NAIN A","8502801","2019-03-15 19:00","2019","03","15","19:00","-4.2","","-5.6","","90","","","","14","","37","","2.0","","99.19","","","","-13","","Snow"
"-61.68","56.55","NAIN A","8502801","2019-03-15 20:00","2019","03","15","20:00"
"-61.68","56.55","NAIN A","8502801","2019-03-15 21:00","2019","03","15","21:00"
"-61.68","56.55","NAIN A","8502801","2019-03-15 22:00","2019","03","15","22:00"
"-61.68","56.55","NAIN A","8502801","2019-03-15 23:00","2019","03","15","23:00"
"-61.68","56.55","NAIN A","8502801","2019-03-16 00:00","2019","03","16","00:00"
"-61.68","56.55","NAIN A","8502801","2019-03-16 01:00","2019","03","16","01:00"
"-61.68","56.55","NAIN A","8502801","2019-03-16 02:00","2019","03","16","02:00"
"-61.68","56.55","NAIN A","8502801","2019-03-16 03:00","2019","03","16","03:00"
"-61.68","56.55","NAIN A","8502801","2019-03-16 04:00","2019","03","16","04:00","-3.3","","-3.9","","95","","","","36","","1","","24.1","","98.15","","","","-4","","Snow"
"-61.68","56.55","NAIN A","8502801","2019-03-16 05:00","2019","03","16","05:00","-4.1","","-4.8","","95","","","","17","","7","","24.1","","98.12","","","","-7","","Snow Showers"
"-61.68","56.55","NAIN A","8502801","2019-03-16 06:00","2019","03","16","06:00","-4.3","","-5.1","","94","","","","18","","6","","24.1","","98.09","","","","-7","","Snow Showers"
"-61.68","56.55","NAIN A","8502801","2019-03-16 07:00","2019","03","16","07:00","-4.2","","-5.0","","94","","","","2","","5","","24.1","","98.09","","","","-6","","NA"
"-61.68","56.55","NAIN A","8502801","2019-03-16 08:00","2019","03","16","08:00","-4.3","","-5.3","","93","","","","16","","5","","22.5","","98.10","","","","-6","","Snow Showers"
"-61.68","56.55","NAIN A","8502801","2019-03-16 09:00","2019","03","16","09:00","-3.7","","-4.8","","92","","","","34","","5","","24.1","","98.09","","","","-6","","Snow Showers"
"-61.68","56.55","NAIN A","8502801","2019-03-16 10:00","2019","03","16","10:00","-3.3","","-4.7","","90","","","","16","","7","","24.1","","98.10","","","","-6","","NA"
"-61.68","56.55","NAIN A","8502801","2019-03-16 11:00","2019","03","16","11:00","-1.8","","-3.6","","87","","","","30","","4","","24.1","","98.09","","","","-3","","Cloudy"
"-61.68","56.55","NAIN A","8502801","2019-03-16 12:00","2019","03","16","12:00","-1.0","","-3.0","","86","","","","20","","11","","24.1","","98.09","","","","-5","","NA"
"-61.68","56.55","NAIN A","8502801","2019-03-16 13:00","2019","03","16","13:00","-0.9","","-2.4","","89","","","","36","","3","","24.1","","98.12","","","","-2","","Freezing Rain"
"-61.68","56.55","NAIN A","8502801","2019-03-16 14:00","2019","03","16","14:00","0.0","","-1.7","","88","","","","34","","7","","24.1","","98.14","","","","-2","","Freezing Rain"
"-61.68","56.55","NAIN A","8502801","2019-03-16 15:00","2019","03","16","15:00","2.1","","-0.9","","81","","","","30","","32","","24.1","","98.17","","","","","","NA"
"-61.68","56.55","NAIN A","8502801","2019-03-16 16:00","2019","03","16","16:00","2.1","","-2.2","","73","","","","29","","28","","24.1","","98.24","","","","","","NA"
"-61.68","56.55","NAIN A","8502801","2019-03-16 17:00","2019","03","16","17:00","0.8","","-3.4","","73","","","","29","","30","","24.1","","98.30","","","","","","Mostly Cloudy"
"-61.68","56.55","NAIN A","8502801","2019-03-16 18:00","2019","03","16","18:00","-1.0","","-5.2","","73","","","","29","","32","","24.1","","98.34","","","","-8","","NA"
"-61.68","56.55","NAIN A","8502801","2019-03-16 19:00","2019","03","16","19:00","-2.8","","-6.8","","74","","","","27","","14","","24.1","","98.36","","","","-8","","NA"
"-61.68","56.55","NAIN A","8502801","2019-03-16 20:00","2019","03","16","20:00"
"-61.68","56.55","NAIN A","8502801","2019-03-16 21:00","2019","03","16","21:00"
"-61.68","56.55","NAIN A","8502801","2019-03-16 22:00","2019","03","16","22:00"
"-61.68","56.55","NAIN A","8502801","2019-03-16 23:00","2019","03","16","23:00"
"-61.68","56.55","NAIN A","8502801","2019-03-17 00:00","2019","03","17","00:00"
"-61.68","56.55","NAIN A","8502801","2019-03-17 01:00","2019","03","17","01:00"
"-61.68","56.55","NAIN A","8502801","2019-03-17 02:00","2019","03","17","02:00"
"-61.68","56.55","NAIN A","8502801","2019-03-17 03:00","2019","03","17","03:00"
"-61.68","56.55","NAIN A","8502801","2019-03-17 04:00","2019","03","17","04:00","-5.0","","-7.1","","85","","","","27","","28","","4.8","","98.17","","","","-13","","Snow"
"-61.68","56.55","NAIN A","8502801","2019-03-17 05:00","2019","03","17","05:00","-4.8","","-6.7","","86","","","","27","","9","","4.8","","98.14","","","","-9","","Snow"
"-61.68","56.55","NAIN A","8502801","2019-03-17 06:00","2019","03","17","06:00","-4.4","","-6.5","","85","","","","32","","13","","9.7","","98.06","","","","-9","","Snow"
"-61.68","56.55","NAIN A","8502801","2019-03-17 07:00","2019","03","17","07:00","-4.9","","-6.5","","89","","","","32","","37","","4.8","","98.01","","","","-14","","Snow,Blowing Snow"
"-61.68","56.55","NAIN A","8502801","2019-03-17 08:00","2019","03","17","08:00","-4.1","","-5.6","","89","","","","32","","35","","1.6","","97.98","","","","-12","","Snow,Blowing Snow"
"-61.68","56.55","NAIN A","8502801","2019-03-17 09:00","2019","03","17","09:00","-3.1","","-4.7","","89","","","","27","","18","","1.6","","97.94","","","","-9","","Snow"
"-61.68","56.55","NAIN A","8502801","2019-03-17 10:00","2019","03","17","10:00","-2.2","","-3.8","","89","","","","32","","38","","2.0","","97.89","","","","-10","","Snow,Blowing Snow"
"-61.68","56.55","NAIN A","8502801","2019-03-17 11:00","2019","03","17","11:00","-1.1","","-2.6","","90","","","","35","","36","","2.4","","97.87","","","","-9","","Snow,Blowing Snow"
"-61.68","56.55","NAIN A","8502801","2019-03-17 12:00","2019","03","17","12:00","-1.0","","-3.2","","85","","","","36","","39","","4.8","","97.91","","","","-9","","Snow,Blowing Snow"
"-61.68","56.55","NAIN A","8502801","2019-03-17 13:00","2019","03","17","13:00","-2.5","","-4.2","","88","","","","36","","39","","4.8","","98.00","","","","-11","","Snow,Blowing Snow"
"-61.68","56.55","NAIN A","8502801","2019-03-17 14:00","2019","03","17","14:00","-3.0","","-4.8","","87","","","","36","","45","","8.1","","98.08","","","","-12","","Snow,Blowing Snow"
"-61.68","56.55","NAIN A","8502801","2019-03-17 15:00","2019","03","17","15:00","-4.2","","-6.5","","84","","","","36","","55","","12.9","","98.22","","","","-14","","Snow,Blowing Snow"
"-61.68","56.55","NAIN A","8502801","2019-03-17 16:00","2019","03","17","16:00","-5.1","","-7.9","","81","","","","33","","43","","11.3","","98.39","","","","-14","","Snow,Blowing Snow"
"-61.68","56.55","NAIN A","8502801","2019-03-17 17:00","2019","03","17","17:00","-6.2","","-9.1","","80","","","","31","","46","","11.3","","98.56","","","","-16","","Snow,Blowing Snow"
"-61.68","56.55","NAIN A","8502801","2019-03-17 18:00","2019","03","17","18:00","-6.8","","-9.7","","80","","","","32","","47","","12.9","","98.74","","","","-17","","Snow,Blowing Snow"
"-61.68","56.55","NAIN A","8502801","2019-03-17 19:00","2019","03","17","19:00","-7.7","","-10.2","","83","","","","33","","46","","4.8","","98.88","","","","-18","","Snow,Blowing Snow"
"-61.68","56.55","NAIN A","8502801","2019-03-17 20:00","2019","03","17","20:00"
"-61.68","56.55","NAIN A","8502801","2019-03-17 21:00","2019","03","17","21:00"
"-61.68","56.55","NAIN A","8502801","2019-03-17 22:00","2019","03","17","22:00"
"-61.68","56.55","NAIN A","8502801","2019-03-17 23:00","2019","03","17","23:00"
"-61.68","56.55","NAIN A","8502801","2019-03-18 00:00","2019","03","18","00:00"
"-61.68","56.55","NAIN A","8502801","2019-03-18 01:00","2019","03","18","01:00"
"-61.68","56.55","NAIN A","8502801","2019-03-18 02:00","2019","03","18","02:00"
"-61.68","56.55","NAIN A","8502801","2019-03-18 03:00","2019","03","18","03:00"
"-61.68","56.55","NAIN A","8502801","2019-03-18 04:00","2019","03","18","04:00","-13.7","","-18.4","","68","","","","32","","23","","24.1","","99.83","","","","-23","","NA"
"-61.68","56.55","NAIN A","8502801","2019-03-18 05:00","2019","03","18","05:00","-14.2","","-19.0","","67","","","","36","","14","","24.1","","99.95","","","","-22","","Mostly Cloudy"
"-61.68","56.55","NAIN A","8502801","2019-03-18 06:00","2019","03","18","06:00","-14.7","","-19.0","","70","","","","31","","16","","24.1","","100.07","","","","-23","","NA"
"-61.68","56.55","NAIN A","8502801","2019-03-18 07:00","2019","03","18","07:00","-14.7","","-19.9","","65","","","","29","","16","","24.1","","100.19","","","","-23","","NA"
"-61.68","56.55","NAIN A","8502801","2019-03-18 08:00","2019","03","18","08:00","-14.3","","-20.1","","62","","","","33","","17","","24.1","","100.29","","","","-23","","Mostly Cloudy"
"-61.68","56.55","NAIN A","8502801","2019-03-18 09:00","2019","03","18","09:00","-13.6","","-19.8","","60","","","","29","","32","","24.1","","100.38","","","","-25","","NA"
"-61.68","56.55","NAIN A","8502801","2019-03-18 10:00","2019","03","18","10:00","-13.0","","-19.5","","59","","","","29","","34","","24.1","","100.47","","","","-24","","NA"
"-61.68","56.55","NAIN A","8502801","2019-03-18 11:00","2019","03","18","11:00","-12.6","","-19.3","","58","","","","30","","31","","24.1","","100.55","","","","-23","","Mostly Cloudy"
"-61.68","56.55","NAIN A","8502801","2019-03-18 12:00","2019","03","18","12:00","-12.2","","-18.9","","58","","","","29","","27","","24.1","","100.60","","","","-22","","NA"
"-61.68","56.55","NAIN A","8502801","2019-03-18 13:00","2019","03","18","13:00","-12.6","","-20.0","","54","","","","30","","36","","24.1","","100.69","","","","-24","","NA"
"-61.68","56.55","NAIN A","8502801","2019-03-18 14:00","2019","03","18","14:00","-12.4","","-20.3","","52","","","","30","","29","","24.1","","100.77","","","","-23","","Mostly Cloudy"
"-61.68","56.55","NAIN A","8502801","2019-03-18 15:00","2019","03","18","15:00","-13.6","","-21.2","","53","","","","29","","36","","24.1","","100.87","","","","-25","","NA"
"-61.68","56.55","NAIN A","8502801","2019-03-18 16:00","2019","03","18","16:00","-14.1","","-21.4","","55","","","","29","","35","","24.1","","100.95","","","","-26","","NA"
"-61.68","56.55","NAIN A","8502801","2019-03-18 17:00","2019","03","18","17:00","-15.5","","-21.7","","59","","","","30","","38","","24.1","","101.04","","","","-28","","Blowing Snow"
"-61.68","56.55","NAIN A","8502801","2019-03-18 18:00","2019","03","18","18:00","-16.1","","-22.4","","59","","","","29","","43","","24.1","","101.15","","","","-29","","Blowing Snow"
"-61.68","56.55","NAIN A","8502801","2019-03-18 19:00","2019","03","18","19:00","-17.3","","-23.1","","61","","","","30","","45","","24.1","","101.26","","","","-31","","Blowing Snow"
"-61.68","56.55","NAIN A","8502801","2019-03-18 20:00","2019","03","18","20:00"
"-61.68","56.55","NAIN A","8502801","2019-03-18 21:00","2019","03","18","21:00"
"-61.68","56.55","NAIN A","8502801","2019-03-18 22:00","2019","03","18","22:00"
"-61.68","56.55","NAIN A","8502801","2019-03-18 23:00","2019","03","18","23:00"
"-61.68","56.55","NAIN A","8502801","2019-03-19 00:00","2019","03","19","00:00"
"-61.68","56.55","NAIN A","8502801","2019-03-19 01:00","2019","03","19","01:00"
"-61.68","56.55","NAIN A","8502801","2019-03-19 02:00","2019","03","19","02:00"
"-61.68","56.55","NAIN A","8502801","2019-03-19 03:00","2019","03","19","03:00"
"-61.68","56.55","NAIN A","8502801","2019-03-19 04:00","2019","03","19","04:00","-17.9","","-24.7","","56","","","","25","","14","","24.1","","101.42","","","","-26","","NA"
"-61.68","56.55","NAIN A","8502801","2019-03-19 05:00","2019","03","19","05:00","-18.2","","-25.7","","52","","","","27","","15","","24.1","","101.46","","","","-27","","Clear"
"-61.68","56.55","NAIN A","8502801","2019-03-19 06:00","2019","03","19","06:00","-19.1","","-25.9","","56","","","","25","","19","","24.1","","101.47","","","","-29","","NA"
"-61.68","56.55","NAIN A","8502801","2019-03-19 07:00","2019","03","19","07:00","-19.0","","-25.7","","56","","","","28","","26","","24.1","","101.46","","","","-31","","NA"
"-61.68","56.55","NAIN A","8502801","2019-03-19 08:00","2019","03","19","08:00","-18.5","","-25.8","","53","","","","30","","7","","24.1","","101.48","","","","-24","","Clear"
"-61.68","56.55","NAIN A","8502801","2019-03-19 09:00","2019","03","19","09:00","-18.3","","-24.5","","59","","","","28","","39","","24.1","","101.50","","","","-32","","NA"
"-61.68","56.55","NAIN A","8502801","2019-03-19 10:00","2019","03","19","10:00","-17.1","","-24.3","","54","","","","27","","37","","24.1","","101.51","","","","-30","","NA"
"-61.68","56.55","NAIN A","8502801","2019-03-19 11:00","2019","03","19","11:00","-16.5","","-24.0","","53","","","","30","","29","","24.1","","101.51","","","","-28","","Mainly Clear"
"-61.68","56.55","NAIN A","8502801","2019-03-19 12:00","2019","03","19","12:00","-16.0","","-23.5","","53","","","","29","","32","","24.1","","101.45","","","","-28","","NA"
"-61.68","56.55","NAIN A","8502801","2019-03-19 13:00","2019","03","19","13:00","-15.6","","-22.6","","56","","","","29","","40","","24.1","","101.43","","","","-28","","NA"
"-61.68","56.55","NAIN A","8502801","2019-03-19 14:00","2019","03","19","14:00","-14.9","","-22.5","","53","","","","30","","16","","24.1","","101.43","","","","-23","","Mainly Clear"
"-61.68","56.55","NAIN A","8502801","2019-03-19 15:00","2019","03","19","15:00","-14.3","","-22.2","","52","","","","30","","14","","24.1","","101.41","","","","-22","","NA"
"-61.68","56.55","NAIN A","8502801","2019-03-19 16:00","2019","03","19","16:00","-14.1","","-21.4","","55","","","","25","","9","","24.1","","101.37","","","","-20","","NA"
"-61.68","56.55","NAIN A","8502801","2019-03-19 17:00","2019","03","19","17:00","-13.9","","-20.7","","57","","","","28","","33","","24.1","","101.32","","","","-25","","Mostly Cloudy"
"-61.68","56.55","NAIN A","8502801","2019-03-19 18:00","2019","03","19","18:00","-14.5","","-20.9","","59","","","","26","","11","","24.1","","101.32","","","","-21","","NA"
"-61.68","56.55","NAIN A","8502801","2019-03-19 19:00","2019","03","19","19:00","-13.6","","-20.5","","56","","","","27","","28","","24.1","","101.25","","","","-24","","NA"
"-61.68","56.55","NAIN A","8502801","2019-03-19 20:00","2019","03","19","20:00"
"-61.68","56.55","NAIN A","8502801","2019-03-19 21:00","2019","03","19","21:00"
"-61.68","56.55","NAIN A","8502801","2019-03-19 22:00","2019","03","19","22:00"
"-61.68","56.55","NAIN A","8502801","2019-03-19 23:00","2019","03","19","23:00"
"-61.68","56.55","NAIN A","8502801","2019-03-20 00:00","2019","03","20","00:00"
"-61.68","56.55","NAIN A","8502801","2019-03-20 01:00","2019","03","20","01:00"
"-61.68","56.55","NAIN A","8502801","2019-03-20 02:00","2019","03","20","02:00"
"-61.68","56.55","NAIN A","8502801","2019-03-20 03:00","2019","03","20","03:00"
"-61.68","56.55","NAIN A","8502801","2019-03-20 04:00","2019","03","20","04:00","-14.7","","-21.0","","59","","","","21","","21","","24.1","","100.23","","","","-24","","NA"
"-61.68","56.55","NAIN A","8502801","2019-03-20 05:00","2019","03","20","05:00","-12.9","","-20.2","","55","","","","25","","10","","24.1","","100.11","","","","-19","","Cloudy"
"-61.68","56.55","NAIN A","8502801","2019-03-20 06:00","2019","03","20","06:00","-13.8","","-20.4","","58","","","","21","","12","","24.1","","99.94","","","","-21","","NA"
"-61.68","56.55","NAIN A","8502801","2019-03-20 07:00","2019","03","20","07:00","-13.6","","-20.1","","59","","","","21","","18","","24.1","","99.86","","","","-22","","NA"
"-61.68","56.55","NAIN A","8502801","2019-03-20 08:00","2019","03","20","08:00","-13.2","","-17.4","","71","","","","11","","9","","8.1","","99.80","","","","-19","","Snow"
"-61.68","56.55","NAIN A","8502801","2019-03-20 09:00","2019","03","20","09:00","-12.5","","-15.9","","76","","","","21","","15","","6.4","","99.73","","","","-20","","Snow"
"-61.68","56.55","NAIN A","8502801","2019-03-20 10:00","2019","03","20","10:00","-10.2","","-14.3","","72","","","","27","","21","","9.7","","99.68","","","","-18","","Snow"
"-61.68","56.55","NAIN A","8502801","2019-03-20 11:00","2019","03","20","11:00","-9.3","","-14.7","","65","","","","29","","30","","24.1","","99.71","","","","-19","","Mostly Cloudy"
"-61.68","56.55","NAIN A","8502801","2019-03-20 12:00","2019","03","20","12:00","-8.9","","-15.2","","61","","","","30","","38","","24.1","","99.78","","","","-19","","NA"
"-61.68","56.55","NAIN A","8502801","2019-03-20 13:00","2019","03","20","13:00","-9.6","","-16.7","","57","","","","30","","52","","24.1","","99.89","","","","-21","","Blowing Snow"
"-61.68","56.55","NAIN A","8502801","2019-03-20 14:00","2019","03","20","14:00","-11.5","","-16.5","","67","","","","30","","50","","24.1","","100.09","","","","-24","","Blowing Snow"
"-61.68","56.55","NAIN A","8502801","2019-03-20 15:00","2019","03","20","15:00","-14.4","","-18.8","","69","","","","30","","68","","24.1","","100.34","","","","-29","","Blowing Snow"
"-61.68","56.55","NAIN A","8502801","2019-03-20 16:00","2019","03","20","16:00","-15.8","","-20.9","","65","","","","30","","68","","24.1","","100.58","","","","-31","","Blowing Snow"
"-61.68","56.55","NAIN A","8502801","2019-03-20 17:00","2019","03","20","17:00","-16.7","","-22.5","","61","","","","30","","57","","24.1","","100.80","","","","-32","","Blowing Snow"
"-61.68","56.55","NAIN A","8502801","2019-03-20 18:00","2019","03","20","18:00","-17.9","","-24.2","","59","","","","30","","47","","24.1","","100.92","","","","-32","","Blowing Snow"
"-61.68","56.55","NAIN A","8502801","2019-03-20 19:00","2019","03","20","19:00","-18.7","","-25.8","","54","","","","28","","32","","24.1","","101.08","","","","-31","","NA"
"-61.68","56.55","NAIN A","8502801","2019-03-20 20:00","2019","03","20","20:00"
"-61.68","56.55","NAIN A","8502801","2019-03-20 21:00","2019","03","20","21:00"
"-61.68","56.55","NAIN A","8502801","2019-03-20 22:00","2019","03","20","22:00"
"-61.68","56.55","NAIN A","8502801","2019-03-20 23:00","2019","03","20","23:00"
"-61.68","56.55","NAIN A","8502801","2019-03-21 00:00","2019","03","21","00:00"
"-61.68","56.55","NAIN A","8502801","2019-03-21 01:00","2019","03","21","01:00"
"-61.68","56.55","NAIN A","8502801","2019-03-21 02:00","2019","03","21","02:00"
"-61.68","56.55","NAIN A","8502801","2019-03-21 03:00","2019","03","21","03:00"
"-61.68","56.55","NAIN A","8502801","2019-03-21 04:00","2019","03","21","04:00","-17.9","","-24.0","","60","","","","29","","42","","24.1","","101.22","","","","-32","","Blowing Snow"
"-61.68","56.55","NAIN A","8502801","2019-03-21 05:00","2019","03","21","05:00","-17.3","","-24.8","","53","","","","29","","33","","24.1","","101.22","","","","-30","","Blowing Snow"
"-61.68","56.55","NAIN A","8502801","2019-03-21 06:00","2019","03","21","06:00","-17.9","","-25.9","","50","","","","23","","20","","24.1","","101.23","","","","-28","","NA"
"-61.68","56.55","NAIN A","8502801","2019-03-21 07:00","2019","03","21","07:00","-17.3","","-26.5","","46","","","","23","","28","","24.1","","101.22","","","","-29","","NA"
"-61.68","56.55","NAIN A","8502801","2019-03-21 08:00","2019","03","21","08:00","-17.4","","-26.3","","46","","","","24","","37","","24.1","","101.21","","","","-30","","Mainly Clear"
"-61.68","56.55","NAIN A","8502801","2019-03-21 09:00","2019","03","21","09:00","-15.5","","-26.1","","41","","","","21","","22","","24.1","","101.16","","","","-25","","NA"
"-61.68","56.55","NAIN A","8502801","2019-03-21 10:00","2019","03","21","10:00","-14.4","","-24.5","","43","","","","19","","16","","24.1","","101.10","","","","-22","","NA"
"-61.68","56.55","NAIN A","8502801","2019-03-21 11:00","2019","03","21","11:00","-12.4","","-24.0","","38","","","","26","","8","","24.1","","100.95","","","","-17","","Mostly Cloudy"
"-61.68","56.55","NAIN A","8502801","2019-03-21 12:00","2019","03","21","12:00","-10.5","","-21.7","","40","","","","22","","9","","24.1","","100.78","","","","-15","","NA"
"-61.68","56.55","NAIN A","8502801","2019-03-21 13:00","2019","03","21","13:00","-10.1","","-21.2","","40","","","","28","","6","","24.1","","100.61","","","","-14","","NA"
"-61.68","56.55","NAIN A","8502801","2019-03-21 14:00","2019","03","21","14:00","-10.0","","-18.2","","52","","","","11","","20","","24.1","","100.45","","","","-18","","Cloudy"
"-61.68","56.55","NAIN A","8502801","2019-03-21 15:00","2019","03","21","15:00","-9.5","","-18.1","","50","","","","13","","24","","24.1","","100.29","","","","-18","","NA"
"-61.68","56.55","NAIN A","8502801","2019-03-21 16:00","2019","03","21","16:00","-7.2","","-17.3","","45","","","","20","","23","","24.1","","100.10","","","","-15","","NA"
"-61.68","56.55","NAIN A","8502801","2019-03-21 17:00","2019","03","21","17:00","-6.3","","-14.7","","52","","","","19","","17","","24.1","","99.94","","","","-13","","Cloudy"
"-61.68","56.55","NAIN A","8502801","2019-03-21 18:00","2019","03","21","18:00","-5.6","","-13.2","","55","","","","24","","5","","24.1","","99.85","","","","-8","","NA"
"-61.68","56.55","NAIN A","8502801","2019-03-21 19:00","2019","03","21","19:00","-5.2","","-11.9","","59","","","","26","","9","","24.1","","99.78","","","","-9","","NA"
"-61.68","56.55","NAIN A","8502801","2019-03-21 20:00","2019","03","21","20:00"
"-61.68","56.55","NAIN A","8502801","2019-03-21 21:00","2019","03","21","21:00"
"-61.68","56.55","NAIN A","8502801","2019-03-21 22:00","2019","03","21","22:00"
"-61.68","56.55","NAIN A","8502801","2019-03-21 23:00","2019","03","21","23:00"
"-61.68","56.55","NAIN A","8502801","2019-03-22 00:00","2019","03","22","00:00"
"-61.68","56.55","NAIN A","8502801","2019-03-22 01:00","2019","03","22","01:00"
"-61.68","56.55","NAIN A","8502801","2019-03-22 02:00","2019","03","22","02:00"
"-61.68","56.55","NAIN A","8502801","2019-03-22 03:00","2019","03","22","03:00"
"-61.68","56.55","NAIN A","8502801","2019-03-22 04:00","2019","03","22","04:00","1.1","","-4.6","","66","","","","26","","18","","24.1","","99.23","","","","","","NA"
"-61.68","56.55","NAIN A","8502801","2019-03-22 05:00","2019","03","22","05:00","0.9","","-4.5","","67","","","","26","","12","","24.1","","99.24","","","","","","Mostly Cloudy"
"-61.68","56.55","NAIN A","8502801","2019-03-22 06:00","2019","03","22","06:00","0.9","","-4.1","","70","","","","26","","17","","24.1","","99.24","","","","","","NA"
"-61.68","56.55","NAIN A","8502801","2019-03-22 07:00","2019","03","22","07:00","1.2","","-4.3","","67","","","","26","","33","","24.1","","99.26","","","","","","NA"
"-61.68","56.55","NAIN A","8502801","2019-03-22 08:00","2019","03","22","08:00","-1.9","","-7.0","","68","","","","30","","44","","24.1","","99.49","","","","-10","","Cloudy"
"-61.68","56.55","NAIN A","8502801","2019-03-22 09:00","2019","03","22","09:00","-4.0","","-9.6","","65","","","","30","","52","","24.1","","99.69","","","","-14","","NA"
"-61.68","56.55","NAIN A","8502801","2019-03-22 10:00","2019","03","22","10:00","-6.2","","-12.9","","59","","","","31","","59","","24.1","","99.85","","","","-17","","NA"
"-61.68","56.55","NAIN A","8502801","2019-03-22 11:00","2019","03","22","11:00","-6.8","","-14.6","","54","","","","23","","46","","24.1","","100.10","","","","-17","","Mostly Cloudy"
"-61.68","56.55","NAIN A","8502801","2019-03-22 12:00","2019","03","22","12:00","-8.1","","-14.5","","61","","","","31","","46","","24.1","","100.22","","","","-19","","NA"
"-61.68","56.55","NAIN A","8502801","2019-03-22 13:00","2019","03","22","13:00","-8.6","","-15.2","","60","","","","32","","41","","24.1","","100.43","","","","-19","","NA"
"-61.68","56.55","NAIN A","8502801","2019-03-22 14:00","2019","03","22","14:00","-9.1","","-15.1","","62","","","","32","","43","","24.1","","100.64","","","","-20","","Clear"
"-61.68","56.55","NAIN A","8502801","2019-03-22 15:00","2019","03","22","15:00","-9.8","","-16.4","","59","","","","27","","54","","24.1","","100.78","","","","-22","","Blowing Snow"
"-61.68","56.55","NAIN A","8502801","2019-03-22 16:00","2019","03","22","16:00","-10.9","","-17.3","","60","","","","29","","50","","24.1","","100.92","","","","-23","","Blowing Snow"
"-61.68","56.55","NAIN A","8502801","2019-03-22 17:00","2019","03","22","17:00","-11.6","","-18.2","","59","","","","29","","31","","24.1","","101.07","","","","-22","","Clear"
"-61.68","56.55","NAIN A","8502801","2019-03-22 18:00","2019","03","22","18:00","-12.5","","-19.1","","58","","","","29","","38","","24.1","","101.26","","","","-24","","NA"
"-61.68","56.55","NAIN A","8502801","2019-03-22 19:00","2019","03","22","19:00","-13.7","","-19.7","","61","","","","31","","49","","24.1","","101.34","","","","-27","","NA"
"-61.68","56.55","NAIN A","8502801","2019-03-22 20:00","2019","03","22","20:00"
"-61.68","56.55","NAIN A","8502801","2019-03-22 21:00","2019","03","22","21:00"
"-61.68","56.55","NAIN A","8502801","2019-03-22 22:00","2019","03","22","22:00"
"-61.68","56.55","NAIN A","8502801","2019-03-22 23:00","2019","03","22","23:00"
"-61.68","56.55","NAIN A","8502801","2019-03-23 00:00","2019","03","23","00:00"
"-61.68","56.55","NAIN A","8502801","2019-03-23 01:00","2019","03","23","01:00"
"-61.68","56.55","NAIN A","8502801","2019-03-23 02:00","2019","03","23","02:00"
"-61.68","56.55","NAIN A","8502801","2019-03-23 03:00","2019","03","23","03:00"
"-61.68","56.55","NAIN A","8502801","2019-03-23 04:00","2019","03","23","04:00","-19.5","","-23.9","","69","","","","16","","4","","24.1","","101.52","","","","-23","","NA"
"-61.68","56.55","NAIN A","8502801","2019-03-23 05:00","2019","03","23","05:00","-18.6","","-22.9","","70","","","","12","","3","","24.1","","101.49","","","","-21","","Cloudy"
"-61.68","56.55","NAIN A","8502801","2019-03-23 06:00","2019","03","23","06:00","-17.8","","-23.1","","64","","","","16","","4","","24.1","","101.43","","","","-21","","NA"
"-61.68","56.55","NAIN A","8502801","2019-03-23 07:00","2019","03","23","07:00","-17.0","","-23.1","","60","","","","29","","21","","24.1","","101.34","","","","-27","","NA"
"-61.68","56.55","NAIN A","8502801","2019-03-23 08:00","2019","03","23","08:00","-16.5","","-22.5","","60","","","","29","","19","","24.1","","101.26","","","","-26","","Cloudy"
"-61.68","56.55","NAIN A","8502801","2019-03-23 09:00","2019","03","23","09:00","-16.0","","-22.5","","58","","","","28","","22","","24.1","","101.11","","","","-26","","Snow Showers"
"-61.68","56.55","NAIN A","8502801","2019-03-23 10:00","2019","03","23","10:00","-15.1","","-21.3","","59","","","","28","","25","","24.1","","100.95","","","","-25","","Snow Showers"
"-61.68","56.55","NAIN A","8502801","2019-03-23 11:00","2019","03","23","11:00","-14.1","","-20.0","","61","","","","29","","23","","24.1","","100.82","","","","-24","","Snow Showers"
"-61.68","56.55","NAIN A","8502801","2019-03-23 12:00","2019","03","23","12:00","-13.2","","-19.3","","61","","","","28","","24","","24.1","","100.69","","","","-23","","Snow Showers"
"-61.68","56.55","NAIN A","8502801","2019-03-23 13:00","2019","03","23","13:00","-12.4","","-17.8","","65","","","","29","","25","","20.9","","100.50","","","","-22","","Snow Showers"
"-61.68","56.55","NAIN A","8502801","2019-03-23 14:00","2019","03","23","14:00","-11.5","","-16.6","","66","","","","29","","28","","20.9","","100.30","","","","-21","","Snow Showers"
"-61.68","56.55","NAIN A","8502801","2019-03-23 15:00","2019","03","23","15:00","-10.7","","-15.0","","71","","","","29","","25","","20.9","","100.13","","","","-20","","Snow Showers"
"-61.68","56.55","NAIN A","8502801","2019-03-23 16:00","2019","03","23","16:00","-10.3","","-14.1","","74","","","","30","","27","","22.5","","99.97","","","","-19","","NA"
"-61.68","56.55","NAIN A","8502801","2019-03-23 17:00","2019","03","23","17:00","-9.7","","-13.1","","77","","","","30","","20","","24.1","","99.87","","","","-17","","Cloudy"
"-61.68","56.55","NAIN A","8502801","2019-03-23 18:00","2019","03","23","18:00","-9.1","","-12.5","","76","","","","27","","11","","24.1","","99.74","","","","-15","","NA"
"-61.68","56.55","NAIN A","8502801","2019-03-23 19:00","2019","03","23","19:00","-8.9","","-11.4","","83","","","","22","","4","","24.1","","99.61","","","","-11","","NA"
"-61.68","56.55","NAIN A","8502801","2019-03-23 20:00","2019","03","23","20:00"
"-61.68","56.55","NAIN A","8502801","2019-03-23 21:00","2019","03","23","21:00"
"-61.68","56.55","NAIN A","8502801","2019-03-23 22:00","2019","03","23","22:00"
"-61.68","56.55","NAIN A","8502801","2019-03-23 23:00","2019","03","23","23:00"
"-61.68","56.55","NAIN A","8502801","2019-03-24 00:00","2019","03","24","00:00"
"-61.68","56.55","NAIN A","8502801","2019-03-24 01:00","2019","03","24","01:00"
"-61.68","56.55","NAIN A","8502801","2019-03-24 02:00","2019","03","24","02:00"
"-61.68","56.55","NAIN A","8502801","2019-03-24 03:00","2019","03","24","03:00"
"-61.68","56.55","NAIN A","8502801","2019-03-24 04:00","2019","03","24","04:00","-14.5","","-20.8","","60","","","","8","","4","","24.1","","98.52","","","","-17","","NA"
"-61.68","56.55","NAIN A","8502801","2019-03-24 05:00","2019","03","24","05:00","-15.3","","-21.9","","58","","","","8","","8","","24.1","","98.42","","","","-21","","Clear"
"-61.68","56.55","NAIN A","8502801","2019-03-24 06:00","2019","03","24","06:00","-16.7","","-22.1","","64","","","","32","","8","","24.1","","98.36","","","","-22","","NA"
"-61.68","56.55","NAIN A","8502801","2019-03-24 07:00","2019","03","24","07:00","-14.5","","-20.6","","60","","","","10","","4","","24.1","","98.36","","","","-17","","NA"
"-61.68","56.55","NAIN A","8502801","2019-03-24 08:00","2019","03","24","08:00","-10.4","","-16.7","","60","","","","28","","30","","24.1","","98.31","","","","-20","","Mostly Cloudy"
"-61.68","56.55","NAIN A","8502801","2019-03-24 09:00","2019","03","24","09:00","-9.6","","-15.6","","62","","","","29","","31","","24.1","","98.31","","","","-19","","NA"
"-61.68","56.55","NAIN A","8502801","2019-03-24 10:00","2019","03","24","10:00","-9.8","","-15.4","","64","","","","30","","37","","22.5","","98.35","","","","-20","","Snow Showers"
"-61.68","56.55","NAIN A","8502801","2019-03-24 11:00","2019","03","24","11:00","-12.2","","-17.6","","65","","","","31","","39","","22.5","","98.45","","","","-24","","Snow Showers"
"-61.68","56.55","NAIN A","8502801","2019-03-24 12:00","2019","03","24","12:00","-14.6","","-20.4","","62","","","","29","","48","","24.1","","98.55","","","","-28","","Snow Showers"
"-61.68","56.55","NAIN A","8502801","2019-03-24 13:00","2019","03","24","13:00","-16.1","","-21.8","","62","","","","29","","45","","24.1","","98.66","","","","-30","","Snow Showers,Blowing Snow"
"-61.68","56.55","NAIN A","8502801","2019-03-24 14:00","2019","03","24","14:00","-17.4","","-22.5","","65","","","","29","","69","","24.1","","98.73","","","","-34","","Snow Showers,Blowing Snow"
"-61.68","56.55","NAIN A","8502801","2019-03-24 15:00","2019","03","24","15:00","-17.8","","-23.3","","62","","","","29","","55","","24.1","","98.91","","","","-33","","Snow Showers,Blowing Snow"
"-61.68","56.55","NAIN A","8502801","2019-03-24 16:00","2019","03","24","16:00","-19.0","","-25.2","","58","","","","29","","61","","24.1","","99.02","","","","-35","","Snow Showers,Blowing Snow"
"-61.68","56.55","NAIN A","8502801","2019-03-24 17:00","2019","03","24","17:00","-19.6","","-25.7","","59","","","","29","","55","","24.1","","99.10","","","","-35","","Snow Showers,Blowing Snow"
"-61.68","56.55","NAIN A","8502801","2019-03-24 18:00","2019","03","24","18:00","-20.5","","-26.1","","61","","","","29","","53","","24.1","","99.16","","","","-36","","Snow Showers,Blowing Snow"
"-61.68","56.55","NAIN A","8502801","2019-03-24 19:00","2019","03","24","19:00","-20.7","","-26.4","","61","","","","29","","51","","24.1","","99.25","","","","-36","","Snow Showers,Blowing Snow"
"-61.68","56.55","NAIN A","8502801","2019-03-24 20:00","2019","03","24","20:00"
"-61.68","56.55","NAIN A","8502801","2019-03-24 21:00","2019","03","24","21:00"
"-61.68","56.55","NAIN A","8502801","2019-03-24 22:00","2019","03","24","22:00"
"-61.68","56.55","NAIN A","8502801","2019-03-24 23:00","2019","03","24","23:00"
"-61.68","56.55","NAIN A","8502801","2019-03-25 00:00","2019","03","25","00:00"
"-61.68","56.55","NAIN A","8502801","2019-03-25 01:00","2019","03","25","01:00"
"-61.68","56.55","NAIN A","8502801","2019-03-25 02:00","2019","03","25","02:00"
"-61.68","56.55","NAIN A","8502801","2019-03-25 03:00","2019","03","25","03:00"
"-61.68","56.55","NAIN A","8502801","2019-03-25 04:00","2019","03","25","04:00","-24.2","","-31.2","","53","","","","26","","23","","24.1","","99.50","","","","-37","","NA"
"-61.68","56.55","NAIN A","8502801","2019-03-25 05:00","2019","03","25","05:00","-24.4","","-32.2","","49","","","","26","","34","","24.1","","99.51","","","","-39","","Clear"
"-61.68","56.55","NAIN A","8502801","2019-03-25 06:00","2019","03","25","06:00","-24.8","","-32.4","","50","","","","27","","32","","24.1","","99.54","","","","-39","","NA"
"-61.68","56.55","NAIN A","8502801","2019-03-25 07:00","2019","03","25","07:00","-24.9","","-32.4","","50","","","","25","","28","","24.1","","99.54","","","","-39","","NA"
"-61.68","56.55","NAIN A","8502801","2019-03-25 08:00","2019","03","25","08:00","-24.3","","-32.2","","49","","","","26","","31","","24.1","","99.56","","","","-38","","Clear"
"-61.68","56.55","NAIN A","8502801","2019-03-25 09:00","2019","03","25","09:00","-23.9","","-32.1","","48","","","","26","","37","","24.1","","99.60","","","","-39","","NA"
"-61.68","56.55","NAIN A","8502801","2019-03-25 10:00","2019","03","25","10:00","-23.2","","-31.7","","47","","","","26","","23","","24.1","","99.65","","","","-35","","NA"
"-61.68","56.55","NAIN A","8502801","2019-03-25 11:00","2019","03","25","11:00","-22.8","","-31.2","","47","","","","27","","37","","24.1","","99.66","","","","-37","","Mostly Cloudy"
"-61.68","56.55","NAIN A","8502801","2019-03-25 12:00","2019","03","25","12:00","-22.2","","-30.5","","48","","","","27","","35","","24.1","","99.70","","","","-36","","NA"
"-61.68","56.55","NAIN A","8502801","2019-03-25 13:00","2019","03","25","13:00","-21.8","","-30.3","","47","","","","27","","39","","24.1","","99.74","","","","-36","","NA"
"-61.68","56.55","NAIN A","8502801","2019-03-25 14:00","2019","03","25","14:00","-21.1","","-30.3","","45","","","","27","","36","","24.1","","99.79","","","","-35","","Mostly Cloudy"
"-61.68","56.55","NAIN A","8502801","2019-03-25 15:00","2019","03","25","15:00","-21.2","","-30.1","","45","","","","27","","39","","24.1","","99.87","","","","-36","","NA"
"-61.68","56.55","NAIN A","8502801","2019-03-25 16:00","2019","03","25","16:00","-21.1","","-30.3","","44","","","","27","","40","","24.1","","99.96","","","","-36","","NA"
"-61.68","56.55","NAIN A","8502801","2019-03-25 17:00","2019","03","25","17:00","-20.9","","-29.5","","47","","","","27","","41","","24.1","","100.01","","","","-35","","Mainly Clear"
"-61.68","56.55","NAIN A","8502801","2019-03-25 18:00","2019","03","25","18:00","-21.2","","-29.1","","50","","","","26","","23","","24.1","","100.09","","","","-33","","NA"
"-61.68","56.55","NAIN A","8502801","2019-03-25 19:00","2019","03","25","19:00","-21.5","","-29.4","","50","","","","25","","22","","24.1","","100.17","","","","-33","","NA"
"-61.68","56.55","NAIN A","8502801","2019-03-25 20:00","2019","03","25","20:00"
"-61.68","56.55","NAIN A","8502801","2019-03-25 21:00","2019","03","25","21:00"
"-61.68","56.55","NAIN A","8502801","2019-03-25 22:00","2019","03","25","22:00"
"-61.68","56.55","NAIN A","8502801","2019-03-25 23:00","2019","03","25","23:00"
"-61.68","56.55","NAIN A","8502801","2019-03-26 00:00","2019","03","26","00:00"
"-61.68","56.55","NAIN A","8502801","2019-03-26 01:00","2019","03","26","01:00"
"-61.68","56.55","NAIN A","8502801","2019-03-26 02:00","2019","03","26","02:00"
"-61.68","56.55","NAIN A","8502801","2019-03-26 03:00","2019","03","26","03:00"
"-61.68","56.55","NAIN A","8502801","2019-03-26 04:00","2019","03","26","04:00","-23.9","","-31.0","","53","","","","24","","21","","24.1","","99.99","","","","-36","","NA"
"-61.68","56.55","NAIN A","8502801","2019-03-26 05:00","2019","03","26","05:00","-25.3","","-31.4","","58","","","","22","","4","","24.1","","99.97","","","","-29","","Clear"
"-61.68","56.55","NAIN A","8502801","2019-03-26 06:00","2019","03","26","06:00","-24.8","","-31.4","","55","","","","25","","5","","24.1","","99.97","","","","-30","","NA"
"-61.68","56.55","NAIN A","8502801","2019-03-26 07:00","2019","03","26","07:00","-24.3","","-31.3","","53","","","","25","","13","","24.1","","99.99","","","","-34","","NA"
"-61.68","56.55","NAIN A","8502801","2019-03-26 08:00","2019","03","26","08:00","-23.9","","-31.1","","53","","","","23","","6","","24.1","","99.98","","","","-30","","Mainly Clear"
"-61.68","56.55","NAIN A","8502801","2019-03-26 09:00","2019","03","26","09:00","-23.2","","-30.5","","52","","","","29","","9","","24.1","","99.99","","","","-31","","NA"
"-61.68","56.55","NAIN A","8502801","2019-03-26 10:00","2019","03","26","10:00","-21.4","","-29.2","","50","","","","26","","14","","24.1","","100.01","","","","-30","","NA"
"-61.68","56.55","NAIN A","8502801","2019-03-26 11:00","2019","03","26","11:00","-20.6","","-28.4","","51","","","","29","","27","","24.1","","100.05","","","","-33","","Mostly Cloudy"
"-61.68","56.55","NAIN A","8502801","2019-03-26 12:00","2019","03","26","12:00","-20.0","","-27.7","","51","","","","30","","21","","24.1","","100.13","","","","-31","","NA"
"-61.68","56.55","NAIN A","8502801","2019-03-26 13:00","2019","03","26","13:00","-19.3","","-27.5","","49","","","","29","","14","","24.1","","100.19","","","","-28","","NA"
"-61.68","56.55","NAIN A","8502801","2019-03-26 14:00","2019","03","26","14:00","-18.2","","-27.0","","47","","","","29","","17","","24.1","","100.28","","","","-27","","Mainly Clear"
"-61.68","56.55","NAIN A","8502801","2019-03-26 15:00","2019","03","26","15:00","-17.8","","-26.7","","47","","","","30","","23","","24.1","","100.38","","","","-28","","NA"
"-61.68","56.55","NAIN A","8502801","2019-03-26 16:00","2019","03","26","16:00","-17.5","","-26.8","","45","","","","29","","21","","24.1","","100.47","","","","-28","","NA"
"-61.68","56.55","NAIN A","8502801","2019-03-26 17:00","2019","03","26","17:00","-17.9","","-26.3","","49","","","","29","","20","","24.1","","100.59","","","","-28","","Mainly Clear"
"-61.68","56.55","NAIN A","8502801","2019-03-26 18:00","2019","03","26","18:00","-18.9","","-26.5","","52","","","","29","","22","","24.1","","100.72","","","","-30","","NA"
"-61.68","56.55","NAIN A","8502801","2019-03-26 19:00","2019","03","26","19:00","-20.1","","-27.0","","55","","","","29","","17","","24.1","","100.81","","","","-30","","NA"
"-61.68","56.55","NAIN A","8502801","2019-03-26 20:00","2019","03","26","20:00"
"-61.68","56.55","NAIN A","8502801","2019-03-26 21:00","2019","03","26","21:00"
"-61.68","56.55","NAIN A","8502801","2019-03-26 22:00","2019","03","26","22:00"
"-61.68","56.55","NAIN A","8502801","2019-03-26 23:00","2019","03","26","23:00"
"-61.68","56.55","NAIN A","8502801","2019-03-27 00:00","2019","03","27","00:00"
"-61.68","56.55","NAIN A","8502801","2019-03-27 01:00","2019","03","27","01:00"
"-61.68","56.55","NAIN A","8502801","2019-03-27 02:00","2019","03","27","02:00"
"-61.68","56.55","NAIN A","8502801","2019-03-27 03:00","2019","03","27","03:00"
"-61.68","56.55","NAIN A","8502801","2019-03-27 04:00","2019","03","27","04:00","-18.9","","-26.7","","51","","","","28","","37","","24.1","","101.26","","","","-32","","NA"
"-61.68","56.55","NAIN A","8502801","2019-03-27 05:00","2019","03","27","05:00","-18.4","","-26.4","","50","","","","24","","20","","24.1","","101.32","","","","-28","","Clear"
"-61.68","56.55","NAIN A","8502801","2019-03-27 06:00","2019","03","27","06:00","-18.7","","-25.9","","54","","","","27","","30","","24.1","","101.34","","","","-31","","NA"
"-61.68","56.55","NAIN A","8502801","2019-03-27 07:00","2019","03","27","07:00","-18.5","","-25.7","","54","","","","29","","26","","24.1","","101.35","","","","-30","","NA"
"-61.68","56.55","NAIN A","8502801","2019-03-27 08:00","2019","03","27","08:00","-17.4","","-25.5","","50","","","","29","","32","","24.1","","101.45","","","","-30","","Clear"
"-61.68","56.55","NAIN A","8502801","2019-03-27 09:00","2019","03","27","09:00","-15.6","","-25.4","","44","","","","27","","15","","24.1","","101.47","","","","-24","","NA"
"-61.68","56.55","NAIN A","8502801","2019-03-27 10:00","2019","03","27","10:00","-13.7","","-24.9","","39","","","","30","","22","","24.1","","101.49","","","","-23","","NA"
"-61.68","56.55","NAIN A","8502801","2019-03-27 11:00","2019","03","27","11:00","-12.9","","-23.8","","40","","","","25","","12","","24.1","","101.54","","","","-19","","Mainly Clear"
"-61.68","56.55","NAIN A","8502801","2019-03-27 12:00","2019","03","27","12:00","-12.7","","-23.9","","39","","","","25","","31","","24.1","","101.54","","","","-23","","NA"
"-61.68","56.55","NAIN A","8502801","2019-03-27 13:00","2019","03","27","13:00","-11.5","","-22.7","","39","","","","26","","22","","24.1","","101.49","","","","-20","","NA"
"-61.68","56.55","NAIN A","8502801","2019-03-27 14:00","2019","03","27","14:00","-10.9","","-21.8","","41","","","","13","","21","","24.1","","101.48","","","","-19","","Clear"
"-61.68","56.55","NAIN A","8502801","2019-03-27 15:00","2019","03","27","15:00","-10.1","","-22.1","","37","","","","4","","4","","24.1","","101.45","","","","-12","","NA"
"-61.68","56.55","NAIN A","8502801","2019-03-27 16:00","2019","03","27","16:00","-9.2","","-22.1","","35","","","","24","","12","","24.1","","101.38","","","","-15","","NA"
"-61.68","56.55","NAIN A","8502801","2019-03-27 17:00","2019","03","27","17:00","-9.0","","-22.1","","34","","","","26","","11","","24.1","","101.34","","","","-14","","Clear"
"-61.68","56.55","NAIN A","8502801","2019-03-27 18:00","2019","03","27","18:00","-10.8","","-20.8","","44","","","","24","","5","","24.1","","101.33","","","","-14","","NA"
"-61.68","56.55","NAIN A","8502801","2019-03-27 19:00","2019","03","27","19:00","-11.0","","-21.1","","43","","","","22","","7","","24.1","","101.36","","","","-15","","NA"
"-61.68","56.55","NAIN A","8502801","2019-03-27 20:00","2019","03","27","20:00"
"-61.68","56.55","NAIN A","8502801","2019-03-27 21:00","2019","03","27","21:00"
"-61.68","56.55","NAIN A","8502801","2019-03-27 22:00","2019","03","27","22:00"
"-61.68","56.55","NAIN A","8502801","2019-03-27 23:00","2019","03","27","23:00"
"-61.68","56.55","NAIN A","8502801","2019-03-28 00:00","2019","03","28","00:00"
"-61.68","56.55","NAIN A","8502801","2019-03-28 01:00","2019","03","28","01:00"
"-61.68","56.55","NAIN A","8502801","2019-03-28 02:00","2019","03","28","02:00"
"-61.68","56.55","NAIN A","8502801","2019-03-28 03:00","2019","03","28","03:00"
"-61.68","56.55","NAIN A","8502801","2019-03-28 04:00","2019","03","28","04:00","-11.4","","-15.1","","75","","","","14","","6","","24.1","","100.94","","","","-15","","NA"
"-61.68","56.55","NAIN A","8502801","2019-03-28 05:00","2019","03","28","05:00","-9.3","","-13.3","","73","","","","21","","16","","24.1","","100.90","","","","-16","","Mainly Clear"
"-61.68","56.55","NAIN A","8502801","2019-03-28 06:00","2019","03","28","06:00","-8.6","","-13.0","","71","","","","18","","12","","24.1","","100.86","","","","-14","","NA"
"-61.68","56.55","NAIN A","8502801","2019-03-28 07:00","2019","03","28","07:00","-7.9","","-11.8","","74","","","","20","","14","","24.1","","100.82","","","","-14","","NA"
"-61.68","56.55","NAIN A","8502801","2019-03-28 08:00","2019","03","28","08:00","-6.8","","-11.6","","69","","","","20","","10","","24.1","","100.77","","","","-11","","Mostly Cloudy"
"-61.68","56.55","NAIN A","8502801","2019-03-28 09:00","2019","03","28","09:00","-5.5","","-10.5","","68","","","","18","","10","","24.1","","100.68","","","","-10","","NA"
"-61.68","56.55","NAIN A","8502801","2019-03-28 10:00","2019","03","28","10:00","-4.4","","-9.9","","66","","","","18","","12","","24.1","","100.60","","","","-9","","NA"
"-61.68","56.55","NAIN A","8502801","2019-03-28 11:00","2019","03","28","11:00","-3.8","","-7.9","","73","","","","12","","17","","24.1","","100.47","","","","-10","","Cloudy"
"-61.68","56.55","NAIN A","8502801","2019-03-28 12:00","2019","03","28","12:00","-3.1","","-7.5","","72","","","","11","","12","","24.1","","100.33","","","","-8","","Snow Showers"
"-61.68","56.55","NAIN A","8502801","2019-03-28 13:00","2019","03","28","13:00","-2.1","","-6.0","","75","","","","11","","15","","24.1","","100.17","","","","-7","","NA"
"-61.68","56.55","NAIN A","8502801","2019-03-28 14:00","2019","03","28","14:00","-0.4","","-4.2","","75","","","","13","","20","","24.1","","100.02","","","","-6","","Cloudy"
"-61.68","56.55","NAIN A","8502801","2019-03-28 15:00","2019","03","28","15:00","1.2","","-5.0","","63","","","","15","","21","","24.1","","99.89","","","","","","NA"
"-61.68","56.55","NAIN A","8502801","2019-03-28 16:00","2019","03","28","16:00","2.8","","-6.7","","50","","","","20","","20","","24.1","","99.78","","","","","","NA"
"-61.68","56.55","NAIN A","8502801","2019-03-28 17:00","2019","03","28","17:00","3.1","","-5.7","","52","","","","23","","15","","24.1","","99.71","","","","","","Cloudy"
"-61.68","56.55","NAIN A","8502801","2019-03-28 18:00","2019","03","28","18:00","0.6","","-2.7","","79","","","","25","","14","","4.8","","99.74","","","","","","Snow"
"-61.68","56.55","NAIN A","8502801","2019-03-28 19:00","2019","03","28","19:00","0.9","","-4.0","","70","","","","23","","9","","24.1","","99.65","","","","","","NA"
"-61.68","56.55","NAIN A","8502801","2019-03-28 20:00","2019","03","28","20:00"
"-61.68","56.55","NAIN A","8502801","2019-03-28 21:00","2019","03","28","21:00"
"-61.68","56.55","NAIN A","8502801","2019-03-28 22:00","2019","03","28","22:00"
"-61.68","56.55","NAIN A","8502801","2019-03-28 23:00","2019","03","28","23:00"
"-61.68","56.55","NAIN A","8502801","2019-03-29 00:00","2019","03","29","00:00"
"-61.68","56.55","NAIN A","8502801","2019-03-29 01:00","2019","03","29","01:00"
"-61.68","56.55","NAIN A","8502801","2019-03-29 02:00","2019","03","29","02:00"
"-61.68","56.55","NAIN A","8502801","2019-03-29 03:00","2019","03","29","03:00"
"-61.68","56.55","NAIN A","8502801","2019-03-29 04:00","2019","03","29","04:00","-5.0","","-11.7","","60","","","","27","","50","","24.1","","99.82","","","","-15","","NA"
"-61.68","56.55","NAIN A","8502801","2019-03-29 05:00","2019","03","29","05:00","-7.8","","-13.3","","65","","","","28","","28","","24.1","","100.03","","","","-16","","Mainly Clear"
"-61.68","56.55","NAIN A","8502801","2019-03-29 06:00","2019","03","29","06:00","-9.1","","-15.3","","61","","","","27","","46","","24.1","","100.13","","","","-20","","NA"
"-61.68","56.55","NAIN A","8502801","2019-03-29 07:00","2019","03","29","07:00","-10.5","","-16.7","","61","","","","28","","46","","24.1","","100.29","","","","-22","","NA"
"-61.68","56.55","NAIN A","8502801","2019-03-29 08:00","2019","03","29","08:00","-11.7","","-18.1","","59","","","","27","","39","","24.1","","100.37","","","","-23","","Clear"
"-61.68","56.55","NAIN A","8502801","2019-03-29 09:00","2019","03","29","09:00","-13.0","","-20.0","","57","","","","28","","62","","24.1","","100.48","","","","-27","","Blowing Snow"
"-61.68","56.55","NAIN A","8502801","2019-03-29 10:00","2019","03","29","10:00","-12.5","","-20.0","","54","","","","28","","41","","24.1","","100.60","","","","-24","","Blowing Snow"
"-61.68","56.55","NAIN A","8502801","2019-03-29 11:00","2019","03","29","11:00","-12.3","","-19.4","","56","","","","28","","46","","24.1","","100.68","","","","-25","","Blowing Snow"
"-61.68","56.55","NAIN A","8502801","2019-03-29 12:00","2019","03","29","12:00","-12.7","","-20.8","","51","","","","27","","40","","24.1","","100.79","","","","-24","","NA"
"-61.68","56.55","NAIN A","8502801","2019-03-29 13:00","2019","03","29","13:00","-12.7","","-20.5","","53","","","","27","","42","","24.1","","100.87","","","","-25","","NA"
"-61.68","56.55","NAIN A","8502801","2019-03-29 14:00","2019","03","29","14:00","-12.8","","-21.7","","48","","","","27","","36","","24.1","","100.97","","","","-24","","Mainly Clear"
"-61.68","56.55","NAIN A","8502801","2019-03-29 15:00","2019","03","29","15:00","-13.0","","-22.4","","46","","","","27","","43","","24.1","","101.02","","","","-25","","NA"
"-61.68","56.55","NAIN A","8502801","2019-03-29 16:00","2019","03","29","16:00","-12.5","","-21.6","","47","","","","27","","30","","24.1","","101.06","","","","-23","","NA"
"-61.68","56.55","NAIN A","8502801","2019-03-29 17:00","2019","03","29","17:00","-12.6","","-21.6","","47","","","","28","","30","","24.1","","101.12","","","","-23","","Clear"
"-61.68","56.55","NAIN A","8502801","2019-03-29 18:00","2019","03","29","18:00","-13.2","","-21.5","","50","","","","26","","9","","24.1","","101.20","","","","-19","","NA"
"-61.68","56.55","NAIN A","8502801","2019-03-29 19:00","2019","03","29","19:00","-13.2","","-22.1","","48","","","","25","","26","","24.1","","101.28","","","","-23","","NA"
"-61.68","56.55","NAIN A","8502801","2019-03-29 20:00","2019","03","29","20:00"
"-61.68","56.55","NAIN A","8502801","2019-03-29 21:00","2019","03","29","21:00"
"-61.68","56.55","NAIN A","8502801","2019-03-29 22:00","2019","03","29","22:00"
"-61.68","56.55","NAIN A","8502801","2019-03-29 23:00","2019","03","29","23:00"
"-61.68","56.55","NAIN A","8502801","2019-03-30 00:00","2019","03","30","00:00"
"-61.68","56.55","NAIN A","8502801","2019-03-30 01:00","2019","03","30","01:00"
"-61.68","56.55","NAIN A","8502801","2019-03-30 02:00","2019","03","30","02:00"
"-61.68","56.55","NAIN A","8502801","2019-03-30 03:00","2019","03","30","03:00"
"-61.68","56.55","NAIN A","8502801","2019-03-30 04:00","2019","03","30","04:00","-16.7","","-24.2","","53","","","","24","","8","","24.1","","101.45","","","","-22","","NA"
"-61.68","56.55","NAIN A","8502801","2019-03-30 05:00","2019","03","30","05:00","-16.7","","-23.8","","55","","","","28","","13","","24.1","","101.46","","","","-24","","Clear"
"-61.68","56.55","NAIN A","8502801","2019-03-30 06:00","2019","03","30","06:00","-17.3","","-24.0","","57","","","","18","","4","","24.1","","101.48","","","","-20","","NA"
"-61.68","56.55","NAIN A","8502801","2019-03-30 07:00","2019","03","30","07:00","-17.4","","-24.1","","57","","","","13","","7","","24.1","","101.49","","","","-23","","NA"
"-61.68","56.55","NAIN A","8502801","2019-03-30 08:00","2019","03","30","08:00","-16.7","","-23.2","","58","","","","5","","4","","24.1","","101.46","","","","-20","","Clear"
"-61.68","56.55","NAIN A","8502801","2019-03-30 09:00","2019","03","30","09:00","-14.5","","-21.5","","56","","","","18","","16","","24.1","","101.40","","","","-23","","NA"
"-61.68","56.55","NAIN A","8502801","2019-03-30 10:00","2019","03","30","10:00","-13.1","","-20.8","","53","","","","9","","8","","24.1","","101.36","","","","-18","","NA"
"-61.68","56.55","NAIN A","8502801","2019-03-30 11:00","2019","03","30","11:00","-10.9","","-18.7","","53","","","","21","","22","","24.1","","101.25","","","","-19","","Mostly Cloudy"
"-61.68","56.55","NAIN A","8502801","2019-03-30 12:00","2019","03","30","12:00","-10.1","","-14.8","","69","","","","24","","13","","3.6","","101.25","","","","-16","","Snow Showers"
"-61.68","56.55","NAIN A","8502801","2019-03-30 13:00","2019","03","30","13:00","-7.8","","-16.4","","50","","","","27","","34","","24.1","","101.24","","","","-17","","NA"
"-61.68","56.55","NAIN A","8502801","2019-03-30 14:00","2019","03","30","14:00","-7.2","","-17.0","","46","","","","27","","37","","24.1","","101.28","","","","-17","","Mostly Cloudy"
"-61.68","56.55","NAIN A","8502801","2019-03-30 15:00","2019","03","30","15:00","-6.7","","-16.2","","47","","","","27","","36","","24.1","","101.30","","","","-16","","NA"
"-61.68","56.55","NAIN A","8502801","2019-03-30 16:00","2019","03","30","16:00","-6.7","","-15.4","","51","","","","27","","33","","24.1","","101.31","","","","-16","","NA"
"-61.68","56.55","NAIN A","8502801","2019-03-30 17:00","2019","03","30","17:00","-6.8","","-15.2","","52","","","","27","","23","","24.1","","101.38","","","","-14","","Clear"
"-61.68","56.55","NAIN A","8502801","2019-03-30 18:00","2019","03","30","18:00","-8.8","","-15.4","","59","","","","26","","4","","24.1","","101.45","","","","-11","","NA"
"-61.68","56.55","NAIN A","8502801","2019-03-30 19:00","2019","03","30","19:00","-10.7","","-16.8","","61","","","","28","","7","","24.1","","101.52","","","","-15","","NA"
"-61.68","56.55","NAIN A","8502801","2019-03-30 20:00","2019","03","30","20:00"
"-61.68","56.55","NAIN A","8502801","2019-03-30 21:00","2019","03","30","21:00"
"-61.68","56.55","NAIN A","8502801","2019-03-30 22:00","2019","03","30","22:00"
"-61.68","56.55","NAIN A","8502801","2019-03-30 23:00","2019","03","30","23:00"
"-61.68","56.55","NAIN A","8502801","2019-03-31 00:00","2019","03","31","00:00"
"-61.68","56.55","NAIN A","8502801","2019-03-31 01:00","2019","03","31","01:00"
"-61.68","56.55","NAIN A","8502801","2019-03-31 02:00","2019","03","31","02:00"
"-61.68","56.55","NAIN A","8502801","2019-03-31 03:00","2019","03","31","03:00"
"-61.68","56.55","NAIN A","8502801","2019-03-31 04:00","2019","03","31","04:00","-16.1","","-19.6","","75","","","","34","","5","","24.1","","101.61","","","","-20","","NA"
"-61.68","56.55","NAIN A","8502801","2019-03-31 05:00","2019","03","31","05:00","-16.5","","-20.0","","75","","","","17","","9","","24.1","","101.62","","","","-23","","Mainly Clear"
"-61.68","56.55","NAIN A","8502801","2019-03-31 06:00","2019","03","31","06:00","-17.9","","-21.0","","77","","","","29","","7","","24.1","","101.64","","","","-23","","NA"
"-61.68","56.55","NAIN A","8502801","2019-03-31 07:00","2019","03","31","07:00","-16.9","","-20.6","","73","","","","23","","4","","24.1","","101.65","","","","-20","","NA"
"-61.68","56.55","NAIN A","8502801","2019-03-31 08:00","2019","03","31","08:00","-15.6","","-19.5","","72","","","","14","","4","","24.1","","101.67","","","","-19","","Mostly Cloudy"
"-61.68","56.55","NAIN A","8502801","2019-03-31 09:00","2019","03","31","09:00","-15.3","","-18.9","","74","","","","36","","3","","24.1","","101.62","","","","-17","","NA"
"-61.68","56.55","NAIN A","8502801","2019-03-31 10:00","2019","03","31","10:00","-13.2","","-18.0","","67","","","","36","","2","","24.1","","101.63","","","","-15","","NA"
"-61.68","56.55","NAIN A","8502801","2019-03-31 11:00","2019","03","31","11:00","-11.3","","-16.1","","68","","","","31","","7","","24.1","","101.54","","","","-16","","Mostly Cloudy"
"-61.68","56.55","NAIN A","8502801","2019-03-31 12:00","2019","03","31","12:00","-9.5","","-15.0","","64","","","","30","","3","","24.1","","101.47","","","","-11","","NA"
"-61.68","56.55","NAIN A","8502801","2019-03-31 13:00","2019","03","31","13:00","-9.1","","-14.0","","68","","","","36","","5","","24.1","","101.39","","","","-12","","NA"
"-61.68","56.55","NAIN A","8502801","2019-03-31 14:00","2019","03","31","14:00","-8.5","","-13.7","","67","","","","36","","9","","24.1","","101.33","","","","-13","","Cloudy"
"-61.68","56.55","NAIN A","8502801","2019-03-31 15:00","2019","03","31","15:00","-8.5","","-14.9","","60","","","","29","","5","","24.1","","101.30","","","","-11","","NA"
"-61.68","56.55","NAIN A","8502801","2019-03-31 16:00","2019","03","31","16:00","-9.1","","-12.6","","76","","","","8","","7","","24.1","","101.25","","","","-13","","NA"
"-61.68","56.55","NAIN A","8502801","2019-03-31 17:00","2019","03","31","17:00","-9.0","","-12.5","","76","","","","36","","1","","24.1","","101.27","","","","-10","","Cloudy"
"-61.68","56.55","NAIN A","8502801","2019-03-31 18:00","2019","03","31","18:00","-9.3","","-12.7","","77","","","","5","","11","","24.1","","101.18","","","","-15","","NA"
"-61.68","56.55","NAIN A","8502801","2019-03-31 19:00","2019","03","31","19:00","-8.9","","-12.9","","73","","","","4","","11","","24.1","","101.17","","","","-14","","NA"
"-61.68","56.55","NAIN A","8502801","2019-03-31 20:00","2019","03","31","20:00"
"-61.68","56.55","NAIN A","8502801","2019-03-31 21:00","2019","03","31","21:00"
"-61.68","56.55","NAIN A","8502801","2019-03-31 22:00","2019","03","31","22:00"
"-61.68","56.55","NAIN A","8502801","2019-03-31 23:00","2019","03","31","23:00"
