"Longitude (x)","Latitude (y)","Station Name","Climate ID","Date/Time (LST)","Year","Month","Day","Time (LST)","Temp (°C)","Temp Flag","Dew Point Temp (°C)","Dew Point Temp Flag","Rel Hum (%)","Rel Hum Flag","Precip. Amount (mm)","Precip. Amount Flag","Wind Dir (10s deg)","Wind Dir Flag","Wind Spd (km/h)","Wind Spd Flag","Visibility (km)","Visibility Flag","Stn Press (kPa)","Stn Press Flag","Hmdx","Hmdx Flag","Wind Chill","Wind Chill Flag","Weather"
"-111.96","60.02","FORT SMITH A","2202201","2018-01-01 00:00","2018","01","01","00:00","-28.1","","-31.2","","75","","","","17","","7","","24.1","","100.05","","","","-35","","NA"
"-111.96","60.02","FORT SMITH A","2202201","2018-01-01 01:00","2018","01","01","01:00","-29.0","","-32.0","","76","","","","14","","11","","24.1","","99.98","","","","-38","","NA"
"-111.96","60.02","FORT SMITH A","2202201","2018-01-01 02:00","2018","01","01","02:00","-28.2","","-31.4","","75","","","","15","","9","","24.1","","99.91","","","","-36","","Clear"
"-111.96","60.02","FORT SMITH A","2202201","2018-01-01 03:00","2018","01","01","03:00","-28.3","","-31.4","","75","","","","14","","8","","24.1","","99.88","","","","-36","","NA"
"-111.96","60.02","FORT SMITH A","2202201","2018-01-01 04:00","2018","01","01","04:00","-28.6","","-31.8","","75","","","","14","","7","","24.1","","99.86","","","","-36","","NA"
"-111.96","60.02","FORT SMITH A","2202201","2018-01-01 05:00","2018","01","01","05:00","-28.1","","-31.2","","75","","","","13","","7","","24.1","","99.74","","","","-35","","Mainly Clear"
"-111.96","60.02","FORT SMITH A","2202201","2018-01-01 06:00","2018","01","01","06:00","-28.1","","-31.2","","75","","","","13","","7","","24.1","","99.67","","","","-35","","NA"
"-111.96","60.02","FORT SMITH A","2202201","2018-01-01 07:00","2018","01","01","07:00","-28.4","","-31.6","","75","","","","14","","9","","24.1","","99.60","","","","-37","","NA"
"-111.96","60.02","FORT SMITH A","2202201","2018-01-01 08:00","2018","01","01","08:00","-29.0","","-32.1","","75","","","","14","","11","","24.1","","99.55","","","","-38","","Mainly Clear"
"-111.96","60.02","FORT SMITH A","2202201","2018-01-01 09:00","2018","01","01","09:00","-28.8","","-32.0","","75","","","","15","","11","","24.1","","99.48","","","","-38","","NA"
"-111.96","60.02","FORT SMITH A","2202201","2018-01-01 10:00","2018","01","01","10:00","-28.8","","-31.9","","75","","","","15","","11","","24.1","","99.43","","","","-38","","NA"
"-111.96","60.02","FORT SMITH A","2202201","2018-01-01 11:00","2018","01","01","11:00","-27.6","","-30.8","","75","","","","15","","13","","24.1","","99.36","","","","-38","","Mostly Cloudy"
"-111.96","60.02","FORT SMITH A","2202201","2018-01-01 12:00","2018","01","01","12:00","-26.1","","-29.5","","74","","","","12","","8","","24.1","","99.28","","","","-33","","NA"
"-111.96","60.02","FORT SMITH A","2202201","2018-01-01 13:00","2018","01","01","13:00","-25.8","","-29.0","","75","","","","10","","4","","24.1","","99.17","","","","-30","","NA"
"-111.96","60.02","FORT SMITH A","2202201","2018-01-01 14:00","2018","01","01","14:00","-25.0","","-28.0","","76","","","","36","","2","","24.1","","99.16","","","","-27","","Mostly Cloudy"
"-111.96","60.02","FORT SMITH A","2202201","2018-01-01 15:00","2018","01","01","15:00","-25.2","","-28.4","","75","","","","15","","3","","24.1","","99.25","","","","-28","","NA"
"-111.96","60.02","FORT SMITH A","2202201","2018-01-01 16:00","2018","01","01","16:00","-25.0","","-27.9","","77","","","","14","","4","","24.1","","99.09","","","","-29","","NA"
"-111.96","60.02","FORT SMITH A","2202201","2018-01-01 17:00","2018","01","01","17:00","-26.4","","-29.4","","76","","","","12","","3","","24.1","","99.14","","","","-29","","Mostly Cloudy"
"-111.96","60.02","FORT SMITH A","2202201","2018-01-01 18:00","2018","01","01","18:00","-26.2","","-29.1","","77","","","","28","","4","","24.1","","99.20","","","","-30","","NA"
"-111.96","60.02","FORT SMITH A","2202201","2018-01-01 19:00","2018","01","01","19:00","-25.7","","-28.6","","77","","","","31","","3","","24.1","","99.29","","","","-29","","NA"
"-111.96","60.02","FORT SMITH A","2202201","2018-01-01 20:00","2018","01","01","20:00","-25.2","","-28.2","","76","","","","36","","5","","24.1","","99.33","","","","-30","","Mostly Cloudy"
"-111.96","60.02","FORT SMITH A","2202201","2018-01-01 21:00","2018","01","01","21:00","-24.4","","-27.4","","77","","","","1","","9","","24.1","","99.34","","","","-32","","NA"
"-111.96","60.02","FORT SMITH A","2202201","2018-01-01 22:00","2018","01","01","22:00","-24.1","","-27.2","","76","","","","35","","5","","24.1","","99.46","","","","-29","","NA"
"-111.96","60.02","FORT SMITH A","2202201","2018-01-01 23:00","2018","01","01","23:00","-24.1","","-27.1","","76","","","","34","","6","","24.1","","99.63","","","","-30","","Cloudy"
"-111.96","60.02","FORT SMITH A","2202201","2018-01-02 00:00","2018","01","02","00:00","-24.7","","-27.7","","77","","","","33","","8","","24.1","","99.69","","","","-32","","NA"
"-111.96","60.02","FORT SMITH A","2202201","2018-01-02 01:00","2018","01","02","01:00","-26.0","","-28.9","","77","","","","30","","10","","24.1","","99.86","","","","-34","","NA"
"-111.96","60.02","FORT SMITH A","2202201","2018-01-02 02:00","2018","01","02","02:00","-27.6","","-30.4","","77","","","","31","","5","","24.1","","99.93","","","","-33","","Clear"
"-111.96","60.02","FORT SMITH A","2202201","2018-01-02 03:00","2018","01","02","03:00","-27.3","","-30.3","","77","","","","32","","7","","24.1","","100.09","","","","-34","","NA"
"-111.96","60.02","FORT SMITH A","2202201","2018-01-02 04:00","2018","01","02","04:00","-27.4","","-30.4","","76","","","","31","","8","","24.1","","100.18","","","","-35","","NA"
"-111.96","60.02","FORT SMITH A","2202201","2018-01-02 05:00","2018","01","02","05:00","-28.7","","-31.6","","77","","","","36","","6","","24.1","","100.22","","","","-35","","Clear"
"-111.96","60.02","FORT SMITH A","2202201","2018-01-02 06:00","2018","01","02","06:00","-30.3","","-33.2","","76","","","","29","","8","","24.1","","100.33","","","","-38","","NA"
"-111.96","60.02","FORT SMITH A","2202201","2018-01-02 07:00","2018","01","02","07:00","-31.3","","-34.4","","75","","","","26","","4","","24.1","","100.35","","","","-36","","NA"
"-111.96","60.02","FORT SMITH A","2202201","2018-01-02 08:00","2018","01","02","08:00","-31.2","","-34.4","","74","","","","24","","4","","24.1","","100.43","","","","-36","","Clear"
"-111.96","60.02","FORT SMITH A","2202201","2018-01-02 09:00","2018","01","02","09:00","-32.3","","-35.7","","73","","","","7","","3","","24.1","","100.43","","","","-36","","NA"
"-111.96","60.02","FORT SMITH A","2202201","2018-01-02 10:00","2018","01","02","10:00","-30.4","","-33.7","","74","","","","23","","6","","24.1","","100.41","","","","-37","","NA"
"-111.96","60.02","FORT SMITH A","2202201","2018-01-02 11:00","2018","01","02","11:00","-30.1","","-33.4","","74","","","","24","","5","","24.1","","100.43","","","","-36","","Mostly Cloudy"
"-111.96","60.02","FORT SMITH A","2202201","2018-01-02 12:00","2018","01","02","12:00","-28.1","","-30.8","","78","","","","14","","5","","24.1","","100.33","","","","-33","","NA"
"-111.96","60.02","FORT SMITH A","2202201","2018-01-02 13:00","2018","01","02","13:00","-27.0","","-30.0","","76","","","","14","","10","","24.1","","100.33","","","","-36","","NA"
"-111.96","60.02","FORT SMITH A","2202201","2018-01-02 14:00","2018","01","02","14:00","-25.6","","-28.8","","75","","","","15","","10","","24.1","","100.30","","","","-34","","Cloudy"
"-111.96","60.02","FORT SMITH A","2202201","2018-01-02 15:00","2018","01","02","15:00","-24.9","","-28.1","","75","","","","12","","9","","24.1","","100.22","","","","-33","","NA"
"-111.96","60.02","FORT SMITH A","2202201","2018-01-02 16:00","2018","01","02","16:00","-24.4","","-27.7","","75","","","","13","","9","","24.1","","100.15","","","","-32","","NA"
"-111.96","60.02","FORT SMITH A","2202201","2018-01-02 17:00","2018","01","02","17:00","-23.7","","-27.0","","75","","","","13","","10","","24.1","","100.08","","","","-32","","Snow"
"-111.96","60.02","FORT SMITH A","2202201","2018-01-02 18:00","2018","01","02","18:00","-22.8","","-26.1","","75","","","","14","","17","","19.3","","99.97","","","","-33","","Snow"
"-111.96","60.02","FORT SMITH A","2202201","2018-01-02 19:00","2018","01","02","19:00","-21.3","","-24.4","","76","","","","14","","13","","24.1","","99.98","","","","-30","","Snow"
"-111.96","60.02","FORT SMITH A","2202201","2018-01-02 20:00","2018","01","02","20:00","-20.8","","-24.0","","76","","","","14","","18","","24.1","","99.87","","","","-31","","Snow"
"-111.96","60.02","FORT SMITH A","2202201","2018-01-02 21:00","2018","01","02","21:00","-20.6","","-23.7","","77","","","","13","","15","","19.3","","99.84","","","","-30","","Snow"
"-111.96","60.02","FORT SMITH A","2202201","2018-01-02 22:00","2018","01","02","22:00","-20.4","","-23.2","","78","","","","13","","14","","19.3","","99.73","","","","-29","","Snow"
"-111.96","60.02","FORT SMITH A","2202201","2018-01-02 23:00","2018","01","02","23:00","-20.1","","-23.1","","78","","","","12","","13","","24.1","","99.77","","","","-29","","Snow"
"-111.96","60.02","FORT SMITH A","2202201","2018-01-03 00:00","2018","01","03","00:00","-19.9","","-23.0","","77","","","","13","","8","","24.1","","99.72","","","","-26","","Snow"
"-111.96","60.02","FORT SMITH A","2202201","2018-01-03 01:00","2018","01","03","01:00","-20.0","","-23.1","","77","","","","12","","9","","24.1","","99.74","","","","-27","","Snow"
"-111.96","60.02","FORT SMITH A","2202201","2018-01-03 02:00","2018","01","03","02:00","-20.0","","-23.1","","77","","","","13","","9","","24.1","","99.78","","","","-27","","Snow"
"-111.96","60.02","FORT SMITH A","2202201","2018-01-03 03:00","2018","01","03","03:00","-20.3","","-23.4","","77","","","","11","","9","","24.1","","99.79","","","","-27","","Snow"
"-111.96","60.02","FORT SMITH A","2202201","2018-01-03 04:00","2018","01","03","04:00","-20.4","","-23.5","","77","","","","12","","10","","24.1","","99.79","","","","-28","","Snow"
"-111.96","60.02","FORT SMITH A","2202201","2018-01-03 05:00","2018","01","03","05:00","-20.5","","-23.6","","76","","","","13","","11","","24.1","","99.78","","","","-28","","Snow"
"-111.96","60.02","FORT SMITH A","2202201","2018-01-03 06:00","2018","01","03","06:00","-20.4","","-23.1","","80","","","","14","","9","","19.3","","99.80","","","","-27","","Snow"
"-111.96","60.02","FORT SMITH A","2202201","2018-01-03 07:00","2018","01","03","07:00","-20.3","","-22.4","","84","","","","13","","7","","6.4","","99.76","","","","-26","","Snow"
"-111.96","60.02","FORT SMITH A","2202201","2018-01-03 08:00","2018","01","03","08:00","-20.2","","-22.9","","79","","","","13","","8","","9.7","","99.76","","","","-26","","Snow"
"-111.96","60.02","FORT SMITH A","2202201","2018-01-03 09:00","2018","01","03","09:00","-20.0","","-22.7","","79","","","","11","","7","","6.4","","99.75","","","","-26","","Snow"
"-111.96","60.02","FORT SMITH A","2202201","2018-01-03 10:00","2018","01","03","10:00","-19.9","","-22.6","","80","","","","13","","10","","9.7","","99.77","","","","-27","","Snow"
"-111.96","60.02","FORT SMITH A","2202201","2018-01-03 11:00","2018","01","03","11:00","-19.7","","-22.0","","82","","","","13","","10","","4.8","","99.74","","","","-27","","Snow,Fog"
"-111.96","60.02","FORT SMITH A","2202201","2018-01-03 12:00","2018","01","03","12:00","-19.6","","-21.9","","82","","","","14","","11","","6.4","","99.74","","","","-27","","Snow,Fog"
"-111.96","60.02","FORT SMITH A","2202201","2018-01-03 13:00","2018","01","03","13:00","-19.2","","-21.4","","83","","","","14","","10","","4.0","","99.72","","","","-26","","Snow,Fog"
"-111.96","60.02","FORT SMITH A","2202201","2018-01-03 14:00","2018","01","03","14:00","-19.0","","-21.2","","83","","","","12","","12","","6.4","","99.74","","","","-27","","Snow,Fog"
"-111.96","60.02","FORT SMITH A","2202201","2018-01-03 15:00","2018","01","03","15:00","-18.9","","-21.2","","83","","","","12","","8","","4.8","","99.71","","","","-25","","Snow,Fog"
"-111.96","60.02","FORT SMITH A","2202201","2018-01-03 16:00","2018","01","03","16:00","-19.0","","-21.3","","83","","","","13","","13","","4.8","","99.67","","","","-27","","Snow Grains,Fog,Blowing Snow"
"-111.96","60.02","FORT SMITH A","2202201","2018-01-03 17:00","2018","01","03","17:00","-19.2","","-21.5","","82","","","","14","","11","","4.8","","99.67","","","","-27","","Snow Grains,Fog"
"-111.96","60.02","FORT SMITH A","2202201","2018-01-03 18:00","2018","01","03","18:00","-19.2","","-21.4","","83","","","","13","","8","","6.4","","99.67","","","","-25","","Snow Grains,Fog"
"-111.96","60.02","FORT SMITH A","2202201","2018-01-03 19:00","2018","01","03","19:00","-19.2","","-21.2","","84","","","","12","","11","","6.4","","99.64","","","","-27","","Snow Grains,Fog"
"-111.96","60.02","FORT SMITH A","2202201","2018-01-03 20:00","2018","01","03","20:00","-18.8","","-21.0","","83","","","","12","","7","","8.1","","99.60","","","","-24","","Snow Grains,Fog"
"-111.96","60.02","FORT SMITH A","2202201","2018-01-03 21:00","2018","01","03","21:00","-18.6","","-20.9","","83","","","","13","","8","","9.7","","99.60","","","","-25","","Snow Grains,Fog"
"-111.96","60.02","FORT SMITH A","2202201","2018-01-03 22:00","2018","01","03","22:00","-18.9","","-21.1","","82","","","","11","","4","","24.1","","99.54","","","","-22","","Snow Grains"
"-111.96","60.02","FORT SMITH A","2202201","2018-01-03 23:00","2018","01","03","23:00","-18.5","","-20.8","","82","","","","12","","7","","24.1","","99.54","","","","-24","","Snow Grains"
"-111.96","60.02","FORT SMITH A","2202201","2018-01-04 00:00","2018","01","04","00:00","-18.1","","-20.3","","83","","","","12","","8","","24.1","","99.54","","","","-24","","Snow Grains"
"-111.96","60.02","FORT SMITH A","2202201","2018-01-04 01:00","2018","01","04","01:00","-17.9","","-20.1","","83","","","","11","","8","","24.1","","99.54","","","","-24","","Snow Grains"
"-111.96","60.02","FORT SMITH A","2202201","2018-01-04 02:00","2018","01","04","02:00","-17.7","","-19.9","","83","","","","10","","6","","4.0","","99.60","","","","-22","","Snow"
"-111.96","60.02","FORT SMITH A","2202201","2018-01-04 03:00","2018","01","04","03:00","-17.6","","-19.9","","82","","","","13","","10","","4.0","","99.59","","","","-24","","Snow"
"-111.96","60.02","FORT SMITH A","2202201","2018-01-04 04:00","2018","01","04","04:00","-17.1","","-19.4","","82","","","","12","","5","","16.1","","99.57","","","","-21","","Snow"
"-111.96","60.02","FORT SMITH A","2202201","2018-01-04 05:00","2018","01","04","05:00","-17.0","","-19.4","","82","","","","14","","10","","16.1","","99.57","","","","-24","","Snow"
"-111.96","60.02","FORT SMITH A","2202201","2018-01-04 06:00","2018","01","04","06:00","-16.8","","-19.4","","81","","","","13","","7","","19.3","","99.55","","","","-22","","Snow"
"-111.96","60.02","FORT SMITH A","2202201","2018-01-04 07:00","2018","01","04","07:00","-16.6","","-19.1","","81","","","","12","","7","","19.3","","99.55","","","","-22","","Snow"
"-111.96","60.02","FORT SMITH A","2202201","2018-01-04 08:00","2018","01","04","08:00","-16.4","","-18.8","","82","","","","12","","9","","19.3","","99.57","","","","-22","","Snow"
"-111.96","60.02","FORT SMITH A","2202201","2018-01-04 09:00","2018","01","04","09:00","-16.4","","-18.5","","84","","","","12","","9","","4.0","","99.58","","","","-22","","Freezing Drizzle,Snow"
"-111.96","60.02","FORT SMITH A","2202201","2018-01-04 10:00","2018","01","04","10:00","-16.3","","-18.3","","84","","","","13","","11","","6.4","","99.59","","","","-23","","Freezing Drizzle,Snow"
"-111.96","60.02","FORT SMITH A","2202201","2018-01-04 11:00","2018","01","04","11:00","-15.9","","-18.1","","84","","","","13","","11","","6.4","","99.59","","","","-23","","Freezing Drizzle,Snow"
"-111.96","60.02","FORT SMITH A","2202201","2018-01-04 12:00","2018","01","04","12:00","-15.6","","-17.6","","85","","","","13","","9","","9.7","","99.62","","","","-22","","Freezing Drizzle,Snow"
"-111.96","60.02","FORT SMITH A","2202201","2018-01-04 13:00","2018","01","04","13:00","-15.2","","-17.4","","84","","","","11","","10","","9.7","","99.62","","","","-21","","Snow"
"-111.96","60.02","FORT SMITH A","2202201","2018-01-04 14:00","2018","01","04","14:00","-15.0","","-17.2","","83","","","","13","","9","","9.7","","99.62","","","","-21","","Snow"
"-111.96","60.02","FORT SMITH A","2202201","2018-01-04 15:00","2018","01","04","15:00","-14.9","","-17.1","","83","","","","14","","9","","9.7","","99.64","","","","-21","","Snow"
"-111.96","60.02","FORT SMITH A","2202201","2018-01-04 16:00","2018","01","04","16:00","-14.8","","-17.1","","83","","","","12","","10","","9.7","","99.63","","","","-21","","Snow"
"-111.96","60.02","FORT SMITH A","2202201","2018-01-04 17:00","2018","01","04","17:00","-14.9","","-17.2","","82","","","","11","","7","","9.7","","99.63","","","","-20","","Snow"
"-111.96","60.02","FORT SMITH A","2202201","2018-01-04 18:00","2018","01","04","18:00","-15.3","","-17.6","","82","","","","13","","12","","9.7","","99.60","","","","-22","","Snow"
"-111.96","60.02","FORT SMITH A","2202201","2018-01-04 19:00","2018","01","04","19:00","-15.2","","-17.3","","84","","","","13","","12","","9.7","","99.58","","","","-22","","Snow"
"-111.96","60.02","FORT SMITH A","2202201","2018-01-04 20:00","2018","01","04","20:00","-15.1","","-16.7","","87","","","","13","","8","","8.1","","99.59","","","","-20","","Snow"
"-111.96","60.02","FORT SMITH A","2202201","2018-01-04 21:00","2018","01","04","21:00","-14.8","","-16.4","","88","","","","14","","7","","8.1","","99.55","","","","-20","","Snow"
"-111.96","60.02","FORT SMITH A","2202201","2018-01-04 22:00","2018","01","04","22:00","-14.5","","-16.2","","87","","","","13","","8","","9.7","","99.48","","","","-20","","Freezing Drizzle,Snow"
"-111.96","60.02","FORT SMITH A","2202201","2018-01-04 23:00","2018","01","04","23:00","-14.0","","-15.7","","87","","","","12","","8","","9.7","","99.45","","","","-19","","Snow"
"-111.96","60.02","FORT SMITH A","2202201","2018-01-05 00:00","2018","01","05","00:00","-13.8","","-15.6","","87","","","","12","","9","","9.7","","99.45","","","","-19","","Snow"
"-111.96","60.02","FORT SMITH A","2202201","2018-01-05 01:00","2018","01","05","01:00","-13.7","","-15.5","","86","","","","13","","8","","12.9","","99.42","","","","-19","","Snow"
"-111.96","60.02","FORT SMITH A","2202201","2018-01-05 02:00","2018","01","05","02:00","-13.3","","-15.1","","87","","","","12","","11","","12.9","","99.39","","","","-20","","Snow"
"-111.96","60.02","FORT SMITH A","2202201","2018-01-05 03:00","2018","01","05","03:00","-13.1","","-14.9","","86","","","","13","","11","","9.7","","99.37","","","","-19","","Snow,Fog"
"-111.96","60.02","FORT SMITH A","2202201","2018-01-05 04:00","2018","01","05","04:00","-12.9","","-14.8","","86","","","","12","","7","","9.7","","99.29","","","","-17","","Snow,Fog"
"-111.96","60.02","FORT SMITH A","2202201","2018-01-05 05:00","2018","01","05","05:00","-12.6","","-14.5","","86","","","","13","","10","","9.7","","99.22","","","","-18","","Snow,Fog"
"-111.96","60.02","FORT SMITH A","2202201","2018-01-05 06:00","2018","01","05","06:00","-12.5","","-14.4","","86","","","","13","","10","","24.1","","99.16","","","","-18","","Snow"
"-111.96","60.02","FORT SMITH A","2202201","2018-01-05 07:00","2018","01","05","07:00","-12.4","","-14.2","","86","","","","12","","9","","24.1","","99.09","","","","-18","","Snow"
"-111.96","60.02","FORT SMITH A","2202201","2018-01-05 08:00","2018","01","05","08:00","-12.5","","-14.3","","87","","","","12","","9","","24.1","","99.00","","","","-18","","Snow"
"-111.96","60.02","FORT SMITH A","2202201","2018-01-05 09:00","2018","01","05","09:00","-12.0","","-13.5","","88","","","","13","","10","","24.1","","98.97","","","","-18","","Snow"
"-111.96","60.02","FORT SMITH A","2202201","2018-01-05 10:00","2018","01","05","10:00","-11.6","","-13.0","","89","","","","13","","10","","12.9","","98.94","","","","-17","","Snow"
"-111.96","60.02","FORT SMITH A","2202201","2018-01-05 11:00","2018","01","05","11:00","-10.8","","-12.3","","89","","","","11","","7","","12.9","","98.92","","","","-15","","Snow"
"-111.96","60.02","FORT SMITH A","2202201","2018-01-05 12:00","2018","01","05","12:00","-10.5","","-12.2","","88","","","","12","","5","","12.9","","98.85","","","","-14","","Snow"
"-111.96","60.02","FORT SMITH A","2202201","2018-01-05 13:00","2018","01","05","13:00","-9.8","","-11.4","","88","","","","13","","8","","12.9","","98.78","","","","-14","","Snow"
"-111.96","60.02","FORT SMITH A","2202201","2018-01-05 14:00","2018","01","05","14:00","-9.5","","-11.1","","88","","","","14","","9","","12.9","","98.68","","","","-14","","Snow"
"-111.96","60.02","FORT SMITH A","2202201","2018-01-05 15:00","2018","01","05","15:00","-9.3","","-11.0","","88","","","","14","","9","","8.1","","98.63","","","","-14","","Fog"
"-111.96","60.02","FORT SMITH A","2202201","2018-01-05 16:00","2018","01","05","16:00","-9.2","","-10.8","","88","","","","13","","7","","8.1","","98.59","","","","-13","","Fog"
"-111.96","60.02","FORT SMITH A","2202201","2018-01-05 17:00","2018","01","05","17:00","-9.1","","-10.8","","88","","","","13","","8","","6.4","","98.54","","","","-13","","Fog"
"-111.96","60.02","FORT SMITH A","2202201","2018-01-05 18:00","2018","01","05","18:00","-9.0","","-10.7","","88","","","","13","","7","","6.4","","98.50","","","","-13","","Snow,Fog"
"-111.96","60.02","FORT SMITH A","2202201","2018-01-05 19:00","2018","01","05","19:00","-9.0","","-10.6","","88","","","","13","","7","","4.8","","98.41","","","","-13","","Snow,Fog"
"-111.96","60.02","FORT SMITH A","2202201","2018-01-05 20:00","2018","01","05","20:00","-9.0","","-10.8","","87","","","","8","","6","","4.8","","98.31","","","","-12","","Snow"
"-111.96","60.02","FORT SMITH A","2202201","2018-01-05 21:00","2018","01","05","21:00","-8.9","","-10.6","","88","","","","36","","2","","4.8","","98.27","","","","-10","","Snow"
"-111.96","60.02","FORT SMITH A","2202201","2018-01-05 22:00","2018","01","05","22:00","-9.1","","-10.5","","89","","","","4","","4","","4.8","","98.25","","","","-11","","Snow"
"-111.96","60.02","FORT SMITH A","2202201","2018-01-05 23:00","2018","01","05","23:00","-9.1","","-10.5","","89","","","","4","","4","","4.8","","98.20","","","","-11","","Snow"
"-111.96","60.02","FORT SMITH A","2202201","2018-01-06 00:00","2018","01","06","00:00","-9.2","","-10.7","","89","","","","6","","4","","16.1","","98.12","","","","-11","","Snow"
"-111.96","60.02","FORT SMITH A","2202201","2018-01-06 01:00","2018","01","06","01:00","-8.9","","-10.5","","88","","","","36","","3","","19.3","","98.07","","","","-11","","Snow"
"-111.96","60.02","FORT SMITH A","2202201","2018-01-06 02:00","2018","01","06","02:00","-8.8","","-10.5","","88","","","","2","","3","","24.1","","98.05","","","","-10","","Snow"
"-111.96","60.02","FORT SMITH A","2202201","2018-01-06 03:00","2018","01","06","03:00","-8.8","","-10.3","","88","","","","2","","3","","24.1","","98.01","","","","-10","","NA"
"-111.96","60.02","FORT SMITH A","2202201","2018-01-06 04:00","2018","01","06","04:00","-8.7","","-10.2","","89","","","","36","","1","","19.3","","97.96","","","","-9","","Snow"
"-111.96","60.02","FORT SMITH A","2202201","2018-01-06 05:00","2018","01","06","05:00","-8.8","","-10.2","","90","","","","4","","3","","19.3","","97.87","","","","-10","","Snow"
"-111.96","60.02","FORT SMITH A","2202201","2018-01-06 06:00","2018","01","06","06:00","-8.8","","-10.2","","90","","","","6","","4","","19.3","","97.79","","","","-11","","Snow"
"-111.96","60.02","FORT SMITH A","2202201","2018-01-06 07:00","2018","01","06","07:00","-8.7","","-10.2","","89","","","","36","","2","","19.3","","97.75","","","","-10","","Snow"
"-111.96","60.02","FORT SMITH A","2202201","2018-01-06 08:00","2018","01","06","08:00","-8.6","","-10.1","","89","","","","13","","3","","16.1","","97.65","","","","-10","","Snow"
"-111.96","60.02","FORT SMITH A","2202201","2018-01-06 09:00","2018","01","06","09:00","-8.5","","-10.1","","89","","","","36","","3","","2.8","","97.58","","","","-10","","Snow"
"-111.96","60.02","FORT SMITH A","2202201","2018-01-06 10:00","2018","01","06","10:00","-8.6","","-10.0","","90","","","","16","","3","","2.0","","97.57","","","","-10","","Snow"
"-111.96","60.02","FORT SMITH A","2202201","2018-01-06 11:00","2018","01","06","11:00","-8.5","","-9.9","","90","","","","5","","3","","0.8","","97.49","","","","-10","","Moderate Snow,Freezing Fog"
"-111.96","60.02","FORT SMITH A","2202201","2018-01-06 12:00","2018","01","06","12:00","-8.5","","-9.8","","91","","","","36","","1","","1.2","","97.47","","","","-9","","Snow,Fog"
"-111.96","60.02","FORT SMITH A","2202201","2018-01-06 13:00","2018","01","06","13:00","-8.5","","-9.8","","90","","","","","","0","","1.2","","97.38","","","","","","Snow,Snow Grains,Fog"
"-111.96","60.02","FORT SMITH A","2202201","2018-01-06 14:00","2018","01","06","14:00","-8.4","","-9.9","","89","","","","27","","9","","3.2","","97.35","","","","-13","","Snow,Fog"
"-111.96","60.02","FORT SMITH A","2202201","2018-01-06 15:00","2018","01","06","15:00","-8.9","","-10.6","","88","","","","26","","16","","2.0","","97.34","","","","-16","","Snow,Fog"
"-111.96","60.02","FORT SMITH A","2202201","2018-01-06 16:00","2018","01","06","16:00","-9.8","","-11.7","","86","","","","26","","22","","1.2","","97.34","","","","-18","","Snow,Fog,Blowing Snow"
"-111.96","60.02","FORT SMITH A","2202201","2018-01-06 17:00","2018","01","06","17:00","-10.3","","-12.3","","86","","","","27","","17","","2.4","","97.35","","","","-18","","Snow,Blowing Snow"
"-111.96","60.02","FORT SMITH A","2202201","2018-01-06 18:00","2018","01","06","18:00","-11.3","","-14.1","","80","","","","28","","26","","4.8","","97.31","","","","-21","","Snow,Blowing Snow"
"-111.96","60.02","FORT SMITH A","2202201","2018-01-06 19:00","2018","01","06","19:00","-11.7","","-14.5","","80","","","","27","","21","","16.1","","97.29","","","","-20","","Snow,Blowing Snow"
"-111.96","60.02","FORT SMITH A","2202201","2018-01-06 20:00","2018","01","06","20:00","-11.9","","-14.8","","80","","","","27","","28","","12.9","","97.25","","","","-22","","Snow,Blowing Snow"
"-111.96","60.02","FORT SMITH A","2202201","2018-01-06 21:00","2018","01","06","21:00","-12.3","","-15.0","","81","","","","27","","18","","19.3","","97.23","","","","-20","","Snow,Blowing Snow"
"-111.96","60.02","FORT SMITH A","2202201","2018-01-06 22:00","2018","01","06","22:00","-12.6","","-15.1","","82","","","","27","","20","","19.3","","97.19","","","","-21","","Snow,Blowing Snow"
"-111.96","60.02","FORT SMITH A","2202201","2018-01-06 23:00","2018","01","06","23:00","-12.6","","-15.2","","81","","","","27","","21","","19.3","","97.19","","","","-21","","Snow,Blowing Snow"
"-111.96","60.02","FORT SMITH A","2202201","2018-01-07 00:00","2018","01","07","00:00","-12.5","","-14.7","","84","","","","28","","18","","4.8","","97.21","","","","-21","","Snow,Blowing Snow"
"-111.96","60.02","FORT SMITH A","2202201","2018-01-07 01:00","2018","01","07","01:00","-12.2","","-14.5","","84","","","","29","","26","","3.2","","97.21","","","","-22","","Snow,Blowing Snow"
"-111.96","60.02","FORT SMITH A","2202201","2018-01-07 02:00","2018","01","07","02:00","-12.7","","-15.2","","82","","","","31","","19","","3.2","","97.30","","","","-21","","Snow,Blowing Snow"
"-111.96","60.02","FORT SMITH A","2202201","2018-01-07 03:00","2018","01","07","03:00","-12.8","","-15.3","","82","","","","31","","22","","3.2","","97.41","","","","-22","","Snow,Blowing Snow"
"-111.96","60.02","FORT SMITH A","2202201","2018-01-07 04:00","2018","01","07","04:00","-12.7","","-15.2","","82","","","","31","","20","","3.2","","97.52","","","","-21","","Snow,Blowing Snow"
"-111.96","60.02","FORT SMITH A","2202201","2018-01-07 05:00","2018","01","07","05:00","-12.9","","-15.5","","81","","","","32","","20","","4.8","","97.65","","","","-22","","Snow,Blowing Snow"
"-111.96","60.02","FORT SMITH A","2202201","2018-01-07 06:00","2018","01","07","06:00","-12.9","","-15.5","","81","","","","32","","21","","4.8","","97.77","","","","-22","","Snow,Blowing Snow"
"-111.96","60.02","FORT SMITH A","2202201","2018-01-07 07:00","2018","01","07","07:00","-12.7","","-14.8","","85","","","","30","","18","","4.8","","97.86","","","","-21","","Snow,Blowing Snow"
"-111.96","60.02","FORT SMITH A","2202201","2018-01-07 08:00","2018","01","07","08:00","-12.9","","-15.6","","81","","","","31","","21","","9.7","","97.97","","","","-22","","Snow,Fog"
"-111.96","60.02","FORT SMITH A","2202201","2018-01-07 09:00","2018","01","07","09:00","-13.3","","-15.8","","82","","","","30","","23","","4.8","","98.06","","","","-23","","Snow,Blowing Snow"
"-111.96","60.02","FORT SMITH A","2202201","2018-01-07 10:00","2018","01","07","10:00","-13.6","","-16.2","","81","","","","31","","24","","4.8","","98.18","","","","-23","","Snow,Blowing Snow"
"-111.96","60.02","FORT SMITH A","2202201","2018-01-07 11:00","2018","01","07","11:00","-13.7","","-16.1","","82","","","","30","","21","","4.8","","98.30","","","","-23","","Snow,Blowing Snow"
"-111.96","60.02","FORT SMITH A","2202201","2018-01-07 12:00","2018","01","07","12:00","-13.8","","-16.4","","81","","","","30","","20","","19.3","","98.33","","","","-23","","Snow,Blowing Snow"
"-111.96","60.02","FORT SMITH A","2202201","2018-01-07 13:00","2018","01","07","13:00","-14.2","","-16.6","","82","","","","30","","20","","24.1","","98.40","","","","-23","","Snow,Blowing Snow"
"-111.96","60.02","FORT SMITH A","2202201","2018-01-07 14:00","2018","01","07","14:00","-14.6","","-16.9","","83","","","","30","","23","","24.1","","98.47","","","","-24","","Snow,Blowing Snow"
"-111.96","60.02","FORT SMITH A","2202201","2018-01-07 15:00","2018","01","07","15:00","-15.5","","-17.6","","84","","","","30","","20","","24.1","","98.52","","","","-25","","Snow,Blowing Snow"
"-111.96","60.02","FORT SMITH A","2202201","2018-01-07 16:00","2018","01","07","16:00","-15.8","","-17.8","","85","","","","31","","8","","24.1","","98.52","","","","-21","","Snow"
"-111.96","60.02","FORT SMITH A","2202201","2018-01-07 17:00","2018","01","07","17:00","-15.4","","-17.4","","85","","","","30","","4","","24.1","","98.56","","","","-18","","Snow"
"-111.96","60.02","FORT SMITH A","2202201","2018-01-07 18:00","2018","01","07","18:00","-15.5","","-17.8","","83","","","","30","","14","","24.1","","98.54","","","","-23","","Snow"
"-111.96","60.02","FORT SMITH A","2202201","2018-01-07 19:00","2018","01","07","19:00","-16.1","","-18.1","","84","","","","29","","6","","24.1","","98.53","","","","-21","","NA"
"-111.96","60.02","FORT SMITH A","2202201","2018-01-07 20:00","2018","01","07","20:00","-18.0","","-20.0","","84","","","","26","","4","","24.1","","98.55","","","","-21","","Mostly Cloudy"
"-111.96","60.02","FORT SMITH A","2202201","2018-01-07 21:00","2018","01","07","21:00","-16.2","","-17.9","","87","","","","31","","6","","24.1","","98.58","","","","-21","","Snow"
"-111.96","60.02","FORT SMITH A","2202201","2018-01-07 22:00","2018","01","07","22:00","-16.1","","-17.9","","86","","","","27","","4","","24.1","","98.61","","","","-19","","Snow"
"-111.96","60.02","FORT SMITH A","2202201","2018-01-07 23:00","2018","01","07","23:00","-16.1","","-18.0","","85","","","","26","","4","","4.8","","98.64","","","","-19","","Snow"
"-111.96","60.02","FORT SMITH A","2202201","2018-01-08 00:00","2018","01","08","00:00","-16.2","","-18.2","","85","","","","23","","5","","9.7","","98.65","","","","-20","","Snow"
"-111.96","60.02","FORT SMITH A","2202201","2018-01-08 01:00","2018","01","08","01:00","-16.0","","-18.0","","84","","","","27","","8","","16.1","","98.65","","","","-22","","Snow"
"-111.96","60.02","FORT SMITH A","2202201","2018-01-08 02:00","2018","01","08","02:00","-15.9","","-18.1","","83","","","","32","","8","","9.7","","98.66","","","","-21","","Snow"
"-111.96","60.02","FORT SMITH A","2202201","2018-01-08 03:00","2018","01","08","03:00","-17.7","","-20.5","","79","","","","33","","17","","4.8","","98.75","","","","-27","","Snow"
"-111.96","60.02","FORT SMITH A","2202201","2018-01-08 04:00","2018","01","08","04:00","-18.6","","-21.5","","78","","","","33","","19","","8.1","","98.78","","","","-28","","Snow"
"-111.96","60.02","FORT SMITH A","2202201","2018-01-08 05:00","2018","01","08","05:00","-19.6","","-22.6","","77","","","","33","","15","","9.7","","98.84","","","","-29","","Snow,Blowing Snow"
"-111.96","60.02","FORT SMITH A","2202201","2018-01-08 06:00","2018","01","08","06:00","-20.9","","-24.1","","77","","","","33","","17","","24.1","","98.93","","","","-31","","Snow,Blowing Snow"
"-111.96","60.02","FORT SMITH A","2202201","2018-01-08 07:00","2018","01","08","07:00","-21.7","","-24.5","","78","","","","32","","10","","24.1","","99.00","","","","-29","","Snow"
"-111.96","60.02","FORT SMITH A","2202201","2018-01-08 08:00","2018","01","08","08:00","-22.0","","-24.6","","79","","","","31","","11","","24.1","","99.06","","","","-30","","Snow"
"-111.96","60.02","FORT SMITH A","2202201","2018-01-08 09:00","2018","01","08","09:00","-22.1","","-24.9","","78","","","","31","","9","","24.1","","99.12","","","","-29","","Snow"
"-111.96","60.02","FORT SMITH A","2202201","2018-01-08 10:00","2018","01","08","10:00","-22.9","","-25.6","","79","","","","30","","15","","24.1","","99.17","","","","-33","","Snow"
"-111.96","60.02","FORT SMITH A","2202201","2018-01-08 11:00","2018","01","08","11:00","-23.0","","-25.9","","78","","","","30","","14","","24.1","","99.24","","","","-32","","Snow"
"-111.96","60.02","FORT SMITH A","2202201","2018-01-08 12:00","2018","01","08","12:00","-23.0","","-25.9","","78","","","","31","","12","","24.1","","99.28","","","","-32","","Snow"
"-111.96","60.02","FORT SMITH A","2202201","2018-01-08 13:00","2018","01","08","13:00","-23.0","","-26.0","","77","","","","31","","11","","24.1","","99.34","","","","-31","","NA"
"-111.96","60.02","FORT SMITH A","2202201","2018-01-08 14:00","2018","01","08","14:00","-23.6","","-26.5","","77","","","","31","","12","","24.1","","99.39","","","","-32","","Mainly Clear"
"-111.96","60.02","FORT SMITH A","2202201","2018-01-08 15:00","2018","01","08","15:00","-25.2","","-27.8","","80","","","","30","","12","","24.1","","99.48","","","","-34","","NA"
"-111.96","60.02","FORT SMITH A","2202201","2018-01-08 16:00","2018","01","08","16:00","-25.2","","-27.8","","80","","","","30","","12","","24.1","","99.53","","","","-34","","NA"
"-111.96","60.02","FORT SMITH A","2202201","2018-01-08 17:00","2018","01","08","17:00","-25.9","","-28.8","","77","","","","30","","16","","24.1","","99.55","","","","-37","","Mainly Clear"
"-111.96","60.02","FORT SMITH A","2202201","2018-01-08 18:00","2018","01","08","18:00","-26.5","","-29.4","","78","","","","31","","11","","24.1","","99.61","","","","-35","","NA"
"-111.96","60.02","FORT SMITH A","2202201","2018-01-08 19:00","2018","01","08","19:00","-28.4","","-31.3","","77","","","","29","","15","","24.1","","99.69","","","","-39","","NA"
"-111.96","60.02","FORT SMITH A","2202201","2018-01-08 20:00","2018","01","08","20:00","-28.2","","-31.1","","77","","","","30","","13","","24.1","","99.73","","","","-38","","Clear"
"-111.96","60.02","FORT SMITH A","2202201","2018-01-08 21:00","2018","01","08","21:00","-29.1","","-32.1","","76","","","","29","","16","","24.1","","99.76","","","","-41","","NA"
"-111.96","60.02","FORT SMITH A","2202201","2018-01-08 22:00","2018","01","08","22:00","-28.8","","-31.8","","76","","","","31","","14","","24.1","","99.82","","","","-40","","NA"
"-111.96","60.02","FORT SMITH A","2202201","2018-01-08 23:00","2018","01","08","23:00","-29.2","","-32.2","","75","","","","31","","14","","24.1","","99.86","","","","-40","","Mainly Clear"
"-111.96","60.02","FORT SMITH A","2202201","2018-01-09 00:00","2018","01","09","00:00","-29.6","","-32.8","","75","","","","31","","7","","24.1","","99.89","","","","-37","","NA"
"-111.96","60.02","FORT SMITH A","2202201","2018-01-09 01:00","2018","01","09","01:00","-29.6","","-32.7","","75","","","","32","","10","","24.1","","99.86","","","","-39","","NA"
"-111.96","60.02","FORT SMITH A","2202201","2018-01-09 02:00","2018","01","09","02:00","-30.1","","-33.2","","75","","","","30","","10","","24.1","","99.86","","","","-39","","Mainly Clear"
"-111.96","60.02","FORT SMITH A","2202201","2018-01-09 03:00","2018","01","09","03:00","-30.2","","-33.3","","75","","","","30","","7","","24.1","","99.89","","","","-38","","NA"
"-111.96","60.02","FORT SMITH A","2202201","2018-01-09 04:00","2018","01","09","04:00","-30.8","","-34.0","","75","","","","30","","13","","24.1","","99.89","","","","-42","","NA"
"-111.96","60.02","FORT SMITH A","2202201","2018-01-09 05:00","2018","01","09","05:00","-30.8","","-34.0","","74","","","","30","","7","","24.1","","99.89","","","","-38","","Mainly Clear"
"-111.96","60.02","FORT SMITH A","2202201","2018-01-09 06:00","2018","01","09","06:00","-30.9","","-34.1","","74","","","","29","","8","","24.1","","99.88","","","","-39","","NA"
"-111.96","60.02","FORT SMITH A","2202201","2018-01-09 07:00","2018","01","09","07:00","-30.3","","-33.5","","74","","","","30","","13","","24.1","","99.89","","","","-41","","NA"
"-111.96","60.02","FORT SMITH A","2202201","2018-01-09 08:00","2018","01","09","08:00","-30.3","","-33.5","","74","","","","29","","12","","24.1","","99.88","","","","-41","","Cloudy"
"-111.96","60.02","FORT SMITH A","2202201","2018-01-09 09:00","2018","01","09","09:00","-29.9","","-33.1","","74","","","","27","","10","","4.0","","99.92","","","","-39","","Snow"
"-111.96","60.02","FORT SMITH A","2202201","2018-01-09 10:00","2018","01","09","10:00","-29.4","","-32.6","","74","","","","30","","11","","4.8","","99.95","","","","-39","","Snow"
"-111.96","60.02","FORT SMITH A","2202201","2018-01-09 11:00","2018","01","09","11:00","-28.9","","-32.1","","74","","","","32","","9","","16.1","","99.88","","","","-37","","Snow"
"-111.96","60.02","FORT SMITH A","2202201","2018-01-09 12:00","2018","01","09","12:00","-28.6","","-31.8","","75","","","","31","","10","","12.9","","99.88","","","","-37","","Snow"
"-111.96","60.02","FORT SMITH A","2202201","2018-01-09 13:00","2018","01","09","13:00","-28.4","","-31.6","","74","","","","30","","14","","16.1","","99.86","","","","-39","","Snow"
"-111.96","60.02","FORT SMITH A","2202201","2018-01-09 14:00","2018","01","09","14:00","-28.2","","-31.5","","74","","","","30","","14","","19.3","","99.85","","","","-39","","Snow"
"-111.96","60.02","FORT SMITH A","2202201","2018-01-09 15:00","2018","01","09","15:00","-28.2","","-31.5","","74","","","","31","","11","","19.3","","99.90","","","","-38","","Snow,Blowing Snow"
"-111.96","60.02","FORT SMITH A","2202201","2018-01-09 16:00","2018","01","09","16:00","-28.7","","-32.0","","74","","","","32","","13","","24.1","","99.93","","","","-39","","Snow,Blowing Snow"
"-111.96","60.02","FORT SMITH A","2202201","2018-01-09 17:00","2018","01","09","17:00","-29.6","","-32.8","","74","","","","30","","18","","24.1","","99.97","","","","-42","","Snow,Blowing Snow"
"-111.96","60.02","FORT SMITH A","2202201","2018-01-09 18:00","2018","01","09","18:00","-30.2","","-33.5","","74","","","","30","","20","","24.1","","99.99","","","","-43","","Snow,Blowing Snow"
"-111.96","60.02","FORT SMITH A","2202201","2018-01-09 19:00","2018","01","09","19:00","-30.8","","-34.0","","74","","","","29","","20","","24.1","","99.98","","","","-44","","Snow,Blowing Snow"
"-111.96","60.02","FORT SMITH A","2202201","2018-01-09 20:00","2018","01","09","20:00","-30.9","","-34.2","","74","","","","30","","16","","24.1","","99.97","","","","-43","","Snow,Blowing Snow"
"-111.96","60.02","FORT SMITH A","2202201","2018-01-09 21:00","2018","01","09","21:00","-31.1","","-34.4","","73","","","","30","","15","","19.3","","99.98","","","","-43","","Snow,Blowing Snow"
"-111.96","60.02","FORT SMITH A","2202201","2018-01-09 22:00","2018","01","09","22:00","-31.4","","-34.8","","73","","","","30","","12","","24.1","","99.96","","","","-42","","Snow,Blowing Snow"
"-111.96","60.02","FORT SMITH A","2202201","2018-01-09 23:00","2018","01","09","23:00","-31.4","","-34.8","","73","","","","30","","10","","16.1","","99.97","","","","-41","","Snow"
"-111.96","60.02","FORT SMITH A","2202201","2018-01-10 00:00","2018","01","10","00:00","-31.6","","-34.9","","73","","","","30","","13","","24.1","","99.98","","","","-43","","Snow"
"-111.96","60.02","FORT SMITH A","2202201","2018-01-10 01:00","2018","01","10","01:00","-32.2","","-35.5","","74","","","","29","","18","","24.1","","100.00","","","","-45","","Snow"
"-111.96","60.02","FORT SMITH A","2202201","2018-01-10 02:00","2018","01","10","02:00","-32.7","","-35.9","","74","","","","29","","9","","24.1","","99.99","","","","-42","","Snow"
"-111.96","60.02","FORT SMITH A","2202201","2018-01-10 03:00","2018","01","10","03:00","-32.8","","-36.0","","74","","","","30","","5","","24.1","","99.99","","","","-39","","Ice Crystals"
"-111.96","60.02","FORT SMITH A","2202201","2018-01-10 04:00","2018","01","10","04:00","-33.6","","-36.6","","74","","","","24","","5","","24.1","","100.01","","","","-40","","Ice Crystals"
"-111.96","60.02","FORT SMITH A","2202201","2018-01-10 05:00","2018","01","10","05:00","-33.9","","-37.0","","74","","","","36","","3","","24.1","","99.99","","","","-38","","Ice Crystals"
"-111.96","60.02","FORT SMITH A","2202201","2018-01-10 06:00","2018","01","10","06:00","-33.8","","-37.0","","74","","","","29","","9","","24.1","","99.99","","","","-43","","Ice Crystals"
"-111.96","60.02","FORT SMITH A","2202201","2018-01-10 07:00","2018","01","10","07:00","-34.9","","-38.2","","73","","","","25","","9","","24.1","","99.98","","","","-44","","Ice Crystals"
"-111.96","60.02","FORT SMITH A","2202201","2018-01-10 08:00","2018","01","10","08:00","-35.7","","-39.0","","72","","","","20","","4","","24.1","","100.00","","","","-41","","Ice Crystals"
"-111.96","60.02","FORT SMITH A","2202201","2018-01-10 09:00","2018","01","10","09:00","-34.9","","-38.2","","73","","","","28","","8","","24.1","","100.04","","","","-44","","Ice Crystals"
"-111.96","60.02","FORT SMITH A","2202201","2018-01-10 10:00","2018","01","10","10:00","-34.4","","-37.7","","72","","","","27","","10","","24.1","","100.04","","","","-44","","Ice Crystals"
"-111.96","60.02","FORT SMITH A","2202201","2018-01-10 11:00","2018","01","10","11:00","-32.3","","-35.6","","73","","","","27","","12","","16.1","","100.06","","","","-43","","Ice Crystals"
"-111.96","60.02","FORT SMITH A","2202201","2018-01-10 12:00","2018","01","10","12:00","-31.9","","-35.3","","73","","","","26","","10","","24.1","","100.07","","","","-41","","Ice Crystals"
"-111.96","60.02","FORT SMITH A","2202201","2018-01-10 13:00","2018","01","10","13:00","-31.2","","-34.5","","73","","","","28","","11","","24.1","","100.09","","","","-41","","Ice Crystals"
"-111.96","60.02","FORT SMITH A","2202201","2018-01-10 14:00","2018","01","10","14:00","-30.5","","-33.9","","73","","","","28","","7","","9.7","","100.09","","","","-38","","Snow"
"-111.96","60.02","FORT SMITH A","2202201","2018-01-10 15:00","2018","01","10","15:00","-30.2","","-33.4","","74","","","","26","","7","","12.9","","100.10","","","","-38","","Snow"
"-111.96","60.02","FORT SMITH A","2202201","2018-01-10 16:00","2018","01","10","16:00","-30.0","","-33.2","","74","","","","27","","14","","9.7","","100.12","","","","-41","","Snow"
"-111.96","60.02","FORT SMITH A","2202201","2018-01-10 17:00","2018","01","10","17:00","-30.2","","-33.5","","74","","","","27","","16","","16.1","","100.15","","","","-42","","Snow"
"-111.96","60.02","FORT SMITH A","2202201","2018-01-10 18:00","2018","01","10","18:00","-30.5","","-33.8","","74","","","","29","","10","","9.7","","100.20","","","","-40","","Snow"
"-111.96","60.02","FORT SMITH A","2202201","2018-01-10 19:00","2018","01","10","19:00","-30.6","","-33.9","","73","","","","28","","13","","9.7","","100.20","","","","-41","","Snow,Blowing Snow"
"-111.96","60.02","FORT SMITH A","2202201","2018-01-10 20:00","2018","01","10","20:00","-30.5","","-33.8","","73","","","","26","","10","","9.7","","100.21","","","","-40","","Snow"
"-111.96","60.02","FORT SMITH A","2202201","2018-01-10 21:00","2018","01","10","21:00","-30.1","","-33.4","","74","","","","27","","10","","9.7","","100.20","","","","-39","","Snow"
"-111.96","60.02","FORT SMITH A","2202201","2018-01-10 22:00","2018","01","10","22:00","-31.0","","-34.3","","73","","","","27","","10","","24.1","","100.22","","","","-40","","Snow"
"-111.96","60.02","FORT SMITH A","2202201","2018-01-10 23:00","2018","01","10","23:00","-31.8","","-35.1","","73","","","","27","","9","","24.1","","100.23","","","","-41","","Ice Crystals"
"-111.96","60.02","FORT SMITH A","2202201","2018-01-11 00:00","2018","01","11","00:00","-32.7","","-36.0","","73","","","","24","","8","","24.1","","100.24","","","","-41","","Ice Crystals"
"-111.96","60.02","FORT SMITH A","2202201","2018-01-11 01:00","2018","01","11","01:00","-33.7","","-37.0","","73","","","","22","","8","","24.1","","100.25","","","","-42","","Ice Crystals"
"-111.96","60.02","FORT SMITH A","2202201","2018-01-11 02:00","2018","01","11","02:00","-35.2","","-38.6","","72","","","","21","","5","","24.1","","100.26","","","","-42","","Ice Crystals"
"-111.96","60.02","FORT SMITH A","2202201","2018-01-11 03:00","2018","01","11","03:00","-35.4","","-38.8","","72","","","","19","","4","","24.1","","100.30","","","","-40","","Ice Crystals"
"-111.96","60.02","FORT SMITH A","2202201","2018-01-11 04:00","2018","01","11","04:00","-34.8","","-38.0","","73","","","","26","","5","","24.1","","100.29","","","","-41","","Ice Crystals"
"-111.96","60.02","FORT SMITH A","2202201","2018-01-11 05:00","2018","01","11","05:00","-35.0","","-38.4","","72","","","","26","","3","","19.3","","100.30","","","","-39","","Ice Crystals"
"-111.96","60.02","FORT SMITH A","2202201","2018-01-11 06:00","2018","01","11","06:00","-35.1","","-38.5","","72","","","","28","","3","","19.3","","100.29","","","","-39","","Snow"
"-111.96","60.02","FORT SMITH A","2202201","2018-01-11 07:00","2018","01","11","07:00","-34.8","","-38.3","","71","","","","26","","5","","24.1","","100.28","","","","-41","","Snow"
"-111.96","60.02","FORT SMITH A","2202201","2018-01-11 08:00","2018","01","11","08:00","-36.2","","-39.8","","70","","","","23","","4","","19.3","","100.29","","","","-41","","Snow,Ice Crystals"
"-111.96","60.02","FORT SMITH A","2202201","2018-01-11 09:00","2018","01","11","09:00","-37.0","","-40.6","","70","","","","25","","7","","24.1","","100.30","","","","-45","","Snow,Ice Crystals"
"-111.96","60.02","FORT SMITH A","2202201","2018-01-11 10:00","2018","01","11","10:00","-34.6","","-38.1","","71","","","","25","","3","","24.1","","100.35","","","","-38","","Ice Crystals"
"-111.96","60.02","FORT SMITH A","2202201","2018-01-11 11:00","2018","01","11","11:00","-34.7","","-38.2","","72","","","","29","","9","","24.1","","100.37","","","","-44","","Ice Crystals"
"-111.96","60.02","FORT SMITH A","2202201","2018-01-11 12:00","2018","01","11","12:00","-33.1","","-36.6","","72","","","","30","","11","","24.1","","100.36","","","","-43","","Ice Crystals"
"-111.96","60.02","FORT SMITH A","2202201","2018-01-11 13:00","2018","01","11","13:00","-32.9","","-36.3","","72","","","","29","","8","","24.1","","100.38","","","","-41","","Ice Crystals"
"-111.96","60.02","FORT SMITH A","2202201","2018-01-11 14:00","2018","01","11","14:00","-32.2","","-35.6","","73","","","","29","","8","","24.1","","100.38","","","","-41","","Ice Crystals"
"-111.96","60.02","FORT SMITH A","2202201","2018-01-11 15:00","2018","01","11","15:00","-32.0","","-35.4","","73","","","","28","","6","","24.1","","100.43","","","","-39","","Ice Crystals"
"-111.96","60.02","FORT SMITH A","2202201","2018-01-11 16:00","2018","01","11","16:00","-32.9","","-36.3","","72","","","","26","","7","","24.1","","100.46","","","","-41","","Ice Crystals"
"-111.96","60.02","FORT SMITH A","2202201","2018-01-11 17:00","2018","01","11","17:00","-35.1","","-38.6","","71","","","","25","","7","","24.1","","100.49","","","","-43","","Clear"
"-111.96","60.02","FORT SMITH A","2202201","2018-01-11 18:00","2018","01","11","18:00","-32.9","","-36.2","","73","","","","29","","5","","24.1","","100.51","","","","-39","","NA"
"-111.96","60.02","FORT SMITH A","2202201","2018-01-11 19:00","2018","01","11","19:00","-34.2","","-37.7","","72","","","","28","","3","","24.1","","100.52","","","","-38","","NA"
"-111.96","60.02","FORT SMITH A","2202201","2018-01-11 20:00","2018","01","11","20:00","-35.0","","-38.5","","71","","","","27","","4","","24.1","","100.53","","","","-40","","Clear"
"-111.96","60.02","FORT SMITH A","2202201","2018-01-11 21:00","2018","01","11","21:00","-35.0","","-38.5","","71","","","","26","","7","","24.1","","100.54","","","","-43","","NA"
"-111.96","60.02","FORT SMITH A","2202201","2018-01-11 22:00","2018","01","11","22:00","-35.7","","-39.3","","71","","","","22","","4","","24.1","","100.59","","","","-41","","NA"
"-111.96","60.02","FORT SMITH A","2202201","2018-01-11 23:00","2018","01","11","23:00","-37.5","","-41.2","","70","","","","9","","4","","24.1","","100.60","","","","-43","","Clear"
"-111.96","60.02","FORT SMITH A","2202201","2018-01-12 00:00","2018","01","12","00:00","-37.0","","-40.6","","69","","","","21","","4","","24.1","","100.62","","","","-42","","NA"
"-111.96","60.02","FORT SMITH A","2202201","2018-01-12 01:00","2018","01","12","01:00","-37.8","","-41.6","","69","","","","8","","4","","24.1","","100.67","","","","-43","","NA"
"-111.96","60.02","FORT SMITH A","2202201","2018-01-12 02:00","2018","01","12","02:00","-38.1","","-41.9","","69","","","","15","","6","","24.1","","100.72","","","","-46","","Clear"
"-111.96","60.02","FORT SMITH A","2202201","2018-01-12 03:00","2018","01","12","03:00","-38.5","","-42.2","","69","","","","17","","3","","24.1","","100.77","","","","-43","","NA"
"-111.96","60.02","FORT SMITH A","2202201","2018-01-12 04:00","2018","01","12","04:00","-37.5","","-41.2","","69","","","","21","","4","","24.1","","100.78","","","","-43","","NA"
"-111.96","60.02","FORT SMITH A","2202201","2018-01-12 05:00","2018","01","12","05:00","-38.7","","-42.5","","68","","","","36","","1","","24.1","","100.81","","","","-40","","Clear"
"-111.96","60.02","FORT SMITH A","2202201","2018-01-12 06:00","2018","01","12","06:00","-38.5","","-42.3","","69","","","","16","","7","","24.1","","100.80","","","","-47","","NA"
"-111.96","60.02","FORT SMITH A","2202201","2018-01-12 07:00","2018","01","12","07:00","-39.0","","-42.8","","68","","","","36","","3","","24.1","","100.78","","","","-43","","NA"
"-111.96","60.02","FORT SMITH A","2202201","2018-01-12 08:00","2018","01","12","08:00","-38.6","","-42.5","","68","","","","15","","7","","24.1","","100.78","","","","-47","","Clear"
"-111.96","60.02","FORT SMITH A","2202201","2018-01-12 09:00","2018","01","12","09:00","-38.5","","-42.2","","69","","","","14","","7","","24.1","","100.76","","","","-47","","NA"
"-111.96","60.02","FORT SMITH A","2202201","2018-01-12 10:00","2018","01","12","10:00","-37.5","","-41.2","","69","","","","15","","8","","24.1","","100.75","","","","-47","","Ice Crystals"
"-111.96","60.02","FORT SMITH A","2202201","2018-01-12 11:00","2018","01","12","11:00","-35.0","","-38.6","","70","","","","16","","12","","24.1","","100.74","","","","-46","","Ice Crystals"
"-111.96","60.02","FORT SMITH A","2202201","2018-01-12 12:00","2018","01","12","12:00","-32.8","","-36.3","","72","","","","14","","9","","24.1","","100.68","","","","-42","","Ice Crystals"
"-111.96","60.02","FORT SMITH A","2202201","2018-01-12 13:00","2018","01","12","13:00","-31.1","","-34.5","","73","","","","13","","8","","24.1","","100.61","","","","-39","","Ice Crystals"
"-111.96","60.02","FORT SMITH A","2202201","2018-01-12 14:00","2018","01","12","14:00","-30.6","","-34.0","","73","","","","13","","9","","24.1","","100.56","","","","-39","","Ice Crystals"
"-111.96","60.02","FORT SMITH A","2202201","2018-01-12 15:00","2018","01","12","15:00","-30.1","","-33.4","","73","","","","13","","9","","24.1","","100.50","","","","-39","","Ice Crystals"
"-111.96","60.02","FORT SMITH A","2202201","2018-01-12 16:00","2018","01","12","16:00","-31.1","","-34.5","","73","","","","13","","10","","24.1","","100.40","","","","-40","","Ice Crystals"
"-111.96","60.02","FORT SMITH A","2202201","2018-01-12 17:00","2018","01","12","17:00","-31.4","","-34.8","","73","","","","13","","10","","24.1","","100.35","","","","-41","","Ice Crystals"
"-111.96","60.02","FORT SMITH A","2202201","2018-01-12 18:00","2018","01","12","18:00","-31.8","","-35.2","","73","","","","15","","14","","24.1","","100.28","","","","-43","","Ice Crystals"
"-111.96","60.02","FORT SMITH A","2202201","2018-01-12 19:00","2018","01","12","19:00","-31.2","","-34.6","","73","","","","15","","17","","24.1","","100.16","","","","-44","","Ice Crystals"
"-111.96","60.02","FORT SMITH A","2202201","2018-01-12 20:00","2018","01","12","20:00","-31.3","","-34.7","","73","","","","15","","17","","24.1","","100.08","","","","-44","","Ice Crystals"
"-111.96","60.02","FORT SMITH A","2202201","2018-01-12 21:00","2018","01","12","21:00","-30.9","","-34.2","","73","","","","14","","12","","24.1","","99.97","","","","-41","","Ice Crystals"
"-111.96","60.02","FORT SMITH A","2202201","2018-01-12 22:00","2018","01","12","22:00","-31.4","","-34.8","","73","","","","13","","8","","24.1","","99.86","","","","-40","","Ice Crystals"
"-111.96","60.02","FORT SMITH A","2202201","2018-01-12 23:00","2018","01","12","23:00","-31.8","","-35.1","","73","","","","13","","8","","24.1","","99.77","","","","-40","","Clear"
"-111.96","60.02","FORT SMITH A","2202201","2018-01-13 00:00","2018","01","13","00:00","-31.7","","-35.1","","73","","","","14","","6","","24.1","","99.74","","","","-38","","NA"
"-111.96","60.02","FORT SMITH A","2202201","2018-01-13 01:00","2018","01","13","01:00","-31.8","","-35.2","","73","","","","14","","9","","24.1","","99.65","","","","-41","","NA"
"-111.96","60.02","FORT SMITH A","2202201","2018-01-13 02:00","2018","01","13","02:00","-31.5","","-34.9","","73","","","","14","","11","","24.1","","99.58","","","","-41","","Clear"
"-111.96","60.02","FORT SMITH A","2202201","2018-01-13 03:00","2018","01","13","03:00","-31.7","","-35.1","","73","","","","14","","8","","24.1","","99.52","","","","-40","","NA"
"-111.96","60.02","FORT SMITH A","2202201","2018-01-13 04:00","2018","01","13","04:00","-31.7","","-35.0","","73","","","","14","","7","","24.1","","99.50","","","","-39","","NA"
"-111.96","60.02","FORT SMITH A","2202201","2018-01-13 05:00","2018","01","13","05:00","-32.4","","-35.9","","72","","","","15","","10","","24.1","","99.46","","","","-42","","Clear"
"-111.96","60.02","FORT SMITH A","2202201","2018-01-13 06:00","2018","01","13","06:00","-33.6","","-37.2","","71","","","","20","","4","","24.1","","99.45","","","","-38","","NA"
"-111.96","60.02","FORT SMITH A","2202201","2018-01-13 07:00","2018","01","13","07:00","-34.1","","-37.6","","71","","","","14","","7","","24.1","","99.43","","","","-42","","NA"
"-111.96","60.02","FORT SMITH A","2202201","2018-01-13 08:00","2018","01","13","08:00","-35.3","","-39.0","","70","","","","16","","4","","24.1","","99.41","","","","-40","","Mainly Clear"
"-111.96","60.02","FORT SMITH A","2202201","2018-01-13 09:00","2018","01","13","09:00","-35.6","","-39.2","","70","","","","21","","4","","24.1","","99.45","","","","-41","","NA"
"-111.96","60.02","FORT SMITH A","2202201","2018-01-13 10:00","2018","01","13","10:00","-35.2","","-38.8","","71","","","","36","","2","","24.1","","99.53","","","","-38","","NA"
"-111.96","60.02","FORT SMITH A","2202201","2018-01-13 11:00","2018","01","13","11:00","-35.7","","-39.3","","70","","","","21","","4","","24.1","","99.56","","","","-41","","Clear"
"-111.96","60.02","FORT SMITH A","2202201","2018-01-13 12:00","2018","01","13","12:00","-34.3","","-37.9","","71","","","","29","","9","","24.1","","99.61","","","","-44","","NA"
"-111.96","60.02","FORT SMITH A","2202201","2018-01-13 13:00","2018","01","13","13:00","-32.2","","-35.6","","72","","","","29","","9","","24.1","","99.74","","","","-41","","NA"
"-111.96","60.02","FORT SMITH A","2202201","2018-01-13 14:00","2018","01","13","14:00","-30.0","","-33.3","","74","","","","32","","7","","24.1","","99.80","","","","-37","","Clear"
"-111.96","60.02","FORT SMITH A","2202201","2018-01-13 15:00","2018","01","13","15:00","-30.7","","-34.0","","73","","","","30","","11","","24.1","","99.96","","","","-41","","NA"
"-111.96","60.02","FORT SMITH A","2202201","2018-01-13 16:00","2018","01","13","16:00","-30.9","","-34.2","","73","","","","29","","6","","24.1","","100.09","","","","-38","","NA"
"-111.96","60.02","FORT SMITH A","2202201","2018-01-13 17:00","2018","01","13","17:00","-30.4","","-33.6","","74","","","","33","","14","","24.1","","100.19","","","","-42","","Clear"
"-111.96","60.02","FORT SMITH A","2202201","2018-01-13 18:00","2018","01","13","18:00","-31.2","","-34.6","","73","","","","32","","13","","24.1","","100.32","","","","-42","","NA"
"-111.96","60.02","FORT SMITH A","2202201","2018-01-13 19:00","2018","01","13","19:00","-33.0","","-36.5","","72","","","","30","","13","","24.1","","100.46","","","","-44","","NA"
"-111.96","60.02","FORT SMITH A","2202201","2018-01-13 20:00","2018","01","13","20:00","-33.3","","-36.8","","72","","","","30","","18","","24.1","","100.58","","","","-47","","Clear"
"-111.96","60.02","FORT SMITH A","2202201","2018-01-13 21:00","2018","01","13","21:00","-33.8","","-37.3","","71","","","","31","","14","","24.1","","100.67","","","","-46","","NA"
"-111.96","60.02","FORT SMITH A","2202201","2018-01-13 22:00","2018","01","13","22:00","-34.8","","-38.4","","71","","","","29","","16","","24.1","","100.76","","","","-48","","NA"
"-111.96","60.02","FORT SMITH A","2202201","2018-01-13 23:00","2018","01","13","23:00","-35.3","","-38.9","","71","","","","29","","10","","24.1","","100.85","","","","-45","","Clear"
"-111.96","60.02","FORT SMITH A","2202201","2018-01-14 00:00","2018","01","14","00:00","-34.9","","-38.5","","71","","","","28","","13","","24.1","","100.98","","","","-47","","NA"
"-111.96","60.02","FORT SMITH A","2202201","2018-01-14 01:00","2018","01","14","01:00","-35.4","","-39.1","","70","","","","29","","9","","24.1","","101.01","","","","-45","","NA"
"-111.96","60.02","FORT SMITH A","2202201","2018-01-14 02:00","2018","01","14","02:00"
"-111.96","60.02","FORT SMITH A","2202201","2018-01-14 03:00","2018","01","14","03:00","-34.8","","-38.3","","71","","","","29","","5","","24.1","","101.16","","","","-41","","NA"
"-111.96","60.02","FORT SMITH A","2202201","2018-01-14 04:00","2018","01","14","04:00","-34.6","","-38.2","","71","","","","31","","7","","24.1","","101.25","","","","-43","","NA"
"-111.96","60.02","FORT SMITH A","2202201","2018-01-14 05:00","2018","01","14","05:00","-34.5","","-38.1","","71","","","","34","","7","","24.1","","101.30","","","","-43","","Clear"
"-111.96","60.02","FORT SMITH A","2202201","2018-01-14 06:00","2018","01","14","06:00","-35.5","","-39.1","","70","","","","29","","10","","24.1","","101.42","","","","-46","","NA"
"-111.96","60.02","FORT SMITH A","2202201","2018-01-14 07:00","2018","01","14","07:00","-35.0","","-38.6","","71","","","","31","","5","","24.1","","101.46","","","","-41","","NA"
"-111.96","60.02","FORT SMITH A","2202201","2018-01-14 08:00","2018","01","14","08:00","-35.6","","-39.3","","70","","","","30","","8","","24.1","","101.49","","","","-45","","Clear"
"-111.96","60.02","FORT SMITH A","2202201","2018-01-14 09:00","2018","01","14","09:00","-34.4","","-38.0","","71","","","","26","","3","","24.1","","101.56","","","","-38","","NA"
"-111.96","60.02","FORT SMITH A","2202201","2018-01-14 10:00","2018","01","14","10:00","-36.3","","-40.0","","70","","","","36","","2","","24.1","","101.64","","","","-39","","NA"
"-111.96","60.02","FORT SMITH A","2202201","2018-01-14 11:00","2018","01","14","11:00","-35.0","","-38.6","","71","","","","21","","5","","24.1","","101.66","","","","-41","","Mostly Cloudy"
"-111.96","60.02","FORT SMITH A","2202201","2018-01-14 12:00","2018","01","14","12:00","-33.7","","-37.3","","71","","","","24","","8","","24.1","","101.75","","","","-42","","NA"
"-111.96","60.02","FORT SMITH A","2202201","2018-01-14 13:00","2018","01","14","13:00","-31.6","","-35.0","","72","","","","11","","3","","24.1","","101.77","","","","-35","","NA"
"-111.96","60.02","FORT SMITH A","2202201","2018-01-14 14:00","2018","01","14","14:00","-30.9","","-34.2","","73","","","","14","","9","","24.1","","101.73","","","","-40","","Mostly Cloudy"
"-111.96","60.02","FORT SMITH A","2202201","2018-01-14 15:00","2018","01","14","15:00","-30.9","","-34.3","","73","","","","13","","6","","24.1","","101.72","","","","-38","","NA"
"-111.96","60.02","FORT SMITH A","2202201","2018-01-14 16:00","2018","01","14","16:00","-30.8","","-34.1","","73","","","","14","","9","","24.1","","101.72","","","","-40","","NA"
"-111.96","60.02","FORT SMITH A","2202201","2018-01-14 17:00","2018","01","14","17:00","-31.3","","-34.7","","73","","","","13","","7","","24.1","","101.75","","","","-39","","Mainly Clear"
"-111.96","60.02","FORT SMITH A","2202201","2018-01-14 18:00","2018","01","14","18:00","-31.1","","-34.4","","73","","","","14","","9","","24.1","","101.70","","","","-40","","NA"
"-111.96","60.02","FORT SMITH A","2202201","2018-01-14 19:00","2018","01","14","19:00","-30.8","","-34.2","","73","","","","14","","12","","24.1","","101.56","","","","-41","","NA"
"-111.96","60.02","FORT SMITH A","2202201","2018-01-14 20:00","2018","01","14","20:00","-30.4","","-33.7","","74","","","","14","","14","","24.1","","101.53","","","","-42","","Mainly Clear"
"-111.96","60.02","FORT SMITH A","2202201","2018-01-14 21:00","2018","01","14","21:00","-29.4","","-32.6","","74","","","","15","","17","","24.1","","101.45","","","","-41","","NA"
"-111.96","60.02","FORT SMITH A","2202201","2018-01-14 22:00","2018","01","14","22:00","-28.4","","-31.6","","75","","","","15","","18","","24.1","","101.38","","","","-40","","Blowing Snow"
"-111.96","60.02","FORT SMITH A","2202201","2018-01-14 23:00","2018","01","14","23:00","-27.6","","-30.8","","75","","","","15","","18","","24.1","","101.31","","","","-39","","Blowing Snow"
"-111.96","60.02","FORT SMITH A","2202201","2018-01-15 00:00","2018","01","15","00:00","-27.1","","-30.1","","76","","","","14","","18","","24.1","","101.20","","","","-39","","Blowing Snow"
"-111.96","60.02","FORT SMITH A","2202201","2018-01-15 01:00","2018","01","15","01:00","-26.1","","-29.1","","76","","","","15","","19","","24.1","","101.09","","","","-38","","Blowing Snow"
"-111.96","60.02","FORT SMITH A","2202201","2018-01-15 02:00","2018","01","15","02:00","-25.5","","-28.4","","77","","","","15","","23","","24.1","","101.00","","","","-38","","Blowing Snow"
"-111.96","60.02","FORT SMITH A","2202201","2018-01-15 03:00","2018","01","15","03:00","-24.8","","-27.7","","77","","","","15","","24","","24.1","","100.91","","","","-38","","Blowing Snow"
"-111.96","60.02","FORT SMITH A","2202201","2018-01-15 04:00","2018","01","15","04:00","-23.9","","-26.8","","78","","","","15","","27","","24.1","","100.80","","","","-37","","Blowing Snow"
"-111.96","60.02","FORT SMITH A","2202201","2018-01-15 05:00","2018","01","15","05:00","-22.6","","-25.4","","79","","","","15","","26","","12.9","","100.66","","","","-35","","Blowing Snow"
"-111.96","60.02","FORT SMITH A","2202201","2018-01-15 06:00","2018","01","15","06:00","-21.5","","-24.1","","80","","","","16","","26","","9.7","","100.44","","","","-34","","Blowing Snow"
"-111.96","60.02","FORT SMITH A","2202201","2018-01-15 07:00","2018","01","15","07:00","-20.8","","-23.4","","80","","","","16","","23","","19.3","","100.32","","","","-32","","Blowing Snow"
"-111.96","60.02","FORT SMITH A","2202201","2018-01-15 08:00","2018","01","15","08:00","-19.6","","-22.2","","80","","","","16","","22","","24.1","","100.16","","","","-30","","Blowing Snow"
"-111.96","60.02","FORT SMITH A","2202201","2018-01-15 09:00","2018","01","15","09:00","-18.7","","-21.7","","78","","","","16","","21","","24.1","","100.08","","","","-29","","Blowing Snow"
"-111.96","60.02","FORT SMITH A","2202201","2018-01-15 10:00","2018","01","15","10:00","-17.9","","-21.2","","75","","","","16","","24","","24.1","","99.98","","","","-29","","Blowing Snow"
"-111.96","60.02","FORT SMITH A","2202201","2018-01-15 11:00","2018","01","15","11:00","-15.7","","-19.9","","71","","","","17","","23","","24.1","","99.87","","","","-26","","Blowing Snow"
"-111.96","60.02","FORT SMITH A","2202201","2018-01-15 12:00","2018","01","15","12:00","-14.5","","-18.9","","70","","","","17","","25","","24.1","","99.74","","","","-25","","Blowing Snow"
"-111.96","60.02","FORT SMITH A","2202201","2018-01-15 13:00","2018","01","15","13:00","-14.0","","-18.1","","72","","","","17","","17","","24.1","","99.61","","","","-22","","Blowing Snow"
"-111.96","60.02","FORT SMITH A","2202201","2018-01-15 14:00","2018","01","15","14:00","-12.7","","-16.7","","72","","","","16","","22","","24.1","","99.52","","","","-22","","Blowing Snow"
"-111.96","60.02","FORT SMITH A","2202201","2018-01-15 15:00","2018","01","15","15:00","-12.1","","-15.9","","74","","","","16","","17","","24.1","","99.47","","","","-20","","Blowing Snow"
"-111.96","60.02","FORT SMITH A","2202201","2018-01-15 16:00","2018","01","15","16:00","-11.9","","-15.4","","75","","","","16","","18","","24.1","","99.39","","","","-20","","Blowing Snow"
"-111.96","60.02","FORT SMITH A","2202201","2018-01-15 17:00","2018","01","15","17:00","-11.8","","-15.3","","76","","","","16","","20","","24.1","","99.29","","","","-20","","Blowing Snow"
"-111.96","60.02","FORT SMITH A","2202201","2018-01-15 18:00","2018","01","15","18:00","-12.4","","-15.8","","76","","","","15","","18","","24.1","","99.26","","","","-20","","Blowing Snow"
"-111.96","60.02","FORT SMITH A","2202201","2018-01-15 19:00","2018","01","15","19:00","-12.9","","-16.0","","78","","","","15","","19","","24.1","","99.15","","","","-21","","Blowing Snow"
"-111.96","60.02","FORT SMITH A","2202201","2018-01-15 20:00","2018","01","15","20:00","-12.4","","-15.4","","79","","","","16","","18","","24.1","","99.02","","","","-20","","Blowing Snow"
"-111.96","60.02","FORT SMITH A","2202201","2018-01-15 21:00","2018","01","15","21:00","-12.1","","-14.9","","80","","","","15","","11","","24.1","","98.99","","","","-18","","Blowing Snow"
"-111.96","60.02","FORT SMITH A","2202201","2018-01-15 22:00","2018","01","15","22:00","-12.3","","-14.9","","82","","","","14","","13","","24.1","","98.95","","","","-19","","Blowing Snow"
"-111.96","60.02","FORT SMITH A","2202201","2018-01-15 23:00","2018","01","15","23:00","-12.5","","-14.9","","82","","","","15","","14","","24.1","","98.88","","","","-20","","Blowing Snow"
"-111.96","60.02","FORT SMITH A","2202201","2018-01-16 00:00","2018","01","16","00:00","-12.3","","-14.4","","84","","","","13","","8","","24.1","","98.86","","","","-17","","NA"
"-111.96","60.02","FORT SMITH A","2202201","2018-01-16 01:00","2018","01","16","01:00","-12.5","","-14.4","","85","","","","14","","12","","24.1","","98.80","","","","-19","","NA"
"-111.96","60.02","FORT SMITH A","2202201","2018-01-16 02:00","2018","01","16","02:00","-12.3","","-14.2","","86","","","","15","","13","","24.1","","98.77","","","","-19","","Clear"
"-111.96","60.02","FORT SMITH A","2202201","2018-01-16 03:00","2018","01","16","03:00","-12.2","","-14.0","","87","","","","15","","13","","24.1","","98.74","","","","-19","","NA"
"-111.96","60.02","FORT SMITH A","2202201","2018-01-16 04:00","2018","01","16","04:00","-12.1","","-13.9","","87","","","","15","","10","","24.1","","98.71","","","","-18","","NA"
"-111.96","60.02","FORT SMITH A","2202201","2018-01-16 05:00","2018","01","16","05:00","-12.1","","-13.8","","87","","","","12","","6","","24.1","","98.70","","","","-16","","Clear"
"-111.96","60.02","FORT SMITH A","2202201","2018-01-16 06:00","2018","01","16","06:00","-12.2","","-14.0","","87","","","","14","","8","","24.1","","98.65","","","","-17","","NA"
"-111.96","60.02","FORT SMITH A","2202201","2018-01-16 07:00","2018","01","16","07:00","-13.0","","-14.7","","87","","","","14","","12","","24.1","","98.63","","","","-20","","NA"
"-111.96","60.02","FORT SMITH A","2202201","2018-01-16 08:00","2018","01","16","08:00","-13.3","","-15.1","","86","","","","15","","12","","24.1","","98.56","","","","-20","","Clear"
"-111.96","60.02","FORT SMITH A","2202201","2018-01-16 09:00","2018","01","16","09:00","-13.2","","-15.1","","86","","","","16","","10","","24.1","","98.49","","","","-19","","NA"
"-111.96","60.02","FORT SMITH A","2202201","2018-01-16 10:00","2018","01","16","10:00","-13.4","","-15.3","","86","","","","18","","8","","24.1","","98.55","","","","-18","","NA"
"-111.96","60.02","FORT SMITH A","2202201","2018-01-16 11:00","2018","01","16","11:00","-12.5","","-14.8","","84","","","","16","","9","","24.1","","98.49","","","","-18","","Clear"
"-111.96","60.02","FORT SMITH A","2202201","2018-01-16 12:00","2018","01","16","12:00","-10.8","","-13.5","","81","","","","14","","8","","24.1","","98.43","","","","-15","","NA"
"-111.96","60.02","FORT SMITH A","2202201","2018-01-16 13:00","2018","01","16","13:00","-10.0","","-13.0","","79","","","","14","","6","","24.1","","98.39","","","","-14","","NA"
"-111.96","60.02","FORT SMITH A","2202201","2018-01-16 14:00","2018","01","16","14:00","-9.5","","-12.4","","80","","","","16","","10","","24.1","","98.36","","","","-15","","Clear"
"-111.96","60.02","FORT SMITH A","2202201","2018-01-16 15:00","2018","01","16","15:00","-9.3","","-12.1","","81","","","","15","","5","","24.1","","98.39","","","","-12","","NA"
"-111.96","60.02","FORT SMITH A","2202201","2018-01-16 16:00","2018","01","16","16:00","-11.1","","-13.4","","83","","","","16","","7","","24.1","","98.36","","","","-15","","NA"
"-111.96","60.02","FORT SMITH A","2202201","2018-01-16 17:00","2018","01","16","17:00","-13.1","","-14.6","","88","","","","13","","7","","24.1","","98.31","","","","-18","","Clear"
"-111.96","60.02","FORT SMITH A","2202201","2018-01-16 18:00","2018","01","16","18:00","-12.7","","-14.6","","86","","","","13","","5","","24.1","","98.28","","","","-16","","NA"
"-111.96","60.02","FORT SMITH A","2202201","2018-01-16 19:00","2018","01","16","19:00","-13.9","","-15.3","","89","","","","12","","5","","24.1","","98.28","","","","-17","","NA"
"-111.96","60.02","FORT SMITH A","2202201","2018-01-16 20:00","2018","01","16","20:00","-14.3","","-16.0","","88","","","","13","","8","","24.1","","98.24","","","","-20","","Clear"
"-111.96","60.02","FORT SMITH A","2202201","2018-01-16 21:00","2018","01","16","21:00","-14.9","","-16.5","","88","","","","6","","3","","24.1","","98.22","","","","-17","","NA"
"-111.96","60.02","FORT SMITH A","2202201","2018-01-16 22:00","2018","01","16","22:00","-14.0","","-15.6","","88","","","","14","","8","","24.1","","98.20","","","","-19","","NA"
"-111.96","60.02","FORT SMITH A","2202201","2018-01-16 23:00","2018","01","16","23:00","-13.2","","-15.1","","86","","","","13","","7","","24.1","","98.17","","","","-18","","Clear"
"-111.96","60.02","FORT SMITH A","2202201","2018-01-17 00:00","2018","01","17","00:00","-13.5","","-15.3","","86","","","","14","","10","","24.1","","98.14","","","","-19","","NA"
"-111.96","60.02","FORT SMITH A","2202201","2018-01-17 01:00","2018","01","17","01:00","-13.3","","-15.2","","86","","","","12","","7","","24.1","","98.15","","","","-18","","NA"
"-111.96","60.02","FORT SMITH A","2202201","2018-01-17 02:00","2018","01","17","02:00","-14.2","","-16.2","","85","","","","13","","7","","24.1","","98.16","","","","-19","","Clear"
"-111.96","60.02","FORT SMITH A","2202201","2018-01-17 03:00","2018","01","17","03:00","-14.0","","-16.3","","83","","","","11","","7","","24.1","","98.15","","","","-19","","NA"
"-111.96","60.02","FORT SMITH A","2202201","2018-01-17 04:00","2018","01","17","04:00","-14.8","","-17.0","","83","","","","15","","10","","24.1","","98.17","","","","-21","","NA"
"-111.96","60.02","FORT SMITH A","2202201","2018-01-17 05:00","2018","01","17","05:00","-14.7","","-17.0","","83","","","","13","","7","","24.1","","98.09","","","","-19","","Clear"
"-111.96","60.02","FORT SMITH A","2202201","2018-01-17 06:00","2018","01","17","06:00","-14.5","","-16.7","","83","","","","13","","8","","24.1","","98.06","","","","-20","","NA"
"-111.96","60.02","FORT SMITH A","2202201","2018-01-17 07:00","2018","01","17","07:00","-14.4","","-16.7","","83","","","","14","","9","","24.1","","98.07","","","","-20","","NA"
"-111.96","60.02","FORT SMITH A","2202201","2018-01-17 08:00","2018","01","17","08:00","-14.1","","-16.4","","83","","","","14","","8","","24.1","","98.06","","","","-19","","Mostly Cloudy"
"-111.96","60.02","FORT SMITH A","2202201","2018-01-17 09:00","2018","01","17","09:00","-13.3","","-15.6","","83","","","","12","","9","","24.1","","98.02","","","","-19","","NA"
"-111.96","60.02","FORT SMITH A","2202201","2018-01-17 10:00","2018","01","17","10:00","-12.7","","-15.1","","83","","","","15","","9","","24.1","","98.06","","","","-18","","NA"
"-111.96","60.02","FORT SMITH A","2202201","2018-01-17 11:00","2018","01","17","11:00","-12.3","","-14.7","","82","","","","15","","6","","24.1","","98.04","","","","-16","","Mostly Cloudy"
"-111.96","60.02","FORT SMITH A","2202201","2018-01-17 12:00","2018","01","17","12:00","-12.0","","-14.2","","84","","","","16","","7","","24.1","","98.00","","","","-16","","NA"
"-111.96","60.02","FORT SMITH A","2202201","2018-01-17 13:00","2018","01","17","13:00","-11.0","","-13.4","","83","","","","13","","8","","24.1","","97.93","","","","-16","","NA"
"-111.96","60.02","FORT SMITH A","2202201","2018-01-17 14:00","2018","01","17","14:00","-10.6","","-12.9","","83","","","","14","","10","","24.1","","97.91","","","","-16","","Mostly Cloudy"
"-111.96","60.02","FORT SMITH A","2202201","2018-01-17 15:00","2018","01","17","15:00","-10.5","","-12.4","","86","","","","13","","10","","24.1","","97.92","","","","-16","","NA"
"-111.96","60.02","FORT SMITH A","2202201","2018-01-17 16:00","2018","01","17","16:00","-10.3","","-12.2","","86","","","","15","","12","","24.1","","97.91","","","","-16","","NA"
"-111.96","60.02","FORT SMITH A","2202201","2018-01-17 17:00","2018","01","17","17:00","-10.6","","-12.6","","86","","","","15","","14","","24.1","","97.87","","","","-17","","Mostly Cloudy"
"-111.96","60.02","FORT SMITH A","2202201","2018-01-17 18:00","2018","01","17","18:00","-10.5","","-12.5","","85","","","","14","","10","","24.1","","97.87","","","","-16","","NA"
"-111.96","60.02","FORT SMITH A","2202201","2018-01-17 19:00","2018","01","17","19:00","-10.1","","-11.9","","86","","","","15","","11","","16.1","","97.80","","","","-16","","Freezing Drizzle,Snow,Ice Pellets"
"-111.96","60.02","FORT SMITH A","2202201","2018-01-17 20:00","2018","01","17","20:00","-10.0","","-11.7","","87","","","","14","","11","","19.3","","97.71","","","","-16","","Snow"
"-111.96","60.02","FORT SMITH A","2202201","2018-01-17 21:00","2018","01","17","21:00","-10.1","","-11.8","","87","","","","15","","12","","24.1","","97.66","","","","-16","","Snow"
"-111.96","60.02","FORT SMITH A","2202201","2018-01-17 22:00","2018","01","17","22:00","-10.7","","-11.8","","92","","","","15","","19","","24.1","","97.61","","","","-19","","NA"
"-111.96","60.02","FORT SMITH A","2202201","2018-01-17 23:00","2018","01","17","23:00","-10.7","","-11.8","","92","","","","13","","8","","1.2","","97.56","","","","-15","","Fog"
"-111.96","60.02","FORT SMITH A","2202201","2018-01-18 00:00","2018","01","18","00:00","-10.9","","-12.1","","91","","","","12","","9","","0.8","","97.52","","","","-16","","Freezing Fog"
"-111.96","60.02","FORT SMITH A","2202201","2018-01-18 01:00","2018","01","18","01:00","-10.8","","-12.1","","90","","","","15","","10","","4.0","","97.50","","","","-16","","Fog"
"-111.96","60.02","FORT SMITH A","2202201","2018-01-18 02:00","2018","01","18","02:00","-10.6","","-11.9","","90","","","","13","","8","","4.0","","97.43","","","","-15","","Fog"
"-111.96","60.02","FORT SMITH A","2202201","2018-01-18 03:00","2018","01","18","03:00","-10.4","","-11.7","","90","","","","15","","13","","24.1","","97.43","","","","-17","","NA"
"-111.96","60.02","FORT SMITH A","2202201","2018-01-18 04:00","2018","01","18","04:00","-10.0","","-11.3","","90","","","","14","","9","","24.1","","97.36","","","","-15","","NA"
"-111.96","60.02","FORT SMITH A","2202201","2018-01-18 05:00","2018","01","18","05:00","-9.9","","-11.2","","90","","","","12","","9","","24.1","","97.26","","","","-15","","Cloudy"
"-111.96","60.02","FORT SMITH A","2202201","2018-01-18 06:00","2018","01","18","06:00","-9.5","","-10.8","","91","","","","8","","6","","24.1","","97.14","","","","-13","","NA"
"-111.96","60.02","FORT SMITH A","2202201","2018-01-18 07:00","2018","01","18","07:00","-9.3","","-10.5","","91","","","","8","","4","","3.2","","97.11","","","","-12","","Fog"
"-111.96","60.02","FORT SMITH A","2202201","2018-01-18 08:00","2018","01","18","08:00","-9.1","","-10.4","","91","","","","10","","4","","3.2","","97.03","","","","-11","","Ice Crystals,Fog"
"-111.96","60.02","FORT SMITH A","2202201","2018-01-18 09:00","2018","01","18","09:00","-9.0","","-10.2","","91","","","","12","","4","","4.8","","97.03","","","","-11","","Ice Crystals,Fog"
"-111.96","60.02","FORT SMITH A","2202201","2018-01-18 10:00","2018","01","18","10:00","-8.9","","-10.1","","91","","","","10","","7","","9.7","","96.99","","","","-13","","Ice Crystals,Fog"
"-111.96","60.02","FORT SMITH A","2202201","2018-01-18 11:00","2018","01","18","11:00","-8.9","","-10.2","","91","","","","10","","5","","19.3","","96.99","","","","-12","","Cloudy"
"-111.96","60.02","FORT SMITH A","2202201","2018-01-18 12:00","2018","01","18","12:00","-8.6","","-9.8","","91","","","","9","","5","","24.1","","96.94","","","","-11","","NA"
"-111.96","60.02","FORT SMITH A","2202201","2018-01-18 13:00","2018","01","18","13:00","-8.0","","-9.2","","92","","","","10","","3","","24.1","","96.85","","","","-10","","NA"
"-111.96","60.02","FORT SMITH A","2202201","2018-01-18 14:00","2018","01","18","14:00","-7.7","","-8.8","","92","","","","8","","4","","24.1","","96.81","","","","-10","","Cloudy"
"-111.96","60.02","FORT SMITH A","2202201","2018-01-18 15:00","2018","01","18","15:00","-7.3","","-8.4","","92","","","","36","","2","","24.1","","96.76","","","","-8","","NA"
"-111.96","60.02","FORT SMITH A","2202201","2018-01-18 16:00","2018","01","18","16:00","-7.2","","-8.2","","92","","","","36","","1","","19.3","","96.75","","","","-8","","NA"
"-111.96","60.02","FORT SMITH A","2202201","2018-01-18 17:00","2018","01","18","17:00","-6.5","","-7.5","","93","","","","7","","3","","19.3","","96.74","","","","-8","","Cloudy"
"-111.96","60.02","FORT SMITH A","2202201","2018-01-18 18:00","2018","01","18","18:00","-6.4","","-7.3","","93","","","","5","","7","","19.3","","96.72","","","","-10","","NA"
"-111.96","60.02","FORT SMITH A","2202201","2018-01-18 19:00","2018","01","18","19:00","-6.3","","-7.2","","93","","","","5","","5","","19.3","","96.74","","","","-9","","NA"
"-111.96","60.02","FORT SMITH A","2202201","2018-01-18 20:00","2018","01","18","20:00","-6.2","","-7.2","","93","","","","5","","6","","12.9","","96.73","","","","-9","","Cloudy"
"-111.96","60.02","FORT SMITH A","2202201","2018-01-18 21:00","2018","01","18","21:00","-6.2","","-7.1","","93","","","","5","","3","","12.9","","96.75","","","","-8","","NA"
"-111.96","60.02","FORT SMITH A","2202201","2018-01-18 22:00","2018","01","18","22:00","-6.3","","-7.2","","93","","","","3","","6","","12.9","","96.78","","","","-9","","NA"
"-111.96","60.02","FORT SMITH A","2202201","2018-01-18 23:00","2018","01","18","23:00","-6.2","","-7.2","","93","","","","5","","7","","16.1","","96.82","","","","-10","","Snow"
"-111.96","60.02","FORT SMITH A","2202201","2018-01-19 00:00","2018","01","19","00:00","-6.3","","-7.2","","93","","","","6","","5","","19.3","","96.85","","","","-9","","Snow"
"-111.96","60.02","FORT SMITH A","2202201","2018-01-19 01:00","2018","01","19","01:00","-6.4","","-7.4","","93","","","","8","","4","","19.3","","96.92","","","","-8","","Snow"
"-111.96","60.02","FORT SMITH A","2202201","2018-01-19 02:00","2018","01","19","02:00","-6.6","","-7.7","","92","","","","6","","3","","19.3","","96.95","","","","-8","","Snow"
"-111.96","60.02","FORT SMITH A","2202201","2018-01-19 03:00","2018","01","19","03:00","-6.9","","-8.1","","92","","","","5","","5","","16.1","","97.02","","","","-9","","Snow"
"-111.96","60.02","FORT SMITH A","2202201","2018-01-19 04:00","2018","01","19","04:00","-7.1","","-8.3","","91","","","","7","","5","","16.1","","97.08","","","","-10","","Snow"
"-111.96","60.02","FORT SMITH A","2202201","2018-01-19 05:00","2018","01","19","05:00","-7.3","","-8.5","","91","","","","5","","3","","8.1","","97.11","","","","-9","","Snow"
"-111.96","60.02","FORT SMITH A","2202201","2018-01-19 06:00","2018","01","19","06:00","-7.6","","-8.9","","91","","","","6","","5","","9.7","","97.18","","","","-10","","Snow"
"-111.96","60.02","FORT SMITH A","2202201","2018-01-19 07:00","2018","01","19","07:00","-7.7","","-9.0","","91","","","","3","","3","","9.7","","97.23","","","","-9","","Snow"
"-111.96","60.02","FORT SMITH A","2202201","2018-01-19 08:00","2018","01","19","08:00","-7.7","","-9.1","","90","","","","7","","3","","9.7","","97.28","","","","-9","","Snow"
"-111.96","60.02","FORT SMITH A","2202201","2018-01-19 09:00","2018","01","19","09:00","-8.1","","-9.6","","89","","","","8","","5","","1.6","","97.37","","","","-11","","Snow,Fog"
"-111.96","60.02","FORT SMITH A","2202201","2018-01-19 10:00","2018","01","19","10:00","-8.3","","-9.7","","90","","","","9","","4","","1.6","","97.44","","","","-10","","Snow,Fog"
"-111.96","60.02","FORT SMITH A","2202201","2018-01-19 11:00","2018","01","19","11:00","-8.2","","-9.8","","88","","","","7","","4","","1.6","","97.51","","","","-10","","Snow,Fog"
"-111.96","60.02","FORT SMITH A","2202201","2018-01-19 12:00","2018","01","19","12:00","-8.3","","-9.9","","89","","","","9","","3","","1.6","","97.56","","","","-10","","Snow,Fog"
"-111.96","60.02","FORT SMITH A","2202201","2018-01-19 13:00","2018","01","19","13:00","-8.2","","-9.8","","88","","","","7","","3","","6.4","","97.60","","","","-10","","Snow,Fog"
"-111.96","60.02","FORT SMITH A","2202201","2018-01-19 14:00","2018","01","19","14:00","-8.1","","-9.9","","87","","","","6","","4","","3.2","","97.65","","","","-10","","Snow,Fog"
"-111.96","60.02","FORT SMITH A","2202201","2018-01-19 15:00","2018","01","19","15:00","-8.0","","-9.8","","87","","","","36","","2","","3.2","","97.72","","","","-9","","Snow,Fog"
"-111.96","60.02","FORT SMITH A","2202201","2018-01-19 16:00","2018","01","19","16:00","-8.4","","-10.0","","89","","","","36","","2","","3.2","","97.78","","","","-9","","Snow,Fog"
"-111.96","60.02","FORT SMITH A","2202201","2018-01-19 17:00","2018","01","19","17:00","-8.6","","-10.0","","89","","","","5","","4","","4.8","","97.86","","","","-11","","Snow,Fog"
"-111.96","60.02","FORT SMITH A","2202201","2018-01-19 18:00","2018","01","19","18:00","-8.9","","-10.4","","89","","","","4","","3","","6.4","","97.92","","","","-11","","Snow,Fog"
"-111.96","60.02","FORT SMITH A","2202201","2018-01-19 19:00","2018","01","19","19:00","-9.2","","-10.6","","89","","","","36","","2","","24.1","","97.93","","","","-10","","Snow,Fog"
"-111.96","60.02","FORT SMITH A","2202201","2018-01-19 20:00","2018","01","19","20:00","-9.4","","-10.8","","90","","","","36","","3","","9.7","","97.98","","","","-11","","Snow,Fog"
"-111.96","60.02","FORT SMITH A","2202201","2018-01-19 21:00","2018","01","19","21:00","-9.6","","-10.8","","91","","","","36","","3","","9.7","","98.02","","","","-11","","Snow,Fog"
"-111.96","60.02","FORT SMITH A","2202201","2018-01-19 22:00","2018","01","19","22:00","-9.5","","-11.0","","89","","","","36","","2","","12.9","","98.07","","","","-11","","Snow"
"-111.96","60.02","FORT SMITH A","2202201","2018-01-19 23:00","2018","01","19","23:00","-9.6","","-10.6","","92","","","","3","","3","","12.9","","98.11","","","","-11","","Snow"
"-111.96","60.02","FORT SMITH A","2202201","2018-01-20 00:00","2018","01","20","00:00","-9.7","","-10.6","","93","","","","36","","2","","4.8","","98.17","","","","-11","","Snow,Fog"
"-111.96","60.02","FORT SMITH A","2202201","2018-01-20 01:00","2018","01","20","01:00","-9.4","","-10.4","","92","","","","30","","4","","3.2","","98.19","","","","-12","","Snow,Fog"
"-111.96","60.02","FORT SMITH A","2202201","2018-01-20 02:00","2018","01","20","02:00","-9.5","","-10.7","","91","","","","29","","10","","4.8","","98.22","","","","-15","","Snow,Fog"
"-111.96","60.02","FORT SMITH A","2202201","2018-01-20 03:00","2018","01","20","03:00","-9.7","","-10.9","","91","","","","29","","10","","4.8","","98.26","","","","-15","","Freezing Drizzle,Snow,Fog"
"-111.96","60.02","FORT SMITH A","2202201","2018-01-20 04:00","2018","01","20","04:00","-9.9","","-11.2","","90","","","","29","","15","","4.8","","98.30","","","","-17","","Freezing Drizzle,Snow,Fog"
"-111.96","60.02","FORT SMITH A","2202201","2018-01-20 05:00","2018","01","20","05:00","-10.3","","-11.6","","90","","","","30","","12","","4.8","","98.33","","","","-16","","Freezing Drizzle,Snow,Fog"
"-111.96","60.02","FORT SMITH A","2202201","2018-01-20 06:00","2018","01","20","06:00","-10.6","","-12.0","","90","","","","28","","13","","4.8","","98.36","","","","-17","","Snow,Fog"
"-111.96","60.02","FORT SMITH A","2202201","2018-01-20 07:00","2018","01","20","07:00","-11.1","","-12.5","","89","","","","29","","12","","3.2","","98.39","","","","-17","","Snow,Fog"
"-111.96","60.02","FORT SMITH A","2202201","2018-01-20 08:00","2018","01","20","08:00","-11.4","","-12.9","","89","","","","30","","8","","3.2","","98.43","","","","-16","","Snow,Fog"
"-111.96","60.02","FORT SMITH A","2202201","2018-01-20 09:00","2018","01","20","09:00","-12.0","","-13.6","","88","","","","34","","10","","4.8","","98.49","","","","-18","","Snow,Fog"
"-111.96","60.02","FORT SMITH A","2202201","2018-01-20 10:00","2018","01","20","10:00","-12.4","","-14.1","","88","","","","31","","5","","4.8","","98.54","","","","-16","","Snow,Fog"
"-111.96","60.02","FORT SMITH A","2202201","2018-01-20 11:00","2018","01","20","11:00","-12.9","","-14.6","","87","","","","32","","8","","19.3","","98.59","","","","-18","","Snow"
"-111.96","60.02","FORT SMITH A","2202201","2018-01-20 12:00","2018","01","20","12:00","-12.9","","-14.5","","87","","","","34","","10","","24.1","","98.64","","","","-19","","Snow"
"-111.96","60.02","FORT SMITH A","2202201","2018-01-20 13:00","2018","01","20","13:00","-13.0","","-14.7","","87","","","","33","","7","","24.1","","98.71","","","","-18","","Snow"
"-111.96","60.02","FORT SMITH A","2202201","2018-01-20 14:00","2018","01","20","14:00","-13.5","","-15.2","","87","","","","33","","7","","24.1","","98.75","","","","-18","","Snow"
"-111.96","60.02","FORT SMITH A","2202201","2018-01-20 15:00","2018","01","20","15:00","-14.7","","-16.6","","86","","","","34","","8","","24.1","","98.84","","","","-20","","Snow"
"-111.96","60.02","FORT SMITH A","2202201","2018-01-20 16:00","2018","01","20","16:00","-15.2","","-17.1","","86","","","","35","","9","","24.1","","98.91","","","","-21","","Snow"
"-111.96","60.02","FORT SMITH A","2202201","2018-01-20 17:00","2018","01","20","17:00","-15.7","","-17.6","","85","","","","33","","8","","24.1","","99.00","","","","-21","","Snow"
"-111.96","60.02","FORT SMITH A","2202201","2018-01-20 18:00","2018","01","20","18:00","-16.2","","-18.2","","85","","","","34","","7","","24.1","","99.07","","","","-21","","Snow"
"-111.96","60.02","FORT SMITH A","2202201","2018-01-20 19:00","2018","01","20","19:00","-17.0","","-19.0","","84","","","","30","","7","","19.3","","99.11","","","","-22","","Snow"
"-111.96","60.02","FORT SMITH A","2202201","2018-01-20 20:00","2018","01","20","20:00","-18.5","","-20.6","","83","","","","30","","8","","24.1","","99.14","","","","-24","","Snow"
"-111.96","60.02","FORT SMITH A","2202201","2018-01-20 21:00","2018","01","20","21:00","-19.9","","-22.1","","83","","","","28","","5","","24.1","","99.17","","","","-24","","Snow"
"-111.96","60.02","FORT SMITH A","2202201","2018-01-20 22:00","2018","01","20","22:00","-22.1","","-24.4","","81","","","","30","","7","","24.1","","99.23","","","","-28","","NA"
"-111.96","60.02","FORT SMITH A","2202201","2018-01-20 23:00","2018","01","20","23:00","-23.1","","-25.5","","82","","","","27","","4","","24.1","","99.30","","","","-27","","Clear"
"-111.96","60.02","FORT SMITH A","2202201","2018-01-21 00:00","2018","01","21","00:00","-23.5","","-26.0","","81","","","","36","","2","","24.1","","99.35","","","","-25","","NA"
"-111.96","60.02","FORT SMITH A","2202201","2018-01-21 01:00","2018","01","21","01:00","-24.9","","-27.6","","79","","","","17","","4","","24.1","","99.40","","","","-29","","NA"
"-111.96","60.02","FORT SMITH A","2202201","2018-01-21 02:00","2018","01","21","02:00","-25.9","","-28.6","","78","","","","36","","3","","24.1","","99.46","","","","-29","","Clear"
"-111.96","60.02","FORT SMITH A","2202201","2018-01-21 03:00","2018","01","21","03:00","-26.9","","-29.8","","77","","","","36","","1","","24.1","","99.51","","","","-28","","NA"
"-111.96","60.02","FORT SMITH A","2202201","2018-01-21 04:00","2018","01","21","04:00","-26.0","","-28.8","","78","","","","36","","2","","19.3","","99.52","","","","-28","","Snow"
"-111.96","60.02","FORT SMITH A","2202201","2018-01-21 05:00","2018","01","21","05:00","-24.6","","-27.2","","80","","","","36","","2","","19.3","","99.54","","","","-27","","Snow"
"-111.96","60.02","FORT SMITH A","2202201","2018-01-21 06:00","2018","01","21","06:00","-25.8","","-28.6","","78","","","","36","","1","","24.1","","99.57","","","","-27","","Snow"
"-111.96","60.02","FORT SMITH A","2202201","2018-01-21 07:00","2018","01","21","07:00","-24.5","","-27.1","","80","","","","4","","7","","24.1","","99.58","","","","-31","","Snow"
"-111.96","60.02","FORT SMITH A","2202201","2018-01-21 08:00","2018","01","21","08:00","-24.4","","-26.9","","80","","","","3","","3","","4.8","","99.58","","","","-27","","Snow"
"-111.96","60.02","FORT SMITH A","2202201","2018-01-21 09:00","2018","01","21","09:00","-24.1","","-26.8","","79","","","","2","","3","","6.4","","99.59","","","","-27","","Snow Grains"
"-111.96","60.02","FORT SMITH A","2202201","2018-01-21 10:00","2018","01","21","10:00","-23.7","","-26.4","","79","","","","4","","3","","1.6","","99.61","","","","-27","","Snow Grains"
"-111.96","60.02","FORT SMITH A","2202201","2018-01-21 11:00","2018","01","21","11:00","-22.2","","-24.8","","80","","","","36","","3","","9.7","","99.60","","","","-25","","Snow Grains"
"-111.96","60.02","FORT SMITH A","2202201","2018-01-21 12:00","2018","01","21","12:00","-20.9","","-23.3","","81","","","","36","","2","","19.3","","99.61","","","","-23","","Snow Grains"
"-111.96","60.02","FORT SMITH A","2202201","2018-01-21 13:00","2018","01","21","13:00","-19.5","","-21.8","","82","","","","3","","4","","19.3","","99.58","","","","-23","","Snow Grains"
"-111.96","60.02","FORT SMITH A","2202201","2018-01-21 14:00","2018","01","21","14:00","-18.0","","-20.2","","83","","","","9","","3","","19.3","","99.56","","","","-20","","Snow Grains"
"-111.96","60.02","FORT SMITH A","2202201","2018-01-21 15:00","2018","01","21","15:00","-17.3","","-19.5","","84","","","","8","","4","","19.3","","99.56","","","","-20","","Snow Grains"
"-111.96","60.02","FORT SMITH A","2202201","2018-01-21 16:00","2018","01","21","16:00","-16.8","","-18.9","","84","","","","8","","5","","19.3","","99.56","","","","-21","","Snow Grains"
"-111.96","60.02","FORT SMITH A","2202201","2018-01-21 17:00","2018","01","21","17:00","-16.6","","-18.6","","84","","","","8","","7","","19.3","","99.56","","","","-22","","Snow Grains"
"-111.96","60.02","FORT SMITH A","2202201","2018-01-21 18:00","2018","01","21","18:00","-16.5","","-18.6","","84","","","","9","","12","","19.3","","99.51","","","","-24","","Snow Grains"
"-111.96","60.02","FORT SMITH A","2202201","2018-01-21 19:00","2018","01","21","19:00","-17.9","","-20.1","","83","","","","10","","7","","19.3","","99.52","","","","-23","","Snow Grains"
"-111.96","60.02","FORT SMITH A","2202201","2018-01-21 20:00","2018","01","21","20:00","-19.4","","-21.7","","82","","","","12","","12","","24.1","","99.48","","","","-27","","Snow Grains"
"-111.96","60.02","FORT SMITH A","2202201","2018-01-21 21:00","2018","01","21","21:00","-20.8","","-23.3","","81","","","","36","","2","","24.1","","99.45","","","","-23","","Snow Grains"
"-111.96","60.02","FORT SMITH A","2202201","2018-01-21 22:00","2018","01","21","22:00","-21.6","","-24.1","","81","","","","11","","4","","24.1","","99.46","","","","-25","","Snow Grains"
"-111.96","60.02","FORT SMITH A","2202201","2018-01-21 23:00","2018","01","21","23:00","-22.6","","-25.1","","80","","","","10","","5","","24.1","","99.40","","","","-27","","Mainly Clear"
"-111.96","60.02","FORT SMITH A","2202201","2018-01-22 00:00","2018","01","22","00:00","-23.2","","-25.9","","80","","","","8","","5","","24.1","","99.33","","","","-28","","NA"
"-111.96","60.02","FORT SMITH A","2202201","2018-01-22 01:00","2018","01","22","01:00","-23.7","","-26.4","","79","","","","7","","5","","24.1","","99.31","","","","-28","","NA"
"-111.96","60.02","FORT SMITH A","2202201","2018-01-22 02:00","2018","01","22","02:00","-23.7","","-26.3","","79","","","","8","","4","","24.1","","99.25","","","","-28","","Mainly Clear"
"-111.96","60.02","FORT SMITH A","2202201","2018-01-22 03:00","2018","01","22","03:00","-22.6","","-25.2","","80","","","","9","","8","","24.1","","99.22","","","","-29","","NA"
"-111.96","60.02","FORT SMITH A","2202201","2018-01-22 04:00","2018","01","22","04:00","-21.6","","-24.1","","81","","","","9","","8","","24.1","","99.20","","","","-28","","NA"
"-111.96","60.02","FORT SMITH A","2202201","2018-01-22 05:00","2018","01","22","05:00","-21.0","","-23.4","","81","","","","10","","10","","24.1","","99.16","","","","-28","","Mostly Cloudy"
"-111.96","60.02","FORT SMITH A","2202201","2018-01-22 06:00","2018","01","22","06:00","-20.3","","-22.7","","82","","","","10","","9","","24.1","","99.11","","","","-27","","NA"
"-111.96","60.02","FORT SMITH A","2202201","2018-01-22 07:00","2018","01","22","07:00","-19.4","","-21.8","","82","","","","12","","9","","19.3","","99.07","","","","-26","","NA"
"-111.96","60.02","FORT SMITH A","2202201","2018-01-22 08:00","2018","01","22","08:00","-18.7","","-20.9","","83","","","","11","","8","","19.3","","99.02","","","","-25","","Mostly Cloudy"
"-111.96","60.02","FORT SMITH A","2202201","2018-01-22 09:00","2018","01","22","09:00","-18.1","","-20.3","","83","","","","10","","10","","24.1","","99.01","","","","-25","","NA"
"-111.96","60.02","FORT SMITH A","2202201","2018-01-22 10:00","2018","01","22","10:00","-17.5","","-19.6","","84","","","","12","","9","","24.1","","99.06","","","","-24","","NA"
"-111.96","60.02","FORT SMITH A","2202201","2018-01-22 11:00","2018","01","22","11:00","-17.2","","-19.4","","84","","","","14","","9","","3.2","","99.08","","","","-23","","Fog"
"-111.96","60.02","FORT SMITH A","2202201","2018-01-22 12:00","2018","01","22","12:00","-17.3","","-19.5","","83","","","","12","","9","","1.6","","99.06","","","","-24","","Snow,Fog"
"-111.96","60.02","FORT SMITH A","2202201","2018-01-22 13:00","2018","01","22","13:00","-17.2","","-19.3","","84","","","","13","","10","","1.6","","99.03","","","","-24","","Snow,Fog"
"-111.96","60.02","FORT SMITH A","2202201","2018-01-22 14:00","2018","01","22","14:00","-17.0","","-19.2","","84","","","","13","","9","","2.0","","99.06","","","","-23","","Snow,Fog"
"-111.96","60.02","FORT SMITH A","2202201","2018-01-22 15:00","2018","01","22","15:00","-17.0","","-19.1","","84","","","","13","","10","","3.2","","99.10","","","","-24","","Snow,Fog"
"-111.96","60.02","FORT SMITH A","2202201","2018-01-22 16:00","2018","01","22","16:00","-17.4","","-19.5","","83","","","","14","","9","","3.2","","99.16","","","","-24","","Snow,Fog"
"-111.96","60.02","FORT SMITH A","2202201","2018-01-22 17:00","2018","01","22","17:00","-17.5","","-19.7","","83","","","","14","","9","","2.4","","99.21","","","","-24","","Snow,Fog"
"-111.96","60.02","FORT SMITH A","2202201","2018-01-22 18:00","2018","01","22","18:00","-17.8","","-20.0","","83","","","","14","","9","","9.7","","99.23","","","","-24","","Snow"
"-111.96","60.02","FORT SMITH A","2202201","2018-01-22 19:00","2018","01","22","19:00","-17.7","","-19.9","","83","","","","14","","7","","9.7","","99.27","","","","-23","","Snow"
"-111.96","60.02","FORT SMITH A","2202201","2018-01-22 20:00","2018","01","22","20:00","-17.6","","-19.9","","83","","","","13","","7","","16.1","","99.28","","","","-23","","Snow"
"-111.96","60.02","FORT SMITH A","2202201","2018-01-22 21:00","2018","01","22","21:00","-17.6","","-19.9","","83","","","","13","","7","","16.1","","99.29","","","","-23","","Snow"
"-111.96","60.02","FORT SMITH A","2202201","2018-01-22 22:00","2018","01","22","22:00","-17.6","","-19.9","","83","","","","13","","8","","16.1","","99.30","","","","-23","","Snow"
"-111.96","60.02","FORT SMITH A","2202201","2018-01-22 23:00","2018","01","22","23:00","-17.6","","-19.8","","83","","","","15","","11","","16.1","","99.33","","","","-25","","Snow"
"-111.96","60.02","FORT SMITH A","2202201","2018-01-23 00:00","2018","01","23","00:00","-17.5","","-19.7","","83","","","","14","","11","","12.9","","99.35","","","","-25","","Snow"
"-111.96","60.02","FORT SMITH A","2202201","2018-01-23 01:00","2018","01","23","01:00","-17.4","","-19.6","","83","","","","16","","7","","12.9","","99.39","","","","-23","","Snow"
"-111.96","60.02","FORT SMITH A","2202201","2018-01-23 02:00","2018","01","23","02:00","-17.3","","-19.4","","84","","","","14","","8","","8.1","","99.41","","","","-23","","Snow"
"-111.96","60.02","FORT SMITH A","2202201","2018-01-23 03:00","2018","01","23","03:00","-17.2","","-19.3","","84","","","","14","","6","","6.4","","99.45","","","","-22","","Snow"
"-111.96","60.02","FORT SMITH A","2202201","2018-01-23 04:00","2018","01","23","04:00","-17.1","","-19.3","","83","","","","14","","7","","9.7","","99.46","","","","-22","","Snow"
"-111.96","60.02","FORT SMITH A","2202201","2018-01-23 05:00","2018","01","23","05:00","-17.1","","-19.3","","83","","","","15","","7","","12.9","","99.48","","","","-22","","Snow"
"-111.96","60.02","FORT SMITH A","2202201","2018-01-23 06:00","2018","01","23","06:00","-17.0","","-19.3","","83","","","","14","","9","","9.7","","99.44","","","","-23","","Snow"
"-111.96","60.02","FORT SMITH A","2202201","2018-01-23 07:00","2018","01","23","07:00","-17.0","","-19.2","","83","","","","17","","6","","16.1","","99.48","","","","-22","","Snow"
"-111.96","60.02","FORT SMITH A","2202201","2018-01-23 08:00","2018","01","23","08:00","-16.9","","-19.3","","82","","","","14","","7","","16.1","","99.47","","","","-22","","Snow"
"-111.96","60.02","FORT SMITH A","2202201","2018-01-23 09:00","2018","01","23","09:00","-16.9","","-19.2","","82","","","","16","","7","","12.9","","99.51","","","","-22","","Snow"
"-111.96","60.02","FORT SMITH A","2202201","2018-01-23 10:00","2018","01","23","10:00","-16.9","","-19.2","","82","","","","14","","8","","16.1","","99.49","","","","-23","","Snow"
"-111.96","60.02","FORT SMITH A","2202201","2018-01-23 11:00","2018","01","23","11:00","-16.7","","-19.1","","82","","","","14","","7","","16.1","","99.47","","","","-22","","Snow"
"-111.96","60.02","FORT SMITH A","2202201","2018-01-23 12:00","2018","01","23","12:00","-16.6","","-18.9","","82","","","","15","","12","","12.9","","99.45","","","","-24","","Snow"
"-111.96","60.02","FORT SMITH A","2202201","2018-01-23 13:00","2018","01","23","13:00","-16.4","","-18.8","","82","","","","13","","9","","19.3","","99.40","","","","-22","","Snow"
"-111.96","60.02","FORT SMITH A","2202201","2018-01-23 14:00","2018","01","23","14:00","-16.2","","-18.7","","82","","","","14","","13","","24.1","","99.37","","","","-24","","Snow"
"-111.96","60.02","FORT SMITH A","2202201","2018-01-23 15:00","2018","01","23","15:00","-15.9","","-18.2","","83","","","","14","","9","","24.1","","99.34","","","","-22","","Snow"
"-111.96","60.02","FORT SMITH A","2202201","2018-01-23 16:00","2018","01","23","16:00","-15.7","","-18.0","","83","","","","13","","9","","24.1","","99.34","","","","-22","","Snow"
"-111.96","60.02","FORT SMITH A","2202201","2018-01-23 17:00","2018","01","23","17:00","-15.5","","-17.8","","83","","","","13","","5","","24.1","","99.33","","","","-19","","Snow"
"-111.96","60.02","FORT SMITH A","2202201","2018-01-23 18:00","2018","01","23","18:00","-15.5","","-17.7","","83","","","","13","","7","","24.1","","99.33","","","","-20","","Snow"
"-111.96","60.02","FORT SMITH A","2202201","2018-01-23 19:00","2018","01","23","19:00","-15.3","","-17.6","","83","","","","14","","13","","24.1","","99.29","","","","-23","","Snow"
"-111.96","60.02","FORT SMITH A","2202201","2018-01-23 20:00","2018","01","23","20:00","-15.1","","-17.4","","83","","","","14","","12","","24.1","","99.27","","","","-22","","Snow"
"-111.96","60.02","FORT SMITH A","2202201","2018-01-23 21:00","2018","01","23","21:00","-15.0","","-17.3","","83","","","","14","","13","","24.1","","99.22","","","","-22","","Snow"
"-111.96","60.02","FORT SMITH A","2202201","2018-01-23 22:00","2018","01","23","22:00","-14.9","","-17.2","","83","","","","13","","6","","24.1","","99.21","","","","-19","","Snow"
"-111.96","60.02","FORT SMITH A","2202201","2018-01-23 23:00","2018","01","23","23:00","-14.9","","-17.1","","83","","","","13","","8","","24.1","","99.22","","","","-20","","Snow"
"-111.96","60.02","FORT SMITH A","2202201","2018-01-24 00:00","2018","01","24","00:00","-14.8","","-17.1","","83","","","","13","","6","","24.1","","99.17","","","","-19","","Snow"
"-111.96","60.02","FORT SMITH A","2202201","2018-01-24 01:00","2018","01","24","01:00","-14.6","","-16.9","","83","","","","15","","5","","24.1","","99.18","","","","-18","","NA"
"-111.96","60.02","FORT SMITH A","2202201","2018-01-24 02:00","2018","01","24","02:00","-14.8","","-16.9","","84","","","","14","","4","","24.1","","99.18","","","","-18","","Snow"
"-111.96","60.02","FORT SMITH A","2202201","2018-01-24 03:00","2018","01","24","03:00","-14.3","","-16.6","","83","","","","36","","2","","24.1","","99.18","","","","-16","","Snow"
"-111.96","60.02","FORT SMITH A","2202201","2018-01-24 04:00","2018","01","24","04:00","-14.1","","-16.2","","84","","","","12","","4","","24.1","","99.16","","","","-17","","Snow"
"-111.96","60.02","FORT SMITH A","2202201","2018-01-24 05:00","2018","01","24","05:00","-14.0","","-16.1","","84","","","","0","","1","","24.1","","99.15","","","","-15","","Snow"
"-111.96","60.02","FORT SMITH A","2202201","2018-01-24 06:00","2018","01","24","06:00","-14.2","","-16.1","","86","","","","36","","2","","19.3","","99.16","","","","-16","","Freezing Drizzle,Snow"
"-111.96","60.02","FORT SMITH A","2202201","2018-01-24 07:00","2018","01","24","07:00","-14.2","","-15.8","","88","","","","2","","4","","4.8","","99.15","","","","-17","","Freezing Drizzle,Snow"
"-111.96","60.02","FORT SMITH A","2202201","2018-01-24 08:00","2018","01","24","08:00","-14.2","","-16.0","","86","","","","1","","4","","3.2","","99.13","","","","-17","","Freezing Drizzle,Snow"
"-111.96","60.02","FORT SMITH A","2202201","2018-01-24 09:00","2018","01","24","09:00","-14.1","","-15.9","","86","","","","36","","1","","3.2","","99.16","","","","-15","","Snow"
"-111.96","60.02","FORT SMITH A","2202201","2018-01-24 10:00","2018","01","24","10:00","-14.1","","-16.0","","86","","","","34","","7","","3.2","","99.17","","","","-19","","Snow"
"-111.96","60.02","FORT SMITH A","2202201","2018-01-24 11:00","2018","01","24","11:00","-13.9","","-15.9","","85","","","","36","","5","","4.0","","99.16","","","","-17","","Snow"
"-111.96","60.02","FORT SMITH A","2202201","2018-01-24 12:00","2018","01","24","12:00","-13.6","","-15.7","","84","","","","36","","3","","4.8","","99.15","","","","-16","","Snow"
"-111.96","60.02","FORT SMITH A","2202201","2018-01-24 13:00","2018","01","24","13:00","-13.4","","-15.6","","84","","","","34","","9","","3.2","","99.12","","","","-19","","Snow"
"-111.96","60.02","FORT SMITH A","2202201","2018-01-24 14:00","2018","01","24","14:00","-13.5","","-15.7","","84","","","","36","","9","","3.2","","99.12","","","","-19","","Snow"
"-111.96","60.02","FORT SMITH A","2202201","2018-01-24 15:00","2018","01","24","15:00","-13.2","","-15.4","","84","","","","1","","8","","4.0","","99.13","","","","-18","","Snow"
"-111.96","60.02","FORT SMITH A","2202201","2018-01-24 16:00","2018","01","24","16:00","-13.7","","-15.7","","85","","","","35","","11","","4.0","","99.14","","","","-20","","Snow"
"-111.96","60.02","FORT SMITH A","2202201","2018-01-24 17:00","2018","01","24","17:00","-14.1","","-16.0","","86","","","","34","","8","","6.4","","99.18","","","","-19","","Snow"
"-111.96","60.02","FORT SMITH A","2202201","2018-01-24 18:00","2018","01","24","18:00","-14.4","","-16.2","","86","","","","36","","6","","9.7","","99.18","","","","-19","","Snow"
"-111.96","60.02","FORT SMITH A","2202201","2018-01-24 19:00","2018","01","24","19:00","-14.5","","-16.4","","86","","","","35","","9","","6.4","","99.15","","","","-20","","Snow"
"-111.96","60.02","FORT SMITH A","2202201","2018-01-24 20:00","2018","01","24","20:00","-14.9","","-16.8","","85","","","","36","","11","","4.8","","99.13","","","","-21","","Snow"
"-111.96","60.02","FORT SMITH A","2202201","2018-01-24 21:00","2018","01","24","21:00","-15.6","","-17.4","","86","","","","35","","9","","4.8","","99.12","","","","-22","","Snow"
"-111.96","60.02","FORT SMITH A","2202201","2018-01-24 22:00","2018","01","24","22:00","-16.1","","-17.8","","87","","","","36","","13","","6.4","","99.14","","","","-24","","Snow"
"-111.96","60.02","FORT SMITH A","2202201","2018-01-24 23:00","2018","01","24","23:00","-16.4","","-18.2","","86","","","","34","","9","","6.4","","99.13","","","","-22","","Snow"
"-111.96","60.02","FORT SMITH A","2202201","2018-01-25 00:00","2018","01","25","00:00","-16.7","","-18.5","","86","","","","1","","12","","8.1","","99.14","","","","-24","","Snow"
"-111.96","60.02","FORT SMITH A","2202201","2018-01-25 01:00","2018","01","25","01:00","-17.0","","-18.8","","86","","","","35","","9","","9.7","","99.16","","","","-23","","Freezing Drizzle,Snow"
"-111.96","60.02","FORT SMITH A","2202201","2018-01-25 02:00","2018","01","25","02:00","-17.5","","-19.3","","86","","","","34","","6","","12.9","","99.16","","","","-22","","Freezing Drizzle,Snow"
"-111.96","60.02","FORT SMITH A","2202201","2018-01-25 03:00","2018","01","25","03:00","-18.0","","-19.9","","85","","","","35","","11","","16.1","","99.14","","","","-25","","Freezing Drizzle,Snow"
"-111.96","60.02","FORT SMITH A","2202201","2018-01-25 04:00","2018","01","25","04:00","-18.4","","-20.4","","84","","","","36","","7","","19.3","","99.12","","","","-24","","Freezing Drizzle,Snow"
"-111.96","60.02","FORT SMITH A","2202201","2018-01-25 05:00","2018","01","25","05:00","-18.7","","-20.8","","84","","","","33","","7","","19.3","","99.13","","","","-24","","Freezing Drizzle,Snow"
"-111.96","60.02","FORT SMITH A","2202201","2018-01-25 06:00","2018","01","25","06:00","-19.6","","-21.6","","84","","","","34","","7","","19.3","","99.11","","","","-25","","Freezing Drizzle,Snow"
"-111.96","60.02","FORT SMITH A","2202201","2018-01-25 07:00","2018","01","25","07:00","-20.3","","-22.4","","83","","","","35","","9","","24.1","","99.10","","","","-27","","Snow"
"-111.96","60.02","FORT SMITH A","2202201","2018-01-25 08:00","2018","01","25","08:00","-20.6","","-22.8","","83","","","","34","","8","","24.1","","99.08","","","","-27","","Snow"
"-111.96","60.02","FORT SMITH A","2202201","2018-01-25 09:00","2018","01","25","09:00","-20.9","","-23.2","","82","","","","33","","9","","24.1","","99.14","","","","-28","","Snow"
"-111.96","60.02","FORT SMITH A","2202201","2018-01-25 10:00","2018","01","25","10:00","-21.1","","-23.5","","81","","","","34","","10","","24.1","","99.15","","","","-29","","Snow"
"-111.96","60.02","FORT SMITH A","2202201","2018-01-25 11:00","2018","01","25","11:00","-20.7","","-23.1","","81","","","","35","","11","","24.1","","99.14","","","","-28","","Snow"
"-111.96","60.02","FORT SMITH A","2202201","2018-01-25 12:00","2018","01","25","12:00","-20.0","","-22.4","","82","","","","35","","9","","24.1","","99.15","","","","-27","","Snow"
"-111.96","60.02","FORT SMITH A","2202201","2018-01-25 13:00","2018","01","25","13:00","-19.3","","-21.7","","82","","","","34","","11","","24.1","","99.15","","","","-27","","Snow"
"-111.96","60.02","FORT SMITH A","2202201","2018-01-25 14:00","2018","01","25","14:00","-19.3","","-21.7","","82","","","","32","","10","","12.9","","99.17","","","","-26","","Snow,Blowing Snow"
"-111.96","60.02","FORT SMITH A","2202201","2018-01-25 15:00","2018","01","25","15:00","-18.9","","-21.3","","82","","","","34","","10","","9.7","","99.20","","","","-26","","Snow,Blowing Snow"
"-111.96","60.02","FORT SMITH A","2202201","2018-01-25 16:00","2018","01","25","16:00","-18.5","","-20.9","","82","","","","35","","14","","16.1","","99.26","","","","-27","","Moderate Snow,Blowing Snow"
"-111.96","60.02","FORT SMITH A","2202201","2018-01-25 17:00","2018","01","25","17:00","-18.8","","-21.2","","82","","","","34","","9","","4.8","","99.30","","","","-25","","Snow,Blowing Snow"
"-111.96","60.02","FORT SMITH A","2202201","2018-01-25 18:00","2018","01","25","18:00","-19.0","","-21.4","","82","","","","35","","10","","4.8","","99.32","","","","-26","","Snow,Blowing Snow"
"-111.96","60.02","FORT SMITH A","2202201","2018-01-25 19:00","2018","01","25","19:00","-19.7","","-22.1","","81","","","","33","","9","","16.1","","99.35","","","","-26","","Snow"
"-111.96","60.02","FORT SMITH A","2202201","2018-01-25 20:00","2018","01","25","20:00","-20.3","","-22.7","","81","","","","33","","13","","24.1","","99.40","","","","-29","","Snow"
"-111.96","60.02","FORT SMITH A","2202201","2018-01-25 21:00","2018","01","25","21:00","-20.8","","-23.3","","81","","","","34","","17","","24.1","","99.42","","","","-31","","Snow"
"-111.96","60.02","FORT SMITH A","2202201","2018-01-25 22:00","2018","01","25","22:00","-21.3","","-23.9","","80","","","","34","","12","","24.1","","99.48","","","","-30","","Snow"
"-111.96","60.02","FORT SMITH A","2202201","2018-01-25 23:00","2018","01","25","23:00","-21.9","","-24.5","","80","","","","33","","11","","16.1","","99.53","","","","-30","","Snow"
"-111.96","60.02","FORT SMITH A","2202201","2018-01-26 00:00","2018","01","26","00:00","-22.6","","-25.3","","79","","","","34","","16","","19.3","","99.60","","","","-33","","Snow"
"-111.96","60.02","FORT SMITH A","2202201","2018-01-26 01:00","2018","01","26","01:00","-23.0","","-25.7","","79","","","","34","","12","","24.1","","99.66","","","","-32","","Snow"
"-111.96","60.02","FORT SMITH A","2202201","2018-01-26 02:00","2018","01","26","02:00","-23.7","","-26.5","","78","","","","34","","14","","24.1","","99.70","","","","-33","","Snow"
"-111.96","60.02","FORT SMITH A","2202201","2018-01-26 03:00","2018","01","26","03:00","-24.1","","-26.9","","78","","","","34","","13","","24.1","","99.76","","","","-33","","Snow"
"-111.96","60.02","FORT SMITH A","2202201","2018-01-26 04:00","2018","01","26","04:00","-24.4","","-27.3","","78","","","","34","","8","","24.1","","99.80","","","","-31","","Snow"
"-111.96","60.02","FORT SMITH A","2202201","2018-01-26 05:00","2018","01","26","05:00","-25.1","","-27.9","","77","","","","32","","13","","24.1","","99.87","","","","-35","","Snow"
"-111.96","60.02","FORT SMITH A","2202201","2018-01-26 06:00","2018","01","26","06:00","-25.1","","-28.0","","77","","","","34","","13","","24.1","","99.92","","","","-35","","Snow"
"-111.96","60.02","FORT SMITH A","2202201","2018-01-26 07:00","2018","01","26","07:00","-25.1","","-28.0","","77","","","","34","","7","","24.1","","99.98","","","","-32","","Snow"
"-111.96","60.02","FORT SMITH A","2202201","2018-01-26 08:00","2018","01","26","08:00","-25.4","","-28.3","","77","","","","33","","11","","24.1","","100.02","","","","-34","","Mostly Cloudy"
"-111.96","60.02","FORT SMITH A","2202201","2018-01-26 09:00","2018","01","26","09:00","-25.9","","-28.8","","77","","","","33","","12","","24.1","","100.10","","","","-35","","NA"
"-111.96","60.02","FORT SMITH A","2202201","2018-01-26 10:00","2018","01","26","10:00","-26.9","","-30.0","","76","","","","33","","12","","24.1","","100.19","","","","-36","","NA"
"-111.96","60.02","FORT SMITH A","2202201","2018-01-26 11:00","2018","01","26","11:00","-27.1","","-30.2","","76","","","","33","","10","","24.1","","100.24","","","","-36","","Mainly Clear"
"-111.96","60.02","FORT SMITH A","2202201","2018-01-26 12:00","2018","01","26","12:00","-26.2","","-29.4","","75","","","","34","","6","","24.1","","100.28","","","","-32","","NA"
"-111.96","60.02","FORT SMITH A","2202201","2018-01-26 13:00","2018","01","26","13:00","-25.6","","-28.9","","75","","","","31","","9","","24.1","","100.32","","","","-33","","NA"
"-111.96","60.02","FORT SMITH A","2202201","2018-01-26 14:00","2018","01","26","14:00","-25.2","","-28.5","","75","","","","34","","10","","24.1","","100.36","","","","-33","","Clear"
"-111.96","60.02","FORT SMITH A","2202201","2018-01-26 15:00","2018","01","26","15:00","-25.3","","-28.6","","74","","","","34","","9","","24.1","","100.43","","","","-33","","NA"
"-111.96","60.02","FORT SMITH A","2202201","2018-01-26 16:00","2018","01","26","16:00","-26.4","","-29.6","","75","","","","34","","9","","24.1","","100.54","","","","-34","","NA"
"-111.96","60.02","FORT SMITH A","2202201","2018-01-26 17:00","2018","01","26","17:00","-27.0","","-30.1","","76","","","","33","","9","","24.1","","100.62","","","","-35","","Mainly Clear"
"-111.96","60.02","FORT SMITH A","2202201","2018-01-26 18:00","2018","01","26","18:00","-27.6","","-30.8","","75","","","","33","","9","","24.1","","100.68","","","","-36","","NA"
"-111.96","60.02","FORT SMITH A","2202201","2018-01-26 19:00","2018","01","26","19:00","-27.8","","-30.9","","75","","","","34","","8","","24.1","","100.72","","","","-35","","NA"
"-111.96","60.02","FORT SMITH A","2202201","2018-01-26 20:00","2018","01","26","20:00","-28.9","","-31.9","","76","","","","30","","7","","24.1","","100.74","","","","-36","","Snow"
"-111.96","60.02","FORT SMITH A","2202201","2018-01-26 21:00","2018","01","26","21:00","-29.0","","-32.0","","76","","","","31","","5","","24.1","","100.80","","","","-34","","Snow"
"-111.96","60.02","FORT SMITH A","2202201","2018-01-26 22:00","2018","01","26","22:00","-30.1","","-33.1","","76","","","","29","","8","","24.1","","100.85","","","","-38","","Snow"
"-111.96","60.02","FORT SMITH A","2202201","2018-01-26 23:00","2018","01","26","23:00","-30.1","","-33.3","","75","","","","28","","9","","24.1","","100.89","","","","-39","","Snow"
"-111.96","60.02","FORT SMITH A","2202201","2018-01-27 00:00","2018","01","27","00:00","-31.4","","-34.6","","75","","","","30","","7","","24.1","","100.93","","","","-39","","Snow"
"-111.96","60.02","FORT SMITH A","2202201","2018-01-27 01:00","2018","01","27","01:00","-31.3","","-34.3","","76","","","","36","","3","","24.1","","100.97","","","","-35","","Snow"
"-111.96","60.02","FORT SMITH A","2202201","2018-01-27 02:00","2018","01","27","02:00","-31.3","","-34.5","","74","","","","24","","4","","24.1","","101.01","","","","-36","","Snow"
"-111.96","60.02","FORT SMITH A","2202201","2018-01-27 03:00","2018","01","27","03:00","-31.4","","-34.7","","74","","","","26","","5","","24.1","","101.04","","","","-37","","Snow"
"-111.96","60.02","FORT SMITH A","2202201","2018-01-27 04:00","2018","01","27","04:00","-31.6","","-34.9","","73","","","","36","","2","","24.1","","101.07","","","","-34","","Snow"
"-111.96","60.02","FORT SMITH A","2202201","2018-01-27 05:00","2018","01","27","05:00","-31.2","","-34.4","","74","","","","20","","3","","24.1","","101.09","","","","-35","","Snow"
"-111.96","60.02","FORT SMITH A","2202201","2018-01-27 06:00","2018","01","27","06:00","-32.0","","-35.4","","73","","","","36","","1","","24.1","","101.11","","","","-33","","Snow"
"-111.96","60.02","FORT SMITH A","2202201","2018-01-27 07:00","2018","01","27","07:00","-31.2","","-34.5","","73","","","","36","","2","","24.1","","101.11","","","","-34","","Snow"
"-111.96","60.02","FORT SMITH A","2202201","2018-01-27 08:00","2018","01","27","08:00","-31.2","","-34.6","","73","","","","25","","3","","24.1","","101.11","","","","-35","","Snow"
"-111.96","60.02","FORT SMITH A","2202201","2018-01-27 09:00","2018","01","27","09:00","-30.9","","-34.2","","73","","","","22","","3","","24.1","","101.10","","","","-34","","Snow"
"-111.96","60.02","FORT SMITH A","2202201","2018-01-27 10:00","2018","01","27","10:00","-30.6","","-33.9","","73","","","","21","","4","","24.1","","101.14","","","","-35","","NA"
"-111.96","60.02","FORT SMITH A","2202201","2018-01-27 11:00","2018","01","27","11:00","-30.1","","-33.5","","73","","","","24","","5","","24.1","","101.15","","","","-36","","Snow"
"-111.96","60.02","FORT SMITH A","2202201","2018-01-27 12:00","2018","01","27","12:00","-29.4","","-32.9","","73","","","","36","","1","","24.1","","101.18","","","","-31","","Snow"
"-111.96","60.02","FORT SMITH A","2202201","2018-01-27 13:00","2018","01","27","13:00","-29.0","","-32.5","","72","","","","36","","1","","24.1","","101.18","","","","-30","","Snow"
"-111.96","60.02","FORT SMITH A","2202201","2018-01-27 14:00","2018","01","27","14:00","-28.2","","-31.7","","72","","","","36","","2","","24.1","","101.18","","","","-30","","Snow"
"-111.96","60.02","FORT SMITH A","2202201","2018-01-27 15:00","2018","01","27","15:00","-28.0","","-31.5","","72","","","","28","","5","","24.1","","101.22","","","","-33","","Snow"
"-111.96","60.02","FORT SMITH A","2202201","2018-01-27 16:00","2018","01","27","16:00","-28.1","","-31.5","","73","","","","27","","4","","24.1","","101.24","","","","-32","","Snow"
"-111.96","60.02","FORT SMITH A","2202201","2018-01-27 17:00","2018","01","27","17:00","-27.7","","-31.0","","74","","","","26","","3","","24.1","","101.24","","","","-31","","Snow"
"-111.96","60.02","FORT SMITH A","2202201","2018-01-27 18:00","2018","01","27","18:00","-27.8","","-31.2","","73","","","","36","","1","","24.1","","101.24","","","","-29","","Snow"
"-111.96","60.02","FORT SMITH A","2202201","2018-01-27 19:00","2018","01","27","19:00","-28.3","","-31.4","","75","","","","36","","1","","19.3","","101.28","","","","-29","","Snow"
"-111.96","60.02","FORT SMITH A","2202201","2018-01-27 20:00","2018","01","27","20:00","-29.0","","-32.1","","75","","","","36","","2","","24.1","","101.31","","","","-31","","Snow"
"-111.96","60.02","FORT SMITH A","2202201","2018-01-27 21:00","2018","01","27","21:00","-29.1","","-32.2","","76","","","","26","","6","","24.1","","101.35","","","","-35","","Snow"
"-111.96","60.02","FORT SMITH A","2202201","2018-01-27 22:00","2018","01","27","22:00","-28.5","","-31.5","","76","","","","31","","10","","24.1","","101.39","","","","-37","","Snow"
"-111.96","60.02","FORT SMITH A","2202201","2018-01-27 23:00","2018","01","27","23:00","-29.3","","-32.4","","75","","","","30","","8","","24.1","","101.45","","","","-37","","Snow"
"-111.96","60.02","FORT SMITH A","2202201","2018-01-28 00:00","2018","01","28","00:00","-29.8","","-32.8","","75","","","","29","","9","","24.1","","101.49","","","","-38","","Snow"
"-111.96","60.02","FORT SMITH A","2202201","2018-01-28 01:00","2018","01","28","01:00","-29.1","","-32.1","","75","","","","27","","7","","24.1","","101.50","","","","-36","","Snow"
"-111.96","60.02","FORT SMITH A","2202201","2018-01-28 02:00","2018","01","28","02:00","-29.0","","-32.1","","75","","","","29","","12","","24.1","","101.56","","","","-39","","Snow"
"-111.96","60.02","FORT SMITH A","2202201","2018-01-28 03:00","2018","01","28","03:00","-29.5","","-32.6","","75","","","","28","","5","","24.1","","101.59","","","","-35","","Snow"
"-111.96","60.02","FORT SMITH A","2202201","2018-01-28 04:00","2018","01","28","04:00","-28.3","","-31.4","","75","","","","29","","8","","24.1","","101.63","","","","-36","","Snow"
"-111.96","60.02","FORT SMITH A","2202201","2018-01-28 05:00","2018","01","28","05:00","-27.6","","-30.8","","75","","","","32","","5","","24.1","","101.64","","","","-33","","Snow"
"-111.96","60.02","FORT SMITH A","2202201","2018-01-28 06:00","2018","01","28","06:00","-27.2","","-30.4","","75","","","","30","","6","","24.1","","101.66","","","","-33","","Snow"
"-111.96","60.02","FORT SMITH A","2202201","2018-01-28 07:00","2018","01","28","07:00","-26.8","","-30.0","","75","","","","27","","5","","24.1","","101.68","","","","-32","","Snow"
"-111.96","60.02","FORT SMITH A","2202201","2018-01-28 08:00","2018","01","28","08:00","-26.7","","-29.8","","75","","","","26","","4","","24.1","","101.67","","","","-31","","Snow"
"-111.96","60.02","FORT SMITH A","2202201","2018-01-28 09:00","2018","01","28","09:00","-26.6","","-29.7","","75","","","","21","","3","","24.1","","101.66","","","","-30","","Snow"
"-111.96","60.02","FORT SMITH A","2202201","2018-01-28 10:00","2018","01","28","10:00","-26.5","","-29.6","","76","","","","22","","5","","24.1","","101.69","","","","-32","","Moderate Snow"
"-111.96","60.02","FORT SMITH A","2202201","2018-01-28 11:00","2018","01","28","11:00","-26.0","","-29.3","","75","","","","25","","7","","19.3","","101.70","","","","-33","","Snow"
"-111.96","60.02","FORT SMITH A","2202201","2018-01-28 12:00","2018","01","28","12:00","-26.4","","-29.6","","75","","","","26","","3","","24.1","","101.67","","","","-29","","Snow"
"-111.96","60.02","FORT SMITH A","2202201","2018-01-28 13:00","2018","01","28","13:00","-25.9","","-29.4","","73","","","","36","","2","","24.1","","101.65","","","","-28","","Snow"
"-111.96","60.02","FORT SMITH A","2202201","2018-01-28 14:00","2018","01","28","14:00","-25.1","","-28.7","","73","","","","22","","8","","24.1","","101.63","","","","-32","","Snow"
"-111.96","60.02","FORT SMITH A","2202201","2018-01-28 15:00","2018","01","28","15:00","-25.6","","-29.0","","74","","","","36","","3","","24.1","","101.60","","","","-29","","Snow"
"-111.96","60.02","FORT SMITH A","2202201","2018-01-28 16:00","2018","01","28","16:00","-27.1","","-30.2","","76","","","","36","","2","","24.1","","101.58","","","","-29","","NA"
"-111.96","60.02","FORT SMITH A","2202201","2018-01-28 17:00","2018","01","28","17:00","-28.5","","-31.5","","76","","","","36","","2","","24.1","","101.56","","","","-31","","Clear"
"-111.96","60.02","FORT SMITH A","2202201","2018-01-28 18:00","2018","01","28","18:00","-30.6","","-33.8","","74","","","","36","","1","","24.1","","101.52","","","","-32","","NA"
"-111.96","60.02","FORT SMITH A","2202201","2018-01-28 19:00","2018","01","28","19:00","-31.1","","-34.2","","75","","","","36","","3","","24.1","","101.47","","","","-35","","NA"
"-111.96","60.02","FORT SMITH A","2202201","2018-01-28 20:00","2018","01","28","20:00","-30.9","","-34.2","","73","","","","14","","4","","24.1","","101.40","","","","-35","","Mostly Cloudy"
"-111.96","60.02","FORT SMITH A","2202201","2018-01-28 21:00","2018","01","28","21:00","-27.0","","-30.1","","76","","","","13","","3","","24.1","","101.37","","","","-30","","Ice Crystals"
"-111.96","60.02","FORT SMITH A","2202201","2018-01-28 22:00","2018","01","28","22:00","-26.3","","-29.3","","76","","","","15","","8","","24.1","","101.36","","","","-34","","Snow"
"-111.96","60.02","FORT SMITH A","2202201","2018-01-28 23:00","2018","01","28","23:00","-26.2","","-29.2","","76","","","","13","","7","","24.1","","101.31","","","","-33","","Snow"
"-111.96","60.02","FORT SMITH A","2202201","2018-01-29 00:00","2018","01","29","00:00","-25.9","","-28.9","","76","","","","15","","6","","24.1","","101.23","","","","-32","","Snow"
"-111.96","60.02","FORT SMITH A","2202201","2018-01-29 01:00","2018","01","29","01:00","-25.4","","-28.6","","75","","","","14","","7","","24.1","","101.18","","","","-32","","Snow"
"-111.96","60.02","FORT SMITH A","2202201","2018-01-29 02:00","2018","01","29","02:00","-25.2","","-28.3","","76","","","","15","","12","","24.1","","101.11","","","","-34","","Snow"
"-111.96","60.02","FORT SMITH A","2202201","2018-01-29 03:00","2018","01","29","03:00","-24.8","","-27.9","","76","","","","13","","8","","24.1","","101.06","","","","-32","","Snow"
"-111.96","60.02","FORT SMITH A","2202201","2018-01-29 04:00","2018","01","29","04:00","-24.6","","-27.8","","75","","","","11","","10","","24.1","","100.97","","","","-33","","Snow"
"-111.96","60.02","FORT SMITH A","2202201","2018-01-29 05:00","2018","01","29","05:00","-24.1","","-27.3","","76","","","","14","","9","","24.1","","100.92","","","","-32","","Snow"
"-111.96","60.02","FORT SMITH A","2202201","2018-01-29 06:00","2018","01","29","06:00","-23.8","","-27.1","","74","","","","13","","10","","24.1","","100.78","","","","-32","","Snow"
"-111.96","60.02","FORT SMITH A","2202201","2018-01-29 07:00","2018","01","29","07:00","-23.6","","-26.9","","74","","","","13","","14","","24.1","","100.67","","","","-33","","NA"
"-111.96","60.02","FORT SMITH A","2202201","2018-01-29 08:00","2018","01","29","08:00","-23.2","","-26.5","","75","","","","12","","8","","24.1","","100.55","","","","-30","","Snow"
"-111.96","60.02","FORT SMITH A","2202201","2018-01-29 09:00","2018","01","29","09:00","-23.0","","-26.2","","76","","","","12","","8","","24.1","","100.52","","","","-30","","Snow"
"-111.96","60.02","FORT SMITH A","2202201","2018-01-29 10:00","2018","01","29","10:00","-22.7","","-26.1","","75","","","","13","","10","","24.1","","100.39","","","","-30","","NA"
"-111.96","60.02","FORT SMITH A","2202201","2018-01-29 11:00","2018","01","29","11:00","-22.4","","-25.7","","75","","","","11","","9","","24.1","","100.20","","","","-30","","Mostly Cloudy"
"-111.96","60.02","FORT SMITH A","2202201","2018-01-29 12:00","2018","01","29","12:00","-21.6","","-24.9","","75","","","","12","","13","","24.1","","100.11","","","","-30","","NA"
"-111.96","60.02","FORT SMITH A","2202201","2018-01-29 13:00","2018","01","29","13:00","-20.7","","-23.9","","75","","","","13","","8","","24.1","","99.93","","","","-27","","NA"
"-111.96","60.02","FORT SMITH A","2202201","2018-01-29 14:00","2018","01","29","14:00","-20.3","","-23.6","","75","","","","11","","13","","24.1","","99.89","","","","-29","","Mostly Cloudy"
"-111.96","60.02","FORT SMITH A","2202201","2018-01-29 15:00","2018","01","29","15:00","-20.2","","-23.5","","76","","","","10","","9","","24.1","","99.68","","","","-27","","Blowing Snow"
"-111.96","60.02","FORT SMITH A","2202201","2018-01-29 16:00","2018","01","29","16:00","-20.7","","-23.8","","77","","","","10","","10","","24.1","","99.39","","","","-28","","Blowing Snow"
"-111.96","60.02","FORT SMITH A","2202201","2018-01-29 17:00","2018","01","29","17:00","-20.9","","-24.1","","76","","","","12","","17","","24.1","","99.31","","","","-31","","Blowing Snow"
"-111.96","60.02","FORT SMITH A","2202201","2018-01-29 18:00","2018","01","29","18:00","-20.8","","-23.9","","76","","","","11","","13","","9.7","","99.12","","","","-29","","Snow,Blowing Snow"
"-111.96","60.02","FORT SMITH A","2202201","2018-01-29 19:00","2018","01","29","19:00","-20.4","","-23.5","","77","","","","9","","14","","4.8","","98.86","","","","-29","","Snow,Blowing Snow"
"-111.96","60.02","FORT SMITH A","2202201","2018-01-29 20:00","2018","01","29","20:00","-19.6","","-22.6","","77","","","","10","","12","","4.8","","98.71","","","","-28","","Snow,Blowing Snow"
"-111.96","60.02","FORT SMITH A","2202201","2018-01-29 21:00","2018","01","29","21:00","-19.0","","-21.9","","78","","","","9","","14","","4.0","","98.56","","","","-28","","Snow,Blowing Snow"
"-111.96","60.02","FORT SMITH A","2202201","2018-01-29 22:00","2018","01","29","22:00","-18.4","","-21.1","","79","","","","12","","9","","2.4","","98.41","","","","-25","","Snow,Blowing Snow"
"-111.96","60.02","FORT SMITH A","2202201","2018-01-29 23:00","2018","01","29","23:00","-18.1","","-20.9","","79","","","","10","","11","","2.0","","98.35","","","","-25","","Snow"
"-111.96","60.02","FORT SMITH A","2202201","2018-01-30 00:00","2018","01","30","00:00","-18.1","","-20.8","","80","","","","5","","5","","3.6","","98.33","","","","-22","","Snow"
"-111.96","60.02","FORT SMITH A","2202201","2018-01-30 01:00","2018","01","30","01:00","-18.4","","-20.9","","81","","","","5","","6","","2.0","","98.26","","","","-23","","Snow"
"-111.96","60.02","FORT SMITH A","2202201","2018-01-30 02:00","2018","01","30","02:00","-18.4","","-20.9","","81","","","","6","","7","","2.8","","98.17","","","","-24","","Snow"
"-111.96","60.02","FORT SMITH A","2202201","2018-01-30 03:00","2018","01","30","03:00","-18.2","","-20.9","","79","","","","4","","8","","6.4","","98.13","","","","-24","","Snow"
"-111.96","60.02","FORT SMITH A","2202201","2018-01-30 04:00","2018","01","30","04:00","-18.1","","-20.8","","80","","","","4","","8","","8.1","","98.09","","","","-24","","Snow"
"-111.96","60.02","FORT SMITH A","2202201","2018-01-30 05:00","2018","01","30","05:00","-17.8","","-20.6","","79","","","","10","","5","","6.4","","98.10","","","","-22","","Snow"
"-111.96","60.02","FORT SMITH A","2202201","2018-01-30 06:00","2018","01","30","06:00","-18.0","","-20.4","","82","","","","33","","5","","2.0","","98.14","","","","-22","","Snow"
"-111.96","60.02","FORT SMITH A","2202201","2018-01-30 07:00","2018","01","30","07:00","-18.0","","-20.4","","82","","","","32","","6","","2.0","","98.19","","","","-23","","Snow"
"-111.96","60.02","FORT SMITH A","2202201","2018-01-30 08:00","2018","01","30","08:00","-18.0","","-20.4","","82","","","","35","","8","","3.2","","98.23","","","","-24","","Snow"
"-111.96","60.02","FORT SMITH A","2202201","2018-01-30 09:00","2018","01","30","09:00","-17.8","","-20.4","","80","","","","1","","12","","3.2","","98.27","","","","-25","","Snow"
"-111.96","60.02","FORT SMITH A","2202201","2018-01-30 10:00","2018","01","30","10:00","-17.9","","-20.7","","79","","","","2","","16","","4.8","","98.33","","","","-27","","Snow"
"-111.96","60.02","FORT SMITH A","2202201","2018-01-30 11:00","2018","01","30","11:00","-17.9","","-20.9","","78","","","","3","","15","","4.8","","98.38","","","","-26","","Snow"
"-111.96","60.02","FORT SMITH A","2202201","2018-01-30 12:00","2018","01","30","12:00","-17.9","","-21.2","","75","","","","2","","23","","9.7","","98.46","","","","-29","","Snow,Blowing Snow"
"-111.96","60.02","FORT SMITH A","2202201","2018-01-30 13:00","2018","01","30","13:00","-17.8","","-21.1","","76","","","","2","","14","","3.2","","98.55","","","","-26","","Snow,Blowing Snow"
"-111.96","60.02","FORT SMITH A","2202201","2018-01-30 14:00","2018","01","30","14:00","-18.0","","-21.4","","75","","","","2","","20","","3.2","","98.67","","","","-28","","Snow,Blowing Snow"
"-111.96","60.02","FORT SMITH A","2202201","2018-01-30 15:00","2018","01","30","15:00","-18.0","","-21.3","","76","","","","1","","16","","3.2","","98.82","","","","-27","","Snow,Blowing Snow"
"-111.96","60.02","FORT SMITH A","2202201","2018-01-30 16:00","2018","01","30","16:00","-18.1","","-21.0","","78","","","","36","","14","","2.8","","98.97","","","","-26","","Snow,Fog,Blowing Snow"
"-111.96","60.02","FORT SMITH A","2202201","2018-01-30 17:00","2018","01","30","17:00","-18.1","","-20.8","","80","","","","35","","12","","2.8","","99.10","","","","-26","","Snow,Fog,Blowing Snow"
"-111.96","60.02","FORT SMITH A","2202201","2018-01-30 18:00","2018","01","30","18:00","-18.4","","-20.9","","80","","","","34","","13","","3.2","","99.23","","","","-26","","Snow,Fog"
"-111.96","60.02","FORT SMITH A","2202201","2018-01-30 19:00","2018","01","30","19:00","-19.2","","-21.7","","81","","","","35","","14","","3.2","","99.31","","","","-28","","Snow,Fog"
"-111.96","60.02","FORT SMITH A","2202201","2018-01-30 20:00","2018","01","30","20:00","-20.3","","-22.8","","81","","","","33","","13","","19.3","","99.43","","","","-29","","Snow"
"-111.96","60.02","FORT SMITH A","2202201","2018-01-30 21:00","2018","01","30","21:00","-21.7","","-24.3","","80","","","","34","","9","","24.1","","99.56","","","","-29","","Snow"
"-111.96","60.02","FORT SMITH A","2202201","2018-01-30 22:00","2018","01","30","22:00","-22.7","","-25.3","","80","","","","34","","10","","24.1","","99.67","","","","-30","","Snow"
"-111.96","60.02","FORT SMITH A","2202201","2018-01-30 23:00","2018","01","30","23:00","-23.5","","-26.3","","78","","","","34","","9","","24.1","","99.79","","","","-31","","Snow"
"-111.96","60.02","FORT SMITH A","2202201","2018-01-31 00:00","2018","01","31","00:00","-23.8","","-26.8","","77","","","","33","","9","","24.1","","99.90","","","","-31","","Snow"
"-111.96","60.02","FORT SMITH A","2202201","2018-01-31 01:00","2018","01","31","01:00","-24.2","","-27.3","","76","","","","31","","8","","24.1","","100.00","","","","-31","","Snow"
"-111.96","60.02","FORT SMITH A","2202201","2018-01-31 02:00","2018","01","31","02:00","-24.4","","-27.4","","77","","","","31","","9","","24.1","","100.12","","","","-32","","Snow"
"-111.96","60.02","FORT SMITH A","2202201","2018-01-31 03:00","2018","01","31","03:00","-24.7","","-27.9","","76","","","","33","","11","","19.3","","100.24","","","","-33","","Snow"
"-111.96","60.02","FORT SMITH A","2202201","2018-01-31 04:00","2018","01","31","04:00","-25.1","","-28.3","","76","","","","33","","9","","24.1","","100.35","","","","-33","","Snow"
"-111.96","60.02","FORT SMITH A","2202201","2018-01-31 05:00","2018","01","31","05:00","-25.4","","-28.6","","75","","","","33","","9","","24.1","","100.43","","","","-33","","Snow"
"-111.96","60.02","FORT SMITH A","2202201","2018-01-31 06:00","2018","01","31","06:00","-25.4","","-28.6","","75","","","","33","","7","","24.1","","100.48","","","","-32","","Snow"
"-111.96","60.02","FORT SMITH A","2202201","2018-01-31 07:00","2018","01","31","07:00","-25.2","","-28.3","","76","","","","33","","9","","24.1","","100.55","","","","-33","","Snow"
"-111.96","60.02","FORT SMITH A","2202201","2018-01-31 08:00","2018","01","31","08:00","-25.7","","-28.6","","77","","","","33","","10","","24.1","","100.59","","","","-34","","Snow"
"-111.96","60.02","FORT SMITH A","2202201","2018-01-31 09:00","2018","01","31","09:00","-27.1","","-29.9","","78","","","","30","","12","","24.1","","100.67","","","","-37","","Snow"
"-111.96","60.02","FORT SMITH A","2202201","2018-01-31 10:00","2018","01","31","10:00","-28.0","","-30.9","","76","","","","31","","9","","24.1","","100.76","","","","-36","","Snow"
"-111.96","60.02","FORT SMITH A","2202201","2018-01-31 11:00","2018","01","31","11:00","-28.9","","-32.0","","75","","","","30","","12","","24.1","","100.84","","","","-39","","Snow"
"-111.96","60.02","FORT SMITH A","2202201","2018-01-31 12:00","2018","01","31","12:00","-28.6","","-31.9","","74","","","","29","","11","","24.1","","100.87","","","","-38","","NA"
"-111.96","60.02","FORT SMITH A","2202201","2018-01-31 13:00","2018","01","31","13:00","-28.2","","-31.8","","72","","","","29","","12","","24.1","","100.91","","","","-38","","NA"
"-111.96","60.02","FORT SMITH A","2202201","2018-01-31 14:00","2018","01","31","14:00","-28.0","","-31.6","","72","","","","30","","15","","24.1","","100.95","","","","-39","","Mostly Cloudy"
"-111.96","60.02","FORT SMITH A","2202201","2018-01-31 15:00","2018","01","31","15:00","-28.7","","-32.1","","73","","","","30","","12","","24.1","","101.00","","","","-39","","NA"
"-111.96","60.02","FORT SMITH A","2202201","2018-01-31 16:00","2018","01","31","16:00","-28.1","","-31.3","","74","","","","34","","7","","24.1","","101.03","","","","-35","","NA"
"-111.96","60.02","FORT SMITH A","2202201","2018-01-31 17:00","2018","01","31","17:00","-29.1","","-32.3","","74","","","","34","","8","","24.1","","101.04","","","","-37","","Mostly Cloudy"
"-111.96","60.02","FORT SMITH A","2202201","2018-01-31 18:00","2018","01","31","18:00","-29.7","","-32.8","","75","","","","31","","6","","24.1","","101.07","","","","-36","","NA"
"-111.96","60.02","FORT SMITH A","2202201","2018-01-31 19:00","2018","01","31","19:00","-30.4","","-33.4","","76","","","","31","","6","","24.1","","101.07","","","","-37","","NA"
"-111.96","60.02","FORT SMITH A","2202201","2018-01-31 20:00","2018","01","31","20:00","-31.1","","-34.2","","75","","","","31","","9","","24.1","","101.04","","","","-40","","Mainly Clear"
"-111.96","60.02","FORT SMITH A","2202201","2018-01-31 21:00","2018","01","31","21:00","-31.5","","-34.6","","74","","","","30","","8","","24.1","","101.04","","","","-40","","NA"
"-111.96","60.02","FORT SMITH A","2202201","2018-01-31 22:00","2018","01","31","22:00","-31.5","","-34.7","","74","","","","30","","7","","24.1","","101.04","","","","-39","","NA"
"-111.96","60.02","FORT SMITH A","2202201","2018-01-31 23:00","2018","01","31","23:00","-32.3","","-35.5","","74","","","","30","","9","","24.1","","101.05","","","","-41","","Mostly Cloudy"
