"Longitude (x)","Latitude (y)","Station Name","Climate ID","Date/Time (LST)","Year","Month","Day","Time (LST)","Temp (°C)","Temp Flag","Dew Point Temp (°C)","Dew Point Temp Flag","Rel Hum (%)","Rel Hum Flag","Precip. Amount (mm)","Precip. Amount Flag","Wind Dir (10s deg)","Wind Dir Flag","Wind Spd (km/h)","Wind Spd Flag","Visibility (km)","Visibility Flag","Stn Press (kPa)","Stn Press Flag","Hmdx","Hmdx Flag","Wind Chill","Wind Chill Flag","Weather"
"-111.96","60.02","FORT SMITH A","2202201","2019-04-01 00:00","2019","04","01","00:00","0.4","","-0.2","","96","","","","28","","12","","4.0","","99.01","","","","","","Snow"
"-111.96","60.02","FORT SMITH A","2202201","2019-04-01 01:00","2019","04","01","01:00","0.5","","-0.4","","94","","","","31","","19","","19.3","","99.05","","","","","","Snow"
"-111.96","60.02","FORT SMITH A","2202201","2019-04-01 02:00","2019","04","01","02:00","0.0","","-2.0","","87","","","","31","","17","","24.1","","99.08","","","","-5","","Cloudy"
"-111.96","60.02","FORT SMITH A","2202201","2019-04-01 03:00","2019","04","01","03:00","-0.3","","-3.4","","80","","","","31","","18","","24.1","","99.11","","","","-5","","NA"
"-111.96","60.02","FORT SMITH A","2202201","2019-04-01 04:00","2019","04","01","04:00","-0.7","","-4.2","","77","","","","30","","22","","24.1","","99.12","","","","-6","","NA"
"-111.96","60.02","FORT SMITH A","2202201","2019-04-01 05:00","2019","04","01","05:00","-0.9","","-5.5","","71","","","","31","","20","","24.1","","99.13","","","","-6","","Mostly Cloudy"
"-111.96","60.02","FORT SMITH A","2202201","2019-04-01 06:00","2019","04","01","06:00","-2.3","","-7.3","","69","","","","32","","19","","24.1","","99.17","","","","-8","","NA"
"-111.96","60.02","FORT SMITH A","2202201","2019-04-01 07:00","2019","04","01","07:00","-3.0","","-7.9","","69","","","","34","","24","","24.1","","99.22","","","","-10","","NA"
"-111.96","60.02","FORT SMITH A","2202201","2019-04-01 08:00","2019","04","01","08:00","-3.9","","-8.7","","69","","","","35","","24","","9.7","","99.27","","","","-11","","Snow"
"-111.96","60.02","FORT SMITH A","2202201","2019-04-01 09:00","2019","04","01","09:00","-3.9","","-8.2","","72","","","","35","","23","","4.8","","99.30","","","","-11","","Snow"
"-111.96","60.02","FORT SMITH A","2202201","2019-04-01 10:00","2019","04","01","10:00","-4.3","","-9.6","","67","","","","30","","26","","19.3","","99.33","","","","-12","","Snow"
"-111.96","60.02","FORT SMITH A","2202201","2019-04-01 11:00","2019","04","01","11:00","-3.7","","-9.7","","63","","","","33","","22","","24.1","","99.33","","","","-10","","Snow"
"-111.96","60.02","FORT SMITH A","2202201","2019-04-01 12:00","2019","04","01","12:00","-3.0","","-11.3","","53","","","","31","","29","","24.1","","99.38","","","","-10","","Snow"
"-111.96","60.02","FORT SMITH A","2202201","2019-04-01 13:00","2019","04","01","13:00","-2.5","","-13.3","","43","","","","33","","30","","24.1","","99.38","","","","-10","","NA"
"-111.96","60.02","FORT SMITH A","2202201","2019-04-01 14:00","2019","04","01","14:00","-2.6","","-13.7","","43","","","","30","","37","","24.1","","99.40","","","","-11","","Mainly Clear"
"-111.96","60.02","FORT SMITH A","2202201","2019-04-01 15:00","2019","04","01","15:00","-2.0","","-14.2","","39","","","","32","","23","","24.1","","99.41","","","","-8","","NA"
"-111.96","60.02","FORT SMITH A","2202201","2019-04-01 16:00","2019","04","01","16:00","-3.2","","-14.9","","40","","","","32","","25","","24.1","","99.42","","","","-10","","NA"
"-111.96","60.02","FORT SMITH A","2202201","2019-04-01 17:00","2019","04","01","17:00","-3.8","","-12.6","","51","","","","34","","23","","24.1","","99.42","","","","-11","","Mostly Cloudy"
"-111.96","60.02","FORT SMITH A","2202201","2019-04-01 18:00","2019","04","01","18:00","-4.2","","-11.2","","58","","","","32","","17","","24.1","","99.41","","","","-10","","Snow Showers"
"-111.96","60.02","FORT SMITH A","2202201","2019-04-01 19:00","2019","04","01","19:00","-4.2","","-12.4","","53","","","","32","","26","","24.1","","99.33","","","","-11","","Snow Showers"
"-111.96","60.02","FORT SMITH A","2202201","2019-04-01 20:00","2019","04","01","20:00","-5.6","","-10.4","","69","","","","36","","16","","24.1","","99.34","","","","-12","","Snow Showers"
"-111.96","60.02","FORT SMITH A","2202201","2019-04-01 21:00","2019","04","01","21:00","-5.8","","-11.5","","64","","","","34","","16","","24.1","","99.32","","","","-12","","Snow Showers"
"-111.96","60.02","FORT SMITH A","2202201","2019-04-01 22:00","2019","04","01","22:00","-6.3","","-13.2","","59","","","","33","","11","","24.1","","99.31","","","","-11","","Snow Showers"
"-111.96","60.02","FORT SMITH A","2202201","2019-04-01 23:00","2019","04","01","23:00","-7.0","","-13.4","","61","","","","33","","21","","24.1","","99.30","","","","-14","","Mostly Cloudy"
"-111.96","60.02","FORT SMITH A","2202201","2019-04-02 00:00","2019","04","02","00:00","-8.2","","-13.4","","66","","","","33","","23","","24.1","","99.33","","","","-16","","Snow"
"-111.96","60.02","FORT SMITH A","2202201","2019-04-02 01:00","2019","04","02","01:00","-9.0","","-13.8","","68","","","","33","","19","","24.1","","99.35","","","","-16","","NA"
"-111.96","60.02","FORT SMITH A","2202201","2019-04-02 02:00","2019","04","02","02:00","-9.9","","-13.4","","76","","","","34","","23","","19.3","","99.36","","","","-18","","Snow"
"-111.96","60.02","FORT SMITH A","2202201","2019-04-02 03:00","2019","04","02","03:00","-10.8","","-13.7","","79","","","","32","","13","","24.1","","99.39","","","","-17","","Snow"
"-111.96","60.02","FORT SMITH A","2202201","2019-04-02 04:00","2019","04","02","04:00","-11.5","","-14.9","","76","","","","33","","16","","24.1","","99.43","","","","-19","","Snow"
"-111.96","60.02","FORT SMITH A","2202201","2019-04-02 05:00","2019","04","02","05:00","-12.1","","-15.5","","76","","","","32","","14","","24.1","","99.44","","","","-19","","Snow Showers"
"-111.96","60.02","FORT SMITH A","2202201","2019-04-02 06:00","2019","04","02","06:00","-12.6","","-15.2","","81","","","","33","","11","","3.2","","99.46","","","","-19","","Snow Showers,Blowing Snow"
"-111.96","60.02","FORT SMITH A","2202201","2019-04-02 07:00","2019","04","02","07:00","-13.2","","-16.3","","78","","","","31","","16","","4.8","","99.46","","","","-21","","Snow Showers,Blowing Snow"
"-111.96","60.02","FORT SMITH A","2202201","2019-04-02 08:00","2019","04","02","08:00","-13.2","","-17.5","","71","","","","30","","18","","24.1","","99.47","","","","-21","","Snow Showers,Blowing Snow"
"-111.96","60.02","FORT SMITH A","2202201","2019-04-02 09:00","2019","04","02","09:00","-12.5","","-16.7","","71","","","","30","","24","","19.3","","99.46","","","","-22","","Snow Showers,Blowing Snow"
"-111.96","60.02","FORT SMITH A","2202201","2019-04-02 10:00","2019","04","02","10:00","-12.0","","-18.6","","59","","","","32","","23","","24.1","","99.47","","","","-21","","Snow Showers,Blowing Snow"
"-111.96","60.02","FORT SMITH A","2202201","2019-04-02 11:00","2019","04","02","11:00","-11.1","","-18.7","","54","","","","31","","19","","24.1","","99.46","","","","-19","","Snow Showers,Blowing Snow"
"-111.96","60.02","FORT SMITH A","2202201","2019-04-02 12:00","2019","04","02","12:00","-9.8","","-18.3","","50","","","","33","","24","","24.1","","99.42","","","","-18","","Blowing Snow"
"-111.96","60.02","FORT SMITH A","2202201","2019-04-02 13:00","2019","04","02","13:00","-9.2","","-18.3","","48","","","","30","","14","","24.1","","99.44","","","","-16","","NA"
"-111.96","60.02","FORT SMITH A","2202201","2019-04-02 14:00","2019","04","02","14:00","-8.9","","-18.4","","46","","","","30","","28","","24.1","","99.45","","","","-18","","Mostly Cloudy"
"-111.96","60.02","FORT SMITH A","2202201","2019-04-02 15:00","2019","04","02","15:00","-9.2","","-18.5","","47","","","","30","","25","","24.1","","99.44","","","","-18","","NA"
"-111.96","60.02","FORT SMITH A","2202201","2019-04-02 16:00","2019","04","02","16:00","-9.1","","-19.1","","44","","","","33","","16","","24.1","","99.45","","","","-16","","NA"
"-111.96","60.02","FORT SMITH A","2202201","2019-04-02 17:00","2019","04","02","17:00","-8.9","","-18.2","","47","","","","31","","21","","24.1","","99.44","","","","-17","","Mainly Clear"
"-111.96","60.02","FORT SMITH A","2202201","2019-04-02 18:00","2019","04","02","18:00","-9.7","","-18.2","","51","","","","35","","14","","24.1","","99.47","","","","-16","","NA"
"-111.96","60.02","FORT SMITH A","2202201","2019-04-02 19:00","2019","04","02","19:00","-10.7","","-18.2","","54","","","","32","","14","","24.1","","99.48","","","","-17","","NA"
"-111.96","60.02","FORT SMITH A","2202201","2019-04-02 20:00","2019","04","02","20:00","-11.8","","-18.2","","59","","","","33","","7","","24.1","","99.49","","","","-16","","Clear"
"-111.96","60.02","FORT SMITH A","2202201","2019-04-02 21:00","2019","04","02","21:00","-13.2","","-18.4","","66","","","","2","","10","","24.1","","99.51","","","","-19","","NA"
"-111.96","60.02","FORT SMITH A","2202201","2019-04-02 22:00","2019","04","02","22:00","-14.4","","-19.1","","68","","","","33","","3","","24.1","","99.52","","","","-17","","NA"
"-111.96","60.02","FORT SMITH A","2202201","2019-04-02 23:00","2019","04","02","23:00","-15.0","","-19.6","","68","","","","34","","5","","24.1","","99.53","","","","-19","","Clear"
"-111.96","60.02","FORT SMITH A","2202201","2019-04-03 00:00","2019","04","03","00:00","-16.4","","-20.0","","74","","","","36","","3","","24.1","","99.56","","","","-19","","NA"
"-111.96","60.02","FORT SMITH A","2202201","2019-04-03 01:00","2019","04","03","01:00","-16.9","","-20.2","","76","","","","36","","2","","24.1","","99.60","","","","-18","","NA"
"-111.96","60.02","FORT SMITH A","2202201","2019-04-03 02:00","2019","04","03","02:00","-17.0","","-20.0","","78","","","","36","","1","","24.1","","99.64","","","","-18","","Clear"
"-111.96","60.02","FORT SMITH A","2202201","2019-04-03 03:00","2019","04","03","03:00","-17.4","","-19.9","","81","","","","36","","2","","24.1","","99.62","","","","-19","","NA"
"-111.96","60.02","FORT SMITH A","2202201","2019-04-03 04:00","2019","04","03","04:00","-19.3","","-21.4","","84","","","","36","","1","","24.1","","99.63","","","","-20","","NA"
"-111.96","60.02","FORT SMITH A","2202201","2019-04-03 05:00","2019","04","03","05:00","-19.6","","-22.0","","82","","","","36","","2","","24.1","","99.66","","","","-21","","Mainly Clear"
"-111.96","60.02","FORT SMITH A","2202201","2019-04-03 06:00","2019","04","03","06:00","-19.9","","-22.3","","82","","","","36","","2","","24.1","","99.67","","","","-22","","NA"
"-111.96","60.02","FORT SMITH A","2202201","2019-04-03 07:00","2019","04","03","07:00","-18.3","","-20.8","","81","","","","0","","1","","24.1","","99.65","","","","-19","","NA"
"-111.96","60.02","FORT SMITH A","2202201","2019-04-03 08:00","2019","04","03","08:00","-15.9","","-19.2","","76","","","","15","","9","","24.1","","99.67","","","","-22","","Mostly Cloudy"
"-111.96","60.02","FORT SMITH A","2202201","2019-04-03 09:00","2019","04","03","09:00","-13.9","","-19.5","","63","","","","15","","7","","24.1","","99.63","","","","-19","","NA"
"-111.96","60.02","FORT SMITH A","2202201","2019-04-03 10:00","2019","04","03","10:00","-13.1","","-19.4","","59","","","","35","","5","","24.1","","99.61","","","","-16","","NA"
"-111.96","60.02","FORT SMITH A","2202201","2019-04-03 11:00","2019","04","03","11:00","-12.0","","-20.4","","50","","","","8","","7","","24.1","","99.61","","","","-16","","Mostly Cloudy"
"-111.96","60.02","FORT SMITH A","2202201","2019-04-03 12:00","2019","04","03","12:00","-11.1","","-19.8","","49","","","","34","","4","","24.1","","99.60","","","","-14","","NA"
"-111.96","60.02","FORT SMITH A","2202201","2019-04-03 13:00","2019","04","03","13:00","-10.2","","-19.1","","49","","","","4","","7","","24.1","","99.55","","","","-14","","NA"
"-111.96","60.02","FORT SMITH A","2202201","2019-04-03 14:00","2019","04","03","14:00","-9.4","","-18.6","","47","","","","18","","4","","24.1","","99.51","","","","-12","","Mostly Cloudy"
"-111.96","60.02","FORT SMITH A","2202201","2019-04-03 15:00","2019","04","03","15:00","-8.7","","-18.8","","45","","","","2","","6","","24.1","","99.47","","","","-12","","NA"
"-111.96","60.02","FORT SMITH A","2202201","2019-04-03 16:00","2019","04","03","16:00","-8.7","","-19.3","","43","","","","8","","5","","24.1","","99.44","","","","-11","","NA"
"-111.96","60.02","FORT SMITH A","2202201","2019-04-03 17:00","2019","04","03","17:00","-8.3","","-18.7","","43","","","","28","","4","","24.1","","99.43","","","","-10","","Cloudy"
"-111.96","60.02","FORT SMITH A","2202201","2019-04-03 18:00","2019","04","03","18:00","-8.6","","-16.6","","53","","","","36","","10","","24.1","","99.43","","","","-14","","NA"
"-111.96","60.02","FORT SMITH A","2202201","2019-04-03 19:00","2019","04","03","19:00","-9.4","","-17.2","","53","","","","36","","6","","24.1","","99.44","","","","-13","","NA"
"-111.96","60.02","FORT SMITH A","2202201","2019-04-03 20:00","2019","04","03","20:00","-10.3","","-17.2","","57","","","","35","","8","","24.1","","99.47","","","","-15","","Cloudy"
"-111.96","60.02","FORT SMITH A","2202201","2019-04-03 21:00","2019","04","03","21:00","-11.2","","-17.2","","61","","","","36","","7","","24.1","","99.49","","","","-15","","NA"
"-111.96","60.02","FORT SMITH A","2202201","2019-04-03 22:00","2019","04","03","22:00","-12.6","","-18.4","","62","","","","35","","13","","24.1","","99.55","","","","-19","","NA"
"-111.96","60.02","FORT SMITH A","2202201","2019-04-03 23:00","2019","04","03","23:00","-14.0","","-21.4","","54","","","","36","","10","","24.1","","99.61","","","","-20","","Cloudy"
"-111.96","60.02","FORT SMITH A","2202201","2019-04-04 00:00","2019","04","04","00:00","-14.8","","-21.8","","56","","","","34","","10","","24.1","","99.65","","","","-21","","NA"
"-111.96","60.02","FORT SMITH A","2202201","2019-04-04 01:00","2019","04","04","01:00","-15.8","","-22.1","","59","","","","35","","12","","24.1","","99.69","","","","-23","","NA"
"-111.96","60.02","FORT SMITH A","2202201","2019-04-04 02:00","2019","04","04","02:00","-16.7","","-21.7","","66","","","","34","","9","","24.1","","99.72","","","","-23","","Mainly Clear"
"-111.96","60.02","FORT SMITH A","2202201","2019-04-04 03:00","2019","04","04","03:00","-17.4","","-21.7","","70","","","","33","","8","","24.1","","99.74","","","","-23","","NA"
"-111.96","60.02","FORT SMITH A","2202201","2019-04-04 04:00","2019","04","04","04:00","-18.2","","-22.0","","73","","","","31","","9","","24.1","","99.77","","","","-25","","NA"
"-111.96","60.02","FORT SMITH A","2202201","2019-04-04 05:00","2019","04","04","05:00","-19.3","","-22.3","","77","","","","30","","8","","24.1","","99.79","","","","-25","","Clear"
"-111.96","60.02","FORT SMITH A","2202201","2019-04-04 06:00","2019","04","04","06:00","-19.7","","-22.4","","79","","","","32","","9","","24.1","","99.83","","","","-26","","NA"
"-111.96","60.02","FORT SMITH A","2202201","2019-04-04 07:00","2019","04","04","07:00","-19.2","","-22.1","","78","","","","31","","9","","24.1","","99.89","","","","-26","","NA"
"-111.96","60.02","FORT SMITH A","2202201","2019-04-04 08:00","2019","04","04","08:00","-17.8","","-21.6","","72","","","","34","","5","","24.1","","99.95","","","","-22","","Mainly Clear"
"-111.96","60.02","FORT SMITH A","2202201","2019-04-04 09:00","2019","04","04","09:00","-15.2","","-21.5","","59","","","","35","","9","","24.1","","99.95","","","","-21","","NA"
"-111.96","60.02","FORT SMITH A","2202201","2019-04-04 10:00","2019","04","04","10:00","-13.7","","-22.4","","49","","","","35","","7","","24.1","","99.96","","","","-18","","NA"
"-111.96","60.02","FORT SMITH A","2202201","2019-04-04 11:00","2019","04","04","11:00","-12.4","","-21.6","","47","","","","34","","18","","24.1","","99.94","","","","-20","","Mostly Cloudy"
"-111.96","60.02","FORT SMITH A","2202201","2019-04-04 12:00","2019","04","04","12:00","-11.3","","-21.3","","44","","","","27","","15","","24.1","","99.92","","","","-18","","NA"
"-111.96","60.02","FORT SMITH A","2202201","2019-04-04 13:00","2019","04","04","13:00","-10.5","","-21.2","","42","","","","26","","16","","24.1","","99.90","","","","-18","","NA"
"-111.96","60.02","FORT SMITH A","2202201","2019-04-04 14:00","2019","04","04","14:00","-10.0","","-20.5","","43","","","","32","","14","","24.1","","99.86","","","","-16","","Mainly Clear"
"-111.96","60.02","FORT SMITH A","2202201","2019-04-04 15:00","2019","04","04","15:00","-9.2","","-20.0","","42","","","","29","","17","","24.1","","99.85","","","","-16","","NA"
"-111.96","60.02","FORT SMITH A","2202201","2019-04-04 16:00","2019","04","04","16:00","-9.0","","-20.3","","40","","","","30","","15","","24.1","","99.81","","","","-16","","NA"
"-111.96","60.02","FORT SMITH A","2202201","2019-04-04 17:00","2019","04","04","17:00","-9.0","","-21.9","","35","","","","30","","10","","24.1","","99.78","","","","-14","","Clear"
"-111.96","60.02","FORT SMITH A","2202201","2019-04-04 18:00","2019","04","04","18:00","-9.4","","-21.6","","37","","","","29","","14","","24.1","","99.76","","","","-16","","NA"
"-111.96","60.02","FORT SMITH A","2202201","2019-04-04 19:00","2019","04","04","19:00","-10.5","","-22.4","","38","","","","30","","8","","24.1","","99.74","","","","-15","","NA"
"-111.96","60.02","FORT SMITH A","2202201","2019-04-04 20:00","2019","04","04","20:00","-12.0","","-23.1","","40","","","","33","","5","","24.1","","99.72","","","","-15","","Mainly Clear"
"-111.96","60.02","FORT SMITH A","2202201","2019-04-04 21:00","2019","04","04","21:00","-14.9","","-21.9","","56","","","","35","","7","","24.1","","99.72","","","","-20","","NA"
"-111.96","60.02","FORT SMITH A","2202201","2019-04-04 22:00","2019","04","04","22:00","-16.2","","-22.2","","60","","","","16","","4","","24.1","","99.73","","","","-19","","NA"
"-111.96","60.02","FORT SMITH A","2202201","2019-04-04 23:00","2019","04","04","23:00","-17.2","","-22.8","","63","","","","36","","1","","24.1","","99.71","","","","-18","","Clear"
"-111.96","60.02","FORT SMITH A","2202201","2019-04-05 00:00","2019","04","05","00:00","-18.8","","-23.6","","67","","","","36","","1","","24.1","","99.70","","","","-20","","NA"
"-111.96","60.02","FORT SMITH A","2202201","2019-04-05 01:00","2019","04","05","01:00","-19.5","","-23.7","","70","","","","36","","2","","24.1","","99.72","","","","-21","","NA"
"-111.96","60.02","FORT SMITH A","2202201","2019-04-05 02:00","2019","04","05","02:00","-20.2","","-24.5","","69","","","","18","","3","","24.1","","99.72","","","","-23","","Clear"
"-111.96","60.02","FORT SMITH A","2202201","2019-04-05 03:00","2019","04","05","03:00","-21.3","","-24.7","","75","","","","0","","1","","24.1","","99.68","","","","-22","","NA"
"-111.96","60.02","FORT SMITH A","2202201","2019-04-05 04:00","2019","04","05","04:00","-21.4","","-24.7","","75","","","","17","","3","","24.1","","99.66","","","","-24","","NA"
"-111.96","60.02","FORT SMITH A","2202201","2019-04-05 05:00","2019","04","05","05:00","-21.8","","-24.9","","76","","","","36","","2","","24.1","","99.64","","","","-24","","Clear"
"-111.96","60.02","FORT SMITH A","2202201","2019-04-05 06:00","2019","04","05","06:00","-21.6","","-24.7","","76","","","","36","","1","","24.1","","99.60","","","","-22","","NA"
"-111.96","60.02","FORT SMITH A","2202201","2019-04-05 07:00","2019","04","05","07:00","-18.9","","-22.8","","72","","","","16","","6","","24.1","","99.60","","","","-24","","NA"
"-111.96","60.02","FORT SMITH A","2202201","2019-04-05 08:00","2019","04","05","08:00","-14.4","","-21.0","","58","","","","20","","4","","24.1","","99.56","","","","-17","","Clear"
"-111.96","60.02","FORT SMITH A","2202201","2019-04-05 09:00","2019","04","05","09:00","-10.6","","-20.1","","46","","","","24","","4","","24.1","","99.54","","","","-13","","NA"
"-111.96","60.02","FORT SMITH A","2202201","2019-04-05 10:00","2019","04","05","10:00","-8.9","","-20.6","","39","","","","23","","5","","24.1","","99.51","","","","-12","","NA"
"-111.96","60.02","FORT SMITH A","2202201","2019-04-05 11:00","2019","04","05","11:00","-7.6","","-21.5","","33","","","","30","","5","","24.1","","99.49","","","","-10","","Clear"
"-111.96","60.02","FORT SMITH A","2202201","2019-04-05 12:00","2019","04","05","12:00","-6.0","","-20.1","","32","","","","5","","5","","24.1","","99.45","","","","-8","","NA"
"-111.96","60.02","FORT SMITH A","2202201","2019-04-05 13:00","2019","04","05","13:00","-5.1","","-20.4","","30","","","","30","","9","","24.1","","99.39","","","","-9","","NA"
"-111.96","60.02","FORT SMITH A","2202201","2019-04-05 14:00","2019","04","05","14:00","-4.6","","-21.5","","26","","","","36","","1","","24.1","","99.34","","","","-5","","Clear"
"-111.96","60.02","FORT SMITH A","2202201","2019-04-05 15:00","2019","04","05","15:00","-3.4","","-20.5","","26","","","","4","","5","","24.1","","99.28","","","","-5","","NA"
"-111.96","60.02","FORT SMITH A","2202201","2019-04-05 16:00","2019","04","05","16:00","-3.1","","-19.2","","28","","","","3","","10","","24.1","","99.23","","","","-7","","NA"
"-111.96","60.02","FORT SMITH A","2202201","2019-04-05 17:00","2019","04","05","17:00","-2.9","","-20.8","","24","","","","36","","2","","24.1","","99.21","","","","-4","","Mainly Clear"
"-111.96","60.02","FORT SMITH A","2202201","2019-04-05 18:00","2019","04","05","18:00","-2.9","","-20.4","","25","","","","36","","3","","24.1","","99.18","","","","-4","","NA"
"-111.96","60.02","FORT SMITH A","2202201","2019-04-05 19:00","2019","04","05","19:00","-4.6","","-19.9","","29","","","","7","","4","","24.1","","99.17","","","","-6","","NA"
"-111.96","60.02","FORT SMITH A","2202201","2019-04-05 20:00","2019","04","05","20:00","-7.1","","-19.6","","37","","","","7","","4","","24.1","","99.17","","","","-9","","Mostly Cloudy"
"-111.96","60.02","FORT SMITH A","2202201","2019-04-05 21:00","2019","04","05","21:00","-8.2","","-19.1","","42","","","","9","","4","","24.1","","99.19","","","","-10","","NA"
"-111.96","60.02","FORT SMITH A","2202201","2019-04-05 22:00","2019","04","05","22:00","-8.0","","-19.4","","40","","","","9","","3","","24.1","","99.17","","","","-10","","NA"
"-111.96","60.02","FORT SMITH A","2202201","2019-04-05 23:00","2019","04","05","23:00","-8.5","","-19.1","","43","","","","10","","4","","24.1","","99.18","","","","-11","","Mainly Clear"
"-111.96","60.02","FORT SMITH A","2202201","2019-04-06 00:00","2019","04","06","00:00","-9.2","","-18.0","","49","","","","8","","5","","24.1","","99.16","","","","-12","","NA"
"-111.96","60.02","FORT SMITH A","2202201","2019-04-06 01:00","2019","04","06","01:00","-9.8","","-18.1","","51","","","","13","","4","","24.1","","99.15","","","","-12","","NA"
"-111.96","60.02","FORT SMITH A","2202201","2019-04-06 02:00","2019","04","06","02:00","-9.8","","-18.3","","50","","","","10","","5","","24.1","","99.16","","","","-13","","Mainly Clear"
"-111.96","60.02","FORT SMITH A","2202201","2019-04-06 03:00","2019","04","06","03:00","-10.0","","-18.1","","52","","","","11","","5","","24.1","","99.11","","","","-13","","NA"
"-111.96","60.02","FORT SMITH A","2202201","2019-04-06 04:00","2019","04","06","04:00","-10.1","","-18.3","","52","","","","9","","7","","24.1","","99.08","","","","-14","","NA"
"-111.96","60.02","FORT SMITH A","2202201","2019-04-06 05:00","2019","04","06","05:00","-10.0","","-18.3","","51","","","","11","","4","","24.1","","99.06","","","","-12","","Mostly Cloudy"
"-111.96","60.02","FORT SMITH A","2202201","2019-04-06 06:00","2019","04","06","06:00","-9.5","","-18.0","","50","","","","10","","8","","19.3","","98.97","","","","-14","","NA"
"-111.96","60.02","FORT SMITH A","2202201","2019-04-06 07:00","2019","04","06","07:00","-9.5","","-18.0","","50","","","","10","","8","","24.1","","98.93","","","","-14","","NA"
"-111.96","60.02","FORT SMITH A","2202201","2019-04-06 08:00","2019","04","06","08:00","-8.1","","-17.1","","49","","","","10","","4","","24.1","","98.92","","","","-10","","Mostly Cloudy"
"-111.96","60.02","FORT SMITH A","2202201","2019-04-06 09:00","2019","04","06","09:00","-5.8","","-16.5","","43","","","","9","","13","","24.1","","98.85","","","","-11","","NA"
"-111.96","60.02","FORT SMITH A","2202201","2019-04-06 10:00","2019","04","06","10:00","-4.0","","-14.4","","44","","","","10","","8","","24.1","","98.77","","","","-7","","NA"
"-111.96","60.02","FORT SMITH A","2202201","2019-04-06 11:00","2019","04","06","11:00","-3.4","","-12.8","","49","","","","12","","13","","24.1","","98.74","","","","-8","","Cloudy"
"-111.96","60.02","FORT SMITH A","2202201","2019-04-06 12:00","2019","04","06","12:00","-2.5","","-11.0","","52","","","","11","","10","","24.1","","98.71","","","","-6","","NA"
"-111.96","60.02","FORT SMITH A","2202201","2019-04-06 13:00","2019","04","06","13:00","-1.8","","-9.2","","57","","","","10","","17","","24.1","","98.63","","","","-7","","NA"
"-111.96","60.02","FORT SMITH A","2202201","2019-04-06 14:00","2019","04","06","14:00","-1.0","","-8.0","","59","","","","9","","11","","24.1","","98.57","","","","-5","","Cloudy"
"-111.96","60.02","FORT SMITH A","2202201","2019-04-06 15:00","2019","04","06","15:00","-0.9","","-8.2","","58","","","","13","","11","","24.1","","98.55","","","","-5","","NA"
"-111.96","60.02","FORT SMITH A","2202201","2019-04-06 16:00","2019","04","06","16:00","-0.9","","-8.4","","57","","","","12","","12","","24.1","","98.50","","","","-5","","NA"
"-111.96","60.02","FORT SMITH A","2202201","2019-04-06 17:00","2019","04","06","17:00","-1.1","","-8.3","","58","","","","11","","12","","24.1","","98.48","","","","-5","","Cloudy"
"-111.96","60.02","FORT SMITH A","2202201","2019-04-06 18:00","2019","04","06","18:00","-1.3","","-8.1","","60","","","","11","","9","","24.1","","98.44","","","","-5","","NA"
"-111.96","60.02","FORT SMITH A","2202201","2019-04-06 19:00","2019","04","06","19:00","-1.4","","-8.2","","60","","","","11","","11","","24.1","","98.40","","","","-5","","NA"
"-111.96","60.02","FORT SMITH A","2202201","2019-04-06 20:00","2019","04","06","20:00","-1.6","","-8.2","","61","","","","10","","9","","24.1","","98.41","","","","-5","","Cloudy"
"-111.96","60.02","FORT SMITH A","2202201","2019-04-06 21:00","2019","04","06","21:00","-1.6","","-8.2","","61","","","","12","","8","","24.1","","98.42","","","","-5","","NA"
"-111.96","60.02","FORT SMITH A","2202201","2019-04-06 22:00","2019","04","06","22:00","-2.0","","-6.5","","72","","","","13","","11","","19.3","","98.42","","","","-6","","Snow"
"-111.96","60.02","FORT SMITH A","2202201","2019-04-06 23:00","2019","04","06","23:00","-2.1","","-6.3","","73","","","","11","","10","","19.3","","98.40","","","","-6","","Snow"
"-111.96","60.02","FORT SMITH A","2202201","2019-04-07 00:00","2019","04","07","00:00","-2.5","","-5.5","","80","","","","13","","9","","19.3","","98.37","","","","-6","","Snow"
"-111.96","60.02","FORT SMITH A","2202201","2019-04-07 01:00","2019","04","07","01:00","-3.0","","-4.5","","89","","","","12","","11","","16.1","","98.34","","","","-7","","Snow"
"-111.96","60.02","FORT SMITH A","2202201","2019-04-07 02:00","2019","04","07","02:00","-3.2","","-4.6","","90","","","","11","","9","","9.7","","98.32","","","","-7","","Snow"
"-111.96","60.02","FORT SMITH A","2202201","2019-04-07 03:00","2019","04","07","03:00","-3.0","","-4.6","","89","","","","12","","9","","9.7","","98.29","","","","-7","","Snow,Blowing Snow"
"-111.96","60.02","FORT SMITH A","2202201","2019-04-07 04:00","2019","04","07","04:00","-3.2","","-4.7","","89","","","","13","","11","","24.1","","98.28","","","","-7","","Snow,Blowing Snow"
"-111.96","60.02","FORT SMITH A","2202201","2019-04-07 05:00","2019","04","07","05:00","-3.4","","-5.0","","89","","","","12","","13","","19.3","","98.26","","","","-8","","Snow,Blowing Snow"
"-111.96","60.02","FORT SMITH A","2202201","2019-04-07 06:00","2019","04","07","06:00","-3.6","","-5.2","","88","","","","12","","14","","24.1","","98.26","","","","-9","","Snow"
"-111.96","60.02","FORT SMITH A","2202201","2019-04-07 07:00","2019","04","07","07:00","-3.9","","-5.3","","90","","","","12","","9","","3.2","","98.25","","","","-8","","Snow"
"-111.96","60.02","FORT SMITH A","2202201","2019-04-07 08:00","2019","04","07","08:00","-3.8","","-5.4","","89","","","","12","","8","","3.2","","98.24","","","","-7","","Snow"
"-111.96","60.02","FORT SMITH A","2202201","2019-04-07 09:00","2019","04","07","09:00","-3.3","","-5.3","","86","","","","12","","10","","3.2","","98.23","","","","-7","","Snow"
"-111.96","60.02","FORT SMITH A","2202201","2019-04-07 10:00","2019","04","07","10:00","-2.5","","-4.8","","84","","","","14","","12","","4.0","","98.22","","","","-7","","Snow"
"-111.96","60.02","FORT SMITH A","2202201","2019-04-07 11:00","2019","04","07","11:00","-2.3","","-4.2","","87","","","","12","","10","","3.2","","98.22","","","","-6","","Snow"
"-111.96","60.02","FORT SMITH A","2202201","2019-04-07 12:00","2019","04","07","12:00","-1.9","","-4.0","","85","","","","12","","13","","3.2","","98.23","","","","-6","","Snow,Fog"
"-111.96","60.02","FORT SMITH A","2202201","2019-04-07 13:00","2019","04","07","13:00","-1.8","","-3.6","","88","","","","12","","10","","2.4","","98.25","","","","-5","","Snow,Fog"
"-111.96","60.02","FORT SMITH A","2202201","2019-04-07 14:00","2019","04","07","14:00","-1.6","","-3.4","","88","","","","10","","8","","1.2","","98.27","","","","-5","","Snow,Fog"
"-111.96","60.02","FORT SMITH A","2202201","2019-04-07 15:00","2019","04","07","15:00","-0.7","","-2.7","","87","","","","12","","10","","4.0","","98.25","","","","-4","","Snow,Fog"
"-111.96","60.02","FORT SMITH A","2202201","2019-04-07 16:00","2019","04","07","16:00","-0.1","","-2.5","","84","","","","14","","8","","4.0","","98.27","","","","-3","","Snow,Fog"
"-111.96","60.02","FORT SMITH A","2202201","2019-04-07 17:00","2019","04","07","17:00","0.4","","-2.4","","81","","","","13","","6","","19.3","","98.29","","","","","","Snow"
"-111.96","60.02","FORT SMITH A","2202201","2019-04-07 18:00","2019","04","07","18:00","0.3","","-4.0","","73","","","","12","","7","","24.1","","98.31","","","","","","Snow"
"-111.96","60.02","FORT SMITH A","2202201","2019-04-07 19:00","2019","04","07","19:00","-0.8","","-3.4","","83","","","","13","","11","","9.7","","98.34","","","","-5","","Snow"
"-111.96","60.02","FORT SMITH A","2202201","2019-04-07 20:00","2019","04","07","20:00","-1.1","","-3.5","","84","","","","12","","7","","9.7","","98.37","","","","-4","","Snow"
"-111.96","60.02","FORT SMITH A","2202201","2019-04-07 21:00","2019","04","07","21:00","-1.2","","-3.3","","86","","","","12","","7","","9.7","","98.40","","","","-4","","Snow"
"-111.96","60.02","FORT SMITH A","2202201","2019-04-07 22:00","2019","04","07","22:00","-1.2","","-3.2","","86","","","","13","","9","","24.1","","98.42","","","","-4","","Snow"
"-111.96","60.02","FORT SMITH A","2202201","2019-04-07 23:00","2019","04","07","23:00","-1.4","","-2.5","","92","","","","13","","9","","4.8","","98.43","","","","-5","","Snow"
"-111.96","60.02","FORT SMITH A","2202201","2019-04-08 00:00","2019","04","08","00:00","-1.4","","-2.4","","93","","","","12","","9","","19.3","","98.44","","","","-5","","Snow"
"-111.96","60.02","FORT SMITH A","2202201","2019-04-08 01:00","2019","04","08","01:00","-1.4","","-2.5","","93","","","","12","","9","","19.3","","98.45","","","","-5","","Snow"
"-111.96","60.02","FORT SMITH A","2202201","2019-04-08 02:00","2019","04","08","02:00","-1.7","","-2.6","","93","","","","13","","8","","19.3","","98.49","","","","-5","","Cloudy"
"-111.96","60.02","FORT SMITH A","2202201","2019-04-08 03:00","2019","04","08","03:00","-1.8","","-3.0","","92","","","","12","","10","","19.3","","98.52","","","","-5","","Snow"
"-111.96","60.02","FORT SMITH A","2202201","2019-04-08 04:00","2019","04","08","04:00","-2.0","","-3.5","","90","","","","13","","11","","24.1","","98.55","","","","-6","","Snow"
"-111.96","60.02","FORT SMITH A","2202201","2019-04-08 05:00","2019","04","08","05:00","-2.2","","-3.7","","89","","","","13","","10","","24.1","","98.60","","","","-6","","Cloudy"
"-111.96","60.02","FORT SMITH A","2202201","2019-04-08 06:00","2019","04","08","06:00","-2.5","","-4.1","","89","","","","14","","13","","24.1","","98.63","","","","-7","","NA"
"-111.96","60.02","FORT SMITH A","2202201","2019-04-08 07:00","2019","04","08","07:00","-2.7","","-5.0","","85","","","","14","","17","","24.1","","98.68","","","","-8","","Snow"
"-111.96","60.02","FORT SMITH A","2202201","2019-04-08 08:00","2019","04","08","08:00","-2.8","","-5.4","","83","","","","14","","12","","24.1","","98.71","","","","-7","","Snow"
"-111.96","60.02","FORT SMITH A","2202201","2019-04-08 09:00","2019","04","08","09:00","-2.5","","-5.5","","80","","","","15","","17","","24.1","","98.73","","","","-8","","Snow"
"-111.96","60.02","FORT SMITH A","2202201","2019-04-08 10:00","2019","04","08","10:00","-2.3","","-5.4","","79","","","","14","","16","","24.1","","98.75","","","","-7","","Snow"
"-111.96","60.02","FORT SMITH A","2202201","2019-04-08 11:00","2019","04","08","11:00","-1.6","","-4.8","","79","","","","14","","13","","24.1","","98.77","","","","-6","","Snow"
"-111.96","60.02","FORT SMITH A","2202201","2019-04-08 12:00","2019","04","08","12:00","-0.8","","-4.4","","76","","","","14","","16","","24.1","","98.79","","","","-6","","Snow"
"-111.96","60.02","FORT SMITH A","2202201","2019-04-08 13:00","2019","04","08","13:00","0.2","","-3.8","","75","","","","14","","15","","24.1","","98.80","","","","","","Snow"
"-111.96","60.02","FORT SMITH A","2202201","2019-04-08 14:00","2019","04","08","14:00","1.6","","-3.3","","70","","","","15","","14","","24.1","","98.78","","","","","","Mostly Cloudy"
"-111.96","60.02","FORT SMITH A","2202201","2019-04-08 15:00","2019","04","08","15:00","2.2","","-2.8","","70","","","","14","","18","","24.1","","98.79","","","","","","NA"
"-111.96","60.02","FORT SMITH A","2202201","2019-04-08 16:00","2019","04","08","16:00","2.9","","-1.7","","71","","","","16","","14","","24.1","","98.78","","","","","","NA"
"-111.96","60.02","FORT SMITH A","2202201","2019-04-08 17:00","2019","04","08","17:00","2.4","","-1.8","","74","","","","16","","19","","24.1","","98.81","","","","","","Mostly Cloudy"
"-111.96","60.02","FORT SMITH A","2202201","2019-04-08 18:00","2019","04","08","18:00","2.1","","-1.3","","78","","","","17","","21","","24.1","","98.84","","","","","","NA"
"-111.96","60.02","FORT SMITH A","2202201","2019-04-08 19:00","2019","04","08","19:00","1.9","","-1.2","","80","","","","16","","18","","24.1","","98.82","","","","","","NA"
"-111.96","60.02","FORT SMITH A","2202201","2019-04-08 20:00","2019","04","08","20:00","0.8","","-1.4","","85","","","","16","","13","","24.1","","98.83","","","","","","Mainly Clear"
"-111.96","60.02","FORT SMITH A","2202201","2019-04-08 21:00","2019","04","08","21:00","0.0","","-1.6","","89","","","","14","","12","","24.1","","98.85","","","","-4","","NA"
"-111.96","60.02","FORT SMITH A","2202201","2019-04-08 22:00","2019","04","08","22:00","-1.1","","-3.9","","81","","","","13","","10","","24.1","","98.83","","","","-5","","NA"
"-111.96","60.02","FORT SMITH A","2202201","2019-04-08 23:00","2019","04","08","23:00","-1.4","","-3.6","","85","","","","14","","14","","24.1","","98.81","","","","-6","","Mainly Clear"
"-111.96","60.02","FORT SMITH A","2202201","2019-04-09 00:00","2019","04","09","00:00","-1.6","","-3.3","","88","","","","14","","13","","24.1","","98.80","","","","-6","","NA"
"-111.96","60.02","FORT SMITH A","2202201","2019-04-09 01:00","2019","04","09","01:00","-1.3","","-2.9","","89","","","","14","","13","","24.1","","98.83","","","","-6","","NA"
"-111.96","60.02","FORT SMITH A","2202201","2019-04-09 02:00","2019","04","09","02:00","-1.3","","-2.6","","91","","","","15","","16","","24.1","","98.81","","","","-6","","Mostly Cloudy"
"-111.96","60.02","FORT SMITH A","2202201","2019-04-09 03:00","2019","04","09","03:00","-0.9","","-2.2","","92","","","","16","","14","","24.1","","98.82","","","","-5","","NA"
"-111.96","60.02","FORT SMITH A","2202201","2019-04-09 04:00","2019","04","09","04:00","-1.4","","-2.5","","92","","","","15","","13","","24.1","","98.83","","","","-6","","NA"
"-111.96","60.02","FORT SMITH A","2202201","2019-04-09 05:00","2019","04","09","05:00","-1.1","","-2.0","","93","","","","16","","15","","24.1","","98.86","","","","-6","","Cloudy"
"-111.96","60.02","FORT SMITH A","2202201","2019-04-09 06:00","2019","04","09","06:00","-1.2","","-1.7","","96","","","","13","","11","","6.4","","98.82","","","","-5","","Fog"
"-111.96","60.02","FORT SMITH A","2202201","2019-04-09 07:00","2019","04","09","07:00","-0.8","","-1.2","","97","","","","15","","13","","4.8","","98.89","","","","-5","","Fog"
"-111.96","60.02","FORT SMITH A","2202201","2019-04-09 08:00","2019","04","09","08:00","-0.1","","-0.8","","95","","","","15","","16","","16.1","","98.89","","","","-5","","Cloudy"
"-111.96","60.02","FORT SMITH A","2202201","2019-04-09 09:00","2019","04","09","09:00","1.6","","0.0","","89","","","","15","","12","","24.1","","98.92","","","","","","NA"
"-111.96","60.02","FORT SMITH A","2202201","2019-04-09 10:00","2019","04","09","10:00","2.2","","0.2","","87","","","","14","","16","","24.1","","98.94","","","","","","NA"
"-111.96","60.02","FORT SMITH A","2202201","2019-04-09 11:00","2019","04","09","11:00","3.5","","0.6","","81","","","","16","","21","","24.1","","98.95","","","","","","Mostly Cloudy"
"-111.96","60.02","FORT SMITH A","2202201","2019-04-09 12:00","2019","04","09","12:00","5.3","","1.2","","75","","","","17","","17","","24.1","","98.95","","","","","","NA"
"-111.96","60.02","FORT SMITH A","2202201","2019-04-09 13:00","2019","04","09","13:00","6.7","","1.2","","68","","","","17","","19","","24.1","","98.93","","","","","","NA"
"-111.96","60.02","FORT SMITH A","2202201","2019-04-09 14:00","2019","04","09","14:00","9.0","","1.6","","59","","","","16","","18","","24.1","","98.90","","","","","","Clear"
"-111.96","60.02","FORT SMITH A","2202201","2019-04-09 15:00","2019","04","09","15:00","10.5","","1.1","","52","","","","15","","19","","24.1","","98.87","","","","","","NA"
"-111.96","60.02","FORT SMITH A","2202201","2019-04-09 16:00","2019","04","09","16:00","10.3","","0.8","","52","","","","18","","17","","24.1","","98.91","","","","","","NA"
"-111.96","60.02","FORT SMITH A","2202201","2019-04-09 17:00","2019","04","09","17:00","10.1","","1.0","","53","","","","16","","16","","24.1","","98.93","","","","","","Mostly Cloudy"
"-111.96","60.02","FORT SMITH A","2202201","2019-04-09 18:00","2019","04","09","18:00","10.1","","0.3","","51","","","","16","","23","","24.1","","98.94","","","","","","NA"
"-111.96","60.02","FORT SMITH A","2202201","2019-04-09 19:00","2019","04","09","19:00","8.6","","0.1","","55","","","","15","","16","","24.1","","98.95","","","","","","NA"
"-111.96","60.02","FORT SMITH A","2202201","2019-04-09 20:00","2019","04","09","20:00","6.1","","-0.3","","63","","","","14","","9","","24.1","","99.00","","","","","","Mainly Clear"
"-111.96","60.02","FORT SMITH A","2202201","2019-04-09 21:00","2019","04","09","21:00","4.7","","-1.1","","66","","","","14","","13","","24.1","","99.04","","","","","","NA"
"-111.96","60.02","FORT SMITH A","2202201","2019-04-09 22:00","2019","04","09","22:00","3.3","","-1.5","","71","","","","14","","13","","24.1","","99.05","","","","","","NA"
"-111.96","60.02","FORT SMITH A","2202201","2019-04-09 23:00","2019","04","09","23:00","1.9","","-1.9","","76","","","","14","","10","","24.1","","99.04","","","","","","Mainly Clear"
"-111.96","60.02","FORT SMITH A","2202201","2019-04-10 00:00","2019","04","10","00:00","1.0","","-2.3","","79","","","","14","","10","","24.1","","99.04","","","","","","NA"
"-111.96","60.02","FORT SMITH A","2202201","2019-04-10 01:00","2019","04","10","01:00","0.6","","-2.4","","81","","","","14","","7","","24.1","","99.05","","","","","","NA"
"-111.96","60.02","FORT SMITH A","2202201","2019-04-10 02:00","2019","04","10","02:00","-0.4","","-2.6","","85","","","","14","","10","","24.1","","99.05","","","","-4","","Clear"
"-111.96","60.02","FORT SMITH A","2202201","2019-04-10 03:00","2019","04","10","03:00","-0.3","","-2.4","","86","","","","14","","10","","24.1","","99.04","","","","-4","","NA"
"-111.96","60.02","FORT SMITH A","2202201","2019-04-10 04:00","2019","04","10","04:00","-0.7","","-2.4","","88","","","","14","","10","","24.1","","99.03","","","","-4","","NA"
"-111.96","60.02","FORT SMITH A","2202201","2019-04-10 05:00","2019","04","10","05:00","-0.6","","-2.4","","88","","","","14","","8","","24.1","","99.04","","","","-3","","Mainly Clear"
"-111.96","60.02","FORT SMITH A","2202201","2019-04-10 06:00","2019","04","10","06:00","-0.6","","-2.3","","88","","","","13","","9","","24.1","","99.07","","","","-4","","NA"
"-111.96","60.02","FORT SMITH A","2202201","2019-04-10 07:00","2019","04","10","07:00","0.3","","-2.1","","84","","","","14","","12","","24.1","","99.08","","","","","","NA"
"-111.96","60.02","FORT SMITH A","2202201","2019-04-10 08:00","2019","04","10","08:00","2.6","","-1.2","","76","","","","15","","17","","24.1","","99.07","","","","","","Clear"
"-111.96","60.02","FORT SMITH A","2202201","2019-04-10 09:00","2019","04","10","09:00","5.0","","-1.0","","65","","","","15","","24","","24.1","","99.06","","","","","","NA"
"-111.96","60.02","FORT SMITH A","2202201","2019-04-10 10:00","2019","04","10","10:00","6.8","","-0.7","","59","","","","14","","13","","24.1","","99.05","","","","","","NA"
"-111.96","60.02","FORT SMITH A","2202201","2019-04-10 11:00","2019","04","10","11:00","8.5","","-0.6","","53","","","","14","","9","","24.1","","99.02","","","","","","Clear"
"-111.96","60.02","FORT SMITH A","2202201","2019-04-10 12:00","2019","04","10","12:00","9.7","","-0.4","","49","","","","9","","9","","24.1","","98.97","","","","","","NA"
"-111.96","60.02","FORT SMITH A","2202201","2019-04-10 13:00","2019","04","10","13:00","11.1","","-0.6","","44","","","","11","","9","","24.1","","98.95","","","","","","NA"
"-111.96","60.02","FORT SMITH A","2202201","2019-04-10 14:00","2019","04","10","14:00","11.8","","-0.8","","41","","","","12","","14","","24.1","","98.92","","","","","","Mainly Clear"
"-111.96","60.02","FORT SMITH A","2202201","2019-04-10 15:00","2019","04","10","15:00","11.7","","-0.5","","43","","","","10","","10","","24.1","","98.92","","","","","","NA"
"-111.96","60.02","FORT SMITH A","2202201","2019-04-10 16:00","2019","04","10","16:00","11.3","","-1.2","","42","","","","11","","13","","24.1","","98.91","","","","","","NA"
"-111.96","60.02","FORT SMITH A","2202201","2019-04-10 17:00","2019","04","10","17:00","10.6","","-0.9","","45","","","","10","","9","","24.1","","98.91","","","","","","Mainly Clear"
"-111.96","60.02","FORT SMITH A","2202201","2019-04-10 18:00","2019","04","10","18:00","9.4","","-1.0","","48","","","","10","","5","","24.1","","98.93","","","","","","NA"
"-111.96","60.02","FORT SMITH A","2202201","2019-04-10 19:00","2019","04","10","19:00","8.0","","-1.2","","52","","","","9","","8","","24.1","","98.95","","","","","","NA"
"-111.96","60.02","FORT SMITH A","2202201","2019-04-10 20:00","2019","04","10","20:00","6.2","","-1.5","","58","","","","10","","5","","24.1","","98.96","","","","","","Mostly Cloudy"
"-111.96","60.02","FORT SMITH A","2202201","2019-04-10 21:00","2019","04","10","21:00","5.0","","-1.4","","63","","","","12","","5","","24.1","","98.95","","","","","","NA"
"-111.96","60.02","FORT SMITH A","2202201","2019-04-10 22:00","2019","04","10","22:00","4.0","","-1.1","","70","","","","13","","6","","24.1","","98.96","","","","","","NA"
"-111.96","60.02","FORT SMITH A","2202201","2019-04-10 23:00","2019","04","10","23:00","3.5","","-0.9","","73","","","","13","","7","","24.1","","98.95","","","","","","Mainly Clear"
"-111.96","60.02","FORT SMITH A","2202201","2019-04-11 00:00","2019","04","11","00:00","2.9","","-0.8","","76","","","","15","","10","","24.1","","98.97","","","","","","NA"
"-111.96","60.02","FORT SMITH A","2202201","2019-04-11 01:00","2019","04","11","01:00","3.0","","-0.4","","78","","","","13","","7","","24.1","","98.99","","","","","","NA"
"-111.96","60.02","FORT SMITH A","2202201","2019-04-11 02:00","2019","04","11","02:00","2.5","","-0.6","","80","","","","14","","9","","24.1","","98.99","","","","","","Mainly Clear"
"-111.96","60.02","FORT SMITH A","2202201","2019-04-11 03:00","2019","04","11","03:00","1.9","","-0.9","","82","","","","12","","8","","24.1","","98.98","","","","","","NA"
"-111.96","60.02","FORT SMITH A","2202201","2019-04-11 04:00","2019","04","11","04:00","1.2","","-1.0","","86","","","","13","","8","","24.1","","99.02","","","","","","NA"
"-111.96","60.02","FORT SMITH A","2202201","2019-04-11 05:00","2019","04","11","05:00","0.6","","-1.1","","88","","","","14","","8","","24.1","","99.03","","","","","","Mainly Clear"
"-111.96","60.02","FORT SMITH A","2202201","2019-04-11 06:00","2019","04","11","06:00","-0.1","","-1.4","","91","","","","14","","8","","24.1","","99.08","","","","-3","","NA"
"-111.96","60.02","FORT SMITH A","2202201","2019-04-11 07:00","2019","04","11","07:00","1.3","","-0.8","","86","","","","14","","14","","24.1","","99.08","","","","","","NA"
"-111.96","60.02","FORT SMITH A","2202201","2019-04-11 08:00","2019","04","11","08:00","3.7","","0.6","","80","","","","14","","9","","24.1","","99.12","","","","","","Mostly Cloudy"
"-111.96","60.02","FORT SMITH A","2202201","2019-04-11 09:00","2019","04","11","09:00","6.3","","1.3","","70","","","","15","","11","","24.1","","99.10","","","","","","NA"
"-111.96","60.02","FORT SMITH A","2202201","2019-04-11 10:00","2019","04","11","10:00","8.6","","1.5","","61","","","","14","","12","","24.1","","99.12","","","","","","NA"
"-111.96","60.02","FORT SMITH A","2202201","2019-04-11 11:00","2019","04","11","11:00","9.8","","1.6","","56","","","","19","","7","","24.1","","99.11","","","","","","Mostly Cloudy"
"-111.96","60.02","FORT SMITH A","2202201","2019-04-11 12:00","2019","04","11","12:00","11.6","","1.2","","49","","","","12","","9","","24.1","","99.08","","","","","","NA"
"-111.96","60.02","FORT SMITH A","2202201","2019-04-11 13:00","2019","04","11","13:00","12.9","","1.2","","45","","","","13","","8","","24.1","","99.06","","","","","","NA"
"-111.96","60.02","FORT SMITH A","2202201","2019-04-11 14:00","2019","04","11","14:00","13.3","","0.8","","42","","","","8","","7","","24.1","","99.05","","","","","","Mostly Cloudy"
"-111.96","60.02","FORT SMITH A","2202201","2019-04-11 15:00","2019","04","11","15:00","13.7","","0.0","","39","","","","7","","9","","24.1","","99.03","","","","","","NA"
"-111.96","60.02","FORT SMITH A","2202201","2019-04-11 16:00","2019","04","11","16:00","12.7","","-0.9","","39","","","","9","","8","","24.1","","99.02","","","","","","NA"
"-111.96","60.02","FORT SMITH A","2202201","2019-04-11 17:00","2019","04","11","17:00","12.2","","-1.0","","40","","","","9","","5","","24.1","","99.01","","","","","","Thunderstorms"
"-111.96","60.02","FORT SMITH A","2202201","2019-04-11 18:00","2019","04","11","18:00","10.2","","-0.8","","46","","","","1","","14","","24.1","","99.06","","","","","","NA"
"-111.96","60.02","FORT SMITH A","2202201","2019-04-11 19:00","2019","04","11","19:00","8.2","","2.0","","65","","","","33","","10","","24.1","","99.13","","","","","","Thunderstorms,Rain Showers"
"-111.96","60.02","FORT SMITH A","2202201","2019-04-11 20:00","2019","04","11","20:00","6.4","","4.4","","87","","","","9","","7","","24.1","","99.18","","","","","","Rain Showers"
"-111.96","60.02","FORT SMITH A","2202201","2019-04-11 21:00","2019","04","11","21:00","6.3","","3.6","","83","","","","12","","4","","24.1","","99.19","","","","","","NA"
"-111.96","60.02","FORT SMITH A","2202201","2019-04-11 22:00","2019","04","11","22:00","5.9","","2.4","","78","","","","10","","5","","24.1","","99.08","","","","","","NA"
"-111.96","60.02","FORT SMITH A","2202201","2019-04-11 23:00","2019","04","11","23:00","4.1","","2.5","","90","","","","16","","10","","24.1","","99.05","","","","","","Mostly Cloudy"
"-111.96","60.02","FORT SMITH A","2202201","2019-04-12 00:00","2019","04","12","00:00","3.0","","1.4","","89","","","","16","","10","","24.1","","99.03","","","","","","NA"
"-111.96","60.02","FORT SMITH A","2202201","2019-04-12 01:00","2019","04","12","01:00","2.4","","1.0","","90","","","","16","","9","","24.1","","99.00","","","","","","NA"
"-111.96","60.02","FORT SMITH A","2202201","2019-04-12 02:00","2019","04","12","02:00","1.7","","0.7","","93","","","","15","","3","","24.1","","98.97","","","","","","Mainly Clear"
"-111.96","60.02","FORT SMITH A","2202201","2019-04-12 03:00","2019","04","12","03:00","0.4","","-0.2","","96","","","","15","","5","","24.1","","98.94","","","","","","NA"
"-111.96","60.02","FORT SMITH A","2202201","2019-04-12 04:00","2019","04","12","04:00","0.2","","-0.4","","96","","","","13","","7","","24.1","","98.89","","","","","","NA"
"-111.96","60.02","FORT SMITH A","2202201","2019-04-12 05:00","2019","04","12","05:00","0.8","","-0.2","","93","","","","15","","9","","24.1","","98.87","","","","","","Mainly Clear"
"-111.96","60.02","FORT SMITH A","2202201","2019-04-12 06:00","2019","04","12","06:00","0.7","","-0.4","","93","","","","14","","9","","24.1","","98.87","","","","","","NA"
"-111.96","60.02","FORT SMITH A","2202201","2019-04-12 07:00","2019","04","12","07:00","0.9","","-0.4","","91","","","","16","","4","","24.1","","98.85","","","","","","NA"
"-111.96","60.02","FORT SMITH A","2202201","2019-04-12 08:00","2019","04","12","08:00","2.8","","0.5","","85","","","","8","","4","","24.1","","98.78","","","","","","Mostly Cloudy"
"-111.96","60.02","FORT SMITH A","2202201","2019-04-12 09:00","2019","04","12","09:00","4.8","","1.6","","80","","","","16","","7","","24.1","","98.73","","","","","","NA"
"-111.96","60.02","FORT SMITH A","2202201","2019-04-12 10:00","2019","04","12","10:00","7.4","","2.1","","69","","","","12","","7","","24.1","","98.65","","","","","","NA"
"-111.96","60.02","FORT SMITH A","2202201","2019-04-12 11:00","2019","04","12","11:00","10.3","","2.9","","60","","","","20","","5","","24.1","","98.56","","","","","","Mostly Cloudy"
"-111.96","60.02","FORT SMITH A","2202201","2019-04-12 12:00","2019","04","12","12:00","12.1","","2.8","","53","","","","16","","10","","24.1","","98.46","","","","","","NA"
"-111.96","60.02","FORT SMITH A","2202201","2019-04-12 13:00","2019","04","12","13:00","13.9","","2.6","","46","","","","15","","6","","24.1","","98.39","","","","","","NA"
"-111.96","60.02","FORT SMITH A","2202201","2019-04-12 14:00","2019","04","12","14:00","14.4","","0.0","","37","","","","24","","6","","24.1","","98.30","","","","","","Mostly Cloudy"
"-111.96","60.02","FORT SMITH A","2202201","2019-04-12 15:00","2019","04","12","15:00","15.7","","-2.0","","30","","","","20","","25","","24.1","","98.23","","","","","","Rain Showers"
"-111.96","60.02","FORT SMITH A","2202201","2019-04-12 16:00","2019","04","12","16:00","12.6","","-1.1","","38","","","","28","","13","","19.3","","98.20","","","","","","Rain Showers"
"-111.96","60.02","FORT SMITH A","2202201","2019-04-12 17:00","2019","04","12","17:00","11.0","","0.5","","48","","","","31","","11","","24.1","","98.22","","","","","","Mostly Cloudy"
"-111.96","60.02","FORT SMITH A","2202201","2019-04-12 18:00","2019","04","12","18:00","10.4","","0.8","","51","","","","7","","10","","24.1","","98.16","","","","","","NA"
"-111.96","60.02","FORT SMITH A","2202201","2019-04-12 19:00","2019","04","12","19:00","8.9","","0.9","","57","","","","12","","5","","24.1","","98.15","","","","","","NA"
"-111.96","60.02","FORT SMITH A","2202201","2019-04-12 20:00","2019","04","12","20:00","7.2","","1.5","","67","","","","4","","4","","24.1","","98.11","","","","","","Rain Showers"
"-111.96","60.02","FORT SMITH A","2202201","2019-04-12 21:00","2019","04","12","21:00","6.4","","1.6","","71","","","","9","","6","","24.1","","98.04","","","","","","Rain Showers"
"-111.96","60.02","FORT SMITH A","2202201","2019-04-12 22:00","2019","04","12","22:00","6.1","","1.8","","74","","","","9","","7","","24.1","","97.98","","","","","","NA"
"-111.96","60.02","FORT SMITH A","2202201","2019-04-12 23:00","2019","04","12","23:00","5.4","","1.3","","75","","","","12","","5","","24.1","","97.93","","","","","","Mostly Cloudy"
"-111.96","60.02","FORT SMITH A","2202201","2019-04-13 00:00","2019","04","13","00:00","4.2","","0.7","","77","","","","10","","7","","24.1","","97.86","","","","","","NA"
"-111.96","60.02","FORT SMITH A","2202201","2019-04-13 01:00","2019","04","13","01:00","3.1","","0.2","","82","","","","11","","3","","24.1","","97.79","","","","","","NA"
"-111.96","60.02","FORT SMITH A","2202201","2019-04-13 02:00","2019","04","13","02:00","0.8","","-0.3","","92","","","","36","","3","","24.1","","97.76","","","","","","Mainly Clear"
"-111.96","60.02","FORT SMITH A","2202201","2019-04-13 03:00","2019","04","13","03:00","2.2","","-0.9","","80","","","","13","","8","","24.1","","97.72","","","","","","NA"
"-111.96","60.02","FORT SMITH A","2202201","2019-04-13 04:00","2019","04","13","04:00","1.5","","-1.4","","81","","","","15","","9","","24.1","","97.66","","","","","","NA"
"-111.96","60.02","FORT SMITH A","2202201","2019-04-13 05:00","2019","04","13","05:00","1.0","","-1.6","","82","","","","14","","9","","24.1","","97.61","","","","","","Mainly Clear"
"-111.96","60.02","FORT SMITH A","2202201","2019-04-13 06:00","2019","04","13","06:00","1.3","","-1.6","","81","","","","14","","8","","24.1","","97.58","","","","","","NA"
"-111.96","60.02","FORT SMITH A","2202201","2019-04-13 07:00","2019","04","13","07:00","1.7","","-1.4","","80","","","","15","","10","","24.1","","97.54","","","","","","NA"
"-111.96","60.02","FORT SMITH A","2202201","2019-04-13 08:00","2019","04","13","08:00","4.4","","-0.8","","69","","","","15","","11","","24.1","","97.50","","","","","","Mostly Cloudy"
"-111.96","60.02","FORT SMITH A","2202201","2019-04-13 09:00","2019","04","13","09:00","6.0","","-1.1","","60","","","","15","","12","","24.1","","97.45","","","","","","NA"
"-111.96","60.02","FORT SMITH A","2202201","2019-04-13 10:00","2019","04","13","10:00","9.3","","0.0","","52","","","","15","","11","","24.1","","97.40","","","","","","NA"
"-111.96","60.02","FORT SMITH A","2202201","2019-04-13 11:00","2019","04","13","11:00","12.5","","0.3","","43","","","","17","","13","","24.1","","97.32","","","","","","Mostly Cloudy"
"-111.96","60.02","FORT SMITH A","2202201","2019-04-13 12:00","2019","04","13","12:00","13.7","","-3.5","","30","","","","17","","24","","24.1","","97.27","","","","","","NA"
"-111.96","60.02","FORT SMITH A","2202201","2019-04-13 13:00","2019","04","13","13:00","14.1","","-4.7","","27","","","","15","","18","","24.1","","97.23","","","","","","NA"
"-111.96","60.02","FORT SMITH A","2202201","2019-04-13 14:00","2019","04","13","14:00","13.1","","-3.4","","32","","","","16","","20","","24.1","","97.19","","","","","","Mostly Cloudy"
"-111.96","60.02","FORT SMITH A","2202201","2019-04-13 15:00","2019","04","13","15:00","13.0","","-3.9","","30","","","","16","","16","","24.1","","97.16","","","","","","NA"
"-111.96","60.02","FORT SMITH A","2202201","2019-04-13 16:00","2019","04","13","16:00","13.0","","-3.0","","33","","","","16","","18","","24.1","","97.16","","","","","","NA"
"-111.96","60.02","FORT SMITH A","2202201","2019-04-13 17:00","2019","04","13","17:00","12.3","","-3.0","","34","","","","15","","16","","24.1","","97.18","","","","","","Mostly Cloudy"
"-111.96","60.02","FORT SMITH A","2202201","2019-04-13 18:00","2019","04","13","18:00","11.0","","-3.0","","37","","","","20","","15","","24.1","","97.23","","","","","","NA"
"-111.96","60.02","FORT SMITH A","2202201","2019-04-13 19:00","2019","04","13","19:00","9.7","","-1.1","","47","","","","12","","7","","24.1","","97.20","","","","","","NA"
"-111.96","60.02","FORT SMITH A","2202201","2019-04-13 20:00","2019","04","13","20:00","7.2","","-0.1","","60","","","","9","","9","","24.1","","97.16","","","","","","Mainly Clear"
"-111.96","60.02","FORT SMITH A","2202201","2019-04-13 21:00","2019","04","13","21:00","6.3","","0.1","","65","","","","10","","6","","24.1","","97.15","","","","","","NA"
"-111.96","60.02","FORT SMITH A","2202201","2019-04-13 22:00","2019","04","13","22:00","5.5","","-0.4","","66","","","","12","","4","","24.1","","97.14","","","","","","NA"
"-111.96","60.02","FORT SMITH A","2202201","2019-04-13 23:00","2019","04","13","23:00","1.3","","-1.2","","83","","","","36","","2","","24.1","","97.13","","","","","","Mainly Clear"
"-111.96","60.02","FORT SMITH A","2202201","2019-04-14 00:00","2019","04","14","00:00","-0.1","","-2.4","","85","","","","36","","1","","24.1","","97.12","","","","0","","NA"
"-111.96","60.02","FORT SMITH A","2202201","2019-04-14 01:00","2019","04","14","01:00","-1.4","","-2.9","","89","","","","9","","6","","24.1","","97.10","","","","-4","","NA"
"-111.96","60.02","FORT SMITH A","2202201","2019-04-14 02:00","2019","04","14","02:00","-0.9","","-3.1","","85","","","","36","","2","","24.1","","97.12","","","","-2","","Mainly Clear"
"-111.96","60.02","FORT SMITH A","2202201","2019-04-14 03:00","2019","04","14","03:00","-2.3","","-3.9","","89","","","","31","","3","","24.1","","97.16","","","","-3","","NA"
"-111.96","60.02","FORT SMITH A","2202201","2019-04-14 04:00","2019","04","14","04:00","-3.2","","-4.3","","92","","","","2","","3","","24.1","","97.15","","","","-4","","NA"
"-111.96","60.02","FORT SMITH A","2202201","2019-04-14 05:00","2019","04","14","05:00","-2.6","","-3.6","","93","","","","34","","3","","24.1","","97.18","","","","-4","","Mostly Cloudy"
"-111.96","60.02","FORT SMITH A","2202201","2019-04-14 06:00","2019","04","14","06:00","-2.4","","-3.6","","92","","","","24","","6","","24.1","","97.22","","","","-5","","NA"
"-111.96","60.02","FORT SMITH A","2202201","2019-04-14 07:00","2019","04","14","07:00","-0.6","","-1.1","","96","","","","29","","10","","24.1","","97.24","","","","-4","","NA"
"-111.96","60.02","FORT SMITH A","2202201","2019-04-14 08:00","2019","04","14","08:00","1.4","","-0.2","","90","","","","30","","11","","24.1","","97.24","","","","","","Mostly Cloudy"
"-111.96","60.02","FORT SMITH A","2202201","2019-04-14 09:00","2019","04","14","09:00","4.5","","0.7","","76","","","","28","","13","","24.1","","97.23","","","","","","NA"
"-111.96","60.02","FORT SMITH A","2202201","2019-04-14 10:00","2019","04","14","10:00","7.0","","0.6","","64","","","","29","","15","","24.1","","97.24","","","","","","NA"
"-111.96","60.02","FORT SMITH A","2202201","2019-04-14 11:00","2019","04","14","11:00","7.6","","1.6","","66","","","","29","","15","","24.1","","97.28","","","","","","Mostly Cloudy"
"-111.96","60.02","FORT SMITH A","2202201","2019-04-14 12:00","2019","04","14","12:00","4.9","","1.1","","76","","","","31","","18","","24.1","","97.35","","","","","","NA"
"-111.96","60.02","FORT SMITH A","2202201","2019-04-14 13:00","2019","04","14","13:00","4.9","","1.4","","78","","","","28","","19","","24.1","","97.40","","","","","","NA"
"-111.96","60.02","FORT SMITH A","2202201","2019-04-14 14:00","2019","04","14","14:00","5.4","","1.4","","75","","","","28","","22","","24.1","","97.44","","","","","","Mostly Cloudy"
"-111.96","60.02","FORT SMITH A","2202201","2019-04-14 15:00","2019","04","14","15:00","5.9","","1.0","","71","","","","30","","19","","24.1","","97.48","","","","","","NA"
"-111.96","60.02","FORT SMITH A","2202201","2019-04-14 16:00","2019","04","14","16:00","6.2","","0.7","","68","","","","30","","23","","24.1","","97.53","","","","","","NA"
"-111.96","60.02","FORT SMITH A","2202201","2019-04-14 17:00","2019","04","14","17:00","5.6","","0.3","","69","","","","29","","28","","24.1","","97.57","","","","","","Mostly Cloudy"
"-111.96","60.02","FORT SMITH A","2202201","2019-04-14 18:00","2019","04","14","18:00","3.3","","-0.1","","78","","","","30","","21","","24.1","","97.64","","","","","","NA"
"-111.96","60.02","FORT SMITH A","2202201","2019-04-14 19:00","2019","04","14","19:00","2.5","","-0.4","","81","","","","31","","20","","24.1","","97.67","","","","","","NA"
"-111.96","60.02","FORT SMITH A","2202201","2019-04-14 20:00","2019","04","14","20:00","1.8","","-0.7","","83","","","","31","","17","","24.1","","97.70","","","","","","Cloudy"
"-111.96","60.02","FORT SMITH A","2202201","2019-04-14 21:00","2019","04","14","21:00","1.4","","-1.0","","84","","","","32","","11","","24.1","","97.74","","","","","","NA"
"-111.96","60.02","FORT SMITH A","2202201","2019-04-14 22:00","2019","04","14","22:00","1.1","","-1.1","","85","","","","32","","13","","24.1","","97.77","","","","","","NA"
"-111.96","60.02","FORT SMITH A","2202201","2019-04-14 23:00","2019","04","14","23:00","0.7","","-1.3","","87","","","","31","","16","","24.1","","97.79","","","","","","Cloudy"
"-111.96","60.02","FORT SMITH A","2202201","2019-04-15 00:00","2019","04","15","00:00","0.2","","-1.4","","89","","","","32","","13","","24.1","","97.80","","","","","","NA"
"-111.96","60.02","FORT SMITH A","2202201","2019-04-15 01:00","2019","04","15","01:00","-0.1","","-1.6","","90","","","","30","","13","","24.1","","97.83","","","","-4","","NA"
"-111.96","60.02","FORT SMITH A","2202201","2019-04-15 02:00","2019","04","15","02:00","-0.3","","-1.9","","89","","","","31","","15","","24.1","","97.87","","","","-5","","Cloudy"
"-111.96","60.02","FORT SMITH A","2202201","2019-04-15 03:00","2019","04","15","03:00","-0.6","","-2.3","","89","","","","31","","13","","24.1","","97.90","","","","-5","","NA"
"-111.96","60.02","FORT SMITH A","2202201","2019-04-15 04:00","2019","04","15","04:00","-0.8","","-2.6","","88","","","","31","","14","","24.1","","97.95","","","","-5","","NA"
"-111.96","60.02","FORT SMITH A","2202201","2019-04-15 05:00","2019","04","15","05:00","-1.2","","-3.0","","87","","","","31","","10","","24.1","","97.99","","","","-5","","Cloudy"
"-111.96","60.02","FORT SMITH A","2202201","2019-04-15 06:00","2019","04","15","06:00","-1.3","","-3.2","","87","","","","31","","14","","24.1","","98.03","","","","-6","","NA"
"-111.96","60.02","FORT SMITH A","2202201","2019-04-15 07:00","2019","04","15","07:00","-1.4","","-3.3","","87","","","","31","","13","","24.1","","98.06","","","","-6","","NA"
"-111.96","60.02","FORT SMITH A","2202201","2019-04-15 08:00","2019","04","15","08:00","-1.0","","-3.2","","85","","","","33","","14","","24.1","","98.08","","","","-5","","Cloudy"
"-111.96","60.02","FORT SMITH A","2202201","2019-04-15 09:00","2019","04","15","09:00","-0.1","","-3.5","","77","","","","32","","11","","24.1","","98.10","","","","-4","","NA"
"-111.96","60.02","FORT SMITH A","2202201","2019-04-15 10:00","2019","04","15","10:00","-0.2","","-3.6","","77","","","","30","","18","","24.1","","98.15","","","","-5","","NA"
"-111.96","60.02","FORT SMITH A","2202201","2019-04-15 11:00","2019","04","15","11:00","0.0","","-3.9","","75","","","","30","","22","","24.1","","98.20","","","","-6","","Mostly Cloudy"
"-111.96","60.02","FORT SMITH A","2202201","2019-04-15 12:00","2019","04","15","12:00","0.2","","-4.2","","72","","","","30","","22","","24.1","","98.25","","","","","","NA"
"-111.96","60.02","FORT SMITH A","2202201","2019-04-15 13:00","2019","04","15","13:00","0.6","","-4.9","","66","","","","30","","18","","24.1","","98.28","","","","","","Snow"
"-111.96","60.02","FORT SMITH A","2202201","2019-04-15 14:00","2019","04","15","14:00","1.4","","-5.2","","61","","","","31","","20","","24.1","","98.30","","","","","","Snow"
"-111.96","60.02","FORT SMITH A","2202201","2019-04-15 15:00","2019","04","15","15:00","1.3","","-5.6","","60","","","","32","","15","","24.1","","98.35","","","","","","NA"
"-111.96","60.02","FORT SMITH A","2202201","2019-04-15 16:00","2019","04","15","16:00","0.8","","-5.3","","64","","","","34","","18","","24.1","","98.39","","","","","","NA"
"-111.96","60.02","FORT SMITH A","2202201","2019-04-15 17:00","2019","04","15","17:00","0.4","","-5.9","","63","","","","34","","19","","24.1","","98.44","","","","","","Mostly Cloudy"
"-111.96","60.02","FORT SMITH A","2202201","2019-04-15 18:00","2019","04","15","18:00","-0.8","","-6.6","","65","","","","31","","16","","24.1","","98.49","","","","-6","","NA"
"-111.96","60.02","FORT SMITH A","2202201","2019-04-15 19:00","2019","04","15","19:00","-1.9","","-7.2","","67","","","","31","","17","","24.1","","98.51","","","","-7","","NA"
"-111.96","60.02","FORT SMITH A","2202201","2019-04-15 20:00","2019","04","15","20:00","-2.5","","-7.2","","70","","","","32","","8","","24.1","","98.52","","","","-6","","Cloudy"
"-111.96","60.02","FORT SMITH A","2202201","2019-04-15 21:00","2019","04","15","21:00","-2.9","","-7.8","","69","","","","31","","10","","24.1","","98.55","","","","-7","","NA"
"-111.96","60.02","FORT SMITH A","2202201","2019-04-15 22:00","2019","04","15","22:00","-3.4","","-7.8","","72","","","","33","","12","","24.1","","98.57","","","","-8","","NA"
"-111.96","60.02","FORT SMITH A","2202201","2019-04-15 23:00","2019","04","15","23:00","-3.5","","-7.7","","73","","","","30","","16","","24.1","","98.56","","","","-9","","Cloudy"
"-111.96","60.02","FORT SMITH A","2202201","2019-04-16 00:00","2019","04","16","00:00","-3.9","","-7.6","","75","","","","35","","9","","24.1","","98.59","","","","-8","","NA"
"-111.96","60.02","FORT SMITH A","2202201","2019-04-16 01:00","2019","04","16","01:00","-4.2","","-8.0","","75","","","","34","","8","","24.1","","98.62","","","","-8","","NA"
"-111.96","60.02","FORT SMITH A","2202201","2019-04-16 02:00","2019","04","16","02:00","-4.3","","-8.3","","74","","","","30","","7","","24.1","","98.64","","","","-7","","Cloudy"
"-111.96","60.02","FORT SMITH A","2202201","2019-04-16 03:00","2019","04","16","03:00","-4.4","","-8.1","","76","","","","31","","4","","24.1","","98.66","","","","-6","","NA"
"-111.96","60.02","FORT SMITH A","2202201","2019-04-16 04:00","2019","04","16","04:00","-4.5","","-8.2","","75","","","","30","","7","","24.1","","98.69","","","","-8","","NA"
"-111.96","60.02","FORT SMITH A","2202201","2019-04-16 05:00","2019","04","16","05:00","-5.7","","-8.2","","83","","","","36","","1","","24.1","","98.71","","","","-6","","Mainly Clear"
"-111.96","60.02","FORT SMITH A","2202201","2019-04-16 06:00","2019","04","16","06:00","-5.8","","-8.1","","84","","","","19","","4","","24.1","","98.72","","","","-8","","NA"
"-111.96","60.02","FORT SMITH A","2202201","2019-04-16 07:00","2019","04","16","07:00","-4.3","","-7.8","","77","","","","36","","2","","24.1","","98.72","","","","-5","","NA"
"-111.96","60.02","FORT SMITH A","2202201","2019-04-16 08:00","2019","04","16","08:00","-3.6","","-7.8","","73","","","","17","","6","","24.1","","98.71","","","","-6","","Mostly Cloudy"
"-111.96","60.02","FORT SMITH A","2202201","2019-04-16 09:00","2019","04","16","09:00","-2.7","","-7.5","","70","","","","15","","9","","24.1","","98.69","","","","-6","","NA"
"-111.96","60.02","FORT SMITH A","2202201","2019-04-16 10:00","2019","04","16","10:00","-1.0","","-7.7","","61","","","","16","","13","","24.1","","98.67","","","","-5","","NA"
"-111.96","60.02","FORT SMITH A","2202201","2019-04-16 11:00","2019","04","16","11:00","1.4","","-7.3","","53","","","","14","","10","","24.1","","98.62","","","","","","Mainly Clear"
"-111.96","60.02","FORT SMITH A","2202201","2019-04-16 12:00","2019","04","16","12:00","4.2","","-5.9","","48","","","","17","","12","","24.1","","98.55","","","","","","NA"
"-111.96","60.02","FORT SMITH A","2202201","2019-04-16 13:00","2019","04","16","13:00","5.6","","-5.6","","44","","","","18","","14","","24.1","","98.49","","","","","","NA"
"-111.96","60.02","FORT SMITH A","2202201","2019-04-16 14:00","2019","04","16","14:00","6.3","","-5.1","","44","","","","18","","12","","24.1","","98.47","","","","","","Mostly Cloudy"
"-111.96","60.02","FORT SMITH A","2202201","2019-04-16 15:00","2019","04","16","15:00","5.3","","-1.4","","62","","","","3","","6","","24.1","","98.43","","","","","","Rain Showers"
"-111.96","60.02","FORT SMITH A","2202201","2019-04-16 16:00","2019","04","16","16:00","7.2","","-3.2","","47","","","","8","","14","","24.1","","98.35","","","","","","NA"
"-111.96","60.02","FORT SMITH A","2202201","2019-04-16 17:00","2019","04","16","17:00","9.3","","-4.7","","37","","","","13","","6","","24.1","","98.29","","","","","","Mostly Cloudy"
"-111.96","60.02","FORT SMITH A","2202201","2019-04-16 18:00","2019","04","16","18:00","8.6","","-5.0","","38","","","","11","","11","","24.1","","98.23","","","","","","NA"
"-111.96","60.02","FORT SMITH A","2202201","2019-04-16 19:00","2019","04","16","19:00","7.0","","-5.0","","42","","","","12","","7","","24.1","","98.17","","","","","","NA"
"-111.96","60.02","FORT SMITH A","2202201","2019-04-16 20:00","2019","04","16","20:00","6.2","","-5.0","","44","","","","12","","11","","24.1","","98.13","","","","","","Mostly Cloudy"
"-111.96","60.02","FORT SMITH A","2202201","2019-04-16 21:00","2019","04","16","21:00","4.9","","-4.8","","50","","","","14","","13","","24.1","","98.12","","","","","","NA"
"-111.96","60.02","FORT SMITH A","2202201","2019-04-16 22:00","2019","04","16","22:00","3.4","","-4.7","","55","","","","15","","17","","24.1","","98.12","","","","","","NA"
"-111.96","60.02","FORT SMITH A","2202201","2019-04-16 23:00","2019","04","16","23:00","1.6","","-4.9","","62","","","","14","","12","","24.1","","98.13","","","","","","Mainly Clear"
"-111.96","60.02","FORT SMITH A","2202201","2019-04-17 00:00","2019","04","17","00:00","0.6","","-5.2","","65","","","","14","","12","","24.1","","98.10","","","","","","NA"
"-111.96","60.02","FORT SMITH A","2202201","2019-04-17 01:00","2019","04","17","01:00","-0.2","","-5.3","","68","","","","14","","10","","24.1","","98.06","","","","-4","","NA"
"-111.96","60.02","FORT SMITH A","2202201","2019-04-17 02:00","2019","04","17","02:00","-1.1","","-5.3","","73","","","","13","","5","","24.1","","98.03","","","","-3","","Clear"
"-111.96","60.02","FORT SMITH A","2202201","2019-04-17 03:00","2019","04","17","03:00","-1.2","","-5.1","","75","","","","14","","9","","24.1","","97.99","","","","-4","","NA"
"-111.96","60.02","FORT SMITH A","2202201","2019-04-17 04:00","2019","04","17","04:00","-1.0","","-4.9","","75","","","","13","","6","","24.1","","97.98","","","","-3","","NA"
"-111.96","60.02","FORT SMITH A","2202201","2019-04-17 05:00","2019","04","17","05:00","-1.0","","-4.6","","77","","","","13","","8","","24.1","","97.95","","","","-4","","Clear"
"-111.96","60.02","FORT SMITH A","2202201","2019-04-17 06:00","2019","04","17","06:00","-0.4","","-4.3","","75","","","","15","","9","","24.1","","97.94","","","","-4","","NA"
"-111.96","60.02","FORT SMITH A","2202201","2019-04-17 07:00","2019","04","17","07:00","1.5","","-3.2","","71","","","","15","","7","","24.1","","97.93","","","","","","NA"
"-111.96","60.02","FORT SMITH A","2202201","2019-04-17 08:00","2019","04","17","08:00","4.6","","-2.8","","59","","","","14","","4","","24.1","","97.90","","","","","","Mainly Clear"
"-111.96","60.02","FORT SMITH A","2202201","2019-04-17 09:00","2019","04","17","09:00","6.6","","-2.3","","53","","","","2","","8","","24.1","","97.91","","","","","","NA"
"-111.96","60.02","FORT SMITH A","2202201","2019-04-17 10:00","2019","04","17","10:00","8.0","","-2.1","","49","","","","3","","11","","24.1","","97.88","","","","","","NA"
"-111.96","60.02","FORT SMITH A","2202201","2019-04-17 11:00","2019","04","17","11:00","10.9","","-1.3","","43","","","","7","","4","","24.1","","97.86","","","","","","Mostly Cloudy"
"-111.96","60.02","FORT SMITH A","2202201","2019-04-17 12:00","2019","04","17","12:00","11.0","","-1.7","","41","","","","31","","11","","24.1","","97.90","","","","","","NA"
"-111.96","60.02","FORT SMITH A","2202201","2019-04-17 13:00","2019","04","17","13:00","12.7","","-2.1","","36","","","","22","","3","","24.1","","97.89","","","","","","NA"
"-111.96","60.02","FORT SMITH A","2202201","2019-04-17 14:00","2019","04","17","14:00","13.5","","-3.7","","30","","","","34","","14","","24.1","","97.88","","","","","","Mostly Cloudy"
"-111.96","60.02","FORT SMITH A","2202201","2019-04-17 15:00","2019","04","17","15:00","13.8","","-4.1","","28","","","","34","","13","","24.1","","97.93","","","","","","NA"
"-111.96","60.02","FORT SMITH A","2202201","2019-04-17 16:00","2019","04","17","16:00","13.7","","-3.9","","29","","","","1","","7","","24.1","","98.00","","","","","","NA"
"-111.96","60.02","FORT SMITH A","2202201","2019-04-17 17:00","2019","04","17","17:00","13.1","","-0.8","","38","","","","20","","11","","24.1","","98.07","","","","","","Mostly Cloudy"
"-111.96","60.02","FORT SMITH A","2202201","2019-04-17 18:00","2019","04","17","18:00","12.0","","0.5","","45","","","","28","","8","","24.1","","98.13","","","","","","NA"
"-111.96","60.02","FORT SMITH A","2202201","2019-04-17 19:00","2019","04","17","19:00","10.0","","-0.1","","49","","","","27","","5","","24.1","","98.19","","","","","","NA"
"-111.96","60.02","FORT SMITH A","2202201","2019-04-17 20:00","2019","04","17","20:00","7.2","","-0.9","","56","","","","36","","6","","24.1","","98.25","","","","","","Mostly Cloudy"
"-111.96","60.02","FORT SMITH A","2202201","2019-04-17 21:00","2019","04","17","21:00","4.9","","-1.7","","62","","","","34","","3","","24.1","","98.33","","","","","","NA"
"-111.96","60.02","FORT SMITH A","2202201","2019-04-17 22:00","2019","04","17","22:00","3.3","","-2.0","","68","","","","2","","5","","24.1","","98.38","","","","","","NA"
"-111.96","60.02","FORT SMITH A","2202201","2019-04-17 23:00","2019","04","17","23:00","2.0","","-3.2","","69","","","","2","","4","","24.1","","98.41","","","","","","Mostly Cloudy"
"-111.96","60.02","FORT SMITH A","2202201","2019-04-18 00:00","2019","04","18","00:00","0.6","","-3.4","","75","","","","0","","1","","24.1","","98.43","","","","","","NA"
"-111.96","60.02","FORT SMITH A","2202201","2019-04-18 01:00","2019","04","18","01:00","-0.1","","-4.3","","73","","","","15","","3","","24.1","","98.46","","","","-1","","NA"
"-111.96","60.02","FORT SMITH A","2202201","2019-04-18 02:00","2019","04","18","02:00","-0.6","","-4.2","","77","","","","36","","2","","24.1","","98.45","","","","-1","","Mostly Cloudy"
"-111.96","60.02","FORT SMITH A","2202201","2019-04-18 03:00","2019","04","18","03:00","-0.9","","-4.2","","79","","","","36","","2","","24.1","","98.47","","","","-2","","NA"
"-111.96","60.02","FORT SMITH A","2202201","2019-04-18 04:00","2019","04","18","04:00","-0.6","","-4.2","","76","","","","2","","5","","24.1","","98.47","","","","-2","","NA"
"-111.96","60.02","FORT SMITH A","2202201","2019-04-18 05:00","2019","04","18","05:00","-2.0","","-4.6","","83","","","","28","","4","","24.1","","98.48","","","","-3","","Mainly Clear"
"-111.96","60.02","FORT SMITH A","2202201","2019-04-18 06:00","2019","04","18","06:00","-2.8","","-4.8","","86","","","","2","","8","","24.1","","98.46","","","","-6","","NA"
"-111.96","60.02","FORT SMITH A","2202201","2019-04-18 07:00","2019","04","18","07:00","3.6","","-2.5","","64","","","","11","","5","","24.1","","98.42","","","","","","NA"
"-111.96","60.02","FORT SMITH A","2202201","2019-04-18 08:00","2019","04","18","08:00","4.3","","-1.7","","65","","","","15","","7","","24.1","","98.37","","","","","","Mostly Cloudy"
"-111.96","60.02","FORT SMITH A","2202201","2019-04-18 09:00","2019","04","18","09:00","6.6","","-0.9","","59","","","","13","","6","","24.1","","98.32","","","","","","NA"
"-111.96","60.02","FORT SMITH A","2202201","2019-04-18 10:00","2019","04","18","10:00","9.9","","0.5","","52","","","","18","","7","","24.1","","98.26","","","","","","NA"
"-111.96","60.02","FORT SMITH A","2202201","2019-04-18 11:00","2019","04","18","11:00","10.6","","0.9","","51","","","","16","","9","","24.1","","98.17","","","","","","Mostly Cloudy"
"-111.96","60.02","FORT SMITH A","2202201","2019-04-18 12:00","2019","04","18","12:00","12.5","","0.8","","44","","","","17","","21","","24.1","","98.14","","","","","","NA"
"-111.96","60.02","FORT SMITH A","2202201","2019-04-18 13:00","2019","04","18","13:00","12.7","","1.4","","46","","","","18","","10","","24.1","","98.06","","","","","","Rain Showers"
"-111.96","60.02","FORT SMITH A","2202201","2019-04-18 14:00","2019","04","18","14:00","13.0","","-1.3","","37","","","","18","","19","","24.1","","97.95","","","","","","Mostly Cloudy"
"-111.96","60.02","FORT SMITH A","2202201","2019-04-18 15:00","2019","04","18","15:00","12.9","","-1.3","","37","","","","19","","21","","24.1","","97.90","","","","","","NA"
"-111.96","60.02","FORT SMITH A","2202201","2019-04-18 16:00","2019","04","18","16:00","12.6","","-1.7","","37","","","","19","","12","","24.1","","97.79","","","","","","NA"
"-111.96","60.02","FORT SMITH A","2202201","2019-04-18 17:00","2019","04","18","17:00","11.1","","-0.9","","43","","","","19","","16","","24.1","","97.79","","","","","","Rain Showers"
"-111.96","60.02","FORT SMITH A","2202201","2019-04-18 18:00","2019","04","18","18:00","9.9","","1.8","","57","","","","17","","12","","24.1","","97.73","","","","","","Rain Showers"
"-111.96","60.02","FORT SMITH A","2202201","2019-04-18 19:00","2019","04","18","19:00","8.7","","2.3","","64","","","","14","","10","","24.1","","97.66","","","","","","NA"
"-111.96","60.02","FORT SMITH A","2202201","2019-04-18 20:00","2019","04","18","20:00","6.7","","1.7","","70","","","","15","","7","","24.1","","97.60","","","","","","Mainly Clear"
"-111.96","60.02","FORT SMITH A","2202201","2019-04-18 21:00","2019","04","18","21:00","4.5","","1.0","","78","","","","14","","6","","24.1","","97.55","","","","","","NA"
"-111.96","60.02","FORT SMITH A","2202201","2019-04-18 22:00","2019","04","18","22:00","3.5","","0.3","","80","","","","36","","2","","24.1","","97.53","","","","","","NA"
"-111.96","60.02","FORT SMITH A","2202201","2019-04-18 23:00","2019","04","18","23:00","1.3","","-0.3","","89","","","","36","","1","","24.1","","97.47","","","","","","Mainly Clear"
"-111.96","60.02","FORT SMITH A","2202201","2019-04-19 00:00","2019","04","19","00:00","0.5","","-1.0","","90","","","","15","","7","","24.1","","97.41","","","","","","NA"
"-111.96","60.02","FORT SMITH A","2202201","2019-04-19 01:00","2019","04","19","01:00","-0.5","","-1.2","","95","","","","36","","2","","24.1","","97.38","","","","-1","","NA"
"-111.96","60.02","FORT SMITH A","2202201","2019-04-19 02:00","2019","04","19","02:00","-1.2","","-2.1","","94","","","","17","","8","","24.1","","97.36","","","","-4","","Mainly Clear"
"-111.96","60.02","FORT SMITH A","2202201","2019-04-19 03:00","2019","04","19","03:00","-1.4","","-2.5","","92","","","","17","","4","","24.1","","97.32","","","","-3","","NA"
"-111.96","60.02","FORT SMITH A","2202201","2019-04-19 04:00","2019","04","19","04:00","-1.2","","-1.9","","95","","","","19","","7","","24.1","","97.32","","","","-4","","NA"
"-111.96","60.02","FORT SMITH A","2202201","2019-04-19 05:00","2019","04","19","05:00","-2.4","","-3.2","","94","","","","19","","4","","24.1","","97.31","","","","-4","","Mainly Clear"
"-111.96","60.02","FORT SMITH A","2202201","2019-04-19 06:00","2019","04","19","06:00","-1.3","","-2.6","","91","","","","20","","5","","24.1","","97.30","","","","-3","","NA"
"-111.96","60.02","FORT SMITH A","2202201","2019-04-19 07:00","2019","04","19","07:00","2.6","","-0.4","","81","","","","28","","4","","24.1","","97.30","","","","","","NA"
"-111.96","60.02","FORT SMITH A","2202201","2019-04-19 08:00","2019","04","19","08:00","5.0","","-0.2","","69","","","","26","","8","","24.1","","97.31","","","","","","Clear"
"-111.96","60.02","FORT SMITH A","2202201","2019-04-19 09:00","2019","04","19","09:00","7.5","","0.3","","61","","","","29","","10","","24.1","","97.33","","","","","","NA"
"-111.96","60.02","FORT SMITH A","2202201","2019-04-19 10:00","2019","04","19","10:00","9.6","","1.1","","55","","","","28","","9","","24.1","","97.33","","","","","","NA"
"-111.96","60.02","FORT SMITH A","2202201","2019-04-19 11:00","2019","04","19","11:00","10.9","","1.0","","50","","","","30","","10","","24.1","","97.34","","","","","","Mainly Clear"
"-111.96","60.02","FORT SMITH A","2202201","2019-04-19 12:00","2019","04","19","12:00","12.7","","-0.4","","40","","","","29","","20","","24.1","","97.35","","","","","","NA"
"-111.96","60.02","FORT SMITH A","2202201","2019-04-19 13:00","2019","04","19","13:00","12.3","","1.3","","47","","","","35","","12","","24.1","","97.34","","","","","","Rain Showers"
"-111.96","60.02","FORT SMITH A","2202201","2019-04-19 14:00","2019","04","19","14:00","12.0","","1.1","","47","","","","33","","13","","24.1","","97.36","","","","","","Rain Showers"
"-111.96","60.02","FORT SMITH A","2202201","2019-04-19 15:00","2019","04","19","15:00","10.3","","2.5","","58","","","","1","","10","","24.1","","97.41","","","","","","Rain Showers"
"-111.96","60.02","FORT SMITH A","2202201","2019-04-19 16:00","2019","04","19","16:00","9.6","","2.5","","61","","","","35","","8","","24.1","","97.51","","","","","","NA"
"-111.96","60.02","FORT SMITH A","2202201","2019-04-19 17:00","2019","04","19","17:00","9.8","","1.5","","56","","","","34","","17","","24.1","","97.58","","","","","","Mostly Cloudy"
"-111.96","60.02","FORT SMITH A","2202201","2019-04-19 18:00","2019","04","19","18:00","9.4","","1.0","","56","","","","34","","9","","24.1","","97.59","","","","","","Rain Showers"
"-111.96","60.02","FORT SMITH A","2202201","2019-04-19 19:00","2019","04","19","19:00","7.1","","1.5","","67","","","","3","","9","","24.1","","97.63","","","","","","NA"
"-111.96","60.02","FORT SMITH A","2202201","2019-04-19 20:00","2019","04","19","20:00","5.7","","0.5","","69","","","","3","","8","","24.1","","97.67","","","","","","Mostly Cloudy"
"-111.96","60.02","FORT SMITH A","2202201","2019-04-19 21:00","2019","04","19","21:00","4.1","","1.0","","80","","","","3","","12","","24.1","","97.73","","","","","","NA"
"-111.96","60.02","FORT SMITH A","2202201","2019-04-19 22:00","2019","04","19","22:00","3.8","","1.1","","82","","","","36","","5","","24.1","","97.80","","","","","","NA"
"-111.96","60.02","FORT SMITH A","2202201","2019-04-19 23:00","2019","04","19","23:00","2.8","","0.9","","87","","","","35","","11","","24.1","","97.83","","","","","","Rain"
"-111.96","60.02","FORT SMITH A","2202201","2019-04-20 00:00","2019","04","20","00:00","1.4","","0.2","","92","","","","8","","3","","24.1","","97.84","","","","","","Rain"
"-111.96","60.02","FORT SMITH A","2202201","2019-04-20 01:00","2019","04","20","01:00","0.2","","-0.1","","98","","","","3","","6","","24.1","","97.88","","","","","","NA"
"-111.96","60.02","FORT SMITH A","2202201","2019-04-20 02:00","2019","04","20","02:00","-0.9","","-1.5","","96","","","","4","","6","","24.1","","97.95","","","","-3","","Mainly Clear"
"-111.96","60.02","FORT SMITH A","2202201","2019-04-20 03:00","2019","04","20","03:00","-1.0","","-1.5","","96","","","","2","","8","","24.1","","98.02","","","","-4","","NA"
"-111.96","60.02","FORT SMITH A","2202201","2019-04-20 04:00","2019","04","20","04:00","-0.9","","-1.2","","98","","","","2","","5","","24.1","","98.04","","","","-3","","NA"
"-111.96","60.02","FORT SMITH A","2202201","2019-04-20 05:00","2019","04","20","05:00","-0.4","","-0.6","","99","","","","35","","4","","4.8","","98.11","","","","-2","","Fog"
"-111.96","60.02","FORT SMITH A","2202201","2019-04-20 06:00","2019","04","20","06:00","0.1","","-0.3","","97","","","","34","","5","","24.1","","98.16","","","","","","Snow"
"-111.96","60.02","FORT SMITH A","2202201","2019-04-20 07:00","2019","04","20","07:00","0.4","","-0.2","","95","","","","33","","7","","24.1","","98.22","","","","","","NA"
"-111.96","60.02","FORT SMITH A","2202201","2019-04-20 08:00","2019","04","20","08:00","0.7","","-0.5","","92","","","","35","","9","","24.1","","98.27","","","","","","Cloudy"
"-111.96","60.02","FORT SMITH A","2202201","2019-04-20 09:00","2019","04","20","09:00","0.9","","-1.0","","87","","","","34","","12","","24.1","","98.33","","","","","","Snow"
"-111.96","60.02","FORT SMITH A","2202201","2019-04-20 10:00","2019","04","20","10:00","1.9","","-1.1","","81","","","","32","","13","","24.1","","98.39","","","","","","Snow"
"-111.96","60.02","FORT SMITH A","2202201","2019-04-20 11:00","2019","04","20","11:00","2.0","","-0.6","","83","","","","31","","10","","24.1","","98.47","","","","","","Snow Showers"
"-111.96","60.02","FORT SMITH A","2202201","2019-04-20 12:00","2019","04","20","12:00","3.3","","-1.4","","71","","","","31","","15","","24.1","","98.54","","","","","","NA"
"-111.96","60.02","FORT SMITH A","2202201","2019-04-20 13:00","2019","04","20","13:00","4.3","","-1.5","","66","","","","36","","17","","24.1","","98.57","","","","","","NA"
"-111.96","60.02","FORT SMITH A","2202201","2019-04-20 14:00","2019","04","20","14:00","4.8","","-1.5","","63","","","","35","","12","","24.1","","98.62","","","","","","Cloudy"
"-111.96","60.02","FORT SMITH A","2202201","2019-04-20 15:00","2019","04","20","15:00","5.0","","-1.5","","63","","","","33","","12","","24.1","","98.67","","","","","","NA"
"-111.96","60.02","FORT SMITH A","2202201","2019-04-20 16:00","2019","04","20","16:00","5.7","","-1.6","","59","","","","35","","16","","24.1","","98.72","","","","","","NA"
"-111.96","60.02","FORT SMITH A","2202201","2019-04-20 17:00","2019","04","20","17:00","5.8","","-1.6","","59","","","","35","","12","","24.1","","98.79","","","","","","Cloudy"
"-111.96","60.02","FORT SMITH A","2202201","2019-04-20 18:00","2019","04","20","18:00","5.2","","-2.4","","58","","","","33","","14","","24.1","","98.86","","","","","","NA"
"-111.96","60.02","FORT SMITH A","2202201","2019-04-20 19:00","2019","04","20","19:00","4.2","","-2.8","","60","","","","33","","11","","24.1","","98.93","","","","","","NA"
"-111.96","60.02","FORT SMITH A","2202201","2019-04-20 20:00","2019","04","20","20:00","2.5","","-3.4","","65","","","","35","","7","","24.1","","98.99","","","","","","Mainly Clear"
"-111.96","60.02","FORT SMITH A","2202201","2019-04-20 21:00","2019","04","20","21:00","0.8","","-3.7","","72","","","","30","","8","","24.1","","99.06","","","","","","NA"
"-111.96","60.02","FORT SMITH A","2202201","2019-04-20 22:00","2019","04","20","22:00","0.4","","-4.0","","72","","","","31","","9","","24.1","","99.11","","","","","","NA"
"-111.96","60.02","FORT SMITH A","2202201","2019-04-20 23:00","2019","04","20","23:00","0.0","","-4.3","","73","","","","32","","8","","24.1","","99.15","","","","-3","","Mostly Cloudy"
"-111.96","60.02","FORT SMITH A","2202201","2019-04-21 00:00","2019","04","21","00:00","-0.5","","-4.5","","74","","","","34","","8","","24.1","","99.19","","","","-3","","NA"
"-111.96","60.02","FORT SMITH A","2202201","2019-04-21 01:00","2019","04","21","01:00","-1.0","","-4.9","","75","","","","31","","8","","24.1","","99.24","","","","-4","","NA"
"-111.96","60.02","FORT SMITH A","2202201","2019-04-21 02:00","2019","04","21","02:00","-1.7","","-5.1","","78","","","","32","","7","","24.1","","99.27","","","","-4","","Cloudy"
"-111.96","60.02","FORT SMITH A","2202201","2019-04-21 03:00","2019","04","21","03:00","-2.5","","-5.4","","81","","","","32","","6","","24.1","","99.30","","","","-5","","NA"
"-111.96","60.02","FORT SMITH A","2202201","2019-04-21 04:00","2019","04","21","04:00","-3.5","","-5.5","","86","","","","29","","7","","24.1","","99.36","","","","-6","","NA"
"-111.96","60.02","FORT SMITH A","2202201","2019-04-21 05:00","2019","04","21","05:00","-3.9","","-5.5","","89","","","","28","","6","","24.1","","99.39","","","","-7","","Mainly Clear"
"-111.96","60.02","FORT SMITH A","2202201","2019-04-21 06:00","2019","04","21","06:00","-3.5","","-5.4","","87","","","","28","","3","","24.1","","99.45","","","","-5","","NA"
"-111.96","60.02","FORT SMITH A","2202201","2019-04-21 07:00","2019","04","21","07:00","-2.2","","-5.3","","80","","","","30","","4","","24.1","","99.48","","","","-4","","NA"
"-111.96","60.02","FORT SMITH A","2202201","2019-04-21 08:00","2019","04","21","08:00","-0.7","","-5.5","","70","","","","26","","3","","24.1","","99.50","","","","-2","","Mainly Clear"
"-111.96","60.02","FORT SMITH A","2202201","2019-04-21 09:00","2019","04","21","09:00","1.4","","-5.1","","62","","","","36","","3","","24.1","","99.49","","","","","","NA"
"-111.96","60.02","FORT SMITH A","2202201","2019-04-21 10:00","2019","04","21","10:00","3.1","","-4.5","","58","","","","31","","5","","24.1","","99.47","","","","","","NA"
"-111.96","60.02","FORT SMITH A","2202201","2019-04-21 11:00","2019","04","21","11:00","5.4","","-2.5","","57","","","","32","","7","","24.1","","99.45","","","","","","Clear"
"-111.96","60.02","FORT SMITH A","2202201","2019-04-21 12:00","2019","04","21","12:00","6.5","","-2.5","","53","","","","36","","2","","24.1","","99.42","","","","","","NA"
"-111.96","60.02","FORT SMITH A","2202201","2019-04-21 13:00","2019","04","21","13:00","8.2","","-1.8","","49","","","","26","","14","","24.1","","99.39","","","","","","NA"
"-111.96","60.02","FORT SMITH A","2202201","2019-04-21 14:00","2019","04","21","14:00","9.3","","-2.0","","45","","","","4","","11","","24.1","","99.36","","","","","","Mainly Clear"
"-111.96","60.02","FORT SMITH A","2202201","2019-04-21 15:00","2019","04","21","15:00","9.4","","-2.9","","42","","","","10","","5","","24.1","","99.32","","","","","","NA"
"-111.96","60.02","FORT SMITH A","2202201","2019-04-21 16:00","2019","04","21","16:00","10.4","","-3.0","","39","","","","10","","10","","24.1","","99.29","","","","","","NA"
"-111.96","60.02","FORT SMITH A","2202201","2019-04-21 17:00","2019","04","21","17:00","10.8","","-3.3","","37","","","","10","","9","","24.1","","99.25","","","","","","Mainly Clear"
"-111.96","60.02","FORT SMITH A","2202201","2019-04-21 18:00","2019","04","21","18:00","9.7","","-2.8","","41","","","","14","","6","","24.1","","99.25","","","","","","NA"
"-111.96","60.02","FORT SMITH A","2202201","2019-04-21 19:00","2019","04","21","19:00","8.3","","-1.6","","50","","","","16","","9","","24.1","","99.26","","","","","","NA"
"-111.96","60.02","FORT SMITH A","2202201","2019-04-21 20:00","2019","04","21","20:00","7.1","","-1.6","","54","","","","14","","6","","24.1","","99.23","","","","","","Mainly Clear"
"-111.96","60.02","FORT SMITH A","2202201","2019-04-21 21:00","2019","04","21","21:00","5.1","","-1.3","","63","","","","13","","7","","24.1","","99.23","","","","","","NA"
"-111.96","60.02","FORT SMITH A","2202201","2019-04-21 22:00","2019","04","21","22:00","4.6","","-1.0","","67","","","","14","","10","","24.1","","99.20","","","","","","NA"
"-111.96","60.02","FORT SMITH A","2202201","2019-04-21 23:00","2019","04","21","23:00","5.2","","-1.1","","64","","","","13","","11","","24.1","","99.16","","","","","","Mostly Cloudy"
"-111.96","60.02","FORT SMITH A","2202201","2019-04-22 00:00","2019","04","22","00:00","4.5","","-2.0","","63","","","","12","","6","","24.1","","99.13","","","","","","NA"
"-111.96","60.02","FORT SMITH A","2202201","2019-04-22 01:00","2019","04","22","01:00","3.3","","-2.8","","65","","","","13","","11","","24.1","","99.06","","","","","","NA"
"-111.96","60.02","FORT SMITH A","2202201","2019-04-22 02:00","2019","04","22","02:00","2.8","","-3.3","","64","","","","12","","10","","24.1","","98.98","","","","","","Mainly Clear"
"-111.96","60.02","FORT SMITH A","2202201","2019-04-22 03:00","2019","04","22","03:00","2.1","","-3.5","","67","","","","14","","13","","24.1","","98.89","","","","","","NA"
"-111.96","60.02","FORT SMITH A","2202201","2019-04-22 04:00","2019","04","22","04:00","2.1","","-3.3","","67","","","","14","","17","","24.1","","98.83","","","","","","NA"
"-111.96","60.02","FORT SMITH A","2202201","2019-04-22 05:00","2019","04","22","05:00","2.5","","-2.8","","68","","","","14","","14","","24.1","","98.78","","","","","","Mostly Cloudy"
"-111.96","60.02","FORT SMITH A","2202201","2019-04-22 06:00","2019","04","22","06:00","3.1","","-2.9","","65","","","","13","","15","","24.1","","98.72","","","","","","NA"
"-111.96","60.02","FORT SMITH A","2202201","2019-04-22 07:00","2019","04","22","07:00","4.3","","-2.8","","60","","","","14","","16","","24.1","","98.64","","","","","","NA"
"-111.96","60.02","FORT SMITH A","2202201","2019-04-22 08:00","2019","04","22","08:00","6.7","","-2.9","","50","","","","13","","16","","24.1","","98.56","","","","","","Mainly Clear"
"-111.96","60.02","FORT SMITH A","2202201","2019-04-22 09:00","2019","04","22","09:00","9.3","","-2.6","","43","","","","14","","15","","24.1","","98.46","","","","","","NA"
"-111.96","60.02","FORT SMITH A","2202201","2019-04-22 10:00","2019","04","22","10:00","12.1","","-3.0","","35","","","","15","","16","","24.1","","98.36","","","","","","NA"
"-111.96","60.02","FORT SMITH A","2202201","2019-04-22 11:00","2019","04","22","11:00","14.2","","-3.5","","29","","","","16","","21","","24.1","","98.24","","","","","","Mainly Clear"
"-111.96","60.02","FORT SMITH A","2202201","2019-04-22 12:00","2019","04","22","12:00","15.8","","-5.1","","23","","","","16","","23","","24.1","","98.15","","","","","","NA"
"-111.96","60.02","FORT SMITH A","2202201","2019-04-22 13:00","2019","04","22","13:00","17.0","","-5.0","","22","","","","14","","18","","24.1","","98.04","","","","","","NA"
"-111.96","60.02","FORT SMITH A","2202201","2019-04-22 14:00","2019","04","22","14:00","17.3","","-5.2","","21","","","","16","","19","","24.1","","97.94","","","","","","Mainly Clear"
"-111.96","60.02","FORT SMITH A","2202201","2019-04-22 15:00","2019","04","22","15:00","18.4","","-4.7","","20","","","","17","","23","","24.1","","97.80","","","","","","NA"
"-111.96","60.02","FORT SMITH A","2202201","2019-04-22 16:00","2019","04","22","16:00","17.9","","-4.2","","22","","","","16","","22","","24.1","","97.69","","","","","","NA"
"-111.96","60.02","FORT SMITH A","2202201","2019-04-22 17:00","2019","04","22","17:00","16.5","","-1.9","","28","","","","22","","25","","24.1","","97.64","","","","","","Mostly Cloudy"
"-111.96","60.02","FORT SMITH A","2202201","2019-04-22 18:00","2019","04","22","18:00","16.4","","-1.9","","28","","","","20","","9","","24.1","","97.57","","","","","","NA"
"-111.96","60.02","FORT SMITH A","2202201","2019-04-22 19:00","2019","04","22","19:00","15.7","","-1.5","","31","","","","21","","7","","24.1","","97.51","","","","","","NA"
"-111.96","60.02","FORT SMITH A","2202201","2019-04-22 20:00","2019","04","22","20:00","14.7","","0.3","","37","","","","15","","13","","24.1","","97.47","","","","","","Cloudy"
"-111.96","60.02","FORT SMITH A","2202201","2019-04-22 21:00","2019","04","22","21:00","14.0","","0.5","","39","","","","21","","14","","24.1","","97.41","","","","","","NA"
"-111.96","60.02","FORT SMITH A","2202201","2019-04-22 22:00","2019","04","22","22:00","11.9","","0.7","","46","","","","23","","9","","24.1","","97.31","","","","","","NA"
"-111.96","60.02","FORT SMITH A","2202201","2019-04-22 23:00","2019","04","22","23:00","12.7","","0.3","","42","","","","20","","13","","24.1","","97.25","","","","","","Cloudy"
"-111.96","60.02","FORT SMITH A","2202201","2019-04-23 00:00","2019","04","23","00:00","11.4","","0.8","","48","","","","18","","6","","24.1","","97.18","","","","","","NA"
"-111.96","60.02","FORT SMITH A","2202201","2019-04-23 01:00","2019","04","23","01:00","10.2","","2.2","","58","","","","22","","10","","24.1","","97.15","","","","","","NA"
"-111.96","60.02","FORT SMITH A","2202201","2019-04-23 02:00","2019","04","23","02:00","9.3","","2.4","","62","","","","17","","4","","24.1","","97.12","","","","","","Cloudy"
"-111.96","60.02","FORT SMITH A","2202201","2019-04-23 03:00","2019","04","23","03:00","7.8","","3.8","","75","","","","13","","3","","19.3","","97.09","","","","","","Rain"
"-111.96","60.02","FORT SMITH A","2202201","2019-04-23 04:00","2019","04","23","04:00","6.7","","5.0","","89","","","","36","","1","","19.3","","97.07","","","","","","Rain"
"-111.96","60.02","FORT SMITH A","2202201","2019-04-23 05:00","2019","04","23","05:00","6.4","","5.7","","95","","","","36","","1","","19.3","","97.06","","","","","","Rain"
"-111.96","60.02","FORT SMITH A","2202201","2019-04-23 06:00","2019","04","23","06:00","6.5","","5.9","","96","","","","36","","1","","24.1","","97.06","","","","","","Rain"
"-111.96","60.02","FORT SMITH A","2202201","2019-04-23 07:00","2019","04","23","07:00","7.8","","6.3","","91","","","","25","","13","","24.1","","97.07","","","","","","NA"
"-111.96","60.02","FORT SMITH A","2202201","2019-04-23 08:00","2019","04","23","08:00","7.7","","6.5","","92","","","","28","","13","","19.3","","97.10","","","","","","Mostly Cloudy"
"-111.96","60.02","FORT SMITH A","2202201","2019-04-23 09:00","2019","04","23","09:00","7.5","","6.3","","92","","","","26","","19","","19.3","","97.16","","","","","","Drizzle"
"-111.96","60.02","FORT SMITH A","2202201","2019-04-23 10:00","2019","04","23","10:00","7.6","","6.2","","91","","","","27","","19","","24.1","","97.19","","","","","","Rain"
"-111.96","60.02","FORT SMITH A","2202201","2019-04-23 11:00","2019","04","23","11:00","7.4","","6.4","","93","","","","27","","23","","24.1","","97.23","","","","","","Rain"
"-111.96","60.02","FORT SMITH A","2202201","2019-04-23 12:00","2019","04","23","12:00","8.0","","5.9","","87","","","","27","","30","","19.3","","97.25","","","","","","Rain"
"-111.96","60.02","FORT SMITH A","2202201","2019-04-23 13:00","2019","04","23","13:00","7.8","","6.2","","90","","","","27","","22","","19.3","","97.28","","","","","","Rain"
"-111.96","60.02","FORT SMITH A","2202201","2019-04-23 14:00","2019","04","23","14:00","6.8","","5.7","","92","","","","29","","34","","16.1","","97.38","","","","","","Rain"
"-111.96","60.02","FORT SMITH A","2202201","2019-04-23 15:00","2019","04","23","15:00","6.2","","5.4","","95","","","","29","","26","","24.1","","97.49","","","","","","Rain"
"-111.96","60.02","FORT SMITH A","2202201","2019-04-23 16:00","2019","04","23","16:00","5.1","","4.3","","95","","","","27","","22","","19.3","","97.60","","","","","","Rain"
"-111.96","60.02","FORT SMITH A","2202201","2019-04-23 17:00","2019","04","23","17:00","5.4","","4.3","","93","","","","27","","20","","19.3","","97.66","","","","","","Rain"
"-111.96","60.02","FORT SMITH A","2202201","2019-04-23 18:00","2019","04","23","18:00","6.0","","5.1","","94","","","","29","","22","","24.1","","97.72","","","","","","Rain"
"-111.96","60.02","FORT SMITH A","2202201","2019-04-23 19:00","2019","04","23","19:00","6.0","","5.2","","94","","","","30","","18","","19.3","","97.78","","","","","","Rain"
"-111.96","60.02","FORT SMITH A","2202201","2019-04-23 20:00","2019","04","23","20:00","5.8","","5.2","","96","","","","30","","10","","24.1","","97.81","","","","","","Rain"
"-111.96","60.02","FORT SMITH A","2202201","2019-04-23 21:00","2019","04","23","21:00","5.6","","5.3","","97","","","","27","","12","","19.3","","97.84","","","","","","Rain"
"-111.96","60.02","FORT SMITH A","2202201","2019-04-23 22:00","2019","04","23","22:00","5.3","","4.8","","96","","","","27","","11","","12.9","","97.86","","","","","","Rain"
"-111.96","60.02","FORT SMITH A","2202201","2019-04-23 23:00","2019","04","23","23:00","5.0","","4.1","","94","","","","27","","10","","24.1","","97.88","","","","","","Rain"
"-111.96","60.02","FORT SMITH A","2202201","2019-04-24 00:00","2019","04","24","00:00","4.0","","3.3","","95","","","","28","","7","","24.1","","97.88","","","","","","NA"
"-111.96","60.02","FORT SMITH A","2202201","2019-04-24 01:00","2019","04","24","01:00","2.4","","2.1","","97","","","","28","","5","","24.1","","97.90","","","","","","NA"
"-111.96","60.02","FORT SMITH A","2202201","2019-04-24 02:00","2019","04","24","02:00","1.6","","1.3","","98","","","","27","","8","","24.1","","97.95","","","","","","Mainly Clear"
"-111.96","60.02","FORT SMITH A","2202201","2019-04-24 03:00","2019","04","24","03:00","2.0","","1.2","","94","","","","28","","9","","24.1","","97.99","","","","","","NA"
"-111.96","60.02","FORT SMITH A","2202201","2019-04-24 04:00","2019","04","24","04:00","1.9","","1.3","","96","","","","29","","11","","24.1","","98.03","","","","","","NA"
"-111.96","60.02","FORT SMITH A","2202201","2019-04-24 05:00","2019","04","24","05:00","2.2","","1.7","","96","","","","30","","16","","9.7","","98.08","","","","","","Fog"
"-111.96","60.02","FORT SMITH A","2202201","2019-04-24 06:00","2019","04","24","06:00","2.4","","1.9","","96","","","","28","","11","","19.3","","98.13","","","","","","NA"
"-111.96","60.02","FORT SMITH A","2202201","2019-04-24 07:00","2019","04","24","07:00","1.9","","0.6","","91","","","","31","","17","","24.1","","98.19","","","","","","NA"
"-111.96","60.02","FORT SMITH A","2202201","2019-04-24 08:00","2019","04","24","08:00","2.4","","0.7","","89","","","","30","","21","","24.1","","98.23","","","","","","Mostly Cloudy"
"-111.96","60.02","FORT SMITH A","2202201","2019-04-24 09:00","2019","04","24","09:00","3.6","","1.2","","84","","","","29","","21","","24.1","","98.27","","","","","","NA"
"-111.96","60.02","FORT SMITH A","2202201","2019-04-24 10:00","2019","04","24","10:00","5.1","","1.0","","75","","","","29","","17","","24.1","","98.32","","","","","","NA"
"-111.96","60.02","FORT SMITH A","2202201","2019-04-24 11:00","2019","04","24","11:00","6.5","","0.0","","63","","","","30","","23","","24.1","","98.38","","","","","","Mostly Cloudy"
"-111.96","60.02","FORT SMITH A","2202201","2019-04-24 12:00","2019","04","24","12:00","7.1","","-0.2","","60","","","","32","","22","","24.1","","98.40","","","","","","NA"
"-111.96","60.02","FORT SMITH A","2202201","2019-04-24 13:00","2019","04","24","13:00","9.0","","-1.6","","47","","","","30","","28","","24.1","","98.44","","","","","","NA"
"-111.96","60.02","FORT SMITH A","2202201","2019-04-24 14:00","2019","04","24","14:00","9.1","","-2.2","","45","","","","31","","15","","24.1","","98.47","","","","","","Mostly Cloudy"
"-111.96","60.02","FORT SMITH A","2202201","2019-04-24 15:00","2019","04","24","15:00","8.6","","-1.9","","48","","","","31","","25","","24.1","","98.52","","","","","","NA"
"-111.96","60.02","FORT SMITH A","2202201","2019-04-24 16:00","2019","04","24","16:00","8.5","","-2.5","","46","","","","32","","18","","24.1","","98.54","","","","","","NA"
"-111.96","60.02","FORT SMITH A","2202201","2019-04-24 17:00","2019","04","24","17:00","8.3","","-3.2","","44","","","","32","","16","","24.1","","98.56","","","","","","Mainly Clear"
"-111.96","60.02","FORT SMITH A","2202201","2019-04-24 18:00","2019","04","24","18:00","7.4","","-4.2","","43","","","","33","","21","","24.1","","98.62","","","","","","NA"
"-111.96","60.02","FORT SMITH A","2202201","2019-04-24 19:00","2019","04","24","19:00","6.3","","-3.5","","50","","","","31","","15","","24.1","","98.67","","","","","","NA"
"-111.96","60.02","FORT SMITH A","2202201","2019-04-24 20:00","2019","04","24","20:00","4.0","","-3.4","","59","","","","33","","14","","24.1","","98.72","","","","","","Mainly Clear"
"-111.96","60.02","FORT SMITH A","2202201","2019-04-24 21:00","2019","04","24","21:00","0.5","","-5.0","","67","","","","34","","16","","24.1","","98.83","","","","","","NA"
"-111.96","60.02","FORT SMITH A","2202201","2019-04-24 22:00","2019","04","24","22:00","-1.2","","-5.7","","72","","","","34","","14","","24.1","","98.90","","","","-6","","NA"
"-111.96","60.02","FORT SMITH A","2202201","2019-04-24 23:00","2019","04","24","23:00","-2.1","","-5.9","","75","","","","32","","12","","24.1","","98.96","","","","-6","","Mainly Clear"
"-111.96","60.02","FORT SMITH A","2202201","2019-04-25 00:00","2019","04","25","00:00","-2.0","","-5.5","","77","","","","32","","17","","24.1","","99.01","","","","-7","","NA"
"-111.96","60.02","FORT SMITH A","2202201","2019-04-25 01:00","2019","04","25","01:00","-2.2","","-4.9","","81","","","","32","","9","","24.1","","99.07","","","","-6","","NA"
"-111.96","60.02","FORT SMITH A","2202201","2019-04-25 02:00","2019","04","25","02:00","-2.5","","-5.0","","82","","","","32","","12","","24.1","","99.13","","","","-7","","Cloudy"
"-111.96","60.02","FORT SMITH A","2202201","2019-04-25 03:00","2019","04","25","03:00","-3.0","","-5.5","","83","","","","31","","13","","24.1","","99.20","","","","-8","","Snow"
"-111.96","60.02","FORT SMITH A","2202201","2019-04-25 04:00","2019","04","25","04:00","-3.4","","-5.7","","84","","","","33","","15","","19.3","","99.25","","","","-9","","Snow"
"-111.96","60.02","FORT SMITH A","2202201","2019-04-25 05:00","2019","04","25","05:00","-4.0","","-6.3","","84","","","","34","","11","","24.1","","99.29","","","","-8","","Snow"
"-111.96","60.02","FORT SMITH A","2202201","2019-04-25 06:00","2019","04","25","06:00","-4.4","","-6.8","","83","","","","34","","13","","24.1","","99.35","","","","-9","","Snow"
"-111.96","60.02","FORT SMITH A","2202201","2019-04-25 07:00","2019","04","25","07:00","-4.7","","-7.5","","81","","","","31","","13","","24.1","","99.41","","","","-10","","Snow"
"-111.96","60.02","FORT SMITH A","2202201","2019-04-25 08:00","2019","04","25","08:00","-4.6","","-8.1","","77","","","","32","","14","","24.1","","99.47","","","","-10","","Snow"
"-111.96","60.02","FORT SMITH A","2202201","2019-04-25 09:00","2019","04","25","09:00","-4.0","","-7.4","","77","","","","35","","16","","24.1","","99.49","","","","-10","","Snow"
"-111.96","60.02","FORT SMITH A","2202201","2019-04-25 10:00","2019","04","25","10:00","-3.7","","-7.0","","78","","","","30","","17","","24.1","","99.53","","","","-9","","Snow"
"-111.96","60.02","FORT SMITH A","2202201","2019-04-25 11:00","2019","04","25","11:00","-2.6","","-7.2","","70","","","","34","","15","","24.1","","99.57","","","","-8","","Snow"
"-111.96","60.02","FORT SMITH A","2202201","2019-04-25 12:00","2019","04","25","12:00","-0.4","","-7.3","","60","","","","34","","12","","24.1","","99.56","","","","-4","","NA"
"-111.96","60.02","FORT SMITH A","2202201","2019-04-25 13:00","2019","04","25","13:00","1.2","","-7.5","","52","","","","30","","15","","24.1","","99.54","","","","","","NA"
"-111.96","60.02","FORT SMITH A","2202201","2019-04-25 14:00","2019","04","25","14:00","2.5","","-8.6","","44","","","","28","","17","","24.1","","99.52","","","","","","Mostly Cloudy"
"-111.96","60.02","FORT SMITH A","2202201","2019-04-25 15:00","2019","04","25","15:00","2.4","","-7.1","","50","","","","30","","19","","24.1","","99.55","","","","","","NA"
"-111.96","60.02","FORT SMITH A","2202201","2019-04-25 16:00","2019","04","25","16:00","1.6","","-6.6","","54","","","","30","","18","","24.1","","99.58","","","","","","NA"
"-111.96","60.02","FORT SMITH A","2202201","2019-04-25 17:00","2019","04","25","17:00","0.9","","-6.0","","60","","","","33","","12","","24.1","","99.60","","","","","","Snow"
"-111.96","60.02","FORT SMITH A","2202201","2019-04-25 18:00","2019","04","25","18:00","-0.3","","-7.5","","58","","","","34","","17","","24.1","","99.64","","","","-5","","NA"
"-111.96","60.02","FORT SMITH A","2202201","2019-04-25 19:00","2019","04","25","19:00","-0.7","","-8.9","","54","","","","34","","12","","24.1","","99.63","","","","-5","","NA"
"-111.96","60.02","FORT SMITH A","2202201","2019-04-25 20:00","2019","04","25","20:00","-1.7","","-10.6","","51","","","","32","","13","","24.1","","99.64","","","","-6","","Mainly Clear"
"-111.96","60.02","FORT SMITH A","2202201","2019-04-25 21:00","2019","04","25","21:00","-2.6","","-10.4","","55","","","","33","","5","","24.1","","99.66","","","","-5","","NA"
"-111.96","60.02","FORT SMITH A","2202201","2019-04-25 22:00","2019","04","25","22:00","-3.3","","-10.2","","59","","","","32","","9","","24.1","","99.66","","","","-7","","NA"
"-111.96","60.02","FORT SMITH A","2202201","2019-04-25 23:00","2019","04","25","23:00","-4.1","","-10.2","","63","","","","30","","11","","24.1","","99.67","","","","-9","","Clear"
"-111.96","60.02","FORT SMITH A","2202201","2019-04-26 00:00","2019","04","26","00:00","-4.8","","-10.2","","66","","","","32","","8","","24.1","","99.68","","","","-8","","NA"
"-111.96","60.02","FORT SMITH A","2202201","2019-04-26 01:00","2019","04","26","01:00","-5.3","","-10.5","","67","","","","33","","10","","24.1","","99.68","","","","-10","","NA"
"-111.96","60.02","FORT SMITH A","2202201","2019-04-26 02:00","2019","04","26","02:00","-6.0","","-11.1","","67","","","","31","","11","","24.1","","99.71","","","","-11","","Mainly Clear"
"-111.96","60.02","FORT SMITH A","2202201","2019-04-26 03:00","2019","04","26","03:00","-6.1","","-10.5","","71","","","","31","","9","","24.1","","99.73","","","","-10","","NA"
"-111.96","60.02","FORT SMITH A","2202201","2019-04-26 04:00","2019","04","26","04:00","-6.3","","-10.3","","73","","","","30","","9","","24.1","","99.75","","","","-11","","NA"
"-111.96","60.02","FORT SMITH A","2202201","2019-04-26 05:00","2019","04","26","05:00","-6.2","","-9.9","","75","","","","30","","8","","24.1","","99.77","","","","-10","","Mostly Cloudy"
"-111.96","60.02","FORT SMITH A","2202201","2019-04-26 06:00","2019","04","26","06:00","-5.7","","-9.4","","75","","","","28","","8","","24.1","","99.80","","","","-9","","NA"
"-111.96","60.02","FORT SMITH A","2202201","2019-04-26 07:00","2019","04","26","07:00","-5.0","","-9.8","","69","","","","28","","9","","24.1","","99.81","","","","-9","","NA"
"-111.96","60.02","FORT SMITH A","2202201","2019-04-26 08:00","2019","04","26","08:00","-3.4","","-9.4","","63","","","","29","","17","","24.1","","99.80","","","","-9","","Mostly Cloudy"
"-111.96","60.02","FORT SMITH A","2202201","2019-04-26 09:00","2019","04","26","09:00","-2.5","","-9.6","","58","","","","30","","19","","24.1","","99.78","","","","-8","","NA"
"-111.96","60.02","FORT SMITH A","2202201","2019-04-26 10:00","2019","04","26","10:00","-2.0","","-9.4","","57","","","","31","","19","","19.3","","99.78","","","","-8","","Snow Showers"
"-111.96","60.02","FORT SMITH A","2202201","2019-04-26 11:00","2019","04","26","11:00","-1.3","","-9.3","","55","","","","27","","19","","24.1","","99.77","","","","-7","","Snow Showers"
"-111.96","60.02","FORT SMITH A","2202201","2019-04-26 12:00","2019","04","26","12:00","-0.1","","-8.4","","54","","","","34","","17","","24.1","","99.77","","","","-5","","Snow Showers"
"-111.96","60.02","FORT SMITH A","2202201","2019-04-26 13:00","2019","04","26","13:00","-0.8","","-7.0","","63","","","","31","","7","","24.1","","99.76","","","","-3","","Snow Showers"
"-111.96","60.02","FORT SMITH A","2202201","2019-04-26 14:00","2019","04","26","14:00","-0.1","","-11.6","","42","","","","35","","21","","24.1","","99.77","","","","-6","","Snow Showers"
"-111.96","60.02","FORT SMITH A","2202201","2019-04-26 15:00","2019","04","26","15:00","0.4","","-12.1","","39","","","","36","","23","","24.1","","99.79","","","","","","NA"
"-111.96","60.02","FORT SMITH A","2202201","2019-04-26 16:00","2019","04","26","16:00","1.0","","-13.5","","33","","","","33","","24","","24.1","","99.84","","","","","","NA"
"-111.96","60.02","FORT SMITH A","2202201","2019-04-26 17:00","2019","04","26","17:00","0.3","","-13.3","","35","","","","35","","18","","24.1","","99.86","","","","","","Mainly Clear"
"-111.96","60.02","FORT SMITH A","2202201","2019-04-26 18:00","2019","04","26","18:00","-0.3","","-14.6","","33","","","","36","","17","","24.1","","99.87","","","","-5","","NA"
"-111.96","60.02","FORT SMITH A","2202201","2019-04-26 19:00","2019","04","26","19:00","-0.9","","-14.3","","36","","","","36","","13","","24.1","","99.87","","","","-5","","NA"
"-111.96","60.02","FORT SMITH A","2202201","2019-04-26 20:00","2019","04","26","20:00","-2.3","","-13.5","","42","","","","36","","8","","24.1","","99.89","","","","-5","","Clear"
"-111.96","60.02","FORT SMITH A","2202201","2019-04-26 21:00","2019","04","26","21:00","-4.4","","-11.3","","59","","","","0","","1","","24.1","","99.93","","","","-5","","NA"
"-111.96","60.02","FORT SMITH A","2202201","2019-04-26 22:00","2019","04","26","22:00","-5.5","","-12.3","","59","","","","36","","1","","24.1","","99.96","","","","-6","","NA"
"-111.96","60.02","FORT SMITH A","2202201","2019-04-26 23:00","2019","04","26","23:00","-6.9","","-12.1","","67","","","","0","","1","","24.1","","99.99","","","","-7","","Clear"
"-111.96","60.02","FORT SMITH A","2202201","2019-04-27 00:00","2019","04","27","00:00","-7.7","","-12.6","","68","","","","36","","1","","24.1","","100.02","","","","-8","","NA"
"-111.96","60.02","FORT SMITH A","2202201","2019-04-27 01:00","2019","04","27","01:00","-7.9","","-11.8","","74","","","","22","","3","","24.1","","100.06","","","","-9","","NA"
"-111.96","60.02","FORT SMITH A","2202201","2019-04-27 02:00","2019","04","27","02:00","-8.5","","-13.0","","71","","","","36","","1","","24.1","","100.09","","","","-9","","Clear"
"-111.96","60.02","FORT SMITH A","2202201","2019-04-27 03:00","2019","04","27","03:00","-9.3","","-13.3","","73","","","","36","","2","","24.1","","100.10","","","","-10","","NA"
"-111.96","60.02","FORT SMITH A","2202201","2019-04-27 04:00","2019","04","27","04:00","-9.7","","-13.8","","72","","","","36","","2","","24.1","","100.15","","","","-11","","NA"
"-111.96","60.02","FORT SMITH A","2202201","2019-04-27 05:00","2019","04","27","05:00","-9.7","","-13.2","","76","","","","36","","2","","24.1","","100.19","","","","-11","","Mainly Clear"
"-111.96","60.02","FORT SMITH A","2202201","2019-04-27 06:00","2019","04","27","06:00","-7.5","","-11.1","","76","","","","36","","1","","24.1","","100.21","","","","-8","","NA"
"-111.96","60.02","FORT SMITH A","2202201","2019-04-27 07:00","2019","04","27","07:00","-4.8","","-10.7","","63","","","","29","","7","","24.1","","100.23","","","","-8","","NA"
"-111.96","60.02","FORT SMITH A","2202201","2019-04-27 08:00","2019","04","27","08:00","-3.1","","-12.5","","49","","","","31","","12","","24.1","","100.24","","","","-8","","Clear"
"-111.96","60.02","FORT SMITH A","2202201","2019-04-27 09:00","2019","04","27","09:00","-2.1","","-13.6","","41","","","","30","","11","","24.1","","100.23","","","","-6","","NA"
"-111.96","60.02","FORT SMITH A","2202201","2019-04-27 10:00","2019","04","27","10:00","-0.8","","-15.2","","33","","","","29","","16","","24.1","","100.23","","","","-6","","NA"
"-111.96","60.02","FORT SMITH A","2202201","2019-04-27 11:00","2019","04","27","11:00","0.4","","-15.4","","30","","","","33","","17","","24.1","","100.23","","","","","","Clear"
"-111.96","60.02","FORT SMITH A","2202201","2019-04-27 12:00","2019","04","27","12:00","1.3","","-15.2","","28","","","","32","","15","","24.1","","100.19","","","","","","NA"
"-111.96","60.02","FORT SMITH A","2202201","2019-04-27 13:00","2019","04","27","13:00","2.8","","-14.9","","26","","","","29","","17","","24.1","","100.17","","","","","","NA"
"-111.96","60.02","FORT SMITH A","2202201","2019-04-27 14:00","2019","04","27","14:00","3.3","","-14.7","","26","","","","31","","11","","24.1","","100.17","","","","","","Clear"
"-111.96","60.02","FORT SMITH A","2202201","2019-04-27 15:00","2019","04","27","15:00","3.4","","-14.4","","26","","","","30","","7","","24.1","","100.14","","","","","","NA"
"-111.96","60.02","FORT SMITH A","2202201","2019-04-27 16:00","2019","04","27","16:00","3.8","","-14.8","","25","","","","4","","3","","24.1","","100.11","","","","","","NA"
"-111.96","60.02","FORT SMITH A","2202201","2019-04-27 17:00","2019","04","27","17:00","4.3","","-15.2","","23","","","","27","","8","","24.1","","100.09","","","","","","Mainly Clear"
"-111.96","60.02","FORT SMITH A","2202201","2019-04-27 18:00","2019","04","27","18:00","4.5","","-13.5","","26","","","","36","","11","","24.1","","100.09","","","","","","NA"
"-111.96","60.02","FORT SMITH A","2202201","2019-04-27 19:00","2019","04","27","19:00","3.8","","-12.9","","29","","","","34","","13","","24.1","","100.09","","","","","","NA"
"-111.96","60.02","FORT SMITH A","2202201","2019-04-27 20:00","2019","04","27","20:00","1.7","","-12.6","","34","","","","34","","10","","24.1","","100.13","","","","","","Mainly Clear"
"-111.96","60.02","FORT SMITH A","2202201","2019-04-27 21:00","2019","04","27","21:00","0.3","","-13.7","","34","","","","33","","9","","24.1","","100.17","","","","","","NA"
"-111.96","60.02","FORT SMITH A","2202201","2019-04-27 22:00","2019","04","27","22:00","-1.2","","-13.3","","40","","","","33","","6","","24.1","","100.20","","","","-3","","NA"
"-111.96","60.02","FORT SMITH A","2202201","2019-04-27 23:00","2019","04","27","23:00","-3.7","","-10.9","","57","","","","36","","1","","24.1","","100.22","","","","-4","","Mainly Clear"
"-111.96","60.02","FORT SMITH A","2202201","2019-04-28 00:00","2019","04","28","00:00","-4.8","","-12.7","","55","","","","36","","1","","24.1","","100.24","","","","-5","","NA"
"-111.96","60.02","FORT SMITH A","2202201","2019-04-28 01:00","2019","04","28","01:00","-4.8","","-10.2","","66","","","","0","","1","","24.1","","100.27","","","","-5","","NA"
"-111.96","60.02","FORT SMITH A","2202201","2019-04-28 02:00","2019","04","28","02:00","-5.1","","-11.5","","61","","","","22","","4","","24.1","","100.25","","","","-7","","Mostly Cloudy"
"-111.96","60.02","FORT SMITH A","2202201","2019-04-28 03:00","2019","04","28","03:00","-5.2","","-11.6","","61","","","","17","","3","","24.1","","100.25","","","","-7","","NA"
"-111.96","60.02","FORT SMITH A","2202201","2019-04-28 04:00","2019","04","28","04:00","-4.5","","-10.3","","64","","","","36","","1","","20.9","","100.27","","","","-5","","Snow"
"-111.96","60.02","FORT SMITH A","2202201","2019-04-28 05:00","2019","04","28","05:00","-5.2","","-11.1","","63","","","","18","","4","","24.1","","100.28","","","","-7","","Mostly Cloudy"
"-111.96","60.02","FORT SMITH A","2202201","2019-04-28 06:00","2019","04","28","06:00","-4.1","","-9.5","","66","","","","19","","3","","24.1","","100.27","","","","-5","","NA"
"-111.96","60.02","FORT SMITH A","2202201","2019-04-28 07:00","2019","04","28","07:00","-1.6","","-7.5","","64","","","","29","","12","","24.1","","100.28","","","","-6","","NA"
"-111.96","60.02","FORT SMITH A","2202201","2019-04-28 08:00","2019","04","28","08:00","0.6","","-9.1","","49","","","","31","","9","","24.1","","100.27","","","","","","Mostly Cloudy"
"-111.96","60.02","FORT SMITH A","2202201","2019-04-28 09:00","2019","04","28","09:00","1.1","","-10.1","","43","","","","29","","22","","24.1","","100.27","","","","","","NA"
"-111.96","60.02","FORT SMITH A","2202201","2019-04-28 10:00","2019","04","28","10:00","1.1","","-11.9","","37","","","","30","","21","","24.1","","100.28","","","","","","NA"
"-111.96","60.02","FORT SMITH A","2202201","2019-04-28 11:00","2019","04","28","11:00","1.8","","-12.0","","35","","","","29","","21","","24.1","","100.29","","","","","","Mainly Clear"
"-111.96","60.02","FORT SMITH A","2202201","2019-04-28 12:00","2019","04","28","12:00","2.6","","-13.3","","30","","","","34","","19","","24.1","","100.31","","","","","","NA"
"-111.96","60.02","FORT SMITH A","2202201","2019-04-28 13:00","2019","04","28","13:00","2.9","","-14.7","","26","","","","31","","23","","24.1","","100.30","","","","","","NA"
"-111.96","60.02","FORT SMITH A","2202201","2019-04-28 14:00","2019","04","28","14:00","3.2","","-13.8","","28","","","","35","","17","","24.1","","100.31","","","","","","Mainly Clear"
"-111.96","60.02","FORT SMITH A","2202201","2019-04-28 15:00","2019","04","28","15:00","3.6","","-14.3","","26","","","","31","","24","","24.1","","100.30","","","","","","NA"
"-111.96","60.02","FORT SMITH A","2202201","2019-04-28 16:00","2019","04","28","16:00","3.6","","-14.1","","26","","","","30","","17","","24.1","","100.28","","","","","","NA"
"-111.96","60.02","FORT SMITH A","2202201","2019-04-28 17:00","2019","04","28","17:00","3.1","","-14.0","","27","","","","30","","18","","24.1","","100.28","","","","","","Mainly Clear"
"-111.96","60.02","FORT SMITH A","2202201","2019-04-28 18:00","2019","04","28","18:00","2.5","","-15.3","","26","","","","32","","11","","24.1","","100.30","","","","","","NA"
"-111.96","60.02","FORT SMITH A","2202201","2019-04-28 19:00","2019","04","28","19:00","1.5","","-14.9","","29","","","","31","","13","","24.1","","100.30","","","","","","NA"
"-111.96","60.02","FORT SMITH A","2202201","2019-04-28 20:00","2019","04","28","20:00","0.2","","-15.4","","30","","","","31","","9","","24.1","","100.30","","","","","","Mostly Cloudy"
"-111.96","60.02","FORT SMITH A","2202201","2019-04-28 21:00","2019","04","28","21:00","-1.0","","-15.3","","33","","","","31","","8","","24.1","","100.28","","","","-4","","NA"
"-111.96","60.02","FORT SMITH A","2202201","2019-04-28 22:00","2019","04","28","22:00","-2.6","","-14.3","","41","","","","30","","3","","24.1","","100.23","","","","-4","","NA"
"-111.96","60.02","FORT SMITH A","2202201","2019-04-28 23:00","2019","04","28","23:00","-4.1","","-13.9","","47","","","","36","","3","","24.1","","100.20","","","","-5","","Mainly Clear"
"-111.96","60.02","FORT SMITH A","2202201","2019-04-29 00:00","2019","04","29","00:00","-5.5","","-13.6","","53","","","","17","","3","","24.1","","100.16","","","","-7","","NA"
"-111.96","60.02","FORT SMITH A","2202201","2019-04-29 01:00","2019","04","29","01:00","-5.7","","-12.4","","60","","","","36","","3","","24.1","","100.13","","","","-7","","NA"
"-111.96","60.02","FORT SMITH A","2202201","2019-04-29 02:00","2019","04","29","02:00","-6.0","","-13.2","","57","","","","16","","3","","24.1","","100.06","","","","-7","","Mostly Cloudy"
"-111.96","60.02","FORT SMITH A","2202201","2019-04-29 03:00","2019","04","29","03:00","-6.4","","-13.0","","60","","","","18","","7","","24.1","","100.00","","","","-10","","NA"
"-111.96","60.02","FORT SMITH A","2202201","2019-04-29 04:00","2019","04","29","04:00","-4.7","","-13.8","","49","","","","18","","10","","24.1","","99.93","","","","-9","","NA"
"-111.96","60.02","FORT SMITH A","2202201","2019-04-29 05:00","2019","04","29","05:00","-4.6","","-13.7","","49","","","","19","","10","","24.1","","99.85","","","","-9","","Mostly Cloudy"
"-111.96","60.02","FORT SMITH A","2202201","2019-04-29 06:00","2019","04","29","06:00","-3.1","","-11.1","","54","","","","26","","8","","24.1","","99.74","","","","-6","","NA"
"-111.96","60.02","FORT SMITH A","2202201","2019-04-29 07:00","2019","04","29","07:00","-0.2","","-10.5","","46","","","","30","","18","","24.1","","99.70","","","","-5","","NA"
"-111.96","60.02","FORT SMITH A","2202201","2019-04-29 08:00","2019","04","29","08:00","-0.7","","-12.7","","40","","","","34","","20","","24.1","","99.73","","","","-6","","Mostly Cloudy"
"-111.96","60.02","FORT SMITH A","2202201","2019-04-29 09:00","2019","04","29","09:00","-0.2","","-12.7","","38","","","","30","","36","","24.1","","99.72","","","","-7","","NA"
"-111.96","60.02","FORT SMITH A","2202201","2019-04-29 10:00","2019","04","29","10:00","-0.8","","-14.1","","36","","","","31","","32","","24.1","","99.73","","","","-8","","NA"
"-111.96","60.02","FORT SMITH A","2202201","2019-04-29 11:00","2019","04","29","11:00","-0.2","","-15.7","","30","","","","31","","25","","24.1","","99.70","","","","-6","","Cloudy"
"-111.96","60.02","FORT SMITH A","2202201","2019-04-29 12:00","2019","04","29","12:00","-0.3","","-14.8","","33","","","","30","","26","","24.1","","99.70","","","","-6","","NA"
"-111.96","60.02","FORT SMITH A","2202201","2019-04-29 13:00","2019","04","29","13:00","-1.2","","-19.4","","24","","","","29","","37","","24.1","","99.72","","","","-9","","NA"
"-111.96","60.02","FORT SMITH A","2202201","2019-04-29 14:00","2019","04","29","14:00","-1.0","","-15.8","","32","","","","32","","19","","24.1","","99.72","","","","-6","","Cloudy"
"-111.96","60.02","FORT SMITH A","2202201","2019-04-29 15:00","2019","04","29","15:00","-1.9","","-15.0","","36","","","","34","","21","","24.1","","99.74","","","","-8","","NA"
"-111.96","60.02","FORT SMITH A","2202201","2019-04-29 16:00","2019","04","29","16:00","-2.9","","-15.1","","39","","","","34","","28","","24.1","","99.78","","","","-10","","NA"
"-111.96","60.02","FORT SMITH A","2202201","2019-04-29 17:00","2019","04","29","17:00","-4.6","","-11.4","","59","","","","33","","18","","19.3","","99.88","","","","-11","","Snow"
"-111.96","60.02","FORT SMITH A","2202201","2019-04-29 18:00","2019","04","29","18:00","-5.4","","-12.9","","56","","","","34","","19","","19.3","","99.93","","","","-12","","Snow,Blowing Snow"
"-111.96","60.02","FORT SMITH A","2202201","2019-04-29 19:00","2019","04","29","19:00","-6.4","","-15.7","","48","","","","33","","20","","24.1","","99.97","","","","-13","","NA"
"-111.96","60.02","FORT SMITH A","2202201","2019-04-29 20:00","2019","04","29","20:00","-7.8","","-17.1","","48","","","","35","","19","","24.1","","99.99","","","","-15","","Mostly Cloudy"
"-111.96","60.02","FORT SMITH A","2202201","2019-04-29 21:00","2019","04","29","21:00","-9.2","","-17.8","","50","","","","36","","21","","24.1","","100.06","","","","-17","","NA"
"-111.96","60.02","FORT SMITH A","2202201","2019-04-29 22:00","2019","04","29","22:00","-10.7","","-18.4","","53","","","","36","","27","","24.1","","100.12","","","","-20","","NA"
"-111.96","60.02","FORT SMITH A","2202201","2019-04-29 23:00","2019","04","29","23:00","-12.2","","-19.0","","57","","","","35","","14","","24.1","","100.16","","","","-19","","Clear"
"-111.96","60.02","FORT SMITH A","2202201","2019-04-30 00:00","2019","04","30","00:00","-13.3","","-18.6","","65","","","","34","","13","","24.1","","100.20","","","","-20","","NA"
"-111.96","60.02","FORT SMITH A","2202201","2019-04-30 01:00","2019","04","30","01:00","-14.2","","-18.6","","70","","","","33","","13","","24.1","","100.21","","","","-21","","NA"
"-111.96","60.02","FORT SMITH A","2202201","2019-04-30 02:00","2019","04","30","02:00","-15.2","","-19.2","","72","","","","34","","12","","24.1","","100.23","","","","-22","","Clear"
"-111.96","60.02","FORT SMITH A","2202201","2019-04-30 03:00","2019","04","30","03:00","-15.9","","-19.4","","75","","","","34","","12","","24.1","","100.25","","","","-23","","NA"
"-111.96","60.02","FORT SMITH A","2202201","2019-04-30 04:00","2019","04","30","04:00","-16.3","","-19.5","","77","","","","33","","11","","24.1","","100.26","","","","-23","","NA"
"-111.96","60.02","FORT SMITH A","2202201","2019-04-30 05:00","2019","04","30","05:00","-16.3","","-19.5","","77","","","","34","","18","","19.3","","100.28","","","","-25","","Snow"
"-111.96","60.02","FORT SMITH A","2202201","2019-04-30 06:00","2019","04","30","06:00","-16.4","","-19.5","","77","","","","34","","14","","24.1","","100.32","","","","-24","","Snow"
"-111.96","60.02","FORT SMITH A","2202201","2019-04-30 07:00","2019","04","30","07:00","-16.0","","-19.2","","77","","","","35","","15","","24.1","","100.33","","","","-24","","Snow"
"-111.96","60.02","FORT SMITH A","2202201","2019-04-30 08:00","2019","04","30","08:00","-14.4","","-18.8","","70","","","","33","","14","","24.1","","100.34","","","","-22","","Snow"
"-111.96","60.02","FORT SMITH A","2202201","2019-04-30 09:00","2019","04","30","09:00","-13.7","","-18.9","","66","","","","30","","16","","24.1","","100.33","","","","-22","","Snow"
"-111.96","60.02","FORT SMITH A","2202201","2019-04-30 10:00","2019","04","30","10:00","-12.5","","-18.7","","60","","","","30","","13","","24.1","","100.31","","","","-19","","Snow"
"-111.96","60.02","FORT SMITH A","2202201","2019-04-30 11:00","2019","04","30","11:00","-11.3","","-19.1","","53","","","","34","","11","","24.1","","100.28","","","","-17","","Snow"
"-111.96","60.02","FORT SMITH A","2202201","2019-04-30 12:00","2019","04","30","12:00","-10.6","","-19.8","","47","","","","32","","12","","24.1","","100.25","","","","-17","","Snow"
"-111.96","60.02","FORT SMITH A","2202201","2019-04-30 13:00","2019","04","30","13:00","-8.3","","-19.6","","40","","","","27","","20","","24.1","","100.20","","","","-16","","Snow"
"-111.96","60.02","FORT SMITH A","2202201","2019-04-30 14:00","2019","04","30","14:00","-8.6","","-20.8","","37","","","","4","","12","","24.1","","100.17","","","","-14","","Snow"
"-111.96","60.02","FORT SMITH A","2202201","2019-04-30 15:00","2019","04","30","15:00","-7.9","","-20.6","","36","","","","36","","16","","24.1","","100.14","","","","-14","","NA"
"-111.96","60.02","FORT SMITH A","2202201","2019-04-30 16:00","2019","04","30","16:00","-6.8","","-20.4","","34","","","","29","","15","","24.1","","100.07","","","","-13","","NA"
"-111.96","60.02","FORT SMITH A","2202201","2019-04-30 17:00","2019","04","30","17:00","-7.5","","-20.6","","35","","","","36","","8","","24.1","","100.04","","","","-12","","Cloudy"
"-111.96","60.02","FORT SMITH A","2202201","2019-04-30 18:00","2019","04","30","18:00","-7.7","","-20.4","","36","","","","36","","2","","24.1","","100.03","","","","-9","","NA"
"-111.96","60.02","FORT SMITH A","2202201","2019-04-30 19:00","2019","04","30","19:00","-7.6","","-19.3","","39","","","","32","","3","","24.1","","99.98","","","","-9","","NA"
"-111.96","60.02","FORT SMITH A","2202201","2019-04-30 20:00","2019","04","30","20:00","-8.3","","-19.6","","40","","","","32","","7","","24.1","","99.95","","","","-12","","Mostly Cloudy"
"-111.96","60.02","FORT SMITH A","2202201","2019-04-30 21:00","2019","04","30","21:00","-9.3","","-18.8","","46","","","","35","","5","","24.1","","99.92","","","","-12","","NA"
"-111.96","60.02","FORT SMITH A","2202201","2019-04-30 22:00","2019","04","30","22:00","-10.3","","-18.4","","52","","","","6","","6","","24.1","","99.88","","","","-14","","NA"
"-111.96","60.02","FORT SMITH A","2202201","2019-04-30 23:00","2019","04","30","23:00","-11.9","","-18.6","","58","","","","9","","4","","24.1","","99.82","","","","-14","","Mainly Clear"
