"Longitude (x)","Latitude (y)","Station Name","Climate ID","Date/Time (LST)","Year","Month","Day","Time (LST)","Temp (°C)","Temp Flag","Dew Point Temp (°C)","Dew Point Temp Flag","Rel Hum (%)","Rel Hum Flag","Precip. Amount (mm)","Precip. Amount Flag","Wind Dir (10s deg)","Wind Dir Flag","Wind Spd (km/h)","Wind Spd Flag","Visibility (km)","Visibility Flag","Stn Press (kPa)","Stn Press Flag","Hmdx","Hmdx Flag","Wind Chill","Wind Chill Flag","Weather"
"-111.96","60.02","FORT SMITH A","2202201","2019-03-01 00:00","2019","03","01","00:00","-29.9","","-33.8","","70","","","","36","","13","","24.1","","101.34","","","","-40","","NA"
"-111.96","60.02","FORT SMITH A","2202201","2019-03-01 01:00","2019","03","01","01:00","-31.0","","-34.9","","70","","","","1","","14","","24.1","","101.42","","","","-42","","NA"
"-111.96","60.02","FORT SMITH A","2202201","2019-03-01 02:00","2019","03","01","02:00","-32.8","","-36.4","","71","","","","35","","4","","24.1","","101.48","","","","-38","","Clear"
"-111.96","60.02","FORT SMITH A","2202201","2019-03-01 03:00","2019","03","01","03:00","-32.6","","-36.0","","73","","","","34","","9","","24.1","","101.56","","","","-42","","NA"
"-111.96","60.02","FORT SMITH A","2202201","2019-03-01 04:00","2019","03","01","04:00","-33.0","","-36.5","","72","","","","34","","10","","24.1","","101.63","","","","-43","","NA"
"-111.96","60.02","FORT SMITH A","2202201","2019-03-01 05:00","2019","03","01","05:00","-34.0","","-37.4","","72","","","","34","","5","","24.1","","101.68","","","","-40","","Clear"
"-111.96","60.02","FORT SMITH A","2202201","2019-03-01 06:00","2019","03","01","06:00","-35.3","","-38.5","","73","","","","30","","7","","24.1","","101.74","","","","-43","","NA"
"-111.96","60.02","FORT SMITH A","2202201","2019-03-01 07:00","2019","03","01","07:00","-34.7","","-37.9","","73","","","","32","","9","","24.1","","101.78","","","","-44","","NA"
"-111.96","60.02","FORT SMITH A","2202201","2019-03-01 08:00","2019","03","01","08:00","-34.7","","-38.1","","72","","","","34","","12","","24.1","","101.82","","","","-46","","Clear"
"-111.96","60.02","FORT SMITH A","2202201","2019-03-01 09:00","2019","03","01","09:00","-34.2","","-37.9","","70","","","","31","","7","","24.1","","101.89","","","","-42","","NA"
"-111.96","60.02","FORT SMITH A","2202201","2019-03-01 10:00","2019","03","01","10:00","-32.3","","-36.6","","67","","","","30","","13","","24.1","","101.91","","","","-43","","NA"
"-111.96","60.02","FORT SMITH A","2202201","2019-03-01 11:00","2019","03","01","11:00","-30.3","","-35.3","","62","","","","30","","13","","24.1","","101.92","","","","-41","","Mostly Cloudy"
"-111.96","60.02","FORT SMITH A","2202201","2019-03-01 12:00","2019","03","01","12:00","-28.9","","-34.3","","61","","","","30","","14","","24.1","","101.92","","","","-40","","NA"
"-111.96","60.02","FORT SMITH A","2202201","2019-03-01 13:00","2019","03","01","13:00","-27.4","","-33.1","","59","","","","29","","16","","24.1","","101.91","","","","-39","","NA"
"-111.96","60.02","FORT SMITH A","2202201","2019-03-01 14:00","2019","03","01","14:00","-26.0","","-31.5","","61","","","","29","","17","","4.8","","101.87","","","","-37","","Snow,Blowing Snow"
"-111.96","60.02","FORT SMITH A","2202201","2019-03-01 15:00","2019","03","01","15:00","-25.1","","-30.3","","63","","","","28","","15","","4.8","","101.87","","","","-35","","Snow,Blowing Snow"
"-111.96","60.02","FORT SMITH A","2202201","2019-03-01 16:00","2019","03","01","16:00","-24.7","","-29.9","","63","","","","29","","14","","8.1","","101.87","","","","-35","","Snow,Blowing Snow"
"-111.96","60.02","FORT SMITH A","2202201","2019-03-01 17:00","2019","03","01","17:00","-24.4","","-29.4","","64","","","","31","","13","","6.4","","101.92","","","","-34","","Snow,Blowing Snow"
"-111.96","60.02","FORT SMITH A","2202201","2019-03-01 18:00","2019","03","01","18:00","-24.4","","-29.1","","66","","","","30","","10","","4.8","","101.93","","","","-32","","Snow,Blowing Snow"
"-111.96","60.02","FORT SMITH A","2202201","2019-03-01 19:00","2019","03","01","19:00","-24.5","","-28.2","","72","","","","32","","10","","2.4","","101.92","","","","-33","","Snow,Blowing Snow"
"-111.96","60.02","FORT SMITH A","2202201","2019-03-01 20:00","2019","03","01","20:00","-25.0","","-28.8","","71","","","","32","","13","","4.8","","101.91","","","","-34","","Snow,Blowing Snow"
"-111.96","60.02","FORT SMITH A","2202201","2019-03-01 21:00","2019","03","01","21:00","-26.1","","-30.0","","71","","","","33","","14","","9.7","","101.94","","","","-36","","Snow,Blowing Snow"
"-111.96","60.02","FORT SMITH A","2202201","2019-03-01 22:00","2019","03","01","22:00","-27.2","","-30.9","","72","","","","33","","12","","9.7","","101.97","","","","-37","","Snow,Blowing Snow"
"-111.96","60.02","FORT SMITH A","2202201","2019-03-01 23:00","2019","03","01","23:00","-28.0","","-31.6","","72","","","","32","","9","","19.3","","101.97","","","","-36","","Snow,Blowing Snow"
"-111.96","60.02","FORT SMITH A","2202201","2019-03-02 00:00","2019","03","02","00:00","-28.9","","-32.3","","73","","","","31","","10","","19.3","","101.97","","","","-38","","Snow,Blowing Snow"
"-111.96","60.02","FORT SMITH A","2202201","2019-03-02 01:00","2019","03","02","01:00","-29.5","","-32.8","","74","","","","31","","8","","24.1","","101.97","","","","-37","","NA"
"-111.96","60.02","FORT SMITH A","2202201","2019-03-02 02:00","2019","03","02","02:00","-29.3","","-32.6","","73","","","","31","","11","","24.1","","101.98","","","","-39","","Mainly Clear"
"-111.96","60.02","FORT SMITH A","2202201","2019-03-02 03:00","2019","03","02","03:00","-28.8","","-32.4","","72","","","","31","","13","","24.1","","101.99","","","","-39","","NA"
"-111.96","60.02","FORT SMITH A","2202201","2019-03-02 04:00","2019","03","02","04:00","-28.4","","-32.1","","71","","","","31","","15","","24.1","","101.95","","","","-39","","NA"
"-111.96","60.02","FORT SMITH A","2202201","2019-03-02 05:00","2019","03","02","05:00","-28.8","","-32.4","","72","","","","32","","10","","24.1","","101.97","","","","-38","","Mostly Cloudy"
"-111.96","60.02","FORT SMITH A","2202201","2019-03-02 06:00","2019","03","02","06:00","-29.0","","-32.5","","72","","","","31","","12","","24.1","","101.95","","","","-39","","NA"
"-111.96","60.02","FORT SMITH A","2202201","2019-03-02 07:00","2019","03","02","07:00","-29.3","","-32.7","","73","","","","32","","13","","24.1","","101.97","","","","-40","","NA"
"-111.96","60.02","FORT SMITH A","2202201","2019-03-02 08:00","2019","03","02","08:00","-29.3","","-32.7","","73","","","","31","","14","","24.1","","101.98","","","","-40","","Mostly Cloudy"
"-111.96","60.02","FORT SMITH A","2202201","2019-03-02 09:00","2019","03","02","09:00","-28.1","","-32.0","","70","","","","30","","11","","24.1","","102.00","","","","-37","","NA"
"-111.96","60.02","FORT SMITH A","2202201","2019-03-02 10:00","2019","03","02","10:00","-26.7","","-30.9","","68","","","","29","","16","","24.1","","102.00","","","","-38","","NA"
"-111.96","60.02","FORT SMITH A","2202201","2019-03-02 11:00","2019","03","02","11:00","-23.5","","-28.8","","63","","","","33","","10","","24.1","","101.97","","","","-31","","Mainly Clear"
"-111.96","60.02","FORT SMITH A","2202201","2019-03-02 12:00","2019","03","02","12:00","-21.3","","-28.0","","56","","","","33","","9","","24.1","","101.94","","","","-28","","NA"
"-111.96","60.02","FORT SMITH A","2202201","2019-03-02 13:00","2019","03","02","13:00","-19.9","","-27.5","","52","","","","30","","17","","24.1","","101.89","","","","-30","","NA"
"-111.96","60.02","FORT SMITH A","2202201","2019-03-02 14:00","2019","03","02","14:00","-18.7","","-27.0","","49","","","","29","","17","","24.1","","101.84","","","","-28","","Clear"
"-111.96","60.02","FORT SMITH A","2202201","2019-03-02 15:00","2019","03","02","15:00","-18.0","","-26.7","","47","","","","29","","17","","24.1","","101.80","","","","-27","","NA"
"-111.96","60.02","FORT SMITH A","2202201","2019-03-02 16:00","2019","03","02","16:00","-17.9","","-26.3","","49","","","","28","","19","","24.1","","101.78","","","","-28","","NA"
"-111.96","60.02","FORT SMITH A","2202201","2019-03-02 17:00","2019","03","02","17:00","-17.4","","-26.6","","45","","","","31","","16","","24.1","","101.74","","","","-26","","Mainly Clear"
"-111.96","60.02","FORT SMITH A","2202201","2019-03-02 18:00","2019","03","02","18:00","-18.7","","-26.8","","50","","","","31","","10","","24.1","","101.73","","","","-26","","NA"
"-111.96","60.02","FORT SMITH A","2202201","2019-03-02 19:00","2019","03","02","19:00","-20.3","","-27.0","","56","","","","30","","10","","24.1","","101.68","","","","-28","","NA"
"-111.96","60.02","FORT SMITH A","2202201","2019-03-02 20:00","2019","03","02","20:00","-20.6","","-27.3","","56","","","","30","","10","","24.1","","101.63","","","","-28","","Mainly Clear"
"-111.96","60.02","FORT SMITH A","2202201","2019-03-02 21:00","2019","03","02","21:00","-20.3","","-27.2","","55","","","","31","","10","","24.1","","101.60","","","","-28","","NA"
"-111.96","60.02","FORT SMITH A","2202201","2019-03-02 22:00","2019","03","02","22:00","-20.1","","-26.7","","56","","","","31","","14","","24.1","","101.57","","","","-29","","NA"
"-111.96","60.02","FORT SMITH A","2202201","2019-03-02 23:00","2019","03","02","23:00","-20.6","","-27.1","","57","","","","31","","13","","24.1","","101.53","","","","-29","","Mostly Cloudy"
"-111.96","60.02","FORT SMITH A","2202201","2019-03-03 00:00","2019","03","03","00:00","-21.1","","-27.0","","60","","","","30","","15","","24.1","","101.47","","","","-30","","NA"
"-111.96","60.02","FORT SMITH A","2202201","2019-03-03 01:00","2019","03","03","01:00","-21.9","","-27.6","","61","","","","30","","15","","24.1","","101.44","","","","-31","","NA"
"-111.96","60.02","FORT SMITH A","2202201","2019-03-03 02:00","2019","03","03","02:00","-21.5","","-27.2","","61","","","","31","","12","","24.1","","101.43","","","","-30","","Mostly Cloudy"
"-111.96","60.02","FORT SMITH A","2202201","2019-03-03 03:00","2019","03","03","03:00","-21.1","","-27.0","","60","","","","31","","11","","24.1","","101.39","","","","-29","","NA"
"-111.96","60.02","FORT SMITH A","2202201","2019-03-03 04:00","2019","03","03","04:00","-22.8","","-28.1","","62","","","","30","","12","","24.1","","101.35","","","","-31","","NA"
"-111.96","60.02","FORT SMITH A","2202201","2019-03-03 05:00","2019","03","03","05:00","-23.0","","-28.1","","64","","","","30","","12","","24.1","","101.32","","","","-32","","Mainly Clear"
"-111.96","60.02","FORT SMITH A","2202201","2019-03-03 06:00","2019","03","03","06:00","-22.8","","-27.8","","64","","","","30","","13","","24.1","","101.31","","","","-32","","NA"
"-111.96","60.02","FORT SMITH A","2202201","2019-03-03 07:00","2019","03","03","07:00","-23.3","","-28.2","","65","","","","29","","12","","24.1","","101.28","","","","-32","","NA"
"-111.96","60.02","FORT SMITH A","2202201","2019-03-03 08:00","2019","03","03","08:00","-23.6","","-28.0","","67","","","","28","","16","","24.1","","101.22","","","","-34","","Clear"
"-111.96","60.02","FORT SMITH A","2202201","2019-03-03 09:00","2019","03","03","09:00","-22.6","","-27.7","","63","","","","29","","12","","24.1","","101.18","","","","-31","","NA"
"-111.96","60.02","FORT SMITH A","2202201","2019-03-03 10:00","2019","03","03","10:00","-19.7","","-26.3","","57","","","","30","","16","","24.1","","101.18","","","","-29","","NA"
"-111.96","60.02","FORT SMITH A","2202201","2019-03-03 11:00","2019","03","03","11:00","-17.5","","-24.9","","54","","","","29","","18","","24.1","","101.15","","","","-27","","Clear"
"-111.96","60.02","FORT SMITH A","2202201","2019-03-03 12:00","2019","03","03","12:00","-15.2","","-24.2","","47","","","","29","","16","","24.1","","101.07","","","","-23","","NA"
"-111.96","60.02","FORT SMITH A","2202201","2019-03-03 13:00","2019","03","03","13:00","-13.8","","-23.3","","45","","","","30","","18","","24.1","","101.04","","","","-22","","NA"
"-111.96","60.02","FORT SMITH A","2202201","2019-03-03 14:00","2019","03","03","14:00","-12.8","","-22.4","","45","","","","29","","18","","24.1","","100.99","","","","-21","","Mainly Clear"
"-111.96","60.02","FORT SMITH A","2202201","2019-03-03 15:00","2019","03","03","15:00","-12.0","","-22.5","","42","","","","29","","16","","24.1","","100.96","","","","-19","","NA"
"-111.96","60.02","FORT SMITH A","2202201","2019-03-03 16:00","2019","03","03","16:00","-11.8","","-21.8","","44","","","","29","","17","","24.1","","100.90","","","","-19","","NA"
"-111.96","60.02","FORT SMITH A","2202201","2019-03-03 17:00","2019","03","03","17:00","-11.7","","-21.7","","44","","","","30","","17","","24.1","","100.84","","","","-19","","Mainly Clear"
"-111.96","60.02","FORT SMITH A","2202201","2019-03-03 18:00","2019","03","03","18:00","-12.2","","-22.2","","44","","","","31","","10","","24.1","","100.80","","","","-18","","NA"
"-111.96","60.02","FORT SMITH A","2202201","2019-03-03 19:00","2019","03","03","19:00","-13.8","","-22.4","","49","","","","30","","10","","24.1","","100.74","","","","-20","","NA"
"-111.96","60.02","FORT SMITH A","2202201","2019-03-03 20:00","2019","03","03","20:00","-14.6","","-22.4","","52","","","","30","","9","","24.1","","100.69","","","","-20","","Mainly Clear"
"-111.96","60.02","FORT SMITH A","2202201","2019-03-03 21:00","2019","03","03","21:00","-15.2","","-22.4","","55","","","","29","","10","","24.1","","100.64","","","","-21","","NA"
"-111.96","60.02","FORT SMITH A","2202201","2019-03-03 22:00","2019","03","03","22:00","-16.4","","-22.9","","58","","","","30","","11","","24.1","","100.60","","","","-23","","NA"
"-111.96","60.02","FORT SMITH A","2202201","2019-03-03 23:00","2019","03","03","23:00","-16.7","","-23.9","","55","","","","29","","10","","24.1","","100.54","","","","-23","","Clear"
"-111.96","60.02","FORT SMITH A","2202201","2019-03-04 00:00","2019","03","04","00:00","-16.4","","-23.8","","54","","","","30","","10","","24.1","","100.53","","","","-23","","NA"
"-111.96","60.02","FORT SMITH A","2202201","2019-03-04 01:00","2019","03","04","01:00","-17.2","","-23.3","","60","","","","29","","14","","24.1","","100.49","","","","-25","","NA"
"-111.96","60.02","FORT SMITH A","2202201","2019-03-04 02:00","2019","03","04","02:00","-16.7","","-23.2","","58","","","","30","","12","","24.1","","100.47","","","","-24","","Clear"
"-111.96","60.02","FORT SMITH A","2202201","2019-03-04 03:00","2019","03","04","03:00","-17.2","","-23.1","","61","","","","30","","13","","24.1","","100.43","","","","-25","","NA"
"-111.96","60.02","FORT SMITH A","2202201","2019-03-04 04:00","2019","03","04","04:00","-16.8","","-22.7","","61","","","","30","","14","","24.1","","100.40","","","","-25","","NA"
"-111.96","60.02","FORT SMITH A","2202201","2019-03-04 05:00","2019","03","04","05:00","-15.3","","-21.5","","60","","","","30","","15","","24.1","","100.42","","","","-23","","Mostly Cloudy"
"-111.96","60.02","FORT SMITH A","2202201","2019-03-04 06:00","2019","03","04","06:00","-14.9","","-20.6","","63","","","","29","","25","","24.1","","100.37","","","","-25","","NA"
"-111.96","60.02","FORT SMITH A","2202201","2019-03-04 07:00","2019","03","04","07:00","-14.9","","-20.8","","61","","","","29","","22","","24.1","","100.35","","","","-24","","Blowing Snow"
"-111.96","60.02","FORT SMITH A","2202201","2019-03-04 08:00","2019","03","04","08:00","-15.5","","-21.2","","62","","","","29","","21","","24.1","","100.35","","","","-25","","Blowing Snow"
"-111.96","60.02","FORT SMITH A","2202201","2019-03-04 09:00","2019","03","04","09:00","-16.2","","-21.5","","64","","","","30","","26","","24.1","","100.36","","","","-27","","Blowing Snow"
"-111.96","60.02","FORT SMITH A","2202201","2019-03-04 10:00","2019","03","04","10:00","-15.4","","-21.5","","60","","","","30","","23","","24.1","","100.40","","","","-25","","Blowing Snow"
"-111.96","60.02","FORT SMITH A","2202201","2019-03-04 11:00","2019","03","04","11:00","-14.1","","-20.6","","58","","","","29","","27","","24.1","","100.36","","","","-24","","Blowing Snow"
"-111.96","60.02","FORT SMITH A","2202201","2019-03-04 12:00","2019","03","04","12:00","-12.8","","-19.9","","56","","","","29","","23","","24.1","","100.38","","","","-22","","Blowing Snow"
"-111.96","60.02","FORT SMITH A","2202201","2019-03-04 13:00","2019","03","04","13:00","-11.8","","-19.4","","54","","","","30","","24","","24.1","","100.39","","","","-21","","Blowing Snow"
"-111.96","60.02","FORT SMITH A","2202201","2019-03-04 14:00","2019","03","04","14:00","-11.0","","-18.8","","53","","","","29","","30","","24.1","","100.39","","","","-21","","Blowing Snow"
"-111.96","60.02","FORT SMITH A","2202201","2019-03-04 15:00","2019","03","04","15:00","-10.7","","-18.9","","52","","","","29","","19","","24.1","","100.40","","","","-19","","NA"
"-111.96","60.02","FORT SMITH A","2202201","2019-03-04 16:00","2019","03","04","16:00","-11.3","","-18.3","","57","","","","29","","21","","24.1","","100.40","","","","-20","","Blowing Snow"
"-111.96","60.02","FORT SMITH A","2202201","2019-03-04 17:00","2019","03","04","17:00","-11.4","","-17.3","","62","","","","31","","26","","24.1","","100.47","","","","-21","","Blowing Snow"
"-111.96","60.02","FORT SMITH A","2202201","2019-03-04 18:00","2019","03","04","18:00","-13.7","","-16.9","","77","","","","30","","28","","9.7","","100.52","","","","-24","","Snow,Blowing Snow"
"-111.96","60.02","FORT SMITH A","2202201","2019-03-04 19:00","2019","03","04","19:00","-13.3","","-16.2","","79","","","","30","","21","","4.8","","100.50","","","","-22","","Snow,Blowing Snow"
"-111.96","60.02","FORT SMITH A","2202201","2019-03-04 20:00","2019","03","04","20:00","-12.5","","-15.6","","78","","","","31","","16","","19.3","","100.49","","","","-20","","Snow,Blowing Snow"
"-111.96","60.02","FORT SMITH A","2202201","2019-03-04 21:00","2019","03","04","21:00","-12.8","","-16.4","","75","","","","33","","16","","24.1","","100.50","","","","-20","","Blowing Snow"
"-111.96","60.02","FORT SMITH A","2202201","2019-03-04 22:00","2019","03","04","22:00","-13.0","","-16.3","","77","","","","32","","14","","19.3","","100.51","","","","-20","","Blowing Snow"
"-111.96","60.02","FORT SMITH A","2202201","2019-03-04 23:00","2019","03","04","23:00","-14.2","","-17.9","","74","","","","32","","15","","24.1","","100.54","","","","-22","","Snow,Blowing Snow"
"-111.96","60.02","FORT SMITH A","2202201","2019-03-05 00:00","2019","03","05","00:00","-15.5","","-18.4","","78","","","","31","","15","","24.1","","100.57","","","","-24","","Snow,Blowing Snow"
"-111.96","60.02","FORT SMITH A","2202201","2019-03-05 01:00","2019","03","05","01:00","-14.8","","-17.6","","79","","","","32","","12","","19.3","","100.58","","","","-22","","Snow,Blowing Snow"
"-111.96","60.02","FORT SMITH A","2202201","2019-03-05 02:00","2019","03","05","02:00","-14.1","","-17.1","","79","","","","31","","13","","24.1","","100.59","","","","-21","","Snow,Blowing Snow"
"-111.96","60.02","FORT SMITH A","2202201","2019-03-05 03:00","2019","03","05","03:00","-13.8","","-16.9","","78","","","","34","","14","","19.3","","100.61","","","","-21","","Snow,Blowing Snow"
"-111.96","60.02","FORT SMITH A","2202201","2019-03-05 04:00","2019","03","05","04:00","-14.8","","-18.4","","75","","","","34","","17","","24.1","","100.68","","","","-23","","Snow,Blowing Snow"
"-111.96","60.02","FORT SMITH A","2202201","2019-03-05 05:00","2019","03","05","05:00","-16.1","","-19.0","","78","","","","34","","13","","24.1","","100.74","","","","-24","","Blowing Snow"
"-111.96","60.02","FORT SMITH A","2202201","2019-03-05 06:00","2019","03","05","06:00","-15.9","","-18.8","","79","","","","35","","10","","19.3","","100.80","","","","-22","","Snow,Blowing Snow"
"-111.96","60.02","FORT SMITH A","2202201","2019-03-05 07:00","2019","03","05","07:00","-15.5","","-18.2","","80","","","","32","","7","","24.1","","100.82","","","","-20","","Snow"
"-111.96","60.02","FORT SMITH A","2202201","2019-03-05 08:00","2019","03","05","08:00","-14.7","","-17.5","","80","","","","34","","9","","24.1","","100.85","","","","-20","","Snow"
"-111.96","60.02","FORT SMITH A","2202201","2019-03-05 09:00","2019","03","05","09:00","-14.2","","-17.4","","77","","","","32","","10","","24.1","","100.83","","","","-20","","Snow"
"-111.96","60.02","FORT SMITH A","2202201","2019-03-05 10:00","2019","03","05","10:00","-13.9","","-17.6","","74","","","","31","","15","","24.1","","100.87","","","","-22","","Snow"
"-111.96","60.02","FORT SMITH A","2202201","2019-03-05 11:00","2019","03","05","11:00","-13.5","","-17.3","","74","","","","35","","9","","24.1","","100.89","","","","-19","","Snow,Blowing Snow"
"-111.96","60.02","FORT SMITH A","2202201","2019-03-05 12:00","2019","03","05","12:00","-12.9","","-17.2","","70","","","","34","","9","","24.1","","100.88","","","","-18","","Snow"
"-111.96","60.02","FORT SMITH A","2202201","2019-03-05 13:00","2019","03","05","13:00","-11.9","","-16.6","","68","","","","34","","9","","24.1","","100.86","","","","-17","","NA"
"-111.96","60.02","FORT SMITH A","2202201","2019-03-05 14:00","2019","03","05","14:00","-11.5","","-17.5","","61","","","","34","","12","","24.1","","100.84","","","","-18","","Mainly Clear"
"-111.96","60.02","FORT SMITH A","2202201","2019-03-05 15:00","2019","03","05","15:00","-11.4","","-17.9","","59","","","","1","","12","","24.1","","100.84","","","","-18","","NA"
"-111.96","60.02","FORT SMITH A","2202201","2019-03-05 16:00","2019","03","05","16:00","-11.2","","-18.1","","57","","","","34","","12","","24.1","","100.83","","","","-17","","NA"
"-111.96","60.02","FORT SMITH A","2202201","2019-03-05 17:00","2019","03","05","17:00","-11.1","","-17.8","","58","","","","34","","8","","24.1","","100.80","","","","-16","","Mainly Clear"
"-111.96","60.02","FORT SMITH A","2202201","2019-03-05 18:00","2019","03","05","18:00","-12.3","","-18.2","","62","","","","3","","7","","24.1","","100.76","","","","-17","","NA"
"-111.96","60.02","FORT SMITH A","2202201","2019-03-05 19:00","2019","03","05","19:00","-16.3","","-19.4","","77","","","","36","","1","","24.1","","100.73","","","","-17","","NA"
"-111.96","60.02","FORT SMITH A","2202201","2019-03-05 20:00","2019","03","05","20:00","-18.9","","-21.8","","79","","","","36","","3","","24.1","","100.70","","","","-21","","Clear"
"-111.96","60.02","FORT SMITH A","2202201","2019-03-05 21:00","2019","03","05","21:00","-20.3","","-22.3","","84","","","","36","","2","","24.1","","100.68","","","","-22","","NA"
"-111.96","60.02","FORT SMITH A","2202201","2019-03-05 22:00","2019","03","05","22:00","-20.5","","-22.7","","83","","","","19","","3","","24.1","","100.65","","","","-23","","NA"
"-111.96","60.02","FORT SMITH A","2202201","2019-03-05 23:00","2019","03","05","23:00","-21.9","","-24.3","","81","","","","16","","4","","24.1","","100.61","","","","-26","","Clear"
"-111.96","60.02","FORT SMITH A","2202201","2019-03-06 00:00","2019","03","06","00:00","-23.0","","-25.4","","81","","","","15","","7","","24.1","","100.56","","","","-29","","NA"
"-111.96","60.02","FORT SMITH A","2202201","2019-03-06 01:00","2019","03","06","01:00","-23.4","","-25.8","","81","","","","36","","1","","24.1","","100.53","","","","-24","","NA"
"-111.96","60.02","FORT SMITH A","2202201","2019-03-06 02:00","2019","03","06","02:00","-23.9","","-26.3","","81","","","","14","","7","","24.1","","100.47","","","","-30","","Clear"
"-111.96","60.02","FORT SMITH A","2202201","2019-03-06 03:00","2019","03","06","03:00","-25.1","","-27.8","","79","","","","14","","5","","24.1","","100.41","","","","-30","","NA"
"-111.96","60.02","FORT SMITH A","2202201","2019-03-06 04:00","2019","03","06","04:00","-24.0","","-26.4","","81","","","","15","","5","","24.1","","100.37","","","","-29","","NA"
"-111.96","60.02","FORT SMITH A","2202201","2019-03-06 05:00","2019","03","06","05:00","-23.5","","-25.8","","82","","","","15","","7","","24.1","","100.31","","","","-30","","Clear"
"-111.96","60.02","FORT SMITH A","2202201","2019-03-06 06:00","2019","03","06","06:00","-21.8","","-24.1","","82","","","","15","","11","","24.1","","100.23","","","","-30","","NA"
"-111.96","60.02","FORT SMITH A","2202201","2019-03-06 07:00","2019","03","06","07:00","-22.4","","-24.8","","81","","","","14","","7","","24.1","","100.18","","","","-28","","NA"
"-111.96","60.02","FORT SMITH A","2202201","2019-03-06 08:00","2019","03","06","08:00","-22.8","","-25.2","","81","","","","14","","8","","24.1","","100.11","","","","-30","","Clear"
"-111.96","60.02","FORT SMITH A","2202201","2019-03-06 09:00","2019","03","06","09:00","-19.4","","-21.7","","82","","","","14","","7","","24.1","","100.05","","","","-25","","NA"
"-111.96","60.02","FORT SMITH A","2202201","2019-03-06 10:00","2019","03","06","10:00","-15.3","","-18.2","","79","","","","16","","8","","24.1","","99.99","","","","-21","","NA"
"-111.96","60.02","FORT SMITH A","2202201","2019-03-06 11:00","2019","03","06","11:00","-12.0","","-17.3","","65","","","","17","","9","","24.1","","99.88","","","","-17","","Clear"
"-111.96","60.02","FORT SMITH A","2202201","2019-03-06 12:00","2019","03","06","12:00","-9.8","","-16.6","","58","","","","17","","12","","24.1","","99.80","","","","-16","","NA"
"-111.96","60.02","FORT SMITH A","2202201","2019-03-06 13:00","2019","03","06","13:00","-7.3","","-16.0","","50","","","","17","","12","","24.1","","99.70","","","","-13","","NA"
"-111.96","60.02","FORT SMITH A","2202201","2019-03-06 14:00","2019","03","06","14:00","-5.8","","-16.2","","44","","","","16","","14","","24.1","","99.60","","","","-11","","Clear"
"-111.96","60.02","FORT SMITH A","2202201","2019-03-06 15:00","2019","03","06","15:00","-4.2","","-19.5","","30","","","","19","","18","","24.1","","99.48","","","","-10","","NA"
"-111.96","60.02","FORT SMITH A","2202201","2019-03-06 16:00","2019","03","06","16:00","-4.3","","-17.1","","36","","","","17","","15","","24.1","","99.40","","","","-10","","NA"
"-111.96","60.02","FORT SMITH A","2202201","2019-03-06 17:00","2019","03","06","17:00","-5.3","","-16.2","","43","","","","17","","16","","24.1","","99.29","","","","-11","","Clear"
"-111.96","60.02","FORT SMITH A","2202201","2019-03-06 18:00","2019","03","06","18:00","-7.9","","-15.8","","53","","","","16","","11","","24.1","","99.20","","","","-13","","NA"
"-111.96","60.02","FORT SMITH A","2202201","2019-03-06 19:00","2019","03","06","19:00","-9.9","","-16.5","","59","","","","14","","12","","24.1","","99.16","","","","-16","","NA"
"-111.96","60.02","FORT SMITH A","2202201","2019-03-06 20:00","2019","03","06","20:00","-11.2","","-16.9","","63","","","","16","","14","","24.1","","99.09","","","","-18","","Clear"
"-111.96","60.02","FORT SMITH A","2202201","2019-03-06 21:00","2019","03","06","21:00","-12.5","","-17.5","","67","","","","15","","12","","24.1","","99.05","","","","-19","","NA"
"-111.96","60.02","FORT SMITH A","2202201","2019-03-06 22:00","2019","03","06","22:00","-13.5","","-18.1","","69","","","","15","","13","","24.1","","98.99","","","","-20","","NA"
"-111.96","60.02","FORT SMITH A","2202201","2019-03-06 23:00","2019","03","06","23:00","-14.6","","-18.6","","72","","","","15","","10","","24.1","","98.94","","","","-21","","Clear"
"-111.96","60.02","FORT SMITH A","2202201","2019-03-07 00:00","2019","03","07","00:00","-16.1","","-19.4","","77","","","","15","","7","","24.1","","98.91","","","","-21","","NA"
"-111.96","60.02","FORT SMITH A","2202201","2019-03-07 01:00","2019","03","07","01:00","-16.6","","-19.5","","78","","","","15","","8","","24.1","","98.89","","","","-22","","NA"
"-111.96","60.02","FORT SMITH A","2202201","2019-03-07 02:00","2019","03","07","02:00","-19.8","","-22.1","","82","","","","15","","4","","24.1","","98.86","","","","-23","","Clear"
"-111.96","60.02","FORT SMITH A","2202201","2019-03-07 03:00","2019","03","07","03:00","-20.8","","-22.9","","84","","","","16","","8","","24.1","","98.82","","","","-27","","NA"
"-111.96","60.02","FORT SMITH A","2202201","2019-03-07 04:00","2019","03","07","04:00","-19.9","","-21.9","","84","","","","16","","8","","24.1","","98.77","","","","-26","","NA"
"-111.96","60.02","FORT SMITH A","2202201","2019-03-07 05:00","2019","03","07","05:00","-19.7","","-21.8","","84","","","","16","","5","","24.1","","98.75","","","","-24","","Clear"
"-111.96","60.02","FORT SMITH A","2202201","2019-03-07 06:00","2019","03","07","06:00","-20.7","","-22.8","","84","","","","16","","7","","24.1","","98.73","","","","-26","","NA"
"-111.96","60.02","FORT SMITH A","2202201","2019-03-07 07:00","2019","03","07","07:00","-22.4","","-24.8","","81","","","","14","","7","","24.1","","98.70","","","","-28","","NA"
"-111.96","60.02","FORT SMITH A","2202201","2019-03-07 08:00","2019","03","07","08:00","-23.1","","-25.6","","80","","","","16","","7","","24.1","","98.67","","","","-29","","Mostly Cloudy"
"-111.96","60.02","FORT SMITH A","2202201","2019-03-07 09:00","2019","03","07","09:00","-17.5","","-19.9","","82","","","","14","","5","","24.1","","98.67","","","","-21","","NA"
"-111.96","60.02","FORT SMITH A","2202201","2019-03-07 10:00","2019","03","07","10:00","-14.1","","-18.0","","73","","","","36","","1","","24.1","","98.65","","","","-15","","NA"
"-111.96","60.02","FORT SMITH A","2202201","2019-03-07 11:00","2019","03","07","11:00","-12.2","","-18.1","","62","","","","36","","1","","24.1","","98.63","","","","-13","","Mainly Clear"
"-111.96","60.02","FORT SMITH A","2202201","2019-03-07 12:00","2019","03","07","12:00","-8.0","","-16.5","","51","","","","36","","3","","24.1","","98.60","","","","-10","","NA"
"-111.96","60.02","FORT SMITH A","2202201","2019-03-07 13:00","2019","03","07","13:00","-5.8","","-16.0","","45","","","","36","","3","","24.1","","98.56","","","","-7","","NA"
"-111.96","60.02","FORT SMITH A","2202201","2019-03-07 14:00","2019","03","07","14:00","-4.2","","-14.8","","44","","","","25","","11","","24.1","","98.54","","","","-9","","Mainly Clear"
"-111.96","60.02","FORT SMITH A","2202201","2019-03-07 15:00","2019","03","07","15:00","-4.3","","-15.6","","41","","","","2","","5","","24.1","","98.50","","","","-6","","NA"
"-111.96","60.02","FORT SMITH A","2202201","2019-03-07 16:00","2019","03","07","16:00","-2.8","","-15.7","","37","","","","36","","1","","24.1","","98.47","","","","-3","","NA"
"-111.96","60.02","FORT SMITH A","2202201","2019-03-07 17:00","2019","03","07","17:00","-3.5","","-15.7","","39","","","","20","","7","","24.1","","98.43","","","","-6","","Mainly Clear"
"-111.96","60.02","FORT SMITH A","2202201","2019-03-07 18:00","2019","03","07","18:00","-5.5","","-15.2","","47","","","","15","","7","","24.1","","98.39","","","","-9","","NA"
"-111.96","60.02","FORT SMITH A","2202201","2019-03-07 19:00","2019","03","07","19:00","-8.8","","-15.9","","57","","","","15","","8","","24.1","","98.39","","","","-13","","NA"
"-111.96","60.02","FORT SMITH A","2202201","2019-03-07 20:00","2019","03","07","20:00","-10.3","","-16.5","","61","","","","14","","8","","24.1","","98.39","","","","-15","","Clear"
"-111.96","60.02","FORT SMITH A","2202201","2019-03-07 21:00","2019","03","07","21:00","-11.5","","-16.9","","65","","","","16","","7","","24.1","","98.39","","","","-16","","NA"
"-111.96","60.02","FORT SMITH A","2202201","2019-03-07 22:00","2019","03","07","22:00","-12.7","","-17.1","","70","","","","16","","6","","24.1","","98.39","","","","-17","","NA"
"-111.96","60.02","FORT SMITH A","2202201","2019-03-07 23:00","2019","03","07","23:00","-15.7","","-19.0","","76","","","","15","","5","","24.1","","98.39","","","","-19","","Clear"
"-111.96","60.02","FORT SMITH A","2202201","2019-03-08 00:00","2019","03","08","00:00","-17.2","","-19.5","","82","","","","15","","5","","24.1","","98.37","","","","-21","","NA"
"-111.96","60.02","FORT SMITH A","2202201","2019-03-08 01:00","2019","03","08","01:00","-16.8","","-19.4","","81","","","","15","","9","","24.1","","98.32","","","","-23","","NA"
"-111.96","60.02","FORT SMITH A","2202201","2019-03-08 02:00","2019","03","08","02:00","-18.4","","-20.8","","82","","","","36","","2","","24.1","","98.30","","","","-20","","Clear"
"-111.96","60.02","FORT SMITH A","2202201","2019-03-08 03:00","2019","03","08","03:00","-19.2","","-21.2","","84","","","","14","","10","","24.1","","98.30","","","","-26","","NA"
"-111.96","60.02","FORT SMITH A","2202201","2019-03-08 04:00","2019","03","08","04:00","-18.5","","-20.7","","83","","","","16","","8","","24.1","","98.24","","","","-24","","NA"
"-111.96","60.02","FORT SMITH A","2202201","2019-03-08 05:00","2019","03","08","05:00","-20.1","","-21.9","","86","","","","18","","3","","24.1","","98.21","","","","-23","","Clear"
"-111.96","60.02","FORT SMITH A","2202201","2019-03-08 06:00","2019","03","08","06:00","-21.8","","-24.1","","82","","","","16","","5","","24.1","","98.20","","","","-26","","NA"
"-111.96","60.02","FORT SMITH A","2202201","2019-03-08 07:00","2019","03","08","07:00","-22.7","","-24.9","","83","","","","17","","4","","24.1","","98.22","","","","-26","","NA"
"-111.96","60.02","FORT SMITH A","2202201","2019-03-08 08:00","2019","03","08","08:00","-23.0","","-25.4","","81","","","","18","","4","","24.1","","98.25","","","","-27","","Mostly Cloudy"
"-111.96","60.02","FORT SMITH A","2202201","2019-03-08 09:00","2019","03","08","09:00","-17.5","","-19.7","","83","","","","30","","9","","24.1","","98.26","","","","-24","","NA"
"-111.96","60.02","FORT SMITH A","2202201","2019-03-08 10:00","2019","03","08","10:00","-14.8","","-17.8","","78","","","","29","","12","","24.1","","98.28","","","","-22","","NA"
"-111.96","60.02","FORT SMITH A","2202201","2019-03-08 11:00","2019","03","08","11:00","-11.7","","-16.0","","71","","","","29","","15","","24.1","","98.29","","","","-19","","Mostly Cloudy"
"-111.96","60.02","FORT SMITH A","2202201","2019-03-08 12:00","2019","03","08","12:00","-8.8","","-14.4","","64","","","","29","","15","","24.1","","98.30","","","","-15","","NA"
"-111.96","60.02","FORT SMITH A","2202201","2019-03-08 13:00","2019","03","08","13:00","-7.2","","-13.4","","62","","","","29","","18","","24.1","","98.32","","","","-14","","NA"
"-111.96","60.02","FORT SMITH A","2202201","2019-03-08 14:00","2019","03","08","14:00","-6.1","","-13.0","","58","","","","29","","19","","24.1","","98.34","","","","-13","","Mostly Cloudy"
"-111.96","60.02","FORT SMITH A","2202201","2019-03-08 15:00","2019","03","08","15:00","-5.6","","-13.5","","54","","","","33","","20","","24.1","","98.35","","","","-12","","NA"
"-111.96","60.02","FORT SMITH A","2202201","2019-03-08 16:00","2019","03","08","16:00","-5.9","","-13.2","","57","","","","31","","18","","24.1","","98.39","","","","-12","","NA"
"-111.96","60.02","FORT SMITH A","2202201","2019-03-08 17:00","2019","03","08","17:00","-6.7","","-12.9","","61","","","","31","","10","","24.1","","98.45","","","","-11","","Snow"
"-111.96","60.02","FORT SMITH A","2202201","2019-03-08 18:00","2019","03","08","18:00","-7.3","","-12.3","","68","","","","31","","12","","24.1","","98.49","","","","-13","","Snow"
"-111.96","60.02","FORT SMITH A","2202201","2019-03-08 19:00","2019","03","08","19:00","-8.5","","-12.3","","74","","","","31","","15","","24.1","","98.53","","","","-15","","Snow"
"-111.96","60.02","FORT SMITH A","2202201","2019-03-08 20:00","2019","03","08","20:00","-10.7","","-14.2","","76","","","","32","","10","","24.1","","98.58","","","","-16","","Snow"
"-111.96","60.02","FORT SMITH A","2202201","2019-03-08 21:00","2019","03","08","21:00","-12.0","","-14.7","","80","","","","32","","8","","24.1","","98.60","","","","-17","","NA"
"-111.96","60.02","FORT SMITH A","2202201","2019-03-08 22:00","2019","03","08","22:00","-13.3","","-15.5","","84","","","","31","","9","","24.1","","98.66","","","","-19","","NA"
"-111.96","60.02","FORT SMITH A","2202201","2019-03-08 23:00","2019","03","08","23:00","-13.6","","-15.7","","85","","","","33","","8","","24.1","","98.73","","","","-19","","Snow"
"-111.96","60.02","FORT SMITH A","2202201","2019-03-09 00:00","2019","03","09","00:00","-13.7","","-15.8","","84","","","","34","","7","","24.1","","98.74","","","","-18","","Snow"
"-111.96","60.02","FORT SMITH A","2202201","2019-03-09 01:00","2019","03","09","01:00","-13.6","","-15.8","","84","","","","33","","8","","19.3","","98.77","","","","-19","","Snow"
"-111.96","60.02","FORT SMITH A","2202201","2019-03-09 02:00","2019","03","09","02:00","-12.9","","-15.4","","82","","","","34","","7","","19.3","","98.82","","","","-17","","Snow"
"-111.96","60.02","FORT SMITH A","2202201","2019-03-09 03:00","2019","03","09","03:00","-12.9","","-15.3","","83","","","","31","","4","","19.3","","98.88","","","","-16","","Snow"
"-111.96","60.02","FORT SMITH A","2202201","2019-03-09 04:00","2019","03","09","04:00","-12.8","","-15.2","","82","","","","34","","8","","19.3","","98.91","","","","-18","","Snow"
"-111.96","60.02","FORT SMITH A","2202201","2019-03-09 05:00","2019","03","09","05:00","-12.9","","-15.4","","82","","","","35","","7","","19.3","","98.92","","","","-17","","Snow"
"-111.96","60.02","FORT SMITH A","2202201","2019-03-09 06:00","2019","03","09","06:00","-13.1","","-15.5","","82","","","","36","","9","","19.3","","99.00","","","","-19","","Snow"
"-111.96","60.02","FORT SMITH A","2202201","2019-03-09 07:00","2019","03","09","07:00","-13.2","","-15.6","","82","","","","1","","9","","24.1","","99.04","","","","-19","","Snow"
"-111.96","60.02","FORT SMITH A","2202201","2019-03-09 08:00","2019","03","09","08:00","-13.4","","-15.9","","82","","","","2","","13","","24.1","","99.09","","","","-20","","Snow"
"-111.96","60.02","FORT SMITH A","2202201","2019-03-09 09:00","2019","03","09","09:00","-13.4","","-15.8","","82","","","","2","","7","","19.3","","99.12","","","","-18","","Snow"
"-111.96","60.02","FORT SMITH A","2202201","2019-03-09 10:00","2019","03","09","10:00","-13.3","","-16.0","","81","","","","4","","7","","19.3","","99.17","","","","-18","","Snow"
"-111.96","60.02","FORT SMITH A","2202201","2019-03-09 11:00","2019","03","09","11:00","-12.8","","-15.8","","78","","","","34","","4","","19.3","","99.21","","","","-15","","Snow"
"-111.96","60.02","FORT SMITH A","2202201","2019-03-09 12:00","2019","03","09","12:00","-12.3","","-15.9","","74","","","","0","","1","","24.1","","99.22","","","","-13","","Snow"
"-111.96","60.02","FORT SMITH A","2202201","2019-03-09 13:00","2019","03","09","13:00","-11.4","","-15.4","","73","","","","36","","1","","24.1","","99.23","","","","-12","","Snow"
"-111.96","60.02","FORT SMITH A","2202201","2019-03-09 14:00","2019","03","09","14:00","-10.7","","-15.3","","69","","","","15","","3","","24.1","","99.21","","","","-13","","Snow"
"-111.96","60.02","FORT SMITH A","2202201","2019-03-09 15:00","2019","03","09","15:00","-10.6","","-15.6","","67","","","","3","","4","","24.1","","99.17","","","","-13","","Snow"
"-111.96","60.02","FORT SMITH A","2202201","2019-03-09 16:00","2019","03","09","16:00","-9.1","","-14.9","","63","","","","21","","8","","24.1","","99.16","","","","-13","","NA"
"-111.96","60.02","FORT SMITH A","2202201","2019-03-09 17:00","2019","03","09","17:00","-9.5","","-15.0","","64","","","","15","","12","","24.1","","99.15","","","","-15","","Mainly Clear"
"-111.96","60.02","FORT SMITH A","2202201","2019-03-09 18:00","2019","03","09","18:00","-10.4","","-15.4","","67","","","","16","","8","","24.1","","99.12","","","","-15","","NA"
"-111.96","60.02","FORT SMITH A","2202201","2019-03-09 19:00","2019","03","09","19:00","-13.5","","-16.5","","78","","","","14","","7","","24.1","","99.10","","","","-18","","NA"
"-111.96","60.02","FORT SMITH A","2202201","2019-03-09 20:00","2019","03","09","20:00","-12.5","","-15.9","","75","","","","14","","12","","24.1","","99.06","","","","-19","","Clear"
"-111.96","60.02","FORT SMITH A","2202201","2019-03-09 21:00","2019","03","09","21:00","-13.4","","-16.3","","79","","","","15","","12","","24.1","","99.03","","","","-20","","NA"
"-111.96","60.02","FORT SMITH A","2202201","2019-03-09 22:00","2019","03","09","22:00","-13.9","","-16.4","","81","","","","16","","14","","24.1","","99.00","","","","-21","","NA"
"-111.96","60.02","FORT SMITH A","2202201","2019-03-09 23:00","2019","03","09","23:00","-14.0","","-16.3","","83","","","","16","","18","","24.1","","98.93","","","","-22","","Clear"
"-111.96","60.02","FORT SMITH A","2202201","2019-03-10 00:00","2019","03","10","00:00","-13.4","","-15.8","","82","","","","16","","16","","24.1","","98.88","","","","-21","","NA"
"-111.96","60.02","FORT SMITH A","2202201","2019-03-10 01:00","2019","03","10","01:00","-13.7","","-16.1","","82","","","","16","","15","","24.1","","98.86","","","","-21","","NA"
"-111.96","60.02","FORT SMITH A","2202201","2019-03-10 02:00","2019","03","10","02:00","-15.3","","-17.2","","86","","","","14","","15","","24.1","","98.78","","","","-23","","Clear"
"-111.96","60.02","FORT SMITH A","2202201","2019-03-10 03:00","2019","03","10","03:00","-15.4","","-17.3","","86","","","","14","","14","","24.1","","98.68","","","","-23","","NA"
"-111.96","60.02","FORT SMITH A","2202201","2019-03-10 04:00","2019","03","10","04:00","-15.4","","-17.4","","84","","","","16","","17","","24.1","","98.56","","","","-24","","NA"
"-111.96","60.02","FORT SMITH A","2202201","2019-03-10 05:00","2019","03","10","05:00","-15.6","","-17.6","","85","","","","16","","17","","24.1","","98.46","","","","-24","","Clear"
"-111.96","60.02","FORT SMITH A","2202201","2019-03-10 06:00","2019","03","10","06:00","-15.7","","-17.7","","85","","","","15","","17","","24.1","","98.37","","","","-24","","NA"
"-111.96","60.02","FORT SMITH A","2202201","2019-03-10 07:00","2019","03","10","07:00","-15.5","","-17.6","","84","","","","15","","21","","24.1","","98.25","","","","-25","","NA"
"-111.96","60.02","FORT SMITH A","2202201","2019-03-10 08:00","2019","03","10","08:00","-14.5","","-16.9","","82","","","","16","","20","","24.1","","98.14","","","","-24","","Clear"
"-111.96","60.02","FORT SMITH A","2202201","2019-03-10 09:00","2019","03","10","09:00","-12.1","","-15.8","","74","","","","16","","17","","24.1","","98.10","","","","-20","","Blowing Snow"
"-111.96","60.02","FORT SMITH A","2202201","2019-03-10 10:00","2019","03","10","10:00","-10.4","","-14.9","","70","","","","17","","18","","24.1","","98.05","","","","-18","","Blowing Snow"
"-111.96","60.02","FORT SMITH A","2202201","2019-03-10 11:00","2019","03","10","11:00","-8.0","","-13.7","","64","","","","17","","14","","24.1","","98.01","","","","-14","","Mainly Clear"
"-111.96","60.02","FORT SMITH A","2202201","2019-03-10 12:00","2019","03","10","12:00","-4.7","","-12.2","","56","","","","16","","14","","24.1","","97.88","","","","-10","","NA"
"-111.96","60.02","FORT SMITH A","2202201","2019-03-10 13:00","2019","03","10","13:00","-2.6","","-11.5","","51","","","","16","","16","","24.1","","97.83","","","","-8","","NA"
"-111.96","60.02","FORT SMITH A","2202201","2019-03-10 14:00","2019","03","10","14:00","-0.2","","-10.4","","46","","","","17","","13","","24.1","","97.75","","","","-4","","Mainly Clear"
"-111.96","60.02","FORT SMITH A","2202201","2019-03-10 15:00","2019","03","10","15:00","1.3","","-10.3","","42","","","","16","","11","","24.1","","97.70","","","","","","NA"
"-111.96","60.02","FORT SMITH A","2202201","2019-03-10 16:00","2019","03","10","16:00","1.4","","-10.0","","43","","","","15","","16","","24.1","","97.61","","","","","","NA"
"-111.96","60.02","FORT SMITH A","2202201","2019-03-10 17:00","2019","03","10","17:00","1.5","","-9.6","","44","","","","15","","18","","24.1","","97.53","","","","","","Mostly Cloudy"
"-111.96","60.02","FORT SMITH A","2202201","2019-03-10 18:00","2019","03","10","18:00","-0.5","","-9.8","","50","","","","16","","18","","24.1","","97.46","","","","-6","","NA"
"-111.96","60.02","FORT SMITH A","2202201","2019-03-10 19:00","2019","03","10","19:00","-1.6","","-9.7","","54","","","","16","","13","","24.1","","97.39","","","","-6","","NA"
"-111.96","60.02","FORT SMITH A","2202201","2019-03-10 20:00","2019","03","10","20:00","-1.8","","-9.4","","56","","","","17","","14","","24.1","","97.28","","","","-6","","Mostly Cloudy"
"-111.96","60.02","FORT SMITH A","2202201","2019-03-10 21:00","2019","03","10","21:00","-1.9","","-9.4","","57","","","","16","","10","","24.1","","97.18","","","","-6","","NA"
"-111.96","60.02","FORT SMITH A","2202201","2019-03-10 22:00","2019","03","10","22:00","-1.5","","-9.4","","55","","","","16","","12","","24.1","","97.07","","","","-6","","NA"
"-111.96","60.02","FORT SMITH A","2202201","2019-03-10 23:00","2019","03","10","23:00","-1.9","","-9.2","","58","","","","17","","12","","24.1","","96.99","","","","-6","","Cloudy"
"-111.96","60.02","FORT SMITH A","2202201","2019-03-11 00:00","2019","03","11","00:00","-1.8","","-9.1","","58","","","","16","","10","","24.1","","96.92","","","","-5","","NA"
"-111.96","60.02","FORT SMITH A","2202201","2019-03-11 01:00","2019","03","11","01:00","-2.2","","-9.1","","59","","","","17","","9","","24.1","","96.85","","","","-6","","NA"
"-111.96","60.02","FORT SMITH A","2202201","2019-03-11 02:00","2019","03","11","02:00","-1.8","","-6.8","","69","","","","20","","9","","24.1","","96.79","","","","-5","","Cloudy"
"-111.96","60.02","FORT SMITH A","2202201","2019-03-11 03:00","2019","03","11","03:00","-1.5","","-5.9","","72","","","","21","","9","","24.1","","96.76","","","","-5","","NA"
"-111.96","60.02","FORT SMITH A","2202201","2019-03-11 04:00","2019","03","11","04:00","0.9","","-6.0","","60","","","","20","","13","","24.1","","96.70","","","","","","NA"
"-111.96","60.02","FORT SMITH A","2202201","2019-03-11 05:00","2019","03","11","05:00","-0.6","","-7.1","","61","","","","20","","16","","24.1","","96.66","","","","-5","","Mostly Cloudy"
"-111.96","60.02","FORT SMITH A","2202201","2019-03-11 06:00","2019","03","11","06:00","-1.4","","-8.2","","60","","","","20","","16","","24.1","","96.61","","","","-6","","NA"
"-111.96","60.02","FORT SMITH A","2202201","2019-03-11 07:00","2019","03","11","07:00","-1.0","","-8.2","","58","","","","20","","15","","24.1","","96.61","","","","-6","","NA"
"-111.96","60.02","FORT SMITH A","2202201","2019-03-11 08:00","2019","03","11","08:00","-0.8","","-8.5","","56","","","","22","","19","","24.1","","96.57","","","","-6","","Mainly Clear"
"-111.96","60.02","FORT SMITH A","2202201","2019-03-11 09:00","2019","03","11","09:00","1.1","","-8.5","","49","","","","22","","22","","24.1","","96.56","","","","","","NA"
"-111.96","60.02","FORT SMITH A","2202201","2019-03-11 10:00","2019","03","11","10:00","1.9","","-8.2","","47","","","","22","","23","","24.1","","96.56","","","","","","NA"
"-111.96","60.02","FORT SMITH A","2202201","2019-03-11 11:00","2019","03","11","11:00","3.5","","-9.0","","40","","","","24","","29","","24.1","","96.55","","","","","","Clear"
"-111.96","60.02","FORT SMITH A","2202201","2019-03-11 12:00","2019","03","11","12:00","4.1","","-8.1","","41","","","","26","","30","","24.1","","96.54","","","","","","NA"
"-111.96","60.02","FORT SMITH A","2202201","2019-03-11 13:00","2019","03","11","13:00","5.1","","-7.3","","40","","","","23","","31","","24.1","","96.56","","","","","","NA"
"-111.96","60.02","FORT SMITH A","2202201","2019-03-11 14:00","2019","03","11","14:00","5.7","","-7.3","","39","","","","26","","25","","24.1","","96.56","","","","","","Mainly Clear"
"-111.96","60.02","FORT SMITH A","2202201","2019-03-11 15:00","2019","03","11","15:00","5.9","","-7.6","","37","","","","25","","32","","24.1","","96.56","","","","","","NA"
"-111.96","60.02","FORT SMITH A","2202201","2019-03-11 16:00","2019","03","11","16:00","5.8","","-7.6","","38","","","","25","","19","","24.1","","96.58","","","","","","NA"
"-111.96","60.02","FORT SMITH A","2202201","2019-03-11 17:00","2019","03","11","17:00","4.8","","-6.9","","42","","","","27","","18","","24.1","","96.63","","","","","","Mainly Clear"
"-111.96","60.02","FORT SMITH A","2202201","2019-03-11 18:00","2019","03","11","18:00","3.5","","-7.3","","45","","","","26","","12","","24.1","","96.65","","","","","","NA"
"-111.96","60.02","FORT SMITH A","2202201","2019-03-11 19:00","2019","03","11","19:00","1.7","","-8.3","","47","","","","25","","8","","24.1","","96.68","","","","","","NA"
"-111.96","60.02","FORT SMITH A","2202201","2019-03-11 20:00","2019","03","11","20:00","-4.6","","-7.9","","78","","","","36","","2","","24.1","","96.71","","","","-5","","Mainly Clear"
"-111.96","60.02","FORT SMITH A","2202201","2019-03-11 21:00","2019","03","11","21:00","-5.9","","-9.4","","77","","","","15","","7","","24.1","","96.71","","","","-9","","NA"
"-111.96","60.02","FORT SMITH A","2202201","2019-03-11 22:00","2019","03","11","22:00","-3.1","","-8.9","","65","","","","17","","4","","24.1","","96.71","","","","-5","","NA"
"-111.96","60.02","FORT SMITH A","2202201","2019-03-11 23:00","2019","03","11","23:00","-2.5","","-9.2","","60","","","","16","","5","","24.1","","96.71","","","","-4","","Mainly Clear"
"-111.96","60.02","FORT SMITH A","2202201","2019-03-12 00:00","2019","03","12","00:00","-4.8","","-9.9","","68","","","","36","","2","","24.1","","96.73","","","","-6","","NA"
"-111.96","60.02","FORT SMITH A","2202201","2019-03-12 01:00","2019","03","12","01:00","-4.6","","-9.5","","69","","","","16","","7","","24.1","","96.74","","","","-8","","NA"
"-111.96","60.02","FORT SMITH A","2202201","2019-03-12 02:00","2019","03","12","02:00","-5.5","","-10.3","","69","","","","17","","7","","24.1","","96.76","","","","-9","","Mainly Clear"
"-111.96","60.02","FORT SMITH A","2202201","2019-03-12 03:00","2019","03","12","03:00","-6.3","","-10.8","","71","","","","27","","4","","24.1","","96.79","","","","-8","","NA"
"-111.96","60.02","FORT SMITH A","2202201","2019-03-12 04:00","2019","03","12","04:00","-7.1","","-10.8","","75","","","","22","","4","","16.1","","96.80","","","","-9","","Snow Pellets"
"-111.96","60.02","FORT SMITH A","2202201","2019-03-12 05:00","2019","03","12","05:00","-4.1","","-10.6","","61","","","","22","","10","","24.1","","96.82","","","","-8","","Mostly Cloudy"
"-111.96","60.02","FORT SMITH A","2202201","2019-03-12 06:00","2019","03","12","06:00","-5.7","","-10.9","","67","","","","24","","5","","24.1","","96.88","","","","-8","","NA"
"-111.96","60.02","FORT SMITH A","2202201","2019-03-12 07:00","2019","03","12","07:00","-4.3","","-10.0","","65","","","","30","","11","","24.1","","96.94","","","","-9","","NA"
"-111.96","60.02","FORT SMITH A","2202201","2019-03-12 08:00","2019","03","12","08:00","-4.4","","-9.1","","70","","","","30","","14","","24.1","","97.00","","","","-10","","Mainly Clear"
"-111.96","60.02","FORT SMITH A","2202201","2019-03-12 09:00","2019","03","12","09:00","-4.1","","-8.5","","71","","","","30","","19","","24.1","","97.09","","","","-10","","NA"
"-111.96","60.02","FORT SMITH A","2202201","2019-03-12 10:00","2019","03","12","10:00","-4.1","","-7.9","","75","","","","29","","30","","24.1","","97.19","","","","-12","","NA"
"-111.96","60.02","FORT SMITH A","2202201","2019-03-12 11:00","2019","03","12","11:00","-5.0","","-6.5","","89","","","","30","","19","","24.1","","97.28","","","","-11","","Mostly Cloudy"
"-111.96","60.02","FORT SMITH A","2202201","2019-03-12 12:00","2019","03","12","12:00","-3.3","","-6.5","","79","","","","30","","24","","24.1","","97.35","","","","-10","","NA"
"-111.96","60.02","FORT SMITH A","2202201","2019-03-12 13:00","2019","03","12","13:00","-1.8","","-6.6","","70","","","","31","","19","","24.1","","97.41","","","","-7","","NA"
"-111.96","60.02","FORT SMITH A","2202201","2019-03-12 14:00","2019","03","12","14:00","-1.4","","-6.5","","68","","","","28","","19","","24.1","","97.48","","","","-7","","Mostly Cloudy"
"-111.96","60.02","FORT SMITH A","2202201","2019-03-12 15:00","2019","03","12","15:00","-0.9","","-6.4","","66","","","","27","","20","","24.1","","97.50","","","","-6","","NA"
"-111.96","60.02","FORT SMITH A","2202201","2019-03-12 16:00","2019","03","12","16:00","-1.0","","-6.7","","66","","","","29","","22","","24.1","","97.57","","","","-7","","NA"
"-111.96","60.02","FORT SMITH A","2202201","2019-03-12 17:00","2019","03","12","17:00","-1.7","","-6.1","","72","","","","29","","30","","19.3","","97.64","","","","-9","","Snow"
"-111.96","60.02","FORT SMITH A","2202201","2019-03-12 18:00","2019","03","12","18:00","-2.4","","-7.1","","70","","","","30","","18","","24.1","","97.72","","","","-8","","NA"
"-111.96","60.02","FORT SMITH A","2202201","2019-03-12 19:00","2019","03","12","19:00","-3.1","","-7.3","","73","","","","30","","18","","24.1","","97.79","","","","-9","","NA"
"-111.96","60.02","FORT SMITH A","2202201","2019-03-12 20:00","2019","03","12","20:00","-4.1","","-8.2","","73","","","","29","","30","","16.1","","97.90","","","","-12","","Snow"
"-111.96","60.02","FORT SMITH A","2202201","2019-03-12 21:00","2019","03","12","21:00","-5.0","","-9.1","","73","","","","31","","13","","19.3","","97.99","","","","-10","","Snow"
"-111.96","60.02","FORT SMITH A","2202201","2019-03-12 22:00","2019","03","12","22:00","-6.1","","-9.3","","78","","","","31","","16","","16.1","","98.03","","","","-12","","Snow"
"-111.96","60.02","FORT SMITH A","2202201","2019-03-12 23:00","2019","03","12","23:00","-6.7","","-9.4","","81","","","","31","","16","","16.1","","98.10","","","","-13","","Snow"
"-111.96","60.02","FORT SMITH A","2202201","2019-03-13 00:00","2019","03","13","00:00","-7.1","","-10.1","","79","","","","32","","15","","16.1","","98.16","","","","-13","","Snow"
"-111.96","60.02","FORT SMITH A","2202201","2019-03-13 01:00","2019","03","13","01:00","-7.8","","-9.7","","86","","","","30","","12","","16.1","","98.24","","","","-13","","Snow"
"-111.96","60.02","FORT SMITH A","2202201","2019-03-13 02:00","2019","03","13","02:00","-8.5","","-11.4","","80","","","","31","","14","","19.3","","98.32","","","","-15","","Snow,Blowing Snow"
"-111.96","60.02","FORT SMITH A","2202201","2019-03-13 03:00","2019","03","13","03:00","-10.6","","-12.6","","85","","","","29","","9","","16.1","","98.40","","","","-16","","Snow"
"-111.96","60.02","FORT SMITH A","2202201","2019-03-13 04:00","2019","03","13","04:00","-9.4","","-11.6","","84","","","","31","","17","","24.1","","98.46","","","","-16","","Snow"
"-111.96","60.02","FORT SMITH A","2202201","2019-03-13 05:00","2019","03","13","05:00","-9.4","","-11.5","","85","","","","31","","10","","12.9","","98.53","","","","-15","","Snow"
"-111.96","60.02","FORT SMITH A","2202201","2019-03-13 06:00","2019","03","13","06:00","-9.9","","-12.3","","83","","","","30","","18","","19.3","","98.64","","","","-17","","Snow"
"-111.96","60.02","FORT SMITH A","2202201","2019-03-13 07:00","2019","03","13","07:00","-11.4","","-13.7","","83","","","","30","","13","","24.1","","98.74","","","","-18","","Snow,Blowing Snow"
"-111.96","60.02","FORT SMITH A","2202201","2019-03-13 08:00","2019","03","13","08:00","-11.2","","-13.6","","82","","","","30","","18","","24.1","","98.82","","","","-19","","Snow,Blowing Snow"
"-111.96","60.02","FORT SMITH A","2202201","2019-03-13 09:00","2019","03","13","09:00","-10.9","","-13.7","","80","","","","29","","16","","24.1","","98.88","","","","-18","","Snow,Blowing Snow"
"-111.96","60.02","FORT SMITH A","2202201","2019-03-13 10:00","2019","03","13","10:00","-9.5","","-13.7","","72","","","","29","","18","","24.1","","98.93","","","","-17","","NA"
"-111.96","60.02","FORT SMITH A","2202201","2019-03-13 11:00","2019","03","13","11:00","-8.1","","-13.1","","68","","","","27","","18","","24.1","","98.99","","","","-15","","Mainly Clear"
"-111.96","60.02","FORT SMITH A","2202201","2019-03-13 12:00","2019","03","13","12:00","-7.0","","-13.1","","62","","","","25","","18","","24.1","","99.05","","","","-14","","NA"
"-111.96","60.02","FORT SMITH A","2202201","2019-03-13 13:00","2019","03","13","13:00","-6.2","","-12.5","","61","","","","25","","11","","24.1","","99.08","","","","-11","","NA"
"-111.96","60.02","FORT SMITH A","2202201","2019-03-13 14:00","2019","03","13","14:00","-5.6","","-13.0","","56","","","","32","","13","","24.1","","99.14","","","","-11","","Mostly Cloudy"
"-111.96","60.02","FORT SMITH A","2202201","2019-03-13 15:00","2019","03","13","15:00","-5.8","","-13.2","","56","","","","30","","15","","24.1","","99.21","","","","-12","","NA"
"-111.96","60.02","FORT SMITH A","2202201","2019-03-13 16:00","2019","03","13","16:00","-6.2","","-13.1","","59","","","","29","","13","","24.1","","99.27","","","","-12","","NA"
"-111.96","60.02","FORT SMITH A","2202201","2019-03-13 17:00","2019","03","13","17:00","-6.2","","-13.2","","58","","","","30","","18","","24.1","","99.33","","","","-13","","Mainly Clear"
"-111.96","60.02","FORT SMITH A","2202201","2019-03-13 18:00","2019","03","13","18:00","-6.8","","-13.5","","59","","","","30","","15","","24.1","","99.40","","","","-13","","NA"
"-111.96","60.02","FORT SMITH A","2202201","2019-03-13 19:00","2019","03","13","19:00","-8.0","","-13.9","","63","","","","33","","8","","24.1","","99.46","","","","-12","","NA"
"-111.96","60.02","FORT SMITH A","2202201","2019-03-13 20:00","2019","03","13","20:00","-9.9","","-13.6","","75","","","","35","","12","","24.1","","99.54","","","","-16","","Snow"
"-111.96","60.02","FORT SMITH A","2202201","2019-03-13 21:00","2019","03","13","21:00","-11.4","","-15.2","","74","","","","34","","11","","24.1","","99.61","","","","-17","","NA"
"-111.96","60.02","FORT SMITH A","2202201","2019-03-13 22:00","2019","03","13","22:00","-13.0","","-16.1","","78","","","","34","","7","","24.1","","99.64","","","","-18","","NA"
"-111.96","60.02","FORT SMITH A","2202201","2019-03-13 23:00","2019","03","13","23:00","-13.7","","-16.3","","81","","","","33","","5","","24.1","","99.73","","","","-17","","Clear"
"-111.96","60.02","FORT SMITH A","2202201","2019-03-14 00:00","2019","03","14","00:00","-15.8","","-17.9","","84","","","","28","","5","","24.1","","99.78","","","","-20","","NA"
"-111.96","60.02","FORT SMITH A","2202201","2019-03-14 01:00","2019","03","14","01:00","-18.1","","-20.0","","86","","","","19","","3","","24.1","","99.81","","","","-21","","NA"
"-111.96","60.02","FORT SMITH A","2202201","2019-03-14 02:00","2019","03","14","02:00","-19.4","","-21.1","","87","","","","36","","3","","24.1","","99.84","","","","-22","","Clear"
"-111.96","60.02","FORT SMITH A","2202201","2019-03-14 03:00","2019","03","14","03:00","-19.4","","-21.4","","85","","","","15","","3","","24.1","","99.89","","","","-22","","NA"
"-111.96","60.02","FORT SMITH A","2202201","2019-03-14 04:00","2019","03","14","04:00","-20.5","","-22.6","","83","","","","14","","5","","24.1","","99.91","","","","-25","","NA"
"-111.96","60.02","FORT SMITH A","2202201","2019-03-14 05:00","2019","03","14","05:00","-20.9","","-23.2","","82","","","","17","","3","","24.1","","99.96","","","","-24","","Clear"
"-111.96","60.02","FORT SMITH A","2202201","2019-03-14 06:00","2019","03","14","06:00","-21.9","","-24.1","","82","","","","16","","3","","24.1","","99.99","","","","-25","","NA"
"-111.96","60.02","FORT SMITH A","2202201","2019-03-14 07:00","2019","03","14","07:00","-22.0","","-24.5","","81","","","","14","","4","","24.1","","99.97","","","","-26","","NA"
"-111.96","60.02","FORT SMITH A","2202201","2019-03-14 08:00","2019","03","14","08:00","-21.2","","-23.7","","81","","","","15","","5","","24.1","","99.94","","","","-26","","Clear"
"-111.96","60.02","FORT SMITH A","2202201","2019-03-14 09:00","2019","03","14","09:00","-17.0","","-18.7","","87","","","","14","","6","","24.1","","99.93","","","","-22","","NA"
"-111.96","60.02","FORT SMITH A","2202201","2019-03-14 10:00","2019","03","14","10:00","-11.6","","-15.4","","74","","","","14","","7","","24.1","","99.92","","","","-16","","NA"
"-111.96","60.02","FORT SMITH A","2202201","2019-03-14 11:00","2019","03","14","11:00","-9.2","","-15.8","","59","","","","18","","13","","24.1","","99.89","","","","-15","","Clear"
"-111.96","60.02","FORT SMITH A","2202201","2019-03-14 12:00","2019","03","14","12:00","-7.0","","-14.8","","54","","","","15","","11","","24.1","","99.84","","","","-12","","NA"
"-111.96","60.02","FORT SMITH A","2202201","2019-03-14 13:00","2019","03","14","13:00","-4.7","","-13.5","","50","","","","13","","8","","24.1","","99.75","","","","-8","","NA"
"-111.96","60.02","FORT SMITH A","2202201","2019-03-14 14:00","2019","03","14","14:00","-3.4","","-12.9","","48","","","","15","","11","","24.1","","99.68","","","","-8","","Clear"
"-111.96","60.02","FORT SMITH A","2202201","2019-03-14 15:00","2019","03","14","15:00","-2.7","","-12.1","","49","","","","15","","13","","24.1","","99.62","","","","-7","","NA"
"-111.96","60.02","FORT SMITH A","2202201","2019-03-14 16:00","2019","03","14","16:00","-2.1","","-12.2","","46","","","","14","","16","","24.1","","99.58","","","","-7","","NA"
"-111.96","60.02","FORT SMITH A","2202201","2019-03-14 17:00","2019","03","14","17:00","-2.1","","-11.1","","51","","","","15","","17","","24.1","","99.52","","","","-7","","Clear"
"-111.96","60.02","FORT SMITH A","2202201","2019-03-14 18:00","2019","03","14","18:00","-2.5","","-12.3","","47","","","","13","","10","","24.1","","99.43","","","","-6","","NA"
"-111.96","60.02","FORT SMITH A","2202201","2019-03-14 19:00","2019","03","14","19:00","-4.0","","-13.0","","50","","","","14","","13","","24.1","","99.40","","","","-9","","NA"
"-111.96","60.02","FORT SMITH A","2202201","2019-03-14 20:00","2019","03","14","20:00","-5.6","","-13.4","","54","","","","13","","14","","24.1","","99.38","","","","-11","","Clear"
"-111.96","60.02","FORT SMITH A","2202201","2019-03-14 21:00","2019","03","14","21:00","-7.2","","-13.8","","60","","","","15","","18","","24.1","","99.34","","","","-14","","NA"
"-111.96","60.02","FORT SMITH A","2202201","2019-03-14 22:00","2019","03","14","22:00","-8.2","","-14.3","","62","","","","14","","16","","24.1","","99.24","","","","-15","","NA"
"-111.96","60.02","FORT SMITH A","2202201","2019-03-14 23:00","2019","03","14","23:00","-9.2","","-14.9","","64","","","","14","","19","","24.1","","99.18","","","","-17","","Mainly Clear"
"-111.96","60.02","FORT SMITH A","2202201","2019-03-15 00:00","2019","03","15","00:00","-9.5","","-14.9","","65","","","","14","","17","","24.1","","99.08","","","","-17","","NA"
"-111.96","60.02","FORT SMITH A","2202201","2019-03-15 01:00","2019","03","15","01:00","-9.6","","-14.9","","65","","","","14","","14","","24.1","","99.02","","","","-16","","NA"
"-111.96","60.02","FORT SMITH A","2202201","2019-03-15 02:00","2019","03","15","02:00","-10.4","","-15.1","","68","","","","15","","14","","24.1","","98.97","","","","-17","","Mainly Clear"
"-111.96","60.02","FORT SMITH A","2202201","2019-03-15 03:00","2019","03","15","03:00","-10.3","","-14.8","","70","","","","14","","13","","24.1","","98.90","","","","-17","","NA"
"-111.96","60.02","FORT SMITH A","2202201","2019-03-15 04:00","2019","03","15","04:00","-11.0","","-14.7","","75","","","","14","","9","","24.1","","98.89","","","","-16","","NA"
"-111.96","60.02","FORT SMITH A","2202201","2019-03-15 05:00","2019","03","15","05:00","-10.2","","-14.1","","73","","","","15","","13","","24.1","","98.83","","","","-16","","Mostly Cloudy"
"-111.96","60.02","FORT SMITH A","2202201","2019-03-15 06:00","2019","03","15","06:00","-9.1","","-13.1","","73","","","","15","","13","","24.1","","98.80","","","","-15","","NA"
"-111.96","60.02","FORT SMITH A","2202201","2019-03-15 07:00","2019","03","15","07:00","-8.5","","-12.7","","72","","","","15","","11","","24.1","","98.77","","","","-14","","Snow"
"-111.96","60.02","FORT SMITH A","2202201","2019-03-15 08:00","2019","03","15","08:00","-8.0","","-12.5","","70","","","","13","","12","","24.1","","98.72","","","","-13","","Snow"
"-111.96","60.02","FORT SMITH A","2202201","2019-03-15 09:00","2019","03","15","09:00","-7.1","","-11.6","","70","","","","16","","9","","24.1","","98.74","","","","-11","","NA"
"-111.96","60.02","FORT SMITH A","2202201","2019-03-15 10:00","2019","03","15","10:00","-5.4","","-10.7","","67","","","","14","","13","","24.1","","98.73","","","","-11","","NA"
"-111.96","60.02","FORT SMITH A","2202201","2019-03-15 11:00","2019","03","15","11:00","-2.7","","-9.0","","62","","","","17","","12","","24.1","","98.70","","","","-7","","Mostly Cloudy"
"-111.96","60.02","FORT SMITH A","2202201","2019-03-15 12:00","2019","03","15","12:00","-0.4","","-8.5","","54","","","","14","","7","","24.1","","98.70","","","","-3","","NA"
"-111.96","60.02","FORT SMITH A","2202201","2019-03-15 13:00","2019","03","15","13:00","1.4","","-8.4","","48","","","","36","","2","","24.1","","98.71","","","","","","NA"
"-111.96","60.02","FORT SMITH A","2202201","2019-03-15 14:00","2019","03","15","14:00","3.4","","-6.7","","48","","","","16","","6","","24.1","","98.72","","","","","","Mainly Clear"
"-111.96","60.02","FORT SMITH A","2202201","2019-03-15 15:00","2019","03","15","15:00","3.8","","-6.6","","47","","","","4","","9","","24.1","","98.73","","","","","","NA"
"-111.96","60.02","FORT SMITH A","2202201","2019-03-15 16:00","2019","03","15","16:00","4.6","","-5.2","","49","","","","28","","19","","24.1","","98.77","","","","","","NA"
"-111.96","60.02","FORT SMITH A","2202201","2019-03-15 17:00","2019","03","15","17:00","4.1","","-5.7","","49","","","","27","","15","","24.1","","98.82","","","","","","Mostly Cloudy"
"-111.96","60.02","FORT SMITH A","2202201","2019-03-15 18:00","2019","03","15","18:00","2.8","","-5.1","","56","","","","28","","18","","24.1","","98.90","","","","","","NA"
"-111.96","60.02","FORT SMITH A","2202201","2019-03-15 19:00","2019","03","15","19:00","1.6","","-5.5","","59","","","","29","","17","","24.1","","98.95","","","","","","NA"
"-111.96","60.02","FORT SMITH A","2202201","2019-03-15 20:00","2019","03","15","20:00","1.1","","-5.0","","64","","","","30","","20","","24.1","","99.00","","","","","","Mostly Cloudy"
"-111.96","60.02","FORT SMITH A","2202201","2019-03-15 21:00","2019","03","15","21:00","-0.6","","-3.9","","78","","","","30","","17","","24.1","","99.05","","","","-6","","Snow Showers"
"-111.96","60.02","FORT SMITH A","2202201","2019-03-15 22:00","2019","03","15","22:00","-1.4","","-3.4","","87","","","","28","","13","","6.4","","99.09","","","","-6","","Snow Showers"
"-111.96","60.02","FORT SMITH A","2202201","2019-03-15 23:00","2019","03","15","23:00","-2.0","","-3.2","","91","","","","25","","7","","24.1","","99.11","","","","-5","","Snow Showers"
"-111.96","60.02","FORT SMITH A","2202201","2019-03-16 00:00","2019","03","16","00:00","-3.6","","-4.6","","93","","","","20","","5","","24.1","","99.11","","","","-6","","NA"
"-111.96","60.02","FORT SMITH A","2202201","2019-03-16 01:00","2019","03","16","01:00","-3.8","","-4.4","","96","","","","20","","7","","24.1","","99.19","","","","-7","","NA"
"-111.96","60.02","FORT SMITH A","2202201","2019-03-16 02:00","2019","03","16","02:00","-4.5","","-5.1","","96","","","","21","","5","","24.1","","99.22","","","","-7","","Mainly Clear"
"-111.96","60.02","FORT SMITH A","2202201","2019-03-16 03:00","2019","03","16","03:00","-6.8","","-7.2","","96","","","","36","","3","","24.1","","99.23","","","","-8","","NA"
"-111.96","60.02","FORT SMITH A","2202201","2019-03-16 04:00","2019","03","16","04:00","-6.4","","-6.9","","97","","","","22","","5","","24.1","","99.26","","","","-9","","NA"
"-111.96","60.02","FORT SMITH A","2202201","2019-03-16 05:00","2019","03","16","05:00","-6.4","","-7.0","","95","","","","28","","10","","24.1","","99.34","","","","-11","","Mostly Cloudy"
"-111.96","60.02","FORT SMITH A","2202201","2019-03-16 06:00","2019","03","16","06:00","-6.5","","-7.2","","95","","","","31","","10","","24.1","","99.43","","","","-11","","NA"
"-111.96","60.02","FORT SMITH A","2202201","2019-03-16 07:00","2019","03","16","07:00","-7.5","","-8.1","","95","","","","30","","10","","24.1","","99.49","","","","-12","","NA"
"-111.96","60.02","FORT SMITH A","2202201","2019-03-16 08:00","2019","03","16","08:00","-7.5","","-8.3","","94","","","","29","","11","","24.1","","99.52","","","","-13","","Clear"
"-111.96","60.02","FORT SMITH A","2202201","2019-03-16 09:00","2019","03","16","09:00","-6.5","","-7.5","","92","","","","26","","6","","24.1","","99.55","","","","-9","","NA"
"-111.96","60.02","FORT SMITH A","2202201","2019-03-16 10:00","2019","03","16","10:00","-4.6","","-7.1","","83","","","","30","","8","","24.1","","99.58","","","","-8","","NA"
"-111.96","60.02","FORT SMITH A","2202201","2019-03-16 11:00","2019","03","16","11:00","-1.8","","-7.2","","67","","","","36","","3","","24.1","","99.60","","","","-3","","Clear"
"-111.96","60.02","FORT SMITH A","2202201","2019-03-16 12:00","2019","03","16","12:00","0.7","","-7.0","","57","","","","36","","2","","24.1","","99.60","","","","","","NA"
"-111.96","60.02","FORT SMITH A","2202201","2019-03-16 13:00","2019","03","16","13:00","2.3","","-6.0","","55","","","","28","","10","","24.1","","99.60","","","","","","NA"
"-111.96","60.02","FORT SMITH A","2202201","2019-03-16 14:00","2019","03","16","14:00","3.5","","-6.0","","50","","","","28","","12","","24.1","","99.58","","","","","","Clear"
"-111.96","60.02","FORT SMITH A","2202201","2019-03-16 15:00","2019","03","16","15:00","5.1","","-8.0","","38","","","","30","","8","","24.1","","99.56","","","","","","NA"
"-111.96","60.02","FORT SMITH A","2202201","2019-03-16 16:00","2019","03","16","16:00","5.6","","-8.4","","36","","","","27","","6","","24.1","","99.55","","","","","","NA"
"-111.96","60.02","FORT SMITH A","2202201","2019-03-16 17:00","2019","03","16","17:00","5.8","","-9.1","","34","","","","36","","3","","24.1","","99.51","","","","","","Clear"
"-111.96","60.02","FORT SMITH A","2202201","2019-03-16 18:00","2019","03","16","18:00","3.6","","-8.1","","42","","","","13","","5","","24.1","","99.44","","","","","","NA"
"-111.96","60.02","FORT SMITH A","2202201","2019-03-16 19:00","2019","03","16","19:00","-0.3","","-8.1","","56","","","","13","","7","","24.1","","99.40","","","","-3","","NA"
"-111.96","60.02","FORT SMITH A","2202201","2019-03-16 20:00","2019","03","16","20:00","0.4","","-9.6","","47","","","","15","","13","","24.1","","99.38","","","","","","Clear"
"-111.96","60.02","FORT SMITH A","2202201","2019-03-16 21:00","2019","03","16","21:00","-0.5","","-9.7","","50","","","","16","","10","","24.1","","99.34","","","","-4","","NA"
"-111.96","60.02","FORT SMITH A","2202201","2019-03-16 22:00","2019","03","16","22:00","-1.2","","-9.8","","52","","","","16","","14","","24.1","","99.29","","","","-6","","NA"
"-111.96","60.02","FORT SMITH A","2202201","2019-03-16 23:00","2019","03","16","23:00","-2.1","","-9.9","","55","","","","16","","12","","24.1","","99.28","","","","-6","","Clear"
"-111.96","60.02","FORT SMITH A","2202201","2019-03-17 00:00","2019","03","17","00:00","-2.7","","-10.1","","57","","","","16","","14","","24.1","","99.24","","","","-8","","NA"
"-111.96","60.02","FORT SMITH A","2202201","2019-03-17 01:00","2019","03","17","01:00","-3.1","","-10.1","","59","","","","17","","14","","24.1","","99.21","","","","-8","","NA"
"-111.96","60.02","FORT SMITH A","2202201","2019-03-17 02:00","2019","03","17","02:00","-3.6","","-10.4","","60","","","","15","","11","","24.1","","99.16","","","","-8","","Clear"
"-111.96","60.02","FORT SMITH A","2202201","2019-03-17 03:00","2019","03","17","03:00","-4.2","","-10.6","","61","","","","15","","12","","24.1","","99.12","","","","-9","","NA"
"-111.96","60.02","FORT SMITH A","2202201","2019-03-17 04:00","2019","03","17","04:00","-4.5","","-10.7","","62","","","","15","","9","","24.1","","99.04","","","","-8","","NA"
"-111.96","60.02","FORT SMITH A","2202201","2019-03-17 05:00","2019","03","17","05:00","-4.9","","-10.8","","64","","","","14","","10","","24.1","","99.01","","","","-9","","Mostly Cloudy"
"-111.96","60.02","FORT SMITH A","2202201","2019-03-17 06:00","2019","03","17","06:00","-5.2","","-11.0","","64","","","","14","","12","","24.1","","98.98","","","","-10","","NA"
"-111.96","60.02","FORT SMITH A","2202201","2019-03-17 07:00","2019","03","17","07:00","-5.6","","-11.2","","65","","","","14","","10","","24.1","","98.94","","","","-10","","NA"
"-111.96","60.02","FORT SMITH A","2202201","2019-03-17 08:00","2019","03","17","08:00","-4.3","","-10.8","","61","","","","14","","10","","24.1","","98.89","","","","-8","","Mostly Cloudy"
"-111.96","60.02","FORT SMITH A","2202201","2019-03-17 09:00","2019","03","17","09:00","-2.9","","-10.0","","58","","","","15","","9","","24.1","","98.85","","","","-6","","NA"
"-111.96","60.02","FORT SMITH A","2202201","2019-03-17 10:00","2019","03","17","10:00","-0.9","","-9.3","","53","","","","14","","9","","24.1","","98.87","","","","-4","","NA"
"-111.96","60.02","FORT SMITH A","2202201","2019-03-17 11:00","2019","03","17","11:00","1.7","","-7.7","","50","","","","18","","5","","24.1","","98.82","","","","","","Mostly Cloudy"
"-111.96","60.02","FORT SMITH A","2202201","2019-03-17 12:00","2019","03","17","12:00","5.4","","-5.0","","47","","","","29","","14","","24.1","","98.82","","","","","","NA"
"-111.96","60.02","FORT SMITH A","2202201","2019-03-17 13:00","2019","03","17","13:00","7.2","","-4.0","","45","","","","28","","16","","24.1","","98.81","","","","","","NA"
"-111.96","60.02","FORT SMITH A","2202201","2019-03-17 14:00","2019","03","17","14:00","6.9","","-3.1","","49","","","","27","","12","","24.1","","98.82","","","","","","Mostly Cloudy"
"-111.96","60.02","FORT SMITH A","2202201","2019-03-17 15:00","2019","03","17","15:00","7.9","","-3.6","","44","","","","28","","20","","24.1","","98.86","","","","","","NA"
"-111.96","60.02","FORT SMITH A","2202201","2019-03-17 16:00","2019","03","17","16:00","7.2","","-3.3","","47","","","","28","","22","","24.1","","98.91","","","","","","NA"
"-111.96","60.02","FORT SMITH A","2202201","2019-03-17 17:00","2019","03","17","17:00","7.1","","-3.2","","48","","","","28","","22","","24.1","","98.93","","","","","","Mainly Clear"
"-111.96","60.02","FORT SMITH A","2202201","2019-03-17 18:00","2019","03","17","18:00","6.7","","-3.0","","50","","","","28","","17","","24.1","","98.99","","","","","","NA"
"-111.96","60.02","FORT SMITH A","2202201","2019-03-17 19:00","2019","03","17","19:00","4.8","","-3.0","","57","","","","29","","13","","24.1","","99.03","","","","","","NA"
"-111.96","60.02","FORT SMITH A","2202201","2019-03-17 20:00","2019","03","17","20:00","4.6","","-3.2","","57","","","","26","","10","","24.1","","99.03","","","","","","Mainly Clear"
"-111.96","60.02","FORT SMITH A","2202201","2019-03-17 21:00","2019","03","17","21:00","4.6","","-2.9","","58","","","","29","","14","","24.1","","99.09","","","","","","NA"
"-111.96","60.02","FORT SMITH A","2202201","2019-03-17 22:00","2019","03","17","22:00","4.7","","-3.9","","54","","","","30","","15","","24.1","","99.16","","","","","","NA"
"-111.96","60.02","FORT SMITH A","2202201","2019-03-17 23:00","2019","03","17","23:00","4.0","","-4.1","","56","","","","32","","13","","24.1","","99.23","","","","","","Clear"
"-111.96","60.02","FORT SMITH A","2202201","2019-03-18 00:00","2019","03","18","00:00","1.9","","-4.7","","61","","","","30","","8","","24.1","","99.29","","","","","","NA"
"-111.96","60.02","FORT SMITH A","2202201","2019-03-18 01:00","2019","03","18","01:00","0.0","","-4.8","","70","","","","27","","7","","24.1","","99.34","","","","-2","","NA"
"-111.96","60.02","FORT SMITH A","2202201","2019-03-18 02:00","2019","03","18","02:00","-0.1","","-5.2","","69","","","","30","","4","","24.1","","99.34","","","","-1","","Clear"
"-111.96","60.02","FORT SMITH A","2202201","2019-03-18 03:00","2019","03","18","03:00","-4.5","","-6.7","","85","","","","23","","5","","22.5","","99.34","","","","-7","","NA"
"-111.96","60.02","FORT SMITH A","2202201","2019-03-18 04:00","2019","03","18","04:00","-2.5","","-5.5","","80","","","","20","","4","","24.1","","99.40","","","","-4","","NA"
"-111.96","60.02","FORT SMITH A","2202201","2019-03-18 05:00","2019","03","18","05:00","-4.6","","-6.6","","86","","","","15","","4","","24.1","","99.40","","","","-6","","Mainly Clear"
"-111.96","60.02","FORT SMITH A","2202201","2019-03-18 06:00","2019","03","18","06:00","-3.9","","-6.0","","85","","","","17","","8","","24.1","","99.36","","","","-7","","NA"
"-111.96","60.02","FORT SMITH A","2202201","2019-03-18 07:00","2019","03","18","07:00","-3.1","","-6.1","","80","","","","15","","7","","24.1","","99.31","","","","-6","","NA"
"-111.96","60.02","FORT SMITH A","2202201","2019-03-18 08:00","2019","03","18","08:00","-1.5","","-5.8","","73","","","","15","","8","","24.1","","99.23","","","","-5","","Mostly Cloudy"
"-111.96","60.02","FORT SMITH A","2202201","2019-03-18 09:00","2019","03","18","09:00","0.2","","-5.0","","68","","","","16","","10","","24.1","","99.12","","","","","","NA"
"-111.96","60.02","FORT SMITH A","2202201","2019-03-18 10:00","2019","03","18","10:00","3.6","","-4.0","","58","","","","16","","9","","24.1","","99.04","","","","","","NA"
"-111.96","60.02","FORT SMITH A","2202201","2019-03-18 11:00","2019","03","18","11:00","5.6","","-4.2","","49","","","","17","","16","","24.1","","98.94","","","","","","Mostly Cloudy"
"-111.96","60.02","FORT SMITH A","2202201","2019-03-18 12:00","2019","03","18","12:00","6.4","","-3.7","","48","","","","16","","16","","24.1","","98.80","","","","","","NA"
"-111.96","60.02","FORT SMITH A","2202201","2019-03-18 13:00","2019","03","18","13:00","8.3","","-3.8","","42","","","","17","","22","","24.1","","98.70","","","","","","NA"
"-111.96","60.02","FORT SMITH A","2202201","2019-03-18 14:00","2019","03","18","14:00","10.0","","-4.4","","36","","","","21","","15","","24.1","","98.66","","","","","","Cloudy"
"-111.96","60.02","FORT SMITH A","2202201","2019-03-18 15:00","2019","03","18","15:00","11.5","","-3.6","","34","","","","21","","14","","24.1","","98.56","","","","","","NA"
"-111.96","60.02","FORT SMITH A","2202201","2019-03-18 16:00","2019","03","18","16:00","11.1","","-2.9","","37","","","","21","","16","","24.1","","98.51","","","","","","NA"
"-111.96","60.02","FORT SMITH A","2202201","2019-03-18 17:00","2019","03","18","17:00","9.7","","-2.6","","42","","","","22","","15","","24.1","","98.49","","","","","","Cloudy"
"-111.96","60.02","FORT SMITH A","2202201","2019-03-18 18:00","2019","03","18","18:00","10.1","","-2.5","","41","","","","21","","13","","24.1","","98.49","","","","","","NA"
"-111.96","60.02","FORT SMITH A","2202201","2019-03-18 19:00","2019","03","18","19:00","5.7","","-2.2","","57","","","","22","","12","","24.1","","98.48","","","","","","NA"
"-111.96","60.02","FORT SMITH A","2202201","2019-03-18 20:00","2019","03","18","20:00","5.3","","-1.8","","60","","","","23","","14","","24.1","","98.46","","","","","","Mostly Cloudy"
"-111.96","60.02","FORT SMITH A","2202201","2019-03-18 21:00","2019","03","18","21:00","7.8","","-1.6","","51","","","","25","","14","","24.1","","98.49","","","","","","NA"
"-111.96","60.02","FORT SMITH A","2202201","2019-03-18 22:00","2019","03","18","22:00","7.2","","-1.6","","54","","","","26","","15","","24.1","","98.50","","","","","","NA"
"-111.96","60.02","FORT SMITH A","2202201","2019-03-18 23:00","2019","03","18","23:00","6.4","","-1.7","","56","","","","27","","11","","24.1","","98.55","","","","","","Mostly Cloudy"
"-111.96","60.02","FORT SMITH A","2202201","2019-03-19 00:00","2019","03","19","00:00","5.8","","-1.9","","58","","","","27","","12","","24.1","","98.58","","","","","","NA"
"-111.96","60.02","FORT SMITH A","2202201","2019-03-19 01:00","2019","03","19","01:00","5.3","","-2.0","","59","","","","26","","12","","24.1","","98.62","","","","","","NA"
"-111.96","60.02","FORT SMITH A","2202201","2019-03-19 02:00","2019","03","19","02:00","5.0","","-2.3","","59","","","","29","","10","","24.1","","98.66","","","","","","Mainly Clear"
"-111.96","60.02","FORT SMITH A","2202201","2019-03-19 03:00","2019","03","19","03:00","5.0","","-2.3","","59","","","","26","","6","","24.1","","98.66","","","","","","NA"
"-111.96","60.02","FORT SMITH A","2202201","2019-03-19 04:00","2019","03","19","04:00","4.1","","-2.6","","62","","","","30","","9","","24.1","","98.72","","","","","","NA"
"-111.96","60.02","FORT SMITH A","2202201","2019-03-19 05:00","2019","03","19","05:00","0.9","","-2.7","","77","","","","23","","3","","24.1","","98.76","","","","","","Mainly Clear"
"-111.96","60.02","FORT SMITH A","2202201","2019-03-19 06:00","2019","03","19","06:00","-1.7","","-3.6","","87","","","","36","","1","","24.1","","98.80","","","","-2","","NA"
"-111.96","60.02","FORT SMITH A","2202201","2019-03-19 07:00","2019","03","19","07:00","-1.8","","-3.7","","86","","","","36","","3","","24.1","","98.81","","","","-3","","NA"
"-111.96","60.02","FORT SMITH A","2202201","2019-03-19 08:00","2019","03","19","08:00","-0.7","","-3.8","","79","","","","36","","2","","24.1","","98.83","","","","-1","","Mainly Clear"
"-111.96","60.02","FORT SMITH A","2202201","2019-03-19 09:00","2019","03","19","09:00","4.6","","-1.8","","63","","","","36","","3","","24.1","","98.85","","","","","","NA"
"-111.96","60.02","FORT SMITH A","2202201","2019-03-19 10:00","2019","03","19","10:00","8.1","","-2.3","","48","","","","36","","1","","24.1","","98.89","","","","","","NA"
"-111.96","60.02","FORT SMITH A","2202201","2019-03-19 11:00","2019","03","19","11:00","10.1","","-2.5","","41","","","","36","","3","","24.1","","98.88","","","","","","Mainly Clear"
"-111.96","60.02","FORT SMITH A","2202201","2019-03-19 12:00","2019","03","19","12:00","10.9","","-2.0","","40","","","","22","","13","","24.1","","98.90","","","","","","NA"
"-111.96","60.02","FORT SMITH A","2202201","2019-03-19 13:00","2019","03","19","13:00","11.9","","-2.0","","38","","","","22","","12","","24.1","","98.88","","","","","","NA"
"-111.96","60.02","FORT SMITH A","2202201","2019-03-19 14:00","2019","03","19","14:00","13.7","","-2.7","","32","","","","22","","17","","24.1","","98.87","","","","","","Mainly Clear"
"-111.96","60.02","FORT SMITH A","2202201","2019-03-19 15:00","2019","03","19","15:00","14.4","","-2.5","","31","","","","22","","17","","24.1","","98.83","","","","","","NA"
"-111.96","60.02","FORT SMITH A","2202201","2019-03-19 16:00","2019","03","19","16:00","15.5","","-2.8","","28","","","","21","","9","","24.1","","98.78","","","","","","NA"
"-111.96","60.02","FORT SMITH A","2202201","2019-03-19 17:00","2019","03","19","17:00","14.1","","-3.7","","29","","","","23","","12","","24.1","","98.74","","","","","","Mainly Clear"
"-111.96","60.02","FORT SMITH A","2202201","2019-03-19 18:00","2019","03","19","18:00","12.3","","-4.2","","31","","","","24","","11","","24.1","","98.73","","","","","","NA"
"-111.96","60.02","FORT SMITH A","2202201","2019-03-19 19:00","2019","03","19","19:00","8.7","","-4.1","","40","","","","19","","8","","24.1","","98.71","","","","","","NA"
"-111.96","60.02","FORT SMITH A","2202201","2019-03-19 20:00","2019","03","19","20:00","6.5","","-3.0","","51","","","","19","","11","","24.1","","98.68","","","","","","Mainly Clear"
"-111.96","60.02","FORT SMITH A","2202201","2019-03-19 21:00","2019","03","19","21:00","5.8","","-2.8","","54","","","","20","","9","","24.1","","98.67","","","","","","NA"
"-111.96","60.02","FORT SMITH A","2202201","2019-03-19 22:00","2019","03","19","22:00","2.4","","-3.1","","67","","","","20","","5","","24.1","","98.63","","","","","","NA"
"-111.96","60.02","FORT SMITH A","2202201","2019-03-19 23:00","2019","03","19","23:00","3.6","","-3.0","","62","","","","23","","13","","24.1","","98.60","","","","","","Mostly Cloudy"
"-111.96","60.02","FORT SMITH A","2202201","2019-03-20 00:00","2019","03","20","00:00","3.7","","-3.5","","59","","","","23","","14","","24.1","","98.60","","","","","","NA"
"-111.96","60.02","FORT SMITH A","2202201","2019-03-20 01:00","2019","03","20","01:00","5.5","","-4.3","","49","","","","22","","13","","24.1","","98.60","","","","","","NA"
"-111.96","60.02","FORT SMITH A","2202201","2019-03-20 02:00","2019","03","20","02:00","3.8","","-4.9","","53","","","","21","","7","","24.1","","98.60","","","","","","Mainly Clear"
"-111.96","60.02","FORT SMITH A","2202201","2019-03-20 03:00","2019","03","20","03:00","3.1","","-5.2","","55","","","","21","","7","","24.1","","98.61","","","","","","NA"
"-111.96","60.02","FORT SMITH A","2202201","2019-03-20 04:00","2019","03","20","04:00","3.7","","-5.5","","51","","","","24","","5","","24.1","","98.64","","","","","","NA"
"-111.96","60.02","FORT SMITH A","2202201","2019-03-20 05:00","2019","03","20","05:00","3.7","","-5.9","","50","","","","22","","8","","24.1","","98.65","","","","","","Mostly Cloudy"
"-111.96","60.02","FORT SMITH A","2202201","2019-03-20 06:00","2019","03","20","06:00","0.3","","-5.5","","66","","","","19","","6","","24.1","","98.70","","","","","","NA"
"-111.96","60.02","FORT SMITH A","2202201","2019-03-20 07:00","2019","03","20","07:00","-1.6","","-4.8","","79","","","","36","","3","","24.1","","98.80","","","","-3","","NA"
"-111.96","60.02","FORT SMITH A","2202201","2019-03-20 08:00","2019","03","20","08:00","4.0","","-5.5","","50","","","","31","","9","","24.1","","98.86","","","","","","Mostly Cloudy"
"-111.96","60.02","FORT SMITH A","2202201","2019-03-20 09:00","2019","03","20","09:00","5.0","","-4.2","","51","","","","29","","10","","24.1","","98.87","","","","","","NA"
"-111.96","60.02","FORT SMITH A","2202201","2019-03-20 10:00","2019","03","20","10:00","6.8","","-4.6","","44","","","","27","","5","","24.1","","98.96","","","","","","NA"
"-111.96","60.02","FORT SMITH A","2202201","2019-03-20 11:00","2019","03","20","11:00","9.3","","-4.3","","38","","","","31","","5","","24.1","","99.05","","","","","","Mainly Clear"
"-111.96","60.02","FORT SMITH A","2202201","2019-03-20 12:00","2019","03","20","12:00","9.4","","-3.0","","41","","","","28","","12","","24.1","","99.12","","","","","","NA"
"-111.96","60.02","FORT SMITH A","2202201","2019-03-20 13:00","2019","03","20","13:00","12.5","","-3.5","","32","","","","31","","8","","24.1","","99.19","","","","","","NA"
"-111.96","60.02","FORT SMITH A","2202201","2019-03-20 14:00","2019","03","20","14:00","13.6","","-3.3","","31","","","","34","","9","","24.1","","99.27","","","","","","Clear"
"-111.96","60.02","FORT SMITH A","2202201","2019-03-20 15:00","2019","03","20","15:00","12.6","","-2.8","","34","","","","31","","13","","24.1","","99.34","","","","","","NA"
"-111.96","60.02","FORT SMITH A","2202201","2019-03-20 16:00","2019","03","20","16:00","12.5","","-2.9","","34","","","","34","","18","","24.1","","99.46","","","","","","NA"
"-111.96","60.02","FORT SMITH A","2202201","2019-03-20 17:00","2019","03","20","17:00","11.0","","-2.5","","39","","","","1","","15","","24.1","","99.55","","","","","","Clear"
"-111.96","60.02","FORT SMITH A","2202201","2019-03-20 18:00","2019","03","20","18:00","10.6","","-2.5","","40","","","","35","","9","","24.1","","99.60","","","","","","NA"
"-111.96","60.02","FORT SMITH A","2202201","2019-03-20 19:00","2019","03","20","19:00","9.2","","-2.5","","44","","","","33","","9","","24.1","","99.66","","","","","","NA"
"-111.96","60.02","FORT SMITH A","2202201","2019-03-20 20:00","2019","03","20","20:00","7.3","","-2.7","","49","","","","1","","11","","24.1","","99.70","","","","","","Mainly Clear"
"-111.96","60.02","FORT SMITH A","2202201","2019-03-20 21:00","2019","03","20","21:00","4.5","","-3.0","","58","","","","36","","6","","24.1","","99.74","","","","","","NA"
"-111.96","60.02","FORT SMITH A","2202201","2019-03-20 22:00","2019","03","20","22:00","0.5","","-3.3","","75","","","","27","","5","","24.1","","99.79","","","","","","NA"
"-111.96","60.02","FORT SMITH A","2202201","2019-03-20 23:00","2019","03","20","23:00","0.0","","-3.2","","79","","","","36","","5","","24.1","","99.82","","","","-2","","Clear"
"-111.96","60.02","FORT SMITH A","2202201","2019-03-21 00:00","2019","03","21","00:00","-0.2","","-3.4","","79","","","","4","","5","","24.1","","99.86","","","","-2","","NA"
"-111.96","60.02","FORT SMITH A","2202201","2019-03-21 01:00","2019","03","21","01:00","-2.1","","-3.8","","88","","","","4","","3","","24.1","","99.87","","","","-3","","NA"
"-111.96","60.02","FORT SMITH A","2202201","2019-03-21 02:00","2019","03","21","02:00","-3.1","","-4.5","","90","","","","36","","2","","24.1","","99.91","","","","-4","","Clear"
"-111.96","60.02","FORT SMITH A","2202201","2019-03-21 03:00","2019","03","21","03:00","-4.1","","-5.1","","93","","","","36","","2","","24.1","","99.95","","","","-5","","NA"
"-111.96","60.02","FORT SMITH A","2202201","2019-03-21 04:00","2019","03","21","04:00","-4.5","","-5.3","","94","","","","10","","3","","24.1","","99.94","","","","-6","","NA"
"-111.96","60.02","FORT SMITH A","2202201","2019-03-21 05:00","2019","03","21","05:00","-3.8","","-5.1","","90","","","","13","","4","","24.1","","99.93","","","","-5","","Mainly Clear"
"-111.96","60.02","FORT SMITH A","2202201","2019-03-21 06:00","2019","03","21","06:00","-1.4","","-4.1","","82","","","","12","","7","","24.1","","99.88","","","","-4","","NA"
"-111.96","60.02","FORT SMITH A","2202201","2019-03-21 07:00","2019","03","21","07:00","-1.0","","-4.6","","76","","","","13","","9","","24.1","","99.83","","","","-4","","NA"
"-111.96","60.02","FORT SMITH A","2202201","2019-03-21 08:00","2019","03","21","08:00","-0.5","","-4.7","","74","","","","14","","12","","24.1","","99.77","","","","-4","","Mainly Clear"
"-111.96","60.02","FORT SMITH A","2202201","2019-03-21 09:00","2019","03","21","09:00","2.1","","-4.3","","63","","","","14","","16","","24.1","","99.69","","","","","","NA"
"-111.96","60.02","FORT SMITH A","2202201","2019-03-21 10:00","2019","03","21","10:00","4.8","","-3.9","","53","","","","14","","14","","24.1","","99.62","","","","","","NA"
"-111.96","60.02","FORT SMITH A","2202201","2019-03-21 11:00","2019","03","21","11:00","6.7","","-3.3","","49","","","","15","","16","","24.1","","99.54","","","","","","Mainly Clear"
"-111.96","60.02","FORT SMITH A","2202201","2019-03-21 12:00","2019","03","21","12:00","8.2","","-3.0","","45","","","","15","","23","","24.1","","99.44","","","","","","NA"
"-111.96","60.02","FORT SMITH A","2202201","2019-03-21 13:00","2019","03","21","13:00","9.6","","-3.0","","41","","","","15","","19","","24.1","","99.33","","","","","","NA"
"-111.96","60.02","FORT SMITH A","2202201","2019-03-21 14:00","2019","03","21","14:00","10.7","","-3.3","","37","","","","14","","19","","24.1","","99.22","","","","","","Mainly Clear"
"-111.96","60.02","FORT SMITH A","2202201","2019-03-21 15:00","2019","03","21","15:00","11.1","","-2.7","","38","","","","15","","17","","24.1","","99.11","","","","","","NA"
"-111.96","60.02","FORT SMITH A","2202201","2019-03-21 16:00","2019","03","21","16:00","11.5","","-2.9","","36","","","","14","","17","","24.1","","98.99","","","","","","NA"
"-111.96","60.02","FORT SMITH A","2202201","2019-03-21 17:00","2019","03","21","17:00","10.8","","-2.9","","38","","","","15","","19","","24.1","","98.90","","","","","","Mostly Cloudy"
"-111.96","60.02","FORT SMITH A","2202201","2019-03-21 18:00","2019","03","21","18:00","9.4","","-3.2","","41","","","","14","","17","","24.1","","98.83","","","","","","NA"
"-111.96","60.02","FORT SMITH A","2202201","2019-03-21 19:00","2019","03","21","19:00","6.9","","-2.7","","50","","","","14","","13","","24.1","","98.74","","","","","","NA"
"-111.96","60.02","FORT SMITH A","2202201","2019-03-21 20:00","2019","03","21","20:00","4.8","","-2.5","","59","","","","14","","16","","24.1","","98.66","","","","","","Mainly Clear"
"-111.96","60.02","FORT SMITH A","2202201","2019-03-21 21:00","2019","03","21","21:00","3.5","","-2.5","","65","","","","14","","14","","24.1","","98.58","","","","","","NA"
"-111.96","60.02","FORT SMITH A","2202201","2019-03-21 22:00","2019","03","21","22:00","2.8","","-2.6","","68","","","","16","","12","","24.1","","98.49","","","","","","NA"
"-111.96","60.02","FORT SMITH A","2202201","2019-03-21 23:00","2019","03","21","23:00","2.3","","-2.7","","70","","","","16","","10","","24.1","","98.43","","","","","","Mostly Cloudy"
"-111.96","60.02","FORT SMITH A","2202201","2019-03-22 00:00","2019","03","22","00:00","1.8","","-3.0","","71","","","","15","","10","","24.1","","98.39","","","","","","NA"
"-111.96","60.02","FORT SMITH A","2202201","2019-03-22 01:00","2019","03","22","01:00","1.6","","-3.2","","71","","","","15","","5","","24.1","","98.35","","","","","","NA"
"-111.96","60.02","FORT SMITH A","2202201","2019-03-22 02:00","2019","03","22","02:00","-0.4","","-3.5","","80","","","","15","","5","","24.1","","98.32","","","","-2","","Mostly Cloudy"
"-111.96","60.02","FORT SMITH A","2202201","2019-03-22 03:00","2019","03","22","03:00","-0.2","","-3.8","","76","","","","17","","6","","24.1","","98.29","","","","-2","","NA"
"-111.96","60.02","FORT SMITH A","2202201","2019-03-22 04:00","2019","03","22","04:00","-1.8","","-4.3","","83","","","","20","","4","","24.1","","98.29","","","","-3","","NA"
"-111.96","60.02","FORT SMITH A","2202201","2019-03-22 05:00","2019","03","22","05:00","1.5","","-4.3","","65","","","","28","","7","","24.1","","98.31","","","","","","Mainly Clear"
"-111.96","60.02","FORT SMITH A","2202201","2019-03-22 06:00","2019","03","22","06:00","2.6","","-4.0","","61","","","","30","","13","","24.1","","98.37","","","","","","NA"
"-111.96","60.02","FORT SMITH A","2202201","2019-03-22 07:00","2019","03","22","07:00","2.7","","-3.9","","62","","","","31","","14","","24.1","","98.44","","","","","","NA"
"-111.96","60.02","FORT SMITH A","2202201","2019-03-22 08:00","2019","03","22","08:00","3.3","","-3.5","","61","","","","31","","12","","24.1","","98.50","","","","","","Mainly Clear"
"-111.96","60.02","FORT SMITH A","2202201","2019-03-22 09:00","2019","03","22","09:00","4.3","","-2.7","","60","","","","30","","13","","24.1","","98.54","","","","","","NA"
"-111.96","60.02","FORT SMITH A","2202201","2019-03-22 10:00","2019","03","22","10:00","6.4","","-2.8","","52","","","","30","","16","","24.1","","98.64","","","","","","NA"
"-111.96","60.02","FORT SMITH A","2202201","2019-03-22 11:00","2019","03","22","11:00","7.4","","-2.1","","51","","","","29","","16","","24.1","","98.71","","","","","","Mainly Clear"
"-111.96","60.02","FORT SMITH A","2202201","2019-03-22 12:00","2019","03","22","12:00","8.8","","-2.4","","45","","","","34","","17","","24.1","","98.77","","","","","","NA"
"-111.96","60.02","FORT SMITH A","2202201","2019-03-22 13:00","2019","03","22","13:00","9.6","","-1.9","","44","","","","31","","14","","24.1","","98.82","","","","","","NA"
"-111.96","60.02","FORT SMITH A","2202201","2019-03-22 14:00","2019","03","22","14:00","8.9","","-1.8","","47","","","","1","","15","","24.1","","98.88","","","","","","Clear"
"-111.96","60.02","FORT SMITH A","2202201","2019-03-22 15:00","2019","03","22","15:00","9.0","","-1.7","","47","","","","36","","15","","24.1","","98.91","","","","","","NA"
"-111.96","60.02","FORT SMITH A","2202201","2019-03-22 16:00","2019","03","22","16:00","9.9","","-1.4","","45","","","","33","","17","","24.1","","98.94","","","","","","NA"
"-111.96","60.02","FORT SMITH A","2202201","2019-03-22 17:00","2019","03","22","17:00","8.6","","-1.5","","49","","","","35","","13","","24.1","","98.99","","","","","","Clear"
"-111.96","60.02","FORT SMITH A","2202201","2019-03-22 18:00","2019","03","22","18:00","7.1","","-2.1","","52","","","","35","","17","","24.1","","99.08","","","","","","NA"
"-111.96","60.02","FORT SMITH A","2202201","2019-03-22 19:00","2019","03","22","19:00","5.3","","-2.5","","57","","","","34","","15","","24.1","","99.14","","","","","","NA"
"-111.96","60.02","FORT SMITH A","2202201","2019-03-22 20:00","2019","03","22","20:00","2.9","","-3.0","","65","","","","35","","9","","24.1","","99.25","","","","","","Clear"
"-111.96","60.02","FORT SMITH A","2202201","2019-03-22 21:00","2019","03","22","21:00","1.3","","-3.4","","71","","","","36","","10","","24.1","","99.29","","","","","","NA"
"-111.96","60.02","FORT SMITH A","2202201","2019-03-22 22:00","2019","03","22","22:00","-0.1","","-3.7","","76","","","","2","","11","","24.1","","99.34","","","","-4","","NA"
"-111.96","60.02","FORT SMITH A","2202201","2019-03-22 23:00","2019","03","22","23:00","-1.5","","-4.5","","80","","","","1","","14","","24.1","","99.45","","","","-6","","Clear"
"-111.96","60.02","FORT SMITH A","2202201","2019-03-23 00:00","2019","03","23","00:00","-2.6","","-5.0","","83","","","","1","","14","","24.1","","99.54","","","","-7","","NA"
"-111.96","60.02","FORT SMITH A","2202201","2019-03-23 01:00","2019","03","23","01:00","-3.3","","-5.6","","84","","","","2","","14","","24.1","","99.64","","","","-8","","NA"
"-111.96","60.02","FORT SMITH A","2202201","2019-03-23 02:00","2019","03","23","02:00","-3.0","","-6.1","","79","","","","1","","12","","24.1","","99.73","","","","-7","","Mainly Clear"
"-111.96","60.02","FORT SMITH A","2202201","2019-03-23 03:00","2019","03","23","03:00","-3.1","","-7.5","","72","","","","1","","18","","24.1","","99.86","","","","-9","","NA"
"-111.96","60.02","FORT SMITH A","2202201","2019-03-23 04:00","2019","03","23","04:00","-3.9","","-7.6","","76","","","","2","","25","","19.3","","100.00","","","","-11","","Snow"
"-111.96","60.02","FORT SMITH A","2202201","2019-03-23 05:00","2019","03","23","05:00","-5.3","","-9.6","","72","","","","4","","18","","19.3","","100.17","","","","-12","","Snow,Blowing Snow"
"-111.96","60.02","FORT SMITH A","2202201","2019-03-23 06:00","2019","03","23","06:00","-6.5","","-11.4","","68","","","","3","","23","","24.1","","100.33","","","","-14","","Snow"
"-111.96","60.02","FORT SMITH A","2202201","2019-03-23 07:00","2019","03","23","07:00","-7.4","","-12.7","","66","","","","4","","21","","24.1","","100.48","","","","-15","","NA"
"-111.96","60.02","FORT SMITH A","2202201","2019-03-23 08:00","2019","03","23","08:00","-7.8","","-13.6","","64","","","","4","","15","","24.1","","100.61","","","","-14","","Mostly Cloudy"
"-111.96","60.02","FORT SMITH A","2202201","2019-03-23 09:00","2019","03","23","09:00","-8.1","","-15.9","","54","","","","6","","16","","24.1","","100.73","","","","-15","","NA"
"-111.96","60.02","FORT SMITH A","2202201","2019-03-23 10:00","2019","03","23","10:00","-8.2","","-16.1","","53","","","","6","","12","","24.1","","100.83","","","","-14","","NA"
"-111.96","60.02","FORT SMITH A","2202201","2019-03-23 11:00","2019","03","23","11:00","-7.7","","-17.0","","48","","","","7","","13","","24.1","","100.88","","","","-13","","Clear"
"-111.96","60.02","FORT SMITH A","2202201","2019-03-23 12:00","2019","03","23","12:00","-6.8","","-16.7","","45","","","","10","","9","","24.1","","100.92","","","","-11","","NA"
"-111.96","60.02","FORT SMITH A","2202201","2019-03-23 13:00","2019","03","23","13:00","-5.6","","-16.4","","43","","","","9","","13","","24.1","","100.93","","","","-11","","NA"
"-111.96","60.02","FORT SMITH A","2202201","2019-03-23 14:00","2019","03","23","14:00","-5.1","","-16.8","","40","","","","10","","12","","24.1","","100.94","","","","-10","","Mainly Clear"
"-111.96","60.02","FORT SMITH A","2202201","2019-03-23 15:00","2019","03","23","15:00","-4.9","","-17.5","","37","","","","13","","16","","24.1","","100.94","","","","-11","","NA"
"-111.96","60.02","FORT SMITH A","2202201","2019-03-23 16:00","2019","03","23","16:00","-4.4","","-16.9","","38","","","","14","","13","","24.1","","100.93","","","","-9","","NA"
"-111.96","60.02","FORT SMITH A","2202201","2019-03-23 17:00","2019","03","23","17:00","-4.9","","-18.4","","34","","","","10","","7","","24.1","","100.95","","","","-8","","Mainly Clear"
"-111.96","60.02","FORT SMITH A","2202201","2019-03-23 18:00","2019","03","23","18:00","-5.7","","-17.1","","41","","","","13","","12","","24.1","","100.96","","","","-11","","NA"
"-111.96","60.02","FORT SMITH A","2202201","2019-03-23 19:00","2019","03","23","19:00","-7.4","","-18.6","","41","","","","14","","10","","24.1","","101.00","","","","-12","","NA"
"-111.96","60.02","FORT SMITH A","2202201","2019-03-23 20:00","2019","03","23","20:00","-8.5","","-19.3","","42","","","","13","","14","","24.1","","101.01","","","","-15","","Mainly Clear"
"-111.96","60.02","FORT SMITH A","2202201","2019-03-23 21:00","2019","03","23","21:00","-9.7","","-18.8","","48","","","","14","","13","","24.1","","101.03","","","","-16","","NA"
"-111.96","60.02","FORT SMITH A","2202201","2019-03-23 22:00","2019","03","23","22:00","-10.5","","-19.1","","50","","","","13","","9","","24.1","","101.03","","","","-15","","NA"
"-111.96","60.02","FORT SMITH A","2202201","2019-03-23 23:00","2019","03","23","23:00","-11.0","","-19.8","","49","","","","13","","9","","24.1","","101.02","","","","-16","","Clear"
"-111.96","60.02","FORT SMITH A","2202201","2019-03-24 00:00","2019","03","24","00:00","-11.6","","-19.6","","52","","","","13","","12","","24.1","","100.97","","","","-18","","NA"
"-111.96","60.02","FORT SMITH A","2202201","2019-03-24 01:00","2019","03","24","01:00","-12.0","","-19.4","","55","","","","13","","8","","24.1","","100.96","","","","-17","","NA"
"-111.96","60.02","FORT SMITH A","2202201","2019-03-24 02:00","2019","03","24","02:00","-12.3","","-19.0","","58","","","","13","","5","","24.1","","100.91","","","","-16","","Mainly Clear"
"-111.96","60.02","FORT SMITH A","2202201","2019-03-24 03:00","2019","03","24","03:00","-11.8","","-18.8","","57","","","","13","","8","","24.1","","100.87","","","","-17","","NA"
"-111.96","60.02","FORT SMITH A","2202201","2019-03-24 04:00","2019","03","24","04:00","-11.5","","-18.3","","58","","","","13","","10","","24.1","","100.84","","","","-17","","NA"
"-111.96","60.02","FORT SMITH A","2202201","2019-03-24 05:00","2019","03","24","05:00","-11.4","","-17.6","","61","","","","10","","7","","24.1","","100.82","","","","-16","","Mostly Cloudy"
"-111.96","60.02","FORT SMITH A","2202201","2019-03-24 06:00","2019","03","24","06:00","-12.1","","-17.6","","64","","","","14","","13","","24.1","","100.78","","","","-19","","NA"
"-111.96","60.02","FORT SMITH A","2202201","2019-03-24 07:00","2019","03","24","07:00","-12.3","","-17.9","","64","","","","12","","9","","24.1","","100.74","","","","-18","","NA"
"-111.96","60.02","FORT SMITH A","2202201","2019-03-24 08:00","2019","03","24","08:00","-11.4","","-17.7","","60","","","","14","","15","","24.1","","100.69","","","","-18","","Cloudy"
"-111.96","60.02","FORT SMITH A","2202201","2019-03-24 09:00","2019","03","24","09:00","-9.7","","-17.2","","55","","","","14","","16","","24.1","","100.62","","","","-17","","NA"
"-111.96","60.02","FORT SMITH A","2202201","2019-03-24 10:00","2019","03","24","10:00","-7.5","","-16.3","","50","","","","13","","14","","24.1","","100.57","","","","-13","","NA"
"-111.96","60.02","FORT SMITH A","2202201","2019-03-24 11:00","2019","03","24","11:00","-4.8","","-15.3","","44","","","","14","","14","","24.1","","100.53","","","","-10","","Cloudy"
"-111.96","60.02","FORT SMITH A","2202201","2019-03-24 12:00","2019","03","24","12:00","-2.7","","-13.2","","44","","","","15","","24","","24.1","","100.41","","","","-9","","NA"
"-111.96","60.02","FORT SMITH A","2202201","2019-03-24 13:00","2019","03","24","13:00","-1.0","","-12.5","","42","","","","14","","17","","24.1","","100.33","","","","-6","","NA"
"-111.96","60.02","FORT SMITH A","2202201","2019-03-24 14:00","2019","03","24","14:00","1.1","","-11.2","","39","","","","15","","21","","24.1","","100.24","","","","","","Mostly Cloudy"
"-111.96","60.02","FORT SMITH A","2202201","2019-03-24 15:00","2019","03","24","15:00","2.1","","-10.3","","40","","","","15","","22","","24.1","","100.14","","","","","","NA"
"-111.96","60.02","FORT SMITH A","2202201","2019-03-24 16:00","2019","03","24","16:00","3.2","","-8.3","","43","","","","15","","16","","24.1","","100.03","","","","","","NA"
"-111.96","60.02","FORT SMITH A","2202201","2019-03-24 17:00","2019","03","24","17:00","2.7","","-8.7","","43","","","","15","","20","","24.1","","99.95","","","","","","Mainly Clear"
"-111.96","60.02","FORT SMITH A","2202201","2019-03-24 18:00","2019","03","24","18:00","2.3","","-8.3","","46","","","","15","","20","","24.1","","99.86","","","","","","NA"
"-111.96","60.02","FORT SMITH A","2202201","2019-03-24 19:00","2019","03","24","19:00","0.8","","-8.1","","52","","","","15","","16","","24.1","","99.78","","","","","","NA"
"-111.96","60.02","FORT SMITH A","2202201","2019-03-24 20:00","2019","03","24","20:00","0.2","","-7.6","","56","","","","16","","16","","24.1","","99.71","","","","","","Mainly Clear"
"-111.96","60.02","FORT SMITH A","2202201","2019-03-24 21:00","2019","03","24","21:00","-0.4","","-7.3","","60","","","","17","","12","","24.1","","99.66","","","","-4","","NA"
"-111.96","60.02","FORT SMITH A","2202201","2019-03-24 22:00","2019","03","24","22:00","-1.2","","-7.3","","63","","","","16","","10","","24.1","","99.61","","","","-5","","NA"
"-111.96","60.02","FORT SMITH A","2202201","2019-03-24 23:00","2019","03","24","23:00","-1.6","","-7.5","","65","","","","15","","13","","24.1","","99.55","","","","-6","","Clear"
"-111.96","60.02","FORT SMITH A","2202201","2019-03-25 00:00","2019","03","25","00:00","-2.1","","-7.5","","67","","","","15","","14","","24.1","","99.51","","","","-7","","NA"
"-111.96","60.02","FORT SMITH A","2202201","2019-03-25 01:00","2019","03","25","01:00","-2.5","","-7.3","","70","","","","15","","8","","24.1","","99.45","","","","-6","","NA"
"-111.96","60.02","FORT SMITH A","2202201","2019-03-25 02:00","2019","03","25","02:00","-2.6","","-7.2","","71","","","","14","","8","","24.1","","99.37","","","","-6","","Mainly Clear"
"-111.96","60.02","FORT SMITH A","2202201","2019-03-25 03:00","2019","03","25","03:00","-2.8","","-7.1","","73","","","","15","","7","","24.1","","99.30","","","","-6","","NA"
"-111.96","60.02","FORT SMITH A","2202201","2019-03-25 04:00","2019","03","25","04:00","-2.8","","-6.8","","74","","","","15","","7","","24.1","","99.23","","","","-6","","NA"
"-111.96","60.02","FORT SMITH A","2202201","2019-03-25 05:00","2019","03","25","05:00","-2.1","","-6.2","","74","","","","15","","8","","24.1","","99.14","","","","-5","","Mainly Clear"
"-111.96","60.02","FORT SMITH A","2202201","2019-03-25 06:00","2019","03","25","06:00","-1.4","","-5.7","","73","","","","14","","7","","24.1","","99.07","","","","-4","","NA"
"-111.96","60.02","FORT SMITH A","2202201","2019-03-25 07:00","2019","03","25","07:00","-1.4","","-5.5","","73","","","","14","","5","","24.1","","99.00","","","","-3","","NA"
"-111.96","60.02","FORT SMITH A","2202201","2019-03-25 08:00","2019","03","25","08:00","-0.9","","-5.3","","72","","","","15","","9","","24.1","","98.95","","","","-4","","Mostly Cloudy"
"-111.96","60.02","FORT SMITH A","2202201","2019-03-25 09:00","2019","03","25","09:00","2.6","","-4.0","","62","","","","16","","9","","24.1","","98.88","","","","","","NA"
"-111.96","60.02","FORT SMITH A","2202201","2019-03-25 10:00","2019","03","25","10:00","5.7","","-3.3","","52","","","","18","","5","","24.1","","98.84","","","","","","NA"
"-111.96","60.02","FORT SMITH A","2202201","2019-03-25 11:00","2019","03","25","11:00","8.7","","-4.1","","40","","","","30","","10","","24.1","","98.77","","","","","","Mostly Cloudy"
"-111.96","60.02","FORT SMITH A","2202201","2019-03-25 12:00","2019","03","25","12:00","9.6","","-3.9","","38","","","","28","","14","","24.1","","98.71","","","","","","NA"
"-111.96","60.02","FORT SMITH A","2202201","2019-03-25 13:00","2019","03","25","13:00","10.0","","-4.3","","36","","","","26","","16","","24.1","","98.65","","","","","","NA"
"-111.96","60.02","FORT SMITH A","2202201","2019-03-25 14:00","2019","03","25","14:00","10.2","","-3.8","","37","","","","28","","16","","24.1","","98.60","","","","","","Mostly Cloudy"
"-111.96","60.02","FORT SMITH A","2202201","2019-03-25 15:00","2019","03","25","15:00","10.1","","-3.5","","38","","","","26","","23","","24.1","","98.57","","","","","","NA"
"-111.96","60.02","FORT SMITH A","2202201","2019-03-25 16:00","2019","03","25","16:00","8.7","","-3.1","","43","","","","29","","23","","24.1","","98.57","","","","","","NA"
"-111.96","60.02","FORT SMITH A","2202201","2019-03-25 17:00","2019","03","25","17:00","7.9","","-1.9","","50","","","","34","","22","","24.1","","98.57","","","","","","Clear"
"-111.96","60.02","FORT SMITH A","2202201","2019-03-25 18:00","2019","03","25","18:00","5.8","","-0.8","","63","","","","30","","18","","24.1","","98.61","","","","","","NA"
"-111.96","60.02","FORT SMITH A","2202201","2019-03-25 19:00","2019","03","25","19:00","4.2","","-0.9","","69","","","","31","","8","","24.1","","98.58","","","","","","NA"
"-111.96","60.02","FORT SMITH A","2202201","2019-03-25 20:00","2019","03","25","20:00","2.9","","-1.2","","74","","","","31","","3","","24.1","","98.54","","","","","","Mainly Clear"
"-111.96","60.02","FORT SMITH A","2202201","2019-03-25 21:00","2019","03","25","21:00","-0.9","","-2.5","","89","","","","36","","2","","24.1","","98.50","","","","-2","","NA"
"-111.96","60.02","FORT SMITH A","2202201","2019-03-25 22:00","2019","03","25","22:00","-1.9","","-3.4","","90","","","","36","","2","","24.1","","98.52","","","","-3","","NA"
"-111.96","60.02","FORT SMITH A","2202201","2019-03-25 23:00","2019","03","25","23:00","-1.5","","-2.9","","90","","","","24","","4","","24.1","","98.48","","","","-3","","Mainly Clear"
"-111.96","60.02","FORT SMITH A","2202201","2019-03-26 00:00","2019","03","26","00:00","0.7","","-1.2","","87","","","","21","","4","","24.1","","98.45","","","","","","NA"
"-111.96","60.02","FORT SMITH A","2202201","2019-03-26 01:00","2019","03","26","01:00","1.1","","-0.8","","87","","","","30","","8","","24.1","","98.42","","","","","","Rain"
"-111.96","60.02","FORT SMITH A","2202201","2019-03-26 02:00","2019","03","26","02:00","1.2","","0.0","","91","","","","29","","7","","24.1","","98.41","","","","","","Rain"
"-111.96","60.02","FORT SMITH A","2202201","2019-03-26 03:00","2019","03","26","03:00","1.0","","-0.1","","92","","","","29","","6","","24.1","","98.40","","","","","","NA"
"-111.96","60.02","FORT SMITH A","2202201","2019-03-26 04:00","2019","03","26","04:00","1.4","","0.1","","91","","","","29","","9","","24.1","","98.40","","","","","","NA"
"-111.96","60.02","FORT SMITH A","2202201","2019-03-26 05:00","2019","03","26","05:00","1.1","","0.2","","93","","","","28","","10","","24.1","","98.41","","","","","","Cloudy"
"-111.96","60.02","FORT SMITH A","2202201","2019-03-26 06:00","2019","03","26","06:00","1.1","","-0.7","","88","","","","31","","10","","24.1","","98.42","","","","","","Snow"
"-111.96","60.02","FORT SMITH A","2202201","2019-03-26 07:00","2019","03","26","07:00","0.6","","-1.2","","87","","","","31","","9","","24.1","","98.45","","","","","","NA"
"-111.96","60.02","FORT SMITH A","2202201","2019-03-26 08:00","2019","03","26","08:00","0.3","","-0.7","","93","","","","30","","14","","4.8","","98.47","","","","","","Snow"
"-111.96","60.02","FORT SMITH A","2202201","2019-03-26 09:00","2019","03","26","09:00","0.1","","-0.6","","95","","","","30","","15","","1.6","","98.50","","","","","","Snow,Fog"
"-111.96","60.02","FORT SMITH A","2202201","2019-03-26 10:00","2019","03","26","10:00","-0.7","","-1.9","","92","","","","32","","13","","24.1","","98.55","","","","-5","","Snow"
"-111.96","60.02","FORT SMITH A","2202201","2019-03-26 11:00","2019","03","26","11:00","-0.1","","-2.1","","86","","","","33","","13","","16.1","","98.60","","","","-4","","Snow"
"-111.96","60.02","FORT SMITH A","2202201","2019-03-26 12:00","2019","03","26","12:00","1.1","","-2.1","","79","","","","30","","14","","24.1","","98.61","","","","","","Snow"
"-111.96","60.02","FORT SMITH A","2202201","2019-03-26 13:00","2019","03","26","13:00","1.8","","-3.3","","69","","","","34","","17","","24.1","","98.67","","","","","","NA"
"-111.96","60.02","FORT SMITH A","2202201","2019-03-26 14:00","2019","03","26","14:00","3.4","","-3.7","","60","","","","32","","17","","24.1","","98.68","","","","","","Mostly Cloudy"
"-111.96","60.02","FORT SMITH A","2202201","2019-03-26 15:00","2019","03","26","15:00","4.0","","-3.6","","58","","","","35","","10","","24.1","","98.69","","","","","","NA"
"-111.96","60.02","FORT SMITH A","2202201","2019-03-26 16:00","2019","03","26","16:00","4.1","","-3.8","","57","","","","31","","22","","24.1","","98.73","","","","","","NA"
"-111.96","60.02","FORT SMITH A","2202201","2019-03-26 17:00","2019","03","26","17:00","3.5","","-4.1","","57","","","","33","","14","","24.1","","98.78","","","","","","Mostly Cloudy"
"-111.96","60.02","FORT SMITH A","2202201","2019-03-26 18:00","2019","03","26","18:00","2.4","","-4.7","","60","","","","32","","16","","24.1","","98.86","","","","","","NA"
"-111.96","60.02","FORT SMITH A","2202201","2019-03-26 19:00","2019","03","26","19:00","0.7","","-5.0","","66","","","","34","","15","","24.1","","98.95","","","","","","NA"
"-111.96","60.02","FORT SMITH A","2202201","2019-03-26 20:00","2019","03","26","20:00","0.0","","-5.5","","66","","","","32","","16","","24.1","","99.03","","","","-5","","Mostly Cloudy"
"-111.96","60.02","FORT SMITH A","2202201","2019-03-26 21:00","2019","03","26","21:00","-0.9","","-6.5","","66","","","","35","","19","","24.1","","99.12","","","","-6","","NA"
"-111.96","60.02","FORT SMITH A","2202201","2019-03-26 22:00","2019","03","26","22:00","-2.2","","-7.0","","70","","","","35","","21","","24.1","","99.20","","","","-8","","NA"
"-111.96","60.02","FORT SMITH A","2202201","2019-03-26 23:00","2019","03","26","23:00","-3.0","","-7.2","","73","","","","36","","20","","24.1","","99.27","","","","-9","","Cloudy"
"-111.96","60.02","FORT SMITH A","2202201","2019-03-27 00:00","2019","03","27","00:00","-3.3","","-7.5","","73","","","","36","","14","","24.1","","99.32","","","","-8","","NA"
"-111.96","60.02","FORT SMITH A","2202201","2019-03-27 01:00","2019","03","27","01:00","-3.2","","-7.3","","74","","","","34","","10","","24.1","","99.38","","","","-7","","Snow"
"-111.96","60.02","FORT SMITH A","2202201","2019-03-27 02:00","2019","03","27","02:00","-3.3","","-7.4","","74","","","","34","","14","","24.1","","99.43","","","","-8","","Snow"
"-111.96","60.02","FORT SMITH A","2202201","2019-03-27 03:00","2019","03","27","03:00","-3.5","","-6.7","","78","","","","35","","12","","24.1","","99.47","","","","-8","","Snow"
"-111.96","60.02","FORT SMITH A","2202201","2019-03-27 04:00","2019","03","27","04:00","-4.5","","-8.7","","73","","","","35","","17","","24.1","","99.56","","","","-10","","Snow"
"-111.96","60.02","FORT SMITH A","2202201","2019-03-27 05:00","2019","03","27","05:00","-5.1","","-9.0","","74","","","","35","","16","","24.1","","99.65","","","","-11","","Snow"
"-111.96","60.02","FORT SMITH A","2202201","2019-03-27 06:00","2019","03","27","06:00","-5.1","","-8.6","","76","","","","36","","18","","24.1","","99.66","","","","-11","","Snow"
"-111.96","60.02","FORT SMITH A","2202201","2019-03-27 07:00","2019","03","27","07:00","-5.1","","-8.8","","76","","","","34","","17","","24.1","","99.70","","","","-11","","Snow"
"-111.96","60.02","FORT SMITH A","2202201","2019-03-27 08:00","2019","03","27","08:00","-4.9","","-8.3","","77","","","","34","","9","","24.1","","99.71","","","","-9","","Snow"
"-111.96","60.02","FORT SMITH A","2202201","2019-03-27 09:00","2019","03","27","09:00","-4.5","","-9.5","","68","","","","32","","12","","24.1","","99.75","","","","-9","","NA"
"-111.96","60.02","FORT SMITH A","2202201","2019-03-27 10:00","2019","03","27","10:00","-3.9","","-10.3","","61","","","","32","","14","","24.1","","99.76","","","","-9","","Snow"
"-111.96","60.02","FORT SMITH A","2202201","2019-03-27 11:00","2019","03","27","11:00","-3.5","","-10.1","","60","","","","32","","11","","24.1","","99.80","","","","-8","","Snow"
"-111.96","60.02","FORT SMITH A","2202201","2019-03-27 12:00","2019","03","27","12:00","-2.9","","-8.7","","65","","","","29","","23","","24.1","","99.83","","","","-9","","Snow"
"-111.96","60.02","FORT SMITH A","2202201","2019-03-27 13:00","2019","03","27","13:00","-2.8","","-8.7","","64","","","","30","","14","","19.3","","99.83","","","","-8","","Snow"
"-111.96","60.02","FORT SMITH A","2202201","2019-03-27 14:00","2019","03","27","14:00","-2.4","","-7.6","","68","","","","29","","15","","16.1","","99.84","","","","-7","","Snow"
"-111.96","60.02","FORT SMITH A","2202201","2019-03-27 15:00","2019","03","27","15:00","-2.4","","-6.1","","76","","","","29","","11","","9.7","","99.84","","","","-6","","Snow"
"-111.96","60.02","FORT SMITH A","2202201","2019-03-27 16:00","2019","03","27","16:00","-2.2","","-5.4","","78","","","","29","","8","","16.1","","99.83","","","","-5","","Snow"
"-111.96","60.02","FORT SMITH A","2202201","2019-03-27 17:00","2019","03","27","17:00","-2.0","","-5.3","","78","","","","28","","12","","24.1","","99.83","","","","-6","","Snow"
"-111.96","60.02","FORT SMITH A","2202201","2019-03-27 18:00","2019","03","27","18:00","-1.9","","-5.3","","78","","","","27","","6","","24.1","","99.78","","","","-4","","Snow"
"-111.96","60.02","FORT SMITH A","2202201","2019-03-27 19:00","2019","03","27","19:00","-1.9","","-5.5","","77","","","","22","","3","","24.1","","99.78","","","","-3","","NA"
"-111.96","60.02","FORT SMITH A","2202201","2019-03-27 20:00","2019","03","27","20:00","-2.2","","-5.3","","79","","","","14","","4","","24.1","","99.77","","","","-4","","Mainly Clear"
"-111.96","60.02","FORT SMITH A","2202201","2019-03-27 21:00","2019","03","27","21:00","-3.6","","-5.6","","86","","","","15","","7","","24.1","","99.73","","","","-7","","NA"
"-111.96","60.02","FORT SMITH A","2202201","2019-03-27 22:00","2019","03","27","22:00","-4.3","","-5.8","","89","","","","16","","6","","24.1","","99.70","","","","-7","","NA"
"-111.96","60.02","FORT SMITH A","2202201","2019-03-27 23:00","2019","03","27","23:00","-4.6","","-6.1","","89","","","","15","","9","","24.1","","99.70","","","","-8","","Mainly Clear"
"-111.96","60.02","FORT SMITH A","2202201","2019-03-28 00:00","2019","03","28","00:00","-3.8","","-5.3","","89","","","","16","","8","","24.1","","99.62","","","","-7","","NA"
"-111.96","60.02","FORT SMITH A","2202201","2019-03-28 01:00","2019","03","28","01:00","-3.7","","-5.2","","89","","","","17","","9","","24.1","","99.53","","","","-7","","Snow"
"-111.96","60.02","FORT SMITH A","2202201","2019-03-28 02:00","2019","03","28","02:00","-2.9","","-5.0","","86","","","","15","","10","","24.1","","99.43","","","","-7","","Mostly Cloudy"
"-111.96","60.02","FORT SMITH A","2202201","2019-03-28 03:00","2019","03","28","03:00","-2.3","","-4.9","","82","","","","17","","13","","24.1","","99.33","","","","-7","","NA"
"-111.96","60.02","FORT SMITH A","2202201","2019-03-28 04:00","2019","03","28","04:00","-2.3","","-4.9","","82","","","","16","","8","","24.1","","99.26","","","","-5","","Snow"
"-111.96","60.02","FORT SMITH A","2202201","2019-03-28 05:00","2019","03","28","05:00","-2.3","","-5.0","","81","","","","18","","7","","24.1","","99.20","","","","-5","","Mostly Cloudy"
"-111.96","60.02","FORT SMITH A","2202201","2019-03-28 06:00","2019","03","28","06:00","-1.8","","-5.0","","79","","","","20","","5","","24.1","","99.16","","","","-4","","NA"
"-111.96","60.02","FORT SMITH A","2202201","2019-03-28 07:00","2019","03","28","07:00","0.0","","-4.4","","72","","","","26","","10","","24.1","","99.11","","","","-3","","NA"
"-111.96","60.02","FORT SMITH A","2202201","2019-03-28 08:00","2019","03","28","08:00","1.2","","-3.8","","69","","","","30","","18","","24.1","","99.15","","","","","","Cloudy"
"-111.96","60.02","FORT SMITH A","2202201","2019-03-28 09:00","2019","03","28","09:00","1.6","","-3.0","","72","","","","32","","21","","24.1","","99.19","","","","","","NA"
"-111.96","60.02","FORT SMITH A","2202201","2019-03-28 10:00","2019","03","28","10:00","1.6","","-3.5","","69","","","","32","","22","","24.1","","99.27","","","","","","NA"
"-111.96","60.02","FORT SMITH A","2202201","2019-03-28 11:00","2019","03","28","11:00","0.9","","-4.1","","69","","","","33","","27","","24.1","","99.37","","","","","","Cloudy"
"-111.96","60.02","FORT SMITH A","2202201","2019-03-28 12:00","2019","03","28","12:00","1.3","","-4.0","","68","","","","34","","25","","24.1","","99.44","","","","","","NA"
"-111.96","60.02","FORT SMITH A","2202201","2019-03-28 13:00","2019","03","28","13:00","1.4","","-3.8","","69","","","","32","","15","","24.1","","99.51","","","","","","NA"
"-111.96","60.02","FORT SMITH A","2202201","2019-03-28 14:00","2019","03","28","14:00","1.2","","-3.7","","70","","","","31","","19","","24.1","","99.58","","","","","","Snow Showers"
"-111.96","60.02","FORT SMITH A","2202201","2019-03-28 15:00","2019","03","28","15:00","1.1","","-4.3","","67","","","","34","","24","","24.1","","99.65","","","","","","NA"
"-111.96","60.02","FORT SMITH A","2202201","2019-03-28 16:00","2019","03","28","16:00","0.9","","-4.4","","68","","","","34","","19","","24.1","","99.76","","","","","","NA"
"-111.96","60.02","FORT SMITH A","2202201","2019-03-28 17:00","2019","03","28","17:00","0.6","","-4.5","","68","","","","33","","12","","24.1","","99.83","","","","","","Snow Showers"
"-111.96","60.02","FORT SMITH A","2202201","2019-03-28 18:00","2019","03","28","18:00","0.4","","-4.6","","69","","","","34","","12","","24.1","","99.90","","","","","","Snow Showers"
"-111.96","60.02","FORT SMITH A","2202201","2019-03-28 19:00","2019","03","28","19:00","0.2","","-4.7","","70","","","","34","","18","","24.1","","99.93","","","","","","Snow Showers"
"-111.96","60.02","FORT SMITH A","2202201","2019-03-28 20:00","2019","03","28","20:00","0.0","","-5.0","","69","","","","34","","10","","24.1","","99.99","","","","-3","","Snow Showers"
"-111.96","60.02","FORT SMITH A","2202201","2019-03-28 21:00","2019","03","28","21:00","-0.6","","-4.0","","78","","","","1","","11","","24.1","","100.04","","","","-4","","Snow"
"-111.96","60.02","FORT SMITH A","2202201","2019-03-28 22:00","2019","03","28","22:00","-0.9","","-4.4","","77","","","","34","","8","","24.1","","100.08","","","","-4","","Snow"
"-111.96","60.02","FORT SMITH A","2202201","2019-03-28 23:00","2019","03","28","23:00","-1.2","","-4.5","","78","","","","1","","9","","24.1","","100.15","","","","-4","","Cloudy"
"-111.96","60.02","FORT SMITH A","2202201","2019-03-29 00:00","2019","03","29","00:00","-1.9","","-6.4","","72","","","","3","","14","","24.1","","100.20","","","","-7","","NA"
"-111.96","60.02","FORT SMITH A","2202201","2019-03-29 01:00","2019","03","29","01:00","-2.1","","-6.7","","71","","","","1","","8","","24.1","","100.26","","","","-5","","NA"
"-111.96","60.02","FORT SMITH A","2202201","2019-03-29 02:00","2019","03","29","02:00","-2.4","","-7.2","","70","","","","35","","9","","24.1","","100.31","","","","-6","","Cloudy"
"-111.96","60.02","FORT SMITH A","2202201","2019-03-29 03:00","2019","03","29","03:00","-2.9","","-7.1","","73","","","","3","","9","","24.1","","100.34","","","","-6","","NA"
"-111.96","60.02","FORT SMITH A","2202201","2019-03-29 04:00","2019","03","29","04:00","-3.1","","-7.8","","70","","","","36","","8","","24.1","","100.37","","","","-6","","NA"
"-111.96","60.02","FORT SMITH A","2202201","2019-03-29 05:00","2019","03","29","05:00","-3.5","","-8.3","","69","","","","4","","8","","24.1","","100.42","","","","-7","","Mostly Cloudy"
"-111.96","60.02","FORT SMITH A","2202201","2019-03-29 06:00","2019","03","29","06:00","-4.1","","-9.5","","67","","","","4","","10","","24.1","","100.50","","","","-8","","Snow"
"-111.96","60.02","FORT SMITH A","2202201","2019-03-29 07:00","2019","03","29","07:00","-4.3","","-9.6","","67","","","","9","","3","","24.1","","100.51","","","","-6","","Snow"
"-111.96","60.02","FORT SMITH A","2202201","2019-03-29 08:00","2019","03","29","08:00","-3.9","","-9.5","","65","","","","8","","7","","24.1","","100.51","","","","-7","","Mostly Cloudy"
"-111.96","60.02","FORT SMITH A","2202201","2019-03-29 09:00","2019","03","29","09:00","-3.5","","-9.5","","63","","","","7","","6","","24.1","","100.48","","","","-6","","NA"
"-111.96","60.02","FORT SMITH A","2202201","2019-03-29 10:00","2019","03","29","10:00","-2.3","","-9.1","","60","","","","14","","8","","24.1","","100.51","","","","-5","","NA"
"-111.96","60.02","FORT SMITH A","2202201","2019-03-29 11:00","2019","03","29","11:00","-1.3","","-8.7","","57","","","","19","","9","","24.1","","100.46","","","","-5","","Cloudy"
"-111.96","60.02","FORT SMITH A","2202201","2019-03-29 12:00","2019","03","29","12:00","-0.3","","-8.7","","53","","","","18","","7","","24.1","","100.43","","","","-3","","NA"
"-111.96","60.02","FORT SMITH A","2202201","2019-03-29 13:00","2019","03","29","13:00","0.5","","-9.2","","48","","","","18","","9","","24.1","","100.38","","","","","","NA"
"-111.96","60.02","FORT SMITH A","2202201","2019-03-29 14:00","2019","03","29","14:00","1.5","","-8.2","","49","","","","15","","12","","24.1","","100.30","","","","","","Cloudy"
"-111.96","60.02","FORT SMITH A","2202201","2019-03-29 15:00","2019","03","29","15:00","1.7","","-8.1","","48","","","","14","","13","","24.1","","100.24","","","","","","NA"
"-111.96","60.02","FORT SMITH A","2202201","2019-03-29 16:00","2019","03","29","16:00","2.0","","-7.4","","50","","","","14","","12","","24.1","","100.21","","","","","","NA"
"-111.96","60.02","FORT SMITH A","2202201","2019-03-29 17:00","2019","03","29","17:00","2.0","","-7.3","","50","","","","14","","15","","24.1","","100.14","","","","","","Cloudy"
"-111.96","60.02","FORT SMITH A","2202201","2019-03-29 18:00","2019","03","29","18:00","1.8","","-6.8","","53","","","","15","","12","","24.1","","100.11","","","","","","NA"
"-111.96","60.02","FORT SMITH A","2202201","2019-03-29 19:00","2019","03","29","19:00","1.2","","-6.7","","55","","","","14","","14","","24.1","","100.07","","","","","","NA"
"-111.96","60.02","FORT SMITH A","2202201","2019-03-29 20:00","2019","03","29","20:00","0.9","","-6.5","","58","","","","15","","9","","24.1","","100.10","","","","","","Cloudy"
"-111.96","60.02","FORT SMITH A","2202201","2019-03-29 21:00","2019","03","29","21:00","0.3","","-5.9","","63","","","","17","","20","","24.1","","100.07","","","","","","Snow"
"-111.96","60.02","FORT SMITH A","2202201","2019-03-29 22:00","2019","03","29","22:00","-0.4","","-4.9","","72","","","","16","","9","","24.1","","100.08","","","","-4","","Snow"
"-111.96","60.02","FORT SMITH A","2202201","2019-03-29 23:00","2019","03","29","23:00","-1.3","","-4.4","","80","","","","13","","7","","19.3","","100.09","","","","-4","","Snow"
"-111.96","60.02","FORT SMITH A","2202201","2019-03-30 00:00","2019","03","30","00:00","-1.5","","-4.4","","81","","","","8","","3","","19.3","","100.11","","","","-3","","Snow"
"-111.96","60.02","FORT SMITH A","2202201","2019-03-30 01:00","2019","03","30","01:00","-1.4","","-5.5","","74","","","","8","","4","","24.1","","100.10","","","","-3","","Snow"
"-111.96","60.02","FORT SMITH A","2202201","2019-03-30 02:00","2019","03","30","02:00","-1.8","","-5.0","","79","","","","2","","4","","24.1","","100.15","","","","-3","","Snow"
"-111.96","60.02","FORT SMITH A","2202201","2019-03-30 03:00","2019","03","30","03:00","-1.7","","-4.8","","79","","","","30","","4","","19.3","","100.16","","","","-3","","Snow"
"-111.96","60.02","FORT SMITH A","2202201","2019-03-30 04:00","2019","03","30","04:00","-1.7","","-4.5","","82","","","","30","","3","","24.1","","100.17","","","","-3","","Snow"
"-111.96","60.02","FORT SMITH A","2202201","2019-03-30 05:00","2019","03","30","05:00","-1.9","","-4.2","","84","","","","29","","6","","24.1","","100.21","","","","-4","","Cloudy"
"-111.96","60.02","FORT SMITH A","2202201","2019-03-30 06:00","2019","03","30","06:00","-1.7","","-3.8","","85","","","","28","","5","","24.1","","100.27","","","","-4","","Snow"
"-111.96","60.02","FORT SMITH A","2202201","2019-03-30 07:00","2019","03","30","07:00","-1.6","","-2.7","","92","","","","27","","14","","19.3","","100.31","","","","-6","","Snow"
"-111.96","60.02","FORT SMITH A","2202201","2019-03-30 08:00","2019","03","30","08:00","-1.5","","-2.7","","91","","","","30","","17","","4.0","","100.35","","","","-7","","Snow"
"-111.96","60.02","FORT SMITH A","2202201","2019-03-30 09:00","2019","03","30","09:00","-1.5","","-3.1","","89","","","","31","","18","","4.0","","100.40","","","","-7","","Snow,Fog"
"-111.96","60.02","FORT SMITH A","2202201","2019-03-30 10:00","2019","03","30","10:00","-1.3","","-4.6","","78","","","","31","","18","","24.1","","100.48","","","","-7","","Snow"
"-111.96","60.02","FORT SMITH A","2202201","2019-03-30 11:00","2019","03","30","11:00","-1.4","","-4.5","","80","","","","32","","12","","24.1","","100.54","","","","-5","","Snow"
"-111.96","60.02","FORT SMITH A","2202201","2019-03-30 12:00","2019","03","30","12:00","-0.3","","-5.0","","71","","","","31","","17","","24.1","","100.59","","","","-5","","Snow"
"-111.96","60.02","FORT SMITH A","2202201","2019-03-30 13:00","2019","03","30","13:00","0.7","","-5.9","","61","","","","34","","16","","24.1","","100.62","","","","","","Snow"
"-111.96","60.02","FORT SMITH A","2202201","2019-03-30 14:00","2019","03","30","14:00","1.8","","-7.6","","50","","","","31","","22","","24.1","","100.63","","","","","","Mostly Cloudy"
"-111.96","60.02","FORT SMITH A","2202201","2019-03-30 15:00","2019","03","30","15:00","2.1","","-7.9","","48","","","","34","","14","","24.1","","100.63","","","","","","NA"
"-111.96","60.02","FORT SMITH A","2202201","2019-03-30 16:00","2019","03","30","16:00","1.4","","-8.4","","48","","","","33","","12","","24.1","","100.63","","","","","","NA"
"-111.96","60.02","FORT SMITH A","2202201","2019-03-30 17:00","2019","03","30","17:00","1.3","","-10.3","","42","","","","33","","19","","24.1","","100.65","","","","","","Mostly Cloudy"
"-111.96","60.02","FORT SMITH A","2202201","2019-03-30 18:00","2019","03","30","18:00","0.3","","-9.6","","48","","","","32","","14","","24.1","","100.66","","","","","","NA"
"-111.96","60.02","FORT SMITH A","2202201","2019-03-30 19:00","2019","03","30","19:00","-1.1","","-8.8","","56","","","","33","","9","","24.1","","100.68","","","","-4","","NA"
"-111.96","60.02","FORT SMITH A","2202201","2019-03-30 20:00","2019","03","30","20:00","-1.7","","-9.2","","57","","","","33","","7","","24.1","","100.70","","","","-4","","Mainly Clear"
"-111.96","60.02","FORT SMITH A","2202201","2019-03-30 21:00","2019","03","30","21:00","-4.3","","-8.4","","73","","","","28","","7","","24.1","","100.69","","","","-7","","NA"
"-111.96","60.02","FORT SMITH A","2202201","2019-03-30 22:00","2019","03","30","22:00","-3.9","","-8.2","","72","","","","31","","4","","24.1","","100.69","","","","-6","","NA"
"-111.96","60.02","FORT SMITH A","2202201","2019-03-30 23:00","2019","03","30","23:00","-5.6","","-9.0","","77","","","","24","","5","","24.1","","100.65","","","","-8","","Mainly Clear"
"-111.96","60.02","FORT SMITH A","2202201","2019-03-31 00:00","2019","03","31","00:00","-5.5","","-9.1","","76","","","","23","","4","","24.1","","100.63","","","","-7","","NA"
"-111.96","60.02","FORT SMITH A","2202201","2019-03-31 01:00","2019","03","31","01:00","-6.5","","-8.9","","83","","","","20","","3","","24.1","","100.61","","","","-8","","NA"
"-111.96","60.02","FORT SMITH A","2202201","2019-03-31 02:00","2019","03","31","02:00","-6.3","","-8.9","","82","","","","19","","5","","24.1","","100.57","","","","-9","","Clear"
"-111.96","60.02","FORT SMITH A","2202201","2019-03-31 03:00","2019","03","31","03:00","-7.2","","-9.5","","84","","","","16","","5","","24.1","","100.48","","","","-10","","NA"
"-111.96","60.02","FORT SMITH A","2202201","2019-03-31 04:00","2019","03","31","04:00","-7.1","","-9.5","","83","","","","18","","6","","24.1","","100.45","","","","-10","","NA"
"-111.96","60.02","FORT SMITH A","2202201","2019-03-31 05:00","2019","03","31","05:00","-7.2","","-9.8","","82","","","","17","","8","","24.1","","100.39","","","","-11","","Mainly Clear"
"-111.96","60.02","FORT SMITH A","2202201","2019-03-31 06:00","2019","03","31","06:00","-7.3","","-9.9","","82","","","","18","","7","","24.1","","100.33","","","","-11","","NA"
"-111.96","60.02","FORT SMITH A","2202201","2019-03-31 07:00","2019","03","31","07:00","-5.9","","-9.7","","75","","","","19","","12","","24.1","","100.20","","","","-11","","NA"
"-111.96","60.02","FORT SMITH A","2202201","2019-03-31 08:00","2019","03","31","08:00","-4.4","","-9.0","","71","","","","20","","7","","24.1","","100.11","","","","-8","","Cloudy"
"-111.96","60.02","FORT SMITH A","2202201","2019-03-31 09:00","2019","03","31","09:00","-1.8","","-8.8","","59","","","","20","","14","","24.1","","100.00","","","","-6","","NA"
"-111.96","60.02","FORT SMITH A","2202201","2019-03-31 10:00","2019","03","31","10:00","-0.1","","-8.5","","53","","","","20","","18","","24.1","","99.85","","","","-5","","Snow"
"-111.96","60.02","FORT SMITH A","2202201","2019-03-31 11:00","2019","03","31","11:00","1.2","","-7.7","","52","","","","24","","14","","24.1","","99.76","","","","","","Snow"
"-111.96","60.02","FORT SMITH A","2202201","2019-03-31 12:00","2019","03","31","12:00","3.3","","-6.7","","48","","","","25","","16","","24.1","","99.61","","","","","","NA"
"-111.96","60.02","FORT SMITH A","2202201","2019-03-31 13:00","2019","03","31","13:00","5.7","","-4.8","","47","","","","29","","22","","24.1","","99.51","","","","","","NA"
"-111.96","60.02","FORT SMITH A","2202201","2019-03-31 14:00","2019","03","31","14:00","5.0","","-5.8","","45","","","","32","","16","","24.1","","99.47","","","","","","Mostly Cloudy"
"-111.96","60.02","FORT SMITH A","2202201","2019-03-31 15:00","2019","03","31","15:00","4.4","","-5.2","","50","","","","29","","29","","24.1","","99.42","","","","","","NA"
"-111.96","60.02","FORT SMITH A","2202201","2019-03-31 16:00","2019","03","31","16:00","4.0","","-4.6","","53","","","","30","","21","","24.1","","99.40","","","","","","NA"
"-111.96","60.02","FORT SMITH A","2202201","2019-03-31 17:00","2019","03","31","17:00","3.1","","-5.0","","55","","","","31","","19","","24.1","","99.38","","","","","","Cloudy"
"-111.96","60.02","FORT SMITH A","2202201","2019-03-31 18:00","2019","03","31","18:00","2.7","","-4.2","","60","","","","31","","17","","24.1","","99.37","","","","","","NA"
"-111.96","60.02","FORT SMITH A","2202201","2019-03-31 19:00","2019","03","31","19:00","1.6","","-3.0","","72","","","","30","","18","","24.1","","99.33","","","","","","Snow"
"-111.96","60.02","FORT SMITH A","2202201","2019-03-31 20:00","2019","03","31","20:00","1.4","","-3.0","","73","","","","27","","12","","24.1","","99.26","","","","","","Snow"
"-111.96","60.02","FORT SMITH A","2202201","2019-03-31 21:00","2019","03","31","21:00","1.6","","-3.2","","71","","","","30","","18","","24.1","","99.18","","","","","","NA"
"-111.96","60.02","FORT SMITH A","2202201","2019-03-31 22:00","2019","03","31","22:00","1.8","","-2.4","","73","","","","29","","22","","24.1","","99.13","","","","","","NA"
"-111.96","60.02","FORT SMITH A","2202201","2019-03-31 23:00","2019","03","31","23:00","2.0","","-2.0","","75","","","","30","","23","","24.1","","99.05","","","","","","Mostly Cloudy"
