"Longitude (x)","Latitude (y)","Station Name","Climate ID","Date/Time (LST)","Year","Month","Day","Time (LST)","Temp (°C)","Temp Flag","Dew Point Temp (°C)","Dew Point Temp Flag","Rel Hum (%)","Rel Hum Flag","Precip. Amount (mm)","Precip. Amount Flag","Wind Dir (10s deg)","Wind Dir Flag","Wind Spd (km/h)","Wind Spd Flag","Visibility (km)","Visibility Flag","Stn Press (kPa)","Stn Press Flag","Hmdx","Hmdx Flag","Wind Chill","Wind Chill Flag","Weather"
"-64.48","48.78","GASPE A","7052601","2018-01-01 00:00","2018","01","01","00:00","-8.1","","-11.3","","78","","","","27","","19","","16.1","","100.15","","","","-15","","Snow"
"-64.48","48.78","GASPE A","7052601","2018-01-01 01:00","2018","01","01","01:00","-8.6","","-11.7","","79","","","","29","","11","","24.1","","100.21","","","","-14","","Mainly Clear"
"-64.48","48.78","GASPE A","7052601","2018-01-01 02:00","2018","01","01","02:00","-9.7","","-12.2","","82","","","","28","","11","","24.1","","100.28","","","","-15","","NA"
"-64.48","48.78","GASPE A","7052601","2018-01-01 03:00","2018","01","01","03:00","-12.0","","-14.4","","83","","","","30","","10","","24.1","","100.34","","","","-18","","NA"
"-64.48","48.78","GASPE A","7052601","2018-01-01 04:00","2018","01","01","04:00","-9.4","","-12.8","","77","","","","27","","8","","24.1","","100.37","","","","-14","","Mainly Clear"
"-64.48","48.78","GASPE A","7052601","2018-01-01 05:00","2018","01","01","05:00","-10.4","","-13.3","","80","","","","27","","11","","24.1","","100.42","","","","-16","","NA"
"-64.48","48.78","GASPE A","7052601","2018-01-01 06:00","2018","01","01","06:00","-10.1","","-13.3","","78","","","","30","","10","","24.1","","100.47","","","","-15","","NA"
"-64.48","48.78","GASPE A","7052601","2018-01-01 07:00","2018","01","01","07:00","-10.7","","-14.3","","75","","","","26","","9","","24.1","","100.52","","","","-16","","Mainly Clear"
"-64.48","48.78","GASPE A","7052601","2018-01-01 08:00","2018","01","01","08:00","-9.4","","-13.0","","76","","","","28","","16","","24.1","","100.57","","","","-16","","NA"
"-64.48","48.78","GASPE A","7052601","2018-01-01 09:00","2018","01","01","09:00","-9.0","","-13.1","","73","","","","27","","18","","24.1","","100.62","","","","-16","","NA"
"-64.48","48.78","GASPE A","7052601","2018-01-01 10:00","2018","01","01","10:00","-7.9","","-12.2","","72","","","","26","","12","","24.1","","100.62","","","","-13","","Cloudy"
"-64.48","48.78","GASPE A","7052601","2018-01-01 11:00","2018","01","01","11:00","-6.8","","-11.7","","69","","","","31","","16","","24.1","","100.58","","","","-13","","NA"
"-64.48","48.78","GASPE A","7052601","2018-01-01 12:00","2018","01","01","12:00","-6.5","","-11.1","","70","","","","33","","13","","24.1","","100.55","","","","-12","","NA"
"-64.48","48.78","GASPE A","7052601","2018-01-01 13:00","2018","01","01","13:00","-6.7","","-11.2","","70","","","","34","","12","","24.1","","100.58","","","","-12","","Cloudy"
"-64.48","48.78","GASPE A","7052601","2018-01-01 14:00","2018","01","01","14:00","-7.1","","-11.3","","72","","","","34","","14","","24.1","","100.63","","","","-13","","Snow"
"-64.48","48.78","GASPE A","7052601","2018-01-01 15:00","2018","01","01","15:00","-7.4","","-11.4","","73","","","","34","","8","","24.1","","100.68","","","","-11","","Snow"
"-64.48","48.78","GASPE A","7052601","2018-01-01 16:00","2018","01","01","16:00","-8.0","","-11.9","","74","","","","31","","9","","16.1","","100.74","","","","-13","","Cloudy"
"-64.48","48.78","GASPE A","7052601","2018-01-01 17:00","2018","01","01","17:00","-8.5","","-12.5","","73","","","","32","","10","","24.1","","100.76","","","","-13","","NA"
"-64.48","48.78","GASPE A","7052601","2018-01-01 18:00","2018","01","01","18:00","-8.8","","-12.6","","74","","","","28","","6","","24.1","","100.78","","","","-12","","NA"
"-64.48","48.78","GASPE A","7052601","2018-01-01 19:00","2018","01","01","19:00","-9.0","","-12.2","","78","","","","36","","2","","24.1","","100.82","","","","-10","","Cloudy"
"-64.48","48.78","GASPE A","7052601","2018-01-01 20:00","2018","01","01","20:00","-8.9","","-12.4","","76","","","","30","","11","","24.1","","100.79","","","","-14","","NA"
"-64.48","48.78","GASPE A","7052601","2018-01-01 21:00","2018","01","01","21:00","-9.1","","-12.3","","77","","","","27","","14","","24.1","","100.78","","","","-15","","NA"
"-64.48","48.78","GASPE A","7052601","2018-01-01 22:00","2018","01","01","22:00","-9.0","","-12.2","","78","","","","29","","9","","24.1","","100.77","","","","-14","","Cloudy"
"-64.48","48.78","GASPE A","7052601","2018-01-01 23:00","2018","01","01","23:00","-9.1","","-12.3","","78","","","","29","","6","","2.4","","100.77","","","","-12","","Snow"
"-64.48","48.78","GASPE A","7052601","2018-01-02 00:00","2018","01","02","00:00","-9.2","","-12.1","","80","","","","29","","9","","16.1","","100.73","","","","-14","","Snow"
"-64.48","48.78","GASPE A","7052601","2018-01-02 01:00","2018","01","02","01:00","-9.7","","-12.5","","80","","","","31","","8","","16.1","","100.70","","","","-14","","Snow"
"-64.48","48.78","GASPE A","7052601","2018-01-02 02:00","2018","01","02","02:00","-9.9","","-12.8","","80","","","","32","","10","","24.1","","100.70","","","","-15","","NA"
"-64.48","48.78","GASPE A","7052601","2018-01-02 03:00","2018","01","02","03:00","-9.9","","-13.0","","79","","","","29","","11","","24.1","","100.66","","","","-15","","NA"
"-64.48","48.78","GASPE A","7052601","2018-01-02 04:00","2018","01","02","04:00","-10.1","","-12.9","","80","","","","32","","9","","24.1","","100.66","","","","-15","","Cloudy"
"-64.48","48.78","GASPE A","7052601","2018-01-02 05:00","2018","01","02","05:00","-10.0","","-12.9","","79","","","","35","","11","","16.1","","100.67","","","","-16","","Snow"
"-64.48","48.78","GASPE A","7052601","2018-01-02 06:00","2018","01","02","06:00","-10.6","","-13.6","","79","","","","26","","11","","16.1","","100.67","","","","-16","","Snow"
"-64.48","48.78","GASPE A","7052601","2018-01-02 07:00","2018","01","02","07:00","-10.8","","-13.9","","78","","","","30","","9","","24.1","","100.66","","","","-16","","Cloudy"
"-64.48","48.78","GASPE A","7052601","2018-01-02 08:00","2018","01","02","08:00","-10.6","","-14.0","","76","","","","30","","12","","16.1","","100.67","","","","-17","","Snow"
"-64.48","48.78","GASPE A","7052601","2018-01-02 09:00","2018","01","02","09:00","-10.0","","-13.2","","78","","","","30","","12","","2.4","","100.63","","","","-16","","Snow"
"-64.48","48.78","GASPE A","7052601","2018-01-02 10:00","2018","01","02","10:00","-9.1","","-12.9","","74","","","","28","","14","","8.1","","100.61","","","","-15","","Snow"
"-64.48","48.78","GASPE A","7052601","2018-01-02 11:00","2018","01","02","11:00","-8.5","","-12.2","","75","","","","28","","13","","16.1","","100.53","","","","-14","","Snow"
"-64.48","48.78","GASPE A","7052601","2018-01-02 12:00","2018","01","02","12:00","-7.8","","-11.7","","74","","","","30","","10","","11.3","","100.44","","","","-13","","Snow"
"-64.48","48.78","GASPE A","7052601","2018-01-02 13:00","2018","01","02","13:00","-7.0","","-11.5","","70","","","","28","","13","","24.1","","100.38","","","","-13","","Snow"
"-64.48","48.78","GASPE A","7052601","2018-01-02 14:00","2018","01","02","14:00","-7.0","","-11.3","","71","","","","28","","17","","3.2","","100.38","","","","-13","","Snow"
"-64.48","48.78","GASPE A","7052601","2018-01-02 15:00","2018","01","02","15:00","-7.8","","-10.8","","79","","","","28","","14","","3.6","","100.39","","","","-14","","Snow"
"-64.48","48.78","GASPE A","7052601","2018-01-02 16:00","2018","01","02","16:00","-8.0","","-12.1","","72","","","","31","","11","","6.4","","100.40","","","","-13","","Snow"
"-64.48","48.78","GASPE A","7052601","2018-01-02 17:00","2018","01","02","17:00","-9.5","","-13.4","","73","","","","32","","6","","16.1","","100.40","","","","-13","","Snow"
"-64.48","48.78","GASPE A","7052601","2018-01-02 18:00","2018","01","02","18:00","-11.6","","-15.2","","75","","","","31","","9","","24.1","","100.49","","","","-17","","NA"
"-64.48","48.78","GASPE A","7052601","2018-01-02 19:00","2018","01","02","19:00","-11.0","","-15.8","","68","","","","30","","11","","24.1","","100.51","","","","-17","","Mostly Cloudy"
"-64.48","48.78","GASPE A","7052601","2018-01-02 20:00","2018","01","02","20:00","-11.9","","-16.3","","70","","","","30","","14","","24.1","","100.54","","","","-19","","NA"
"-64.48","48.78","GASPE A","7052601","2018-01-02 21:00","2018","01","02","21:00","-13.3","","-17.9","","69","","","","29","","14","","24.1","","100.56","","","","-21","","NA"
"-64.48","48.78","GASPE A","7052601","2018-01-02 22:00","2018","01","02","22:00","-14.6","","-18.8","","71","","","","32","","13","","24.1","","100.57","","","","-22","","Mainly Clear"
"-64.48","48.78","GASPE A","7052601","2018-01-02 23:00","2018","01","02","23:00","-15.5","","-20.0","","69","","","","31","","9","","24.1","","100.62","","","","-21","","NA"
"-64.48","48.78","GASPE A","7052601","2018-01-03 00:00","2018","01","03","00:00","-16.9","","-21.2","","70","","","","33","","12","","24.1","","100.66","","","","-24","","NA"
"-64.48","48.78","GASPE A","7052601","2018-01-03 01:00","2018","01","03","01:00","-17.7","","-22.0","","70","","","","31","","4","","24.1","","100.72","","","","-21","","Clear"
"-64.48","48.78","GASPE A","7052601","2018-01-03 02:00","2018","01","03","02:00","-17.5","","-21.8","","69","","","","30","","14","","24.1","","100.81","","","","-26","","NA"
"-64.48","48.78","GASPE A","7052601","2018-01-03 03:00","2018","01","03","03:00","-17.7","","-22.7","","65","","","","30","","14","","24.1","","100.85","","","","-26","","NA"
"-64.48","48.78","GASPE A","7052601","2018-01-03 04:00","2018","01","03","04:00","-18.7","","-23.7","","65","","","","32","","10","","24.1","","100.94","","","","-26","","Clear"
"-64.48","48.78","GASPE A","7052601","2018-01-03 05:00","2018","01","03","05:00","-18.4","","-23.5","","65","","","","31","","13","","24.1","","101.02","","","","-26","","NA"
"-64.48","48.78","GASPE A","7052601","2018-01-03 06:00","2018","01","03","06:00","-18.5","","-23.7","","65","","","","29","","16","","24.1","","101.15","","","","-28","","NA"
"-64.48","48.78","GASPE A","7052601","2018-01-03 07:00","2018","01","03","07:00","-20.8","","-24.7","","71","","","","36","","5","","24.1","","101.23","","","","-25","","Clear"
"-64.48","48.78","GASPE A","7052601","2018-01-03 08:00","2018","01","03","08:00","-18.3","","-22.6","","69","","","","31","","13","","24.1","","101.38","","","","-26","","NA"
"-64.48","48.78","GASPE A","7052601","2018-01-03 09:00","2018","01","03","09:00","-16.1","","-22.8","","57","","","","29","","16","","24.1","","101.46","","","","-25","","NA"
"-64.48","48.78","GASPE A","7052601","2018-01-03 10:00","2018","01","03","10:00","-14.7","","-22.3","","53","","","","28","","18","","24.1","","101.50","","","","-23","","Mainly Clear"
"-64.48","48.78","GASPE A","7052601","2018-01-03 11:00","2018","01","03","11:00","-13.4","","-22.1","","49","","","","28","","21","","24.1","","101.51","","","","-22","","NA"
"-64.48","48.78","GASPE A","7052601","2018-01-03 12:00","2018","01","03","12:00","-12.4","","-22.0","","45","","","","27","","13","","24.1","","101.52","","","","-19","","NA"
"-64.48","48.78","GASPE A","7052601","2018-01-03 13:00","2018","01","03","13:00","-11.6","","-20.4","","49","","","","23","","12","","24.1","","101.56","","","","-18","","Mainly Clear"
"-64.48","48.78","GASPE A","7052601","2018-01-03 14:00","2018","01","03","14:00","-11.9","","-20.4","","50","","","","24","","17","","24.1","","101.66","","","","-20","","NA"
"-64.48","48.78","GASPE A","7052601","2018-01-03 15:00","2018","01","03","15:00","-14.0","","-21.9","","52","","","","27","","14","","24.1","","101.77","","","","-21","","NA"
"-64.48","48.78","GASPE A","7052601","2018-01-03 16:00","2018","01","03","16:00","-14.4","","-21.6","","55","","","","29","","9","","24.1","","101.87","","","","-20","","Cloudy"
"-64.48","48.78","GASPE A","7052601","2018-01-03 17:00","2018","01","03","17:00","-14.7","","-22.1","","54","","","","29","","15","","24.1","","101.94","","","","-23","","NA"
"-64.48","48.78","GASPE A","7052601","2018-01-03 18:00","2018","01","03","18:00","-15.4","","-21.9","","58","","","","29","","8","","24.1","","102.03","","","","-21","","NA"
"-64.48","48.78","GASPE A","7052601","2018-01-03 19:00","2018","01","03","19:00","-15.4","","-22.0","","58","","","","32","","7","","24.1","","102.07","","","","-20","","Mostly Cloudy"
"-64.48","48.78","GASPE A","7052601","2018-01-03 20:00","2018","01","03","20:00","-18.5","","-22.8","","70","","","","36","","1","","24.1","","102.13","","","","-19","","NA"
"-64.48","48.78","GASPE A","7052601","2018-01-03 21:00","2018","01","03","21:00","-21.6","","-25.0","","74","","","","30","","3","","24.1","","102.17","","","","-24","","NA"
"-64.48","48.78","GASPE A","7052601","2018-01-03 22:00","2018","01","03","22:00","-21.6","","-25.1","","74","","","","30","","4","","24.1","","102.18","","","","-25","","Mainly Clear"
"-64.48","48.78","GASPE A","7052601","2018-01-03 23:00","2018","01","03","23:00","-21.9","","-25.2","","75","","","","17","","4","","24.1","","102.24","","","","-26","","NA"
"-64.48","48.78","GASPE A","7052601","2018-01-04 00:00","2018","01","04","00:00","-21.1","","-24.6","","74","","","","30","","4","","24.1","","102.24","","","","-25","","NA"
"-64.48","48.78","GASPE A","7052601","2018-01-04 01:00","2018","01","04","01:00","-22.2","","-25.8","","74","","","","30","","4","","24.1","","102.24","","","","-26","","Mainly Clear"
"-64.48","48.78","GASPE A","7052601","2018-01-04 02:00","2018","01","04","02:00","-23.3","","-26.9","","73","","","","36","","2","","24.1","","102.20","","","","-25","","NA"
"-64.48","48.78","GASPE A","7052601","2018-01-04 03:00","2018","01","04","03:00","-21.1","","-24.6","","74","","","","36","","3","","24.1","","102.16","","","","-24","","Snow"
"-64.48","48.78","GASPE A","7052601","2018-01-04 04:00","2018","01","04","04:00","-20.2","","-23.6","","75","","","","36","","2","","24.1","","102.08","","","","-22","","Snow"
"-64.48","48.78","GASPE A","7052601","2018-01-04 05:00","2018","01","04","05:00","-18.7","","-22.0","","76","","","","24","","3","","8.1","","102.01","","","","-21","","Snow"
"-64.48","48.78","GASPE A","7052601","2018-01-04 06:00","2018","01","04","06:00","-17.6","","-20.8","","76","","","","25","","4","","8.1","","101.97","","","","-21","","Snow"
"-64.48","48.78","GASPE A","7052601","2018-01-04 07:00","2018","01","04","07:00","-16.4","","-19.4","","78","","","","31","","4","","4.8","","101.89","","","","-19","","Snow"
"-64.48","48.78","GASPE A","7052601","2018-01-04 08:00","2018","01","04","08:00","-15.3","","-18.3","","78","","","","27","","5","","12.9","","101.85","","","","-19","","Snow"
"-64.48","48.78","GASPE A","7052601","2018-01-04 09:00","2018","01","04","09:00","-13.7","","-16.6","","79","","","","22","","7","","8.1","","101.76","","","","-18","","Snow"
"-64.48","48.78","GASPE A","7052601","2018-01-04 10:00","2018","01","04","10:00","-11.8","","-14.6","","80","","","","28","","4","","12.9","","101.65","","","","-14","","Snow"
"-64.48","48.78","GASPE A","7052601","2018-01-04 11:00","2018","01","04","11:00","-10.6","","-13.1","","82","","","","24","","5","","4.8","","101.43","","","","-14","","Snow"
"-64.48","48.78","GASPE A","7052601","2018-01-04 12:00","2018","01","04","12:00","-9.6","","-11.8","","84","","","","21","","3","","12.9","","101.29","","","","-11","","Snow"
"-64.48","48.78","GASPE A","7052601","2018-01-04 13:00","2018","01","04","13:00","-9.0","","-11.2","","84","","","","36","","1","","12.9","","101.13","","","","-10","","Cloudy"
"-64.48","48.78","GASPE A","7052601","2018-01-04 14:00","2018","01","04","14:00","-8.7","","-10.8","","85","","","","36","","2","","1.6","","100.97","","","","-10","","Snow"
"-64.48","48.78","GASPE A","7052601","2018-01-04 15:00","2018","01","04","15:00","-8.3","","-10.0","","88","","","","25","","10","","1.0","","100.71","","","","-13","","Snow"
"-64.48","48.78","GASPE A","7052601","2018-01-04 16:00","2018","01","04","16:00","-2.3","","-3.4","","92","","","","10","","28","","1.0","","100.55","","","","-9","","Snow,Blowing Snow"
"-64.48","48.78","GASPE A","7052601","2018-01-04 17:00","2018","01","04","17:00","-2.0","","-2.9","","93","","","","8","","32","","0.8","","100.23","","","","-9","","Moderate Snow,Blowing Snow"
"-64.48","48.78","GASPE A","7052601","2018-01-04 18:00","2018","01","04","18:00","-2.1","","-3.0","","93","","","","8","","36","","0.6","","99.95","","","","-10","","Moderate Snow,Blowing Snow"
"-64.48","48.78","GASPE A","7052601","2018-01-04 19:00","2018","01","04","19:00","-2.4","","-3.4","","93","","","","7","","35","","0.4","","99.70","","","","-10","","Heavy Snow,Blowing Snow"
"-64.48","48.78","GASPE A","7052601","2018-01-04 20:00","2018","01","04","20:00","-2.7","","-3.8","","92","","","","7","","36","","0.4","","99.37","","","","-11","","Heavy Snow,Blowing Snow"
"-64.48","48.78","GASPE A","7052601","2018-01-04 21:00","2018","01","04","21:00","-3.3","","-4.5","","92","","","","6","","42","","0.4","","99.04","","","","-12","","Heavy Snow,Blowing Snow"
"-64.48","48.78","GASPE A","7052601","2018-01-04 22:00","2018","01","04","22:00","-3.4","","-4.6","","91","","","","8","","42","","0.4","","98.67","","","","-12","","Heavy Snow,Blowing Snow"
"-64.48","48.78","GASPE A","7052601","2018-01-04 23:00","2018","01","04","23:00","-3.5","","-4.9","","90","","","","8","","35","","0.4","","98.33","","","","-12","","Heavy Snow,Blowing Snow"
"-64.48","48.78","GASPE A","7052601","2018-01-05 00:00","2018","01","05","00:00","-3.2","","-4.6","","90","","","","8","","38","","0.4","","97.88","","","","-11","","Heavy Snow,Blowing Snow"
"-64.48","48.78","GASPE A","7052601","2018-01-05 01:00","2018","01","05","01:00","-2.9","","-4.2","","91","","","","8","","31","","0.4","","97.52","","","","-10","","Heavy Snow,Blowing Snow"
"-64.48","48.78","GASPE A","7052601","2018-01-05 02:00","2018","01","05","02:00","-2.0","","-3.6","","89","","","","7","","26","","0.8","","97.11","","","","-9","","Moderate Snow,Blowing Snow"
"-64.48","48.78","GASPE A","7052601","2018-01-05 03:00","2018","01","05","03:00","-0.5","","-1.7","","92","","","","7","","25","","0.8","","96.69","","","","-7","","Moderate Snow,Blowing Snow"
"-64.48","48.78","GASPE A","7052601","2018-01-05 04:00","2018","01","05","04:00","0.1","","-0.9","","93","","","","9","","25","","1.2","","96.35","","","","","","Moderate Freezing Rain,Snow"
"-64.48","48.78","GASPE A","7052601","2018-01-05 05:00","2018","01","05","05:00","0.6","","-0.1","","95","","","","13","","11","","3.2","","96.06","","","","","","Moderate Freezing Drizzle,Fog"
"-64.48","48.78","GASPE A","7052601","2018-01-05 06:00","2018","01","05","06:00","1.3","","0.7","","96","","","","10","","24","","6.4","","95.85","","","","","","Heavy Rain,Fog"
"-64.48","48.78","GASPE A","7052601","2018-01-05 07:00","2018","01","05","07:00","0.6","","0.0","","96","","","","9","","24","","0.8","","95.70","","","","","","Rain,Snow,Fog"
"-64.48","48.78","GASPE A","7052601","2018-01-05 08:00","2018","01","05","08:00","0.2","","-0.3","","96","","","","8","","18","","1.2","","95.64","","","","","","Snow"
"-64.48","48.78","GASPE A","7052601","2018-01-05 09:00","2018","01","05","09:00","-0.2","","-0.7","","96","","","","7","","18","","0.8","","95.56","","","","-5","","Moderate Snow"
"-64.48","48.78","GASPE A","7052601","2018-01-05 10:00","2018","01","05","10:00","-0.9","","-1.5","","96","","","","7","","15","","2.0","","95.51","","","","-6","","Snow"
"-64.48","48.78","GASPE A","7052601","2018-01-05 11:00","2018","01","05","11:00","-0.6","","-1.5","","94","","","","25","","16","","1.2","","95.48","","","","-5","","Snow,Fog"
"-64.48","48.78","GASPE A","7052601","2018-01-05 12:00","2018","01","05","12:00","0.2","","-0.8","","93","","","","26","","14","","4.0","","95.55","","","","","","Snow"
"-64.48","48.78","GASPE A","7052601","2018-01-05 13:00","2018","01","05","13:00","0.5","","-0.5","","93","","","","27","","15","","2.4","","95.70","","","","","","Snow"
"-64.48","48.78","GASPE A","7052601","2018-01-05 14:00","2018","01","05","14:00","-1.1","","-3.7","","83","","","","26","","36","","1.0","","95.99","","","","-9","","Snow,Blowing Snow"
"-64.48","48.78","GASPE A","7052601","2018-01-05 15:00","2018","01","05","15:00","-3.3","","-5.7","","84","","","","25","","39","","0.8","","96.29","","","","-12","","Snow,Blowing Snow"
"-64.48","48.78","GASPE A","7052601","2018-01-05 16:00","2018","01","05","16:00","-4.9","","-8.0","","80","","","","26","","35","","2.4","","96.52","","","","-13","","Snow,Blowing Snow"
"-64.48","48.78","GASPE A","7052601","2018-01-05 17:00","2018","01","05","17:00","-6.6","","-10.4","","75","","","","26","","52","","4.8","","96.68","","","","-17","","Snow,Blowing Snow"
"-64.48","48.78","GASPE A","7052601","2018-01-05 18:00","2018","01","05","18:00","-7.5","","-11.2","","75","","","","25","","31","","4.8","","96.85","","","","-16","","Snow,Blowing Snow"
"-64.48","48.78","GASPE A","7052601","2018-01-05 19:00","2018","01","05","19:00","-8.3","","-12.8","","70","","","","26","","33","","6.4","","96.95","","","","-18","","Moderate Snow,Blowing Snow"
"-64.48","48.78","GASPE A","7052601","2018-01-05 20:00","2018","01","05","20:00","-9.7","","-14.8","","66","","","","25","","29","","9.7","","97.07","","","","-19","","Snow,Blowing Snow"
"-64.48","48.78","GASPE A","7052601","2018-01-05 21:00","2018","01","05","21:00","-11.1","","-16.5","","64","","","","26","","28","","9.7","","97.14","","","","-21","","Snow"
"-64.48","48.78","GASPE A","7052601","2018-01-05 22:00","2018","01","05","22:00","-12.1","","-17.4","","65","","","","27","","18","","16.1","","97.21","","","","-20","","Snow"
"-64.48","48.78","GASPE A","7052601","2018-01-05 23:00","2018","01","05","23:00","-12.7","","-18.0","","65","","","","27","","24","","16.1","","97.21","","","","-22","","Snow"
"-64.48","48.78","GASPE A","7052601","2018-01-06 00:00","2018","01","06","00:00","-13.2","","-18.3","","66","","","","26","","30","","16.1","","97.23","","","","-24","","Snow"
"-64.48","48.78","GASPE A","7052601","2018-01-06 01:00","2018","01","06","01:00","-13.7","","-18.8","","66","","","","26","","28","","11.3","","97.26","","","","-24","","Snow,Blowing Snow"
"-64.48","48.78","GASPE A","7052601","2018-01-06 02:00","2018","01","06","02:00","-14.2","","-18.9","","68","","","","26","","27","","8.1","","97.32","","","","-25","","Snow,Blowing Snow"
"-64.48","48.78","GASPE A","7052601","2018-01-06 03:00","2018","01","06","03:00","-14.5","","-19.6","","66","","","","26","","26","","6.4","","97.38","","","","-25","","Snow,Blowing Snow"
"-64.48","48.78","GASPE A","7052601","2018-01-06 04:00","2018","01","06","04:00","-14.9","","-20.0","","66","","","","26","","31","","6.4","","97.43","","","","-26","","Snow,Blowing Snow"
"-64.48","48.78","GASPE A","7052601","2018-01-06 05:00","2018","01","06","05:00","-15.4","","-20.6","","64","","","","26","","28","","12.9","","97.49","","","","-26","","Snow,Blowing Snow"
"-64.48","48.78","GASPE A","7052601","2018-01-06 06:00","2018","01","06","06:00","-15.7","","-20.7","","66","","","","27","","30","","9.7","","97.55","","","","-27","","Snow,Blowing Snow"
"-64.48","48.78","GASPE A","7052601","2018-01-06 07:00","2018","01","06","07:00","-16.0","","-21.1","","65","","","","26","","31","","16.1","","97.61","","","","-28","","Snow,Blowing Snow"
"-64.48","48.78","GASPE A","7052601","2018-01-06 08:00","2018","01","06","08:00","-16.0","","-21.2","","65","","","","27","","23","","16.1","","97.72","","","","-26","","Snow,Blowing Snow"
"-64.48","48.78","GASPE A","7052601","2018-01-06 09:00","2018","01","06","09:00","-15.5","","-20.5","","66","","","","27","","28","","6.4","","97.79","","","","-26","","Snow"
"-64.48","48.78","GASPE A","7052601","2018-01-06 10:00","2018","01","06","10:00","-14.2","","-19.6","","64","","","","27","","36","","24.1","","97.83","","","","-26","","Snow,Blowing Snow"
"-64.48","48.78","GASPE A","7052601","2018-01-06 11:00","2018","01","06","11:00","-12.7","","-18.7","","61","","","","28","","23","","24.1","","97.88","","","","-22","","Blowing Snow"
"-64.48","48.78","GASPE A","7052601","2018-01-06 12:00","2018","01","06","12:00","-12.3","","-18.2","","62","","","","27","","28","","24.1","","97.98","","","","-22","","Blowing Snow"
"-64.48","48.78","GASPE A","7052601","2018-01-06 13:00","2018","01","06","13:00","-11.4","","-17.3","","62","","","","27","","31","","24.1","","98.11","","","","-21","","Blowing Snow"
"-64.48","48.78","GASPE A","7052601","2018-01-06 14:00","2018","01","06","14:00","-11.6","","-17.4","","62","","","","28","","30","","24.1","","98.30","","","","-22","","Blowing Snow"
"-64.48","48.78","GASPE A","7052601","2018-01-06 15:00","2018","01","06","15:00","-12.0","","-18.5","","59","","","","29","","29","","24.1","","98.50","","","","-22","","Snow,Blowing Snow"
"-64.48","48.78","GASPE A","7052601","2018-01-06 16:00","2018","01","06","16:00","-12.9","","-18.9","","61","","","","28","","26","","16.1","","98.69","","","","-23","","Snow,Blowing Snow"
"-64.48","48.78","GASPE A","7052601","2018-01-06 17:00","2018","01","06","17:00","-13.5","","-19.3","","62","","","","29","","26","","16.1","","98.86","","","","-23","","Snow,Blowing Snow"
"-64.48","48.78","GASPE A","7052601","2018-01-06 18:00","2018","01","06","18:00","-13.9","","-19.4","","64","","","","28","","23","","16.1","","99.00","","","","-23","","Snow,Blowing Snow"
"-64.48","48.78","GASPE A","7052601","2018-01-06 19:00","2018","01","06","19:00","-14.2","","-19.4","","65","","","","28","","25","","9.7","","99.12","","","","-24","","Snow,Blowing Snow"
"-64.48","48.78","GASPE A","7052601","2018-01-06 20:00","2018","01","06","20:00","-13.9","","-19.3","","65","","","","28","","30","","9.7","","99.21","","","","-25","","Snow,Blowing Snow"
"-64.48","48.78","GASPE A","7052601","2018-01-06 21:00","2018","01","06","21:00","-14.2","","-19.3","","66","","","","27","","23","","12.9","","99.34","","","","-24","","Snow,Blowing Snow"
"-64.48","48.78","GASPE A","7052601","2018-01-06 22:00","2018","01","06","22:00","-14.8","","-20.0","","65","","","","28","","23","","16.1","","99.41","","","","-25","","Snow"
"-64.48","48.78","GASPE A","7052601","2018-01-06 23:00","2018","01","06","23:00","-15.4","","-21.0","","63","","","","28","","20","","24.1","","99.50","","","","-25","","NA"
"-64.48","48.78","GASPE A","7052601","2018-01-07 00:00","2018","01","07","00:00","-16.1","","-21.7","","62","","","","28","","31","","24.1","","99.60","","","","-28","","NA"
"-64.48","48.78","GASPE A","7052601","2018-01-07 01:00","2018","01","07","01:00","-17.0","","-22.4","","63","","","","27","","25","","24.1","","99.75","","","","-28","","Clear"
"-64.48","48.78","GASPE A","7052601","2018-01-07 02:00","2018","01","07","02:00","-18.0","","-24.0","","60","","","","28","","32","","24.1","","99.90","","","","-30","","NA"
"-64.48","48.78","GASPE A","7052601","2018-01-07 03:00","2018","01","07","03:00","-18.5","","-24.5","","60","","","","29","","27","","24.1","","99.97","","","","-30","","NA"
"-64.48","48.78","GASPE A","7052601","2018-01-07 04:00","2018","01","07","04:00","-19.2","","-25.3","","59","","","","27","","30","","24.1","","100.01","","","","-32","","Mostly Cloudy"
"-64.48","48.78","GASPE A","7052601","2018-01-07 05:00","2018","01","07","05:00","-19.6","","-25.4","","60","","","","28","","29","","24.1","","100.09","","","","-32","","NA"
"-64.48","48.78","GASPE A","7052601","2018-01-07 06:00","2018","01","07","06:00","-19.4","","-25.3","","60","","","","28","","41","","24.1","","100.14","","","","-33","","Blowing Snow"
"-64.48","48.78","GASPE A","7052601","2018-01-07 07:00","2018","01","07","07:00","-19.1","","-24.7","","62","","","","26","","32","","24.1","","100.24","","","","-32","","Blowing Snow"
"-64.48","48.78","GASPE A","7052601","2018-01-07 08:00","2018","01","07","08:00","-18.7","","-24.7","","60","","","","28","","32","","24.1","","100.32","","","","-31","","Blowing Snow"
"-64.48","48.78","GASPE A","7052601","2018-01-07 09:00","2018","01","07","09:00","-17.8","","-23.9","","59","","","","27","","30","","24.1","","100.39","","","","-30","","Blowing Snow"
"-64.48","48.78","GASPE A","7052601","2018-01-07 10:00","2018","01","07","10:00","-16.9","","-22.8","","61","","","","27","","30","","24.1","","100.46","","","","-29","","Blowing Snow"
"-64.48","48.78","GASPE A","7052601","2018-01-07 11:00","2018","01","07","11:00","-15.7","","-22.1","","58","","","","27","","25","","24.1","","100.50","","","","-26","","Blowing Snow"
"-64.48","48.78","GASPE A","7052601","2018-01-07 12:00","2018","01","07","12:00","-14.2","","-20.9","","57","","","","27","","35","","24.1","","100.44","","","","-26","","Blowing Snow"
"-64.48","48.78","GASPE A","7052601","2018-01-07 13:00","2018","01","07","13:00","-13.8","","-21.1","","55","","","","30","","38","","24.1","","100.51","","","","-26","","Blowing Snow"
"-64.48","48.78","GASPE A","7052601","2018-01-07 14:00","2018","01","07","14:00","-14.1","","-21.1","","56","","","","28","","35","","24.1","","100.63","","","","-26","","Blowing Snow"
"-64.48","48.78","GASPE A","7052601","2018-01-07 15:00","2018","01","07","15:00","-14.0","","-20.8","","57","","","","29","","20","","24.1","","100.74","","","","-23","","NA"
"-64.48","48.78","GASPE A","7052601","2018-01-07 16:00","2018","01","07","16:00","-15.0","","-21.2","","60","","","","30","","18","","24.1","","100.79","","","","-24","","Mainly Clear"
"-64.48","48.78","GASPE A","7052601","2018-01-07 17:00","2018","01","07","17:00","-15.0","","-22.0","","56","","","","29","","15","","24.1","","100.91","","","","-23","","NA"
"-64.48","48.78","GASPE A","7052601","2018-01-07 18:00","2018","01","07","18:00","-15.9","","-22.3","","59","","","","28","","21","","24.1","","100.94","","","","-26","","NA"
"-64.48","48.78","GASPE A","7052601","2018-01-07 19:00","2018","01","07","19:00","-16.3","","-22.5","","59","","","","28","","21","","24.1","","100.94","","","","-26","","Mainly Clear"
"-64.48","48.78","GASPE A","7052601","2018-01-07 20:00","2018","01","07","20:00","-16.8","","-22.2","","63","","","","33","","8","","24.1","","100.95","","","","-22","","NA"
"-64.48","48.78","GASPE A","7052601","2018-01-07 21:00","2018","01","07","21:00","-16.5","","-21.8","","64","","","","30","","8","","24.1","","100.97","","","","-22","","NA"
"-64.48","48.78","GASPE A","7052601","2018-01-07 22:00","2018","01","07","22:00","-15.5","","-21.0","","63","","","","27","","17","","24.1","","100.97","","","","-24","","Cloudy"
"-64.48","48.78","GASPE A","7052601","2018-01-07 23:00","2018","01","07","23:00","-15.2","","-20.8","","63","","","","27","","14","","24.1","","100.99","","","","-23","","NA"
"-64.48","48.78","GASPE A","7052601","2018-01-08 00:00","2018","01","08","00:00","-15.3","","-21.1","","61","","","","27","","21","","24.1","","100.95","","","","-25","","NA"
"-64.48","48.78","GASPE A","7052601","2018-01-08 01:00","2018","01","08","01:00","-15.1","","-20.6","","64","","","","30","","7","","24.1","","100.96","","","","-20","","Cloudy"
"-64.48","48.78","GASPE A","7052601","2018-01-08 02:00","2018","01","08","02:00","-15.1","","-20.9","","62","","","","27","","17","","24.1","","101.00","","","","-24","","NA"
"-64.48","48.78","GASPE A","7052601","2018-01-08 03:00","2018","01","08","03:00","-15.6","","-21.2","","63","","","","28","","16","","24.1","","101.01","","","","-24","","NA"
"-64.48","48.78","GASPE A","7052601","2018-01-08 04:00","2018","01","08","04:00","-16.4","","-21.5","","65","","","","28","","16","","24.1","","101.03","","","","-25","","Mainly Clear"
"-64.48","48.78","GASPE A","7052601","2018-01-08 05:00","2018","01","08","05:00","-18.4","","-22.8","","69","","","","33","","10","","24.1","","101.07","","","","-25","","NA"
"-64.48","48.78","GASPE A","7052601","2018-01-08 06:00","2018","01","08","06:00","-19.8","","-24.2","","68","","","","36","","2","","24.1","","101.12","","","","-22","","NA"
"-64.48","48.78","GASPE A","7052601","2018-01-08 07:00","2018","01","08","07:00","-21.2","","-25.3","","70","","","","13","","4","","24.1","","101.18","","","","-25","","Mainly Clear"
"-64.48","48.78","GASPE A","7052601","2018-01-08 08:00","2018","01","08","08:00","-18.5","","-22.8","","70","","","","30","","12","","24.1","","101.24","","","","-26","","NA"
"-64.48","48.78","GASPE A","7052601","2018-01-08 09:00","2018","01","08","09:00","-16.4","","-21.2","","67","","","","28","","13","","24.1","","101.29","","","","-24","","NA"
"-64.48","48.78","GASPE A","7052601","2018-01-08 10:00","2018","01","08","10:00","-13.6","","-20.0","","59","","","","29","","10","","24.1","","101.28","","","","-20","","Clear"
"-64.48","48.78","GASPE A","7052601","2018-01-08 11:00","2018","01","08","11:00","-12.3","","-19.5","","55","","","","28","","11","","24.1","","101.23","","","","-18","","NA"
"-64.48","48.78","GASPE A","7052601","2018-01-08 12:00","2018","01","08","12:00","-11.5","","-19.0","","54","","","","26","","12","","24.1","","101.20","","","","-18","","NA"
"-64.48","48.78","GASPE A","7052601","2018-01-08 13:00","2018","01","08","13:00","-10.8","","-18.4","","54","","","","27","","7","","24.1","","101.18","","","","-15","","Clear"
"-64.48","48.78","GASPE A","7052601","2018-01-08 14:00","2018","01","08","14:00","-10.3","","-18.4","","52","","","","36","","3","","24.1","","101.22","","","","-12","","NA"
"-64.48","48.78","GASPE A","7052601","2018-01-08 15:00","2018","01","08","15:00","-11.2","","-17.5","","60","","","","8","","3","","24.1","","101.27","","","","-13","","NA"
"-64.48","48.78","GASPE A","7052601","2018-01-08 16:00","2018","01","08","16:00","-13.4","","-17.1","","74","","","","36","","3","","24.1","","101.28","","","","-15","","Mostly Cloudy"
"-64.48","48.78","GASPE A","7052601","2018-01-08 17:00","2018","01","08","17:00","-16.4","","-19.7","","76","","","","24","","5","","24.1","","101.24","","","","-20","","NA"
"-64.48","48.78","GASPE A","7052601","2018-01-08 18:00","2018","01","08","18:00","-15.4","","-18.4","","78","","","","10","","3","","24.1","","101.21","","","","-18","","NA"
"-64.48","48.78","GASPE A","7052601","2018-01-08 19:00","2018","01","08","19:00","-14.6","","-17.7","","78","","","","25","","4","","24.1","","101.15","","","","-17","","Cloudy"
"-64.48","48.78","GASPE A","7052601","2018-01-08 20:00","2018","01","08","20:00","-14.7","","-17.9","","77","","","","30","","5","","24.1","","101.02","","","","-18","","NA"
"-64.48","48.78","GASPE A","7052601","2018-01-08 21:00","2018","01","08","21:00","-14.1","","-17.2","","77","","","","27","","8","","24.1","","100.98","","","","-19","","NA"
"-64.48","48.78","GASPE A","7052601","2018-01-08 22:00","2018","01","08","22:00","-13.7","","-16.6","","79","","","","18","","4","","4.8","","100.94","","","","-16","","Snow"
"-64.48","48.78","GASPE A","7052601","2018-01-08 23:00","2018","01","08","23:00","-13.6","","-16.0","","82","","","","31","","4","","4.8","","100.80","","","","-16","","Snow"
"-64.48","48.78","GASPE A","7052601","2018-01-09 00:00","2018","01","09","00:00","-13.1","","-15.6","","82","","","","30","","5","","1.6","","100.66","","","","-16","","Snow"
"-64.48","48.78","GASPE A","7052601","2018-01-09 01:00","2018","01","09","01:00","-13.4","","-15.8","","82","","","","26","","7","","1.2","","100.59","","","","-18","","Snow"
"-64.48","48.78","GASPE A","7052601","2018-01-09 02:00","2018","01","09","02:00","-13.5","","-15.9","","82","","","","24","","4","","6.4","","100.51","","","","-16","","Snow"
"-64.48","48.78","GASPE A","7052601","2018-01-09 03:00","2018","01","09","03:00","-13.4","","-15.8","","82","","","","29","","5","","12.9","","100.45","","","","-17","","Snow"
"-64.48","48.78","GASPE A","7052601","2018-01-09 04:00","2018","01","09","04:00","-12.9","","-15.5","","82","","","","32","","3","","12.9","","100.33","","","","-15","","Snow"
"-64.48","48.78","GASPE A","7052601","2018-01-09 05:00","2018","01","09","05:00","-14.8","","-17.3","","82","","","","31","","5","","16.1","","100.29","","","","-18","","Snow"
"-64.48","48.78","GASPE A","7052601","2018-01-09 06:00","2018","01","09","06:00","-15.6","","-18.1","","81","","","","24","","8","","16.1","","100.23","","","","-21","","Snow"
"-64.48","48.78","GASPE A","7052601","2018-01-09 07:00","2018","01","09","07:00","-14.7","","-17.4","","80","","","","27","","4","","24.1","","100.17","","","","-18","","Mostly Cloudy"
"-64.48","48.78","GASPE A","7052601","2018-01-09 08:00","2018","01","09","08:00","-15.5","","-18.2","","80","","","","28","","5","","24.1","","100.17","","","","-19","","NA"
"-64.48","48.78","GASPE A","7052601","2018-01-09 09:00","2018","01","09","09:00","-13.0","","-15.6","","81","","","","32","","3","","16.1","","100.12","","","","-15","","NA"
"-64.48","48.78","GASPE A","7052601","2018-01-09 10:00","2018","01","09","10:00","-12.2","","-14.8","","81","","","","24","","5","","24.1","","100.07","","","","-15","","Cloudy"
"-64.48","48.78","GASPE A","7052601","2018-01-09 11:00","2018","01","09","11:00","-9.4","","-13.0","","75","","","","30","","11","","24.1","","99.99","","","","-15","","NA"
"-64.48","48.78","GASPE A","7052601","2018-01-09 12:00","2018","01","09","12:00","-9.0","","-12.5","","76","","","","29","","11","","24.1","","99.93","","","","-14","","Snow"
"-64.48","48.78","GASPE A","7052601","2018-01-09 13:00","2018","01","09","13:00","-8.7","","-12.2","","76","","","","27","","10","","12.9","","99.89","","","","-14","","Snow"
"-64.48","48.78","GASPE A","7052601","2018-01-09 14:00","2018","01","09","14:00","-8.2","","-11.3","","79","","","","27","","8","","6.4","","99.90","","","","-12","","Snow"
"-64.48","48.78","GASPE A","7052601","2018-01-09 15:00","2018","01","09","15:00","-7.8","","-10.2","","83","","","","29","","9","","3.2","","99.96","","","","-12","","Snow"
"-64.48","48.78","GASPE A","7052601","2018-01-09 16:00","2018","01","09","16:00","-8.1","","-10.4","","84","","","","27","","13","","3.6","","100.03","","","","-14","","Snow"
"-64.48","48.78","GASPE A","7052601","2018-01-09 17:00","2018","01","09","17:00","-8.6","","-11.2","","81","","","","26","","9","","6.4","","100.07","","","","-13","","Snow"
"-64.48","48.78","GASPE A","7052601","2018-01-09 18:00","2018","01","09","18:00","-8.5","","-11.8","","77","","","","28","","11","","24.1","","100.12","","","","-14","","NA"
"-64.48","48.78","GASPE A","7052601","2018-01-09 19:00","2018","01","09","19:00","-8.4","","-11.9","","76","","","","28","","13","","24.1","","100.20","","","","-14","","Cloudy"
"-64.48","48.78","GASPE A","7052601","2018-01-09 20:00","2018","01","09","20:00","-8.0","","-11.7","","75","","","","28","","18","","16.1","","100.28","","","","-15","","NA"
"-64.48","48.78","GASPE A","7052601","2018-01-09 21:00","2018","01","09","21:00","-8.1","","-13.5","","65","","","","30","","22","","16.1","","100.33","","","","-16","","Snow"
"-64.48","48.78","GASPE A","7052601","2018-01-09 22:00","2018","01","09","22:00","-8.5","","-13.5","","68","","","","28","","16","","24.1","","100.34","","","","-15","","Snow"
"-64.48","48.78","GASPE A","7052601","2018-01-09 23:00","2018","01","09","23:00","-8.9","","-14.1","","66","","","","30","","35","","24.1","","100.38","","","","-19","","Snow"
"-64.48","48.78","GASPE A","7052601","2018-01-10 00:00","2018","01","10","00:00","-9.0","","-13.6","","70","","","","28","","21","","24.1","","100.51","","","","-17","","NA"
"-64.48","48.78","GASPE A","7052601","2018-01-10 01:00","2018","01","10","01:00","-9.1","","-14.2","","67","","","","28","","27","","24.1","","100.62","","","","-18","","Mainly Clear"
"-64.48","48.78","GASPE A","7052601","2018-01-10 02:00","2018","01","10","02:00","-9.4","","-13.8","","70","","","","28","","31","","24.1","","100.73","","","","-19","","NA"
"-64.48","48.78","GASPE A","7052601","2018-01-10 03:00","2018","01","10","03:00","-9.6","","-15.2","","64","","","","28","","27","","24.1","","100.86","","","","-19","","NA"
"-64.48","48.78","GASPE A","7052601","2018-01-10 04:00","2018","01","10","04:00","-10.3","","-16.0","","64","","","","30","","22","","24.1","","100.96","","","","-19","","Mostly Cloudy"
"-64.48","48.78","GASPE A","7052601","2018-01-10 05:00","2018","01","10","05:00","-10.1","","-15.4","","66","","","","28","","27","","24.1","","101.06","","","","-19","","NA"
"-64.48","48.78","GASPE A","7052601","2018-01-10 06:00","2018","01","10","06:00","-10.0","","-15.9","","63","","","","30","","18","","24.1","","101.17","","","","-17","","NA"
"-64.48","48.78","GASPE A","7052601","2018-01-10 07:00","2018","01","10","07:00","-9.7","","-15.4","","64","","","","29","","23","","24.1","","101.25","","","","-18","","Mainly Clear"
"-64.48","48.78","GASPE A","7052601","2018-01-10 08:00","2018","01","10","08:00","-9.5","","-15.1","","64","","","","30","","34","","24.1","","101.35","","","","-19","","NA"
"-64.48","48.78","GASPE A","7052601","2018-01-10 09:00","2018","01","10","09:00","-9.3","","-15.3","","62","","","","31","","28","","16.1","","101.52","","","","-18","","NA"
"-64.48","48.78","GASPE A","7052601","2018-01-10 10:00","2018","01","10","10:00","-8.9","","-15.0","","62","","","","30","","35","","24.1","","101.59","","","","-19","","Mostly Cloudy"
"-64.48","48.78","GASPE A","7052601","2018-01-10 11:00","2018","01","10","11:00","-8.6","","-15.4","","58","","","","29","","24","","24.1","","101.61","","","","-17","","NA"
"-64.48","48.78","GASPE A","7052601","2018-01-10 12:00","2018","01","10","12:00","-8.7","","-15.8","","57","","","","30","","27","","16.1","","101.71","","","","-17","","Blowing Snow"
"-64.48","48.78","GASPE A","7052601","2018-01-10 13:00","2018","01","10","13:00","-8.4","","-14.8","","60","","","","29","","30","","16.1","","101.82","","","","-17","","Blowing Snow"
"-64.48","48.78","GASPE A","7052601","2018-01-10 14:00","2018","01","10","14:00","-8.0","","-15.2","","57","","","","29","","22","","16.1","","101.93","","","","-16","","Blowing Snow"
"-64.48","48.78","GASPE A","7052601","2018-01-10 15:00","2018","01","10","15:00","-8.6","","-15.6","","57","","","","30","","16","","24.1","","102.00","","","","-15","","NA"
"-64.48","48.78","GASPE A","7052601","2018-01-10 16:00","2018","01","10","16:00","-10.5","","-15.6","","67","","","","30","","9","","24.1","","102.14","","","","-15","","Mainly Clear"
"-64.48","48.78","GASPE A","7052601","2018-01-10 17:00","2018","01","10","17:00","-13.6","","-16.9","","76","","","","30","","7","","24.1","","102.17","","","","-18","","NA"
"-64.48","48.78","GASPE A","7052601","2018-01-10 18:00","2018","01","10","18:00","-15.8","","-18.6","","79","","","","36","","3","","24.1","","102.21","","","","-18","","NA"
"-64.48","48.78","GASPE A","7052601","2018-01-10 19:00","2018","01","10","19:00","-17.3","","-20.0","","79","","","","27","","9","","24.1","","102.29","","","","-24","","Mainly Clear"
"-64.48","48.78","GASPE A","7052601","2018-01-10 20:00","2018","01","10","20:00","-16.1","","-18.9","","79","","","","36","","2","","24.1","","102.21","","","","-18","","NA"
"-64.48","48.78","GASPE A","7052601","2018-01-10 21:00","2018","01","10","21:00","-15.7","","-18.6","","79","","","","26","","14","","24.1","","102.21","","","","-23","","NA"
"-64.48","48.78","GASPE A","7052601","2018-01-10 22:00","2018","01","10","22:00","-15.0","","-17.9","","79","","","","36","","1","","24.1","","102.13","","","","-16","","Mainly Clear"
"-64.48","48.78","GASPE A","7052601","2018-01-10 23:00","2018","01","10","23:00","-13.9","","-16.9","","78","","","","22","","3","","24.1","","102.03","","","","-16","","NA"
"-64.48","48.78","GASPE A","7052601","2018-01-11 00:00","2018","01","11","00:00","-12.7","","-15.8","","77","","","","4","","3","","24.1","","101.93","","","","-15","","NA"
"-64.48","48.78","GASPE A","7052601","2018-01-11 01:00","2018","01","11","01:00","-12.4","","-15.6","","77","","","","35","","3","","24.1","","101.88","","","","-14","","Mostly Cloudy"
"-64.48","48.78","GASPE A","7052601","2018-01-11 02:00","2018","01","11","02:00","-12.0","","-15.2","","77","","","","5","","4","","24.1","","101.75","","","","-15","","NA"
"-64.48","48.78","GASPE A","7052601","2018-01-11 03:00","2018","01","11","03:00","-10.3","","-14.0","","74","","","","26","","3","","24.1","","101.58","","","","-12","","NA"
"-64.48","48.78","GASPE A","7052601","2018-01-11 04:00","2018","01","11","04:00","-8.0","","-11.7","","75","","","","32","","6","","24.1","","101.47","","","","-11","","Cloudy"
"-64.48","48.78","GASPE A","7052601","2018-01-11 05:00","2018","01","11","05:00","-7.2","","-11.7","","70","","","","27","","5","","24.1","","101.36","","","","-10","","NA"
"-64.48","48.78","GASPE A","7052601","2018-01-11 06:00","2018","01","11","06:00","-7.0","","-10.1","","79","","","","34","","6","","24.1","","101.33","","","","-10","","NA"
"-64.48","48.78","GASPE A","7052601","2018-01-11 07:00","2018","01","11","07:00","-4.4","","-8.7","","72","","","","30","","7","","24.1","","101.23","","","","-8","","Cloudy"
"-64.48","48.78","GASPE A","7052601","2018-01-11 08:00","2018","01","11","08:00","-2.9","","-7.4","","71","","","","29","","12","","24.1","","101.22","","","","-7","","NA"
"-64.48","48.78","GASPE A","7052601","2018-01-11 09:00","2018","01","11","09:00","-2.4","","-6.5","","73","","","","30","","8","","24.1","","101.25","","","","-6","","NA"
"-64.48","48.78","GASPE A","7052601","2018-01-11 10:00","2018","01","11","10:00","-1.6","","-5.8","","73","","","","31","","9","","24.1","","101.23","","","","-5","","Mostly Cloudy"
"-64.48","48.78","GASPE A","7052601","2018-01-11 11:00","2018","01","11","11:00","-0.6","","-4.9","","73","","","","27","","15","","24.1","","101.18","","","","-5","","NA"
"-64.48","48.78","GASPE A","7052601","2018-01-11 12:00","2018","01","11","12:00","-0.1","","-4.4","","73","","","","29","","13","","24.1","","101.11","","","","-4","","NA"
"-64.48","48.78","GASPE A","7052601","2018-01-11 13:00","2018","01","11","13:00","0.2","","-3.8","","75","","","","29","","8","","24.1","","101.12","","","","","","Cloudy"
"-64.48","48.78","GASPE A","7052601","2018-01-11 14:00","2018","01","11","14:00","0.6","","-3.3","","75","","","","29","","5","","24.1","","101.07","","","","","","NA"
"-64.48","48.78","GASPE A","7052601","2018-01-11 15:00","2018","01","11","15:00","-0.6","","-3.5","","81","","","","2","","4","","24.1","","101.09","","","","-2","","Freezing Rain"
"-64.48","48.78","GASPE A","7052601","2018-01-11 16:00","2018","01","11","16:00","-0.8","","-2.8","","86","","","","16","","6","","16.1","","101.07","","","","-3","","Freezing Rain"
"-64.48","48.78","GASPE A","7052601","2018-01-11 17:00","2018","01","11","17:00","-1.3","","-3.0","","88","","","","7","","5","","16.1","","101.03","","","","-3","","NA"
"-64.48","48.78","GASPE A","7052601","2018-01-11 18:00","2018","01","11","18:00","-1.0","","-2.5","","90","","","","13","","3","","16.1","","101.03","","","","-2","","NA"
"-64.48","48.78","GASPE A","7052601","2018-01-11 19:00","2018","01","11","19:00","-1.1","","-2.5","","90","","","","36","","1","","24.1","","100.97","","","","-1","","Cloudy"
"-64.48","48.78","GASPE A","7052601","2018-01-11 20:00","2018","01","11","20:00","-1.1","","-2.3","","92","","","","10","","5","","24.1","","100.92","","","","-3","","NA"
"-64.48","48.78","GASPE A","7052601","2018-01-11 21:00","2018","01","11","21:00","-0.8","","-1.8","","92","","","","10","","9","","24.1","","100.90","","","","-4","","NA"
"-64.48","48.78","GASPE A","7052601","2018-01-11 22:00","2018","01","11","22:00","0.3","","-0.7","","93","","","","36","","1","","24.1","","100.89","","","","","","Cloudy"
"-64.48","48.78","GASPE A","7052601","2018-01-11 23:00","2018","01","11","23:00","0.2","","-0.8","","93","","","","12","","4","","24.1","","100.86","","","","","","NA"
"-64.48","48.78","GASPE A","7052601","2018-01-12 00:00","2018","01","12","00:00","0.4","","-1.0","","90","","","","11","","5","","24.1","","100.76","","","","","","NA"
"-64.48","48.78","GASPE A","7052601","2018-01-12 01:00","2018","01","12","01:00","1.7","","0.7","","93","","","","9","","12","","24.1","","100.75","","","","","","Cloudy"
"-64.48","48.78","GASPE A","7052601","2018-01-12 02:00","2018","01","12","02:00","4.3","","3.5","","94","","","","27","","7","","24.1","","100.69","","","","","","NA"
"-64.48","48.78","GASPE A","7052601","2018-01-12 03:00","2018","01","12","03:00","1.8","","1.0","","95","","","","8","","7","","24.1","","100.64","","","","","","NA"
"-64.48","48.78","GASPE A","7052601","2018-01-12 04:00","2018","01","12","04:00","2.5","","2.0","","96","","","","6","","11","","24.1","","100.58","","","","","","Cloudy"
"-64.48","48.78","GASPE A","7052601","2018-01-12 05:00","2018","01","12","05:00","2.3","","1.7","","96","","","","9","","10","","24.1","","100.46","","","","","","NA"
"-64.48","48.78","GASPE A","7052601","2018-01-12 06:00","2018","01","12","06:00","5.7","","3.9","","88","","","","","","0","","24.1","","100.37","","","","","","NA"
"-64.48","48.78","GASPE A","7052601","2018-01-12 07:00","2018","01","12","07:00","9.7","","5.8","","77","","","","24","","23","","24.1","","100.29","","","","","","Cloudy"
"-64.48","48.78","GASPE A","7052601","2018-01-12 08:00","2018","01","12","08:00","8.5","","5.0","","78","","","","34","","10","","24.1","","100.29","","","","","","NA"
"-64.48","48.78","GASPE A","7052601","2018-01-12 09:00","2018","01","12","09:00","8.0","","5.5","","84","","","","34","","9","","24.1","","100.30","","","","","","NA"
"-64.48","48.78","GASPE A","7052601","2018-01-12 10:00","2018","01","12","10:00","7.6","","5.1","","84","","","","9","","9","","24.1","","100.21","","","","","","Cloudy"
"-64.48","48.78","GASPE A","7052601","2018-01-12 11:00","2018","01","12","11:00","11.8","","7.0","","72","","","","23","","31","","24.1","","100.12","","","","","","NA"
"-64.48","48.78","GASPE A","7052601","2018-01-12 12:00","2018","01","12","12:00","11.6","","7.3","","75","","","","23","","30","","24.1","","99.98","","","","","","NA"
"-64.48","48.78","GASPE A","7052601","2018-01-12 13:00","2018","01","12","13:00","11.7","","7.4","","75","","","","23","","36","","24.1","","99.93","","","","","","Cloudy"
"-64.48","48.78","GASPE A","7052601","2018-01-12 14:00","2018","01","12","14:00","12.2","","7.8","","74","","","","23","","30","","24.1","","99.88","","","","","","NA"
"-64.48","48.78","GASPE A","7052601","2018-01-12 15:00","2018","01","12","15:00","11.7","","8.3","","80","","","","21","","43","","24.1","","99.76","","","","","","NA"
"-64.48","48.78","GASPE A","7052601","2018-01-12 16:00","2018","01","12","16:00","11.8","","8.8","","82","","","","22","","34","","4.8","","99.75","","","","","","Rain,Fog"
"-64.48","48.78","GASPE A","7052601","2018-01-12 17:00","2018","01","12","17:00","11.8","","8.4","","80","","","","21","","35","","9.7","","99.58","","","","","","Rain,Fog"
"-64.48","48.78","GASPE A","7052601","2018-01-12 18:00","2018","01","12","18:00","12.1","","8.4","","78","","","","23","","38","","24.1","","99.55","","","","","","NA"
"-64.48","48.78","GASPE A","7052601","2018-01-12 19:00","2018","01","12","19:00","12.4","","8.9","","79","","","","23","","32","","24.1","","99.53","","","","","","Mostly Cloudy"
"-64.48","48.78","GASPE A","7052601","2018-01-12 20:00","2018","01","12","20:00","12.3","","9.2","","81","","","","24","","28","","24.1","","99.53","","","","","","NA"
"-64.48","48.78","GASPE A","7052601","2018-01-12 21:00","2018","01","12","21:00","12.4","","9.1","","80","","","","22","","23","","24.1","","99.46","","","","","","NA"
"-64.48","48.78","GASPE A","7052601","2018-01-12 22:00","2018","01","12","22:00","11.5","","8.5","","82","","","","26","","16","","19.3","","99.52","","","","","","Cloudy"
"-64.48","48.78","GASPE A","7052601","2018-01-12 23:00","2018","01","12","23:00","11.2","","8.6","","84","","","","23","","10","","19.3","","99.63","","","","","","NA"
"-64.48","48.78","GASPE A","7052601","2018-01-13 00:00","2018","01","13","00:00","8.0","","6.0","","87","","","","36","","8","","19.3","","99.70","","","","","","NA"
"-64.48","48.78","GASPE A","7052601","2018-01-13 01:00","2018","01","13","01:00","4.0","","2.9","","93","","","","34","","18","","12.9","","99.80","","","","","","Moderate Rain"
"-64.48","48.78","GASPE A","7052601","2018-01-13 02:00","2018","01","13","02:00","2.5","","0.9","","90","","","","33","","21","","12.9","","99.94","","","","","","Moderate Rain"
"-64.48","48.78","GASPE A","7052601","2018-01-13 03:00","2018","01","13","03:00","1.3","","-0.2","","90","","","","32","","24","","12.9","","100.00","","","","","","Moderate Rain"
"-64.48","48.78","GASPE A","7052601","2018-01-13 04:00","2018","01","13","04:00","0.0","","-2.2","","85","","","","33","","30","","12.9","","100.05","","","","-6","","Rain"
"-64.48","48.78","GASPE A","7052601","2018-01-13 05:00","2018","01","13","05:00","-1.6","","-4.0","","84","","","","31","","18","","12.9","","100.15","","","","-7","","Freezing Rain"
"-64.48","48.78","GASPE A","7052601","2018-01-13 06:00","2018","01","13","06:00","-3.3","","-5.8","","83","","","","30","","18","","12.9","","100.27","","","","-9","","Snow"
"-64.48","48.78","GASPE A","7052601","2018-01-13 07:00","2018","01","13","07:00","-4.2","","-6.8","","82","","","","30","","23","","12.9","","100.37","","","","-11","","Snow"
"-64.48","48.78","GASPE A","7052601","2018-01-13 08:00","2018","01","13","08:00","-4.7","","-7.4","","81","","","","32","","10","","8.1","","100.40","","","","-9","","Snow"
"-64.48","48.78","GASPE A","7052601","2018-01-13 09:00","2018","01","13","09:00","-5.0","","-7.9","","81","","","","30","","20","","4.8","","100.32","","","","-12","","Moderate Ice Pellets"
"-64.48","48.78","GASPE A","7052601","2018-01-13 10:00","2018","01","13","10:00","-5.4","","-7.9","","83","","","","30","","15","","1.2","","100.43","","","","-11","","Moderate Ice Pellets"
"-64.48","48.78","GASPE A","7052601","2018-01-13 11:00","2018","01","13","11:00","-6.3","","-9.0","","81","","","","33","","19","","2.4","","100.23","","","","-13","","Moderate Ice Pellets"
"-64.48","48.78","GASPE A","7052601","2018-01-13 12:00","2018","01","13","12:00","-7.2","","-10.3","","79","","","","34","","17","","2.4","","100.20","","","","-14","","Ice Pellets"
"-64.48","48.78","GASPE A","7052601","2018-01-13 13:00","2018","01","13","13:00","-7.9","","-11.0","","79","","","","35","","12","","1.2","","100.15","","","","-13","","Ice Pellets"
"-64.48","48.78","GASPE A","7052601","2018-01-13 14:00","2018","01","13","14:00","-8.1","","-11.5","","77","","","","34","","25","","2.0","","100.37","","","","-16","","Snow"
"-64.48","48.78","GASPE A","7052601","2018-01-13 15:00","2018","01","13","15:00","-8.4","","-10.8","","82","","","","33","","8","","1.0","","100.43","","","","-13","","Snow"
"-64.48","48.78","GASPE A","7052601","2018-01-13 16:00","2018","01","13","16:00","-9.0","","-12.0","","79","","","","33","","21","","1.6","","100.45","","","","-17","","Snow"
"-64.48","48.78","GASPE A","7052601","2018-01-13 17:00","2018","01","13","17:00","-9.2","","-12.5","","77","","","","33","","16","","1.6","","100.65","","","","-16","","Snow"
"-64.48","48.78","GASPE A","7052601","2018-01-13 18:00","2018","01","13","18:00","-9.1","","-12.9","","74","","","","31","","17","","6.4","","100.85","","","","-16","","Snow"
"-64.48","48.78","GASPE A","7052601","2018-01-13 19:00","2018","01","13","19:00","-9.2","","-12.8","","75","","","","30","","9","","4.8","","100.98","","","","-14","","Snow"
"-64.48","48.78","GASPE A","7052601","2018-01-13 20:00","2018","01","13","20:00","-9.5","","-13.8","","71","","","","30","","18","","12.9","","101.11","","","","-17","","Snow"
"-64.48","48.78","GASPE A","7052601","2018-01-13 21:00","2018","01","13","21:00","-9.4","","-13.2","","74","","","","31","","12","","6.4","","101.24","","","","-15","","Snow"
"-64.48","48.78","GASPE A","7052601","2018-01-13 22:00","2018","01","13","22:00","-9.5","","-13.4","","73","","","","31","","15","","6.4","","101.42","","","","-16","","Snow"
"-64.48","48.78","GASPE A","7052601","2018-01-13 23:00","2018","01","13","23:00","-9.7","","-13.6","","73","","","","30","","16","","6.4","","101.51","","","","-17","","Snow"
"-64.48","48.78","GASPE A","7052601","2018-01-14 00:00","2018","01","14","00:00","-9.7","","-13.5","","74","","","","30","","14","","6.4","","101.57","","","","-16","","Snow"
"-64.48","48.78","GASPE A","7052601","2018-01-14 01:00","2018","01","14","01:00","-9.8","","-13.5","","75","","","","32","","9","","12.9","","101.68","","","","-15","","Snow"
"-64.48","48.78","GASPE A","7052601","2018-01-14 02:00","2018","01","14","02:00","-9.9","","-13.7","","74","","","","33","","11","","12.9","","101.83","","","","-15","","Snow"
"-64.48","48.78","GASPE A","7052601","2018-01-14 03:00","2018","01","14","03:00","-10.0","","-13.8","","74","","","","30","","14","","12.9","","101.92","","","","-16","","Snow"
"-64.48","48.78","GASPE A","7052601","2018-01-14 04:00","2018","01","14","04:00","-10.2","","-14.7","","70","","","","31","","14","","12.9","","101.99","","","","-17","","Snow"
"-64.48","48.78","GASPE A","7052601","2018-01-14 05:00","2018","01","14","05:00","-10.4","","-14.5","","72","","","","27","","12","","12.9","","102.12","","","","-16","","Snow"
"-64.48","48.78","GASPE A","7052601","2018-01-14 06:00","2018","01","14","06:00","-10.8","","-15.6","","68","","","","31","","16","","12.9","","102.20","","","","-18","","NA"
"-64.48","48.78","GASPE A","7052601","2018-01-14 07:00","2018","01","14","07:00","-11.3","","-15.9","","69","","","","30","","9","","24.1","","102.31","","","","-16","","Cloudy"
"-64.48","48.78","GASPE A","7052601","2018-01-14 08:00","2018","01","14","08:00","-11.3","","-16.6","","65","","","","31","","15","","24.1","","102.45","","","","-18","","NA"
"-64.48","48.78","GASPE A","7052601","2018-01-14 09:00","2018","01","14","09:00","-11.6","","-16.7","","66","","","","33","","13","","24.1","","102.56","","","","-18","","NA"
"-64.48","48.78","GASPE A","7052601","2018-01-14 10:00","2018","01","14","10:00","-11.2","","-16.6","","64","","","","30","","11","","24.1","","102.66","","","","-17","","Cloudy"
"-64.48","48.78","GASPE A","7052601","2018-01-14 11:00","2018","01","14","11:00","-10.9","","-17.1","","61","","","","29","","9","","24.1","","102.67","","","","-16","","NA"
"-64.48","48.78","GASPE A","7052601","2018-01-14 12:00","2018","01","14","12:00","-10.4","","-16.9","","59","","","","25","","16","","24.1","","102.68","","","","-17","","NA"
"-64.48","48.78","GASPE A","7052601","2018-01-14 13:00","2018","01","14","13:00","-10.6","","-17.5","","57","","","","31","","9","","24.1","","102.68","","","","-16","","Mainly Clear"
"-64.48","48.78","GASPE A","7052601","2018-01-14 14:00","2018","01","14","14:00","-11.0","","-17.9","","57","","","","33","","11","","24.1","","102.78","","","","-17","","NA"
"-64.48","48.78","GASPE A","7052601","2018-01-14 15:00","2018","01","14","15:00","-11.7","","-17.4","","63","","","","32","","14","","24.1","","102.92","","","","-19","","NA"
"-64.48","48.78","GASPE A","7052601","2018-01-14 16:00","2018","01","14","16:00","-13.9","","-18.5","","69","","","","30","","4","","24.1","","103.11","","","","-17","","Mostly Cloudy"
"-64.48","48.78","GASPE A","7052601","2018-01-14 17:00","2018","01","14","17:00","-14.8","","-19.8","","66","","","","36","","9","","24.1","","103.21","","","","-21","","NA"
"-64.48","48.78","GASPE A","7052601","2018-01-14 18:00","2018","01","14","18:00","-15.9","","-20.7","","67","","","","31","","9","","24.1","","103.31","","","","-22","","NA"
"-64.48","48.78","GASPE A","7052601","2018-01-14 19:00","2018","01","14","19:00","-17.0","","-21.3","","69","","","","29","","10","","24.1","","103.41","","","","-24","","Clear"
"-64.48","48.78","GASPE A","7052601","2018-01-14 20:00","2018","01","14","20:00","-17.7","","-21.8","","71","","","","27","","8","","24.1","","103.55","","","","-24","","NA"
"-64.48","48.78","GASPE A","7052601","2018-01-14 21:00","2018","01","14","21:00","-17.6","","-22.1","","68","","","","27","","11","","24.1","","103.59","","","","-25","","NA"
"-64.48","48.78","GASPE A","7052601","2018-01-14 22:00","2018","01","14","22:00","-16.9","","-21.3","","69","","","","29","","10","","24.1","","103.71","","","","-24","","Mainly Clear"
"-64.48","48.78","GASPE A","7052601","2018-01-14 23:00","2018","01","14","23:00","-16.7","","-21.4","","68","","","","30","","10","","24.1","","103.81","","","","-23","","NA"
"-64.48","48.78","GASPE A","7052601","2018-01-15 00:00","2018","01","15","00:00","-16.3","","-21.2","","67","","","","28","","17","","24.1","","103.81","","","","-25","","NA"
"-64.48","48.78","GASPE A","7052601","2018-01-15 01:00","2018","01","15","01:00","-16.7","","-21.4","","68","","","","31","","10","","24.1","","103.88","","","","-23","","Mainly Clear"
"-64.48","48.78","GASPE A","7052601","2018-01-15 02:00","2018","01","15","02:00","-16.9","","-21.6","","67","","","","29","","12","","24.1","","104.00","","","","-24","","NA"
"-64.48","48.78","GASPE A","7052601","2018-01-15 03:00","2018","01","15","03:00","-18.0","","-22.3","","70","","","","30","","13","","24.1","","104.04","","","","-26","","NA"
"-64.48","48.78","GASPE A","7052601","2018-01-15 04:00","2018","01","15","04:00","-18.9","","-23.2","","70","","","","28","","10","","24.1","","104.05","","","","-26","","Clear"
"-64.48","48.78","GASPE A","7052601","2018-01-15 05:00","2018","01","15","05:00","-20.2","","-24.5","","69","","","","20","","5","","24.1","","104.22","","","","-25","","NA"
"-64.48","48.78","GASPE A","7052601","2018-01-15 06:00","2018","01","15","06:00","-21.3","","-24.6","","75","","","","26","","9","","24.1","","104.24","","","","-28","","NA"
"-64.48","48.78","GASPE A","7052601","2018-01-15 07:00","2018","01","15","07:00","-21.3","","-24.7","","74","","","","26","","5","","24.1","","104.34","","","","-26","","Mainly Clear"
"-64.48","48.78","GASPE A","7052601","2018-01-15 08:00","2018","01","15","08:00","-20.9","","-24.9","","71","","","","28","","7","","24.1","","104.44","","","","-27","","NA"
"-64.48","48.78","GASPE A","7052601","2018-01-15 09:00","2018","01","15","09:00","-19.4","","-23.8","","69","","","","23","","9","","24.1","","104.48","","","","-26","","NA"
"-64.48","48.78","GASPE A","7052601","2018-01-15 10:00","2018","01","15","10:00","-16.2","","-20.9","","68","","","","27","","14","","24.1","","104.42","","","","-24","","Mostly Cloudy"
"-64.48","48.78","GASPE A","7052601","2018-01-15 11:00","2018","01","15","11:00","-13.8","","-19.5","","62","","","","25","","11","","24.1","","104.34","","","","-20","","NA"
"-64.48","48.78","GASPE A","7052601","2018-01-15 12:00","2018","01","15","12:00","-12.6","","-18.4","","62","","","","27","","4","","24.1","","104.27","","","","-15","","NA"
"-64.48","48.78","GASPE A","7052601","2018-01-15 13:00","2018","01","15","13:00","-11.9","","-17.7","","63","","","","1","","5","","16.1","","104.19","","","","-15","","Snow"
"-64.48","48.78","GASPE A","7052601","2018-01-15 14:00","2018","01","15","14:00","-11.9","","-18.3","","59","","","","4","","5","","24.1","","104.20","","","","-15","","NA"
"-64.48","48.78","GASPE A","7052601","2018-01-15 15:00","2018","01","15","15:00","-11.9","","-17.9","","62","","","","5","","4","","24.1","","104.22","","","","-14","","NA"
"-64.48","48.78","GASPE A","7052601","2018-01-15 16:00","2018","01","15","16:00","-12.7","","-17.6","","67","","","","35","","7","","24.1","","104.07","","","","-17","","Cloudy"
"-64.48","48.78","GASPE A","7052601","2018-01-15 17:00","2018","01","15","17:00","-15.3","","-18.9","","74","","","","29","","5","","24.1","","104.03","","","","-19","","NA"
"-64.48","48.78","GASPE A","7052601","2018-01-15 18:00","2018","01","15","18:00","-15.3","","-18.4","","77","","","","32","","7","","24.1","","104.09","","","","-20","","NA"
"-64.48","48.78","GASPE A","7052601","2018-01-15 19:00","2018","01","15","19:00","-16.0","","-19.0","","78","","","","27","","8","","24.1","","104.08","","","","-22","","Mostly Cloudy"
"-64.48","48.78","GASPE A","7052601","2018-01-15 20:00","2018","01","15","20:00","-16.4","","-19.4","","78","","","","27","","4","","24.1","","104.00","","","","-19","","NA"
"-64.48","48.78","GASPE A","7052601","2018-01-15 21:00","2018","01","15","21:00","-15.9","","-19.0","","77","","","","21","","3","","24.1","","103.90","","","","-18","","NA"
"-64.48","48.78","GASPE A","7052601","2018-01-15 22:00","2018","01","15","22:00","-16.9","","-19.7","","79","","","","28","","8","","24.1","","103.72","","","","-23","","Mostly Cloudy"
"-64.48","48.78","GASPE A","7052601","2018-01-15 23:00","2018","01","15","23:00","-16.3","","-19.2","","78","","","","27","","6","","24.1","","103.64","","","","-21","","NA"
"-64.48","48.78","GASPE A","7052601","2018-01-16 00:00","2018","01","16","00:00","-16.9","","-19.8","","79","","","","26","","7","","24.1","","103.46","","","","-22","","NA"
"-64.48","48.78","GASPE A","7052601","2018-01-16 01:00","2018","01","16","01:00","-16.9","","-19.8","","78","","","","28","","7","","24.1","","103.42","","","","-22","","Mostly Cloudy"
"-64.48","48.78","GASPE A","7052601","2018-01-16 02:00","2018","01","16","02:00","-18.4","","-21.4","","77","","","","26","","10","","24.1","","103.34","","","","-25","","NA"
"-64.48","48.78","GASPE A","7052601","2018-01-16 03:00","2018","01","16","03:00","-18.6","","-21.6","","78","","","","28","","8","","24.1","","103.24","","","","-25","","NA"
"-64.48","48.78","GASPE A","7052601","2018-01-16 04:00","2018","01","16","04:00","-18.1","","-21.1","","77","","","","28","","6","","24.1","","103.10","","","","-23","","Cloudy"
"-64.48","48.78","GASPE A","7052601","2018-01-16 05:00","2018","01","16","05:00","-16.1","","-19.7","","74","","","","27","","10","","24.1","","103.06","","","","-23","","Snow"
"-64.48","48.78","GASPE A","7052601","2018-01-16 06:00","2018","01","16","06:00","-15.9","","-19.2","","76","","","","27","","10","","24.1","","103.05","","","","-22","","Snow"
"-64.48","48.78","GASPE A","7052601","2018-01-16 07:00","2018","01","16","07:00","-15.7","","-18.9","","77","","","","27","","9","","24.1","","102.99","","","","-22","","Cloudy"
"-64.48","48.78","GASPE A","7052601","2018-01-16 08:00","2018","01","16","08:00","-15.3","","-18.6","","76","","","","26","","12","","24.1","","102.92","","","","-22","","NA"
"-64.48","48.78","GASPE A","7052601","2018-01-16 09:00","2018","01","16","09:00","-13.5","","-17.2","","74","","","","28","","13","","24.1","","102.91","","","","-20","","NA"
"-64.48","48.78","GASPE A","7052601","2018-01-16 10:00","2018","01","16","10:00","-12.3","","-16.3","","72","","","","26","","14","","16.1","","102.87","","","","-19","","Snow"
"-64.48","48.78","GASPE A","7052601","2018-01-16 11:00","2018","01","16","11:00","-11.3","","-15.6","","71","","","","27","","15","","24.1","","102.75","","","","-18","","NA"
"-64.48","48.78","GASPE A","7052601","2018-01-16 12:00","2018","01","16","12:00","-10.9","","-15.6","","69","","","","28","","8","","16.1","","102.57","","","","-16","","NA"
"-64.48","48.78","GASPE A","7052601","2018-01-16 13:00","2018","01","16","13:00","-10.5","","-15.4","","68","","","","28","","7","","16.1","","102.53","","","","-15","","Cloudy"
"-64.48","48.78","GASPE A","7052601","2018-01-16 14:00","2018","01","16","14:00","-10.1","","-15.0","","68","","","","27","","10","","16.1","","102.53","","","","-15","","Snow"
"-64.48","48.78","GASPE A","7052601","2018-01-16 15:00","2018","01","16","15:00","-10.4","","-15.9","","65","","","","29","","7","","24.1","","102.53","","","","-14","","NA"
"-64.48","48.78","GASPE A","7052601","2018-01-16 16:00","2018","01","16","16:00","-11.9","","-15.4","","75","","","","34","","6","","24.1","","102.54","","","","-16","","Mostly Cloudy"
"-64.48","48.78","GASPE A","7052601","2018-01-16 17:00","2018","01","16","17:00","-13.9","","-16.9","","79","","","","36","","2","","24.1","","102.55","","","","-15","","NA"
"-64.48","48.78","GASPE A","7052601","2018-01-16 18:00","2018","01","16","18:00","-15.7","","-18.4","","80","","","","26","","5","","24.1","","102.56","","","","-19","","NA"
"-64.48","48.78","GASPE A","7052601","2018-01-16 19:00","2018","01","16","19:00","-17.4","","-20.2","","79","","","","25","","8","","24.1","","102.59","","","","-23","","Mainly Clear"
"-64.48","48.78","GASPE A","7052601","2018-01-16 20:00","2018","01","16","20:00","-18.1","","-21.0","","78","","","","28","","5","","24.1","","102.58","","","","-22","","NA"
"-64.48","48.78","GASPE A","7052601","2018-01-16 21:00","2018","01","16","21:00","-17.7","","-20.8","","77","","","","23","","8","","24.1","","102.56","","","","-24","","NA"
"-64.48","48.78","GASPE A","7052601","2018-01-16 22:00","2018","01","16","22:00","-18.1","","-21.1","","77","","","","26","","6","","24.1","","102.55","","","","-23","","Mainly Clear"
"-64.48","48.78","GASPE A","7052601","2018-01-16 23:00","2018","01","16","23:00","-18.6","","-21.7","","77","","","","29","","7","","24.1","","102.52","","","","-24","","NA"
"-64.48","48.78","GASPE A","7052601","2018-01-17 00:00","2018","01","17","00:00","-18.9","","-22.1","","76","","","","28","","6","","24.1","","102.48","","","","-24","","NA"
"-64.48","48.78","GASPE A","7052601","2018-01-17 01:00","2018","01","17","01:00","-20.7","","-23.9","","76","","","","24","","9","","24.1","","102.47","","","","-28","","Mainly Clear"
"-64.48","48.78","GASPE A","7052601","2018-01-17 02:00","2018","01","17","02:00","-20.2","","-23.4","","76","","","","26","","10","","24.1","","102.47","","","","-27","","NA"
"-64.48","48.78","GASPE A","7052601","2018-01-17 03:00","2018","01","17","03:00","-19.3","","-23.1","","72","","","","27","","4","","24.1","","102.46","","","","-23","","NA"
"-64.48","48.78","GASPE A","7052601","2018-01-17 04:00","2018","01","17","04:00","-20.5","","-23.8","","75","","","","27","","4","","24.1","","102.48","","","","-24","","Mainly Clear"
"-64.48","48.78","GASPE A","7052601","2018-01-17 05:00","2018","01","17","05:00","-21.0","","-24.4","","75","","","","26","","5","","24.1","","102.49","","","","-25","","NA"
"-64.48","48.78","GASPE A","7052601","2018-01-17 06:00","2018","01","17","06:00","-21.4","","-24.6","","76","","","","30","","3","","24.1","","102.49","","","","-24","","NA"
"-64.48","48.78","GASPE A","7052601","2018-01-17 07:00","2018","01","17","07:00","-21.8","","-25.2","","75","","","","36","","2","","24.1","","102.48","","","","-24","","Mainly Clear"
"-64.48","48.78","GASPE A","7052601","2018-01-17 08:00","2018","01","17","08:00","-21.1","","-24.5","","75","","","","29","","4","","24.1","","102.49","","","","-25","","NA"
"-64.48","48.78","GASPE A","7052601","2018-01-17 09:00","2018","01","17","09:00","-19.9","","-23.7","","72","","","","26","","8","","24.1","","102.50","","","","-26","","NA"
"-64.48","48.78","GASPE A","7052601","2018-01-17 10:00","2018","01","17","10:00","-13.1","","-18.5","","65","","","","31","","18","","24.1","","102.47","","","","-21","","Mainly Clear"
"-64.48","48.78","GASPE A","7052601","2018-01-17 11:00","2018","01","17","11:00","-11.4","","-17.1","","63","","","","24","","7","","24.1","","102.36","","","","-16","","NA"
"-64.48","48.78","GASPE A","7052601","2018-01-17 12:00","2018","01","17","12:00","-10.6","","-16.7","","61","","","","10","","8","","24.1","","102.20","","","","-15","","NA"
"-64.48","48.78","GASPE A","7052601","2018-01-17 13:00","2018","01","17","13:00","-9.2","","-15.7","","60","","","","10","","5","","24.1","","102.09","","","","-12","","Mainly Clear"
"-64.48","48.78","GASPE A","7052601","2018-01-17 14:00","2018","01","17","14:00","-10.0","","-15.5","","64","","","","10","","13","","24.1","","101.99","","","","-16","","NA"
"-64.48","48.78","GASPE A","7052601","2018-01-17 15:00","2018","01","17","15:00","-10.3","","-14.8","","70","","","","9","","12","","24.1","","101.94","","","","-16","","NA"
"-64.48","48.78","GASPE A","7052601","2018-01-17 16:00","2018","01","17","16:00","-11.1","","-14.4","","77","","","","7","","6","","24.1","","101.85","","","","-15","","Mostly Cloudy"
"-64.48","48.78","GASPE A","7052601","2018-01-17 17:00","2018","01","17","17:00","-11.4","","-14.4","","79","","","","9","","8","","24.1","","101.78","","","","-16","","Snow"
"-64.48","48.78","GASPE A","7052601","2018-01-17 18:00","2018","01","17","18:00","-12.3","","-14.9","","81","","","","0","","1","","24.1","","101.74","","","","-13","","Snow"
"-64.48","48.78","GASPE A","7052601","2018-01-17 19:00","2018","01","17","19:00","-10.5","","-13.1","","82","","","","13","","3","","24.1","","101.67","","","","-12","","Snow"
"-64.48","48.78","GASPE A","7052601","2018-01-17 20:00","2018","01","17","20:00","-12.0","","-14.5","","82","","","","36","","5","","24.1","","101.55","","","","-15","","Snow"
"-64.48","48.78","GASPE A","7052601","2018-01-17 21:00","2018","01","17","21:00","-13.7","","-16.1","","83","","","","34","","8","","24.1","","101.40","","","","-19","","NA"
"-64.48","48.78","GASPE A","7052601","2018-01-17 22:00","2018","01","17","22:00","-15.5","","-17.9","","82","","","","0","","1","","24.1","","101.30","","","","-16","","Clear"
"-64.48","48.78","GASPE A","7052601","2018-01-17 23:00","2018","01","17","23:00","-16.0","","-18.6","","81","","","","23","","5","","24.1","","101.22","","","","-20","","NA"
"-64.48","48.78","GASPE A","7052601","2018-01-18 00:00","2018","01","18","00:00","-18.1","","-20.9","","79","","","","29","","4","","24.1","","101.12","","","","-21","","NA"
"-64.48","48.78","GASPE A","7052601","2018-01-18 01:00","2018","01","18","01:00","-17.6","","-20.4","","79","","","","26","","4","","24.1","","101.00","","","","-21","","Mostly Cloudy"
"-64.48","48.78","GASPE A","7052601","2018-01-18 02:00","2018","01","18","02:00","-15.5","","-18.1","","80","","","","36","","2","","24.1","","100.83","","","","-17","","NA"
"-64.48","48.78","GASPE A","7052601","2018-01-18 03:00","2018","01","18","03:00","-15.9","","-18.5","","80","","","","30","","5","","24.1","","100.76","","","","-20","","NA"
"-64.48","48.78","GASPE A","7052601","2018-01-18 04:00","2018","01","18","04:00","-15.4","","-18.1","","80","","","","25","","5","","24.1","","100.66","","","","-19","","Mostly Cloudy"
"-64.48","48.78","GASPE A","7052601","2018-01-18 05:00","2018","01","18","05:00","-14.4","","-16.9","","81","","","","36","","1","","24.1","","100.55","","","","-15","","NA"
"-64.48","48.78","GASPE A","7052601","2018-01-18 06:00","2018","01","18","06:00","-13.9","","-16.4","","81","","","","","","0","","16.1","","100.44","","","","","","Snow"
"-64.48","48.78","GASPE A","7052601","2018-01-18 07:00","2018","01","18","07:00","-13.5","","-15.9","","82","","","","15","","4","","24.1","","100.33","","","","-16","","Cloudy"
"-64.48","48.78","GASPE A","7052601","2018-01-18 08:00","2018","01","18","08:00","-12.7","","-15.0","","83","","","","26","","9","","24.1","","100.31","","","","-18","","NA"
"-64.48","48.78","GASPE A","7052601","2018-01-18 09:00","2018","01","18","09:00","-11.6","","-13.9","","83","","","","18","","3","","24.1","","100.28","","","","-13","","NA"
"-64.48","48.78","GASPE A","7052601","2018-01-18 10:00","2018","01","18","10:00","-6.1","","-10.3","","72","","","","27","","7","","16.1","","100.22","","","","-9","","Snow"
"-64.48","48.78","GASPE A","7052601","2018-01-18 11:00","2018","01","18","11:00","-5.0","","-11.2","","62","","","","26","","21","","24.1","","100.11","","","","-12","","NA"
"-64.48","48.78","GASPE A","7052601","2018-01-18 12:00","2018","01","18","12:00","-4.8","","-11.1","","62","","","","26","","13","","24.1","","100.03","","","","-10","","NA"
"-64.48","48.78","GASPE A","7052601","2018-01-18 13:00","2018","01","18","13:00","-4.1","","-11.1","","58","","","","24","","21","","24.1","","100.00","","","","-11","","Mainly Clear"
"-64.48","48.78","GASPE A","7052601","2018-01-18 14:00","2018","01","18","14:00","-3.9","","-11.3","","57","","","","25","","11","","24.1","","99.98","","","","-8","","NA"
"-64.48","48.78","GASPE A","7052601","2018-01-18 15:00","2018","01","18","15:00","-4.7","","-11.4","","59","","","","26","","14","","24.1","","100.01","","","","-10","","NA"
"-64.48","48.78","GASPE A","7052601","2018-01-18 16:00","2018","01","18","16:00","-6.0","","-11.7","","65","","","","32","","3","","24.1","","100.04","","","","-7","","Mainly Clear"
"-64.48","48.78","GASPE A","7052601","2018-01-18 17:00","2018","01","18","17:00","-8.2","","-11.9","","74","","","","25","","4","","24.1","","100.09","","","","-10","","NA"
"-64.48","48.78","GASPE A","7052601","2018-01-18 18:00","2018","01","18","18:00","-6.6","","-11.2","","70","","","","29","","7","","24.1","","100.13","","","","-10","","NA"
"-64.48","48.78","GASPE A","7052601","2018-01-18 19:00","2018","01","18","19:00","-6.2","","-10.9","","70","","","","34","","8","","12.9","","100.22","","","","-10","","Snow"
"-64.48","48.78","GASPE A","7052601","2018-01-18 20:00","2018","01","18","20:00","-6.9","","-12.7","","64","","","","32","","13","","24.1","","100.26","","","","-12","","NA"
"-64.48","48.78","GASPE A","7052601","2018-01-18 21:00","2018","01","18","21:00","-7.5","","-13.9","","60","","","","31","","25","","24.1","","100.33","","","","-16","","NA"
"-64.48","48.78","GASPE A","7052601","2018-01-18 22:00","2018","01","18","22:00","-8.8","","-15.3","","60","","","","29","","12","","24.1","","100.40","","","","-14","","Mostly Cloudy"
"-64.48","48.78","GASPE A","7052601","2018-01-18 23:00","2018","01","18","23:00","-9.4","","-15.0","","64","","","","28","","9","","24.1","","100.41","","","","-14","","NA"
"-64.48","48.78","GASPE A","7052601","2018-01-19 00:00","2018","01","19","00:00","-9.5","","-15.1","","64","","","","29","","7","","24.1","","100.48","","","","-13","","NA"
"-64.48","48.78","GASPE A","7052601","2018-01-19 01:00","2018","01","19","01:00","-9.7","","-15.2","","64","","","","30","","7","","24.1","","100.49","","","","-14","","Cloudy"
"-64.48","48.78","GASPE A","7052601","2018-01-19 02:00","2018","01","19","02:00","-10.0","","-15.8","","63","","","","31","","9","","24.1","","100.52","","","","-15","","NA"
"-64.48","48.78","GASPE A","7052601","2018-01-19 03:00","2018","01","19","03:00","-10.2","","-16.2","","62","","","","29","","7","","24.1","","100.54","","","","-14","","NA"
"-64.48","48.78","GASPE A","7052601","2018-01-19 04:00","2018","01","19","04:00","-10.4","","-16.0","","64","","","","29","","7","","24.1","","100.57","","","","-14","","Cloudy"
"-64.48","48.78","GASPE A","7052601","2018-01-19 05:00","2018","01","19","05:00","-10.8","","-16.2","","64","","","","29","","10","","24.1","","100.60","","","","-16","","NA"
"-64.48","48.78","GASPE A","7052601","2018-01-19 06:00","2018","01","19","06:00","-11.8","","-16.5","","68","","","","28","","12","","24.1","","100.60","","","","-18","","NA"
"-64.48","48.78","GASPE A","7052601","2018-01-19 07:00","2018","01","19","07:00","-13.0","","-17.3","","70","","","","28","","9","","24.1","","100.58","","","","-18","","Mostly Cloudy"
"-64.48","48.78","GASPE A","7052601","2018-01-19 08:00","2018","01","19","08:00","-13.3","","-17.4","","72","","","","29","","8","","24.1","","100.61","","","","-18","","NA"
"-64.48","48.78","GASPE A","7052601","2018-01-19 09:00","2018","01","19","09:00","-13.7","","-17.8","","72","","","","26","","10","","24.1","","100.67","","","","-20","","NA"
"-64.48","48.78","GASPE A","7052601","2018-01-19 10:00","2018","01","19","10:00","-10.9","","-16.8","","62","","","","26","","15","","24.1","","100.66","","","","-18","","Mostly Cloudy"
"-64.48","48.78","GASPE A","7052601","2018-01-19 11:00","2018","01","19","11:00","-9.9","","-16.5","","59","","","","24","","11","","24.1","","100.58","","","","-15","","NA"
"-64.48","48.78","GASPE A","7052601","2018-01-19 12:00","2018","01","19","12:00","-9.1","","-16.4","","56","","","","24","","10","","24.1","","100.59","","","","-14","","NA"
"-64.48","48.78","GASPE A","7052601","2018-01-19 13:00","2018","01","19","13:00","-8.2","","-16.4","","52","","","","22","","10","","24.1","","100.56","","","","-13","","Mostly Cloudy"
"-64.48","48.78","GASPE A","7052601","2018-01-19 14:00","2018","01","19","14:00","-7.8","","-16.7","","50","","","","24","","7","","24.1","","100.54","","","","-11","","NA"
"-64.48","48.78","GASPE A","7052601","2018-01-19 15:00","2018","01","19","15:00","-7.5","","-17.1","","47","","","","12","","3","","24.1","","100.52","","","","-9","","NA"
"-64.48","48.78","GASPE A","7052601","2018-01-19 16:00","2018","01","19","16:00","-9.5","","-16.1","","59","","","","11","","10","","24.1","","100.53","","","","-15","","Mainly Clear"
"-64.48","48.78","GASPE A","7052601","2018-01-19 17:00","2018","01","19","17:00","-10.8","","-15.7","","67","","","","8","","3","","24.1","","100.57","","","","-13","","NA"
"-64.48","48.78","GASPE A","7052601","2018-01-19 18:00","2018","01","19","18:00","-11.1","","-15.2","","72","","","","6","","4","","24.1","","100.55","","","","-14","","NA"
"-64.48","48.78","GASPE A","7052601","2018-01-19 19:00","2018","01","19","19:00","-13.4","","-16.7","","77","","","","25","","5","","24.1","","100.50","","","","-17","","Mainly Clear"
"-64.48","48.78","GASPE A","7052601","2018-01-19 20:00","2018","01","19","20:00","-14.9","","-17.6","","80","","","","28","","4","","24.1","","100.49","","","","-18","","NA"
"-64.48","48.78","GASPE A","7052601","2018-01-19 21:00","2018","01","19","21:00","-14.2","","-16.8","","81","","","","36","","2","","24.1","","100.41","","","","-16","","NA"
"-64.48","48.78","GASPE A","7052601","2018-01-19 22:00","2018","01","19","22:00","-13.2","","-16.7","","76","","","","28","","3","","24.1","","100.46","","","","-15","","Cloudy"
"-64.48","48.78","GASPE A","7052601","2018-01-19 23:00","2018","01","19","23:00","-12.9","","-15.8","","79","","","","36","","6","","24.1","","100.30","","","","-17","","Snow"
"-64.48","48.78","GASPE A","7052601","2018-01-20 00:00","2018","01","20","00:00","-12.8","","-15.7","","79","","","","29","","4","","16.1","","100.25","","","","-15","","Snow"
"-64.48","48.78","GASPE A","7052601","2018-01-20 01:00","2018","01","20","01:00","-12.0","","-14.9","","80","","","","2","","3","","16.1","","100.11","","","","-14","","Snow"
"-64.48","48.78","GASPE A","7052601","2018-01-20 02:00","2018","01","20","02:00","-10.9","","-13.4","","82","","","","4","","9","","16.1","","100.02","","","","-16","","Snow"
"-64.48","48.78","GASPE A","7052601","2018-01-20 03:00","2018","01","20","03:00","-11.6","","-13.9","","83","","","","26","","5","","16.1","","99.88","","","","-15","","Snow"
"-64.48","48.78","GASPE A","7052601","2018-01-20 04:00","2018","01","20","04:00","-11.0","","-13.2","","84","","","","29","","4","","16.1","","99.69","","","","-13","","Snow"
"-64.48","48.78","GASPE A","7052601","2018-01-20 05:00","2018","01","20","05:00","-10.7","","-12.8","","85","","","","23","","7","","4.8","","99.55","","","","-15","","Snow"
"-64.48","48.78","GASPE A","7052601","2018-01-20 06:00","2018","01","20","06:00","-8.7","","-10.6","","86","","","","36","","3","","4.8","","99.31","","","","-10","","Snow"
"-64.48","48.78","GASPE A","7052601","2018-01-20 07:00","2018","01","20","07:00","-5.9","","-9.2","","78","","","","36","","1","","11.3","","99.11","","","","-6","","Snow"
"-64.48","48.78","GASPE A","7052601","2018-01-20 08:00","2018","01","20","08:00","-4.8","","-8.0","","79","","","","18","","11","","4.8","","99.00","","","","-9","","Snow"
"-64.48","48.78","GASPE A","7052601","2018-01-20 09:00","2018","01","20","09:00","-4.8","","-7.8","","79","","","","9","","9","","3.2","","98.82","","","","-9","","Snow"
"-64.48","48.78","GASPE A","7052601","2018-01-20 10:00","2018","01","20","10:00","-3.9","","-7.6","","76","","","","36","","4","","3.2","","98.65","","","","-6","","Snow"
"-64.48","48.78","GASPE A","7052601","2018-01-20 11:00","2018","01","20","11:00","-3.8","","-6.5","","82","","","","35","","4","","11.3","","98.47","","","","-5","","Snow"
"-64.48","48.78","GASPE A","7052601","2018-01-20 12:00","2018","01","20","12:00","-3.0","","-6.2","","79","","","","34","","7","","24.1","","98.38","","","","-6","","NA"
"-64.48","48.78","GASPE A","7052601","2018-01-20 13:00","2018","01","20","13:00","-2.1","","-5.5","","78","","","","8","","4","","24.1","","98.27","","","","-4","","Mostly Cloudy"
"-64.48","48.78","GASPE A","7052601","2018-01-20 14:00","2018","01","20","14:00","-1.5","","-5.6","","74","","","","20","","5","","24.1","","98.27","","","","-3","","NA"
"-64.48","48.78","GASPE A","7052601","2018-01-20 15:00","2018","01","20","15:00","-1.7","","-5.3","","77","","","","36","","1","","24.1","","98.32","","","","-2","","NA"
"-64.48","48.78","GASPE A","7052601","2018-01-20 16:00","2018","01","20","16:00","-1.3","","-4.3","","80","","","","32","","6","","24.1","","98.41","","","","-4","","Mostly Cloudy"
"-64.48","48.78","GASPE A","7052601","2018-01-20 17:00","2018","01","20","17:00","-1.2","","-3.4","","85","","","","36","","5","","4.8","","98.51","","","","-3","","Snow"
"-64.48","48.78","GASPE A","7052601","2018-01-20 18:00","2018","01","20","18:00","-2.3","","-3.5","","91","","","","6","","4","","24.1","","98.61","","","","-4","","Snow"
"-64.48","48.78","GASPE A","7052601","2018-01-20 19:00","2018","01","20","19:00","-2.2","","-3.1","","94","","","","28","","5","","9.7","","98.73","","","","-4","","Snow"
"-64.48","48.78","GASPE A","7052601","2018-01-20 20:00","2018","01","20","20:00","-1.3","","-4.6","","78","","","","32","","19","","24.1","","98.90","","","","-7","","NA"
"-64.48","48.78","GASPE A","7052601","2018-01-20 21:00","2018","01","20","21:00","-2.8","","-8.6","","65","","","","28","","33","","24.1","","99.10","","","","-10","","Blowing Snow"
"-64.48","48.78","GASPE A","7052601","2018-01-20 22:00","2018","01","20","22:00","-5.0","","-11.2","","62","","","","30","","14","","24.1","","99.34","","","","-10","","Blowing Snow"
"-64.48","48.78","GASPE A","7052601","2018-01-20 23:00","2018","01","20","23:00","-5.9","","-11.8","","63","","","","29","","19","","24.1","","99.51","","","","-13","","Blowing Snow"
"-64.48","48.78","GASPE A","7052601","2018-01-21 00:00","2018","01","21","00:00","-6.2","","-11.4","","66","","","","29","","21","","24.1","","99.63","","","","-13","","NA"
"-64.48","48.78","GASPE A","7052601","2018-01-21 01:00","2018","01","21","01:00","-6.5","","-12.4","","63","","","","29","","26","","24.1","","99.78","","","","-14","","Mainly Clear"
"-64.48","48.78","GASPE A","7052601","2018-01-21 02:00","2018","01","21","02:00","-7.5","","-13.6","","62","","","","29","","21","","24.1","","99.95","","","","-15","","NA"
"-64.48","48.78","GASPE A","7052601","2018-01-21 03:00","2018","01","21","03:00","-8.5","","-14.4","","63","","","","29","","11","","24.1","","100.15","","","","-14","","NA"
"-64.48","48.78","GASPE A","7052601","2018-01-21 04:00","2018","01","21","04:00","-9.4","","-15.1","","64","","","","29","","22","","24.1","","100.24","","","","-17","","Clear"
"-64.48","48.78","GASPE A","7052601","2018-01-21 05:00","2018","01","21","05:00","-10.2","","-16.1","","62","","","","29","","14","","24.1","","100.39","","","","-17","","NA"
"-64.48","48.78","GASPE A","7052601","2018-01-21 06:00","2018","01","21","06:00","-10.7","","-17.3","","59","","","","28","","17","","24.1","","100.50","","","","-18","","NA"
"-64.48","48.78","GASPE A","7052601","2018-01-21 07:00","2018","01","21","07:00","-13.1","","-17.4","","71","","","","26","","7","","24.1","","100.58","","","","-18","","Clear"
"-64.48","48.78","GASPE A","7052601","2018-01-21 08:00","2018","01","21","08:00","-12.4","","-18.3","","62","","","","26","","13","","24.1","","100.65","","","","-19","","NA"
"-64.48","48.78","GASPE A","7052601","2018-01-21 09:00","2018","01","21","09:00","-11.0","","-18.1","","56","","","","28","","12","","24.1","","100.68","","","","-17","","NA"
"-64.48","48.78","GASPE A","7052601","2018-01-21 10:00","2018","01","21","10:00","-8.9","","-18.4","","47","","","","28","","28","","24.1","","100.69","","","","-18","","Mainly Clear"
"-64.48","48.78","GASPE A","7052601","2018-01-21 11:00","2018","01","21","11:00","-8.1","","-18.2","","44","","","","26","","16","","24.1","","100.63","","","","-15","","NA"
"-64.48","48.78","GASPE A","7052601","2018-01-21 12:00","2018","01","21","12:00","-6.9","","-18.5","","39","","","","29","","28","","24.1","","100.62","","","","-15","","NA"
"-64.48","48.78","GASPE A","7052601","2018-01-21 13:00","2018","01","21","13:00","-6.2","","-17.9","","39","","","","29","","21","","24.1","","100.60","","","","-13","","Clear"
"-64.48","48.78","GASPE A","7052601","2018-01-21 14:00","2018","01","21","14:00","-6.5","","-18.4","","39","","","","29","","21","","24.1","","100.68","","","","-14","","NA"
"-64.48","48.78","GASPE A","7052601","2018-01-21 15:00","2018","01","21","15:00","-7.2","","-19.1","","39","","","","27","","24","","24.1","","100.80","","","","-15","","NA"
"-64.48","48.78","GASPE A","7052601","2018-01-21 16:00","2018","01","21","16:00","-8.9","","-19.3","","43","","","","32","","9","","24.1","","100.89","","","","-14","","Clear"
"-64.48","48.78","GASPE A","7052601","2018-01-21 17:00","2018","01","21","17:00","-10.8","","-19.4","","50","","","","30","","13","","24.1","","101.01","","","","-17","","NA"
"-64.48","48.78","GASPE A","7052601","2018-01-21 18:00","2018","01","21","18:00","-11.8","","-19.8","","52","","","","33","","12","","24.1","","101.12","","","","-18","","NA"
"-64.48","48.78","GASPE A","7052601","2018-01-21 19:00","2018","01","21","19:00","-12.7","","-20.2","","54","","","","28","","18","","24.1","","101.12","","","","-21","","Clear"
"-64.48","48.78","GASPE A","7052601","2018-01-21 20:00","2018","01","21","20:00","-12.8","","-19.6","","57","","","","30","","21","","24.1","","101.19","","","","-22","","NA"
"-64.48","48.78","GASPE A","7052601","2018-01-21 21:00","2018","01","21","21:00","-13.4","","-20.6","","55","","","","30","","13","","24.1","","101.23","","","","-20","","NA"
"-64.48","48.78","GASPE A","7052601","2018-01-21 22:00","2018","01","21","22:00","-14.1","","-20.8","","58","","","","31","","14","","24.1","","101.27","","","","-22","","Mostly Cloudy"
"-64.48","48.78","GASPE A","7052601","2018-01-21 23:00","2018","01","21","23:00","-14.8","","-21.2","","58","","","","28","","18","","24.1","","101.28","","","","-23","","NA"
"-64.48","48.78","GASPE A","7052601","2018-01-22 00:00","2018","01","22","00:00","-16.5","","-22.2","","62","","","","27","","14","","24.1","","101.30","","","","-24","","NA"
"-64.48","48.78","GASPE A","7052601","2018-01-22 01:00","2018","01","22","01:00","-15.9","","-22.6","","57","","","","30","","12","","24.1","","101.35","","","","-23","","Clear"
"-64.48","48.78","GASPE A","7052601","2018-01-22 02:00","2018","01","22","02:00","-14.9","","-22.7","","52","","","","27","","23","","24.1","","101.38","","","","-25","","NA"
"-64.48","48.78","GASPE A","7052601","2018-01-22 03:00","2018","01","22","03:00","-15.7","","-22.5","","56","","","","27","","30","","24.1","","101.42","","","","-27","","NA"
"-64.48","48.78","GASPE A","7052601","2018-01-22 04:00","2018","01","22","04:00","-15.1","","-22.1","","56","","","","28","","20","","24.1","","101.44","","","","-24","","Clear"
"-64.48","48.78","GASPE A","7052601","2018-01-22 05:00","2018","01","22","05:00","-15.1","","-22.2","","55","","","","28","","12","","24.1","","101.49","","","","-22","","NA"
"-64.48","48.78","GASPE A","7052601","2018-01-22 06:00","2018","01","22","06:00","-14.8","","-21.9","","55","","","","29","","31","","24.1","","101.59","","","","-26","","NA"
"-64.48","48.78","GASPE A","7052601","2018-01-22 07:00","2018","01","22","07:00","-15.3","","-22.2","","56","","","","28","","26","","24.1","","101.67","","","","-26","","Mainly Clear"
"-64.48","48.78","GASPE A","7052601","2018-01-22 08:00","2018","01","22","08:00","-14.8","","-21.9","","56","","","","28","","22","","24.1","","101.81","","","","-24","","NA"
"-64.48","48.78","GASPE A","7052601","2018-01-22 09:00","2018","01","22","09:00","-13.5","","-21.5","","52","","","","29","","19","","24.1","","101.90","","","","-22","","NA"
"-64.48","48.78","GASPE A","7052601","2018-01-22 10:00","2018","01","22","10:00","-12.4","","-20.9","","49","","","","29","","24","","24.1","","102.01","","","","-22","","Clear"
"-64.48","48.78","GASPE A","7052601","2018-01-22 11:00","2018","01","22","11:00","-10.5","","-20.1","","46","","","","30","","16","","24.1","","101.99","","","","-18","","NA"
"-64.48","48.78","GASPE A","7052601","2018-01-22 12:00","2018","01","22","12:00","-9.4","","-19.8","","43","","","","26","","21","","24.1","","102.03","","","","-17","","NA"
"-64.48","48.78","GASPE A","7052601","2018-01-22 13:00","2018","01","22","13:00","-8.5","","-19.0","","43","","","","27","","21","","24.1","","102.06","","","","-16","","Clear"
"-64.48","48.78","GASPE A","7052601","2018-01-22 14:00","2018","01","22","14:00","-8.2","","-18.8","","43","","","","33","","12","","24.1","","102.12","","","","-14","","NA"
"-64.48","48.78","GASPE A","7052601","2018-01-22 15:00","2018","01","22","15:00","-8.4","","-19.3","","42","","","","34","","12","","24.1","","102.22","","","","-14","","NA"
"-64.48","48.78","GASPE A","7052601","2018-01-22 16:00","2018","01","22","16:00","-11.3","","-20.0","","49","","","","35","","7","","24.1","","102.31","","","","-16","","Clear"
"-64.48","48.78","GASPE A","7052601","2018-01-22 17:00","2018","01","22","17:00","-15.6","","-21.8","","60","","","","31","","4","","24.1","","102.38","","","","-19","","NA"
"-64.48","48.78","GASPE A","7052601","2018-01-22 18:00","2018","01","22","18:00","-16.3","","-21.2","","66","","","","36","","2","","24.1","","102.46","","","","-18","","NA"
"-64.48","48.78","GASPE A","7052601","2018-01-22 19:00","2018","01","22","19:00","-18.4","","-22.3","","72","","","","28","","8","","24.1","","102.50","","","","-24","","Mainly Clear"
"-64.48","48.78","GASPE A","7052601","2018-01-22 20:00","2018","01","22","20:00","-19.5","","-22.9","","75","","","","26","","7","","24.1","","102.53","","","","-25","","NA"
"-64.48","48.78","GASPE A","7052601","2018-01-22 21:00","2018","01","22","21:00","-19.5","","-22.8","","75","","","","26","","12","","24.1","","102.56","","","","-27","","NA"
"-64.48","48.78","GASPE A","7052601","2018-01-22 22:00","2018","01","22","22:00","-19.2","","-22.8","","74","","","","34","","5","","24.1","","102.56","","","","-23","","Clear"
"-64.48","48.78","GASPE A","7052601","2018-01-22 23:00","2018","01","22","23:00","-20.9","","-24.4","","74","","","","26","","4","","24.1","","102.56","","","","-24","","NA"
"-64.48","48.78","GASPE A","7052601","2018-01-23 00:00","2018","01","23","00:00","-19.2","","-22.9","","73","","","","23","","4","","24.1","","102.52","","","","-23","","NA"
"-64.48","48.78","GASPE A","7052601","2018-01-23 01:00","2018","01","23","01:00","-18.4","","-22.2","","73","","","","22","","4","","24.1","","102.54","","","","-22","","Mostly Cloudy"
"-64.48","48.78","GASPE A","7052601","2018-01-23 02:00","2018","01","23","02:00","-17.5","","-21.4","","72","","","","30","","3","","24.1","","102.59","","","","-20","","NA"
"-64.48","48.78","GASPE A","7052601","2018-01-23 03:00","2018","01","23","03:00","-16.6","","-20.6","","72","","","","21","","3","","24.1","","102.59","","","","-19","","NA"
"-64.48","48.78","GASPE A","7052601","2018-01-23 04:00","2018","01","23","04:00","-16.4","","-20.4","","71","","","","25","","3","","24.1","","102.55","","","","-19","","Cloudy"
"-64.48","48.78","GASPE A","7052601","2018-01-23 05:00","2018","01","23","05:00","-16.1","","-20.0","","72","","","","36","","3","","24.1","","102.55","","","","-18","","NA"
"-64.48","48.78","GASPE A","7052601","2018-01-23 06:00","2018","01","23","06:00","-15.8","","-19.8","","72","","","","36","","1","","24.1","","102.47","","","","-17","","NA"
"-64.48","48.78","GASPE A","7052601","2018-01-23 07:00","2018","01","23","07:00","-15.4","","-19.4","","72","","","","26","","7","","24.1","","102.51","","","","-20","","Cloudy"
"-64.48","48.78","GASPE A","7052601","2018-01-23 08:00","2018","01","23","08:00","-14.7","","-19.1","","70","","","","36","","1","","24.1","","102.48","","","","-15","","NA"
"-64.48","48.78","GASPE A","7052601","2018-01-23 09:00","2018","01","23","09:00","-13.9","","-18.5","","69","","","","36","","2","","24.1","","102.43","","","","-15","","NA"
"-64.48","48.78","GASPE A","7052601","2018-01-23 10:00","2018","01","23","10:00","-13.3","","-17.3","","72","","","","11","","4","","4.0","","102.33","","","","-16","","Snow"
"-64.48","48.78","GASPE A","7052601","2018-01-23 11:00","2018","01","23","11:00","-11.1","","-13.9","","80","","","","9","","7","","11.3","","102.16","","","","-15","","Snow"
"-64.48","48.78","GASPE A","7052601","2018-01-23 12:00","2018","01","23","12:00","-9.8","","-12.4","","82","","","","9","","11","","0.8","","102.00","","","","-15","","Moderate Snow"
"-64.48","48.78","GASPE A","7052601","2018-01-23 13:00","2018","01","23","13:00","-9.3","","-11.5","","84","","","","10","","10","","0.8","","101.85","","","","-14","","Moderate Snow"
"-64.48","48.78","GASPE A","7052601","2018-01-23 14:00","2018","01","23","14:00","-8.9","","-11.1","","84","","","","10","","17","","0.6","","101.70","","","","-16","","Moderate Snow"
"-64.48","48.78","GASPE A","7052601","2018-01-23 15:00","2018","01","23","15:00","-8.5","","-10.4","","86","","","","10","","21","","0.2","","101.56","","","","-16","","Heavy Snow"
"-64.48","48.78","GASPE A","7052601","2018-01-23 16:00","2018","01","23","16:00","-8.2","","-10.2","","86","","","","11","","20","","0.2","","101.40","","","","-16","","Moderate Snow"
"-64.48","48.78","GASPE A","7052601","2018-01-23 17:00","2018","01","23","17:00","-7.8","","-9.5","","88","","","","12","","14","","0.6","","101.15","","","","-14","","Moderate Snow"
"-64.48","48.78","GASPE A","7052601","2018-01-23 18:00","2018","01","23","18:00","-6.6","","-8.2","","89","","","","10","","14","","0.6","","100.89","","","","-12","","Moderate Snow"
"-64.48","48.78","GASPE A","7052601","2018-01-23 19:00","2018","01","23","19:00","-5.2","","-6.6","","90","","","","10","","21","","0.6","","100.54","","","","-12","","Moderate Snow"
"-64.48","48.78","GASPE A","7052601","2018-01-23 20:00","2018","01","23","20:00","-4.2","","-5.4","","91","","","","10","","22","","0.4","","100.18","","","","-11","","Snow,Ice Pellets,Blowing Snow"
"-64.48","48.78","GASPE A","7052601","2018-01-23 21:00","2018","01","23","21:00","-2.9","","-3.9","","93","","","","9","","19","","0.8","","99.85","","","","-9","","Ice Pellets"
"-64.48","48.78","GASPE A","7052601","2018-01-23 22:00","2018","01","23","22:00","-1.0","","-1.9","","94","","","","9","","20","","4.8","","99.52","","","","-7","","Freezing Rain,Ice Pellets"
"-64.48","48.78","GASPE A","7052601","2018-01-23 23:00","2018","01","23","23:00","-0.4","","-1.1","","95","","","","7","","19","","2.4","","99.15","","","","-6","","Freezing Rain,Freezing Fog"
"-64.48","48.78","GASPE A","7052601","2018-01-24 00:00","2018","01","24","00:00","0.2","","-0.4","","96","","","","7","","11","","2.4","","98.84","","","","","","Freezing Rain,Freezing Fog"
"-64.48","48.78","GASPE A","7052601","2018-01-24 01:00","2018","01","24","01:00","-0.4","","-0.9","","96","","","","26","","13","","2.4","","98.64","","","","-5","","Freezing Rain,Freezing Fog"
"-64.48","48.78","GASPE A","7052601","2018-01-24 02:00","2018","01","24","02:00","-0.3","","-0.8","","97","","","","25","","12","","2.8","","98.46","","","","-4","","Freezing Rain,Fog"
"-64.48","48.78","GASPE A","7052601","2018-01-24 03:00","2018","01","24","03:00","-0.1","","-0.5","","97","","","","26","","9","","3.6","","98.30","","","","-3","","Moderate Freezing Drizzle,Fog"
"-64.48","48.78","GASPE A","7052601","2018-01-24 04:00","2018","01","24","04:00","0.0","","-0.5","","97","","","","27","","7","","3.6","","98.16","","","","-2","","Heavy Drizzle,Fog"
"-64.48","48.78","GASPE A","7052601","2018-01-24 05:00","2018","01","24","05:00","0.2","","-0.2","","97","","","","36","","3","","6.4","","98.06","","","","","","Drizzle"
"-64.48","48.78","GASPE A","7052601","2018-01-24 06:00","2018","01","24","06:00","0.0","","-0.4","","97","","","","28","","4","","6.4","","98.02","","","","-1","","Rain"
"-64.48","48.78","GASPE A","7052601","2018-01-24 07:00","2018","01","24","07:00","0.4","","0.0","","97","","","","28","","15","","12.9","","98.00","","","","","","Rain"
"-64.48","48.78","GASPE A","7052601","2018-01-24 08:00","2018","01","24","08:00","0.5","","-0.3","","94","","","","28","","19","","6.4","","98.12","","","","","","Snow Grains"
"-64.48","48.78","GASPE A","7052601","2018-01-24 09:00","2018","01","24","09:00","-1.4","","-3.8","","84","","","","28","","23","","4.8","","98.31","","","","-7","","Snow"
"-64.48","48.78","GASPE A","7052601","2018-01-24 10:00","2018","01","24","10:00","-2.5","","-5.5","","80","","","","29","","18","","6.4","","98.43","","","","-8","","Snow"
"-64.48","48.78","GASPE A","7052601","2018-01-24 11:00","2018","01","24","11:00","-2.6","","-4.7","","85","","","","31","","10","","3.2","","98.42","","","","-6","","Snow"
"-64.48","48.78","GASPE A","7052601","2018-01-24 12:00","2018","01","24","12:00","-1.8","","-6.1","","73","","","","25","","30","","24.1","","98.55","","","","-9","","Blowing Snow"
"-64.48","48.78","GASPE A","7052601","2018-01-24 13:00","2018","01","24","13:00","-2.4","","-6.7","","73","","","","26","","27","","24.1","","98.56","","","","-9","","Blowing Snow"
"-64.48","48.78","GASPE A","7052601","2018-01-24 14:00","2018","01","24","14:00","-3.5","","-8.1","","71","","","","27","","27","","24.1","","98.64","","","","-11","","Blowing Snow"
"-64.48","48.78","GASPE A","7052601","2018-01-24 15:00","2018","01","24","15:00","-5.4","","-10.4","","68","","","","25","","37","","24.1","","98.80","","","","-14","","Blowing Snow"
"-64.48","48.78","GASPE A","7052601","2018-01-24 16:00","2018","01","24","16:00","-7.0","","-12.1","","68","","","","26","","30","","24.1","","98.89","","","","-16","","Blowing Snow"
"-64.48","48.78","GASPE A","7052601","2018-01-24 17:00","2018","01","24","17:00","-8.2","","-12.7","","70","","","","29","","13","","24.1","","99.02","","","","-14","","NA"
"-64.48","48.78","GASPE A","7052601","2018-01-24 18:00","2018","01","24","18:00","-9.2","","-14.1","","68","","","","29","","17","","24.1","","99.17","","","","-16","","NA"
"-64.48","48.78","GASPE A","7052601","2018-01-24 19:00","2018","01","24","19:00","-10.0","","-15.2","","66","","","","30","","16","","24.1","","99.25","","","","-17","","Mainly Clear"
"-64.48","48.78","GASPE A","7052601","2018-01-24 20:00","2018","01","24","20:00","-11.2","","-16.9","","63","","","","27","","17","","24.1","","99.34","","","","-19","","NA"
"-64.48","48.78","GASPE A","7052601","2018-01-24 21:00","2018","01","24","21:00","-12.5","","-17.6","","66","","","","26","","17","","24.1","","99.44","","","","-20","","NA"
"-64.48","48.78","GASPE A","7052601","2018-01-24 22:00","2018","01","24","22:00","-12.3","","-17.2","","68","","","","25","","4","","24.1","","99.53","","","","-15","","Mostly Cloudy"
"-64.48","48.78","GASPE A","7052601","2018-01-24 23:00","2018","01","24","23:00","-13.0","","-17.2","","71","","","","25","","8","","24.1","","99.59","","","","-18","","NA"
"-64.48","48.78","GASPE A","7052601","2018-01-25 00:00","2018","01","25","00:00","-13.0","","-17.2","","71","","","","29","","8","","24.1","","99.63","","","","-18","","NA"
"-64.48","48.78","GASPE A","7052601","2018-01-25 01:00","2018","01","25","01:00","-13.1","","-17.7","","69","","","","27","","25","","24.1","","99.66","","","","-23","","Mostly Cloudy"
"-64.48","48.78","GASPE A","7052601","2018-01-25 02:00","2018","01","25","02:00","-12.9","","-17.8","","67","","","","27","","31","","24.1","","99.68","","","","-23","","NA"
"-64.48","48.78","GASPE A","7052601","2018-01-25 03:00","2018","01","25","03:00","-12.8","","-18.0","","66","","","","28","","21","","24.1","","99.74","","","","-22","","NA"
"-64.48","48.78","GASPE A","7052601","2018-01-25 04:00","2018","01","25","04:00","-13.3","","-18.4","","66","","","","29","","14","","24.1","","99.83","","","","-21","","Clear"
"-64.48","48.78","GASPE A","7052601","2018-01-25 05:00","2018","01","25","05:00","-13.8","","-18.7","","67","","","","29","","13","","24.1","","99.93","","","","-21","","NA"
"-64.48","48.78","GASPE A","7052601","2018-01-25 06:00","2018","01","25","06:00","-14.3","","-18.9","","68","","","","29","","14","","24.1","","100.02","","","","-22","","NA"
"-64.48","48.78","GASPE A","7052601","2018-01-25 07:00","2018","01","25","07:00","-14.3","","-19.1","","67","","","","22","","9","","24.1","","100.10","","","","-20","","Mainly Clear"
"-64.48","48.78","GASPE A","7052601","2018-01-25 08:00","2018","01","25","08:00","-13.5","","-18.6","","66","","","","28","","12","","24.1","","100.18","","","","-20","","NA"
"-64.48","48.78","GASPE A","7052601","2018-01-25 09:00","2018","01","25","09:00","-12.0","","-17.9","","62","","","","29","","17","","24.1","","100.24","","","","-20","","NA"
"-64.48","48.78","GASPE A","7052601","2018-01-25 10:00","2018","01","25","10:00","-11.3","","-17.1","","63","","","","28","","18","","24.1","","100.35","","","","-19","","Mostly Cloudy"
"-64.48","48.78","GASPE A","7052601","2018-01-25 11:00","2018","01","25","11:00","-10.9","","-16.8","","62","","","","26","","22","","24.1","","100.39","","","","-19","","NA"
"-64.48","48.78","GASPE A","7052601","2018-01-25 12:00","2018","01","25","12:00","-10.2","","-16.0","","63","","","","28","","16","","16.1","","100.40","","","","-17","","Snow Showers"
"-64.48","48.78","GASPE A","7052601","2018-01-25 13:00","2018","01","25","13:00","-10.1","","-15.7","","64","","","","29","","11","","16.1","","100.42","","","","-16","","Snow Showers"
"-64.48","48.78","GASPE A","7052601","2018-01-25 14:00","2018","01","25","14:00","-9.9","","-14.6","","69","","","","29","","17","","4.0","","100.47","","","","-17","","Snow Showers"
"-64.48","48.78","GASPE A","7052601","2018-01-25 15:00","2018","01","25","15:00","-9.5","","-14.3","","68","","","","29","","13","","16.1","","100.53","","","","-16","","Snow"
"-64.48","48.78","GASPE A","7052601","2018-01-25 16:00","2018","01","25","16:00","-10.5","","-15.5","","67","","","","29","","7","","24.1","","100.63","","","","-15","","Mainly Clear"
"-64.48","48.78","GASPE A","7052601","2018-01-25 17:00","2018","01","25","17:00","-12.1","","-16.3","","71","","","","30","","8","","24.1","","100.74","","","","-17","","NA"
"-64.48","48.78","GASPE A","7052601","2018-01-25 18:00","2018","01","25","18:00","-13.0","","-17.1","","72","","","","31","","10","","24.1","","100.83","","","","-19","","NA"
"-64.48","48.78","GASPE A","7052601","2018-01-25 19:00","2018","01","25","19:00","-12.9","","-17.5","","69","","","","28","","21","","24.1","","100.92","","","","-22","","Mainly Clear"
"-64.48","48.78","GASPE A","7052601","2018-01-25 20:00","2018","01","25","20:00","-12.4","","-17.2","","68","","","","28","","23","","24.1","","100.95","","","","-21","","NA"
"-64.48","48.78","GASPE A","7052601","2018-01-25 21:00","2018","01","25","21:00","-12.5","","-17.3","","68","","","","28","","22","","24.1","","101.01","","","","-21","","NA"
"-64.48","48.78","GASPE A","7052601","2018-01-25 22:00","2018","01","25","22:00","-12.9","","-17.7","","67","","","","28","","22","","24.1","","101.05","","","","-22","","Mainly Clear"
"-64.48","48.78","GASPE A","7052601","2018-01-25 23:00","2018","01","25","23:00","-13.6","","-18.1","","69","","","","28","","11","","24.1","","101.14","","","","-20","","NA"
"-64.48","48.78","GASPE A","7052601","2018-01-26 00:00","2018","01","26","00:00","-14.0","","-18.3","","70","","","","29","","13","","24.1","","101.19","","","","-21","","NA"
"-64.48","48.78","GASPE A","7052601","2018-01-26 01:00","2018","01","26","01:00","-14.0","","-18.6","","69","","","","28","","13","","24.1","","101.30","","","","-21","","Mainly Clear"
"-64.48","48.78","GASPE A","7052601","2018-01-26 02:00","2018","01","26","02:00","-13.9","","-18.8","","67","","","","29","","19","","24.1","","101.38","","","","-23","","NA"
"-64.48","48.78","GASPE A","7052601","2018-01-26 03:00","2018","01","26","03:00","-14.0","","-18.3","","70","","","","29","","17","","24.1","","101.43","","","","-22","","NA"
"-64.48","48.78","GASPE A","7052601","2018-01-26 04:00","2018","01","26","04:00","-14.0","","-18.4","","70","","","","28","","19","","24.1","","101.49","","","","-23","","Mostly Cloudy"
"-64.48","48.78","GASPE A","7052601","2018-01-26 05:00","2018","01","26","05:00","-14.3","","-19.4","","66","","","","30","","15","","24.1","","101.66","","","","-22","","NA"
"-64.48","48.78","GASPE A","7052601","2018-01-26 06:00","2018","01","26","06:00","-14.3","","-20.0","","62","","","","27","","22","","24.1","","101.77","","","","-24","","NA"
"-64.48","48.78","GASPE A","7052601","2018-01-26 07:00","2018","01","26","07:00","-14.1","","-20.2","","61","","","","29","","18","","24.1","","101.89","","","","-23","","Mainly Clear"
"-64.48","48.78","GASPE A","7052601","2018-01-26 08:00","2018","01","26","08:00","-14.1","","-19.9","","62","","","","27","","14","","24.1","","102.05","","","","-22","","NA"
"-64.48","48.78","GASPE A","7052601","2018-01-26 09:00","2018","01","26","09:00","-12.0","","-19.5","","54","","","","30","","31","","24.1","","102.16","","","","-22","","NA"
"-64.48","48.78","GASPE A","7052601","2018-01-26 10:00","2018","01","26","10:00","-11.0","","-18.8","","53","","","","29","","20","","24.1","","102.33","","","","-19","","Mostly Cloudy"
"-64.48","48.78","GASPE A","7052601","2018-01-26 11:00","2018","01","26","11:00","-10.2","","-18.9","","49","","","","33","","18","","24.1","","102.33","","","","-18","","NA"
"-64.48","48.78","GASPE A","7052601","2018-01-26 12:00","2018","01","26","12:00","-9.4","","-18.4","","49","","","","33","","18","","24.1","","102.30","","","","-17","","NA"
"-64.48","48.78","GASPE A","7052601","2018-01-26 13:00","2018","01","26","13:00","-8.8","","-18.0","","48","","","","33","","26","","24.1","","102.35","","","","-17","","Mainly Clear"
"-64.48","48.78","GASPE A","7052601","2018-01-26 14:00","2018","01","26","14:00","-8.5","","-18.7","","44","","","","33","","22","","24.1","","102.41","","","","-16","","NA"
"-64.48","48.78","GASPE A","7052601","2018-01-26 15:00","2018","01","26","15:00","-8.4","","-17.6","","48","","","","32","","10","","24.1","","102.51","","","","-13","","NA"
"-64.48","48.78","GASPE A","7052601","2018-01-26 16:00","2018","01","26","16:00","-11.1","","-19.1","","52","","","","33","","12","","24.1","","102.61","","","","-17","","Clear"
"-64.48","48.78","GASPE A","7052601","2018-01-26 17:00","2018","01","26","17:00","-11.8","","-18.1","","60","","","","31","","11","","24.1","","102.70","","","","-18","","NA"
"-64.48","48.78","GASPE A","7052601","2018-01-26 18:00","2018","01","26","18:00","-14.0","","-19.8","","62","","","","34","","13","","24.1","","102.78","","","","-21","","NA"
"-64.48","48.78","GASPE A","7052601","2018-01-26 19:00","2018","01","26","19:00","-16.0","","-20.6","","68","","","","28","","9","","24.1","","102.87","","","","-22","","Clear"
"-64.48","48.78","GASPE A","7052601","2018-01-26 20:00","2018","01","26","20:00","-19.0","","-22.4","","75","","","","22","","4","","24.1","","102.90","","","","-22","","NA"
"-64.48","48.78","GASPE A","7052601","2018-01-26 21:00","2018","01","26","21:00","-20.2","","-23.4","","76","","","","25","","5","","24.1","","102.90","","","","-25","","NA"
"-64.48","48.78","GASPE A","7052601","2018-01-26 22:00","2018","01","26","22:00","-20.6","","-23.7","","76","","","","27","","8","","24.1","","102.89","","","","-27","","Clear"
"-64.48","48.78","GASPE A","7052601","2018-01-26 23:00","2018","01","26","23:00","-22.7","","-26.1","","74","","","","26","","5","","24.1","","102.93","","","","-27","","NA"
"-64.48","48.78","GASPE A","7052601","2018-01-27 00:00","2018","01","27","00:00","-23.1","","-26.5","","74","","","","36","","2","","24.1","","102.92","","","","-25","","NA"
"-64.48","48.78","GASPE A","7052601","2018-01-27 01:00","2018","01","27","01:00","-24.0","","-27.4","","74","","","","26","","7","","24.1","","102.91","","","","-30","","Clear"
"-64.48","48.78","GASPE A","7052601","2018-01-27 02:00","2018","01","27","02:00","-22.6","","-26.0","","75","","","","27","","8","","24.1","","102.87","","","","-29","","NA"
"-64.48","48.78","GASPE A","7052601","2018-01-27 03:00","2018","01","27","03:00","-24.7","","-28.2","","73","","","","25","","8","","24.1","","102.89","","","","-32","","NA"
"-64.48","48.78","GASPE A","7052601","2018-01-27 04:00","2018","01","27","04:00","-24.1","","-27.6","","73","","","","36","","3","","24.1","","102.83","","","","-27","","Clear"
"-64.48","48.78","GASPE A","7052601","2018-01-27 05:00","2018","01","27","05:00","-23.1","","-26.5","","74","","","","31","","4","","24.1","","102.76","","","","-27","","NA"
"-64.48","48.78","GASPE A","7052601","2018-01-27 06:00","2018","01","27","06:00","-24.3","","-27.9","","73","","","","25","","8","","24.1","","102.76","","","","-31","","NA"
"-64.48","48.78","GASPE A","7052601","2018-01-27 07:00","2018","01","27","07:00","-22.9","","-26.5","","73","","","","25","","3","","24.1","","102.67","","","","-26","","Mostly Cloudy"
"-64.48","48.78","GASPE A","7052601","2018-01-27 08:00","2018","01","27","08:00","-21.5","","-25.1","","73","","","","30","","5","","24.1","","102.56","","","","-26","","NA"
"-64.48","48.78","GASPE A","7052601","2018-01-27 09:00","2018","01","27","09:00","-19.6","","-23.1","","74","","","","27","","4","","24.1","","102.49","","","","-23","","NA"
"-64.48","48.78","GASPE A","7052601","2018-01-27 10:00","2018","01","27","10:00","-16.7","","-20.0","","76","","","","12","","3","","24.1","","102.32","","","","-19","","Cloudy"
"-64.48","48.78","GASPE A","7052601","2018-01-27 11:00","2018","01","27","11:00","-10.9","","-17.6","","58","","","","3","","14","","24.1","","102.05","","","","-18","","NA"
"-64.48","48.78","GASPE A","7052601","2018-01-27 12:00","2018","01","27","12:00","-8.0","","-15.7","","54","","","","31","","7","","24.1","","101.76","","","","-12","","NA"
"-64.48","48.78","GASPE A","7052601","2018-01-27 13:00","2018","01","27","13:00","-6.9","","-13.2","","61","","","","17","","4","","24.1","","101.56","","","","-9","","Cloudy"
"-64.48","48.78","GASPE A","7052601","2018-01-27 14:00","2018","01","27","14:00","-6.6","","-12.4","","64","","","","30","","9","","24.1","","101.42","","","","-11","","NA"
"-64.48","48.78","GASPE A","7052601","2018-01-27 15:00","2018","01","27","15:00","-6.5","","-11.7","","67","","","","34","","8","","24.1","","101.34","","","","-10","","NA"
"-64.48","48.78","GASPE A","7052601","2018-01-27 16:00","2018","01","27","16:00","-5.3","","-9.8","","70","","","","27","","17","","24.1","","101.21","","","","-11","","Cloudy"
"-64.48","48.78","GASPE A","7052601","2018-01-27 17:00","2018","01","27","17:00","-4.0","","-8.0","","74","","","","28","","18","","24.1","","101.09","","","","-10","","NA"
"-64.48","48.78","GASPE A","7052601","2018-01-27 18:00","2018","01","27","18:00","-2.6","","-6.8","","73","","","","27","","27","","24.1","","101.03","","","","-10","","NA"
"-64.48","48.78","GASPE A","7052601","2018-01-27 19:00","2018","01","27","19:00","-4.5","","-8.1","","76","","","","36","","11","","24.1","","100.90","","","","-9","","Cloudy"
"-64.48","48.78","GASPE A","7052601","2018-01-27 20:00","2018","01","27","20:00","-1.3","","-5.4","","74","","","","26","","13","","24.1","","100.82","","","","-6","","NA"
"-64.48","48.78","GASPE A","7052601","2018-01-27 21:00","2018","01","27","21:00","-3.5","","-6.7","","78","","","","31","","7","","24.1","","100.78","","","","-6","","NA"
"-64.48","48.78","GASPE A","7052601","2018-01-27 22:00","2018","01","27","22:00","-5.6","","-7.6","","86","","","","36","","1","","24.1","","100.67","","","","-6","","Mostly Cloudy"
"-64.48","48.78","GASPE A","7052601","2018-01-27 23:00","2018","01","27","23:00","-6.2","","-7.7","","89","","","","11","","5","","24.1","","100.59","","","","-9","","NA"
"-64.48","48.78","GASPE A","7052601","2018-01-28 00:00","2018","01","28","00:00","-6.5","","-8.0","","89","","","","36","","1","","24.1","","100.53","","","","-7","","NA"
"-64.48","48.78","GASPE A","7052601","2018-01-28 01:00","2018","01","28","01:00","-7.2","","-8.6","","90","","","","30","","4","","24.1","","100.45","","","","-9","","Cloudy"
"-64.48","48.78","GASPE A","7052601","2018-01-28 02:00","2018","01","28","02:00","-7.0","","-8.4","","90","","","","3","","3","","24.1","","100.43","","","","-9","","NA"
"-64.48","48.78","GASPE A","7052601","2018-01-28 03:00","2018","01","28","03:00","-7.1","","-8.7","","89","","","","8","","4","","24.1","","100.36","","","","-9","","NA"
"-64.48","48.78","GASPE A","7052601","2018-01-28 04:00","2018","01","28","04:00","-6.2","","-7.6","","90","","","","36","","2","","24.1","","100.34","","","","-7","","Mainly Clear"
"-64.48","48.78","GASPE A","7052601","2018-01-28 05:00","2018","01","28","05:00","-0.3","","-1.7","","90","","","","30","","16","","24.1","","100.37","","","","-5","","NA"
"-64.48","48.78","GASPE A","7052601","2018-01-28 06:00","2018","01","28","06:00","0.0","","-2.9","","81","","","","29","","13","","24.1","","100.46","","","","-4","","NA"
"-64.48","48.78","GASPE A","7052601","2018-01-28 07:00","2018","01","28","07:00","0.4","","-2.4","","81","","","","30","","14","","24.1","","100.46","","","","","","Mainly Clear"
"-64.48","48.78","GASPE A","7052601","2018-01-28 08:00","2018","01","28","08:00","1.4","","-2.4","","76","","","","27","","19","","24.1","","100.53","","","","","","NA"
"-64.48","48.78","GASPE A","7052601","2018-01-28 09:00","2018","01","28","09:00","3.5","","-1.4","","70","","","","28","","25","","24.1","","100.56","","","","","","NA"
"-64.48","48.78","GASPE A","7052601","2018-01-28 10:00","2018","01","28","10:00","5.0","","-0.9","","66","","","","25","","31","","24.1","","100.57","","","","","","Mainly Clear"
"-64.48","48.78","GASPE A","7052601","2018-01-28 11:00","2018","01","28","11:00","4.8","","-1.4","","64","","","","26","","35","","24.1","","100.55","","","","","","NA"
"-64.48","48.78","GASPE A","7052601","2018-01-28 12:00","2018","01","28","12:00","4.6","","-2.6","","60","","","","26","","33","","24.1","","100.54","","","","","","NA"
"-64.48","48.78","GASPE A","7052601","2018-01-28 13:00","2018","01","28","13:00","4.5","","-3.9","","55","","","","26","","39","","24.1","","100.57","","","","","","Mainly Clear"
"-64.48","48.78","GASPE A","7052601","2018-01-28 14:00","2018","01","28","14:00","3.8","","-3.4","","60","","","","25","","25","","24.1","","100.62","","","","","","NA"
"-64.48","48.78","GASPE A","7052601","2018-01-28 15:00","2018","01","28","15:00","3.0","","-3.6","","62","","","","25","","13","","24.1","","100.73","","","","","","NA"
"-64.48","48.78","GASPE A","7052601","2018-01-28 16:00","2018","01","28","16:00","2.3","","-5.3","","57","","","","26","","13","","24.1","","100.85","","","","","","Mainly Clear"
"-64.48","48.78","GASPE A","7052601","2018-01-28 17:00","2018","01","28","17:00","1.4","","-9.3","","45","","","","27","","33","","24.1","","100.96","","","","","","NA"
"-64.48","48.78","GASPE A","7052601","2018-01-28 18:00","2018","01","28","18:00","-0.8","","-10.6","","47","","","","27","","35","","24.1","","101.16","","","","-8","","NA"
"-64.48","48.78","GASPE A","7052601","2018-01-28 19:00","2018","01","28","19:00","-2.7","","-12.3","","48","","","","30","","32","","24.1","","101.32","","","","-10","","Clear"
"-64.48","48.78","GASPE A","7052601","2018-01-28 20:00","2018","01","28","20:00","-5.2","","-12.9","","55","","","","32","","21","","24.1","","101.53","","","","-12","","NA"
"-64.48","48.78","GASPE A","7052601","2018-01-28 21:00","2018","01","28","21:00","-6.2","","-14.2","","54","","","","31","","26","","24.1","","101.70","","","","-14","","NA"
"-64.48","48.78","GASPE A","7052601","2018-01-28 22:00","2018","01","28","22:00","-7.0","","-15.5","","51","","","","29","","35","","24.1","","101.77","","","","-16","","Mostly Cloudy"
"-64.48","48.78","GASPE A","7052601","2018-01-28 23:00","2018","01","28","23:00","-7.5","","-15.1","","55","","","","31","","22","","24.1","","101.91","","","","-15","","NA"
"-64.48","48.78","GASPE A","7052601","2018-01-29 00:00","2018","01","29","00:00","-9.0","","-16.8","","53","","","","30","","18","","24.1","","102.07","","","","-16","","NA"
"-64.48","48.78","GASPE A","7052601","2018-01-29 01:00","2018","01","29","01:00","-10.0","","-17.1","","57","","","","29","","16","","24.1","","102.13","","","","-17","","Mainly Clear"
"-64.48","48.78","GASPE A","7052601","2018-01-29 02:00","2018","01","29","02:00","-10.8","","-17.4","","59","","","","28","","12","","24.1","","102.24","","","","-17","","NA"
"-64.48","48.78","GASPE A","7052601","2018-01-29 03:00","2018","01","29","03:00","-11.5","","-17.6","","61","","","","28","","13","","24.1","","102.28","","","","-18","","NA"
"-64.48","48.78","GASPE A","7052601","2018-01-29 04:00","2018","01","29","04:00","-12.5","","-17.7","","66","","","","28","","13","","24.1","","102.34","","","","-19","","Clear"
"-64.48","48.78","GASPE A","7052601","2018-01-29 05:00","2018","01","29","05:00","-13.2","","-18.2","","67","","","","27","","16","","24.1","","102.41","","","","-21","","NA"
"-64.48","48.78","GASPE A","7052601","2018-01-29 06:00","2018","01","29","06:00","-13.2","","-17.9","","69","","","","29","","15","","24.1","","102.51","","","","-21","","NA"
"-64.48","48.78","GASPE A","7052601","2018-01-29 07:00","2018","01","29","07:00","-14.5","","-19.2","","68","","","","23","","5","","24.1","","102.62","","","","-18","","Mostly Cloudy"
"-64.48","48.78","GASPE A","7052601","2018-01-29 08:00","2018","01","29","08:00","-13.3","","-17.8","","69","","","","28","","11","","24.1","","102.70","","","","-20","","NA"
"-64.48","48.78","GASPE A","7052601","2018-01-29 09:00","2018","01","29","09:00","-10.6","","-17.4","","58","","","","33","","7","","24.1","","102.75","","","","-15","","NA"
"-64.48","48.78","GASPE A","7052601","2018-01-29 10:00","2018","01","29","10:00","-10.1","","-17.8","","54","","","","32","","18","","24.1","","102.80","","","","-18","","Mostly Cloudy"
"-64.48","48.78","GASPE A","7052601","2018-01-29 11:00","2018","01","29","11:00","-9.4","","-17.5","","52","","","","32","","15","","24.1","","102.79","","","","-16","","NA"
"-64.48","48.78","GASPE A","7052601","2018-01-29 12:00","2018","01","29","12:00","-9.0","","-17.3","","51","","","","2","","13","","24.1","","102.75","","","","-15","","NA"
"-64.48","48.78","GASPE A","7052601","2018-01-29 13:00","2018","01","29","13:00","-8.9","","-17.6","","50","","","","35","","10","","24.1","","102.70","","","","-14","","Mainly Clear"
"-64.48","48.78","GASPE A","7052601","2018-01-29 14:00","2018","01","29","14:00","-8.7","","-17.6","","49","","","","33","","12","","24.1","","102.69","","","","-14","","NA"
"-64.48","48.78","GASPE A","7052601","2018-01-29 15:00","2018","01","29","15:00","-9.3","","-17.9","","50","","","","33","","9","","24.1","","102.73","","","","-14","","NA"
"-64.48","48.78","GASPE A","7052601","2018-01-29 16:00","2018","01","29","16:00","-11.1","","-18.5","","55","","","","33","","9","","24.1","","102.78","","","","-16","","Mainly Clear"
"-64.48","48.78","GASPE A","7052601","2018-01-29 17:00","2018","01","29","17:00","-12.6","","-19.1","","59","","","","32","","8","","24.1","","102.86","","","","-18","","NA"
"-64.48","48.78","GASPE A","7052601","2018-01-29 18:00","2018","01","29","18:00","-13.4","","-19.0","","63","","","","34","","8","","24.1","","102.87","","","","-18","","NA"
"-64.48","48.78","GASPE A","7052601","2018-01-29 19:00","2018","01","29","19:00","-14.5","","-19.5","","67","","","","32","","6","","24.1","","102.92","","","","-19","","Cloudy"
"-64.48","48.78","GASPE A","7052601","2018-01-29 20:00","2018","01","29","20:00","-15.8","","-20.3","","69","","","","26","","7","","24.1","","102.92","","","","-21","","NA"
"-64.48","48.78","GASPE A","7052601","2018-01-29 21:00","2018","01","29","21:00","-15.7","","-19.7","","72","","","","29","","9","","24.1","","102.89","","","","-22","","NA"
"-64.48","48.78","GASPE A","7052601","2018-01-29 22:00","2018","01","29","22:00","-15.5","","-19.5","","72","","","","28","","13","","24.1","","102.85","","","","-23","","Cloudy"
"-64.48","48.78","GASPE A","7052601","2018-01-29 23:00","2018","01","29","23:00","-15.8","","-19.7","","72","","","","25","","10","","24.1","","102.74","","","","-22","","NA"
"-64.48","48.78","GASPE A","7052601","2018-01-30 00:00","2018","01","30","00:00","-15.1","","-19.4","","70","","","","36","","3","","24.1","","102.72","","","","-17","","NA"
"-64.48","48.78","GASPE A","7052601","2018-01-30 01:00","2018","01","30","01:00","-15.7","","-19.8","","71","","","","32","","5","","24.1","","102.67","","","","-19","","Cloudy"
"-64.48","48.78","GASPE A","7052601","2018-01-30 02:00","2018","01","30","02:00","-15.5","","-19.6","","71","","","","28","","8","","24.1","","102.55","","","","-21","","NA"
"-64.48","48.78","GASPE A","7052601","2018-01-30 03:00","2018","01","30","03:00","-14.8","","-19.1","","71","","","","27","","8","","24.1","","102.49","","","","-20","","NA"
"-64.48","48.78","GASPE A","7052601","2018-01-30 04:00","2018","01","30","04:00","-12.7","","-16.7","","73","","","","7","","14","","24.1","","102.43","","","","-20","","Cloudy"
"-64.48","48.78","GASPE A","7052601","2018-01-30 05:00","2018","01","30","05:00","-11.8","","-16.5","","69","","","","7","","13","","24.1","","102.38","","","","-18","","NA"
"-64.48","48.78","GASPE A","7052601","2018-01-30 06:00","2018","01","30","06:00","-12.2","","-16.6","","70","","","","5","","21","","24.1","","102.35","","","","-21","","Snow"
"-64.48","48.78","GASPE A","7052601","2018-01-30 07:00","2018","01","30","07:00","-12.4","","-16.9","","70","","","","4","","14","","24.1","","102.35","","","","-19","","Cloudy"
"-64.48","48.78","GASPE A","7052601","2018-01-30 08:00","2018","01","30","08:00","-12.5","","-16.6","","72","","","","4","","14","","24.1","","102.27","","","","-20","","NA"
"-64.48","48.78","GASPE A","7052601","2018-01-30 09:00","2018","01","30","09:00","-12.4","","-16.8","","70","","","","2","","16","","24.1","","102.19","","","","-20","","NA"
"-64.48","48.78","GASPE A","7052601","2018-01-30 10:00","2018","01","30","10:00","-12.0","","-17.6","","63","","","","4","","12","","24.1","","102.15","","","","-18","","Cloudy"
"-64.48","48.78","GASPE A","7052601","2018-01-30 11:00","2018","01","30","11:00","-11.5","","-17.5","","61","","","","1","","15","","24.1","","101.93","","","","-19","","NA"
"-64.48","48.78","GASPE A","7052601","2018-01-30 12:00","2018","01","30","12:00","-11.6","","-17.4","","63","","","","35","","14","","24.1","","101.73","","","","-18","","NA"
"-64.48","48.78","GASPE A","7052601","2018-01-30 13:00","2018","01","30","13:00","-11.7","","-17.4","","63","","","","1","","12","","24.1","","101.54","","","","-18","","Cloudy"
"-64.48","48.78","GASPE A","7052601","2018-01-30 14:00","2018","01","30","14:00","-12.4","","-17.3","","67","","","","35","","22","","24.1","","101.42","","","","-21","","NA"
"-64.48","48.78","GASPE A","7052601","2018-01-30 15:00","2018","01","30","15:00","-12.4","","-17.5","","66","","","","35","","17","","24.1","","101.32","","","","-20","","NA"
"-64.48","48.78","GASPE A","7052601","2018-01-30 16:00","2018","01","30","16:00","-12.0","","-17.2","","66","","","","34","","20","","6.4","","101.22","","","","-20","","Snow"
"-64.48","48.78","GASPE A","7052601","2018-01-30 17:00","2018","01","30","17:00","-11.7","","-16.6","","67","","","","33","","12","","4.0","","101.17","","","","-18","","Snow,Blowing Snow"
"-64.48","48.78","GASPE A","7052601","2018-01-30 18:00","2018","01","30","18:00","-11.6","","-15.4","","73","","","","35","","18","","1.2","","100.96","","","","-19","","Snow,Blowing Snow"
"-64.48","48.78","GASPE A","7052601","2018-01-30 19:00","2018","01","30","19:00","-11.4","","-14.8","","76","","","","35","","19","","1.2","","100.81","","","","-19","","Snow,Blowing Snow"
"-64.48","48.78","GASPE A","7052601","2018-01-30 20:00","2018","01","30","20:00","-11.3","","-15.4","","72","","","","34","","16","","1.6","","100.69","","","","-19","","Snow,Blowing Snow"
"-64.48","48.78","GASPE A","7052601","2018-01-30 21:00","2018","01","30","21:00","-11.5","","-15.2","","74","","","","35","","23","","1.0","","100.53","","","","-20","","Snow,Blowing Snow"
"-64.48","48.78","GASPE A","7052601","2018-01-30 22:00","2018","01","30","22:00","-11.5","","-15.0","","76","","","","35","","17","","1.2","","100.43","","","","-19","","Snow"
"-64.48","48.78","GASPE A","7052601","2018-01-30 23:00","2018","01","30","23:00","-11.9","","-15.1","","78","","","","34","","20","","0.8","","100.08","","","","-20","","Snow,Blowing Snow"
"-64.48","48.78","GASPE A","7052601","2018-01-31 00:00","2018","01","31","00:00","-12.0","","-15.2","","77","","","","35","","13","","0.8","","99.99","","","","-19","","Snow,Blowing Snow"
"-64.48","48.78","GASPE A","7052601","2018-01-31 01:00","2018","01","31","01:00","-11.8","","-15.2","","76","","","","34","","27","","0.8","","99.79","","","","-21","","Snow,Blowing Snow"
"-64.48","48.78","GASPE A","7052601","2018-01-31 02:00","2018","01","31","02:00","-12.2","","-15.3","","78","","","","31","","21","","0.6","","99.63","","","","-21","","Snow,Blowing Snow"
"-64.48","48.78","GASPE A","7052601","2018-01-31 03:00","2018","01","31","03:00","-11.9","","-15.1","","77","","","","32","","27","","0.8","","99.57","","","","-22","","Snow,Blowing Snow"
"-64.48","48.78","GASPE A","7052601","2018-01-31 04:00","2018","01","31","04:00","-12.3","","-15.6","","77","","","","30","","25","","0.8","","99.47","","","","-22","","Snow,Blowing Snow"
"-64.48","48.78","GASPE A","7052601","2018-01-31 05:00","2018","01","31","05:00","-12.5","","-16.7","","71","","","","31","","29","","1.2","","99.46","","","","-23","","Snow,Blowing Snow"
"-64.48","48.78","GASPE A","7052601","2018-01-31 06:00","2018","01","31","06:00","-12.7","","-16.8","","72","","","","30","","29","","0.8","","99.42","","","","-23","","Snow,Blowing Snow"
"-64.48","48.78","GASPE A","7052601","2018-01-31 07:00","2018","01","31","07:00","-12.6","","-17.2","","69","","","","30","","35","","4.8","","99.44","","","","-24","","Snow,Blowing Snow"
"-64.48","48.78","GASPE A","7052601","2018-01-31 08:00","2018","01","31","08:00","-12.3","","-17.4","","66","","","","29","","26","","4.0","","99.43","","","","-22","","Snow,Blowing Snow"
"-64.48","48.78","GASPE A","7052601","2018-01-31 09:00","2018","01","31","09:00","-12.3","","-17.7","","64","","","","28","","30","","11.3","","99.48","","","","-23","","Blowing Snow"
"-64.48","48.78","GASPE A","7052601","2018-01-31 10:00","2018","01","31","10:00","-11.8","","-17.8","","62","","","","29","","27","","16.1","","99.57","","","","-21","","Blowing Snow"
"-64.48","48.78","GASPE A","7052601","2018-01-31 11:00","2018","01","31","11:00","-10.9","","-17.7","","58","","","","29","","26","","24.1","","99.63","","","","-20","","Blowing Snow"
"-64.48","48.78","GASPE A","7052601","2018-01-31 12:00","2018","01","31","12:00","-9.9","","-17.0","","57","","","","30","","32","","24.1","","99.69","","","","-20","","Blowing Snow"
"-64.48","48.78","GASPE A","7052601","2018-01-31 13:00","2018","01","31","13:00","-9.0","","-16.2","","56","","","","29","","34","","24.1","","99.82","","","","-19","","Blowing Snow"
"-64.48","48.78","GASPE A","7052601","2018-01-31 14:00","2018","01","31","14:00","-8.3","","-15.9","","55","","","","29","","26","","24.1","","99.93","","","","-17","","Blowing Snow"
"-64.48","48.78","GASPE A","7052601","2018-01-31 15:00","2018","01","31","15:00","-8.5","","-15.7","","57","","","","27","","33","","24.1","","100.05","","","","-18","","Blowing Snow"
"-64.48","48.78","GASPE A","7052601","2018-01-31 16:00","2018","01","31","16:00","-9.7","","-16.1","","60","","","","26","","25","","24.1","","100.18","","","","-18","","Blowing Snow"
"-64.48","48.78","GASPE A","7052601","2018-01-31 17:00","2018","01","31","17:00","-9.9","","-16.5","","59","","","","28","","28","","24.1","","100.31","","","","-19","","NA"
"-64.48","48.78","GASPE A","7052601","2018-01-31 18:00","2018","01","31","18:00","-10.6","","-17.5","","57","","","","25","","5","","24.1","","100.46","","","","-14","","NA"
"-64.48","48.78","GASPE A","7052601","2018-01-31 19:00","2018","01","31","19:00","-11.6","","-17.6","","61","","","","30","","15","","24.1","","100.54","","","","-19","","Clear"
"-64.48","48.78","GASPE A","7052601","2018-01-31 20:00","2018","01","31","20:00","-12.6","","-18.3","","63","","","","32","","13","","24.1","","100.59","","","","-19","","NA"
"-64.48","48.78","GASPE A","7052601","2018-01-31 21:00","2018","01","31","21:00","-13.2","","-18.5","","65","","","","32","","9","","24.1","","100.69","","","","-19","","NA"
"-64.48","48.78","GASPE A","7052601","2018-01-31 22:00","2018","01","31","22:00","-16.0","","-19.5","","75","","","","26","","7","","24.1","","100.78","","","","-21","","Clear"
"-64.48","48.78","GASPE A","7052601","2018-01-31 23:00","2018","01","31","23:00","-18.4","","-21.6","","76","","","","25","","9","","24.1","","100.85","","","","-25","","NA"
