"Longitude (x)","Latitude (y)","Station Name","Climate ID","Date/Time (LST)","Year","Month","Day","Time (LST)","Temp (°C)","Temp Flag","Dew Point Temp (°C)","Dew Point Temp Flag","Rel Hum (%)","Rel Hum Flag","Precip. Amount (mm)","Precip. Amount Flag","Wind Dir (10s deg)","Wind Dir Flag","Wind Spd (km/h)","Wind Spd Flag","Visibility (km)","Visibility Flag","Stn Press (kPa)","Stn Press Flag","Hmdx","Hmdx Flag","Wind Chill","Wind Chill Flag","Weather"
"-64.48","48.78","GASPE A","7052601","2019-03-01 00:00","2019","03","01","00:00","-12.6","","-19.7","","56","","","","27","","26","","24.1","","100.92","","","","-22","","NA"
"-64.48","48.78","GASPE A","7052601","2019-03-01 01:00","2019","03","01","01:00","-12.4","","-19.4","","57","","","","27","","23","","24.1","","100.96","","","","-21","","Clear"
"-64.48","48.78","GASPE A","7052601","2019-03-01 02:00","2019","03","01","02:00","-11.8","","-20.1","","51","","","","29","","27","","24.1","","101.03","","","","-21","","NA"
"-64.48","48.78","GASPE A","7052601","2019-03-01 03:00","2019","03","01","03:00","-12.5","","-19.0","","59","","","","28","","26","","24.1","","101.13","","","","-22","","NA"
"-64.48","48.78","GASPE A","7052601","2019-03-01 04:00","2019","03","01","04:00","-12.8","","-19.8","","57","","","","28","","20","","24.1","","101.22","","","","-21","","Clear"
"-64.48","48.78","GASPE A","7052601","2019-03-01 05:00","2019","03","01","05:00","-12.5","","-19.9","","55","","","","28","","20","","24.1","","101.26","","","","-21","","NA"
"-64.48","48.78","GASPE A","7052601","2019-03-01 06:00","2019","03","01","06:00","-13.0","","-20.2","","55","","","","27","","22","","24.1","","101.32","","","","-22","","NA"
"-64.48","48.78","GASPE A","7052601","2019-03-01 07:00","2019","03","01","07:00","-11.2","","-19.6","","50","","","","28","","26","","24.1","","101.36","","","","-20","","Clear"
"-64.48","48.78","GASPE A","7052601","2019-03-01 08:00","2019","03","01","08:00","-9.2","","-18.7","","46","","","","27","","30","","24.1","","101.40","","","","-18","","NA"
"-64.48","48.78","GASPE A","7052601","2019-03-01 09:00","2019","03","01","09:00","-7.1","","-18.0","","42","","","","28","","27","","24.1","","101.41","","","","-15","","NA"
"-64.48","48.78","GASPE A","7052601","2019-03-01 10:00","2019","03","01","10:00","-5.2","","-16.9","","40","","","","31","","26","","24.1","","101.39","","","","-13","","Clear"
"-64.48","48.78","GASPE A","7052601","2019-03-01 11:00","2019","03","01","11:00","-4.3","","-16.4","","39","","","","29","","40","","24.1","","101.39","","","","-13","","Blowing Snow"
"-64.48","48.78","GASPE A","7052601","2019-03-01 12:00","2019","03","01","12:00","-4.2","","-15.2","","43","","","","28","","37","","24.1","","101.39","","","","-13","","Blowing Snow"
"-64.48","48.78","GASPE A","7052601","2019-03-01 13:00","2019","03","01","13:00","-3.2","","-15.2","","39","","","","31","","25","","24.1","","101.38","","","","-10","","Blowing Snow"
"-64.48","48.78","GASPE A","7052601","2019-03-01 14:00","2019","03","01","14:00","-2.9","","-15.3","","38","","","","29","","18","","24.1","","101.38","","","","-9","","Blowing Snow"
"-64.48","48.78","GASPE A","7052601","2019-03-01 15:00","2019","03","01","15:00","-3.8","","-14.4","","44","","","","27","","25","","24.1","","101.38","","","","-11","","Blowing Snow"
"-64.48","48.78","GASPE A","7052601","2019-03-01 16:00","2019","03","01","16:00","-4.2","","-14.8","","44","","","","27","","28","","24.1","","101.43","","","","-12","","Blowing Snow"
"-64.48","48.78","GASPE A","7052601","2019-03-01 17:00","2019","03","01","17:00","-4.7","","-15.4","","44","","","","29","","18","","24.1","","101.49","","","","-11","","NA"
"-64.48","48.78","GASPE A","7052601","2019-03-01 18:00","2019","03","01","18:00","-6.0","","-14.9","","49","","","","27","","21","","24.1","","101.56","","","","-13","","NA"
"-64.48","48.78","GASPE A","7052601","2019-03-01 19:00","2019","03","01","19:00","-7.5","","-15.0","","55","","","","28","","13","","24.1","","101.60","","","","-13","","Clear"
"-64.48","48.78","GASPE A","7052601","2019-03-01 20:00","2019","03","01","20:00","-7.7","","-14.7","","57","","","","28","","18","","24.1","","101.63","","","","-15","","NA"
"-64.48","48.78","GASPE A","7052601","2019-03-01 21:00","2019","03","01","21:00","-8.4","","-14.9","","60","","","","29","","14","","24.1","","101.65","","","","-15","","NA"
"-64.48","48.78","GASPE A","7052601","2019-03-01 22:00","2019","03","01","22:00","-8.4","","-14.8","","60","","","","28","","16","","24.1","","101.66","","","","-15","","Clear"
"-64.48","48.78","GASPE A","7052601","2019-03-01 23:00","2019","03","01","23:00","-8.4","","-14.9","","60","","","","28","","18","","24.1","","101.65","","","","-15","","NA"
"-64.48","48.78","GASPE A","7052601","2019-03-02 00:00","2019","03","02","00:00","-9.1","","-15.1","","62","","","","29","","16","","24.1","","101.66","","","","-16","","NA"
"-64.48","48.78","GASPE A","7052601","2019-03-02 01:00","2019","03","02","01:00","-9.7","","-15.4","","64","","","","30","","10","","24.1","","101.67","","","","-15","","Clear"
"-64.48","48.78","GASPE A","7052601","2019-03-02 02:00","2019","03","02","02:00","-13.8","","-17.2","","76","","","","15","","3","","24.1","","101.71","","","","-16","","NA"
"-64.48","48.78","GASPE A","7052601","2019-03-02 03:00","2019","03","02","03:00","-15.5","","-17.9","","82","","","","25","","4","","24.1","","101.72","","","","-18","","NA"
"-64.48","48.78","GASPE A","7052601","2019-03-02 04:00","2019","03","02","04:00","-16.5","","-18.9","","82","","","","36","","2","","24.1","","101.73","","","","-18","","Clear"
"-64.48","48.78","GASPE A","7052601","2019-03-02 05:00","2019","03","02","05:00","-17.7","","-19.8","","84","","","","26","","6","","24.1","","101.75","","","","-22","","NA"
"-64.48","48.78","GASPE A","7052601","2019-03-02 06:00","2019","03","02","06:00","-18.1","","-20.0","","85","","","","31","","4","","24.1","","101.76","","","","-21","","NA"
"-64.48","48.78","GASPE A","7052601","2019-03-02 07:00","2019","03","02","07:00","-15.5","","-17.9","","82","","","","0","","1","","24.1","","101.81","","","","-16","","Clear"
"-64.48","48.78","GASPE A","7052601","2019-03-02 08:00","2019","03","02","08:00","-10.6","","-15.7","","67","","","","27","","15","","24.1","","101.81","","","","-17","","NA"
"-64.48","48.78","GASPE A","7052601","2019-03-02 09:00","2019","03","02","09:00","-6.5","","-13.6","","58","","","","25","","22","","24.1","","101.80","","","","-14","","NA"
"-64.48","48.78","GASPE A","7052601","2019-03-02 10:00","2019","03","02","10:00","-5.0","","-14.4","","48","","","","31","","15","","24.1","","101.78","","","","-11","","Mainly Clear"
"-64.48","48.78","GASPE A","7052601","2019-03-02 11:00","2019","03","02","11:00","-4.1","","-15.1","","42","","","","29","","12","","24.1","","101.75","","","","-9","","NA"
"-64.48","48.78","GASPE A","7052601","2019-03-02 12:00","2019","03","02","12:00","-3.2","","-14.8","","41","","","","26","","21","","24.1","","101.64","","","","-9","","NA"
"-64.48","48.78","GASPE A","7052601","2019-03-02 13:00","2019","03","02","13:00","-2.4","","-16.0","","35","","","","27","","21","","24.1","","101.57","","","","-8","","Clear"
"-64.48","48.78","GASPE A","7052601","2019-03-02 14:00","2019","03","02","14:00","-1.8","","-18.2","","28","","","","30","","18","","24.1","","101.49","","","","-7","","NA"
"-64.48","48.78","GASPE A","7052601","2019-03-02 15:00","2019","03","02","15:00","-2.0","","-17.0","","31","","","","30","","17","","24.1","","101.48","","","","-7","","NA"
"-64.48","48.78","GASPE A","7052601","2019-03-02 16:00","2019","03","02","16:00","-2.9","","-18.1","","30","","","","34","","16","","24.1","","101.44","","","","-8","","Mainly Clear"
"-64.48","48.78","GASPE A","7052601","2019-03-02 17:00","2019","03","02","17:00","-4.5","","-20.0","","29","","","","31","","14","","24.1","","101.44","","","","-10","","NA"
"-64.48","48.78","GASPE A","7052601","2019-03-02 18:00","2019","03","02","18:00","-6.1","","-19.3","","35","","","","30","","5","","24.1","","101.43","","","","-9","","NA"
"-64.48","48.78","GASPE A","7052601","2019-03-02 19:00","2019","03","02","19:00","-8.9","","-18.7","","45","","","","26","","5","","24.1","","101.41","","","","-12","","Clear"
"-64.48","48.78","GASPE A","7052601","2019-03-02 20:00","2019","03","02","20:00","-11.7","","-19.2","","54","","","","23","","5","","24.1","","101.34","","","","-15","","NA"
"-64.48","48.78","GASPE A","7052601","2019-03-02 21:00","2019","03","02","21:00","-10.4","","-17.4","","57","","","","29","","10","","24.1","","101.29","","","","-16","","NA"
"-64.48","48.78","GASPE A","7052601","2019-03-02 22:00","2019","03","02","22:00","-9.8","","-17.7","","53","","","","31","","10","","24.1","","101.27","","","","-15","","Mostly Cloudy"
"-64.48","48.78","GASPE A","7052601","2019-03-02 23:00","2019","03","02","23:00","-12.2","","-17.8","","64","","","","27","","7","","24.1","","101.23","","","","-17","","NA"
"-64.48","48.78","GASPE A","7052601","2019-03-03 00:00","2019","03","03","00:00","-11.2","","-17.0","","63","","","","30","","8","","24.1","","101.19","","","","-16","","NA"
"-64.48","48.78","GASPE A","7052601","2019-03-03 01:00","2019","03","03","01:00","-11.6","","-17.7","","61","","","","31","","5","","24.1","","101.14","","","","-15","","Mostly Cloudy"
"-64.48","48.78","GASPE A","7052601","2019-03-03 02:00","2019","03","03","02:00","-11.5","","-16.5","","67","","","","29","","9","","24.1","","101.07","","","","-17","","NA"
"-64.48","48.78","GASPE A","7052601","2019-03-03 03:00","2019","03","03","03:00","-12.0","","-16.2","","71","","","","36","","2","","24.1","","101.04","","","","-13","","NA"
"-64.48","48.78","GASPE A","7052601","2019-03-03 04:00","2019","03","03","04:00","-11.0","","-15.7","","69","","","","28","","4","","24.1","","101.00","","","","-13","","Cloudy"
"-64.48","48.78","GASPE A","7052601","2019-03-03 05:00","2019","03","03","05:00","-11.6","","-15.3","","75","","","","26","","6","","24.1","","101.01","","","","-15","","NA"
"-64.48","48.78","GASPE A","7052601","2019-03-03 06:00","2019","03","03","06:00","-11.2","","-14.7","","75","","","","28","","8","","24.1","","101.03","","","","-16","","NA"
"-64.48","48.78","GASPE A","7052601","2019-03-03 07:00","2019","03","03","07:00","-10.2","","-14.1","","73","","","","36","","1","","24.1","","101.06","","","","-11","","Cloudy"
"-64.48","48.78","GASPE A","7052601","2019-03-03 08:00","2019","03","03","08:00","-8.2","","-13.3","","67","","","","26","","13","","24.1","","101.11","","","","-14","","NA"
"-64.48","48.78","GASPE A","7052601","2019-03-03 09:00","2019","03","03","09:00","-5.8","","-13.1","","57","","","","32","","21","","24.1","","101.13","","","","-13","","NA"
"-64.48","48.78","GASPE A","7052601","2019-03-03 10:00","2019","03","03","10:00","-5.6","","-13.9","","52","","","","29","","15","","24.1","","101.14","","","","-11","","Cloudy"
"-64.48","48.78","GASPE A","7052601","2019-03-03 11:00","2019","03","03","11:00","-4.8","","-14.0","","49","","","","33","","16","","24.1","","101.12","","","","-11","","NA"
"-64.48","48.78","GASPE A","7052601","2019-03-03 12:00","2019","03","03","12:00","-4.2","","-14.7","","44","","","","33","","13","","24.1","","101.07","","","","-9","","NA"
"-64.48","48.78","GASPE A","7052601","2019-03-03 13:00","2019","03","03","13:00","-3.6","","-15.3","","40","","","","33","","14","","24.1","","101.07","","","","-9","","Cloudy"
"-64.48","48.78","GASPE A","7052601","2019-03-03 14:00","2019","03","03","14:00","-3.5","","-15.3","","40","","","","28","","16","","24.1","","101.10","","","","-9","","NA"
"-64.48","48.78","GASPE A","7052601","2019-03-03 15:00","2019","03","03","15:00","-3.0","","-14.1","","42","","","","26","","20","","24.1","","101.14","","","","-9","","NA"
"-64.48","48.78","GASPE A","7052601","2019-03-03 16:00","2019","03","03","16:00","-2.9","","-14.9","","39","","","","31","","12","","24.1","","101.11","","","","-7","","Mainly Clear"
"-64.48","48.78","GASPE A","7052601","2019-03-03 17:00","2019","03","03","17:00","-4.9","","-12.9","","54","","","","8","","12","","24.1","","101.14","","","","-10","","NA"
"-64.48","48.78","GASPE A","7052601","2019-03-03 18:00","2019","03","03","18:00","-7.3","","-12.1","","69","","","","36","","1","","24.1","","101.24","","","","-8","","NA"
"-64.48","48.78","GASPE A","7052601","2019-03-03 19:00","2019","03","03","19:00","-10.7","","-13.4","","80","","","","33","","3","","24.1","","101.34","","","","-13","","Clear"
"-64.48","48.78","GASPE A","7052601","2019-03-03 20:00","2019","03","03","20:00","-13.6","","-15.7","","84","","","","27","","6","","24.1","","101.36","","","","-18","","NA"
"-64.48","48.78","GASPE A","7052601","2019-03-03 21:00","2019","03","03","21:00","-15.2","","-17.7","","81","","","","23","","5","","24.1","","101.36","","","","-19","","NA"
"-64.48","48.78","GASPE A","7052601","2019-03-03 22:00","2019","03","03","22:00","-15.3","","-17.1","","86","","","","0","","1","","24.1","","101.44","","","","-16","","Clear"
"-64.48","48.78","GASPE A","7052601","2019-03-03 23:00","2019","03","03","23:00","-15.8","","-17.6","","86","","","","25","","7","","24.1","","101.45","","","","-21","","NA"
"-64.48","48.78","GASPE A","7052601","2019-03-04 00:00","2019","03","04","00:00","-14.2","","-15.9","","87","","","","2","","4","","24.1","","101.49","","","","-17","","NA"
"-64.48","48.78","GASPE A","7052601","2019-03-04 01:00","2019","03","04","01:00","-16.2","","-18.3","","84","","","","25","","4","","24.1","","101.51","","","","-19","","Mostly Cloudy"
"-64.48","48.78","GASPE A","7052601","2019-03-04 02:00","2019","03","04","02:00","-14.7","","-16.8","","84","","","","30","","7","","24.1","","101.39","","","","-19","","NA"
"-64.48","48.78","GASPE A","7052601","2019-03-04 03:00","2019","03","04","03:00","-14.7","","-16.9","","83","","","","28","","5","","24.1","","101.35","","","","-18","","NA"
"-64.48","48.78","GASPE A","7052601","2019-03-04 04:00","2019","03","04","04:00","-14.4","","-16.9","","82","","","","36","","2","","24.1","","101.32","","","","-16","","Cloudy"
"-64.48","48.78","GASPE A","7052601","2019-03-04 05:00","2019","03","04","05:00","-14.0","","-16.5","","81","","","","24","","4","","24.1","","101.31","","","","-17","","NA"
"-64.48","48.78","GASPE A","7052601","2019-03-04 06:00","2019","03","04","06:00","-14.0","","-16.3","","83","","","","31","","4","","24.1","","101.27","","","","-17","","NA"
"-64.48","48.78","GASPE A","7052601","2019-03-04 07:00","2019","03","04","07:00","-13.4","","-16.2","","80","","","","36","","1","","24.1","","101.25","","","","-14","","Cloudy"
"-64.48","48.78","GASPE A","7052601","2019-03-04 08:00","2019","03","04","08:00","-11.9","","-15.1","","78","","","","36","","1","","24.1","","101.15","","","","-13","","NA"
"-64.48","48.78","GASPE A","7052601","2019-03-04 09:00","2019","03","04","09:00","-9.7","","-13.4","","75","","","","36","","1","","24.1","","101.01","","","","-10","","NA"
"-64.48","48.78","GASPE A","7052601","2019-03-04 10:00","2019","03","04","10:00","-8.3","","-10.7","","83","","","","36","","2","","4.8","","100.89","","","","-9","","Snow"
"-64.48","48.78","GASPE A","7052601","2019-03-04 11:00","2019","03","04","11:00","-7.3","","-8.9","","88","","","","24","","3","","1.6","","100.82","","","","-9","","Snow"
"-64.48","48.78","GASPE A","7052601","2019-03-04 12:00","2019","03","04","12:00","-4.6","","-6.0","","90","","","","8","","17","","1.2","","100.64","","","","-10","","Snow"
"-64.48","48.78","GASPE A","7052601","2019-03-04 13:00","2019","03","04","13:00","-5.0","","-6.2","","91","","","","7","","14","","1.2","","100.49","","","","-10","","Snow"
"-64.48","48.78","GASPE A","7052601","2019-03-04 14:00","2019","03","04","14:00","-5.4","","-6.6","","91","","","","8","","19","","1.0","","100.35","","","","-12","","Snow"
"-64.48","48.78","GASPE A","7052601","2019-03-04 15:00","2019","03","04","15:00","-5.8","","-7.2","","90","","","","8","","22","","0.6","","100.23","","","","-13","","Moderate Snow"
"-64.48","48.78","GASPE A","7052601","2019-03-04 16:00","2019","03","04","16:00","-6.3","","-7.8","","89","","","","9","","16","","1.0","","100.09","","","","-12","","Snow"
"-64.48","48.78","GASPE A","7052601","2019-03-04 17:00","2019","03","04","17:00","-6.6","","-7.9","","91","","","","36","","2","","1.0","","99.91","","","","-8","","Snow"
"-64.48","48.78","GASPE A","7052601","2019-03-04 18:00","2019","03","04","18:00","-6.2","","-7.3","","92","","","","7","","9","","1.0","","99.84","","","","-10","","Snow"
"-64.48","48.78","GASPE A","7052601","2019-03-04 19:00","2019","03","04","19:00","-6.1","","-7.7","","88","","","","6","","9","","1.0","","99.74","","","","-10","","Snow"
"-64.48","48.78","GASPE A","7052601","2019-03-04 20:00","2019","03","04","20:00","-6.3","","-8.0","","87","","","","5","","7","","1.0","","99.62","","","","-10","","Snow"
"-64.48","48.78","GASPE A","7052601","2019-03-04 21:00","2019","03","04","21:00","-6.4","","-8.2","","87","","","","33","","6","","1.0","","99.53","","","","-9","","Snow"
"-64.48","48.78","GASPE A","7052601","2019-03-04 22:00","2019","03","04","22:00","-6.6","","-8.2","","89","","","","29","","5","","1.0","","99.49","","","","-9","","Snow"
"-64.48","48.78","GASPE A","7052601","2019-03-04 23:00","2019","03","04","23:00","-6.6","","-8.3","","88","","","","30","","10","","1.0","","99.38","","","","-11","","Snow"
"-64.48","48.78","GASPE A","7052601","2019-03-05 00:00","2019","03","05","00:00","-7.5","","-9.1","","89","","","","28","","9","","1.0","","99.37","","","","-12","","Snow"
"-64.48","48.78","GASPE A","7052601","2019-03-05 01:00","2019","03","05","01:00","-8.2","","-9.8","","88","","","","29","","10","","12.9","","99.39","","","","-13","","Snow"
"-64.48","48.78","GASPE A","7052601","2019-03-05 02:00","2019","03","05","02:00","-8.6","","-10.8","","84","","","","29","","14","","16.1","","99.41","","","","-15","","NA"
"-64.48","48.78","GASPE A","7052601","2019-03-05 03:00","2019","03","05","03:00","-8.8","","-11.3","","82","","","","30","","10","","16.1","","99.42","","","","-14","","NA"
"-64.48","48.78","GASPE A","7052601","2019-03-05 04:00","2019","03","05","04:00","-11.0","","-13.3","","83","","","","31","","6","","16.1","","99.43","","","","-15","","Mainly Clear"
"-64.48","48.78","GASPE A","7052601","2019-03-05 05:00","2019","03","05","05:00","-13.4","","-15.1","","87","","","","27","","4","","16.1","","99.45","","","","-16","","NA"
"-64.48","48.78","GASPE A","7052601","2019-03-05 06:00","2019","03","05","06:00","-10.2","","-11.9","","87","","","","30","","10","","16.1","","99.46","","","","-15","","NA"
"-64.48","48.78","GASPE A","7052601","2019-03-05 07:00","2019","03","05","07:00","-9.2","","-11.9","","81","","","","31","","14","","24.1","","99.52","","","","-16","","Mainly Clear"
"-64.48","48.78","GASPE A","7052601","2019-03-05 08:00","2019","03","05","08:00","-6.3","","-9.9","","76","","","","30","","10","","24.1","","99.58","","","","-11","","NA"
"-64.48","48.78","GASPE A","7052601","2019-03-05 09:00","2019","03","05","09:00","-5.1","","-9.8","","70","","","","28","","9","","24.1","","99.62","","","","-9","","NA"
"-64.48","48.78","GASPE A","7052601","2019-03-05 10:00","2019","03","05","10:00","-3.7","","-9.6","","64","","","","26","","25","","24.1","","99.65","","","","-11","","Blowing Snow"
"-64.48","48.78","GASPE A","7052601","2019-03-05 11:00","2019","03","05","11:00","-4.6","","-11.4","","59","","","","27","","30","","24.1","","99.73","","","","-12","","Blowing Snow"
"-64.48","48.78","GASPE A","7052601","2019-03-05 12:00","2019","03","05","12:00","-4.7","","-12.7","","54","","","","28","","28","","24.1","","99.77","","","","-12","","Blowing Snow"
"-64.48","48.78","GASPE A","7052601","2019-03-05 13:00","2019","03","05","13:00","-5.5","","-13.3","","54","","","","26","","30","","24.1","","99.83","","","","-14","","Blowing Snow"
"-64.48","48.78","GASPE A","7052601","2019-03-05 14:00","2019","03","05","14:00","-5.5","","-13.9","","52","","","","25","","39","","24.1","","99.94","","","","-15","","Blowing Snow"
"-64.48","48.78","GASPE A","7052601","2019-03-05 15:00","2019","03","05","15:00","-5.7","","-16.2","","44","","","","28","","30","","24.1","","100.02","","","","-14","","Blowing Snow"
"-64.48","48.78","GASPE A","7052601","2019-03-05 16:00","2019","03","05","16:00","-6.7","","-16.2","","47","","","","27","","23","","24.1","","100.06","","","","-14","","Mainly Clear"
"-64.48","48.78","GASPE A","7052601","2019-03-05 17:00","2019","03","05","17:00","-7.7","","-17.6","","46","","","","27","","11","","24.1","","100.17","","","","-13","","NA"
"-64.48","48.78","GASPE A","7052601","2019-03-05 18:00","2019","03","05","18:00","-10.3","","-18.0","","54","","","","27","","24","","24.1","","100.34","","","","-19","","NA"
"-64.48","48.78","GASPE A","7052601","2019-03-05 19:00","2019","03","05","19:00","-11.6","","-17.2","","63","","","","28","","9","","24.1","","100.45","","","","-17","","Clear"
"-64.48","48.78","GASPE A","7052601","2019-03-05 20:00","2019","03","05","20:00","-12.5","","-18.5","","62","","","","28","","6","","24.1","","100.49","","","","-16","","NA"
"-64.48","48.78","GASPE A","7052601","2019-03-05 21:00","2019","03","05","21:00","-14.8","","-18.9","","71","","","","30","","7","","24.1","","100.55","","","","-20","","NA"
"-64.48","48.78","GASPE A","7052601","2019-03-05 22:00","2019","03","05","22:00","-14.5","","-19.3","","67","","","","26","","8","","24.1","","100.53","","","","-20","","Clear"
"-64.48","48.78","GASPE A","7052601","2019-03-05 23:00","2019","03","05","23:00","-16.5","","-19.6","","78","","","","29","","7","","24.1","","100.51","","","","-22","","NA"
"-64.48","48.78","GASPE A","7052601","2019-03-06 00:00","2019","03","06","00:00","-16.7","","-19.6","","78","","","","31","","9","","24.1","","100.51","","","","-23","","NA"
"-64.48","48.78","GASPE A","7052601","2019-03-06 01:00","2019","03","06","01:00","-18.4","","-20.8","","82","","","","24","","3","","24.1","","100.51","","","","-21","","Mostly Cloudy"
"-64.48","48.78","GASPE A","7052601","2019-03-06 02:00","2019","03","06","02:00","-18.1","","-20.6","","81","","","","36","","1","","24.1","","100.44","","","","-19","","NA"
"-64.48","48.78","GASPE A","7052601","2019-03-06 03:00","2019","03","06","03:00","-18.9","","-22.2","","76","","","","29","","7","","24.1","","100.38","","","","-24","","NA"
"-64.48","48.78","GASPE A","7052601","2019-03-06 04:00","2019","03","06","04:00","-20.4","","-22.5","","84","","","","36","","1","","24.1","","100.38","","","","-21","","Mainly Clear"
"-64.48","48.78","GASPE A","7052601","2019-03-06 05:00","2019","03","06","05:00","-21.8","","-24.2","","81","","","","26","","7","","24.1","","100.35","","","","-28","","NA"
"-64.48","48.78","GASPE A","7052601","2019-03-06 06:00","2019","03","06","06:00","-21.6","","-23.8","","83","","","","26","","8","","24.1","","100.31","","","","-28","","NA"
"-64.48","48.78","GASPE A","7052601","2019-03-06 07:00","2019","03","06","07:00","-19.7","","-22.4","","79","","","","25","","6","","24.1","","100.32","","","","-25","","Mainly Clear"
"-64.48","48.78","GASPE A","7052601","2019-03-06 08:00","2019","03","06","08:00","-14.9","","-19.1","","71","","","","25","","8","","24.1","","100.32","","","","-20","","NA"
"-64.48","48.78","GASPE A","7052601","2019-03-06 09:00","2019","03","06","09:00","-10.1","","-17.9","","53","","","","25","","12","","24.1","","100.29","","","","-16","","NA"
"-64.48","48.78","GASPE A","7052601","2019-03-06 10:00","2019","03","06","10:00","-8.8","","-18.6","","46","","","","26","","10","","24.1","","100.19","","","","-14","","Mainly Clear"
"-64.48","48.78","GASPE A","7052601","2019-03-06 11:00","2019","03","06","11:00","-8.9","","-20.7","","38","","","","27","","21","","24.1","","100.14","","","","-17","","NA"
"-64.48","48.78","GASPE A","7052601","2019-03-06 12:00","2019","03","06","12:00","-8.2","","-19.3","","41","","","","26","","13","","24.1","","100.07","","","","-14","","NA"
"-64.48","48.78","GASPE A","7052601","2019-03-06 13:00","2019","03","06","13:00","-8.2","","-16.5","","52","","","","33","","20","","16.1","","100.01","","","","-16","","Mostly Cloudy"
"-64.48","48.78","GASPE A","7052601","2019-03-06 14:00","2019","03","06","14:00","-10.1","","-14.9","","68","","","","35","","14","","4.8","","100.03","","","","-17","","Snow Showers"
"-64.48","48.78","GASPE A","7052601","2019-03-06 15:00","2019","03","06","15:00","-10.1","","-15.6","","64","","","","34","","15","","4.0","","100.03","","","","-17","","Snow Showers"
"-64.48","48.78","GASPE A","7052601","2019-03-06 16:00","2019","03","06","16:00","-10.3","","-17.3","","57","","","","29","","14","","24.1","","100.06","","","","-17","","Snow Showers"
"-64.48","48.78","GASPE A","7052601","2019-03-06 17:00","2019","03","06","17:00","-11.4","","-21.0","","45","","","","31","","16","","24.1","","100.08","","","","-19","","NA"
"-64.48","48.78","GASPE A","7052601","2019-03-06 18:00","2019","03","06","18:00","-13.3","","-21.3","","52","","","","28","","13","","24.1","","100.16","","","","-20","","NA"
"-64.48","48.78","GASPE A","7052601","2019-03-06 19:00","2019","03","06","19:00","-15.1","","-20.6","","63","","","","29","","12","","24.1","","100.18","","","","-22","","Clear"
"-64.48","48.78","GASPE A","7052601","2019-03-06 20:00","2019","03","06","20:00","-15.8","","-20.6","","67","","","","29","","11","","24.1","","100.20","","","","-23","","NA"
"-64.48","48.78","GASPE A","7052601","2019-03-06 21:00","2019","03","06","21:00","-14.7","","-19.4","","68","","","","29","","12","","24.1","","100.19","","","","-22","","NA"
"-64.48","48.78","GASPE A","7052601","2019-03-06 22:00","2019","03","06","22:00","-14.9","","-19.4","","69","","","","28","","15","","16.1","","100.18","","","","-23","","Snow"
"-64.48","48.78","GASPE A","7052601","2019-03-06 23:00","2019","03","06","23:00","-15.7","","-19.3","","74","","","","28","","14","","24.1","","100.17","","","","-23","","NA"
"-64.48","48.78","GASPE A","7052601","2019-03-07 00:00","2019","03","07","00:00","-15.9","","-19.1","","76","","","","28","","17","","24.1","","100.20","","","","-25","","NA"
"-64.48","48.78","GASPE A","7052601","2019-03-07 01:00","2019","03","07","01:00","-15.7","","-19.9","","71","","","","28","","16","","24.1","","100.23","","","","-24","","Mainly Clear"
"-64.48","48.78","GASPE A","7052601","2019-03-07 02:00","2019","03","07","02:00","-16.6","","-20.6","","71","","","","28","","13","","24.1","","100.24","","","","-24","","NA"
"-64.48","48.78","GASPE A","7052601","2019-03-07 03:00","2019","03","07","03:00","-17.1","","-22.1","","65","","","","29","","10","","24.1","","100.29","","","","-24","","NA"
"-64.48","48.78","GASPE A","7052601","2019-03-07 04:00","2019","03","07","04:00","-17.0","","-22.4","","64","","","","28","","16","","24.1","","100.34","","","","-26","","Mainly Clear"
"-64.48","48.78","GASPE A","7052601","2019-03-07 05:00","2019","03","07","05:00","-17.2","","-23.0","","61","","","","27","","18","","24.1","","100.37","","","","-26","","NA"
"-64.48","48.78","GASPE A","7052601","2019-03-07 06:00","2019","03","07","06:00","-17.5","","-23.4","","61","","","","28","","19","","24.1","","100.41","","","","-27","","NA"
"-64.48","48.78","GASPE A","7052601","2019-03-07 07:00","2019","03","07","07:00","-16.4","","-22.7","","59","","","","27","","22","","24.1","","100.47","","","","-26","","Mainly Clear"
"-64.48","48.78","GASPE A","7052601","2019-03-07 08:00","2019","03","07","08:00","-14.7","","-21.2","","58","","","","27","","28","","24.1","","100.51","","","","-25","","Blowing Snow"
"-64.48","48.78","GASPE A","7052601","2019-03-07 09:00","2019","03","07","09:00","-13.3","","-21.3","","52","","","","29","","28","","24.1","","100.53","","","","-24","","Blowing Snow"
"-64.48","48.78","GASPE A","7052601","2019-03-07 10:00","2019","03","07","10:00","-12.6","","-22.2","","45","","","","28","","23","","24.1","","100.56","","","","-22","","Blowing Snow"
"-64.48","48.78","GASPE A","7052601","2019-03-07 11:00","2019","03","07","11:00","-12.2","","-22.8","","42","","","","28","","36","","24.1","","100.58","","","","-23","","Blowing Snow"
"-64.48","48.78","GASPE A","7052601","2019-03-07 12:00","2019","03","07","12:00","-11.9","","-22.3","","43","","","","27","","22","","24.1","","100.57","","","","-21","","Blowing Snow"
"-64.48","48.78","GASPE A","7052601","2019-03-07 13:00","2019","03","07","13:00","-10.7","","-21.9","","40","","","","29","","28","","24.1","","100.54","","","","-20","","Blowing Snow"
"-64.48","48.78","GASPE A","7052601","2019-03-07 14:00","2019","03","07","14:00","-10.6","","-22.6","","37","","","","28","","29","","24.1","","100.55","","","","-20","","Blowing Snow"
"-64.48","48.78","GASPE A","7052601","2019-03-07 15:00","2019","03","07","15:00","-10.8","","-22.8","","37","","","","27","","32","","24.1","","100.56","","","","-21","","NA"
"-64.48","48.78","GASPE A","7052601","2019-03-07 16:00","2019","03","07","16:00","-11.6","","-22.0","","42","","","","27","","25","","24.1","","100.61","","","","-21","","Mainly Clear"
"-64.48","48.78","GASPE A","7052601","2019-03-07 17:00","2019","03","07","17:00","-12.5","","-22.9","","42","","","","28","","17","","24.1","","100.72","","","","-20","","NA"
"-64.48","48.78","GASPE A","7052601","2019-03-07 18:00","2019","03","07","18:00","-13.5","","-22.7","","47","","","","28","","18","","24.1","","100.84","","","","-22","","NA"
"-64.48","48.78","GASPE A","7052601","2019-03-07 19:00","2019","03","07","19:00","-15.1","","-22.9","","52","","","","27","","14","","24.1","","100.88","","","","-23","","Clear"
"-64.48","48.78","GASPE A","7052601","2019-03-07 20:00","2019","03","07","20:00","-15.3","","-22.4","","55","","","","27","","18","","24.1","","100.91","","","","-24","","NA"
"-64.48","48.78","GASPE A","7052601","2019-03-07 21:00","2019","03","07","21:00"
"-64.48","48.78","GASPE A","7052601","2019-03-07 22:00","2019","03","07","22:00","-15.6","","-21.6","","60","","","","29","","17","","24.1","","101.00","","","","-24","","Clear"
"-64.48","48.78","GASPE A","7052601","2019-03-07 23:00","2019","03","07","23:00","-16.6","","-21.9","","64","","","","30","","15","","24.1","","101.02","","","","-25","","NA"
"-64.48","48.78","GASPE A","7052601","2019-03-08 00:00","2019","03","08","00:00","-17.8","","-22.3","","68","","","","31","","11","","24.1","","101.05","","","","-25","","NA"
"-64.48","48.78","GASPE A","7052601","2019-03-08 01:00","2019","03","08","01:00","-17.3","","-22.2","","66","","","","30","","13","","24.1","","101.07","","","","-25","","Mainly Clear"
"-64.48","48.78","GASPE A","7052601","2019-03-08 02:00","2019","03","08","02:00","-20.1","","-23.4","","76","","","","36","","1","","24.1","","101.09","","","","-21","","NA"
"-64.48","48.78","GASPE A","7052601","2019-03-08 03:00","2019","03","08","03:00","-22.9","","-25.7","","79","","","","36","","1","","24.1","","101.06","","","","-24","","NA"
"-64.48","48.78","GASPE A","7052601","2019-03-08 04:00","2019","03","08","04:00","-23.0","","-25.8","","78","","","","36","","4","","24.1","","101.07","","","","-27","","Clear"
"-64.48","48.78","GASPE A","7052601","2019-03-08 05:00","2019","03","08","05:00","-22.5","","-25.6","","76","","","","36","","2","","24.1","","101.09","","","","-24","","NA"
"-64.48","48.78","GASPE A","7052601","2019-03-08 06:00","2019","03","08","06:00","-20.7","","-24.3","","73","","","","30","","5","","24.1","","101.12","","","","-25","","NA"
"-64.48","48.78","GASPE A","7052601","2019-03-08 07:00","2019","03","08","07:00","-16.2","","-21.9","","62","","","","29","","14","","24.1","","101.17","","","","-24","","Mainly Clear"
"-64.48","48.78","GASPE A","7052601","2019-03-08 08:00","2019","03","08","08:00","-14.1","","-21.3","","55","","","","26","","15","","24.1","","101.18","","","","-22","","NA"
"-64.48","48.78","GASPE A","7052601","2019-03-08 09:00","2019","03","08","09:00","-11.9","","-20.6","","49","","","","25","","26","","24.1","","101.13","","","","-21","","NA"
"-64.48","48.78","GASPE A","7052601","2019-03-08 10:00","2019","03","08","10:00","-10.1","","-19.7","","46","","","","25","","25","","24.1","","101.10","","","","-19","","Mainly Clear"
"-64.48","48.78","GASPE A","7052601","2019-03-08 11:00","2019","03","08","11:00","-9.2","","-18.6","","47","","","","26","","24","","24.1","","101.01","","","","-18","","NA"
"-64.48","48.78","GASPE A","7052601","2019-03-08 12:00","2019","03","08","12:00","-7.0","","-17.2","","44","","","","25","","28","","24.1","","100.90","","","","-15","","NA"
"-64.48","48.78","GASPE A","7052601","2019-03-08 13:00","2019","03","08","13:00","-6.5","","-16.5","","46","","","","25","","26","","24.1","","100.85","","","","-14","","Mostly Cloudy"
"-64.48","48.78","GASPE A","7052601","2019-03-08 14:00","2019","03","08","14:00","-6.3","","-15.0","","51","","","","23","","29","","24.1","","100.82","","","","-15","","NA"
"-64.48","48.78","GASPE A","7052601","2019-03-08 15:00","2019","03","08","15:00","-5.4","","-13.6","","53","","","","24","","26","","24.1","","100.81","","","","-13","","Blowing Snow"
"-64.48","48.78","GASPE A","7052601","2019-03-08 16:00","2019","03","08","16:00","-5.9","","-12.5","","60","","","","27","","21","","24.1","","100.84","","","","-13","","Blowing Snow"
"-64.48","48.78","GASPE A","7052601","2019-03-08 17:00","2019","03","08","17:00","-6.4","","-12.7","","61","","","","24","","18","","24.1","","100.88","","","","-13","","NA"
"-64.48","48.78","GASPE A","7052601","2019-03-08 18:00","2019","03","08","18:00","-7.2","","-13.4","","62","","","","29","","9","","24.1","","100.92","","","","-12","","NA"
"-64.48","48.78","GASPE A","7052601","2019-03-08 19:00","2019","03","08","19:00","-8.1","","-13.8","","64","","","","30","","10","","24.1","","100.92","","","","-13","","Mainly Clear"
"-64.48","48.78","GASPE A","7052601","2019-03-08 20:00","2019","03","08","20:00","-9.8","","-14.3","","70","","","","19","","4","","24.1","","100.93","","","","-12","","NA"
"-64.48","48.78","GASPE A","7052601","2019-03-08 21:00","2019","03","08","21:00","-10.5","","-14.1","","75","","","","36","","1","","24.1","","100.92","","","","-11","","NA"
"-64.48","48.78","GASPE A","7052601","2019-03-08 22:00","2019","03","08","22:00","-11.7","","-14.8","","78","","","","36","","2","","24.1","","100.92","","","","-13","","Mostly Cloudy"
"-64.48","48.78","GASPE A","7052601","2019-03-08 23:00","2019","03","08","23:00","-11.2","","-14.1","","79","","","","28","","3","","24.1","","100.89","","","","-13","","NA"
"-64.48","48.78","GASPE A","7052601","2019-03-09 00:00","2019","03","09","00:00","-8.0","","-14.7","","59","","","","29","","12","","24.1","","100.88","","","","-13","","NA"
"-64.48","48.78","GASPE A","7052601","2019-03-09 01:00","2019","03","09","01:00","-10.1","","-14.9","","69","","","","34","","10","","24.1","","100.90","","","","-15","","Cloudy"
"-64.48","48.78","GASPE A","7052601","2019-03-09 02:00","2019","03","09","02:00","-12.6","","-15.9","","76","","","","33","","9","","24.1","","100.90","","","","-18","","NA"
"-64.48","48.78","GASPE A","7052601","2019-03-09 03:00","2019","03","09","03:00","-13.9","","-16.2","","83","","","","36","","2","","24.1","","100.89","","","","-15","","NA"
"-64.48","48.78","GASPE A","7052601","2019-03-09 04:00","2019","03","09","04:00","-14.2","","-16.6","","82","","","","29","","3","","24.1","","100.93","","","","-16","","Mainly Clear"
"-64.48","48.78","GASPE A","7052601","2019-03-09 05:00","2019","03","09","05:00","-15.2","","-16.9","","87","","","","","","0","","24.1","","100.96","","","","","","NA"
"-64.48","48.78","GASPE A","7052601","2019-03-09 06:00","2019","03","09","06:00","-15.7","","-17.6","","86","","","","28","","8","","24.1","","101.04","","","","-21","","NA"
"-64.48","48.78","GASPE A","7052601","2019-03-09 07:00","2019","03","09","07:00","-8.9","","-13.6","","69","","","","30","","12","","24.1","","101.13","","","","-15","","Mainly Clear"
"-64.48","48.78","GASPE A","7052601","2019-03-09 08:00","2019","03","09","08:00","-8.5","","-13.4","","68","","","","24","","18","","24.1","","101.25","","","","-16","","NA"
"-64.48","48.78","GASPE A","7052601","2019-03-09 09:00","2019","03","09","09:00","-6.9","","-11.5","","70","","","","34","","22","","6.4","","101.42","","","","-14","","Snow Showers"
"-64.48","48.78","GASPE A","7052601","2019-03-09 10:00","2019","03","09","10:00","-6.0","","-13.0","","58","","","","35","","14","","24.1","","101.55","","","","-12","","Mainly Clear"
"-64.48","48.78","GASPE A","7052601","2019-03-09 11:00","2019","03","09","11:00","-5.7","","-14.9","","49","","","","31","","23","","24.1","","101.65","","","","-13","","NA"
"-64.48","48.78","GASPE A","7052601","2019-03-09 12:00","2019","03","09","12:00","-5.5","","-17.0","","40","","","","31","","24","","24.1","","101.71","","","","-13","","NA"
"-64.48","48.78","GASPE A","7052601","2019-03-09 13:00","2019","03","09","13:00","-4.9","","-19.5","","31","","","","29","","23","","24.1","","101.74","","","","-12","","Clear"
"-64.48","48.78","GASPE A","7052601","2019-03-09 14:00","2019","03","09","14:00","-4.9","","-18.6","","34","","","","30","","28","","24.1","","101.78","","","","-13","","Blowing Snow"
"-64.48","48.78","GASPE A","7052601","2019-03-09 15:00","2019","03","09","15:00","-5.7","","-18.6","","36","","","","30","","28","","24.1","","101.92","","","","-14","","Blowing Snow"
"-64.48","48.78","GASPE A","7052601","2019-03-09 16:00","2019","03","09","16:00","-6.1","","-18.1","","39","","","","29","","21","","24.1","","101.99","","","","-13","","Blowing Snow"
"-64.48","48.78","GASPE A","7052601","2019-03-09 17:00","2019","03","09","17:00","-7.0","","-17.4","","44","","","","30","","17","","24.1","","102.11","","","","-13","","Blowing Snow"
"-64.48","48.78","GASPE A","7052601","2019-03-09 18:00","2019","03","09","18:00","-8.1","","-17.6","","47","","","","28","","17","","24.1","","102.23","","","","-15","","Blowing Snow"
"-64.48","48.78","GASPE A","7052601","2019-03-09 19:00","2019","03","09","19:00","-9.2","","-17.7","","51","","","","29","","13","","24.1","","102.34","","","","-15","","Clear"
"-64.48","48.78","GASPE A","7052601","2019-03-09 20:00","2019","03","09","20:00","-9.3","","-17.5","","52","","","","29","","14","","24.1","","102.41","","","","-16","","NA"
"-64.48","48.78","GASPE A","7052601","2019-03-09 21:00","2019","03","09","21:00","-9.0","","-17.1","","52","","","","29","","12","","24.1","","102.56","","","","-15","","NA"
"-64.48","48.78","GASPE A","7052601","2019-03-09 22:00","2019","03","09","22:00","-9.8","","-17.0","","56","","","","30","","18","","24.1","","102.61","","","","-17","","Clear"
"-64.48","48.78","GASPE A","7052601","2019-03-09 23:00","2019","03","09","23:00","-10.8","","-17.8","","57","","","","27","","14","","24.1","","102.71","","","","-17","","NA"
"-64.48","48.78","GASPE A","7052601","2019-03-10 00:00","2019","03","10","00:00","-9.2","","-16.2","","57","","","","29","","15","","24.1","","102.77","","","","-16","","NA"
"-64.48","48.78","GASPE A","7052601","2019-03-10 01:00","2019","03","10","01:00","-10.8","","-16.9","","61","","","","29","","12","","24.1","","102.89","","","","-17","","Clear"
"-64.48","48.78","GASPE A","7052601","2019-03-10 02:00","2019","03","10","02:00","-10.3","","-16.0","","64","","","","29","","15","","24.1","","102.93","","","","-17","","NA"
"-64.48","48.78","GASPE A","7052601","2019-03-10 03:00","2019","03","10","03:00","-11.5","","-16.1","","69","","","","30","","14","","24.1","","102.92","","","","-18","","NA"
"-64.48","48.78","GASPE A","7052601","2019-03-10 04:00","2019","03","10","04:00","-17.3","","-20.0","","80","","","","26","","10","","24.1","","102.92","","","","-24","","Clear"
"-64.48","48.78","GASPE A","7052601","2019-03-10 05:00","2019","03","10","05:00","-17.7","","-20.1","","82","","","","27","","11","","24.1","","102.98","","","","-25","","NA"
"-64.48","48.78","GASPE A","7052601","2019-03-10 06:00","2019","03","10","06:00","-17.8","","-19.9","","84","","","","28","","6","","24.1","","103.06","","","","-22","","NA"
"-64.48","48.78","GASPE A","7052601","2019-03-10 07:00","2019","03","10","07:00","-16.1","","-19.2","","77","","","","24","","8","","24.1","","103.10","","","","-22","","Clear"
"-64.48","48.78","GASPE A","7052601","2019-03-10 08:00","2019","03","10","08:00","-11.0","","-17.3","","60","","","","22","","5","","24.1","","103.08","","","","-14","","NA"
"-64.48","48.78","GASPE A","7052601","2019-03-10 09:00","2019","03","10","09:00","-7.8","","-16.0","","52","","","","36","","3","","24.1","","103.05","","","","-9","","NA"
"-64.48","48.78","GASPE A","7052601","2019-03-10 10:00","2019","03","10","10:00","-4.1","","-14.2","","46","","","","11","","7","","24.1","","103.01","","","","-7","","Clear"
"-64.48","48.78","GASPE A","7052601","2019-03-10 11:00","2019","03","10","11:00","-4.5","","-13.4","","50","","","","9","","18","","24.1","","102.93","","","","-11","","NA"
"-64.48","48.78","GASPE A","7052601","2019-03-10 12:00","2019","03","10","12:00","-2.7","","-10.8","","54","","","","9","","17","","24.1","","102.78","","","","-8","","NA"
"-64.48","48.78","GASPE A","7052601","2019-03-10 13:00","2019","03","10","13:00","0.2","","-13.0","","36","","","","18","","17","","24.1","","102.72","","","","","","Mainly Clear"
"-64.48","48.78","GASPE A","7052601","2019-03-10 14:00","2019","03","10","14:00","-0.7","","-13.1","","39","","","","12","","12","","24.1","","102.60","","","","-5","","NA"
"-64.48","48.78","GASPE A","7052601","2019-03-10 15:00","2019","03","10","15:00","-1.4","","-14.0","","38","","","","16","","11","","24.1","","102.56","","","","-5","","NA"
"-64.48","48.78","GASPE A","7052601","2019-03-10 16:00","2019","03","10","16:00","-3.4","","-11.5","","54","","","","14","","18","","24.1","","102.47","","","","-9","","Mostly Cloudy"
"-64.48","48.78","GASPE A","7052601","2019-03-10 17:00","2019","03","10","17:00","-4.7","","-12.2","","56","","","","16","","12","","24.1","","102.42","","","","-9","","NA"
"-64.48","48.78","GASPE A","7052601","2019-03-10 18:00","2019","03","10","18:00","-5.2","","-11.6","","61","","","","13","","16","","24.1","","102.31","","","","-11","","NA"
"-64.48","48.78","GASPE A","7052601","2019-03-10 19:00","2019","03","10","19:00","-5.7","","-9.8","","73","","","","9","","19","","24.1","","102.19","","","","-12","","Cloudy"
"-64.48","48.78","GASPE A","7052601","2019-03-10 20:00","2019","03","10","20:00","-5.5","","-9.4","","74","","","","8","","10","","24.1","","102.07","","","","-10","","NA"
"-64.48","48.78","GASPE A","7052601","2019-03-10 21:00","2019","03","10","21:00","-5.1","","-9.1","","74","","","","9","","16","","24.1","","101.98","","","","-11","","NA"
"-64.48","48.78","GASPE A","7052601","2019-03-10 22:00","2019","03","10","22:00","-4.8","","-8.7","","74","","","","7","","14","","24.1","","101.78","","","","-10","","Cloudy"
"-64.48","48.78","GASPE A","7052601","2019-03-10 23:00","2019","03","10","23:00","-4.3","","-7.6","","78","","","","7","","16","","24.1","","101.61","","","","-10","","NA"
"-64.48","48.78","GASPE A","7052601","2019-03-11 00:00","2019","03","11","00:00","-3.8","","-8.1","","72","","","","8","","14","","24.1","","101.46","","","","-9","","Snow"
"-64.48","48.78","GASPE A","7052601","2019-03-11 01:00","2019","03","11","01:00","-4.4","","-6.0","","89","","","","8","","14","","2.4","","101.28","","","","-10","","Snow"
"-64.48","48.78","GASPE A","7052601","2019-03-11 02:00","2019","03","11","02:00","-4.5","","-5.7","","92","","","","9","","20","","1.2","","101.06","","","","-11","","Snow"
"-64.48","48.78","GASPE A","7052601","2019-03-11 03:00","2019","03","11","03:00","-4.7","","-5.9","","91","","","","7","","22","","0.8","","100.78","","","","-12","","Moderate Snow"
"-64.48","48.78","GASPE A","7052601","2019-03-11 04:00","2019","03","11","04:00","-4.4","","-5.5","","92","","","","6","","18","","0.8","","100.58","","","","-10","","Moderate Snow"
"-64.48","48.78","GASPE A","7052601","2019-03-11 05:00","2019","03","11","05:00","-3.2","","-4.2","","93","","","","7","","17","","0.8","","100.33","","","","-9","","Moderate Snow"
"-64.48","48.78","GASPE A","7052601","2019-03-11 06:00","2019","03","11","06:00","-3.1","","-4.1","","93","","","","8","","16","","1.2","","100.10","","","","-8","","Snow"
"-64.48","48.78","GASPE A","7052601","2019-03-11 07:00","2019","03","11","07:00","-2.8","","-3.7","","93","","","","8","","12","","1.2","","99.84","","","","-7","","Snow"
"-64.48","48.78","GASPE A","7052601","2019-03-11 08:00","2019","03","11","08:00","-2.1","","-3.1","","93","","","","5","","3","","1.2","","99.63","","","","-3","","Snow"
"-64.48","48.78","GASPE A","7052601","2019-03-11 09:00","2019","03","11","09:00","-1.7","","-3.1","","90","","","","27","","10","","16.1","","99.51","","","","-5","","NA"
"-64.48","48.78","GASPE A","7052601","2019-03-11 10:00","2019","03","11","10:00","0.0","","-3.2","","79","","","","29","","19","","24.1","","99.39","","","","-5","","Mostly Cloudy"
"-64.48","48.78","GASPE A","7052601","2019-03-11 11:00","2019","03","11","11:00","1.8","","-2.6","","73","","","","27","","23","","24.1","","99.32","","","","","","NA"
"-64.48","48.78","GASPE A","7052601","2019-03-11 12:00","2019","03","11","12:00","2.4","","-1.9","","73","","","","26","","18","","24.1","","99.32","","","","","","NA"
"-64.48","48.78","GASPE A","7052601","2019-03-11 13:00","2019","03","11","13:00","2.2","","-1.9","","74","","","","25","","16","","24.1","","99.31","","","","","","Cloudy"
"-64.48","48.78","GASPE A","7052601","2019-03-11 14:00","2019","03","11","14:00","2.0","","-2.0","","75","","","","27","","12","","24.1","","99.31","","","","","","NA"
"-64.48","48.78","GASPE A","7052601","2019-03-11 15:00","2019","03","11","15:00","-0.2","","-1.9","","88","","","","9","","14","","16.1","","99.27","","","","-4","","NA"
"-64.48","48.78","GASPE A","7052601","2019-03-11 16:00","2019","03","11","16:00","0.0","","-1.2","","92","","","","36","","3","","24.1","","99.27","","","","-1","","Cloudy"
"-64.48","48.78","GASPE A","7052601","2019-03-11 17:00","2019","03","11","17:00","1.0","","-2.0","","80","","","","29","","7","","24.1","","99.26","","","","","","NA"
"-64.48","48.78","GASPE A","7052601","2019-03-11 18:00","2019","03","11","18:00","0.9","","-2.1","","80","","","","28","","9","","24.1","","99.30","","","","","","NA"
"-64.48","48.78","GASPE A","7052601","2019-03-11 19:00","2019","03","11","19:00","-2.1","","-3.5","","90","","","","8","","8","","24.1","","99.35","","","","-5","","Mainly Clear"
"-64.48","48.78","GASPE A","7052601","2019-03-11 20:00","2019","03","11","20:00","-4.0","","-4.7","","95","","","","11","","6","","12.9","","99.38","","","","-7","","NA"
"-64.48","48.78","GASPE A","7052601","2019-03-11 21:00","2019","03","11","21:00","-3.8","","-4.5","","95","","","","9","","3","","12.9","","99.41","","","","-5","","NA"
"-64.48","48.78","GASPE A","7052601","2019-03-11 22:00","2019","03","11","22:00","-4.4","","-5.2","","95","","","","36","","1","","12.9","","99.45","","","","-5","","Mostly Cloudy"
"-64.48","48.78","GASPE A","7052601","2019-03-11 23:00","2019","03","11","23:00","-3.9","","-4.6","","95","","","","35","","5","","12.9","","99.44","","","","-6","","NA"
"-64.48","48.78","GASPE A","7052601","2019-03-12 00:00","2019","03","12","00:00","-4.4","","-5.2","","94","","","","15","","4","","12.9","","99.48","","","","-6","","NA"
"-64.48","48.78","GASPE A","7052601","2019-03-12 01:00","2019","03","12","01:00","-4.2","","-5.0","","94","","","","2","","3","","4.8","","99.57","","","","-5","","Fog"
"-64.48","48.78","GASPE A","7052601","2019-03-12 02:00","2019","03","12","02:00","-4.7","","-5.5","","94","","","","35","","4","","0.2","","99.62","","","","-6","","Freezing Fog"
"-64.48","48.78","GASPE A","7052601","2019-03-12 03:00","2019","03","12","03:00","-6.4","","-7.4","","93","","","","30","","6","","24.1","","99.65","","","","-9","","NA"
"-64.48","48.78","GASPE A","7052601","2019-03-12 04:00","2019","03","12","04:00","-6.3","","-7.2","","93","","","","31","","8","","24.1","","99.70","","","","-10","","Mostly Cloudy"
"-64.48","48.78","GASPE A","7052601","2019-03-12 05:00","2019","03","12","05:00","-4.6","","-5.4","","95","","","","32","","6","","24.1","","99.80","","","","-7","","NA"
"-64.48","48.78","GASPE A","7052601","2019-03-12 06:00","2019","03","12","06:00","-6.3","","-7.4","","92","","","","24","","4","","24.1","","99.86","","","","-8","","NA"
"-64.48","48.78","GASPE A","7052601","2019-03-12 07:00","2019","03","12","07:00","-2.9","","-3.6","","95","","","","30","","8","","24.1","","99.92","","","","-6","","Mostly Cloudy"
"-64.48","48.78","GASPE A","7052601","2019-03-12 08:00","2019","03","12","08:00","-0.6","","-2.5","","87","","","","31","","10","","24.1","","99.99","","","","-4","","NA"
"-64.48","48.78","GASPE A","7052601","2019-03-12 09:00","2019","03","12","09:00","0.5","","-4.1","","71","","","","30","","17","","24.1","","100.08","","","","","","NA"
"-64.48","48.78","GASPE A","7052601","2019-03-12 10:00","2019","03","12","10:00","0.5","","-4.7","","68","","","","31","","12","","24.1","","100.13","","","","","","Cloudy"
"-64.48","48.78","GASPE A","7052601","2019-03-12 11:00","2019","03","12","11:00","0.4","","-5.8","","63","","","","31","","16","","24.1","","100.22","","","","","","NA"
"-64.48","48.78","GASPE A","7052601","2019-03-12 12:00","2019","03","12","12:00","0.6","","-6.9","","57","","","","33","","18","","24.1","","100.29","","","","","","NA"
"-64.48","48.78","GASPE A","7052601","2019-03-12 13:00","2019","03","12","13:00","0.9","","-7.8","","52","","","","31","","21","","24.1","","100.33","","","","","","Mostly Cloudy"
"-64.48","48.78","GASPE A","7052601","2019-03-12 14:00","2019","03","12","14:00","0.5","","-8.2","","52","","","","31","","23","","24.1","","100.41","","","","","","NA"
"-64.48","48.78","GASPE A","7052601","2019-03-12 15:00","2019","03","12","15:00","0.1","","-7.5","","57","","","","30","","19","","24.1","","100.51","","","","","","NA"
"-64.48","48.78","GASPE A","7052601","2019-03-12 16:00","2019","03","12","16:00","-0.3","","-7.9","","57","","","","31","","16","","24.1","","100.61","","","","-5","","Mostly Cloudy"
"-64.48","48.78","GASPE A","7052601","2019-03-12 17:00","2019","03","12","17:00","-0.9","","-9.1","","54","","","","30","","19","","24.1","","100.72","","","","-6","","NA"
"-64.48","48.78","GASPE A","7052601","2019-03-12 18:00","2019","03","12","18:00","-2.2","","-8.6","","62","","","","28","","10","","24.1","","100.83","","","","-6","","NA"
"-64.48","48.78","GASPE A","7052601","2019-03-12 19:00","2019","03","12","19:00","-3.1","","-8.8","","65","","","","27","","13","","24.1","","100.92","","","","-8","","Clear"
"-64.48","48.78","GASPE A","7052601","2019-03-12 20:00","2019","03","12","20:00","-4.9","","-9.2","","72","","","","27","","14","","24.1","","100.99","","","","-10","","NA"
"-64.48","48.78","GASPE A","7052601","2019-03-12 21:00","2019","03","12","21:00","-6.3","","-9.6","","77","","","","33","","6","","24.1","","101.06","","","","-9","","NA"
"-64.48","48.78","GASPE A","7052601","2019-03-12 22:00","2019","03","12","22:00","-4.0","","-8.4","","71","","","","29","","15","","24.1","","101.09","","","","-9","","Clear"
"-64.48","48.78","GASPE A","7052601","2019-03-12 23:00","2019","03","12","23:00","-5.7","","-9.3","","76","","","","30","","10","","24.1","","101.16","","","","-10","","NA"
"-64.48","48.78","GASPE A","7052601","2019-03-13 00:00","2019","03","13","00:00","-8.0","","-10.0","","86","","","","27","","5","","24.1","","101.24","","","","-11","","NA"
"-64.48","48.78","GASPE A","7052601","2019-03-13 01:00","2019","03","13","01:00","-7.0","","-10.3","","77","","","","30","","13","","24.1","","101.35","","","","-13","","Clear"
"-64.48","48.78","GASPE A","7052601","2019-03-13 02:00","2019","03","13","02:00","-8.4","","-10.9","","82","","","","31","","13","","24.1","","101.40","","","","-14","","NA"
"-64.48","48.78","GASPE A","7052601","2019-03-13 03:00","2019","03","13","03:00","-8.6","","-11.5","","80","","","","31","","12","","24.1","","101.42","","","","-14","","NA"
"-64.48","48.78","GASPE A","7052601","2019-03-13 04:00","2019","03","13","04:00","-8.9","","-11.9","","79","","","","31","","14","","24.1","","101.53","","","","-15","","Clear"
"-64.48","48.78","GASPE A","7052601","2019-03-13 05:00","2019","03","13","05:00","-8.5","","-12.2","","75","","","","30","","15","","24.1","","101.59","","","","-15","","NA"
"-64.48","48.78","GASPE A","7052601","2019-03-13 06:00","2019","03","13","06:00","-11.9","","-14.0","","84","","","","21","","3","","16.1","","101.67","","","","-14","","NA"
"-64.48","48.78","GASPE A","7052601","2019-03-13 07:00","2019","03","13","07:00","-9.0","","-12.5","","76","","","","28","","7","","24.1","","101.72","","","","-13","","Mainly Clear"
"-64.48","48.78","GASPE A","7052601","2019-03-13 08:00","2019","03","13","08:00","-4.7","","-11.7","","58","","","","29","","13","","24.1","","101.76","","","","-10","","NA"
"-64.48","48.78","GASPE A","7052601","2019-03-13 09:00","2019","03","13","09:00","-3.0","","-10.7","","55","","","","25","","11","","24.1","","101.73","","","","-7","","NA"
"-64.48","48.78","GASPE A","7052601","2019-03-13 10:00","2019","03","13","10:00","-0.3","","-11.5","","43","","","","36","","2","","24.1","","101.67","","","","-1","","Mainly Clear"
"-64.48","48.78","GASPE A","7052601","2019-03-13 11:00","2019","03","13","11:00","-1.5","","-7.7","","63","","","","9","","20","","24.1","","101.65","","","","-7","","NA"
"-64.48","48.78","GASPE A","7052601","2019-03-13 12:00","2019","03","13","12:00","-1.7","","-8.7","","59","","","","7","","26","","24.1","","101.67","","","","-8","","NA"
"-64.48","48.78","GASPE A","7052601","2019-03-13 13:00","2019","03","13","13:00","-1.7","","-7.5","","65","","","","7","","25","","24.1","","101.64","","","","-8","","Mainly Clear"
"-64.48","48.78","GASPE A","7052601","2019-03-13 14:00","2019","03","13","14:00","-1.6","","-8.0","","62","","","","7","","30","","24.1","","101.62","","","","-9","","NA"
"-64.48","48.78","GASPE A","7052601","2019-03-13 15:00","2019","03","13","15:00","-2.4","","-7.3","","69","","","","7","","28","","24.1","","101.63","","","","-9","","NA"
"-64.48","48.78","GASPE A","7052601","2019-03-13 16:00","2019","03","13","16:00","-3.2","","-7.3","","73","","","","9","","18","","24.1","","101.67","","","","-9","","Mainly Clear"
"-64.48","48.78","GASPE A","7052601","2019-03-13 17:00","2019","03","13","17:00","-4.3","","-7.6","","78","","","","9","","10","","24.1","","101.70","","","","-8","","NA"
"-64.48","48.78","GASPE A","7052601","2019-03-13 18:00","2019","03","13","18:00","-4.5","","-7.0","","83","","","","5","","4","","24.1","","101.73","","","","-6","","NA"
"-64.48","48.78","GASPE A","7052601","2019-03-13 19:00","2019","03","13","19:00","-4.7","","-6.9","","85","","","","36","","3","","24.1","","101.75","","","","-6","","Mostly Cloudy"
"-64.48","48.78","GASPE A","7052601","2019-03-13 20:00","2019","03","13","20:00","-4.8","","-6.7","","86","","","","2","","5","","16.1","","101.74","","","","-7","","NA"
"-64.48","48.78","GASPE A","7052601","2019-03-13 21:00","2019","03","13","21:00","-4.9","","-7.0","","86","","","","34","","4","","24.1","","101.76","","","","-7","","NA"
"-64.48","48.78","GASPE A","7052601","2019-03-13 22:00","2019","03","13","22:00","-4.4","","-6.6","","84","","","","36","","1","","24.1","","101.75","","","","-5","","Cloudy"
"-64.48","48.78","GASPE A","7052601","2019-03-13 23:00","2019","03","13","23:00","-4.5","","-6.7","","84","","","","32","","4","","24.1","","101.75","","","","-6","","NA"
"-64.48","48.78","GASPE A","7052601","2019-03-14 00:00","2019","03","14","00:00","-5.1","","-7.1","","86","","","","30","","4","","24.1","","101.69","","","","-7","","NA"
"-64.48","48.78","GASPE A","7052601","2019-03-14 01:00","2019","03","14","01:00","-6.5","","-7.8","","91","","","","25","","4","","24.1","","101.71","","","","-8","","Mostly Cloudy"
"-64.48","48.78","GASPE A","7052601","2019-03-14 02:00","2019","03","14","02:00","-7.4","","-8.8","","90","","","","31","","9","","24.1","","101.69","","","","-12","","NA"
"-64.48","48.78","GASPE A","7052601","2019-03-14 03:00","2019","03","14","03:00","-6.4","","-7.9","","89","","","","27","","8","","24.1","","101.67","","","","-10","","NA"
"-64.48","48.78","GASPE A","7052601","2019-03-14 04:00","2019","03","14","04:00","-6.4","","-8.0","","89","","","","25","","5","","24.1","","101.72","","","","-9","","Cloudy"
"-64.48","48.78","GASPE A","7052601","2019-03-14 05:00","2019","03","14","05:00","-5.6","","-7.7","","85","","","","22","","7","","24.1","","101.81","","","","-9","","NA"
"-64.48","48.78","GASPE A","7052601","2019-03-14 06:00","2019","03","14","06:00","-4.9","","-7.0","","85","","","","36","","1","","24.1","","101.80","","","","-5","","NA"
"-64.48","48.78","GASPE A","7052601","2019-03-14 07:00","2019","03","14","07:00","-3.7","","-6.4","","81","","","","27","","3","","24.1","","101.90","","","","-5","","Cloudy"
"-64.48","48.78","GASPE A","7052601","2019-03-14 08:00","2019","03","14","08:00","-2.6","","-5.5","","81","","","","25","","7","","24.1","","101.96","","","","-5","","NA"
"-64.48","48.78","GASPE A","7052601","2019-03-14 09:00","2019","03","14","09:00","0.0","","-4.0","","74","","","","23","","7","","24.1","","101.97","","","","-2","","NA"
"-64.48","48.78","GASPE A","7052601","2019-03-14 10:00","2019","03","14","10:00","2.8","","-3.0","","66","","","","29","","7","","24.1","","101.92","","","","","","Cloudy"
"-64.48","48.78","GASPE A","7052601","2019-03-14 11:00","2019","03","14","11:00","1.3","","-3.4","","71","","","","8","","10","","24.1","","101.87","","","","","","NA"
"-64.48","48.78","GASPE A","7052601","2019-03-14 12:00","2019","03","14","12:00","3.5","","-3.1","","62","","","","9","","10","","24.1","","101.80","","","","","","NA"
"-64.48","48.78","GASPE A","7052601","2019-03-14 13:00","2019","03","14","13:00","2.8","","-3.0","","65","","","","9","","18","","24.1","","101.79","","","","","","Mostly Cloudy"
"-64.48","48.78","GASPE A","7052601","2019-03-14 14:00","2019","03","14","14:00","2.8","","-2.6","","68","","","","9","","20","","24.1","","101.79","","","","","","NA"
"-64.48","48.78","GASPE A","7052601","2019-03-14 15:00","2019","03","14","15:00","3.5","","-2.1","","67","","","","8","","17","","24.1","","101.73","","","","","","NA"
"-64.48","48.78","GASPE A","7052601","2019-03-14 16:00","2019","03","14","16:00","1.9","","-2.5","","72","","","","8","","22","","24.1","","101.71","","","","","","Mostly Cloudy"
"-64.48","48.78","GASPE A","7052601","2019-03-14 17:00","2019","03","14","17:00","0.3","","-3.4","","77","","","","7","","18","","24.1","","101.77","","","","","","NA"
"-64.48","48.78","GASPE A","7052601","2019-03-14 18:00","2019","03","14","18:00","-0.2","","-3.2","","80","","","","6","","10","","24.1","","101.80","","","","-4","","NA"
"-64.48","48.78","GASPE A","7052601","2019-03-14 19:00","2019","03","14","19:00","-1.5","","-4.2","","82","","","","2","","4","","24.1","","101.82","","","","-3","","Clear"
"-64.48","48.78","GASPE A","7052601","2019-03-14 20:00","2019","03","14","20:00","-2.5","","-3.8","","91","","","","0","","1","","24.1","","101.80","","","","-3","","NA"
"-64.48","48.78","GASPE A","7052601","2019-03-14 21:00","2019","03","14","21:00","-3.5","","-4.7","","92","","","","36","","2","","24.1","","101.75","","","","-4","","NA"
"-64.48","48.78","GASPE A","7052601","2019-03-14 22:00","2019","03","14","22:00","-4.1","","-4.9","","94","","","","31","","7","","24.1","","101.67","","","","-7","","Mainly Clear"
"-64.48","48.78","GASPE A","7052601","2019-03-14 23:00","2019","03","14","23:00","-3.7","","-4.8","","92","","","","0","","1","","24.1","","101.61","","","","-4","","NA"
"-64.48","48.78","GASPE A","7052601","2019-03-15 00:00","2019","03","15","00:00","-3.2","","-4.3","","92","","","","36","","3","","24.1","","101.52","","","","-4","","NA"
"-64.48","48.78","GASPE A","7052601","2019-03-15 01:00","2019","03","15","01:00","-2.7","","-4.0","","91","","","","0","","1","","24.1","","101.38","","","","-3","","Cloudy"
"-64.48","48.78","GASPE A","7052601","2019-03-15 02:00","2019","03","15","02:00","-2.3","","-3.7","","90","","","","17","","3","","24.1","","101.26","","","","-3","","NA"
"-64.48","48.78","GASPE A","7052601","2019-03-15 03:00","2019","03","15","03:00","-1.7","","-3.1","","90","","","","36","","3","","24.1","","101.25","","","","-3","","Freezing Rain"
"-64.48","48.78","GASPE A","7052601","2019-03-15 04:00","2019","03","15","04:00","-1.4","","-2.6","","92","","","","6","","4","","24.1","","101.15","","","","-3","","Moderate Freezing Rain"
"-64.48","48.78","GASPE A","7052601","2019-03-15 05:00","2019","03","15","05:00","-1.2","","-2.3","","93","","","","9","","11","","24.1","","101.08","","","","-5","","NA"
"-64.48","48.78","GASPE A","7052601","2019-03-15 06:00","2019","03","15","06:00","0.4","","-1.9","","84","","","","11","","18","","24.1","","100.91","","","","","","NA"
"-64.48","48.78","GASPE A","7052601","2019-03-15 07:00","2019","03","15","07:00","1.0","","-1.7","","82","","","","18","","4","","24.1","","100.84","","","","","","Mostly Cloudy"
"-64.48","48.78","GASPE A","7052601","2019-03-15 08:00","2019","03","15","08:00","1.9","","-1.6","","78","","","","17","","14","","24.1","","100.73","","","","","","NA"
"-64.48","48.78","GASPE A","7052601","2019-03-15 09:00","2019","03","15","09:00","2.3","","-1.3","","77","","","","22","","10","","24.1","","100.68","","","","","","NA"
"-64.48","48.78","GASPE A","7052601","2019-03-15 10:00","2019","03","15","10:00","2.0","","-1.0","","80","","","","19","","20","","6.4","","100.55","","","","","","Fog"
"-64.48","48.78","GASPE A","7052601","2019-03-15 11:00","2019","03","15","11:00","2.0","","-0.7","","82","","","","24","","14","","8.1","","100.36","","","","","","Fog"
"-64.48","48.78","GASPE A","7052601","2019-03-15 12:00","2019","03","15","12:00","2.6","","-0.5","","80","","","","13","","10","","9.7","","100.21","","","","","","Rain,Fog"
"-64.48","48.78","GASPE A","7052601","2019-03-15 13:00","2019","03","15","13:00","3.0","","-0.1","","81","","","","10","","12","","6.4","","99.99","","","","","","Rain,Fog"
"-64.48","48.78","GASPE A","7052601","2019-03-15 14:00","2019","03","15","14:00","3.2","","0.8","","84","","","","36","","3","","16.1","","99.88","","","","","","Rain"
"-64.48","48.78","GASPE A","7052601","2019-03-15 15:00","2019","03","15","15:00","3.8","","1.4","","85","","","","29","","11","","16.1","","99.82","","","","","","NA"
"-64.48","48.78","GASPE A","7052601","2019-03-15 16:00","2019","03","15","16:00","4.0","","2.1","","87","","","","3","","12","","16.1","","99.66","","","","","","Cloudy"
"-64.48","48.78","GASPE A","7052601","2019-03-15 17:00","2019","03","15","17:00","4.4","","2.5","","88","","","","29","","17","","16.1","","99.59","","","","","","Rain Showers"
"-64.48","48.78","GASPE A","7052601","2019-03-15 18:00","2019","03","15","18:00","5.2","","3.2","","87","","","","30","","9","","16.1","","99.51","","","","","","NA"
"-64.48","48.78","GASPE A","7052601","2019-03-15 19:00","2019","03","15","19:00","5.6","","3.2","","84","","","","32","","9","","16.1","","99.51","","","","","","Cloudy"
"-64.48","48.78","GASPE A","7052601","2019-03-15 20:00","2019","03","15","20:00","5.9","","3.4","","84","","","","28","","13","","24.1","","99.49","","","","","","NA"
"-64.48","48.78","GASPE A","7052601","2019-03-15 21:00","2019","03","15","21:00","4.4","","2.5","","88","","","","31","","5","","24.1","","99.54","","","","","","NA"
"-64.48","48.78","GASPE A","7052601","2019-03-15 22:00","2019","03","15","22:00","3.2","","2.2","","93","","","","6","","4","","24.1","","99.54","","","","","","Cloudy"
"-64.48","48.78","GASPE A","7052601","2019-03-15 23:00","2019","03","15","23:00","2.2","","1.4","","95","","","","36","","2","","24.1","","99.47","","","","","","NA"
"-64.48","48.78","GASPE A","7052601","2019-03-16 00:00","2019","03","16","00:00","3.3","","2.2","","93","","","","36","","2","","24.1","","99.46","","","","","","NA"
"-64.48","48.78","GASPE A","7052601","2019-03-16 01:00","2019","03","16","01:00","4.0","","1.6","","84","","","","25","","5","","24.1","","99.37","","","","","","Mostly Cloudy"
"-64.48","48.78","GASPE A","7052601","2019-03-16 02:00","2019","03","16","02:00","3.9","","1.9","","87","","","","26","","14","","24.1","","99.33","","","","","","NA"
"-64.48","48.78","GASPE A","7052601","2019-03-16 03:00","2019","03","16","03:00","2.3","","0.8","","90","","","","23","","13","","24.1","","99.32","","","","","","NA"
"-64.48","48.78","GASPE A","7052601","2019-03-16 04:00","2019","03","16","04:00","4.7","","2.0","","82","","","","36","","1","","24.1","","99.32","","","","","","Cloudy"
"-64.48","48.78","GASPE A","7052601","2019-03-16 05:00","2019","03","16","05:00","3.8","","1.4","","85","","","","23","","4","","24.1","","99.22","","","","","","NA"
"-64.48","48.78","GASPE A","7052601","2019-03-16 06:00","2019","03","16","06:00","2.4","","1.0","","91","","","","34","","5","","24.1","","99.16","","","","","","NA"
"-64.48","48.78","GASPE A","7052601","2019-03-16 07:00","2019","03","16","07:00","3.0","","1.6","","90","","","","19","","5","","24.1","","99.21","","","","","","Cloudy"
"-64.48","48.78","GASPE A","7052601","2019-03-16 08:00","2019","03","16","08:00","5.5","","1.9","","77","","","","28","","14","","24.1","","99.10","","","","","","NA"
"-64.48","48.78","GASPE A","7052601","2019-03-16 09:00","2019","03","16","09:00","6.1","","1.9","","74","","","","26","","10","","24.1","","99.04","","","","","","NA"
"-64.48","48.78","GASPE A","7052601","2019-03-16 10:00","2019","03","16","10:00","5.0","","1.3","","77","","","","26","","12","","24.1","","98.96","","","","","","Cloudy"
"-64.48","48.78","GASPE A","7052601","2019-03-16 11:00","2019","03","16","11:00","5.3","","1.2","","75","","","","26","","13","","24.1","","98.87","","","","","","NA"
"-64.48","48.78","GASPE A","7052601","2019-03-16 12:00","2019","03","16","12:00","5.7","","1.4","","74","","","","23","","12","","24.1","","98.82","","","","","","NA"
"-64.48","48.78","GASPE A","7052601","2019-03-16 13:00","2019","03","16","13:00","6.4","","1.3","","70","","","","25","","21","","24.1","","98.66","","","","","","Mostly Cloudy"
"-64.48","48.78","GASPE A","7052601","2019-03-16 14:00","2019","03","16","14:00","7.2","","1.3","","66","","","","22","","18","","24.1","","98.60","","","","","","NA"
"-64.48","48.78","GASPE A","7052601","2019-03-16 15:00","2019","03","16","15:00","6.3","","0.6","","67","","","","25","","25","","24.1","","98.58","","","","","","NA"
"-64.48","48.78","GASPE A","7052601","2019-03-16 16:00","2019","03","16","16:00","3.9","","0.7","","79","","","","27","","40","","24.1","","98.64","","","","","","Mostly Cloudy"
"-64.48","48.78","GASPE A","7052601","2019-03-16 17:00","2019","03","16","17:00","3.6","","-0.8","","73","","","","27","","27","","24.1","","98.63","","","","","","NA"
"-64.48","48.78","GASPE A","7052601","2019-03-16 18:00","2019","03","16","18:00","1.2","","-5.3","","62","","","","26","","47","","24.1","","98.76","","","","","","NA"
"-64.48","48.78","GASPE A","7052601","2019-03-16 19:00","2019","03","16","19:00","-0.7","","-7.2","","62","","","","27","","36","","24.1","","98.88","","","","-8","","Mostly Cloudy"
"-64.48","48.78","GASPE A","7052601","2019-03-16 20:00","2019","03","16","20:00","-1.8","","-8.6","","60","","","","25","","36","","24.1","","98.96","","","","-9","","NA"
"-64.48","48.78","GASPE A","7052601","2019-03-16 21:00","2019","03","16","21:00","-3.3","","-12.1","","51","","","","27","","34","","24.1","","99.01","","","","-11","","NA"
"-64.48","48.78","GASPE A","7052601","2019-03-16 22:00","2019","03","16","22:00","-4.5","","-12.4","","55","","","","27","","29","","24.1","","99.06","","","","-12","","Mainly Clear"
"-64.48","48.78","GASPE A","7052601","2019-03-16 23:00","2019","03","16","23:00","-5.7","","-14.1","","52","","","","27","","35","","24.1","","99.11","","","","-14","","NA"
"-64.48","48.78","GASPE A","7052601","2019-03-17 00:00","2019","03","17","00:00","-6.2","","-13.7","","56","","","","29","","28","","24.1","","99.19","","","","-14","","NA"
"-64.48","48.78","GASPE A","7052601","2019-03-17 01:00","2019","03","17","01:00","-6.8","","-15.4","","51","","","","28","","23","","24.1","","99.29","","","","-14","","Mainly Clear"
"-64.48","48.78","GASPE A","7052601","2019-03-17 02:00","2019","03","17","02:00","-7.1","","-14.9","","54","","","","28","","16","","24.1","","99.39","","","","-13","","NA"
"-64.48","48.78","GASPE A","7052601","2019-03-17 03:00","2019","03","17","03:00","-7.7","","-15.5","","54","","","","27","","24","","24.1","","99.48","","","","-16","","NA"
"-64.48","48.78","GASPE A","7052601","2019-03-17 04:00","2019","03","17","04:00","-8.0","","-15.8","","54","","","","29","","16","","24.1","","99.55","","","","-15","","Mainly Clear"
"-64.48","48.78","GASPE A","7052601","2019-03-17 05:00","2019","03","17","05:00","-8.5","","-16.7","","52","","","","28","","25","","24.1","","99.62","","","","-17","","NA"
"-64.48","48.78","GASPE A","7052601","2019-03-17 06:00","2019","03","17","06:00","-8.9","","-17.2","","52","","","","28","","23","","24.1","","99.72","","","","-17","","NA"
"-64.48","48.78","GASPE A","7052601","2019-03-17 07:00","2019","03","17","07:00","-8.4","","-17.3","","49","","","","28","","35","","24.1","","99.77","","","","-18","","Clear"
"-64.48","48.78","GASPE A","7052601","2019-03-17 08:00","2019","03","17","08:00","-7.5","","-17.1","","47","","","","27","","41","","24.1","","99.82","","","","-18","","NA"
"-64.48","48.78","GASPE A","7052601","2019-03-17 09:00","2019","03","17","09:00","-6.3","","-17.1","","43","","","","28","","31","","24.1","","99.88","","","","-15","","NA"
"-64.48","48.78","GASPE A","7052601","2019-03-17 10:00","2019","03","17","10:00","-6.0","","-17.2","","41","","","","28","","32","","24.1","","99.87","","","","-15","","Mainly Clear"
"-64.48","48.78","GASPE A","7052601","2019-03-17 11:00","2019","03","17","11:00","-5.7","","-17.6","","39","","","","28","","35","","24.1","","99.92","","","","-14","","NA"
"-64.48","48.78","GASPE A","7052601","2019-03-17 12:00","2019","03","17","12:00","-5.1","","-17.5","","38","","","","28","","30","","24.1","","99.95","","","","-13","","NA"
"-64.48","48.78","GASPE A","7052601","2019-03-17 13:00","2019","03","17","13:00","-5.4","","-16.6","","41","","","","27","","42","","24.1","","99.97","","","","-15","","Mainly Clear"
"-64.48","48.78","GASPE A","7052601","2019-03-17 14:00","2019","03","17","14:00","-6.5","","-17.0","","43","","","","27","","43","","24.1","","100.04","","","","-16","","NA"
"-64.48","48.78","GASPE A","7052601","2019-03-17 15:00","2019","03","17","15:00","-6.2","","-16.4","","45","","","","27","","41","","24.1","","100.10","","","","-16","","NA"
"-64.48","48.78","GASPE A","7052601","2019-03-17 16:00","2019","03","17","16:00","-7.1","","-16.9","","46","","","","26","","43","","24.1","","100.17","","","","-17","","Mainly Clear"
"-64.48","48.78","GASPE A","7052601","2019-03-17 17:00","2019","03","17","17:00","-7.1","","-17.1","","45","","","","27","","25","","24.1","","100.28","","","","-15","","NA"
"-64.48","48.78","GASPE A","7052601","2019-03-17 18:00","2019","03","17","18:00","-7.9","","-16.8","","49","","","","27","","22","","24.1","","100.36","","","","-16","","NA"
"-64.48","48.78","GASPE A","7052601","2019-03-17 19:00","2019","03","17","19:00","-9.3","","-16.5","","56","","","","27","","14","","24.1","","100.44","","","","-16","","Mainly Clear"
"-64.48","48.78","GASPE A","7052601","2019-03-17 20:00","2019","03","17","20:00","-9.6","","-15.5","","62","","","","29","","7","","24.1","","100.49","","","","-14","","NA"
"-64.48","48.78","GASPE A","7052601","2019-03-17 21:00","2019","03","17","21:00","-10.7","","-15.3","","69","","","","30","","8","","24.1","","100.51","","","","-15","","NA"
"-64.48","48.78","GASPE A","7052601","2019-03-17 22:00","2019","03","17","22:00","-11.5","","-15.6","","72","","","","27","","8","","24.1","","100.55","","","","-16","","Mainly Clear"
"-64.48","48.78","GASPE A","7052601","2019-03-17 23:00","2019","03","17","23:00","-11.8","","-15.7","","73","","","","27","","10","","24.1","","100.59","","","","-17","","NA"
"-64.48","48.78","GASPE A","7052601","2019-03-18 00:00","2019","03","18","00:00","-11.7","","-15.7","","73","","","","28","","8","","24.1","","100.62","","","","-16","","NA"
"-64.48","48.78","GASPE A","7052601","2019-03-18 01:00","2019","03","18","01:00","-11.9","","-16.3","","70","","","","29","","9","","24.1","","100.64","","","","-17","","Clear"
"-64.48","48.78","GASPE A","7052601","2019-03-18 02:00","2019","03","18","02:00","-15.8","","-18.6","","79","","","","27","","4","","24.1","","100.67","","","","-19","","NA"
"-64.48","48.78","GASPE A","7052601","2019-03-18 03:00","2019","03","18","03:00","-16.2","","-18.5","","83","","","","29","","5","","24.1","","100.66","","","","-20","","NA"
"-64.48","48.78","GASPE A","7052601","2019-03-18 04:00","2019","03","18","04:00","-18.1","","-21.3","","76","","","","24","","6","","24.1","","100.66","","","","-23","","Clear"
"-64.48","48.78","GASPE A","7052601","2019-03-18 05:00","2019","03","18","05:00","-16.2","","-19.6","","75","","","","31","","8","","24.1","","100.69","","","","-22","","NA"
"-64.48","48.78","GASPE A","7052601","2019-03-18 06:00","2019","03","18","06:00","-14.7","","-17.9","","76","","","","33","","11","","24.1","","100.78","","","","-21","","NA"
"-64.48","48.78","GASPE A","7052601","2019-03-18 07:00","2019","03","18","07:00","-11.3","","-17.6","","60","","","","29","","11","","24.1","","100.83","","","","-17","","Clear"
"-64.48","48.78","GASPE A","7052601","2019-03-18 08:00","2019","03","18","08:00","-9.5","","-17.6","","52","","","","28","","19","","24.1","","100.84","","","","-17","","NA"
"-64.48","48.78","GASPE A","7052601","2019-03-18 09:00","2019","03","18","09:00","-8.5","","-17.8","","48","","","","27","","20","","24.1","","100.87","","","","-16","","NA"
"-64.48","48.78","GASPE A","7052601","2019-03-18 10:00","2019","03","18","10:00","-7.0","","-17.2","","44","","","","26","","13","","24.1","","100.86","","","","-13","","Mostly Cloudy"
"-64.48","48.78","GASPE A","7052601","2019-03-18 11:00","2019","03","18","11:00","-5.6","","-15.8","","45","","","","26","","21","","24.1","","100.85","","","","-12","","NA"
"-64.48","48.78","GASPE A","7052601","2019-03-18 12:00","2019","03","18","12:00","-5.7","","-15.6","","46","","","","10","","11","","24.1","","100.88","","","","-10","","NA"
"-64.48","48.78","GASPE A","7052601","2019-03-18 13:00","2019","03","18","13:00","-6.6","","-14.6","","53","","","","10","","22","","24.1","","100.92","","","","-14","","Cloudy"
"-64.48","48.78","GASPE A","7052601","2019-03-18 14:00","2019","03","18","14:00","-6.5","","-15.0","","51","","","","12","","16","","16.1","","100.98","","","","-13","","NA"
"-64.48","48.78","GASPE A","7052601","2019-03-18 15:00","2019","03","18","15:00","-6.5","","-14.0","","55","","","","12","","16","","24.1","","101.04","","","","-13","","NA"
"-64.48","48.78","GASPE A","7052601","2019-03-18 16:00","2019","03","18","16:00","-6.4","","-13.9","","56","","","","11","","12","","24.1","","101.10","","","","-12","","Mostly Cloudy"
"-64.48","48.78","GASPE A","7052601","2019-03-18 17:00","2019","03","18","17:00","-6.7","","-14.0","","56","","","","8","","8","","24.1","","101.21","","","","-11","","NA"
"-64.48","48.78","GASPE A","7052601","2019-03-18 18:00","2019","03","18","18:00","-7.4","","-14.0","","60","","","","34","","8","","24.1","","101.34","","","","-11","","NA"
"-64.48","48.78","GASPE A","7052601","2019-03-18 19:00","2019","03","18","19:00","-8.5","","-15.9","","56","","","","30","","9","","24.1","","101.47","","","","-13","","Mostly Cloudy"
"-64.48","48.78","GASPE A","7052601","2019-03-18 20:00","2019","03","18","20:00","-9.0","","-15.7","","59","","","","28","","13","","24.1","","101.54","","","","-15","","NA"
"-64.48","48.78","GASPE A","7052601","2019-03-18 21:00","2019","03","18","21:00","-9.7","","-16.5","","58","","","","29","","11","","24.1","","101.55","","","","-15","","NA"
"-64.48","48.78","GASPE A","7052601","2019-03-18 22:00","2019","03","18","22:00","-10.1","","-16.6","","60","","","","29","","8","","24.1","","101.57","","","","-15","","Mostly Cloudy"
"-64.48","48.78","GASPE A","7052601","2019-03-18 23:00","2019","03","18","23:00","-10.3","","-16.3","","62","","","","30","","10","","24.1","","101.58","","","","-16","","NA"
"-64.48","48.78","GASPE A","7052601","2019-03-19 00:00","2019","03","19","00:00","-11.6","","-16.4","","68","","","","31","","10","","24.1","","101.57","","","","-17","","NA"
"-64.48","48.78","GASPE A","7052601","2019-03-19 01:00","2019","03","19","01:00","-10.6","","-15.6","","67","","","","29","","13","","24.1","","101.59","","","","-17","","Mainly Clear"
"-64.48","48.78","GASPE A","7052601","2019-03-19 02:00","2019","03","19","02:00","-11.6","","-15.6","","72","","","","32","","14","","24.1","","101.59","","","","-18","","NA"
"-64.48","48.78","GASPE A","7052601","2019-03-19 03:00","2019","03","19","03:00","-11.8","","-15.2","","76","","","","32","","14","","24.1","","101.59","","","","-19","","NA"
"-64.48","48.78","GASPE A","7052601","2019-03-19 04:00","2019","03","19","04:00","-11.4","","-14.7","","77","","","","31","","9","","24.1","","101.62","","","","-17","","Cloudy"
"-64.48","48.78","GASPE A","7052601","2019-03-19 05:00","2019","03","19","05:00","-10.5","","-13.9","","76","","","","32","","14","","16.1","","101.67","","","","-17","","Snow"
"-64.48","48.78","GASPE A","7052601","2019-03-19 06:00","2019","03","19","06:00","-10.2","","-12.7","","82","","","","30","","7","","2.0","","101.75","","","","-14","","Snow"
"-64.48","48.78","GASPE A","7052601","2019-03-19 07:00","2019","03","19","07:00","-9.0","","-12.0","","79","","","","28","","9","","16.1","","101.82","","","","-14","","Cloudy"
"-64.48","48.78","GASPE A","7052601","2019-03-19 08:00","2019","03","19","08:00","-7.4","","-11.2","","74","","","","26","","13","","16.1","","101.87","","","","-13","","NA"
"-64.48","48.78","GASPE A","7052601","2019-03-19 09:00","2019","03","19","09:00","-5.7","","-10.7","","68","","","","36","","2","","16.1","","101.91","","","","-7","","NA"
"-64.48","48.78","GASPE A","7052601","2019-03-19 10:00","2019","03","19","10:00","-4.9","","-11.4","","60","","","","29","","3","","16.1","","101.90","","","","-6","","Cloudy"
"-64.48","48.78","GASPE A","7052601","2019-03-19 11:00","2019","03","19","11:00","-4.4","","-12.4","","54","","","","2","","8","","16.1","","101.89","","","","-8","","NA"
"-64.48","48.78","GASPE A","7052601","2019-03-19 12:00","2019","03","19","12:00","-4.0","","-12.0","","54","","","","7","","4","","16.1","","101.88","","","","-6","","NA"
"-64.48","48.78","GASPE A","7052601","2019-03-19 13:00","2019","03","19","13:00","-4.7","","-9.6","","69","","","","11","","5","","8.1","","101.88","","","","-7","","Snow"
"-64.48","48.78","GASPE A","7052601","2019-03-19 14:00","2019","03","19","14:00","-5.4","","-8.4","","80","","","","10","","9","","2.4","","101.91","","","","-9","","Snow"
"-64.48","48.78","GASPE A","7052601","2019-03-19 15:00","2019","03","19","15:00","-6.1","","-9.0","","80","","","","4","","4","","0.8","","101.91","","","","-8","","Snow"
"-64.48","48.78","GASPE A","7052601","2019-03-19 16:00","2019","03","19","16:00","-6.5","","-8.2","","88","","","","12","","8","","0.8","","101.94","","","","-10","","Snow"
"-64.48","48.78","GASPE A","7052601","2019-03-19 17:00","2019","03","19","17:00","-6.7","","-8.3","","89","","","","12","","7","","1.2","","101.97","","","","-10","","Snow"
"-64.48","48.78","GASPE A","7052601","2019-03-19 18:00","2019","03","19","18:00","-6.9","","-8.2","","90","","","","9","","3","","1.2","","102.01","","","","-8","","Snow"
"-64.48","48.78","GASPE A","7052601","2019-03-19 19:00","2019","03","19","19:00","-7.2","","-9.1","","87","","","","11","","3","","6.4","","102.05","","","","-9","","Snow"
"-64.48","48.78","GASPE A","7052601","2019-03-19 20:00","2019","03","19","20:00","-7.3","","-8.9","","88","","","","20","","3","","1.6","","102.06","","","","-9","","Snow"
"-64.48","48.78","GASPE A","7052601","2019-03-19 21:00","2019","03","19","21:00","-8.8","","-10.3","","89","","","","36","","2","","8.1","","102.03","","","","-10","","Snow"
"-64.48","48.78","GASPE A","7052601","2019-03-19 22:00","2019","03","19","22:00","-9.0","","-10.3","","90","","","","25","","6","","24.1","","102.01","","","","-12","","Mostly Cloudy"
"-64.48","48.78","GASPE A","7052601","2019-03-19 23:00","2019","03","19","23:00","-13.2","","-14.7","","89","","","","26","","7","","24.1","","102.00","","","","-18","","NA"
"-64.48","48.78","GASPE A","7052601","2019-03-20 00:00","2019","03","20","00:00","-13.3","","-14.9","","88","","","","28","","7","","24.1","","102.02","","","","-18","","NA"
"-64.48","48.78","GASPE A","7052601","2019-03-20 01:00","2019","03","20","01:00","-15.3","","-17.2","","85","","","","27","","5","","24.1","","102.01","","","","-19","","Clear"
"-64.48","48.78","GASPE A","7052601","2019-03-20 02:00","2019","03","20","02:00","-16.8","","-18.9","","84","","","","25","","11","","24.1","","101.97","","","","-24","","NA"
"-64.48","48.78","GASPE A","7052601","2019-03-20 03:00","2019","03","20","03:00","-17.5","","-19.6","","84","","","","27","","7","","24.1","","101.93","","","","-23","","NA"
"-64.48","48.78","GASPE A","7052601","2019-03-20 04:00","2019","03","20","04:00","-18.4","","-20.6","","83","","","","26","","6","","24.1","","101.91","","","","-23","","Clear"
"-64.48","48.78","GASPE A","7052601","2019-03-20 05:00","2019","03","20","05:00","-18.8","","-21.1","","83","","","","23","","4","","24.1","","101.89","","","","-22","","NA"
"-64.48","48.78","GASPE A","7052601","2019-03-20 06:00","2019","03","20","06:00","-17.6","","-19.7","","83","","","","25","","8","","24.1","","101.90","","","","-23","","NA"
"-64.48","48.78","GASPE A","7052601","2019-03-20 07:00","2019","03","20","07:00","-11.3","","-13.8","","82","","","","31","","11","","24.1","","101.87","","","","-17","","Mainly Clear"
"-64.48","48.78","GASPE A","7052601","2019-03-20 08:00","2019","03","20","08:00","-8.2","","-13.1","","68","","","","29","","10","","24.1","","101.83","","","","-13","","NA"
"-64.48","48.78","GASPE A","7052601","2019-03-20 09:00","2019","03","20","09:00","-4.7","","-12.1","","56","","","","28","","13","","24.1","","101.77","","","","-10","","NA"
"-64.48","48.78","GASPE A","7052601","2019-03-20 10:00","2019","03","20","10:00","-5.6","","-10.6","","68","","","","9","","11","","24.1","","101.67","","","","-10","","Mostly Cloudy"
"-64.48","48.78","GASPE A","7052601","2019-03-20 11:00","2019","03","20","11:00","-2.8","","-9.6","","60","","","","10","","14","","24.1","","101.55","","","","-8","","NA"
"-64.48","48.78","GASPE A","7052601","2019-03-20 12:00","2019","03","20","12:00","1.8","","-12.0","","35","","","","26","","18","","24.1","","101.42","","","","","","NA"
"-64.48","48.78","GASPE A","7052601","2019-03-20 13:00","2019","03","20","13:00","3.6","","-11.9","","31","","","","23","","24","","24.1","","101.30","","","","","","Mainly Clear"
"-64.48","48.78","GASPE A","7052601","2019-03-20 14:00","2019","03","20","14:00","3.9","","-10.1","","35","","","","24","","21","","24.1","","101.24","","","","","","NA"
"-64.48","48.78","GASPE A","7052601","2019-03-20 15:00","2019","03","20","15:00","3.7","","-9.2","","39","","","","24","","24","","24.1","","101.21","","","","","","NA"
"-64.48","48.78","GASPE A","7052601","2019-03-20 16:00","2019","03","20","16:00","4.4","","-8.8","","38","","","","26","","19","","24.1","","101.20","","","","","","Mostly Cloudy"
"-64.48","48.78","GASPE A","7052601","2019-03-20 17:00","2019","03","20","17:00","4.0","","-9.5","","37","","","","28","","12","","24.1","","101.27","","","","","","NA"
"-64.48","48.78","GASPE A","7052601","2019-03-20 18:00","2019","03","20","18:00","2.3","","-9.5","","42","","","","25","","16","","24.1","","101.36","","","","","","NA"
"-64.48","48.78","GASPE A","7052601","2019-03-20 19:00","2019","03","20","19:00","2.2","","-8.8","","44","","","","27","","19","","24.1","","101.43","","","","","","Mainly Clear"
"-64.48","48.78","GASPE A","7052601","2019-03-20 20:00","2019","03","20","20:00","0.6","","-8.9","","49","","","","32","","10","","24.1","","101.47","","","","","","NA"
"-64.48","48.78","GASPE A","7052601","2019-03-20 21:00","2019","03","20","21:00","0.4","","-9.0","","49","","","","29","","14","","24.1","","101.48","","","","","","NA"
"-64.48","48.78","GASPE A","7052601","2019-03-20 22:00","2019","03","20","22:00","-0.7","","-9.4","","52","","","","31","","11","","24.1","","101.51","","","","-4","","Clear"
"-64.48","48.78","GASPE A","7052601","2019-03-20 23:00","2019","03","20","23:00","-0.8","","-9.0","","54","","","","29","","10","","24.1","","101.56","","","","-4","","NA"
"-64.48","48.78","GASPE A","7052601","2019-03-21 00:00","2019","03","21","00:00","0.0","","-8.8","","52","","","","29","","10","","24.1","","101.58","","","","-3","","NA"
"-64.48","48.78","GASPE A","7052601","2019-03-21 01:00","2019","03","21","01:00","0.0","","-8.6","","53","","","","28","","16","","24.1","","101.62","","","","-5","","Mainly Clear"
"-64.48","48.78","GASPE A","7052601","2019-03-21 02:00","2019","03","21","02:00","-2.7","","-9.1","","62","","","","26","","8","","24.1","","101.59","","","","-6","","NA"
"-64.48","48.78","GASPE A","7052601","2019-03-21 03:00","2019","03","21","03:00","-3.8","","-8.8","","68","","","","36","","3","","24.1","","101.57","","","","-5","","NA"
"-64.48","48.78","GASPE A","7052601","2019-03-21 04:00","2019","03","21","04:00","-4.6","","-9.0","","71","","","","36","","1","","24.1","","101.57","","","","-5","","Cloudy"
"-64.48","48.78","GASPE A","7052601","2019-03-21 05:00","2019","03","21","05:00","-3.6","","-8.5","","69","","","","36","","3","","24.1","","101.54","","","","-5","","NA"
"-64.48","48.78","GASPE A","7052601","2019-03-21 06:00","2019","03","21","06:00","-4.3","","-7.7","","77","","","","31","","5","","24.1","","101.55","","","","-6","","NA"
"-64.48","48.78","GASPE A","7052601","2019-03-21 07:00","2019","03","21","07:00","-3.7","","-7.5","","75","","","","36","","2","","24.1","","101.53","","","","-5","","Cloudy"
"-64.48","48.78","GASPE A","7052601","2019-03-21 08:00","2019","03","21","08:00","-1.0","","-6.8","","65","","","","8","","9","","24.1","","101.49","","","","-4","","NA"
"-64.48","48.78","GASPE A","7052601","2019-03-21 09:00","2019","03","21","09:00","2.3","","-5.8","","55","","","","10","","8","","24.1","","101.40","","","","","","NA"
"-64.48","48.78","GASPE A","7052601","2019-03-21 10:00","2019","03","21","10:00","5.6","","-5.3","","45","","","","26","","20","","24.1","","101.31","","","","","","Mostly Cloudy"
"-64.48","48.78","GASPE A","7052601","2019-03-21 11:00","2019","03","21","11:00","7.4","","-5.8","","39","","","","25","","30","","24.1","","101.20","","","","","","NA"
"-64.48","48.78","GASPE A","7052601","2019-03-21 12:00","2019","03","21","12:00","8.8","","-6.0","","35","","","","25","","25","","24.1","","101.11","","","","","","NA"
"-64.48","48.78","GASPE A","7052601","2019-03-21 13:00","2019","03","21","13:00","8.6","","-6.7","","33","","","","24","","37","","24.1","","101.04","","","","","","Mainly Clear"
"-64.48","48.78","GASPE A","7052601","2019-03-21 14:00","2019","03","21","14:00","8.6","","-5.9","","35","","","","23","","33","","24.1","","101.03","","","","","","NA"
"-64.48","48.78","GASPE A","7052601","2019-03-21 15:00","2019","03","21","15:00","8.7","","-5.4","","36","","","","23","","31","","24.1","","101.01","","","","","","NA"
"-64.48","48.78","GASPE A","7052601","2019-03-21 16:00","2019","03","21","16:00","7.5","","-5.3","","40","","","","19","","12","","24.1","","100.99","","","","","","Mostly Cloudy"
"-64.48","48.78","GASPE A","7052601","2019-03-21 17:00","2019","03","21","17:00","7.3","","-4.4","","43","","","","22","","14","","24.1","","101.02","","","","","","NA"
"-64.48","48.78","GASPE A","7052601","2019-03-21 18:00","2019","03","21","18:00","6.1","","-4.3","","47","","","","19","","8","","24.1","","101.01","","","","","","NA"
"-64.48","48.78","GASPE A","7052601","2019-03-21 19:00","2019","03","21","19:00","3.6","","-4.6","","55","","","","36","","1","","24.1","","101.06","","","","","","Mainly Clear"
"-64.48","48.78","GASPE A","7052601","2019-03-21 20:00","2019","03","21","20:00","6.0","","-4.6","","46","","","","21","","14","","24.1","","101.06","","","","","","NA"
"-64.48","48.78","GASPE A","7052601","2019-03-21 21:00","2019","03","21","21:00","5.0","","-3.4","","55","","","","22","","21","","24.1","","101.03","","","","","","NA"
"-64.48","48.78","GASPE A","7052601","2019-03-21 22:00","2019","03","21","22:00","4.5","","-3.1","","58","","","","23","","21","","24.1","","100.98","","","","","","Mainly Clear"
"-64.48","48.78","GASPE A","7052601","2019-03-21 23:00","2019","03","21","23:00","3.7","","-3.5","","59","","","","30","","9","","24.1","","100.93","","","","","","NA"
"-64.48","48.78","GASPE A","7052601","2019-03-22 00:00","2019","03","22","00:00","2.6","","-3.4","","65","","","","31","","10","","24.1","","100.93","","","","","","NA"
"-64.48","48.78","GASPE A","7052601","2019-03-22 01:00","2019","03","22","01:00","2.2","","-3.8","","65","","","","27","","3","","24.1","","100.90","","","","","","Mostly Cloudy"
"-64.48","48.78","GASPE A","7052601","2019-03-22 02:00","2019","03","22","02:00","2.0","","-4.7","","61","","","","33","","10","","24.1","","100.87","","","","","","NA"
"-64.48","48.78","GASPE A","7052601","2019-03-22 03:00","2019","03","22","03:00","2.0","","-4.6","","62","","","","31","","11","","24.1","","100.87","","","","","","NA"
"-64.48","48.78","GASPE A","7052601","2019-03-22 04:00","2019","03","22","04:00","1.6","","-4.7","","63","","","","31","","16","","24.1","","100.84","","","","","","Mostly Cloudy"
"-64.48","48.78","GASPE A","7052601","2019-03-22 05:00","2019","03","22","05:00","1.0","","-5.2","","63","","","","28","","9","","24.1","","100.73","","","","","","NA"
"-64.48","48.78","GASPE A","7052601","2019-03-22 06:00","2019","03","22","06:00","0.6","","-4.9","","67","","","","5","","5","","24.1","","100.73","","","","","","NA"
"-64.48","48.78","GASPE A","7052601","2019-03-22 07:00","2019","03","22","07:00","1.2","","-4.8","","64","","","","36","","1","","24.1","","100.73","","","","","","Cloudy"
"-64.48","48.78","GASPE A","7052601","2019-03-22 08:00","2019","03","22","08:00","2.6","","-5.6","","55","","","","36","","3","","16.1","","100.74","","","","","","NA"
"-64.48","48.78","GASPE A","7052601","2019-03-22 09:00","2019","03","22","09:00","4.0","","-7.0","","45","","","","30","","4","","24.1","","100.62","","","","","","NA"
"-64.48","48.78","GASPE A","7052601","2019-03-22 10:00","2019","03","22","10:00","2.2","","-3.6","","66","","","","9","","15","","24.1","","100.52","","","","","","Cloudy"
"-64.48","48.78","GASPE A","7052601","2019-03-22 11:00","2019","03","22","11:00","2.2","","-4.1","","63","","","","7","","20","","24.1","","100.45","","","","","","NA"
"-64.48","48.78","GASPE A","7052601","2019-03-22 12:00","2019","03","22","12:00","0.1","","-2.7","","82","","","","7","","21","","24.1","","100.41","","","","","","NA"
"-64.48","48.78","GASPE A","7052601","2019-03-22 13:00","2019","03","22","13:00","-0.5","","-1.4","","94","","","","8","","14","","1.6","","100.24","","","","-5","","Heavy Freezing Drizzle,Fog"
"-64.48","48.78","GASPE A","7052601","2019-03-22 14:00","2019","03","22","14:00","-0.6","","-1.2","","96","","","","9","","15","","2.4","","100.19","","","","-5","","Freezing Rain,Fog"
"-64.48","48.78","GASPE A","7052601","2019-03-22 15:00","2019","03","22","15:00","-0.3","","-0.8","","96","","","","11","","11","","4.8","","100.01","","","","-4","","Freezing Rain,Fog"
"-64.48","48.78","GASPE A","7052601","2019-03-22 16:00","2019","03","22","16:00","-0.1","","-0.6","","96","","","","36","","3","","4.8","","99.83","","","","-1","","Fog"
"-64.48","48.78","GASPE A","7052601","2019-03-22 17:00","2019","03","22","17:00","0.0","","-0.4","","97","","","","11","","18","","4.8","","99.68","","","","-5","","Fog"
"-64.48","48.78","GASPE A","7052601","2019-03-22 18:00","2019","03","22","18:00","0.3","","-0.4","","95","","","","8","","18","","6.4","","99.57","","","","","","Snow"
"-64.48","48.78","GASPE A","7052601","2019-03-22 19:00","2019","03","22","19:00","0.0","","-0.6","","96","","","","7","","25","","1.2","","99.39","","","","-6","","Snow"
"-64.48","48.78","GASPE A","7052601","2019-03-22 20:00","2019","03","22","20:00","0.2","","-0.4","","96","","","","9","","19","","0.6","","99.19","","","","","","Moderate Snow"
"-64.48","48.78","GASPE A","7052601","2019-03-22 21:00","2019","03","22","21:00","0.5","","-0.2","","95","","","","7","","27","","1.0","","99.02","","","","","","Snow"
"-64.48","48.78","GASPE A","7052601","2019-03-22 22:00","2019","03","22","22:00","0.4","","-0.5","","94","","","","7","","25","","1.2","","98.91","","","","","","Snow"
"-64.48","48.78","GASPE A","7052601","2019-03-22 23:00","2019","03","22","23:00","0.5","","-0.5","","93","","","","7","","23","","1.2","","98.74","","","","","","Snow"
"-64.48","48.78","GASPE A","7052601","2019-03-23 00:00","2019","03","23","00:00","0.3","","-0.6","","93","","","","7","","24","","1.2","","98.65","","","","","","Snow"
"-64.48","48.78","GASPE A","7052601","2019-03-23 01:00","2019","03","23","01:00","0.3","","-0.4","","95","","","","7","","20","","1.2","","98.54","","","","","","Snow"
"-64.48","48.78","GASPE A","7052601","2019-03-23 02:00","2019","03","23","02:00","0.4","","-0.4","","94","","","","9","","15","","1.2","","98.41","","","","","","Snow"
"-64.48","48.78","GASPE A","7052601","2019-03-23 03:00","2019","03","23","03:00","0.3","","-0.6","","94","","","","8","","10","","1.2","","98.29","","","","","","Snow"
"-64.48","48.78","GASPE A","7052601","2019-03-23 04:00","2019","03","23","04:00","0.2","","-0.5","","95","","","","9","","10","","1.2","","98.21","","","","","","Snow"
"-64.48","48.78","GASPE A","7052601","2019-03-23 05:00","2019","03","23","05:00","0.2","","-0.4","","96","","","","8","","6","","1.2","","98.16","","","","","","Snow"
"-64.48","48.78","GASPE A","7052601","2019-03-23 06:00","2019","03","23","06:00","0.3","","-0.3","","96","","","","6","","4","","3.2","","98.15","","","","","","Snow"
"-64.48","48.78","GASPE A","7052601","2019-03-23 07:00","2019","03","23","07:00","0.6","","-0.1","","95","","","","3","","5","","3.2","","98.13","","","","","","Snow"
"-64.48","48.78","GASPE A","7052601","2019-03-23 08:00","2019","03","23","08:00","0.6","","-0.2","","94","","","","1","","12","","3.2","","98.12","","","","","","Snow"
"-64.48","48.78","GASPE A","7052601","2019-03-23 09:00","2019","03","23","09:00","0.8","","0.1","","95","","","","31","","5","","11.3","","98.11","","","","","","NA"
"-64.48","48.78","GASPE A","7052601","2019-03-23 10:00","2019","03","23","10:00","0.9","","-0.2","","92","","","","32","","12","","2.4","","98.11","","","","","","Snow"
"-64.48","48.78","GASPE A","7052601","2019-03-23 11:00","2019","03","23","11:00","0.9","","-0.1","","93","","","","29","","9","","2.4","","98.13","","","","","","Snow"
"-64.48","48.78","GASPE A","7052601","2019-03-23 12:00","2019","03","23","12:00","1.4","","0.1","","91","","","","30","","10","","4.8","","98.18","","","","","","Snow"
"-64.48","48.78","GASPE A","7052601","2019-03-23 13:00","2019","03","23","13:00","1.1","","-0.1","","92","","","","28","","10","","6.4","","98.21","","","","","","Snow"
"-64.48","48.78","GASPE A","7052601","2019-03-23 14:00","2019","03","23","14:00","0.6","","-0.9","","90","","","","32","","19","","4.8","","98.30","","","","","","Snow"
"-64.48","48.78","GASPE A","7052601","2019-03-23 15:00","2019","03","23","15:00","-0.4","","-2.2","","87","","","","31","","24","","6.4","","98.40","","","","-6","","Snow"
"-64.48","48.78","GASPE A","7052601","2019-03-23 16:00","2019","03","23","16:00","-1.0","","-3.5","","83","","","","30","","25","","12.9","","98.52","","","","-7","","Cloudy"
"-64.48","48.78","GASPE A","7052601","2019-03-23 17:00","2019","03","23","17:00","-1.6","","-4.1","","83","","","","30","","21","","12.9","","98.64","","","","-7","","NA"
"-64.48","48.78","GASPE A","7052601","2019-03-23 18:00","2019","03","23","18:00","-1.9","","-3.9","","86","","","","31","","15","","16.1","","98.71","","","","-7","","NA"
"-64.48","48.78","GASPE A","7052601","2019-03-23 19:00","2019","03","23","19:00","-1.7","","-3.7","","86","","","","30","","18","","16.1","","98.79","","","","-7","","Cloudy"
"-64.48","48.78","GASPE A","7052601","2019-03-23 20:00","2019","03","23","20:00","-1.7","","-3.9","","85","","","","29","","15","","16.1","","98.88","","","","-7","","NA"
"-64.48","48.78","GASPE A","7052601","2019-03-23 21:00","2019","03","23","21:00","-2.0","","-4.3","","84","","","","31","","21","","16.1","","98.92","","","","-8","","NA"
"-64.48","48.78","GASPE A","7052601","2019-03-23 22:00","2019","03","23","22:00","-2.0","","-5.7","","76","","","","30","","27","","24.1","","98.98","","","","-9","","Snow"
"-64.48","48.78","GASPE A","7052601","2019-03-23 23:00","2019","03","23","23:00","-2.3","","-6.3","","74","","","","31","","26","","24.1","","99.02","","","","-9","","NA"
"-64.48","48.78","GASPE A","7052601","2019-03-24 00:00","2019","03","24","00:00","-2.2","","-5.8","","76","","","","29","","22","","24.1","","99.10","","","","-8","","NA"
"-64.48","48.78","GASPE A","7052601","2019-03-24 01:00","2019","03","24","01:00","-2.0","","-5.2","","79","","","","29","","11","","24.1","","99.18","","","","-6","","Mainly Clear"
"-64.48","48.78","GASPE A","7052601","2019-03-24 02:00","2019","03","24","02:00","-1.5","","-5.6","","73","","","","29","","23","","24.1","","99.21","","","","-8","","NA"
"-64.48","48.78","GASPE A","7052601","2019-03-24 03:00","2019","03","24","03:00","-2.8","","-7.9","","68","","","","25","","13","","24.1","","99.31","","","","-7","","NA"
"-64.48","48.78","GASPE A","7052601","2019-03-24 04:00","2019","03","24","04:00","-3.4","","-9.5","","63","","","","29","","18","","24.1","","99.40","","","","-9","","Clear"
"-64.48","48.78","GASPE A","7052601","2019-03-24 05:00","2019","03","24","05:00","-4.7","","-10.7","","63","","","","26","","12","","24.1","","99.49","","","","-9","","NA"
"-64.48","48.78","GASPE A","7052601","2019-03-24 06:00","2019","03","24","06:00","-3.8","","-9.9","","63","","","","27","","27","","24.1","","99.47","","","","-11","","NA"
"-64.48","48.78","GASPE A","7052601","2019-03-24 07:00","2019","03","24","07:00","-2.5","","-9.2","","60","","","","28","","19","","16.1","","99.52","","","","-8","","Clear"
"-64.48","48.78","GASPE A","7052601","2019-03-24 08:00","2019","03","24","08:00","-0.4","","-7.6","","59","","","","27","","23","","16.1","","99.56","","","","-6","","NA"
"-64.48","48.78","GASPE A","7052601","2019-03-24 09:00","2019","03","24","09:00","1.3","","-7.0","","54","","","","27","","26","","16.1","","99.53","","","","","","NA"
"-64.48","48.78","GASPE A","7052601","2019-03-24 10:00","2019","03","24","10:00","2.7","","-4.5","","59","","","","27","","32","","24.1","","99.50","","","","","","Mostly Cloudy"
"-64.48","48.78","GASPE A","7052601","2019-03-24 11:00","2019","03","24","11:00","3.2","","-4.0","","60","","","","28","","31","","24.1","","99.50","","","","","","NA"
"-64.48","48.78","GASPE A","7052601","2019-03-24 12:00","2019","03","24","12:00","2.8","","-4.4","","59","","","","26","","34","","24.1","","99.53","","","","","","NA"
"-64.48","48.78","GASPE A","7052601","2019-03-24 13:00","2019","03","24","13:00","3.8","","-4.1","","56","","","","28","","25","","24.1","","99.60","","","","","","Mostly Cloudy"
"-64.48","48.78","GASPE A","7052601","2019-03-24 14:00","2019","03","24","14:00","3.4","","-6.8","","47","","","","29","","29","","24.1","","99.73","","","","","","NA"
"-64.48","48.78","GASPE A","7052601","2019-03-24 15:00","2019","03","24","15:00","1.0","","-14.5","","31","","","","28","","40","","24.1","","99.92","","","","","","NA"
"-64.48","48.78","GASPE A","7052601","2019-03-24 16:00","2019","03","24","16:00","-0.3","","-16.4","","29","","","","30","","28","","24.1","","100.05","","","","-7","","Clear"
"-64.48","48.78","GASPE A","7052601","2019-03-24 17:00","2019","03","24","17:00","-1.6","","-14.9","","36","","","","32","","17","","24.1","","100.16","","","","-7","","NA"
"-64.48","48.78","GASPE A","7052601","2019-03-24 18:00","2019","03","24","18:00","-3.3","","-14.5","","42","","","","32","","9","","24.1","","100.30","","","","-7","","NA"
"-64.48","48.78","GASPE A","7052601","2019-03-24 19:00","2019","03","24","19:00","-4.3","","-14.5","","45","","","","30","","13","","24.1","","100.43","","","","-9","","Clear"
"-64.48","48.78","GASPE A","7052601","2019-03-24 20:00","2019","03","24","20:00","-6.1","","-14.2","","53","","","","31","","9","","24.1","","100.52","","","","-10","","NA"
"-64.48","48.78","GASPE A","7052601","2019-03-24 21:00","2019","03","24","21:00","-7.2","","-13.9","","59","","","","32","","11","","24.1","","100.61","","","","-12","","NA"
"-64.48","48.78","GASPE A","7052601","2019-03-24 22:00","2019","03","24","22:00","-8.4","","-14.6","","61","","","","33","","8","","24.1","","100.65","","","","-13","","Clear"
"-64.48","48.78","GASPE A","7052601","2019-03-24 23:00","2019","03","24","23:00","-9.3","","-14.3","","68","","","","26","","10","","24.1","","100.66","","","","-14","","NA"
"-64.48","48.78","GASPE A","7052601","2019-03-25 00:00","2019","03","25","00:00","-9.1","","-17.1","","53","","","","28","","11","","24.1","","100.69","","","","-15","","NA"
"-64.48","48.78","GASPE A","7052601","2019-03-25 01:00","2019","03","25","01:00","-11.5","","-16.2","","68","","","","28","","13","","24.1","","100.72","","","","-18","","Clear"
"-64.48","48.78","GASPE A","7052601","2019-03-25 02:00","2019","03","25","02:00","-11.8","","-18.4","","58","","","","27","","8","","24.1","","100.71","","","","-17","","NA"
"-64.48","48.78","GASPE A","7052601","2019-03-25 03:00","2019","03","25","03:00","-13.6","","-18.0","","70","","","","29","","8","","24.1","","100.71","","","","-19","","NA"
"-64.48","48.78","GASPE A","7052601","2019-03-25 04:00","2019","03","25","04:00","-15.0","","-17.8","","79","","","","25","","7","","17.7","","100.78","","","","-20","","Clear"
"-64.48","48.78","GASPE A","7052601","2019-03-25 05:00","2019","03","25","05:00","-15.8","","-18.4","","81","","","","36","","1","","24.1","","100.75","","","","-17","","NA"
"-64.48","48.78","GASPE A","7052601","2019-03-25 06:00","2019","03","25","06:00","-15.7","","-18.8","","77","","","","31","","6","","24.1","","100.74","","","","-20","","NA"
"-64.48","48.78","GASPE A","7052601","2019-03-25 07:00","2019","03","25","07:00","-11.6","","-19.5","","53","","","","29","","11","","24.1","","100.69","","","","-18","","Clear"
"-64.48","48.78","GASPE A","7052601","2019-03-25 08:00","2019","03","25","08:00","-9.5","","-18.7","","48","","","","26","","26","","24.1","","100.62","","","","-18","","NA"
"-64.48","48.78","GASPE A","7052601","2019-03-25 09:00","2019","03","25","09:00","-8.5","","-18.9","","43","","","","27","","22","","24.1","","100.58","","","","-16","","NA"
"-64.48","48.78","GASPE A","7052601","2019-03-25 10:00","2019","03","25","10:00","-8.3","","-18.4","","45","","","","26","","27","","24.1","","100.52","","","","-17","","Mostly Cloudy"
"-64.48","48.78","GASPE A","7052601","2019-03-25 11:00","2019","03","25","11:00","-6.8","","-17.9","","41","","","","26","","31","","24.1","","100.44","","","","-15","","NA"
"-64.48","48.78","GASPE A","7052601","2019-03-25 12:00","2019","03","25","12:00","-5.8","","-16.2","","44","","","","25","","30","","24.1","","100.43","","","","-14","","NA"
"-64.48","48.78","GASPE A","7052601","2019-03-25 13:00","2019","03","25","13:00","-6.1","","-17.0","","42","","","","26","","24","","24.1","","100.42","","","","-14","","Mostly Cloudy"
"-64.48","48.78","GASPE A","7052601","2019-03-25 14:00","2019","03","25","14:00","-6.2","","-17.6","","41","","","","27","","34","","24.1","","100.46","","","","-15","","NA"
"-64.48","48.78","GASPE A","7052601","2019-03-25 15:00","2019","03","25","15:00","-5.6","","-16.8","","41","","","","25","","34","","24.1","","100.48","","","","-14","","NA"
"-64.48","48.78","GASPE A","7052601","2019-03-25 16:00","2019","03","25","16:00","-6.4","","-16.8","","44","","","","27","","25","","24.1","","100.53","","","","-14","","Mostly Cloudy"
"-64.48","48.78","GASPE A","7052601","2019-03-25 17:00","2019","03","25","17:00","-7.0","","-18.4","","40","","","","27","","35","","24.1","","100.64","","","","-16","","NA"
"-64.48","48.78","GASPE A","7052601","2019-03-25 18:00","2019","03","25","18:00","-8.2","","-18.2","","45","","","","27","","18","","24.1","","100.77","","","","-15","","NA"
"-64.48","48.78","GASPE A","7052601","2019-03-25 19:00","2019","03","25","19:00","-9.8","","-18.1","","51","","","","29","","8","","24.1","","100.87","","","","-14","","Clear"
"-64.48","48.78","GASPE A","7052601","2019-03-25 20:00","2019","03","25","20:00","-10.1","","-18.4","","51","","","","29","","14","","24.1","","100.96","","","","-17","","NA"
"-64.48","48.78","GASPE A","7052601","2019-03-25 21:00","2019","03","25","21:00","-10.4","","-16.8","","60","","","","31","","12","","24.1","","101.05","","","","-16","","NA"
"-64.48","48.78","GASPE A","7052601","2019-03-25 22:00","2019","03","25","22:00","-12.8","","-16.9","","72","","","","26","","8","","24.1","","101.05","","","","-18","","Mainly Clear"
"-64.48","48.78","GASPE A","7052601","2019-03-25 23:00","2019","03","25","23:00","-15.1","","-17.9","","80","","","","36","","2","","24.1","","101.03","","","","-17","","NA"
"-64.48","48.78","GASPE A","7052601","2019-03-26 00:00","2019","03","26","00:00","-16.7","","-18.8","","84","","","","23","","5","","24.1","","101.03","","","","-21","","NA"
"-64.48","48.78","GASPE A","7052601","2019-03-26 01:00","2019","03","26","01:00","-15.0","","-17.6","","81","","","","32","","12","","24.1","","101.02","","","","-22","","Clear"
"-64.48","48.78","GASPE A","7052601","2019-03-26 02:00","2019","03","26","02:00","-15.9","","-18.5","","81","","","","36","","2","","24.1","","100.98","","","","-17","","NA"
"-64.48","48.78","GASPE A","7052601","2019-03-26 03:00","2019","03","26","03:00","-16.1","","-18.4","","83","","","","36","","1","","24.1","","100.96","","","","-17","","NA"
"-64.48","48.78","GASPE A","7052601","2019-03-26 04:00","2019","03","26","04:00","-13.5","","-17.5","","73","","","","31","","13","","24.1","","101.06","","","","-20","","Mainly Clear"
"-64.48","48.78","GASPE A","7052601","2019-03-26 05:00","2019","03","26","05:00","-13.8","","-18.2","","70","","","","26","","14","","24.1","","101.13","","","","-21","","NA"
"-64.48","48.78","GASPE A","7052601","2019-03-26 06:00","2019","03","26","06:00","-12.3","","-17.6","","65","","","","28","","12","","24.1","","101.19","","","","-19","","NA"
"-64.48","48.78","GASPE A","7052601","2019-03-26 07:00","2019","03","26","07:00","-11.1","","-18.9","","53","","","","29","","20","","24.1","","101.24","","","","-19","","Mainly Clear"
"-64.48","48.78","GASPE A","7052601","2019-03-26 08:00","2019","03","26","08:00","-10.5","","-19.4","","48","","","","27","","22","","24.1","","101.25","","","","-19","","NA"
"-64.48","48.78","GASPE A","7052601","2019-03-26 09:00","2019","03","26","09:00","-9.4","","-20.5","","41","","","","26","","31","","24.1","","101.25","","","","-19","","NA"
"-64.48","48.78","GASPE A","7052601","2019-03-26 10:00","2019","03","26","10:00","-8.3","","-19.7","","40","","","","25","","31","","24.1","","101.19","","","","-17","","Mainly Clear"
"-64.48","48.78","GASPE A","7052601","2019-03-26 11:00","2019","03","26","11:00","-7.1","","-20.1","","35","","","","28","","14","","24.1","","101.13","","","","-13","","NA"
"-64.48","48.78","GASPE A","7052601","2019-03-26 12:00","2019","03","26","12:00","-6.0","","-18.2","","38","","","","26","","22","","24.1","","101.08","","","","-13","","NA"
"-64.48","48.78","GASPE A","7052601","2019-03-26 13:00","2019","03","26","13:00","-5.3","","-17.3","","39","","","","27","","22","","24.1","","101.07","","","","-12","","Clear"
"-64.48","48.78","GASPE A","7052601","2019-03-26 14:00","2019","03","26","14:00","-4.5","","-16.4","","39","","","","28","","21","","24.1","","101.06","","","","-11","","NA"
"-64.48","48.78","GASPE A","7052601","2019-03-26 15:00","2019","03","26","15:00","-5.6","","-16.9","","41","","","","27","","30","","24.1","","101.10","","","","-14","","NA"
"-64.48","48.78","GASPE A","7052601","2019-03-26 16:00","2019","03","26","16:00","-6.2","","-17.6","","40","","","","27","","32","","24.1","","101.23","","","","-15","","Mostly Cloudy"
"-64.48","48.78","GASPE A","7052601","2019-03-26 17:00","2019","03","26","17:00","-6.6","","-18.6","","38","","","","30","","21","","24.1","","101.34","","","","-14","","NA"
"-64.48","48.78","GASPE A","7052601","2019-03-26 18:00","2019","03","26","18:00","-8.0","","-19.7","","39","","","","29","","11","","24.1","","101.50","","","","-13","","NA"
"-64.48","48.78","GASPE A","7052601","2019-03-26 19:00","2019","03","26","19:00","-10.4","","-18.5","","52","","","","29","","8","","24.1","","101.65","","","","-15","","Clear"
"-64.48","48.78","GASPE A","7052601","2019-03-26 20:00","2019","03","26","20:00","-10.4","","-17.7","","56","","","","29","","10","","24.1","","101.73","","","","-16","","NA"
"-64.48","48.78","GASPE A","7052601","2019-03-26 21:00","2019","03","26","21:00","-11.0","","-17.3","","60","","","","29","","14","","24.1","","101.81","","","","-18","","NA"
"-64.48","48.78","GASPE A","7052601","2019-03-26 22:00","2019","03","26","22:00","-11.2","","-16.8","","63","","","","31","","10","","24.1","","101.88","","","","-17","","Clear"
"-64.48","48.78","GASPE A","7052601","2019-03-26 23:00","2019","03","26","23:00","-11.2","","-16.5","","65","","","","31","","8","","24.1","","101.96","","","","-16","","NA"
"-64.48","48.78","GASPE A","7052601","2019-03-27 00:00","2019","03","27","00:00","-13.0","","-16.2","","77","","","","31","","8","","24.1","","102.07","","","","-18","","NA"
"-64.48","48.78","GASPE A","7052601","2019-03-27 01:00","2019","03","27","01:00","-12.9","","-15.8","","79","","","","26","","11","","24.1","","102.15","","","","-19","","Mainly Clear"
"-64.48","48.78","GASPE A","7052601","2019-03-27 02:00","2019","03","27","02:00","-12.9","","-16.0","","78","","","","29","","14","","24.1","","102.22","","","","-20","","NA"
"-64.48","48.78","GASPE A","7052601","2019-03-27 03:00","2019","03","27","03:00","-14.4","","-17.0","","81","","","","29","","9","","24.1","","102.31","","","","-20","","NA"
"-64.48","48.78","GASPE A","7052601","2019-03-27 04:00","2019","03","27","04:00","-16.3","","-18.9","","81","","","","26","","10","","24.1","","102.42","","","","-23","","Mainly Clear"
"-64.48","48.78","GASPE A","7052601","2019-03-27 05:00","2019","03","27","05:00","-16.9","","-19.6","","80","","","","27","","11","","24.1","","102.51","","","","-24","","NA"
"-64.48","48.78","GASPE A","7052601","2019-03-27 06:00","2019","03","27","06:00","-17.5","","-20.0","","81","","","","24","","6","","24.1","","102.60","","","","-22","","NA"
"-64.48","48.78","GASPE A","7052601","2019-03-27 07:00","2019","03","27","07:00","-13.5","","-17.9","","70","","","","24","","8","","24.1","","102.66","","","","-19","","Clear"
"-64.48","48.78","GASPE A","7052601","2019-03-27 08:00","2019","03","27","08:00","-9.5","","-16.9","","55","","","","25","","10","","24.1","","102.67","","","","-15","","NA"
"-64.48","48.78","GASPE A","7052601","2019-03-27 09:00","2019","03","27","09:00","-7.4","","-16.9","","47","","","","23","","7","","24.1","","102.66","","","","-11","","NA"
"-64.48","48.78","GASPE A","7052601","2019-03-27 10:00","2019","03","27","10:00","-6.0","","-17.2","","41","","","","36","","2","","24.1","","102.62","","","","-7","","Clear"
"-64.48","48.78","GASPE A","7052601","2019-03-27 11:00","2019","03","27","11:00","-3.8","","-17.9","","33","","","","30","","9","","24.1","","102.56","","","","-8","","NA"
"-64.48","48.78","GASPE A","7052601","2019-03-27 12:00","2019","03","27","12:00","-5.3","","-14.6","","48","","","","9","","23","","24.1","","102.54","","","","-12","","NA"
"-64.48","48.78","GASPE A","7052601","2019-03-27 13:00","2019","03","27","13:00","-4.4","","-11.4","","58","","","","8","","22","","24.1","","102.44","","","","-11","","Clear"
"-64.48","48.78","GASPE A","7052601","2019-03-27 14:00","2019","03","27","14:00","-1.5","","-12.5","","43","","","","7","","9","","24.1","","102.30","","","","-5","","NA"
"-64.48","48.78","GASPE A","7052601","2019-03-27 15:00","2019","03","27","15:00","-1.3","","-13.7","","39","","","","21","","12","","24.1","","102.30","","","","-5","","NA"
"-64.48","48.78","GASPE A","7052601","2019-03-27 16:00","2019","03","27","16:00","-1.1","","-13.8","","38","","","","18","","18","","24.1","","102.23","","","","-6","","Mainly Clear"
"-64.48","48.78","GASPE A","7052601","2019-03-27 17:00","2019","03","27","17:00","-2.0","","-13.1","","43","","","","24","","5","","24.1","","102.27","","","","-4","","NA"
"-64.48","48.78","GASPE A","7052601","2019-03-27 18:00","2019","03","27","18:00","-3.3","","-12.1","","51","","","","24","","21","","24.1","","102.26","","","","-10","","NA"
"-64.48","48.78","GASPE A","7052601","2019-03-27 19:00","2019","03","27","19:00","-3.8","","-12.0","","53","","","","32","","14","","24.1","","102.35","","","","-9","","Clear"
"-64.48","48.78","GASPE A","7052601","2019-03-27 20:00","2019","03","27","20:00","-4.5","","-11.8","","57","","","","24","","4","","24.1","","102.39","","","","-6","","NA"
"-64.48","48.78","GASPE A","7052601","2019-03-27 21:00","2019","03","27","21:00","-5.4","","-11.5","","62","","","","2","","13","","24.1","","102.40","","","","-11","","NA"
"-64.48","48.78","GASPE A","7052601","2019-03-27 22:00","2019","03","27","22:00","-7.6","","-12.2","","70","","","","31","","7","","24.1","","102.35","","","","-11","","Clear"
"-64.48","48.78","GASPE A","7052601","2019-03-27 23:00","2019","03","27","23:00","-8.1","","-11.5","","77","","","","35","","4","","24.1","","102.32","","","","-10","","NA"
"-64.48","48.78","GASPE A","7052601","2019-03-28 00:00","2019","03","28","00:00","-9.8","","-12.8","","78","","","","36","","1","","24.1","","102.27","","","","-10","","NA"
"-64.48","48.78","GASPE A","7052601","2019-03-28 01:00","2019","03","28","01:00","-10.1","","-12.8","","81","","","","8","","3","","24.1","","102.22","","","","-12","","Clear"
"-64.48","48.78","GASPE A","7052601","2019-03-28 02:00","2019","03","28","02:00","-10.8","","-12.8","","86","","","","0","","1","","24.1","","102.18","","","","-11","","NA"
"-64.48","48.78","GASPE A","7052601","2019-03-28 03:00","2019","03","28","03:00","-12.0","","-13.9","","86","","","","36","","1","","24.1","","102.14","","","","-13","","NA"
"-64.48","48.78","GASPE A","7052601","2019-03-28 04:00","2019","03","28","04:00","-11.2","","-13.0","","86","","","","3","","4","","24.1","","102.10","","","","-14","","Mainly Clear"
"-64.48","48.78","GASPE A","7052601","2019-03-28 05:00","2019","03","28","05:00","-13.2","","-15.1","","86","","","","30","","4","","24.1","","102.11","","","","-16","","NA"
"-64.48","48.78","GASPE A","7052601","2019-03-28 06:00","2019","03","28","06:00","-11.8","","-13.6","","87","","","","36","","1","","24.1","","102.07","","","","-12","","NA"
"-64.48","48.78","GASPE A","7052601","2019-03-28 07:00","2019","03","28","07:00","-7.1","","-11.9","","69","","","","9","","5","","24.1","","102.00","","","","-10","","Mainly Clear"
"-64.48","48.78","GASPE A","7052601","2019-03-28 08:00","2019","03","28","08:00","-4.0","","-10.2","","62","","","","10","","7","","24.1","","101.89","","","","-7","","NA"
"-64.48","48.78","GASPE A","7052601","2019-03-28 09:00","2019","03","28","09:00","3.1","","-11.8","","33","","","","13","","5","","24.1","","101.77","","","","","","NA"
"-64.48","48.78","GASPE A","7052601","2019-03-28 10:00","2019","03","28","10:00","4.5","","-11.6","","30","","","","24","","28","","24.1","","101.66","","","","","","Mostly Cloudy"
"-64.48","48.78","GASPE A","7052601","2019-03-28 11:00","2019","03","28","11:00","4.7","","-9.4","","35","","","","25","","4","","24.1","","101.52","","","","","","NA"
"-64.48","48.78","GASPE A","7052601","2019-03-28 12:00","2019","03","28","12:00","6.8","","-9.2","","31","","","","17","","12","","24.1","","101.43","","","","","","NA"
"-64.48","48.78","GASPE A","7052601","2019-03-28 13:00","2019","03","28","13:00","6.2","","-7.7","","36","","","","20","","18","","24.1","","101.36","","","","","","Cloudy"
"-64.48","48.78","GASPE A","7052601","2019-03-28 14:00","2019","03","28","14:00","6.2","","-7.3","","37","","","","19","","21","","24.1","","101.26","","","","","","NA"
"-64.48","48.78","GASPE A","7052601","2019-03-28 15:00","2019","03","28","15:00","5.6","","-6.2","","43","","","","19","","13","","24.1","","101.18","","","","","","NA"
"-64.48","48.78","GASPE A","7052601","2019-03-28 16:00","2019","03","28","16:00","5.1","","-5.6","","46","","","","19","","19","","24.1","","101.13","","","","","","Cloudy"
"-64.48","48.78","GASPE A","7052601","2019-03-28 17:00","2019","03","28","17:00","4.9","","-4.8","","50","","","","19","","12","","24.1","","101.10","","","","","","NA"
"-64.48","48.78","GASPE A","7052601","2019-03-28 18:00","2019","03","28","18:00","4.6","","-4.6","","51","","","","21","","14","","24.1","","101.09","","","","","","NA"
"-64.48","48.78","GASPE A","7052601","2019-03-28 19:00","2019","03","28","19:00","4.2","","-4.4","","53","","","","22","","9","","24.1","","101.10","","","","","","Cloudy"
"-64.48","48.78","GASPE A","7052601","2019-03-28 20:00","2019","03","28","20:00","4.3","","-4.4","","53","","","","20","","13","","24.1","","101.09","","","","","","NA"
"-64.48","48.78","GASPE A","7052601","2019-03-28 21:00","2019","03","28","21:00","4.1","","-4.0","","56","","","","23","","16","","24.1","","101.09","","","","","","NA"
"-64.48","48.78","GASPE A","7052601","2019-03-28 22:00","2019","03","28","22:00","3.3","","-3.0","","63","","","","23","","19","","24.1","","101.10","","","","","","Cloudy"
"-64.48","48.78","GASPE A","7052601","2019-03-28 23:00","2019","03","28","23:00","3.2","","-3.3","","62","","","","24","","8","","24.1","","101.06","","","","","","NA"
"-64.48","48.78","GASPE A","7052601","2019-03-29 00:00","2019","03","29","00:00","2.4","","-2.4","","71","","","","26","","15","","24.1","","101.04","","","","","","NA"
"-64.48","48.78","GASPE A","7052601","2019-03-29 01:00","2019","03","29","01:00","2.1","","-2.0","","74","","","","26","","19","","24.1","","101.03","","","","","","Cloudy"
"-64.48","48.78","GASPE A","7052601","2019-03-29 02:00","2019","03","29","02:00","2.1","","-1.7","","76","","","","25","","13","","24.1","","101.00","","","","","","NA"
"-64.48","48.78","GASPE A","7052601","2019-03-29 03:00","2019","03","29","03:00","2.1","","-1.6","","77","","","","27","","9","","24.1","","101.00","","","","","","NA"
"-64.48","48.78","GASPE A","7052601","2019-03-29 04:00","2019","03","29","04:00","2.1","","-1.4","","78","","","","24","","9","","24.1","","101.02","","","","","","Cloudy"
"-64.48","48.78","GASPE A","7052601","2019-03-29 05:00","2019","03","29","05:00","2.2","","-1.2","","78","","","","24","","3","","24.1","","101.03","","","","","","NA"
"-64.48","48.78","GASPE A","7052601","2019-03-29 06:00","2019","03","29","06:00","2.8","","-0.9","","77","","","","22","","9","","24.1","","101.00","","","","","","NA"
"-64.48","48.78","GASPE A","7052601","2019-03-29 07:00","2019","03","29","07:00","2.6","","-0.4","","81","","","","25","","14","","24.1","","101.03","","","","","","Mostly Cloudy"
"-64.48","48.78","GASPE A","7052601","2019-03-29 08:00","2019","03","29","08:00","3.2","","-0.3","","78","","","","29","","5","","24.1","","101.00","","","","","","NA"
"-64.48","48.78","GASPE A","7052601","2019-03-29 09:00","2019","03","29","09:00","4.1","","0.0","","75","","","","27","","15","","24.1","","100.93","","","","","","NA"
"-64.48","48.78","GASPE A","7052601","2019-03-29 10:00","2019","03","29","10:00","5.0","","0.2","","71","","","","28","","13","","24.1","","100.91","","","","","","Cloudy"
"-64.48","48.78","GASPE A","7052601","2019-03-29 11:00","2019","03","29","11:00","5.8","","0.3","","67","","","","26","","23","","24.1","","100.85","","","","","","NA"
"-64.48","48.78","GASPE A","7052601","2019-03-29 12:00","2019","03","29","12:00","5.4","","0.6","","71","","","","24","","21","","24.1","","100.81","","","","","","NA"
"-64.48","48.78","GASPE A","7052601","2019-03-29 13:00","2019","03","29","13:00","5.3","","0.5","","71","","","","26","","27","","24.1","","100.81","","","","","","Mostly Cloudy"
"-64.48","48.78","GASPE A","7052601","2019-03-29 14:00","2019","03","29","14:00","5.8","","1.0","","71","","","","24","","18","","24.1","","100.83","","","","","","NA"
"-64.48","48.78","GASPE A","7052601","2019-03-29 15:00","2019","03","29","15:00","6.1","","0.8","","69","","","","27","","14","","24.1","","100.84","","","","","","NA"
"-64.48","48.78","GASPE A","7052601","2019-03-29 16:00","2019","03","29","16:00","2.0","","-0.7","","82","","","","36","","12","","24.1","","100.98","","","","","","Rain Showers"
"-64.48","48.78","GASPE A","7052601","2019-03-29 17:00","2019","03","29","17:00","2.0","","-0.9","","81","","","","31","","4","","16.1","","101.07","","","","","","NA"
"-64.48","48.78","GASPE A","7052601","2019-03-29 18:00","2019","03","29","18:00","1.6","","-0.7","","85","","","","15","","4","","16.1","","101.13","","","","","","NA"
"-64.48","48.78","GASPE A","7052601","2019-03-29 19:00","2019","03","29","19:00","0.2","","-1.3","","90","","","","0","","1","","24.1","","101.24","","","","","","Cloudy"
"-64.48","48.78","GASPE A","7052601","2019-03-29 20:00","2019","03","29","20:00","-0.2","","-1.5","","91","","","","33","","4","","24.1","","101.32","","","","-1","","NA"
"-64.48","48.78","GASPE A","7052601","2019-03-29 21:00","2019","03","29","21:00","0.1","","-1.4","","90","","","","26","","9","","24.1","","101.40","","","","","","NA"
"-64.48","48.78","GASPE A","7052601","2019-03-29 22:00","2019","03","29","22:00","0.0","","-9.3","","50","","","","31","","14","","24.1","","101.52","","","","-4","","Cloudy"
"-64.48","48.78","GASPE A","7052601","2019-03-29 23:00","2019","03","29","23:00","-1.5","","-13.1","","41","","","","31","","18","","24.1","","101.65","","","","-7","","NA"
"-64.48","48.78","GASPE A","7052601","2019-03-30 00:00","2019","03","30","00:00","-2.9","","-12.1","","50","","","","31","","11","","24.1","","101.74","","","","-7","","NA"
"-64.48","48.78","GASPE A","7052601","2019-03-30 01:00","2019","03","30","01:00","-3.3","","-11.1","","55","","","","31","","17","","24.1","","101.81","","","","-9","","Clear"
"-64.48","48.78","GASPE A","7052601","2019-03-30 02:00","2019","03","30","02:00","-4.4","","-13.8","","48","","","","30","","20","","24.1","","101.90","","","","-11","","NA"
"-64.48","48.78","GASPE A","7052601","2019-03-30 03:00","2019","03","30","03:00","-5.2","","-13.9","","51","","","","29","","16","","24.1","","102.00","","","","-11","","NA"
"-64.48","48.78","GASPE A","7052601","2019-03-30 04:00","2019","03","30","04:00","-6.2","","-13.7","","55","","","","29","","9","","24.1","","102.10","","","","-10","","Mainly Clear"
"-64.48","48.78","GASPE A","7052601","2019-03-30 05:00","2019","03","30","05:00","-7.5","","-13.4","","63","","","","27","","9","","24.1","","102.20","","","","-12","","NA"
"-64.48","48.78","GASPE A","7052601","2019-03-30 06:00","2019","03","30","06:00","-7.7","","-13.6","","63","","","","27","","12","","24.1","","102.28","","","","-13","","NA"
"-64.48","48.78","GASPE A","7052601","2019-03-30 07:00","2019","03","30","07:00","-5.0","","-13.4","","52","","","","32","","5","","24.1","","102.27","","","","-7","","Clear"
"-64.48","48.78","GASPE A","7052601","2019-03-30 08:00","2019","03","30","08:00","-3.8","","-14.2","","45","","","","29","","3","","24.1","","102.30","","","","-5","","NA"
"-64.48","48.78","GASPE A","7052601","2019-03-30 09:00","2019","03","30","09:00","-2.4","","-13.0","","45","","","","15","","7","","24.1","","102.31","","","","-5","","NA"
"-64.48","48.78","GASPE A","7052601","2019-03-30 10:00","2019","03","30","10:00","-1.8","","-11.2","","49","","","","8","","18","","24.1","","102.22","","","","-7","","Mainly Clear"
"-64.48","48.78","GASPE A","7052601","2019-03-30 11:00","2019","03","30","11:00","-2.0","","-9.3","","58","","","","7","","20","","24.1","","102.21","","","","-8","","NA"
"-64.48","48.78","GASPE A","7052601","2019-03-30 12:00","2019","03","30","12:00","-2.1","","-9.3","","58","","","","8","","25","","24.1","","102.13","","","","-9","","NA"
"-64.48","48.78","GASPE A","7052601","2019-03-30 13:00","2019","03","30","13:00","-0.8","","-7.3","","61","","","","7","","31","","24.1","","102.05","","","","-8","","Mostly Cloudy"
"-64.48","48.78","GASPE A","7052601","2019-03-30 14:00","2019","03","30","14:00","-0.2","","-8.0","","55","","","","9","","19","","24.1","","102.01","","","","-5","","NA"
"-64.48","48.78","GASPE A","7052601","2019-03-30 15:00","2019","03","30","15:00","-0.3","","-8.8","","53","","","","10","","18","","24.1","","101.92","","","","-5","","NA"
"-64.48","48.78","GASPE A","7052601","2019-03-30 16:00","2019","03","30","16:00","0.0","","-11.2","","43","","","","12","","14","","24.1","","101.88","","","","-4","","Cloudy"
"-64.48","48.78","GASPE A","7052601","2019-03-30 17:00","2019","03","30","17:00","-0.6","","-11.0","","45","","","","17","","11","","24.1","","101.88","","","","-4","","NA"
"-64.48","48.78","GASPE A","7052601","2019-03-30 18:00","2019","03","30","18:00","-1.8","","-8.5","","60","","","","8","","12","","24.1","","101.87","","","","-6","","NA"
"-64.48","48.78","GASPE A","7052601","2019-03-30 19:00","2019","03","30","19:00","-3.1","","-5.8","","82","","","","8","","14","","4.8","","101.87","","","","-8","","Ice Pellets"
"-64.48","48.78","GASPE A","7052601","2019-03-30 20:00","2019","03","30","20:00","-3.2","","-5.1","","87","","","","9","","12","","1.2","","101.78","","","","-8","","Snow"
"-64.48","48.78","GASPE A","7052601","2019-03-30 21:00","2019","03","30","21:00","-3.0","","-4.0","","93","","","","7","","9","","6.4","","101.70","","","","-7","","Freezing Rain"
"-64.48","48.78","GASPE A","7052601","2019-03-30 22:00","2019","03","30","22:00","-2.2","","-3.9","","88","","","","10","","16","","6.4","","101.60","","","","-7","","Freezing Rain"
"-64.48","48.78","GASPE A","7052601","2019-03-30 23:00","2019","03","30","23:00","-1.7","","-2.9","","92","","","","8","","12","","6.4","","101.46","","","","-6","","Freezing Rain"
"-64.48","48.78","GASPE A","7052601","2019-03-31 00:00","2019","03","31","00:00","-1.4","","-2.7","","91","","","","10","","16","","4.8","","101.33","","","","-6","","Freezing Drizzle"
"-64.48","48.78","GASPE A","7052601","2019-03-31 01:00","2019","03","31","01:00","-1.4","","-2.2","","94","","","","8","","12","","3.2","","101.15","","","","-5","","Freezing Rain"
"-64.48","48.78","GASPE A","7052601","2019-03-31 02:00","2019","03","31","02:00","-1.1","","-1.7","","95","","","","8","","8","","6.4","","100.99","","","","-4","","Freezing Drizzle"
"-64.48","48.78","GASPE A","7052601","2019-03-31 03:00","2019","03","31","03:00","-0.8","","-1.5","","95","","","","1","","7","","3.6","","100.87","","","","-3","","Freezing Drizzle,Fog"
"-64.48","48.78","GASPE A","7052601","2019-03-31 04:00","2019","03","31","04:00","-0.4","","-1.0","","95","","","","34","","12","","4.8","","100.80","","","","-4","","Freezing Drizzle,Fog"
"-64.48","48.78","GASPE A","7052601","2019-03-31 05:00","2019","03","31","05:00","0.8","","0.1","","95","","","","3","","12","","6.4","","100.72","","","","","","Drizzle,Fog"
"-64.48","48.78","GASPE A","7052601","2019-03-31 06:00","2019","03","31","06:00","1.6","","0.8","","94","","","","3","","12","","6.4","","100.69","","","","","","Drizzle,Fog"
"-64.48","48.78","GASPE A","7052601","2019-03-31 07:00","2019","03","31","07:00","2.2","","1.4","","94","","","","7","","14","","11.3","","100.68","","","","","","Cloudy"
"-64.48","48.78","GASPE A","7052601","2019-03-31 08:00","2019","03","31","08:00","2.4","","1.7","","95","","","","8","","18","","3.2","","100.62","","","","","","Fog"
"-64.48","48.78","GASPE A","7052601","2019-03-31 09:00","2019","03","31","09:00","8.8","","6.3","","84","","","","19","","12","","11.3","","100.53","","","","","","NA"
"-64.48","48.78","GASPE A","7052601","2019-03-31 10:00","2019","03","31","10:00","9.2","","6.1","","81","","","","18","","23","","6.4","","100.46","","","","","","Rain Showers,Fog"
"-64.48","48.78","GASPE A","7052601","2019-03-31 11:00","2019","03","31","11:00","9.0","","6.3","","83","","","","18","","26","","9.7","","100.36","","","","","","Rain,Rain Showers,Fog"
"-64.48","48.78","GASPE A","7052601","2019-03-31 12:00","2019","03","31","12:00","9.5","","6.3","","80","","","","19","","34","","24.1","","100.28","","","","","","Rain Showers"
"-64.48","48.78","GASPE A","7052601","2019-03-31 13:00","2019","03","31","13:00","10.0","","6.4","","78","","","","19","","25","","24.1","","100.20","","","","","","Mostly Cloudy"
"-64.48","48.78","GASPE A","7052601","2019-03-31 14:00","2019","03","31","14:00","10.1","","6.4","","78","","","","17","","22","","8.1","","100.11","","","","","","Rain Showers,Fog"
"-64.48","48.78","GASPE A","7052601","2019-03-31 15:00","2019","03","31","15:00","10.1","","5.7","","74","","","","17","","19","","16.1","","100.06","","","","","","NA"
"-64.48","48.78","GASPE A","7052601","2019-03-31 16:00","2019","03","31","16:00","10.0","","5.5","","73","","","","17","","18","","24.1","","99.95","","","","","","Mostly Cloudy"
"-64.48","48.78","GASPE A","7052601","2019-03-31 17:00","2019","03","31","17:00","5.5","","3.6","","88","","","","9","","14","","24.1","","99.91","","","","","","NA"
"-64.48","48.78","GASPE A","7052601","2019-03-31 18:00","2019","03","31","18:00","4.8","","2.4","","84","","","","10","","19","","24.1","","99.82","","","","","","NA"
"-64.48","48.78","GASPE A","7052601","2019-03-31 19:00","2019","03","31","19:00","7.3","","2.3","","70","","","","14","","14","","24.1","","99.81","","","","","","Cloudy"
"-64.48","48.78","GASPE A","7052601","2019-03-31 20:00","2019","03","31","20:00","4.9","","2.2","","83","","","","10","","10","","24.1","","99.72","","","","","","NA"
"-64.48","48.78","GASPE A","7052601","2019-03-31 21:00","2019","03","31","21:00","8.8","","5.1","","78","","","","15","","17","","24.1","","99.60","","","","","","NA"
"-64.48","48.78","GASPE A","7052601","2019-03-31 22:00","2019","03","31","22:00","7.5","","5.3","","86","","","","16","","19","","24.1","","99.43","","","","","","Cloudy"
"-64.48","48.78","GASPE A","7052601","2019-03-31 23:00","2019","03","31","23:00","7.7","","5.6","","86","","","","18","","23","","24.1","","99.30","","","","","","Rain"
