"Longitude (x)","Latitude (y)","Station Name","Climate ID","Date/Time (LST)","Year","Month","Day","Time (LST)","Temp (°C)","Temp Flag","Dew Point Temp (°C)","Dew Point Temp Flag","Rel Hum (%)","Rel Hum Flag","Precip. Amount (mm)","Precip. Amount Flag","Wind Dir (10s deg)","Wind Dir Flag","Wind Spd (km/h)","Wind Spd Flag","Visibility (km)","Visibility Flag","Stn Press (kPa)","Stn Press Flag","Hmdx","Hmdx Flag","Wind Chill","Wind Chill Flag","Weather"
"-82.91","76.43","GRISE FIORD A","2402360","2018-01-01 00:00","2018","01","01","00:00","-29.8","","-33.2","","73","","","M","9","","2","","","M","100.80","","","","-32","","NA"
"-82.91","76.43","GRISE FIORD A","2402360","2018-01-01 01:00","2018","01","01","01:00","-29.6","","-32.9","","73","","","M","13","","7","","","M","100.81","","","","-37","","NA"
"-82.91","76.43","GRISE FIORD A","2402360","2018-01-01 02:00","2018","01","01","02:00","-30.1","","-33.5","","72","","","M","0","","1","","","M","100.84","","","","-31","","NA"
"-82.91","76.43","GRISE FIORD A","2402360","2018-01-01 03:00","2018","01","01","03:00","-30.4","","-33.6","","74","","","M","1","","1","","","M","100.85","","","","-32","","NA"
"-82.91","76.43","GRISE FIORD A","2402360","2018-01-01 04:00","2018","01","01","04:00","-30.4","","-33.9","","72","","","M","3","","3","","","M","100.90","","","","-34","","NA"
"-82.91","76.43","GRISE FIORD A","2402360","2018-01-01 05:00","2018","01","01","05:00","-34.6","","-38.4","","69","","","M","10","","3","","","M","100.92","","","","-38","","NA"
"-82.91","76.43","GRISE FIORD A","2402360","2018-01-01 06:00","2018","01","01","06:00","-33.0","","-36.6","","71","","","M","21","","2","","","M","100.96","","","","-35","","NA"
"-82.91","76.43","GRISE FIORD A","2402360","2018-01-01 07:00","2018","01","01","07:00","-31.9","","-35.4","","72","","","M","11","","4","","","M","100.97","","","","-37","","NA"
"-82.91","76.43","GRISE FIORD A","2402360","2018-01-01 08:00","2018","01","01","08:00","-31.5","","-35.0","","72","","","M","10","","6","","","M","100.99","","","","-38","","NA"
"-82.91","76.43","GRISE FIORD A","2402360","2018-01-01 09:00","2018","01","01","09:00","-31.3","","-34.8","","72","","","M","4","","3","","","M","101.00","","","","-35","","NA"
"-82.91","76.43","GRISE FIORD A","2402360","2018-01-01 10:00","2018","01","01","10:00","-33.6","","-37.2","","71","","","M","10","","1","","","M","101.01","","","","-35","","NA"
"-82.91","76.43","GRISE FIORD A","2402360","2018-01-01 11:00","2018","01","01","11:00","-33.6","","-37.2","","70","","","M","16","","3","","","M","101.03","","","","-37","","NA"
"-82.91","76.43","GRISE FIORD A","2402360","2018-01-01 12:00","2018","01","01","12:00","-33.9","","-37.5","","70","","","M","26","","1","","","M","101.02","","","","-35","","NA"
"-82.91","76.43","GRISE FIORD A","2402360","2018-01-01 13:00","2018","01","01","13:00","-34.0","","-37.7","","70","","","M","4","","3","","","M","101.03","","","","-38","","NA"
"-82.91","76.43","GRISE FIORD A","2402360","2018-01-01 14:00","2018","01","01","14:00","-33.8","","-37.4","","70","","","M","13","","5","","","M","101.03","","","","-40","","NA"
"-82.91","76.43","GRISE FIORD A","2402360","2018-01-01 15:00","2018","01","01","15:00","-34.0","","-37.7","","70","","","M","10","","1","","","M","101.05","","","","-35","","NA"
"-82.91","76.43","GRISE FIORD A","2402360","2018-01-01 16:00","2018","01","01","16:00","-34.0","","-37.6","","70","","","M","12","","4","","","M","101.08","","","","-39","","NA"
"-82.91","76.43","GRISE FIORD A","2402360","2018-01-01 17:00","2018","01","01","17:00","-34.8","","-38.6","","69","","","M","14","","5","","","M","101.08","","","","-41","","NA"
"-82.91","76.43","GRISE FIORD A","2402360","2018-01-01 18:00","2018","01","01","18:00","-33.4","","-37.0","","71","","","M","5","","4","","","M","101.10","","","","-38","","NA"
"-82.91","76.43","GRISE FIORD A","2402360","2018-01-01 19:00","2018","01","01","19:00","-33.7","","-37.4","","70","","","M","3","","9","","","M","101.08","","","","-43","","NA"
"-82.91","76.43","GRISE FIORD A","2402360","2018-01-01 20:00","2018","01","01","20:00","-33.8","","-37.4","","71","","","M","16","","2","","","M","101.06","","","","-36","","NA"
"-82.91","76.43","GRISE FIORD A","2402360","2018-01-01 21:00","2018","01","01","21:00","-34.3","","-38.0","","70","","","M","13","","4","","","M","101.03","","","","-39","","NA"
"-82.91","76.43","GRISE FIORD A","2402360","2018-01-01 22:00","2018","01","01","22:00","-33.4","","-37.1","","70","","","M","0","","1","","","M","101.00","","","","-35","","NA"
"-82.91","76.43","GRISE FIORD A","2402360","2018-01-01 23:00","2018","01","01","23:00","-33.9","","-37.6","","70","","","M","24","","2","","","M","101.00","","","","-36","","NA"
"-82.91","76.43","GRISE FIORD A","2402360","2018-01-02 00:00","2018","01","02","00:00","-35.3","","-39.1","","69","","","M","24","","4","","","M","101.00","","","","-40","","NA"
"-82.91","76.43","GRISE FIORD A","2402360","2018-01-02 01:00","2018","01","02","01:00","-34.8","","-38.5","","70","","","M","33","","2","","","M","100.99","","","","-37","","NA"
"-82.91","76.43","GRISE FIORD A","2402360","2018-01-02 02:00","2018","01","02","02:00","-31.3","","-34.8","","72","","","M","7","","5","","","M","100.97","","","","-37","","NA"
"-82.91","76.43","GRISE FIORD A","2402360","2018-01-02 03:00","2018","01","02","03:00","-32.8","","-36.4","","71","","","M","4","","9","","","M","100.99","","","","-42","","NA"
"-82.91","76.43","GRISE FIORD A","2402360","2018-01-02 04:00","2018","01","02","04:00","-31.2","","-34.7","","72","","","M","29","","1","","","M","101.00","","","","-32","","NA"
"-82.91","76.43","GRISE FIORD A","2402360","2018-01-02 05:00","2018","01","02","05:00","-33.2","","-36.8","","71","","","M","1","","4","","","M","101.01","","","","-38","","NA"
"-82.91","76.43","GRISE FIORD A","2402360","2018-01-02 06:00","2018","01","02","06:00","-31.8","","-35.2","","72","","","M","11","","1","","","M","100.99","","","","-33","","NA"
"-82.91","76.43","GRISE FIORD A","2402360","2018-01-02 07:00","2018","01","02","07:00","-31.6","","-35.0","","72","","","M","23","","1","","","M","101.01","","","","-33","","NA"
"-82.91","76.43","GRISE FIORD A","2402360","2018-01-02 08:00","2018","01","02","08:00","-33.3","","-37.0","","71","","","M","19","","1","","","M","101.01","","","","-35","","NA"
"-82.91","76.43","GRISE FIORD A","2402360","2018-01-02 09:00","2018","01","02","09:00","-31.8","","-35.2","","72","","","M","6","","4","","","M","101.01","","","","-36","","NA"
"-82.91","76.43","GRISE FIORD A","2402360","2018-01-02 10:00","2018","01","02","10:00","-33.5","","-37.3","","69","","","M","23","","3","","","M","101.02","","","","-37","","NA"
"-82.91","76.43","GRISE FIORD A","2402360","2018-01-02 11:00","2018","01","02","11:00","-32.1","","-35.6","","72","","","M","20","","3","","","M","101.05","","","","-36","","NA"
"-82.91","76.43","GRISE FIORD A","2402360","2018-01-02 12:00","2018","01","02","12:00","-31.1","","-34.5","","72","","","M","5","","5","","","M","101.03","","","","-37","","NA"
"-82.91","76.43","GRISE FIORD A","2402360","2018-01-02 13:00","2018","01","02","13:00","-30.6","","-34.1","","72","","","M","27","","2","","","M","101.05","","","","-33","","NA"
"-82.91","76.43","GRISE FIORD A","2402360","2018-01-02 14:00","2018","01","02","14:00","-31.5","","-35.1","","72","","","M","23","","1","","","M","101.08","","","","-33","","NA"
"-82.91","76.43","GRISE FIORD A","2402360","2018-01-02 15:00","2018","01","02","15:00","-31.3","","-34.8","","72","","","M","5","","8","","","M","101.13","","","","-40","","NA"
"-82.91","76.43","GRISE FIORD A","2402360","2018-01-02 16:00","2018","01","02","16:00","-30.2","","-33.7","","73","","","M","3","","4","","","M","101.14","","","","-35","","NA"
"-82.91","76.43","GRISE FIORD A","2402360","2018-01-02 17:00","2018","01","02","17:00","-29.8","","-33.2","","73","","","M","4","","5","","","M","101.20","","","","-35","","NA"
"-82.91","76.43","GRISE FIORD A","2402360","2018-01-02 18:00","2018","01","02","18:00","-30.5","","-33.9","","73","","","M","3","","3","","","M","101.26","","","","-34","","NA"
"-82.91","76.43","GRISE FIORD A","2402360","2018-01-02 19:00","2018","01","02","19:00","-29.4","","-32.8","","73","","","M","35","","1","","","M","101.27","","","","-31","","NA"
"-82.91","76.43","GRISE FIORD A","2402360","2018-01-02 20:00","2018","01","02","20:00","-30.5","","-34.0","","72","","","M","28","","2","","","M","101.31","","","","-33","","NA"
"-82.91","76.43","GRISE FIORD A","2402360","2018-01-02 21:00","2018","01","02","21:00","-30.2","","-33.6","","72","","","M","11","","3","","","M","101.35","","","","-34","","NA"
"-82.91","76.43","GRISE FIORD A","2402360","2018-01-02 22:00","2018","01","02","22:00","-30.1","","-33.5","","73","","","M","5","","2","","","M","101.37","","","","-32","","NA"
"-82.91","76.43","GRISE FIORD A","2402360","2018-01-02 23:00","2018","01","02","23:00","-30.8","","-34.3","","72","","","M","26","","2","","","M","101.40","","","","-33","","NA"
"-82.91","76.43","GRISE FIORD A","2402360","2018-01-03 00:00","2018","01","03","00:00","-30.2","","-33.7","","72","","","M","5","","3","","","M","101.43","","","","-34","","NA"
"-82.91","76.43","GRISE FIORD A","2402360","2018-01-03 01:00","2018","01","03","01:00","-30.2","","-33.6","","73","","","M","13","","1","","","M","101.47","","","","-31","","NA"
"-82.91","76.43","GRISE FIORD A","2402360","2018-01-03 02:00","2018","01","03","02:00","-31.1","","-34.5","","72","","","M","29","","1","","","M","101.52","","","","-32","","NA"
"-82.91","76.43","GRISE FIORD A","2402360","2018-01-03 03:00","2018","01","03","03:00","-30.4","","-33.9","","73","","","M","10","","2","","","M","101.57","","","","-33","","NA"
"-82.91","76.43","GRISE FIORD A","2402360","2018-01-03 04:00","2018","01","03","04:00","-30.5","","-33.9","","72","","","M","6","","4","","","M","101.66","","","","-35","","NA"
"-82.91","76.43","GRISE FIORD A","2402360","2018-01-03 05:00","2018","01","03","05:00","-31.4","","-35.0","","71","","","M","32","","4","","","M","101.71","","","","-36","","NA"
"-82.91","76.43","GRISE FIORD A","2402360","2018-01-03 06:00","2018","01","03","06:00","-32.0","","-35.6","","71","","","M","12","","1","","","M","101.76","","","","-33","","NA"
"-82.91","76.43","GRISE FIORD A","2402360","2018-01-03 07:00","2018","01","03","07:00","-31.5","","-35.0","","72","","","M","9","","1","","","M","101.81","","","","-33","","NA"
"-82.91","76.43","GRISE FIORD A","2402360","2018-01-03 08:00","2018","01","03","08:00","-32.4","","-36.0","","71","","","M","6","","1","","","M","101.86","","","","-34","","NA"
"-82.91","76.43","GRISE FIORD A","2402360","2018-01-03 09:00","2018","01","03","09:00","-32.0","","-35.6","","71","","","M","5","","2","","","M","101.86","","","","-34","","NA"
"-82.91","76.43","GRISE FIORD A","2402360","2018-01-03 10:00","2018","01","03","10:00","-33.0","","-36.7","","70","","","M","15","","3","","","M","101.89","","","","-37","","NA"
"-82.91","76.43","GRISE FIORD A","2402360","2018-01-03 11:00","2018","01","03","11:00","-33.9","","-37.8","","69","","","M","11","","1","","","M","101.93","","","","-35","","NA"
"-82.91","76.43","GRISE FIORD A","2402360","2018-01-03 12:00","2018","01","03","12:00","-33.2","","-36.8","","71","","","M","4","","4","","","M","101.93","","","","-38","","NA"
"-82.91","76.43","GRISE FIORD A","2402360","2018-01-03 13:00","2018","01","03","13:00","-34.9","","-38.8","","69","","","M","14","","6","","","M","101.96","","","","-42","","NA"
"-82.91","76.43","GRISE FIORD A","2402360","2018-01-03 14:00","2018","01","03","14:00","-33.6","","-37.3","","70","","","M","25","","4","","","M","101.99","","","","-38","","NA"
"-82.91","76.43","GRISE FIORD A","2402360","2018-01-03 15:00","2018","01","03","15:00","-33.8","","-37.5","","71","","","M","17","","4","","","M","102.00","","","","-39","","NA"
"-82.91","76.43","GRISE FIORD A","2402360","2018-01-03 16:00","2018","01","03","16:00","-32.8","","-36.4","","71","","","M","36","","2","","","M","102.04","","","","-35","","NA"
"-82.91","76.43","GRISE FIORD A","2402360","2018-01-03 17:00","2018","01","03","17:00","-34.0","","-37.8","","70","","","M","12","","5","","","M","102.05","","","","-40","","NA"
"-82.91","76.43","GRISE FIORD A","2402360","2018-01-03 18:00","2018","01","03","18:00","-34.6","","-38.4","","70","","","M","14","","1","","","M","102.08","","","","-36","","NA"
"-82.91","76.43","GRISE FIORD A","2402360","2018-01-03 19:00","2018","01","03","19:00","-35.5","","-39.2","","69","","","M","6","","4","","","M","102.06","","","","-41","","NA"
"-82.91","76.43","GRISE FIORD A","2402360","2018-01-03 20:00","2018","01","03","20:00","-33.1","","-36.7","","71","","","M","0","","1","","","M","102.06","","","","-34","","NA"
"-82.91","76.43","GRISE FIORD A","2402360","2018-01-03 21:00","2018","01","03","21:00","-36.7","","-40.8","","67","","","M","26","","3","","","M","102.08","","","","-41","","NA"
"-82.91","76.43","GRISE FIORD A","2402360","2018-01-03 22:00","2018","01","03","22:00","-36.0","","-39.9","","68","","","M","9","","2","","","M","102.06","","","","-39","","NA"
"-82.91","76.43","GRISE FIORD A","2402360","2018-01-03 23:00","2018","01","03","23:00","-32.6","","-36.2","","71","","","M","31","","1","","","M","102.06","","","","-34","","NA"
"-82.91","76.43","GRISE FIORD A","2402360","2018-01-04 00:00","2018","01","04","00:00","-33.1","","-36.8","","71","","","M","1","","4","","","M","102.08","","","","-38","","NA"
"-82.91","76.43","GRISE FIORD A","2402360","2018-01-04 01:00","2018","01","04","01:00","-35.5","","-39.3","","69","","","M","34","","3","","","M","102.09","","","","-39","","NA"
"-82.91","76.43","GRISE FIORD A","2402360","2018-01-04 02:00","2018","01","04","02:00","-33.7","","-37.4","","70","","","M","30","","4","","","M","102.14","","","","-39","","NA"
"-82.91","76.43","GRISE FIORD A","2402360","2018-01-04 03:00","2018","01","04","03:00","-35.0","","-38.8","","69","","","M","31","","3","","","M","102.18","","","","-39","","NA"
"-82.91","76.43","GRISE FIORD A","2402360","2018-01-04 04:00","2018","01","04","04:00","-34.9","","-38.6","","70","","","M","33","","5","","","M","102.22","","","","-41","","NA"
"-82.91","76.43","GRISE FIORD A","2402360","2018-01-04 05:00","2018","01","04","05:00","-35.8","","-39.6","","69","","","M","3","","7","","","M","102.27","","","","-44","","NA"
"-82.91","76.43","GRISE FIORD A","2402360","2018-01-04 06:00","2018","01","04","06:00","-34.0","","-37.7","","70","","","M","26","","6","","","M","102.29","","","","-41","","NA"
"-82.91","76.43","GRISE FIORD A","2402360","2018-01-04 07:00","2018","01","04","07:00","-34.3","","-38.0","","70","","","M","16","","2","","","M","102.29","","","","-37","","NA"
"-82.91","76.43","GRISE FIORD A","2402360","2018-01-04 08:00","2018","01","04","08:00","-34.2","","-37.9","","70","","","M","10","","1","","","M","102.31","","","","-35","","NA"
"-82.91","76.43","GRISE FIORD A","2402360","2018-01-04 09:00","2018","01","04","09:00","-32.9","","-36.5","","71","","","M","34","","1","","","M","102.31","","","","-34","","NA"
"-82.91","76.43","GRISE FIORD A","2402360","2018-01-04 10:00","2018","01","04","10:00","-33.2","","-36.9","","70","","","M","15","","1","","","M","102.34","","","","-34","","NA"
"-82.91","76.43","GRISE FIORD A","2402360","2018-01-04 11:00","2018","01","04","11:00","-32.1","","-35.7","","72","","","M","8","","3","","","M","102.37","","","","-36","","NA"
"-82.91","76.43","GRISE FIORD A","2402360","2018-01-04 12:00","2018","01","04","12:00","-31.2","","-34.7","","72","","","M","3","","7","","","M","102.37","","","","-39","","NA"
"-82.91","76.43","GRISE FIORD A","2402360","2018-01-04 13:00","2018","01","04","13:00","-32.4","","-36.0","","71","","","M","8","","3","","","M","102.41","","","","-36","","NA"
"-82.91","76.43","GRISE FIORD A","2402360","2018-01-04 14:00","2018","01","04","14:00","-32.0","","-35.5","","72","","","M","3","","4","","","M","102.45","","","","-37","","NA"
"-82.91","76.43","GRISE FIORD A","2402360","2018-01-04 15:00","2018","01","04","15:00","-31.9","","-35.5","","71","","","M","29","","2","","","M","102.47","","","","-34","","NA"
"-82.91","76.43","GRISE FIORD A","2402360","2018-01-04 16:00","2018","01","04","16:00","-31.9","","-35.5","","71","","","M","27","","1","","","M","102.51","","","","-33","","NA"
"-82.91","76.43","GRISE FIORD A","2402360","2018-01-04 17:00","2018","01","04","17:00","-31.1","","-34.6","","72","","","M","5","","1","","","M","102.53","","","","-32","","NA"
"-82.91","76.43","GRISE FIORD A","2402360","2018-01-04 18:00","2018","01","04","18:00","-30.1","","-33.4","","73","","","M","35","","2","","","M","102.53","","","","-32","","NA"
"-82.91","76.43","GRISE FIORD A","2402360","2018-01-04 19:00","2018","01","04","19:00","-30.7","","-34.3","","71","","","M","13","","1","","","M","102.54","","","","-32","","NA"
"-82.91","76.43","GRISE FIORD A","2402360","2018-01-04 20:00","2018","01","04","20:00","-30.4","","-33.9","","73","","","M","11","","2","","","M","102.52","","","","-33","","NA"
"-82.91","76.43","GRISE FIORD A","2402360","2018-01-04 21:00","2018","01","04","21:00","-30.6","","-34.1","","73","","","M","4","","10","","","M","102.52","","","","-40","","NA"
"-82.91","76.43","GRISE FIORD A","2402360","2018-01-04 22:00","2018","01","04","22:00","-29.7","","-33.0","","74","","","M","10","","4","","","M","102.48","","","","-34","","NA"
"-82.91","76.43","GRISE FIORD A","2402360","2018-01-04 23:00","2018","01","04","23:00","-27.1","","-30.2","","75","","","M","6","","10","","","M","102.48","","","","-36","","NA"
"-82.91","76.43","GRISE FIORD A","2402360","2018-01-05 00:00","2018","01","05","00:00","-28.9","","-32.2","","74","","","M","14","","4","","","M","102.48","","","","-33","","NA"
"-82.91","76.43","GRISE FIORD A","2402360","2018-01-05 01:00","2018","01","05","01:00","-26.8","","-30.0","","75","","","M","6","","18","","","M","102.47","","","","-38","","NA"
"-82.91","76.43","GRISE FIORD A","2402360","2018-01-05 02:00","2018","01","05","02:00","-30.1","","-33.6","","72","","","M","11","","4","","","M","102.49","","","","-35","","NA"
"-82.91","76.43","GRISE FIORD A","2402360","2018-01-05 03:00","2018","01","05","03:00","-26.4","","-29.6","","75","","","M","6","","17","","","M","102.45","","","","-38","","NA"
"-82.91","76.43","GRISE FIORD A","2402360","2018-01-05 04:00","2018","01","05","04:00","-27.9","","-31.1","","75","","","M","8","","4","","","M","102.48","","","","-32","","NA"
"-82.91","76.43","GRISE FIORD A","2402360","2018-01-05 05:00","2018","01","05","05:00","-28.4","","-31.6","","75","","","M","14","","3","","","M","102.43","","","","-32","","NA"
"-82.91","76.43","GRISE FIORD A","2402360","2018-01-05 06:00","2018","01","05","06:00","-29.2","","-32.9","","71","","","M","17","","7","","","M","102.44","","","","-36","","NA"
"-82.91","76.43","GRISE FIORD A","2402360","2018-01-05 07:00","2018","01","05","07:00","-26.8","","-29.9","","76","","","M","36","","2","","","M","102.40","","","","-29","","NA"
"-82.91","76.43","GRISE FIORD A","2402360","2018-01-05 08:00","2018","01","05","08:00","-26.4","","-29.4","","76","","","M","36","","1","","","M","102.37","","","","-27","","NA"
"-82.91","76.43","GRISE FIORD A","2402360","2018-01-05 09:00","2018","01","05","09:00","-28.1","","-31.5","","73","","","M","17","","3","","","M","102.31","","","","-31","","NA"
"-82.91","76.43","GRISE FIORD A","2402360","2018-01-05 10:00","2018","01","05","10:00","-28.5","","-31.7","","74","","","M","8","","2","","","M","102.31","","","","-31","","NA"
"-82.91","76.43","GRISE FIORD A","2402360","2018-01-05 11:00","2018","01","05","11:00","-26.1","","-29.1","","77","","","M","6","","3","","","M","102.30","","","","-29","","NA"
"-82.91","76.43","GRISE FIORD A","2402360","2018-01-05 12:00","2018","01","05","12:00","-26.6","","-29.6","","76","","","M","36","","1","","","M","102.25","","","","-28","","NA"
"-82.91","76.43","GRISE FIORD A","2402360","2018-01-05 13:00","2018","01","05","13:00","-28.6","","-32.0","","73","","","M","5","","5","","","M","102.22","","","","-34","","NA"
"-82.91","76.43","GRISE FIORD A","2402360","2018-01-05 14:00","2018","01","05","14:00","-27.2","","-30.4","","75","","","M","13","","1","","","M","102.18","","","","-28","","NA"
"-82.91","76.43","GRISE FIORD A","2402360","2018-01-05 15:00","2018","01","05","15:00","-28.8","","-32.2","","73","","","M","14","","12","","","M","102.18","","","","-39","","NA"
"-82.91","76.43","GRISE FIORD A","2402360","2018-01-05 16:00","2018","01","05","16:00","-27.9","","-31.1","","75","","","M","2","","1","","","M","102.17","","","","-29","","NA"
"-82.91","76.43","GRISE FIORD A","2402360","2018-01-05 17:00","2018","01","05","17:00","-27.7","","-30.9","","75","","","M","16","","2","","","M","102.18","","","","-30","","NA"
"-82.91","76.43","GRISE FIORD A","2402360","2018-01-05 18:00","2018","01","05","18:00","-27.0","","-30.2","","75","","","M","18","","2","","","M","102.12","","","","-29","","NA"
"-82.91","76.43","GRISE FIORD A","2402360","2018-01-05 19:00","2018","01","05","19:00","-27.1","","-30.3","","75","","","M","14","","9","","","M","102.05","","","","-35","","NA"
"-82.91","76.43","GRISE FIORD A","2402360","2018-01-05 20:00","2018","01","05","20:00","-26.5","","-29.6","","76","","","M","14","","9","","","M","101.98","","","","-34","","NA"
"-82.91","76.43","GRISE FIORD A","2402360","2018-01-05 21:00","2018","01","05","21:00","-24.9","","-28.0","","76","","","M","9","","5","","","M","101.88","","","","-30","","NA"
"-82.91","76.43","GRISE FIORD A","2402360","2018-01-05 22:00","2018","01","05","22:00","-24.3","","-27.2","","78","","","M","14","","9","","","M","101.82","","","","-32","","NA"
"-82.91","76.43","GRISE FIORD A","2402360","2018-01-05 23:00","2018","01","05","23:00","-24.1","","-27.1","","77","","","M","20","","3","","","M","101.76","","","","-27","","NA"
"-82.91","76.43","GRISE FIORD A","2402360","2018-01-06 00:00","2018","01","06","00:00","-25.4","","-28.5","","76","","","M","11","","10","","","M","101.68","","","","-34","","NA"
"-82.91","76.43","GRISE FIORD A","2402360","2018-01-06 01:00","2018","01","06","01:00","-23.9","","-26.8","","77","","","M","16","","10","","","M","101.62","","","","-32","","NA"
"-82.91","76.43","GRISE FIORD A","2402360","2018-01-06 02:00","2018","01","06","02:00","-22.6","","-25.5","","78","","","M","12","","13","","","M","101.56","","","","-32","","NA"
"-82.91","76.43","GRISE FIORD A","2402360","2018-01-06 03:00","2018","01","06","03:00","-23.4","","-26.3","","78","","","M","16","","3","","","M","101.54","","","","-26","","NA"
"-82.91","76.43","GRISE FIORD A","2402360","2018-01-06 04:00","2018","01","06","04:00","-24.4","","-27.4","","76","","","M","13","","5","","","M","101.53","","","","-29","","NA"
"-82.91","76.43","GRISE FIORD A","2402360","2018-01-06 05:00","2018","01","06","05:00","-21.4","","-24.0","","80","","","M","11","","3","","","M","101.47","","","","-24","","NA"
"-82.91","76.43","GRISE FIORD A","2402360","2018-01-06 06:00","2018","01","06","06:00","-19.3","","-22.0","","80","","","M","10","","18","","","M","101.41","","","","-29","","NA"
"-82.91","76.43","GRISE FIORD A","2402360","2018-01-06 07:00","2018","01","06","07:00","-21.8","","-24.5","","79","","","M","15","","7","","","M","101.37","","","","-28","","NA"
"-82.91","76.43","GRISE FIORD A","2402360","2018-01-06 08:00","2018","01","06","08:00","-22.3","","-25.1","","78","","","M","11","","4","","","M","101.33","","","","-26","","NA"
"-82.91","76.43","GRISE FIORD A","2402360","2018-01-06 09:00","2018","01","06","09:00","-21.4","","-24.2","","78","","","M","25","","7","","","M","101.24","","","","-27","","NA"
"-82.91","76.43","GRISE FIORD A","2402360","2018-01-06 10:00","2018","01","06","10:00","-20.9","","-24.1","","76","","","M","21","","5","","","M","101.14","","","","-25","","NA"
"-82.91","76.43","GRISE FIORD A","2402360","2018-01-06 11:00","2018","01","06","11:00","-21.2","","-24.1","","78","","","M","17","","12","","","M","101.08","","","","-29","","NA"
"-82.91","76.43","GRISE FIORD A","2402360","2018-01-06 12:00","2018","01","06","12:00","-21.3","","-24.1","","79","","","M","15","","5","","","M","101.02","","","","-26","","NA"
"-82.91","76.43","GRISE FIORD A","2402360","2018-01-06 13:00","2018","01","06","13:00","-20.2","","-22.9","","79","","","M","15","","5","","","M","100.95","","","","-25","","NA"
"-82.91","76.43","GRISE FIORD A","2402360","2018-01-06 14:00","2018","01","06","14:00","-20.1","","-22.7","","80","","","M","14","","10","","","M","100.89","","","","-27","","NA"
"-82.91","76.43","GRISE FIORD A","2402360","2018-01-06 15:00","2018","01","06","15:00","-19.4","","-21.9","","82","","","M","16","","9","","","M","100.83","","","","-26","","NA"
"-82.91","76.43","GRISE FIORD A","2402360","2018-01-06 16:00","2018","01","06","16:00","-19.9","","-22.5","","80","","","M","17","","8","","","M","100.77","","","","-26","","NA"
"-82.91","76.43","GRISE FIORD A","2402360","2018-01-06 17:00","2018","01","06","17:00","-18.4","","-20.8","","82","","","M","9","","9","","","M","100.72","","","","-25","","NA"
"-82.91","76.43","GRISE FIORD A","2402360","2018-01-06 18:00","2018","01","06","18:00","-17.1","","-20.4","","76","","","M","10","","28","","","M","100.64","","","","-28","","NA"
"-82.91","76.43","GRISE FIORD A","2402360","2018-01-06 19:00","2018","01","06","19:00","-16.9","","-20.5","","74","","","M","11","","29","","","M","100.57","","","","-28","","NA"
"-82.91","76.43","GRISE FIORD A","2402360","2018-01-06 20:00","2018","01","06","20:00","-16.7","","-21.1","","69","","","M","11","","26","","","M","100.49","","","","-28","","NA"
"-82.91","76.43","GRISE FIORD A","2402360","2018-01-06 21:00","2018","01","06","21:00","-16.8","","-21.7","","66","","","M","10","","24","","","M","100.42","","","","-27","","NA"
"-82.91","76.43","GRISE FIORD A","2402360","2018-01-06 22:00","2018","01","06","22:00","-16.4","","-21.5","","65","","","M","8","","29","","","M","100.33","","","","-28","","NA"
"-82.91","76.43","GRISE FIORD A","2402360","2018-01-06 23:00","2018","01","06","23:00","-16.0","","-21.2","","65","","","M","10","","22","","","M","100.25","","","","-26","","NA"
"-82.91","76.43","GRISE FIORD A","2402360","2018-01-07 00:00","2018","01","07","00:00","-17.5","","-21.5","","72","","","M","8","","9","","","M","100.21","","","","-24","","NA"
"-82.91","76.43","GRISE FIORD A","2402360","2018-01-07 01:00","2018","01","07","01:00","-19.3","","-23.2","","72","","","M","15","","8","","","M","100.16","","","","-25","","NA"
"-82.91","76.43","GRISE FIORD A","2402360","2018-01-07 02:00","2018","01","07","02:00","-18.7","","-23.1","","69","","","M","12","","4","","","M","100.14","","","","-22","","NA"
"-82.91","76.43","GRISE FIORD A","2402360","2018-01-07 03:00","2018","01","07","03:00","-17.6","","-23.2","","62","","","M","4","","13","","","M","100.10","","","","-25","","NA"
"-82.91","76.43","GRISE FIORD A","2402360","2018-01-07 04:00","2018","01","07","04:00","-18.5","","-23.1","","68","","","M","21","","3","","","M","100.07","","","","-21","","NA"
"-82.91","76.43","GRISE FIORD A","2402360","2018-01-07 05:00","2018","01","07","05:00","-18.1","","-23.9","","61","","","M","9","","14","","","M","100.02","","","","-26","","NA"
"-82.91","76.43","GRISE FIORD A","2402360","2018-01-07 06:00","2018","01","07","06:00","-18.7","","-24.6","","60","","","M","12","","6","","","M","100.00","","","","-24","","NA"
"-82.91","76.43","GRISE FIORD A","2402360","2018-01-07 07:00","2018","01","07","07:00","-20.2","","-25.6","","63","","","M","17","","5","","","M","99.97","","","","-25","","NA"
"-82.91","76.43","GRISE FIORD A","2402360","2018-01-07 08:00","2018","01","07","08:00","-20.8","","-25.7","","65","","","M","10","","3","","","M","99.92","","","","-23","","NA"
"-82.91","76.43","GRISE FIORD A","2402360","2018-01-07 09:00","2018","01","07","09:00","-20.4","","-26.5","","59","","","M","26","","6","","","M","99.90","","","","-25","","NA"
"-82.91","76.43","GRISE FIORD A","2402360","2018-01-07 10:00","2018","01","07","10:00","-21.8","","-27.8","","59","","","M","20","","4","","","M","99.87","","","","-25","","NA"
"-82.91","76.43","GRISE FIORD A","2402360","2018-01-07 11:00","2018","01","07","11:00","-19.8","","-26.6","","55","","","M","9","","24","","","M","99.82","","","","-31","","NA"
"-82.91","76.43","GRISE FIORD A","2402360","2018-01-07 12:00","2018","01","07","12:00","-21.3","","-27.4","","59","","","M","10","","1","","","M","99.81","","","","-22","","NA"
"-82.91","76.43","GRISE FIORD A","2402360","2018-01-07 13:00","2018","01","07","13:00","-21.6","","-27.6","","59","","","M","15","","5","","","M","99.79","","","","-26","","NA"
"-82.91","76.43","GRISE FIORD A","2402360","2018-01-07 14:00","2018","01","07","14:00","-24.1","","-28.5","","68","","","M","3","","4","","","M","99.78","","","","-28","","NA"
"-82.91","76.43","GRISE FIORD A","2402360","2018-01-07 15:00","2018","01","07","15:00","-23.3","","-28.0","","66","","","M","7","","3","","","M","99.81","","","","-26","","NA"
"-82.91","76.43","GRISE FIORD A","2402360","2018-01-07 16:00","2018","01","07","16:00","-24.8","","-28.9","","69","","","M","10","","3","","","M","99.82","","","","-28","","NA"
"-82.91","76.43","GRISE FIORD A","2402360","2018-01-07 17:00","2018","01","07","17:00","-26.5","","-30.6","","69","","","M","11","","3","","","M","99.82","","","","-30","","NA"
"-82.91","76.43","GRISE FIORD A","2402360","2018-01-07 18:00","2018","01","07","18:00","-27.4","","-31.4","","69","","","M","14","","8","","","M","99.83","","","","-35","","NA"
"-82.91","76.43","GRISE FIORD A","2402360","2018-01-07 19:00","2018","01","07","19:00","-29.0","","-32.2","","75","","","M","16","","3","","","M","99.80","","","","-32","","NA"
"-82.91","76.43","GRISE FIORD A","2402360","2018-01-07 20:00","2018","01","07","20:00","-26.5","","-29.4","","77","","","M","0","","1","","","M","99.79","","","","-28","","NA"
"-82.91","76.43","GRISE FIORD A","2402360","2018-01-07 21:00","2018","01","07","21:00","-25.8","","-30.2","","67","","","M","11","","8","","","M","99.75","","","","-33","","NA"
"-82.91","76.43","GRISE FIORD A","2402360","2018-01-07 22:00","2018","01","07","22:00","-28.9","","-31.8","","76","","","M","9","","5","","","M","99.76","","","","-34","","NA"
"-82.91","76.43","GRISE FIORD A","2402360","2018-01-07 23:00","2018","01","07","23:00","-29.1","","-32.9","","70","","","M","30","","2","","","M","99.75","","","","-31","","NA"
"-82.91","76.43","GRISE FIORD A","2402360","2018-01-08 00:00","2018","01","08","00:00","-30.8","","-33.8","","75","","","M","21","","3","","","M","99.76","","","","-34","","NA"
"-82.91","76.43","GRISE FIORD A","2402360","2018-01-08 01:00","2018","01","08","01:00","-31.0","","-34.1","","75","","","M","6","","2","","","M","99.79","","","","-33","","NA"
"-82.91","76.43","GRISE FIORD A","2402360","2018-01-08 02:00","2018","01","08","02:00","-27.8","","-31.0","","74","","","M","35","","3","","","M","99.78","","","","-31","","NA"
"-82.91","76.43","GRISE FIORD A","2402360","2018-01-08 03:00","2018","01","08","03:00","-26.9","","-30.3","","74","","","M","4","","3","","","M","99.78","","","","-30","","NA"
"-82.91","76.43","GRISE FIORD A","2402360","2018-01-08 04:00","2018","01","08","04:00","-30.4","","-33.8","","73","","","M","0","","1","","","M","99.80","","","","-32","","NA"
"-82.91","76.43","GRISE FIORD A","2402360","2018-01-08 05:00","2018","01","08","05:00","-30.4","","-33.4","","76","","","M","11","","1","","","M","99.81","","","","-32","","NA"
"-82.91","76.43","GRISE FIORD A","2402360","2018-01-08 06:00","2018","01","08","06:00","-31.4","","-34.6","","74","","","M","25","","3","","","M","99.82","","","","-35","","NA"
"-82.91","76.43","GRISE FIORD A","2402360","2018-01-08 07:00","2018","01","08","07:00","-30.0","","-33.3","","73","","","M","17","","1","","","M","99.82","","","","-31","","NA"
"-82.91","76.43","GRISE FIORD A","2402360","2018-01-08 08:00","2018","01","08","08:00","-31.5","","-34.7","","74","","","M","24","","1","","","M","99.80","","","","-33","","NA"
"-82.91","76.43","GRISE FIORD A","2402360","2018-01-08 09:00","2018","01","08","09:00","-31.3","","-34.6","","73","","","M","7","","2","","","M","99.81","","","","-34","","NA"
"-82.91","76.43","GRISE FIORD A","2402360","2018-01-08 10:00","2018","01","08","10:00","-33.0","","-36.2","","74","","","M","15","","4","","","M","99.81","","","","-38","","NA"
"-82.91","76.43","GRISE FIORD A","2402360","2018-01-08 11:00","2018","01","08","11:00","-32.1","","-35.3","","74","","","M","8","","4","","","M","99.82","","","","-37","","NA"
"-82.91","76.43","GRISE FIORD A","2402360","2018-01-08 12:00","2018","01","08","12:00","-32.9","","-36.3","","72","","","M","33","","3","","","M","99.81","","","","-37","","NA"
"-82.91","76.43","GRISE FIORD A","2402360","2018-01-08 13:00","2018","01","08","13:00","-32.2","","-35.5","","73","","","M","12","","4","","","M","99.83","","","","-37","","NA"
"-82.91","76.43","GRISE FIORD A","2402360","2018-01-08 14:00","2018","01","08","14:00","-34.2","","-37.7","","71","","","M","18","","1","","","M","99.88","","","","-35","","NA"
"-82.91","76.43","GRISE FIORD A","2402360","2018-01-08 15:00","2018","01","08","15:00","-33.8","","-37.2","","72","","","M","9","","5","","","M","99.90","","","","-40","","NA"
"-82.91","76.43","GRISE FIORD A","2402360","2018-01-08 16:00","2018","01","08","16:00","-33.8","","-37.3","","72","","","M","14","","3","","","M","99.90","","","","-37","","NA"
"-82.91","76.43","GRISE FIORD A","2402360","2018-01-08 17:00","2018","01","08","17:00","-33.6","","-37.2","","71","","","M","13","","4","","","M","99.95","","","","-38","","NA"
"-82.91","76.43","GRISE FIORD A","2402360","2018-01-08 18:00","2018","01","08","18:00","-34.4","","-37.9","","71","","","M","11","","4","","","M","99.98","","","","-39","","NA"
"-82.91","76.43","GRISE FIORD A","2402360","2018-01-08 19:00","2018","01","08","19:00","-33.2","","-36.7","","72","","","M","13","","1","","","M","100.02","","","","-34","","NA"
"-82.91","76.43","GRISE FIORD A","2402360","2018-01-08 20:00","2018","01","08","20:00","-32.5","","-36.0","","72","","","M","5","","5","","","M","99.99","","","","-38","","NA"
"-82.91","76.43","GRISE FIORD A","2402360","2018-01-08 21:00","2018","01","08","21:00","-35.0","","-38.6","","71","","","M","23","","2","","","M","100.03","","","","-38","","NA"
"-82.91","76.43","GRISE FIORD A","2402360","2018-01-08 22:00","2018","01","08","22:00","-34.8","","-38.4","","71","","","M","36","","2","","","M","100.10","","","","-37","","NA"
"-82.91","76.43","GRISE FIORD A","2402360","2018-01-08 23:00","2018","01","08","23:00","-32.0","","-35.4","","73","","","M","3","","3","","","M","100.13","","","","-36","","NA"
"-82.91","76.43","GRISE FIORD A","2402360","2018-01-09 00:00","2018","01","09","00:00","-34.9","","-38.5","","70","","","M","17","","3","","","M","100.12","","","","-39","","NA"
"-82.91","76.43","GRISE FIORD A","2402360","2018-01-09 01:00","2018","01","09","01:00","-33.5","","-37.2","","70","","","M","32","","3","","","M","100.15","","","","-37","","NA"
"-82.91","76.43","GRISE FIORD A","2402360","2018-01-09 02:00","2018","01","09","02:00","-33.7","","-37.3","","71","","","M","16","","4","","","M","100.20","","","","-39","","NA"
"-82.91","76.43","GRISE FIORD A","2402360","2018-01-09 03:00","2018","01","09","03:00","-31.5","","-34.7","","74","","","M","6","","7","","","M","100.25","","","","-39","","NA"
"-82.91","76.43","GRISE FIORD A","2402360","2018-01-09 04:00","2018","01","09","04:00","-33.6","","-37.4","","70","","","M","24","","3","","","M","100.31","","","","-37","","NA"
"-82.91","76.43","GRISE FIORD A","2402360","2018-01-09 05:00","2018","01","09","05:00","-32.0","","-35.6","","71","","","M","32","","2","","","M","100.34","","","","-34","","NA"
"-82.91","76.43","GRISE FIORD A","2402360","2018-01-09 06:00","2018","01","09","06:00","-30.9","","-34.4","","72","","","M","5","","5","","","M","100.38","","","","-37","","NA"
"-82.91","76.43","GRISE FIORD A","2402360","2018-01-09 07:00","2018","01","09","07:00","-31.1","","-34.7","","72","","","M","2","","2","","","M","100.42","","","","-33","","NA"
"-82.91","76.43","GRISE FIORD A","2402360","2018-01-09 08:00","2018","01","09","08:00","-31.4","","-34.8","","73","","","M","29","","2","","","M","100.45","","","","-34","","NA"
"-82.91","76.43","GRISE FIORD A","2402360","2018-01-09 09:00","2018","01","09","09:00","-31.1","","-34.7","","71","","","M","11","","3","","","M","100.45","","","","-35","","NA"
"-82.91","76.43","GRISE FIORD A","2402360","2018-01-09 10:00","2018","01","09","10:00","-31.7","","-35.3","","72","","","M","11","","4","","","M","100.51","","","","-36","","NA"
"-82.91","76.43","GRISE FIORD A","2402360","2018-01-09 11:00","2018","01","09","11:00","-33.6","","-37.0","","72","","","M","10","","8","","","M","100.51","","","","-42","","NA"
"-82.91","76.43","GRISE FIORD A","2402360","2018-01-09 12:00","2018","01","09","12:00","-32.0","","-35.7","","71","","","M","33","","2","","","M","100.52","","","","-34","","NA"
"-82.91","76.43","GRISE FIORD A","2402360","2018-01-09 13:00","2018","01","09","13:00","-34.3","","-38.1","","70","","","M","20","","1","","","M","100.57","","","","-36","","NA"
"-82.91","76.43","GRISE FIORD A","2402360","2018-01-09 14:00","2018","01","09","14:00","-32.1","","-35.6","","71","","","M","3","","3","","","M","100.58","","","","-36","","NA"
"-82.91","76.43","GRISE FIORD A","2402360","2018-01-09 15:00","2018","01","09","15:00","-32.1","","-35.7","","71","","","M","4","","2","","","M","100.61","","","","-34","","NA"
"-82.91","76.43","GRISE FIORD A","2402360","2018-01-09 16:00","2018","01","09","16:00","-32.9","","-36.5","","71","","","M","17","","3","","","M","100.66","","","","-37","","NA"
"-82.91","76.43","GRISE FIORD A","2402360","2018-01-09 17:00","2018","01","09","17:00","-33.0","","-36.7","","70","","","M","4","","4","","","M","100.68","","","","-38","","NA"
"-82.91","76.43","GRISE FIORD A","2402360","2018-01-09 18:00","2018","01","09","18:00","-31.1","","-34.6","","72","","","M","13","","2","","","M","100.68","","","","-33","","NA"
"-82.91","76.43","GRISE FIORD A","2402360","2018-01-09 19:00","2018","01","09","19:00","-32.5","","-36.2","","71","","","M","36","","3","","","M","100.68","","","","-36","","NA"
"-82.91","76.43","GRISE FIORD A","2402360","2018-01-09 20:00","2018","01","09","20:00","-36.5","","-40.3","","69","","","M","32","","2","","","M","100.69","","","","-39","","NA"
"-82.91","76.43","GRISE FIORD A","2402360","2018-01-09 21:00","2018","01","09","21:00","-33.8","","-37.3","","72","","","M","31","","1","","","M","100.70","","","","-35","","NA"
"-82.91","76.43","GRISE FIORD A","2402360","2018-01-09 22:00","2018","01","09","22:00","-29.8","","-33.2","","73","","","M","10","","4","","","M","100.69","","","","-34","","NA"
"-82.91","76.43","GRISE FIORD A","2402360","2018-01-09 23:00","2018","01","09","23:00","-31.4","","-34.9","","72","","","M","3","","4","","","M","100.68","","","","-36","","NA"
"-82.91","76.43","GRISE FIORD A","2402360","2018-01-10 00:00","2018","01","10","00:00","-32.9","","-36.4","","72","","","M","11","","1","","","M","100.67","","","","-34","","NA"
"-82.91","76.43","GRISE FIORD A","2402360","2018-01-10 01:00","2018","01","10","01:00","-37.9","","-41.8","","68","","","M","17","","3","","","M","100.68","","","","-42","","NA"
"-82.91","76.43","GRISE FIORD A","2402360","2018-01-10 02:00","2018","01","10","02:00","-33.0","","-36.5","","71","","","M","15","","4","","","M","100.68","","","","-38","","NA"
"-82.91","76.43","GRISE FIORD A","2402360","2018-01-10 03:00","2018","01","10","03:00","-31.3","","-34.9","","72","","","M","5","","11","","","M","100.65","","","","-41","","NA"
"-82.91","76.43","GRISE FIORD A","2402360","2018-01-10 04:00","2018","01","10","04:00","-34.1","","-38.0","","69","","","M","4","","1","","","M","100.63","","","","-35","","NA"
"-82.91","76.43","GRISE FIORD A","2402360","2018-01-10 05:00","2018","01","10","05:00","-36.3","","-40.1","","69","","","M","10","","3","","","M","100.66","","","","-40","","NA"
"-82.91","76.43","GRISE FIORD A","2402360","2018-01-10 06:00","2018","01","10","06:00","-33.4","","-36.9","","71","","","M","9","","1","","","M","100.66","","","","-35","","NA"
"-82.91","76.43","GRISE FIORD A","2402360","2018-01-10 07:00","2018","01","10","07:00","-33.8","","-37.2","","72","","","M","22","","1","","","M","100.65","","","","-35","","NA"
"-82.91","76.43","GRISE FIORD A","2402360","2018-01-10 08:00","2018","01","10","08:00","-34.4","","-38.0","","71","","","M","35","","1","","","M","100.65","","","","-36","","NA"
"-82.91","76.43","GRISE FIORD A","2402360","2018-01-10 09:00","2018","01","10","09:00","-31.2","","-34.7","","72","","","M","11","","2","","","M","100.62","","","","-34","","NA"
"-82.91","76.43","GRISE FIORD A","2402360","2018-01-10 10:00","2018","01","10","10:00","-36.1","","-40.1","","68","","","M","17","","3","","","M","100.64","","","","-40","","NA"
"-82.91","76.43","GRISE FIORD A","2402360","2018-01-10 11:00","2018","01","10","11:00","-32.1","","-35.6","","72","","","M","35","","3","","","M","100.61","","","","-36","","NA"
"-82.91","76.43","GRISE FIORD A","2402360","2018-01-10 12:00","2018","01","10","12:00","-35.1","","-39.0","","69","","","M","31","","2","","","M","100.57","","","","-38","","NA"
"-82.91","76.43","GRISE FIORD A","2402360","2018-01-10 13:00","2018","01","10","13:00","-34.4","","-38.0","","70","","","M","7","","4","","","M","100.57","","","","-39","","NA"
"-82.91","76.43","GRISE FIORD A","2402360","2018-01-10 14:00","2018","01","10","14:00","-32.4","","-36.0","","71","","","M","33","","3","","","M","100.55","","","","-36","","NA"
"-82.91","76.43","GRISE FIORD A","2402360","2018-01-10 15:00","2018","01","10","15:00","-32.9","","-36.5","","71","","","M","2","","2","","","M","100.52","","","","-35","","NA"
"-82.91","76.43","GRISE FIORD A","2402360","2018-01-10 16:00","2018","01","10","16:00","-34.1","","-37.8","","70","","","M","22","","3","","","M","100.54","","","","-38","","NA"
"-82.91","76.43","GRISE FIORD A","2402360","2018-01-10 17:00","2018","01","10","17:00","-34.1","","-37.7","","71","","","M","7","","3","","","M","100.52","","","","-38","","NA"
"-82.91","76.43","GRISE FIORD A","2402360","2018-01-10 18:00","2018","01","10","18:00","-34.0","","-37.6","","71","","","M","31","","1","","","M","100.44","","","","-35","","NA"
"-82.91","76.43","GRISE FIORD A","2402360","2018-01-10 19:00","2018","01","10","19:00","-33.4","","-36.9","","71","","","M","5","","8","","","M","100.39","","","","-42","","NA"
"-82.91","76.43","GRISE FIORD A","2402360","2018-01-10 20:00","2018","01","10","20:00","-37.1","","-40.9","","68","","","M","24","","4","","","M","100.36","","","","-42","","NA"
"-82.91","76.43","GRISE FIORD A","2402360","2018-01-10 21:00","2018","01","10","21:00","-35.0","","-38.7","","70","","","M","6","","3","","","M","100.31","","","","-39","","NA"
"-82.91","76.43","GRISE FIORD A","2402360","2018-01-10 22:00","2018","01","10","22:00","-38.3","","-42.2","","68","","","M","34","","5","","","M","100.25","","","","-45","","NA"
"-82.91","76.43","GRISE FIORD A","2402360","2018-01-10 23:00","2018","01","10","23:00","-36.7","","-40.4","","69","","","M","6","","5","","","M","100.14","","","","-43","","NA"
"-82.91","76.43","GRISE FIORD A","2402360","2018-01-11 00:00","2018","01","11","00:00","-35.6","","-39.3","","70","","","M","13","","5","","","M","100.07","","","","-42","","NA"
"-82.91","76.43","GRISE FIORD A","2402360","2018-01-11 01:00","2018","01","11","01:00","-35.3","","-39.0","","70","","","M","14","","10","","","M","100.02","","","","-45","","NA"
"-82.91","76.43","GRISE FIORD A","2402360","2018-01-11 02:00","2018","01","11","02:00","-33.9","","-37.5","","71","","","M","15","","9","","","M","99.92","","","","-43","","NA"
"-82.91","76.43","GRISE FIORD A","2402360","2018-01-11 03:00","2018","01","11","03:00","-34.8","","-38.5","","70","","","M","15","","7","","","M","99.89","","","","-43","","NA"
"-82.91","76.43","GRISE FIORD A","2402360","2018-01-11 04:00","2018","01","11","04:00","-35.3","","-39.1","","69","","","M","7","","4","","","M","99.82","","","","-40","","NA"
"-82.91","76.43","GRISE FIORD A","2402360","2018-01-11 05:00","2018","01","11","05:00","-34.9","","-38.7","","69","","","M","20","","8","","","M","99.69","","","","-44","","NA"
"-82.91","76.43","GRISE FIORD A","2402360","2018-01-11 06:00","2018","01","11","06:00","-34.5","","-38.3","","70","","","M","18","","2","","","M","99.69","","","","-37","","NA"
"-82.91","76.43","GRISE FIORD A","2402360","2018-01-11 07:00","2018","01","11","07:00","-34.5","","-38.2","","70","","","M","7","","7","","","M","99.56","","","","-43","","NA"
"-82.91","76.43","GRISE FIORD A","2402360","2018-01-11 08:00","2018","01","11","08:00","-33.6","","-37.3","","70","","","M","29","","4","","","M","99.42","","","","-38","","NA"
"-82.91","76.43","GRISE FIORD A","2402360","2018-01-11 09:00","2018","01","11","09:00","-32.5","","-36.1","","71","","","M","17","","6","","","M","99.34","","","","-39","","NA"
"-82.91","76.43","GRISE FIORD A","2402360","2018-01-11 10:00","2018","01","11","10:00","-32.9","","-36.5","","71","","","M","8","","3","","","M","99.28","","","","-37","","NA"
"-82.91","76.43","GRISE FIORD A","2402360","2018-01-11 11:00","2018","01","11","11:00","-32.5","","-36.1","","71","","","M","5","","3","","","M","99.20","","","","-36","","NA"
"-82.91","76.43","GRISE FIORD A","2402360","2018-01-11 12:00","2018","01","11","12:00","-32.8","","-36.4","","71","","","M","6","","1","","","M","99.09","","","","-34","","NA"
"-82.91","76.43","GRISE FIORD A","2402360","2018-01-11 13:00","2018","01","11","13:00","-31.8","","-35.4","","71","","","M","29","","8","","","M","99.05","","","","-40","","NA"
"-82.91","76.43","GRISE FIORD A","2402360","2018-01-11 14:00","2018","01","11","14:00","-32.3","","-35.9","","71","","","M","13","","6","","","M","99.03","","","","-39","","NA"
"-82.91","76.43","GRISE FIORD A","2402360","2018-01-11 15:00","2018","01","11","15:00","-32.2","","-35.8","","71","","","M","11","","7","","","M","99.02","","","","-40","","NA"
"-82.91","76.43","GRISE FIORD A","2402360","2018-01-11 16:00","2018","01","11","16:00","-32.3","","-35.8","","71","","","M","15","","3","","","M","99.00","","","","-36","","NA"
"-82.91","76.43","GRISE FIORD A","2402360","2018-01-11 17:00","2018","01","11","17:00","-32.6","","-36.2","","71","","","M","2","","5","","","M","98.94","","","","-39","","NA"
"-82.91","76.43","GRISE FIORD A","2402360","2018-01-11 18:00","2018","01","11","18:00","-31.9","","-35.4","","72","","","M","11","","7","","","M","98.88","","","","-39","","NA"
"-82.91","76.43","GRISE FIORD A","2402360","2018-01-11 19:00","2018","01","11","19:00","-33.0","","-36.6","","71","","","M","5","","4","","","M","98.87","","","","-38","","NA"
"-82.91","76.43","GRISE FIORD A","2402360","2018-01-11 20:00","2018","01","11","20:00","-32.6","","-36.2","","71","","","M","9","","5","","","M","98.84","","","","-39","","NA"
"-82.91","76.43","GRISE FIORD A","2402360","2018-01-11 21:00","2018","01","11","21:00","-32.4","","-36.0","","71","","","M","10","","3","","","M","98.82","","","","-36","","NA"
"-82.91","76.43","GRISE FIORD A","2402360","2018-01-11 22:00","2018","01","11","22:00","-31.2","","-34.7","","72","","","M","10","","5","","","M","98.75","","","","-37","","NA"
"-82.91","76.43","GRISE FIORD A","2402360","2018-01-11 23:00","2018","01","11","23:00","-30.6","","-34.1","","72","","","M","10","","1","","","M","98.72","","","","-32","","NA"
"-82.91","76.43","GRISE FIORD A","2402360","2018-01-12 00:00","2018","01","12","00:00","-30.3","","-33.7","","73","","","M","13","","3","","","M","98.66","","","","-34","","NA"
"-82.91","76.43","GRISE FIORD A","2402360","2018-01-12 01:00","2018","01","12","01:00","-30.4","","-33.8","","73","","","M","20","","2","","","M","98.68","","","","-33","","NA"
"-82.91","76.43","GRISE FIORD A","2402360","2018-01-12 02:00","2018","01","12","02:00","-29.9","","-33.3","","73","","","M","18","","2","","","M","98.72","","","","-32","","NA"
"-82.91","76.43","GRISE FIORD A","2402360","2018-01-12 03:00","2018","01","12","03:00","-29.4","","-32.8","","73","","","M","21","","5","","","M","98.69","","","","-35","","NA"
"-82.91","76.43","GRISE FIORD A","2402360","2018-01-12 04:00","2018","01","12","04:00","-29.1","","-32.4","","73","","","M","14","","1","","","M","98.72","","","","-30","","NA"
"-82.91","76.43","GRISE FIORD A","2402360","2018-01-12 05:00","2018","01","12","05:00","-28.9","","-32.2","","74","","","M","19","","3","","","M","98.74","","","","-32","","NA"
"-82.91","76.43","GRISE FIORD A","2402360","2018-01-12 06:00","2018","01","12","06:00","-28.4","","-31.8","","74","","","M","23","","1","","","M","98.78","","","","-29","","NA"
"-82.91","76.43","GRISE FIORD A","2402360","2018-01-12 07:00","2018","01","12","07:00","-28.4","","-31.7","","74","","","M","0","","1","","","M","98.78","","","","-29","","NA"
"-82.91","76.43","GRISE FIORD A","2402360","2018-01-12 08:00","2018","01","12","08:00","-28.1","","-31.3","","74","","","M","36","","2","","","M","98.77","","","","-30","","NA"
"-82.91","76.43","GRISE FIORD A","2402360","2018-01-12 09:00","2018","01","12","09:00","-28.0","","-31.3","","74","","","M","2","","1","","","M","98.77","","","","-29","","NA"
"-82.91","76.43","GRISE FIORD A","2402360","2018-01-12 10:00","2018","01","12","10:00","-27.9","","-31.2","","74","","","M","0","","1","","","M","98.78","","","","-29","","NA"
"-82.91","76.43","GRISE FIORD A","2402360","2018-01-12 11:00","2018","01","12","11:00","-28.6","","-31.9","","74","","","M","6","","4","","","M","98.81","","","","-33","","NA"
"-82.91","76.43","GRISE FIORD A","2402360","2018-01-12 12:00","2018","01","12","12:00","-28.0","","-31.2","","74","","","M","","","0","","","M","98.81","","","","","","NA"
"-82.91","76.43","GRISE FIORD A","2402360","2018-01-12 13:00","2018","01","12","13:00","-28.0","","-31.3","","74","","","M","11","","1","","","M","98.85","","","","-29","","NA"
"-82.91","76.43","GRISE FIORD A","2402360","2018-01-12 14:00","2018","01","12","14:00","-27.6","","-30.9","","75","","","M","0","","1","","","M","98.88","","","","-29","","NA"
"-82.91","76.43","GRISE FIORD A","2402360","2018-01-12 15:00","2018","01","12","15:00","-27.1","","-30.3","","75","","","M","34","","1","","","M","98.92","","","","-28","","NA"
"-82.91","76.43","GRISE FIORD A","2402360","2018-01-12 16:00","2018","01","12","16:00","-26.7","","-29.9","","75","","","M","36","","3","","","M","98.97","","","","-30","","NA"
"-82.91","76.43","GRISE FIORD A","2402360","2018-01-12 17:00","2018","01","12","17:00","-26.9","","-30.1","","75","","","M","4","","4","","","M","98.96","","","","-31","","NA"
"-82.91","76.43","GRISE FIORD A","2402360","2018-01-12 18:00","2018","01","12","18:00","-28.5","","-31.9","","73","","","M","4","","4","","","M","99.02","","","","-33","","NA"
"-82.91","76.43","GRISE FIORD A","2402360","2018-01-12 19:00","2018","01","12","19:00","-28.2","","-31.5","","74","","","M","6","","4","","","M","99.05","","","","-33","","NA"
"-82.91","76.43","GRISE FIORD A","2402360","2018-01-12 20:00","2018","01","12","20:00","-27.2","","-30.4","","75","","","M","9","","4","","","M","99.05","","","","-31","","NA"
"-82.91","76.43","GRISE FIORD A","2402360","2018-01-12 21:00","2018","01","12","21:00","-27.4","","-30.6","","75","","","M","6","","6","","","M","99.06","","","","-34","","NA"
"-82.91","76.43","GRISE FIORD A","2402360","2018-01-12 22:00","2018","01","12","22:00","-27.4","","-30.6","","75","","","M","14","","4","","","M","99.09","","","","-32","","NA"
"-82.91","76.43","GRISE FIORD A","2402360","2018-01-12 23:00","2018","01","12","23:00","-27.1","","-30.3","","75","","","M","9","","4","","","M","99.12","","","","-31","","NA"
"-82.91","76.43","GRISE FIORD A","2402360","2018-01-13 00:00","2018","01","13","00:00","-26.0","","-29.1","","76","","","M","15","","6","","","M","99.08","","","","-32","","NA"
"-82.91","76.43","GRISE FIORD A","2402360","2018-01-13 01:00","2018","01","13","01:00","-27.1","","-30.3","","75","","","M","6","","7","","","M","99.08","","","","-34","","NA"
"-82.91","76.43","GRISE FIORD A","2402360","2018-01-13 02:00","2018","01","13","02:00","-26.9","","-30.1","","75","","","M","9","","1","","","M","99.13","","","","-28","","NA"
"-82.91","76.43","GRISE FIORD A","2402360","2018-01-13 03:00","2018","01","13","03:00","-26.3","","-29.4","","76","","","M","7","","5","","","M","99.10","","","","-31","","NA"
"-82.91","76.43","GRISE FIORD A","2402360","2018-01-13 04:00","2018","01","13","04:00","-25.6","","-28.6","","76","","","M","18","","5","","","M","99.11","","","","-31","","NA"
"-82.91","76.43","GRISE FIORD A","2402360","2018-01-13 05:00","2018","01","13","05:00","-25.4","","-28.4","","76","","","M","0","","1","","","M","99.13","","","","-26","","NA"
"-82.91","76.43","GRISE FIORD A","2402360","2018-01-13 06:00","2018","01","13","06:00","-25.3","","-28.4","","76","","","M","13","","1","","","M","99.09","","","","-26","","NA"
"-82.91","76.43","GRISE FIORD A","2402360","2018-01-13 07:00","2018","01","13","07:00","-25.2","","-28.2","","76","","","M","16","","2","","","M","99.09","","","","-27","","NA"
"-82.91","76.43","GRISE FIORD A","2402360","2018-01-13 08:00","2018","01","13","08:00","-25.5","","-28.6","","76","","","M","6","","3","","","M","99.10","","","","-29","","NA"
"-82.91","76.43","GRISE FIORD A","2402360","2018-01-13 09:00","2018","01","13","09:00","-25.6","","-28.6","","76","","","M","6","","1","","","M","99.11","","","","-27","","NA"
"-82.91","76.43","GRISE FIORD A","2402360","2018-01-13 10:00","2018","01","13","10:00","-25.2","","-28.1","","77","","","M","18","","1","","","M","99.09","","","","-26","","NA"
"-82.91","76.43","GRISE FIORD A","2402360","2018-01-13 11:00","2018","01","13","11:00","-26.7","","-29.8","","76","","","M","15","","4","","","M","99.11","","","","-31","","NA"
"-82.91","76.43","GRISE FIORD A","2402360","2018-01-13 12:00","2018","01","13","12:00","-26.0","","-29.0","","76","","","M","6","","4","","","M","99.11","","","","-30","","NA"
"-82.91","76.43","GRISE FIORD A","2402360","2018-01-13 13:00","2018","01","13","13:00","-27.3","","-30.4","","75","","","M","3","","5","","","M","99.18","","","","-33","","NA"
"-82.91","76.43","GRISE FIORD A","2402360","2018-01-13 14:00","2018","01","13","14:00","-26.6","","-29.6","","76","","","M","24","","4","","","M","99.22","","","","-31","","NA"
"-82.91","76.43","GRISE FIORD A","2402360","2018-01-13 15:00","2018","01","13","15:00","-27.5","","-30.6","","75","","","M","35","","4","","","M","99.28","","","","-32","","NA"
"-82.91","76.43","GRISE FIORD A","2402360","2018-01-13 16:00","2018","01","13","16:00","-26.4","","-29.4","","76","","","M","19","","10","","","M","99.26","","","","-35","","NA"
"-82.91","76.43","GRISE FIORD A","2402360","2018-01-13 17:00","2018","01","13","17:00","-18.7","","-21.8","","77","","","M","35","","53","","","M","99.22","","","","-34","","NA"
"-82.91","76.43","GRISE FIORD A","2402360","2018-01-13 18:00","2018","01","13","18:00","-24.4","","-28.7","","68","","","M","32","","3","","","M","99.43","","","","-27","","NA"
"-82.91","76.43","GRISE FIORD A","2402360","2018-01-13 19:00","2018","01","13","19:00","-26.5","","-30.1","","72","","","M","28","","9","","","M","99.46","","","","-34","","NA"
"-82.91","76.43","GRISE FIORD A","2402360","2018-01-13 20:00","2018","01","13","20:00","-27.2","","-30.9","","72","","","M","25","","7","","","M","99.56","","","","-34","","NA"
"-82.91","76.43","GRISE FIORD A","2402360","2018-01-13 21:00","2018","01","13","21:00","-25.9","","-29.8","","70","","","M","11","","1","","","M","99.64","","","","-27","","NA"
"-82.91","76.43","GRISE FIORD A","2402360","2018-01-13 22:00","2018","01","13","22:00","-25.5","","-29.3","","71","","","M","29","","4","","","M","99.60","","","","-30","","NA"
"-82.91","76.43","GRISE FIORD A","2402360","2018-01-13 23:00","2018","01","13","23:00","-24.5","","-29.0","","67","","","M","16","","1","","","M","99.67","","","","-25","","NA"
"-82.91","76.43","GRISE FIORD A","2402360","2018-01-14 00:00","2018","01","14","00:00","-24.0","","-29.0","","64","","","M","36","","3","","","M","99.77","","","","-27","","NA"
"-82.91","76.43","GRISE FIORD A","2402360","2018-01-14 01:00","2018","01","14","01:00","-28.9","","-32.1","","75","","","M","9","","7","","","M","99.79","","","","-36","","NA"
"-82.91","76.43","GRISE FIORD A","2402360","2018-01-14 02:00","2018","01","14","02:00","-26.5","","-29.9","","74","","","M","1","","3","","","M","99.88","","","","-30","","NA"
"-82.91","76.43","GRISE FIORD A","2402360","2018-01-14 03:00","2018","01","14","03:00","-27.0","","-30.5","","73","","","M","20","","3","","","M","99.96","","","","-30","","NA"
"-82.91","76.43","GRISE FIORD A","2402360","2018-01-14 04:00","2018","01","14","04:00","-27.3","","-30.4","","75","","","M","15","","4","","","M","100.03","","","","-32","","NA"
"-82.91","76.43","GRISE FIORD A","2402360","2018-01-14 05:00","2018","01","14","05:00","-26.3","","-29.7","","74","","","M","5","","4","","","M","100.16","","","","-30","","NA"
"-82.91","76.43","GRISE FIORD A","2402360","2018-01-14 06:00","2018","01","14","06:00","-25.8","","-29.2","","74","","","M","7","","7","","","M","100.20","","","","-32","","NA"
"-82.91","76.43","GRISE FIORD A","2402360","2018-01-14 07:00","2018","01","14","07:00","-25.9","","-29.3","","74","","","M","11","","3","","","M","100.30","","","","-29","","NA"
"-82.91","76.43","GRISE FIORD A","2402360","2018-01-14 08:00","2018","01","14","08:00","-27.1","","-30.2","","76","","","M","16","","3","","","M","100.33","","","","-30","","NA"
"-82.91","76.43","GRISE FIORD A","2402360","2018-01-14 09:00","2018","01","14","09:00","-27.8","","-30.8","","76","","","M","11","","3","","","M","100.40","","","","-31","","NA"
"-82.91","76.43","GRISE FIORD A","2402360","2018-01-14 10:00","2018","01","14","10:00","-28.6","","-31.7","","75","","","M","13","","7","","","M","100.42","","","","-36","","NA"
"-82.91","76.43","GRISE FIORD A","2402360","2018-01-14 11:00","2018","01","14","11:00","-28.3","","-31.4","","75","","","M","10","","3","","","M","100.47","","","","-32","","NA"
"-82.91","76.43","GRISE FIORD A","2402360","2018-01-14 12:00","2018","01","14","12:00","-28.9","","-32.0","","75","","","M","8","","6","","","M","100.52","","","","-35","","NA"
"-82.91","76.43","GRISE FIORD A","2402360","2018-01-14 13:00","2018","01","14","13:00","-29.1","","-32.2","","75","","","M","16","","4","","","M","100.62","","","","-34","","NA"
"-82.91","76.43","GRISE FIORD A","2402360","2018-01-14 14:00","2018","01","14","14:00","-27.6","","-31.2","","72","","","M","10","","9","","","M","100.65","","","","-36","","NA"
"-82.91","76.43","GRISE FIORD A","2402360","2018-01-14 15:00","2018","01","14","15:00","-28.7","","-31.9","","75","","","M","16","","2","","","M","100.77","","","","-31","","NA"
"-82.91","76.43","GRISE FIORD A","2402360","2018-01-14 16:00","2018","01","14","16:00","-28.0","","-31.1","","76","","","M","14","","9","","","M","100.79","","","","-36","","NA"
"-82.91","76.43","GRISE FIORD A","2402360","2018-01-14 17:00","2018","01","14","17:00","-28.6","","-31.8","","75","","","M","8","","5","","","M","100.90","","","","-34","","NA"
"-82.91","76.43","GRISE FIORD A","2402360","2018-01-14 18:00","2018","01","14","18:00","-28.5","","-31.6","","75","","","M","28","","3","","","M","100.95","","","","-32","","NA"
"-82.91","76.43","GRISE FIORD A","2402360","2018-01-14 19:00","2018","01","14","19:00","-28.0","","-31.5","","73","","","M","12","","4","","","M","100.95","","","","-32","","NA"
"-82.91","76.43","GRISE FIORD A","2402360","2018-01-14 20:00","2018","01","14","20:00","-28.1","","-31.4","","74","","","M","6","","9","","","M","100.98","","","","-36","","NA"
"-82.91","76.43","GRISE FIORD A","2402360","2018-01-14 21:00","2018","01","14","21:00","-27.2","","-30.6","","74","","","M","36","","6","","","M","100.99","","","","-33","","NA"
"-82.91","76.43","GRISE FIORD A","2402360","2018-01-14 22:00","2018","01","14","22:00","-27.8","","-31.3","","73","","","M","10","","8","","","M","100.98","","","","-35","","NA"
"-82.91","76.43","GRISE FIORD A","2402360","2018-01-14 23:00","2018","01","14","23:00","-29.4","","-32.6","","75","","","M","8","","9","","","M","101.00","","","","-38","","NA"
"-82.91","76.43","GRISE FIORD A","2402360","2018-01-15 00:00","2018","01","15","00:00","-29.8","","-32.9","","75","","","M","35","","1","","","M","101.06","","","","-31","","NA"
"-82.91","76.43","GRISE FIORD A","2402360","2018-01-15 01:00","2018","01","15","01:00","-30.0","","-33.1","","75","","","M","17","","3","","","M","101.08","","","","-33","","NA"
"-82.91","76.43","GRISE FIORD A","2402360","2018-01-15 02:00","2018","01","15","02:00","-30.4","","-33.5","","75","","","M","17","","4","","","M","101.08","","","","-35","","NA"
"-82.91","76.43","GRISE FIORD A","2402360","2018-01-15 03:00","2018","01","15","03:00","-30.1","","-33.1","","75","","","M","4","","6","","","M","101.12","","","","-37","","NA"
"-82.91","76.43","GRISE FIORD A","2402360","2018-01-15 04:00","2018","01","15","04:00","-30.6","","-33.7","","74","","","M","13","","5","","","M","101.11","","","","-36","","NA"
"-82.91","76.43","GRISE FIORD A","2402360","2018-01-15 05:00","2018","01","15","05:00","-29.7","","-33.0","","73","","","M","15","","5","","","M","101.11","","","","-35","","NA"
"-82.91","76.43","GRISE FIORD A","2402360","2018-01-15 06:00","2018","01","15","06:00","-31.0","","-34.1","","75","","","M","9","","4","","","M","101.11","","","","-36","","NA"
"-82.91","76.43","GRISE FIORD A","2402360","2018-01-15 07:00","2018","01","15","07:00","-30.9","","-34.3","","73","","","M","14","","4","","","M","101.06","","","","-35","","NA"
"-82.91","76.43","GRISE FIORD A","2402360","2018-01-15 08:00","2018","01","15","08:00","-31.1","","-34.3","","74","","","M","9","","7","","","M","101.05","","","","-39","","NA"
"-82.91","76.43","GRISE FIORD A","2402360","2018-01-15 09:00","2018","01","15","09:00","-31.0","","-34.2","","74","","","M","15","","3","","","M","101.04","","","","-34","","NA"
"-82.91","76.43","GRISE FIORD A","2402360","2018-01-15 10:00","2018","01","15","10:00","-31.2","","-34.2","","75","","","M","6","","5","","","M","100.97","","","","-37","","NA"
"-82.91","76.43","GRISE FIORD A","2402360","2018-01-15 11:00","2018","01","15","11:00","-31.6","","-34.7","","75","","","M","11","","6","","","M","100.97","","","","-38","","NA"
"-82.91","76.43","GRISE FIORD A","2402360","2018-01-15 12:00","2018","01","15","12:00","-32.2","","-35.5","","73","","","M","7","","2","","","M","100.95","","","","-35","","NA"
"-82.91","76.43","GRISE FIORD A","2402360","2018-01-15 13:00","2018","01","15","13:00","-30.0","","-33.1","","75","","","M","6","","8","","","M","100.90","","","","-38","","NA"
"-82.91","76.43","GRISE FIORD A","2402360","2018-01-15 14:00","2018","01","15","14:00","-30.9","","-33.9","","75","","","M","14","","5","","","M","100.92","","","","-37","","NA"
"-82.91","76.43","GRISE FIORD A","2402360","2018-01-15 15:00","2018","01","15","15:00","-30.4","","-33.7","","74","","","M","4","","8","","","M","100.92","","","","-38","","NA"
"-82.91","76.43","GRISE FIORD A","2402360","2018-01-15 16:00","2018","01","15","16:00","-32.1","","-35.3","","74","","","M","5","","8","","","M","100.92","","","","-40","","NA"
"-82.91","76.43","GRISE FIORD A","2402360","2018-01-15 17:00","2018","01","15","17:00","-32.3","","-35.5","","74","","","M","13","","6","","","M","100.90","","","","-39","","NA"
"-82.91","76.43","GRISE FIORD A","2402360","2018-01-15 18:00","2018","01","15","18:00","-32.9","","-36.2","","73","","","M","20","","2","","","M","100.88","","","","-35","","NA"
"-82.91","76.43","GRISE FIORD A","2402360","2018-01-15 19:00","2018","01","15","19:00","-29.3","","-32.5","","75","","","M","5","","3","","","M","100.87","","","","-33","","NA"
"-82.91","76.43","GRISE FIORD A","2402360","2018-01-15 20:00","2018","01","15","20:00","-29.8","","-33.1","","74","","","M","5","","7","","","M","100.87","","","","-37","","NA"
"-82.91","76.43","GRISE FIORD A","2402360","2018-01-15 21:00","2018","01","15","21:00","-33.3","","-36.6","","73","","","M","15","","3","","","M","100.85","","","","-37","","NA"
"-82.91","76.43","GRISE FIORD A","2402360","2018-01-15 22:00","2018","01","15","22:00","-30.9","","-34.2","","74","","","M","16","","6","","","M","100.80","","","","-38","","NA"
"-82.91","76.43","GRISE FIORD A","2402360","2018-01-15 23:00","2018","01","15","23:00","-31.9","","-35.0","","74","","","M","12","","4","","","M","100.81","","","","-37","","NA"
"-82.91","76.43","GRISE FIORD A","2402360","2018-01-16 00:00","2018","01","16","00:00","-34.0","","-37.3","","73","","","M","12","","4","","","M","100.79","","","","-39","","NA"
"-82.91","76.43","GRISE FIORD A","2402360","2018-01-16 01:00","2018","01","16","01:00","-34.0","","-37.5","","71","","","M","15","","6","","","M","100.79","","","","-41","","NA"
"-82.91","76.43","GRISE FIORD A","2402360","2018-01-16 02:00","2018","01","16","02:00","-30.3","","-33.6","","73","","","M","6","","5","","","M","100.78","","","","-36","","NA"
"-82.91","76.43","GRISE FIORD A","2402360","2018-01-16 03:00","2018","01","16","03:00","-35.0","","-38.5","","71","","","M","4","","4","","","M","100.80","","","","-40","","NA"
"-82.91","76.43","GRISE FIORD A","2402360","2018-01-16 04:00","2018","01","16","04:00","-31.0","","-34.3","","73","","","M","13","","6","","","M","100.82","","","","-38","","NA"
"-82.91","76.43","GRISE FIORD A","2402360","2018-01-16 05:00","2018","01","16","05:00","-28.5","","-31.8","","74","","","M","9","","1","","","M","100.77","","","","-30","","NA"
"-82.91","76.43","GRISE FIORD A","2402360","2018-01-16 06:00","2018","01","16","06:00","-33.3","","-36.8","","72","","","M","11","","3","","","M","100.82","","","","-37","","NA"
"-82.91","76.43","GRISE FIORD A","2402360","2018-01-16 07:00","2018","01","16","07:00","-29.8","","-33.0","","74","","","M","13","","5","","","M","100.86","","","","-35","","NA"
"-82.91","76.43","GRISE FIORD A","2402360","2018-01-16 08:00","2018","01","16","08:00","-31.3","","-34.6","","74","","","M","10","","5","","","M","100.83","","","","-37","","NA"
"-82.91","76.43","GRISE FIORD A","2402360","2018-01-16 09:00","2018","01","16","09:00","-32.0","","-35.4","","73","","","M","11","","4","","","M","100.86","","","","-37","","NA"
"-82.91","76.43","GRISE FIORD A","2402360","2018-01-16 10:00","2018","01","16","10:00","-29.7","","-33.0","","73","","","M","5","","8","","","M","100.84","","","","-38","","NA"
"-82.91","76.43","GRISE FIORD A","2402360","2018-01-16 11:00","2018","01","16","11:00","-28.1","","-31.4","","74","","","M","4","","3","","","M","100.85","","","","-31","","NA"
"-82.91","76.43","GRISE FIORD A","2402360","2018-01-16 12:00","2018","01","16","12:00","-34.8","","-38.4","","71","","","M","36","","2","","","M","100.88","","","","-37","","NA"
"-82.91","76.43","GRISE FIORD A","2402360","2018-01-16 13:00","2018","01","16","13:00","-32.2","","-35.5","","73","","","M","10","","1","","","M","100.89","","","","-33","","NA"
"-82.91","76.43","GRISE FIORD A","2402360","2018-01-16 14:00","2018","01","16","14:00","-28.5","","-31.8","","74","","","M","13","","3","","","M","100.95","","","","-32","","NA"
"-82.91","76.43","GRISE FIORD A","2402360","2018-01-16 15:00","2018","01","16","15:00","-29.4","","-32.7","","73","","","M","4","","7","","","M","101.02","","","","-37","","NA"
"-82.91","76.43","GRISE FIORD A","2402360","2018-01-16 16:00","2018","01","16","16:00","-28.8","","-32.2","","73","","","M","11","","3","","","M","101.07","","","","-32","","NA"
"-82.91","76.43","GRISE FIORD A","2402360","2018-01-16 17:00","2018","01","16","17:00","-29.2","","-32.6","","73","","","M","9","","3","","","M","101.06","","","","-33","","NA"
"-82.91","76.43","GRISE FIORD A","2402360","2018-01-16 18:00","2018","01","16","18:00","-29.6","","-33.0","","74","","","M","35","","4","","","M","101.15","","","","-34","","NA"
"-82.91","76.43","GRISE FIORD A","2402360","2018-01-16 19:00","2018","01","16","19:00","-33.7","","-37.4","","70","","","M","28","","5","","","M","101.14","","","","-40","","NA"
"-82.91","76.43","GRISE FIORD A","2402360","2018-01-16 20:00","2018","01","16","20:00","-29.9","","-33.3","","73","","","M","6","","4","","","M","101.24","","","","-34","","NA"
"-82.91","76.43","GRISE FIORD A","2402360","2018-01-16 21:00","2018","01","16","21:00","-27.5","","-30.8","","74","","","M","5","","8","","","M","101.19","","","","-35","","NA"
"-82.91","76.43","GRISE FIORD A","2402360","2018-01-16 22:00","2018","01","16","22:00","-29.1","","-32.5","","73","","","M","7","","3","","","M","101.16","","","","-32","","NA"
"-82.91","76.43","GRISE FIORD A","2402360","2018-01-16 23:00","2018","01","16","23:00","-27.5","","-30.8","","74","","","M","8","","5","","","M","101.17","","","","-33","","NA"
"-82.91","76.43","GRISE FIORD A","2402360","2018-01-17 00:00","2018","01","17","00:00","-27.8","","-31.2","","73","","","M","17","","3","","","M","101.16","","","","-31","","NA"
"-82.91","76.43","GRISE FIORD A","2402360","2018-01-17 01:00","2018","01","17","01:00","-29.9","","-33.3","","73","","","M","13","","5","","","M","101.22","","","","-36","","NA"
"-82.91","76.43","GRISE FIORD A","2402360","2018-01-17 02:00","2018","01","17","02:00","-31.5","","-34.9","","73","","","M","32","","3","","","M","101.20","","","","-35","","NA"
"-82.91","76.43","GRISE FIORD A","2402360","2018-01-17 03:00","2018","01","17","03:00","-29.6","","-33.1","","72","","","M","5","","9","","","M","101.17","","","","-38","","NA"
"-82.91","76.43","GRISE FIORD A","2402360","2018-01-17 04:00","2018","01","17","04:00","-28.5","","-31.7","","74","","","M","6","","5","","","M","101.23","","","","-34","","NA"
"-82.91","76.43","GRISE FIORD A","2402360","2018-01-17 05:00","2018","01","17","05:00","-29.6","","-32.9","","74","","","M","","","0","","","M","101.18","","","","","","NA"
"-82.91","76.43","GRISE FIORD A","2402360","2018-01-17 06:00","2018","01","17","06:00","-29.3","","-32.6","","74","","","M","4","","6","","","M","101.17","","","","-36","","NA"
"-82.91","76.43","GRISE FIORD A","2402360","2018-01-17 07:00","2018","01","17","07:00","-29.4","","-32.6","","74","","","M","11","","5","","","M","101.11","","","","-35","","NA"
"-82.91","76.43","GRISE FIORD A","2402360","2018-01-17 08:00","2018","01","17","08:00","-28.9","","-32.1","","75","","","M","5","","4","","","M","101.08","","","","-33","","NA"
"-82.91","76.43","GRISE FIORD A","2402360","2018-01-17 09:00","2018","01","17","09:00","-32.3","","-35.7","","72","","","M","14","","4","","","M","101.11","","","","-37","","NA"
"-82.91","76.43","GRISE FIORD A","2402360","2018-01-17 10:00","2018","01","17","10:00","-30.1","","-33.4","","74","","","M","13","","3","","","M","101.06","","","","-33","","NA"
"-82.91","76.43","GRISE FIORD A","2402360","2018-01-17 11:00","2018","01","17","11:00","-31.0","","-34.3","","73","","","M","6","","3","","","M","101.04","","","","-34","","NA"
"-82.91","76.43","GRISE FIORD A","2402360","2018-01-17 12:00","2018","01","17","12:00","-30.8","","-34.2","","73","","","M","4","","2","","","M","101.00","","","","-33","","NA"
"-82.91","76.43","GRISE FIORD A","2402360","2018-01-17 13:00","2018","01","17","13:00","-30.4","","-33.7","","73","","","M","4","","4","","","M","100.96","","","","-35","","NA"
"-82.91","76.43","GRISE FIORD A","2402360","2018-01-17 14:00","2018","01","17","14:00","-30.6","","-34.0","","73","","","M","2","","4","","","M","100.93","","","","-35","","NA"
"-82.91","76.43","GRISE FIORD A","2402360","2018-01-17 15:00","2018","01","17","15:00","-30.7","","-34.1","","73","","","M","35","","2","","","M","100.93","","","","-33","","NA"
"-82.91","76.43","GRISE FIORD A","2402360","2018-01-17 16:00","2018","01","17","16:00","-30.5","","-33.9","","73","","","M","4","","4","","","M","100.95","","","","-35","","NA"
"-82.91","76.43","GRISE FIORD A","2402360","2018-01-17 17:00","2018","01","17","17:00","-30.8","","-34.1","","73","","","M","26","","3","","","M","100.99","","","","-34","","NA"
"-82.91","76.43","GRISE FIORD A","2402360","2018-01-17 18:00","2018","01","17","18:00","-27.2","","-30.3","","75","","","M","8","","8","","","M","100.97","","","","-35","","NA"
"-82.91","76.43","GRISE FIORD A","2402360","2018-01-17 19:00","2018","01","17","19:00","-32.2","","-35.8","","71","","","M","28","","2","","","M","100.95","","","","-35","","NA"
"-82.91","76.43","GRISE FIORD A","2402360","2018-01-17 20:00","2018","01","17","20:00","-28.3","","-31.5","","74","","","M","4","","4","","","M","100.93","","","","-33","","NA"
"-82.91","76.43","GRISE FIORD A","2402360","2018-01-17 21:00","2018","01","17","21:00","-30.6","","-34.1","","72","","","M","8","","1","","","M","100.93","","","","-32","","NA"
"-82.91","76.43","GRISE FIORD A","2402360","2018-01-17 22:00","2018","01","17","22:00","-31.5","","-35.2","","71","","","M","1","","3","","","M","100.94","","","","-35","","NA"
"-82.91","76.43","GRISE FIORD A","2402360","2018-01-17 23:00","2018","01","17","23:00","-30.2","","-33.6","","73","","","M","29","","5","","","M","100.86","","","","-36","","NA"
"-82.91","76.43","GRISE FIORD A","2402360","2018-01-18 00:00","2018","01","18","00:00","-30.7","","-34.0","","73","","","M","9","","6","","","M","100.91","","","","-37","","NA"
"-82.91","76.43","GRISE FIORD A","2402360","2018-01-18 01:00","2018","01","18","01:00","-30.9","","-34.3","","73","","","M","21","","1","","","M","100.89","","","","-32","","NA"
"-82.91","76.43","GRISE FIORD A","2402360","2018-01-18 02:00","2018","01","18","02:00","-30.0","","-33.4","","73","","","M","5","","10","","","M","100.92","","","","-39","","NA"
"-82.91","76.43","GRISE FIORD A","2402360","2018-01-18 03:00","2018","01","18","03:00","-29.4","","-32.9","","72","","","M","23","","7","","","M","100.91","","","","-37","","NA"
"-82.91","76.43","GRISE FIORD A","2402360","2018-01-18 04:00","2018","01","18","04:00","-29.8","","-33.1","","74","","","M","1","","1","","","M","100.90","","","","-31","","NA"
"-82.91","76.43","GRISE FIORD A","2402360","2018-01-18 05:00","2018","01","18","05:00","-28.7","","-31.9","","74","","","M","15","","2","","","M","100.88","","","","-31","","NA"
"-82.91","76.43","GRISE FIORD A","2402360","2018-01-18 06:00","2018","01","18","06:00","-30.3","","-33.8","","72","","","M","5","","3","","","M","100.90","","","","-34","","NA"
"-82.91","76.43","GRISE FIORD A","2402360","2018-01-18 07:00","2018","01","18","07:00","-28.7","","-32.0","","74","","","M","3","","4","","","M","100.89","","","","-33","","NA"
"-82.91","76.43","GRISE FIORD A","2402360","2018-01-18 08:00","2018","01","18","08:00","-27.3","","-30.6","","74","","","M","4","","4","","","M","100.85","","","","-32","","NA"
"-82.91","76.43","GRISE FIORD A","2402360","2018-01-18 09:00","2018","01","18","09:00","-29.5","","-32.8","","74","","","M","10","","2","","","M","100.86","","","","-32","","NA"
"-82.91","76.43","GRISE FIORD A","2402360","2018-01-18 10:00","2018","01","18","10:00","-28.5","","-31.8","","74","","","M","33","","5","","","M","100.84","","","","-34","","NA"
"-82.91","76.43","GRISE FIORD A","2402360","2018-01-18 11:00","2018","01","18","11:00","-31.0","","-34.5","","72","","","M","22","","5","","","M","100.89","","","","-37","","NA"
"-82.91","76.43","GRISE FIORD A","2402360","2018-01-18 12:00","2018","01","18","12:00","-28.7","","-31.9","","74","","","M","2","","5","","","M","100.86","","","","-34","","NA"
"-82.91","76.43","GRISE FIORD A","2402360","2018-01-18 13:00","2018","01","18","13:00","-31.3","","-34.7","","72","","","M","8","","7","","","M","100.87","","","","-39","","NA"
"-82.91","76.43","GRISE FIORD A","2402360","2018-01-18 14:00","2018","01","18","14:00","-28.9","","-32.1","","74","","","M","4","","7","","","M","100.90","","","","-36","","NA"
"-82.91","76.43","GRISE FIORD A","2402360","2018-01-18 15:00","2018","01","18","15:00","-30.5","","-33.9","","73","","","M","14","","3","","","M","100.94","","","","-34","","NA"
"-82.91","76.43","GRISE FIORD A","2402360","2018-01-18 16:00","2018","01","18","16:00","-30.2","","-33.7","","72","","","M","13","","4","","","M","100.98","","","","-35","","NA"
"-82.91","76.43","GRISE FIORD A","2402360","2018-01-18 17:00","2018","01","18","17:00","-32.2","","-36.2","","68","","","M","19","","1","","","M","101.06","","","","-33","","NA"
"-82.91","76.43","GRISE FIORD A","2402360","2018-01-18 18:00","2018","01","18","18:00","-25.7","","-28.8","","76","","","M","33","","2","","","M","101.08","","","","-28","","NA"
"-82.91","76.43","GRISE FIORD A","2402360","2018-01-18 19:00","2018","01","18","19:00","-26.9","","-30.1","","75","","","M","35","","5","","","M","101.14","","","","-32","","NA"
"-82.91","76.43","GRISE FIORD A","2402360","2018-01-18 20:00","2018","01","18","20:00","-26.0","","-29.3","","74","","","M","7","","6","","","M","101.17","","","","-32","","NA"
"-82.91","76.43","GRISE FIORD A","2402360","2018-01-18 21:00","2018","01","18","21:00","-28.5","","-31.7","","75","","","M","3","","7","","","M","101.20","","","","-36","","NA"
"-82.91","76.43","GRISE FIORD A","2402360","2018-01-18 22:00","2018","01","18","22:00","-27.6","","-30.9","","74","","","M","27","","2","","","M","101.24","","","","-30","","NA"
"-82.91","76.43","GRISE FIORD A","2402360","2018-01-18 23:00","2018","01","18","23:00","-23.9","","-27.6","","72","","","M","10","","5","","","M","101.25","","","","-29","","NA"
"-82.91","76.43","GRISE FIORD A","2402360","2018-01-19 00:00","2018","01","19","00:00","-18.6","","-21.5","","78","","","M","7","","3","","","M","101.30","","","","-21","","NA"
"-82.91","76.43","GRISE FIORD A","2402360","2018-01-19 01:00","2018","01","19","01:00","-20.6","","-24.3","","72","","","M","15","","6","","","M","101.33","","","","-26","","NA"
"-82.91","76.43","GRISE FIORD A","2402360","2018-01-19 02:00","2018","01","19","02:00","-21.4","","-25.6","","70","","","M","13","","5","","","M","101.42","","","","-26","","NA"
"-82.91","76.43","GRISE FIORD A","2402360","2018-01-19 03:00","2018","01","19","03:00","-19.2","","-22.1","","78","","","M","3","","9","","","M","101.54","","","","-26","","NA"
"-82.91","76.43","GRISE FIORD A","2402360","2018-01-19 04:00","2018","01","19","04:00","-17.9","","-21.4","","75","","","M","6","","16","","","M","101.59","","","","-27","","NA"
"-82.91","76.43","GRISE FIORD A","2402360","2018-01-19 05:00","2018","01","19","05:00","-17.4","","-20.8","","75","","","M","32","","4","","","M","101.64","","","","-21","","NA"
"-82.91","76.43","GRISE FIORD A","2402360","2018-01-19 06:00","2018","01","19","06:00","-17.8","","-20.7","","78","","","M","4","","9","","","M","101.67","","","","-24","","NA"
"-82.91","76.43","GRISE FIORD A","2402360","2018-01-19 07:00","2018","01","19","07:00","-17.8","","-21.1","","76","","","M","36","","5","","","M","101.71","","","","-22","","NA"
"-82.91","76.43","GRISE FIORD A","2402360","2018-01-19 08:00","2018","01","19","08:00","-17.0","","-19.8","","80","","","M","5","","7","","","M","101.70","","","","-22","","NA"
"-82.91","76.43","GRISE FIORD A","2402360","2018-01-19 09:00","2018","01","19","09:00","-16.7","","-19.5","","79","","","M","3","","7","","","M","101.69","","","","-22","","NA"
"-82.91","76.43","GRISE FIORD A","2402360","2018-01-19 10:00","2018","01","19","10:00","-16.7","","-19.5","","79","","","M","6","","12","","","M","101.69","","","","-24","","NA"
"-82.91","76.43","GRISE FIORD A","2402360","2018-01-19 11:00","2018","01","19","11:00","-17.1","","-19.8","","80","","","M","6","","16","","","M","101.71","","","","-26","","NA"
"-82.91","76.43","GRISE FIORD A","2402360","2018-01-19 12:00","2018","01","19","12:00","-17.4","","-20.0","","81","","","M","7","","10","","","M","101.72","","","","-24","","NA"
"-82.91","76.43","GRISE FIORD A","2402360","2018-01-19 13:00","2018","01","19","13:00","-17.8","","-20.3","","81","","","M","7","","17","","","M","101.73","","","","-27","","NA"
"-82.91","76.43","GRISE FIORD A","2402360","2018-01-19 14:00","2018","01","19","14:00","-18.4","","-20.8","","82","","","M","7","","20","","","M","101.73","","","","-28","","NA"
"-82.91","76.43","GRISE FIORD A","2402360","2018-01-19 15:00","2018","01","19","15:00","-19.1","","-21.5","","81","","","M","7","","27","","","M","101.71","","","","-31","","NA"
"-82.91","76.43","GRISE FIORD A","2402360","2018-01-19 16:00","2018","01","19","16:00","-19.4","","-21.8","","82","","","M","7","","22","","","M","101.72","","","","-30","","NA"
"-82.91","76.43","GRISE FIORD A","2402360","2018-01-19 17:00","2018","01","19","17:00","-19.5","","-22.8","","76","","","M","7","","23","","","M","101.73","","","","-31","","NA"
"-82.91","76.43","GRISE FIORD A","2402360","2018-01-19 18:00","2018","01","19","18:00","-19.4","","-21.9","","81","","","M","10","","4","","","M","101.74","","","","-23","","NA"
"-82.91","76.43","GRISE FIORD A","2402360","2018-01-19 19:00","2018","01","19","19:00","-19.6","","-22.3","","80","","","M","7","","16","","","M","101.73","","","","-29","","NA"
"-82.91","76.43","GRISE FIORD A","2402360","2018-01-19 20:00","2018","01","19","20:00","-20.0","","-22.5","","81","","","M","4","","7","","","M","101.70","","","","-26","","NA"
"-82.91","76.43","GRISE FIORD A","2402360","2018-01-19 21:00","2018","01","19","21:00","-20.4","","-23.1","","80","","","M","6","","15","","","M","101.68","","","","-30","","NA"
"-82.91","76.43","GRISE FIORD A","2402360","2018-01-19 22:00","2018","01","19","22:00","-20.2","","-22.3","","84","","","M","5","","11","","","M","101.68","","","","-28","","NA"
"-82.91","76.43","GRISE FIORD A","2402360","2018-01-19 23:00","2018","01","19","23:00","-20.8","","-23.1","","82","","","M","6","","13","","","M","101.66","","","","-29","","NA"
"-82.91","76.43","GRISE FIORD A","2402360","2018-01-20 00:00","2018","01","20","00:00","-20.9","","-23.2","","82","","","M","6","","11","","","M","101.66","","","","-29","","NA"
"-82.91","76.43","GRISE FIORD A","2402360","2018-01-20 01:00","2018","01","20","01:00","-21.1","","-23.4","","82","","","M","5","","8","","","M","101.63","","","","-28","","NA"
"-82.91","76.43","GRISE FIORD A","2402360","2018-01-20 02:00","2018","01","20","02:00","-21.4","","-23.6","","83","","","M","4","","6","","","M","101.62","","","","-27","","NA"
"-82.91","76.43","GRISE FIORD A","2402360","2018-01-20 03:00","2018","01","20","03:00","-21.7","","-24.1","","82","","","M","4","","8","","","M","101.63","","","","-28","","NA"
"-82.91","76.43","GRISE FIORD A","2402360","2018-01-20 04:00","2018","01","20","04:00","-22.2","","-24.7","","80","","","M","5","","10","","","M","101.61","","","","-30","","NA"
"-82.91","76.43","GRISE FIORD A","2402360","2018-01-20 05:00","2018","01","20","05:00","-22.2","","-24.8","","80","","","M","6","","7","","","M","101.59","","","","-28","","NA"
"-82.91","76.43","GRISE FIORD A","2402360","2018-01-20 06:00","2018","01","20","06:00","-22.7","","-25.4","","79","","","M","6","","5","","","M","101.56","","","","-27","","NA"
"-82.91","76.43","GRISE FIORD A","2402360","2018-01-20 07:00","2018","01","20","07:00","-23.5","","-26.3","","78","","","M","13","","3","","","M","101.54","","","","-26","","NA"
"-82.91","76.43","GRISE FIORD A","2402360","2018-01-20 08:00","2018","01","20","08:00","-24.1","","-27.0","","78","","","M","22","","5","","","M","101.53","","","","-29","","NA"
"-82.91","76.43","GRISE FIORD A","2402360","2018-01-20 09:00","2018","01","20","09:00","-25.9","","-28.9","","76","","","M","18","","2","","","M","101.48","","","","-28","","NA"
"-82.91","76.43","GRISE FIORD A","2402360","2018-01-20 10:00","2018","01","20","10:00","-26.6","","-29.6","","76","","","M","15","","3","","","M","101.49","","","","-30","","NA"
"-82.91","76.43","GRISE FIORD A","2402360","2018-01-20 11:00","2018","01","20","11:00","-27.5","","-30.7","","75","","","M","18","","5","","","M","101.47","","","","-33","","NA"
"-82.91","76.43","GRISE FIORD A","2402360","2018-01-20 12:00","2018","01","20","12:00","-27.9","","-31.0","","75","","","M","9","","6","","","M","101.47","","","","-34","","NA"
"-82.91","76.43","GRISE FIORD A","2402360","2018-01-20 13:00","2018","01","20","13:00","-27.5","","-30.6","","76","","","M","8","","4","","","M","101.42","","","","-32","","NA"
"-82.91","76.43","GRISE FIORD A","2402360","2018-01-20 14:00","2018","01","20","14:00","-27.9","","-31.1","","75","","","M","10","","3","","","M","101.40","","","","-31","","NA"
"-82.91","76.43","GRISE FIORD A","2402360","2018-01-20 15:00","2018","01","20","15:00","-28.1","","-31.2","","75","","","M","12","","4","","","M","101.39","","","","-32","","NA"
"-82.91","76.43","GRISE FIORD A","2402360","2018-01-20 16:00","2018","01","20","16:00","-29.7","","-33.0","","74","","","M","13","","7","","","M","101.39","","","","-37","","NA"
"-82.91","76.43","GRISE FIORD A","2402360","2018-01-20 17:00","2018","01","20","17:00","-30.4","","-33.7","","73","","","M","11","","2","","","M","101.38","","","","-33","","NA"
"-82.91","76.43","GRISE FIORD A","2402360","2018-01-20 18:00","2018","01","20","18:00","-30.4","","-33.8","","73","","","M","13","","4","","","M","101.37","","","","-35","","NA"
"-82.91","76.43","GRISE FIORD A","2402360","2018-01-20 19:00","2018","01","20","19:00","-30.5","","-33.9","","73","","","M","2","","1","","","M","101.35","","","","-32","","NA"
"-82.91","76.43","GRISE FIORD A","2402360","2018-01-20 20:00","2018","01","20","20:00","-30.3","","-33.7","","73","","","M","6","","1","","","M","101.33","","","","-31","","NA"
"-82.91","76.43","GRISE FIORD A","2402360","2018-01-20 21:00","2018","01","20","21:00","-32.4","","-36.1","","71","","","M","31","","3","","","M","101.28","","","","-36","","NA"
"-82.91","76.43","GRISE FIORD A","2402360","2018-01-20 22:00","2018","01","20","22:00","-31.0","","-34.4","","73","","","M","13","","3","","","M","101.24","","","","-34","","NA"
"-82.91","76.43","GRISE FIORD A","2402360","2018-01-20 23:00","2018","01","20","23:00","-31.6","","-35.1","","72","","","M","10","","3","","","M","101.25","","","","-35","","NA"
"-82.91","76.43","GRISE FIORD A","2402360","2018-01-21 00:00","2018","01","21","00:00","-28.9","","-32.1","","75","","","M","5","","7","","","M","101.23","","","","-36","","NA"
"-82.91","76.43","GRISE FIORD A","2402360","2018-01-21 01:00","2018","01","21","01:00","-32.3","","-35.9","","71","","","M","9","","4","","","M","101.22","","","","-37","","NA"
"-82.91","76.43","GRISE FIORD A","2402360","2018-01-21 02:00","2018","01","21","02:00","-30.3","","-33.7","","73","","","M","7","","5","","","M","101.22","","","","-36","","NA"
"-82.91","76.43","GRISE FIORD A","2402360","2018-01-21 03:00","2018","01","21","03:00","-29.5","","-32.8","","74","","","M","13","","5","","","M","101.22","","","","-35","","NA"
"-82.91","76.43","GRISE FIORD A","2402360","2018-01-21 04:00","2018","01","21","04:00","-30.2","","-33.6","","73","","","M","15","","3","","","M","101.23","","","","-34","","NA"
"-82.91","76.43","GRISE FIORD A","2402360","2018-01-21 05:00","2018","01","21","05:00","-30.4","","-33.7","","73","","","M","7","","5","","","M","101.25","","","","-36","","NA"
"-82.91","76.43","GRISE FIORD A","2402360","2018-01-21 06:00","2018","01","21","06:00","-29.8","","-33.1","","73","","","M","9","","4","","","M","101.24","","","","-34","","NA"
"-82.91","76.43","GRISE FIORD A","2402360","2018-01-21 07:00","2018","01","21","07:00","-29.8","","-33.1","","73","","","M","6","","3","","","M","101.22","","","","-33","","NA"
"-82.91","76.43","GRISE FIORD A","2402360","2018-01-21 08:00","2018","01","21","08:00","-30.0","","-33.3","","73","","","M","2","","4","","","M","101.20","","","","-35","","NA"
"-82.91","76.43","GRISE FIORD A","2402360","2018-01-21 09:00","2018","01","21","09:00","-30.2","","-33.5","","73","","","M","6","","2","","","M","101.20","","","","-32","","NA"
"-82.91","76.43","GRISE FIORD A","2402360","2018-01-21 10:00","2018","01","21","10:00","-30.8","","-34.3","","72","","","M","6","","7","","","M","101.20","","","","-38","","NA"
"-82.91","76.43","GRISE FIORD A","2402360","2018-01-21 11:00","2018","01","21","11:00","-31.7","","-35.3","","71","","","M","11","","4","","","M","101.21","","","","-36","","NA"
"-82.91","76.43","GRISE FIORD A","2402360","2018-01-21 12:00","2018","01","21","12:00","-30.1","","-33.5","","73","","","M","14","","4","","","M","101.21","","","","-35","","NA"
"-82.91","76.43","GRISE FIORD A","2402360","2018-01-21 13:00","2018","01","21","13:00","-30.6","","-34.1","","73","","","M","8","","4","","","M","101.23","","","","-35","","NA"
"-82.91","76.43","GRISE FIORD A","2402360","2018-01-21 14:00","2018","01","21","14:00","-30.8","","-34.3","","72","","","M","6","","7","","","M","101.24","","","","-38","","NA"
"-82.91","76.43","GRISE FIORD A","2402360","2018-01-21 15:00","2018","01","21","15:00","-29.9","","-33.2","","74","","","M","10","","4","","","M","101.26","","","","-34","","NA"
"-82.91","76.43","GRISE FIORD A","2402360","2018-01-21 16:00","2018","01","21","16:00","-30.3","","-33.7","","73","","","M","5","","2","","","M","101.26","","","","-33","","NA"
"-82.91","76.43","GRISE FIORD A","2402360","2018-01-21 17:00","2018","01","21","17:00","-30.4","","-33.8","","73","","","M","14","","4","","","M","101.29","","","","-35","","NA"
"-82.91","76.43","GRISE FIORD A","2402360","2018-01-21 18:00","2018","01","21","18:00","-31.0","","-34.5","","72","","","M","6","","4","","","M","101.28","","","","-36","","NA"
"-82.91","76.43","GRISE FIORD A","2402360","2018-01-21 19:00","2018","01","21","19:00","-31.0","","-34.5","","72","","","M","7","","3","","","M","101.29","","","","-34","","NA"
"-82.91","76.43","GRISE FIORD A","2402360","2018-01-21 20:00","2018","01","21","20:00","-29.4","","-32.7","","74","","","M","3","","3","","","M","101.29","","","","-33","","NA"
"-82.91","76.43","GRISE FIORD A","2402360","2018-01-21 21:00","2018","01","21","21:00","-29.6","","-32.9","","73","","","M","4","","1","","","M","101.28","","","","-31","","NA"
"-82.91","76.43","GRISE FIORD A","2402360","2018-01-21 22:00","2018","01","21","22:00","-29.1","","-32.4","","74","","","M","13","","3","","","M","101.26","","","","-32","","NA"
"-82.91","76.43","GRISE FIORD A","2402360","2018-01-21 23:00","2018","01","21","23:00","-29.4","","-32.7","","73","","","M","7","","4","","","M","101.27","","","","-34","","NA"
"-82.91","76.43","GRISE FIORD A","2402360","2018-01-22 00:00","2018","01","22","00:00","-29.9","","-33.4","","72","","","M","5","","7","","","M","101.27","","","","-37","","NA"
"-82.91","76.43","GRISE FIORD A","2402360","2018-01-22 01:00","2018","01","22","01:00","-30.0","","-33.4","","73","","","M","7","","2","","","M","101.25","","","","-32","","NA"
"-82.91","76.43","GRISE FIORD A","2402360","2018-01-22 02:00","2018","01","22","02:00","-28.9","","-32.2","","74","","","M","3","","4","","","M","101.26","","","","-33","","NA"
"-82.91","76.43","GRISE FIORD A","2402360","2018-01-22 03:00","2018","01","22","03:00","-28.9","","-32.2","","74","","","M","4","","3","","","M","101.28","","","","-32","","NA"
"-82.91","76.43","GRISE FIORD A","2402360","2018-01-22 04:00","2018","01","22","04:00","-29.1","","-32.3","","74","","","M","5","","5","","","M","101.28","","","","-35","","NA"
"-82.91","76.43","GRISE FIORD A","2402360","2018-01-22 05:00","2018","01","22","05:00","-29.4","","-32.7","","74","","","M","8","","2","","","M","101.28","","","","-32","","NA"
"-82.91","76.43","GRISE FIORD A","2402360","2018-01-22 06:00","2018","01","22","06:00","-29.2","","-32.4","","74","","","M","5","","3","","","M","101.28","","","","-33","","NA"
"-82.91","76.43","GRISE FIORD A","2402360","2018-01-22 07:00","2018","01","22","07:00","-30.1","","-33.5","","73","","","M","10","","3","","","M","101.28","","","","-33","","NA"
"-82.91","76.43","GRISE FIORD A","2402360","2018-01-22 08:00","2018","01","22","08:00","-30.0","","-33.4","","73","","","M","1","","4","","","M","101.28","","","","-35","","NA"
"-82.91","76.43","GRISE FIORD A","2402360","2018-01-22 09:00","2018","01","22","09:00","-29.4","","-32.6","","74","","","M","2","","7","","","M","101.25","","","","-37","","NA"
"-82.91","76.43","GRISE FIORD A","2402360","2018-01-22 10:00","2018","01","22","10:00","-29.1","","-32.3","","74","","","M","4","","3","","","M","101.24","","","","-32","","NA"
"-82.91","76.43","GRISE FIORD A","2402360","2018-01-22 11:00","2018","01","22","11:00","-30.1","","-33.4","","74","","","M","2","","5","","","M","101.23","","","","-36","","NA"
"-82.91","76.43","GRISE FIORD A","2402360","2018-01-22 12:00","2018","01","22","12:00","-29.2","","-32.5","","74","","","M","36","","2","","","M","101.20","","","","-31","","NA"
"-82.91","76.43","GRISE FIORD A","2402360","2018-01-22 13:00","2018","01","22","13:00","-31.3","","-34.9","","71","","","M","9","","3","","","M","101.19","","","","-35","","NA"
"-82.91","76.43","GRISE FIORD A","2402360","2018-01-22 14:00","2018","01","22","14:00","-30.8","","-34.2","","73","","","M","4","","5","","","M","101.20","","","","-37","","NA"
"-82.91","76.43","GRISE FIORD A","2402360","2018-01-22 15:00","2018","01","22","15:00","-29.6","","-33.0","","73","","","M","11","","2","","","M","101.20","","","","-32","","NA"
"-82.91","76.43","GRISE FIORD A","2402360","2018-01-22 16:00","2018","01","22","16:00","-28.7","","-31.9","","75","","","M","5","","12","","","M","101.19","","","","-39","","NA"
"-82.91","76.43","GRISE FIORD A","2402360","2018-01-22 17:00","2018","01","22","17:00","-29.3","","-32.5","","74","","","M","12","","2","","","M","101.18","","","","-32","","NA"
"-82.91","76.43","GRISE FIORD A","2402360","2018-01-22 18:00","2018","01","22","18:00","-30.0","","-33.3","","74","","","M","9","","2","","","M","101.17","","","","-32","","NA"
"-82.91","76.43","GRISE FIORD A","2402360","2018-01-22 19:00","2018","01","22","19:00","-30.4","","-33.9","","73","","","M","17","","3","","","M","101.15","","","","-34","","NA"
"-82.91","76.43","GRISE FIORD A","2402360","2018-01-22 20:00","2018","01","22","20:00","-30.1","","-33.4","","74","","","M","9","","7","","","M","101.12","","","","-37","","NA"
"-82.91","76.43","GRISE FIORD A","2402360","2018-01-22 21:00","2018","01","22","21:00","-30.5","","-33.9","","73","","","M","5","","3","","","M","101.12","","","","-34","","NA"
"-82.91","76.43","GRISE FIORD A","2402360","2018-01-22 22:00","2018","01","22","22:00","-33.4","","-36.8","","72","","","M","2","","5","","","M","101.09","","","","-39","","NA"
"-82.91","76.43","GRISE FIORD A","2402360","2018-01-22 23:00","2018","01","22","23:00","-33.4","","-37.1","","71","","","M","22","","2","","","M","101.08","","","","-36","","NA"
"-82.91","76.43","GRISE FIORD A","2402360","2018-01-23 00:00","2018","01","23","00:00","-31.4","","-34.9","","73","","","M","9","","2","","","M","101.06","","","","-34","","NA"
"-82.91","76.43","GRISE FIORD A","2402360","2018-01-23 01:00","2018","01","23","01:00","-29.1","","-32.4","","74","","","M","9","","4","","","M","101.00","","","","-34","","NA"
"-82.91","76.43","GRISE FIORD A","2402360","2018-01-23 02:00","2018","01","23","02:00","-29.6","","-32.9","","74","","","M","8","","4","","","M","100.99","","","","-34","","NA"
"-82.91","76.43","GRISE FIORD A","2402360","2018-01-23 03:00","2018","01","23","03:00","-30.6","","-34.1","","73","","","M","0","","1","","","M","100.98","","","","-32","","NA"
"-82.91","76.43","GRISE FIORD A","2402360","2018-01-23 04:00","2018","01","23","04:00","-29.9","","-33.3","","73","","","M","36","","1","","","M","101.00","","","","-31","","NA"
"-82.91","76.43","GRISE FIORD A","2402360","2018-01-23 05:00","2018","01","23","05:00","-31.8","","-35.2","","72","","","M","16","","3","","","M","100.99","","","","-35","","NA"
"-82.91","76.43","GRISE FIORD A","2402360","2018-01-23 06:00","2018","01","23","06:00","-30.4","","-33.8","","73","","","M","10","","3","","","M","100.97","","","","-34","","NA"
"-82.91","76.43","GRISE FIORD A","2402360","2018-01-23 07:00","2018","01","23","07:00","-32.3","","-35.8","","72","","","M","32","","2","","","M","100.92","","","","-35","","NA"
"-82.91","76.43","GRISE FIORD A","2402360","2018-01-23 08:00","2018","01","23","08:00","-30.6","","-33.9","","73","","","M","3","","4","","","M","100.89","","","","-35","","NA"
"-82.91","76.43","GRISE FIORD A","2402360","2018-01-23 09:00","2018","01","23","09:00","-31.9","","-35.4","","72","","","M","33","","2","","","M","100.89","","","","-34","","NA"
"-82.91","76.43","GRISE FIORD A","2402360","2018-01-23 10:00","2018","01","23","10:00","-32.1","","-35.7","","71","","","M","5","","3","","","M","100.86","","","","-36","","NA"
"-82.91","76.43","GRISE FIORD A","2402360","2018-01-23 11:00","2018","01","23","11:00","-31.3","","-34.7","","73","","","M","7","","6","","","M","100.83","","","","-38","","NA"
"-82.91","76.43","GRISE FIORD A","2402360","2018-01-23 12:00","2018","01","23","12:00","-32.1","","-35.6","","72","","","M","3","","4","","","M","100.83","","","","-37","","NA"
"-82.91","76.43","GRISE FIORD A","2402360","2018-01-23 13:00","2018","01","23","13:00","-32.9","","-36.5","","71","","","M","16","","1","","","M","100.82","","","","-34","","NA"
"-82.91","76.43","GRISE FIORD A","2402360","2018-01-23 14:00","2018","01","23","14:00","-31.4","","-34.9","","72","","","M","9","","1","","","M","100.82","","","","-33","","NA"
"-82.91","76.43","GRISE FIORD A","2402360","2018-01-23 15:00","2018","01","23","15:00","-31.1","","-34.5","","73","","","M","5","","5","","","M","100.83","","","","-37","","NA"
"-82.91","76.43","GRISE FIORD A","2402360","2018-01-23 16:00","2018","01","23","16:00","-31.3","","-34.8","","72","","","M","6","","8","","","M","100.85","","","","-40","","NA"
"-82.91","76.43","GRISE FIORD A","2402360","2018-01-23 17:00","2018","01","23","17:00","-33.3","","-37.0","","70","","","M","7","","1","","","M","100.85","","","","-35","","NA"
"-82.91","76.43","GRISE FIORD A","2402360","2018-01-23 18:00","2018","01","23","18:00","-31.7","","-35.1","","72","","","M","30","","2","","","M","100.83","","","","-34","","NA"
"-82.91","76.43","GRISE FIORD A","2402360","2018-01-23 19:00","2018","01","23","19:00","-31.3","","-34.7","","72","","","M","22","","2","","","M","100.84","","","","-34","","NA"
"-82.91","76.43","GRISE FIORD A","2402360","2018-01-23 20:00","2018","01","23","20:00","-31.8","","-35.3","","72","","","M","4","","3","","","M","100.85","","","","-35","","NA"
"-82.91","76.43","GRISE FIORD A","2402360","2018-01-23 21:00","2018","01","23","21:00","-34.8","","-38.6","","69","","","M","0","","1","","","M","100.84","","","","-36","","NA"
"-82.91","76.43","GRISE FIORD A","2402360","2018-01-23 22:00","2018","01","23","22:00","-32.3","","-35.8","","72","","","M","2","","3","","","M","100.86","","","","-36","","NA"
"-82.91","76.43","GRISE FIORD A","2402360","2018-01-23 23:00","2018","01","23","23:00","-33.6","","-37.3","","70","","","M","14","","3","","","M","100.88","","","","-37","","NA"
"-82.91","76.43","GRISE FIORD A","2402360","2018-01-24 00:00","2018","01","24","00:00","-31.8","","-35.3","","72","","","M","4","","2","","","M","100.89","","","","-34","","NA"
"-82.91","76.43","GRISE FIORD A","2402360","2018-01-24 01:00","2018","01","24","01:00","-32.1","","-35.6","","72","","","M","1","","1","","","M","100.90","","","","-33","","NA"
"-82.91","76.43","GRISE FIORD A","2402360","2018-01-24 02:00","2018","01","24","02:00","-31.8","","-35.2","","73","","","M","8","","2","","","M","100.95","","","","-34","","NA"
"-82.91","76.43","GRISE FIORD A","2402360","2018-01-24 03:00","2018","01","24","03:00","-32.3","","-35.9","","72","","","M","0","","1","","","M","100.98","","","","-33","","NA"
"-82.91","76.43","GRISE FIORD A","2402360","2018-01-24 04:00","2018","01","24","04:00","-32.7","","-36.3","","71","","","M","29","","2","","","M","101.01","","","","-35","","NA"
"-82.91","76.43","GRISE FIORD A","2402360","2018-01-24 05:00","2018","01","24","05:00","-32.4","","-36.0","","71","","","M","36","","2","","","M","101.05","","","","-35","","NA"
"-82.91","76.43","GRISE FIORD A","2402360","2018-01-24 06:00","2018","01","24","06:00","-32.0","","-35.5","","72","","","M","14","","2","","","M","101.06","","","","-34","","NA"
"-82.91","76.43","GRISE FIORD A","2402360","2018-01-24 07:00","2018","01","24","07:00","-32.8","","-36.4","","71","","","M","25","","1","","","M","101.07","","","","-34","","NA"
"-82.91","76.43","GRISE FIORD A","2402360","2018-01-24 08:00","2018","01","24","08:00","-32.8","","-36.3","","71","","","M","27","","2","","","M","101.09","","","","-35","","NA"
"-82.91","76.43","GRISE FIORD A","2402360","2018-01-24 09:00","2018","01","24","09:00","-32.4","","-36.0","","71","","","M","9","","4","","","M","101.09","","","","-37","","NA"
"-82.91","76.43","GRISE FIORD A","2402360","2018-01-24 10:00","2018","01","24","10:00","-33.4","","-36.9","","72","","","M","2","","4","","","M","101.11","","","","-38","","NA"
"-82.91","76.43","GRISE FIORD A","2402360","2018-01-24 11:00","2018","01","24","11:00","-32.2","","-35.7","","72","","","M","5","","6","","","M","101.09","","","","-39","","NA"
"-82.91","76.43","GRISE FIORD A","2402360","2018-01-24 12:00","2018","01","24","12:00","-36.8","","-40.7","","68","","","M","14","","7","","","M","101.12","","","","-45","","NA"
"-82.91","76.43","GRISE FIORD A","2402360","2018-01-24 13:00","2018","01","24","13:00","-33.5","","-37.0","","71","","","M","4","","5","","","M","101.14","","","","-40","","NA"
"-82.91","76.43","GRISE FIORD A","2402360","2018-01-24 14:00","2018","01","24","14:00","-33.4","","-37.0","","71","","","M","0","","1","","","M","101.16","","","","-35","","NA"
"-82.91","76.43","GRISE FIORD A","2402360","2018-01-24 15:00","2018","01","24","15:00","-33.6","","-37.2","","71","","","M","7","","3","","","M","101.18","","","","-37","","NA"
"-82.91","76.43","GRISE FIORD A","2402360","2018-01-24 16:00","2018","01","24","16:00","-30.8","","-34.3","","72","","","M","8","","4","","","M","101.19","","","","-35","","NA"
"-82.91","76.43","GRISE FIORD A","2402360","2018-01-24 17:00","2018","01","24","17:00","-31.8","","-35.4","","71","","","M","29","","1","","","M","101.21","","","","-33","","NA"
"-82.91","76.43","GRISE FIORD A","2402360","2018-01-24 18:00","2018","01","24","18:00","-31.3","","-34.9","","72","","","M","22","","1","","","M","101.21","","","","-32","","NA"
"-82.91","76.43","GRISE FIORD A","2402360","2018-01-24 19:00","2018","01","24","19:00","-30.4","","-33.9","","73","","","M","2","","1","","","M","101.19","","","","-32","","NA"
"-82.91","76.43","GRISE FIORD A","2402360","2018-01-24 20:00","2018","01","24","20:00","-30.2","","-33.7","","73","","","M","9","","1","","","M","101.15","","","","-31","","NA"
"-82.91","76.43","GRISE FIORD A","2402360","2018-01-24 21:00","2018","01","24","21:00","-29.8","","-33.2","","73","","","M","11","","3","","","M","101.12","","","","-33","","NA"
"-82.91","76.43","GRISE FIORD A","2402360","2018-01-24 22:00","2018","01","24","22:00","-29.3","","-32.6","","73","","","M","12","","4","","","M","101.13","","","","-34","","NA"
"-82.91","76.43","GRISE FIORD A","2402360","2018-01-24 23:00","2018","01","24","23:00","-29.1","","-32.5","","73","","","M","14","","3","","","M","101.11","","","","-32","","NA"
"-82.91","76.43","GRISE FIORD A","2402360","2018-01-25 00:00","2018","01","25","00:00","-28.9","","-32.3","","74","","","M","6","","1","","","M","101.09","","","","-30","","NA"
"-82.91","76.43","GRISE FIORD A","2402360","2018-01-25 01:00","2018","01","25","01:00","-28.8","","-32.1","","74","","","M","4","","1","","","M","101.07","","","","-30","","NA"
"-82.91","76.43","GRISE FIORD A","2402360","2018-01-25 02:00","2018","01","25","02:00","-28.6","","-31.9","","74","","","M","6","","1","","","M","101.05","","","","-30","","NA"
"-82.91","76.43","GRISE FIORD A","2402360","2018-01-25 03:00","2018","01","25","03:00","-28.1","","-31.3","","74","","","M","25","","4","","","M","101.02","","","","-32","","NA"
"-82.91","76.43","GRISE FIORD A","2402360","2018-01-25 04:00","2018","01","25","04:00","-28.3","","-31.6","","74","","","M","20","","1","","","M","101.02","","","","-29","","NA"
"-82.91","76.43","GRISE FIORD A","2402360","2018-01-25 05:00","2018","01","25","05:00","-28.3","","-31.6","","74","","","M","22","","1","","","M","101.00","","","","-29","","NA"
"-82.91","76.43","GRISE FIORD A","2402360","2018-01-25 06:00","2018","01","25","06:00","-28.2","","-31.5","","74","","","M","22","","1","","","M","100.97","","","","-29","","NA"
"-82.91","76.43","GRISE FIORD A","2402360","2018-01-25 07:00","2018","01","25","07:00","-28.3","","-31.5","","74","","","M","12","","1","","","M","100.93","","","","-29","","NA"
"-82.91","76.43","GRISE FIORD A","2402360","2018-01-25 08:00","2018","01","25","08:00","-28.2","","-31.4","","74","","","M","22","","3","","","M","100.88","","","","-31","","NA"
"-82.91","76.43","GRISE FIORD A","2402360","2018-01-25 09:00","2018","01","25","09:00","-28.0","","-31.3","","74","","","M","36","","1","","","M","100.84","","","","-29","","NA"
"-82.91","76.43","GRISE FIORD A","2402360","2018-01-25 10:00","2018","01","25","10:00","-27.9","","-31.1","","75","","","M","36","","3","","","M","100.80","","","","-31","","NA"
"-82.91","76.43","GRISE FIORD A","2402360","2018-01-25 11:00","2018","01","25","11:00","-27.9","","-31.1","","74","","","M","4","","3","","","M","100.74","","","","-31","","NA"
"-82.91","76.43","GRISE FIORD A","2402360","2018-01-25 12:00","2018","01","25","12:00","-28.2","","-31.4","","74","","","M","18","","3","","","M","100.69","","","","-31","","NA"
"-82.91","76.43","GRISE FIORD A","2402360","2018-01-25 13:00","2018","01","25","13:00","-28.0","","-31.2","","74","","","M","0","","1","","","M","100.63","","","","-29","","NA"
"-82.91","76.43","GRISE FIORD A","2402360","2018-01-25 14:00","2018","01","25","14:00","-27.9","","-31.1","","75","","","M","22","","1","","","M","100.58","","","","-29","","NA"
"-82.91","76.43","GRISE FIORD A","2402360","2018-01-25 15:00","2018","01","25","15:00","-27.9","","-31.1","","75","","","M","32","","1","","","M","100.55","","","","-29","","NA"
"-82.91","76.43","GRISE FIORD A","2402360","2018-01-25 16:00","2018","01","25","16:00","-27.6","","-30.7","","75","","","M","1","","1","","","M","100.52","","","","-29","","NA"
"-82.91","76.43","GRISE FIORD A","2402360","2018-01-25 17:00","2018","01","25","17:00","-28.1","","-31.4","","74","","","M","4","","3","","","M","100.49","","","","-31","","NA"
"-82.91","76.43","GRISE FIORD A","2402360","2018-01-25 18:00","2018","01","25","18:00","-28.2","","-31.4","","74","","","M","10","","1","","","M","100.44","","","","-29","","NA"
"-82.91","76.43","GRISE FIORD A","2402360","2018-01-25 19:00","2018","01","25","19:00","-28.7","","-32.0","","74","","","M","14","","4","","","M","100.38","","","","-33","","NA"
"-82.91","76.43","GRISE FIORD A","2402360","2018-01-25 20:00","2018","01","25","20:00","-29.6","","-33.0","","73","","","M","13","","4","","","M","100.33","","","","-34","","NA"
"-82.91","76.43","GRISE FIORD A","2402360","2018-01-25 21:00","2018","01","25","21:00","-30.5","","-34.0","","72","","","M","6","","4","","","M","100.29","","","","-35","","NA"
"-82.91","76.43","GRISE FIORD A","2402360","2018-01-25 22:00","2018","01","25","22:00","-30.9","","-34.3","","73","","","M","11","","5","","","M","100.24","","","","-37","","NA"
"-82.91","76.43","GRISE FIORD A","2402360","2018-01-25 23:00","2018","01","25","23:00","-30.4","","-33.8","","73","","","M","16","","7","","","M","100.21","","","","-38","","NA"
"-82.91","76.43","GRISE FIORD A","2402360","2018-01-26 00:00","2018","01","26","00:00","-29.9","","-33.2","","73","","","M","10","","4","","","M","100.18","","","","-34","","NA"
"-82.91","76.43","GRISE FIORD A","2402360","2018-01-26 01:00","2018","01","26","01:00","-30.4","","-33.8","","73","","","M","9","","3","","","M","100.16","","","","-34","","NA"
"-82.91","76.43","GRISE FIORD A","2402360","2018-01-26 02:00","2018","01","26","02:00","-30.3","","-33.6","","73","","","M","15","","4","","","M","100.11","","","","-35","","NA"
"-82.91","76.43","GRISE FIORD A","2402360","2018-01-26 03:00","2018","01","26","03:00","-29.8","","-33.2","","73","","","M","2","","3","","","M","100.12","","","","-33","","NA"
"-82.91","76.43","GRISE FIORD A","2402360","2018-01-26 04:00","2018","01","26","04:00","-29.4","","-32.8","","73","","","M","4","","3","","","M","100.10","","","","-33","","NA"
"-82.91","76.43","GRISE FIORD A","2402360","2018-01-26 05:00","2018","01","26","05:00","-29.3","","-32.6","","73","","","M","8","","2","","","M","100.07","","","","-32","","NA"
"-82.91","76.43","GRISE FIORD A","2402360","2018-01-26 06:00","2018","01","26","06:00","-29.5","","-32.8","","74","","","M","0","","1","","","M","100.07","","","","-31","","NA"
"-82.91","76.43","GRISE FIORD A","2402360","2018-01-26 07:00","2018","01","26","07:00","-30.5","","-33.8","","73","","","M","6","","10","","","M","100.02","","","","-40","","NA"
"-82.91","76.43","GRISE FIORD A","2402360","2018-01-26 08:00","2018","01","26","08:00","-30.6","","-34.1","","73","","","M","10","","4","","","M","100.02","","","","-35","","NA"
"-82.91","76.43","GRISE FIORD A","2402360","2018-01-26 09:00","2018","01","26","09:00","-29.2","","-32.4","","74","","","M","2","","3","","","M","100.04","","","","-33","","NA"
"-82.91","76.43","GRISE FIORD A","2402360","2018-01-26 10:00","2018","01","26","10:00","-29.8","","-33.1","","73","","","M","5","","9","","","M","100.03","","","","-38","","NA"
"-82.91","76.43","GRISE FIORD A","2402360","2018-01-26 11:00","2018","01","26","11:00","-28.2","","-31.4","","75","","","M","6","","3","","","M","100.05","","","","-31","","NA"
"-82.91","76.43","GRISE FIORD A","2402360","2018-01-26 12:00","2018","01","26","12:00","-27.1","","-30.2","","75","","","M","5","","6","","","M","100.04","","","","-33","","NA"
"-82.91","76.43","GRISE FIORD A","2402360","2018-01-26 13:00","2018","01","26","13:00","-26.5","","-29.5","","76","","","M","7","","5","","","M","100.03","","","","-32","","NA"
"-82.91","76.43","GRISE FIORD A","2402360","2018-01-26 14:00","2018","01","26","14:00","-26.5","","-29.6","","75","","","M","28","","2","","","M","100.04","","","","-29","","NA"
"-82.91","76.43","GRISE FIORD A","2402360","2018-01-26 15:00","2018","01","26","15:00","-27.7","","-31.0","","74","","","M","14","","8","","","M","100.04","","","","-35","","NA"
"-82.91","76.43","GRISE FIORD A","2402360","2018-01-26 16:00","2018","01","26","16:00","-28.2","","-31.5","","74","","","M","15","","4","","","M","100.09","","","","-33","","NA"
"-82.91","76.43","GRISE FIORD A","2402360","2018-01-26 17:00","2018","01","26","17:00","-26.3","","-29.4","","76","","","M","13","","5","","","M","100.09","","","","-31","","NA"
"-82.91","76.43","GRISE FIORD A","2402360","2018-01-26 18:00","2018","01","26","18:00","-26.6","","-29.8","","75","","","M","7","","3","","","M","100.13","","","","-30","","NA"
"-82.91","76.43","GRISE FIORD A","2402360","2018-01-26 19:00","2018","01","26","19:00","-29.1","","-32.3","","74","","","M","9","","5","","","M","100.15","","","","-35","","NA"
"-82.91","76.43","GRISE FIORD A","2402360","2018-01-26 20:00","2018","01","26","20:00","-29.6","","-32.8","","74","","","M","1","","4","","","M","100.16","","","","-34","","NA"
"-82.91","76.43","GRISE FIORD A","2402360","2018-01-26 21:00","2018","01","26","21:00","-27.8","","-30.9","","75","","","M","0","","1","","","M","100.20","","","","-29","","NA"
"-82.91","76.43","GRISE FIORD A","2402360","2018-01-26 22:00","2018","01","26","22:00","-28.6","","-31.8","","74","","","M","1","","7","","","M","100.20","","","","-36","","NA"
"-82.91","76.43","GRISE FIORD A","2402360","2018-01-26 23:00","2018","01","26","23:00","-27.4","","-30.6","","75","","","M","4","","1","","","M","100.20","","","","-28","","NA"
"-82.91","76.43","GRISE FIORD A","2402360","2018-01-27 00:00","2018","01","27","00:00","-30.0","","-33.4","","73","","","M","6","","5","","","M","100.20","","","","-36","","NA"
"-82.91","76.43","GRISE FIORD A","2402360","2018-01-27 01:00","2018","01","27","01:00","-30.9","","-34.3","","73","","","M","0","","1","","","M","100.19","","","","-32","","NA"
"-82.91","76.43","GRISE FIORD A","2402360","2018-01-27 02:00","2018","01","27","02:00","-31.1","","-34.6","","72","","","M","3","","3","","","M","100.18","","","","-35","","NA"
"-82.91","76.43","GRISE FIORD A","2402360","2018-01-27 03:00","2018","01","27","03:00","-31.8","","-35.4","","72","","","M","17","","4","","","M","100.19","","","","-36","","NA"
"-82.91","76.43","GRISE FIORD A","2402360","2018-01-27 04:00","2018","01","27","04:00","-30.4","","-33.7","","73","","","M","8","","3","","","M","100.22","","","","-34","","NA"
"-82.91","76.43","GRISE FIORD A","2402360","2018-01-27 05:00","2018","01","27","05:00","-32.2","","-35.9","","70","","","M","28","","6","","","M","100.24","","","","-39","","NA"
"-82.91","76.43","GRISE FIORD A","2402360","2018-01-27 06:00","2018","01","27","06:00","-29.0","","-32.3","","74","","","M","16","","4","","","M","100.26","","","","-33","","NA"
"-82.91","76.43","GRISE FIORD A","2402360","2018-01-27 07:00","2018","01","27","07:00","-31.0","","-34.4","","73","","","M","4","","2","","","M","100.26","","","","-33","","NA"
"-82.91","76.43","GRISE FIORD A","2402360","2018-01-27 08:00","2018","01","27","08:00","-30.2","","-33.6","","73","","","M","9","","2","","","M","100.26","","","","-32","","NA"
"-82.91","76.43","GRISE FIORD A","2402360","2018-01-27 09:00","2018","01","27","09:00","-31.4","","-34.9","","72","","","M","6","","4","","","M","100.29","","","","-36","","NA"
"-82.91","76.43","GRISE FIORD A","2402360","2018-01-27 10:00","2018","01","27","10:00","-31.5","","-35.0","","72","","","M","26","","2","","","M","100.31","","","","-34","","NA"
"-82.91","76.43","GRISE FIORD A","2402360","2018-01-27 11:00","2018","01","27","11:00","-31.1","","-34.5","","73","","","M","7","","6","","","M","100.29","","","","-38","","NA"
"-82.91","76.43","GRISE FIORD A","2402360","2018-01-27 12:00","2018","01","27","12:00","-30.2","","-33.5","","74","","","M","5","","6","","","M","100.25","","","","-37","","NA"
"-82.91","76.43","GRISE FIORD A","2402360","2018-01-27 13:00","2018","01","27","13:00","-31.9","","-35.5","","71","","","M","19","","3","","","M","100.28","","","","-35","","NA"
"-82.91","76.43","GRISE FIORD A","2402360","2018-01-27 14:00","2018","01","27","14:00","-28.2","","-31.4","","75","","","M","1","","4","","","M","100.27","","","","-33","","NA"
"-82.91","76.43","GRISE FIORD A","2402360","2018-01-27 15:00","2018","01","27","15:00","-25.9","","-29.0","","76","","","M","9","","3","","","M","100.27","","","","-29","","NA"
"-82.91","76.43","GRISE FIORD A","2402360","2018-01-27 16:00","2018","01","27","16:00","-28.7","","-32.0","","74","","","M","4","","3","","","M","100.28","","","","-32","","NA"
"-82.91","76.43","GRISE FIORD A","2402360","2018-01-27 17:00","2018","01","27","17:00","-29.1","","-32.4","","74","","","M","35","","4","","","M","100.27","","","","-34","","NA"
"-82.91","76.43","GRISE FIORD A","2402360","2018-01-27 18:00","2018","01","27","18:00","-29.8","","-33.1","","73","","","M","5","","3","","","M","100.26","","","","-33","","NA"
"-82.91","76.43","GRISE FIORD A","2402360","2018-01-27 19:00","2018","01","27","19:00","-28.7","","-32.0","","74","","","M","7","","2","","","M","100.24","","","","-31","","NA"
"-82.91","76.43","GRISE FIORD A","2402360","2018-01-27 20:00","2018","01","27","20:00","-27.6","","-30.8","","75","","","M","2","","5","","","M","100.22","","","","-33","","NA"
"-82.91","76.43","GRISE FIORD A","2402360","2018-01-27 21:00","2018","01","27","21:00","-27.4","","-30.5","","75","","","M","6","","6","","","M","100.22","","","","-34","","NA"
"-82.91","76.43","GRISE FIORD A","2402360","2018-01-27 22:00","2018","01","27","22:00","-29.3","","-32.7","","73","","","M","27","","4","","","M","100.23","","","","-34","","NA"
"-82.91","76.43","GRISE FIORD A","2402360","2018-01-27 23:00","2018","01","27","23:00","-27.7","","-30.9","","75","","","M","33","","4","","","M","100.21","","","","-32","","NA"
"-82.91","76.43","GRISE FIORD A","2402360","2018-01-28 00:00","2018","01","28","00:00","-29.4","","-32.6","","74","","","M","5","","5","","","M","100.20","","","","-35","","NA"
"-82.91","76.43","GRISE FIORD A","2402360","2018-01-28 01:00","2018","01","28","01:00","-27.9","","-31.2","","74","","","M","2","","7","","","M","100.15","","","","-35","","NA"
"-82.91","76.43","GRISE FIORD A","2402360","2018-01-28 02:00","2018","01","28","02:00","-27.3","","-30.5","","75","","","M","13","","1","","","M","100.15","","","","-28","","NA"
"-82.91","76.43","GRISE FIORD A","2402360","2018-01-28 03:00","2018","01","28","03:00","-27.4","","-30.6","","75","","","M","7","","1","","","M","100.20","","","","-28","","NA"
"-82.91","76.43","GRISE FIORD A","2402360","2018-01-28 04:00","2018","01","28","04:00","-27.7","","-30.9","","74","","","M","36","","4","","","M","100.22","","","","-32","","NA"
"-82.91","76.43","GRISE FIORD A","2402360","2018-01-28 05:00","2018","01","28","05:00","-25.2","","-28.1","","77","","","M","4","","3","","","M","100.24","","","","-28","","NA"
"-82.91","76.43","GRISE FIORD A","2402360","2018-01-28 06:00","2018","01","28","06:00","-24.9","","-27.9","","76","","","M","12","","5","","","M","100.27","","","","-30","","NA"
"-82.91","76.43","GRISE FIORD A","2402360","2018-01-28 07:00","2018","01","28","07:00","-24.8","","-27.8","","77","","","M","36","","4","","","M","100.33","","","","-29","","NA"
"-82.91","76.43","GRISE FIORD A","2402360","2018-01-28 08:00","2018","01","28","08:00","-25.5","","-28.9","","73","","","M","19","","8","","","M","100.37","","","","-33","","NA"
"-82.91","76.43","GRISE FIORD A","2402360","2018-01-28 09:00","2018","01","28","09:00","-27.6","","-30.8","","75","","","M","32","","4","","","M","100.48","","","","-32","","NA"
"-82.91","76.43","GRISE FIORD A","2402360","2018-01-28 10:00","2018","01","28","10:00","-24.6","","-27.4","","78","","","M","4","","7","","","M","100.54","","","","-31","","NA"
"-82.91","76.43","GRISE FIORD A","2402360","2018-01-28 11:00","2018","01","28","11:00","-23.8","","-26.7","","78","","","M","5","","11","","","M","100.60","","","","-32","","NA"
"-82.91","76.43","GRISE FIORD A","2402360","2018-01-28 12:00","2018","01","28","12:00","-23.3","","-26.3","","77","","","M","8","","8","","","M","100.63","","","","-30","","NA"
"-82.91","76.43","GRISE FIORD A","2402360","2018-01-28 13:00","2018","01","28","13:00","-23.1","","-26.1","","77","","","M","35","","5","","","M","100.66","","","","-28","","NA"
"-82.91","76.43","GRISE FIORD A","2402360","2018-01-28 14:00","2018","01","28","14:00","-23.7","","-26.8","","76","","","M","8","","9","","","M","100.71","","","","-31","","NA"
"-82.91","76.43","GRISE FIORD A","2402360","2018-01-28 15:00","2018","01","28","15:00","-23.8","","-26.9","","76","","","M","6","","21","","","M","100.78","","","","-36","","NA"
"-82.91","76.43","GRISE FIORD A","2402360","2018-01-28 16:00","2018","01","28","16:00","-23.7","","-27.6","","71","","","M","6","","14","","","M","100.83","","","","-33","","NA"
"-82.91","76.43","GRISE FIORD A","2402360","2018-01-28 17:00","2018","01","28","17:00","-22.8","","-27.4","","67","","","M","6","","13","","","M","100.88","","","","-32","","NA"
"-82.91","76.43","GRISE FIORD A","2402360","2018-01-28 18:00","2018","01","28","18:00","-22.9","","-27.1","","69","","","M","6","","22","","","M","100.91","","","","-35","","NA"
"-82.91","76.43","GRISE FIORD A","2402360","2018-01-28 19:00","2018","01","28","19:00","-22.9","","-27.2","","68","","","M","7","","23","","","M","100.92","","","","-35","","NA"
"-82.91","76.43","GRISE FIORD A","2402360","2018-01-28 20:00","2018","01","28","20:00","-23.0","","-27.8","","66","","","M","5","","17","","","M","100.93","","","","-33","","NA"
"-82.91","76.43","GRISE FIORD A","2402360","2018-01-28 21:00","2018","01","28","21:00","-22.9","","-28.0","","64","","","M","6","","17","","","M","100.94","","","","-33","","NA"
"-82.91","76.43","GRISE FIORD A","2402360","2018-01-28 22:00","2018","01","28","22:00","-22.2","","-27.7","","62","","","M","6","","10","","","M","100.94","","","","-30","","NA"
"-82.91","76.43","GRISE FIORD A","2402360","2018-01-28 23:00","2018","01","28","23:00","-26.9","","-31.9","","63","","","M","15","","7","","","M","100.97","","","","-34","","NA"
"-82.91","76.43","GRISE FIORD A","2402360","2018-01-29 00:00","2018","01","29","00:00","-29.2","","-32.5","","74","","","M","24","","3","","","M","100.98","","","","-33","","NA"
"-82.91","76.43","GRISE FIORD A","2402360","2018-01-29 01:00","2018","01","29","01:00","-30.9","","-34.7","","70","","","M","","","0","","","M","100.99","","","","","","NA"
"-82.91","76.43","GRISE FIORD A","2402360","2018-01-29 02:00","2018","01","29","02:00","-29.4","","-33.0","","72","","","M","17","","4","","","M","100.96","","","","-34","","NA"
"-82.91","76.43","GRISE FIORD A","2402360","2018-01-29 03:00","2018","01","29","03:00","-29.1","","-32.3","","74","","","M","13","","4","","","M","100.99","","","","-34","","NA"
"-82.91","76.43","GRISE FIORD A","2402360","2018-01-29 04:00","2018","01","29","04:00","-31.8","","-35.3","","72","","","M","14","","4","","","M","101.00","","","","-36","","NA"
"-82.91","76.43","GRISE FIORD A","2402360","2018-01-29 05:00","2018","01","29","05:00","-29.9","","-33.0","","75","","","M","7","","4","","","M","101.03","","","","-34","","NA"
"-82.91","76.43","GRISE FIORD A","2402360","2018-01-29 06:00","2018","01","29","06:00","-29.7","","-33.4","","71","","","M","16","","6","","","M","101.01","","","","-36","","NA"
"-82.91","76.43","GRISE FIORD A","2402360","2018-01-29 07:00","2018","01","29","07:00","-32.3","","-35.9","","71","","","M","19","","3","","","M","101.00","","","","-36","","NA"
"-82.91","76.43","GRISE FIORD A","2402360","2018-01-29 08:00","2018","01","29","08:00","-33.1","","-36.3","","73","","","M","12","","1","","","M","101.03","","","","-34","","NA"
"-82.91","76.43","GRISE FIORD A","2402360","2018-01-29 09:00","2018","01","29","09:00","-27.7","","-31.9","","69","","","M","12","","4","","","M","100.99","","","","-32","","NA"
"-82.91","76.43","GRISE FIORD A","2402360","2018-01-29 10:00","2018","01","29","10:00","-29.6","","-33.2","","72","","","M","7","","1","","","M","100.98","","","","-31","","NA"
"-82.91","76.43","GRISE FIORD A","2402360","2018-01-29 11:00","2018","01","29","11:00","-28.5","","-32.6","","69","","","M","7","","1","","","M","100.96","","","","-30","","NA"
"-82.91","76.43","GRISE FIORD A","2402360","2018-01-29 12:00","2018","01","29","12:00","-29.4","","-33.3","","70","","","M","16","","3","","","M","100.95","","","","-33","","NA"
"-82.91","76.43","GRISE FIORD A","2402360","2018-01-29 13:00","2018","01","29","13:00","-29.6","","-33.6","","69","","","M","11","","2","","","M","100.95","","","","-32","","NA"
"-82.91","76.43","GRISE FIORD A","2402360","2018-01-29 14:00","2018","01","29","14:00","-25.8","","-30.6","","65","","","M","11","","5","","","M","100.92","","","","-31","","NA"
"-82.91","76.43","GRISE FIORD A","2402360","2018-01-29 15:00","2018","01","29","15:00","-24.8","","-30.4","","60","","","M","8","","18","","","M","100.93","","","","-36","","NA"
"-82.91","76.43","GRISE FIORD A","2402360","2018-01-29 16:00","2018","01","29","16:00","-35.2","","-39.0","","69","","","M","33","","3","","","M","100.97","","","","-39","","NA"
"-82.91","76.43","GRISE FIORD A","2402360","2018-01-29 17:00","2018","01","29","17:00","-34.3","","-37.5","","73","","","M","5","","2","","","M","100.96","","","","-37","","NA"
"-82.91","76.43","GRISE FIORD A","2402360","2018-01-29 18:00","2018","01","29","18:00","-34.5","","-37.8","","73","","","M","0","","1","","","M","100.97","","","","-36","","NA"
"-82.91","76.43","GRISE FIORD A","2402360","2018-01-29 19:00","2018","01","29","19:00","-35.7","","-39.1","","71","","","M","13","","8","","","M","100.98","","","","-45","","NA"
"-82.91","76.43","GRISE FIORD A","2402360","2018-01-29 20:00","2018","01","29","20:00","-34.5","","-37.9","","72","","","M","16","","2","","","M","100.97","","","","-37","","NA"
"-82.91","76.43","GRISE FIORD A","2402360","2018-01-29 21:00","2018","01","29","21:00","-33.0","","-36.2","","74","","","M","2","","5","","","M","100.97","","","","-39","","NA"
"-82.91","76.43","GRISE FIORD A","2402360","2018-01-29 22:00","2018","01","29","22:00","-31.9","","-35.8","","69","","","M","6","","4","","","M","100.94","","","","-37","","NA"
"-82.91","76.43","GRISE FIORD A","2402360","2018-01-29 23:00","2018","01","29","23:00","-34.6","","-38.0","","72","","","M","9","","3","","","M","100.95","","","","-38","","NA"
"-82.91","76.43","GRISE FIORD A","2402360","2018-01-30 00:00","2018","01","30","00:00","-36.1","","-39.6","","71","","","M","9","","4","","","M","100.95","","","","-41","","NA"
"-82.91","76.43","GRISE FIORD A","2402360","2018-01-30 01:00","2018","01","30","01:00","-30.1","","-33.6","","73","","","M","7","","6","","","M","100.94","","","","-37","","NA"
"-82.91","76.43","GRISE FIORD A","2402360","2018-01-30 02:00","2018","01","30","02:00","-33.5","","-36.7","","73","","","M","12","","3","","","M","100.96","","","","-37","","NA"
"-82.91","76.43","GRISE FIORD A","2402360","2018-01-30 03:00","2018","01","30","03:00","-36.0","","-39.5","","71","","","M","24","","1","","","M","100.97","","","","-37","","NA"
"-82.91","76.43","GRISE FIORD A","2402360","2018-01-30 04:00","2018","01","30","04:00","-35.6","","-39.1","","71","","","M","1","","1","","","M","101.03","","","","-37","","NA"
"-82.91","76.43","GRISE FIORD A","2402360","2018-01-30 05:00","2018","01","30","05:00","-32.7","","-36.0","","73","","","M","2","","2","","","M","101.05","","","","-35","","NA"
"-82.91","76.43","GRISE FIORD A","2402360","2018-01-30 06:00","2018","01","30","06:00","-32.5","","-35.9","","72","","","M","3","","3","","","M","101.06","","","","-36","","NA"
"-82.91","76.43","GRISE FIORD A","2402360","2018-01-30 07:00","2018","01","30","07:00","-36.0","","-39.4","","71","","","M","2","","2","","","M","101.08","","","","-39","","NA"
"-82.91","76.43","GRISE FIORD A","2402360","2018-01-30 08:00","2018","01","30","08:00","-36.1","","-39.5","","71","","","M","5","","4","","","M","101.09","","","","-41","","NA"
"-82.91","76.43","GRISE FIORD A","2402360","2018-01-30 09:00","2018","01","30","09:00","-36.7","","-40.2","","71","","","M","3","","5","","","M","101.14","","","","-43","","NA"
"-82.91","76.43","GRISE FIORD A","2402360","2018-01-30 10:00","2018","01","30","10:00","-32.7","","-36.0","","73","","","M","20","","1","","","M","101.16","","","","-34","","NA"
"-82.91","76.43","GRISE FIORD A","2402360","2018-01-30 11:00","2018","01","30","11:00","-37.6","","-41.5","","68","","","M","22","","3","","","M","101.22","","","","-42","","NA"
"-82.91","76.43","GRISE FIORD A","2402360","2018-01-30 12:00","2018","01","30","12:00","-32.1","","-35.6","","72","","","M","17","","2","","","M","101.26","","","","-34","","NA"
"-82.91","76.43","GRISE FIORD A","2402360","2018-01-30 13:00","2018","01","30","13:00","-34.7","","-38.1","","72","","","M","2","","4","","","M","101.32","","","","-40","","NA"
"-82.91","76.43","GRISE FIORD A","2402360","2018-01-30 14:00","2018","01","30","14:00","-33.7","","-37.2","","72","","","M","12","","3","","","M","101.36","","","","-37","","NA"
"-82.91","76.43","GRISE FIORD A","2402360","2018-01-30 15:00","2018","01","30","15:00","-31.8","","-35.1","","73","","","M","2","","3","","","M","101.45","","","","-35","","NA"
"-82.91","76.43","GRISE FIORD A","2402360","2018-01-30 16:00","2018","01","30","16:00","-31.1","","-34.8","","71","","","M","29","","6","","","M","101.49","","","","-38","","NA"
"-82.91","76.43","GRISE FIORD A","2402360","2018-01-30 17:00","2018","01","30","17:00","-31.2","","-34.8","","71","","","M","11","","2","","","M","101.58","","","","-34","","NA"
"-82.91","76.43","GRISE FIORD A","2402360","2018-01-30 18:00","2018","01","30","18:00","-33.0","","-36.5","","72","","","M","1","","4","","","M","101.60","","","","-38","","NA"
"-82.91","76.43","GRISE FIORD A","2402360","2018-01-30 19:00","2018","01","30","19:00","-32.0","","-35.5","","72","","","M","30","","1","","","M","101.65","","","","-33","","NA"
"-82.91","76.43","GRISE FIORD A","2402360","2018-01-30 20:00","2018","01","30","20:00","-33.1","","-36.6","","72","","","M","35","","1","","","M","101.70","","","","-34","","NA"
"-82.91","76.43","GRISE FIORD A","2402360","2018-01-30 21:00","2018","01","30","21:00","-30.2","","-33.9","","71","","","M","35","","1","","","M","101.71","","","","-31","","NA"
"-82.91","76.43","GRISE FIORD A","2402360","2018-01-30 22:00","2018","01","30","22:00","-30.7","","-34.4","","71","","","M","19","","2","","","M","101.77","","","","-33","","NA"
"-82.91","76.43","GRISE FIORD A","2402360","2018-01-30 23:00","2018","01","30","23:00","-32.5","","-36.3","","70","","","M","23","","2","","","M","101.82","","","","-35","","NA"
"-82.91","76.43","GRISE FIORD A","2402360","2018-01-31 00:00","2018","01","31","00:00","-31.6","","-35.1","","72","","","M","32","","2","","","M","101.81","","","","-34","","NA"
"-82.91","76.43","GRISE FIORD A","2402360","2018-01-31 01:00","2018","01","31","01:00","-29.3","","-33.0","","71","","","M","31","","3","","","M","101.87","","","","-33","","NA"
"-82.91","76.43","GRISE FIORD A","2402360","2018-01-31 02:00","2018","01","31","02:00","-30.7","","-34.3","","71","","","M","32","","3","","","M","101.92","","","","-34","","NA"
"-82.91","76.43","GRISE FIORD A","2402360","2018-01-31 03:00","2018","01","31","03:00","-31.3","","-34.6","","73","","","M","4","","4","","","M","101.98","","","","-36","","NA"
"-82.91","76.43","GRISE FIORD A","2402360","2018-01-31 04:00","2018","01","31","04:00","-29.6","","-33.3","","72","","","M","36","","3","","","M","102.01","","","","-33","","NA"
"-82.91","76.43","GRISE FIORD A","2402360","2018-01-31 05:00","2018","01","31","05:00","-26.6","","-30.2","","72","","","M","1","","1","","","M","102.08","","","","-28","","NA"
"-82.91","76.43","GRISE FIORD A","2402360","2018-01-31 06:00","2018","01","31","06:00","-28.6","","-32.1","","72","","","M","33","","3","","","M","102.11","","","","-32","","NA"
"-82.91","76.43","GRISE FIORD A","2402360","2018-01-31 07:00","2018","01","31","07:00","-25.6","","-28.9","","74","","","M","13","","1","","","M","102.14","","","","-27","","NA"
"-82.91","76.43","GRISE FIORD A","2402360","2018-01-31 08:00","2018","01","31","08:00","-25.1","","-28.7","","72","","","M","5","","8","","","M","102.17","","","","-32","","NA"
"-82.91","76.43","GRISE FIORD A","2402360","2018-01-31 09:00","2018","01","31","09:00","-26.8","","-30.4","","72","","","M","7","","8","","","M","102.21","","","","-34","","NA"
"-82.91","76.43","GRISE FIORD A","2402360","2018-01-31 10:00","2018","01","31","10:00","-25.9","","-29.3","","73","","","M","13","","4","","","M","102.24","","","","-30","","NA"
"-82.91","76.43","GRISE FIORD A","2402360","2018-01-31 11:00","2018","01","31","11:00","-24.2","","-27.9","","72","","","M","5","","3","","","M","102.26","","","","-27","","NA"
"-82.91","76.43","GRISE FIORD A","2402360","2018-01-31 12:00","2018","01","31","12:00","-24.5","","-28.2","","72","","","M","4","","5","","","M","102.28","","","","-29","","NA"
"-82.91","76.43","GRISE FIORD A","2402360","2018-01-31 13:00","2018","01","31","13:00","-25.0","","-28.4","","74","","","M","6","","2","","","M","102.28","","","","-27","","NA"
"-82.91","76.43","GRISE FIORD A","2402360","2018-01-31 14:00","2018","01","31","14:00","-25.2","","-28.2","","76","","","M","15","","6","","","M","102.30","","","","-31","","NA"
"-82.91","76.43","GRISE FIORD A","2402360","2018-01-31 15:00","2018","01","31","15:00","-24.1","","-27.4","","74","","","M","5","","4","","","M","102.34","","","","-28","","NA"
"-82.91","76.43","GRISE FIORD A","2402360","2018-01-31 16:00","2018","01","31","16:00","-23.1","","-26.7","","73","","","M","35","","3","","","M","102.35","","","","-26","","NA"
"-82.91","76.43","GRISE FIORD A","2402360","2018-01-31 17:00","2018","01","31","17:00","-23.9","","-27.8","","71","","","M","6","","4","","","M","102.36","","","","-28","","NA"
"-82.91","76.43","GRISE FIORD A","2402360","2018-01-31 18:00","2018","01","31","18:00","-23.1","","-26.5","","74","","","M","10","","3","","","M","102.35","","","","-26","","NA"
"-82.91","76.43","GRISE FIORD A","2402360","2018-01-31 19:00","2018","01","31","19:00","-22.9","","-26.1","","76","","","M","17","","3","","","M","102.29","","","","-26","","NA"
"-82.91","76.43","GRISE FIORD A","2402360","2018-01-31 20:00","2018","01","31","20:00","-23.7","","-27.1","","74","","","M","12","","3","","","M","102.26","","","","-27","","NA"
"-82.91","76.43","GRISE FIORD A","2402360","2018-01-31 21:00","2018","01","31","21:00","-24.4","","-28.6","","69","","","M","4","","3","","","M","102.21","","","","-27","","NA"
"-82.91","76.43","GRISE FIORD A","2402360","2018-01-31 22:00","2018","01","31","22:00","-24.5","","-28.0","","73","","","M","14","","5","","","M","102.12","","","","-29","","NA"
"-82.91","76.43","GRISE FIORD A","2402360","2018-01-31 23:00","2018","01","31","23:00","-24.2","","-28.1","","71","","","M","3","","5","","","M","102.04","","","","-29","","NA"
