"Longitude (x)","Latitude (y)","Station Name","Climate ID","Date/Time (LST)","Year","Month","Day","Time (LST)","Temp (°C)","Temp Flag","Dew Point Temp (°C)","Dew Point Temp Flag","Rel Hum (%)","Rel Hum Flag","Precip. Amount (mm)","Precip. Amount Flag","Wind Dir (10s deg)","Wind Dir Flag","Wind Spd (km/h)","Wind Spd Flag","Visibility (km)","Visibility Flag","Stn Press (kPa)","Stn Press Flag","Hmdx","Hmdx Flag","Wind Chill","Wind Chill Flag","Weather"
"-82.91","76.43","GRISE FIORD A","2402360","2018-03-01 00:00","2018","03","01","00:00","-16.6","","-19.4","","79","","","M","5","","5","","","M","102.85","","","","-20","","NA"
"-82.91","76.43","GRISE FIORD A","2402360","2018-03-01 01:00","2018","03","01","01:00","-16.7","","-19.2","","81","","","M","34","","3","","","M","102.89","","","","-19","","NA"
"-82.91","76.43","GRISE FIORD A","2402360","2018-03-01 02:00","2018","03","01","02:00","-15.8","","-17.9","","84","","","M","5","","3","","","M","102.91","","","","-18","","NA"
"-82.91","76.43","GRISE FIORD A","2402360","2018-03-01 03:00","2018","03","01","03:00","-16.4","","-18.2","","86","","","M","7","","1","","","M","102.95","","","","-17","","NA"
"-82.91","76.43","GRISE FIORD A","2402360","2018-03-01 04:00","2018","03","01","04:00","-16.3","","-18.8","","81","","","M","10","","7","","","M","102.96","","","","-21","","NA"
"-82.91","76.43","GRISE FIORD A","2402360","2018-03-01 05:00","2018","03","01","05:00","-16.2","","-18.4","","83","","","M","2","","5","","","M","103.03","","","","-20","","NA"
"-82.91","76.43","GRISE FIORD A","2402360","2018-03-01 06:00","2018","03","01","06:00","-16.9","","-19.1","","83","","","M","10","","1","","","M","103.05","","","","-18","","NA"
"-82.91","76.43","GRISE FIORD A","2402360","2018-03-01 07:00","2018","03","01","07:00","-15.9","","-18.1","","83","","","M","5","","5","","","M","103.09","","","","-20","","NA"
"-82.91","76.43","GRISE FIORD A","2402360","2018-03-01 08:00","2018","03","01","08:00","-15.4","","-18.7","","76","","","M","29","","3","","","M","103.12","","","","-18","","NA"
"-82.91","76.43","GRISE FIORD A","2402360","2018-03-01 09:00","2018","03","01","09:00","-15.0","","-17.9","","79","","","M","15","","3","","","M","103.17","","","","-17","","NA"
"-82.91","76.43","GRISE FIORD A","2402360","2018-03-01 10:00","2018","03","01","10:00","-15.5","","-17.9","","82","","","M","10","","5","","","M","103.20","","","","-19","","NA"
"-82.91","76.43","GRISE FIORD A","2402360","2018-03-01 11:00","2018","03","01","11:00","-15.9","","-19.4","","75","","","M","21","","3","","","M","103.20","","","","-18","","NA"
"-82.91","76.43","GRISE FIORD A","2402360","2018-03-01 12:00","2018","03","01","12:00","-14.7","","-16.9","","83","","","M","6","","7","","","M","103.24","","","","-19","","NA"
"-82.91","76.43","GRISE FIORD A","2402360","2018-03-01 13:00","2018","03","01","13:00","-14.9","","-17.4","","82","","","M","28","","5","","","M","103.22","","","","-18","","NA"
"-82.91","76.43","GRISE FIORD A","2402360","2018-03-01 14:00","2018","03","01","14:00","-15.3","","-17.9","","81","","","M","0","","1","","","M","103.25","","","","-16","","NA"
"-82.91","76.43","GRISE FIORD A","2402360","2018-03-01 15:00","2018","03","01","15:00","-14.2","","-15.9","","87","","","M","1","","3","","","M","103.27","","","","-16","","NA"
"-82.91","76.43","GRISE FIORD A","2402360","2018-03-01 16:00","2018","03","01","16:00","-14.7","","-16.9","","83","","","M","5","","8","","","M","103.31","","","","-20","","NA"
"-82.91","76.43","GRISE FIORD A","2402360","2018-03-01 17:00","2018","03","01","17:00","-14.6","","-16.5","","85","","","M","1","","3","","","M","103.33","","","","-17","","NA"
"-82.91","76.43","GRISE FIORD A","2402360","2018-03-01 18:00","2018","03","01","18:00","-13.8","","-16.2","","83","","","M","4","","6","","","M","103.32","","","","-18","","NA"
"-82.91","76.43","GRISE FIORD A","2402360","2018-03-01 19:00","2018","03","01","19:00","-14.2","","-16.3","","84","","","M","12","","4","","","M","103.32","","","","-17","","NA"
"-82.91","76.43","GRISE FIORD A","2402360","2018-03-01 20:00","2018","03","01","20:00","-15.0","","-17.5","","81","","","M","5","","8","","","M","103.31","","","","-20","","NA"
"-82.91","76.43","GRISE FIORD A","2402360","2018-03-01 21:00","2018","03","01","21:00","-14.9","","-17.3","","83","","","M","9","","3","","","M","103.32","","","","-17","","NA"
"-82.91","76.43","GRISE FIORD A","2402360","2018-03-01 22:00","2018","03","01","22:00","-15.8","","-18.4","","81","","","M","4","","10","","","M","103.29","","","","-22","","NA"
"-82.91","76.43","GRISE FIORD A","2402360","2018-03-01 23:00","2018","03","01","23:00","-16.8","","-18.4","","87","","","M","14","","3","","","M","103.27","","","","-19","","NA"
"-82.91","76.43","GRISE FIORD A","2402360","2018-03-02 00:00","2018","03","02","00:00","-16.3","","-19.0","","79","","","M","6","","10","","","M","103.31","","","","-23","","NA"
"-82.91","76.43","GRISE FIORD A","2402360","2018-03-02 01:00","2018","03","02","01:00","-15.2","","-17.8","","80","","","M","","","0","","","M","103.28","","","","","","NA"
"-82.91","76.43","GRISE FIORD A","2402360","2018-03-02 02:00","2018","03","02","02:00","-18.0","","-22.9","","66","","","M","15","","5","","","M","103.27","","","","-22","","NA"
"-82.91","76.43","GRISE FIORD A","2402360","2018-03-02 03:00","2018","03","02","03:00","-15.2","","-18.5","","76","","","M","26","","4","","","M","103.29","","","","-18","","NA"
"-82.91","76.43","GRISE FIORD A","2402360","2018-03-02 04:00","2018","03","02","04:00","-15.4","","-18.8","","75","","","M","5","","8","","","M","103.32","","","","-21","","NA"
"-82.91","76.43","GRISE FIORD A","2402360","2018-03-02 05:00","2018","03","02","05:00","-16.1","","-19.3","","77","","","M","14","","6","","","M","103.34","","","","-21","","NA"
"-82.91","76.43","GRISE FIORD A","2402360","2018-03-02 06:00","2018","03","02","06:00","-17.5","","-20.4","","78","","","M","34","","1","","","M","103.36","","","","-18","","NA"
"-82.91","76.43","GRISE FIORD A","2402360","2018-03-02 07:00","2018","03","02","07:00","-14.4","","-17.7","","76","","","M","16","","2","","","M","103.38","","","","-16","","NA"
"-82.91","76.43","GRISE FIORD A","2402360","2018-03-02 08:00","2018","03","02","08:00","-16.3","","-18.7","","82","","","M","3","","3","","","M","103.39","","","","-19","","NA"
"-82.91","76.43","GRISE FIORD A","2402360","2018-03-02 09:00","2018","03","02","09:00","-16.4","","-18.7","","83","","","M","24","","3","","","M","103.42","","","","-19","","NA"
"-82.91","76.43","GRISE FIORD A","2402360","2018-03-02 10:00","2018","03","02","10:00","-15.2","","-17.8","","81","","","M","","","0","","","M","103.44","","","","","","NA"
"-82.91","76.43","GRISE FIORD A","2402360","2018-03-02 11:00","2018","03","02","11:00","-17.1","","-20.0","","78","","","M","14","","5","","","M","103.48","","","","-21","","NA"
"-82.91","76.43","GRISE FIORD A","2402360","2018-03-02 12:00","2018","03","02","12:00","-19.0","","-21.0","","85","","","M","29","","2","","","M","103.52","","","","-21","","NA"
"-82.91","76.43","GRISE FIORD A","2402360","2018-03-02 13:00","2018","03","02","13:00","-18.4","","-20.4","","85","","","M","12","","3","","","M","103.55","","","","-21","","NA"
"-82.91","76.43","GRISE FIORD A","2402360","2018-03-02 14:00","2018","03","02","14:00","-16.7","","-19.1","","82","","","M","9","","4","","","M","103.60","","","","-20","","NA"
"-82.91","76.43","GRISE FIORD A","2402360","2018-03-02 15:00","2018","03","02","15:00","-17.9","","-21.1","","76","","","M","17","","2","","","M","103.64","","","","-19","","NA"
"-82.91","76.43","GRISE FIORD A","2402360","2018-03-02 16:00","2018","03","02","16:00","-20.1","","-22.4","","82","","","M","5","","1","","","M","103.71","","","","-21","","NA"
"-82.91","76.43","GRISE FIORD A","2402360","2018-03-02 17:00","2018","03","02","17:00","-19.1","","-21.2","","84","","","M","8","","4","","","M","103.76","","","","-22","","NA"
"-82.91","76.43","GRISE FIORD A","2402360","2018-03-02 18:00","2018","03","02","18:00","-20.1","","-22.4","","82","","","M","6","","5","","","M","103.80","","","","-24","","NA"
"-82.91","76.43","GRISE FIORD A","2402360","2018-03-02 19:00","2018","03","02","19:00","-17.0","","-19.4","","82","","","M","10","","1","","","M","103.85","","","","-18","","NA"
"-82.91","76.43","GRISE FIORD A","2402360","2018-03-02 20:00","2018","03","02","20:00","-18.6","","-21.0","","82","","","M","15","","7","","","M","103.90","","","","-24","","NA"
"-82.91","76.43","GRISE FIORD A","2402360","2018-03-02 21:00","2018","03","02","21:00","-17.4","","-19.8","","82","","","M","8","","6","","","M","103.91","","","","-22","","NA"
"-82.91","76.43","GRISE FIORD A","2402360","2018-03-02 22:00","2018","03","02","22:00","-21.2","","-23.9","","80","","","M","15","","5","","","M","103.95","","","","-26","","NA"
"-82.91","76.43","GRISE FIORD A","2402360","2018-03-02 23:00","2018","03","02","23:00","-21.0","","-23.4","","81","","","M","10","","4","","","M","104.00","","","","-25","","NA"
"-82.91","76.43","GRISE FIORD A","2402360","2018-03-03 00:00","2018","03","03","00:00","-21.1","","-23.5","","81","","","M","11","","3","","","M","104.02","","","","-24","","NA"
"-82.91","76.43","GRISE FIORD A","2402360","2018-03-03 01:00","2018","03","03","01:00","-21.6","","-24.0","","81","","","M","1","","2","","","M","104.06","","","","-23","","NA"
"-82.91","76.43","GRISE FIORD A","2402360","2018-03-03 02:00","2018","03","03","02:00","-20.7","","-23.4","","79","","","M","18","","12","","","M","104.12","","","","-29","","NA"
"-82.91","76.43","GRISE FIORD A","2402360","2018-03-03 03:00","2018","03","03","03:00","-22.1","","-24.9","","79","","","M","22","","5","","","M","104.14","","","","-27","","NA"
"-82.91","76.43","GRISE FIORD A","2402360","2018-03-03 04:00","2018","03","03","04:00","-23.0","","-25.8","","78","","","M","19","","1","","","M","104.18","","","","-24","","NA"
"-82.91","76.43","GRISE FIORD A","2402360","2018-03-03 05:00","2018","03","03","05:00","-22.8","","-25.6","","78","","","M","4","","4","","","M","104.20","","","","-27","","NA"
"-82.91","76.43","GRISE FIORD A","2402360","2018-03-03 06:00","2018","03","03","06:00","-24.1","","-27.1","","77","","","M","25","","1","","","M","104.23","","","","-25","","NA"
"-82.91","76.43","GRISE FIORD A","2402360","2018-03-03 07:00","2018","03","03","07:00","-24.4","","-27.2","","78","","","M","17","","4","","","M","104.26","","","","-28","","NA"
"-82.91","76.43","GRISE FIORD A","2402360","2018-03-03 08:00","2018","03","03","08:00","-24.1","","-27.3","","76","","","M","7","","5","","","M","104.26","","","","-29","","NA"
"-82.91","76.43","GRISE FIORD A","2402360","2018-03-03 09:00","2018","03","03","09:00","-24.1","","-27.2","","76","","","M","19","","6","","","M","104.28","","","","-30","","NA"
"-82.91","76.43","GRISE FIORD A","2402360","2018-03-03 10:00","2018","03","03","10:00","-25.3","","-28.4","","76","","","M","8","","1","","","M","104.30","","","","-26","","NA"
"-82.91","76.43","GRISE FIORD A","2402360","2018-03-03 11:00","2018","03","03","11:00","-25.8","","-28.8","","77","","","M","4","","8","","","M","104.29","","","","-33","","NA"
"-82.91","76.43","GRISE FIORD A","2402360","2018-03-03 12:00","2018","03","03","12:00","-25.5","","-28.6","","75","","","M","17","","4","","","M","104.32","","","","-30","","NA"
"-82.91","76.43","GRISE FIORD A","2402360","2018-03-03 13:00","2018","03","03","13:00","-25.6","","-28.6","","76","","","M","20","","3","","","M","104.28","","","","-29","","NA"
"-82.91","76.43","GRISE FIORD A","2402360","2018-03-03 14:00","2018","03","03","14:00","-26.0","","-29.1","","76","","","M","15","","6","","","M","104.27","","","","-32","","NA"
"-82.91","76.43","GRISE FIORD A","2402360","2018-03-03 15:00","2018","03","03","15:00","-26.5","","-29.6","","76","","","M","13","","4","","","M","104.24","","","","-31","","NA"
"-82.91","76.43","GRISE FIORD A","2402360","2018-03-03 16:00","2018","03","03","16:00","-26.9","","-30.1","","76","","","M","19","","2","","","M","104.22","","","","-29","","NA"
"-82.91","76.43","GRISE FIORD A","2402360","2018-03-03 17:00","2018","03","03","17:00","-27.2","","-30.2","","76","","","M","13","","4","","","M","104.22","","","","-31","","NA"
"-82.91","76.43","GRISE FIORD A","2402360","2018-03-03 18:00","2018","03","03","18:00","-27.2","","-30.2","","76","","","M","3","","1","","","M","104.15","","","","-28","","NA"
"-82.91","76.43","GRISE FIORD A","2402360","2018-03-03 19:00","2018","03","03","19:00","-27.5","","-30.5","","76","","","M","27","","2","","","M","104.08","","","","-30","","NA"
"-82.91","76.43","GRISE FIORD A","2402360","2018-03-03 20:00","2018","03","03","20:00","-27.8","","-30.8","","76","","","M","5","","10","","","M","103.98","","","","-37","","NA"
"-82.91","76.43","GRISE FIORD A","2402360","2018-03-03 21:00","2018","03","03","21:00","-25.6","","-28.3","","78","","","M","6","","5","","","M","103.89","","","","-31","","NA"
"-82.91","76.43","GRISE FIORD A","2402360","2018-03-03 22:00","2018","03","03","22:00","-25.3","","-28.0","","79","","","M","6","","11","","","M","103.83","","","","-34","","NA"
"-82.91","76.43","GRISE FIORD A","2402360","2018-03-03 23:00","2018","03","03","23:00","-26.3","","-29.2","","77","","","M","7","","1","","","M","103.68","","","","-27","","NA"
"-82.91","76.43","GRISE FIORD A","2402360","2018-03-04 00:00","2018","03","04","00:00","-25.2","","-27.7","","80","","","M","8","","4","","","M","103.58","","","","-29","","NA"
"-82.91","76.43","GRISE FIORD A","2402360","2018-03-04 01:00","2018","03","04","01:00","-24.9","","-27.8","","77","","","M","5","","8","","","M","103.51","","","","-32","","NA"
"-82.91","76.43","GRISE FIORD A","2402360","2018-03-04 02:00","2018","03","04","02:00","-25.0","","-27.8","","78","","","M","4","","9","","","M","103.38","","","","-33","","NA"
"-82.91","76.43","GRISE FIORD A","2402360","2018-03-04 03:00","2018","03","04","03:00","-25.0","","-28.0","","77","","","M","20","","3","","","M","103.32","","","","-28","","NA"
"-82.91","76.43","GRISE FIORD A","2402360","2018-03-04 04:00","2018","03","04","04:00","-26.1","","-29.1","","76","","","M","23","","5","","","M","103.24","","","","-31","","NA"
"-82.91","76.43","GRISE FIORD A","2402360","2018-03-04 05:00","2018","03","04","05:00","-25.8","","-28.7","","77","","","M","3","","5","","","M","103.15","","","","-31","","NA"
"-82.91","76.43","GRISE FIORD A","2402360","2018-03-04 06:00","2018","03","04","06:00","-24.6","","-27.6","","77","","","M","13","","7","","","M","103.05","","","","-31","","NA"
"-82.91","76.43","GRISE FIORD A","2402360","2018-03-04 07:00","2018","03","04","07:00","-25.0","","-28.0","","76","","","M","5","","4","","","M","102.99","","","","-29","","NA"
"-82.91","76.43","GRISE FIORD A","2402360","2018-03-04 08:00","2018","03","04","08:00","-22.4","","-26.1","","73","","","M","5","","4","","","M","102.86","","","","-26","","NA"
"-82.91","76.43","GRISE FIORD A","2402360","2018-03-04 09:00","2018","03","04","09:00","-22.2","","-26.4","","70","","","M","20","","1","","","M","102.72","","","","-23","","NA"
"-82.91","76.43","GRISE FIORD A","2402360","2018-03-04 10:00","2018","03","04","10:00","-20.1","","-25.2","","65","","","M","21","","1","","","M","102.64","","","","-21","","NA"
"-82.91","76.43","GRISE FIORD A","2402360","2018-03-04 11:00","2018","03","04","11:00","-21.2","","-25.2","","71","","","M","15","","3","","","M","102.56","","","","-24","","NA"
"-82.91","76.43","GRISE FIORD A","2402360","2018-03-04 12:00","2018","03","04","12:00","-19.0","","-23.4","","69","","","M","5","","7","","","M","102.54","","","","-24","","NA"
"-82.91","76.43","GRISE FIORD A","2402360","2018-03-04 13:00","2018","03","04","13:00","-18.4","","-21.9","","74","","","M","5","","11","","","M","102.43","","","","-26","","NA"
"-82.91","76.43","GRISE FIORD A","2402360","2018-03-04 14:00","2018","03","04","14:00","-19.2","","-21.9","","80","","","M","6","","6","","","M","102.44","","","","-24","","NA"
"-82.91","76.43","GRISE FIORD A","2402360","2018-03-04 15:00","2018","03","04","15:00","-17.9","","-20.8","","78","","","M","6","","4","","","M","102.41","","","","-21","","NA"
"-82.91","76.43","GRISE FIORD A","2402360","2018-03-04 16:00","2018","03","04","16:00","-17.6","","-20.5","","79","","","M","3","","6","","","M","102.36","","","","-22","","NA"
"-82.91","76.43","GRISE FIORD A","2402360","2018-03-04 17:00","2018","03","04","17:00","-17.4","","-20.1","","80","","","M","5","","7","","","M","102.31","","","","-23","","NA"
"-82.91","76.43","GRISE FIORD A","2402360","2018-03-04 18:00","2018","03","04","18:00","-17.8","","-20.8","","78","","","M","7","","4","","","M","102.29","","","","-21","","NA"
"-82.91","76.43","GRISE FIORD A","2402360","2018-03-04 19:00","2018","03","04","19:00","-18.2","","-20.6","","82","","","M","6","","5","","","M","102.29","","","","-22","","NA"
"-82.91","76.43","GRISE FIORD A","2402360","2018-03-04 20:00","2018","03","04","20:00","-16.4","","-19.5","","77","","","M","34","","5","","","M","102.27","","","","-20","","NA"
"-82.91","76.43","GRISE FIORD A","2402360","2018-03-04 21:00","2018","03","04","21:00","-16.4","","-19.0","","80","","","M","25","","2","","","M","102.26","","","","-18","","NA"
"-82.91","76.43","GRISE FIORD A","2402360","2018-03-04 22:00","2018","03","04","22:00","-17.4","","-19.9","","81","","","M","5","","9","","","M","102.29","","","","-24","","NA"
"-82.91","76.43","GRISE FIORD A","2402360","2018-03-04 23:00","2018","03","04","23:00","-16.8","","-19.6","","79","","","M","35","","1","","","M","102.28","","","","-18","","NA"
"-82.91","76.43","GRISE FIORD A","2402360","2018-03-05 00:00","2018","03","05","00:00","-17.6","","-20.6","","77","","","M","5","","10","","","M","102.25","","","","-24","","NA"
"-82.91","76.43","GRISE FIORD A","2402360","2018-03-05 01:00","2018","03","05","01:00","-18.0","","-21.9","","72","","","M","6","","8","","","M","102.25","","","","-24","","NA"
"-82.91","76.43","GRISE FIORD A","2402360","2018-03-05 02:00","2018","03","05","02:00","-17.6","","-24.1","","57","","","M","33","","8","","","M","102.26","","","","-23","","NA"
"-82.91","76.43","GRISE FIORD A","2402360","2018-03-05 03:00","2018","03","05","03:00","-16.4","","-23.2","","56","","","M","25","","10","","","M","102.28","","","","-23","","NA"
"-82.91","76.43","GRISE FIORD A","2402360","2018-03-05 04:00","2018","03","05","04:00","-18.0","","-23.8","","61","","","M","3","","3","","","M","102.32","","","","-20","","NA"
"-82.91","76.43","GRISE FIORD A","2402360","2018-03-05 05:00","2018","03","05","05:00","-20.1","","-25.6","","62","","","M","31","","11","","","M","102.31","","","","-28","","NA"
"-82.91","76.43","GRISE FIORD A","2402360","2018-03-05 06:00","2018","03","05","06:00","-19.6","","-25.0","","63","","","M","15","","4","","","M","102.34","","","","-23","","NA"
"-82.91","76.43","GRISE FIORD A","2402360","2018-03-05 07:00","2018","03","05","07:00","-22.1","","-26.5","","68","","","M","16","","7","","","M","102.39","","","","-28","","NA"
"-82.91","76.43","GRISE FIORD A","2402360","2018-03-05 08:00","2018","03","05","08:00","-21.1","","-24.7","","73","","","M","7","","6","","","M","102.38","","","","-26","","NA"
"-82.91","76.43","GRISE FIORD A","2402360","2018-03-05 09:00","2018","03","05","09:00","-24.2","","-26.8","","80","","","M","11","","7","","","M","102.43","","","","-31","","NA"
"-82.91","76.43","GRISE FIORD A","2402360","2018-03-05 10:00","2018","03","05","10:00","-22.1","","-25.3","","75","","","M","10","","3","","","M","102.45","","","","-25","","NA"
"-82.91","76.43","GRISE FIORD A","2402360","2018-03-05 11:00","2018","03","05","11:00","-23.9","","-27.1","","76","","","M","17","","6","","","M","102.45","","","","-30","","NA"
"-82.91","76.43","GRISE FIORD A","2402360","2018-03-05 12:00","2018","03","05","12:00","-24.5","","-27.6","","76","","","M","18","","1","","","M","102.47","","","","-25","","NA"
"-82.91","76.43","GRISE FIORD A","2402360","2018-03-05 13:00","2018","03","05","13:00","-24.5","","-28.0","","73","","","M","15","","4","","","M","102.51","","","","-28","","NA"
"-82.91","76.43","GRISE FIORD A","2402360","2018-03-05 14:00","2018","03","05","14:00","-25.4","","-28.8","","74","","","M","19","","3","","","M","102.51","","","","-28","","NA"
"-82.91","76.43","GRISE FIORD A","2402360","2018-03-05 15:00","2018","03","05","15:00","-27.6","","-31.1","","73","","","M","14","","5","","","M","102.54","","","","-33","","NA"
"-82.91","76.43","GRISE FIORD A","2402360","2018-03-05 16:00","2018","03","05","16:00","-27.8","","-30.6","","77","","","M","9","","2","","","M","102.56","","","","-30","","NA"
"-82.91","76.43","GRISE FIORD A","2402360","2018-03-05 17:00","2018","03","05","17:00","-26.9","","-30.0","","75","","","M","5","","3","","","M","102.55","","","","-30","","NA"
"-82.91","76.43","GRISE FIORD A","2402360","2018-03-05 18:00","2018","03","05","18:00","-28.2","","-31.3","","75","","","M","5","","6","","","M","102.56","","","","-34","","NA"
"-82.91","76.43","GRISE FIORD A","2402360","2018-03-05 19:00","2018","03","05","19:00","-27.9","","-31.1","","75","","","M","15","","7","","","M","102.56","","","","-35","","NA"
"-82.91","76.43","GRISE FIORD A","2402360","2018-03-05 20:00","2018","03","05","20:00","-28.4","","-31.6","","74","","","M","12","","3","","","M","102.54","","","","-32","","NA"
"-82.91","76.43","GRISE FIORD A","2402360","2018-03-05 21:00","2018","03","05","21:00","-28.1","","-31.4","","74","","","M","8","","5","","","M","102.56","","","","-33","","NA"
"-82.91","76.43","GRISE FIORD A","2402360","2018-03-05 22:00","2018","03","05","22:00","-28.6","","-31.9","","74","","","M","12","","4","","","M","102.53","","","","-33","","NA"
"-82.91","76.43","GRISE FIORD A","2402360","2018-03-05 23:00","2018","03","05","23:00","-29.2","","-32.4","","75","","","M","6","","5","","","M","102.53","","","","-35","","NA"
"-82.91","76.43","GRISE FIORD A","2402360","2018-03-06 00:00","2018","03","06","00:00","-29.3","","-32.5","","75","","","M","14","","5","","","M","102.52","","","","-35","","NA"
"-82.91","76.43","GRISE FIORD A","2402360","2018-03-06 01:00","2018","03","06","01:00","-29.6","","-32.8","","74","","","M","8","","2","","","M","102.53","","","","-32","","NA"
"-82.91","76.43","GRISE FIORD A","2402360","2018-03-06 02:00","2018","03","06","02:00","-29.1","","-32.4","","74","","","M","6","","3","","","M","102.53","","","","-32","","NA"
"-82.91","76.43","GRISE FIORD A","2402360","2018-03-06 03:00","2018","03","06","03:00","-29.9","","-33.4","","73","","","M","4","","7","","","M","102.52","","","","-37","","NA"
"-82.91","76.43","GRISE FIORD A","2402360","2018-03-06 04:00","2018","03","06","04:00","-30.8","","-34.0","","74","","","M","14","","6","","","M","102.53","","","","-37","","NA"
"-82.91","76.43","GRISE FIORD A","2402360","2018-03-06 05:00","2018","03","06","05:00","-30.4","","-33.5","","75","","","M","32","","2","","","M","102.52","","","","-33","","NA"
"-82.91","76.43","GRISE FIORD A","2402360","2018-03-06 06:00","2018","03","06","06:00","-29.7","","-32.9","","74","","","M","8","","2","","","M","102.52","","","","-32","","NA"
"-82.91","76.43","GRISE FIORD A","2402360","2018-03-06 07:00","2018","03","06","07:00","-32.3","","-35.4","","75","","","M","7","","3","","","M","102.52","","","","-36","","NA"
"-82.91","76.43","GRISE FIORD A","2402360","2018-03-06 08:00","2018","03","06","08:00","-31.8","","-35.2","","73","","","M","15","","3","","","M","102.52","","","","-35","","NA"
"-82.91","76.43","GRISE FIORD A","2402360","2018-03-06 09:00","2018","03","06","09:00","-31.9","","-35.1","","74","","","M","35","","3","","","M","102.52","","","","-35","","NA"
"-82.91","76.43","GRISE FIORD A","2402360","2018-03-06 10:00","2018","03","06","10:00","-31.1","","-34.4","","74","","","M","14","","1","","","M","102.49","","","","-32","","NA"
"-82.91","76.43","GRISE FIORD A","2402360","2018-03-06 11:00","2018","03","06","11:00","-31.5","","-35.2","","71","","","M","35","","4","","","M","102.46","","","","-36","","NA"
"-82.91","76.43","GRISE FIORD A","2402360","2018-03-06 12:00","2018","03","06","12:00","-31.3","","-34.8","","72","","","M","","","0","","","M","102.43","","","","","","NA"
"-82.91","76.43","GRISE FIORD A","2402360","2018-03-06 13:00","2018","03","06","13:00","-34.0","","-37.2","","73","","","M","9","","6","","","M","102.43","","","","-41","","NA"
"-82.91","76.43","GRISE FIORD A","2402360","2018-03-06 14:00","2018","03","06","14:00","-33.1","","-36.6","","72","","","M","13","","2","","","M","102.43","","","","-36","","NA"
"-82.91","76.43","GRISE FIORD A","2402360","2018-03-06 15:00","2018","03","06","15:00","-30.9","","-34.5","","71","","","M","17","","2","","","M","102.41","","","","-33","","NA"
"-82.91","76.43","GRISE FIORD A","2402360","2018-03-06 16:00","2018","03","06","16:00","-33.2","","-36.5","","73","","","M","13","","5","","","M","102.41","","","","-39","","NA"
"-82.91","76.43","GRISE FIORD A","2402360","2018-03-06 17:00","2018","03","06","17:00","-33.9","","-37.2","","73","","","M","2","","3","","","M","102.42","","","","-38","","NA"
"-82.91","76.43","GRISE FIORD A","2402360","2018-03-06 18:00","2018","03","06","18:00","-34.5","","-37.8","","73","","","M","32","","3","","","M","102.42","","","","-38","","NA"
"-82.91","76.43","GRISE FIORD A","2402360","2018-03-06 19:00","2018","03","06","19:00","-32.8","","-36.2","","72","","","M","32","","3","","","M","102.39","","","","-36","","NA"
"-82.91","76.43","GRISE FIORD A","2402360","2018-03-06 20:00","2018","03","06","20:00","-35.4","","-38.9","","71","","","M","11","","3","","","M","102.37","","","","-39","","NA"
"-82.91","76.43","GRISE FIORD A","2402360","2018-03-06 21:00","2018","03","06","21:00","-34.8","","-38.2","","72","","","M","7","","1","","","M","102.39","","","","-36","","NA"
"-82.91","76.43","GRISE FIORD A","2402360","2018-03-06 22:00","2018","03","06","22:00","-35.6","","-39.0","","72","","","M","4","","4","","","M","102.39","","","","-41","","NA"
"-82.91","76.43","GRISE FIORD A","2402360","2018-03-06 23:00","2018","03","06","23:00","-35.1","","-38.8","","70","","","M","22","","1","","","M","102.40","","","","-36","","NA"
"-82.91","76.43","GRISE FIORD A","2402360","2018-03-07 00:00","2018","03","07","00:00","-34.8","","-38.4","","71","","","M","3","","1","","","M","102.40","","","","-36","","NA"
"-82.91","76.43","GRISE FIORD A","2402360","2018-03-07 01:00","2018","03","07","01:00","-35.1","","-38.7","","71","","","M","8","","1","","","M","102.40","","","","-36","","NA"
"-82.91","76.43","GRISE FIORD A","2402360","2018-03-07 02:00","2018","03","07","02:00","-35.7","","-39.3","","70","","","M","20","","2","","","M","102.41","","","","-38","","NA"
"-82.91","76.43","GRISE FIORD A","2402360","2018-03-07 03:00","2018","03","07","03:00","-36.2","","-39.8","","70","","","M","16","","2","","","M","102.43","","","","-39","","NA"
"-82.91","76.43","GRISE FIORD A","2402360","2018-03-07 04:00","2018","03","07","04:00","-36.2","","-39.9","","70","","","M","8","","3","","","M","102.44","","","","-40","","NA"
"-82.91","76.43","GRISE FIORD A","2402360","2018-03-07 05:00","2018","03","07","05:00","-36.2","","-39.9","","69","","","M","23","","1","","","M","102.46","","","","-37","","NA"
"-82.91","76.43","GRISE FIORD A","2402360","2018-03-07 06:00","2018","03","07","06:00","-36.6","","-40.3","","69","","","M","18","","3","","","M","102.50","","","","-41","","NA"
"-82.91","76.43","GRISE FIORD A","2402360","2018-03-07 07:00","2018","03","07","07:00","-35.8","","-39.5","","69","","","M","34","","3","","","M","102.49","","","","-40","","NA"
"-82.91","76.43","GRISE FIORD A","2402360","2018-03-07 08:00","2018","03","07","08:00","-38.1","","-42.0","","68","","","M","14","","4","","","M","102.53","","","","-43","","NA"
"-82.91","76.43","GRISE FIORD A","2402360","2018-03-07 09:00","2018","03","07","09:00","-37.1","","-40.9","","69","","","M","12","","5","","","M","102.54","","","","-44","","NA"
"-82.91","76.43","GRISE FIORD A","2402360","2018-03-07 10:00","2018","03","07","10:00","-37.7","","-41.5","","69","","","M","20","","3","","","M","102.56","","","","-42","","NA"
"-82.91","76.43","GRISE FIORD A","2402360","2018-03-07 11:00","2018","03","07","11:00","-38.0","","-41.9","","68","","","M","0","","1","","","M","102.56","","","","-39","","NA"
"-82.91","76.43","GRISE FIORD A","2402360","2018-03-07 12:00","2018","03","07","12:00","-38.0","","-41.9","","68","","","M","14","","1","","","M","102.54","","","","-39","","NA"
"-82.91","76.43","GRISE FIORD A","2402360","2018-03-07 13:00","2018","03","07","13:00","-38.1","","-42.0","","68","","","M","14","","3","","","M","102.57","","","","-42","","NA"
"-82.91","76.43","GRISE FIORD A","2402360","2018-03-07 14:00","2018","03","07","14:00","-37.6","","-41.5","","68","","","M","8","","5","","","M","102.60","","","","-44","","NA"
"-82.91","76.43","GRISE FIORD A","2402360","2018-03-07 15:00","2018","03","07","15:00","-38.6","","-42.5","","67","","","M","12","","4","","","M","102.62","","","","-44","","NA"
"-82.91","76.43","GRISE FIORD A","2402360","2018-03-07 16:00","2018","03","07","16:00","-38.6","","-42.5","","67","","","M","9","","3","","","M","102.63","","","","-43","","NA"
"-82.91","76.43","GRISE FIORD A","2402360","2018-03-07 17:00","2018","03","07","17:00","-38.6","","-42.5","","68","","","M","12","","1","","","M","102.63","","","","-40","","NA"
"-82.91","76.43","GRISE FIORD A","2402360","2018-03-07 18:00","2018","03","07","18:00","-38.4","","-42.3","","68","","","M","6","","1","","","M","102.66","","","","-40","","NA"
"-82.91","76.43","GRISE FIORD A","2402360","2018-03-07 19:00","2018","03","07","19:00","-38.8","","-42.7","","68","","","M","13","","2","","","M","102.63","","","","-42","","NA"
"-82.91","76.43","GRISE FIORD A","2402360","2018-03-07 20:00","2018","03","07","20:00","-39.3","","-43.3","","67","","","M","31","","1","","","M","102.61","","","","-41","","NA"
"-82.91","76.43","GRISE FIORD A","2402360","2018-03-07 21:00","2018","03","07","21:00","-39.1","","-43.1","","67","","","M","8","","1","","","M","102.60","","","","-40","","NA"
"-82.91","76.43","GRISE FIORD A","2402360","2018-03-07 22:00","2018","03","07","22:00","-39.3","","-43.3","","67","","","M","26","","2","","","M","102.59","","","","-42","","NA"
"-82.91","76.43","GRISE FIORD A","2402360","2018-03-07 23:00","2018","03","07","23:00","-38.8","","-42.7","","67","","","M","4","","2","","","M","102.58","","","","-42","","NA"
"-82.91","76.43","GRISE FIORD A","2402360","2018-03-08 00:00","2018","03","08","00:00","-39.1","","-43.1","","67","","","M","7","","3","","","M","102.59","","","","-43","","NA"
"-82.91","76.43","GRISE FIORD A","2402360","2018-03-08 01:00","2018","03","08","01:00","-36.7","","-40.6","","68","","","M","0","","1","","","M","102.58","","","","-38","","NA"
"-82.91","76.43","GRISE FIORD A","2402360","2018-03-08 02:00","2018","03","08","02:00","-35.7","","-39.5","","69","","","M","5","","6","","","M","102.58","","","","-43","","NA"
"-82.91","76.43","GRISE FIORD A","2402360","2018-03-08 03:00","2018","03","08","03:00","-39.0","","-43.0","","67","","","M","35","","6","","","M","102.59","","","","-47","","NA"
"-82.91","76.43","GRISE FIORD A","2402360","2018-03-08 04:00","2018","03","08","04:00","-37.9","","-41.8","","68","","","M","27","","2","","","M","102.59","","","","-41","","NA"
"-82.91","76.43","GRISE FIORD A","2402360","2018-03-08 05:00","2018","03","08","05:00","-39.7","","-43.7","","66","","","M","10","","3","","","M","102.59","","","","-44","","NA"
"-82.91","76.43","GRISE FIORD A","2402360","2018-03-08 06:00","2018","03","08","06:00","-38.5","","-42.4","","67","","","M","0","","1","","","M","102.59","","","","-40","","NA"
"-82.91","76.43","GRISE FIORD A","2402360","2018-03-08 07:00","2018","03","08","07:00","-36.8","","-40.6","","69","","","M","14","","3","","","M","102.57","","","","-41","","NA"
"-82.91","76.43","GRISE FIORD A","2402360","2018-03-08 08:00","2018","03","08","08:00","-40.0","","-44.2","","65","","","M","24","","4","","","M","102.55","","","","-46","","NA"
"-82.91","76.43","GRISE FIORD A","2402360","2018-03-08 09:00","2018","03","08","09:00","-36.8","","-40.8","","68","","","M","8","","3","","","M","102.55","","","","-41","","NA"
"-82.91","76.43","GRISE FIORD A","2402360","2018-03-08 10:00","2018","03","08","10:00","-39.5","","-43.5","","66","","","M","8","","4","","","M","102.54","","","","-45","","NA"
"-82.91","76.43","GRISE FIORD A","2402360","2018-03-08 11:00","2018","03","08","11:00","-35.5","","-39.4","","69","","","M","36","","2","","","M","102.50","","","","-38","","NA"
"-82.91","76.43","GRISE FIORD A","2402360","2018-03-08 12:00","2018","03","08","12:00","-36.4","","-40.3","","68","","","M","4","","6","","","M","102.52","","","","-44","","NA"
"-82.91","76.43","GRISE FIORD A","2402360","2018-03-08 13:00","2018","03","08","13:00","-35.0","","-38.8","","69","","","M","5","","7","","","M","102.49","","","","-43","","NA"
"-82.91","76.43","GRISE FIORD A","2402360","2018-03-08 14:00","2018","03","08","14:00","-35.6","","-39.5","","69","","","M","4","","1","","","M","102.53","","","","-37","","NA"
"-82.91","76.43","GRISE FIORD A","2402360","2018-03-08 15:00","2018","03","08","15:00","-34.9","","-38.7","","69","","","M","6","","6","","","M","102.53","","","","-42","","NA"
"-82.91","76.43","GRISE FIORD A","2402360","2018-03-08 16:00","2018","03","08","16:00","-38.7","","-42.7","","67","","","M","19","","5","","","M","102.55","","","","-45","","NA"
"-82.91","76.43","GRISE FIORD A","2402360","2018-03-08 17:00","2018","03","08","17:00","-35.1","","-38.9","","69","","","M","4","","5","","","M","102.51","","","","-41","","NA"
"-82.91","76.43","GRISE FIORD A","2402360","2018-03-08 18:00","2018","03","08","18:00","-35.2","","-39.1","","69","","","M","22","","1","","","M","102.51","","","","-36","","NA"
"-82.91","76.43","GRISE FIORD A","2402360","2018-03-08 19:00","2018","03","08","19:00","-36.9","","-40.8","","68","","","M","","","0","","","M","102.51","","","","","","NA"
"-82.91","76.43","GRISE FIORD A","2402360","2018-03-08 20:00","2018","03","08","20:00","-36.6","","-40.4","","69","","","M","9","","4","","","M","102.48","","","","-42","","NA"
"-82.91","76.43","GRISE FIORD A","2402360","2018-03-08 21:00","2018","03","08","21:00","-37.4","","-41.2","","68","","","M","9","","2","","","M","102.48","","","","-40","","NA"
"-82.91","76.43","GRISE FIORD A","2402360","2018-03-08 22:00","2018","03","08","22:00","-36.6","","-40.5","","68","","","M","3","","5","","","M","102.46","","","","-43","","NA"
"-82.91","76.43","GRISE FIORD A","2402360","2018-03-08 23:00","2018","03","08","23:00","-35.6","","-39.4","","69","","","M","33","","5","","","M","102.44","","","","-42","","NA"
"-82.91","76.43","GRISE FIORD A","2402360","2018-03-09 00:00","2018","03","09","00:00","-34.0","","-37.6","","70","","","M","5","","4","","","M","102.42","","","","-39","","NA"
"-82.91","76.43","GRISE FIORD A","2402360","2018-03-09 01:00","2018","03","09","01:00","-34.7","","-38.5","","69","","","M","5","","1","","","M","102.45","","","","-36","","NA"
"-82.91","76.43","GRISE FIORD A","2402360","2018-03-09 02:00","2018","03","09","02:00","-32.2","","-35.8","","72","","","M","3","","2","","","M","102.44","","","","-35","","NA"
"-82.91","76.43","GRISE FIORD A","2402360","2018-03-09 03:00","2018","03","09","03:00","-36.3","","-40.2","","68","","","M","10","","2","","","M","102.45","","","","-39","","NA"
"-82.91","76.43","GRISE FIORD A","2402360","2018-03-09 04:00","2018","03","09","04:00","-37.5","","-41.7","","66","","","M","14","","5","","","M","102.45","","","","-44","","NA"
"-82.91","76.43","GRISE FIORD A","2402360","2018-03-09 05:00","2018","03","09","05:00","-34.8","","-38.7","","69","","","M","14","","3","","","M","102.46","","","","-39","","NA"
"-82.91","76.43","GRISE FIORD A","2402360","2018-03-09 06:00","2018","03","09","06:00","-31.5","","-35.0","","72","","","M","5","","4","","","M","102.42","","","","-36","","NA"
"-82.91","76.43","GRISE FIORD A","2402360","2018-03-09 07:00","2018","03","09","07:00","-29.7","","-33.4","","71","","","M","5","","7","","","M","102.40","","","","-37","","NA"
"-82.91","76.43","GRISE FIORD A","2402360","2018-03-09 08:00","2018","03","09","08:00","-27.3","","-31.1","","70","","","M","3","","7","","","M","102.35","","","","-34","","NA"
"-82.91","76.43","GRISE FIORD A","2402360","2018-03-09 09:00","2018","03","09","09:00","-27.4","","-31.6","","68","","","M","3","","3","","","M","102.36","","","","-31","","NA"
"-82.91","76.43","GRISE FIORD A","2402360","2018-03-09 10:00","2018","03","09","10:00","-27.7","","-33.0","","61","","","M","8","","7","","","M","102.36","","","","-35","","NA"
"-82.91","76.43","GRISE FIORD A","2402360","2018-03-09 11:00","2018","03","09","11:00","-25.9","","-31.8","","58","","","M","11","","1","","","M","102.33","","","","-27","","NA"
"-82.91","76.43","GRISE FIORD A","2402360","2018-03-09 12:00","2018","03","09","12:00","-26.4","","-32.0","","60","","","M","7","","4","","","M","102.31","","","","-31","","NA"
"-82.91","76.43","GRISE FIORD A","2402360","2018-03-09 13:00","2018","03","09","13:00","-28.6","","-34.7","","57","","","M","11","","5","","","M","102.29","","","","-34","","NA"
"-82.91","76.43","GRISE FIORD A","2402360","2018-03-09 14:00","2018","03","09","14:00","-25.0","","-31.6","","55","","","M","2","","4","","","M","102.30","","","","-29","","NA"
"-82.91","76.43","GRISE FIORD A","2402360","2018-03-09 15:00","2018","03","09","15:00","-26.5","","-31.9","","61","","","M","7","","3","","","M","102.30","","","","-30","","NA"
"-82.91","76.43","GRISE FIORD A","2402360","2018-03-09 16:00","2018","03","09","16:00","-27.9","","-33.6","","59","","","M","23","","3","","","M","102.27","","","","-31","","NA"
"-82.91","76.43","GRISE FIORD A","2402360","2018-03-09 17:00","2018","03","09","17:00","-27.4","","-33.1","","59","","","M","11","","1","","","M","102.25","","","","-28","","NA"
"-82.91","76.43","GRISE FIORD A","2402360","2018-03-09 18:00","2018","03","09","18:00","-28.8","","-33.9","","62","","","M","6","","7","","","M","102.25","","","","-36","","NA"
"-82.91","76.43","GRISE FIORD A","2402360","2018-03-09 19:00","2018","03","09","19:00","-29.2","","-33.6","","66","","","M","8","","1","","","M","102.23","","","","-30","","NA"
"-82.91","76.43","GRISE FIORD A","2402360","2018-03-09 20:00","2018","03","09","20:00","-28.4","","-33.8","","61","","","M","16","","1","","","M","102.23","","","","-29","","NA"
"-82.91","76.43","GRISE FIORD A","2402360","2018-03-09 21:00","2018","03","09","21:00","-29.9","","-35.0","","62","","","M","24","","6","","","M","102.19","","","","-36","","NA"
"-82.91","76.43","GRISE FIORD A","2402360","2018-03-09 22:00","2018","03","09","22:00","-23.1","","-29.0","","59","","","M","8","","18","","","M","102.15","","","","-34","","NA"
"-82.91","76.43","GRISE FIORD A","2402360","2018-03-09 23:00","2018","03","09","23:00","-26.8","","-33.4","","55","","","M","14","","4","","","M","102.14","","","","-31","","NA"
"-82.91","76.43","GRISE FIORD A","2402360","2018-03-10 00:00","2018","03","10","00:00","-23.0","","-30.0","","54","","","M","11","","30","","","M","102.09","","","","-36","","NA"
"-82.91","76.43","GRISE FIORD A","2402360","2018-03-10 01:00","2018","03","10","01:00","-22.6","","-30.3","","51","","","M","10","","22","","","M","102.05","","","","-34","","NA"
"-82.91","76.43","GRISE FIORD A","2402360","2018-03-10 02:00","2018","03","10","02:00","-22.5","","-30.3","","50","","","M","10","","21","","","M","102.05","","","","-34","","NA"
"-82.91","76.43","GRISE FIORD A","2402360","2018-03-10 03:00","2018","03","10","03:00","-22.1","","-29.9","","50","","","M","10","","24","","","M","102.03","","","","-34","","NA"
"-82.91","76.43","GRISE FIORD A","2402360","2018-03-10 04:00","2018","03","10","04:00","-22.5","","-30.1","","51","","","M","9","","16","","","M","102.04","","","","-32","","NA"
"-82.91","76.43","GRISE FIORD A","2402360","2018-03-10 05:00","2018","03","10","05:00","-25.7","","-31.8","","58","","","M","14","","12","","","M","102.04","","","","-35","","NA"
"-82.91","76.43","GRISE FIORD A","2402360","2018-03-10 06:00","2018","03","10","06:00","-22.7","","-30.0","","52","","","M","10","","13","","","M","101.99","","","","-32","","NA"
"-82.91","76.43","GRISE FIORD A","2402360","2018-03-10 07:00","2018","03","10","07:00","-22.8","","-30.7","","49","","","M","9","","21","","","M","101.95","","","","-34","","NA"
"-82.91","76.43","GRISE FIORD A","2402360","2018-03-10 08:00","2018","03","10","08:00","-26.8","","-33.1","","56","","","M","15","","5","","","M","101.95","","","","-32","","NA"
"-82.91","76.43","GRISE FIORD A","2402360","2018-03-10 09:00","2018","03","10","09:00","-27.2","","-33.9","","54","","","M","14","","10","","","M","101.91","","","","-36","","NA"
"-82.91","76.43","GRISE FIORD A","2402360","2018-03-10 10:00","2018","03","10","10:00","-27.4","","-33.5","","57","","","M","20","","4","","","M","101.87","","","","-32","","NA"
"-82.91","76.43","GRISE FIORD A","2402360","2018-03-10 11:00","2018","03","10","11:00","-22.5","","-30.9","","47","","","M","10","","19","","","M","101.81","","","","-33","","NA"
"-82.91","76.43","GRISE FIORD A","2402360","2018-03-10 12:00","2018","03","10","12:00","-24.4","","-31.1","","54","","","M","17","","9","","","M","101.79","","","","-32","","NA"
"-82.91","76.43","GRISE FIORD A","2402360","2018-03-10 13:00","2018","03","10","13:00","-22.7","","-30.6","","50","","","M","12","","19","","","M","101.75","","","","-34","","NA"
"-82.91","76.43","GRISE FIORD A","2402360","2018-03-10 14:00","2018","03","10","14:00","-24.6","","-31.2","","55","","","M","20","","10","","","M","101.76","","","","-33","","NA"
"-82.91","76.43","GRISE FIORD A","2402360","2018-03-10 15:00","2018","03","10","15:00","-22.3","","-30.8","","47","","","M","11","","11","","","M","101.74","","","","-30","","NA"
"-82.91","76.43","GRISE FIORD A","2402360","2018-03-10 16:00","2018","03","10","16:00","-23.4","","-30.5","","53","","","M","12","","11","","","M","101.75","","","","-32","","NA"
"-82.91","76.43","GRISE FIORD A","2402360","2018-03-10 17:00","2018","03","10","17:00","-22.9","","-29.8","","54","","","M","10","","16","","","M","101.73","","","","-33","","NA"
"-82.91","76.43","GRISE FIORD A","2402360","2018-03-10 18:00","2018","03","10","18:00","-24.4","","-31.5","","53","","","M","13","","13","","","M","101.71","","","","-34","","NA"
"-82.91","76.43","GRISE FIORD A","2402360","2018-03-10 19:00","2018","03","10","19:00","-23.1","","-29.6","","56","","","M","7","","25","","","M","101.69","","","","-36","","NA"
"-82.91","76.43","GRISE FIORD A","2402360","2018-03-10 20:00","2018","03","10","20:00","-23.2","","-30.0","","55","","","M","12","","18","","","M","101.70","","","","-34","","NA"
"-82.91","76.43","GRISE FIORD A","2402360","2018-03-10 21:00","2018","03","10","21:00","-23.0","","-30.1","","53","","","M","12","","19","","","M","101.67","","","","-34","","NA"
"-82.91","76.43","GRISE FIORD A","2402360","2018-03-10 22:00","2018","03","10","22:00","-22.6","","-30.6","","49","","","M","12","","13","","","M","101.64","","","","-32","","NA"
"-82.91","76.43","GRISE FIORD A","2402360","2018-03-10 23:00","2018","03","10","23:00","-22.5","","-30.3","","50","","","M","9","","16","","","M","101.62","","","","-32","","NA"
"-82.91","76.43","GRISE FIORD A","2402360","2018-03-11 00:00","2018","03","11","00:00","-23.2","","-30.1","","54","","","M","10","","16","","","M","101.62","","","","-33","","NA"
"-82.91","76.43","GRISE FIORD A","2402360","2018-03-11 01:00","2018","03","11","01:00","-27.0","","-33.7","","54","","","M","13","","6","","","M","101.62","","","","-33","","NA"
"-82.91","76.43","GRISE FIORD A","2402360","2018-03-11 02:00","2018","03","11","02:00","-26.5","","-31.6","","63","","","M","14","","6","","","M","101.60","","","","-32","","NA"
"-82.91","76.43","GRISE FIORD A","2402360","2018-03-11 03:00","2018","03","11","03:00","-27.5","","-32.1","","66","","","M","8","","1","","","M","101.61","","","","-29","","NA"
"-82.91","76.43","GRISE FIORD A","2402360","2018-03-11 04:00","2018","03","11","04:00","-26.4","","-31.6","","63","","","M","6","","5","","","M","101.59","","","","-32","","NA"
"-82.91","76.43","GRISE FIORD A","2402360","2018-03-11 05:00","2018","03","11","05:00","-25.9","","-31.0","","63","","","M","15","","1","","","M","101.59","","","","-27","","NA"
"-82.91","76.43","GRISE FIORD A","2402360","2018-03-11 06:00","2018","03","11","06:00","-26.4","","-31.1","","65","","","M","5","","5","","","M","101.59","","","","-32","","NA"
"-82.91","76.43","GRISE FIORD A","2402360","2018-03-11 07:00","2018","03","11","07:00","-26.1","","-30.6","","66","","","M","13","","1","","","M","101.59","","","","-27","","NA"
"-82.91","76.43","GRISE FIORD A","2402360","2018-03-11 08:00","2018","03","11","08:00","-26.8","","-31.0","","69","","","M","6","","4","","","M","101.60","","","","-31","","NA"
"-82.91","76.43","GRISE FIORD A","2402360","2018-03-11 09:00","2018","03","11","09:00","-28.0","","-32.2","","68","","","M","13","","7","","","M","101.60","","","","-35","","NA"
"-82.91","76.43","GRISE FIORD A","2402360","2018-03-11 10:00","2018","03","11","10:00","-26.9","","-31.5","","66","","","M","10","","5","","","M","101.60","","","","-32","","NA"
"-82.91","76.43","GRISE FIORD A","2402360","2018-03-11 11:00","2018","03","11","11:00","-26.7","","-31.1","","67","","","M","15","","5","","","M","101.59","","","","-32","","NA"
"-82.91","76.43","GRISE FIORD A","2402360","2018-03-11 12:00","2018","03","11","12:00","-26.5","","-30.7","","68","","","M","18","","1","","","M","101.59","","","","-28","","NA"
"-82.91","76.43","GRISE FIORD A","2402360","2018-03-11 13:00","2018","03","11","13:00","-26.6","","-30.9","","68","","","M","12","","4","","","M","101.60","","","","-31","","NA"
"-82.91","76.43","GRISE FIORD A","2402360","2018-03-11 14:00","2018","03","11","14:00","-26.5","","-30.8","","68","","","M","23","","1","","","M","101.62","","","","-28","","NA"
"-82.91","76.43","GRISE FIORD A","2402360","2018-03-11 15:00","2018","03","11","15:00","-25.5","","-29.6","","69","","","M","28","","1","","","M","101.64","","","","-27","","NA"
"-82.91","76.43","GRISE FIORD A","2402360","2018-03-11 16:00","2018","03","11","16:00","-25.4","","-29.6","","69","","","M","6","","4","","","M","101.68","","","","-29","","NA"
"-82.91","76.43","GRISE FIORD A","2402360","2018-03-11 17:00","2018","03","11","17:00","-25.8","","-29.6","","71","","","M","8","","3","","","M","101.70","","","","-29","","NA"
"-82.91","76.43","GRISE FIORD A","2402360","2018-03-11 18:00","2018","03","11","18:00","-25.2","","-29.4","","69","","","M","","","0","","","M","101.70","","","","","","NA"
"-82.91","76.43","GRISE FIORD A","2402360","2018-03-11 19:00","2018","03","11","19:00","-24.5","","-28.9","","68","","","M","16","","2","","","M","101.69","","","","-26","","NA"
"-82.91","76.43","GRISE FIORD A","2402360","2018-03-11 20:00","2018","03","11","20:00","-25.4","","-29.2","","71","","","M","7","","3","","","M","101.71","","","","-28","","NA"
"-82.91","76.43","GRISE FIORD A","2402360","2018-03-11 21:00","2018","03","11","21:00","-25.5","","-29.1","","73","","","M","11","","3","","","M","101.69","","","","-29","","NA"
"-82.91","76.43","GRISE FIORD A","2402360","2018-03-11 22:00","2018","03","11","22:00","-27.2","","-31.3","","69","","","M","5","","1","","","M","101.71","","","","-28","","NA"
"-82.91","76.43","GRISE FIORD A","2402360","2018-03-11 23:00","2018","03","11","23:00","-25.8","","-29.8","","70","","","M","30","","2","","","M","101.71","","","","-28","","NA"
"-82.91","76.43","GRISE FIORD A","2402360","2018-03-12 00:00","2018","03","12","00:00","-26.9","","-30.1","","75","","","M","8","","1","","","M","101.72","","","","-28","","NA"
"-82.91","76.43","GRISE FIORD A","2402360","2018-03-12 01:00","2018","03","12","01:00","-26.8","","-29.9","","76","","","M","5","","3","","","M","101.73","","","","-30","","NA"
"-82.91","76.43","GRISE FIORD A","2402360","2018-03-12 02:00","2018","03","12","02:00","-27.9","","-30.9","","76","","","M","9","","1","","","M","101.76","","","","-29","","NA"
"-82.91","76.43","GRISE FIORD A","2402360","2018-03-12 03:00","2018","03","12","03:00","-26.9","","-30.2","","74","","","M","34","","3","","","M","101.79","","","","-30","","NA"
"-82.91","76.43","GRISE FIORD A","2402360","2018-03-12 04:00","2018","03","12","04:00","-27.3","","-31.0","","71","","","M","29","","2","","","M","101.79","","","","-29","","NA"
"-82.91","76.43","GRISE FIORD A","2402360","2018-03-12 05:00","2018","03","12","05:00","-26.2","","-29.7","","73","","","M","33","","3","","","M","101.81","","","","-29","","NA"
"-82.91","76.43","GRISE FIORD A","2402360","2018-03-12 06:00","2018","03","12","06:00","-26.2","","-29.6","","74","","","M","11","","1","","","M","101.82","","","","-27","","NA"
"-82.91","76.43","GRISE FIORD A","2402360","2018-03-12 07:00","2018","03","12","07:00","-26.7","","-30.2","","73","","","M","29","","4","","","M","101.82","","","","-31","","NA"
"-82.91","76.43","GRISE FIORD A","2402360","2018-03-12 08:00","2018","03","12","08:00","-26.2","","-29.6","","73","","","M","27","","2","","","M","101.83","","","","-28","","NA"
"-82.91","76.43","GRISE FIORD A","2402360","2018-03-12 09:00","2018","03","12","09:00","-26.4","","-30.5","","69","","","M","3","","4","","","M","101.82","","","","-31","","NA"
"-82.91","76.43","GRISE FIORD A","2402360","2018-03-12 10:00","2018","03","12","10:00","-27.6","","-32.2","","66","","","M","24","","2","","","M","101.82","","","","-30","","NA"
"-82.91","76.43","GRISE FIORD A","2402360","2018-03-12 11:00","2018","03","12","11:00","-26.6","","-30.2","","72","","","M","20","","1","","","M","101.81","","","","-28","","NA"
"-82.91","76.43","GRISE FIORD A","2402360","2018-03-12 12:00","2018","03","12","12:00","-27.8","","-31.2","","73","","","M","12","","7","","","M","101.79","","","","-35","","NA"
"-82.91","76.43","GRISE FIORD A","2402360","2018-03-12 13:00","2018","03","12","13:00","-27.1","","-30.8","","72","","","M","11","","4","","","M","101.79","","","","-31","","NA"
"-82.91","76.43","GRISE FIORD A","2402360","2018-03-12 14:00","2018","03","12","14:00","-27.1","","-31.1","","70","","","M","6","","6","","","M","101.79","","","","-33","","NA"
"-82.91","76.43","GRISE FIORD A","2402360","2018-03-12 15:00","2018","03","12","15:00","-27.2","","-30.9","","71","","","M","0","","1","","","M","101.78","","","","-28","","NA"
"-82.91","76.43","GRISE FIORD A","2402360","2018-03-12 16:00","2018","03","12","16:00","-27.0","","-30.9","","70","","","M","4","","1","","","M","101.76","","","","-28","","NA"
"-82.91","76.43","GRISE FIORD A","2402360","2018-03-12 17:00","2018","03","12","17:00","-27.6","","-31.3","","71","","","M","8","","1","","","M","101.75","","","","-29","","NA"
"-82.91","76.43","GRISE FIORD A","2402360","2018-03-12 18:00","2018","03","12","18:00","-28.8","","-31.8","","76","","","M","7","","3","","","M","101.75","","","","-32","","NA"
"-82.91","76.43","GRISE FIORD A","2402360","2018-03-12 19:00","2018","03","12","19:00","-29.9","","-33.4","","72","","","M","4","","2","","","M","101.72","","","","-32","","NA"
"-82.91","76.43","GRISE FIORD A","2402360","2018-03-12 20:00","2018","03","12","20:00","-30.4","","-33.5","","75","","","M","12","","2","","","M","101.69","","","","-33","","NA"
"-82.91","76.43","GRISE FIORD A","2402360","2018-03-12 21:00","2018","03","12","21:00","-30.7","","-33.7","","76","","","M","13","","4","","","M","101.66","","","","-35","","NA"
"-82.91","76.43","GRISE FIORD A","2402360","2018-03-12 22:00","2018","03","12","22:00","-31.1","","-34.2","","75","","","M","13","","3","","","M","101.63","","","","-35","","NA"
"-82.91","76.43","GRISE FIORD A","2402360","2018-03-12 23:00","2018","03","12","23:00","-30.4","","-33.5","","75","","","M","3","","1","","","M","101.60","","","","-32","","NA"
"-82.91","76.43","GRISE FIORD A","2402360","2018-03-13 00:00","2018","03","13","00:00","-31.2","","-34.4","","74","","","M","12","","2","","","M","101.56","","","","-34","","NA"
"-82.91","76.43","GRISE FIORD A","2402360","2018-03-13 01:00","2018","03","13","01:00","-31.0","","-34.2","","74","","","M","9","","3","","","M","101.56","","","","-34","","NA"
"-82.91","76.43","GRISE FIORD A","2402360","2018-03-13 02:00","2018","03","13","02:00","-30.6","","-33.8","","74","","","M","","","0","","","M","101.55","","","","","","NA"
"-82.91","76.43","GRISE FIORD A","2402360","2018-03-13 03:00","2018","03","13","03:00","-32.3","","-35.5","","74","","","M","14","","2","","","M","101.56","","","","-35","","NA"
"-82.91","76.43","GRISE FIORD A","2402360","2018-03-13 04:00","2018","03","13","04:00","-32.4","","-35.6","","73","","","M","9","","1","","","M","101.56","","","","-34","","NA"
"-82.91","76.43","GRISE FIORD A","2402360","2018-03-13 05:00","2018","03","13","05:00","-33.1","","-36.5","","72","","","M","11","","2","","","M","101.55","","","","-36","","NA"
"-82.91","76.43","GRISE FIORD A","2402360","2018-03-13 06:00","2018","03","13","06:00","-33.2","","-36.5","","73","","","M","16","","3","","","M","101.54","","","","-37","","NA"
"-82.91","76.43","GRISE FIORD A","2402360","2018-03-13 07:00","2018","03","13","07:00","-33.0","","-36.4","","73","","","M","35","","2","","","M","101.51","","","","-35","","NA"
"-82.91","76.43","GRISE FIORD A","2402360","2018-03-13 08:00","2018","03","13","08:00","-32.3","","-35.6","","73","","","M","5","","4","","","M","101.49","","","","-37","","NA"
"-82.91","76.43","GRISE FIORD A","2402360","2018-03-13 09:00","2018","03","13","09:00","-35.2","","-38.9","","70","","","M","10","","2","","","M","101.52","","","","-38","","NA"
"-82.91","76.43","GRISE FIORD A","2402360","2018-03-13 10:00","2018","03","13","10:00","-33.4","","-36.8","","72","","","M","10","","5","","","M","101.50","","","","-39","","NA"
"-82.91","76.43","GRISE FIORD A","2402360","2018-03-13 11:00","2018","03","13","11:00","-33.1","","-36.6","","71","","","M","3","","4","","","M","101.49","","","","-38","","NA"
"-82.91","76.43","GRISE FIORD A","2402360","2018-03-13 12:00","2018","03","13","12:00","-34.9","","-38.6","","70","","","M","","","0","","","M","101.48","","","","","","NA"
"-82.91","76.43","GRISE FIORD A","2402360","2018-03-13 13:00","2018","03","13","13:00","-31.9","","-35.5","","71","","","M","7","","3","","","M","101.48","","","","-35","","NA"
"-82.91","76.43","GRISE FIORD A","2402360","2018-03-13 14:00","2018","03","13","14:00","-34.5","","-38.3","","70","","","M","22","","2","","","M","101.48","","","","-37","","NA"
"-82.91","76.43","GRISE FIORD A","2402360","2018-03-13 15:00","2018","03","13","15:00","-34.2","","-37.9","","70","","","M","18","","1","","","M","101.49","","","","-35","","NA"
"-82.91","76.43","GRISE FIORD A","2402360","2018-03-13 16:00","2018","03","13","16:00","-34.3","","-38.0","","70","","","M","15","","5","","","M","101.51","","","","-41","","NA"
"-82.91","76.43","GRISE FIORD A","2402360","2018-03-13 17:00","2018","03","13","17:00","-34.0","","-37.7","","70","","","M","17","","1","","","M","101.51","","","","-35","","NA"
"-82.91","76.43","GRISE FIORD A","2402360","2018-03-13 18:00","2018","03","13","18:00","-34.3","","-38.0","","70","","","M","7","","2","","","M","101.51","","","","-37","","NA"
"-82.91","76.43","GRISE FIORD A","2402360","2018-03-13 19:00","2018","03","13","19:00","-35.3","","-39.0","","69","","","M","19","","2","","","M","101.51","","","","-38","","NA"
"-82.91","76.43","GRISE FIORD A","2402360","2018-03-13 20:00","2018","03","13","20:00","-35.0","","-38.7","","70","","","M","0","","1","","","M","101.50","","","","-36","","NA"
"-82.91","76.43","GRISE FIORD A","2402360","2018-03-13 21:00","2018","03","13","21:00","-35.0","","-38.7","","70","","","M","10","","4","","","M","101.50","","","","-40","","NA"
"-82.91","76.43","GRISE FIORD A","2402360","2018-03-13 22:00","2018","03","13","22:00","-35.7","","-39.4","","69","","","M","5","","3","","","M","101.50","","","","-40","","NA"
"-82.91","76.43","GRISE FIORD A","2402360","2018-03-13 23:00","2018","03","13","23:00","-35.3","","-39.1","","69","","","M","13","","3","","","M","101.48","","","","-39","","NA"
"-82.91","76.43","GRISE FIORD A","2402360","2018-03-14 00:00","2018","03","14","00:00","-35.4","","-39.1","","69","","","M","11","","3","","","M","101.48","","","","-39","","NA"
"-82.91","76.43","GRISE FIORD A","2402360","2018-03-14 01:00","2018","03","14","01:00","-35.1","","-38.9","","69","","","M","9","","2","","","M","101.46","","","","-38","","NA"
"-82.91","76.43","GRISE FIORD A","2402360","2018-03-14 02:00","2018","03","14","02:00","-35.3","","-39.1","","69","","","M","7","","2","","","M","101.46","","","","-38","","NA"
"-82.91","76.43","GRISE FIORD A","2402360","2018-03-14 03:00","2018","03","14","03:00","-35.9","","-39.7","","69","","","M","13","","3","","","M","101.45","","","","-40","","NA"
"-82.91","76.43","GRISE FIORD A","2402360","2018-03-14 04:00","2018","03","14","04:00","-37.8","","-41.6","","68","","","M","16","","5","","","M","101.46","","","","-44","","NA"
"-82.91","76.43","GRISE FIORD A","2402360","2018-03-14 05:00","2018","03","14","05:00","-37.6","","-41.5","","68","","","M","5","","1","","","M","101.45","","","","-39","","NA"
"-82.91","76.43","GRISE FIORD A","2402360","2018-03-14 06:00","2018","03","14","06:00","-37.4","","-41.2","","68","","","M","8","","1","","","M","101.46","","","","-39","","NA"
"-82.91","76.43","GRISE FIORD A","2402360","2018-03-14 07:00","2018","03","14","07:00","-36.9","","-40.8","","68","","","M","29","","1","","","M","101.43","","","","-38","","NA"
"-82.91","76.43","GRISE FIORD A","2402360","2018-03-14 08:00","2018","03","14","08:00","-38.9","","-42.8","","67","","","M","29","","1","","","M","101.44","","","","-40","","NA"
"-82.91","76.43","GRISE FIORD A","2402360","2018-03-14 09:00","2018","03","14","09:00","-39.0","","-43.1","","67","","","M","17","","3","","","M","101.44","","","","-43","","NA"
"-82.91","76.43","GRISE FIORD A","2402360","2018-03-14 10:00","2018","03","14","10:00","-38.0","","-41.9","","68","","","M","5","","2","","","M","101.42","","","","-41","","NA"
"-82.91","76.43","GRISE FIORD A","2402360","2018-03-14 11:00","2018","03","14","11:00","-38.1","","-42.2","","67","","","M","24","","1","","","M","101.41","","","","-39","","NA"
"-82.91","76.43","GRISE FIORD A","2402360","2018-03-14 12:00","2018","03","14","12:00","-36.9","","-40.9","","68","","","M","4","","4","","","M","101.39","","","","-42","","NA"
"-82.91","76.43","GRISE FIORD A","2402360","2018-03-14 13:00","2018","03","14","13:00","-38.2","","-42.2","","67","","","M","10","","1","","","M","101.39","","","","-40","","NA"
"-82.91","76.43","GRISE FIORD A","2402360","2018-03-14 14:00","2018","03","14","14:00","-37.2","","-41.2","","67","","","M","9","","2","","","M","101.40","","","","-40","","NA"
"-82.91","76.43","GRISE FIORD A","2402360","2018-03-14 15:00","2018","03","14","15:00","-39.0","","-43.2","","66","","","M","0","","1","","","M","101.43","","","","-40","","NA"
"-82.91","76.43","GRISE FIORD A","2402360","2018-03-14 16:00","2018","03","14","16:00","-37.2","","-41.1","","68","","","M","8","","2","","","M","101.44","","","","-40","","NA"
"-82.91","76.43","GRISE FIORD A","2402360","2018-03-14 17:00","2018","03","14","17:00","-37.4","","-41.4","","68","","","M","2","","3","","","M","101.46","","","","-41","","NA"
"-82.91","76.43","GRISE FIORD A","2402360","2018-03-14 18:00","2018","03","14","18:00","-38.5","","-42.6","","67","","","M","30","","3","","","M","101.45","","","","-43","","NA"
"-82.91","76.43","GRISE FIORD A","2402360","2018-03-14 19:00","2018","03","14","19:00","-38.1","","-42.0","","68","","","M","28","","1","","","M","101.48","","","","-39","","NA"
"-82.91","76.43","GRISE FIORD A","2402360","2018-03-14 20:00","2018","03","14","20:00","-38.3","","-42.2","","68","","","M","8","","4","","","M","101.48","","","","-44","","NA"
"-82.91","76.43","GRISE FIORD A","2402360","2018-03-14 21:00","2018","03","14","21:00","-39.4","","-43.4","","67","","","M","26","","3","","","M","101.50","","","","-44","","NA"
"-82.91","76.43","GRISE FIORD A","2402360","2018-03-14 22:00","2018","03","14","22:00","-38.5","","-42.5","","67","","","M","2","","3","","","M","101.54","","","","-43","","NA"
"-82.91","76.43","GRISE FIORD A","2402360","2018-03-14 23:00","2018","03","14","23:00","-38.5","","-42.5","","67","","","M","8","","2","","","M","101.56","","","","-41","","NA"
"-82.91","76.43","GRISE FIORD A","2402360","2018-03-15 00:00","2018","03","15","00:00","-39.1","","-43.1","","67","","","M","17","","2","","","M","101.56","","","","-42","","NA"
"-82.91","76.43","GRISE FIORD A","2402360","2018-03-15 01:00","2018","03","15","01:00","-39.7","","-43.7","","66","","","M","14","","1","","","M","101.59","","","","-41","","NA"
"-82.91","76.43","GRISE FIORD A","2402360","2018-03-15 02:00","2018","03","15","02:00","-39.2","","-43.2","","67","","","M","8","","5","","","M","101.63","","","","-46","","NA"
"-82.91","76.43","GRISE FIORD A","2402360","2018-03-15 03:00","2018","03","15","03:00","-39.0","","-43.0","","67","","","M","15","","2","","","M","101.67","","","","-42","","NA"
"-82.91","76.43","GRISE FIORD A","2402360","2018-03-15 04:00","2018","03","15","04:00","-39.2","","-43.2","","67","","","M","21","","4","","","M","101.72","","","","-45","","NA"
"-82.91","76.43","GRISE FIORD A","2402360","2018-03-15 05:00","2018","03","15","05:00","-39.5","","-43.5","","66","","","M","18","","1","","","M","101.76","","","","-41","","NA"
"-82.91","76.43","GRISE FIORD A","2402360","2018-03-15 06:00","2018","03","15","06:00","-39.4","","-43.4","","66","","","M","20","","1","","","M","101.81","","","","-41","","NA"
"-82.91","76.43","GRISE FIORD A","2402360","2018-03-15 07:00","2018","03","15","07:00","-39.4","","-43.4","","66","","","M","24","","3","","","M","101.85","","","","-44","","NA"
"-82.91","76.43","GRISE FIORD A","2402360","2018-03-15 08:00","2018","03","15","08:00","-39.3","","-43.3","","66","","","M","28","","1","","","M","101.88","","","","-41","","NA"
"-82.91","76.43","GRISE FIORD A","2402360","2018-03-15 09:00","2018","03","15","09:00","-39.1","","-43.2","","66","","","M","0","","1","","","M","101.92","","","","-40","","NA"
"-82.91","76.43","GRISE FIORD A","2402360","2018-03-15 10:00","2018","03","15","10:00","-39.3","","-43.4","","66","","","M","25","","2","","","M","101.94","","","","-42","","NA"
"-82.91","76.43","GRISE FIORD A","2402360","2018-03-15 11:00","2018","03","15","11:00","-38.6","","-42.7","","66","","","M","3","","2","","","M","101.96","","","","-41","","NA"
"-82.91","76.43","GRISE FIORD A","2402360","2018-03-15 12:00","2018","03","15","12:00","-38.4","","-42.5","","66","","","M","34","","1","","","M","101.99","","","","-40","","NA"
"-82.91","76.43","GRISE FIORD A","2402360","2018-03-15 13:00","2018","03","15","13:00","-38.2","","-42.3","","66","","","M","5","","5","","","M","102.01","","","","-45","","NA"
"-82.91","76.43","GRISE FIORD A","2402360","2018-03-15 14:00","2018","03","15","14:00","-37.9","","-42.0","","66","","","M","0","","1","","","M","102.03","","","","-39","","NA"
"-82.91","76.43","GRISE FIORD A","2402360","2018-03-15 15:00","2018","03","15","15:00","-38.0","","-42.1","","66","","","M","24","","3","","","M","102.07","","","","-42","","NA"
"-82.91","76.43","GRISE FIORD A","2402360","2018-03-15 16:00","2018","03","15","16:00","-37.4","","-41.5","","67","","","M","3","","1","","","M","102.10","","","","-39","","NA"
"-82.91","76.43","GRISE FIORD A","2402360","2018-03-15 17:00","2018","03","15","17:00","-37.5","","-41.5","","67","","","M","14","","3","","","M","102.13","","","","-41","","NA"
"-82.91","76.43","GRISE FIORD A","2402360","2018-03-15 18:00","2018","03","15","18:00","-37.8","","-41.9","","67","","","M","24","","3","","","M","102.14","","","","-42","","NA"
"-82.91","76.43","GRISE FIORD A","2402360","2018-03-15 19:00","2018","03","15","19:00","-39.0","","-43.0","","67","","","M","5","","3","","","M","102.18","","","","-43","","NA"
"-82.91","76.43","GRISE FIORD A","2402360","2018-03-15 20:00","2018","03","15","20:00","-38.9","","-43.0","","67","","","M","4","","7","","","M","102.18","","","","-48","","NA"
"-82.91","76.43","GRISE FIORD A","2402360","2018-03-15 21:00","2018","03","15","21:00","-37.9","","-41.9","","67","","","M","13","","1","","","M","102.20","","","","-39","","NA"
"-82.91","76.43","GRISE FIORD A","2402360","2018-03-15 22:00","2018","03","15","22:00","-37.8","","-41.8","","67","","","M","5","","3","","","M","102.21","","","","-42","","NA"
"-82.91","76.43","GRISE FIORD A","2402360","2018-03-15 23:00","2018","03","15","23:00","-38.1","","-42.1","","67","","","M","0","","1","","","M","102.20","","","","-39","","NA"
"-82.91","76.43","GRISE FIORD A","2402360","2018-03-16 00:00","2018","03","16","00:00","-38.7","","-42.8","","67","","","M","32","","2","","","M","102.24","","","","-41","","NA"
"-82.91","76.43","GRISE FIORD A","2402360","2018-03-16 01:00","2018","03","16","01:00","-38.4","","-42.5","","67","","","M","34","","2","","","M","102.24","","","","-41","","NA"
"-82.91","76.43","GRISE FIORD A","2402360","2018-03-16 02:00","2018","03","16","02:00","-38.8","","-42.8","","67","","","M","5","","1","","","M","102.28","","","","-40","","NA"
"-82.91","76.43","GRISE FIORD A","2402360","2018-03-16 03:00","2018","03","16","03:00","-38.5","","-42.5","","67","","","M","3","","5","","","M","102.29","","","","-45","","NA"
"-82.91","76.43","GRISE FIORD A","2402360","2018-03-16 04:00","2018","03","16","04:00","-39.1","","-43.2","","66","","","M","1","","2","","","M","102.32","","","","-42","","NA"
"-82.91","76.43","GRISE FIORD A","2402360","2018-03-16 05:00","2018","03","16","05:00","-38.7","","-42.8","","67","","","M","7","","3","","","M","102.34","","","","-43","","NA"
"-82.91","76.43","GRISE FIORD A","2402360","2018-03-16 06:00","2018","03","16","06:00","-38.4","","-42.5","","67","","","M","19","","1","","","M","102.34","","","","-40","","NA"
"-82.91","76.43","GRISE FIORD A","2402360","2018-03-16 07:00","2018","03","16","07:00","-38.8","","-42.9","","67","","","M","11","","3","","","M","102.35","","","","-43","","NA"
"-82.91","76.43","GRISE FIORD A","2402360","2018-03-16 08:00","2018","03","16","08:00","-38.7","","-42.7","","67","","","M","5","","5","","","M","102.35","","","","-45","","NA"
"-82.91","76.43","GRISE FIORD A","2402360","2018-03-16 09:00","2018","03","16","09:00","-37.6","","-41.6","","67","","","M","26","","1","","","M","102.36","","","","-39","","NA"
"-82.91","76.43","GRISE FIORD A","2402360","2018-03-16 10:00","2018","03","16","10:00","-38.6","","-42.6","","67","","","M","5","","2","","","M","102.40","","","","-41","","NA"
"-82.91","76.43","GRISE FIORD A","2402360","2018-03-16 11:00","2018","03","16","11:00","-37.5","","-41.6","","67","","","M","9","","1","","","M","102.40","","","","-39","","NA"
"-82.91","76.43","GRISE FIORD A","2402360","2018-03-16 12:00","2018","03","16","12:00","-37.9","","-42.1","","66","","","M","20","","1","","","M","102.40","","","","-39","","NA"
"-82.91","76.43","GRISE FIORD A","2402360","2018-03-16 13:00","2018","03","16","13:00","-36.4","","-40.5","","67","","","M","32","","3","","","M","102.39","","","","-40","","NA"
"-82.91","76.43","GRISE FIORD A","2402360","2018-03-16 14:00","2018","03","16","14:00","-36.8","","-40.8","","67","","","M","9","","4","","","M","102.39","","","","-42","","NA"
"-82.91","76.43","GRISE FIORD A","2402360","2018-03-16 15:00","2018","03","16","15:00","-38.4","","-42.5","","66","","","M","15","","5","","","M","102.40","","","","-45","","NA"
"-82.91","76.43","GRISE FIORD A","2402360","2018-03-16 16:00","2018","03","16","16:00","-38.3","","-42.4","","66","","","M","1","","5","","","M","102.42","","","","-45","","NA"
"-82.91","76.43","GRISE FIORD A","2402360","2018-03-16 17:00","2018","03","16","17:00","-37.1","","-41.1","","67","","","M","8","","3","","","M","102.43","","","","-41","","NA"
"-82.91","76.43","GRISE FIORD A","2402360","2018-03-16 18:00","2018","03","16","18:00","-36.9","","-40.9","","67","","","M","5","","6","","","M","102.42","","","","-44","","NA"
"-82.91","76.43","GRISE FIORD A","2402360","2018-03-16 19:00","2018","03","16","19:00","-38.3","","-42.4","","66","","","M","27","","2","","","M","102.45","","","","-41","","NA"
"-82.91","76.43","GRISE FIORD A","2402360","2018-03-16 20:00","2018","03","16","20:00","-38.4","","-42.4","","67","","","M","1","","4","","","M","102.44","","","","-44","","NA"
"-82.91","76.43","GRISE FIORD A","2402360","2018-03-16 21:00","2018","03","16","21:00","-36.7","","-40.7","","68","","","M","20","","1","","","M","102.43","","","","-38","","NA"
"-82.91","76.43","GRISE FIORD A","2402360","2018-03-16 22:00","2018","03","16","22:00","-37.0","","-41.0","","67","","","M","34","","1","","","M","102.42","","","","-38","","NA"
"-82.91","76.43","GRISE FIORD A","2402360","2018-03-16 23:00","2018","03","16","23:00","-36.4","","-40.4","","68","","","M","20","","2","","","M","102.42","","","","-39","","NA"
"-82.91","76.43","GRISE FIORD A","2402360","2018-03-17 00:00","2018","03","17","00:00","-37.8","","-41.9","","67","","","M","27","","2","","","M","102.43","","","","-40","","NA"
"-82.91","76.43","GRISE FIORD A","2402360","2018-03-17 01:00","2018","03","17","01:00","-36.9","","-41.0","","67","","","M","27","","1","","","M","102.46","","","","-38","","NA"
"-82.91","76.43","GRISE FIORD A","2402360","2018-03-17 02:00","2018","03","17","02:00","-38.6","","-42.6","","67","","","M","17","","3","","","M","102.50","","","","-43","","NA"
"-82.91","76.43","GRISE FIORD A","2402360","2018-03-17 03:00","2018","03","17","03:00","-37.9","","-41.9","","67","","","M","13","","3","","","M","102.52","","","","-42","","NA"
"-82.91","76.43","GRISE FIORD A","2402360","2018-03-17 04:00","2018","03","17","04:00","-36.1","","-40.1","","68","","","M","10","","1","","","M","102.53","","","","-37","","NA"
"-82.91","76.43","GRISE FIORD A","2402360","2018-03-17 05:00","2018","03","17","05:00","-36.0","","-40.1","","67","","","M","0","","1","","","M","102.56","","","","-37","","NA"
"-82.91","76.43","GRISE FIORD A","2402360","2018-03-17 06:00","2018","03","17","06:00","-37.9","","-41.9","","67","","","M","8","","4","","","M","102.60","","","","-43","","NA"
"-82.91","76.43","GRISE FIORD A","2402360","2018-03-17 07:00","2018","03","17","07:00","-37.3","","-41.3","","67","","","M","12","","3","","","M","102.60","","","","-41","","NA"
"-82.91","76.43","GRISE FIORD A","2402360","2018-03-17 08:00","2018","03","17","08:00","-38.2","","-42.2","","67","","","M","32","","3","","","M","102.60","","","","-42","","NA"
"-82.91","76.43","GRISE FIORD A","2402360","2018-03-17 09:00","2018","03","17","09:00","-37.8","","-41.8","","67","","","M","5","","4","","","M","102.61","","","","-43","","NA"
"-82.91","76.43","GRISE FIORD A","2402360","2018-03-17 10:00","2018","03","17","10:00","-37.8","","-41.8","","67","","","M","1","","2","","","M","102.63","","","","-40","","NA"
"-82.91","76.43","GRISE FIORD A","2402360","2018-03-17 11:00","2018","03","17","11:00","-36.3","","-40.4","","67","","","M","35","","1","","","M","102.64","","","","-38","","NA"
"-82.91","76.43","GRISE FIORD A","2402360","2018-03-17 12:00","2018","03","17","12:00","-36.9","","-41.0","","66","","","M","15","","3","","","M","102.64","","","","-41","","NA"
"-82.91","76.43","GRISE FIORD A","2402360","2018-03-17 13:00","2018","03","17","13:00","-37.0","","-41.1","","67","","","M","12","","3","","","M","102.66","","","","-41","","NA"
"-82.91","76.43","GRISE FIORD A","2402360","2018-03-17 14:00","2018","03","17","14:00","-36.8","","-41.0","","66","","","M","2","","2","","","M","102.66","","","","-39","","NA"
"-82.91","76.43","GRISE FIORD A","2402360","2018-03-17 15:00","2018","03","17","15:00","-36.9","","-41.1","","66","","","M","30","","2","","","M","102.67","","","","-40","","NA"
"-82.91","76.43","GRISE FIORD A","2402360","2018-03-17 16:00","2018","03","17","16:00","-36.5","","-40.6","","67","","","M","9","","2","","","M","102.68","","","","-39","","NA"
"-82.91","76.43","GRISE FIORD A","2402360","2018-03-17 17:00","2018","03","17","17:00","-37.3","","-41.4","","67","","","M","28","","1","","","M","102.68","","","","-39","","NA"
"-82.91","76.43","GRISE FIORD A","2402360","2018-03-17 18:00","2018","03","17","18:00","-36.5","","-40.6","","67","","","M","36","","3","","","M","102.67","","","","-40","","NA"
"-82.91","76.43","GRISE FIORD A","2402360","2018-03-17 19:00","2018","03","17","19:00","-36.1","","-40.0","","69","","","M","10","","1","","","M","102.66","","","","-37","","NA"
"-82.91","76.43","GRISE FIORD A","2402360","2018-03-17 20:00","2018","03","17","20:00","-37.4","","-41.3","","68","","","M","31","","1","","","M","102.64","","","","-39","","NA"
"-82.91","76.43","GRISE FIORD A","2402360","2018-03-17 21:00","2018","03","17","21:00","-37.5","","-41.4","","68","","","M","24","","1","","","M","102.57","","","","-39","","NA"
"-82.91","76.43","GRISE FIORD A","2402360","2018-03-17 22:00","2018","03","17","22:00","-36.6","","-40.4","","68","","","M","10","","3","","","M","102.57","","","","-41","","NA"
"-82.91","76.43","GRISE FIORD A","2402360","2018-03-17 23:00","2018","03","17","23:00","-38.2","","-42.1","","67","","","M","11","","2","","","M","102.54","","","","-41","","NA"
"-82.91","76.43","GRISE FIORD A","2402360","2018-03-18 00:00","2018","03","18","00:00","-37.1","","-41.0","","68","","","M","5","","2","","","M","102.52","","","","-40","","NA"
"-82.91","76.43","GRISE FIORD A","2402360","2018-03-18 01:00","2018","03","18","01:00","-35.9","","-39.7","","69","","","M","11","","3","","","M","102.48","","","","-40","","NA"
"-82.91","76.43","GRISE FIORD A","2402360","2018-03-18 02:00","2018","03","18","02:00","-37.5","","-41.3","","68","","","M","5","","3","","","M","102.45","","","","-41","","NA"
"-82.91","76.43","GRISE FIORD A","2402360","2018-03-18 03:00","2018","03","18","03:00","-38.8","","-42.7","","67","","","M","16","","6","","","M","102.44","","","","-47","","NA"
"-82.91","76.43","GRISE FIORD A","2402360","2018-03-18 04:00","2018","03","18","04:00","-37.7","","-41.6","","68","","","M","0","","1","","","M","102.40","","","","-39","","NA"
"-82.91","76.43","GRISE FIORD A","2402360","2018-03-18 05:00","2018","03","18","05:00","-38.9","","-42.9","","67","","","M","1","","2","","","M","102.38","","","","-42","","NA"
"-82.91","76.43","GRISE FIORD A","2402360","2018-03-18 06:00","2018","03","18","06:00","-37.1","","-41.0","","68","","","M","23","","2","","","M","102.34","","","","-40","","NA"
"-82.91","76.43","GRISE FIORD A","2402360","2018-03-18 07:00","2018","03","18","07:00","-39.3","","-43.4","","66","","","M","1","","2","","","M","102.31","","","","-42","","NA"
"-82.91","76.43","GRISE FIORD A","2402360","2018-03-18 08:00","2018","03","18","08:00","-39.6","","-43.8","","66","","","M","8","","4","","","M","102.28","","","","-45","","NA"
"-82.91","76.43","GRISE FIORD A","2402360","2018-03-18 09:00","2018","03","18","09:00","-39.2","","-43.3","","66","","","M","13","","3","","","M","102.23","","","","-43","","NA"
"-82.91","76.43","GRISE FIORD A","2402360","2018-03-18 10:00","2018","03","18","10:00","-39.3","","-43.4","","66","","","M","12","","3","","","M","102.20","","","","-43","","NA"
"-82.91","76.43","GRISE FIORD A","2402360","2018-03-18 11:00","2018","03","18","11:00","-38.4","","-42.5","","66","","","M","12","","3","","","M","102.19","","","","-42","","NA"
"-82.91","76.43","GRISE FIORD A","2402360","2018-03-18 12:00","2018","03","18","12:00","-38.2","","-42.4","","66","","","M","7","","3","","","M","102.17","","","","-42","","NA"
"-82.91","76.43","GRISE FIORD A","2402360","2018-03-18 13:00","2018","03","18","13:00","-37.3","","-41.4","","67","","","M","5","","5","","","M","102.14","","","","-44","","NA"
"-82.91","76.43","GRISE FIORD A","2402360","2018-03-18 14:00","2018","03","18","14:00","-36.6","","-40.7","","67","","","M","3","","1","","","M","102.10","","","","-38","","NA"
"-82.91","76.43","GRISE FIORD A","2402360","2018-03-18 15:00","2018","03","18","15:00","-37.1","","-41.1","","67","","","M","35","","1","","","M","102.09","","","","-38","","NA"
"-82.91","76.43","GRISE FIORD A","2402360","2018-03-18 16:00","2018","03","18","16:00","-37.0","","-41.2","","67","","","M","22","","4","","","M","102.09","","","","-42","","NA"
"-82.91","76.43","GRISE FIORD A","2402360","2018-03-18 17:00","2018","03","18","17:00","-36.7","","-40.7","","67","","","M","32","","3","","","M","102.08","","","","-41","","NA"
"-82.91","76.43","GRISE FIORD A","2402360","2018-03-18 18:00","2018","03","18","18:00","-37.9","","-41.8","","67","","","M","0","","1","","","M","102.06","","","","-39","","NA"
"-82.91","76.43","GRISE FIORD A","2402360","2018-03-18 19:00","2018","03","18","19:00","-34.5","","-38.3","","69","","","M","36","","5","","","M","102.03","","","","-41","","NA"
"-82.91","76.43","GRISE FIORD A","2402360","2018-03-18 20:00","2018","03","18","20:00","-38.4","","-42.5","","66","","","M","30","","3","","","M","102.00","","","","-42","","NA"
"-82.91","76.43","GRISE FIORD A","2402360","2018-03-18 21:00","2018","03","18","21:00","-37.7","","-41.7","","67","","","M","14","","3","","","M","101.97","","","","-42","","NA"
"-82.91","76.43","GRISE FIORD A","2402360","2018-03-18 22:00","2018","03","18","22:00","-36.7","","-40.6","","68","","","M","18","","1","","","M","101.94","","","","-38","","NA"
"-82.91","76.43","GRISE FIORD A","2402360","2018-03-18 23:00","2018","03","18","23:00","-38.2","","-42.2","","67","","","M","34","","1","","","M","101.90","","","","-40","","NA"
"-82.91","76.43","GRISE FIORD A","2402360","2018-03-19 00:00","2018","03","19","00:00","-35.3","","-39.1","","69","","","M","6","","6","","","M","101.86","","","","-43","","NA"
"-82.91","76.43","GRISE FIORD A","2402360","2018-03-19 01:00","2018","03","19","01:00","-33.0","","-36.7","","70","","","M","6","","6","","","M","101.82","","","","-40","","NA"
"-82.91","76.43","GRISE FIORD A","2402360","2018-03-19 02:00","2018","03","19","02:00","-36.0","","-39.8","","69","","","M","12","","5","","","M","101.79","","","","-42","","NA"
"-82.91","76.43","GRISE FIORD A","2402360","2018-03-19 03:00","2018","03","19","03:00","-36.0","","-39.9","","69","","","M","3","","3","","","M","101.76","","","","-40","","NA"
"-82.91","76.43","GRISE FIORD A","2402360","2018-03-19 04:00","2018","03","19","04:00","-37.8","","-41.8","","67","","","M","13","","2","","","M","101.76","","","","-40","","NA"
"-82.91","76.43","GRISE FIORD A","2402360","2018-03-19 05:00","2018","03","19","05:00","-37.3","","-41.2","","68","","","M","1","","2","","","M","101.74","","","","-40","","NA"
"-82.91","76.43","GRISE FIORD A","2402360","2018-03-19 06:00","2018","03","19","06:00","-36.1","","-39.9","","69","","","M","24","","4","","","M","101.72","","","","-41","","NA"
"-82.91","76.43","GRISE FIORD A","2402360","2018-03-19 07:00","2018","03","19","07:00","-37.5","","-41.5","","68","","","M","24","","2","","","M","101.68","","","","-40","","NA"
"-82.91","76.43","GRISE FIORD A","2402360","2018-03-19 08:00","2018","03","19","08:00","-38.0","","-42.0","","67","","","M","7","","2","","","M","101.65","","","","-41","","NA"
"-82.91","76.43","GRISE FIORD A","2402360","2018-03-19 09:00","2018","03","19","09:00","-36.0","","-39.9","","69","","","M","35","","3","","","M","101.61","","","","-40","","NA"
"-82.91","76.43","GRISE FIORD A","2402360","2018-03-19 10:00","2018","03","19","10:00","-37.5","","-41.6","","67","","","M","23","","1","","","M","101.59","","","","-39","","NA"
"-82.91","76.43","GRISE FIORD A","2402360","2018-03-19 11:00","2018","03","19","11:00","-34.6","","-38.4","","69","","","M","17","","1","","","M","101.56","","","","-36","","NA"
"-82.91","76.43","GRISE FIORD A","2402360","2018-03-19 12:00","2018","03","19","12:00","-36.5","","-40.6","","66","","","M","25","","2","","","M","101.53","","","","-39","","NA"
"-82.91","76.43","GRISE FIORD A","2402360","2018-03-19 13:00","2018","03","19","13:00","-33.2","","-36.9","","70","","","M","0","","1","","","M","101.49","","","","-34","","NA"
"-82.91","76.43","GRISE FIORD A","2402360","2018-03-19 14:00","2018","03","19","14:00","-34.3","","-38.2","","69","","","M","","","0","","","M","101.46","","","","","","NA"
"-82.91","76.43","GRISE FIORD A","2402360","2018-03-19 15:00","2018","03","19","15:00","-35.3","","-39.3","","68","","","M","35","","2","","","M","101.40","","","","-38","","NA"
"-82.91","76.43","GRISE FIORD A","2402360","2018-03-19 16:00","2018","03","19","16:00","-35.7","","-39.7","","68","","","M","","","0","","","M","101.38","","","","","","NA"
"-82.91","76.43","GRISE FIORD A","2402360","2018-03-19 17:00","2018","03","19","17:00","-36.1","","-40.0","","68","","","M","8","","1","","","M","101.37","","","","-37","","NA"
"-82.91","76.43","GRISE FIORD A","2402360","2018-03-19 18:00","2018","03","19","18:00","-36.3","","-40.3","","68","","","M","36","","5","","","M","101.34","","","","-43","","NA"
"-82.91","76.43","GRISE FIORD A","2402360","2018-03-19 19:00","2018","03","19","19:00","-35.6","","-39.5","","69","","","M","5","","4","","","M","101.32","","","","-41","","NA"
"-82.91","76.43","GRISE FIORD A","2402360","2018-03-19 20:00","2018","03","19","20:00","-36.5","","-40.6","","67","","","M","20","","3","","","M","101.26","","","","-40","","NA"
"-82.91","76.43","GRISE FIORD A","2402360","2018-03-19 21:00","2018","03","19","21:00","-38.5","","-42.6","","67","","","M","16","","3","","","M","101.25","","","","-43","","NA"
"-82.91","76.43","GRISE FIORD A","2402360","2018-03-19 22:00","2018","03","19","22:00","-36.2","","-40.0","","69","","","M","9","","4","","","M","101.21","","","","-41","","NA"
"-82.91","76.43","GRISE FIORD A","2402360","2018-03-19 23:00","2018","03","19","23:00","-35.9","","-39.8","","68","","","M","","","0","","","M","101.18","","","","","","NA"
"-82.91","76.43","GRISE FIORD A","2402360","2018-03-20 00:00","2018","03","20","00:00","-35.1","","-38.8","","70","","","M","4","","1","","","M","101.14","","","","-36","","NA"
"-82.91","76.43","GRISE FIORD A","2402360","2018-03-20 01:00","2018","03","20","01:00","-35.9","","-39.7","","69","","","M","8","","5","","","M","101.12","","","","-42","","NA"
"-82.91","76.43","GRISE FIORD A","2402360","2018-03-20 02:00","2018","03","20","02:00","-34.4","","-38.2","","70","","","M","10","","4","","","M","101.11","","","","-39","","NA"
"-82.91","76.43","GRISE FIORD A","2402360","2018-03-20 03:00","2018","03","20","03:00","-36.1","","-39.9","","69","","","M","4","","3","","","M","101.07","","","","-40","","NA"
"-82.91","76.43","GRISE FIORD A","2402360","2018-03-20 04:00","2018","03","20","04:00","-35.7","","-39.5","","69","","","M","4","","2","","","M","101.03","","","","-38","","NA"
"-82.91","76.43","GRISE FIORD A","2402360","2018-03-20 05:00","2018","03","20","05:00","-37.2","","-41.2","","68","","","M","32","","2","","","M","100.99","","","","-40","","NA"
"-82.91","76.43","GRISE FIORD A","2402360","2018-03-20 06:00","2018","03","20","06:00","-37.2","","-41.1","","68","","","M","12","","4","","","M","100.99","","","","-42","","NA"
"-82.91","76.43","GRISE FIORD A","2402360","2018-03-20 07:00","2018","03","20","07:00","-35.4","","-39.2","","69","","","M","12","","3","","","M","100.95","","","","-39","","NA"
"-82.91","76.43","GRISE FIORD A","2402360","2018-03-20 08:00","2018","03","20","08:00","-36.1","","-40.0","","69","","","M","2","","3","","","M","100.92","","","","-40","","NA"
"-82.91","76.43","GRISE FIORD A","2402360","2018-03-20 09:00","2018","03","20","09:00","-36.4","","-40.3","","68","","","M","3","","5","","","M","100.87","","","","-43","","NA"
"-82.91","76.43","GRISE FIORD A","2402360","2018-03-20 10:00","2018","03","20","10:00","-36.0","","-39.8","","69","","","M","2","","4","","","M","100.84","","","","-41","","NA"
"-82.91","76.43","GRISE FIORD A","2402360","2018-03-20 11:00","2018","03","20","11:00","-34.5","","-38.3","","69","","","M","4","","5","","","M","100.78","","","","-41","","NA"
"-82.91","76.43","GRISE FIORD A","2402360","2018-03-20 12:00","2018","03","20","12:00","-35.5","","-39.5","","68","","","M","11","","3","","","M","100.79","","","","-39","","NA"
"-82.91","76.43","GRISE FIORD A","2402360","2018-03-20 13:00","2018","03","20","13:00","-35.3","","-39.3","","68","","","M","18","","2","","","M","100.77","","","","-38","","NA"
"-82.91","76.43","GRISE FIORD A","2402360","2018-03-20 14:00","2018","03","20","14:00","-34.0","","-37.8","","69","","","M","2","","3","","","M","100.75","","","","-38","","NA"
"-82.91","76.43","GRISE FIORD A","2402360","2018-03-20 15:00","2018","03","20","15:00","-32.8","","-36.5","","70","","","M","35","","2","","","M","100.75","","","","-35","","NA"
"-82.91","76.43","GRISE FIORD A","2402360","2018-03-20 16:00","2018","03","20","16:00","-35.1","","-39.0","","69","","","M","8","","2","","","M","100.77","","","","-38","","NA"
"-82.91","76.43","GRISE FIORD A","2402360","2018-03-20 17:00","2018","03","20","17:00","-36.3","","-40.3","","67","","","M","14","","3","","","M","100.78","","","","-40","","NA"
"-82.91","76.43","GRISE FIORD A","2402360","2018-03-20 18:00","2018","03","20","18:00","-33.8","","-37.5","","70","","","M","1","","5","","","M","100.77","","","","-40","","NA"
"-82.91","76.43","GRISE FIORD A","2402360","2018-03-20 19:00","2018","03","20","19:00","-34.9","","-38.6","","70","","","M","12","","3","","","M","100.78","","","","-39","","NA"
"-82.91","76.43","GRISE FIORD A","2402360","2018-03-20 20:00","2018","03","20","20:00","-34.9","","-38.7","","70","","","M","4","","4","","","M","100.80","","","","-40","","NA"
"-82.91","76.43","GRISE FIORD A","2402360","2018-03-20 21:00","2018","03","20","21:00","-34.8","","-38.6","","69","","","M","31","","4","","","M","100.82","","","","-40","","NA"
"-82.91","76.43","GRISE FIORD A","2402360","2018-03-20 22:00","2018","03","20","22:00","-34.1","","-37.9","","70","","","M","25","","4","","","M","100.81","","","","-39","","NA"
"-82.91","76.43","GRISE FIORD A","2402360","2018-03-20 23:00","2018","03","20","23:00","-36.3","","-40.1","","69","","","M","7","","8","","","M","100.86","","","","-45","","NA"
"-82.91","76.43","GRISE FIORD A","2402360","2018-03-21 00:00","2018","03","21","00:00","-38.9","","-43.1","","66","","","M","27","","5","","","M","100.87","","","","-46","","NA"
"-82.91","76.43","GRISE FIORD A","2402360","2018-03-21 01:00","2018","03","21","01:00","-34.0","","-37.7","","70","","","M","11","","5","","","M","100.88","","","","-40","","NA"
"-82.91","76.43","GRISE FIORD A","2402360","2018-03-21 02:00","2018","03","21","02:00","-34.2","","-38.0","","69","","","M","7","","7","","","M","100.90","","","","-42","","NA"
"-82.91","76.43","GRISE FIORD A","2402360","2018-03-21 03:00","2018","03","21","03:00","-35.6","","-39.5","","68","","","M","7","","2","","","M","100.95","","","","-38","","NA"
"-82.91","76.43","GRISE FIORD A","2402360","2018-03-21 04:00","2018","03","21","04:00","-35.6","","-39.4","","69","","","M","31","","1","","","M","100.99","","","","-37","","NA"
"-82.91","76.43","GRISE FIORD A","2402360","2018-03-21 05:00","2018","03","21","05:00","-35.4","","-39.2","","69","","","M","12","","2","","","M","101.02","","","","-38","","NA"
"-82.91","76.43","GRISE FIORD A","2402360","2018-03-21 06:00","2018","03","21","06:00","-34.8","","-38.6","","69","","","M","10","","2","","","M","101.08","","","","-37","","NA"
"-82.91","76.43","GRISE FIORD A","2402360","2018-03-21 07:00","2018","03","21","07:00","-36.0","","-40.0","","68","","","M","31","","4","","","M","101.12","","","","-41","","NA"
"-82.91","76.43","GRISE FIORD A","2402360","2018-03-21 08:00","2018","03","21","08:00","-34.6","","-38.4","","70","","","M","9","","4","","","M","101.17","","","","-40","","NA"
"-82.91","76.43","GRISE FIORD A","2402360","2018-03-21 09:00","2018","03","21","09:00","-34.7","","-38.5","","69","","","M","13","","2","","","M","101.19","","","","-37","","NA"
"-82.91","76.43","GRISE FIORD A","2402360","2018-03-21 10:00","2018","03","21","10:00","-33.8","","-37.6","","70","","","M","7","","4","","","M","101.25","","","","-39","","NA"
"-82.91","76.43","GRISE FIORD A","2402360","2018-03-21 11:00","2018","03","21","11:00","-33.7","","-37.5","","69","","","M","10","","4","","","M","101.27","","","","-39","","NA"
"-82.91","76.43","GRISE FIORD A","2402360","2018-03-21 12:00","2018","03","21","12:00","-33.3","","-37.2","","69","","","M","13","","1","","","M","101.29","","","","-35","","NA"
"-82.91","76.43","GRISE FIORD A","2402360","2018-03-21 13:00","2018","03","21","13:00","-32.5","","-36.3","","70","","","M","5","","8","","","M","101.36","","","","-41","","NA"
"-82.91","76.43","GRISE FIORD A","2402360","2018-03-21 14:00","2018","03","21","14:00","-33.1","","-37.0","","69","","","M","29","","3","","","M","101.39","","","","-37","","NA"
"-82.91","76.43","GRISE FIORD A","2402360","2018-03-21 15:00","2018","03","21","15:00","-32.5","","-36.2","","70","","","M","8","","3","","","M","101.43","","","","-36","","NA"
"-82.91","76.43","GRISE FIORD A","2402360","2018-03-21 16:00","2018","03","21","16:00","-33.0","","-36.9","","69","","","M","21","","2","","","M","101.46","","","","-35","","NA"
"-82.91","76.43","GRISE FIORD A","2402360","2018-03-21 17:00","2018","03","21","17:00","-33.0","","-36.8","","70","","","M","12","","4","","","M","101.53","","","","-38","","NA"
"-82.91","76.43","GRISE FIORD A","2402360","2018-03-21 18:00","2018","03","21","18:00","-32.5","","-36.1","","71","","","M","8","","5","","","M","101.56","","","","-38","","NA"
"-82.91","76.43","GRISE FIORD A","2402360","2018-03-21 19:00","2018","03","21","19:00","-33.1","","-36.8","","70","","","M","6","","4","","","M","101.59","","","","-38","","NA"
"-82.91","76.43","GRISE FIORD A","2402360","2018-03-21 20:00","2018","03","21","20:00","-32.9","","-36.6","","71","","","M","15","","5","","","M","101.62","","","","-39","","NA"
"-82.91","76.43","GRISE FIORD A","2402360","2018-03-21 21:00","2018","03","21","21:00","-34.7","","-38.4","","70","","","M","4","","3","","","M","101.64","","","","-38","","NA"
"-82.91","76.43","GRISE FIORD A","2402360","2018-03-21 22:00","2018","03","21","22:00","-33.6","","-37.3","","70","","","M","25","","4","","","M","101.62","","","","-38","","NA"
"-82.91","76.43","GRISE FIORD A","2402360","2018-03-21 23:00","2018","03","21","23:00","-34.3","","-38.0","","70","","","M","6","","3","","","M","101.62","","","","-38","","NA"
"-82.91","76.43","GRISE FIORD A","2402360","2018-03-22 00:00","2018","03","22","00:00","-34.7","","-38.5","","69","","","M","6","","7","","","M","101.63","","","","-43","","NA"
"-82.91","76.43","GRISE FIORD A","2402360","2018-03-22 01:00","2018","03","22","01:00","-34.3","","-38.0","","70","","","M","0","","1","","","M","101.66","","","","-36","","NA"
"-82.91","76.43","GRISE FIORD A","2402360","2018-03-22 02:00","2018","03","22","02:00","-34.2","","-38.0","","69","","","M","12","","5","","","M","101.67","","","","-40","","NA"
"-82.91","76.43","GRISE FIORD A","2402360","2018-03-22 03:00","2018","03","22","03:00","-34.1","","-37.8","","70","","","M","7","","7","","","M","101.66","","","","-42","","NA"
"-82.91","76.43","GRISE FIORD A","2402360","2018-03-22 04:00","2018","03","22","04:00","-34.7","","-38.5","","69","","","M","8","","3","","","M","101.65","","","","-38","","NA"
"-82.91","76.43","GRISE FIORD A","2402360","2018-03-22 05:00","2018","03","22","05:00","-33.9","","-37.6","","70","","","M","4","","4","","","M","101.66","","","","-39","","NA"
"-82.91","76.43","GRISE FIORD A","2402360","2018-03-22 06:00","2018","03","22","06:00","-34.7","","-38.5","","69","","","M","8","","2","","","M","101.67","","","","-37","","NA"
"-82.91","76.43","GRISE FIORD A","2402360","2018-03-22 07:00","2018","03","22","07:00","-34.9","","-38.6","","69","","","M","14","","5","","","M","101.68","","","","-41","","NA"
"-82.91","76.43","GRISE FIORD A","2402360","2018-03-22 08:00","2018","03","22","08:00","-34.7","","-38.5","","69","","","M","10","","7","","","M","101.66","","","","-43","","NA"
"-82.91","76.43","GRISE FIORD A","2402360","2018-03-22 09:00","2018","03","22","09:00","-34.8","","-38.6","","69","","","M","9","","3","","","M","101.65","","","","-39","","NA"
"-82.91","76.43","GRISE FIORD A","2402360","2018-03-22 10:00","2018","03","22","10:00","-34.4","","-38.2","","69","","","M","2","","1","","","M","101.63","","","","-36","","NA"
"-82.91","76.43","GRISE FIORD A","2402360","2018-03-22 11:00","2018","03","22","11:00","-33.6","","-37.4","","70","","","M","13","","3","","","M","101.65","","","","-37","","NA"
"-82.91","76.43","GRISE FIORD A","2402360","2018-03-22 12:00","2018","03","22","12:00","-33.5","","-37.2","","70","","","M","6","","4","","","M","101.67","","","","-38","","NA"
"-82.91","76.43","GRISE FIORD A","2402360","2018-03-22 13:00","2018","03","22","13:00","-31.9","","-35.6","","71","","","M","4","","1","","","M","101.68","","","","-33","","NA"
"-82.91","76.43","GRISE FIORD A","2402360","2018-03-22 14:00","2018","03","22","14:00","-32.8","","-36.5","","70","","","M","6","","4","","","M","101.70","","","","-38","","NA"
"-82.91","76.43","GRISE FIORD A","2402360","2018-03-22 15:00","2018","03","22","15:00","-31.6","","-35.2","","71","","","M","16","","3","","","M","101.73","","","","-35","","NA"
"-82.91","76.43","GRISE FIORD A","2402360","2018-03-22 16:00","2018","03","22","16:00","-32.1","","-35.8","","71","","","M","12","","4","","","M","101.72","","","","-37","","NA"
"-82.91","76.43","GRISE FIORD A","2402360","2018-03-22 17:00","2018","03","22","17:00","-31.3","","-34.9","","72","","","M","11","","3","","","M","101.76","","","","-35","","NA"
"-82.91","76.43","GRISE FIORD A","2402360","2018-03-22 18:00","2018","03","22","18:00","-32.4","","-36.0","","71","","","M","7","","7","","","M","101.78","","","","-40","","NA"
"-82.91","76.43","GRISE FIORD A","2402360","2018-03-22 19:00","2018","03","22","19:00","-32.4","","-36.0","","71","","","M","7","","5","","","M","101.79","","","","-38","","NA"
"-82.91","76.43","GRISE FIORD A","2402360","2018-03-22 20:00","2018","03","22","20:00","-32.8","","-36.4","","71","","","M","5","","8","","","M","101.79","","","","-41","","NA"
"-82.91","76.43","GRISE FIORD A","2402360","2018-03-22 21:00","2018","03","22","21:00","-34.1","","-37.8","","70","","","M","6","","5","","","M","101.79","","","","-40","","NA"
"-82.91","76.43","GRISE FIORD A","2402360","2018-03-22 22:00","2018","03","22","22:00","-33.5","","-37.2","","70","","","M","3","","4","","","M","101.80","","","","-38","","NA"
"-82.91","76.43","GRISE FIORD A","2402360","2018-03-22 23:00","2018","03","22","23:00","-33.4","","-37.0","","70","","","M","33","","3","","","M","101.81","","","","-37","","NA"
"-82.91","76.43","GRISE FIORD A","2402360","2018-03-23 00:00","2018","03","23","00:00","-33.4","","-37.1","","70","","","M","5","","11","","","M","101.81","","","","-44","","NA"
"-82.91","76.43","GRISE FIORD A","2402360","2018-03-23 01:00","2018","03","23","01:00","-33.3","","-37.0","","70","","","M","5","","3","","","M","101.83","","","","-37","","NA"
"-82.91","76.43","GRISE FIORD A","2402360","2018-03-23 02:00","2018","03","23","02:00","-34.0","","-37.7","","70","","","M","35","","3","","","M","101.85","","","","-38","","NA"
"-82.91","76.43","GRISE FIORD A","2402360","2018-03-23 03:00","2018","03","23","03:00","-31.7","","-35.2","","72","","","M","6","","18","","","M","101.82","","","","-45","","NA"
"-82.91","76.43","GRISE FIORD A","2402360","2018-03-23 04:00","2018","03","23","04:00","-33.0","","-36.5","","71","","","M","6","","2","","","M","101.86","","","","-35","","NA"
"-82.91","76.43","GRISE FIORD A","2402360","2018-03-23 05:00","2018","03","23","05:00","-35.2","","-39.0","","69","","","M","11","","4","","","M","101.86","","","","-40","","NA"
"-82.91","76.43","GRISE FIORD A","2402360","2018-03-23 06:00","2018","03","23","06:00","-34.4","","-38.1","","70","","","M","7","","1","","","M","101.88","","","","-36","","NA"
"-82.91","76.43","GRISE FIORD A","2402360","2018-03-23 07:00","2018","03","23","07:00","-33.8","","-37.4","","70","","","M","6","","1","","","M","101.87","","","","-35","","NA"
"-82.91","76.43","GRISE FIORD A","2402360","2018-03-23 08:00","2018","03","23","08:00","-34.2","","-37.9","","70","","","M","35","","3","","","M","101.87","","","","-38","","NA"
"-82.91","76.43","GRISE FIORD A","2402360","2018-03-23 09:00","2018","03","23","09:00","-34.3","","-38.1","","69","","","M","5","","3","","","M","101.87","","","","-38","","NA"
"-82.91","76.43","GRISE FIORD A","2402360","2018-03-23 10:00","2018","03","23","10:00","-32.1","","-35.8","","71","","","M","4","","3","","","M","101.89","","","","-36","","NA"
"-82.91","76.43","GRISE FIORD A","2402360","2018-03-23 11:00","2018","03","23","11:00","-32.6","","-36.4","","70","","","M","2","","3","","","M","101.91","","","","-36","","NA"
"-82.91","76.43","GRISE FIORD A","2402360","2018-03-23 12:00","2018","03","23","12:00","-31.9","","-35.5","","71","","","M","30","","1","","","M","101.89","","","","-33","","NA"
"-82.91","76.43","GRISE FIORD A","2402360","2018-03-23 13:00","2018","03","23","13:00","-32.5","","-36.3","","70","","","M","4","","4","","","M","101.91","","","","-37","","NA"
"-82.91","76.43","GRISE FIORD A","2402360","2018-03-23 14:00","2018","03","23","14:00","-31.9","","-35.7","","70","","","M","7","","3","","","M","101.91","","","","-35","","NA"
"-82.91","76.43","GRISE FIORD A","2402360","2018-03-23 15:00","2018","03","23","15:00","-32.0","","-35.7","","70","","","M","8","","1","","","M","101.92","","","","-33","","NA"
"-82.91","76.43","GRISE FIORD A","2402360","2018-03-23 16:00","2018","03","23","16:00","-33.1","","-36.9","","70","","","M","11","","1","","","M","101.93","","","","-34","","NA"
"-82.91","76.43","GRISE FIORD A","2402360","2018-03-23 17:00","2018","03","23","17:00","-32.3","","-36.0","","71","","","M","36","","4","","","M","101.94","","","","-37","","NA"
"-82.91","76.43","GRISE FIORD A","2402360","2018-03-23 18:00","2018","03","23","18:00","-33.9","","-37.8","","69","","","M","13","","3","","","M","101.94","","","","-38","","NA"
"-82.91","76.43","GRISE FIORD A","2402360","2018-03-23 19:00","2018","03","23","19:00","-33.7","","-37.5","","69","","","M","10","","2","","","M","101.90","","","","-36","","NA"
"-82.91","76.43","GRISE FIORD A","2402360","2018-03-23 20:00","2018","03","23","20:00","-31.6","","-35.1","","72","","","M","1","","2","","","M","101.87","","","","-34","","NA"
"-82.91","76.43","GRISE FIORD A","2402360","2018-03-23 21:00","2018","03","23","21:00","-29.9","","-33.3","","73","","","M","32","","3","","","M","101.85","","","","-33","","NA"
"-82.91","76.43","GRISE FIORD A","2402360","2018-03-23 22:00","2018","03","23","22:00","-28.5","","-32.0","","73","","","M","30","","5","","","M","101.82","","","","-34","","NA"
"-82.91","76.43","GRISE FIORD A","2402360","2018-03-23 23:00","2018","03","23","23:00","-28.3","","-31.7","","73","","","M","11","","2","","","M","101.81","","","","-30","","NA"
"-82.91","76.43","GRISE FIORD A","2402360","2018-03-24 00:00","2018","03","24","00:00","-30.1","","-33.5","","73","","","M","15","","3","","","M","101.80","","","","-33","","NA"
"-82.91","76.43","GRISE FIORD A","2402360","2018-03-24 01:00","2018","03","24","01:00","-34.1","","-38.0","","69","","","M","13","","8","","","M","101.79","","","","-43","","NA"
"-82.91","76.43","GRISE FIORD A","2402360","2018-03-24 02:00","2018","03","24","02:00","-30.0","","-33.4","","73","","","M","0","","1","","","M","101.78","","","","-31","","NA"
"-82.91","76.43","GRISE FIORD A","2402360","2018-03-24 03:00","2018","03","24","03:00","-28.5","","-31.9","","73","","","M","5","","3","","","M","101.78","","","","-32","","NA"
"-82.91","76.43","GRISE FIORD A","2402360","2018-03-24 04:00","2018","03","24","04:00","-29.4","","-32.8","","73","","","M","2","","1","","","M","101.75","","","","-31","","NA"
"-82.91","76.43","GRISE FIORD A","2402360","2018-03-24 05:00","2018","03","24","05:00","-31.3","","-34.9","","71","","","M","25","","4","","","M","101.74","","","","-36","","NA"
"-82.91","76.43","GRISE FIORD A","2402360","2018-03-24 06:00","2018","03","24","06:00","-31.7","","-35.1","","73","","","M","32","","1","","","M","101.74","","","","-33","","NA"
"-82.91","76.43","GRISE FIORD A","2402360","2018-03-24 07:00","2018","03","24","07:00","-36.4","","-40.2","","69","","","M","14","","8","","","M","101.73","","","","-45","","NA"
"-82.91","76.43","GRISE FIORD A","2402360","2018-03-24 08:00","2018","03","24","08:00","-36.3","","-40.1","","69","","","M","14","","5","","","M","101.71","","","","-43","","NA"
"-82.91","76.43","GRISE FIORD A","2402360","2018-03-24 09:00","2018","03","24","09:00","-35.9","","-39.7","","69","","","M","11","","2","","","M","101.69","","","","-38","","NA"
"-82.91","76.43","GRISE FIORD A","2402360","2018-03-24 10:00","2018","03","24","10:00","-35.5","","-39.4","","69","","","M","12","","3","","","M","101.70","","","","-39","","NA"
"-82.91","76.43","GRISE FIORD A","2402360","2018-03-24 11:00","2018","03","24","11:00","-35.5","","-39.4","","68","","","M","20","","3","","","M","101.69","","","","-39","","NA"
"-82.91","76.43","GRISE FIORD A","2402360","2018-03-24 12:00","2018","03","24","12:00","-35.2","","-39.1","","68","","","M","16","","5","","","M","101.68","","","","-42","","NA"
"-82.91","76.43","GRISE FIORD A","2402360","2018-03-24 13:00","2018","03","24","13:00","-35.0","","-39.0","","68","","","M","12","","3","","","M","101.71","","","","-39","","NA"
"-82.91","76.43","GRISE FIORD A","2402360","2018-03-24 14:00","2018","03","24","14:00","-34.0","","-37.9","","69","","","M","5","","3","","","M","101.70","","","","-38","","NA"
"-82.91","76.43","GRISE FIORD A","2402360","2018-03-24 15:00","2018","03","24","15:00","-34.2","","-38.1","","69","","","M","10","","1","","","M","101.73","","","","-35","","NA"
"-82.91","76.43","GRISE FIORD A","2402360","2018-03-24 16:00","2018","03","24","16:00","-34.1","","-38.0","","69","","","M","6","","2","","","M","101.71","","","","-37","","NA"
"-82.91","76.43","GRISE FIORD A","2402360","2018-03-24 17:00","2018","03","24","17:00","-34.6","","-38.4","","69","","","M","20","","1","","","M","101.72","","","","-36","","NA"
"-82.91","76.43","GRISE FIORD A","2402360","2018-03-24 18:00","2018","03","24","18:00","-34.4","","-38.2","","70","","","M","6","","2","","","M","101.71","","","","-37","","NA"
"-82.91","76.43","GRISE FIORD A","2402360","2018-03-24 19:00","2018","03","24","19:00","-35.2","","-38.9","","69","","","M","32","","2","","","M","101.71","","","","-38","","NA"
"-82.91","76.43","GRISE FIORD A","2402360","2018-03-24 20:00","2018","03","24","20:00","-34.8","","-38.6","","69","","","M","5","","4","","","M","101.69","","","","-40","","NA"
"-82.91","76.43","GRISE FIORD A","2402360","2018-03-24 21:00","2018","03","24","21:00","-33.5","","-37.2","","70","","","M","14","","1","","","M","101.70","","","","-35","","NA"
"-82.91","76.43","GRISE FIORD A","2402360","2018-03-24 22:00","2018","03","24","22:00","-34.7","","-38.5","","70","","","M","10","","3","","","M","101.68","","","","-38","","NA"
"-82.91","76.43","GRISE FIORD A","2402360","2018-03-24 23:00","2018","03","24","23:00","-35.2","","-39.0","","69","","","M","22","","1","","","M","101.69","","","","-36","","NA"
"-82.91","76.43","GRISE FIORD A","2402360","2018-03-25 00:00","2018","03","25","00:00","-35.2","","-39.0","","69","","","M","16","","4","","","M","101.69","","","","-40","","NA"
"-82.91","76.43","GRISE FIORD A","2402360","2018-03-25 01:00","2018","03","25","01:00","-36.3","","-40.4","","67","","","M","14","","3","","","M","101.71","","","","-40","","NA"
"-82.91","76.43","GRISE FIORD A","2402360","2018-03-25 02:00","2018","03","25","02:00","-35.1","","-38.9","","70","","","M","6","","6","","","M","101.73","","","","-42","","NA"
"-82.91","76.43","GRISE FIORD A","2402360","2018-03-25 03:00","2018","03","25","03:00","-32.6","","-36.2","","71","","","M","8","","3","","","M","101.75","","","","-36","","NA"
"-82.91","76.43","GRISE FIORD A","2402360","2018-03-25 04:00","2018","03","25","04:00","-34.1","","-37.9","","69","","","M","13","","4","","","M","101.77","","","","-39","","NA"
"-82.91","76.43","GRISE FIORD A","2402360","2018-03-25 05:00","2018","03","25","05:00","-33.1","","-36.7","","70","","","M","35","","3","","","M","101.77","","","","-37","","NA"
"-82.91","76.43","GRISE FIORD A","2402360","2018-03-25 06:00","2018","03","25","06:00","-30.6","","-34.2","","72","","","M","16","","3","","","M","101.76","","","","-34","","NA"
"-82.91","76.43","GRISE FIORD A","2402360","2018-03-25 07:00","2018","03","25","07:00","-31.8","","-35.5","","71","","","M","0","","1","","","M","101.76","","","","-33","","NA"
"-82.91","76.43","GRISE FIORD A","2402360","2018-03-25 08:00","2018","03","25","08:00","-29.0","","-32.8","","70","","","M","","","0","","","M","101.73","","","","","","NA"
"-82.91","76.43","GRISE FIORD A","2402360","2018-03-25 09:00","2018","03","25","09:00","-28.6","","-32.8","","67","","","M","5","","9","","","M","101.71","","","","-37","","NA"
"-82.91","76.43","GRISE FIORD A","2402360","2018-03-25 10:00","2018","03","25","10:00","-28.2","","-33.0","","65","","","M","7","","3","","","M","101.71","","","","-31","","NA"
"-82.91","76.43","GRISE FIORD A","2402360","2018-03-25 11:00","2018","03","25","11:00","-28.8","","-34.3","","60","","","M","18","","4","","","M","101.69","","","","-33","","NA"
"-82.91","76.43","GRISE FIORD A","2402360","2018-03-25 12:00","2018","03","25","12:00","-28.9","","-34.0","","63","","","M","31","","2","","","M","101.66","","","","-31","","NA"
"-82.91","76.43","GRISE FIORD A","2402360","2018-03-25 13:00","2018","03","25","13:00","-26.8","","-32.4","","60","","","M","7","","3","","","M","101.63","","","","-30","","NA"
"-82.91","76.43","GRISE FIORD A","2402360","2018-03-25 14:00","2018","03","25","14:00","-27.0","","-32.4","","61","","","M","4","","3","","","M","101.60","","","","-30","","NA"
"-82.91","76.43","GRISE FIORD A","2402360","2018-03-25 15:00","2018","03","25","15:00","-28.6","","-33.5","","63","","","M","24","","4","","","M","101.60","","","","-33","","NA"
"-82.91","76.43","GRISE FIORD A","2402360","2018-03-25 16:00","2018","03","25","16:00","-28.2","","-33.1","","64","","","M","21","","2","","","M","101.60","","","","-30","","NA"
"-82.91","76.43","GRISE FIORD A","2402360","2018-03-25 17:00","2018","03","25","17:00","-26.3","","-31.7","","61","","","M","14","","2","","","M","101.59","","","","-28","","NA"
"-82.91","76.43","GRISE FIORD A","2402360","2018-03-25 18:00","2018","03","25","18:00","-26.7","","-32.6","","58","","","M","5","","5","","","M","101.58","","","","-32","","NA"
"-82.91","76.43","GRISE FIORD A","2402360","2018-03-25 19:00","2018","03","25","19:00","-26.8","","-31.7","","64","","","M","12","","6","","","M","101.57","","","","-33","","NA"
"-82.91","76.43","GRISE FIORD A","2402360","2018-03-25 20:00","2018","03","25","20:00","-26.5","","-32.8","","56","","","M","7","","15","","","M","101.56","","","","-37","","NA"
"-82.91","76.43","GRISE FIORD A","2402360","2018-03-25 21:00","2018","03","25","21:00","-27.4","","-33.6","","56","","","M","7","","19","","","M","101.52","","","","-40","","NA"
"-82.91","76.43","GRISE FIORD A","2402360","2018-03-25 22:00","2018","03","25","22:00","-29.4","","-35.8","","55","","","M","18","","2","","","M","101.53","","","","-32","","NA"
"-82.91","76.43","GRISE FIORD A","2402360","2018-03-25 23:00","2018","03","25","23:00","-26.5","","-33.0","","55","","","M","7","","8","","","M","101.48","","","","-34","","NA"
"-82.91","76.43","GRISE FIORD A","2402360","2018-03-26 00:00","2018","03","26","00:00","-31.4","","-37.6","","55","","","M","12","","8","","","M","101.49","","","","-40","","NA"
"-82.91","76.43","GRISE FIORD A","2402360","2018-03-26 01:00","2018","03","26","01:00","-29.7","","-34.8","","63","","","M","10","","1","","","M","101.47","","","","-31","","NA"
"-82.91","76.43","GRISE FIORD A","2402360","2018-03-26 02:00","2018","03","26","02:00","-30.4","","-35.8","","61","","","M","11","","5","","","M","101.43","","","","-36","","NA"
"-82.91","76.43","GRISE FIORD A","2402360","2018-03-26 03:00","2018","03","26","03:00","-27.5","","-32.7","","62","","","M","12","","4","","","M","101.40","","","","-32","","NA"
"-82.91","76.43","GRISE FIORD A","2402360","2018-03-26 04:00","2018","03","26","04:00","-29.9","","-34.6","","65","","","M","12","","7","","","M","101.38","","","","-37","","NA"
"-82.91","76.43","GRISE FIORD A","2402360","2018-03-26 05:00","2018","03","26","05:00","-28.9","","-32.8","","70","","","M","17","","4","","","M","101.35","","","","-33","","NA"
"-82.91","76.43","GRISE FIORD A","2402360","2018-03-26 06:00","2018","03","26","06:00","-29.4","","-33.1","","71","","","M","36","","5","","","M","101.31","","","","-35","","NA"
"-82.91","76.43","GRISE FIORD A","2402360","2018-03-26 07:00","2018","03","26","07:00","-29.7","","-34.2","","65","","","M","19","","5","","","M","101.26","","","","-35","","NA"
"-82.91","76.43","GRISE FIORD A","2402360","2018-03-26 08:00","2018","03","26","08:00","-27.5","","-31.4","","70","","","M","15","","7","","","M","101.24","","","","-34","","NA"
"-82.91","76.43","GRISE FIORD A","2402360","2018-03-26 09:00","2018","03","26","09:00","-28.6","","-32.9","","67","","","M","14","","7","","","M","101.17","","","","-36","","NA"
"-82.91","76.43","GRISE FIORD A","2402360","2018-03-26 10:00","2018","03","26","10:00","-23.3","","-27.7","","68","","","M","9","","18","","","M","101.08","","","","-34","","NA"
"-82.91","76.43","GRISE FIORD A","2402360","2018-03-26 11:00","2018","03","26","11:00","-22.6","","-27.2","","67","","","M","9","","21","","","M","101.01","","","","-34","","NA"
"-82.91","76.43","GRISE FIORD A","2402360","2018-03-26 12:00","2018","03","26","12:00","-21.9","","-26.3","","68","","","M","6","","35","","","M","100.89","","","","-36","","NA"
"-82.91","76.43","GRISE FIORD A","2402360","2018-03-26 13:00","2018","03","26","13:00","-21.5","","-25.3","","72","","","M","8","","31","","","M","100.83","","","","-35","","NA"
"-82.91","76.43","GRISE FIORD A","2402360","2018-03-26 14:00","2018","03","26","14:00","-20.8","","-25.2","","68","","","M","5","","35","","","M","100.74","","","","-34","","NA"
"-82.91","76.43","GRISE FIORD A","2402360","2018-03-26 15:00","2018","03","26","15:00","-20.7","","-25.4","","66","","","M","5","","16","","","M","100.82","","","","-30","","NA"
"-82.91","76.43","GRISE FIORD A","2402360","2018-03-26 16:00","2018","03","26","16:00","-21.0","","-24.8","","72","","","M","7","","33","","","M","100.84","","","","-34","","NA"
"-82.91","76.43","GRISE FIORD A","2402360","2018-03-26 17:00","2018","03","26","17:00","-21.6","","-25.5","","72","","","M","5","","31","","","M","100.80","","","","-35","","NA"
"-82.91","76.43","GRISE FIORD A","2402360","2018-03-26 18:00","2018","03","26","18:00","-21.0","","-25.4","","68","","","M","6","","46","","","M","100.69","","","","-36","","NA"
"-82.91","76.43","GRISE FIORD A","2402360","2018-03-26 19:00","2018","03","26","19:00","-20.9","","-24.9","","71","","","M","7","","40","","","M","100.66","","","","-35","","NA"
"-82.91","76.43","GRISE FIORD A","2402360","2018-03-26 20:00","2018","03","26","20:00","-20.4","","-25.2","","66","","","M","5","","40","","","M","100.62","","","","-35","","NA"
"-82.91","76.43","GRISE FIORD A","2402360","2018-03-26 21:00","2018","03","26","21:00","-20.1","","-24.5","","68","","","M","","M","","M","","M","100.56","","","","","","NA"
"-82.91","76.43","GRISE FIORD A","2402360","2018-03-26 22:00","2018","03","26","22:00","-19.8","","-24.0","","70","","","M","5","","39","","","M","100.60","","","","-34","","NA"
"-82.91","76.43","GRISE FIORD A","2402360","2018-03-26 23:00","2018","03","26","23:00","-19.4","","-24.4","","65","","","M","7","","13","","","M","100.58","","","","-28","","NA"
"-82.91","76.43","GRISE FIORD A","2402360","2018-03-27 00:00","2018","03","27","00:00","-18.8","","-23.3","","68","","","M","6","","33","","","M","100.57","","","","-32","","NA"
"-82.91","76.43","GRISE FIORD A","2402360","2018-03-27 01:00","2018","03","27","01:00","-18.3","","-23.5","","64","","","M","6","","29","","","M","100.53","","","","-30","","NA"
"-82.91","76.43","GRISE FIORD A","2402360","2018-03-27 02:00","2018","03","27","02:00","-17.7","","-23.2","","63","","","M","3","","28","","","M","100.54","","","","-29","","NA"
"-82.91","76.43","GRISE FIORD A","2402360","2018-03-27 03:00","2018","03","27","03:00","-18.8","","-22.6","","73","","","M","22","","8","","","M","100.58","","","","-25","","NA"
"-82.91","76.43","GRISE FIORD A","2402360","2018-03-27 04:00","2018","03","27","04:00","-17.5","","-22.3","","67","","","M","12","","12","","","M","100.60","","","","-25","","NA"
"-82.91","76.43","GRISE FIORD A","2402360","2018-03-27 05:00","2018","03","27","05:00","-17.6","","-22.5","","66","","","M","11","","14","","","M","100.58","","","","-26","","NA"
"-82.91","76.43","GRISE FIORD A","2402360","2018-03-27 06:00","2018","03","27","06:00","-17.3","","-23.4","","60","","","M","10","","18","","","M","100.60","","","","-27","","NA"
"-82.91","76.43","GRISE FIORD A","2402360","2018-03-27 07:00","2018","03","27","07:00","-19.6","","-23.8","","70","","","M","24","","2","","","M","100.63","","","","-21","","NA"
"-82.91","76.43","GRISE FIORD A","2402360","2018-03-27 08:00","2018","03","27","08:00","-19.0","","-24.7","","61","","","M","18","","5","","","M","100.62","","","","-23","","NA"
"-82.91","76.43","GRISE FIORD A","2402360","2018-03-27 09:00","2018","03","27","09:00","-19.9","","-25.0","","64","","","M","14","","8","","","M","100.62","","","","-26","","NA"
"-82.91","76.43","GRISE FIORD A","2402360","2018-03-27 10:00","2018","03","27","10:00","-19.3","","-24.7","","63","","","M","19","","5","","","M","100.62","","","","-23","","NA"
"-82.91","76.43","GRISE FIORD A","2402360","2018-03-27 11:00","2018","03","27","11:00","-17.7","","-24.5","","56","","","M","26","","10","","","M","100.57","","","","-24","","NA"
"-82.91","76.43","GRISE FIORD A","2402360","2018-03-27 12:00","2018","03","27","12:00","-16.4","","-24.2","","51","","","M","13","","12","","","M","100.54","","","","-24","","NA"
"-82.91","76.43","GRISE FIORD A","2402360","2018-03-27 13:00","2018","03","27","13:00","-16.1","","-23.7","","53","","","M","6","","7","","","M","100.56","","","","-21","","NA"
"-82.91","76.43","GRISE FIORD A","2402360","2018-03-27 14:00","2018","03","27","14:00","-16.2","","-24.1","","51","","","M","22","","6","","","M","100.59","","","","-21","","NA"
"-82.91","76.43","GRISE FIORD A","2402360","2018-03-27 15:00","2018","03","27","15:00","-18.5","","-23.1","","67","","","M","14","","10","","","M","100.67","","","","-25","","NA"
"-82.91","76.43","GRISE FIORD A","2402360","2018-03-27 16:00","2018","03","27","16:00","-19.4","","-23.8","","69","","","M","","","0","","","M","100.74","","","","","","NA"
"-82.91","76.43","GRISE FIORD A","2402360","2018-03-27 17:00","2018","03","27","17:00","-19.8","","-24.6","","66","","","M","32","","4","","","M","100.81","","","","-23","","NA"
"-82.91","76.43","GRISE FIORD A","2402360","2018-03-27 18:00","2018","03","27","18:00","-19.9","","-25.0","","64","","","M","30","","7","","","M","100.83","","","","-26","","NA"
"-82.91","76.43","GRISE FIORD A","2402360","2018-03-27 19:00","2018","03","27","19:00","-20.0","","-24.9","","65","","","M","6","","4","","","M","100.90","","","","-23","","NA"
"-82.91","76.43","GRISE FIORD A","2402360","2018-03-27 20:00","2018","03","27","20:00","-19.8","","-25.4","","62","","","M","6","","4","","","M","100.96","","","","-23","","NA"
"-82.91","76.43","GRISE FIORD A","2402360","2018-03-27 21:00","2018","03","27","21:00","-20.5","","-26.3","","60","","","M","10","","5","","","M","101.01","","","","-25","","NA"
"-82.91","76.43","GRISE FIORD A","2402360","2018-03-27 22:00","2018","03","27","22:00","-19.6","","-25.9","","58","","","M","5","","3","","","M","101.05","","","","-22","","NA"
"-82.91","76.43","GRISE FIORD A","2402360","2018-03-27 23:00","2018","03","27","23:00","-20.8","","-26.9","","58","","","M","6","","3","","","M","101.13","","","","-23","","NA"
"-82.91","76.43","GRISE FIORD A","2402360","2018-03-28 00:00","2018","03","28","00:00","-20.8","","-27.0","","58","","","M","5","","8","","","M","101.18","","","","-27","","NA"
"-82.91","76.43","GRISE FIORD A","2402360","2018-03-28 01:00","2018","03","28","01:00","-20.4","","-27.2","","56","","","M","6","","5","","","M","101.25","","","","-25","","NA"
"-82.91","76.43","GRISE FIORD A","2402360","2018-03-28 02:00","2018","03","28","02:00","-20.8","","-27.3","","56","","","M","1","","2","","","M","101.33","","","","-23","","NA"
"-82.91","76.43","GRISE FIORD A","2402360","2018-03-28 03:00","2018","03","28","03:00","-21.2","","-27.3","","59","","","M","13","","5","","","M","101.42","","","","-26","","NA"
"-82.91","76.43","GRISE FIORD A","2402360","2018-03-28 04:00","2018","03","28","04:00","-21.9","","-28.0","","58","","","M","3","","7","","","M","101.50","","","","-28","","NA"
"-82.91","76.43","GRISE FIORD A","2402360","2018-03-28 05:00","2018","03","28","05:00","-22.7","","-27.1","","67","","","M","13","","1","","","M","101.58","","","","-24","","NA"
"-82.91","76.43","GRISE FIORD A","2402360","2018-03-28 06:00","2018","03","28","06:00","-22.8","","-27.1","","68","","","M","6","","4","","","M","101.64","","","","-27","","NA"
"-82.91","76.43","GRISE FIORD A","2402360","2018-03-28 07:00","2018","03","28","07:00","-24.5","","-28.3","","71","","","M","16","","3","","","M","101.72","","","","-27","","NA"
"-82.91","76.43","GRISE FIORD A","2402360","2018-03-28 08:00","2018","03","28","08:00","-25.1","","-28.4","","74","","","M","17","","2","","","M","101.80","","","","-27","","NA"
"-82.91","76.43","GRISE FIORD A","2402360","2018-03-28 09:00","2018","03","28","09:00","-26.4","","-29.4","","76","","","M","15","","3","","","M","101.84","","","","-29","","NA"
"-82.91","76.43","GRISE FIORD A","2402360","2018-03-28 10:00","2018","03","28","10:00","-25.2","","-28.4","","75","","","M","10","","3","","","M","101.89","","","","-28","","NA"
"-82.91","76.43","GRISE FIORD A","2402360","2018-03-28 11:00","2018","03","28","11:00","-26.2","","-29.8","","72","","","M","16","","4","","","M","101.94","","","","-30","","NA"
"-82.91","76.43","GRISE FIORD A","2402360","2018-03-28 12:00","2018","03","28","12:00","-25.2","","-28.9","","71","","","M","6","","3","","","M","101.95","","","","-28","","NA"
"-82.91","76.43","GRISE FIORD A","2402360","2018-03-28 13:00","2018","03","28","13:00","-26.0","","-29.2","","75","","","M","8","","1","","","M","102.00","","","","-27","","NA"
"-82.91","76.43","GRISE FIORD A","2402360","2018-03-28 14:00","2018","03","28","14:00","-24.6","","-28.2","","73","","","M","2","","2","","","M","102.02","","","","-27","","NA"
"-82.91","76.43","GRISE FIORD A","2402360","2018-03-28 15:00","2018","03","28","15:00","-23.5","","-27.5","","71","","","M","4","","8","","","M","102.06","","","","-30","","NA"
"-82.91","76.43","GRISE FIORD A","2402360","2018-03-28 16:00","2018","03","28","16:00","-24.2","","-28.1","","71","","","M","29","","2","","","M","102.11","","","","-26","","NA"
"-82.91","76.43","GRISE FIORD A","2402360","2018-03-28 17:00","2018","03","28","17:00","-23.8","","-27.5","","72","","","M","0","","1","","","M","102.12","","","","-25","","NA"
"-82.91","76.43","GRISE FIORD A","2402360","2018-03-28 18:00","2018","03","28","18:00","-21.5","","-25.8","","69","","","M","36","","3","","","M","102.15","","","","-24","","NA"
"-82.91","76.43","GRISE FIORD A","2402360","2018-03-28 19:00","2018","03","28","19:00","-22.1","","-26.4","","68","","","M","34","","3","","","M","102.15","","","","-25","","NA"
"-82.91","76.43","GRISE FIORD A","2402360","2018-03-28 20:00","2018","03","28","20:00","-21.8","","-27.2","","63","","","M","6","","18","","","M","102.12","","","","-32","","NA"
"-82.91","76.43","GRISE FIORD A","2402360","2018-03-28 21:00","2018","03","28","21:00","-23.8","","-27.0","","75","","","M","5","","3","","","M","102.12","","","","-27","","NA"
"-82.91","76.43","GRISE FIORD A","2402360","2018-03-28 22:00","2018","03","28","22:00","-25.5","","-28.9","","74","","","M","13","","6","","","M","102.14","","","","-31","","NA"
"-82.91","76.43","GRISE FIORD A","2402360","2018-03-28 23:00","2018","03","28","23:00","-26.7","","-29.8","","75","","","M","36","","4","","","M","102.14","","","","-31","","NA"
"-82.91","76.43","GRISE FIORD A","2402360","2018-03-29 00:00","2018","03","29","00:00","-23.5","","-28.9","","62","","","M","5","","14","","","M","102.11","","","","-33","","NA"
"-82.91","76.43","GRISE FIORD A","2402360","2018-03-29 01:00","2018","03","29","01:00","-22.1","","-28.1","","59","","","M","7","","18","","","M","102.02","","","","-33","","NA"
"-82.91","76.43","GRISE FIORD A","2402360","2018-03-29 02:00","2018","03","29","02:00","-24.3","","-28.5","","69","","","M","12","","4","","","M","102.01","","","","-28","","NA"
"-82.91","76.43","GRISE FIORD A","2402360","2018-03-29 03:00","2018","03","29","03:00","-25.0","","-30.6","","61","","","M","27","","4","","","M","102.00","","","","-29","","NA"
"-82.91","76.43","GRISE FIORD A","2402360","2018-03-29 04:00","2018","03","29","04:00","-24.3","","-28.7","","67","","","M","35","","2","","","M","102.00","","","","-26","","NA"
"-82.91","76.43","GRISE FIORD A","2402360","2018-03-29 05:00","2018","03","29","05:00","-24.2","","-28.2","","70","","","M","2","","4","","","M","101.98","","","","-28","","NA"
"-82.91","76.43","GRISE FIORD A","2402360","2018-03-29 06:00","2018","03","29","06:00","-22.2","","-27.9","","61","","","M","9","","4","","","M","101.97","","","","-26","","NA"
"-82.91","76.43","GRISE FIORD A","2402360","2018-03-29 07:00","2018","03","29","07:00","-21.5","","-26.6","","64","","","M","15","","2","","","M","101.96","","","","-23","","NA"
"-82.91","76.43","GRISE FIORD A","2402360","2018-03-29 08:00","2018","03","29","08:00","-22.1","","-27.8","","60","","","M","9","","9","","","M","101.94","","","","-29","","NA"
"-82.91","76.43","GRISE FIORD A","2402360","2018-03-29 09:00","2018","03","29","09:00","-22.9","","-28.4","","62","","","M","13","","8","","","M","101.93","","","","-30","","NA"
"-82.91","76.43","GRISE FIORD A","2402360","2018-03-29 10:00","2018","03","29","10:00","-24.5","","-29.4","","64","","","M","9","","4","","","M","101.91","","","","-28","","NA"
"-82.91","76.43","GRISE FIORD A","2402360","2018-03-29 11:00","2018","03","29","11:00","-23.4","","-29.3","","59","","","M","17","","5","","","M","101.91","","","","-28","","NA"
"-82.91","76.43","GRISE FIORD A","2402360","2018-03-29 12:00","2018","03","29","12:00","-22.3","","-27.7","","62","","","M","5","","5","","","M","101.89","","","","-27","","NA"
"-82.91","76.43","GRISE FIORD A","2402360","2018-03-29 13:00","2018","03","29","13:00","-19.6","","-26.1","","57","","","M","6","","8","","","M","101.85","","","","-26","","NA"
"-82.91","76.43","GRISE FIORD A","2402360","2018-03-29 14:00","2018","03","29","14:00","-21.8","","-26.9","","64","","","M","17","","4","","","M","101.83","","","","-25","","NA"
"-82.91","76.43","GRISE FIORD A","2402360","2018-03-29 15:00","2018","03","29","15:00","-21.8","","-27.2","","62","","","M","14","","11","","","M","101.86","","","","-30","","NA"
"-82.91","76.43","GRISE FIORD A","2402360","2018-03-29 16:00","2018","03","29","16:00","-22.9","","-27.7","","66","","","M","10","","3","","","M","101.89","","","","-26","","NA"
"-82.91","76.43","GRISE FIORD A","2402360","2018-03-29 17:00","2018","03","29","17:00","-22.7","","-27.7","","64","","","M","3","","3","","","M","101.90","","","","-25","","NA"
"-82.91","76.43","GRISE FIORD A","2402360","2018-03-29 18:00","2018","03","29","18:00","-20.0","","-26.3","","58","","","M","7","","7","","","M","101.92","","","","-26","","NA"
"-82.91","76.43","GRISE FIORD A","2402360","2018-03-29 19:00","2018","03","29","19:00","-23.9","","-28.1","","69","","","M","15","","2","","","M","101.93","","","","-26","","NA"
"-82.91","76.43","GRISE FIORD A","2402360","2018-03-29 20:00","2018","03","29","20:00","-21.8","","-27.4","","61","","","M","10","","6","","","M","101.94","","","","-27","","NA"
"-82.91","76.43","GRISE FIORD A","2402360","2018-03-29 21:00","2018","03","29","21:00","-21.4","","-27.1","","61","","","M","7","","13","","","M","101.94","","","","-30","","NA"
"-82.91","76.43","GRISE FIORD A","2402360","2018-03-29 22:00","2018","03","29","22:00","-24.0","","-29.7","","60","","","M","14","","3","","","M","101.93","","","","-27","","NA"
"-82.91","76.43","GRISE FIORD A","2402360","2018-03-29 23:00","2018","03","29","23:00","-24.2","","-30.5","","57","","","M","11","","5","","","M","101.93","","","","-29","","NA"
"-82.91","76.43","GRISE FIORD A","2402360","2018-03-30 00:00","2018","03","30","00:00","-23.0","","-27.0","","71","","","M","9","","4","","","M","101.93","","","","-27","","NA"
"-82.91","76.43","GRISE FIORD A","2402360","2018-03-30 01:00","2018","03","30","01:00","-23.7","","-28.2","","67","","","M","13","","4","","","M","101.92","","","","-28","","NA"
"-82.91","76.43","GRISE FIORD A","2402360","2018-03-30 02:00","2018","03","30","02:00","-22.8","","-27.9","","64","","","M","6","","13","","","M","101.91","","","","-32","","NA"
"-82.91","76.43","GRISE FIORD A","2402360","2018-03-30 03:00","2018","03","30","03:00","-22.6","","-27.6","","64","","","M","6","","21","","","M","101.90","","","","-34","","NA"
"-82.91","76.43","GRISE FIORD A","2402360","2018-03-30 04:00","2018","03","30","04:00","-22.8","","-27.5","","66","","","M","6","","22","","","M","101.89","","","","-35","","NA"
"-82.91","76.43","GRISE FIORD A","2402360","2018-03-30 05:00","2018","03","30","05:00","-22.8","","-27.5","","66","","","M","6","","18","","","M","101.85","","","","-33","","NA"
"-82.91","76.43","GRISE FIORD A","2402360","2018-03-30 06:00","2018","03","30","06:00","-26.1","","-29.6","","73","","","M","13","","7","","","M","101.84","","","","-33","","NA"
"-82.91","76.43","GRISE FIORD A","2402360","2018-03-30 07:00","2018","03","30","07:00","-24.8","","-28.8","","70","","","M","10","","8","","","M","101.82","","","","-32","","NA"
"-82.91","76.43","GRISE FIORD A","2402360","2018-03-30 08:00","2018","03","30","08:00","-23.9","","-28.1","","68","","","M","9","","1","","","M","101.80","","","","-25","","NA"
"-82.91","76.43","GRISE FIORD A","2402360","2018-03-30 09:00","2018","03","30","09:00","-24.2","","-28.0","","71","","","M","5","","2","","","M","101.77","","","","-26","","NA"
"-82.91","76.43","GRISE FIORD A","2402360","2018-03-30 10:00","2018","03","30","10:00","-24.1","","-28.4","","68","","","M","4","","3","","","M","101.74","","","","-27","","NA"
"-82.91","76.43","GRISE FIORD A","2402360","2018-03-30 11:00","2018","03","30","11:00","-22.8","","-27.6","","65","","","M","8","","4","","","M","101.70","","","","-27","","NA"
"-82.91","76.43","GRISE FIORD A","2402360","2018-03-30 12:00","2018","03","30","12:00","-24.9","","-29.1","","68","","","M","4","","2","","","M","101.67","","","","-27","","NA"
"-82.91","76.43","GRISE FIORD A","2402360","2018-03-30 13:00","2018","03","30","13:00","-24.7","","-28.7","","70","","","M","32","","3","","","M","101.63","","","","-28","","NA"
"-82.91","76.43","GRISE FIORD A","2402360","2018-03-30 14:00","2018","03","30","14:00","-22.8","","-27.4","","67","","","M","32","","5","","","M","101.64","","","","-27","","NA"
"-82.91","76.43","GRISE FIORD A","2402360","2018-03-30 15:00","2018","03","30","15:00","-23.6","","-27.6","","71","","","M","1","","2","","","M","101.64","","","","-26","","NA"
"-82.91","76.43","GRISE FIORD A","2402360","2018-03-30 16:00","2018","03","30","16:00","-23.2","","-27.3","","70","","","M","30","","2","","","M","101.62","","","","-25","","NA"
"-82.91","76.43","GRISE FIORD A","2402360","2018-03-30 17:00","2018","03","30","17:00","-25.6","","-29.3","","71","","","M","12","","8","","","M","101.61","","","","-33","","NA"
"-82.91","76.43","GRISE FIORD A","2402360","2018-03-30 18:00","2018","03","30","18:00","-24.3","","-28.3","","70","","","M","6","","5","","","M","101.60","","","","-29","","NA"
"-82.91","76.43","GRISE FIORD A","2402360","2018-03-30 19:00","2018","03","30","19:00","-25.3","","-29.2","","71","","","M","25","","2","","","M","101.59","","","","-27","","NA"
"-82.91","76.43","GRISE FIORD A","2402360","2018-03-30 20:00","2018","03","30","20:00","-25.0","","-28.9","","70","","","M","8","","3","","","M","101.59","","","","-28","","NA"
"-82.91","76.43","GRISE FIORD A","2402360","2018-03-30 21:00","2018","03","30","21:00","-25.0","","-29.0","","70","","","M","4","","5","","","M","101.60","","","","-30","","NA"
"-82.91","76.43","GRISE FIORD A","2402360","2018-03-30 22:00","2018","03","30","22:00","-24.6","","-28.7","","70","","","M","36","","4","","","M","101.60","","","","-29","","NA"
"-82.91","76.43","GRISE FIORD A","2402360","2018-03-30 23:00","2018","03","30","23:00","-24.2","","-28.4","","69","","","M","24","","2","","","M","101.62","","","","-26","","NA"
"-82.91","76.43","GRISE FIORD A","2402360","2018-03-31 00:00","2018","03","31","00:00","-24.0","","-28.1","","70","","","M","4","","2","","","M","101.64","","","","-26","","NA"
"-82.91","76.43","GRISE FIORD A","2402360","2018-03-31 01:00","2018","03","31","01:00","-24.4","","-28.4","","70","","","M","5","","5","","","M","101.63","","","","-29","","NA"
"-82.91","76.43","GRISE FIORD A","2402360","2018-03-31 02:00","2018","03","31","02:00","-25.0","","-28.8","","71","","","M","10","","5","","","M","101.64","","","","-30","","NA"
"-82.91","76.43","GRISE FIORD A","2402360","2018-03-31 03:00","2018","03","31","03:00","-26.8","","-29.9","","75","","","M","12","","5","","","M","101.64","","","","-32","","NA"
"-82.91","76.43","GRISE FIORD A","2402360","2018-03-31 04:00","2018","03","31","04:00","-26.3","","-29.7","","73","","","M","7","","2","","","M","101.67","","","","-28","","NA"
"-82.91","76.43","GRISE FIORD A","2402360","2018-03-31 05:00","2018","03","31","05:00","-24.5","","-28.9","","68","","","M","20","","4","","","M","101.69","","","","-28","","NA"
"-82.91","76.43","GRISE FIORD A","2402360","2018-03-31 06:00","2018","03","31","06:00","-26.4","","-29.6","","75","","","M","29","","4","","","M","101.71","","","","-31","","NA"
"-82.91","76.43","GRISE FIORD A","2402360","2018-03-31 07:00","2018","03","31","07:00","-25.9","","-29.0","","76","","","M","7","","2","","","M","101.75","","","","-28","","NA"
"-82.91","76.43","GRISE FIORD A","2402360","2018-03-31 08:00","2018","03","31","08:00","-25.2","","-28.6","","74","","","M","5","","3","","","M","101.78","","","","-28","","NA"
"-82.91","76.43","GRISE FIORD A","2402360","2018-03-31 09:00","2018","03","31","09:00","-26.8","","-30.8","","69","","","M","28","","4","","","M","101.82","","","","-31","","NA"
"-82.91","76.43","GRISE FIORD A","2402360","2018-03-31 10:00","2018","03","31","10:00","-28.1","","-31.6","","72","","","M","7","","3","","","M","101.83","","","","-31","","NA"
"-82.91","76.43","GRISE FIORD A","2402360","2018-03-31 11:00","2018","03","31","11:00","-25.8","","-29.5","","72","","","M","6","","5","","","M","101.83","","","","-31","","NA"
"-82.91","76.43","GRISE FIORD A","2402360","2018-03-31 12:00","2018","03","31","12:00","-24.3","","-28.8","","67","","","M","9","","2","","","M","101.83","","","","-26","","NA"
"-82.91","76.43","GRISE FIORD A","2402360","2018-03-31 13:00","2018","03","31","13:00","-26.8","","-30.5","","72","","","M","14","","3","","","M","101.87","","","","-30","","NA"
"-82.91","76.43","GRISE FIORD A","2402360","2018-03-31 14:00","2018","03","31","14:00","-25.8","","-29.7","","71","","","M","21","","2","","","M","101.91","","","","-28","","NA"
"-82.91","76.43","GRISE FIORD A","2402360","2018-03-31 15:00","2018","03","31","15:00","-25.5","","-28.9","","74","","","M","15","","3","","","M","101.91","","","","-29","","NA"
"-82.91","76.43","GRISE FIORD A","2402360","2018-03-31 16:00","2018","03","31","16:00","-26.1","","-29.5","","74","","","M","17","","3","","","M","101.95","","","","-29","","NA"
"-82.91","76.43","GRISE FIORD A","2402360","2018-03-31 17:00","2018","03","31","17:00","-25.9","","-29.3","","74","","","M","8","","2","","","M","101.99","","","","-28","","NA"
"-82.91","76.43","GRISE FIORD A","2402360","2018-03-31 18:00","2018","03","31","18:00","-26.1","","-29.5","","74","","","M","19","","3","","","M","102.01","","","","-29","","NA"
"-82.91","76.43","GRISE FIORD A","2402360","2018-03-31 19:00","2018","03","31","19:00","-26.1","","-29.2","","76","","","M","11","","3","","","M","102.05","","","","-29","","NA"
"-82.91","76.43","GRISE FIORD A","2402360","2018-03-31 20:00","2018","03","31","20:00","-26.9","","-30.2","","74","","","M","24","","4","","","M","102.05","","","","-31","","NA"
"-82.91","76.43","GRISE FIORD A","2402360","2018-03-31 21:00","2018","03","31","21:00","-26.5","","-30.0","","73","","","M","27","","4","","","M","102.08","","","","-31","","NA"
"-82.91","76.43","GRISE FIORD A","2402360","2018-03-31 22:00","2018","03","31","22:00","-26.8","","-30.1","","75","","","M","36","","5","","","M","102.09","","","","-32","","NA"
"-82.91","76.43","GRISE FIORD A","2402360","2018-03-31 23:00","2018","03","31","23:00","-26.4","","-29.6","","75","","","M","7","","7","","","M","102.09","","","","-33","","NA"
