"Longitude (x)","Latitude (y)","Station Name","Climate ID","Date/Time (LST)","Year","Month","Day","Time (LST)","Temp (°C)","Temp Flag","Dew Point Temp (°C)","Dew Point Temp Flag","Rel Hum (%)","Rel Hum Flag","Precip. Amount (mm)","Precip. Amount Flag","Wind Dir (10s deg)","Wind Dir Flag","Wind Spd (km/h)","Wind Spd Flag","Visibility (km)","Visibility Flag","Stn Press (kPa)","Stn Press Flag","Hmdx","Hmdx Flag","Wind Chill","Wind Chill Flag","Weather"
"-119.60","49.46","PENTICTON A","1126146","2018-03-01 00:00","2018","03","01","00:00","2.7","","0.1","","83","","","","14","","15","","24.1","","96.32","","","","","","Rain"
"-119.60","49.46","PENTICTON A","1126146","2018-03-01 01:00","2018","03","01","01:00","2.6","","0.3","","85","","","","13","","17","","24.1","","96.31","","","","","","Rain"
"-119.60","49.46","PENTICTON A","1126146","2018-03-01 02:00","2018","03","01","02:00","2.2","","0.6","","89","","","","15","","18","","24.1","","96.28","","","","","","Rain"
"-119.60","49.46","PENTICTON A","1126146","2018-03-01 03:00","2018","03","01","03:00","2.2","","0.5","","88","","","","14","","20","","24.1","","96.24","","","","","","Rain"
"-119.60","49.46","PENTICTON A","1126146","2018-03-01 04:00","2018","03","01","04:00","2.4","","0.6","","88","","","","16","","17","","24.1","","96.29","","","","","","Rain"
"-119.60","49.46","PENTICTON A","1126146","2018-03-01 05:00","2018","03","01","05:00","1.8","","0.6","","92","","","","15","","17","","24.1","","96.27","","","","","","Rain"
"-119.60","49.46","PENTICTON A","1126146","2018-03-01 06:00","2018","03","01","06:00","1.6","","0.6","","93","","","","17","","13","","24.1","","96.28","","","","","","Rain"
"-119.60","49.46","PENTICTON A","1126146","2018-03-01 07:00","2018","03","01","07:00","1.6","","0.6","","93","","","","18","","10","","24.1","","96.28","","","","","","Rain"
"-119.60","49.46","PENTICTON A","1126146","2018-03-01 08:00","2018","03","01","08:00","1.9","","0.7","","92","","","","14","","13","","24.1","","96.30","","","","","","Rain"
"-119.60","49.46","PENTICTON A","1126146","2018-03-01 09:00","2018","03","01","09:00","2.5","","1.1","","90","","","","18","","13","","24.1","","96.32","","","","","","Rain"
"-119.60","49.46","PENTICTON A","1126146","2018-03-01 10:00","2018","03","01","10:00","2.8","","1.8","","93","","","","19","","14","","16.1","","96.28","","","","","","Rain"
"-119.60","49.46","PENTICTON A","1126146","2018-03-01 11:00","2018","03","01","11:00","2.8","","1.6","","92","","","","19","","9","","16.1","","96.28","","","","","","Rain"
"-119.60","49.46","PENTICTON A","1126146","2018-03-01 12:00","2018","03","01","12:00","2.6","","0.8","","88","","","","26","","3","","16.1","","96.27","","","","","","Rain"
"-119.60","49.46","PENTICTON A","1126146","2018-03-01 13:00","2018","03","01","13:00","2.4","","1.1","","91","","","","35","","5","","12.9","","96.25","","","","","","Rain"
"-119.60","49.46","PENTICTON A","1126146","2018-03-01 14:00","2018","03","01","14:00","1.4","","0.6","","94","","","","34","","5","","6.4","","96.20","","","","","","Rain,Snow"
"-119.60","49.46","PENTICTON A","1126146","2018-03-01 15:00","2018","03","01","15:00","1.5","","0.7","","94","","","","34","","7","","19.3","","96.14","","","","","","Rain"
"-119.60","49.46","PENTICTON A","1126146","2018-03-01 16:00","2018","03","01","16:00","1.8","","0.9","","93","","","","22","","5","","8.1","","96.16","","","","","","Rain,Fog"
"-119.60","49.46","PENTICTON A","1126146","2018-03-01 17:00","2018","03","01","17:00","1.7","","0.6","","92","","","","32","","7","","9.7","","96.12","","","","","","Rain,Fog"
"-119.60","49.46","PENTICTON A","1126146","2018-03-01 18:00","2018","03","01","18:00","1.1","","0.6","","97","","","","30","","3","","12.9","","96.14","","","","","","Rain"
"-119.60","49.46","PENTICTON A","1126146","2018-03-01 19:00","2018","03","01","19:00","0.6","","0.3","","97","","","","2","","4","","9.7","","96.12","","","","","","Rain,Fog"
"-119.60","49.46","PENTICTON A","1126146","2018-03-01 20:00","2018","03","01","20:00","0.7","","0.4","","98","","","","19","","10","","9.7","","96.11","","","","","","Rain,Fog"
"-119.60","49.46","PENTICTON A","1126146","2018-03-01 21:00","2018","03","01","21:00","0.6","","0.3","","98","","","","36","","2","","12.9","","96.06","","","","","","Rain"
"-119.60","49.46","PENTICTON A","1126146","2018-03-01 22:00","2018","03","01","22:00","0.9","","0.6","","98","","","","4","","7","","12.9","","96.01","","","","","","Cloudy"
"-119.60","49.46","PENTICTON A","1126146","2018-03-01 23:00","2018","03","01","23:00","0.7","","0.4","","98","","","","2","","7","","19.3","","95.97","","","","","","NA"
"-119.60","49.46","PENTICTON A","1126146","2018-03-02 00:00","2018","03","02","00:00","1.0","","0.6","","97","","","","36","","5","","24.1","","95.98","","","","","","NA"
"-119.60","49.46","PENTICTON A","1126146","2018-03-02 01:00","2018","03","02","01:00","1.0","","0.5","","97","","","","18","","5","","6.4","","95.95","","","","","","Cloudy"
"-119.60","49.46","PENTICTON A","1126146","2018-03-02 02:00","2018","03","02","02:00","0.7","","0.4","","98","","","","1","","5","","16.1","","95.95","","","","","","Rain"
"-119.60","49.46","PENTICTON A","1126146","2018-03-02 03:00","2018","03","02","03:00","1.1","","0.8","","98","","","","6","","5","","6.4","","95.97","","","","","","Rain,Fog"
"-119.60","49.46","PENTICTON A","1126146","2018-03-02 04:00","2018","03","02","04:00","0.7","","0.4","","98","","","","36","","3","","6.4","","96.01","","","","","","Rain,Fog"
"-119.60","49.46","PENTICTON A","1126146","2018-03-02 05:00","2018","03","02","05:00","0.8","","0.6","","99","","","","16","","4","","6.4","","96.05","","","","","","Rain,Fog"
"-119.60","49.46","PENTICTON A","1126146","2018-03-02 06:00","2018","03","02","06:00","1.4","","1.1","","98","","","","32","","7","","16.1","","96.06","","","","","","Rain"
"-119.60","49.46","PENTICTON A","1126146","2018-03-02 07:00","2018","03","02","07:00","1.5","","1.1","","97","","","","31","","13","","11.3","","96.10","","","","","","Rain"
"-119.60","49.46","PENTICTON A","1126146","2018-03-02 08:00","2018","03","02","08:00","1.9","","1.4","","96","","","","5","","7","","12.9","","96.13","","","","","","NA"
"-119.60","49.46","PENTICTON A","1126146","2018-03-02 09:00","2018","03","02","09:00","2.6","","1.7","","94","","","","33","","10","","16.1","","96.18","","","","","","NA"
"-119.60","49.46","PENTICTON A","1126146","2018-03-02 10:00","2018","03","02","10:00","3.3","","1.9","","91","","","","36","","14","","24.1","","96.19","","","","","","Cloudy"
"-119.60","49.46","PENTICTON A","1126146","2018-03-02 11:00","2018","03","02","11:00","3.4","","1.9","","90","","","","36","","14","","24.1","","96.19","","","","","","NA"
"-119.60","49.46","PENTICTON A","1126146","2018-03-02 12:00","2018","03","02","12:00","4.0","","2.0","","87","","","","36","","17","","24.1","","96.18","","","","","","Rain"
"-119.60","49.46","PENTICTON A","1126146","2018-03-02 13:00","2018","03","02","13:00","3.5","","1.7","","88","","","","35","","15","","24.1","","96.16","","","","","","Rain"
"-119.60","49.46","PENTICTON A","1126146","2018-03-02 14:00","2018","03","02","14:00","3.8","","2.0","","88","","","","1","","10","","24.1","","96.14","","","","","","Rain"
"-119.60","49.46","PENTICTON A","1126146","2018-03-02 15:00","2018","03","02","15:00","4.1","","2.0","","87","","","","32","","9","","24.1","","96.15","","","","","","NA"
"-119.60","49.46","PENTICTON A","1126146","2018-03-02 16:00","2018","03","02","16:00","0.5","","0.0","","96","","","","18","","29","","2.0","","96.34","","","","","","Rain,Snow,Fog"
"-119.60","49.46","PENTICTON A","1126146","2018-03-02 17:00","2018","03","02","17:00","1.7","","0.4","","91","","","","16","","20","","8.1","","96.40","","","","","","Rain,Fog"
"-119.60","49.46","PENTICTON A","1126146","2018-03-02 18:00","2018","03","02","18:00","1.9","","0.6","","91","","","","16","","22","","9.7","","96.50","","","","","","Rain,Fog"
"-119.60","49.46","PENTICTON A","1126146","2018-03-02 19:00","2018","03","02","19:00","2.2","","0.6","","89","","","","17","","22","","12.9","","96.56","","","","","","Rain"
"-119.60","49.46","PENTICTON A","1126146","2018-03-02 20:00","2018","03","02","20:00","2.1","","0.6","","89","","","","16","","23","","19.3","","96.61","","","","","","Rain"
"-119.60","49.46","PENTICTON A","1126146","2018-03-02 21:00","2018","03","02","21:00","2.5","","0.5","","87","","","","18","","25","","19.3","","96.67","","","","","","Rain"
"-119.60","49.46","PENTICTON A","1126146","2018-03-02 22:00","2018","03","02","22:00","2.0","","0.7","","91","","","","16","","18","","19.3","","96.75","","","","","","Cloudy"
"-119.60","49.46","PENTICTON A","1126146","2018-03-02 23:00","2018","03","02","23:00","1.9","","0.5","","91","","","","17","","16","","19.3","","96.82","","","","","","Rain"
"-119.60","49.46","PENTICTON A","1126146","2018-03-03 00:00","2018","03","03","00:00","2.2","","0.3","","87","","","","17","","20","","19.3","","96.87","","","","","","Rain"
"-119.60","49.46","PENTICTON A","1126146","2018-03-03 01:00","2018","03","03","01:00","2.2","","0.2","","86","","","","18","","21","","24.1","","96.94","","","","","","Rain"
"-119.60","49.46","PENTICTON A","1126146","2018-03-03 02:00","2018","03","03","02:00","2.1","","0.2","","88","","","","19","","18","","24.1","","97.01","","","","","","Rain"
"-119.60","49.46","PENTICTON A","1126146","2018-03-03 03:00","2018","03","03","03:00","1.4","","0.2","","92","","","","9","","4","","24.1","","97.04","","","","","","Rain"
"-119.60","49.46","PENTICTON A","1126146","2018-03-03 04:00","2018","03","03","04:00","1.3","","-0.5","","88","","","","1","","10","","24.1","","97.14","","","","","","Cloudy"
"-119.60","49.46","PENTICTON A","1126146","2018-03-03 05:00","2018","03","03","05:00","1.2","","-3.7","","70","","","","35","","3","","24.1","","97.22","","","","","","NA"
"-119.60","49.46","PENTICTON A","1126146","2018-03-03 06:00","2018","03","03","06:00","0.0","","-5.0","","69","","","","1","","9","","24.1","","97.29","","","","-3","","NA"
"-119.60","49.46","PENTICTON A","1126146","2018-03-03 07:00","2018","03","03","07:00","-0.3","","-5.0","","70","","","","34","","10","","24.1","","97.36","","","","-4","","Mostly Cloudy"
"-119.60","49.46","PENTICTON A","1126146","2018-03-03 08:00","2018","03","03","08:00","0.6","","-5.1","","66","","","","36","","13","","24.1","","97.45","","","","","","NA"
"-119.60","49.46","PENTICTON A","1126146","2018-03-03 09:00","2018","03","03","09:00","0.4","","-5.7","","63","","","","33","","11","","24.1","","97.52","","","","","","NA"
"-119.60","49.46","PENTICTON A","1126146","2018-03-03 10:00","2018","03","03","10:00","1.3","","-6.2","","57","","","","1","","20","","24.1","","97.57","","","","","","Cloudy"
"-119.60","49.46","PENTICTON A","1126146","2018-03-03 11:00","2018","03","03","11:00","1.5","","-5.8","","58","","","","1","","14","","24.1","","97.57","","","","","","NA"
"-119.60","49.46","PENTICTON A","1126146","2018-03-03 12:00","2018","03","03","12:00","2.3","","-6.7","","51","","","","35","","21","","24.1","","97.55","","","","","","NA"
"-119.60","49.46","PENTICTON A","1126146","2018-03-03 13:00","2018","03","03","13:00","2.5","","-6.9","","50","","","","1","","17","","24.1","","97.52","","","","","","Cloudy"
"-119.60","49.46","PENTICTON A","1126146","2018-03-03 14:00","2018","03","03","14:00","2.9","","-7.5","","47","","","","2","","17","","24.1","","97.52","","","","","","NA"
"-119.60","49.46","PENTICTON A","1126146","2018-03-03 15:00","2018","03","03","15:00","2.3","","-6.9","","51","","","","2","","16","","24.1","","97.51","","","","","","NA"
"-119.60","49.46","PENTICTON A","1126146","2018-03-03 16:00","2018","03","03","16:00","2.6","","-7.3","","48","","","","2","","16","","24.1","","97.53","","","","","","Mostly Cloudy"
"-119.60","49.46","PENTICTON A","1126146","2018-03-03 17:00","2018","03","03","17:00","1.7","","-6.1","","56","","","","1","","16","","24.1","","97.58","","","","","","NA"
"-119.60","49.46","PENTICTON A","1126146","2018-03-03 18:00","2018","03","03","18:00","-0.5","","-5.8","","68","","","","35","","8","","24.1","","97.57","","","","-3","","NA"
"-119.60","49.46","PENTICTON A","1126146","2018-03-03 19:00","2018","03","03","19:00","-1.2","","-5.5","","73","","","","1","","14","","24.1","","97.62","","","","-6","","Mainly Clear"
"-119.60","49.46","PENTICTON A","1126146","2018-03-03 20:00","2018","03","03","20:00","-0.8","","-5.8","","69","","","","3","","12","","24.1","","97.68","","","","-5","","NA"
"-119.60","49.46","PENTICTON A","1126146","2018-03-03 21:00","2018","03","03","21:00","-0.6","","-6.9","","63","","","","1","","15","","24.1","","97.71","","","","-5","","NA"
"-119.60","49.46","PENTICTON A","1126146","2018-03-03 22:00","2018","03","03","22:00","-0.7","","-6.9","","63","","","","1","","12","","24.1","","97.73","","","","-5","","Mostly Cloudy"
"-119.60","49.46","PENTICTON A","1126146","2018-03-03 23:00","2018","03","03","23:00","-1.0","","-6.5","","67","","","","1","","8","","24.1","","97.76","","","","-4","","NA"
"-119.60","49.46","PENTICTON A","1126146","2018-03-04 00:00","2018","03","04","00:00","-0.9","","-6.9","","64","","","","1","","11","","24.1","","97.78","","","","-5","","NA"
"-119.60","49.46","PENTICTON A","1126146","2018-03-04 01:00","2018","03","04","01:00","-1.1","","-7.0","","65","","","","35","","12","","24.1","","97.82","","","","-5","","Mostly Cloudy"
"-119.60","49.46","PENTICTON A","1126146","2018-03-04 02:00","2018","03","04","02:00","-1.2","","-7.4","","63","","","","34","","13","","24.1","","97.87","","","","-5","","NA"
"-119.60","49.46","PENTICTON A","1126146","2018-03-04 03:00","2018","03","04","03:00","-1.2","","-8.0","","60","","","","35","","16","","24.1","","97.89","","","","-6","","NA"
"-119.60","49.46","PENTICTON A","1126146","2018-03-04 04:00","2018","03","04","04:00","-1.4","","-8.0","","61","","","","35","","14","","24.1","","97.91","","","","-6","","Cloudy"
"-119.60","49.46","PENTICTON A","1126146","2018-03-04 05:00","2018","03","04","05:00","-1.6","","-8.2","","61","","","","36","","9","","24.1","","97.95","","","","-5","","NA"
"-119.60","49.46","PENTICTON A","1126146","2018-03-04 06:00","2018","03","04","06:00","-1.8","","-8.2","","62","","","","35","","13","","24.1","","97.99","","","","-6","","NA"
"-119.60","49.46","PENTICTON A","1126146","2018-03-04 07:00","2018","03","04","07:00","-1.9","","-8.2","","62","","","","36","","10","","24.1","","98.04","","","","-6","","Cloudy"
"-119.60","49.46","PENTICTON A","1126146","2018-03-04 08:00","2018","03","04","08:00","-1.6","","-8.5","","60","","","","34","","16","","19.3","","98.10","","","","-7","","NA"
"-119.60","49.46","PENTICTON A","1126146","2018-03-04 09:00","2018","03","04","09:00","-1.4","","-8.3","","60","","","","35","","20","","19.3","","98.17","","","","-7","","NA"
"-119.60","49.46","PENTICTON A","1126146","2018-03-04 10:00","2018","03","04","10:00","-1.0","","-8.5","","57","","","","36","","17","","24.1","","98.20","","","","-6","","Cloudy"
"-119.60","49.46","PENTICTON A","1126146","2018-03-04 11:00","2018","03","04","11:00","-1.0","","-8.4","","57","","","","2","","17","","24.1","","98.22","","","","-6","","NA"
"-119.60","49.46","PENTICTON A","1126146","2018-03-04 12:00","2018","03","04","12:00","-0.9","","-8.6","","56","","","","2","","16","","24.1","","98.25","","","","-6","","NA"
"-119.60","49.46","PENTICTON A","1126146","2018-03-04 13:00","2018","03","04","13:00","-0.1","","-8.2","","54","","","","4","","12","","24.1","","98.23","","","","-4","","Cloudy"
"-119.60","49.46","PENTICTON A","1126146","2018-03-04 14:00","2018","03","04","14:00","0.1","","-8.0","","55","","","","35","","12","","24.1","","98.21","","","","","","NA"
"-119.60","49.46","PENTICTON A","1126146","2018-03-04 15:00","2018","03","04","15:00","0.5","","-8.1","","53","","","","35","","11","","24.1","","98.21","","","","","","NA"
"-119.60","49.46","PENTICTON A","1126146","2018-03-04 16:00","2018","03","04","16:00","0.4","","-8.5","","51","","","","33","","8","","24.1","","98.21","","","","","","Cloudy"
"-119.60","49.46","PENTICTON A","1126146","2018-03-04 17:00","2018","03","04","17:00","0.2","","-7.7","","55","","","","34","","13","","24.1","","98.26","","","","","","NA"
"-119.60","49.46","PENTICTON A","1126146","2018-03-04 18:00","2018","03","04","18:00","-0.3","","-7.7","","58","","","","28","","4","","24.1","","98.28","","","","-2","","NA"
"-119.60","49.46","PENTICTON A","1126146","2018-03-04 19:00","2018","03","04","19:00","-0.5","","-7.2","","60","","","","36","","2","","24.1","","98.29","","","","-1","","Cloudy"
"-119.60","49.46","PENTICTON A","1126146","2018-03-04 20:00","2018","03","04","20:00","-1.5","","-3.7","","85","","","","36","","3","","24.1","","98.31","","","","-3","","NA"
"-119.60","49.46","PENTICTON A","1126146","2018-03-04 21:00","2018","03","04","21:00","-1.6","","-4.3","","82","","","","17","","6","","24.1","","98.32","","","","-4","","NA"
"-119.60","49.46","PENTICTON A","1126146","2018-03-04 22:00","2018","03","04","22:00","-1.4","","-3.8","","84","","","","18","","10","","24.1","","98.33","","","","-5","","Cloudy"
"-119.60","49.46","PENTICTON A","1126146","2018-03-04 23:00","2018","03","04","23:00","-2.2","","-4.7","","83","","","","17","","5","","16.1","","98.31","","","","-4","","NA"
"-119.60","49.46","PENTICTON A","1126146","2018-03-05 00:00","2018","03","05","00:00","-2.2","","-5.0","","81","","","","25","","4","","24.1","","98.35","","","","-4","","NA"
"-119.60","49.46","PENTICTON A","1126146","2018-03-05 01:00","2018","03","05","01:00","-4.3","","-5.7","","90","","","","36","","2","","24.1","","98.38","","","","-5","","Mostly Cloudy"
"-119.60","49.46","PENTICTON A","1126146","2018-03-05 02:00","2018","03","05","02:00","-3.8","","-5.0","","91","","","","31","","4","","24.1","","98.38","","","","-5","","NA"
"-119.60","49.46","PENTICTON A","1126146","2018-03-05 03:00","2018","03","05","03:00","-4.1","","-6.5","","84","","","","35","","4","","24.1","","98.38","","","","-6","","NA"
"-119.60","49.46","PENTICTON A","1126146","2018-03-05 04:00","2018","03","05","04:00","-3.4","","-5.4","","86","","","","34","","7","","24.1","","98.41","","","","-6","","Cloudy"
"-119.60","49.46","PENTICTON A","1126146","2018-03-05 05:00","2018","03","05","05:00","-3.4","","-5.3","","86","","","","3","","4","","16.1","","98.46","","","","-5","","Snow"
"-119.60","49.46","PENTICTON A","1126146","2018-03-05 06:00","2018","03","05","06:00","-2.9","","-5.4","","83","","","","33","","6","","24.1","","98.45","","","","-5","","NA"
"-119.60","49.46","PENTICTON A","1126146","2018-03-05 07:00","2018","03","05","07:00","-2.4","","-4.9","","83","","","","36","","8","","19.3","","98.49","","","","-6","","Snow"
"-119.60","49.46","PENTICTON A","1126146","2018-03-05 08:00","2018","03","05","08:00","-1.8","","-4.1","","84","","","","34","","7","","8.1","","98.52","","","","-4","","Snow"
"-119.60","49.46","PENTICTON A","1126146","2018-03-05 09:00","2018","03","05","09:00","-1.2","","-3.9","","82","","","","34","","5","","4.8","","98.55","","","","-3","","Snow"
"-119.60","49.46","PENTICTON A","1126146","2018-03-05 10:00","2018","03","05","10:00","-0.7","","-3.4","","82","","","","1","","9","","11.3","","98.60","","","","-4","","Snow"
"-119.60","49.46","PENTICTON A","1126146","2018-03-05 11:00","2018","03","05","11:00","-0.6","","-3.1","","84","","","","35","","9","","24.1","","98.60","","","","-4","","Snow"
"-119.60","49.46","PENTICTON A","1126146","2018-03-05 12:00","2018","03","05","12:00","-0.2","","-3.9","","76","","","","36","","11","","24.1","","98.59","","","","-4","","Snow"
"-119.60","49.46","PENTICTON A","1126146","2018-03-05 13:00","2018","03","05","13:00","-0.1","","-3.9","","76","","","","34","","9","","24.1","","98.59","","","","-3","","Snow"
"-119.60","49.46","PENTICTON A","1126146","2018-03-05 14:00","2018","03","05","14:00","0.1","","-3.6","","76","","","","34","","9","","24.1","","98.55","","","","","","Snow"
"-119.60","49.46","PENTICTON A","1126146","2018-03-05 15:00","2018","03","05","15:00","0.4","","-3.7","","74","","","","1","","13","","24.1","","98.56","","","","","","Snow"
"-119.60","49.46","PENTICTON A","1126146","2018-03-05 16:00","2018","03","05","16:00","0.3","","-3.8","","74","","","","35","","9","","24.1","","98.57","","","","","","Snow"
"-119.60","49.46","PENTICTON A","1126146","2018-03-05 17:00","2018","03","05","17:00","0.3","","-3.7","","75","","","","36","","10","","24.1","","98.55","","","","","","Snow"
"-119.60","49.46","PENTICTON A","1126146","2018-03-05 18:00","2018","03","05","18:00","-0.2","","-3.6","","78","","","","36","","6","","24.1","","98.53","","","","-2","","Snow"
"-119.60","49.46","PENTICTON A","1126146","2018-03-05 19:00","2018","03","05","19:00","-0.1","","-3.8","","76","","","","34","","8","","19.3","","98.56","","","","-3","","Cloudy"
"-119.60","49.46","PENTICTON A","1126146","2018-03-05 20:00","2018","03","05","20:00","-0.3","","-3.5","","79","","","","33","","5","","16.1","","98.58","","","","-2","","Snow"
"-119.60","49.46","PENTICTON A","1126146","2018-03-05 21:00","2018","03","05","21:00","-0.3","","-3.4","","80","","","","21","","3","","24.1","","98.59","","","","-1","","Snow"
"-119.60","49.46","PENTICTON A","1126146","2018-03-05 22:00","2018","03","05","22:00","-1.8","","-3.3","","89","","","","36","","1","","24.1","","98.60","","","","-2","","Cloudy"
"-119.60","49.46","PENTICTON A","1126146","2018-03-05 23:00","2018","03","05","23:00","-2.4","","-3.8","","91","","","","34","","6","","24.1","","98.61","","","","-5","","NA"
"-119.60","49.46","PENTICTON A","1126146","2018-03-06 00:00","2018","03","06","00:00","-2.8","","-4.2","","90","","","","1","","7","","24.1","","98.62","","","","-6","","NA"
"-119.60","49.46","PENTICTON A","1126146","2018-03-06 01:00","2018","03","06","01:00","-2.2","","-3.5","","91","","","","36","","7","","24.1","","98.63","","","","-5","","Mostly Cloudy"
"-119.60","49.46","PENTICTON A","1126146","2018-03-06 02:00","2018","03","06","02:00","-3.6","","-4.5","","94","","","","36","","3","","24.1","","98.63","","","","-5","","NA"
"-119.60","49.46","PENTICTON A","1126146","2018-03-06 03:00","2018","03","06","03:00","-2.8","","-4.4","","89","","","","5","","4","","24.1","","98.63","","","","-4","","NA"
"-119.60","49.46","PENTICTON A","1126146","2018-03-06 04:00","2018","03","06","04:00","-2.8","","-4.1","","91","","","","36","","2","","24.1","","98.65","","","","-4","","Cloudy"
"-119.60","49.46","PENTICTON A","1126146","2018-03-06 05:00","2018","03","06","05:00","-2.4","","-3.7","","91","","","","36","","1","","19.3","","98.68","","","","-3","","NA"
"-119.60","49.46","PENTICTON A","1126146","2018-03-06 06:00","2018","03","06","06:00","-2.1","","-3.7","","89","","","","36","","1","","24.1","","98.68","","","","-2","","NA"
"-119.60","49.46","PENTICTON A","1126146","2018-03-06 07:00","2018","03","06","07:00","-2.0","","-3.2","","91","","","","36","","2","","24.1","","98.68","","","","-3","","Cloudy"
"-119.60","49.46","PENTICTON A","1126146","2018-03-06 08:00","2018","03","06","08:00","-1.0","","-3.0","","86","","","","36","","3","","24.1","","98.73","","","","-2","","NA"
"-119.60","49.46","PENTICTON A","1126146","2018-03-06 09:00","2018","03","06","09:00","0.0","","-2.6","","82","","","","25","","4","","24.1","","98.73","","","","-1","","NA"
"-119.60","49.46","PENTICTON A","1126146","2018-03-06 10:00","2018","03","06","10:00","1.5","","-2.4","","76","","","","16","","8","","24.1","","98.71","","","","","","Mostly Cloudy"
"-119.60","49.46","PENTICTON A","1126146","2018-03-06 11:00","2018","03","06","11:00","2.2","","-3.2","","68","","","","20","","8","","24.1","","98.71","","","","","","NA"
"-119.60","49.46","PENTICTON A","1126146","2018-03-06 12:00","2018","03","06","12:00","4.0","","-2.6","","62","","","","24","","3","","24.1","","98.66","","","","","","NA"
"-119.60","49.46","PENTICTON A","1126146","2018-03-06 13:00","2018","03","06","13:00","5.0","","-3.3","","55","","","","21","","8","","24.1","","98.58","","","","","","Mainly Clear"
"-119.60","49.46","PENTICTON A","1126146","2018-03-06 14:00","2018","03","06","14:00","6.6","","-3.5","","48","","","","34","","3","","24.1","","98.53","","","","","","NA"
"-119.60","49.46","PENTICTON A","1126146","2018-03-06 15:00","2018","03","06","15:00","4.5","","-0.9","","68","","","","35","","12","","24.1","","98.48","","","","","","NA"
"-119.60","49.46","PENTICTON A","1126146","2018-03-06 16:00","2018","03","06","16:00","4.0","","-1.4","","68","","","","36","","12","","24.1","","98.48","","","","","","Mostly Cloudy"
"-119.60","49.46","PENTICTON A","1126146","2018-03-06 17:00","2018","03","06","17:00","3.8","","-2.0","","66","","","","35","","9","","24.1","","98.46","","","","","","NA"
"-119.60","49.46","PENTICTON A","1126146","2018-03-06 18:00","2018","03","06","18:00","2.7","","-1.5","","73","","","","35","","6","","24.1","","98.45","","","","","","NA"
"-119.60","49.46","PENTICTON A","1126146","2018-03-06 19:00","2018","03","06","19:00","1.7","","-2.1","","76","","","","28","","4","","24.1","","98.43","","","","","","Mostly Cloudy"
"-119.60","49.46","PENTICTON A","1126146","2018-03-06 20:00","2018","03","06","20:00","0.4","","-2.2","","82","","","","0","","1","","24.1","","98.40","","","","","","NA"
"-119.60","49.46","PENTICTON A","1126146","2018-03-06 21:00","2018","03","06","21:00","-1.0","","-3.1","","85","","","","36","","1","","24.1","","98.41","","","","-1","","NA"
"-119.60","49.46","PENTICTON A","1126146","2018-03-06 22:00","2018","03","06","22:00","-2.0","","-3.4","","90","","","","1","","3","","24.1","","98.43","","","","-3","","Mainly Clear"
"-119.60","49.46","PENTICTON A","1126146","2018-03-06 23:00","2018","03","06","23:00","-2.2","","-3.4","","92","","","","0","","1","","24.1","","98.43","","","","-3","","NA"
"-119.60","49.46","PENTICTON A","1126146","2018-03-07 00:00","2018","03","07","00:00","-3.3","","-4.3","","93","","","","35","","3","","24.1","","98.41","","","","-5","","NA"
"-119.60","49.46","PENTICTON A","1126146","2018-03-07 01:00","2018","03","07","01:00","-2.9","","-4.1","","91","","","","14","","3","","24.1","","98.43","","","","-4","","Mainly Clear"
"-119.60","49.46","PENTICTON A","1126146","2018-03-07 02:00","2018","03","07","02:00","-3.1","","-4.7","","88","","","","26","","3","","24.1","","98.40","","","","-4","","NA"
"-119.60","49.46","PENTICTON A","1126146","2018-03-07 03:00","2018","03","07","03:00","-3.8","","-4.8","","93","","","","8","","4","","24.1","","98.33","","","","-5","","NA"
"-119.60","49.46","PENTICTON A","1126146","2018-03-07 04:00","2018","03","07","04:00","-4.4","","-6.0","","89","","","","36","","1","","24.1","","98.29","","","","-5","","Mainly Clear"
"-119.60","49.46","PENTICTON A","1126146","2018-03-07 05:00","2018","03","07","05:00","-4.9","","-6.6","","88","","","","0","","1","","24.1","","98.30","","","","-5","","NA"
"-119.60","49.46","PENTICTON A","1126146","2018-03-07 06:00","2018","03","07","06:00","-5.2","","-6.5","","91","","","","36","","3","","24.1","","98.28","","","","-7","","NA"
"-119.60","49.46","PENTICTON A","1126146","2018-03-07 07:00","2018","03","07","07:00","-6.0","","-7.6","","88","","","","36","","1","","24.1","","98.25","","","","-6","","Mainly Clear"
"-119.60","49.46","PENTICTON A","1126146","2018-03-07 08:00","2018","03","07","08:00","-2.3","","-4.8","","83","","","","36","","1","","24.1","","98.27","","","","-3","","NA"
"-119.60","49.46","PENTICTON A","1126146","2018-03-07 09:00","2018","03","07","09:00","-0.8","","-4.4","","77","","","","18","","3","","24.1","","98.21","","","","-2","","NA"
"-119.60","49.46","PENTICTON A","1126146","2018-03-07 10:00","2018","03","07","10:00","0.6","","-5.3","","64","","","","13","","8","","24.1","","98.16","","","","","","Mainly Clear"
"-119.60","49.46","PENTICTON A","1126146","2018-03-07 11:00","2018","03","07","11:00","1.8","","-4.6","","62","","","","28","","4","","24.1","","98.08","","","","","","NA"
"-119.60","49.46","PENTICTON A","1126146","2018-03-07 12:00","2018","03","07","12:00","3.3","","-4.7","","56","","","","5","","3","","24.1","","98.02","","","","","","NA"
"-119.60","49.46","PENTICTON A","1126146","2018-03-07 13:00","2018","03","07","13:00","4.4","","-3.5","","56","","","","1","","14","","24.1","","97.90","","","","","","Mostly Cloudy"
"-119.60","49.46","PENTICTON A","1126146","2018-03-07 14:00","2018","03","07","14:00","4.7","","-3.8","","54","","","","36","","3","","24.1","","97.84","","","","","","NA"
"-119.60","49.46","PENTICTON A","1126146","2018-03-07 15:00","2018","03","07","15:00","5.0","","-3.5","","54","","","","33","","7","","24.1","","97.78","","","","","","NA"
"-119.60","49.46","PENTICTON A","1126146","2018-03-07 16:00","2018","03","07","16:00","5.3","","-3.4","","53","","","","36","","7","","24.1","","97.72","","","","","","Cloudy"
"-119.60","49.46","PENTICTON A","1126146","2018-03-07 17:00","2018","03","07","17:00","3.8","","-3.3","","60","","","","34","","12","","24.1","","97.68","","","","","","NA"
"-119.60","49.46","PENTICTON A","1126146","2018-03-07 18:00","2018","03","07","18:00","3.1","","-3.3","","63","","","","34","","8","","24.1","","97.63","","","","","","NA"
"-119.60","49.46","PENTICTON A","1126146","2018-03-07 19:00","2018","03","07","19:00","2.7","","-2.7","","67","","","","33","","3","","24.1","","97.62","","","","","","Cloudy"
"-119.60","49.46","PENTICTON A","1126146","2018-03-07 20:00","2018","03","07","20:00","1.7","","-2.6","","73","","","","","","0","","24.1","","97.58","","","","","","NA"
"-119.60","49.46","PENTICTON A","1126146","2018-03-07 21:00","2018","03","07","21:00","2.2","","-2.4","","72","","","","31","","7","","24.1","","97.57","","","","","","NA"
"-119.60","49.46","PENTICTON A","1126146","2018-03-07 22:00","2018","03","07","22:00","1.3","","-2.5","","76","","","","7","","3","","24.1","","97.50","","","","","","Cloudy"
"-119.60","49.46","PENTICTON A","1126146","2018-03-07 23:00","2018","03","07","23:00","0.1","","-2.2","","84","","","","36","","4","","24.1","","97.44","","","","","","NA"
"-119.60","49.46","PENTICTON A","1126146","2018-03-08 00:00","2018","03","08","00:00","0.5","","-2.2","","82","","","","36","","3","","24.1","","97.43","","","","","","NA"
"-119.60","49.46","PENTICTON A","1126146","2018-03-08 01:00","2018","03","08","01:00","0.5","","-1.0","","89","","","","21","","7","","24.1","","97.39","","","","","","Cloudy"
"-119.60","49.46","PENTICTON A","1126146","2018-03-08 02:00","2018","03","08","02:00","0.7","","-0.8","","90","","","","17","","6","","8.1","","97.34","","","","","","Snow"
"-119.60","49.46","PENTICTON A","1126146","2018-03-08 03:00","2018","03","08","03:00","0.1","","-0.3","","97","","","","","","0","","2.4","","97.21","","","","","","Snow"
"-119.60","49.46","PENTICTON A","1126146","2018-03-08 04:00","2018","03","08","04:00","0.0","","-0.3","","98","","","","3","","5","","1.6","","97.13","","","","-2","","Snow"
"-119.60","49.46","PENTICTON A","1126146","2018-03-08 05:00","2018","03","08","05:00","-0.1","","-0.3","","99","","","","36","","3","","1.6","","97.06","","","","-1","","Snow"
"-119.60","49.46","PENTICTON A","1126146","2018-03-08 06:00","2018","03","08","06:00","-0.1","","-0.3","","99","","","","18","","4","","1.6","","97.00","","","","-1","","Snow"
"-119.60","49.46","PENTICTON A","1126146","2018-03-08 07:00","2018","03","08","07:00","0.0","","-0.2","","99","","","","36","","2","","1.6","","96.96","","","","-1","","Fog"
"-119.60","49.46","PENTICTON A","1126146","2018-03-08 08:00","2018","03","08","08:00","-0.1","","-0.2","","99","","","","36","","2","","4.8","","96.93","","","","-1","","Snow,Fog"
"-119.60","49.46","PENTICTON A","1126146","2018-03-08 09:00","2018","03","08","09:00","0.1","","-0.2","","98","","","","36","","2","","8.1","","96.89","","","","","","Snow"
"-119.60","49.46","PENTICTON A","1126146","2018-03-08 10:00","2018","03","08","10:00","1.1","","0.0","","92","","","","13","","6","","16.1","","96.82","","","","","","Cloudy"
"-119.60","49.46","PENTICTON A","1126146","2018-03-08 11:00","2018","03","08","11:00","1.7","","0.4","","91","","","","15","","26","","19.3","","96.76","","","","","","Rain"
"-119.60","49.46","PENTICTON A","1126146","2018-03-08 12:00","2018","03","08","12:00","1.9","","0.8","","92","","","","15","","24","","16.1","","96.69","","","","","","Rain"
"-119.60","49.46","PENTICTON A","1126146","2018-03-08 13:00","2018","03","08","13:00","2.9","","1.7","","92","","","","14","","20","","24.1","","96.57","","","","","","Rain"
"-119.60","49.46","PENTICTON A","1126146","2018-03-08 14:00","2018","03","08","14:00","3.6","","2.3","","91","","","","15","","20","","19.3","","96.46","","","","","","Rain"
"-119.60","49.46","PENTICTON A","1126146","2018-03-08 15:00","2018","03","08","15:00","4.3","","2.4","","87","","","","16","","22","","19.3","","96.37","","","","","","Rain"
"-119.60","49.46","PENTICTON A","1126146","2018-03-08 16:00","2018","03","08","16:00","4.1","","2.0","","86","","","","17","","25","","24.1","","96.30","","","","","","Rain"
"-119.60","49.46","PENTICTON A","1126146","2018-03-08 17:00","2018","03","08","17:00","4.2","","1.8","","84","","","","15","","21","","24.1","","96.23","","","","","","NA"
"-119.60","49.46","PENTICTON A","1126146","2018-03-08 18:00","2018","03","08","18:00","3.9","","1.9","","86","","","","14","","16","","24.1","","96.26","","","","","","NA"
"-119.60","49.46","PENTICTON A","1126146","2018-03-08 19:00","2018","03","08","19:00","4.8","","2.0","","82","","","","19","","27","","24.1","","96.22","","","","","","Cloudy"
"-119.60","49.46","PENTICTON A","1126146","2018-03-08 20:00","2018","03","08","20:00","5.4","","2.0","","79","","","","19","","33","","24.1","","96.17","","","","","","NA"
"-119.60","49.46","PENTICTON A","1126146","2018-03-08 21:00","2018","03","08","21:00","5.4","","2.1","","79","","","","19","","28","","24.1","","96.18","","","","","","NA"
"-119.60","49.46","PENTICTON A","1126146","2018-03-08 22:00","2018","03","08","22:00","5.4","","2.1","","79","","","","18","","24","","24.1","","96.15","","","","","","Cloudy"
"-119.60","49.46","PENTICTON A","1126146","2018-03-08 23:00","2018","03","08","23:00","5.8","","2.3","","78","","","","18","","26","","24.1","","96.12","","","","","","NA"
"-119.60","49.46","PENTICTON A","1126146","2018-03-09 00:00","2018","03","09","00:00","6.2","","2.4","","77","","","","19","","28","","24.1","","96.12","","","","","","NA"
"-119.60","49.46","PENTICTON A","1126146","2018-03-09 01:00","2018","03","09","01:00","5.7","","2.2","","78","","","","18","","35","","24.1","","96.13","","","","","","Cloudy"
"-119.60","49.46","PENTICTON A","1126146","2018-03-09 02:00","2018","03","09","02:00","5.6","","2.0","","78","","","","18","","24","","24.1","","96.15","","","","","","NA"
"-119.60","49.46","PENTICTON A","1126146","2018-03-09 03:00","2018","03","09","03:00","5.5","","1.8","","77","","","","18","","23","","24.1","","96.16","","","","","","NA"
"-119.60","49.46","PENTICTON A","1126146","2018-03-09 04:00","2018","03","09","04:00","5.8","","1.5","","74","","","","36","","1","","24.1","","96.22","","","","","","Mostly Cloudy"
"-119.60","49.46","PENTICTON A","1126146","2018-03-09 05:00","2018","03","09","05:00","3.1","","2.0","","92","","","","28","","9","","16.1","","96.36","","","","","","Rain"
"-119.60","49.46","PENTICTON A","1126146","2018-03-09 06:00","2018","03","09","06:00","3.9","","1.4","","84","","","","24","","14","","24.1","","96.41","","","","","","NA"
"-119.60","49.46","PENTICTON A","1126146","2018-03-09 07:00","2018","03","09","07:00","2.5","","0.7","","88","","","","35","","4","","24.1","","96.53","","","","","","Mostly Cloudy"
"-119.60","49.46","PENTICTON A","1126146","2018-03-09 08:00","2018","03","09","08:00","4.3","","-2.7","","60","","","","36","","25","","24.1","","96.73","","","","","","NA"
"-119.60","49.46","PENTICTON A","1126146","2018-03-09 09:00","2018","03","09","09:00","4.3","","-3.3","","58","","","","1","","17","","24.1","","96.91","","","","","","NA"
"-119.60","49.46","PENTICTON A","1126146","2018-03-09 10:00","2018","03","09","10:00","6.4","","-6.5","","39","","","","31","","26","","24.1","","97.03","","","","","","Mostly Cloudy"
"-119.60","49.46","PENTICTON A","1126146","2018-03-09 11:00","2018","03","09","11:00","6.3","","-4.5","","46","","","","4","","19","","24.1","","97.15","","","","","","NA"
"-119.60","49.46","PENTICTON A","1126146","2018-03-09 12:00","2018","03","09","12:00","7.0","","-3.6","","47","","","","36","","27","","24.1","","97.24","","","","","","NA"
"-119.60","49.46","PENTICTON A","1126146","2018-03-09 13:00","2018","03","09","13:00","7.6","","-4.9","","41","","","","4","","15","","24.1","","97.29","","","","","","Mostly Cloudy"
"-119.60","49.46","PENTICTON A","1126146","2018-03-09 14:00","2018","03","09","14:00","7.2","","-4.8","","42","","","","36","","20","","24.1","","97.34","","","","","","NA"
"-119.60","49.46","PENTICTON A","1126146","2018-03-09 15:00","2018","03","09","15:00","7.1","","-6.0","","39","","","","36","","7","","24.1","","97.41","","","","","","NA"
"-119.60","49.46","PENTICTON A","1126146","2018-03-09 16:00","2018","03","09","16:00","7.3","","-5.0","","41","","","","33","","5","","24.1","","97.47","","","","","","Mostly Cloudy"
"-119.60","49.46","PENTICTON A","1126146","2018-03-09 17:00","2018","03","09","17:00","7.4","","-5.5","","39","","","","11","","3","","24.1","","97.53","","","","","","NA"
"-119.60","49.46","PENTICTON A","1126146","2018-03-09 18:00","2018","03","09","18:00","5.8","","-6.8","","40","","","","28","","10","","24.1","","97.56","","","","","","NA"
"-119.60","49.46","PENTICTON A","1126146","2018-03-09 19:00","2018","03","09","19:00","5.3","","-7.3","","40","","","","33","","9","","24.1","","97.64","","","","","","Mainly Clear"
"-119.60","49.46","PENTICTON A","1126146","2018-03-09 20:00","2018","03","09","20:00","2.6","","-5.9","","54","","","","1","","9","","24.1","","97.73","","","","","","NA"
"-119.60","49.46","PENTICTON A","1126146","2018-03-09 21:00","2018","03","09","21:00","0.0","","-5.9","","65","","","","36","","3","","24.1","","97.81","","","","-1","","NA"
"-119.60","49.46","PENTICTON A","1126146","2018-03-09 22:00","2018","03","09","22:00","-1.6","","-5.6","","74","","","","34","","8","","24.1","","97.87","","","","-5","","Clear"
"-119.60","49.46","PENTICTON A","1126146","2018-03-09 23:00","2018","03","09","23:00","-1.6","","-5.0","","77","","","","4","","3","","24.1","","97.95","","","","-3","","NA"
"-119.60","49.46","PENTICTON A","1126146","2018-03-10 00:00","2018","03","10","00:00","-2.2","","-6.3","","73","","","","25","","6","","24.1","","97.98","","","","-5","","NA"
"-119.60","49.46","PENTICTON A","1126146","2018-03-10 01:00","2018","03","10","01:00","-3.5","","-6.3","","81","","","","34","","10","","24.1","","98.04","","","","-7","","Clear"
"-119.60","49.46","PENTICTON A","1126146","2018-03-10 02:00","2018","03","10","02:00","-2.2","","-6.8","","71","","","","22","","3","","24.1","","98.05","","","","-3","","NA"
"-119.60","49.46","PENTICTON A","1126146","2018-03-10 03:00","2018","03","10","03:00","-2.3","","-6.5","","73","","","","0","","1","","24.1","","98.09","","","","-3","","NA"
"-119.60","49.46","PENTICTON A","1126146","2018-03-10 04:00","2018","03","10","04:00","-5.1","","-7.3","","85","","","","4","","3","","24.1","","98.14","","","","-6","","Clear"
"-119.60","49.46","PENTICTON A","1126146","2018-03-10 05:00","2018","03","10","05:00","-4.4","","-7.2","","81","","","","36","","12","","24.1","","98.17","","","","-9","","NA"
"-119.60","49.46","PENTICTON A","1126146","2018-03-10 06:00","2018","03","10","06:00","-4.8","","-7.5","","81","","","","1","","9","","24.1","","98.23","","","","-9","","NA"
"-119.60","49.46","PENTICTON A","1126146","2018-03-10 07:00","2018","03","10","07:00","-4.7","","-7.5","","81","","","","35","","7","","24.1","","98.28","","","","-8","","Clear"
"-119.60","49.46","PENTICTON A","1126146","2018-03-10 08:00","2018","03","10","08:00","-1.4","","-5.4","","74","","","","4","","3","","24.1","","98.33","","","","-2","","NA"
"-119.60","49.46","PENTICTON A","1126146","2018-03-10 09:00","2018","03","10","09:00","0.3","","-5.5","","65","","","","35","","10","","24.1","","98.33","","","","","","NA"
"-119.60","49.46","PENTICTON A","1126146","2018-03-10 10:00","2018","03","10","10:00","1.3","","-5.5","","61","","","","33","","8","","24.1","","98.35","","","","","","Clear"
"-119.60","49.46","PENTICTON A","1126146","2018-03-10 11:00","2018","03","10","11:00","2.5","","-5.3","","56","","","","36","","8","","24.1","","98.31","","","","","","NA"
"-119.60","49.46","PENTICTON A","1126146","2018-03-10 12:00","2018","03","10","12:00","3.6","","-5.2","","52","","","","35","","9","","24.1","","98.28","","","","","","NA"
"-119.60","49.46","PENTICTON A","1126146","2018-03-10 13:00","2018","03","10","13:00","4.6","","-4.9","","50","","","","36","","7","","24.1","","98.19","","","","","","Clear"
"-119.60","49.46","PENTICTON A","1126146","2018-03-10 14:00","2018","03","10","14:00","5.3","","-4.5","","49","","","","36","","12","","24.1","","98.14","","","","","","NA"
"-119.60","49.46","PENTICTON A","1126146","2018-03-10 15:00","2018","03","10","15:00","6.1","","-4.0","","48","","","","35","","9","","24.1","","98.10","","","","","","NA"
"-119.60","49.46","PENTICTON A","1126146","2018-03-10 16:00","2018","03","10","16:00","5.8","","-3.9","","50","","","","35","","11","","24.1","","98.05","","","","","","Clear"
"-119.60","49.46","PENTICTON A","1126146","2018-03-10 17:00","2018","03","10","17:00","3.9","","-3.7","","58","","","","34","","9","","24.1","","98.04","","","","","","NA"
"-119.60","49.46","PENTICTON A","1126146","2018-03-10 18:00","2018","03","10","18:00","1.3","","-3.7","","69","","","","36","","2","","24.1","","98.08","","","","","","NA"
"-119.60","49.46","PENTICTON A","1126146","2018-03-10 19:00","2018","03","10","19:00","-0.1","","-3.9","","76","","","","32","","9","","24.1","","98.12","","","","-3","","Clear"
"-119.60","49.46","PENTICTON A","1126146","2018-03-10 20:00","2018","03","10","20:00","-1.2","","-4.2","","81","","","","0","","1","","24.1","","98.18","","","","-2","","NA"
"-119.60","49.46","PENTICTON A","1126146","2018-03-10 21:00","2018","03","10","21:00","-0.7","","-4.3","","77","","","","0","","1","","24.1","","98.20","","","","-1","","NA"
"-119.60","49.46","PENTICTON A","1126146","2018-03-10 22:00","2018","03","10","22:00","-2.0","","-4.4","","84","","","","22","","4","","24.1","","98.23","","","","-3","","Clear"
"-119.60","49.46","PENTICTON A","1126146","2018-03-10 23:00","2018","03","10","23:00","-3.4","","-4.6","","91","","","","36","","2","","24.1","","98.28","","","","-4","","NA"
"-119.60","49.46","PENTICTON A","1126146","2018-03-11 00:00","2018","03","11","00:00","-4.7","","-6.0","","91","","","","2","","5","","24.1","","98.30","","","","-7","","NA"
"-119.60","49.46","PENTICTON A","1126146","2018-03-11 01:00","2018","03","11","01:00","-2.8","","-5.3","","83","","","","36","","12","","24.1","","98.32","","","","-7","","Clear"
"-119.60","49.46","PENTICTON A","1126146","2018-03-11 02:00","2018","03","11","02:00","-2.9","","-5.0","","86","","","","3","","4","","24.1","","98.36","","","","-4","","NA"
"-119.60","49.46","PENTICTON A","1126146","2018-03-11 03:00","2018","03","11","03:00","-4.0","","-6.2","","85","","","","29","","3","","24.1","","98.37","","","","-5","","NA"
"-119.60","49.46","PENTICTON A","1126146","2018-03-11 04:00","2018","03","11","04:00","-5.0","","-6.3","","91","","","","32","","4","","24.1","","98.44","","","","-7","","Clear"
"-119.60","49.46","PENTICTON A","1126146","2018-03-11 05:00","2018","03","11","05:00","-4.6","","-6.5","","87","","","","4","","9","","24.1","","98.48","","","","-8","","NA"
"-119.60","49.46","PENTICTON A","1126146","2018-03-11 06:00","2018","03","11","06:00","-4.2","","-6.4","","85","","","","3","","8","","24.1","","98.52","","","","-8","","NA"
"-119.60","49.46","PENTICTON A","1126146","2018-03-11 07:00","2018","03","11","07:00","-5.0","","-6.9","","87","","","","32","","10","","24.1","","98.55","","","","-9","","Clear"
"-119.60","49.46","PENTICTON A","1126146","2018-03-11 08:00","2018","03","11","08:00","-0.4","","-3.5","","80","","","","1","","7","","24.1","","98.57","","","","-3","","NA"
"-119.60","49.46","PENTICTON A","1126146","2018-03-11 09:00","2018","03","11","09:00","1.1","","-3.8","","70","","","","36","","11","","24.1","","98.61","","","","","","NA"
"-119.60","49.46","PENTICTON A","1126146","2018-03-11 10:00","2018","03","11","10:00","3.0","","-4.0","","60","","","","2","","10","","24.1","","98.64","","","","","","Clear"
"-119.60","49.46","PENTICTON A","1126146","2018-03-11 11:00","2018","03","11","11:00","4.3","","-4.7","","52","","","","36","","14","","24.1","","98.62","","","","","","NA"
"-119.60","49.46","PENTICTON A","1126146","2018-03-11 12:00","2018","03","11","12:00","5.4","","-4.0","","51","","","","35","","9","","24.1","","98.60","","","","","","NA"
"-119.60","49.46","PENTICTON A","1126146","2018-03-11 13:00","2018","03","11","13:00","6.9","","-3.8","","46","","","","35","","11","","24.1","","98.53","","","","","","Clear"
"-119.60","49.46","PENTICTON A","1126146","2018-03-11 14:00","2018","03","11","14:00","7.2","","-3.2","","48","","","","34","","15","","24.1","","98.51","","","","","","NA"
"-119.60","49.46","PENTICTON A","1126146","2018-03-11 15:00","2018","03","11","15:00","7.7","","-3.1","","46","","","","1","","13","","24.1","","98.47","","","","","","NA"
"-119.60","49.46","PENTICTON A","1126146","2018-03-11 16:00","2018","03","11","16:00","7.8","","-2.8","","47","","","","36","","12","","24.1","","98.44","","","","","","Clear"
"-119.60","49.46","PENTICTON A","1126146","2018-03-11 17:00","2018","03","11","17:00","5.4","","-3.5","","53","","","","34","","10","","24.1","","98.44","","","","","","NA"
"-119.60","49.46","PENTICTON A","1126146","2018-03-11 18:00","2018","03","11","18:00","1.5","","-3.8","","68","","","","34","","7","","24.1","","98.45","","","","","","NA"
"-119.60","49.46","PENTICTON A","1126146","2018-03-11 19:00","2018","03","11","19:00","1.5","","-2.8","","74","","","","9","","7","","24.1","","98.50","","","","","","Clear"
"-119.60","49.46","PENTICTON A","1126146","2018-03-11 20:00","2018","03","11","20:00","1.1","","-2.7","","76","","","","1","","5","","24.1","","98.56","","","","","","NA"
"-119.60","49.46","PENTICTON A","1126146","2018-03-11 21:00","2018","03","11","21:00","-0.5","","-3.2","","82","","","","9","","4","","24.1","","98.59","","","","-2","","NA"
"-119.60","49.46","PENTICTON A","1126146","2018-03-11 22:00","2018","03","11","22:00","-1.1","","-2.8","","89","","","","10","","4","","24.1","","98.60","","","","-2","","Clear"
"-119.60","49.46","PENTICTON A","1126146","2018-03-11 23:00","2018","03","11","23:00","-1.6","","-3.2","","89","","","","11","","4","","24.1","","98.62","","","","-3","","NA"
"-119.60","49.46","PENTICTON A","1126146","2018-03-12 00:00","2018","03","12","00:00","-2.2","","-3.9","","88","","","","36","","7","","24.1","","98.65","","","","-5","","NA"
"-119.60","49.46","PENTICTON A","1126146","2018-03-12 01:00","2018","03","12","01:00","-2.6","","-4.0","","90","","","","1","","4","","24.1","","98.66","","","","-4","","Clear"
"-119.60","49.46","PENTICTON A","1126146","2018-03-12 02:00","2018","03","12","02:00","-2.6","","-4.2","","89","","","","33","","5","","24.1","","98.66","","","","-5","","NA"
"-119.60","49.46","PENTICTON A","1126146","2018-03-12 03:00","2018","03","12","03:00","-2.4","","-4.0","","88","","","","2","","8","","24.1","","98.64","","","","-6","","NA"
"-119.60","49.46","PENTICTON A","1126146","2018-03-12 04:00","2018","03","12","04:00","-2.8","","-4.3","","90","","","","1","","10","","24.1","","98.65","","","","-7","","Clear"
"-119.60","49.46","PENTICTON A","1126146","2018-03-12 05:00","2018","03","12","05:00","-5.0","","-6.4","","90","","","","36","","2","","24.1","","98.65","","","","-6","","NA"
"-119.60","49.46","PENTICTON A","1126146","2018-03-12 06:00","2018","03","12","06:00","-4.3","","-5.9","","89","","","","36","","9","","24.1","","98.66","","","","-8","","NA"
"-119.60","49.46","PENTICTON A","1126146","2018-03-12 07:00","2018","03","12","07:00","-2.9","","-4.9","","86","","","","1","","11","","24.1","","98.64","","","","-7","","Clear"
"-119.60","49.46","PENTICTON A","1126146","2018-03-12 08:00","2018","03","12","08:00","0.6","","-2.2","","82","","","","5","","4","","24.1","","98.65","","","","","","NA"
"-119.60","49.46","PENTICTON A","1126146","2018-03-12 09:00","2018","03","12","09:00","1.5","","-1.9","","78","","","","23","","5","","24.1","","98.63","","","","","","NA"
"-119.60","49.46","PENTICTON A","1126146","2018-03-12 10:00","2018","03","12","10:00","3.9","","-2.5","","63","","","","36","","8","","24.1","","98.58","","","","","","Mainly Clear"
"-119.60","49.46","PENTICTON A","1126146","2018-03-12 11:00","2018","03","12","11:00","5.4","","-2.8","","56","","","","35","","8","","24.1","","98.50","","","","","","NA"
"-119.60","49.46","PENTICTON A","1126146","2018-03-12 12:00","2018","03","12","12:00","6.8","","-2.1","","53","","","","35","","10","","24.1","","98.42","","","","","","NA"
"-119.60","49.46","PENTICTON A","1126146","2018-03-12 13:00","2018","03","12","13:00","7.5","","-2.1","","50","","","","36","","13","","24.1","","98.30","","","","","","Mainly Clear"
"-119.60","49.46","PENTICTON A","1126146","2018-03-12 14:00","2018","03","12","14:00","8.8","","-2.2","","46","","","","35","","12","","24.1","","98.20","","","","","","NA"
"-119.60","49.46","PENTICTON A","1126146","2018-03-12 15:00","2018","03","12","15:00","9.1","","-1.8","","46","","","","36","","15","","24.1","","98.13","","","","","","NA"
"-119.60","49.46","PENTICTON A","1126146","2018-03-12 16:00","2018","03","12","16:00","8.8","","-2.3","","46","","","","35","","10","","24.1","","98.02","","","","","","Mainly Clear"
"-119.60","49.46","PENTICTON A","1126146","2018-03-12 17:00","2018","03","12","17:00","7.3","","-2.0","","51","","","","35","","10","","24.1","","97.97","","","","","","NA"
"-119.60","49.46","PENTICTON A","1126146","2018-03-12 18:00","2018","03","12","18:00","3.6","","-1.9","","67","","","","35","","9","","24.1","","97.97","","","","","","NA"
"-119.60","49.46","PENTICTON A","1126146","2018-03-12 19:00","2018","03","12","19:00","2.2","","-1.7","","75","","","","1","","9","","24.1","","97.94","","","","","","Clear"
"-119.60","49.46","PENTICTON A","1126146","2018-03-12 20:00","2018","03","12","20:00","1.6","","-1.7","","78","","","","2","","7","","24.1","","97.89","","","","","","NA"
"-119.60","49.46","PENTICTON A","1126146","2018-03-12 21:00","2018","03","12","21:00","1.1","","-1.8","","81","","","","36","","8","","24.1","","97.88","","","","","","NA"
"-119.60","49.46","PENTICTON A","1126146","2018-03-12 22:00","2018","03","12","22:00","0.0","","-2.3","","84","","","","36","","5","","24.1","","97.89","","","","-2","","Clear"
"-119.60","49.46","PENTICTON A","1126146","2018-03-12 23:00","2018","03","12","23:00","-1.8","","-3.8","","86","","","","31","","3","","24.1","","97.87","","","","-3","","NA"
"-119.60","49.46","PENTICTON A","1126146","2018-03-13 00:00","2018","03","13","00:00","-1.4","","-3.1","","89","","","","35","","7","","24.1","","97.84","","","","-4","","NA"
"-119.60","49.46","PENTICTON A","1126146","2018-03-13 01:00","2018","03","13","01:00","-1.8","","-3.4","","89","","","","33","","7","","24.1","","97.81","","","","-4","","Clear"
"-119.60","49.46","PENTICTON A","1126146","2018-03-13 02:00","2018","03","13","02:00","-1.6","","-3.3","","88","","","","2","","10","","24.1","","97.75","","","","-5","","NA"
"-119.60","49.46","PENTICTON A","1126146","2018-03-13 03:00","2018","03","13","03:00","-1.2","","-2.3","","92","","","","2","","10","","24.1","","97.67","","","","-5","","NA"
"-119.60","49.46","PENTICTON A","1126146","2018-03-13 04:00","2018","03","13","04:00","-1.7","","-3.2","","90","","","","35","","12","","24.1","","97.64","","","","-6","","Clear"
"-119.60","49.46","PENTICTON A","1126146","2018-03-13 05:00","2018","03","13","05:00","-1.5","","-3.3","","87","","","","34","","9","","24.1","","97.63","","","","-5","","NA"
"-119.60","49.46","PENTICTON A","1126146","2018-03-13 06:00","2018","03","13","06:00","-1.8","","-3.2","","90","","","","36","","10","","24.1","","97.61","","","","-5","","NA"
"-119.60","49.46","PENTICTON A","1126146","2018-03-13 07:00","2018","03","13","07:00","-0.3","","-1.9","","88","","","","3","","7","","24.1","","97.56","","","","-3","","Mostly Cloudy"
"-119.60","49.46","PENTICTON A","1126146","2018-03-13 08:00","2018","03","13","08:00","1.5","","-1.0","","84","","","","36","","9","","24.1","","97.55","","","","","","NA"
"-119.60","49.46","PENTICTON A","1126146","2018-03-13 09:00","2018","03","13","09:00","3.4","","-0.4","","76","","","","34","","10","","24.1","","97.50","","","","","","NA"
"-119.60","49.46","PENTICTON A","1126146","2018-03-13 10:00","2018","03","13","10:00","5.6","","-1.5","","60","","","","2","","14","","24.1","","97.41","","","","","","Cloudy"
"-119.60","49.46","PENTICTON A","1126146","2018-03-13 11:00","2018","03","13","11:00","6.1","","-1.3","","59","","","","36","","18","","24.1","","97.36","","","","","","NA"
"-119.60","49.46","PENTICTON A","1126146","2018-03-13 12:00","2018","03","13","12:00","7.5","","-1.2","","54","","","","32","","11","","24.1","","97.24","","","","","","NA"
"-119.60","49.46","PENTICTON A","1126146","2018-03-13 13:00","2018","03","13","13:00","7.7","","-1.4","","52","","","","35","","8","","24.1","","97.12","","","","","","Cloudy"
"-119.60","49.46","PENTICTON A","1126146","2018-03-13 14:00","2018","03","13","14:00","8.7","","-0.9","","51","","","","35","","12","","24.1","","97.01","","","","","","NA"
"-119.60","49.46","PENTICTON A","1126146","2018-03-13 15:00","2018","03","13","15:00","9.9","","-1.2","","46","","","","34","","11","","24.1","","96.91","","","","","","NA"
"-119.60","49.46","PENTICTON A","1126146","2018-03-13 16:00","2018","03","13","16:00","9.3","","-1.1","","48","","","","35","","13","","24.1","","96.82","","","","","","Mostly Cloudy"
"-119.60","49.46","PENTICTON A","1126146","2018-03-13 17:00","2018","03","13","17:00","8.1","","-0.6","","54","","","","34","","9","","24.1","","96.74","","","","","","NA"
"-119.60","49.46","PENTICTON A","1126146","2018-03-13 18:00","2018","03","13","18:00","6.8","","-1.0","","57","","","","32","","8","","24.1","","96.68","","","","","","NA"
"-119.60","49.46","PENTICTON A","1126146","2018-03-13 19:00","2018","03","13","19:00","6.1","","0.2","","66","","","","36","","2","","24.1","","96.68","","","","","","Cloudy"
"-119.60","49.46","PENTICTON A","1126146","2018-03-13 20:00","2018","03","13","20:00","5.9","","-0.1","","65","","","","6","","4","","24.1","","96.65","","","","","","NA"
"-119.60","49.46","PENTICTON A","1126146","2018-03-13 21:00","2018","03","13","21:00","5.4","","0.0","","68","","","","13","","5","","24.1","","96.67","","","","","","NA"
"-119.60","49.46","PENTICTON A","1126146","2018-03-13 22:00","2018","03","13","22:00","3.9","","0.3","","77","","","","35","","8","","24.1","","96.65","","","","","","Cloudy"
"-119.60","49.46","PENTICTON A","1126146","2018-03-13 23:00","2018","03","13","23:00","4.7","","0.2","","73","","","","2","","8","","24.1","","96.61","","","","","","NA"
"-119.60","49.46","PENTICTON A","1126146","2018-03-14 00:00","2018","03","14","00:00","4.2","","1.1","","80","","","","13","","7","","24.1","","96.65","","","","","","NA"
"-119.60","49.46","PENTICTON A","1126146","2018-03-14 01:00","2018","03","14","01:00","4.4","","2.2","","85","","","","22","","6","","24.1","","96.62","","","","","","Rain"
"-119.60","49.46","PENTICTON A","1126146","2018-03-14 02:00","2018","03","14","02:00","4.0","","2.1","","88","","","","21","","5","","24.1","","96.65","","","","","","Rain"
"-119.60","49.46","PENTICTON A","1126146","2018-03-14 03:00","2018","03","14","03:00","3.8","","2.8","","94","","","","36","","2","","16.1","","96.64","","","","","","Rain"
"-119.60","49.46","PENTICTON A","1126146","2018-03-14 04:00","2018","03","14","04:00","3.7","","3.0","","95","","","","19","","4","","16.1","","96.62","","","","","","Rain"
"-119.60","49.46","PENTICTON A","1126146","2018-03-14 05:00","2018","03","14","05:00","3.2","","2.8","","97","","","","1","","3","","16.1","","96.59","","","","","","Rain"
"-119.60","49.46","PENTICTON A","1126146","2018-03-14 06:00","2018","03","14","06:00","3.4","","3.0","","97","","","","36","","2","","4.8","","96.61","","","","","","Rain,Fog"
"-119.60","49.46","PENTICTON A","1126146","2018-03-14 07:00","2018","03","14","07:00","3.8","","3.5","","98","","","","14","","5","","8.1","","96.59","","","","","","Rain,Fog"
"-119.60","49.46","PENTICTON A","1126146","2018-03-14 08:00","2018","03","14","08:00","3.7","","3.4","","98","","","","23","","4","","3.2","","96.65","","","","","","Rain,Fog"
"-119.60","49.46","PENTICTON A","1126146","2018-03-14 09:00","2018","03","14","09:00","4.4","","3.9","","97","","","","14","","6","","6.4","","96.70","","","","","","Rain,Fog"
"-119.60","49.46","PENTICTON A","1126146","2018-03-14 10:00","2018","03","14","10:00","4.8","","4.2","","96","","","","28","","4","","9.7","","96.71","","","","","","Rain,Fog"
"-119.60","49.46","PENTICTON A","1126146","2018-03-14 11:00","2018","03","14","11:00","5.2","","4.6","","96","","","","19","","11","","12.9","","96.74","","","","","","Rain"
"-119.60","49.46","PENTICTON A","1126146","2018-03-14 12:00","2018","03","14","12:00","6.3","","5.3","","93","","","","17","","14","","12.9","","96.76","","","","","","Rain"
"-119.60","49.46","PENTICTON A","1126146","2018-03-14 13:00","2018","03","14","13:00","7.1","","5.1","","87","","","","16","","13","","19.3","","96.74","","","","","","Cloudy"
"-119.60","49.46","PENTICTON A","1126146","2018-03-14 14:00","2018","03","14","14:00","7.2","","4.6","","83","","","","16","","18","","19.3","","96.76","","","","","","NA"
"-119.60","49.46","PENTICTON A","1126146","2018-03-14 15:00","2018","03","14","15:00","7.9","","5.2","","83","","","","16","","16","","24.1","","96.77","","","","","","NA"
"-119.60","49.46","PENTICTON A","1126146","2018-03-14 16:00","2018","03","14","16:00","8.5","","5.2","","80","","","","16","","15","","24.1","","96.78","","","","","","Mostly Cloudy"
"-119.60","49.46","PENTICTON A","1126146","2018-03-14 17:00","2018","03","14","17:00","7.9","","4.2","","78","","","","17","","19","","24.1","","96.79","","","","","","NA"
"-119.60","49.46","PENTICTON A","1126146","2018-03-14 18:00","2018","03","14","18:00","6.9","","3.7","","80","","","","18","","19","","24.1","","96.82","","","","","","NA"
"-119.60","49.46","PENTICTON A","1126146","2018-03-14 19:00","2018","03","14","19:00","6.7","","3.7","","81","","","","17","","16","","24.1","","96.87","","","","","","Mostly Cloudy"
"-119.60","49.46","PENTICTON A","1126146","2018-03-14 20:00","2018","03","14","20:00","5.5","","3.5","","86","","","","36","","3","","24.1","","96.91","","","","","","NA"
"-119.60","49.46","PENTICTON A","1126146","2018-03-14 21:00","2018","03","14","21:00","5.0","","3.4","","89","","","","12","","5","","24.1","","96.96","","","","","","NA"
"-119.60","49.46","PENTICTON A","1126146","2018-03-14 22:00","2018","03","14","22:00","4.7","","3.8","","94","","","","36","","1","","16.1","","96.93","","","","","","Rain Showers"
"-119.60","49.46","PENTICTON A","1126146","2018-03-14 23:00","2018","03","14","23:00","4.7","","2.9","","88","","","","4","","5","","24.1","","96.93","","","","","","NA"
"-119.60","49.46","PENTICTON A","1126146","2018-03-15 00:00","2018","03","15","00:00","4.1","","2.7","","90","","","","34","","8","","24.1","","96.92","","","","","","NA"
"-119.60","49.46","PENTICTON A","1126146","2018-03-15 01:00","2018","03","15","01:00","4.3","","2.5","","88","","","","36","","12","","24.1","","96.93","","","","","","Cloudy"
"-119.60","49.46","PENTICTON A","1126146","2018-03-15 02:00","2018","03","15","02:00","3.9","","2.1","","88","","","","35","","13","","24.1","","96.93","","","","","","NA"
"-119.60","49.46","PENTICTON A","1126146","2018-03-15 03:00","2018","03","15","03:00","3.5","","1.9","","89","","","","35","","10","","24.1","","96.92","","","","","","NA"
"-119.60","49.46","PENTICTON A","1126146","2018-03-15 04:00","2018","03","15","04:00","3.4","","1.9","","90","","","","3","","15","","24.1","","96.90","","","","","","Cloudy"
"-119.60","49.46","PENTICTON A","1126146","2018-03-15 05:00","2018","03","15","05:00","2.4","","1.1","","91","","","","1","","12","","24.1","","96.90","","","","","","NA"
"-119.60","49.46","PENTICTON A","1126146","2018-03-15 06:00","2018","03","15","06:00","2.0","","1.0","","93","","","","2","","10","","24.1","","96.91","","","","","","NA"
"-119.60","49.46","PENTICTON A","1126146","2018-03-15 07:00","2018","03","15","07:00","1.8","","0.3","","90","","","","35","","10","","24.1","","96.90","","","","","","Mostly Cloudy"
"-119.60","49.46","PENTICTON A","1126146","2018-03-15 08:00","2018","03","15","08:00","3.3","","2.4","","93","","","","34","","17","","24.1","","96.91","","","","","","NA"
"-119.60","49.46","PENTICTON A","1126146","2018-03-15 09:00","2018","03","15","09:00","3.9","","2.3","","90","","","","35","","17","","24.1","","96.90","","","","","","NA"
"-119.60","49.46","PENTICTON A","1126146","2018-03-15 10:00","2018","03","15","10:00","5.3","","2.0","","79","","","","35","","17","","24.1","","96.87","","","","","","Mostly Cloudy"
"-119.60","49.46","PENTICTON A","1126146","2018-03-15 11:00","2018","03","15","11:00","6.3","","2.3","","75","","","","35","","16","","24.1","","96.82","","","","","","NA"
"-119.60","49.46","PENTICTON A","1126146","2018-03-15 12:00","2018","03","15","12:00","6.3","","2.0","","73","","","","35","","17","","24.1","","96.79","","","","","","NA"
"-119.60","49.46","PENTICTON A","1126146","2018-03-15 13:00","2018","03","15","13:00","7.2","","2.2","","71","","","","36","","20","","24.1","","96.77","","","","","","Mostly Cloudy"
"-119.60","49.46","PENTICTON A","1126146","2018-03-15 14:00","2018","03","15","14:00","9.4","","1.2","","56","","","","35","","15","","24.1","","96.70","","","","","","NA"
"-119.60","49.46","PENTICTON A","1126146","2018-03-15 15:00","2018","03","15","15:00","9.5","","-0.1","","51","","","","35","","17","","24.1","","96.66","","","","","","NA"
"-119.60","49.46","PENTICTON A","1126146","2018-03-15 16:00","2018","03","15","16:00","8.8","","-0.6","","52","","","","36","","20","","24.1","","96.66","","","","","","Mostly Cloudy"
"-119.60","49.46","PENTICTON A","1126146","2018-03-15 17:00","2018","03","15","17:00","7.6","","-0.3","","57","","","","34","","14","","24.1","","96.66","","","","","","NA"
"-119.60","49.46","PENTICTON A","1126146","2018-03-15 18:00","2018","03","15","18:00","6.9","","-0.4","","60","","","","32","","6","","24.1","","96.68","","","","","","NA"
"-119.60","49.46","PENTICTON A","1126146","2018-03-15 19:00","2018","03","15","19:00","2.5","","-0.8","","79","","","","1","","9","","24.1","","96.72","","","","","","Mainly Clear"
"-119.60","49.46","PENTICTON A","1126146","2018-03-15 20:00","2018","03","15","20:00","1.5","","-0.9","","84","","","","36","","2","","24.1","","96.77","","","","","","NA"
"-119.60","49.46","PENTICTON A","1126146","2018-03-15 21:00","2018","03","15","21:00","1.7","","-1.5","","79","","","","23","","7","","24.1","","96.81","","","","","","NA"
"-119.60","49.46","PENTICTON A","1126146","2018-03-15 22:00","2018","03","15","22:00","0.3","","-1.2","","90","","","","21","","3","","24.1","","96.86","","","","","","Clear"
"-119.60","49.46","PENTICTON A","1126146","2018-03-15 23:00","2018","03","15","23:00","0.1","","-1.7","","88","","","","36","","1","","24.1","","96.89","","","","","","NA"
"-119.60","49.46","PENTICTON A","1126146","2018-03-16 00:00","2018","03","16","00:00","-1.3","","-2.7","","90","","","","18","","4","","24.1","","96.93","","","","-3","","NA"
"-119.60","49.46","PENTICTON A","1126146","2018-03-16 01:00","2018","03","16","01:00","-0.7","","-1.5","","94","","","","0","","1","","24.1","","96.99","","","","-1","","Mainly Clear"
"-119.60","49.46","PENTICTON A","1126146","2018-03-16 02:00","2018","03","16","02:00","-1.9","","-2.6","","95","","","","36","","2","","24.1","","97.04","","","","-3","","NA"
"-119.60","49.46","PENTICTON A","1126146","2018-03-16 03:00","2018","03","16","03:00","-1.6","","-2.5","","94","","","","2","","9","","24.1","","97.05","","","","-5","","NA"
"-119.60","49.46","PENTICTON A","1126146","2018-03-16 04:00","2018","03","16","04:00","-1.3","","-2.2","","94","","","","6","","5","","24.1","","97.10","","","","-3","","Mostly Cloudy"
"-119.60","49.46","PENTICTON A","1126146","2018-03-16 05:00","2018","03","16","05:00","-0.9","","-2.0","","93","","","","36","","3","","24.1","","97.12","","","","-2","","NA"
"-119.60","49.46","PENTICTON A","1126146","2018-03-16 06:00","2018","03","16","06:00","-2.5","","-3.5","","93","","","","36","","2","","24.1","","97.16","","","","-3","","NA"
"-119.60","49.46","PENTICTON A","1126146","2018-03-16 07:00","2018","03","16","07:00","-3.0","","-3.6","","95","","","","36","","4","","24.1","","97.16","","","","-5","","Clear"
"-119.60","49.46","PENTICTON A","1126146","2018-03-16 08:00","2018","03","16","08:00","1.7","","-0.4","","86","","","","23","","3","","24.1","","97.16","","","","","","NA"
"-119.60","49.46","PENTICTON A","1126146","2018-03-16 09:00","2018","03","16","09:00","3.1","","-1.4","","72","","","","14","","6","","24.1","","97.17","","","","","","NA"
"-119.60","49.46","PENTICTON A","1126146","2018-03-16 10:00","2018","03","16","10:00","7.0","","-1.5","","55","","","","35","","9","","24.1","","97.12","","","","","","Mainly Clear"
"-119.60","49.46","PENTICTON A","1126146","2018-03-16 11:00","2018","03","16","11:00","7.4","","-1.4","","53","","","","36","","12","","24.1","","97.07","","","","","","NA"
"-119.60","49.46","PENTICTON A","1126146","2018-03-16 12:00","2018","03","16","12:00","8.6","","-1.8","","48","","","","36","","14","","24.1","","97.01","","","","","","NA"
"-119.60","49.46","PENTICTON A","1126146","2018-03-16 13:00","2018","03","16","13:00","10.3","","0.1","","49","","","","36","","17","","24.1","","96.95","","","","","","Mostly Cloudy"
"-119.60","49.46","PENTICTON A","1126146","2018-03-16 14:00","2018","03","16","14:00","10.1","","-0.8","","47","","","","34","","16","","24.1","","96.91","","","","","","NA"
"-119.60","49.46","PENTICTON A","1126146","2018-03-16 15:00","2018","03","16","15:00","10.7","","-0.4","","46","","","","36","","16","","24.1","","96.88","","","","","","NA"
"-119.60","49.46","PENTICTON A","1126146","2018-03-16 16:00","2018","03","16","16:00","10.6","","-0.1","","47","","","","36","","18","","24.1","","96.83","","","","","","Mainly Clear"
"-119.60","49.46","PENTICTON A","1126146","2018-03-16 17:00","2018","03","16","17:00","10.8","","-0.6","","45","","","","36","","10","","24.1","","96.82","","","","","","NA"
"-119.60","49.46","PENTICTON A","1126146","2018-03-16 18:00","2018","03","16","18:00","7.9","","-0.3","","56","","","","1","","9","","24.1","","96.85","","","","","","NA"
"-119.60","49.46","PENTICTON A","1126146","2018-03-16 19:00","2018","03","16","19:00","3.9","","-0.8","","71","","","","36","","10","","24.1","","96.88","","","","","","Mainly Clear"
"-119.60","49.46","PENTICTON A","1126146","2018-03-16 20:00","2018","03","16","20:00","4.1","","-1.1","","69","","","","35","","10","","24.1","","96.92","","","","","","NA"
"-119.60","49.46","PENTICTON A","1126146","2018-03-16 21:00","2018","03","16","21:00","3.6","","-1.7","","68","","","","1","","16","","24.1","","96.92","","","","","","NA"
"-119.60","49.46","PENTICTON A","1126146","2018-03-16 22:00","2018","03","16","22:00","2.7","","-1.9","","72","","","","36","","18","","24.1","","96.92","","","","","","Mainly Clear"
"-119.60","49.46","PENTICTON A","1126146","2018-03-16 23:00","2018","03","16","23:00","1.2","","-1.9","","80","","","","33","","11","","24.1","","96.95","","","","","","NA"
"-119.60","49.46","PENTICTON A","1126146","2018-03-17 00:00","2018","03","17","00:00","2.1","","-1.7","","76","","","","36","","18","","24.1","","96.93","","","","","","NA"
"-119.60","49.46","PENTICTON A","1126146","2018-03-17 01:00","2018","03","17","01:00","0.5","","-2.2","","82","","","","36","","14","","24.1","","96.96","","","","","","Mainly Clear"
"-119.60","49.46","PENTICTON A","1126146","2018-03-17 02:00","2018","03","17","02:00","1.4","","-1.9","","79","","","","1","","14","","24.1","","96.94","","","","","","NA"
"-119.60","49.46","PENTICTON A","1126146","2018-03-17 03:00","2018","03","17","03:00","-0.2","","-2.5","","84","","","","33","","12","","24.1","","96.94","","","","-4","","NA"
"-119.60","49.46","PENTICTON A","1126146","2018-03-17 04:00","2018","03","17","04:00","-0.4","","-2.6","","85","","","","34","","11","","24.1","","96.97","","","","-4","","Mainly Clear"
"-119.60","49.46","PENTICTON A","1126146","2018-03-17 05:00","2018","03","17","05:00","-0.8","","-2.7","","87","","","","36","","13","","24.1","","96.97","","","","-5","","NA"
"-119.60","49.46","PENTICTON A","1126146","2018-03-17 06:00","2018","03","17","06:00","0.4","","-2.1","","84","","","","33","","13","","24.1","","96.99","","","","","","NA"
"-119.60","49.46","PENTICTON A","1126146","2018-03-17 07:00","2018","03","17","07:00","1.1","","-1.6","","82","","","","32","","14","","24.1","","97.00","","","","","","Mainly Clear"
"-119.60","49.46","PENTICTON A","1126146","2018-03-17 08:00","2018","03","17","08:00","2.8","","-0.8","","77","","","","34","","9","","24.1","","97.01","","","","","","NA"
"-119.60","49.46","PENTICTON A","1126146","2018-03-17 09:00","2018","03","17","09:00","4.5","","0.1","","73","","","","35","","16","","24.1","","97.01","","","","","","NA"
"-119.60","49.46","PENTICTON A","1126146","2018-03-17 10:00","2018","03","17","10:00","5.5","","-0.2","","67","","","","35","","18","","24.1","","96.99","","","","","","Mostly Cloudy"
"-119.60","49.46","PENTICTON A","1126146","2018-03-17 11:00","2018","03","17","11:00","6.5","","0.0","","63","","","","34","","17","","24.1","","96.96","","","","","","NA"
"-119.60","49.46","PENTICTON A","1126146","2018-03-17 12:00","2018","03","17","12:00","8.4","","0.6","","58","","","","35","","20","","24.1","","96.91","","","","","","NA"
"-119.60","49.46","PENTICTON A","1126146","2018-03-17 13:00","2018","03","17","13:00","9.3","","1.0","","56","","","","34","","18","","24.1","","96.86","","","","","","Mostly Cloudy"
"-119.60","49.46","PENTICTON A","1126146","2018-03-17 14:00","2018","03","17","14:00","9.7","","1.2","","56","","","","35","","14","","24.1","","96.83","","","","","","NA"
"-119.60","49.46","PENTICTON A","1126146","2018-03-17 15:00","2018","03","17","15:00","10.4","","0.7","","51","","","","35","","18","","24.1","","96.81","","","","","","NA"
"-119.60","49.46","PENTICTON A","1126146","2018-03-17 16:00","2018","03","17","16:00","9.7","","0.7","","53","","","","33","","17","","24.1","","96.81","","","","","","Mostly Cloudy"
"-119.60","49.46","PENTICTON A","1126146","2018-03-17 17:00","2018","03","17","17:00","9.6","","0.6","","53","","","","34","","12","","24.1","","96.84","","","","","","NA"
"-119.60","49.46","PENTICTON A","1126146","2018-03-17 18:00","2018","03","17","18:00","7.5","","0.3","","60","","","","2","","8","","24.1","","96.87","","","","","","NA"
"-119.60","49.46","PENTICTON A","1126146","2018-03-17 19:00","2018","03","17","19:00","5.7","","0.5","","69","","","","35","","11","","24.1","","96.91","","","","","","Mostly Cloudy"
"-119.60","49.46","PENTICTON A","1126146","2018-03-17 20:00","2018","03","17","20:00","5.5","","0.0","","68","","","","35","","16","","24.1","","96.96","","","","","","NA"
"-119.60","49.46","PENTICTON A","1126146","2018-03-17 21:00","2018","03","17","21:00","5.1","","-0.6","","66","","","","35","","16","","24.1","","97.01","","","","","","NA"
"-119.60","49.46","PENTICTON A","1126146","2018-03-17 22:00","2018","03","17","22:00","3.8","","-1.3","","69","","","","34","","12","","24.1","","97.07","","","","","","Mostly Cloudy"
"-119.60","49.46","PENTICTON A","1126146","2018-03-17 23:00","2018","03","17","23:00","2.7","","-1.4","","74","","","","35","","6","","24.1","","97.11","","","","","","NA"
"-119.60","49.46","PENTICTON A","1126146","2018-03-18 00:00","2018","03","18","00:00","2.0","","-1.9","","75","","","","36","","15","","24.1","","97.16","","","","","","NA"
"-119.60","49.46","PENTICTON A","1126146","2018-03-18 01:00","2018","03","18","01:00","-0.6","","-3.5","","81","","","","32","","4","","24.1","","97.20","","","","-2","","Mainly Clear"
"-119.60","49.46","PENTICTON A","1126146","2018-03-18 02:00","2018","03","18","02:00","-0.1","","-2.8","","82","","","","1","","8","","24.1","","97.25","","","","-3","","NA"
"-119.60","49.46","PENTICTON A","1126146","2018-03-18 03:00","2018","03","18","03:00","-1.9","","-3.7","","88","","","","35","","3","","24.1","","97.28","","","","-3","","NA"
"-119.60","49.46","PENTICTON A","1126146","2018-03-18 04:00","2018","03","18","04:00","-1.7","","-3.2","","90","","","","34","","4","","24.1","","97.34","","","","-3","","Mainly Clear"
"-119.60","49.46","PENTICTON A","1126146","2018-03-18 05:00","2018","03","18","05:00","-2.2","","-4.0","","87","","","","1","","4","","24.1","","97.43","","","","-4","","NA"
"-119.60","49.46","PENTICTON A","1126146","2018-03-18 06:00","2018","03","18","06:00","-1.2","","-3.4","","85","","","","1","","10","","24.1","","97.49","","","","-5","","NA"
"-119.60","49.46","PENTICTON A","1126146","2018-03-18 07:00","2018","03","18","07:00","-3.6","","-4.8","","91","","","","3","","3","","24.1","","97.53","","","","-5","","Mainly Clear"
"-119.60","49.46","PENTICTON A","1126146","2018-03-18 08:00","2018","03","18","08:00","3.5","","-0.2","","77","","","","1","","10","","24.1","","97.56","","","","","","NA"
"-119.60","49.46","PENTICTON A","1126146","2018-03-18 09:00","2018","03","18","09:00","5.5","","-0.8","","64","","","","36","","7","","24.1","","97.58","","","","","","NA"
"-119.60","49.46","PENTICTON A","1126146","2018-03-18 10:00","2018","03","18","10:00","6.6","","-1.4","","56","","","","36","","14","","24.1","","97.59","","","","","","Mostly Cloudy"
"-119.60","49.46","PENTICTON A","1126146","2018-03-18 11:00","2018","03","18","11:00","7.7","","-0.6","","55","","","","1","","16","","24.1","","97.59","","","","","","NA"
"-119.60","49.46","PENTICTON A","1126146","2018-03-18 12:00","2018","03","18","12:00","8.4","","-0.4","","54","","","","36","","14","","24.1","","97.57","","","","","","NA"
"-119.60","49.46","PENTICTON A","1126146","2018-03-18 13:00","2018","03","18","13:00","8.8","","-0.8","","51","","","","1","","18","","24.1","","97.53","","","","","","Mostly Cloudy"
"-119.60","49.46","PENTICTON A","1126146","2018-03-18 14:00","2018","03","18","14:00","9.8","","-0.5","","48","","","","36","","17","","24.1","","97.54","","","","","","NA"
"-119.60","49.46","PENTICTON A","1126146","2018-03-18 15:00","2018","03","18","15:00","9.4","","-0.9","","48","","","","32","","12","","24.1","","97.57","","","","","","NA"
"-119.60","49.46","PENTICTON A","1126146","2018-03-18 16:00","2018","03","18","16:00","9.6","","-0.8","","48","","","","35","","9","","24.1","","97.59","","","","","","Mostly Cloudy"
"-119.60","49.46","PENTICTON A","1126146","2018-03-18 17:00","2018","03","18","17:00","8.8","","-0.3","","53","","","","34","","9","","24.1","","97.62","","","","","","NA"
"-119.60","49.46","PENTICTON A","1126146","2018-03-18 18:00","2018","03","18","18:00","6.6","","-0.4","","61","","","","36","","11","","24.1","","97.63","","","","","","NA"
"-119.60","49.46","PENTICTON A","1126146","2018-03-18 19:00","2018","03","18","19:00","5.1","","0.0","","69","","","","1","","14","","24.1","","97.68","","","","","","Cloudy"
"-119.60","49.46","PENTICTON A","1126146","2018-03-18 20:00","2018","03","18","20:00","4.9","","-1.1","","65","","","","33","","5","","24.1","","97.75","","","","","","NA"
"-119.60","49.46","PENTICTON A","1126146","2018-03-18 21:00","2018","03","18","21:00","3.6","","-0.3","","76","","","","36","","2","","24.1","","97.81","","","","","","NA"
"-119.60","49.46","PENTICTON A","1126146","2018-03-18 22:00","2018","03","18","22:00","3.2","","-0.5","","77","","","","2","","4","","24.1","","97.84","","","","","","Cloudy"
"-119.60","49.46","PENTICTON A","1126146","2018-03-18 23:00","2018","03","18","23:00","3.8","","-1.3","","69","","","","36","","3","","24.1","","97.88","","","","","","NA"
"-119.60","49.46","PENTICTON A","1126146","2018-03-19 00:00","2018","03","19","00:00","2.6","","-0.8","","79","","","","11","","3","","24.1","","97.93","","","","","","NA"
"-119.60","49.46","PENTICTON A","1126146","2018-03-19 01:00","2018","03","19","01:00","2.4","","0.0","","84","","","","36","","3","","24.1","","97.95","","","","","","Mostly Cloudy"
"-119.60","49.46","PENTICTON A","1126146","2018-03-19 02:00","2018","03","19","02:00","2.3","","-0.1","","84","","","","19","","6","","24.1","","97.96","","","","","","NA"
"-119.60","49.46","PENTICTON A","1126146","2018-03-19 03:00","2018","03","19","03:00","2.2","","0.0","","85","","","","26","","5","","24.1","","97.94","","","","","","NA"
"-119.60","49.46","PENTICTON A","1126146","2018-03-19 04:00","2018","03","19","04:00","2.7","","-0.4","","80","","","","20","","7","","24.1","","97.94","","","","","","Mostly Cloudy"
"-119.60","49.46","PENTICTON A","1126146","2018-03-19 05:00","2018","03","19","05:00","2.3","","0.0","","85","","","","0","","1","","24.1","","97.95","","","","","","NA"
"-119.60","49.46","PENTICTON A","1126146","2018-03-19 06:00","2018","03","19","06:00","1.7","","-0.3","","87","","","","0","","1","","24.1","","97.98","","","","","","NA"
"-119.60","49.46","PENTICTON A","1126146","2018-03-19 07:00","2018","03","19","07:00","2.8","","0.7","","86","","","","36","","2","","24.1","","98.01","","","","","","Mostly Cloudy"
"-119.60","49.46","PENTICTON A","1126146","2018-03-19 08:00","2018","03","19","08:00","3.8","","0.5","","79","","","","18","","4","","24.1","","98.02","","","","","","NA"
"-119.60","49.46","PENTICTON A","1126146","2018-03-19 09:00","2018","03","19","09:00","5.6","","-0.7","","64","","","","15","","8","","24.1","","98.02","","","","","","NA"
"-119.60","49.46","PENTICTON A","1126146","2018-03-19 10:00","2018","03","19","10:00","6.9","","-0.9","","57","","","","20","","6","","24.1","","98.01","","","","","","Mostly Cloudy"
"-119.60","49.46","PENTICTON A","1126146","2018-03-19 11:00","2018","03","19","11:00","8.9","","0.5","","55","","","","20","","8","","24.1","","97.97","","","","","","NA"
"-119.60","49.46","PENTICTON A","1126146","2018-03-19 12:00","2018","03","19","12:00","11.9","","-1.3","","40","","","","18","","7","","24.1","","97.91","","","","","","NA"
"-119.60","49.46","PENTICTON A","1126146","2018-03-19 13:00","2018","03","19","13:00","12.3","","-1.9","","37","","","","20","","10","","24.1","","97.82","","","","","","Mostly Cloudy"
"-119.60","49.46","PENTICTON A","1126146","2018-03-19 14:00","2018","03","19","14:00","10.0","","-1.8","","44","","","","19","","10","","24.1","","97.76","","","","","","NA"
"-119.60","49.46","PENTICTON A","1126146","2018-03-19 15:00","2018","03","19","15:00","10.7","","-0.4","","46","","","","19","","4","","24.1","","97.72","","","","","","NA"
"-119.60","49.46","PENTICTON A","1126146","2018-03-19 16:00","2018","03","19","16:00","11.1","","-1.1","","43","","","","36","","1","","24.1","","97.70","","","","","","Cloudy"
"-119.60","49.46","PENTICTON A","1126146","2018-03-19 17:00","2018","03","19","17:00","9.1","","-0.8","","50","","","","21","","7","","24.1","","97.68","","","","","","NA"
"-119.60","49.46","PENTICTON A","1126146","2018-03-19 18:00","2018","03","19","18:00","7.9","","-0.9","","54","","","","18","","5","","24.1","","97.67","","","","","","NA"
"-119.60","49.46","PENTICTON A","1126146","2018-03-19 19:00","2018","03","19","19:00","7.3","","-0.4","","58","","","","19","","5","","24.1","","97.67","","","","","","Cloudy"
"-119.60","49.46","PENTICTON A","1126146","2018-03-19 20:00","2018","03","19","20:00","7.2","","-0.6","","58","","","","13","","5","","24.1","","97.69","","","","","","NA"
"-119.60","49.46","PENTICTON A","1126146","2018-03-19 21:00","2018","03","19","21:00","5.1","","-0.2","","68","","","","3","","9","","24.1","","97.73","","","","","","NA"
"-119.60","49.46","PENTICTON A","1126146","2018-03-19 22:00","2018","03","19","22:00","5.0","","-1.0","","65","","","","35","","12","","24.1","","97.75","","","","","","Mostly Cloudy"
"-119.60","49.46","PENTICTON A","1126146","2018-03-19 23:00","2018","03","19","23:00","4.9","","-1.8","","62","","","","36","","2","","24.1","","97.74","","","","","","NA"
"-119.60","49.46","PENTICTON A","1126146","2018-03-20 00:00","2018","03","20","00:00","0.9","","-3.0","","75","","","","36","","2","","24.1","","97.73","","","","","","NA"
"-119.60","49.46","PENTICTON A","1126146","2018-03-20 01:00","2018","03","20","01:00","0.8","","-3.2","","74","","","","4","","7","","24.1","","97.75","","","","","","Mostly Cloudy"
"-119.60","49.46","PENTICTON A","1126146","2018-03-20 02:00","2018","03","20","02:00","-0.6","","-3.3","","82","","","","","","0","","24.1","","97.74","","","","","","NA"
"-119.60","49.46","PENTICTON A","1126146","2018-03-20 03:00","2018","03","20","03:00","-0.8","","-3.6","","81","","","","7","","4","","24.1","","97.71","","","","-2","","NA"
"-119.60","49.46","PENTICTON A","1126146","2018-03-20 04:00","2018","03","20","04:00","-1.5","","-3.7","","85","","","","36","","2","","24.1","","97.69","","","","-2","","Mostly Cloudy"
"-119.60","49.46","PENTICTON A","1126146","2018-03-20 05:00","2018","03","20","05:00","0.0","","-3.4","","78","","","","36","","1","","24.1","","97.68","","","","0","","NA"
"-119.60","49.46","PENTICTON A","1126146","2018-03-20 06:00","2018","03","20","06:00","0.6","","-3.0","","77","","","","18","","3","","24.1","","97.68","","","","","","NA"
"-119.60","49.46","PENTICTON A","1126146","2018-03-20 07:00","2018","03","20","07:00","0.2","","-1.3","","90","","","","35","","4","","24.1","","97.66","","","","","","Mostly Cloudy"
"-119.60","49.46","PENTICTON A","1126146","2018-03-20 08:00","2018","03","20","08:00","2.0","","-1.1","","80","","","","36","","1","","24.1","","97.65","","","","","","NA"
"-119.60","49.46","PENTICTON A","1126146","2018-03-20 09:00","2018","03","20","09:00","3.6","","-1.6","","69","","","","34","","5","","24.1","","97.65","","","","","","NA"
"-119.60","49.46","PENTICTON A","1126146","2018-03-20 10:00","2018","03","20","10:00","5.2","","-2.6","","57","","","","31","","4","","24.1","","97.61","","","","","","Mostly Cloudy"
"-119.60","49.46","PENTICTON A","1126146","2018-03-20 11:00","2018","03","20","11:00","6.8","","-2.3","","52","","","","23","","4","","24.1","","97.53","","","","","","NA"
"-119.60","49.46","PENTICTON A","1126146","2018-03-20 12:00","2018","03","20","12:00","7.8","","-2.4","","49","","","","0","","1","","24.1","","97.46","","","","","","NA"
"-119.60","49.46","PENTICTON A","1126146","2018-03-20 13:00","2018","03","20","13:00","8.0","","-1.6","","51","","","","35","","12","","24.1","","97.39","","","","","","Mostly Cloudy"
"-119.60","49.46","PENTICTON A","1126146","2018-03-20 14:00","2018","03","20","14:00","9.8","","-1.4","","46","","","","34","","13","","24.1","","97.31","","","","","","NA"
"-119.60","49.46","PENTICTON A","1126146","2018-03-20 15:00","2018","03","20","15:00","11.3","","-2.1","","39","","","","36","","12","","24.1","","97.23","","","","","","NA"
"-119.60","49.46","PENTICTON A","1126146","2018-03-20 16:00","2018","03","20","16:00","7.7","","-0.6","","55","","","","34","","15","","24.1","","97.18","","","","","","Mostly Cloudy"
"-119.60","49.46","PENTICTON A","1126146","2018-03-20 17:00","2018","03","20","17:00","6.1","","-0.4","","63","","","","34","","12","","24.1","","97.17","","","","","","NA"
"-119.60","49.46","PENTICTON A","1126146","2018-03-20 18:00","2018","03","20","18:00","5.4","","0.1","","69","","","","32","","6","","24.1","","97.15","","","","","","NA"
"-119.60","49.46","PENTICTON A","1126146","2018-03-20 19:00","2018","03","20","19:00","5.4","","-0.6","","66","","","","1","","6","","24.1","","97.12","","","","","","Mostly Cloudy"
"-119.60","49.46","PENTICTON A","1126146","2018-03-20 20:00","2018","03","20","20:00","5.5","","-0.4","","66","","","","0","","1","","24.1","","97.11","","","","","","NA"
"-119.60","49.46","PENTICTON A","1126146","2018-03-20 21:00","2018","03","20","21:00","4.9","","-0.3","","69","","","","36","","2","","24.1","","97.09","","","","","","NA"
"-119.60","49.46","PENTICTON A","1126146","2018-03-20 22:00","2018","03","20","22:00","4.1","","0.6","","78","","","","11","","4","","24.1","","97.07","","","","","","Cloudy"
"-119.60","49.46","PENTICTON A","1126146","2018-03-20 23:00","2018","03","20","23:00","4.0","","0.2","","76","","","","9","","4","","24.1","","97.04","","","","","","NA"
"-119.60","49.46","PENTICTON A","1126146","2018-03-21 00:00","2018","03","21","00:00","1.5","","-1.5","","80","","","","34","","4","","24.1","","97.02","","","","","","NA"
"-119.60","49.46","PENTICTON A","1126146","2018-03-21 01:00","2018","03","21","01:00","2.3","","-1.6","","75","","","","25","","3","","24.1","","96.99","","","","","","Mostly Cloudy"
"-119.60","49.46","PENTICTON A","1126146","2018-03-21 02:00","2018","03","21","02:00","1.1","","-1.5","","83","","","","36","","1","","24.1","","96.95","","","","","","NA"
"-119.60","49.46","PENTICTON A","1126146","2018-03-21 03:00","2018","03","21","03:00","0.1","","-2.0","","86","","","","36","","3","","24.1","","96.92","","","","","","NA"
"-119.60","49.46","PENTICTON A","1126146","2018-03-21 04:00","2018","03","21","04:00","0.5","","-1.6","","86","","","","0","","1","","24.1","","96.93","","","","","","Mostly Cloudy"
"-119.60","49.46","PENTICTON A","1126146","2018-03-21 05:00","2018","03","21","05:00","1.8","","-1.0","","81","","","","36","","2","","24.1","","96.91","","","","","","NA"
"-119.60","49.46","PENTICTON A","1126146","2018-03-21 06:00","2018","03","21","06:00","1.1","","-1.1","","85","","","","29","","4","","24.1","","96.91","","","","","","NA"
"-119.60","49.46","PENTICTON A","1126146","2018-03-21 07:00","2018","03","21","07:00","2.1","","0.5","","89","","","","36","","2","","24.1","","96.90","","","","","","Mostly Cloudy"
"-119.60","49.46","PENTICTON A","1126146","2018-03-21 08:00","2018","03","21","08:00","3.1","","-0.1","","80","","","","19","","3","","24.1","","96.89","","","","","","NA"
"-119.60","49.46","PENTICTON A","1126146","2018-03-21 09:00","2018","03","21","09:00","5.1","","-0.7","","66","","","","34","","5","","24.1","","96.87","","","","","","NA"
"-119.60","49.46","PENTICTON A","1126146","2018-03-21 10:00","2018","03","21","10:00","7.7","","-1.4","","52","","","","3","","10","","24.1","","96.83","","","","","","Mostly Cloudy"
"-119.60","49.46","PENTICTON A","1126146","2018-03-21 11:00","2018","03","21","11:00","8.7","","-1.5","","49","","","","1","","9","","24.1","","96.77","","","","","","NA"
"-119.60","49.46","PENTICTON A","1126146","2018-03-21 12:00","2018","03","21","12:00","10.1","","-0.7","","47","","","","35","","14","","24.1","","96.69","","","","","","NA"
"-119.60","49.46","PENTICTON A","1126146","2018-03-21 13:00","2018","03","21","13:00","11.0","","0.0","","47","","","","35","","18","","24.1","","96.62","","","","","","Mostly Cloudy"
"-119.60","49.46","PENTICTON A","1126146","2018-03-21 14:00","2018","03","21","14:00","12.1","","-0.3","","42","","","","2","","6","","24.1","","96.57","","","","","","NA"
"-119.60","49.46","PENTICTON A","1126146","2018-03-21 15:00","2018","03","21","15:00","12.7","","-1.4","","37","","","","16","","21","","24.1","","96.52","","","","","","NA"
"-119.60","49.46","PENTICTON A","1126146","2018-03-21 16:00","2018","03","21","16:00","12.2","","-0.3","","42","","","","16","","24","","24.1","","96.56","","","","","","Mostly Cloudy"
"-119.60","49.46","PENTICTON A","1126146","2018-03-21 17:00","2018","03","21","17:00","10.0","","1.1","","54","","","","17","","22","","24.1","","96.61","","","","","","Rain Showers"
"-119.60","49.46","PENTICTON A","1126146","2018-03-21 18:00","2018","03","21","18:00","9.5","","1.4","","57","","","","16","","15","","24.1","","96.60","","","","","","NA"
"-119.60","49.46","PENTICTON A","1126146","2018-03-21 19:00","2018","03","21","19:00","9.2","","1.8","","60","","","","17","","14","","24.1","","96.57","","","","","","Mostly Cloudy"
"-119.60","49.46","PENTICTON A","1126146","2018-03-21 20:00","2018","03","21","20:00","8.8","","1.8","","61","","","","18","","9","","24.1","","96.58","","","","","","NA"
"-119.60","49.46","PENTICTON A","1126146","2018-03-21 21:00","2018","03","21","21:00","8.1","","2.2","","66","","","","16","","8","","24.1","","96.52","","","","","","Rain Showers"
"-119.60","49.46","PENTICTON A","1126146","2018-03-21 22:00","2018","03","21","22:00","7.1","","2.5","","72","","","","15","","7","","24.1","","96.52","","","","","","Mostly Cloudy"
"-119.60","49.46","PENTICTON A","1126146","2018-03-21 23:00","2018","03","21","23:00","7.8","","2.7","","70","","","","20","","4","","24.1","","96.46","","","","","","NA"
"-119.60","49.46","PENTICTON A","1126146","2018-03-22 00:00","2018","03","22","00:00","6.7","","3.7","","82","","","","33","","8","","24.1","","96.40","","","","","","NA"
"-119.60","49.46","PENTICTON A","1126146","2018-03-22 01:00","2018","03","22","01:00","6.8","","3.7","","81","","","","36","","1","","19.3","","96.40","","","","","","Rain"
"-119.60","49.46","PENTICTON A","1126146","2018-03-22 02:00","2018","03","22","02:00","5.8","","4.8","","93","","","","0","","1","","19.3","","96.39","","","","","","Rain"
"-119.60","49.46","PENTICTON A","1126146","2018-03-22 03:00","2018","03","22","03:00","5.6","","5.0","","96","","","","23","","7","","19.3","","96.30","","","","","","Rain"
"-119.60","49.46","PENTICTON A","1126146","2018-03-22 04:00","2018","03","22","04:00","5.2","","4.7","","97","","","","32","","3","","19.3","","96.25","","","","","","Rain"
"-119.60","49.46","PENTICTON A","1126146","2018-03-22 05:00","2018","03","22","05:00","5.1","","4.8","","98","","","","36","","3","","19.3","","96.25","","","","","","Rain"
"-119.60","49.46","PENTICTON A","1126146","2018-03-22 06:00","2018","03","22","06:00","5.1","","4.8","","98","","","","2","","7","","4.8","","96.18","","","","","","Rain,Fog"
"-119.60","49.46","PENTICTON A","1126146","2018-03-22 07:00","2018","03","22","07:00","5.1","","4.7","","97","","","","2","","7","","6.4","","96.15","","","","","","Rain,Fog"
"-119.60","49.46","PENTICTON A","1126146","2018-03-22 08:00","2018","03","22","08:00","5.7","","5.1","","96","","","","36","","7","","6.4","","96.09","","","","","","Rain,Fog"
"-119.60","49.46","PENTICTON A","1126146","2018-03-22 09:00","2018","03","22","09:00","5.9","","5.1","","95","","","","1","","8","","16.1","","96.04","","","","","","Rain"
"-119.60","49.46","PENTICTON A","1126146","2018-03-22 10:00","2018","03","22","10:00","6.5","","5.0","","91","","","","35","","7","","16.1","","95.95","","","","","","Cloudy"
"-119.60","49.46","PENTICTON A","1126146","2018-03-22 11:00","2018","03","22","11:00","6.7","","5.3","","91","","","","36","","2","","12.9","","95.89","","","","","","Rain"
"-119.60","49.46","PENTICTON A","1126146","2018-03-22 12:00","2018","03","22","12:00","6.5","","5.6","","93","","","","16","","7","","12.9","","95.82","","","","","","Rain"
"-119.60","49.46","PENTICTON A","1126146","2018-03-22 13:00","2018","03","22","13:00","7.2","","5.2","","87","","","","33","","5","","24.1","","95.67","","","","","","Cloudy"
"-119.60","49.46","PENTICTON A","1126146","2018-03-22 14:00","2018","03","22","14:00","6.9","","5.4","","90","","","","33","","10","","16.1","","95.56","","","","","","Rain"
"-119.60","49.46","PENTICTON A","1126146","2018-03-22 15:00","2018","03","22","15:00","6.9","","6.0","","94","","","","29","","4","","9.7","","95.50","","","","","","Rain,Fog"
"-119.60","49.46","PENTICTON A","1126146","2018-03-22 16:00","2018","03","22","16:00","6.7","","4.7","","87","","","","33","","22","","6.4","","95.72","","","","","","Rain,Fog"
"-119.60","49.46","PENTICTON A","1126146","2018-03-22 17:00","2018","03","22","17:00","4.3","","2.7","","90","","","","5","","15","","4.0","","95.93","","","","","","Rain,Fog"
"-119.60","49.46","PENTICTON A","1126146","2018-03-22 18:00","2018","03","22","18:00","3.4","","1.7","","88","","","","32","","8","","6.4","","96.08","","","","","","Rain,Fog"
"-119.60","49.46","PENTICTON A","1126146","2018-03-22 19:00","2018","03","22","19:00","4.4","","1.9","","84","","","","31","","11","","16.1","","96.18","","","","","","Rain"
"-119.60","49.46","PENTICTON A","1126146","2018-03-22 20:00","2018","03","22","20:00","3.5","","2.6","","94","","","","27","","7","","19.3","","96.32","","","","","","NA"
"-119.60","49.46","PENTICTON A","1126146","2018-03-22 21:00","2018","03","22","21:00","2.8","","2.1","","95","","","","19","","11","","24.1","","96.45","","","","","","NA"
"-119.60","49.46","PENTICTON A","1126146","2018-03-22 22:00","2018","03","22","22:00","3.0","","2.1","","94","","","","32","","5","","24.1","","96.62","","","","","","Mostly Cloudy"
"-119.60","49.46","PENTICTON A","1126146","2018-03-22 23:00","2018","03","22","23:00","3.8","","0.7","","80","","","","14","","5","","24.1","","96.72","","","","","","NA"
"-119.60","49.46","PENTICTON A","1126146","2018-03-23 00:00","2018","03","23","00:00","2.2","","0.4","","88","","","","24","","9","","24.1","","96.81","","","","","","NA"
"-119.60","49.46","PENTICTON A","1126146","2018-03-23 01:00","2018","03","23","01:00","1.7","","-0.4","","86","","","","17","","10","","24.1","","96.90","","","","","","Mainly Clear"
"-119.60","49.46","PENTICTON A","1126146","2018-03-23 02:00","2018","03","23","02:00","-0.5","","-2.2","","88","","","","5","","5","","24.1","","96.95","","","","-2","","NA"
"-119.60","49.46","PENTICTON A","1126146","2018-03-23 03:00","2018","03","23","03:00","1.7","","-0.9","","83","","","","16","","13","","24.1","","96.96","","","","","","NA"
"-119.60","49.46","PENTICTON A","1126146","2018-03-23 04:00","2018","03","23","04:00","2.1","","-2.9","","70","","","","18","","16","","24.1","","96.97","","","","","","Mainly Clear"
"-119.60","49.46","PENTICTON A","1126146","2018-03-23 05:00","2018","03","23","05:00","1.4","","-3.1","","72","","","","14","","15","","24.1","","97.00","","","","","","NA"
"-119.60","49.46","PENTICTON A","1126146","2018-03-23 06:00","2018","03","23","06:00","2.0","","-3.7","","66","","","","19","","24","","24.1","","97.00","","","","","","NA"
"-119.60","49.46","PENTICTON A","1126146","2018-03-23 07:00","2018","03","23","07:00","3.0","","-3.3","","63","","","","19","","34","","24.1","","96.95","","","","","","Mostly Cloudy"
"-119.60","49.46","PENTICTON A","1126146","2018-03-23 08:00","2018","03","23","08:00","4.3","","-1.9","","64","","","","18","","30","","24.1","","96.95","","","","","","NA"
"-119.60","49.46","PENTICTON A","1126146","2018-03-23 09:00","2018","03","23","09:00","4.7","","-2.5","","60","","","","18","","35","","24.1","","96.92","","","","","","NA"
"-119.60","49.46","PENTICTON A","1126146","2018-03-23 10:00","2018","03","23","10:00","4.5","","-2.0","","62","","","","17","","30","","24.1","","96.96","","","","","","Cloudy"
"-119.60","49.46","PENTICTON A","1126146","2018-03-23 11:00","2018","03","23","11:00","4.5","","0.2","","74","","","","19","","31","","19.3","","96.94","","","","","","Rain"
"-119.60","49.46","PENTICTON A","1126146","2018-03-23 12:00","2018","03","23","12:00","2.4","","0.4","","87","","","","16","","26","","12.9","","96.94","","","","","","Rain"
"-119.60","49.46","PENTICTON A","1126146","2018-03-23 13:00","2018","03","23","13:00","1.0","","0.3","","95","","","","16","","18","","4.0","","96.94","","","","","","Rain,Snow"
"-119.60","49.46","PENTICTON A","1126146","2018-03-23 14:00","2018","03","23","14:00","2.3","","1.6","","95","","","","18","","26","","12.9","","96.90","","","","","","Rain"
"-119.60","49.46","PENTICTON A","1126146","2018-03-23 15:00","2018","03","23","15:00","5.2","","1.3","","76","","","","19","","36","","24.1","","96.83","","","","","","NA"
"-119.60","49.46","PENTICTON A","1126146","2018-03-23 16:00","2018","03","23","16:00","5.7","","0.3","","68","","","","19","","39","","24.1","","96.79","","","","","","Mostly Cloudy"
"-119.60","49.46","PENTICTON A","1126146","2018-03-23 17:00","2018","03","23","17:00","5.5","","-0.6","","65","","","","20","","29","","24.1","","96.79","","","","","","NA"
"-119.60","49.46","PENTICTON A","1126146","2018-03-23 18:00","2018","03","23","18:00","5.4","","-0.8","","64","","","","18","","22","","24.1","","96.79","","","","","","NA"
"-119.60","49.46","PENTICTON A","1126146","2018-03-23 19:00","2018","03","23","19:00","3.9","","-0.1","","75","","","","15","","14","","24.1","","96.80","","","","","","Mainly Clear"
"-119.60","49.46","PENTICTON A","1126146","2018-03-23 20:00","2018","03","23","20:00","1.7","","-1.0","","82","","","","35","","10","","24.1","","96.85","","","","","","NA"
"-119.60","49.46","PENTICTON A","1126146","2018-03-23 21:00","2018","03","23","21:00","1.0","","-0.9","","87","","","","5","","7","","24.1","","96.83","","","","","","NA"
"-119.60","49.46","PENTICTON A","1126146","2018-03-23 22:00","2018","03","23","22:00","0.7","","-1.9","","83","","","","10","","3","","24.1","","96.82","","","","","","Mostly Cloudy"
"-119.60","49.46","PENTICTON A","1126146","2018-03-23 23:00","2018","03","23","23:00","-0.6","","-2.7","","85","","","","1","","7","","24.1","","96.82","","","","-3","","NA"
"-119.60","49.46","PENTICTON A","1126146","2018-03-24 00:00","2018","03","24","00:00","-0.3","","-2.1","","88","","","","34","","7","","24.1","","96.79","","","","-3","","NA"
"-119.60","49.46","PENTICTON A","1126146","2018-03-24 01:00","2018","03","24","01:00","0.8","","-1.6","","84","","","","34","","8","","24.1","","96.78","","","","","","Mostly Cloudy"
"-119.60","49.46","PENTICTON A","1126146","2018-03-24 02:00","2018","03","24","02:00","1.3","","-1.4","","82","","","","35","","5","","24.1","","96.75","","","","","","NA"
"-119.60","49.46","PENTICTON A","1126146","2018-03-24 03:00","2018","03","24","03:00","0.9","","-1.8","","82","","","","33","","12","","24.1","","96.67","","","","","","NA"
"-119.60","49.46","PENTICTON A","1126146","2018-03-24 04:00","2018","03","24","04:00","1.6","","-0.5","","86","","","","35","","8","","24.1","","96.67","","","","","","Cloudy"
"-119.60","49.46","PENTICTON A","1126146","2018-03-24 05:00","2018","03","24","05:00","1.0","","-0.6","","90","","","","33","","9","","12.9","","96.63","","","","","","Snow"
"-119.60","49.46","PENTICTON A","1126146","2018-03-24 06:00","2018","03","24","06:00","","M","","M","","M","","","36","","9","","6.4","","","M","","","","","Snow"
"-119.60","49.46","PENTICTON A","1126146","2018-03-24 07:00","2018","03","24","07:00","","M","","M","","M","","","32","","8","","3.2","","","M","","","","","Snow"
"-119.60","49.46","PENTICTON A","1126146","2018-03-24 08:00","2018","03","24","08:00","1.6","","0.3","","","M","","","32","","4","","2.4","","96.68","","","","","","Snow"
"-119.60","49.46","PENTICTON A","1126146","2018-03-24 09:00","2018","03","24","09:00","2.3","","0.8","","","M","","","36","","4","","6.4","","96.71","","","","","","Snow"
"-119.60","49.46","PENTICTON A","1126146","2018-03-24 10:00","2018","03","24","10:00","2.8","","1.3","","","M","","","36","","4","","16.1","","96.74","","","","","","Rain,Snow"
"-119.60","49.46","PENTICTON A","1126146","2018-03-24 11:00","2018","03","24","11:00","3.2","","1.7","","","M","","","36","","9","","16.1","","96.76","","","","","","Rain"
"-119.60","49.46","PENTICTON A","1126146","2018-03-24 12:00","2018","03","24","12:00","4.9","","1.8","","","M","","","36","","9","","24.1","","96.82","","","","","","NA"
"-119.60","49.46","PENTICTON A","1126146","2018-03-24 13:00","2018","03","24","13:00","6.3","","1.8","","","M","","","36","","9","","24.1","","96.83","","","","","","Cloudy"
"-119.60","49.46","PENTICTON A","1126146","2018-03-24 14:00","2018","03","24","14:00","7.7","","1.7","","","M","","","","","0","","24.1","","96.85","","","","","","NA"
"-119.60","49.46","PENTICTON A","1126146","2018-03-24 15:00","2018","03","24","15:00","5.5","","0.1","","68","","","","18","","9","","24.1","","96.85","","","","","","NA"
"-119.60","49.46","PENTICTON A","1126146","2018-03-24 16:00","2018","03","24","16:00","5.5","","0.3","","69","","","","18","","9","","24.1","","96.85","","","","","","Mostly Cloudy"
"-119.60","49.46","PENTICTON A","1126146","2018-03-24 17:00","2018","03","24","17:00","5.7","","0.1","","67","","","","18","","9","","24.1","","96.88","","","","","","NA"
"-119.60","49.46","PENTICTON A","1126146","2018-03-24 18:00","2018","03","24","18:00","5.6","","-0.7","","64","","","","18","","9","","24.1","","96.94","","","","","","NA"
"-119.60","49.46","PENTICTON A","1126146","2018-03-24 19:00","2018","03","24","19:00","5.0","","-0.6","","67","","","","18","","18","","24.1","","97.01","","","","","","Mostly Cloudy"
"-119.60","49.46","PENTICTON A","1126146","2018-03-24 20:00","2018","03","24","20:00","4.8","","-0.6","","68","","","","18","","18","","24.1","","97.10","","","","","","NA"
"-119.60","49.46","PENTICTON A","1126146","2018-03-24 21:00","2018","03","24","21:00","3.0","","0.7","","85","","","","18","","28","","24.1","","97.11","","","","","","NA"
"-119.60","49.46","PENTICTON A","1126146","2018-03-24 22:00","2018","03","24","22:00","2.8","","0.4","","84","","","","18","","18","","24.1","","97.13","","","","","","Mostly Cloudy"
"-119.60","49.46","PENTICTON A","1126146","2018-03-24 23:00","2018","03","24","23:00","2.4","","0.0","","84","","","","14","","11","","24.1","","97.18","","","","","","NA"
"-119.60","49.46","PENTICTON A","1126146","2018-03-25 00:00","2018","03","25","00:00","2.1","","-0.2","","85","","","","18","","8","","24.1","","97.19","","","","","","NA"
"-119.60","49.46","PENTICTON A","1126146","2018-03-25 01:00","2018","03","25","01:00","1.9","","-0.2","","86","","","","","","0","","24.1","","97.24","","","","","","Mostly Cloudy"
"-119.60","49.46","PENTICTON A","1126146","2018-03-25 02:00","2018","03","25","02:00","-0.8","","-2.2","","90","","","","","","0","","24.1","","97.24","","","","","","NA"
"-119.60","49.46","PENTICTON A","1126146","2018-03-25 03:00","2018","03","25","03:00","-1.7","","-3.4","","88","","","","","","0","","24.1","","97.26","","","","","","NA"
"-119.60","49.46","PENTICTON A","1126146","2018-03-25 04:00","2018","03","25","04:00","-2.1","","-3.7","","89","","","","","","0","","24.1","","97.31","","","","","","Mainly Clear"
"-119.60","49.46","PENTICTON A","1126146","2018-03-25 05:00","2018","03","25","05:00","-2.3","","-4.5","","85","","","","","","0","","24.1","","97.36","","","","","","NA"
"-119.60","49.46","PENTICTON A","1126146","2018-03-25 06:00","2018","03","25","06:00","-2.7","","-4.6","","87","","","","","","0","","24.1","","97.42","","","","","","NA"
"-119.60","49.46","PENTICTON A","1126146","2018-03-25 07:00","2018","03","25","07:00","2.2","","-3.0","","","M","","","","","0","","24.1","","97.47","","","","","","Mainly Clear"
"-119.60","49.46","PENTICTON A","1126146","2018-03-25 08:00","2018","03","25","08:00","4.4","","-1.7","","65","","","","","","0","","24.1","","97.49","","","","","","NA"
"-119.60","49.46","PENTICTON A","1126146","2018-03-25 09:00","2018","03","25","09:00","3.8","","-1.6","","68","","","","18","","15","","24.1","","97.52","","","","","","NA"
"-119.60","49.46","PENTICTON A","1126146","2018-03-25 10:00","2018","03","25","10:00","4.7","","-1.7","","63","","","","18","","9","","24.1","","97.51","","","","","","Mainly Clear"
"-119.60","49.46","PENTICTON A","1126146","2018-03-25 11:00","2018","03","25","11:00","4.1","","-1.2","","","M","","","18","","9","","24.1","","97.48","","","","","","NA"
"-119.60","49.46","PENTICTON A","1126146","2018-03-25 12:00","2018","03","25","12:00","6.4","","-5.0","","44","","","","18","","9","","24.1","","97.45","","","","","","NA"
"-119.60","49.46","PENTICTON A","1126146","2018-03-25 13:00","2018","03","25","13:00","7.9","","-4.5","","41","","","","18","","9","","24.1","","97.42","","","","","","Mostly Cloudy"
"-119.60","49.46","PENTICTON A","1126146","2018-03-25 14:00","2018","03","25","14:00","9.1","","-5.9","","34","","","","18","","9","","24.1","","97.42","","","","","","NA"
"-119.60","49.46","PENTICTON A","1126146","2018-03-25 15:00","2018","03","25","15:00","9.1","","-3.8","","40","","","","18","","9","","24.1","","97.38","","","","","","NA"
"-119.60","49.46","PENTICTON A","1126146","2018-03-25 16:00","2018","03","25","16:00","8.4","","-4.1","","41","","","","17","","10","","24.1","","97.39","","","","","","Mostly Cloudy"
"-119.60","49.46","PENTICTON A","1126146","2018-03-25 17:00","2018","03","25","17:00","8.5","","-5.7","","36","","","","25","","14","","24.1","","97.42","","","","","","NA"
"-119.60","49.46","PENTICTON A","1126146","2018-03-25 18:00","2018","03","25","18:00","6.6","","-5.7","","41","","","","27","","22","","24.1","","97.45","","","","","","NA"
"-119.60","49.46","PENTICTON A","1126146","2018-03-25 19:00","2018","03","25","19:00","4.7","","-5.1","","49","","","","16","","4","","24.1","","97.48","","","","","","Mostly Cloudy"
"-119.60","49.46","PENTICTON A","1126146","2018-03-25 20:00","2018","03","25","20:00","4.1","","-4.1","","55","","","","36","","3","","24.1","","97.51","","","","","","NA"
"-119.60","49.46","PENTICTON A","1126146","2018-03-25 21:00","2018","03","25","21:00","3.5","","-2.7","","64","","","","18","","8","","24.1","","97.55","","","","","","NA"
"-119.60","49.46","PENTICTON A","1126146","2018-03-25 22:00","2018","03","25","22:00","4.2","","-6.1","","47","","","","17","","17","","24.1","","97.55","","","","","","Mostly Cloudy"
"-119.60","49.46","PENTICTON A","1126146","2018-03-25 23:00","2018","03","25","23:00","2.6","","-4.8","","58","","","","18","","7","","24.1","","97.57","","","","","","NA"
"-119.60","49.46","PENTICTON A","1126146","2018-03-26 00:00","2018","03","26","00:00","2.9","","-5.5","","54","","","","15","","11","","24.1","","97.59","","","","","","NA"
"-119.60","49.46","PENTICTON A","1126146","2018-03-26 01:00","2018","03","26","01:00","3.0","","-5.7","","53","","","","13","","10","","24.1","","97.64","","","","","","Mostly Cloudy"
"-119.60","49.46","PENTICTON A","1126146","2018-03-26 02:00","2018","03","26","02:00","3.3","","-4.9","","55","","","","17","","22","","24.1","","97.65","","","","","","NA"
"-119.60","49.46","PENTICTON A","1126146","2018-03-26 03:00","2018","03","26","03:00","3.0","","-5.2","","55","","","","18","","29","","24.1","","97.64","","","","","","NA"
"-119.60","49.46","PENTICTON A","1126146","2018-03-26 04:00","2018","03","26","04:00","2.8","","-5.6","","54","","","","18","","31","","24.1","","97.64","","","","","","Mostly Cloudy"
"-119.60","49.46","PENTICTON A","1126146","2018-03-26 05:00","2018","03","26","05:00","2.8","","-6.0","","52","","","","16","","29","","24.1","","97.61","","","","","","NA"
"-119.60","49.46","PENTICTON A","1126146","2018-03-26 06:00","2018","03","26","06:00","2.5","","-5.8","","54","","","","18","","28","","24.1","","97.63","","","","","","NA"
"-119.60","49.46","PENTICTON A","1126146","2018-03-26 07:00","2018","03","26","07:00","2.8","","-4.9","","57","","","","18","","29","","24.1","","97.65","","","","","","Cloudy"
"-119.60","49.46","PENTICTON A","1126146","2018-03-26 08:00","2018","03","26","08:00","3.4","","-5.0","","54","","","","17","","26","","24.1","","97.66","","","","","","NA"
"-119.60","49.46","PENTICTON A","1126146","2018-03-26 09:00","2018","03","26","09:00","4.4","","-4.8","","51","","","","17","","28","","24.1","","97.70","","","","","","NA"
"-119.60","49.46","PENTICTON A","1126146","2018-03-26 10:00","2018","03","26","10:00","5.1","","-4.2","","51","","","","17","","26","","24.1","","97.77","","","","","","Cloudy"
"-119.60","49.46","PENTICTON A","1126146","2018-03-26 11:00","2018","03","26","11:00","5.2","","-2.6","","57","","","","19","","36","","24.1","","97.80","","","","","","NA"
"-119.60","49.46","PENTICTON A","1126146","2018-03-26 12:00","2018","03","26","12:00","4.9","","-0.2","","70","","","","20","","30","","24.1","","97.85","","","","","","Rain"
"-119.60","49.46","PENTICTON A","1126146","2018-03-26 13:00","2018","03","26","13:00","7.1","","-0.4","","59","","","","19","","28","","24.1","","97.83","","","","","","Rain"
"-119.60","49.46","PENTICTON A","1126146","2018-03-26 14:00","2018","03","26","14:00","8.4","","-0.6","","53","","","","18","","29","","24.1","","97.80","","","","","","NA"
"-119.60","49.46","PENTICTON A","1126146","2018-03-26 15:00","2018","03","26","15:00","9.0","","-0.2","","53","","","","18","","24","","24.1","","97.77","","","","","","NA"
"-119.60","49.46","PENTICTON A","1126146","2018-03-26 16:00","2018","03","26","16:00","8.9","","0.0","","54","","","","19","","25","","24.1","","97.78","","","","","","Cloudy"
"-119.60","49.46","PENTICTON A","1126146","2018-03-26 17:00","2018","03","26","17:00","7.9","","0.2","","58","","","","18","","21","","24.1","","97.78","","","","","","NA"
"-119.60","49.46","PENTICTON A","1126146","2018-03-26 18:00","2018","03","26","18:00","7.4","","1.0","","64","","","","17","","30","","24.1","","97.81","","","","","","Rain"
"-119.60","49.46","PENTICTON A","1126146","2018-03-26 19:00","2018","03","26","19:00","5.9","","2.5","","79","","","","19","","21","","24.1","","97.81","","","","","","Rain"
"-119.60","49.46","PENTICTON A","1126146","2018-03-26 20:00","2018","03","26","20:00","6.9","","1.8","","70","","","","20","","20","","24.1","","97.83","","","","","","NA"
"-119.60","49.46","PENTICTON A","1126146","2018-03-26 21:00","2018","03","26","21:00","7.1","","1.4","","67","","","","17","","17","","24.1","","97.82","","","","","","NA"
"-119.60","49.46","PENTICTON A","1126146","2018-03-26 22:00","2018","03","26","22:00","6.9","","1.4","","68","","","","15","","13","","24.1","","97.78","","","","","","Cloudy"
"-119.60","49.46","PENTICTON A","1126146","2018-03-26 23:00","2018","03","26","23:00","7.6","","0.7","","61","","","","17","","15","","24.1","","97.75","","","","","","NA"
"-119.60","49.46","PENTICTON A","1126146","2018-03-27 00:00","2018","03","27","00:00","7.2","","0.5","","62","","","","18","","18","","24.1","","97.78","","","","","","NA"
"-119.60","49.46","PENTICTON A","1126146","2018-03-27 01:00","2018","03","27","01:00","7.5","","0.3","","60","","","","21","","20","","24.1","","97.79","","","","","","Mostly Cloudy"
"-119.60","49.46","PENTICTON A","1126146","2018-03-27 02:00","2018","03","27","02:00","7.1","","0.3","","62","","","","18","","18","","24.1","","97.78","","","","","","NA"
"-119.60","49.46","PENTICTON A","1126146","2018-03-27 03:00","2018","03","27","03:00","7.1","","0.2","","61","","","","18","","28","","24.1","","97.72","","","","","","NA"
"-119.60","49.46","PENTICTON A","1126146","2018-03-27 04:00","2018","03","27","04:00","6.5","","0.3","","65","","","","18","","22","","24.1","","97.74","","","","","","Mostly Cloudy"
"-119.60","49.46","PENTICTON A","1126146","2018-03-27 05:00","2018","03","27","05:00","5.8","","0.6","","69","","","","18","","24","","24.1","","97.66","","","","","","NA"
"-119.60","49.46","PENTICTON A","1126146","2018-03-27 06:00","2018","03","27","06:00","6.8","","-0.2","","61","","","","16","","25","","24.1","","97.59","","","","","","NA"
"-119.60","49.46","PENTICTON A","1126146","2018-03-27 07:00","2018","03","27","07:00","7.0","","0.0","","61","","","","16","","22","","24.1","","97.62","","","","","","Cloudy"
"-119.60","49.46","PENTICTON A","1126146","2018-03-27 08:00","2018","03","27","08:00","7.6","","-0.2","","58","","","","16","","21","","24.1","","97.63","","","","","","NA"
"-119.60","49.46","PENTICTON A","1126146","2018-03-27 09:00","2018","03","27","09:00","7.6","","0.3","","60","","","","16","","11","","24.1","","97.69","","","","","","NA"
"-119.60","49.46","PENTICTON A","1126146","2018-03-27 10:00","2018","03","27","10:00","8.8","","0.5","","56","","","","17","","20","","24.1","","97.68","","","","","","Mostly Cloudy"
"-119.60","49.46","PENTICTON A","1126146","2018-03-27 11:00","2018","03","27","11:00","10.1","","1.1","","53","","","","15","","25","","24.1","","97.58","","","","","","NA"
"-119.60","49.46","PENTICTON A","1126146","2018-03-27 12:00","2018","03","27","12:00","11.1","","2.2","","54","","","","18","","31","","24.1","","97.54","","","","","","NA"
"-119.60","49.46","PENTICTON A","1126146","2018-03-27 13:00","2018","03","27","13:00","12.6","","1.6","","47","","","","17","","20","","24.1","","97.52","","","","","","Mostly Cloudy"
"-119.60","49.46","PENTICTON A","1126146","2018-03-27 14:00","2018","03","27","14:00","13.6","","1.5","","44","","","","16","","17","","24.1","","97.51","","","","","","NA"
"-119.60","49.46","PENTICTON A","1126146","2018-03-27 15:00","2018","03","27","15:00","15.0","","-0.8","","34","","","","16","","8","","24.1","","97.48","","","","","","NA"
"-119.60","49.46","PENTICTON A","1126146","2018-03-27 16:00","2018","03","27","16:00","14.8","","-1.2","","33","","","","20","","6","","24.1","","97.49","","","","","","Mostly Cloudy"
"-119.60","49.46","PENTICTON A","1126146","2018-03-27 17:00","2018","03","27","17:00","14.6","","-1.0","","34","","","","23","","13","","24.1","","97.53","","","","","","NA"
"-119.60","49.46","PENTICTON A","1126146","2018-03-27 18:00","2018","03","27","18:00","12.5","","-1.8","","37","","","","35","","4","","24.1","","97.62","","","","","","NA"
"-119.60","49.46","PENTICTON A","1126146","2018-03-27 19:00","2018","03","27","19:00","10.2","","-1.6","","44","","","","3","","9","","24.1","","97.70","","","","","","Mainly Clear"
"-119.60","49.46","PENTICTON A","1126146","2018-03-27 20:00","2018","03","27","20:00","7.7","","-0.6","","56","","","","21","","4","","24.1","","97.84","","","","","","NA"
"-119.60","49.46","PENTICTON A","1126146","2018-03-27 21:00","2018","03","27","21:00","9.6","","-2.1","","44","","","","36","","8","","24.1","","97.90","","","","","","NA"
"-119.60","49.46","PENTICTON A","1126146","2018-03-27 22:00","2018","03","27","22:00","7.5","","-2.0","","51","","","","31","","3","","24.1","","97.92","","","","","","Mainly Clear"
"-119.60","49.46","PENTICTON A","1126146","2018-03-27 23:00","2018","03","27","23:00","4.9","","-1.4","","63","","","","16","","3","","24.1","","97.97","","","","","","NA"
"-119.60","49.46","PENTICTON A","1126146","2018-03-28 00:00","2018","03","28","00:00","4.4","","-1.8","","64","","","","31","","7","","24.1","","98.01","","","","","","NA"
"-119.60","49.46","PENTICTON A","1126146","2018-03-28 01:00","2018","03","28","01:00","2.4","","-1.5","","75","","","","36","","2","","24.1","","98.06","","","","","","Mainly Clear"
"-119.60","49.46","PENTICTON A","1126146","2018-03-28 02:00","2018","03","28","02:00","0.9","","-1.7","","83","","","","33","","3","","24.1","","98.09","","","","","","NA"
"-119.60","49.46","PENTICTON A","1126146","2018-03-28 03:00","2018","03","28","03:00","1.2","","-2.1","","79","","","","33","","3","","24.1","","98.14","","","","","","NA"
"-119.60","49.46","PENTICTON A","1126146","2018-03-28 04:00","2018","03","28","04:00","1.1","","-2.4","","78","","","","28","","7","","24.1","","98.18","","","","","","Mainly Clear"
"-119.60","49.46","PENTICTON A","1126146","2018-03-28 05:00","2018","03","28","05:00","2.7","","-1.4","","75","","","","28","","6","","24.1","","98.23","","","","","","NA"
"-119.60","49.46","PENTICTON A","1126146","2018-03-28 06:00","2018","03","28","06:00","3.4","","-1.0","","73","","","","31","","10","","24.1","","98.28","","","","","","NA"
"-119.60","49.46","PENTICTON A","1126146","2018-03-28 07:00","2018","03","28","07:00","4.7","","-0.3","","70","","","","33","","4","","24.1","","98.29","","","","","","Cloudy"
"-119.60","49.46","PENTICTON A","1126146","2018-03-28 08:00","2018","03","28","08:00","9.8","","-2.8","","41","","","","31","","24","","24.1","","98.30","","","","","","NA"
"-119.60","49.46","PENTICTON A","1126146","2018-03-28 09:00","2018","03","28","09:00","8.2","","-0.5","","54","","","","36","","16","","24.1","","98.32","","","","","","NA"
"-119.60","49.46","PENTICTON A","1126146","2018-03-28 10:00","2018","03","28","10:00","9.9","","-1.3","","46","","","","1","","18","","24.1","","98.33","","","","","","Mostly Cloudy"
"-119.60","49.46","PENTICTON A","1126146","2018-03-28 11:00","2018","03","28","11:00","10.9","","-2.1","","40","","","","36","","15","","24.1","","98.29","","","","","","NA"
"-119.60","49.46","PENTICTON A","1126146","2018-03-28 12:00","2018","03","28","12:00","11.1","","-1.2","","42","","","","35","","18","","24.1","","98.23","","","","","","NA"
"-119.60","49.46","PENTICTON A","1126146","2018-03-28 13:00","2018","03","28","13:00","12.9","","-4.0","","30","","","","3","","14","","24.1","","98.18","","","","","","Mostly Cloudy"
"-119.60","49.46","PENTICTON A","1126146","2018-03-28 14:00","2018","03","28","14:00","12.6","","-4.0","","31","","","","2","","19","","24.1","","98.10","","","","","","NA"
"-119.60","49.46","PENTICTON A","1126146","2018-03-28 15:00","2018","03","28","15:00","12.3","","-5.5","","28","","","","1","","22","","24.1","","98.08","","","","","","NA"
"-119.60","49.46","PENTICTON A","1126146","2018-03-28 16:00","2018","03","28","16:00","11.7","","-4.3","","32","","","","36","","23","","24.1","","98.07","","","","","","Mostly Cloudy"
"-119.60","49.46","PENTICTON A","1126146","2018-03-28 17:00","2018","03","28","17:00","11.8","","-4.2","","32","","","","34","","24","","24.1","","98.07","","","","","","NA"
"-119.60","49.46","PENTICTON A","1126146","2018-03-28 18:00","2018","03","28","18:00","8.3","","-4.7","","39","","","","34","","7","","24.1","","98.12","","","","","","NA"
"-119.60","49.46","PENTICTON A","1126146","2018-03-28 19:00","2018","03","28","19:00","8.4","","-4.8","","39","","","","2","","17","","24.1","","98.18","","","","","","Mainly Clear"
"-119.60","49.46","PENTICTON A","1126146","2018-03-28 20:00","2018","03","28","20:00","6.6","","-4.7","","44","","","","36","","1","","24.1","","98.24","","","","","","NA"
"-119.60","49.46","PENTICTON A","1126146","2018-03-28 21:00","2018","03","28","21:00","3.4","","-3.9","","59","","","","34","","3","","24.1","","98.27","","","","","","NA"
"-119.60","49.46","PENTICTON A","1126146","2018-03-28 22:00","2018","03","28","22:00","4.0","","-3.9","","56","","","","36","","1","","24.1","","98.31","","","","","","Mainly Clear"
"-119.60","49.46","PENTICTON A","1126146","2018-03-28 23:00","2018","03","28","23:00","-0.2","","-4.0","","76","","","","","","0","","24.1","","98.32","","","","","","NA"
"-119.60","49.46","PENTICTON A","1126146","2018-03-29 00:00","2018","03","29","00:00","-1.5","","-4.2","","82","","","","2","","4","","24.1","","98.35","","","","-3","","NA"
"-119.60","49.46","PENTICTON A","1126146","2018-03-29 01:00","2018","03","29","01:00","-2.6","","-4.5","","87","","","","36","","3","","24.1","","98.36","","","","-4","","Mainly Clear"
"-119.60","49.46","PENTICTON A","1126146","2018-03-29 02:00","2018","03","29","02:00","-3.0","","-4.9","","86","","","","36","","4","","24.1","","98.38","","","","-5","","NA"
"-119.60","49.46","PENTICTON A","1126146","2018-03-29 03:00","2018","03","29","03:00","-1.2","","-4.7","","77","","","","36","","2","","24.1","","98.37","","","","-2","","NA"
"-119.60","49.46","PENTICTON A","1126146","2018-03-29 04:00","2018","03","29","04:00","-2.2","","-4.5","","84","","","","36","","2","","24.1","","98.41","","","","-3","","Mainly Clear"
"-119.60","49.46","PENTICTON A","1126146","2018-03-29 05:00","2018","03","29","05:00","-2.7","","-4.7","","86","","","","36","","2","","24.1","","98.45","","","","-3","","NA"
"-119.60","49.46","PENTICTON A","1126146","2018-03-29 06:00","2018","03","29","06:00","-1.7","","-4.1","","84","","","","0","","1","","24.1","","98.44","","","","-2","","NA"
"-119.60","49.46","PENTICTON A","1126146","2018-03-29 07:00","2018","03","29","07:00","-0.4","","-2.7","","85","","","","20","","4","","24.1","","98.43","","","","-2","","Mostly Cloudy"
"-119.60","49.46","PENTICTON A","1126146","2018-03-29 08:00","2018","03","29","08:00","2.4","","-2.2","","72","","","","20","","7","","24.1","","98.42","","","","","","NA"
"-119.60","49.46","PENTICTON A","1126146","2018-03-29 09:00","2018","03","29","09:00","4.7","","-3.1","","57","","","","20","","8","","24.1","","98.36","","","","","","NA"
"-119.60","49.46","PENTICTON A","1126146","2018-03-29 10:00","2018","03","29","10:00","6.2","","-2.6","","53","","","","20","","10","","24.1","","98.32","","","","","","Cloudy"
"-119.60","49.46","PENTICTON A","1126146","2018-03-29 11:00","2018","03","29","11:00","7.8","","-1.8","","50","","","","19","","10","","24.1","","98.25","","","","","","NA"
"-119.60","49.46","PENTICTON A","1126146","2018-03-29 12:00","2018","03","29","12:00","9.3","","-1.8","","46","","","","19","","8","","24.1","","98.19","","","","","","NA"
"-119.60","49.46","PENTICTON A","1126146","2018-03-29 13:00","2018","03","29","13:00","11.4","","-1.4","","41","","","","16","","7","","24.1","","98.11","","","","","","Cloudy"
"-119.60","49.46","PENTICTON A","1126146","2018-03-29 14:00","2018","03","29","14:00","11.6","","-1.1","","41","","","","35","","8","","24.1","","98.02","","","","","","NA"
"-119.60","49.46","PENTICTON A","1126146","2018-03-29 15:00","2018","03","29","15:00","11.4","","0.2","","46","","","","36","","14","","24.1","","97.96","","","","","","NA"
"-119.60","49.46","PENTICTON A","1126146","2018-03-29 16:00","2018","03","29","16:00","11.4","","0.4","","47","","","","15","","5","","24.1","","97.92","","","","","","Cloudy"
"-119.60","49.46","PENTICTON A","1126146","2018-03-29 17:00","2018","03","29","17:00","11.1","","2.2","","54","","","","20","","16","","24.1","","97.83","","","","","","NA"
"-119.60","49.46","PENTICTON A","1126146","2018-03-29 18:00","2018","03","29","18:00","9.5","","2.0","","59","","","","13","","4","","24.1","","97.80","","","","","","NA"
"-119.60","49.46","PENTICTON A","1126146","2018-03-29 19:00","2018","03","29","19:00","8.2","","1.6","","63","","","","34","","10","","24.1","","97.74","","","","","","Cloudy"
"-119.60","49.46","PENTICTON A","1126146","2018-03-29 20:00","2018","03","29","20:00","7.0","","2.6","","73","","","","36","","9","","24.1","","97.70","","","","","","NA"
"-119.60","49.46","PENTICTON A","1126146","2018-03-29 21:00","2018","03","29","21:00","6.9","","2.7","","75","","","","3","","9","","24.1","","97.65","","","","","","Rain"
"-119.60","49.46","PENTICTON A","1126146","2018-03-29 22:00","2018","03","29","22:00","6.6","","2.8","","76","","","","3","","4","","24.1","","97.59","","","","","","Cloudy"
"-119.60","49.46","PENTICTON A","1126146","2018-03-29 23:00","2018","03","29","23:00","6.5","","2.2","","74","","","","18","","9","","24.1","","97.51","","","","","","NA"
"-119.60","49.46","PENTICTON A","1126146","2018-03-30 00:00","2018","03","30","00:00","6.2","","2.3","","76","","","","1","","4","","24.1","","97.48","","","","","","NA"
"-119.60","49.46","PENTICTON A","1126146","2018-03-30 01:00","2018","03","30","01:00","6.2","","2.4","","77","","","","15","","5","","24.1","","97.41","","","","","","Mostly Cloudy"
"-119.60","49.46","PENTICTON A","1126146","2018-03-30 02:00","2018","03","30","02:00","6.5","","2.5","","75","","","","4","","5","","24.1","","97.39","","","","","","NA"
"-119.60","49.46","PENTICTON A","1126146","2018-03-30 03:00","2018","03","30","03:00","6.4","","2.2","","74","","","","5","","4","","24.1","","97.38","","","","","","NA"
"-119.60","49.46","PENTICTON A","1126146","2018-03-30 04:00","2018","03","30","04:00","5.6","","2.4","","79","","","","19","","11","","24.1","","97.33","","","","","","Mostly Cloudy"
"-119.60","49.46","PENTICTON A","1126146","2018-03-30 05:00","2018","03","30","05:00","5.7","","1.9","","76","","","","19","","9","","24.1","","97.34","","","","","","NA"
"-119.60","49.46","PENTICTON A","1126146","2018-03-30 06:00","2018","03","30","06:00","5.9","","1.4","","73","","","","16","","18","","24.1","","97.27","","","","","","NA"
"-119.60","49.46","PENTICTON A","1126146","2018-03-30 07:00","2018","03","30","07:00","8.3","","1.1","","60","","","","14","","12","","24.1","","97.26","","","","","","Mainly Clear"
"-119.60","49.46","PENTICTON A","1126146","2018-03-30 08:00","2018","03","30","08:00","11.2","","1.0","","49","","","","19","","4","","24.1","","97.34","","","","","","NA"
"-119.60","49.46","PENTICTON A","1126146","2018-03-30 09:00","2018","03","30","09:00","13.5","","-2.0","","34","","","","6","","7","","24.1","","97.37","","","","","","NA"
"-119.60","49.46","PENTICTON A","1126146","2018-03-30 10:00","2018","03","30","10:00","14.9","","-2.1","","31","","","","32","","15","","24.1","","97.43","","","","","","Mainly Clear"
"-119.60","49.46","PENTICTON A","1126146","2018-03-30 11:00","2018","03","30","11:00","14.8","","-3.6","","28","","","","29","","19","","24.1","","97.45","","","","","","NA"
"-119.60","49.46","PENTICTON A","1126146","2018-03-30 12:00","2018","03","30","12:00","15.1","","-5.2","","24","","","","27","","30","","24.1","","97.43","","","","","","NA"
"-119.60","49.46","PENTICTON A","1126146","2018-03-30 13:00","2018","03","30","13:00","15.1","","-3.8","","27","","","","28","","23","","24.1","","97.46","","","","","","Mostly Cloudy"
"-119.60","49.46","PENTICTON A","1126146","2018-03-30 14:00","2018","03","30","14:00","16.1","","-5.2","","23","","","","30","","22","","24.1","","97.47","","","","","","NA"
"-119.60","49.46","PENTICTON A","1126146","2018-03-30 15:00","2018","03","30","15:00","12.7","","1.1","","45","","","","1","","22","","24.1","","97.55","","","","","","NA"
"-119.60","49.46","PENTICTON A","1126146","2018-03-30 16:00","2018","03","30","16:00","12.2","","0.8","","45","","","","36","","19","","24.1","","97.63","","","","","","Mostly Cloudy"
"-119.60","49.46","PENTICTON A","1126146","2018-03-30 17:00","2018","03","30","17:00","10.3","","0.4","","50","","","","34","","27","","24.1","","97.73","","","","","","NA"
"-119.60","49.46","PENTICTON A","1126146","2018-03-30 18:00","2018","03","30","18:00","7.9","","2.1","","66","","","","35","","19","","24.1","","97.86","","","","","","Rain Showers"
"-119.60","49.46","PENTICTON A","1126146","2018-03-30 19:00","2018","03","30","19:00","6.5","","2.1","","73","","","","26","","12","","24.1","","97.95","","","","","","Rain Showers"
"-119.60","49.46","PENTICTON A","1126146","2018-03-30 20:00","2018","03","30","20:00","7.4","","0.5","","61","","","","26","","14","","24.1","","98.04","","","","","","Rain Showers"
"-119.60","49.46","PENTICTON A","1126146","2018-03-30 21:00","2018","03","30","21:00","7.1","","0.0","","61","","","","36","","17","","24.1","","98.13","","","","","","NA"
"-119.60","49.46","PENTICTON A","1126146","2018-03-30 22:00","2018","03","30","22:00","6.6","","-3.3","","49","","","","34","","21","","24.1","","98.19","","","","","","Mostly Cloudy"
"-119.60","49.46","PENTICTON A","1126146","2018-03-30 23:00","2018","03","30","23:00","5.5","","-2.1","","58","","","","1","","13","","24.1","","98.25","","","","","","NA"
"-119.60","49.46","PENTICTON A","1126146","2018-03-31 00:00","2018","03","31","00:00","5.5","","-4.6","","48","","","","2","","21","","24.1","","98.34","","","","","","NA"
"-119.60","49.46","PENTICTON A","1126146","2018-03-31 01:00","2018","03","31","01:00","4.8","","-6.2","","45","","","","1","","24","","24.1","","98.40","","","","","","Cloudy"
"-119.60","49.46","PENTICTON A","1126146","2018-03-31 02:00","2018","03","31","02:00","3.9","","-6.8","","46","","","","36","","22","","24.1","","98.47","","","","","","NA"
"-119.60","49.46","PENTICTON A","1126146","2018-03-31 03:00","2018","03","31","03:00","3.0","","-10.5","","37","","","","34","","20","","24.1","","98.51","","","","","","NA"
"-119.60","49.46","PENTICTON A","1126146","2018-03-31 04:00","2018","03","31","04:00","2.0","","-11.5","","36","","","","34","","18","","24.1","","98.58","","","","","","Mainly Clear"
"-119.60","49.46","PENTICTON A","1126146","2018-03-31 05:00","2018","03","31","05:00","1.4","","-11.7","","38","","","","34","","17","","24.1","","98.63","","","","","","NA"
"-119.60","49.46","PENTICTON A","1126146","2018-03-31 06:00","2018","03","31","06:00","0.2","","-11.4","","42","","","","5","","9","","24.1","","98.67","","","","","","NA"
"-119.60","49.46","PENTICTON A","1126146","2018-03-31 07:00","2018","03","31","07:00","2.3","","-10.0","","40","","","","2","","16","","24.1","","98.70","","","","","","Mostly Cloudy"
"-119.60","49.46","PENTICTON A","1126146","2018-03-31 08:00","2018","03","31","08:00","2.9","","-9.2","","41","","","","36","","19","","24.1","","98.66","","","","","","NA"
"-119.60","49.46","PENTICTON A","1126146","2018-03-31 09:00","2018","03","31","09:00","3.9","","-10.7","","34","","","","1","","21","","24.1","","98.64","","","","","","NA"
"-119.60","49.46","PENTICTON A","1126146","2018-03-31 10:00","2018","03","31","10:00","5.4","","-10.1","","32","","","","4","","14","","24.1","","98.60","","","","","","Mainly Clear"
"-119.60","49.46","PENTICTON A","1126146","2018-03-31 11:00","2018","03","31","11:00","6.4","","-11.3","","27","","","","2","","20","","24.1","","98.55","","","","","","NA"
"-119.60","49.46","PENTICTON A","1126146","2018-03-31 12:00","2018","03","31","12:00","7.2","","-11.7","","25","","","","3","","20","","24.1","","98.46","","","","","","NA"
"-119.60","49.46","PENTICTON A","1126146","2018-03-31 13:00","2018","03","31","13:00","7.7","","-9.8","","28","","","","1","","19","","24.1","","98.40","","","","","","Mostly Cloudy"
"-119.60","49.46","PENTICTON A","1126146","2018-03-31 14:00","2018","03","31","14:00","7.3","","-9.3","","30","","","","36","","18","","24.1","","98.30","","","","","","NA"
"-119.60","49.46","PENTICTON A","1126146","2018-03-31 15:00","2018","03","31","15:00","6.8","","-7.8","","35","","","","33","","14","","24.1","","98.18","","","","","","NA"
"-119.60","49.46","PENTICTON A","1126146","2018-03-31 16:00","2018","03","31","16:00","6.4","","-8.5","","34","","","","35","","21","","24.1","","98.07","","","","","","Cloudy"
"-119.60","49.46","PENTICTON A","1126146","2018-03-31 17:00","2018","03","31","17:00","6.7","","-7.3","","36","","","","32","","17","","24.1","","98.00","","","","","","NA"
"-119.60","49.46","PENTICTON A","1126146","2018-03-31 18:00","2018","03","31","18:00","5.8","","-9.1","","33","","","","3","","13","","24.1","","97.91","","","","","","NA"
"-119.60","49.46","PENTICTON A","1126146","2018-03-31 19:00","2018","03","31","19:00","2.6","","-6.8","","50","","","","31","","6","","24.1","","97.87","","","","","","Mostly Cloudy"
"-119.60","49.46","PENTICTON A","1126146","2018-03-31 20:00","2018","03","31","20:00","0.1","","-5.5","","66","","","","33","","4","","24.1","","97.84","","","","","","NA"
"-119.60","49.46","PENTICTON A","1126146","2018-03-31 21:00","2018","03","31","21:00","1.6","","-6.6","","55","","","","33","","3","","24.1","","97.82","","","","","","NA"
"-119.60","49.46","PENTICTON A","1126146","2018-03-31 22:00","2018","03","31","22:00","0.8","","-5.8","","62","","","","36","","10","","24.1","","97.78","","","","","","Mostly Cloudy"
"-119.60","49.46","PENTICTON A","1126146","2018-03-31 23:00","2018","03","31","23:00","-0.3","","-6.3","","64","","","","34","","9","","24.1","","97.73","","","","-3","","NA"
