"Longitude (x)","Latitude (y)","Station Name","Climate ID","Date/Time (LST)","Year","Month","Day","Time (LST)","Temp (°C)","Temp Flag","Dew Point Temp (°C)","Dew Point Temp Flag","Rel Hum (%)","Rel Hum Flag","Precip. Amount (mm)","Precip. Amount Flag","Wind Dir (10s deg)","Wind Dir Flag","Wind Spd (km/h)","Wind Spd Flag","Visibility (km)","Visibility Flag","Stn Press (kPa)","Stn Press Flag","Hmdx","Hmdx Flag","Wind Chill","Wind Chill Flag","Weather"
"-79.91","44.27","BORDEN AWOS","611B002","2018-01-01 00:00","2018","01","01","00:00","-29.4","","-35.0","","58","","","","21","","4","","14.5","","100.27","","","","-34","","NA"
"-79.91","44.27","BORDEN AWOS","611B002","2018-01-01 01:00","2018","01","01","01:00","-30.0","","-34.3","","66","","","","22","","4","","14.5","","100.22","","","","-35","","NA"
"-79.91","44.27","BORDEN AWOS","611B002","2018-01-01 02:00","2018","01","01","02:00","-32.1","","-37.0","","62","","","","18","","4","","14.5","","100.20","","","","-37","","NA"
"-79.91","44.27","BORDEN AWOS","611B002","2018-01-01 03:00","2018","01","01","03:00","-32.4","","-36.4","","68","","","","13","","4","","14.5","","100.16","","","","-37","","NA"
"-79.91","44.27","BORDEN AWOS","611B002","2018-01-01 04:00","2018","01","01","04:00","-32.6","","-36.8","","66","","","","","","0","","14.5","","100.13","","","","","","NA"
"-79.91","44.27","BORDEN AWOS","611B002","2018-01-01 05:00","2018","01","01","05:00","-26.0","","","M","","M","","","19","","4","","14.5","","100.05","","","","-30","","NA"
"-79.91","44.27","BORDEN AWOS","611B002","2018-01-01 06:00","2018","01","01","06:00","-23.4","","-26.7","","74","","","","13","","4","","14.5","","99.96","","","","-27","","NA"
"-79.91","44.27","BORDEN AWOS","611B002","2018-01-01 07:00","2018","01","01","07:00","-25.1","","-28.2","","75","","","","21","","4","","14.5","","99.90","","","","-29","","NA"
"-79.91","44.27","BORDEN AWOS","611B002","2018-01-01 08:00","2018","01","01","08:00","-24.3","","-27.1","","78","","","","","","0","","14.5","","99.84","","","","","","Snow"
"-79.91","44.27","BORDEN AWOS","611B002","2018-01-01 09:00","2018","01","01","09:00","-15.8","","","M","","M","","","22","","13","","14.5","","99.81","","","","-23","","NA"
"-79.91","44.27","BORDEN AWOS","611B002","2018-01-01 10:00","2018","01","01","10:00","-12.1","","-16.1","","72","","","","23","","17","","14.5","","99.77","","","","-20","","NA"
"-79.91","44.27","BORDEN AWOS","611B002","2018-01-01 11:00","2018","01","01","11:00","-11.0","","-14.9","","73","","","","25","","22","","14.5","","99.77","","","","-20","","NA"
"-79.91","44.27","BORDEN AWOS","611B002","2018-01-01 12:00","2018","01","01","12:00","-9.7","","-14.2","","70","","","","30","","22","","14.5","","99.72","","","","-18","","NA"
"-79.91","44.27","BORDEN AWOS","611B002","2018-01-01 13:00","2018","01","01","13:00","-9.9","","-16.7","","58","","","","30","","15","","14.5","","99.72","","","","-17","","NA"
"-79.91","44.27","BORDEN AWOS","611B002","2018-01-01 14:00","2018","01","01","14:00","-11.7","","-17.5","","62","","","","29","","22","","8.0","","99.78","","","","-20","","NA"
"-79.91","44.27","BORDEN AWOS","611B002","2018-01-01 15:00","2018","01","01","15:00","-12.5","","-19.2","","57","","","","30","","31","","11.3","","99.82","","","","-23","","NA"
"-79.91","44.27","BORDEN AWOS","611B002","2018-01-01 16:00","2018","01","01","16:00","-13.2","","-20.3","","55","","","","30","","28","","14.5","","99.87","","","","-23","","NA"
"-79.91","44.27","BORDEN AWOS","611B002","2018-01-01 17:00","2018","01","01","17:00","-13.8","","-21.3","","53","","","","29","","22","","14.5","","99.90","","","","-23","","NA"
"-79.91","44.27","BORDEN AWOS","611B002","2018-01-01 18:00","2018","01","01","18:00","-14.0","","-21.2","","55","","","","30","","24","","14.5","","99.97","","","","-24","","NA"
"-79.91","44.27","BORDEN AWOS","611B002","2018-01-01 19:00","2018","01","01","19:00","-14.1","","-18.5","","69","","","","29","","19","","2.1","","100.01","","","","-23","","Snow"
"-79.91","44.27","BORDEN AWOS","611B002","2018-01-01 20:00","2018","01","01","20:00","-13.3","","-17.4","","71","","","","30","","20","","4.0","","100.01","","","","-22","","Snow"
"-79.91","44.27","BORDEN AWOS","611B002","2018-01-01 21:00","2018","01","01","21:00"
"-79.91","44.27","BORDEN AWOS","611B002","2018-01-01 22:00","2018","01","01","22:00"
"-79.91","44.27","BORDEN AWOS","611B002","2018-01-01 23:00","2018","01","01","23:00","-16.6","","-19.8","","76","","","","17","","9","","3.5","","100.06","","","","-23","","Snow"
"-79.91","44.27","BORDEN AWOS","611B002","2018-01-02 00:00","2018","01","02","00:00","-16.2","","-19.2","","78","","","","14","","6","","4.8","","100.02","","","","-21","","Snow"
"-79.91","44.27","BORDEN AWOS","611B002","2018-01-02 01:00","2018","01","02","01:00","-16.0","","-19.0","","78","","","","16","","9","","5.6","","99.95","","","","-22","","Snow"
"-79.91","44.27","BORDEN AWOS","611B002","2018-01-02 02:00","2018","01","02","02:00","-15.7","","-18.6","","78","","","","15","","7","","14.5","","99.92","","","","-21","","Snow"
"-79.91","44.27","BORDEN AWOS","611B002","2018-01-02 03:00","2018","01","02","03:00","-19.1","","-22.1","","77","","","","11","","4","","14.5","","99.87","","","","-22","","NA"
"-79.91","44.27","BORDEN AWOS","611B002","2018-01-02 04:00","2018","01","02","04:00","-19.3","","-22.0","","79","","","","","","0","","14.5","","99.80","","","","","","NA"
"-79.91","44.27","BORDEN AWOS","611B002","2018-01-02 05:00","2018","01","02","05:00","-9.7","","","M","","M","","","23","","15","","14.5","","99.73","","","","-16","","Snow"
"-79.91","44.27","BORDEN AWOS","611B002","2018-01-02 06:00","2018","01","02","06:00","-7.9","","-10.4","","82","","","","24","","24","","12.9","","99.68","","","","-16","","Snow"
"-79.91","44.27","BORDEN AWOS","611B002","2018-01-02 07:00","2018","01","02","07:00","-8.4","","-11.1","","81","","","","25","","26","","8.0","","99.67","","","","-17","","Snow"
"-79.91","44.27","BORDEN AWOS","611B002","2018-01-02 08:00","2018","01","02","08:00","-8.8","","-12.1","","77","","","","23","","30","","11.3","","99.58","","","","-18","","Snow"
"-79.91","44.27","BORDEN AWOS","611B002","2018-01-02 09:00","2018","01","02","09:00","-8.9","","-12.3","","76","","","","24","","35","","14.5","","99.53","","","","-19","","Snow"
"-79.91","44.27","BORDEN AWOS","611B002","2018-01-02 10:00","2018","01","02","10:00","-8.8","","-12.2","","76","","","","26","","30","","12.9","","99.49","","","","-18","","Snow"
"-79.91","44.27","BORDEN AWOS","611B002","2018-01-02 11:00","2018","01","02","11:00","-7.9","","-11.6","","75","","","","25","","24","","8.0","","99.44","","","","-16","","Snow"
"-79.91","44.27","BORDEN AWOS","611B002","2018-01-02 12:00","2018","01","02","12:00","-7.3","","-11.0","","75","","","","25","","39","","5.6","","99.34","","","","-17","","Snow"
"-79.91","44.27","BORDEN AWOS","611B002","2018-01-02 13:00","2018","01","02","13:00","-7.1","","-10.7","","76","","","","26","","37","","3.4","","99.21","","","","-17","","Snow"
"-79.91","44.27","BORDEN AWOS","611B002","2018-01-02 14:00","2018","01","02","14:00","-6.9","","-10.7","","74","","","","27","","43","","2.3","","99.17","","","","-17","","Snow"
"-79.91","44.27","BORDEN AWOS","611B002","2018-01-02 15:00","2018","01","02","15:00","-6.5","","-11.5","","68","","","","25","","28","","9.7","","99.17","","","","-15","","NA"
"-79.91","44.27","BORDEN AWOS","611B002","2018-01-02 16:00","2018","01","02","16:00","-6.9","","-11.7","","69","","","","27","","28","","11.3","","99.18","","","","-15","","Snow"
"-79.91","44.27","BORDEN AWOS","611B002","2018-01-02 17:00","2018","01","02","17:00","-7.2","","-12.0","","69","","","","26","","28","","14.5","","99.22","","","","-16","","Snow"
"-79.91","44.27","BORDEN AWOS","611B002","2018-01-02 18:00","2018","01","02","18:00","-8.1","","-12.0","","74","","","","25","","24","","14.5","","99.25","","","","-16","","Snow"
"-79.91","44.27","BORDEN AWOS","611B002","2018-01-02 19:00","2018","01","02","19:00","-9.7","","-13.3","","75","","","","23","","19","","14.5","","99.26","","","","-17","","NA"
"-79.91","44.27","BORDEN AWOS","611B002","2018-01-02 20:00","2018","01","02","20:00","-11.7","","-14.8","","78","","","","21","","22","","14.5","","99.21","","","","-20","","NA"
"-79.91","44.27","BORDEN AWOS","611B002","2018-01-02 21:00","2018","01","02","21:00","-11.4","","-14.7","","77","","","","23","","17","","14.5","","99.15","","","","-19","","NA"
"-79.91","44.27","BORDEN AWOS","611B002","2018-01-02 22:00","2018","01","02","22:00","-12.1","","-14.8","","80","","","","21","","11","","14.5","","99.10","","","","-18","","NA"
"-79.91","44.27","BORDEN AWOS","611B002","2018-01-02 23:00","2018","01","02","23:00","-10.7","","-13.9","","77","","","","18","","4","","14.5","","99.11","","","","-13","","NA"
"-79.91","44.27","BORDEN AWOS","611B002","2018-01-03 00:00","2018","01","03","00:00","-11.7","","-15.1","","76","","","","22","","15","","14.5","","99.13","","","","-19","","NA"
"-79.91","44.27","BORDEN AWOS","611B002","2018-01-03 01:00","2018","01","03","01:00","-12.5","","-15.7","","77","","","","17","","6","","14.5","","99.08","","","","-16","","NA"
"-79.91","44.27","BORDEN AWOS","611B002","2018-01-03 02:00","2018","01","03","02:00","-13.2","","-16.7","","75","","","","22","","19","","14.5","","99.03","","","","-22","","NA"
"-79.91","44.27","BORDEN AWOS","611B002","2018-01-03 03:00","2018","01","03","03:00","-13.5","","-17.4","","72","","","","20","","17","","14.5","","99.01","","","","-22","","NA"
"-79.91","44.27","BORDEN AWOS","611B002","2018-01-03 04:00","2018","01","03","04:00","-13.5","","-18.1","","68","","","","23","","15","","14.5","","99.01","","","","-21","","NA"
"-79.91","44.27","BORDEN AWOS","611B002","2018-01-03 05:00","2018","01","03","05:00","-13.4","","-17.7","","70","","","","22","","33","","14.5","","98.92","","","","-24","","NA"
"-79.91","44.27","BORDEN AWOS","611B002","2018-01-03 06:00","2018","01","03","06:00","-13.4","","-17.8","","69","","","","23","","28","","14.5","","98.95","","","","-24","","NA"
"-79.91","44.27","BORDEN AWOS","611B002","2018-01-03 07:00","2018","01","03","07:00","-13.7","","-18.5","","67","","","","21","","28","","14.5","","98.94","","","","-24","","NA"
"-79.91","44.27","BORDEN AWOS","611B002","2018-01-03 08:00","2018","01","03","08:00","-13.3","","-17.8","","69","","","","21","","24","","14.5","","98.92","","","","-23","","NA"
"-79.91","44.27","BORDEN AWOS","611B002","2018-01-03 09:00","2018","01","03","09:00","-12.7","","-16.6","","73","","","","21","","26","","14.5","","98.88","","","","-22","","NA"
"-79.91","44.27","BORDEN AWOS","611B002","2018-01-03 10:00","2018","01","03","10:00","-11.5","","-16.1","","69","","","","20","","26","","14.5","","98.85","","","","-21","","NA"
"-79.91","44.27","BORDEN AWOS","611B002","2018-01-03 11:00","2018","01","03","11:00","-10.3","","-15.0","","68","","","","20","","28","","14.5","","98.78","","","","-20","","NA"
"-79.91","44.27","BORDEN AWOS","611B002","2018-01-03 12:00","2018","01","03","12:00","-9.6","","-14.6","","67","","","","21","","37","","14.5","","98.69","","","","-20","","NA"
"-79.91","44.27","BORDEN AWOS","611B002","2018-01-03 13:00","2018","01","03","13:00","-9.3","","-14.6","","65","","","","21","","22","","14.5","","98.62","","","","-17","","NA"
"-79.91","44.27","BORDEN AWOS","611B002","2018-01-03 14:00","2018","01","03","14:00","-8.6","","-13.7","","67","","","","21","","22","","14.5","","98.54","","","","-16","","NA"
"-79.91","44.27","BORDEN AWOS","611B002","2018-01-03 15:00","2018","01","03","15:00","-8.4","","-13.0","","69","","","","22","","26","","14.5","","98.53","","","","-17","","Snow"
"-79.91","44.27","BORDEN AWOS","611B002","2018-01-03 16:00","2018","01","03","16:00","-8.5","","-13.1","","69","","","","22","","22","","14.5","","98.55","","","","-16","","NA"
"-79.91","44.27","BORDEN AWOS","611B002","2018-01-03 17:00","2018","01","03","17:00","-9.1","","-13.3","","72","","","","22","","15","","14.5","","98.58","","","","-16","","NA"
"-79.91","44.27","BORDEN AWOS","611B002","2018-01-03 18:00","2018","01","03","18:00","-9.5","","-13.3","","74","","","","21","","15","","14.5","","98.62","","","","-16","","NA"
"-79.91","44.27","BORDEN AWOS","611B002","2018-01-03 19:00","2018","01","03","19:00","-9.6","","-13.3","","74","","","","19","","19","","14.5","","98.64","","","","-17","","NA"
"-79.91","44.27","BORDEN AWOS","611B002","2018-01-03 20:00","2018","01","03","20:00"
"-79.91","44.27","BORDEN AWOS","611B002","2018-01-03 21:00","2018","01","03","21:00","-9.7","","-13.3","","75","","","","19","","17","","14.5","","98.63","","","","-17","","NA"
"-79.91","44.27","BORDEN AWOS","611B002","2018-01-03 22:00","2018","01","03","22:00","-9.3","","-13.0","","74","","","","23","","13","","14.5","","98.60","","","","-15","","NA"
"-79.91","44.27","BORDEN AWOS","611B002","2018-01-03 23:00","2018","01","03","23:00","-9.1","","-12.8","","75","","","","23","","6","","14.5","","98.56","","","","-12","","NA"
"-79.91","44.27","BORDEN AWOS","611B002","2018-01-04 00:00","2018","01","04","00:00","-9.0","","-12.4","","76","","","","24","","13","","14.5","","98.53","","","","-15","","NA"
"-79.91","44.27","BORDEN AWOS","611B002","2018-01-04 01:00","2018","01","04","01:00","-9.6","","-12.5","","79","","","","22","","11","","14.5","","98.54","","","","-15","","NA"
"-79.91","44.27","BORDEN AWOS","611B002","2018-01-04 02:00","2018","01","04","02:00","-8.9","","-12.0","","78","","","","25","","11","","14.5","","98.54","","","","-14","","NA"
"-79.91","44.27","BORDEN AWOS","611B002","2018-01-04 03:00","2018","01","04","03:00","-8.7","","-12.0","","77","","","","29","","13","","14.5","","98.58","","","","-15","","NA"
"-79.91","44.27","BORDEN AWOS","611B002","2018-01-04 04:00","2018","01","04","04:00","-9.7","","-12.7","","79","","","","30","","13","","14.5","","98.55","","","","-16","","NA"
"-79.91","44.27","BORDEN AWOS","611B002","2018-01-04 05:00","2018","01","04","05:00","-11.2","","-14.1","","79","","","","30","","13","","14.5","","98.58","","","","-18","","NA"
"-79.91","44.27","BORDEN AWOS","611B002","2018-01-04 06:00","2018","01","04","06:00","-12.4","","-14.2","","86","","","","28","","11","","2.1","","98.64","","","","-18","","Snow"
"-79.91","44.27","BORDEN AWOS","611B002","2018-01-04 07:00","2018","01","04","07:00","-12.0","","-13.4","","89","","","","1","","11","","0.5","","98.67","","","","-18","","Snow"
"-79.91","44.27","BORDEN AWOS","611B002","2018-01-04 08:00","2018","01","04","08:00","-12.4","","-13.8","","89","","","","34","","7","","0.6","","98.72","","","","-17","","Snow"
"-79.91","44.27","BORDEN AWOS","611B002","2018-01-04 09:00","2018","01","04","09:00","-14.0","","-15.6","","88","","","","33","","13","","1.8","","98.68","","","","-21","","Snow"
"-79.91","44.27","BORDEN AWOS","611B002","2018-01-04 10:00","2018","01","04","10:00","-13.6","","-16.1","","81","","","","32","","20","","4.0","","98.62","","","","-22","","NA"
"-79.91","44.27","BORDEN AWOS","611B002","2018-01-04 11:00","2018","01","04","11:00","-13.8","","-16.9","","77","","","","32","","20","","4.0","","98.62","","","","-23","","NA"
"-79.91","44.27","BORDEN AWOS","611B002","2018-01-04 12:00","2018","01","04","12:00","-13.6","","-16.2","","81","","","","33","","19","","1.6","","98.61","","","","-22","","Snow"
"-79.91","44.27","BORDEN AWOS","611B002","2018-01-04 13:00","2018","01","04","13:00","-13.9","","-15.9","","85","","","","35","","28","","1.0","","98.61","","","","-24","","Snow"
"-79.91","44.27","BORDEN AWOS","611B002","2018-01-04 14:00","2018","01","04","14:00"
"-79.91","44.27","BORDEN AWOS","611B002","2018-01-04 15:00","2018","01","04","15:00","-14.9","","-16.9","","85","","","","32","","26","","1.1","","98.56","","","","-25","","Snow"
"-79.91","44.27","BORDEN AWOS","611B002","2018-01-04 16:00","2018","01","04","16:00","-15.2","","-17.0","","86","","","","33","","20","","1.0","","98.59","","","","-24","","Snow"
"-79.91","44.27","BORDEN AWOS","611B002","2018-01-04 17:00","2018","01","04","17:00","-15.7","","-17.4","","87","","","","34","","17","","1.4","","98.60","","","","-24","","Snow"
"-79.91","44.27","BORDEN AWOS","611B002","2018-01-04 18:00","2018","01","04","18:00","-16.0","","-17.8","","86","","","","34","","17","","3.7","","98.61","","","","-25","","NA"
"-79.91","44.27","BORDEN AWOS","611B002","2018-01-04 19:00","2018","01","04","19:00","-17.8","","-19.4","","87","","","","1","","17","","1.4","","98.67","","","","-27","","Snow"
"-79.91","44.27","BORDEN AWOS","611B002","2018-01-04 20:00","2018","01","04","20:00","-19.1","","-20.6","","88","","","","36","","17","","1.6","","98.70","","","","-29","","Snow"
"-79.91","44.27","BORDEN AWOS","611B002","2018-01-04 21:00","2018","01","04","21:00","-19.9","","-21.4","","88","","","","1","","19","","2.4","","98.71","","","","-30","","NA"
"-79.91","44.27","BORDEN AWOS","611B002","2018-01-04 22:00","2018","01","04","22:00","-20.4","","-25.8","","62","","","","1","","20","","1.4","","98.71","","","","-31","","Snow"
"-79.91","44.27","BORDEN AWOS","611B002","2018-01-04 23:00","2018","01","04","23:00","-21.5","","-26.4","","65","","","","1","","19","","2.3","","98.72","","","","-32","","NA"
"-79.91","44.27","BORDEN AWOS","611B002","2018-01-05 00:00","2018","01","05","00:00","-22.3","","-27.1","","65","","","","36","","15","","5.6","","98.74","","","","-32","","NA"
"-79.91","44.27","BORDEN AWOS","611B002","2018-01-05 01:00","2018","01","05","01:00","-22.4","","-26.9","","67","","","","36","","15","","3.1","","98.73","","","","-32","","NA"
"-79.91","44.27","BORDEN AWOS","611B002","2018-01-05 02:00","2018","01","05","02:00","-22.5","","-26.7","","69","","","","1","","20","","1.3","","98.76","","","","-34","","Snow"
"-79.91","44.27","BORDEN AWOS","611B002","2018-01-05 03:00","2018","01","05","03:00","-22.9","","-27.1","","69","","","","1","","15","","2.7","","98.79","","","","-33","","NA"
"-79.91","44.27","BORDEN AWOS","611B002","2018-01-05 04:00","2018","01","05","04:00","-23.2","","-27.3","","69","","","","1","","11","","3.2","","98.80","","","","-31","","NA"
"-79.91","44.27","BORDEN AWOS","611B002","2018-01-05 05:00","2018","01","05","05:00","-22.8","","-26.9","","69","","","","1","","11","","1.9","","98.82","","","","-31","","Snow"
"-79.91","44.27","BORDEN AWOS","611B002","2018-01-05 06:00","2018","01","05","06:00","-22.9","","-26.9","","70","","","","2","","13","","1.9","","98.86","","","","-32","","NA"
"-79.91","44.27","BORDEN AWOS","611B002","2018-01-05 07:00","2018","01","05","07:00","-22.9","","-26.9","","70","","","","1","","13","","1.3","","98.92","","","","-32","","Snow"
"-79.91","44.27","BORDEN AWOS","611B002","2018-01-05 08:00","2018","01","05","08:00","-22.1","","-26.0","","71","","","","1","","15","","1.0","","98.96","","","","-32","","Snow"
"-79.91","44.27","BORDEN AWOS","611B002","2018-01-05 09:00","2018","01","05","09:00","-22.2","","-26.2","","70","","","","2","","17","","1.0","","99.00","","","","-32","","Snow"
"-79.91","44.27","BORDEN AWOS","611B002","2018-01-05 10:00","2018","01","05","10:00","-22.2","","-26.3","","69","","","","1","","22","","1.0","","99.08","","","","-34","","Snow"
"-79.91","44.27","BORDEN AWOS","611B002","2018-01-05 11:00","2018","01","05","11:00","-21.7","","-26.0","","68","","","","1","","17","","1.3","","99.12","","","","-32","","Snow"
"-79.91","44.27","BORDEN AWOS","611B002","2018-01-05 12:00","2018","01","05","12:00","-20.7","","-24.6","","71","","","","1","","13","","0.8","","99.09","","","","-29","","Snow"
"-79.91","44.27","BORDEN AWOS","611B002","2018-01-05 13:00","2018","01","05","13:00","-17.7","","-21.3","","73","","","","34","","20","","0.8","","99.06","","","","-28","","Snow"
"-79.91","44.27","BORDEN AWOS","611B002","2018-01-05 14:00","2018","01","05","14:00","-17.2","","-20.9","","73","","","","32","","24","","1.1","","99.07","","","","-28","","Snow"
"-79.91","44.27","BORDEN AWOS","611B002","2018-01-05 15:00","2018","01","05","15:00","-16.9","","-20.1","","76","","","","32","","9","","0.6","","99.11","","","","-23","","Snow"
"-79.91","44.27","BORDEN AWOS","611B002","2018-01-05 16:00","2018","01","05","16:00","-16.7","","-20.1","","75","","","","32","","19","","0.8","","99.16","","","","-26","","Snow"
"-79.91","44.27","BORDEN AWOS","611B002","2018-01-05 17:00","2018","01","05","17:00","-17.4","","-20.7","","75","","","","28","","13","","0.6","","99.20","","","","-25","","Snow"
"-79.91","44.27","BORDEN AWOS","611B002","2018-01-05 18:00","2018","01","05","18:00","-18.2","","-23.0","","66","","","","29","","24","","4.0","","99.20","","","","-29","","Snow"
"-79.91","44.27","BORDEN AWOS","611B002","2018-01-05 19:00","2018","01","05","19:00","-18.3","","-24.3","","59","","","","28","","24","","12.9","","99.24","","","","-29","","NA"
"-79.91","44.27","BORDEN AWOS","611B002","2018-01-05 20:00","2018","01","05","20:00","-17.7","","-22.0","","69","","","","30","","19","","1.0","","99.25","","","","-27","","Snow"
"-79.91","44.27","BORDEN AWOS","611B002","2018-01-05 21:00","2018","01","05","21:00","-18.7","","-22.1","","75","","","","3","","11","","0.5","","99.30","","","","-26","","Snow"
"-79.91","44.27","BORDEN AWOS","611B002","2018-01-05 22:00","2018","01","05","22:00","-20.3","","-24.1","","72","","","","1","","15","","0.3","","99.37","","","","-29","","Snow"
"-79.91","44.27","BORDEN AWOS","611B002","2018-01-05 23:00","2018","01","05","23:00","-21.6","","-25.6","","70","","","","1","","9","","0.8","","99.46","","","","-29","","Snow"
"-79.91","44.27","BORDEN AWOS","611B002","2018-01-06 00:00","2018","01","06","00:00","-22.7","","-26.8","","69","","","","36","","9","","1.4","","99.49","","","","-30","","NA"
"-79.91","44.27","BORDEN AWOS","611B002","2018-01-06 01:00","2018","01","06","01:00","-23.1","","-27.1","","70","","","","2","","7","","1.1","","99.52","","","","-29","","Snow"
"-79.91","44.27","BORDEN AWOS","611B002","2018-01-06 02:00","2018","01","06","02:00","-23.5","","-27.7","","68","","","","36","","9","","1.3","","99.57","","","","-31","","Snow"
"-79.91","44.27","BORDEN AWOS","611B002","2018-01-06 03:00","2018","01","06","03:00","-23.9","","-28.3","","67","","","","3","","9","","1.1","","99.69","","","","-31","","Snow"
"-79.91","44.27","BORDEN AWOS","611B002","2018-01-06 04:00","2018","01","06","04:00","-23.9","","-28.3","","67","","","","35","","9","","1.0","","99.76","","","","-31","","Snow"
"-79.91","44.27","BORDEN AWOS","611B002","2018-01-06 05:00","2018","01","06","05:00","-24.1","","-28.5","","67","","","","36","","15","","1.1","","99.83","","","","-34","","Snow"
"-79.91","44.27","BORDEN AWOS","611B002","2018-01-06 06:00","2018","01","06","06:00","-24.0","","-28.4","","67","","","","2","","13","","1.1","","99.89","","","","-33","","Snow"
"-79.91","44.27","BORDEN AWOS","611B002","2018-01-06 07:00","2018","01","06","07:00","-23.8","","-28.1","","68","","","","3","","9","","1.0","","99.96","","","","-31","","Snow"
"-79.91","44.27","BORDEN AWOS","611B002","2018-01-06 08:00","2018","01","06","08:00","-24.3","","-28.7","","67","","","","36","","7","","1.0","","100.05","","","","-31","","Snow"
"-79.91","44.27","BORDEN AWOS","611B002","2018-01-06 09:00","2018","01","06","09:00","-24.5","","-28.9","","67","","","","34","","4","","1.4","","100.14","","","","-28","","NA"
"-79.91","44.27","BORDEN AWOS","611B002","2018-01-06 10:00","2018","01","06","10:00","-24.3","","-28.8","","66","","","","35","","9","","1.6","","100.20","","","","-32","","NA"
"-79.91","44.27","BORDEN AWOS","611B002","2018-01-06 11:00","2018","01","06","11:00","-23.5","","-28.1","","66","","","","34","","11","","1.9","","100.27","","","","-32","","NA"
"-79.91","44.27","BORDEN AWOS","611B002","2018-01-06 12:00","2018","01","06","12:00","-22.1","","-26.8","","66","","","","36","","4","","1.6","","100.28","","","","-26","","Snow"
"-79.91","44.27","BORDEN AWOS","611B002","2018-01-06 13:00","2018","01","06","13:00","-21.2","","-25.6","","68","","","","14","","4","","1.8","","100.27","","","","-25","","Snow"
"-79.91","44.27","BORDEN AWOS","611B002","2018-01-06 14:00","2018","01","06","14:00","-20.3","","-24.3","","70","","","","10","","4","","1.1","","100.29","","","","-24","","Snow"
"-79.91","44.27","BORDEN AWOS","611B002","2018-01-06 15:00","2018","01","06","15:00","-19.5","","-23.4","","71","","","","8","","6","","8.0","","100.33","","","","-24","","Snow"
"-79.91","44.27","BORDEN AWOS","611B002","2018-01-06 16:00","2018","01","06","16:00","-18.8","","-22.3","","74","","","","8","","7","","1.9","","100.40","","","","-24","","Snow"
"-79.91","44.27","BORDEN AWOS","611B002","2018-01-06 17:00","2018","01","06","17:00","-18.9","","-22.1","","76","","","","8","","6","","1.0","","100.45","","","","-24","","Snow"
"-79.91","44.27","BORDEN AWOS","611B002","2018-01-06 18:00","2018","01","06","18:00","-19.3","","-22.7","","74","","","","9","","4","","1.8","","100.51","","","","-23","","Snow"
"-79.91","44.27","BORDEN AWOS","611B002","2018-01-06 19:00","2018","01","06","19:00","-21.8","","-24.9","","76","","","","11","","4","","9.7","","100.52","","","","-25","","NA"
"-79.91","44.27","BORDEN AWOS","611B002","2018-01-06 20:00","2018","01","06","20:00","-24.5","","-29.0","","66","","","","16","","4","","14.5","","100.55","","","","-28","","NA"
"-79.91","44.27","BORDEN AWOS","611B002","2018-01-06 21:00","2018","01","06","21:00","-25.4","","-29.2","","71","","","","","","0","","14.5","","100.55","","","","","","NA"
"-79.91","44.27","BORDEN AWOS","611B002","2018-01-06 22:00","2018","01","06","22:00","-23.8","","-28.7","","64","","","","16","","7","","14.5","","100.54","","","","-30","","NA"
"-79.91","44.27","BORDEN AWOS","611B002","2018-01-06 23:00","2018","01","06","23:00","-25.0","","-30.0","","63","","","","22","","7","","14.5","","100.54","","","","-31","","NA"
"-79.91","44.27","BORDEN AWOS","611B002","2018-01-07 00:00","2018","01","07","00:00","-24.8","","-29.0","","68","","","","18","","6","","14.5","","100.48","","","","-31","","NA"
"-79.91","44.27","BORDEN AWOS","611B002","2018-01-07 01:00","2018","01","07","01:00","-22.7","","-26.4","","72","","","","18","","6","","14.5","","100.43","","","","-28","","NA"
"-79.91","44.27","BORDEN AWOS","611B002","2018-01-07 02:00","2018","01","07","02:00","-18.6","","-22.0","","75","","","","18","","9","","14.5","","100.37","","","","-25","","NA"
"-79.91","44.27","BORDEN AWOS","611B002","2018-01-07 03:00","2018","01","07","03:00","-17.1","","-20.5","","75","","","","21","","13","","14.5","","100.37","","","","-25","","NA"
"-79.91","44.27","BORDEN AWOS","611B002","2018-01-07 04:00","2018","01","07","04:00","-19.3","","-23.0","","73","","","","17","","4","","14.5","","100.32","","","","-23","","NA"
"-79.91","44.27","BORDEN AWOS","611B002","2018-01-07 05:00","2018","01","07","05:00","-19.4","","-23.2","","72","","","","15","","9","","14.5","","100.25","","","","-26","","NA"
"-79.91","44.27","BORDEN AWOS","611B002","2018-01-07 06:00","2018","01","07","06:00","-18.0","","-21.3","","75","","","","16","","11","","14.5","","100.24","","","","-25","","NA"
"-79.91","44.27","BORDEN AWOS","611B002","2018-01-07 07:00","2018","01","07","07:00","-16.9","","-22.1","","64","","","","20","","15","","14.5","","100.17","","","","-25","","NA"
"-79.91","44.27","BORDEN AWOS","611B002","2018-01-07 08:00","2018","01","07","08:00","-15.5","","-20.4","","66","","","","17","","19","","14.5","","100.10","","","","-25","","NA"
"-79.91","44.27","BORDEN AWOS","611B002","2018-01-07 09:00","2018","01","07","09:00","-13.5","","-17.4","","72","","","","19","","20","","14.5","","99.99","","","","-22","","NA"
"-79.91","44.27","BORDEN AWOS","611B002","2018-01-07 10:00","2018","01","07","10:00","-12.5","","-16.4","","73","","","","20","","26","","14.5","","99.94","","","","-22","","NA"
"-79.91","44.27","BORDEN AWOS","611B002","2018-01-07 11:00","2018","01","07","11:00","-11.9","","-16.3","","70","","","","21","","30","","14.5","","99.83","","","","-22","","NA"
"-79.91","44.27","BORDEN AWOS","611B002","2018-01-07 12:00","2018","01","07","12:00","-11.4","","-15.6","","71","","","","21","","26","","9.7","","99.60","","","","-21","","NA"
"-79.91","44.27","BORDEN AWOS","611B002","2018-01-07 13:00","2018","01","07","13:00","-11.0","","-15.7","","68","","","","18","","24","","14.5","","99.43","","","","-20","","NA"
"-79.91","44.27","BORDEN AWOS","611B002","2018-01-07 14:00","2018","01","07","14:00","-10.0","","-15.3","","65","","","","19","","22","","14.5","","99.26","","","","-18","","NA"
"-79.91","44.27","BORDEN AWOS","611B002","2018-01-07 15:00","2018","01","07","15:00","-8.8","","-14.3","","64","","","","19","","31","","14.5","","99.08","","","","-18","","NA"
"-79.91","44.27","BORDEN AWOS","611B002","2018-01-07 16:00","2018","01","07","16:00","-8.3","","-13.1","","68","","","","19","","24","","14.5","","99.02","","","","-16","","NA"
"-79.91","44.27","BORDEN AWOS","611B002","2018-01-07 17:00","2018","01","07","17:00","-7.9","","-11.4","","76","","","","21","","28","","8.0","","98.99","","","","-17","","Snow"
"-79.91","44.27","BORDEN AWOS","611B002","2018-01-07 18:00","2018","01","07","18:00","-7.9","","-10.2","","84","","","","19","","19","","4.0","","98.92","","","","-15","","Snow"
"-79.91","44.27","BORDEN AWOS","611B002","2018-01-07 19:00","2018","01","07","19:00","-6.9","","-9.9","","79","","","","19","","15","","14.5","","98.88","","","","-13","","NA"
"-79.91","44.27","BORDEN AWOS","611B002","2018-01-07 20:00","2018","01","07","20:00","-5.6","","-9.9","","72","","","","20","","19","","14.5","","98.83","","","","-12","","NA"
"-79.91","44.27","BORDEN AWOS","611B002","2018-01-07 21:00","2018","01","07","21:00","-4.7","","-9.4","","70","","","","21","","26","","14.5","","98.75","","","","-12","","NA"
"-79.91","44.27","BORDEN AWOS","611B002","2018-01-07 22:00","2018","01","07","22:00","-3.9","","-9.0","","68","","","","21","","22","","14.5","","98.72","","","","-10","","NA"
"-79.91","44.27","BORDEN AWOS","611B002","2018-01-07 23:00","2018","01","07","23:00","-4.0","","-7.0","","80","","","","22","","15","","14.5","","98.70","","","","-9","","Snow"
"-79.91","44.27","BORDEN AWOS","611B002","2018-01-08 00:00","2018","01","08","00:00","-3.2","","-6.3","","79","","","","23","","20","","12.9","","98.62","","","","-9","","Snow"
"-79.91","44.27","BORDEN AWOS","611B002","2018-01-08 01:00","2018","01","08","01:00","-2.5","","-5.8","","78","","","","23","","31","","14.5","","98.56","","","","-10","","NA"
"-79.91","44.27","BORDEN AWOS","611B002","2018-01-08 02:00","2018","01","08","02:00","-2.6","","-4.8","","85","","","","21","","19","","9.7","","98.52","","","","-8","","Snow"
"-79.91","44.27","BORDEN AWOS","611B002","2018-01-08 03:00","2018","01","08","03:00","-2.1","","-3.8","","88","","","","21","","11","","6.4","","98.45","","","","-6","","Snow"
"-79.91","44.27","BORDEN AWOS","611B002","2018-01-08 04:00","2018","01","08","04:00","-1.5","","-3.3","","88","","","","21","","15","","5.6","","98.39","","","","-6","","Snow"
"-79.91","44.27","BORDEN AWOS","611B002","2018-01-08 05:00","2018","01","08","05:00","-1.4","","-2.7","","91","","","","19","","17","","4.0","","98.30","","","","-7","","Snow"
"-79.91","44.27","BORDEN AWOS","611B002","2018-01-08 06:00","2018","01","08","06:00","-1.6","","-2.6","","93","","","","18","","17","","1.6","","98.24","","","","-7","","Snow"
"-79.91","44.27","BORDEN AWOS","611B002","2018-01-08 07:00","2018","01","08","07:00","-1.9","","-2.7","","94","","","","18","","15","","2.1","","98.17","","","","-7","","Snow"
"-79.91","44.27","BORDEN AWOS","611B002","2018-01-08 08:00","2018","01","08","08:00","-1.9","","-2.5","","96","","","","19","","17","","1.1","","98.08","","","","-7","","Snow"
"-79.91","44.27","BORDEN AWOS","611B002","2018-01-08 09:00","2018","01","08","09:00","-1.3","","-2.5","","92","","","","20","","15","","9.7","","98.05","","","","-6","","Snow"
"-79.91","44.27","BORDEN AWOS","611B002","2018-01-08 10:00","2018","01","08","10:00","0.1","","-2.1","","85","","","","22","","19","","11.3","","98.06","","","","","","Snow"
"-79.91","44.27","BORDEN AWOS","611B002","2018-01-08 11:00","2018","01","08","11:00","0.3","","-1.3","","89","","","","24","","15","","5.6","","98.04","","","","","","Snow"
"-79.91","44.27","BORDEN AWOS","611B002","2018-01-08 12:00","2018","01","08","12:00","1.0","","-1.4","","84","","","","26","","20","","14.5","","97.98","","","","","","NA"
"-79.91","44.27","BORDEN AWOS","611B002","2018-01-08 13:00","2018","01","08","13:00","1.0","","-1.5","","83","","","","27","","24","","14.5","","98.02","","","","","","NA"
"-79.91","44.27","BORDEN AWOS","611B002","2018-01-08 14:00","2018","01","08","14:00","0.9","","-1.4","","85","","","","27","","24","","14.5","","98.08","","","","","","Snow"
"-79.91","44.27","BORDEN AWOS","611B002","2018-01-08 15:00","2018","01","08","15:00","1.0","","-1.6","","83","","","","26","","19","","14.5","","98.11","","","","","","NA"
"-79.91","44.27","BORDEN AWOS","611B002","2018-01-08 16:00","2018","01","08","16:00","0.9","","-2.1","","80","","","","26","","11","","14.5","","98.17","","","","","","NA"
"-79.91","44.27","BORDEN AWOS","611B002","2018-01-08 17:00","2018","01","08","17:00","0.9","","-2.0","","81","","","","27","","11","","14.5","","98.21","","","","","","NA"
"-79.91","44.27","BORDEN AWOS","611B002","2018-01-08 18:00","2018","01","08","18:00","0.9","","-2.7","","77","","","","27","","22","","14.5","","98.29","","","","","","NA"
"-79.91","44.27","BORDEN AWOS","611B002","2018-01-08 19:00","2018","01","08","19:00","0.5","","-2.6","","80","","","","27","","15","","14.5","","98.37","","","","","","Snow"
"-79.91","44.27","BORDEN AWOS","611B002","2018-01-08 20:00","2018","01","08","20:00","0.5","","-3.0","","77","","","","25","","15","","14.5","","98.38","","","","","","Snow"
"-79.91","44.27","BORDEN AWOS","611B002","2018-01-08 21:00","2018","01","08","21:00","0.6","","-3.1","","76","","","","27","","24","","14.5","","98.41","","","","","","Snow"
"-79.91","44.27","BORDEN AWOS","611B002","2018-01-08 22:00","2018","01","08","22:00","0.2","","-3.5","","76","","","","27","","13","","14.5","","98.44","","","","","","NA"
"-79.91","44.27","BORDEN AWOS","611B002","2018-01-08 23:00","2018","01","08","23:00","-0.1","","-3.9","","76","","","","26","","15","","14.5","","98.53","","","","-5","","Snow"
"-79.91","44.27","BORDEN AWOS","611B002","2018-01-09 00:00","2018","01","09","00:00","-0.3","","-3.8","","77","","","","26","","19","","14.5","","98.58","","","","-5","","Snow"
"-79.91","44.27","BORDEN AWOS","611B002","2018-01-09 01:00","2018","01","09","01:00","-0.7","","-3.3","","83","","","","26","","20","","14.5","","98.63","","","","-6","","Snow"
"-79.91","44.27","BORDEN AWOS","611B002","2018-01-09 02:00","2018","01","09","02:00","-0.2","","-3.2","","80","","","","30","","15","","9.7","","98.74","","","","-5","","Snow"
"-79.91","44.27","BORDEN AWOS","611B002","2018-01-09 03:00","2018","01","09","03:00","-1.0","","-4.1","","80","","","","32","","7","","14.5","","98.88","","","","-4","","Snow"
"-79.91","44.27","BORDEN AWOS","611B002","2018-01-09 04:00","2018","01","09","04:00","-1.2","","-5.8","","71","","","","31","","17","","14.5","","98.96","","","","-6","","NA"
"-79.91","44.27","BORDEN AWOS","611B002","2018-01-09 05:00","2018","01","09","05:00","-2.0","","-6.9","","69","","","","30","","11","","14.5","","99.04","","","","-6","","NA"
"-79.91","44.27","BORDEN AWOS","611B002","2018-01-09 06:00","2018","01","09","06:00","-1.9","","-6.8","","69","","","","29","","13","","14.5","","99.14","","","","-6","","NA"
"-79.91","44.27","BORDEN AWOS","611B002","2018-01-09 07:00","2018","01","09","07:00","-2.3","","-6.2","","75","","","","26","","7","","14.5","","99.21","","","","-5","","NA"
"-79.91","44.27","BORDEN AWOS","611B002","2018-01-09 08:00","2018","01","09","08:00","-1.9","","-5.9","","74","","","","27","","9","","14.5","","99.30","","","","-5","","NA"
"-79.91","44.27","BORDEN AWOS","611B002","2018-01-09 09:00","2018","01","09","09:00","-1.5","","-6.5","","69","","","","30","","15","","14.5","","99.41","","","","-6","","NA"
"-79.91","44.27","BORDEN AWOS","611B002","2018-01-09 10:00","2018","01","09","10:00"
"-79.91","44.27","BORDEN AWOS","611B002","2018-01-09 11:00","2018","01","09","11:00","-1.5","","-5.9","","72","","","","31","","13","","14.5","","99.57","","","","-6","","Snow"
"-79.91","44.27","BORDEN AWOS","611B002","2018-01-09 12:00","2018","01","09","12:00","-1.6","","-5.4","","75","","","","33","","9","","14.5","","99.62","","","","-5","","Snow"
"-79.91","44.27","BORDEN AWOS","611B002","2018-01-09 13:00","2018","01","09","13:00","-1.9","","-5.4","","77","","","","32","","13","","14.5","","99.62","","","","-6","","NA"
"-79.91","44.27","BORDEN AWOS","611B002","2018-01-09 14:00","2018","01","09","14:00","-2.1","","-5.8","","76","","","","32","","9","","14.5","","99.68","","","","-6","","NA"
"-79.91","44.27","BORDEN AWOS","611B002","2018-01-09 15:00","2018","01","09","15:00","-2.0","","-6.2","","73","","","","30","","9","","14.5","","99.75","","","","-5","","NA"
"-79.91","44.27","BORDEN AWOS","611B002","2018-01-09 16:00","2018","01","09","16:00","-2.2","","-6.5","","72","","","","29","","4","","14.5","","99.84","","","","-4","","NA"
"-79.91","44.27","BORDEN AWOS","611B002","2018-01-09 17:00","2018","01","09","17:00","-2.4","","-6.7","","72","","","","","","0","","14.5","","99.90","","","","","","NA"
"-79.91","44.27","BORDEN AWOS","611B002","2018-01-09 18:00","2018","01","09","18:00","-3.8","","-6.0","","85","","","","","","0","","14.5","","99.94","","","","","","NA"
"-79.91","44.27","BORDEN AWOS","611B002","2018-01-09 19:00","2018","01","09","19:00","-3.7","","-5.7","","86","","","","22","","7","","14.5","","100.01","","","","-7","","NA"
"-79.91","44.27","BORDEN AWOS","611B002","2018-01-09 20:00","2018","01","09","20:00","-3.3","","-6.1","","81","","","","23","","4","","14.5","","100.03","","","","-5","","NA"
"-79.91","44.27","BORDEN AWOS","611B002","2018-01-09 21:00","2018","01","09","21:00","-2.6","","-6.3","","76","","","","","","0","","14.5","","100.02","","","","","","NA"
"-79.91","44.27","BORDEN AWOS","611B002","2018-01-09 22:00","2018","01","09","22:00","-2.7","","-6.2","","77","","","","14","","4","","14.5","","100.03","","","","-4","","NA"
"-79.91","44.27","BORDEN AWOS","611B002","2018-01-09 23:00","2018","01","09","23:00","-2.6","","-6.0","","77","","","","17","","9","","14.5","","100.02","","","","-6","","NA"
"-79.91","44.27","BORDEN AWOS","611B002","2018-01-10 00:00","2018","01","10","00:00","-2.8","","-6.0","","79","","","","19","","11","","14.5","","100.03","","","","-7","","NA"
"-79.91","44.27","BORDEN AWOS","611B002","2018-01-10 01:00","2018","01","10","01:00","-2.7","","-6.6","","75","","","","19","","17","","14.5","","99.98","","","","-8","","NA"
"-79.91","44.27","BORDEN AWOS","611B002","2018-01-10 02:00","2018","01","10","02:00","-5.6","","-8.2","","82","","","","19","","7","","14.5","","100.01","","","","-9","","NA"
"-79.91","44.27","BORDEN AWOS","611B002","2018-01-10 03:00","2018","01","10","03:00","-7.9","","-10.1","","84","","","","16","","7","","14.5","","99.97","","","","-12","","NA"
"-79.91","44.27","BORDEN AWOS","611B002","2018-01-10 04:00","2018","01","10","04:00","-6.8","","-9.0","","84","","","","14","","11","","14.5","","99.89","","","","-12","","NA"
"-79.91","44.27","BORDEN AWOS","611B002","2018-01-10 05:00","2018","01","10","05:00","-9.0","","-10.3","","90","","","","21","","7","","14.5","","99.86","","","","-13","","NA"
"-79.91","44.27","BORDEN AWOS","611B002","2018-01-10 06:00","2018","01","10","06:00","-10.1","","-11.2","","92","","","","17","","11","","14.5","","99.81","","","","-16","","NA"
"-79.91","44.27","BORDEN AWOS","611B002","2018-01-10 07:00","2018","01","10","07:00","-8.2","","-9.6","","90","","","","16","","13","","14.5","","99.74","","","","-14","","NA"
"-79.91","44.27","BORDEN AWOS","611B002","2018-01-10 08:00","2018","01","10","08:00","-7.9","","-9.5","","88","","","","16","","13","","14.5","","99.66","","","","-14","","NA"
"-79.91","44.27","BORDEN AWOS","611B002","2018-01-10 09:00","2018","01","10","09:00","-5.3","","-6.8","","89","","","","16","","17","","14.5","","99.57","","","","-11","","NA"
"-79.91","44.27","BORDEN AWOS","611B002","2018-01-10 10:00","2018","01","10","10:00","-3.3","","-4.8","","89","","","","17","","19","","11.3","","99.61","","","","-9","","NA"
"-79.91","44.27","BORDEN AWOS","611B002","2018-01-10 11:00","2018","01","10","11:00","-1.5","","-4.3","","81","","","","16","","22","","14.5","","99.50","","","","-7","","NA"
"-79.91","44.27","BORDEN AWOS","611B002","2018-01-10 12:00","2018","01","10","12:00","-0.7","","-4.4","","76","","","","17","","22","","14.5","","99.35","","","","-6","","NA"
"-79.91","44.27","BORDEN AWOS","611B002","2018-01-10 13:00","2018","01","10","13:00","0.1","","-3.6","","76","","","","16","","26","","14.5","","99.18","","","","","","NA"
"-79.91","44.27","BORDEN AWOS","611B002","2018-01-10 14:00","2018","01","10","14:00","1.1","","-3.7","","70","","","","15","","28","","14.5","","99.02","","","","","","NA"
"-79.91","44.27","BORDEN AWOS","611B002","2018-01-10 15:00","2018","01","10","15:00","1.4","","-3.4","","70","","","","16","","24","","14.5","","98.91","","","","","","Snow"
"-79.91","44.27","BORDEN AWOS","611B002","2018-01-10 16:00","2018","01","10","16:00","0.5","","-1.3","","88","","","","17","","26","","8.0","","98.89","","","","","","Snow"
"-79.91","44.27","BORDEN AWOS","611B002","2018-01-10 17:00","2018","01","10","17:00","0.2","","-0.6","","94","","","","17","","24","","4.8","","98.86","","","","","","Freezing Drizzle"
"-79.91","44.27","BORDEN AWOS","611B002","2018-01-10 18:00","2018","01","10","18:00","0.3","","-0.3","","96","","","","16","","24","","4.0","","98.84","","","","","","NA"
"-79.91","44.27","BORDEN AWOS","611B002","2018-01-10 19:00","2018","01","10","19:00","0.8","","0.3","","96","","","","16","","22","","5.6","","98.81","","","","","","NA"
"-79.91","44.27","BORDEN AWOS","611B002","2018-01-10 20:00","2018","01","10","20:00","1.3","","0.9","","97","","","","12","","11","","12.9","","98.81","","","","","","NA"
"-79.91","44.27","BORDEN AWOS","611B002","2018-01-10 21:00","2018","01","10","21:00","2.0","","1.9","","99","","","","12","","7","","6.4","","98.77","","","","","","Drizzle"
"-79.91","44.27","BORDEN AWOS","611B002","2018-01-10 22:00","2018","01","10","22:00","2.6","","2.6","","100","","","","13","","11","","8.0","","98.77","","","","","","Drizzle"
"-79.91","44.27","BORDEN AWOS","611B002","2018-01-10 23:00","2018","01","10","23:00","2.5","","2.3","","99","","","","14","","17","","8.0","","98.79","","","","","","NA"
"-79.91","44.27","BORDEN AWOS","611B002","2018-01-11 00:00","2018","01","11","00:00","2.7","","2.7","","100","","","","13","","9","","4.8","","98.78","","","","","","Drizzle"
"-79.91","44.27","BORDEN AWOS","611B002","2018-01-11 01:00","2018","01","11","01:00","6.1","","6.0","","99","","","","21","","19","","14.5","","98.73","","","","","","Drizzle"
"-79.91","44.27","BORDEN AWOS","611B002","2018-01-11 02:00","2018","01","11","02:00","6.0","","5.4","","96","","","","20","","11","","14.5","","98.71","","","","","","NA"
"-79.91","44.27","BORDEN AWOS","611B002","2018-01-11 03:00","2018","01","11","03:00","6.5","","5.1","","91","","","","21","","19","","14.5","","98.75","","","","","","Drizzle"
"-79.91","44.27","BORDEN AWOS","611B002","2018-01-11 04:00","2018","01","11","04:00","6.1","","5.1","","93","","","","17","","17","","14.5","","98.75","","","","","","NA"
"-79.91","44.27","BORDEN AWOS","611B002","2018-01-11 05:00","2018","01","11","05:00","4.7","","4.1","","96","","","","14","","9","","14.5","","98.72","","","","","","NA"
"-79.91","44.27","BORDEN AWOS","611B002","2018-01-11 06:00","2018","01","11","06:00","4.8","","4.4","","97","","","","13","","9","","11.3","","98.74","","","","","","Drizzle"
"-79.91","44.27","BORDEN AWOS","611B002","2018-01-11 07:00","2018","01","11","07:00","4.7","","4.7","","100","","","","12","","7","","8.0","","98.75","","","","","","Drizzle"
"-79.91","44.27","BORDEN AWOS","611B002","2018-01-11 08:00","2018","01","11","08:00","4.9","","4.9","","100","","","","12","","13","","4.0","","98.71","","","","","","NA"
"-79.91","44.27","BORDEN AWOS","611B002","2018-01-11 09:00","2018","01","11","09:00","7.2","","6.3","","94","","","","18","","17","","14.5","","98.77","","","","","","NA"
"-79.91","44.27","BORDEN AWOS","611B002","2018-01-11 10:00","2018","01","11","10:00","8.2","","6.8","","91","","","","18","","17","","14.5","","98.77","","","","","","Drizzle"
"-79.91","44.27","BORDEN AWOS","611B002","2018-01-11 11:00","2018","01","11","11:00","7.3","","6.1","","92","","","","17","","19","","14.5","","98.72","","","","","","NA"
"-79.91","44.27","BORDEN AWOS","611B002","2018-01-11 12:00","2018","01","11","12:00","8.3","","6.6","","89","","","","18","","17","","14.5","","98.66","","","","","","NA"
"-79.91","44.27","BORDEN AWOS","611B002","2018-01-11 13:00","2018","01","11","13:00","8.8","","7.2","","90","","","","18","","22","","14.5","","98.59","","","","","","NA"
"-79.91","44.27","BORDEN AWOS","611B002","2018-01-11 14:00","2018","01","11","14:00","8.5","","6.6","","88","","","","18","","17","","14.5","","98.55","","","","","","NA"
"-79.91","44.27","BORDEN AWOS","611B002","2018-01-11 15:00","2018","01","11","15:00","8.7","","6.7","","87","","","","18","","17","","14.5","","98.51","","","","","","NA"
"-79.91","44.27","BORDEN AWOS","611B002","2018-01-11 16:00","2018","01","11","16:00","8.7","","6.6","","87","","","","17","","24","","14.5","","98.42","","","","","","NA"
"-79.91","44.27","BORDEN AWOS","611B002","2018-01-11 17:00","2018","01","11","17:00","8.9","","7.1","","89","","","","18","","22","","14.5","","98.36","","","","","","NA"
"-79.91","44.27","BORDEN AWOS","611B002","2018-01-11 18:00","2018","01","11","18:00","7.6","","7.0","","96","","","","16","","15","","14.5","","98.31","","","","","","Drizzle"
"-79.91","44.27","BORDEN AWOS","611B002","2018-01-11 19:00","2018","01","11","19:00","7.1","","7.1","","100","","","","16","","17","","2.6","","98.29","","","","","","Rain"
"-79.91","44.27","BORDEN AWOS","611B002","2018-01-11 20:00","2018","01","11","20:00","8.0","","8.0","","100","","","","18","","17","","3.2","","98.23","","","","","","Rain"
"-79.91","44.27","BORDEN AWOS","611B002","2018-01-11 21:00","2018","01","11","21:00","8.5","","8.5","","100","","","","18","","19","","14.5","","98.13","","","","","","NA"
"-79.91","44.27","BORDEN AWOS","611B002","2018-01-11 22:00","2018","01","11","22:00","8.3","","8.3","","100","","","","17","","19","","8.0","","98.04","","","","","","NA"
"-79.91","44.27","BORDEN AWOS","611B002","2018-01-11 23:00","2018","01","11","23:00","8.3","","8.3","","100","","","","16","","20","","3.4","","97.99","","","","","","Rain"
"-79.91","44.27","BORDEN AWOS","611B002","2018-01-12 00:00","2018","01","12","00:00","8.2","","8.2","","100","","","","16","","19","","0.6","","97.92","","","","","","Rain"
"-79.91","44.27","BORDEN AWOS","611B002","2018-01-12 01:00","2018","01","12","01:00","8.4","","8.4","","100","","","","17","","19","","4.8","","97.85","","","","","","Rain"
"-79.91","44.27","BORDEN AWOS","611B002","2018-01-12 02:00","2018","01","12","02:00","8.4","","8.4","","100","","","","16","","20","","1.0","","97.80","","","","","","Rain"
"-79.91","44.27","BORDEN AWOS","611B002","2018-01-12 03:00","2018","01","12","03:00","9.0","","9.0","","100","","","","18","","19","","4.0","","97.77","","","","","","NA"
"-79.91","44.27","BORDEN AWOS","611B002","2018-01-12 04:00","2018","01","12","04:00","9.2","","9.2","","100","","","","17","","17","","4.0","","97.68","","","","","","Rain"
"-79.91","44.27","BORDEN AWOS","611B002","2018-01-12 05:00","2018","01","12","05:00","8.9","","8.9","","100","","","","21","","4","","0.8","","97.70","","","","","","Rain"
"-79.91","44.27","BORDEN AWOS","611B002","2018-01-12 06:00","2018","01","12","06:00","5.8","","5.8","","100","","","","35","","28","","0.5","","97.75","","","","","","NA"
"-79.91","44.27","BORDEN AWOS","611B002","2018-01-12 07:00","2018","01","12","07:00","4.0","","4.0","","100","","","","34","","15","","4.8","","97.81","","","","","","Rain"
"-79.91","44.27","BORDEN AWOS","611B002","2018-01-12 08:00","2018","01","12","08:00","2.6","","2.6","","100","","","","35","","17","","6.4","","97.83","","","","","","Rain"
"-79.91","44.27","BORDEN AWOS","611B002","2018-01-12 09:00","2018","01","12","09:00","1.1","","0.6","","97","","","","32","","19","","8.0","","97.92","","","","","","NA"
"-79.91","44.27","BORDEN AWOS","611B002","2018-01-12 10:00","2018","01","12","10:00","-0.6","","-1.4","","94","","","","33","","28","","4.0","","98.13","","","","-7","","Freezing Rain"
"-79.91","44.27","BORDEN AWOS","611B002","2018-01-12 11:00","2018","01","12","11:00","-3.5","","-4.9","","90","","","","32","","30","","8.0","","98.21","","","","-11","","Snow"
"-79.91","44.27","BORDEN AWOS","611B002","2018-01-12 12:00","2018","01","12","12:00","-5.4","","-7.1","","88","","","","32","","24","","3.1","","98.24","","","","-13","","Snow"
"-79.91","44.27","BORDEN AWOS","611B002","2018-01-12 13:00","2018","01","12","13:00","-6.7","","-8.4","","88","","","","33","","28","","3.2","","98.22","","","","-15","","Snow"
"-79.91","44.27","BORDEN AWOS","611B002","2018-01-12 14:00","2018","01","12","14:00","-8.0","","-9.8","","87","","","","34","","24","","1.1","","98.44","","","","-16","","Snow"
"-79.91","44.27","BORDEN AWOS","611B002","2018-01-12 15:00","2018","01","12","15:00","-9.1","","-10.9","","87","","","","33","","22","","2.1","","98.52","","","","-17","","Snow"
"-79.91","44.27","BORDEN AWOS","611B002","2018-01-12 16:00","2018","01","12","16:00","-9.9","","-12.0","","85","","","","33","","22","","4.0","","98.61","","","","-18","","Snow"
"-79.91","44.27","BORDEN AWOS","611B002","2018-01-12 17:00","2018","01","12","17:00","-10.1","","-12.7","","81","","","","34","","24","","12.9","","98.85","","","","-19","","Snow"
"-79.91","44.27","BORDEN AWOS","611B002","2018-01-12 18:00","2018","01","12","18:00","-10.4","","-12.8","","83","","","","35","","30","","9.7","","98.96","","","","-20","","Snow"
"-79.91","44.27","BORDEN AWOS","611B002","2018-01-12 19:00","2018","01","12","19:00","-10.7","","-13.1","","83","","","","34","","24","","5.6","","99.09","","","","-19","","Snow"
"-79.91","44.27","BORDEN AWOS","611B002","2018-01-12 20:00","2018","01","12","20:00","-10.9","","-13.4","","82","","","","36","","22","","12.9","","99.28","","","","-19","","Snow"
"-79.91","44.27","BORDEN AWOS","611B002","2018-01-12 21:00","2018","01","12","21:00","-11.7","","-14.5","","80","","","","34","","20","","14.5","","99.16","","","","-20","","Snow"
"-79.91","44.27","BORDEN AWOS","611B002","2018-01-12 22:00","2018","01","12","22:00","-12.5","","-15.4","","79","","","","35","","22","","14.5","","99.18","","","","-21","","NA"
"-79.91","44.27","BORDEN AWOS","611B002","2018-01-12 23:00","2018","01","12","23:00","-13.1","","-15.9","","80","","","","34","","24","","14.5","","99.24","","","","-23","","NA"
"-79.91","44.27","BORDEN AWOS","611B002","2018-01-13 00:00","2018","01","13","00:00","-13.8","","-17.1","","76","","","","35","","22","","14.5","","99.28","","","","-23","","NA"
"-79.91","44.27","BORDEN AWOS","611B002","2018-01-13 01:00","2018","01","13","01:00","-14.2","","-18.2","","72","","","","35","","28","","14.5","","99.25","","","","-25","","NA"
"-79.91","44.27","BORDEN AWOS","611B002","2018-01-13 02:00","2018","01","13","02:00","-14.6","","-18.9","","70","","","","35","","28","","14.5","","99.21","","","","-25","","NA"
"-79.91","44.27","BORDEN AWOS","611B002","2018-01-13 03:00","2018","01","13","03:00","-14.6","","-18.4","","73","","","","34","","20","","14.5","","99.35","","","","-24","","NA"
"-79.91","44.27","BORDEN AWOS","611B002","2018-01-13 04:00","2018","01","13","04:00","-15.0","","-18.5","","75","","","","34","","17","","14.5","","99.39","","","","-23","","NA"
"-79.91","44.27","BORDEN AWOS","611B002","2018-01-13 05:00","2018","01","13","05:00","-15.6","","-18.9","","76","","","","34","","24","","14.5","","99.45","","","","-26","","NA"
"-79.91","44.27","BORDEN AWOS","611B002","2018-01-13 06:00","2018","01","13","06:00","-15.9","","-18.8","","78","","","","35","","17","","14.5","","99.51","","","","-25","","NA"
"-79.91","44.27","BORDEN AWOS","611B002","2018-01-13 07:00","2018","01","13","07:00","-15.8","","-18.2","","82","","","","36","","13","","14.5","","99.60","","","","-23","","NA"
"-79.91","44.27","BORDEN AWOS","611B002","2018-01-13 08:00","2018","01","13","08:00","-15.9","","-18.4","","81","","","","35","","13","","14.5","","99.71","","","","-23","","NA"
"-79.91","44.27","BORDEN AWOS","611B002","2018-01-13 09:00","2018","01","13","09:00","-16.6","","-19.0","","82","","","","35","","20","","14.5","","99.83","","","","-26","","NA"
"-79.91","44.27","BORDEN AWOS","611B002","2018-01-13 10:00","2018","01","13","10:00","-16.0","","-22.4","","58","","","","36","","13","","9.7","","99.95","","","","-24","","NA"
"-79.91","44.27","BORDEN AWOS","611B002","2018-01-13 11:00","2018","01","13","11:00","-15.1","","-19.7","","68","","","","34","","15","","4.0","","100.00","","","","-23","","NA"
"-79.91","44.27","BORDEN AWOS","611B002","2018-01-13 12:00","2018","01","13","12:00","-15.3","","-20.7","","63","","","","32","","22","","14.5","","100.02","","","","-25","","NA"
"-79.91","44.27","BORDEN AWOS","611B002","2018-01-13 13:00","2018","01","13","13:00"
"-79.91","44.27","BORDEN AWOS","611B002","2018-01-13 14:00","2018","01","13","14:00"
"-79.91","44.27","BORDEN AWOS","611B002","2018-01-13 15:00","2018","01","13","15:00","-14.1","","-18.7","","68","","","","31","","26","","4.0","","100.11","","","","-24","","Snow"
"-79.91","44.27","BORDEN AWOS","611B002","2018-01-13 16:00","2018","01","13","16:00","-13.9","","-19.3","","64","","","","30","","26","","11.3","","100.20","","","","-24","","NA"
"-79.91","44.27","BORDEN AWOS","611B002","2018-01-13 17:00","2018","01","13","17:00","-14.3","","-17.9","","74","","","","30","","7","","4.0","","100.34","","","","-19","","Snow"
"-79.91","44.27","BORDEN AWOS","611B002","2018-01-13 18:00","2018","01","13","18:00","-14.4","","-18.1","","74","","","","29","","11","","3.4","","100.42","","","","-21","","Snow"
"-79.91","44.27","BORDEN AWOS","611B002","2018-01-13 19:00","2018","01","13","19:00","-15.3","","-19.1","","73","","","","35","","6","","6.4","","100.46","","","","-20","","Snow"
"-79.91","44.27","BORDEN AWOS","611B002","2018-01-13 20:00","2018","01","13","20:00","-15.9","","-19.6","","73","","","","36","","7","","14.5","","100.53","","","","-21","","NA"
"-79.91","44.27","BORDEN AWOS","611B002","2018-01-13 21:00","2018","01","13","21:00","-18.2","","-21.9","","73","","","","4","","6","","14.5","","100.58","","","","-23","","NA"
"-79.91","44.27","BORDEN AWOS","611B002","2018-01-13 22:00","2018","01","13","22:00","-18.9","","-22.2","","75","","","","","","0","","3.7","","100.63","","","","","","Snow"
"-79.91","44.27","BORDEN AWOS","611B002","2018-01-13 23:00","2018","01","13","23:00","-20.4","","-24.2","","72","","","","","","0","","14.5","","100.70","","","","","","NA"
"-79.91","44.27","BORDEN AWOS","611B002","2018-01-14 00:00","2018","01","14","00:00"
"-79.91","44.27","BORDEN AWOS","611B002","2018-01-14 01:00","2018","01","14","01:00","-23.8","","-27.8","","70","","","","","","0","","14.5","","100.72","","","","","","NA"
"-79.91","44.27","BORDEN AWOS","611B002","2018-01-14 02:00","2018","01","14","02:00","-24.2","","-28.2","","70","","","","16","","4","","14.5","","100.76","","","","-28","","NA"
"-79.91","44.27","BORDEN AWOS","611B002","2018-01-14 03:00","2018","01","14","03:00","-24.7","","-28.7","","69","","","","24","","4","","14.5","","100.81","","","","-29","","NA"
"-79.91","44.27","BORDEN AWOS","611B002","2018-01-14 04:00","2018","01","14","04:00","-24.9","","-29.0","","69","","","","16","","4","","14.5","","100.84","","","","-29","","NA"
"-79.91","44.27","BORDEN AWOS","611B002","2018-01-14 05:00","2018","01","14","05:00","-24.8","","-28.8","","69","","","","","","0","","14.5","","100.84","","","","","","NA"
"-79.91","44.27","BORDEN AWOS","611B002","2018-01-14 06:00","2018","01","14","06:00","-23.8","","-27.0","","75","","","","13","","4","","14.5","","100.87","","","","-28","","NA"
"-79.91","44.27","BORDEN AWOS","611B002","2018-01-14 07:00","2018","01","14","07:00","-22.5","","-26.1","","73","","","","","","0","","14.5","","100.92","","","","","","NA"
"-79.91","44.27","BORDEN AWOS","611B002","2018-01-14 08:00","2018","01","14","08:00","-22.7","","-26.6","","71","","","","","","0","","14.5","","100.92","","","","","","NA"
"-79.91","44.27","BORDEN AWOS","611B002","2018-01-14 09:00","2018","01","14","09:00","-16.9","","","M","","M","","","","","0","","14.5","","100.97","","","","","","NA"
"-79.91","44.27","BORDEN AWOS","611B002","2018-01-14 10:00","2018","01","14","10:00","-13.9","","-16.5","","81","","","","14","","6","","14.5","","100.99","","","","-18","","NA"
"-79.91","44.27","BORDEN AWOS","611B002","2018-01-14 11:00","2018","01","14","11:00","-10.6","","","M","","M","","","15","","7","","14.5","","101.02","","","","-15","","NA"
"-79.91","44.27","BORDEN AWOS","611B002","2018-01-14 12:00","2018","01","14","12:00","-8.7","","-12.5","","74","","","","15","","7","","14.5","","100.97","","","","-13","","NA"
"-79.91","44.27","BORDEN AWOS","611B002","2018-01-14 13:00","2018","01","14","13:00","-7.7","","-11.4","","75","","","","13","","7","","14.5","","100.92","","","","-11","","Snow"
"-79.91","44.27","BORDEN AWOS","611B002","2018-01-14 14:00","2018","01","14","14:00","-7.0","","-12.7","","64","","","","21","","15","","14.5","","100.89","","","","-13","","NA"
"-79.91","44.27","BORDEN AWOS","611B002","2018-01-14 15:00","2018","01","14","15:00","-7.1","","-12.9","","63","","","","25","","7","","14.5","","100.88","","","","-11","","NA"
"-79.91","44.27","BORDEN AWOS","611B002","2018-01-14 16:00","2018","01","14","16:00","-7.3","","-13.6","","61","","","","23","","11","","14.5","","100.88","","","","-12","","NA"
"-79.91","44.27","BORDEN AWOS","611B002","2018-01-14 17:00","2018","01","14","17:00","-7.8","","-13.9","","62","","","","20","","9","","14.5","","100.88","","","","-12","","NA"
"-79.91","44.27","BORDEN AWOS","611B002","2018-01-14 18:00","2018","01","14","18:00","-8.2","","-13.3","","67","","","","17","","9","","14.5","","100.87","","","","-13","","NA"
"-79.91","44.27","BORDEN AWOS","611B002","2018-01-14 19:00","2018","01","14","19:00","-10.3","","-15.1","","68","","","","16","","9","","14.5","","100.89","","","","-15","","NA"
"-79.91","44.27","BORDEN AWOS","611B002","2018-01-14 20:00","2018","01","14","20:00","-10.2","","-14.9","","68","","","","17","","11","","14.5","","100.92","","","","-16","","NA"
"-79.91","44.27","BORDEN AWOS","611B002","2018-01-14 21:00","2018","01","14","21:00","-11.3","","-14.9","","75","","","","12","","9","","14.5","","100.90","","","","-16","","NA"
"-79.91","44.27","BORDEN AWOS","611B002","2018-01-14 22:00","2018","01","14","22:00","-10.9","","-14.4","","75","","","","13","","9","","14.5","","100.92","","","","-16","","NA"
"-79.91","44.27","BORDEN AWOS","611B002","2018-01-14 23:00","2018","01","14","23:00","-10.3","","-13.0","","81","","","","12","","7","","14.5","","100.91","","","","-14","","NA"
"-79.91","44.27","BORDEN AWOS","611B002","2018-01-15 00:00","2018","01","15","00:00"
"-79.91","44.27","BORDEN AWOS","611B002","2018-01-15 01:00","2018","01","15","01:00","-9.9","","-11.4","","89","","","","12","","7","","6.4","","100.84","","","","-14","","Snow"
"-79.91","44.27","BORDEN AWOS","611B002","2018-01-15 02:00","2018","01","15","02:00","-8.9","","-13.2","","71","","","","14","","24","","14.5","","100.81","","","","-17","","NA"
"-79.91","44.27","BORDEN AWOS","611B002","2018-01-15 03:00","2018","01","15","03:00","-9.2","","-13.5","","71","","","","14","","19","","14.5","","100.82","","","","-17","","NA"
"-79.91","44.27","BORDEN AWOS","611B002","2018-01-15 04:00","2018","01","15","04:00","-9.3","","-13.2","","73","","","","13","","17","","14.5","","100.78","","","","-16","","NA"
"-79.91","44.27","BORDEN AWOS","611B002","2018-01-15 05:00","2018","01","15","05:00","-9.6","","-12.3","","81","","","","12","","17","","9.7","","100.71","","","","-17","","Snow"
"-79.91","44.27","BORDEN AWOS","611B002","2018-01-15 06:00","2018","01","15","06:00","-10.0","","-11.9","","86","","","","9","","13","","2.1","","100.72","","","","-16","","Snow"
"-79.91","44.27","BORDEN AWOS","611B002","2018-01-15 07:00","2018","01","15","07:00","-10.8","","-12.5","","87","","","","10","","17","","2.3","","100.70","","","","-18","","Snow"
"-79.91","44.27","BORDEN AWOS","611B002","2018-01-15 08:00","2018","01","15","08:00","-10.8","","-13.1","","83","","","","10","","26","","8.0","","100.65","","","","-20","","Snow"
"-79.91","44.27","BORDEN AWOS","611B002","2018-01-15 09:00","2018","01","15","09:00","-11.4","","-15.2","","73","","","","9","","28","","14.5","","100.67","","","","-21","","NA"
"-79.91","44.27","BORDEN AWOS","611B002","2018-01-15 10:00","2018","01","15","10:00","-12.0","","-16.0","","72","","","","10","","28","","14.5","","100.64","","","","-22","","NA"
"-79.91","44.27","BORDEN AWOS","611B002","2018-01-15 11:00","2018","01","15","11:00","-11.7","","-15.2","","75","","","","10","","22","","14.5","","100.58","","","","-20","","NA"
"-79.91","44.27","BORDEN AWOS","611B002","2018-01-15 12:00","2018","01","15","12:00","-11.6","","-14.8","","77","","","","10","","17","","8.0","","100.45","","","","-19","","Snow"
"-79.91","44.27","BORDEN AWOS","611B002","2018-01-15 13:00","2018","01","15","13:00","-11.7","","-14.5","","80","","","","10","","20","","4.8","","100.38","","","","-20","","Snow"
"-79.91","44.27","BORDEN AWOS","611B002","2018-01-15 14:00","2018","01","15","14:00","-11.7","","-14.4","","80","","","","10","","26","","4.0","","100.30","","","","-21","","Snow"
"-79.91","44.27","BORDEN AWOS","611B002","2018-01-15 15:00","2018","01","15","15:00","-11.7","","-14.2","","82","","","","","M","","M","4.8","","100.25","","","","","","Snow"
"-79.91","44.27","BORDEN AWOS","611B002","2018-01-15 16:00","2018","01","15","16:00","-11.5","","-14.1","","81","","","","","M","","M","8.0","","100.22","","","","","","Snow"
"-79.91","44.27","BORDEN AWOS","611B002","2018-01-15 17:00","2018","01","15","17:00","-11.2","","-13.5","","83","","","","10","","13","","3.5","","100.22","","","","-18","","Snow"
"-79.91","44.27","BORDEN AWOS","611B002","2018-01-15 18:00","2018","01","15","18:00","-11.1","","-13.3","","84","","","","9","","9","","14.5","","100.19","","","","-16","","Snow"
"-79.91","44.27","BORDEN AWOS","611B002","2018-01-15 19:00","2018","01","15","19:00","-11.3","","-13.5","","84","","","","10","","9","","11.3","","100.17","","","","-16","","Snow"
"-79.91","44.27","BORDEN AWOS","611B002","2018-01-15 20:00","2018","01","15","20:00","-11.4","","-13.7","","83","","","","9","","6","","14.5","","100.14","","","","-15","","NA"
"-79.91","44.27","BORDEN AWOS","611B002","2018-01-15 21:00","2018","01","15","21:00","-11.7","","-13.5","","87","","","","","","0","","1.6","","100.16","","","","","","Snow"
"-79.91","44.27","BORDEN AWOS","611B002","2018-01-15 22:00","2018","01","15","22:00","-12.1","","-13.7","","88","","","","","","0","","3.4","","100.10","","","","","","Snow"
"-79.91","44.27","BORDEN AWOS","611B002","2018-01-15 23:00","2018","01","15","23:00"
"-79.91","44.27","BORDEN AWOS","611B002","2018-01-16 00:00","2018","01","16","00:00"
"-79.91","44.27","BORDEN AWOS","611B002","2018-01-16 01:00","2018","01","16","01:00","-12.3","","-13.4","","92","","","","","","0","","14.5","","99.96","","","","","","NA"
"-79.91","44.27","BORDEN AWOS","611B002","2018-01-16 02:00","2018","01","16","02:00","-11.7","","-13.5","","87","","","","","","0","","6.4","","99.96","","","","","","Snow"
"-79.91","44.27","BORDEN AWOS","611B002","2018-01-16 03:00","2018","01","16","03:00"
"-79.91","44.27","BORDEN AWOS","611B002","2018-01-16 04:00","2018","01","16","04:00"
"-79.91","44.27","BORDEN AWOS","611B002","2018-01-16 05:00","2018","01","16","05:00","-11.7","","-13.4","","87","","","","","","0","","14.5","","99.97","","","","","","Snow"
"-79.91","44.27","BORDEN AWOS","611B002","2018-01-16 06:00","2018","01","16","06:00","-11.9","","-13.6","","87","","","","","","0","","6.4","","99.98","","","","","","Snow"
"-79.91","44.27","BORDEN AWOS","611B002","2018-01-16 07:00","2018","01","16","07:00","-12.3","","-13.6","","90","","","","","","0","","11.3","","100.02","","","","","","Snow"
"-79.91","44.27","BORDEN AWOS","611B002","2018-01-16 08:00","2018","01","16","08:00","-12.1","","-13.4","","90","","","","","","0","","3.7","","100.04","","","","","","Snow"
"-79.91","44.27","BORDEN AWOS","611B002","2018-01-16 09:00","2018","01","16","09:00","-11.7","","-13.1","","89","","","","","","0","","6.4","","100.08","","","","","","Snow"
"-79.91","44.27","BORDEN AWOS","611B002","2018-01-16 10:00","2018","01","16","10:00","-10.8","","-13.0","","84","","","","","","0","","5.6","","100.13","","","","","","Snow"
"-79.91","44.27","BORDEN AWOS","611B002","2018-01-16 11:00","2018","01","16","11:00","","M","","M","","M","","","","","0","","6.4","","100.13","","","","","","Snow"
"-79.91","44.27","BORDEN AWOS","611B002","2018-01-16 12:00","2018","01","16","12:00","","M","","M","","M","","","","","0","","","M","100.08","","","","","","NA"
"-79.91","44.27","BORDEN AWOS","611B002","2018-01-16 13:00","2018","01","16","13:00","-8.0","","-10.1","","85","","","","","","0","","8.0","","100.01","","","","","","NA"
"-79.91","44.27","BORDEN AWOS","611B002","2018-01-16 14:00","2018","01","16","14:00","-7.5","","-9.0","","89","","","","","","0","","2.3","","100.01","","","","","","Snow"
"-79.91","44.27","BORDEN AWOS","611B002","2018-01-16 15:00","2018","01","16","15:00","-6.7","","-8.5","","87","","","","","","0","","3.7","","100.02","","","","","","Snow"
"-79.91","44.27","BORDEN AWOS","611B002","2018-01-16 16:00","2018","01","16","16:00","-7.7","","-9.5","","87","","","","","","0","","14.5","","100.03","","","","","","Snow"
"-79.91","44.27","BORDEN AWOS","611B002","2018-01-16 17:00","2018","01","16","17:00","-9.2","","-10.0","","94","","","","","","0","","14.5","","100.06","","","","","","NA"
"-79.91","44.27","BORDEN AWOS","611B002","2018-01-16 18:00","2018","01","16","18:00","-9.8","","-10.2","","97","","","","","","0","","14.5","","100.08","","","","","","NA"
"-79.91","44.27","BORDEN AWOS","611B002","2018-01-16 19:00","2018","01","16","19:00","-14.3","","-14.3","","100","","","","","","0","","6.4","","100.12","","","","","","NA"
"-79.91","44.27","BORDEN AWOS","611B002","2018-01-16 20:00","2018","01","16","20:00","-16.2","","-17.2","","92","","","","","","0","","14.5","","100.13","","","","","","NA"
"-79.91","44.27","BORDEN AWOS","611B002","2018-01-16 21:00","2018","01","16","21:00","-15.7","","-16.4","","94","","","","","","0","","14.5","","100.15","","","","","","NA"
"-79.91","44.27","BORDEN AWOS","611B002","2018-01-16 22:00","2018","01","16","22:00","-13.7","","-14.1","","97","","","","","","0","","14.5","","100.15","","","","","","NA"
"-79.91","44.27","BORDEN AWOS","611B002","2018-01-16 23:00","2018","01","16","23:00","-14.1","","-15.3","","91","","","","","","0","","14.5","","100.10","","","","","","NA"
"-79.91","44.27","BORDEN AWOS","611B002","2018-01-17 00:00","2018","01","17","00:00","-19.1","","-19.8","","94","","","","","","0","","14.5","","100.06","","","","","","NA"
"-79.91","44.27","BORDEN AWOS","611B002","2018-01-17 01:00","2018","01","17","01:00","-19.6","","-21.0","","89","","","","","","0","","14.5","","100.04","","","","","","NA"
"-79.91","44.27","BORDEN AWOS","611B002","2018-01-17 02:00","2018","01","17","02:00","-20.0","","-20.6","","95","","","","","","0","","14.5","","100.06","","","","","","NA"
"-79.91","44.27","BORDEN AWOS","611B002","2018-01-17 03:00","2018","01","17","03:00","-20.5","","-21.3","","93","","","","","","0","","14.5","","100.08","","","","","","NA"
"-79.91","44.27","BORDEN AWOS","611B002","2018-01-17 04:00","2018","01","17","04:00","-22.9","","-23.2","","97","","","","","","0","","14.5","","100.07","","","","","","NA"
"-79.91","44.27","BORDEN AWOS","611B002","2018-01-17 05:00","2018","01","17","05:00","-21.8","","-22.4","","95","","","","","","0","","14.5","","100.06","","","","","","NA"
"-79.91","44.27","BORDEN AWOS","611B002","2018-01-17 06:00","2018","01","17","06:00","-22.2","","-23.1","","92","","","","","","0","","14.5","","100.04","","","","","","NA"
"-79.91","44.27","BORDEN AWOS","611B002","2018-01-17 07:00","2018","01","17","07:00","-23.2","","-23.8","","95","","","","","","0","","14.5","","100.04","","","","","","NA"
"-79.91","44.27","BORDEN AWOS","611B002","2018-01-17 08:00","2018","01","17","08:00","-22.5","","-24.3","","85","","","","22","","7","","14.5","","99.99","","","","-29","","NA"
"-79.91","44.27","BORDEN AWOS","611B002","2018-01-17 09:00","2018","01","17","09:00","-14.1","","","M","","M","","","21","","6","","11.3","","99.99","","","","-18","","NA"
"-79.91","44.27","BORDEN AWOS","611B002","2018-01-17 10:00","2018","01","17","10:00","-9.7","","","M","","M","","","21","","11","","14.5","","99.98","","","","-15","","NA"
"-79.91","44.27","BORDEN AWOS","611B002","2018-01-17 11:00","2018","01","17","11:00","-7.3","","-10.9","","75","","","","24","","11","","14.5","","99.93","","","","-12","","NA"
"-79.91","44.27","BORDEN AWOS","611B002","2018-01-17 12:00","2018","01","17","12:00","-6.6","","-10.7","","73","","","","24","","13","","14.5","","99.87","","","","-12","","Snow"
"-79.91","44.27","BORDEN AWOS","611B002","2018-01-17 13:00","2018","01","17","13:00","-6.2","","-10.3","","73","","","","26","","17","","14.5","","99.71","","","","-12","","Snow"
"-79.91","44.27","BORDEN AWOS","611B002","2018-01-17 14:00","2018","01","17","14:00","-5.7","","-10.2","","71","","","","24","","11","","14.5","","99.62","","","","-10","","Snow"
"-79.91","44.27","BORDEN AWOS","611B002","2018-01-17 15:00","2018","01","17","15:00","-5.4","","-10.1","","70","","","","23","","24","","14.5","","99.54","","","","-13","","NA"
"-79.91","44.27","BORDEN AWOS","611B002","2018-01-17 16:00","2018","01","17","16:00","-5.4","","-10.1","","70","","","","22","","13","","14.5","","99.46","","","","-11","","NA"
"-79.91","44.27","BORDEN AWOS","611B002","2018-01-17 17:00","2018","01","17","17:00","-6.9","","-11.0","","73","","","","21","","20","","14.5","","99.38","","","","-14","","NA"
"-79.91","44.27","BORDEN AWOS","611B002","2018-01-17 18:00","2018","01","17","18:00","-7.7","","-11.0","","77","","","","22","","17","","14.5","","99.33","","","","-14","","NA"
"-79.91","44.27","BORDEN AWOS","611B002","2018-01-17 19:00","2018","01","17","19:00","-6.8","","-10.8","","73","","","","23","","17","","14.5","","99.22","","","","-13","","NA"
"-79.91","44.27","BORDEN AWOS","611B002","2018-01-17 20:00","2018","01","17","20:00","-6.7","","-10.7","","73","","","","22","","19","","14.5","","99.06","","","","-14","","NA"
"-79.91","44.27","BORDEN AWOS","611B002","2018-01-17 21:00","2018","01","17","21:00","-6.4","","-10.5","","73","","","","23","","22","","14.5","","98.96","","","","-14","","NA"
"-79.91","44.27","BORDEN AWOS","611B002","2018-01-17 22:00","2018","01","17","22:00","-6.8","","-10.9","","73","","","","22","","15","","14.5","","98.94","","","","-13","","NA"
"-79.91","44.27","BORDEN AWOS","611B002","2018-01-17 23:00","2018","01","17","23:00","-7.7","","-11.2","","76","","","","21","","4","","14.5","","98.97","","","","-10","","NA"
"-79.91","44.27","BORDEN AWOS","611B002","2018-01-18 00:00","2018","01","18","00:00","-8.0","","-11.2","","78","","","","20","","13","","14.5","","98.94","","","","-14","","NA"
"-79.91","44.27","BORDEN AWOS","611B002","2018-01-18 01:00","2018","01","18","01:00","-8.2","","-11.3","","78","","","","22","","13","","14.5","","98.85","","","","-14","","NA"
"-79.91","44.27","BORDEN AWOS","611B002","2018-01-18 02:00","2018","01","18","02:00","-8.1","","-11.0","","80","","","","25","","17","","14.5","","98.83","","","","-15","","NA"
"-79.91","44.27","BORDEN AWOS","611B002","2018-01-18 03:00","2018","01","18","03:00","-7.6","","-10.5","","80","","","","24","","20","","14.5","","98.82","","","","-15","","NA"
"-79.91","44.27","BORDEN AWOS","611B002","2018-01-18 04:00","2018","01","18","04:00","-8.0","","-10.7","","81","","","","23","","22","","14.5","","98.78","","","","-16","","NA"
"-79.91","44.27","BORDEN AWOS","611B002","2018-01-18 05:00","2018","01","18","05:00","-7.4","","-10.4","","79","","","","22","","11","","14.5","","98.79","","","","-12","","NA"
"-79.91","44.27","BORDEN AWOS","611B002","2018-01-18 06:00","2018","01","18","06:00","-7.7","","-10.4","","81","","","","19","","11","","14.5","","98.76","","","","-13","","NA"
"-79.91","44.27","BORDEN AWOS","611B002","2018-01-18 07:00","2018","01","18","07:00","-7.4","","-10.2","","80","","","","21","","11","","14.5","","98.79","","","","-12","","NA"
"-79.91","44.27","BORDEN AWOS","611B002","2018-01-18 08:00","2018","01","18","08:00","-7.1","","-9.7","","82","","","","21","","11","","14.5","","98.80","","","","-12","","NA"
"-79.91","44.27","BORDEN AWOS","611B002","2018-01-18 09:00","2018","01","18","09:00","-7.0","","-9.1","","85","","","","19","","9","","8.0","","98.83","","","","-11","","Snow"
"-79.91","44.27","BORDEN AWOS","611B002","2018-01-18 10:00","2018","01","18","10:00","-6.6","","-8.6","","86","","","","19","","9","","5.6","","98.85","","","","-11","","Snow"
"-79.91","44.27","BORDEN AWOS","611B002","2018-01-18 11:00","2018","01","18","11:00","-6.1","","-9.0","","80","","","","19","","15","","11.3","","98.86","","","","-12","","NA"
"-79.91","44.27","BORDEN AWOS","611B002","2018-01-18 12:00","2018","01","18","12:00","-5.8","","-9.0","","78","","","","20","","13","","14.5","","98.80","","","","-11","","NA"
"-79.91","44.27","BORDEN AWOS","611B002","2018-01-18 13:00","2018","01","18","13:00","-5.0","","-8.0","","80","","","","21","","13","","14.5","","98.77","","","","-10","","NA"
"-79.91","44.27","BORDEN AWOS","611B002","2018-01-18 14:00","2018","01","18","14:00","-5.0","","-8.0","","80","","","","21","","17","","14.5","","98.74","","","","-11","","NA"
"-79.91","44.27","BORDEN AWOS","611B002","2018-01-18 15:00","2018","01","18","15:00","-4.8","","-7.6","","81","","","","23","","15","","14.5","","98.70","","","","-10","","NA"
"-79.91","44.27","BORDEN AWOS","611B002","2018-01-18 16:00","2018","01","18","16:00","-4.9","","-7.4","","83","","","","23","","6","","12.9","","98.72","","","","-8","","NA"
"-79.91","44.27","BORDEN AWOS","611B002","2018-01-18 17:00","2018","01","18","17:00","-4.9","","-7.1","","85","","","","20","","6","","12.9","","98.68","","","","-8","","NA"
"-79.91","44.27","BORDEN AWOS","611B002","2018-01-18 18:00","2018","01","18","18:00","-4.9","","-7.4","","83","","","","20","","15","","11.3","","98.64","","","","-10","","NA"
"-79.91","44.27","BORDEN AWOS","611B002","2018-01-18 19:00","2018","01","18","19:00","-5.2","","-7.6","","83","","","","18","","11","","11.3","","98.61","","","","-10","","NA"
"-79.91","44.27","BORDEN AWOS","611B002","2018-01-18 20:00","2018","01","18","20:00","-5.4","","-8.4","","79","","","","19","","15","","12.9","","98.58","","","","-11","","NA"
"-79.91","44.27","BORDEN AWOS","611B002","2018-01-18 21:00","2018","01","18","21:00","-5.8","","-8.8","","79","","","","19","","6","","14.5","","98.55","","","","-9","","NA"
"-79.91","44.27","BORDEN AWOS","611B002","2018-01-18 22:00","2018","01","18","22:00","-6.1","","-8.7","","82","","","","","","0","","14.5","","98.54","","","","","","NA"
"-79.91","44.27","BORDEN AWOS","611B002","2018-01-18 23:00","2018","01","18","23:00","-6.4","","-9.1","","81","","","","17","","7","","12.9","","98.51","","","","-10","","NA"
"-79.91","44.27","BORDEN AWOS","611B002","2018-01-19 00:00","2018","01","19","00:00","-7.1","","-9.5","","83","","","","16","","9","","12.9","","98.46","","","","-11","","NA"
"-79.91","44.27","BORDEN AWOS","611B002","2018-01-19 01:00","2018","01","19","01:00","-7.1","","-8.8","","88","","","","18","","4","","11.3","","98.46","","","","-9","","NA"
"-79.91","44.27","BORDEN AWOS","611B002","2018-01-19 02:00","2018","01","19","02:00","-5.5","","-7.9","","83","","","","19","","9","","12.9","","98.43","","","","-10","","NA"
"-79.91","44.27","BORDEN AWOS","611B002","2018-01-19 03:00","2018","01","19","03:00","-4.5","","-7.4","","80","","","","20","","13","","12.9","","98.40","","","","-10","","NA"
"-79.91","44.27","BORDEN AWOS","611B002","2018-01-19 04:00","2018","01","19","04:00","-3.4","","-6.5","","79","","","","22","","9","","12.9","","98.42","","","","-7","","NA"
"-79.91","44.27","BORDEN AWOS","611B002","2018-01-19 05:00","2018","01","19","05:00","-2.9","","-6.1","","79","","","","24","","9","","14.5","","98.43","","","","-6","","NA"
"-79.91","44.27","BORDEN AWOS","611B002","2018-01-19 06:00","2018","01","19","06:00","-2.9","","-6.0","","79","","","","23","","17","","14.5","","98.42","","","","-8","","NA"
"-79.91","44.27","BORDEN AWOS","611B002","2018-01-19 07:00","2018","01","19","07:00","-3.3","","-6.2","","80","","","","22","","11","","12.9","","98.46","","","","-8","","NA"
"-79.91","44.27","BORDEN AWOS","611B002","2018-01-19 08:00","2018","01","19","08:00","-3.5","","-6.3","","81","","","","22","","15","","12.9","","98.42","","","","-9","","NA"
"-79.91","44.27","BORDEN AWOS","611B002","2018-01-19 09:00","2018","01","19","09:00","-3.3","","-6.2","","80","","","","22","","15","","12.9","","98.45","","","","-8","","NA"
"-79.91","44.27","BORDEN AWOS","611B002","2018-01-19 10:00","2018","01","19","10:00","-2.8","","-5.9","","79","","","","23","","13","","12.9","","98.47","","","","-7","","NA"
"-79.91","44.27","BORDEN AWOS","611B002","2018-01-19 11:00","2018","01","19","11:00","-1.7","","-5.6","","75","","","","23","","20","","14.5","","98.43","","","","-7","","NA"
"-79.91","44.27","BORDEN AWOS","611B002","2018-01-19 12:00","2018","01","19","12:00","-0.6","","-5.3","","71","","","","22","","19","","14.5","","98.33","","","","-6","","NA"
"-79.91","44.27","BORDEN AWOS","611B002","2018-01-19 13:00","2018","01","19","13:00","0.1","","-4.9","","69","","","","21","","19","","14.5","","98.22","","","","","","NA"
"-79.91","44.27","BORDEN AWOS","611B002","2018-01-19 14:00","2018","01","19","14:00","0.3","","-5.1","","67","","","","22","","28","","14.5","","98.14","","","","","","NA"
"-79.91","44.27","BORDEN AWOS","611B002","2018-01-19 15:00","2018","01","19","15:00","0.4","","-4.6","","69","","","","21","","19","","14.5","","98.07","","","","","","NA"
"-79.91","44.27","BORDEN AWOS","611B002","2018-01-19 16:00","2018","01","19","16:00","0.6","","-4.2","","70","","","","21","","17","","14.5","","98.06","","","","","","NA"
"-79.91","44.27","BORDEN AWOS","611B002","2018-01-19 17:00","2018","01","19","17:00","-0.1","","-4.5","","72","","","","20","","7","","14.5","","98.04","","","","-3","","NA"
"-79.91","44.27","BORDEN AWOS","611B002","2018-01-19 18:00","2018","01","19","18:00","-0.1","","-4.2","","74","","","","15","","6","","14.5","","98.02","","","","-2","","NA"
"-79.91","44.27","BORDEN AWOS","611B002","2018-01-19 19:00","2018","01","19","19:00","0.2","","-4.3","","72","","","","18","","15","","14.5","","97.94","","","","","","NA"
"-79.91","44.27","BORDEN AWOS","611B002","2018-01-19 20:00","2018","01","19","20:00","-0.4","","-4.6","","73","","","","19","","15","","14.5","","97.85","","","","-5","","NA"
"-79.91","44.27","BORDEN AWOS","611B002","2018-01-19 21:00","2018","01","19","21:00","0.2","","-4.7","","70","","","","21","","20","","14.5","","97.76","","","","","","NA"
"-79.91","44.27","BORDEN AWOS","611B002","2018-01-19 22:00","2018","01","19","22:00","1.1","","-4.5","","66","","","","22","","28","","14.5","","97.62","","","","","","NA"
"-79.91","44.27","BORDEN AWOS","611B002","2018-01-19 23:00","2018","01","19","23:00","1.2","","-4.3","","67","","","","23","","37","","14.5","","97.54","","","","","","NA"
"-79.91","44.27","BORDEN AWOS","611B002","2018-01-20 00:00","2018","01","20","00:00","1.5","","-4.1","","66","","","","23","","37","","14.5","","97.59","","","","","","NA"
"-79.91","44.27","BORDEN AWOS","611B002","2018-01-20 01:00","2018","01","20","01:00","2.1","","-3.8","","65","","","","23","","26","","14.5","","97.55","","","","","","NA"
"-79.91","44.27","BORDEN AWOS","611B002","2018-01-20 02:00","2018","01","20","02:00","2.5","","-3.9","","63","","","","24","","20","","14.5","","97.53","","","","","","NA"
"-79.91","44.27","BORDEN AWOS","611B002","2018-01-20 03:00","2018","01","20","03:00","3.1","","-3.8","","61","","","","26","","6","","14.5","","97.65","","","","","","NA"
"-79.91","44.27","BORDEN AWOS","611B002","2018-01-20 04:00","2018","01","20","04:00","2.6","","-3.3","","65","","","","26","","28","","14.5","","97.65","","","","","","NA"
"-79.91","44.27","BORDEN AWOS","611B002","2018-01-20 05:00","2018","01","20","05:00","2.5","","-3.1","","67","","","","","","0","","14.5","","97.72","","","","","","NA"
"-79.91","44.27","BORDEN AWOS","611B002","2018-01-20 06:00","2018","01","20","06:00","3.1","","-2.7","","66","","","","27","","6","","14.5","","97.86","","","","","","NA"
"-79.91","44.27","BORDEN AWOS","611B002","2018-01-20 07:00","2018","01","20","07:00","2.6","","-2.2","","71","","","","25","","13","","14.5","","97.93","","","","","","NA"
"-79.91","44.27","BORDEN AWOS","611B002","2018-01-20 08:00","2018","01","20","08:00","2.7","","-2.0","","71","","","","26","","9","","14.5","","98.02","","","","","","NA"
"-79.91","44.27","BORDEN AWOS","611B002","2018-01-20 09:00","2018","01","20","09:00","2.9","","-1.6","","72","","","","26","","11","","14.5","","98.14","","","","","","NA"
"-79.91","44.27","BORDEN AWOS","611B002","2018-01-20 10:00","2018","01","20","10:00","3.4","","-1.2","","72","","","","27","","7","","14.5","","98.24","","","","","","NA"
"-79.91","44.27","BORDEN AWOS","611B002","2018-01-20 11:00","2018","01","20","11:00","4.0","","-0.9","","70","","","","25","","15","","14.5","","98.32","","","","","","NA"
"-79.91","44.27","BORDEN AWOS","611B002","2018-01-20 12:00","2018","01","20","12:00","5.6","","-0.3","","66","","","","24","","4","","14.5","","98.30","","","","","","NA"
"-79.91","44.27","BORDEN AWOS","611B002","2018-01-20 13:00","2018","01","20","13:00","6.5","","0.5","","66","","","","24","","13","","14.5","","98.28","","","","","","NA"
"-79.91","44.27","BORDEN AWOS","611B002","2018-01-20 14:00","2018","01","20","14:00","6.2","","0.4","","66","","","","25","","15","","14.5","","98.30","","","","","","NA"
"-79.91","44.27","BORDEN AWOS","611B002","2018-01-20 15:00","2018","01","20","15:00","5.6","","0.2","","68","","","","26","","13","","14.5","","98.42","","","","","","NA"
"-79.91","44.27","BORDEN AWOS","611B002","2018-01-20 16:00","2018","01","20","16:00","4.8","","0.0","","71","","","","26","","6","","14.5","","98.55","","","","","","NA"
"-79.91","44.27","BORDEN AWOS","611B002","2018-01-20 17:00","2018","01","20","17:00","4.0","","-0.1","","75","","","","","","0","","14.5","","98.62","","","","","","NA"
"-79.91","44.27","BORDEN AWOS","611B002","2018-01-20 18:00","2018","01","20","18:00","3.5","","-0.2","","77","","","","","","0","","14.5","","98.71","","","","","","NA"
"-79.91","44.27","BORDEN AWOS","611B002","2018-01-20 19:00","2018","01","20","19:00","0.1","","-1.4","","90","","","","","","0","","14.5","","98.78","","","","","","NA"
"-79.91","44.27","BORDEN AWOS","611B002","2018-01-20 20:00","2018","01","20","20:00","0.7","","-0.8","","90","","","","","","0","","14.5","","98.87","","","","","","NA"
"-79.91","44.27","BORDEN AWOS","611B002","2018-01-20 21:00","2018","01","20","21:00","0.6","","-0.8","","90","","","","","","0","","14.5","","98.86","","","","","","NA"
"-79.91","44.27","BORDEN AWOS","611B002","2018-01-20 22:00","2018","01","20","22:00","0.3","","-0.6","","94","","","","","","0","","14.5","","98.88","","","","","","NA"
"-79.91","44.27","BORDEN AWOS","611B002","2018-01-20 23:00","2018","01","20","23:00","-0.7","","-1.6","","94","","","","24","","7","","12.9","","98.94","","","","-3","","NA"
"-79.91","44.27","BORDEN AWOS","611B002","2018-01-21 00:00","2018","01","21","00:00","0.3","","-0.9","","92","","","","23","","7","","12.9","","98.99","","","","","","NA"
"-79.91","44.27","BORDEN AWOS","611B002","2018-01-21 01:00","2018","01","21","01:00","0.3","","-0.9","","92","","","","","","0","","12.9","","98.93","","","","","","NA"
"-79.91","44.27","BORDEN AWOS","611B002","2018-01-21 02:00","2018","01","21","02:00","-1.5","","-2.0","","96","","","","","","0","","9.7","","98.99","","","","","","NA"
"-79.91","44.27","BORDEN AWOS","611B002","2018-01-21 03:00","2018","01","21","03:00","-1.4","","-1.7","","98","","","","","","0","","8.0","","99.02","","","","","","NA"
"-79.91","44.27","BORDEN AWOS","611B002","2018-01-21 04:00","2018","01","21","04:00","-1.0","","-1.4","","97","","","","18","","7","","6.4","","99.05","","","","-4","","NA"
"-79.91","44.27","BORDEN AWOS","611B002","2018-01-21 05:00","2018","01","21","05:00","-0.1","","-1.1","","93","","","","19","","4","","8.0","","99.11","","","","-1","","NA"
"-79.91","44.27","BORDEN AWOS","611B002","2018-01-21 06:00","2018","01","21","06:00","-0.6","","-1.2","","96","","","","","","0","","6.4","","99.13","","","","","","NA"
"-79.91","44.27","BORDEN AWOS","611B002","2018-01-21 07:00","2018","01","21","07:00","-0.7","","-1.4","","95","","","","","","0","","6.4","","99.16","","","","","","NA"
"-79.91","44.27","BORDEN AWOS","611B002","2018-01-21 08:00","2018","01","21","08:00","-1.0","","-1.5","","96","","","","","","0","","5.6","","99.18","","","","","","NA"
"-79.91","44.27","BORDEN AWOS","611B002","2018-01-21 09:00","2018","01","21","09:00","0.1","","-0.6","","95","","","","","","0","","5.6","","99.19","","","","","","NA"
"-79.91","44.27","BORDEN AWOS","611B002","2018-01-21 10:00","2018","01","21","10:00","1.7","","-0.3","","87","","","","","","0","","9.7","","99.20","","","","","","NA"
"-79.91","44.27","BORDEN AWOS","611B002","2018-01-21 11:00","2018","01","21","11:00","4.5","","0.1","","73","","","","16","","7","","14.5","","99.18","","","","","","NA"
"-79.91","44.27","BORDEN AWOS","611B002","2018-01-21 12:00","2018","01","21","12:00","5.5","","0.5","","70","","","","15","","9","","14.5","","99.09","","","","","","NA"
"-79.91","44.27","BORDEN AWOS","611B002","2018-01-21 13:00","2018","01","21","13:00","5.4","","0.8","","72","","","","15","","6","","14.5","","99.03","","","","","","NA"
"-79.91","44.27","BORDEN AWOS","611B002","2018-01-21 14:00","2018","01","21","14:00","6.9","","0.8","","65","","","","15","","7","","14.5","","98.99","","","","","","NA"
"-79.91","44.27","BORDEN AWOS","611B002","2018-01-21 15:00","2018","01","21","15:00","5.8","","0.8","","70","","","","14","","9","","14.5","","99.00","","","","","","NA"
"-79.91","44.27","BORDEN AWOS","611B002","2018-01-21 16:00","2018","01","21","16:00","4.6","","0.7","","76","","","","15","","6","","11.3","","99.03","","","","","","NA"
"-79.91","44.27","BORDEN AWOS","611B002","2018-01-21 17:00","2018","01","21","17:00","3.1","","0.5","","83","","","","","","0","","9.7","","99.07","","","","","","NA"
"-79.91","44.27","BORDEN AWOS","611B002","2018-01-21 18:00","2018","01","21","18:00","1.8","","0.3","","90","","","","15","","4","","8.0","","99.09","","","","","","NA"
"-79.91","44.27","BORDEN AWOS","611B002","2018-01-21 19:00","2018","01","21","19:00","1.0","","0.1","","94","","","","","","0","","6.4","","99.13","","","","","","NA"
"-79.91","44.27","BORDEN AWOS","611B002","2018-01-21 20:00","2018","01","21","20:00","-0.5","","-0.9","","97","","","","","","0","","4.8","","99.12","","","","","","NA"
"-79.91","44.27","BORDEN AWOS","611B002","2018-01-21 21:00","2018","01","21","21:00","1.3","","0.4","","94","","","","","","0","","6.4","","99.12","","","","","","NA"
"-79.91","44.27","BORDEN AWOS","611B002","2018-01-21 22:00","2018","01","21","22:00","1.4","","0.6","","94","","","","","","0","","6.4","","99.15","","","","","","NA"
"-79.91","44.27","BORDEN AWOS","611B002","2018-01-21 23:00","2018","01","21","23:00","1.6","","1.1","","97","","","","","","0","","4.8","","99.15","","","","","","NA"
"-79.91","44.27","BORDEN AWOS","611B002","2018-01-22 00:00","2018","01","22","00:00","1.4","","1.4","","100","","","","15","","6","","1.8","","99.15","","","","","","NA"
"-79.91","44.27","BORDEN AWOS","611B002","2018-01-22 01:00","2018","01","22","01:00","1.2","","1.2","","100","","","","","","0","","1.4","","99.15","","","","","","NA"
"-79.91","44.27","BORDEN AWOS","611B002","2018-01-22 02:00","2018","01","22","02:00","1.1","","1.1","","100","","","","","","0","","1.1","","99.15","","","","","","NA"
"-79.91","44.27","BORDEN AWOS","611B002","2018-01-22 03:00","2018","01","22","03:00","0.9","","0.9","","100","","","","","","0","","0.6","","99.09","","","","","","NA"
"-79.91","44.27","BORDEN AWOS","611B002","2018-01-22 04:00","2018","01","22","04:00"
"-79.91","44.27","BORDEN AWOS","611B002","2018-01-22 05:00","2018","01","22","05:00","0.9","","0.9","","100","","","","","","0","","1.1","","99.13","","","","","","NA"
"-79.91","44.27","BORDEN AWOS","611B002","2018-01-22 06:00","2018","01","22","06:00","0.9","","0.9","","100","","","","","","0","","1.3","","99.11","","","","","","NA"
"-79.91","44.27","BORDEN AWOS","611B002","2018-01-22 07:00","2018","01","22","07:00","1.4","","1.4","","100","","","","10","","6","","2.3","","99.10","","","","","","NA"
"-79.91","44.27","BORDEN AWOS","611B002","2018-01-22 08:00","2018","01","22","08:00","1.3","","1.3","","100","","","","","","0","","1.4","","99.11","","","","","","Rain"
"-79.91","44.27","BORDEN AWOS","611B002","2018-01-22 09:00","2018","01","22","09:00","1.5","","1.5","","100","","","","9","","13","","2.1","","99.09","","","","","","Rain"
"-79.91","44.27","BORDEN AWOS","611B002","2018-01-22 10:00","2018","01","22","10:00","1.7","","1.7","","100","","","","10","","15","","3.9","","99.07","","","","","","Rain"
"-79.91","44.27","BORDEN AWOS","611B002","2018-01-22 11:00","2018","01","22","11:00","1.7","","1.7","","100","","","","11","","15","","4.0","","98.99","","","","","","Rain"
"-79.91","44.27","BORDEN AWOS","611B002","2018-01-22 12:00","2018","01","22","12:00","1.7","","1.7","","100","","","","11","","9","","4.8","","98.86","","","","","","Rain"
"-79.91","44.27","BORDEN AWOS","611B002","2018-01-22 13:00","2018","01","22","13:00","1.5","","1.5","","100","","","","10","","13","","4.8","","98.68","","","","","","Heavy Rain"
"-79.91","44.27","BORDEN AWOS","611B002","2018-01-22 14:00","2018","01","22","14:00"
"-79.91","44.27","BORDEN AWOS","611B002","2018-01-22 15:00","2018","01","22","15:00"
"-79.91","44.27","BORDEN AWOS","611B002","2018-01-22 16:00","2018","01","22","16:00","1.1","","1.1","","100","","","","12","","15","","8.0","","98.40","","","","","","Rain"
"-79.91","44.27","BORDEN AWOS","611B002","2018-01-22 17:00","2018","01","22","17:00","1.4","","1.4","","100","","","","14","","7","","9.7","","98.36","","","","","","Rain"
"-79.91","44.27","BORDEN AWOS","611B002","2018-01-22 18:00","2018","01","22","18:00"
"-79.91","44.27","BORDEN AWOS","611B002","2018-01-22 19:00","2018","01","22","19:00","0.9","","0.9","","100","","","","14","","9","","0.6","","98.25","","","","","","Rain"
"-79.91","44.27","BORDEN AWOS","611B002","2018-01-22 20:00","2018","01","22","20:00"
"-79.91","44.27","BORDEN AWOS","611B002","2018-01-22 21:00","2018","01","22","21:00","0.9","","0.9","","100","","","","16","","7","","3.9","","98.05","","","","","","Rain"
"-79.91","44.27","BORDEN AWOS","611B002","2018-01-22 22:00","2018","01","22","22:00","1.0","","1.0","","100","","","","15","","11","","4.0","","97.92","","","","","","Rain"
"-79.91","44.27","BORDEN AWOS","611B002","2018-01-22 23:00","2018","01","22","23:00","0.9","","0.9","","100","","","","16","","13","","9.7","","97.80","","","","","","Rain"
"-79.91","44.27","BORDEN AWOS","611B002","2018-01-23 00:00","2018","01","23","00:00","0.9","","0.9","","100","","","","16","","6","","4.0","","97.70","","","","","","NA"
"-79.91","44.27","BORDEN AWOS","611B002","2018-01-23 01:00","2018","01","23","01:00","0.9","","0.9","","100","","","","","","0","","14.5","","97.55","","","","","","NA"
"-79.91","44.27","BORDEN AWOS","611B002","2018-01-23 02:00","2018","01","23","02:00","0.8","","0.8","","100","","","","","","0","","5.6","","97.39","","","","","","NA"
"-79.91","44.27","BORDEN AWOS","611B002","2018-01-23 03:00","2018","01","23","03:00","1.3","","1.3","","100","","","","15","","4","","14.5","","97.32","","","","","","Rain"
"-79.91","44.27","BORDEN AWOS","611B002","2018-01-23 04:00","2018","01","23","04:00","2.5","","2.5","","100","","","","","","0","","5.6","","97.34","","","","","","Rain"
"-79.91","44.27","BORDEN AWOS","611B002","2018-01-23 05:00","2018","01","23","05:00","2.6","","2.6","","100","","","","17","","6","","14.5","","97.17","","","","","","NA"
"-79.91","44.27","BORDEN AWOS","611B002","2018-01-23 06:00","2018","01","23","06:00","1.9","","1.9","","100","","","","17","","15","","14.5","","97.18","","","","","","NA"
"-79.91","44.27","BORDEN AWOS","611B002","2018-01-23 07:00","2018","01","23","07:00","1.3","","1.3","","100","","","","14","","4","","9.7","","97.13","","","","","","NA"
"-79.91","44.27","BORDEN AWOS","611B002","2018-01-23 08:00","2018","01","23","08:00","2.5","","2.5","","100","","","","","","0","","12.9","","97.07","","","","","","NA"
"-79.91","44.27","BORDEN AWOS","611B002","2018-01-23 09:00","2018","01","23","09:00","5.1","","5.1","","100","","","","19","","15","","14.5","","97.01","","","","","","NA"
"-79.91","44.27","BORDEN AWOS","611B002","2018-01-23 10:00","2018","01","23","10:00","5.7","","5.1","","96","","","","21","","19","","14.5","","97.03","","","","","","NA"
"-79.91","44.27","BORDEN AWOS","611B002","2018-01-23 11:00","2018","01","23","11:00","6.2","","4.6","","90","","","","23","","20","","14.5","","97.07","","","","","","NA"
"-79.91","44.27","BORDEN AWOS","611B002","2018-01-23 12:00","2018","01","23","12:00","4.3","","1.4","","81","","","","22","","28","","14.5","","97.06","","","","","","Drizzle"
"-79.91","44.27","BORDEN AWOS","611B002","2018-01-23 13:00","2018","01","23","13:00","4.0","","1.1","","81","","","","23","","24","","14.5","","97.05","","","","","","NA"
"-79.91","44.27","BORDEN AWOS","611B002","2018-01-23 14:00","2018","01","23","14:00","3.7","","1.0","","83","","","","22","","20","","14.5","","97.04","","","","","","NA"
"-79.91","44.27","BORDEN AWOS","611B002","2018-01-23 15:00","2018","01","23","15:00","3.0","","1.6","","91","","","","24","","20","","14.5","","97.07","","","","","","Rain"
"-79.91","44.27","BORDEN AWOS","611B002","2018-01-23 16:00","2018","01","23","16:00","1.6","","0.2","","90","","","","27","","13","","14.5","","97.21","","","","","","NA"
"-79.91","44.27","BORDEN AWOS","611B002","2018-01-23 17:00","2018","01","23","17:00","-1.3","","-3.5","","85","","","","34","","15","","14.5","","97.41","","","","-6","","Snow"
"-79.91","44.27","BORDEN AWOS","611B002","2018-01-23 18:00","2018","01","23","18:00"
"-79.91","44.27","BORDEN AWOS","611B002","2018-01-23 19:00","2018","01","23","19:00","-4.1","","-6.4","","84","","","","32","","24","","14.5","","97.69","","","","-11","","NA"
"-79.91","44.27","BORDEN AWOS","611B002","2018-01-23 20:00","2018","01","23","20:00","-4.6","","-7.3","","81","","","","31","","19","","6.4","","97.85","","","","-11","","Snow"
"-79.91","44.27","BORDEN AWOS","611B002","2018-01-23 21:00","2018","01","23","21:00","-6.1","","-7.4","","91","","","","31","","26","","1.4","","98.02","","","","-14","","Snow"
"-79.91","44.27","BORDEN AWOS","611B002","2018-01-23 22:00","2018","01","23","22:00","-6.4","","-7.8","","90","","","","32","","9","","1.9","","98.15","","","","-11","","Snow"
"-79.91","44.27","BORDEN AWOS","611B002","2018-01-23 23:00","2018","01","23","23:00","-6.6","","-7.9","","91","","","","31","","17","","1.9","","98.27","","","","-13","","Snow"
"-79.91","44.27","BORDEN AWOS","611B002","2018-01-24 00:00","2018","01","24","00:00","-7.3","","-9.3","","86","","","","31","","24","","3.2","","98.41","","","","-15","","Snow"
"-79.91","44.27","BORDEN AWOS","611B002","2018-01-24 01:00","2018","01","24","01:00","-7.8","","-9.8","","86","","","","32","","19","","4.0","","98.54","","","","-15","","Snow"
"-79.91","44.27","BORDEN AWOS","611B002","2018-01-24 02:00","2018","01","24","02:00","-8.7","","-10.6","","86","","","","32","","20","","3.9","","98.67","","","","-16","","Snow"
"-79.91","44.27","BORDEN AWOS","611B002","2018-01-24 03:00","2018","01","24","03:00","-9.5","","-11.3","","87","","","","32","","20","","2.6","","98.78","","","","-17","","Snow"
"-79.91","44.27","BORDEN AWOS","611B002","2018-01-24 04:00","2018","01","24","04:00","-10.4","","-12.0","","88","","","","34","","15","","1.1","","98.91","","","","-17","","Snow"
"-79.91","44.27","BORDEN AWOS","611B002","2018-01-24 05:00","2018","01","24","05:00","-10.9","","-12.3","","89","","","","34","","19","","1.3","","99.07","","","","-19","","Snow"
"-79.91","44.27","BORDEN AWOS","611B002","2018-01-24 06:00","2018","01","24","06:00","-12.0","","-14.0","","85","","","","33","","15","","4.0","","99.17","","","","-19","","Snow"
"-79.91","44.27","BORDEN AWOS","611B002","2018-01-24 07:00","2018","01","24","07:00","-13.7","","-15.2","","88","","","","2","","13","","4.0","","99.27","","","","-21","","Snow"
"-79.91","44.27","BORDEN AWOS","611B002","2018-01-24 08:00","2018","01","24","08:00","-13.6","","-15.3","","87","","","","1","","13","","3.1","","99.38","","","","-21","","Snow"
"-79.91","44.27","BORDEN AWOS","611B002","2018-01-24 09:00","2018","01","24","09:00"
"-79.91","44.27","BORDEN AWOS","611B002","2018-01-24 10:00","2018","01","24","10:00","-11.9","","-14.4","","82","","","","1","","17","","14.5","","99.54","","","","-20","","NA"
"-79.91","44.27","BORDEN AWOS","611B002","2018-01-24 11:00","2018","01","24","11:00","-10.8","","-14.0","","77","","","","35","","9","","14.5","","99.59","","","","-16","","NA"
"-79.91","44.27","BORDEN AWOS","611B002","2018-01-24 12:00","2018","01","24","12:00","-9.6","","-12.6","","79","","","","32","","7","","14.5","","99.55","","","","-14","","Snow"
"-79.91","44.27","BORDEN AWOS","611B002","2018-01-24 13:00","2018","01","24","13:00","-8.4","","-12.2","","74","","","","32","","11","","14.5","","99.49","","","","-14","","NA"
"-79.91","44.27","BORDEN AWOS","611B002","2018-01-24 14:00","2018","01","24","14:00","-8.1","","-12.6","","70","","","","32","","9","","14.5","","99.51","","","","-13","","NA"
"-79.91","44.27","BORDEN AWOS","611B002","2018-01-24 15:00","2018","01","24","15:00","-8.0","","-12.8","","68","","","","32","","13","","14.5","","99.54","","","","-14","","NA"
"-79.91","44.27","BORDEN AWOS","611B002","2018-01-24 16:00","2018","01","24","16:00","-8.4","","-12.2","","74","","","","33","","9","","14.5","","99.62","","","","-13","","NA"
"-79.91","44.27","BORDEN AWOS","611B002","2018-01-24 17:00","2018","01","24","17:00","-8.4","","-12.0","","75","","","","32","","6","","14.5","","99.67","","","","-12","","NA"
"-79.91","44.27","BORDEN AWOS","611B002","2018-01-24 18:00","2018","01","24","18:00","-8.8","","-12.1","","77","","","","33","","6","","14.5","","99.74","","","","-12","","NA"
"-79.91","44.27","BORDEN AWOS","611B002","2018-01-24 19:00","2018","01","24","19:00","-10.6","","-12.8","","84","","","","","","0","","14.5","","99.82","","","","","","NA"
"-79.91","44.27","BORDEN AWOS","611B002","2018-01-24 20:00","2018","01","24","20:00","-11.1","","-14.5","","76","","","","35","","6","","14.5","","99.87","","","","-15","","NA"
"-79.91","44.27","BORDEN AWOS","611B002","2018-01-24 21:00","2018","01","24","21:00","-11.7","","-14.7","","78","","","","","","0","","14.5","","99.89","","","","","","NA"
"-79.91","44.27","BORDEN AWOS","611B002","2018-01-24 22:00","2018","01","24","22:00","-12.7","","-15.2","","82","","","","","","0","","14.5","","99.97","","","","","","NA"
"-79.91","44.27","BORDEN AWOS","611B002","2018-01-24 23:00","2018","01","24","23:00","-14.1","","-15.8","","87","","","","","","0","","14.5","","100.00","","","","","","NA"
"-79.91","44.27","BORDEN AWOS","611B002","2018-01-25 00:00","2018","01","25","00:00","-17.7","","-18.6","","93","","","","","","0","","14.5","","100.04","","","","","","NA"
"-79.91","44.27","BORDEN AWOS","611B002","2018-01-25 01:00","2018","01","25","01:00","-19.1","","-19.6","","96","","","","","","0","","14.5","","100.05","","","","","","NA"
"-79.91","44.27","BORDEN AWOS","611B002","2018-01-25 02:00","2018","01","25","02:00","-16.3","","-17.2","","93","","","","","","0","","14.5","","100.10","","","","","","NA"
"-79.91","44.27","BORDEN AWOS","611B002","2018-01-25 03:00","2018","01","25","03:00","-15.2","","-16.1","","93","","","","","","0","","14.5","","100.18","","","","","","NA"
"-79.91","44.27","BORDEN AWOS","611B002","2018-01-25 04:00","2018","01","25","04:00","-14.5","","-15.8","","90","","","","","","0","","14.5","","100.20","","","","","","NA"
"-79.91","44.27","BORDEN AWOS","611B002","2018-01-25 05:00","2018","01","25","05:00","-14.1","","-15.2","","91","","","","","","0","","14.5","","100.24","","","","","","NA"
"-79.91","44.27","BORDEN AWOS","611B002","2018-01-25 06:00","2018","01","25","06:00","-12.8","","-14.1","","90","","","","","","0","","14.5","","100.27","","","","","","NA"
"-79.91","44.27","BORDEN AWOS","611B002","2018-01-25 07:00","2018","01","25","07:00","-12.5","","-13.7","","91","","","","","","0","","14.5","","100.34","","","","","","NA"
"-79.91","44.27","BORDEN AWOS","611B002","2018-01-25 08:00","2018","01","25","08:00","-12.1","","-13.3","","91","","","","","","0","","14.5","","100.38","","","","","","NA"
"-79.91","44.27","BORDEN AWOS","611B002","2018-01-25 09:00","2018","01","25","09:00","-10.8","","-13.2","","83","","","","","","0","","14.5","","100.41","","","","","","NA"
"-79.91","44.27","BORDEN AWOS","611B002","2018-01-25 10:00","2018","01","25","10:00","-9.3","","-13.9","","69","","","","","","0","","14.5","","100.43","","","","","","NA"
"-79.91","44.27","BORDEN AWOS","611B002","2018-01-25 11:00","2018","01","25","11:00","-7.6","","-13.3","","64","","","","","","0","","14.5","","100.45","","","","","","NA"
"-79.91","44.27","BORDEN AWOS","611B002","2018-01-25 12:00","2018","01","25","12:00","-6.4","","-12.9","","60","","","","15","","4","","14.5","","100.39","","","","-8","","NA"
"-79.91","44.27","BORDEN AWOS","611B002","2018-01-25 13:00","2018","01","25","13:00","-5.5","","-13.4","","54","","","","14","","6","","14.5","","100.35","","","","-8","","NA"
"-79.91","44.27","BORDEN AWOS","611B002","2018-01-25 14:00","2018","01","25","14:00","-4.8","","-13.4","","51","","","","15","","4","","14.5","","100.32","","","","-7","","NA"
"-79.91","44.27","BORDEN AWOS","611B002","2018-01-25 15:00","2018","01","25","15:00","-4.6","","-9.8","","67","","","","21","","6","","14.5","","100.29","","","","-7","","NA"
"-79.91","44.27","BORDEN AWOS","611B002","2018-01-25 16:00","2018","01","25","16:00","-4.8","","-8.5","","75","","","","21","","7","","14.5","","100.37","","","","-8","","Snow"
"-79.91","44.27","BORDEN AWOS","611B002","2018-01-25 17:00","2018","01","25","17:00","-4.9","","-8.0","","79","","","","19","","4","","14.5","","100.38","","","","-7","","Snow"
"-79.91","44.27","BORDEN AWOS","611B002","2018-01-25 18:00","2018","01","25","18:00","-5.0","","-7.4","","83","","","","","","0","","14.5","","100.42","","","","","","NA"
"-79.91","44.27","BORDEN AWOS","611B002","2018-01-25 19:00","2018","01","25","19:00","-4.7","","-7.0","","84","","","","","","0","","14.5","","100.45","","","","","","Snow"
"-79.91","44.27","BORDEN AWOS","611B002","2018-01-25 20:00","2018","01","25","20:00","-4.6","","-6.8","","85","","","","17","","4","","14.5","","100.47","","","","-6","","Snow"
"-79.91","44.27","BORDEN AWOS","611B002","2018-01-25 21:00","2018","01","25","21:00","-4.7","","-7.0","","84","","","","18","","9","","14.5","","100.47","","","","-9","","NA"
"-79.91","44.27","BORDEN AWOS","611B002","2018-01-25 22:00","2018","01","25","22:00","-4.9","","-6.8","","87","","","","18","","6","","14.5","","100.49","","","","-8","","NA"
"-79.91","44.27","BORDEN AWOS","611B002","2018-01-25 23:00","2018","01","25","23:00","-4.2","","-6.4","","85","","","","18","","6","","14.5","","100.52","","","","-7","","NA"
"-79.91","44.27","BORDEN AWOS","611B002","2018-01-26 00:00","2018","01","26","00:00","-4.3","","-6.2","","87","","","","18","","9","","14.5","","100.54","","","","-8","","NA"
"-79.91","44.27","BORDEN AWOS","611B002","2018-01-26 01:00","2018","01","26","01:00","-5.9","","-7.4","","89","","","","","","0","","14.5","","100.51","","","","","","NA"
"-79.91","44.27","BORDEN AWOS","611B002","2018-01-26 02:00","2018","01","26","02:00","-4.1","","-5.4","","91","","","","","","0","","14.5","","100.50","","","","","","NA"
"-79.91","44.27","BORDEN AWOS","611B002","2018-01-26 03:00","2018","01","26","03:00","-3.5","","-5.5","","86","","","","15","","4","","14.5","","100.47","","","","-5","","NA"
"-79.91","44.27","BORDEN AWOS","611B002","2018-01-26 04:00","2018","01","26","04:00","-3.3","","-5.3","","86","","","","15","","11","","14.5","","100.41","","","","-8","","NA"
"-79.91","44.27","BORDEN AWOS","611B002","2018-01-26 05:00","2018","01","26","05:00","-4.0","","-6.0","","86","","","","14","","9","","14.5","","100.38","","","","-8","","NA"
"-79.91","44.27","BORDEN AWOS","611B002","2018-01-26 06:00","2018","01","26","06:00","-5.3","","-6.5","","91","","","","15","","4","","14.5","","100.41","","","","-7","","NA"
"-79.91","44.27","BORDEN AWOS","611B002","2018-01-26 07:00","2018","01","26","07:00","-4.6","","-6.0","","90","","","","14","","9","","14.5","","100.41","","","","-8","","NA"
"-79.91","44.27","BORDEN AWOS","611B002","2018-01-26 08:00","2018","01","26","08:00","-4.8","","-6.2","","90","","","","15","","9","","14.5","","100.40","","","","-9","","NA"
"-79.91","44.27","BORDEN AWOS","611B002","2018-01-26 09:00","2018","01","26","09:00","-3.3","","-5.7","","83","","","","15","","7","","14.5","","100.36","","","","-6","","NA"
"-79.91","44.27","BORDEN AWOS","611B002","2018-01-26 10:00","2018","01","26","10:00","-1.4","","-5.0","","77","","","","15","","22","","14.5","","100.31","","","","-7","","NA"
"-79.91","44.27","BORDEN AWOS","611B002","2018-01-26 11:00","2018","01","26","11:00","0.1","","-4.4","","72","","","","14","","22","","14.5","","100.23","","","","","","NA"
"-79.91","44.27","BORDEN AWOS","611B002","2018-01-26 12:00","2018","01","26","12:00","1.1","","-3.8","","70","","","","15","","24","","14.5","","100.10","","","","","","NA"
"-79.91","44.27","BORDEN AWOS","611B002","2018-01-26 13:00","2018","01","26","13:00","2.3","","-3.2","","67","","","","14","","26","","14.5","","99.98","","","","","","NA"
"-79.91","44.27","BORDEN AWOS","611B002","2018-01-26 14:00","2018","01","26","14:00","2.8","","-2.8","","67","","","","14","","22","","14.5","","99.87","","","","","","NA"
"-79.91","44.27","BORDEN AWOS","611B002","2018-01-26 15:00","2018","01","26","15:00","3.1","","-2.7","","66","","","","15","","24","","14.5","","99.83","","","","","","NA"
"-79.91","44.27","BORDEN AWOS","611B002","2018-01-26 16:00","2018","01","26","16:00","2.3","","-2.9","","69","","","","16","","24","","14.5","","99.79","","","","","","NA"
"-79.91","44.27","BORDEN AWOS","611B002","2018-01-26 17:00","2018","01","26","17:00","1.3","","-3.0","","73","","","","16","","13","","14.5","","99.72","","","","","","NA"
"-79.91","44.27","BORDEN AWOS","611B002","2018-01-26 18:00","2018","01","26","18:00","0.9","","-2.9","","76","","","","17","","19","","14.5","","99.71","","","","","","NA"
"-79.91","44.27","BORDEN AWOS","611B002","2018-01-26 19:00","2018","01","26","19:00","0.6","","-2.7","","79","","","","16","","19","","14.5","","99.69","","","","","","NA"
"-79.91","44.27","BORDEN AWOS","611B002","2018-01-26 20:00","2018","01","26","20:00","0.2","","-2.4","","83","","","","18","","15","","14.5","","99.65","","","","","","NA"
"-79.91","44.27","BORDEN AWOS","611B002","2018-01-26 21:00","2018","01","26","21:00","0.7","","-1.8","","83","","","","15","","17","","14.5","","99.50","","","","","","NA"
"-79.91","44.27","BORDEN AWOS","611B002","2018-01-26 22:00","2018","01","26","22:00","0.1","","-2.0","","86","","","","14","","6","","14.5","","99.44","","","","","","NA"
"-79.91","44.27","BORDEN AWOS","611B002","2018-01-26 23:00","2018","01","26","23:00","5.1","","-1.3","","63","","","","21","","20","","14.5","","99.36","","","","","","NA"
"-79.91","44.27","BORDEN AWOS","611B002","2018-01-27 00:00","2018","01","27","00:00","6.4","","-1.6","","57","","","","19","","15","","14.5","","99.29","","","","","","NA"
"-79.91","44.27","BORDEN AWOS","611B002","2018-01-27 01:00","2018","01","27","01:00","6.8","","-1.9","","54","","","","19","","17","","14.5","","99.28","","","","","","NA"
"-79.91","44.27","BORDEN AWOS","611B002","2018-01-27 02:00","2018","01","27","02:00","7.0","","-2.6","","50","","","","20","","17","","14.5","","99.21","","","","","","NA"
"-79.91","44.27","BORDEN AWOS","611B002","2018-01-27 03:00","2018","01","27","03:00","6.7","","-2.6","","52","","","","18","","20","","14.5","","99.15","","","","","","NA"
"-79.91","44.27","BORDEN AWOS","611B002","2018-01-27 04:00","2018","01","27","04:00","6.4","","-2.3","","54","","","","20","","13","","14.5","","99.07","","","","","","NA"
"-79.91","44.27","BORDEN AWOS","611B002","2018-01-27 05:00","2018","01","27","05:00","7.1","","-2.5","","50","","","","19","","20","","14.5","","99.02","","","","","","NA"
"-79.91","44.27","BORDEN AWOS","611B002","2018-01-27 06:00","2018","01","27","06:00","7.3","","-2.5","","50","","","","18","","20","","14.5","","98.96","","","","","","NA"
"-79.91","44.27","BORDEN AWOS","611B002","2018-01-27 07:00","2018","01","27","07:00","7.0","","-1.7","","54","","","","19","","22","","14.5","","98.96","","","","","","NA"
"-79.91","44.27","BORDEN AWOS","611B002","2018-01-27 08:00","2018","01","27","08:00","6.8","","-2.0","","53","","","","19","","26","","14.5","","98.91","","","","","","NA"
"-79.91","44.27","BORDEN AWOS","611B002","2018-01-27 09:00","2018","01","27","09:00","6.9","","-1.4","","56","","","","19","","19","","14.5","","98.93","","","","","","NA"
"-79.91","44.27","BORDEN AWOS","611B002","2018-01-27 10:00","2018","01","27","10:00","7.5","","-0.9","","55","","","","19","","22","","14.5","","98.91","","","","","","NA"
"-79.91","44.27","BORDEN AWOS","611B002","2018-01-27 11:00","2018","01","27","11:00","7.7","","-0.1","","58","","","","19","","26","","14.5","","98.87","","","","","","NA"
"-79.91","44.27","BORDEN AWOS","611B002","2018-01-27 12:00","2018","01","27","12:00","8.1","","1.1","","61","","","","16","","20","","14.5","","98.80","","","","","","NA"
"-79.91","44.27","BORDEN AWOS","611B002","2018-01-27 13:00","2018","01","27","13:00","8.8","","2.7","","66","","","","24","","17","","14.5","","98.71","","","","","","NA"
"-79.91","44.27","BORDEN AWOS","611B002","2018-01-27 14:00","2018","01","27","14:00","7.6","","3.2","","74","","","","22","","31","","14.5","","98.60","","","","","","NA"
"-79.91","44.27","BORDEN AWOS","611B002","2018-01-27 15:00","2018","01","27","15:00","7.6","","3.7","","76","","","","22","","37","","14.5","","98.65","","","","","","NA"
"-79.91","44.27","BORDEN AWOS","611B002","2018-01-27 16:00","2018","01","27","16:00","7.4","","3.8","","78","","","","23","","22","","14.5","","98.73","","","","","","NA"
"-79.91","44.27","BORDEN AWOS","611B002","2018-01-27 17:00","2018","01","27","17:00","6.9","","3.9","","81","","","","22","","19","","14.5","","98.77","","","","","","NA"
"-79.91","44.27","BORDEN AWOS","611B002","2018-01-27 18:00","2018","01","27","18:00","5.8","","3.7","","86","","","","24","","15","","14.5","","98.82","","","","","","NA"
"-79.91","44.27","BORDEN AWOS","611B002","2018-01-27 19:00","2018","01","27","19:00","5.7","","0.8","","71","","","","28","","19","","14.5","","98.95","","","","","","NA"
"-79.91","44.27","BORDEN AWOS","611B002","2018-01-27 20:00","2018","01","27","20:00","4.0","","-0.4","","73","","","","33","","6","","14.5","","99.08","","","","","","NA"
"-79.91","44.27","BORDEN AWOS","611B002","2018-01-27 21:00","2018","01","27","21:00","3.1","","-1.4","","72","","","","33","","4","","14.5","","99.17","","","","","","NA"
"-79.91","44.27","BORDEN AWOS","611B002","2018-01-27 22:00","2018","01","27","22:00","3.0","","-2.2","","69","","","","27","","11","","14.5","","99.22","","","","","","NA"
"-79.91","44.27","BORDEN AWOS","611B002","2018-01-27 23:00","2018","01","27","23:00","2.6","","-2.9","","67","","","","26","","4","","14.5","","99.25","","","","","","NA"
"-79.91","44.27","BORDEN AWOS","611B002","2018-01-28 00:00","2018","01","28","00:00","1.4","","-3.3","","71","","","","","","0","","14.5","","99.28","","","","","","NA"
"-79.91","44.27","BORDEN AWOS","611B002","2018-01-28 01:00","2018","01","28","01:00","1.6","","-3.2","","70","","","","29","","6","","14.5","","99.31","","","","","","NA"
"-79.91","44.27","BORDEN AWOS","611B002","2018-01-28 02:00","2018","01","28","02:00","1.2","","-3.8","","69","","","","","","0","","14.5","","99.34","","","","","","NA"
"-79.91","44.27","BORDEN AWOS","611B002","2018-01-28 03:00","2018","01","28","03:00","0.8","","-3.9","","71","","","","","","0","","14.5","","99.40","","","","","","NA"
"-79.91","44.27","BORDEN AWOS","611B002","2018-01-28 04:00","2018","01","28","04:00","0.7","","-4.0","","71","","","","","","0","","14.5","","99.45","","","","","","NA"
"-79.91","44.27","BORDEN AWOS","611B002","2018-01-28 05:00","2018","01","28","05:00","0.6","","-4.0","","71","","","","","","0","","14.5","","99.50","","","","","","NA"
"-79.91","44.27","BORDEN AWOS","611B002","2018-01-28 06:00","2018","01","28","06:00","-0.1","","-3.9","","76","","","","30","","9","","14.5","","99.58","","","","-3","","NA"
"-79.91","44.27","BORDEN AWOS","611B002","2018-01-28 07:00","2018","01","28","07:00","-0.2","","-3.8","","77","","","","28","","7","","14.5","","99.60","","","","-3","","NA"
"-79.91","44.27","BORDEN AWOS","611B002","2018-01-28 08:00","2018","01","28","08:00","-0.5","","-3.7","","79","","","","","","0","","14.5","","99.67","","","","","","NA"
"-79.91","44.27","BORDEN AWOS","611B002","2018-01-28 09:00","2018","01","28","09:00","1.5","","-2.7","","74","","","","","","0","","14.5","","99.73","","","","","","NA"
"-79.91","44.27","BORDEN AWOS","611B002","2018-01-28 10:00","2018","01","28","10:00"
"-79.91","44.27","BORDEN AWOS","611B002","2018-01-28 11:00","2018","01","28","11:00","1.3","","-2.7","","75","","","","32","","6","","14.5","","99.84","","","","","","NA"
"-79.91","44.27","BORDEN AWOS","611B002","2018-01-28 12:00","2018","01","28","12:00","0.8","","-3.2","","75","","","","34","","11","","14.5","","99.87","","","","","","NA"
"-79.91","44.27","BORDEN AWOS","611B002","2018-01-28 13:00","2018","01","28","13:00","-0.3","","-5.0","","71","","","","34","","19","","14.5","","99.87","","","","-5","","NA"
"-79.91","44.27","BORDEN AWOS","611B002","2018-01-28 14:00","2018","01","28","14:00","-0.2","","-5.5","","67","","","","33","","11","","14.5","","99.87","","","","-4","","NA"
"-79.91","44.27","BORDEN AWOS","611B002","2018-01-28 15:00","2018","01","28","15:00","-0.8","","-5.3","","72","","","","34","","13","","14.5","","99.90","","","","-5","","NA"
"-79.91","44.27","BORDEN AWOS","611B002","2018-01-28 16:00","2018","01","28","16:00","-1.0","","-5.4","","72","","","","1","","13","","14.5","","99.95","","","","-5","","NA"
"-79.91","44.27","BORDEN AWOS","611B002","2018-01-28 17:00","2018","01","28","17:00","-1.3","","-5.6","","73","","","","35","","6","","14.5","","99.97","","","","-4","","NA"
"-79.91","44.27","BORDEN AWOS","611B002","2018-01-28 18:00","2018","01","28","18:00","-1.6","","-5.3","","76","","","","","","0","","14.5","","100.01","","","","","","NA"
"-79.91","44.27","BORDEN AWOS","611B002","2018-01-28 19:00","2018","01","28","19:00","-1.5","","-5.3","","75","","","","","","0","","14.5","","100.07","","","","","","NA"
"-79.91","44.27","BORDEN AWOS","611B002","2018-01-28 20:00","2018","01","28","20:00","-1.5","","-5.5","","74","","","","","","0","","14.5","","100.11","","","","","","NA"
"-79.91","44.27","BORDEN AWOS","611B002","2018-01-28 21:00","2018","01","28","21:00","-1.7","","-6.8","","68","","","","","","0","","14.5","","100.09","","","","","","NA"
"-79.91","44.27","BORDEN AWOS","611B002","2018-01-28 22:00","2018","01","28","22:00","-2.8","","-7.4","","71","","","","","","0","","14.5","","100.08","","","","","","NA"
"-79.91","44.27","BORDEN AWOS","611B002","2018-01-28 23:00","2018","01","28","23:00","-3.0","","-7.1","","73","","","","","","0","","14.5","","100.07","","","","","","NA"
"-79.91","44.27","BORDEN AWOS","611B002","2018-01-29 00:00","2018","01","29","00:00","-3.5","","-7.6","","73","","","","","","0","","14.5","","100.06","","","","","","NA"
"-79.91","44.27","BORDEN AWOS","611B002","2018-01-29 01:00","2018","01","29","01:00","-4.6","","-7.6","","80","","","","","","0","","14.5","","100.06","","","","","","NA"
"-79.91","44.27","BORDEN AWOS","611B002","2018-01-29 02:00","2018","01","29","02:00","-3.6","","-7.4","","75","","","","","","0","","14.5","","100.07","","","","","","NA"
"-79.91","44.27","BORDEN AWOS","611B002","2018-01-29 03:00","2018","01","29","03:00","-3.6","","-7.6","","74","","","","","","0","","14.5","","100.09","","","","","","NA"
"-79.91","44.27","BORDEN AWOS","611B002","2018-01-29 04:00","2018","01","29","04:00","-3.8","","-7.8","","74","","","","","","0","","14.5","","100.04","","","","","","NA"
"-79.91","44.27","BORDEN AWOS","611B002","2018-01-29 05:00","2018","01","29","05:00","-4.0","","-8.2","","73","","","","","","0","","14.5","","100.00","","","","","","NA"
"-79.91","44.27","BORDEN AWOS","611B002","2018-01-29 06:00","2018","01","29","06:00","-4.0","","-8.0","","74","","","","","","0","","14.5","","99.97","","","","","","NA"
"-79.91","44.27","BORDEN AWOS","611B002","2018-01-29 07:00","2018","01","29","07:00","-4.0","","-7.8","","75","","","","","","0","","14.5","","99.96","","","","","","NA"
"-79.91","44.27","BORDEN AWOS","611B002","2018-01-29 08:00","2018","01","29","08:00","-4.5","","-9.6","","68","","","","","","0","","14.5","","99.97","","","","","","NA"
"-79.91","44.27","BORDEN AWOS","611B002","2018-01-29 09:00","2018","01","29","09:00","-4.7","","-10.0","","66","","","","5","","4","","14.5","","100.00","","","","-6","","NA"
"-79.91","44.27","BORDEN AWOS","611B002","2018-01-29 10:00","2018","01","29","10:00","-5.0","","-10.1","","67","","","","","","0","","14.5","","100.01","","","","","","Snow"
"-79.91","44.27","BORDEN AWOS","611B002","2018-01-29 11:00","2018","01","29","11:00","-5.3","","-8.7","","77","","","","5","","7","","6.4","","99.99","","","","-9","","Snow"
"-79.91","44.27","BORDEN AWOS","611B002","2018-01-29 12:00","2018","01","29","12:00","-5.0","","-8.2","","78","","","","3","","4","","14.5","","99.91","","","","-7","","NA"
"-79.91","44.27","BORDEN AWOS","611B002","2018-01-29 13:00","2018","01","29","13:00","-4.6","","-6.7","","85","","","","36","","4","","4.0","","99.81","","","","-6","","Snow"
"-79.91","44.27","BORDEN AWOS","611B002","2018-01-29 14:00","2018","01","29","14:00","-4.5","","-6.7","","85","","","","2","","9","","3.2","","99.72","","","","-8","","Snow"
"-79.91","44.27","BORDEN AWOS","611B002","2018-01-29 15:00","2018","01","29","15:00","-4.3","","-7.2","","80","","","","36","","11","","6.4","","99.65","","","","-9","","Snow"
"-79.91","44.27","BORDEN AWOS","611B002","2018-01-29 16:00","2018","01","29","16:00","-4.5","","-7.0","","83","","","","1","","7","","4.8","","99.64","","","","-8","","Snow"
"-79.91","44.27","BORDEN AWOS","611B002","2018-01-29 17:00","2018","01","29","17:00","-5.1","","-6.5","","90","","","","35","","11","","8.0","","99.62","","","","-10","","Snow"
"-79.91","44.27","BORDEN AWOS","611B002","2018-01-29 18:00","2018","01","29","18:00","-5.7","","-6.8","","92","","","","","","0","","12.9","","99.64","","","","","","Snow"
"-79.91","44.27","BORDEN AWOS","611B002","2018-01-29 19:00","2018","01","29","19:00","-6.1","","-7.3","","91","","","","35","","13","","4.0","","99.65","","","","-11","","Snow"
"-79.91","44.27","BORDEN AWOS","611B002","2018-01-29 20:00","2018","01","29","20:00","-6.6","","-7.8","","91","","","","35","","9","","2.3","","99.65","","","","-11","","Snow"
"-79.91","44.27","BORDEN AWOS","611B002","2018-01-29 21:00","2018","01","29","21:00","-6.6","","-7.8","","91","","","","34","","6","","3.1","","99.63","","","","-10","","Snow"
"-79.91","44.27","BORDEN AWOS","611B002","2018-01-29 22:00","2018","01","29","22:00","-6.8","","-8.0","","91","","","","36","","15","","3.4","","99.60","","","","-13","","Snow"
"-79.91","44.27","BORDEN AWOS","611B002","2018-01-29 23:00","2018","01","29","23:00","-7.0","","-8.3","","90","","","","34","","7","","4.8","","99.57","","","","-11","","Snow"
"-79.91","44.27","BORDEN AWOS","611B002","2018-01-30 00:00","2018","01","30","00:00","-8.0","","-9.5","","89","","","","33","","17","","4.0","","99.57","","","","-15","","Snow"
"-79.91","44.27","BORDEN AWOS","611B002","2018-01-30 01:00","2018","01","30","01:00","-8.6","","-10.7","","85","","","","35","","17","","6.4","","99.53","","","","-15","","Snow"
"-79.91","44.27","BORDEN AWOS","611B002","2018-01-30 02:00","2018","01","30","02:00","-9.3","","-11.5","","84","","","","34","","11","","6.4","","99.54","","","","-15","","Snow"
"-79.91","44.27","BORDEN AWOS","611B002","2018-01-30 03:00","2018","01","30","03:00","-9.9","","-11.6","","87","","","","32","","11","","4.0","","99.56","","","","-15","","Snow"
"-79.91","44.27","BORDEN AWOS","611B002","2018-01-30 04:00","2018","01","30","04:00","-10.5","","-12.3","","87","","","","33","","15","","3.2","","99.57","","","","-17","","Snow"
"-79.91","44.27","BORDEN AWOS","611B002","2018-01-30 05:00","2018","01","30","05:00","-11.0","","-12.6","","88","","","","33","","13","","3.1","","99.58","","","","-17","","Snow"
"-79.91","44.27","BORDEN AWOS","611B002","2018-01-30 06:00","2018","01","30","06:00","-11.5","","-13.4","","86","","","","32","","15","","3.2","","99.63","","","","-19","","Snow"
"-79.91","44.27","BORDEN AWOS","611B002","2018-01-30 07:00","2018","01","30","07:00","-11.9","","-13.6","","87","","","","33","","9","","1.9","","99.71","","","","-17","","Snow"
"-79.91","44.27","BORDEN AWOS","611B002","2018-01-30 08:00","2018","01","30","08:00","-12.2","","-13.8","","88","","","","34","","11","","1.4","","99.77","","","","-18","","Snow"
"-79.91","44.27","BORDEN AWOS","611B002","2018-01-30 09:00","2018","01","30","09:00","-12.2","","-13.7","","89","","","","33","","13","","1.4","","99.86","","","","-19","","Snow"
"-79.91","44.27","BORDEN AWOS","611B002","2018-01-30 10:00","2018","01","30","10:00","-12.6","","-14.6","","85","","","","35","","22","","1.9","","99.92","","","","-22","","Snow"
"-79.91","44.27","BORDEN AWOS","611B002","2018-01-30 11:00","2018","01","30","11:00","-12.2","","-14.6","","82","","","","34","","13","","2.3","","99.93","","","","-19","","Snow"
"-79.91","44.27","BORDEN AWOS","611B002","2018-01-30 12:00","2018","01","30","12:00"
"-79.91","44.27","BORDEN AWOS","611B002","2018-01-30 13:00","2018","01","30","13:00","-12.0","","-15.4","","76","","","","33","","22","","11.3","","99.79","","","","-21","","Snow"
"-79.91","44.27","BORDEN AWOS","611B002","2018-01-30 14:00","2018","01","30","14:00","-11.1","","-14.9","","74","","","","30","","24","","14.5","","99.79","","","","-20","","NA"
"-79.91","44.27","BORDEN AWOS","611B002","2018-01-30 15:00","2018","01","30","15:00","-10.9","","-14.6","","74","","","","31","","26","","9.7","","99.83","","","","-20","","Snow"
"-79.91","44.27","BORDEN AWOS","611B002","2018-01-30 16:00","2018","01","30","16:00","-11.2","","-14.5","","77","","","","31","","19","","14.5","","99.87","","","","-19","","NA"
"-79.91","44.27","BORDEN AWOS","611B002","2018-01-30 17:00","2018","01","30","17:00","-11.8","","-15.6","","73","","","","31","","15","","14.5","","99.89","","","","-19","","NA"
"-79.91","44.27","BORDEN AWOS","611B002","2018-01-30 18:00","2018","01","30","18:00","-12.7","","-16.2","","75","","","","30","","6","","14.5","","99.95","","","","-17","","NA"
"-79.91","44.27","BORDEN AWOS","611B002","2018-01-30 19:00","2018","01","30","19:00","-13.2","","-16.7","","75","","","","","","0","","14.5","","99.98","","","","","","NA"
"-79.91","44.27","BORDEN AWOS","611B002","2018-01-30 20:00","2018","01","30","20:00","-14.9","","-17.5","","81","","","","","","0","","14.5","","99.94","","","","","","NA"
"-79.91","44.27","BORDEN AWOS","611B002","2018-01-30 21:00","2018","01","30","21:00","-16.7","","-19.1","","82","","","","","","0","","14.5","","99.91","","","","","","NA"
"-79.91","44.27","BORDEN AWOS","611B002","2018-01-30 22:00","2018","01","30","22:00","-19.1","","-19.8","","94","","","","","","0","","14.5","","99.83","","","","","","NA"
"-79.91","44.27","BORDEN AWOS","611B002","2018-01-30 23:00","2018","01","30","23:00","-20.3","","-21.0","","94","","","","","","0","","14.5","","99.80","","","","","","NA"
"-79.91","44.27","BORDEN AWOS","611B002","2018-01-31 00:00","2018","01","31","00:00","-20.6","","-21.3","","94","","","","","","0","","14.5","","99.76","","","","","","NA"
"-79.91","44.27","BORDEN AWOS","611B002","2018-01-31 01:00","2018","01","31","01:00","-20.3","","-24.4","","70","","","","","","0","","14.5","","99.69","","","","","","NA"
"-79.91","44.27","BORDEN AWOS","611B002","2018-01-31 02:00","2018","01","31","02:00","-18.1","","-20.8","","79","","","","","","0","","14.5","","99.65","","","","","","NA"
"-79.91","44.27","BORDEN AWOS","611B002","2018-01-31 03:00","2018","01","31","03:00","-14.9","","-16.7","","86","","","","","","0","","14.5","","99.58","","","","","","NA"
"-79.91","44.27","BORDEN AWOS","611B002","2018-01-31 04:00","2018","01","31","04:00","-16.5","","-18.8","","82","","","","","","0","","14.5","","99.53","","","","","","NA"
"-79.91","44.27","BORDEN AWOS","611B002","2018-01-31 05:00","2018","01","31","05:00","-14.1","","-16.3","","83","","","","14","","15","","14.5","","99.32","","","","-22","","NA"
"-79.91","44.27","BORDEN AWOS","611B002","2018-01-31 06:00","2018","01","31","06:00","-12.5","","","M","","M","","","15","","19","","14.5","","99.16","","","","-21","","NA"
"-79.91","44.27","BORDEN AWOS","611B002","2018-01-31 07:00","2018","01","31","07:00","-10.9","","-13.4","","82","","","","15","","17","","14.5","","99.08","","","","-18","","NA"
"-79.91","44.27","BORDEN AWOS","611B002","2018-01-31 08:00","2018","01","31","08:00","-10.0","","-12.2","","84","","","","16","","22","","6.4","","98.96","","","","-18","","Snow"
"-79.91","44.27","BORDEN AWOS","611B002","2018-01-31 09:00","2018","01","31","09:00","-9.0","","-10.6","","88","","","","16","","26","","2.3","","98.80","","","","-18","","Snow"
"-79.91","44.27","BORDEN AWOS","611B002","2018-01-31 10:00","2018","01","31","10:00","-7.9","","-9.2","","90","","","","16","","24","","1.4","","98.61","","","","-16","","Snow"
"-79.91","44.27","BORDEN AWOS","611B002","2018-01-31 11:00","2018","01","31","11:00","-6.8","","-8.2","","90","","","","17","","28","","1.4","","98.46","","","","-15","","Snow"
"-79.91","44.27","BORDEN AWOS","611B002","2018-01-31 12:00","2018","01","31","12:00","-5.7","","-8.0","","84","","","","17","","22","","14.5","","98.28","","","","-13","","NA"
"-79.91","44.27","BORDEN AWOS","611B002","2018-01-31 13:00","2018","01","31","13:00","-5.1","","-7.3","","85","","","","16","","26","","14.5","","98.09","","","","-13","","NA"
"-79.91","44.27","BORDEN AWOS","611B002","2018-01-31 14:00","2018","01","31","14:00","-3.6","","-7.5","","74","","","","16","","22","","14.5","","97.87","","","","-10","","NA"
"-79.91","44.27","BORDEN AWOS","611B002","2018-01-31 15:00","2018","01","31","15:00","-1.9","","-7.7","","65","","","","19","","17","","14.5","","97.77","","","","-7","","NA"
"-79.91","44.27","BORDEN AWOS","611B002","2018-01-31 16:00","2018","01","31","16:00","-1.3","","-7.4","","63","","","","19","","19","","14.5","","97.71","","","","-7","","NA"
"-79.91","44.27","BORDEN AWOS","611B002","2018-01-31 17:00","2018","01","31","17:00","-0.9","","-6.4","","66","","","","19","","15","","14.5","","97.69","","","","-6","","NA"
"-79.91","44.27","BORDEN AWOS","611B002","2018-01-31 18:00","2018","01","31","18:00","-0.8","","-5.6","","70","","","","20","","11","","14.5","","97.71","","","","-5","","NA"
"-79.91","44.27","BORDEN AWOS","611B002","2018-01-31 19:00","2018","01","31","19:00","-0.5","","-4.8","","73","","","","19","","11","","14.5","","97.76","","","","-4","","NA"
"-79.91","44.27","BORDEN AWOS","611B002","2018-01-31 20:00","2018","01","31","20:00","0.4","","-3.8","","73","","","","19","","11","","14.5","","97.79","","","","","","NA"
"-79.91","44.27","BORDEN AWOS","611B002","2018-01-31 21:00","2018","01","31","21:00","0.9","","-3.5","","72","","","","22","","9","","14.5","","97.83","","","","","","NA"
"-79.91","44.27","BORDEN AWOS","611B002","2018-01-31 22:00","2018","01","31","22:00","0.9","","-3.1","","75","","","","","","0","","14.5","","97.82","","","","","","NA"
"-79.91","44.27","BORDEN AWOS","611B002","2018-01-31 23:00","2018","01","31","23:00","1.3","","-2.7","","75","","","","24","","9","","14.5","","97.85","","","","","","NA"
