"Longitude (x)","Latitude (y)","Station Name","Climate ID","Date/Time (LST)","Year","Month","Day","Time (LST)","Temp (°C)","Temp Flag","Dew Point Temp (°C)","Dew Point Temp Flag","Rel Hum (%)","Rel Hum Flag","Precip. Amount (mm)","Precip. Amount Flag","Wind Dir (10s deg)","Wind Dir Flag","Wind Spd (km/h)","Wind Spd Flag","Visibility (km)","Visibility Flag","Stn Press (kPa)","Stn Press Flag","Hmdx","Hmdx Flag","Wind Chill","Wind Chill Flag","Weather"
"-89.80","68.54","KUGAARUK A","2303092","2012-02-01 00:00","2012","02","01","00:00"
"-89.80","68.54","KUGAARUK A","2303092","2012-02-01 01:00","2012","02","01","01:00"
"-89.80","68.54","KUGAARUK A","2303092","2012-02-01 02:00","2012","02","01","02:00"
"-89.80","68.54","KUGAARUK A","2303092","2012-02-01 03:00","2012","02","01","03:00"
"-89.80","68.54","KUGAARUK A","2303092","2012-02-01 04:00","2012","02","01","04:00"
"-89.80","68.54","KUGAARUK A","2303092","2012-02-01 05:00","2012","02","01","05:00"
"-89.80","68.54","KUGAARUK A","2303092","2012-02-01 06:00","2012","02","01","06:00","-31.2","","-36.4","","60","","","","","","0","","","","101.26","","","","","","Ice Crystals"
"-89.80","68.54","KUGAARUK A","2303092","2012-02-01 07:00","2012","02","01","07:00","-30.1","","-35.0","","62","","","","","","0","","","","101.25","","","","","","Snow"
"-89.80","68.54","KUGAARUK A","2303092","2012-02-01 08:00","2012","02","01","08:00","-28.5","","-33.0","","65","","","","36","","4","","","","101.25","","","","-33","","Snow"
"-89.80","68.54","KUGAARUK A","2303092","2012-02-01 09:00","2012","02","01","09:00","-24.4","","-28.1","","71","","","","21","","15","","","","101.26","","","","-35","","Snow"
"-89.80","68.54","KUGAARUK A","2303092","2012-02-01 10:00","2012","02","01","10:00","-20.7","","-23.8","","76","","","","21","","19","","","","101.26","","","","-31","","Snow"
"-89.80","68.54","KUGAARUK A","2303092","2012-02-01 11:00","2012","02","01","11:00","-20.1","","-23.1","","77","","","","21","","22","","","","101.27","","","","-31","","Snow"
"-89.80","68.54","KUGAARUK A","2303092","2012-02-01 12:00","2012","02","01","12:00","-20.4","","-23.5","","76","","","","21","","22","","","","101.29","","","","-31","","Snow"
"-89.80","68.54","KUGAARUK A","2303092","2012-02-01 13:00","2012","02","01","13:00","-20.1","","-23.1","","77","","","","21","","22","","","","101.34","","","","-31","","Snow"
"-89.80","68.54","KUGAARUK A","2303092","2012-02-01 14:00","2012","02","01","14:00","-20.5","","-23.6","","76","","","","21","","15","","","","101.40","","","","-30","","Snow"
"-89.80","68.54","KUGAARUK A","2303092","2012-02-01 15:00","2012","02","01","15:00","-21.1","","-24.3","","75","","","","21","","19","","","","101.44","","","","-32","","Ice Crystals"
"-89.80","68.54","KUGAARUK A","2303092","2012-02-01 16:00","2012","02","01","16:00","-22.0","","-24.4","","81","","","","22","","19","","","","101.50","","","","-33","","Ice Crystals"
"-89.80","68.54","KUGAARUK A","2303092","2012-02-01 17:00","2012","02","01","17:00","-21.8","","-25.1","","75","","","","21","","19","","","","101.54","","","","-32","","Ice Crystals"
"-89.80","68.54","KUGAARUK A","2303092","2012-02-01 18:00","2012","02","01","18:00"
"-89.80","68.54","KUGAARUK A","2303092","2012-02-01 19:00","2012","02","01","19:00"
"-89.80","68.54","KUGAARUK A","2303092","2012-02-01 20:00","2012","02","01","20:00"
"-89.80","68.54","KUGAARUK A","2303092","2012-02-01 21:00","2012","02","01","21:00"
"-89.80","68.54","KUGAARUK A","2303092","2012-02-01 22:00","2012","02","01","22:00"
"-89.80","68.54","KUGAARUK A","2303092","2012-02-01 23:00","2012","02","01","23:00"
"-89.80","68.54","KUGAARUK A","2303092","2012-02-02 00:00","2012","02","02","00:00"
"-89.80","68.54","KUGAARUK A","2303092","2012-02-02 01:00","2012","02","02","01:00"
"-89.80","68.54","KUGAARUK A","2303092","2012-02-02 02:00","2012","02","02","02:00"
"-89.80","68.54","KUGAARUK A","2303092","2012-02-02 03:00","2012","02","02","03:00"
"-89.80","68.54","KUGAARUK A","2303092","2012-02-02 04:00","2012","02","02","04:00"
"-89.80","68.54","KUGAARUK A","2303092","2012-02-02 05:00","2012","02","02","05:00"
"-89.80","68.54","KUGAARUK A","2303092","2012-02-02 06:00","2012","02","02","06:00","-24.9","","-28.7","","71","","","","25","","6","","","","101.98","","","","-31","","Ice Crystals"
"-89.80","68.54","KUGAARUK A","2303092","2012-02-02 07:00","2012","02","02","07:00","-24.2","","-27.9","","71","","","","22","","15","","","","101.98","","","","-34","","Ice Crystals"
"-89.80","68.54","KUGAARUK A","2303092","2012-02-02 08:00","2012","02","02","08:00","-24.0","","-28.8","","65","","","","22","","11","","","","101.97","","","","-32","","Ice Crystals"
"-89.80","68.54","KUGAARUK A","2303092","2012-02-02 09:00","2012","02","02","09:00","-24.0","","-28.8","","65","","","","23","","11","","","","101.99","","","","-32","","Ice Crystals"
"-89.80","68.54","KUGAARUK A","2303092","2012-02-02 10:00","2012","02","02","10:00","-24.2","","-29.0","","64","","","","22","","13","","","","101.98","","","","-34","","Ice Crystals"
"-89.80","68.54","KUGAARUK A","2303092","2012-02-02 11:00","2012","02","02","11:00","-25.1","","-28.9","","71","","","","24","","9","","","","102.02","","","","-33","","Ice Crystals"
"-89.80","68.54","KUGAARUK A","2303092","2012-02-02 12:00","2012","02","02","12:00","-26.2","","-30.2","","69","","","","26","","6","","","","102.04","","","","-32","","Ice Crystals"
"-89.80","68.54","KUGAARUK A","2303092","2012-02-02 13:00","2012","02","02","13:00","-25.5","","-28.2","","78","","","","23","","11","","","","101.99","","","","-34","","Ice Crystals"
"-89.80","68.54","KUGAARUK A","2303092","2012-02-02 14:00","2012","02","02","14:00","-24.8","","-28.6","","71","","","","23","","20","","","","101.99","","","","-37","","Ice Crystals"
"-89.80","68.54","KUGAARUK A","2303092","2012-02-02 15:00","2012","02","02","15:00","-24.6","","-28.3","","71","","","","21","","22","","","","101.93","","","","-37","","Ice Crystals"
"-89.80","68.54","KUGAARUK A","2303092","2012-02-02 16:00","2012","02","02","16:00","-23.5","","-26.0","","80","","","","23","","9","","","","101.82","","","","-31","","Ice Crystals"
"-89.80","68.54","KUGAARUK A","2303092","2012-02-02 17:00","2012","02","02","17:00","-23.5","","-26.0","","80","","","","21","","22","","","","101.82","","","","-35","","Ice Crystals"
"-89.80","68.54","KUGAARUK A","2303092","2012-02-02 18:00","2012","02","02","18:00"
"-89.80","68.54","KUGAARUK A","2303092","2012-02-02 19:00","2012","02","02","19:00"
"-89.80","68.54","KUGAARUK A","2303092","2012-02-02 20:00","2012","02","02","20:00"
"-89.80","68.54","KUGAARUK A","2303092","2012-02-02 21:00","2012","02","02","21:00"
"-89.80","68.54","KUGAARUK A","2303092","2012-02-02 22:00","2012","02","02","22:00"
"-89.80","68.54","KUGAARUK A","2303092","2012-02-02 23:00","2012","02","02","23:00"
"-89.80","68.54","KUGAARUK A","2303092","2012-02-03 00:00","2012","02","03","00:00"
"-89.80","68.54","KUGAARUK A","2303092","2012-02-03 01:00","2012","02","03","01:00"
"-89.80","68.54","KUGAARUK A","2303092","2012-02-03 02:00","2012","02","03","02:00"
"-89.80","68.54","KUGAARUK A","2303092","2012-02-03 03:00","2012","02","03","03:00"
"-89.80","68.54","KUGAARUK A","2303092","2012-02-03 04:00","2012","02","03","04:00"
"-89.80","68.54","KUGAARUK A","2303092","2012-02-03 05:00","2012","02","03","05:00"
"-89.80","68.54","KUGAARUK A","2303092","2012-02-03 06:00","2012","02","03","06:00","-15.0","","-16.8","","86","","","","23","","7","","","","100.55","","","","-20","","Mostly Cloudy"
"-89.80","68.54","KUGAARUK A","2303092","2012-02-03 07:00","2012","02","03","07:00","-15.1","","-16.9","","86","","","","20","","22","","","","100.38","","","","-25","","Cloudy"
"-89.80","68.54","KUGAARUK A","2303092","2012-02-03 08:00","2012","02","03","08:00","-15.0","","-16.8","","86","","","","23","","24","","","","100.21","","","","-25","","Cloudy"
"-89.80","68.54","KUGAARUK A","2303092","2012-02-03 09:00","2012","02","03","09:00","-14.6","","-16.3","","87","","","","22","","46","","","","100.07","","","","-28","","Blowing Snow"
"-89.80","68.54","KUGAARUK A","2303092","2012-02-03 10:00","2012","02","03","10:00","-14.5","","-16.2","","87","","","","20","","37","","","","100.14","","","","-26","","Blowing Snow"
"-89.80","68.54","KUGAARUK A","2303092","2012-02-03 11:00","2012","02","03","11:00","-14.6","","-16.3","","87","","","","22","","37","","","","100.09","","","","-27","","Snow,Blowing Snow"
"-89.80","68.54","KUGAARUK A","2303092","2012-02-03 12:00","2012","02","03","12:00","-14.7","","-16.4","","87","","","","21","","37","","","","100.00","","","","-27","","Snow Showers,Blowing Snow"
"-89.80","68.54","KUGAARUK A","2303092","2012-02-03 13:00","2012","02","03","13:00","-14.6","","-15.8","","91","","","","22","","33","","","","100.00","","","","-26","","Snow,Blowing Snow"
"-89.80","68.54","KUGAARUK A","2303092","2012-02-03 14:00","2012","02","03","14:00","-14.2","","-16.4","","83","","","","23","","37","","","","99.98","","","","-26","","Snow,Blowing Snow"
"-89.80","68.54","KUGAARUK A","2303092","2012-02-03 15:00","2012","02","03","15:00","-15.7","","-17.5","","86","","","","24","","43","","","","100.04","","","","-29","","Snow,Blowing Snow"
"-89.80","68.54","KUGAARUK A","2303092","2012-02-03 16:00","2012","02","03","16:00","-18.3","","-20.4","","84","","","","25","","26","","","","100.23","","","","-30","","Snow,Blowing Snow"
"-89.80","68.54","KUGAARUK A","2303092","2012-02-03 17:00","2012","02","03","17:00","-20.0","","-22.2","","83","","","","24","","46","","","","100.18","","","","-35","","Snow,Blowing Snow"
"-89.80","68.54","KUGAARUK A","2303092","2012-02-03 18:00","2012","02","03","18:00"
"-89.80","68.54","KUGAARUK A","2303092","2012-02-03 19:00","2012","02","03","19:00"
"-89.80","68.54","KUGAARUK A","2303092","2012-02-03 20:00","2012","02","03","20:00"
"-89.80","68.54","KUGAARUK A","2303092","2012-02-03 21:00","2012","02","03","21:00","-23.2","","-25.7","","80","","","","21","","32","","","","100.66","","","","-37","","Snow,Blowing Snow"
"-89.80","68.54","KUGAARUK A","2303092","2012-02-03 22:00","2012","02","03","22:00","-24.0","","-26.6","","79","","","","23","","39","","","","100.62","","","","-39","","Snow,Blowing Snow"
"-89.80","68.54","KUGAARUK A","2303092","2012-02-03 23:00","2012","02","03","23:00"
"-89.80","68.54","KUGAARUK A","2303092","2012-02-04 00:00","2012","02","04","00:00"
"-89.80","68.54","KUGAARUK A","2303092","2012-02-04 01:00","2012","02","04","01:00"
"-89.80","68.54","KUGAARUK A","2303092","2012-02-04 02:00","2012","02","04","02:00"
"-89.80","68.54","KUGAARUK A","2303092","2012-02-04 03:00","2012","02","04","03:00"
"-89.80","68.54","KUGAARUK A","2303092","2012-02-04 04:00","2012","02","04","04:00"
"-89.80","68.54","KUGAARUK A","2303092","2012-02-04 05:00","2012","02","04","05:00"
"-89.80","68.54","KUGAARUK A","2303092","2012-02-04 06:00","2012","02","04","06:00"
"-89.80","68.54","KUGAARUK A","2303092","2012-02-04 07:00","2012","02","04","07:00"
"-89.80","68.54","KUGAARUK A","2303092","2012-02-04 08:00","2012","02","04","08:00"
"-89.80","68.54","KUGAARUK A","2303092","2012-02-04 09:00","2012","02","04","09:00","-25.0","","-27.7","","78","","","","24","","15","","","","100.80","","","","-35","","Ice Crystals"
"-89.80","68.54","KUGAARUK A","2303092","2012-02-04 10:00","2012","02","04","10:00","-24.6","","-28.3","","71","","","","","","0","","","","100.74","","","","","","Ice Crystals"
"-89.80","68.54","KUGAARUK A","2303092","2012-02-04 11:00","2012","02","04","11:00","-24.2","","-27.9","","71","","","","","","0","","","","100.65","","","","","","Ice Crystals"
"-89.80","68.54","KUGAARUK A","2303092","2012-02-04 12:00","2012","02","04","12:00","-24.4","","-28.1","","71","","","","7","","17","","","","100.58","","","","-35","","Ice Crystals"
"-89.80","68.54","KUGAARUK A","2303092","2012-02-04 13:00","2012","02","04","13:00","-24.3","","-28.0","","71","","","","7","","22","","","","100.51","","","","-36","","Ice Crystals"
"-89.80","68.54","KUGAARUK A","2303092","2012-02-04 14:00","2012","02","04","14:00","-24.0","","-26.6","","79","","","","8","","20","","","","100.53","","","","-36","","Ice Crystals"
"-89.80","68.54","KUGAARUK A","2303092","2012-02-04 15:00","2012","02","04","15:00","-23.3","","-25.8","","80","","","","9","","19","","","","100.58","","","","-34","","Ice Crystals"
"-89.80","68.54","KUGAARUK A","2303092","2012-02-04 16:00","2012","02","04","16:00","-22.6","","-24.2","","87","","","","2","","9","","","","100.77","","","","-30","","Snow"
"-89.80","68.54","KUGAARUK A","2303092","2012-02-04 17:00","2012","02","04","17:00","-23.4","","-26.9","","73","","","","2","","19","","","","100.83","","","","-34","","Ice Crystals"
"-89.80","68.54","KUGAARUK A","2303092","2012-02-04 18:00","2012","02","04","18:00","-24.4","","-28.1","","71","","","","2","","19","","","","100.92","","","","-36","","Ice Crystals"
"-89.80","68.54","KUGAARUK A","2303092","2012-02-04 19:00","2012","02","04","19:00"
"-89.80","68.54","KUGAARUK A","2303092","2012-02-04 20:00","2012","02","04","20:00"
"-89.80","68.54","KUGAARUK A","2303092","2012-02-04 21:00","2012","02","04","21:00"
"-89.80","68.54","KUGAARUK A","2303092","2012-02-04 22:00","2012","02","04","22:00","-27.5","","-30.4","","76","","","","4","","9","","","","101.35","","","","-36","","Ice Crystals"
"-89.80","68.54","KUGAARUK A","2303092","2012-02-04 23:00","2012","02","04","23:00","-27.5","","-31.8","","67","","","","7","","19","","","","101.36","","","","-40","","Ice Crystals"
"-89.80","68.54","KUGAARUK A","2303092","2012-02-05 00:00","2012","02","05","00:00","-27.9","","-32.3","","66","","","","12","","15","","","","101.42","","","","-39","","Ice Crystals"
"-89.80","68.54","KUGAARUK A","2303092","2012-02-05 01:00","2012","02","05","01:00","-28.0","","-32.4","","66","","","","14","","19","","","","101.58","","","","-40","","Ice Crystals"
"-89.80","68.54","KUGAARUK A","2303092","2012-02-05 02:00","2012","02","05","02:00"
"-89.80","68.54","KUGAARUK A","2303092","2012-02-05 03:00","2012","02","05","03:00"
"-89.80","68.54","KUGAARUK A","2303092","2012-02-05 04:00","2012","02","05","04:00"
"-89.80","68.54","KUGAARUK A","2303092","2012-02-05 05:00","2012","02","05","05:00"
"-89.80","68.54","KUGAARUK A","2303092","2012-02-05 06:00","2012","02","05","06:00"
"-89.80","68.54","KUGAARUK A","2303092","2012-02-05 07:00","2012","02","05","07:00"
"-89.80","68.54","KUGAARUK A","2303092","2012-02-05 08:00","2012","02","05","08:00","-30.0","","-34.8","","63","","","","26","","15","","","","101.96","","","","-41","","Ice Crystals"
"-89.80","68.54","KUGAARUK A","2303092","2012-02-05 09:00","2012","02","05","09:00","-29.0","","-33.6","","64","","","","24","","13","","","","102.01","","","","-39","","Ice Crystals"
"-89.80","68.54","KUGAARUK A","2303092","2012-02-05 10:00","2012","02","05","10:00","-27.7","","-32.0","","67","","","","18","","4","","","","102.02","","","","-32","","Ice Crystals"
"-89.80","68.54","KUGAARUK A","2303092","2012-02-05 11:00","2012","02","05","11:00","-28.5","","-33.0","","65","","","","23","","17","","","","102.03","","","","-40","","Ice Crystals"
"-89.80","68.54","KUGAARUK A","2303092","2012-02-05 12:00","2012","02","05","12:00","-28.0","","-32.4","","66","","","","23","","19","","","","102.04","","","","-40","","Ice Crystals"
"-89.80","68.54","KUGAARUK A","2303092","2012-02-05 13:00","2012","02","05","13:00","-27.9","","-32.3","","66","","","","26","","19","","","","102.04","","","","-40","","Ice Crystals"
"-89.80","68.54","KUGAARUK A","2303092","2012-02-05 14:00","2012","02","05","14:00","-28.3","","-32.8","","65","","","","21","","9","","","","102.09","","","","-37","","Ice Crystals"
"-89.80","68.54","KUGAARUK A","2303092","2012-02-05 15:00","2012","02","05","15:00","-26.2","","-30.2","","69","","","","29","","30","","","","102.03","","","","-41","","Ice Crystals"
"-89.80","68.54","KUGAARUK A","2303092","2012-02-05 16:00","2012","02","05","16:00","-26.0","","-30.0","","69","","","","26","","22","","","","102.05","","","","-39","","Ice Crystals"
"-89.80","68.54","KUGAARUK A","2303092","2012-02-05 17:00","2012","02","05","17:00","-27.0","","-29.8","","77","","","","26","","24","","","","102.04","","","","-40","","Ice Crystals"
"-89.80","68.54","KUGAARUK A","2303092","2012-02-05 18:00","2012","02","05","18:00"
"-89.80","68.54","KUGAARUK A","2303092","2012-02-05 19:00","2012","02","05","19:00"
"-89.80","68.54","KUGAARUK A","2303092","2012-02-05 20:00","2012","02","05","20:00"
"-89.80","68.54","KUGAARUK A","2303092","2012-02-05 21:00","2012","02","05","21:00"
"-89.80","68.54","KUGAARUK A","2303092","2012-02-05 22:00","2012","02","05","22:00"
"-89.80","68.54","KUGAARUK A","2303092","2012-02-05 23:00","2012","02","05","23:00"
"-89.80","68.54","KUGAARUK A","2303092","2012-02-06 00:00","2012","02","06","00:00"
"-89.80","68.54","KUGAARUK A","2303092","2012-02-06 01:00","2012","02","06","01:00"
"-89.80","68.54","KUGAARUK A","2303092","2012-02-06 02:00","2012","02","06","02:00"
"-89.80","68.54","KUGAARUK A","2303092","2012-02-06 03:00","2012","02","06","03:00"
"-89.80","68.54","KUGAARUK A","2303092","2012-02-06 04:00","2012","02","06","04:00"
"-89.80","68.54","KUGAARUK A","2303092","2012-02-06 05:00","2012","02","06","05:00"
"-89.80","68.54","KUGAARUK A","2303092","2012-02-06 06:00","2012","02","06","06:00","-28.0","","-32.4","","66","","","","27","","28","","","","101.53","","","","-43","","Ice Crystals"
"-89.80","68.54","KUGAARUK A","2303092","2012-02-06 07:00","2012","02","06","07:00","-27.7","","-32.0","","67","","","","25","","41","","","","101.47","","","","-45","","Ice Crystals"
"-89.80","68.54","KUGAARUK A","2303092","2012-02-06 08:00","2012","02","06","08:00","-26.4","","-30.5","","68","","","","27","","33","","","","101.38","","","","-41","","Ice Crystals,Blowing Snow"
"-89.80","68.54","KUGAARUK A","2303092","2012-02-06 09:00","2012","02","06","09:00","-24.9","","-28.7","","71","","","","24","","30","","","","101.38","","","","-39","","Ice Crystals,Blowing Snow"
"-89.80","68.54","KUGAARUK A","2303092","2012-02-06 10:00","2012","02","06","10:00","-25.0","","-28.8","","71","","","","25","","26","","","","101.32","","","","-38","","Snow,Blowing Snow"
"-89.80","68.54","KUGAARUK A","2303092","2012-02-06 11:00","2012","02","06","11:00","-25.0","","-28.8","","71","","","","22","","33","","","","101.11","","","","-40","","Snow,Blowing Snow"
"-89.80","68.54","KUGAARUK A","2303092","2012-02-06 12:00","2012","02","06","12:00","-24.9","","-28.7","","71","","","","23","","24","","","","100.98","","","","-38","","Snow,Blowing Snow"
"-89.80","68.54","KUGAARUK A","2303092","2012-02-06 13:00","2012","02","06","13:00","-24.0","","-25.6","","87","","","","23","","28","","","","100.91","","","","-37","","Blowing Snow"
"-89.80","68.54","KUGAARUK A","2303092","2012-02-06 14:00","2012","02","06","14:00","-24.5","","-26.1","","87","","","","25","","28","","","","100.74","","","","-38","","Blowing Snow"
"-89.80","68.54","KUGAARUK A","2303092","2012-02-06 15:00","2012","02","06","15:00","-23.4","","-25.0","","87","","","","21","","28","","","","100.51","","","","-37","","Snow,Blowing Snow"
"-89.80","68.54","KUGAARUK A","2303092","2012-02-06 16:00","2012","02","06","16:00","-22.7","","-24.3","","87","","","","23","","32","","","","100.31","","","","-36","","Snow,Blowing Snow"
"-89.80","68.54","KUGAARUK A","2303092","2012-02-06 17:00","2012","02","06","17:00","-23.8","","-25.4","","87","","","","26","","37","","","","100.14","","","","-39","","Moderate Snow,Blowing Snow"
"-89.80","68.54","KUGAARUK A","2303092","2012-02-06 18:00","2012","02","06","18:00"
"-89.80","68.54","KUGAARUK A","2303092","2012-02-06 19:00","2012","02","06","19:00"
"-89.80","68.54","KUGAARUK A","2303092","2012-02-06 20:00","2012","02","06","20:00"
"-89.80","68.54","KUGAARUK A","2303092","2012-02-06 21:00","2012","02","06","21:00"
"-89.80","68.54","KUGAARUK A","2303092","2012-02-06 22:00","2012","02","06","22:00"
"-89.80","68.54","KUGAARUK A","2303092","2012-02-06 23:00","2012","02","06","23:00"
"-89.80","68.54","KUGAARUK A","2303092","2012-02-07 00:00","2012","02","07","00:00"
"-89.80","68.54","KUGAARUK A","2303092","2012-02-07 01:00","2012","02","07","01:00"
"-89.80","68.54","KUGAARUK A","2303092","2012-02-07 02:00","2012","02","07","02:00"
"-89.80","68.54","KUGAARUK A","2303092","2012-02-07 03:00","2012","02","07","03:00"
"-89.80","68.54","KUGAARUK A","2303092","2012-02-07 04:00","2012","02","07","04:00"
"-89.80","68.54","KUGAARUK A","2303092","2012-02-07 05:00","2012","02","07","05:00"
"-89.80","68.54","KUGAARUK A","2303092","2012-02-07 06:00","2012","02","07","06:00"
"-89.80","68.54","KUGAARUK A","2303092","2012-02-07 07:00","2012","02","07","07:00"
"-89.80","68.54","KUGAARUK A","2303092","2012-02-07 08:00","2012","02","07","08:00"
"-89.80","68.54","KUGAARUK A","2303092","2012-02-07 09:00","2012","02","07","09:00","-30.0","","-34.8","","63","","","","27","","19","","","","99.67","","","","-43","","Snow,Blowing Snow"
"-89.80","68.54","KUGAARUK A","2303092","2012-02-07 10:00","2012","02","07","10:00","-28.6","","-33.1","","65","","","","30","","44","","","","99.67","","","","-46","","Snow,Blowing Snow"
"-89.80","68.54","KUGAARUK A","2303092","2012-02-07 11:00","2012","02","07","11:00","-28.5","","-33.0","","65","","","","33","","37","","","","99.66","","","","-45","","Snow,Blowing Snow"
"-89.80","68.54","KUGAARUK A","2303092","2012-02-07 12:00","2012","02","07","12:00","-29.4","","-34.1","","64","","","","33","","28","","","","99.66","","","","-44","","Snow,Blowing Snow"
"-89.80","68.54","KUGAARUK A","2303092","2012-02-07 13:00","2012","02","07","13:00","-30.0","","-30.1","","99","","","","31","","22","","","","99.79","","","","-44","","Moderate Snow,Blowing Snow"
"-89.80","68.54","KUGAARUK A","2303092","2012-02-07 14:00","2012","02","07","14:00","-29.8","","-30.0","","98","","","","31","","19","","","","99.85","","","","-43","","Moderate Snow,Blowing Snow"
"-89.80","68.54","KUGAARUK A","2303092","2012-02-07 15:00","2012","02","07","15:00"
"-89.80","68.54","KUGAARUK A","2303092","2012-02-07 16:00","2012","02","07","16:00"
"-89.80","68.54","KUGAARUK A","2303092","2012-02-07 17:00","2012","02","07","17:00"
"-89.80","68.54","KUGAARUK A","2303092","2012-02-07 18:00","2012","02","07","18:00"
"-89.80","68.54","KUGAARUK A","2303092","2012-02-07 19:00","2012","02","07","19:00"
"-89.80","68.54","KUGAARUK A","2303092","2012-02-07 20:00","2012","02","07","20:00"
"-89.80","68.54","KUGAARUK A","2303092","2012-02-07 21:00","2012","02","07","21:00"
"-89.80","68.54","KUGAARUK A","2303092","2012-02-07 22:00","2012","02","07","22:00"
"-89.80","68.54","KUGAARUK A","2303092","2012-02-07 23:00","2012","02","07","23:00"
"-89.80","68.54","KUGAARUK A","2303092","2012-02-08 00:00","2012","02","08","00:00"
"-89.80","68.54","KUGAARUK A","2303092","2012-02-08 01:00","2012","02","08","01:00"
"-89.80","68.54","KUGAARUK A","2303092","2012-02-08 02:00","2012","02","08","02:00"
"-89.80","68.54","KUGAARUK A","2303092","2012-02-08 03:00","2012","02","08","03:00"
"-89.80","68.54","KUGAARUK A","2303092","2012-02-08 04:00","2012","02","08","04:00"
"-89.80","68.54","KUGAARUK A","2303092","2012-02-08 05:00","2012","02","08","05:00"
"-89.80","68.54","KUGAARUK A","2303092","2012-02-08 06:00","2012","02","08","06:00","-29.0","","-32.0","","75","","","","27","","22","","","","100.39","","","","-42","","Snow"
"-89.80","68.54","KUGAARUK A","2303092","2012-02-08 07:00","2012","02","08","07:00","-27.6","","-31.9","","67","","","","27","","22","","","","100.41","","","","-41","","Snow"
"-89.80","68.54","KUGAARUK A","2303092","2012-02-08 08:00","2012","02","08","08:00","-26.4","","-29.2","","77","","","","29","","22","","","","100.43","","","","-39","","Snow"
"-89.80","68.54","KUGAARUK A","2303092","2012-02-08 09:00","2012","02","08","09:00","-25.9","","-29.9","","69","","","","28","","13","","","","100.42","","","","-36","","Snow"
"-89.80","68.54","KUGAARUK A","2303092","2012-02-08 10:00","2012","02","08","10:00","-26.4","","-30.5","","68","","","","24","","9","","","","100.44","","","","-34","","Snow"
"-89.80","68.54","KUGAARUK A","2303092","2012-02-08 11:00","2012","02","08","11:00","-26.9","","-31.1","","68","","","","24","","11","","","","100.48","","","","-36","","Ice Crystals"
"-89.80","68.54","KUGAARUK A","2303092","2012-02-08 12:00","2012","02","08","12:00","-26.4","","-30.5","","68","","","","24","","11","","","","100.52","","","","-35","","Ice Crystals"
"-89.80","68.54","KUGAARUK A","2303092","2012-02-08 13:00","2012","02","08","13:00","-25.5","","-29.4","","70","","","","","","0","","","","100.56","","","","","","Ice Crystals"
"-89.80","68.54","KUGAARUK A","2303092","2012-02-08 14:00","2012","02","08","14:00","-24.4","","-28.1","","71","","","","23","","9","","","","100.63","","","","-32","","Ice Crystals"
"-89.80","68.54","KUGAARUK A","2303092","2012-02-08 15:00","2012","02","08","15:00","-25.3","","-29.2","","70","","","","5","","6","","","","100.71","","","","-31","","Ice Crystals"
"-89.80","68.54","KUGAARUK A","2303092","2012-02-08 16:00","2012","02","08","16:00","-25.9","","-29.9","","69","","","","3","","15","","","","100.77","","","","-36","","Ice Crystals"
"-89.80","68.54","KUGAARUK A","2303092","2012-02-08 17:00","2012","02","08","17:00","-27.0","","-31.2","","67","","","","10","","9","","","","100.86","","","","-35","","Ice Crystals"
"-89.80","68.54","KUGAARUK A","2303092","2012-02-08 18:00","2012","02","08","18:00"
"-89.80","68.54","KUGAARUK A","2303092","2012-02-08 19:00","2012","02","08","19:00"
"-89.80","68.54","KUGAARUK A","2303092","2012-02-08 20:00","2012","02","08","20:00"
"-89.80","68.54","KUGAARUK A","2303092","2012-02-08 21:00","2012","02","08","21:00"
"-89.80","68.54","KUGAARUK A","2303092","2012-02-08 22:00","2012","02","08","22:00"
"-89.80","68.54","KUGAARUK A","2303092","2012-02-08 23:00","2012","02","08","23:00"
"-89.80","68.54","KUGAARUK A","2303092","2012-02-09 00:00","2012","02","09","00:00"
"-89.80","68.54","KUGAARUK A","2303092","2012-02-09 01:00","2012","02","09","01:00"
"-89.80","68.54","KUGAARUK A","2303092","2012-02-09 02:00","2012","02","09","02:00"
"-89.80","68.54","KUGAARUK A","2303092","2012-02-09 03:00","2012","02","09","03:00"
"-89.80","68.54","KUGAARUK A","2303092","2012-02-09 04:00","2012","02","09","04:00"
"-89.80","68.54","KUGAARUK A","2303092","2012-02-09 05:00","2012","02","09","05:00"
"-89.80","68.54","KUGAARUK A","2303092","2012-02-09 06:00","2012","02","09","06:00","-26.4","","-30.5","","68","","","","23","","13","","","","101.84","","","","-36","","Ice Crystals"
"-89.80","68.54","KUGAARUK A","2303092","2012-02-09 07:00","2012","02","09","07:00","-25.4","","-29.3","","70","","","","27","","11","","","","101.89","","","","-34","","Ice Crystals"
"-89.80","68.54","KUGAARUK A","2303092","2012-02-09 08:00","2012","02","09","08:00","-26.1","","-30.1","","69","","","","23","","11","","","","101.89","","","","-35","","Ice Crystals"
"-89.80","68.54","KUGAARUK A","2303092","2012-02-09 09:00","2012","02","09","09:00","-26.0","","-30.0","","69","","","","28","","19","","","","101.89","","","","-38","","Ice Crystals"
"-89.80","68.54","KUGAARUK A","2303092","2012-02-09 10:00","2012","02","09","10:00","-26.8","","-31.0","","68","","","","23","","11","","","","101.88","","","","-36","","Ice Crystals"
"-89.80","68.54","KUGAARUK A","2303092","2012-02-09 11:00","2012","02","09","11:00","-26.0","","-30.0","","69","","","","23","","15","","","","101.90","","","","-36","","Ice Crystals"
"-89.80","68.54","KUGAARUK A","2303092","2012-02-09 12:00","2012","02","09","12:00","-25.4","","-29.3","","70","","","","23","","15","","","","101.89","","","","-36","","Ice Crystals"
"-89.80","68.54","KUGAARUK A","2303092","2012-02-09 13:00","2012","02","09","13:00","-25.5","","-29.4","","70","","","","21","","17","","","","101.89","","","","-37","","Ice Crystals"
"-89.80","68.54","KUGAARUK A","2303092","2012-02-09 14:00","2012","02","09","14:00","-26.2","","-30.2","","69","","","","24","","22","","","","101.94","","","","-39","","Ice Crystals"
"-89.80","68.54","KUGAARUK A","2303092","2012-02-09 15:00","2012","02","09","15:00","-26.0","","-30.0","","69","","","","25","","15","","","","101.94","","","","-36","","Ice Crystals"
"-89.80","68.54","KUGAARUK A","2303092","2012-02-09 16:00","2012","02","09","16:00","-24.7","","-28.5","","71","","","","28","","15","","","","102.01","","","","-35","","Ice Crystals"
"-89.80","68.54","KUGAARUK A","2303092","2012-02-09 17:00","2012","02","09","17:00","-25.0","","-28.8","","71","","","","26","","19","","","","102.04","","","","-37","","Ice Crystals"
"-89.80","68.54","KUGAARUK A","2303092","2012-02-09 18:00","2012","02","09","18:00"
"-89.80","68.54","KUGAARUK A","2303092","2012-02-09 19:00","2012","02","09","19:00"
"-89.80","68.54","KUGAARUK A","2303092","2012-02-09 20:00","2012","02","09","20:00"
"-89.80","68.54","KUGAARUK A","2303092","2012-02-09 21:00","2012","02","09","21:00"
"-89.80","68.54","KUGAARUK A","2303092","2012-02-09 22:00","2012","02","09","22:00"
"-89.80","68.54","KUGAARUK A","2303092","2012-02-09 23:00","2012","02","09","23:00"
"-89.80","68.54","KUGAARUK A","2303092","2012-02-10 00:00","2012","02","10","00:00"
"-89.80","68.54","KUGAARUK A","2303092","2012-02-10 01:00","2012","02","10","01:00"
"-89.80","68.54","KUGAARUK A","2303092","2012-02-10 02:00","2012","02","10","02:00"
"-89.80","68.54","KUGAARUK A","2303092","2012-02-10 03:00","2012","02","10","03:00"
"-89.80","68.54","KUGAARUK A","2303092","2012-02-10 04:00","2012","02","10","04:00"
"-89.80","68.54","KUGAARUK A","2303092","2012-02-10 05:00","2012","02","10","05:00"
"-89.80","68.54","KUGAARUK A","2303092","2012-02-10 06:00","2012","02","10","06:00","-16.5","","-19.0","","81","","","","24","","37","","","","101.32","","","","-29","","Ice Crystals"
"-89.80","68.54","KUGAARUK A","2303092","2012-02-10 07:00","2012","02","10","07:00","-16.9","","-19.5","","80","","","","23","","33","","","","101.30","","","","-29","","Ice Crystals"
"-89.80","68.54","KUGAARUK A","2303092","2012-02-10 08:00","2012","02","10","08:00","-16.5","","-19.0","","81","","","","24","","54","","","","101.04","","","","-31","","Ice Crystals,Blowing Snow"
"-89.80","68.54","KUGAARUK A","2303092","2012-02-10 09:00","2012","02","10","09:00","-15.6","","-18.6","","78","","","","22","","65","","","","100.82","","","","-31","","Blowing Snow"
"-89.80","68.54","KUGAARUK A","2303092","2012-02-10 10:00","2012","02","10","10:00","-15.4","","-17.7","","83","","","","26","","33","","","","100.77","","","","-27","","Blowing Snow"
"-89.80","68.54","KUGAARUK A","2303092","2012-02-10 11:00","2012","02","10","11:00","-16.0","","-17.9","","85","","","","27","","24","","","","100.77","","","","-26","","Blowing Snow"
"-89.80","68.54","KUGAARUK A","2303092","2012-02-10 12:00","2012","02","10","12:00","-16.1","","-18.5","","82","","","","25","","24","","","","100.59","","","","-26","","Blowing Snow"
"-89.80","68.54","KUGAARUK A","2303092","2012-02-10 13:00","2012","02","10","13:00","-16.2","","-19.3","","77","","","","29","","20","","","","100.69","","","","-26","","Mostly Cloudy"
"-89.80","68.54","KUGAARUK A","2303092","2012-02-10 14:00","2012","02","10","14:00","-16.6","","-19.7","","77","","","","30","","24","","","","100.60","","","","-27","","Mostly Cloudy"
"-89.80","68.54","KUGAARUK A","2303092","2012-02-10 15:00","2012","02","10","15:00","-16.5","","-19.0","","81","","","","31","","24","","","","100.62","","","","-27","","Cloudy"
"-89.80","68.54","KUGAARUK A","2303092","2012-02-10 16:00","2012","02","10","16:00","-16.5","","-19.6","","77","","","","21","","7","","","","100.69","","","","-22","","Cloudy"
"-89.80","68.54","KUGAARUK A","2303092","2012-02-10 17:00","2012","02","10","17:00","-17.0","","-19.6","","80","","","","24","","24","","","","100.70","","","","-28","","Cloudy"
"-89.80","68.54","KUGAARUK A","2303092","2012-02-10 18:00","2012","02","10","18:00"
"-89.80","68.54","KUGAARUK A","2303092","2012-02-10 19:00","2012","02","10","19:00"
"-89.80","68.54","KUGAARUK A","2303092","2012-02-10 20:00","2012","02","10","20:00"
"-89.80","68.54","KUGAARUK A","2303092","2012-02-10 21:00","2012","02","10","21:00"
"-89.80","68.54","KUGAARUK A","2303092","2012-02-10 22:00","2012","02","10","22:00"
"-89.80","68.54","KUGAARUK A","2303092","2012-02-10 23:00","2012","02","10","23:00"
"-89.80","68.54","KUGAARUK A","2303092","2012-02-11 00:00","2012","02","11","00:00"
"-89.80","68.54","KUGAARUK A","2303092","2012-02-11 01:00","2012","02","11","01:00"
"-89.80","68.54","KUGAARUK A","2303092","2012-02-11 02:00","2012","02","11","02:00"
"-89.80","68.54","KUGAARUK A","2303092","2012-02-11 03:00","2012","02","11","03:00"
"-89.80","68.54","KUGAARUK A","2303092","2012-02-11 04:00","2012","02","11","04:00"
"-89.80","68.54","KUGAARUK A","2303092","2012-02-11 05:00","2012","02","11","05:00","-20.0","","-22.2","","83","","","","23","","17","","","","100.37","","","","-30","","Snow"
"-89.80","68.54","KUGAARUK A","2303092","2012-02-11 06:00","2012","02","11","06:00","-19.5","","-21.7","","83","","","","24","","13","","","","100.33","","","","-28","","Snow"
"-89.80","68.54","KUGAARUK A","2303092","2012-02-11 07:00","2012","02","11","07:00"
"-89.80","68.54","KUGAARUK A","2303092","2012-02-11 08:00","2012","02","11","08:00"
"-89.80","68.54","KUGAARUK A","2303092","2012-02-11 09:00","2012","02","11","09:00"
"-89.80","68.54","KUGAARUK A","2303092","2012-02-11 10:00","2012","02","11","10:00"
"-89.80","68.54","KUGAARUK A","2303092","2012-02-11 11:00","2012","02","11","11:00"
"-89.80","68.54","KUGAARUK A","2303092","2012-02-11 12:00","2012","02","11","12:00","-18.8","","-20.9","","83","","","","","","0","","","","100.21","","","","","","Snow"
"-89.80","68.54","KUGAARUK A","2303092","2012-02-11 13:00","2012","02","11","13:00","-18.6","","-20.7","","83","","","","","","0","","","","100.19","","","","","","Snow"
"-89.80","68.54","KUGAARUK A","2303092","2012-02-11 14:00","2012","02","11","14:00","-18.3","","-20.4","","84","","","","","","0","","","","100.20","","","","","","Snow"
"-89.80","68.54","KUGAARUK A","2303092","2012-02-11 15:00","2012","02","11","15:00","-17.9","","-19.9","","84","","","","","","0","","","","100.18","","","","","","Snow"
"-89.80","68.54","KUGAARUK A","2303092","2012-02-11 16:00","2012","02","11","16:00","-18.0","","-20.1","","84","","","","","","0","","","","100.18","","","","","","Snow"
"-89.80","68.54","KUGAARUK A","2303092","2012-02-11 17:00","2012","02","11","17:00","-18.3","","-20.4","","84","","","","","","0","","","","100.17","","","","","","Snow"
"-89.80","68.54","KUGAARUK A","2303092","2012-02-11 18:00","2012","02","11","18:00","-18.0","","-20.1","","84","","","","","","0","","","","100.14","","","","","","Snow"
"-89.80","68.54","KUGAARUK A","2303092","2012-02-11 19:00","2012","02","11","19:00"
"-89.80","68.54","KUGAARUK A","2303092","2012-02-11 20:00","2012","02","11","20:00"
"-89.80","68.54","KUGAARUK A","2303092","2012-02-11 21:00","2012","02","11","21:00"
"-89.80","68.54","KUGAARUK A","2303092","2012-02-11 22:00","2012","02","11","22:00"
"-89.80","68.54","KUGAARUK A","2303092","2012-02-11 23:00","2012","02","11","23:00"
"-89.80","68.54","KUGAARUK A","2303092","2012-02-12 00:00","2012","02","12","00:00"
"-89.80","68.54","KUGAARUK A","2303092","2012-02-12 01:00","2012","02","12","01:00"
"-89.80","68.54","KUGAARUK A","2303092","2012-02-12 02:00","2012","02","12","02:00"
"-89.80","68.54","KUGAARUK A","2303092","2012-02-12 03:00","2012","02","12","03:00"
"-89.80","68.54","KUGAARUK A","2303092","2012-02-12 04:00","2012","02","12","04:00"
"-89.80","68.54","KUGAARUK A","2303092","2012-02-12 05:00","2012","02","12","05:00"
"-89.80","68.54","KUGAARUK A","2303092","2012-02-12 06:00","2012","02","12","06:00"
"-89.80","68.54","KUGAARUK A","2303092","2012-02-12 07:00","2012","02","12","07:00"
"-89.80","68.54","KUGAARUK A","2303092","2012-02-12 08:00","2012","02","12","08:00","-17.6","","-19.6","","84","","","","3","","4","","","","99.63","","","","-21","","Cloudy"
"-89.80","68.54","KUGAARUK A","2303092","2012-02-12 09:00","2012","02","12","09:00","-17.2","","-19.8","","80","","","","20","","17","","","","99.58","","","","-26","","Cloudy"
"-89.80","68.54","KUGAARUK A","2303092","2012-02-12 10:00","2012","02","12","10:00","-16.6","","-19.1","","81","","","","19","","11","","","","99.56","","","","-24","","Cloudy"
"-89.80","68.54","KUGAARUK A","2303092","2012-02-12 11:00","2012","02","12","11:00","-16.3","","-18.8","","81","","","","19","","11","","","","99.53","","","","-23","","Cloudy"
"-89.80","68.54","KUGAARUK A","2303092","2012-02-12 12:00","2012","02","12","12:00","-16.0","","-18.4","","82","","","","16","","11","","","","99.56","","","","-23","","Snow"
"-89.80","68.54","KUGAARUK A","2303092","2012-02-12 13:00","2012","02","12","13:00","-15.7","","-18.7","","78","","","","18","","6","","","","99.57","","","","-20","","Snow"
"-89.80","68.54","KUGAARUK A","2303092","2012-02-12 14:00","2012","02","12","14:00","-15.8","","-18.8","","78","","","","19","","6","","","","99.58","","","","-20","","Snow Showers"
"-89.80","68.54","KUGAARUK A","2303092","2012-02-12 15:00","2012","02","12","15:00","-15.5","","-17.9","","82","","","","20","","17","","","","99.57","","","","-24","","Snow Showers"
"-89.80","68.54","KUGAARUK A","2303092","2012-02-12 16:00","2012","02","12","16:00","-15.4","","-17.7","","83","","","","19","","13","","","","99.59","","","","-23","","Snow"
"-89.80","68.54","KUGAARUK A","2303092","2012-02-12 17:00","2012","02","12","17:00","-15.2","","-18.1","","78","","","","19","","9","","","","99.60","","","","-21","","Snow Showers"
"-89.80","68.54","KUGAARUK A","2303092","2012-02-12 18:00","2012","02","12","18:00"
"-89.80","68.54","KUGAARUK A","2303092","2012-02-12 19:00","2012","02","12","19:00"
"-89.80","68.54","KUGAARUK A","2303092","2012-02-12 20:00","2012","02","12","20:00"
"-89.80","68.54","KUGAARUK A","2303092","2012-02-12 21:00","2012","02","12","21:00"
"-89.80","68.54","KUGAARUK A","2303092","2012-02-12 22:00","2012","02","12","22:00"
"-89.80","68.54","KUGAARUK A","2303092","2012-02-12 23:00","2012","02","12","23:00"
"-89.80","68.54","KUGAARUK A","2303092","2012-02-13 00:00","2012","02","13","00:00"
"-89.80","68.54","KUGAARUK A","2303092","2012-02-13 01:00","2012","02","13","01:00"
"-89.80","68.54","KUGAARUK A","2303092","2012-02-13 02:00","2012","02","13","02:00"
"-89.80","68.54","KUGAARUK A","2303092","2012-02-13 03:00","2012","02","13","03:00"
"-89.80","68.54","KUGAARUK A","2303092","2012-02-13 04:00","2012","02","13","04:00"
"-89.80","68.54","KUGAARUK A","2303092","2012-02-13 05:00","2012","02","13","05:00"
"-89.80","68.54","KUGAARUK A","2303092","2012-02-13 06:00","2012","02","13","06:00","-14.0","","-15.7","","87","","","","17","","7","","","","100.10","","","","-19","","Snow"
"-89.80","68.54","KUGAARUK A","2303092","2012-02-13 07:00","2012","02","13","07:00","-14.6","","-16.3","","87","","","","18","","19","","","","100.15","","","","-23","","Snow"
"-89.80","68.54","KUGAARUK A","2303092","2012-02-13 08:00","2012","02","13","08:00","-13.6","","-15.2","","88","","","","17","","13","","","","100.16","","","","-21","","Snow"
"-89.80","68.54","KUGAARUK A","2303092","2012-02-13 09:00","2012","02","13","09:00","-14.2","","-15.9","","87","","","","18","","15","","","","100.21","","","","-22","","Snow"
"-89.80","68.54","KUGAARUK A","2303092","2012-02-13 10:00","2012","02","13","10:00","-13.7","","-15.3","","88","","","","17","","15","","","","100.22","","","","-21","","Snow"
"-89.80","68.54","KUGAARUK A","2303092","2012-02-13 11:00","2012","02","13","11:00","-13.7","","-15.3","","88","","","","18","","11","","","","100.28","","","","-20","","Snow"
"-89.80","68.54","KUGAARUK A","2303092","2012-02-13 12:00","2012","02","13","12:00","-13.8","","-15.4","","88","","","","18","","19","","","","100.31","","","","-22","","Snow"
"-89.80","68.54","KUGAARUK A","2303092","2012-02-13 13:00","2012","02","13","13:00","-13.8","","-15.4","","88","","","","19","","13","","","","100.34","","","","-21","","Snow"
"-89.80","68.54","KUGAARUK A","2303092","2012-02-13 14:00","2012","02","13","14:00","-13.8","","-15.4","","88","","","","17","","13","","","","100.35","","","","-21","","Snow"
"-89.80","68.54","KUGAARUK A","2303092","2012-02-13 15:00","2012","02","13","15:00","-13.7","","-15.3","","88","","","","16","","9","","","","100.37","","","","-19","","Cloudy"
"-89.80","68.54","KUGAARUK A","2303092","2012-02-13 16:00","2012","02","13","16:00","-14.0","","-15.7","","87","","","","20","","13","","","","100.36","","","","-21","","Cloudy"
"-89.80","68.54","KUGAARUK A","2303092","2012-02-13 17:00","2012","02","13","17:00","-14.3","","-16.5","","83","","","","14","","7","","","","100.36","","","","-19","","Cloudy"
"-89.80","68.54","KUGAARUK A","2303092","2012-02-13 18:00","2012","02","13","18:00"
"-89.80","68.54","KUGAARUK A","2303092","2012-02-13 19:00","2012","02","13","19:00"
"-89.80","68.54","KUGAARUK A","2303092","2012-02-13 20:00","2012","02","13","20:00"
"-89.80","68.54","KUGAARUK A","2303092","2012-02-13 21:00","2012","02","13","21:00"
"-89.80","68.54","KUGAARUK A","2303092","2012-02-13 22:00","2012","02","13","22:00"
"-89.80","68.54","KUGAARUK A","2303092","2012-02-13 23:00","2012","02","13","23:00"
"-89.80","68.54","KUGAARUK A","2303092","2012-02-14 00:00","2012","02","14","00:00"
"-89.80","68.54","KUGAARUK A","2303092","2012-02-14 01:00","2012","02","14","01:00"
"-89.80","68.54","KUGAARUK A","2303092","2012-02-14 02:00","2012","02","14","02:00"
"-89.80","68.54","KUGAARUK A","2303092","2012-02-14 03:00","2012","02","14","03:00"
"-89.80","68.54","KUGAARUK A","2303092","2012-02-14 04:00","2012","02","14","04:00"
"-89.80","68.54","KUGAARUK A","2303092","2012-02-14 05:00","2012","02","14","05:00"
"-89.80","68.54","KUGAARUK A","2303092","2012-02-14 06:00","2012","02","14","06:00","-14.3","","-16.5","","83","","","","","","0","","","","99.94","","","","","","Snow"
"-89.80","68.54","KUGAARUK A","2303092","2012-02-14 07:00","2012","02","14","07:00","-14.5","","-16.2","","87","","","","16","","11","","","","99.91","","","","-21","","Snow"
"-89.80","68.54","KUGAARUK A","2303092","2012-02-14 08:00","2012","02","14","08:00","-15.3","","-17.1","","86","","","","3","","6","","","","99.88","","","","-20","","Snow"
"-89.80","68.54","KUGAARUK A","2303092","2012-02-14 09:00","2012","02","14","09:00","-15.9","","-18.3","","82","","","","23","","6","","","","99.87","","","","-20","","Snow"
"-89.80","68.54","KUGAARUK A","2303092","2012-02-14 10:00","2012","02","14","10:00","-15.6","","-17.4","","86","","","","","","0","","","","99.85","","","","","","Snow"
"-89.80","68.54","KUGAARUK A","2303092","2012-02-14 11:00","2012","02","14","11:00","-15.7","","-17.0","","90","","","","","","0","","","","99.79","","","","","","Snow Showers"
"-89.80","68.54","KUGAARUK A","2303092","2012-02-14 12:00","2012","02","14","12:00","-16.0","","-17.9","","85","","","","","","0","","","","99.77","","","","","","Snow Showers"
"-89.80","68.54","KUGAARUK A","2303092","2012-02-14 13:00","2012","02","14","13:00","-15.7","","-17.5","","86","","","","","","0","","","","99.76","","","","","","Snow Showers"
"-89.80","68.54","KUGAARUK A","2303092","2012-02-14 14:00","2012","02","14","14:00","-15.6","","-17.4","","86","","","","12","","7","","","","99.78","","","","-21","","Snow Showers"
"-89.80","68.54","KUGAARUK A","2303092","2012-02-14 15:00","2012","02","14","15:00","-15.7","","-18.1","","82","","","","8","","4","","","","99.76","","","","-19","","Snow"
"-89.80","68.54","KUGAARUK A","2303092","2012-02-14 16:00","2012","02","14","16:00","-15.7","","-18.1","","82","","","","8","","9","","","","99.77","","","","-22","","Snow"
"-89.80","68.54","KUGAARUK A","2303092","2012-02-14 17:00","2012","02","14","17:00","-15.7","","-18.1","","82","","","","7","","7","","","","99.76","","","","-21","","Snow"
"-89.80","68.54","KUGAARUK A","2303092","2012-02-14 18:00","2012","02","14","18:00"
"-89.80","68.54","KUGAARUK A","2303092","2012-02-14 19:00","2012","02","14","19:00"
"-89.80","68.54","KUGAARUK A","2303092","2012-02-14 20:00","2012","02","14","20:00"
"-89.80","68.54","KUGAARUK A","2303092","2012-02-14 21:00","2012","02","14","21:00"
"-89.80","68.54","KUGAARUK A","2303092","2012-02-14 22:00","2012","02","14","22:00"
"-89.80","68.54","KUGAARUK A","2303092","2012-02-14 23:00","2012","02","14","23:00"
"-89.80","68.54","KUGAARUK A","2303092","2012-02-15 00:00","2012","02","15","00:00"
"-89.80","68.54","KUGAARUK A","2303092","2012-02-15 01:00","2012","02","15","01:00"
"-89.80","68.54","KUGAARUK A","2303092","2012-02-15 02:00","2012","02","15","02:00"
"-89.80","68.54","KUGAARUK A","2303092","2012-02-15 03:00","2012","02","15","03:00"
"-89.80","68.54","KUGAARUK A","2303092","2012-02-15 04:00","2012","02","15","04:00"
"-89.80","68.54","KUGAARUK A","2303092","2012-02-15 05:00","2012","02","15","05:00"
"-89.80","68.54","KUGAARUK A","2303092","2012-02-15 06:00","2012","02","15","06:00","-19.5","","-21.7","","83","","","","5","","11","","","","99.96","","","","-27","","Snow"
"-89.80","68.54","KUGAARUK A","2303092","2012-02-15 07:00","2012","02","15","07:00","-20.4","","-23.5","","76","","","","5","","11","","","","99.95","","","","-28","","Snow"
"-89.80","68.54","KUGAARUK A","2303092","2012-02-15 08:00","2012","02","15","08:00","-22.0","","-24.4","","81","","","","2","","15","","","","99.97","","","","-32","","Snow"
"-89.80","68.54","KUGAARUK A","2303092","2012-02-15 09:00","2012","02","15","09:00","-22.4","","-25.8","","74","","","","1","","17","","","","100.00","","","","-33","","Ice Crystals"
"-89.80","68.54","KUGAARUK A","2303092","2012-02-15 10:00","2012","02","15","10:00","-25.5","","-28.2","","78","","","","9","","9","","","","100.05","","","","-33","","Ice Crystals"
"-89.80","68.54","KUGAARUK A","2303092","2012-02-15 11:00","2012","02","15","11:00","-24.5","","-27.1","","79","","","","8","","7","","","","100.11","","","","-31","","Ice Crystals"
"-89.80","68.54","KUGAARUK A","2303092","2012-02-15 12:00","2012","02","15","12:00","-23.5","","-26.0","","80","","","","9","","6","","","","100.16","","","","-29","","Snow"
"-89.80","68.54","KUGAARUK A","2303092","2012-02-15 13:00","2012","02","15","13:00","-24.2","","-27.9","","71","","","","8","","9","","","","100.19","","","","-32","","Snow"
"-89.80","68.54","KUGAARUK A","2303092","2012-02-15 14:00","2012","02","15","14:00","-24.4","","-27.0","","79","","","","4","","7","","","","100.24","","","","-31","","Snow"
"-89.80","68.54","KUGAARUK A","2303092","2012-02-15 15:00","2012","02","15","15:00","-24.3","","-26.9","","79","","","","3","","7","","","","100.29","","","","-31","","Snow"
"-89.80","68.54","KUGAARUK A","2303092","2012-02-15 16:00","2012","02","15","16:00","-25.0","","-27.7","","78","","","","4","","9","","","","100.32","","","","-33","","Snow"
"-89.80","68.54","KUGAARUK A","2303092","2012-02-15 17:00","2012","02","15","17:00","-25.8","","-29.8","","69","","","","12","","6","","","","100.39","","","","-32","","Ice Crystals"
"-89.80","68.54","KUGAARUK A","2303092","2012-02-15 18:00","2012","02","15","18:00"
"-89.80","68.54","KUGAARUK A","2303092","2012-02-15 19:00","2012","02","15","19:00"
"-89.80","68.54","KUGAARUK A","2303092","2012-02-15 20:00","2012","02","15","20:00"
"-89.80","68.54","KUGAARUK A","2303092","2012-02-15 21:00","2012","02","15","21:00"
"-89.80","68.54","KUGAARUK A","2303092","2012-02-15 22:00","2012","02","15","22:00"
"-89.80","68.54","KUGAARUK A","2303092","2012-02-15 23:00","2012","02","15","23:00"
"-89.80","68.54","KUGAARUK A","2303092","2012-02-16 00:00","2012","02","16","00:00"
"-89.80","68.54","KUGAARUK A","2303092","2012-02-16 01:00","2012","02","16","01:00"
"-89.80","68.54","KUGAARUK A","2303092","2012-02-16 02:00","2012","02","16","02:00"
"-89.80","68.54","KUGAARUK A","2303092","2012-02-16 03:00","2012","02","16","03:00"
"-89.80","68.54","KUGAARUK A","2303092","2012-02-16 04:00","2012","02","16","04:00"
"-89.80","68.54","KUGAARUK A","2303092","2012-02-16 05:00","2012","02","16","05:00"
"-89.80","68.54","KUGAARUK A","2303092","2012-02-16 06:00","2012","02","16","06:00","-23.3","","-26.8","","73","","","","21","","4","","","","100.89","","","","-27","","Snow"
"-89.80","68.54","KUGAARUK A","2303092","2012-02-16 07:00","2012","02","16","07:00","-20.0","","-23.0","","77","","","","35","","11","","","","100.91","","","","-28","","Snow"
"-89.80","68.54","KUGAARUK A","2303092","2012-02-16 08:00","2012","02","16","08:00","-19.9","","-22.9","","77","","","","34","","19","","","","100.90","","","","-30","","Snow"
"-89.80","68.54","KUGAARUK A","2303092","2012-02-16 09:00","2012","02","16","09:00","-20.7","","-23.8","","76","","","","33","","9","","","","100.95","","","","-28","","Snow"
"-89.80","68.54","KUGAARUK A","2303092","2012-02-16 10:00","2012","02","16","10:00","-20.6","","-23.7","","76","","","","34","","7","","","","100.97","","","","-26","","Snow"
"-89.80","68.54","KUGAARUK A","2303092","2012-02-16 11:00","2012","02","16","11:00","-22.6","","-26.0","","74","","","","33","","6","","","","101.00","","","","-28","","Ice Crystals"
"-89.80","68.54","KUGAARUK A","2303092","2012-02-16 12:00","2012","02","16","12:00","-24.0","","-28.8","","65","","","","32","","22","","","","101.03","","","","-36","","Ice Crystals"
"-89.80","68.54","KUGAARUK A","2303092","2012-02-16 13:00","2012","02","16","13:00","-24.2","","-27.9","","71","","","","33","","20","","","","101.07","","","","-36","","Ice Crystals"
"-89.80","68.54","KUGAARUK A","2303092","2012-02-16 14:00","2012","02","16","14:00","-25.2","","-29.1","","70","","","","24","","13","","","","101.12","","","","-35","","Ice Crystals"
"-89.80","68.54","KUGAARUK A","2303092","2012-02-16 15:00","2012","02","16","15:00","-25.9","","-29.9","","69","","","","22","","15","","","","101.16","","","","-36","","Ice Crystals"
"-89.80","68.54","KUGAARUK A","2303092","2012-02-16 16:00","2012","02","16","16:00","-27.7","","-32.0","","67","","","","24","","19","","","","101.22","","","","-40","","Ice Crystals"
"-89.80","68.54","KUGAARUK A","2303092","2012-02-16 17:00","2012","02","16","17:00","-27.9","","-32.3","","66","","","","27","","22","","","","101.27","","","","-41","","Ice Crystals"
"-89.80","68.54","KUGAARUK A","2303092","2012-02-16 18:00","2012","02","16","18:00"
"-89.80","68.54","KUGAARUK A","2303092","2012-02-16 19:00","2012","02","16","19:00"
"-89.80","68.54","KUGAARUK A","2303092","2012-02-16 20:00","2012","02","16","20:00"
"-89.80","68.54","KUGAARUK A","2303092","2012-02-16 21:00","2012","02","16","21:00"
"-89.80","68.54","KUGAARUK A","2303092","2012-02-16 22:00","2012","02","16","22:00"
"-89.80","68.54","KUGAARUK A","2303092","2012-02-16 23:00","2012","02","16","23:00"
"-89.80","68.54","KUGAARUK A","2303092","2012-02-17 00:00","2012","02","17","00:00"
"-89.80","68.54","KUGAARUK A","2303092","2012-02-17 01:00","2012","02","17","01:00"
"-89.80","68.54","KUGAARUK A","2303092","2012-02-17 02:00","2012","02","17","02:00"
"-89.80","68.54","KUGAARUK A","2303092","2012-02-17 03:00","2012","02","17","03:00"
"-89.80","68.54","KUGAARUK A","2303092","2012-02-17 04:00","2012","02","17","04:00"
"-89.80","68.54","KUGAARUK A","2303092","2012-02-17 05:00","2012","02","17","05:00"
"-89.80","68.54","KUGAARUK A","2303092","2012-02-17 06:00","2012","02","17","06:00","-33.0","","-38.7","","57","","","","23","","19","","","","101.62","","","","-47","","Ice Crystals"
"-89.80","68.54","KUGAARUK A","2303092","2012-02-17 07:00","2012","02","17","07:00","-32.0","","-37.4","","59","","","","23","","22","","","","101.60","","","","-46","","Ice Crystals"
"-89.80","68.54","KUGAARUK A","2303092","2012-02-17 08:00","2012","02","17","08:00","-31.5","","-36.7","","60","","","","23","","19","","","","101.59","","","","-45","","Ice Crystals"
"-89.80","68.54","KUGAARUK A","2303092","2012-02-17 09:00","2012","02","17","09:00","-32.9","","-38.6","","57","","","","23","","19","","","","101.57","","","","-46","","Ice Crystals"
"-89.80","68.54","KUGAARUK A","2303092","2012-02-17 10:00","2012","02","17","10:00","-31.7","","-37.0","","59","","","","23","","19","","","","101.59","","","","-45","","Ice Crystals"
"-89.80","68.54","KUGAARUK A","2303092","2012-02-17 11:00","2012","02","17","11:00","-30.2","","-35.1","","62","","","","23","","24","","","","101.58","","","","-44","","Ice Crystals"
"-89.80","68.54","KUGAARUK A","2303092","2012-02-17 12:00","2012","02","17","12:00","-30.1","","-35.0","","62","","","","25","","19","","","","101.53","","","","-43","","Ice Crystals"
"-89.80","68.54","KUGAARUK A","2303092","2012-02-17 13:00","2012","02","17","13:00","-30.2","","-35.1","","62","","","","23","","24","","","","101.58","","","","-44","","Ice Crystals"
"-89.80","68.54","KUGAARUK A","2303092","2012-02-17 14:00","2012","02","17","14:00","-32.1","","-37.5","","59","","","","23","","22","","","","101.57","","","","-46","","Ice Crystals"
"-89.80","68.54","KUGAARUK A","2303092","2012-02-17 15:00","2012","02","17","15:00","-32.9","","-38.6","","57","","","","25","","15","","","","101.62","","","","-45","","Ice Crystals"
"-89.80","68.54","KUGAARUK A","2303092","2012-02-17 16:00","2012","02","17","16:00","-35.0","","-38.4","","71","","","","25","","15","","","","101.60","","","","-48","","Ice Crystals"
"-89.80","68.54","KUGAARUK A","2303092","2012-02-17 17:00","2012","02","17","17:00","-34.5","","-37.9","","71","","","","24","","15","","","","101.59","","","","-47","","Ice Crystals"
"-89.80","68.54","KUGAARUK A","2303092","2012-02-17 18:00","2012","02","17","18:00"
"-89.80","68.54","KUGAARUK A","2303092","2012-02-17 19:00","2012","02","17","19:00"
"-89.80","68.54","KUGAARUK A","2303092","2012-02-17 20:00","2012","02","17","20:00"
"-89.80","68.54","KUGAARUK A","2303092","2012-02-17 21:00","2012","02","17","21:00"
"-89.80","68.54","KUGAARUK A","2303092","2012-02-17 22:00","2012","02","17","22:00"
"-89.80","68.54","KUGAARUK A","2303092","2012-02-17 23:00","2012","02","17","23:00"
"-89.80","68.54","KUGAARUK A","2303092","2012-02-18 00:00","2012","02","18","00:00"
"-89.80","68.54","KUGAARUK A","2303092","2012-02-18 01:00","2012","02","18","01:00"
"-89.80","68.54","KUGAARUK A","2303092","2012-02-18 02:00","2012","02","18","02:00"
"-89.80","68.54","KUGAARUK A","2303092","2012-02-18 03:00","2012","02","18","03:00"
"-89.80","68.54","KUGAARUK A","2303092","2012-02-18 04:00","2012","02","18","04:00"
"-89.80","68.54","KUGAARUK A","2303092","2012-02-18 05:00","2012","02","18","05:00"
"-89.80","68.54","KUGAARUK A","2303092","2012-02-18 06:00","2012","02","18","06:00"
"-89.80","68.54","KUGAARUK A","2303092","2012-02-18 07:00","2012","02","18","07:00"
"-89.80","68.54","KUGAARUK A","2303092","2012-02-18 08:00","2012","02","18","08:00"
"-89.80","68.54","KUGAARUK A","2303092","2012-02-18 09:00","2012","02","18","09:00","-25.9","","-27.5","","86","","","","23","","7","","","","101.00","","","","-33","","Snow"
"-89.80","68.54","KUGAARUK A","2303092","2012-02-18 10:00","2012","02","18","10:00","-25.4","","-27.0","","86","","","","","","0","","","","100.98","","","","","","Snow"
"-89.80","68.54","KUGAARUK A","2303092","2012-02-18 11:00","2012","02","18","11:00","-25.0","","-26.6","","86","","","","24","","4","","","","100.96","","","","-29","","Snow"
"-89.80","68.54","KUGAARUK A","2303092","2012-02-18 12:00","2012","02","18","12:00","-23.9","","-25.5","","87","","","","","","0","","","","100.93","","","","","","Snow"
"-89.80","68.54","KUGAARUK A","2303092","2012-02-18 13:00","2012","02","18","13:00","-24.0","","-25.6","","87","","","","","","0","","","","100.95","","","","","","Snow"
"-89.80","68.54","KUGAARUK A","2303092","2012-02-18 14:00","2012","02","18","14:00","-24.4","","-26.0","","87","","","","14","","22","","","","100.92","","","","-37","","Snow"
"-89.80","68.54","KUGAARUK A","2303092","2012-02-18 15:00","2012","02","18","15:00","-23.8","","-27.4","","72","","","","","","0","","","","100.94","","","","","","Snow"
"-89.80","68.54","KUGAARUK A","2303092","2012-02-18 16:00","2012","02","18","16:00","-24.8","","-28.6","","71","","","","32","","7","","","","100.95","","","","-31","","Snow"
"-89.80","68.54","KUGAARUK A","2303092","2012-02-18 17:00","2012","02","18","17:00","-24.6","","-28.3","","71","","","","","","0","","","","100.96","","","","","","Snow"
"-89.80","68.54","KUGAARUK A","2303092","2012-02-18 18:00","2012","02","18","18:00","-26.5","","-29.3","","77","","","","5","","13","","","","100.97","","","","-36","","Snow"
"-89.80","68.54","KUGAARUK A","2303092","2012-02-18 19:00","2012","02","18","19:00"
"-89.80","68.54","KUGAARUK A","2303092","2012-02-18 20:00","2012","02","18","20:00"
"-89.80","68.54","KUGAARUK A","2303092","2012-02-18 21:00","2012","02","18","21:00"
"-89.80","68.54","KUGAARUK A","2303092","2012-02-18 22:00","2012","02","18","22:00"
"-89.80","68.54","KUGAARUK A","2303092","2012-02-18 23:00","2012","02","18","23:00"
"-89.80","68.54","KUGAARUK A","2303092","2012-02-19 00:00","2012","02","19","00:00"
"-89.80","68.54","KUGAARUK A","2303092","2012-02-19 01:00","2012","02","19","01:00"
"-89.80","68.54","KUGAARUK A","2303092","2012-02-19 02:00","2012","02","19","02:00"
"-89.80","68.54","KUGAARUK A","2303092","2012-02-19 03:00","2012","02","19","03:00"
"-89.80","68.54","KUGAARUK A","2303092","2012-02-19 04:00","2012","02","19","04:00"
"-89.80","68.54","KUGAARUK A","2303092","2012-02-19 05:00","2012","02","19","05:00"
"-89.80","68.54","KUGAARUK A","2303092","2012-02-19 06:00","2012","02","19","06:00"
"-89.80","68.54","KUGAARUK A","2303092","2012-02-19 07:00","2012","02","19","07:00"
"-89.80","68.54","KUGAARUK A","2303092","2012-02-19 08:00","2012","02","19","08:00","-28.9","","-33.5","","64","","","","7","","9","","","","101.37","","","","-37","","Snow"
"-89.80","68.54","KUGAARUK A","2303092","2012-02-19 09:00","2012","02","19","09:00","-29.4","","-34.1","","64","","","","2","","19","","","","101.40","","","","-42","","Ice Crystals"
"-89.80","68.54","KUGAARUK A","2303092","2012-02-19 10:00","2012","02","19","10:00","-29.9","","-34.7","","63","","","","1","","20","","","","101.44","","","","-43","","Ice Crystals"
"-89.80","68.54","KUGAARUK A","2303092","2012-02-19 11:00","2012","02","19","11:00","-29.9","","-34.7","","63","","","","3","","15","","","","101.47","","","","-41","","Ice Crystals"
"-89.80","68.54","KUGAARUK A","2303092","2012-02-19 12:00","2012","02","19","12:00","-29.5","","-34.2","","64","","","","4","","15","","","","101.50","","","","-41","","Snow Grains"
"-89.80","68.54","KUGAARUK A","2303092","2012-02-19 13:00","2012","02","19","13:00","-29.6","","-34.4","","63","","","","6","","9","","","","101.58","","","","-38","","Ice Crystals"
"-89.80","68.54","KUGAARUK A","2303092","2012-02-19 14:00","2012","02","19","14:00","-29.4","","-34.1","","64","","","","5","","6","","","","101.64","","","","-36","","Ice Crystals"
"-89.80","68.54","KUGAARUK A","2303092","2012-02-19 15:00","2012","02","19","15:00","-30.4","","-35.4","","62","","","","2","","13","","","","101.71","","","","-41","","Ice Crystals"
"-89.80","68.54","KUGAARUK A","2303092","2012-02-19 16:00","2012","02","19","16:00","-30.5","","-35.5","","62","","","","9","","9","","","","101.77","","","","-39","","Ice Crystals"
"-89.80","68.54","KUGAARUK A","2303092","2012-02-19 17:00","2012","02","19","17:00","-30.4","","-35.4","","62","","","","10","","6","","","","101.80","","","","-37","","Ice Crystals"
"-89.80","68.54","KUGAARUK A","2303092","2012-02-19 18:00","2012","02","19","18:00"
"-89.80","68.54","KUGAARUK A","2303092","2012-02-19 19:00","2012","02","19","19:00"
"-89.80","68.54","KUGAARUK A","2303092","2012-02-19 20:00","2012","02","19","20:00"
"-89.80","68.54","KUGAARUK A","2303092","2012-02-19 21:00","2012","02","19","21:00"
"-89.80","68.54","KUGAARUK A","2303092","2012-02-19 22:00","2012","02","19","22:00"
"-89.80","68.54","KUGAARUK A","2303092","2012-02-19 23:00","2012","02","19","23:00"
"-89.80","68.54","KUGAARUK A","2303092","2012-02-20 00:00","2012","02","20","00:00"
"-89.80","68.54","KUGAARUK A","2303092","2012-02-20 01:00","2012","02","20","01:00"
"-89.80","68.54","KUGAARUK A","2303092","2012-02-20 02:00","2012","02","20","02:00"
"-89.80","68.54","KUGAARUK A","2303092","2012-02-20 03:00","2012","02","20","03:00"
"-89.80","68.54","KUGAARUK A","2303092","2012-02-20 04:00","2012","02","20","04:00"
"-89.80","68.54","KUGAARUK A","2303092","2012-02-20 05:00","2012","02","20","05:00"
"-89.80","68.54","KUGAARUK A","2303092","2012-02-20 06:00","2012","02","20","06:00","-37.9","","-41.5","","69","","","","25","","20","","","","102.26","","","","-53","","Ice Crystals"
"-89.80","68.54","KUGAARUK A","2303092","2012-02-20 07:00","2012","02","20","07:00","-36.9","","-40.4","","70","","","","26","","24","","","","102.27","","","","-53","","Ice Crystals"
"-89.80","68.54","KUGAARUK A","2303092","2012-02-20 08:00","2012","02","20","08:00","-36.4","","-39.9","","70","","","","24","","26","","","","102.27","","","","-53","","Ice Crystals"
"-89.80","68.54","KUGAARUK A","2303092","2012-02-20 09:00","2012","02","20","09:00","-35.9","","-39.3","","71","","","","25","","22","","","","102.28","","","","-51","","Ice Crystals"
"-89.80","68.54","KUGAARUK A","2303092","2012-02-20 10:00","2012","02","20","10:00","-34.9","","-38.3","","71","","","","24","","20","","","","102.27","","","","-49","","Ice Crystals"
"-89.80","68.54","KUGAARUK A","2303092","2012-02-20 11:00","2012","02","20","11:00","-35.0","","-38.4","","71","","","","24","","24","","","","102.27","","","","-51","","Ice Crystals"
"-89.80","68.54","KUGAARUK A","2303092","2012-02-20 12:00","2012","02","20","12:00","-34.7","","-38.1","","71","","","","24","","28","","","","102.26","","","","-51","","Ice Crystals"
"-89.80","68.54","KUGAARUK A","2303092","2012-02-20 13:00","2012","02","20","13:00","-34.5","","-37.9","","71","","","","23","","19","","","","102.26","","","","-48","","Ice Crystals"
"-89.80","68.54","KUGAARUK A","2303092","2012-02-20 14:00","2012","02","20","14:00","-33.4","","-39.2","","56","","","","23","","19","","","","102.26","","","","-47","","Ice Crystals"
"-89.80","68.54","KUGAARUK A","2303092","2012-02-20 15:00","2012","02","20","15:00","-33.5","","-39.3","","56","","","","22","","19","","","","102.28","","","","-47","","Ice Crystals"
"-89.80","68.54","KUGAARUK A","2303092","2012-02-20 16:00","2012","02","20","16:00","-34.0","","-37.3","","72","","","","23","","22","","","","102.29","","","","-49","","Ice Crystals"
"-89.80","68.54","KUGAARUK A","2303092","2012-02-20 17:00","2012","02","20","17:00","-34.0","","-40.0","","55","","","","22","","19","","","","102.29","","","","-48","","Ice Crystals"
"-89.80","68.54","KUGAARUK A","2303092","2012-02-20 18:00","2012","02","20","18:00"
"-89.80","68.54","KUGAARUK A","2303092","2012-02-20 19:00","2012","02","20","19:00"
"-89.80","68.54","KUGAARUK A","2303092","2012-02-20 20:00","2012","02","20","20:00"
"-89.80","68.54","KUGAARUK A","2303092","2012-02-20 21:00","2012","02","20","21:00"
"-89.80","68.54","KUGAARUK A","2303092","2012-02-20 22:00","2012","02","20","22:00"
"-89.80","68.54","KUGAARUK A","2303092","2012-02-20 23:00","2012","02","20","23:00"
"-89.80","68.54","KUGAARUK A","2303092","2012-02-21 00:00","2012","02","21","00:00"
"-89.80","68.54","KUGAARUK A","2303092","2012-02-21 01:00","2012","02","21","01:00"
"-89.80","68.54","KUGAARUK A","2303092","2012-02-21 02:00","2012","02","21","02:00"
"-89.80","68.54","KUGAARUK A","2303092","2012-02-21 03:00","2012","02","21","03:00"
"-89.80","68.54","KUGAARUK A","2303092","2012-02-21 04:00","2012","02","21","04:00"
"-89.80","68.54","KUGAARUK A","2303092","2012-02-21 05:00","2012","02","21","05:00"
"-89.80","68.54","KUGAARUK A","2303092","2012-02-21 06:00","2012","02","21","06:00","-36.0","","-39.4","","71","","","","19","","7","","","","101.96","","","","-44","","Ice Crystals"
"-89.80","68.54","KUGAARUK A","2303092","2012-02-21 07:00","2012","02","21","07:00","-38.0","","","M","","M","","","23","","4","","","","101.94","","","","-43","","Ice Crystals"
"-89.80","68.54","KUGAARUK A","2303092","2012-02-21 08:00","2012","02","21","08:00","-39.8","","","M","","M","","","","","0","","","","101.89","","","","","","Ice Crystals"
"-89.80","68.54","KUGAARUK A","2303092","2012-02-21 09:00","2012","02","21","09:00","-39.9","","","M","","M","","","4","","4","","","","101.86","","","","-45","","Ice Crystals"
"-89.80","68.54","KUGAARUK A","2303092","2012-02-21 10:00","2012","02","21","10:00","-39.3","","","M","","M","","","","","0","","","","101.83","","","","","","Ice Crystals"
"-89.80","68.54","KUGAARUK A","2303092","2012-02-21 11:00","2012","02","21","11:00","-38.9","","","M","","M","","","","","0","","","","101.74","","","","","","Ice Crystals"
"-89.80","68.54","KUGAARUK A","2303092","2012-02-21 12:00","2012","02","21","12:00","-38.0","","","M","","M","","","","","0","","","","101.72","","","","","","Ice Crystals"
"-89.80","68.54","KUGAARUK A","2303092","2012-02-21 13:00","2012","02","21","13:00","-37.4","","","M","","M","","","","","0","","","","101.71","","","","","","Ice Crystals"
"-89.80","68.54","KUGAARUK A","2303092","2012-02-21 14:00","2012","02","21","14:00","-37.0","","-40.5","","70","","","","4","","4","","","","101.66","","","","-42","","Ice Crystals"
"-89.80","68.54","KUGAARUK A","2303092","2012-02-21 15:00","2012","02","21","15:00","-37.7","","","M","","M","","","4","","4","","","","101.65","","","","-43","","Ice Crystals"
"-89.80","68.54","KUGAARUK A","2303092","2012-02-21 16:00","2012","02","21","16:00","-38.2","","","M","","M","","","","","0","","","","101.65","","","","","","Ice Crystals"
"-89.80","68.54","KUGAARUK A","2303092","2012-02-21 17:00","2012","02","21","17:00","-38.1","","","M","","M","","","","","0","","","","101.60","","","","","","Ice Crystals"
"-89.80","68.54","KUGAARUK A","2303092","2012-02-21 18:00","2012","02","21","18:00"
"-89.80","68.54","KUGAARUK A","2303092","2012-02-21 19:00","2012","02","21","19:00"
"-89.80","68.54","KUGAARUK A","2303092","2012-02-21 20:00","2012","02","21","20:00"
"-89.80","68.54","KUGAARUK A","2303092","2012-02-21 21:00","2012","02","21","21:00"
"-89.80","68.54","KUGAARUK A","2303092","2012-02-21 22:00","2012","02","21","22:00"
"-89.80","68.54","KUGAARUK A","2303092","2012-02-21 23:00","2012","02","21","23:00"
"-89.80","68.54","KUGAARUK A","2303092","2012-02-22 00:00","2012","02","22","00:00"
"-89.80","68.54","KUGAARUK A","2303092","2012-02-22 01:00","2012","02","22","01:00"
"-89.80","68.54","KUGAARUK A","2303092","2012-02-22 02:00","2012","02","22","02:00"
"-89.80","68.54","KUGAARUK A","2303092","2012-02-22 03:00","2012","02","22","03:00"
"-89.80","68.54","KUGAARUK A","2303092","2012-02-22 04:00","2012","02","22","04:00"
"-89.80","68.54","KUGAARUK A","2303092","2012-02-22 05:00","2012","02","22","05:00"
"-89.80","68.54","KUGAARUK A","2303092","2012-02-22 06:00","2012","02","22","06:00","-29.6","","-34.4","","63","","","","25","","13","","","","101.20","","","","-40","","Ice Crystals"
"-89.80","68.54","KUGAARUK A","2303092","2012-02-22 07:00","2012","02","22","07:00","-26.2","","-30.2","","69","","","","22","","19","","","","101.16","","","","-38","","Cloudy"
"-89.80","68.54","KUGAARUK A","2303092","2012-02-22 08:00","2012","02","22","08:00","-27.9","","-32.3","","66","","","","23","","9","","","","101.12","","","","-36","","Ice Crystals"
"-89.80","68.54","KUGAARUK A","2303092","2012-02-22 09:00","2012","02","22","09:00","-30.2","","-35.1","","62","","","","5","","4","","","","101.09","","","","-35","","Ice Crystals"
"-89.80","68.54","KUGAARUK A","2303092","2012-02-22 10:00","2012","02","22","10:00","-32.5","","-38.0","","58","","","","","","0","","","","101.10","","","","","","Ice Crystals"
"-89.80","68.54","KUGAARUK A","2303092","2012-02-22 11:00","2012","02","22","11:00","-31.4","","-36.6","","60","","","","","","0","","","","101.09","","","","","","Ice Crystals"
"-89.80","68.54","KUGAARUK A","2303092","2012-02-22 12:00","2012","02","22","12:00","-29.8","","-34.6","","63","","","","23","","9","","","","101.08","","","","-38","","Ice Crystals"
"-89.80","68.54","KUGAARUK A","2303092","2012-02-22 13:00","2012","02","22","13:00","-25.9","","-29.9","","69","","","","24","","15","","","","101.08","","","","-36","","Ice Crystals"
"-89.80","68.54","KUGAARUK A","2303092","2012-02-22 14:00","2012","02","22","14:00","-30.0","","-34.8","","63","","","","","","0","","","","101.10","","","","","","Ice Crystals"
"-89.80","68.54","KUGAARUK A","2303092","2012-02-22 15:00","2012","02","22","15:00","-29.7","","-34.5","","63","","","","","","0","","","","101.09","","","","","","Ice Crystals"
"-89.80","68.54","KUGAARUK A","2303092","2012-02-22 16:00","2012","02","22","16:00","-30.0","","-34.8","","63","","","","","","0","","","","101.07","","","","","","Ice Crystals"
"-89.80","68.54","KUGAARUK A","2303092","2012-02-22 17:00","2012","02","22","17:00","-30.0","","-34.8","","63","","","","","","0","","","","101.07","","","","","","Ice Crystals"
"-89.80","68.54","KUGAARUK A","2303092","2012-02-22 18:00","2012","02","22","18:00"
"-89.80","68.54","KUGAARUK A","2303092","2012-02-22 19:00","2012","02","22","19:00"
"-89.80","68.54","KUGAARUK A","2303092","2012-02-22 20:00","2012","02","22","20:00","-31.2","","-36.4","","60","","","","","","0","","","","101.00","","","","","","Ice Crystals"
"-89.80","68.54","KUGAARUK A","2303092","2012-02-22 21:00","2012","02","22","21:00","-31.5","","-36.7","","60","","","","","","0","","","","100.99","","","","","","Ice Crystals"
"-89.80","68.54","KUGAARUK A","2303092","2012-02-22 22:00","2012","02","22","22:00","-31.5","","-36.7","","60","","","","","","0","","","","100.98","","","","","","Ice Crystals"
"-89.80","68.54","KUGAARUK A","2303092","2012-02-22 23:00","2012","02","22","23:00"
"-89.80","68.54","KUGAARUK A","2303092","2012-02-23 00:00","2012","02","23","00:00"
"-89.80","68.54","KUGAARUK A","2303092","2012-02-23 01:00","2012","02","23","01:00"
"-89.80","68.54","KUGAARUK A","2303092","2012-02-23 02:00","2012","02","23","02:00"
"-89.80","68.54","KUGAARUK A","2303092","2012-02-23 03:00","2012","02","23","03:00"
"-89.80","68.54","KUGAARUK A","2303092","2012-02-23 04:00","2012","02","23","04:00"
"-89.80","68.54","KUGAARUK A","2303092","2012-02-23 05:00","2012","02","23","05:00"
"-89.80","68.54","KUGAARUK A","2303092","2012-02-23 06:00","2012","02","23","06:00","-24.6","","-27.2","","79","","","","21","","11","","","","100.94","","","","-33","","Snow"
"-89.80","68.54","KUGAARUK A","2303092","2012-02-23 07:00","2012","02","23","07:00","-25.4","","-29.3","","70","","","","23","","13","","","","100.91","","","","-35","","Snow"
"-89.80","68.54","KUGAARUK A","2303092","2012-02-23 08:00","2012","02","23","08:00","-25.4","","-29.3","","70","","","","27","","9","","","","100.93","","","","-33","","Snow"
"-89.80","68.54","KUGAARUK A","2303092","2012-02-23 09:00","2012","02","23","09:00","-27.3","","-31.6","","67","","","","25","","6","","","","100.94","","","","-33","","Snow"
"-89.80","68.54","KUGAARUK A","2303092","2012-02-23 10:00","2012","02","23","10:00","-27.0","","-29.8","","77","","","","25","","7","","","","100.93","","","","-34","","Snow"
"-89.80","68.54","KUGAARUK A","2303092","2012-02-23 11:00","2012","02","23","11:00","-25.9","","-29.9","","69","","","","24","","11","","","","100.94","","","","-35","","Snow"
"-89.80","68.54","KUGAARUK A","2303092","2012-02-23 12:00","2012","02","23","12:00","-24.9","","-28.7","","71","","","","24","","11","","","","100.94","","","","-34","","Snow"
"-89.80","68.54","KUGAARUK A","2303092","2012-02-23 13:00","2012","02","23","13:00","-26.0","","-30.0","","69","","","","25","","7","","","","100.96","","","","-33","","Ice Crystals"
"-89.80","68.54","KUGAARUK A","2303092","2012-02-23 14:00","2012","02","23","14:00","-26.4","","-30.5","","68","","","","24","","11","","","","100.98","","","","-35","","Ice Crystals"
"-89.80","68.54","KUGAARUK A","2303092","2012-02-23 15:00","2012","02","23","15:00","-28.6","","-33.1","","65","","","","24","","9","","","","101.00","","","","-37","","Ice Crystals"
"-89.80","68.54","KUGAARUK A","2303092","2012-02-23 16:00","2012","02","23","16:00","-28.9","","-33.5","","64","","","","25","","11","","","","101.03","","","","-38","","Ice Crystals"
"-89.80","68.54","KUGAARUK A","2303092","2012-02-23 17:00","2012","02","23","17:00","-29.5","","-34.2","","64","","","","25","","11","","","","101.03","","","","-39","","Ice Crystals"
"-89.80","68.54","KUGAARUK A","2303092","2012-02-23 18:00","2012","02","23","18:00"
"-89.80","68.54","KUGAARUK A","2303092","2012-02-23 19:00","2012","02","23","19:00"
"-89.80","68.54","KUGAARUK A","2303092","2012-02-23 20:00","2012","02","23","20:00"
"-89.80","68.54","KUGAARUK A","2303092","2012-02-23 21:00","2012","02","23","21:00"
"-89.80","68.54","KUGAARUK A","2303092","2012-02-23 22:00","2012","02","23","22:00"
"-89.80","68.54","KUGAARUK A","2303092","2012-02-23 23:00","2012","02","23","23:00"
"-89.80","68.54","KUGAARUK A","2303092","2012-02-24 00:00","2012","02","24","00:00"
"-89.80","68.54","KUGAARUK A","2303092","2012-02-24 01:00","2012","02","24","01:00"
"-89.80","68.54","KUGAARUK A","2303092","2012-02-24 02:00","2012","02","24","02:00"
"-89.80","68.54","KUGAARUK A","2303092","2012-02-24 03:00","2012","02","24","03:00"
"-89.80","68.54","KUGAARUK A","2303092","2012-02-24 04:00","2012","02","24","04:00"
"-89.80","68.54","KUGAARUK A","2303092","2012-02-24 05:00","2012","02","24","05:00"
"-89.80","68.54","KUGAARUK A","2303092","2012-02-24 06:00","2012","02","24","06:00","-33.0","","-38.7","","57","","","","25","","11","","","","101.49","","","","-43","","Ice Crystals"
"-89.80","68.54","KUGAARUK A","2303092","2012-02-24 07:00","2012","02","24","07:00","-33.9","","-37.2","","72","","","","23","","11","","","","101.54","","","","-44","","Ice Crystals"
"-89.80","68.54","KUGAARUK A","2303092","2012-02-24 08:00","2012","02","24","08:00","-33.7","","-37.0","","72","","","","23","","15","","","","101.58","","","","-46","","Ice Crystals"
"-89.80","68.54","KUGAARUK A","2303092","2012-02-24 09:00","2012","02","24","09:00","-34.6","","-38.0","","71","","","","24","","15","","","","101.63","","","","-47","","Ice Crystals"
"-89.80","68.54","KUGAARUK A","2303092","2012-02-24 10:00","2012","02","24","10:00","-34.8","","-38.2","","71","","","","25","","11","","","","101.68","","","","-45","","Ice Crystals"
"-89.80","68.54","KUGAARUK A","2303092","2012-02-24 11:00","2012","02","24","11:00","-34.2","","-37.5","","72","","","","26","","13","","","","101.72","","","","-46","","Ice Crystals"
"-89.80","68.54","KUGAARUK A","2303092","2012-02-24 12:00","2012","02","24","12:00","-34.2","","-37.5","","72","","","","24","","13","","","","101.77","","","","-46","","Ice Crystals"
"-89.80","68.54","KUGAARUK A","2303092","2012-02-24 13:00","2012","02","24","13:00","-33.7","","-37.0","","72","","","","25","","9","","","","101.83","","","","-43","","Ice Crystals"
"-89.80","68.54","KUGAARUK A","2303092","2012-02-24 14:00","2012","02","24","14:00","-34.1","","-37.4","","72","","","","25","","9","","","","101.89","","","","-43","","Ice Crystals"
"-89.80","68.54","KUGAARUK A","2303092","2012-02-24 15:00","2012","02","24","15:00","-35.0","","-38.4","","71","","","","25","","6","","","","101.95","","","","-42","","Ice Crystals"
"-89.80","68.54","KUGAARUK A","2303092","2012-02-24 16:00","2012","02","24","16:00","-35.8","","-39.2","","71","","","","25","","17","","","","101.99","","","","-49","","Ice Crystals"
"-89.80","68.54","KUGAARUK A","2303092","2012-02-24 17:00","2012","02","24","17:00","-36.4","","-39.9","","70","","","","26","","13","","","","102.02","","","","-48","","Ice Crystals"
"-89.80","68.54","KUGAARUK A","2303092","2012-02-24 18:00","2012","02","24","18:00"
"-89.80","68.54","KUGAARUK A","2303092","2012-02-24 19:00","2012","02","24","19:00"
"-89.80","68.54","KUGAARUK A","2303092","2012-02-24 20:00","2012","02","24","20:00"
"-89.80","68.54","KUGAARUK A","2303092","2012-02-24 21:00","2012","02","24","21:00"
"-89.80","68.54","KUGAARUK A","2303092","2012-02-24 22:00","2012","02","24","22:00"
"-89.80","68.54","KUGAARUK A","2303092","2012-02-24 23:00","2012","02","24","23:00"
"-89.80","68.54","KUGAARUK A","2303092","2012-02-25 00:00","2012","02","25","00:00"
"-89.80","68.54","KUGAARUK A","2303092","2012-02-25 01:00","2012","02","25","01:00"
"-89.80","68.54","KUGAARUK A","2303092","2012-02-25 02:00","2012","02","25","02:00"
"-89.80","68.54","KUGAARUK A","2303092","2012-02-25 03:00","2012","02","25","03:00"
"-89.80","68.54","KUGAARUK A","2303092","2012-02-25 04:00","2012","02","25","04:00"
"-89.80","68.54","KUGAARUK A","2303092","2012-02-25 05:00","2012","02","25","05:00"
"-89.80","68.54","KUGAARUK A","2303092","2012-02-25 06:00","2012","02","25","06:00"
"-89.80","68.54","KUGAARUK A","2303092","2012-02-25 07:00","2012","02","25","07:00"
"-89.80","68.54","KUGAARUK A","2303092","2012-02-25 08:00","2012","02","25","08:00"
"-89.80","68.54","KUGAARUK A","2303092","2012-02-25 09:00","2012","02","25","09:00","-40.0","","","M","","M","","","25","","13","","","","102.32","","","","-53","","Ice Crystals"
"-89.80","68.54","KUGAARUK A","2303092","2012-02-25 10:00","2012","02","25","10:00","-39.0","","","M","","M","","","26","","15","","","","102.32","","","","-53","","Ice Crystals"
"-89.80","68.54","KUGAARUK A","2303092","2012-02-25 11:00","2012","02","25","11:00","-38.5","","","M","","M","","","25","","20","","","","102.34","","","","-54","","Ice Crystals"
"-89.80","68.54","KUGAARUK A","2303092","2012-02-25 12:00","2012","02","25","12:00","-38.0","","","M","","M","","","26","","19","","","","102.36","","","","-53","","Ice Crystals"
"-89.80","68.54","KUGAARUK A","2303092","2012-02-25 13:00","2012","02","25","13:00","-38.0","","","M","","M","","","25","","15","","","","102.38","","","","-51","","Ice Crystals"
"-89.80","68.54","KUGAARUK A","2303092","2012-02-25 14:00","2012","02","25","14:00","-38.3","","","M","","M","","","25","","15","","","","102.40","","","","-52","","Ice Crystals"
"-89.80","68.54","KUGAARUK A","2303092","2012-02-25 15:00","2012","02","25","15:00","-38.3","","","M","","M","","","26","","13","","","","102.45","","","","-51","","Ice Crystals"
"-89.80","68.54","KUGAARUK A","2303092","2012-02-25 16:00","2012","02","25","16:00","-39.2","","","M","","M","","","26","","13","","","","102.48","","","","-52","","Ice Crystals"
"-89.80","68.54","KUGAARUK A","2303092","2012-02-25 17:00","2012","02","25","17:00","-39.3","","","M","","M","","","25","","17","","","","102.48","","","","-54","","Ice Crystals"
"-89.80","68.54","KUGAARUK A","2303092","2012-02-25 18:00","2012","02","25","18:00","-38.7","","","M","","M","","","23","","19","","","","102.51","","","","-54","","Ice Crystals"
"-89.80","68.54","KUGAARUK A","2303092","2012-02-25 19:00","2012","02","25","19:00"
"-89.80","68.54","KUGAARUK A","2303092","2012-02-25 20:00","2012","02","25","20:00"
"-89.80","68.54","KUGAARUK A","2303092","2012-02-25 21:00","2012","02","25","21:00"
"-89.80","68.54","KUGAARUK A","2303092","2012-02-25 22:00","2012","02","25","22:00"
"-89.80","68.54","KUGAARUK A","2303092","2012-02-25 23:00","2012","02","25","23:00"
"-89.80","68.54","KUGAARUK A","2303092","2012-02-26 00:00","2012","02","26","00:00"
"-89.80","68.54","KUGAARUK A","2303092","2012-02-26 01:00","2012","02","26","01:00"
"-89.80","68.54","KUGAARUK A","2303092","2012-02-26 02:00","2012","02","26","02:00"
"-89.80","68.54","KUGAARUK A","2303092","2012-02-26 03:00","2012","02","26","03:00"
"-89.80","68.54","KUGAARUK A","2303092","2012-02-26 04:00","2012","02","26","04:00"
"-89.80","68.54","KUGAARUK A","2303092","2012-02-26 05:00","2012","02","26","05:00"
"-89.80","68.54","KUGAARUK A","2303092","2012-02-26 06:00","2012","02","26","06:00"
"-89.80","68.54","KUGAARUK A","2303092","2012-02-26 07:00","2012","02","26","07:00","-37.7","","","M","","M","","","22","","28","","","","102.49","","","","-55","","Ice Crystals,Blowing Snow"
"-89.80","68.54","KUGAARUK A","2303092","2012-02-26 08:00","2012","02","26","08:00","-37.8","","","M","","M","","","23","","26","","","","102.48","","","","-55","","Ice Crystals,Blowing Snow"
"-89.80","68.54","KUGAARUK A","2303092","2012-02-26 09:00","2012","02","26","09:00","-36.8","","-40.3","","70","","","","22","","30","","","","102.50","","","","-54","","Ice Crystals"
"-89.80","68.54","KUGAARUK A","2303092","2012-02-26 10:00","2012","02","26","10:00","-36.3","","-39.8","","70","","","","23","","28","","","","102.45","","","","-53","","Ice Crystals"
"-89.80","68.54","KUGAARUK A","2303092","2012-02-26 11:00","2012","02","26","11:00","-36.1","","-39.6","","70","","","","24","","26","","","","102.45","","","","-53","","Ice Crystals"
"-89.80","68.54","KUGAARUK A","2303092","2012-02-26 12:00","2012","02","26","12:00","-35.3","","-38.7","","71","","","","22","","33","","","","102.42","","","","-53","","Ice Crystals,Blowing Snow"
"-89.80","68.54","KUGAARUK A","2303092","2012-02-26 13:00","2012","02","26","13:00","-34.9","","-38.3","","71","","","","22","","24","","","","102.43","","","","-50","","Ice Crystals"
"-89.80","68.54","KUGAARUK A","2303092","2012-02-26 14:00","2012","02","26","14:00","-34.9","","-38.3","","71","","","","22","","26","","","","102.42","","","","-51","","Ice Crystals"
"-89.80","68.54","KUGAARUK A","2303092","2012-02-26 15:00","2012","02","26","15:00","-34.3","","-37.6","","72","","","","22","","28","","","","102.40","","","","-51","","Ice Crystals"
"-89.80","68.54","KUGAARUK A","2303092","2012-02-26 16:00","2012","02","26","16:00","-34.9","","-38.3","","71","","","","23","","30","","","","102.40","","","","-52","","Ice Crystals"
"-89.80","68.54","KUGAARUK A","2303092","2012-02-26 17:00","2012","02","26","17:00","-35.3","","-38.7","","71","","","","22","","30","","","","102.42","","","","-53","","Ice Crystals"
"-89.80","68.54","KUGAARUK A","2303092","2012-02-26 18:00","2012","02","26","18:00"
"-89.80","68.54","KUGAARUK A","2303092","2012-02-26 19:00","2012","02","26","19:00"
"-89.80","68.54","KUGAARUK A","2303092","2012-02-26 20:00","2012","02","26","20:00"
"-89.80","68.54","KUGAARUK A","2303092","2012-02-26 21:00","2012","02","26","21:00"
"-89.80","68.54","KUGAARUK A","2303092","2012-02-26 22:00","2012","02","26","22:00"
"-89.80","68.54","KUGAARUK A","2303092","2012-02-26 23:00","2012","02","26","23:00"
"-89.80","68.54","KUGAARUK A","2303092","2012-02-27 00:00","2012","02","27","00:00"
"-89.80","68.54","KUGAARUK A","2303092","2012-02-27 01:00","2012","02","27","01:00"
"-89.80","68.54","KUGAARUK A","2303092","2012-02-27 02:00","2012","02","27","02:00"
"-89.80","68.54","KUGAARUK A","2303092","2012-02-27 03:00","2012","02","27","03:00"
"-89.80","68.54","KUGAARUK A","2303092","2012-02-27 04:00","2012","02","27","04:00"
"-89.80","68.54","KUGAARUK A","2303092","2012-02-27 05:00","2012","02","27","05:00"
"-89.80","68.54","KUGAARUK A","2303092","2012-02-27 06:00","2012","02","27","06:00","-31.8","","-33.2","","87","","","","22","","24","","","","102.01","","","","-47","","Snow"
"-89.80","68.54","KUGAARUK A","2303092","2012-02-27 07:00","2012","02","27","07:00","-36.4","","","M","","M","","","22","","33","","","","101.99","","","","-55","","Ice Crystals"
"-89.80","68.54","KUGAARUK A","2303092","2012-02-27 08:00","2012","02","27","08:00","-31.3","","-36.5","","60","","","","23","","32","","","","101.92","","","","-48","","Ice Crystals"
"-89.80","68.54","KUGAARUK A","2303092","2012-02-27 09:00","2012","02","27","09:00","-31.0","","-36.1","","61","","","","22","","33","","","","101.89","","","","-48","","Ice Crystals"
"-89.80","68.54","KUGAARUK A","2303092","2012-02-27 10:00","2012","02","27","10:00","-30.8","","-35.9","","61","","","","23","","28","","","","101.87","","","","-46","","Ice Crystals"
"-89.80","68.54","KUGAARUK A","2303092","2012-02-27 11:00","2012","02","27","11:00","-30.0","","-34.8","","63","","","","23","","32","","","","101.81","","","","-46","","Ice Crystals"
"-89.80","68.54","KUGAARUK A","2303092","2012-02-27 12:00","2012","02","27","12:00","-29.6","","-34.4","","63","","","","23","","32","","","","101.80","","","","-46","","Ice Crystals"
"-89.80","68.54","KUGAARUK A","2303092","2012-02-27 13:00","2012","02","27","13:00","-28.8","","-31.8","","75","","","","22","","39","","","","101.77","","","","-46","","Ice Crystals,Blowing Snow"
"-89.80","68.54","KUGAARUK A","2303092","2012-02-27 14:00","2012","02","27","14:00","-28.3","","-32.8","","65","","","","22","","33","","","","101.78","","","","-44","","Ice Crystals,Blowing Snow"
"-89.80","68.54","KUGAARUK A","2303092","2012-02-27 15:00","2012","02","27","15:00","-27.8","","-32.2","","66","","","","22","","35","","","","101.75","","","","-44","","Ice Crystals"
"-89.80","68.54","KUGAARUK A","2303092","2012-02-27 16:00","2012","02","27","16:00","-27.3","","-31.6","","67","","","","22","","32","","","","101.79","","","","-42","","Ice Crystals"
"-89.80","68.54","KUGAARUK A","2303092","2012-02-27 17:00","2012","02","27","17:00","-27.0","","-31.2","","67","","","","22","","37","","","","101.69","","","","-43","","Ice Crystals,Blowing Snow"
"-89.80","68.54","KUGAARUK A","2303092","2012-02-27 18:00","2012","02","27","18:00"
"-89.80","68.54","KUGAARUK A","2303092","2012-02-27 19:00","2012","02","27","19:00"
"-89.80","68.54","KUGAARUK A","2303092","2012-02-27 20:00","2012","02","27","20:00"
"-89.80","68.54","KUGAARUK A","2303092","2012-02-27 21:00","2012","02","27","21:00"
"-89.80","68.54","KUGAARUK A","2303092","2012-02-27 22:00","2012","02","27","22:00"
"-89.80","68.54","KUGAARUK A","2303092","2012-02-27 23:00","2012","02","27","23:00"
"-89.80","68.54","KUGAARUK A","2303092","2012-02-28 00:00","2012","02","28","00:00"
"-89.80","68.54","KUGAARUK A","2303092","2012-02-28 01:00","2012","02","28","01:00"
"-89.80","68.54","KUGAARUK A","2303092","2012-02-28 02:00","2012","02","28","02:00"
"-89.80","68.54","KUGAARUK A","2303092","2012-02-28 03:00","2012","02","28","03:00"
"-89.80","68.54","KUGAARUK A","2303092","2012-02-28 04:00","2012","02","28","04:00"
"-89.80","68.54","KUGAARUK A","2303092","2012-02-28 05:00","2012","02","28","05:00"
"-89.80","68.54","KUGAARUK A","2303092","2012-02-28 06:00","2012","02","28","06:00","-26.8","","-29.6","","77","","","","22","","28","","","","101.28","","","","-41","","Ice Crystals"
"-89.80","68.54","KUGAARUK A","2303092","2012-02-28 07:00","2012","02","28","07:00","-27.0","","-29.8","","77","","","","22","","22","","","","101.30","","","","-40","","Ice Crystals"
"-89.80","68.54","KUGAARUK A","2303092","2012-02-28 08:00","2012","02","28","08:00","-27.2","","-30.0","","77","","","","22","","37","","","","101.21","","","","-43","","Ice Crystals"
"-89.80","68.54","KUGAARUK A","2303092","2012-02-28 09:00","2012","02","28","09:00","-27.6","","-30.5","","76","","","","23","","22","","","","101.22","","","","-41","","Ice Crystals"
"-89.80","68.54","KUGAARUK A","2303092","2012-02-28 10:00","2012","02","28","10:00","-27.5","","-30.4","","76","","","","23","","22","","","","101.21","","","","-40","","Ice Crystals"
"-89.80","68.54","KUGAARUK A","2303092","2012-02-28 11:00","2012","02","28","11:00","-28.0","","-30.9","","76","","","","25","","24","","","","101.18","","","","-42","","Snow"
"-89.80","68.54","KUGAARUK A","2303092","2012-02-28 12:00","2012","02","28","12:00","-29.3","","-32.3","","75","","","","26","","22","","","","101.20","","","","-43","","Snow"
"-89.80","68.54","KUGAARUK A","2303092","2012-02-28 13:00","2012","02","28","13:00","-30.8","","-33.9","","74","","","","25","","30","","","","101.22","","","","-47","","Snow,Blowing Snow"
"-89.80","68.54","KUGAARUK A","2303092","2012-02-28 14:00","2012","02","28","14:00","-31.3","","-34.4","","74","","","","24","","26","","","","101.28","","","","-46","","Snow,Blowing Snow"
"-89.80","68.54","KUGAARUK A","2303092","2012-02-28 15:00","2012","02","28","15:00","-31.1","","-34.2","","74","","","","25","","22","","","","101.28","","","","-45","","Ice Crystals"
"-89.80","68.54","KUGAARUK A","2303092","2012-02-28 16:00","2012","02","28","16:00","-31.7","","-34.9","","73","","","","23","","24","","","","101.28","","","","-46","","Ice Crystals"
"-89.80","68.54","KUGAARUK A","2303092","2012-02-28 17:00","2012","02","28","17:00","-31.3","","-34.4","","74","","","","23","","32","","","","101.24","","","","-48","","Ice Crystals,Blowing Snow"
"-89.80","68.54","KUGAARUK A","2303092","2012-02-28 18:00","2012","02","28","18:00"
"-89.80","68.54","KUGAARUK A","2303092","2012-02-28 19:00","2012","02","28","19:00"
"-89.80","68.54","KUGAARUK A","2303092","2012-02-28 20:00","2012","02","28","20:00"
"-89.80","68.54","KUGAARUK A","2303092","2012-02-28 21:00","2012","02","28","21:00"
"-89.80","68.54","KUGAARUK A","2303092","2012-02-28 22:00","2012","02","28","22:00"
"-89.80","68.54","KUGAARUK A","2303092","2012-02-28 23:00","2012","02","28","23:00"
"-89.80","68.54","KUGAARUK A","2303092","2012-02-29 00:00","2012","02","29","00:00"
"-89.80","68.54","KUGAARUK A","2303092","2012-02-29 01:00","2012","02","29","01:00"
"-89.80","68.54","KUGAARUK A","2303092","2012-02-29 02:00","2012","02","29","02:00"
"-89.80","68.54","KUGAARUK A","2303092","2012-02-29 03:00","2012","02","29","03:00"
"-89.80","68.54","KUGAARUK A","2303092","2012-02-29 04:00","2012","02","29","04:00"
"-89.80","68.54","KUGAARUK A","2303092","2012-02-29 05:00","2012","02","29","05:00"
"-89.80","68.54","KUGAARUK A","2303092","2012-02-29 06:00","2012","02","29","06:00","-36.9","","-40.4","","70","","","","25","","24","","","","101.37","","","","-53","","Ice Crystals"
"-89.80","68.54","KUGAARUK A","2303092","2012-02-29 07:00","2012","02","29","07:00","-37.2","","-40.7","","70","","","","27","","28","","","","101.32","","","","-55","","Ice Crystals,Blowing Snow"
"-89.80","68.54","KUGAARUK A","2303092","2012-02-29 08:00","2012","02","29","08:00","-37.0","","-40.5","","70","","","","26","","22","","","","101.35","","","","-53","","Haze"
"-89.80","68.54","KUGAARUK A","2303092","2012-02-29 09:00","2012","02","29","09:00","-36.7","","-40.2","","70","","","","26","","19","","","","101.37","","","","-51","","Ice Crystals"
"-89.80","68.54","KUGAARUK A","2303092","2012-02-29 10:00","2012","02","29","10:00","-36.9","","-40.4","","70","","","","26","","24","","","","101.35","","","","-53","","Ice Crystals"
"-89.80","68.54","KUGAARUK A","2303092","2012-02-29 11:00","2012","02","29","11:00","-36.3","","-39.8","","70","","","","26","","28","","","","101.31","","","","-53","","Ice Crystals"
"-89.80","68.54","KUGAARUK A","2303092","2012-02-29 12:00","2012","02","29","12:00","-36.0","","-39.4","","71","","","","27","","24","","","","101.32","","","","-52","","Ice Crystals"
"-89.80","68.54","KUGAARUK A","2303092","2012-02-29 13:00","2012","02","29","13:00","-36.3","","-39.8","","70","","","","26","","19","","","","101.33","","","","-51","","Ice Crystals"
"-89.80","68.54","KUGAARUK A","2303092","2012-02-29 14:00","2012","02","29","14:00","-36.2","","-39.7","","70","","","","25","","28","","","","101.31","","","","-53","","Ice Crystals"
"-89.80","68.54","KUGAARUK A","2303092","2012-02-29 15:00","2012","02","29","15:00","-36.3","","-39.8","","70","","","","26","","22","","","","101.28","","","","-52","","Ice Crystals"
"-89.80","68.54","KUGAARUK A","2303092","2012-02-29 16:00","2012","02","29","16:00","-37.0","","-40.5","","70","","","","25","","19","","","","101.31","","","","-52","","Ice Crystals"
"-89.80","68.54","KUGAARUK A","2303092","2012-02-29 17:00","2012","02","29","17:00","-36.6","","-40.1","","70","","","","24","","19","","","","101.26","","","","-51","","Ice Crystals"
"-89.80","68.54","KUGAARUK A","2303092","2012-02-29 18:00","2012","02","29","18:00"
"-89.80","68.54","KUGAARUK A","2303092","2012-02-29 19:00","2012","02","29","19:00"
"-89.80","68.54","KUGAARUK A","2303092","2012-02-29 20:00","2012","02","29","20:00"
"-89.80","68.54","KUGAARUK A","2303092","2012-02-29 21:00","2012","02","29","21:00"
"-89.80","68.54","KUGAARUK A","2303092","2012-02-29 22:00","2012","02","29","22:00"
"-89.80","68.54","KUGAARUK A","2303092","2012-02-29 23:00","2012","02","29","23:00"
