"Longitude (x)","Latitude (y)","Station Name","Climate ID","Date/Time (LST)","Year","Month","Day","Time (LST)","Temp (°C)","Temp Flag","Dew Point Temp (°C)","Dew Point Temp Flag","Rel Hum (%)","Rel Hum Flag","Precip. Amount (mm)","Precip. Amount Flag","Wind Dir (10s deg)","Wind Dir Flag","Wind Spd (km/h)","Wind Spd Flag","Visibility (km)","Visibility Flag","Stn Press (kPa)","Stn Press Flag","Hmdx","Hmdx Flag","Wind Chill","Wind Chill Flag","Weather"
"-125.24","71.99","SACHS HARBOUR A","2503649","2019-01-01 00:00","2019","01","01","00:00","-14.9","","-17.0","","85","","","M","11","","17","","","M","98.68","","","","-23","","NA"
"-125.24","71.99","SACHS HARBOUR A","2503649","2019-01-01 01:00","2019","01","01","01:00","-14.7","","-16.7","","85","","","M","8","","21","","","M","98.66","","","","-24","","NA"
"-125.24","71.99","SACHS HARBOUR A","2503649","2019-01-01 02:00","2019","01","01","02:00","-13.7","","-15.6","","86","","","M","10","","21","","","M","98.68","","","","-23","","NA"
"-125.24","71.99","SACHS HARBOUR A","2503649","2019-01-01 03:00","2019","01","01","03:00","-13.5","","-15.4","","86","","","M","9","","18","","","M","98.69","","","","-22","","NA"
"-125.24","71.99","SACHS HARBOUR A","2503649","2019-01-01 04:00","2019","01","01","04:00","-14.5","","-16.5","","85","","","M","10","","16","","","M","98.71","","","","-23","","NA"
"-125.24","71.99","SACHS HARBOUR A","2503649","2019-01-01 05:00","2019","01","01","05:00","-13.4","","-15.2","","86","","","M","11","","18","","","M","98.71","","","","-22","","NA"
"-125.24","71.99","SACHS HARBOUR A","2503649","2019-01-01 06:00","2019","01","01","06:00","-13.4","","-15.3","","86","","","M","12","","14","","","M","98.69","","","","-21","","NA"
"-125.24","71.99","SACHS HARBOUR A","2503649","2019-01-01 07:00","2019","01","01","07:00","-13.2","","-15.1","","86","","","M","10","","15","","","M","98.65","","","","-21","","NA"
"-125.24","71.99","SACHS HARBOUR A","2503649","2019-01-01 08:00","2019","01","01","08:00","-14.5","","-16.5","","85","","","M","8","","19","","","M","98.66","","","","-23","","NA"
"-125.24","71.99","SACHS HARBOUR A","2503649","2019-01-01 09:00","2019","01","01","09:00","-12.2","","-13.9","","87","","","M","11","","24","","","M","98.66","","","","-21","","NA"
"-125.24","71.99","SACHS HARBOUR A","2503649","2019-01-01 10:00","2019","01","01","10:00","-13.1","","-14.9","","86","","","M","12","","21","","","M","98.67","","","","-22","","NA"
"-125.24","71.99","SACHS HARBOUR A","2503649","2019-01-01 11:00","2019","01","01","11:00","-12.5","","-14.3","","87","","","M","12","","29","","","M","98.59","","","","-23","","NA"
"-125.24","71.99","SACHS HARBOUR A","2503649","2019-01-01 12:00","2019","01","01","12:00","-12.9","","-14.7","","86","","","M","12","","24","","","M","98.54","","","","-22","","NA"
"-125.24","71.99","SACHS HARBOUR A","2503649","2019-01-01 13:00","2019","01","01","13:00","-12.8","","-14.6","","86","","","M","11","","21","","","M","98.47","","","","-22","","NA"
"-125.24","71.99","SACHS HARBOUR A","2503649","2019-01-01 14:00","2019","01","01","14:00","-12.8","","-14.6","","87","","","M","11","","27","","","M","98.39","","","","-23","","NA"
"-125.24","71.99","SACHS HARBOUR A","2503649","2019-01-01 15:00","2019","01","01","15:00","-12.7","","-14.5","","86","","","M","13","","18","","","M","98.37","","","","-21","","NA"
"-125.24","71.99","SACHS HARBOUR A","2503649","2019-01-01 16:00","2019","01","01","16:00","-13.2","","-15.1","","86","","","M","13","","18","","","M","98.37","","","","-21","","NA"
"-125.24","71.99","SACHS HARBOUR A","2503649","2019-01-01 17:00","2019","01","01","17:00","-13.1","","-15.0","","86","","","M","11","","20","","","M","98.27","","","","-22","","NA"
"-125.24","71.99","SACHS HARBOUR A","2503649","2019-01-01 18:00","2019","01","01","18:00","-13.6","","-15.5","","86","","","M","11","","27","","","M","98.19","","","","-24","","NA"
"-125.24","71.99","SACHS HARBOUR A","2503649","2019-01-01 19:00","2019","01","01","19:00","-13.6","","-15.5","","86","","","M","12","","26","","","M","98.14","","","","-24","","NA"
"-125.24","71.99","SACHS HARBOUR A","2503649","2019-01-01 20:00","2019","01","01","20:00","-13.6","","-15.5","","86","","","M","12","","23","","","M","98.02","","","","-23","","NA"
"-125.24","71.99","SACHS HARBOUR A","2503649","2019-01-01 21:00","2019","01","01","21:00","-14.1","","-16.1","","85","","","M","11","","27","","","M","97.92","","","","-24","","NA"
"-125.24","71.99","SACHS HARBOUR A","2503649","2019-01-01 22:00","2019","01","01","22:00","-14.5","","-16.5","","85","","","M","11","","18","","","M","97.88","","","","-23","","NA"
"-125.24","71.99","SACHS HARBOUR A","2503649","2019-01-01 23:00","2019","01","01","23:00","-14.7","","-16.8","","84","","","M","12","","27","","","M","97.85","","","","-25","","NA"
"-125.24","71.99","SACHS HARBOUR A","2503649","2019-01-02 00:00","2019","01","02","00:00","-15.3","","-17.5","","84","","","M","13","","13","","","M","97.78","","","","-23","","NA"
"-125.24","71.99","SACHS HARBOUR A","2503649","2019-01-02 01:00","2019","01","02","01:00","-15.5","","-17.6","","84","","","M","9","","12","","","M","97.75","","","","-23","","NA"
"-125.24","71.99","SACHS HARBOUR A","2503649","2019-01-02 02:00","2019","01","02","02:00","-18.5","","-21.0","","81","","","M","8","","30","","","M","97.67","","","","-31","","NA"
"-125.24","71.99","SACHS HARBOUR A","2503649","2019-01-02 03:00","2019","01","02","03:00","-17.7","","-20.1","","82","","","M","9","","23","","","M","97.66","","","","-28","","NA"
"-125.24","71.99","SACHS HARBOUR A","2503649","2019-01-02 04:00","2019","01","02","04:00","-17.8","","-20.2","","82","","","M","9","","26","","","M","97.63","","","","-29","","NA"
"-125.24","71.99","SACHS HARBOUR A","2503649","2019-01-02 05:00","2019","01","02","05:00","-18.2","","-20.6","","82","","","M","11","","21","","","M","97.64","","","","-28","","NA"
"-125.24","71.99","SACHS HARBOUR A","2503649","2019-01-02 06:00","2019","01","02","06:00","-17.2","","-19.6","","82","","","M","9","","24","","","M","97.61","","","","-28","","NA"
"-125.24","71.99","SACHS HARBOUR A","2503649","2019-01-02 07:00","2019","01","02","07:00","-17.9","","-20.4","","81","","","M","8","","37","","","M","97.58","","","","-31","","NA"
"-125.24","71.99","SACHS HARBOUR A","2503649","2019-01-02 08:00","2019","01","02","08:00","-18.5","","-21.2","","80","","","M","7","","36","","","M","97.62","","","","-32","","NA"
"-125.24","71.99","SACHS HARBOUR A","2503649","2019-01-02 09:00","2019","01","02","09:00","-18.2","","-20.9","","80","","","M","7","","39","","","M","97.59","","","","-32","","NA"
"-125.24","71.99","SACHS HARBOUR A","2503649","2019-01-02 10:00","2019","01","02","10:00","-17.2","","-19.8","","81","","","M","7","","41","","","M","97.59","","","","-31","","NA"
"-125.24","71.99","SACHS HARBOUR A","2503649","2019-01-02 11:00","2019","01","02","11:00","-17.2","","-19.7","","81","","","M","8","","43","","","M","97.57","","","","-31","","NA"
"-125.24","71.99","SACHS HARBOUR A","2503649","2019-01-02 12:00","2019","01","02","12:00","-17.0","","-19.4","","81","","","M","7","","35","","","M","97.63","","","","-29","","NA"
"-125.24","71.99","SACHS HARBOUR A","2503649","2019-01-02 13:00","2019","01","02","13:00","-17.8","","-20.0","","83","","","M","8","","36","","","M","97.69","","","","-31","","NA"
"-125.24","71.99","SACHS HARBOUR A","2503649","2019-01-02 14:00","2019","01","02","14:00","-18.6","","-21.1","","81","","","M","6","","28","","","M","97.75","","","","-30","","NA"
"-125.24","71.99","SACHS HARBOUR A","2503649","2019-01-02 15:00","2019","01","02","15:00","-19.0","","-21.5","","81","","","M","6","","31","","","M","97.81","","","","-31","","NA"
"-125.24","71.99","SACHS HARBOUR A","2503649","2019-01-02 16:00","2019","01","02","16:00","-19.0","","-21.6","","80","","","M","6","","26","","","M","97.87","","","","-31","","NA"
"-125.24","71.99","SACHS HARBOUR A","2503649","2019-01-02 17:00","2019","01","02","17:00","-18.9","","-21.6","","79","","","M","7","","35","","","M","97.89","","","","-32","","NA"
"-125.24","71.99","SACHS HARBOUR A","2503649","2019-01-02 18:00","2019","01","02","18:00","-20.9","","-23.8","","78","","","M","5","","32","","","M","97.97","","","","-34","","NA"
"-125.24","71.99","SACHS HARBOUR A","2503649","2019-01-02 19:00","2019","01","02","19:00","-21.5","","-24.5","","77","","","M","5","","32","","","M","98.01","","","","-35","","NA"
"-125.24","71.99","SACHS HARBOUR A","2503649","2019-01-02 20:00","2019","01","02","20:00","-21.7","","-24.6","","78","","","M","5","","29","","","M","98.04","","","","-35","","NA"
"-125.24","71.99","SACHS HARBOUR A","2503649","2019-01-02 21:00","2019","01","02","21:00","-21.2","","-24.2","","77","","","M","5","","30","","","M","98.12","","","","-34","","NA"
"-125.24","71.99","SACHS HARBOUR A","2503649","2019-01-02 22:00","2019","01","02","22:00","-21.1","","-24.1","","77","","","M","5","","28","","","M","98.17","","","","-34","","NA"
"-125.24","71.99","SACHS HARBOUR A","2503649","2019-01-02 23:00","2019","01","02","23:00","-21.2","","-24.2","","77","","","M","5","","30","","","M","98.22","","","","-34","","NA"
"-125.24","71.99","SACHS HARBOUR A","2503649","2019-01-03 00:00","2019","01","03","00:00","-22.1","","-25.1","","77","","","M","5","","32","","","M","98.26","","","","-36","","NA"
"-125.24","71.99","SACHS HARBOUR A","2503649","2019-01-03 01:00","2019","01","03","01:00","-22.7","","-25.7","","77","","","M","5","","27","","","M","98.33","","","","-36","","NA"
"-125.24","71.99","SACHS HARBOUR A","2503649","2019-01-03 02:00","2019","01","03","02:00","-23.6","","-26.6","","77","","","M","5","","30","","","M","98.41","","","","-37","","NA"
"-125.24","71.99","SACHS HARBOUR A","2503649","2019-01-03 03:00","2019","01","03","03:00","-22.8","","-25.9","","76","","","M","5","","32","","","M","98.47","","","","-37","","NA"
"-125.24","71.99","SACHS HARBOUR A","2503649","2019-01-03 04:00","2019","01","03","04:00","-22.7","","-25.6","","77","","","M","5","","27","","","M","98.56","","","","-36","","NA"
"-125.24","71.99","SACHS HARBOUR A","2503649","2019-01-03 05:00","2019","01","03","05:00","-23.3","","-26.3","","77","","","M","5","","27","","","M","98.63","","","","-36","","NA"
"-125.24","71.99","SACHS HARBOUR A","2503649","2019-01-03 06:00","2019","01","03","06:00","-23.3","","-26.2","","77","","","M","5","","29","","","M","98.67","","","","-37","","NA"
"-125.24","71.99","SACHS HARBOUR A","2503649","2019-01-03 07:00","2019","01","03","07:00","-23.0","","-26.0","","77","","","M","6","","24","","","M","98.75","","","","-35","","NA"
"-125.24","71.99","SACHS HARBOUR A","2503649","2019-01-03 08:00","2019","01","03","08:00","-22.2","","-25.2","","78","","","M","5","","23","","","M","98.79","","","","-34","","NA"
"-125.24","71.99","SACHS HARBOUR A","2503649","2019-01-03 09:00","2019","01","03","09:00","-21.9","","-25.0","","76","","","M","6","","30","","","M","98.87","","","","-35","","NA"
"-125.24","71.99","SACHS HARBOUR A","2503649","2019-01-03 10:00","2019","01","03","10:00","-21.9","","-24.9","","77","","","M","4","","30","","","M","98.93","","","","-35","","NA"
"-125.24","71.99","SACHS HARBOUR A","2503649","2019-01-03 11:00","2019","01","03","11:00","-21.9","","-24.8","","77","","","M","5","","29","","","M","98.99","","","","-35","","NA"
"-125.24","71.99","SACHS HARBOUR A","2503649","2019-01-03 12:00","2019","01","03","12:00","-21.8","","-24.6","","78","","","M","5","","29","","","M","99.03","","","","-35","","NA"
"-125.24","71.99","SACHS HARBOUR A","2503649","2019-01-03 13:00","2019","01","03","13:00","-21.7","","-24.8","","77","","","M","6","","25","","","M","99.12","","","","-34","","NA"
"-125.24","71.99","SACHS HARBOUR A","2503649","2019-01-03 14:00","2019","01","03","14:00","-21.7","","-24.9","","75","","","M","6","","27","","","M","99.22","","","","-34","","NA"
"-125.24","71.99","SACHS HARBOUR A","2503649","2019-01-03 15:00","2019","01","03","15:00","-21.7","","-25.2","","74","","","M","7","","31","","","M","99.30","","","","-35","","NA"
"-125.24","71.99","SACHS HARBOUR A","2503649","2019-01-03 16:00","2019","01","03","16:00","-21.8","","-25.3","","74","","","M","6","","30","","","M","99.37","","","","-35","","NA"
"-125.24","71.99","SACHS HARBOUR A","2503649","2019-01-03 17:00","2019","01","03","17:00","-21.7","","-25.2","","74","","","M","5","","26","","","M","99.41","","","","-34","","NA"
"-125.24","71.99","SACHS HARBOUR A","2503649","2019-01-03 18:00","2019","01","03","18:00","-21.9","","-25.2","","75","","","M","5","","23","","","M","99.49","","","","-34","","NA"
"-125.24","71.99","SACHS HARBOUR A","2503649","2019-01-03 19:00","2019","01","03","19:00","-21.9","","-25.4","","74","","","M","7","","24","","","M","99.53","","","","-34","","NA"
"-125.24","71.99","SACHS HARBOUR A","2503649","2019-01-03 20:00","2019","01","03","20:00","-21.6","","-25.2","","73","","","M","6","","28","","","M","99.60","","","","-34","","NA"
"-125.24","71.99","SACHS HARBOUR A","2503649","2019-01-03 21:00","2019","01","03","21:00","-21.4","","-24.9","","74","","","M","5","","21","","","M","99.67","","","","-32","","NA"
"-125.24","71.99","SACHS HARBOUR A","2503649","2019-01-03 22:00","2019","01","03","22:00","-21.8","","-25.1","","75","","","M","5","","25","","","M","99.70","","","","-34","","NA"
"-125.24","71.99","SACHS HARBOUR A","2503649","2019-01-03 23:00","2019","01","03","23:00","-21.3","","-24.6","","76","","","M","5","","19","","","M","99.74","","","","-32","","NA"
"-125.24","71.99","SACHS HARBOUR A","2503649","2019-01-04 00:00","2019","01","04","00:00","-20.6","","-23.6","","77","","","M","6","","24","","","M","99.79","","","","-32","","NA"
"-125.24","71.99","SACHS HARBOUR A","2503649","2019-01-04 01:00","2019","01","04","01:00","-20.2","","-22.9","","79","","","M","7","","18","","","M","99.83","","","","-30","","NA"
"-125.24","71.99","SACHS HARBOUR A","2503649","2019-01-04 02:00","2019","01","04","02:00","-19.9","","-22.2","","82","","","M","7","","24","","","M","99.86","","","","-31","","NA"
"-125.24","71.99","SACHS HARBOUR A","2503649","2019-01-04 03:00","2019","01","04","03:00","-19.5","","-22.3","","79","","","M","7","","23","","","M","99.90","","","","-31","","NA"
"-125.24","71.99","SACHS HARBOUR A","2503649","2019-01-04 04:00","2019","01","04","04:00","-19.4","","-22.6","","76","","","M","7","","22","","","M","99.96","","","","-30","","NA"
"-125.24","71.99","SACHS HARBOUR A","2503649","2019-01-04 05:00","2019","01","04","05:00","-19.3","","-22.5","","76","","","M","6","","19","","","M","100.00","","","","-29","","NA"
"-125.24","71.99","SACHS HARBOUR A","2503649","2019-01-04 06:00","2019","01","04","06:00","-19.3","","-22.5","","77","","","M","5","","14","","","M","100.00","","","","-28","","NA"
"-125.24","71.99","SACHS HARBOUR A","2503649","2019-01-04 07:00","2019","01","04","07:00","-19.0","","-22.2","","76","","","M","8","","17","","","M","100.01","","","","-28","","NA"
"-125.24","71.99","SACHS HARBOUR A","2503649","2019-01-04 08:00","2019","01","04","08:00","-19.1","","-22.1","","77","","","M","7","","16","","","M","100.04","","","","-28","","NA"
"-125.24","71.99","SACHS HARBOUR A","2503649","2019-01-04 09:00","2019","01","04","09:00","-18.3","","-21.3","","77","","","M","9","","23","","","M","100.04","","","","-29","","NA"
"-125.24","71.99","SACHS HARBOUR A","2503649","2019-01-04 10:00","2019","01","04","10:00","-18.7","","-21.8","","77","","","M","8","","17","","","M","100.09","","","","-28","","NA"
"-125.24","71.99","SACHS HARBOUR A","2503649","2019-01-04 11:00","2019","01","04","11:00","-18.9","","-21.9","","78","","","M","5","","23","","","M","100.11","","","","-30","","NA"
"-125.24","71.99","SACHS HARBOUR A","2503649","2019-01-04 12:00","2019","01","04","12:00","-19.5","","-22.2","","80","","","M","5","","27","","","M","100.13","","","","-31","","NA"
"-125.24","71.99","SACHS HARBOUR A","2503649","2019-01-04 13:00","2019","01","04","13:00","-21.2","","-24.0","","79","","","M","4","","35","","","M","100.14","","","","-35","","NA"
"-125.24","71.99","SACHS HARBOUR A","2503649","2019-01-04 14:00","2019","01","04","14:00","-23.2","","-26.4","","76","","","M","4","","26","","","M","100.14","","","","-36","","NA"
"-125.24","71.99","SACHS HARBOUR A","2503649","2019-01-04 15:00","2019","01","04","15:00","-26.0","","-29.1","","75","","","M","2","","28","","","M","100.14","","","","-40","","NA"
"-125.24","71.99","SACHS HARBOUR A","2503649","2019-01-04 16:00","2019","01","04","16:00","-26.2","","-29.4","","75","","","M","3","","25","","","M","100.12","","","","-40","","NA"
"-125.24","71.99","SACHS HARBOUR A","2503649","2019-01-04 17:00","2019","01","04","17:00","-24.4","","-27.5","","76","","","M","2","","29","","","M","100.13","","","","-38","","NA"
"-125.24","71.99","SACHS HARBOUR A","2503649","2019-01-04 18:00","2019","01","04","18:00","-24.9","","-28.2","","74","","","M","3","","33","","","M","100.16","","","","-40","","NA"
"-125.24","71.99","SACHS HARBOUR A","2503649","2019-01-04 19:00","2019","01","04","19:00","-24.7","","-27.8","","76","","","M","4","","36","","","M","100.15","","","","-40","","NA"
"-125.24","71.99","SACHS HARBOUR A","2503649","2019-01-04 20:00","2019","01","04","20:00","-24.1","","-27.3","","75","","","M","3","","35","","","M","100.16","","","","-39","","NA"
"-125.24","71.99","SACHS HARBOUR A","2503649","2019-01-04 21:00","2019","01","04","21:00","-25.3","","-28.4","","76","","","M","3","","41","","","M","100.17","","","","-41","","NA"
"-125.24","71.99","SACHS HARBOUR A","2503649","2019-01-04 22:00","2019","01","04","22:00","-25.2","","-28.3","","76","","","M","2","","36","","","M","100.19","","","","-40","","NA"
"-125.24","71.99","SACHS HARBOUR A","2503649","2019-01-04 23:00","2019","01","04","23:00","-25.5","","-28.7","","75","","","M","4","","34","","","M","100.20","","","","-40","","NA"
"-125.24","71.99","SACHS HARBOUR A","2503649","2019-01-05 00:00","2019","01","05","00:00","-25.8","","-29.0","","75","","","M","3","","38","","","M","100.24","","","","-42","","NA"
"-125.24","71.99","SACHS HARBOUR A","2503649","2019-01-05 01:00","2019","01","05","01:00","-25.5","","-28.6","","75","","","M","4","","32","","","M","100.25","","","","-40","","NA"
"-125.24","71.99","SACHS HARBOUR A","2503649","2019-01-05 02:00","2019","01","05","02:00","-24.6","","-27.7","","77","","","M","2","","32","","","M","100.27","","","","-39","","NA"
"-125.24","71.99","SACHS HARBOUR A","2503649","2019-01-05 03:00","2019","01","05","03:00","-24.9","","-27.9","","77","","","M","3","","28","","","M","100.32","","","","-39","","NA"
"-125.24","71.99","SACHS HARBOUR A","2503649","2019-01-05 04:00","2019","01","05","04:00","-25.3","","-28.3","","76","","","M","2","","32","","","M","100.33","","","","-40","","NA"
"-125.24","71.99","SACHS HARBOUR A","2503649","2019-01-05 05:00","2019","01","05","05:00","-26.2","","-29.2","","76","","","M","2","","31","","","M","100.34","","","","-41","","NA"
"-125.24","71.99","SACHS HARBOUR A","2503649","2019-01-05 06:00","2019","01","05","06:00","-26.1","","-29.0","","77","","","M","1","","21","","","M","100.37","","","","-38","","NA"
"-125.24","71.99","SACHS HARBOUR A","2503649","2019-01-05 07:00","2019","01","05","07:00","-27.0","","-30.1","","76","","","M","1","","23","","","M","100.38","","","","-40","","NA"
"-125.24","71.99","SACHS HARBOUR A","2503649","2019-01-05 08:00","2019","01","05","08:00","-28.6","","-31.9","","74","","","M","36","","23","","","M","100.41","","","","-42","","NA"
"-125.24","71.99","SACHS HARBOUR A","2503649","2019-01-05 09:00","2019","01","05","09:00","-30.0","","-33.4","","73","","","M","36","","24","","","M","100.40","","","","-44","","NA"
"-125.24","71.99","SACHS HARBOUR A","2503649","2019-01-05 10:00","2019","01","05","10:00","-28.6","","-32.0","","73","","","M","2","","30","","","M","100.39","","","","-44","","NA"
"-125.24","71.99","SACHS HARBOUR A","2503649","2019-01-05 11:00","2019","01","05","11:00","-29.5","","-32.9","","73","","","M","36","","21","","","M","100.42","","","","-43","","NA"
"-125.24","71.99","SACHS HARBOUR A","2503649","2019-01-05 12:00","2019","01","05","12:00","-27.5","","-30.8","","74","","","M","36","","24","","","M","100.44","","","","-41","","NA"
"-125.24","71.99","SACHS HARBOUR A","2503649","2019-01-05 13:00","2019","01","05","13:00","-27.7","","-31.0","","74","","","M","35","","21","","","M","100.46","","","","-40","","NA"
"-125.24","71.99","SACHS HARBOUR A","2503649","2019-01-05 14:00","2019","01","05","14:00","-28.4","","-31.7","","74","","","M","34","","25","","","M","100.45","","","","-42","","NA"
"-125.24","71.99","SACHS HARBOUR A","2503649","2019-01-05 15:00","2019","01","05","15:00","-27.5","","-30.8","","74","","","M","33","","26","","","M","100.45","","","","-41","","NA"
"-125.24","71.99","SACHS HARBOUR A","2503649","2019-01-05 16:00","2019","01","05","16:00","-28.0","","-31.3","","74","","","M","35","","26","","","M","100.48","","","","-42","","NA"
"-125.24","71.99","SACHS HARBOUR A","2503649","2019-01-05 17:00","2019","01","05","17:00","-28.8","","-32.2","","73","","","M","34","","25","","","M","100.49","","","","-43","","NA"
"-125.24","71.99","SACHS HARBOUR A","2503649","2019-01-05 18:00","2019","01","05","18:00","-28.1","","-31.4","","74","","","M","34","","26","","","M","100.50","","","","-42","","NA"
"-125.24","71.99","SACHS HARBOUR A","2503649","2019-01-05 19:00","2019","01","05","19:00","-28.8","","-32.1","","74","","","M","34","","32","","","M","100.47","","","","-44","","NA"
"-125.24","71.99","SACHS HARBOUR A","2503649","2019-01-05 20:00","2019","01","05","20:00","-28.9","","-32.2","","73","","","M","35","","29","","","M","100.50","","","","-44","","NA"
"-125.24","71.99","SACHS HARBOUR A","2503649","2019-01-05 21:00","2019","01","05","21:00","-28.7","","-32.1","","73","","","M","34","","29","","","M","100.50","","","","-44","","NA"
"-125.24","71.99","SACHS HARBOUR A","2503649","2019-01-05 22:00","2019","01","05","22:00","-28.3","","-31.6","","74","","","M","34","","29","","","M","100.50","","","","-43","","NA"
"-125.24","71.99","SACHS HARBOUR A","2503649","2019-01-05 23:00","2019","01","05","23:00","-28.3","","-31.6","","74","","","M","34","","26","","","M","100.50","","","","-43","","NA"
"-125.24","71.99","SACHS HARBOUR A","2503649","2019-01-06 00:00","2019","01","06","00:00","-26.6","","-29.8","","75","","","M","33","","27","","","M","100.53","","","","-41","","NA"
"-125.24","71.99","SACHS HARBOUR A","2503649","2019-01-06 01:00","2019","01","06","01:00","-26.1","","-29.2","","75","","","M","32","","27","","","M","100.54","","","","-40","","NA"
"-125.24","71.99","SACHS HARBOUR A","2503649","2019-01-06 02:00","2019","01","06","02:00","-26.3","","-29.6","","75","","","M","33","","27","","","M","100.57","","","","-40","","NA"
"-125.24","71.99","SACHS HARBOUR A","2503649","2019-01-06 03:00","2019","01","06","03:00","-25.5","","-28.7","","76","","","M","33","","31","","","M","100.59","","","","-40","","NA"
"-125.24","71.99","SACHS HARBOUR A","2503649","2019-01-06 04:00","2019","01","06","04:00","-26.3","","-29.5","","75","","","M","34","","35","","","M","100.55","","","","-42","","NA"
"-125.24","71.99","SACHS HARBOUR A","2503649","2019-01-06 05:00","2019","01","06","05:00","-26.4","","-29.6","","75","","","M","33","","35","","","M","100.55","","","","-42","","NA"
"-125.24","71.99","SACHS HARBOUR A","2503649","2019-01-06 06:00","2019","01","06","06:00","-27.1","","-30.4","","74","","","M","33","","33","","","M","100.54","","","","-42","","NA"
"-125.24","71.99","SACHS HARBOUR A","2503649","2019-01-06 07:00","2019","01","06","07:00","-25.9","","-29.0","","76","","","M","32","","36","","","M","100.54","","","","-41","","NA"
"-125.24","71.99","SACHS HARBOUR A","2503649","2019-01-06 08:00","2019","01","06","08:00","-26.3","","-29.5","","75","","","M","32","","35","","","M","100.54","","","","-42","","NA"
"-125.24","71.99","SACHS HARBOUR A","2503649","2019-01-06 09:00","2019","01","06","09:00","-25.1","","-28.2","","76","","","M","32","","38","","","M","100.52","","","","-41","","NA"
"-125.24","71.99","SACHS HARBOUR A","2503649","2019-01-06 10:00","2019","01","06","10:00","-25.8","","-29.0","","75","","","M","31","","36","","","M","100.53","","","","-41","","NA"
"-125.24","71.99","SACHS HARBOUR A","2503649","2019-01-06 11:00","2019","01","06","11:00","-25.6","","-28.7","","75","","","M","32","","37","","","M","100.52","","","","-41","","NA"
"-125.24","71.99","SACHS HARBOUR A","2503649","2019-01-06 12:00","2019","01","06","12:00","-24.5","","-27.5","","76","","","M","32","","35","","","M","100.55","","","","-39","","NA"
"-125.24","71.99","SACHS HARBOUR A","2503649","2019-01-06 13:00","2019","01","06","13:00","-23.6","","-26.6","","77","","","M","33","","37","","","M","100.54","","","","-38","","NA"
"-125.24","71.99","SACHS HARBOUR A","2503649","2019-01-06 14:00","2019","01","06","14:00","-23.2","","-26.1","","77","","","M","33","","41","","","M","100.54","","","","-39","","NA"
"-125.24","71.99","SACHS HARBOUR A","2503649","2019-01-06 15:00","2019","01","06","15:00","-23.5","","-26.4","","77","","","M","33","","39","","","M","100.57","","","","-39","","NA"
"-125.24","71.99","SACHS HARBOUR A","2503649","2019-01-06 16:00","2019","01","06","16:00","-23.7","","-26.6","","77","","","M","33","","37","","","M","100.58","","","","-39","","NA"
"-125.24","71.99","SACHS HARBOUR A","2503649","2019-01-06 17:00","2019","01","06","17:00","-24.6","","-27.6","","76","","","M","33","","33","","","M","100.63","","","","-39","","NA"
"-125.24","71.99","SACHS HARBOUR A","2503649","2019-01-06 18:00","2019","01","06","18:00","-25.0","","-28.1","","76","","","M","33","","36","","","M","100.62","","","","-40","","NA"
"-125.24","71.99","SACHS HARBOUR A","2503649","2019-01-06 19:00","2019","01","06","19:00","-26.4","","-29.6","","75","","","M","34","","35","","","M","100.64","","","","-42","","NA"
"-125.24","71.99","SACHS HARBOUR A","2503649","2019-01-06 20:00","2019","01","06","20:00","-27.7","","-31.0","","74","","","M","35","","32","","","M","100.70","","","","-43","","NA"
"-125.24","71.99","SACHS HARBOUR A","2503649","2019-01-06 21:00","2019","01","06","21:00","-29.6","","-33.1","","73","","","M","36","","29","","","M","100.74","","","","-45","","NA"
"-125.24","71.99","SACHS HARBOUR A","2503649","2019-01-06 22:00","2019","01","06","22:00","-29.6","","-33.1","","73","","","M","1","","23","","","M","100.80","","","","-43","","NA"
"-125.24","71.99","SACHS HARBOUR A","2503649","2019-01-06 23:00","2019","01","06","23:00","-30.9","","-34.5","","72","","","M","35","","17","","","M","100.87","","","","-43","","NA"
"-125.24","71.99","SACHS HARBOUR A","2503649","2019-01-07 00:00","2019","01","07","00:00","-30.5","","-34.0","","72","","","M","35","","13","","","M","100.94","","","","-41","","NA"
"-125.24","71.99","SACHS HARBOUR A","2503649","2019-01-07 01:00","2019","01","07","01:00","-31.0","","-34.5","","72","","","M","35","","11","","","M","101.00","","","","-41","","NA"
"-125.24","71.99","SACHS HARBOUR A","2503649","2019-01-07 02:00","2019","01","07","02:00","-31.4","","-35.0","","72","","","M","35","","13","","","M","101.03","","","","-42","","NA"
"-125.24","71.99","SACHS HARBOUR A","2503649","2019-01-07 03:00","2019","01","07","03:00","-31.8","","-35.4","","71","","","M","1","","16","","","M","101.08","","","","-44","","NA"
"-125.24","71.99","SACHS HARBOUR A","2503649","2019-01-07 04:00","2019","01","07","04:00","-32.0","","-35.6","","71","","","M","3","","26","","","M","101.12","","","","-47","","NA"
"-125.24","71.99","SACHS HARBOUR A","2503649","2019-01-07 05:00","2019","01","07","05:00","-32.8","","-36.5","","71","","","M","1","","11","","","M","101.17","","","","-43","","NA"
"-125.24","71.99","SACHS HARBOUR A","2503649","2019-01-07 06:00","2019","01","07","06:00","-32.3","","-35.9","","71","","","M","2","","15","","","M","101.20","","","","-44","","NA"
"-125.24","71.99","SACHS HARBOUR A","2503649","2019-01-07 07:00","2019","01","07","07:00","-32.9","","-36.5","","71","","","M","3","","12","","","M","101.24","","","","-44","","NA"
"-125.24","71.99","SACHS HARBOUR A","2503649","2019-01-07 08:00","2019","01","07","08:00"
"-125.24","71.99","SACHS HARBOUR A","2503649","2019-01-07 09:00","2019","01","07","09:00"
"-125.24","71.99","SACHS HARBOUR A","2503649","2019-01-07 10:00","2019","01","07","10:00","-31.4","","-34.9","","72","","","M","6","","17","","","M","101.34","","","","-44","","NA"
"-125.24","71.99","SACHS HARBOUR A","2503649","2019-01-07 11:00","2019","01","07","11:00","-28.5","","-31.9","","73","","","M","9","","13","","","M","101.37","","","","-39","","NA"
"-125.24","71.99","SACHS HARBOUR A","2503649","2019-01-07 12:00","2019","01","07","12:00","-29.2","","-32.6","","73","","","M","9","","16","","","M","101.40","","","","-41","","NA"
"-125.24","71.99","SACHS HARBOUR A","2503649","2019-01-07 13:00","2019","01","07","13:00","-29.2","","-32.6","","73","","","M","8","","13","","","M","101.45","","","","-40","","NA"
"-125.24","71.99","SACHS HARBOUR A","2503649","2019-01-07 14:00","2019","01","07","14:00","-28.6","","-32.0","","73","","","M","7","","12","","","M","101.47","","","","-38","","NA"
"-125.24","71.99","SACHS HARBOUR A","2503649","2019-01-07 15:00","2019","01","07","15:00","-28.0","","-31.3","","74","","","M","9","","7","","","M","101.52","","","","-35","","NA"
"-125.24","71.99","SACHS HARBOUR A","2503649","2019-01-07 16:00","2019","01","07","16:00","-27.6","","-30.9","","74","","","M","9","","8","","","M","101.55","","","","-35","","NA"
"-125.24","71.99","SACHS HARBOUR A","2503649","2019-01-07 17:00","2019","01","07","17:00","-28.7","","-32.1","","73","","","M","6","","11","","","M","101.57","","","","-38","","NA"
"-125.24","71.99","SACHS HARBOUR A","2503649","2019-01-07 18:00","2019","01","07","18:00","-27.3","","-30.5","","74","","","M","8","","13","","","M","101.59","","","","-37","","NA"
"-125.24","71.99","SACHS HARBOUR A","2503649","2019-01-07 19:00","2019","01","07","19:00","-27.9","","-31.3","","73","","","M","8","","12","","","M","101.61","","","","-38","","NA"
"-125.24","71.99","SACHS HARBOUR A","2503649","2019-01-07 20:00","2019","01","07","20:00","-26.9","","-30.2","","74","","","M","12","","10","","","M","101.62","","","","-35","","NA"
"-125.24","71.99","SACHS HARBOUR A","2503649","2019-01-07 21:00","2019","01","07","21:00","-27.0","","-30.2","","74","","","M","12","","13","","","M","101.62","","","","-37","","NA"
"-125.24","71.99","SACHS HARBOUR A","2503649","2019-01-07 22:00","2019","01","07","22:00","-26.5","","-29.8","","75","","","M","12","","11","","","M","101.63","","","","-35","","NA"
"-125.24","71.99","SACHS HARBOUR A","2503649","2019-01-07 23:00","2019","01","07","23:00","-26.7","","-29.9","","75","","","M","11","","14","","","M","101.67","","","","-37","","NA"
"-125.24","71.99","SACHS HARBOUR A","2503649","2019-01-08 00:00","2019","01","08","00:00","-26.4","","-29.6","","75","","","M","10","","14","","","M","101.67","","","","-37","","NA"
"-125.24","71.99","SACHS HARBOUR A","2503649","2019-01-08 01:00","2019","01","08","01:00","-27.1","","-30.4","","74","","","M","11","","16","","","M","101.69","","","","-38","","NA"
"-125.24","71.99","SACHS HARBOUR A","2503649","2019-01-08 02:00","2019","01","08","02:00","-27.2","","-30.6","","74","","","M","11","","15","","","M","101.72","","","","-38","","NA"
"-125.24","71.99","SACHS HARBOUR A","2503649","2019-01-08 03:00","2019","01","08","03:00","-26.8","","-30.1","","74","","","M","10","","8","","","M","101.73","","","","-34","","NA"
"-125.24","71.99","SACHS HARBOUR A","2503649","2019-01-08 04:00","2019","01","08","04:00","-26.6","","-29.8","","75","","","M","10","","8","","","M","101.75","","","","-34","","NA"
"-125.24","71.99","SACHS HARBOUR A","2503649","2019-01-08 05:00","2019","01","08","05:00","-26.1","","-29.3","","75","","","M","11","","4","","","M","101.76","","","","-30","","NA"
"-125.24","71.99","SACHS HARBOUR A","2503649","2019-01-08 06:00","2019","01","08","06:00","-26.1","","-29.3","","75","","","M","11","","7","","","M","101.76","","","","-33","","NA"
"-125.24","71.99","SACHS HARBOUR A","2503649","2019-01-08 07:00","2019","01","08","07:00","-26.8","","-30.0","","75","","","M","11","","13","","","M","101.76","","","","-37","","NA"
"-125.24","71.99","SACHS HARBOUR A","2503649","2019-01-08 08:00","2019","01","08","08:00","-26.7","","-30.0","","75","","","M","12","","10","","","M","101.77","","","","-35","","NA"
"-125.24","71.99","SACHS HARBOUR A","2503649","2019-01-08 09:00","2019","01","08","09:00","-27.1","","-30.4","","74","","","M","9","","7","","","M","101.79","","","","-34","","NA"
"-125.24","71.99","SACHS HARBOUR A","2503649","2019-01-08 10:00","2019","01","08","10:00","-27.1","","-30.3","","75","","","M","9","","8","","","M","101.81","","","","-35","","NA"
"-125.24","71.99","SACHS HARBOUR A","2503649","2019-01-08 11:00","2019","01","08","11:00","-27.0","","-30.3","","74","","","M","11","","10","","","M","101.81","","","","-36","","NA"
"-125.24","71.99","SACHS HARBOUR A","2503649","2019-01-08 12:00","2019","01","08","12:00","-27.3","","-30.6","","74","","","M","12","","8","","","M","101.82","","","","-35","","NA"
"-125.24","71.99","SACHS HARBOUR A","2503649","2019-01-08 13:00","2019","01","08","13:00","-26.5","","-29.7","","75","","","M","27","","3","","","M","101.85","","","","-30","","NA"
"-125.24","71.99","SACHS HARBOUR A","2503649","2019-01-08 14:00","2019","01","08","14:00","-26.7","","-29.9","","75","","","M","32","","8","","","M","101.87","","","","-34","","NA"
"-125.24","71.99","SACHS HARBOUR A","2503649","2019-01-08 15:00","2019","01","08","15:00","-26.6","","-29.9","","75","","","M","33","","7","","","M","101.86","","","","-33","","NA"
"-125.24","71.99","SACHS HARBOUR A","2503649","2019-01-08 16:00","2019","01","08","16:00","-27.5","","-30.9","","74","","","M","34","","9","","","M","101.87","","","","-36","","NA"
"-125.24","71.99","SACHS HARBOUR A","2503649","2019-01-08 17:00","2019","01","08","17:00","-28.6","","-31.9","","73","","","M","2","","10","","","M","101.86","","","","-37","","NA"
"-125.24","71.99","SACHS HARBOUR A","2503649","2019-01-08 18:00","2019","01","08","18:00","-28.2","","-31.6","","74","","","M","4","","11","","","M","101.87","","","","-38","","NA"
"-125.24","71.99","SACHS HARBOUR A","2503649","2019-01-08 19:00","2019","01","08","19:00","-28.0","","-31.3","","74","","","M","4","","11","","","M","101.87","","","","-37","","NA"
"-125.24","71.99","SACHS HARBOUR A","2503649","2019-01-08 20:00","2019","01","08","20:00","-27.4","","-30.6","","74","","","M","5","","12","","","M","101.85","","","","-37","","NA"
"-125.24","71.99","SACHS HARBOUR A","2503649","2019-01-08 21:00","2019","01","08","21:00","-26.6","","-29.8","","75","","","M","4","","7","","","M","101.86","","","","-33","","NA"
"-125.24","71.99","SACHS HARBOUR A","2503649","2019-01-08 22:00","2019","01","08","22:00","-26.1","","-29.3","","75","","","M","1","","5","","","M","101.89","","","","-31","","NA"
"-125.24","71.99","SACHS HARBOUR A","2503649","2019-01-08 23:00","2019","01","08","23:00","-28.1","","-31.4","","74","","","M","2","","9","","","M","101.90","","","","-36","","NA"
"-125.24","71.99","SACHS HARBOUR A","2503649","2019-01-09 00:00","2019","01","09","00:00","-28.9","","-32.4","","73","","","M","4","","14","","","M","101.91","","","","-40","","NA"
"-125.24","71.99","SACHS HARBOUR A","2503649","2019-01-09 01:00","2019","01","09","01:00","-29.0","","-32.4","","73","","","M","5","","17","","","M","101.94","","","","-41","","NA"
"-125.24","71.99","SACHS HARBOUR A","2503649","2019-01-09 02:00","2019","01","09","02:00","-28.3","","-31.6","","73","","","M","5","","14","","","M","101.96","","","","-39","","NA"
"-125.24","71.99","SACHS HARBOUR A","2503649","2019-01-09 03:00","2019","01","09","03:00","-27.6","","-30.9","","74","","","M","5","","12","","","M","101.97","","","","-37","","NA"
"-125.24","71.99","SACHS HARBOUR A","2503649","2019-01-09 04:00","2019","01","09","04:00","-27.2","","-30.5","","74","","","M","5","","12","","","M","101.98","","","","-37","","NA"
"-125.24","71.99","SACHS HARBOUR A","2503649","2019-01-09 05:00","2019","01","09","05:00","-29.2","","-32.6","","74","","","M","6","","17","","","M","101.98","","","","-41","","NA"
"-125.24","71.99","SACHS HARBOUR A","2503649","2019-01-09 06:00","2019","01","09","06:00","-29.2","","-32.6","","73","","","M","6","","18","","","M","102.02","","","","-41","","NA"
"-125.24","71.99","SACHS HARBOUR A","2503649","2019-01-09 07:00","2019","01","09","07:00","-28.4","","-31.8","","73","","","M","6","","19","","","M","102.04","","","","-41","","NA"
"-125.24","71.99","SACHS HARBOUR A","2503649","2019-01-09 08:00","2019","01","09","08:00","-28.7","","-32.1","","73","","","M","7","","20","","","M","102.05","","","","-41","","NA"
"-125.24","71.99","SACHS HARBOUR A","2503649","2019-01-09 09:00","2019","01","09","09:00","-29.2","","-32.6","","73","","","M","7","","21","","","M","102.10","","","","-42","","NA"
"-125.24","71.99","SACHS HARBOUR A","2503649","2019-01-09 10:00","2019","01","09","10:00","-29.2","","-32.6","","73","","","M","7","","22","","","M","102.10","","","","-43","","NA"
"-125.24","71.99","SACHS HARBOUR A","2503649","2019-01-09 11:00","2019","01","09","11:00","-29.1","","-32.6","","73","","","M","8","","23","","","M","102.12","","","","-43","","NA"
"-125.24","71.99","SACHS HARBOUR A","2503649","2019-01-09 12:00","2019","01","09","12:00","-28.2","","-31.6","","73","","","M","8","","16","","","M","102.17","","","","-40","","NA"
"-125.24","71.99","SACHS HARBOUR A","2503649","2019-01-09 13:00","2019","01","09","13:00","-26.8","","-30.0","","75","","","M","10","","11","","","M","102.19","","","","-36","","NA"
"-125.24","71.99","SACHS HARBOUR A","2503649","2019-01-09 14:00","2019","01","09","14:00","-26.3","","-29.5","","75","","","M","12","","8","","","M","102.21","","","","-34","","NA"
"-125.24","71.99","SACHS HARBOUR A","2503649","2019-01-09 15:00","2019","01","09","15:00","-27.2","","-30.5","","74","","","M","11","","11","","","M","102.24","","","","-36","","NA"
"-125.24","71.99","SACHS HARBOUR A","2503649","2019-01-09 16:00","2019","01","09","16:00","-27.1","","-30.4","","74","","","M","11","","15","","","M","102.25","","","","-38","","NA"
"-125.24","71.99","SACHS HARBOUR A","2503649","2019-01-09 17:00","2019","01","09","17:00","-27.1","","-30.4","","74","","","M","11","","17","","","M","102.29","","","","-39","","NA"
"-125.24","71.99","SACHS HARBOUR A","2503649","2019-01-09 18:00","2019","01","09","18:00","-27.2","","-30.5","","74","","","M","11","","17","","","M","102.31","","","","-39","","NA"
"-125.24","71.99","SACHS HARBOUR A","2503649","2019-01-09 19:00","2019","01","09","19:00","-27.2","","-30.5","","74","","","M","11","","18","","","M","102.32","","","","-39","","NA"
"-125.24","71.99","SACHS HARBOUR A","2503649","2019-01-09 20:00","2019","01","09","20:00","-27.5","","-30.8","","74","","","M","11","","17","","","M","102.32","","","","-39","","NA"
"-125.24","71.99","SACHS HARBOUR A","2503649","2019-01-09 21:00","2019","01","09","21:00","-27.6","","-30.9","","74","","","M","11","","17","","","M","102.34","","","","-39","","NA"
"-125.24","71.99","SACHS HARBOUR A","2503649","2019-01-09 22:00","2019","01","09","22:00","-27.3","","-30.6","","74","","","M","11","","15","","","M","102.36","","","","-38","","NA"
"-125.24","71.99","SACHS HARBOUR A","2503649","2019-01-09 23:00","2019","01","09","23:00","-27.2","","-30.5","","74","","","M","11","","17","","","M","102.38","","","","-39","","NA"
"-125.24","71.99","SACHS HARBOUR A","2503649","2019-01-10 00:00","2019","01","10","00:00","-27.0","","-30.3","","74","","","M","11","","15","","","M","102.40","","","","-38","","NA"
"-125.24","71.99","SACHS HARBOUR A","2503649","2019-01-10 01:00","2019","01","10","01:00","-26.9","","-30.1","","74","","","M","10","","14","","","M","102.42","","","","-37","","NA"
"-125.24","71.99","SACHS HARBOUR A","2503649","2019-01-10 02:00","2019","01","10","02:00","-26.4","","-29.6","","75","","","M","11","","12","","","M","102.44","","","","-36","","NA"
"-125.24","71.99","SACHS HARBOUR A","2503649","2019-01-10 03:00","2019","01","10","03:00","-26.3","","-29.5","","75","","","M","8","","10","","","M","102.49","","","","-35","","NA"
"-125.24","71.99","SACHS HARBOUR A","2503649","2019-01-10 04:00","2019","01","10","04:00","-26.2","","-29.4","","75","","","M","7","","8","","","M","102.46","","","","-34","","NA"
"-125.24","71.99","SACHS HARBOUR A","2503649","2019-01-10 05:00","2019","01","10","05:00","-27.5","","-30.8","","74","","","M","5","","13","","","M","102.43","","","","-38","","NA"
"-125.24","71.99","SACHS HARBOUR A","2503649","2019-01-10 06:00","2019","01","10","06:00","-27.3","","-30.6","","74","","","M","6","","15","","","M","102.40","","","","-38","","NA"
"-125.24","71.99","SACHS HARBOUR A","2503649","2019-01-10 07:00","2019","01","10","07:00","-28.8","","-32.2","","73","","","M","7","","19","","","M","102.41","","","","-41","","NA"
"-125.24","71.99","SACHS HARBOUR A","2503649","2019-01-10 08:00","2019","01","10","08:00","-31.4","","-35.0","","71","","","M","6","","23","","","M","102.39","","","","-46","","NA"
"-125.24","71.99","SACHS HARBOUR A","2503649","2019-01-10 09:00","2019","01","10","09:00","-30.8","","-34.3","","72","","","M","7","","27","","","M","102.36","","","","-46","","NA"
"-125.24","71.99","SACHS HARBOUR A","2503649","2019-01-10 10:00","2019","01","10","10:00","-28.1","","-31.4","","74","","","M","10","","16","","","M","102.37","","","","-39","","NA"
"-125.24","71.99","SACHS HARBOUR A","2503649","2019-01-10 11:00","2019","01","10","11:00","-26.5","","-29.8","","75","","","M","11","","17","","","M","102.36","","","","-38","","NA"
"-125.24","71.99","SACHS HARBOUR A","2503649","2019-01-10 12:00","2019","01","10","12:00","-27.0","","-30.3","","74","","","M","12","","21","","","M","102.36","","","","-40","","NA"
"-125.24","71.99","SACHS HARBOUR A","2503649","2019-01-10 13:00","2019","01","10","13:00","-27.6","","-30.9","","74","","","M","10","","22","","","M","102.37","","","","-41","","NA"
"-125.24","71.99","SACHS HARBOUR A","2503649","2019-01-10 14:00","2019","01","10","14:00","-27.1","","-30.4","","74","","","M","11","","18","","","M","102.38","","","","-39","","NA"
"-125.24","71.99","SACHS HARBOUR A","2503649","2019-01-10 15:00","2019","01","10","15:00","-26.6","","-29.9","","75","","","M","11","","17","","","M","102.36","","","","-38","","NA"
"-125.24","71.99","SACHS HARBOUR A","2503649","2019-01-10 16:00","2019","01","10","16:00","-26.7","","-30.0","","75","","","M","11","","16","","","M","102.33","","","","-38","","NA"
"-125.24","71.99","SACHS HARBOUR A","2503649","2019-01-10 17:00","2019","01","10","17:00","-28.2","","-31.6","","73","","","M","9","","22","","","M","102.31","","","","-41","","NA"
"-125.24","71.99","SACHS HARBOUR A","2503649","2019-01-10 18:00","2019","01","10","18:00","-28.3","","-31.7","","73","","","M","11","","22","","","M","102.27","","","","-42","","NA"
"-125.24","71.99","SACHS HARBOUR A","2503649","2019-01-10 19:00","2019","01","10","19:00","-28.9","","-32.4","","73","","","M","10","","19","","","M","102.24","","","","-41","","NA"
"-125.24","71.99","SACHS HARBOUR A","2503649","2019-01-10 20:00","2019","01","10","20:00","-30.8","","-34.3","","72","","","M","9","","22","","","M","102.19","","","","-45","","NA"
"-125.24","71.99","SACHS HARBOUR A","2503649","2019-01-10 21:00","2019","01","10","21:00","-29.7","","-33.2","","73","","","M","9","","19","","","M","102.15","","","","-42","","NA"
"-125.24","71.99","SACHS HARBOUR A","2503649","2019-01-10 22:00","2019","01","10","22:00","-28.5","","-31.8","","73","","","M","10","","28","","","M","102.13","","","","-43","","NA"
"-125.24","71.99","SACHS HARBOUR A","2503649","2019-01-10 23:00","2019","01","10","23:00","-28.6","","-32.0","","73","","","M","11","","25","","","M","102.12","","","","-43","","NA"
"-125.24","71.99","SACHS HARBOUR A","2503649","2019-01-11 00:00","2019","01","11","00:00","-28.5","","-31.8","","74","","","M","11","","30","","","M","102.08","","","","-44","","NA"
"-125.24","71.99","SACHS HARBOUR A","2503649","2019-01-11 01:00","2019","01","11","01:00","-28.2","","-31.5","","74","","","M","10","","34","","","M","102.04","","","","-44","","NA"
"-125.24","71.99","SACHS HARBOUR A","2503649","2019-01-11 02:00","2019","01","11","02:00","-28.1","","-31.5","","74","","","M","10","","28","","","M","102.01","","","","-43","","NA"
"-125.24","71.99","SACHS HARBOUR A","2503649","2019-01-11 03:00","2019","01","11","03:00","-28.3","","-31.8","","73","","","M","11","","21","","","M","101.94","","","","-41","","NA"
"-125.24","71.99","SACHS HARBOUR A","2503649","2019-01-11 04:00","2019","01","11","04:00","-29.6","","-33.0","","73","","","M","9","","7","","","M","101.90","","","","-37","","NA"
"-125.24","71.99","SACHS HARBOUR A","2503649","2019-01-11 05:00","2019","01","11","05:00","-28.1","","-31.4","","74","","","M","10","","27","","","M","101.83","","","","-42","","NA"
"-125.24","71.99","SACHS HARBOUR A","2503649","2019-01-11 06:00","2019","01","11","06:00","-31.0","","-34.6","","71","","","M","8","","26","","","M","101.80","","","","-46","","NA"
"-125.24","71.99","SACHS HARBOUR A","2503649","2019-01-11 07:00","2019","01","11","07:00","-30.7","","-34.2","","72","","","M","9","","27","","","M","101.77","","","","-46","","NA"
"-125.24","71.99","SACHS HARBOUR A","2503649","2019-01-11 08:00","2019","01","11","08:00","-31.6","","-35.2","","71","","","M","8","","30","","","M","101.71","","","","-48","","NA"
"-125.24","71.99","SACHS HARBOUR A","2503649","2019-01-11 09:00","2019","01","11","09:00","-30.2","","-33.7","","72","","","M","9","","30","","","M","101.68","","","","-46","","NA"
"-125.24","71.99","SACHS HARBOUR A","2503649","2019-01-11 10:00","2019","01","11","10:00","-30.8","","-34.4","","72","","","M","10","","28","","","M","101.63","","","","-46","","NA"
"-125.24","71.99","SACHS HARBOUR A","2503649","2019-01-11 11:00","2019","01","11","11:00","-30.9","","-34.5","","71","","","M","9","","32","","","M","101.57","","","","-47","","NA"
"-125.24","71.99","SACHS HARBOUR A","2503649","2019-01-11 12:00","2019","01","11","12:00","-30.4","","-33.9","","72","","","M","9","","32","","","M","101.53","","","","-47","","NA"
"-125.24","71.99","SACHS HARBOUR A","2503649","2019-01-11 13:00","2019","01","11","13:00","-29.2","","-32.7","","73","","","M","9","","27","","","M","101.47","","","","-44","","NA"
"-125.24","71.99","SACHS HARBOUR A","2503649","2019-01-11 14:00","2019","01","11","14:00","-30.3","","-33.8","","72","","","M","9","","33","","","M","101.41","","","","-47","","NA"
"-125.24","71.99","SACHS HARBOUR A","2503649","2019-01-11 15:00","2019","01","11","15:00","-28.7","","-32.1","","73","","","M","9","","29","","","M","101.38","","","","-44","","NA"
"-125.24","71.99","SACHS HARBOUR A","2503649","2019-01-11 16:00","2019","01","11","16:00","-29.7","","-33.2","","72","","","M","9","","24","","","M","101.34","","","","-44","","NA"
"-125.24","71.99","SACHS HARBOUR A","2503649","2019-01-11 17:00","2019","01","11","17:00","-29.5","","-33.0","","72","","","M","8","","35","","","M","101.26","","","","-46","","NA"
"-125.24","71.99","SACHS HARBOUR A","2503649","2019-01-11 18:00","2019","01","11","18:00","-30.1","","-33.6","","72","","","M","7","","41","","","M","101.19","","","","-48","","NA"
"-125.24","71.99","SACHS HARBOUR A","2503649","2019-01-11 19:00","2019","01","11","19:00","-29.0","","-32.5","","73","","","M","15","","13","","","M","101.13","","","","-39","","NA"
"-125.24","71.99","SACHS HARBOUR A","2503649","2019-01-11 20:00","2019","01","11","20:00","-29.0","","-32.5","","73","","","M","10","","27","","","M","101.09","","","","-44","","NA"
"-125.24","71.99","SACHS HARBOUR A","2503649","2019-01-11 21:00","2019","01","11","21:00","-28.6","","-32.1","","73","","","M","8","","36","","","M","101.06","","","","-45","","NA"
"-125.24","71.99","SACHS HARBOUR A","2503649","2019-01-11 22:00","2019","01","11","22:00","-29.6","","-33.1","","72","","","M","8","","43","","","M","101.03","","","","-47","","NA"
"-125.24","71.99","SACHS HARBOUR A","2503649","2019-01-11 23:00","2019","01","11","23:00","-29.6","","-33.0","","72","","","M","8","","39","","","M","101.02","","","","-47","","NA"
"-125.24","71.99","SACHS HARBOUR A","2503649","2019-01-12 00:00","2019","01","12","00:00","-30.1","","-33.6","","72","","","M","8","","37","","","M","101.00","","","","-47","","NA"
"-125.24","71.99","SACHS HARBOUR A","2503649","2019-01-12 01:00","2019","01","12","01:00","-30.1","","-33.6","","72","","","M","8","","44","","","M","100.94","","","","-48","","NA"
"-125.24","71.99","SACHS HARBOUR A","2503649","2019-01-12 02:00","2019","01","12","02:00","-29.6","","-33.0","","73","","","M","8","","44","","","M","100.92","","","","-48","","NA"
"-125.24","71.99","SACHS HARBOUR A","2503649","2019-01-12 03:00","2019","01","12","03:00","-30.4","","-34.0","","72","","","M","8","","30","","","M","100.95","","","","-46","","NA"
"-125.24","71.99","SACHS HARBOUR A","2503649","2019-01-12 04:00","2019","01","12","04:00","-30.6","","-34.1","","72","","","M","9","","33","","","M","100.94","","","","-47","","NA"
"-125.24","71.99","SACHS HARBOUR A","2503649","2019-01-12 05:00","2019","01","12","05:00","-30.5","","-34.1","","72","","","M","8","","40","","","M","100.93","","","","-48","","NA"
"-125.24","71.99","SACHS HARBOUR A","2503649","2019-01-12 06:00","2019","01","12","06:00","-30.5","","-34.0","","72","","","M","12","","21","","","M","100.98","","","","-44","","NA"
"-125.24","71.99","SACHS HARBOUR A","2503649","2019-01-12 07:00","2019","01","12","07:00","-31.4","","-35.0","","71","","","M","9","","29","","","M","100.98","","","","-47","","NA"
"-125.24","71.99","SACHS HARBOUR A","2503649","2019-01-12 08:00","2019","01","12","08:00","-32.0","","-35.6","","71","","","M","7","","32","","","M","101.02","","","","-49","","NA"
"-125.24","71.99","SACHS HARBOUR A","2503649","2019-01-12 09:00","2019","01","12","09:00","-32.2","","-35.9","","71","","","M","8","","17","","","M","101.09","","","","-45","","NA"
"-125.24","71.99","SACHS HARBOUR A","2503649","2019-01-12 10:00","2019","01","12","10:00","-32.3","","-36.0","","71","","","M","9","","26","","","M","101.12","","","","-48","","NA"
"-125.24","71.99","SACHS HARBOUR A","2503649","2019-01-12 11:00","2019","01","12","11:00","-32.9","","-36.5","","70","","","M","12","","22","","","M","101.18","","","","-47","","NA"
"-125.24","71.99","SACHS HARBOUR A","2503649","2019-01-12 12:00","2019","01","12","12:00","-31.9","","-35.6","","71","","","M","8","","28","","","M","101.24","","","","-48","","NA"
"-125.24","71.99","SACHS HARBOUR A","2503649","2019-01-12 13:00","2019","01","12","13:00","-32.1","","-35.8","","71","","","M","8","","26","","","M","101.32","","","","-47","","NA"
"-125.24","71.99","SACHS HARBOUR A","2503649","2019-01-12 14:00","2019","01","12","14:00","-33.0","","-36.7","","70","","","M","5","","20","","","M","101.40","","","","-47","","NA"
"-125.24","71.99","SACHS HARBOUR A","2503649","2019-01-12 15:00","2019","01","12","15:00","-31.8","","-35.5","","71","","","M","7","","29","","","M","101.50","","","","-48","","NA"
"-125.24","71.99","SACHS HARBOUR A","2503649","2019-01-12 16:00","2019","01","12","16:00","-33.4","","-37.1","","70","","","M","5","","23","","","M","101.58","","","","-48","","NA"
"-125.24","71.99","SACHS HARBOUR A","2503649","2019-01-12 17:00","2019","01","12","17:00","-33.6","","-37.3","","70","","","M","5","","30","","","M","101.64","","","","-50","","NA"
"-125.24","71.99","SACHS HARBOUR A","2503649","2019-01-12 18:00","2019","01","12","18:00","-35.5","","-39.4","","69","","","M","6","","35","","","M","101.71","","","","-54","","NA"
"-125.24","71.99","SACHS HARBOUR A","2503649","2019-01-12 19:00","2019","01","12","19:00","-35.0","","-38.8","","69","","","M","7","","32","","","M","101.81","","","","-53","","NA"
"-125.24","71.99","SACHS HARBOUR A","2503649","2019-01-12 20:00","2019","01","12","20:00","-34.1","","-37.9","","69","","","M","7","","34","","","M","101.88","","","","-52","","NA"
"-125.24","71.99","SACHS HARBOUR A","2503649","2019-01-12 21:00","2019","01","12","21:00","-33.3","","-37.1","","70","","","M","8","","33","","","M","101.94","","","","-51","","NA"
"-125.24","71.99","SACHS HARBOUR A","2503649","2019-01-12 22:00","2019","01","12","22:00","-31.6","","-35.3","","71","","","M","8","","27","","","M","102.00","","","","-47","","NA"
"-125.24","71.99","SACHS HARBOUR A","2503649","2019-01-12 23:00","2019","01","12","23:00","-32.6","","-36.3","","70","","","M","9","","26","","","M","102.08","","","","-48","","NA"
"-125.24","71.99","SACHS HARBOUR A","2503649","2019-01-13 00:00","2019","01","13","00:00","-33.2","","-36.9","","70","","","M","8","","32","","","M","102.16","","","","-50","","NA"
"-125.24","71.99","SACHS HARBOUR A","2503649","2019-01-13 01:00","2019","01","13","01:00","-32.5","","-36.2","","70","","","M","7","","28","","","M","102.22","","","","-48","","NA"
"-125.24","71.99","SACHS HARBOUR A","2503649","2019-01-13 02:00","2019","01","13","02:00","-31.8","","-35.4","","71","","","M","9","","23","","","M","102.30","","","","-46","","NA"
"-125.24","71.99","SACHS HARBOUR A","2503649","2019-01-13 03:00","2019","01","13","03:00","-30.3","","-33.8","","72","","","M","10","","21","","","M","102.36","","","","-44","","NA"
"-125.24","71.99","SACHS HARBOUR A","2503649","2019-01-13 04:00","2019","01","13","04:00","-30.7","","-34.4","","71","","","M","8","","21","","","M","102.39","","","","-44","","NA"
"-125.24","71.99","SACHS HARBOUR A","2503649","2019-01-13 05:00","2019","01","13","05:00","-29.8","","-33.4","","72","","","M","9","","16","","","M","102.44","","","","-42","","NA"
"-125.24","71.99","SACHS HARBOUR A","2503649","2019-01-13 06:00","2019","01","13","06:00","-29.4","","-32.9","","72","","","M","9","","13","","","M","102.45","","","","-40","","NA"
"-125.24","71.99","SACHS HARBOUR A","2503649","2019-01-13 07:00","2019","01","13","07:00","-28.0","","-31.4","","73","","","M","8","","9","","","M","102.43","","","","-36","","NA"
"-125.24","71.99","SACHS HARBOUR A","2503649","2019-01-13 08:00","2019","01","13","08:00","-27.4","","-30.7","","74","","","M","12","","9","","","M","102.46","","","","-36","","NA"
"-125.24","71.99","SACHS HARBOUR A","2503649","2019-01-13 09:00","2019","01","13","09:00","-28.3","","-31.7","","73","","","M","14","","10","","","M","102.51","","","","-37","","NA"
"-125.24","71.99","SACHS HARBOUR A","2503649","2019-01-13 10:00","2019","01","13","10:00","-27.4","","-30.8","","74","","","M","13","","7","","","M","102.54","","","","-34","","NA"
"-125.24","71.99","SACHS HARBOUR A","2503649","2019-01-13 11:00","2019","01","13","11:00","-26.9","","-30.2","","74","","","M","10","","4","","","M","102.56","","","","-31","","NA"
"-125.24","71.99","SACHS HARBOUR A","2503649","2019-01-13 12:00","2019","01","13","12:00","-27.2","","-30.5","","74","","","M","5","","7","","","M","102.55","","","","-34","","NA"
"-125.24","71.99","SACHS HARBOUR A","2503649","2019-01-13 13:00","2019","01","13","13:00","-26.9","","-30.2","","74","","","M","4","","7","","","M","102.55","","","","-34","","NA"
"-125.24","71.99","SACHS HARBOUR A","2503649","2019-01-13 14:00","2019","01","13","14:00","-27.6","","-30.9","","74","","","M","4","","10","","","M","102.58","","","","-36","","NA"
"-125.24","71.99","SACHS HARBOUR A","2503649","2019-01-13 15:00","2019","01","13","15:00","-27.6","","-30.9","","74","","","M","2","","6","","","M","102.58","","","","-34","","NA"
"-125.24","71.99","SACHS HARBOUR A","2503649","2019-01-13 16:00","2019","01","13","16:00","-27.0","","-30.2","","75","","","M","36","","5","","","M","102.57","","","","-32","","NA"
"-125.24","71.99","SACHS HARBOUR A","2503649","2019-01-13 17:00","2019","01","13","17:00","-27.0","","-30.2","","74","","","M","12","","2","","","M","102.59","","","","-29","","NA"
"-125.24","71.99","SACHS HARBOUR A","2503649","2019-01-13 18:00","2019","01","13","18:00","-27.4","","-30.7","","74","","","M","12","","5","","","M","102.59","","","","-33","","NA"
"-125.24","71.99","SACHS HARBOUR A","2503649","2019-01-13 19:00","2019","01","13","19:00","-27.8","","-31.1","","74","","","M","11","","8","","","M","102.59","","","","-35","","NA"
"-125.24","71.99","SACHS HARBOUR A","2503649","2019-01-13 20:00","2019","01","13","20:00","-27.4","","-30.8","","74","","","M","10","","10","","","M","102.60","","","","-36","","NA"
"-125.24","71.99","SACHS HARBOUR A","2503649","2019-01-13 21:00","2019","01","13","21:00","-27.1","","-30.4","","74","","","M","11","","11","","","M","102.62","","","","-36","","NA"
"-125.24","71.99","SACHS HARBOUR A","2503649","2019-01-13 22:00","2019","01","13","22:00","-27.3","","-30.6","","74","","","M","10","","10","","","M","102.61","","","","-36","","NA"
"-125.24","71.99","SACHS HARBOUR A","2503649","2019-01-13 23:00","2019","01","13","23:00","-27.0","","-30.3","","75","","","M","11","","7","","","M","102.63","","","","-34","","NA"
"-125.24","71.99","SACHS HARBOUR A","2503649","2019-01-14 00:00","2019","01","14","00:00","-27.5","","-30.8","","74","","","M","11","","6","","","M","102.63","","","","-34","","NA"
"-125.24","71.99","SACHS HARBOUR A","2503649","2019-01-14 01:00","2019","01","14","01:00","-28.6","","-32.0","","73","","","M","10","","12","","","M","102.63","","","","-38","","NA"
"-125.24","71.99","SACHS HARBOUR A","2503649","2019-01-14 02:00","2019","01","14","02:00","-28.0","","-31.4","","74","","","M","11","","7","","","M","102.67","","","","-35","","NA"
"-125.24","71.99","SACHS HARBOUR A","2503649","2019-01-14 03:00","2019","01","14","03:00","-28.8","","-32.3","","73","","","M","6","","5","","","M","102.69","","","","-34","","NA"
"-125.24","71.99","SACHS HARBOUR A","2503649","2019-01-14 04:00","2019","01","14","04:00","-29.2","","-32.6","","73","","","M","7","","5","","","M","102.72","","","","-35","","NA"
"-125.24","71.99","SACHS HARBOUR A","2503649","2019-01-14 05:00","2019","01","14","05:00","-28.5","","-31.9","","73","","","M","8","","7","","","M","102.70","","","","-36","","NA"
"-125.24","71.99","SACHS HARBOUR A","2503649","2019-01-14 06:00","2019","01","14","06:00","-28.8","","-32.3","","73","","","M","12","","12","","","M","102.70","","","","-39","","NA"
"-125.24","71.99","SACHS HARBOUR A","2503649","2019-01-14 07:00","2019","01","14","07:00","-28.8","","-32.2","","73","","","M","11","","12","","","M","102.70","","","","-39","","NA"
"-125.24","71.99","SACHS HARBOUR A","2503649","2019-01-14 08:00","2019","01","14","08:00","-27.5","","-30.8","","74","","","M","11","","10","","","M","102.71","","","","-36","","NA"
"-125.24","71.99","SACHS HARBOUR A","2503649","2019-01-14 09:00","2019","01","14","09:00","-28.4","","-31.8","","73","","","M","10","","15","","","M","102.75","","","","-39","","NA"
"-125.24","71.99","SACHS HARBOUR A","2503649","2019-01-14 10:00","2019","01","14","10:00","-28.9","","-32.4","","73","","","M","9","","17","","","M","102.75","","","","-41","","NA"
"-125.24","71.99","SACHS HARBOUR A","2503649","2019-01-14 11:00","2019","01","14","11:00","-29.4","","-32.9","","73","","","M","9","","22","","","M","102.75","","","","-43","","NA"
"-125.24","71.99","SACHS HARBOUR A","2503649","2019-01-14 12:00","2019","01","14","12:00","-27.4","","-30.8","","74","","","M","9","","17","","","M","102.78","","","","-39","","NA"
"-125.24","71.99","SACHS HARBOUR A","2503649","2019-01-14 13:00","2019","01","14","13:00","-27.2","","-30.4","","74","","","M","9","","16","","","M","102.80","","","","-38","","NA"
"-125.24","71.99","SACHS HARBOUR A","2503649","2019-01-14 14:00","2019","01","14","14:00","-27.4","","-30.8","","74","","","M","9","","29","","","M","102.80","","","","-42","","NA"
"-125.24","71.99","SACHS HARBOUR A","2503649","2019-01-14 15:00","2019","01","14","15:00","-26.3","","-29.6","","75","","","M","9","","26","","","M","102.81","","","","-40","","NA"
"-125.24","71.99","SACHS HARBOUR A","2503649","2019-01-14 16:00","2019","01","14","16:00","-27.3","","-30.5","","74","","","M","8","","28","","","M","102.83","","","","-42","","NA"
"-125.24","71.99","SACHS HARBOUR A","2503649","2019-01-14 17:00","2019","01","14","17:00","-27.9","","-31.4","","73","","","M","7","","24","","","M","102.84","","","","-42","","NA"
"-125.24","71.99","SACHS HARBOUR A","2503649","2019-01-14 18:00","2019","01","14","18:00","-27.4","","-30.6","","74","","","M","7","","29","","","M","102.83","","","","-42","","NA"
"-125.24","71.99","SACHS HARBOUR A","2503649","2019-01-14 19:00","2019","01","14","19:00","-26.4","","-29.7","","74","","","M","7","","22","","","M","102.85","","","","-39","","NA"
"-125.24","71.99","SACHS HARBOUR A","2503649","2019-01-14 20:00","2019","01","14","20:00","-29.6","","-33.0","","72","","","M","6","","16","","","M","102.87","","","","-41","","NA"
"-125.24","71.99","SACHS HARBOUR A","2503649","2019-01-14 21:00","2019","01","14","21:00","-31.1","","-34.8","","71","","","M","5","","23","","","M","102.85","","","","-45","","NA"
"-125.24","71.99","SACHS HARBOUR A","2503649","2019-01-14 22:00","2019","01","14","22:00","-31.5","","-35.1","","71","","","M","5","","32","","","M","102.83","","","","-48","","NA"
"-125.24","71.99","SACHS HARBOUR A","2503649","2019-01-14 23:00","2019","01","14","23:00","-31.1","","-34.7","","71","","","M","5","","33","","","M","102.84","","","","-48","","NA"
"-125.24","71.99","SACHS HARBOUR A","2503649","2019-01-15 00:00","2019","01","15","00:00","-31.6","","-35.2","","71","","","M","5","","30","","","M","102.86","","","","-48","","NA"
"-125.24","71.99","SACHS HARBOUR A","2503649","2019-01-15 01:00","2019","01","15","01:00","-30.8","","-34.4","","72","","","M","6","","31","","","M","102.88","","","","-47","","NA"
"-125.24","71.99","SACHS HARBOUR A","2503649","2019-01-15 02:00","2019","01","15","02:00","-30.4","","-33.9","","72","","","M","6","","32","","","M","102.92","","","","-47","","NA"
"-125.24","71.99","SACHS HARBOUR A","2503649","2019-01-15 03:00","2019","01","15","03:00","-30.5","","-34.0","","72","","","M","5","","27","","","M","102.94","","","","-46","","NA"
"-125.24","71.99","SACHS HARBOUR A","2503649","2019-01-15 04:00","2019","01","15","04:00","-31.6","","-35.1","","71","","","M","5","","29","","","M","102.96","","","","-47","","NA"
"-125.24","71.99","SACHS HARBOUR A","2503649","2019-01-15 05:00","2019","01","15","05:00","-32.0","","-35.7","","71","","","M","3","","20","","","M","103.01","","","","-46","","NA"
"-125.24","71.99","SACHS HARBOUR A","2503649","2019-01-15 06:00","2019","01","15","06:00","-31.4","","-35.0","","71","","","M","4","","30","","","M","103.02","","","","-47","","NA"
"-125.24","71.99","SACHS HARBOUR A","2503649","2019-01-15 07:00","2019","01","15","07:00","-33.7","","-37.5","","70","","","M","2","","23","","","M","103.02","","","","-49","","NA"
"-125.24","71.99","SACHS HARBOUR A","2503649","2019-01-15 08:00","2019","01","15","08:00","-30.4","","-33.9","","72","","","M","4","","42","","","M","103.00","","","","-48","","NA"
"-125.24","71.99","SACHS HARBOUR A","2503649","2019-01-15 09:00","2019","01","15","09:00","-30.0","","-33.5","","72","","","M","2","","34","","","M","103.01","","","","-46","","NA"
"-125.24","71.99","SACHS HARBOUR A","2503649","2019-01-15 10:00","2019","01","15","10:00","-31.8","","-35.4","","71","","","M","3","","31","","","M","103.08","","","","-48","","NA"
"-125.24","71.99","SACHS HARBOUR A","2503649","2019-01-15 11:00","2019","01","15","11:00","-32.2","","-35.9","","71","","","M","2","","21","","","M","103.11","","","","-46","","NA"
"-125.24","71.99","SACHS HARBOUR A","2503649","2019-01-15 12:00","2019","01","15","12:00","-30.8","","-34.3","","72","","","M","1","","18","","","M","103.10","","","","-43","","NA"
"-125.24","71.99","SACHS HARBOUR A","2503649","2019-01-15 13:00","2019","01","15","13:00","-31.6","","-35.2","","71","","","M","35","","18","","","M","103.11","","","","-44","","NA"
"-125.24","71.99","SACHS HARBOUR A","2503649","2019-01-15 14:00","2019","01","15","14:00","-31.6","","-35.2","","71","","","M","2","","21","","","M","103.13","","","","-45","","NA"
"-125.24","71.99","SACHS HARBOUR A","2503649","2019-01-15 15:00","2019","01","15","15:00","-32.4","","-36.1","","70","","","M","35","","17","","","M","103.14","","","","-45","","NA"
"-125.24","71.99","SACHS HARBOUR A","2503649","2019-01-15 16:00","2019","01","15","16:00","-29.9","","-33.3","","73","","","M","4","","14","","","M","103.18","","","","-41","","NA"
"-125.24","71.99","SACHS HARBOUR A","2503649","2019-01-15 17:00","2019","01","15","17:00","-27.9","","-31.3","","74","","","M","8","","17","","","M","103.21","","","","-40","","NA"
"-125.24","71.99","SACHS HARBOUR A","2503649","2019-01-15 18:00","2019","01","15","18:00","-28.2","","-31.6","","73","","","M","5","","28","","","M","103.17","","","","-43","","NA"
"-125.24","71.99","SACHS HARBOUR A","2503649","2019-01-15 19:00","2019","01","15","19:00","-27.6","","-30.9","","74","","","M","9","","16","","","M","103.17","","","","-39","","NA"
"-125.24","71.99","SACHS HARBOUR A","2503649","2019-01-15 20:00","2019","01","15","20:00","-26.5","","-29.9","","73","","","M","8","","12","","","M","103.16","","","","-36","","NA"
"-125.24","71.99","SACHS HARBOUR A","2503649","2019-01-15 21:00","2019","01","15","21:00","-26.6","","-30.1","","73","","","M","6","","21","","","M","103.15","","","","-39","","NA"
"-125.24","71.99","SACHS HARBOUR A","2503649","2019-01-15 22:00","2019","01","15","22:00","-25.1","","-28.8","","71","","","M","6","","13","","","M","103.20","","","","-35","","NA"
"-125.24","71.99","SACHS HARBOUR A","2503649","2019-01-15 23:00","2019","01","15","23:00","-27.2","","-31.4","","68","","","M","3","","10","","","M","103.21","","","","-36","","NA"
"-125.24","71.99","SACHS HARBOUR A","2503649","2019-01-16 00:00","2019","01","16","00:00","-28.3","","-32.8","","66","","","M","3","","9","","","M","103.21","","","","-37","","NA"
"-125.24","71.99","SACHS HARBOUR A","2503649","2019-01-16 01:00","2019","01","16","01:00","-28.1","","-33.1","","63","","","M","2","","10","","","M","103.19","","","","-37","","NA"
"-125.24","71.99","SACHS HARBOUR A","2503649","2019-01-16 02:00","2019","01","16","02:00","-29.9","","-34.8","","64","","","M","2","","22","","","M","103.16","","","","-44","","NA"
"-125.24","71.99","SACHS HARBOUR A","2503649","2019-01-16 03:00","2019","01","16","03:00","-28.7","","-33.5","","64","","","M","4","","20","","","M","103.17","","","","-41","","NA"
"-125.24","71.99","SACHS HARBOUR A","2503649","2019-01-16 04:00","2019","01","16","04:00","-27.6","","-31.6","","69","","","M","4","","29","","","M","103.10","","","","-42","","NA"
"-125.24","71.99","SACHS HARBOUR A","2503649","2019-01-16 05:00","2019","01","16","05:00","-20.9","","-25.5","","68","","","M","10","","22","","","M","103.12","","","","-32","","NA"
"-125.24","71.99","SACHS HARBOUR A","2503649","2019-01-16 06:00","2019","01","16","06:00","-20.4","","-25.3","","66","","","M","9","","23","","","M","103.10","","","","-32","","NA"
"-125.24","71.99","SACHS HARBOUR A","2503649","2019-01-16 07:00","2019","01","16","07:00","-20.3","","-25.4","","65","","","M","9","","28","","","M","103.06","","","","-33","","NA"
"-125.24","71.99","SACHS HARBOUR A","2503649","2019-01-16 08:00","2019","01","16","08:00","-20.7","","-25.9","","64","","","M","10","","22","","","M","103.02","","","","-32","","NA"
"-125.24","71.99","SACHS HARBOUR A","2503649","2019-01-16 09:00","2019","01","16","09:00","-19.0","","-24.2","","64","","","M","10","","24","","","M","103.02","","","","-30","","NA"
"-125.24","71.99","SACHS HARBOUR A","2503649","2019-01-16 10:00","2019","01","16","10:00","-19.1","","-24.2","","65","","","M","10","","23","","","M","103.02","","","","-30","","NA"
"-125.24","71.99","SACHS HARBOUR A","2503649","2019-01-16 11:00","2019","01","16","11:00","-18.8","","-24.4","","62","","","M","11","","23","","","M","103.02","","","","-30","","NA"
"-125.24","71.99","SACHS HARBOUR A","2503649","2019-01-16 12:00","2019","01","16","12:00","-19.7","","-25.1","","63","","","M","11","","23","","","M","103.01","","","","-31","","NA"
"-125.24","71.99","SACHS HARBOUR A","2503649","2019-01-16 13:00","2019","01","16","13:00","-18.2","","-24.6","","58","","","M","10","","18","","","M","102.99","","","","-28","","NA"
"-125.24","71.99","SACHS HARBOUR A","2503649","2019-01-16 14:00","2019","01","16","14:00","-17.0","","-24.0","","55","","","M","10","","13","","","M","103.00","","","","-25","","NA"
"-125.24","71.99","SACHS HARBOUR A","2503649","2019-01-16 15:00","2019","01","16","15:00","-16.3","","-23.5","","55","","","M","10","","17","","","M","103.00","","","","-25","","NA"
"-125.24","71.99","SACHS HARBOUR A","2503649","2019-01-16 16:00","2019","01","16","16:00","-16.7","","-24.3","","52","","","M","11","","14","","","M","103.00","","","","-25","","NA"
"-125.24","71.99","SACHS HARBOUR A","2503649","2019-01-16 17:00","2019","01","16","17:00","-17.3","","-24.5","","54","","","M","11","","13","","","M","102.94","","","","-25","","NA"
"-125.24","71.99","SACHS HARBOUR A","2503649","2019-01-16 18:00","2019","01","16","18:00","-17.4","","-24.4","","55","","","M","11","","12","","","M","102.90","","","","-25","","NA"
"-125.24","71.99","SACHS HARBOUR A","2503649","2019-01-16 19:00","2019","01","16","19:00","-17.4","","-24.3","","56","","","M","9","","13","","","M","102.84","","","","-25","","NA"
"-125.24","71.99","SACHS HARBOUR A","2503649","2019-01-16 20:00","2019","01","16","20:00","-17.4","","-24.1","","56","","","M","10","","10","","","M","102.81","","","","-24","","NA"
"-125.24","71.99","SACHS HARBOUR A","2503649","2019-01-16 21:00","2019","01","16","21:00","-17.0","","-23.6","","57","","","M","11","","10","","","M","102.77","","","","-24","","NA"
"-125.24","71.99","SACHS HARBOUR A","2503649","2019-01-16 22:00","2019","01","16","22:00","-18.1","","-24.8","","56","","","M","11","","16","","","M","102.75","","","","-27","","NA"
"-125.24","71.99","SACHS HARBOUR A","2503649","2019-01-16 23:00","2019","01","16","23:00","-17.2","","-25.8","","48","","","M","11","","16","","","M","102.72","","","","-26","","NA"
"-125.24","71.99","SACHS HARBOUR A","2503649","2019-01-17 00:00","2019","01","17","00:00","-16.9","","-24.9","","51","","","M","11","","9","","","M","102.72","","","","-23","","NA"
"-125.24","71.99","SACHS HARBOUR A","2503649","2019-01-17 01:00","2019","01","17","01:00","-17.3","","-27.6","","41","","","M","11","","15","","","M","102.70","","","","-26","","NA"
"-125.24","71.99","SACHS HARBOUR A","2503649","2019-01-17 02:00","2019","01","17","02:00","-17.3","","-27.2","","43","","","M","11","","13","","","M","102.68","","","","-25","","NA"
"-125.24","71.99","SACHS HARBOUR A","2503649","2019-01-17 03:00","2019","01","17","03:00","-16.8","","-27.5","","40","","","M","11","","8","","","M","102.68","","","","-22","","NA"
"-125.24","71.99","SACHS HARBOUR A","2503649","2019-01-17 04:00","2019","01","17","04:00","-16.7","","-27.4","","40","","","M","8","","8","","","M","102.66","","","","-22","","NA"
"-125.24","71.99","SACHS HARBOUR A","2503649","2019-01-17 05:00","2019","01","17","05:00","-17.7","","-29.5","","36","","","M","10","","22","","","M","102.64","","","","-28","","NA"
"-125.24","71.99","SACHS HARBOUR A","2503649","2019-01-17 06:00","2019","01","17","06:00","-18.3","","-28.3","","42","","","M","11","","19","","","M","102.61","","","","-28","","NA"
"-125.24","71.99","SACHS HARBOUR A","2503649","2019-01-17 07:00","2019","01","17","07:00","-18.4","","-27.9","","44","","","M","12","","16","","","M","102.59","","","","-27","","NA"
"-125.24","71.99","SACHS HARBOUR A","2503649","2019-01-17 08:00","2019","01","17","08:00","-17.9","","-26.1","","49","","","M","11","","10","","","M","102.57","","","","-25","","NA"
"-125.24","71.99","SACHS HARBOUR A","2503649","2019-01-17 09:00","2019","01","17","09:00","-18.6","","-29.8","","38","","","M","11","","24","","","M","102.55","","","","-30","","NA"
"-125.24","71.99","SACHS HARBOUR A","2503649","2019-01-17 10:00","2019","01","17","10:00","-18.7","","-29.9","","37","","","M","9","","34","","","M","102.55","","","","-32","","NA"
"-125.24","71.99","SACHS HARBOUR A","2503649","2019-01-17 11:00","2019","01","17","11:00","-18.2","","-28.9","","39","","","M","10","","30","","","M","102.54","","","","-30","","NA"
"-125.24","71.99","SACHS HARBOUR A","2503649","2019-01-17 12:00","2019","01","17","12:00","-18.0","","-28.2","","41","","","M","13","","14","","","M","102.55","","","","-26","","NA"
"-125.24","71.99","SACHS HARBOUR A","2503649","2019-01-17 13:00","2019","01","17","13:00","-18.4","","-28.5","","42","","","M","11","","22","","","M","102.56","","","","-29","","NA"
"-125.24","71.99","SACHS HARBOUR A","2503649","2019-01-17 14:00","2019","01","17","14:00","-18.6","","-27.7","","45","","","M","12","","24","","","M","102.59","","","","-30","","NA"
"-125.24","71.99","SACHS HARBOUR A","2503649","2019-01-17 15:00","2019","01","17","15:00","-19.4","","-27.2","","51","","","M","11","","21","","","M","102.57","","","","-30","","NA"
"-125.24","71.99","SACHS HARBOUR A","2503649","2019-01-17 16:00","2019","01","17","16:00","-18.7","","-26.6","","51","","","M","11","","21","","","M","102.57","","","","-29","","NA"
"-125.24","71.99","SACHS HARBOUR A","2503649","2019-01-17 17:00","2019","01","17","17:00","-19.2","","-24.8","","62","","","M","12","","15","","","M","102.55","","","","-28","","NA"
"-125.24","71.99","SACHS HARBOUR A","2503649","2019-01-17 18:00","2019","01","17","18:00","-18.2","","-21.7","","74","","","M","7","","8","","","M","102.55","","","","-24","","NA"
"-125.24","71.99","SACHS HARBOUR A","2503649","2019-01-17 19:00","2019","01","17","19:00","-18.4","","-27.1","","47","","","M","4","","8","","","M","102.52","","","","-24","","NA"
"-125.24","71.99","SACHS HARBOUR A","2503649","2019-01-17 20:00","2019","01","17","20:00","-18.0","","-26.4","","48","","","M","10","","14","","","M","102.50","","","","-26","","NA"
"-125.24","71.99","SACHS HARBOUR A","2503649","2019-01-17 21:00","2019","01","17","21:00","-17.9","","-27.2","","45","","","M","11","","13","","","M","102.48","","","","-26","","NA"
"-125.24","71.99","SACHS HARBOUR A","2503649","2019-01-17 22:00","2019","01","17","22:00","-17.9","","-26.8","","47","","","M","13","","11","","","M","102.50","","","","-25","","NA"
"-125.24","71.99","SACHS HARBOUR A","2503649","2019-01-17 23:00","2019","01","17","23:00","-21.3","","-28.3","","54","","","M","13","","15","","","M","102.47","","","","-31","","NA"
"-125.24","71.99","SACHS HARBOUR A","2503649","2019-01-18 00:00","2019","01","18","00:00","-21.9","","-25.6","","72","","","M","11","","25","","","M","102.49","","","","-34","","NA"
"-125.24","71.99","SACHS HARBOUR A","2503649","2019-01-18 01:00","2019","01","18","01:00","-22.9","","-25.4","","81","","","M","14","","10","","","M","102.50","","","","-31","","NA"
"-125.24","71.99","SACHS HARBOUR A","2503649","2019-01-18 02:00","2019","01","18","02:00","-20.9","","-23.9","","77","","","M","15","","5","","","M","102.52","","","","-25","","NA"
"-125.24","71.99","SACHS HARBOUR A","2503649","2019-01-18 03:00","2019","01","18","03:00","-22.4","","-25.3","","77","","","M","11","","14","","","M","102.50","","","","-32","","NA"
"-125.24","71.99","SACHS HARBOUR A","2503649","2019-01-18 04:00","2019","01","18","04:00","-21.7","","-24.8","","76","","","M","12","","15","","","M","102.49","","","","-31","","NA"
"-125.24","71.99","SACHS HARBOUR A","2503649","2019-01-18 05:00","2019","01","18","05:00","-21.9","","-25.2","","75","","","M","13","","18","","","M","102.47","","","","-32","","NA"
"-125.24","71.99","SACHS HARBOUR A","2503649","2019-01-18 06:00","2019","01","18","06:00","-21.5","","-25.1","","73","","","M","14","","21","","","M","102.44","","","","-33","","NA"
"-125.24","71.99","SACHS HARBOUR A","2503649","2019-01-18 07:00","2019","01","18","07:00","-21.7","","-25.7","","70","","","M","13","","21","","","M","102.43","","","","-33","","NA"
"-125.24","71.99","SACHS HARBOUR A","2503649","2019-01-18 08:00","2019","01","18","08:00","-22.0","","-26.8","","66","","","M","13","","23","","","M","102.40","","","","-34","","NA"
"-125.24","71.99","SACHS HARBOUR A","2503649","2019-01-18 09:00","2019","01","18","09:00","-22.3","","-26.7","","68","","","M","14","","19","","","M","102.40","","","","-33","","NA"
"-125.24","71.99","SACHS HARBOUR A","2503649","2019-01-18 10:00","2019","01","18","10:00","-22.4","","-26.2","","72","","","M","14","","20","","","M","102.37","","","","-34","","NA"
"-125.24","71.99","SACHS HARBOUR A","2503649","2019-01-18 11:00","2019","01","18","11:00","-21.4","","-24.6","","76","","","M","14","","22","","","M","102.36","","","","-33","","NA"
"-125.24","71.99","SACHS HARBOUR A","2503649","2019-01-18 12:00","2019","01","18","12:00","-22.0","","-25.3","","75","","","M","13","","22","","","M","102.33","","","","-34","","NA"
"-125.24","71.99","SACHS HARBOUR A","2503649","2019-01-18 13:00","2019","01","18","13:00","-22.3","","-25.6","","76","","","M","14","","20","","","M","102.33","","","","-33","","NA"
"-125.24","71.99","SACHS HARBOUR A","2503649","2019-01-18 14:00","2019","01","18","14:00","-22.3","","-25.2","","78","","","M","14","","21","","","M","102.30","","","","-34","","NA"
"-125.24","71.99","SACHS HARBOUR A","2503649","2019-01-18 15:00","2019","01","18","15:00","-23.0","","-26.1","","76","","","M","13","","22","","","M","102.27","","","","-35","","NA"
"-125.24","71.99","SACHS HARBOUR A","2503649","2019-01-18 16:00","2019","01","18","16:00","-22.0","","-24.7","","79","","","M","14","","22","","","M","102.24","","","","-34","","NA"
"-125.24","71.99","SACHS HARBOUR A","2503649","2019-01-18 17:00","2019","01","18","17:00","-22.2","","-25.2","","77","","","M","13","","20","","","M","102.23","","","","-33","","NA"
"-125.24","71.99","SACHS HARBOUR A","2503649","2019-01-18 18:00","2019","01","18","18:00","-20.8","","-24.0","","75","","","M","13","","19","","","M","102.17","","","","-31","","NA"
"-125.24","71.99","SACHS HARBOUR A","2503649","2019-01-18 19:00","2019","01","18","19:00","-20.3","","-23.6","","75","","","M","13","","19","","","M","102.09","","","","-31","","NA"
"-125.24","71.99","SACHS HARBOUR A","2503649","2019-01-18 20:00","2019","01","18","20:00","-20.4","","-24.1","","73","","","M","13","","18","","","M","102.05","","","","-30","","NA"
"-125.24","71.99","SACHS HARBOUR A","2503649","2019-01-18 21:00","2019","01","18","21:00","-19.7","","-24.1","","69","","","M","13","","20","","","M","102.01","","","","-30","","NA"
"-125.24","71.99","SACHS HARBOUR A","2503649","2019-01-18 22:00","2019","01","18","22:00","-20.1","","-24.4","","69","","","M","13","","19","","","M","101.98","","","","-30","","NA"
"-125.24","71.99","SACHS HARBOUR A","2503649","2019-01-18 23:00","2019","01","18","23:00","-19.5","","-24.1","","67","","","M","12","","22","","","M","101.92","","","","-30","","NA"
"-125.24","71.99","SACHS HARBOUR A","2503649","2019-01-19 00:00","2019","01","19","00:00","-19.3","","-23.9","","68","","","M","12","","21","","","M","101.87","","","","-30","","NA"
"-125.24","71.99","SACHS HARBOUR A","2503649","2019-01-19 01:00","2019","01","19","01:00","-19.1","","-23.9","","67","","","M","12","","19","","","M","101.80","","","","-29","","NA"
"-125.24","71.99","SACHS HARBOUR A","2503649","2019-01-19 02:00","2019","01","19","02:00","-18.4","","-23.7","","64","","","M","13","","18","","","M","101.71","","","","-28","","NA"
"-125.24","71.99","SACHS HARBOUR A","2503649","2019-01-19 03:00","2019","01","19","03:00","-18.1","","-23.9","","61","","","M","12","","16","","","M","101.67","","","","-27","","NA"
"-125.24","71.99","SACHS HARBOUR A","2503649","2019-01-19 04:00","2019","01","19","04:00","-17.4","","-24.4","","55","","","M","11","","16","","","M","101.60","","","","-26","","NA"
"-125.24","71.99","SACHS HARBOUR A","2503649","2019-01-19 05:00","2019","01","19","05:00","-16.2","","-26.2","","42","","","M","10","","19","","","M","101.51","","","","-25","","NA"
"-125.24","71.99","SACHS HARBOUR A","2503649","2019-01-19 06:00","2019","01","19","06:00","-15.5","","-29.9","","29","","","M","12","","17","","","M","101.42","","","","-24","","NA"
"-125.24","71.99","SACHS HARBOUR A","2503649","2019-01-19 07:00","2019","01","19","07:00","-14.6","","-30.6","","25","","","M","11","","13","","","M","101.35","","","","-22","","NA"
"-125.24","71.99","SACHS HARBOUR A","2503649","2019-01-19 08:00","2019","01","19","08:00","-16.4","","-29.7","","32","","","M","10","","16","","","M","101.29","","","","-25","","NA"
"-125.24","71.99","SACHS HARBOUR A","2503649","2019-01-19 09:00","2019","01","19","09:00","-18.2","","-28.7","","40","","","M","11","","13","","","M","101.27","","","","-26","","NA"
"-125.24","71.99","SACHS HARBOUR A","2503649","2019-01-19 10:00","2019","01","19","10:00","-16.8","","-27.2","","41","","","M","11","","14","","","M","101.22","","","","-25","","NA"
"-125.24","71.99","SACHS HARBOUR A","2503649","2019-01-19 11:00","2019","01","19","11:00","-15.9","","-28.4","","34","","","M","13","","13","","","M","101.16","","","","-23","","NA"
"-125.24","71.99","SACHS HARBOUR A","2503649","2019-01-19 12:00","2019","01","19","12:00","-16.1","","-26.6","","41","","","M","10","","8","","","M","101.10","","","","-22","","NA"
"-125.24","71.99","SACHS HARBOUR A","2503649","2019-01-19 13:00","2019","01","19","13:00","-16.7","","-27.4","","40","","","M","7","","3","","","M","101.04","","","","-19","","NA"
"-125.24","71.99","SACHS HARBOUR A","2503649","2019-01-19 14:00","2019","01","19","14:00","-16.8","","-28.4","","37","","","M","7","","16","","","M","100.98","","","","-25","","NA"
"-125.24","71.99","SACHS HARBOUR A","2503649","2019-01-19 15:00","2019","01","19","15:00","-17.6","","-29.2","","36","","","M","7","","15","","","M","100.94","","","","-26","","NA"
"-125.24","71.99","SACHS HARBOUR A","2503649","2019-01-19 16:00","2019","01","19","16:00","-18.1","","-29.6","","37","","","M","8","","13","","","M","100.89","","","","-26","","NA"
"-125.24","71.99","SACHS HARBOUR A","2503649","2019-01-19 17:00","2019","01","19","17:00","-17.7","","-29.6","","35","","","M","14","","9","","","M","100.82","","","","-24","","NA"
"-125.24","71.99","SACHS HARBOUR A","2503649","2019-01-19 18:00","2019","01","19","18:00","-16.7","","-29.6","","33","","","M","13","","9","","","M","100.76","","","","-23","","NA"
"-125.24","71.99","SACHS HARBOUR A","2503649","2019-01-19 19:00","2019","01","19","19:00","-18.5","","-29.4","","39","","","M","10","","13","","","M","100.71","","","","-27","","NA"
"-125.24","71.99","SACHS HARBOUR A","2503649","2019-01-19 20:00","2019","01","19","20:00","-18.8","","-30.4","","36","","","M","10","","14","","","M","100.66","","","","-27","","NA"
"-125.24","71.99","SACHS HARBOUR A","2503649","2019-01-19 21:00","2019","01","19","21:00","-17.4","","-30.0","","33","","","M","11","","15","","","M","100.63","","","","-26","","NA"
"-125.24","71.99","SACHS HARBOUR A","2503649","2019-01-19 22:00","2019","01","19","22:00","-16.8","","-30.7","","30","","","M","10","","11","","","M","100.61","","","","-24","","NA"
"-125.24","71.99","SACHS HARBOUR A","2503649","2019-01-19 23:00","2019","01","19","23:00","-18.1","","-29.7","","36","","","M","11","","18","","","M","100.59","","","","-28","","NA"
"-125.24","71.99","SACHS HARBOUR A","2503649","2019-01-20 00:00","2019","01","20","00:00","-18.6","","-29.9","","38","","","M","10","","21","","","M","100.56","","","","-29","","NA"
"-125.24","71.99","SACHS HARBOUR A","2503649","2019-01-20 01:00","2019","01","20","01:00","-18.2","","-29.8","","36","","","M","12","","15","","","M","100.55","","","","-27","","NA"
"-125.24","71.99","SACHS HARBOUR A","2503649","2019-01-20 02:00","2019","01","20","02:00","-16.9","","-30.2","","31","","","M","6","","8","","","M","100.53","","","","-23","","NA"
"-125.24","71.99","SACHS HARBOUR A","2503649","2019-01-20 03:00","2019","01","20","03:00","-16.9","","-30.4","","31","","","M","12","","10","","","M","100.51","","","","-24","","NA"
"-125.24","71.99","SACHS HARBOUR A","2503649","2019-01-20 04:00","2019","01","20","04:00","-16.2","","-30.8","","28","","","M","13","","3","","","M","100.49","","","","-18","","NA"
"-125.24","71.99","SACHS HARBOUR A","2503649","2019-01-20 05:00","2019","01","20","05:00","-16.5","","-30.4","","30","","","M","7","","6","","","M","100.47","","","","-21","","NA"
"-125.24","71.99","SACHS HARBOUR A","2503649","2019-01-20 06:00","2019","01","20","06:00","-17.7","","-29.6","","35","","","M","13","","5","","","M","100.43","","","","-22","","NA"
"-125.24","71.99","SACHS HARBOUR A","2503649","2019-01-20 07:00","2019","01","20","07:00","-20.4","","-30.7","","40","","","M","13","","9","","","M","100.39","","","","-27","","NA"
"-125.24","71.99","SACHS HARBOUR A","2503649","2019-01-20 08:00","2019","01","20","08:00","-21.6","","-30.5","","46","","","M","13","","12","","","M","100.37","","","","-30","","NA"
"-125.24","71.99","SACHS HARBOUR A","2503649","2019-01-20 09:00","2019","01","20","09:00","-21.5","","-25.6","","70","","","M","14","","8","","","M","100.34","","","","-28","","NA"
"-125.24","71.99","SACHS HARBOUR A","2503649","2019-01-20 10:00","2019","01","20","10:00","-21.4","","-24.6","","76","","","M","13","","10","","","M","100.33","","","","-29","","NA"
"-125.24","71.99","SACHS HARBOUR A","2503649","2019-01-20 11:00","2019","01","20","11:00","-22.1","","-25.0","","78","","","M","12","","14","","","M","100.30","","","","-31","","NA"
"-125.24","71.99","SACHS HARBOUR A","2503649","2019-01-20 12:00","2019","01","20","12:00","-22.3","","-25.0","","79","","","M","12","","17","","","M","100.25","","","","-33","","NA"
"-125.24","71.99","SACHS HARBOUR A","2503649","2019-01-20 13:00","2019","01","20","13:00","-22.6","","-25.5","","78","","","M","12","","21","","","M","100.26","","","","-34","","NA"
"-125.24","71.99","SACHS HARBOUR A","2503649","2019-01-20 14:00","2019","01","20","14:00","-22.9","","-25.8","","78","","","M","11","","21","","","M","100.26","","","","-34","","NA"
"-125.24","71.99","SACHS HARBOUR A","2503649","2019-01-20 15:00","2019","01","20","15:00","-23.0","","-25.9","","77","","","M","11","","18","","","M","100.25","","","","-34","","NA"
"-125.24","71.99","SACHS HARBOUR A","2503649","2019-01-20 16:00","2019","01","20","16:00","-23.5","","-26.5","","77","","","M","12","","23","","","M","100.21","","","","-36","","NA"
"-125.24","71.99","SACHS HARBOUR A","2503649","2019-01-20 17:00","2019","01","20","17:00","-22.6","","-25.6","","77","","","M","12","","25","","","M","100.20","","","","-35","","NA"
"-125.24","71.99","SACHS HARBOUR A","2503649","2019-01-20 18:00","2019","01","20","18:00","-21.6","","-24.4","","78","","","M","13","","22","","","M","100.20","","","","-33","","NA"
"-125.24","71.99","SACHS HARBOUR A","2503649","2019-01-20 19:00","2019","01","20","19:00","-21.4","","-24.2","","78","","","M","13","","20","","","M","100.18","","","","-32","","NA"
"-125.24","71.99","SACHS HARBOUR A","2503649","2019-01-20 20:00","2019","01","20","20:00","-21.0","","-23.8","","78","","","M","14","","17","","","M","100.18","","","","-31","","NA"
"-125.24","71.99","SACHS HARBOUR A","2503649","2019-01-20 21:00","2019","01","20","21:00","-20.9","","-23.8","","78","","","M","10","","14","","","M","100.21","","","","-30","","NA"
"-125.24","71.99","SACHS HARBOUR A","2503649","2019-01-20 22:00","2019","01","20","22:00","-19.9","","-22.6","","80","","","M","11","","16","","","M","100.22","","","","-29","","NA"
"-125.24","71.99","SACHS HARBOUR A","2503649","2019-01-20 23:00","2019","01","20","23:00","-20.5","","-23.3","","79","","","M","9","","13","","","M","100.25","","","","-29","","NA"
"-125.24","71.99","SACHS HARBOUR A","2503649","2019-01-21 00:00","2019","01","21","00:00","-21.7","","-24.5","","78","","","M","7","","23","","","M","100.26","","","","-33","","NA"
"-125.24","71.99","SACHS HARBOUR A","2503649","2019-01-21 01:00","2019","01","21","01:00","-22.6","","-25.5","","78","","","M","6","","21","","","M","100.27","","","","-34","","NA"
"-125.24","71.99","SACHS HARBOUR A","2503649","2019-01-21 02:00","2019","01","21","02:00","-25.6","","-28.8","","75","","","M","5","","19","","","M","100.31","","","","-37","","NA"
"-125.24","71.99","SACHS HARBOUR A","2503649","2019-01-21 03:00","2019","01","21","03:00","-24.9","","-28.0","","76","","","M","7","","26","","","M","100.33","","","","-38","","NA"
"-125.24","71.99","SACHS HARBOUR A","2503649","2019-01-21 04:00","2019","01","21","04:00","-25.7","","-28.9","","75","","","M","6","","28","","","M","100.35","","","","-40","","NA"
"-125.24","71.99","SACHS HARBOUR A","2503649","2019-01-21 05:00","2019","01","21","05:00","-27.0","","-30.3","","74","","","M","5","","23","","","M","100.37","","","","-40","","NA"
"-125.24","71.99","SACHS HARBOUR A","2503649","2019-01-21 06:00","2019","01","21","06:00","-27.3","","-30.6","","74","","","M","6","","22","","","M","100.39","","","","-40","","NA"
"-125.24","71.99","SACHS HARBOUR A","2503649","2019-01-21 07:00","2019","01","21","07:00","-29.5","","-33.0","","72","","","M","4","","19","","","M","100.39","","","","-42","","NA"
"-125.24","71.99","SACHS HARBOUR A","2503649","2019-01-21 08:00","2019","01","21","08:00","-29.5","","-33.0","","72","","","M","4","","26","","","M","100.40","","","","-44","","NA"
"-125.24","71.99","SACHS HARBOUR A","2503649","2019-01-21 09:00","2019","01","21","09:00","-30.4","","-33.9","","72","","","M","2","","16","","","M","100.42","","","","-42","","NA"
"-125.24","71.99","SACHS HARBOUR A","2503649","2019-01-21 10:00","2019","01","21","10:00","-30.1","","-33.6","","72","","","M","1","","25","","","M","100.44","","","","-45","","NA"
"-125.24","71.99","SACHS HARBOUR A","2503649","2019-01-21 11:00","2019","01","21","11:00","-30.1","","-33.6","","72","","","M","2","","31","","","M","100.45","","","","-46","","NA"
"-125.24","71.99","SACHS HARBOUR A","2503649","2019-01-21 12:00","2019","01","21","12:00","-30.2","","-33.7","","72","","","M","2","","25","","","M","100.47","","","","-45","","NA"
"-125.24","71.99","SACHS HARBOUR A","2503649","2019-01-21 13:00","2019","01","21","13:00","-29.6","","-33.0","","72","","","M","2","","22","","","M","100.52","","","","-43","","NA"
"-125.24","71.99","SACHS HARBOUR A","2503649","2019-01-21 14:00","2019","01","21","14:00","-30.1","","-33.6","","72","","","M","36","","21","","","M","100.55","","","","-44","","NA"
"-125.24","71.99","SACHS HARBOUR A","2503649","2019-01-21 15:00","2019","01","21","15:00","-31.8","","-35.4","","71","","","M","36","","21","","","M","100.59","","","","-46","","NA"
"-125.24","71.99","SACHS HARBOUR A","2503649","2019-01-21 16:00","2019","01","21","16:00","-31.4","","-35.1","","71","","","M","1","","30","","","M","100.59","","","","-47","","NA"
"-125.24","71.99","SACHS HARBOUR A","2503649","2019-01-21 17:00","2019","01","21","17:00","-34.1","","-37.9","","69","","","M","36","","29","","","M","100.61","","","","-51","","NA"
"-125.24","71.99","SACHS HARBOUR A","2503649","2019-01-21 18:00","2019","01","21","18:00","-33.3","","-37.0","","70","","","M","35","","37","","","M","100.60","","","","-51","","NA"
"-125.24","71.99","SACHS HARBOUR A","2503649","2019-01-21 19:00","2019","01","21","19:00","-34.3","","-38.1","","69","","","M","36","","32","","","M","100.63","","","","-52","","NA"
"-125.24","71.99","SACHS HARBOUR A","2503649","2019-01-21 20:00","2019","01","21","20:00","-35.5","","-39.3","","69","","","M","1","","27","","","M","100.68","","","","-52","","NA"
"-125.24","71.99","SACHS HARBOUR A","2503649","2019-01-21 21:00","2019","01","21","21:00","-34.8","","-38.6","","69","","","M","3","","19","","","M","100.76","","","","-49","","NA"
"-125.24","71.99","SACHS HARBOUR A","2503649","2019-01-21 22:00","2019","01","21","22:00","-35.5","","-39.4","","68","","","M","3","","25","","","M","100.79","","","","-52","","NA"
"-125.24","71.99","SACHS HARBOUR A","2503649","2019-01-21 23:00","2019","01","21","23:00","-36.0","","-39.9","","68","","","M","3","","25","","","M","100.83","","","","-52","","NA"
"-125.24","71.99","SACHS HARBOUR A","2503649","2019-01-22 00:00","2019","01","22","00:00","-36.7","","-40.6","","68","","","M","2","","21","","","M","100.88","","","","-52","","NA"
"-125.24","71.99","SACHS HARBOUR A","2503649","2019-01-22 01:00","2019","01","22","01:00","-35.5","","-39.3","","69","","","M","2","","25","","","M","100.90","","","","-52","","NA"
"-125.24","71.99","SACHS HARBOUR A","2503649","2019-01-22 02:00","2019","01","22","02:00","-33.9","","-37.7","","70","","","M","4","","21","","","M","100.95","","","","-48","","NA"
"-125.24","71.99","SACHS HARBOUR A","2503649","2019-01-22 03:00","2019","01","22","03:00","-35.7","","-39.5","","68","","","M","2","","22","","","M","101.00","","","","-51","","NA"
"-125.24","71.99","SACHS HARBOUR A","2503649","2019-01-22 04:00","2019","01","22","04:00","-36.6","","-40.5","","68","","","M","2","","30","","","M","101.02","","","","-54","","NA"
"-125.24","71.99","SACHS HARBOUR A","2503649","2019-01-22 05:00","2019","01","22","05:00","-37.7","","-41.7","","67","","","M","2","","32","","","M","101.05","","","","-56","","NA"
"-125.24","71.99","SACHS HARBOUR A","2503649","2019-01-22 06:00","2019","01","22","06:00","-35.0","","-38.9","","69","","","M","1","","35","","","M","101.08","","","","-53","","NA"
"-125.24","71.99","SACHS HARBOUR A","2503649","2019-01-22 07:00","2019","01","22","07:00","-35.4","","-39.3","","68","","","M","2","","29","","","M","101.10","","","","-52","","NA"
"-125.24","71.99","SACHS HARBOUR A","2503649","2019-01-22 08:00","2019","01","22","08:00","-37.3","","-41.2","","67","","","M","3","","30","","","M","101.15","","","","-55","","NA"
"-125.24","71.99","SACHS HARBOUR A","2503649","2019-01-22 09:00","2019","01","22","09:00","-37.2","","-41.2","","67","","","M","2","","28","","","M","101.19","","","","-55","","NA"
"-125.24","71.99","SACHS HARBOUR A","2503649","2019-01-22 10:00","2019","01","22","10:00","-37.8","","-41.8","","67","","","M","3","","27","","","M","101.23","","","","-55","","NA"
"-125.24","71.99","SACHS HARBOUR A","2503649","2019-01-22 11:00","2019","01","22","11:00","-37.9","","-41.9","","67","","","M","2","","27","","","M","101.25","","","","-55","","NA"
"-125.24","71.99","SACHS HARBOUR A","2503649","2019-01-22 12:00","2019","01","22","12:00","-37.3","","-41.3","","67","","","M","2","","27","","","M","101.28","","","","-54","","NA"
"-125.24","71.99","SACHS HARBOUR A","2503649","2019-01-22 13:00","2019","01","22","13:00","-35.9","","-39.8","","68","","","M","2","","21","","","M","101.33","","","","-51","","NA"
"-125.24","71.99","SACHS HARBOUR A","2503649","2019-01-22 14:00","2019","01","22","14:00","-34.4","","-38.2","","69","","","M","2","","20","","","M","101.36","","","","-49","","NA"
"-125.24","71.99","SACHS HARBOUR A","2503649","2019-01-22 15:00","2019","01","22","15:00","-33.4","","-37.2","","70","","","M","1","","22","","","M","101.38","","","","-48","","NA"
"-125.24","71.99","SACHS HARBOUR A","2503649","2019-01-22 16:00","2019","01","22","16:00","-32.4","","-36.1","","70","","","M","1","","10","","","M","101.40","","","","-42","","NA"
"-125.24","71.99","SACHS HARBOUR A","2503649","2019-01-22 17:00","2019","01","22","17:00","-32.1","","-35.9","","70","","","M","33","","9","","","M","101.41","","","","-41","","NA"
"-125.24","71.99","SACHS HARBOUR A","2503649","2019-01-22 18:00","2019","01","22","18:00","-31.1","","-34.8","","71","","","M","29","","17","","","M","101.41","","","","-44","","NA"
"-125.24","71.99","SACHS HARBOUR A","2503649","2019-01-22 19:00","2019","01","22","19:00","-30.7","","-34.3","","71","","","M","29","","16","","","M","101.40","","","","-43","","NA"
"-125.24","71.99","SACHS HARBOUR A","2503649","2019-01-22 20:00","2019","01","22","20:00","-30.1","","-33.7","","72","","","M","29","","16","","","M","101.38","","","","-42","","NA"
"-125.24","71.99","SACHS HARBOUR A","2503649","2019-01-22 21:00","2019","01","22","21:00","-28.8","","-32.3","","72","","","M","28","","18","","","M","101.36","","","","-41","","NA"
"-125.24","71.99","SACHS HARBOUR A","2503649","2019-01-22 22:00","2019","01","22","22:00","-27.9","","-31.3","","73","","","M","29","","21","","","M","101.35","","","","-41","","NA"
"-125.24","71.99","SACHS HARBOUR A","2503649","2019-01-22 23:00","2019","01","22","23:00","-26.7","","-30.1","","74","","","M","28","","18","","","M","101.34","","","","-38","","NA"
"-125.24","71.99","SACHS HARBOUR A","2503649","2019-01-23 00:00","2019","01","23","00:00","-25.9","","-29.2","","75","","","M","27","","17","","","M","101.33","","","","-37","","NA"
"-125.24","71.99","SACHS HARBOUR A","2503649","2019-01-23 01:00","2019","01","23","01:00","-25.7","","-29.0","","75","","","M","29","","14","","","M","101.35","","","","-36","","NA"
"-125.24","71.99","SACHS HARBOUR A","2503649","2019-01-23 02:00","2019","01","23","02:00","-25.7","","-28.9","","75","","","M","30","","14","","","M","101.36","","","","-36","","NA"
"-125.24","71.99","SACHS HARBOUR A","2503649","2019-01-23 03:00","2019","01","23","03:00","-26.6","","-30.0","","74","","","M","33","","9","","","M","101.38","","","","-35","","NA"
"-125.24","71.99","SACHS HARBOUR A","2503649","2019-01-23 04:00","2019","01","23","04:00","-26.5","","-29.8","","74","","","M","34","","12","","","M","101.38","","","","-36","","NA"
"-125.24","71.99","SACHS HARBOUR A","2503649","2019-01-23 05:00","2019","01","23","05:00","-27.8","","-31.2","","73","","","M","35","","10","","","M","101.38","","","","-37","","NA"
"-125.24","71.99","SACHS HARBOUR A","2503649","2019-01-23 06:00","2019","01","23","06:00","-28.5","","-31.9","","73","","","M","3","","9","","","M","101.33","","","","-37","","NA"
"-125.24","71.99","SACHS HARBOUR A","2503649","2019-01-23 07:00","2019","01","23","07:00","-28.1","","-31.6","","73","","","M","4","","7","","","M","101.34","","","","-35","","NA"
"-125.24","71.99","SACHS HARBOUR A","2503649","2019-01-23 08:00","2019","01","23","08:00","-27.7","","-31.1","","74","","","M","2","","5","","","M","101.34","","","","-33","","NA"
"-125.24","71.99","SACHS HARBOUR A","2503649","2019-01-23 09:00","2019","01","23","09:00","-28.7","","-32.1","","73","","","M","5","","8","","","M","101.34","","","","-36","","NA"
"-125.24","71.99","SACHS HARBOUR A","2503649","2019-01-23 10:00","2019","01","23","10:00","-28.0","","-31.4","","73","","","M","7","","9","","","M","101.31","","","","-36","","NA"
"-125.24","71.99","SACHS HARBOUR A","2503649","2019-01-23 11:00","2019","01","23","11:00","-28.7","","-32.2","","73","","","M","6","","14","","","M","101.28","","","","-39","","NA"
"-125.24","71.99","SACHS HARBOUR A","2503649","2019-01-23 12:00","2019","01","23","12:00","-29.9","","-33.5","","72","","","M","5","","22","","","M","101.28","","","","-44","","NA"
"-125.24","71.99","SACHS HARBOUR A","2503649","2019-01-23 13:00","2019","01","23","13:00","-30.3","","-33.8","","72","","","M","8","","21","","","M","101.28","","","","-44","","NA"
"-125.24","71.99","SACHS HARBOUR A","2503649","2019-01-23 14:00","2019","01","23","14:00","-29.6","","-33.1","","72","","","M","11","","17","","","M","101.27","","","","-42","","NA"
"-125.24","71.99","SACHS HARBOUR A","2503649","2019-01-23 15:00","2019","01","23","15:00","-29.0","","-32.5","","72","","","M","12","","19","","","M","101.24","","","","-42","","NA"
"-125.24","71.99","SACHS HARBOUR A","2503649","2019-01-23 16:00","2019","01","23","16:00","-27.7","","-31.1","","73","","","M","13","","13","","","M","101.23","","","","-38","","NA"
"-125.24","71.99","SACHS HARBOUR A","2503649","2019-01-23 17:00","2019","01","23","17:00","-27.4","","-30.7","","74","","","M","12","","16","","","M","101.18","","","","-39","","NA"
"-125.24","71.99","SACHS HARBOUR A","2503649","2019-01-23 18:00","2019","01","23","18:00","-28.0","","-31.4","","73","","","M","12","","20","","","M","101.14","","","","-41","","NA"
"-125.24","71.99","SACHS HARBOUR A","2503649","2019-01-23 19:00","2019","01","23","19:00","-27.1","","-30.4","","74","","","M","12","","28","","","M","101.04","","","","-41","","NA"
"-125.24","71.99","SACHS HARBOUR A","2503649","2019-01-23 20:00","2019","01","23","20:00","-26.0","","-29.3","","75","","","M","12","","27","","","M","100.99","","","","-40","","NA"
"-125.24","71.99","SACHS HARBOUR A","2503649","2019-01-23 21:00","2019","01","23","21:00","-24.9","","-28.1","","76","","","M","12","","24","","","M","100.95","","","","-38","","NA"
"-125.24","71.99","SACHS HARBOUR A","2503649","2019-01-23 22:00","2019","01","23","22:00","-26.2","","-29.5","","74","","","M","12","","25","","","M","100.94","","","","-40","","NA"
"-125.24","71.99","SACHS HARBOUR A","2503649","2019-01-23 23:00","2019","01","23","23:00","-26.9","","-30.2","","74","","","M","12","","26","","","M","100.92","","","","-41","","NA"
"-125.24","71.99","SACHS HARBOUR A","2503649","2019-01-24 00:00","2019","01","24","00:00","-27.0","","-30.3","","74","","","M","12","","26","","","M","100.90","","","","-41","","NA"
"-125.24","71.99","SACHS HARBOUR A","2503649","2019-01-24 01:00","2019","01","24","01:00","-26.6","","-29.9","","74","","","M","12","","30","","","M","100.87","","","","-41","","NA"
"-125.24","71.99","SACHS HARBOUR A","2503649","2019-01-24 02:00","2019","01","24","02:00","-26.4","","-29.6","","75","","","M","12","","29","","","M","100.84","","","","-41","","NA"
"-125.24","71.99","SACHS HARBOUR A","2503649","2019-01-24 03:00","2019","01","24","03:00","-26.3","","-29.6","","74","","","M","12","","28","","","M","100.79","","","","-40","","NA"
"-125.24","71.99","SACHS HARBOUR A","2503649","2019-01-24 04:00","2019","01","24","04:00","-26.6","","-29.9","","74","","","M","12","","24","","","M","100.77","","","","-40","","NA"
"-125.24","71.99","SACHS HARBOUR A","2503649","2019-01-24 05:00","2019","01","24","05:00","-26.7","","-30.0","","74","","","M","12","","27","","","M","100.71","","","","-41","","NA"
"-125.24","71.99","SACHS HARBOUR A","2503649","2019-01-24 06:00","2019","01","24","06:00","-27.2","","-30.5","","74","","","M","12","","26","","","M","100.66","","","","-41","","NA"
"-125.24","71.99","SACHS HARBOUR A","2503649","2019-01-24 07:00","2019","01","24","07:00","-26.6","","-29.9","","74","","","M","12","","28","","","M","100.58","","","","-41","","NA"
"-125.24","71.99","SACHS HARBOUR A","2503649","2019-01-24 08:00","2019","01","24","08:00","-26.4","","-29.6","","75","","","M","12","","28","","","M","100.51","","","","-41","","NA"
"-125.24","71.99","SACHS HARBOUR A","2503649","2019-01-24 09:00","2019","01","24","09:00","-26.4","","-29.7","","74","","","M","11","","30","","","M","100.45","","","","-41","","NA"
"-125.24","71.99","SACHS HARBOUR A","2503649","2019-01-24 10:00","2019","01","24","10:00","-25.2","","-28.4","","75","","","M","12","","27","","","M","100.42","","","","-39","","NA"
"-125.24","71.99","SACHS HARBOUR A","2503649","2019-01-24 11:00","2019","01","24","11:00","-25.5","","-28.7","","75","","","M","12","","27","","","M","100.39","","","","-39","","NA"
"-125.24","71.99","SACHS HARBOUR A","2503649","2019-01-24 12:00","2019","01","24","12:00","-25.0","","-28.2","","76","","","M","12","","27","","","M","100.38","","","","-38","","NA"
"-125.24","71.99","SACHS HARBOUR A","2503649","2019-01-24 13:00","2019","01","24","13:00","-25.1","","-28.3","","75","","","M","12","","26","","","M","100.33","","","","-38","","NA"
"-125.24","71.99","SACHS HARBOUR A","2503649","2019-01-24 14:00","2019","01","24","14:00","-24.5","","-27.6","","76","","","M","11","","26","","","M","100.26","","","","-38","","NA"
"-125.24","71.99","SACHS HARBOUR A","2503649","2019-01-24 15:00","2019","01","24","15:00","-24.2","","-27.3","","76","","","M","12","","24","","","M","100.23","","","","-37","","NA"
"-125.24","71.99","SACHS HARBOUR A","2503649","2019-01-24 16:00","2019","01","24","16:00","-24.0","","-27.1","","76","","","M","12","","25","","","M","100.24","","","","-37","","NA"
"-125.24","71.99","SACHS HARBOUR A","2503649","2019-01-24 17:00","2019","01","24","17:00","-24.1","","-27.2","","76","","","M","13","","25","","","M","100.24","","","","-37","","NA"
"-125.24","71.99","SACHS HARBOUR A","2503649","2019-01-24 18:00","2019","01","24","18:00","-24.1","","-27.1","","76","","","M","12","","24","","","M","100.22","","","","-37","","NA"
"-125.24","71.99","SACHS HARBOUR A","2503649","2019-01-24 19:00","2019","01","24","19:00","-23.3","","-26.3","","77","","","M","14","","23","","","M","100.16","","","","-35","","NA"
"-125.24","71.99","SACHS HARBOUR A","2503649","2019-01-24 20:00","2019","01","24","20:00","-23.1","","-26.1","","77","","","M","13","","23","","","M","100.17","","","","-35","","NA"
"-125.24","71.99","SACHS HARBOUR A","2503649","2019-01-24 21:00","2019","01","24","21:00","-22.5","","-25.4","","78","","","M","14","","27","","","M","100.12","","","","-35","","NA"
"-125.24","71.99","SACHS HARBOUR A","2503649","2019-01-24 22:00","2019","01","24","22:00","-23.8","","-26.8","","76","","","M","13","","23","","","M","100.16","","","","-36","","NA"
"-125.24","71.99","SACHS HARBOUR A","2503649","2019-01-24 23:00","2019","01","24","23:00","-24.3","","-27.4","","76","","","M","11","","22","","","M","100.22","","","","-36","","NA"
"-125.24","71.99","SACHS HARBOUR A","2503649","2019-01-25 00:00","2019","01","25","00:00","-24.6","","-27.6","","76","","","M","11","","16","","","M","100.24","","","","-35","","NA"
"-125.24","71.99","SACHS HARBOUR A","2503649","2019-01-25 01:00","2019","01","25","01:00","-24.8","","-27.9","","76","","","M","10","","12","","","M","100.23","","","","-34","","NA"
"-125.24","71.99","SACHS HARBOUR A","2503649","2019-01-25 02:00","2019","01","25","02:00","-25.0","","-28.1","","76","","","M","11","","10","","","M","100.27","","","","-33","","NA"
"-125.24","71.99","SACHS HARBOUR A","2503649","2019-01-25 03:00","2019","01","25","03:00","-24.3","","-27.4","","76","","","M","9","","8","","","M","100.26","","","","-31","","NA"
"-125.24","71.99","SACHS HARBOUR A","2503649","2019-01-25 04:00","2019","01","25","04:00","-25.1","","-28.3","","75","","","M","13","","10","","","M","100.27","","","","-33","","NA"
"-125.24","71.99","SACHS HARBOUR A","2503649","2019-01-25 05:00","2019","01","25","05:00","-24.8","","-27.9","","76","","","M","8","","7","","","M","100.29","","","","-31","","NA"
"-125.24","71.99","SACHS HARBOUR A","2503649","2019-01-25 06:00","2019","01","25","06:00","-24.8","","-27.9","","76","","","M","6","","13","","","M","100.29","","","","-34","","NA"
"-125.24","71.99","SACHS HARBOUR A","2503649","2019-01-25 07:00","2019","01","25","07:00","-26.3","","-29.4","","76","","","M","5","","16","","","M","100.30","","","","-37","","NA"
"-125.24","71.99","SACHS HARBOUR A","2503649","2019-01-25 08:00","2019","01","25","08:00","-26.6","","-29.9","","74","","","M","6","","18","","","M","100.29","","","","-38","","NA"
"-125.24","71.99","SACHS HARBOUR A","2503649","2019-01-25 09:00","2019","01","25","09:00","-26.4","","-29.6","","75","","","M","7","","21","","","M","100.26","","","","-39","","NA"
"-125.24","71.99","SACHS HARBOUR A","2503649","2019-01-25 10:00","2019","01","25","10:00","-27.4","","-30.8","","74","","","M","7","","22","","","M","100.24","","","","-40","","NA"
"-125.24","71.99","SACHS HARBOUR A","2503649","2019-01-25 11:00","2019","01","25","11:00","-27.5","","-30.9","","74","","","M","6","","17","","","M","100.24","","","","-39","","NA"
"-125.24","71.99","SACHS HARBOUR A","2503649","2019-01-25 12:00","2019","01","25","12:00","-27.6","","-30.9","","74","","","M","7","","15","","","M","100.25","","","","-38","","NA"
"-125.24","71.99","SACHS HARBOUR A","2503649","2019-01-25 13:00","2019","01","25","13:00","-28.8","","-32.3","","73","","","M","6","","13","","","M","100.22","","","","-39","","NA"
"-125.24","71.99","SACHS HARBOUR A","2503649","2019-01-25 14:00","2019","01","25","14:00","-32.2","","-35.9","","71","","","M","5","","17","","","M","100.22","","","","-45","","NA"
"-125.24","71.99","SACHS HARBOUR A","2503649","2019-01-25 15:00","2019","01","25","15:00","-33.4","","-37.1","","70","","","M","4","","18","","","M","100.16","","","","-47","","NA"
"-125.24","71.99","SACHS HARBOUR A","2503649","2019-01-25 16:00","2019","01","25","16:00","-31.8","","-35.4","","71","","","M","6","","13","","","M","100.21","","","","-43","","NA"
"-125.24","71.99","SACHS HARBOUR A","2503649","2019-01-25 17:00","2019","01","25","17:00","-32.9","","-36.6","","70","","","M","4","","17","","","M","100.22","","","","-46","","NA"
"-125.24","71.99","SACHS HARBOUR A","2503649","2019-01-25 18:00","2019","01","25","18:00","-32.2","","-35.9","","71","","","M","7","","19","","","M","100.22","","","","-46","","NA"
"-125.24","71.99","SACHS HARBOUR A","2503649","2019-01-25 19:00","2019","01","25","19:00","-33.4","","-37.1","","70","","","M","5","","24","","","M","100.19","","","","-49","","NA"
"-125.24","71.99","SACHS HARBOUR A","2503649","2019-01-25 20:00","2019","01","25","20:00","-33.7","","-37.4","","70","","","M","4","","28","","","M","100.14","","","","-50","","NA"
"-125.24","71.99","SACHS HARBOUR A","2503649","2019-01-25 21:00","2019","01","25","21:00","-30.1","","-33.6","","72","","","M","7","","28","","","M","100.23","","","","-45","","NA"
"-125.24","71.99","SACHS HARBOUR A","2503649","2019-01-25 22:00","2019","01","25","22:00","-33.0","","-36.8","","70","","","M","5","","23","","","M","100.19","","","","-48","","NA"
"-125.24","71.99","SACHS HARBOUR A","2503649","2019-01-25 23:00","2019","01","25","23:00","-29.7","","-33.2","","72","","","M","8","","31","","","M","100.23","","","","-45","","NA"
"-125.24","71.99","SACHS HARBOUR A","2503649","2019-01-26 00:00","2019","01","26","00:00","-30.1","","-33.6","","72","","","M","8","","29","","","M","100.28","","","","-46","","NA"
"-125.24","71.99","SACHS HARBOUR A","2503649","2019-01-26 01:00","2019","01","26","01:00","-31.4","","-35.0","","71","","","M","6","","26","","","M","100.28","","","","-47","","NA"
"-125.24","71.99","SACHS HARBOUR A","2503649","2019-01-26 02:00","2019","01","26","02:00","-30.9","","-34.4","","72","","","M","8","","30","","","M","100.28","","","","-47","","NA"
"-125.24","71.99","SACHS HARBOUR A","2503649","2019-01-26 03:00","2019","01","26","03:00","-31.2","","-34.8","","71","","","M","6","","24","","","M","100.28","","","","-46","","NA"
"-125.24","71.99","SACHS HARBOUR A","2503649","2019-01-26 04:00","2019","01","26","04:00","-31.7","","-35.3","","71","","","M","5","","36","","","M","100.24","","","","-49","","NA"
"-125.24","71.99","SACHS HARBOUR A","2503649","2019-01-26 05:00","2019","01","26","05:00","-31.2","","-34.9","","71","","","M","5","","39","","","M","100.24","","","","-49","","NA"
"-125.24","71.99","SACHS HARBOUR A","2503649","2019-01-26 06:00","2019","01","26","06:00","-30.9","","-34.5","","71","","","M","5","","41","","","M","100.25","","","","-49","","NA"
"-125.24","71.99","SACHS HARBOUR A","2503649","2019-01-26 07:00","2019","01","26","07:00","-31.5","","-35.2","","71","","","M","5","","31","","","M","100.29","","","","-48","","NA"
"-125.24","71.99","SACHS HARBOUR A","2503649","2019-01-26 08:00","2019","01","26","08:00","-31.0","","-34.6","","71","","","M","5","","27","","","M","100.31","","","","-46","","NA"
"-125.24","71.99","SACHS HARBOUR A","2503649","2019-01-26 09:00","2019","01","26","09:00","-31.0","","-34.6","","71","","","M","5","","27","","","M","100.34","","","","-46","","NA"
"-125.24","71.99","SACHS HARBOUR A","2503649","2019-01-26 10:00","2019","01","26","10:00","-31.8","","-35.5","","71","","","M","5","","25","","","M","100.38","","","","-47","","NA"
"-125.24","71.99","SACHS HARBOUR A","2503649","2019-01-26 11:00","2019","01","26","11:00","-33.6","","-37.4","","69","","","M","4","","22","","","M","100.44","","","","-48","","NA"
"-125.24","71.99","SACHS HARBOUR A","2503649","2019-01-26 12:00","2019","01","26","12:00","-32.0","","-35.7","","71","","","M","4","","28","","","M","100.48","","","","-48","","NA"
"-125.24","71.99","SACHS HARBOUR A","2503649","2019-01-26 13:00","2019","01","26","13:00","-32.5","","-36.2","","70","","","M","4","","27","","","M","100.54","","","","-48","","NA"
"-125.24","71.99","SACHS HARBOUR A","2503649","2019-01-26 14:00","2019","01","26","14:00","-32.3","","-36.0","","71","","","M","3","","36","","","M","100.54","","","","-50","","NA"
"-125.24","71.99","SACHS HARBOUR A","2503649","2019-01-26 15:00","2019","01","26","15:00","-30.6","","-34.2","","72","","","M","2","","28","","","M","100.65","","","","-46","","NA"
"-125.24","71.99","SACHS HARBOUR A","2503649","2019-01-26 16:00","2019","01","26","16:00","-34.1","","-37.9","","69","","","M","1","","26","","","M","100.75","","","","-50","","NA"
"-125.24","71.99","SACHS HARBOUR A","2503649","2019-01-26 17:00","2019","01","26","17:00","-34.0","","-37.8","","69","","","M","2","","27","","","M","100.83","","","","-50","","NA"
"-125.24","71.99","SACHS HARBOUR A","2503649","2019-01-26 18:00","2019","01","26","18:00","-33.7","","-37.5","","69","","","M","2","","36","","","M","100.88","","","","-52","","NA"
"-125.24","71.99","SACHS HARBOUR A","2503649","2019-01-26 19:00","2019","01","26","19:00","-33.9","","-37.6","","70","","","M","1","","41","","","M","100.98","","","","-53","","NA"
"-125.24","71.99","SACHS HARBOUR A","2503649","2019-01-26 20:00","2019","01","26","20:00","-34.1","","-37.9","","69","","","M","1","","36","","","M","101.09","","","","-52","","NA"
"-125.24","71.99","SACHS HARBOUR A","2503649","2019-01-26 21:00","2019","01","26","21:00","-34.1","","-37.9","","69","","","M","1","","36","","","M","101.19","","","","-52","","NA"
"-125.24","71.99","SACHS HARBOUR A","2503649","2019-01-26 22:00","2019","01","26","22:00","-34.7","","-38.6","","69","","","M","2","","35","","","M","101.28","","","","-53","","NA"
"-125.24","71.99","SACHS HARBOUR A","2503649","2019-01-26 23:00","2019","01","26","23:00","-34.9","","-38.7","","69","","","M","1","","32","","","M","101.43","","","","-52","","NA"
"-125.24","71.99","SACHS HARBOUR A","2503649","2019-01-27 00:00","2019","01","27","00:00","-35.3","","-39.2","","68","","","M","1","","33","","","M","101.51","","","","-53","","NA"
"-125.24","71.99","SACHS HARBOUR A","2503649","2019-01-27 01:00","2019","01","27","01:00","-35.6","","-39.5","","68","","","M","2","","31","","","M","101.63","","","","-53","","NA"
"-125.24","71.99","SACHS HARBOUR A","2503649","2019-01-27 02:00","2019","01","27","02:00","-35.2","","-39.1","","69","","","M","2","","29","","","M","101.80","","","","-52","","NA"
"-125.24","71.99","SACHS HARBOUR A","2503649","2019-01-27 03:00","2019","01","27","03:00","-36.8","","-40.7","","68","","","M","36","","24","","","M","101.92","","","","-53","","NA"
"-125.24","71.99","SACHS HARBOUR A","2503649","2019-01-27 04:00","2019","01","27","04:00","-36.0","","-39.9","","68","","","M","36","","26","","","M","102.03","","","","-52","","NA"
"-125.24","71.99","SACHS HARBOUR A","2503649","2019-01-27 05:00","2019","01","27","05:00","-36.5","","-40.5","","68","","","M","35","","28","","","M","102.14","","","","-54","","NA"
"-125.24","71.99","SACHS HARBOUR A","2503649","2019-01-27 06:00","2019","01","27","06:00","-37.2","","-41.2","","67","","","M","36","","24","","","M","102.26","","","","-53","","NA"
"-125.24","71.99","SACHS HARBOUR A","2503649","2019-01-27 07:00","2019","01","27","07:00","-37.9","","-41.9","","67","","","M","1","","26","","","M","102.30","","","","-55","","NA"
"-125.24","71.99","SACHS HARBOUR A","2503649","2019-01-27 08:00","2019","01","27","08:00","-36.4","","-40.4","","68","","","M","2","","25","","","M","102.39","","","","-53","","NA"
"-125.24","71.99","SACHS HARBOUR A","2503649","2019-01-27 09:00","2019","01","27","09:00","-36.6","","-40.6","","68","","","M","1","","22","","","M","102.50","","","","-52","","NA"
"-125.24","71.99","SACHS HARBOUR A","2503649","2019-01-27 10:00","2019","01","27","10:00","-36.5","","-40.4","","68","","","M","2","","25","","","M","102.56","","","","-53","","NA"
"-125.24","71.99","SACHS HARBOUR A","2503649","2019-01-27 11:00","2019","01","27","11:00","-36.1","","-40.0","","68","","","M","3","","30","","","M","102.61","","","","-54","","NA"
"-125.24","71.99","SACHS HARBOUR A","2503649","2019-01-27 12:00","2019","01","27","12:00","-35.2","","-39.1","","68","","","M","3","","27","","","M","102.67","","","","-52","","NA"
"-125.24","71.99","SACHS HARBOUR A","2503649","2019-01-27 13:00","2019","01","27","13:00","-35.6","","-39.5","","68","","","M","1","","21","","","M","102.79","","","","-50","","NA"
"-125.24","71.99","SACHS HARBOUR A","2503649","2019-01-27 14:00","2019","01","27","14:00","-35.5","","-39.4","","68","","","M","1","","15","","","M","102.86","","","","-48","","NA"
"-125.24","71.99","SACHS HARBOUR A","2503649","2019-01-27 15:00","2019","01","27","15:00","-34.9","","-38.8","","68","","","M","3","","27","","","M","102.88","","","","-51","","NA"
"-125.24","71.99","SACHS HARBOUR A","2503649","2019-01-27 16:00","2019","01","27","16:00","-33.7","","-37.5","","69","","","M","6","","16","","","M","102.96","","","","-46","","NA"
"-125.24","71.99","SACHS HARBOUR A","2503649","2019-01-27 17:00","2019","01","27","17:00","-36.5","","-40.5","","67","","","M","2","","14","","","M","102.98","","","","-49","","NA"
"-125.24","71.99","SACHS HARBOUR A","2503649","2019-01-27 18:00","2019","01","27","18:00","-32.9","","-36.6","","70","","","M","5","","23","","","M","102.94","","","","-48","","NA"
"-125.24","71.99","SACHS HARBOUR A","2503649","2019-01-27 19:00","2019","01","27","19:00","-30.6","","-34.2","","71","","","M","8","","21","","","M","103.02","","","","-44","","NA"
"-125.24","71.99","SACHS HARBOUR A","2503649","2019-01-27 20:00","2019","01","27","20:00","-31.2","","-35.0","","70","","","M","8","","21","","","M","103.02","","","","-45","","NA"
"-125.24","71.99","SACHS HARBOUR A","2503649","2019-01-27 21:00","2019","01","27","21:00","-30.4","","-34.0","","71","","","M","9","","28","","","M","102.97","","","","-46","","NA"
"-125.24","71.99","SACHS HARBOUR A","2503649","2019-01-27 22:00","2019","01","27","22:00","-30.0","","-33.6","","72","","","M","10","","25","","","M","102.95","","","","-44","","NA"
"-125.24","71.99","SACHS HARBOUR A","2503649","2019-01-27 23:00","2019","01","27","23:00","-29.2","","-32.8","","72","","","M","12","","14","","","M","102.97","","","","-40","","NA"
"-125.24","71.99","SACHS HARBOUR A","2503649","2019-01-28 00:00","2019","01","28","00:00","-28.5","","-32.0","","72","","","M","11","","15","","","M","102.94","","","","-40","","NA"
"-125.24","71.99","SACHS HARBOUR A","2503649","2019-01-28 01:00","2019","01","28","01:00","-27.3","","-30.7","","74","","","M","11","","17","","","M","102.93","","","","-39","","NA"
"-125.24","71.99","SACHS HARBOUR A","2503649","2019-01-28 02:00","2019","01","28","02:00","-27.2","","-30.6","","74","","","M","10","","21","","","M","102.87","","","","-40","","NA"
"-125.24","71.99","SACHS HARBOUR A","2503649","2019-01-28 03:00","2019","01","28","03:00","-27.6","","-31.0","","73","","","M","10","","22","","","M","102.87","","","","-41","","NA"
"-125.24","71.99","SACHS HARBOUR A","2503649","2019-01-28 04:00","2019","01","28","04:00","-26.2","","-29.5","","74","","","M","11","","26","","","M","102.77","","","","-40","","NA"
"-125.24","71.99","SACHS HARBOUR A","2503649","2019-01-28 05:00","2019","01","28","05:00","-26.6","","-29.9","","74","","","M","11","","26","","","M","102.79","","","","-40","","NA"
"-125.24","71.99","SACHS HARBOUR A","2503649","2019-01-28 06:00","2019","01","28","06:00","-26.5","","-29.9","","74","","","M","11","","27","","","M","102.74","","","","-40","","NA"
"-125.24","71.99","SACHS HARBOUR A","2503649","2019-01-28 07:00","2019","01","28","07:00","-26.3","","-29.6","","74","","","M","11","","30","","","M","102.63","","","","-41","","NA"
"-125.24","71.99","SACHS HARBOUR A","2503649","2019-01-28 08:00","2019","01","28","08:00","-26.4","","-29.7","","74","","","M","11","","30","","","M","102.56","","","","-41","","NA"
"-125.24","71.99","SACHS HARBOUR A","2503649","2019-01-28 09:00","2019","01","28","09:00","-26.1","","-29.4","","75","","","M","11","","30","","","M","102.54","","","","-41","","NA"
"-125.24","71.99","SACHS HARBOUR A","2503649","2019-01-28 10:00","2019","01","28","10:00","-25.9","","-29.1","","75","","","M","11","","35","","","M","102.47","","","","-41","","NA"
"-125.24","71.99","SACHS HARBOUR A","2503649","2019-01-28 11:00","2019","01","28","11:00","-26.3","","-29.6","","74","","","M","12","","31","","","M","102.42","","","","-41","","NA"
"-125.24","71.99","SACHS HARBOUR A","2503649","2019-01-28 12:00","2019","01","28","12:00","-26.4","","-29.8","","74","","","M","12","","32","","","M","102.37","","","","-41","","NA"
"-125.24","71.99","SACHS HARBOUR A","2503649","2019-01-28 13:00","2019","01","28","13:00","-25.1","","-28.3","","75","","","M","11","","34","","","M","102.31","","","","-40","","NA"
"-125.24","71.99","SACHS HARBOUR A","2503649","2019-01-28 14:00","2019","01","28","14:00","-25.0","","-28.2","","75","","","M","11","","33","","","M","102.23","","","","-40","","NA"
"-125.24","71.99","SACHS HARBOUR A","2503649","2019-01-28 15:00","2019","01","28","15:00","-25.2","","-28.4","","75","","","M","11","","35","","","M","102.16","","","","-40","","NA"
"-125.24","71.99","SACHS HARBOUR A","2503649","2019-01-28 16:00","2019","01","28","16:00","-25.2","","-28.4","","75","","","M","12","","30","","","M","102.13","","","","-39","","NA"
"-125.24","71.99","SACHS HARBOUR A","2503649","2019-01-28 17:00","2019","01","28","17:00","-24.8","","-27.9","","76","","","M","11","","35","","","M","102.05","","","","-40","","NA"
"-125.24","71.99","SACHS HARBOUR A","2503649","2019-01-28 18:00","2019","01","28","18:00","-23.9","","-27.0","","76","","","M","11","","34","","","M","101.99","","","","-38","","NA"
"-125.24","71.99","SACHS HARBOUR A","2503649","2019-01-28 19:00","2019","01","28","19:00","-23.9","","-27.0","","76","","","M","11","","37","","","M","101.92","","","","-39","","NA"
"-125.24","71.99","SACHS HARBOUR A","2503649","2019-01-28 20:00","2019","01","28","20:00","-24.0","","-27.2","","76","","","M","12","","36","","","M","101.88","","","","-39","","NA"
"-125.24","71.99","SACHS HARBOUR A","2503649","2019-01-28 21:00","2019","01","28","21:00","-24.5","","-27.8","","75","","","M","11","","34","","","M","101.85","","","","-39","","NA"
"-125.24","71.99","SACHS HARBOUR A","2503649","2019-01-28 22:00","2019","01","28","22:00","-24.3","","-27.9","","73","","","M","11","","32","","","M","101.82","","","","-39","","NA"
"-125.24","71.99","SACHS HARBOUR A","2503649","2019-01-28 23:00","2019","01","28","23:00","-24.0","","-28.3","","68","","","M","11","","29","","","M","101.82","","","","-38","","NA"
"-125.24","71.99","SACHS HARBOUR A","2503649","2019-01-29 00:00","2019","01","29","00:00","-24.2","","-29.0","","66","","","M","11","","33","","","M","101.78","","","","-39","","NA"
"-125.24","71.99","SACHS HARBOUR A","2503649","2019-01-29 01:00","2019","01","29","01:00","-24.4","","-29.7","","62","","","M","11","","32","","","M","101.75","","","","-39","","NA"
"-125.24","71.99","SACHS HARBOUR A","2503649","2019-01-29 02:00","2019","01","29","02:00","-24.9","","-30.4","","61","","","M","12","","36","","","M","101.73","","","","-40","","NA"
"-125.24","71.99","SACHS HARBOUR A","2503649","2019-01-29 03:00","2019","01","29","03:00","-25.0","","-30.7","","60","","","M","12","","30","","","M","101.74","","","","-39","","NA"
"-125.24","71.99","SACHS HARBOUR A","2503649","2019-01-29 04:00","2019","01","29","04:00","-24.9","","-30.6","","60","","","M","12","","32","","","M","101.72","","","","-39","","NA"
"-125.24","71.99","SACHS HARBOUR A","2503649","2019-01-29 05:00","2019","01","29","05:00","-24.6","","-30.8","","58","","","M","12","","32","","","M","101.68","","","","-39","","NA"
"-125.24","71.99","SACHS HARBOUR A","2503649","2019-01-29 06:00","2019","01","29","06:00","-23.8","","-30.5","","55","","","M","12","","35","","","M","101.61","","","","-38","","NA"
"-125.24","71.99","SACHS HARBOUR A","2503649","2019-01-29 07:00","2019","01","29","07:00","-24.1","","-30.4","","57","","","M","11","","30","","","M","101.59","","","","-38","","NA"
"-125.24","71.99","SACHS HARBOUR A","2503649","2019-01-29 08:00","2019","01","29","08:00","-24.4","","-30.6","","58","","","M","12","","32","","","M","101.57","","","","-39","","NA"
"-125.24","71.99","SACHS HARBOUR A","2503649","2019-01-29 09:00","2019","01","29","09:00","-23.3","","-30.0","","55","","","M","11","","36","","","M","101.55","","","","-38","","NA"
"-125.24","71.99","SACHS HARBOUR A","2503649","2019-01-29 10:00","2019","01","29","10:00","-23.6","","-30.2","","56","","","M","11","","33","","","M","101.53","","","","-38","","NA"
"-125.24","71.99","SACHS HARBOUR A","2503649","2019-01-29 11:00","2019","01","29","11:00","-23.3","","-30.1","","55","","","M","11","","41","","","M","101.45","","","","-39","","NA"
"-125.24","71.99","SACHS HARBOUR A","2503649","2019-01-29 12:00","2019","01","29","12:00","-23.1","","-30.1","","54","","","M","11","","37","","","M","101.42","","","","-38","","NA"
"-125.24","71.99","SACHS HARBOUR A","2503649","2019-01-29 13:00","2019","01","29","13:00","-23.8","","-30.2","","56","","","M","11","","34","","","M","101.39","","","","-38","","NA"
"-125.24","71.99","SACHS HARBOUR A","2503649","2019-01-29 14:00","2019","01","29","14:00","-24.4","","-30.3","","59","","","M","11","","35","","","M","101.36","","","","-39","","NA"
"-125.24","71.99","SACHS HARBOUR A","2503649","2019-01-29 15:00","2019","01","29","15:00","-24.6","","-30.4","","59","","","M","11","","35","","","M","101.30","","","","-39","","NA"
"-125.24","71.99","SACHS HARBOUR A","2503649","2019-01-29 16:00","2019","01","29","16:00","-24.2","","-30.4","","57","","","M","11","","34","","","M","101.25","","","","-39","","NA"
"-125.24","71.99","SACHS HARBOUR A","2503649","2019-01-29 17:00","2019","01","29","17:00","-23.7","","-30.4","","55","","","M","11","","35","","","M","101.18","","","","-38","","NA"
"-125.24","71.99","SACHS HARBOUR A","2503649","2019-01-29 18:00","2019","01","29","18:00","-23.4","","-30.1","","55","","","M","11","","39","","","M","101.12","","","","-39","","NA"
"-125.24","71.99","SACHS HARBOUR A","2503649","2019-01-29 19:00","2019","01","29","19:00","-23.3","","-29.8","","56","","","M","11","","37","","","M","101.06","","","","-38","","NA"
"-125.24","71.99","SACHS HARBOUR A","2503649","2019-01-29 20:00","2019","01","29","20:00","-23.7","","-29.9","","58","","","M","12","","37","","","M","101.02","","","","-39","","NA"
"-125.24","71.99","SACHS HARBOUR A","2503649","2019-01-29 21:00","2019","01","29","21:00","-24.2","","-29.9","","60","","","M","12","","34","","","M","100.97","","","","-39","","NA"
"-125.24","71.99","SACHS HARBOUR A","2503649","2019-01-29 22:00","2019","01","29","22:00","-24.0","","-29.4","","62","","","M","11","","31","","","M","100.92","","","","-38","","NA"
"-125.24","71.99","SACHS HARBOUR A","2503649","2019-01-29 23:00","2019","01","29","23:00","-24.0","","-29.6","","61","","","M","11","","37","","","M","100.87","","","","-39","","NA"
"-125.24","71.99","SACHS HARBOUR A","2503649","2019-01-30 00:00","2019","01","30","00:00","-23.6","","-29.2","","61","","","M","11","","38","","","M","100.80","","","","-39","","NA"
"-125.24","71.99","SACHS HARBOUR A","2503649","2019-01-30 01:00","2019","01","30","01:00","-23.4","","-28.9","","61","","","M","12","","32","","","M","100.78","","","","-37","","NA"
"-125.24","71.99","SACHS HARBOUR A","2503649","2019-01-30 02:00","2019","01","30","02:00","-23.5","","-28.8","","62","","","M","12","","34","","","M","100.77","","","","-38","","NA"
"-125.24","71.99","SACHS HARBOUR A","2503649","2019-01-30 03:00","2019","01","30","03:00","-23.7","","-29.1","","62","","","M","12","","32","","","M","100.78","","","","-38","","NA"
"-125.24","71.99","SACHS HARBOUR A","2503649","2019-01-30 04:00","2019","01","30","04:00","-23.5","","-29.1","","61","","","M","11","","36","","","M","100.76","","","","-38","","NA"
"-125.24","71.99","SACHS HARBOUR A","2503649","2019-01-30 05:00","2019","01","30","05:00","-23.6","","-29.5","","59","","","M","11","","37","","","M","100.73","","","","-38","","NA"
"-125.24","71.99","SACHS HARBOUR A","2503649","2019-01-30 06:00","2019","01","30","06:00","-23.7","","-29.0","","62","","","M","11","","36","","","M","100.70","","","","-38","","NA"
"-125.24","71.99","SACHS HARBOUR A","2503649","2019-01-30 07:00","2019","01","30","07:00","-22.9","","-28.8","","59","","","M","10","","31","","","M","100.67","","","","-37","","NA"
"-125.24","71.99","SACHS HARBOUR A","2503649","2019-01-30 08:00","2019","01","30","08:00","-22.9","","-29.1","","58","","","M","11","","28","","","M","100.64","","","","-36","","NA"
"-125.24","71.99","SACHS HARBOUR A","2503649","2019-01-30 09:00","2019","01","30","09:00","-22.8","","-29.3","","56","","","M","11","","30","","","M","100.63","","","","-36","","NA"
"-125.24","71.99","SACHS HARBOUR A","2503649","2019-01-30 10:00","2019","01","30","10:00","-22.7","","-29.4","","55","","","M","12","","28","","","M","100.62","","","","-36","","NA"
"-125.24","71.99","SACHS HARBOUR A","2503649","2019-01-30 11:00","2019","01","30","11:00","-22.6","","-29.1","","56","","","M","11","","32","","","M","100.65","","","","-36","","NA"
"-125.24","71.99","SACHS HARBOUR A","2503649","2019-01-30 12:00","2019","01","30","12:00","-23.3","","-29.2","","59","","","M","11","","33","","","M","100.65","","","","-37","","NA"
"-125.24","71.99","SACHS HARBOUR A","2503649","2019-01-30 13:00","2019","01","30","13:00","-23.2","","-29.4","","58","","","M","11","","32","","","M","100.65","","","","-37","","NA"
"-125.24","71.99","SACHS HARBOUR A","2503649","2019-01-30 14:00","2019","01","30","14:00","-22.9","","-29.5","","56","","","M","10","","30","","","M","100.69","","","","-36","","NA"
"-125.24","71.99","SACHS HARBOUR A","2503649","2019-01-30 15:00","2019","01","30","15:00","-22.6","","-29.7","","53","","","M","11","","29","","","M","100.73","","","","-36","","NA"
"-125.24","71.99","SACHS HARBOUR A","2503649","2019-01-30 16:00","2019","01","30","16:00","-22.3","","-29.7","","52","","","M","11","","27","","","M","100.74","","","","-35","","NA"
"-125.24","71.99","SACHS HARBOUR A","2503649","2019-01-30 17:00","2019","01","30","17:00","-22.3","","-29.6","","52","","","M","11","","26","","","M","100.76","","","","-35","","NA"
"-125.24","71.99","SACHS HARBOUR A","2503649","2019-01-30 18:00","2019","01","30","18:00","-23.0","","-29.9","","54","","","M","11","","23","","","M","100.80","","","","-35","","NA"
"-125.24","71.99","SACHS HARBOUR A","2503649","2019-01-30 19:00","2019","01","30","19:00","-23.1","","-30.0","","54","","","M","11","","23","","","M","100.80","","","","-35","","NA"
"-125.24","71.99","SACHS HARBOUR A","2503649","2019-01-30 20:00","2019","01","30","20:00","-24.0","","-30.3","","57","","","M","11","","22","","","M","100.83","","","","-36","","NA"
"-125.24","71.99","SACHS HARBOUR A","2503649","2019-01-30 21:00","2019","01","30","21:00","-23.8","","-30.0","","57","","","M","11","","22","","","M","100.87","","","","-36","","NA"
"-125.24","71.99","SACHS HARBOUR A","2503649","2019-01-30 22:00","2019","01","30","22:00","-24.8","","-30.0","","62","","","M","11","","25","","","M","100.90","","","","-38","","NA"
"-125.24","71.99","SACHS HARBOUR A","2503649","2019-01-30 23:00","2019","01","30","23:00","-24.4","","-29.9","","61","","","M","11","","23","","","M","100.92","","","","-37","","NA"
"-125.24","71.99","SACHS HARBOUR A","2503649","2019-01-31 00:00","2019","01","31","00:00","-24.3","","-29.6","","62","","","M","11","","18","","","M","100.96","","","","-35","","NA"
"-125.24","71.99","SACHS HARBOUR A","2503649","2019-01-31 01:00","2019","01","31","01:00","-24.3","","-29.6","","62","","","M","12","","14","","","M","101.00","","","","-34","","NA"
"-125.24","71.99","SACHS HARBOUR A","2503649","2019-01-31 02:00","2019","01","31","02:00","-24.3","","-29.4","","63","","","M","12","","12","","","M","101.03","","","","-33","","NA"
"-125.24","71.99","SACHS HARBOUR A","2503649","2019-01-31 03:00","2019","01","31","03:00","-23.7","","-28.5","","65","","","M","12","","5","","","M","101.08","","","","-28","","NA"
"-125.24","71.99","SACHS HARBOUR A","2503649","2019-01-31 04:00","2019","01","31","04:00","-24.4","","-28.5","","69","","","M","5","","8","","","M","101.12","","","","-31","","NA"
"-125.24","71.99","SACHS HARBOUR A","2503649","2019-01-31 05:00","2019","01","31","05:00","-27.3","","-31.1","","71","","","M","5","","16","","","M","101.15","","","","-38","","NA"
"-125.24","71.99","SACHS HARBOUR A","2503649","2019-01-31 06:00","2019","01","31","06:00","-27.4","","-31.2","","71","","","M","6","","20","","","M","101.19","","","","-40","","NA"
"-125.24","71.99","SACHS HARBOUR A","2503649","2019-01-31 07:00","2019","01","31","07:00","-27.6","","-31.6","","70","","","M","6","","26","","","M","101.24","","","","-42","","NA"
"-125.24","71.99","SACHS HARBOUR A","2503649","2019-01-31 08:00","2019","01","31","08:00","-31.5","","-35.1","","71","","","M","3","","17","","","M","101.28","","","","-44","","NA"
"-125.24","71.99","SACHS HARBOUR A","2503649","2019-01-31 09:00","2019","01","31","09:00","-32.1","","-35.5","","72","","","M","5","","16","","","M","101.35","","","","-44","","NA"
"-125.24","71.99","SACHS HARBOUR A","2503649","2019-01-31 10:00","2019","01","31","10:00","-27.6","","-30.9","","75","","","M","11","","8","","","M","101.39","","","","-35","","NA"
"-125.24","71.99","SACHS HARBOUR A","2503649","2019-01-31 11:00","2019","01","31","11:00","-25.3","","-28.8","","73","","","M","10","","7","","","M","101.44","","","","-32","","NA"
"-125.24","71.99","SACHS HARBOUR A","2503649","2019-01-31 12:00","2019","01","31","12:00","-25.0","","-28.3","","75","","","M","11","","10","","","M","101.49","","","","-33","","NA"
"-125.24","71.99","SACHS HARBOUR A","2503649","2019-01-31 13:00","2019","01","31","13:00","-24.2","","-27.1","","77","","","M","10","","7","","","M","101.56","","","","-31","","NA"
"-125.24","71.99","SACHS HARBOUR A","2503649","2019-01-31 14:00","2019","01","31","14:00","-24.2","","-26.9","","79","","","M","11","","9","","","M","101.64","","","","-32","","NA"
"-125.24","71.99","SACHS HARBOUR A","2503649","2019-01-31 15:00","2019","01","31","15:00","-24.9","","-27.8","","77","","","M","11","","7","","","M","101.69","","","","-31","","NA"
"-125.24","71.99","SACHS HARBOUR A","2503649","2019-01-31 16:00","2019","01","31","16:00","-23.9","","-26.7","","78","","","M","8","","5","","","M","101.76","","","","-29","","NA"
"-125.24","71.99","SACHS HARBOUR A","2503649","2019-01-31 17:00","2019","01","31","17:00","-24.1","","-27.1","","77","","","M","10","","3","","","M","101.80","","","","-27","","NA"
"-125.24","71.99","SACHS HARBOUR A","2503649","2019-01-31 18:00","2019","01","31","18:00","-23.3","","-26.3","","77","","","M","10","","6","","","M","101.84","","","","-29","","NA"
"-125.24","71.99","SACHS HARBOUR A","2503649","2019-01-31 19:00","2019","01","31","19:00","-24.1","","-27.3","","75","","","M","12","","6","","","M","101.88","","","","-30","","NA"
"-125.24","71.99","SACHS HARBOUR A","2503649","2019-01-31 20:00","2019","01","31","20:00","-24.8","","-28.2","","73","","","M","11","","3","","","M","101.94","","","","-28","","NA"
"-125.24","71.99","SACHS HARBOUR A","2503649","2019-01-31 21:00","2019","01","31","21:00","-25.5","","-28.9","","74","","","M","8","","11","","","M","101.99","","","","-34","","NA"
"-125.24","71.99","SACHS HARBOUR A","2503649","2019-01-31 22:00","2019","01","31","22:00","-26.0","","-29.3","","75","","","M","10","","10","","","M","102.05","","","","-34","","NA"
"-125.24","71.99","SACHS HARBOUR A","2503649","2019-01-31 23:00","2019","01","31","23:00","-26.3","","-29.6","","74","","","M","6","","13","","","M","102.11","","","","-36","","NA"
