"Longitude (x)","Latitude (y)","Station Name","Climate ID","Date/Time (LST)","Year","Month","Day","Time (LST)","Temp (°C)","Temp Flag","Dew Point Temp (°C)","Dew Point Temp Flag","Rel Hum (%)","Rel Hum Flag","Precip. Amount (mm)","Precip. Amount Flag","Wind Dir (10s deg)","Wind Dir Flag","Wind Spd (km/h)","Wind Spd Flag","Visibility (km)","Visibility Flag","Stn Press (kPa)","Stn Press Flag","Hmdx","Hmdx Flag","Wind Chill","Wind Chill Flag","Weather"
"-94.07","58.74","CHURCHILL A","5060605","2018-01-01 00:00","2018","01","01","00:00","-19.7","","-24.2","","68","","","","28","","30","","24.1","","101.78","","","","-32","","Mainly Clear"
"-94.07","58.74","CHURCHILL A","5060605","2018-01-01 01:00","2018","01","01","01:00","-19.9","","-24.4","","68","","","","28","","27","","24.1","","101.70","","","","-32","","NA"
"-94.07","58.74","CHURCHILL A","5060605","2018-01-01 02:00","2018","01","01","02:00","-19.1","","-23.7","","68","","","","27","","31","","24.1","","101.62","","","","-32","","NA"
"-94.07","58.74","CHURCHILL A","5060605","2018-01-01 03:00","2018","01","01","03:00","-18.2","","-22.9","","67","","","","28","","29","","24.1","","101.56","","","","-30","","Mostly Cloudy"
"-94.07","58.74","CHURCHILL A","5060605","2018-01-01 04:00","2018","01","01","04:00","-18.2","","-22.6","","69","","","","28","","27","","24.1","","101.51","","","","-30","","NA"
"-94.07","58.74","CHURCHILL A","5060605","2018-01-01 05:00","2018","01","01","05:00","-17.9","","-22.3","","69","","","","28","","28","","24.1","","101.42","","","","-29","","NA"
"-94.07","58.74","CHURCHILL A","5060605","2018-01-01 06:00","2018","01","01","06:00","-17.6","","-22.2","","68","","","","28","","30","","24.1","","101.34","","","","-29","","Cloudy"
"-94.07","58.74","CHURCHILL A","5060605","2018-01-01 07:00","2018","01","01","07:00","-17.5","","-22.0","","68","","","","29","","25","","24.1","","101.24","","","","-28","","NA"
"-94.07","58.74","CHURCHILL A","5060605","2018-01-01 08:00","2018","01","01","08:00","-17.2","","-22.0","","67","","","","29","","25","","24.1","","101.14","","","","-28","","NA"
"-94.07","58.74","CHURCHILL A","5060605","2018-01-01 09:00","2018","01","01","09:00","-17.1","","-21.5","","69","","","","29","","27","","24.1","","101.05","","","","-28","","Cloudy"
"-94.07","58.74","CHURCHILL A","5060605","2018-01-01 10:00","2018","01","01","10:00","-17.3","","-21.5","","70","","","","30","","32","","24.1","","101.00","","","","-29","","NA"
"-94.07","58.74","CHURCHILL A","5060605","2018-01-01 11:00","2018","01","01","11:00","-17.4","","-21.6","","70","","","","31","","37","","24.1","","100.95","","","","-30","","Snow,Blowing Snow"
"-94.07","58.74","CHURCHILL A","5060605","2018-01-01 12:00","2018","01","01","12:00","-17.9","","-21.2","","76","","","","31","","42","","12.9","","100.90","","","","-32","","Snow,Blowing Snow"
"-94.07","58.74","CHURCHILL A","5060605","2018-01-01 13:00","2018","01","01","13:00","-18.9","","-22.8","","72","","","","32","","42","","9.7","","100.87","","","","-33","","Blowing Snow"
"-94.07","58.74","CHURCHILL A","5060605","2018-01-01 14:00","2018","01","01","14:00","-19.7","","-23.2","","74","","","","32","","41","","9.7","","100.90","","","","-34","","Ice Crystals,Blowing Snow"
"-94.07","58.74","CHURCHILL A","5060605","2018-01-01 15:00","2018","01","01","15:00","-20.3","","-22.9","","80","","","","31","","32","","1.6","","100.95","","","","-33","","Ice Crystals,Blowing Snow"
"-94.07","58.74","CHURCHILL A","5060605","2018-01-01 16:00","2018","01","01","16:00","-21.1","","-23.7","","80","","","","31","","34","","2.4","","101.01","","","","-35","","Ice Crystals,Blowing Snow"
"-94.07","58.74","CHURCHILL A","5060605","2018-01-01 17:00","2018","01","01","17:00","-21.7","","-24.4","","79","","","","31","","31","","4.8","","101.05","","","","-35","","Ice Crystals,Blowing Snow"
"-94.07","58.74","CHURCHILL A","5060605","2018-01-01 18:00","2018","01","01","18:00","-21.1","","-23.6","","80","","","","31","","33","","4.0","","101.08","","","","-35","","Ice Crystals,Blowing Snow"
"-94.07","58.74","CHURCHILL A","5060605","2018-01-01 19:00","2018","01","01","19:00","-20.7","","-23.0","","82","","","","32","","31","","2.4","","101.09","","","","-34","","Snow,Blowing Snow"
"-94.07","58.74","CHURCHILL A","5060605","2018-01-01 20:00","2018","01","01","20:00","-20.2","","-22.4","","83","","","","32","","30","","2.0","","101.07","","","","-33","","Snow,Blowing Snow"
"-94.07","58.74","CHURCHILL A","5060605","2018-01-01 21:00","2018","01","01","21:00","-20.7","","-23.3","","80","","","","34","","31","","2.4","","101.08","","","","-34","","Snow,Blowing Snow"
"-94.07","58.74","CHURCHILL A","5060605","2018-01-01 22:00","2018","01","01","22:00","-22.3","","-24.7","","82","","","","32","","21","","9.7","","101.10","","","","-34","","Ice Crystals,Blowing Snow"
"-94.07","58.74","CHURCHILL A","5060605","2018-01-01 23:00","2018","01","01","23:00","-21.1","","-23.8","","79","","","","34","","24","","3.2","","101.12","","","","-33","","Ice Crystals,Blowing Snow"
"-94.07","58.74","CHURCHILL A","5060605","2018-01-02 00:00","2018","01","02","00:00","-21.0","","-24.5","","74","","","","35","","27","","3.2","","101.13","","","","-33","","Ice Crystals,Blowing Snow"
"-94.07","58.74","CHURCHILL A","5060605","2018-01-02 01:00","2018","01","02","01:00","-21.5","","-25.0","","74","","","","36","","24","","8.1","","101.17","","","","-33","","Ice Crystals,Blowing Snow"
"-94.07","58.74","CHURCHILL A","5060605","2018-01-02 02:00","2018","01","02","02:00","-22.2","","-25.4","","76","","","","2","","19","","16.1","","101.22","","","","-33","","Ice Crystals"
"-94.07","58.74","CHURCHILL A","5060605","2018-01-02 03:00","2018","01","02","03:00","-22.8","","-25.2","","81","","","","3","","11","","6.4","","101.29","","","","-31","","Ice Crystals"
"-94.07","58.74","CHURCHILL A","5060605","2018-01-02 04:00","2018","01","02","04:00","-22.0","","-24.9","","78","","","","3","","19","","12.9","","101.35","","","","-33","","Ice Crystals"
"-94.07","58.74","CHURCHILL A","5060605","2018-01-02 05:00","2018","01","02","05:00","-22.1","","-25.0","","78","","","","3","","15","","11.3","","101.39","","","","-32","","Ice Crystals"
"-94.07","58.74","CHURCHILL A","5060605","2018-01-02 06:00","2018","01","02","06:00","-22.1","","-25.0","","78","","","","3","","14","","11.3","","101.44","","","","-31","","Ice Crystals"
"-94.07","58.74","CHURCHILL A","5060605","2018-01-02 07:00","2018","01","02","07:00","-22.0","","-24.7","","79","","","","2","","10","","6.4","","101.53","","","","-30","","Ice Crystals"
"-94.07","58.74","CHURCHILL A","5060605","2018-01-02 08:00","2018","01","02","08:00","-22.4","","-25.1","","79","","","","5","","12","","6.4","","101.56","","","","-31","","Snow"
"-94.07","58.74","CHURCHILL A","5060605","2018-01-02 09:00","2018","01","02","09:00","-22.7","","-25.4","","79","","","","35","","10","","6.4","","101.65","","","","-30","","Snow"
"-94.07","58.74","CHURCHILL A","5060605","2018-01-02 10:00","2018","01","02","10:00","-23.5","","-26.0","","80","","","","33","","27","","1.2","","101.70","","","","-37","","Snow,Blowing Snow"
"-94.07","58.74","CHURCHILL A","5060605","2018-01-02 11:00","2018","01","02","11:00","-24.5","","-27.0","","80","","","","33","","22","","1.6","","101.75","","","","-37","","Ice Crystals,Blowing Snow"
"-94.07","58.74","CHURCHILL A","5060605","2018-01-02 12:00","2018","01","02","12:00","-24.9","","-27.6","","79","","","","33","","25","","1.6","","101.83","","","","-38","","Ice Crystals,Blowing Snow"
"-94.07","58.74","CHURCHILL A","5060605","2018-01-02 13:00","2018","01","02","13:00","-24.9","","-27.4","","80","","","","33","","26","","2.4","","101.87","","","","-38","","Ice Crystals,Blowing Snow"
"-94.07","58.74","CHURCHILL A","5060605","2018-01-02 14:00","2018","01","02","14:00","-25.8","","-28.4","","79","","","","33","","26","","2.4","","101.91","","","","-39","","Ice Crystals,Blowing Snow"
"-94.07","58.74","CHURCHILL A","5060605","2018-01-02 15:00","2018","01","02","15:00","-26.6","","-29.4","","78","","","","33","","27","","4.8","","102.02","","","","-41","","Ice Crystals,Blowing Snow"
"-94.07","58.74","CHURCHILL A","5060605","2018-01-02 16:00","2018","01","02","16:00","-28.2","","-31.2","","76","","","","32","","25","","16.1","","102.11","","","","-42","","Ice Crystals,Blowing Snow"
"-94.07","58.74","CHURCHILL A","5060605","2018-01-02 17:00","2018","01","02","17:00","-28.9","","-32.0","","75","","","","31","","24","","24.1","","102.18","","","","-43","","Ice Crystals,Blowing Snow"
"-94.07","58.74","CHURCHILL A","5060605","2018-01-02 18:00","2018","01","02","18:00","-28.7","","-31.8","","75","","","","31","","23","","24.1","","102.21","","","","-42","","Ice Crystals"
"-94.07","58.74","CHURCHILL A","5060605","2018-01-02 19:00","2018","01","02","19:00","-28.9","","-32.0","","75","","","","31","","16","","24.1","","102.22","","","","-40","","Ice Crystals"
"-94.07","58.74","CHURCHILL A","5060605","2018-01-02 20:00","2018","01","02","20:00","-29.0","","-32.1","","75","","","","31","","21","","24.1","","102.23","","","","-42","","Ice Crystals"
"-94.07","58.74","CHURCHILL A","5060605","2018-01-02 21:00","2018","01","02","21:00","-28.9","","-32.0","","75","","","","32","","18","","24.1","","102.17","","","","-41","","Ice Crystals"
"-94.07","58.74","CHURCHILL A","5060605","2018-01-02 22:00","2018","01","02","22:00","-27.6","","-30.5","","77","","","","33","","22","","24.1","","102.18","","","","-41","","Ice Crystals"
"-94.07","58.74","CHURCHILL A","5060605","2018-01-02 23:00","2018","01","02","23:00","-27.9","","-30.9","","76","","","","31","","24","","12.9","","102.27","","","","-42","","Snow,Ice Crystals"
"-94.07","58.74","CHURCHILL A","5060605","2018-01-03 00:00","2018","01","03","00:00","-28.3","","-31.3","","76","","","","31","","22","","3.2","","102.26","","","","-42","","Ice Crystals,Blowing Snow"
"-94.07","58.74","CHURCHILL A","5060605","2018-01-03 01:00","2018","01","03","01:00","-27.3","","-30.3","","76","","","","34","","31","","2.4","","102.25","","","","-42","","Snow,Blowing Snow"
"-94.07","58.74","CHURCHILL A","5060605","2018-01-03 02:00","2018","01","03","02:00","-27.8","","-31.0","","75","","","","34","","25","","4.8","","102.31","","","","-42","","Ice Crystals,Blowing Snow"
"-94.07","58.74","CHURCHILL A","5060605","2018-01-03 03:00","2018","01","03","03:00","-27.9","","-31.1","","75","","","","33","","30","","14.5","","102.35","","","","-43","","Ice Crystals,Blowing Snow"
"-94.07","58.74","CHURCHILL A","5060605","2018-01-03 04:00","2018","01","03","04:00","-28.3","","-31.6","","74","","","","33","","31","","12.9","","102.39","","","","-44","","Snow,Blowing Snow"
"-94.07","58.74","CHURCHILL A","5060605","2018-01-03 05:00","2018","01","03","05:00","-28.5","","-31.9","","73","","","","33","","29","","14.5","","102.42","","","","-43","","Ice Crystals,Blowing Snow"
"-94.07","58.74","CHURCHILL A","5060605","2018-01-03 06:00","2018","01","03","06:00","-28.6","","-31.9","","74","","","","34","","28","","14.5","","102.41","","","","-43","","Ice Crystals,Blowing Snow"
"-94.07","58.74","CHURCHILL A","5060605","2018-01-03 07:00","2018","01","03","07:00","-28.6","","-31.7","","75","","","","33","","26","","16.1","","102.46","","","","-43","","Ice Crystals"
"-94.07","58.74","CHURCHILL A","5060605","2018-01-03 08:00","2018","01","03","08:00","-28.5","","-31.5","","76","","","","33","","22","","16.1","","102.46","","","","-42","","Ice Crystals"
"-94.07","58.74","CHURCHILL A","5060605","2018-01-03 09:00","2018","01","03","09:00","-28.0","","-30.9","","77","","","","33","","18","","16.1","","102.48","","","","-40","","Ice Crystals,Blowing Snow"
"-94.07","58.74","CHURCHILL A","5060605","2018-01-03 10:00","2018","01","03","10:00","-28.1","","-31.0","","77","","","","33","","21","","16.1","","102.53","","","","-41","","Ice Crystals,Blowing Snow"
"-94.07","58.74","CHURCHILL A","5060605","2018-01-03 11:00","2018","01","03","11:00","-27.7","","-30.6","","77","","","","32","","25","","6.4","","102.56","","","","-42","","Ice Crystals,Blowing Snow"
"-94.07","58.74","CHURCHILL A","5060605","2018-01-03 12:00","2018","01","03","12:00","-29.2","","-32.3","","75","","","","31","","19","","6.4","","102.62","","","","-42","","Ice Crystals,Blowing Snow"
"-94.07","58.74","CHURCHILL A","5060605","2018-01-03 13:00","2018","01","03","13:00","-27.2","","-30.1","","77","","","","33","","26","","3.2","","102.58","","","","-41","","Ice Crystals,Blowing Snow"
"-94.07","58.74","CHURCHILL A","5060605","2018-01-03 14:00","2018","01","03","14:00","-27.1","","-29.9","","78","","","","33","","16","","4.0","","102.61","","","","-38","","Ice Crystals,Blowing Snow"
"-94.07","58.74","CHURCHILL A","5060605","2018-01-03 15:00","2018","01","03","15:00","-28.8","","-31.9","","75","","","","31","","17","","4.8","","102.65","","","","-41","","Ice Crystals"
"-94.07","58.74","CHURCHILL A","5060605","2018-01-03 16:00","2018","01","03","16:00","-29.3","","-32.4","","75","","","","30","","22","","16.1","","102.73","","","","-43","","Ice Crystals"
"-94.07","58.74","CHURCHILL A","5060605","2018-01-03 17:00","2018","01","03","17:00","-29.4","","-32.7","","74","","","","30","","18","","24.1","","102.77","","","","-42","","Ice Crystals"
"-94.07","58.74","CHURCHILL A","5060605","2018-01-03 18:00","2018","01","03","18:00","-30.1","","-33.3","","74","","","","30","","20","","24.1","","102.77","","","","-43","","Ice Crystals"
"-94.07","58.74","CHURCHILL A","5060605","2018-01-03 19:00","2018","01","03","19:00","-30.0","","-33.2","","74","","","","31","","17","","24.1","","102.81","","","","-42","","Ice Crystals"
"-94.07","58.74","CHURCHILL A","5060605","2018-01-03 20:00","2018","01","03","20:00","-30.4","","-33.6","","74","","","","30","","13","","24.1","","102.76","","","","-41","","Ice Crystals"
"-94.07","58.74","CHURCHILL A","5060605","2018-01-03 21:00","2018","01","03","21:00","-31.1","","-34.5","","73","","","","30","","15","","24.1","","102.77","","","","-43","","Ice Crystals"
"-94.07","58.74","CHURCHILL A","5060605","2018-01-03 22:00","2018","01","03","22:00","-31.3","","-34.6","","73","","","","29","","11","","24.1","","102.80","","","","-41","","Ice Crystals"
"-94.07","58.74","CHURCHILL A","5060605","2018-01-03 23:00","2018","01","03","23:00","-31.3","","-34.5","","74","","","","29","","13","","24.1","","102.84","","","","-42","","Ice Crystals"
"-94.07","58.74","CHURCHILL A","5060605","2018-01-04 00:00","2018","01","04","00:00","-31.7","","-35.0","","73","","","","28","","12","","24.1","","102.86","","","","-42","","Ice Crystals"
"-94.07","58.74","CHURCHILL A","5060605","2018-01-04 01:00","2018","01","04","01:00","-31.8","","-35.1","","73","","","","29","","16","","24.1","","102.88","","","","-44","","Ice Crystals"
"-94.07","58.74","CHURCHILL A","5060605","2018-01-04 02:00","2018","01","04","02:00","-31.6","","-35.0","","73","","","","29","","17","","24.1","","102.90","","","","-44","","Ice Crystals"
"-94.07","58.74","CHURCHILL A","5060605","2018-01-04 03:00","2018","01","04","03:00","-31.1","","-34.5","","73","","","","29","","12","","24.1","","102.96","","","","-41","","Ice Crystals"
"-94.07","58.74","CHURCHILL A","5060605","2018-01-04 04:00","2018","01","04","04:00","-30.8","","-34.1","","73","","","","28","","17","","16.1","","103.01","","","","-43","","Ice Crystals"
"-94.07","58.74","CHURCHILL A","5060605","2018-01-04 05:00","2018","01","04","05:00","-31.3","","-34.6","","73","","","","29","","19","","24.1","","103.01","","","","-44","","Ice Crystals"
"-94.07","58.74","CHURCHILL A","5060605","2018-01-04 06:00","2018","01","04","06:00","-31.3","","-34.6","","73","","","","29","","12","","24.1","","103.06","","","","-42","","Ice Crystals"
"-94.07","58.74","CHURCHILL A","5060605","2018-01-04 07:00","2018","01","04","07:00","-30.8","","-34.2","","73","","","","30","","17","","24.1","","103.04","","","","-43","","Ice Crystals"
"-94.07","58.74","CHURCHILL A","5060605","2018-01-04 08:00","2018","01","04","08:00","-31.0","","-34.4","","73","","","","29","","11","","24.1","","103.05","","","","-41","","Ice Crystals"
"-94.07","58.74","CHURCHILL A","5060605","2018-01-04 09:00","2018","01","04","09:00","-30.5","","-33.9","","73","","","","29","","14","","24.1","","103.10","","","","-42","","Ice Crystals"
"-94.07","58.74","CHURCHILL A","5060605","2018-01-04 10:00","2018","01","04","10:00","-30.4","","-33.6","","74","","","","29","","16","","24.1","","103.18","","","","-42","","Ice Crystals"
"-94.07","58.74","CHURCHILL A","5060605","2018-01-04 11:00","2018","01","04","11:00","-29.9","","-33.1","","74","","","","28","","13","","24.1","","103.21","","","","-40","","Ice Crystals"
"-94.07","58.74","CHURCHILL A","5060605","2018-01-04 12:00","2018","01","04","12:00","-28.2","","-31.2","","76","","","","30","","16","","16.1","","103.21","","","","-40","","Ice Crystals"
"-94.07","58.74","CHURCHILL A","5060605","2018-01-04 13:00","2018","01","04","13:00","-28.0","","-31.0","","76","","","","29","","18","","3.2","","103.23","","","","-40","","Ice Crystals,Blowing Snow"
"-94.07","58.74","CHURCHILL A","5060605","2018-01-04 14:00","2018","01","04","14:00","-27.9","","-30.9","","76","","","","30","","18","","3.2","","103.25","","","","-40","","Ice Crystals"
"-94.07","58.74","CHURCHILL A","5060605","2018-01-04 15:00","2018","01","04","15:00","-27.6","","-30.6","","76","","","","30","","16","","6.4","","103.28","","","","-39","","Ice Crystals"
"-94.07","58.74","CHURCHILL A","5060605","2018-01-04 16:00","2018","01","04","16:00","-28.4","","-31.4","","76","","","","29","","12","","3.2","","103.34","","","","-38","","Ice Crystals"
"-94.07","58.74","CHURCHILL A","5060605","2018-01-04 17:00","2018","01","04","17:00","-28.9","","-32.0","","75","","","","28","","13","","6.4","","103.40","","","","-39","","Ice Crystals"
"-94.07","58.74","CHURCHILL A","5060605","2018-01-04 18:00","2018","01","04","18:00","-29.7","","-33.0","","74","","","","30","","14","","16.1","","103.42","","","","-41","","Ice Crystals"
"-94.07","58.74","CHURCHILL A","5060605","2018-01-04 19:00","2018","01","04","19:00","-29.8","","-33.0","","74","","","","29","","12","","24.1","","103.44","","","","-40","","Ice Crystals"
"-94.07","58.74","CHURCHILL A","5060605","2018-01-04 20:00","2018","01","04","20:00","-30.4","","-33.6","","74","","","","29","","14","","24.1","","103.46","","","","-42","","Ice Crystals"
"-94.07","58.74","CHURCHILL A","5060605","2018-01-04 21:00","2018","01","04","21:00","-31.1","","-34.5","","73","","","","28","","13","","24.1","","103.45","","","","-42","","Ice Crystals"
"-94.07","58.74","CHURCHILL A","5060605","2018-01-04 22:00","2018","01","04","22:00","-31.4","","-34.8","","73","","","","29","","14","","24.1","","103.48","","","","-43","","Ice Crystals"
"-94.07","58.74","CHURCHILL A","5060605","2018-01-04 23:00","2018","01","04","23:00","-31.5","","-34.9","","73","","","","30","","14","","24.1","","103.45","","","","-43","","NA"
"-94.07","58.74","CHURCHILL A","5060605","2018-01-05 00:00","2018","01","05","00:00","-31.8","","-35.3","","72","","","","29","","12","","24.1","","103.49","","","","-42","","Clear"
"-94.07","58.74","CHURCHILL A","5060605","2018-01-05 01:00","2018","01","05","01:00","-32.1","","-35.6","","72","","","","28","","11","","24.1","","103.50","","","","-42","","NA"
"-94.07","58.74","CHURCHILL A","5060605","2018-01-05 02:00","2018","01","05","02:00","-32.3","","-35.8","","72","","","","28","","11","","16.1","","103.56","","","","-42","","Ice Crystals"
"-94.07","58.74","CHURCHILL A","5060605","2018-01-05 03:00","2018","01","05","03:00","-32.0","","-35.5","","72","","","","29","","14","","24.1","","103.52","","","","-43","","Ice Crystals"
"-94.07","58.74","CHURCHILL A","5060605","2018-01-05 04:00","2018","01","05","04:00","-32.3","","-35.8","","72","","","","28","","13","","16.1","","103.50","","","","-43","","Ice Crystals"
"-94.07","58.74","CHURCHILL A","5060605","2018-01-05 05:00","2018","01","05","05:00","-32.9","","-36.5","","71","","","","29","","13","","16.1","","103.51","","","","-44","","Ice Crystals"
"-94.07","58.74","CHURCHILL A","5060605","2018-01-05 06:00","2018","01","05","06:00","-33.7","","-37.4","","70","","","","26","","12","","16.1","","103.59","","","","-45","","Ice Crystals"
"-94.07","58.74","CHURCHILL A","5060605","2018-01-05 07:00","2018","01","05","07:00","-34.4","","-38.1","","70","","","","26","","13","","16.1","","103.58","","","","-46","","Ice Crystals"
"-94.07","58.74","CHURCHILL A","5060605","2018-01-05 08:00","2018","01","05","08:00","-34.5","","-38.3","","69","","","","25","","9","","24.1","","103.48","","","","-44","","Ice Crystals"
"-94.07","58.74","CHURCHILL A","5060605","2018-01-05 09:00","2018","01","05","09:00","-34.7","","-38.5","","69","","","","25","","9","","24.1","","103.43","","","","-44","","Ice Crystals"
"-94.07","58.74","CHURCHILL A","5060605","2018-01-05 10:00","2018","01","05","10:00","-35.0","","-38.8","","69","","","","23","","9","","24.1","","103.42","","","","-45","","Ice Crystals"
"-94.07","58.74","CHURCHILL A","5060605","2018-01-05 11:00","2018","01","05","11:00","-33.5","","-37.1","","71","","","","25","","9","","24.1","","103.43","","","","-43","","Ice Crystals"
"-94.07","58.74","CHURCHILL A","5060605","2018-01-05 12:00","2018","01","05","12:00","-32.3","","-35.8","","72","","","","24","","7","","24.1","","103.29","","","","-40","","Ice Crystals"
"-94.07","58.74","CHURCHILL A","5060605","2018-01-05 13:00","2018","01","05","13:00","-31.4","","-34.8","","73","","","","21","","8","","24.1","","103.28","","","","-40","","NA"
"-94.07","58.74","CHURCHILL A","5060605","2018-01-05 14:00","2018","01","05","14:00","-30.2","","-33.4","","74","","","","21","","11","","24.1","","103.26","","","","-40","","NA"
"-94.07","58.74","CHURCHILL A","5060605","2018-01-05 15:00","2018","01","05","15:00","-30.9","","-34.3","","73","","","","17","","14","","24.1","","103.19","","","","-42","","Mainly Clear"
"-94.07","58.74","CHURCHILL A","5060605","2018-01-05 16:00","2018","01","05","16:00","-31.8","","-35.3","","72","","","","19","","14","","24.1","","103.10","","","","-43","","NA"
"-94.07","58.74","CHURCHILL A","5060605","2018-01-05 17:00","2018","01","05","17:00","-32.4","","-35.9","","72","","","","19","","12","","24.1","","103.03","","","","-43","","NA"
"-94.07","58.74","CHURCHILL A","5060605","2018-01-05 18:00","2018","01","05","18:00","-31.4","","-34.8","","73","","","","18","","14","","24.1","","102.91","","","","-43","","Mostly Cloudy"
"-94.07","58.74","CHURCHILL A","5060605","2018-01-05 19:00","2018","01","05","19:00","-29.8","","-33.0","","74","","","","18","","16","","24.1","","102.81","","","","-42","","NA"
"-94.07","58.74","CHURCHILL A","5060605","2018-01-05 20:00","2018","01","05","20:00","-27.8","","-30.8","","76","","","","18","","21","","24.1","","102.61","","","","-41","","NA"
"-94.07","58.74","CHURCHILL A","5060605","2018-01-05 21:00","2018","01","05","21:00","-25.3","","-28.1","","78","","","","19","","19","","22.5","","102.48","","","","-37","","Mostly Cloudy"
"-94.07","58.74","CHURCHILL A","5060605","2018-01-05 22:00","2018","01","05","22:00","-24.1","","-26.8","","79","","","","18","","22","","24.1","","102.32","","","","-36","","NA"
"-94.07","58.74","CHURCHILL A","5060605","2018-01-05 23:00","2018","01","05","23:00","-22.7","","-25.7","","77","","","","19","","26","","24.1","","102.18","","","","-35","","NA"
"-94.07","58.74","CHURCHILL A","5060605","2018-01-06 00:00","2018","01","06","00:00","-22.7","","-26.5","","72","","","","18","","23","","24.1","","102.02","","","","-35","","Mostly Cloudy"
"-94.07","58.74","CHURCHILL A","5060605","2018-01-06 01:00","2018","01","06","01:00","-21.0","","-25.1","","70","","","","19","","29","","24.1","","101.83","","","","-34","","NA"
"-94.07","58.74","CHURCHILL A","5060605","2018-01-06 02:00","2018","01","06","02:00","-19.7","","-24.2","","68","","","","19","","28","","24.1","","101.71","","","","-32","","Snow,Blowing Snow"
"-94.07","58.74","CHURCHILL A","5060605","2018-01-06 03:00","2018","01","06","03:00","-19.5","","-23.5","","71","","","","18","","25","","16.1","","101.57","","","","-31","","Snow,Blowing Snow"
"-94.07","58.74","CHURCHILL A","5060605","2018-01-06 04:00","2018","01","06","04:00","-19.5","","-23.0","","74","","","","18","","30","","16.1","","101.41","","","","-32","","Snow,Blowing Snow"
"-94.07","58.74","CHURCHILL A","5060605","2018-01-06 05:00","2018","01","06","05:00","-19.3","","-22.1","","79","","","","18","","27","","6.4","","101.23","","","","-31","","Snow"
"-94.07","58.74","CHURCHILL A","5060605","2018-01-06 06:00","2018","01","06","06:00","-18.7","","-21.2","","81","","","","18","","27","","6.4","","101.06","","","","-30","","Snow,Blowing Snow"
"-94.07","58.74","CHURCHILL A","5060605","2018-01-06 07:00","2018","01","06","07:00","-18.4","","-20.8","","82","","","","19","","27","","6.4","","100.93","","","","-30","","Snow,Blowing Snow"
"-94.07","58.74","CHURCHILL A","5060605","2018-01-06 08:00","2018","01","06","08:00","-18.3","","-20.7","","82","","","","19","","22","","8.1","","100.82","","","","-29","","Snow"
"-94.07","58.74","CHURCHILL A","5060605","2018-01-06 09:00","2018","01","06","09:00","-18.3","","-20.7","","82","","","","18","","20","","16.1","","100.73","","","","-28","","Snow"
"-94.07","58.74","CHURCHILL A","5060605","2018-01-06 10:00","2018","01","06","10:00","-18.5","","-20.9","","82","","","","18","","18","","24.1","","100.65","","","","-28","","Snow"
"-94.07","58.74","CHURCHILL A","5060605","2018-01-06 11:00","2018","01","06","11:00","-18.4","","-20.9","","81","","","","18","","18","","24.1","","100.54","","","","-28","","NA"
"-94.07","58.74","CHURCHILL A","5060605","2018-01-06 12:00","2018","01","06","12:00","-19.0","","-21.4","","81","","","","17","","12","","24.1","","100.43","","","","-27","","Mainly Clear"
"-94.07","58.74","CHURCHILL A","5060605","2018-01-06 13:00","2018","01","06","13:00","-18.6","","-21.4","","79","","","","17","","12","","24.1","","100.31","","","","-26","","NA"
"-94.07","58.74","CHURCHILL A","5060605","2018-01-06 14:00","2018","01","06","14:00","-18.7","","-21.5","","79","","","","17","","10","","24.1","","100.26","","","","-26","","Ice Crystals"
"-94.07","58.74","CHURCHILL A","5060605","2018-01-06 15:00","2018","01","06","15:00","-19.6","","-22.1","","81","","","","14","","9","","24.1","","100.24","","","","-26","","Ice Crystals"
"-94.07","58.74","CHURCHILL A","5060605","2018-01-06 16:00","2018","01","06","16:00","-20.3","","-22.3","","84","","","","11","","8","","24.1","","100.22","","","","-27","","Ice Crystals"
"-94.07","58.74","CHURCHILL A","5060605","2018-01-06 17:00","2018","01","06","17:00","-20.8","","-22.7","","85","","","","12","","7","","24.1","","100.23","","","","-27","","NA"
"-94.07","58.74","CHURCHILL A","5060605","2018-01-06 18:00","2018","01","06","18:00","-21.4","","-23.3","","85","","","","10","","8","","24.1","","100.20","","","","-28","","Clear"
"-94.07","58.74","CHURCHILL A","5060605","2018-01-06 19:00","2018","01","06","19:00","-22.9","","-25.0","","83","","","","12","","14","","24.1","","100.15","","","","-32","","NA"
"-94.07","58.74","CHURCHILL A","5060605","2018-01-06 20:00","2018","01","06","20:00","-22.2","","-24.4","","83","","","","11","","13","","24.1","","100.13","","","","-31","","NA"
"-94.07","58.74","CHURCHILL A","5060605","2018-01-06 21:00","2018","01","06","21:00","-21.2","","-23.2","","84","","","","10","","10","","24.1","","100.07","","","","-29","","Clear"
"-94.07","58.74","CHURCHILL A","5060605","2018-01-06 22:00","2018","01","06","22:00","-20.9","","-22.9","","84","","","","10","","10","","24.1","","100.05","","","","-28","","NA"
"-94.07","58.74","CHURCHILL A","5060605","2018-01-06 23:00","2018","01","06","23:00","-21.0","","-23.0","","84","","","","10","","10","","24.1","","100.06","","","","-28","","NA"
"-94.07","58.74","CHURCHILL A","5060605","2018-01-07 00:00","2018","01","07","00:00","-21.0","","-23.0","","84","","","","10","","10","","24.1","","100.04","","","","-28","","Clear"
"-94.07","58.74","CHURCHILL A","5060605","2018-01-07 01:00","2018","01","07","01:00","-21.6","","-23.9","","82","","","","9","","12","","1.6","","99.95","","","","-30","","Fog"
"-94.07","58.74","CHURCHILL A","5060605","2018-01-07 02:00","2018","01","07","02:00","-23.0","","-25.4","","81","","","","10","","14","","1.2","","99.96","","","","-32","","Fog"
"-94.07","58.74","CHURCHILL A","5060605","2018-01-07 03:00","2018","01","07","03:00","-23.4","","-25.8","","81","","","","11","","14","","1.6","","99.95","","","","-33","","Fog"
"-94.07","58.74","CHURCHILL A","5060605","2018-01-07 04:00","2018","01","07","04:00","-23.8","","-26.3","","80","","","","10","","13","","24.1","","99.93","","","","-33","","NA"
"-94.07","58.74","CHURCHILL A","5060605","2018-01-07 05:00","2018","01","07","05:00","-23.5","","-26.0","","80","","","","12","","16","","24.1","","99.91","","","","-34","","NA"
"-94.07","58.74","CHURCHILL A","5060605","2018-01-07 06:00","2018","01","07","06:00","-23.7","","-26.2","","80","","","","13","","10","","24.1","","99.88","","","","-32","","Clear"
"-94.07","58.74","CHURCHILL A","5060605","2018-01-07 07:00","2018","01","07","07:00","-24.0","","-26.4","","81","","","","12","","9","","19.3","","99.83","","","","-31","","Snow"
"-94.07","58.74","CHURCHILL A","5060605","2018-01-07 08:00","2018","01","07","08:00","-23.1","","-25.5","","81","","","","13","","11","","24.1","","99.80","","","","-31","","Ice Crystals"
"-94.07","58.74","CHURCHILL A","5060605","2018-01-07 09:00","2018","01","07","09:00","-22.4","","-24.7","","82","","","","12","","13","","24.1","","99.72","","","","-31","","Ice Crystals"
"-94.07","58.74","CHURCHILL A","5060605","2018-01-07 10:00","2018","01","07","10:00","-20.5","","-22.7","","83","","","","14","","9","","16.1","","99.72","","","","-27","","Ice Crystals"
"-94.07","58.74","CHURCHILL A","5060605","2018-01-07 11:00","2018","01","07","11:00","-19.8","","-21.9","","84","","","","11","","16","","19.3","","99.66","","","","-29","","Snow"
"-94.07","58.74","CHURCHILL A","5060605","2018-01-07 12:00","2018","01","07","12:00","-19.1","","-21.0","","85","","","","11","","15","","8.1","","99.61","","","","-28","","Snow"
"-94.07","58.74","CHURCHILL A","5060605","2018-01-07 13:00","2018","01","07","13:00","-18.0","","-19.8","","86","","","","11","","15","","24.1","","99.57","","","","-27","","Snow"
"-94.07","58.74","CHURCHILL A","5060605","2018-01-07 14:00","2018","01","07","14:00","-17.5","","-19.3","","86","","","","11","","11","","16.1","","99.54","","","","-25","","Snow"
"-94.07","58.74","CHURCHILL A","5060605","2018-01-07 15:00","2018","01","07","15:00","-17.0","","-18.8","","87","","","","11","","11","","2.4","","99.53","","","","-24","","Snow"
"-94.07","58.74","CHURCHILL A","5060605","2018-01-07 16:00","2018","01","07","16:00","-16.4","","-18.1","","87","","","","11","","14","","1.6","","99.51","","","","-24","","Snow"
"-94.07","58.74","CHURCHILL A","5060605","2018-01-07 17:00","2018","01","07","17:00","-16.2","","-17.9","","87","","","","12","","12","","6.4","","99.55","","","","-23","","Snow"
"-94.07","58.74","CHURCHILL A","5060605","2018-01-07 18:00","2018","01","07","18:00","-16.3","","-18.0","","87","","","","12","","10","","4.8","","99.57","","","","-23","","Snow"
"-94.07","58.74","CHURCHILL A","5060605","2018-01-07 19:00","2018","01","07","19:00","-16.3","","-18.0","","87","","","","11","","8","","6.4","","99.56","","","","-22","","Snow"
"-94.07","58.74","CHURCHILL A","5060605","2018-01-07 20:00","2018","01","07","20:00","-16.4","","-18.1","","87","","","","8","","8","","4.8","","99.55","","","","-22","","Snow"
"-94.07","58.74","CHURCHILL A","5060605","2018-01-07 21:00","2018","01","07","21:00","-16.3","","-18.0","","87","","","","9","","7","","4.8","","99.55","","","","-21","","Snow"
"-94.07","58.74","CHURCHILL A","5060605","2018-01-07 22:00","2018","01","07","22:00","-16.4","","-18.1","","87","","","","10","","7","","16.1","","99.55","","","","-21","","Snow"
"-94.07","58.74","CHURCHILL A","5060605","2018-01-07 23:00","2018","01","07","23:00","-16.1","","-17.8","","87","","","","36","","2","","24.1","","99.56","","","","-18","","Snow"
"-94.07","58.74","CHURCHILL A","5060605","2018-01-08 00:00","2018","01","08","00:00","-17.4","","-19.2","","86","","","","30","","11","","24.1","","99.63","","","","-25","","Snow"
"-94.07","58.74","CHURCHILL A","5060605","2018-01-08 01:00","2018","01","08","01:00","-16.3","","-18.0","","87","","","","30","","10","","24.1","","99.63","","","","-23","","Snow"
"-94.07","58.74","CHURCHILL A","5060605","2018-01-08 02:00","2018","01","08","02:00","-16.3","","-18.0","","87","","","","30","","15","","24.1","","99.69","","","","-25","","Snow"
"-94.07","58.74","CHURCHILL A","5060605","2018-01-08 03:00","2018","01","08","03:00","-16.5","","-18.2","","87","","","","29","","14","","24.1","","99.75","","","","-24","","Snow"
"-94.07","58.74","CHURCHILL A","5060605","2018-01-08 04:00","2018","01","08","04:00","-16.7","","-18.4","","87","","","","29","","17","","4.8","","99.80","","","","-26","","Snow"
"-94.07","58.74","CHURCHILL A","5060605","2018-01-08 05:00","2018","01","08","05:00","-16.2","","-17.9","","87","","","","31","","23","","4.8","","99.81","","","","-26","","Snow"
"-94.07","58.74","CHURCHILL A","5060605","2018-01-08 06:00","2018","01","08","06:00","-16.7","","-18.4","","87","","","","31","","23","","4.8","","99.88","","","","-27","","Snow,Blowing Snow"
"-94.07","58.74","CHURCHILL A","5060605","2018-01-08 07:00","2018","01","08","07:00","-17.6","","-19.4","","86","","","","30","","29","","6.4","","99.92","","","","-29","","Snow,Blowing Snow"
"-94.07","58.74","CHURCHILL A","5060605","2018-01-08 08:00","2018","01","08","08:00","-21.0","","-23.2","","83","","","","30","","28","","24.1","","100.02","","","","-34","","NA"
"-94.07","58.74","CHURCHILL A","5060605","2018-01-08 09:00","2018","01","08","09:00","-21.8","","-24.1","","82","","","","30","","24","","24.1","","100.12","","","","-34","","Blowing Snow"
"-94.07","58.74","CHURCHILL A","5060605","2018-01-08 10:00","2018","01","08","10:00","-22.5","","-24.8","","82","","","","30","","23","","24.1","","100.19","","","","-34","","Blowing Snow"
"-94.07","58.74","CHURCHILL A","5060605","2018-01-08 11:00","2018","01","08","11:00","-22.0","","-24.3","","82","","","","31","","26","","24.1","","100.25","","","","-34","","Blowing Snow"
"-94.07","58.74","CHURCHILL A","5060605","2018-01-08 12:00","2018","01","08","12:00","-21.5","","-23.7","","83","","","","30","","28","","24.1","","100.28","","","","-34","","Ice Crystals,Blowing Snow"
"-94.07","58.74","CHURCHILL A","5060605","2018-01-08 13:00","2018","01","08","13:00","-21.0","","-23.2","","83","","","","31","","25","","24.1","","100.34","","","","-33","","Ice Crystals,Blowing Snow"
"-94.07","58.74","CHURCHILL A","5060605","2018-01-08 14:00","2018","01","08","14:00","-21.0","","-23.2","","83","","","","30","","25","","24.1","","100.38","","","","-33","","Ice Crystals,Blowing Snow"
"-94.07","58.74","CHURCHILL A","5060605","2018-01-08 15:00","2018","01","08","15:00","-21.9","","-24.2","","82","","","","30","","32","","24.1","","100.46","","","","-35","","Ice Crystals,Blowing Snow"
"-94.07","58.74","CHURCHILL A","5060605","2018-01-08 16:00","2018","01","08","16:00","-21.8","","-24.1","","82","","","","29","","21","","24.1","","100.54","","","","-33","","Ice Crystals,Blowing Snow"
"-94.07","58.74","CHURCHILL A","5060605","2018-01-08 17:00","2018","01","08","17:00","-23.1","","-25.5","","81","","","","28","","20","","24.1","","100.56","","","","-34","","Ice Crystals,Blowing Snow"
"-94.07","58.74","CHURCHILL A","5060605","2018-01-08 18:00","2018","01","08","18:00","-23.2","","-25.6","","81","","","","27","","23","","24.1","","100.59","","","","-35","","Clear"
"-94.07","58.74","CHURCHILL A","5060605","2018-01-08 19:00","2018","01","08","19:00","-23.0","","-25.4","","81","","","","28","","24","","24.1","","100.57","","","","-35","","NA"
"-94.07","58.74","CHURCHILL A","5060605","2018-01-08 20:00","2018","01","08","20:00","-23.7","","-26.1","","81","","","","28","","23","","24.1","","100.58","","","","-36","","NA"
"-94.07","58.74","CHURCHILL A","5060605","2018-01-08 21:00","2018","01","08","21:00","-24.1","","-26.5","","81","","","","28","","24","","24.1","","100.59","","","","-37","","Clear"
"-94.07","58.74","CHURCHILL A","5060605","2018-01-08 22:00","2018","01","08","22:00","-23.9","","-26.4","","80","","","","30","","23","","24.1","","100.63","","","","-36","","NA"
"-94.07","58.74","CHURCHILL A","5060605","2018-01-08 23:00","2018","01","08","23:00","-24.3","","-26.8","","80","","","","30","","25","","24.1","","100.67","","","","-37","","NA"
"-94.07","58.74","CHURCHILL A","5060605","2018-01-09 00:00","2018","01","09","00:00","-25.0","","-27.6","","79","","","","30","","21","","24.1","","100.71","","","","-37","","Clear"
"-94.07","58.74","CHURCHILL A","5060605","2018-01-09 01:00","2018","01","09","01:00","-25.1","","-27.9","","78","","","","30","","25","","24.1","","100.74","","","","-38","","NA"
"-94.07","58.74","CHURCHILL A","5060605","2018-01-09 02:00","2018","01","09","02:00","-25.7","","-28.6","","77","","","","29","","27","","24.1","","100.77","","","","-39","","NA"
"-94.07","58.74","CHURCHILL A","5060605","2018-01-09 03:00","2018","01","09","03:00","-25.9","","-28.9","","76","","","","29","","29","","24.1","","100.82","","","","-40","","Ice Crystals"
"-94.07","58.74","CHURCHILL A","5060605","2018-01-09 04:00","2018","01","09","04:00","-26.1","","-29.2","","76","","","","30","","34","","9.7","","100.86","","","","-41","","Ice Crystals,Blowing Snow"
"-94.07","58.74","CHURCHILL A","5060605","2018-01-09 05:00","2018","01","09","05:00","-26.6","","-29.8","","75","","","","30","","29","","16.1","","100.91","","","","-41","","Ice Crystals,Blowing Snow"
"-94.07","58.74","CHURCHILL A","5060605","2018-01-09 06:00","2018","01","09","06:00","-27.0","","-30.3","","74","","","","30","","28","","24.1","","100.94","","","","-41","","Ice Crystals,Blowing Snow"
"-94.07","58.74","CHURCHILL A","5060605","2018-01-09 07:00","2018","01","09","07:00","-27.3","","-30.8","","73","","","","29","","26","","24.1","","100.99","","","","-41","","Ice Crystals,Blowing Snow"
"-94.07","58.74","CHURCHILL A","5060605","2018-01-09 08:00","2018","01","09","08:00","-27.9","","-31.4","","72","","","","30","","18","","24.1","","101.03","","","","-40","","Ice Crystals,Blowing Snow"
"-94.07","58.74","CHURCHILL A","5060605","2018-01-09 09:00","2018","01","09","09:00","-28.0","","-31.6","","72","","","","30","","20","","24.1","","101.16","","","","-41","","Ice Crystals"
"-94.07","58.74","CHURCHILL A","5060605","2018-01-09 10:00","2018","01","09","10:00","-27.6","","-31.4","","71","","","","29","","26","","24.1","","101.17","","","","-42","","Ice Crystals,Blowing Snow"
"-94.07","58.74","CHURCHILL A","5060605","2018-01-09 11:00","2018","01","09","11:00","-27.6","","-31.5","","70","","","","31","","27","","24.1","","101.23","","","","-42","","Ice Crystals,Blowing Snow"
"-94.07","58.74","CHURCHILL A","5060605","2018-01-09 12:00","2018","01","09","12:00","-27.7","","-31.8","","69","","","","31","","26","","24.1","","101.19","","","","-42","","Ice Crystals,Blowing Snow"
"-94.07","58.74","CHURCHILL A","5060605","2018-01-09 13:00","2018","01","09","13:00","-28.0","","-32.2","","68","","","","31","","23","","24.1","","101.25","","","","-41","","Ice Crystals,Blowing Snow"
"-94.07","58.74","CHURCHILL A","5060605","2018-01-09 14:00","2018","01","09","14:00","-28.3","","-32.5","","68","","","","30","","25","","24.1","","101.25","","","","-42","","Ice Crystals,Blowing Snow"
"-94.07","58.74","CHURCHILL A","5060605","2018-01-09 15:00","2018","01","09","15:00","-28.5","","-32.7","","68","","","","30","","25","","24.1","","101.32","","","","-43","","Clear"
"-94.07","58.74","CHURCHILL A","5060605","2018-01-09 16:00","2018","01","09","16:00","-29.1","","-33.4","","67","","","","30","","27","","24.1","","101.33","","","","-44","","NA"
"-94.07","58.74","CHURCHILL A","5060605","2018-01-09 17:00","2018","01","09","17:00","-29.7","","-33.9","","68","","","","30","","24","","24.1","","101.39","","","","-44","","NA"
"-94.07","58.74","CHURCHILL A","5060605","2018-01-09 18:00","2018","01","09","18:00","-30.2","","-34.3","","68","","","","30","","19","","16.1","","101.35","","","","-43","","Ice Crystals"
"-94.07","58.74","CHURCHILL A","5060605","2018-01-09 19:00","2018","01","09","19:00","-30.6","","-34.7","","68","","","","30","","22","","16.1","","101.32","","","","-44","","Ice Crystals"
"-94.07","58.74","CHURCHILL A","5060605","2018-01-09 20:00","2018","01","09","20:00","-31.0","","-35.1","","68","","","","29","","16","","24.1","","101.28","","","","-43","","Ice Crystals"
"-94.07","58.74","CHURCHILL A","5060605","2018-01-09 21:00","2018","01","09","21:00","-30.7","","-35.0","","67","","","","29","","15","","24.1","","101.29","","","","-42","","Ice Crystals"
"-94.07","58.74","CHURCHILL A","5060605","2018-01-09 22:00","2018","01","09","22:00","-30.9","","-35.2","","67","","","","29","","17","","24.1","","101.27","","","","-43","","Ice Crystals"
"-94.07","58.74","CHURCHILL A","5060605","2018-01-09 23:00","2018","01","09","23:00","-30.6","","-34.7","","68","","","","30","","13","","24.1","","101.24","","","","-41","","NA"
"-94.07","58.74","CHURCHILL A","5060605","2018-01-10 00:00","2018","01","10","00:00","-29.9","","-34.0","","68","","","","31","","18","","24.1","","101.20","","","","-42","","Mostly Cloudy"
"-94.07","58.74","CHURCHILL A","5060605","2018-01-10 01:00","2018","01","10","01:00","-30.0","","-34.0","","69","","","","30","","19","","24.1","","101.16","","","","-43","","Ice Crystals"
"-94.07","58.74","CHURCHILL A","5060605","2018-01-10 02:00","2018","01","10","02:00","-29.7","","-33.4","","71","","","","30","","16","","24.1","","101.13","","","","-41","","Ice Crystals"
"-94.07","58.74","CHURCHILL A","5060605","2018-01-10 03:00","2018","01","10","03:00","-29.2","","-32.9","","71","","","","30","","16","","24.1","","101.14","","","","-41","","Ice Crystals"
"-94.07","58.74","CHURCHILL A","5060605","2018-01-10 04:00","2018","01","10","04:00","-29.5","","-33.4","","70","","","","29","","18","","24.1","","101.12","","","","-42","","Ice Crystals"
"-94.07","58.74","CHURCHILL A","5060605","2018-01-10 05:00","2018","01","10","05:00","-29.8","","-34.0","","68","","","","30","","22","","24.1","","101.07","","","","-43","","Ice Crystals"
"-94.07","58.74","CHURCHILL A","5060605","2018-01-10 06:00","2018","01","10","06:00","-29.6","","-33.6","","69","","","","31","","25","","24.1","","101.04","","","","-44","","Ice Crystals"
"-94.07","58.74","CHURCHILL A","5060605","2018-01-10 07:00","2018","01","10","07:00","-29.8","","-33.8","","69","","","","31","","24","","19.3","","101.03","","","","-44","","Ice Crystals"
"-94.07","58.74","CHURCHILL A","5060605","2018-01-10 08:00","2018","01","10","08:00","-30.1","","-33.9","","70","","","","31","","23","","8.1","","101.01","","","","-44","","Ice Crystals"
"-94.07","58.74","CHURCHILL A","5060605","2018-01-10 09:00","2018","01","10","09:00","-31.3","","-35.5","","67","","","","30","","26","","16.1","","101.09","","","","-46","","Ice Crystals"
"-94.07","58.74","CHURCHILL A","5060605","2018-01-10 10:00","2018","01","10","10:00","-32.3","","-36.7","","66","","","","30","","26","","24.1","","101.09","","","","-48","","Ice Crystals"
"-94.07","58.74","CHURCHILL A","5060605","2018-01-10 11:00","2018","01","10","11:00","-32.8","","-37.1","","66","","","","30","","22","","24.1","","101.11","","","","-47","","Ice Crystals"
"-94.07","58.74","CHURCHILL A","5060605","2018-01-10 12:00","2018","01","10","12:00","-32.6","","-37.1","","65","","","","30","","25","","24.1","","101.12","","","","-48","","Clear"
"-94.07","58.74","CHURCHILL A","5060605","2018-01-10 13:00","2018","01","10","13:00","-32.3","","-37.0","","64","","","","31","","23","","24.1","","101.16","","","","-47","","NA"
"-94.07","58.74","CHURCHILL A","5060605","2018-01-10 14:00","2018","01","10","14:00","-32.2","","-37.1","","63","","","","30","","23","","24.1","","101.12","","","","-47","","NA"
"-94.07","58.74","CHURCHILL A","5060605","2018-01-10 15:00","2018","01","10","15:00","-32.7","","-37.4","","64","","","","29","","22","","24.1","","101.16","","","","-47","","Clear"
"-94.07","58.74","CHURCHILL A","5060605","2018-01-10 16:00","2018","01","10","16:00","-33.1","","-37.9","","63","","","","29","","22","","24.1","","101.24","","","","-48","","NA"
"-94.07","58.74","CHURCHILL A","5060605","2018-01-10 17:00","2018","01","10","17:00","-33.7","","-38.3","","64","","","","28","","22","","24.1","","101.29","","","","-48","","NA"
"-94.07","58.74","CHURCHILL A","5060605","2018-01-10 18:00","2018","01","10","18:00","-34.2","","-38.8","","64","","","","29","","25","","24.1","","101.28","","","","-50","","Clear"
"-94.07","58.74","CHURCHILL A","5060605","2018-01-10 19:00","2018","01","10","19:00","-34.0","","-38.6","","64","","","","29","","25","","24.1","","101.27","","","","-50","","NA"
"-94.07","58.74","CHURCHILL A","5060605","2018-01-10 20:00","2018","01","10","20:00","-34.4","","-39.1","","63","","","","29","","27","","24.1","","101.30","","","","-51","","NA"
"-94.07","58.74","CHURCHILL A","5060605","2018-01-10 21:00","2018","01","10","21:00","-34.6","","-39.2","","64","","","","29","","25","","24.1","","101.29","","","","-50","","Clear"
"-94.07","58.74","CHURCHILL A","5060605","2018-01-10 22:00","2018","01","10","22:00","-34.8","","-39.4","","64","","","","29","","22","","24.1","","101.30","","","","-50","","NA"
"-94.07","58.74","CHURCHILL A","5060605","2018-01-10 23:00","2018","01","10","23:00","-34.9","","-39.5","","64","","","","28","","24","","24.1","","101.31","","","","-50","","NA"
"-94.07","58.74","CHURCHILL A","5060605","2018-01-11 00:00","2018","01","11","00:00","-35.0","","-39.6","","64","","","","28","","24","","24.1","","101.35","","","","-51","","Clear"
"-94.07","58.74","CHURCHILL A","5060605","2018-01-11 01:00","2018","01","11","01:00","-35.2","","-39.8","","64","","","","28","","21","","24.1","","101.39","","","","-50","","NA"
"-94.07","58.74","CHURCHILL A","5060605","2018-01-11 02:00","2018","01","11","02:00","-35.3","","-39.9","","64","","","","27","","28","","24.1","","101.35","","","","-52","","NA"
"-94.07","58.74","CHURCHILL A","5060605","2018-01-11 03:00","2018","01","11","03:00","-34.9","","-39.5","","64","","","","28","","26","","24.1","","101.37","","","","-51","","Clear"
"-94.07","58.74","CHURCHILL A","5060605","2018-01-11 04:00","2018","01","11","04:00","-35.0","","-39.8","","63","","","","28","","25","","24.1","","101.37","","","","-51","","NA"
"-94.07","58.74","CHURCHILL A","5060605","2018-01-11 05:00","2018","01","11","05:00","-34.9","","-39.6","","63","","","","28","","24","","24.1","","101.32","","","","-50","","NA"
"-94.07","58.74","CHURCHILL A","5060605","2018-01-11 06:00","2018","01","11","06:00","-34.8","","-39.5","","63","","","","28","","27","","24.1","","101.30","","","","-51","","Clear"
"-94.07","58.74","CHURCHILL A","5060605","2018-01-11 07:00","2018","01","11","07:00","-34.8","","-39.5","","63","","","","28","","26","","24.1","","101.28","","","","-51","","NA"
"-94.07","58.74","CHURCHILL A","5060605","2018-01-11 08:00","2018","01","11","08:00","-34.7","","-39.5","","63","","","","28","","26","","24.1","","101.28","","","","-51","","NA"
"-94.07","58.74","CHURCHILL A","5060605","2018-01-11 09:00","2018","01","11","09:00","-35.0","","-39.7","","63","","","","27","","22","","24.1","","101.31","","","","-50","","Clear"
"-94.07","58.74","CHURCHILL A","5060605","2018-01-11 10:00","2018","01","11","10:00","-34.7","","-39.5","","63","","","","26","","20","","24.1","","101.33","","","","-49","","NA"
"-94.07","58.74","CHURCHILL A","5060605","2018-01-11 11:00","2018","01","11","11:00","-33.9","","-38.9","","62","","","","28","","24","","24.1","","101.30","","","","-49","","NA"
"-94.07","58.74","CHURCHILL A","5060605","2018-01-11 12:00","2018","01","11","12:00","-33.2","","-38.4","","61","","","","28","","24","","24.1","","101.22","","","","-48","","Clear"
"-94.07","58.74","CHURCHILL A","5060605","2018-01-11 13:00","2018","01","11","13:00","-32.6","","-37.8","","61","","","","28","","25","","24.1","","101.18","","","","-48","","NA"
"-94.07","58.74","CHURCHILL A","5060605","2018-01-11 14:00","2018","01","11","14:00","-32.1","","-37.1","","62","","","","28","","26","","24.1","","101.18","","","","-47","","NA"
"-94.07","58.74","CHURCHILL A","5060605","2018-01-11 15:00","2018","01","11","15:00","-32.2","","-37.1","","63","","","","27","","21","","24.1","","101.16","","","","-46","","Ice Crystals"
"-94.07","58.74","CHURCHILL A","5060605","2018-01-11 16:00","2018","01","11","16:00","-32.7","","-37.4","","64","","","","28","","16","","24.1","","101.20","","","","-45","","Ice Crystals"
"-94.07","58.74","CHURCHILL A","5060605","2018-01-11 17:00","2018","01","11","17:00","-32.7","","-37.4","","64","","","","28","","25","","24.1","","101.20","","","","-48","","NA"
"-94.07","58.74","CHURCHILL A","5060605","2018-01-11 18:00","2018","01","11","18:00","-32.6","","-37.4","","63","","","","27","","30","","24.1","","101.21","","","","-49","","Clear"
"-94.07","58.74","CHURCHILL A","5060605","2018-01-11 19:00","2018","01","11","19:00","-32.8","","-37.5","","64","","","","28","","28","","24.1","","101.15","","","","-49","","NA"
"-94.07","58.74","CHURCHILL A","5060605","2018-01-11 20:00","2018","01","11","20:00","-32.9","","-37.6","","64","","","","28","","23","","24.1","","101.15","","","","-48","","NA"
"-94.07","58.74","CHURCHILL A","5060605","2018-01-11 21:00","2018","01","11","21:00","-32.9","","-37.4","","65","","","","28","","26","","24.1","","101.10","","","","-48","","Clear"
"-94.07","58.74","CHURCHILL A","5060605","2018-01-11 22:00","2018","01","11","22:00","-32.8","","-37.3","","65","","","","28","","24","","24.1","","101.06","","","","-48","","Ice Crystals"
"-94.07","58.74","CHURCHILL A","5060605","2018-01-11 23:00","2018","01","11","23:00","-32.4","","-36.9","","65","","","","28","","23","","24.1","","101.05","","","","-47","","Ice Crystals"
"-94.07","58.74","CHURCHILL A","5060605","2018-01-12 00:00","2018","01","12","00:00","-32.3","","-36.8","","65","","","","28","","24","","24.1","","101.06","","","","-47","","Ice Crystals"
"-94.07","58.74","CHURCHILL A","5060605","2018-01-12 01:00","2018","01","12","01:00","-32.3","","-36.8","","65","","","","28","","26","","24.1","","101.03","","","","-48","","Ice Crystals"
"-94.07","58.74","CHURCHILL A","5060605","2018-01-12 02:00","2018","01","12","02:00","-32.2","","-36.4","","67","","","","28","","29","","24.1","","101.03","","","","-48","","Ice Crystals"
"-94.07","58.74","CHURCHILL A","5060605","2018-01-12 03:00","2018","01","12","03:00","-31.7","","-36.1","","66","","","","29","","25","","24.1","","101.04","","","","-47","","Ice Crystals"
"-94.07","58.74","CHURCHILL A","5060605","2018-01-12 04:00","2018","01","12","04:00","-31.8","","-36.2","","66","","","","28","","28","","24.1","","101.02","","","","-48","","Ice Crystals"
"-94.07","58.74","CHURCHILL A","5060605","2018-01-12 05:00","2018","01","12","05:00","-31.4","","-35.6","","67","","","","29","","35","","24.1","","101.01","","","","-48","","Ice Crystals"
"-94.07","58.74","CHURCHILL A","5060605","2018-01-12 06:00","2018","01","12","06:00","-30.6","","-34.7","","68","","","","28","","34","","24.1","","100.97","","","","-47","","Ice Crystals"
"-94.07","58.74","CHURCHILL A","5060605","2018-01-12 07:00","2018","01","12","07:00","-29.8","","-33.6","","70","","","","28","","27","","16.1","","101.02","","","","-45","","Ice Crystals"
"-94.07","58.74","CHURCHILL A","5060605","2018-01-12 08:00","2018","01","12","08:00","-27.3","","-30.5","","75","","","","29","","30","","3.2","","101.04","","","","-42","","Snow,Blowing Snow"
"-94.07","58.74","CHURCHILL A","5060605","2018-01-12 09:00","2018","01","12","09:00","-25.6","","-28.7","","76","","","","30","","24","","4.0","","101.06","","","","-39","","Snow,Blowing Snow"
"-94.07","58.74","CHURCHILL A","5060605","2018-01-12 10:00","2018","01","12","10:00","-24.5","","-27.4","","77","","","","30","","28","","4.8","","101.11","","","","-38","","Snow,Blowing Snow"
"-94.07","58.74","CHURCHILL A","5060605","2018-01-12 11:00","2018","01","12","11:00","-23.4","","-26.4","","77","","","","30","","38","","4.8","","101.16","","","","-38","","Snow,Blowing Snow"
"-94.07","58.74","CHURCHILL A","5060605","2018-01-12 12:00","2018","01","12","12:00","-22.8","","-25.9","","76","","","","30","","36","","3.2","","101.18","","","","-37","","Snow,Blowing Snow"
"-94.07","58.74","CHURCHILL A","5060605","2018-01-12 13:00","2018","01","12","13:00","-22.6","","-25.6","","77","","","","30","","40","","3.2","","101.23","","","","-38","","Snow,Blowing Snow"
"-94.07","58.74","CHURCHILL A","5060605","2018-01-12 14:00","2018","01","12","14:00","-22.3","","-25.6","","75","","","","30","","40","","6.4","","101.28","","","","-37","","Blowing Snow"
"-94.07","58.74","CHURCHILL A","5060605","2018-01-12 15:00","2018","01","12","15:00","-22.3","","-25.6","","75","","","","30","","38","","6.4","","101.34","","","","-37","","Ice Crystals,Blowing Snow"
"-94.07","58.74","CHURCHILL A","5060605","2018-01-12 16:00","2018","01","12","16:00","-22.0","","-25.0","","77","","","","29","","28","","3.2","","101.44","","","","-35","","Ice Crystals,Blowing Snow"
"-94.07","58.74","CHURCHILL A","5060605","2018-01-12 17:00","2018","01","12","17:00","-21.2","","-23.8","","80","","","","30","","36","","2.4","","101.49","","","","-35","","Snow,Blowing Snow"
"-94.07","58.74","CHURCHILL A","5060605","2018-01-12 18:00","2018","01","12","18:00","-20.7","","-23.6","","78","","","","29","","34","","4.8","","101.53","","","","-34","","Snow,Blowing Snow"
"-94.07","58.74","CHURCHILL A","5060605","2018-01-12 19:00","2018","01","12","19:00","-20.8","","-23.7","","78","","","","29","","36","","9.7","","101.59","","","","-35","","Snow,Blowing Snow"
"-94.07","58.74","CHURCHILL A","5060605","2018-01-12 20:00","2018","01","12","20:00","-20.3","","-23.2","","78","","","","29","","30","","8.1","","101.67","","","","-33","","Snow,Blowing Snow"
"-94.07","58.74","CHURCHILL A","5060605","2018-01-12 21:00","2018","01","12","21:00","-20.6","","-23.9","","75","","","","31","","32","","24.1","","101.68","","","","-34","","Ice Crystals,Blowing Snow"
"-94.07","58.74","CHURCHILL A","5060605","2018-01-12 22:00","2018","01","12","22:00","-21.3","","-24.8","","74","","","","31","","30","","24.1","","101.71","","","","-34","","Ice Crystals,Blowing Snow"
"-94.07","58.74","CHURCHILL A","5060605","2018-01-12 23:00","2018","01","12","23:00","-21.5","","-25.1","","73","","","","31","","29","","24.1","","101.76","","","","-34","","Ice Crystals,Blowing Snow"
"-94.07","58.74","CHURCHILL A","5060605","2018-01-13 00:00","2018","01","13","00:00","-22.0","","-25.6","","73","","","","31","","35","","24.1","","101.80","","","","-36","","Blowing Snow"
"-94.07","58.74","CHURCHILL A","5060605","2018-01-13 01:00","2018","01","13","01:00","-22.4","","-26.1","","72","","","","31","","36","","24.1","","101.87","","","","-37","","Blowing Snow"
"-94.07","58.74","CHURCHILL A","5060605","2018-01-13 02:00","2018","01","13","02:00","-23.2","","-26.9","","72","","","","30","","26","","24.1","","101.93","","","","-36","","Blowing Snow"
"-94.07","58.74","CHURCHILL A","5060605","2018-01-13 03:00","2018","01","13","03:00","-23.7","","-27.4","","72","","","","29","","27","","24.1","","101.97","","","","-37","","Blowing Snow"
"-94.07","58.74","CHURCHILL A","5060605","2018-01-13 04:00","2018","01","13","04:00","-24.3","","-28.2","","71","","","","28","","21","","24.1","","102.00","","","","-36","","Blowing Snow"
"-94.07","58.74","CHURCHILL A","5060605","2018-01-13 05:00","2018","01","13","05:00","-24.8","","-28.5","","72","","","","27","","21","","24.1","","102.01","","","","-37","","NA"
"-94.07","58.74","CHURCHILL A","5060605","2018-01-13 06:00","2018","01","13","06:00","-25.6","","-29.3","","72","","","","27","","22","","24.1","","101.99","","","","-38","","Mainly Clear"
"-94.07","58.74","CHURCHILL A","5060605","2018-01-13 07:00","2018","01","13","07:00","-25.9","","-29.7","","71","","","","27","","16","","24.1","","101.95","","","","-37","","NA"
"-94.07","58.74","CHURCHILL A","5060605","2018-01-13 08:00","2018","01","13","08:00","-26.2","","-30.0","","71","","","","26","","20","","24.1","","101.93","","","","-38","","NA"
"-94.07","58.74","CHURCHILL A","5060605","2018-01-13 09:00","2018","01","13","09:00","-26.7","","-30.6","","70","","","","27","","18","","24.1","","101.89","","","","-38","","Mainly Clear"
"-94.07","58.74","CHURCHILL A","5060605","2018-01-13 10:00","2018","01","13","10:00","-26.8","","-30.7","","70","","","","27","","21","","24.1","","101.89","","","","-39","","NA"
"-94.07","58.74","CHURCHILL A","5060605","2018-01-13 11:00","2018","01","13","11:00","-26.6","","-30.5","","70","","","","27","","18","","24.1","","101.86","","","","-38","","NA"
"-94.07","58.74","CHURCHILL A","5060605","2018-01-13 12:00","2018","01","13","12:00","-25.5","","-29.3","","71","","","","27","","23","","24.1","","101.79","","","","-38","","Mostly Cloudy"
"-94.07","58.74","CHURCHILL A","5060605","2018-01-13 13:00","2018","01","13","13:00","-25.3","","-29.1","","71","","","","27","","23","","24.1","","101.79","","","","-38","","NA"
"-94.07","58.74","CHURCHILL A","5060605","2018-01-13 14:00","2018","01","13","14:00","-24.9","","-28.9","","70","","","","27","","24","","24.1","","101.75","","","","-38","","NA"
"-94.07","58.74","CHURCHILL A","5060605","2018-01-13 15:00","2018","01","13","15:00","-24.9","","-28.7","","71","","","","27","","24","","24.1","","101.75","","","","-38","","Mostly Cloudy"
"-94.07","58.74","CHURCHILL A","5060605","2018-01-13 16:00","2018","01","13","16:00","-24.9","","-28.7","","71","","","","27","","19","","24.1","","101.75","","","","-36","","NA"
"-94.07","58.74","CHURCHILL A","5060605","2018-01-13 17:00","2018","01","13","17:00","-24.5","","-28.7","","69","","","","25","","18","","24.1","","101.74","","","","-36","","NA"
"-94.07","58.74","CHURCHILL A","5060605","2018-01-13 18:00","2018","01","13","18:00","-26.4","","-30.2","","71","","","","20","","9","","24.1","","101.74","","","","-34","","Clear"
"-94.07","58.74","CHURCHILL A","5060605","2018-01-13 19:00","2018","01","13","19:00","-27.6","","-31.1","","73","","","","23","","13","","24.1","","101.71","","","","-38","","NA"
"-94.07","58.74","CHURCHILL A","5060605","2018-01-13 20:00","2018","01","13","20:00","-27.7","","-31.3","","72","","","","24","","13","","24.1","","101.69","","","","-38","","NA"
"-94.07","58.74","CHURCHILL A","5060605","2018-01-13 21:00","2018","01","13","21:00","-27.8","","-31.4","","72","","","","24","","10","","24.1","","101.65","","","","-37","","Clear"
"-94.07","58.74","CHURCHILL A","5060605","2018-01-13 22:00","2018","01","13","22:00","-27.5","","-31.4","","70","","","","27","","12","","24.1","","101.62","","","","-37","","NA"
"-94.07","58.74","CHURCHILL A","5060605","2018-01-13 23:00","2018","01","13","23:00","-28.3","","-32.0","","71","","","","26","","21","","24.1","","101.56","","","","-41","","NA"
"-94.07","58.74","CHURCHILL A","5060605","2018-01-14 00:00","2018","01","14","00:00","-28.8","","-32.5","","71","","","","27","","17","","24.1","","101.54","","","","-41","","Mostly Cloudy"
"-94.07","58.74","CHURCHILL A","5060605","2018-01-14 01:00","2018","01","14","01:00","-29.1","","-32.8","","71","","","","27","","15","","24.1","","101.57","","","","-40","","NA"
"-94.07","58.74","CHURCHILL A","5060605","2018-01-14 02:00","2018","01","14","02:00","-29.6","","-33.1","","72","","","","27","","16","","24.1","","101.59","","","","-41","","NA"
"-94.07","58.74","CHURCHILL A","5060605","2018-01-14 03:00","2018","01","14","03:00","-30.2","","-33.9","","71","","","","28","","16","","24.1","","101.64","","","","-42","","Mainly Clear"
"-94.07","58.74","CHURCHILL A","5060605","2018-01-14 04:00","2018","01","14","04:00","-30.4","","-33.9","","72","","","","30","","18","","24.1","","101.71","","","","-43","","NA"
"-94.07","58.74","CHURCHILL A","5060605","2018-01-14 05:00","2018","01","14","05:00","-28.9","","-32.1","","75","","","","31","","18","","16.1","","101.72","","","","-41","","Ice Crystals"
"-94.07","58.74","CHURCHILL A","5060605","2018-01-14 06:00","2018","01","14","06:00","-29.3","","-32.5","","74","","","","31","","17","","16.1","","101.82","","","","-41","","Ice Crystals"
"-94.07","58.74","CHURCHILL A","5060605","2018-01-14 07:00","2018","01","14","07:00","-29.5","","-32.8","","74","","","","29","","15","","24.1","","101.95","","","","-41","","Ice Crystals"
"-94.07","58.74","CHURCHILL A","5060605","2018-01-14 08:00","2018","01","14","08:00","-29.4","","-32.5","","75","","","","29","","15","","24.1","","102.03","","","","-41","","Ice Crystals"
"-94.07","58.74","CHURCHILL A","5060605","2018-01-14 09:00","2018","01","14","09:00","-28.9","","-32.0","","75","","","","30","","17","","19.3","","102.15","","","","-41","","Ice Crystals"
"-94.07","58.74","CHURCHILL A","5060605","2018-01-14 10:00","2018","01","14","10:00","-27.7","","-30.7","","76","","","","31","","20","","4.8","","102.29","","","","-40","","Ice Crystals,Blowing Snow"
"-94.07","58.74","CHURCHILL A","5060605","2018-01-14 11:00","2018","01","14","11:00","-27.3","","-30.4","","75","","","","31","","24","","16.1","","102.39","","","","-41","","Ice Crystals,Blowing Snow"
"-94.07","58.74","CHURCHILL A","5060605","2018-01-14 12:00","2018","01","14","12:00","-26.9","","-30.2","","74","","","","31","","24","","16.1","","102.51","","","","-40","","Ice Crystals,Blowing Snow"
"-94.07","58.74","CHURCHILL A","5060605","2018-01-14 13:00","2018","01","14","13:00","-26.8","","-30.3","","73","","","","31","","23","","24.1","","102.57","","","","-40","","Ice Crystals,Blowing Snow"
"-94.07","58.74","CHURCHILL A","5060605","2018-01-14 14:00","2018","01","14","14:00","-26.8","","-30.4","","72","","","","31","","23","","24.1","","102.67","","","","-40","","Ice Crystals"
"-94.07","58.74","CHURCHILL A","5060605","2018-01-14 15:00","2018","01","14","15:00","-27.1","","-30.9","","71","","","","31","","25","","24.1","","102.85","","","","-41","","Clear"
"-94.07","58.74","CHURCHILL A","5060605","2018-01-14 16:00","2018","01","14","16:00","-27.5","","-31.3","","71","","","","30","","22","","24.1","","102.94","","","","-40","","NA"
"-94.07","58.74","CHURCHILL A","5060605","2018-01-14 17:00","2018","01","14","17:00","-27.5","","-31.4","","70","","","","31","","23","","24.1","","103.06","","","","-41","","NA"
"-94.07","58.74","CHURCHILL A","5060605","2018-01-14 18:00","2018","01","14","18:00","-28.2","","-31.9","","71","","","","29","","22","","24.1","","103.17","","","","-41","","Clear"
"-94.07","58.74","CHURCHILL A","5060605","2018-01-14 19:00","2018","01","14","19:00","-28.2","","-31.9","","71","","","","30","","21","","24.1","","103.21","","","","-41","","NA"
"-94.07","58.74","CHURCHILL A","5060605","2018-01-14 20:00","2018","01","14","20:00","-27.5","","-31.4","","70","","","","30","","25","","24.1","","103.27","","","","-41","","NA"
"-94.07","58.74","CHURCHILL A","5060605","2018-01-14 21:00","2018","01","14","21:00","-27.8","","-31.6","","71","","","","30","","25","","24.1","","103.28","","","","-42","","Clear"
"-94.07","58.74","CHURCHILL A","5060605","2018-01-14 22:00","2018","01","14","22:00","-27.8","","-31.6","","71","","","","30","","26","","24.1","","103.30","","","","-42","","Ice Crystals"
"-94.07","58.74","CHURCHILL A","5060605","2018-01-14 23:00","2018","01","14","23:00","-28.4","","-32.1","","71","","","","30","","21","","24.1","","103.39","","","","-41","","Ice Crystals"
"-94.07","58.74","CHURCHILL A","5060605","2018-01-15 00:00","2018","01","15","00:00","-28.9","","-32.6","","71","","","","29","","20","","24.1","","103.45","","","","-42","","Ice Crystals"
"-94.07","58.74","CHURCHILL A","5060605","2018-01-15 01:00","2018","01","15","01:00","-29.3","","-33.2","","70","","","","27","","18","","24.1","","103.44","","","","-42","","Ice Crystals"
"-94.07","58.74","CHURCHILL A","5060605","2018-01-15 02:00","2018","01","15","02:00","-29.7","","-33.4","","71","","","","29","","21","","24.1","","103.51","","","","-43","","Ice Crystals"
"-94.07","58.74","CHURCHILL A","5060605","2018-01-15 03:00","2018","01","15","03:00","-29.6","","-33.3","","71","","","","28","","19","","24.1","","103.59","","","","-42","","Ice Crystals"
"-94.07","58.74","CHURCHILL A","5060605","2018-01-15 04:00","2018","01","15","04:00","-30.3","","-33.8","","72","","","","27","","17","","24.1","","103.53","","","","-43","","Ice Crystals"
"-94.07","58.74","CHURCHILL A","5060605","2018-01-15 05:00","2018","01","15","05:00","-30.0","","-33.5","","72","","","","28","","16","","24.1","","103.56","","","","-42","","Ice Crystals"
"-94.07","58.74","CHURCHILL A","5060605","2018-01-15 06:00","2018","01","15","06:00","-28.6","","-32.2","","72","","","","29","","20","","24.1","","103.52","","","","-41","","Ice Crystals"
"-94.07","58.74","CHURCHILL A","5060605","2018-01-15 07:00","2018","01","15","07:00","-27.9","","-31.6","","71","","","","29","","18","","24.1","","103.52","","","","-40","","NA"
"-94.07","58.74","CHURCHILL A","5060605","2018-01-15 08:00","2018","01","15","08:00","-27.7","","-31.4","","71","","","","28","","21","","24.1","","103.46","","","","-40","","NA"
"-94.07","58.74","CHURCHILL A","5060605","2018-01-15 09:00","2018","01","15","09:00","-27.9","","-31.6","","71","","","","27","","23","","24.1","","103.41","","","","-41","","Mostly Cloudy"
"-94.07","58.74","CHURCHILL A","5060605","2018-01-15 10:00","2018","01","15","10:00","-27.7","","-31.6","","70","","","","27","","24","","24.1","","103.49","","","","-41","","NA"
"-94.07","58.74","CHURCHILL A","5060605","2018-01-15 11:00","2018","01","15","11:00","-27.0","","-30.9","","70","","","","27","","22","","24.1","","103.36","","","","-40","","NA"
"-94.07","58.74","CHURCHILL A","5060605","2018-01-15 12:00","2018","01","15","12:00","-26.2","","-30.1","","70","","","","26","","23","","24.1","","103.34","","","","-39","","Cloudy"
"-94.07","58.74","CHURCHILL A","5060605","2018-01-15 13:00","2018","01","15","13:00","-25.2","","-29.2","","70","","","","26","","26","","24.1","","103.23","","","","-39","","NA"
"-94.07","58.74","CHURCHILL A","5060605","2018-01-15 14:00","2018","01","15","14:00","-24.2","","-28.2","","70","","","","26","","22","","24.1","","103.11","","","","-36","","NA"
"-94.07","58.74","CHURCHILL A","5060605","2018-01-15 15:00","2018","01","15","15:00","-23.0","","-27.1","","70","","","","26","","22","","24.1","","103.02","","","","-35","","Cloudy"
"-94.07","58.74","CHURCHILL A","5060605","2018-01-15 16:00","2018","01","15","16:00","-21.7","","-26.1","","68","","","","24","","17","","24.1","","102.91","","","","-32","","NA"
"-94.07","58.74","CHURCHILL A","5060605","2018-01-15 17:00","2018","01","15","17:00","-21.1","","-25.1","","71","","","","23","","17","","24.1","","102.79","","","","-31","","NA"
"-94.07","58.74","CHURCHILL A","5060605","2018-01-15 18:00","2018","01","15","18:00","-20.9","","-24.9","","71","","","","23","","23","","24.1","","102.69","","","","-32","","Cloudy"
"-94.07","58.74","CHURCHILL A","5060605","2018-01-15 19:00","2018","01","15","19:00","-19.6","","-23.6","","71","","","","22","","22","","24.1","","102.50","","","","-30","","NA"
"-94.07","58.74","CHURCHILL A","5060605","2018-01-15 20:00","2018","01","15","20:00","-19.0","","-23.0","","71","","","","21","","27","","24.1","","102.24","","","","-31","","NA"
"-94.07","58.74","CHURCHILL A","5060605","2018-01-15 21:00","2018","01","15","21:00","-18.3","","-22.5","","70","","","","22","","36","","24.1","","101.99","","","","-31","","Cloudy"
"-94.07","58.74","CHURCHILL A","5060605","2018-01-15 22:00","2018","01","15","22:00","-17.4","","-21.9","","69","","","","22","","35","","24.1","","101.74","","","","-30","","NA"
"-94.07","58.74","CHURCHILL A","5060605","2018-01-15 23:00","2018","01","15","23:00","-16.7","","-21.0","","70","","","","23","","28","","24.1","","101.63","","","","-28","","NA"
"-94.07","58.74","CHURCHILL A","5060605","2018-01-16 00:00","2018","01","16","00:00","-15.8","","-20.3","","69","","","","23","","35","","24.1","","101.49","","","","-28","","Cloudy"
"-94.07","58.74","CHURCHILL A","5060605","2018-01-16 01:00","2018","01","16","01:00","-15.1","","-19.6","","69","","","","24","","33","","24.1","","101.33","","","","-27","","NA"
"-94.07","58.74","CHURCHILL A","5060605","2018-01-16 02:00","2018","01","16","02:00","-14.3","","-18.3","","72","","","","24","","22","","24.1","","101.24","","","","-24","","NA"
"-94.07","58.74","CHURCHILL A","5060605","2018-01-16 03:00","2018","01","16","03:00","-13.2","","-17.5","","70","","","","25","","23","","24.1","","101.12","","","","-23","","Cloudy"
"-94.07","58.74","CHURCHILL A","5060605","2018-01-16 04:00","2018","01","16","04:00","-12.8","","-17.0","","71","","","","25","","19","","24.1","","101.01","","","","-21","","Snow"
"-94.07","58.74","CHURCHILL A","5060605","2018-01-16 05:00","2018","01","16","05:00","-12.5","","-16.7","","71","","","","26","","24","","24.1","","100.89","","","","-22","","Snow"
"-94.07","58.74","CHURCHILL A","5060605","2018-01-16 06:00","2018","01","16","06:00","-12.3","","-16.2","","73","","","","26","","20","","24.1","","100.82","","","","-21","","Snow"
"-94.07","58.74","CHURCHILL A","5060605","2018-01-16 07:00","2018","01","16","07:00","-12.1","","-15.8","","74","","","","26","","26","","24.1","","100.74","","","","-22","","Snow"
"-94.07","58.74","CHURCHILL A","5060605","2018-01-16 08:00","2018","01","16","08:00","-11.7","","-15.3","","75","","","","25","","21","","24.1","","100.63","","","","-20","","Snow"
"-94.07","58.74","CHURCHILL A","5060605","2018-01-16 09:00","2018","01","16","09:00","-11.7","","-15.1","","76","","","","25","","21","","24.1","","100.48","","","","-20","","Snow"
"-94.07","58.74","CHURCHILL A","5060605","2018-01-16 10:00","2018","01","16","10:00","-11.4","","-14.8","","76","","","","24","","18","","24.1","","100.37","","","","-19","","Snow"
"-94.07","58.74","CHURCHILL A","5060605","2018-01-16 11:00","2018","01","16","11:00","-11.1","","-14.7","","75","","","","26","","17","","24.1","","100.30","","","","-19","","Snow"
"-94.07","58.74","CHURCHILL A","5060605","2018-01-16 12:00","2018","01","16","12:00","-11.0","","-14.2","","77","","","","26","","19","","24.1","","100.18","","","","-19","","Snow"
"-94.07","58.74","CHURCHILL A","5060605","2018-01-16 13:00","2018","01","16","13:00","-10.9","","-14.0","","78","","","","27","","18","","24.1","","100.09","","","","-19","","Snow"
"-94.07","58.74","CHURCHILL A","5060605","2018-01-16 14:00","2018","01","16","14:00","-10.8","","-13.6","","80","","","","28","","18","","24.1","","100.03","","","","-18","","NA"
"-94.07","58.74","CHURCHILL A","5060605","2018-01-16 15:00","2018","01","16","15:00","-10.8","","-12.1","","90","","","","30","","18","","24.1","","100.03","","","","-18","","Cloudy"
"-94.07","58.74","CHURCHILL A","5060605","2018-01-16 16:00","2018","01","16","16:00","-10.5","","-11.4","","93","","","","31","","22","","24.1","","100.05","","","","-19","","Snow"
"-94.07","58.74","CHURCHILL A","5060605","2018-01-16 17:00","2018","01","16","17:00","-10.0","","-10.9","","93","","","","30","","24","","9.7","","100.06","","","","-19","","Snow"
"-94.07","58.74","CHURCHILL A","5060605","2018-01-16 18:00","2018","01","16","18:00","-10.0","","-11.1","","92","","","","32","","23","","9.7","","100.08","","","","-18","","Snow,Blowing Snow"
"-94.07","58.74","CHURCHILL A","5060605","2018-01-16 19:00","2018","01","16","19:00","-9.4","","-11.2","","87","","","","34","","32","","12.9","","100.08","","","","-19","","Snow,Blowing Snow"
"-94.07","58.74","CHURCHILL A","5060605","2018-01-16 20:00","2018","01","16","20:00","-9.7","","-11.5","","87","","","","34","","32","","4.8","","100.11","","","","-19","","Snow,Blowing Snow"
"-94.07","58.74","CHURCHILL A","5060605","2018-01-16 21:00","2018","01","16","21:00","-10.1","","-12.0","","86","","","","35","","33","","16.1","","100.14","","","","-20","","Snow,Blowing Snow"
"-94.07","58.74","CHURCHILL A","5060605","2018-01-16 22:00","2018","01","16","22:00","-10.7","","-13.1","","83","","","","35","","30","","16.1","","100.16","","","","-20","","Snow,Blowing Snow"
"-94.07","58.74","CHURCHILL A","5060605","2018-01-16 23:00","2018","01","16","23:00","-10.7","","-12.6","","86","","","","35","","29","","9.7","","100.21","","","","-20","","Snow,Blowing Snow"
"-94.07","58.74","CHURCHILL A","5060605","2018-01-17 00:00","2018","01","17","00:00","-10.7","","-12.8","","85","","","","36","","29","","8.1","","100.24","","","","-20","","Snow,Blowing Snow"
"-94.07","58.74","CHURCHILL A","5060605","2018-01-17 01:00","2018","01","17","01:00","-10.5","","-12.6","","85","","","","1","","25","","11.3","","100.32","","","","-19","","Snow,Blowing Snow"
"-94.07","58.74","CHURCHILL A","5060605","2018-01-17 02:00","2018","01","17","02:00","-10.2","","-12.0","","87","","","","1","","28","","9.7","","100.37","","","","-19","","Snow,Blowing Snow"
"-94.07","58.74","CHURCHILL A","5060605","2018-01-17 03:00","2018","01","17","03:00","-11.1","","-13.0","","86","","","","3","","26","","16.1","","100.44","","","","-20","","Snow"
"-94.07","58.74","CHURCHILL A","5060605","2018-01-17 04:00","2018","01","17","04:00","-11.8","","-13.7","","86","","","","4","","26","","16.1","","100.58","","","","-21","","Snow"
"-94.07","58.74","CHURCHILL A","5060605","2018-01-17 05:00","2018","01","17","05:00","-12.6","","-14.5","","86","","","","4","","21","","16.1","","100.66","","","","-21","","Snow"
"-94.07","58.74","CHURCHILL A","5060605","2018-01-17 06:00","2018","01","17","06:00","-14.4","","-16.4","","85","","","","5","","18","","16.1","","100.73","","","","-23","","Mostly Cloudy"
"-94.07","58.74","CHURCHILL A","5060605","2018-01-17 07:00","2018","01","17","07:00","-17.0","","-18.5","","88","","","","3","","14","","16.1","","100.83","","","","-25","","NA"
"-94.07","58.74","CHURCHILL A","5060605","2018-01-17 08:00","2018","01","17","08:00","-18.1","","-19.8","","87","","","","4","","14","","24.1","","100.85","","","","-26","","Ice Crystals"
"-94.07","58.74","CHURCHILL A","5060605","2018-01-17 09:00","2018","01","17","09:00","-18.6","","-20.4","","86","","","","5","","17","","24.1","","100.90","","","","-28","","Ice Crystals"
"-94.07","58.74","CHURCHILL A","5060605","2018-01-17 10:00","2018","01","17","10:00","-18.7","","-20.5","","86","","","","4","","9","","24.1","","100.99","","","","-25","","Ice Crystals"
"-94.07","58.74","CHURCHILL A","5060605","2018-01-17 11:00","2018","01","17","11:00","-19.0","","-20.9","","85","","","","6","","9","","24.1","","101.00","","","","-26","","NA"
"-94.07","58.74","CHURCHILL A","5060605","2018-01-17 12:00","2018","01","17","12:00","-18.6","","-20.4","","86","","","","6","","5","","24.1","","101.03","","","","-23","","Clear"
"-94.07","58.74","CHURCHILL A","5060605","2018-01-17 13:00","2018","01","17","13:00","-18.9","","-20.8","","85","","","","6","","9","","24.1","","101.04","","","","-25","","NA"
"-94.07","58.74","CHURCHILL A","5060605","2018-01-17 14:00","2018","01","17","14:00","-18.6","","-20.4","","86","","","","7","","5","","24.1","","101.04","","","","-23","","NA"
"-94.07","58.74","CHURCHILL A","5060605","2018-01-17 15:00","2018","01","17","15:00","-18.9","","-20.8","","85","","","","36","","3","","24.1","","101.02","","","","-21","","Mainly Clear"
"-94.07","58.74","CHURCHILL A","5060605","2018-01-17 16:00","2018","01","17","16:00","-19.1","","-21.0","","85","","","","36","","2","","24.1","","101.08","","","","-21","","NA"
"-94.07","58.74","CHURCHILL A","5060605","2018-01-17 17:00","2018","01","17","17:00","-19.0","","-20.9","","85","","","","8","","4","","24.1","","101.08","","","","-22","","Snow"
"-94.07","58.74","CHURCHILL A","5060605","2018-01-17 18:00","2018","01","17","18:00","-19.1","","-21.0","","85","","","","11","","4","","24.1","","101.08","","","","-22","","Ice Crystals"
"-94.07","58.74","CHURCHILL A","5060605","2018-01-17 19:00","2018","01","17","19:00","-20.1","","-22.0","","85","","","","24","","6","","24.1","","101.13","","","","-25","","Ice Crystals"
"-94.07","58.74","CHURCHILL A","5060605","2018-01-17 20:00","2018","01","17","20:00","-19.6","","-21.5","","85","","","","36","","3","","24.1","","101.07","","","","-22","","Ice Crystals"
"-94.07","58.74","CHURCHILL A","5060605","2018-01-17 21:00","2018","01","17","21:00","-20.1","","-22.1","","84","","","","14","","5","","16.1","","101.02","","","","-24","","Ice Crystals"
"-94.07","58.74","CHURCHILL A","5060605","2018-01-17 22:00","2018","01","17","22:00","-21.2","","-23.4","","83","","","","18","","7","","6.4","","100.95","","","","-27","","Ice Crystals,Fog"
"-94.07","58.74","CHURCHILL A","5060605","2018-01-17 23:00","2018","01","17","23:00","-21.9","","-24.2","","82","","","","23","","9","","3.2","","100.97","","","","-29","","Ice Crystals,Fog"
"-94.07","58.74","CHURCHILL A","5060605","2018-01-18 00:00","2018","01","18","00:00","-23.3","","-25.6","","82","","","","23","","10","","9.7","","100.97","","","","-31","","Ice Crystals"
"-94.07","58.74","CHURCHILL A","5060605","2018-01-18 01:00","2018","01","18","01:00","-22.4","","-24.4","","84","","","","26","","9","","16.1","","100.95","","","","-30","","Snow"
"-94.07","58.74","CHURCHILL A","5060605","2018-01-18 02:00","2018","01","18","02:00","-20.7","","-23.0","","82","","","","23","","8","","16.1","","100.91","","","","-27","","Snow"
"-94.07","58.74","CHURCHILL A","5060605","2018-01-18 03:00","2018","01","18","03:00","-19.9","","-21.9","","84","","","","26","","7","","16.1","","100.86","","","","-26","","Snow"
"-94.07","58.74","CHURCHILL A","5060605","2018-01-18 04:00","2018","01","18","04:00","-18.8","","-20.7","","85","","","","26","","10","","16.1","","100.85","","","","-26","","Snow"
"-94.07","58.74","CHURCHILL A","5060605","2018-01-18 05:00","2018","01","18","05:00","-18.1","","-19.9","","86","","","","26","","10","","16.1","","100.88","","","","-25","","Snow"
"-94.07","58.74","CHURCHILL A","5060605","2018-01-18 06:00","2018","01","18","06:00","-18.0","","-19.8","","86","","","","26","","8","","16.1","","100.83","","","","-24","","Snow"
"-94.07","58.74","CHURCHILL A","5060605","2018-01-18 07:00","2018","01","18","07:00","-17.9","","-19.7","","86","","","","27","","8","","16.1","","100.76","","","","-24","","Snow"
"-94.07","58.74","CHURCHILL A","5060605","2018-01-18 08:00","2018","01","18","08:00","-18.3","","-20.2","","85","","","","27","","10","","24.1","","100.76","","","","-25","","Snow"
"-94.07","58.74","CHURCHILL A","5060605","2018-01-18 09:00","2018","01","18","09:00","-18.6","","-20.5","","85","","","","31","","11","","12.9","","100.75","","","","-26","","Snow"
"-94.07","58.74","CHURCHILL A","5060605","2018-01-18 10:00","2018","01","18","10:00","-18.6","","-20.5","","85","","","","29","","9","","19.3","","100.70","","","","-25","","Snow"
"-94.07","58.74","CHURCHILL A","5060605","2018-01-18 11:00","2018","01","18","11:00","-18.6","","-20.5","","85","","","","29","","9","","19.3","","100.73","","","","-25","","Snow"
"-94.07","58.74","CHURCHILL A","5060605","2018-01-18 12:00","2018","01","18","12:00","-18.4","","-20.3","","85","","","","29","","9","","19.3","","100.66","","","","-25","","Snow"
"-94.07","58.74","CHURCHILL A","5060605","2018-01-18 13:00","2018","01","18","13:00","-18.3","","-20.1","","86","","","","29","","8","","12.9","","100.62","","","","-24","","Snow"
"-94.07","58.74","CHURCHILL A","5060605","2018-01-18 14:00","2018","01","18","14:00","-18.2","","-20.0","","86","","","","26","","5","","12.9","","100.58","","","","-22","","Snow"
"-94.07","58.74","CHURCHILL A","5060605","2018-01-18 15:00","2018","01","18","15:00","-18.1","","-19.9","","86","","","","36","","3","","16.1","","100.53","","","","-21","","Snow"
"-94.07","58.74","CHURCHILL A","5060605","2018-01-18 16:00","2018","01","18","16:00","-17.7","","-19.5","","86","","","","13","","8","","24.1","","100.53","","","","-24","","Snow"
"-94.07","58.74","CHURCHILL A","5060605","2018-01-18 17:00","2018","01","18","17:00","-17.6","","-19.4","","86","","","","12","","6","","19.3","","100.51","","","","-22","","Snow"
"-94.07","58.74","CHURCHILL A","5060605","2018-01-18 18:00","2018","01","18","18:00","-17.5","","-19.3","","86","","","","9","","8","","24.1","","100.43","","","","-23","","Snow"
"-94.07","58.74","CHURCHILL A","5060605","2018-01-18 19:00","2018","01","18","19:00","-17.3","","-19.0","","87","","","","16","","9","","24.1","","100.45","","","","-24","","Snow"
"-94.07","58.74","CHURCHILL A","5060605","2018-01-18 20:00","2018","01","18","20:00","-17.2","","-19.0","","86","","","","11","","10","","16.1","","100.42","","","","-24","","Snow"
"-94.07","58.74","CHURCHILL A","5060605","2018-01-18 21:00","2018","01","18","21:00","-17.6","","-19.4","","86","","","","8","","17","","16.1","","100.28","","","","-27","","Snow"
"-94.07","58.74","CHURCHILL A","5060605","2018-01-18 22:00","2018","01","18","22:00","-18.5","","-20.4","","85","","","","10","","9","","16.1","","100.31","","","","-25","","Snow"
"-94.07","58.74","CHURCHILL A","5060605","2018-01-18 23:00","2018","01","18","23:00","-18.0","","-19.8","","86","","","","10","","9","","16.1","","100.31","","","","-24","","Snow"
"-94.07","58.74","CHURCHILL A","5060605","2018-01-19 00:00","2018","01","19","00:00","-17.6","","-19.4","","86","","","","11","","17","","16.1","","100.26","","","","-27","","Snow"
"-94.07","58.74","CHURCHILL A","5060605","2018-01-19 01:00","2018","01","19","01:00","-18.2","","-20.0","","86","","","","11","","9","","16.1","","100.23","","","","-25","","Snow"
"-94.07","58.74","CHURCHILL A","5060605","2018-01-19 02:00","2018","01","19","02:00","-18.4","","-20.3","","85","","","","6","","4","","16.1","","100.22","","","","-22","","Snow"
"-94.07","58.74","CHURCHILL A","5060605","2018-01-19 03:00","2018","01","19","03:00","-18.7","","-20.6","","85","","","","8","","6","","17.7","","100.20","","","","-24","","Snow"
"-94.07","58.74","CHURCHILL A","5060605","2018-01-19 04:00","2018","01","19","04:00","-18.4","","-20.2","","86","","","","7","","10","","16.1","","100.20","","","","-25","","Snow"
"-94.07","58.74","CHURCHILL A","5060605","2018-01-19 05:00","2018","01","19","05:00","-17.8","","-19.6","","86","","","","8","","8","","16.1","","100.18","","","","-24","","Snow"
"-94.07","58.74","CHURCHILL A","5060605","2018-01-19 06:00","2018","01","19","06:00","-17.7","","-19.5","","86","","","","5","","5","","16.1","","100.17","","","","-22","","Snow"
"-94.07","58.74","CHURCHILL A","5060605","2018-01-19 07:00","2018","01","19","07:00","-16.6","","-18.3","","87","","","","7","","12","","16.1","","100.14","","","","-24","","Snow"
"-94.07","58.74","CHURCHILL A","5060605","2018-01-19 08:00","2018","01","19","08:00","-16.0","","-17.6","","88","","","","7","","15","","24.1","","100.15","","","","-24","","Snow"
"-94.07","58.74","CHURCHILL A","5060605","2018-01-19 09:00","2018","01","19","09:00","-16.1","","-17.8","","87","","","","7","","16","","24.1","","100.18","","","","-25","","Snow"
"-94.07","58.74","CHURCHILL A","5060605","2018-01-19 10:00","2018","01","19","10:00","-16.3","","-18.0","","87","","","","8","","17","","24.1","","100.23","","","","-25","","Snow"
"-94.07","58.74","CHURCHILL A","5060605","2018-01-19 11:00","2018","01","19","11:00","-16.1","","-17.8","","87","","","","8","","17","","24.1","","100.25","","","","-25","","Snow"
"-94.07","58.74","CHURCHILL A","5060605","2018-01-19 12:00","2018","01","19","12:00","-16.0","","-17.7","","87","","","","8","","14","","24.1","","100.28","","","","-24","","Snow"
"-94.07","58.74","CHURCHILL A","5060605","2018-01-19 13:00","2018","01","19","13:00","-15.9","","-17.4","","88","","","","6","","11","","24.1","","100.29","","","","-23","","Snow"
"-94.07","58.74","CHURCHILL A","5060605","2018-01-19 14:00","2018","01","19","14:00","-15.8","","-17.4","","88","","","","6","","12","","24.1","","100.31","","","","-23","","Snow"
"-94.07","58.74","CHURCHILL A","5060605","2018-01-19 15:00","2018","01","19","15:00","-15.7","","-17.3","","88","","","","7","","16","","24.1","","100.34","","","","-24","","Snow"
"-94.07","58.74","CHURCHILL A","5060605","2018-01-19 16:00","2018","01","19","16:00","-15.9","","-17.4","","88","","","","7","","13","","24.1","","100.38","","","","-23","","Snow"
"-94.07","58.74","CHURCHILL A","5060605","2018-01-19 17:00","2018","01","19","17:00","-15.8","","-17.4","","88","","","","6","","18","","24.1","","100.45","","","","-25","","Snow"
"-94.07","58.74","CHURCHILL A","5060605","2018-01-19 18:00","2018","01","19","18:00","-15.8","","-17.4","","88","","","","6","","17","","24.1","","100.51","","","","-24","","Snow"
"-94.07","58.74","CHURCHILL A","5060605","2018-01-19 19:00","2018","01","19","19:00","-16.1","","-17.8","","87","","","","5","","16","","24.1","","100.54","","","","-25","","Snow"
"-94.07","58.74","CHURCHILL A","5060605","2018-01-19 20:00","2018","01","19","20:00","-16.2","","-17.9","","87","","","","5","","14","","24.1","","100.59","","","","-24","","Snow"
"-94.07","58.74","CHURCHILL A","5060605","2018-01-19 21:00","2018","01","19","21:00","-16.2","","-17.9","","87","","","","5","","14","","24.1","","100.63","","","","-24","","Snow"
"-94.07","58.74","CHURCHILL A","5060605","2018-01-19 22:00","2018","01","19","22:00","-16.4","","-18.1","","87","","","","5","","12","","24.1","","100.68","","","","-24","","Snow"
"-94.07","58.74","CHURCHILL A","5060605","2018-01-19 23:00","2018","01","19","23:00","-16.3","","-18.0","","87","","","","2","","17","","16.1","","100.73","","","","-25","","Snow"
"-94.07","58.74","CHURCHILL A","5060605","2018-01-20 00:00","2018","01","20","00:00","-16.5","","-18.2","","87","","","","1","","17","","11.3","","100.78","","","","-25","","Snow"
"-94.07","58.74","CHURCHILL A","5060605","2018-01-20 01:00","2018","01","20","01:00","-17.1","","-18.9","","86","","","","1","","19","","16.1","","100.83","","","","-27","","Snow"
"-94.07","58.74","CHURCHILL A","5060605","2018-01-20 02:00","2018","01","20","02:00","-17.4","","-19.4","","85","","","","1","","20","","16.1","","100.89","","","","-27","","Snow"
"-94.07","58.74","CHURCHILL A","5060605","2018-01-20 03:00","2018","01","20","03:00","-17.6","","-19.7","","84","","","","2","","21","","16.1","","100.96","","","","-28","","Snow"
"-94.07","58.74","CHURCHILL A","5060605","2018-01-20 04:00","2018","01","20","04:00","-17.8","","-20.2","","82","","","","2","","21","","12.9","","101.01","","","","-28","","Snow"
"-94.07","58.74","CHURCHILL A","5060605","2018-01-20 05:00","2018","01","20","05:00","-18.1","","-20.6","","81","","","","6","","16","","16.1","","101.09","","","","-27","","Snow"
"-94.07","58.74","CHURCHILL A","5060605","2018-01-20 06:00","2018","01","20","06:00","-18.3","","-21.4","","77","","","","4","","16","","16.1","","101.15","","","","-27","","Snow"
"-94.07","58.74","CHURCHILL A","5060605","2018-01-20 07:00","2018","01","20","07:00","-18.5","","-21.6","","77","","","","3","","17","","12.9","","101.22","","","","-28","","Snow"
"-94.07","58.74","CHURCHILL A","5060605","2018-01-20 08:00","2018","01","20","08:00","-19.2","","-22.4","","76","","","","3","","21","","12.9","","101.27","","","","-30","","Snow"
"-94.07","58.74","CHURCHILL A","5060605","2018-01-20 09:00","2018","01","20","09:00","-20.2","","-23.6","","75","","","","2","","21","","19.3","","101.36","","","","-31","","Snow"
"-94.07","58.74","CHURCHILL A","5060605","2018-01-20 10:00","2018","01","20","10:00","-21.6","","-24.5","","78","","","","2","","16","","24.1","","101.43","","","","-31","","Ice Crystals"
"-94.07","58.74","CHURCHILL A","5060605","2018-01-20 11:00","2018","01","20","11:00","-21.8","","-24.8","","77","","","","2","","15","","24.1","","101.49","","","","-31","","Ice Crystals"
"-94.07","58.74","CHURCHILL A","5060605","2018-01-20 12:00","2018","01","20","12:00","-21.6","","-24.6","","77","","","","2","","16","","24.1","","101.52","","","","-31","","Mostly Cloudy"
"-94.07","58.74","CHURCHILL A","5060605","2018-01-20 13:00","2018","01","20","13:00","-21.5","","-24.5","","77","","","","2","","14","","24.1","","101.57","","","","-31","","NA"
"-94.07","58.74","CHURCHILL A","5060605","2018-01-20 14:00","2018","01","20","14:00","-21.5","","-24.4","","78","","","","2","","13","","24.1","","101.63","","","","-30","","NA"
"-94.07","58.74","CHURCHILL A","5060605","2018-01-20 15:00","2018","01","20","15:00","-21.9","","-24.6","","79","","","","36","","14","","24.1","","101.72","","","","-31","","Mostly Cloudy"
"-94.07","58.74","CHURCHILL A","5060605","2018-01-20 16:00","2018","01","20","16:00","-22.1","","-24.8","","79","","","","36","","18","","24.1","","101.79","","","","-33","","Snow"
"-94.07","58.74","CHURCHILL A","5060605","2018-01-20 17:00","2018","01","20","17:00","-22.2","","-24.9","","79","","","","1","","17","","19.3","","101.86","","","","-32","","Snow"
"-94.07","58.74","CHURCHILL A","5060605","2018-01-20 18:00","2018","01","20","18:00","-24.1","","-26.5","","81","","","","32","","16","","4.8","","101.91","","","","-34","","Ice Crystals"
"-94.07","58.74","CHURCHILL A","5060605","2018-01-20 19:00","2018","01","20","19:00","-24.4","","-26.8","","81","","","","31","","11","","6.4","","101.98","","","","-33","","Ice Crystals"
"-94.07","58.74","CHURCHILL A","5060605","2018-01-20 20:00","2018","01","20","20:00","-21.3","","-23.8","","81","","","","2","","15","","16.1","","102.01","","","","-31","","Ice Crystals"
"-94.07","58.74","CHURCHILL A","5060605","2018-01-20 21:00","2018","01","20","21:00","-21.2","","-23.6","","81","","","","2","","17","","16.1","","102.04","","","","-31","","Snow"
"-94.07","58.74","CHURCHILL A","5060605","2018-01-20 22:00","2018","01","20","22:00","-23.0","","-26.0","","77","","","","29","","13","","16.1","","102.12","","","","-32","","Snow,Ice Crystals"
"-94.07","58.74","CHURCHILL A","5060605","2018-01-20 23:00","2018","01","20","23:00","-24.4","","-26.8","","81","","","","31","","14","","11.3","","102.23","","","","-34","","Ice Crystals"
"-94.07","58.74","CHURCHILL A","5060605","2018-01-21 00:00","2018","01","21","00:00","-23.2","","-25.5","","82","","","","33","","17","","16.1","","102.27","","","","-34","","Ice Crystals"
"-94.07","58.74","CHURCHILL A","5060605","2018-01-21 01:00","2018","01","21","01:00","-23.5","","-25.8","","82","","","","34","","21","","6.4","","102.32","","","","-35","","Snow,Blowing Snow"
"-94.07","58.74","CHURCHILL A","5060605","2018-01-21 02:00","2018","01","21","02:00","-23.1","","-25.4","","82","","","","35","","21","","16.1","","102.39","","","","-35","","Snow,Blowing Snow"
"-94.07","58.74","CHURCHILL A","5060605","2018-01-21 03:00","2018","01","21","03:00","-23.8","","-26.1","","82","","","","34","","18","","12.9","","102.48","","","","-35","","Snow,Blowing Snow"
"-94.07","58.74","CHURCHILL A","5060605","2018-01-21 04:00","2018","01","21","04:00","-24.3","","-26.7","","81","","","","34","","15","","16.1","","102.55","","","","-34","","Snow"
"-94.07","58.74","CHURCHILL A","5060605","2018-01-21 05:00","2018","01","21","05:00","-25.2","","-27.7","","80","","","","30","","14","","4.8","","102.57","","","","-35","","Snow,Fog"
"-94.07","58.74","CHURCHILL A","5060605","2018-01-21 06:00","2018","01","21","06:00","-25.3","","-27.9","","79","","","","29","","11","","9.7","","102.64","","","","-34","","Snow"
"-94.07","58.74","CHURCHILL A","5060605","2018-01-21 07:00","2018","01","21","07:00","-25.4","","-28.0","","79","","","","30","","13","","6.4","","102.69","","","","-35","","Snow"
"-94.07","58.74","CHURCHILL A","5060605","2018-01-21 08:00","2018","01","21","08:00","-25.5","","-28.1","","79","","","","30","","12","","8.1","","102.71","","","","-35","","Snow"
"-94.07","58.74","CHURCHILL A","5060605","2018-01-21 09:00","2018","01","21","09:00","-26.4","","-29.2","","78","","","","28","","14","","6.4","","102.76","","","","-37","","Snow"
"-94.07","58.74","CHURCHILL A","5060605","2018-01-21 10:00","2018","01","21","10:00","-26.8","","-29.6","","78","","","","28","","16","","4.0","","102.81","","","","-38","","Snow,Fog"
"-94.07","58.74","CHURCHILL A","5060605","2018-01-21 11:00","2018","01","21","11:00","-28.0","","-31.0","","76","","","","28","","17","","24.1","","102.84","","","","-40","","Snow"
"-94.07","58.74","CHURCHILL A","5060605","2018-01-21 12:00","2018","01","21","12:00","-28.9","","-31.9","","76","","","","27","","13","","24.1","","102.86","","","","-39","","Mainly Clear"
"-94.07","58.74","CHURCHILL A","5060605","2018-01-21 13:00","2018","01","21","13:00","-28.4","","-31.4","","76","","","","30","","11","","24.1","","102.86","","","","-38","","NA"
"-94.07","58.74","CHURCHILL A","5060605","2018-01-21 14:00","2018","01","21","14:00","-28.3","","-31.3","","76","","","","29","","10","","24.1","","102.90","","","","-37","","NA"
"-94.07","58.74","CHURCHILL A","5060605","2018-01-21 15:00","2018","01","21","15:00","-28.6","","-31.6","","76","","","","28","","9","","24.1","","102.92","","","","-37","","Mainly Clear"
"-94.07","58.74","CHURCHILL A","5060605","2018-01-21 16:00","2018","01","21","16:00","-29.3","","-32.4","","75","","","","26","","8","","24.1","","102.97","","","","-37","","NA"
"-94.07","58.74","CHURCHILL A","5060605","2018-01-21 17:00","2018","01","21","17:00","-30.3","","-33.5","","74","","","","26","","9","","24.1","","102.98","","","","-39","","NA"
"-94.07","58.74","CHURCHILL A","5060605","2018-01-21 18:00","2018","01","21","18:00","-30.2","","-33.4","","74","","","","25","","9","","24.1","","102.98","","","","-39","","Mainly Clear"
"-94.07","58.74","CHURCHILL A","5060605","2018-01-21 19:00","2018","01","21","19:00","-30.1","","-33.3","","74","","","","26","","9","","24.1","","103.02","","","","-39","","NA"
"-94.07","58.74","CHURCHILL A","5060605","2018-01-21 20:00","2018","01","21","20:00","-30.3","","-33.5","","74","","","","26","","8","","24.1","","102.98","","","","-38","","NA"
"-94.07","58.74","CHURCHILL A","5060605","2018-01-21 21:00","2018","01","21","21:00","-30.0","","-33.2","","74","","","","26","","8","","24.1","","102.99","","","","-38","","Clear"
"-94.07","58.74","CHURCHILL A","5060605","2018-01-21 22:00","2018","01","21","22:00","-31.5","","-34.9","","73","","","","24","","9","","24.1","","103.02","","","","-40","","NA"
"-94.07","58.74","CHURCHILL A","5060605","2018-01-21 23:00","2018","01","21","23:00","-31.8","","-35.1","","73","","","","22","","8","","24.1","","103.04","","","","-40","","NA"
"-94.07","58.74","CHURCHILL A","5060605","2018-01-22 00:00","2018","01","22","00:00","-32.3","","-35.8","","72","","","","22","","10","","24.1","","103.05","","","","-42","","Mainly Clear"
"-94.07","58.74","CHURCHILL A","5060605","2018-01-22 01:00","2018","01","22","01:00","-32.8","","-36.4","","71","","","","23","","9","","24.1","","103.07","","","","-42","","NA"
"-94.07","58.74","CHURCHILL A","5060605","2018-01-22 02:00","2018","01","22","02:00","-32.3","","-35.8","","72","","","","24","","10","","24.1","","103.08","","","","-42","","NA"
"-94.07","58.74","CHURCHILL A","5060605","2018-01-22 03:00","2018","01","22","03:00","-31.1","","-34.3","","74","","","","23","","5","","24.1","","103.10","","","","-37","","Cloudy"
"-94.07","58.74","CHURCHILL A","5060605","2018-01-22 04:00","2018","01","22","04:00","-30.4","","-33.6","","74","","","","18","","5","","24.1","","103.11","","","","-36","","NA"
"-94.07","58.74","CHURCHILL A","5060605","2018-01-22 05:00","2018","01","22","05:00","-29.2","","-32.3","","75","","","","20","","5","","24.1","","103.08","","","","-35","","NA"
"-94.07","58.74","CHURCHILL A","5060605","2018-01-22 06:00","2018","01","22","06:00","-28.6","","-31.7","","75","","","","18","","9","","16.1","","103.07","","","","-37","","Snow"
"-94.07","58.74","CHURCHILL A","5060605","2018-01-22 07:00","2018","01","22","07:00","-28.6","","-31.6","","76","","","","18","","13","","16.1","","103.06","","","","-39","","Snow"
"-94.07","58.74","CHURCHILL A","5060605","2018-01-22 08:00","2018","01","22","08:00","-28.2","","-31.2","","76","","","","19","","8","","16.1","","103.06","","","","-36","","Snow"
"-94.07","58.74","CHURCHILL A","5060605","2018-01-22 09:00","2018","01","22","09:00","-27.7","","-30.7","","76","","","","20","","8","","12.9","","103.07","","","","-35","","Snow"
"-94.07","58.74","CHURCHILL A","5060605","2018-01-22 10:00","2018","01","22","10:00","-26.3","","-29.1","","78","","","","20","","7","","12.9","","103.07","","","","-33","","Snow"
"-94.07","58.74","CHURCHILL A","5060605","2018-01-22 11:00","2018","01","22","11:00","-25.2","","-28.0","","78","","","","19","","10","","12.9","","103.08","","","","-33","","Snow"
"-94.07","58.74","CHURCHILL A","5060605","2018-01-22 12:00","2018","01","22","12:00","-25.1","","-27.8","","79","","","","18","","14","","12.9","","103.07","","","","-35","","Snow"
"-94.07","58.74","CHURCHILL A","5060605","2018-01-22 13:00","2018","01","22","13:00","-24.8","","-27.5","","79","","","","18","","10","","12.9","","103.05","","","","-33","","Snow"
"-94.07","58.74","CHURCHILL A","5060605","2018-01-22 14:00","2018","01","22","14:00","-24.2","","-26.7","","80","","","","18","","10","","16.1","","103.03","","","","-32","","Snow"
"-94.07","58.74","CHURCHILL A","5060605","2018-01-22 15:00","2018","01","22","15:00","-24.0","","-26.5","","80","","","","18","","8","","24.1","","103.01","","","","-31","","Snow"
"-94.07","58.74","CHURCHILL A","5060605","2018-01-22 16:00","2018","01","22","16:00","-23.3","","-25.7","","81","","","","21","","7","","24.1","","103.03","","","","-29","","Snow"
"-94.07","58.74","CHURCHILL A","5060605","2018-01-22 17:00","2018","01","22","17:00","-23.3","","-25.7","","81","","","","18","","6","","24.1","","103.05","","","","-29","","Snow"
"-94.07","58.74","CHURCHILL A","5060605","2018-01-22 18:00","2018","01","22","18:00","-23.5","","-26.0","","80","","","","16","","6","","24.1","","103.03","","","","-29","","Snow"
"-94.07","58.74","CHURCHILL A","5060605","2018-01-22 19:00","2018","01","22","19:00","-23.6","","-26.0","","81","","","","16","","7","","24.1","","103.01","","","","-30","","Snow"
"-94.07","58.74","CHURCHILL A","5060605","2018-01-22 20:00","2018","01","22","20:00","-23.6","","-26.1","","80","","","","14","","5","","24.1","","103.01","","","","-28","","Snow"
"-94.07","58.74","CHURCHILL A","5060605","2018-01-22 21:00","2018","01","22","21:00","-23.6","","-26.0","","81","","","","9","","6","","24.1","","102.97","","","","-29","","Snow"
"-94.07","58.74","CHURCHILL A","5060605","2018-01-22 22:00","2018","01","22","22:00","-23.9","","-26.4","","80","","","","9","","10","","24.1","","102.96","","","","-32","","Snow"
"-94.07","58.74","CHURCHILL A","5060605","2018-01-22 23:00","2018","01","22","23:00","-24.6","","-27.2","","79","","","","8","","9","","24.1","","102.95","","","","-32","","Ice Crystals"
"-94.07","58.74","CHURCHILL A","5060605","2018-01-23 00:00","2018","01","23","00:00","-25.0","","-27.6","","79","","","","7","","11","","24.1","","102.93","","","","-34","","Ice Crystals"
"-94.07","58.74","CHURCHILL A","5060605","2018-01-23 01:00","2018","01","23","01:00","-25.7","","-28.3","","79","","","","9","","10","","24.1","","102.91","","","","-34","","Ice Crystals"
"-94.07","58.74","CHURCHILL A","5060605","2018-01-23 02:00","2018","01","23","02:00","-25.9","","-28.5","","79","","","","7","","9","","24.1","","102.90","","","","-34","","Ice Crystals"
"-94.07","58.74","CHURCHILL A","5060605","2018-01-23 03:00","2018","01","23","03:00","-24.8","","-27.5","","79","","","","10","","10","","24.1","","102.93","","","","-33","","Clear"
"-94.07","58.74","CHURCHILL A","5060605","2018-01-23 04:00","2018","01","23","04:00","-25.5","","-28.3","","78","","","","8","","10","","24.1","","102.89","","","","-34","","NA"
"-94.07","58.74","CHURCHILL A","5060605","2018-01-23 05:00","2018","01","23","05:00","-25.5","","-28.3","","78","","","","10","","13","","24.1","","102.90","","","","-35","","NA"
"-94.07","58.74","CHURCHILL A","5060605","2018-01-23 06:00","2018","01","23","06:00","-26.3","","-29.1","","78","","","","10","","11","","24.1","","102.91","","","","-35","","Clear"
"-94.07","58.74","CHURCHILL A","5060605","2018-01-23 07:00","2018","01","23","07:00","-26.2","","-28.8","","79","","","","10","","14","","24.1","","102.86","","","","-36","","NA"
"-94.07","58.74","CHURCHILL A","5060605","2018-01-23 08:00","2018","01","23","08:00","-26.2","","-28.8","","79","","","","10","","14","","24.1","","102.85","","","","-36","","NA"
"-94.07","58.74","CHURCHILL A","5060605","2018-01-23 09:00","2018","01","23","09:00","-27.4","","-30.3","","77","","","","10","","13","","24.1","","102.84","","","","-37","","Mainly Clear"
"-94.07","58.74","CHURCHILL A","5060605","2018-01-23 10:00","2018","01","23","10:00","-28.1","","-31.2","","75","","","","18","","4","","24.1","","102.88","","","","-32","","NA"
"-94.07","58.74","CHURCHILL A","5060605","2018-01-23 11:00","2018","01","23","11:00","-26.7","","-29.6","","77","","","","15","","8","","24.1","","102.88","","","","-34","","NA"
"-94.07","58.74","CHURCHILL A","5060605","2018-01-23 12:00","2018","01","23","12:00","-25.5","","-28.3","","78","","","","14","","5","","24.1","","102.83","","","","-31","","Mainly Clear"
"-94.07","58.74","CHURCHILL A","5060605","2018-01-23 13:00","2018","01","23","13:00","-24.7","","-27.4","","79","","","","18","","7","","24.1","","102.80","","","","-31","","NA"
"-94.07","58.74","CHURCHILL A","5060605","2018-01-23 14:00","2018","01","23","14:00","-25.3","","-27.9","","79","","","","23","","5","","6.4","","102.78","","","","-30","","Ice Crystals"
"-94.07","58.74","CHURCHILL A","5060605","2018-01-23 15:00","2018","01","23","15:00","-25.8","","-28.6","","78","","","","23","","4","","6.4","","102.76","","","","-30","","Mostly Cloudy"
"-94.07","58.74","CHURCHILL A","5060605","2018-01-23 16:00","2018","01","23","16:00","-26.4","","-29.2","","78","","","","21","","3","","24.1","","102.77","","","","-29","","NA"
"-94.07","58.74","CHURCHILL A","5060605","2018-01-23 17:00","2018","01","23","17:00","-27.3","","-30.2","","77","","","","19","","7","","24.1","","102.79","","","","-34","","NA"
"-94.07","58.74","CHURCHILL A","5060605","2018-01-23 18:00","2018","01","23","18:00","-27.4","","-30.3","","77","","","","19","","5","","24.1","","102.75","","","","-33","","Mainly Clear"
"-94.07","58.74","CHURCHILL A","5060605","2018-01-23 19:00","2018","01","23","19:00","-27.6","","-30.6","","76","","","","20","","8","","0.4","","102.73","","","","-35","","Freezing Fog"
"-94.07","58.74","CHURCHILL A","5060605","2018-01-23 20:00","2018","01","23","20:00","-28.1","","-31.1","","76","","","","19","","7","","1.6","","102.70","","","","-35","","Fog"
"-94.07","58.74","CHURCHILL A","5060605","2018-01-23 21:00","2018","01","23","21:00","-29.4","","-32.6","","74","","","","25","","9","","9.7","","102.73","","","","-38","","Fog"
"-94.07","58.74","CHURCHILL A","5060605","2018-01-23 22:00","2018","01","23","22:00","-29.8","","-33.0","","74","","","","21","","9","","2.4","","102.69","","","","-38","","Fog"
"-94.07","58.74","CHURCHILL A","5060605","2018-01-23 23:00","2018","01","23","23:00","-29.7","","-32.8","","75","","","","19","","7","","4.8","","102.65","","","","-37","","Fog"
"-94.07","58.74","CHURCHILL A","5060605","2018-01-24 00:00","2018","01","24","00:00","-30.1","","-33.3","","74","","","","25","","5","","12.9","","102.64","","","","-36","","Mainly Clear"
"-94.07","58.74","CHURCHILL A","5060605","2018-01-24 01:00","2018","01","24","01:00","-31.1","","-34.5","","73","","","","21","","6","","8.1","","102.61","","","","-38","","Fog"
"-94.07","58.74","CHURCHILL A","5060605","2018-01-24 02:00","2018","01","24","02:00","-32.2","","-35.7","","72","","","","23","","9","","8.1","","102.65","","","","-41","","Fog"
"-94.07","58.74","CHURCHILL A","5060605","2018-01-24 03:00","2018","01","24","03:00","-32.1","","-35.6","","72","","","","26","","9","","4.8","","102.61","","","","-41","","Fog"
"-94.07","58.74","CHURCHILL A","5060605","2018-01-24 04:00","2018","01","24","04:00","-32.1","","-35.6","","72","","","","27","","6","","8.1","","102.61","","","","-39","","Fog"
"-94.07","58.74","CHURCHILL A","5060605","2018-01-24 05:00","2018","01","24","05:00","-32.3","","-35.9","","71","","","","25","","11","","4.8","","102.58","","","","-42","","Fog"
"-94.07","58.74","CHURCHILL A","5060605","2018-01-24 06:00","2018","01","24","06:00","-32.2","","-35.7","","72","","","","26","","11","","4.0","","102.60","","","","-42","","Fog"
"-94.07","58.74","CHURCHILL A","5060605","2018-01-24 07:00","2018","01","24","07:00","-32.4","","-35.9","","72","","","","25","","10","","4.8","","102.53","","","","-42","","Fog"
"-94.07","58.74","CHURCHILL A","5060605","2018-01-24 08:00","2018","01","24","08:00","-32.4","","-36.0","","71","","","","22","","5","","6.4","","102.51","","","","-38","","Fog"
"-94.07","58.74","CHURCHILL A","5060605","2018-01-24 09:00","2018","01","24","09:00","-32.8","","-36.4","","71","","","","20","","10","","4.8","","102.54","","","","-42","","Fog"
"-94.07","58.74","CHURCHILL A","5060605","2018-01-24 10:00","2018","01","24","10:00","-32.6","","-36.2","","71","","","","19","","8","","2.4","","102.50","","","","-41","","Fog"
"-94.07","58.74","CHURCHILL A","5060605","2018-01-24 11:00","2018","01","24","11:00","-30.3","","-33.7","","73","","","","23","","5","","8.1","","102.50","","","","-36","","Fog"
"-94.07","58.74","CHURCHILL A","5060605","2018-01-24 12:00","2018","01","24","12:00","-28.7","","-31.8","","75","","","","23","","8","","16.1","","102.49","","","","-36","","Mainly Clear"
"-94.07","58.74","CHURCHILL A","5060605","2018-01-24 13:00","2018","01","24","13:00","-28.1","","-31.1","","76","","","","24","","7","","16.1","","102.47","","","","-35","","NA"
"-94.07","58.74","CHURCHILL A","5060605","2018-01-24 14:00","2018","01","24","14:00","-27.7","","-30.7","","76","","","","26","","10","","24.1","","102.44","","","","-36","","NA"
"-94.07","58.74","CHURCHILL A","5060605","2018-01-24 15:00","2018","01","24","15:00","-28.0","","-31.0","","76","","","","27","","5","","24.1","","102.41","","","","-33","","Mainly Clear"
"-94.07","58.74","CHURCHILL A","5060605","2018-01-24 16:00","2018","01","24","16:00","-28.4","","-31.4","","76","","","","17","","8","","24.1","","102.39","","","","-36","","NA"
"-94.07","58.74","CHURCHILL A","5060605","2018-01-24 17:00","2018","01","24","17:00","-28.4","","-31.4","","76","","","","20","","7","","24.1","","102.39","","","","-35","","NA"
"-94.07","58.74","CHURCHILL A","5060605","2018-01-24 18:00","2018","01","24","18:00","-28.9","","-32.0","","75","","","","18","","10","","24.1","","102.39","","","","-38","","Mainly Clear"
"-94.07","58.74","CHURCHILL A","5060605","2018-01-24 19:00","2018","01","24","19:00","-29.7","","-33.0","","74","","","","19","","10","","24.1","","102.34","","","","-39","","NA"
"-94.07","58.74","CHURCHILL A","5060605","2018-01-24 20:00","2018","01","24","20:00","-29.7","","-33.0","","74","","","","19","","10","","24.1","","102.31","","","","-39","","NA"
"-94.07","58.74","CHURCHILL A","5060605","2018-01-24 21:00","2018","01","24","21:00","-30.6","","-34.0","","73","","","","20","","12","","24.1","","102.31","","","","-41","","Mainly Clear"
"-94.07","58.74","CHURCHILL A","5060605","2018-01-24 22:00","2018","01","24","22:00","-31.2","","-34.6","","73","","","","20","","13","","24.1","","102.29","","","","-42","","NA"
"-94.07","58.74","CHURCHILL A","5060605","2018-01-24 23:00","2018","01","24","23:00","-31.7","","-35.2","","72","","","","19","","13","","24.1","","102.25","","","","-43","","NA"
"-94.07","58.74","CHURCHILL A","5060605","2018-01-25 00:00","2018","01","25","00:00","-32.0","","-35.5","","72","","","","19","","14","","24.1","","102.26","","","","-43","","Clear"
"-94.07","58.74","CHURCHILL A","5060605","2018-01-25 01:00","2018","01","25","01:00","-32.1","","-35.6","","72","","","","20","","13","","24.1","","102.20","","","","-43","","NA"
"-94.07","58.74","CHURCHILL A","5060605","2018-01-25 02:00","2018","01","25","02:00","-32.0","","-35.5","","72","","","","20","","13","","24.1","","102.14","","","","-43","","NA"
"-94.07","58.74","CHURCHILL A","5060605","2018-01-25 03:00","2018","01","25","03:00","-32.1","","-35.6","","72","","","","19","","14","","24.1","","102.12","","","","-44","","Mainly Clear"
"-94.07","58.74","CHURCHILL A","5060605","2018-01-25 04:00","2018","01","25","04:00","-31.7","","-35.2","","72","","","","20","","12","","24.1","","102.11","","","","-42","","NA"
"-94.07","58.74","CHURCHILL A","5060605","2018-01-25 05:00","2018","01","25","05:00","-31.4","","-34.8","","73","","","","20","","12","","24.1","","102.07","","","","-42","","NA"
"-94.07","58.74","CHURCHILL A","5060605","2018-01-25 06:00","2018","01","25","06:00","-31.4","","-34.8","","73","","","","20","","11","","24.1","","102.04","","","","-41","","Mostly Cloudy"
"-94.07","58.74","CHURCHILL A","5060605","2018-01-25 07:00","2018","01","25","07:00","-32.2","","-35.7","","72","","","","19","","11","","24.1","","102.02","","","","-42","","NA"
"-94.07","58.74","CHURCHILL A","5060605","2018-01-25 08:00","2018","01","25","08:00","-33.0","","-36.6","","71","","","","21","","14","","24.1","","101.97","","","","-45","","NA"
"-94.07","58.74","CHURCHILL A","5060605","2018-01-25 09:00","2018","01","25","09:00","-32.7","","-36.3","","71","","","","21","","14","","24.1","","101.93","","","","-44","","Clear"
"-94.07","58.74","CHURCHILL A","5060605","2018-01-25 10:00","2018","01","25","10:00","-31.6","","-35.1","","72","","","","20","","14","","24.1","","101.90","","","","-43","","NA"
"-94.07","58.74","CHURCHILL A","5060605","2018-01-25 11:00","2018","01","25","11:00","-28.6","","-31.7","","75","","","","21","","6","","24.1","","101.90","","","","-35","","NA"
"-94.07","58.74","CHURCHILL A","5060605","2018-01-25 12:00","2018","01","25","12:00","-26.7","","-29.6","","77","","","","20","","8","","24.1","","101.86","","","","-34","","Mainly Clear"
"-94.07","58.74","CHURCHILL A","5060605","2018-01-25 13:00","2018","01","25","13:00","-24.7","","-27.4","","79","","","","22","","7","","24.1","","101.81","","","","-31","","NA"
"-94.07","58.74","CHURCHILL A","5060605","2018-01-25 14:00","2018","01","25","14:00","-24.9","","-27.7","","78","","","","17","","10","","24.1","","101.74","","","","-33","","NA"
"-94.07","58.74","CHURCHILL A","5060605","2018-01-25 15:00","2018","01","25","15:00","-24.3","","-27.0","","79","","","","18","","10","","24.1","","101.73","","","","-32","","Mainly Clear"
"-94.07","58.74","CHURCHILL A","5060605","2018-01-25 16:00","2018","01","25","16:00","-25.3","","-28.1","","78","","","","19","","10","","24.1","","101.75","","","","-34","","NA"
"-94.07","58.74","CHURCHILL A","5060605","2018-01-25 17:00","2018","01","25","17:00","-27.0","","-29.9","","77","","","","19","","12","","24.1","","101.75","","","","-37","","NA"
"-94.07","58.74","CHURCHILL A","5060605","2018-01-25 18:00","2018","01","25","18:00","-27.4","","-30.3","","77","","","","21","","11","","24.1","","101.74","","","","-37","","Clear"
"-94.07","58.74","CHURCHILL A","5060605","2018-01-25 19:00","2018","01","25","19:00","-28.3","","-31.3","","76","","","","20","","14","","24.1","","101.73","","","","-39","","NA"
"-94.07","58.74","CHURCHILL A","5060605","2018-01-25 20:00","2018","01","25","20:00","-29.2","","-32.3","","75","","","","20","","12","","24.1","","101.68","","","","-39","","NA"
"-94.07","58.74","CHURCHILL A","5060605","2018-01-25 21:00","2018","01","25","21:00","-28.9","","-32.0","","75","","","","19","","13","","24.1","","101.68","","","","-39","","Clear"
"-94.07","58.74","CHURCHILL A","5060605","2018-01-25 22:00","2018","01","25","22:00","-28.9","","-32.0","","75","","","","21","","10","","24.1","","101.67","","","","-38","","NA"
"-94.07","58.74","CHURCHILL A","5060605","2018-01-25 23:00","2018","01","25","23:00","-28.6","","-31.7","","75","","","","25","","10","","24.1","","101.64","","","","-37","","NA"
"-94.07","58.74","CHURCHILL A","5060605","2018-01-26 00:00","2018","01","26","00:00","-28.8","","-31.9","","75","","","","21","","11","","24.1","","101.63","","","","-38","","Mainly Clear"
"-94.07","58.74","CHURCHILL A","5060605","2018-01-26 01:00","2018","01","26","01:00","-29.3","","-32.5","","74","","","","24","","9","","24.1","","101.61","","","","-38","","NA"
"-94.07","58.74","CHURCHILL A","5060605","2018-01-26 02:00","2018","01","26","02:00","-30.0","","-33.2","","74","","","","23","","8","","24.1","","101.65","","","","-38","","NA"
"-94.07","58.74","CHURCHILL A","5060605","2018-01-26 03:00","2018","01","26","03:00","-28.4","","-31.4","","76","","","","26","","13","","24.1","","101.63","","","","-39","","Clear"
"-94.07","58.74","CHURCHILL A","5060605","2018-01-26 04:00","2018","01","26","04:00","-29.3","","-32.6","","74","","","","25","","10","","24.1","","101.61","","","","-38","","NA"
"-94.07","58.74","CHURCHILL A","5060605","2018-01-26 05:00","2018","01","26","05:00","-30.2","","-33.6","","73","","","","22","","5","","24.1","","101.66","","","","-36","","NA"
"-94.07","58.74","CHURCHILL A","5060605","2018-01-26 06:00","2018","01","26","06:00","-28.7","","-31.8","","75","","","","27","","11","","24.1","","101.63","","","","-38","","Mainly Clear"
"-94.07","58.74","CHURCHILL A","5060605","2018-01-26 07:00","2018","01","26","07:00","-28.0","","-31.0","","76","","","","29","","12","","24.1","","101.64","","","","-38","","NA"
"-94.07","58.74","CHURCHILL A","5060605","2018-01-26 08:00","2018","01","26","08:00","-27.6","","-30.5","","77","","","","29","","13","","24.1","","101.64","","","","-38","","NA"
"-94.07","58.74","CHURCHILL A","5060605","2018-01-26 09:00","2018","01","26","09:00","-25.0","","-27.5","","80","","","","27","","11","","19.3","","101.69","","","","-34","","Snow"
"-94.07","58.74","CHURCHILL A","5060605","2018-01-26 10:00","2018","01","26","10:00","-22.8","","-25.5","","79","","","","32","","22","","24.1","","101.71","","","","-35","","Snow"
"-94.07","58.74","CHURCHILL A","5060605","2018-01-26 11:00","2018","01","26","11:00","-25.6","","-28.2","","79","","","","31","","20","","24.1","","101.75","","","","-38","","Ice Crystals"
"-94.07","58.74","CHURCHILL A","5060605","2018-01-26 12:00","2018","01","26","12:00","-24.9","","-27.6","","79","","","","30","","15","","24.1","","101.77","","","","-35","","Ice Crystals"
"-94.07","58.74","CHURCHILL A","5060605","2018-01-26 13:00","2018","01","26","13:00","-24.0","","-26.5","","80","","","","31","","13","","19.3","","101.73","","","","-33","","Ice Crystals"
"-94.07","58.74","CHURCHILL A","5060605","2018-01-26 14:00","2018","01","26","14:00","-24.2","","-26.7","","80","","","","29","","9","","24.1","","101.74","","","","-32","","Ice Crystals"
"-94.07","58.74","CHURCHILL A","5060605","2018-01-26 15:00","2018","01","26","15:00","-21.7","","-24.0","","82","","","","35","","17","","24.1","","101.75","","","","-32","","Ice Crystals"
"-94.07","58.74","CHURCHILL A","5060605","2018-01-26 16:00","2018","01","26","16:00","-22.2","","-24.5","","82","","","","36","","20","","24.1","","101.78","","","","-33","","Ice Crystals"
"-94.07","58.74","CHURCHILL A","5060605","2018-01-26 17:00","2018","01","26","17:00","-21.7","","-24.0","","82","","","","36","","19","","24.1","","101.79","","","","-32","","Ice Crystals"
"-94.07","58.74","CHURCHILL A","5060605","2018-01-26 18:00","2018","01","26","18:00","-19.9","","-21.9","","84","","","","35","","20","","24.1","","101.79","","","","-30","","Ice Crystals"
"-94.07","58.74","CHURCHILL A","5060605","2018-01-26 19:00","2018","01","26","19:00","-19.5","","-21.6","","84","","","","35","","25","","24.1","","101.81","","","","-31","","Snow"
"-94.07","58.74","CHURCHILL A","5060605","2018-01-26 20:00","2018","01","26","20:00","-20.1","","-22.1","","84","","","","36","","23","","24.1","","101.80","","","","-31","","Snow"
"-94.07","58.74","CHURCHILL A","5060605","2018-01-26 21:00","2018","01","26","21:00","-19.6","","-21.6","","84","","","","36","","30","","24.1","","101.77","","","","-32","","Snow"
"-94.07","58.74","CHURCHILL A","5060605","2018-01-26 22:00","2018","01","26","22:00","-19.0","","-20.9","","85","","","","35","","30","","8.1","","101.78","","","","-31","","Snow"
"-94.07","58.74","CHURCHILL A","5060605","2018-01-26 23:00","2018","01","26","23:00","-19.3","","-21.4","","84","","","","35","","32","","4.8","","101.80","","","","-32","","Snow,Blowing Snow"
"-94.07","58.74","CHURCHILL A","5060605","2018-01-27 00:00","2018","01","27","00:00","-20.1","","-22.3","","83","","","","35","","36","","4.8","","101.82","","","","-34","","Snow,Blowing Snow"
"-94.07","58.74","CHURCHILL A","5060605","2018-01-27 01:00","2018","01","27","01:00","-21.5","","-23.8","","82","","","","35","","29","","6.4","","101.85","","","","-34","","Snow,Blowing Snow"
"-94.07","58.74","CHURCHILL A","5060605","2018-01-27 02:00","2018","01","27","02:00","-23.0","","-25.4","","81","","","","35","","30","","9.7","","101.90","","","","-36","","Ice Crystals,Blowing Snow"
"-94.07","58.74","CHURCHILL A","5060605","2018-01-27 03:00","2018","01","27","03:00","-23.8","","-26.3","","80","","","","34","","29","","12.9","","101.95","","","","-37","","Ice Crystals,Blowing Snow"
"-94.07","58.74","CHURCHILL A","5060605","2018-01-27 04:00","2018","01","27","04:00","-24.1","","-26.6","","80","","","","34","","25","","16.1","","101.99","","","","-37","","Ice Crystals,Blowing Snow"
"-94.07","58.74","CHURCHILL A","5060605","2018-01-27 05:00","2018","01","27","05:00","-24.6","","-27.1","","80","","","","34","","26","","24.1","","102.03","","","","-38","","Ice Crystals,Blowing Snow"
"-94.07","58.74","CHURCHILL A","5060605","2018-01-27 06:00","2018","01","27","06:00","-24.7","","-27.4","","79","","","","34","","25","","16.1","","102.07","","","","-38","","Ice Crystals,Blowing Snow"
"-94.07","58.74","CHURCHILL A","5060605","2018-01-27 07:00","2018","01","27","07:00","-24.2","","-26.7","","80","","","","34","","22","","24.1","","102.10","","","","-36","","Ice Crystals,Blowing Snow"
"-94.07","58.74","CHURCHILL A","5060605","2018-01-27 08:00","2018","01","27","08:00","-25.8","","-28.4","","79","","","","31","","17","","24.1","","102.11","","","","-37","","NA"
"-94.07","58.74","CHURCHILL A","5060605","2018-01-27 09:00","2018","01","27","09:00","-23.3","","-25.7","","81","","","","31","","19","","8.1","","102.14","","","","-34","","Fog"
"-94.07","58.74","CHURCHILL A","5060605","2018-01-27 10:00","2018","01","27","10:00","-19.3","","-21.2","","85","","","","35","","36","","8.1","","102.17","","","","-33","","Fog,Blowing Snow"
"-94.07","58.74","CHURCHILL A","5060605","2018-01-27 11:00","2018","01","27","11:00","-18.4","","-20.3","","85","","","","35","","39","","4.8","","102.19","","","","-32","","Fog,Blowing Snow"
"-94.07","58.74","CHURCHILL A","5060605","2018-01-27 12:00","2018","01","27","12:00","-18.8","","-20.7","","85","","","","34","","35","","4.8","","102.23","","","","-32","","Fog,Blowing Snow"
"-94.07","58.74","CHURCHILL A","5060605","2018-01-27 13:00","2018","01","27","13:00","-18.9","","-20.9","","84","","","","34","","37","","4.8","","102.25","","","","-32","","Fog,Blowing Snow"
"-94.07","58.74","CHURCHILL A","5060605","2018-01-27 14:00","2018","01","27","14:00","-19.8","","-21.9","","84","","","","32","","33","","4.8","","102.31","","","","-33","","Fog,Blowing Snow"
"-94.07","58.74","CHURCHILL A","5060605","2018-01-27 15:00","2018","01","27","15:00","-20.0","","-22.1","","84","","","","33","","30","","9.7","","102.38","","","","-33","","Fog,Blowing Snow"
"-94.07","58.74","CHURCHILL A","5060605","2018-01-27 16:00","2018","01","27","16:00","-20.3","","-22.3","","84","","","","32","","32","","9.7","","102.47","","","","-33","","Fog,Blowing Snow"
"-94.07","58.74","CHURCHILL A","5060605","2018-01-27 17:00","2018","01","27","17:00","-21.2","","-23.4","","83","","","","32","","35","","16.1","","102.52","","","","-35","","Blowing Snow"
"-94.07","58.74","CHURCHILL A","5060605","2018-01-27 18:00","2018","01","27","18:00","-21.2","","-23.4","","83","","","","31","","26","","24.1","","102.54","","","","-33","","Ice Crystals,Blowing Snow"
"-94.07","58.74","CHURCHILL A","5060605","2018-01-27 19:00","2018","01","27","19:00","-20.7","","-22.9","","83","","","","31","","26","","24.1","","102.57","","","","-33","","Ice Crystals,Blowing Snow"
"-94.07","58.74","CHURCHILL A","5060605","2018-01-27 20:00","2018","01","27","20:00","-21.0","","-23.2","","83","","","","31","","26","","24.1","","102.58","","","","-33","","Snow,Blowing Snow"
"-94.07","58.74","CHURCHILL A","5060605","2018-01-27 21:00","2018","01","27","21:00","-21.0","","-23.2","","83","","","","30","","28","","24.1","","102.57","","","","-34","","Snow,Blowing Snow"
"-94.07","58.74","CHURCHILL A","5060605","2018-01-27 22:00","2018","01","27","22:00","-21.1","","-23.3","","83","","","","31","","28","","24.1","","102.61","","","","-34","","Snow,Blowing Snow"
"-94.07","58.74","CHURCHILL A","5060605","2018-01-27 23:00","2018","01","27","23:00","-21.4","","-23.6","","83","","","","30","","31","","24.1","","102.62","","","","-35","","Snow,Blowing Snow"
"-94.07","58.74","CHURCHILL A","5060605","2018-01-28 00:00","2018","01","28","00:00","-21.2","","-23.4","","83","","","","31","","29","","24.1","","102.60","","","","-34","","Snow,Blowing Snow"
"-94.07","58.74","CHURCHILL A","5060605","2018-01-28 01:00","2018","01","28","01:00","-22.9","","-25.3","","81","","","","30","","23","","24.1","","102.63","","","","-35","","Ice Crystals,Blowing Snow"
"-94.07","58.74","CHURCHILL A","5060605","2018-01-28 02:00","2018","01","28","02:00","-24.3","","-26.8","","80","","","","28","","23","","24.1","","102.66","","","","-37","","NA"
"-94.07","58.74","CHURCHILL A","5060605","2018-01-28 03:00","2018","01","28","03:00","-24.7","","-27.4","","79","","","","29","","22","","24.1","","102.68","","","","-37","","Mostly Cloudy"
"-94.07","58.74","CHURCHILL A","5060605","2018-01-28 04:00","2018","01","28","04:00","-24.1","","-26.6","","80","","","","30","","24","","24.1","","102.67","","","","-37","","NA"
"-94.07","58.74","CHURCHILL A","5060605","2018-01-28 05:00","2018","01","28","05:00","-24.5","","-27.0","","80","","","","29","","26","","24.1","","102.70","","","","-38","","NA"
"-94.07","58.74","CHURCHILL A","5060605","2018-01-28 06:00","2018","01","28","06:00","-24.3","","-26.8","","80","","","","30","","27","","24.1","","102.74","","","","-38","","Cloudy"
"-94.07","58.74","CHURCHILL A","5060605","2018-01-28 07:00","2018","01","28","07:00","-24.2","","-26.7","","80","","","","30","","28","","24.1","","102.75","","","","-38","","Snow"
"-94.07","58.74","CHURCHILL A","5060605","2018-01-28 08:00","2018","01","28","08:00","-24.2","","-26.7","","80","","","","30","","27","","24.1","","102.74","","","","-37","","Snow"
"-94.07","58.74","CHURCHILL A","5060605","2018-01-28 09:00","2018","01","28","09:00","-24.0","","-26.5","","80","","","","30","","27","","24.1","","102.76","","","","-37","","Snow"
"-94.07","58.74","CHURCHILL A","5060605","2018-01-28 10:00","2018","01","28","10:00","-23.7","","-26.2","","80","","","","29","","24","","24.1","","102.77","","","","-36","","NA"
"-94.07","58.74","CHURCHILL A","5060605","2018-01-28 11:00","2018","01","28","11:00","-23.4","","-25.8","","81","","","","30","","20","","24.1","","102.81","","","","-35","","NA"
"-94.07","58.74","CHURCHILL A","5060605","2018-01-28 12:00","2018","01","28","12:00","-22.4","","-24.7","","82","","","","31","","24","","24.1","","102.80","","","","-34","","Mainly Clear"
"-94.07","58.74","CHURCHILL A","5060605","2018-01-28 13:00","2018","01","28","13:00","-22.0","","-24.3","","82","","","","30","","24","","24.1","","102.82","","","","-34","","NA"
"-94.07","58.74","CHURCHILL A","5060605","2018-01-28 14:00","2018","01","28","14:00","-21.7","","-24.0","","82","","","","31","","25","","24.1","","102.83","","","","-34","","NA"
"-94.07","58.74","CHURCHILL A","5060605","2018-01-28 15:00","2018","01","28","15:00","-21.5","","-23.8","","82","","","","30","","23","","24.1","","102.87","","","","-33","","Clear"
"-94.07","58.74","CHURCHILL A","5060605","2018-01-28 16:00","2018","01","28","16:00","-21.6","","-23.9","","82","","","","30","","25","","24.1","","102.91","","","","-34","","NA"
"-94.07","58.74","CHURCHILL A","5060605","2018-01-28 17:00","2018","01","28","17:00","-21.4","","-23.6","","83","","","","31","","21","","24.1","","102.96","","","","-32","","NA"
"-94.07","58.74","CHURCHILL A","5060605","2018-01-28 18:00","2018","01","28","18:00","-21.4","","-23.6","","83","","","","31","","22","","24.1","","102.99","","","","-33","","Mostly Cloudy"
"-94.07","58.74","CHURCHILL A","5060605","2018-01-28 19:00","2018","01","28","19:00","-21.4","","-23.7","","82","","","","31","","20","","24.1","","103.01","","","","-32","","NA"
"-94.07","58.74","CHURCHILL A","5060605","2018-01-28 20:00","2018","01","28","20:00","-22.5","","-24.9","","81","","","","31","","21","","24.1","","102.99","","","","-34","","NA"
"-94.07","58.74","CHURCHILL A","5060605","2018-01-28 21:00","2018","01","28","21:00","-23.6","","-26.1","","80","","","","30","","19","","24.1","","103.00","","","","-35","","Clear"
"-94.07","58.74","CHURCHILL A","5060605","2018-01-28 22:00","2018","01","28","22:00","-24.3","","-26.8","","80","","","","31","","19","","24.1","","103.01","","","","-36","","NA"
"-94.07","58.74","CHURCHILL A","5060605","2018-01-28 23:00","2018","01","28","23:00","-24.3","","-26.8","","80","","","","31","","22","","24.1","","102.99","","","","-36","","NA"
"-94.07","58.74","CHURCHILL A","5060605","2018-01-29 00:00","2018","01","29","00:00","-24.8","","-27.4","","79","","","","31","","17","","24.1","","103.01","","","","-36","","Clear"
"-94.07","58.74","CHURCHILL A","5060605","2018-01-29 01:00","2018","01","29","01:00","-25.2","","-27.9","","79","","","","30","","14","","24.1","","103.00","","","","-35","","Ice Crystals"
"-94.07","58.74","CHURCHILL A","5060605","2018-01-29 02:00","2018","01","29","02:00","-25.6","","-28.2","","79","","","","30","","16","","24.1","","103.02","","","","-36","","Ice Crystals"
"-94.07","58.74","CHURCHILL A","5060605","2018-01-29 03:00","2018","01","29","03:00","-26.5","","-29.3","","78","","","","29","","17","","24.1","","103.04","","","","-38","","Ice Crystals"
"-94.07","58.74","CHURCHILL A","5060605","2018-01-29 04:00","2018","01","29","04:00","-26.5","","-29.4","","77","","","","29","","15","","24.1","","103.00","","","","-37","","Ice Crystals"
"-94.07","58.74","CHURCHILL A","5060605","2018-01-29 05:00","2018","01","29","05:00","-27.5","","-30.4","","77","","","","29","","16","","24.1","","102.99","","","","-39","","Ice Crystals"
"-94.07","58.74","CHURCHILL A","5060605","2018-01-29 06:00","2018","01","29","06:00","-28.4","","-31.4","","76","","","","28","","15","","24.1","","102.96","","","","-39","","Ice Crystals"
"-94.07","58.74","CHURCHILL A","5060605","2018-01-29 07:00","2018","01","29","07:00","-28.6","","-31.6","","76","","","","27","","16","","24.1","","102.99","","","","-40","","Ice Crystals"
"-94.07","58.74","CHURCHILL A","5060605","2018-01-29 08:00","2018","01","29","08:00","-28.6","","-31.6","","76","","","","28","","15","","24.1","","102.93","","","","-40","","Ice Crystals"
"-94.07","58.74","CHURCHILL A","5060605","2018-01-29 09:00","2018","01","29","09:00","-28.7","","-31.7","","76","","","","27","","16","","24.1","","102.92","","","","-40","","Ice Crystals"
"-94.07","58.74","CHURCHILL A","5060605","2018-01-29 10:00","2018","01","29","10:00","-27.6","","-30.5","","77","","","","29","","16","","24.1","","102.94","","","","-39","","Ice Crystals"
"-94.07","58.74","CHURCHILL A","5060605","2018-01-29 11:00","2018","01","29","11:00","-26.4","","-29.2","","78","","","","28","","14","","24.1","","102.90","","","","-37","","Ice Crystals"
"-94.07","58.74","CHURCHILL A","5060605","2018-01-29 12:00","2018","01","29","12:00","-25.8","","-28.6","","78","","","","28","","18","","24.1","","102.83","","","","-37","","Ice Crystals"
"-94.07","58.74","CHURCHILL A","5060605","2018-01-29 13:00","2018","01","29","13:00","-25.4","","-28.0","","79","","","","29","","18","","24.1","","102.81","","","","-37","","Ice Crystals"
"-94.07","58.74","CHURCHILL A","5060605","2018-01-29 14:00","2018","01","29","14:00","-24.3","","-26.8","","80","","","","30","","18","","24.1","","102.78","","","","-35","","Ice Crystals"
"-94.07","58.74","CHURCHILL A","5060605","2018-01-29 15:00","2018","01","29","15:00","-24.2","","-26.7","","80","","","","29","","20","","24.1","","102.79","","","","-36","","Ice Crystals"
"-94.07","58.74","CHURCHILL A","5060605","2018-01-29 16:00","2018","01","29","16:00","-24.4","","-27.1","","79","","","","29","","13","","24.1","","102.75","","","","-34","","Ice Crystals"
"-94.07","58.74","CHURCHILL A","5060605","2018-01-29 17:00","2018","01","29","17:00","-25.8","","-28.6","","78","","","","28","","13","","24.1","","102.75","","","","-35","","NA"
"-94.07","58.74","CHURCHILL A","5060605","2018-01-29 18:00","2018","01","29","18:00","-26.3","","-29.2","","77","","","","29","","12","","24.1","","102.74","","","","-36","","Clear"
"-94.07","58.74","CHURCHILL A","5060605","2018-01-29 19:00","2018","01","29","19:00","-26.7","","-29.5","","78","","","","30","","16","","24.1","","102.71","","","","-38","","NA"
"-94.07","58.74","CHURCHILL A","5060605","2018-01-29 20:00","2018","01","29","20:00","-26.4","","-29.2","","78","","","","31","","20","","24.1","","102.66","","","","-39","","NA"
"-94.07","58.74","CHURCHILL A","5060605","2018-01-29 21:00","2018","01","29","21:00","-27.4","","-30.4","","76","","","","30","","14","","24.1","","102.59","","","","-38","","Clear"
"-94.07","58.74","CHURCHILL A","5060605","2018-01-29 22:00","2018","01","29","22:00","-28.4","","-31.4","","76","","","","29","","13","","24.1","","102.57","","","","-39","","NA"
"-94.07","58.74","CHURCHILL A","5060605","2018-01-29 23:00","2018","01","29","23:00","-29.3","","-32.4","","75","","","","27","","9","","24.1","","102.55","","","","-38","","NA"
"-94.07","58.74","CHURCHILL A","5060605","2018-01-30 00:00","2018","01","30","00:00","-30.6","","-33.8","","74","","","","26","","12","","24.1","","102.50","","","","-41","","Clear"
"-94.07","58.74","CHURCHILL A","5060605","2018-01-30 01:00","2018","01","30","01:00","-30.5","","-33.7","","74","","","","29","","12","","24.1","","102.47","","","","-41","","NA"
"-94.07","58.74","CHURCHILL A","5060605","2018-01-30 02:00","2018","01","30","02:00","-31.1","","-34.5","","73","","","","29","","12","","24.1","","102.47","","","","-41","","NA"
"-94.07","58.74","CHURCHILL A","5060605","2018-01-30 03:00","2018","01","30","03:00","-31.5","","-34.9","","73","","","","28","","13","","24.1","","102.40","","","","-42","","Clear"
"-94.07","58.74","CHURCHILL A","5060605","2018-01-30 04:00","2018","01","30","04:00","-32.2","","-35.7","","72","","","","26","","9","","24.1","","102.37","","","","-41","","NA"
"-94.07","58.74","CHURCHILL A","5060605","2018-01-30 05:00","2018","01","30","05:00","-32.6","","-36.1","","72","","","","29","","9","","24.1","","102.36","","","","-42","","NA"
"-94.07","58.74","CHURCHILL A","5060605","2018-01-30 06:00","2018","01","30","06:00","-33.2","","-36.8","","71","","","","23","","7","","24.1","","102.25","","","","-41","","Clear"
"-94.07","58.74","CHURCHILL A","5060605","2018-01-30 07:00","2018","01","30","07:00","-33.9","","-37.6","","70","","","","22","","9","","24.1","","102.17","","","","-43","","NA"
"-94.07","58.74","CHURCHILL A","5060605","2018-01-30 08:00","2018","01","30","08:00","-34.8","","-38.6","","69","","","","23","","7","","24.1","","102.11","","","","-43","","NA"
"-94.07","58.74","CHURCHILL A","5060605","2018-01-30 09:00","2018","01","30","09:00","-34.5","","-38.3","","69","","","","19","","6","","24.1","","102.02","","","","-42","","Mainly Clear"
"-94.07","58.74","CHURCHILL A","5060605","2018-01-30 10:00","2018","01","30","10:00","-34.3","","-38.0","","70","","","","20","","9","","24.1","","102.04","","","","-44","","NA"
"-94.07","58.74","CHURCHILL A","5060605","2018-01-30 11:00","2018","01","30","11:00","-31.8","","-35.2","","73","","","","20","","7","","24.1","","102.01","","","","-39","","NA"
"-94.07","58.74","CHURCHILL A","5060605","2018-01-30 12:00","2018","01","30","12:00","-30.7","","-34.1","","73","","","","17","","5","","24.1","","101.94","","","","-36","","Mostly Cloudy"
"-94.07","58.74","CHURCHILL A","5060605","2018-01-30 13:00","2018","01","30","13:00","-28.7","","-31.8","","75","","","","16","","4","","24.1","","101.86","","","","-33","","NA"
"-94.07","58.74","CHURCHILL A","5060605","2018-01-30 14:00","2018","01","30","14:00","-28.5","","-31.6","","75","","","","9","","7","","24.1","","101.72","","","","-36","","NA"
"-94.07","58.74","CHURCHILL A","5060605","2018-01-30 15:00","2018","01","30","15:00","-28.8","","-31.9","","75","","","","8","","13","","24.1","","101.64","","","","-39","","Mostly Cloudy"
"-94.07","58.74","CHURCHILL A","5060605","2018-01-30 16:00","2018","01","30","16:00","-29.3","","-32.4","","75","","","","7","","13","","24.1","","101.61","","","","-40","","NA"
"-94.07","58.74","CHURCHILL A","5060605","2018-01-30 17:00","2018","01","30","17:00","-29.4","","-32.5","","75","","","","8","","14","","24.1","","101.58","","","","-40","","NA"
"-94.07","58.74","CHURCHILL A","5060605","2018-01-30 18:00","2018","01","30","18:00","-29.0","","-32.1","","75","","","","6","","14","","24.1","","101.54","","","","-40","","Cloudy"
"-94.07","58.74","CHURCHILL A","5060605","2018-01-30 19:00","2018","01","30","19:00","-26.7","","-29.5","","78","","","","6","","16","","24.1","","101.51","","","","-38","","NA"
"-94.07","58.74","CHURCHILL A","5060605","2018-01-30 20:00","2018","01","30","20:00","-25.1","","-27.8","","79","","","","8","","18","","24.1","","101.45","","","","-36","","NA"
"-94.07","58.74","CHURCHILL A","5060605","2018-01-30 21:00","2018","01","30","21:00","-24.7","","-27.4","","79","","","","6","","17","","24.1","","101.42","","","","-36","","Mostly Cloudy"
"-94.07","58.74","CHURCHILL A","5060605","2018-01-30 22:00","2018","01","30","22:00","-24.3","","-26.8","","80","","","","7","","14","","24.1","","101.40","","","","-34","","NA"
"-94.07","58.74","CHURCHILL A","5060605","2018-01-30 23:00","2018","01","30","23:00","-24.0","","-26.5","","80","","","","5","","17","","24.1","","101.38","","","","-35","","NA"
"-94.07","58.74","CHURCHILL A","5060605","2018-01-31 00:00","2018","01","31","00:00","-23.5","","-25.9","","81","","","","6","","17","","24.1","","101.39","","","","-34","","Mostly Cloudy"
"-94.07","58.74","CHURCHILL A","5060605","2018-01-31 01:00","2018","01","31","01:00","-23.3","","-25.7","","81","","","","6","","21","","24.1","","101.34","","","","-35","","NA"
"-94.07","58.74","CHURCHILL A","5060605","2018-01-31 02:00","2018","01","31","02:00","-23.1","","-25.5","","81","","","","5","","22","","24.1","","101.31","","","","-35","","NA"
"-94.07","58.74","CHURCHILL A","5060605","2018-01-31 03:00","2018","01","31","03:00","-22.5","","-24.8","","82","","","","4","","31","","24.1","","101.30","","","","-36","","Mostly Cloudy"
"-94.07","58.74","CHURCHILL A","5060605","2018-01-31 04:00","2018","01","31","04:00","-22.4","","-24.7","","82","","","","5","","30","","24.1","","101.33","","","","-36","","Blowing Snow"
"-94.07","58.74","CHURCHILL A","5060605","2018-01-31 05:00","2018","01","31","05:00","-22.7","","-25.0","","82","","","","4","","28","","24.1","","101.36","","","","-36","","Blowing Snow"
"-94.07","58.74","CHURCHILL A","5060605","2018-01-31 06:00","2018","01","31","06:00","-22.6","","-25.0","","81","","","","3","","31","","24.1","","101.41","","","","-36","","Mostly Cloudy"
"-94.07","58.74","CHURCHILL A","5060605","2018-01-31 07:00","2018","01","31","07:00","-22.6","","-24.9","","82","","","","3","","33","","24.1","","101.44","","","","-36","","Ice Crystals"
"-94.07","58.74","CHURCHILL A","5060605","2018-01-31 08:00","2018","01","31","08:00","-22.8","","-25.2","","81","","","","3","","37","","24.1","","101.48","","","","-37","","Ice Crystals"
"-94.07","58.74","CHURCHILL A","5060605","2018-01-31 09:00","2018","01","31","09:00","-22.9","","-25.3","","81","","","","3","","32","","24.1","","101.55","","","","-37","","Mostly Cloudy"
"-94.07","58.74","CHURCHILL A","5060605","2018-01-31 10:00","2018","01","31","10:00","-22.5","","-24.9","","81","","","","3","","36","","9.7","","101.59","","","","-37","","Ice Crystals"
"-94.07","58.74","CHURCHILL A","5060605","2018-01-31 11:00","2018","01","31","11:00","-21.6","","-23.9","","82","","","","4","","30","","4.8","","101.63","","","","-35","","Snow,Blowing Snow"
"-94.07","58.74","CHURCHILL A","5060605","2018-01-31 12:00","2018","01","31","12:00","-22.7","","-25.1","","81","","","","36","","31","","1.6","","101.64","","","","-36","","Snow,Blowing Snow"
"-94.07","58.74","CHURCHILL A","5060605","2018-01-31 13:00","2018","01","31","13:00","-23.6","","-26.1","","80","","","","35","","35","","2.4","","101.66","","","","-38","","Snow,Blowing Snow"
"-94.07","58.74","CHURCHILL A","5060605","2018-01-31 14:00","2018","01","31","14:00","-25.8","","-28.6","","78","","","","34","","32","","3.2","","101.72","","","","-41","","Snow,Blowing Snow"
"-94.07","58.74","CHURCHILL A","5060605","2018-01-31 15:00","2018","01","31","15:00","-27.4","","-30.3","","77","","","","34","","28","","4.0","","101.78","","","","-42","","Snow,Blowing Snow"
"-94.07","58.74","CHURCHILL A","5060605","2018-01-31 16:00","2018","01","31","16:00","-28.4","","-31.4","","76","","","","34","","31","","24.1","","101.88","","","","-44","","Snow,Blowing Snow"
"-94.07","58.74","CHURCHILL A","5060605","2018-01-31 17:00","2018","01","31","17:00","-29.3","","-32.4","","75","","","","33","","30","","12.9","","101.93","","","","-45","","Ice Crystals,Blowing Snow"
"-94.07","58.74","CHURCHILL A","5060605","2018-01-31 18:00","2018","01","31","18:00","-30.0","","-33.2","","74","","","","34","","31","","24.1","","101.96","","","","-46","","Ice Crystals,Blowing Snow"
"-94.07","58.74","CHURCHILL A","5060605","2018-01-31 19:00","2018","01","31","19:00","-29.7","","-32.9","","75","","","","33","","28","","24.1","","102.00","","","","-45","","Ice Crystals,Blowing Snow"
"-94.07","58.74","CHURCHILL A","5060605","2018-01-31 20:00","2018","01","31","20:00","-30.3","","-33.5","","74","","","","34","","28","","16.1","","101.96","","","","-46","","Ice Crystals,Blowing Snow"
"-94.07","58.74","CHURCHILL A","5060605","2018-01-31 21:00","2018","01","31","21:00","-30.5","","-33.7","","74","","","","33","","25","","16.1","","101.96","","","","-45","","Ice Crystals,Blowing Snow"
"-94.07","58.74","CHURCHILL A","5060605","2018-01-31 22:00","2018","01","31","22:00","-30.5","","-33.7","","74","","","","34","","27","","12.9","","101.95","","","","-46","","Ice Crystals,Blowing Snow"
"-94.07","58.74","CHURCHILL A","5060605","2018-01-31 23:00","2018","01","31","23:00","-30.9","","-34.3","","73","","","","32","","30","","16.1","","101.96","","","","-47","","Ice Crystals,Blowing Snow"
