"Longitude (x)","Latitude (y)","Station Name","Climate ID","Date/Time (LST)","Year","Month","Day","Time (LST)","Temp (°C)","Temp Flag","Dew Point Temp (°C)","Dew Point Temp Flag","Rel Hum (%)","Rel Hum Flag","Precip. Amount (mm)","Precip. Amount Flag","Wind Dir (10s deg)","Wind Dir Flag","Wind Spd (km/h)","Wind Spd Flag","Visibility (km)","Visibility Flag","Stn Press (kPa)","Stn Press Flag","Hmdx","Hmdx Flag","Wind Chill","Wind Chill Flag","Weather"
"-94.07","58.74","CHURCHILL A","5060605","2019-01-01 00:00","2019","01","01","00:00","-27.4","","-30.3","","77","","","","30","","20","","24.1","","101.73","","","","-40","","Clear"
"-94.07","58.74","CHURCHILL A","5060605","2019-01-01 01:00","2019","01","01","01:00","-27.6","","-30.5","","77","","","","30","","18","","24.1","","101.68","","","","-39","","NA"
"-94.07","58.74","CHURCHILL A","5060605","2019-01-01 02:00","2019","01","01","02:00","-28.3","","-31.2","","77","","","","29","","19","","24.1","","101.65","","","","-41","","NA"
"-94.07","58.74","CHURCHILL A","5060605","2019-01-01 03:00","2019","01","01","03:00","-28.7","","-31.7","","76","","","","29","","19","","24.1","","101.57","","","","-41","","Clear"
"-94.07","58.74","CHURCHILL A","5060605","2019-01-01 04:00","2019","01","01","04:00","-29.3","","-32.3","","76","","","","29","","16","","24.1","","101.50","","","","-41","","NA"
"-94.07","58.74","CHURCHILL A","5060605","2019-01-01 05:00","2019","01","01","05:00","-29.7","","-32.8","","75","","","","28","","16","","24.1","","101.43","","","","-41","","NA"
"-94.07","58.74","CHURCHILL A","5060605","2019-01-01 06:00","2019","01","01","06:00","-30.4","","-33.5","","75","","","","29","","17","","24.1","","101.39","","","","-43","","Clear"
"-94.07","58.74","CHURCHILL A","5060605","2019-01-01 07:00","2019","01","01","07:00","-30.6","","-33.8","","74","","","","28","","17","","24.1","","101.35","","","","-43","","NA"
"-94.07","58.74","CHURCHILL A","5060605","2019-01-01 08:00","2019","01","01","08:00","-31.1","","-34.5","","73","","","","25","","13","","24.1","","101.31","","","","-42","","NA"
"-94.07","58.74","CHURCHILL A","5060605","2019-01-01 09:00","2019","01","01","09:00","-31.3","","-34.6","","73","","","","27","","14","","24.1","","101.26","","","","-43","","Clear"
"-94.07","58.74","CHURCHILL A","5060605","2019-01-01 10:00","2019","01","01","10:00","-31.3","","-34.6","","73","","","","26","","14","","24.1","","101.19","","","","-43","","NA"
"-94.07","58.74","CHURCHILL A","5060605","2019-01-01 11:00","2019","01","01","11:00","-31.1","","-34.6","","72","","","","23","","11","","24.1","","101.09","","","","-41","","NA"
"-94.07","58.74","CHURCHILL A","5060605","2019-01-01 12:00","2019","01","01","12:00","-29.3","","-32.9","","72","","","","24","","14","","24.1","","100.99","","","","-40","","Mainly Clear"
"-94.07","58.74","CHURCHILL A","5060605","2019-01-01 13:00","2019","01","01","13:00","-28.0","","-31.8","","71","","","","23","","16","","24.1","","100.91","","","","-39","","NA"
"-94.07","58.74","CHURCHILL A","5060605","2019-01-01 14:00","2019","01","01","14:00","-28.6","","-32.5","","70","","","","21","","13","","24.1","","100.77","","","","-39","","NA"
"-94.07","58.74","CHURCHILL A","5060605","2019-01-01 15:00","2019","01","01","15:00","-28.9","","-32.6","","71","","","","19","","13","","24.1","","100.68","","","","-39","","Mostly Cloudy"
"-94.07","58.74","CHURCHILL A","5060605","2019-01-01 16:00","2019","01","01","16:00","-28.4","","-32.0","","72","","","","19","","13","","24.1","","100.62","","","","-39","","NA"
"-94.07","58.74","CHURCHILL A","5060605","2019-01-01 17:00","2019","01","01","17:00","-27.4","","-31.0","","72","","","","19","","14","","24.1","","100.54","","","","-38","","NA"
"-94.07","58.74","CHURCHILL A","5060605","2019-01-01 18:00","2019","01","01","18:00","-25.8","","-29.5","","72","","","","18","","16","","24.1","","100.44","","","","-37","","Cloudy"
"-94.07","58.74","CHURCHILL A","5060605","2019-01-01 19:00","2019","01","01","19:00","-24.0","","-27.7","","72","","","","18","","18","","24.1","","100.37","","","","-35","","NA"
"-94.07","58.74","CHURCHILL A","5060605","2019-01-01 20:00","2019","01","01","20:00","-22.6","","-26.2","","73","","","","18","","16","","24.1","","100.31","","","","-33","","NA"
"-94.07","58.74","CHURCHILL A","5060605","2019-01-01 21:00","2019","01","01","21:00","-22.5","","-25.8","","75","","","","18","","21","","24.1","","100.26","","","","-34","","Cloudy"
"-94.07","58.74","CHURCHILL A","5060605","2019-01-01 22:00","2019","01","01","22:00","-21.9","","-25.1","","76","","","","18","","20","","24.1","","100.21","","","","-33","","NA"
"-94.07","58.74","CHURCHILL A","5060605","2019-01-01 23:00","2019","01","01","23:00","-22.3","","-25.4","","76","","","","17","","13","","24.1","","100.20","","","","-31","","NA"
"-94.07","58.74","CHURCHILL A","5060605","2019-01-02 00:00","2019","01","02","00:00","-23.7","","-26.4","","79","","","","16","","15","","24.1","","100.13","","","","-34","","Mainly Clear"
"-94.07","58.74","CHURCHILL A","5060605","2019-01-02 01:00","2019","01","02","01:00","-24.1","","-26.6","","80","","","","18","","16","","24.1","","100.14","","","","-34","","NA"
"-94.07","58.74","CHURCHILL A","5060605","2019-01-02 02:00","2019","01","02","02:00","-24.9","","-27.4","","80","","","","19","","15","","24.1","","100.16","","","","-35","","NA"
"-94.07","58.74","CHURCHILL A","5060605","2019-01-02 03:00","2019","01","02","03:00","-25.6","","-28.2","","79","","","","18","","13","","24.1","","100.15","","","","-35","","Mainly Clear"
"-94.07","58.74","CHURCHILL A","5060605","2019-01-02 04:00","2019","01","02","04:00","-26.5","","-29.1","","79","","","","17","","12","","24.1","","100.09","","","","-36","","NA"
"-94.07","58.74","CHURCHILL A","5060605","2019-01-02 05:00","2019","01","02","05:00","-26.7","","-29.3","","79","","","","21","","10","","24.1","","100.15","","","","-35","","NA"
"-94.07","58.74","CHURCHILL A","5060605","2019-01-02 06:00","2019","01","02","06:00","-26.7","","-29.3","","79","","","","17","","9","","22.5","","100.14","","","","-35","","Mainly Clear"
"-94.07","58.74","CHURCHILL A","5060605","2019-01-02 07:00","2019","01","02","07:00","-27.4","","-29.9","","80","","","","18","","13","","24.1","","100.09","","","","-37","","NA"
"-94.07","58.74","CHURCHILL A","5060605","2019-01-02 08:00","2019","01","02","08:00","-28.3","","-30.8","","80","","","","17","","16","","24.1","","100.12","","","","-40","","NA"
"-94.07","58.74","CHURCHILL A","5060605","2019-01-02 09:00","2019","01","02","09:00","-29.0","","-31.6","","79","","","","19","","14","","24.1","","100.14","","","","-40","","Mainly Clear"
"-94.07","58.74","CHURCHILL A","5060605","2019-01-02 10:00","2019","01","02","10:00","-29.3","","-32.0","","78","","","","20","","13","","24.1","","100.07","","","","-40","","NA"
"-94.07","58.74","CHURCHILL A","5060605","2019-01-02 11:00","2019","01","02","11:00","-29.4","","-32.1","","78","","","","17","","3","","24.1","","100.04","","","","-33","","NA"
"-94.07","58.74","CHURCHILL A","5060605","2019-01-02 12:00","2019","01","02","12:00","-28.5","","-31.4","","77","","","","16","","5","","24.1","","99.96","","","","-34","","Clear"
"-94.07","58.74","CHURCHILL A","5060605","2019-01-02 13:00","2019","01","02","13:00","-27.6","","-30.5","","77","","","","16","","7","","24.1","","99.93","","","","-34","","NA"
"-94.07","58.74","CHURCHILL A","5060605","2019-01-02 14:00","2019","01","02","14:00","-25.7","","-28.5","","78","","","","22","","7","","24.1","","99.97","","","","-32","","NA"
"-94.07","58.74","CHURCHILL A","5060605","2019-01-02 15:00","2019","01","02","15:00","-25.7","","-28.5","","78","","","","11","","13","","24.1","","99.84","","","","-35","","Mostly Cloudy"
"-94.07","58.74","CHURCHILL A","5060605","2019-01-02 16:00","2019","01","02","16:00","-25.2","","-27.9","","79","","","","19","","8","","24.1","","99.92","","","","-32","","NA"
"-94.07","58.74","CHURCHILL A","5060605","2019-01-02 17:00","2019","01","02","17:00","-26.0","","-28.6","","79","","","","21","","9","","24.1","","99.89","","","","-34","","NA"
"-94.07","58.74","CHURCHILL A","5060605","2019-01-02 18:00","2019","01","02","18:00","-27.4","","-30.0","","79","","","","15","","14","","24.1","","99.72","","","","-38","","Clear"
"-94.07","58.74","CHURCHILL A","5060605","2019-01-02 19:00","2019","01","02","19:00","-28.0","","-30.7","","78","","","","18","","12","","24.1","","99.71","","","","-38","","NA"
"-94.07","58.74","CHURCHILL A","5060605","2019-01-02 20:00","2019","01","02","20:00","-28.7","","-31.3","","79","","","","15","","10","","24.1","","99.67","","","","-38","","NA"
"-94.07","58.74","CHURCHILL A","5060605","2019-01-02 21:00","2019","01","02","21:00","-28.4","","-31.0","","79","","","","16","","13","","24.1","","99.60","","","","-39","","Mostly Cloudy"
"-94.07","58.74","CHURCHILL A","5060605","2019-01-02 22:00","2019","01","02","22:00","-27.0","","-29.5","","80","","","","16","","14","","24.1","","99.49","","","","-37","","NA"
"-94.07","58.74","CHURCHILL A","5060605","2019-01-02 23:00","2019","01","02","23:00","-25.5","","-28.0","","80","","","","17","","13","","24.1","","99.45","","","","-35","","NA"
"-94.07","58.74","CHURCHILL A","5060605","2019-01-03 00:00","2019","01","03","00:00","-25.5","","-28.1","","79","","","","12","","10","","24.1","","99.36","","","","-34","","Cloudy"
"-94.07","58.74","CHURCHILL A","5060605","2019-01-03 01:00","2019","01","03","01:00","-24.5","","-27.0","","80","","","","14","","16","","24.1","","99.30","","","","-35","","NA"
"-94.07","58.74","CHURCHILL A","5060605","2019-01-03 02:00","2019","01","03","02:00","-22.9","","-25.3","","81","","","","14","","17","","24.1","","99.17","","","","-33","","NA"
"-94.07","58.74","CHURCHILL A","5060605","2019-01-03 03:00","2019","01","03","03:00","-21.8","","-24.1","","82","","","","16","","16","","24.1","","99.10","","","","-32","","Cloudy"
"-94.07","58.74","CHURCHILL A","5060605","2019-01-03 04:00","2019","01","03","04:00","-20.4","","-22.6","","83","","","","15","","23","","24.1","","98.96","","","","-32","","Snow"
"-94.07","58.74","CHURCHILL A","5060605","2019-01-03 05:00","2019","01","03","05:00","-19.2","","-21.4","","83","","","","17","","22","","24.1","","98.91","","","","-30","","Snow"
"-94.07","58.74","CHURCHILL A","5060605","2019-01-03 06:00","2019","01","03","06:00","-18.1","","-20.2","","84","","","","17","","22","","19.3","","98.78","","","","-29","","Snow"
"-94.07","58.74","CHURCHILL A","5060605","2019-01-03 07:00","2019","01","03","07:00","-17.6","","-19.7","","84","","","","16","","26","","4.8","","98.67","","","","-29","","Snow"
"-94.07","58.74","CHURCHILL A","5060605","2019-01-03 08:00","2019","01","03","08:00","-17.1","","-19.1","","85","","","","16","","24","","2.4","","98.54","","","","-28","","Snow"
"-94.07","58.74","CHURCHILL A","5060605","2019-01-03 09:00","2019","01","03","09:00","-16.7","","-18.7","","85","","","","17","","26","","4.0","","98.39","","","","-28","","Snow"
"-94.07","58.74","CHURCHILL A","5060605","2019-01-03 10:00","2019","01","03","10:00","-16.4","","-18.1","","87","","","","16","","26","","1.2","","98.30","","","","-27","","Snow,Blowing Snow"
"-94.07","58.74","CHURCHILL A","5060605","2019-01-03 11:00","2019","01","03","11:00","-15.7","","-17.4","","87","","","","17","","24","","1.2","","98.18","","","","-26","","Snow,Blowing Snow"
"-94.07","58.74","CHURCHILL A","5060605","2019-01-03 12:00","2019","01","03","12:00","-15.0","","-16.7","","87","","","","17","","21","","0.8","","98.05","","","","-24","","Snow,Blowing Snow"
"-94.07","58.74","CHURCHILL A","5060605","2019-01-03 13:00","2019","01","03","13:00","-14.3","","-16.0","","87","","","","18","","20","","4.8","","97.95","","","","-23","","Snow,Blowing Snow"
"-94.07","58.74","CHURCHILL A","5060605","2019-01-03 14:00","2019","01","03","14:00","-13.4","","-15.0","","88","","","","18","","20","","4.0","","97.86","","","","-22","","Snow,Blowing Snow"
"-94.07","58.74","CHURCHILL A","5060605","2019-01-03 15:00","2019","01","03","15:00","-12.5","","-14.1","","88","","","","18","","13","","12.9","","97.81","","","","-19","","Snow"
"-94.07","58.74","CHURCHILL A","5060605","2019-01-03 16:00","2019","01","03","16:00","-12.3","","-13.8","","89","","","","19","","7","","16.1","","97.81","","","","-17","","Snow"
"-94.07","58.74","CHURCHILL A","5060605","2019-01-03 17:00","2019","01","03","17:00","-12.2","","-13.5","","90","","","","30","","8","","4.8","","97.86","","","","-17","","Snow"
"-94.07","58.74","CHURCHILL A","5060605","2019-01-03 18:00","2019","01","03","18:00","-10.8","","-12.1","","90","","","","32","","22","","4.8","","97.93","","","","-19","","Snow,Blowing Snow"
"-94.07","58.74","CHURCHILL A","5060605","2019-01-03 19:00","2019","01","03","19:00","-13.0","","-14.4","","89","","","","32","","21","","16.1","","98.01","","","","-22","","Snow,Blowing Snow"
"-94.07","58.74","CHURCHILL A","5060605","2019-01-03 20:00","2019","01","03","20:00","-13.6","","-15.2","","88","","","","33","","20","","22.5","","98.10","","","","-22","","Snow,Blowing Snow"
"-94.07","58.74","CHURCHILL A","5060605","2019-01-03 21:00","2019","01","03","21:00","-16.3","","-18.0","","87","","","","29","","11","","24.1","","98.17","","","","-23","","Snow,Blowing Snow"
"-94.07","58.74","CHURCHILL A","5060605","2019-01-03 22:00","2019","01","03","22:00","-17.5","","-19.2","","87","","","","30","","15","","16.1","","98.22","","","","-26","","Ice Crystals,Blowing Snow"
"-94.07","58.74","CHURCHILL A","5060605","2019-01-03 23:00","2019","01","03","23:00","-16.4","","-18.1","","87","","","","30","","13","","3.2","","98.26","","","","-24","","Snow"
"-94.07","58.74","CHURCHILL A","5060605","2019-01-04 00:00","2019","01","04","00:00","-14.5","","-16.2","","87","","","","35","","18","","16.1","","98.29","","","","-23","","Snow"
"-94.07","58.74","CHURCHILL A","5060605","2019-01-04 01:00","2019","01","04","01:00","-14.3","","-16.0","","87","","","","34","","16","","16.1","","98.35","","","","-22","","Snow"
"-94.07","58.74","CHURCHILL A","5060605","2019-01-04 02:00","2019","01","04","02:00","-15.6","","-17.2","","88","","","","36","","16","","19.3","","98.42","","","","-24","","Snow"
"-94.07","58.74","CHURCHILL A","5060605","2019-01-04 03:00","2019","01","04","03:00","-15.6","","-17.3","","87","","","","35","","15","","19.3","","98.53","","","","-24","","Snow"
"-94.07","58.74","CHURCHILL A","5060605","2019-01-04 04:00","2019","01","04","04:00","-14.5","","-16.4","","86","","","","36","","18","","19.3","","98.58","","","","-23","","Snow"
"-94.07","58.74","CHURCHILL A","5060605","2019-01-04 05:00","2019","01","04","05:00","-15.1","","-16.8","","87","","","","2","","18","","24.1","","98.64","","","","-24","","Snow"
"-94.07","58.74","CHURCHILL A","5060605","2019-01-04 06:00","2019","01","04","06:00","-15.6","","-17.6","","85","","","","2","","19","","24.1","","98.76","","","","-25","","Snow"
"-94.07","58.74","CHURCHILL A","5060605","2019-01-04 07:00","2019","01","04","07:00","-15.6","","-17.6","","85","","","","2","","17","","8.1","","98.86","","","","-24","","Snow"
"-94.07","58.74","CHURCHILL A","5060605","2019-01-04 08:00","2019","01","04","08:00","-15.9","","-18.4","","82","","","","1","","26","","12.9","","98.99","","","","-27","","Snow"
"-94.07","58.74","CHURCHILL A","5060605","2019-01-04 09:00","2019","01","04","09:00","-16.1","","-18.6","","81","","","","36","","26","","6.4","","99.13","","","","-27","","Snow"
"-94.07","58.74","CHURCHILL A","5060605","2019-01-04 10:00","2019","01","04","10:00","-16.4","","-19.1","","80","","","","1","","26","","12.9","","99.24","","","","-27","","Snow,Blowing Snow"
"-94.07","58.74","CHURCHILL A","5060605","2019-01-04 11:00","2019","01","04","11:00","-16.4","","-19.4","","78","","","","36","","25","","12.9","","99.38","","","","-27","","Snow,Blowing Snow"
"-94.07","58.74","CHURCHILL A","5060605","2019-01-04 12:00","2019","01","04","12:00","-16.9","","-19.4","","81","","","","35","","25","","24.1","","99.46","","","","-28","","Blowing Snow"
"-94.07","58.74","CHURCHILL A","5060605","2019-01-04 13:00","2019","01","04","13:00","-18.4","","-20.9","","81","","","","36","","23","","24.1","","99.57","","","","-29","","Blowing Snow"
"-94.07","58.74","CHURCHILL A","5060605","2019-01-04 14:00","2019","01","04","14:00","-18.4","","-20.6","","83","","","","36","","22","","16.1","","99.66","","","","-29","","Ice Crystals,Blowing Snow"
"-94.07","58.74","CHURCHILL A","5060605","2019-01-04 15:00","2019","01","04","15:00","-18.8","","-20.9","","84","","","","2","","22","","16.1","","99.75","","","","-29","","Ice Crystals,Blowing Snow"
"-94.07","58.74","CHURCHILL A","5060605","2019-01-04 16:00","2019","01","04","16:00","-19.3","","-21.4","","84","","","","2","","17","","16.1","","99.87","","","","-29","","Snow"
"-94.07","58.74","CHURCHILL A","5060605","2019-01-04 17:00","2019","01","04","17:00","-18.9","","-21.1","","83","","","","2","","14","","12.9","","99.98","","","","-27","","Snow"
"-94.07","58.74","CHURCHILL A","5060605","2019-01-04 18:00","2019","01","04","18:00","-18.9","","-21.2","","82","","","","36","","17","","12.9","","100.06","","","","-28","","Snow"
"-94.07","58.74","CHURCHILL A","5060605","2019-01-04 19:00","2019","01","04","19:00","-19.5","","-21.6","","84","","","","36","","20","","16.1","","100.12","","","","-30","","Snow"
"-94.07","58.74","CHURCHILL A","5060605","2019-01-04 20:00","2019","01","04","20:00","-20.1","","-22.3","","83","","","","36","","19","","19.3","","100.19","","","","-30","","Snow,Blowing Snow"
"-94.07","58.74","CHURCHILL A","5060605","2019-01-04 21:00","2019","01","04","21:00","-20.3","","-22.5","","83","","","","1","","18","","4.8","","100.21","","","","-30","","Snow,Blowing Snow"
"-94.07","58.74","CHURCHILL A","5060605","2019-01-04 22:00","2019","01","04","22:00","-20.4","","-22.9","","81","","","","36","","20","","16.1","","100.29","","","","-31","","Snow,Blowing Snow"
"-94.07","58.74","CHURCHILL A","5060605","2019-01-04 23:00","2019","01","04","23:00","-21.3","","-23.9","","80","","","","34","","19","","12.9","","100.35","","","","-32","","Snow,Blowing Snow"
"-94.07","58.74","CHURCHILL A","5060605","2019-01-05 00:00","2019","01","05","00:00","-22.6","","-25.3","","79","","","","33","","21","","16.1","","100.41","","","","-34","","Snow,Blowing Snow"
"-94.07","58.74","CHURCHILL A","5060605","2019-01-05 01:00","2019","01","05","01:00","-23.0","","-25.4","","81","","","","33","","20","","19.3","","100.47","","","","-34","","Snow,Blowing Snow"
"-94.07","58.74","CHURCHILL A","5060605","2019-01-05 02:00","2019","01","05","02:00","-23.5","","-25.8","","82","","","","34","","19","","19.3","","100.56","","","","-35","","Ice Crystals,Blowing Snow"
"-94.07","58.74","CHURCHILL A","5060605","2019-01-05 03:00","2019","01","05","03:00","-22.7","","-25.0","","82","","","","33","","20","","24.1","","100.65","","","","-34","","Ice Crystals,Blowing Snow"
"-94.07","58.74","CHURCHILL A","5060605","2019-01-05 04:00","2019","01","05","04:00","-23.8","","-26.3","","81","","","","32","","17","","24.1","","100.71","","","","-34","","Ice Crystals,Blowing Snow"
"-94.07","58.74","CHURCHILL A","5060605","2019-01-05 05:00","2019","01","05","05:00","-25.7","","-28.3","","79","","","","33","","21","","22.5","","100.81","","","","-38","","Ice Crystals,Blowing Snow"
"-94.07","58.74","CHURCHILL A","5060605","2019-01-05 06:00","2019","01","05","06:00","-27.0","","-29.6","","79","","","","32","","22","","24.1","","100.87","","","","-40","","Ice Crystals,Blowing Snow"
"-94.07","58.74","CHURCHILL A","5060605","2019-01-05 07:00","2019","01","05","07:00","-27.7","","-30.4","","78","","","","33","","18","","24.1","","100.96","","","","-40","","Ice Crystals,Blowing Snow"
"-94.07","58.74","CHURCHILL A","5060605","2019-01-05 08:00","2019","01","05","08:00","-28.6","","-31.3","","78","","","","30","","11","","24.1","","101.08","","","","-38","","Ice Crystals,Blowing Snow"
"-94.07","58.74","CHURCHILL A","5060605","2019-01-05 09:00","2019","01","05","09:00","-29.0","","-31.7","","78","","","","31","","17","","19.3","","101.13","","","","-41","","Ice Crystals,Blowing Snow"
"-94.07","58.74","CHURCHILL A","5060605","2019-01-05 10:00","2019","01","05","10:00","-32.3","","-35.3","","75","","","","28","","14","","16.1","","101.23","","","","-44","","Ice Crystals,Blowing Snow"
"-94.07","58.74","CHURCHILL A","5060605","2019-01-05 11:00","2019","01","05","11:00","-31.6","","-34.7","","75","","","","28","","14","","24.1","","101.26","","","","-43","","Ice Crystals"
"-94.07","58.74","CHURCHILL A","5060605","2019-01-05 12:00","2019","01","05","12:00","-30.3","","-33.4","","75","","","","28","","19","","24.1","","101.28","","","","-43","","Ice Crystals"
"-94.07","58.74","CHURCHILL A","5060605","2019-01-05 13:00","2019","01","05","13:00","-29.0","","-32.0","","76","","","","28","","15","","24.1","","101.35","","","","-40","","Ice Crystals"
"-94.07","58.74","CHURCHILL A","5060605","2019-01-05 14:00","2019","01","05","14:00","-27.8","","-31.1","","74","","","","27","","16","","24.1","","101.39","","","","-39","","Ice Crystals"
"-94.07","58.74","CHURCHILL A","5060605","2019-01-05 15:00","2019","01","05","15:00","-28.0","","-31.6","","72","","","","27","","14","","24.1","","101.45","","","","-39","","Ice Crystals"
"-94.07","58.74","CHURCHILL A","5060605","2019-01-05 16:00","2019","01","05","16:00","-29.2","","-32.6","","73","","","","26","","14","","24.1","","101.51","","","","-40","","Ice Crystals"
"-94.07","58.74","CHURCHILL A","5060605","2019-01-05 17:00","2019","01","05","17:00","-28.5","","-31.8","","74","","","","27","","13","","24.1","","101.55","","","","-39","","Ice Crystals"
"-94.07","58.74","CHURCHILL A","5060605","2019-01-05 18:00","2019","01","05","18:00","-27.6","","-30.9","","74","","","","25","","12","","24.1","","101.54","","","","-37","","Ice Crystals"
"-94.07","58.74","CHURCHILL A","5060605","2019-01-05 19:00","2019","01","05","19:00","-26.3","","-30.1","","71","","","","27","","20","","24.1","","101.57","","","","-38","","Ice Crystals"
"-94.07","58.74","CHURCHILL A","5060605","2019-01-05 20:00","2019","01","05","20:00","-26.6","","-30.5","","70","","","","27","","16","","24.1","","101.56","","","","-38","","Ice Crystals"
"-94.07","58.74","CHURCHILL A","5060605","2019-01-05 21:00","2019","01","05","21:00","-26.0","","-30.1","","69","","","","26","","19","","24.1","","101.55","","","","-38","","Ice Crystals"
"-94.07","58.74","CHURCHILL A","5060605","2019-01-05 22:00","2019","01","05","22:00","-25.3","","-29.2","","71","","","","24","","14","","24.1","","101.48","","","","-35","","Ice Crystals"
"-94.07","58.74","CHURCHILL A","5060605","2019-01-05 23:00","2019","01","05","23:00","-24.4","","-28.1","","72","","","","23","","13","","24.1","","101.46","","","","-34","","Ice Crystals"
"-94.07","58.74","CHURCHILL A","5060605","2019-01-06 00:00","2019","01","06","00:00","-21.7","","-25.5","","72","","","","27","","16","","24.1","","101.47","","","","-31","","Cloudy"
"-94.07","58.74","CHURCHILL A","5060605","2019-01-06 01:00","2019","01","06","01:00","-21.5","","-25.0","","74","","","","27","","20","","24.1","","101.49","","","","-32","","NA"
"-94.07","58.74","CHURCHILL A","5060605","2019-01-06 02:00","2019","01","06","02:00","-21.9","","-25.2","","75","","","","28","","18","","24.1","","101.51","","","","-32","","NA"
"-94.07","58.74","CHURCHILL A","5060605","2019-01-06 03:00","2019","01","06","03:00","-23.7","","-26.8","","76","","","","29","","16","","24.1","","101.55","","","","-34","","Clear"
"-94.07","58.74","CHURCHILL A","5060605","2019-01-06 04:00","2019","01","06","04:00","-24.2","","-27.0","","78","","","","26","","15","","24.1","","101.59","","","","-34","","NA"
"-94.07","58.74","CHURCHILL A","5060605","2019-01-06 05:00","2019","01","06","05:00","-25.2","","-28.3","","76","","","","26","","16","","24.1","","101.62","","","","-36","","NA"
"-94.07","58.74","CHURCHILL A","5060605","2019-01-06 06:00","2019","01","06","06:00","-26.4","","-29.4","","76","","","","27","","16","","24.1","","101.58","","","","-37","","Clear"
"-94.07","58.74","CHURCHILL A","5060605","2019-01-06 07:00","2019","01","06","07:00","-26.2","","-29.4","","75","","","","27","","19","","24.1","","101.59","","","","-38","","NA"
"-94.07","58.74","CHURCHILL A","5060605","2019-01-06 08:00","2019","01","06","08:00","-26.4","","-29.6","","75","","","","25","","14","","24.1","","101.59","","","","-37","","NA"
"-94.07","58.74","CHURCHILL A","5060605","2019-01-06 09:00","2019","01","06","09:00","-27.1","","-30.1","","76","","","","26","","17","","24.1","","101.64","","","","-39","","Mostly Cloudy"
"-94.07","58.74","CHURCHILL A","5060605","2019-01-06 10:00","2019","01","06","10:00","-27.1","","-30.3","","75","","","","25","","10","","24.1","","101.58","","","","-36","","NA"
"-94.07","58.74","CHURCHILL A","5060605","2019-01-06 11:00","2019","01","06","11:00","-26.5","","-29.8","","74","","","","22","","7","","24.1","","101.54","","","","-33","","NA"
"-94.07","58.74","CHURCHILL A","5060605","2019-01-06 12:00","2019","01","06","12:00","-25.4","","-29.1","","72","","","","22","","13","","24.1","","101.50","","","","-35","","Mainly Clear"
"-94.07","58.74","CHURCHILL A","5060605","2019-01-06 13:00","2019","01","06","13:00","-25.1","","-28.9","","71","","","","21","","16","","24.1","","101.45","","","","-36","","NA"
"-94.07","58.74","CHURCHILL A","5060605","2019-01-06 14:00","2019","01","06","14:00","-25.0","","-28.7","","72","","","","19","","13","","24.1","","101.38","","","","-34","","NA"
"-94.07","58.74","CHURCHILL A","5060605","2019-01-06 15:00","2019","01","06","15:00","-24.5","","-28.2","","72","","","","20","","14","","24.1","","101.39","","","","-34","","Mainly Clear"
"-94.07","58.74","CHURCHILL A","5060605","2019-01-06 16:00","2019","01","06","16:00","-25.7","","-29.1","","74","","","","18","","13","","24.1","","101.36","","","","-35","","NA"
"-94.07","58.74","CHURCHILL A","5060605","2019-01-06 17:00","2019","01","06","17:00","-24.9","","-28.1","","75","","","","19","","10","","24.1","","101.34","","","","-33","","NA"
"-94.07","58.74","CHURCHILL A","5060605","2019-01-06 18:00","2019","01","06","18:00","-25.8","","-28.9","","76","","","","17","","16","","24.1","","101.26","","","","-37","","Mostly Cloudy"
"-94.07","58.74","CHURCHILL A","5060605","2019-01-06 19:00","2019","01","06","19:00","-24.4","","-27.5","","76","","","","17","","12","","24.1","","101.17","","","","-33","","NA"
"-94.07","58.74","CHURCHILL A","5060605","2019-01-06 20:00","2019","01","06","20:00","-22.4","","-25.2","","78","","","","17","","18","","24.1","","101.10","","","","-33","","NA"
"-94.07","58.74","CHURCHILL A","5060605","2019-01-06 21:00","2019","01","06","21:00","-20.4","","-22.9","","81","","","","17","","19","","24.1","","101.01","","","","-31","","Mostly Cloudy"
"-94.07","58.74","CHURCHILL A","5060605","2019-01-06 22:00","2019","01","06","22:00","-18.9","","-21.2","","82","","","","17","","21","","24.1","","100.93","","","","-29","","NA"
"-94.07","58.74","CHURCHILL A","5060605","2019-01-06 23:00","2019","01","06","23:00","-18.1","","-20.6","","81","","","","17","","18","","24.1","","100.83","","","","-28","","NA"
"-94.07","58.74","CHURCHILL A","5060605","2019-01-07 00:00","2019","01","07","00:00","-17.6","","-20.0","","82","","","","15","","20","","24.1","","100.72","","","","-27","","Cloudy"
"-94.07","58.74","CHURCHILL A","5060605","2019-01-07 01:00","2019","01","07","01:00","-16.7","","-18.9","","83","","","","15","","23","","24.1","","100.65","","","","-27","","NA"
"-94.07","58.74","CHURCHILL A","5060605","2019-01-07 02:00","2019","01","07","02:00","-15.9","","-18.2","","83","","","","15","","21","","24.1","","100.61","","","","-26","","NA"
"-94.07","58.74","CHURCHILL A","5060605","2019-01-07 03:00","2019","01","07","03:00","-15.7","","-17.8","","84","","","","15","","19","","24.1","","100.52","","","","-25","","Cloudy"
"-94.07","58.74","CHURCHILL A","5060605","2019-01-07 04:00","2019","01","07","04:00","-15.2","","-17.3","","84","","","","13","","20","","24.1","","100.42","","","","-24","","NA"
"-94.07","58.74","CHURCHILL A","5060605","2019-01-07 05:00","2019","01","07","05:00","-14.8","","-16.9","","84","","","","14","","20","","24.1","","100.38","","","","-24","","NA"
"-94.07","58.74","CHURCHILL A","5060605","2019-01-07 06:00","2019","01","07","06:00","-13.9","","-15.5","","88","","","","12","","23","","24.1","","100.28","","","","-23","","Cloudy"
"-94.07","58.74","CHURCHILL A","5060605","2019-01-07 07:00","2019","01","07","07:00","-13.9","","-15.6","","87","","","","11","","25","","19.3","","100.15","","","","-24","","Snow"
"-94.07","58.74","CHURCHILL A","5060605","2019-01-07 08:00","2019","01","07","08:00","-14.6","","-16.3","","87","","","","11","","24","","16.1","","100.08","","","","-24","","Snow,Blowing Snow"
"-94.07","58.74","CHURCHILL A","5060605","2019-01-07 09:00","2019","01","07","09:00","-14.7","","-16.6","","86","","","","10","","27","","24.1","","99.98","","","","-25","","Snow,Blowing Snow"
"-94.07","58.74","CHURCHILL A","5060605","2019-01-07 10:00","2019","01","07","10:00","-14.2","","-16.1","","86","","","","10","","27","","24.1","","99.95","","","","-25","","Snow,Blowing Snow"
"-94.07","58.74","CHURCHILL A","5060605","2019-01-07 11:00","2019","01","07","11:00","-14.0","","-16.0","","85","","","","10","","28","","24.1","","99.90","","","","-24","","Snow,Blowing Snow"
"-94.07","58.74","CHURCHILL A","5060605","2019-01-07 12:00","2019","01","07","12:00","-13.9","","-15.8","","86","","","","10","","28","","24.1","","99.80","","","","-24","","Snow,Blowing Snow"
"-94.07","58.74","CHURCHILL A","5060605","2019-01-07 13:00","2019","01","07","13:00","-13.8","","-15.8","","85","","","","9","","29","","24.1","","99.73","","","","-24","","Snow,Blowing Snow"
"-94.07","58.74","CHURCHILL A","5060605","2019-01-07 14:00","2019","01","07","14:00","-13.8","","-15.7","","86","","","","9","","29","","6.4","","99.69","","","","-24","","Snow,Blowing Snow"
"-94.07","58.74","CHURCHILL A","5060605","2019-01-07 15:00","2019","01","07","15:00","-13.6","","-15.5","","86","","","","9","","32","","19.3","","99.68","","","","-25","","Snow,Blowing Snow"
"-94.07","58.74","CHURCHILL A","5060605","2019-01-07 16:00","2019","01","07","16:00","-13.6","","-15.4","","86","","","","9","","32","","12.9","","99.68","","","","-25","","Snow,Blowing Snow"
"-94.07","58.74","CHURCHILL A","5060605","2019-01-07 17:00","2019","01","07","17:00","-13.3","","-15.0","","87","","","","8","","31","","9.7","","99.71","","","","-24","","Snow,Blowing Snow"
"-94.07","58.74","CHURCHILL A","5060605","2019-01-07 18:00","2019","01","07","18:00","-13.3","","-15.0","","87","","","","7","","32","","1.6","","99.71","","","","-24","","Snow,Fog"
"-94.07","58.74","CHURCHILL A","5060605","2019-01-07 19:00","2019","01","07","19:00","-13.4","","-15.3","","86","","","","6","","32","","6.4","","99.77","","","","-24","","Snow,Blowing Snow"
"-94.07","58.74","CHURCHILL A","5060605","2019-01-07 20:00","2019","01","07","20:00","-14.0","","-15.7","","87","","","","6","","38","","2.4","","99.78","","","","-26","","Snow,Blowing Snow"
"-94.07","58.74","CHURCHILL A","5060605","2019-01-07 21:00","2019","01","07","21:00","-14.2","","-16.2","","85","","","","6","","32","","2.4","","99.82","","","","-25","","Snow,Blowing Snow"
"-94.07","58.74","CHURCHILL A","5060605","2019-01-07 22:00","2019","01","07","22:00","-14.4","","-16.4","","85","","","","6","","37","","4.8","","99.83","","","","-26","","Snow,Blowing Snow"
"-94.07","58.74","CHURCHILL A","5060605","2019-01-07 23:00","2019","01","07","23:00","-14.2","","-16.1","","86","","","","5","","42","","2.4","","99.86","","","","-27","","Snow,Blowing Snow"
"-94.07","58.74","CHURCHILL A","5060605","2019-01-08 00:00","2019","01","08","00:00","-14.2","","-16.2","","85","","","","4","","42","","2.4","","99.93","","","","-27","","Snow,Blowing Snow"
"-94.07","58.74","CHURCHILL A","5060605","2019-01-08 01:00","2019","01","08","01:00","-14.6","","-16.6","","85","","","","4","","46","","1.6","","99.99","","","","-28","","Snow,Blowing Snow"
"-94.07","58.74","CHURCHILL A","5060605","2019-01-08 02:00","2019","01","08","02:00","-14.8","","-17.0","","84","","","","4","","50","","2.4","","100.10","","","","-28","","Snow,Blowing Snow"
"-94.07","58.74","CHURCHILL A","5060605","2019-01-08 03:00","2019","01","08","03:00","-15.4","","-17.7","","83","","","","3","","46","","2.4","","100.23","","","","-29","","Snow,Blowing Snow"
"-94.07","58.74","CHURCHILL A","5060605","2019-01-08 04:00","2019","01","08","04:00","-16.1","","-18.4","","83","","","","3","","49","","2.4","","100.37","","","","-30","","Snow,Blowing Snow"
"-94.07","58.74","CHURCHILL A","5060605","2019-01-08 05:00","2019","01","08","05:00","-16.6","","-18.9","","83","","","","3","","49","","2.4","","100.45","","","","-31","","Snow,Blowing Snow"
"-94.07","58.74","CHURCHILL A","5060605","2019-01-08 06:00","2019","01","08","06:00","-17.2","","-19.4","","83","","","","3","","52","","1.6","","100.59","","","","-32","","Snow,Blowing Snow"
"-94.07","58.74","CHURCHILL A","5060605","2019-01-08 07:00","2019","01","08","07:00","-17.6","","-19.9","","83","","","","2","","47","","1.6","","100.73","","","","-32","","Snow,Blowing Snow"
"-94.07","58.74","CHURCHILL A","5060605","2019-01-08 08:00","2019","01","08","08:00","-17.6","","-20.1","","81","","","","2","","52","","1.6","","100.84","","","","-32","","Snow,Blowing Snow"
"-94.07","58.74","CHURCHILL A","5060605","2019-01-08 09:00","2019","01","08","09:00","-18.3","","-20.8","","81","","","","2","","45","","1.2","","101.00","","","","-33","","Snow,Blowing Snow"
"-94.07","58.74","CHURCHILL A","5060605","2019-01-08 10:00","2019","01","08","10:00","-19.9","","-22.3","","81","","","","1","","48","","1.6","","101.11","","","","-35","","Snow,Blowing Snow"
"-94.07","58.74","CHURCHILL A","5060605","2019-01-08 11:00","2019","01","08","11:00","-21.9","","-24.5","","80","","","","36","","43","","1.2","","101.24","","","","-37","","Snow,Blowing Snow"
"-94.07","58.74","CHURCHILL A","5060605","2019-01-08 12:00","2019","01","08","12:00","-23.5","","-26.3","","78","","","","36","","49","","1.2","","101.32","","","","-40","","Snow,Blowing Snow"
"-94.07","58.74","CHURCHILL A","5060605","2019-01-08 13:00","2019","01","08","13:00","-23.9","","-26.7","","78","","","","36","","49","","1.2","","101.48","","","","-41","","Snow,Blowing Snow"
"-94.07","58.74","CHURCHILL A","5060605","2019-01-08 14:00","2019","01","08","14:00","-24.2","","-27.0","","78","","","","36","","46","","3.2","","101.65","","","","-41","","Snow,Blowing Snow"
"-94.07","58.74","CHURCHILL A","5060605","2019-01-08 15:00","2019","01","08","15:00","-24.9","","-27.8","","77","","","","35","","44","","4.8","","101.80","","","","-41","","Snow,Blowing Snow"
"-94.07","58.74","CHURCHILL A","5060605","2019-01-08 16:00","2019","01","08","16:00","-25.3","","-28.2","","77","","","","35","","41","","4.8","","101.95","","","","-41","","Snow,Blowing Snow"
"-94.07","58.74","CHURCHILL A","5060605","2019-01-08 17:00","2019","01","08","17:00","-26.2","","-29.2","","76","","","","35","","47","","4.8","","102.07","","","","-43","","Snow,Blowing Snow"
"-94.07","58.74","CHURCHILL A","5060605","2019-01-08 18:00","2019","01","08","18:00","-26.4","","-29.6","","75","","","","35","","38","","8.1","","102.20","","","","-42","","Snow,Blowing Snow"
"-94.07","58.74","CHURCHILL A","5060605","2019-01-08 19:00","2019","01","08","19:00","-26.5","","-29.7","","75","","","","34","","37","","9.7","","102.30","","","","-42","","Snow,Blowing Snow"
"-94.07","58.74","CHURCHILL A","5060605","2019-01-08 20:00","2019","01","08","20:00","-26.5","","-29.6","","76","","","","35","","33","","16.1","","102.38","","","","-42","","Snow,Blowing Snow"
"-94.07","58.74","CHURCHILL A","5060605","2019-01-08 21:00","2019","01","08","21:00","-26.7","","-29.9","","75","","","","34","","37","","16.1","","102.47","","","","-43","","Snow,Blowing Snow"
"-94.07","58.74","CHURCHILL A","5060605","2019-01-08 22:00","2019","01","08","22:00","-27.5","","-30.5","","76","","","","34","","30","","16.1","","102.53","","","","-42","","Snow,Blowing Snow"
"-94.07","58.74","CHURCHILL A","5060605","2019-01-08 23:00","2019","01","08","23:00","-27.4","","-30.6","","75","","","","34","","31","","19.3","","102.61","","","","-42","","Snow,Blowing Snow"
"-94.07","58.74","CHURCHILL A","5060605","2019-01-09 00:00","2019","01","09","00:00","-27.2","","-30.4","","75","","","","34","","28","","19.3","","102.65","","","","-42","","Snow,Blowing Snow"
"-94.07","58.74","CHURCHILL A","5060605","2019-01-09 01:00","2019","01","09","01:00","-26.7","","-29.7","","76","","","","34","","27","","19.3","","102.74","","","","-41","","Snow,Blowing Snow"
"-94.07","58.74","CHURCHILL A","5060605","2019-01-09 02:00","2019","01","09","02:00","-26.6","","-29.6","","76","","","","34","","28","","24.1","","102.83","","","","-41","","Ice Crystals,Blowing Snow"
"-94.07","58.74","CHURCHILL A","5060605","2019-01-09 03:00","2019","01","09","03:00","-26.6","","-29.6","","76","","","","33","","27","","24.1","","102.92","","","","-41","","Ice Crystals,Blowing Snow"
"-94.07","58.74","CHURCHILL A","5060605","2019-01-09 04:00","2019","01","09","04:00","-26.6","","-29.6","","76","","","","34","","26","","24.1","","102.97","","","","-40","","Ice Crystals,Blowing Snow"
"-94.07","58.74","CHURCHILL A","5060605","2019-01-09 05:00","2019","01","09","05:00","-26.8","","-29.8","","76","","","","33","","27","","24.1","","103.05","","","","-41","","Ice Crystals,Blowing Snow"
"-94.07","58.74","CHURCHILL A","5060605","2019-01-09 06:00","2019","01","09","06:00","-26.5","","-29.6","","76","","","","32","","23","","24.1","","103.10","","","","-39","","Ice Crystals,Blowing Snow"
"-94.07","58.74","CHURCHILL A","5060605","2019-01-09 07:00","2019","01","09","07:00","-26.4","","-29.7","","74","","","","33","","22","","24.1","","103.14","","","","-39","","Ice Crystals,Blowing Snow"
"-94.07","58.74","CHURCHILL A","5060605","2019-01-09 08:00","2019","01","09","08:00","-26.5","","-29.8","","74","","","","33","","19","","24.1","","103.20","","","","-38","","Ice Crystals,Blowing Snow"
"-94.07","58.74","CHURCHILL A","5060605","2019-01-09 09:00","2019","01","09","09:00","-26.7","","-29.9","","75","","","","33","","20","","24.1","","103.20","","","","-39","","Ice Crystals"
"-94.07","58.74","CHURCHILL A","5060605","2019-01-09 10:00","2019","01","09","10:00","-26.5","","-29.8","","74","","","","33","","16","","24.1","","103.23","","","","-37","","Ice Crystals"
"-94.07","58.74","CHURCHILL A","5060605","2019-01-09 11:00","2019","01","09","11:00","-26.4","","-29.7","","74","","","","31","","13","","24.1","","103.27","","","","-36","","Ice Crystals"
"-94.07","58.74","CHURCHILL A","5060605","2019-01-09 12:00","2019","01","09","12:00","-27.0","","-30.0","","76","","","","29","","14","","24.1","","103.26","","","","-37","","Clear"
"-94.07","58.74","CHURCHILL A","5060605","2019-01-09 13:00","2019","01","09","13:00","-26.6","","-29.9","","74","","","","32","","19","","24.1","","103.27","","","","-39","","NA"
"-94.07","58.74","CHURCHILL A","5060605","2019-01-09 14:00","2019","01","09","14:00","-26.8","","-29.8","","76","","","","31","","15","","24.1","","103.28","","","","-37","","NA"
"-94.07","58.74","CHURCHILL A","5060605","2019-01-09 15:00","2019","01","09","15:00","-26.9","","-29.6","","78","","","","31","","13","","24.1","","103.33","","","","-37","","Clear"
"-94.07","58.74","CHURCHILL A","5060605","2019-01-09 16:00","2019","01","09","16:00","-28.4","","-31.3","","77","","","","29","","12","","24.1","","103.40","","","","-38","","NA"
"-94.07","58.74","CHURCHILL A","5060605","2019-01-09 17:00","2019","01","09","17:00","-28.8","","-31.9","","75","","","","30","","12","","24.1","","103.37","","","","-39","","NA"
"-94.07","58.74","CHURCHILL A","5060605","2019-01-09 18:00","2019","01","09","18:00","-29.8","","-32.9","","75","","","","29","","12","","24.1","","103.37","","","","-40","","Clear"
"-94.07","58.74","CHURCHILL A","5060605","2019-01-09 19:00","2019","01","09","19:00","-30.4","","-33.5","","75","","","","28","","12","","24.1","","103.36","","","","-41","","NA"
"-94.07","58.74","CHURCHILL A","5060605","2019-01-09 20:00","2019","01","09","20:00","-30.3","","-33.4","","75","","","","29","","10","","24.1","","103.33","","","","-40","","NA"
"-94.07","58.74","CHURCHILL A","5060605","2019-01-09 21:00","2019","01","09","21:00","-30.7","","-33.8","","75","","","","28","","11","","24.1","","103.30","","","","-41","","Mainly Clear"
"-94.07","58.74","CHURCHILL A","5060605","2019-01-09 22:00","2019","01","09","22:00","-31.5","","-34.6","","75","","","","27","","9","","24.1","","103.29","","","","-40","","NA"
"-94.07","58.74","CHURCHILL A","5060605","2019-01-09 23:00","2019","01","09","23:00","-31.3","","-34.4","","75","","","","28","","10","","24.1","","103.26","","","","-41","","NA"
"-94.07","58.74","CHURCHILL A","5060605","2019-01-10 00:00","2019","01","10","00:00","-30.1","","-33.2","","75","","","","28","","11","","24.1","","103.26","","","","-40","","Snow"
"-94.07","58.74","CHURCHILL A","5060605","2019-01-10 01:00","2019","01","10","01:00","-30.5","","-33.6","","75","","","","27","","9","","24.1","","103.26","","","","-39","","NA"
"-94.07","58.74","CHURCHILL A","5060605","2019-01-10 02:00","2019","01","10","02:00","-30.0","","-33.1","","75","","","","25","","5","","24.1","","103.26","","","","-36","","NA"
"-94.07","58.74","CHURCHILL A","5060605","2019-01-10 03:00","2019","01","10","03:00","-29.4","","-32.5","","75","","","","24","","7","","24.1","","103.27","","","","-37","","Snow"
"-94.07","58.74","CHURCHILL A","5060605","2019-01-10 04:00","2019","01","10","04:00","-28.6","","-31.7","","75","","","","26","","8","","24.1","","103.24","","","","-36","","Snow"
"-94.07","58.74","CHURCHILL A","5060605","2019-01-10 05:00","2019","01","10","05:00","-28.0","","-31.1","","75","","","","25","","7","","24.1","","103.20","","","","-35","","Snow"
"-94.07","58.74","CHURCHILL A","5060605","2019-01-10 06:00","2019","01","10","06:00","-27.5","","-30.5","","76","","","","27","","8","","24.1","","103.19","","","","-35","","Snow"
"-94.07","58.74","CHURCHILL A","5060605","2019-01-10 07:00","2019","01","10","07:00","-27.0","","-30.0","","76","","","","25","","7","","24.1","","103.18","","","","-34","","Snow"
"-94.07","58.74","CHURCHILL A","5060605","2019-01-10 08:00","2019","01","10","08:00","-26.5","","-29.4","","77","","","","26","","4","","24.1","","103.15","","","","-31","","Snow"
"-94.07","58.74","CHURCHILL A","5060605","2019-01-10 09:00","2019","01","10","09:00","-26.3","","-29.2","","77","","","","28","","7","","24.1","","103.15","","","","-33","","Snow"
"-94.07","58.74","CHURCHILL A","5060605","2019-01-10 10:00","2019","01","10","10:00","-25.9","","-28.7","","78","","","","28","","8","","24.1","","103.15","","","","-33","","Snow"
"-94.07","58.74","CHURCHILL A","5060605","2019-01-10 11:00","2019","01","10","11:00","-25.6","","-28.2","","79","","","","29","","7","","24.1","","103.14","","","","-32","","NA"
"-94.07","58.74","CHURCHILL A","5060605","2019-01-10 12:00","2019","01","10","12:00","-25.0","","-27.6","","79","","","","29","","7","","24.1","","103.14","","","","-31","","Mostly Cloudy"
"-94.07","58.74","CHURCHILL A","5060605","2019-01-10 13:00","2019","01","10","13:00","-25.0","","-27.5","","80","","","","35","","13","","24.1","","103.15","","","","-34","","NA"
"-94.07","58.74","CHURCHILL A","5060605","2019-01-10 14:00","2019","01","10","14:00","-25.5","","-27.9","","81","","","","34","","12","","24.1","","103.15","","","","-35","","NA"
"-94.07","58.74","CHURCHILL A","5060605","2019-01-10 15:00","2019","01","10","15:00","-26.0","","-28.4","","81","","","","35","","15","","24.1","","103.18","","","","-36","","Mainly Clear"
"-94.07","58.74","CHURCHILL A","5060605","2019-01-10 16:00","2019","01","10","16:00","-27.0","","-29.2","","82","","","","33","","13","","24.1","","103.20","","","","-37","","NA"
"-94.07","58.74","CHURCHILL A","5060605","2019-01-10 17:00","2019","01","10","17:00","-27.6","","-29.9","","81","","","","34","","16","","24.1","","103.18","","","","-39","","NA"
"-94.07","58.74","CHURCHILL A","5060605","2019-01-10 18:00","2019","01","10","18:00","-27.9","","-30.5","","79","","","","34","","17","","24.1","","103.20","","","","-40","","Clear"
"-94.07","58.74","CHURCHILL A","5060605","2019-01-10 19:00","2019","01","10","19:00","-28.7","","-31.4","","78","","","","34","","16","","24.1","","103.21","","","","-40","","NA"
"-94.07","58.74","CHURCHILL A","5060605","2019-01-10 20:00","2019","01","10","20:00","-29.3","","-32.0","","78","","","","33","","15","","24.1","","103.24","","","","-41","","NA"
"-94.07","58.74","CHURCHILL A","5060605","2019-01-10 21:00","2019","01","10","21:00","-29.7","","-32.5","","77","","","","33","","16","","24.1","","103.25","","","","-41","","Clear"
"-94.07","58.74","CHURCHILL A","5060605","2019-01-10 22:00","2019","01","10","22:00","-30.0","","-32.8","","77","","","","33","","14","","24.1","","103.26","","","","-41","","NA"
"-94.07","58.74","CHURCHILL A","5060605","2019-01-10 23:00","2019","01","10","23:00","-30.3","","-33.2","","76","","","","33","","14","","24.1","","103.27","","","","-41","","NA"
"-94.07","58.74","CHURCHILL A","5060605","2019-01-11 00:00","2019","01","11","00:00","-30.6","","-33.5","","76","","","","32","","13","","24.1","","103.30","","","","-41","","Clear"
"-94.07","58.74","CHURCHILL A","5060605","2019-01-11 01:00","2019","01","11","01:00","-31.1","","-34.1","","75","","","","30","","12","","24.1","","103.31","","","","-41","","NA"
"-94.07","58.74","CHURCHILL A","5060605","2019-01-11 02:00","2019","01","11","02:00","-32.4","","-35.4","","75","","","","31","","14","","24.1","","103.37","","","","-44","","NA"
"-94.07","58.74","CHURCHILL A","5060605","2019-01-11 03:00","2019","01","11","03:00","-32.8","","-36.0","","74","","","","29","","11","","24.1","","103.40","","","","-43","","Mostly Cloudy"
"-94.07","58.74","CHURCHILL A","5060605","2019-01-11 04:00","2019","01","11","04:00","-32.4","","-35.4","","75","","","","29","","9","","24.1","","103.42","","","","-41","","NA"
"-94.07","58.74","CHURCHILL A","5060605","2019-01-11 05:00","2019","01","11","05:00","-32.3","","-35.3","","75","","","","29","","11","","24.1","","103.49","","","","-42","","NA"
"-94.07","58.74","CHURCHILL A","5060605","2019-01-11 06:00","2019","01","11","06:00","-31.9","","-35.0","","75","","","","28","","10","","24.1","","103.47","","","","-41","","Cloudy"
"-94.07","58.74","CHURCHILL A","5060605","2019-01-11 07:00","2019","01","11","07:00","-31.3","","-34.4","","75","","","","29","","9","","24.1","","103.51","","","","-40","","NA"
"-94.07","58.74","CHURCHILL A","5060605","2019-01-11 08:00","2019","01","11","08:00","-31.7","","-34.8","","75","","","","27","","8","","24.1","","103.56","","","","-40","","NA"
"-94.07","58.74","CHURCHILL A","5060605","2019-01-11 09:00","2019","01","11","09:00","-31.5","","-34.6","","75","","","","29","","9","","24.1","","103.56","","","","-40","","Mostly Cloudy"
"-94.07","58.74","CHURCHILL A","5060605","2019-01-11 10:00","2019","01","11","10:00","-32.2","","-35.4","","74","","","","29","","13","","24.1","","103.59","","","","-43","","NA"
"-94.07","58.74","CHURCHILL A","5060605","2019-01-11 11:00","2019","01","11","11:00","-31.9","","-35.0","","75","","","","29","","11","","24.1","","103.56","","","","-42","","NA"
"-94.07","58.74","CHURCHILL A","5060605","2019-01-11 12:00","2019","01","11","12:00","-31.1","","-34.2","","75","","","","29","","14","","24.1","","103.55","","","","-42","","Mostly Cloudy"
"-94.07","58.74","CHURCHILL A","5060605","2019-01-11 13:00","2019","01","11","13:00","-30.7","","-33.6","","76","","","","29","","13","","24.1","","103.58","","","","-41","","NA"
"-94.07","58.74","CHURCHILL A","5060605","2019-01-11 14:00","2019","01","11","14:00","-30.3","","-33.2","","76","","","","29","","10","","24.1","","103.57","","","","-40","","NA"
"-94.07","58.74","CHURCHILL A","5060605","2019-01-11 15:00","2019","01","11","15:00","-29.7","","-32.7","","76","","","","25","","5","","24.1","","103.56","","","","-35","","Mostly Cloudy"
"-94.07","58.74","CHURCHILL A","5060605","2019-01-11 16:00","2019","01","11","16:00","-29.1","","-32.1","","76","","","","23","","6","","24.1","","103.55","","","","-35","","NA"
"-94.07","58.74","CHURCHILL A","5060605","2019-01-11 17:00","2019","01","11","17:00","-29.0","","-32.0","","76","","","","21","","8","","24.1","","103.55","","","","-37","","NA"
"-94.07","58.74","CHURCHILL A","5060605","2019-01-11 18:00","2019","01","11","18:00","-29.0","","-32.0","","76","","","","22","","9","","24.1","","103.50","","","","-37","","Cloudy"
"-94.07","58.74","CHURCHILL A","5060605","2019-01-11 19:00","2019","01","11","19:00","-28.3","","-31.2","","77","","","","18","","11","","24.1","","103.42","","","","-38","","NA"
"-94.07","58.74","CHURCHILL A","5060605","2019-01-11 20:00","2019","01","11","20:00","-27.8","","-30.7","","77","","","","17","","9","","24.1","","103.38","","","","-36","","NA"
"-94.07","58.74","CHURCHILL A","5060605","2019-01-11 21:00","2019","01","11","21:00","-27.3","","-30.0","","78","","","","18","","11","","24.1","","103.34","","","","-36","","Cloudy"
"-94.07","58.74","CHURCHILL A","5060605","2019-01-11 22:00","2019","01","11","22:00","-26.4","","-29.2","","78","","","","16","","17","","24.1","","103.24","","","","-38","","NA"
"-94.07","58.74","CHURCHILL A","5060605","2019-01-11 23:00","2019","01","11","23:00","-25.1","","-27.8","","79","","","","17","","16","","24.1","","103.12","","","","-36","","NA"
"-94.07","58.74","CHURCHILL A","5060605","2019-01-12 00:00","2019","01","12","00:00","-23.7","","-26.2","","80","","","","16","","20","","24.1","","103.02","","","","-35","","Cloudy"
"-94.07","58.74","CHURCHILL A","5060605","2019-01-12 01:00","2019","01","12","01:00","-22.4","","-24.8","","81","","","","18","","20","","24.1","","102.97","","","","-34","","NA"
"-94.07","58.74","CHURCHILL A","5060605","2019-01-12 02:00","2019","01","12","02:00","-21.3","","-23.6","","82","","","","18","","23","","12.9","","102.84","","","","-33","","Snow"
"-94.07","58.74","CHURCHILL A","5060605","2019-01-12 03:00","2019","01","12","03:00","-20.1","","-22.3","","83","","","","18","","34","","3.2","","102.71","","","","-33","","Snow,Blowing Snow"
"-94.07","58.74","CHURCHILL A","5060605","2019-01-12 04:00","2019","01","12","04:00","-19.3","","-21.5","","83","","","","17","","33","","3.2","","102.55","","","","-32","","Snow,Blowing Snow"
"-94.07","58.74","CHURCHILL A","5060605","2019-01-12 05:00","2019","01","12","05:00","-18.1","","-20.2","","84","","","","18","","36","","3.2","","102.37","","","","-31","","Snow,Blowing Snow"
"-94.07","58.74","CHURCHILL A","5060605","2019-01-12 06:00","2019","01","12","06:00","-17.4","","-19.4","","85","","","","18","","38","","2.4","","102.17","","","","-30","","Snow,Blowing Snow"
"-94.07","58.74","CHURCHILL A","5060605","2019-01-12 07:00","2019","01","12","07:00","-16.2","","-18.0","","86","","","","18","","37","","2.4","","102.04","","","","-29","","Snow,Blowing Snow"
"-94.07","58.74","CHURCHILL A","5060605","2019-01-12 08:00","2019","01","12","08:00","-15.9","","-17.7","","86","","","","19","","36","","2.4","","101.90","","","","-28","","Snow,Blowing Snow"
"-94.07","58.74","CHURCHILL A","5060605","2019-01-12 09:00","2019","01","12","09:00","-14.9","","-16.6","","87","","","","19","","40","","1.6","","101.73","","","","-27","","Snow,Blowing Snow"
"-94.07","58.74","CHURCHILL A","5060605","2019-01-12 10:00","2019","01","12","10:00","-14.9","","-16.6","","87","","","","19","","40","","1.2","","101.53","","","","-27","","Snow,Blowing Snow"
"-94.07","58.74","CHURCHILL A","5060605","2019-01-12 11:00","2019","01","12","11:00","-13.6","","-15.3","","87","","","","19","","43","","1.6","","101.28","","","","-26","","Snow,Blowing Snow"
"-94.07","58.74","CHURCHILL A","5060605","2019-01-12 12:00","2019","01","12","12:00","-12.9","","-15.1","","84","","","","20","","39","","4.8","","101.14","","","","-25","","Snow,Blowing Snow"
"-94.07","58.74","CHURCHILL A","5060605","2019-01-12 13:00","2019","01","12","13:00","-10.9","","-12.9","","85","","","","21","","36","","1.6","","100.99","","","","-21","","Snow,Blowing Snow"
"-94.07","58.74","CHURCHILL A","5060605","2019-01-12 14:00","2019","01","12","14:00","-10.7","","-12.6","","86","","","","22","","46","","1.2","","100.83","","","","-22","","Snow,Blowing Snow"
"-94.07","58.74","CHURCHILL A","5060605","2019-01-12 15:00","2019","01","12","15:00","-10.3","","-12.8","","82","","","","22","","42","","4.8","","100.77","","","","-21","","Snow,Blowing Snow"
"-94.07","58.74","CHURCHILL A","5060605","2019-01-12 16:00","2019","01","12","16:00","-9.8","","-12.6","","80","","","","23","","33","","24.1","","100.80","","","","-20","","Snow,Blowing Snow"
"-94.07","58.74","CHURCHILL A","5060605","2019-01-12 17:00","2019","01","12","17:00","-9.5","","-12.7","","78","","","","23","","32","","24.1","","100.71","","","","-19","","Snow,Blowing Snow"
"-94.07","58.74","CHURCHILL A","5060605","2019-01-12 18:00","2019","01","12","18:00","-9.5","","-12.8","","77","","","","23","","28","","24.1","","100.71","","","","-19","","Snow,Blowing Snow"
"-94.07","58.74","CHURCHILL A","5060605","2019-01-12 19:00","2019","01","12","19:00","-9.4","","-12.4","","79","","","","24","","27","","4.8","","100.68","","","","-18","","Snow,Blowing Snow"
"-94.07","58.74","CHURCHILL A","5060605","2019-01-12 20:00","2019","01","12","20:00","-9.3","","-11.2","","86","","","","25","","23","","16.1","","100.70","","","","-18","","Snow,Blowing Snow"
"-94.07","58.74","CHURCHILL A","5060605","2019-01-12 21:00","2019","01","12","21:00","-8.6","","-11.6","","79","","","","26","","30","","24.1","","100.68","","","","-18","","Snow"
"-94.07","58.74","CHURCHILL A","5060605","2019-01-12 22:00","2019","01","12","22:00","-8.5","","-11.0","","82","","","","26","","31","","24.1","","100.67","","","","-18","","NA"
"-94.07","58.74","CHURCHILL A","5060605","2019-01-12 23:00","2019","01","12","23:00","-8.1","","-10.3","","84","","","","27","","27","","16.1","","100.73","","","","-17","","Snow"
"-94.07","58.74","CHURCHILL A","5060605","2019-01-13 00:00","2019","01","13","00:00","-7.7","","-9.5","","87","","","","28","","27","","4.0","","100.76","","","","-16","","Snow,Blowing Snow"
"-94.07","58.74","CHURCHILL A","5060605","2019-01-13 01:00","2019","01","13","01:00","-9.3","","-12.4","","78","","","","31","","35","","12.9","","100.85","","","","-19","","Snow,Blowing Snow"
"-94.07","58.74","CHURCHILL A","5060605","2019-01-13 02:00","2019","01","13","02:00","-11.6","","-15.0","","76","","","","31","","39","","24.1","","100.92","","","","-23","","Blowing Snow"
"-94.07","58.74","CHURCHILL A","5060605","2019-01-13 03:00","2019","01","13","03:00","-13.4","","-16.8","","76","","","","31","","40","","16.1","","101.00","","","","-25","","Blowing Snow"
"-94.07","58.74","CHURCHILL A","5060605","2019-01-13 04:00","2019","01","13","04:00","-14.5","","-18.1","","74","","","","31","","45","","9.7","","101.05","","","","-27","","Blowing Snow"
"-94.07","58.74","CHURCHILL A","5060605","2019-01-13 05:00","2019","01","13","05:00","-15.3","","-19.1","","73","","","","30","","40","","12.9","","101.11","","","","-28","","Blowing Snow"
"-94.07","58.74","CHURCHILL A","5060605","2019-01-13 06:00","2019","01","13","06:00","-15.8","","-19.6","","73","","","","31","","41","","24.1","","101.13","","","","-29","","Blowing Snow"
"-94.07","58.74","CHURCHILL A","5060605","2019-01-13 07:00","2019","01","13","07:00","-16.4","","-20.2","","73","","","","30","","40","","12.9","","101.12","","","","-29","","Blowing Snow"
"-94.07","58.74","CHURCHILL A","5060605","2019-01-13 08:00","2019","01","13","08:00","-17.1","","-20.7","","74","","","","30","","28","","16.1","","101.09","","","","-28","","Blowing Snow"
"-94.07","58.74","CHURCHILL A","5060605","2019-01-13 09:00","2019","01","13","09:00","-16.4","","-19.7","","76","","","","29","","25","","9.7","","101.11","","","","-27","","Ice Crystals,Blowing Snow"
"-94.07","58.74","CHURCHILL A","5060605","2019-01-13 10:00","2019","01","13","10:00","-17.6","","-21.1","","75","","","","31","","57","","2.4","","101.14","","","","-33","","Ice Crystals,Blowing Snow"
"-94.07","58.74","CHURCHILL A","5060605","2019-01-13 11:00","2019","01","13","11:00","-19.9","","-23.0","","77","","","","32","","57","","0.8","","101.18","","","","-36","","Ice Crystals,Blowing Snow"
"-94.07","58.74","CHURCHILL A","5060605","2019-01-13 12:00","2019","01","13","12:00","-20.8","","-24.0","","76","","","","30","","53","","0.8","","101.16","","","","-37","","Ice Crystals,Blowing Snow"
"-94.07","58.74","CHURCHILL A","5060605","2019-01-13 13:00","2019","01","13","13:00","-21.5","","-24.8","","75","","","","30","","49","","0.8","","101.19","","","","-37","","Ice Crystals,Blowing Snow"
"-94.07","58.74","CHURCHILL A","5060605","2019-01-13 14:00","2019","01","13","14:00","-21.5","","-25.0","","74","","","","31","","50","","1.2","","101.22","","","","-37","","Ice Crystals,Blowing Snow"
"-94.07","58.74","CHURCHILL A","5060605","2019-01-13 15:00","2019","01","13","15:00","-21.8","","-24.8","","77","","","","31","","46","","1.2","","101.32","","","","-37","","Ice Crystals,Blowing Snow"
"-94.07","58.74","CHURCHILL A","5060605","2019-01-13 16:00","2019","01","13","16:00","-22.3","","-25.0","","79","","","","31","","51","","0.8","","101.42","","","","-39","","Ice Crystals,Blowing Snow"
"-94.07","58.74","CHURCHILL A","5060605","2019-01-13 17:00","2019","01","13","17:00","-22.8","","-25.6","","78","","","","31","","48","","0.8","","101.47","","","","-39","","Ice Crystals,Blowing Snow"
"-94.07","58.74","CHURCHILL A","5060605","2019-01-13 18:00","2019","01","13","18:00","-23.1","","-25.8","","79","","","","31","","38","","0.8","","101.55","","","","-38","","Ice Crystals,Blowing Snow"
"-94.07","58.74","CHURCHILL A","5060605","2019-01-13 19:00","2019","01","13","19:00","-23.3","","-26.0","","79","","","","31","","44","","1.2","","101.57","","","","-39","","Ice Crystals,Blowing Snow"
"-94.07","58.74","CHURCHILL A","5060605","2019-01-13 20:00","2019","01","13","20:00","-23.8","","-26.5","","79","","","","31","","41","","1.2","","101.64","","","","-39","","Ice Crystals,Blowing Snow"
"-94.07","58.74","CHURCHILL A","5060605","2019-01-13 21:00","2019","01","13","21:00","-24.1","","-26.9","","78","","","","32","","45","","1.2","","101.70","","","","-40","","Ice Crystals,Blowing Snow"
"-94.07","58.74","CHURCHILL A","5060605","2019-01-13 22:00","2019","01","13","22:00","-24.4","","-27.2","","78","","","","31","","45","","2.4","","101.76","","","","-41","","Ice Crystals,Blowing Snow"
"-94.07","58.74","CHURCHILL A","5060605","2019-01-13 23:00","2019","01","13","23:00","-24.8","","-27.7","","77","","","","31","","45","","2.4","","101.85","","","","-41","","Ice Crystals,Blowing Snow"
"-94.07","58.74","CHURCHILL A","5060605","2019-01-14 00:00","2019","01","14","00:00","-24.5","","-27.3","","78","","","","32","","54","","2.4","","101.90","","","","-42","","Ice Crystals,Blowing Snow"
"-94.07","58.74","CHURCHILL A","5060605","2019-01-14 01:00","2019","01","14","01:00","-24.2","","-26.9","","79","","","","32","","40","","2.4","","101.97","","","","-40","","Ice Crystals,Blowing Snow"
"-94.07","58.74","CHURCHILL A","5060605","2019-01-14 02:00","2019","01","14","02:00","-24.1","","-26.9","","78","","","","32","","39","","2.4","","102.00","","","","-39","","Ice Crystals,Blowing Snow"
"-94.07","58.74","CHURCHILL A","5060605","2019-01-14 03:00","2019","01","14","03:00","-24.2","","-27.0","","78","","","","32","","41","","2.4","","102.05","","","","-40","","Ice Crystals,Blowing Snow"
"-94.07","58.74","CHURCHILL A","5060605","2019-01-14 04:00","2019","01","14","04:00","-24.2","","-26.9","","79","","","","31","","31","","2.4","","102.11","","","","-38","","Ice Crystals,Blowing Snow"
"-94.07","58.74","CHURCHILL A","5060605","2019-01-14 05:00","2019","01","14","05:00","-24.3","","-27.0","","79","","","","31","","31","","2.4","","102.11","","","","-38","","Ice Crystals,Blowing Snow"
"-94.07","58.74","CHURCHILL A","5060605","2019-01-14 06:00","2019","01","14","06:00","-24.9","","-27.7","","78","","","","31","","34","","2.4","","102.14","","","","-40","","Ice Crystals,Blowing Snow"
"-94.07","58.74","CHURCHILL A","5060605","2019-01-14 07:00","2019","01","14","07:00","-25.5","","-28.3","","78","","","","31","","32","","3.2","","102.17","","","","-40","","Ice Crystals,Blowing Snow"
"-94.07","58.74","CHURCHILL A","5060605","2019-01-14 08:00","2019","01","14","08:00","-25.8","","-28.7","","77","","","","31","","28","","2.4","","102.21","","","","-40","","Ice Crystals,Blowing Snow"
"-94.07","58.74","CHURCHILL A","5060605","2019-01-14 09:00","2019","01","14","09:00","-26.3","","-29.2","","77","","","","31","","27","","3.2","","102.26","","","","-40","","Ice Crystals,Blowing Snow"
"-94.07","58.74","CHURCHILL A","5060605","2019-01-14 10:00","2019","01","14","10:00","-26.6","","-29.6","","76","","","","31","","30","","3.2","","102.25","","","","-41","","Ice Crystals,Blowing Snow"
"-94.07","58.74","CHURCHILL A","5060605","2019-01-14 11:00","2019","01","14","11:00","-26.7","","-29.9","","75","","","","31","","28","","24.1","","102.23","","","","-41","","Ice Crystals,Blowing Snow"
"-94.07","58.74","CHURCHILL A","5060605","2019-01-14 12:00","2019","01","14","12:00","-26.5","","-29.6","","76","","","","31","","24","","16.1","","102.22","","","","-40","","Ice Crystals,Blowing Snow"
"-94.07","58.74","CHURCHILL A","5060605","2019-01-14 13:00","2019","01","14","13:00","-26.2","","-29.2","","76","","","","31","","25","","19.3","","102.19","","","","-40","","Ice Crystals,Blowing Snow"
"-94.07","58.74","CHURCHILL A","5060605","2019-01-14 14:00","2019","01","14","14:00","-26.4","","-29.6","","75","","","","31","","23","","24.1","","102.16","","","","-39","","Ice Crystals,Blowing Snow"
"-94.07","58.74","CHURCHILL A","5060605","2019-01-14 15:00","2019","01","14","15:00","-26.4","","-29.3","","77","","","","31","","21","","24.1","","102.15","","","","-39","","Ice Crystals,Blowing Snow"
"-94.07","58.74","CHURCHILL A","5060605","2019-01-14 16:00","2019","01","14","16:00","-27.0","","-29.9","","77","","","","31","","25","","24.1","","102.13","","","","-41","","Ice Crystals,Blowing Snow"
"-94.07","58.74","CHURCHILL A","5060605","2019-01-14 17:00","2019","01","14","17:00","-27.5","","-30.4","","77","","","","31","","22","","24.1","","102.10","","","","-40","","Ice Crystals,Blowing Snow"
"-94.07","58.74","CHURCHILL A","5060605","2019-01-14 18:00","2019","01","14","18:00","-27.3","","-30.0","","78","","","","32","","23","","19.3","","102.05","","","","-41","","Ice Crystals,Blowing Snow"
"-94.07","58.74","CHURCHILL A","5060605","2019-01-14 19:00","2019","01","14","19:00","-27.0","","-29.9","","77","","","","33","","18","","24.1","","102.01","","","","-39","","Ice Crystals,Blowing Snow"
"-94.07","58.74","CHURCHILL A","5060605","2019-01-14 20:00","2019","01","14","20:00","-26.9","","-29.8","","77","","","","33","","23","","24.1","","101.98","","","","-40","","Ice Crystals,Blowing Snow"
"-94.07","58.74","CHURCHILL A","5060605","2019-01-14 21:00","2019","01","14","21:00","-27.4","","-30.4","","76","","","","33","","23","","24.1","","101.94","","","","-41","","Ice Crystals,Blowing Snow"
"-94.07","58.74","CHURCHILL A","5060605","2019-01-14 22:00","2019","01","14","22:00","-27.9","","-30.9","","76","","","","33","","23","","24.1","","101.92","","","","-41","","Ice Crystals,Blowing Snow"
"-94.07","58.74","CHURCHILL A","5060605","2019-01-14 23:00","2019","01","14","23:00","-28.7","","-32.0","","74","","","","34","","28","","24.1","","101.91","","","","-43","","Ice Crystals,Blowing Snow"
"-94.07","58.74","CHURCHILL A","5060605","2019-01-15 00:00","2019","01","15","00:00","-29.4","","-32.8","","73","","","","33","","30","","16.1","","101.90","","","","-45","","Ice Crystals,Blowing Snow"
"-94.07","58.74","CHURCHILL A","5060605","2019-01-15 01:00","2019","01","15","01:00","-29.8","","-33.2","","73","","","","33","","28","","9.7","","101.90","","","","-45","","Ice Crystals,Blowing Snow"
"-94.07","58.74","CHURCHILL A","5060605","2019-01-15 02:00","2019","01","15","02:00","-30.0","","-33.5","","72","","","","34","","28","","6.4","","101.91","","","","-45","","Ice Crystals,Blowing Snow"
"-94.07","58.74","CHURCHILL A","5060605","2019-01-15 03:00","2019","01","15","03:00","-30.4","","-34.1","","71","","","","34","","30","","6.4","","101.92","","","","-46","","Ice Crystals,Blowing Snow"
"-94.07","58.74","CHURCHILL A","5060605","2019-01-15 04:00","2019","01","15","04:00","-30.7","","-34.4","","71","","","","34","","30","","6.4","","101.94","","","","-47","","Ice Crystals,Blowing Snow"
"-94.07","58.74","CHURCHILL A","5060605","2019-01-15 05:00","2019","01","15","05:00","-30.6","","-34.4","","70","","","","34","","31","","4.8","","101.94","","","","-47","","Ice Crystals,Blowing Snow"
"-94.07","58.74","CHURCHILL A","5060605","2019-01-15 06:00","2019","01","15","06:00","-30.8","","-34.5","","71","","","","34","","32","","6.4","","101.94","","","","-47","","Ice Crystals,Blowing Snow"
"-94.07","58.74","CHURCHILL A","5060605","2019-01-15 07:00","2019","01","15","07:00","-31.0","","-34.8","","70","","","","34","","38","","6.4","","101.94","","","","-48","","Ice Crystals,Blowing Snow"
"-94.07","58.74","CHURCHILL A","5060605","2019-01-15 08:00","2019","01","15","08:00","-30.9","","-34.9","","69","","","","35","","34","","4.8","","101.96","","","","-48","","Ice Crystals,Blowing Snow"
"-94.07","58.74","CHURCHILL A","5060605","2019-01-15 09:00","2019","01","15","09:00","-30.6","","-34.1","","72","","","","34","","38","","2.4","","101.99","","","","-48","","Ice Crystals,Blowing Snow"
"-94.07","58.74","CHURCHILL A","5060605","2019-01-15 10:00","2019","01","15","10:00","-30.5","","-34.5","","69","","","","33","","32","","4.0","","102.01","","","","-47","","Ice Crystals,Blowing Snow"
"-94.07","58.74","CHURCHILL A","5060605","2019-01-15 11:00","2019","01","15","11:00","-30.3","","-34.1","","70","","","","34","","37","","2.4","","102.05","","","","-47","","Ice Crystals,Blowing Snow"
"-94.07","58.74","CHURCHILL A","5060605","2019-01-15 12:00","2019","01","15","12:00","-30.4","","-33.6","","74","","","","32","","30","","1.6","","102.06","","","","-46","","Ice Crystals,Blowing Snow"
"-94.07","58.74","CHURCHILL A","5060605","2019-01-15 13:00","2019","01","15","13:00","-30.6","","-34.1","","72","","","","32","","31","","2.4","","102.08","","","","-47","","Ice Crystals,Blowing Snow"
"-94.07","58.74","CHURCHILL A","5060605","2019-01-15 14:00","2019","01","15","14:00","-30.6","","-34.3","","71","","","","32","","36","","3.2","","102.08","","","","-48","","Ice Crystals,Blowing Snow"
"-94.07","58.74","CHURCHILL A","5060605","2019-01-15 15:00","2019","01","15","15:00","-30.7","","-34.4","","71","","","","31","","31","","16.1","","102.09","","","","-47","","Ice Crystals,Blowing Snow"
"-94.07","58.74","CHURCHILL A","5060605","2019-01-15 16:00","2019","01","15","16:00","-30.9","","-34.6","","71","","","","31","","32","","19.3","","102.09","","","","-47","","Ice Crystals,Blowing Snow"
"-94.07","58.74","CHURCHILL A","5060605","2019-01-15 17:00","2019","01","15","17:00","-31.0","","-34.6","","71","","","","32","","33","","24.1","","102.09","","","","-48","","Ice Crystals,Blowing Snow"
"-94.07","58.74","CHURCHILL A","5060605","2019-01-15 18:00","2019","01","15","18:00","-31.2","","-34.9","","71","","","","32","","39","","12.9","","102.06","","","","-49","","Ice Crystals,Blowing Snow"
"-94.07","58.74","CHURCHILL A","5060605","2019-01-15 19:00","2019","01","15","19:00","-31.4","","-35.0","","71","","","","31","","31","","19.3","","102.03","","","","-48","","Ice Crystals,Blowing Snow"
"-94.07","58.74","CHURCHILL A","5060605","2019-01-15 20:00","2019","01","15","20:00","-31.8","","-35.4","","71","","","","31","","31","","19.3","","101.99","","","","-48","","Ice Crystals,Blowing Snow"
"-94.07","58.74","CHURCHILL A","5060605","2019-01-15 21:00","2019","01","15","21:00","-31.5","","-35.1","","71","","","","31","","31","","24.1","","101.95","","","","-48","","Ice Crystals,Blowing Snow"
"-94.07","58.74","CHURCHILL A","5060605","2019-01-15 22:00","2019","01","15","22:00","-31.8","","-35.4","","71","","","","30","","27","","24.1","","101.88","","","","-47","","Ice Crystals"
"-94.07","58.74","CHURCHILL A","5060605","2019-01-15 23:00","2019","01","15","23:00","-31.0","","-34.6","","71","","","","30","","25","","24.1","","101.85","","","","-46","","Ice Crystals"
"-94.07","58.74","CHURCHILL A","5060605","2019-01-16 00:00","2019","01","16","00:00","-30.9","","-34.6","","71","","","","30","","30","","24.1","","101.77","","","","-47","","Ice Crystals"
"-94.07","58.74","CHURCHILL A","5060605","2019-01-16 01:00","2019","01","16","01:00","-31.7","","-35.3","","71","","","","30","","28","","24.1","","101.72","","","","-47","","Ice Crystals"
"-94.07","58.74","CHURCHILL A","5060605","2019-01-16 02:00","2019","01","16","02:00","-32.1","","-35.7","","71","","","","30","","23","","24.1","","101.71","","","","-47","","Ice Crystals"
"-94.07","58.74","CHURCHILL A","5060605","2019-01-16 03:00","2019","01","16","03:00","-32.0","","-35.6","","71","","","","30","","25","","24.1","","101.69","","","","-47","","Ice Crystals"
"-94.07","58.74","CHURCHILL A","5060605","2019-01-16 04:00","2019","01","16","04:00","-32.1","","-35.7","","71","","","","29","","27","","24.1","","101.63","","","","-48","","Ice Crystals"
"-94.07","58.74","CHURCHILL A","5060605","2019-01-16 05:00","2019","01","16","05:00","-32.0","","-35.8","","70","","","","30","","28","","16.1","","101.58","","","","-48","","Ice Crystals"
"-94.07","58.74","CHURCHILL A","5060605","2019-01-16 06:00","2019","01","16","06:00","-31.8","","-35.4","","71","","","","28","","25","","24.1","","101.52","","","","-47","","Ice Crystals"
"-94.07","58.74","CHURCHILL A","5060605","2019-01-16 07:00","2019","01","16","07:00","-32.2","","-36.0","","70","","","","29","","18","","24.1","","101.49","","","","-45","","Ice Crystals"
"-94.07","58.74","CHURCHILL A","5060605","2019-01-16 08:00","2019","01","16","08:00","-31.4","","-35.2","","70","","","","30","","24","","24.1","","101.44","","","","-46","","Ice Crystals"
"-94.07","58.74","CHURCHILL A","5060605","2019-01-16 09:00","2019","01","16","09:00","-31.9","","-35.7","","70","","","","29","","22","","24.1","","101.41","","","","-46","","Ice Crystals"
"-94.07","58.74","CHURCHILL A","5060605","2019-01-16 10:00","2019","01","16","10:00","-31.7","","-35.6","","69","","","","29","","24","","24.1","","101.42","","","","-46","","Ice Crystals"
"-94.07","58.74","CHURCHILL A","5060605","2019-01-16 11:00","2019","01","16","11:00","-31.2","","-35.3","","68","","","","30","","27","","24.1","","101.41","","","","-46","","Ice Crystals,Blowing Snow"
"-94.07","58.74","CHURCHILL A","5060605","2019-01-16 12:00","2019","01","16","12:00","-30.1","","-34.7","","65","","","","30","","30","","24.1","","101.38","","","","-46","","Ice Crystals"
"-94.07","58.74","CHURCHILL A","5060605","2019-01-16 13:00","2019","01","16","13:00","-29.8","","-34.4","","65","","","","30","","34","","24.1","","101.33","","","","-46","","Ice Crystals"
"-94.07","58.74","CHURCHILL A","5060605","2019-01-16 14:00","2019","01","16","14:00","-29.8","","-34.4","","65","","","","31","","35","","16.1","","101.32","","","","-46","","Ice Crystals,Blowing Snow"
"-94.07","58.74","CHURCHILL A","5060605","2019-01-16 15:00","2019","01","16","15:00","-29.8","","-34.4","","65","","","","31","","34","","24.1","","101.33","","","","-46","","Ice Crystals,Blowing Snow"
"-94.07","58.74","CHURCHILL A","5060605","2019-01-16 16:00","2019","01","16","16:00","-30.1","","-34.7","","65","","","","31","","29","","24.1","","101.34","","","","-46","","Ice Crystals,Blowing Snow"
"-94.07","58.74","CHURCHILL A","5060605","2019-01-16 17:00","2019","01","16","17:00","-30.5","","-34.9","","66","","","","30","","31","","24.1","","101.33","","","","-46","","Ice Crystals,Blowing Snow"
"-94.07","58.74","CHURCHILL A","5060605","2019-01-16 18:00","2019","01","16","18:00","-30.5","","-34.9","","66","","","","30","","32","","24.1","","101.33","","","","-47","","Ice Crystals,Blowing Snow"
"-94.07","58.74","CHURCHILL A","5060605","2019-01-16 19:00","2019","01","16","19:00","-30.5","","-34.8","","67","","","","31","","32","","12.9","","101.29","","","","-47","","Ice Crystals,Blowing Snow"
"-94.07","58.74","CHURCHILL A","5060605","2019-01-16 20:00","2019","01","16","20:00","-30.5","","-34.6","","68","","","","32","","39","","6.4","","101.25","","","","-48","","Ice Crystals,Blowing Snow"
"-94.07","58.74","CHURCHILL A","5060605","2019-01-16 21:00","2019","01","16","21:00","-30.6","","-34.7","","68","","","","31","","36","","8.1","","101.22","","","","-48","","Ice Crystals,Blowing Snow"
"-94.07","58.74","CHURCHILL A","5060605","2019-01-16 22:00","2019","01","16","22:00","-31.0","","-35.1","","68","","","","32","","36","","8.1","","101.20","","","","-48","","Ice Crystals,Blowing Snow"
"-94.07","58.74","CHURCHILL A","5060605","2019-01-16 23:00","2019","01","16","23:00","-31.7","","-35.8","","68","","","","31","","24","","9.7","","101.19","","","","-46","","Ice Crystals,Blowing Snow"
"-94.07","58.74","CHURCHILL A","5060605","2019-01-17 00:00","2019","01","17","00:00","-32.0","","-36.1","","68","","","","31","","29","","9.7","","101.18","","","","-48","","Ice Crystals,Blowing Snow"
"-94.07","58.74","CHURCHILL A","5060605","2019-01-17 01:00","2019","01","17","01:00","-32.4","","-36.6","","67","","","","31","","27","","19.3","","101.16","","","","-48","","Ice Crystals,Blowing Snow"
"-94.07","58.74","CHURCHILL A","5060605","2019-01-17 02:00","2019","01","17","02:00","-32.4","","-36.8","","66","","","","31","","27","","19.3","","101.15","","","","-48","","Ice Crystals,Blowing Snow"
"-94.07","58.74","CHURCHILL A","5060605","2019-01-17 03:00","2019","01","17","03:00","-32.5","","-36.9","","66","","","","30","","27","","24.1","","101.12","","","","-48","","Ice Crystals,Blowing Snow"
"-94.07","58.74","CHURCHILL A","5060605","2019-01-17 04:00","2019","01","17","04:00","-33.6","","-37.6","","68","","","","29","","22","","24.1","","101.10","","","","-48","","Ice Crystals,Blowing Snow"
"-94.07","58.74","CHURCHILL A","5060605","2019-01-17 05:00","2019","01","17","05:00","-33.8","","-37.8","","68","","","","29","","23","","24.1","","101.08","","","","-49","","Ice Crystals,Blowing Snow"
"-94.07","58.74","CHURCHILL A","5060605","2019-01-17 06:00","2019","01","17","06:00","-33.5","","-37.5","","68","","","","30","","23","","20.9","","101.04","","","","-48","","Ice Crystals"
"-94.07","58.74","CHURCHILL A","5060605","2019-01-17 07:00","2019","01","17","07:00","-33.6","","-37.3","","70","","","","30","","19","","24.1","","101.01","","","","-47","","Ice Crystals"
"-94.07","58.74","CHURCHILL A","5060605","2019-01-17 08:00","2019","01","17","08:00","-32.1","","-35.6","","72","","","","30","","19","","4.8","","100.99","","","","-45","","Snow"
"-94.07","58.74","CHURCHILL A","5060605","2019-01-17 09:00","2019","01","17","09:00","-31.1","","-34.2","","75","","","","30","","25","","1.6","","101.00","","","","-46","","Snow,Blowing Snow"
"-94.07","58.74","CHURCHILL A","5060605","2019-01-17 10:00","2019","01","17","10:00","-30.2","","-33.6","","73","","","","31","","29","","1.2","","101.02","","","","-46","","Snow,Blowing Snow"
"-94.07","58.74","CHURCHILL A","5060605","2019-01-17 11:00","2019","01","17","11:00","-30.0","","-33.4","","73","","","","31","","35","","1.2","","101.03","","","","-47","","Snow,Blowing Snow"
"-94.07","58.74","CHURCHILL A","5060605","2019-01-17 12:00","2019","01","17","12:00","-30.0","","-33.5","","72","","","","32","","35","","1.2","","101.08","","","","-47","","Snow,Blowing Snow"
"-94.07","58.74","CHURCHILL A","5060605","2019-01-17 13:00","2019","01","17","13:00","-30.1","","-33.6","","72","","","","32","","33","","1.6","","101.14","","","","-46","","Blowing Snow"
"-94.07","58.74","CHURCHILL A","5060605","2019-01-17 14:00","2019","01","17","14:00","-30.3","","-33.7","","73","","","","32","","34","","1.6","","101.20","","","","-47","","Blowing Snow"
"-94.07","58.74","CHURCHILL A","5060605","2019-01-17 15:00","2019","01","17","15:00","-30.5","","-34.0","","72","","","","32","","39","","1.6","","101.30","","","","-48","","Blowing Snow"
"-94.07","58.74","CHURCHILL A","5060605","2019-01-17 16:00","2019","01","17","16:00","-31.0","","-34.5","","72","","","","32","","33","","1.6","","101.43","","","","-48","","Blowing Snow"
"-94.07","58.74","CHURCHILL A","5060605","2019-01-17 17:00","2019","01","17","17:00","-31.8","","-35.3","","72","","","","31","","31","","2.4","","101.52","","","","-48","","Blowing Snow"
"-94.07","58.74","CHURCHILL A","5060605","2019-01-17 18:00","2019","01","17","18:00","-32.3","","-35.8","","72","","","","32","","35","","2.4","","101.58","","","","-50","","Blowing Snow"
"-94.07","58.74","CHURCHILL A","5060605","2019-01-17 19:00","2019","01","17","19:00","-32.6","","-36.1","","72","","","","32","","37","","2.4","","101.61","","","","-50","","Blowing Snow"
"-94.07","58.74","CHURCHILL A","5060605","2019-01-17 20:00","2019","01","17","20:00","-33.1","","-36.5","","72","","","","32","","34","","1.6","","101.65","","","","-51","","Blowing Snow"
"-94.07","58.74","CHURCHILL A","5060605","2019-01-17 21:00","2019","01","17","21:00","-33.5","","-36.9","","72","","","","32","","29","","2.4","","101.68","","","","-50","","Blowing Snow"
"-94.07","58.74","CHURCHILL A","5060605","2019-01-17 22:00","2019","01","17","22:00","-34.2","","-37.9","","70","","","","31","","30","","4.8","","101.72","","","","-51","","Blowing Snow"
"-94.07","58.74","CHURCHILL A","5060605","2019-01-17 23:00","2019","01","17","23:00","-34.2","","-37.8","","71","","","","31","","29","","6.4","","101.75","","","","-51","","Blowing Snow"
"-94.07","58.74","CHURCHILL A","5060605","2019-01-18 00:00","2019","01","18","00:00","-34.2","","-37.9","","70","","","","31","","28","","19.3","","101.79","","","","-51","","Ice Crystals,Blowing Snow"
"-94.07","58.74","CHURCHILL A","5060605","2019-01-18 01:00","2019","01","18","01:00","-34.5","","-38.2","","70","","","","31","","27","","19.3","","101.85","","","","-51","","Ice Crystals,Blowing Snow"
"-94.07","58.74","CHURCHILL A","5060605","2019-01-18 02:00","2019","01","18","02:00","-34.2","","-37.9","","70","","","","31","","28","","24.1","","101.90","","","","-51","","Ice Crystals,Blowing Snow"
"-94.07","58.74","CHURCHILL A","5060605","2019-01-18 03:00","2019","01","18","03:00","-34.4","","-38.2","","69","","","","30","","22","","24.1","","101.94","","","","-49","","Ice Crystals,Blowing Snow"
"-94.07","58.74","CHURCHILL A","5060605","2019-01-18 04:00","2019","01","18","04:00","-34.3","","-38.0","","70","","","","31","","23","","24.1","","101.97","","","","-49","","Ice Crystals,Blowing Snow"
"-94.07","58.74","CHURCHILL A","5060605","2019-01-18 05:00","2019","01","18","05:00","-34.1","","-37.8","","70","","","","30","","22","","24.1","","101.99","","","","-49","","Ice Crystals,Blowing Snow"
"-94.07","58.74","CHURCHILL A","5060605","2019-01-18 06:00","2019","01","18","06:00","-34.3","","-38.0","","70","","","","30","","25","","24.1","","102.02","","","","-50","","Ice Crystals,Blowing Snow"
"-94.07","58.74","CHURCHILL A","5060605","2019-01-18 07:00","2019","01","18","07:00","-34.2","","-37.9","","70","","","","31","","23","","24.1","","102.05","","","","-49","","Ice Crystals,Blowing Snow"
"-94.07","58.74","CHURCHILL A","5060605","2019-01-18 08:00","2019","01","18","08:00","-34.5","","-38.2","","70","","","","30","","18","","24.1","","102.07","","","","-48","","Ice Crystals,Blowing Snow"
"-94.07","58.74","CHURCHILL A","5060605","2019-01-18 09:00","2019","01","18","09:00","-35.0","","-38.7","","70","","","","30","","18","","24.1","","102.08","","","","-49","","Ice Crystals"
"-94.07","58.74","CHURCHILL A","5060605","2019-01-18 10:00","2019","01","18","10:00","-33.6","","-37.5","","69","","","","31","","26","","24.1","","102.09","","","","-49","","Ice Crystals"
"-94.07","58.74","CHURCHILL A","5060605","2019-01-18 11:00","2019","01","18","11:00","-33.4","","-37.6","","67","","","","31","","26","","24.1","","102.11","","","","-49","","Ice Crystals"
"-94.07","58.74","CHURCHILL A","5060605","2019-01-18 12:00","2019","01","18","12:00","-33.3","","-37.6","","66","","","","31","","21","","24.1","","102.15","","","","-48","","Ice Crystals"
"-94.07","58.74","CHURCHILL A","5060605","2019-01-18 13:00","2019","01","18","13:00","-33.1","","-37.3","","67","","","","30","","23","","24.1","","102.19","","","","-48","","Ice Crystals"
"-94.07","58.74","CHURCHILL A","5060605","2019-01-18 14:00","2019","01","18","14:00","-33.0","","-37.4","","66","","","","31","","21","","24.1","","102.24","","","","-47","","Ice Crystals"
"-94.07","58.74","CHURCHILL A","5060605","2019-01-18 15:00","2019","01","18","15:00","-33.2","","-37.4","","67","","","","31","","19","","24.1","","102.30","","","","-47","","Ice Crystals"
"-94.07","58.74","CHURCHILL A","5060605","2019-01-18 16:00","2019","01","18","16:00","-33.5","","-37.6","","67","","","","30","","18","","24.1","","102.36","","","","-47","","Ice Crystals"
"-94.07","58.74","CHURCHILL A","5060605","2019-01-18 17:00","2019","01","18","17:00","-33.8","","-38.0","","67","","","","31","","23","","24.1","","102.43","","","","-49","","Ice Crystals"
"-94.07","58.74","CHURCHILL A","5060605","2019-01-18 18:00","2019","01","18","18:00","-34.0","","-38.2","","67","","","","32","","29","","24.1","","102.45","","","","-51","","Ice Crystals"
"-94.07","58.74","CHURCHILL A","5060605","2019-01-18 19:00","2019","01","18","19:00","-34.3","","-38.1","","69","","","","32","","24","","24.1","","102.46","","","","-50","","Ice Crystals"
"-94.07","58.74","CHURCHILL A","5060605","2019-01-18 20:00","2019","01","18","20:00","-33.9","","-37.6","","70","","","","33","","22","","24.1","","102.47","","","","-49","","Ice Crystals"
"-94.07","58.74","CHURCHILL A","5060605","2019-01-18 21:00","2019","01","18","21:00","-34.0","","-37.7","","70","","","","33","","19","","24.1","","102.52","","","","-48","","Ice Crystals,Blowing Snow"
"-94.07","58.74","CHURCHILL A","5060605","2019-01-18 22:00","2019","01","18","22:00","-34.8","","-38.2","","72","","","","30","","13","","24.1","","102.55","","","","-46","","Ice Crystals"
"-94.07","58.74","CHURCHILL A","5060605","2019-01-18 23:00","2019","01","18","23:00","-34.7","","-38.1","","72","","","","31","","19","","24.1","","102.62","","","","-49","","Ice Crystals"
"-94.07","58.74","CHURCHILL A","5060605","2019-01-19 00:00","2019","01","19","00:00","-35.1","","-38.5","","72","","","","31","","20","","24.1","","102.65","","","","-50","","Ice Crystals"
"-94.07","58.74","CHURCHILL A","5060605","2019-01-19 01:00","2019","01","19","01:00","-35.4","","-38.9","","71","","","","31","","18","","24.1","","102.70","","","","-49","","Ice Crystals"
"-94.07","58.74","CHURCHILL A","5060605","2019-01-19 02:00","2019","01","19","02:00","-35.5","","-39.0","","71","","","","31","","22","","24.1","","102.74","","","","-51","","Ice Crystals"
"-94.07","58.74","CHURCHILL A","5060605","2019-01-19 03:00","2019","01","19","03:00","-35.9","","-39.4","","71","","","","30","","20","","24.1","","102.79","","","","-51","","Haze"
"-94.07","58.74","CHURCHILL A","5060605","2019-01-19 04:00","2019","01","19","04:00","-36.2","","-39.8","","70","","","","31","","21","","24.1","","102.83","","","","-51","","NA"
"-94.07","58.74","CHURCHILL A","5060605","2019-01-19 05:00","2019","01","19","05:00","-36.1","","-39.9","","69","","","","31","","19","","24.1","","102.88","","","","-50","","NA"
"-94.07","58.74","CHURCHILL A","5060605","2019-01-19 06:00","2019","01","19","06:00","-36.6","","-40.2","","70","","","","30","","18","","24.1","","102.87","","","","-51","","Clear"
"-94.07","58.74","CHURCHILL A","5060605","2019-01-19 07:00","2019","01","19","07:00","-37.4","","-41.1","","69","","","","30","","21","","24.1","","102.90","","","","-53","","NA"
"-94.07","58.74","CHURCHILL A","5060605","2019-01-19 08:00","2019","01","19","08:00","-37.8","","-41.5","","69","","","","29","","20","","24.1","","102.89","","","","-53","","NA"
"-94.07","58.74","CHURCHILL A","5060605","2019-01-19 09:00","2019","01","19","09:00","-37.7","","-41.4","","69","","","","29","","15","","12.9","","102.87","","","","-51","","Ice Crystals"
"-94.07","58.74","CHURCHILL A","5060605","2019-01-19 10:00","2019","01","19","10:00","-37.7","","-41.4","","69","","","","27","","18","","16.1","","102.86","","","","-52","","Ice Crystals"
"-94.07","58.74","CHURCHILL A","5060605","2019-01-19 11:00","2019","01","19","11:00","-37.0","","-40.9","","68","","","","28","","20","","24.1","","102.81","","","","-52","","Ice Crystals"
"-94.07","58.74","CHURCHILL A","5060605","2019-01-19 12:00","2019","01","19","12:00","-35.2","","-39.3","","67","","","","28","","18","","24.1","","102.80","","","","-49","","Clear"
"-94.07","58.74","CHURCHILL A","5060605","2019-01-19 13:00","2019","01","19","13:00","-34.0","","-38.3","","66","","","","27","","16","","24.1","","102.73","","","","-47","","NA"
"-94.07","58.74","CHURCHILL A","5060605","2019-01-19 14:00","2019","01","19","14:00","-32.2","","-37.1","","63","","","","27","","20","","24.1","","102.67","","","","-46","","NA"
"-94.07","58.74","CHURCHILL A","5060605","2019-01-19 15:00","2019","01","19","15:00","-31.3","","-36.2","","63","","","","26","","22","","24.1","","102.61","","","","-45","","Mainly Clear"
"-94.07","58.74","CHURCHILL A","5060605","2019-01-19 16:00","2019","01","19","16:00","-30.6","","-35.5","","63","","","","27","","26","","24.1","","102.58","","","","-45","","NA"
"-94.07","58.74","CHURCHILL A","5060605","2019-01-19 17:00","2019","01","19","17:00","-29.3","","-34.3","","63","","","","27","","31","","24.1","","102.50","","","","-45","","NA"
"-94.07","58.74","CHURCHILL A","5060605","2019-01-19 18:00","2019","01","19","18:00","-28.3","","-33.3","","63","","","","28","","31","","24.1","","102.46","","","","-44","","Mostly Cloudy"
"-94.07","58.74","CHURCHILL A","5060605","2019-01-19 19:00","2019","01","19","19:00","-28.6","","-33.3","","65","","","","27","","28","","24.1","","102.39","","","","-43","","NA"
"-94.07","58.74","CHURCHILL A","5060605","2019-01-19 20:00","2019","01","19","20:00","-28.5","","-33.2","","65","","","","27","","29","","24.1","","102.31","","","","-43","","NA"
"-94.07","58.74","CHURCHILL A","5060605","2019-01-19 21:00","2019","01","19","21:00","-28.8","","-33.1","","67","","","","27","","25","","24.1","","102.27","","","","-43","","Mainly Clear"
"-94.07","58.74","CHURCHILL A","5060605","2019-01-19 22:00","2019","01","19","22:00","-28.9","","-33.2","","67","","","","27","","24","","24.1","","102.25","","","","-43","","NA"
"-94.07","58.74","CHURCHILL A","5060605","2019-01-19 23:00","2019","01","19","23:00","-28.6","","-33.1","","66","","","","27","","24","","24.1","","102.22","","","","-42","","NA"
"-94.07","58.74","CHURCHILL A","5060605","2019-01-20 00:00","2019","01","20","00:00","-28.6","","-33.0","","67","","","","27","","25","","24.1","","102.20","","","","-43","","Mainly Clear"
"-94.07","58.74","CHURCHILL A","5060605","2019-01-20 01:00","2019","01","20","01:00","-28.3","","-32.8","","66","","","","27","","27","","24.1","","102.19","","","","-43","","NA"
"-94.07","58.74","CHURCHILL A","5060605","2019-01-20 02:00","2019","01","20","02:00","-28.0","","-32.7","","65","","","","27","","26","","24.1","","102.20","","","","-42","","NA"
"-94.07","58.74","CHURCHILL A","5060605","2019-01-20 03:00","2019","01","20","03:00","-27.8","","-32.3","","66","","","","27","","27","","24.1","","102.22","","","","-42","","Clear"
"-94.07","58.74","CHURCHILL A","5060605","2019-01-20 04:00","2019","01","20","04:00","-27.8","","-32.7","","64","","","","27","","24","","24.1","","102.22","","","","-41","","NA"
"-94.07","58.74","CHURCHILL A","5060605","2019-01-20 05:00","2019","01","20","05:00","-28.1","","-32.8","","65","","","","27","","26","","24.1","","102.22","","","","-42","","NA"
"-94.07","58.74","CHURCHILL A","5060605","2019-01-20 06:00","2019","01","20","06:00","-28.4","","-32.9","","66","","","","27","","26","","24.1","","102.20","","","","-43","","Clear"
"-94.07","58.74","CHURCHILL A","5060605","2019-01-20 07:00","2019","01","20","07:00","-28.2","","-32.7","","66","","","","27","","24","","24.1","","102.17","","","","-42","","NA"
"-94.07","58.74","CHURCHILL A","5060605","2019-01-20 08:00","2019","01","20","08:00","-28.6","","-32.8","","68","","","","27","","21","","32.2","","102.14","","","","-42","","NA"
"-94.07","58.74","CHURCHILL A","5060605","2019-01-20 09:00","2019","01","20","09:00","-28.0","","-32.5","","66","","","","27","","27","","24.1","","102.06","","","","-42","","Mainly Clear"
"-94.07","58.74","CHURCHILL A","5060605","2019-01-20 10:00","2019","01","20","10:00","-27.7","","-33.1","","61","","","","27","","35","","24.1","","102.05","","","","-44","","NA"
"-94.07","58.74","CHURCHILL A","5060605","2019-01-20 11:00","2019","01","20","11:00","-26.4","","-32.4","","58","","","","26","","25","","24.1","","102.05","","","","-40","","NA"
"-94.07","58.74","CHURCHILL A","5060605","2019-01-20 12:00","2019","01","20","12:00","-25.9","","-32.1","","57","","","","25","","25","","24.1","","102.01","","","","-39","","Mostly Cloudy"
"-94.07","58.74","CHURCHILL A","5060605","2019-01-20 13:00","2019","01","20","13:00","-25.0","","-31.4","","56","","","","25","","24","","24.1","","101.92","","","","-38","","NA"
"-94.07","58.74","CHURCHILL A","5060605","2019-01-20 14:00","2019","01","20","14:00","-23.9","","-30.8","","54","","","","24","","24","","24.1","","101.83","","","","-36","","NA"
"-94.07","58.74","CHURCHILL A","5060605","2019-01-20 15:00","2019","01","20","15:00","-24.5","","-30.6","","58","","","","23","","21","","24.1","","101.76","","","","-36","","Cloudy"
"-94.07","58.74","CHURCHILL A","5060605","2019-01-20 16:00","2019","01","20","16:00","-24.1","","-29.8","","60","","","","22","","21","","24.1","","101.65","","","","-36","","NA"
"-94.07","58.74","CHURCHILL A","5060605","2019-01-20 17:00","2019","01","20","17:00","-24.1","","-29.6","","61","","","","22","","25","","24.1","","101.56","","","","-37","","NA"
"-94.07","58.74","CHURCHILL A","5060605","2019-01-20 18:00","2019","01","20","18:00","-23.7","","-29.4","","60","","","","22","","29","","24.1","","101.43","","","","-37","","Cloudy"
"-94.07","58.74","CHURCHILL A","5060605","2019-01-20 19:00","2019","01","20","19:00","-24.1","","-29.4","","62","","","","21","","26","","24.1","","101.28","","","","-37","","NA"
"-94.07","58.74","CHURCHILL A","5060605","2019-01-20 20:00","2019","01","20","20:00","-24.0","","-29.4","","62","","","","21","","27","","24.1","","101.14","","","","-37","","NA"
"-94.07","58.74","CHURCHILL A","5060605","2019-01-20 21:00","2019","01","20","21:00","-23.7","","-28.9","","63","","","","21","","26","","24.1","","100.97","","","","-37","","Mostly Cloudy"
"-94.07","58.74","CHURCHILL A","5060605","2019-01-20 22:00","2019","01","20","22:00","-23.6","","-29.0","","62","","","","21","","28","","24.1","","100.81","","","","-37","","NA"
"-94.07","58.74","CHURCHILL A","5060605","2019-01-20 23:00","2019","01","20","23:00","-23.3","","-28.5","","63","","","","21","","26","","24.1","","100.68","","","","-36","","NA"
"-94.07","58.74","CHURCHILL A","5060605","2019-01-21 00:00","2019","01","21","00:00","-22.6","","-25.7","","76","","","","21","","29","","4.8","","100.59","","","","-36","","Snow,Blowing Snow"
"-94.07","58.74","CHURCHILL A","5060605","2019-01-21 01:00","2019","01","21","01:00","-22.4","","-25.2","","78","","","","22","","24","","1.6","","100.47","","","","-34","","Snow,Blowing Snow"
"-94.07","58.74","CHURCHILL A","5060605","2019-01-21 02:00","2019","01","21","02:00","-21.7","","-24.4","","79","","","","22","","25","","2.4","","100.41","","","","-34","","Snow,Blowing Snow"
"-94.07","58.74","CHURCHILL A","5060605","2019-01-21 03:00","2019","01","21","03:00","-21.1","","-24.0","","78","","","","23","","22","","19.3","","100.35","","","","-32","","Snow,Blowing Snow"
"-94.07","58.74","CHURCHILL A","5060605","2019-01-21 04:00","2019","01","21","04:00","-20.8","","-24.0","","76","","","","24","","19","","19.3","","100.28","","","","-31","","Snow,Blowing Snow"
"-94.07","58.74","CHURCHILL A","5060605","2019-01-21 05:00","2019","01","21","05:00","-20.2","","-23.4","","76","","","","24","","23","","19.3","","100.23","","","","-31","","Snow,Blowing Snow"
"-94.07","58.74","CHURCHILL A","5060605","2019-01-21 06:00","2019","01","21","06:00","-19.9","","-22.8","","78","","","","25","","18","","4.8","","100.26","","","","-30","","Snow,Blowing Snow"
"-94.07","58.74","CHURCHILL A","5060605","2019-01-21 07:00","2019","01","21","07:00","-19.7","","-22.2","","81","","","","25","","20","","2.4","","100.21","","","","-30","","Snow,Blowing Snow"
"-94.07","58.74","CHURCHILL A","5060605","2019-01-21 08:00","2019","01","21","08:00","-19.4","","-21.9","","81","","","","26","","16","","16.1","","100.21","","","","-29","","Snow,Blowing Snow"
"-94.07","58.74","CHURCHILL A","5060605","2019-01-21 09:00","2019","01","21","09:00","-19.1","","-21.7","","80","","","","26","","15","","6.4","","100.25","","","","-28","","Snow Showers"
"-94.07","58.74","CHURCHILL A","5060605","2019-01-21 10:00","2019","01","21","10:00","-19.1","","-21.4","","82","","","","27","","17","","6.4","","100.30","","","","-29","","Snow Showers"
"-94.07","58.74","CHURCHILL A","5060605","2019-01-21 11:00","2019","01","21","11:00","-19.4","","-22.0","","80","","","","27","","18","","9.7","","100.35","","","","-29","","Snow Showers"
"-94.07","58.74","CHURCHILL A","5060605","2019-01-21 12:00","2019","01","21","12:00","-18.9","","-22.4","","74","","","","29","","20","","4.8","","100.39","","","","-29","","Snow,Blowing Snow"
"-94.07","58.74","CHURCHILL A","5060605","2019-01-21 13:00","2019","01","21","13:00","-18.7","","-21.9","","76","","","","31","","26","","8.1","","100.44","","","","-30","","Snow,Blowing Snow"
"-94.07","58.74","CHURCHILL A","5060605","2019-01-21 14:00","2019","01","21","14:00","-19.0","","-22.2","","77","","","","31","","21","","9.7","","100.53","","","","-29","","Snow,Blowing Snow"
"-94.07","58.74","CHURCHILL A","5060605","2019-01-21 15:00","2019","01","21","15:00","-19.7","","-22.9","","76","","","","31","","27","","12.9","","100.63","","","","-32","","Snow,Blowing Snow"
"-94.07","58.74","CHURCHILL A","5060605","2019-01-21 16:00","2019","01","21","16:00","-21.4","","-23.8","","81","","","","31","","31","","3.2","","100.77","","","","-35","","Snow,Blowing Snow"
"-94.07","58.74","CHURCHILL A","5060605","2019-01-21 17:00","2019","01","21","17:00","-21.5","","-23.8","","82","","","","33","","27","","4.8","","100.83","","","","-34","","Snow,Blowing Snow"
"-94.07","58.74","CHURCHILL A","5060605","2019-01-21 18:00","2019","01","21","18:00","-21.9","","-24.8","","78","","","","34","","31","","9.7","","100.93","","","","-35","","Snow,Blowing Snow"
"-94.07","58.74","CHURCHILL A","5060605","2019-01-21 19:00","2019","01","21","19:00","-23.8","","-26.8","","77","","","","35","","30","","12.9","","101.04","","","","-38","","Snow,Blowing Snow"
"-94.07","58.74","CHURCHILL A","5060605","2019-01-21 20:00","2019","01","21","20:00","-24.4","","-27.4","","77","","","","34","","24","","16.1","","101.18","","","","-37","","Snow,Blowing Snow"
"-94.07","58.74","CHURCHILL A","5060605","2019-01-21 21:00","2019","01","21","21:00","-25.6","","-28.7","","76","","","","34","","23","","16.1","","101.21","","","","-38","","Snow,Blowing Snow"
"-94.07","58.74","CHURCHILL A","5060605","2019-01-21 22:00","2019","01","21","22:00","-27.6","","-30.4","","77","","","","29","","12","","12.9","","101.29","","","","-37","","Ice Crystals,Blowing Snow"
"-94.07","58.74","CHURCHILL A","5060605","2019-01-21 23:00","2019","01","21","23:00","-27.7","","-30.4","","78","","","","31","","16","","12.9","","101.31","","","","-39","","Ice Crystals,Blowing Snow"
"-94.07","58.74","CHURCHILL A","5060605","2019-01-22 00:00","2019","01","22","00:00","-28.3","","-31.2","","77","","","","31","","15","","12.9","","101.34","","","","-39","","Ice Crystals,Blowing Snow"
"-94.07","58.74","CHURCHILL A","5060605","2019-01-22 01:00","2019","01","22","01:00","-30.7","","-33.8","","75","","","","29","","16","","4.8","","101.36","","","","-43","","Ice Crystals,Blowing Snow"
"-94.07","58.74","CHURCHILL A","5060605","2019-01-22 02:00","2019","01","22","02:00","-32.0","","-35.2","","74","","","","29","","20","","4.8","","101.44","","","","-46","","Ice Crystals,Blowing Snow"
"-94.07","58.74","CHURCHILL A","5060605","2019-01-22 03:00","2019","01","22","03:00","-31.8","","-35.0","","74","","","","29","","17","","16.1","","101.50","","","","-44","","Ice Crystals,Blowing Snow"
"-94.07","58.74","CHURCHILL A","5060605","2019-01-22 04:00","2019","01","22","04:00","-30.6","","-33.5","","76","","","","29","","15","","16.1","","101.48","","","","-42","","Ice Crystals,Blowing Snow"
"-94.07","58.74","CHURCHILL A","5060605","2019-01-22 05:00","2019","01","22","05:00","-30.9","","-33.8","","76","","","","29","","13","","12.9","","101.49","","","","-42","","Ice Crystals,Blowing Snow"
"-94.07","58.74","CHURCHILL A","5060605","2019-01-22 06:00","2019","01","22","06:00","-32.0","","-35.3","","73","","","","28","","14","","24.1","","101.46","","","","-43","","Ice Crystals,Blowing Snow"
"-94.07","58.74","CHURCHILL A","5060605","2019-01-22 07:00","2019","01","22","07:00","-32.7","","-36.3","","71","","","","28","","13","","24.1","","101.46","","","","-44","","Ice Crystals,Blowing Snow"
"-94.07","58.74","CHURCHILL A","5060605","2019-01-22 08:00","2019","01","22","08:00","-33.4","","-37.0","","71","","","","28","","12","","24.1","","101.41","","","","-44","","Ice Crystals"
"-94.07","58.74","CHURCHILL A","5060605","2019-01-22 09:00","2019","01","22","09:00","-32.8","","-36.4","","71","","","","27","","12","","24.1","","101.36","","","","-44","","Ice Crystals"
"-94.07","58.74","CHURCHILL A","5060605","2019-01-22 10:00","2019","01","22","10:00","-32.1","","-35.9","","70","","","","27","","9","","24.1","","101.35","","","","-41","","Ice Crystals"
"-94.07","58.74","CHURCHILL A","5060605","2019-01-22 11:00","2019","01","22","11:00","-30.7","","-34.8","","68","","","","27","","7","","24.1","","101.31","","","","-38","","Ice Crystals"
"-94.07","58.74","CHURCHILL A","5060605","2019-01-22 12:00","2019","01","22","12:00","-29.8","","-34.4","","65","","","","22","","9","","24.1","","101.25","","","","-38","","Ice Crystals"
"-94.07","58.74","CHURCHILL A","5060605","2019-01-22 13:00","2019","01","22","13:00","-28.0","","-32.9","","64","","","","22","","7","","24.1","","101.13","","","","-35","","Ice Crystals"
"-94.07","58.74","CHURCHILL A","5060605","2019-01-22 14:00","2019","01","22","14:00","-26.6","","-31.7","","63","","","","22","","9","","24.1","","101.07","","","","-35","","Ice Crystals"
"-94.07","58.74","CHURCHILL A","5060605","2019-01-22 15:00","2019","01","22","15:00","-26.9","","-31.6","","65","","","","21","","9","","24.1","","101.00","","","","-35","","Mostly Cloudy"
"-94.07","58.74","CHURCHILL A","5060605","2019-01-22 16:00","2019","01","22","16:00","-27.0","","-31.1","","69","","","","19","","10","","24.1","","100.95","","","","-36","","NA"
"-94.07","58.74","CHURCHILL A","5060605","2019-01-22 17:00","2019","01","22","17:00","-26.8","","-30.4","","72","","","","21","","12","","6.4","","100.95","","","","-36","","Snow"
"-94.07","58.74","CHURCHILL A","5060605","2019-01-22 18:00","2019","01","22","18:00","-26.6","","-29.9","","74","","","","19","","13","","6.4","","100.85","","","","-36","","Snow"
"-94.07","58.74","CHURCHILL A","5060605","2019-01-22 19:00","2019","01","22","19:00","-26.5","","-29.6","","76","","","","19","","11","","8.1","","100.78","","","","-35","","Snow"
"-94.07","58.74","CHURCHILL A","5060605","2019-01-22 20:00","2019","01","22","20:00","-26.2","","-29.1","","77","","","","20","","9","","12.9","","100.73","","","","-34","","Snow"
"-94.07","58.74","CHURCHILL A","5060605","2019-01-22 21:00","2019","01","22","21:00","-26.4","","-29.2","","78","","","","21","","8","","16.1","","100.68","","","","-34","","Snow"
"-94.07","58.74","CHURCHILL A","5060605","2019-01-22 22:00","2019","01","22","22:00","-26.6","","-29.2","","79","","","","25","","10","","24.1","","100.63","","","","-35","","Snow"
"-94.07","58.74","CHURCHILL A","5060605","2019-01-22 23:00","2019","01","22","23:00","-24.3","","-27.1","","78","","","","30","","18","","24.1","","100.61","","","","-35","","Snow"
"-94.07","58.74","CHURCHILL A","5060605","2019-01-23 00:00","2019","01","23","00:00","-24.3","","-27.3","","77","","","","29","","19","","24.1","","100.61","","","","-36","","Snow"
"-94.07","58.74","CHURCHILL A","5060605","2019-01-23 01:00","2019","01","23","01:00","-25.3","","-28.4","","76","","","","29","","19","","24.1","","100.63","","","","-37","","Snow"
"-94.07","58.74","CHURCHILL A","5060605","2019-01-23 02:00","2019","01","23","02:00","-27.4","","-30.4","","76","","","","29","","18","","16.1","","100.65","","","","-39","","Snow"
"-94.07","58.74","CHURCHILL A","5060605","2019-01-23 03:00","2019","01","23","03:00","-27.2","","-30.1","","77","","","","30","","19","","4.8","","100.68","","","","-39","","Snow"
"-94.07","58.74","CHURCHILL A","5060605","2019-01-23 04:00","2019","01","23","04:00","-26.5","","-29.3","","78","","","","31","","29","","2.4","","100.71","","","","-41","","Snow,Blowing Snow"
"-94.07","58.74","CHURCHILL A","5060605","2019-01-23 05:00","2019","01","23","05:00","-27.6","","-30.5","","77","","","","32","","32","","2.4","","100.76","","","","-43","","Snow"
"-94.07","58.74","CHURCHILL A","5060605","2019-01-23 06:00","2019","01","23","06:00","-28.9","","-31.9","","76","","","","32","","32","","2.4","","100.83","","","","-45","","Ice Crystals,Blowing Snow"
"-94.07","58.74","CHURCHILL A","5060605","2019-01-23 07:00","2019","01","23","07:00","-28.9","","-31.9","","76","","","","34","","27","","4.8","","100.86","","","","-44","","Ice Crystals,Blowing Snow"
"-94.07","58.74","CHURCHILL A","5060605","2019-01-23 08:00","2019","01","23","08:00","-29.3","","-32.6","","74","","","","34","","28","","4.8","","100.93","","","","-44","","Ice Crystals,Blowing Snow"
"-94.07","58.74","CHURCHILL A","5060605","2019-01-23 09:00","2019","01","23","09:00","-30.0","","-33.2","","74","","","","33","","30","","4.8","","101.03","","","","-46","","Ice Crystals,Blowing Snow"
"-94.07","58.74","CHURCHILL A","5060605","2019-01-23 10:00","2019","01","23","10:00","-30.4","","-33.8","","73","","","","34","","31","","4.8","","101.09","","","","-46","","Ice Crystals,Blowing Snow"
"-94.07","58.74","CHURCHILL A","5060605","2019-01-23 11:00","2019","01","23","11:00","-31.3","","-34.6","","73","","","","32","","28","","3.2","","101.18","","","","-47","","Ice Crystals,Blowing Snow"
"-94.07","58.74","CHURCHILL A","5060605","2019-01-23 12:00","2019","01","23","12:00","-31.8","","-35.3","","72","","","","32","","35","","1.2","","101.27","","","","-49","","Ice Crystals,Blowing Snow"
"-94.07","58.74","CHURCHILL A","5060605","2019-01-23 13:00","2019","01","23","13:00","-32.1","","-35.6","","72","","","","31","","30","","1.2","","101.33","","","","-48","","Ice Crystals,Blowing Snow"
"-94.07","58.74","CHURCHILL A","5060605","2019-01-23 14:00","2019","01","23","14:00","-32.1","","-35.4","","73","","","","32","","32","","1.2","","101.38","","","","-49","","Blowing Snow"
"-94.07","58.74","CHURCHILL A","5060605","2019-01-23 15:00","2019","01","23","15:00","-32.5","","-36.0","","72","","","","31","","28","","1.2","","101.47","","","","-48","","Blowing Snow"
"-94.07","58.74","CHURCHILL A","5060605","2019-01-23 16:00","2019","01","23","16:00","-32.8","","-36.1","","73","","","","31","","28","","1.6","","101.56","","","","-49","","Ice Crystals,Blowing Snow"
"-94.07","58.74","CHURCHILL A","5060605","2019-01-23 17:00","2019","01","23","17:00","-33.0","","-36.3","","73","","","","32","","30","","3.2","","101.65","","","","-50","","Ice Crystals,Blowing Snow"
"-94.07","58.74","CHURCHILL A","5060605","2019-01-23 18:00","2019","01","23","18:00","-33.6","","-36.9","","73","","","","31","","27","","4.8","","101.71","","","","-50","","Ice Crystals,Blowing Snow"
"-94.07","58.74","CHURCHILL A","5060605","2019-01-23 19:00","2019","01","23","19:00","-33.8","","-37.1","","73","","","","31","","25","","6.4","","101.75","","","","-49","","Ice Crystals,Blowing Snow"
"-94.07","58.74","CHURCHILL A","5060605","2019-01-23 20:00","2019","01","23","20:00","-34.2","","-37.6","","72","","","","31","","23","","8.1","","101.80","","","","-49","","Ice Crystals,Blowing Snow"
"-94.07","58.74","CHURCHILL A","5060605","2019-01-23 21:00","2019","01","23","21:00","-34.9","","-38.4","","71","","","","30","","24","","12.9","","101.80","","","","-50","","Ice Crystals,Blowing Snow"
"-94.07","58.74","CHURCHILL A","5060605","2019-01-23 22:00","2019","01","23","22:00","-35.8","","-39.5","","70","","","","30","","24","","16.1","","101.78","","","","-52","","Ice Crystals,Blowing Snow"
"-94.07","58.74","CHURCHILL A","5060605","2019-01-23 23:00","2019","01","23","23:00","-35.9","","-39.5","","70","","","","30","","25","","16.1","","101.81","","","","-52","","Ice Crystals,Blowing Snow"
"-94.07","58.74","CHURCHILL A","5060605","2019-01-24 00:00","2019","01","24","00:00","-36.7","","-40.3","","70","","","","30","","23","","9.7","","101.81","","","","-52","","Ice Crystals,Blowing Snow"
"-94.07","58.74","CHURCHILL A","5060605","2019-01-24 01:00","2019","01","24","01:00","-35.9","","-39.5","","70","","","","30","","23","","4.8","","101.81","","","","-51","","Ice Crystals,Blowing Snow"
"-94.07","58.74","CHURCHILL A","5060605","2019-01-24 02:00","2019","01","24","02:00","-35.7","","-39.2","","71","","","","31","","30","","2.4","","101.79","","","","-53","","Ice Crystals,Blowing Snow"
"-94.07","58.74","CHURCHILL A","5060605","2019-01-24 03:00","2019","01","24","03:00","-37.0","","-40.6","","70","","","","29","","24","","2.4","","101.80","","","","-53","","Ice Crystals,Blowing Snow"
"-94.07","58.74","CHURCHILL A","5060605","2019-01-24 04:00","2019","01","24","04:00","-37.5","","-41.1","","70","","","","29","","21","","4.8","","101.77","","","","-53","","Ice Crystals,Blowing Snow"
"-94.07","58.74","CHURCHILL A","5060605","2019-01-24 05:00","2019","01","24","05:00","-37.8","","-41.5","","69","","","","29","","19","","8.1","","101.76","","","","-53","","Ice Crystals,Blowing Snow"
"-94.07","58.74","CHURCHILL A","5060605","2019-01-24 06:00","2019","01","24","06:00","-38.0","","-41.9","","68","","","","29","","23","","16.1","","101.75","","","","-54","","Ice Crystals,Blowing Snow"
"-94.07","58.74","CHURCHILL A","5060605","2019-01-24 07:00","2019","01","24","07:00","-38.1","","-42.0","","68","","","","29","","18","","24.1","","101.72","","","","-53","","Ice Crystals,Blowing Snow"
"-94.07","58.74","CHURCHILL A","5060605","2019-01-24 08:00","2019","01","24","08:00","-38.1","","-41.8","","69","","","","28","","17","","24.1","","101.74","","","","-52","","Ice Crystals"
"-94.07","58.74","CHURCHILL A","5060605","2019-01-24 09:00","2019","01","24","09:00","-38.3","","-42.2","","68","","","","29","","17","","24.1","","101.73","","","","-52","","Ice Crystals"
"-94.07","58.74","CHURCHILL A","5060605","2019-01-24 10:00","2019","01","24","10:00","-37.9","","-41.8","","68","","","","29","","17","","24.1","","101.71","","","","-52","","Ice Crystals"
"-94.07","58.74","CHURCHILL A","5060605","2019-01-24 11:00","2019","01","24","11:00","-36.8","","-40.9","","67","","","","29","","23","","24.1","","101.70","","","","-53","","Ice Crystals"
"-94.07","58.74","CHURCHILL A","5060605","2019-01-24 12:00","2019","01","24","12:00","-36.3","","-40.5","","66","","","","29","","18","","24.1","","101.69","","","","-50","","Ice Crystals"
"-94.07","58.74","CHURCHILL A","5060605","2019-01-24 13:00","2019","01","24","13:00","-36.0","","-40.0","","67","","","","29","","17","","4.8","","101.66","","","","-50","","Ice Crystals"
"-94.07","58.74","CHURCHILL A","5060605","2019-01-24 14:00","2019","01","24","14:00","-35.5","","-39.3","","69","","","","28","","19","","2.4","","101.62","","","","-50","","Ice Crystals"
"-94.07","58.74","CHURCHILL A","5060605","2019-01-24 15:00","2019","01","24","15:00","-35.5","","-39.8","","66","","","","29","","23","","6.4","","101.62","","","","-51","","Ice Crystals"
"-94.07","58.74","CHURCHILL A","5060605","2019-01-24 16:00","2019","01","24","16:00","-35.4","","-39.5","","67","","","","29","","21","","6.4","","101.62","","","","-50","","Ice Crystals"
"-94.07","58.74","CHURCHILL A","5060605","2019-01-24 17:00","2019","01","24","17:00","-35.4","","-39.5","","67","","","","30","","18","","12.9","","101.63","","","","-49","","Ice Crystals"
"-94.07","58.74","CHURCHILL A","5060605","2019-01-24 18:00","2019","01","24","18:00","-36.2","","-40.1","","68","","","","29","","14","","16.1","","101.65","","","","-49","","Ice Crystals"
"-94.07","58.74","CHURCHILL A","5060605","2019-01-24 19:00","2019","01","24","19:00","-35.2","","-39.2","","68","","","","31","","27","","24.1","","101.61","","","","-52","","Ice Crystals"
"-94.07","58.74","CHURCHILL A","5060605","2019-01-24 20:00","2019","01","24","20:00","-35.9","","-39.8","","68","","","","30","","23","","24.1","","101.58","","","","-51","","Ice Crystals,Blowing Snow"
"-94.07","58.74","CHURCHILL A","5060605","2019-01-24 21:00","2019","01","24","21:00","-35.8","","-39.8","","68","","","","31","","23","","24.1","","101.53","","","","-51","","Ice Crystals,Blowing Snow"
"-94.07","58.74","CHURCHILL A","5060605","2019-01-24 22:00","2019","01","24","22:00","-36.0","","-39.9","","68","","","","30","","23","","24.1","","101.51","","","","-52","","Ice Crystals,Blowing Snow"
"-94.07","58.74","CHURCHILL A","5060605","2019-01-24 23:00","2019","01","24","23:00","-36.0","","-39.8","","69","","","","30","","23","","24.1","","101.45","","","","-52","","Ice Crystals,Blowing Snow"
"-94.07","58.74","CHURCHILL A","5060605","2019-01-25 00:00","2019","01","25","00:00","-35.7","","-39.4","","70","","","","30","","18","","16.1","","101.44","","","","-50","","Ice Crystals,Blowing Snow"
"-94.07","58.74","CHURCHILL A","5060605","2019-01-25 01:00","2019","01","25","01:00","-36.8","","-40.4","","70","","","","29","","19","","16.1","","101.41","","","","-51","","Ice Crystals"
"-94.07","58.74","CHURCHILL A","5060605","2019-01-25 02:00","2019","01","25","02:00","-36.3","","-39.8","","71","","","","30","","18","","4.8","","101.36","","","","-50","","Ice Crystals"
"-94.07","58.74","CHURCHILL A","5060605","2019-01-25 03:00","2019","01","25","03:00","-35.8","","-39.3","","71","","","","29","","22","","4.8","","101.32","","","","-51","","Ice Crystals,Blowing Snow"
"-94.07","58.74","CHURCHILL A","5060605","2019-01-25 04:00","2019","01","25","04:00","-36.3","","-39.8","","71","","","","29","","20","","4.8","","101.28","","","","-51","","Ice Crystals,Blowing Snow"
"-94.07","58.74","CHURCHILL A","5060605","2019-01-25 05:00","2019","01","25","05:00","-36.1","","-39.6","","71","","","","29","","22","","4.8","","101.28","","","","-51","","Ice Crystals,Blowing Snow"
"-94.07","58.74","CHURCHILL A","5060605","2019-01-25 06:00","2019","01","25","06:00","-36.0","","-39.5","","71","","","","29","","20","","9.7","","101.25","","","","-51","","Ice Crystals,Blowing Snow"
"-94.07","58.74","CHURCHILL A","5060605","2019-01-25 07:00","2019","01","25","07:00","-33.2","","-36.6","","72","","","","31","","25","","3.2","","101.17","","","","-49","","Blowing Snow"
"-94.07","58.74","CHURCHILL A","5060605","2019-01-25 08:00","2019","01","25","08:00","-32.4","","-35.7","","73","","","","32","","33","","1.0","","101.17","","","","-49","","Blowing Snow"
"-94.07","58.74","CHURCHILL A","5060605","2019-01-25 09:00","2019","01","25","09:00","-32.7","","-36.1","","72","","","","32","","36","","0.8","","101.16","","","","-50","","Blowing Snow"
"-94.07","58.74","CHURCHILL A","5060605","2019-01-25 10:00","2019","01","25","10:00","-33.2","","-36.6","","72","","","","32","","34","","0.8","","101.16","","","","-51","","Blowing Snow"
"-94.07","58.74","CHURCHILL A","5060605","2019-01-25 11:00","2019","01","25","11:00","-33.8","","-37.7","","69","","","","33","","32","","1.6","","101.15","","","","-51","","Blowing Snow"
"-94.07","58.74","CHURCHILL A","5060605","2019-01-25 12:00","2019","01","25","12:00","-34.1","","-38.1","","68","","","","33","","30","","1.6","","101.20","","","","-51","","Blowing Snow"
"-94.07","58.74","CHURCHILL A","5060605","2019-01-25 13:00","2019","01","25","13:00","-34.8","","-38.5","","70","","","","32","","26","","1.6","","101.23","","","","-51","","Blowing Snow"
"-94.07","58.74","CHURCHILL A","5060605","2019-01-25 14:00","2019","01","25","14:00","-34.4","","-38.2","","69","","","","33","","26","","2.4","","101.26","","","","-50","","Blowing Snow"
"-94.07","58.74","CHURCHILL A","5060605","2019-01-25 15:00","2019","01","25","15:00","-34.5","","-38.0","","71","","","","32","","33","","1.2","","101.30","","","","-52","","Blowing Snow"
"-94.07","58.74","CHURCHILL A","5060605","2019-01-25 16:00","2019","01","25","16:00","-34.4","","-38.0","","71","","","","32","","30","","0.8","","101.31","","","","-51","","Blowing Snow"
"-94.07","58.74","CHURCHILL A","5060605","2019-01-25 17:00","2019","01","25","17:00","-34.3","","-37.7","","72","","","","32","","27","","1.2","","101.34","","","","-51","","Blowing Snow"
"-94.07","58.74","CHURCHILL A","5060605","2019-01-25 18:00","2019","01","25","18:00","-34.9","","-38.4","","71","","","","32","","29","","1.2","","101.35","","","","-52","","Blowing Snow"
"-94.07","58.74","CHURCHILL A","5060605","2019-01-25 19:00","2019","01","25","19:00","-34.7","","-38.5","","69","","","","33","","28","","2.4","","101.36","","","","-51","","Blowing Snow"
"-94.07","58.74","CHURCHILL A","5060605","2019-01-25 20:00","2019","01","25","20:00","-34.5","","-38.2","","70","","","","33","","28","","4.0","","101.35","","","","-51","","Blowing Snow"
"-94.07","58.74","CHURCHILL A","5060605","2019-01-25 21:00","2019","01","25","21:00","-35.6","","-39.1","","71","","","","32","","28","","1.6","","101.35","","","","-52","","Blowing Snow"
"-94.07","58.74","CHURCHILL A","5060605","2019-01-25 22:00","2019","01","25","22:00","-34.6","","-38.1","","71","","","","33","","27","","3.2","","101.34","","","","-51","","Blowing Snow"
"-94.07","58.74","CHURCHILL A","5060605","2019-01-25 23:00","2019","01","25","23:00","-34.3","","-37.8","","71","","","","32","","28","","3.2","","101.36","","","","-51","","Blowing Snow"
"-94.07","58.74","CHURCHILL A","5060605","2019-01-26 00:00","2019","01","26","00:00","-35.4","","-38.9","","71","","","","31","","24","","2.4","","101.40","","","","-51","","Blowing Snow"
"-94.07","58.74","CHURCHILL A","5060605","2019-01-26 01:00","2019","01","26","01:00","-34.6","","-38.0","","72","","","","32","","24","","2.4","","101.41","","","","-50","","Blowing Snow"
"-94.07","58.74","CHURCHILL A","5060605","2019-01-26 02:00","2019","01","26","02:00","-36.2","","-39.7","","71","","","","31","","26","","2.4","","101.42","","","","-53","","Blowing Snow"
"-94.07","58.74","CHURCHILL A","5060605","2019-01-26 03:00","2019","01","26","03:00","-35.2","","-38.6","","72","","","","31","","23","","2.4","","101.44","","","","-51","","Blowing Snow"
"-94.07","58.74","CHURCHILL A","5060605","2019-01-26 04:00","2019","01","26","04:00","-34.2","","-37.8","","71","","","","33","","24","","3.2","","101.47","","","","-50","","Ice Crystals,Blowing Snow"
"-94.07","58.74","CHURCHILL A","5060605","2019-01-26 05:00","2019","01","26","05:00","-34.4","","-38.0","","71","","","","31","","21","","6.4","","101.49","","","","-49","","Ice Crystals,Blowing Snow"
"-94.07","58.74","CHURCHILL A","5060605","2019-01-26 06:00","2019","01","26","06:00","-34.7","","-38.1","","72","","","","32","","22","","6.4","","101.54","","","","-50","","Ice Crystals,Blowing Snow"
"-94.07","58.74","CHURCHILL A","5060605","2019-01-26 07:00","2019","01","26","07:00","-34.2","","-37.5","","73","","","","33","","22","","24.1","","101.58","","","","-49","","Ice Crystals,Blowing Snow"
"-94.07","58.74","CHURCHILL A","5060605","2019-01-26 08:00","2019","01","26","08:00","-34.8","","-38.1","","73","","","","32","","21","","24.1","","101.57","","","","-49","","Ice Crystals"
"-94.07","58.74","CHURCHILL A","5060605","2019-01-26 09:00","2019","01","26","09:00","-35.3","","-38.7","","72","","","","31","","19","","19.3","","101.62","","","","-49","","Ice Crystals"
"-94.07","58.74","CHURCHILL A","5060605","2019-01-26 10:00","2019","01","26","10:00","-34.8","","-38.2","","72","","","","31","","18","","19.3","","101.65","","","","-48","","Ice Crystals"
"-94.07","58.74","CHURCHILL A","5060605","2019-01-26 11:00","2019","01","26","11:00","-34.1","","-37.5","","72","","","","31","","20","","24.1","","101.69","","","","-48","","Ice Crystals,Blowing Snow"
"-94.07","58.74","CHURCHILL A","5060605","2019-01-26 12:00","2019","01","26","12:00","-33.7","","-37.1","","72","","","","30","","21","","24.1","","101.71","","","","-48","","Ice Crystals"
"-94.07","58.74","CHURCHILL A","5060605","2019-01-26 13:00","2019","01","26","13:00","-33.0","","-36.6","","71","","","","31","","20","","24.1","","101.71","","","","-47","","Ice Crystals,Blowing Snow"
"-94.07","58.74","CHURCHILL A","5060605","2019-01-26 14:00","2019","01","26","14:00","-33.3","","-37.2","","69","","","","30","","19","","24.1","","101.73","","","","-47","","Ice Crystals"
"-94.07","58.74","CHURCHILL A","5060605","2019-01-26 15:00","2019","01","26","15:00","-33.2","","-37.1","","69","","","","30","","20","","24.1","","101.74","","","","-47","","Ice Crystals"
"-94.07","58.74","CHURCHILL A","5060605","2019-01-26 16:00","2019","01","26","16:00","-33.6","","-37.0","","72","","","","30","","17","","24.1","","101.74","","","","-47","","Ice Crystals"
"-94.07","58.74","CHURCHILL A","5060605","2019-01-26 17:00","2019","01","26","17:00","-34.7","","-38.8","","67","","","","27","","13","","24.1","","101.75","","","","-46","","Ice Crystals"
"-94.07","58.74","CHURCHILL A","5060605","2019-01-26 18:00","2019","01","26","18:00","-34.4","","-38.9","","65","","","","29","","16","","24.1","","101.75","","","","-47","","Ice Crystals"
"-94.07","58.74","CHURCHILL A","5060605","2019-01-26 19:00","2019","01","26","19:00","-34.9","","-39.2","","66","","","","29","","14","","24.1","","101.71","","","","-47","","Ice Crystals"
"-94.07","58.74","CHURCHILL A","5060605","2019-01-26 20:00","2019","01","26","20:00","-36.1","","-40.2","","67","","","","29","","14","","24.1","","101.68","","","","-48","","Ice Crystals"
"-94.07","58.74","CHURCHILL A","5060605","2019-01-26 21:00","2019","01","26","21:00","-36.3","","-40.2","","68","","","","28","","13","","24.1","","101.64","","","","-48","","Clear"
"-94.07","58.74","CHURCHILL A","5060605","2019-01-26 22:00","2019","01","26","22:00","-36.5","","-40.6","","67","","","","29","","14","","24.1","","101.57","","","","-49","","NA"
"-94.07","58.74","CHURCHILL A","5060605","2019-01-26 23:00","2019","01","26","23:00","-37.0","","-41.1","","67","","","","26","","13","","24.1","","101.54","","","","-49","","NA"
"-94.07","58.74","CHURCHILL A","5060605","2019-01-27 00:00","2019","01","27","00:00","-37.0","","-41.1","","67","","","","24","","10","","24.1","","101.50","","","","-48","","Clear"
"-94.07","58.74","CHURCHILL A","5060605","2019-01-27 01:00","2019","01","27","01:00","-38.3","","-42.0","","69","","","","23","","15","","24.1","","101.46","","","","-52","","NA"
"-94.07","58.74","CHURCHILL A","5060605","2019-01-27 02:00","2019","01","27","02:00","-39.4","","-43.0","","70","","","","21","","13","","24.1","","101.40","","","","-52","","NA"
"-94.07","58.74","CHURCHILL A","5060605","2019-01-27 03:00","2019","01","27","03:00","-40.2","","-43.6","","71","","","","20","","13","","24.1","","101.32","","","","-53","","Clear"
"-94.07","58.74","CHURCHILL A","5060605","2019-01-27 04:00","2019","01","27","04:00","-40.1","","-43.6","","70","","","","19","","14","","24.1","","101.27","","","","-53","","NA"
"-94.07","58.74","CHURCHILL A","5060605","2019-01-27 05:00","2019","01","27","05:00","-40.3","","-43.8","","70","","","","18","","14","","24.1","","101.25","","","","-54","","NA"
"-94.07","58.74","CHURCHILL A","5060605","2019-01-27 06:00","2019","01","27","06:00","-39.7","","-43.2","","70","","","","17","","17","","24.1","","101.19","","","","-54","","Mainly Clear"
"-94.07","58.74","CHURCHILL A","5060605","2019-01-27 07:00","2019","01","27","07:00","-39.1","","-42.8","","69","","","","17","","17","","24.1","","101.18","","","","-53","","NA"
"-94.07","58.74","CHURCHILL A","5060605","2019-01-27 08:00","2019","01","27","08:00","-38.5","","-42.2","","69","","","","18","","15","","24.1","","101.15","","","","-52","","NA"
"-94.07","58.74","CHURCHILL A","5060605","2019-01-27 09:00","2019","01","27","09:00","-36.4","","-40.2","","69","","","","18","","19","","24.1","","101.13","","","","-51","","Mostly Cloudy"
"-94.07","58.74","CHURCHILL A","5060605","2019-01-27 10:00","2019","01","27","10:00","-33.8","","-37.8","","68","","","","17","","18","","24.1","","101.12","","","","-47","","NA"
"-94.07","58.74","CHURCHILL A","5060605","2019-01-27 11:00","2019","01","27","11:00","-31.6","","-36.0","","66","","","","18","","17","","24.1","","101.09","","","","-44","","NA"
"-94.07","58.74","CHURCHILL A","5060605","2019-01-27 12:00","2019","01","27","12:00","-29.4","","-34.0","","65","","","","18","","14","","24.1","","101.07","","","","-40","","Mostly Cloudy"
"-94.07","58.74","CHURCHILL A","5060605","2019-01-27 13:00","2019","01","27","13:00","-28.1","","-33.1","","63","","","","18","","19","","24.1","","101.05","","","","-40","","NA"
"-94.07","58.74","CHURCHILL A","5060605","2019-01-27 14:00","2019","01","27","14:00","-27.4","","-32.5","","63","","","","18","","21","","24.1","","101.01","","","","-40","","NA"
"-94.07","58.74","CHURCHILL A","5060605","2019-01-27 15:00","2019","01","27","15:00","-27.0","","-31.7","","65","","","","18","","22","","16.1","","100.98","","","","-40","","Snow"
"-94.07","58.74","CHURCHILL A","5060605","2019-01-27 16:00","2019","01","27","16:00","-26.0","","-30.6","","66","","","","18","","27","","19.3","","100.95","","","","-40","","Snow"
"-94.07","58.74","CHURCHILL A","5060605","2019-01-27 17:00","2019","01","27","17:00","-25.6","","-29.9","","68","","","","19","","23","","19.3","","100.94","","","","-38","","Snow"
"-94.07","58.74","CHURCHILL A","5060605","2019-01-27 18:00","2019","01","27","18:00","-25.8","","-29.6","","71","","","","19","","27","","12.9","","100.93","","","","-40","","Snow"
"-94.07","58.74","CHURCHILL A","5060605","2019-01-27 19:00","2019","01","27","19:00","-26.3","","-29.6","","74","","","","19","","22","","6.4","","100.93","","","","-39","","Snow,Blowing Snow"
"-94.07","58.74","CHURCHILL A","5060605","2019-01-27 20:00","2019","01","27","20:00","-25.5","","-28.9","","74","","","","20","","23","","12.9","","100.92","","","","-38","","Snow,Blowing Snow"
"-94.07","58.74","CHURCHILL A","5060605","2019-01-27 21:00","2019","01","27","21:00","-24.8","","-27.9","","76","","","","21","","18","","4.8","","100.89","","","","-36","","Snow,Blowing Snow"
"-94.07","58.74","CHURCHILL A","5060605","2019-01-27 22:00","2019","01","27","22:00","-24.2","","-27.3","","76","","","","21","","21","","12.9","","100.84","","","","-36","","Snow,Blowing Snow"
"-94.07","58.74","CHURCHILL A","5060605","2019-01-27 23:00","2019","01","27","23:00","-24.1","","-27.1","","77","","","","21","","17","","16.1","","100.78","","","","-35","","Snow,Blowing Snow"
"-94.07","58.74","CHURCHILL A","5060605","2019-01-28 00:00","2019","01","28","00:00","-23.9","","-26.7","","78","","","","22","","16","","9.7","","100.78","","","","-34","","Snow,Blowing Snow"
"-94.07","58.74","CHURCHILL A","5060605","2019-01-28 01:00","2019","01","28","01:00","-23.3","","-26.0","","79","","","","26","","16","","9.7","","100.77","","","","-33","","Snow,Blowing Snow"
"-94.07","58.74","CHURCHILL A","5060605","2019-01-28 02:00","2019","01","28","02:00","-23.7","","-26.5","","78","","","","32","","42","","0.8","","100.81","","","","-39","","Snow,Blowing Snow"
"-94.07","58.74","CHURCHILL A","5060605","2019-01-28 03:00","2019","01","28","03:00","-26.8","","-29.8","","76","","","","33","","39","","0.8","","100.95","","","","-43","","Blowing Snow"
"-94.07","58.74","CHURCHILL A","5060605","2019-01-28 04:00","2019","01","28","04:00","-29.1","","-32.2","","75","","","","32","","41","","1.2","","101.05","","","","-46","","Blowing Snow"
"-94.07","58.74","CHURCHILL A","5060605","2019-01-28 05:00","2019","01","28","05:00","-31.5","","-34.9","","73","","","","32","","37","","1.2","","101.13","","","","-49","","Blowing Snow"
"-94.07","58.74","CHURCHILL A","5060605","2019-01-28 06:00","2019","01","28","06:00","-33.0","","-36.5","","72","","","","32","","36","","1.2","","101.21","","","","-51","","Blowing Snow"
"-94.07","58.74","CHURCHILL A","5060605","2019-01-28 07:00","2019","01","28","07:00","-33.8","","-37.4","","71","","","","31","","32","","1.2","","101.25","","","","-51","","Blowing Snow"
"-94.07","58.74","CHURCHILL A","5060605","2019-01-28 08:00","2019","01","28","08:00","-34.7","","-38.2","","71","","","","32","","34","","1.6","","101.27","","","","-53","","Blowing Snow"
"-94.07","58.74","CHURCHILL A","5060605","2019-01-28 09:00","2019","01","28","09:00","-35.1","","-38.8","","70","","","","32","","26","","1.2","","101.33","","","","-51","","Blowing Snow"
"-94.07","58.74","CHURCHILL A","5060605","2019-01-28 10:00","2019","01","28","10:00","-35.6","","-39.3","","70","","","","32","","33","","1.2","","101.35","","","","-54","","Blowing Snow"
"-94.07","58.74","CHURCHILL A","5060605","2019-01-28 11:00","2019","01","28","11:00","-35.9","","-39.8","","68","","","","32","","33","","1.2","","101.39","","","","-54","","Blowing Snow"
"-94.07","58.74","CHURCHILL A","5060605","2019-01-28 12:00","2019","01","28","12:00","-36.0","","-40.0","","68","","","","31","","35","","1.6","","101.43","","","","-55","","Blowing Snow"
"-94.07","58.74","CHURCHILL A","5060605","2019-01-28 13:00","2019","01","28","13:00","-36.3","","-40.2","","68","","","","31","","33","","1.2","","101.50","","","","-55","","Blowing Snow"
"-94.07","58.74","CHURCHILL A","5060605","2019-01-28 14:00","2019","01","28","14:00","-36.4","","-40.5","","67","","","","29","","29","","3.2","","101.53","","","","-54","","Blowing Snow"
"-94.07","58.74","CHURCHILL A","5060605","2019-01-28 15:00","2019","01","28","15:00","-36.3","","-40.5","","66","","","","29","","25","","4.8","","101.52","","","","-53","","Ice Crystals,Blowing Snow"
"-94.07","58.74","CHURCHILL A","5060605","2019-01-28 16:00","2019","01","28","16:00","-36.2","","-40.1","","68","","","","28","","30","","4.8","","101.56","","","","-54","","Ice Crystals,Blowing Snow"
"-94.07","58.74","CHURCHILL A","5060605","2019-01-28 17:00","2019","01","28","17:00","-36.0","","-39.8","","69","","","","28","","28","","4.8","","101.58","","","","-53","","Ice Crystals,Blowing Snow"
"-94.07","58.74","CHURCHILL A","5060605","2019-01-28 18:00","2019","01","28","18:00","-35.7","","-39.4","","70","","","","27","","23","","4.8","","101.58","","","","-51","","Ice Crystals,Blowing Snow"
"-94.07","58.74","CHURCHILL A","5060605","2019-01-28 19:00","2019","01","28","19:00","-35.1","","-38.6","","71","","","","26","","19","","2.4","","101.56","","","","-49","","Ice Crystals,Blowing Snow"
"-94.07","58.74","CHURCHILL A","5060605","2019-01-28 20:00","2019","01","28","20:00","-32.2","","-35.4","","74","","","","29","","28","","0.8","","101.51","","","","-48","","Blowing Snow"
"-94.07","58.74","CHURCHILL A","5060605","2019-01-28 21:00","2019","01","28","21:00","-30.1","","-33.6","","72","","","","35","","25","","24.1","","101.56","","","","-45","","Blowing Snow"
"-94.07","58.74","CHURCHILL A","5060605","2019-01-28 22:00","2019","01","28","22:00","-29.5","","-33.5","","69","","","","2","","22","","9.7","","101.66","","","","-43","","Ice Crystals,Blowing Snow"
"-94.07","58.74","CHURCHILL A","5060605","2019-01-28 23:00","2019","01","28","23:00","-33.5","","-36.9","","72","","","","6","","11","","24.1","","101.76","","","","-44","","Snow"
"-94.07","58.74","CHURCHILL A","5060605","2019-01-29 00:00","2019","01","29","00:00","-34.7","","-38.1","","72","","","","6","","9","","24.1","","101.83","","","","-44","","Ice Crystals"
"-94.07","58.74","CHURCHILL A","5060605","2019-01-29 01:00","2019","01","29","01:00","-34.7","","-38.1","","72","","","","8","","8","","24.1","","101.91","","","","-43","","Ice Crystals"
"-94.07","58.74","CHURCHILL A","5060605","2019-01-29 02:00","2019","01","29","02:00","-34.0","","-37.4","","72","","","","7","","9","","24.1","","101.98","","","","-43","","Ice Crystals"
"-94.07","58.74","CHURCHILL A","5060605","2019-01-29 03:00","2019","01","29","03:00","-33.5","","-36.8","","73","","","","9","","9","","24.1","","102.04","","","","-43","","Ice Crystals"
"-94.07","58.74","CHURCHILL A","5060605","2019-01-29 04:00","2019","01","29","04:00","-34.0","","-37.1","","74","","","","17","","4","","24.1","","102.12","","","","-39","","Ice Crystals"
"-94.07","58.74","CHURCHILL A","5060605","2019-01-29 05:00","2019","01","29","05:00","-33.8","","-37.1","","73","","","","24","","8","","24.1","","102.17","","","","-42","","Ice Crystals"
"-94.07","58.74","CHURCHILL A","5060605","2019-01-29 06:00","2019","01","29","06:00","-33.2","","-36.5","","73","","","","27","","7","","8.1","","102.23","","","","-41","","Ice Crystals"
"-94.07","58.74","CHURCHILL A","5060605","2019-01-29 07:00","2019","01","29","07:00","-32.5","","-35.7","","74","","","","28","","8","","12.9","","102.28","","","","-41","","Ice Crystals"
"-94.07","58.74","CHURCHILL A","5060605","2019-01-29 08:00","2019","01","29","08:00","-29.4","","-32.5","","75","","","","35","","32","","2.4","","102.29","","","","-45","","Snow"
"-94.07","58.74","CHURCHILL A","5060605","2019-01-29 09:00","2019","01","29","09:00","-29.8","","-33.0","","74","","","","35","","28","","1.6","","102.34","","","","-45","","Snow,Blowing Snow"
"-94.07","58.74","CHURCHILL A","5060605","2019-01-29 10:00","2019","01","29","10:00","-30.3","","-33.7","","73","","","","35","","33","","2.4","","102.40","","","","-47","","Ice Crystals,Blowing Snow"
"-94.07","58.74","CHURCHILL A","5060605","2019-01-29 11:00","2019","01","29","11:00","-30.8","","-34.5","","71","","","","35","","28","","9.7","","102.46","","","","-46","","Ice Crystals,Blowing Snow"
"-94.07","58.74","CHURCHILL A","5060605","2019-01-29 12:00","2019","01","29","12:00","-31.3","","-35.0","","71","","","","33","","23","","4.8","","102.49","","","","-46","","Ice Crystals,Blowing Snow"
"-94.07","58.74","CHURCHILL A","5060605","2019-01-29 13:00","2019","01","29","13:00","-32.2","","-35.8","","71","","","","32","","25","","4.8","","102.50","","","","-47","","Ice Crystals,Blowing Snow"
"-94.07","58.74","CHURCHILL A","5060605","2019-01-29 14:00","2019","01","29","14:00","-33.2","","-36.8","","71","","","","32","","24","","1.6","","102.52","","","","-48","","Ice Crystals,Blowing Snow"
"-94.07","58.74","CHURCHILL A","5060605","2019-01-29 15:00","2019","01","29","15:00","-33.5","","-37.1","","71","","","","32","","27","","4.8","","102.54","","","","-49","","Ice Crystals,Blowing Snow"
"-94.07","58.74","CHURCHILL A","5060605","2019-01-29 16:00","2019","01","29","16:00","-34.1","","-37.5","","72","","","","31","","24","","6.4","","102.61","","","","-49","","Ice Crystals,Blowing Snow"
"-94.07","58.74","CHURCHILL A","5060605","2019-01-29 17:00","2019","01","29","17:00","-34.2","","-37.6","","72","","","","31","","21","","6.4","","102.65","","","","-49","","Ice Crystals,Blowing Snow"
"-94.07","58.74","CHURCHILL A","5060605","2019-01-29 18:00","2019","01","29","18:00","-33.9","","-37.3","","72","","","","32","","24","","4.8","","102.68","","","","-49","","Ice Crystals,Blowing Snow"
"-94.07","58.74","CHURCHILL A","5060605","2019-01-29 19:00","2019","01","29","19:00","-34.1","","-37.5","","72","","","","32","","27","","4.8","","102.66","","","","-50","","Ice Crystals,Blowing Snow"
"-94.07","58.74","CHURCHILL A","5060605","2019-01-29 20:00","2019","01","29","20:00","-34.2","","-37.6","","72","","","","32","","23","","4.8","","102.62","","","","-49","","Ice Crystals,Blowing Snow"
"-94.07","58.74","CHURCHILL A","5060605","2019-01-29 21:00","2019","01","29","21:00","-33.9","","-37.5","","71","","","","34","","21","","8.1","","102.57","","","","-48","","Ice Crystals,Blowing Snow"
"-94.07","58.74","CHURCHILL A","5060605","2019-01-29 22:00","2019","01","29","22:00","-33.8","","-37.2","","72","","","","34","","20","","16.1","","102.52","","","","-48","","Ice Crystals"
"-94.07","58.74","CHURCHILL A","5060605","2019-01-29 23:00","2019","01","29","23:00","-34.3","","-37.6","","73","","","","31","","17","","16.1","","102.49","","","","-47","","Ice Crystals"
"-94.07","58.74","CHURCHILL A","5060605","2019-01-30 00:00","2019","01","30","00:00","-34.5","","-37.8","","73","","","","32","","16","","8.1","","102.47","","","","-47","","Ice Crystals"
"-94.07","58.74","CHURCHILL A","5060605","2019-01-30 01:00","2019","01","30","01:00","-34.8","","-38.2","","72","","","","32","","18","","6.4","","102.44","","","","-48","","Ice Crystals"
"-94.07","58.74","CHURCHILL A","5060605","2019-01-30 02:00","2019","01","30","02:00","-35.3","","-38.7","","72","","","","32","","19","","9.7","","102.43","","","","-49","","Ice Crystals"
"-94.07","58.74","CHURCHILL A","5060605","2019-01-30 03:00","2019","01","30","03:00","-35.5","","-38.9","","72","","","","31","","19","","16.1","","102.42","","","","-50","","Ice Crystals"
"-94.07","58.74","CHURCHILL A","5060605","2019-01-30 04:00","2019","01","30","04:00","-36.0","","-39.5","","71","","","","31","","18","","24.1","","102.38","","","","-50","","Ice Crystals"
"-94.07","58.74","CHURCHILL A","5060605","2019-01-30 05:00","2019","01","30","05:00","-36.0","","-39.5","","71","","","","31","","14","","24.1","","102.36","","","","-48","","Ice Crystals"
"-94.07","58.74","CHURCHILL A","5060605","2019-01-30 06:00","2019","01","30","06:00","-36.3","","-39.8","","71","","","","31","","17","","6.4","","102.34","","","","-50","","Ice Crystals"
"-94.07","58.74","CHURCHILL A","5060605","2019-01-30 07:00","2019","01","30","07:00","-36.6","","-40.1","","71","","","","31","","18","","4.8","","102.34","","","","-51","","Ice Crystals"
"-94.07","58.74","CHURCHILL A","5060605","2019-01-30 08:00","2019","01","30","08:00","-36.6","","-40.1","","71","","","","31","","18","","1.6","","102.31","","","","-51","","Ice Crystals"
"-94.07","58.74","CHURCHILL A","5060605","2019-01-30 09:00","2019","01","30","09:00","-36.7","","-40.2","","71","","","","31","","16","","1.6","","102.28","","","","-50","","Ice Crystals"
"-94.07","58.74","CHURCHILL A","5060605","2019-01-30 10:00","2019","01","30","10:00","-36.6","","-40.2","","70","","","","31","","15","","1.6","","102.25","","","","-50","","Ice Crystals"
"-94.07","58.74","CHURCHILL A","5060605","2019-01-30 11:00","2019","01","30","11:00","-37.0","","-40.6","","70","","","","29","","16","","4.8","","102.24","","","","-50","","Ice Crystals"
"-94.07","58.74","CHURCHILL A","5060605","2019-01-30 12:00","2019","01","30","12:00","-36.0","","-39.5","","71","","","","30","","17","","12.9","","102.21","","","","-50","","Ice Crystals"
"-94.07","58.74","CHURCHILL A","5060605","2019-01-30 13:00","2019","01","30","13:00","-35.1","","-38.6","","71","","","","29","","18","","19.3","","102.18","","","","-49","","Ice Crystals"
"-94.07","58.74","CHURCHILL A","5060605","2019-01-30 14:00","2019","01","30","14:00","-35.4","","-38.9","","71","","","","29","","15","","24.1","","102.17","","","","-48","","Ice Crystals"
"-94.07","58.74","CHURCHILL A","5060605","2019-01-30 15:00","2019","01","30","15:00","-36.0","","-39.6","","70","","","","29","","14","","24.1","","102.17","","","","-48","","Ice Crystals"
"-94.07","58.74","CHURCHILL A","5060605","2019-01-30 16:00","2019","01","30","16:00","-36.0","","-39.5","","71","","","","30","","14","","24.1","","102.19","","","","-48","","Ice Crystals"
"-94.07","58.74","CHURCHILL A","5060605","2019-01-30 17:00","2019","01","30","17:00","-36.3","","-39.8","","71","","","","30","","15","","24.1","","102.21","","","","-49","","Ice Crystals"
"-94.07","58.74","CHURCHILL A","5060605","2019-01-30 18:00","2019","01","30","18:00","-37.1","","-40.7","","70","","","","29","","13","","24.1","","102.19","","","","-49","","Ice Crystals"
"-94.07","58.74","CHURCHILL A","5060605","2019-01-30 19:00","2019","01","30","19:00","-37.4","","-41.0","","70","","","","29","","10","","19.3","","102.12","","","","-48","","Ice Crystals"
"-94.07","58.74","CHURCHILL A","5060605","2019-01-30 20:00","2019","01","30","20:00","-37.7","","-41.3","","70","","","","29","","10","","9.7","","102.06","","","","-48","","Ice Crystals"
"-94.07","58.74","CHURCHILL A","5060605","2019-01-30 21:00","2019","01","30","21:00","-38.1","","-41.7","","70","","","","28","","10","","12.9","","102.02","","","","-49","","Ice Crystals"
"-94.07","58.74","CHURCHILL A","5060605","2019-01-30 22:00","2019","01","30","22:00","-38.3","","-41.9","","70","","","","29","","12","","16.1","","102.00","","","","-50","","Ice Crystals"
"-94.07","58.74","CHURCHILL A","5060605","2019-01-30 23:00","2019","01","30","23:00","-38.3","","-41.9","","70","","","","28","","10","","16.1","","101.98","","","","-49","","Ice Crystals"
"-94.07","58.74","CHURCHILL A","5060605","2019-01-31 00:00","2019","01","31","00:00","-38.6","","-42.2","","70","","","","28","","10","","24.1","","101.92","","","","-49","","Ice Crystals"
"-94.07","58.74","CHURCHILL A","5060605","2019-01-31 01:00","2019","01","31","01:00","-39.0","","-42.7","","69","","","","28","","12","","24.1","","101.91","","","","-51","","Ice Crystals"
"-94.07","58.74","CHURCHILL A","5060605","2019-01-31 02:00","2019","01","31","02:00","-39.3","","-43.0","","69","","","","29","","14","","24.1","","101.89","","","","-52","","Ice Crystals"
"-94.07","58.74","CHURCHILL A","5060605","2019-01-31 03:00","2019","01","31","03:00","-39.4","","-43.1","","69","","","","29","","13","","24.1","","101.88","","","","-52","","Ice Crystals"
"-94.07","58.74","CHURCHILL A","5060605","2019-01-31 04:00","2019","01","31","04:00","-39.7","","-43.4","","69","","","","29","","13","","16.1","","101.88","","","","-52","","Ice Crystals"
"-94.07","58.74","CHURCHILL A","5060605","2019-01-31 05:00","2019","01","31","05:00","-40.2","","-43.9","","69","","","","29","","14","","16.1","","101.86","","","","-54","","Ice Crystals"
"-94.07","58.74","CHURCHILL A","5060605","2019-01-31 06:00","2019","01","31","06:00","-40.1","","-43.8","","69","","","","29","","14","","24.1","","101.80","","","","-53","","Ice Crystals"
"-94.07","58.74","CHURCHILL A","5060605","2019-01-31 07:00","2019","01","31","07:00","-40.1","","-43.8","","69","","","","30","","17","","24.1","","101.78","","","","-55","","Ice Crystals"
"-94.07","58.74","CHURCHILL A","5060605","2019-01-31 08:00","2019","01","31","08:00","-40.5","","-44.3","","68","","","","29","","16","","24.1","","101.77","","","","-55","","Ice Crystals"
"-94.07","58.74","CHURCHILL A","5060605","2019-01-31 09:00","2019","01","31","09:00","-40.7","","-44.5","","68","","","","28","","10","","8.1","","101.75","","","","-52","","Ice Crystals"
"-94.07","58.74","CHURCHILL A","5060605","2019-01-31 10:00","2019","01","31","10:00","-39.6","","-43.3","","69","","","","28","","8","","6.4","","101.75","","","","-49","","Ice Crystals"
"-94.07","58.74","CHURCHILL A","5060605","2019-01-31 11:00","2019","01","31","11:00","-38.3","","-42.0","","69","","","","28","","7","","24.1","","101.74","","","","-47","","Ice Crystals"
"-94.07","58.74","CHURCHILL A","5060605","2019-01-31 12:00","2019","01","31","12:00","-36.7","","-40.3","","70","","","","28","","11","","24.1","","101.74","","","","-48","","Ice Crystals"
"-94.07","58.74","CHURCHILL A","5060605","2019-01-31 13:00","2019","01","31","13:00","-36.0","","-39.6","","70","","","","29","","11","","24.1","","101.71","","","","-47","","Ice Crystals"
"-94.07","58.74","CHURCHILL A","5060605","2019-01-31 14:00","2019","01","31","14:00","-34.8","","-38.3","","71","","","","27","","5","","24.1","","101.69","","","","-41","","Ice Crystals"
"-94.07","58.74","CHURCHILL A","5060605","2019-01-31 15:00","2019","01","31","15:00","-34.5","","-38.0","","71","","","","29","","7","","24.1","","101.68","","","","-43","","Ice Crystals"
"-94.07","58.74","CHURCHILL A","5060605","2019-01-31 16:00","2019","01","31","16:00","-34.3","","-37.9","","71","","","","36","","3","","24.1","","101.66","","","","-38","","Ice Crystals"
"-94.07","58.74","CHURCHILL A","5060605","2019-01-31 17:00","2019","01","31","17:00","-33.7","","-37.1","","72","","","","36","","2","","24.1","","101.66","","","","-36","","Ice Crystals"
"-94.07","58.74","CHURCHILL A","5060605","2019-01-31 18:00","2019","01","31","18:00","-33.4","","-36.8","","72","","","","18","","3","","24.1","","101.61","","","","-37","","Ice Crystals"
"-94.07","58.74","CHURCHILL A","5060605","2019-01-31 19:00","2019","01","31","19:00","-34.4","","-37.8","","72","","","","15","","7","","24.1","","101.56","","","","-42","","NA"
"-94.07","58.74","CHURCHILL A","5060605","2019-01-31 20:00","2019","01","31","20:00","-35.7","","-39.2","","71","","","","20","","10","","24.1","","101.50","","","","-46","","NA"
"-94.07","58.74","CHURCHILL A","5060605","2019-01-31 21:00","2019","01","31","21:00","-35.7","","-39.4","","70","","","","22","","8","","24.1","","101.50","","","","-45","","Mainly Clear"
"-94.07","58.74","CHURCHILL A","5060605","2019-01-31 22:00","2019","01","31","22:00","-35.7","","-39.4","","70","","","","18","","8","","24.1","","101.43","","","","-45","","NA"
"-94.07","58.74","CHURCHILL A","5060605","2019-01-31 23:00","2019","01","31","23:00","-35.3","","-38.7","","72","","","","16","","8","","24.1","","101.36","","","","-44","","NA"
