"Longitude (x)","Latitude (y)","Station Name","Climate ID","Date/Time (LST)","Year","Month","Day","Time (LST)","Temp (°C)","Temp Flag","Dew Point Temp (°C)","Dew Point Temp Flag","Rel Hum (%)","Rel Hum Flag","Precip. Amount (mm)","Precip. Amount Flag","Wind Dir (10s deg)","Wind Dir Flag","Wind Spd (km/h)","Wind Spd Flag","Visibility (km)","Visibility Flag","Stn Press (kPa)","Stn Press Flag","Hmdx","Hmdx Flag","Wind Chill","Wind Chill Flag","Weather"
"-94.71","56.36","GILLAM A","5061022","2018-04-01 00:00","2018","04","01","00:00","-23.4","","-27.9","","67","","","","33","","20","","20.9","","99.28","","","","-35","","Snow"
"-94.71","56.36","GILLAM A","5061022","2018-04-01 01:00","2018","04","01","01:00","-24.3","","-28.8","","67","","","","33","","21","","24.1","","99.28","","","","-36","","Snow"
"-94.71","56.36","GILLAM A","5061022","2018-04-01 02:00","2018","04","01","02:00","-26.2","","-30.0","","71","","","","32","","16","","24.1","","99.26","","","","-37","","Snow"
"-94.71","56.36","GILLAM A","5061022","2018-04-01 03:00","2018","04","01","03:00","-27.2","","-31.1","","70","","","","30","","17","","24.1","","99.27","","","","-39","","Clear"
"-94.71","56.36","GILLAM A","5061022","2018-04-01 04:00","2018","04","01","04:00","-28.1","","-31.7","","72","","","","30","","15","","24.1","","99.28","","","","-39","","NA"
"-94.71","56.36","GILLAM A","5061022","2018-04-01 05:00","2018","04","01","05:00","-28.3","","-31.9","","72","","","","30","","17","","22.5","","99.30","","","","-40","","Snow"
"-94.71","56.36","GILLAM A","5061022","2018-04-01 06:00","2018","04","01","06:00","-29.0","","-32.6","","72","","","","29","","14","","24.1","","99.33","","","","-40","","Mostly Cloudy"
"-94.71","56.36","GILLAM A","5061022","2018-04-01 07:00","2018","04","01","07:00","-28.2","","-32.0","","71","","","","29","","16","","24.1","","99.33","","","","-40","","NA"
"-94.71","56.36","GILLAM A","5061022","2018-04-01 08:00","2018","04","01","08:00","-26.6","","-30.8","","68","","","","31","","13","","24.1","","99.35","","","","-36","","NA"
"-94.71","56.36","GILLAM A","5061022","2018-04-01 09:00","2018","04","01","09:00","-25.3","","-30.3","","64","","","","32","","20","","9.7","","99.39","","","","-37","","Fog"
"-94.71","56.36","GILLAM A","5061022","2018-04-01 10:00","2018","04","01","10:00","-24.0","","-29.5","","61","","","","30","","16","","24.1","","99.44","","","","-34","","NA"
"-94.71","56.36","GILLAM A","5061022","2018-04-01 11:00","2018","04","01","11:00","-22.1","","-27.9","","60","","","","30","","18","","24.1","","99.49","","","","-33","","NA"
"-94.71","56.36","GILLAM A","5061022","2018-04-01 12:00","2018","04","01","12:00","-20.6","","-27.1","","57","","","","33","","26","","24.1","","99.54","","","","-33","","Clear"
"-94.71","56.36","GILLAM A","5061022","2018-04-01 13:00","2018","04","01","13:00","-19.2","","-26.1","","55","","","","35","","22","","9.7","","99.60","","","","-30","","Fog"
"-94.71","56.36","GILLAM A","5061022","2018-04-01 14:00","2018","04","01","14:00","-18.9","","-27.7","","46","","","","2","","21","","9.7","","99.66","","","","-29","","Fog"
"-94.71","56.36","GILLAM A","5061022","2018-04-01 15:00","2018","04","01","15:00","-18.3","","-24.8","","58","","","","35","","15","","9.7","","99.72","","","","-27","","Fog"
"-94.71","56.36","GILLAM A","5061022","2018-04-01 16:00","2018","04","01","16:00","-18.7","","-25.5","","56","","","","33","","19","","9.7","","99.79","","","","-29","","Fog"
"-94.71","56.36","GILLAM A","5061022","2018-04-01 17:00","2018","04","01","17:00","-18.7","","-24.6","","60","","","","35","","23","","24.1","","99.86","","","","-30","","NA"
"-94.71","56.36","GILLAM A","5061022","2018-04-01 18:00","2018","04","01","18:00","-19.2","","-24.8","","62","","","","35","","17","","24.1","","99.89","","","","-29","","Mainly Clear"
"-94.71","56.36","GILLAM A","5061022","2018-04-01 19:00","2018","04","01","19:00","-20.3","","-26.4","","59","","","","35","","16","","16.1","","99.93","","","","-30","","Snow,Fog"
"-94.71","56.36","GILLAM A","5061022","2018-04-01 20:00","2018","04","01","20:00","-22.9","","-28.0","","64","","","","33","","15","","24.1","","99.97","","","","-33","","NA"
"-94.71","56.36","GILLAM A","5061022","2018-04-01 21:00","2018","04","01","21:00","-23.0","","-28.0","","65","","","","33","","17","","24.1","","100.00","","","","-33","","Clear"
"-94.71","56.36","GILLAM A","5061022","2018-04-01 22:00","2018","04","01","22:00","-23.8","","-27.8","","70","","","","34","","16","","24.1","","99.99","","","","-34","","NA"
"-94.71","56.36","GILLAM A","5061022","2018-04-01 23:00","2018","04","01","23:00","-26.2","","-29.5","","75","","","","34","","14","","24.1","","100.01","","","","-36","","NA"
"-94.71","56.36","GILLAM A","5061022","2018-04-02 00:00","2018","04","02","00:00","-26.3","","-29.6","","74","","","","30","","12","","24.1","","100.04","","","","-36","","Clear"
"-94.71","56.36","GILLAM A","5061022","2018-04-02 01:00","2018","04","02","01:00","-26.9","","-29.7","","78","","","","29","","13","","24.1","","100.07","","","","-37","","NA"
"-94.71","56.36","GILLAM A","5061022","2018-04-02 02:00","2018","04","02","02:00","-26.5","","-29.7","","75","","","","29","","14","","24.1","","100.10","","","","-37","","NA"
"-94.71","56.36","GILLAM A","5061022","2018-04-02 03:00","2018","04","02","03:00","-28.4","","-31.5","","75","","","","29","","21","","24.1","","100.10","","","","-41","","Clear"
"-94.71","56.36","GILLAM A","5061022","2018-04-02 04:00","2018","04","02","04:00","-28.4","","-31.6","","75","","","","28","","16","","24.1","","100.11","","","","-40","","NA"
"-94.71","56.36","GILLAM A","5061022","2018-04-02 05:00","2018","04","02","05:00","-28.7","","-32.0","","74","","","","28","","15","","24.1","","100.13","","","","-40","","NA"
"-94.71","56.36","GILLAM A","5061022","2018-04-02 06:00","2018","04","02","06:00","-29.3","","-32.7","","73","","","","28","","15","","24.1","","100.14","","","","-41","","Mostly Cloudy"
"-94.71","56.36","GILLAM A","5061022","2018-04-02 07:00","2018","04","02","07:00","-29.6","","-33.0","","73","","","","28","","17","","24.1","","100.17","","","","-42","","NA"
"-94.71","56.36","GILLAM A","5061022","2018-04-02 08:00","2018","04","02","08:00","-28.3","","-31.7","","73","","","","28","","17","","24.1","","100.17","","","","-40","","NA"
"-94.71","56.36","GILLAM A","5061022","2018-04-02 09:00","2018","04","02","09:00","-25.8","","-29.7","","71","","","","28","","13","","24.1","","100.17","","","","-35","","Clear"
"-94.71","56.36","GILLAM A","5061022","2018-04-02 10:00","2018","04","02","10:00","-22.8","","-28.4","","61","","","","27","","17","","24.1","","100.20","","","","-33","","NA"
"-94.71","56.36","GILLAM A","5061022","2018-04-02 11:00","2018","04","02","11:00","-21.1","","-27.6","","56","","","","28","","17","","24.1","","100.19","","","","-31","","NA"
"-94.71","56.36","GILLAM A","5061022","2018-04-02 12:00","2018","04","02","12:00","-19.3","","-26.4","","54","","","","28","","17","","24.1","","100.15","","","","-29","","Cloudy"
"-94.71","56.36","GILLAM A","5061022","2018-04-02 13:00","2018","04","02","13:00","-18.4","","-26.3","","51","","","","29","","20","","24.1","","100.15","","","","-28","","NA"
"-94.71","56.36","GILLAM A","5061022","2018-04-02 14:00","2018","04","02","14:00","-17.7","","-26.4","","47","","","","30","","18","","24.1","","100.15","","","","-27","","NA"
"-94.71","56.36","GILLAM A","5061022","2018-04-02 15:00","2018","04","02","15:00","-17.0","","-25.6","","48","","","","29","","14","","24.1","","100.14","","","","-25","","Clear"
"-94.71","56.36","GILLAM A","5061022","2018-04-02 16:00","2018","04","02","16:00","-16.6","","-24.9","","49","","","","28","","20","","24.1","","100.13","","","","-26","","NA"
"-94.71","56.36","GILLAM A","5061022","2018-04-02 17:00","2018","04","02","17:00","-17.2","","-22.9","","62","","","","28","","16","","24.1","","100.15","","","","-26","","NA"
"-94.71","56.36","GILLAM A","5061022","2018-04-02 18:00","2018","04","02","18:00","-17.4","","-22.3","","66","","","","29","","9","","24.1","","100.14","","","","-24","","Mainly Clear"
"-94.71","56.36","GILLAM A","5061022","2018-04-02 19:00","2018","04","02","19:00","-18.6","","-24.3","","62","","","","28","","10","","24.1","","100.13","","","","-26","","NA"
"-94.71","56.36","GILLAM A","5061022","2018-04-02 20:00","2018","04","02","20:00","-18.9","","-25.0","","59","","","","27","","9","","24.1","","100.13","","","","-25","","NA"
"-94.71","56.36","GILLAM A","5061022","2018-04-02 21:00","2018","04","02","21:00","-19.6","","-26.1","","57","","","","27","","10","","24.1","","100.12","","","","-27","","Cloudy"
"-94.71","56.36","GILLAM A","5061022","2018-04-02 22:00","2018","04","02","22:00","-19.8","","-25.7","","60","","","","27","","12","","24.1","","100.12","","","","-28","","NA"
"-94.71","56.36","GILLAM A","5061022","2018-04-02 23:00","2018","04","02","23:00","-23.0","","-27.4","","68","","","","29","","11","","24.1","","100.14","","","","-31","","NA"
"-94.71","56.36","GILLAM A","5061022","2018-04-03 00:00","2018","04","03","00:00","-22.4","","-26.6","","69","","","","26","","10","","24.1","","100.17","","","","-30","","Clear"
"-94.71","56.36","GILLAM A","5061022","2018-04-03 01:00","2018","04","03","01:00","-22.8","","-26.9","","70","","","","27","","9","","24.1","","100.18","","","","-30","","NA"
"-94.71","56.36","GILLAM A","5061022","2018-04-03 02:00","2018","04","03","02:00","-23.8","","-27.3","","73","","","","27","","9","","24.1","","100.15","","","","-31","","NA"
"-94.71","56.36","GILLAM A","5061022","2018-04-03 03:00","2018","04","03","03:00","-24.2","","-27.7","","73","","","","27","","9","","24.1","","100.15","","","","-32","","Mainly Clear"
"-94.71","56.36","GILLAM A","5061022","2018-04-03 04:00","2018","04","03","04:00","-24.9","","-28.2","","75","","","","26","","10","","22.5","","100.14","","","","-33","","NA"
"-94.71","56.36","GILLAM A","5061022","2018-04-03 05:00","2018","04","03","05:00","-26.6","","-29.6","","76","","","","24","","8","","8.1","","100.11","","","","-34","","Fog"
"-94.71","56.36","GILLAM A","5061022","2018-04-03 06:00","2018","04","03","06:00","-26.4","","-29.7","","75","","","","24","","10","","24.1","","100.08","","","","-35","","Ice Crystals"
"-94.71","56.36","GILLAM A","5061022","2018-04-03 07:00","2018","04","03","07:00","-23.6","","-27.2","","73","","","","25","","14","","24.1","","100.05","","","","-33","","Ice Crystals"
"-94.71","56.36","GILLAM A","5061022","2018-04-03 08:00","2018","04","03","08:00","-20.6","","-24.8","","70","","","","26","","18","","24.1","","100.00","","","","-31","","NA"
"-94.71","56.36","GILLAM A","5061022","2018-04-03 09:00","2018","04","03","09:00","-17.0","","-23.1","","60","","","","26","","24","","24.1","","99.93","","","","-28","","Clear"
"-94.71","56.36","GILLAM A","5061022","2018-04-03 10:00","2018","04","03","10:00","-15.0","","-22.3","","54","","","","27","","25","","24.1","","99.90","","","","-25","","NA"
"-94.71","56.36","GILLAM A","5061022","2018-04-03 11:00","2018","04","03","11:00","-13.7","","-21.9","","51","","","","28","","28","","24.1","","99.85","","","","-24","","NA"
"-94.71","56.36","GILLAM A","5061022","2018-04-03 12:00","2018","04","03","12:00","-12.5","","-20.3","","53","","","","28","","28","","24.1","","99.79","","","","-22","","Clear"
"-94.71","56.36","GILLAM A","5061022","2018-04-03 13:00","2018","04","03","13:00","-11.8","","-20.6","","48","","","","27","","26","","24.1","","99.76","","","","-21","","NA"
"-94.71","56.36","GILLAM A","5061022","2018-04-03 14:00","2018","04","03","14:00","-11.1","","-19.1","","52","","","","28","","29","","24.1","","99.71","","","","-21","","NA"
"-94.71","56.36","GILLAM A","5061022","2018-04-03 15:00","2018","04","03","15:00","-9.9","","-19.9","","45","","","","26","","27","","24.1","","99.67","","","","-19","","Mainly Clear"
"-94.71","56.36","GILLAM A","5061022","2018-04-03 16:00","2018","04","03","16:00","-10.4","","-18.5","","52","","","","28","","24","","24.1","","99.64","","","","-19","","NA"
"-94.71","56.36","GILLAM A","5061022","2018-04-03 17:00","2018","04","03","17:00","-9.8","","-19.3","","46","","","","28","","21","","24.1","","99.61","","","","-18","","NA"
"-94.71","56.36","GILLAM A","5061022","2018-04-03 18:00","2018","04","03","18:00","-10.0","","-19.7","","45","","","","27","","20","","24.1","","99.57","","","","-18","","Cloudy"
"-94.71","56.36","GILLAM A","5061022","2018-04-03 19:00","2018","04","03","19:00","-10.5","","-20.5","","44","","","","25","","13","","24.1","","99.55","","","","-17","","NA"
"-94.71","56.36","GILLAM A","5061022","2018-04-03 20:00","2018","04","03","20:00","-11.5","","-20.1","","49","","","","24","","13","","24.1","","99.53","","","","-18","","NA"
"-94.71","56.36","GILLAM A","5061022","2018-04-03 21:00","2018","04","03","21:00","-12.2","","-21.4","","47","","","","23","","11","","24.1","","99.52","","","","-18","","Mostly Cloudy"
"-94.71","56.36","GILLAM A","5061022","2018-04-03 22:00","2018","04","03","22:00","-12.7","","-21.5","","48","","","","24","","13","","24.1","","99.51","","","","-20","","NA"
"-94.71","56.36","GILLAM A","5061022","2018-04-03 23:00","2018","04","03","23:00","-14.0","","-21.9","","52","","","","23","","13","","24.1","","99.49","","","","-21","","NA"
"-94.71","56.36","GILLAM A","5061022","2018-04-04 00:00","2018","04","04","00:00","-14.7","","-22.3","","53","","","","23","","13","","24.1","","99.47","","","","-22","","Mostly Cloudy"
"-94.71","56.36","GILLAM A","5061022","2018-04-04 01:00","2018","04","04","01:00","-15.6","","-22.6","","55","","","","23","","13","","24.1","","99.46","","","","-23","","NA"
"-94.71","56.36","GILLAM A","5061022","2018-04-04 02:00","2018","04","04","02:00","-17.0","","-23.3","","59","","","","22","","9","","24.1","","99.47","","","","-23","","NA"
"-94.71","56.36","GILLAM A","5061022","2018-04-04 03:00","2018","04","04","03:00","-17.6","","-23.6","","60","","","","24","","10","","24.1","","99.47","","","","-24","","Mainly Clear"
"-94.71","56.36","GILLAM A","5061022","2018-04-04 04:00","2018","04","04","04:00","-18.9","","-24.3","","63","","","","22","","11","","11.3","","99.46","","","","-26","","Fog"
"-94.71","56.36","GILLAM A","5061022","2018-04-04 05:00","2018","04","04","05:00","-19.7","","-24.5","","66","","","","21","","10","","22.5","","99.46","","","","-27","","NA"
"-94.71","56.36","GILLAM A","5061022","2018-04-04 06:00","2018","04","04","06:00","-20.2","","-24.8","","67","","","","22","","10","","24.1","","99.49","","","","-27","","Mainly Clear"
"-94.71","56.36","GILLAM A","5061022","2018-04-04 07:00","2018","04","04","07:00","-18.9","","-24.6","","62","","","","21","","12","","24.1","","99.51","","","","-27","","NA"
"-94.71","56.36","GILLAM A","5061022","2018-04-04 08:00","2018","04","04","08:00","-15.6","","-23.2","","53","","","","24","","10","","24.1","","99.50","","","","-22","","NA"
"-94.71","56.36","GILLAM A","5061022","2018-04-04 09:00","2018","04","04","09:00","-16.5","","-22.9","","58","","","","32","","7","","24.1","","99.49","","","","-22","","Clear"
"-94.71","56.36","GILLAM A","5061022","2018-04-04 10:00","2018","04","04","10:00","-14.5","","-21.7","","55","","","","34","","8","","24.1","","99.47","","","","-20","","NA"
"-94.71","56.36","GILLAM A","5061022","2018-04-04 11:00","2018","04","04","11:00","-12.5","","-20.2","","53","","","","34","","8","","24.1","","99.47","","","","-17","","NA"
"-94.71","56.36","GILLAM A","5061022","2018-04-04 12:00","2018","04","04","12:00","-10.4","","-18.7","","51","","","","34","","12","","24.1","","99.48","","","","-16","","Mainly Clear"
"-94.71","56.36","GILLAM A","5061022","2018-04-04 13:00","2018","04","04","13:00"
"-94.71","56.36","GILLAM A","5061022","2018-04-04 14:00","2018","04","04","14:00","-9.0","","-18.6","","46","","","","32","","15","","24.1","","99.54","","","","-16","","NA"
"-94.71","56.36","GILLAM A","5061022","2018-04-04 15:00","2018","04","04","15:00","-8.8","","-17.4","","50","","","","33","","11","","24.1","","99.56","","","","-14","","Cloudy"
"-94.71","56.36","GILLAM A","5061022","2018-04-04 16:00","2018","04","04","16:00","-8.5","","-17.0","","51","","","","31","","11","","24.1","","99.59","","","","-14","","NA"
"-94.71","56.36","GILLAM A","5061022","2018-04-04 17:00","2018","04","04","17:00"
"-94.71","56.36","GILLAM A","5061022","2018-04-04 18:00","2018","04","04","18:00","-9.9","","-16.1","","61","","","","36","","16","","24.1","","99.69","","","","-17","","Cloudy"
"-94.71","56.36","GILLAM A","5061022","2018-04-04 19:00","2018","04","04","19:00","-10.8","","-16.1","","65","","","","36","","13","","24.1","","99.75","","","","-17","","NA"
"-94.71","56.36","GILLAM A","5061022","2018-04-04 20:00","2018","04","04","20:00","-11.8","","-14.9","","78","","","","5","","14","","24.1","","99.81","","","","-19","","NA"
"-94.71","56.36","GILLAM A","5061022","2018-04-04 21:00","2018","04","04","21:00","-12.8","","-16.4","","75","","","","4","","15","","9.7","","99.85","","","","-20","","Snow"
"-94.71","56.36","GILLAM A","5061022","2018-04-04 22:00","2018","04","04","22:00","-13.3","","-16.8","","76","","","","4","","11","","19.3","","99.85","","","","-20","","Snow"
"-94.71","56.36","GILLAM A","5061022","2018-04-04 23:00","2018","04","04","23:00","-14.4","","-16.9","","81","","","","3","","9","","8.1","","99.84","","","","-20","","Snow"
"-94.71","56.36","GILLAM A","5061022","2018-04-05 00:00","2018","04","05","00:00","-15.0","","-17.4","","82","","","","2","","11","","19.3","","99.85","","","","-22","","Snow"
"-94.71","56.36","GILLAM A","5061022","2018-04-05 01:00","2018","04","05","01:00","-16.7","","-19.1","","82","","","","36","","8","","17.7","","99.85","","","","-22","","Snow"
"-94.71","56.36","GILLAM A","5061022","2018-04-05 02:00","2018","04","05","02:00","-16.9","","-19.2","","82","","","","36","","9","","20.9","","99.85","","","","-23","","Snow"
"-94.71","56.36","GILLAM A","5061022","2018-04-05 03:00","2018","04","05","03:00","-18.8","","-21.3","","81","","","","36","","2","","17.7","","99.86","","","","-20","","Snow"
"-94.71","56.36","GILLAM A","5061022","2018-04-05 04:00","2018","04","05","04:00","-19.1","","-21.6","","81","","","","34","","11","","24.1","","99.88","","","","-27","","Snow"
"-94.71","56.36","GILLAM A","5061022","2018-04-05 05:00","2018","04","05","05:00","-19.4","","-21.9","","81","","","","36","","8","","22.5","","99.90","","","","-26","","Snow"
"-94.71","56.36","GILLAM A","5061022","2018-04-05 06:00","2018","04","05","06:00","-19.8","","-22.4","","80","","","","31","","4","","20.9","","99.90","","","","-23","","Snow"
"-94.71","56.36","GILLAM A","5061022","2018-04-05 07:00","2018","04","05","07:00","-19.8","","-22.4","","80","","","","30","","9","","24.1","","99.90","","","","-27","","Snow"
"-94.71","56.36","GILLAM A","5061022","2018-04-05 08:00","2018","04","05","08:00","-18.5","","-21.4","","78","","","","29","","11","","24.1","","99.90","","","","-26","","NA"
"-94.71","56.36","GILLAM A","5061022","2018-04-05 09:00","2018","04","05","09:00","-17.3","","-20.7","","75","","","","28","","14","","24.1","","99.88","","","","-25","","Cloudy"
"-94.71","56.36","GILLAM A","5061022","2018-04-05 10:00","2018","04","05","10:00","-15.9","","-19.6","","73","","","","28","","17","","24.1","","99.89","","","","-25","","NA"
"-94.71","56.36","GILLAM A","5061022","2018-04-05 11:00","2018","04","05","11:00","-14.4","","-18.9","","69","","","","29","","13","","24.1","","99.91","","","","-22","","NA"
"-94.71","56.36","GILLAM A","5061022","2018-04-05 12:00","2018","04","05","12:00","-12.7","","-19.0","","60","","","","30","","16","","24.1","","99.88","","","","-20","","Clear"
"-94.71","56.36","GILLAM A","5061022","2018-04-05 13:00","2018","04","05","13:00","-11.8","","-18.4","","58","","","","28","","18","","24.1","","99.87","","","","-20","","NA"
"-94.71","56.36","GILLAM A","5061022","2018-04-05 14:00","2018","04","05","14:00","-10.9","","-18.1","","56","","","","28","","19","","24.1","","99.86","","","","-19","","NA"
"-94.71","56.36","GILLAM A","5061022","2018-04-05 15:00","2018","04","05","15:00","-10.3","","-17.8","","55","","","","30","","22","","24.1","","99.85","","","","-19","","Cloudy"
"-94.71","56.36","GILLAM A","5061022","2018-04-05 16:00","2018","04","05","16:00","-10.5","","-17.5","","57","","","","30","","22","","24.1","","99.83","","","","-19","","NA"
"-94.71","56.36","GILLAM A","5061022","2018-04-05 17:00","2018","04","05","17:00","-10.7","","-17.1","","59","","","","30","","21","","24.1","","99.79","","","","-19","","NA"
"-94.71","56.36","GILLAM A","5061022","2018-04-05 18:00","2018","04","05","18:00","-11.0","","-16.7","","63","","","","31","","21","","24.1","","99.73","","","","-19","","Cloudy"
"-94.71","56.36","GILLAM A","5061022","2018-04-05 19:00","2018","04","05","19:00","-11.6","","-15.7","","72","","","","30","","23","","9.7","","99.70","","","","-20","","Snow"
"-94.71","56.36","GILLAM A","5061022","2018-04-05 20:00","2018","04","05","20:00","-11.7","","-14.4","","81","","","","31","","26","","2.4","","99.67","","","","-21","","Snow"
"-94.71","56.36","GILLAM A","5061022","2018-04-05 21:00","2018","04","05","21:00","-12.1","","-15.0","","79","","","","31","","27","","1.2","","99.62","","","","-22","","Snow"
"-94.71","56.36","GILLAM A","5061022","2018-04-05 22:00","2018","04","05","22:00","-12.3","","-15.0","","81","","","","31","","23","","2.4","","99.55","","","","-21","","Snow"
"-94.71","56.36","GILLAM A","5061022","2018-04-05 23:00","2018","04","05","23:00","-11.9","","-14.8","","79","","","","33","","30","","2.8","","99.52","","","","-22","","Snow"
"-94.71","56.36","GILLAM A","5061022","2018-04-06 00:00","2018","04","06","00:00","-12.0","","-15.8","","74","","","","35","","31","","6.4","","99.54","","","","-22","","Snow"
"-94.71","56.36","GILLAM A","5061022","2018-04-06 01:00","2018","04","06","01:00","-12.6","","-15.8","","77","","","","33","","30","","2.8","","99.55","","","","-23","","Snow"
"-94.71","56.36","GILLAM A","5061022","2018-04-06 02:00","2018","04","06","02:00","-13.6","","-16.9","","77","","","","33","","33","","1.6","","99.57","","","","-25","","Snow"
"-94.71","56.36","GILLAM A","5061022","2018-04-06 03:00","2018","04","06","03:00","-14.4","","-18.3","","73","","","","34","","29","","4.8","","99.61","","","","-25","","Snow"
"-94.71","56.36","GILLAM A","5061022","2018-04-06 04:00","2018","04","06","04:00","-15.5","","-19.4","","72","","","","34","","39","","3.2","","99.64","","","","-28","","Snow,Blowing Snow"
"-94.71","56.36","GILLAM A","5061022","2018-04-06 05:00","2018","04","06","05:00","-16.1","","-20.1","","72","","","","34","","36","","3.6","","99.70","","","","-28","","Blowing Snow"
"-94.71","56.36","GILLAM A","5061022","2018-04-06 06:00","2018","04","06","06:00","-17.4","","-21.9","","68","","","","34","","45","","3.6","","99.76","","","","-31","","Blowing Snow"
"-94.71","56.36","GILLAM A","5061022","2018-04-06 07:00","2018","04","06","07:00","-17.7","","-22.0","","70","","","","33","","32","","9.7","","99.79","","","","-30","","Blowing Snow"
"-94.71","56.36","GILLAM A","5061022","2018-04-06 08:00","2018","04","06","08:00","-18.5","","-23.1","","67","","","","32","","32","","9.7","","99.85","","","","-31","","Blowing Snow"
"-94.71","56.36","GILLAM A","5061022","2018-04-06 09:00","2018","04","06","09:00","-18.6","","-23.0","","69","","","","33","","37","","9.7","","99.87","","","","-32","","Blowing Snow"
"-94.71","56.36","GILLAM A","5061022","2018-04-06 10:00","2018","04","06","10:00","-17.8","","-23.0","","64","","","","34","","39","","9.7","","99.93","","","","-31","","Blowing Snow"
"-94.71","56.36","GILLAM A","5061022","2018-04-06 11:00","2018","04","06","11:00","-16.6","","-22.0","","64","","","","33","","34","","9.7","","99.93","","","","-29","","Blowing Snow"
"-94.71","56.36","GILLAM A","5061022","2018-04-06 12:00","2018","04","06","12:00","-15.9","","-22.3","","58","","","","33","","42","","9.7","","99.96","","","","-29","","Blowing Snow"
"-94.71","56.36","GILLAM A","5061022","2018-04-06 13:00","2018","04","06","13:00","-14.6","","-21.7","","56","","","","32","","40","","24.1","","99.98","","","","-27","","NA"
"-94.71","56.36","GILLAM A","5061022","2018-04-06 14:00","2018","04","06","14:00","-13.2","","-20.8","","54","","","","33","","41","","24.1","","99.98","","","","-25","","NA"
"-94.71","56.36","GILLAM A","5061022","2018-04-06 15:00","2018","04","06","15:00","-12.2","","-20.0","","53","","","","33","","38","","24.1","","100.00","","","","-23","","Clear"
"-94.71","56.36","GILLAM A","5061022","2018-04-06 16:00","2018","04","06","16:00","-12.0","","-20.3","","51","","","","32","","34","","24.1","","100.01","","","","-23","","NA"
"-94.71","56.36","GILLAM A","5061022","2018-04-06 17:00","2018","04","06","17:00","-12.2","","-20.2","","52","","","","32","","36","","24.1","","100.03","","","","-23","","NA"
"-94.71","56.36","GILLAM A","5061022","2018-04-06 18:00","2018","04","06","18:00","-12.4","","-20.6","","51","","","","33","","37","","24.1","","100.07","","","","-24","","Clear"
"-94.71","56.36","GILLAM A","5061022","2018-04-06 19:00","2018","04","06","19:00","-13.4","","-20.6","","55","","","","34","","30","","24.1","","100.08","","","","-24","","NA"
"-94.71","56.36","GILLAM A","5061022","2018-04-06 20:00","2018","04","06","20:00","-13.9","","-21.2","","55","","","","33","","30","","24.1","","100.11","","","","-25","","NA"
"-94.71","56.36","GILLAM A","5061022","2018-04-06 21:00","2018","04","06","21:00","-15.0","","-21.8","","56","","","","32","","19","","24.1","","100.11","","","","-24","","Mostly Cloudy"
"-94.71","56.36","GILLAM A","5061022","2018-04-06 22:00","2018","04","06","22:00","-15.8","","-22.3","","58","","","","32","","16","","24.1","","100.11","","","","-24","","NA"
"-94.71","56.36","GILLAM A","5061022","2018-04-06 23:00","2018","04","06","23:00","-16.6","","-22.0","","64","","","","34","","31","","24.1","","100.11","","","","-28","","NA"
"-94.71","56.36","GILLAM A","5061022","2018-04-07 00:00","2018","04","07","00:00","-17.4","","-22.5","","65","","","","34","","27","","24.1","","100.12","","","","-29","","Cloudy"
"-94.71","56.36","GILLAM A","5061022","2018-04-07 01:00","2018","04","07","01:00","-18.2","","-22.9","","67","","","","33","","26","","24.1","","100.12","","","","-29","","NA"
"-94.71","56.36","GILLAM A","5061022","2018-04-07 02:00","2018","04","07","02:00","-18.9","","-23.2","","70","","","","32","","19","","24.1","","100.12","","","","-29","","NA"
"-94.71","56.36","GILLAM A","5061022","2018-04-07 03:00","2018","04","07","03:00","-19.9","","-23.8","","72","","","","31","","16","","24.1","","100.12","","","","-29","","Cloudy"
"-94.71","56.36","GILLAM A","5061022","2018-04-07 04:00","2018","04","07","04:00","-20.6","","-24.1","","74","","","","30","","15","","24.1","","100.11","","","","-30","","NA"
"-94.71","56.36","GILLAM A","5061022","2018-04-07 05:00","2018","04","07","05:00","-21.4","","-24.6","","76","","","","30","","13","","24.1","","100.12","","","","-30","","NA"
"-94.71","56.36","GILLAM A","5061022","2018-04-07 06:00","2018","04","07","06:00","-21.6","","-24.7","","77","","","","31","","16","","24.1","","100.12","","","","-31","","Mostly Cloudy"
"-94.71","56.36","GILLAM A","5061022","2018-04-07 07:00","2018","04","07","07:00","-21.0","","-24.5","","74","","","","31","","17","","24.1","","100.12","","","","-31","","NA"
"-94.71","56.36","GILLAM A","5061022","2018-04-07 08:00","2018","04","07","08:00","-19.5","","-23.8","","69","","","","33","","21","","24.1","","100.15","","","","-30","","NA"
"-94.71","56.36","GILLAM A","5061022","2018-04-07 09:00","2018","04","07","09:00","-17.8","","-23.3","","63","","","","31","","16","","24.1","","100.16","","","","-27","","Clear"
"-94.71","56.36","GILLAM A","5061022","2018-04-07 10:00","2018","04","07","10:00","-16.5","","-22.5","","60","","","","29","","16","","24.1","","100.17","","","","-25","","NA"
"-94.71","56.36","GILLAM A","5061022","2018-04-07 11:00","2018","04","07","11:00","-15.1","","-22.5","","54","","","","30","","18","","24.1","","100.17","","","","-24","","NA"
"-94.71","56.36","GILLAM A","5061022","2018-04-07 12:00","2018","04","07","12:00","-13.7","","-20.8","","56","","","","29","","14","","24.1","","100.16","","","","-21","","Clear"
"-94.71","56.36","GILLAM A","5061022","2018-04-07 13:00","2018","04","07","13:00","-12.4","","-19.9","","54","","","","31","","19","","24.1","","100.15","","","","-21","","NA"
"-94.71","56.36","GILLAM A","5061022","2018-04-07 14:00","2018","04","07","14:00","-11.4","","-19.6","","51","","","","32","","21","","24.1","","100.16","","","","-20","","NA"
"-94.71","56.36","GILLAM A","5061022","2018-04-07 15:00","2018","04","07","15:00","-10.6","","-18.9","","51","","","","31","","18","","24.1","","100.17","","","","-18","","Clear"
"-94.71","56.36","GILLAM A","5061022","2018-04-07 16:00","2018","04","07","16:00","-10.4","","-18.8","","51","","","","32","","18","","24.1","","100.18","","","","-18","","NA"
"-94.71","56.36","GILLAM A","5061022","2018-04-07 17:00","2018","04","07","17:00","-10.6","","-18.7","","52","","","","34","","17","","24.1","","100.18","","","","-18","","NA"
"-94.71","56.36","GILLAM A","5061022","2018-04-07 18:00","2018","04","07","18:00","-10.9","","-19.1","","51","","","","35","","12","","24.1","","100.18","","","","-17","","Clear"
"-94.71","56.36","GILLAM A","5061022","2018-04-07 19:00","2018","04","07","19:00","-12.4","","-19.4","","56","","","","35","","11","","24.1","","100.17","","","","-18","","NA"
"-94.71","56.36","GILLAM A","5061022","2018-04-07 20:00","2018","04","07","20:00","-14.9","","-20.4","","64","","","","36","","7","","24.1","","100.16","","","","-20","","NA"
"-94.71","56.36","GILLAM A","5061022","2018-04-07 21:00","2018","04","07","21:00","-16.2","","-20.7","","68","","","","28","","3","","24.1","","100.16","","","","-18","","Cloudy"
"-94.71","56.36","GILLAM A","5061022","2018-04-07 22:00","2018","04","07","22:00","-17.1","","-20.8","","74","","","","29","","4","","24.1","","100.15","","","","-20","","NA"
"-94.71","56.36","GILLAM A","5061022","2018-04-07 23:00","2018","04","07","23:00","-19.9","","-23.1","","76","","","","30","","3","","24.1","","100.14","","","","-22","","NA"
"-94.71","56.36","GILLAM A","5061022","2018-04-08 00:00","2018","04","08","00:00","-19.7","","-22.7","","78","","","","24","","6","","14.5","","100.15","","","","-25","","Fog"
"-94.71","56.36","GILLAM A","5061022","2018-04-08 01:00","2018","04","08","01:00","-23.3","","-26.4","","77","","","","34","","3","","9.7","","100.15","","","","-26","","Fog"
"-94.71","56.36","GILLAM A","5061022","2018-04-08 02:00","2018","04","08","02:00","-21.9","","-25.1","","76","","","","26","","4","","9.7","","100.17","","","","-26","","Fog"
"-94.71","56.36","GILLAM A","5061022","2018-04-08 03:00","2018","04","08","03:00","-22.5","","-25.2","","79","","","","26","","4","","11.3","","100.16","","","","-26","","Fog"
"-94.71","56.36","GILLAM A","5061022","2018-04-08 04:00","2018","04","08","04:00","-22.4","","-25.3","","78","","","","22","","3","","12.9","","100.14","","","","-25","","Fog"
"-94.71","56.36","GILLAM A","5061022","2018-04-08 05:00","2018","04","08","05:00","-21.5","","-24.3","","78","","","","20","","5","","16.1","","100.13","","","","-26","","Fog"
"-94.71","56.36","GILLAM A","5061022","2018-04-08 06:00","2018","04","08","06:00","-21.1","","-24.2","","77","","","","22","","4","","12.9","","100.13","","","","-25","","Fog"
"-94.71","56.36","GILLAM A","5061022","2018-04-08 07:00","2018","04","08","07:00","-18.1","","-21.6","","74","","","","21","","9","","24.1","","100.11","","","","-24","","NA"
"-94.71","56.36","GILLAM A","5061022","2018-04-08 08:00","2018","04","08","08:00","-16.4","","-21.1","","67","","","","35","","4","","24.1","","100.11","","","","-19","","NA"
"-94.71","56.36","GILLAM A","5061022","2018-04-08 09:00","2018","04","08","09:00","-9.1","","-18.1","","49","","","","23","","15","","24.1","","100.07","","","","-16","","Clear"
"-94.71","56.36","GILLAM A","5061022","2018-04-08 10:00","2018","04","08","10:00","-11.9","","-18.0","","61","","","","31","","10","","24.1","","100.05","","","","-18","","NA"
"-94.71","56.36","GILLAM A","5061022","2018-04-08 11:00","2018","04","08","11:00","-7.4","","-14.1","","59","","","","31","","13","","24.1","","100.02","","","","-13","","NA"
"-94.71","56.36","GILLAM A","5061022","2018-04-08 12:00","2018","04","08","12:00","-6.8","","-13.2","","61","","","","29","","14","","24.1","","100.01","","","","-13","","Mostly Cloudy"
"-94.71","56.36","GILLAM A","5061022","2018-04-08 13:00","2018","04","08","13:00","-5.8","","-14.2","","52","","","","30","","20","","24.1","","99.99","","","","-13","","NA"
"-94.71","56.36","GILLAM A","5061022","2018-04-08 14:00","2018","04","08","14:00","-4.8","","-13.6","","51","","","","28","","21","","24.1","","99.98","","","","-11","","NA"
"-94.71","56.36","GILLAM A","5061022","2018-04-08 15:00","2018","04","08","15:00","-4.8","","-12.8","","53","","","","29","","17","","24.1","","99.97","","","","-11","","Mostly Cloudy"
"-94.71","56.36","GILLAM A","5061022","2018-04-08 16:00","2018","04","08","16:00","-4.2","","-12.8","","52","","","","29","","19","","24.1","","99.97","","","","-10","","NA"
"-94.71","56.36","GILLAM A","5061022","2018-04-08 17:00","2018","04","08","17:00","-4.8","","-13.0","","53","","","","29","","12","","24.1","","99.98","","","","-10","","NA"
"-94.71","56.36","GILLAM A","5061022","2018-04-08 18:00","2018","04","08","18:00","-5.6","","-13.0","","56","","","","28","","16","","24.1","","100.00","","","","-12","","Cloudy"
"-94.71","56.36","GILLAM A","5061022","2018-04-08 19:00","2018","04","08","19:00","-6.6","","-12.3","","64","","","","30","","14","","24.1","","100.03","","","","-12","","NA"
"-94.71","56.36","GILLAM A","5061022","2018-04-08 20:00","2018","04","08","20:00","-8.2","","-11.5","","77","","","","34","","9","","24.1","","100.05","","","","-13","","NA"
"-94.71","56.36","GILLAM A","5061022","2018-04-08 21:00","2018","04","08","21:00","-9.0","","-12.1","","79","","","","1","","5","","24.1","","100.07","","","","-12","","Mostly Cloudy"
"-94.71","56.36","GILLAM A","5061022","2018-04-08 22:00","2018","04","08","22:00","-10.3","","-12.2","","86","","","","33","","5","","24.1","","100.08","","","","-13","","NA"
"-94.71","56.36","GILLAM A","5061022","2018-04-08 23:00","2018","04","08","23:00","-11.4","","-13.0","","88","","","","30","","6","","24.1","","100.09","","","","-15","","NA"
"-94.71","56.36","GILLAM A","5061022","2018-04-09 00:00","2018","04","09","00:00","-13.3","","-14.7","","89","","","","3","","4","","24.1","","100.11","","","","-16","","Cloudy"
"-94.71","56.36","GILLAM A","5061022","2018-04-09 01:00","2018","04","09","01:00","-13.3","","-14.8","","89","","","","3","","4","","24.1","","100.13","","","","-16","","NA"
"-94.71","56.36","GILLAM A","5061022","2018-04-09 02:00","2018","04","09","02:00","-14.8","","-16.7","","86","","","","36","","1","","24.1","","100.14","","","","-16","","NA"
"-94.71","56.36","GILLAM A","5061022","2018-04-09 03:00","2018","04","09","03:00","-15.6","","-17.4","","86","","","","28","","3","","24.1","","100.15","","","","-18","","Mostly Cloudy"
"-94.71","56.36","GILLAM A","5061022","2018-04-09 04:00","2018","04","09","04:00","-17.6","","-19.8","","83","","","","23","","4","","20.9","","100.17","","","","-21","","NA"
"-94.71","56.36","GILLAM A","5061022","2018-04-09 05:00","2018","04","09","05:00","-18.6","","-20.9","","83","","","","21","","5","","0.2","","100.17","","","","-23","","Freezing Fog"
"-94.71","56.36","GILLAM A","5061022","2018-04-09 06:00","2018","04","09","06:00","-18.3","","-20.6","","82","","","","24","","4","","2.0","","100.18","","","","-22","","Fog"
"-94.71","56.36","GILLAM A","5061022","2018-04-09 07:00","2018","04","09","07:00","-16.1","","-18.2","","84","","","","24","","6","","9.7","","100.21","","","","-21","","Fog"
"-94.71","56.36","GILLAM A","5061022","2018-04-09 08:00","2018","04","09","08:00","-14.7","","-16.7","","85","","","","29","","5","","24.1","","100.21","","","","-18","","NA"
"-94.71","56.36","GILLAM A","5061022","2018-04-09 09:00","2018","04","09","09:00","-11.9","","-14.1","","84","","","","30","","6","","24.1","","100.20","","","","-16","","Mainly Clear"
"-94.71","56.36","GILLAM A","5061022","2018-04-09 10:00","2018","04","09","10:00","-10.0","","-15.7","","64","","","","33","","8","","24.1","","100.18","","","","-14","","NA"
"-94.71","56.36","GILLAM A","5061022","2018-04-09 11:00","2018","04","09","11:00","-6.7","","-13.9","","57","","","","34","","5","","24.1","","100.14","","","","-9","","NA"
"-94.71","56.36","GILLAM A","5061022","2018-04-09 12:00","2018","04","09","12:00","-4.4","","-13.7","","49","","","","31","","9","","24.1","","100.08","","","","-8","","Clear"
"-94.71","56.36","GILLAM A","5061022","2018-04-09 13:00","2018","04","09","13:00","-2.9","","-13.2","","45","","","","31","","13","","24.1","","100.02","","","","-8","","NA"
"-94.71","56.36","GILLAM A","5061022","2018-04-09 14:00","2018","04","09","14:00","-1.0","","-14.6","","35","","","","27","","22","","24.1","","99.96","","","","-7","","NA"
"-94.71","56.36","GILLAM A","5061022","2018-04-09 15:00","2018","04","09","15:00","-1.5","","-12.6","","43","","","","32","","5","","24.1","","99.90","","","","-3","","Mainly Clear"
"-94.71","56.36","GILLAM A","5061022","2018-04-09 16:00","2018","04","09","16:00","0.3","","-13.3","","35","","","","25","","20","","24.1","","99.84","","","","","","NA"
"-94.71","56.36","GILLAM A","5061022","2018-04-09 17:00","2018","04","09","17:00","0.6","","-14.7","","31","","","","24","","21","","24.1","","99.76","","","","","","NA"
"-94.71","56.36","GILLAM A","5061022","2018-04-09 18:00","2018","04","09","18:00","0.6","","-14.2","","32","","","","21","","15","","24.1","","99.70","","","","","","Mostly Cloudy"
"-94.71","56.36","GILLAM A","5061022","2018-04-09 19:00","2018","04","09","19:00","-1.1","","-13.9","","38","","","","19","","10","","24.1","","99.64","","","","-5","","NA"
"-94.71","56.36","GILLAM A","5061022","2018-04-09 20:00","2018","04","09","20:00","-2.7","","-14.1","","41","","","","20","","13","","24.1","","99.62","","","","-7","","NA"
"-94.71","56.36","GILLAM A","5061022","2018-04-09 21:00","2018","04","09","21:00","-3.6","","-14.6","","43","","","","21","","14","","24.1","","99.58","","","","-9","","Cloudy"
"-94.71","56.36","GILLAM A","5061022","2018-04-09 22:00","2018","04","09","22:00","-5.0","","-14.0","","50","","","","24","","7","","24.1","","99.51","","","","-8","","NA"
"-94.71","56.36","GILLAM A","5061022","2018-04-09 23:00","2018","04","09","23:00","-5.7","","-14.3","","51","","","","21","","14","","24.1","","99.42","","","","-11","","NA"
"-94.71","56.36","GILLAM A","5061022","2018-04-10 00:00","2018","04","10","00:00","-5.9","","-14.0","","53","","","","22","","17","","24.1","","99.36","","","","-12","","Mostly Cloudy"
"-94.71","56.36","GILLAM A","5061022","2018-04-10 01:00","2018","04","10","01:00","-5.9","","-13.7","","54","","","","22","","15","","24.1","","99.30","","","","-12","","NA"
"-94.71","56.36","GILLAM A","5061022","2018-04-10 02:00","2018","04","10","02:00","-6.7","","-13.7","","58","","","","22","","9","","24.1","","99.23","","","","-11","","NA"
"-94.71","56.36","GILLAM A","5061022","2018-04-10 03:00","2018","04","10","03:00","-7.4","","-13.6","","62","","","","22","","8","","24.1","","99.17","","","","-11","","Mostly Cloudy"
"-94.71","56.36","GILLAM A","5061022","2018-04-10 04:00","2018","04","10","04:00","-7.6","","-13.4","","63","","","","23","","8","","24.1","","99.11","","","","-12","","NA"
"-94.71","56.36","GILLAM A","5061022","2018-04-10 05:00","2018","04","10","05:00","-7.8","","-13.1","","66","","","","22","","7","","24.1","","99.06","","","","-11","","NA"
"-94.71","56.36","GILLAM A","5061022","2018-04-10 06:00","2018","04","10","06:00","-8.2","","-12.7","","70","","","","26","","6","","24.1","","99.03","","","","-11","","Cloudy"
"-94.71","56.36","GILLAM A","5061022","2018-04-10 07:00","2018","04","10","07:00","-8.6","","-13.4","","68","","","","2","","10","","24.1","","99.03","","","","-14","","NA"
"-94.71","56.36","GILLAM A","5061022","2018-04-10 08:00","2018","04","10","08:00","-8.0","","-13.6","","64","","","","3","","16","","24.1","","99.00","","","","-15","","NA"
"-94.71","56.36","GILLAM A","5061022","2018-04-10 09:00","2018","04","10","09:00","-8.1","","-14.1","","62","","","","3","","18","","24.1","","99.03","","","","-15","","Cloudy"
"-94.71","56.36","GILLAM A","5061022","2018-04-10 10:00","2018","04","10","10:00","-9.4","","-12.5","","78","","","","2","","19","","3.2","","99.05","","","","-17","","Snow"
"-94.71","56.36","GILLAM A","5061022","2018-04-10 11:00","2018","04","10","11:00","-9.2","","-12.6","","77","","","","4","","12","","2.4","","99.06","","","","-15","","Snow"
"-94.71","56.36","GILLAM A","5061022","2018-04-10 12:00","2018","04","10","12:00","-8.7","","-12.3","","75","","","","35","","14","","2.4","","99.09","","","","-15","","Snow"
"-94.71","56.36","GILLAM A","5061022","2018-04-10 13:00","2018","04","10","13:00","-8.2","","-14.9","","59","","","","35","","17","","24.1","","99.09","","","","-15","","NA"
"-94.71","56.36","GILLAM A","5061022","2018-04-10 14:00","2018","04","10","14:00","-8.2","","-14.7","","60","","","","36","","21","","24.1","","99.13","","","","-16","","NA"
"-94.71","56.36","GILLAM A","5061022","2018-04-10 15:00","2018","04","10","15:00","-9.1","","-15.2","","61","","","","33","","27","","24.1","","99.19","","","","-18","","Cloudy"
"-94.71","56.36","GILLAM A","5061022","2018-04-10 16:00","2018","04","10","16:00","-10.5","","-16.4","","62","","","","33","","28","","24.1","","99.27","","","","-20","","NA"
"-94.71","56.36","GILLAM A","5061022","2018-04-10 17:00","2018","04","10","17:00","-11.7","","-17.3","","64","","","","34","","31","","24.1","","99.36","","","","-22","","NA"
"-94.71","56.36","GILLAM A","5061022","2018-04-10 18:00","2018","04","10","18:00","-12.8","","-19.4","","58","","","","34","","22","","24.1","","99.40","","","","-22","","Mainly Clear"
"-94.71","56.36","GILLAM A","5061022","2018-04-10 19:00","2018","04","10","19:00","-13.9","","-20.6","","57","","","","35","","21","","24.1","","99.42","","","","-23","","NA"
"-94.71","56.36","GILLAM A","5061022","2018-04-10 20:00","2018","04","10","20:00","-15.5","","-20.7","","65","","","","35","","16","","24.1","","99.50","","","","-24","","NA"
"-94.71","56.36","GILLAM A","5061022","2018-04-10 21:00","2018","04","10","21:00","-17.0","","-21.4","","69","","","","35","","16","","24.1","","99.58","","","","-26","","Cloudy"
"-94.71","56.36","GILLAM A","5061022","2018-04-10 22:00","2018","04","10","22:00","-18.1","","-24.0","","60","","","","34","","17","","24.1","","99.60","","","","-27","","NA"
"-94.71","56.36","GILLAM A","5061022","2018-04-10 23:00","2018","04","10","23:00","-19.9","","-24.8","","66","","","","33","","13","","24.1","","99.64","","","","-28","","NA"
"-94.71","56.36","GILLAM A","5061022","2018-04-11 00:00","2018","04","11","00:00","-20.2","","-25.1","","65","","","","30","","10","","24.1","","99.61","","","","-27","","Clear"
"-94.71","56.36","GILLAM A","5061022","2018-04-11 01:00","2018","04","11","01:00","-20.8","","-25.2","","69","","","","25","","6","","24.1","","99.55","","","","-26","","NA"
"-94.71","56.36","GILLAM A","5061022","2018-04-11 02:00","2018","04","11","02:00","-21.3","","-25.6","","69","","","","23","","10","","24.1","","99.54","","","","-29","","NA"
"-94.71","56.36","GILLAM A","5061022","2018-04-11 03:00","2018","04","11","03:00","-22.0","","-25.9","","71","","","","24","","12","","24.1","","99.51","","","","-30","","Mostly Cloudy"
"-94.71","56.36","GILLAM A","5061022","2018-04-11 04:00","2018","04","11","04:00","-22.7","","-26.4","","72","","","","22","","10","","24.1","","99.43","","","","-30","","NA"
"-94.71","56.36","GILLAM A","5061022","2018-04-11 05:00","2018","04","11","05:00","-21.8","","-25.8","","70","","","","25","","13","","24.1","","99.39","","","","-31","","NA"
"-94.71","56.36","GILLAM A","5061022","2018-04-11 06:00","2018","04","11","06:00","-21.4","","-25.6","","70","","","","26","","13","","24.1","","99.35","","","","-30","","Mainly Clear"
"-94.71","56.36","GILLAM A","5061022","2018-04-11 07:00","2018","04","11","07:00","-20.1","","-24.9","","66","","","","26","","17","","24.1","","99.33","","","","-30","","NA"
"-94.71","56.36","GILLAM A","5061022","2018-04-11 08:00","2018","04","11","08:00","-18.5","","-23.7","","64","","","","28","","17","","24.1","","99.26","","","","-28","","NA"
"-94.71","56.36","GILLAM A","5061022","2018-04-11 09:00","2018","04","11","09:00","-16.3","","-22.5","","59","","","","29","","17","","24.1","","99.22","","","","-25","","Mostly Cloudy"
"-94.71","56.36","GILLAM A","5061022","2018-04-11 10:00","2018","04","11","10:00","-14.7","","-20.6","","61","","","","28","","22","","24.1","","99.21","","","","-24","","NA"
"-94.71","56.36","GILLAM A","5061022","2018-04-11 11:00","2018","04","11","11:00","-13.5","","-19.1","","63","","","","29","","21","","24.1","","99.17","","","","-22","","NA"
"-94.71","56.36","GILLAM A","5061022","2018-04-11 12:00","2018","04","11","12:00","-12.0","","-18.3","","60","","","","29","","20","","24.1","","99.14","","","","-20","","Cloudy"
"-94.71","56.36","GILLAM A","5061022","2018-04-11 13:00","2018","04","11","13:00","-11.8","","-17.1","","65","","","","29","","21","","24.1","","99.19","","","","-20","","NA"
"-94.71","56.36","GILLAM A","5061022","2018-04-11 14:00","2018","04","11","14:00","-11.2","","-17.2","","62","","","","34","","24","","24.1","","99.23","","","","-20","","NA"
"-94.71","56.36","GILLAM A","5061022","2018-04-11 15:00","2018","04","11","15:00","-11.8","","-19.3","","54","","","","30","","23","","24.1","","99.27","","","","-21","","Cloudy"
"-94.71","56.36","GILLAM A","5061022","2018-04-11 16:00","2018","04","11","16:00","-12.7","","-19.6","","57","","","","33","","26","","24.1","","99.34","","","","-22","","NA"
"-94.71","56.36","GILLAM A","5061022","2018-04-11 17:00","2018","04","11","17:00","-13.1","","-21.3","","51","","","","34","","25","","24.1","","99.37","","","","-23","","NA"
"-94.71","56.36","GILLAM A","5061022","2018-04-11 18:00","2018","04","11","18:00","-13.8","","-22.4","","49","","","","34","","22","","24.1","","99.41","","","","-23","","Clear"
"-94.71","56.36","GILLAM A","5061022","2018-04-11 19:00","2018","04","11","19:00","-15.3","","-22.6","","54","","","","34","","16","","24.1","","99.43","","","","-24","","NA"
"-94.71","56.36","GILLAM A","5061022","2018-04-11 20:00","2018","04","11","20:00","-18.1","","-24.1","","60","","","","36","","14","","24.1","","99.48","","","","-26","","NA"
"-94.71","56.36","GILLAM A","5061022","2018-04-11 21:00","2018","04","11","21:00","-19.1","","-25.4","","58","","","","35","","10","","24.1","","99.54","","","","-26","","Clear"
"-94.71","56.36","GILLAM A","5061022","2018-04-11 22:00","2018","04","11","22:00","-19.8","","-25.9","","59","","","","34","","13","","24.1","","99.56","","","","-28","","NA"
"-94.71","56.36","GILLAM A","5061022","2018-04-11 23:00","2018","04","11","23:00","-21.3","","-26.9","","61","","","","34","","15","","24.1","","99.57","","","","-31","","NA"
"-94.71","56.36","GILLAM A","5061022","2018-04-12 00:00","2018","04","12","00:00","-21.0","","-26.6","","61","","","","30","","11","","24.1","","99.60","","","","-29","","Cloudy"
"-94.71","56.36","GILLAM A","5061022","2018-04-12 01:00","2018","04","12","01:00","-22.4","","-27.7","","63","","","","32","","12","","24.1","","99.63","","","","-31","","NA"
"-94.71","56.36","GILLAM A","5061022","2018-04-12 02:00","2018","04","12","02:00","-22.5","","-27.7","","64","","","","30","","10","","24.1","","99.62","","","","-30","","NA"
"-94.71","56.36","GILLAM A","5061022","2018-04-12 03:00","2018","04","12","03:00","-25.5","","-29.5","","69","","","","29","","10","","24.1","","99.64","","","","-34","","Cloudy"
"-94.71","56.36","GILLAM A","5061022","2018-04-12 04:00","2018","04","12","04:00","-24.2","","-28.3","","69","","","","28","","10","","24.1","","99.63","","","","-32","","NA"
"-94.71","56.36","GILLAM A","5061022","2018-04-12 05:00","2018","04","12","05:00","-24.6","","-28.7","","69","","","","28","","13","","24.1","","99.64","","","","-34","","NA"
"-94.71","56.36","GILLAM A","5061022","2018-04-12 06:00","2018","04","12","06:00","-24.9","","-29.0","","69","","","","28","","13","","24.1","","99.64","","","","-34","","Clear"
"-94.71","56.36","GILLAM A","5061022","2018-04-12 07:00","2018","04","12","07:00","-24.6","","-29.0","","68","","","","28","","14","","24.1","","99.68","","","","-34","","NA"
"-94.71","56.36","GILLAM A","5061022","2018-04-12 08:00","2018","04","12","08:00","-23.2","","-28.0","","66","","","","29","","12","","24.1","","99.68","","","","-32","","NA"
"-94.71","56.36","GILLAM A","5061022","2018-04-12 09:00","2018","04","12","09:00","-21.1","","-26.6","","62","","","","28","","18","","24.1","","99.66","","","","-31","","Clear"
"-94.71","56.36","GILLAM A","5061022","2018-04-12 10:00","2018","04","12","10:00","-19.4","","-25.8","","58","","","","28","","20","","24.1","","99.67","","","","-30","","NA"
"-94.71","56.36","GILLAM A","5061022","2018-04-12 11:00","2018","04","12","11:00","-18.3","","-25.2","","55","","","","28","","21","","24.1","","99.71","","","","-29","","NA"
"-94.71","56.36","GILLAM A","5061022","2018-04-12 12:00","2018","04","12","12:00","-16.8","","-24.1","","54","","","","27","","21","","24.1","","99.73","","","","-27","","Clear"
"-94.71","56.36","GILLAM A","5061022","2018-04-12 13:00","2018","04","12","13:00","-15.6","","-23.6","","51","","","","28","","22","","24.1","","99.73","","","","-25","","NA"
"-94.71","56.36","GILLAM A","5061022","2018-04-12 14:00","2018","04","12","14:00","-14.2","","-21.6","","54","","","","28","","21","","24.1","","99.74","","","","-23","","NA"
"-94.71","56.36","GILLAM A","5061022","2018-04-12 15:00","2018","04","12","15:00","-13.4","","-21.3","","52","","","","28","","20","","24.1","","99.74","","","","-22","","Mostly Cloudy"
"-94.71","56.36","GILLAM A","5061022","2018-04-12 16:00","2018","04","12","16:00","-12.7","","-20.9","","51","","","","30","","16","","24.1","","99.77","","","","-20","","NA"
"-94.71","56.36","GILLAM A","5061022","2018-04-12 17:00","2018","04","12","17:00","-12.4","","-20.0","","54","","","","33","","21","","24.1","","99.79","","","","-21","","NA"
"-94.71","56.36","GILLAM A","5061022","2018-04-12 18:00","2018","04","12","18:00","-13.2","","-20.1","","57","","","","35","","17","","24.1","","99.84","","","","-21","","Mainly Clear"
"-94.71","56.36","GILLAM A","5061022","2018-04-12 19:00","2018","04","12","19:00","-13.8","","-20.1","","60","","","","34","","16","","24.1","","99.91","","","","-22","","NA"
"-94.71","56.36","GILLAM A","5061022","2018-04-12 20:00","2018","04","12","20:00","-14.7","","-20.3","","63","","","","34","","12","","24.1","","99.97","","","","-22","","NA"
"-94.71","56.36","GILLAM A","5061022","2018-04-12 21:00","2018","04","12","21:00","-17.6","","-22.0","","69","","","","36","","9","","24.1","","100.03","","","","-24","","Clear"
"-94.71","56.36","GILLAM A","5061022","2018-04-12 22:00","2018","04","12","22:00","-17.9","","-22.9","","65","","","","35","","9","","24.1","","100.10","","","","-24","","NA"
"-94.71","56.36","GILLAM A","5061022","2018-04-12 23:00","2018","04","12","23:00","-18.4","","-23.6","","64","","","","30","","9","","24.1","","100.18","","","","-25","","NA"
"-94.71","56.36","GILLAM A","5061022","2018-04-13 00:00","2018","04","13","00:00","-19.1","","-24.1","","65","","","","30","","14","","24.1","","100.26","","","","-28","","Clear"
"-94.71","56.36","GILLAM A","5061022","2018-04-13 01:00","2018","04","13","01:00","-21.6","","-25.7","","70","","","","30","","13","","24.1","","100.33","","","","-30","","NA"
"-94.71","56.36","GILLAM A","5061022","2018-04-13 02:00","2018","04","13","02:00","-21.3","","-25.6","","69","","","","29","","14","","24.1","","100.40","","","","-30","","NA"
"-94.71","56.36","GILLAM A","5061022","2018-04-13 03:00","2018","04","13","03:00","-22.8","","-26.7","","71","","","","29","","16","","24.1","","100.44","","","","-33","","Clear"
"-94.71","56.36","GILLAM A","5061022","2018-04-13 04:00","2018","04","13","04:00","-23.8","","-27.4","","73","","","","28","","15","","24.1","","100.52","","","","-34","","NA"
"-94.71","56.36","GILLAM A","5061022","2018-04-13 05:00","2018","04","13","05:00","-23.7","","-27.3","","73","","","","29","","16","","24.1","","100.57","","","","-34","","NA"
"-94.71","56.36","GILLAM A","5061022","2018-04-13 06:00","2018","04","13","06:00","-23.9","","-27.4","","74","","","","30","","13","","24.1","","100.65","","","","-33","","Mainly Clear"
"-94.71","56.36","GILLAM A","5061022","2018-04-13 07:00","2018","04","13","07:00","-22.1","","-26.1","","70","","","","30","","10","","24.1","","100.73","","","","-30","","NA"
"-94.71","56.36","GILLAM A","5061022","2018-04-13 08:00","2018","04","13","08:00","-19.6","","-24.2","","67","","","","30","","16","","24.1","","100.83","","","","-29","","NA"
"-94.71","56.36","GILLAM A","5061022","2018-04-13 09:00","2018","04","13","09:00","-17.2","","-22.2","","65","","","","32","","15","","24.1","","100.94","","","","-26","","Clear"
"-94.71","56.36","GILLAM A","5061022","2018-04-13 10:00","2018","04","13","10:00","-14.0","","-19.4","","64","","","","36","","15","","24.1","","101.08","","","","-22","","NA"
"-94.71","56.36","GILLAM A","5061022","2018-04-13 11:00","2018","04","13","11:00","-12.7","","-18.0","","65","","","","36","","9","","24.1","","101.20","","","","-18","","NA"
"-94.71","56.36","GILLAM A","5061022","2018-04-13 12:00","2018","04","13","12:00","-11.2","","-17.0","","63","","","","35","","13","","24.1","","101.28","","","","-18","","Mostly Cloudy"
"-94.71","56.36","GILLAM A","5061022","2018-04-13 13:00","2018","04","13","13:00","-10.4","","-16.7","","60","","","","32","","7","","24.1","","101.37","","","","-14","","NA"
"-94.71","56.36","GILLAM A","5061022","2018-04-13 14:00","2018","04","13","14:00","-8.7","","-15.6","","58","","","","1","","9","","24.1","","101.42","","","","-13","","NA"
"-94.71","56.36","GILLAM A","5061022","2018-04-13 15:00","2018","04","13","15:00","-7.6","","-14.8","","57","","","","36","","12","","24.1","","101.46","","","","-13","","Clear"
"-94.71","56.36","GILLAM A","5061022","2018-04-13 16:00","2018","04","13","16:00","-7.3","","-15.8","","51","","","","35","","7","","24.1","","101.52","","","","-11","","NA"
"-94.71","56.36","GILLAM A","5061022","2018-04-13 17:00","2018","04","13","17:00"
"-94.71","56.36","GILLAM A","5061022","2018-04-13 18:00","2018","04","13","18:00","-7.4","","-15.4","","53","","","","30","","7","","24.1","","101.63","","","","-11","","Clear"
"-94.71","56.36","GILLAM A","5061022","2018-04-13 19:00","2018","04","13","19:00","-9.5","","-15.8","","60","","","","2","","4","","24.1","","101.68","","","","-12","","NA"
"-94.71","56.36","GILLAM A","5061022","2018-04-13 20:00","2018","04","13","20:00","-10.7","","-17.4","","58","","","","11","","6","","24.1","","101.74","","","","-14","","NA"
"-94.71","56.36","GILLAM A","5061022","2018-04-13 21:00","2018","04","13","21:00","-12.2","","-17.6","","64","","","","13","","6","","24.1","","101.81","","","","-16","","Clear"
"-94.71","56.36","GILLAM A","5061022","2018-04-13 22:00","2018","04","13","22:00","-14.2","","-18.9","","68","","","","14","","7","","24.1","","101.84","","","","-19","","NA"
"-94.71","56.36","GILLAM A","5061022","2018-04-13 23:00","2018","04","13","23:00","-14.0","","-18.5","","69","","","","16","","10","","24.1","","101.86","","","","-20","","NA"
"-94.71","56.36","GILLAM A","5061022","2018-04-14 00:00","2018","04","14","00:00","-14.9","","-18.9","","72","","","","16","","10","","24.1","","101.86","","","","-21","","Clear"
"-94.71","56.36","GILLAM A","5061022","2018-04-14 01:00","2018","04","14","01:00","-15.7","","-19.4","","73","","","","18","","7","","24.1","","101.88","","","","-21","","NA"
"-94.71","56.36","GILLAM A","5061022","2018-04-14 02:00","2018","04","14","02:00","-16.4","","-19.6","","77","","","","20","","5","","17.7","","101.89","","","","-20","","NA"
"-94.71","56.36","GILLAM A","5061022","2018-04-14 03:00","2018","04","14","03:00","-16.9","","-20.1","","77","","","","20","","8","","24.1","","101.92","","","","-23","","Clear"
"-94.71","56.36","GILLAM A","5061022","2018-04-14 04:00","2018","04","14","04:00","-16.5","","-20.0","","75","","","","19","","10","","24.1","","101.95","","","","-23","","NA"
"-94.71","56.36","GILLAM A","5061022","2018-04-14 05:00","2018","04","14","05:00","-17.8","","-20.7","","78","","","","18","","6","","24.1","","101.97","","","","-22","","NA"
"-94.71","56.36","GILLAM A","5061022","2018-04-14 06:00","2018","04","14","06:00","-16.7","","-20.1","","75","","","","19","","13","","24.1","","101.98","","","","-24","","Clear"
"-94.71","56.36","GILLAM A","5061022","2018-04-14 07:00","2018","04","14","07:00","-13.7","","-18.4","","68","","","","19","","8","","24.1","","101.97","","","","-19","","NA"
"-94.71","56.36","GILLAM A","5061022","2018-04-14 08:00","2018","04","14","08:00","-9.7","","-17.5","","54","","","","19","","8","","24.1","","101.95","","","","-14","","NA"
"-94.71","56.36","GILLAM A","5061022","2018-04-14 09:00","2018","04","14","09:00","-7.8","","-16.5","","50","","","","20","","15","","24.1","","101.99","","","","-14","","Clear"
"-94.71","56.36","GILLAM A","5061022","2018-04-14 10:00","2018","04","14","10:00","-6.7","","-17.0","","44","","","","19","","16","","24.1","","101.95","","","","-13","","NA"
"-94.71","56.36","GILLAM A","5061022","2018-04-14 11:00","2018","04","14","11:00","-5.0","","-16.6","","40","","","","18","","18","","24.1","","101.93","","","","-11","","NA"
"-94.71","56.36","GILLAM A","5061022","2018-04-14 12:00","2018","04","14","12:00","-3.4","","-16.6","","35","","","","18","","18","","24.1","","101.87","","","","-9","","Clear"
"-94.71","56.36","GILLAM A","5061022","2018-04-14 13:00","2018","04","14","13:00","-1.6","","-15.3","","35","","","","18","","16","","24.1","","101.80","","","","-7","","NA"
"-94.71","56.36","GILLAM A","5061022","2018-04-14 14:00","2018","04","14","14:00","-1.1","","-14.3","","36","","","","19","","23","","24.1","","101.75","","","","-7","","NA"
"-94.71","56.36","GILLAM A","5061022","2018-04-14 15:00","2018","04","14","15:00","-0.7","","-15.2","","33","","","","17","","18","","24.1","","101.67","","","","-6","","Clear"
"-94.71","56.36","GILLAM A","5061022","2018-04-14 16:00","2018","04","14","16:00","-0.5","","-15.5","","31","","","","18","","20","","24.1","","101.63","","","","-6","","NA"
"-94.71","56.36","GILLAM A","5061022","2018-04-14 17:00","2018","04","14","17:00","-0.2","","-15.0","","32","","","","18","","20","","24.1","","101.58","","","","-5","","NA"
"-94.71","56.36","GILLAM A","5061022","2018-04-14 18:00","2018","04","14","18:00","-0.6","","-15.1","","33","","","","17","","17","","24.1","","101.56","","","","-6","","Mostly Cloudy"
"-94.71","56.36","GILLAM A","5061022","2018-04-14 19:00","2018","04","14","19:00","-1.9","","-14.8","","37","","","","16","","11","","24.1","","101.56","","","","-6","","NA"
"-94.71","56.36","GILLAM A","5061022","2018-04-14 20:00","2018","04","14","20:00","-3.3","","-15.1","","40","","","","16","","13","","24.1","","101.58","","","","-8","","NA"
"-94.71","56.36","GILLAM A","5061022","2018-04-14 21:00","2018","04","14","21:00","-4.3","","-15.3","","43","","","","17","","13","","24.1","","101.56","","","","-9","","Mostly Cloudy"
"-94.71","56.36","GILLAM A","5061022","2018-04-14 22:00","2018","04","14","22:00","-5.1","","-16.1","","42","","","","16","","13","","24.1","","101.54","","","","-10","","NA"
"-94.71","56.36","GILLAM A","5061022","2018-04-14 23:00","2018","04","14","23:00","-6.5","","-16.7","","44","","","","17","","12","","24.1","","101.54","","","","-12","","NA"
"-94.71","56.36","GILLAM A","5061022","2018-04-15 00:00","2018","04","15","00:00","-6.1","","-16.8","","43","","","","18","","14","","24.1","","101.53","","","","-12","","Mostly Cloudy"
"-94.71","56.36","GILLAM A","5061022","2018-04-15 01:00","2018","04","15","01:00","-6.5","","-16.9","","44","","","","17","","12","","24.1","","101.51","","","","-12","","NA"
"-94.71","56.36","GILLAM A","5061022","2018-04-15 02:00","2018","04","15","02:00","-6.7","","-16.9","","45","","","","17","","14","","24.1","","101.52","","","","-12","","NA"
"-94.71","56.36","GILLAM A","5061022","2018-04-15 03:00","2018","04","15","03:00","-7.1","","-16.8","","46","","","","18","","15","","24.1","","101.52","","","","-13","","Mainly Clear"
"-94.71","56.36","GILLAM A","5061022","2018-04-15 04:00","2018","04","15","04:00","-7.4","","-16.9","","47","","","","18","","18","","24.1","","101.52","","","","-14","","NA"
"-94.71","56.36","GILLAM A","5061022","2018-04-15 05:00","2018","04","15","05:00","-7.5","","-16.9","","48","","","","18","","15","","24.1","","101.52","","","","-14","","NA"
"-94.71","56.36","GILLAM A","5061022","2018-04-15 06:00","2018","04","15","06:00","-6.9","","-16.7","","46","","","","17","","16","","24.1","","101.53","","","","-13","","Mainly Clear"
"-94.71","56.36","GILLAM A","5061022","2018-04-15 07:00","2018","04","15","07:00"
"-94.71","56.36","GILLAM A","5061022","2018-04-15 08:00","2018","04","15","08:00","-3.9","","-15.7","","40","","","","19","","20","","24.1","","101.57","","","","-10","","NA"
"-94.71","56.36","GILLAM A","5061022","2018-04-15 09:00","2018","04","15","09:00","-1.6","","-14.4","","37","","","","19","","23","","24.1","","101.54","","","","-8","","Mostly Cloudy"
"-94.71","56.36","GILLAM A","5061022","2018-04-15 10:00","2018","04","15","10:00","0.2","","-13.4","","36","","","","20","","22","","24.1","","101.52","","","","","","NA"
"-94.71","56.36","GILLAM A","5061022","2018-04-15 11:00","2018","04","15","11:00","1.1","","-13.6","","33","","","","18","","21","","24.1","","101.51","","","","","","NA"
"-94.71","56.36","GILLAM A","5061022","2018-04-15 12:00","2018","04","15","12:00","1.8","","-15.0","","28","","","","19","","26","","24.1","","101.48","","","","","","Mostly Cloudy"
"-94.71","56.36","GILLAM A","5061022","2018-04-15 13:00","2018","04","15","13:00","2.1","","-14.8","","28","","","","18","","26","","24.1","","101.42","","","","","","NA"
"-94.71","56.36","GILLAM A","5061022","2018-04-15 14:00","2018","04","15","14:00","3.2","","-15.2","","25","","","","19","","23","","24.1","","101.37","","","","","","NA"
"-94.71","56.36","GILLAM A","5061022","2018-04-15 15:00","2018","04","15","15:00","3.5","","-15.5","","24","","","","19","","27","","24.1","","101.29","","","","","","Mostly Cloudy"
"-94.71","56.36","GILLAM A","5061022","2018-04-15 16:00","2018","04","15","16:00","4.1","","-14.8","","24","","","","18","","21","","24.1","","101.23","","","","","","NA"
"-94.71","56.36","GILLAM A","5061022","2018-04-15 17:00","2018","04","15","17:00","3.5","","-14.0","","27","","","","19","","27","","24.1","","101.25","","","","","","NA"
"-94.71","56.36","GILLAM A","5061022","2018-04-15 18:00","2018","04","15","18:00","3.3","","-14.1","","27","","","","18","","21","","24.1","","101.24","","","","","","Mostly Cloudy"
"-94.71","56.36","GILLAM A","5061022","2018-04-15 19:00","2018","04","15","19:00","2.1","","-13.8","","30","","","","17","","14","","24.1","","101.19","","","","","","NA"
"-94.71","56.36","GILLAM A","5061022","2018-04-15 20:00","2018","04","15","20:00","0.3","","-13.8","","34","","","","16","","12","","24.1","","101.23","","","","","","NA"
"-94.71","56.36","GILLAM A","5061022","2018-04-15 21:00","2018","04","15","21:00","-1.1","","-14.0","","37","","","","16","","13","","24.1","","101.20","","","","-5","","Mostly Cloudy"
"-94.71","56.36","GILLAM A","5061022","2018-04-15 22:00","2018","04","15","22:00","-1.5","","-14.1","","38","","","","17","","14","","24.1","","101.19","","","","-6","","NA"
"-94.71","56.36","GILLAM A","5061022","2018-04-15 23:00","2018","04","15","23:00","-2.4","","-14.5","","39","","","","16","","10","","24.1","","101.20","","","","-6","","NA"
"-94.71","56.36","GILLAM A","5061022","2018-04-16 00:00","2018","04","16","00:00","-3.2","","-14.5","","42","","","","17","","10","","24.1","","101.20","","","","-7","","Mostly Cloudy"
"-94.71","56.36","GILLAM A","5061022","2018-04-16 01:00","2018","04","16","01:00","-3.4","","-14.8","","41","","","","17","","11","","24.1","","101.22","","","","-8","","NA"
"-94.71","56.36","GILLAM A","5061022","2018-04-16 02:00","2018","04","16","02:00","-4.3","","-15.0","","43","","","","17","","10","","24.1","","101.20","","","","-8","","NA"
"-94.71","56.36","GILLAM A","5061022","2018-04-16 03:00","2018","04","16","03:00","-5.4","","-15.3","","46","","","","16","","9","","24.1","","101.21","","","","-9","","Mostly Cloudy"
"-94.71","56.36","GILLAM A","5061022","2018-04-16 04:00","2018","04","16","04:00","-6.1","","-15.6","","48","","","","17","","10","","24.1","","101.20","","","","-11","","NA"
"-94.71","56.36","GILLAM A","5061022","2018-04-16 05:00","2018","04","16","05:00","-7.2","","-15.7","","51","","","","17","","12","","24.1","","101.21","","","","-13","","NA"
"-94.71","56.36","GILLAM A","5061022","2018-04-16 06:00","2018","04","16","06:00","-6.7","","-15.7","","49","","","","17","","13","","24.1","","101.25","","","","-12","","Clear"
"-94.71","56.36","GILLAM A","5061022","2018-04-16 07:00","2018","04","16","07:00","-4.3","","-14.9","","44","","","","17","","10","","24.1","","101.25","","","","-8","","NA"
"-94.71","56.36","GILLAM A","5061022","2018-04-16 08:00","2018","04","16","08:00","-2.3","","-14.4","","39","","","","20","","10","","24.1","","101.18","","","","-6","","NA"
"-94.71","56.36","GILLAM A","5061022","2018-04-16 09:00","2018","04","16","09:00","0.5","","-13.6","","34","","","","16","","8","","24.1","","101.14","","","","","","Clear"
"-94.71","56.36","GILLAM A","5061022","2018-04-16 10:00","2018","04","16","10:00","3.0","","-12.8","","30","","","","18","","9","","24.1","","101.09","","","","","","NA"
"-94.71","56.36","GILLAM A","5061022","2018-04-16 11:00","2018","04","16","11:00","4.5","","-13.2","","26","","","","16","","16","","24.1","","101.04","","","","","","NA"
"-94.71","56.36","GILLAM A","5061022","2018-04-16 12:00","2018","04","16","12:00","4.9","","-13.5","","25","","","","17","","11","","24.1","","100.98","","","","","","Clear"
"-94.71","56.36","GILLAM A","5061022","2018-04-16 13:00","2018","04","16","13:00","5.8","","-13.7","","23","","","","15","","9","","24.1","","100.91","","","","","","NA"
"-94.71","56.36","GILLAM A","5061022","2018-04-16 14:00","2018","04","16","14:00","5.7","","-13.5","","24","","","","18","","18","","24.1","","100.89","","","","","","NA"
"-94.71","56.36","GILLAM A","5061022","2018-04-16 15:00","2018","04","16","15:00","6.1","","-11.8","","26","","","","20","","15","","24.1","","100.84","","","","","","Mainly Clear"
"-94.71","56.36","GILLAM A","5061022","2018-04-16 16:00","2018","04","16","16:00","6.5","","-13.2","","23","","","","18","","14","","24.1","","100.80","","","","","","NA"
"-94.71","56.36","GILLAM A","5061022","2018-04-16 17:00","2018","04","16","17:00","6.5","","-11.8","","26","","","","19","","10","","24.1","","100.76","","","","","","NA"
"-94.71","56.36","GILLAM A","5061022","2018-04-16 18:00","2018","04","16","18:00","6.3","","-13.2","","23","","","","18","","7","","24.1","","100.76","","","","","","Clear"
"-94.71","56.36","GILLAM A","5061022","2018-04-16 19:00","2018","04","16","19:00","4.9","","-11.5","","30","","","","13","","6","","24.1","","100.75","","","","","","NA"
"-94.71","56.36","GILLAM A","5061022","2018-04-16 20:00","2018","04","16","20:00","1.9","","-11.7","","36","","","","14","","8","","24.1","","100.75","","","","","","NA"
"-94.71","56.36","GILLAM A","5061022","2018-04-16 21:00","2018","04","16","21:00","1.0","","-13.3","","34","","","","15","","9","","24.1","","100.75","","","","","","Clear"
"-94.71","56.36","GILLAM A","5061022","2018-04-16 22:00","2018","04","16","22:00","-0.4","","-12.8","","39","","","","15","","10","","24.1","","100.74","","","","-4","","NA"
"-94.71","56.36","GILLAM A","5061022","2018-04-16 23:00","2018","04","16","23:00","-1.2","","-12.6","","42","","","","17","","13","","24.1","","100.74","","","","-5","","NA"
"-94.71","56.36","GILLAM A","5061022","2018-04-17 00:00","2018","04","17","00:00","-2.1","","-12.4","","45","","","","16","","13","","24.1","","100.73","","","","-7","","Clear"
"-94.71","56.36","GILLAM A","5061022","2018-04-17 01:00","2018","04","17","01:00","-3.2","","-12.7","","48","","","","15","","9","","24.1","","100.75","","","","-7","","NA"
"-94.71","56.36","GILLAM A","5061022","2018-04-17 02:00","2018","04","17","02:00","-4.8","","-11.6","","59","","","","14","","7","","24.1","","100.80","","","","-8","","NA"
"-94.71","56.36","GILLAM A","5061022","2018-04-17 03:00","2018","04","17","03:00","-6.7","","-11.9","","67","","","","15","","6","","24.1","","100.81","","","","-10","","Clear"
"-94.71","56.36","GILLAM A","5061022","2018-04-17 04:00","2018","04","17","04:00","-6.6","","-12.6","","63","","","","12","","7","","24.1","","100.84","","","","-10","","NA"
"-94.71","56.36","GILLAM A","5061022","2018-04-17 05:00","2018","04","17","05:00","-6.4","","-13.2","","59","","","","14","","10","","24.1","","100.81","","","","-11","","NA"
"-94.71","56.36","GILLAM A","5061022","2018-04-17 06:00","2018","04","17","06:00","-5.9","","-13.3","","56","","","","16","","8","","24.1","","100.81","","","","-10","","Mainly Clear"
"-94.71","56.36","GILLAM A","5061022","2018-04-17 07:00","2018","04","17","07:00","-3.7","","-13.1","","48","","","","17","","6","","24.1","","100.81","","","","-6","","NA"
"-94.71","56.36","GILLAM A","5061022","2018-04-17 08:00","2018","04","17","08:00","-3.9","","-10.9","","58","","","","36","","2","","24.1","","100.85","","","","-5","","NA"
"-94.71","56.36","GILLAM A","5061022","2018-04-17 09:00","2018","04","17","09:00","-1.7","","-11.0","","49","","","","3","","8","","24.1","","100.84","","","","-5","","Clear"
"-94.71","56.36","GILLAM A","5061022","2018-04-17 10:00","2018","04","17","10:00","0.6","","-9.5","","47","","","","2","","9","","24.1","","100.83","","","","","","NA"
"-94.71","56.36","GILLAM A","5061022","2018-04-17 11:00","2018","04","17","11:00","3.0","","-9.5","","40","","","","35","","3","","24.1","","100.83","","","","","","NA"
"-94.71","56.36","GILLAM A","5061022","2018-04-17 12:00","2018","04","17","12:00","4.4","","-8.0","","40","","","","36","","5","","24.1","","100.83","","","","","","Clear"
"-94.71","56.36","GILLAM A","5061022","2018-04-17 13:00","2018","04","17","13:00","6.8","","-14.0","","21","","","","14","","13","","24.1","","100.77","","","","","","NA"
"-94.71","56.36","GILLAM A","5061022","2018-04-17 14:00","2018","04","17","14:00","6.7","","-13.1","","23","","","","17","","7","","24.1","","100.75","","","","","","NA"
"-94.71","56.36","GILLAM A","5061022","2018-04-17 15:00","2018","04","17","15:00","7.4","","-16.7","","16","","","","12","","10","","24.1","","100.76","","","","","","Clear"
"-94.71","56.36","GILLAM A","5061022","2018-04-17 16:00","2018","04","17","16:00","7.8","","-15.2","","18","","","","14","","12","","24.1","","100.71","","","","","","NA"
"-94.71","56.36","GILLAM A","5061022","2018-04-17 17:00","2018","04","17","17:00","7.6","","-13.6","","21","","","","14","","9","","24.1","","100.72","","","","","","NA"
"-94.71","56.36","GILLAM A","5061022","2018-04-17 18:00","2018","04","17","18:00","7.1","","-16.1","","18","","","","13","","12","","24.1","","100.74","","","","","","Mainly Clear"
"-94.71","56.36","GILLAM A","5061022","2018-04-17 19:00","2018","04","17","19:00","5.0","","-17.8","","18","","","","11","","4","","24.1","","100.78","","","","","","NA"
"-94.71","56.36","GILLAM A","5061022","2018-04-17 20:00","2018","04","17","20:00","2.4","","-13.2","","31","","","","9","","6","","24.1","","100.83","","","","","","NA"
"-94.71","56.36","GILLAM A","5061022","2018-04-17 21:00","2018","04","17","21:00","0.8","","-12.5","","36","","","","10","","6","","24.1","","100.84","","","","","","Mainly Clear"
"-94.71","56.36","GILLAM A","5061022","2018-04-17 22:00","2018","04","17","22:00","-0.3","","-12.8","","39","","","","11","","7","","24.1","","100.82","","","","-3","","NA"
"-94.71","56.36","GILLAM A","5061022","2018-04-17 23:00","2018","04","17","23:00","-1.4","","-13.4","","40","","","","12","","7","","24.1","","100.79","","","","-4","","NA"
"-94.71","56.36","GILLAM A","5061022","2018-04-18 00:00","2018","04","18","00:00","-2.0","","-14.2","","39","","","","13","","9","","24.1","","100.79","","","","-5","","Mainly Clear"
"-94.71","56.36","GILLAM A","5061022","2018-04-18 01:00","2018","04","18","01:00","-2.4","","-14.8","","38","","","","16","","9","","24.1","","100.79","","","","-6","","NA"
"-94.71","56.36","GILLAM A","5061022","2018-04-18 02:00","2018","04","18","02:00","-2.9","","-15.1","","39","","","","15","","10","","24.1","","100.78","","","","-7","","NA"
"-94.71","56.36","GILLAM A","5061022","2018-04-18 03:00","2018","04","18","03:00","-3.2","","-14.5","","42","","","","17","","13","","24.1","","100.78","","","","-8","","Clear"
"-94.71","56.36","GILLAM A","5061022","2018-04-18 04:00","2018","04","18","04:00","-3.4","","-14.1","","44","","","","17","","11","","24.1","","100.79","","","","-8","","NA"
"-94.71","56.36","GILLAM A","5061022","2018-04-18 05:00","2018","04","18","05:00","-3.8","","-13.9","","46","","","","17","","14","","24.1","","100.78","","","","-9","","NA"
"-94.71","56.36","GILLAM A","5061022","2018-04-18 06:00","2018","04","18","06:00","-3.3","","-14.0","","43","","","","15","","7","","24.1","","100.78","","","","-6","","Mainly Clear"
"-94.71","56.36","GILLAM A","5061022","2018-04-18 07:00","2018","04","18","07:00","-1.3","","-14.5","","36","","","","19","","15","","24.1","","100.81","","","","-6","","NA"
"-94.71","56.36","GILLAM A","5061022","2018-04-18 08:00","2018","04","18","08:00","0.3","","-15.1","","31","","","","19","","25","","24.1","","100.72","","","","","","NA"
"-94.71","56.36","GILLAM A","5061022","2018-04-18 09:00","2018","04","18","09:00","2.2","","-15.5","","26","","","","19","","23","","24.1","","100.76","","","","","","Mainly Clear"
"-94.71","56.36","GILLAM A","5061022","2018-04-18 10:00","2018","04","18","10:00","3.5","","-14.6","","25","","","","20","","17","","24.1","","100.75","","","","","","NA"
"-94.71","56.36","GILLAM A","5061022","2018-04-18 11:00","2018","04","18","11:00","5.0","","-14.6","","23","","","","18","","14","","24.1","","100.75","","","","","","NA"
"-94.71","56.36","GILLAM A","5061022","2018-04-18 12:00","2018","04","18","12:00","6.3","","-15.1","","20","","","","16","","20","","24.1","","100.67","","","","","","Mostly Cloudy"
"-94.71","56.36","GILLAM A","5061022","2018-04-18 13:00","2018","04","18","13:00"
"-94.71","56.36","GILLAM A","5061022","2018-04-18 14:00","2018","04","18","14:00","8.4","","-14.5","","18","","","","18","","21","","24.1","","100.57","","","","","","NA"
"-94.71","56.36","GILLAM A","5061022","2018-04-18 15:00","2018","04","18","15:00","9.0","","-15.7","","16","","","","17","","18","","24.1","","100.52","","","","","","Mostly Cloudy"
"-94.71","56.36","GILLAM A","5061022","2018-04-18 16:00","2018","04","18","16:00","9.4","","-13.8","","18","","","","20","","21","","24.1","","100.52","","","","","","NA"
"-94.71","56.36","GILLAM A","5061022","2018-04-18 17:00","2018","04","18","17:00","9.3","","-15.1","","16","","","","18","","25","","24.1","","100.47","","","","","","NA"
"-94.71","56.36","GILLAM A","5061022","2018-04-18 18:00","2018","04","18","18:00","8.9","","-12.6","","20","","","","16","","15","","24.1","","100.43","","","","","","Mostly Cloudy"
"-94.71","56.36","GILLAM A","5061022","2018-04-18 19:00","2018","04","18","19:00","6.5","","-11.3","","27","","","","16","","13","","24.1","","100.39","","","","","","NA"
"-94.71","56.36","GILLAM A","5061022","2018-04-18 20:00","2018","04","18","20:00","4.9","","-11.0","","31","","","","17","","15","","24.1","","100.39","","","","","","NA"
"-94.71","56.36","GILLAM A","5061022","2018-04-18 21:00","2018","04","18","21:00","4.3","","-11.7","","30","","","","18","","14","","24.1","","100.41","","","","","","Mainly Clear"
"-94.71","56.36","GILLAM A","5061022","2018-04-18 22:00","2018","04","18","22:00","4.6","","-11.3","","31","","","","19","","17","","24.1","","100.39","","","","","","NA"
"-94.71","56.36","GILLAM A","5061022","2018-04-18 23:00","2018","04","18","23:00","3.4","","-10.6","","35","","","","19","","14","","24.1","","100.39","","","","","","NA"
"-94.71","56.36","GILLAM A","5061022","2018-04-19 00:00","2018","04","19","00:00","2.5","","-9.9","","40","","","","21","","12","","24.1","","100.40","","","","","","Mostly Cloudy"
"-94.71","56.36","GILLAM A","5061022","2018-04-19 01:00","2018","04","19","01:00","2.3","","-9.0","","43","","","","23","","12","","24.1","","100.43","","","","","","NA"
"-94.71","56.36","GILLAM A","5061022","2018-04-19 02:00","2018","04","19","02:00","2.4","","-7.9","","47","","","","24","","8","","24.1","","100.44","","","","","","NA"
"-94.71","56.36","GILLAM A","5061022","2018-04-19 03:00","2018","04","19","03:00","2.1","","-7.0","","51","","","","26","","10","","24.1","","100.51","","","","","","Mostly Cloudy"
"-94.71","56.36","GILLAM A","5061022","2018-04-19 04:00","2018","04","19","04:00","1.1","","-5.7","","61","","","","27","","9","","24.1","","100.58","","","","","","NA"
"-94.71","56.36","GILLAM A","5061022","2018-04-19 05:00","2018","04","19","05:00","0.0","","-5.2","","68","","","","25","","8","","24.1","","100.65","","","","-3","","NA"
"-94.71","56.36","GILLAM A","5061022","2018-04-19 06:00","2018","04","19","06:00","0.0","","-4.7","","71","","","","25","","9","","24.1","","100.74","","","","-3","","Mainly Clear"
"-94.71","56.36","GILLAM A","5061022","2018-04-19 07:00","2018","04","19","07:00","1.0","","-3.8","","71","","","","29","","10","","24.1","","100.80","","","","","","NA"
"-94.71","56.36","GILLAM A","5061022","2018-04-19 08:00","2018","04","19","08:00","1.8","","-3.3","","69","","","","28","","17","","24.1","","100.84","","","","","","NA"
"-94.71","56.36","GILLAM A","5061022","2018-04-19 09:00","2018","04","19","09:00","3.5","","-3.0","","63","","","","28","","15","","24.1","","100.88","","","","","","Clear"
"-94.71","56.36","GILLAM A","5061022","2018-04-19 10:00","2018","04","19","10:00","5.5","","-3.7","","52","","","","28","","13","","24.1","","100.93","","","","","","NA"
"-94.71","56.36","GILLAM A","5061022","2018-04-19 11:00","2018","04","19","11:00","6.4","","-4.3","","46","","","","28","","11","","24.1","","100.97","","","","","","NA"
"-94.71","56.36","GILLAM A","5061022","2018-04-19 12:00","2018","04","19","12:00","7.0","","-4.8","","43","","","","29","","11","","24.1","","100.99","","","","","","Clear"
"-94.71","56.36","GILLAM A","5061022","2018-04-19 13:00","2018","04","19","13:00","7.3","","-4.9","","41","","","","30","","11","","24.1","","100.99","","","","","","NA"
"-94.71","56.36","GILLAM A","5061022","2018-04-19 14:00","2018","04","19","14:00","7.6","","-5.0","","41","","","","30","","12","","24.1","","101.00","","","","","","NA"
"-94.71","56.36","GILLAM A","5061022","2018-04-19 15:00","2018","04","19","15:00","7.1","","-5.1","","41","","","","31","","11","","24.1","","101.03","","","","","","Clear"
"-94.71","56.36","GILLAM A","5061022","2018-04-19 16:00","2018","04","19","16:00","7.8","","-4.2","","42","","","","32","","8","","24.1","","101.01","","","","","","NA"
"-94.71","56.36","GILLAM A","5061022","2018-04-19 17:00","2018","04","19","17:00","8.7","","-4.9","","38","","","","2","","5","","24.1","","100.99","","","","","","NA"
"-94.71","56.36","GILLAM A","5061022","2018-04-19 18:00","2018","04","19","18:00","9.0","","-6.1","","34","","","","36","","1","","24.1","","100.98","","","","","","Clear"
"-94.71","56.36","GILLAM A","5061022","2018-04-19 19:00","2018","04","19","19:00","8.5","","-6.8","","33","","","","19","","9","","24.1","","100.98","","","","","","NA"
"-94.71","56.36","GILLAM A","5061022","2018-04-19 20:00","2018","04","19","20:00","6.1","","-7.7","","36","","","","17","","9","","24.1","","100.98","","","","","","NA"
"-94.71","56.36","GILLAM A","5061022","2018-04-19 21:00","2018","04","19","21:00","4.4","","-8.0","","40","","","","17","","10","","24.1","","100.97","","","","","","Clear"
"-94.71","56.36","GILLAM A","5061022","2018-04-19 22:00","2018","04","19","22:00","3.5","","-7.6","","44","","","","17","","10","","24.1","","100.96","","","","","","NA"
"-94.71","56.36","GILLAM A","5061022","2018-04-19 23:00","2018","04","19","23:00","3.0","","-7.5","","46","","","","18","","12","","24.1","","100.97","","","","","","NA"
"-94.71","56.36","GILLAM A","5061022","2018-04-20 00:00","2018","04","20","00:00","2.7","","-7.4","","47","","","","19","","13","","24.1","","101.00","","","","","","Clear"
"-94.71","56.36","GILLAM A","5061022","2018-04-20 01:00","2018","04","20","01:00","2.4","","-8.1","","46","","","","20","","14","","24.1","","101.02","","","","","","NA"
"-94.71","56.36","GILLAM A","5061022","2018-04-20 02:00","2018","04","20","02:00","2.1","","-8.6","","45","","","","20","","16","","24.1","","101.02","","","","","","NA"
"-94.71","56.36","GILLAM A","5061022","2018-04-20 03:00","2018","04","20","03:00","1.7","","-8.5","","47","","","","19","","16","","24.1","","101.03","","","","","","Clear"
"-94.71","56.36","GILLAM A","5061022","2018-04-20 04:00","2018","04","20","04:00","0.9","","-8.5","","50","","","","19","","16","","24.1","","101.04","","","","","","NA"
"-94.71","56.36","GILLAM A","5061022","2018-04-20 05:00","2018","04","20","05:00","1.1","","-8.8","","48","","","","19","","19","","24.1","","101.02","","","","","","NA"
"-94.71","56.36","GILLAM A","5061022","2018-04-20 06:00","2018","04","20","06:00","1.2","","-8.5","","49","","","","19","","16","","24.1","","101.02","","","","","","Mostly Cloudy"
"-94.71","56.36","GILLAM A","5061022","2018-04-20 07:00","2018","04","20","07:00","3.7","","-7.7","","43","","","","19","","21","","24.1","","101.01","","","","","","NA"
"-94.71","56.36","GILLAM A","5061022","2018-04-20 08:00","2018","04","20","08:00","6.7","","-7.1","","37","","","","20","","20","","24.1","","100.98","","","","","","NA"
"-94.71","56.36","GILLAM A","5061022","2018-04-20 09:00","2018","04","20","09:00","8.2","","-6.7","","34","","","","19","","23","","24.1","","100.94","","","","","","Clear"
"-94.71","56.36","GILLAM A","5061022","2018-04-20 10:00","2018","04","20","10:00","9.8","","-5.8","","33","","","","19","","21","","24.1","","100.92","","","","","","NA"
"-94.71","56.36","GILLAM A","5061022","2018-04-20 11:00","2018","04","20","11:00","11.0","","-5.3","","32","","","","19","","18","","24.1","","100.87","","","","","","NA"
"-94.71","56.36","GILLAM A","5061022","2018-04-20 12:00","2018","04","20","12:00","11.4","","-5.8","","30","","","","19","","24","","24.1","","100.83","","","","","","Clear"
"-94.71","56.36","GILLAM A","5061022","2018-04-20 13:00","2018","04","20","13:00","12.2","","-7.0","","25","","","","21","","29","","24.1","","100.78","","","","","","NA"
"-94.71","56.36","GILLAM A","5061022","2018-04-20 14:00","2018","04","20","14:00","12.6","","-5.7","","27","","","","21","","25","","24.1","","100.74","","","","","","NA"
"-94.71","56.36","GILLAM A","5061022","2018-04-20 15:00","2018","04","20","15:00","13.0","","-5.2","","28","","","","21","","23","","24.1","","100.70","","","","","","Clear"
"-94.71","56.36","GILLAM A","5061022","2018-04-20 16:00","2018","04","20","16:00","12.9","","-5.9","","26","","","","20","","24","","24.1","","100.66","","","","","","NA"
"-94.71","56.36","GILLAM A","5061022","2018-04-20 17:00","2018","04","20","17:00","12.9","","-5.5","","27","","","","21","","21","","24.1","","100.61","","","","","","NA"
"-94.71","56.36","GILLAM A","5061022","2018-04-20 18:00","2018","04","20","18:00","12.3","","-5.3","","29","","","","20","","21","","24.1","","100.59","","","","","","Clear"
"-94.71","56.36","GILLAM A","5061022","2018-04-20 19:00","2018","04","20","19:00","10.7","","-4.7","","34","","","","18","","9","","24.1","","100.57","","","","","","NA"
"-94.71","56.36","GILLAM A","5061022","2018-04-20 20:00","2018","04","20","20:00","8.0","","-5.7","","37","","","","17","","10","","24.1","","100.57","","","","","","NA"
"-94.71","56.36","GILLAM A","5061022","2018-04-20 21:00","2018","04","20","21:00","7.1","","-6.5","","38","","","","17","","16","","24.1","","100.53","","","","","","Mainly Clear"
"-94.71","56.36","GILLAM A","5061022","2018-04-20 22:00","2018","04","20","22:00","6.0","","-6.7","","40","","","","18","","13","","24.1","","100.53","","","","","","NA"
"-94.71","56.36","GILLAM A","5061022","2018-04-20 23:00","2018","04","20","23:00","5.2","","-6.8","","42","","","","19","","13","","24.1","","100.51","","","","","","NA"
"-94.71","56.36","GILLAM A","5061022","2018-04-21 00:00","2018","04","21","00:00","4.4","","-7.1","","43","","","","19","","14","","8.1","","100.49","","","","","","Fog"
"-94.71","56.36","GILLAM A","5061022","2018-04-21 01:00","2018","04","21","01:00","3.5","","-7.2","","46","","","","19","","11","","8.1","","100.46","","","","","","Fog"
"-94.71","56.36","GILLAM A","5061022","2018-04-21 02:00","2018","04","21","02:00","2.2","","-6.7","","52","","","","20","","10","","9.7","","100.44","","","","","","Fog"
"-94.71","56.36","GILLAM A","5061022","2018-04-21 03:00","2018","04","21","03:00","2.5","","-6.8","","50","","","","19","","13","","11.3","","100.40","","","","","","Fog"
"-94.71","56.36","GILLAM A","5061022","2018-04-21 04:00","2018","04","21","04:00","1.4","","-7.0","","54","","","","19","","12","","24.1","","100.38","","","","","","NA"
"-94.71","56.36","GILLAM A","5061022","2018-04-21 05:00","2018","04","21","05:00","1.0","","-7.3","","54","","","","18","","12","","24.1","","100.31","","","","","","NA"
"-94.71","56.36","GILLAM A","5061022","2018-04-21 06:00","2018","04","21","06:00","2.1","","-7.0","","51","","","","19","","11","","24.1","","100.31","","","","","","Mainly Clear"
"-94.71","56.36","GILLAM A","5061022","2018-04-21 07:00","2018","04","21","07:00","5.0","","-5.9","","45","","","","20","","17","","24.1","","100.29","","","","","","NA"
"-94.71","56.36","GILLAM A","5061022","2018-04-21 08:00","2018","04","21","08:00","7.8","","-3.4","","45","","","","21","","14","","24.1","","100.24","","","","","","NA"
"-94.71","56.36","GILLAM A","5061022","2018-04-21 09:00","2018","04","21","09:00","9.6","","-1.4","","46","","","","20","","16","","24.1","","100.19","","","","","","Clear"
"-94.71","56.36","GILLAM A","5061022","2018-04-21 10:00","2018","04","21","10:00","11.4","","-1.5","","41","","","","21","","14","","24.1","","100.15","","","","","","NA"
"-94.71","56.36","GILLAM A","5061022","2018-04-21 11:00","2018","04","21","11:00","13.0","","-0.9","","38","","","","21","","22","","24.1","","100.12","","","","","","NA"
"-94.71","56.36","GILLAM A","5061022","2018-04-21 12:00","2018","04","21","12:00","14.2","","0.0","","38","","","","20","","26","","24.1","","100.10","","","","","","Mainly Clear"
"-94.71","56.36","GILLAM A","5061022","2018-04-21 13:00","2018","04","21","13:00","14.9","","-1.2","","33","","","","19","","27","","24.1","","100.07","","","","","","NA"
"-94.71","56.36","GILLAM A","5061022","2018-04-21 14:00","2018","04","21","14:00","15.5","","-0.4","","34","","","","22","","25","","24.1","","100.05","","","","","","NA"
"-94.71","56.36","GILLAM A","5061022","2018-04-21 15:00","2018","04","21","15:00","15.7","","0.0","","34","","","","22","","21","","24.1","","100.03","","","","","","Mainly Clear"
"-94.71","56.36","GILLAM A","5061022","2018-04-21 16:00","2018","04","21","16:00","16.1","","0.0","","33","","","","22","","22","","24.1","","100.01","","","","","","NA"
"-94.71","56.36","GILLAM A","5061022","2018-04-21 17:00","2018","04","21","17:00","16.3","","-0.6","","31","","","","22","","18","","24.1","","100.02","","","","","","NA"
"-94.71","56.36","GILLAM A","5061022","2018-04-21 18:00","2018","04","21","18:00","15.4","","0.2","","35","","","","25","","13","","24.1","","100.03","","","","","","Mainly Clear"
"-94.71","56.36","GILLAM A","5061022","2018-04-21 19:00","2018","04","21","19:00","10.0","","-1.5","","45","","","","17","","4","","24.1","","100.04","","","","","","NA"
"-94.71","56.36","GILLAM A","5061022","2018-04-21 20:00","2018","04","21","20:00","10.6","","-1.4","","43","","","","19","","8","","24.1","","100.08","","","","","","NA"
"-94.71","56.36","GILLAM A","5061022","2018-04-21 21:00","2018","04","21","21:00","8.9","","-1.7","","47","","","","17","","8","","24.1","","100.10","","","","","","Clear"
"-94.71","56.36","GILLAM A","5061022","2018-04-21 22:00","2018","04","21","22:00","8.1","","-1.9","","49","","","","17","","8","","24.1","","100.10","","","","","","NA"
"-94.71","56.36","GILLAM A","5061022","2018-04-21 23:00","2018","04","21","23:00","7.2","","-2.1","","51","","","","14","","8","","24.1","","100.06","","","","","","NA"
"-94.71","56.36","GILLAM A","5061022","2018-04-22 00:00","2018","04","22","00:00","6.9","","-1.7","","54","","","","8","","9","","24.1","","100.04","","","","","","Mostly Cloudy"
"-94.71","56.36","GILLAM A","5061022","2018-04-22 01:00","2018","04","22","01:00","6.1","","-0.8","","61","","","","8","","15","","24.1","","100.03","","","","","","NA"
"-94.71","56.36","GILLAM A","5061022","2018-04-22 02:00","2018","04","22","02:00","4.8","","-1.1","","65","","","","9","","16","","24.1","","99.99","","","","","","NA"
"-94.71","56.36","GILLAM A","5061022","2018-04-22 03:00","2018","04","22","03:00","3.2","","-1.1","","73","","","","9","","19","","24.1","","99.91","","","","","","Cloudy"
"-94.71","56.36","GILLAM A","5061022","2018-04-22 04:00","2018","04","22","04:00","1.9","","-1.4","","79","","","","8","","14","","24.1","","99.75","","","","","","NA"
"-94.71","56.36","GILLAM A","5061022","2018-04-22 05:00","2018","04","22","05:00","1.0","","-0.6","","89","","","","9","","11","","17.7","","99.74","","","","","","Rain"
"-94.71","56.36","GILLAM A","5061022","2018-04-22 06:00","2018","04","22","06:00","0.6","","-0.3","","94","","","","8","","17","","9.7","","99.58","","","","","","Rain"
"-94.71","56.36","GILLAM A","5061022","2018-04-22 07:00","2018","04","22","07:00","0.9","","0.1","","94","","","","9","","16","","24.1","","99.43","","","","","","NA"
"-94.71","56.36","GILLAM A","5061022","2018-04-22 08:00","2018","04","22","08:00","1.6","","0.9","","96","","","","9","","19","","24.1","","99.23","","","","","","NA"
"-94.71","56.36","GILLAM A","5061022","2018-04-22 09:00","2018","04","22","09:00","3.0","","2.1","","94","","","","9","","10","","24.1","","99.16","","","","","","Cloudy"
"-94.71","56.36","GILLAM A","5061022","2018-04-22 10:00","2018","04","22","10:00","3.3","","2.6","","96","","","","8","","17","","4.0","","98.93","","","","","","Moderate Rain"
"-94.71","56.36","GILLAM A","5061022","2018-04-22 11:00","2018","04","22","11:00","4.9","","4.2","","95","","","","12","","9","","24.1","","98.91","","","","","","Rain"
"-94.71","56.36","GILLAM A","5061022","2018-04-22 12:00","2018","04","22","12:00","8.8","","5.7","","81","","","","15","","25","","24.1","","98.78","","","","","","Mostly Cloudy"
"-94.71","56.36","GILLAM A","5061022","2018-04-22 13:00","2018","04","22","13:00","9.2","","4.8","","74","","","","17","","17","","24.1","","98.71","","","","","","NA"
"-94.71","56.36","GILLAM A","5061022","2018-04-22 14:00","2018","04","22","14:00","9.1","","3.8","","69","","","","18","","20","","24.1","","98.63","","","","","","NA"
"-94.71","56.36","GILLAM A","5061022","2018-04-22 15:00","2018","04","22","15:00","8.5","","3.2","","69","","","","18","","18","","24.1","","98.57","","","","","","Cloudy"
"-94.71","56.36","GILLAM A","5061022","2018-04-22 16:00","2018","04","22","16:00","7.8","","3.0","","71","","","","20","","33","","24.1","","98.52","","","","","","NA"
"-94.71","56.36","GILLAM A","5061022","2018-04-22 17:00","2018","04","22","17:00","6.5","","3.6","","82","","","","19","","23","","24.1","","98.50","","","","","","Rain"
"-94.71","56.36","GILLAM A","5061022","2018-04-22 18:00","2018","04","22","18:00","5.8","","3.7","","87","","","","18","","22","","24.1","","98.44","","","","","","Rain"
"-94.71","56.36","GILLAM A","5061022","2018-04-22 19:00","2018","04","22","19:00","5.5","","3.7","","88","","","","19","","20","","22.5","","98.38","","","","","","Rain"
"-94.71","56.36","GILLAM A","5061022","2018-04-22 20:00","2018","04","22","20:00","4.9","","4.0","","93","","","","20","","20","","24.1","","98.36","","","","","","Rain"
"-94.71","56.36","GILLAM A","5061022","2018-04-22 21:00","2018","04","22","21:00","4.6","","3.6","","94","","","","22","","18","","17.7","","98.35","","","","","","Rain"
"-94.71","56.36","GILLAM A","5061022","2018-04-22 22:00","2018","04","22","22:00","4.0","","2.9","","93","","","","23","","21","","17.7","","98.32","","","","","","Rain"
"-94.71","56.36","GILLAM A","5061022","2018-04-22 23:00","2018","04","22","23:00","3.5","","2.7","","95","","","","24","","21","","22.5","","98.31","","","","","","Rain"
"-94.71","56.36","GILLAM A","5061022","2018-04-23 00:00","2018","04","23","00:00","2.6","","1.8","","95","","","","26","","22","","11.3","","98.35","","","","","","Rain"
"-94.71","56.36","GILLAM A","5061022","2018-04-23 01:00","2018","04","23","01:00","1.3","","0.7","","95","","","","28","","29","","11.3","","98.43","","","","","","Rain"
"-94.71","56.36","GILLAM A","5061022","2018-04-23 02:00","2018","04","23","02:00","0.5","","-0.2","","95","","","","31","","27","","16.1","","98.56","","","","","","Rain"
"-94.71","56.36","GILLAM A","5061022","2018-04-23 03:00","2018","04","23","03:00","-0.6","","-1.9","","91","","","","31","","34","","17.7","","98.70","","","","-8","","Freezing Rain"
"-94.71","56.36","GILLAM A","5061022","2018-04-23 04:00","2018","04","23","04:00","-1.9","","-3.2","","91","","","","31","","31","","17.7","","98.86","","","","-9","","Freezing Rain"
"-94.71","56.36","GILLAM A","5061022","2018-04-23 05:00","2018","04","23","05:00","-2.4","","-4.7","","84","","","","33","","37","","22.5","","99.02","","","","-10","","Snow"
"-94.71","56.36","GILLAM A","5061022","2018-04-23 06:00","2018","04","23","06:00","-2.9","","-5.5","","82","","","","33","","31","","24.1","","99.18","","","","-10","","Snow"
"-94.71","56.36","GILLAM A","5061022","2018-04-23 07:00","2018","04","23","07:00","-3.4","","-6.0","","82","","","","34","","31","","24.1","","99.34","","","","-11","","Snow"
"-94.71","56.36","GILLAM A","5061022","2018-04-23 08:00","2018","04","23","08:00","-4.0","","-6.6","","82","","","","33","","33","","24.1","","99.47","","","","-12","","Snow"
"-94.71","56.36","GILLAM A","5061022","2018-04-23 09:00","2018","04","23","09:00","-4.2","","-6.9","","81","","","","34","","28","","4.8","","99.58","","","","-12","","Snow,Fog"
"-94.71","56.36","GILLAM A","5061022","2018-04-23 10:00","2018","04","23","10:00","-4.5","","-6.7","","85","","","","34","","27","","3.2","","99.71","","","","-12","","Snow"
"-94.71","56.36","GILLAM A","5061022","2018-04-23 11:00","2018","04","23","11:00","-4.2","","-7.0","","81","","","","34","","26","","3.2","","99.84","","","","-11","","Snow"
"-94.71","56.36","GILLAM A","5061022","2018-04-23 12:00","2018","04","23","12:00","-4.0","","-7.3","","78","","","","36","","29","","6.4","","99.92","","","","-12","","Snow"
"-94.71","56.36","GILLAM A","5061022","2018-04-23 13:00","2018","04","23","13:00","-3.8","","-6.8","","80","","","","34","","23","","6.4","","100.03","","","","-11","","Snow"
"-94.71","56.36","GILLAM A","5061022","2018-04-23 14:00","2018","04","23","14:00","-4.2","","-6.5","","84","","","","34","","26","","3.2","","100.14","","","","-11","","Snow"
"-94.71","56.36","GILLAM A","5061022","2018-04-23 15:00","2018","04","23","15:00","-4.8","","-7.6","","81","","","","34","","33","","2.4","","100.23","","","","-13","","Snow"
"-94.71","56.36","GILLAM A","5061022","2018-04-23 16:00","2018","04","23","16:00","-4.7","","-7.5","","80","","","","35","","24","","6.4","","100.33","","","","-12","","Snow"
"-94.71","56.36","GILLAM A","5061022","2018-04-23 17:00","2018","04","23","17:00","-5.2","","-7.8","","82","","","","36","","26","","0.8","","100.41","","","","-13","","Moderate Snow"
"-94.71","56.36","GILLAM A","5061022","2018-04-23 18:00","2018","04","23","18:00","-5.5","","-7.3","","88","","","","36","","21","","0.8","","100.49","","","","-12","","Moderate Snow"
"-94.71","56.36","GILLAM A","5061022","2018-04-23 19:00","2018","04","23","19:00","-6.0","","-7.6","","88","","","","35","","23","","1.0","","100.57","","","","-13","","Snow"
"-94.71","56.36","GILLAM A","5061022","2018-04-23 20:00","2018","04","23","20:00","-6.3","","-8.3","","86","","","","1","","26","","1.0","","100.64","","","","-14","","Snow"
"-94.71","56.36","GILLAM A","5061022","2018-04-23 21:00","2018","04","23","21:00","-6.8","","-9.2","","84","","","","36","","27","","0.8","","100.69","","","","-15","","Moderate Snow"
"-94.71","56.36","GILLAM A","5061022","2018-04-23 22:00","2018","04","23","22:00","-7.2","","-9.2","","85","","","","35","","19","","1.0","","100.73","","","","-14","","Snow"
"-94.71","56.36","GILLAM A","5061022","2018-04-23 23:00","2018","04","23","23:00","-7.6","","-10.3","","81","","","","36","","23","","1.0","","100.79","","","","-15","","Snow"
"-94.71","56.36","GILLAM A","5061022","2018-04-24 00:00","2018","04","24","00:00","-7.9","","-11.0","","78","","","","34","","22","","20.9","","100.86","","","","-16","","Snow"
"-94.71","56.36","GILLAM A","5061022","2018-04-24 01:00","2018","04","24","01:00","-8.4","","-11.1","","81","","","","34","","17","","24.1","","100.91","","","","-15","","Snow"
"-94.71","56.36","GILLAM A","5061022","2018-04-24 02:00","2018","04","24","02:00","-8.9","","-11.5","","82","","","","33","","10","","24.1","","100.94","","","","-14","","Snow"
"-94.71","56.36","GILLAM A","5061022","2018-04-24 03:00","2018","04","24","03:00","-9.5","","-11.8","","83","","","","31","","12","","24.1","","100.95","","","","-15","","Cloudy"
"-94.71","56.36","GILLAM A","5061022","2018-04-24 04:00","2018","04","24","04:00","-10.6","","-13.0","","82","","","","31","","8","","24.1","","100.98","","","","-15","","NA"
"-94.71","56.36","GILLAM A","5061022","2018-04-24 05:00","2018","04","24","05:00","-10.8","","-13.8","","79","","","","29","","9","","24.1","","101.00","","","","-16","","NA"
"-94.71","56.36","GILLAM A","5061022","2018-04-24 06:00","2018","04","24","06:00","-10.6","","-13.2","","82","","","","29","","9","","24.1","","101.02","","","","-16","","Mainly Clear"
"-94.71","56.36","GILLAM A","5061022","2018-04-24 07:00","2018","04","24","07:00","-9.4","","-12.7","","77","","","","29","","12","","24.1","","101.06","","","","-15","","NA"
"-94.71","56.36","GILLAM A","5061022","2018-04-24 08:00","2018","04","24","08:00","-7.5","","-12.2","","69","","","","29","","11","","24.1","","101.05","","","","-13","","NA"
"-94.71","56.36","GILLAM A","5061022","2018-04-24 09:00","2018","04","24","09:00","-5.4","","-11.0","","65","","","","30","","12","","24.1","","101.00","","","","-10","","Clear"
"-94.71","56.36","GILLAM A","5061022","2018-04-24 10:00","2018","04","24","10:00","-3.4","","-12.8","","48","","","","26","","18","","24.1","","100.96","","","","-9","","NA"
"-94.71","56.36","GILLAM A","5061022","2018-04-24 11:00","2018","04","24","11:00","-2.2","","-10.5","","53","","","","30","","19","","24.1","","100.87","","","","-8","","NA"
"-94.71","56.36","GILLAM A","5061022","2018-04-24 12:00","2018","04","24","12:00","0.2","","-8.2","","53","","","","23","","17","","24.1","","100.79","","","","","","Clear"
"-94.71","56.36","GILLAM A","5061022","2018-04-24 13:00","2018","04","24","13:00","1.7","","-7.6","","50","","","","20","","17","","24.1","","100.67","","","","","","NA"
"-94.71","56.36","GILLAM A","5061022","2018-04-24 14:00","2018","04","24","14:00","2.8","","-5.3","","55","","","","22","","26","","24.1","","100.58","","","","","","NA"
"-94.71","56.36","GILLAM A","5061022","2018-04-24 15:00","2018","04","24","15:00","4.0","","-2.8","","61","","","","23","","20","","24.1","","100.45","","","","","","Mostly Cloudy"
"-94.71","56.36","GILLAM A","5061022","2018-04-24 16:00","2018","04","24","16:00","4.1","","-3.8","","56","","","","23","","16","","24.1","","100.32","","","","","","NA"
"-94.71","56.36","GILLAM A","5061022","2018-04-24 17:00","2018","04","24","17:00","4.2","","-3.8","","56","","","","19","","22","","24.1","","100.20","","","","","","NA"
"-94.71","56.36","GILLAM A","5061022","2018-04-24 18:00","2018","04","24","18:00","4.3","","-3.7","","56","","","","20","","20","","24.1","","100.02","","","","","","Mostly Cloudy"
"-94.71","56.36","GILLAM A","5061022","2018-04-24 19:00","2018","04","24","19:00","4.2","","-4.2","","54","","","","19","","16","","24.1","","99.88","","","","","","NA"
"-94.71","56.36","GILLAM A","5061022","2018-04-24 20:00","2018","04","24","20:00","4.3","","-4.0","","54","","","","17","","17","","24.1","","99.70","","","","","","NA"
"-94.71","56.36","GILLAM A","5061022","2018-04-24 21:00","2018","04","24","21:00","4.5","","-4.0","","54","","","","19","","26","","24.1","","99.57","","","","","","Cloudy"
"-94.71","56.36","GILLAM A","5061022","2018-04-24 22:00","2018","04","24","22:00","4.1","","-3.8","","57","","","","19","","19","","24.1","","99.37","","","","","","NA"
"-94.71","56.36","GILLAM A","5061022","2018-04-24 23:00","2018","04","24","23:00","4.3","","-3.7","","56","","","","20","","27","","24.1","","99.18","","","","","","NA"
"-94.71","56.36","GILLAM A","5061022","2018-04-25 00:00","2018","04","25","00:00","4.8","","-3.7","","54","","","","20","","25","","24.1","","99.02","","","","","","Cloudy"
"-94.71","56.36","GILLAM A","5061022","2018-04-25 01:00","2018","04","25","01:00","5.1","","-3.5","","54","","","","21","","23","","24.1","","98.90","","","","","","NA"
"-94.71","56.36","GILLAM A","5061022","2018-04-25 02:00","2018","04","25","02:00","4.6","","-3.1","","57","","","","21","","23","","24.1","","98.79","","","","","","NA"
"-94.71","56.36","GILLAM A","5061022","2018-04-25 03:00","2018","04","25","03:00","4.1","","-2.6","","61","","","","21","","19","","24.1","","98.70","","","","","","Mostly Cloudy"
"-94.71","56.36","GILLAM A","5061022","2018-04-25 04:00","2018","04","25","04:00","3.7","","-2.3","","65","","","","23","","18","","24.1","","98.63","","","","","","NA"
"-94.71","56.36","GILLAM A","5061022","2018-04-25 05:00","2018","04","25","05:00","4.3","","-1.8","","64","","","","23","","17","","24.1","","98.53","","","","","","NA"
"-94.71","56.36","GILLAM A","5061022","2018-04-25 06:00","2018","04","25","06:00","4.4","","-1.5","","65","","","","22","","16","","24.1","","98.46","","","","","","Mostly Cloudy"
"-94.71","56.36","GILLAM A","5061022","2018-04-25 07:00","2018","04","25","07:00","5.7","","-0.5","","64","","","","25","","21","","24.1","","98.44","","","","","","NA"
"-94.71","56.36","GILLAM A","5061022","2018-04-25 08:00","2018","04","25","08:00","6.9","","-0.4","","60","","","","27","","21","","24.1","","98.38","","","","","","NA"
"-94.71","56.36","GILLAM A","5061022","2018-04-25 09:00","2018","04","25","09:00","6.3","","-0.1","","64","","","","28","","21","","24.1","","98.38","","","","","","Mostly Cloudy"
"-94.71","56.36","GILLAM A","5061022","2018-04-25 10:00","2018","04","25","10:00","7.0","","0.6","","63","","","","28","","22","","24.1","","98.42","","","","","","NA"
"-94.71","56.36","GILLAM A","5061022","2018-04-25 11:00","2018","04","25","11:00","6.0","","0.4","","67","","","","28","","22","","24.1","","98.48","","","","","","NA"
"-94.71","56.36","GILLAM A","5061022","2018-04-25 12:00","2018","04","25","12:00","5.1","","0.3","","71","","","","29","","20","","24.1","","98.56","","","","","","Cloudy"
"-94.71","56.36","GILLAM A","5061022","2018-04-25 13:00","2018","04","25","13:00","5.5","","0.8","","72","","","","32","","26","","24.1","","98.67","","","","","","NA"
"-94.71","56.36","GILLAM A","5061022","2018-04-25 14:00","2018","04","25","14:00","2.0","","0.9","","92","","","","1","","29","","6.4","","98.86","","","","","","Rain"
"-94.71","56.36","GILLAM A","5061022","2018-04-25 15:00","2018","04","25","15:00","0.4","","-1.6","","87","","","","36","","42","","2.4","","99.08","","","","","","Snow"
"-94.71","56.36","GILLAM A","5061022","2018-04-25 16:00","2018","04","25","16:00","-1.4","","-3.4","","86","","","","1","","34","","3.2","","99.27","","","","-9","","Snow"
"-94.71","56.36","GILLAM A","5061022","2018-04-25 17:00","2018","04","25","17:00","-2.8","","-5.1","","84","","","","36","","35","","3.2","","99.47","","","","-11","","Snow"
"-94.71","56.36","GILLAM A","5061022","2018-04-25 18:00","2018","04","25","18:00","-3.6","","-6.3","","81","","","","1","","33","","3.2","","99.63","","","","-12","","Snow"
"-94.71","56.36","GILLAM A","5061022","2018-04-25 19:00","2018","04","25","19:00","-4.8","","-8.5","","76","","","","1","","32","","24.1","","99.77","","","","-13","","Snow"
"-94.71","56.36","GILLAM A","5061022","2018-04-25 20:00","2018","04","25","20:00","-6.1","","-9.6","","76","","","","36","","32","","24.1","","99.90","","","","-15","","Snow"
"-94.71","56.36","GILLAM A","5061022","2018-04-25 21:00","2018","04","25","21:00","-7.3","","-10.4","","79","","","","36","","23","","16.1","","99.97","","","","-15","","Snow"
"-94.71","56.36","GILLAM A","5061022","2018-04-25 22:00","2018","04","25","22:00","-8.3","","-11.7","","77","","","","1","","27","","19.3","","100.03","","","","-17","","Snow"
"-94.71","56.36","GILLAM A","5061022","2018-04-25 23:00","2018","04","25","23:00","-9.5","","-12.9","","76","","","","4","","21","","14.5","","100.04","","","","-17","","Snow"
"-94.71","56.36","GILLAM A","5061022","2018-04-26 00:00","2018","04","26","00:00","-10.5","","-13.6","","78","","","","2","","17","","24.1","","100.10","","","","-18","","Snow"
"-94.71","56.36","GILLAM A","5061022","2018-04-26 01:00","2018","04","26","01:00","-11.2","","-14.3","","78","","","","2","","16","","20.9","","100.12","","","","-18","","Snow"
"-94.71","56.36","GILLAM A","5061022","2018-04-26 02:00","2018","04","26","02:00","-11.6","","-14.7","","78","","","","2","","11","","22.5","","100.13","","","","-18","","Snow"
"-94.71","56.36","GILLAM A","5061022","2018-04-26 03:00","2018","04","26","03:00","-11.9","","-14.9","","79","","","","8","","7","","22.5","","100.09","","","","-16","","Snow"
"-94.71","56.36","GILLAM A","5061022","2018-04-26 04:00","2018","04","26","04:00","-11.8","","-14.7","","80","","","","36","","1","","17.7","","100.12","","","","-12","","Snow"
"-94.71","56.36","GILLAM A","5061022","2018-04-26 05:00","2018","04","26","05:00","-11.9","","-14.8","","79","","","","7","","5","","12.9","","100.09","","","","-15","","Snow"
"-94.71","56.36","GILLAM A","5061022","2018-04-26 06:00","2018","04","26","06:00","-11.7","","-14.6","","79","","","","18","","9","","16.1","","100.05","","","","-17","","Snow"
"-94.71","56.36","GILLAM A","5061022","2018-04-26 07:00","2018","04","26","07:00","-10.8","","-14.4","","75","","","","15","","6","","24.1","","100.04","","","","-14","","Snow"
"-94.71","56.36","GILLAM A","5061022","2018-04-26 08:00","2018","04","26","08:00","-9.5","","-13.8","","72","","","","36","","3","","24.1","","100.01","","","","-11","","Snow"
"-94.71","56.36","GILLAM A","5061022","2018-04-26 09:00","2018","04","26","09:00","-8.6","","-12.7","","72","","","","35","","8","","24.1","","99.99","","","","-13","","Mostly Cloudy"
"-94.71","56.36","GILLAM A","5061022","2018-04-26 10:00","2018","04","26","10:00","-7.5","","-11.7","","72","","","","1","","8","","24.1","","99.89","","","","-12","","NA"
"-94.71","56.36","GILLAM A","5061022","2018-04-26 11:00","2018","04","26","11:00","-5.6","","-10.3","","70","","","","35","","8","","24.1","","99.83","","","","-9","","NA"
"-94.71","56.36","GILLAM A","5061022","2018-04-26 12:00","2018","04","26","12:00","-4.0","","-11.0","","58","","","","36","","8","","24.1","","99.74","","","","-7","","Cloudy"
"-94.71","56.36","GILLAM A","5061022","2018-04-26 13:00","2018","04","26","13:00","-1.9","","-10.1","","54","","","","33","","9","","24.1","","99.68","","","","-5","","NA"
"-94.71","56.36","GILLAM A","5061022","2018-04-26 14:00","2018","04","26","14:00","-1.1","","-10.6","","49","","","","1","","12","","24.1","","99.65","","","","-5","","NA"
"-94.71","56.36","GILLAM A","5061022","2018-04-26 15:00","2018","04","26","15:00","0.2","","-11.2","","42","","","","1","","12","","24.1","","99.65","","","","","","Mostly Cloudy"
"-94.71","56.36","GILLAM A","5061022","2018-04-26 16:00","2018","04","26","16:00","0.7","","-7.9","","52","","","","36","","10","","24.1","","99.65","","","","","","NA"
"-94.71","56.36","GILLAM A","5061022","2018-04-26 17:00","2018","04","26","17:00","1.5","","-10.4","","41","","","","3","","11","","24.1","","99.68","","","","","","NA"
"-94.71","56.36","GILLAM A","5061022","2018-04-26 18:00","2018","04","26","18:00","1.3","","-12.2","","36","","","","5","","8","","24.1","","99.70","","","","","","Cloudy"
"-94.71","56.36","GILLAM A","5061022","2018-04-26 19:00","2018","04","26","19:00","0.0","","-10.9","","44","","","","8","","12","","24.1","","99.74","","","","-4","","NA"
"-94.71","56.36","GILLAM A","5061022","2018-04-26 20:00","2018","04","26","20:00","-1.5","","-10.3","","51","","","","9","","9","","24.1","","99.77","","","","-5","","NA"
"-94.71","56.36","GILLAM A","5061022","2018-04-26 21:00","2018","04","26","21:00","-2.1","","-10.4","","53","","","","8","","8","","24.1","","99.83","","","","-5","","Cloudy"
"-94.71","56.36","GILLAM A","5061022","2018-04-26 22:00","2018","04","26","22:00","-2.6","","-10.7","","54","","","","6","","8","","24.1","","99.89","","","","-6","","NA"
"-94.71","56.36","GILLAM A","5061022","2018-04-26 23:00","2018","04","26","23:00","-3.2","","-9.9","","60","","","","6","","7","","24.1","","99.95","","","","-6","","NA"
"-94.71","56.36","GILLAM A","5061022","2018-04-27 00:00","2018","04","27","00:00","-4.7","","-8.6","","74","","","","5","","6","","24.1","","100.02","","","","-7","","Mostly Cloudy"
"-94.71","56.36","GILLAM A","5061022","2018-04-27 01:00","2018","04","27","01:00","-5.7","","-8.6","","80","","","","5","","9","","24.1","","100.07","","","","-10","","NA"
"-94.71","56.36","GILLAM A","5061022","2018-04-27 02:00","2018","04","27","02:00","-6.8","","-9.5","","81","","","","5","","10","","24.1","","100.15","","","","-11","","NA"
"-94.71","56.36","GILLAM A","5061022","2018-04-27 03:00","2018","04","27","03:00","-7.8","","-10.3","","82","","","","6","","8","","24.1","","100.19","","","","-12","","Clear"
"-94.71","56.36","GILLAM A","5061022","2018-04-27 04:00","2018","04","27","04:00","-8.7","","-10.8","","85","","","","8","","4","","24.1","","100.23","","","","-11","","NA"
"-94.71","56.36","GILLAM A","5061022","2018-04-27 05:00","2018","04","27","05:00","-8.9","","-10.3","","90","","","","4","","7","","24.1","","100.29","","","","-13","","NA"
"-94.71","56.36","GILLAM A","5061022","2018-04-27 06:00","2018","04","27","06:00","-8.2","","-10.7","","82","","","","7","","7","","24.1","","100.34","","","","-12","","Mainly Clear"
"-94.71","56.36","GILLAM A","5061022","2018-04-27 07:00","2018","04","27","07:00","-6.4","","-10.2","","74","","","","10","","3","","24.1","","100.38","","","","-8","","NA"
"-94.71","56.36","GILLAM A","5061022","2018-04-27 08:00","2018","04","27","08:00","-4.9","","-10.9","","63","","","","16","","4","","24.1","","100.41","","","","-7","","NA"
"-94.71","56.36","GILLAM A","5061022","2018-04-27 09:00","2018","04","27","09:00","-4.2","","-9.9","","65","","","","2","","10","","24.1","","100.44","","","","-8","","Clear"
"-94.71","56.36","GILLAM A","5061022","2018-04-27 10:00","2018","04","27","10:00","-2.8","","-10.1","","58","","","","1","","10","","24.1","","100.44","","","","-7","","NA"
"-94.71","56.36","GILLAM A","5061022","2018-04-27 11:00","2018","04","27","11:00","-1.3","","-10.8","","49","","","","34","","7","","24.1","","100.45","","","","-4","","NA"
"-94.71","56.36","GILLAM A","5061022","2018-04-27 12:00","2018","04","27","12:00","-0.7","","-12.1","","42","","","","31","","7","","24.1","","100.45","","","","-3","","Clear"
"-94.71","56.36","GILLAM A","5061022","2018-04-27 13:00","2018","04","27","13:00","0.9","","-9.2","","47","","","","34","","8","","24.1","","100.40","","","","","","NA"
"-94.71","56.36","GILLAM A","5061022","2018-04-27 14:00","2018","04","27","14:00","2.1","","-9.0","","44","","","","34","","8","","24.1","","100.37","","","","","","NA"
"-94.71","56.36","GILLAM A","5061022","2018-04-27 15:00","2018","04","27","15:00","3.2","","-6.9","","48","","","","33","","9","","24.1","","100.33","","","","","","Clear"
"-94.71","56.36","GILLAM A","5061022","2018-04-27 16:00","2018","04","27","16:00","3.8","","-7.4","","44","","","","34","","8","","24.1","","100.30","","","","","","NA"
"-94.71","56.36","GILLAM A","5061022","2018-04-27 17:00","2018","04","27","17:00","4.2","","-5.5","","49","","","","31","","10","","24.1","","100.27","","","","","","NA"
"-94.71","56.36","GILLAM A","5061022","2018-04-27 18:00","2018","04","27","18:00","4.1","","-5.8","","49","","","","29","","5","","24.1","","100.23","","","","","","Mostly Cloudy"
"-94.71","56.36","GILLAM A","5061022","2018-04-27 19:00","2018","04","27","19:00","3.4","","-4.3","","57","","","","29","","6","","24.1","","100.20","","","","","","NA"
"-94.71","56.36","GILLAM A","5061022","2018-04-27 20:00","2018","04","27","20:00","1.6","","-5.5","","59","","","","22","","6","","24.1","","100.20","","","","","","NA"
"-94.71","56.36","GILLAM A","5061022","2018-04-27 21:00","2018","04","27","21:00","0.4","","-6.1","","62","","","","20","","7","","24.1","","100.17","","","","","","Mainly Clear"
"-94.71","56.36","GILLAM A","5061022","2018-04-27 22:00","2018","04","27","22:00","-0.3","","-6.2","","65","","","","19","","8","","24.1","","100.14","","","","-3","","NA"
"-94.71","56.36","GILLAM A","5061022","2018-04-27 23:00","2018","04","27","23:00","-0.7","","-5.9","","68","","","","20","","10","","24.1","","100.12","","","","-4","","NA"
"-94.71","56.36","GILLAM A","5061022","2018-04-28 00:00","2018","04","28","00:00","-0.8","","-5.9","","68","","","","20","","10","","24.1","","100.10","","","","-4","","Clear"
"-94.71","56.36","GILLAM A","5061022","2018-04-28 01:00","2018","04","28","01:00","-0.6","","-6.0","","67","","","","20","","10","","24.1","","100.06","","","","-4","","NA"
"-94.71","56.36","GILLAM A","5061022","2018-04-28 02:00","2018","04","28","02:00","-0.4","","-5.8","","67","","","","21","","15","","24.1","","100.00","","","","-5","","NA"
"-94.71","56.36","GILLAM A","5061022","2018-04-28 03:00","2018","04","28","03:00","0.2","","-5.8","","64","","","","20","","14","","24.1","","99.96","","","","","","Mostly Cloudy"
"-94.71","56.36","GILLAM A","5061022","2018-04-28 04:00","2018","04","28","04:00","0.3","","-5.7","","64","","","","20","","18","","24.1","","99.88","","","","","","NA"
"-94.71","56.36","GILLAM A","5061022","2018-04-28 05:00","2018","04","28","05:00","0.8","","-5.5","","63","","","","20","","20","","24.1","","99.81","","","","","","NA"
"-94.71","56.36","GILLAM A","5061022","2018-04-28 06:00","2018","04","28","06:00","2.1","","-4.5","","61","","","","20","","23","","24.1","","99.74","","","","","","Mostly Cloudy"
"-94.71","56.36","GILLAM A","5061022","2018-04-28 07:00","2018","04","28","07:00","3.0","","-4.2","","59","","","","20","","30","","24.1","","99.68","","","","","","NA"
"-94.71","56.36","GILLAM A","5061022","2018-04-28 08:00","2018","04","28","08:00","3.4","","-3.2","","62","","","","20","","25","","24.1","","99.62","","","","","","Rain"
"-94.71","56.36","GILLAM A","5061022","2018-04-28 09:00","2018","04","28","09:00","5.1","","-3.7","","53","","","","21","","26","","24.1","","99.51","","","","","","Rain"
"-94.71","56.36","GILLAM A","5061022","2018-04-28 10:00","2018","04","28","10:00","6.0","","-3.8","","50","","","","21","","32","","24.1","","99.38","","","","","","NA"
"-94.71","56.36","GILLAM A","5061022","2018-04-28 11:00","2018","04","28","11:00","6.8","","-3.5","","48","","","","21","","32","","24.1","","99.30","","","","","","NA"
"-94.71","56.36","GILLAM A","5061022","2018-04-28 12:00","2018","04","28","12:00","7.8","","-3.3","","45","","","","21","","24","","24.1","","99.22","","","","","","Mostly Cloudy"
"-94.71","56.36","GILLAM A","5061022","2018-04-28 13:00","2018","04","28","13:00","7.8","","-3.0","","46","","","","20","","37","","24.1","","99.11","","","","","","Rain"
"-94.71","56.36","GILLAM A","5061022","2018-04-28 14:00","2018","04","28","14:00","8.7","","-3.9","","41","","","","20","","37","","24.1","","98.91","","","","","","Rain"
"-94.71","56.36","GILLAM A","5061022","2018-04-28 15:00","2018","04","28","15:00","11.0","","-4.1","","34","","","","22","","47","","24.1","","98.80","","","","","","Mostly Cloudy"
"-94.71","56.36","GILLAM A","5061022","2018-04-28 16:00","2018","04","28","16:00","11.2","","-3.8","","35","","","","21","","43","","24.1","","98.72","","","","","","NA"
"-94.71","56.36","GILLAM A","5061022","2018-04-28 17:00","2018","04","28","17:00","12.6","","-2.7","","34","","","","22","","37","","24.1","","98.70","","","","","","NA"
"-94.71","56.36","GILLAM A","5061022","2018-04-28 18:00","2018","04","28","18:00","12.8","","-1.0","","38","","","","24","","34","","24.1","","98.70","","","","","","Clear"
"-94.71","56.36","GILLAM A","5061022","2018-04-28 19:00","2018","04","28","19:00","11.7","","-1.9","","38","","","","22","","26","","24.1","","98.65","","","","","","NA"
"-94.71","56.36","GILLAM A","5061022","2018-04-28 20:00","2018","04","28","20:00","9.5","","-1.4","","46","","","","20","","14","","24.1","","98.62","","","","","","NA"
"-94.71","56.36","GILLAM A","5061022","2018-04-28 21:00","2018","04","28","21:00","9.2","","-1.2","","48","","","","21","","18","","24.1","","98.61","","","","","","Mostly Cloudy"
"-94.71","56.36","GILLAM A","5061022","2018-04-28 22:00","2018","04","28","22:00","9.5","","-0.9","","48","","","","21","","22","","24.1","","98.59","","","","","","NA"
"-94.71","56.36","GILLAM A","5061022","2018-04-28 23:00","2018","04","28","23:00","9.2","","-1.0","","49","","","","20","","24","","24.1","","98.54","","","","","","NA"
"-94.71","56.36","GILLAM A","5061022","2018-04-29 00:00","2018","04","29","00:00","8.6","","-0.9","","51","","","","21","","21","","24.1","","98.48","","","","","","Mainly Clear"
"-94.71","56.36","GILLAM A","5061022","2018-04-29 01:00","2018","04","29","01:00","8.5","","-0.9","","52","","","","20","","20","","24.1","","98.40","","","","","","NA"
"-94.71","56.36","GILLAM A","5061022","2018-04-29 02:00","2018","04","29","02:00","8.7","","-0.8","","51","","","","21","","21","","24.1","","98.32","","","","","","NA"
"-94.71","56.36","GILLAM A","5061022","2018-04-29 03:00","2018","04","29","03:00","8.6","","-1.1","","51","","","","21","","28","","24.1","","98.24","","","","","","Mostly Cloudy"
"-94.71","56.36","GILLAM A","5061022","2018-04-29 04:00","2018","04","29","04:00","8.2","","-1.1","","52","","","","20","","26","","24.1","","98.18","","","","","","NA"
"-94.71","56.36","GILLAM A","5061022","2018-04-29 05:00","2018","04","29","05:00","8.7","","-1.3","","49","","","","22","","26","","24.1","","98.17","","","","","","NA"
"-94.71","56.36","GILLAM A","5061022","2018-04-29 06:00","2018","04","29","06:00","7.8","","-1.0","","54","","","","23","","17","","24.1","","98.21","","","","","","Mostly Cloudy"
"-94.71","56.36","GILLAM A","5061022","2018-04-29 07:00","2018","04","29","07:00","9.5","","-0.6","","49","","","","23","","18","","24.1","","98.20","","","","","","NA"
"-94.71","56.36","GILLAM A","5061022","2018-04-29 08:00","2018","04","29","08:00","11.4","","0.0","","45","","","","25","","24","","24.1","","98.23","","","","","","NA"
"-94.71","56.36","GILLAM A","5061022","2018-04-29 09:00","2018","04","29","09:00","9.7","","-0.1","","50","","","","32","","10","","24.1","","98.24","","","","","","Cloudy"
"-94.71","56.36","GILLAM A","5061022","2018-04-29 10:00","2018","04","29","10:00","8.9","","1.3","","59","","","","1","","26","","24.1","","98.29","","","","","","NA"
"-94.71","56.36","GILLAM A","5061022","2018-04-29 11:00","2018","04","29","11:00","7.4","","1.4","","65","","","","4","","21","","24.1","","98.31","","","","","","NA"
"-94.71","56.36","GILLAM A","5061022","2018-04-29 12:00","2018","04","29","12:00","3.6","","1.0","","83","","","","3","","30","","24.1","","98.51","","","","","","Cloudy"
"-94.71","56.36","GILLAM A","5061022","2018-04-29 13:00","2018","04","29","13:00","2.7","","0.0","","82","","","","4","","26","","24.1","","98.63","","","","","","NA"
"-94.71","56.36","GILLAM A","5061022","2018-04-29 14:00","2018","04","29","14:00","2.7","","-0.5","","79","","","","4","","26","","24.1","","98.67","","","","","","NA"
"-94.71","56.36","GILLAM A","5061022","2018-04-29 15:00","2018","04","29","15:00"
"-94.71","56.36","GILLAM A","5061022","2018-04-29 16:00","2018","04","29","16:00","-0.5","","-2.8","","85","","","","2","","35","","9.7","","99.01","","","","-8","","Fog"
"-94.71","56.36","GILLAM A","5061022","2018-04-29 17:00","2018","04","29","17:00","-1.2","","-3.0","","87","","","","3","","31","","2.4","","99.12","","","","-8","","Snow"
"-94.71","56.36","GILLAM A","5061022","2018-04-29 18:00","2018","04","29","18:00","-1.5","","-2.8","","91","","","","3","","24","","2.4","","99.19","","","","-8","","Snow"
"-94.71","56.36","GILLAM A","5061022","2018-04-29 19:00","2018","04","29","19:00","-1.5","","-2.9","","90","","","","4","","15","","6.4","","99.28","","","","-6","","Snow"
"-94.71","56.36","GILLAM A","5061022","2018-04-29 20:00","2018","04","29","20:00","-1.9","","-3.6","","88","","","","4","","22","","3.6","","99.38","","","","-8","","Snow"
"-94.71","56.36","GILLAM A","5061022","2018-04-29 21:00","2018","04","29","21:00","-2.2","","-4.1","","87","","","","4","","22","","16.1","","99.50","","","","-8","","Snow"
"-94.71","56.36","GILLAM A","5061022","2018-04-29 22:00","2018","04","29","22:00","-2.8","","-4.8","","86","","","","4","","19","","17.7","","99.53","","","","-9","","Snow"
"-94.71","56.36","GILLAM A","5061022","2018-04-29 23:00","2018","04","29","23:00","-3.1","","-5.1","","86","","","","2","","23","","24.1","","99.56","","","","-10","","Snow"
"-94.71","56.36","GILLAM A","5061022","2018-04-30 00:00","2018","04","30","00:00","-4.2","","-6.8","","83","","","","3","","20","","24.1","","99.62","","","","-11","","Mostly Cloudy"
"-94.71","56.36","GILLAM A","5061022","2018-04-30 01:00","2018","04","30","01:00","-4.9","","-7.1","","84","","","","4","","14","","24.1","","99.64","","","","-10","","NA"
"-94.71","56.36","GILLAM A","5061022","2018-04-30 02:00","2018","04","30","02:00","-5.2","","-7.2","","85","","","","3","","13","","24.1","","99.71","","","","-10","","NA"
"-94.71","56.36","GILLAM A","5061022","2018-04-30 03:00","2018","04","30","03:00","-5.6","","-7.2","","88","","","","3","","12","","24.1","","99.71","","","","-11","","Cloudy"
"-94.71","56.36","GILLAM A","5061022","2018-04-30 04:00","2018","04","30","04:00","-6.1","","-7.6","","89","","","","3","","18","","24.1","","99.70","","","","-13","","NA"
"-94.71","56.36","GILLAM A","5061022","2018-04-30 05:00","2018","04","30","05:00","-6.4","","-7.6","","91","","","","4","","11","","24.1","","99.68","","","","-11","","NA"
"-94.71","56.36","GILLAM A","5061022","2018-04-30 06:00","2018","04","30","06:00","-6.4","","-7.6","","91","","","","3","","13","","24.1","","99.76","","","","-12","","Cloudy"
"-94.71","56.36","GILLAM A","5061022","2018-04-30 07:00","2018","04","30","07:00","-5.5","","-7.2","","88","","","","1","","7","","24.1","","99.81","","","","-9","","NA"
"-94.71","56.36","GILLAM A","5061022","2018-04-30 08:00","2018","04","30","08:00","-4.4","","-6.8","","83","","","","2","","4","","24.1","","99.79","","","","-6","","NA"
"-94.71","56.36","GILLAM A","5061022","2018-04-30 09:00","2018","04","30","09:00","-1.4","","-7.6","","63","","","","4","","5","","24.1","","99.79","","","","-3","","Mainly Clear"
"-94.71","56.36","GILLAM A","5061022","2018-04-30 10:00","2018","04","30","10:00","0.2","","-8.0","","54","","","","33","","4","","24.1","","99.79","","","","","","NA"
"-94.71","56.36","GILLAM A","5061022","2018-04-30 11:00","2018","04","30","11:00","2.8","","-7.7","","46","","","","35","","7","","24.1","","99.77","","","","","","NA"
"-94.71","56.36","GILLAM A","5061022","2018-04-30 12:00","2018","04","30","12:00","4.5","","-7.5","","42","","","","34","","7","","24.1","","99.74","","","","","","Mainly Clear"
"-94.71","56.36","GILLAM A","5061022","2018-04-30 13:00","2018","04","30","13:00","5.4","","-6.8","","41","","","","34","","5","","24.1","","99.73","","","","","","NA"
"-94.71","56.36","GILLAM A","5061022","2018-04-30 14:00","2018","04","30","14:00","6.0","","-7.0","","39","","","","33","","5","","24.1","","99.72","","","","","","NA"
"-94.71","56.36","GILLAM A","5061022","2018-04-30 15:00","2018","04","30","15:00","6.5","","-3.5","","49","","","","5","","15","","24.1","","99.74","","","","","","Mainly Clear"
"-94.71","56.36","GILLAM A","5061022","2018-04-30 16:00","2018","04","30","16:00","5.5","","-3.2","","53","","","","6","","21","","24.1","","99.77","","","","","","NA"
"-94.71","56.36","GILLAM A","5061022","2018-04-30 17:00","2018","04","30","17:00","3.8","","-2.5","","63","","","","5","","13","","24.1","","99.84","","","","","","NA"
"-94.71","56.36","GILLAM A","5061022","2018-04-30 18:00","2018","04","30","18:00","2.4","","-3.8","","64","","","","5","","16","","24.1","","99.89","","","","","","Clear"
"-94.71","56.36","GILLAM A","5061022","2018-04-30 19:00","2018","04","30","19:00","0.6","","-5.5","","63","","","","6","","14","","24.1","","99.91","","","","","","NA"
"-94.71","56.36","GILLAM A","5061022","2018-04-30 20:00","2018","04","30","20:00","-1.6","","-6.8","","68","","","","6","","13","","24.1","","99.90","","","","-6","","NA"
"-94.71","56.36","GILLAM A","5061022","2018-04-30 21:00","2018","04","30","21:00","-2.8","","-7.0","","73","","","","8","","7","","24.1","","99.92","","","","-6","","Mainly Clear"
"-94.71","56.36","GILLAM A","5061022","2018-04-30 22:00","2018","04","30","22:00","-3.8","","-6.8","","80","","","","11","","6","","24.1","","99.98","","","","-6","","NA"
"-94.71","56.36","GILLAM A","5061022","2018-04-30 23:00","2018","04","30","23:00","-4.8","","-7.0","","85","","","","9","","7","","24.1","","100.00","","","","-8","","NA"
