"Longitude (x)","Latitude (y)","Station Name","Climate ID","Date/Time (LST)","Year","Month","Day","Time (LST)","Temp (°C)","Temp Flag","Dew Point Temp (°C)","Dew Point Temp Flag","Rel Hum (%)","Rel Hum Flag","Precip. Amount (mm)","Precip. Amount Flag","Wind Dir (10s deg)","Wind Dir Flag","Wind Spd (km/h)","Wind Spd Flag","Visibility (km)","Visibility Flag","Stn Press (kPa)","Stn Press Flag","Hmdx","Hmdx Flag","Wind Chill","Wind Chill Flag","Weather"
"-105.14","69.11","CAMBRIDGE BAY A","2400601","2018-01-01 00:00","2018","01","01","00:00","-29.8","","-33.0","","74","","","","35","","14","","19.3","","100.85","","","","-41","","Ice Crystals"
"-105.14","69.11","CAMBRIDGE BAY A","2400601","2018-01-01 01:00","2018","01","01","01:00","-26.6","","-29.6","","77","","","","36","","22","","19.3","","100.96","","","","-39","","Ice Crystals"
"-105.14","69.11","CAMBRIDGE BAY A","2400601","2018-01-01 02:00","2018","01","01","02:00","-25.9","","-28.8","","77","","","","36","","23","","19.3","","101.07","","","","-39","","Ice Crystals"
"-105.14","69.11","CAMBRIDGE BAY A","2400601","2018-01-01 03:00","2018","01","01","03:00","-24.7","","-27.6","","77","","","","1","","21","","16.1","","101.13","","","","-37","","Ice Crystals,Blowing Snow"
"-105.14","69.11","CAMBRIDGE BAY A","2400601","2018-01-01 04:00","2018","01","01","04:00","-24.5","","-27.4","","77","","","","36","","30","","16.1","","101.24","","","","-38","","Ice Crystals,Blowing Snow"
"-105.14","69.11","CAMBRIDGE BAY A","2400601","2018-01-01 05:00","2018","01","01","05:00","-24.8","","-27.7","","77","","","","2","","30","","16.1","","101.29","","","","-39","","Ice Crystals,Blowing Snow"
"-105.14","69.11","CAMBRIDGE BAY A","2400601","2018-01-01 06:00","2018","01","01","06:00","-25.9","","-28.9","","76","","","","3","","25","","19.3","","101.40","","","","-39","","Ice Crystals,Blowing Snow"
"-105.14","69.11","CAMBRIDGE BAY A","2400601","2018-01-01 07:00","2018","01","01","07:00","-27.4","","-30.6","","75","","","","36","","14","","19.3","","101.47","","","","-38","","Ice Crystals"
"-105.14","69.11","CAMBRIDGE BAY A","2400601","2018-01-01 08:00","2018","01","01","08:00","-27.4","","-30.5","","75","","","","36","","21","","19.3","","101.51","","","","-40","","Ice Crystals,Blowing Snow"
"-105.14","69.11","CAMBRIDGE BAY A","2400601","2018-01-01 09:00","2018","01","01","09:00","-28.0","","-31.2","","75","","","","1","","16","","19.3","","101.60","","","","-39","","Ice Crystals"
"-105.14","69.11","CAMBRIDGE BAY A","2400601","2018-01-01 10:00","2018","01","01","10:00","-28.6","","-31.7","","75","","","","35","","17","","19.3","","101.67","","","","-40","","Ice Crystals,Blowing Snow"
"-105.14","69.11","CAMBRIDGE BAY A","2400601","2018-01-01 11:00","2018","01","01","11:00","-29.9","","-33.1","","74","","","","32","","15","","16.1","","101.77","","","","-41","","Ice Crystals,Blowing Snow"
"-105.14","69.11","CAMBRIDGE BAY A","2400601","2018-01-01 12:00","2018","01","01","12:00","-29.4","","-32.6","","75","","","","33","","14","","9.7","","101.75","","","","-40","","Ice Crystals,Blowing Snow"
"-105.14","69.11","CAMBRIDGE BAY A","2400601","2018-01-01 13:00","2018","01","01","13:00","-28.9","","-32.1","","75","","","","31","","19","","8.1","","101.84","","","","-41","","Ice Crystals,Blowing Snow"
"-105.14","69.11","CAMBRIDGE BAY A","2400601","2018-01-01 14:00","2018","01","01","14:00","-28.8","","-31.9","","75","","","","31","","25","","12.9","","101.89","","","","-43","","Ice Crystals,Blowing Snow"
"-105.14","69.11","CAMBRIDGE BAY A","2400601","2018-01-01 15:00","2018","01","01","15:00","-29.9","","-33.1","","74","","","","32","","11","","12.9","","101.98","","","","-40","","Ice Crystals"
"-105.14","69.11","CAMBRIDGE BAY A","2400601","2018-01-01 16:00","2018","01","01","16:00","-29.6","","-32.8","","75","","","","34","","16","","12.9","","102.01","","","","-41","","Ice Crystals,Blowing Snow"
"-105.14","69.11","CAMBRIDGE BAY A","2400601","2018-01-01 17:00","2018","01","01","17:00","-29.5","","-32.7","","74","","","","34","","10","","16.1","","102.08","","","","-39","","Ice Crystals"
"-105.14","69.11","CAMBRIDGE BAY A","2400601","2018-01-01 18:00","2018","01","01","18:00","-28.7","","-31.9","","75","","","","33","","10","","16.1","","102.11","","","","-38","","Ice Crystals"
"-105.14","69.11","CAMBRIDGE BAY A","2400601","2018-01-01 19:00","2018","01","01","19:00","-29.7","","-32.9","","74","","","","30","","16","","16.1","","102.16","","","","-41","","Ice Crystals"
"-105.14","69.11","CAMBRIDGE BAY A","2400601","2018-01-01 20:00","2018","01","01","20:00","-29.8","","-33.0","","74","","","","31","","16","","16.1","","102.15","","","","-42","","Ice Crystals,Blowing Snow"
"-105.14","69.11","CAMBRIDGE BAY A","2400601","2018-01-01 21:00","2018","01","01","21:00","-30.1","","-33.3","","74","","","","31","","27","","16.1","","102.16","","","","-45","","Ice Crystals,Blowing Snow"
"-105.14","69.11","CAMBRIDGE BAY A","2400601","2018-01-01 22:00","2018","01","01","22:00","-30.1","","-33.3","","74","","","","31","","17","","16.1","","102.22","","","","-42","","Ice Crystals,Blowing Snow"
"-105.14","69.11","CAMBRIDGE BAY A","2400601","2018-01-01 23:00","2018","01","01","23:00","-30.5","","-33.8","","73","","","","32","","21","","19.3","","102.23","","","","-44","","Ice Crystals,Blowing Snow"
"-105.14","69.11","CAMBRIDGE BAY A","2400601","2018-01-02 00:00","2018","01","02","00:00","-30.1","","-33.4","","74","","","","31","","27","","16.1","","102.31","","","","-45","","Ice Crystals,Blowing Snow"
"-105.14","69.11","CAMBRIDGE BAY A","2400601","2018-01-02 01:00","2018","01","02","01:00","-30.0","","-33.3","","74","","","","31","","22","","16.1","","102.33","","","","-44","","Ice Crystals,Blowing Snow"
"-105.14","69.11","CAMBRIDGE BAY A","2400601","2018-01-02 02:00","2018","01","02","02:00","-30.1","","-33.4","","74","","","","31","","23","","19.3","","102.39","","","","-44","","Ice Crystals,Blowing Snow"
"-105.14","69.11","CAMBRIDGE BAY A","2400601","2018-01-02 03:00","2018","01","02","03:00","-29.8","","-33.1","","74","","","","30","","22","","19.3","","102.41","","","","-43","","Ice Crystals,Blowing Snow"
"-105.14","69.11","CAMBRIDGE BAY A","2400601","2018-01-02 04:00","2018","01","02","04:00","-30.4","","-33.8","","73","","","","32","","25","","19.3","","102.42","","","","-45","","Ice Crystals,Blowing Snow"
"-105.14","69.11","CAMBRIDGE BAY A","2400601","2018-01-02 05:00","2018","01","02","05:00","-29.8","","-33.1","","74","","","","31","","31","","19.3","","102.43","","","","-46","","Ice Crystals,Blowing Snow"
"-105.14","69.11","CAMBRIDGE BAY A","2400601","2018-01-02 06:00","2018","01","02","06:00","-30.1","","-33.4","","73","","","","32","","30","","19.3","","102.45","","","","-46","","Ice Crystals,Blowing Snow"
"-105.14","69.11","CAMBRIDGE BAY A","2400601","2018-01-02 07:00","2018","01","02","07:00","-29.7","","-33.0","","74","","","","31","","33","","12.9","","102.43","","","","-46","","Ice Crystals,Blowing Snow"
"-105.14","69.11","CAMBRIDGE BAY A","2400601","2018-01-02 08:00","2018","01","02","08:00","-30.6","","-33.9","","73","","","","31","","30","","12.9","","102.42","","","","-46","","Ice Crystals,Blowing Snow"
"-105.14","69.11","CAMBRIDGE BAY A","2400601","2018-01-02 09:00","2018","01","02","09:00","-30.4","","-33.7","","74","","","","31","","31","","6.4","","102.42","","","","-46","","Ice Crystals,Fog,Blowing Snow"
"-105.14","69.11","CAMBRIDGE BAY A","2400601","2018-01-02 10:00","2018","01","02","10:00","-29.9","","-33.1","","74","","","","27","","23","","9.7","","102.43","","","","-44","","Ice Crystals,Blowing Snow"
"-105.14","69.11","CAMBRIDGE BAY A","2400601","2018-01-02 11:00","2018","01","02","11:00","-30.0","","-33.2","","74","","","","26","","22","","4.8","","102.43","","","","-44","","Ice Crystals,Blowing Snow"
"-105.14","69.11","CAMBRIDGE BAY A","2400601","2018-01-02 12:00","2018","01","02","12:00","-30.3","","-33.5","","74","","","","27","","15","","16.1","","102.44","","","","-42","","Ice Crystals"
"-105.14","69.11","CAMBRIDGE BAY A","2400601","2018-01-02 13:00","2018","01","02","13:00","-30.6","","-33.9","","74","","","","28","","16","","19.3","","102.48","","","","-43","","Ice Crystals"
"-105.14","69.11","CAMBRIDGE BAY A","2400601","2018-01-02 14:00","2018","01","02","14:00","-30.6","","-33.9","","74","","","","25","","18","","19.3","","102.48","","","","-43","","Ice Crystals"
"-105.14","69.11","CAMBRIDGE BAY A","2400601","2018-01-02 15:00","2018","01","02","15:00","-30.3","","-33.5","","74","","","","29","","29","","16.1","","102.47","","","","-46","","Ice Crystals,Blowing Snow"
"-105.14","69.11","CAMBRIDGE BAY A","2400601","2018-01-02 16:00","2018","01","02","16:00","-30.4","","-33.6","","74","","","","25","","17","","16.1","","102.47","","","","-43","","Ice Crystals,Blowing Snow"
"-105.14","69.11","CAMBRIDGE BAY A","2400601","2018-01-02 17:00","2018","01","02","17:00","-30.5","","-33.8","","73","","","","29","","24","","12.9","","102.45","","","","-45","","Ice Crystals,Blowing Snow"
"-105.14","69.11","CAMBRIDGE BAY A","2400601","2018-01-02 18:00","2018","01","02","18:00","-30.9","","-34.1","","74","","","","27","","18","","19.3","","102.44","","","","-44","","Ice Crystals,Blowing Snow"
"-105.14","69.11","CAMBRIDGE BAY A","2400601","2018-01-02 19:00","2018","01","02","19:00","-31.0","","-34.4","","73","","","","28","","18","","16.1","","102.42","","","","-44","","Ice Crystals,Blowing Snow"
"-105.14","69.11","CAMBRIDGE BAY A","2400601","2018-01-02 20:00","2018","01","02","20:00","-30.6","","-33.8","","74","","","","26","","18","","9.7","","102.43","","","","-43","","Ice Crystals"
"-105.14","69.11","CAMBRIDGE BAY A","2400601","2018-01-02 21:00","2018","01","02","21:00","-32.1","","-35.5","","72","","","","31","","13","","6.4","","102.44","","","","-43","","Ice Crystals"
"-105.14","69.11","CAMBRIDGE BAY A","2400601","2018-01-02 22:00","2018","01","02","22:00","-31.8","","-35.2","","73","","","","30","","13","","6.4","","102.43","","","","-43","","Ice Crystals,Fog"
"-105.14","69.11","CAMBRIDGE BAY A","2400601","2018-01-02 23:00","2018","01","02","23:00","-32.2","","-35.5","","73","","","","28","","6","","6.4","","102.46","","","","-39","","Ice Crystals,Fog"
"-105.14","69.11","CAMBRIDGE BAY A","2400601","2018-01-03 00:00","2018","01","03","00:00","-32.1","","-35.4","","73","","","","29","","15","","9.7","","102.49","","","","-44","","Ice Crystals,Fog"
"-105.14","69.11","CAMBRIDGE BAY A","2400601","2018-01-03 01:00","2018","01","03","01:00","-31.1","","-34.1","","76","","","","28","","12","","9.7","","102.50","","","","-41","","Ice Crystals,Fog"
"-105.14","69.11","CAMBRIDGE BAY A","2400601","2018-01-03 02:00","2018","01","03","02:00","-32.1","","-35.1","","75","","","","32","","10","","4.8","","102.53","","","","-42","","Ice Crystals,Fog"
"-105.14","69.11","CAMBRIDGE BAY A","2400601","2018-01-03 03:00","2018","01","03","03:00","-31.1","","-34.3","","74","","","","29","","14","","4.8","","102.55","","","","-42","","Ice Crystals,Fog"
"-105.14","69.11","CAMBRIDGE BAY A","2400601","2018-01-03 04:00","2018","01","03","04:00","-31.0","","-34.2","","74","","","","32","","17","","3.2","","102.54","","","","-43","","Ice Crystals,Fog"
"-105.14","69.11","CAMBRIDGE BAY A","2400601","2018-01-03 05:00","2018","01","03","05:00","-30.0","","-33.1","","74","","","","32","","15","","3.2","","102.56","","","","-41","","Ice Crystals,Fog"
"-105.14","69.11","CAMBRIDGE BAY A","2400601","2018-01-03 06:00","2018","01","03","06:00","-30.3","","-33.6","","74","","","","31","","25","","3.2","","102.58","","","","-45","","Ice Crystals,Fog"
"-105.14","69.11","CAMBRIDGE BAY A","2400601","2018-01-03 07:00","2018","01","03","07:00","-30.8","","-34.0","","74","","","","27","","16","","8.1","","102.57","","","","-43","","Ice Crystals,Fog"
"-105.14","69.11","CAMBRIDGE BAY A","2400601","2018-01-03 08:00","2018","01","03","08:00","-32.0","","-35.4","","73","","","","35","","14","","9.7","","102.57","","","","-43","","Ice Crystals,Fog"
"-105.14","69.11","CAMBRIDGE BAY A","2400601","2018-01-03 09:00","2018","01","03","09:00","-30.7","","-34.0","","74","","","","5","","4","","9.7","","102.60","","","","-35","","Ice Crystals,Fog"
"-105.14","69.11","CAMBRIDGE BAY A","2400601","2018-01-03 10:00","2018","01","03","10:00","-30.4","","-33.6","","74","","","","36","","1","","16.1","","102.63","","","","-32","","Snow"
"-105.14","69.11","CAMBRIDGE BAY A","2400601","2018-01-03 11:00","2018","01","03","11:00","-30.6","","-33.8","","74","","","","25","","7","","16.1","","102.63","","","","-38","","Ice Crystals"
"-105.14","69.11","CAMBRIDGE BAY A","2400601","2018-01-03 12:00","2018","01","03","12:00","-29.4","","-32.5","","75","","","","34","","10","","16.1","","102.64","","","","-38","","Ice Crystals"
"-105.14","69.11","CAMBRIDGE BAY A","2400601","2018-01-03 13:00","2018","01","03","13:00","-29.6","","-32.8","","74","","","","1","","16","","19.3","","102.66","","","","-41","","Ice Crystals,Blowing Snow"
"-105.14","69.11","CAMBRIDGE BAY A","2400601","2018-01-03 14:00","2018","01","03","14:00","-32.9","","-36.3","","72","","","","3","","9","","24.1","","102.70","","","","-42","","Ice Crystals"
"-105.14","69.11","CAMBRIDGE BAY A","2400601","2018-01-03 15:00","2018","01","03","15:00","-32.2","","-35.5","","73","","","","4","","7","","19.3","","102.74","","","","-40","","Ice Crystals"
"-105.14","69.11","CAMBRIDGE BAY A","2400601","2018-01-03 16:00","2018","01","03","16:00","-32.4","","-35.7","","73","","","","3","","11","","19.3","","102.74","","","","-43","","Ice Crystals"
"-105.14","69.11","CAMBRIDGE BAY A","2400601","2018-01-03 17:00","2018","01","03","17:00","-32.5","","-35.8","","73","","","","3","","6","","19.3","","102.77","","","","-39","","Ice Crystals"
"-105.14","69.11","CAMBRIDGE BAY A","2400601","2018-01-03 18:00","2018","01","03","18:00","-33.8","","-37.2","","72","","","","5","","10","","24.1","","102.73","","","","-44","","Ice Crystals"
"-105.14","69.11","CAMBRIDGE BAY A","2400601","2018-01-03 19:00","2018","01","03","19:00","-35.3","","-38.9","","71","","","","4","","11","","24.1","","102.69","","","","-46","","Ice Crystals"
"-105.14","69.11","CAMBRIDGE BAY A","2400601","2018-01-03 20:00","2018","01","03","20:00","-35.5","","-39.0","","71","","","","5","","8","","19.3","","102.69","","","","-44","","Ice Crystals"
"-105.14","69.11","CAMBRIDGE BAY A","2400601","2018-01-03 21:00","2018","01","03","21:00","-34.5","","-38.0","","72","","","","7","","13","","24.1","","102.70","","","","-46","","Ice Crystals"
"-105.14","69.11","CAMBRIDGE BAY A","2400601","2018-01-03 22:00","2018","01","03","22:00","-34.5","","-38.0","","71","","","","8","","13","","24.1","","102.73","","","","-46","","Ice Crystals"
"-105.14","69.11","CAMBRIDGE BAY A","2400601","2018-01-03 23:00","2018","01","03","23:00","-33.8","","-37.2","","72","","","","12","","13","","24.1","","102.77","","","","-45","","Ice Crystals"
"-105.14","69.11","CAMBRIDGE BAY A","2400601","2018-01-04 00:00","2018","01","04","00:00","-32.7","","-36.1","","72","","","","12","","12","","24.1","","102.73","","","","-43","","Ice Crystals"
"-105.14","69.11","CAMBRIDGE BAY A","2400601","2018-01-04 01:00","2018","01","04","01:00","-32.7","","-36.1","","72","","","","12","","11","","24.1","","102.74","","","","-43","","Ice Crystals"
"-105.14","69.11","CAMBRIDGE BAY A","2400601","2018-01-04 02:00","2018","01","04","02:00","-33.0","","-36.5","","72","","","","9","","13","","9.7","","102.73","","","","-44","","Ice Crystals,Fog"
"-105.14","69.11","CAMBRIDGE BAY A","2400601","2018-01-04 03:00","2018","01","04","03:00","-33.5","","-37.0","","72","","","","10","","14","","4.8","","102.72","","","","-45","","Ice Crystals,Fog"
"-105.14","69.11","CAMBRIDGE BAY A","2400601","2018-01-04 04:00","2018","01","04","04:00","-33.5","","-37.0","","72","","","","9","","13","","4.8","","102.67","","","","-45","","Ice Crystals,Fog"
"-105.14","69.11","CAMBRIDGE BAY A","2400601","2018-01-04 05:00","2018","01","04","05:00","-32.5","","-35.9","","72","","","","10","","13","","1.6","","102.64","","","","-44","","Ice Crystals,Fog"
"-105.14","69.11","CAMBRIDGE BAY A","2400601","2018-01-04 06:00","2018","01","04","06:00","-31.1","","-34.4","","74","","","","10","","13","","1.2","","102.62","","","","-42","","Ice Crystals,Fog"
"-105.14","69.11","CAMBRIDGE BAY A","2400601","2018-01-04 07:00","2018","01","04","07:00","-30.5","","-33.8","","74","","","","12","","19","","1.2","","102.57","","","","-43","","Ice Crystals,Fog"
"-105.14","69.11","CAMBRIDGE BAY A","2400601","2018-01-04 08:00","2018","01","04","08:00","-31.3","","-34.6","","73","","","","9","","17","","1.2","","102.53","","","","-44","","Ice Crystals,Fog"
"-105.14","69.11","CAMBRIDGE BAY A","2400601","2018-01-04 09:00","2018","01","04","09:00","-29.7","","-33.0","","74","","","","12","","24","","1.0","","102.50","","","","-44","","Snow,Fog"
"-105.14","69.11","CAMBRIDGE BAY A","2400601","2018-01-04 10:00","2018","01","04","10:00","-29.8","","-33.0","","74","","","","14","","16","","1.0","","102.47","","","","-42","","Snow,Fog"
"-105.14","69.11","CAMBRIDGE BAY A","2400601","2018-01-04 11:00","2018","01","04","11:00","-30.7","","-33.9","","74","","","","36","","3","","1.2","","102.42","","","","-34","","Fog"
"-105.14","69.11","CAMBRIDGE BAY A","2400601","2018-01-04 12:00","2018","01","04","12:00","-30.6","","-33.9","","74","","","","13","","12","","1.6","","102.40","","","","-41","","Fog"
"-105.14","69.11","CAMBRIDGE BAY A","2400601","2018-01-04 13:00","2018","01","04","13:00","-30.6","","-33.8","","74","","","","13","","17","","1.6","","102.30","","","","-43","","Fog"
"-105.14","69.11","CAMBRIDGE BAY A","2400601","2018-01-04 14:00","2018","01","04","14:00","-30.1","","-33.4","","74","","","","13","","24","","1.6","","102.27","","","","-44","","Fog"
"-105.14","69.11","CAMBRIDGE BAY A","2400601","2018-01-04 15:00","2018","01","04","15:00","-30.4","","-33.7","","74","","","","13","","17","","4.0","","102.25","","","","-43","","Fog"
"-105.14","69.11","CAMBRIDGE BAY A","2400601","2018-01-04 16:00","2018","01","04","16:00","-29.2","","-32.4","","75","","","","14","","28","","8.1","","102.17","","","","-44","","Fog,Blowing Snow"
"-105.14","69.11","CAMBRIDGE BAY A","2400601","2018-01-04 17:00","2018","01","04","17:00","-28.2","","-31.3","","75","","","","14","","23","","4.8","","102.08","","","","-42","","Fog"
"-105.14","69.11","CAMBRIDGE BAY A","2400601","2018-01-04 18:00","2018","01","04","18:00","-27.9","","-30.9","","76","","","","3","","5","","6.4","","102.08","","","","-33","","Fog"
"-105.14","69.11","CAMBRIDGE BAY A","2400601","2018-01-04 19:00","2018","01","04","19:00","-26.9","","-29.8","","76","","","","12","","9","","12.9","","101.96","","","","-35","","NA"
"-105.14","69.11","CAMBRIDGE BAY A","2400601","2018-01-04 20:00","2018","01","04","20:00","-26.5","","-29.5","","77","","","","17","","17","","12.9","","101.90","","","","-38","","Mainly Clear"
"-105.14","69.11","CAMBRIDGE BAY A","2400601","2018-01-04 21:00","2018","01","04","21:00","-25.4","","-28.3","","77","","","","20","","9","","16.1","","101.89","","","","-33","","NA"
"-105.14","69.11","CAMBRIDGE BAY A","2400601","2018-01-04 22:00","2018","01","04","22:00","-24.6","","-27.4","","78","","","","18","","15","","16.1","","101.82","","","","-35","","Ice Crystals"
"-105.14","69.11","CAMBRIDGE BAY A","2400601","2018-01-04 23:00","2018","01","04","23:00","-23.8","","-26.5","","79","","","","19","","16","","16.1","","101.80","","","","-34","","Ice Crystals"
"-105.14","69.11","CAMBRIDGE BAY A","2400601","2018-01-05 00:00","2018","01","05","00:00","-22.9","","-25.6","","79","","","","19","","23","","16.1","","101.74","","","","-35","","Ice Crystals"
"-105.14","69.11","CAMBRIDGE BAY A","2400601","2018-01-05 01:00","2018","01","05","01:00","-22.6","","-25.2","","79","","","","19","","22","","16.1","","101.72","","","","-34","","Ice Crystals"
"-105.14","69.11","CAMBRIDGE BAY A","2400601","2018-01-05 02:00","2018","01","05","02:00","-22.1","","-24.7","","80","","","","19","","20","","16.1","","101.70","","","","-33","","Ice Crystals"
"-105.14","69.11","CAMBRIDGE BAY A","2400601","2018-01-05 03:00","2018","01","05","03:00","-21.6","","-24.2","","80","","","","19","","20","","12.9","","101.68","","","","-32","","Snow,Blowing Snow"
"-105.14","69.11","CAMBRIDGE BAY A","2400601","2018-01-05 04:00","2018","01","05","04:00","-21.2","","-23.7","","81","","","","19","","23","","12.9","","101.62","","","","-33","","Snow,Blowing Snow"
"-105.14","69.11","CAMBRIDGE BAY A","2400601","2018-01-05 05:00","2018","01","05","05:00","-20.9","","-23.3","","81","","","","19","","21","","16.1","","101.58","","","","-32","","Snow,Blowing Snow"
"-105.14","69.11","CAMBRIDGE BAY A","2400601","2018-01-05 06:00","2018","01","05","06:00","-20.8","","-23.2","","81","","","","21","","14","","16.1","","101.57","","","","-30","","Snow"
"-105.14","69.11","CAMBRIDGE BAY A","2400601","2018-01-05 07:00","2018","01","05","07:00","-20.5","","-22.9","","81","","","","19","","10","","16.1","","101.52","","","","-28","","Ice Crystals"
"-105.14","69.11","CAMBRIDGE BAY A","2400601","2018-01-05 08:00","2018","01","05","08:00","-21.2","","-23.7","","81","","","","20","","10","","19.3","","101.47","","","","-29","","Ice Crystals"
"-105.14","69.11","CAMBRIDGE BAY A","2400601","2018-01-05 09:00","2018","01","05","09:00","-22.1","","-24.6","","80","","","","24","","9","","19.3","","101.46","","","","-29","","Ice Crystals"
"-105.14","69.11","CAMBRIDGE BAY A","2400601","2018-01-05 10:00","2018","01","05","10:00","-22.8","","-25.3","","80","","","","22","","6","","19.3","","101.45","","","","-28","","Ice Crystals"
"-105.14","69.11","CAMBRIDGE BAY A","2400601","2018-01-05 11:00","2018","01","05","11:00","-23.0","","-25.6","","80","","","","23","","9","","19.3","","101.43","","","","-30","","Ice Crystals"
"-105.14","69.11","CAMBRIDGE BAY A","2400601","2018-01-05 12:00","2018","01","05","12:00","-23.7","","-26.3","","79","","","","25","","8","","24.1","","101.41","","","","-31","","Ice Crystals"
"-105.14","69.11","CAMBRIDGE BAY A","2400601","2018-01-05 13:00","2018","01","05","13:00","-23.2","","-25.8","","80","","","","23","","10","","24.1","","101.39","","","","-31","","Ice Crystals"
"-105.14","69.11","CAMBRIDGE BAY A","2400601","2018-01-05 14:00","2018","01","05","14:00","-22.4","","-24.9","","80","","","","23","","8","","16.1","","101.37","","","","-29","","Mostly Cloudy"
"-105.14","69.11","CAMBRIDGE BAY A","2400601","2018-01-05 15:00","2018","01","05","15:00","-21.4","","-23.8","","81","","","","22","","9","","16.1","","101.33","","","","-28","","NA"
"-105.14","69.11","CAMBRIDGE BAY A","2400601","2018-01-05 16:00","2018","01","05","16:00","-21.0","","-23.5","","81","","","","25","","6","","16.1","","101.36","","","","-26","","NA"
"-105.14","69.11","CAMBRIDGE BAY A","2400601","2018-01-05 17:00","2018","01","05","17:00","-20.4","","-22.8","","82","","","","36","","2","","16.1","","101.30","","","","-22","","Mostly Cloudy"
"-105.14","69.11","CAMBRIDGE BAY A","2400601","2018-01-05 18:00","2018","01","05","18:00","-19.8","","-22.2","","82","","","","23","","9","","16.1","","101.25","","","","-27","","NA"
"-105.14","69.11","CAMBRIDGE BAY A","2400601","2018-01-05 19:00","2018","01","05","19:00","-19.4","","-21.7","","82","","","","22","","9","","16.1","","101.18","","","","-26","","NA"
"-105.14","69.11","CAMBRIDGE BAY A","2400601","2018-01-05 20:00","2018","01","05","20:00","-19.1","","-21.4","","83","","","","21","","13","","16.1","","101.12","","","","-27","","Mostly Cloudy"
"-105.14","69.11","CAMBRIDGE BAY A","2400601","2018-01-05 21:00","2018","01","05","21:00","-18.7","","-20.9","","83","","","","23","","11","","16.1","","101.08","","","","-26","","Ice Crystals"
"-105.14","69.11","CAMBRIDGE BAY A","2400601","2018-01-05 22:00","2018","01","05","22:00","-18.4","","-20.6","","83","","","","22","","13","","16.1","","101.01","","","","-26","","Ice Crystals"
"-105.14","69.11","CAMBRIDGE BAY A","2400601","2018-01-05 23:00","2018","01","05","23:00","-18.1","","-20.3","","84","","","","21","","8","","16.1","","100.99","","","","-24","","Ice Crystals"
"-105.14","69.11","CAMBRIDGE BAY A","2400601","2018-01-06 00:00","2018","01","06","00:00","-18.1","","-20.2","","84","","","","19","","7","","16.1","","100.96","","","","-23","","Ice Crystals"
"-105.14","69.11","CAMBRIDGE BAY A","2400601","2018-01-06 01:00","2018","01","06","01:00","-18.2","","-20.4","","83","","","","16","","7","","19.3","","100.90","","","","-24","","Ice Crystals"
"-105.14","69.11","CAMBRIDGE BAY A","2400601","2018-01-06 02:00","2018","01","06","02:00","-18.2","","-20.4","","83","","","","16","","5","","16.1","","100.86","","","","-22","","Ice Crystals"
"-105.14","69.11","CAMBRIDGE BAY A","2400601","2018-01-06 03:00","2018","01","06","03:00","-18.3","","-20.5","","83","","","","19","","7","","19.3","","100.81","","","","-24","","Ice Crystals"
"-105.14","69.11","CAMBRIDGE BAY A","2400601","2018-01-06 04:00","2018","01","06","04:00","-18.3","","-20.4","","84","","","","17","","10","","19.3","","100.72","","","","-25","","Ice Crystals"
"-105.14","69.11","CAMBRIDGE BAY A","2400601","2018-01-06 05:00","2018","01","06","05:00","-18.2","","-20.4","","84","","","","17","","8","","19.3","","100.62","","","","-24","","Ice Crystals"
"-105.14","69.11","CAMBRIDGE BAY A","2400601","2018-01-06 06:00","2018","01","06","06:00","-18.3","","-20.5","","84","","","","18","","7","","19.3","","100.54","","","","-24","","Ice Crystals"
"-105.14","69.11","CAMBRIDGE BAY A","2400601","2018-01-06 07:00","2018","01","06","07:00","-18.1","","-20.2","","84","","","","21","","9","","16.1","","100.50","","","","-24","","Ice Crystals"
"-105.14","69.11","CAMBRIDGE BAY A","2400601","2018-01-06 08:00","2018","01","06","08:00","-18.0","","-20.1","","84","","","","21","","6","","19.3","","100.44","","","","-23","","Ice Crystals"
"-105.14","69.11","CAMBRIDGE BAY A","2400601","2018-01-06 09:00","2018","01","06","09:00","-17.4","","-19.4","","84","","","","13","","8","","16.1","","100.37","","","","-23","","Ice Crystals"
"-105.14","69.11","CAMBRIDGE BAY A","2400601","2018-01-06 10:00","2018","01","06","10:00","-17.3","","-19.3","","84","","","","15","","16","","16.1","","100.29","","","","-26","","Ice Crystals"
"-105.14","69.11","CAMBRIDGE BAY A","2400601","2018-01-06 11:00","2018","01","06","11:00","-17.8","","-19.9","","84","","","","14","","16","","16.1","","100.20","","","","-27","","Ice Crystals,Blowing Snow"
"-105.14","69.11","CAMBRIDGE BAY A","2400601","2018-01-06 12:00","2018","01","06","12:00","-19.1","","-21.3","","83","","","","12","","12","","4.8","","100.13","","","","-27","","Ice Crystals,Fog"
"-105.14","69.11","CAMBRIDGE BAY A","2400601","2018-01-06 13:00","2018","01","06","13:00","-19.7","","-22.0","","82","","","","15","","24","","2.4","","100.04","","","","-31","","Ice Crystals,Fog,Blowing Snow"
"-105.14","69.11","CAMBRIDGE BAY A","2400601","2018-01-06 14:00","2018","01","06","14:00","-21.1","","-23.6","","81","","","","15","","23","","2.4","","99.97","","","","-33","","Ice Crystals,Fog,Blowing Snow"
"-105.14","69.11","CAMBRIDGE BAY A","2400601","2018-01-06 15:00","2018","01","06","15:00","-22.1","","-24.6","","81","","","","16","","16","","2.4","","99.94","","","","-32","","Ice Crystals,Fog,Blowing Snow"
"-105.14","69.11","CAMBRIDGE BAY A","2400601","2018-01-06 16:00","2018","01","06","16:00","-22.4","","-25.0","","80","","","","15","","12","","4.8","","99.85","","","","-31","","Snow,Ice Crystals,Fog"
"-105.14","69.11","CAMBRIDGE BAY A","2400601","2018-01-06 17:00","2018","01","06","17:00","-22.1","","-24.6","","80","","","","15","","12","","8.1","","99.77","","","","-31","","Ice Crystals,Fog"
"-105.14","69.11","CAMBRIDGE BAY A","2400601","2018-01-06 18:00","2018","01","06","18:00","-21.7","","-24.2","","81","","","","14","","12","","9.7","","99.67","","","","-30","","Ice Crystals,Fog"
"-105.14","69.11","CAMBRIDGE BAY A","2400601","2018-01-06 19:00","2018","01","06","19:00","-21.6","","-24.0","","81","","","","15","","5","","12.9","","99.59","","","","-26","","Ice Crystals"
"-105.14","69.11","CAMBRIDGE BAY A","2400601","2018-01-06 20:00","2018","01","06","20:00","-21.4","","-23.8","","81","","","","10","","6","","8.1","","99.52","","","","-27","","Ice Crystals,Fog"
"-105.14","69.11","CAMBRIDGE BAY A","2400601","2018-01-06 21:00","2018","01","06","21:00","-21.1","","-23.6","","81","","","","36","","1","","4.8","","99.48","","","","-22","","Snow,Ice Crystals"
"-105.14","69.11","CAMBRIDGE BAY A","2400601","2018-01-06 22:00","2018","01","06","22:00","-21.6","","-24.1","","81","","","","30","","8","","4.8","","99.45","","","","-28","","Snow,Ice Crystals"
"-105.14","69.11","CAMBRIDGE BAY A","2400601","2018-01-06 23:00","2018","01","06","23:00","-22.4","","-24.8","","81","","","","31","","12","","12.9","","99.41","","","","-31","","Ice Crystals"
"-105.14","69.11","CAMBRIDGE BAY A","2400601","2018-01-07 00:00","2018","01","07","00:00","-22.8","","-25.4","","79","","","","30","","4","","12.9","","99.38","","","","-27","","Ice Crystals"
"-105.14","69.11","CAMBRIDGE BAY A","2400601","2018-01-07 01:00","2018","01","07","01:00","-21.8","","-24.3","","80","","","","29","","7","","12.9","","99.36","","","","-28","","Snow"
"-105.14","69.11","CAMBRIDGE BAY A","2400601","2018-01-07 02:00","2018","01","07","02:00","-20.5","","-22.9","","81","","","","26","","9","","12.9","","99.34","","","","-27","","Snow"
"-105.14","69.11","CAMBRIDGE BAY A","2400601","2018-01-07 03:00","2018","01","07","03:00","-19.5","","-21.9","","82","","","","36","","2","","12.9","","99.35","","","","-21","","Snow"
"-105.14","69.11","CAMBRIDGE BAY A","2400601","2018-01-07 04:00","2018","01","07","04:00","-19.0","","-21.2","","83","","","","28","","7","","12.9","","99.33","","","","-24","","Snow"
"-105.14","69.11","CAMBRIDGE BAY A","2400601","2018-01-07 05:00","2018","01","07","05:00","-18.5","","-20.9","","82","","","","30","","19","","12.9","","99.30","","","","-28","","Snow"
"-105.14","69.11","CAMBRIDGE BAY A","2400601","2018-01-07 06:00","2018","01","07","06:00","-19.5","","-22.0","","81","","","","5","","9","","8.1","","99.30","","","","-26","","Snow"
"-105.14","69.11","CAMBRIDGE BAY A","2400601","2018-01-07 07:00","2018","01","07","07:00","-19.7","","-22.3","","81","","","","1","","9","","9.7","","99.33","","","","-26","","Snow"
"-105.14","69.11","CAMBRIDGE BAY A","2400601","2018-01-07 08:00","2018","01","07","08:00","-19.8","","-22.4","","80","","","","34","","16","","9.7","","99.31","","","","-29","","Snow"
"-105.14","69.11","CAMBRIDGE BAY A","2400601","2018-01-07 09:00","2018","01","07","09:00","-21.8","","-24.5","","79","","","","34","","17","","16.1","","99.35","","","","-32","","Snow,Blowing Snow"
"-105.14","69.11","CAMBRIDGE BAY A","2400601","2018-01-07 10:00","2018","01","07","10:00","-23.8","","-26.7","","78","","","","32","","18","","16.1","","99.39","","","","-35","","Ice Crystals,Blowing Snow"
"-105.14","69.11","CAMBRIDGE BAY A","2400601","2018-01-07 11:00","2018","01","07","11:00","-25.2","","-28.1","","78","","","","31","","24","","16.1","","99.40","","","","-38","","Ice Crystals,Blowing Snow"
"-105.14","69.11","CAMBRIDGE BAY A","2400601","2018-01-07 12:00","2018","01","07","12:00","-25.5","","-28.2","","78","","","","33","","28","","16.1","","99.43","","","","-39","","Ice Crystals,Blowing Snow"
"-105.14","69.11","CAMBRIDGE BAY A","2400601","2018-01-07 13:00","2018","01","07","13:00","-26.9","","-29.9","","77","","","","32","","22","","16.1","","99.49","","","","-40","","Ice Crystals,Blowing Snow"
"-105.14","69.11","CAMBRIDGE BAY A","2400601","2018-01-07 14:00","2018","01","07","14:00","-25.7","","-28.6","","77","","","","35","","18","","16.1","","99.53","","","","-37","","Ice Crystals,Blowing Snow"
"-105.14","69.11","CAMBRIDGE BAY A","2400601","2018-01-07 15:00","2018","01","07","15:00","-28.0","","-31.1","","76","","","","32","","24","","16.1","","99.59","","","","-42","","Ice Crystals,Blowing Snow"
"-105.14","69.11","CAMBRIDGE BAY A","2400601","2018-01-07 16:00","2018","01","07","16:00","-26.7","","-29.4","","78","","","","32","","25","","16.1","","99.62","","","","-40","","Ice Crystals,Blowing Snow"
"-105.14","69.11","CAMBRIDGE BAY A","2400601","2018-01-07 17:00","2018","01","07","17:00","-23.7","","-26.5","","78","","","","35","","20","","16.1","","99.63","","","","-35","","Ice Crystals,Blowing Snow"
"-105.14","69.11","CAMBRIDGE BAY A","2400601","2018-01-07 18:00","2018","01","07","18:00","-22.5","","-25.4","","78","","","","36","","27","","12.9","","99.64","","","","-35","","Ice Crystals,Blowing Snow"
"-105.14","69.11","CAMBRIDGE BAY A","2400601","2018-01-07 19:00","2018","01","07","19:00","-22.7","","-25.4","","79","","","","1","","33","","8.1","","99.69","","","","-37","","Ice Crystals,Blowing Snow"
"-105.14","69.11","CAMBRIDGE BAY A","2400601","2018-01-07 20:00","2018","01","07","20:00","-23.2","","-26.0","","78","","","","1","","33","","8.1","","99.74","","","","-37","","Ice Crystals,Blowing Snow"
"-105.14","69.11","CAMBRIDGE BAY A","2400601","2018-01-07 21:00","2018","01","07","21:00","-23.4","","-26.1","","78","","","","1","","26","","3.6","","99.81","","","","-36","","Snow,Blowing Snow"
"-105.14","69.11","CAMBRIDGE BAY A","2400601","2018-01-07 22:00","2018","01","07","22:00","-22.9","","-25.7","","79","","","","1","","38","","1.6","","99.80","","","","-38","","Snow,Blowing Snow"
"-105.14","69.11","CAMBRIDGE BAY A","2400601","2018-01-07 23:00","2018","01","07","23:00","-22.8","","-25.5","","79","","","","1","","39","","1.6","","99.86","","","","-38","","Snow,Blowing Snow"
"-105.14","69.11","CAMBRIDGE BAY A","2400601","2018-01-08 00:00","2018","01","08","00:00","-22.0","","-24.6","","80","","","","2","","39","","1.6","","99.91","","","","-37","","Snow,Blowing Snow"
"-105.14","69.11","CAMBRIDGE BAY A","2400601","2018-01-08 01:00","2018","01","08","01:00","-23.1","","-25.9","","78","","","","1","","39","","1.2","","99.98","","","","-38","","Snow,Blowing Snow"
"-105.14","69.11","CAMBRIDGE BAY A","2400601","2018-01-08 02:00","2018","01","08","02:00","-25.8","","-28.8","","77","","","","1","","47","","0.8","","100.06","","","","-43","","Snow,Blowing Snow"
"-105.14","69.11","CAMBRIDGE BAY A","2400601","2018-01-08 03:00","2018","01","08","03:00","-27.4","","-30.4","","76","","","","1","","48","","0.8","","100.15","","","","-45","","Snow,Blowing Snow"
"-105.14","69.11","CAMBRIDGE BAY A","2400601","2018-01-08 04:00","2018","01","08","04:00","-28.3","","-31.4","","76","","","","1","","38","","0.2","","100.25","","","","-45","","Snow,Blowing Snow"
"-105.14","69.11","CAMBRIDGE BAY A","2400601","2018-01-08 05:00","2018","01","08","05:00","-29.4","","-32.5","","75","","","","1","","42","","0.2","","100.30","","","","-47","","Snow,Blowing Snow"
"-105.14","69.11","CAMBRIDGE BAY A","2400601","2018-01-08 06:00","2018","01","08","06:00","-31.0","","-34.2","","74","","","","36","","38","","0.2","","100.37","","","","-48","","Snow,Blowing Snow"
"-105.14","69.11","CAMBRIDGE BAY A","2400601","2018-01-08 07:00","2018","01","08","07:00","-32.0","","-35.4","","73","","","","36","","36","","0.2","","100.47","","","","-49","","Snow,Blowing Snow"
"-105.14","69.11","CAMBRIDGE BAY A","2400601","2018-01-08 08:00","2018","01","08","08:00","-32.9","","-36.2","","73","","","","1","","36","","0.2","","100.51","","","","-51","","Snow,Blowing Snow"
"-105.14","69.11","CAMBRIDGE BAY A","2400601","2018-01-08 09:00","2018","01","08","09:00","-33.1","","-36.6","","72","","","","36","","31","","0.6","","100.55","","","","-50","","Snow,Blowing Snow"
"-105.14","69.11","CAMBRIDGE BAY A","2400601","2018-01-08 10:00","2018","01","08","10:00","-33.1","","-36.5","","72","","","","34","","28","","0.6","","100.66","","","","-49","","Snow,Blowing Snow"
"-105.14","69.11","CAMBRIDGE BAY A","2400601","2018-01-08 11:00","2018","01","08","11:00","-33.1","","-36.5","","72","","","","35","","26","","0.4","","100.60","","","","-49","","Snow,Blowing Snow"
"-105.14","69.11","CAMBRIDGE BAY A","2400601","2018-01-08 12:00","2018","01","08","12:00","-33.0","","-36.5","","72","","","","35","","30","","0.6","","100.63","","","","-50","","Snow,Blowing Snow"
"-105.14","69.11","CAMBRIDGE BAY A","2400601","2018-01-08 13:00","2018","01","08","13:00","-33.2","","-36.7","","72","","","","35","","26","","0.6","","100.73","","","","-49","","Snow,Blowing Snow"
"-105.14","69.11","CAMBRIDGE BAY A","2400601","2018-01-08 14:00","2018","01","08","14:00","-33.3","","-36.8","","72","","","","34","","40","","0.4","","100.66","","","","-52","","Snow,Blowing Snow"
"-105.14","69.11","CAMBRIDGE BAY A","2400601","2018-01-08 15:00","2018","01","08","15:00","-33.0","","-36.4","","72","","","","34","","38","","0.6","","100.71","","","","-51","","Ice Crystals,Blowing Snow"
"-105.14","69.11","CAMBRIDGE BAY A","2400601","2018-01-08 16:00","2018","01","08","16:00","-33.4","","-37.1","","70","","","","31","","24","","6.4","","100.87","","","","-49","","Ice Crystals,Blowing Snow"
"-105.14","69.11","CAMBRIDGE BAY A","2400601","2018-01-08 17:00","2018","01","08","17:00","-33.9","","-37.5","","71","","","","31","","26","","6.4","","100.85","","","","-50","","Ice Crystals,Blowing Snow"
"-105.14","69.11","CAMBRIDGE BAY A","2400601","2018-01-08 18:00","2018","01","08","18:00","-33.9","","-37.5","","71","","","","31","","33","","4.0","","100.81","","","","-51","","Ice Crystals,Blowing Snow"
"-105.14","69.11","CAMBRIDGE BAY A","2400601","2018-01-08 19:00","2018","01","08","19:00","-34.5","","-38.2","","71","","","","31","","21","","2.4","","100.85","","","","-49","","Ice Crystals,Blowing Snow"
"-105.14","69.11","CAMBRIDGE BAY A","2400601","2018-01-08 20:00","2018","01","08","20:00","-34.9","","-38.5","","70","","","","31","","30","","4.0","","100.82","","","","-52","","Ice Crystals,Blowing Snow"
"-105.14","69.11","CAMBRIDGE BAY A","2400601","2018-01-08 21:00","2018","01","08","21:00","-35.1","","-38.7","","70","","","","31","","31","","4.0","","100.79","","","","-52","","Ice Crystals,Blowing Snow"
"-105.14","69.11","CAMBRIDGE BAY A","2400601","2018-01-08 22:00","2018","01","08","22:00","-36.0","","-39.7","","70","","","","31","","22","","19.3","","100.80","","","","-51","","Ice Crystals,Blowing Snow"
"-105.14","69.11","CAMBRIDGE BAY A","2400601","2018-01-08 23:00","2018","01","08","23:00","-36.4","","-40.1","","69","","","","32","","20","","19.3","","100.82","","","","-51","","Ice Crystals,Blowing Snow"
"-105.14","69.11","CAMBRIDGE BAY A","2400601","2018-01-09 00:00","2018","01","09","00:00","-36.3","","-40.1","","69","","","","32","","27","","19.3","","100.79","","","","-53","","Ice Crystals,Blowing Snow"
"-105.14","69.11","CAMBRIDGE BAY A","2400601","2018-01-09 01:00","2018","01","09","01:00","-36.3","","-40.2","","69","","","","32","","24","","19.3","","100.84","","","","-52","","Ice Crystals,Blowing Snow"
"-105.14","69.11","CAMBRIDGE BAY A","2400601","2018-01-09 02:00","2018","01","09","02:00","-36.2","","-39.9","","69","","","","32","","19","","19.3","","100.82","","","","-51","","Ice Crystals,Blowing Snow"
"-105.14","69.11","CAMBRIDGE BAY A","2400601","2018-01-09 03:00","2018","01","09","03:00","-35.2","","-38.9","","70","","","","30","","12","","4.8","","100.85","","","","-46","","Ice Crystals"
"-105.14","69.11","CAMBRIDGE BAY A","2400601","2018-01-09 04:00","2018","01","09","04:00","-34.0","","-37.7","","70","","","","32","","16","","9.7","","100.84","","","","-47","","Ice Crystals"
"-105.14","69.11","CAMBRIDGE BAY A","2400601","2018-01-09 05:00","2018","01","09","05:00","-33.3","","-37.0","","71","","","","34","","21","","12.9","","100.83","","","","-48","","Ice Crystals"
"-105.14","69.11","CAMBRIDGE BAY A","2400601","2018-01-09 06:00","2018","01","09","06:00","-32.4","","-36.0","","71","","","","34","","20","","6.4","","100.82","","","","-46","","Ice Crystals"
"-105.14","69.11","CAMBRIDGE BAY A","2400601","2018-01-09 07:00","2018","01","09","07:00","-32.4","","-36.0","","71","","","","30","","16","","6.4","","100.83","","","","-45","","Ice Crystals"
"-105.14","69.11","CAMBRIDGE BAY A","2400601","2018-01-09 08:00","2018","01","09","08:00","-32.7","","-36.3","","71","","","","31","","25","","4.8","","100.85","","","","-48","","Ice Crystals,Blowing Snow"
"-105.14","69.11","CAMBRIDGE BAY A","2400601","2018-01-09 09:00","2018","01","09","09:00","-32.4","","-35.9","","71","","","","31","","19","","8.1","","100.82","","","","-46","","Ice Crystals,Blowing Snow"
"-105.14","69.11","CAMBRIDGE BAY A","2400601","2018-01-09 10:00","2018","01","09","10:00","-32.6","","-36.2","","71","","","","30","","18","","4.8","","100.87","","","","-46","","Ice Crystals,Blowing Snow"
"-105.14","69.11","CAMBRIDGE BAY A","2400601","2018-01-09 11:00","2018","01","09","11:00","-33.1","","-36.8","","71","","","","30","","21","","6.4","","100.86","","","","-47","","Ice Crystals,Fog"
"-105.14","69.11","CAMBRIDGE BAY A","2400601","2018-01-09 12:00","2018","01","09","12:00","-34.0","","-37.7","","70","","","","30","","22","","8.1","","100.86","","","","-49","","Ice Crystals,Fog"
"-105.14","69.11","CAMBRIDGE BAY A","2400601","2018-01-09 13:00","2018","01","09","13:00","-34.7","","-38.4","","70","","","","31","","14","","14.5","","100.86","","","","-47","","Ice Crystals"
"-105.14","69.11","CAMBRIDGE BAY A","2400601","2018-01-09 14:00","2018","01","09","14:00","-34.9","","-38.6","","70","","","","31","","21","","16.1","","100.88","","","","-50","","Ice Crystals"
"-105.14","69.11","CAMBRIDGE BAY A","2400601","2018-01-09 15:00","2018","01","09","15:00","-35.1","","-38.8","","70","","","","32","","22","","16.1","","100.90","","","","-50","","Ice Crystals"
"-105.14","69.11","CAMBRIDGE BAY A","2400601","2018-01-09 16:00","2018","01","09","16:00","-35.1","","-38.9","","70","","","","31","","19","","12.9","","100.90","","","","-49","","Ice Crystals,Blowing Snow"
"-105.14","69.11","CAMBRIDGE BAY A","2400601","2018-01-09 17:00","2018","01","09","17:00","-34.7","","-38.4","","70","","","","30","","21","","9.7","","100.94","","","","-49","","Ice Crystals,Blowing Snow"
"-105.14","69.11","CAMBRIDGE BAY A","2400601","2018-01-09 18:00","2018","01","09","18:00","-35.1","","-38.8","","70","","","","31","","23","","6.4","","100.91","","","","-50","","Ice Crystals,Blowing Snow"
"-105.14","69.11","CAMBRIDGE BAY A","2400601","2018-01-09 19:00","2018","01","09","19:00","-34.8","","-38.5","","70","","","","32","","22","","6.4","","100.88","","","","-50","","Ice Crystals,Blowing Snow"
"-105.14","69.11","CAMBRIDGE BAY A","2400601","2018-01-09 20:00","2018","01","09","20:00","-34.8","","-38.6","","70","","","","32","","21","","6.4","","100.90","","","","-49","","Ice Crystals,Blowing Snow"
"-105.14","69.11","CAMBRIDGE BAY A","2400601","2018-01-09 21:00","2018","01","09","21:00","-34.4","","-38.1","","70","","","","33","","26","","4.8","","100.89","","","","-50","","Ice Crystals,Blowing Snow"
"-105.14","69.11","CAMBRIDGE BAY A","2400601","2018-01-09 22:00","2018","01","09","22:00","-32.9","","-36.4","","72","","","","34","","25","","9.7","","100.91","","","","-48","","Ice Crystals,Blowing Snow"
"-105.14","69.11","CAMBRIDGE BAY A","2400601","2018-01-09 23:00","2018","01","09","23:00","-32.4","","-35.9","","71","","","","36","","25","","6.4","","100.91","","","","-48","","Ice Crystals,Blowing Snow"
"-105.14","69.11","CAMBRIDGE BAY A","2400601","2018-01-10 00:00","2018","01","10","00:00","-32.2","","-35.7","","72","","","","34","","21","","6.4","","100.89","","","","-46","","Ice Crystals,Blowing Snow"
"-105.14","69.11","CAMBRIDGE BAY A","2400601","2018-01-10 01:00","2018","01","10","01:00","-31.7","","-35.2","","72","","","","35","","25","","4.8","","100.88","","","","-47","","Ice Crystals,Blowing Snow"
"-105.14","69.11","CAMBRIDGE BAY A","2400601","2018-01-10 02:00","2018","01","10","02:00","-32.0","","-35.6","","71","","","","35","","25","","4.8","","100.92","","","","-47","","Ice Crystals,Blowing Snow"
"-105.14","69.11","CAMBRIDGE BAY A","2400601","2018-01-10 03:00","2018","01","10","03:00","-32.4","","-36.0","","71","","","","35","","14","","6.4","","100.96","","","","-44","","Ice Crystals"
"-105.14","69.11","CAMBRIDGE BAY A","2400601","2018-01-10 04:00","2018","01","10","04:00","-31.9","","-35.4","","72","","","","34","","16","","4.8","","101.00","","","","-44","","Ice Crystals"
"-105.14","69.11","CAMBRIDGE BAY A","2400601","2018-01-10 05:00","2018","01","10","05:00","-31.8","","-35.4","","72","","","","35","","15","","4.8","","100.98","","","","-44","","Ice Crystals"
"-105.14","69.11","CAMBRIDGE BAY A","2400601","2018-01-10 06:00","2018","01","10","06:00","-31.8","","-35.3","","72","","","","34","","18","","4.8","","101.02","","","","-45","","Ice Crystals"
"-105.14","69.11","CAMBRIDGE BAY A","2400601","2018-01-10 07:00","2018","01","10","07:00","-31.2","","-34.6","","72","","","","35","","22","","4.8","","101.00","","","","-45","","Ice Crystals"
"-105.14","69.11","CAMBRIDGE BAY A","2400601","2018-01-10 08:00","2018","01","10","08:00","-31.6","","-35.1","","72","","","","34","","24","","4.0","","101.01","","","","-46","","Ice Crystals,Blowing Snow"
"-105.14","69.11","CAMBRIDGE BAY A","2400601","2018-01-10 09:00","2018","01","10","09:00","-31.5","","-35.0","","72","","","","34","","19","","4.0","","101.02","","","","-45","","Snow"
"-105.14","69.11","CAMBRIDGE BAY A","2400601","2018-01-10 10:00","2018","01","10","10:00","-31.5","","-35.0","","72","","","","1","","25","","4.0","","100.99","","","","-46","","Ice Crystals,Blowing Snow"
"-105.14","69.11","CAMBRIDGE BAY A","2400601","2018-01-10 11:00","2018","01","10","11:00","-32.3","","-35.8","","71","","","","36","","23","","1.2","","101.00","","","","-47","","Ice Crystals,Blowing Snow"
"-105.14","69.11","CAMBRIDGE BAY A","2400601","2018-01-10 12:00","2018","01","10","12:00","-31.8","","-35.3","","72","","","","35","","24","","1.0","","100.97","","","","-47","","Ice Crystals,Blowing Snow"
"-105.14","69.11","CAMBRIDGE BAY A","2400601","2018-01-10 13:00","2018","01","10","13:00","-33.1","","-36.6","","71","","","","29","","20","","1.6","","101.03","","","","-47","","Ice Crystals,Blowing Snow"
"-105.14","69.11","CAMBRIDGE BAY A","2400601","2018-01-10 14:00","2018","01","10","14:00","-33.2","","-36.7","","71","","","","31","","22","","1.0","","101.01","","","","-48","","Ice Crystals,Blowing Snow"
"-105.14","69.11","CAMBRIDGE BAY A","2400601","2018-01-10 15:00","2018","01","10","15:00","-33.5","","-37.1","","71","","","","33","","33","","1.2","","101.00","","","","-51","","Ice Crystals,Blowing Snow"
"-105.14","69.11","CAMBRIDGE BAY A","2400601","2018-01-10 16:00","2018","01","10","16:00","-32.7","","-36.3","","71","","","","33","","34","","2.8","","101.00","","","","-50","","Ice Crystals,Blowing Snow"
"-105.14","69.11","CAMBRIDGE BAY A","2400601","2018-01-10 17:00","2018","01","10","17:00","-31.9","","-35.5","","72","","","","32","","34","","2.4","","100.97","","","","-49","","Ice Crystals,Blowing Snow"
"-105.14","69.11","CAMBRIDGE BAY A","2400601","2018-01-10 18:00","2018","01","10","18:00","-31.1","","-34.5","","73","","","","33","","33","","1.6","","100.95","","","","-48","","Ice Crystals,Blowing Snow"
"-105.14","69.11","CAMBRIDGE BAY A","2400601","2018-01-10 19:00","2018","01","10","19:00","-30.0","","-33.3","","74","","","","33","","27","","0.8","","100.94","","","","-45","","Ice Crystals,Blowing Snow"
"-105.14","69.11","CAMBRIDGE BAY A","2400601","2018-01-10 20:00","2018","01","10","20:00","-29.6","","-33.0","","73","","","","34","","35","","0.6","","100.86","","","","-46","","Ice Crystals,Blowing Snow"
"-105.14","69.11","CAMBRIDGE BAY A","2400601","2018-01-10 21:00","2018","01","10","21:00","-29.6","","-32.9","","74","","","","34","","39","","0.8","","100.85","","","","-47","","Ice Crystals,Blowing Snow"
"-105.14","69.11","CAMBRIDGE BAY A","2400601","2018-01-10 22:00","2018","01","10","22:00","-30.7","","-34.2","","72","","","","33","","31","","3.2","","100.86","","","","-47","","Ice Crystals,Blowing Snow"
"-105.14","69.11","CAMBRIDGE BAY A","2400601","2018-01-10 23:00","2018","01","10","23:00","-30.0","","-33.3","","74","","","","33","","25","","1.0","","100.83","","","","-44","","Ice Crystals,Blowing Snow"
"-105.14","69.11","CAMBRIDGE BAY A","2400601","2018-01-11 00:00","2018","01","11","00:00","-28.8","","-32.0","","75","","","","35","","28","","0.6","","100.83","","","","-44","","Ice Crystals,Blowing Snow"
"-105.14","69.11","CAMBRIDGE BAY A","2400601","2018-01-11 01:00","2018","01","11","01:00","-27.4","","-30.6","","75","","","","34","","30","","0.6","","100.82","","","","-42","","Ice Crystals,Blowing Snow"
"-105.14","69.11","CAMBRIDGE BAY A","2400601","2018-01-11 02:00","2018","01","11","02:00","-26.5","","-29.6","","76","","","","33","","30","","1.0","","100.86","","","","-41","","Ice Crystals,Blowing Snow"
"-105.14","69.11","CAMBRIDGE BAY A","2400601","2018-01-11 03:00","2018","01","11","03:00","-25.2","","-28.1","","77","","","","35","","29","","1.0","","100.86","","","","-39","","Snow,Blowing Snow"
"-105.14","69.11","CAMBRIDGE BAY A","2400601","2018-01-11 04:00","2018","01","11","04:00","-24.5","","-27.5","","77","","","","36","","37","","1.0","","100.82","","","","-40","","Ice Crystals,Blowing Snow"
"-105.14","69.11","CAMBRIDGE BAY A","2400601","2018-01-11 05:00","2018","01","11","05:00","-23.6","","-26.5","","78","","","","34","","44","","0.4","","100.77","","","","-40","","Snow,Blowing Snow"
"-105.14","69.11","CAMBRIDGE BAY A","2400601","2018-01-11 06:00","2018","01","11","06:00","-22.7","","-25.5","","79","","","","34","","37","","0.4","","100.79","","","","-37","","Snow,Blowing Snow"
"-105.14","69.11","CAMBRIDGE BAY A","2400601","2018-01-11 07:00","2018","01","11","07:00","-22.8","","-25.5","","79","","","","34","","48","","0.2","","100.79","","","","-39","","Snow,Blowing Snow"
"-105.14","69.11","CAMBRIDGE BAY A","2400601","2018-01-11 08:00","2018","01","11","08:00","-22.6","","-25.4","","79","","","","34","","40","","0.2","","100.84","","","","-38","","Snow,Blowing Snow"
"-105.14","69.11","CAMBRIDGE BAY A","2400601","2018-01-11 09:00","2018","01","11","09:00","-23.0","","-25.8","","78","","","","34","","44","","0.4","","100.85","","","","-39","","Snow,Blowing Snow"
"-105.14","69.11","CAMBRIDGE BAY A","2400601","2018-01-11 10:00","2018","01","11","10:00","-23.9","","-26.7","","78","","","","34","","32","","0.4","","100.93","","","","-38","","Snow,Blowing Snow"
"-105.14","69.11","CAMBRIDGE BAY A","2400601","2018-01-11 11:00","2018","01","11","11:00","-24.1","","-27.0","","78","","","","35","","28","","0.6","","100.92","","","","-38","","Blowing Snow"
"-105.14","69.11","CAMBRIDGE BAY A","2400601","2018-01-11 12:00","2018","01","11","12:00","-24.0","","-27.0","","77","","","","35","","26","","2.0","","100.93","","","","-37","","Blowing Snow"
"-105.14","69.11","CAMBRIDGE BAY A","2400601","2018-01-11 13:00","2018","01","11","13:00","-25.0","","-28.1","","76","","","","33","","30","","4.0","","100.98","","","","-39","","Blowing Snow"
"-105.14","69.11","CAMBRIDGE BAY A","2400601","2018-01-11 14:00","2018","01","11","14:00","-26.1","","-29.3","","75","","","","32","","31","","4.0","","101.01","","","","-41","","Blowing Snow"
"-105.14","69.11","CAMBRIDGE BAY A","2400601","2018-01-11 15:00","2018","01","11","15:00","-26.1","","-29.2","","76","","","","30","","22","","24.1","","101.04","","","","-39","","Blowing Snow"
"-105.14","69.11","CAMBRIDGE BAY A","2400601","2018-01-11 16:00","2018","01","11","16:00","-22.5","","-25.4","","78","","","","30","","25","","24.1","","101.02","","","","-35","","Blowing Snow"
"-105.14","69.11","CAMBRIDGE BAY A","2400601","2018-01-11 17:00","2018","01","11","17:00","-21.7","","-24.5","","78","","","","32","","32","","2.4","","100.98","","","","-35","","Snow,Blowing Snow"
"-105.14","69.11","CAMBRIDGE BAY A","2400601","2018-01-11 18:00","2018","01","11","18:00","-21.3","","-24.3","","77","","","","30","","28","","6.4","","100.98","","","","-34","","Snow,Blowing Snow"
"-105.14","69.11","CAMBRIDGE BAY A","2400601","2018-01-11 19:00","2018","01","11","19:00","-20.6","","-23.5","","78","","","","31","","26","","6.4","","100.95","","","","-33","","Snow,Blowing Snow"
"-105.14","69.11","CAMBRIDGE BAY A","2400601","2018-01-11 20:00","2018","01","11","20:00","-20.4","","-23.1","","80","","","","31","","39","","4.8","","100.85","","","","-35","","Snow,Blowing Snow"
"-105.14","69.11","CAMBRIDGE BAY A","2400601","2018-01-11 21:00","2018","01","11","21:00","-20.6","","-23.4","","79","","","","31","","41","","1.6","","100.83","","","","-35","","Snow,Blowing Snow"
"-105.14","69.11","CAMBRIDGE BAY A","2400601","2018-01-11 22:00","2018","01","11","22:00","-22.5","","-25.5","","77","","","","31","","38","","2.0","","100.82","","","","-37","","Snow,Blowing Snow"
"-105.14","69.11","CAMBRIDGE BAY A","2400601","2018-01-11 23:00","2018","01","11","23:00","-24.0","","-27.0","","77","","","","31","","37","","2.0","","100.82","","","","-39","","Snow,Blowing Snow"
"-105.14","69.11","CAMBRIDGE BAY A","2400601","2018-01-12 00:00","2018","01","12","00:00","-24.2","","-27.2","","77","","","","31","","39","","2.0","","100.81","","","","-40","","Snow,Blowing Snow"
"-105.14","69.11","CAMBRIDGE BAY A","2400601","2018-01-12 01:00","2018","01","12","01:00","-24.1","","-26.9","","78","","","","31","","39","","4.0","","100.80","","","","-39","","Blowing Snow"
"-105.14","69.11","CAMBRIDGE BAY A","2400601","2018-01-12 02:00","2018","01","12","02:00","-22.3","","-25.0","","79","","","","30","","39","","4.0","","100.84","","","","-37","","Blowing Snow"
"-105.14","69.11","CAMBRIDGE BAY A","2400601","2018-01-12 03:00","2018","01","12","03:00","-21.7","","-24.5","","79","","","","31","","42","","4.0","","100.77","","","","-37","","Blowing Snow"
"-105.14","69.11","CAMBRIDGE BAY A","2400601","2018-01-12 04:00","2018","01","12","04:00","-23.6","","-26.4","","78","","","","29","","32","","4.0","","100.79","","","","-38","","Blowing Snow"
"-105.14","69.11","CAMBRIDGE BAY A","2400601","2018-01-12 05:00","2018","01","12","05:00","-23.5","","-26.3","","79","","","","30","","29","","4.8","","100.77","","","","-37","","Blowing Snow"
"-105.14","69.11","CAMBRIDGE BAY A","2400601","2018-01-12 06:00","2018","01","12","06:00","-23.1","","-25.8","","79","","","","30","","36","","6.4","","100.73","","","","-38","","Blowing Snow"
"-105.14","69.11","CAMBRIDGE BAY A","2400601","2018-01-12 07:00","2018","01","12","07:00","-22.1","","-24.8","","79","","","","31","","38","","6.4","","100.70","","","","-37","","Blowing Snow"
"-105.14","69.11","CAMBRIDGE BAY A","2400601","2018-01-12 08:00","2018","01","12","08:00","-22.0","","-24.9","","78","","","","31","","40","","6.4","","100.70","","","","-37","","Blowing Snow"
"-105.14","69.11","CAMBRIDGE BAY A","2400601","2018-01-12 09:00","2018","01","12","09:00","-22.7","","-25.6","","78","","","","31","","30","","6.4","","100.73","","","","-36","","Blowing Snow"
"-105.14","69.11","CAMBRIDGE BAY A","2400601","2018-01-12 10:00","2018","01","12","10:00","-23.5","","-26.5","","77","","","","30","","28","","16.1","","100.77","","","","-37","","Blowing Snow"
"-105.14","69.11","CAMBRIDGE BAY A","2400601","2018-01-12 11:00","2018","01","12","11:00","-23.6","","-26.5","","77","","","","29","","35","","4.0","","100.73","","","","-38","","Blowing Snow"
"-105.14","69.11","CAMBRIDGE BAY A","2400601","2018-01-12 12:00","2018","01","12","12:00","-22.7","","-25.4","","79","","","","30","","34","","9.7","","100.70","","","","-37","","Blowing Snow"
"-105.14","69.11","CAMBRIDGE BAY A","2400601","2018-01-12 13:00","2018","01","12","13:00","-22.3","","-25.0","","79","","","","30","","37","","3.6","","100.66","","","","-37","","Blowing Snow"
"-105.14","69.11","CAMBRIDGE BAY A","2400601","2018-01-12 14:00","2018","01","12","14:00","-20.9","","-23.5","","80","","","","30","","36","","1.2","","100.62","","","","-35","","Blowing Snow"
"-105.14","69.11","CAMBRIDGE BAY A","2400601","2018-01-12 15:00","2018","01","12","15:00","-20.6","","-23.3","","80","","","","30","","35","","1.6","","100.61","","","","-34","","Blowing Snow"
"-105.14","69.11","CAMBRIDGE BAY A","2400601","2018-01-12 16:00","2018","01","12","16:00","-21.1","","-23.9","","78","","","","30","","34","","2.8","","100.61","","","","-35","","Blowing Snow"
"-105.14","69.11","CAMBRIDGE BAY A","2400601","2018-01-12 17:00","2018","01","12","17:00","-21.9","","-24.8","","78","","","","30","","34","","4.8","","100.61","","","","-36","","Blowing Snow"
"-105.14","69.11","CAMBRIDGE BAY A","2400601","2018-01-12 18:00","2018","01","12","18:00","-22.7","","-25.6","","77","","","","30","","27","","9.7","","100.60","","","","-36","","Blowing Snow"
"-105.14","69.11","CAMBRIDGE BAY A","2400601","2018-01-12 19:00","2018","01","12","19:00","-24.6","","-27.6","","76","","","","29","","22","","9.7","","100.57","","","","-37","","Blowing Snow"
"-105.14","69.11","CAMBRIDGE BAY A","2400601","2018-01-12 20:00","2018","01","12","20:00","-25.3","","-28.3","","76","","","","29","","31","","9.7","","100.52","","","","-40","","Blowing Snow"
"-105.14","69.11","CAMBRIDGE BAY A","2400601","2018-01-12 21:00","2018","01","12","21:00","-25.6","","-28.7","","76","","","","29","","32","","9.7","","100.46","","","","-40","","Blowing Snow"
"-105.14","69.11","CAMBRIDGE BAY A","2400601","2018-01-12 22:00","2018","01","12","22:00","-26.6","","-29.7","","76","","","","28","","24","","12.9","","100.42","","","","-40","","Blowing Snow"
"-105.14","69.11","CAMBRIDGE BAY A","2400601","2018-01-12 23:00","2018","01","12","23:00","-26.1","","-29.1","","77","","","","29","","22","","16.1","","100.41","","","","-39","","Blowing Snow"
"-105.14","69.11","CAMBRIDGE BAY A","2400601","2018-01-13 00:00","2018","01","13","00:00","-25.2","","-28.1","","77","","","","30","","26","","16.1","","100.40","","","","-39","","Blowing Snow"
"-105.14","69.11","CAMBRIDGE BAY A","2400601","2018-01-13 01:00","2018","01","13","01:00","-25.4","","-28.3","","77","","","","30","","29","","16.1","","100.37","","","","-39","","Blowing Snow"
"-105.14","69.11","CAMBRIDGE BAY A","2400601","2018-01-13 02:00","2018","01","13","02:00","-25.6","","-28.6","","76","","","","30","","26","","19.3","","100.40","","","","-39","","Blowing Snow"
"-105.14","69.11","CAMBRIDGE BAY A","2400601","2018-01-13 03:00","2018","01","13","03:00","-25.7","","-28.5","","78","","","","29","","25","","19.3","","100.43","","","","-39","","Blowing Snow"
"-105.14","69.11","CAMBRIDGE BAY A","2400601","2018-01-13 04:00","2018","01","13","04:00","-27.5","","-30.7","","75","","","","30","","18","","19.3","","100.43","","","","-39","","Blowing Snow"
"-105.14","69.11","CAMBRIDGE BAY A","2400601","2018-01-13 05:00","2018","01","13","05:00","-27.1","","-30.3","","75","","","","30","","24","","19.3","","100.42","","","","-40","","Blowing Snow"
"-105.14","69.11","CAMBRIDGE BAY A","2400601","2018-01-13 06:00","2018","01","13","06:00","-27.8","","-31.1","","74","","","","30","","22","","16.1","","100.45","","","","-41","","Blowing Snow"
"-105.14","69.11","CAMBRIDGE BAY A","2400601","2018-01-13 07:00","2018","01","13","07:00","-25.5","","-28.6","","76","","","","34","","21","","16.1","","100.50","","","","-38","","Blowing Snow"
"-105.14","69.11","CAMBRIDGE BAY A","2400601","2018-01-13 08:00","2018","01","13","08:00","-24.3","","-27.4","","76","","","","33","","24","","12.9","","100.54","","","","-37","","Snow,Blowing Snow"
"-105.14","69.11","CAMBRIDGE BAY A","2400601","2018-01-13 09:00","2018","01","13","09:00","-23.4","","-26.2","","79","","","","32","","26","","4.8","","100.59","","","","-36","","Snow,Blowing Snow"
"-105.14","69.11","CAMBRIDGE BAY A","2400601","2018-01-13 10:00","2018","01","13","10:00","-22.8","","-25.5","","79","","","","32","","31","","0.8","","100.65","","","","-36","","Snow,Blowing Snow"
"-105.14","69.11","CAMBRIDGE BAY A","2400601","2018-01-13 11:00","2018","01","13","11:00","-23.1","","-25.9","","79","","","","33","","34","","0.0","","100.69","","","","-37","","Blowing Snow"
"-105.14","69.11","CAMBRIDGE BAY A","2400601","2018-01-13 12:00","2018","01","13","12:00","-23.4","","-26.1","","79","","","","34","","24","","0.2","","100.76","","","","-36","","Blowing Snow"
"-105.14","69.11","CAMBRIDGE BAY A","2400601","2018-01-13 13:00","2018","01","13","13:00","-23.2","","-26.0","","79","","","","32","","27","","0.4","","100.86","","","","-36","","Blowing Snow"
"-105.14","69.11","CAMBRIDGE BAY A","2400601","2018-01-13 14:00","2018","01","13","14:00","-23.8","","-26.6","","78","","","","32","","30","","0.0","","100.97","","","","-38","","Blowing Snow"
"-105.14","69.11","CAMBRIDGE BAY A","2400601","2018-01-13 15:00","2018","01","13","15:00","-24.0","","-26.9","","77","","","","32","","19","","2.8","","101.05","","","","-35","","Blowing Snow"
"-105.14","69.11","CAMBRIDGE BAY A","2400601","2018-01-13 16:00","2018","01","13","16:00","-23.7","","-26.4","","78","","","","32","","21","","4.8","","101.10","","","","-35","","Ice Crystals,Blowing Snow"
"-105.14","69.11","CAMBRIDGE BAY A","2400601","2018-01-13 17:00","2018","01","13","17:00","-23.0","","-25.9","","77","","","","34","","32","","0.8","","101.19","","","","-37","","Blowing Snow"
"-105.14","69.11","CAMBRIDGE BAY A","2400601","2018-01-13 18:00","2018","01","13","18:00","-24.7","","-27.9","","76","","","","36","","25","","3.2","","101.29","","","","-38","","Blowing Snow"
"-105.14","69.11","CAMBRIDGE BAY A","2400601","2018-01-13 19:00","2018","01","13","19:00","-26.1","","-29.5","","74","","","","35","","21","","4.0","","101.42","","","","-38","","Blowing Snow"
"-105.14","69.11","CAMBRIDGE BAY A","2400601","2018-01-13 20:00","2018","01","13","20:00","-27.4","","-30.8","","73","","","","35","","20","","9.7","","101.50","","","","-40","","Ice Crystals,Blowing Snow"
"-105.14","69.11","CAMBRIDGE BAY A","2400601","2018-01-13 21:00","2018","01","13","21:00","-27.7","","-31.1","","73","","","","34","","25","","4.8","","101.62","","","","-42","","Ice Crystals,Blowing Snow"
"-105.14","69.11","CAMBRIDGE BAY A","2400601","2018-01-13 22:00","2018","01","13","22:00","-28.3","","-31.9","","72","","","","32","","21","","4.8","","101.74","","","","-41","","Ice Crystals,Blowing Snow"
"-105.14","69.11","CAMBRIDGE BAY A","2400601","2018-01-13 23:00","2018","01","13","23:00","-27.8","","-31.1","","74","","","","33","","26","","12.9","","101.83","","","","-42","","Ice Crystals"
"-105.14","69.11","CAMBRIDGE BAY A","2400601","2018-01-14 00:00","2018","01","14","00:00","-28.1","","-31.5","","73","","","","32","","21","","4.8","","101.97","","","","-41","","Ice Crystals,Blowing Snow"
"-105.14","69.11","CAMBRIDGE BAY A","2400601","2018-01-14 01:00","2018","01","14","01:00","-27.3","","-30.6","","74","","","","31","","25","","11.3","","102.11","","","","-41","","Ice Crystals,Blowing Snow"
"-105.14","69.11","CAMBRIDGE BAY A","2400601","2018-01-14 02:00","2018","01","14","02:00","-26.7","","-29.9","","75","","","","32","","28","","9.7","","102.21","","","","-41","","Ice Crystals,Blowing Snow"
"-105.14","69.11","CAMBRIDGE BAY A","2400601","2018-01-14 03:00","2018","01","14","03:00","-26.5","","-29.5","","76","","","","30","","23","","9.7","","102.33","","","","-39","","Ice Crystals,Blowing Snow"
"-105.14","69.11","CAMBRIDGE BAY A","2400601","2018-01-14 04:00","2018","01","14","04:00","-24.9","","-27.8","","77","","","","28","","20","","12.9","","102.39","","","","-37","","Ice Crystals,Blowing Snow"
"-105.14","69.11","CAMBRIDGE BAY A","2400601","2018-01-14 05:00","2018","01","14","05:00","-26.6","","-29.9","","74","","","","30","","23","","14.5","","102.50","","","","-40","","Ice Crystals,Blowing Snow"
"-105.14","69.11","CAMBRIDGE BAY A","2400601","2018-01-14 06:00","2018","01","14","06:00","-25.6","","-28.6","","76","","","","33","","32","","4.8","","102.49","","","","-40","","Ice Crystals,Blowing Snow"
"-105.14","69.11","CAMBRIDGE BAY A","2400601","2018-01-14 07:00","2018","01","14","07:00","-25.8","","-28.9","","76","","","","32","","26","","6.4","","102.61","","","","-39","","Ice Crystals,Blowing Snow"
"-105.14","69.11","CAMBRIDGE BAY A","2400601","2018-01-14 08:00","2018","01","14","08:00","-26.2","","-29.3","","76","","","","28","","28","","11.3","","102.70","","","","-40","","Ice Crystals,Blowing Snow"
"-105.14","69.11","CAMBRIDGE BAY A","2400601","2018-01-14 09:00","2018","01","14","09:00","-26.2","","-29.4","","75","","","","30","","28","","12.9","","102.74","","","","-40","","Ice Crystals,Blowing Snow"
"-105.14","69.11","CAMBRIDGE BAY A","2400601","2018-01-14 10:00","2018","01","14","10:00","-25.5","","-28.6","","76","","","","31","","28","","16.1","","102.72","","","","-39","","Ice Crystals,Blowing Snow"
"-105.14","69.11","CAMBRIDGE BAY A","2400601","2018-01-14 11:00","2018","01","14","11:00","-25.7","","-28.9","","75","","","","25","","16","","16.1","","102.73","","","","-36","","Ice Crystals"
"-105.14","69.11","CAMBRIDGE BAY A","2400601","2018-01-14 12:00","2018","01","14","12:00","-25.7","","-29.0","","74","","","","29","","19","","16.1","","102.84","","","","-37","","Ice Crystals,Blowing Snow"
"-105.14","69.11","CAMBRIDGE BAY A","2400601","2018-01-14 13:00","2018","01","14","13:00","-26.9","","-30.1","","74","","","","29","","26","","16.1","","102.81","","","","-41","","Blowing Snow"
"-105.14","69.11","CAMBRIDGE BAY A","2400601","2018-01-14 14:00","2018","01","14","14:00","-26.5","","-29.8","","75","","","","29","","22","","16.1","","102.90","","","","-39","","Ice Crystals,Blowing Snow"
"-105.14","69.11","CAMBRIDGE BAY A","2400601","2018-01-14 15:00","2018","01","14","15:00","-26.0","","-29.2","","75","","","","29","","28","","16.1","","102.98","","","","-40","","Ice Crystals,Blowing Snow"
"-105.14","69.11","CAMBRIDGE BAY A","2400601","2018-01-14 16:00","2018","01","14","16:00","-26.3","","-29.6","","74","","","","31","","14","","16.1","","102.89","","","","-36","","Ice Crystals"
"-105.14","69.11","CAMBRIDGE BAY A","2400601","2018-01-14 17:00","2018","01","14","17:00","-25.6","","-28.8","","75","","","","34","","17","","16.1","","102.83","","","","-37","","Ice Crystals"
"-105.14","69.11","CAMBRIDGE BAY A","2400601","2018-01-14 18:00","2018","01","14","18:00","-24.9","","-28.1","","76","","","","26","","11","","16.1","","102.91","","","","-34","","Ice Crystals"
"-105.14","69.11","CAMBRIDGE BAY A","2400601","2018-01-14 19:00","2018","01","14","19:00","-24.6","","-27.6","","77","","","","28","","16","","16.1","","102.78","","","","-35","","Ice Crystals"
"-105.14","69.11","CAMBRIDGE BAY A","2400601","2018-01-14 20:00","2018","01","14","20:00","-24.5","","-27.4","","77","","","","30","","6","","16.1","","102.66","","","","-30","","Ice Crystals"
"-105.14","69.11","CAMBRIDGE BAY A","2400601","2018-01-14 21:00","2018","01","14","21:00","-24.3","","-27.2","","77","","","","20","","3","","16.1","","102.57","","","","-27","","Ice Crystals"
"-105.14","69.11","CAMBRIDGE BAY A","2400601","2018-01-14 22:00","2018","01","14","22:00","-23.9","","-27.1","","76","","","","17","","9","","17.7","","102.45","","","","-31","","Ice Crystals"
"-105.14","69.11","CAMBRIDGE BAY A","2400601","2018-01-14 23:00","2018","01","14","23:00","-22.8","","-25.7","","78","","","","14","","14","","17.7","","102.32","","","","-32","","Ice Crystals"
"-105.14","69.11","CAMBRIDGE BAY A","2400601","2018-01-15 00:00","2018","01","15","00:00","-22.2","","-25.1","","78","","","","17","","19","","17.7","","102.24","","","","-33","","Ice Crystals"
"-105.14","69.11","CAMBRIDGE BAY A","2400601","2018-01-15 01:00","2018","01","15","01:00","-21.3","","-24.3","","78","","","","14","","22","","16.1","","102.05","","","","-33","","Ice Crystals,Blowing Snow"
"-105.14","69.11","CAMBRIDGE BAY A","2400601","2018-01-15 02:00","2018","01","15","02:00","-19.6","","-22.7","","77","","","","14","","26","","17.7","","101.88","","","","-31","","Blowing Snow"
"-105.14","69.11","CAMBRIDGE BAY A","2400601","2018-01-15 03:00","2018","01","15","03:00","-19.0","","-21.6","","80","","","","15","","32","","16.1","","101.68","","","","-32","","Blowing Snow"
"-105.14","69.11","CAMBRIDGE BAY A","2400601","2018-01-15 04:00","2018","01","15","04:00","-18.5","","-20.7","","83","","","","15","","36","","3.2","","101.49","","","","-32","","Blowing Snow"
"-105.14","69.11","CAMBRIDGE BAY A","2400601","2018-01-15 05:00","2018","01","15","05:00","-18.6","","-20.9","","83","","","","13","","37","","4.0","","101.31","","","","-32","","Snow,Blowing Snow"
"-105.14","69.11","CAMBRIDGE BAY A","2400601","2018-01-15 06:00","2018","01","15","06:00","-17.7","","-19.8","","83","","","","14","","40","","1.2","","101.15","","","","-31","","Snow,Blowing Snow"
"-105.14","69.11","CAMBRIDGE BAY A","2400601","2018-01-15 07:00","2018","01","15","07:00","-16.6","","-18.6","","85","","","","15","","45","","0.8","","100.88","","","","-30","","Snow,Blowing Snow"
"-105.14","69.11","CAMBRIDGE BAY A","2400601","2018-01-15 08:00","2018","01","15","08:00","-15.9","","-17.9","","85","","","","13","","34","","2.0","","100.81","","","","-28","","Snow,Blowing Snow"
"-105.14","69.11","CAMBRIDGE BAY A","2400601","2018-01-15 09:00","2018","01","15","09:00","-14.9","","-16.8","","86","","","","13","","30","","8.1","","100.63","","","","-26","","Snow,Blowing Snow"
"-105.14","69.11","CAMBRIDGE BAY A","2400601","2018-01-15 10:00","2018","01","15","10:00","-14.7","","-16.6","","85","","","","14","","25","","8.1","","100.58","","","","-25","","Snow,Blowing Snow"
"-105.14","69.11","CAMBRIDGE BAY A","2400601","2018-01-15 11:00","2018","01","15","11:00","-14.7","","-16.8","","84","","","","14","","22","","8.1","","100.53","","","","-24","","Fog,Blowing Snow"
"-105.14","69.11","CAMBRIDGE BAY A","2400601","2018-01-15 12:00","2018","01","15","12:00","-14.7","","-16.9","","84","","","","13","","20","","12.9","","100.52","","","","-24","","Blowing Snow"
"-105.14","69.11","CAMBRIDGE BAY A","2400601","2018-01-15 13:00","2018","01","15","13:00","-15.0","","-17.1","","84","","","","10","","17","","16.1","","100.48","","","","-23","","NA"
"-105.14","69.11","CAMBRIDGE BAY A","2400601","2018-01-15 14:00","2018","01","15","14:00","-15.8","","-17.9","","84","","","","10","","20","","19.3","","100.46","","","","-25","","Mostly Cloudy"
"-105.14","69.11","CAMBRIDGE BAY A","2400601","2018-01-15 15:00","2018","01","15","15:00","-16.0","","-18.1","","83","","","","10","","14","","19.3","","100.52","","","","-24","","NA"
"-105.14","69.11","CAMBRIDGE BAY A","2400601","2018-01-15 16:00","2018","01","15","16:00","-17.4","","-19.5","","83","","","","7","","18","","19.3","","100.36","","","","-27","","Blowing Snow"
"-105.14","69.11","CAMBRIDGE BAY A","2400601","2018-01-15 17:00","2018","01","15","17:00","-18.7","","-20.9","","84","","","","7","","9","","19.3","","100.51","","","","-25","","Ice Crystals"
"-105.14","69.11","CAMBRIDGE BAY A","2400601","2018-01-15 18:00","2018","01","15","18:00","-19.1","","-21.3","","83","","","","7","","13","","19.3","","100.55","","","","-27","","Ice Crystals"
"-105.14","69.11","CAMBRIDGE BAY A","2400601","2018-01-15 19:00","2018","01","15","19:00","-18.4","","-20.7","","83","","","","9","","13","","19.3","","100.55","","","","-26","","Ice Crystals"
"-105.14","69.11","CAMBRIDGE BAY A","2400601","2018-01-15 20:00","2018","01","15","20:00","-18.3","","-20.5","","83","","","","8","","15","","19.3","","100.41","","","","-27","","Ice Crystals"
"-105.14","69.11","CAMBRIDGE BAY A","2400601","2018-01-15 21:00","2018","01","15","21:00","-18.4","","-20.7","","83","","","","9","","15","","19.3","","100.37","","","","-27","","Ice Crystals"
"-105.14","69.11","CAMBRIDGE BAY A","2400601","2018-01-15 22:00","2018","01","15","22:00","-18.1","","-20.3","","83","","","","6","","12","","19.3","","100.42","","","","-26","","Ice Crystals"
"-105.14","69.11","CAMBRIDGE BAY A","2400601","2018-01-15 23:00","2018","01","15","23:00","-17.9","","-20.2","","82","","","","6","","14","","20.9","","100.49","","","","-26","","Ice Crystals"
"-105.14","69.11","CAMBRIDGE BAY A","2400601","2018-01-16 00:00","2018","01","16","00:00","-18.2","","-20.5","","82","","","","8","","18","","19.3","","100.50","","","","-28","","Ice Crystals"
"-105.14","69.11","CAMBRIDGE BAY A","2400601","2018-01-16 01:00","2018","01","16","01:00","-18.0","","-20.3","","82","","","","7","","24","","19.3","","100.46","","","","-29","","Ice Crystals"
"-105.14","69.11","CAMBRIDGE BAY A","2400601","2018-01-16 02:00","2018","01","16","02:00","-18.7","","-21.0","","82","","","","7","","22","","19.3","","100.47","","","","-29","","Ice Crystals"
"-105.14","69.11","CAMBRIDGE BAY A","2400601","2018-01-16 03:00","2018","01","16","03:00","-19.9","","-22.3","","82","","","","7","","14","","19.3","","100.55","","","","-29","","Ice Crystals"
"-105.14","69.11","CAMBRIDGE BAY A","2400601","2018-01-16 04:00","2018","01","16","04:00","-20.3","","-22.7","","81","","","","6","","16","","19.3","","100.62","","","","-30","","Ice Crystals"
"-105.14","69.11","CAMBRIDGE BAY A","2400601","2018-01-16 05:00","2018","01","16","05:00","-21.6","","-24.1","","81","","","","5","","16","","19.3","","100.67","","","","-31","","Ice Crystals"
"-105.14","69.11","CAMBRIDGE BAY A","2400601","2018-01-16 06:00","2018","01","16","06:00","-22.7","","-25.2","","80","","","","4","","12","","19.3","","100.74","","","","-31","","Ice Crystals"
"-105.14","69.11","CAMBRIDGE BAY A","2400601","2018-01-16 07:00","2018","01","16","07:00","-22.9","","-25.3","","81","","","","3","","18","","19.3","","100.78","","","","-34","","Ice Crystals"
"-105.14","69.11","CAMBRIDGE BAY A","2400601","2018-01-16 08:00","2018","01","16","08:00","-23.7","","-26.2","","80","","","","4","","16","","19.3","","100.80","","","","-34","","Ice Crystals"
"-105.14","69.11","CAMBRIDGE BAY A","2400601","2018-01-16 09:00","2018","01","16","09:00","-23.8","","-26.3","","80","","","","4","","17","","19.3","","100.85","","","","-34","","Ice Crystals"
"-105.14","69.11","CAMBRIDGE BAY A","2400601","2018-01-16 10:00","2018","01","16","10:00","-24.2","","-26.8","","79","","","","5","","19","","16.1","","100.93","","","","-36","","Ice Crystals"
"-105.14","69.11","CAMBRIDGE BAY A","2400601","2018-01-16 11:00","2018","01","16","11:00","-24.2","","-26.7","","80","","","","7","","14","","19.3","","101.00","","","","-34","","Ice Crystals"
"-105.14","69.11","CAMBRIDGE BAY A","2400601","2018-01-16 12:00","2018","01","16","12:00","-25.8","","-28.6","","78","","","","4","","10","","19.3","","101.03","","","","-34","","Ice Crystals"
"-105.14","69.11","CAMBRIDGE BAY A","2400601","2018-01-16 13:00","2018","01","16","13:00","-25.9","","-28.7","","78","","","","2","","9","","24.1","","101.08","","","","-34","","Ice Crystals"
"-105.14","69.11","CAMBRIDGE BAY A","2400601","2018-01-16 14:00","2018","01","16","14:00","-26.4","","-29.2","","78","","","","3","","12","","24.1","","101.12","","","","-36","","Ice Crystals"
"-105.14","69.11","CAMBRIDGE BAY A","2400601","2018-01-16 15:00","2018","01","16","15:00","-26.3","","-29.2","","77","","","","3","","11","","24.1","","101.18","","","","-35","","Ice Crystals"
"-105.14","69.11","CAMBRIDGE BAY A","2400601","2018-01-16 16:00","2018","01","16","16:00","-27.0","","-29.9","","77","","","","3","","13","","24.1","","101.26","","","","-37","","Ice Crystals"
"-105.14","69.11","CAMBRIDGE BAY A","2400601","2018-01-16 17:00","2018","01","16","17:00","-26.4","","-29.2","","78","","","","3","","7","","16.1","","101.25","","","","-33","","Ice Crystals"
"-105.14","69.11","CAMBRIDGE BAY A","2400601","2018-01-16 18:00","2018","01","16","18:00","-27.3","","-30.2","","77","","","","3","","11","","19.3","","101.27","","","","-36","","Ice Crystals"
"-105.14","69.11","CAMBRIDGE BAY A","2400601","2018-01-16 19:00","2018","01","16","19:00","-27.0","","-29.8","","78","","","","3","","11","","24.1","","101.28","","","","-36","","Ice Crystals"
"-105.14","69.11","CAMBRIDGE BAY A","2400601","2018-01-16 20:00","2018","01","16","20:00","-27.5","","-30.1","","79","","","","4","","12","","19.3","","101.29","","","","-37","","Ice Crystals"
"-105.14","69.11","CAMBRIDGE BAY A","2400601","2018-01-16 21:00","2018","01","16","21:00","-26.2","","-28.9","","79","","","","2","","10","","0.8","","101.30","","","","-35","","Freezing Fog"
"-105.14","69.11","CAMBRIDGE BAY A","2400601","2018-01-16 22:00","2018","01","16","22:00","-26.0","","-28.8","","78","","","","5","","10","","4.0","","101.26","","","","-34","","Snow,Fog"
"-105.14","69.11","CAMBRIDGE BAY A","2400601","2018-01-16 23:00","2018","01","16","23:00","-24.1","","-26.8","","79","","","","8","","9","","16.1","","101.27","","","","-32","","Snow"
"-105.14","69.11","CAMBRIDGE BAY A","2400601","2018-01-17 00:00","2018","01","17","00:00","-22.7","","-25.3","","80","","","","12","","11","","19.3","","101.23","","","","-31","","Snow"
"-105.14","69.11","CAMBRIDGE BAY A","2400601","2018-01-17 01:00","2018","01","17","01:00","-22.3","","-24.8","","80","","","","12","","9","","19.3","","101.27","","","","-29","","Ice Crystals"
"-105.14","69.11","CAMBRIDGE BAY A","2400601","2018-01-17 02:00","2018","01","17","02:00","-21.9","","-24.4","","80","","","","10","","9","","19.3","","101.31","","","","-29","","Ice Crystals"
"-105.14","69.11","CAMBRIDGE BAY A","2400601","2018-01-17 03:00","2018","01","17","03:00","-21.8","","-24.4","","80","","","","9","","9","","19.3","","101.31","","","","-29","","Ice Crystals"
"-105.14","69.11","CAMBRIDGE BAY A","2400601","2018-01-17 04:00","2018","01","17","04:00","-21.5","","-24.0","","81","","","","4","","9","","19.3","","101.34","","","","-29","","Snow"
"-105.14","69.11","CAMBRIDGE BAY A","2400601","2018-01-17 05:00","2018","01","17","05:00","-20.8","","-23.2","","81","","","","9","","8","","19.3","","101.31","","","","-27","","Snow"
"-105.14","69.11","CAMBRIDGE BAY A","2400601","2018-01-17 06:00","2018","01","17","06:00","-20.7","","-23.1","","81","","","","9","","9","","19.3","","101.31","","","","-28","","Snow"
"-105.14","69.11","CAMBRIDGE BAY A","2400601","2018-01-17 07:00","2018","01","17","07:00","-21.2","","-23.6","","81","","","","6","","12","","19.3","","101.29","","","","-29","","Snow"
"-105.14","69.11","CAMBRIDGE BAY A","2400601","2018-01-17 08:00","2018","01","17","08:00","-21.2","","-23.6","","81","","","","10","","14","","19.3","","101.24","","","","-30","","Snow"
"-105.14","69.11","CAMBRIDGE BAY A","2400601","2018-01-17 09:00","2018","01","17","09:00","-21.2","","-23.6","","81","","","","9","","11","","19.3","","101.23","","","","-29","","Snow"
"-105.14","69.11","CAMBRIDGE BAY A","2400601","2018-01-17 10:00","2018","01","17","10:00","-22.6","","-25.1","","80","","","","10","","16","","24.1","","101.23","","","","-33","","Snow"
"-105.14","69.11","CAMBRIDGE BAY A","2400601","2018-01-17 11:00","2018","01","17","11:00","-23.2","","-25.8","","80","","","","7","","9","","24.1","","101.26","","","","-31","","Mostly Cloudy"
"-105.14","69.11","CAMBRIDGE BAY A","2400601","2018-01-17 12:00","2018","01","17","12:00","-25.2","","-28.0","","78","","","","5","","13","","24.1","","101.26","","","","-35","","NA"
"-105.14","69.11","CAMBRIDGE BAY A","2400601","2018-01-17 13:00","2018","01","17","13:00","-22.6","","-24.9","","81","","","","7","","14","","24.1","","101.24","","","","-32","","NA"
"-105.14","69.11","CAMBRIDGE BAY A","2400601","2018-01-17 14:00","2018","01","17","14:00","-22.9","","-25.5","","80","","","","7","","15","","24.1","","101.24","","","","-33","","Mostly Cloudy"
"-105.14","69.11","CAMBRIDGE BAY A","2400601","2018-01-17 15:00","2018","01","17","15:00","-24.1","","-26.8","","79","","","","9","","13","","24.1","","101.25","","","","-33","","NA"
"-105.14","69.11","CAMBRIDGE BAY A","2400601","2018-01-17 16:00","2018","01","17","16:00","-24.1","","-26.8","","79","","","","5","","10","","24.1","","101.29","","","","-32","","Ice Crystals"
"-105.14","69.11","CAMBRIDGE BAY A","2400601","2018-01-17 17:00","2018","01","17","17:00","-24.1","","-26.8","","79","","","","4","","12","","19.3","","101.30","","","","-33","","Ice Crystals"
"-105.14","69.11","CAMBRIDGE BAY A","2400601","2018-01-17 18:00","2018","01","17","18:00","-22.8","","-25.4","","80","","","","8","","14","","19.3","","101.25","","","","-32","","Ice Crystals"
"-105.14","69.11","CAMBRIDGE BAY A","2400601","2018-01-17 19:00","2018","01","17","19:00","-23.3","","-25.8","","80","","","","8","","16","","19.3","","101.19","","","","-33","","Ice Crystals"
"-105.14","69.11","CAMBRIDGE BAY A","2400601","2018-01-17 20:00","2018","01","17","20:00","-23.8","","-26.4","","79","","","","4","","10","","19.3","","101.21","","","","-32","","Ice Crystals"
"-105.14","69.11","CAMBRIDGE BAY A","2400601","2018-01-17 21:00","2018","01","17","21:00","-23.3","","-25.9","","79","","","","5","","5","","19.3","","101.17","","","","-28","","Ice Crystals"
"-105.14","69.11","CAMBRIDGE BAY A","2400601","2018-01-17 22:00","2018","01","17","22:00","-24.8","","-27.6","","78","","","","5","","15","","19.3","","101.18","","","","-35","","Ice Crystals"
"-105.14","69.11","CAMBRIDGE BAY A","2400601","2018-01-17 23:00","2018","01","17","23:00","-27.3","","-30.2","","77","","","","5","","9","","19.3","","101.18","","","","-35","","Ice Crystals"
"-105.14","69.11","CAMBRIDGE BAY A","2400601","2018-01-18 00:00","2018","01","18","00:00","-26.9","","-29.9","","77","","","","5","","9","","19.3","","101.18","","","","-35","","Ice Crystals"
"-105.14","69.11","CAMBRIDGE BAY A","2400601","2018-01-18 01:00","2018","01","18","01:00","-29.1","","-32.3","","75","","","","4","","13","","20.9","","101.20","","","","-39","","Ice Crystals"
"-105.14","69.11","CAMBRIDGE BAY A","2400601","2018-01-18 02:00","2018","01","18","02:00","-30.0","","-33.1","","75","","","","3","","20","","22.5","","101.15","","","","-43","","Ice Crystals"
"-105.14","69.11","CAMBRIDGE BAY A","2400601","2018-01-18 03:00","2018","01","18","03:00","-30.1","","-33.3","","75","","","","4","","13","","24.1","","101.13","","","","-41","","Ice Crystals"
"-105.14","69.11","CAMBRIDGE BAY A","2400601","2018-01-18 04:00","2018","01","18","04:00","-30.5","","-33.7","","74","","","","4","","12","","24.1","","101.13","","","","-41","","Ice Crystals"
"-105.14","69.11","CAMBRIDGE BAY A","2400601","2018-01-18 05:00","2018","01","18","05:00","-30.5","","-33.6","","74","","","","3","","11","","24.1","","101.13","","","","-40","","Ice Crystals"
"-105.14","69.11","CAMBRIDGE BAY A","2400601","2018-01-18 06:00","2018","01","18","06:00","-32.2","","-35.5","","73","","","","3","","17","","24.1","","101.10","","","","-45","","Ice Crystals"
"-105.14","69.11","CAMBRIDGE BAY A","2400601","2018-01-18 07:00","2018","01","18","07:00","-33.1","","-36.5","","72","","","","3","","10","","24.1","","101.10","","","","-43","","Ice Crystals"
"-105.14","69.11","CAMBRIDGE BAY A","2400601","2018-01-18 08:00","2018","01","18","08:00","-32.9","","-36.3","","73","","","","3","","15","","24.1","","101.08","","","","-45","","Ice Crystals"
"-105.14","69.11","CAMBRIDGE BAY A","2400601","2018-01-18 09:00","2018","01","18","09:00","-33.3","","-36.6","","72","","","","4","","15","","24.1","","101.08","","","","-45","","Ice Crystals"
"-105.14","69.11","CAMBRIDGE BAY A","2400601","2018-01-18 10:00","2018","01","18","10:00","-33.4","","-36.8","","72","","","","4","","12","","19.3","","101.10","","","","-44","","Ice Crystals"
"-105.14","69.11","CAMBRIDGE BAY A","2400601","2018-01-18 11:00","2018","01","18","11:00","-33.2","","-36.5","","73","","","","3","","13","","24.1","","101.11","","","","-44","","Ice Crystals"
"-105.14","69.11","CAMBRIDGE BAY A","2400601","2018-01-18 12:00","2018","01","18","12:00","-33.6","","-37.0","","72","","","","4","","18","","24.1","","101.06","","","","-47","","Ice Crystals"
"-105.14","69.11","CAMBRIDGE BAY A","2400601","2018-01-18 13:00","2018","01","18","13:00","-33.0","","-36.4","","73","","","","3","","18","","24.1","","101.06","","","","-46","","Ice Crystals,Haze"
"-105.14","69.11","CAMBRIDGE BAY A","2400601","2018-01-18 14:00","2018","01","18","14:00","-33.5","","-37.0","","72","","","","4","","19","","19.3","","101.06","","","","-47","","Ice Crystals"
"-105.14","69.11","CAMBRIDGE BAY A","2400601","2018-01-18 15:00","2018","01","18","15:00","-33.5","","-36.9","","72","","","","4","","18","","24.1","","101.08","","","","-47","","Ice Crystals"
"-105.14","69.11","CAMBRIDGE BAY A","2400601","2018-01-18 16:00","2018","01","18","16:00","-33.8","","-37.3","","72","","","","4","","14","","19.3","","101.10","","","","-46","","Ice Crystals"
"-105.14","69.11","CAMBRIDGE BAY A","2400601","2018-01-18 17:00","2018","01","18","17:00","-34.0","","-37.4","","72","","","","4","","14","","9.7","","101.11","","","","-46","","Ice Crystals"
"-105.14","69.11","CAMBRIDGE BAY A","2400601","2018-01-18 18:00","2018","01","18","18:00","-34.6","","-38.1","","71","","","","4","","15","","19.3","","101.09","","","","-47","","Ice Crystals"
"-105.14","69.11","CAMBRIDGE BAY A","2400601","2018-01-18 19:00","2018","01","18","19:00","-34.4","","-37.9","","71","","","","4","","17","","19.3","","101.07","","","","-48","","Ice Crystals"
"-105.14","69.11","CAMBRIDGE BAY A","2400601","2018-01-18 20:00","2018","01","18","20:00","-34.8","","-38.3","","71","","","","3","","13","","16.1","","101.07","","","","-46","","Ice Crystals"
"-105.14","69.11","CAMBRIDGE BAY A","2400601","2018-01-18 21:00","2018","01","18","21:00","-34.6","","-38.1","","71","","","","4","","14","","19.3","","101.04","","","","-47","","Ice Crystals"
"-105.14","69.11","CAMBRIDGE BAY A","2400601","2018-01-18 22:00","2018","01","18","22:00","-34.7","","-38.2","","71","","","","4","","12","","19.3","","101.06","","","","-46","","Ice Crystals"
"-105.14","69.11","CAMBRIDGE BAY A","2400601","2018-01-18 23:00","2018","01","18","23:00","-35.0","","-38.5","","71","","","","4","","13","","19.3","","101.09","","","","-47","","Ice Crystals"
"-105.14","69.11","CAMBRIDGE BAY A","2400601","2018-01-19 00:00","2018","01","19","00:00","-35.1","","-38.7","","71","","","","4","","10","","19.3","","101.12","","","","-45","","Ice Crystals"
"-105.14","69.11","CAMBRIDGE BAY A","2400601","2018-01-19 01:00","2018","01","19","01:00","-35.1","","-38.6","","71","","","","7","","16","","20.9","","101.15","","","","-48","","Ice Crystals"
"-105.14","69.11","CAMBRIDGE BAY A","2400601","2018-01-19 02:00","2018","01","19","02:00","-34.9","","-38.4","","71","","","","7","","14","","20.9","","101.14","","","","-47","","Ice Crystals"
"-105.14","69.11","CAMBRIDGE BAY A","2400601","2018-01-19 03:00","2018","01","19","03:00","-34.3","","-37.8","","71","","","","6","","14","","20.9","","101.16","","","","-46","","Ice Crystals"
"-105.14","69.11","CAMBRIDGE BAY A","2400601","2018-01-19 04:00","2018","01","19","04:00","-35.7","","-39.3","","70","","","","4","","17","","22.5","","101.14","","","","-49","","Ice Crystals"
"-105.14","69.11","CAMBRIDGE BAY A","2400601","2018-01-19 05:00","2018","01","19","05:00","-35.2","","-38.8","","71","","","","3","","12","","22.5","","101.18","","","","-46","","Ice Crystals"
"-105.14","69.11","CAMBRIDGE BAY A","2400601","2018-01-19 06:00","2018","01","19","06:00","-35.0","","-38.5","","71","","","","7","","12","","22.5","","101.21","","","","-46","","Ice Crystals"
"-105.14","69.11","CAMBRIDGE BAY A","2400601","2018-01-19 07:00","2018","01","19","07:00","-34.9","","-38.5","","71","","","","6","","14","","19.3","","101.21","","","","-47","","Ice Crystals"
"-105.14","69.11","CAMBRIDGE BAY A","2400601","2018-01-19 08:00","2018","01","19","08:00","-35.0","","-38.5","","71","","","","6","","12","","19.3","","101.25","","","","-46","","Ice Crystals"
"-105.14","69.11","CAMBRIDGE BAY A","2400601","2018-01-19 09:00","2018","01","19","09:00","-35.5","","-39.1","","71","","","","3","","12","","20.9","","101.26","","","","-47","","Ice Crystals"
"-105.14","69.11","CAMBRIDGE BAY A","2400601","2018-01-19 10:00","2018","01","19","10:00","-35.5","","-39.1","","71","","","","4","","10","","20.9","","101.30","","","","-46","","Ice Crystals"
"-105.14","69.11","CAMBRIDGE BAY A","2400601","2018-01-19 11:00","2018","01","19","11:00","-35.9","","-39.5","","70","","","","4","","16","","16.1","","101.33","","","","-49","","Ice Crystals"
"-105.14","69.11","CAMBRIDGE BAY A","2400601","2018-01-19 12:00","2018","01","19","12:00","-35.3","","-38.9","","71","","","","4","","14","","20.9","","101.37","","","","-48","","Ice Crystals"
"-105.14","69.11","CAMBRIDGE BAY A","2400601","2018-01-19 13:00","2018","01","19","13:00","-35.2","","-38.8","","71","","","","4","","16","","24.1","","101.39","","","","-48","","Ice Crystals"
"-105.14","69.11","CAMBRIDGE BAY A","2400601","2018-01-19 14:00","2018","01","19","14:00","-35.2","","-38.8","","71","","","","5","","9","","19.3","","101.41","","","","-45","","Ice Crystals"
"-105.14","69.11","CAMBRIDGE BAY A","2400601","2018-01-19 15:00","2018","01","19","15:00","-34.6","","-38.2","","71","","","","5","","8","","16.1","","101.46","","","","-43","","Ice Crystals"
"-105.14","69.11","CAMBRIDGE BAY A","2400601","2018-01-19 16:00","2018","01","19","16:00","-36.0","","-39.6","","70","","","","3","","13","","16.1","","101.47","","","","-48","","Ice Crystals"
"-105.14","69.11","CAMBRIDGE BAY A","2400601","2018-01-19 17:00","2018","01","19","17:00","-35.7","","-39.3","","70","","","","5","","15","","16.1","","101.49","","","","-48","","Ice Crystals"
"-105.14","69.11","CAMBRIDGE BAY A","2400601","2018-01-19 18:00","2018","01","19","18:00","-35.8","","-39.4","","70","","","","7","","12","","16.1","","101.52","","","","-47","","Ice Crystals"
"-105.14","69.11","CAMBRIDGE BAY A","2400601","2018-01-19 19:00","2018","01","19","19:00","-36.0","","-39.6","","70","","","","6","","18","","16.1","","101.53","","","","-50","","Ice Crystals"
"-105.14","69.11","CAMBRIDGE BAY A","2400601","2018-01-19 20:00","2018","01","19","20:00","-36.1","","-39.8","","70","","","","6","","16","","16.1","","101.52","","","","-49","","Ice Crystals"
"-105.14","69.11","CAMBRIDGE BAY A","2400601","2018-01-19 21:00","2018","01","19","21:00","-36.1","","-39.7","","70","","","","7","","17","","16.1","","101.55","","","","-50","","Ice Crystals"
"-105.14","69.11","CAMBRIDGE BAY A","2400601","2018-01-19 22:00","2018","01","19","22:00","-36.5","","-40.2","","70","","","","7","","14","","16.1","","101.60","","","","-49","","Ice Crystals"
"-105.14","69.11","CAMBRIDGE BAY A","2400601","2018-01-19 23:00","2018","01","19","23:00","-35.4","","-39.0","","70","","","","8","","15","","17.7","","101.63","","","","-48","","Ice Crystals"
"-105.14","69.11","CAMBRIDGE BAY A","2400601","2018-01-20 00:00","2018","01","20","00:00","-36.0","","-39.7","","70","","","","7","","16","","17.7","","101.67","","","","-49","","Ice Crystals"
"-105.14","69.11","CAMBRIDGE BAY A","2400601","2018-01-20 01:00","2018","01","20","01:00","-36.0","","-39.6","","70","","","","8","","21","","19.3","","101.68","","","","-51","","Ice Crystals"
"-105.14","69.11","CAMBRIDGE BAY A","2400601","2018-01-20 02:00","2018","01","20","02:00","-36.5","","-40.2","","70","","","","8","","17","","19.3","","101.71","","","","-50","","Ice Crystals"
"-105.14","69.11","CAMBRIDGE BAY A","2400601","2018-01-20 03:00","2018","01","20","03:00","-36.5","","-40.2","","70","","","","9","","17","","19.3","","101.75","","","","-50","","Ice Crystals"
"-105.14","69.11","CAMBRIDGE BAY A","2400601","2018-01-20 04:00","2018","01","20","04:00","-36.2","","-39.9","","70","","","","8","","16","","20.9","","101.76","","","","-49","","Ice Crystals"
"-105.14","69.11","CAMBRIDGE BAY A","2400601","2018-01-20 05:00","2018","01","20","05:00","-33.9","","-37.4","","72","","","","7","","14","","6.4","","101.77","","","","-46","","Ice Crystals,Fog"
"-105.14","69.11","CAMBRIDGE BAY A","2400601","2018-01-20 06:00","2018","01","20","06:00","-31.9","","-35.2","","73","","","","8","","19","","4.0","","101.77","","","","-45","","Ice Crystals,Fog"
"-105.14","69.11","CAMBRIDGE BAY A","2400601","2018-01-20 07:00","2018","01","20","07:00","-30.4","","-33.6","","74","","","","9","","20","","8.1","","101.81","","","","-44","","Ice Crystals,Fog"
"-105.14","69.11","CAMBRIDGE BAY A","2400601","2018-01-20 08:00","2018","01","20","08:00","-30.4","","-33.7","","74","","","","9","","21","","12.9","","101.82","","","","-44","","Ice Crystals,Fog"
"-105.14","69.11","CAMBRIDGE BAY A","2400601","2018-01-20 09:00","2018","01","20","09:00","-30.5","","-33.8","","74","","","","10","","18","","14.5","","101.86","","","","-43","","Ice Crystals"
"-105.14","69.11","CAMBRIDGE BAY A","2400601","2018-01-20 10:00","2018","01","20","10:00","-31.0","","-34.3","","73","","","","10","","17","","12.9","","101.86","","","","-43","","Ice Crystals"
"-105.14","69.11","CAMBRIDGE BAY A","2400601","2018-01-20 11:00","2018","01","20","11:00","-31.1","","-34.5","","73","","","","10","","17","","16.1","","101.86","","","","-44","","Ice Crystals"
"-105.14","69.11","CAMBRIDGE BAY A","2400601","2018-01-20 12:00","2018","01","20","12:00","-31.9","","-35.4","","72","","","","10","","14","","19.3","","101.91","","","","-43","","Ice Crystals"
"-105.14","69.11","CAMBRIDGE BAY A","2400601","2018-01-20 13:00","2018","01","20","13:00","-32.5","","-35.9","","72","","","","10","","19","","16.1","","101.94","","","","-46","","Ice Crystals,Blowing Snow"
"-105.14","69.11","CAMBRIDGE BAY A","2400601","2018-01-20 14:00","2018","01","20","14:00","-33.3","","-36.8","","72","","","","11","","20","","12.9","","101.97","","","","-47","","Ice Crystals,Blowing Snow"
"-105.14","69.11","CAMBRIDGE BAY A","2400601","2018-01-20 15:00","2018","01","20","15:00","-33.7","","-37.2","","72","","","","11","","18","","16.1","","102.01","","","","-47","","Ice Crystals,Blowing Snow"
"-105.14","69.11","CAMBRIDGE BAY A","2400601","2018-01-20 16:00","2018","01","20","16:00","-33.5","","-36.9","","72","","","","12","","24","","16.1","","102.07","","","","-49","","Ice Crystals,Blowing Snow"
"-105.14","69.11","CAMBRIDGE BAY A","2400601","2018-01-20 17:00","2018","01","20","17:00","-32.6","","-36.0","","72","","","","12","","23","","16.1","","102.06","","","","-47","","Ice Crystals,Blowing Snow"
"-105.14","69.11","CAMBRIDGE BAY A","2400601","2018-01-20 18:00","2018","01","20","18:00","-33.0","","-36.4","","72","","","","11","","20","","16.1","","102.04","","","","-47","","Ice Crystals,Blowing Snow"
"-105.14","69.11","CAMBRIDGE BAY A","2400601","2018-01-20 19:00","2018","01","20","19:00","-32.1","","-35.5","","73","","","","11","","18","","8.1","","102.06","","","","-45","","Ice Crystals"
"-105.14","69.11","CAMBRIDGE BAY A","2400601","2018-01-20 20:00","2018","01","20","20:00","-32.3","","-35.7","","72","","","","9","","18","","12.9","","102.08","","","","-45","","Ice Crystals"
"-105.14","69.11","CAMBRIDGE BAY A","2400601","2018-01-20 21:00","2018","01","20","21:00","-32.8","","-36.2","","72","","","","9","","20","","3.6","","102.07","","","","-47","","Ice Crystals,Blowing Snow"
"-105.14","69.11","CAMBRIDGE BAY A","2400601","2018-01-20 22:00","2018","01","20","22:00","-33.3","","-36.8","","72","","","","9","","19","","14.5","","102.08","","","","-47","","Ice Crystals,Blowing Snow"
"-105.14","69.11","CAMBRIDGE BAY A","2400601","2018-01-20 23:00","2018","01","20","23:00","-33.2","","-36.7","","72","","","","9","","22","","16.1","","102.09","","","","-48","","Ice Crystals,Blowing Snow"
"-105.14","69.11","CAMBRIDGE BAY A","2400601","2018-01-21 00:00","2018","01","21","00:00","-33.2","","-36.6","","72","","","","10","","20","","16.1","","102.12","","","","-47","","Ice Crystals,Blowing Snow"
"-105.14","69.11","CAMBRIDGE BAY A","2400601","2018-01-21 01:00","2018","01","21","01:00","-33.5","","-36.9","","72","","","","10","","18","","12.9","","102.15","","","","-47","","Ice Crystals,Blowing Snow"
"-105.14","69.11","CAMBRIDGE BAY A","2400601","2018-01-21 02:00","2018","01","21","02:00","-34.0","","-37.5","","71","","","","8","","19","","16.1","","102.17","","","","-48","","Ice Crystals,Blowing Snow"
"-105.14","69.11","CAMBRIDGE BAY A","2400601","2018-01-21 03:00","2018","01","21","03:00","-34.2","","-37.8","","71","","","","10","","19","","16.1","","102.17","","","","-48","","Ice Crystals,Blowing Snow"
"-105.14","69.11","CAMBRIDGE BAY A","2400601","2018-01-21 04:00","2018","01","21","04:00","-34.6","","-38.1","","71","","","","9","","22","","16.1","","102.17","","","","-50","","Ice Crystals,Blowing Snow"
"-105.14","69.11","CAMBRIDGE BAY A","2400601","2018-01-21 05:00","2018","01","21","05:00","-34.7","","-38.2","","71","","","","9","","23","","16.1","","102.16","","","","-50","","Ice Crystals,Blowing Snow"
"-105.14","69.11","CAMBRIDGE BAY A","2400601","2018-01-21 06:00","2018","01","21","06:00","-35.4","","-39.0","","70","","","","8","","14","","16.1","","102.18","","","","-48","","Ice Crystals"
"-105.14","69.11","CAMBRIDGE BAY A","2400601","2018-01-21 07:00","2018","01","21","07:00","-35.9","","-39.5","","70","","","","5","","9","","19.3","","102.18","","","","-46","","Ice Crystals"
"-105.14","69.11","CAMBRIDGE BAY A","2400601","2018-01-21 08:00","2018","01","21","08:00","-36.7","","-40.4","","70","","","","6","","10","","19.3","","102.21","","","","-47","","Ice Crystals"
"-105.14","69.11","CAMBRIDGE BAY A","2400601","2018-01-21 09:00","2018","01","21","09:00","-36.3","","-39.9","","70","","","","6","","15","","16.1","","102.22","","","","-49","","Ice Crystals"
"-105.14","69.11","CAMBRIDGE BAY A","2400601","2018-01-21 10:00","2018","01","21","10:00","-37.0","","-40.7","","70","","","","5","","12","","16.1","","102.24","","","","-49","","Ice Crystals"
"-105.14","69.11","CAMBRIDGE BAY A","2400601","2018-01-21 11:00","2018","01","21","11:00","-37.3","","-41.0","","69","","","","3","","9","","24.1","","102.25","","","","-47","","Ice Crystals"
"-105.14","69.11","CAMBRIDGE BAY A","2400601","2018-01-21 12:00","2018","01","21","12:00","-35.9","","-39.5","","70","","","","5","","17","","24.1","","102.26","","","","-49","","Ice Crystals"
"-105.14","69.11","CAMBRIDGE BAY A","2400601","2018-01-21 13:00","2018","01","21","13:00","-35.9","","-39.5","","70","","","","6","","14","","24.1","","102.30","","","","-48","","Ice Crystals"
"-105.14","69.11","CAMBRIDGE BAY A","2400601","2018-01-21 14:00","2018","01","21","14:00","-36.1","","-39.7","","70","","","","5","","13","","24.1","","102.31","","","","-48","","Ice Crystals"
"-105.14","69.11","CAMBRIDGE BAY A","2400601","2018-01-21 15:00","2018","01","21","15:00","-36.7","","-40.4","","70","","","","5","","14","","24.1","","102.33","","","","-49","","Ice Crystals"
"-105.14","69.11","CAMBRIDGE BAY A","2400601","2018-01-21 16:00","2018","01","21","16:00","-37.1","","-40.8","","69","","","","5","","13","","24.1","","102.35","","","","-49","","Ice Crystals"
"-105.14","69.11","CAMBRIDGE BAY A","2400601","2018-01-21 17:00","2018","01","21","17:00","-36.9","","-40.6","","69","","","","4","","17","","24.1","","102.37","","","","-51","","Ice Crystals"
"-105.14","69.11","CAMBRIDGE BAY A","2400601","2018-01-21 18:00","2018","01","21","18:00","-36.8","","-40.5","","70","","","","4","","18","","24.1","","102.37","","","","-51","","Ice Crystals,Blowing Snow"
"-105.14","69.11","CAMBRIDGE BAY A","2400601","2018-01-21 19:00","2018","01","21","19:00","-36.5","","-40.2","","70","","","","3","","13","","24.1","","102.38","","","","-49","","Ice Crystals"
"-105.14","69.11","CAMBRIDGE BAY A","2400601","2018-01-21 20:00","2018","01","21","20:00","-37.3","","-41.0","","69","","","","3","","13","","19.3","","102.40","","","","-49","","Ice Crystals"
"-105.14","69.11","CAMBRIDGE BAY A","2400601","2018-01-21 21:00","2018","01","21","21:00","-37.3","","-41.0","","69","","","","3","","14","","19.3","","102.40","","","","-50","","Ice Crystals"
"-105.14","69.11","CAMBRIDGE BAY A","2400601","2018-01-21 22:00","2018","01","21","22:00","-37.2","","-41.0","","69","","","","3","","15","","19.3","","102.41","","","","-50","","Ice Crystals"
"-105.14","69.11","CAMBRIDGE BAY A","2400601","2018-01-21 23:00","2018","01","21","23:00","-37.3","","-41.0","","69","","","","3","","13","","19.3","","102.42","","","","-49","","Ice Crystals"
"-105.14","69.11","CAMBRIDGE BAY A","2400601","2018-01-22 00:00","2018","01","22","00:00","-37.8","","-41.6","","69","","","","3","","14","","19.3","","102.42","","","","-51","","Ice Crystals"
"-105.14","69.11","CAMBRIDGE BAY A","2400601","2018-01-22 01:00","2018","01","22","01:00","-37.5","","-41.3","","69","","","","4","","14","","19.3","","102.45","","","","-50","","Ice Crystals"
"-105.14","69.11","CAMBRIDGE BAY A","2400601","2018-01-22 02:00","2018","01","22","02:00","-37.9","","-41.7","","69","","","","4","","13","","19.3","","102.46","","","","-50","","Ice Crystals"
"-105.14","69.11","CAMBRIDGE BAY A","2400601","2018-01-22 03:00","2018","01","22","03:00","-37.7","","-41.5","","69","","","","3","","13","","19.3","","102.47","","","","-50","","Ice Crystals"
"-105.14","69.11","CAMBRIDGE BAY A","2400601","2018-01-22 04:00","2018","01","22","04:00","-37.9","","-41.6","","69","","","","3","","12","","19.3","","102.52","","","","-50","","Ice Crystals"
"-105.14","69.11","CAMBRIDGE BAY A","2400601","2018-01-22 05:00","2018","01","22","05:00","-38.0","","-41.8","","69","","","","3","","12","","19.3","","102.49","","","","-50","","Ice Crystals"
"-105.14","69.11","CAMBRIDGE BAY A","2400601","2018-01-22 06:00","2018","01","22","06:00","-37.7","","-41.4","","69","","","","2","","10","","19.3","","102.47","","","","-48","","Ice Crystals"
"-105.14","69.11","CAMBRIDGE BAY A","2400601","2018-01-22 07:00","2018","01","22","07:00","-38.1","","-41.9","","69","","","","4","","9","","19.3","","102.45","","","","-48","","Ice Crystals"
"-105.14","69.11","CAMBRIDGE BAY A","2400601","2018-01-22 08:00","2018","01","22","08:00","-38.4","","-42.2","","68","","","","4","","13","","19.3","","102.44","","","","-51","","Ice Crystals"
"-105.14","69.11","CAMBRIDGE BAY A","2400601","2018-01-22 09:00","2018","01","22","09:00","-38.0","","-41.7","","69","","","","6","","7","","12.9","","102.43","","","","-47","","Ice Crystals"
"-105.14","69.11","CAMBRIDGE BAY A","2400601","2018-01-22 10:00","2018","01","22","10:00","-38.1","","-42.0","","68","","","","3","","9","","24.1","","102.45","","","","-48","","Ice Crystals"
"-105.14","69.11","CAMBRIDGE BAY A","2400601","2018-01-22 11:00","2018","01","22","11:00","-38.4","","-42.2","","68","","","","5","","8","","24.1","","102.44","","","","-48","","Ice Crystals"
"-105.14","69.11","CAMBRIDGE BAY A","2400601","2018-01-22 12:00","2018","01","22","12:00","-37.8","","-41.6","","69","","","","3","","12","","24.1","","102.45","","","","-50","","Ice Crystals"
"-105.14","69.11","CAMBRIDGE BAY A","2400601","2018-01-22 13:00","2018","01","22","13:00","-38.1","","-41.9","","68","","","","3","","13","","24.1","","102.45","","","","-50","","Ice Crystals"
"-105.14","69.11","CAMBRIDGE BAY A","2400601","2018-01-22 14:00","2018","01","22","14:00","-38.0","","-41.9","","68","","","","2","","8","","24.1","","102.47","","","","-47","","Ice Crystals"
"-105.14","69.11","CAMBRIDGE BAY A","2400601","2018-01-22 15:00","2018","01","22","15:00","-38.2","","-42.0","","68","","","","4","","9","","24.1","","102.46","","","","-48","","Ice Crystals"
"-105.14","69.11","CAMBRIDGE BAY A","2400601","2018-01-22 16:00","2018","01","22","16:00","-38.3","","-42.1","","68","","","","3","","12","","24.1","","102.45","","","","-50","","Ice Crystals"
"-105.14","69.11","CAMBRIDGE BAY A","2400601","2018-01-22 17:00","2018","01","22","17:00","-38.9","","-42.7","","68","","","","3","","10","","24.1","","102.41","","","","-50","","Ice Crystals"
"-105.14","69.11","CAMBRIDGE BAY A","2400601","2018-01-22 18:00","2018","01","22","18:00","-38.6","","-42.5","","68","","","","5","","10","","24.1","","102.38","","","","-49","","Ice Crystals"
"-105.14","69.11","CAMBRIDGE BAY A","2400601","2018-01-22 19:00","2018","01","22","19:00","-38.4","","-42.2","","68","","","","3","","10","","24.1","","102.38","","","","-49","","Ice Crystals"
"-105.14","69.11","CAMBRIDGE BAY A","2400601","2018-01-22 20:00","2018","01","22","20:00","-38.0","","-41.7","","69","","","","3","","9","","24.1","","102.36","","","","-48","","Ice Crystals"
"-105.14","69.11","CAMBRIDGE BAY A","2400601","2018-01-22 21:00","2018","01","22","21:00","-38.7","","-42.5","","68","","","","2","","10","","24.1","","102.34","","","","-50","","Ice Crystals"
"-105.14","69.11","CAMBRIDGE BAY A","2400601","2018-01-22 22:00","2018","01","22","22:00","-38.0","","-41.8","","69","","","","2","","7","","16.1","","102.33","","","","-47","","Ice Crystals"
"-105.14","69.11","CAMBRIDGE BAY A","2400601","2018-01-22 23:00","2018","01","22","23:00","-38.3","","-42.1","","68","","","","2","","9","","19.3","","102.31","","","","-48","","Ice Crystals"
"-105.14","69.11","CAMBRIDGE BAY A","2400601","2018-01-23 00:00","2018","01","23","00:00","-38.5","","-42.3","","68","","","","3","","9","","16.1","","102.32","","","","-49","","Ice Crystals"
"-105.14","69.11","CAMBRIDGE BAY A","2400601","2018-01-23 01:00","2018","01","23","01:00","-38.8","","-42.7","","68","","","","3","","10","","16.1","","102.26","","","","-50","","Ice Crystals"
"-105.14","69.11","CAMBRIDGE BAY A","2400601","2018-01-23 02:00","2018","01","23","02:00","-38.2","","-42.0","","68","","","","2","","8","","16.1","","102.28","","","","-48","","Ice Crystals"
"-105.14","69.11","CAMBRIDGE BAY A","2400601","2018-01-23 03:00","2018","01","23","03:00","-38.8","","-42.7","","68","","","","3","","8","","16.1","","102.28","","","","-48","","Ice Crystals"
"-105.14","69.11","CAMBRIDGE BAY A","2400601","2018-01-23 04:00","2018","01","23","04:00","-38.3","","-42.1","","68","","","","5","","4","","16.1","","102.27","","","","-44","","Ice Crystals"
"-105.14","69.11","CAMBRIDGE BAY A","2400601","2018-01-23 05:00","2018","01","23","05:00","-37.7","","-41.4","","69","","","","5","","7","","16.1","","102.25","","","","-46","","Ice Crystals"
"-105.14","69.11","CAMBRIDGE BAY A","2400601","2018-01-23 06:00","2018","01","23","06:00","-37.4","","-41.2","","69","","","","1","","7","","16.1","","102.24","","","","-46","","Ice Crystals"
"-105.14","69.11","CAMBRIDGE BAY A","2400601","2018-01-23 07:00","2018","01","23","07:00","-37.5","","-41.3","","69","","","","2","","13","","16.1","","102.21","","","","-50","","Ice Crystals"
"-105.14","69.11","CAMBRIDGE BAY A","2400601","2018-01-23 08:00","2018","01","23","08:00","-37.9","","-41.7","","69","","","","5","","9","","16.1","","102.19","","","","-48","","Ice Crystals"
"-105.14","69.11","CAMBRIDGE BAY A","2400601","2018-01-23 09:00","2018","01","23","09:00","-37.5","","-41.2","","69","","","","1","","10","","19.3","","102.18","","","","-48","","Ice Crystals"
"-105.14","69.11","CAMBRIDGE BAY A","2400601","2018-01-23 10:00","2018","01","23","10:00","-38.2","","-42.0","","68","","","","4","","12","","3.2","","102.15","","","","-50","","Ice Crystals"
"-105.14","69.11","CAMBRIDGE BAY A","2400601","2018-01-23 11:00","2018","01","23","11:00","-37.0","","-40.8","","69","","","","2","","9","","4.8","","102.16","","","","-47","","Ice Crystals"
"-105.14","69.11","CAMBRIDGE BAY A","2400601","2018-01-23 12:00","2018","01","23","12:00","-37.9","","-41.7","","68","","","","3","","14","","4.8","","102.14","","","","-51","","Ice Crystals"
"-105.14","69.11","CAMBRIDGE BAY A","2400601","2018-01-23 13:00","2018","01","23","13:00","-37.0","","-40.7","","69","","","","5","","9","","4.8","","102.16","","","","-47","","Ice Crystals"
"-105.14","69.11","CAMBRIDGE BAY A","2400601","2018-01-23 14:00","2018","01","23","14:00","-37.0","","-40.8","","69","","","","8","","7","","2.8","","102.18","","","","-45","","Ice Crystals"
"-105.14","69.11","CAMBRIDGE BAY A","2400601","2018-01-23 15:00","2018","01","23","15:00","-36.1","","-39.8","","70","","","","8","","5","","3.6","","102.18","","","","-43","","Ice Crystals"
"-105.14","69.11","CAMBRIDGE BAY A","2400601","2018-01-23 16:00","2018","01","23","16:00","-36.8","","-40.5","","69","","","","2","","10","","2.8","","102.14","","","","-47","","Ice Crystals"
"-105.14","69.11","CAMBRIDGE BAY A","2400601","2018-01-23 17:00","2018","01","23","17:00","-36.8","","-40.5","","69","","","","2","","11","","2.4","","102.14","","","","-48","","Ice Crystals"
"-105.14","69.11","CAMBRIDGE BAY A","2400601","2018-01-23 18:00","2018","01","23","18:00","-36.7","","-40.4","","69","","","","2","","13","","6.4","","102.13","","","","-49","","Ice Crystals"
"-105.14","69.11","CAMBRIDGE BAY A","2400601","2018-01-23 19:00","2018","01","23","19:00","-35.8","","-39.5","","70","","","","4","","14","","8.1","","102.13","","","","-48","","Ice Crystals"
"-105.14","69.11","CAMBRIDGE BAY A","2400601","2018-01-23 20:00","2018","01","23","20:00","-35.5","","-39.2","","70","","","","5","","9","","8.1","","102.09","","","","-45","","Ice Crystals"
"-105.14","69.11","CAMBRIDGE BAY A","2400601","2018-01-23 21:00","2018","01","23","21:00","-36.4","","-40.1","","69","","","","5","","10","","9.7","","102.09","","","","-47","","Ice Crystals"
"-105.14","69.11","CAMBRIDGE BAY A","2400601","2018-01-23 22:00","2018","01","23","22:00","-34.9","","-38.6","","70","","","","4","","12","","6.4","","102.10","","","","-46","","Ice Crystals,Fog"
"-105.14","69.11","CAMBRIDGE BAY A","2400601","2018-01-23 23:00","2018","01","23","23:00","-34.4","","-37.9","","71","","","","10","","4","","6.4","","102.10","","","","-39","","Ice Crystals,Fog"
"-105.14","69.11","CAMBRIDGE BAY A","2400601","2018-01-24 00:00","2018","01","24","00:00","-34.3","","-37.9","","71","","","","4","","9","","4.8","","102.09","","","","-44","","Ice Crystals,Fog"
"-105.14","69.11","CAMBRIDGE BAY A","2400601","2018-01-24 01:00","2018","01","24","01:00","-35.3","","-39.0","","70","","","","5","","8","","11.3","","102.09","","","","-44","","Ice Crystals"
"-105.14","69.11","CAMBRIDGE BAY A","2400601","2018-01-24 02:00","2018","01","24","02:00","-35.8","","-39.5","","70","","","","3","","14","","14.5","","102.10","","","","-48","","Ice Crystals"
"-105.14","69.11","CAMBRIDGE BAY A","2400601","2018-01-24 03:00","2018","01","24","03:00","-35.0","","-38.5","","71","","","","2","","10","","14.5","","102.10","","","","-45","","Ice Crystals"
"-105.14","69.11","CAMBRIDGE BAY A","2400601","2018-01-24 04:00","2018","01","24","04:00","-33.1","","-36.6","","72","","","","4","","7","","14.5","","102.09","","","","-41","","Ice Crystals"
"-105.14","69.11","CAMBRIDGE BAY A","2400601","2018-01-24 05:00","2018","01","24","05:00","-31.8","","-35.2","","72","","","","5","","4","","16.1","","102.05","","","","-36","","Ice Crystals"
"-105.14","69.11","CAMBRIDGE BAY A","2400601","2018-01-24 06:00","2018","01","24","06:00","-30.9","","-34.2","","73","","","","5","","4","","16.1","","102.04","","","","-35","","Ice Crystals"
"-105.14","69.11","CAMBRIDGE BAY A","2400601","2018-01-24 07:00","2018","01","24","07:00","-29.9","","-33.2","","74","","","","36","","1","","16.1","","102.02","","","","-31","","Snow"
"-105.14","69.11","CAMBRIDGE BAY A","2400601","2018-01-24 08:00","2018","01","24","08:00","-29.2","","-32.5","","74","","","","26","","4","","16.1","","102.01","","","","-34","","Snow"
"-105.14","69.11","CAMBRIDGE BAY A","2400601","2018-01-24 09:00","2018","01","24","09:00","-28.6","","-31.8","","75","","","","36","","1","","16.1","","102.02","","","","-30","","Snow"
"-105.14","69.11","CAMBRIDGE BAY A","2400601","2018-01-24 10:00","2018","01","24","10:00","-28.1","","-31.2","","75","","","","21","","5","","12.9","","102.01","","","","-33","","Snow"
"-105.14","69.11","CAMBRIDGE BAY A","2400601","2018-01-24 11:00","2018","01","24","11:00","-27.7","","-30.8","","75","","","","27","","7","","9.7","","102.00","","","","-35","","Snow"
"-105.14","69.11","CAMBRIDGE BAY A","2400601","2018-01-24 12:00","2018","01","24","12:00","-26.9","","-29.9","","76","","","","31","","8","","8.1","","101.99","","","","-34","","Snow"
"-105.14","69.11","CAMBRIDGE BAY A","2400601","2018-01-24 13:00","2018","01","24","13:00","-26.0","","-28.9","","77","","","","32","","9","","8.1","","101.98","","","","-34","","Snow"
"-105.14","69.11","CAMBRIDGE BAY A","2400601","2018-01-24 14:00","2018","01","24","14:00","-25.0","","-27.8","","78","","","","35","","8","","6.4","","102.00","","","","-32","","Snow"
"-105.14","69.11","CAMBRIDGE BAY A","2400601","2018-01-24 15:00","2018","01","24","15:00","-24.6","","-27.4","","78","","","","30","","6","","6.4","","101.99","","","","-30","","Snow"
"-105.14","69.11","CAMBRIDGE BAY A","2400601","2018-01-24 16:00","2018","01","24","16:00","-24.3","","-27.1","","78","","","","32","","3","","6.4","","101.99","","","","-27","","Snow"
"-105.14","69.11","CAMBRIDGE BAY A","2400601","2018-01-24 17:00","2018","01","24","17:00","-23.9","","-26.6","","79","","","","30","","3","","6.4","","101.98","","","","-27","","Snow"
"-105.14","69.11","CAMBRIDGE BAY A","2400601","2018-01-24 18:00","2018","01","24","18:00","-23.9","","-26.6","","79","","","","31","","10","","8.1","","101.97","","","","-32","","Snow"
"-105.14","69.11","CAMBRIDGE BAY A","2400601","2018-01-24 19:00","2018","01","24","19:00","-23.4","","-26.1","","79","","","","34","","5","","9.7","","101.94","","","","-28","","Snow"
"-105.14","69.11","CAMBRIDGE BAY A","2400601","2018-01-24 20:00","2018","01","24","20:00","-23.3","","-26.0","","79","","","","28","","6","","9.7","","101.94","","","","-29","","Snow"
"-105.14","69.11","CAMBRIDGE BAY A","2400601","2018-01-24 21:00","2018","01","24","21:00","-23.3","","-25.9","","79","","","","29","","8","","9.7","","101.95","","","","-30","","Snow"
"-105.14","69.11","CAMBRIDGE BAY A","2400601","2018-01-24 22:00","2018","01","24","22:00","-23.2","","-25.8","","79","","","","32","","10","","16.1","","101.94","","","","-31","","Snow"
"-105.14","69.11","CAMBRIDGE BAY A","2400601","2018-01-24 23:00","2018","01","24","23:00","-22.8","","-25.4","","80","","","","31","","7","","16.1","","101.94","","","","-29","","Snow"
"-105.14","69.11","CAMBRIDGE BAY A","2400601","2018-01-25 00:00","2018","01","25","00:00","-22.2","","-24.7","","80","","","","30","","10","","16.1","","101.92","","","","-30","","Snow"
"-105.14","69.11","CAMBRIDGE BAY A","2400601","2018-01-25 01:00","2018","01","25","01:00","-22.1","","-24.7","","80","","","","30","","12","","16.1","","101.94","","","","-31","","Snow"
"-105.14","69.11","CAMBRIDGE BAY A","2400601","2018-01-25 02:00","2018","01","25","02:00","-22.1","","-24.7","","80","","","","29","","13","","16.1","","101.94","","","","-31","","Snow"
"-105.14","69.11","CAMBRIDGE BAY A","2400601","2018-01-25 03:00","2018","01","25","03:00","-21.6","","-24.1","","81","","","","29","","15","","12.9","","101.94","","","","-31","","Snow"
"-105.14","69.11","CAMBRIDGE BAY A","2400601","2018-01-25 04:00","2018","01","25","04:00","-22.4","","-24.9","","80","","","","25","","7","","12.9","","101.93","","","","-28","","Snow"
"-105.14","69.11","CAMBRIDGE BAY A","2400601","2018-01-25 05:00","2018","01","25","05:00","-22.2","","-24.8","","80","","","","28","","8","","12.9","","101.91","","","","-29","","Snow"
"-105.14","69.11","CAMBRIDGE BAY A","2400601","2018-01-25 06:00","2018","01","25","06:00","-21.6","","-24.1","","81","","","","28","","9","","11.3","","101.87","","","","-29","","Snow"
"-105.14","69.11","CAMBRIDGE BAY A","2400601","2018-01-25 07:00","2018","01","25","07:00","-21.1","","-23.5","","81","","","","30","","16","","9.7","","101.86","","","","-31","","Snow"
"-105.14","69.11","CAMBRIDGE BAY A","2400601","2018-01-25 08:00","2018","01","25","08:00","-21.2","","-23.7","","81","","","","31","","20","","4.8","","101.84","","","","-32","","Snow"
"-105.14","69.11","CAMBRIDGE BAY A","2400601","2018-01-25 09:00","2018","01","25","09:00","-21.4","","-23.8","","81","","","","30","","19","","12.9","","101.85","","","","-32","","Snow"
"-105.14","69.11","CAMBRIDGE BAY A","2400601","2018-01-25 10:00","2018","01","25","10:00","-21.1","","-23.5","","81","","","","31","","21","","12.9","","101.86","","","","-32","","Snow"
"-105.14","69.11","CAMBRIDGE BAY A","2400601","2018-01-25 11:00","2018","01","25","11:00","-20.4","","-22.8","","82","","","","32","","21","","6.4","","101.86","","","","-31","","Snow,Blowing Snow"
"-105.14","69.11","CAMBRIDGE BAY A","2400601","2018-01-25 12:00","2018","01","25","12:00","-20.4","","-22.8","","82","","","","31","","17","","6.4","","101.86","","","","-30","","Snow"
"-105.14","69.11","CAMBRIDGE BAY A","2400601","2018-01-25 13:00","2018","01","25","13:00","-20.7","","-23.1","","81","","","","30","","23","","4.8","","101.86","","","","-32","","Snow,Blowing Snow"
"-105.14","69.11","CAMBRIDGE BAY A","2400601","2018-01-25 14:00","2018","01","25","14:00","-20.7","","-23.1","","81","","","","33","","22","","16.1","","101.87","","","","-32","","Snow,Blowing Snow"
"-105.14","69.11","CAMBRIDGE BAY A","2400601","2018-01-25 15:00","2018","01","25","15:00","-21.9","","-24.3","","81","","","","33","","26","","16.1","","101.91","","","","-34","","Blowing Snow"
"-105.14","69.11","CAMBRIDGE BAY A","2400601","2018-01-25 16:00","2018","01","25","16:00","-22.8","","-25.3","","80","","","","34","","29","","2.4","","101.95","","","","-36","","Ice Crystals,Blowing Snow"
"-105.14","69.11","CAMBRIDGE BAY A","2400601","2018-01-25 17:00","2018","01","25","17:00","-22.0","","-24.5","","81","","","","32","","16","","9.7","","101.94","","","","-32","","Ice Crystals"
"-105.14","69.11","CAMBRIDGE BAY A","2400601","2018-01-25 18:00","2018","01","25","18:00","-22.0","","-24.4","","81","","","","30","","18","","19.3","","101.92","","","","-32","","Ice Crystals"
"-105.14","69.11","CAMBRIDGE BAY A","2400601","2018-01-25 19:00","2018","01","25","19:00","-20.6","","-22.9","","82","","","","30","","20","","12.9","","101.90","","","","-31","","Snow"
"-105.14","69.11","CAMBRIDGE BAY A","2400601","2018-01-25 20:00","2018","01","25","20:00","-19.5","","-21.8","","82","","","","32","","25","","12.9","","101.93","","","","-31","","Snow,Blowing Snow"
"-105.14","69.11","CAMBRIDGE BAY A","2400601","2018-01-25 21:00","2018","01","25","21:00","-19.3","","-21.6","","83","","","","32","","21","","9.7","","101.93","","","","-30","","Snow,Blowing Snow"
"-105.14","69.11","CAMBRIDGE BAY A","2400601","2018-01-25 22:00","2018","01","25","22:00","-19.0","","-21.3","","83","","","","33","","20","","9.7","","101.98","","","","-29","","Snow,Blowing Snow"
"-105.14","69.11","CAMBRIDGE BAY A","2400601","2018-01-25 23:00","2018","01","25","23:00","-18.6","","-20.8","","83","","","","34","","25","","8.1","","102.02","","","","-30","","Snow,Blowing Snow"
"-105.14","69.11","CAMBRIDGE BAY A","2400601","2018-01-26 00:00","2018","01","26","00:00","-18.7","","-20.9","","83","","","","33","","23","","12.9","","102.06","","","","-30","","Snow,Blowing Snow"
"-105.14","69.11","CAMBRIDGE BAY A","2400601","2018-01-26 01:00","2018","01","26","01:00","-18.8","","-21.0","","83","","","","33","","22","","16.1","","102.12","","","","-29","","Snow,Blowing Snow"
"-105.14","69.11","CAMBRIDGE BAY A","2400601","2018-01-26 02:00","2018","01","26","02:00","-18.8","","-21.0","","83","","","","31","","16","","16.1","","102.14","","","","-28","","Snow"
"-105.14","69.11","CAMBRIDGE BAY A","2400601","2018-01-26 03:00","2018","01","26","03:00","-18.7","","-20.9","","83","","","","30","","25","","16.1","","102.17","","","","-30","","Snow"
"-105.14","69.11","CAMBRIDGE BAY A","2400601","2018-01-26 04:00","2018","01","26","04:00","-18.9","","-21.1","","83","","","","30","","27","","16.1","","102.17","","","","-31","","Snow,Blowing Snow"
"-105.14","69.11","CAMBRIDGE BAY A","2400601","2018-01-26 05:00","2018","01","26","05:00","-18.9","","-21.1","","83","","","","30","","28","","16.1","","102.17","","","","-31","","Snow,Blowing Snow"
"-105.14","69.11","CAMBRIDGE BAY A","2400601","2018-01-26 06:00","2018","01","26","06:00","-18.9","","-21.1","","83","","","","30","","29","","16.1","","102.18","","","","-31","","Snow,Blowing Snow"
"-105.14","69.11","CAMBRIDGE BAY A","2400601","2018-01-26 07:00","2018","01","26","07:00","-18.9","","-21.1","","83","","","","29","","35","","4.8","","102.16","","","","-32","","Snow,Blowing Snow"
"-105.14","69.11","CAMBRIDGE BAY A","2400601","2018-01-26 08:00","2018","01","26","08:00","-19.1","","-21.3","","83","","","","29","","38","","4.8","","102.17","","","","-33","","Snow,Blowing Snow"
"-105.14","69.11","CAMBRIDGE BAY A","2400601","2018-01-26 09:00","2018","01","26","09:00","-19.1","","-21.4","","83","","","","29","","39","","4.0","","102.22","","","","-33","","Snow,Blowing Snow"
"-105.14","69.11","CAMBRIDGE BAY A","2400601","2018-01-26 10:00","2018","01","26","10:00","-19.1","","-21.3","","83","","","","30","","35","","0.8","","102.19","","","","-32","","Snow,Blowing Snow"
"-105.14","69.11","CAMBRIDGE BAY A","2400601","2018-01-26 11:00","2018","01","26","11:00","-19.0","","-21.2","","83","","","","30","","38","","1.0","","102.19","","","","-33","","Blowing Snow"
"-105.14","69.11","CAMBRIDGE BAY A","2400601","2018-01-26 12:00","2018","01","26","12:00","-18.9","","-21.1","","83","","","","29","","29","","2.0","","102.21","","","","-31","","Blowing Snow"
"-105.14","69.11","CAMBRIDGE BAY A","2400601","2018-01-26 13:00","2018","01","26","13:00","-18.7","","-20.9","","83","","","","28","","30","","1.6","","102.22","","","","-31","","Blowing Snow"
"-105.14","69.11","CAMBRIDGE BAY A","2400601","2018-01-26 14:00","2018","01","26","14:00","-18.7","","-20.9","","83","","","","27","","30","","2.4","","102.21","","","","-31","","Blowing Snow"
"-105.14","69.11","CAMBRIDGE BAY A","2400601","2018-01-26 15:00","2018","01","26","15:00","-18.8","","-21.0","","83","","","","28","","24","","1.6","","102.29","","","","-30","","Blowing Snow"
"-105.14","69.11","CAMBRIDGE BAY A","2400601","2018-01-26 16:00","2018","01","26","16:00","-18.8","","-20.9","","83","","","","27","","30","","2.8","","102.29","","","","-31","","Snow,Blowing Snow"
"-105.14","69.11","CAMBRIDGE BAY A","2400601","2018-01-26 17:00","2018","01","26","17:00","-18.9","","-21.2","","83","","","","28","","25","","1.6","","102.26","","","","-30","","Snow,Blowing Snow"
"-105.14","69.11","CAMBRIDGE BAY A","2400601","2018-01-26 18:00","2018","01","26","18:00","-19.0","","-21.2","","83","","","","29","","33","","2.4","","102.19","","","","-32","","Snow,Blowing Snow"
"-105.14","69.11","CAMBRIDGE BAY A","2400601","2018-01-26 19:00","2018","01","26","19:00","-19.6","","-21.9","","83","","","","30","","34","","4.0","","102.20","","","","-33","","Blowing Snow"
"-105.14","69.11","CAMBRIDGE BAY A","2400601","2018-01-26 20:00","2018","01","26","20:00","-21.7","","-24.1","","81","","","","27","","19","","16.1","","102.25","","","","-32","","Blowing Snow"
"-105.14","69.11","CAMBRIDGE BAY A","2400601","2018-01-26 21:00","2018","01","26","21:00","-22.4","","-24.9","","81","","","","28","","22","","12.9","","102.27","","","","-34","","Blowing Snow"
"-105.14","69.11","CAMBRIDGE BAY A","2400601","2018-01-26 22:00","2018","01","26","22:00","-22.9","","-25.4","","80","","","","27","","22","","14.5","","102.27","","","","-35","","Blowing Snow"
"-105.14","69.11","CAMBRIDGE BAY A","2400601","2018-01-26 23:00","2018","01","26","23:00","-21.9","","-24.4","","81","","","","30","","34","","12.9","","102.23","","","","-36","","Blowing Snow"
"-105.14","69.11","CAMBRIDGE BAY A","2400601","2018-01-27 00:00","2018","01","27","00:00","-22.0","","-24.5","","81","","","","30","","34","","11.3","","102.22","","","","-36","","Blowing Snow"
"-105.14","69.11","CAMBRIDGE BAY A","2400601","2018-01-27 01:00","2018","01","27","01:00","-21.6","","-24.1","","81","","","","31","","36","","12.9","","102.22","","","","-36","","Blowing Snow"
"-105.14","69.11","CAMBRIDGE BAY A","2400601","2018-01-27 02:00","2018","01","27","02:00","-21.3","","-23.7","","81","","","","31","","37","","9.7","","102.23","","","","-35","","Blowing Snow"
"-105.14","69.11","CAMBRIDGE BAY A","2400601","2018-01-27 03:00","2018","01","27","03:00","-20.7","","-23.1","","82","","","","30","","35","","8.1","","102.20","","","","-34","","Blowing Snow"
"-105.14","69.11","CAMBRIDGE BAY A","2400601","2018-01-27 04:00","2018","01","27","04:00","-19.5","","-21.8","","82","","","","30","","42","","6.4","","102.18","","","","-34","","Blowing Snow"
"-105.14","69.11","CAMBRIDGE BAY A","2400601","2018-01-27 05:00","2018","01","27","05:00","-19.4","","-21.7","","83","","","","31","","42","","4.8","","102.19","","","","-34","","Blowing Snow"
"-105.14","69.11","CAMBRIDGE BAY A","2400601","2018-01-27 06:00","2018","01","27","06:00","-19.1","","-21.3","","83","","","","32","","39","","4.8","","102.25","","","","-33","","Blowing Snow"
"-105.14","69.11","CAMBRIDGE BAY A","2400601","2018-01-27 07:00","2018","01","27","07:00","-19.7","","-22.0","","82","","","","31","","30","","12.9","","102.26","","","","-32","","Blowing Snow"
"-105.14","69.11","CAMBRIDGE BAY A","2400601","2018-01-27 08:00","2018","01","27","08:00","-20.8","","-23.2","","81","","","","31","","31","","16.1","","102.26","","","","-34","","Blowing Snow"
"-105.14","69.11","CAMBRIDGE BAY A","2400601","2018-01-27 09:00","2018","01","27","09:00","-20.2","","-22.5","","82","","","","30","","26","","16.1","","102.26","","","","-32","","Blowing Snow"
"-105.14","69.11","CAMBRIDGE BAY A","2400601","2018-01-27 10:00","2018","01","27","10:00","-20.2","","-22.6","","82","","","","31","","32","","1.6","","102.24","","","","-33","","Snow,Blowing Snow"
"-105.14","69.11","CAMBRIDGE BAY A","2400601","2018-01-27 11:00","2018","01","27","11:00","-20.3","","-22.7","","82","","","","32","","29","","1.6","","102.27","","","","-33","","Snow,Blowing Snow"
"-105.14","69.11","CAMBRIDGE BAY A","2400601","2018-01-27 12:00","2018","01","27","12:00","-21.0","","-23.4","","81","","","","32","","31","","1.6","","102.27","","","","-34","","Snow,Blowing Snow"
"-105.14","69.11","CAMBRIDGE BAY A","2400601","2018-01-27 13:00","2018","01","27","13:00","-21.5","","-23.9","","81","","","","32","","48","","0.8","","102.24","","","","-37","","Blowing Snow"
"-105.14","69.11","CAMBRIDGE BAY A","2400601","2018-01-27 14:00","2018","01","27","14:00","-21.9","","-24.4","","81","","","","33","","44","","1.2","","102.26","","","","-37","","Blowing Snow"
"-105.14","69.11","CAMBRIDGE BAY A","2400601","2018-01-27 15:00","2018","01","27","15:00","-21.7","","-24.1","","81","","","","32","","39","","2.0","","102.34","","","","-36","","Blowing Snow"
"-105.14","69.11","CAMBRIDGE BAY A","2400601","2018-01-27 16:00","2018","01","27","16:00","-20.8","","-23.2","","82","","","","31","","31","","1.0","","102.43","","","","-34","","Snow,Blowing Snow"
"-105.14","69.11","CAMBRIDGE BAY A","2400601","2018-01-27 17:00","2018","01","27","17:00","-21.0","","-23.4","","81","","","","33","","39","","2.0","","102.39","","","","-35","","Snow,Blowing Snow"
"-105.14","69.11","CAMBRIDGE BAY A","2400601","2018-01-27 18:00","2018","01","27","18:00","-21.6","","-24.1","","81","","","","32","","25","","4.0","","102.46","","","","-34","","Snow,Blowing Snow"
"-105.14","69.11","CAMBRIDGE BAY A","2400601","2018-01-27 19:00","2018","01","27","19:00","-21.3","","-23.8","","81","","","","27","","19","","6.4","","102.50","","","","-32","","Snow,Blowing Snow"
"-105.14","69.11","CAMBRIDGE BAY A","2400601","2018-01-27 20:00","2018","01","27","20:00","-21.6","","-24.1","","81","","","","30","","35","","4.8","","102.50","","","","-36","","Snow,Blowing Snow"
"-105.14","69.11","CAMBRIDGE BAY A","2400601","2018-01-27 21:00","2018","01","27","21:00","-21.7","","-24.2","","81","","","","32","","30","","4.0","","102.45","","","","-35","","Snow,Blowing Snow"
"-105.14","69.11","CAMBRIDGE BAY A","2400601","2018-01-27 22:00","2018","01","27","22:00","-21.1","","-23.5","","81","","","","32","","30","","4.0","","102.46","","","","-34","","Snow,Blowing Snow"
"-105.14","69.11","CAMBRIDGE BAY A","2400601","2018-01-27 23:00","2018","01","27","23:00","-20.9","","-23.3","","81","","","","32","","28","","4.0","","102.44","","","","-33","","Snow,Blowing Snow"
"-105.14","69.11","CAMBRIDGE BAY A","2400601","2018-01-28 00:00","2018","01","28","00:00","-23.3","","-26.0","","79","","","","31","","34","","4.0","","102.47","","","","-38","","Snow,Blowing Snow"
"-105.14","69.11","CAMBRIDGE BAY A","2400601","2018-01-28 01:00","2018","01","28","01:00","-24.8","","-27.5","","78","","","","31","","34","","4.0","","102.53","","","","-40","","Snow,Blowing Snow"
"-105.14","69.11","CAMBRIDGE BAY A","2400601","2018-01-28 02:00","2018","01","28","02:00","-25.9","","-28.8","","78","","","","30","","29","","3.2","","102.55","","","","-40","","Blowing Snow"
"-105.14","69.11","CAMBRIDGE BAY A","2400601","2018-01-28 03:00","2018","01","28","03:00","-25.9","","-28.7","","78","","","","31","","34","","3.2","","102.58","","","","-41","","Blowing Snow"
"-105.14","69.11","CAMBRIDGE BAY A","2400601","2018-01-28 04:00","2018","01","28","04:00","-25.9","","-28.7","","78","","","","30","","34","","3.2","","102.51","","","","-41","","Blowing Snow"
"-105.14","69.11","CAMBRIDGE BAY A","2400601","2018-01-28 05:00","2018","01","28","05:00","-26.1","","-29.0","","77","","","","31","","30","","3.2","","102.50","","","","-41","","Blowing Snow"
"-105.14","69.11","CAMBRIDGE BAY A","2400601","2018-01-28 06:00","2018","01","28","06:00","-26.8","","-29.7","","77","","","","30","","35","","3.2","","102.49","","","","-42","","Fog,Blowing Snow"
"-105.14","69.11","CAMBRIDGE BAY A","2400601","2018-01-28 07:00","2018","01","28","07:00","-27.1","","-30.0","","77","","","","31","","36","","4.0","","102.47","","","","-43","","Fog,Blowing Snow"
"-105.14","69.11","CAMBRIDGE BAY A","2400601","2018-01-28 08:00","2018","01","28","08:00","-27.0","","-29.9","","77","","","","31","","30","","4.0","","102.49","","","","-42","","Fog,Blowing Snow"
"-105.14","69.11","CAMBRIDGE BAY A","2400601","2018-01-28 09:00","2018","01","28","09:00","-26.8","","-29.7","","77","","","","30","","33","","4.8","","102.44","","","","-42","","Fog,Blowing Snow"
"-105.14","69.11","CAMBRIDGE BAY A","2400601","2018-01-28 10:00","2018","01","28","10:00","-26.7","","-29.6","","77","","","","29","","28","","4.8","","102.44","","","","-41","","Fog,Blowing Snow"
"-105.14","69.11","CAMBRIDGE BAY A","2400601","2018-01-28 11:00","2018","01","28","11:00","-26.5","","-29.4","","77","","","","31","","35","","2.0","","102.35","","","","-42","","Blowing Snow"
"-105.14","69.11","CAMBRIDGE BAY A","2400601","2018-01-28 12:00","2018","01","28","12:00","-26.6","","-29.5","","77","","","","31","","35","","4.0","","102.35","","","","-42","","Blowing Snow"
"-105.14","69.11","CAMBRIDGE BAY A","2400601","2018-01-28 13:00","2018","01","28","13:00","-26.9","","-29.8","","77","","","","32","","37","","2.8","","102.33","","","","-43","","Blowing Snow"
"-105.14","69.11","CAMBRIDGE BAY A","2400601","2018-01-28 14:00","2018","01","28","14:00","-26.9","","-29.8","","77","","","","32","","35","","2.8","","102.31","","","","-43","","Blowing Snow"
"-105.14","69.11","CAMBRIDGE BAY A","2400601","2018-01-28 15:00","2018","01","28","15:00","-27.1","","-30.1","","77","","","","29","","33","","4.8","","102.37","","","","-42","","Snow,Blowing Snow"
"-105.14","69.11","CAMBRIDGE BAY A","2400601","2018-01-28 16:00","2018","01","28","16:00","-27.6","","-30.6","","76","","","","30","","18","","6.4","","102.39","","","","-39","","Snow,Blowing Snow"
"-105.14","69.11","CAMBRIDGE BAY A","2400601","2018-01-28 17:00","2018","01","28","17:00","-27.9","","-30.9","","76","","","","29","","23","","8.1","","102.35","","","","-41","","Ice Crystals,Blowing Snow"
"-105.14","69.11","CAMBRIDGE BAY A","2400601","2018-01-28 18:00","2018","01","28","18:00","-28.6","","-31.7","","75","","","","31","","16","","8.1","","102.36","","","","-40","","Ice Crystals,Blowing Snow"
"-105.14","69.11","CAMBRIDGE BAY A","2400601","2018-01-28 19:00","2018","01","28","19:00","-28.9","","-32.0","","75","","","","30","","29","","8.1","","102.30","","","","-44","","Ice Crystals,Blowing Snow"
"-105.14","69.11","CAMBRIDGE BAY A","2400601","2018-01-28 20:00","2018","01","28","20:00","-29.5","","-32.6","","75","","","","29","","23","","9.7","","102.31","","","","-43","","Ice Crystals,Blowing Snow"
"-105.14","69.11","CAMBRIDGE BAY A","2400601","2018-01-28 21:00","2018","01","28","21:00","-29.4","","-32.5","","75","","","","29","","20","","9.7","","102.29","","","","-42","","Ice Crystals,Blowing Snow"
"-105.14","69.11","CAMBRIDGE BAY A","2400601","2018-01-28 22:00","2018","01","28","22:00","-28.3","","-31.4","","76","","","","28","","16","","9.7","","102.32","","","","-40","","Ice Crystals,Blowing Snow"
"-105.14","69.11","CAMBRIDGE BAY A","2400601","2018-01-28 23:00","2018","01","28","23:00","-28.3","","-31.4","","76","","","","30","","18","","8.1","","102.32","","","","-40","","Ice Crystals,Blowing Snow"
"-105.14","69.11","CAMBRIDGE BAY A","2400601","2018-01-29 00:00","2018","01","29","00:00","-28.7","","-31.8","","75","","","","30","","21","","8.1","","102.34","","","","-42","","Ice Crystals,Blowing Snow"
"-105.14","69.11","CAMBRIDGE BAY A","2400601","2018-01-29 01:00","2018","01","29","01:00","-28.9","","-31.9","","75","","","","28","","19","","8.1","","102.35","","","","-41","","Ice Crystals,Blowing Snow"
"-105.14","69.11","CAMBRIDGE BAY A","2400601","2018-01-29 02:00","2018","01","29","02:00","-28.9","","-32.0","","75","","","","22","","12","","6.4","","102.39","","","","-39","","Ice Crystals"
"-105.14","69.11","CAMBRIDGE BAY A","2400601","2018-01-29 03:00","2018","01","29","03:00","-28.8","","-31.9","","75","","","","31","","37","","3.2","","102.32","","","","-45","","Blowing Snow"
"-105.14","69.11","CAMBRIDGE BAY A","2400601","2018-01-29 04:00","2018","01","29","04:00","-28.5","","-31.6","","75","","","","32","","45","","2.8","","102.33","","","","-46","","Blowing Snow"
"-105.14","69.11","CAMBRIDGE BAY A","2400601","2018-01-29 05:00","2018","01","29","05:00","-28.7","","-31.8","","75","","","","31","","33","","3.2","","102.35","","","","-45","","Blowing Snow"
"-105.14","69.11","CAMBRIDGE BAY A","2400601","2018-01-29 06:00","2018","01","29","06:00","-29.0","","-32.2","","75","","","","30","","32","","4.0","","102.34","","","","-45","","Fog,Blowing Snow"
"-105.14","69.11","CAMBRIDGE BAY A","2400601","2018-01-29 07:00","2018","01","29","07:00","-29.4","","-32.6","","75","","","","28","","28","","4.0","","102.34","","","","-44","","Fog,Blowing Snow"
"-105.14","69.11","CAMBRIDGE BAY A","2400601","2018-01-29 08:00","2018","01","29","08:00","-29.5","","-32.7","","75","","","","25","","16","","16.1","","102.36","","","","-41","","Mainly Clear"
"-105.14","69.11","CAMBRIDGE BAY A","2400601","2018-01-29 09:00","2018","01","29","09:00","-30.7","","-33.9","","74","","","","28","","21","","17.7","","102.32","","","","-44","","NA"
"-105.14","69.11","CAMBRIDGE BAY A","2400601","2018-01-29 10:00","2018","01","29","10:00","-30.8","","-34.1","","74","","","","31","","23","","16.1","","102.30","","","","-45","","Blowing Snow"
"-105.14","69.11","CAMBRIDGE BAY A","2400601","2018-01-29 11:00","2018","01","29","11:00","-30.6","","-33.9","","74","","","","31","","30","","17.7","","102.25","","","","-46","","Blowing Snow"
"-105.14","69.11","CAMBRIDGE BAY A","2400601","2018-01-29 12:00","2018","01","29","12:00","-30.0","","-33.2","","74","","","","29","","23","","19.3","","102.27","","","","-44","","Blowing Snow"
"-105.14","69.11","CAMBRIDGE BAY A","2400601","2018-01-29 13:00","2018","01","29","13:00","-29.5","","-32.6","","75","","","","31","","27","","19.3","","102.23","","","","-44","","Blowing Snow"
"-105.14","69.11","CAMBRIDGE BAY A","2400601","2018-01-29 14:00","2018","01","29","14:00","-30.6","","-33.9","","74","","","","32","","26","","19.3","","102.20","","","","-45","","Blowing Snow"
"-105.14","69.11","CAMBRIDGE BAY A","2400601","2018-01-29 15:00","2018","01","29","15:00","-31.3","","-34.6","","73","","","","31","","23","","19.3","","102.17","","","","-46","","Blowing Snow"
"-105.14","69.11","CAMBRIDGE BAY A","2400601","2018-01-29 16:00","2018","01","29","16:00","-32.3","","-35.7","","73","","","","30","","22","","19.3","","102.11","","","","-47","","Blowing Snow"
"-105.14","69.11","CAMBRIDGE BAY A","2400601","2018-01-29 17:00","2018","01","29","17:00","-32.7","","-36.1","","73","","","","27","","20","","19.3","","102.10","","","","-47","","Blowing Snow"
"-105.14","69.11","CAMBRIDGE BAY A","2400601","2018-01-29 18:00","2018","01","29","18:00","-32.5","","-35.9","","73","","","","31","","30","","11.3","","102.02","","","","-49","","Blowing Snow"
"-105.14","69.11","CAMBRIDGE BAY A","2400601","2018-01-29 19:00","2018","01","29","19:00","-31.6","","-34.9","","73","","","","29","","14","","6.4","","102.03","","","","-43","","Ice Crystals,Blowing Snow"
"-105.14","69.11","CAMBRIDGE BAY A","2400601","2018-01-29 20:00","2018","01","29","20:00","-31.4","","-34.7","","73","","","","24","","22","","6.4","","102.00","","","","-45","","Snow,Blowing Snow"
"-105.14","69.11","CAMBRIDGE BAY A","2400601","2018-01-29 21:00","2018","01","29","21:00","-32.5","","-35.9","","73","","","","27","","20","","8.1","","101.97","","","","-46","","Ice Crystals"
"-105.14","69.11","CAMBRIDGE BAY A","2400601","2018-01-29 22:00","2018","01","29","22:00","-32.6","","-36.0","","73","","","","29","","27","","11.3","","101.91","","","","-48","","Ice Crystals"
"-105.14","69.11","CAMBRIDGE BAY A","2400601","2018-01-29 23:00","2018","01","29","23:00","-32.8","","-36.2","","72","","","","31","","30","","6.4","","101.87","","","","-49","","Ice Crystals,Blowing Snow"
"-105.14","69.11","CAMBRIDGE BAY A","2400601","2018-01-30 00:00","2018","01","30","00:00","-32.3","","-35.6","","73","","","","31","","27","","6.4","","101.91","","","","-48","","Ice Crystals,Blowing Snow"
"-105.14","69.11","CAMBRIDGE BAY A","2400601","2018-01-30 01:00","2018","01","30","01:00","-30.8","","-34.0","","74","","","","32","","27","","8.1","","101.88","","","","-46","","Ice Crystals,Blowing Snow"
"-105.14","69.11","CAMBRIDGE BAY A","2400601","2018-01-30 02:00","2018","01","30","02:00","-31.2","","-34.5","","73","","","","32","","25","","8.1","","101.88","","","","-46","","Ice Crystals,Blowing Snow"
"-105.14","69.11","CAMBRIDGE BAY A","2400601","2018-01-30 03:00","2018","01","30","03:00","-32.1","","-35.5","","73","","","","31","","23","","11.3","","101.91","","","","-47","","Ice Crystals,Blowing Snow"
"-105.14","69.11","CAMBRIDGE BAY A","2400601","2018-01-30 04:00","2018","01","30","04:00","-32.0","","-35.4","","73","","","","33","","24","","16.1","","101.93","","","","-47","","Ice Crystals,Blowing Snow"
"-105.14","69.11","CAMBRIDGE BAY A","2400601","2018-01-30 05:00","2018","01","30","05:00","-32.1","","-35.4","","73","","","","32","","16","","16.1","","101.91","","","","-44","","Ice Crystals,Blowing Snow"
"-105.14","69.11","CAMBRIDGE BAY A","2400601","2018-01-30 06:00","2018","01","30","06:00","-31.2","","-34.6","","73","","","","33","","22","","9.7","","101.93","","","","-45","","Ice Crystals,Blowing Snow"
"-105.14","69.11","CAMBRIDGE BAY A","2400601","2018-01-30 07:00","2018","01","30","07:00","-31.3","","-34.7","","73","","","","33","","21","","17.7","","101.92","","","","-45","","Ice Crystals,Blowing Snow"
"-105.14","69.11","CAMBRIDGE BAY A","2400601","2018-01-30 08:00","2018","01","30","08:00","-30.7","","-34.0","","74","","","","34","","26","","17.7","","101.92","","","","-46","","Ice Crystals,Blowing Snow"
"-105.14","69.11","CAMBRIDGE BAY A","2400601","2018-01-30 09:00","2018","01","30","09:00","-31.2","","-34.5","","73","","","","33","","33","","17.7","","101.94","","","","-48","","Ice Crystals,Blowing Snow"
"-105.14","69.11","CAMBRIDGE BAY A","2400601","2018-01-30 10:00","2018","01","30","10:00","-31.5","","-34.9","","73","","","","32","","32","","16.1","","101.99","","","","-48","","Ice Crystals,Blowing Snow"
"-105.14","69.11","CAMBRIDGE BAY A","2400601","2018-01-30 11:00","2018","01","30","11:00","-30.7","","-34.0","","73","","","","31","","34","","6.4","","101.97","","","","-47","","Ice Crystals,Blowing Snow"
"-105.14","69.11","CAMBRIDGE BAY A","2400601","2018-01-30 12:00","2018","01","30","12:00","-30.4","","-33.6","","74","","","","30","","17","","6.4","","102.03","","","","-43","","Ice Crystals,Blowing Snow"
"-105.14","69.11","CAMBRIDGE BAY A","2400601","2018-01-30 13:00","2018","01","30","13:00","-29.3","","-32.5","","75","","","","30","","23","","6.4","","102.05","","","","-43","","Ice Crystals,Blowing Snow"
"-105.14","69.11","CAMBRIDGE BAY A","2400601","2018-01-30 14:00","2018","01","30","14:00","-29.3","","-32.4","","75","","","","30","","18","","8.1","","102.11","","","","-42","","Ice Crystals,Blowing Snow"
"-105.14","69.11","CAMBRIDGE BAY A","2400601","2018-01-30 15:00","2018","01","30","15:00","-29.5","","-32.7","","74","","","","29","","19","","8.1","","102.12","","","","-42","","Ice Crystals,Blowing Snow"
"-105.14","69.11","CAMBRIDGE BAY A","2400601","2018-01-30 16:00","2018","01","30","16:00","-29.0","","-32.2","","75","","","","29","","25","","8.1","","102.14","","","","-43","","Ice Crystals,Blowing Snow"
"-105.14","69.11","CAMBRIDGE BAY A","2400601","2018-01-30 17:00","2018","01","30","17:00","-29.3","","-32.5","","74","","","","30","","29","","8.1","","102.14","","","","-44","","Ice Crystals,Blowing Snow"
"-105.14","69.11","CAMBRIDGE BAY A","2400601","2018-01-30 18:00","2018","01","30","18:00","-29.4","","-32.6","","74","","","","29","","27","","6.4","","102.15","","","","-44","","Ice Crystals,Blowing Snow"
"-105.14","69.11","CAMBRIDGE BAY A","2400601","2018-01-30 19:00","2018","01","30","19:00","-28.9","","-32.1","","75","","","","30","","26","","3.6","","102.15","","","","-43","","Ice Crystals,Blowing Snow"
"-105.14","69.11","CAMBRIDGE BAY A","2400601","2018-01-30 20:00","2018","01","30","20:00","-29.6","","-32.7","","74","","","","32","","27","","6.4","","102.14","","","","-44","","Ice Crystals,Blowing Snow"
"-105.14","69.11","CAMBRIDGE BAY A","2400601","2018-01-30 21:00","2018","01","30","21:00","-30.9","","-34.2","","74","","","","34","","21","","8.1","","102.20","","","","-45","","Ice Crystals,Blowing Snow"
"-105.14","69.11","CAMBRIDGE BAY A","2400601","2018-01-30 22:00","2018","01","30","22:00","-30.6","","-33.9","","73","","","","34","","25","","9.7","","102.22","","","","-45","","Ice Crystals,Blowing Snow"
"-105.14","69.11","CAMBRIDGE BAY A","2400601","2018-01-30 23:00","2018","01","30","23:00","-31.1","","-34.5","","73","","","","35","","18","","12.9","","102.31","","","","-44","","Ice Crystals,Blowing Snow"
"-105.14","69.11","CAMBRIDGE BAY A","2400601","2018-01-31 00:00","2018","01","31","00:00","-31.3","","-34.7","","73","","","","34","","21","","16.1","","102.35","","","","-45","","Ice Crystals,Blowing Snow"
"-105.14","69.11","CAMBRIDGE BAY A","2400601","2018-01-31 01:00","2018","01","31","01:00","-32.2","","-35.7","","72","","","","32","","18","","19.3","","102.41","","","","-45","","Ice Crystals"
"-105.14","69.11","CAMBRIDGE BAY A","2400601","2018-01-31 02:00","2018","01","31","02:00","-32.4","","-35.8","","72","","","","34","","17","","16.1","","102.45","","","","-45","","Ice Crystals"
"-105.14","69.11","CAMBRIDGE BAY A","2400601","2018-01-31 03:00","2018","01","31","03:00","-33.4","","-36.9","","72","","","","32","","19","","19.3","","102.50","","","","-47","","Ice Crystals"
"-105.14","69.11","CAMBRIDGE BAY A","2400601","2018-01-31 04:00","2018","01","31","04:00","-33.8","","-37.4","","71","","","","31","","19","","16.1","","102.52","","","","-48","","Ice Crystals,Blowing Snow"
"-105.14","69.11","CAMBRIDGE BAY A","2400601","2018-01-31 05:00","2018","01","31","05:00","-32.9","","-36.3","","72","","","","31","","23","","16.1","","102.59","","","","-48","","Ice Crystals,Blowing Snow"
"-105.14","69.11","CAMBRIDGE BAY A","2400601","2018-01-31 06:00","2018","01","31","06:00","-32.2","","-35.6","","72","","","","31","","29","","4.8","","102.55","","","","-48","","Ice Crystals,Blowing Snow"
"-105.14","69.11","CAMBRIDGE BAY A","2400601","2018-01-31 07:00","2018","01","31","07:00","-32.9","","-36.4","","72","","","","29","","13","","4.8","","102.56","","","","-44","","Ice Crystals"
"-105.14","69.11","CAMBRIDGE BAY A","2400601","2018-01-31 08:00","2018","01","31","08:00","-30.8","","-34.1","","73","","","","31","","23","","4.8","","102.53","","","","-45","","Ice Crystals,Blowing Snow"
"-105.14","69.11","CAMBRIDGE BAY A","2400601","2018-01-31 09:00","2018","01","31","09:00","-30.7","","-34.0","","73","","","","32","","23","","16.1","","102.52","","","","-45","","Ice Crystals,Blowing Snow"
"-105.14","69.11","CAMBRIDGE BAY A","2400601","2018-01-31 10:00","2018","01","31","10:00","-30.0","","-33.2","","74","","","","32","","29","","16.1","","102.53","","","","-45","","Ice Crystals,Blowing Snow"
"-105.14","69.11","CAMBRIDGE BAY A","2400601","2018-01-31 11:00","2018","01","31","11:00","-30.0","","-33.3","","74","","","","32","","22","","12.9","","102.57","","","","-44","","Ice Crystals,Blowing Snow"
"-105.14","69.11","CAMBRIDGE BAY A","2400601","2018-01-31 12:00","2018","01","31","12:00","-29.7","","-32.9","","74","","","","32","","23","","16.1","","102.56","","","","-44","","Ice Crystals,Blowing Snow"
"-105.14","69.11","CAMBRIDGE BAY A","2400601","2018-01-31 13:00","2018","01","31","13:00","-30.1","","-33.4","","74","","","","31","","18","","17.7","","102.54","","","","-43","","Ice Crystals"
"-105.14","69.11","CAMBRIDGE BAY A","2400601","2018-01-31 14:00","2018","01","31","14:00","-29.9","","-33.2","","74","","","","31","","22","","14.5","","102.52","","","","-44","","Ice Crystals"
"-105.14","69.11","CAMBRIDGE BAY A","2400601","2018-01-31 15:00","2018","01","31","15:00","-28.9","","-32.1","","75","","","","32","","22","","12.9","","102.51","","","","-42","","Ice Crystals"
"-105.14","69.11","CAMBRIDGE BAY A","2400601","2018-01-31 16:00","2018","01","31","16:00","-28.7","","-31.9","","74","","","","32","","32","","3.2","","102.52","","","","-44","","Blowing Snow"
"-105.14","69.11","CAMBRIDGE BAY A","2400601","2018-01-31 17:00","2018","01","31","17:00","-29.2","","-32.4","","74","","","","30","","27","","4.0","","102.48","","","","-44","","Snow,Blowing Snow"
"-105.14","69.11","CAMBRIDGE BAY A","2400601","2018-01-31 18:00","2018","01","31","18:00","-28.9","","-32.2","","74","","","","31","","23","","8.1","","102.44","","","","-43","","Snow,Blowing Snow"
"-105.14","69.11","CAMBRIDGE BAY A","2400601","2018-01-31 19:00","2018","01","31","19:00","-28.7","","-31.9","","74","","","","33","","27","","6.4","","102.40","","","","-43","","Snow,Blowing Snow"
"-105.14","69.11","CAMBRIDGE BAY A","2400601","2018-01-31 20:00","2018","01","31","20:00","-29.4","","-32.8","","73","","","","34","","27","","4.8","","102.32","","","","-44","","Snow,Blowing Snow"
"-105.14","69.11","CAMBRIDGE BAY A","2400601","2018-01-31 21:00","2018","01","31","21:00","-30.5","","-34.0","","73","","","","35","","19","","6.4","","102.30","","","","-43","","Snow,Blowing Snow"
"-105.14","69.11","CAMBRIDGE BAY A","2400601","2018-01-31 22:00","2018","01","31","22:00","-31.4","","-34.8","","72","","","","35","","21","","9.7","","102.30","","","","-45","","Snow,Blowing Snow"
"-105.14","69.11","CAMBRIDGE BAY A","2400601","2018-01-31 23:00","2018","01","31","23:00","-32.3","","-35.8","","71","","","","35","","9","","16.1","","102.33","","","","-41","","Snow"
