"Longitude (x)","Latitude (y)","Station Name","Climate ID","Date/Time (LST)","Year","Month","Day","Time (LST)","Temp (°C)","Temp Flag","Dew Point Temp (°C)","Dew Point Temp Flag","Rel Hum (%)","Rel Hum Flag","Precip. Amount (mm)","Precip. Amount Flag","Wind Dir (10s deg)","Wind Dir Flag","Wind Spd (km/h)","Wind Spd Flag","Visibility (km)","Visibility Flag","Stn Press (kPa)","Stn Press Flag","Hmdx","Hmdx Flag","Wind Chill","Wind Chill Flag","Weather"
"-101.68","54.68","FLIN FLON A","5050960","2012-02-01 00:00","2012","02","01","00:00"
"-101.68","54.68","FLIN FLON A","5050960","2012-02-01 01:00","2012","02","01","01:00"
"-101.68","54.68","FLIN FLON A","5050960","2012-02-01 02:00","2012","02","01","02:00"
"-101.68","54.68","FLIN FLON A","5050960","2012-02-01 03:00","2012","02","01","03:00"
"-101.68","54.68","FLIN FLON A","5050960","2012-02-01 04:00","2012","02","01","04:00"
"-101.68","54.68","FLIN FLON A","5050960","2012-02-01 05:00","2012","02","01","05:00"
"-101.68","54.68","FLIN FLON A","5050960","2012-02-01 06:00","2012","02","01","06:00","-7.5","","-8.1","","95","","","","18","","7","","4.8","","97.35","","","","-11","","Fog"
"-101.68","54.68","FLIN FLON A","5050960","2012-02-01 07:00","2012","02","01","07:00","-7.3","","-7.9","","95","","","","19","","4","","3.2","","97.38","","","","-9","","Snow,Fog"
"-101.68","54.68","FLIN FLON A","5050960","2012-02-01 08:00","2012","02","01","08:00","-7.2","","-7.8","","95","","","","19","","6","","4.8","","97.40","","","","-10","","Snow,Fog"
"-101.68","54.68","FLIN FLON A","5050960","2012-02-01 09:00","2012","02","01","09:00","-7.0","","-7.6","","95","","","","","","0","","6.4","","97.44","","","","","","Snow"
"-101.68","54.68","FLIN FLON A","5050960","2012-02-01 10:00","2012","02","01","10:00","-6.8","","-7.3","","96","","","","","","0","","19.3","","97.43","","","","","","Snow"
"-101.68","54.68","FLIN FLON A","5050960","2012-02-01 11:00","2012","02","01","11:00","-6.5","","-7.0","","96","","","","","","0","","6.4","","97.50","","","","","","Snow"
"-101.68","54.68","FLIN FLON A","5050960","2012-02-01 12:00","2012","02","01","12:00","-5.7","","-6.3","","96","","","","17","","4","","9.7","","97.52","","","","-8","","Snow"
"-101.68","54.68","FLIN FLON A","5050960","2012-02-01 13:00","2012","02","01","13:00","-5.4","","-6.0","","96","","","","22","","4","","24.1","","97.54","","","","-7","","Snow"
"-101.68","54.68","FLIN FLON A","5050960","2012-02-01 14:00","2012","02","01","14:00","-5.1","","-5.7","","96","","","","22","","6","","24.1","","97.54","","","","-8","","Snow"
"-101.68","54.68","FLIN FLON A","5050960","2012-02-01 15:00","2012","02","01","15:00","-4.8","","-5.4","","96","","","","","","0","","24.1","","97.59","","","","","","Cloudy"
"-101.68","54.68","FLIN FLON A","5050960","2012-02-01 16:00","2012","02","01","16:00","-4.1","","-4.8","","95","","","","18","","4","","24.1","","97.64","","","","-6","","Cloudy"
"-101.68","54.68","FLIN FLON A","5050960","2012-02-01 17:00","2012","02","01","17:00","-4.1","","-4.8","","95","","","","21","","4","","24.1","","97.71","","","","-6","","Cloudy"
"-101.68","54.68","FLIN FLON A","5050960","2012-02-01 18:00","2012","02","01","18:00","-4.4","","-4.9","","96","","","","","","0","","24.1","","97.75","","","","","","Cloudy"
"-101.68","54.68","FLIN FLON A","5050960","2012-02-01 19:00","2012","02","01","19:00"
"-101.68","54.68","FLIN FLON A","5050960","2012-02-01 20:00","2012","02","01","20:00"
"-101.68","54.68","FLIN FLON A","5050960","2012-02-01 21:00","2012","02","01","21:00"
"-101.68","54.68","FLIN FLON A","5050960","2012-02-01 22:00","2012","02","01","22:00"
"-101.68","54.68","FLIN FLON A","5050960","2012-02-01 23:00","2012","02","01","23:00"
"-101.68","54.68","FLIN FLON A","5050960","2012-02-02 00:00","2012","02","02","00:00"
"-101.68","54.68","FLIN FLON A","5050960","2012-02-02 01:00","2012","02","02","01:00"
"-101.68","54.68","FLIN FLON A","5050960","2012-02-02 02:00","2012","02","02","02:00"
"-101.68","54.68","FLIN FLON A","5050960","2012-02-02 03:00","2012","02","02","03:00"
"-101.68","54.68","FLIN FLON A","5050960","2012-02-02 04:00","2012","02","02","04:00"
"-101.68","54.68","FLIN FLON A","5050960","2012-02-02 05:00","2012","02","02","05:00"
"-101.68","54.68","FLIN FLON A","5050960","2012-02-02 06:00","2012","02","02","06:00","-4.7","","-5.0","","98","","","","14","","4","","1.6","","98.42","","","","-6","","Snow,Fog"
"-101.68","54.68","FLIN FLON A","5050960","2012-02-02 07:00","2012","02","02","07:00","-4.7","","-5.1","","97","","","","16","","4","","1.6","","98.51","","","","-6","","Snow,Fog"
"-101.68","54.68","FLIN FLON A","5050960","2012-02-02 08:00","2012","02","02","08:00","-4.6","","-5.0","","97","","","","","","0","","4.0","","98.55","","","","","","Snow,Fog"
"-101.68","54.68","FLIN FLON A","5050960","2012-02-02 09:00","2012","02","02","09:00","-4.6","","-5.0","","97","","","","15","","7","","1.6","","98.58","","","","-8","","Snow,Fog"
"-101.68","54.68","FLIN FLON A","5050960","2012-02-02 10:00","2012","02","02","10:00","-4.9","","-5.4","","96","","","","17","","7","","6.4","","98.64","","","","-8","","Snow,Fog"
"-101.68","54.68","FLIN FLON A","5050960","2012-02-02 11:00","2012","02","02","11:00","-5.0","","-5.4","","97","","","","18","","6","","19.3","","98.76","","","","-8","","Snow"
"-101.68","54.68","FLIN FLON A","5050960","2012-02-02 12:00","2012","02","02","12:00","-4.7","","-5.2","","96","","","","","","0","","19.3","","98.87","","","","","","Cloudy"
"-101.68","54.68","FLIN FLON A","5050960","2012-02-02 13:00","2012","02","02","13:00","-4.2","","-4.5","","98","","","","","","0","","19.3","","98.88","","","","","","Cloudy"
"-101.68","54.68","FLIN FLON A","5050960","2012-02-02 14:00","2012","02","02","14:00","-4.3","","-4.7","","97","","","","18","","4","","12.9","","98.86","","","","-6","","Cloudy"
"-101.68","54.68","FLIN FLON A","5050960","2012-02-02 15:00","2012","02","02","15:00","-4.4","","-4.8","","97","","","","17","","6","","12.9","","98.84","","","","-7","","Cloudy"
"-101.68","54.68","FLIN FLON A","5050960","2012-02-02 16:00","2012","02","02","16:00","-4.4","","-4.8","","97","","","","19","","6","","4.8","","98.89","","","","-7","","Fog"
"-101.68","54.68","FLIN FLON A","5050960","2012-02-02 17:00","2012","02","02","17:00","-4.3","","-4.6","","98","","","","28","","7","","1.6","","98.96","","","","-7","","Fog"
"-101.68","54.68","FLIN FLON A","5050960","2012-02-02 18:00","2012","02","02","18:00","-4.4","","-4.6","","99","","","","","","0","","1.2","","99.06","","","","","","Fog"
"-101.68","54.68","FLIN FLON A","5050960","2012-02-02 19:00","2012","02","02","19:00"
"-101.68","54.68","FLIN FLON A","5050960","2012-02-02 20:00","2012","02","02","20:00"
"-101.68","54.68","FLIN FLON A","5050960","2012-02-02 21:00","2012","02","02","21:00"
"-101.68","54.68","FLIN FLON A","5050960","2012-02-02 22:00","2012","02","02","22:00"
"-101.68","54.68","FLIN FLON A","5050960","2012-02-02 23:00","2012","02","02","23:00"
"-101.68","54.68","FLIN FLON A","5050960","2012-02-03 00:00","2012","02","03","00:00"
"-101.68","54.68","FLIN FLON A","5050960","2012-02-03 01:00","2012","02","03","01:00"
"-101.68","54.68","FLIN FLON A","5050960","2012-02-03 02:00","2012","02","03","02:00"
"-101.68","54.68","FLIN FLON A","5050960","2012-02-03 03:00","2012","02","03","03:00"
"-101.68","54.68","FLIN FLON A","5050960","2012-02-03 04:00","2012","02","03","04:00"
"-101.68","54.68","FLIN FLON A","5050960","2012-02-03 05:00","2012","02","03","05:00"
"-101.68","54.68","FLIN FLON A","5050960","2012-02-03 06:00","2012","02","03","06:00","-6.2","","-6.7","","96","","","","22","","11","","12.9","","99.09","","","","-11","","Cloudy"
"-101.68","54.68","FLIN FLON A","5050960","2012-02-03 07:00","2012","02","03","07:00","-6.9","","-7.4","","96","","","","20","","13","","24.1","","99.04","","","","-12","","Cloudy"
"-101.68","54.68","FLIN FLON A","5050960","2012-02-03 08:00","2012","02","03","08:00","-7.8","","-8.3","","96","","","","19","","9","","24.1","","99.03","","","","-12","","Mostly Cloudy"
"-101.68","54.68","FLIN FLON A","5050960","2012-02-03 09:00","2012","02","03","09:00","-8.6","","-9.2","","95","","","","19","","7","","24.1","","99.01","","","","-12","","Cloudy"
"-101.68","54.68","FLIN FLON A","5050960","2012-02-03 10:00","2012","02","03","10:00","-8.3","","-9.0","","95","","","","20","","7","","24.1","","98.99","","","","-12","","Mostly Cloudy"
"-101.68","54.68","FLIN FLON A","5050960","2012-02-03 11:00","2012","02","03","11:00","-6.7","","-7.5","","94","","","","24","","11","","24.1","","98.93","","","","-12","","Mostly Cloudy"
"-101.68","54.68","FLIN FLON A","5050960","2012-02-03 12:00","2012","02","03","12:00","-5.3","","-6.1","","94","","","","24","","11","","24.1","","98.89","","","","-10","","Cloudy"
"-101.68","54.68","FLIN FLON A","5050960","2012-02-03 13:00","2012","02","03","13:00","-3.8","","-5.9","","85","","","","23","","11","","24.1","","98.88","","","","-8","","Cloudy"
"-101.68","54.68","FLIN FLON A","5050960","2012-02-03 14:00","2012","02","03","14:00","-2.7","","-5.1","","84","","","","26","","9","","24.1","","98.86","","","","-6","","Mostly Cloudy"
"-101.68","54.68","FLIN FLON A","5050960","2012-02-03 15:00","2012","02","03","15:00","-1.9","","-4.4","","83","","","","24","","13","","24.1","","98.85","","","","-6","","Mainly Clear"
"-101.68","54.68","FLIN FLON A","5050960","2012-02-03 16:00","2012","02","03","16:00","-1.4","","-3.7","","84","","","","23","","13","","24.1","","98.81","","","","-6","","Mainly Clear"
"-101.68","54.68","FLIN FLON A","5050960","2012-02-03 17:00","2012","02","03","17:00","-1.6","","-3.5","","87","","","","25","","7","","24.1","","98.81","","","","-4","","Mainly Clear"
"-101.68","54.68","FLIN FLON A","5050960","2012-02-03 18:00","2012","02","03","18:00","-3.5","","-4.5","","93","","","","24","","6","","24.1","","98.81","","","","-6","","Mainly Clear"
"-101.68","54.68","FLIN FLON A","5050960","2012-02-03 19:00","2012","02","03","19:00"
"-101.68","54.68","FLIN FLON A","5050960","2012-02-03 20:00","2012","02","03","20:00"
"-101.68","54.68","FLIN FLON A","5050960","2012-02-03 21:00","2012","02","03","21:00"
"-101.68","54.68","FLIN FLON A","5050960","2012-02-03 22:00","2012","02","03","22:00"
"-101.68","54.68","FLIN FLON A","5050960","2012-02-03 23:00","2012","02","03","23:00"
"-101.68","54.68","FLIN FLON A","5050960","2012-02-04 00:00","2012","02","04","00:00"
"-101.68","54.68","FLIN FLON A","5050960","2012-02-04 01:00","2012","02","04","01:00"
"-101.68","54.68","FLIN FLON A","5050960","2012-02-04 02:00","2012","02","04","02:00"
"-101.68","54.68","FLIN FLON A","5050960","2012-02-04 03:00","2012","02","04","03:00"
"-101.68","54.68","FLIN FLON A","5050960","2012-02-04 04:00","2012","02","04","04:00"
"-101.68","54.68","FLIN FLON A","5050960","2012-02-04 05:00","2012","02","04","05:00"
"-101.68","54.68","FLIN FLON A","5050960","2012-02-04 06:00","2012","02","04","06:00","-14.4","","-15.6","","91","","","","","","0","","24.1","","98.88","","","","","","Mainly Clear"
"-101.68","54.68","FLIN FLON A","5050960","2012-02-04 07:00","2012","02","04","07:00","-15.1","","-16.4","","90","","","","","","0","","24.1","","98.89","","","","","","Mainly Clear"
"-101.68","54.68","FLIN FLON A","5050960","2012-02-04 08:00","2012","02","04","08:00","-14.9","","-16.3","","89","","","","","","0","","24.1","","98.89","","","","","","Mainly Clear"
"-101.68","54.68","FLIN FLON A","5050960","2012-02-04 09:00","2012","02","04","09:00","-15.8","","-17.0","","90","","","","","","0","","24.1","","98.89","","","","","","Mainly Clear"
"-101.68","54.68","FLIN FLON A","5050960","2012-02-04 10:00","2012","02","04","10:00","-12.6","","-14.3","","87","","","","19","","6","","24.1","","98.86","","","","-17","","Clear"
"-101.68","54.68","FLIN FLON A","5050960","2012-02-04 11:00","2012","02","04","11:00","-8.6","","-9.2","","95","","","","18","","6","","24.1","","98.81","","","","-12","","Clear"
"-101.68","54.68","FLIN FLON A","5050960","2012-02-04 12:00","2012","02","04","12:00","-6.2","","-7.0","","94","","","","18","","7","","24.1","","98.75","","","","-10","","Clear"
"-101.68","54.68","FLIN FLON A","5050960","2012-02-04 13:00","2012","02","04","13:00","-3.4","","-5.3","","87","","","","18","","4","","24.1","","98.75","","","","-5","","Clear"
"-101.68","54.68","FLIN FLON A","5050960","2012-02-04 14:00","2012","02","04","14:00","-2.2","","-4.7","","83","","","","16","","7","","24.1","","98.70","","","","-5","","Mainly Clear"
"-101.68","54.68","FLIN FLON A","5050960","2012-02-04 15:00","2012","02","04","15:00","-0.3","","-3.9","","77","","","","18","","11","","24.1","","98.64","","","","-4","","Clear"
"-101.68","54.68","FLIN FLON A","5050960","2012-02-04 16:00","2012","02","04","16:00","0.3","","-3.5","","76","","","","19","","7","","24.1","","98.63","","","","","","Clear"
"-101.68","54.68","FLIN FLON A","5050960","2012-02-04 17:00","2012","02","04","17:00","-1.0","","-3.9","","81","","","","20","","7","","24.1","","98.60","","","","-4","","Clear"
"-101.68","54.68","FLIN FLON A","5050960","2012-02-04 18:00","2012","02","04","18:00","-1.9","","-3.8","","87","","","","19","","9","","24.1","","98.56","","","","-5","","Clear"
"-101.68","54.68","FLIN FLON A","5050960","2012-02-04 19:00","2012","02","04","19:00"
"-101.68","54.68","FLIN FLON A","5050960","2012-02-04 20:00","2012","02","04","20:00"
"-101.68","54.68","FLIN FLON A","5050960","2012-02-04 21:00","2012","02","04","21:00"
"-101.68","54.68","FLIN FLON A","5050960","2012-02-04 22:00","2012","02","04","22:00"
"-101.68","54.68","FLIN FLON A","5050960","2012-02-04 23:00","2012","02","04","23:00"
"-101.68","54.68","FLIN FLON A","5050960","2012-02-05 00:00","2012","02","05","00:00"
"-101.68","54.68","FLIN FLON A","5050960","2012-02-05 01:00","2012","02","05","01:00"
"-101.68","54.68","FLIN FLON A","5050960","2012-02-05 02:00","2012","02","05","02:00"
"-101.68","54.68","FLIN FLON A","5050960","2012-02-05 03:00","2012","02","05","03:00"
"-101.68","54.68","FLIN FLON A","5050960","2012-02-05 04:00","2012","02","05","04:00"
"-101.68","54.68","FLIN FLON A","5050960","2012-02-05 05:00","2012","02","05","05:00"
"-101.68","54.68","FLIN FLON A","5050960","2012-02-05 06:00","2012","02","05","06:00","-8.0","","-9.1","","92","","","","25","","9","","24.1","","97.91","","","","-13","","Mainly Clear"
"-101.68","54.68","FLIN FLON A","5050960","2012-02-05 07:00","2012","02","05","07:00","-6.6","","-8.4","","87","","","","25","","9","","24.1","","97.87","","","","-11","","Mainly Clear"
"-101.68","54.68","FLIN FLON A","5050960","2012-02-05 08:00","2012","02","05","08:00","-6.5","","-8.3","","87","","","","28","","6","","24.1","","97.89","","","","-9","","Clear"
"-101.68","54.68","FLIN FLON A","5050960","2012-02-05 09:00","2012","02","05","09:00","-6.6","","-8.4","","87","","","","31","","6","","24.1","","97.93","","","","-10","","Clear"
"-101.68","54.68","FLIN FLON A","5050960","2012-02-05 10:00","2012","02","05","10:00","-5.9","","-7.9","","86","","","","32","","7","","24.1","","97.95","","","","-9","","Clear"
"-101.68","54.68","FLIN FLON A","5050960","2012-02-05 11:00","2012","02","05","11:00","-3.9","","-6.3","","83","","","","33","","7","","24.1","","97.94","","","","-7","","Clear"
"-101.68","54.68","FLIN FLON A","5050960","2012-02-05 12:00","2012","02","05","12:00","-2.0","","-5.1","","79","","","","34","","15","","24.1","","97.95","","","","-7","","Clear"
"-101.68","54.68","FLIN FLON A","5050960","2012-02-05 13:00","2012","02","05","13:00","-0.6","","-5.0","","72","","","","33","","9","","24.1","","97.96","","","","-4","","Clear"
"-101.68","54.68","FLIN FLON A","5050960","2012-02-05 14:00","2012","02","05","14:00","0.5","","-4.4","","70","","","","33","","11","","24.1","","97.98","","","","","","Mostly Cloudy"
"-101.68","54.68","FLIN FLON A","5050960","2012-02-05 15:00","2012","02","05","15:00","1.1","","-3.8","","70","","","","31","","13","","24.1","","98.07","","","","","","Mostly Cloudy"
"-101.68","54.68","FLIN FLON A","5050960","2012-02-05 16:00","2012","02","05","16:00","1.0","","-4.0","","69","","","","30","","15","","24.1","","97.98","","","","","","Mostly Cloudy"
"-101.68","54.68","FLIN FLON A","5050960","2012-02-05 17:00","2012","02","05","17:00","0.1","","-4.3","","72","","","","32","","7","","24.1","","98.09","","","","","","Mainly Clear"
"-101.68","54.68","FLIN FLON A","5050960","2012-02-05 18:00","2012","02","05","18:00","-0.7","","-4.5","","75","","","","30","","7","","24.1","","98.12","","","","-3","","Mostly Cloudy"
"-101.68","54.68","FLIN FLON A","5050960","2012-02-05 19:00","2012","02","05","19:00"
"-101.68","54.68","FLIN FLON A","5050960","2012-02-05 20:00","2012","02","05","20:00"
"-101.68","54.68","FLIN FLON A","5050960","2012-02-05 21:00","2012","02","05","21:00"
"-101.68","54.68","FLIN FLON A","5050960","2012-02-05 22:00","2012","02","05","22:00"
"-101.68","54.68","FLIN FLON A","5050960","2012-02-05 23:00","2012","02","05","23:00"
"-101.68","54.68","FLIN FLON A","5050960","2012-02-06 00:00","2012","02","06","00:00"
"-101.68","54.68","FLIN FLON A","5050960","2012-02-06 01:00","2012","02","06","01:00"
"-101.68","54.68","FLIN FLON A","5050960","2012-02-06 02:00","2012","02","06","02:00"
"-101.68","54.68","FLIN FLON A","5050960","2012-02-06 03:00","2012","02","06","03:00"
"-101.68","54.68","FLIN FLON A","5050960","2012-02-06 04:00","2012","02","06","04:00"
"-101.68","54.68","FLIN FLON A","5050960","2012-02-06 05:00","2012","02","06","05:00"
"-101.68","54.68","FLIN FLON A","5050960","2012-02-06 06:00","2012","02","06","06:00","-12.2","","-14.8","","81","","","","1","","13","","24.1","","99.54","","","","-19","","Snow"
"-101.68","54.68","FLIN FLON A","5050960","2012-02-06 07:00","2012","02","06","07:00","-12.7","","-15.1","","82","","","","2","","19","","24.1","","99.66","","","","-21","","Snow"
"-101.68","54.68","FLIN FLON A","5050960","2012-02-06 08:00","2012","02","06","08:00","-13.5","","-15.9","","82","","","","2","","15","","24.1","","99.77","","","","-21","","Snow"
"-101.68","54.68","FLIN FLON A","5050960","2012-02-06 09:00","2012","02","06","09:00","-13.2","","-15.4","","83","","","","3","","13","","24.1","","99.89","","","","-20","","Snow"
"-101.68","54.68","FLIN FLON A","5050960","2012-02-06 10:00","2012","02","06","10:00","-13.4","","-15.5","","84","","","","2","","13","","19.3","","100.00","","","","-20","","Snow"
"-101.68","54.68","FLIN FLON A","5050960","2012-02-06 11:00","2012","02","06","11:00","-14.0","","-16.4","","82","","","","3","","13","","24.1","","100.07","","","","-21","","Snow"
"-101.68","54.68","FLIN FLON A","5050960","2012-02-06 12:00","2012","02","06","12:00","-13.3","","-16.8","","75","","","","2","","9","","24.1","","100.13","","","","-19","","Snow"
"-101.68","54.68","FLIN FLON A","5050960","2012-02-06 13:00","2012","02","06","13:00","-13.1","","-17.4","","70","","","","3","","9","","24.1","","100.19","","","","-19","","Clear"
"-101.68","54.68","FLIN FLON A","5050960","2012-02-06 14:00","2012","02","06","14:00","-12.1","","-16.1","","72","","","","3","","7","","24.1","","100.17","","","","-16","","Clear"
"-101.68","54.68","FLIN FLON A","5050960","2012-02-06 15:00","2012","02","06","15:00","-11.2","","-18.9","","53","","","","35","","9","","24.1","","100.17","","","","-16","","Clear"
"-101.68","54.68","FLIN FLON A","5050960","2012-02-06 16:00","2012","02","06","16:00","-11.4","","-24.5","","33","","","","34","","11","","24.1","","100.22","","","","-17","","Clear"
"-101.68","54.68","FLIN FLON A","5050960","2012-02-06 17:00","2012","02","06","17:00","-12.1","","-22.0","","44","","","","34","","11","","24.1","","100.28","","","","-18","","Clear"
"-101.68","54.68","FLIN FLON A","5050960","2012-02-06 18:00","2012","02","06","18:00","-14.2","","-22.9","","48","","","","33","","7","","24.1","","100.27","","","","-19","","Clear"
"-101.68","54.68","FLIN FLON A","5050960","2012-02-06 19:00","2012","02","06","19:00"
"-101.68","54.68","FLIN FLON A","5050960","2012-02-06 20:00","2012","02","06","20:00"
"-101.68","54.68","FLIN FLON A","5050960","2012-02-06 21:00","2012","02","06","21:00"
"-101.68","54.68","FLIN FLON A","5050960","2012-02-06 22:00","2012","02","06","22:00"
"-101.68","54.68","FLIN FLON A","5050960","2012-02-06 23:00","2012","02","06","23:00"
"-101.68","54.68","FLIN FLON A","5050960","2012-02-07 00:00","2012","02","07","00:00"
"-101.68","54.68","FLIN FLON A","5050960","2012-02-07 01:00","2012","02","07","01:00"
"-101.68","54.68","FLIN FLON A","5050960","2012-02-07 02:00","2012","02","07","02:00"
"-101.68","54.68","FLIN FLON A","5050960","2012-02-07 03:00","2012","02","07","03:00"
"-101.68","54.68","FLIN FLON A","5050960","2012-02-07 04:00","2012","02","07","04:00"
"-101.68","54.68","FLIN FLON A","5050960","2012-02-07 05:00","2012","02","07","05:00"
"-101.68","54.68","FLIN FLON A","5050960","2012-02-07 06:00","2012","02","07","06:00","-16.4","","-19.5","","77","","","","26","","9","","24.1","","99.84","","","","-22","","Clear"
"-101.68","54.68","FLIN FLON A","5050960","2012-02-07 07:00","2012","02","07","07:00","-16.7","","-19.7","","78","","","","26","","11","","24.1","","99.78","","","","-24","","Clear"
"-101.68","54.68","FLIN FLON A","5050960","2012-02-07 08:00","2012","02","07","08:00","-17.7","","-20.6","","78","","","","24","","11","","24.1","","99.71","","","","-25","","Mainly Clear"
"-101.68","54.68","FLIN FLON A","5050960","2012-02-07 09:00","2012","02","07","09:00","-16.0","","-18.9","","78","","","","26","","13","","24.1","","99.65","","","","-24","","Mainly Clear"
"-101.68","54.68","FLIN FLON A","5050960","2012-02-07 10:00","2012","02","07","10:00","-14.3","","-17.6","","76","","","","26","","17","","24.1","","99.58","","","","-23","","Mostly Cloudy"
"-101.68","54.68","FLIN FLON A","5050960","2012-02-07 11:00","2012","02","07","11:00","-13.3","","-16.7","","76","","","","26","","22","","24.1","","99.48","","","","-22","","Mostly Cloudy"
"-101.68","54.68","FLIN FLON A","5050960","2012-02-07 12:00","2012","02","07","12:00","-12.0","","-15.7","","74","","","","27","","15","","24.1","","99.41","","","","-19","","Mostly Cloudy"
"-101.68","54.68","FLIN FLON A","5050960","2012-02-07 13:00","2012","02","07","13:00","-10.1","","-14.2","","72","","","","26","","19","","24.1","","99.31","","","","-18","","Mostly Cloudy"
"-101.68","54.68","FLIN FLON A","5050960","2012-02-07 14:00","2012","02","07","14:00","-8.4","","-13.2","","68","","","","25","","15","","24.1","","99.22","","","","-15","","Mostly Cloudy"
"-101.68","54.68","FLIN FLON A","5050960","2012-02-07 15:00","2012","02","07","15:00","-7.1","","-13.1","","62","","","","25","","20","","24.1","","99.14","","","","-14","","Mainly Clear"
"-101.68","54.68","FLIN FLON A","5050960","2012-02-07 16:00","2012","02","07","16:00","-6.1","","-12.4","","61","","","","25","","19","","24.1","","99.07","","","","-13","","Mainly Clear"
"-101.68","54.68","FLIN FLON A","5050960","2012-02-07 17:00","2012","02","07","17:00","-6.5","","-11.9","","65","","","","25","","15","","24.1","","99.03","","","","-12","","Clear"
"-101.68","54.68","FLIN FLON A","5050960","2012-02-07 18:00","2012","02","07","18:00","-7.7","","-12.1","","71","","","","24","","9","","24.1","","98.95","","","","-12","","Clear"
"-101.68","54.68","FLIN FLON A","5050960","2012-02-07 19:00","2012","02","07","19:00"
"-101.68","54.68","FLIN FLON A","5050960","2012-02-07 20:00","2012","02","07","20:00"
"-101.68","54.68","FLIN FLON A","5050960","2012-02-07 21:00","2012","02","07","21:00"
"-101.68","54.68","FLIN FLON A","5050960","2012-02-07 22:00","2012","02","07","22:00"
"-101.68","54.68","FLIN FLON A","5050960","2012-02-07 23:00","2012","02","07","23:00"
"-101.68","54.68","FLIN FLON A","5050960","2012-02-08 00:00","2012","02","08","00:00"
"-101.68","54.68","FLIN FLON A","5050960","2012-02-08 01:00","2012","02","08","01:00"
"-101.68","54.68","FLIN FLON A","5050960","2012-02-08 02:00","2012","02","08","02:00"
"-101.68","54.68","FLIN FLON A","5050960","2012-02-08 03:00","2012","02","08","03:00"
"-101.68","54.68","FLIN FLON A","5050960","2012-02-08 04:00","2012","02","08","04:00"
"-101.68","54.68","FLIN FLON A","5050960","2012-02-08 05:00","2012","02","08","05:00"
"-101.68","54.68","FLIN FLON A","5050960","2012-02-08 06:00","2012","02","08","06:00","-12.1","","-13.8","","87","","","","25","","7","","24.1","","98.19","","","","-16","","Clear"
"-101.68","54.68","FLIN FLON A","5050960","2012-02-08 07:00","2012","02","08","07:00","-12.8","","-14.5","","87","","","","25","","15","","24.1","","98.15","","","","-20","","Clear"
"-101.68","54.68","FLIN FLON A","5050960","2012-02-08 08:00","2012","02","08","08:00","-13.4","","-15.0","","88","","","","26","","7","","24.1","","98.12","","","","-18","","Clear"
"-101.68","54.68","FLIN FLON A","5050960","2012-02-08 09:00","2012","02","08","09:00","-13.9","","-15.2","","90","","","","27","","7","","24.1","","98.11","","","","-19","","Mainly Clear"
"-101.68","54.68","FLIN FLON A","5050960","2012-02-08 10:00","2012","02","08","10:00","-12.5","","-14.7","","84","","","","26","","9","","24.1","","98.09","","","","-18","","Mainly Clear"
"-101.68","54.68","FLIN FLON A","5050960","2012-02-08 11:00","2012","02","08","11:00","-10.0","","-13.5","","76","","","","28","","4","","24.1","","98.07","","","","-12","","Mainly Clear"
"-101.68","54.68","FLIN FLON A","5050960","2012-02-08 12:00","2012","02","08","12:00","-8.8","","-13.0","","72","","","","34","","9","","24.1","","98.03","","","","-13","","Mainly Clear"
"-101.68","54.68","FLIN FLON A","5050960","2012-02-08 13:00","2012","02","08","13:00","-7.9","","-13.2","","66","","","","36","","13","","24.1","","98.00","","","","-14","","Mainly Clear"
"-101.68","54.68","FLIN FLON A","5050960","2012-02-08 14:00","2012","02","08","14:00","-8.4","","-12.6","","72","","","","5","","7","","24.1","","97.94","","","","-12","","Mainly Clear"
"-101.68","54.68","FLIN FLON A","5050960","2012-02-08 15:00","2012","02","08","15:00","-7.2","","-13.2","","62","","","","32","","9","","24.1","","97.91","","","","-12","","Mainly Clear"
"-101.68","54.68","FLIN FLON A","5050960","2012-02-08 16:00","2012","02","08","16:00","-9.8","","-13.8","","73","","","","3","","7","","24.1","","97.92","","","","-14","","Mainly Clear"
"-101.68","54.68","FLIN FLON A","5050960","2012-02-08 17:00","2012","02","08","17:00","-11.6","","-14.7","","78","","","","3","","11","","24.1","","97.96","","","","-18","","Mostly Cloudy"
"-101.68","54.68","FLIN FLON A","5050960","2012-02-08 18:00","2012","02","08","18:00","-14.1","","-16.5","","82","","","","2","","9","","24.1","","98.01","","","","-20","","Mainly Clear"
"-101.68","54.68","FLIN FLON A","5050960","2012-02-08 19:00","2012","02","08","19:00"
"-101.68","54.68","FLIN FLON A","5050960","2012-02-08 20:00","2012","02","08","20:00"
"-101.68","54.68","FLIN FLON A","5050960","2012-02-08 21:00","2012","02","08","21:00"
"-101.68","54.68","FLIN FLON A","5050960","2012-02-08 22:00","2012","02","08","22:00"
"-101.68","54.68","FLIN FLON A","5050960","2012-02-08 23:00","2012","02","08","23:00"
"-101.68","54.68","FLIN FLON A","5050960","2012-02-09 00:00","2012","02","09","00:00"
"-101.68","54.68","FLIN FLON A","5050960","2012-02-09 01:00","2012","02","09","01:00"
"-101.68","54.68","FLIN FLON A","5050960","2012-02-09 02:00","2012","02","09","02:00"
"-101.68","54.68","FLIN FLON A","5050960","2012-02-09 03:00","2012","02","09","03:00"
"-101.68","54.68","FLIN FLON A","5050960","2012-02-09 04:00","2012","02","09","04:00"
"-101.68","54.68","FLIN FLON A","5050960","2012-02-09 05:00","2012","02","09","05:00"
"-101.68","54.68","FLIN FLON A","5050960","2012-02-09 06:00","2012","02","09","06:00","-22.9","","-28.8","","58","","","","32","","17","","24.1","","98.44","","","","-33","","Clear"
"-101.68","54.68","FLIN FLON A","5050960","2012-02-09 07:00","2012","02","09","07:00","-22.9","","-29.4","","55","","","","33","","20","","24.1","","98.49","","","","-34","","Clear"
"-101.68","54.68","FLIN FLON A","5050960","2012-02-09 08:00","2012","02","09","08:00","-23.6","","-29.6","","58","","","","32","","15","","24.1","","98.56","","","","-34","","Clear"
"-101.68","54.68","FLIN FLON A","5050960","2012-02-09 09:00","2012","02","09","09:00","-23.7","","-29.5","","59","","","","33","","17","","24.1","","98.64","","","","-34","","Clear"
"-101.68","54.68","FLIN FLON A","5050960","2012-02-09 10:00","2012","02","09","10:00","-22.8","","-28.9","","57","","","","34","","20","","24.1","","98.71","","","","-34","","Mainly Clear"
"-101.68","54.68","FLIN FLON A","5050960","2012-02-09 11:00","2012","02","09","11:00","-22.0","","-28.7","","55","","","","35","","24","","24.1","","98.77","","","","-34","","Mainly Clear"
"-101.68","54.68","FLIN FLON A","5050960","2012-02-09 12:00","2012","02","09","12:00","-21.2","","-26.2","","64","","","","34","","22","","24.1","","98.89","","","","-32","","Mainly Clear"
"-101.68","54.68","FLIN FLON A","5050960","2012-02-09 13:00","2012","02","09","13:00","-20.5","","-27.9","","52","","","","35","","28","","24.1","","98.97","","","","-33","","Mainly Clear"
"-101.68","54.68","FLIN FLON A","5050960","2012-02-09 14:00","2012","02","09","14:00","-20.2","","-27.9","","50","","","","35","","24","","24.1","","99.07","","","","-32","","Clear"
"-101.68","54.68","FLIN FLON A","5050960","2012-02-09 15:00","2012","02","09","15:00","-20.4","","-28.2","","50","","","","36","","28","","24.1","","99.14","","","","-33","","Mainly Clear"
"-101.68","54.68","FLIN FLON A","5050960","2012-02-09 16:00","2012","02","09","16:00","-21.0","","-28.4","","51","","","","36","","20","","24.1","","99.25","","","","-32","","Mainly Clear"
"-101.68","54.68","FLIN FLON A","5050960","2012-02-09 17:00","2012","02","09","17:00","-21.3","","-28.9","","50","","","","36","","26","","24.1","","99.39","","","","-33","","Clear"
"-101.68","54.68","FLIN FLON A","5050960","2012-02-09 18:00","2012","02","09","18:00","-22.6","","-29.7","","52","","","","35","","19","","24.1","","99.50","","","","-33","","Clear"
"-101.68","54.68","FLIN FLON A","5050960","2012-02-09 19:00","2012","02","09","19:00"
"-101.68","54.68","FLIN FLON A","5050960","2012-02-09 20:00","2012","02","09","20:00"
"-101.68","54.68","FLIN FLON A","5050960","2012-02-09 21:00","2012","02","09","21:00"
"-101.68","54.68","FLIN FLON A","5050960","2012-02-09 22:00","2012","02","09","22:00"
"-101.68","54.68","FLIN FLON A","5050960","2012-02-09 23:00","2012","02","09","23:00"
"-101.68","54.68","FLIN FLON A","5050960","2012-02-10 00:00","2012","02","10","00:00"
"-101.68","54.68","FLIN FLON A","5050960","2012-02-10 01:00","2012","02","10","01:00"
"-101.68","54.68","FLIN FLON A","5050960","2012-02-10 02:00","2012","02","10","02:00"
"-101.68","54.68","FLIN FLON A","5050960","2012-02-10 03:00","2012","02","10","03:00"
"-101.68","54.68","FLIN FLON A","5050960","2012-02-10 04:00","2012","02","10","04:00"
"-101.68","54.68","FLIN FLON A","5050960","2012-02-10 05:00","2012","02","10","05:00"
"-101.68","54.68","FLIN FLON A","5050960","2012-02-10 06:00","2012","02","10","06:00","-29.0","","-33.6","","64","","","","29","","9","","24.1","","100.14","","","","-37","","Clear"
"-101.68","54.68","FLIN FLON A","5050960","2012-02-10 07:00","2012","02","10","07:00","-29.3","","-33.9","","64","","","","30","","7","","24.1","","100.15","","","","-36","","Clear"
"-101.68","54.68","FLIN FLON A","5050960","2012-02-10 08:00","2012","02","10","08:00","-29.1","","-33.7","","64","","","","31","","11","","24.1","","100.17","","","","-39","","Clear"
"-101.68","54.68","FLIN FLON A","5050960","2012-02-10 09:00","2012","02","10","09:00","-28.8","","-33.4","","64","","","","31","","6","","24.1","","100.22","","","","-35","","Clear"
"-101.68","54.68","FLIN FLON A","5050960","2012-02-10 10:00","2012","02","10","10:00","-26.8","","-31.6","","64","","","","31","","11","","24.1","","100.26","","","","-36","","Clear"
"-101.68","54.68","FLIN FLON A","5050960","2012-02-10 11:00","2012","02","10","11:00","-24.9","","-29.3","","67","","","","31","","9","","19.3","","100.23","","","","-33","","Snow"
"-101.68","54.68","FLIN FLON A","5050960","2012-02-10 12:00","2012","02","10","12:00","-22.9","","-27.4","","67","","","","33","","11","","24.1","","100.22","","","","-31","","Mainly Clear"
"-101.68","54.68","FLIN FLON A","5050960","2012-02-10 13:00","2012","02","10","13:00","-20.8","","-26.5","","60","","","","29","","13","","24.1","","100.18","","","","-29","","Clear"
"-101.68","54.68","FLIN FLON A","5050960","2012-02-10 14:00","2012","02","10","14:00","-19.4","","-25.7","","57","","","","30","","11","","24.1","","100.13","","","","-27","","Clear"
"-101.68","54.68","FLIN FLON A","5050960","2012-02-10 15:00","2012","02","10","15:00","-18.4","","-25.3","","55","","","","31","","19","","24.1","","100.10","","","","-28","","Clear"
"-101.68","54.68","FLIN FLON A","5050960","2012-02-10 16:00","2012","02","10","16:00","-17.6","","-24.9","","53","","","","30","","17","","24.1","","100.09","","","","-27","","Clear"
"-101.68","54.68","FLIN FLON A","5050960","2012-02-10 17:00","2012","02","10","17:00","-17.7","","-24.9","","53","","","","29","","11","","24.1","","100.09","","","","-25","","Clear"
"-101.68","54.68","FLIN FLON A","5050960","2012-02-10 18:00","2012","02","10","18:00","-19.3","","-25.5","","58","","","","31","","11","","24.1","","100.10","","","","-27","","Clear"
"-101.68","54.68","FLIN FLON A","5050960","2012-02-10 19:00","2012","02","10","19:00"
"-101.68","54.68","FLIN FLON A","5050960","2012-02-10 20:00","2012","02","10","20:00"
"-101.68","54.68","FLIN FLON A","5050960","2012-02-10 21:00","2012","02","10","21:00"
"-101.68","54.68","FLIN FLON A","5050960","2012-02-10 22:00","2012","02","10","22:00"
"-101.68","54.68","FLIN FLON A","5050960","2012-02-10 23:00","2012","02","10","23:00"
"-101.68","54.68","FLIN FLON A","5050960","2012-02-11 00:00","2012","02","11","00:00"
"-101.68","54.68","FLIN FLON A","5050960","2012-02-11 01:00","2012","02","11","01:00"
"-101.68","54.68","FLIN FLON A","5050960","2012-02-11 02:00","2012","02","11","02:00"
"-101.68","54.68","FLIN FLON A","5050960","2012-02-11 03:00","2012","02","11","03:00"
"-101.68","54.68","FLIN FLON A","5050960","2012-02-11 04:00","2012","02","11","04:00"
"-101.68","54.68","FLIN FLON A","5050960","2012-02-11 05:00","2012","02","11","05:00"
"-101.68","54.68","FLIN FLON A","5050960","2012-02-11 06:00","2012","02","11","06:00","-23.6","","-28.6","","63","","","","23","","6","","24.1","","99.79","","","","-29","","Clear"
"-101.68","54.68","FLIN FLON A","5050960","2012-02-11 07:00","2012","02","11","07:00","-24.2","","-29.2","","63","","","","26","","9","","24.1","","99.73","","","","-32","","Clear"
"-101.68","54.68","FLIN FLON A","5050960","2012-02-11 08:00","2012","02","11","08:00","-23.9","","-29.3","","61","","","","25","","7","","24.1","","99.68","","","","-30","","Clear"
"-101.68","54.68","FLIN FLON A","5050960","2012-02-11 09:00","2012","02","11","09:00","-23.8","","-29.0","","62","","","","25","","7","","24.1","","99.60","","","","-30","","Clear"
"-101.68","54.68","FLIN FLON A","5050960","2012-02-11 10:00","2012","02","11","10:00","-21.2","","-27.1","","59","","","","27","","7","","24.1","","99.60","","","","-27","","Clear"
"-101.68","54.68","FLIN FLON A","5050960","2012-02-11 11:00","2012","02","11","11:00","-18.4","","-25.7","","53","","","","27","","13","","24.1","","99.59","","","","-26","","Clear"
"-101.68","54.68","FLIN FLON A","5050960","2012-02-11 12:00","2012","02","11","12:00","-16.3","","-24.7","","48","","","","26","","17","","24.1","","99.52","","","","-25","","Clear"
"-101.68","54.68","FLIN FLON A","5050960","2012-02-11 13:00","2012","02","11","13:00","-14.8","","-23.9","","46","","","","26","","13","","24.1","","99.41","","","","-22","","Clear"
"-101.68","54.68","FLIN FLON A","5050960","2012-02-11 14:00","2012","02","11","14:00","-13.6","","-23.0","","45","","","","25","","15","","24.1","","99.34","","","","-21","","Clear"
"-101.68","54.68","FLIN FLON A","5050960","2012-02-11 15:00","2012","02","11","15:00","-13.0","","-22.9","","43","","","","22","","15","","24.1","","99.28","","","","-20","","Clear"
"-101.68","54.68","FLIN FLON A","5050960","2012-02-11 16:00","2012","02","11","16:00","-12.3","","-22.6","","42","","","","23","","19","","24.1","","99.18","","","","-21","","Clear"
"-101.68","54.68","FLIN FLON A","5050960","2012-02-11 17:00","2012","02","11","17:00","-12.0","","-22.2","","42","","","","24","","13","","24.1","","99.08","","","","-19","","Clear"
"-101.68","54.68","FLIN FLON A","5050960","2012-02-11 18:00","2012","02","11","18:00","-13.2","","-22.3","","46","","","","23","","7","","24.1","","99.02","","","","-18","","Clear"
"-101.68","54.68","FLIN FLON A","5050960","2012-02-11 19:00","2012","02","11","19:00"
"-101.68","54.68","FLIN FLON A","5050960","2012-02-11 20:00","2012","02","11","20:00"
"-101.68","54.68","FLIN FLON A","5050960","2012-02-11 21:00","2012","02","11","21:00"
"-101.68","54.68","FLIN FLON A","5050960","2012-02-11 22:00","2012","02","11","22:00"
"-101.68","54.68","FLIN FLON A","5050960","2012-02-11 23:00","2012","02","11","23:00"
"-101.68","54.68","FLIN FLON A","5050960","2012-02-12 00:00","2012","02","12","00:00"
"-101.68","54.68","FLIN FLON A","5050960","2012-02-12 01:00","2012","02","12","01:00"
"-101.68","54.68","FLIN FLON A","5050960","2012-02-12 02:00","2012","02","12","02:00"
"-101.68","54.68","FLIN FLON A","5050960","2012-02-12 03:00","2012","02","12","03:00"
"-101.68","54.68","FLIN FLON A","5050960","2012-02-12 04:00","2012","02","12","04:00"
"-101.68","54.68","FLIN FLON A","5050960","2012-02-12 05:00","2012","02","12","05:00"
"-101.68","54.68","FLIN FLON A","5050960","2012-02-12 06:00","2012","02","12","06:00","-19.1","","-24.3","","63","","","","20","","9","","24.1","","98.01","","","","-26","","Clear"
"-101.68","54.68","FLIN FLON A","5050960","2012-02-12 07:00","2012","02","12","07:00","-19.5","","-24.6","","64","","","","19","","9","","24.1","","97.88","","","","-26","","Clear"
"-101.68","54.68","FLIN FLON A","5050960","2012-02-12 08:00","2012","02","12","08:00","-20.2","","-24.8","","67","","","","19","","9","","24.1","","97.74","","","","-27","","Clear"
"-101.68","54.68","FLIN FLON A","5050960","2012-02-12 09:00","2012","02","12","09:00","-19.8","","-24.4","","67","","","","20","","11","","24.1","","97.64","","","","-27","","Clear"
"-101.68","54.68","FLIN FLON A","5050960","2012-02-12 10:00","2012","02","12","10:00","-16.3","","-22.9","","57","","","","20","","9","","24.1","","97.57","","","","-22","","Clear"
"-101.68","54.68","FLIN FLON A","5050960","2012-02-12 11:00","2012","02","12","11:00","-13.1","","-21.5","","49","","","","22","","17","","24.1","","97.49","","","","-21","","Clear"
"-101.68","54.68","FLIN FLON A","5050960","2012-02-12 12:00","2012","02","12","12:00","-10.7","","-20.1","","46","","","","22","","19","","24.1","","97.37","","","","-19","","Clear"
"-101.68","54.68","FLIN FLON A","5050960","2012-02-12 13:00","2012","02","12","13:00","-9.0","","-19.0","","44","","","","18","","13","","24.1","","97.28","","","","-15","","Clear"
"-101.68","54.68","FLIN FLON A","5050960","2012-02-12 14:00","2012","02","12","14:00","-7.0","","-18.1","","41","","","","20","","15","","24.1","","97.18","","","","-13","","Clear"
"-101.68","54.68","FLIN FLON A","5050960","2012-02-12 15:00","2012","02","12","15:00","-5.6","","-17.4","","39","","","","20","","19","","24.1","","97.09","","","","-12","","Clear"
"-101.68","54.68","FLIN FLON A","5050960","2012-02-12 16:00","2012","02","12","16:00","-5.0","","-15.7","","43","","","","21","","22","","24.1","","97.00","","","","-12","","Clear"
"-101.68","54.68","FLIN FLON A","5050960","2012-02-12 17:00","2012","02","12","17:00","-5.1","","-15.0","","46","","","","21","","19","","24.1","","96.93","","","","-12","","Clear"
"-101.68","54.68","FLIN FLON A","5050960","2012-02-12 18:00","2012","02","12","18:00","-7.0","","-15.4","","51","","","","20","","11","","24.1","","96.85","","","","-12","","Clear"
"-101.68","54.68","FLIN FLON A","5050960","2012-02-12 19:00","2012","02","12","19:00"
"-101.68","54.68","FLIN FLON A","5050960","2012-02-12 20:00","2012","02","12","20:00"
"-101.68","54.68","FLIN FLON A","5050960","2012-02-12 21:00","2012","02","12","21:00"
"-101.68","54.68","FLIN FLON A","5050960","2012-02-12 22:00","2012","02","12","22:00"
"-101.68","54.68","FLIN FLON A","5050960","2012-02-12 23:00","2012","02","12","23:00"
"-101.68","54.68","FLIN FLON A","5050960","2012-02-13 00:00","2012","02","13","00:00"
"-101.68","54.68","FLIN FLON A","5050960","2012-02-13 01:00","2012","02","13","01:00"
"-101.68","54.68","FLIN FLON A","5050960","2012-02-13 02:00","2012","02","13","02:00"
"-101.68","54.68","FLIN FLON A","5050960","2012-02-13 03:00","2012","02","13","03:00"
"-101.68","54.68","FLIN FLON A","5050960","2012-02-13 04:00","2012","02","13","04:00"
"-101.68","54.68","FLIN FLON A","5050960","2012-02-13 05:00","2012","02","13","05:00"
"-101.68","54.68","FLIN FLON A","5050960","2012-02-13 06:00","2012","02","13","06:00","-16.0","","-20.1","","71","","","","","","0","","24.1","","96.62","","","","","","Clear"
"-101.68","54.68","FLIN FLON A","5050960","2012-02-13 07:00","2012","02","13","07:00","-16.8","","-19.3","","81","","","","","","0","","24.1","","96.63","","","","","","Clear"
"-101.68","54.68","FLIN FLON A","5050960","2012-02-13 08:00","2012","02","13","08:00","-17.7","","-20.7","","77","","","","","","0","","24.1","","96.60","","","","","","Clear"
"-101.68","54.68","FLIN FLON A","5050960","2012-02-13 09:00","2012","02","13","09:00","-17.7","","-20.6","","78","","","","8","","4","","24.1","","96.61","","","","-21","","Clear"
"-101.68","54.68","FLIN FLON A","5050960","2012-02-13 10:00","2012","02","13","10:00","-14.4","","-18.4","","72","","","","","","0","","24.1","","96.61","","","","","","Clear"
"-101.68","54.68","FLIN FLON A","5050960","2012-02-13 11:00","2012","02","13","11:00","-11.2","","-16.5","","65","","","","","","0","","24.1","","96.60","","","","","","Clear"
"-101.68","54.68","FLIN FLON A","5050960","2012-02-13 12:00","2012","02","13","12:00","-8.8","","-15.1","","60","","","","","","0","","24.1","","96.57","","","","","","Clear"
"-101.68","54.68","FLIN FLON A","5050960","2012-02-13 13:00","2012","02","13","13:00","-5.1","","-13.2","","53","","","","","","0","","24.1","","96.54","","","","","","Clear"
"-101.68","54.68","FLIN FLON A","5050960","2012-02-13 14:00","2012","02","13","14:00","-2.6","","-13.5","","43","","","","","","0","","24.1","","96.52","","","","","","Clear"
"-101.68","54.68","FLIN FLON A","5050960","2012-02-13 15:00","2012","02","13","15:00","-1.0","","-12.1","","43","","","","","","0","","24.1","","96.49","","","","","","Clear"
"-101.68","54.68","FLIN FLON A","5050960","2012-02-13 16:00","2012","02","13","16:00","-2.5","","-11.7","","49","","","","18","","4","","24.1","","96.49","","","","-4","","Clear"
"-101.68","54.68","FLIN FLON A","5050960","2012-02-13 17:00","2012","02","13","17:00","-3.6","","-11.3","","55","","","","","","0","","24.1","","96.52","","","","","","Clear"
"-101.68","54.68","FLIN FLON A","5050960","2012-02-13 18:00","2012","02","13","18:00","-6.7","","-11.9","","66","","","","","","0","","24.1","","96.53","","","","","","Clear"
"-101.68","54.68","FLIN FLON A","5050960","2012-02-13 19:00","2012","02","13","19:00"
"-101.68","54.68","FLIN FLON A","5050960","2012-02-13 20:00","2012","02","13","20:00"
"-101.68","54.68","FLIN FLON A","5050960","2012-02-13 21:00","2012","02","13","21:00"
"-101.68","54.68","FLIN FLON A","5050960","2012-02-13 22:00","2012","02","13","22:00"
"-101.68","54.68","FLIN FLON A","5050960","2012-02-13 23:00","2012","02","13","23:00"
"-101.68","54.68","FLIN FLON A","5050960","2012-02-14 00:00","2012","02","14","00:00"
"-101.68","54.68","FLIN FLON A","5050960","2012-02-14 01:00","2012","02","14","01:00"
"-101.68","54.68","FLIN FLON A","5050960","2012-02-14 02:00","2012","02","14","02:00"
"-101.68","54.68","FLIN FLON A","5050960","2012-02-14 03:00","2012","02","14","03:00"
"-101.68","54.68","FLIN FLON A","5050960","2012-02-14 04:00","2012","02","14","04:00"
"-101.68","54.68","FLIN FLON A","5050960","2012-02-14 05:00","2012","02","14","05:00"
"-101.68","54.68","FLIN FLON A","5050960","2012-02-14 06:00","2012","02","14","06:00","-18.8","","-21.0","","83","","","","","","0","","24.1","","96.52","","","","","","Mainly Clear"
"-101.68","54.68","FLIN FLON A","5050960","2012-02-14 07:00","2012","02","14","07:00","-17.8","","-19.2","","89","","","","","","0","","24.1","","96.51","","","","","","Mostly Cloudy"
"-101.68","54.68","FLIN FLON A","5050960","2012-02-14 08:00","2012","02","14","08:00","-16.5","","-17.6","","91","","","","","","0","","24.1","","96.51","","","","","","Cloudy"
"-101.68","54.68","FLIN FLON A","5050960","2012-02-14 09:00","2012","02","14","09:00","-15.6","","-17.1","","88","","","","","","0","","24.1","","96.54","","","","","","Cloudy"
"-101.68","54.68","FLIN FLON A","5050960","2012-02-14 10:00","2012","02","14","10:00","-13.2","","-14.7","","88","","","","","","0","","24.1","","96.54","","","","","","Cloudy"
"-101.68","54.68","FLIN FLON A","5050960","2012-02-14 11:00","2012","02","14","11:00","-10.7","","-13.1","","82","","","","","","0","","24.1","","96.52","","","","","","Cloudy"
"-101.68","54.68","FLIN FLON A","5050960","2012-02-14 12:00","2012","02","14","12:00","-7.7","","-11.3","","75","","","","","","0","","24.1","","96.51","","","","","","Cloudy"
"-101.68","54.68","FLIN FLON A","5050960","2012-02-14 13:00","2012","02","14","13:00","-5.4","","-10.4","","68","","","","21","","4","","24.1","","96.53","","","","-7","","Cloudy"
"-101.68","54.68","FLIN FLON A","5050960","2012-02-14 14:00","2012","02","14","14:00","-3.3","","-8.7","","66","","","","","","0","","24.1","","96.52","","","","","","Cloudy"
"-101.68","54.68","FLIN FLON A","5050960","2012-02-14 15:00","2012","02","14","15:00","-2.2","","-7.6","","66","","","","30","","9","","24.1","","96.53","","","","-6","","Mostly Cloudy"
"-101.68","54.68","FLIN FLON A","5050960","2012-02-14 16:00","2012","02","14","16:00","-1.7","","-7.5","","65","","","","30","","9","","24.1","","96.54","","","","-5","","Mostly Cloudy"
"-101.68","54.68","FLIN FLON A","5050960","2012-02-14 17:00","2012","02","14","17:00","-1.6","","-7.2","","66","","","","","","0","","24.1","","96.57","","","","","","Cloudy"
"-101.68","54.68","FLIN FLON A","5050960","2012-02-14 18:00","2012","02","14","18:00","-2.1","","-6.5","","72","","","","26","","4","","24.1","","96.62","","","","-4","","Mostly Cloudy"
"-101.68","54.68","FLIN FLON A","5050960","2012-02-14 19:00","2012","02","14","19:00"
"-101.68","54.68","FLIN FLON A","5050960","2012-02-14 20:00","2012","02","14","20:00"
"-101.68","54.68","FLIN FLON A","5050960","2012-02-14 21:00","2012","02","14","21:00"
"-101.68","54.68","FLIN FLON A","5050960","2012-02-14 22:00","2012","02","14","22:00"
"-101.68","54.68","FLIN FLON A","5050960","2012-02-14 23:00","2012","02","14","23:00"
"-101.68","54.68","FLIN FLON A","5050960","2012-02-15 00:00","2012","02","15","00:00"
"-101.68","54.68","FLIN FLON A","5050960","2012-02-15 01:00","2012","02","15","01:00"
"-101.68","54.68","FLIN FLON A","5050960","2012-02-15 02:00","2012","02","15","02:00"
"-101.68","54.68","FLIN FLON A","5050960","2012-02-15 03:00","2012","02","15","03:00"
"-101.68","54.68","FLIN FLON A","5050960","2012-02-15 04:00","2012","02","15","04:00"
"-101.68","54.68","FLIN FLON A","5050960","2012-02-15 05:00","2012","02","15","05:00"
"-101.68","54.68","FLIN FLON A","5050960","2012-02-15 06:00","2012","02","15","06:00","-11.2","","-12.6","","89","","","","31","","9","","24.1","","97.17","","","","-16","","Mainly Clear"
"-101.68","54.68","FLIN FLON A","5050960","2012-02-15 07:00","2012","02","15","07:00","-9.7","","-11.3","","88","","","","32","","7","","24.1","","97.22","","","","-14","","Mostly Cloudy"
"-101.68","54.68","FLIN FLON A","5050960","2012-02-15 08:00","2012","02","15","08:00","-10.5","","-12.3","","87","","","","28","","11","","24.1","","97.28","","","","-16","","Cloudy"
"-101.68","54.68","FLIN FLON A","5050960","2012-02-15 09:00","2012","02","15","09:00","-8.3","","-10.2","","86","","","","29","","6","","24.1","","97.33","","","","-12","","Cloudy"
"-101.68","54.68","FLIN FLON A","5050960","2012-02-15 10:00","2012","02","15","10:00","-6.9","","-9.3","","83","","","","29","","7","","24.1","","97.39","","","","-10","","Cloudy"
"-101.68","54.68","FLIN FLON A","5050960","2012-02-15 11:00","2012","02","15","11:00","-5.6","","-8.6","","79","","","","27","","6","","24.1","","97.43","","","","-8","","Cloudy"
"-101.68","54.68","FLIN FLON A","5050960","2012-02-15 12:00","2012","02","15","12:00","-3.8","","-8.4","","70","","","","30","","6","","24.1","","97.46","","","","-6","","Cloudy"
"-101.68","54.68","FLIN FLON A","5050960","2012-02-15 13:00","2012","02","15","13:00","-3.4","","-8.1","","70","","","","29","","6","","24.1","","97.45","","","","-6","","Cloudy"
"-101.68","54.68","FLIN FLON A","5050960","2012-02-15 14:00","2012","02","15","14:00","-2.7","","-7.7","","68","","","","27","","9","","24.1","","97.45","","","","-6","","Cloudy"
"-101.68","54.68","FLIN FLON A","5050960","2012-02-15 15:00","2012","02","15","15:00","-3.4","","-8.5","","68","","","","34","","13","","24.1","","97.48","","","","-8","","Cloudy"
"-101.68","54.68","FLIN FLON A","5050960","2012-02-15 16:00","2012","02","15","16:00","-3.2","","-8.8","","65","","","","31","","7","","24.1","","97.51","","","","-6","","Cloudy"
"-101.68","54.68","FLIN FLON A","5050960","2012-02-15 17:00","2012","02","15","17:00","-3.4","","-8.8","","66","","","","30","","6","","24.1","","97.57","","","","-6","","Cloudy"
"-101.68","54.68","FLIN FLON A","5050960","2012-02-15 18:00","2012","02","15","18:00","-4.0","","-9.2","","67","","","","31","","9","","24.1","","97.63","","","","-8","","Snow Showers"
"-101.68","54.68","FLIN FLON A","5050960","2012-02-15 19:00","2012","02","15","19:00"
"-101.68","54.68","FLIN FLON A","5050960","2012-02-15 20:00","2012","02","15","20:00"
"-101.68","54.68","FLIN FLON A","5050960","2012-02-15 21:00","2012","02","15","21:00"
"-101.68","54.68","FLIN FLON A","5050960","2012-02-15 22:00","2012","02","15","22:00"
"-101.68","54.68","FLIN FLON A","5050960","2012-02-15 23:00","2012","02","15","23:00"
"-101.68","54.68","FLIN FLON A","5050960","2012-02-16 00:00","2012","02","16","00:00"
"-101.68","54.68","FLIN FLON A","5050960","2012-02-16 01:00","2012","02","16","01:00"
"-101.68","54.68","FLIN FLON A","5050960","2012-02-16 02:00","2012","02","16","02:00"
"-101.68","54.68","FLIN FLON A","5050960","2012-02-16 03:00","2012","02","16","03:00"
"-101.68","54.68","FLIN FLON A","5050960","2012-02-16 04:00","2012","02","16","04:00"
"-101.68","54.68","FLIN FLON A","5050960","2012-02-16 05:00","2012","02","16","05:00"
"-101.68","54.68","FLIN FLON A","5050960","2012-02-16 06:00","2012","02","16","06:00","-10.3","","-12.1","","87","","","","36","","9","","24.1","","97.97","","","","-15","","Snow"
"-101.68","54.68","FLIN FLON A","5050960","2012-02-16 07:00","2012","02","16","07:00","-10.7","","-12.8","","84","","","","2","","9","","24.1","","97.98","","","","-16","","Snow"
"-101.68","54.68","FLIN FLON A","5050960","2012-02-16 08:00","2012","02","16","08:00","-12.0","","-14.1","","84","","","","3","","9","","24.1","","98.00","","","","-17","","Snow"
"-101.68","54.68","FLIN FLON A","5050960","2012-02-16 09:00","2012","02","16","09:00","-14.9","","-16.4","","88","","","","2","","7","","24.1","","98.04","","","","-20","","Mainly Clear"
"-101.68","54.68","FLIN FLON A","5050960","2012-02-16 10:00","2012","02","16","10:00","-13.6","","-15.7","","84","","","","2","","9","","24.1","","98.09","","","","-19","","Mostly Cloudy"
"-101.68","54.68","FLIN FLON A","5050960","2012-02-16 11:00","2012","02","16","11:00","-11.0","","-13.9","","79","","","","3","","7","","24.1","","98.12","","","","-15","","Cloudy"
"-101.68","54.68","FLIN FLON A","5050960","2012-02-16 12:00","2012","02","16","12:00","-10.0","","-13.6","","75","","","","3","","9","","24.1","","98.14","","","","-15","","Cloudy"
"-101.68","54.68","FLIN FLON A","5050960","2012-02-16 13:00","2012","02","16","13:00","-9.1","","-12.7","","75","","","","5","","7","","24.1","","98.15","","","","-13","","Snow"
"-101.68","54.68","FLIN FLON A","5050960","2012-02-16 14:00","2012","02","16","14:00","-8.9","","-12.6","","75","","","","6","","4","","24.1","","98.14","","","","-11","","Snow"
"-101.68","54.68","FLIN FLON A","5050960","2012-02-16 15:00","2012","02","16","15:00","-8.5","","-12.8","","71","","","","6","","6","","24.1","","98.12","","","","-12","","Mainly Clear"
"-101.68","54.68","FLIN FLON A","5050960","2012-02-16 16:00","2012","02","16","16:00","-7.9","","-13.0","","67","","","","31","","6","","24.1","","98.13","","","","-11","","Mainly Clear"
"-101.68","54.68","FLIN FLON A","5050960","2012-02-16 17:00","2012","02","16","17:00","-8.4","","-13.3","","68","","","","33","","9","","24.1","","98.14","","","","-13","","Mainly Clear"
"-101.68","54.68","FLIN FLON A","5050960","2012-02-16 18:00","2012","02","16","18:00","-10.4","","-14.4","","72","","","","35","","11","","24.1","","98.19","","","","-16","","Mainly Clear"
"-101.68","54.68","FLIN FLON A","5050960","2012-02-16 19:00","2012","02","16","19:00"
"-101.68","54.68","FLIN FLON A","5050960","2012-02-16 20:00","2012","02","16","20:00"
"-101.68","54.68","FLIN FLON A","5050960","2012-02-16 21:00","2012","02","16","21:00"
"-101.68","54.68","FLIN FLON A","5050960","2012-02-16 22:00","2012","02","16","22:00"
"-101.68","54.68","FLIN FLON A","5050960","2012-02-16 23:00","2012","02","16","23:00"
"-101.68","54.68","FLIN FLON A","5050960","2012-02-17 00:00","2012","02","17","00:00"
"-101.68","54.68","FLIN FLON A","5050960","2012-02-17 01:00","2012","02","17","01:00"
"-101.68","54.68","FLIN FLON A","5050960","2012-02-17 02:00","2012","02","17","02:00"
"-101.68","54.68","FLIN FLON A","5050960","2012-02-17 03:00","2012","02","17","03:00"
"-101.68","54.68","FLIN FLON A","5050960","2012-02-17 04:00","2012","02","17","04:00"
"-101.68","54.68","FLIN FLON A","5050960","2012-02-17 05:00","2012","02","17","05:00"
"-101.68","54.68","FLIN FLON A","5050960","2012-02-17 06:00","2012","02","17","06:00","-13.2","","-15.2","","85","","","","20","","6","","24.1","","98.44","","","","-17","","Snow"
"-101.68","54.68","FLIN FLON A","5050960","2012-02-17 07:00","2012","02","17","07:00","-13.2","","-15.0","","86","","","","19","","4","","24.1","","98.47","","","","-16","","Snow"
"-101.68","54.68","FLIN FLON A","5050960","2012-02-17 08:00","2012","02","17","08:00","-13.6","","-15.5","","86","","","","18","","6","","24.1","","98.47","","","","-18","","Snow"
"-101.68","54.68","FLIN FLON A","5050960","2012-02-17 09:00","2012","02","17","09:00","-13.4","","-15.1","","87","","","","17","","9","","24.1","","98.44","","","","-19","","Snow"
"-101.68","54.68","FLIN FLON A","5050960","2012-02-17 10:00","2012","02","17","10:00","-13.2","","-14.9","","87","","","","18","","9","","24.1","","98.45","","","","-19","","Snow"
"-101.68","54.68","FLIN FLON A","5050960","2012-02-17 11:00","2012","02","17","11:00","-12.5","","-14.2","","87","","","","17","","11","","24.1","","98.47","","","","-19","","Snow"
"-101.68","54.68","FLIN FLON A","5050960","2012-02-17 12:00","2012","02","17","12:00","-11.3","","-13.9","","81","","","","17","","13","","24.1","","98.41","","","","-18","","Mainly Clear"
"-101.68","54.68","FLIN FLON A","5050960","2012-02-17 13:00","2012","02","17","13:00","-10.4","","-14.0","","75","","","","17","","13","","24.1","","98.34","","","","-17","","Mainly Clear"
"-101.68","54.68","FLIN FLON A","5050960","2012-02-17 14:00","2012","02","17","14:00","-9.2","","-13.7","","70","","","","17","","11","","24.1","","98.27","","","","-15","","Mainly Clear"
"-101.68","54.68","FLIN FLON A","5050960","2012-02-17 15:00","2012","02","17","15:00","-8.2","","-13.6","","65","","","","16","","9","","24.1","","98.21","","","","-13","","Mainly Clear"
"-101.68","54.68","FLIN FLON A","5050960","2012-02-17 16:00","2012","02","17","16:00","-7.5","","-13.1","","64","","","","17","","7","","24.1","","98.15","","","","-11","","Mainly Clear"
"-101.68","54.68","FLIN FLON A","5050960","2012-02-17 17:00","2012","02","17","17:00","-8.2","","-13.3","","67","","","","16","","9","","24.1","","98.08","","","","-13","","Mostly Cloudy"
"-101.68","54.68","FLIN FLON A","5050960","2012-02-17 18:00","2012","02","17","18:00","-8.6","","-13.5","","68","","","","18","","9","","24.1","","98.07","","","","-13","","Mostly Cloudy"
"-101.68","54.68","FLIN FLON A","5050960","2012-02-17 19:00","2012","02","17","19:00"
"-101.68","54.68","FLIN FLON A","5050960","2012-02-17 20:00","2012","02","17","20:00"
"-101.68","54.68","FLIN FLON A","5050960","2012-02-17 21:00","2012","02","17","21:00"
"-101.68","54.68","FLIN FLON A","5050960","2012-02-17 22:00","2012","02","17","22:00"
"-101.68","54.68","FLIN FLON A","5050960","2012-02-17 23:00","2012","02","17","23:00"
"-101.68","54.68","FLIN FLON A","5050960","2012-02-18 00:00","2012","02","18","00:00"
"-101.68","54.68","FLIN FLON A","5050960","2012-02-18 01:00","2012","02","18","01:00"
"-101.68","54.68","FLIN FLON A","5050960","2012-02-18 02:00","2012","02","18","02:00"
"-101.68","54.68","FLIN FLON A","5050960","2012-02-18 03:00","2012","02","18","03:00"
"-101.68","54.68","FLIN FLON A","5050960","2012-02-18 04:00","2012","02","18","04:00"
"-101.68","54.68","FLIN FLON A","5050960","2012-02-18 05:00","2012","02","18","05:00"
"-101.68","54.68","FLIN FLON A","5050960","2012-02-18 06:00","2012","02","18","06:00","-20.2","","-24.2","","70","","","","","","0","","24.1","","97.76","","","","","","Mainly Clear"
"-101.68","54.68","FLIN FLON A","5050960","2012-02-18 07:00","2012","02","18","07:00","-21.0","","-25.1","","70","","","","","","0","","24.1","","97.75","","","","","","Clear"
"-101.68","54.68","FLIN FLON A","5050960","2012-02-18 08:00","2012","02","18","08:00","-21.3","","-25.4","","69","","","","","","0","","24.1","","97.74","","","","","","Mainly Clear"
"-101.68","54.68","FLIN FLON A","5050960","2012-02-18 09:00","2012","02","18","09:00","-20.5","","-24.1","","73","","","","","","0","","24.1","","97.74","","","","","","Mainly Clear"
"-101.68","54.68","FLIN FLON A","5050960","2012-02-18 10:00","2012","02","18","10:00","-17.3","","-21.4","","70","","","","19","","6","","24.1","","97.75","","","","-22","","Mainly Clear"
"-101.68","54.68","FLIN FLON A","5050960","2012-02-18 11:00","2012","02","18","11:00","-13.3","","-17.0","","74","","","","18","","4","","24.1","","97.71","","","","-16","","Mainly Clear"
"-101.68","54.68","FLIN FLON A","5050960","2012-02-18 12:00","2012","02","18","12:00","-9.6","","-15.2","","64","","","","21","","6","","24.1","","97.70","","","","-13","","Clear"
"-101.68","54.68","FLIN FLON A","5050960","2012-02-18 13:00","2012","02","18","13:00","-6.5","","-11.1","","70","","","","17","","6","","24.1","","97.67","","","","-9","","Clear"
"-101.68","54.68","FLIN FLON A","5050960","2012-02-18 14:00","2012","02","18","14:00","-3.3","","-9.2","","64","","","","19","","6","","24.1","","97.61","","","","-6","","Mainly Clear"
"-101.68","54.68","FLIN FLON A","5050960","2012-02-18 15:00","2012","02","18","15:00","-2.3","","-8.9","","60","","","","17","","6","","24.1","","97.56","","","","-5","","Mainly Clear"
"-101.68","54.68","FLIN FLON A","5050960","2012-02-18 16:00","2012","02","18","16:00","-1.0","","-7.8","","60","","","","17","","6","","24.1","","97.54","","","","-3","","Mostly Cloudy"
"-101.68","54.68","FLIN FLON A","5050960","2012-02-18 17:00","2012","02","18","17:00","-1.6","","-7.9","","62","","","","19","","4","","24.1","","97.54","","","","-3","","Mostly Cloudy"
"-101.68","54.68","FLIN FLON A","5050960","2012-02-18 18:00","2012","02","18","18:00","-4.4","","-8.6","","72","","","","","","0","","24.1","","97.53","","","","","","Mainly Clear"
"-101.68","54.68","FLIN FLON A","5050960","2012-02-18 19:00","2012","02","18","19:00"
"-101.68","54.68","FLIN FLON A","5050960","2012-02-18 20:00","2012","02","18","20:00"
"-101.68","54.68","FLIN FLON A","5050960","2012-02-18 21:00","2012","02","18","21:00"
"-101.68","54.68","FLIN FLON A","5050960","2012-02-18 22:00","2012","02","18","22:00"
"-101.68","54.68","FLIN FLON A","5050960","2012-02-18 23:00","2012","02","18","23:00"
"-101.68","54.68","FLIN FLON A","5050960","2012-02-19 00:00","2012","02","19","00:00"
"-101.68","54.68","FLIN FLON A","5050960","2012-02-19 01:00","2012","02","19","01:00"
"-101.68","54.68","FLIN FLON A","5050960","2012-02-19 02:00","2012","02","19","02:00"
"-101.68","54.68","FLIN FLON A","5050960","2012-02-19 03:00","2012","02","19","03:00"
"-101.68","54.68","FLIN FLON A","5050960","2012-02-19 04:00","2012","02","19","04:00"
"-101.68","54.68","FLIN FLON A","5050960","2012-02-19 05:00","2012","02","19","05:00"
"-101.68","54.68","FLIN FLON A","5050960","2012-02-19 06:00","2012","02","19","06:00","-18.3","","-19.7","","89","","","","","","0","","24.1","","97.37","","","","","","Clear"
"-101.68","54.68","FLIN FLON A","5050960","2012-02-19 07:00","2012","02","19","07:00","-19.1","","-20.4","","89","","","","","","0","","24.1","","97.36","","","","","","Clear"
"-101.68","54.68","FLIN FLON A","5050960","2012-02-19 08:00","2012","02","19","08:00","-19.0","","-20.3","","89","","","","4","","4","","24.1","","97.34","","","","-22","","Mostly Cloudy"
"-101.68","54.68","FLIN FLON A","5050960","2012-02-19 09:00","2012","02","19","09:00","-17.4","","-18.6","","90","","","","","","0","","24.1","","97.33","","","","","","Mostly Cloudy"
"-101.68","54.68","FLIN FLON A","5050960","2012-02-19 10:00","2012","02","19","10:00","-14.0","","-15.0","","92","","","","2","","4","","24.1","","97.35","","","","-17","","Cloudy"
"-101.68","54.68","FLIN FLON A","5050960","2012-02-19 11:00","2012","02","19","11:00","-10.1","","-10.9","","94","","","","","","0","","24.1","","97.33","","","","","","Cloudy"
"-101.68","54.68","FLIN FLON A","5050960","2012-02-19 12:00","2012","02","19","12:00","-5.0","","-7.9","","80","","","","8","","6","","24.1","","97.30","","","","-8","","Cloudy"
"-101.68","54.68","FLIN FLON A","5050960","2012-02-19 13:00","2012","02","19","13:00","-2.4","","-7.5","","68","","","","9","","9","","24.1","","97.26","","","","-6","","Mostly Cloudy"
"-101.68","54.68","FLIN FLON A","5050960","2012-02-19 14:00","2012","02","19","14:00","-0.9","","-7.1","","63","","","","13","","9","","24.1","","97.22","","","","-4","","Mostly Cloudy"
"-101.68","54.68","FLIN FLON A","5050960","2012-02-19 15:00","2012","02","19","15:00","-0.7","","-7.3","","61","","","","9","","9","","24.1","","97.18","","","","-4","","Mostly Cloudy"
"-101.68","54.68","FLIN FLON A","5050960","2012-02-19 16:00","2012","02","19","16:00","-1.2","","-7.4","","63","","","","10","","11","","24.1","","97.16","","","","-5","","Mostly Cloudy"
"-101.68","54.68","FLIN FLON A","5050960","2012-02-19 17:00","2012","02","19","17:00","-1.5","","-7.3","","65","","","","9","","7","","24.1","","97.14","","","","-4","","Cloudy"
"-101.68","54.68","FLIN FLON A","5050960","2012-02-19 18:00","2012","02","19","18:00","-1.8","","-7.2","","67","","","","10","","9","","24.1","","97.19","","","","-5","","Mostly Cloudy"
"-101.68","54.68","FLIN FLON A","5050960","2012-02-19 19:00","2012","02","19","19:00"
"-101.68","54.68","FLIN FLON A","5050960","2012-02-19 20:00","2012","02","19","20:00"
"-101.68","54.68","FLIN FLON A","5050960","2012-02-19 21:00","2012","02","19","21:00"
"-101.68","54.68","FLIN FLON A","5050960","2012-02-19 22:00","2012","02","19","22:00"
"-101.68","54.68","FLIN FLON A","5050960","2012-02-19 23:00","2012","02","19","23:00"
"-101.68","54.68","FLIN FLON A","5050960","2012-02-20 00:00","2012","02","20","00:00"
"-101.68","54.68","FLIN FLON A","5050960","2012-02-20 01:00","2012","02","20","01:00"
"-101.68","54.68","FLIN FLON A","5050960","2012-02-20 02:00","2012","02","20","02:00"
"-101.68","54.68","FLIN FLON A","5050960","2012-02-20 03:00","2012","02","20","03:00"
"-101.68","54.68","FLIN FLON A","5050960","2012-02-20 04:00","2012","02","20","04:00"
"-101.68","54.68","FLIN FLON A","5050960","2012-02-20 05:00","2012","02","20","05:00"
"-101.68","54.68","FLIN FLON A","5050960","2012-02-20 06:00","2012","02","20","06:00","-8.0","","-9.5","","89","","","","5","","7","","24.1","","97.11","","","","-12","","Cloudy"
"-101.68","54.68","FLIN FLON A","5050960","2012-02-20 07:00","2012","02","20","07:00","-8.9","","-10.5","","88","","","","7","","19","","24.1","","97.12","","","","-16","","Cloudy"
"-101.68","54.68","FLIN FLON A","5050960","2012-02-20 08:00","2012","02","20","08:00","-9.9","","-11.6","","87","","","","6","","15","","24.1","","97.16","","","","-17","","Cloudy"
"-101.68","54.68","FLIN FLON A","5050960","2012-02-20 09:00","2012","02","20","09:00","-10.7","","-12.7","","85","","","","7","","11","","24.1","","97.19","","","","-16","","Snow"
"-101.68","54.68","FLIN FLON A","5050960","2012-02-20 10:00","2012","02","20","10:00","-11.2","","-13.3","","84","","","","7","","15","","19.3","","97.20","","","","-18","","Snow"
"-101.68","54.68","FLIN FLON A","5050960","2012-02-20 11:00","2012","02","20","11:00","-11.2","","-13.3","","84","","","","6","","15","","4.0","","97.21","","","","-18","","Snow"
"-101.68","54.68","FLIN FLON A","5050960","2012-02-20 12:00","2012","02","20","12:00","-10.8","","-12.9","","84","","","","6","","15","","2.4","","97.21","","","","-18","","Snow"
"-101.68","54.68","FLIN FLON A","5050960","2012-02-20 13:00","2012","02","20","13:00","-10.8","","-13.1","","83","","","","6","","9","","8.0","","97.25","","","","-16","","Snow"
"-101.68","54.68","FLIN FLON A","5050960","2012-02-20 14:00","2012","02","20","14:00","-10.6","","-13.2","","81","","","","6","","11","","24.1","","97.20","","","","-16","","Snow"
"-101.68","54.68","FLIN FLON A","5050960","2012-02-20 15:00","2012","02","20","15:00","-11.4","","-14.1","","80","","","","7","","13","","24.1","","97.23","","","","-18","","Snow"
"-101.68","54.68","FLIN FLON A","5050960","2012-02-20 16:00","2012","02","20","16:00","-11.6","","-14.1","","82","","","","8","","9","","24.1","","97.25","","","","-17","","Snow"
"-101.68","54.68","FLIN FLON A","5050960","2012-02-20 17:00","2012","02","20","17:00","-11.9","","-14.1","","84","","","","6","","13","","19.3","","97.29","","","","-19","","Snow"
"-101.68","54.68","FLIN FLON A","5050960","2012-02-20 18:00","2012","02","20","18:00","-12.6","","-14.0","","89","","","","7","","7","","4.8","","97.33","","","","-17","","Snow"
"-101.68","54.68","FLIN FLON A","5050960","2012-02-20 19:00","2012","02","20","19:00"
"-101.68","54.68","FLIN FLON A","5050960","2012-02-20 20:00","2012","02","20","20:00"
"-101.68","54.68","FLIN FLON A","5050960","2012-02-20 21:00","2012","02","20","21:00"
"-101.68","54.68","FLIN FLON A","5050960","2012-02-20 22:00","2012","02","20","22:00"
"-101.68","54.68","FLIN FLON A","5050960","2012-02-20 23:00","2012","02","20","23:00"
"-101.68","54.68","FLIN FLON A","5050960","2012-02-21 00:00","2012","02","21","00:00"
"-101.68","54.68","FLIN FLON A","5050960","2012-02-21 01:00","2012","02","21","01:00"
"-101.68","54.68","FLIN FLON A","5050960","2012-02-21 02:00","2012","02","21","02:00"
"-101.68","54.68","FLIN FLON A","5050960","2012-02-21 03:00","2012","02","21","03:00"
"-101.68","54.68","FLIN FLON A","5050960","2012-02-21 04:00","2012","02","21","04:00"
"-101.68","54.68","FLIN FLON A","5050960","2012-02-21 05:00","2012","02","21","05:00"
"-101.68","54.68","FLIN FLON A","5050960","2012-02-21 06:00","2012","02","21","06:00","-14.6","","-16.1","","88","","","","2","","4","","6.4","","97.09","","","","-17","","Snow"
"-101.68","54.68","FLIN FLON A","5050960","2012-02-21 07:00","2012","02","21","07:00","-14.9","","-16.4","","88","","","","6","","7","","8.0","","97.05","","","","-20","","Snow"
"-101.68","54.68","FLIN FLON A","5050960","2012-02-21 08:00","2012","02","21","08:00","-14.9","","-16.5","","88","","","","","","0","","24.1","","97.04","","","","","","Snow"
"-101.68","54.68","FLIN FLON A","5050960","2012-02-21 09:00","2012","02","21","09:00","-14.7","","-16.3","","88","","","","7","","6","","24.1","","97.02","","","","-19","","Snow"
"-101.68","54.68","FLIN FLON A","5050960","2012-02-21 10:00","2012","02","21","10:00","-14.4","","-16.4","","85","","","","","","0","","24.1","","96.96","","","","","","Snow"
"-101.68","54.68","FLIN FLON A","5050960","2012-02-21 11:00","2012","02","21","11:00","-14.0","","-16.1","","84","","","","","","0","","24.1","","96.94","","","","","","Snow"
"-101.68","54.68","FLIN FLON A","5050960","2012-02-21 12:00","2012","02","21","12:00","-13.7","","-16.0","","83","","","","","","0","","24.1","","96.87","","","","","","Snow"
"-101.68","54.68","FLIN FLON A","5050960","2012-02-21 13:00","2012","02","21","13:00","-12.7","","-15.3","","81","","","","19","","6","","19.3","","96.83","","","","-17","","Snow"
"-101.68","54.68","FLIN FLON A","5050960","2012-02-21 14:00","2012","02","21","14:00","-12.3","","-15.0","","80","","","","19","","6","","19.3","","96.71","","","","-16","","Snow"
"-101.68","54.68","FLIN FLON A","5050960","2012-02-21 15:00","2012","02","21","15:00","-11.8","","-14.6","","80","","","","22","","6","","24.1","","96.61","","","","-16","","Snow"
"-101.68","54.68","FLIN FLON A","5050960","2012-02-21 16:00","2012","02","21","16:00","-11.6","","-14.4","","80","","","","20","","7","","24.1","","96.62","","","","-16","","Snow"
"-101.68","54.68","FLIN FLON A","5050960","2012-02-21 17:00","2012","02","21","17:00","-11.3","","-14.0","","80","","","","20","","4","","24.1","","96.59","","","","-14","","Snow"
"-101.68","54.68","FLIN FLON A","5050960","2012-02-21 18:00","2012","02","21","18:00","-11.4","","-13.7","","83","","","","14","","4","","24.1","","96.54","","","","-14","","Snow"
"-101.68","54.68","FLIN FLON A","5050960","2012-02-21 19:00","2012","02","21","19:00"
"-101.68","54.68","FLIN FLON A","5050960","2012-02-21 20:00","2012","02","21","20:00"
"-101.68","54.68","FLIN FLON A","5050960","2012-02-21 21:00","2012","02","21","21:00"
"-101.68","54.68","FLIN FLON A","5050960","2012-02-21 22:00","2012","02","21","22:00"
"-101.68","54.68","FLIN FLON A","5050960","2012-02-21 23:00","2012","02","21","23:00"
"-101.68","54.68","FLIN FLON A","5050960","2012-02-22 00:00","2012","02","22","00:00"
"-101.68","54.68","FLIN FLON A","5050960","2012-02-22 01:00","2012","02","22","01:00"
"-101.68","54.68","FLIN FLON A","5050960","2012-02-22 02:00","2012","02","22","02:00"
"-101.68","54.68","FLIN FLON A","5050960","2012-02-22 03:00","2012","02","22","03:00"
"-101.68","54.68","FLIN FLON A","5050960","2012-02-22 04:00","2012","02","22","04:00"
"-101.68","54.68","FLIN FLON A","5050960","2012-02-22 05:00","2012","02","22","05:00"
"-101.68","54.68","FLIN FLON A","5050960","2012-02-22 06:00","2012","02","22","06:00","-13.4","","-14.8","","89","","","","12","","7","","12.9","","95.98","","","","-18","","Snow"
"-101.68","54.68","FLIN FLON A","5050960","2012-02-22 07:00","2012","02","22","07:00","-13.2","","-14.8","","88","","","","9","","7","","9.7","","95.90","","","","-18","","Snow"
"-101.68","54.68","FLIN FLON A","5050960","2012-02-22 08:00","2012","02","22","08:00","-13.0","","-14.5","","88","","","","14","","6","","9.7","","95.86","","","","-17","","Snow"
"-101.68","54.68","FLIN FLON A","5050960","2012-02-22 09:00","2012","02","22","09:00","-12.8","","-14.3","","88","","","","12","","6","","9.7","","95.82","","","","-17","","Snow"
"-101.68","54.68","FLIN FLON A","5050960","2012-02-22 10:00","2012","02","22","10:00","-12.4","","-14.1","","87","","","","12","","9","","16.1","","95.76","","","","-18","","Snow"
"-101.68","54.68","FLIN FLON A","5050960","2012-02-22 11:00","2012","02","22","11:00","-11.8","","-13.4","","88","","","","13","","7","","19.3","","95.71","","","","-16","","Snow"
"-101.68","54.68","FLIN FLON A","5050960","2012-02-22 12:00","2012","02","22","12:00","-10.8","","-12.6","","87","","","","11","","9","","6.4","","95.66","","","","-16","","Snow"
"-101.68","54.68","FLIN FLON A","5050960","2012-02-22 13:00","2012","02","22","13:00","-9.9","","-11.8","","86","","","","11","","13","","4.8","","95.62","","","","-16","","Snow"
"-101.68","54.68","FLIN FLON A","5050960","2012-02-22 14:00","2012","02","22","14:00","-9.2","","-11.1","","86","","","","10","","6","","6.4","","95.60","","","","-13","","Snow"
"-101.68","54.68","FLIN FLON A","5050960","2012-02-22 15:00","2012","02","22","15:00","-8.7","","-10.7","","85","","","","12","","11","","3.2","","95.62","","","","-14","","Snow"
"-101.68","54.68","FLIN FLON A","5050960","2012-02-22 16:00","2012","02","22","16:00","-8.2","","-10.1","","86","","","","10","","6","","4.0","","95.64","","","","-11","","Snow"
"-101.68","54.68","FLIN FLON A","5050960","2012-02-22 17:00","2012","02","22","17:00","-8.4","","-10.1","","88","","","","5","","7","","4.8","","95.66","","","","-12","","Snow"
"-101.68","54.68","FLIN FLON A","5050960","2012-02-22 18:00","2012","02","22","18:00","-8.8","","-10.4","","88","","","","7","","9","","4.8","","95.73","","","","-13","","Snow"
"-101.68","54.68","FLIN FLON A","5050960","2012-02-22 19:00","2012","02","22","19:00"
"-101.68","54.68","FLIN FLON A","5050960","2012-02-22 20:00","2012","02","22","20:00"
"-101.68","54.68","FLIN FLON A","5050960","2012-02-22 21:00","2012","02","22","21:00"
"-101.68","54.68","FLIN FLON A","5050960","2012-02-22 22:00","2012","02","22","22:00"
"-101.68","54.68","FLIN FLON A","5050960","2012-02-22 23:00","2012","02","22","23:00"
"-101.68","54.68","FLIN FLON A","5050960","2012-02-23 00:00","2012","02","23","00:00"
"-101.68","54.68","FLIN FLON A","5050960","2012-02-23 01:00","2012","02","23","01:00"
"-101.68","54.68","FLIN FLON A","5050960","2012-02-23 02:00","2012","02","23","02:00"
"-101.68","54.68","FLIN FLON A","5050960","2012-02-23 03:00","2012","02","23","03:00"
"-101.68","54.68","FLIN FLON A","5050960","2012-02-23 04:00","2012","02","23","04:00"
"-101.68","54.68","FLIN FLON A","5050960","2012-02-23 05:00","2012","02","23","05:00"
"-101.68","54.68","FLIN FLON A","5050960","2012-02-23 06:00","2012","02","23","06:00","-13.3","","-15.2","","86","","","","1","","13","","9.7","","96.67","","","","-20","","Snow"
"-101.68","54.68","FLIN FLON A","5050960","2012-02-23 07:00","2012","02","23","07:00","-13.7","","-15.8","","84","","","","36","","11","","9.7","","96.76","","","","-20","","Snow"
"-101.68","54.68","FLIN FLON A","5050960","2012-02-23 08:00","2012","02","23","08:00","-14.1","","-16.2","","84","","","","36","","13","","9.7","","96.86","","","","-21","","Snow"
"-101.68","54.68","FLIN FLON A","5050960","2012-02-23 09:00","2012","02","23","09:00","-14.0","","-16.1","","84","","","","36","","13","","9.7","","96.93","","","","-21","","Snow"
"-101.68","54.68","FLIN FLON A","5050960","2012-02-23 10:00","2012","02","23","10:00","-13.8","","-16.5","","80","","","","36","","17","","9.7","","97.02","","","","-22","","Snow"
"-101.68","54.68","FLIN FLON A","5050960","2012-02-23 11:00","2012","02","23","11:00","-13.1","","-15.8","","80","","","","35","","17","","8.0","","97.07","","","","-21","","Snow"
"-101.68","54.68","FLIN FLON A","5050960","2012-02-23 12:00","2012","02","23","12:00","-13.4","","-16.4","","78","","","","35","","13","","6.4","","97.13","","","","-20","","Snow"
"-101.68","54.68","FLIN FLON A","5050960","2012-02-23 13:00","2012","02","23","13:00","-13.2","","-16.2","","78","","","","35","","17","","4.8","","97.17","","","","-21","","Snow"
"-101.68","54.68","FLIN FLON A","5050960","2012-02-23 14:00","2012","02","23","14:00","-12.3","","-16.1","","73","","","","35","","20","","9.7","","97.20","","","","-21","","Snow"
"-101.68","54.68","FLIN FLON A","5050960","2012-02-23 15:00","2012","02","23","15:00","-12.1","","-15.1","","78","","","","33","","17","","8.0","","97.26","","","","-20","","Snow"
"-101.68","54.68","FLIN FLON A","5050960","2012-02-23 16:00","2012","02","23","16:00","-11.6","","-15.0","","76","","","","35","","11","","12.9","","97.33","","","","-18","","Snow"
"-101.68","54.68","FLIN FLON A","5050960","2012-02-23 17:00","2012","02","23","17:00","-11.0","","-13.5","","82","","","","34","","15","","4.8","","97.38","","","","-18","","Snow"
"-101.68","54.68","FLIN FLON A","5050960","2012-02-23 18:00","2012","02","23","18:00","-11.9","","-14.8","","79","","","","35","","13","","24.1","","97.45","","","","-19","","Snow"
"-101.68","54.68","FLIN FLON A","5050960","2012-02-23 19:00","2012","02","23","19:00"
"-101.68","54.68","FLIN FLON A","5050960","2012-02-23 20:00","2012","02","23","20:00"
"-101.68","54.68","FLIN FLON A","5050960","2012-02-23 21:00","2012","02","23","21:00"
"-101.68","54.68","FLIN FLON A","5050960","2012-02-23 22:00","2012","02","23","22:00"
"-101.68","54.68","FLIN FLON A","5050960","2012-02-23 23:00","2012","02","23","23:00"
"-101.68","54.68","FLIN FLON A","5050960","2012-02-24 00:00","2012","02","24","00:00"
"-101.68","54.68","FLIN FLON A","5050960","2012-02-24 01:00","2012","02","24","01:00"
"-101.68","54.68","FLIN FLON A","5050960","2012-02-24 02:00","2012","02","24","02:00"
"-101.68","54.68","FLIN FLON A","5050960","2012-02-24 03:00","2012","02","24","03:00"
"-101.68","54.68","FLIN FLON A","5050960","2012-02-24 04:00","2012","02","24","04:00"
"-101.68","54.68","FLIN FLON A","5050960","2012-02-24 05:00","2012","02","24","05:00"
"-101.68","54.68","FLIN FLON A","5050960","2012-02-24 06:00","2012","02","24","06:00","-14.0","","-15.6","","88","","","","","","0","","24.1","","98.05","","","","","","Cloudy"
"-101.68","54.68","FLIN FLON A","5050960","2012-02-24 07:00","2012","02","24","07:00","-13.8","","-15.3","","88","","","","18","","4","","24.1","","98.08","","","","-17","","Cloudy"
"-101.68","54.68","FLIN FLON A","5050960","2012-02-24 08:00","2012","02","24","08:00","-12.9","","-14.6","","87","","","","30","","7","","24.1","","98.13","","","","-17","","Cloudy"
"-101.68","54.68","FLIN FLON A","5050960","2012-02-24 09:00","2012","02","24","09:00","-13.0","","-14.6","","88","","","","22","","7","","24.1","","98.17","","","","-18","","Cloudy"
"-101.68","54.68","FLIN FLON A","5050960","2012-02-24 10:00","2012","02","24","10:00","-10.9","","-13.5","","81","","","","31","","11","","24.1","","98.20","","","","-17","","Cloudy"
"-101.68","54.68","FLIN FLON A","5050960","2012-02-24 11:00","2012","02","24","11:00","-10.0","","-12.8","","80","","","","31","","9","","24.1","","98.22","","","","-15","","Cloudy"
"-101.68","54.68","FLIN FLON A","5050960","2012-02-24 12:00","2012","02","24","12:00","-8.9","","-12.5","","75","","","","31","","15","","24.1","","98.23","","","","-15","","Cloudy"
"-101.68","54.68","FLIN FLON A","5050960","2012-02-24 13:00","2012","02","24","13:00","-8.6","","-12.1","","76","","","","35","","17","","19.3","","98.26","","","","-15","","Snow Showers"
"-101.68","54.68","FLIN FLON A","5050960","2012-02-24 14:00","2012","02","24","14:00","-8.6","","-12.5","","73","","","","32","","13","","6.4","","98.31","","","","-15","","Snow Showers"
"-101.68","54.68","FLIN FLON A","5050960","2012-02-24 15:00","2012","02","24","15:00","-9.3","","-13.8","","70","","","","35","","19","","19.3","","98.35","","","","-17","","Snow Showers"
"-101.68","54.68","FLIN FLON A","5050960","2012-02-24 16:00","2012","02","24","16:00","-9.7","","-14.1","","70","","","","36","","15","","24.1","","98.41","","","","-16","","Snow Showers"
"-101.68","54.68","FLIN FLON A","5050960","2012-02-24 17:00","2012","02","24","17:00","-10.3","","-14.7","","70","","","","35","","17","","24.1","","98.46","","","","-18","","Snow Showers"
"-101.68","54.68","FLIN FLON A","5050960","2012-02-24 18:00","2012","02","24","18:00","-11.6","","-15.1","","75","","","","1","","17","","24.1","","98.49","","","","-19","","Snow Showers"
"-101.68","54.68","FLIN FLON A","5050960","2012-02-24 19:00","2012","02","24","19:00"
"-101.68","54.68","FLIN FLON A","5050960","2012-02-24 20:00","2012","02","24","20:00"
"-101.68","54.68","FLIN FLON A","5050960","2012-02-24 21:00","2012","02","24","21:00"
"-101.68","54.68","FLIN FLON A","5050960","2012-02-24 22:00","2012","02","24","22:00"
"-101.68","54.68","FLIN FLON A","5050960","2012-02-24 23:00","2012","02","24","23:00"
"-101.68","54.68","FLIN FLON A","5050960","2012-02-25 00:00","2012","02","25","00:00"
"-101.68","54.68","FLIN FLON A","5050960","2012-02-25 01:00","2012","02","25","01:00"
"-101.68","54.68","FLIN FLON A","5050960","2012-02-25 02:00","2012","02","25","02:00"
"-101.68","54.68","FLIN FLON A","5050960","2012-02-25 03:00","2012","02","25","03:00"
"-101.68","54.68","FLIN FLON A","5050960","2012-02-25 04:00","2012","02","25","04:00"
"-101.68","54.68","FLIN FLON A","5050960","2012-02-25 05:00","2012","02","25","05:00"
"-101.68","54.68","FLIN FLON A","5050960","2012-02-25 06:00","2012","02","25","06:00","-29.5","","-33.6","","68","","","","2","","7","","24.1","","98.68","","","","-37","","Mainly Clear"
"-101.68","54.68","FLIN FLON A","5050960","2012-02-25 07:00","2012","02","25","07:00","-28.9","","-33.4","","65","","","","2","","7","","24.1","","98.71","","","","-36","","Mostly Cloudy"
"-101.68","54.68","FLIN FLON A","5050960","2012-02-25 08:00","2012","02","25","08:00","-28.4","","-33.0","","65","","","","2","","6","","24.1","","98.72","","","","-35","","Mostly Cloudy"
"-101.68","54.68","FLIN FLON A","5050960","2012-02-25 09:00","2012","02","25","09:00","-28.7","","-32.8","","68","","","","3","","7","","24.1","","98.74","","","","-36","","Mostly Cloudy"
"-101.68","54.68","FLIN FLON A","5050960","2012-02-25 10:00","2012","02","25","10:00","-25.1","","-29.3","","68","","","","2","","6","","24.1","","98.74","","","","-31","","Mostly Cloudy"
"-101.68","54.68","FLIN FLON A","5050960","2012-02-25 11:00","2012","02","25","11:00","-22.5","","-26.8","","68","","","","3","","6","","24.1","","98.72","","","","-28","","Mostly Cloudy"
"-101.68","54.68","FLIN FLON A","5050960","2012-02-25 12:00","2012","02","25","12:00","-19.5","","-20.5","","92","","","","5","","4","","24.1","","98.70","","","","-23","","Cloudy"
"-101.68","54.68","FLIN FLON A","5050960","2012-02-25 13:00","2012","02","25","13:00","-17.0","","-24.3","","53","","","","5","","7","","24.1","","98.71","","","","-22","","Mainly Clear"
"-101.68","54.68","FLIN FLON A","5050960","2012-02-25 14:00","2012","02","25","14:00","-16.1","","-23.8","","51","","","","6","","13","","24.1","","98.67","","","","-24","","Mainly Clear"
"-101.68","54.68","FLIN FLON A","5050960","2012-02-25 15:00","2012","02","25","15:00","-15.2","","-23.7","","48","","","","5","","11","","24.1","","98.66","","","","-22","","Mostly Cloudy"
"-101.68","54.68","FLIN FLON A","5050960","2012-02-25 16:00","2012","02","25","16:00","-15.6","","-24.2","","48","","","","6","","7","","24.1","","98.67","","","","-21","","Mainly Clear"
"-101.68","54.68","FLIN FLON A","5050960","2012-02-25 17:00","2012","02","25","17:00","-16.7","","-24.4","","51","","","","4","","6","","24.1","","98.69","","","","-21","","Mostly Cloudy"
"-101.68","54.68","FLIN FLON A","5050960","2012-02-25 18:00","2012","02","25","18:00","-20.4","","-27.1","","55","","","","3","","4","","24.1","","98.70","","","","-24","","Mainly Clear"
"-101.68","54.68","FLIN FLON A","5050960","2012-02-25 19:00","2012","02","25","19:00"
"-101.68","54.68","FLIN FLON A","5050960","2012-02-25 20:00","2012","02","25","20:00"
"-101.68","54.68","FLIN FLON A","5050960","2012-02-25 21:00","2012","02","25","21:00"
"-101.68","54.68","FLIN FLON A","5050960","2012-02-25 22:00","2012","02","25","22:00"
"-101.68","54.68","FLIN FLON A","5050960","2012-02-25 23:00","2012","02","25","23:00"
"-101.68","54.68","FLIN FLON A","5050960","2012-02-26 00:00","2012","02","26","00:00"
"-101.68","54.68","FLIN FLON A","5050960","2012-02-26 01:00","2012","02","26","01:00"
"-101.68","54.68","FLIN FLON A","5050960","2012-02-26 02:00","2012","02","26","02:00"
"-101.68","54.68","FLIN FLON A","5050960","2012-02-26 03:00","2012","02","26","03:00"
"-101.68","54.68","FLIN FLON A","5050960","2012-02-26 04:00","2012","02","26","04:00"
"-101.68","54.68","FLIN FLON A","5050960","2012-02-26 05:00","2012","02","26","05:00"
"-101.68","54.68","FLIN FLON A","5050960","2012-02-26 06:00","2012","02","26","06:00","-31.1","","-35.1","","68","","","","5","","4","","24.1","","99.09","","","","-36","","Clear"
"-101.68","54.68","FLIN FLON A","5050960","2012-02-26 07:00","2012","02","26","07:00","-30.9","","-35.1","","67","","","","","","0","","24.1","","99.10","","","","","","Mainly Clear"
"-101.68","54.68","FLIN FLON A","5050960","2012-02-26 08:00","2012","02","26","08:00","-31.4","","-35.5","","67","","","","4","","4","","24.1","","99.10","","","","-36","","Mainly Clear"
"-101.68","54.68","FLIN FLON A","5050960","2012-02-26 09:00","2012","02","26","09:00","-30.0","","-34.6","","64","","","","6","","6","","24.1","","99.15","","","","-37","","Mainly Clear"
"-101.68","54.68","FLIN FLON A","5050960","2012-02-26 10:00","2012","02","26","10:00","-26.3","","-30.4","","68","","","","5","","4","","24.1","","99.18","","","","-30","","Mainly Clear"
"-101.68","54.68","FLIN FLON A","5050960","2012-02-26 11:00","2012","02","26","11:00","-22.3","","-27.3","","64","","","","5","","6","","24.1","","99.19","","","","-28","","Mainly Clear"
"-101.68","54.68","FLIN FLON A","5050960","2012-02-26 12:00","2012","02","26","12:00","-18.6","","-24.8","","58","","","","3","","6","","24.1","","99.19","","","","-23","","Mainly Clear"
"-101.68","54.68","FLIN FLON A","5050960","2012-02-26 13:00","2012","02","26","13:00","-16.5","","-23.7","","54","","","","5","","6","","24.1","","99.16","","","","-21","","Clear"
"-101.68","54.68","FLIN FLON A","5050960","2012-02-26 14:00","2012","02","26","14:00","-14.5","","-23.1","","48","","","","7","","4","","24.1","","99.12","","","","-17","","Clear"
"-101.68","54.68","FLIN FLON A","5050960","2012-02-26 15:00","2012","02","26","15:00","-14.2","","-23.1","","47","","","","7","","4","","24.1","","99.09","","","","-17","","Clear"
"-101.68","54.68","FLIN FLON A","5050960","2012-02-26 16:00","2012","02","26","16:00","-13.9","","-22.7","","47","","","","","","0","","24.1","","99.09","","","","","","Clear"
"-101.68","54.68","FLIN FLON A","5050960","2012-02-26 17:00","2012","02","26","17:00","-14.1","","-23.4","","45","","","","34","","7","","24.1","","99.11","","","","-19","","Clear"
"-101.68","54.68","FLIN FLON A","5050960","2012-02-26 18:00","2012","02","26","18:00","-15.2","","-23.7","","48","","","","31","","4","","24.1","","99.12","","","","-18","","Clear"
"-101.68","54.68","FLIN FLON A","5050960","2012-02-26 19:00","2012","02","26","19:00"
"-101.68","54.68","FLIN FLON A","5050960","2012-02-26 20:00","2012","02","26","20:00"
"-101.68","54.68","FLIN FLON A","5050960","2012-02-26 21:00","2012","02","26","21:00"
"-101.68","54.68","FLIN FLON A","5050960","2012-02-26 22:00","2012","02","26","22:00"
"-101.68","54.68","FLIN FLON A","5050960","2012-02-26 23:00","2012","02","26","23:00"
"-101.68","54.68","FLIN FLON A","5050960","2012-02-27 00:00","2012","02","27","00:00"
"-101.68","54.68","FLIN FLON A","5050960","2012-02-27 01:00","2012","02","27","01:00"
"-101.68","54.68","FLIN FLON A","5050960","2012-02-27 02:00","2012","02","27","02:00"
"-101.68","54.68","FLIN FLON A","5050960","2012-02-27 03:00","2012","02","27","03:00"
"-101.68","54.68","FLIN FLON A","5050960","2012-02-27 04:00","2012","02","27","04:00"
"-101.68","54.68","FLIN FLON A","5050960","2012-02-27 05:00","2012","02","27","05:00"
"-101.68","54.68","FLIN FLON A","5050960","2012-02-27 06:00","2012","02","27","06:00","-30.4","","-35.0","","64","","","","","","0","","24.1","","98.86","","","","","","Mainly Clear"
"-101.68","54.68","FLIN FLON A","5050960","2012-02-27 07:00","2012","02","27","07:00","-28.4","","-32.9","","65","","","","","","0","","9.7","","98.79","","","","","","Snow"
"-101.68","54.68","FLIN FLON A","5050960","2012-02-27 08:00","2012","02","27","08:00","-25.8","","-30.1","","67","","","","18","","6","","6.4","","98.72","","","","-32","","Snow"
"-101.68","54.68","FLIN FLON A","5050960","2012-02-27 09:00","2012","02","27","09:00","-22.6","","-26.6","","70","","","","17","","11","","6.4","","98.65","","","","-31","","Ice Crystals"
"-101.68","54.68","FLIN FLON A","5050960","2012-02-27 10:00","2012","02","27","10:00","-19.7","","-23.4","","72","","","","17","","7","","6.4","","98.57","","","","-25","","Ice Crystals"
"-101.68","54.68","FLIN FLON A","5050960","2012-02-27 11:00","2012","02","27","11:00","-17.3","","-20.8","","74","","","","17","","9","","3.2","","98.48","","","","-24","","Snow"
"-101.68","54.68","FLIN FLON A","5050960","2012-02-27 12:00","2012","02","27","12:00","-14.6","","-17.9","","76","","","","18","","13","","4.8","","98.39","","","","-22","","Snow"
"-101.68","54.68","FLIN FLON A","5050960","2012-02-27 13:00","2012","02","27","13:00","-12.5","","-15.8","","76","","","","18","","15","","6.4","","98.31","","","","-20","","Snow"
"-101.68","54.68","FLIN FLON A","5050960","2012-02-27 14:00","2012","02","27","14:00","-11.4","","-14.5","","78","","","","19","","13","","9.7","","98.24","","","","-18","","Snow"
"-101.68","54.68","FLIN FLON A","5050960","2012-02-27 15:00","2012","02","27","15:00","-10.1","","-13.0","","79","","","","19","","19","","16.1","","98.12","","","","-18","","Snow"
"-101.68","54.68","FLIN FLON A","5050960","2012-02-27 16:00","2012","02","27","16:00","-10.0","","-12.8","","80","","","","16","","13","","24.1","","98.06","","","","-16","","Mostly Cloudy"
"-101.68","54.68","FLIN FLON A","5050960","2012-02-27 17:00","2012","02","27","17:00","-10.0","","-13.0","","79","","","","18","","4","","24.1","","98.01","","","","-12","","Mostly Cloudy"
"-101.68","54.68","FLIN FLON A","5050960","2012-02-27 18:00","2012","02","27","18:00","-11.3","","-13.9","","81","","","","18","","6","","24.1","","97.99","","","","-15","","Mostly Cloudy"
"-101.68","54.68","FLIN FLON A","5050960","2012-02-27 19:00","2012","02","27","19:00"
"-101.68","54.68","FLIN FLON A","5050960","2012-02-27 20:00","2012","02","27","20:00"
"-101.68","54.68","FLIN FLON A","5050960","2012-02-27 21:00","2012","02","27","21:00"
"-101.68","54.68","FLIN FLON A","5050960","2012-02-27 22:00","2012","02","27","22:00"
"-101.68","54.68","FLIN FLON A","5050960","2012-02-27 23:00","2012","02","27","23:00"
"-101.68","54.68","FLIN FLON A","5050960","2012-02-28 00:00","2012","02","28","00:00"
"-101.68","54.68","FLIN FLON A","5050960","2012-02-28 01:00","2012","02","28","01:00"
"-101.68","54.68","FLIN FLON A","5050960","2012-02-28 02:00","2012","02","28","02:00"
"-101.68","54.68","FLIN FLON A","5050960","2012-02-28 03:00","2012","02","28","03:00"
"-101.68","54.68","FLIN FLON A","5050960","2012-02-28 04:00","2012","02","28","04:00"
"-101.68","54.68","FLIN FLON A","5050960","2012-02-28 05:00","2012","02","28","05:00"
"-101.68","54.68","FLIN FLON A","5050960","2012-02-28 06:00","2012","02","28","06:00","-24.1","","-28.7","","66","","","","","","0","","24.1","","97.91","","","","","","Mainly Clear"
"-101.68","54.68","FLIN FLON A","5050960","2012-02-28 07:00","2012","02","28","07:00","-25.4","","-29.6","","68","","","","","","0","","24.1","","97.92","","","","","","Clear"
"-101.68","54.68","FLIN FLON A","5050960","2012-02-28 08:00","2012","02","28","08:00","-25.3","","-29.6","","67","","","","","","0","","24.1","","97.95","","","","","","Clear"
"-101.68","54.68","FLIN FLON A","5050960","2012-02-28 09:00","2012","02","28","09:00","-25.0","","-28.9","","70","","","","","","0","","24.1","","97.94","","","","","","Clear"
"-101.68","54.68","FLIN FLON A","5050960","2012-02-28 10:00","2012","02","28","10:00","-22.0","","-25.8","","71","","","","","","0","","24.1","","97.96","","","","","","Clear"
"-101.68","54.68","FLIN FLON A","5050960","2012-02-28 11:00","2012","02","28","11:00","-14.0","","-16.5","","81","","","","18","","6","","24.1","","98.00","","","","-18","","Mainly Clear"
"-101.68","54.68","FLIN FLON A","5050960","2012-02-28 12:00","2012","02","28","12:00","-11.8","","-15.7","","73","","","","17","","7","","24.1","","97.99","","","","-16","","Mainly Clear"
"-101.68","54.68","FLIN FLON A","5050960","2012-02-28 13:00","2012","02","28","13:00","-9.7","","-14.6","","67","","","","17","","7","","24.1","","98.00","","","","-14","","Mainly Clear"
"-101.68","54.68","FLIN FLON A","5050960","2012-02-28 14:00","2012","02","28","14:00","-7.9","","-13.5","","64","","","","13","","9","","24.1","","98.01","","","","-12","","Mainly Clear"
"-101.68","54.68","FLIN FLON A","5050960","2012-02-28 15:00","2012","02","28","15:00","-6.3","","-13.2","","58","","","","17","","7","","24.1","","97.95","","","","-10","","Clear"
"-101.68","54.68","FLIN FLON A","5050960","2012-02-28 16:00","2012","02","28","16:00","-6.0","","-12.6","","60","","","","17","","7","","24.1","","97.96","","","","-9","","Clear"
"-101.68","54.68","FLIN FLON A","5050960","2012-02-28 17:00","2012","02","28","17:00","-5.9","","-12.5","","60","","","","16","","7","","24.1","","97.93","","","","-9","","Clear"
"-101.68","54.68","FLIN FLON A","5050960","2012-02-28 18:00","2012","02","28","18:00","-6.9","","-13.1","","61","","","","16","","6","","24.1","","97.90","","","","-10","","Mainly Clear"
"-101.68","54.68","FLIN FLON A","5050960","2012-02-28 19:00","2012","02","28","19:00"
"-101.68","54.68","FLIN FLON A","5050960","2012-02-28 20:00","2012","02","28","20:00"
"-101.68","54.68","FLIN FLON A","5050960","2012-02-28 21:00","2012","02","28","21:00"
"-101.68","54.68","FLIN FLON A","5050960","2012-02-28 22:00","2012","02","28","22:00"
"-101.68","54.68","FLIN FLON A","5050960","2012-02-28 23:00","2012","02","28","23:00"
"-101.68","54.68","FLIN FLON A","5050960","2012-02-29 00:00","2012","02","29","00:00"
"-101.68","54.68","FLIN FLON A","5050960","2012-02-29 01:00","2012","02","29","01:00"
"-101.68","54.68","FLIN FLON A","5050960","2012-02-29 02:00","2012","02","29","02:00"
"-101.68","54.68","FLIN FLON A","5050960","2012-02-29 03:00","2012","02","29","03:00"
"-101.68","54.68","FLIN FLON A","5050960","2012-02-29 04:00","2012","02","29","04:00"
"-101.68","54.68","FLIN FLON A","5050960","2012-02-29 05:00","2012","02","29","05:00"
"-101.68","54.68","FLIN FLON A","5050960","2012-02-29 06:00","2012","02","29","06:00","-21.2","","-22.5","","89","","","","","","0","","24.1","","97.50","","","","","","Clear"
"-101.68","54.68","FLIN FLON A","5050960","2012-02-29 07:00","2012","02","29","07:00","-22.0","","-22.9","","92","","","","","","0","","24.1","","97.46","","","","","","Mainly Clear"
"-101.68","54.68","FLIN FLON A","5050960","2012-02-29 08:00","2012","02","29","08:00","-22.6","","-23.3","","94","","","","","","0","","24.1","","97.45","","","","","","Mostly Cloudy"
"-101.68","54.68","FLIN FLON A","5050960","2012-02-29 09:00","2012","02","29","09:00","-21.9","","-30.5","","46","","","","","","0","","24.1","","97.43","","","","","","Mostly Cloudy"
"-101.68","54.68","FLIN FLON A","5050960","2012-02-29 10:00","2012","02","29","10:00","-17.4","","-21.0","","73","","","","18","","9","","24.1","","97.40","","","","-24","","Mostly Cloudy"
"-101.68","54.68","FLIN FLON A","5050960","2012-02-29 11:00","2012","02","29","11:00","-15.0","","-19.2","","70","","","","17","","11","","24.1","","97.38","","","","-22","","Cloudy"
"-101.68","54.68","FLIN FLON A","5050960","2012-02-29 12:00","2012","02","29","12:00","-10.8","","-15.2","","70","","","","18","","4","","24.1","","97.32","","","","-13","","Cloudy"
"-101.68","54.68","FLIN FLON A","5050960","2012-02-29 13:00","2012","02","29","13:00","-8.0","","-13.7","","64","","","","18","","4","","24.1","","97.29","","","","-10","","Cloudy"
"-101.68","54.68","FLIN FLON A","5050960","2012-02-29 14:00","2012","02","29","14:00","-6.6","","-11.9","","66","","","","18","","4","","24.1","","97.24","","","","-9","","Cloudy"
"-101.68","54.68","FLIN FLON A","5050960","2012-02-29 15:00","2012","02","29","15:00","-5.5","","-11.1","","65","","","","17","","6","","24.1","","97.19","","","","-8","","Cloudy"
"-101.68","54.68","FLIN FLON A","5050960","2012-02-29 16:00","2012","02","29","16:00","-4.5","","-10.9","","61","","","","","","0","","24.1","","97.17","","","","","","Cloudy"
"-101.68","54.68","FLIN FLON A","5050960","2012-02-29 17:00","2012","02","29","17:00","-5.0","","-11.0","","63","","","","","","0","","24.1","","97.07","","","","","","Cloudy"
"-101.68","54.68","FLIN FLON A","5050960","2012-02-29 18:00","2012","02","29","18:00","-6.2","","-10.8","","70","","","","","","0","","24.1","","97.14","","","","","","Mostly Cloudy"
"-101.68","54.68","FLIN FLON A","5050960","2012-02-29 19:00","2012","02","29","19:00"
"-101.68","54.68","FLIN FLON A","5050960","2012-02-29 20:00","2012","02","29","20:00"
"-101.68","54.68","FLIN FLON A","5050960","2012-02-29 21:00","2012","02","29","21:00"
"-101.68","54.68","FLIN FLON A","5050960","2012-02-29 22:00","2012","02","29","22:00"
"-101.68","54.68","FLIN FLON A","5050960","2012-02-29 23:00","2012","02","29","23:00"
