"Longitude (x)","Latitude (y)","Station Name","Climate ID","Date/Time (LST)","Year","Month","Day","Time (LST)","Temp (°C)","Temp Flag","Dew Point Temp (°C)","Dew Point Temp Flag","Rel Hum (%)","Rel Hum Flag","Precip. Amount (mm)","Precip. Amount Flag","Wind Dir (10s deg)","Wind Dir Flag","Wind Spd (km/h)","Wind Spd Flag","Visibility (km)","Visibility Flag","Stn Press (kPa)","Stn Press Flag","Hmdx","Hmdx Flag","Wind Chill","Wind Chill Flag","Weather"
"-64.32","48.42","CAP-D'ESPOIR","7051050","2019-03-01 00:00","2019","03","01","00:00","","M","","M","63","","","M","26","","17","","","","101.23","","","","","","NA"
"-64.32","48.42","CAP-D'ESPOIR","7051050","2019-03-01 01:00","2019","03","01","01:00","","M","","M","60","","","M","26","","14","","","","101.27","","","","","","NA"
"-64.32","48.42","CAP-D'ESPOIR","7051050","2019-03-01 02:00","2019","03","01","02:00","","M","","M","62","","","M","26","","15","","","","101.38","","","","","","NA"
"-64.32","48.42","CAP-D'ESPOIR","7051050","2019-03-01 03:00","2019","03","01","03:00","","M","","M","57","","","M","27","","10","","","","101.48","","","","","","NA"
"-64.32","48.42","CAP-D'ESPOIR","7051050","2019-03-01 04:00","2019","03","01","04:00","","M","","M","61","","","M","27","","15","","","","101.51","","","","","","NA"
"-64.32","48.42","CAP-D'ESPOIR","7051050","2019-03-01 05:00","2019","03","01","05:00","","M","","M","69","","","M","26","","17","","","","101.57","","","","","","NA"
"-64.32","48.42","CAP-D'ESPOIR","7051050","2019-03-01 06:00","2019","03","01","06:00","","M","","M","64","","","M","26","","14","","","","101.63","","","","","","NA"
"-64.32","48.42","CAP-D'ESPOIR","7051050","2019-03-01 07:00","2019","03","01","07:00","","M","","M","62","","","M","26","","18","","","","101.66","","","","","","NA"
"-64.32","48.42","CAP-D'ESPOIR","7051050","2019-03-01 08:00","2019","03","01","08:00","","M","","M","54","","","M","26","","13","","","","101.68","","","","","","NA"
"-64.32","48.42","CAP-D'ESPOIR","7051050","2019-03-01 09:00","2019","03","01","09:00","","M","","M","53","","","M","25","","13","","","","101.69","","","","","","NA"
"-64.32","48.42","CAP-D'ESPOIR","7051050","2019-03-01 10:00","2019","03","01","10:00","","M","","M","39","","","M","29","","31","","","","101.67","","","","","","NA"
"-64.32","48.42","CAP-D'ESPOIR","7051050","2019-03-01 11:00","2019","03","01","11:00","","M","","M","41","","","M","29","","30","","","","101.67","","","","","","NA"
"-64.32","48.42","CAP-D'ESPOIR","7051050","2019-03-01 12:00","2019","03","01","12:00","","M","","M","46","","","M","27","","25","","","","101.67","","","","","","NA"
"-64.32","48.42","CAP-D'ESPOIR","7051050","2019-03-01 13:00","2019","03","01","13:00","","M","","M","44","","","M","27","","20","","","","101.65","","","","","","NA"
"-64.32","48.42","CAP-D'ESPOIR","7051050","2019-03-01 14:00","2019","03","01","14:00","","M","","M","48","","","M","27","","22","","","","101.65","","","","","","NA"
"-64.32","48.42","CAP-D'ESPOIR","7051050","2019-03-01 15:00","2019","03","01","15:00","","M","","M","45","","","M","28","","25","","","","101.67","","","","","","NA"
"-64.32","48.42","CAP-D'ESPOIR","7051050","2019-03-01 16:00","2019","03","01","16:00","","M","","M","46","","","M","28","","24","","","","101.69","","","","","","NA"
"-64.32","48.42","CAP-D'ESPOIR","7051050","2019-03-01 17:00","2019","03","01","17:00","","M","","M","49","","","M","28","","23","","","","101.74","","","","","","NA"
"-64.32","48.42","CAP-D'ESPOIR","7051050","2019-03-01 18:00","2019","03","01","18:00","","M","","M","53","","","M","29","","19","","","","101.84","","","","","","NA"
"-64.32","48.42","CAP-D'ESPOIR","7051050","2019-03-01 19:00","2019","03","01","19:00","","M","","M","61","","","M","27","","15","","","","101.87","","","","","","NA"
"-64.32","48.42","CAP-D'ESPOIR","7051050","2019-03-01 20:00","2019","03","01","20:00","","M","","M","62","","","M","28","","15","","","","101.91","","","","","","NA"
"-64.32","48.42","CAP-D'ESPOIR","7051050","2019-03-01 21:00","2019","03","01","21:00","","M","","M","65","","","M","26","","12","","","","101.94","","","","","","NA"
"-64.32","48.42","CAP-D'ESPOIR","7051050","2019-03-01 22:00","2019","03","01","22:00","","M","","M","63","","","M","27","","15","","","","101.95","","","","","","NA"
"-64.32","48.42","CAP-D'ESPOIR","7051050","2019-03-01 23:00","2019","03","01","23:00","","M","","M","68","","","M","27","","11","","","","101.96","","","","","","NA"
"-64.32","48.42","CAP-D'ESPOIR","7051050","2019-03-02 00:00","2019","03","02","00:00","","M","","M","65","","","M","28","","11","","","","101.96","","","","","","NA"
"-64.32","48.42","CAP-D'ESPOIR","7051050","2019-03-02 01:00","2019","03","02","01:00","","M","","M","69","","","M","26","","13","","","","101.97","","","","","","NA"
"-64.32","48.42","CAP-D'ESPOIR","7051050","2019-03-02 02:00","2019","03","02","02:00","","M","","M","67","","","M","29","","15","","","","101.99","","","","","","NA"
"-64.32","48.42","CAP-D'ESPOIR","7051050","2019-03-02 03:00","2019","03","02","03:00","","M","","M","69","","","M","28","","18","","","","101.96","","","","","","NA"
"-64.32","48.42","CAP-D'ESPOIR","7051050","2019-03-02 04:00","2019","03","02","04:00","","M","","M","67","","","M","30","","18","","","","101.99","","","","","","NA"
"-64.32","48.42","CAP-D'ESPOIR","7051050","2019-03-02 05:00","2019","03","02","05:00","","M","","M","68","","","M","31","","18","","","","101.99","","","","","","NA"
"-64.32","48.42","CAP-D'ESPOIR","7051050","2019-03-02 06:00","2019","03","02","06:00","","M","","M","68","","","M","30","","14","","","","101.98","","","","","","NA"
"-64.32","48.42","CAP-D'ESPOIR","7051050","2019-03-02 07:00","2019","03","02","07:00","","M","","M","67","","","M","29","","14","","","","102.05","","","","","","NA"
"-64.32","48.42","CAP-D'ESPOIR","7051050","2019-03-02 08:00","2019","03","02","08:00","","M","","M","62","","","M","28","","16","","","","102.08","","","","","","NA"
"-64.32","48.42","CAP-D'ESPOIR","7051050","2019-03-02 09:00","2019","03","02","09:00","","M","","M","56","","","M","29","","16","","","","102.05","","","","","","NA"
"-64.32","48.42","CAP-D'ESPOIR","7051050","2019-03-02 10:00","2019","03","02","10:00","","M","","M","50","","","M","26","","13","","","","102.03","","","","","","NA"
"-64.32","48.42","CAP-D'ESPOIR","7051050","2019-03-02 11:00","2019","03","02","11:00","","M","","M","40","","","M","35","","6","","","","101.98","","","","","","NA"
"-64.32","48.42","CAP-D'ESPOIR","7051050","2019-03-02 12:00","2019","03","02","12:00","","M","","M","55","","","M","22","","15","","","","101.90","","","","","","NA"
"-64.32","48.42","CAP-D'ESPOIR","7051050","2019-03-02 13:00","2019","03","02","13:00","","M","","M","63","","","M","21","","23","","","","101.86","","","","","","NA"
"-64.32","48.42","CAP-D'ESPOIR","7051050","2019-03-02 14:00","2019","03","02","14:00","","M","","M","62","","","M","19","","10","","","","101.73","","","","","","NA"
"-64.32","48.42","CAP-D'ESPOIR","7051050","2019-03-02 15:00","2019","03","02","15:00","","M","","M","66","","","M","20","","14","","","","101.72","","","","","","NA"
"-64.32","48.42","CAP-D'ESPOIR","7051050","2019-03-02 16:00","2019","03","02","16:00","","M","","M","68","","","M","21","","12","","","","101.70","","","","","","NA"
"-64.32","48.42","CAP-D'ESPOIR","7051050","2019-03-02 17:00","2019","03","02","17:00","","M","","M","71","","","M","17","","5","","","","101.66","","","","","","NA"
"-64.32","48.42","CAP-D'ESPOIR","7051050","2019-03-02 18:00","2019","03","02","18:00","","M","","M","80","","","M","9","","23","","","","101.66","","","","","","NA"
"-64.32","48.42","CAP-D'ESPOIR","7051050","2019-03-02 19:00","2019","03","02","19:00","","M","","M","77","","","M","9","","18","","","","101.60","","","","","","NA"
"-64.32","48.42","CAP-D'ESPOIR","7051050","2019-03-02 20:00","2019","03","02","20:00","","M","","M","77","","","M","35","","12","","","","101.53","","","","","","NA"
"-64.32","48.42","CAP-D'ESPOIR","7051050","2019-03-02 21:00","2019","03","02","21:00","","M","","M","69","","","M","36","","8","","","","101.54","","","","","","NA"
"-64.32","48.42","CAP-D'ESPOIR","7051050","2019-03-02 22:00","2019","03","02","22:00","","M","","M","67","","","M","32","","9","","","","101.47","","","","","","NA"
"-64.32","48.42","CAP-D'ESPOIR","7051050","2019-03-02 23:00","2019","03","02","23:00","","M","","M","56","","","M","26","","8","","","","101.45","","","","","","NA"
"-64.32","48.42","CAP-D'ESPOIR","7051050","2019-03-03 00:00","2019","03","03","00:00","","M","","M","54","","","M","27","","7","","","","101.39","","","","","","NA"
"-64.32","48.42","CAP-D'ESPOIR","7051050","2019-03-03 01:00","2019","03","03","01:00","","M","","M","63","","","M","31","","7","","","","101.32","","","","","","NA"
"-64.32","48.42","CAP-D'ESPOIR","7051050","2019-03-03 02:00","2019","03","03","02:00","","M","","M","66","","","M","1","","9","","","","101.23","","","","","","NA"
"-64.32","48.42","CAP-D'ESPOIR","7051050","2019-03-03 03:00","2019","03","03","03:00","","M","","M","69","","","M","36","","11","","","","101.19","","","","","","NA"
"-64.32","48.42","CAP-D'ESPOIR","7051050","2019-03-03 04:00","2019","03","03","04:00","","M","","M","68","","","M","36","","10","","","","101.16","","","","","","NA"
"-64.32","48.42","CAP-D'ESPOIR","7051050","2019-03-03 05:00","2019","03","03","05:00","","M","","M","66","","","M","36","","15","","","","101.18","","","","","","NA"
"-64.32","48.42","CAP-D'ESPOIR","7051050","2019-03-03 06:00","2019","03","03","06:00","","M","","M","66","","","M","35","","13","","","","101.18","","","","","","NA"
"-64.32","48.42","CAP-D'ESPOIR","7051050","2019-03-03 07:00","2019","03","03","07:00","","M","","M","67","","","M","36","","7","","","","101.25","","","","","","NA"
"-64.32","48.42","CAP-D'ESPOIR","7051050","2019-03-03 08:00","2019","03","03","08:00","","M","","M","69","","","M","1","","12","","","","101.31","","","","","","NA"
"-64.32","48.42","CAP-D'ESPOIR","7051050","2019-03-03 09:00","2019","03","03","09:00","","M","","M","69","","","M","1","","10","","","","101.35","","","","","","NA"
"-64.32","48.42","CAP-D'ESPOIR","7051050","2019-03-03 10:00","2019","03","03","10:00","","M","","M","63","","","M","21","","4","","","","101.35","","","","","","NA"
"-64.32","48.42","CAP-D'ESPOIR","7051050","2019-03-03 11:00","2019","03","03","11:00","","M","","M","66","","","M","21","","7","","","","101.35","","","","","","NA"
"-64.32","48.42","CAP-D'ESPOIR","7051050","2019-03-03 12:00","2019","03","03","12:00","","M","","M","78","","","M","12","","15","","","","101.35","","","","","","NA"
"-64.32","48.42","CAP-D'ESPOIR","7051050","2019-03-03 13:00","2019","03","03","13:00","","M","","M","79","","","M","12","","13","","","","101.35","","","","","","NA"
"-64.32","48.42","CAP-D'ESPOIR","7051050","2019-03-03 14:00","2019","03","03","14:00","","M","","M","77","","","M","11","","13","","","","101.38","","","","","","NA"
"-64.32","48.42","CAP-D'ESPOIR","7051050","2019-03-03 15:00","2019","03","03","15:00","","M","","M","78","","","M","14","","10","","","","101.45","","","","","","NA"
"-64.32","48.42","CAP-D'ESPOIR","7051050","2019-03-03 16:00","2019","03","03","16:00","","M","","M","80","","","M","12","","13","","","","101.43","","","","","","NA"
"-64.32","48.42","CAP-D'ESPOIR","7051050","2019-03-03 17:00","2019","03","03","17:00","","M","","M","82","","","M","11","","17","","","","101.43","","","","","","NA"
"-64.32","48.42","CAP-D'ESPOIR","7051050","2019-03-03 18:00","2019","03","03","18:00","","M","","M","85","","","M","11","","19","","","","101.51","","","","","","NA"
"-64.32","48.42","CAP-D'ESPOIR","7051050","2019-03-03 19:00","2019","03","03","19:00","","M","","M","85","","","M","11","","11","","","","101.59","","","","","","NA"
"-64.32","48.42","CAP-D'ESPOIR","7051050","2019-03-03 20:00","2019","03","03","20:00","","M","","M","86","","","M","8","","10","","","","101.60","","","","","","NA"
"-64.32","48.42","CAP-D'ESPOIR","7051050","2019-03-03 21:00","2019","03","03","21:00","","M","","M","87","","","M","2","","11","","","","101.61","","","","","","NA"
"-64.32","48.42","CAP-D'ESPOIR","7051050","2019-03-03 22:00","2019","03","03","22:00","","M","","M","87","","","M","1","","15","","","","101.66","","","","","","NA"
"-64.32","48.42","CAP-D'ESPOIR","7051050","2019-03-03 23:00","2019","03","03","23:00","","M","","M","87","","","M","1","","9","","","","101.69","","","","","","NA"
"-64.32","48.42","CAP-D'ESPOIR","7051050","2019-03-04 00:00","2019","03","04","00:00","","M","","M","93","","","M","29","","3","","","","101.72","","","","","","NA"
"-64.32","48.42","CAP-D'ESPOIR","7051050","2019-03-04 01:00","2019","03","04","01:00","","M","","M","90","","","M","29","","8","","","","101.72","","","","","","NA"
"-64.32","48.42","CAP-D'ESPOIR","7051050","2019-03-04 02:00","2019","03","04","02:00","","M","","M","90","","","M","4","","5","","","","101.61","","","","","","NA"
"-64.32","48.42","CAP-D'ESPOIR","7051050","2019-03-04 03:00","2019","03","04","03:00","","M","","M","87","","","M","4","","5","","","","101.59","","","","","","NA"
"-64.32","48.42","CAP-D'ESPOIR","7051050","2019-03-04 04:00","2019","03","04","04:00","","M","","M","92","","","M","2","","7","","","","101.57","","","","","","NA"
"-64.32","48.42","CAP-D'ESPOIR","7051050","2019-03-04 05:00","2019","03","04","05:00","","M","","M","90","","","M","1","","8","","","","101.53","","","","","","NA"
"-64.32","48.42","CAP-D'ESPOIR","7051050","2019-03-04 06:00","2019","03","04","06:00","","M","","M","90","","","M","2","","6","","","","101.52","","","","","","NA"
"-64.32","48.42","CAP-D'ESPOIR","7051050","2019-03-04 07:00","2019","03","04","07:00","","M","","M","89","","","M","6","","4","","","","101.47","","","","","","NA"
"-64.32","48.42","CAP-D'ESPOIR","7051050","2019-03-04 08:00","2019","03","04","08:00","","M","","M","93","","","M","2","","8","","","","101.36","","","","","","NA"
"-64.32","48.42","CAP-D'ESPOIR","7051050","2019-03-04 09:00","2019","03","04","09:00","","M","","M","95","","","M","11","","9","","","","101.25","","","","","","NA"
"-64.32","48.42","CAP-D'ESPOIR","7051050","2019-03-04 10:00","2019","03","04","10:00","","M","","M","95","","","M","13","","12","","","","101.17","","","","","","NA"
"-64.32","48.42","CAP-D'ESPOIR","7051050","2019-03-04 11:00","2019","03","04","11:00","","M","","M","96","","","M","14","","13","","","","101.09","","","","","","NA"
"-64.32","48.42","CAP-D'ESPOIR","7051050","2019-03-04 12:00","2019","03","04","12:00","","M","","M","97","","","M","12","","14","","","","100.87","","","","","","NA"
"-64.32","48.42","CAP-D'ESPOIR","7051050","2019-03-04 13:00","2019","03","04","13:00","","M","","M","97","","","M","9","","17","","","","100.71","","","","","","NA"
"-64.32","48.42","CAP-D'ESPOIR","7051050","2019-03-04 14:00","2019","03","04","14:00","","M","","M","97","","","M","9","","25","","","","100.58","","","","","","NA"
"-64.32","48.42","CAP-D'ESPOIR","7051050","2019-03-04 15:00","2019","03","04","15:00","","M","","M","96","","","M","8","","28","","","","100.40","","","","","","NA"
"-64.32","48.42","CAP-D'ESPOIR","7051050","2019-03-04 16:00","2019","03","04","16:00","","M","","M","96","","","M","4","","29","","","","100.11","","","","","","NA"
"-64.32","48.42","CAP-D'ESPOIR","7051050","2019-03-04 17:00","2019","03","04","17:00","","M","","M","97","","","M","4","","33","","","","100.01","","","","","","NA"
"-64.32","48.42","CAP-D'ESPOIR","7051050","2019-03-04 18:00","2019","03","04","18:00","","M","","M","97","","","M","4","","33","","","","99.92","","","","","","NA"
"-64.32","48.42","CAP-D'ESPOIR","7051050","2019-03-04 19:00","2019","03","04","19:00","","M","","M","97","","","M","4","","36","","","","99.82","","","","","","NA"
"-64.32","48.42","CAP-D'ESPOIR","7051050","2019-03-04 20:00","2019","03","04","20:00","","M","","M","96","","","M","3","","32","","","","99.70","","","","","","NA"
"-64.32","48.42","CAP-D'ESPOIR","7051050","2019-03-04 21:00","2019","03","04","21:00","","M","","M","96","","","M","1","","24","","","","99.66","","","","","","NA"
"-64.32","48.42","CAP-D'ESPOIR","7051050","2019-03-04 22:00","2019","03","04","22:00","","M","","M","94","","","M","35","","16","","","","99.63","","","","","","NA"
"-64.32","48.42","CAP-D'ESPOIR","7051050","2019-03-04 23:00","2019","03","04","23:00","","M","","M","93","","","M","36","","14","","","","99.54","","","","","","NA"
"-64.32","48.42","CAP-D'ESPOIR","7051050","2019-03-05 00:00","2019","03","05","00:00","","M","","M","93","","","M","29","","10","","","","99.58","","","","","","NA"
"-64.32","48.42","CAP-D'ESPOIR","7051050","2019-03-05 01:00","2019","03","05","01:00","","M","","M","91","","","M","28","","10","","","","99.61","","","","","","NA"
"-64.32","48.42","CAP-D'ESPOIR","7051050","2019-03-05 02:00","2019","03","05","02:00","","M","","M","92","","","M","27","","10","","","","99.65","","","","","","NA"
"-64.32","48.42","CAP-D'ESPOIR","7051050","2019-03-05 03:00","2019","03","05","03:00","","M","","M","90","","","M","25","","12","","","","99.67","","","","","","NA"
"-64.32","48.42","CAP-D'ESPOIR","7051050","2019-03-05 04:00","2019","03","05","04:00","","M","","M","87","","","M","26","","12","","","","99.70","","","","","","NA"
"-64.32","48.42","CAP-D'ESPOIR","7051050","2019-03-05 05:00","2019","03","05","05:00","","M","","M","85","","","M","26","","10","","","","99.71","","","","","","NA"
"-64.32","48.42","CAP-D'ESPOIR","7051050","2019-03-05 06:00","2019","03","05","06:00","","M","","M","89","","","M","27","","10","","","","99.73","","","","","","NA"
"-64.32","48.42","CAP-D'ESPOIR","7051050","2019-03-05 07:00","2019","03","05","07:00","","M","","M","86","","","M","28","","12","","","","99.77","","","","","","NA"
"-64.32","48.42","CAP-D'ESPOIR","7051050","2019-03-05 08:00","2019","03","05","08:00","","M","","M","87","","","M","25","","13","","","","99.85","","","","","","NA"
"-64.32","48.42","CAP-D'ESPOIR","7051050","2019-03-05 09:00","2019","03","05","09:00","","M","","M","86","","","M","26","","15","","","","99.90","","","","","","NA"
"-64.32","48.42","CAP-D'ESPOIR","7051050","2019-03-05 10:00","2019","03","05","10:00","","M","","M","74","","","M","25","","21","","","","99.94","","","","","","NA"
"-64.32","48.42","CAP-D'ESPOIR","7051050","2019-03-05 11:00","2019","03","05","11:00","","M","","M","71","","","M","26","","28","","","","99.99","","","","","","NA"
"-64.32","48.42","CAP-D'ESPOIR","7051050","2019-03-05 12:00","2019","03","05","12:00","","M","","M","57","","","M","28","","27","","","","100.07","","","","","","NA"
"-64.32","48.42","CAP-D'ESPOIR","7051050","2019-03-05 13:00","2019","03","05","13:00","","M","","M","59","","","M","26","","26","","","","100.14","","","","","","NA"
"-64.32","48.42","CAP-D'ESPOIR","7051050","2019-03-05 14:00","2019","03","05","14:00","","M","","M","60","","","M","26","","28","","","","100.24","","","","","","NA"
"-64.32","48.42","CAP-D'ESPOIR","7051050","2019-03-05 15:00","2019","03","05","15:00","","M","","M","50","","","M","28","","26","","","","100.31","","","","","","NA"
"-64.32","48.42","CAP-D'ESPOIR","7051050","2019-03-05 16:00","2019","03","05","16:00","","M","","M","53","","","M","27","","14","","","","100.37","","","","","","NA"
"-64.32","48.42","CAP-D'ESPOIR","7051050","2019-03-05 17:00","2019","03","05","17:00","","M","","M","53","","","M","26","","21","","","","100.49","","","","","","NA"
"-64.32","48.42","CAP-D'ESPOIR","7051050","2019-03-05 18:00","2019","03","05","18:00","","M","","M","56","","","M","27","","18","","","","100.65","","","","","","NA"
"-64.32","48.42","CAP-D'ESPOIR","7051050","2019-03-05 19:00","2019","03","05","19:00","","M","","M","56","","","M","30","","9","","","","100.74","","","","","","NA"
"-64.32","48.42","CAP-D'ESPOIR","7051050","2019-03-05 20:00","2019","03","05","20:00","","M","","M","60","","","M","31","","8","","","","100.78","","","","","","NA"
"-64.32","48.42","CAP-D'ESPOIR","7051050","2019-03-05 21:00","2019","03","05","21:00","","M","","M","66","","","M","30","","9","","","","100.80","","","","","","NA"
"-64.32","48.42","CAP-D'ESPOIR","7051050","2019-03-05 22:00","2019","03","05","22:00","","M","","M","65","","","M","30","","10","","","","100.78","","","","","","NA"
"-64.32","48.42","CAP-D'ESPOIR","7051050","2019-03-05 23:00","2019","03","05","23:00","","M","","M","66","","","M","29","","12","","","","100.77","","","","","","NA"
"-64.32","48.42","CAP-D'ESPOIR","7051050","2019-03-06 00:00","2019","03","06","00:00","","M","","M","66","","","M","29","","15","","","","100.77","","","","","","NA"
"-64.32","48.42","CAP-D'ESPOIR","7051050","2019-03-06 01:00","2019","03","06","01:00","","M","","M","66","","","M","29","","16","","","","100.75","","","","","","NA"
"-64.32","48.42","CAP-D'ESPOIR","7051050","2019-03-06 02:00","2019","03","06","02:00","","M","","M","69","","","M","36","","7","","","","100.65","","","","","","NA"
"-64.32","48.42","CAP-D'ESPOIR","7051050","2019-03-06 03:00","2019","03","06","03:00","","M","","M","80","","","M","27","","8","","","","100.61","","","","","","NA"
"-64.32","48.42","CAP-D'ESPOIR","7051050","2019-03-06 04:00","2019","03","06","04:00","","M","","M","81","","","M","25","","7","","","","100.58","","","","","","NA"
"-64.32","48.42","CAP-D'ESPOIR","7051050","2019-03-06 05:00","2019","03","06","05:00","","M","","M","69","","","M","31","","11","","","","100.54","","","","","","NA"
"-64.32","48.42","CAP-D'ESPOIR","7051050","2019-03-06 06:00","2019","03","06","06:00","","M","","M","68","","","M","35","","9","","","","100.50","","","","","","NA"
"-64.32","48.42","CAP-D'ESPOIR","7051050","2019-03-06 07:00","2019","03","06","07:00","","M","","M","65","","","M","31","","11","","","","100.54","","","","","","NA"
"-64.32","48.42","CAP-D'ESPOIR","7051050","2019-03-06 08:00","2019","03","06","08:00","","M","","M","61","","","M","34","","4","","","","100.52","","","","","","NA"
"-64.32","48.42","CAP-D'ESPOIR","7051050","2019-03-06 09:00","2019","03","06","09:00","","M","","M","47","","","M","28","","11","","","","100.50","","","","","","NA"
"-64.32","48.42","CAP-D'ESPOIR","7051050","2019-03-06 10:00","2019","03","06","10:00","","M","","M","62","","","M","23","","12","","","","100.43","","","","","","NA"
"-64.32","48.42","CAP-D'ESPOIR","7051050","2019-03-06 11:00","2019","03","06","11:00","","M","","M","52","","","M","23","","17","","","","100.38","","","","","","NA"
"-64.32","48.42","CAP-D'ESPOIR","7051050","2019-03-06 12:00","2019","03","06","12:00","","M","","M","51","","","M","25","","19","","","","100.31","","","","","","NA"
"-64.32","48.42","CAP-D'ESPOIR","7051050","2019-03-06 13:00","2019","03","06","13:00","","M","","M","46","","","M","23","","21","","","","100.23","","","","","","NA"
"-64.32","48.42","CAP-D'ESPOIR","7051050","2019-03-06 14:00","2019","03","06","14:00","","M","","M","73","","","M","1","","7","","","","100.22","","","","","","NA"
"-64.32","48.42","CAP-D'ESPOIR","7051050","2019-03-06 15:00","2019","03","06","15:00","","M","","M","92","","","M","6","","35","","","","100.23","","","","","","NA"
"-64.32","48.42","CAP-D'ESPOIR","7051050","2019-03-06 16:00","2019","03","06","16:00","","M","","M","89","","","M","5","","19","","","","100.27","","","","","","NA"
"-64.32","48.42","CAP-D'ESPOIR","7051050","2019-03-06 17:00","2019","03","06","17:00","","M","","M","92","","","M","35","","8","","","","100.33","","","","","","NA"
"-64.32","48.42","CAP-D'ESPOIR","7051050","2019-03-06 18:00","2019","03","06","18:00","","M","","M","76","","","M","28","","10","","","","100.40","","","","","","NA"
"-64.32","48.42","CAP-D'ESPOIR","7051050","2019-03-06 19:00","2019","03","06","19:00","","M","","M","77","","","M","28","","11","","","","100.45","","","","","","NA"
"-64.32","48.42","CAP-D'ESPOIR","7051050","2019-03-06 20:00","2019","03","06","20:00","","M","","M","76","","","M","29","","16","","","","100.48","","","","","","NA"
"-64.32","48.42","CAP-D'ESPOIR","7051050","2019-03-06 21:00","2019","03","06","21:00","","M","","M","75","","","M","29","","14","","","","100.49","","","","","","NA"
"-64.32","48.42","CAP-D'ESPOIR","7051050","2019-03-06 22:00","2019","03","06","22:00","","M","","M","75","","","M","29","","15","","","","100.48","","","","","","NA"
"-64.32","48.42","CAP-D'ESPOIR","7051050","2019-03-06 23:00","2019","03","06","23:00","","M","","M","75","","","M","29","","16","","","","100.48","","","","","","NA"
"-64.32","48.42","CAP-D'ESPOIR","7051050","2019-03-07 00:00","2019","03","07","00:00","","M","","M","78","","","M","28","","16","","","","100.51","","","","","","NA"
"-64.32","48.42","CAP-D'ESPOIR","7051050","2019-03-07 01:00","2019","03","07","01:00","","M","","M","79","","","M","28","","17","","","","100.54","","","","","","NA"
"-64.32","48.42","CAP-D'ESPOIR","7051050","2019-03-07 02:00","2019","03","07","02:00","","M","","M","75","","","M","28","","17","","","","100.57","","","","","","NA"
"-64.32","48.42","CAP-D'ESPOIR","7051050","2019-03-07 03:00","2019","03","07","03:00","","M","","M","77","","","M","28","","13","","","","100.62","","","","","","NA"
"-64.32","48.42","CAP-D'ESPOIR","7051050","2019-03-07 04:00","2019","03","07","04:00","","M","","M","74","","","M","28","","18","","","","100.66","","","","","","NA"
"-64.32","48.42","CAP-D'ESPOIR","7051050","2019-03-07 05:00","2019","03","07","05:00","","M","","M","71","","","M","27","","20","","","","100.72","","","","","","NA"
"-64.32","48.42","CAP-D'ESPOIR","7051050","2019-03-07 06:00","2019","03","07","06:00","","M","","M","72","","","M","27","","17","","","","100.76","","","","","","NA"
"-64.32","48.42","CAP-D'ESPOIR","7051050","2019-03-07 07:00","2019","03","07","07:00","","M","","M","68","","","M","28","","17","","","","100.81","","","","","","NA"
"-64.32","48.42","CAP-D'ESPOIR","7051050","2019-03-07 08:00","2019","03","07","08:00","","M","","M","62","","","M","27","","19","","","","100.85","","","","","","NA"
"-64.32","48.42","CAP-D'ESPOIR","7051050","2019-03-07 09:00","2019","03","07","09:00","","M","","M","53","","","M","27","","17","","","","100.84","","","","","","NA"
"-64.32","48.42","CAP-D'ESPOIR","7051050","2019-03-07 10:00","2019","03","07","10:00","","M","","M","50","","","M","28","","20","","","","100.83","","","","","","NA"
"-64.32","48.42","CAP-D'ESPOIR","7051050","2019-03-07 11:00","2019","03","07","11:00","","M","","M","46","","","M","27","","21","","","","100.85","","","","","","NA"
"-64.32","48.42","CAP-D'ESPOIR","7051050","2019-03-07 12:00","2019","03","07","12:00","","M","","M","43","","","M","27","","25","","","","100.84","","","","","","NA"
"-64.32","48.42","CAP-D'ESPOIR","7051050","2019-03-07 13:00","2019","03","07","13:00","","M","","M","42","","","M","27","","24","","","","100.81","","","","","","NA"
"-64.32","48.42","CAP-D'ESPOIR","7051050","2019-03-07 14:00","2019","03","07","14:00","","M","","M","39","","","M","28","","28","","","","100.82","","","","","","NA"
"-64.32","48.42","CAP-D'ESPOIR","7051050","2019-03-07 15:00","2019","03","07","15:00","","M","","M","44","","","M","27","","25","","","","100.85","","","","","","NA"
"-64.32","48.42","CAP-D'ESPOIR","7051050","2019-03-07 16:00","2019","03","07","16:00","","M","","M","45","","","M","27","","25","","","","100.90","","","","","","NA"
"-64.32","48.42","CAP-D'ESPOIR","7051050","2019-03-07 17:00","2019","03","07","17:00","","M","","M","45","","","M","28","","24","","","","101.01","","","","","","NA"
"-64.32","48.42","CAP-D'ESPOIR","7051050","2019-03-07 18:00","2019","03","07","18:00","","M","","M","52","","","M","27","","15","","","","101.15","","","","","","NA"
"-64.32","48.42","CAP-D'ESPOIR","7051050","2019-03-07 19:00","2019","03","07","19:00","","M","","M","56","","","M","26","","18","","","","101.21","","","","","","NA"
"-64.32","48.42","CAP-D'ESPOIR","7051050","2019-03-07 20:00","2019","03","07","20:00","","M","","M","57","","","M","26","","18","","","","101.24","","","","","","NA"
"-64.32","48.42","CAP-D'ESPOIR","7051050","2019-03-07 21:00","2019","03","07","21:00","","M","","M","60","","","M","26","","13","","","","101.29","","","","","","NA"
"-64.32","48.42","CAP-D'ESPOIR","7051050","2019-03-07 22:00","2019","03","07","22:00","","M","","M","67","","","M","26","","13","","","","101.31","","","","","","NA"
"-64.32","48.42","CAP-D'ESPOIR","7051050","2019-03-07 23:00","2019","03","07","23:00","","M","","M","65","","","M","28","","8","","","","101.35","","","","","","NA"
"-64.32","48.42","CAP-D'ESPOIR","7051050","2019-03-08 00:00","2019","03","08","00:00","","M","","M","73","","","M","26","","11","","","","101.37","","","","","","NA"
"-64.32","48.42","CAP-D'ESPOIR","7051050","2019-03-08 01:00","2019","03","08","01:00","","M","","M","71","","","M","27","","14","","","","101.41","","","","","","NA"
"-64.32","48.42","CAP-D'ESPOIR","7051050","2019-03-08 02:00","2019","03","08","02:00","","M","","M","74","","","M","27","","13","","","","101.44","","","","","","NA"
"-64.32","48.42","CAP-D'ESPOIR","7051050","2019-03-08 03:00","2019","03","08","03:00","","M","","M","74","","","M","27","","15","","","","101.40","","","","","","NA"
"-64.32","48.42","CAP-D'ESPOIR","7051050","2019-03-08 04:00","2019","03","08","04:00","","M","","M","72","","","M","27","","17","","","","101.42","","","","","","NA"
"-64.32","48.42","CAP-D'ESPOIR","7051050","2019-03-08 05:00","2019","03","08","05:00","","M","","M","78","","","M","27","","15","","","","101.41","","","","","","NA"
"-64.32","48.42","CAP-D'ESPOIR","7051050","2019-03-08 06:00","2019","03","08","06:00","","M","","M","77","","","M","26","","18","","","","101.43","","","","","","NA"
"-64.32","48.42","CAP-D'ESPOIR","7051050","2019-03-08 07:00","2019","03","08","07:00","","M","","M","74","","","M","25","","19","","","","101.47","","","","","","NA"
"-64.32","48.42","CAP-D'ESPOIR","7051050","2019-03-08 08:00","2019","03","08","08:00","","M","","M","65","","","M","27","","15","","","","101.49","","","","","","NA"
"-64.32","48.42","CAP-D'ESPOIR","7051050","2019-03-08 09:00","2019","03","08","09:00","","M","","M","59","","","M","26","","19","","","","101.45","","","","","","NA"
"-64.32","48.42","CAP-D'ESPOIR","7051050","2019-03-08 10:00","2019","03","08","10:00","","M","","M","54","","","M","25","","27","","","","101.41","","","","","","NA"
"-64.32","48.42","CAP-D'ESPOIR","7051050","2019-03-08 11:00","2019","03","08","11:00","","M","","M","58","","","M","23","","30","","","","101.35","","","","","","NA"
"-64.32","48.42","CAP-D'ESPOIR","7051050","2019-03-08 12:00","2019","03","08","12:00","","M","","M","75","","","M","23","","52","","","","101.24","","","","","","NA"
"-64.32","48.42","CAP-D'ESPOIR","7051050","2019-03-08 13:00","2019","03","08","13:00","","M","","M","67","","","M","22","","45","","","","101.19","","","","","","NA"
"-64.32","48.42","CAP-D'ESPOIR","7051050","2019-03-08 14:00","2019","03","08","14:00","","M","","M","65","","","M","22","","38","","","","101.14","","","","","","NA"
"-64.32","48.42","CAP-D'ESPOIR","7051050","2019-03-08 15:00","2019","03","08","15:00","","M","","M","63","","","M","24","","37","","","","101.11","","","","","","NA"
"-64.32","48.42","CAP-D'ESPOIR","7051050","2019-03-08 16:00","2019","03","08","16:00","","M","","M","59","","","M","25","","27","","","","101.14","","","","","","NA"
"-64.32","48.42","CAP-D'ESPOIR","7051050","2019-03-08 17:00","2019","03","08","17:00","","M","","M","56","","","M","26","","19","","","","101.16","","","","","","NA"
"-64.32","48.42","CAP-D'ESPOIR","7051050","2019-03-08 18:00","2019","03","08","18:00","","M","","M","69","","","M","24","","21","","","","101.19","","","","","","NA"
"-64.32","48.42","CAP-D'ESPOIR","7051050","2019-03-08 19:00","2019","03","08","19:00","","M","","M","67","","","M","24","","27","","","","101.19","","","","","","NA"
"-64.32","48.42","CAP-D'ESPOIR","7051050","2019-03-08 20:00","2019","03","08","20:00","","M","","M","63","","","M","26","","19","","","","101.20","","","","","","NA"
"-64.32","48.42","CAP-D'ESPOIR","7051050","2019-03-08 21:00","2019","03","08","21:00","","M","","M","68","","","M","23","","43","","","","101.18","","","","","","NA"
"-64.32","48.42","CAP-D'ESPOIR","7051050","2019-03-08 22:00","2019","03","08","22:00","","M","","M","67","","","M","24","","40","","","","101.17","","","","","","NA"
"-64.32","48.42","CAP-D'ESPOIR","7051050","2019-03-08 23:00","2019","03","08","23:00","","M","","M","66","","","M","26","","16","","","","101.13","","","","","","NA"
"-64.32","48.42","CAP-D'ESPOIR","7051050","2019-03-09 00:00","2019","03","09","00:00","","M","","M","67","","","M","25","","16","","","","101.14","","","","","","NA"
"-64.32","48.42","CAP-D'ESPOIR","7051050","2019-03-09 01:00","2019","03","09","01:00","","M","","M","65","","","M","28","","12","","","","101.17","","","","","","NA"
"-64.32","48.42","CAP-D'ESPOIR","7051050","2019-03-09 02:00","2019","03","09","02:00","","M","","M","64","","","M","26","","15","","","","101.16","","","","","","NA"
"-64.32","48.42","CAP-D'ESPOIR","7051050","2019-03-09 03:00","2019","03","09","03:00","","M","","M","67","","","M","27","","15","","","","101.17","","","","","","NA"
"-64.32","48.42","CAP-D'ESPOIR","7051050","2019-03-09 04:00","2019","03","09","04:00","","M","","M","71","","","M","28","","15","","","","101.18","","","","","","NA"
"-64.32","48.42","CAP-D'ESPOIR","7051050","2019-03-09 05:00","2019","03","09","05:00","","M","","M","72","","","M","27","","13","","","","101.21","","","","","","NA"
"-64.32","48.42","CAP-D'ESPOIR","7051050","2019-03-09 06:00","2019","03","09","06:00","","M","","M","73","","","M","26","","18","","","","101.25","","","","","","NA"
"-64.32","48.42","CAP-D'ESPOIR","7051050","2019-03-09 07:00","2019","03","09","07:00","","M","","M","83","","","M","24","","17","","","","101.32","","","","","","NA"
"-64.32","48.42","CAP-D'ESPOIR","7051050","2019-03-09 08:00","2019","03","09","08:00","","M","","M","59","","","M","31","","25","","","","101.39","","","","","","NA"
"-64.32","48.42","CAP-D'ESPOIR","7051050","2019-03-09 09:00","2019","03","09","09:00","","M","","M","57","","","M","32","","24","","","","101.51","","","","","","NA"
"-64.32","48.42","CAP-D'ESPOIR","7051050","2019-03-09 10:00","2019","03","09","10:00","","M","","M","67","","","M","36","","23","","","","101.66","","","","","","NA"
"-64.32","48.42","CAP-D'ESPOIR","7051050","2019-03-09 11:00","2019","03","09","11:00","","M","","M","56","","","M","1","","24","","","","101.78","","","","","","NA"
"-64.32","48.42","CAP-D'ESPOIR","7051050","2019-03-09 12:00","2019","03","09","12:00","","M","","M","52","","","M","33","","22","","","","101.87","","","","","","NA"
"-64.32","48.42","CAP-D'ESPOIR","7051050","2019-03-09 13:00","2019","03","09","13:00","","M","","M","45","","","M","32","","25","","","","101.95","","","","","","NA"
"-64.32","48.42","CAP-D'ESPOIR","7051050","2019-03-09 14:00","2019","03","09","14:00","","M","","M","43","","","M","32","","29","","","","102.01","","","","","","NA"
"-64.32","48.42","CAP-D'ESPOIR","7051050","2019-03-09 15:00","2019","03","09","15:00","","M","","M","31","","","M","30","","28","","","","102.13","","","","","","NA"
"-64.32","48.42","CAP-D'ESPOIR","7051050","2019-03-09 16:00","2019","03","09","16:00","","M","","M","33","","","M","31","","27","","","","102.23","","","","","","NA"
"-64.32","48.42","CAP-D'ESPOIR","7051050","2019-03-09 17:00","2019","03","09","17:00","","M","","M","40","","","M","31","","10","","","","102.35","","","","","","NA"
"-64.32","48.42","CAP-D'ESPOIR","7051050","2019-03-09 18:00","2019","03","09","18:00","","M","","M","46","","","M","31","","11","","","","102.48","","","","","","NA"
"-64.32","48.42","CAP-D'ESPOIR","7051050","2019-03-09 19:00","2019","03","09","19:00","","M","","M","51","","","M","31","","7","","","","102.59","","","","","","NA"
"-64.32","48.42","CAP-D'ESPOIR","7051050","2019-03-09 20:00","2019","03","09","20:00","","M","","M","55","","","M","26","","9","","","","102.67","","","","","","NA"
"-64.32","48.42","CAP-D'ESPOIR","7051050","2019-03-09 21:00","2019","03","09","21:00","","M","","M","56","","","M","26","","8","","","","102.76","","","","","","NA"
"-64.32","48.42","CAP-D'ESPOIR","7051050","2019-03-09 22:00","2019","03","09","22:00","","M","","M","65","","","M","27","","12","","","","102.85","","","","","","NA"
"-64.32","48.42","CAP-D'ESPOIR","7051050","2019-03-09 23:00","2019","03","09","23:00","","M","","M","61","","","M","27","","13","","","","102.92","","","","","","NA"
"-64.32","48.42","CAP-D'ESPOIR","7051050","2019-03-10 00:00","2019","03","10","00:00","","M","","M","59","","","M","25","","3","","","","102.99","","","","","","NA"
"-64.32","48.42","CAP-D'ESPOIR","7051050","2019-03-10 01:00","2019","03","10","01:00","","M","","M","65","","","M","28","","12","","","","103.10","","","","","","NA"
"-64.32","48.42","CAP-D'ESPOIR","7051050","2019-03-10 02:00","2019","03","10","02:00","","M","","M","67","","","M","31","","13","","","","103.12","","","","","","NA"
"-64.32","48.42","CAP-D'ESPOIR","7051050","2019-03-10 03:00","2019","03","10","03:00","","M","","M","64","","","M","1","","7","","","","103.12","","","","","","NA"
"-64.32","48.42","CAP-D'ESPOIR","7051050","2019-03-10 04:00","2019","03","10","04:00","","M","","M","69","","","M","33","","3","","","","103.16","","","","","","NA"
"-64.32","48.42","CAP-D'ESPOIR","7051050","2019-03-10 05:00","2019","03","10","05:00","","M","","M","74","","","M","28","","10","","","","103.25","","","","","","NA"
"-64.32","48.42","CAP-D'ESPOIR","7051050","2019-03-10 06:00","2019","03","10","06:00","","M","","M","69","","","M","28","","11","","","","103.30","","","","","","NA"
"-64.32","48.42","CAP-D'ESPOIR","7051050","2019-03-10 07:00","2019","03","10","07:00","","M","","M","63","","","M","30","","13","","","","103.31","","","","","","NA"
"-64.32","48.42","CAP-D'ESPOIR","7051050","2019-03-10 08:00","2019","03","10","08:00","","M","","M","55","","","M","29","","7","","","","103.32","","","","","","NA"
"-64.32","48.42","CAP-D'ESPOIR","7051050","2019-03-10 09:00","2019","03","10","09:00","","M","","M","56","","","M","24","","14","","","","103.38","","","","","","NA"
"-64.32","48.42","CAP-D'ESPOIR","7051050","2019-03-10 10:00","2019","03","10","10:00","","M","","M","69","","","M","23","","22","","","","103.36","","","","","","NA"
"-64.32","48.42","CAP-D'ESPOIR","7051050","2019-03-10 11:00","2019","03","10","11:00","","M","","M","68","","","M","23","","19","","","","103.28","","","","","","NA"
"-64.32","48.42","CAP-D'ESPOIR","7051050","2019-03-10 12:00","2019","03","10","12:00","","M","","M","69","","","M","22","","20","","","","103.23","","","","","","NA"
"-64.32","48.42","CAP-D'ESPOIR","7051050","2019-03-10 13:00","2019","03","10","13:00","","M","","M","67","","","M","22","","20","","","","103.15","","","","","","NA"
"-64.32","48.42","CAP-D'ESPOIR","7051050","2019-03-10 14:00","2019","03","10","14:00","","M","","M","70","","","M","19","","23","","","","103.03","","","","","","NA"
"-64.32","48.42","CAP-D'ESPOIR","7051050","2019-03-10 15:00","2019","03","10","15:00","","M","","M","73","","","M","19","","23","","","","102.97","","","","","","NA"
"-64.32","48.42","CAP-D'ESPOIR","7051050","2019-03-10 16:00","2019","03","10","16:00","","M","","M","73","","","M","17","","18","","","","102.86","","","","","","NA"
"-64.32","48.42","CAP-D'ESPOIR","7051050","2019-03-10 17:00","2019","03","10","17:00","","M","","M","79","","","M","18","","19","","","","102.76","","","","","","NA"
"-64.32","48.42","CAP-D'ESPOIR","7051050","2019-03-10 18:00","2019","03","10","18:00","","M","","M","82","","","M","17","","22","","","","102.64","","","","","","NA"
"-64.32","48.42","CAP-D'ESPOIR","7051050","2019-03-10 19:00","2019","03","10","19:00","","M","","M","86","","","M","17","","22","","","","102.51","","","","","","NA"
"-64.32","48.42","CAP-D'ESPOIR","7051050","2019-03-10 20:00","2019","03","10","20:00","","M","","M","86","","","M","18","","21","","","","102.40","","","","","","NA"
"-64.32","48.42","CAP-D'ESPOIR","7051050","2019-03-10 21:00","2019","03","10","21:00","","M","","M","86","","","M","18","","25","","","","102.25","","","","","","NA"
"-64.32","48.42","CAP-D'ESPOIR","7051050","2019-03-10 22:00","2019","03","10","22:00","","M","","M","86","","","M","17","","30","","","","102.10","","","","","","NA"
"-64.32","48.42","CAP-D'ESPOIR","7051050","2019-03-10 23:00","2019","03","10","23:00","","M","","M","84","","","M","16","","28","","","","101.90","","","","","","NA"
"-64.32","48.42","CAP-D'ESPOIR","7051050","2019-03-11 00:00","2019","03","11","00:00","","M","","M","97","","","M","18","","33","","","","101.77","","","","","","NA"
"-64.32","48.42","CAP-D'ESPOIR","7051050","2019-03-11 01:00","2019","03","11","01:00","","M","","M","97","","","M","17","","31","","","","101.54","","","","","","NA"
"-64.32","48.42","CAP-D'ESPOIR","7051050","2019-03-11 02:00","2019","03","11","02:00","","M","","M","98","","","M","15","","27","","","","101.31","","","","","","NA"
"-64.32","48.42","CAP-D'ESPOIR","7051050","2019-03-11 03:00","2019","03","11","03:00","","M","","M","98","","","M","12","","27","","","","101.01","","","","","","NA"
"-64.32","48.42","CAP-D'ESPOIR","7051050","2019-03-11 04:00","2019","03","11","04:00","","M","","M","98","","","M","9","","17","","","","100.83","","","","","","NA"
"-64.32","48.42","CAP-D'ESPOIR","7051050","2019-03-11 05:00","2019","03","11","05:00","","M","","M","99","","","M","10","","19","","","","100.54","","","","","","NA"
"-64.32","48.42","CAP-D'ESPOIR","7051050","2019-03-11 06:00","2019","03","11","06:00","","M","","M","99","","","M","5","","12","","","","100.26","","","","","","NA"
"-64.32","48.42","CAP-D'ESPOIR","7051050","2019-03-11 07:00","2019","03","11","07:00","","M","","M","99","","","M","4","","11","","","","100.00","","","","","","NA"
"-64.32","48.42","CAP-D'ESPOIR","7051050","2019-03-11 08:00","2019","03","11","08:00","","M","","M","99","","","M","35","","6","","","","99.82","","","","","","NA"
"-64.32","48.42","CAP-D'ESPOIR","7051050","2019-03-11 09:00","2019","03","11","09:00","","M","","M","99","","","M","25","","9","","","","99.69","","","","","","NA"
"-64.32","48.42","CAP-D'ESPOIR","7051050","2019-03-11 10:00","2019","03","11","10:00","","M","","M","99","","","M","24","","21","","","","99.63","","","","","","NA"
"-64.32","48.42","CAP-D'ESPOIR","7051050","2019-03-11 11:00","2019","03","11","11:00","","M","","M","97","","","M","24","","35","","","","99.59","","","","","","NA"
"-64.32","48.42","CAP-D'ESPOIR","7051050","2019-03-11 12:00","2019","03","11","12:00","","M","","M","97","","","M","24","","32","","","","99.62","","","","","","NA"
"-64.32","48.42","CAP-D'ESPOIR","7051050","2019-03-11 13:00","2019","03","11","13:00","","M","","M","94","","","M","24","","24","","","","99.61","","","","","","NA"
"-64.32","48.42","CAP-D'ESPOIR","7051050","2019-03-11 14:00","2019","03","11","14:00","","M","","M","95","","","M","23","","29","","","","99.59","","","","","","NA"
"-64.32","48.42","CAP-D'ESPOIR","7051050","2019-03-11 15:00","2019","03","11","15:00","","M","","M","94","","","M","23","","26","","","","99.55","","","","","","NA"
"-64.32","48.42","CAP-D'ESPOIR","7051050","2019-03-11 16:00","2019","03","11","16:00","","M","","M","97","","","M","24","","26","","","","99.52","","","","","","NA"
"-64.32","48.42","CAP-D'ESPOIR","7051050","2019-03-11 17:00","2019","03","11","17:00","","M","","M","98","","","M","26","","17","","","","99.54","","","","","","NA"
"-64.32","48.42","CAP-D'ESPOIR","7051050","2019-03-11 18:00","2019","03","11","18:00","","M","","M","98","","","M","25","","16","","","","99.58","","","","","","NA"
"-64.32","48.42","CAP-D'ESPOIR","7051050","2019-03-11 19:00","2019","03","11","19:00","","M","","M","98","","","M","25","","18","","","","99.63","","","","","","NA"
"-64.32","48.42","CAP-D'ESPOIR","7051050","2019-03-11 20:00","2019","03","11","20:00","","M","","M","98","","","M","26","","18","","","","99.64","","","","","","NA"
"-64.32","48.42","CAP-D'ESPOIR","7051050","2019-03-11 21:00","2019","03","11","21:00","","M","","M","98","","","M","26","","20","","","","99.67","","","","","","NA"
"-64.32","48.42","CAP-D'ESPOIR","7051050","2019-03-11 22:00","2019","03","11","22:00","","M","","M","98","","","M","26","","12","","","","99.70","","","","","","NA"
"-64.32","48.42","CAP-D'ESPOIR","7051050","2019-03-11 23:00","2019","03","11","23:00","","M","","M","98","","","M","27","","14","","","","99.66","","","","","","NA"
"-64.32","48.42","CAP-D'ESPOIR","7051050","2019-03-12 00:00","2019","03","12","00:00","","M","","M","98","","","M","24","","13","","","","99.69","","","","","","NA"
"-64.32","48.42","CAP-D'ESPOIR","7051050","2019-03-12 01:00","2019","03","12","01:00","","M","","M","97","","","M","25","","10","","","","99.78","","","","","","NA"
"-64.32","48.42","CAP-D'ESPOIR","7051050","2019-03-12 02:00","2019","03","12","02:00","","M","","M","97","","","M","26","","9","","","","99.86","","","","","","NA"
"-64.32","48.42","CAP-D'ESPOIR","7051050","2019-03-12 03:00","2019","03","12","03:00","","M","","M","96","","","M","27","","13","","","","99.89","","","","","","NA"
"-64.32","48.42","CAP-D'ESPOIR","7051050","2019-03-12 04:00","2019","03","12","04:00","","M","","M","94","","","M","26","","11","","","","99.94","","","","","","NA"
"-64.32","48.42","CAP-D'ESPOIR","7051050","2019-03-12 05:00","2019","03","12","05:00","","M","","M","93","","","M","29","","14","","","","100.00","","","","","","NA"
"-64.32","48.42","CAP-D'ESPOIR","7051050","2019-03-12 06:00","2019","03","12","06:00","","M","","M","90","","","M","28","","12","","","","100.07","","","","","","NA"
"-64.32","48.42","CAP-D'ESPOIR","7051050","2019-03-12 07:00","2019","03","12","07:00","","M","","M","83","","","M","31","","18","","","","100.14","","","","","","NA"
"-64.32","48.42","CAP-D'ESPOIR","7051050","2019-03-12 08:00","2019","03","12","08:00","","M","","M","84","","","M","29","","8","","","","100.23","","","","","","NA"
"-64.32","48.42","CAP-D'ESPOIR","7051050","2019-03-12 09:00","2019","03","12","09:00","","M","","M","83","","","M","27","","11","","","","100.31","","","","","","NA"
"-64.32","48.42","CAP-D'ESPOIR","7051050","2019-03-12 10:00","2019","03","12","10:00","","M","","M","84","","","M","27","","12","","","","100.37","","","","","","NA"
"-64.32","48.42","CAP-D'ESPOIR","7051050","2019-03-12 11:00","2019","03","12","11:00","","M","","M","79","","","M","27","","10","","","","100.44","","","","","","NA"
"-64.32","48.42","CAP-D'ESPOIR","7051050","2019-03-12 12:00","2019","03","12","12:00","","M","","M","74","","","M","31","","14","","","","100.51","","","","","","NA"
"-64.32","48.42","CAP-D'ESPOIR","7051050","2019-03-12 13:00","2019","03","12","13:00","","M","","M","70","","","M","31","","16","","","","100.56","","","","","","NA"
"-64.32","48.42","CAP-D'ESPOIR","7051050","2019-03-12 14:00","2019","03","12","14:00","","M","","M","72","","","M","31","","15","","","","100.64","","","","","","NA"
"-64.32","48.42","CAP-D'ESPOIR","7051050","2019-03-12 15:00","2019","03","12","15:00","","M","","M","73","","","M","32","","15","","","","100.73","","","","","","NA"
"-64.32","48.42","CAP-D'ESPOIR","7051050","2019-03-12 16:00","2019","03","12","16:00","","M","","M","65","","","M","31","","20","","","","100.84","","","","","","NA"
"-64.32","48.42","CAP-D'ESPOIR","7051050","2019-03-12 17:00","2019","03","12","17:00","","M","","M","71","","","M","30","","7","","","","100.98","","","","","","NA"
"-64.32","48.42","CAP-D'ESPOIR","7051050","2019-03-12 18:00","2019","03","12","18:00","","M","","M","69","","","M","31","","11","","","","101.09","","","","","","NA"
"-64.32","48.42","CAP-D'ESPOIR","7051050","2019-03-12 19:00","2019","03","12","19:00","","M","","M","79","","","M","25","","11","","","","101.17","","","","","","NA"
"-64.32","48.42","CAP-D'ESPOIR","7051050","2019-03-12 20:00","2019","03","12","20:00","","M","","M","81","","","M","27","","12","","","","101.25","","","","","","NA"
"-64.32","48.42","CAP-D'ESPOIR","7051050","2019-03-12 21:00","2019","03","12","21:00","","M","","M","80","","","M","28","","15","","","","101.31","","","","","","NA"
"-64.32","48.42","CAP-D'ESPOIR","7051050","2019-03-12 22:00","2019","03","12","22:00","","M","","M","84","","","M","27","","17","","","","101.35","","","","","","NA"
"-64.32","48.42","CAP-D'ESPOIR","7051050","2019-03-12 23:00","2019","03","12","23:00","","M","","M","86","","","M","27","","19","","","","101.39","","","","","","NA"
"-64.32","48.42","CAP-D'ESPOIR","7051050","2019-03-13 00:00","2019","03","13","00:00","","M","","M","83","","","M","35","","3","","","","101.48","","","","","","NA"
"-64.32","48.42","CAP-D'ESPOIR","7051050","2019-03-13 01:00","2019","03","13","01:00","","M","","M","87","","","M","21","","9","","","","101.57","","","","","","NA"
"-64.32","48.42","CAP-D'ESPOIR","7051050","2019-03-13 02:00","2019","03","13","02:00","","M","","M","83","","","M","24","","12","","","","101.61","","","","","","NA"
"-64.32","48.42","CAP-D'ESPOIR","7051050","2019-03-13 03:00","2019","03","13","03:00","","M","","M","86","","","M","23","","10","","","","101.66","","","","","","NA"
"-64.32","48.42","CAP-D'ESPOIR","7051050","2019-03-13 04:00","2019","03","13","04:00","","M","","M","86","","","M","26","","14","","","","101.74","","","","","","NA"
"-64.32","48.42","CAP-D'ESPOIR","7051050","2019-03-13 05:00","2019","03","13","05:00","","M","","M","87","","","M","27","","13","","","","101.82","","","","","","NA"
"-64.32","48.42","CAP-D'ESPOIR","7051050","2019-03-13 06:00","2019","03","13","06:00","","M","","M","84","","","M","26","","8","","","","101.87","","","","","","NA"
"-64.32","48.42","CAP-D'ESPOIR","7051050","2019-03-13 07:00","2019","03","13","07:00","","M","","M","80","","","M","26","","15","","","","101.95","","","","","","NA"
"-64.32","48.42","CAP-D'ESPOIR","7051050","2019-03-13 08:00","2019","03","13","08:00","","M","","M","74","","","M","28","","14","","","","101.97","","","","","","NA"
"-64.32","48.42","CAP-D'ESPOIR","7051050","2019-03-13 09:00","2019","03","13","09:00","","M","","M","74","","","M","23","","9","","","","101.97","","","","","","NA"
"-64.32","48.42","CAP-D'ESPOIR","7051050","2019-03-13 10:00","2019","03","13","10:00","","M","","M","72","","","M","23","","8","","","","101.99","","","","","","NA"
"-64.32","48.42","CAP-D'ESPOIR","7051050","2019-03-13 11:00","2019","03","13","11:00","","M","","M","78","","","M","21","","14","","","","101.99","","","","","","NA"
"-64.32","48.42","CAP-D'ESPOIR","7051050","2019-03-13 12:00","2019","03","13","12:00","","M","","M","77","","","M","20","","11","","","","102.00","","","","","","NA"
"-64.32","48.42","CAP-D'ESPOIR","7051050","2019-03-13 13:00","2019","03","13","13:00","","M","","M","73","","","M","18","","9","","","","101.96","","","","","","NA"
"-64.32","48.42","CAP-D'ESPOIR","7051050","2019-03-13 14:00","2019","03","13","14:00","","M","","M","75","","","M","20","","11","","","","101.93","","","","","","NA"
"-64.32","48.42","CAP-D'ESPOIR","7051050","2019-03-13 15:00","2019","03","13","15:00","","M","","M","77","","","M","23","","20","","","","101.91","","","","","","NA"
"-64.32","48.42","CAP-D'ESPOIR","7051050","2019-03-13 16:00","2019","03","13","16:00","","M","","M","81","","","M","22","","11","","","","101.91","","","","","","NA"
"-64.32","48.42","CAP-D'ESPOIR","7051050","2019-03-13 17:00","2019","03","13","17:00","","M","","M","84","","","M","20","","14","","","","101.91","","","","","","NA"
"-64.32","48.42","CAP-D'ESPOIR","7051050","2019-03-13 18:00","2019","03","13","18:00","","M","","M","87","","","M","20","","8","","","","101.96","","","","","","NA"
"-64.32","48.42","CAP-D'ESPOIR","7051050","2019-03-13 19:00","2019","03","13","19:00","","M","","M","87","","","M","24","","14","","","","101.99","","","","","","NA"
"-64.32","48.42","CAP-D'ESPOIR","7051050","2019-03-13 20:00","2019","03","13","20:00","","M","","M","84","","","M","26","","10","","","","102.03","","","","","","NA"
"-64.32","48.42","CAP-D'ESPOIR","7051050","2019-03-13 21:00","2019","03","13","21:00","","M","","M","82","","","M","25","","14","","","","102.01","","","","","","NA"
"-64.32","48.42","CAP-D'ESPOIR","7051050","2019-03-13 22:00","2019","03","13","22:00","","M","","M","82","","","M","24","","13","","","","102.02","","","","","","NA"
"-64.32","48.42","CAP-D'ESPOIR","7051050","2019-03-13 23:00","2019","03","13","23:00","","M","","M","84","","","M","24","","9","","","","102.01","","","","","","NA"
"-64.32","48.42","CAP-D'ESPOIR","7051050","2019-03-14 00:00","2019","03","14","00:00","","M","","M","88","","","M","25","","2","","","","101.95","","","","","","NA"
"-64.32","48.42","CAP-D'ESPOIR","7051050","2019-03-14 01:00","2019","03","14","01:00","","M","","M","89","","","M","30","","4","","","","101.97","","","","","","NA"
"-64.32","48.42","CAP-D'ESPOIR","7051050","2019-03-14 02:00","2019","03","14","02:00","","M","","M","90","","","M","25","","6","","","","101.93","","","","","","NA"
"-64.32","48.42","CAP-D'ESPOIR","7051050","2019-03-14 03:00","2019","03","14","03:00","","M","","M","85","","","M","27","","7","","","","101.90","","","","","","NA"
"-64.32","48.42","CAP-D'ESPOIR","7051050","2019-03-14 04:00","2019","03","14","04:00","","M","","M","79","","","M","27","","11","","","","101.94","","","","","","NA"
"-64.32","48.42","CAP-D'ESPOIR","7051050","2019-03-14 05:00","2019","03","14","05:00","","M","","M","77","","","M","31","","5","","","","102.00","","","","","","NA"
"-64.32","48.42","CAP-D'ESPOIR","7051050","2019-03-14 06:00","2019","03","14","06:00","","M","","M","85","","","M","20","","5","","","","102.00","","","","","","NA"
"-64.32","48.42","CAP-D'ESPOIR","7051050","2019-03-14 07:00","2019","03","14","07:00","","M","","M","82","","","M","27","","17","","","","102.11","","","","","","NA"
"-64.32","48.42","CAP-D'ESPOIR","7051050","2019-03-14 08:00","2019","03","14","08:00","","M","","M","84","","","M","27","","4","","","","102.15","","","","","","NA"
"-64.32","48.42","CAP-D'ESPOIR","7051050","2019-03-14 09:00","2019","03","14","09:00","","M","","M","82","","","M","36","","2","","","","102.18","","","","","","NA"
"-64.32","48.42","CAP-D'ESPOIR","7051050","2019-03-14 10:00","2019","03","14","10:00","","M","","M","84","","","M","7","","4","","","","102.17","","","","","","NA"
"-64.32","48.42","CAP-D'ESPOIR","7051050","2019-03-14 11:00","2019","03","14","11:00","","M","","M","68","","","M","3","","1","","","","102.12","","","","","","NA"
"-64.32","48.42","CAP-D'ESPOIR","7051050","2019-03-14 12:00","2019","03","14","12:00","","M","","M","82","","","M","12","","6","","","","102.11","","","","","","NA"
"-64.32","48.42","CAP-D'ESPOIR","7051050","2019-03-14 13:00","2019","03","14","13:00","","M","","M","84","","","M","13","","5","","","","102.11","","","","","","NA"
"-64.32","48.42","CAP-D'ESPOIR","7051050","2019-03-14 14:00","2019","03","14","14:00","","M","","M","82","","","M","9","","5","","","","102.11","","","","","","NA"
"-64.32","48.42","CAP-D'ESPOIR","7051050","2019-03-14 15:00","2019","03","14","15:00","","M","","M","84","","","M","9","","9","","","","102.04","","","","","","NA"
"-64.32","48.42","CAP-D'ESPOIR","7051050","2019-03-14 16:00","2019","03","14","16:00","","M","","M","87","","","M","5","","6","","","","102.05","","","","","","NA"
"-64.32","48.42","CAP-D'ESPOIR","7051050","2019-03-14 17:00","2019","03","14","17:00","","M","","M","85","","","M","0","","1","","","","102.09","","","","","","NA"
"-64.32","48.42","CAP-D'ESPOIR","7051050","2019-03-14 18:00","2019","03","14","18:00","","M","","M","83","","","M","12","","1","","","","102.09","","","","","","NA"
"-64.32","48.42","CAP-D'ESPOIR","7051050","2019-03-14 19:00","2019","03","14","19:00","","M","","M","85","","","M","1","","4","","","","102.09","","","","","","NA"
"-64.32","48.42","CAP-D'ESPOIR","7051050","2019-03-14 20:00","2019","03","14","20:00","","M","","M","84","","","M","2","","7","","","","102.06","","","","","","NA"
"-64.32","48.42","CAP-D'ESPOIR","7051050","2019-03-14 21:00","2019","03","14","21:00","","M","","M","91","","","M","","","0","","","","102.02","","","","","","NA"
"-64.32","48.42","CAP-D'ESPOIR","7051050","2019-03-14 22:00","2019","03","14","22:00","","M","","M","88","","","M","6","","2","","","","101.94","","","","","","NA"
"-64.32","48.42","CAP-D'ESPOIR","7051050","2019-03-14 23:00","2019","03","14","23:00","","M","","M","86","","","M","36","","4","","","","101.87","","","","","","NA"
"-64.32","48.42","CAP-D'ESPOIR","7051050","2019-03-15 00:00","2019","03","15","00:00","","M","","M","81","","","M","7","","3","","","","101.78","","","","","","NA"
"-64.32","48.42","CAP-D'ESPOIR","7051050","2019-03-15 01:00","2019","03","15","01:00","","M","","M","85","","","M","6","","5","","","","101.68","","","","","","NA"
"-64.32","48.42","CAP-D'ESPOIR","7051050","2019-03-15 02:00","2019","03","15","02:00","","M","","M","87","","","M","5","","4","","","","101.55","","","","","","NA"
"-64.32","48.42","CAP-D'ESPOIR","7051050","2019-03-15 03:00","2019","03","15","03:00","","M","","M","91","","","M","24","","7","","","","101.54","","","","","","NA"
"-64.32","48.42","CAP-D'ESPOIR","7051050","2019-03-15 04:00","2019","03","15","04:00","","M","","M","95","","","M","21","","11","","","","101.42","","","","","","NA"
"-64.32","48.42","CAP-D'ESPOIR","7051050","2019-03-15 05:00","2019","03","15","05:00","","M","","M","96","","","M","21","","15","","","","101.41","","","","","","NA"
"-64.32","48.42","CAP-D'ESPOIR","7051050","2019-03-15 06:00","2019","03","15","06:00","","M","","M","96","","","M","20","","23","","","","101.31","","","","","","NA"
"-64.32","48.42","CAP-D'ESPOIR","7051050","2019-03-15 07:00","2019","03","15","07:00","","M","","M","96","","","M","19","","30","","","","101.22","","","","","","NA"
"-64.32","48.42","CAP-D'ESPOIR","7051050","2019-03-15 08:00","2019","03","15","08:00","","M","","M","95","","","M","20","","26","","","","101.11","","","","","","NA"
"-64.32","48.42","CAP-D'ESPOIR","7051050","2019-03-15 09:00","2019","03","15","09:00","","M","","M","92","","","M","20","","40","","","","100.98","","","","","","NA"
"-64.32","48.42","CAP-D'ESPOIR","7051050","2019-03-15 10:00","2019","03","15","10:00","","M","","M","93","","","M","19","","39","","","","100.86","","","","","","NA"
"-64.32","48.42","CAP-D'ESPOIR","7051050","2019-03-15 11:00","2019","03","15","11:00","","M","","M","94","","","M","19","","31","","","","100.73","","","","","","NA"
"-64.32","48.42","CAP-D'ESPOIR","7051050","2019-03-15 12:00","2019","03","15","12:00","","M","","M","94","","","M","20","","24","","","","100.63","","","","","","NA"
"-64.32","48.42","CAP-D'ESPOIR","7051050","2019-03-15 13:00","2019","03","15","13:00","","M","","M","96","","","M","20","","22","","","","100.41","","","","","","NA"
"-64.32","48.42","CAP-D'ESPOIR","7051050","2019-03-15 14:00","2019","03","15","14:00","","M","","M","97","","","M","20","","24","","","","100.25","","","","","","NA"
"-64.32","48.42","CAP-D'ESPOIR","7051050","2019-03-15 15:00","2019","03","15","15:00","","M","","M","97","","","M","22","","25","","","","100.15","","","","","","NA"
"-64.32","48.42","CAP-D'ESPOIR","7051050","2019-03-15 16:00","2019","03","15","16:00","","M","","M","96","","","M","20","","32","","","","99.96","","","","","","NA"
"-64.32","48.42","CAP-D'ESPOIR","7051050","2019-03-15 17:00","2019","03","15","17:00","","M","","M","98","","","M","25","","18","","","","99.93","","","","","","NA"
"-64.32","48.42","CAP-D'ESPOIR","7051050","2019-03-15 18:00","2019","03","15","18:00","","M","","M","99","","","M","24","","12","","","","99.89","","","","","","NA"
"-64.32","48.42","CAP-D'ESPOIR","7051050","2019-03-15 19:00","2019","03","15","19:00","","M","","M","100","","","M","26","","16","","","","99.88","","","","","","NA"
"-64.32","48.42","CAP-D'ESPOIR","7051050","2019-03-15 20:00","2019","03","15","20:00","","M","","M","100","","","M","25","","16","","","","99.85","","","","","","NA"
"-64.32","48.42","CAP-D'ESPOIR","7051050","2019-03-15 21:00","2019","03","15","21:00","","M","","M","100","","","M","24","","15","","","","99.81","","","","","","NA"
"-64.32","48.42","CAP-D'ESPOIR","7051050","2019-03-15 22:00","2019","03","15","22:00","","M","","M","100","","","M","26","","10","","","","99.82","","","","","","NA"
"-64.32","48.42","CAP-D'ESPOIR","7051050","2019-03-15 23:00","2019","03","15","23:00","","M","","M","100","","","M","24","","8","","","","99.77","","","","","","NA"
"-64.32","48.42","CAP-D'ESPOIR","7051050","2019-03-16 00:00","2019","03","16","00:00","","M","","M","100","","","M","27","","5","","","","99.76","","","","","","NA"
"-64.32","48.42","CAP-D'ESPOIR","7051050","2019-03-16 01:00","2019","03","16","01:00","","M","","M","100","","","M","24","","10","","","","99.67","","","","","","NA"
"-64.32","48.42","CAP-D'ESPOIR","7051050","2019-03-16 02:00","2019","03","16","02:00","","M","","M","100","","","M","24","","14","","","","99.69","","","","","","NA"
"-64.32","48.42","CAP-D'ESPOIR","7051050","2019-03-16 03:00","2019","03","16","03:00","","M","","M","100","","","M","25","","16","","","","99.62","","","","","","NA"
"-64.32","48.42","CAP-D'ESPOIR","7051050","2019-03-16 04:00","2019","03","16","04:00","","M","","M","100","","","M","25","","17","","","","99.61","","","","","","NA"
"-64.32","48.42","CAP-D'ESPOIR","7051050","2019-03-16 05:00","2019","03","16","05:00","","M","","M","100","","","M","24","","13","","","","99.47","","","","","","NA"
"-64.32","48.42","CAP-D'ESPOIR","7051050","2019-03-16 06:00","2019","03","16","06:00","","M","","M","100","","","M","25","","14","","","","99.45","","","","","","NA"
"-64.32","48.42","CAP-D'ESPOIR","7051050","2019-03-16 07:00","2019","03","16","07:00","","M","","M","100","","","M","26","","10","","","","99.43","","","","","","NA"
"-64.32","48.42","CAP-D'ESPOIR","7051050","2019-03-16 08:00","2019","03","16","08:00","","M","","M","100","","","M","23","","11","","","","99.39","","","","","","NA"
"-64.32","48.42","CAP-D'ESPOIR","7051050","2019-03-16 09:00","2019","03","16","09:00","","M","","M","100","","","M","21","","11","","","","99.33","","","","","","NA"
"-64.32","48.42","CAP-D'ESPOIR","7051050","2019-03-16 10:00","2019","03","16","10:00","","M","","M","100","","","M","22","","12","","","","99.24","","","","","","NA"
"-64.32","48.42","CAP-D'ESPOIR","7051050","2019-03-16 11:00","2019","03","16","11:00","","M","","M","100","","","M","25","","12","","","","99.11","","","","","","NA"
"-64.32","48.42","CAP-D'ESPOIR","7051050","2019-03-16 12:00","2019","03","16","12:00","","M","","M","100","","","M","25","","10","","","","99.07","","","","","","NA"
"-64.32","48.42","CAP-D'ESPOIR","7051050","2019-03-16 13:00","2019","03","16","13:00","","M","","M","100","","","M","27","","8","","","","98.97","","","","","","NA"
"-64.32","48.42","CAP-D'ESPOIR","7051050","2019-03-16 14:00","2019","03","16","14:00","","M","","M","100","","","M","25","","11","","","","98.94","","","","","","NA"
"-64.32","48.42","CAP-D'ESPOIR","7051050","2019-03-16 15:00","2019","03","16","15:00","","M","","M","99","","","M","25","","21","","","","98.85","","","","","","NA"
"-64.32","48.42","CAP-D'ESPOIR","7051050","2019-03-16 16:00","2019","03","16","16:00","","M","","M","94","","","M","25","","24","","","","98.85","","","","","","NA"
"-64.32","48.42","CAP-D'ESPOIR","7051050","2019-03-16 17:00","2019","03","16","17:00","","M","","M","93","","","M","28","","21","","","","98.92","","","","","","NA"
"-64.32","48.42","CAP-D'ESPOIR","7051050","2019-03-16 18:00","2019","03","16","18:00","","M","","M","90","","","M","26","","31","","","","99.06","","","","","","NA"
"-64.32","48.42","CAP-D'ESPOIR","7051050","2019-03-16 19:00","2019","03","16","19:00","","M","","M","73","","","M","26","","29","","","","99.17","","","","","","NA"
"-64.32","48.42","CAP-D'ESPOIR","7051050","2019-03-16 20:00","2019","03","16","20:00","","M","","M","67","","","M","27","","36","","","","99.22","","","","","","NA"
"-64.32","48.42","CAP-D'ESPOIR","7051050","2019-03-16 21:00","2019","03","16","21:00","","M","","M","64","","","M","27","","31","","","","99.31","","","","","","NA"
"-64.32","48.42","CAP-D'ESPOIR","7051050","2019-03-16 22:00","2019","03","16","22:00","","M","","M","64","","","M","28","","26","","","","99.40","","","","","","NA"
"-64.32","48.42","CAP-D'ESPOIR","7051050","2019-03-16 23:00","2019","03","16","23:00","","M","","M","61","","","M","27","","28","","","","99.47","","","","","","NA"
"-64.32","48.42","CAP-D'ESPOIR","7051050","2019-03-17 00:00","2019","03","17","00:00","","M","","M","63","","","M","26","","30","","","","99.53","","","","","","NA"
"-64.32","48.42","CAP-D'ESPOIR","7051050","2019-03-17 01:00","2019","03","17","01:00","","M","","M","61","","","M","27","","28","","","","99.61","","","","","","NA"
"-64.32","48.42","CAP-D'ESPOIR","7051050","2019-03-17 02:00","2019","03","17","02:00","","M","","M","61","","","M","26","","31","","","","99.68","","","","","","NA"
"-64.32","48.42","CAP-D'ESPOIR","7051050","2019-03-17 03:00","2019","03","17","03:00","","M","","M","61","","","M","26","","28","","","","99.79","","","","","","NA"
"-64.32","48.42","CAP-D'ESPOIR","7051050","2019-03-17 04:00","2019","03","17","04:00","","M","","M","62","","","M","27","","21","","","","99.86","","","","","","NA"
"-64.32","48.42","CAP-D'ESPOIR","7051050","2019-03-17 05:00","2019","03","17","05:00","","M","","M","60","","","M","26","","29","","","","99.93","","","","","","NA"
"-64.32","48.42","CAP-D'ESPOIR","7051050","2019-03-17 06:00","2019","03","17","06:00","","M","","M","61","","","M","26","","24","","","","100.03","","","","","","NA"
"-64.32","48.42","CAP-D'ESPOIR","7051050","2019-03-17 07:00","2019","03","17","07:00","","M","","M","56","","","M","26","","28","","","","100.09","","","","","","NA"
"-64.32","48.42","CAP-D'ESPOIR","7051050","2019-03-17 08:00","2019","03","17","08:00","","M","","M","55","","","M","27","","28","","","","100.16","","","","","","NA"
"-64.32","48.42","CAP-D'ESPOIR","7051050","2019-03-17 09:00","2019","03","17","09:00","","M","","M","50","","","M","26","","29","","","","100.17","","","","","","NA"
"-64.32","48.42","CAP-D'ESPOIR","7051050","2019-03-17 10:00","2019","03","17","10:00","","M","","M","49","","","M","28","","30","","","","100.20","","","","","","NA"
"-64.32","48.42","CAP-D'ESPOIR","7051050","2019-03-17 11:00","2019","03","17","11:00","","M","","M","48","","","M","27","","28","","","","100.22","","","","","","NA"
"-64.32","48.42","CAP-D'ESPOIR","7051050","2019-03-17 12:00","2019","03","17","12:00","","M","","M","47","","","M","28","","31","","","","100.26","","","","","","NA"
"-64.32","48.42","CAP-D'ESPOIR","7051050","2019-03-17 13:00","2019","03","17","13:00","","M","","M","48","","","M","27","","26","","","","100.27","","","","","","NA"
"-64.32","48.42","CAP-D'ESPOIR","7051050","2019-03-17 14:00","2019","03","17","14:00","","M","","M","46","","","M","27","","21","","","","100.34","","","","","","NA"
"-64.32","48.42","CAP-D'ESPOIR","7051050","2019-03-17 15:00","2019","03","17","15:00","","M","","M","49","","","M","27","","29","","","","100.39","","","","","","NA"
"-64.32","48.42","CAP-D'ESPOIR","7051050","2019-03-17 16:00","2019","03","17","16:00","","M","","M","49","","","M","28","","27","","","","100.49","","","","","","NA"
"-64.32","48.42","CAP-D'ESPOIR","7051050","2019-03-17 17:00","2019","03","17","17:00","","M","","M","53","","","M","27","","27","","","","100.59","","","","","","NA"
"-64.32","48.42","CAP-D'ESPOIR","7051050","2019-03-17 18:00","2019","03","17","18:00","","M","","M","54","","","M","27","","23","","","","100.70","","","","","","NA"
"-64.32","48.42","CAP-D'ESPOIR","7051050","2019-03-17 19:00","2019","03","17","19:00","","M","","M","59","","","M","26","","17","","","","100.75","","","","","","NA"
"-64.32","48.42","CAP-D'ESPOIR","7051050","2019-03-17 20:00","2019","03","17","20:00","","M","","M","59","","","M","26","","22","","","","100.77","","","","","","NA"
"-64.32","48.42","CAP-D'ESPOIR","7051050","2019-03-17 21:00","2019","03","17","21:00","","M","","M","60","","","M","26","","23","","","","100.80","","","","","","NA"
"-64.32","48.42","CAP-D'ESPOIR","7051050","2019-03-17 22:00","2019","03","17","22:00","","M","","M","64","","","M","26","","22","","","","100.85","","","","","","NA"
"-64.32","48.42","CAP-D'ESPOIR","7051050","2019-03-17 23:00","2019","03","17","23:00","","M","","M","68","","","M","26","","21","","","","100.88","","","","","","NA"
"-64.32","48.42","CAP-D'ESPOIR","7051050","2019-03-18 00:00","2019","03","18","00:00","","M","","M","70","","","M","26","","14","","","","100.91","","","","","","NA"
"-64.32","48.42","CAP-D'ESPOIR","7051050","2019-03-18 01:00","2019","03","18","01:00","","M","","M","71","","","M","27","","15","","","","100.94","","","","","","NA"
"-64.32","48.42","CAP-D'ESPOIR","7051050","2019-03-18 02:00","2019","03","18","02:00","","M","","M","76","","","M","27","","13","","","","100.94","","","","","","NA"
"-64.32","48.42","CAP-D'ESPOIR","7051050","2019-03-18 03:00","2019","03","18","03:00","","M","","M","76","","","M","27","","12","","","","100.95","","","","","","NA"
"-64.32","48.42","CAP-D'ESPOIR","7051050","2019-03-18 04:00","2019","03","18","04:00","","M","","M","76","","","M","28","","12","","","","100.98","","","","","","NA"
"-64.32","48.42","CAP-D'ESPOIR","7051050","2019-03-18 05:00","2019","03","18","05:00","","M","","M","76","","","M","26","","15","","","","101.01","","","","","","NA"
"-64.32","48.42","CAP-D'ESPOIR","7051050","2019-03-18 06:00","2019","03","18","06:00","","M","","M","77","","","M","26","","13","","","","101.08","","","","","","NA"
"-64.32","48.42","CAP-D'ESPOIR","7051050","2019-03-18 07:00","2019","03","18","07:00","","M","","M","72","","","M","26","","18","","","","101.11","","","","","","NA"
"-64.32","48.42","CAP-D'ESPOIR","7051050","2019-03-18 08:00","2019","03","18","08:00","","M","","M","65","","","M","26","","22","","","","101.13","","","","","","NA"
"-64.32","48.42","CAP-D'ESPOIR","7051050","2019-03-18 09:00","2019","03","18","09:00","","M","","M","55","","","M","25","","25","","","","101.14","","","","","","NA"
"-64.32","48.42","CAP-D'ESPOIR","7051050","2019-03-18 10:00","2019","03","18","10:00","","M","","M","54","","","M","24","","22","","","","101.14","","","","","","NA"
"-64.32","48.42","CAP-D'ESPOIR","7051050","2019-03-18 11:00","2019","03","18","11:00","","M","","M","59","","","M","23","","26","","","","101.13","","","","","","NA"
"-64.32","48.42","CAP-D'ESPOIR","7051050","2019-03-18 12:00","2019","03","18","12:00","","M","","M","52","","","M","24","","23","","","","101.14","","","","","","NA"
"-64.32","48.42","CAP-D'ESPOIR","7051050","2019-03-18 13:00","2019","03","18","13:00","","M","","M","55","","","M","23","","27","","","","101.12","","","","","","NA"
"-64.32","48.42","CAP-D'ESPOIR","7051050","2019-03-18 14:00","2019","03","18","14:00","","M","","M","66","","","M","4","","28","","","","101.21","","","","","","NA"
"-64.32","48.42","CAP-D'ESPOIR","7051050","2019-03-18 15:00","2019","03","18","15:00","","M","","M","67","","","M","6","","23","","","","101.29","","","","","","NA"
"-64.32","48.42","CAP-D'ESPOIR","7051050","2019-03-18 16:00","2019","03","18","16:00","","M","","M","67","","","M","8","","21","","","","101.36","","","","","","NA"
"-64.32","48.42","CAP-D'ESPOIR","7051050","2019-03-18 17:00","2019","03","18","17:00","","M","","M","64","","","M","8","","11","","","","101.46","","","","","","NA"
"-64.32","48.42","CAP-D'ESPOIR","7051050","2019-03-18 18:00","2019","03","18","18:00","","M","","M","63","","","M","28","","2","","","","101.59","","","","","","NA"
"-64.32","48.42","CAP-D'ESPOIR","7051050","2019-03-18 19:00","2019","03","18","19:00","","M","","M","57","","","M","28","","15","","","","101.70","","","","","","NA"
"-64.32","48.42","CAP-D'ESPOIR","7051050","2019-03-18 20:00","2019","03","18","20:00","","M","","M","61","","","M","26","","6","","","","101.79","","","","","","NA"
"-64.32","48.42","CAP-D'ESPOIR","7051050","2019-03-18 21:00","2019","03","18","21:00","","M","","M","59","","","M","31","","23","","","","101.82","","","","","","NA"
"-64.32","48.42","CAP-D'ESPOIR","7051050","2019-03-18 22:00","2019","03","18","22:00","","M","","M","61","","","M","29","","16","","","","101.85","","","","","","NA"
"-64.32","48.42","CAP-D'ESPOIR","7051050","2019-03-18 23:00","2019","03","18","23:00","","M","","M","62","","","M","29","","19","","","","101.84","","","","","","NA"
"-64.32","48.42","CAP-D'ESPOIR","7051050","2019-03-19 00:00","2019","03","19","00:00","","M","","M","65","","","M","28","","17","","","","101.84","","","","","","NA"
"-64.32","48.42","CAP-D'ESPOIR","7051050","2019-03-19 01:00","2019","03","19","01:00","","M","","M","72","","","M","28","","6","","","","101.86","","","","","","NA"
"-64.32","48.42","CAP-D'ESPOIR","7051050","2019-03-19 02:00","2019","03","19","02:00","","M","","M","76","","","M","26","","14","","","","101.85","","","","","","NA"
"-64.32","48.42","CAP-D'ESPOIR","7051050","2019-03-19 03:00","2019","03","19","03:00","","M","","M","78","","","M","25","","16","","","","101.85","","","","","","NA"
"-64.32","48.42","CAP-D'ESPOIR","7051050","2019-03-19 04:00","2019","03","19","04:00","","M","","M","81","","","M","25","","7","","","","101.85","","","","","","NA"
"-64.32","48.42","CAP-D'ESPOIR","7051050","2019-03-19 05:00","2019","03","19","05:00","","M","","M","80","","","M","26","","10","","","","101.88","","","","","","NA"
"-64.32","48.42","CAP-D'ESPOIR","7051050","2019-03-19 06:00","2019","03","19","06:00","","M","","M","78","","","M","2","","3","","","","101.96","","","","","","NA"
"-64.32","48.42","CAP-D'ESPOIR","7051050","2019-03-19 07:00","2019","03","19","07:00","","M","","M","74","","","M","30","","2","","","","102.02","","","","","","NA"
"-64.32","48.42","CAP-D'ESPOIR","7051050","2019-03-19 08:00","2019","03","19","08:00","","M","","M","75","","","M","2","","11","","","","102.07","","","","","","NA"
"-64.32","48.42","CAP-D'ESPOIR","7051050","2019-03-19 09:00","2019","03","19","09:00","","M","","M","71","","","M","2","","10","","","","102.13","","","","","","NA"
"-64.32","48.42","CAP-D'ESPOIR","7051050","2019-03-19 10:00","2019","03","19","10:00","","M","","M","72","","","M","8","","14","","","","102.12","","","","","","NA"
"-64.32","48.42","CAP-D'ESPOIR","7051050","2019-03-19 11:00","2019","03","19","11:00","","M","","M","75","","","M","7","","16","","","","102.13","","","","","","NA"
"-64.32","48.42","CAP-D'ESPOIR","7051050","2019-03-19 12:00","2019","03","19","12:00","","M","","M","78","","","M","7","","18","","","","102.15","","","","","","NA"
"-64.32","48.42","CAP-D'ESPOIR","7051050","2019-03-19 13:00","2019","03","19","13:00","","M","","M","81","","","M","9","","11","","","","102.16","","","","","","NA"
"-64.32","48.42","CAP-D'ESPOIR","7051050","2019-03-19 14:00","2019","03","19","14:00","","M","","M","81","","","M","11","","7","","","","102.18","","","","","","NA"
"-64.32","48.42","CAP-D'ESPOIR","7051050","2019-03-19 15:00","2019","03","19","15:00","","M","","M","87","","","M","11","","11","","","","102.17","","","","","","NA"
"-64.32","48.42","CAP-D'ESPOIR","7051050","2019-03-19 16:00","2019","03","19","16:00","","M","","M","88","","","M","9","","15","","","","102.18","","","","","","NA"
"-64.32","48.42","CAP-D'ESPOIR","7051050","2019-03-19 17:00","2019","03","19","17:00","","M","","M","89","","","M","8","","20","","","","102.19","","","","","","NA"
"-64.32","48.42","CAP-D'ESPOIR","7051050","2019-03-19 18:00","2019","03","19","18:00","","M","","M","88","","","M","7","","24","","","","102.22","","","","","","NA"
"-64.32","48.42","CAP-D'ESPOIR","7051050","2019-03-19 19:00","2019","03","19","19:00","","M","","M","87","","","M","7","","22","","","","102.27","","","","","","NA"
"-64.32","48.42","CAP-D'ESPOIR","7051050","2019-03-19 20:00","2019","03","19","20:00","","M","","M","84","","","M","6","","10","","","","102.30","","","","","","NA"
"-64.32","48.42","CAP-D'ESPOIR","7051050","2019-03-19 21:00","2019","03","19","21:00","","M","","M","91","","","M","6","","3","","","","102.27","","","","","","NA"
"-64.32","48.42","CAP-D'ESPOIR","7051050","2019-03-19 22:00","2019","03","19","22:00","","M","","M","95","","","M","31","","3","","","","102.27","","","","","","NA"
"-64.32","48.42","CAP-D'ESPOIR","7051050","2019-03-19 23:00","2019","03","19","23:00","","M","","M","92","","","M","30","","10","","","","102.25","","","","","","NA"
"-64.32","48.42","CAP-D'ESPOIR","7051050","2019-03-20 00:00","2019","03","20","00:00","","M","","M","72","","","M","30","","16","","","","102.23","","","","","","NA"
"-64.32","48.42","CAP-D'ESPOIR","7051050","2019-03-20 01:00","2019","03","20","01:00","","M","","M","70","","","M","30","","15","","","","102.22","","","","","","NA"
"-64.32","48.42","CAP-D'ESPOIR","7051050","2019-03-20 02:00","2019","03","20","02:00","","M","","M","67","","","M","30","","16","","","","102.18","","","","","","NA"
"-64.32","48.42","CAP-D'ESPOIR","7051050","2019-03-20 03:00","2019","03","20","03:00","","M","","M","80","","","M","13","","8","","","","102.14","","","","","","NA"
"-64.32","48.42","CAP-D'ESPOIR","7051050","2019-03-20 04:00","2019","03","20","04:00","","M","","M","83","","","M","26","","13","","","","102.14","","","","","","NA"
"-64.32","48.42","CAP-D'ESPOIR","7051050","2019-03-20 05:00","2019","03","20","05:00","","M","","M","76","","","M","27","","18","","","","102.15","","","","","","NA"
"-64.32","48.42","CAP-D'ESPOIR","7051050","2019-03-20 06:00","2019","03","20","06:00","","M","","M","72","","","M","28","","14","","","","102.15","","","","","","NA"
"-64.32","48.42","CAP-D'ESPOIR","7051050","2019-03-20 07:00","2019","03","20","07:00","","M","","M","67","","","M","27","","15","","","","102.15","","","","","","NA"
"-64.32","48.42","CAP-D'ESPOIR","7051050","2019-03-20 08:00","2019","03","20","08:00","","M","","M","74","","","M","26","","18","","","","102.12","","","","","","NA"
"-64.32","48.42","CAP-D'ESPOIR","7051050","2019-03-20 09:00","2019","03","20","09:00","","M","","M","69","","","M","24","","27","","","","102.10","","","","","","NA"
"-64.32","48.42","CAP-D'ESPOIR","7051050","2019-03-20 10:00","2019","03","20","10:00","","M","","M","69","","","M","24","","28","","","","102.03","","","","","","NA"
"-64.32","48.42","CAP-D'ESPOIR","7051050","2019-03-20 11:00","2019","03","20","11:00","","M","","M","75","","","M","24","","35","","","","101.95","","","","","","NA"
"-64.32","48.42","CAP-D'ESPOIR","7051050","2019-03-20 12:00","2019","03","20","12:00","","M","","M","65","","","M","23","","43","","","","101.81","","","","","","NA"
"-64.32","48.42","CAP-D'ESPOIR","7051050","2019-03-20 13:00","2019","03","20","13:00","","M","","M","64","","","M","21","","41","","","","101.70","","","","","","NA"
"-64.32","48.42","CAP-D'ESPOIR","7051050","2019-03-20 14:00","2019","03","20","14:00","","M","","M","68","","","M","21","","40","","","","101.62","","","","","","NA"
"-64.32","48.42","CAP-D'ESPOIR","7051050","2019-03-20 15:00","2019","03","20","15:00","","M","","M","69","","","M","21","","36","","","","101.57","","","","","","NA"
"-64.32","48.42","CAP-D'ESPOIR","7051050","2019-03-20 16:00","2019","03","20","16:00","","M","","M","71","","","M","22","","38","","","","101.54","","","","","","NA"
"-64.32","48.42","CAP-D'ESPOIR","7051050","2019-03-20 17:00","2019","03","20","17:00","","M","","M","72","","","M","22","","33","","","","101.60","","","","","","NA"
"-64.32","48.42","CAP-D'ESPOIR","7051050","2019-03-20 18:00","2019","03","20","18:00","","M","","M","77","","","M","26","","13","","","","101.68","","","","","","NA"
"-64.32","48.42","CAP-D'ESPOIR","7051050","2019-03-20 19:00","2019","03","20","19:00","","M","","M","78","","","M","26","","21","","","","101.72","","","","","","NA"
"-64.32","48.42","CAP-D'ESPOIR","7051050","2019-03-20 20:00","2019","03","20","20:00","","M","","M","83","","","M","25","","18","","","","101.78","","","","","","NA"
"-64.32","48.42","CAP-D'ESPOIR","7051050","2019-03-20 21:00","2019","03","20","21:00","","M","","M","76","","","M","26","","15","","","","101.79","","","","","","NA"
"-64.32","48.42","CAP-D'ESPOIR","7051050","2019-03-20 22:00","2019","03","20","22:00","","M","","M","76","","","M","24","","17","","","","101.81","","","","","","NA"
"-64.32","48.42","CAP-D'ESPOIR","7051050","2019-03-20 23:00","2019","03","20","23:00","","M","","M","76","","","M","26","","13","","","","101.86","","","","","","NA"
"-64.32","48.42","CAP-D'ESPOIR","7051050","2019-03-21 00:00","2019","03","21","00:00","","M","","M","81","","","M","25","","13","","","","101.89","","","","","","NA"
"-64.32","48.42","CAP-D'ESPOIR","7051050","2019-03-21 01:00","2019","03","21","01:00","","M","","M","72","","","M","26","","16","","","","101.88","","","","","","NA"
"-64.32","48.42","CAP-D'ESPOIR","7051050","2019-03-21 02:00","2019","03","21","02:00","","M","","M","70","","","M","26","","10","","","","101.86","","","","","","NA"
"-64.32","48.42","CAP-D'ESPOIR","7051050","2019-03-21 03:00","2019","03","21","03:00","","M","","M","72","","","M","26","","13","","","","101.85","","","","","","NA"
"-64.32","48.42","CAP-D'ESPOIR","7051050","2019-03-21 04:00","2019","03","21","04:00","","M","","M","77","","","M","25","","11","","","","101.83","","","","","","NA"
"-64.32","48.42","CAP-D'ESPOIR","7051050","2019-03-21 05:00","2019","03","21","05:00","","M","","M","82","","","M","24","","14","","","","101.81","","","","","","NA"
"-64.32","48.42","CAP-D'ESPOIR","7051050","2019-03-21 06:00","2019","03","21","06:00","","M","","M","86","","","M","24","","13","","","","101.84","","","","","","NA"
"-64.32","48.42","CAP-D'ESPOIR","7051050","2019-03-21 07:00","2019","03","21","07:00","","M","","M","81","","","M","26","","12","","","","101.83","","","","","","NA"
"-64.32","48.42","CAP-D'ESPOIR","7051050","2019-03-21 08:00","2019","03","21","08:00","","M","","M","83","","","M","24","","17","","","","101.81","","","","","","NA"
"-64.32","48.42","CAP-D'ESPOIR","7051050","2019-03-21 09:00","2019","03","21","09:00","","M","","M","78","","","M","25","","15","","","","101.75","","","","","","NA"
"-64.32","48.42","CAP-D'ESPOIR","7051050","2019-03-21 10:00","2019","03","21","10:00","","M","","M","78","","","M","24","","16","","","","101.68","","","","","","NA"
"-64.32","48.42","CAP-D'ESPOIR","7051050","2019-03-21 11:00","2019","03","21","11:00","","M","","M","79","","","M","22","","14","","","","101.62","","","","","","NA"
"-64.32","48.42","CAP-D'ESPOIR","7051050","2019-03-21 12:00","2019","03","21","12:00","","M","","M","86","","","M","21","","14","","","","101.58","","","","","","NA"
"-64.32","48.42","CAP-D'ESPOIR","7051050","2019-03-21 13:00","2019","03","21","13:00","","M","","M","84","","","M","21","","10","","","","101.48","","","","","","NA"
"-64.32","48.42","CAP-D'ESPOIR","7051050","2019-03-21 14:00","2019","03","21","14:00","","M","","M","88","","","M","21","","15","","","","101.45","","","","","","NA"
"-64.32","48.42","CAP-D'ESPOIR","7051050","2019-03-21 15:00","2019","03","21","15:00","","M","","M","84","","","M","22","","25","","","","101.40","","","","","","NA"
"-64.32","48.42","CAP-D'ESPOIR","7051050","2019-03-21 16:00","2019","03","21","16:00","","M","","M","85","","","M","22","","20","","","","101.36","","","","","","NA"
"-64.32","48.42","CAP-D'ESPOIR","7051050","2019-03-21 17:00","2019","03","21","17:00","","M","","M","85","","","M","24","","13","","","","101.35","","","","","","NA"
"-64.32","48.42","CAP-D'ESPOIR","7051050","2019-03-21 18:00","2019","03","21","18:00","","M","","M","84","","","M","24","","10","","","","101.34","","","","","","NA"
"-64.32","48.42","CAP-D'ESPOIR","7051050","2019-03-21 19:00","2019","03","21","19:00","","M","","M","82","","","M","25","","17","","","","101.40","","","","","","NA"
"-64.32","48.42","CAP-D'ESPOIR","7051050","2019-03-21 20:00","2019","03","21","20:00","","M","","M","81","","","M","24","","23","","","","101.41","","","","","","NA"
"-64.32","48.42","CAP-D'ESPOIR","7051050","2019-03-21 21:00","2019","03","21","21:00","","M","","M","79","","","M","24","","25","","","","101.36","","","","","","NA"
"-64.32","48.42","CAP-D'ESPOIR","7051050","2019-03-21 22:00","2019","03","21","22:00","","M","","M","78","","","M","26","","14","","","","101.33","","","","","","NA"
"-64.32","48.42","CAP-D'ESPOIR","7051050","2019-03-21 23:00","2019","03","21","23:00","","M","","M","80","","","M","26","","15","","","","101.28","","","","","","NA"
"-64.32","48.42","CAP-D'ESPOIR","7051050","2019-03-22 00:00","2019","03","22","00:00","","M","","M","83","","","M","24","","17","","","","101.29","","","","","","NA"
"-64.32","48.42","CAP-D'ESPOIR","7051050","2019-03-22 01:00","2019","03","22","01:00","","M","","M","88","","","M","22","","23","","","","101.26","","","","","","NA"
"-64.32","48.42","CAP-D'ESPOIR","7051050","2019-03-22 02:00","2019","03","22","02:00","","M","","M","88","","","M","25","","16","","","","101.25","","","","","","NA"
"-64.32","48.42","CAP-D'ESPOIR","7051050","2019-03-22 03:00","2019","03","22","03:00","","M","","M","87","","","M","25","","16","","","","101.23","","","","","","NA"
"-64.32","48.42","CAP-D'ESPOIR","7051050","2019-03-22 04:00","2019","03","22","04:00","","M","","M","88","","","M","26","","14","","","","101.17","","","","","","NA"
"-64.32","48.42","CAP-D'ESPOIR","7051050","2019-03-22 05:00","2019","03","22","05:00","","M","","M","86","","","M","25","","12","","","","101.05","","","","","","NA"
"-64.32","48.42","CAP-D'ESPOIR","7051050","2019-03-22 06:00","2019","03","22","06:00","","M","","M","86","","","M","23","","14","","","","101.09","","","","","","NA"
"-64.32","48.42","CAP-D'ESPOIR","7051050","2019-03-22 07:00","2019","03","22","07:00","","M","","M","87","","","M","24","","14","","","","101.09","","","","","","NA"
"-64.32","48.42","CAP-D'ESPOIR","7051050","2019-03-22 08:00","2019","03","22","08:00","","M","","M","87","","","M","25","","12","","","","101.05","","","","","","NA"
"-64.32","48.42","CAP-D'ESPOIR","7051050","2019-03-22 09:00","2019","03","22","09:00","","M","","M","86","","","M","22","","7","","","","100.95","","","","","","NA"
"-64.32","48.42","CAP-D'ESPOIR","7051050","2019-03-22 10:00","2019","03","22","10:00","","M","","M","81","","","M","2","","1","","","","100.82","","","","","","NA"
"-64.32","48.42","CAP-D'ESPOIR","7051050","2019-03-22 11:00","2019","03","22","11:00","","M","","M","93","","","M","4","","10","","","","100.68","","","","","","NA"
"-64.32","48.42","CAP-D'ESPOIR","7051050","2019-03-22 12:00","2019","03","22","12:00","","M","","M","98","","","M","3","","18","","","","100.58","","","","","","NA"
"-64.32","48.42","CAP-D'ESPOIR","7051050","2019-03-22 13:00","2019","03","22","13:00","","M","","M","99","","","M","5","","19","","","","100.38","","","","","","NA"
"-64.32","48.42","CAP-D'ESPOIR","7051050","2019-03-22 14:00","2019","03","22","14:00","","M","","M","99","","","M","4","","9","","","","100.23","","","","","","NA"
"-64.32","48.42","CAP-D'ESPOIR","7051050","2019-03-22 15:00","2019","03","22","15:00","","M","","M","99","","","M","4","","34","","","","100.03","","","","","","NA"
"-64.32","48.42","CAP-D'ESPOIR","7051050","2019-03-22 16:00","2019","03","22","16:00","","M","","M","99","","","M","4","","41","","","","99.86","","","","","","NA"
"-64.32","48.42","CAP-D'ESPOIR","7051050","2019-03-22 17:00","2019","03","22","17:00","","M","","M","97","","","M","4","","48","","","","99.61","","","","","","NA"
"-64.32","48.42","CAP-D'ESPOIR","7051050","2019-03-22 18:00","2019","03","22","18:00","","M","","M","99","","","M","5","","42","","","","99.55","","","","","","NA"
"-64.32","48.42","CAP-D'ESPOIR","7051050","2019-03-22 19:00","2019","03","22","19:00","","M","","M","100","","","M","5","","50","","","","99.31","","","","","","NA"
"-64.32","48.42","CAP-D'ESPOIR","7051050","2019-03-22 20:00","2019","03","22","20:00","","M","","M","100","","","M","5","","53","","","","99.17","","","","","","NA"
"-64.32","48.42","CAP-D'ESPOIR","7051050","2019-03-22 21:00","2019","03","22","21:00","","M","","M","100","","","M","5","","51","","","","99.00","","","","","","NA"
"-64.32","48.42","CAP-D'ESPOIR","7051050","2019-03-22 22:00","2019","03","22","22:00","","M","","M","100","","","M","5","","48","","","","98.87","","","","","","NA"
"-64.32","48.42","CAP-D'ESPOIR","7051050","2019-03-22 23:00","2019","03","22","23:00","","M","","M","100","","","M","5","","50","","","","98.69","","","","","","NA"
"-64.32","48.42","CAP-D'ESPOIR","7051050","2019-03-23 00:00","2019","03","23","00:00","","M","","M","100","","","M","5","","41","","","","98.60","","","","","","NA"
"-64.32","48.42","CAP-D'ESPOIR","7051050","2019-03-23 01:00","2019","03","23","01:00","","M","","M","100","","","M","4","","35","","","","98.47","","","","","","NA"
"-64.32","48.42","CAP-D'ESPOIR","7051050","2019-03-23 02:00","2019","03","23","02:00","","M","","M","100","","","M","5","","28","","","","98.41","","","","","","NA"
"-64.32","48.42","CAP-D'ESPOIR","7051050","2019-03-23 03:00","2019","03","23","03:00","","M","","M","100","","","M","4","","33","","","","98.28","","","","","","NA"
"-64.32","48.42","CAP-D'ESPOIR","7051050","2019-03-23 04:00","2019","03","23","04:00","","M","","M","100","","","M","4","","30","","","","98.24","","","","","","NA"
"-64.32","48.42","CAP-D'ESPOIR","7051050","2019-03-23 05:00","2019","03","23","05:00","","M","","M","100","","","M","3","","20","","","","98.17","","","","","","NA"
"-64.32","48.42","CAP-D'ESPOIR","7051050","2019-03-23 06:00","2019","03","23","06:00","","M","","M","100","","","M","4","","10","","","","98.18","","","","","","NA"
"-64.32","48.42","CAP-D'ESPOIR","7051050","2019-03-23 07:00","2019","03","23","07:00","","M","","M","100","","","M","4","","8","","","","98.20","","","","","","NA"
"-64.32","48.42","CAP-D'ESPOIR","7051050","2019-03-23 08:00","2019","03","23","08:00","","M","","M","100","","","M","4","","4","","","","98.23","","","","","","NA"
"-64.32","48.42","CAP-D'ESPOIR","7051050","2019-03-23 09:00","2019","03","23","09:00","","M","","M","100","","","M","36","","13","","","","98.24","","","","","","NA"
"-64.32","48.42","CAP-D'ESPOIR","7051050","2019-03-23 10:00","2019","03","23","10:00","","M","","M","100","","","M","4","","13","","","","98.25","","","","","","NA"
"-64.32","48.42","CAP-D'ESPOIR","7051050","2019-03-23 11:00","2019","03","23","11:00","","M","","M","100","","","M","4","","11","","","","98.25","","","","","","NA"
"-64.32","48.42","CAP-D'ESPOIR","7051050","2019-03-23 12:00","2019","03","23","12:00","","M","","M","100","","","M","1","","16","","","","98.25","","","","","","NA"
"-64.32","48.42","CAP-D'ESPOIR","7051050","2019-03-23 13:00","2019","03","23","13:00","","M","","M","100","","","M","1","","21","","","","98.27","","","","","","NA"
"-64.32","48.42","CAP-D'ESPOIR","7051050","2019-03-23 14:00","2019","03","23","14:00","","M","","M","99","","","M","3","","25","","","","98.32","","","","","","NA"
"-64.32","48.42","CAP-D'ESPOIR","7051050","2019-03-23 15:00","2019","03","23","15:00","","M","","M","94","","","M","36","","29","","","","98.37","","","","","","NA"
"-64.32","48.42","CAP-D'ESPOIR","7051050","2019-03-23 16:00","2019","03","23","16:00","","M","","M","91","","","M","36","","38","","","","98.44","","","","","","NA"
"-64.32","48.42","CAP-D'ESPOIR","7051050","2019-03-23 17:00","2019","03","23","17:00","","M","","M","89","","","M","35","","20","","","","98.66","","","","","","NA"
"-64.32","48.42","CAP-D'ESPOIR","7051050","2019-03-23 18:00","2019","03","23","18:00","","M","","M","86","","","M","35","","14","","","","98.83","","","","","","NA"
"-64.32","48.42","CAP-D'ESPOIR","7051050","2019-03-23 19:00","2019","03","23","19:00","","M","","M","87","","","M","34","","15","","","","98.97","","","","","","NA"
"-64.32","48.42","CAP-D'ESPOIR","7051050","2019-03-23 20:00","2019","03","23","20:00","","M","","M","86","","","M","32","","17","","","","99.06","","","","","","NA"
"-64.32","48.42","CAP-D'ESPOIR","7051050","2019-03-23 21:00","2019","03","23","21:00","","M","","M","82","","","M","32","","13","","","","99.11","","","","","","NA"
"-64.32","48.42","CAP-D'ESPOIR","7051050","2019-03-23 22:00","2019","03","23","22:00","","M","","M","82","","","M","32","","23","","","","99.19","","","","","","NA"
"-64.32","48.42","CAP-D'ESPOIR","7051050","2019-03-23 23:00","2019","03","23","23:00","","M","","M","79","","","M","31","","14","","","","99.25","","","","","","NA"
"-64.32","48.42","CAP-D'ESPOIR","7051050","2019-03-24 00:00","2019","03","24","00:00","","M","","M","82","","","M","30","","10","","","","99.35","","","","","","NA"
"-64.32","48.42","CAP-D'ESPOIR","7051050","2019-03-24 01:00","2019","03","24","01:00","","M","","M","85","","","M","27","","11","","","","99.41","","","","","","NA"
"-64.32","48.42","CAP-D'ESPOIR","7051050","2019-03-24 02:00","2019","03","24","02:00","","M","","M","86","","","M","25","","13","","","","99.43","","","","","","NA"
"-64.32","48.42","CAP-D'ESPOIR","7051050","2019-03-24 03:00","2019","03","24","03:00","","M","","M","86","","","M","27","","10","","","","99.48","","","","","","NA"
"-64.32","48.42","CAP-D'ESPOIR","7051050","2019-03-24 04:00","2019","03","24","04:00","","M","","M","63","","","M","30","","27","","","","99.51","","","","","","NA"
"-64.32","48.42","CAP-D'ESPOIR","7051050","2019-03-24 05:00","2019","03","24","05:00","","M","","M","63","","","M","28","","23","","","","99.69","","","","","","NA"
"-64.32","48.42","CAP-D'ESPOIR","7051050","2019-03-24 06:00","2019","03","24","06:00","","M","","M","66","","","M","26","","19","","","","99.75","","","","","","NA"
"-64.32","48.42","CAP-D'ESPOIR","7051050","2019-03-24 07:00","2019","03","24","07:00","","M","","M","70","","","M","24","","20","","","","99.81","","","","","","NA"
"-64.32","48.42","CAP-D'ESPOIR","7051050","2019-03-24 08:00","2019","03","24","08:00","","M","","M","68","","","M","25","","24","","","","99.84","","","","","","NA"
"-64.32","48.42","CAP-D'ESPOIR","7051050","2019-03-24 09:00","2019","03","24","09:00","","M","","M","71","","","M","23","","23","","","","99.82","","","","","","NA"
"-64.32","48.42","CAP-D'ESPOIR","7051050","2019-03-24 10:00","2019","03","24","10:00","","M","","M","71","","","M","25","","30","","","","99.77","","","","","","NA"
"-64.32","48.42","CAP-D'ESPOIR","7051050","2019-03-24 11:00","2019","03","24","11:00","","M","","M","73","","","M","24","","16","","","","99.78","","","","","","NA"
"-64.32","48.42","CAP-D'ESPOIR","7051050","2019-03-24 12:00","2019","03","24","12:00","","M","","M","66","","","M","26","","24","","","","99.83","","","","","","NA"
"-64.32","48.42","CAP-D'ESPOIR","7051050","2019-03-24 13:00","2019","03","24","13:00","","M","","M","60","","","M","27","","28","","","","99.88","","","","","","NA"
"-64.32","48.42","CAP-D'ESPOIR","7051050","2019-03-24 14:00","2019","03","24","14:00","","M","","M","52","","","M","28","","30","","","","100.00","","","","","","NA"
"-64.32","48.42","CAP-D'ESPOIR","7051050","2019-03-24 15:00","2019","03","24","15:00","","M","","M","51","","","M","28","","30","","","","100.12","","","","","","NA"
"-64.32","48.42","CAP-D'ESPOIR","7051050","2019-03-24 16:00","2019","03","24","16:00","","M","","M","31","","","M","31","","30","","","","100.27","","","","","","NA"
"-64.32","48.42","CAP-D'ESPOIR","7051050","2019-03-24 17:00","2019","03","24","17:00","","M","","M","31","","","M","29","","23","","","","100.41","","","","","","NA"
"-64.32","48.42","CAP-D'ESPOIR","7051050","2019-03-24 18:00","2019","03","24","18:00","","M","","M","38","","","M","30","","12","","","","100.53","","","","","","NA"
"-64.32","48.42","CAP-D'ESPOIR","7051050","2019-03-24 19:00","2019","03","24","19:00","","M","","M","40","","","M","29","","10","","","","100.67","","","","","","NA"
"-64.32","48.42","CAP-D'ESPOIR","7051050","2019-03-24 20:00","2019","03","24","20:00","","M","","M","37","","","M","28","","10","","","","100.78","","","","","","NA"
"-64.32","48.42","CAP-D'ESPOIR","7051050","2019-03-24 21:00","2019","03","24","21:00","","M","","M","45","","","M","28","","11","","","","100.83","","","","","","NA"
"-64.32","48.42","CAP-D'ESPOIR","7051050","2019-03-24 22:00","2019","03","24","22:00","","M","","M","56","","","M","33","","8","","","","100.82","","","","","","NA"
"-64.32","48.42","CAP-D'ESPOIR","7051050","2019-03-24 23:00","2019","03","24","23:00","","M","","M","60","","","M","1","","8","","","","100.87","","","","","","NA"
"-64.32","48.42","CAP-D'ESPOIR","7051050","2019-03-25 00:00","2019","03","25","00:00","","M","","M","63","","","M","1","","13","","","","100.90","","","","","","NA"
"-64.32","48.42","CAP-D'ESPOIR","7051050","2019-03-25 01:00","2019","03","25","01:00","","M","","M","64","","","M","36","","14","","","","100.92","","","","","","NA"
"-64.32","48.42","CAP-D'ESPOIR","7051050","2019-03-25 02:00","2019","03","25","02:00","","M","","M","64","","","M","33","","14","","","","100.92","","","","","","NA"
"-64.32","48.42","CAP-D'ESPOIR","7051050","2019-03-25 03:00","2019","03","25","03:00","","M","","M","56","","","M","36","","7","","","","101.00","","","","","","NA"
"-64.32","48.42","CAP-D'ESPOIR","7051050","2019-03-25 04:00","2019","03","25","04:00","","M","","M","62","","","M","28","","8","","","","101.03","","","","","","NA"
"-64.32","48.42","CAP-D'ESPOIR","7051050","2019-03-25 05:00","2019","03","25","05:00","","M","","M","69","","","M","27","","10","","","","101.02","","","","","","NA"
"-64.32","48.42","CAP-D'ESPOIR","7051050","2019-03-25 06:00","2019","03","25","06:00","","M","","M","62","","","M","28","","11","","","","100.99","","","","","","NA"
"-64.32","48.42","CAP-D'ESPOIR","7051050","2019-03-25 07:00","2019","03","25","07:00","","M","","M","53","","","M","27","","11","","","","100.96","","","","","","NA"
"-64.32","48.42","CAP-D'ESPOIR","7051050","2019-03-25 08:00","2019","03","25","08:00","","M","","M","50","","","M","25","","21","","","","100.90","","","","","","NA"
"-64.32","48.42","CAP-D'ESPOIR","7051050","2019-03-25 09:00","2019","03","25","09:00","","M","","M","49","","","M","24","","27","","","","100.83","","","","","","NA"
"-64.32","48.42","CAP-D'ESPOIR","7051050","2019-03-25 10:00","2019","03","25","10:00","","M","","M","49","","","M","25","","24","","","","100.75","","","","","","NA"
"-64.32","48.42","CAP-D'ESPOIR","7051050","2019-03-25 11:00","2019","03","25","11:00","","M","","M","49","","","M","25","","24","","","","100.68","","","","","","NA"
"-64.32","48.42","CAP-D'ESPOIR","7051050","2019-03-25 12:00","2019","03","25","12:00","","M","","M","51","","","M","25","","24","","","","100.65","","","","","","NA"
"-64.32","48.42","CAP-D'ESPOIR","7051050","2019-03-25 13:00","2019","03","25","13:00","","M","","M","42","","","M","26","","24","","","","100.66","","","","","","NA"
"-64.32","48.42","CAP-D'ESPOIR","7051050","2019-03-25 14:00","2019","03","25","14:00","","M","","M","41","","","M","26","","23","","","","100.71","","","","","","NA"
"-64.32","48.42","CAP-D'ESPOIR","7051050","2019-03-25 15:00","2019","03","25","15:00","","M","","M","40","","","M","26","","25","","","","100.74","","","","","","NA"
"-64.32","48.42","CAP-D'ESPOIR","7051050","2019-03-25 16:00","2019","03","25","16:00","","M","","M","42","","","M","27","","24","","","","100.78","","","","","","NA"
"-64.32","48.42","CAP-D'ESPOIR","7051050","2019-03-25 17:00","2019","03","25","17:00","","M","","M","45","","","M","27","","21","","","","100.90","","","","","","NA"
"-64.32","48.42","CAP-D'ESPOIR","7051050","2019-03-25 18:00","2019","03","25","18:00","","M","","M","49","","","M","27","","22","","","","101.03","","","","","","NA"
"-64.32","48.42","CAP-D'ESPOIR","7051050","2019-03-25 19:00","2019","03","25","19:00","","M","","M","52","","","M","28","","15","","","","101.14","","","","","","NA"
"-64.32","48.42","CAP-D'ESPOIR","7051050","2019-03-25 20:00","2019","03","25","20:00","","M","","M","52","","","M","28","","8","","","","101.23","","","","","","NA"
"-64.32","48.42","CAP-D'ESPOIR","7051050","2019-03-25 21:00","2019","03","25","21:00","","M","","M","54","","","M","26","","13","","","","101.28","","","","","","NA"
"-64.32","48.42","CAP-D'ESPOIR","7051050","2019-03-25 22:00","2019","03","25","22:00","","M","","M","55","","","M","29","","9","","","","101.35","","","","","","NA"
"-64.32","48.42","CAP-D'ESPOIR","7051050","2019-03-25 23:00","2019","03","25","23:00","","M","","M","61","","","M","26","","5","","","","101.35","","","","","","NA"
"-64.32","48.42","CAP-D'ESPOIR","7051050","2019-03-26 00:00","2019","03","26","00:00","","M","","M","66","","","M","24","","7","","","","101.29","","","","","","NA"
"-64.32","48.42","CAP-D'ESPOIR","7051050","2019-03-26 01:00","2019","03","26","01:00","","M","","M","64","","","M","30","","11","","","","101.29","","","","","","NA"
"-64.32","48.42","CAP-D'ESPOIR","7051050","2019-03-26 02:00","2019","03","26","02:00","","M","","M","64","","","M","30","","13","","","","101.24","","","","","","NA"
"-64.32","48.42","CAP-D'ESPOIR","7051050","2019-03-26 03:00","2019","03","26","03:00","","M","","M","64","","","M","30","","13","","","","101.25","","","","","","NA"
"-64.32","48.42","CAP-D'ESPOIR","7051050","2019-03-26 04:00","2019","03","26","04:00","","M","","M","69","","","M","29","","21","","","","101.29","","","","","","NA"
"-64.32","48.42","CAP-D'ESPOIR","7051050","2019-03-26 05:00","2019","03","26","05:00","","M","","M","69","","","M","30","","15","","","","101.37","","","","","","NA"
"-64.32","48.42","CAP-D'ESPOIR","7051050","2019-03-26 06:00","2019","03","26","06:00","","M","","M","72","","","M","26","","8","","","","101.45","","","","","","NA"
"-64.32","48.42","CAP-D'ESPOIR","7051050","2019-03-26 07:00","2019","03","26","07:00","","M","","M","65","","","M","26","","12","","","","101.52","","","","","","NA"
"-64.32","48.42","CAP-D'ESPOIR","7051050","2019-03-26 08:00","2019","03","26","08:00","","M","","M","54","","","M","30","","19","","","","101.52","","","","","","NA"
"-64.32","48.42","CAP-D'ESPOIR","7051050","2019-03-26 09:00","2019","03","26","09:00","","M","","M","37","","","M","28","","22","","","","101.54","","","","","","NA"
"-64.32","48.42","CAP-D'ESPOIR","7051050","2019-03-26 10:00","2019","03","26","10:00","","M","","M","41","","","M","27","","22","","","","101.48","","","","","","NA"
"-64.32","48.42","CAP-D'ESPOIR","7051050","2019-03-26 11:00","2019","03","26","11:00","","M","","M","53","","","M","23","","26","","","","101.43","","","","","","NA"
"-64.32","48.42","CAP-D'ESPOIR","7051050","2019-03-26 12:00","2019","03","26","12:00","","M","","M","47","","","M","24","","32","","","","101.38","","","","","","NA"
"-64.32","48.42","CAP-D'ESPOIR","7051050","2019-03-26 13:00","2019","03","26","13:00","","M","","M","45","","","M","24","","28","","","","101.31","","","","","","NA"
"-64.32","48.42","CAP-D'ESPOIR","7051050","2019-03-26 14:00","2019","03","26","14:00","","M","","M","61","","","M","24","","35","","","","101.28","","","","","","NA"
"-64.32","48.42","CAP-D'ESPOIR","7051050","2019-03-26 15:00","2019","03","26","15:00","","M","","M","41","","","M","27","","15","","","","101.34","","","","","","NA"
"-64.32","48.42","CAP-D'ESPOIR","7051050","2019-03-26 16:00","2019","03","26","16:00","","M","","M","38","","","M","31","","27","","","","101.43","","","","","","NA"
"-64.32","48.42","CAP-D'ESPOIR","7051050","2019-03-26 17:00","2019","03","26","17:00","","M","","M","37","","","M","30","","28","","","","101.61","","","","","","NA"
"-64.32","48.42","CAP-D'ESPOIR","7051050","2019-03-26 18:00","2019","03","26","18:00","","M","","M","44","","","M","27","","18","","","","101.78","","","","","","NA"
"-64.32","48.42","CAP-D'ESPOIR","7051050","2019-03-26 19:00","2019","03","26","19:00","","M","","M","49","","","M","28","","12","","","","101.95","","","","","","NA"
"-64.32","48.42","CAP-D'ESPOIR","7051050","2019-03-26 20:00","2019","03","26","20:00","","M","","M","55","","","M","26","","14","","","","102.03","","","","","","NA"
"-64.32","48.42","CAP-D'ESPOIR","7051050","2019-03-26 21:00","2019","03","26","21:00","","M","","M","57","","","M","27","","15","","","","102.09","","","","","","NA"
"-64.32","48.42","CAP-D'ESPOIR","7051050","2019-03-26 22:00","2019","03","26","22:00","","M","","M","59","","","M","27","","13","","","","102.15","","","","","","NA"
"-64.32","48.42","CAP-D'ESPOIR","7051050","2019-03-26 23:00","2019","03","26","23:00","","M","","M","62","","","M","27","","13","","","","102.20","","","","","","NA"
"-64.32","48.42","CAP-D'ESPOIR","7051050","2019-03-27 00:00","2019","03","27","00:00","","M","","M","68","","","M","27","","10","","","","102.29","","","","","","NA"
"-64.32","48.42","CAP-D'ESPOIR","7051050","2019-03-27 01:00","2019","03","27","01:00","","M","","M","70","","","M","30","","10","","","","102.38","","","","","","NA"
"-64.32","48.42","CAP-D'ESPOIR","7051050","2019-03-27 02:00","2019","03","27","02:00","","M","","M","75","","","M","31","","8","","","","102.45","","","","","","NA"
"-64.32","48.42","CAP-D'ESPOIR","7051050","2019-03-27 03:00","2019","03","27","03:00","","M","","M","73","","","M","31","","6","","","","102.56","","","","","","NA"
"-64.32","48.42","CAP-D'ESPOIR","7051050","2019-03-27 04:00","2019","03","27","04:00","","M","","M","74","","","M","32","","12","","","","102.66","","","","","","NA"
"-64.32","48.42","CAP-D'ESPOIR","7051050","2019-03-27 05:00","2019","03","27","05:00","","M","","M","81","","","M","33","","15","","","","102.73","","","","","","NA"
"-64.32","48.42","CAP-D'ESPOIR","7051050","2019-03-27 06:00","2019","03","27","06:00","","M","","M","78","","","M","31","","6","","","","102.82","","","","","","NA"
"-64.32","48.42","CAP-D'ESPOIR","7051050","2019-03-27 07:00","2019","03","27","07:00","","M","","M","67","","","M","30","","5","","","","102.89","","","","","","NA"
"-64.32","48.42","CAP-D'ESPOIR","7051050","2019-03-27 08:00","2019","03","27","08:00","","M","","M","54","","","M","30","","10","","","","102.92","","","","","","NA"
"-64.32","48.42","CAP-D'ESPOIR","7051050","2019-03-27 09:00","2019","03","27","09:00","","M","","M","58","","","M","21","","7","","","","102.91","","","","","","NA"
"-64.32","48.42","CAP-D'ESPOIR","7051050","2019-03-27 10:00","2019","03","27","10:00","","M","","M","63","","","M","21","","16","","","","102.92","","","","","","NA"
"-64.32","48.42","CAP-D'ESPOIR","7051050","2019-03-27 11:00","2019","03","27","11:00","","M","","M","61","","","M","21","","21","","","","102.91","","","","","","NA"
"-64.32","48.42","CAP-D'ESPOIR","7051050","2019-03-27 12:00","2019","03","27","12:00","","M","","M","63","","","M","21","","28","","","","102.87","","","","","","NA"
"-64.32","48.42","CAP-D'ESPOIR","7051050","2019-03-27 13:00","2019","03","27","13:00","","M","","M","61","","","M","21","","24","","","","102.80","","","","","","NA"
"-64.32","48.42","CAP-D'ESPOIR","7051050","2019-03-27 14:00","2019","03","27","14:00","","M","","M","61","","","M","21","","28","","","","102.76","","","","","","NA"
"-64.32","48.42","CAP-D'ESPOIR","7051050","2019-03-27 15:00","2019","03","27","15:00","","M","","M","62","","","M","22","","28","","","","102.73","","","","","","NA"
"-64.32","48.42","CAP-D'ESPOIR","7051050","2019-03-27 16:00","2019","03","27","16:00","","M","","M","71","","","M","19","","31","","","","102.66","","","","","","NA"
"-64.32","48.42","CAP-D'ESPOIR","7051050","2019-03-27 17:00","2019","03","27","17:00","","M","","M","72","","","M","20","","30","","","","102.67","","","","","","NA"
"-64.32","48.42","CAP-D'ESPOIR","7051050","2019-03-27 18:00","2019","03","27","18:00","","M","","M","70","","","M","20","","30","","","","102.66","","","","","","NA"
"-64.32","48.42","CAP-D'ESPOIR","7051050","2019-03-27 19:00","2019","03","27","19:00","","M","","M","72","","","M","21","","27","","","","102.70","","","","","","NA"
"-64.32","48.42","CAP-D'ESPOIR","7051050","2019-03-27 20:00","2019","03","27","20:00","","M","","M","79","","","M","21","","26","","","","102.71","","","","","","NA"
"-64.32","48.42","CAP-D'ESPOIR","7051050","2019-03-27 21:00","2019","03","27","21:00","","M","","M","82","","","M","23","","20","","","","102.71","","","","","","NA"
"-64.32","48.42","CAP-D'ESPOIR","7051050","2019-03-27 22:00","2019","03","27","22:00","","M","","M","80","","","M","23","","19","","","","102.70","","","","","","NA"
"-64.32","48.42","CAP-D'ESPOIR","7051050","2019-03-27 23:00","2019","03","27","23:00","","M","","M","79","","","M","22","","17","","","","102.66","","","","","","NA"
"-64.32","48.42","CAP-D'ESPOIR","7051050","2019-03-28 00:00","2019","03","28","00:00","","M","","M","81","","","M","23","","21","","","","102.60","","","","","","NA"
"-64.32","48.42","CAP-D'ESPOIR","7051050","2019-03-28 01:00","2019","03","28","01:00","","M","","M","83","","","M","23","","16","","","","102.55","","","","","","NA"
"-64.32","48.42","CAP-D'ESPOIR","7051050","2019-03-28 02:00","2019","03","28","02:00","","M","","M","81","","","M","24","","15","","","","102.49","","","","","","NA"
"-64.32","48.42","CAP-D'ESPOIR","7051050","2019-03-28 03:00","2019","03","28","03:00","","M","","M","85","","","M","24","","10","","","","102.46","","","","","","NA"
"-64.32","48.42","CAP-D'ESPOIR","7051050","2019-03-28 04:00","2019","03","28","04:00","","M","","M","85","","","M","25","","11","","","","102.46","","","","","","NA"
"-64.32","48.42","CAP-D'ESPOIR","7051050","2019-03-28 05:00","2019","03","28","05:00","","M","","M","90","","","M","26","","10","","","","102.46","","","","","","NA"
"-64.32","48.42","CAP-D'ESPOIR","7051050","2019-03-28 06:00","2019","03","28","06:00","","M","","M","86","","","M","26","","11","","","","102.43","","","","","","NA"
"-64.32","48.42","CAP-D'ESPOIR","7051050","2019-03-28 07:00","2019","03","28","07:00","","M","","M","84","","","M","25","","17","","","","102.38","","","","","","NA"
"-64.32","48.42","CAP-D'ESPOIR","7051050","2019-03-28 08:00","2019","03","28","08:00","","M","","M","75","","","M","22","","31","","","","102.28","","","","","","NA"
"-64.32","48.42","CAP-D'ESPOIR","7051050","2019-03-28 09:00","2019","03","28","09:00","","M","","M","73","","","M","22","","33","","","","102.23","","","","","","NA"
"-64.32","48.42","CAP-D'ESPOIR","7051050","2019-03-28 10:00","2019","03","28","10:00","","M","","M","76","","","M","22","","29","","","","102.13","","","","","","NA"
"-64.32","48.42","CAP-D'ESPOIR","7051050","2019-03-28 11:00","2019","03","28","11:00","","M","","M","82","","","M","21","","27","","","","102.02","","","","","","NA"
"-64.32","48.42","CAP-D'ESPOIR","7051050","2019-03-28 12:00","2019","03","28","12:00","","M","","M","81","","","M","20","","44","","","","101.88","","","","","","NA"
"-64.32","48.42","CAP-D'ESPOIR","7051050","2019-03-28 13:00","2019","03","28","13:00","","M","","M","76","","","M","19","","51","","","","101.75","","","","","","NA"
"-64.32","48.42","CAP-D'ESPOIR","7051050","2019-03-28 14:00","2019","03","28","14:00","","M","","M","78","","","M","19","","48","","","","101.62","","","","","","NA"
"-64.32","48.42","CAP-D'ESPOIR","7051050","2019-03-28 15:00","2019","03","28","15:00","","M","","M","78","","","M","19","","51","","","","101.54","","","","","","NA"
"-64.32","48.42","CAP-D'ESPOIR","7051050","2019-03-28 16:00","2019","03","28","16:00","","M","","M","80","","","M","19","","48","","","","101.46","","","","","","NA"
"-64.32","48.42","CAP-D'ESPOIR","7051050","2019-03-28 17:00","2019","03","28","17:00","","M","","M","79","","","M","19","","45","","","","101.43","","","","","","NA"
"-64.32","48.42","CAP-D'ESPOIR","7051050","2019-03-28 18:00","2019","03","28","18:00","","M","","M","82","","","M","20","","39","","","","101.43","","","","","","NA"
"-64.32","48.42","CAP-D'ESPOIR","7051050","2019-03-28 19:00","2019","03","28","19:00","","M","","M","77","","","M","21","","41","","","","101.44","","","","","","NA"
"-64.32","48.42","CAP-D'ESPOIR","7051050","2019-03-28 20:00","2019","03","28","20:00","","M","","M","80","","","M","21","","41","","","","101.45","","","","","","NA"
"-64.32","48.42","CAP-D'ESPOIR","7051050","2019-03-28 21:00","2019","03","28","21:00","","M","","M","83","","","M","21","","44","","","","101.44","","","","","","NA"
"-64.32","48.42","CAP-D'ESPOIR","7051050","2019-03-28 22:00","2019","03","28","22:00","","M","","M","84","","","M","21","","44","","","","101.42","","","","","","NA"
"-64.32","48.42","CAP-D'ESPOIR","7051050","2019-03-28 23:00","2019","03","28","23:00","","M","","M","93","","","M","21","","47","","","","101.40","","","","","","NA"
"-64.32","48.42","CAP-D'ESPOIR","7051050","2019-03-29 00:00","2019","03","29","00:00","","M","","M","97","","","M","22","","41","","","","101.39","","","","","","NA"
"-64.32","48.42","CAP-D'ESPOIR","7051050","2019-03-29 01:00","2019","03","29","01:00","","M","","M","98","","","M","21","","43","","","","101.34","","","","","","NA"
"-64.32","48.42","CAP-D'ESPOIR","7051050","2019-03-29 02:00","2019","03","29","02:00","","M","","M","98","","","M","22","","34","","","","101.32","","","","","","NA"
"-64.32","48.42","CAP-D'ESPOIR","7051050","2019-03-29 03:00","2019","03","29","03:00","","M","","M","99","","","M","22","","30","","","","101.31","","","","","","NA"
"-64.32","48.42","CAP-D'ESPOIR","7051050","2019-03-29 04:00","2019","03","29","04:00","","M","","M","99","","","M","23","","22","","","","101.34","","","","","","NA"
"-64.32","48.42","CAP-D'ESPOIR","7051050","2019-03-29 05:00","2019","03","29","05:00","","M","","M","100","","","M","24","","15","","","","101.36","","","","","","NA"
"-64.32","48.42","CAP-D'ESPOIR","7051050","2019-03-29 06:00","2019","03","29","06:00","","M","","M","100","","","M","23","","11","","","","101.36","","","","","","NA"
"-64.32","48.42","CAP-D'ESPOIR","7051050","2019-03-29 07:00","2019","03","29","07:00","","M","","M","100","","","M","21","","14","","","","101.32","","","","","","NA"
"-64.32","48.42","CAP-D'ESPOIR","7051050","2019-03-29 08:00","2019","03","29","08:00","","M","","M","100","","","M","23","","15","","","","101.33","","","","","","NA"
"-64.32","48.42","CAP-D'ESPOIR","7051050","2019-03-29 09:00","2019","03","29","09:00","","M","","M","99","","","M","22","","18","","","","101.26","","","","","","NA"
"-64.32","48.42","CAP-D'ESPOIR","7051050","2019-03-29 10:00","2019","03","29","10:00","","M","","M","99","","","M","24","","19","","","","101.25","","","","","","NA"
"-64.32","48.42","CAP-D'ESPOIR","7051050","2019-03-29 11:00","2019","03","29","11:00","","M","","M","99","","","M","22","","13","","","","101.20","","","","","","NA"
"-64.32","48.42","CAP-D'ESPOIR","7051050","2019-03-29 12:00","2019","03","29","12:00","","M","","M","99","","","M","22","","12","","","","101.16","","","","","","NA"
"-64.32","48.42","CAP-D'ESPOIR","7051050","2019-03-29 13:00","2019","03","29","13:00","","M","","M","98","","","M","23","","11","","","","101.13","","","","","","NA"
"-64.32","48.42","CAP-D'ESPOIR","7051050","2019-03-29 14:00","2019","03","29","14:00","","M","","M","97","","","M","24","","11","","","","101.13","","","","","","NA"
"-64.32","48.42","CAP-D'ESPOIR","7051050","2019-03-29 15:00","2019","03","29","15:00","","M","","M","95","","","M","22","","10","","","","101.12","","","","","","NA"
"-64.32","48.42","CAP-D'ESPOIR","7051050","2019-03-29 16:00","2019","03","29","16:00","","M","","M","96","","","M","25","","7","","","","101.20","","","","","","NA"
"-64.32","48.42","CAP-D'ESPOIR","7051050","2019-03-29 17:00","2019","03","29","17:00","","M","","M","98","","","M","7","","22","","","","101.24","","","","","","NA"
"-64.32","48.42","CAP-D'ESPOIR","7051050","2019-03-29 18:00","2019","03","29","18:00","","M","","M","96","","","M","6","","21","","","","101.37","","","","","","NA"
"-64.32","48.42","CAP-D'ESPOIR","7051050","2019-03-29 19:00","2019","03","29","19:00","","M","","M","97","","","M","7","","13","","","","101.48","","","","","","NA"
"-64.32","48.42","CAP-D'ESPOIR","7051050","2019-03-29 20:00","2019","03","29","20:00","","M","","M","97","","","M","10","","12","","","","101.54","","","","","","NA"
"-64.32","48.42","CAP-D'ESPOIR","7051050","2019-03-29 21:00","2019","03","29","21:00","","M","","M","97","","","M","7","","6","","","","101.62","","","","","","NA"
"-64.32","48.42","CAP-D'ESPOIR","7051050","2019-03-29 22:00","2019","03","29","22:00","","M","","M","97","","","M","3","","4","","","","101.70","","","","","","NA"
"-64.32","48.42","CAP-D'ESPOIR","7051050","2019-03-29 23:00","2019","03","29","23:00","","M","","M","97","","","M","26","","7","","","","101.77","","","","","","NA"
"-64.32","48.42","CAP-D'ESPOIR","7051050","2019-03-30 00:00","2019","03","30","00:00","","M","","M","84","","","M","31","","11","","","","101.88","","","","","","NA"
"-64.32","48.42","CAP-D'ESPOIR","7051050","2019-03-30 01:00","2019","03","30","01:00","","M","","M","58","","","M","33","","16","","","","101.96","","","","","","NA"
"-64.32","48.42","CAP-D'ESPOIR","7051050","2019-03-30 02:00","2019","03","30","02:00","","M","","M","67","","","M","34","","8","","","","102.06","","","","","","NA"
"-64.32","48.42","CAP-D'ESPOIR","7051050","2019-03-30 03:00","2019","03","30","03:00","","M","","M","60","","","M","36","","16","","","","102.17","","","","","","NA"
"-64.32","48.42","CAP-D'ESPOIR","7051050","2019-03-30 04:00","2019","03","30","04:00","","M","","M","55","","","M","36","","15","","","","102.27","","","","","","NA"
"-64.32","48.42","CAP-D'ESPOIR","7051050","2019-03-30 05:00","2019","03","30","05:00","","M","","M","58","","","M","36","","11","","","","102.39","","","","","","NA"
"-64.32","48.42","CAP-D'ESPOIR","7051050","2019-03-30 06:00","2019","03","30","06:00","","M","","M","60","","","M","36","","8","","","","102.48","","","","","","NA"
"-64.32","48.42","CAP-D'ESPOIR","7051050","2019-03-30 07:00","2019","03","30","07:00","","M","","M","53","","","M","1","","14","","","","102.52","","","","","","NA"
"-64.32","48.42","CAP-D'ESPOIR","7051050","2019-03-30 08:00","2019","03","30","08:00","","M","","M","54","","","M","4","","12","","","","102.52","","","","","","NA"
"-64.32","48.42","CAP-D'ESPOIR","7051050","2019-03-30 09:00","2019","03","30","09:00","","M","","M","60","","","M","6","","17","","","","102.54","","","","","","NA"
"-64.32","48.42","CAP-D'ESPOIR","7051050","2019-03-30 10:00","2019","03","30","10:00","","M","","M","66","","","M","8","","20","","","","102.48","","","","","","NA"
"-64.32","48.42","CAP-D'ESPOIR","7051050","2019-03-30 11:00","2019","03","30","11:00","","M","","M","67","","","M","7","","10","","","","102.50","","","","","","NA"
"-64.32","48.42","CAP-D'ESPOIR","7051050","2019-03-30 12:00","2019","03","30","12:00","","M","","M","69","","","M","12","","10","","","","102.47","","","","","","NA"
"-64.32","48.42","CAP-D'ESPOIR","7051050","2019-03-30 13:00","2019","03","30","13:00","","M","","M","70","","","M","17","","11","","","","102.43","","","","","","NA"
"-64.32","48.42","CAP-D'ESPOIR","7051050","2019-03-30 14:00","2019","03","30","14:00","","M","","M","72","","","M","17","","9","","","","102.38","","","","","","NA"
"-64.32","48.42","CAP-D'ESPOIR","7051050","2019-03-30 15:00","2019","03","30","15:00","","M","","M","71","","","M","16","","9","","","","102.31","","","","","","NA"
"-64.32","48.42","CAP-D'ESPOIR","7051050","2019-03-30 16:00","2019","03","30","16:00","","M","","M","78","","","M","15","","12","","","","102.23","","","","","","NA"
"-64.32","48.42","CAP-D'ESPOIR","7051050","2019-03-30 17:00","2019","03","30","17:00","","M","","M","76","","","M","14","","11","","","","102.20","","","","","","NA"
"-64.32","48.42","CAP-D'ESPOIR","7051050","2019-03-30 18:00","2019","03","30","18:00","","M","","M","84","","","M","13","","12","","","","102.13","","","","","","NA"
"-64.32","48.42","CAP-D'ESPOIR","7051050","2019-03-30 19:00","2019","03","30","19:00","","M","","M","92","","","M","10","","12","","","","102.09","","","","","","NA"
"-64.32","48.42","CAP-D'ESPOIR","7051050","2019-03-30 20:00","2019","03","30","20:00","","M","","M","93","","","M","9","","17","","","","102.03","","","","","","NA"
"-64.32","48.42","CAP-D'ESPOIR","7051050","2019-03-30 21:00","2019","03","30","21:00","","M","","M","95","","","M","10","","16","","","","101.94","","","","","","NA"
"-64.32","48.42","CAP-D'ESPOIR","7051050","2019-03-30 22:00","2019","03","30","22:00","","M","","M","95","","","M","8","","11","","","","101.82","","","","","","NA"
"-64.32","48.42","CAP-D'ESPOIR","7051050","2019-03-30 23:00","2019","03","30","23:00","","M","","M","95","","","M","9","","13","","","","101.65","","","","","","NA"
"-64.32","48.42","CAP-D'ESPOIR","7051050","2019-03-31 00:00","2019","03","31","00:00","","M","","M","96","","","M","7","","6","","","","101.57","","","","","","NA"
"-64.32","48.42","CAP-D'ESPOIR","7051050","2019-03-31 01:00","2019","03","31","01:00","","M","","M","98","","","M","2","","4","","","","101.39","","","","","","NA"
"-64.32","48.42","CAP-D'ESPOIR","7051050","2019-03-31 02:00","2019","03","31","02:00","","M","","M","99","","","M","1","","1","","","","101.29","","","","","","NA"
"-64.32","48.42","CAP-D'ESPOIR","7051050","2019-03-31 03:00","2019","03","31","03:00","","M","","M","99","","","M","","","0","","","","101.19","","","","","","NA"
"-64.32","48.42","CAP-D'ESPOIR","7051050","2019-03-31 04:00","2019","03","31","04:00","","M","","M","99","","","M","","","0","","","","101.12","","","","","","NA"
"-64.32","48.42","CAP-D'ESPOIR","7051050","2019-03-31 05:00","2019","03","31","05:00","","M","","M","100","","","M","5","","1","","","","101.08","","","","","","NA"
"-64.32","48.42","CAP-D'ESPOIR","7051050","2019-03-31 06:00","2019","03","31","06:00","","M","","M","100","","","M","7","","2","","","","101.05","","","","","","NA"
"-64.32","48.42","CAP-D'ESPOIR","7051050","2019-03-31 07:00","2019","03","31","07:00","","M","","M","100","","","M","","","0","","","","101.03","","","","","","NA"
"-64.32","48.42","CAP-D'ESPOIR","7051050","2019-03-31 08:00","2019","03","31","08:00","","M","","M","100","","","M","20","","7","","","","100.96","","","","","","NA"
"-64.32","48.42","CAP-D'ESPOIR","7051050","2019-03-31 09:00","2019","03","31","09:00","","M","","M","100","","","M","21","","24","","","","100.91","","","","","","NA"
"-64.32","48.42","CAP-D'ESPOIR","7051050","2019-03-31 10:00","2019","03","31","10:00","","M","","M","100","","","M","23","","25","","","","100.87","","","","","","NA"
"-64.32","48.42","CAP-D'ESPOIR","7051050","2019-03-31 11:00","2019","03","31","11:00","","M","","M","100","","","M","23","","27","","","","100.80","","","","","","NA"
"-64.32","48.42","CAP-D'ESPOIR","7051050","2019-03-31 12:00","2019","03","31","12:00","","M","","M","100","","","M","22","","28","","","","100.69","","","","","","NA"
"-64.32","48.42","CAP-D'ESPOIR","7051050","2019-03-31 13:00","2019","03","31","13:00","","M","","M","99","","","M","25","","23","","","","100.60","","","","","","NA"
"-64.32","48.42","CAP-D'ESPOIR","7051050","2019-03-31 14:00","2019","03","31","14:00","","M","","M","98","","","M","20","","32","","","","100.44","","","","","","NA"
"-64.32","48.42","CAP-D'ESPOIR","7051050","2019-03-31 15:00","2019","03","31","15:00","","M","","M","98","","","M","24","","20","","","","100.34","","","","","","NA"
"-64.32","48.42","CAP-D'ESPOIR","7051050","2019-03-31 16:00","2019","03","31","16:00","","M","","M","97","","","M","21","","26","","","","100.23","","","","","","NA"
"-64.32","48.42","CAP-D'ESPOIR","7051050","2019-03-31 17:00","2019","03","31","17:00","","M","","M","94","","","M","18","","38","","","","100.09","","","","","","NA"
"-64.32","48.42","CAP-D'ESPOIR","7051050","2019-03-31 18:00","2019","03","31","18:00","","M","","M","92","","","M","19","","30","","","","100.08","","","","","","NA"
"-64.32","48.42","CAP-D'ESPOIR","7051050","2019-03-31 19:00","2019","03","31","19:00","","M","","M","89","","","M","20","","34","","","","100.06","","","","","","NA"
"-64.32","48.42","CAP-D'ESPOIR","7051050","2019-03-31 20:00","2019","03","31","20:00","","M","","M","92","","","M","21","","26","","","","99.99","","","","","","NA"
"-64.32","48.42","CAP-D'ESPOIR","7051050","2019-03-31 21:00","2019","03","31","21:00","","M","","M","93","","","M","21","","21","","","","99.91","","","","","","NA"
"-64.32","48.42","CAP-D'ESPOIR","7051050","2019-03-31 22:00","2019","03","31","22:00","","M","","M","96","","","M","19","","29","","","","99.77","","","","","","NA"
"-64.32","48.42","CAP-D'ESPOIR","7051050","2019-03-31 23:00","2019","03","31","23:00","","M","","M","98","","","M","17","","48","","","","99.59","","","","","","NA"
