"Longitude (x)","Latitude (y)","Station Name","Climate ID","Date/Time (LST)","Year","Month","Day","Time (LST)","Temp (°C)","Temp Flag","Dew Point Temp (°C)","Dew Point Temp Flag","Rel Hum (%)","Rel Hum Flag","Precip. Amount (mm)","Precip. Amount Flag","Wind Dir (10s deg)","Wind Dir Flag","Wind Spd (km/h)","Wind Spd Flag","Visibility (km)","Visibility Flag","Stn Press (kPa)","Stn Press Flag","Hmdx","Hmdx Flag","Wind Chill","Wind Chill Flag","Weather"
"-98.90","49.19","PILOT MOUND (AUT)","5022125","2019-04-01 00:00","2019","04","01","00:00","-0.9","","-2.5","","89","","","M","24","","11","","","","96.57","","","","-5","","NA"
"-98.90","49.19","PILOT MOUND (AUT)","5022125","2019-04-01 01:00","2019","04","01","01:00","-0.8","","-2.4","","89","","","M","23","","10","","","","96.55","","","","-4","","NA"
"-98.90","49.19","PILOT MOUND (AUT)","5022125","2019-04-01 02:00","2019","04","01","02:00","-0.9","","-3.3","","83","","","M","25","","9","","","","96.49","","","","-4","","NA"
"-98.90","49.19","PILOT MOUND (AUT)","5022125","2019-04-01 03:00","2019","04","01","03:00","-1.3","","-3.5","","85","","","M","25","","7","","","","96.43","","","","-4","","NA"
"-98.90","49.19","PILOT MOUND (AUT)","5022125","2019-04-01 04:00","2019","04","01","04:00","-1.3","","-3.3","","87","","","M","22","","10","","","","96.39","","","","-5","","NA"
"-98.90","49.19","PILOT MOUND (AUT)","5022125","2019-04-01 05:00","2019","04","01","05:00","-1.9","","-3.9","","86","","","M","27","","7","","","","96.36","","","","-5","","NA"
"-98.90","49.19","PILOT MOUND (AUT)","5022125","2019-04-01 06:00","2019","04","01","06:00","-1.6","","-4.0","","84","","","M","24","","8","","","","96.29","","","","-5","","NA"
"-98.90","49.19","PILOT MOUND (AUT)","5022125","2019-04-01 07:00","2019","04","01","07:00","-1.5","","-4.0","","83","","","M","23","","13","","","","96.24","","","","-6","","NA"
"-98.90","49.19","PILOT MOUND (AUT)","5022125","2019-04-01 08:00","2019","04","01","08:00","-0.4","","-3.7","","79","","","M","24","","16","","","","96.18","","","","-5","","NA"
"-98.90","49.19","PILOT MOUND (AUT)","5022125","2019-04-01 09:00","2019","04","01","09:00","1.0","","-4.4","","67","","","M","25","","18","","","","96.11","","","","","","NA"
"-98.90","49.19","PILOT MOUND (AUT)","5022125","2019-04-01 10:00","2019","04","01","10:00","2.1","","-4.1","","64","","","M","26","","24","","","","96.05","","","","","","NA"
"-98.90","49.19","PILOT MOUND (AUT)","5022125","2019-04-01 11:00","2019","04","01","11:00","3.0","","-3.5","","62","","","M","26","","28","","","","95.97","","","","","","NA"
"-98.90","49.19","PILOT MOUND (AUT)","5022125","2019-04-01 12:00","2019","04","01","12:00","3.7","","-3.2","","61","","","M","27","","24","","","","95.87","","","","","","NA"
"-98.90","49.19","PILOT MOUND (AUT)","5022125","2019-04-01 13:00","2019","04","01","13:00","4.0","","-3.0","","60","","","M","27","","33","","","","95.78","","","","","","NA"
"-98.90","49.19","PILOT MOUND (AUT)","5022125","2019-04-01 14:00","2019","04","01","14:00","4.4","","-3.1","","58","","","M","27","","31","","","","95.69","","","","","","NA"
"-98.90","49.19","PILOT MOUND (AUT)","5022125","2019-04-01 15:00","2019","04","01","15:00","5.5","","-2.6","","56","","","M","27","","31","","","","95.60","","","","","","NA"
"-98.90","49.19","PILOT MOUND (AUT)","5022125","2019-04-01 16:00","2019","04","01","16:00","5.7","","-1.9","","58","","","M","28","","26","","","","95.55","","","","","","NA"
"-98.90","49.19","PILOT MOUND (AUT)","5022125","2019-04-01 17:00","2019","04","01","17:00","4.3","","-0.9","","69","","","M","29","","29","","","","95.54","","","","","","NA"
"-98.90","49.19","PILOT MOUND (AUT)","5022125","2019-04-01 18:00","2019","04","01","18:00","3.9","","-0.4","","74","","","M","26","","18","","","","95.50","","","","","","NA"
"-98.90","49.19","PILOT MOUND (AUT)","5022125","2019-04-01 19:00","2019","04","01","19:00","2.9","","-1.4","","73","","","M","30","","19","","","","95.50","","","","","","NA"
"-98.90","49.19","PILOT MOUND (AUT)","5022125","2019-04-01 20:00","2019","04","01","20:00","0.5","","-1.7","","85","","","M","27","","10","","","","95.49","","","","","","NA"
"-98.90","49.19","PILOT MOUND (AUT)","5022125","2019-04-01 21:00","2019","04","01","21:00","-0.3","","-2.1","","87","","","M","20","","14","","","","95.45","","","","-5","","NA"
"-98.90","49.19","PILOT MOUND (AUT)","5022125","2019-04-01 22:00","2019","04","01","22:00","0.3","","-1.4","","89","","","M","23","","16","","","","95.40","","","","","","NA"
"-98.90","49.19","PILOT MOUND (AUT)","5022125","2019-04-01 23:00","2019","04","01","23:00","1.2","","-1.9","","80","","","M","24","","22","","","","95.31","","","","","","NA"
"-98.90","49.19","PILOT MOUND (AUT)","5022125","2019-04-02 00:00","2019","04","02","00:00","2.0","","-1.8","","76","","","M","26","","25","","","","95.29","","","","","","NA"
"-98.90","49.19","PILOT MOUND (AUT)","5022125","2019-04-02 01:00","2019","04","02","01:00","1.7","","-1.5","","79","","","M","27","","24","","","","95.23","","","","","","NA"
"-98.90","49.19","PILOT MOUND (AUT)","5022125","2019-04-02 02:00","2019","04","02","02:00","1.0","","-1.5","","83","","","M","27","","22","","","","95.21","","","","","","NA"
"-98.90","49.19","PILOT MOUND (AUT)","5022125","2019-04-02 03:00","2019","04","02","03:00","1.3","","-1.3","","83","","","M","28","","22","","","","95.19","","","","","","NA"
"-98.90","49.19","PILOT MOUND (AUT)","5022125","2019-04-02 04:00","2019","04","02","04:00","0.4","","-2.9","","79","","","M","30","","29","","","","95.22","","","","","","NA"
"-98.90","49.19","PILOT MOUND (AUT)","5022125","2019-04-02 05:00","2019","04","02","05:00","-0.3","","-3.1","","82","","","M","29","","28","","","","95.23","","","","-7","","NA"
"-98.90","49.19","PILOT MOUND (AUT)","5022125","2019-04-02 06:00","2019","04","02","06:00","-0.6","","-3.3","","82","","","M","30","","27","","","","95.27","","","","-7","","NA"
"-98.90","49.19","PILOT MOUND (AUT)","5022125","2019-04-02 07:00","2019","04","02","07:00","-0.9","","-3.9","","80","","","M","29","","27","","","","95.28","","","","-7","","NA"
"-98.90","49.19","PILOT MOUND (AUT)","5022125","2019-04-02 08:00","2019","04","02","08:00","-0.7","","-6.4","","65","","","M","30","","38","","","","95.32","","","","-8","","NA"
"-98.90","49.19","PILOT MOUND (AUT)","5022125","2019-04-02 09:00","2019","04","02","09:00","-1.0","","-6.9","","64","","","M","31","","33","","","","95.36","","","","-8","","NA"
"-98.90","49.19","PILOT MOUND (AUT)","5022125","2019-04-02 10:00","2019","04","02","10:00","-2.1","","-5.5","","77","","","M","29","","33","","","","95.39","","","","-10","","NA"
"-98.90","49.19","PILOT MOUND (AUT)","5022125","2019-04-02 11:00","2019","04","02","11:00","-1.2","","-10.8","","48","","","M","30","","47","","","","95.44","","","","-10","","NA"
"-98.90","49.19","PILOT MOUND (AUT)","5022125","2019-04-02 12:00","2019","04","02","12:00","-1.4","","-9.7","","53","","","M","30","","45","","","","95.50","","","","-10","","NA"
"-98.90","49.19","PILOT MOUND (AUT)","5022125","2019-04-02 13:00","2019","04","02","13:00","-1.4","","-7.7","","62","","","M","29","","43","","","","95.51","","","","-10","","NA"
"-98.90","49.19","PILOT MOUND (AUT)","5022125","2019-04-02 14:00","2019","04","02","14:00","0.0","","-8.5","","53","","","M","29","","42","","","","95.48","","","","-8","","NA"
"-98.90","49.19","PILOT MOUND (AUT)","5022125","2019-04-02 15:00","2019","04","02","15:00","-0.7","","-11.2","","45","","","M","30","","40","","","","95.52","","","","-8","","NA"
"-98.90","49.19","PILOT MOUND (AUT)","5022125","2019-04-02 16:00","2019","04","02","16:00","-0.7","","-8.8","","54","","","M","31","","32","","","","95.55","","","","-8","","NA"
"-98.90","49.19","PILOT MOUND (AUT)","5022125","2019-04-02 17:00","2019","04","02","17:00","-0.4","","-10.1","","48","","","M","30","","38","","","","95.55","","","","-8","","NA"
"-98.90","49.19","PILOT MOUND (AUT)","5022125","2019-04-02 18:00","2019","04","02","18:00","-0.2","","-9.5","","50","","","M","31","","20","","","","95.58","","","","-5","","NA"
"-98.90","49.19","PILOT MOUND (AUT)","5022125","2019-04-02 19:00","2019","04","02","19:00","-1.7","","-8.7","","59","","","M","33","","13","","","","95.58","","","","-6","","NA"
"-98.90","49.19","PILOT MOUND (AUT)","5022125","2019-04-02 20:00","2019","04","02","20:00","-1.9","","-8.3","","62","","","M","32","","15","","","","95.67","","","","-7","","NA"
"-98.90","49.19","PILOT MOUND (AUT)","5022125","2019-04-02 21:00","2019","04","02","21:00","-2.6","","-8.0","","67","","","M","32","","23","","","","95.77","","","","-9","","NA"
"-98.90","49.19","PILOT MOUND (AUT)","5022125","2019-04-02 22:00","2019","04","02","22:00","-2.8","","-8.1","","67","","","M","30","","17","","","","95.80","","","","-8","","NA"
"-98.90","49.19","PILOT MOUND (AUT)","5022125","2019-04-02 23:00","2019","04","02","23:00","-3.9","","-7.5","","76","","","M","27","","14","","","","95.85","","","","-9","","NA"
"-98.90","49.19","PILOT MOUND (AUT)","5022125","2019-04-03 00:00","2019","04","03","00:00","-4.2","","-7.9","","75","","","M","27","","15","","","","95.92","","","","-10","","NA"
"-98.90","49.19","PILOT MOUND (AUT)","5022125","2019-04-03 01:00","2019","04","03","01:00","-3.7","","-8.1","","72","","","M","29","","19","","","","95.97","","","","-10","","NA"
"-98.90","49.19","PILOT MOUND (AUT)","5022125","2019-04-03 02:00","2019","04","03","02:00","-4.7","","-7.8","","79","","","M","27","","15","","","","96.05","","","","-10","","NA"
"-98.90","49.19","PILOT MOUND (AUT)","5022125","2019-04-03 03:00","2019","04","03","03:00","-4.6","","-7.7","","79","","","M","27","","14","","","","96.10","","","","-10","","NA"
"-98.90","49.19","PILOT MOUND (AUT)","5022125","2019-04-03 04:00","2019","04","03","04:00","-5.1","","-7.9","","81","","","M","29","","15","","","","96.16","","","","-11","","NA"
"-98.90","49.19","PILOT MOUND (AUT)","5022125","2019-04-03 05:00","2019","04","03","05:00","-5.5","","-8.1","","82","","","M","29","","15","","","","96.24","","","","-11","","NA"
"-98.90","49.19","PILOT MOUND (AUT)","5022125","2019-04-03 06:00","2019","04","03","06:00","-5.8","","-8.3","","83","","","M","29","","15","","","","96.32","","","","-12","","NA"
"-98.90","49.19","PILOT MOUND (AUT)","5022125","2019-04-03 07:00","2019","04","03","07:00","-5.7","","-8.2","","83","","","M","30","","13","","","","96.38","","","","-11","","NA"
"-98.90","49.19","PILOT MOUND (AUT)","5022125","2019-04-03 08:00","2019","04","03","08:00","-4.6","","-8.6","","73","","","M","32","","11","","","","96.43","","","","-9","","NA"
"-98.90","49.19","PILOT MOUND (AUT)","5022125","2019-04-03 09:00","2019","04","03","09:00","-3.4","","-8.9","","65","","","M","30","","14","","","","96.53","","","","-8","","NA"
"-98.90","49.19","PILOT MOUND (AUT)","5022125","2019-04-03 10:00","2019","04","03","10:00","-2.2","","-9.7","","57","","","M","29","","14","","","","96.61","","","","-7","","NA"
"-98.90","49.19","PILOT MOUND (AUT)","5022125","2019-04-03 11:00","2019","04","03","11:00","-1.6","","-10.8","","50","","","M","29","","13","","","","96.66","","","","-6","","NA"
"-98.90","49.19","PILOT MOUND (AUT)","5022125","2019-04-03 12:00","2019","04","03","12:00","-0.7","","-10.7","","47","","","M","28","","9","","","","96.68","","","","-4","","NA"
"-98.90","49.19","PILOT MOUND (AUT)","5022125","2019-04-03 13:00","2019","04","03","13:00","1.0","","-8.3","","50","","","M","27","","9","","","","96.69","","","","","","NA"
"-98.90","49.19","PILOT MOUND (AUT)","5022125","2019-04-03 14:00","2019","04","03","14:00","1.3","","-10.6","","41","","","M","26","","7","","","","96.70","","","","","","NA"
"-98.90","49.19","PILOT MOUND (AUT)","5022125","2019-04-03 15:00","2019","04","03","15:00","2.5","","-11.7","","34","","","M","19","","4","","","","96.68","","","","","","NA"
"-98.90","49.19","PILOT MOUND (AUT)","5022125","2019-04-03 16:00","2019","04","03","16:00","2.2","","-10.5","","38","","","M","13","","10","","","","96.68","","","","","","NA"
"-98.90","49.19","PILOT MOUND (AUT)","5022125","2019-04-03 17:00","2019","04","03","17:00","2.4","","-8.6","","44","","","M","15","","11","","","","96.67","","","","","","NA"
"-98.90","49.19","PILOT MOUND (AUT)","5022125","2019-04-03 18:00","2019","04","03","18:00","1.1","","-6.7","","56","","","M","15","","17","","","","96.67","","","","","","NA"
"-98.90","49.19","PILOT MOUND (AUT)","5022125","2019-04-03 19:00","2019","04","03","19:00","-1.2","","-5.1","","75","","","M","12","","12","","","","96.67","","","","-5","","NA"
"-98.90","49.19","PILOT MOUND (AUT)","5022125","2019-04-03 20:00","2019","04","03","20:00","-1.5","","-5.3","","75","","","M","15","","16","","","","96.70","","","","-6","","NA"
"-98.90","49.19","PILOT MOUND (AUT)","5022125","2019-04-03 21:00","2019","04","03","21:00","-2.4","","-4.9","","83","","","M","14","","14","","","","96.72","","","","-7","","NA"
"-98.90","49.19","PILOT MOUND (AUT)","5022125","2019-04-03 22:00","2019","04","03","22:00","-2.6","","-5.6","","80","","","M","13","","18","","","","96.71","","","","-8","","NA"
"-98.90","49.19","PILOT MOUND (AUT)","5022125","2019-04-03 23:00","2019","04","03","23:00","-1.9","","-6.3","","72","","","M","15","","22","","","","96.71","","","","-8","","NA"
"-98.90","49.19","PILOT MOUND (AUT)","5022125","2019-04-04 00:00","2019","04","04","00:00","-1.9","","-5.7","","75","","","M","15","","22","","","","96.70","","","","-8","","NA"
"-98.90","49.19","PILOT MOUND (AUT)","5022125","2019-04-04 01:00","2019","04","04","01:00","-2.1","","-5.3","","79","","","M","15","","24","","","","96.64","","","","-8","","NA"
"-98.90","49.19","PILOT MOUND (AUT)","5022125","2019-04-04 02:00","2019","04","04","02:00","-2.2","","-6.5","","72","","","M","15","","25","","","","96.57","","","","-9","","NA"
"-98.90","49.19","PILOT MOUND (AUT)","5022125","2019-04-04 03:00","2019","04","04","03:00","-2.4","","-7.9","","66","","","M","15","","29","","","","96.51","","","","-9","","NA"
"-98.90","49.19","PILOT MOUND (AUT)","5022125","2019-04-04 04:00","2019","04","04","04:00","-2.5","","-7.5","","69","","","M","15","","31","","","","96.46","","","","-10","","NA"
"-98.90","49.19","PILOT MOUND (AUT)","5022125","2019-04-04 05:00","2019","04","04","05:00","-2.2","","-7.2","","69","","","M","14","","35","","","","96.38","","","","-10","","NA"
"-98.90","49.19","PILOT MOUND (AUT)","5022125","2019-04-04 06:00","2019","04","04","06:00","-2.2","","-7.1","","69","","","M","15","","32","","","","96.33","","","","-10","","NA"
"-98.90","49.19","PILOT MOUND (AUT)","5022125","2019-04-04 07:00","2019","04","04","07:00","-1.6","","-6.1","","72","","","M","15","","33","","","","96.27","","","","-9","","NA"
"-98.90","49.19","PILOT MOUND (AUT)","5022125","2019-04-04 08:00","2019","04","04","08:00","-0.9","","-5.6","","70","","","M","15","","35","","","","96.21","","","","-8","","NA"
"-98.90","49.19","PILOT MOUND (AUT)","5022125","2019-04-04 09:00","2019","04","04","09:00","0.4","","-4.3","","71","","","M","16","","39","","","","96.11","","","","","","NA"
"-98.90","49.19","PILOT MOUND (AUT)","5022125","2019-04-04 10:00","2019","04","04","10:00","0.7","","-2.3","","80","","","M","16","","41","","","","96.05","","","","","","NA"
"-98.90","49.19","PILOT MOUND (AUT)","5022125","2019-04-04 11:00","2019","04","04","11:00","0.7","","-1.2","","87","","","M","16","","39","","","","95.98","","","","","","NA"
"-98.90","49.19","PILOT MOUND (AUT)","5022125","2019-04-04 12:00","2019","04","04","12:00","0.9","","-0.7","","89","","","M","16","","42","","","","95.86","","","","","","NA"
"-98.90","49.19","PILOT MOUND (AUT)","5022125","2019-04-04 13:00","2019","04","04","13:00","1.4","","-0.2","","89","","","M","17","","42","","","","95.80","","","","","","NA"
"-98.90","49.19","PILOT MOUND (AUT)","5022125","2019-04-04 14:00","2019","04","04","14:00","2.1","","0.4","","89","","","M","17","","45","","","","95.66","","","","","","NA"
"-98.90","49.19","PILOT MOUND (AUT)","5022125","2019-04-04 15:00","2019","04","04","15:00","2.6","","0.9","","89","","","M","18","","38","","","","95.64","","","","","","NA"
"-98.90","49.19","PILOT MOUND (AUT)","5022125","2019-04-04 16:00","2019","04","04","16:00","3.0","","1.2","","88","","","M","18","","36","","","","95.58","","","","","","NA"
"-98.90","49.19","PILOT MOUND (AUT)","5022125","2019-04-04 17:00","2019","04","04","17:00","3.8","","1.6","","85","","","M","17","","35","","","","95.54","","","","","","NA"
"-98.90","49.19","PILOT MOUND (AUT)","5022125","2019-04-04 18:00","2019","04","04","18:00","3.5","","1.5","","87","","","M","17","","32","","","","95.51","","","","","","NA"
"-98.90","49.19","PILOT MOUND (AUT)","5022125","2019-04-04 19:00","2019","04","04","19:00","2.4","","1.0","","90","","","M","17","","26","","","","95.48","","","","","","NA"
"-98.90","49.19","PILOT MOUND (AUT)","5022125","2019-04-04 20:00","2019","04","04","20:00","2.1","","1.0","","93","","","M","18","","27","","","","95.48","","","","","","NA"
"-98.90","49.19","PILOT MOUND (AUT)","5022125","2019-04-04 21:00","2019","04","04","21:00","2.5","","1.3","","92","","","M","17","","29","","","","95.45","","","","","","NA"
"-98.90","49.19","PILOT MOUND (AUT)","5022125","2019-04-04 22:00","2019","04","04","22:00","3.4","","1.9","","90","","","M","5","","8","","","","95.59","","","","","","NA"
"-98.90","49.19","PILOT MOUND (AUT)","5022125","2019-04-04 23:00","2019","04","04","23:00","2.6","","1.4","","92","","","M","13","","13","","","","95.55","","","","","","NA"
"-98.90","49.19","PILOT MOUND (AUT)","5022125","2019-04-05 00:00","2019","04","05","00:00","2.1","","1.1","","93","","","M","9","","10","","","","95.58","","","","","","NA"
"-98.90","49.19","PILOT MOUND (AUT)","5022125","2019-04-05 01:00","2019","04","05","01:00","1.7","","0.8","","94","","","M","14","","14","","","","95.59","","","","","","NA"
"-98.90","49.19","PILOT MOUND (AUT)","5022125","2019-04-05 02:00","2019","04","05","02:00","1.7","","0.9","","94","","","M","6","","5","","","","95.63","","","","","","NA"
"-98.90","49.19","PILOT MOUND (AUT)","5022125","2019-04-05 03:00","2019","04","05","03:00","1.5","","0.7","","95","","","M","3","","7","","","","95.65","","","","","","NA"
"-98.90","49.19","PILOT MOUND (AUT)","5022125","2019-04-05 04:00","2019","04","05","04:00","1.8","","1.1","","95","","","M","36","","14","","","","95.70","","","","","","NA"
"-98.90","49.19","PILOT MOUND (AUT)","5022125","2019-04-05 05:00","2019","04","05","05:00","1.0","","0.4","","96","","","M","1","","18","","","","95.75","","","","","","NA"
"-98.90","49.19","PILOT MOUND (AUT)","5022125","2019-04-05 06:00","2019","04","05","06:00","0.3","","-0.3","","96","","","M","1","","22","","","","95.82","","","","","","NA"
"-98.90","49.19","PILOT MOUND (AUT)","5022125","2019-04-05 07:00","2019","04","05","07:00","0.0","","-0.5","","96","","","M","2","","19","","","","95.88","","","","-5","","NA"
"-98.90","49.19","PILOT MOUND (AUT)","5022125","2019-04-05 08:00","2019","04","05","08:00","0.1","","-0.4","","96","","","M","2","","20","","","","95.93","","","","","","NA"
"-98.90","49.19","PILOT MOUND (AUT)","5022125","2019-04-05 09:00","2019","04","05","09:00","0.0","","-0.5","","96","","","M","2","","20","","","","95.96","","","","-5","","NA"
"-98.90","49.19","PILOT MOUND (AUT)","5022125","2019-04-05 10:00","2019","04","05","10:00","-0.1","","-0.6","","96","","","M","2","","18","","","","96.01","","","","-5","","NA"
"-98.90","49.19","PILOT MOUND (AUT)","5022125","2019-04-05 11:00","2019","04","05","11:00","-0.3","","-0.9","","96","","","M","1","","19","","","","96.07","","","","-5","","NA"
"-98.90","49.19","PILOT MOUND (AUT)","5022125","2019-04-05 12:00","2019","04","05","12:00","-0.2","","-2.0","","88","","","M","1","","19","","","","96.13","","","","-5","","NA"
"-98.90","49.19","PILOT MOUND (AUT)","5022125","2019-04-05 13:00","2019","04","05","13:00","-0.2","","-2.7","","83","","","M","2","","19","","","","96.12","","","","-5","","NA"
"-98.90","49.19","PILOT MOUND (AUT)","5022125","2019-04-05 14:00","2019","04","05","14:00","0.6","","-2.4","","80","","","M","2","","18","","","","96.09","","","","","","NA"
"-98.90","49.19","PILOT MOUND (AUT)","5022125","2019-04-05 15:00","2019","04","05","15:00","0.7","","-2.2","","81","","","M","2","","16","","","","96.08","","","","","","NA"
"-98.90","49.19","PILOT MOUND (AUT)","5022125","2019-04-05 16:00","2019","04","05","16:00","0.7","","-2.4","","80","","","M","2","","15","","","","96.10","","","","","","NA"
"-98.90","49.19","PILOT MOUND (AUT)","5022125","2019-04-05 17:00","2019","04","05","17:00","0.5","","-2.4","","81","","","M","2","","14","","","","96.13","","","","","","NA"
"-98.90","49.19","PILOT MOUND (AUT)","5022125","2019-04-05 18:00","2019","04","05","18:00","0.2","","-2.2","","84","","","M","3","","11","","","","96.14","","","","","","NA"
"-98.90","49.19","PILOT MOUND (AUT)","5022125","2019-04-05 19:00","2019","04","05","19:00","-0.3","","-2.2","","87","","","M","5","","11","","","","96.15","","","","-4","","NA"
"-98.90","49.19","PILOT MOUND (AUT)","5022125","2019-04-05 20:00","2019","04","05","20:00","-0.8","","-2.8","","86","","","M","3","","12","","","","96.18","","","","-5","","NA"
"-98.90","49.19","PILOT MOUND (AUT)","5022125","2019-04-05 21:00","2019","04","05","21:00","-0.9","","-3.2","","84","","","M","6","","9","","","","96.22","","","","-4","","NA"
"-98.90","49.19","PILOT MOUND (AUT)","5022125","2019-04-05 22:00","2019","04","05","22:00","-0.9","","-3.1","","85","","","M","6","","10","","","","96.22","","","","-4","","NA"
"-98.90","49.19","PILOT MOUND (AUT)","5022125","2019-04-05 23:00","2019","04","05","23:00","-0.9","","-3.1","","85","","","M","6","","13","","","","96.20","","","","-5","","NA"
"-98.90","49.19","PILOT MOUND (AUT)","5022125","2019-04-06 00:00","2019","04","06","00:00","-1.1","","-3.0","","87","","","M","6","","12","","","","96.17","","","","-5","","NA"
"-98.90","49.19","PILOT MOUND (AUT)","5022125","2019-04-06 01:00","2019","04","06","01:00","-1.3","","-3.1","","87","","","M","7","","17","","","","96.15","","","","-6","","NA"
"-98.90","49.19","PILOT MOUND (AUT)","5022125","2019-04-06 02:00","2019","04","06","02:00","-1.3","","-2.8","","90","","","M","7","","17","","","","96.15","","","","-6","","NA"
"-98.90","49.19","PILOT MOUND (AUT)","5022125","2019-04-06 03:00","2019","04","06","03:00","-1.5","","-2.3","","94","","","M","10","","16","","","","96.14","","","","-6","","NA"
"-98.90","49.19","PILOT MOUND (AUT)","5022125","2019-04-06 04:00","2019","04","06","04:00","-1.5","","-2.1","","95","","","M","8","","18","","","","96.12","","","","-7","","NA"
"-98.90","49.19","PILOT MOUND (AUT)","5022125","2019-04-06 05:00","2019","04","06","05:00","-1.7","","-2.3","","96","","","M","7","","20","","","","96.12","","","","-7","","NA"
"-98.90","49.19","PILOT MOUND (AUT)","5022125","2019-04-06 06:00","2019","04","06","06:00","-1.7","","-2.3","","96","","","M","7","","18","","","","96.09","","","","-7","","NA"
"-98.90","49.19","PILOT MOUND (AUT)","5022125","2019-04-06 07:00","2019","04","06","07:00","-1.7","","-2.4","","95","","","M","7","","17","","","","96.08","","","","-7","","NA"
"-98.90","49.19","PILOT MOUND (AUT)","5022125","2019-04-06 08:00","2019","04","06","08:00","-1.9","","-3.0","","92","","","M","8","","23","","","","96.10","","","","-8","","NA"
"-98.90","49.19","PILOT MOUND (AUT)","5022125","2019-04-06 09:00","2019","04","06","09:00","-1.2","","-2.0","","94","","","M","7","","22","","","","96.03","","","","-7","","NA"
"-98.90","49.19","PILOT MOUND (AUT)","5022125","2019-04-06 10:00","2019","04","06","10:00","-0.2","","-1.5","","91","","","M","8","","19","","","","96.01","","","","-5","","NA"
"-98.90","49.19","PILOT MOUND (AUT)","5022125","2019-04-06 11:00","2019","04","06","11:00","0.4","","-1.0","","91","","","M","9","","18","","","","96.04","","","","","","NA"
"-98.90","49.19","PILOT MOUND (AUT)","5022125","2019-04-06 12:00","2019","04","06","12:00","0.3","","-1.0","","91","","","M","6","","20","","","","95.97","","","","","","NA"
"-98.90","49.19","PILOT MOUND (AUT)","5022125","2019-04-06 13:00","2019","04","06","13:00","1.8","","-0.2","","86","","","M","7","","24","","","","95.82","","","","","","NA"
"-98.90","49.19","PILOT MOUND (AUT)","5022125","2019-04-06 14:00","2019","04","06","14:00","2.8","","0.5","","85","","","M","7","","25","","","","95.74","","","","","","NA"
"-98.90","49.19","PILOT MOUND (AUT)","5022125","2019-04-06 15:00","2019","04","06","15:00","2.6","","0.8","","88","","","M","8","","23","","","","95.71","","","","","","NA"
"-98.90","49.19","PILOT MOUND (AUT)","5022125","2019-04-06 16:00","2019","04","06","16:00","3.9","","1.5","","84","","","M","10","","22","","","","95.68","","","","","","NA"
"-98.90","49.19","PILOT MOUND (AUT)","5022125","2019-04-06 17:00","2019","04","06","17:00","3.9","","1.6","","85","","","M","9","","21","","","","95.60","","","","","","NA"
"-98.90","49.19","PILOT MOUND (AUT)","5022125","2019-04-06 18:00","2019","04","06","18:00","3.7","","1.7","","87","","","M","10","","19","","","","95.56","","","","","","NA"
"-98.90","49.19","PILOT MOUND (AUT)","5022125","2019-04-06 19:00","2019","04","06","19:00","3.2","","1.6","","89","","","M","11","","15","","","","95.51","","","","","","NA"
"-98.90","49.19","PILOT MOUND (AUT)","5022125","2019-04-06 20:00","2019","04","06","20:00","3.2","","1.7","","90","","","M","11","","16","","","","95.50","","","","","","NA"
"-98.90","49.19","PILOT MOUND (AUT)","5022125","2019-04-06 21:00","2019","04","06","21:00","3.2","","1.5","","89","","","M","12","","23","","","","95.41","","","","","","NA"
"-98.90","49.19","PILOT MOUND (AUT)","5022125","2019-04-06 22:00","2019","04","06","22:00","2.7","","1.4","","91","","","M","16","","16","","","","95.43","","","","","","NA"
"-98.90","49.19","PILOT MOUND (AUT)","5022125","2019-04-06 23:00","2019","04","06","23:00","2.3","","1.6","","95","","","M","21","","7","","","","95.43","","","","","","NA"
"-98.90","49.19","PILOT MOUND (AUT)","5022125","2019-04-07 00:00","2019","04","07","00:00","2.3","","1.7","","95","","","M","28","","1","","","","95.39","","","","","","NA"
"-98.90","49.19","PILOT MOUND (AUT)","5022125","2019-04-07 01:00","2019","04","07","01:00","2.1","","1.5","","96","","","M","13","","6","","","","95.37","","","","","","NA"
"-98.90","49.19","PILOT MOUND (AUT)","5022125","2019-04-07 02:00","2019","04","07","02:00","1.9","","1.3","","96","","","M","14","","8","","","","95.28","","","","","","NA"
"-98.90","49.19","PILOT MOUND (AUT)","5022125","2019-04-07 03:00","2019","04","07","03:00","1.9","","1.3","","96","","","M","16","","6","","","","95.24","","","","","","NA"
"-98.90","49.19","PILOT MOUND (AUT)","5022125","2019-04-07 04:00","2019","04","07","04:00","1.9","","1.4","","96","","","M","20","","5","","","","95.25","","","","","","NA"
"-98.90","49.19","PILOT MOUND (AUT)","5022125","2019-04-07 05:00","2019","04","07","05:00","2.3","","1.7","","96","","","M","23","","9","","","","95.24","","","","","","NA"
"-98.90","49.19","PILOT MOUND (AUT)","5022125","2019-04-07 06:00","2019","04","07","06:00","2.5","","2.0","","96","","","M","26","","6","","","","95.24","","","","","","NA"
"-98.90","49.19","PILOT MOUND (AUT)","5022125","2019-04-07 07:00","2019","04","07","07:00","2.7","","2.1","","96","","","M","10","","2","","","","95.22","","","","","","NA"
"-98.90","49.19","PILOT MOUND (AUT)","5022125","2019-04-07 08:00","2019","04","07","08:00","3.1","","2.5","","96","","","M","26","","4","","","","95.24","","","","","","NA"
"-98.90","49.19","PILOT MOUND (AUT)","5022125","2019-04-07 09:00","2019","04","07","09:00","3.8","","3.3","","96","","","M","23","","3","","","","95.23","","","","","","NA"
"-98.90","49.19","PILOT MOUND (AUT)","5022125","2019-04-07 10:00","2019","04","07","10:00","5.0","","4.4","","96","","","M","25","","8","","","","95.21","","","","","","NA"
"-98.90","49.19","PILOT MOUND (AUT)","5022125","2019-04-07 11:00","2019","04","07","11:00","6.1","","5.5","","96","","","M","24","","9","","","","95.16","","","","","","NA"
"-98.90","49.19","PILOT MOUND (AUT)","5022125","2019-04-07 12:00","2019","04","07","12:00","8.2","","5.7","","84","","","M","28","","13","","","","95.12","","","","","","NA"
"-98.90","49.19","PILOT MOUND (AUT)","5022125","2019-04-07 13:00","2019","04","07","13:00","9.6","","6.1","","79","","","M","24","","11","","","","95.08","","","","","","NA"
"-98.90","49.19","PILOT MOUND (AUT)","5022125","2019-04-07 14:00","2019","04","07","14:00","12.2","","7.6","","74","","","M","29","","14","","","","95.10","","","","","","NA"
"-98.90","49.19","PILOT MOUND (AUT)","5022125","2019-04-07 15:00","2019","04","07","15:00","14.0","","5.5","","56","","","M","28","","21","","","","95.06","","","","","","NA"
"-98.90","49.19","PILOT MOUND (AUT)","5022125","2019-04-07 16:00","2019","04","07","16:00","13.9","","4.8","","54","","","M","28","","26","","","","95.05","","","","","","NA"
"-98.90","49.19","PILOT MOUND (AUT)","5022125","2019-04-07 17:00","2019","04","07","17:00","13.7","","4.3","","53","","","M","30","","22","","","","95.06","","","","","","NA"
"-98.90","49.19","PILOT MOUND (AUT)","5022125","2019-04-07 18:00","2019","04","07","18:00","12.8","","3.8","","54","","","M","30","","17","","","","95.14","","","","","","NA"
"-98.90","49.19","PILOT MOUND (AUT)","5022125","2019-04-07 19:00","2019","04","07","19:00","9.6","","3.0","","64","","","M","35","","6","","","","95.16","","","","","","NA"
"-98.90","49.19","PILOT MOUND (AUT)","5022125","2019-04-07 20:00","2019","04","07","20:00","5.7","","1.8","","76","","","M","5","","3","","","","95.18","","","","","","NA"
"-98.90","49.19","PILOT MOUND (AUT)","5022125","2019-04-07 21:00","2019","04","07","21:00","4.8","","2.2","","83","","","M","11","","8","","","","95.19","","","","","","NA"
"-98.90","49.19","PILOT MOUND (AUT)","5022125","2019-04-07 22:00","2019","04","07","22:00","4.3","","1.7","","83","","","M","12","","8","","","","95.16","","","","","","NA"
"-98.90","49.19","PILOT MOUND (AUT)","5022125","2019-04-07 23:00","2019","04","07","23:00","3.6","","1.3","","85","","","M","13","","6","","","","95.10","","","","","","NA"
"-98.90","49.19","PILOT MOUND (AUT)","5022125","2019-04-08 00:00","2019","04","08","00:00","3.1","","1.5","","89","","","M","16","","13","","","","95.09","","","","","","NA"
"-98.90","49.19","PILOT MOUND (AUT)","5022125","2019-04-08 01:00","2019","04","08","01:00","4.0","","1.7","","85","","","M","7","","15","","","","95.14","","","","","","NA"
"-98.90","49.19","PILOT MOUND (AUT)","5022125","2019-04-08 02:00","2019","04","08","02:00","2.6","","1.8","","94","","","M","13","","8","","","","95.11","","","","","","NA"
"-98.90","49.19","PILOT MOUND (AUT)","5022125","2019-04-08 03:00","2019","04","08","03:00","1.5","","0.8","","95","","","M","3","","9","","","","95.10","","","","","","NA"
"-98.90","49.19","PILOT MOUND (AUT)","5022125","2019-04-08 04:00","2019","04","08","04:00","0.2","","-0.4","","96","","","M","8","","11","","","","95.08","","","","","","NA"
"-98.90","49.19","PILOT MOUND (AUT)","5022125","2019-04-08 05:00","2019","04","08","05:00","-0.3","","-0.8","","96","","","M","9","","9","","","","95.09","","","","-3","","NA"
"-98.90","49.19","PILOT MOUND (AUT)","5022125","2019-04-08 06:00","2019","04","08","06:00","0.1","","-0.4","","96","","","M","12","","4","","","","95.11","","","","","","NA"
"-98.90","49.19","PILOT MOUND (AUT)","5022125","2019-04-08 07:00","2019","04","08","07:00","1.2","","0.7","","96","","","M","3","","12","","","","95.19","","","","","","NA"
"-98.90","49.19","PILOT MOUND (AUT)","5022125","2019-04-08 08:00","2019","04","08","08:00","2.0","","1.4","","96","","","M","5","","9","","","","95.24","","","","","","NA"
"-98.90","49.19","PILOT MOUND (AUT)","5022125","2019-04-08 09:00","2019","04","08","09:00","2.8","","2.2","","96","","","M","3","","9","","","","95.29","","","","","","NA"
"-98.90","49.19","PILOT MOUND (AUT)","5022125","2019-04-08 10:00","2019","04","08","10:00","4.4","","3.7","","95","","","M","32","","12","","","","95.39","","","","","","NA"
"-98.90","49.19","PILOT MOUND (AUT)","5022125","2019-04-08 11:00","2019","04","08","11:00","4.5","","2.5","","87","","","M","33","","19","","","","95.49","","","","","","NA"
"-98.90","49.19","PILOT MOUND (AUT)","5022125","2019-04-08 12:00","2019","04","08","12:00","5.0","","2.9","","86","","","M","30","","22","","","","95.54","","","","","","NA"
"-98.90","49.19","PILOT MOUND (AUT)","5022125","2019-04-08 13:00","2019","04","08","13:00","6.7","","3.6","","81","","","M","31","","22","","","","95.55","","","","","","NA"
"-98.90","49.19","PILOT MOUND (AUT)","5022125","2019-04-08 14:00","2019","04","08","14:00","8.4","","3.4","","71","","","M","30","","25","","","","95.56","","","","","","NA"
"-98.90","49.19","PILOT MOUND (AUT)","5022125","2019-04-08 15:00","2019","04","08","15:00","8.6","","3.2","","69","","","M","31","","23","","","","95.61","","","","","","NA"
"-98.90","49.19","PILOT MOUND (AUT)","5022125","2019-04-08 16:00","2019","04","08","16:00","8.9","","2.7","","65","","","M","30","","34","","","","95.62","","","","","","NA"
"-98.90","49.19","PILOT MOUND (AUT)","5022125","2019-04-08 17:00","2019","04","08","17:00","9.9","","3.6","","65","","","M","31","","20","","","","95.58","","","","","","NA"
"-98.90","49.19","PILOT MOUND (AUT)","5022125","2019-04-08 18:00","2019","04","08","18:00","7.2","","3.9","","79","","","M","28","","26","","","","95.62","","","","","","NA"
"-98.90","49.19","PILOT MOUND (AUT)","5022125","2019-04-08 19:00","2019","04","08","19:00","7.0","","2.3","","72","","","M","31","","24","","","","95.62","","","","","","NA"
"-98.90","49.19","PILOT MOUND (AUT)","5022125","2019-04-08 20:00","2019","04","08","20:00","2.6","","0.7","","87","","","M","3","","21","","","","95.75","","","","","","NA"
"-98.90","49.19","PILOT MOUND (AUT)","5022125","2019-04-08 21:00","2019","04","08","21:00","-0.1","","-1.3","","92","","","M","3","","16","","","","95.91","","","","-5","","NA"
"-98.90","49.19","PILOT MOUND (AUT)","5022125","2019-04-08 22:00","2019","04","08","22:00","-1.0","","-2.1","","93","","","M","3","","16","","","","95.96","","","","-6","","NA"
"-98.90","49.19","PILOT MOUND (AUT)","5022125","2019-04-08 23:00","2019","04","08","23:00","-1.5","","-3.5","","86","","","M","1","","14","","","","95.99","","","","-6","","NA"
"-98.90","49.19","PILOT MOUND (AUT)","5022125","2019-04-09 00:00","2019","04","09","00:00","-1.8","","-4.2","","84","","","M","36","","21","","","","95.99","","","","-8","","NA"
"-98.90","49.19","PILOT MOUND (AUT)","5022125","2019-04-09 01:00","2019","04","09","01:00","-2.5","","-4.3","","87","","","M","1","","18","","","","96.03","","","","-8","","NA"
"-98.90","49.19","PILOT MOUND (AUT)","5022125","2019-04-09 02:00","2019","04","09","02:00","-2.9","","-5.0","","86","","","M","34","","15","","","","96.10","","","","-8","","NA"
"-98.90","49.19","PILOT MOUND (AUT)","5022125","2019-04-09 03:00","2019","04","09","03:00","-3.2","","-5.1","","87","","","M","34","","17","","","","96.11","","","","-9","","NA"
"-98.90","49.19","PILOT MOUND (AUT)","5022125","2019-04-09 04:00","2019","04","09","04:00","-4.3","","-6.7","","83","","","M","35","","20","","","","96.16","","","","-11","","NA"
"-98.90","49.19","PILOT MOUND (AUT)","5022125","2019-04-09 05:00","2019","04","09","05:00","-5.2","","-7.9","","81","","","M","35","","23","","","","96.19","","","","-12","","NA"
"-98.90","49.19","PILOT MOUND (AUT)","5022125","2019-04-09 06:00","2019","04","09","06:00","-5.7","","-8.0","","84","","","M","36","","24","","","","96.26","","","","-13","","NA"
"-98.90","49.19","PILOT MOUND (AUT)","5022125","2019-04-09 07:00","2019","04","09","07:00","-6.5","","-9.0","","83","","","M","35","","22","","","","96.34","","","","-14","","NA"
"-98.90","49.19","PILOT MOUND (AUT)","5022125","2019-04-09 08:00","2019","04","09","08:00","-6.4","","-9.4","","79","","","M","35","","20","","","","96.39","","","","-13","","NA"
"-98.90","49.19","PILOT MOUND (AUT)","5022125","2019-04-09 09:00","2019","04","09","09:00","-6.1","","-9.4","","78","","","M","36","","17","","","","96.39","","","","-12","","NA"
"-98.90","49.19","PILOT MOUND (AUT)","5022125","2019-04-09 10:00","2019","04","09","10:00","-5.2","","-9.1","","74","","","M","2","","21","","","","96.40","","","","-12","","NA"
"-98.90","49.19","PILOT MOUND (AUT)","5022125","2019-04-09 11:00","2019","04","09","11:00","-4.0","","-8.7","","70","","","M","1","","18","","","","96.42","","","","-10","","NA"
"-98.90","49.19","PILOT MOUND (AUT)","5022125","2019-04-09 12:00","2019","04","09","12:00","-4.7","","-9.2","","70","","","M","3","","17","","","","96.44","","","","-11","","NA"
"-98.90","49.19","PILOT MOUND (AUT)","5022125","2019-04-09 13:00","2019","04","09","13:00","-3.6","","-7.6","","73","","","M","3","","19","","","","96.42","","","","-10","","NA"
"-98.90","49.19","PILOT MOUND (AUT)","5022125","2019-04-09 14:00","2019","04","09","14:00","-4.2","","-8.6","","72","","","M","2","","20","","","","96.43","","","","-11","","NA"
"-98.90","49.19","PILOT MOUND (AUT)","5022125","2019-04-09 15:00","2019","04","09","15:00","-3.6","","-8.5","","69","","","M","1","","17","","","","96.45","","","","-9","","NA"
"-98.90","49.19","PILOT MOUND (AUT)","5022125","2019-04-09 16:00","2019","04","09","16:00","-4.0","","-8.6","","70","","","M","3","","20","","","","96.46","","","","-10","","NA"
"-98.90","49.19","PILOT MOUND (AUT)","5022125","2019-04-09 17:00","2019","04","09","17:00","-4.4","","-9.3","","69","","","M","2","","13","","","","96.49","","","","-9","","NA"
"-98.90","49.19","PILOT MOUND (AUT)","5022125","2019-04-09 18:00","2019","04","09","18:00","-4.8","","-9.4","","70","","","M","3","","13","","","","96.51","","","","-10","","NA"
"-98.90","49.19","PILOT MOUND (AUT)","5022125","2019-04-09 19:00","2019","04","09","19:00","-4.9","","-9.2","","72","","","M","5","","14","","","","96.56","","","","-10","","NA"
"-98.90","49.19","PILOT MOUND (AUT)","5022125","2019-04-09 20:00","2019","04","09","20:00","-5.1","","-9.1","","73","","","M","4","","13","","","","96.62","","","","-10","","NA"
"-98.90","49.19","PILOT MOUND (AUT)","5022125","2019-04-09 21:00","2019","04","09","21:00","-4.9","","-9.1","","73","","","M","4","","15","","","","96.69","","","","-10","","NA"
"-98.90","49.19","PILOT MOUND (AUT)","5022125","2019-04-09 22:00","2019","04","09","22:00","-4.9","","-8.9","","73","","","M","3","","16","","","","96.72","","","","-11","","NA"
"-98.90","49.19","PILOT MOUND (AUT)","5022125","2019-04-09 23:00","2019","04","09","23:00","-5.1","","-9.1","","73","","","M","4","","17","","","","96.63","","","","-11","","NA"
"-98.90","49.19","PILOT MOUND (AUT)","5022125","2019-04-10 00:00","2019","04","10","00:00","-5.8","","-9.7","","74","","","M","5","","15","","","","96.69","","","","-12","","NA"
"-98.90","49.19","PILOT MOUND (AUT)","5022125","2019-04-10 01:00","2019","04","10","01:00","-6.4","","-9.6","","78","","","M","3","","11","","","","96.68","","","","-11","","NA"
"-98.90","49.19","PILOT MOUND (AUT)","5022125","2019-04-10 02:00","2019","04","10","02:00","-6.0","","-9.6","","76","","","M","2","","16","","","","96.64","","","","-12","","NA"
"-98.90","49.19","PILOT MOUND (AUT)","5022125","2019-04-10 03:00","2019","04","10","03:00","-5.9","","-8.4","","82","","","M","4","","15","","","","96.58","","","","-12","","NA"
"-98.90","49.19","PILOT MOUND (AUT)","5022125","2019-04-10 04:00","2019","04","10","04:00","-5.8","","-8.0","","84","","","M","5","","18","","","","96.59","","","","-12","","NA"
"-98.90","49.19","PILOT MOUND (AUT)","5022125","2019-04-10 05:00","2019","04","10","05:00","-5.8","","-7.8","","86","","","M","5","","17","","","","96.64","","","","-12","","NA"
"-98.90","49.19","PILOT MOUND (AUT)","5022125","2019-04-10 06:00","2019","04","10","06:00","-5.7","","-7.7","","85","","","M","4","","15","","","","96.67","","","","-11","","NA"
"-98.90","49.19","PILOT MOUND (AUT)","5022125","2019-04-10 07:00","2019","04","10","07:00","-4.8","","-7.4","","82","","","M","6","","14","","","","96.81","","","","-10","","NA"
"-98.90","49.19","PILOT MOUND (AUT)","5022125","2019-04-10 08:00","2019","04","10","08:00","-4.4","","-7.9","","77","","","M","5","","17","","","","96.79","","","","-10","","NA"
"-98.90","49.19","PILOT MOUND (AUT)","5022125","2019-04-10 09:00","2019","04","10","09:00","-4.0","","-9.0","","68","","","M","3","","19","","","","96.74","","","","-10","","NA"
"-98.90","49.19","PILOT MOUND (AUT)","5022125","2019-04-10 10:00","2019","04","10","10:00","-3.9","","-7.8","","74","","","M","5","","24","","","","96.76","","","","-11","","NA"
"-98.90","49.19","PILOT MOUND (AUT)","5022125","2019-04-10 11:00","2019","04","10","11:00","-2.9","","-6.8","","74","","","M","8","","26","","","","96.78","","","","-10","","NA"
"-98.90","49.19","PILOT MOUND (AUT)","5022125","2019-04-10 12:00","2019","04","10","12:00","-2.7","","-6.3","","76","","","M","5","","22","","","","96.74","","","","-9","","NA"
"-98.90","49.19","PILOT MOUND (AUT)","5022125","2019-04-10 13:00","2019","04","10","13:00","-1.3","","-5.5","","73","","","M","6","","23","","","","96.65","","","","-7","","NA"
"-98.90","49.19","PILOT MOUND (AUT)","5022125","2019-04-10 14:00","2019","04","10","14:00","-0.7","","-5.3","","71","","","M","5","","21","","","","96.64","","","","-6","","NA"
"-98.90","49.19","PILOT MOUND (AUT)","5022125","2019-04-10 15:00","2019","04","10","15:00","0.3","","-5.2","","67","","","M","4","","23","","","","96.59","","","","","","NA"
"-98.90","49.19","PILOT MOUND (AUT)","5022125","2019-04-10 16:00","2019","04","10","16:00","1.9","","-4.9","","61","","","M","3","","26","","","","96.56","","","","","","NA"
"-98.90","49.19","PILOT MOUND (AUT)","5022125","2019-04-10 17:00","2019","04","10","17:00","2.3","","-5.7","","56","","","M","5","","22","","","","96.62","","","","","","NA"
"-98.90","49.19","PILOT MOUND (AUT)","5022125","2019-04-10 18:00","2019","04","10","18:00","1.9","","-5.1","","60","","","M","4","","19","","","","96.64","","","","","","NA"
"-98.90","49.19","PILOT MOUND (AUT)","5022125","2019-04-10 19:00","2019","04","10","19:00","1.0","","-4.9","","65","","","M","4","","14","","","","96.63","","","","","","NA"
"-98.90","49.19","PILOT MOUND (AUT)","5022125","2019-04-10 20:00","2019","04","10","20:00","0.1","","-4.7","","71","","","M","3","","13","","","","96.66","","","","","","NA"
"-98.90","49.19","PILOT MOUND (AUT)","5022125","2019-04-10 21:00","2019","04","10","21:00","0.4","","-5.6","","64","","","M","4","","16","","","","96.70","","","","","","NA"
"-98.90","49.19","PILOT MOUND (AUT)","5022125","2019-04-10 22:00","2019","04","10","22:00","-0.3","","-5.8","","67","","","M","5","","17","","","","96.73","","","","-5","","NA"
"-98.90","49.19","PILOT MOUND (AUT)","5022125","2019-04-10 23:00","2019","04","10","23:00","-1.2","","-6.1","","70","","","M","6","","18","","","","96.70","","","","-6","","NA"
"-98.90","49.19","PILOT MOUND (AUT)","5022125","2019-04-11 00:00","2019","04","11","00:00","-2.3","","-6.5","","73","","","M","7","","14","","","","96.70","","","","-7","","NA"
"-98.90","49.19","PILOT MOUND (AUT)","5022125","2019-04-11 01:00","2019","04","11","01:00","-2.2","","-7.1","","69","","","M","5","","16","","","","96.66","","","","-7","","NA"
"-98.90","49.19","PILOT MOUND (AUT)","5022125","2019-04-11 02:00","2019","04","11","02:00","-2.9","","-6.9","","73","","","M","5","","17","","","","96.59","","","","-8","","NA"
"-98.90","49.19","PILOT MOUND (AUT)","5022125","2019-04-11 03:00","2019","04","11","03:00","-4.3","","-7.4","","79","","","M","6","","14","","","","96.62","","","","-9","","NA"
"-98.90","49.19","PILOT MOUND (AUT)","5022125","2019-04-11 04:00","2019","04","11","04:00","-4.1","","-7.1","","79","","","M","6","","17","","","","96.64","","","","-10","","NA"
"-98.90","49.19","PILOT MOUND (AUT)","5022125","2019-04-11 05:00","2019","04","11","05:00","-4.1","","-7.2","","79","","","M","5","","18","","","","96.57","","","","-10","","NA"
"-98.90","49.19","PILOT MOUND (AUT)","5022125","2019-04-11 06:00","2019","04","11","06:00","-4.8","","-7.4","","82","","","M","5","","17","","","","96.58","","","","-11","","NA"
"-98.90","49.19","PILOT MOUND (AUT)","5022125","2019-04-11 07:00","2019","04","11","07:00","-3.8","","-7.0","","79","","","M","5","","16","","","","96.56","","","","-9","","NA"
"-98.90","49.19","PILOT MOUND (AUT)","5022125","2019-04-11 08:00","2019","04","11","08:00","-2.7","","-7.0","","72","","","M","5","","20","","","","96.52","","","","-9","","NA"
"-98.90","49.19","PILOT MOUND (AUT)","5022125","2019-04-11 09:00","2019","04","11","09:00","-1.5","","-6.6","","68","","","M","5","","25","","","","96.49","","","","-8","","NA"
"-98.90","49.19","PILOT MOUND (AUT)","5022125","2019-04-11 10:00","2019","04","11","10:00","0.0","","-6.4","","62","","","M","4","","26","","","","96.38","","","","-6","","NA"
"-98.90","49.19","PILOT MOUND (AUT)","5022125","2019-04-11 11:00","2019","04","11","11:00","0.7","","-7.9","","53","","","M","4","","29","","","","96.39","","","","","","NA"
"-98.90","49.19","PILOT MOUND (AUT)","5022125","2019-04-11 12:00","2019","04","11","12:00","1.6","","-7.5","","51","","","M","4","","33","","","","96.29","","","","","","NA"
"-98.90","49.19","PILOT MOUND (AUT)","5022125","2019-04-11 13:00","2019","04","11","13:00","2.4","","-6.1","","53","","","M","3","","34","","","","96.17","","","","","","NA"
"-98.90","49.19","PILOT MOUND (AUT)","5022125","2019-04-11 14:00","2019","04","11","14:00","2.4","","-4.9","","58","","","M","3","","38","","","","96.05","","","","","","NA"
"-98.90","49.19","PILOT MOUND (AUT)","5022125","2019-04-11 15:00","2019","04","11","15:00","1.7","","-5.7","","58","","","M","3","","40","","","","95.98","","","","","","NA"
"-98.90","49.19","PILOT MOUND (AUT)","5022125","2019-04-11 16:00","2019","04","11","16:00","1.7","","-5.3","","59","","","M","3","","40","","","","95.93","","","","","","NA"
"-98.90","49.19","PILOT MOUND (AUT)","5022125","2019-04-11 17:00","2019","04","11","17:00","2.4","","-5.0","","58","","","M","3","","41","","","","95.87","","","","","","NA"
"-98.90","49.19","PILOT MOUND (AUT)","5022125","2019-04-11 18:00","2019","04","11","18:00","1.9","","-5.5","","58","","","M","3","","33","","","","95.87","","","","","","NA"
"-98.90","49.19","PILOT MOUND (AUT)","5022125","2019-04-11 19:00","2019","04","11","19:00","1.4","","-5.9","","58","","","M","3","","32","","","","95.84","","","","","","NA"
"-98.90","49.19","PILOT MOUND (AUT)","5022125","2019-04-11 20:00","2019","04","11","20:00","0.7","","-4.7","","67","","","M","4","","26","","","","95.85","","","","","","NA"
"-98.90","49.19","PILOT MOUND (AUT)","5022125","2019-04-11 21:00","2019","04","11","21:00","0.5","","-5.4","","64","","","M","4","","26","","","","95.81","","","","","","NA"
"-98.90","49.19","PILOT MOUND (AUT)","5022125","2019-04-11 22:00","2019","04","11","22:00","0.3","","-5.7","","64","","","M","4","","25","","","","95.74","","","","","","NA"
"-98.90","49.19","PILOT MOUND (AUT)","5022125","2019-04-11 23:00","2019","04","11","23:00","0.2","","-6.1","","63","","","M","4","","27","","","","95.68","","","","","","NA"
"-98.90","49.19","PILOT MOUND (AUT)","5022125","2019-04-12 00:00","2019","04","12","00:00","0.1","","-6.6","","61","","","M","4","","27","","","","95.57","","","","","","NA"
"-98.90","49.19","PILOT MOUND (AUT)","5022125","2019-04-12 01:00","2019","04","12","01:00","-1.7","","-3.7","","86","","","M","8","","23","","","","95.56","","","","-8","","NA"
"-98.90","49.19","PILOT MOUND (AUT)","5022125","2019-04-12 02:00","2019","04","12","02:00","-1.5","","-4.4","","81","","","M","2","","25","","","","95.42","","","","-8","","NA"
"-98.90","49.19","PILOT MOUND (AUT)","5022125","2019-04-12 03:00","2019","04","12","03:00","-2.0","","-4.1","","86","","","M","5","","21","","","","95.41","","","","-8","","NA"
"-98.90","49.19","PILOT MOUND (AUT)","5022125","2019-04-12 04:00","2019","04","12","04:00","-2.5","","-3.8","","91","","","M","2","","21","","","","95.39","","","","-9","","NA"
"-98.90","49.19","PILOT MOUND (AUT)","5022125","2019-04-12 05:00","2019","04","12","05:00","-2.8","","-4.0","","91","","","M","2","","24","","","","95.34","","","","-9","","NA"
"-98.90","49.19","PILOT MOUND (AUT)","5022125","2019-04-12 06:00","2019","04","12","06:00","-2.9","","-4.5","","88","","","M","2","","23","","","","95.30","","","","-9","","NA"
"-98.90","49.19","PILOT MOUND (AUT)","5022125","2019-04-12 07:00","2019","04","12","07:00","-2.7","","-4.3","","89","","","M","1","","21","","","","95.28","","","","-9","","NA"
"-98.90","49.19","PILOT MOUND (AUT)","5022125","2019-04-12 08:00","2019","04","12","08:00","-2.8","","-4.6","","87","","","M","1","","23","","","","95.25","","","","-9","","NA"
"-98.90","49.19","PILOT MOUND (AUT)","5022125","2019-04-12 09:00","2019","04","12","09:00","-2.3","","-4.5","","85","","","M","1","","22","","","","95.21","","","","-8","","NA"
"-98.90","49.19","PILOT MOUND (AUT)","5022125","2019-04-12 10:00","2019","04","12","10:00","-2.4","","-5.7","","78","","","M","1","","25","","","","95.20","","","","-9","","NA"
"-98.90","49.19","PILOT MOUND (AUT)","5022125","2019-04-12 11:00","2019","04","12","11:00","-2.0","","-6.2","","73","","","M","36","","29","","","","95.17","","","","-9","","NA"
"-98.90","49.19","PILOT MOUND (AUT)","5022125","2019-04-12 12:00","2019","04","12","12:00","-1.5","","-4.3","","81","","","M","36","","33","","","","95.13","","","","-9","","NA"
"-98.90","49.19","PILOT MOUND (AUT)","5022125","2019-04-12 13:00","2019","04","12","13:00","-0.9","","-3.8","","81","","","M","1","","33","","","","95.11","","","","-8","","NA"
"-98.90","49.19","PILOT MOUND (AUT)","5022125","2019-04-12 14:00","2019","04","12","14:00","-0.6","","-3.0","","84","","","M","36","","32","","","","95.11","","","","-7","","NA"
"-98.90","49.19","PILOT MOUND (AUT)","5022125","2019-04-12 15:00","2019","04","12","15:00","-0.6","","-3.5","","81","","","M","36","","40","","","","95.16","","","","-8","","NA"
"-98.90","49.19","PILOT MOUND (AUT)","5022125","2019-04-12 16:00","2019","04","12","16:00","0.8","","-3.0","","75","","","M","36","","30","","","","95.19","","","","","","NA"
"-98.90","49.19","PILOT MOUND (AUT)","5022125","2019-04-12 17:00","2019","04","12","17:00","1.2","","-3.9","","68","","","M","36","","29","","","","95.23","","","","","","NA"
"-98.90","49.19","PILOT MOUND (AUT)","5022125","2019-04-12 18:00","2019","04","12","18:00","1.5","","-4.2","","66","","","M","36","","27","","","","95.29","","","","","","NA"
"-98.90","49.19","PILOT MOUND (AUT)","5022125","2019-04-12 19:00","2019","04","12","19:00","0.8","","-4.9","","65","","","M","35","","18","","","","95.35","","","","","","NA"
"-98.90","49.19","PILOT MOUND (AUT)","5022125","2019-04-12 20:00","2019","04","12","20:00","0.1","","-5.5","","66","","","M","34","","10","","","","95.40","","","","","","NA"
"-98.90","49.19","PILOT MOUND (AUT)","5022125","2019-04-12 21:00","2019","04","12","21:00","-0.7","","-4.8","","74","","","M","34","","8","","","","95.44","","","","-4","","NA"
"-98.90","49.19","PILOT MOUND (AUT)","5022125","2019-04-12 22:00","2019","04","12","22:00","0.2","","-7.9","","54","","","M","35","","15","","","","95.49","","","","","","NA"
"-98.90","49.19","PILOT MOUND (AUT)","5022125","2019-04-12 23:00","2019","04","12","23:00","-0.3","","-8.7","","53","","","M","35","","14","","","","95.53","","","","-5","","NA"
"-98.90","49.19","PILOT MOUND (AUT)","5022125","2019-04-13 00:00","2019","04","13","00:00","-1.5","","-8.1","","61","","","M","32","","9","","","","95.58","","","","-5","","NA"
"-98.90","49.19","PILOT MOUND (AUT)","5022125","2019-04-13 01:00","2019","04","13","01:00","-2.8","","-8.2","","66","","","M","31","","11","","","","95.62","","","","-7","","NA"
"-98.90","49.19","PILOT MOUND (AUT)","5022125","2019-04-13 02:00","2019","04","13","02:00","-2.8","","-9.4","","60","","","M","32","","7","","","","95.65","","","","-6","","NA"
"-98.90","49.19","PILOT MOUND (AUT)","5022125","2019-04-13 03:00","2019","04","13","03:00","-4.4","","-8.2","","75","","","M","29","","12","","","","95.71","","","","-9","","NA"
"-98.90","49.19","PILOT MOUND (AUT)","5022125","2019-04-13 04:00","2019","04","13","04:00","-4.3","","-8.2","","74","","","M","30","","12","","","","95.79","","","","-9","","NA"
"-98.90","49.19","PILOT MOUND (AUT)","5022125","2019-04-13 05:00","2019","04","13","05:00","-4.7","","-9.1","","71","","","M","30","","12","","","","95.86","","","","-9","","NA"
"-98.90","49.19","PILOT MOUND (AUT)","5022125","2019-04-13 06:00","2019","04","13","06:00","-5.7","","-9.2","","77","","","M","28","","11","","","","95.94","","","","-10","","NA"
"-98.90","49.19","PILOT MOUND (AUT)","5022125","2019-04-13 07:00","2019","04","13","07:00","-3.6","","-7.9","","72","","","M","29","","11","","","","96.01","","","","-8","","NA"
"-98.90","49.19","PILOT MOUND (AUT)","5022125","2019-04-13 08:00","2019","04","13","08:00","-0.9","","-7.7","","60","","","M","30","","15","","","","96.06","","","","-6","","NA"
"-98.90","49.19","PILOT MOUND (AUT)","5022125","2019-04-13 09:00","2019","04","13","09:00","2.0","","-8.0","","47","","","M","30","","15","","","","96.08","","","","","","NA"
"-98.90","49.19","PILOT MOUND (AUT)","5022125","2019-04-13 10:00","2019","04","13","10:00","4.2","","-8.4","","39","","","M","30","","18","","","","96.12","","","","","","NA"
"-98.90","49.19","PILOT MOUND (AUT)","5022125","2019-04-13 11:00","2019","04","13","11:00","6.1","","-8.5","","34","","","M","30","","13","","","","96.14","","","","","","NA"
"-98.90","49.19","PILOT MOUND (AUT)","5022125","2019-04-13 12:00","2019","04","13","12:00","7.0","","-9.3","","30","","","M","29","","10","","","","96.13","","","","","","NA"
"-98.90","49.19","PILOT MOUND (AUT)","5022125","2019-04-13 13:00","2019","04","13","13:00","8.2","","-8.7","","29","","","M","29","","8","","","","96.09","","","","","","NA"
"-98.90","49.19","PILOT MOUND (AUT)","5022125","2019-04-13 14:00","2019","04","13","14:00","9.0","","-10.0","","25","","","M","27","","7","","","","96.08","","","","","","NA"
"-98.90","49.19","PILOT MOUND (AUT)","5022125","2019-04-13 15:00","2019","04","13","15:00","10.0","","-10.3","","23","","","M","20","","9","","","","96.07","","","","","","NA"
"-98.90","49.19","PILOT MOUND (AUT)","5022125","2019-04-13 16:00","2019","04","13","16:00","9.8","","-8.6","","26","","","M","14","","11","","","","96.06","","","","","","NA"
"-98.90","49.19","PILOT MOUND (AUT)","5022125","2019-04-13 17:00","2019","04","13","17:00","9.5","","-6.1","","33","","","M","17","","20","","","","96.04","","","","","","NA"
"-98.90","49.19","PILOT MOUND (AUT)","5022125","2019-04-13 18:00","2019","04","13","18:00","7.9","","-2.8","","46","","","M","15","","17","","","","96.00","","","","","","NA"
"-98.90","49.19","PILOT MOUND (AUT)","5022125","2019-04-13 19:00","2019","04","13","19:00","4.3","","-1.9","","64","","","M","15","","16","","","","95.98","","","","","","NA"
"-98.90","49.19","PILOT MOUND (AUT)","5022125","2019-04-13 20:00","2019","04","13","20:00","1.2","","-1.8","","80","","","M","16","","14","","","","95.97","","","","","","NA"
"-98.90","49.19","PILOT MOUND (AUT)","5022125","2019-04-13 21:00","2019","04","13","21:00","0.5","","-2.5","","80","","","M","16","","16","","","","95.96","","","","","","NA"
"-98.90","49.19","PILOT MOUND (AUT)","5022125","2019-04-13 22:00","2019","04","13","22:00","0.7","","-3.1","","76","","","M","16","","18","","","","95.93","","","","","","NA"
"-98.90","49.19","PILOT MOUND (AUT)","5022125","2019-04-13 23:00","2019","04","13","23:00","0.7","","-3.3","","74","","","M","18","","20","","","","95.91","","","","","","NA"
"-98.90","49.19","PILOT MOUND (AUT)","5022125","2019-04-14 00:00","2019","04","14","00:00","0.5","","-3.7","","73","","","M","18","","19","","","","95.87","","","","","","NA"
"-98.90","49.19","PILOT MOUND (AUT)","5022125","2019-04-14 01:00","2019","04","14","01:00","0.3","","-3.5","","76","","","M","18","","19","","","","95.83","","","","","","NA"
"-98.90","49.19","PILOT MOUND (AUT)","5022125","2019-04-14 02:00","2019","04","14","02:00","-0.4","","-3.7","","78","","","M","17","","18","","","","95.78","","","","-5","","NA"
"-98.90","49.19","PILOT MOUND (AUT)","5022125","2019-04-14 03:00","2019","04","14","03:00","-1.1","","-3.9","","81","","","M","17","","17","","","","95.72","","","","-6","","NA"
"-98.90","49.19","PILOT MOUND (AUT)","5022125","2019-04-14 04:00","2019","04","14","04:00","-2.1","","-4.1","","86","","","M","17","","13","","","","95.69","","","","-7","","NA"
"-98.90","49.19","PILOT MOUND (AUT)","5022125","2019-04-14 05:00","2019","04","14","05:00","-2.5","","-4.5","","87","","","M","16","","13","","","","95.65","","","","-7","","NA"
"-98.90","49.19","PILOT MOUND (AUT)","5022125","2019-04-14 06:00","2019","04","14","06:00","-2.5","","-4.5","","86","","","M","15","","13","","","","95.61","","","","-7","","NA"
"-98.90","49.19","PILOT MOUND (AUT)","5022125","2019-04-14 07:00","2019","04","14","07:00","-1.0","","-4.4","","78","","","M","15","","17","","","","95.59","","","","-6","","NA"
"-98.90","49.19","PILOT MOUND (AUT)","5022125","2019-04-14 08:00","2019","04","14","08:00","1.1","","-3.4","","72","","","M","15","","20","","","","95.55","","","","","","NA"
"-98.90","49.19","PILOT MOUND (AUT)","5022125","2019-04-14 09:00","2019","04","14","09:00","3.1","","-2.7","","65","","","M","15","","26","","","","95.50","","","","","","NA"
"-98.90","49.19","PILOT MOUND (AUT)","5022125","2019-04-14 10:00","2019","04","14","10:00","4.9","","-2.7","","58","","","M","16","","34","","","","95.45","","","","","","NA"
"-98.90","49.19","PILOT MOUND (AUT)","5022125","2019-04-14 11:00","2019","04","14","11:00","5.9","","-3.7","","50","","","M","16","","41","","","","95.40","","","","","","NA"
"-98.90","49.19","PILOT MOUND (AUT)","5022125","2019-04-14 12:00","2019","04","14","12:00","6.8","","-2.1","","53","","","M","16","","39","","","","95.34","","","","","","NA"
"-98.90","49.19","PILOT MOUND (AUT)","5022125","2019-04-14 13:00","2019","04","14","13:00","7.5","","-2.7","","48","","","M","16","","42","","","","95.26","","","","","","NA"
"-98.90","49.19","PILOT MOUND (AUT)","5022125","2019-04-14 14:00","2019","04","14","14:00","6.7","","-2.9","","50","","","M","16","","38","","","","95.21","","","","","","NA"
"-98.90","49.19","PILOT MOUND (AUT)","5022125","2019-04-14 15:00","2019","04","14","15:00","7.9","","-2.9","","46","","","M","15","","40","","","","95.15","","","","","","NA"
"-98.90","49.19","PILOT MOUND (AUT)","5022125","2019-04-14 16:00","2019","04","14","16:00","7.3","","-2.0","","52","","","M","15","","38","","","","95.10","","","","","","NA"
"-98.90","49.19","PILOT MOUND (AUT)","5022125","2019-04-14 17:00","2019","04","14","17:00","6.6","","-3.0","","50","","","M","15","","41","","","","95.07","","","","","","NA"
"-98.90","49.19","PILOT MOUND (AUT)","5022125","2019-04-14 18:00","2019","04","14","18:00","5.6","","-1.5","","60","","","M","15","","33","","","","95.06","","","","","","NA"
"-98.90","49.19","PILOT MOUND (AUT)","5022125","2019-04-14 19:00","2019","04","14","19:00","3.8","","-0.5","","73","","","M","15","","31","","","","95.05","","","","","","NA"
"-98.90","49.19","PILOT MOUND (AUT)","5022125","2019-04-14 20:00","2019","04","14","20:00","2.5","","-0.9","","78","","","M","14","","34","","","","94.99","","","","","","NA"
"-98.90","49.19","PILOT MOUND (AUT)","5022125","2019-04-14 21:00","2019","04","14","21:00","1.7","","-1.2","","81","","","M","15","","34","","","","94.98","","","","","","NA"
"-98.90","49.19","PILOT MOUND (AUT)","5022125","2019-04-14 22:00","2019","04","14","22:00","1.3","","-1.3","","83","","","M","15","","33","","","","94.99","","","","","","NA"
"-98.90","49.19","PILOT MOUND (AUT)","5022125","2019-04-14 23:00","2019","04","14","23:00","1.2","","-1.5","","82","","","M","16","","39","","","","94.96","","","","","","NA"
"-98.90","49.19","PILOT MOUND (AUT)","5022125","2019-04-15 00:00","2019","04","15","00:00","0.2","","-0.6","","94","","","M","16","","35","","","","94.92","","","","","","NA"
"-98.90","49.19","PILOT MOUND (AUT)","5022125","2019-04-15 01:00","2019","04","15","01:00","0.2","","-1.0","","92","","","M","17","","40","","","","94.87","","","","","","NA"
"-98.90","49.19","PILOT MOUND (AUT)","5022125","2019-04-15 02:00","2019","04","15","02:00","0.3","","-0.9","","92","","","M","17","","40","","","","94.81","","","","","","NA"
"-98.90","49.19","PILOT MOUND (AUT)","5022125","2019-04-15 03:00","2019","04","15","03:00","0.2","","-1.1","","91","","","M","17","","40","","","","94.72","","","","","","NA"
"-98.90","49.19","PILOT MOUND (AUT)","5022125","2019-04-15 04:00","2019","04","15","04:00","0.2","","-0.9","","92","","","M","17","","34","","","","94.66","","","","","","NA"
"-98.90","49.19","PILOT MOUND (AUT)","5022125","2019-04-15 05:00","2019","04","15","05:00","0.3","","-0.9","","91","","","M","18","","29","","","","94.72","","","","","","NA"
"-98.90","49.19","PILOT MOUND (AUT)","5022125","2019-04-15 06:00","2019","04","15","06:00","0.3","","-1.1","","90","","","M","18","","30","","","","94.68","","","","","","NA"
"-98.90","49.19","PILOT MOUND (AUT)","5022125","2019-04-15 07:00","2019","04","15","07:00","0.0","","-1.7","","89","","","M","17","","24","","","","94.70","","","","-6","","NA"
"-98.90","49.19","PILOT MOUND (AUT)","5022125","2019-04-15 08:00","2019","04","15","08:00","1.0","","-1.3","","85","","","M","18","","29","","","","94.67","","","","","","NA"
"-98.90","49.19","PILOT MOUND (AUT)","5022125","2019-04-15 09:00","2019","04","15","09:00","2.4","","0.6","","88","","","M","19","","22","","","","94.68","","","","","","NA"
"-98.90","49.19","PILOT MOUND (AUT)","5022125","2019-04-15 10:00","2019","04","15","10:00","5.0","","2.2","","82","","","M","20","","25","","","","94.63","","","","","","NA"
"-98.90","49.19","PILOT MOUND (AUT)","5022125","2019-04-15 11:00","2019","04","15","11:00","7.2","","3.8","","79","","","M","19","","20","","","","94.66","","","","","","NA"
"-98.90","49.19","PILOT MOUND (AUT)","5022125","2019-04-15 12:00","2019","04","15","12:00","10.2","","5.0","","70","","","M","20","","23","","","","94.65","","","","","","NA"
"-98.90","49.19","PILOT MOUND (AUT)","5022125","2019-04-15 13:00","2019","04","15","13:00","12.6","","3.9","","55","","","M","23","","23","","","","94.60","","","","","","NA"
"-98.90","49.19","PILOT MOUND (AUT)","5022125","2019-04-15 14:00","2019","04","15","14:00","13.3","","2.2","","47","","","M","23","","28","","","","94.60","","","","","","NA"
"-98.90","49.19","PILOT MOUND (AUT)","5022125","2019-04-15 15:00","2019","04","15","15:00","12.1","","2.8","","53","","","M","25","","21","","","","94.62","","","","","","NA"
"-98.90","49.19","PILOT MOUND (AUT)","5022125","2019-04-15 16:00","2019","04","15","16:00","10.8","","3.3","","60","","","M","30","","19","","","","94.70","","","","","","NA"
"-98.90","49.19","PILOT MOUND (AUT)","5022125","2019-04-15 17:00","2019","04","15","17:00","10.4","","3.4","","62","","","M","23","","8","","","","94.75","","","","","","NA"
"-98.90","49.19","PILOT MOUND (AUT)","5022125","2019-04-15 18:00","2019","04","15","18:00","10.9","","3.9","","62","","","M","20","","10","","","","94.77","","","","","","NA"
"-98.90","49.19","PILOT MOUND (AUT)","5022125","2019-04-15 19:00","2019","04","15","19:00","9.9","","4.1","","67","","","M","24","","11","","","","94.81","","","","","","NA"
"-98.90","49.19","PILOT MOUND (AUT)","5022125","2019-04-15 20:00","2019","04","15","20:00","5.8","","1.6","","74","","","M","20","","10","","","","94.90","","","","","","NA"
"-98.90","49.19","PILOT MOUND (AUT)","5022125","2019-04-15 21:00","2019","04","15","21:00","5.4","","2.1","","79","","","M","19","","4","","","","94.97","","","","","","NA"
"-98.90","49.19","PILOT MOUND (AUT)","5022125","2019-04-15 22:00","2019","04","15","22:00","2.0","","0.1","","88","","","M","18","","8","","","","95.01","","","","","","NA"
"-98.90","49.19","PILOT MOUND (AUT)","5022125","2019-04-15 23:00","2019","04","15","23:00","0.8","","-1.3","","86","","","M","21","","9","","","","95.06","","","","","","NA"
"-98.90","49.19","PILOT MOUND (AUT)","5022125","2019-04-16 00:00","2019","04","16","00:00","0.9","","-1.8","","82","","","M","23","","9","","","","95.10","","","","","","NA"
"-98.90","49.19","PILOT MOUND (AUT)","5022125","2019-04-16 01:00","2019","04","16","01:00","-0.2","","-2.3","","86","","","M","21","","7","","","","95.14","","","","-3","","NA"
"-98.90","49.19","PILOT MOUND (AUT)","5022125","2019-04-16 02:00","2019","04","16","02:00","-0.2","","-2.5","","85","","","M","22","","11","","","","95.18","","","","-4","","NA"
"-98.90","49.19","PILOT MOUND (AUT)","5022125","2019-04-16 03:00","2019","04","16","03:00","-0.2","","-2.9","","82","","","M","23","","11","","","","95.20","","","","-4","","NA"
"-98.90","49.19","PILOT MOUND (AUT)","5022125","2019-04-16 04:00","2019","04","16","04:00","-0.6","","-3.5","","81","","","M","23","","11","","","","95.26","","","","-4","","NA"
"-98.90","49.19","PILOT MOUND (AUT)","5022125","2019-04-16 05:00","2019","04","16","05:00","-1.4","","-4.0","","83","","","M","25","","7","","","","95.30","","","","-4","","NA"
"-98.90","49.19","PILOT MOUND (AUT)","5022125","2019-04-16 06:00","2019","04","16","06:00","-0.2","","-4.6","","72","","","M","25","","6","","","","95.37","","","","-2","","NA"
"-98.90","49.19","PILOT MOUND (AUT)","5022125","2019-04-16 07:00","2019","04","16","07:00","1.4","","-2.4","","76","","","M","22","","4","","","","95.47","","","","","","NA"
"-98.90","49.19","PILOT MOUND (AUT)","5022125","2019-04-16 08:00","2019","04","16","08:00","4.7","","-1.4","","65","","","M","24","","7","","","","95.54","","","","","","NA"
"-98.90","49.19","PILOT MOUND (AUT)","5022125","2019-04-16 09:00","2019","04","16","09:00","8.2","","0.5","","59","","","M","29","","10","","","","95.57","","","","","","NA"
"-98.90","49.19","PILOT MOUND (AUT)","5022125","2019-04-16 10:00","2019","04","16","10:00","10.7","","2.4","","56","","","M","31","","16","","","","95.63","","","","","","NA"
"-98.90","49.19","PILOT MOUND (AUT)","5022125","2019-04-16 11:00","2019","04","16","11:00","11.7","","1.7","","50","","","M","30","","16","","","","95.66","","","","","","NA"
"-98.90","49.19","PILOT MOUND (AUT)","5022125","2019-04-16 12:00","2019","04","16","12:00","13.0","","0.0","","41","","","M","29","","20","","","","95.69","","","","","","NA"
"-98.90","49.19","PILOT MOUND (AUT)","5022125","2019-04-16 13:00","2019","04","16","13:00","14.0","","-1.3","","35","","","M","26","","19","","","","95.68","","","","","","NA"
"-98.90","49.19","PILOT MOUND (AUT)","5022125","2019-04-16 14:00","2019","04","16","14:00","14.8","","-0.7","","35","","","M","26","","22","","","","95.66","","","","","","NA"
"-98.90","49.19","PILOT MOUND (AUT)","5022125","2019-04-16 15:00","2019","04","16","15:00","14.2","","-1.5","","34","","","M","29","","26","","","","95.68","","","","","","NA"
"-98.90","49.19","PILOT MOUND (AUT)","5022125","2019-04-16 16:00","2019","04","16","16:00","14.2","","-1.0","","35","","","M","28","","18","","","","95.68","","","","","","NA"
"-98.90","49.19","PILOT MOUND (AUT)","5022125","2019-04-16 17:00","2019","04","16","17:00","14.0","","0.1","","39","","","M","30","","15","","","","95.69","","","","","","NA"
"-98.90","49.19","PILOT MOUND (AUT)","5022125","2019-04-16 18:00","2019","04","16","18:00","13.2","","-1.0","","38","","","M","32","","11","","","","95.72","","","","","","NA"
"-98.90","49.19","PILOT MOUND (AUT)","5022125","2019-04-16 19:00","2019","04","16","19:00","10.5","","0.6","","50","","","M","36","","8","","","","95.75","","","","","","NA"
"-98.90","49.19","PILOT MOUND (AUT)","5022125","2019-04-16 20:00","2019","04","16","20:00","7.5","","1.9","","68","","","M","8","","8","","","","95.77","","","","","","NA"
"-98.90","49.19","PILOT MOUND (AUT)","5022125","2019-04-16 21:00","2019","04","16","21:00","8.9","","0.5","","56","","","M","5","","11","","","","95.79","","","","","","NA"
"-98.90","49.19","PILOT MOUND (AUT)","5022125","2019-04-16 22:00","2019","04","16","22:00","6.5","","1.0","","68","","","M","6","","13","","","","95.81","","","","","","NA"
"-98.90","49.19","PILOT MOUND (AUT)","5022125","2019-04-16 23:00","2019","04","16","23:00","5.5","","1.0","","73","","","M","6","","15","","","","95.83","","","","","","NA"
"-98.90","49.19","PILOT MOUND (AUT)","5022125","2019-04-17 00:00","2019","04","17","00:00","4.4","","0.3","","75","","","M","6","","15","","","","95.86","","","","","","NA"
"-98.90","49.19","PILOT MOUND (AUT)","5022125","2019-04-17 01:00","2019","04","17","01:00","4.7","","0.5","","74","","","M","6","","18","","","","95.87","","","","","","NA"
"-98.90","49.19","PILOT MOUND (AUT)","5022125","2019-04-17 02:00","2019","04","17","02:00","4.7","","0.4","","74","","","M","7","","16","","","","95.85","","","","","","NA"
"-98.90","49.19","PILOT MOUND (AUT)","5022125","2019-04-17 03:00","2019","04","17","03:00","4.7","","1.0","","77","","","M","8","","19","","","","95.83","","","","","","NA"
"-98.90","49.19","PILOT MOUND (AUT)","5022125","2019-04-17 04:00","2019","04","17","04:00","3.7","","0.5","","80","","","M","11","","17","","","","95.84","","","","","","NA"
"-98.90","49.19","PILOT MOUND (AUT)","5022125","2019-04-17 05:00","2019","04","17","05:00","2.9","","0.3","","83","","","M","8","","13","","","","95.84","","","","","","NA"
"-98.90","49.19","PILOT MOUND (AUT)","5022125","2019-04-17 06:00","2019","04","17","06:00","3.0","","0.5","","83","","","M","10","","9","","","","95.84","","","","","","NA"
"-98.90","49.19","PILOT MOUND (AUT)","5022125","2019-04-17 07:00","2019","04","17","07:00","4.2","","1.0","","80","","","M","9","","11","","","","95.80","","","","","","NA"
"-98.90","49.19","PILOT MOUND (AUT)","5022125","2019-04-17 08:00","2019","04","17","08:00","6.0","","1.3","","72","","","M","9","","14","","","","95.78","","","","","","NA"
"-98.90","49.19","PILOT MOUND (AUT)","5022125","2019-04-17 09:00","2019","04","17","09:00","7.2","","1.2","","65","","","M","9","","17","","","","95.76","","","","","","NA"
"-98.90","49.19","PILOT MOUND (AUT)","5022125","2019-04-17 10:00","2019","04","17","10:00","8.6","","1.5","","61","","","M","10","","16","","","","95.71","","","","","","NA"
"-98.90","49.19","PILOT MOUND (AUT)","5022125","2019-04-17 11:00","2019","04","17","11:00","9.5","","2.1","","60","","","M","11","","12","","","","95.69","","","","","","NA"
"-98.90","49.19","PILOT MOUND (AUT)","5022125","2019-04-17 12:00","2019","04","17","12:00","10.1","","3.7","","64","","","M","3","","3","","","","95.65","","","","","","NA"
"-98.90","49.19","PILOT MOUND (AUT)","5022125","2019-04-17 13:00","2019","04","17","13:00","10.8","","2.6","","57","","","M","4","","6","","","","95.60","","","","","","NA"
"-98.90","49.19","PILOT MOUND (AUT)","5022125","2019-04-17 14:00","2019","04","17","14:00","11.3","","2.3","","54","","","M","2","","9","","","","95.53","","","","","","NA"
"-98.90","49.19","PILOT MOUND (AUT)","5022125","2019-04-17 15:00","2019","04","17","15:00","11.5","","1.8","","51","","","M","6","","10","","","","95.51","","","","","","NA"
"-98.90","49.19","PILOT MOUND (AUT)","5022125","2019-04-17 16:00","2019","04","17","16:00","11.5","","2.6","","54","","","M","3","","11","","","","95.49","","","","","","NA"
"-98.90","49.19","PILOT MOUND (AUT)","5022125","2019-04-17 17:00","2019","04","17","17:00","9.9","","4.2","","68","","","M","4","","16","","","","95.52","","","","","","NA"
"-98.90","49.19","PILOT MOUND (AUT)","5022125","2019-04-17 18:00","2019","04","17","18:00","9.4","","3.7","","68","","","M","1","","10","","","","95.54","","","","","","NA"
"-98.90","49.19","PILOT MOUND (AUT)","5022125","2019-04-17 19:00","2019","04","17","19:00","6.7","","5.2","","90","","","M","25","","17","","","","95.56","","","","","","NA"
"-98.90","49.19","PILOT MOUND (AUT)","5022125","2019-04-17 20:00","2019","04","17","20:00","6.0","","4.6","","91","","","M","23","","9","","","","95.60","","","","","","NA"
"-98.90","49.19","PILOT MOUND (AUT)","5022125","2019-04-17 21:00","2019","04","17","21:00","5.3","","4.1","","92","","","M","26","","13","","","","95.64","","","","","","NA"
"-98.90","49.19","PILOT MOUND (AUT)","5022125","2019-04-17 22:00","2019","04","17","22:00","4.6","","3.5","","92","","","M","28","","9","","","","95.65","","","","","","NA"
"-98.90","49.19","PILOT MOUND (AUT)","5022125","2019-04-17 23:00","2019","04","17","23:00","3.3","","2.4","","94","","","M","29","","10","","","","95.66","","","","","","NA"
"-98.90","49.19","PILOT MOUND (AUT)","5022125","2019-04-18 00:00","2019","04","18","00:00","3.5","","2.8","","95","","","M","29","","9","","","","95.68","","","","","","NA"
"-98.90","49.19","PILOT MOUND (AUT)","5022125","2019-04-18 01:00","2019","04","18","01:00","4.0","","3.2","","95","","","M","31","","9","","","","95.70","","","","","","NA"
"-98.90","49.19","PILOT MOUND (AUT)","5022125","2019-04-18 02:00","2019","04","18","02:00","3.9","","3.1","","95","","","M","32","","9","","","","95.68","","","","","","NA"
"-98.90","49.19","PILOT MOUND (AUT)","5022125","2019-04-18 03:00","2019","04","18","03:00","3.1","","2.5","","95","","","M","33","","11","","","","95.66","","","","","","NA"
"-98.90","49.19","PILOT MOUND (AUT)","5022125","2019-04-18 04:00","2019","04","18","04:00","1.9","","1.3","","96","","","M","33","","10","","","","95.68","","","","","","NA"
"-98.90","49.19","PILOT MOUND (AUT)","5022125","2019-04-18 05:00","2019","04","18","05:00","1.5","","1.0","","96","","","M","31","","9","","","","95.73","","","","","","NA"
"-98.90","49.19","PILOT MOUND (AUT)","5022125","2019-04-18 06:00","2019","04","18","06:00","1.1","","0.6","","96","","","M","31","","10","","","","95.79","","","","","","NA"
"-98.90","49.19","PILOT MOUND (AUT)","5022125","2019-04-18 07:00","2019","04","18","07:00","2.3","","1.8","","96","","","M","31","","9","","","","95.86","","","","","","NA"
"-98.90","49.19","PILOT MOUND (AUT)","5022125","2019-04-18 08:00","2019","04","18","08:00","3.6","","3.0","","96","","","M","30","","7","","","","95.94","","","","","","NA"
"-98.90","49.19","PILOT MOUND (AUT)","5022125","2019-04-18 09:00","2019","04","18","09:00","5.7","","3.6","","86","","","M","30","","8","","","","95.98","","","","","","NA"
"-98.90","49.19","PILOT MOUND (AUT)","5022125","2019-04-18 10:00","2019","04","18","10:00","9.7","","1.0","","55","","","M","33","","11","","","","96.03","","","","","","NA"
"-98.90","49.19","PILOT MOUND (AUT)","5022125","2019-04-18 11:00","2019","04","18","11:00","11.2","","-2.8","","37","","","M","36","","10","","","","96.08","","","","","","NA"
"-98.90","49.19","PILOT MOUND (AUT)","5022125","2019-04-18 12:00","2019","04","18","12:00","11.9","","-3.4","","34","","","M","33","","8","","","","96.09","","","","","","NA"
"-98.90","49.19","PILOT MOUND (AUT)","5022125","2019-04-18 13:00","2019","04","18","13:00","13.0","","-4.8","","28","","","M","18","","4","","","","96.08","","","","","","NA"
"-98.90","49.19","PILOT MOUND (AUT)","5022125","2019-04-18 14:00","2019","04","18","14:00","12.7","","-3.9","","31","","","M","26","","10","","","","96.11","","","","","","NA"
"-98.90","49.19","PILOT MOUND (AUT)","5022125","2019-04-18 15:00","2019","04","18","15:00","13.0","","-5.3","","27","","","M","30","","15","","","","96.11","","","","","","NA"
"-98.90","49.19","PILOT MOUND (AUT)","5022125","2019-04-18 16:00","2019","04","18","16:00","13.0","","-6.0","","26","","","M","28","","18","","","","96.09","","","","","","NA"
"-98.90","49.19","PILOT MOUND (AUT)","5022125","2019-04-18 17:00","2019","04","18","17:00","13.4","","-2.5","","33","","","M","29","","10","","","","96.08","","","","","","NA"
"-98.90","49.19","PILOT MOUND (AUT)","5022125","2019-04-18 18:00","2019","04","18","18:00","12.1","","-0.1","","43","","","M","27","","19","","","","96.10","","","","","","NA"
"-98.90","49.19","PILOT MOUND (AUT)","5022125","2019-04-18 19:00","2019","04","18","19:00","10.0","","1.9","","57","","","M","27","","18","","","","96.11","","","","","","NA"
"-98.90","49.19","PILOT MOUND (AUT)","5022125","2019-04-18 20:00","2019","04","18","20:00","5.2","","1.3","","76","","","M","25","","11","","","","96.12","","","","","","NA"
"-98.90","49.19","PILOT MOUND (AUT)","5022125","2019-04-18 21:00","2019","04","18","21:00","3.6","","-0.1","","77","","","M","25","","7","","","","96.11","","","","","","NA"
"-98.90","49.19","PILOT MOUND (AUT)","5022125","2019-04-18 22:00","2019","04","18","22:00","2.6","","0.5","","86","","","M","22","","12","","","","96.10","","","","","","NA"
"-98.90","49.19","PILOT MOUND (AUT)","5022125","2019-04-18 23:00","2019","04","18","23:00","1.2","","-0.6","","88","","","M","22","","10","","","","96.04","","","","","","NA"
"-98.90","49.19","PILOT MOUND (AUT)","5022125","2019-04-19 00:00","2019","04","19","00:00","0.2","","-1.5","","89","","","M","20","","9","","","","96.02","","","","","","NA"
"-98.90","49.19","PILOT MOUND (AUT)","5022125","2019-04-19 01:00","2019","04","19","01:00","0.4","","-0.9","","91","","","M","19","","8","","","","95.96","","","","","","NA"
"-98.90","49.19","PILOT MOUND (AUT)","5022125","2019-04-19 02:00","2019","04","19","02:00","1.3","","-0.6","","87","","","M","20","","11","","","","95.89","","","","","","NA"
"-98.90","49.19","PILOT MOUND (AUT)","5022125","2019-04-19 03:00","2019","04","19","03:00","2.5","","0.7","","88","","","M","20","","14","","","","95.86","","","","","","NA"
"-98.90","49.19","PILOT MOUND (AUT)","5022125","2019-04-19 04:00","2019","04","19","04:00","0.9","","-0.3","","91","","","M","19","","4","","","","95.86","","","","","","NA"
"-98.90","49.19","PILOT MOUND (AUT)","5022125","2019-04-19 05:00","2019","04","19","05:00","0.1","","-0.9","","93","","","M","18","","12","","","","95.78","","","","","","NA"
"-98.90","49.19","PILOT MOUND (AUT)","5022125","2019-04-19 06:00","2019","04","19","06:00","0.1","","-1.4","","90","","","M","17","","12","","","","95.80","","","","","","NA"
"-98.90","49.19","PILOT MOUND (AUT)","5022125","2019-04-19 07:00","2019","04","19","07:00","2.4","","0.5","","87","","","M","17","","14","","","","95.72","","","","","","NA"
"-98.90","49.19","PILOT MOUND (AUT)","5022125","2019-04-19 08:00","2019","04","19","08:00","6.1","","2.7","","79","","","M","19","","15","","","","95.67","","","","","","NA"
"-98.90","49.19","PILOT MOUND (AUT)","5022125","2019-04-19 09:00","2019","04","19","09:00","9.4","","2.8","","63","","","M","18","","16","","","","95.59","","","","","","NA"
"-98.90","49.19","PILOT MOUND (AUT)","5022125","2019-04-19 10:00","2019","04","19","10:00","12.0","","2.2","","51","","","M","19","","22","","","","95.52","","","","","","NA"
"-98.90","49.19","PILOT MOUND (AUT)","5022125","2019-04-19 11:00","2019","04","19","11:00","13.2","","2.4","","48","","","M","18","","24","","","","95.45","","","","","","NA"
"-98.90","49.19","PILOT MOUND (AUT)","5022125","2019-04-19 12:00","2019","04","19","12:00","16.7","","3.4","","41","","","M","18","","32","","","","95.32","","","","","","NA"
"-98.90","49.19","PILOT MOUND (AUT)","5022125","2019-04-19 13:00","2019","04","19","13:00","15.0","","4.5","","50","","","M","17","","35","","","","95.21","","","","","","NA"
"-98.90","49.19","PILOT MOUND (AUT)","5022125","2019-04-19 14:00","2019","04","19","14:00","19.2","","1.9","","32","","","M","18","","42","","","","95.08","","","","","","NA"
"-98.90","49.19","PILOT MOUND (AUT)","5022125","2019-04-19 15:00","2019","04","19","15:00","19.5","","0.7","","28","","","M","20","","43","","","","94.97","","","","","","NA"
"-98.90","49.19","PILOT MOUND (AUT)","5022125","2019-04-19 16:00","2019","04","19","16:00","20.2","","3.1","","32","","","M","18","","40","","","","94.85","","","","","","NA"
"-98.90","49.19","PILOT MOUND (AUT)","5022125","2019-04-19 17:00","2019","04","19","17:00","20.1","","4.9","","37","","","M","17","","35","","","","94.74","","","","","","NA"
"-98.90","49.19","PILOT MOUND (AUT)","5022125","2019-04-19 18:00","2019","04","19","18:00","22.4","","3.6","","29","","","M","27","","26","","","","94.73","","","","","","NA"
"-98.90","49.19","PILOT MOUND (AUT)","5022125","2019-04-19 19:00","2019","04","19","19:00","18.2","","4.6","","41","","","M","26","","15","","","","94.70","","","","","","NA"
"-98.90","49.19","PILOT MOUND (AUT)","5022125","2019-04-19 20:00","2019","04","19","20:00","13.0","","4.7","","57","","","M","20","","14","","","","94.66","","","","","","NA"
"-98.90","49.19","PILOT MOUND (AUT)","5022125","2019-04-19 21:00","2019","04","19","21:00","10.6","","5.1","","68","","","M","21","","8","","","","94.67","","","","","","NA"
"-98.90","49.19","PILOT MOUND (AUT)","5022125","2019-04-19 22:00","2019","04","19","22:00","10.3","","5.6","","72","","","M","18","","16","","","","94.63","","","","","","NA"
"-98.90","49.19","PILOT MOUND (AUT)","5022125","2019-04-19 23:00","2019","04","19","23:00","9.1","","5.7","","79","","","M","19","","10","","","","94.63","","","","","","NA"
"-98.90","49.19","PILOT MOUND (AUT)","5022125","2019-04-20 00:00","2019","04","20","00:00","10.3","","5.5","","72","","","M","23","","11","","","","94.71","","","","","","NA"
"-98.90","49.19","PILOT MOUND (AUT)","5022125","2019-04-20 01:00","2019","04","20","01:00","12.8","","5.5","","61","","","M","31","","20","","","","94.85","","","","","","NA"
"-98.90","49.19","PILOT MOUND (AUT)","5022125","2019-04-20 02:00","2019","04","20","02:00","11.8","","5.5","","65","","","M","36","","20","","","","94.77","","","","","","NA"
"-98.90","49.19","PILOT MOUND (AUT)","5022125","2019-04-20 03:00","2019","04","20","03:00","10.6","","5.1","","69","","","M","1","","20","","","","94.86","","","","","","NA"
"-98.90","49.19","PILOT MOUND (AUT)","5022125","2019-04-20 04:00","2019","04","20","04:00","9.4","","3.2","","65","","","M","3","","22","","","","94.78","","","","","","NA"
"-98.90","49.19","PILOT MOUND (AUT)","5022125","2019-04-20 05:00","2019","04","20","05:00","8.9","","3.0","","67","","","M","2","","14","","","","94.88","","","","","","NA"
"-98.90","49.19","PILOT MOUND (AUT)","5022125","2019-04-20 06:00","2019","04","20","06:00","6.7","","4.1","","84","","","M","7","","10","","","","94.88","","","","","","NA"
"-98.90","49.19","PILOT MOUND (AUT)","5022125","2019-04-20 07:00","2019","04","20","07:00","8.1","","4.5","","78","","","M","6","","11","","","","94.95","","","","","","NA"
"-98.90","49.19","PILOT MOUND (AUT)","5022125","2019-04-20 08:00","2019","04","20","08:00","10.6","","4.6","","66","","","M","4","","11","","","","94.99","","","","","","NA"
"-98.90","49.19","PILOT MOUND (AUT)","5022125","2019-04-20 09:00","2019","04","20","09:00","12.1","","3.3","","55","","","M","5","","17","","","","95.04","","","","","","NA"
"-98.90","49.19","PILOT MOUND (AUT)","5022125","2019-04-20 10:00","2019","04","20","10:00","12.3","","1.9","","49","","","M","4","","16","","","","95.12","","","","","","NA"
"-98.90","49.19","PILOT MOUND (AUT)","5022125","2019-04-20 11:00","2019","04","20","11:00","12.2","","2.2","","50","","","M","2","","13","","","","95.21","","","","","","NA"
"-98.90","49.19","PILOT MOUND (AUT)","5022125","2019-04-20 12:00","2019","04","20","12:00","12.7","","2.5","","50","","","M","2","","15","","","","95.24","","","","","","NA"
"-98.90","49.19","PILOT MOUND (AUT)","5022125","2019-04-20 13:00","2019","04","20","13:00","13.2","","2.6","","49","","","M","3","","15","","","","95.27","","","","","","NA"
"-98.90","49.19","PILOT MOUND (AUT)","5022125","2019-04-20 14:00","2019","04","20","14:00","14.4","","1.1","","40","","","M","5","","14","","","","95.30","","","","","","NA"
"-98.90","49.19","PILOT MOUND (AUT)","5022125","2019-04-20 15:00","2019","04","20","15:00","15.7","","-0.3","","34","","","M","7","","15","","","","95.31","","","","","","NA"
"-98.90","49.19","PILOT MOUND (AUT)","5022125","2019-04-20 16:00","2019","04","20","16:00","15.4","","-0.6","","34","","","M","8","","9","","","","95.31","","","","","","NA"
"-98.90","49.19","PILOT MOUND (AUT)","5022125","2019-04-20 17:00","2019","04","20","17:00","16.3","","0.0","","33","","","M","8","","11","","","","95.33","","","","","","NA"
"-98.90","49.19","PILOT MOUND (AUT)","5022125","2019-04-20 18:00","2019","04","20","18:00","15.7","","-0.7","","33","","","M","12","","13","","","","95.39","","","","","","NA"
"-98.90","49.19","PILOT MOUND (AUT)","5022125","2019-04-20 19:00","2019","04","20","19:00","13.3","","1.9","","46","","","M","14","","12","","","","95.44","","","","","","NA"
"-98.90","49.19","PILOT MOUND (AUT)","5022125","2019-04-20 20:00","2019","04","20","20:00","9.2","","3.9","","69","","","M","17","","9","","","","95.46","","","","","","NA"
"-98.90","49.19","PILOT MOUND (AUT)","5022125","2019-04-20 21:00","2019","04","20","21:00","7.9","","3.2","","72","","","M","","","0","","","","95.54","","","","","","NA"
"-98.90","49.19","PILOT MOUND (AUT)","5022125","2019-04-20 22:00","2019","04","20","22:00","8.4","","3.6","","72","","","M","3","","8","","","","95.56","","","","","","NA"
"-98.90","49.19","PILOT MOUND (AUT)","5022125","2019-04-20 23:00","2019","04","20","23:00","7.9","","2.6","","69","","","M","4","","7","","","","95.60","","","","","","NA"
"-98.90","49.19","PILOT MOUND (AUT)","5022125","2019-04-21 00:00","2019","04","21","00:00","9.6","","1.6","","58","","","M","5","","10","","","","95.65","","","","","","NA"
"-98.90","49.19","PILOT MOUND (AUT)","5022125","2019-04-21 01:00","2019","04","21","01:00","7.2","","1.1","","65","","","M","4","","11","","","","95.69","","","","","","NA"
"-98.90","49.19","PILOT MOUND (AUT)","5022125","2019-04-21 02:00","2019","04","21","02:00","6.0","","0.7","","69","","","M","6","","10","","","","95.71","","","","","","NA"
"-98.90","49.19","PILOT MOUND (AUT)","5022125","2019-04-21 03:00","2019","04","21","03:00","5.1","","0.7","","73","","","M","5","","11","","","","95.76","","","","","","NA"
"-98.90","49.19","PILOT MOUND (AUT)","5022125","2019-04-21 04:00","2019","04","21","04:00","5.2","","1.2","","75","","","M","4","","13","","","","95.80","","","","","","NA"
"-98.90","49.19","PILOT MOUND (AUT)","5022125","2019-04-21 05:00","2019","04","21","05:00","4.7","","0.5","","74","","","M","5","","12","","","","95.83","","","","","","NA"
"-98.90","49.19","PILOT MOUND (AUT)","5022125","2019-04-21 06:00","2019","04","21","06:00","4.3","","-0.1","","73","","","M","6","","13","","","","95.91","","","","","","NA"
"-98.90","49.19","PILOT MOUND (AUT)","5022125","2019-04-21 07:00","2019","04","21","07:00","7.9","","1.9","","66","","","M","8","","9","","","","96.00","","","","","","NA"
"-98.90","49.19","PILOT MOUND (AUT)","5022125","2019-04-21 08:00","2019","04","21","08:00","10.4","","2.0","","56","","","M","7","","10","","","","96.03","","","","","","NA"
"-98.90","49.19","PILOT MOUND (AUT)","5022125","2019-04-21 09:00","2019","04","21","09:00","13.6","","0.6","","41","","","M","11","","11","","","","96.05","","","","","","NA"
"-98.90","49.19","PILOT MOUND (AUT)","5022125","2019-04-21 10:00","2019","04","21","10:00","15.6","","-0.1","","34","","","M","14","","10","","","","96.11","","","","","","NA"
"-98.90","49.19","PILOT MOUND (AUT)","5022125","2019-04-21 11:00","2019","04","21","11:00","16.5","","-0.3","","32","","","M","14","","9","","","","96.18","","","","","","NA"
"-98.90","49.19","PILOT MOUND (AUT)","5022125","2019-04-21 12:00","2019","04","21","12:00","17.6","","0.2","","31","","","M","15","","7","","","","96.20","","","","","","NA"
"-98.90","49.19","PILOT MOUND (AUT)","5022125","2019-04-21 13:00","2019","04","21","13:00","16.7","","-0.7","","31","","","M","19","","11","","","","96.18","","","","","","NA"
"-98.90","49.19","PILOT MOUND (AUT)","5022125","2019-04-21 14:00","2019","04","21","14:00","16.2","","-0.6","","32","","","M","16","","14","","","","96.18","","","","","","NA"
"-98.90","49.19","PILOT MOUND (AUT)","5022125","2019-04-21 15:00","2019","04","21","15:00","15.5","","2.2","","41","","","M","21","","10","","","","96.22","","","","","","NA"
"-98.90","49.19","PILOT MOUND (AUT)","5022125","2019-04-21 16:00","2019","04","21","16:00","16.4","","0.9","","35","","","M","16","","6","","","","96.21","","","","","","NA"
"-98.90","49.19","PILOT MOUND (AUT)","5022125","2019-04-21 17:00","2019","04","21","17:00","16.0","","1.2","","37","","","M","22","","11","","","","96.24","","","","","","NA"
"-98.90","49.19","PILOT MOUND (AUT)","5022125","2019-04-21 18:00","2019","04","21","18:00","15.7","","1.9","","39","","","M","22","","19","","","","96.26","","","","","","NA"
"-98.90","49.19","PILOT MOUND (AUT)","5022125","2019-04-21 19:00","2019","04","21","19:00","14.4","","1.9","","43","","","M","20","","17","","","","96.28","","","","","","NA"
"-98.90","49.19","PILOT MOUND (AUT)","5022125","2019-04-21 20:00","2019","04","21","20:00","9.3","","2.9","","64","","","M","19","","14","","","","96.33","","","","","","NA"
"-98.90","49.19","PILOT MOUND (AUT)","5022125","2019-04-21 21:00","2019","04","21","21:00","7.9","","3.1","","72","","","M","26","","7","","","","96.40","","","","","","NA"
"-98.90","49.19","PILOT MOUND (AUT)","5022125","2019-04-21 22:00","2019","04","21","22:00","8.0","","-0.3","","56","","","M","36","","12","","","","96.45","","","","","","NA"
"-98.90","49.19","PILOT MOUND (AUT)","5022125","2019-04-21 23:00","2019","04","21","23:00","8.4","","-1.7","","49","","","M","33","","11","","","","96.47","","","","","","NA"
"-98.90","49.19","PILOT MOUND (AUT)","5022125","2019-04-22 00:00","2019","04","22","00:00","7.2","","-2.4","","51","","","M","33","","11","","","","96.53","","","","","","NA"
"-98.90","49.19","PILOT MOUND (AUT)","5022125","2019-04-22 01:00","2019","04","22","01:00","6.5","","-0.6","","60","","","M","34","","13","","","","96.58","","","","","","NA"
"-98.90","49.19","PILOT MOUND (AUT)","5022125","2019-04-22 02:00","2019","04","22","02:00","5.0","","-0.8","","66","","","M","34","","13","","","","96.60","","","","","","NA"
"-98.90","49.19","PILOT MOUND (AUT)","5022125","2019-04-22 03:00","2019","04","22","03:00","3.6","","-0.7","","73","","","M","34","","10","","","","96.59","","","","","","NA"
"-98.90","49.19","PILOT MOUND (AUT)","5022125","2019-04-22 04:00","2019","04","22","04:00","2.5","","-0.8","","79","","","M","34","","10","","","","96.63","","","","","","NA"
"-98.90","49.19","PILOT MOUND (AUT)","5022125","2019-04-22 05:00","2019","04","22","05:00","0.8","","-1.8","","83","","","M","32","","6","","","","96.70","","","","","","NA"
"-98.90","49.19","PILOT MOUND (AUT)","5022125","2019-04-22 06:00","2019","04","22","06:00","1.4","","-1.2","","83","","","M","33","","12","","","","96.73","","","","","","NA"
"-98.90","49.19","PILOT MOUND (AUT)","5022125","2019-04-22 07:00","2019","04","22","07:00","3.2","","-0.2","","78","","","M","32","","9","","","","96.79","","","","","","NA"
"-98.90","49.19","PILOT MOUND (AUT)","5022125","2019-04-22 08:00","2019","04","22","08:00","5.5","","0.9","","72","","","M","33","","17","","","","96.82","","","","","","NA"
"-98.90","49.19","PILOT MOUND (AUT)","5022125","2019-04-22 09:00","2019","04","22","09:00","8.7","","1.9","","63","","","M","33","","18","","","","96.85","","","","","","NA"
"-98.90","49.19","PILOT MOUND (AUT)","5022125","2019-04-22 10:00","2019","04","22","10:00","11.5","","3.1","","56","","","M","34","","16","","","","96.85","","","","","","NA"
"-98.90","49.19","PILOT MOUND (AUT)","5022125","2019-04-22 11:00","2019","04","22","11:00","12.8","","2.5","","50","","","M","35","","18","","","","96.85","","","","","","NA"
"-98.90","49.19","PILOT MOUND (AUT)","5022125","2019-04-22 12:00","2019","04","22","12:00","14.2","","-0.6","","36","","","M","36","","15","","","","96.80","","","","","","NA"
"-98.90","49.19","PILOT MOUND (AUT)","5022125","2019-04-22 13:00","2019","04","22","13:00","14.8","","-1.9","","32","","","M","35","","21","","","","96.77","","","","","","NA"
"-98.90","49.19","PILOT MOUND (AUT)","5022125","2019-04-22 14:00","2019","04","22","14:00","15.8","","-2.9","","27","","","M","3","","15","","","","96.74","","","","","","NA"
"-98.90","49.19","PILOT MOUND (AUT)","5022125","2019-04-22 15:00","2019","04","22","15:00","14.0","","-2.4","","32","","","M","36","","19","","","","96.69","","","","","","NA"
"-98.90","49.19","PILOT MOUND (AUT)","5022125","2019-04-22 16:00","2019","04","22","16:00","15.9","","-2.0","","29","","","M","1","","13","","","","96.67","","","","","","NA"
"-98.90","49.19","PILOT MOUND (AUT)","5022125","2019-04-22 17:00","2019","04","22","17:00","14.7","","-3.3","","29","","","M","35","","15","","","","96.68","","","","","","NA"
"-98.90","49.19","PILOT MOUND (AUT)","5022125","2019-04-22 18:00","2019","04","22","18:00","13.8","","-2.2","","33","","","M","5","","13","","","","96.64","","","","","","NA"
"-98.90","49.19","PILOT MOUND (AUT)","5022125","2019-04-22 19:00","2019","04","22","19:00","12.4","","-1.3","","39","","","M","5","","13","","","","96.63","","","","","","NA"
"-98.90","49.19","PILOT MOUND (AUT)","5022125","2019-04-22 20:00","2019","04","22","20:00","8.8","","-0.8","","51","","","M","7","","12","","","","96.64","","","","","","NA"
"-98.90","49.19","PILOT MOUND (AUT)","5022125","2019-04-22 21:00","2019","04","22","21:00","6.2","","0.4","","66","","","M","8","","7","","","","96.63","","","","","","NA"
"-98.90","49.19","PILOT MOUND (AUT)","5022125","2019-04-22 22:00","2019","04","22","22:00","5.2","","0.0","","69","","","M","9","","9","","","","96.60","","","","","","NA"
"-98.90","49.19","PILOT MOUND (AUT)","5022125","2019-04-22 23:00","2019","04","22","23:00","3.5","","-1.3","","71","","","M","10","","11","","","","96.56","","","","","","NA"
"-98.90","49.19","PILOT MOUND (AUT)","5022125","2019-04-23 00:00","2019","04","23","00:00","1.9","","-2.1","","75","","","M","10","","11","","","","96.54","","","","","","NA"
"-98.90","49.19","PILOT MOUND (AUT)","5022125","2019-04-23 01:00","2019","04","23","01:00","0.7","","-2.4","","79","","","M","14","","13","","","","96.48","","","","","","NA"
"-98.90","49.19","PILOT MOUND (AUT)","5022125","2019-04-23 02:00","2019","04","23","02:00","0.4","","-2.3","","82","","","M","14","","14","","","","96.41","","","","","","NA"
"-98.90","49.19","PILOT MOUND (AUT)","5022125","2019-04-23 03:00","2019","04","23","03:00","-0.1","","-2.3","","85","","","M","13","","13","","","","96.36","","","","-4","","NA"
"-98.90","49.19","PILOT MOUND (AUT)","5022125","2019-04-23 04:00","2019","04","23","04:00","0.0","","-2.3","","84","","","M","15","","13","","","","96.29","","","","-4","","NA"
"-98.90","49.19","PILOT MOUND (AUT)","5022125","2019-04-23 05:00","2019","04","23","05:00","1.4","","-1.5","","81","","","M","15","","12","","","","96.25","","","","","","NA"
"-98.90","49.19","PILOT MOUND (AUT)","5022125","2019-04-23 06:00","2019","04","23","06:00","2.2","","-1.0","","80","","","M","15","","13","","","","96.21","","","","","","NA"
"-98.90","49.19","PILOT MOUND (AUT)","5022125","2019-04-23 07:00","2019","04","23","07:00","5.4","","0.2","","69","","","M","15","","18","","","","96.15","","","","","","NA"
"-98.90","49.19","PILOT MOUND (AUT)","5022125","2019-04-23 08:00","2019","04","23","08:00","8.1","","0.6","","59","","","M","16","","24","","","","96.06","","","","","","NA"
"-98.90","49.19","PILOT MOUND (AUT)","5022125","2019-04-23 09:00","2019","04","23","09:00","10.8","","0.8","","50","","","M","16","","32","","","","95.97","","","","","","NA"
"-98.90","49.19","PILOT MOUND (AUT)","5022125","2019-04-23 10:00","2019","04","23","10:00","13.2","","2.3","","48","","","M","16","","36","","","","95.85","","","","","","NA"
"-98.90","49.19","PILOT MOUND (AUT)","5022125","2019-04-23 11:00","2019","04","23","11:00","16.4","","2.6","","40","","","M","17","","34","","","","95.74","","","","","","NA"
"-98.90","49.19","PILOT MOUND (AUT)","5022125","2019-04-23 12:00","2019","04","23","12:00","16.5","","2.7","","40","","","M","18","","40","","","","95.64","","","","","","NA"
"-98.90","49.19","PILOT MOUND (AUT)","5022125","2019-04-23 13:00","2019","04","23","13:00","16.3","","3.2","","41","","","M","18","","32","","","","95.56","","","","","","NA"
"-98.90","49.19","PILOT MOUND (AUT)","5022125","2019-04-23 14:00","2019","04","23","14:00","16.0","","4.4","","46","","","M","19","","32","","","","95.48","","","","","","NA"
"-98.90","49.19","PILOT MOUND (AUT)","5022125","2019-04-23 15:00","2019","04","23","15:00","17.4","","4.9","","44","","","M","18","","34","","","","95.34","","","","","","NA"
"-98.90","49.19","PILOT MOUND (AUT)","5022125","2019-04-23 16:00","2019","04","23","16:00","16.2","","6.0","","51","","","M","16","","27","","","","95.22","","","","","","NA"
"-98.90","49.19","PILOT MOUND (AUT)","5022125","2019-04-23 17:00","2019","04","23","17:00","16.2","","6.9","","54","","","M","16","","22","","","","95.15","","","","","","NA"
"-98.90","49.19","PILOT MOUND (AUT)","5022125","2019-04-23 18:00","2019","04","23","18:00","18.9","","5.3","","41","","","M","19","","21","","","","95.11","","","","","","NA"
"-98.90","49.19","PILOT MOUND (AUT)","5022125","2019-04-23 19:00","2019","04","23","19:00","16.0","","5.8","","51","","","M","18","","14","","","","95.03","","","","","","NA"
"-98.90","49.19","PILOT MOUND (AUT)","5022125","2019-04-23 20:00","2019","04","23","20:00","11.7","","6.1","","69","","","M","15","","11","","","","95.01","","","","","","NA"
"-98.90","49.19","PILOT MOUND (AUT)","5022125","2019-04-23 21:00","2019","04","23","21:00","10.7","","6.0","","73","","","M","18","","9","","","","94.98","","","","","","NA"
"-98.90","49.19","PILOT MOUND (AUT)","5022125","2019-04-23 22:00","2019","04","23","22:00","10.4","","4.9","","69","","","M","23","","7","","","","94.99","","","","","","NA"
"-98.90","49.19","PILOT MOUND (AUT)","5022125","2019-04-23 23:00","2019","04","23","23:00","10.5","","4.6","","67","","","M","27","","8","","","","94.98","","","","","","NA"
"-98.90","49.19","PILOT MOUND (AUT)","5022125","2019-04-24 00:00","2019","04","24","00:00","9.7","","3.9","","67","","","M","25","","4","","","","94.96","","","","","","NA"
"-98.90","49.19","PILOT MOUND (AUT)","5022125","2019-04-24 01:00","2019","04","24","01:00","10.0","","2.1","","58","","","M","31","","10","","","","94.98","","","","","","NA"
"-98.90","49.19","PILOT MOUND (AUT)","5022125","2019-04-24 02:00","2019","04","24","02:00","8.2","","0.5","","59","","","M","31","","6","","","","94.94","","","","","","NA"
"-98.90","49.19","PILOT MOUND (AUT)","5022125","2019-04-24 03:00","2019","04","24","03:00","7.6","","0.9","","63","","","M","30","","8","","","","94.98","","","","","","NA"
"-98.90","49.19","PILOT MOUND (AUT)","5022125","2019-04-24 04:00","2019","04","24","04:00","8.5","","0.9","","59","","","M","30","","8","","","","94.97","","","","","","NA"
"-98.90","49.19","PILOT MOUND (AUT)","5022125","2019-04-24 05:00","2019","04","24","05:00","10.5","","-0.8","","45","","","M","32","","15","","","","95.00","","","","","","NA"
"-98.90","49.19","PILOT MOUND (AUT)","5022125","2019-04-24 06:00","2019","04","24","06:00","8.6","","1.3","","60","","","M","30","","17","","","","95.05","","","","","","NA"
"-98.90","49.19","PILOT MOUND (AUT)","5022125","2019-04-24 07:00","2019","04","24","07:00","9.6","","2.4","","61","","","M","28","","10","","","","95.09","","","","","","NA"
"-98.90","49.19","PILOT MOUND (AUT)","5022125","2019-04-24 08:00","2019","04","24","08:00","11.6","","3.2","","56","","","M","28","","12","","","","95.12","","","","","","NA"
"-98.90","49.19","PILOT MOUND (AUT)","5022125","2019-04-24 09:00","2019","04","24","09:00","15.3","","3.4","","45","","","M","29","","29","","","","95.10","","","","","","NA"
"-98.90","49.19","PILOT MOUND (AUT)","5022125","2019-04-24 10:00","2019","04","24","10:00","17.7","","3.2","","38","","","M","30","","25","","","","95.09","","","","","","NA"
"-98.90","49.19","PILOT MOUND (AUT)","5022125","2019-04-24 11:00","2019","04","24","11:00","17.8","","-2.7","","25","","","M","29","","34","","","","95.07","","","","","","NA"
"-98.90","49.19","PILOT MOUND (AUT)","5022125","2019-04-24 12:00","2019","04","24","12:00","18.5","","-3.0","","23","","","M","29","","36","","","","95.05","","","","","","NA"
"-98.90","49.19","PILOT MOUND (AUT)","5022125","2019-04-24 13:00","2019","04","24","13:00","19.5","","-3.4","","21","","","M","30","","32","","","","95.06","","","","","","NA"
"-98.90","49.19","PILOT MOUND (AUT)","5022125","2019-04-24 14:00","2019","04","24","14:00","19.1","","-4.4","","20","","","M","30","","35","","","","95.08","","","","","","NA"
"-98.90","49.19","PILOT MOUND (AUT)","5022125","2019-04-24 15:00","2019","04","24","15:00","19.9","","-2.1","","23","","","M","29","","37","","","","95.08","","","","","","NA"
"-98.90","49.19","PILOT MOUND (AUT)","5022125","2019-04-24 16:00","2019","04","24","16:00","19.0","","-3.8","","21","","","M","30","","34","","","","95.13","","","","","","NA"
"-98.90","49.19","PILOT MOUND (AUT)","5022125","2019-04-24 17:00","2019","04","24","17:00","18.5","","-6.2","","18","","","M","30","","36","","","","95.17","","","","","","NA"
"-98.90","49.19","PILOT MOUND (AUT)","5022125","2019-04-24 18:00","2019","04","24","18:00","16.9","","-5.2","","22","","","M","31","","23","","","","95.18","","","","","","NA"
"-98.90","49.19","PILOT MOUND (AUT)","5022125","2019-04-24 19:00","2019","04","24","19:00","15.8","","-4.2","","25","","","M","30","","17","","","","95.21","","","","","","NA"
"-98.90","49.19","PILOT MOUND (AUT)","5022125","2019-04-24 20:00","2019","04","24","20:00","11.4","","-4.3","","33","","","M","30","","17","","","","95.26","","","","","","NA"
"-98.90","49.19","PILOT MOUND (AUT)","5022125","2019-04-24 21:00","2019","04","24","21:00","9.0","","-5.1","","37","","","M","30","","11","","","","95.33","","","","","","NA"
"-98.90","49.19","PILOT MOUND (AUT)","5022125","2019-04-24 22:00","2019","04","24","22:00","6.9","","-5.0","","42","","","M","29","","13","","","","95.39","","","","","","NA"
"-98.90","49.19","PILOT MOUND (AUT)","5022125","2019-04-24 23:00","2019","04","24","23:00","4.7","","-4.8","","50","","","M","29","","10","","","","95.42","","","","","","NA"
"-98.90","49.19","PILOT MOUND (AUT)","5022125","2019-04-25 00:00","2019","04","25","00:00","4.1","","-5.7","","49","","","M","27","","11","","","","95.46","","","","","","NA"
"-98.90","49.19","PILOT MOUND (AUT)","5022125","2019-04-25 01:00","2019","04","25","01:00","2.4","","-5.4","","57","","","M","23","","7","","","","95.48","","","","","","NA"
"-98.90","49.19","PILOT MOUND (AUT)","5022125","2019-04-25 02:00","2019","04","25","02:00","1.7","","-5.1","","60","","","M","26","","9","","","","95.49","","","","","","NA"
"-98.90","49.19","PILOT MOUND (AUT)","5022125","2019-04-25 03:00","2019","04","25","03:00","2.0","","-5.2","","58","","","M","25","","5","","","","95.53","","","","","","NA"
"-98.90","49.19","PILOT MOUND (AUT)","5022125","2019-04-25 04:00","2019","04","25","04:00","1.8","","-5.4","","59","","","M","26","","10","","","","95.59","","","","","","NA"
"-98.90","49.19","PILOT MOUND (AUT)","5022125","2019-04-25 05:00","2019","04","25","05:00","2.4","","-4.5","","60","","","M","29","","15","","","","95.65","","","","","","NA"
"-98.90","49.19","PILOT MOUND (AUT)","5022125","2019-04-25 06:00","2019","04","25","06:00","4.5","","-3.4","","57","","","M","29","","20","","","","95.71","","","","","","NA"
"-98.90","49.19","PILOT MOUND (AUT)","5022125","2019-04-25 07:00","2019","04","25","07:00","6.9","","-2.1","","52","","","M","28","","21","","","","95.75","","","","","","NA"
"-98.90","49.19","PILOT MOUND (AUT)","5022125","2019-04-25 08:00","2019","04","25","08:00","8.9","","-1.7","","47","","","M","28","","36","","","","95.75","","","","","","NA"
"-98.90","49.19","PILOT MOUND (AUT)","5022125","2019-04-25 09:00","2019","04","25","09:00","10.0","","-4.4","","36","","","M","29","","43","","","","95.72","","","","","","NA"
"-98.90","49.19","PILOT MOUND (AUT)","5022125","2019-04-25 10:00","2019","04","25","10:00","10.4","","-3.7","","37","","","M","28","","46","","","","95.73","","","","","","NA"
"-98.90","49.19","PILOT MOUND (AUT)","5022125","2019-04-25 11:00","2019","04","25","11:00","10.5","","-5.9","","31","","","M","29","","45","","","","95.76","","","","","","NA"
"-98.90","49.19","PILOT MOUND (AUT)","5022125","2019-04-25 12:00","2019","04","25","12:00","11.9","","-6.8","","26","","","M","28","","43","","","","95.73","","","","","","NA"
"-98.90","49.19","PILOT MOUND (AUT)","5022125","2019-04-25 13:00","2019","04","25","13:00","12.4","","-8.8","","22","","","M","28","","46","","","","95.72","","","","","","NA"
"-98.90","49.19","PILOT MOUND (AUT)","5022125","2019-04-25 14:00","2019","04","25","14:00","10.6","","-7.9","","26","","","M","30","","50","","","","95.76","","","","","","NA"
"-98.90","49.19","PILOT MOUND (AUT)","5022125","2019-04-25 15:00","2019","04","25","15:00","10.2","","-5.8","","32","","","M","30","","45","","","","95.86","","","","","","NA"
"-98.90","49.19","PILOT MOUND (AUT)","5022125","2019-04-25 16:00","2019","04","25","16:00","10.5","","-4.6","","34","","","M","30","","41","","","","95.90","","","","","","NA"
"-98.90","49.19","PILOT MOUND (AUT)","5022125","2019-04-25 17:00","2019","04","25","17:00","8.1","","-3.7","","43","","","M","33","","30","","","","96.04","","","","","","NA"
"-98.90","49.19","PILOT MOUND (AUT)","5022125","2019-04-25 18:00","2019","04","25","18:00","8.0","","-2.3","","48","","","M","34","","20","","","","96.10","","","","","","NA"
"-98.90","49.19","PILOT MOUND (AUT)","5022125","2019-04-25 19:00","2019","04","25","19:00","6.6","","-1.4","","57","","","M","33","","15","","","","96.15","","","","","","NA"
"-98.90","49.19","PILOT MOUND (AUT)","5022125","2019-04-25 20:00","2019","04","25","20:00","3.6","","-0.9","","72","","","M","35","","8","","","","96.17","","","","","","NA"
"-98.90","49.19","PILOT MOUND (AUT)","5022125","2019-04-25 21:00","2019","04","25","21:00","3.2","","-0.9","","74","","","M","33","","6","","","","96.25","","","","","","NA"
"-98.90","49.19","PILOT MOUND (AUT)","5022125","2019-04-25 22:00","2019","04","25","22:00","1.2","","-2.2","","78","","","M","30","","11","","","","96.33","","","","","","NA"
"-98.90","49.19","PILOT MOUND (AUT)","5022125","2019-04-25 23:00","2019","04","25","23:00","-0.1","","-2.0","","87","","","M","26","","5","","","","96.33","","","","-2","","NA"
"-98.90","49.19","PILOT MOUND (AUT)","5022125","2019-04-26 00:00","2019","04","26","00:00","-2.1","","-3.8","","88","","","M","24","","8","","","","96.32","","","","-5","","NA"
"-98.90","49.19","PILOT MOUND (AUT)","5022125","2019-04-26 01:00","2019","04","26","01:00","-2.1","","-3.5","","90","","","M","26","","6","","","","96.32","","","","-4","","NA"
"-98.90","49.19","PILOT MOUND (AUT)","5022125","2019-04-26 02:00","2019","04","26","02:00","-2.1","","-3.7","","89","","","M","27","","6","","","","96.28","","","","-4","","NA"
"-98.90","49.19","PILOT MOUND (AUT)","5022125","2019-04-26 03:00","2019","04","26","03:00","-3.6","","-5.1","","89","","","M","26","","10","","","","96.27","","","","-8","","NA"
"-98.90","49.19","PILOT MOUND (AUT)","5022125","2019-04-26 04:00","2019","04","26","04:00","-4.6","","-5.9","","91","","","M","25","","7","","","","96.29","","","","-8","","NA"
"-98.90","49.19","PILOT MOUND (AUT)","5022125","2019-04-26 05:00","2019","04","26","05:00","-4.0","","-5.5","","89","","","M","27","","10","","","","96.31","","","","-8","","NA"
"-98.90","49.19","PILOT MOUND (AUT)","5022125","2019-04-26 06:00","2019","04","26","06:00","-2.9","","-4.9","","86","","","M","27","","9","","","","96.36","","","","-6","","NA"
"-98.90","49.19","PILOT MOUND (AUT)","5022125","2019-04-26 07:00","2019","04","26","07:00","0.3","","-2.9","","79","","","M","28","","7","","","","96.39","","","","","","NA"
"-98.90","49.19","PILOT MOUND (AUT)","5022125","2019-04-26 08:00","2019","04","26","08:00","3.5","","-2.6","","64","","","M","31","","13","","","","96.40","","","","","","NA"
"-98.90","49.19","PILOT MOUND (AUT)","5022125","2019-04-26 09:00","2019","04","26","09:00","7.2","","-4.4","","44","","","M","31","","18","","","","96.37","","","","","","NA"
"-98.90","49.19","PILOT MOUND (AUT)","5022125","2019-04-26 10:00","2019","04","26","10:00","8.7","","-7.2","","32","","","M","31","","18","","","","96.33","","","","","","NA"
"-98.90","49.19","PILOT MOUND (AUT)","5022125","2019-04-26 11:00","2019","04","26","11:00","10.3","","-8.7","","25","","","M","32","","23","","","","96.28","","","","","","NA"
"-98.90","49.19","PILOT MOUND (AUT)","5022125","2019-04-26 12:00","2019","04","26","12:00","11.2","","-10.2","","21","","","M","32","","22","","","","96.22","","","","","","NA"
"-98.90","49.19","PILOT MOUND (AUT)","5022125","2019-04-26 13:00","2019","04","26","13:00","11.7","","-11.1","","19","","","M","29","","22","","","","96.16","","","","","","NA"
"-98.90","49.19","PILOT MOUND (AUT)","5022125","2019-04-26 14:00","2019","04","26","14:00","12.8","","-10.8","","18","","","M","32","","21","","","","96.13","","","","","","NA"
"-98.90","49.19","PILOT MOUND (AUT)","5022125","2019-04-26 15:00","2019","04","26","15:00","12.1","","-12.2","","17","","","M","35","","11","","","","96.07","","","","","","NA"
"-98.90","49.19","PILOT MOUND (AUT)","5022125","2019-04-26 16:00","2019","04","26","16:00","12.9","","-11.1","","18","","","M","35","","15","","","","96.04","","","","","","NA"
"-98.90","49.19","PILOT MOUND (AUT)","5022125","2019-04-26 17:00","2019","04","26","17:00","12.0","","-12.4","","17","","","M","34","","14","","","","96.03","","","","","","NA"
"-98.90","49.19","PILOT MOUND (AUT)","5022125","2019-04-26 18:00","2019","04","26","18:00","10.8","","-7.2","","28","","","M","5","","18","","","","96.04","","","","","","NA"
"-98.90","49.19","PILOT MOUND (AUT)","5022125","2019-04-26 19:00","2019","04","26","19:00","8.2","","-7.3","","32","","","M","6","","27","","","","96.02","","","","","","NA"
"-98.90","49.19","PILOT MOUND (AUT)","5022125","2019-04-26 20:00","2019","04","26","20:00","6.0","","-7.2","","38","","","M","6","","19","","","","96.06","","","","","","NA"
"-98.90","49.19","PILOT MOUND (AUT)","5022125","2019-04-26 21:00","2019","04","26","21:00","4.3","","-6.1","","47","","","M","4","","14","","","","96.13","","","","","","NA"
"-98.90","49.19","PILOT MOUND (AUT)","5022125","2019-04-26 22:00","2019","04","26","22:00","2.8","","-6.3","","51","","","M","4","","11","","","","96.15","","","","","","NA"
"-98.90","49.19","PILOT MOUND (AUT)","5022125","2019-04-26 23:00","2019","04","26","23:00","1.6","","-7.2","","52","","","M","6","","12","","","","96.17","","","","","","NA"
"-98.90","49.19","PILOT MOUND (AUT)","5022125","2019-04-27 00:00","2019","04","27","00:00","1.3","","-4.5","","65","","","M","8","","11","","","","96.13","","","","","","NA"
"-98.90","49.19","PILOT MOUND (AUT)","5022125","2019-04-27 01:00","2019","04","27","01:00","0.8","","-3.7","","71","","","M","9","","11","","","","96.14","","","","","","NA"
"-98.90","49.19","PILOT MOUND (AUT)","5022125","2019-04-27 02:00","2019","04","27","02:00","-0.3","","-4.1","","76","","","M","9","","9","","","","96.12","","","","-3","","NA"
"-98.90","49.19","PILOT MOUND (AUT)","5022125","2019-04-27 03:00","2019","04","27","03:00","-0.7","","-4.7","","74","","","M","8","","9","","","","96.09","","","","-4","","NA"
"-98.90","49.19","PILOT MOUND (AUT)","5022125","2019-04-27 04:00","2019","04","27","04:00","-0.1","","-4.4","","73","","","M","7","","7","","","","96.14","","","","-3","","NA"
"-98.90","49.19","PILOT MOUND (AUT)","5022125","2019-04-27 05:00","2019","04","27","05:00","-0.8","","-3.9","","80","","","M","3","","15","","","","96.21","","","","-5","","NA"
"-98.90","49.19","PILOT MOUND (AUT)","5022125","2019-04-27 06:00","2019","04","27","06:00","-0.7","","-4.4","","76","","","M","6","","14","","","","96.28","","","","-5","","NA"
"-98.90","49.19","PILOT MOUND (AUT)","5022125","2019-04-27 07:00","2019","04","27","07:00","1.0","","-3.9","","70","","","M","6","","18","","","","96.34","","","","","","NA"
"-98.90","49.19","PILOT MOUND (AUT)","5022125","2019-04-27 08:00","2019","04","27","08:00","3.2","","-4.2","","58","","","M","7","","23","","","","96.35","","","","","","NA"
"-98.90","49.19","PILOT MOUND (AUT)","5022125","2019-04-27 09:00","2019","04","27","09:00","5.3","","-4.3","","50","","","M","7","","20","","","","96.34","","","","","","NA"
"-98.90","49.19","PILOT MOUND (AUT)","5022125","2019-04-27 10:00","2019","04","27","10:00","6.8","","-5.3","","42","","","M","10","","17","","","","96.31","","","","","","NA"
"-98.90","49.19","PILOT MOUND (AUT)","5022125","2019-04-27 11:00","2019","04","27","11:00","8.1","","-6.6","","35","","","M","11","","14","","","","96.28","","","","","","NA"
"-98.90","49.19","PILOT MOUND (AUT)","5022125","2019-04-27 12:00","2019","04","27","12:00","8.8","","-8.3","","29","","","M","11","","11","","","","96.23","","","","","","NA"
"-98.90","49.19","PILOT MOUND (AUT)","5022125","2019-04-27 13:00","2019","04","27","13:00","10.4","","-7.5","","28","","","M","13","","13","","","","96.16","","","","","","NA"
"-98.90","49.19","PILOT MOUND (AUT)","5022125","2019-04-27 14:00","2019","04","27","14:00","12.0","","-7.0","","26","","","M","13","","14","","","","96.10","","","","","","NA"
"-98.90","49.19","PILOT MOUND (AUT)","5022125","2019-04-27 15:00","2019","04","27","15:00","10.2","","-7.5","","28","","","M","11","","12","","","","96.07","","","","","","NA"
"-98.90","49.19","PILOT MOUND (AUT)","5022125","2019-04-27 16:00","2019","04","27","16:00","10.3","","-7.8","","27","","","M","15","","12","","","","96.04","","","","","","NA"
"-98.90","49.19","PILOT MOUND (AUT)","5022125","2019-04-27 17:00","2019","04","27","17:00","10.2","","-7.3","","29","","","M","17","","12","","","","96.02","","","","","","NA"
"-98.90","49.19","PILOT MOUND (AUT)","5022125","2019-04-27 18:00","2019","04","27","18:00","9.5","","-6.9","","31","","","M","18","","12","","","","96.02","","","","","","NA"
"-98.90","49.19","PILOT MOUND (AUT)","5022125","2019-04-27 19:00","2019","04","27","19:00","6.6","","-3.1","","50","","","M","6","","26","","","","96.04","","","","","","NA"
"-98.90","49.19","PILOT MOUND (AUT)","5022125","2019-04-27 20:00","2019","04","27","20:00","6.6","","-3.6","","48","","","M","7","","26","","","","96.08","","","","","","NA"
"-98.90","49.19","PILOT MOUND (AUT)","5022125","2019-04-27 21:00","2019","04","27","21:00","4.5","","-3.3","","57","","","M","6","","23","","","","96.11","","","","","","NA"
"-98.90","49.19","PILOT MOUND (AUT)","5022125","2019-04-27 22:00","2019","04","27","22:00","3.1","","-4.1","","59","","","M","6","","19","","","","96.16","","","","","","NA"
"-98.90","49.19","PILOT MOUND (AUT)","5022125","2019-04-27 23:00","2019","04","27","23:00","2.3","","-4.4","","61","","","M","7","","19","","","","96.17","","","","","","NA"
"-98.90","49.19","PILOT MOUND (AUT)","5022125","2019-04-28 00:00","2019","04","28","00:00","2.0","","-5.9","","56","","","M","7","","22","","","","96.16","","","","","","NA"
"-98.90","49.19","PILOT MOUND (AUT)","5022125","2019-04-28 01:00","2019","04","28","01:00","1.1","","-6.6","","57","","","M","7","","23","","","","96.17","","","","","","NA"
"-98.90","49.19","PILOT MOUND (AUT)","5022125","2019-04-28 02:00","2019","04","28","02:00","0.8","","-5.8","","61","","","M","7","","17","","","","96.29","","","","","","NA"
"-98.90","49.19","PILOT MOUND (AUT)","5022125","2019-04-28 03:00","2019","04","28","03:00","0.2","","-7.9","","54","","","M","7","","23","","","","96.22","","","","","","NA"
"-98.90","49.19","PILOT MOUND (AUT)","5022125","2019-04-28 04:00","2019","04","28","04:00","-0.1","","-6.4","","63","","","M","6","","23","","","","96.26","","","","-6","","NA"
"-98.90","49.19","PILOT MOUND (AUT)","5022125","2019-04-28 05:00","2019","04","28","05:00","-0.1","","-5.3","","68","","","M","6","","23","","","","96.29","","","","-6","","NA"
"-98.90","49.19","PILOT MOUND (AUT)","5022125","2019-04-28 06:00","2019","04","28","06:00","0.2","","-5.1","","67","","","M","6","","24","","","","96.34","","","","","","NA"
"-98.90","49.19","PILOT MOUND (AUT)","5022125","2019-04-28 07:00","2019","04","28","07:00","1.3","","-5.4","","61","","","M","6","","31","","","","96.35","","","","","","NA"
"-98.90","49.19","PILOT MOUND (AUT)","5022125","2019-04-28 08:00","2019","04","28","08:00","2.1","","-5.4","","58","","","M","7","","37","","","","96.26","","","","","","NA"
"-98.90","49.19","PILOT MOUND (AUT)","5022125","2019-04-28 09:00","2019","04","28","09:00","3.4","","-6.0","","50","","","M","7","","37","","","","96.22","","","","","","NA"
"-98.90","49.19","PILOT MOUND (AUT)","5022125","2019-04-28 10:00","2019","04","28","10:00","4.4","","-7.0","","43","","","M","8","","39","","","","96.21","","","","","","NA"
"-98.90","49.19","PILOT MOUND (AUT)","5022125","2019-04-28 11:00","2019","04","28","11:00","5.5","","-7.1","","40","","","M","8","","42","","","","96.23","","","","","","NA"
"-98.90","49.19","PILOT MOUND (AUT)","5022125","2019-04-28 12:00","2019","04","28","12:00","5.9","","-7.1","","39","","","M","8","","39","","","","96.19","","","","","","NA"
"-98.90","49.19","PILOT MOUND (AUT)","5022125","2019-04-28 13:00","2019","04","28","13:00","5.9","","-7.2","","38","","","M","8","","36","","","","96.19","","","","","","NA"
"-98.90","49.19","PILOT MOUND (AUT)","5022125","2019-04-28 14:00","2019","04","28","14:00","5.0","","-5.7","","46","","","M","10","","36","","","","96.20","","","","","","NA"
"-98.90","49.19","PILOT MOUND (AUT)","5022125","2019-04-28 15:00","2019","04","28","15:00","4.2","","-3.4","","58","","","M","9","","33","","","","96.17","","","","","","NA"
"-98.90","49.19","PILOT MOUND (AUT)","5022125","2019-04-28 16:00","2019","04","28","16:00","2.1","","0.0","","86","","","M","8","","31","","","","96.16","","","","","","NA"
"-98.90","49.19","PILOT MOUND (AUT)","5022125","2019-04-28 17:00","2019","04","28","17:00","2.5","","-0.3","","82","","","M","7","","29","","","","96.15","","","","","","NA"
"-98.90","49.19","PILOT MOUND (AUT)","5022125","2019-04-28 18:00","2019","04","28","18:00","1.8","","0.0","","88","","","M","7","","30","","","","96.18","","","","","","NA"
"-98.90","49.19","PILOT MOUND (AUT)","5022125","2019-04-28 19:00","2019","04","28","19:00","1.3","","0.1","","91","","","M","6","","26","","","","96.19","","","","","","NA"
"-98.90","49.19","PILOT MOUND (AUT)","5022125","2019-04-28 20:00","2019","04","28","20:00","0.7","","-0.3","","93","","","M","6","","24","","","","96.26","","","","","","NA"
"-98.90","49.19","PILOT MOUND (AUT)","5022125","2019-04-28 21:00","2019","04","28","21:00","0.6","","-0.3","","94","","","M","6","","29","","","","96.29","","","","","","NA"
"-98.90","49.19","PILOT MOUND (AUT)","5022125","2019-04-28 22:00","2019","04","28","22:00","0.4","","-0.5","","94","","","M","5","","29","","","","96.32","","","","","","NA"
"-98.90","49.19","PILOT MOUND (AUT)","5022125","2019-04-28 23:00","2019","04","28","23:00","0.3","","-0.6","","94","","","M","5","","28","","","","96.31","","","","","","NA"
"-98.90","49.19","PILOT MOUND (AUT)","5022125","2019-04-29 00:00","2019","04","29","00:00","0.2","","-0.6","","94","","","M","5","","27","","","","96.30","","","","","","NA"
"-98.90","49.19","PILOT MOUND (AUT)","5022125","2019-04-29 01:00","2019","04","29","01:00","0.0","","-0.7","","95","","","M","5","","29","","","","96.28","","","","-6","","NA"
"-98.90","49.19","PILOT MOUND (AUT)","5022125","2019-04-29 02:00","2019","04","29","02:00","-0.2","","-0.7","","96","","","M","5","","33","","","","96.26","","","","-7","","NA"
"-98.90","49.19","PILOT MOUND (AUT)","5022125","2019-04-29 03:00","2019","04","29","03:00","-0.2","","-0.8","","96","","","M","4","","32","","","","96.26","","","","-7","","NA"
"-98.90","49.19","PILOT MOUND (AUT)","5022125","2019-04-29 04:00","2019","04","29","04:00","-0.4","","-0.9","","96","","","M","4","","30","","","","96.30","","","","-7","","NA"
"-98.90","49.19","PILOT MOUND (AUT)","5022125","2019-04-29 05:00","2019","04","29","05:00","-0.5","","-1.0","","96","","","M","3","","30","","","","96.36","","","","-7","","NA"
"-98.90","49.19","PILOT MOUND (AUT)","5022125","2019-04-29 06:00","2019","04","29","06:00","-0.6","","-1.2","","96","","","M","3","","33","","","","96.43","","","","-8","","NA"
"-98.90","49.19","PILOT MOUND (AUT)","5022125","2019-04-29 07:00","2019","04","29","07:00","-1.2","","-1.9","","95","","","M","2","","31","","","","96.47","","","","-8","","NA"
"-98.90","49.19","PILOT MOUND (AUT)","5022125","2019-04-29 08:00","2019","04","29","08:00","-0.6","","-1.5","","94","","","M","2","","27","","","","96.50","","","","-7","","NA"
"-98.90","49.19","PILOT MOUND (AUT)","5022125","2019-04-29 09:00","2019","04","29","09:00","-0.1","","-1.1","","93","","","M","3","","27","","","","96.54","","","","-6","","NA"
"-98.90","49.19","PILOT MOUND (AUT)","5022125","2019-04-29 10:00","2019","04","29","10:00","0.6","","-0.6","","92","","","M","3","","28","","","","96.57","","","","","","NA"
"-98.90","49.19","PILOT MOUND (AUT)","5022125","2019-04-29 11:00","2019","04","29","11:00","1.3","","-0.9","","86","","","M","3","","31","","","","96.63","","","","","","NA"
"-98.90","49.19","PILOT MOUND (AUT)","5022125","2019-04-29 12:00","2019","04","29","12:00","2.0","","-1.6","","77","","","M","2","","22","","","","96.66","","","","","","NA"
"-98.90","49.19","PILOT MOUND (AUT)","5022125","2019-04-29 13:00","2019","04","29","13:00","2.9","","-2.2","","69","","","M","2","","23","","","","96.67","","","","","","NA"
"-98.90","49.19","PILOT MOUND (AUT)","5022125","2019-04-29 14:00","2019","04","29","14:00","3.9","","-2.1","","65","","","M","2","","18","","","","96.70","","","","","","NA"
"-98.90","49.19","PILOT MOUND (AUT)","5022125","2019-04-29 15:00","2019","04","29","15:00","4.7","","-3.1","","57","","","M","36","","16","","","","96.69","","","","","","NA"
"-98.90","49.19","PILOT MOUND (AUT)","5022125","2019-04-29 16:00","2019","04","29","16:00","5.7","","-2.1","","57","","","M","3","","16","","","","96.68","","","","","","NA"
"-98.90","49.19","PILOT MOUND (AUT)","5022125","2019-04-29 17:00","2019","04","29","17:00","4.5","","-2.8","","59","","","M","2","","15","","","","96.72","","","","","","NA"
"-98.90","49.19","PILOT MOUND (AUT)","5022125","2019-04-29 18:00","2019","04","29","18:00","5.0","","-3.7","","54","","","M","4","","16","","","","96.76","","","","","","NA"
"-98.90","49.19","PILOT MOUND (AUT)","5022125","2019-04-29 19:00","2019","04","29","19:00","4.2","","-3.9","","56","","","M","5","","15","","","","96.78","","","","","","NA"
"-98.90","49.19","PILOT MOUND (AUT)","5022125","2019-04-29 20:00","2019","04","29","20:00","2.6","","-2.9","","67","","","M","7","","12","","","","96.80","","","","","","NA"
"-98.90","49.19","PILOT MOUND (AUT)","5022125","2019-04-29 21:00","2019","04","29","21:00","-0.1","","-3.1","","80","","","M","12","","9","","","","96.84","","","","-3","","NA"
"-98.90","49.19","PILOT MOUND (AUT)","5022125","2019-04-29 22:00","2019","04","29","22:00","-0.8","","-2.9","","86","","","M","19","","8","","","","96.86","","","","-4","","NA"
"-98.90","49.19","PILOT MOUND (AUT)","5022125","2019-04-29 23:00","2019","04","29","23:00","-1.8","","-3.4","","89","","","M","19","","9","","","","96.88","","","","-5","","NA"
"-98.90","49.19","PILOT MOUND (AUT)","5022125","2019-04-30 00:00","2019","04","30","00:00","-2.9","","-3.8","","93","","","M","19","","5","","","","96.90","","","","-5","","NA"
"-98.90","49.19","PILOT MOUND (AUT)","5022125","2019-04-30 01:00","2019","04","30","01:00","-3.0","","-3.9","","94","","","M","20","","7","","","","96.89","","","","-6","","NA"
"-98.90","49.19","PILOT MOUND (AUT)","5022125","2019-04-30 02:00","2019","04","30","02:00","-4.0","","-4.9","","94","","","M","13","","11","","","","96.85","","","","-8","","NA"
"-98.90","49.19","PILOT MOUND (AUT)","5022125","2019-04-30 03:00","2019","04","30","03:00","-3.7","","-4.4","","94","","","M","15","","8","","","","96.84","","","","-7","","NA"
"-98.90","49.19","PILOT MOUND (AUT)","5022125","2019-04-30 04:00","2019","04","30","04:00","-4.1","","-4.9","","94","","","M","19","","7","","","","96.85","","","","-7","","NA"
"-98.90","49.19","PILOT MOUND (AUT)","5022125","2019-04-30 05:00","2019","04","30","05:00","-4.2","","-4.9","","95","","","M","14","","6","","","","96.86","","","","-7","","NA"
"-98.90","49.19","PILOT MOUND (AUT)","5022125","2019-04-30 06:00","2019","04","30","06:00","-3.1","","-3.8","","95","","","M","15","","9","","","","96.84","","","","-7","","NA"
"-98.90","49.19","PILOT MOUND (AUT)","5022125","2019-04-30 07:00","2019","04","30","07:00","0.2","","-1.4","","89","","","M","11","","7","","","","96.83","","","","","","NA"
"-98.90","49.19","PILOT MOUND (AUT)","5022125","2019-04-30 08:00","2019","04","30","08:00","2.1","","-0.4","","84","","","M","12","","15","","","","96.84","","","","","","NA"
"-98.90","49.19","PILOT MOUND (AUT)","5022125","2019-04-30 09:00","2019","04","30","09:00","3.7","","-1.0","","71","","","M","13","","11","","","","96.85","","","","","","NA"
"-98.90","49.19","PILOT MOUND (AUT)","5022125","2019-04-30 10:00","2019","04","30","10:00","3.7","","-0.4","","74","","","M","13","","18","","","","96.90","","","","","","NA"
"-98.90","49.19","PILOT MOUND (AUT)","5022125","2019-04-30 11:00","2019","04","30","11:00","5.3","","-1.2","","63","","","M","12","","15","","","","96.88","","","","","","NA"
"-98.90","49.19","PILOT MOUND (AUT)","5022125","2019-04-30 12:00","2019","04","30","12:00","6.0","","-1.0","","60","","","M","13","","16","","","","96.85","","","","","","NA"
"-98.90","49.19","PILOT MOUND (AUT)","5022125","2019-04-30 13:00","2019","04","30","13:00","5.7","","-2.3","","56","","","M","13","","15","","","","96.80","","","","","","NA"
"-98.90","49.19","PILOT MOUND (AUT)","5022125","2019-04-30 14:00","2019","04","30","14:00","5.7","","-2.7","","54","","","M","11","","13","","","","96.80","","","","","","NA"
"-98.90","49.19","PILOT MOUND (AUT)","5022125","2019-04-30 15:00","2019","04","30","15:00","6.6","","-3.8","","47","","","M","13","","9","","","","96.73","","","","","","NA"
"-98.90","49.19","PILOT MOUND (AUT)","5022125","2019-04-30 16:00","2019","04","30","16:00","6.8","","-3.3","","48","","","M","11","","11","","","","96.68","","","","","","NA"
"-98.90","49.19","PILOT MOUND (AUT)","5022125","2019-04-30 17:00","2019","04","30","17:00","6.7","","-2.4","","52","","","M","9","","15","","","","96.65","","","","","","NA"
"-98.90","49.19","PILOT MOUND (AUT)","5022125","2019-04-30 18:00","2019","04","30","18:00","5.9","","-2.4","","55","","","M","10","","17","","","","96.63","","","","","","NA"
"-98.90","49.19","PILOT MOUND (AUT)","5022125","2019-04-30 19:00","2019","04","30","19:00","4.5","","-1.9","","63","","","M","10","","11","","","","96.68","","","","","","NA"
"-98.90","49.19","PILOT MOUND (AUT)","5022125","2019-04-30 20:00","2019","04","30","20:00","2.3","","-2.0","","73","","","M","11","","11","","","","96.70","","","","","","NA"
"-98.90","49.19","PILOT MOUND (AUT)","5022125","2019-04-30 21:00","2019","04","30","21:00","0.6","","-2.2","","82","","","M","12","","10","","","","96.70","","","","","","NA"
"-98.90","49.19","PILOT MOUND (AUT)","5022125","2019-04-30 22:00","2019","04","30","22:00","-0.6","","-2.8","","85","","","M","8","","8","","","","96.65","","","","-3","","NA"
"-98.90","49.19","PILOT MOUND (AUT)","5022125","2019-04-30 23:00","2019","04","30","23:00","-0.4","","-2.5","","86","","","M","9","","6","","","","96.62","","","","-2","","NA"
