"Longitude (x)","Latitude (y)","Station Name","Climate ID","Date/Time (LST)","Year","Month","Day","Time (LST)","Temp (°C)","Temp Flag","Dew Point Temp (°C)","Dew Point Temp Flag","Rel Hum (%)","Rel Hum Flag","Precip. Amount (mm)","Precip. Amount Flag","Wind Dir (10s deg)","Wind Dir Flag","Wind Spd (km/h)","Wind Spd Flag","Visibility (km)","Visibility Flag","Stn Press (kPa)","Stn Press Flag","Hmdx","Hmdx Flag","Wind Chill","Wind Chill Flag","Weather"
"-96.08","64.30","BAKER LAKE A","2300503","2018-01-01 00:00","2018","01","01","00:00","-27.6","","-31.4","","71","","","","29","","28","","24.1","","101.09","","","","-42","","Blowing Snow"
"-96.08","64.30","BAKER LAKE A","2300503","2018-01-01 01:00","2018","01","01","01:00","-27.2","","-31.0","","71","","","","31","","44","","16.1","","101.03","","","","-44","","Blowing Snow"
"-96.08","64.30","BAKER LAKE A","2300503","2018-01-01 02:00","2018","01","01","02:00","-27.7","","-31.7","","70","","","","30","","32","","16.1","","101.07","","","","-43","","Blowing Snow"
"-96.08","64.30","BAKER LAKE A","2300503","2018-01-01 03:00","2018","01","01","03:00","-27.2","","-31.0","","71","","","","31","","36","","16.1","","101.03","","","","-43","","Blowing Snow"
"-96.08","64.30","BAKER LAKE A","2300503","2018-01-01 04:00","2018","01","01","04:00","-26.6","","-30.4","","71","","","","32","","25","","24.1","","101.02","","","","-40","","Blowing Snow"
"-96.08","64.30","BAKER LAKE A","2300503","2018-01-01 05:00","2018","01","01","05:00","-26.3","","-30.1","","71","","","","31","","29","","16.1","","100.97","","","","-41","","Blowing Snow"
"-96.08","64.30","BAKER LAKE A","2300503","2018-01-01 06:00","2018","01","01","06:00","-25.6","","-29.4","","71","","","","31","","22","","24.1","","100.98","","","","-38","","Blowing Snow"
"-96.08","64.30","BAKER LAKE A","2300503","2018-01-01 07:00","2018","01","01","07:00","-26.1","","-29.9","","71","","","","31","","12","","24.1","","100.99","","","","-35","","Blowing Snow"
"-96.08","64.30","BAKER LAKE A","2300503","2018-01-01 08:00","2018","01","01","08:00","-25.4","","-29.1","","72","","","","31","","18","","24.1","","100.97","","","","-37","","Blowing Snow"
"-96.08","64.30","BAKER LAKE A","2300503","2018-01-01 09:00","2018","01","01","09:00","-25.2","","-28.9","","72","","","","32","","18","","24.1","","100.95","","","","-36","","Snow"
"-96.08","64.30","BAKER LAKE A","2300503","2018-01-01 10:00","2018","01","01","10:00","-25.1","","-28.6","","73","","","","33","","17","","24.1","","100.97","","","","-36","","Snow"
"-96.08","64.30","BAKER LAKE A","2300503","2018-01-01 11:00","2018","01","01","11:00","-24.5","","-28.2","","72","","","","34","","18","","32.2","","100.98","","","","-36","","Snow"
"-96.08","64.30","BAKER LAKE A","2300503","2018-01-01 12:00","2018","01","01","12:00","-24.5","","-28.3","","71","","","","35","","22","","24.1","","101.02","","","","-37","","Snow"
"-96.08","64.30","BAKER LAKE A","2300503","2018-01-01 13:00","2018","01","01","13:00","-26.0","","-29.7","","72","","","","34","","21","","24.1","","101.07","","","","-38","","Snow"
"-96.08","64.30","BAKER LAKE A","2300503","2018-01-01 14:00","2018","01","01","14:00","-26.9","","-30.7","","71","","","","34","","21","","32.2","","101.17","","","","-39","","NA"
"-96.08","64.30","BAKER LAKE A","2300503","2018-01-01 15:00","2018","01","01","15:00","-28.9","","-32.7","","70","","","","34","","13","","32.2","","101.27","","","","-39","","Mainly Clear"
"-96.08","64.30","BAKER LAKE A","2300503","2018-01-01 16:00","2018","01","01","16:00","-29.5","","-33.7","","68","","","","33","","20","","32.2","","101.36","","","","-42","","NA"
"-96.08","64.30","BAKER LAKE A","2300503","2018-01-01 17:00","2018","01","01","17:00","-30.1","","-34.4","","67","","","","34","","28","","24.1","","101.44","","","","-45","","NA"
"-96.08","64.30","BAKER LAKE A","2300503","2018-01-01 18:00","2018","01","01","18:00","-31.4","","-35.6","","67","","","","33","","21","","24.1","","101.55","","","","-45","","Clear"
"-96.08","64.30","BAKER LAKE A","2300503","2018-01-01 19:00","2018","01","01","19:00","-31.7","","-35.8","","68","","","","31","","21","","24.1","","101.57","","","","-46","","NA"
"-96.08","64.30","BAKER LAKE A","2300503","2018-01-01 20:00","2018","01","01","20:00","-32.1","","-36.1","","68","","","","32","","29","","24.1","","101.56","","","","-48","","NA"
"-96.08","64.30","BAKER LAKE A","2300503","2018-01-01 21:00","2018","01","01","21:00","-32.4","","-36.6","","67","","","","33","","28","","24.1","","101.63","","","","-48","","Clear"
"-96.08","64.30","BAKER LAKE A","2300503","2018-01-01 22:00","2018","01","01","22:00","-32.4","","-36.7","","67","","","","33","","10","","24.1","","101.70","","","","-42","","NA"
"-96.08","64.30","BAKER LAKE A","2300503","2018-01-01 23:00","2018","01","01","23:00","-31.6","","-35.7","","68","","","","32","","24","","24.1","","101.76","","","","-46","","NA"
"-96.08","64.30","BAKER LAKE A","2300503","2018-01-02 00:00","2018","01","02","00:00","-31.6","","-35.5","","69","","","","34","","37","","16.1","","101.73","","","","-49","","Blowing Snow"
"-96.08","64.30","BAKER LAKE A","2300503","2018-01-02 01:00","2018","01","02","01:00","-31.2","","-35.4","","67","","","","31","","30","","24.1","","101.77","","","","-47","","Blowing Snow"
"-96.08","64.30","BAKER LAKE A","2300503","2018-01-02 02:00","2018","01","02","02:00","-30.7","","-35.0","","67","","","","33","","32","","24.1","","101.81","","","","-47","","Blowing Snow"
"-96.08","64.30","BAKER LAKE A","2300503","2018-01-02 03:00","2018","01","02","03:00","-29.4","","-33.1","","70","","","","28","","7","","16.1","","101.89","","","","-37","","Mostly Cloudy"
"-96.08","64.30","BAKER LAKE A","2300503","2018-01-02 04:00","2018","01","02","04:00","-28.5","","-32.6","","68","","","","33","","34","","24.1","","101.91","","","","-44","","NA"
"-96.08","64.30","BAKER LAKE A","2300503","2018-01-02 05:00","2018","01","02","05:00","-27.9","","-31.9","","69","","","","33","","18","","24.1","","101.98","","","","-40","","NA"
"-96.08","64.30","BAKER LAKE A","2300503","2018-01-02 06:00","2018","01","02","06:00","-27.8","","-31.9","","69","","","","33","","19","","24.1","","102.05","","","","-40","","Mostly Cloudy"
"-96.08","64.30","BAKER LAKE A","2300503","2018-01-02 07:00","2018","01","02","07:00","-28.8","","-32.7","","70","","","","33","","40","","24.1","","101.98","","","","-46","","NA"
"-96.08","64.30","BAKER LAKE A","2300503","2018-01-02 08:00","2018","01","02","08:00","-30.1","","-34.0","","69","","","","31","","32","","24.1","","102.04","","","","-46","","NA"
"-96.08","64.30","BAKER LAKE A","2300503","2018-01-02 09:00","2018","01","02","09:00","-29.6","","-33.2","","72","","","","32","","30","","16.1","","102.09","","","","-45","","Blowing Snow"
"-96.08","64.30","BAKER LAKE A","2300503","2018-01-02 10:00","2018","01","02","10:00","-29.1","","-32.8","","71","","","","32","","42","","6.4","","102.10","","","","-47","","Snow,Blowing Snow"
"-96.08","64.30","BAKER LAKE A","2300503","2018-01-02 11:00","2018","01","02","11:00","-29.1","","-33.0","","70","","","","32","","39","","16.1","","102.10","","","","-46","","Snow,Blowing Snow"
"-96.08","64.30","BAKER LAKE A","2300503","2018-01-02 12:00","2018","01","02","12:00","-29.1","","-32.9","","70","","","","32","","36","","11.3","","102.11","","","","-46","","Snow,Blowing Snow"
"-96.08","64.30","BAKER LAKE A","2300503","2018-01-02 13:00","2018","01","02","13:00","-30.1","","-34.2","","68","","","","32","","26","","32.2","","102.20","","","","-45","","Blowing Snow"
"-96.08","64.30","BAKER LAKE A","2300503","2018-01-02 14:00","2018","01","02","14:00","-30.7","","-34.7","","69","","","","33","","35","","32.2","","102.21","","","","-48","","Blowing Snow"
"-96.08","64.30","BAKER LAKE A","2300503","2018-01-02 15:00","2018","01","02","15:00","-31.5","","-35.5","","69","","","","32","","36","","24.1","","102.26","","","","-49","","Blowing Snow"
"-96.08","64.30","BAKER LAKE A","2300503","2018-01-02 16:00","2018","01","02","16:00","-31.8","","-35.7","","69","","","","32","","43","","16.1","","102.29","","","","-50","","Blowing Snow"
"-96.08","64.30","BAKER LAKE A","2300503","2018-01-02 17:00","2018","01","02","17:00","-31.6","","-35.8","","68","","","","33","","46","","24.1","","102.35","","","","-51","","Blowing Snow"
"-96.08","64.30","BAKER LAKE A","2300503","2018-01-02 18:00","2018","01","02","18:00","-31.7","","-35.9","","67","","","","30","","37","","24.1","","102.43","","","","-49","","Blowing Snow"
"-96.08","64.30","BAKER LAKE A","2300503","2018-01-02 19:00","2018","01","02","19:00","-32.4","","-36.3","","69","","","","31","","39","","24.1","","102.41","","","","-51","","Blowing Snow"
"-96.08","64.30","BAKER LAKE A","2300503","2018-01-02 20:00","2018","01","02","20:00","-32.5","","-36.6","","67","","","","32","","44","","24.1","","102.41","","","","-52","","Blowing Snow"
"-96.08","64.30","BAKER LAKE A","2300503","2018-01-02 21:00","2018","01","02","21:00","-31.9","","-36.0","","68","","","","33","","34","","24.1","","102.45","","","","-49","","Cloudy"
"-96.08","64.30","BAKER LAKE A","2300503","2018-01-02 22:00","2018","01","02","22:00","-32.4","","-36.5","","67","","","","34","","18","","24.1","","102.53","","","","-45","","NA"
"-96.08","64.30","BAKER LAKE A","2300503","2018-01-02 23:00","2018","01","02","23:00","-32.8","","-37.0","","67","","","","29","","12","","24.1","","102.57","","","","-44","","NA"
"-96.08","64.30","BAKER LAKE A","2300503","2018-01-03 00:00","2018","01","03","00:00","-32.2","","-36.4","","67","","","","31","","28","","24.1","","102.59","","","","-48","","Mostly Cloudy"
"-96.08","64.30","BAKER LAKE A","2300503","2018-01-03 01:00","2018","01","03","01:00","-31.9","","-36.1","","67","","","","32","","31","","24.1","","102.58","","","","-48","","NA"
"-96.08","64.30","BAKER LAKE A","2300503","2018-01-03 02:00","2018","01","03","02:00","-32.1","","-36.3","","67","","","","32","","26","","24.1","","102.62","","","","-47","","NA"
"-96.08","64.30","BAKER LAKE A","2300503","2018-01-03 03:00","2018","01","03","03:00","-31.8","","-35.8","","68","","","","31","","32","","24.1","","102.61","","","","-48","","Mainly Clear"
"-96.08","64.30","BAKER LAKE A","2300503","2018-01-03 04:00","2018","01","03","04:00","-31.3","","-35.3","","69","","","","32","","27","","24.1","","102.66","","","","-47","","NA"
"-96.08","64.30","BAKER LAKE A","2300503","2018-01-03 05:00","2018","01","03","05:00","-30.9","","-35.1","","67","","","","31","","27","","24.1","","102.68","","","","-46","","NA"
"-96.08","64.30","BAKER LAKE A","2300503","2018-01-03 06:00","2018","01","03","06:00","-30.3","","-34.3","","69","","","","29","","8","","24.1","","102.71","","","","-38","","Cloudy"
"-96.08","64.30","BAKER LAKE A","2300503","2018-01-03 07:00","2018","01","03","07:00","-28.9","","-32.9","","70","","","","31","","20","","24.1","","102.66","","","","-42","","NA"
"-96.08","64.30","BAKER LAKE A","2300503","2018-01-03 08:00","2018","01","03","08:00","-28.5","","-32.4","","70","","","","30","","32","","24.1","","102.68","","","","-44","","Snow,Blowing Snow"
"-96.08","64.30","BAKER LAKE A","2300503","2018-01-03 09:00","2018","01","03","09:00","-27.9","","-31.6","","71","","","","32","","26","","16.1","","102.67","","","","-42","","Snow,Blowing Snow"
"-96.08","64.30","BAKER LAKE A","2300503","2018-01-03 10:00","2018","01","03","10:00","-27.5","","-31.5","","69","","","","29","","12","","16.1","","102.72","","","","-37","","Snow"
"-96.08","64.30","BAKER LAKE A","2300503","2018-01-03 11:00","2018","01","03","11:00","-27.6","","-31.6","","70","","","","30","","20","","16.1","","102.70","","","","-40","","Snow"
"-96.08","64.30","BAKER LAKE A","2300503","2018-01-03 12:00","2018","01","03","12:00","-28.0","","-31.9","","70","","","","30","","28","","32.2","","102.70","","","","-43","","Blowing Snow"
"-96.08","64.30","BAKER LAKE A","2300503","2018-01-03 13:00","2018","01","03","13:00","-29.0","","-32.9","","69","","","","23","","16","","32.2","","102.70","","","","-41","","NA"
"-96.08","64.30","BAKER LAKE A","2300503","2018-01-03 14:00","2018","01","03","14:00","-29.3","","-33.1","","70","","","","31","","21","","32.2","","102.70","","","","-43","","NA"
"-96.08","64.30","BAKER LAKE A","2300503","2018-01-03 15:00","2018","01","03","15:00","-28.7","","-32.6","","70","","","","31","","32","","32.2","","102.72","","","","-44","","Mostly Cloudy"
"-96.08","64.30","BAKER LAKE A","2300503","2018-01-03 16:00","2018","01","03","16:00","-28.6","","-32.6","","69","","","","31","","31","","24.1","","102.75","","","","-44","","NA"
"-96.08","64.30","BAKER LAKE A","2300503","2018-01-03 17:00","2018","01","03","17:00","-29.5","","-33.4","","70","","","","30","","34","","24.1","","102.77","","","","-46","","Blowing Snow"
"-96.08","64.30","BAKER LAKE A","2300503","2018-01-03 18:00","2018","01","03","18:00","-29.3","","-33.3","","69","","","","34","","14","","24.1","","102.84","","","","-40","","Blowing Snow"
"-96.08","64.30","BAKER LAKE A","2300503","2018-01-03 19:00","2018","01","03","19:00","-30.0","","-34.0","","69","","","","26","","16","","24.1","","102.85","","","","-42","","NA"
"-96.08","64.30","BAKER LAKE A","2300503","2018-01-03 20:00","2018","01","03","20:00","-30.4","","-34.2","","70","","","","31","","29","","24.1","","102.80","","","","-46","","Snow,Blowing Snow"
"-96.08","64.30","BAKER LAKE A","2300503","2018-01-03 21:00","2018","01","03","21:00","-29.4","","-33.2","","70","","","","33","","27","","24.1","","102.82","","","","-44","","Mainly Clear"
"-96.08","64.30","BAKER LAKE A","2300503","2018-01-03 22:00","2018","01","03","22:00","-30.9","","-34.7","","70","","","","31","","26","","24.1","","102.84","","","","-46","","Blowing Snow"
"-96.08","64.30","BAKER LAKE A","2300503","2018-01-03 23:00","2018","01","03","23:00","-30.1","","-33.8","","71","","","","31","","15","","24.1","","102.85","","","","-42","","Blowing Snow"
"-96.08","64.30","BAKER LAKE A","2300503","2018-01-04 00:00","2018","01","04","00:00","-32.1","","-36.0","","69","","","","32","","16","","24.1","","102.90","","","","-44","","Mainly Clear"
"-96.08","64.30","BAKER LAKE A","2300503","2018-01-04 01:00","2018","01","04","01:00","-32.0","","-35.8","","70","","","","31","","30","","24.1","","102.95","","","","-48","","Blowing Snow"
"-96.08","64.30","BAKER LAKE A","2300503","2018-01-04 02:00","2018","01","04","02:00","-32.5","","-36.3","","69","","","","31","","36","","24.1","","102.98","","","","-50","","Blowing Snow"
"-96.08","64.30","BAKER LAKE A","2300503","2018-01-04 03:00","2018","01","04","03:00","-31.9","","-35.8","","69","","","","31","","38","","24.1","","103.06","","","","-50","","Blowing Snow"
"-96.08","64.30","BAKER LAKE A","2300503","2018-01-04 04:00","2018","01","04","04:00","-32.4","","-36.2","","70","","","","31","","28","","24.1","","103.09","","","","-48","","Blowing Snow"
"-96.08","64.30","BAKER LAKE A","2300503","2018-01-04 05:00","2018","01","04","05:00","-32.1","","-35.9","","70","","","","31","","26","","24.1","","103.14","","","","-47","","Blowing Snow"
"-96.08","64.30","BAKER LAKE A","2300503","2018-01-04 06:00","2018","01","04","06:00","-31.5","","-35.4","","70","","","","33","","26","","24.1","","103.14","","","","-47","","Blowing Snow"
"-96.08","64.30","BAKER LAKE A","2300503","2018-01-04 07:00","2018","01","04","07:00","-32.4","","-36.1","","70","","","","31","","21","","24.1","","103.16","","","","-46","","NA"
"-96.08","64.30","BAKER LAKE A","2300503","2018-01-04 08:00","2018","01","04","08:00","-32.2","","-36.0","","70","","","","26","","3","","24.1","","103.22","","","","-36","","NA"
"-96.08","64.30","BAKER LAKE A","2300503","2018-01-04 09:00","2018","01","04","09:00","-32.8","","-36.5","","70","","","","31","","13","","24.1","","103.23","","","","-44","","Clear"
"-96.08","64.30","BAKER LAKE A","2300503","2018-01-04 10:00","2018","01","04","10:00","-32.4","","-35.9","","72","","","","29","","5","","24.1","","103.31","","","","-38","","NA"
"-96.08","64.30","BAKER LAKE A","2300503","2018-01-04 11:00","2018","01","04","11:00","-32.8","","-36.4","","71","","","","32","","9","","32.2","","103.33","","","","-42","","NA"
"-96.08","64.30","BAKER LAKE A","2300503","2018-01-04 12:00","2018","01","04","12:00","-32.9","","-36.4","","72","","","","30","","16","","32.2","","103.37","","","","-45","","Clear"
"-96.08","64.30","BAKER LAKE A","2300503","2018-01-04 13:00","2018","01","04","13:00","-32.7","","-36.2","","72","","","","25","","4","","32.2","","103.40","","","","-37","","NA"
"-96.08","64.30","BAKER LAKE A","2300503","2018-01-04 14:00","2018","01","04","14:00","-33.2","","-36.6","","72","","","","35","","5","","32.2","","103.45","","","","-39","","NA"
"-96.08","64.30","BAKER LAKE A","2300503","2018-01-04 15:00","2018","01","04","15:00","-32.8","","-36.2","","72","","","","34","","9","","32.2","","103.46","","","","-42","","Clear"
"-96.08","64.30","BAKER LAKE A","2300503","2018-01-04 16:00","2018","01","04","16:00","-35.0","","-38.5","","71","","","","36","","1","","32.2","","103.48","","","","-36","","NA"
"-96.08","64.30","BAKER LAKE A","2300503","2018-01-04 17:00","2018","01","04","17:00","-34.0","","-37.4","","72","","","","36","","3","","24.1","","103.52","","","","-38","","NA"
"-96.08","64.30","BAKER LAKE A","2300503","2018-01-04 18:00","2018","01","04","18:00","-33.8","","-37.3","","72","","","","36","","2","","24.1","","103.53","","","","-36","","Clear"
"-96.08","64.30","BAKER LAKE A","2300503","2018-01-04 19:00","2018","01","04","19:00","-34.3","","-37.7","","72","","","","0","","1","","24.1","","103.56","","","","-36","","NA"
"-96.08","64.30","BAKER LAKE A","2300503","2018-01-04 20:00","2018","01","04","20:00","-34.6","","-38.2","","71","","","","34","","6","","24.1","","103.55","","","","-42","","NA"
"-96.08","64.30","BAKER LAKE A","2300503","2018-01-04 21:00","2018","01","04","21:00","-35.7","","-39.3","","70","","","","18","","5","","24.1","","103.53","","","","-42","","Clear"
"-96.08","64.30","BAKER LAKE A","2300503","2018-01-04 22:00","2018","01","04","22:00","-34.7","","-38.2","","71","","","","19","","4","","24.1","","103.48","","","","-40","","NA"
"-96.08","64.30","BAKER LAKE A","2300503","2018-01-04 23:00","2018","01","04","23:00","-34.6","","-38.1","","71","","","","","","0","","24.1","","103.46","","","","","","NA"
"-96.08","64.30","BAKER LAKE A","2300503","2018-01-05 00:00","2018","01","05","00:00","-34.5","","-38.0","","71","","","","36","","2","","24.1","","103.48","","","","-37","","Clear"
"-96.08","64.30","BAKER LAKE A","2300503","2018-01-05 01:00","2018","01","05","01:00","-34.7","","-38.2","","71","","","","36","","3","","24.1","","103.47","","","","-38","","NA"
"-96.08","64.30","BAKER LAKE A","2300503","2018-01-05 02:00","2018","01","05","02:00","-35.1","","-38.7","","71","","","","36","","2","","24.1","","103.47","","","","-38","","NA"
"-96.08","64.30","BAKER LAKE A","2300503","2018-01-05 03:00","2018","01","05","03:00","-34.4","","-37.9","","71","","","","","","0","","24.1","","103.48","","","","","","Clear"
"-96.08","64.30","BAKER LAKE A","2300503","2018-01-05 04:00","2018","01","05","04:00","-34.2","","-37.7","","71","","","","36","","1","","24.1","","103.44","","","","-35","","NA"
"-96.08","64.30","BAKER LAKE A","2300503","2018-01-05 05:00","2018","01","05","05:00","-34.9","","-38.5","","70","","","","6","","3","","24.1","","103.34","","","","-39","","Snow"
"-96.08","64.30","BAKER LAKE A","2300503","2018-01-05 06:00","2018","01","05","06:00","-34.3","","-37.9","","71","","","","36","","2","","24.1","","103.32","","","","-37","","Ice Crystals"
"-96.08","64.30","BAKER LAKE A","2300503","2018-01-05 07:00","2018","01","05","07:00","-34.3","","-37.9","","71","","","","14","","8","","24.1","","103.23","","","","-43","","Ice Crystals"
"-96.08","64.30","BAKER LAKE A","2300503","2018-01-05 08:00","2018","01","05","08:00","-34.0","","-37.5","","71","","","","15","","4","","24.1","","103.15","","","","-39","","Ice Crystals"
"-96.08","64.30","BAKER LAKE A","2300503","2018-01-05 09:00","2018","01","05","09:00","-33.9","","-37.4","","71","","","","36","","1","","32.2","","103.05","","","","-35","","Ice Crystals"
"-96.08","64.30","BAKER LAKE A","2300503","2018-01-05 10:00","2018","01","05","10:00","-35.5","","-39.1","","70","","","","31","","3","","40.2","","103.02","","","","-39","","Ice Crystals"
"-96.08","64.30","BAKER LAKE A","2300503","2018-01-05 11:00","2018","01","05","11:00","-33.1","","-36.6","","72","","","","11","","16","","40.2","","102.98","","","","-46","","Ice Crystals"
"-96.08","64.30","BAKER LAKE A","2300503","2018-01-05 12:00","2018","01","05","12:00","-32.6","","-36.1","","72","","","","11","","13","","24.1","","102.89","","","","-44","","Ice Crystals"
"-96.08","64.30","BAKER LAKE A","2300503","2018-01-05 13:00","2018","01","05","13:00","-32.7","","-36.2","","72","","","","11","","9","","32.2","","102.81","","","","-42","","Ice Crystals"
"-96.08","64.30","BAKER LAKE A","2300503","2018-01-05 14:00","2018","01","05","14:00","-32.1","","-35.6","","72","","","","11","","9","","40.2","","102.72","","","","-41","","Ice Crystals"
"-96.08","64.30","BAKER LAKE A","2300503","2018-01-05 15:00","2018","01","05","15:00","-32.3","","-35.8","","72","","","","11","","14","","40.2","","102.62","","","","-44","","Ice Crystals"
"-96.08","64.30","BAKER LAKE A","2300503","2018-01-05 16:00","2018","01","05","16:00","-32.2","","-35.6","","72","","","","10","","16","","40.2","","102.56","","","","-45","","Ice Crystals"
"-96.08","64.30","BAKER LAKE A","2300503","2018-01-05 17:00","2018","01","05","17:00","-31.9","","-35.3","","72","","","","11","","21","","24.1","","102.45","","","","-46","","Ice Crystals"
"-96.08","64.30","BAKER LAKE A","2300503","2018-01-05 18:00","2018","01","05","18:00","-31.9","","-35.4","","72","","","","10","","16","","24.1","","102.33","","","","-44","","Ice Crystals"
"-96.08","64.30","BAKER LAKE A","2300503","2018-01-05 19:00","2018","01","05","19:00","-31.8","","-35.3","","72","","","","10","","25","","20.9","","102.19","","","","-47","","Ice Crystals,Blowing Snow"
"-96.08","64.30","BAKER LAKE A","2300503","2018-01-05 20:00","2018","01","05","20:00","-31.6","","-35.0","","72","","","","10","","25","","20.9","","102.12","","","","-47","","Ice Crystals,Blowing Snow"
"-96.08","64.30","BAKER LAKE A","2300503","2018-01-05 21:00","2018","01","05","21:00","-31.0","","-34.3","","73","","","","10","","22","","24.1","","102.02","","","","-45","","Ice Crystals"
"-96.08","64.30","BAKER LAKE A","2300503","2018-01-05 22:00","2018","01","05","22:00","-30.0","","-33.3","","73","","","","10","","32","","24.1","","101.87","","","","-46","","Ice Crystals,Blowing Snow"
"-96.08","64.30","BAKER LAKE A","2300503","2018-01-05 23:00","2018","01","05","23:00","-29.2","","-32.4","","74","","","","10","","28","","16.1","","101.78","","","","-44","","Ice Crystals,Blowing Snow"
"-96.08","64.30","BAKER LAKE A","2300503","2018-01-06 00:00","2018","01","06","00:00","-28.5","","-31.7","","74","","","","11","","30","","8.1","","101.69","","","","-44","","Ice Crystals,Blowing Snow"
"-96.08","64.30","BAKER LAKE A","2300503","2018-01-06 01:00","2018","01","06","01:00","-27.6","","-30.7","","75","","","","10","","30","","9.7","","101.59","","","","-42","","Ice Crystals,Blowing Snow"
"-96.08","64.30","BAKER LAKE A","2300503","2018-01-06 02:00","2018","01","06","02:00","-27.4","","-30.5","","75","","","","9","","28","","16.1","","101.58","","","","-42","","Ice Crystals,Blowing Snow"
"-96.08","64.30","BAKER LAKE A","2300503","2018-01-06 03:00","2018","01","06","03:00","-26.9","","-30.0","","76","","","","10","","28","","9.7","","101.47","","","","-41","","Snow,Blowing Snow"
"-96.08","64.30","BAKER LAKE A","2300503","2018-01-06 04:00","2018","01","06","04:00","-26.5","","-29.5","","76","","","","10","","29","","16.1","","101.41","","","","-41","","Snow,Blowing Snow"
"-96.08","64.30","BAKER LAKE A","2300503","2018-01-06 05:00","2018","01","06","05:00","-25.6","","-28.6","","77","","","","10","","28","","16.1","","101.36","","","","-39","","Snow,Blowing Snow"
"-96.08","64.30","BAKER LAKE A","2300503","2018-01-06 06:00","2018","01","06","06:00","-25.3","","-28.3","","77","","","","11","","31","","16.1","","101.26","","","","-40","","Snow,Blowing Snow"
"-96.08","64.30","BAKER LAKE A","2300503","2018-01-06 07:00","2018","01","06","07:00","-24.7","","-27.6","","77","","","","11","","30","","24.1","","101.19","","","","-39","","Snow,Blowing Snow"
"-96.08","64.30","BAKER LAKE A","2300503","2018-01-06 08:00","2018","01","06","08:00","-24.4","","-27.3","","78","","","","10","","25","","24.1","","101.18","","","","-37","","Snow,Blowing Snow"
"-96.08","64.30","BAKER LAKE A","2300503","2018-01-06 09:00","2018","01","06","09:00","-24.4","","-27.2","","78","","","","11","","31","","24.1","","101.11","","","","-38","","Snow,Blowing Snow"
"-96.08","64.30","BAKER LAKE A","2300503","2018-01-06 10:00","2018","01","06","10:00","-25.5","","-28.5","","77","","","","11","","25","","6.4","","101.11","","","","-39","","Snow,Blowing Snow"
"-96.08","64.30","BAKER LAKE A","2300503","2018-01-06 11:00","2018","01","06","11:00","-27.0","","-30.0","","76","","","","9","","21","","24.1","","101.09","","","","-40","","Blowing Snow"
"-96.08","64.30","BAKER LAKE A","2300503","2018-01-06 12:00","2018","01","06","12:00","-26.7","","-29.8","","76","","","","9","","10","","24.1","","101.04","","","","-35","","Mostly Cloudy"
"-96.08","64.30","BAKER LAKE A","2300503","2018-01-06 13:00","2018","01","06","13:00","-25.9","","-28.9","","76","","","","9","","15","","24.1","","100.99","","","","-36","","NA"
"-96.08","64.30","BAKER LAKE A","2300503","2018-01-06 14:00","2018","01","06","14:00","-26.1","","-29.1","","76","","","","9","","20","","24.1","","100.94","","","","-38","","NA"
"-96.08","64.30","BAKER LAKE A","2300503","2018-01-06 15:00","2018","01","06","15:00","-26.2","","-29.2","","76","","","","10","","22","","16.1","","100.89","","","","-39","","Cloudy"
"-96.08","64.30","BAKER LAKE A","2300503","2018-01-06 16:00","2018","01","06","16:00","-26.7","","-29.7","","76","","","","10","","19","","19.3","","100.84","","","","-39","","Ice Crystals"
"-96.08","64.30","BAKER LAKE A","2300503","2018-01-06 17:00","2018","01","06","17:00","-26.6","","-29.7","","76","","","","8","","12","","19.3","","100.86","","","","-36","","Ice Crystals"
"-96.08","64.30","BAKER LAKE A","2300503","2018-01-06 18:00","2018","01","06","18:00","-26.4","","-29.5","","76","","","","7","","12","","24.1","","100.79","","","","-36","","Ice Crystals"
"-96.08","64.30","BAKER LAKE A","2300503","2018-01-06 19:00","2018","01","06","19:00","-26.0","","-29.0","","76","","","","6","","9","","24.1","","100.71","","","","-34","","Ice Crystals"
"-96.08","64.30","BAKER LAKE A","2300503","2018-01-06 20:00","2018","01","06","20:00","-26.4","","-29.4","","76","","","","8","","13","","24.1","","100.67","","","","-36","","Ice Crystals"
"-96.08","64.30","BAKER LAKE A","2300503","2018-01-06 21:00","2018","01","06","21:00","-26.4","","-29.5","","76","","","","10","","16","","24.1","","100.59","","","","-37","","Ice Crystals"
"-96.08","64.30","BAKER LAKE A","2300503","2018-01-06 22:00","2018","01","06","22:00","-27.1","","-30.2","","76","","","","9","","18","","24.1","","100.55","","","","-39","","Ice Crystals"
"-96.08","64.30","BAKER LAKE A","2300503","2018-01-06 23:00","2018","01","06","23:00","-27.6","","-30.8","","75","","","","7","","8","","24.1","","100.52","","","","-35","","Ice Crystals"
"-96.08","64.30","BAKER LAKE A","2300503","2018-01-07 00:00","2018","01","07","00:00","-27.4","","-30.5","","75","","","","8","","14","","24.1","","100.48","","","","-38","","Snow"
"-96.08","64.30","BAKER LAKE A","2300503","2018-01-07 01:00","2018","01","07","01:00","-27.0","","-30.2","","75","","","","9","","10","","16.1","","100.44","","","","-36","","Snow"
"-96.08","64.30","BAKER LAKE A","2300503","2018-01-07 02:00","2018","01","07","02:00","-26.4","","-29.4","","76","","","","10","","15","","16.1","","100.34","","","","-37","","Snow"
"-96.08","64.30","BAKER LAKE A","2300503","2018-01-07 03:00","2018","01","07","03:00","-26.2","","-29.2","","76","","","","9","","17","","16.1","","100.32","","","","-37","","Snow"
"-96.08","64.30","BAKER LAKE A","2300503","2018-01-07 04:00","2018","01","07","04:00","-25.5","","-28.4","","77","","","","10","","18","","12.9","","100.27","","","","-37","","Snow"
"-96.08","64.30","BAKER LAKE A","2300503","2018-01-07 05:00","2018","01","07","05:00","-24.8","","-27.8","","77","","","","9","","14","","16.1","","100.24","","","","-35","","Snow"
"-96.08","64.30","BAKER LAKE A","2300503","2018-01-07 06:00","2018","01","07","06:00","-24.1","","-27.1","","77","","","","10","","17","","24.1","","100.21","","","","-35","","Snow"
"-96.08","64.30","BAKER LAKE A","2300503","2018-01-07 07:00","2018","01","07","07:00","-23.3","","-26.2","","78","","","","11","","17","","24.1","","100.17","","","","-34","","Snow"
"-96.08","64.30","BAKER LAKE A","2300503","2018-01-07 08:00","2018","01","07","08:00","-22.6","","-25.4","","78","","","","11","","17","","24.1","","100.10","","","","-33","","Snow"
"-96.08","64.30","BAKER LAKE A","2300503","2018-01-07 09:00","2018","01","07","09:00","-22.1","","-24.9","","79","","","","8","","10","","19.3","","100.09","","","","-30","","Snow"
"-96.08","64.30","BAKER LAKE A","2300503","2018-01-07 10:00","2018","01","07","10:00","-21.7","","-24.4","","79","","","","9","","11","","4.8","","100.09","","","","-30","","Snow"
"-96.08","64.30","BAKER LAKE A","2300503","2018-01-07 11:00","2018","01","07","11:00","-21.2","","-23.9","","79","","","","9","","11","","6.4","","100.07","","","","-29","","Snow"
"-96.08","64.30","BAKER LAKE A","2300503","2018-01-07 12:00","2018","01","07","12:00","-20.4","","-23.0","","80","","","","7","","6","","24.1","","100.05","","","","-25","","Snow"
"-96.08","64.30","BAKER LAKE A","2300503","2018-01-07 13:00","2018","01","07","13:00","-20.0","","-22.7","","80","","","","36","","6","","2.4","","100.06","","","","-25","","Snow"
"-96.08","64.30","BAKER LAKE A","2300503","2018-01-07 14:00","2018","01","07","14:00","-19.1","","-21.5","","82","","","","10","","3","","4.8","","100.04","","","","-22","","Snow"
"-96.08","64.30","BAKER LAKE A","2300503","2018-01-07 15:00","2018","01","07","15:00","-19.2","","-21.6","","82","","","","11","","15","","9.7","","100.02","","","","-28","","Snow"
"-96.08","64.30","BAKER LAKE A","2300503","2018-01-07 16:00","2018","01","07","16:00","-18.6","","-20.9","","82","","","","12","","10","","11.3","","100.03","","","","-26","","Snow"
"-96.08","64.30","BAKER LAKE A","2300503","2018-01-07 17:00","2018","01","07","17:00","-18.6","","-20.8","","83","","","","36","","1","","19.3","","100.04","","","","-19","","Snow"
"-96.08","64.30","BAKER LAKE A","2300503","2018-01-07 18:00","2018","01","07","18:00","-18.6","","-20.9","","83","","","","19","","3","","24.1","","100.05","","","","-21","","Snow"
"-96.08","64.30","BAKER LAKE A","2300503","2018-01-07 19:00","2018","01","07","19:00","-18.9","","-21.3","","82","","","","36","","1","","24.1","","100.02","","","","-20","","Snow"
"-96.08","64.30","BAKER LAKE A","2300503","2018-01-07 20:00","2018","01","07","20:00","-18.8","","-21.1","","82","","","","36","","3","","4.8","","100.03","","","","-21","","Snow"
"-96.08","64.30","BAKER LAKE A","2300503","2018-01-07 21:00","2018","01","07","21:00","-18.9","","-21.3","","81","","","","36","","2","","24.1","","100.01","","","","-21","","Snow"
"-96.08","64.30","BAKER LAKE A","2300503","2018-01-07 22:00","2018","01","07","22:00","-19.0","","-21.4","","81","","","","36","","1","","16.1","","100.02","","","","-20","","Snow"
"-96.08","64.30","BAKER LAKE A","2300503","2018-01-07 23:00","2018","01","07","23:00","-18.7","","-21.1","","81","","","","36","","3","","12.9","","100.02","","","","-21","","Snow"
"-96.08","64.30","BAKER LAKE A","2300503","2018-01-08 00:00","2018","01","08","00:00","-19.2","","-21.9","","80","","","","33","","9","","16.1","","100.02","","","","-26","","Snow"
"-96.08","64.30","BAKER LAKE A","2300503","2018-01-08 01:00","2018","01","08","01:00","-19.5","","-22.6","","77","","","","34","","22","","12.9","","100.00","","","","-30","","Snow"
"-96.08","64.30","BAKER LAKE A","2300503","2018-01-08 02:00","2018","01","08","02:00","-20.1","","-23.1","","77","","","","33","","19","","24.1","","100.02","","","","-30","","Snow"
"-96.08","64.30","BAKER LAKE A","2300503","2018-01-08 03:00","2018","01","08","03:00","-20.1","","-23.3","","76","","","","33","","19","","16.1","","100.04","","","","-30","","Snow"
"-96.08","64.30","BAKER LAKE A","2300503","2018-01-08 04:00","2018","01","08","04:00","-20.4","","-23.5","","76","","","","32","","22","","24.1","","100.02","","","","-31","","Snow"
"-96.08","64.30","BAKER LAKE A","2300503","2018-01-08 05:00","2018","01","08","05:00","-20.1","","-23.4","","76","","","","32","","24","","9.7","","99.99","","","","-32","","Snow,Blowing Snow"
"-96.08","64.30","BAKER LAKE A","2300503","2018-01-08 06:00","2018","01","08","06:00","-21.2","","-24.4","","75","","","","31","","21","","24.1","","99.99","","","","-32","","Snow,Blowing Snow"
"-96.08","64.30","BAKER LAKE A","2300503","2018-01-08 07:00","2018","01","08","07:00","-20.6","","-23.8","","76","","","","31","","23","","24.1","","99.97","","","","-32","","Snow,Blowing Snow"
"-96.08","64.30","BAKER LAKE A","2300503","2018-01-08 08:00","2018","01","08","08:00","-20.6","","-23.8","","76","","","","29","","17","","24.1","","99.96","","","","-30","","Moderate Snow,Blowing Snow"
"-96.08","64.30","BAKER LAKE A","2300503","2018-01-08 09:00","2018","01","08","09:00","-21.0","","-24.4","","75","","","","30","","25","","24.1","","99.96","","","","-33","","Snow,Blowing Snow"
"-96.08","64.30","BAKER LAKE A","2300503","2018-01-08 10:00","2018","01","08","10:00","-21.9","","-25.3","","75","","","","30","","23","","32.2","","99.94","","","","-34","","Snow,Blowing Snow"
"-96.08","64.30","BAKER LAKE A","2300503","2018-01-08 11:00","2018","01","08","11:00","-21.9","","-25.2","","75","","","","31","","25","","40.2","","99.91","","","","-34","","Snow,Blowing Snow"
"-96.08","64.30","BAKER LAKE A","2300503","2018-01-08 12:00","2018","01","08","12:00","-23.9","","-27.4","","73","","","","29","","28","","40.2","","99.85","","","","-37","","Snow,Blowing Snow"
"-96.08","64.30","BAKER LAKE A","2300503","2018-01-08 13:00","2018","01","08","13:00","-24.6","","-28.1","","74","","","","31","","27","","40.2","","99.81","","","","-38","","Blowing Snow"
"-96.08","64.30","BAKER LAKE A","2300503","2018-01-08 14:00","2018","01","08","14:00","-24.5","","-27.9","","74","","","","30","","25","","40.2","","99.82","","","","-37","","Blowing Snow"
"-96.08","64.30","BAKER LAKE A","2300503","2018-01-08 15:00","2018","01","08","15:00","-25.4","","-28.9","","73","","","","30","","31","","40.2","","99.83","","","","-40","","Blowing Snow"
"-96.08","64.30","BAKER LAKE A","2300503","2018-01-08 16:00","2018","01","08","16:00","-26.3","","-29.7","","73","","","","29","","30","","24.1","","99.84","","","","-41","","Blowing Snow"
"-96.08","64.30","BAKER LAKE A","2300503","2018-01-08 17:00","2018","01","08","17:00","-27.2","","-30.7","","73","","","","29","","28","","24.1","","99.84","","","","-42","","Ice Crystals,Blowing Snow"
"-96.08","64.30","BAKER LAKE A","2300503","2018-01-08 18:00","2018","01","08","18:00","-26.5","","-30.0","","73","","","","30","","30","","24.1","","99.83","","","","-41","","Ice Crystals,Blowing Snow"
"-96.08","64.30","BAKER LAKE A","2300503","2018-01-08 19:00","2018","01","08","19:00","-25.9","","-29.4","","73","","","","31","","35","","24.1","","99.82","","","","-41","","Ice Crystals,Blowing Snow"
"-96.08","64.30","BAKER LAKE A","2300503","2018-01-08 20:00","2018","01","08","20:00","-24.7","","-28.1","","74","","","","31","","32","","24.1","","99.81","","","","-39","","Ice Crystals,Blowing Snow"
"-96.08","64.30","BAKER LAKE A","2300503","2018-01-08 21:00","2018","01","08","21:00","-24.7","","-28.1","","74","","","","32","","43","","16.1","","99.80","","","","-41","","Blowing Snow"
"-96.08","64.30","BAKER LAKE A","2300503","2018-01-08 22:00","2018","01","08","22:00","-25.3","","-28.6","","74","","","","30","","40","","24.1","","99.91","","","","-41","","Blowing Snow"
"-96.08","64.30","BAKER LAKE A","2300503","2018-01-08 23:00","2018","01","08","23:00","-26.1","","-29.2","","75","","","","31","","53","","1.2","","99.97","","","","-44","","Blowing Snow"
"-96.08","64.30","BAKER LAKE A","2300503","2018-01-09 00:00","2018","01","09","00:00","-27.8","","-31.1","","74","","","","32","","63","","0.4","","100.02","","","","-48","","Blowing Snow"
"-96.08","64.30","BAKER LAKE A","2300503","2018-01-09 01:00","2018","01","09","01:00","-28.6","","-31.9","","74","","","","32","","58","","0.4","","100.08","","","","-48","","Blowing Snow"
"-96.08","64.30","BAKER LAKE A","2300503","2018-01-09 02:00","2018","01","09","02:00","-28.7","","-32.0","","74","","","","32","","60","","0.4","","100.16","","","","-49","","Blowing Snow"
"-96.08","64.30","BAKER LAKE A","2300503","2018-01-09 03:00","2018","01","09","03:00","-29.3","","-32.7","","73","","","","32","","54","","0.4","","100.32","","","","-49","","Blowing Snow"
"-96.08","64.30","BAKER LAKE A","2300503","2018-01-09 04:00","2018","01","09","04:00","-30.2","","-33.6","","73","","","","32","","56","","0.4","","100.33","","","","-50","","Blowing Snow"
"-96.08","64.30","BAKER LAKE A","2300503","2018-01-09 05:00","2018","01","09","05:00","-30.7","","-34.2","","72","","","","32","","66","","0.4","","100.31","","","","-52","","Blowing Snow"
"-96.08","64.30","BAKER LAKE A","2300503","2018-01-09 06:00","2018","01","09","06:00","-32.0","","-35.5","","72","","","","31","","45","","0.2","","100.46","","","","-51","","Blowing Snow"
"-96.08","64.30","BAKER LAKE A","2300503","2018-01-09 07:00","2018","01","09","07:00","-32.1","","-35.6","","72","","","","31","","69","","0.2","","100.33","","","","-54","","Blowing Snow"
"-96.08","64.30","BAKER LAKE A","2300503","2018-01-09 08:00","2018","01","09","08:00","-32.5","","-36.1","","71","","","","31","","75","","0.2","","100.33","","","","-55","","Blowing Snow"
"-96.08","64.30","BAKER LAKE A","2300503","2018-01-09 09:00","2018","01","09","09:00","-33.6","","-37.3","","70","","","","31","","72","","0.2","","100.42","","","","-57","","Blowing Snow"
"-96.08","64.30","BAKER LAKE A","2300503","2018-01-09 10:00","2018","01","09","10:00","-34.0","","-37.7","","70","","","","31","","57","","0.2","","100.56","","","","-55","","Blowing Snow"
"-96.08","64.30","BAKER LAKE A","2300503","2018-01-09 11:00","2018","01","09","11:00","-33.6","","-37.3","","70","","","","30","","53","","0.4","","100.57","","","","-54","","Blowing Snow"
"-96.08","64.30","BAKER LAKE A","2300503","2018-01-09 12:00","2018","01","09","12:00","-33.8","","-37.6","","69","","","","31","","49","","0.4","","100.58","","","","-54","","Blowing Snow"
"-96.08","64.30","BAKER LAKE A","2300503","2018-01-09 13:00","2018","01","09","13:00","-34.4","","-38.3","","69","","","","30","","41","","0.4","","100.64","","","","-54","","Blowing Snow"
"-96.08","64.30","BAKER LAKE A","2300503","2018-01-09 14:00","2018","01","09","14:00","-34.8","","-38.8","","68","","","","30","","35","","0.4","","100.65","","","","-53","","Blowing Snow"
"-96.08","64.30","BAKER LAKE A","2300503","2018-01-09 15:00","2018","01","09","15:00","-35.2","","-39.2","","68","","","","30","","48","","0.4","","100.61","","","","-56","","Blowing Snow"
"-96.08","64.30","BAKER LAKE A","2300503","2018-01-09 16:00","2018","01","09","16:00","-35.4","","-39.4","","68","","","","31","","54","","0.4","","100.57","","","","-57","","Blowing Snow"
"-96.08","64.30","BAKER LAKE A","2300503","2018-01-09 17:00","2018","01","09","17:00","-35.5","","-39.5","","68","","","","30","","57","","0.8","","100.54","","","","-58","","Blowing Snow"
"-96.08","64.30","BAKER LAKE A","2300503","2018-01-09 18:00","2018","01","09","18:00","-35.8","","-39.8","","68","","","","31","","43","","8.1","","100.60","","","","-56","","Blowing Snow"
"-96.08","64.30","BAKER LAKE A","2300503","2018-01-09 19:00","2018","01","09","19:00","-35.4","","-39.4","","68","","","","31","","49","","0.8","","100.56","","","","-56","","Blowing Snow"
"-96.08","64.30","BAKER LAKE A","2300503","2018-01-09 20:00","2018","01","09","20:00","-36.0","","-40.0","","67","","","","31","","46","","8.1","","100.59","","","","-57","","Blowing Snow"
"-96.08","64.30","BAKER LAKE A","2300503","2018-01-09 21:00","2018","01","09","21:00","-36.2","","-40.4","","67","","","","31","","35","","24.1","","100.60","","","","-55","","Blowing Snow"
"-96.08","64.30","BAKER LAKE A","2300503","2018-01-09 22:00","2018","01","09","22:00","-35.8","","-39.9","","67","","","","31","","47","","16.1","","100.55","","","","-56","","Blowing Snow"
"-96.08","64.30","BAKER LAKE A","2300503","2018-01-09 23:00","2018","01","09","23:00","-35.3","","-39.3","","68","","","","31","","34","","16.1","","100.58","","","","-53","","Blowing Snow"
"-96.08","64.30","BAKER LAKE A","2300503","2018-01-10 00:00","2018","01","10","00:00","-35.8","","-39.9","","67","","","","32","","30","","16.1","","100.60","","","","-53","","Blowing Snow"
"-96.08","64.30","BAKER LAKE A","2300503","2018-01-10 01:00","2018","01","10","01:00","-35.9","","-40.1","","67","","","","30","","35","","16.1","","100.58","","","","-54","","Blowing Snow"
"-96.08","64.30","BAKER LAKE A","2300503","2018-01-10 02:00","2018","01","10","02:00","-35.5","","-39.7","","67","","","","31","","36","","16.1","","100.59","","","","-54","","Blowing Snow"
"-96.08","64.30","BAKER LAKE A","2300503","2018-01-10 03:00","2018","01","10","03:00","-35.3","","-39.4","","67","","","","31","","40","","16.1","","100.58","","","","-55","","Blowing Snow"
"-96.08","64.30","BAKER LAKE A","2300503","2018-01-10 04:00","2018","01","10","04:00","-35.3","","-39.3","","68","","","","31","","40","","11.3","","100.54","","","","-55","","Blowing Snow"
"-96.08","64.30","BAKER LAKE A","2300503","2018-01-10 05:00","2018","01","10","05:00","-34.7","","-38.7","","68","","","","32","","34","","8.1","","100.57","","","","-53","","Blowing Snow"
"-96.08","64.30","BAKER LAKE A","2300503","2018-01-10 06:00","2018","01","10","06:00","-34.7","","-38.7","","68","","","","32","","39","","6.4","","100.52","","","","-54","","Blowing Snow"
"-96.08","64.30","BAKER LAKE A","2300503","2018-01-10 07:00","2018","01","10","07:00","-34.5","","-38.4","","69","","","","31","","35","","4.0","","100.51","","","","-53","","Blowing Snow"
"-96.08","64.30","BAKER LAKE A","2300503","2018-01-10 08:00","2018","01","10","08:00","-34.0","","-37.9","","69","","","","32","","48","","2.4","","100.43","","","","-54","","Blowing Snow"
"-96.08","64.30","BAKER LAKE A","2300503","2018-01-10 09:00","2018","01","10","09:00","-33.8","","-37.8","","68","","","","31","","32","","3.2","","100.49","","","","-51","","Blowing Snow"
"-96.08","64.30","BAKER LAKE A","2300503","2018-01-10 10:00","2018","01","10","10:00","-33.5","","-37.4","","69","","","","31","","39","","1.6","","100.50","","","","-52","","Blowing Snow"
"-96.08","64.30","BAKER LAKE A","2300503","2018-01-10 11:00","2018","01","10","11:00","-33.1","","-37.0","","69","","","","31","","39","","0.8","","100.48","","","","-51","","Blowing Snow"
"-96.08","64.30","BAKER LAKE A","2300503","2018-01-10 12:00","2018","01","10","12:00","-33.3","","-37.3","","69","","","","31","","52","","0.4","","100.41","","","","-54","","Blowing Snow"
"-96.08","64.30","BAKER LAKE A","2300503","2018-01-10 13:00","2018","01","10","13:00","-33.7","","-37.8","","68","","","","30","","34","","0.8","","100.48","","","","-51","","Blowing Snow"
"-96.08","64.30","BAKER LAKE A","2300503","2018-01-10 14:00","2018","01","10","14:00","-33.6","","-37.6","","68","","","","30","","49","","0.8","","100.43","","","","-54","","Blowing Snow"
"-96.08","64.30","BAKER LAKE A","2300503","2018-01-10 15:00","2018","01","10","15:00","-33.3","","-37.3","","68","","","","30","","46","","0.8","","100.43","","","","-53","","Blowing Snow"
"-96.08","64.30","BAKER LAKE A","2300503","2018-01-10 16:00","2018","01","10","16:00","-33.0","","-37.0","","68","","","","30","","46","","1.6","","100.40","","","","-53","","Blowing Snow"
"-96.08","64.30","BAKER LAKE A","2300503","2018-01-10 17:00","2018","01","10","17:00","-32.8","","-36.8","","68","","","","30","","46","","4.8","","100.40","","","","-52","","Blowing Snow"
"-96.08","64.30","BAKER LAKE A","2300503","2018-01-10 18:00","2018","01","10","18:00","-32.7","","-36.6","","69","","","","30","","48","","4.8","","100.38","","","","-52","","Blowing Snow"
"-96.08","64.30","BAKER LAKE A","2300503","2018-01-10 19:00","2018","01","10","19:00","-32.4","","-36.3","","69","","","","30","","48","","0.8","","100.34","","","","-52","","Blowing Snow"
"-96.08","64.30","BAKER LAKE A","2300503","2018-01-10 20:00","2018","01","10","20:00","-32.2","","-36.1","","70","","","","30","","39","","0.8","","100.33","","","","-50","","Blowing Snow"
"-96.08","64.30","BAKER LAKE A","2300503","2018-01-10 21:00","2018","01","10","21:00","-31.7","","-35.5","","70","","","","31","","45","","1.2","","100.30","","","","-51","","Blowing Snow"
"-96.08","64.30","BAKER LAKE A","2300503","2018-01-10 22:00","2018","01","10","22:00","-31.3","","-35.0","","71","","","","30","","40","","1.0","","100.32","","","","-49","","Blowing Snow"
"-96.08","64.30","BAKER LAKE A","2300503","2018-01-10 23:00","2018","01","10","23:00","-31.0","","-34.7","","71","","","","29","","29","","1.0","","100.29","","","","-47","","Blowing Snow"
"-96.08","64.30","BAKER LAKE A","2300503","2018-01-11 00:00","2018","01","11","00:00","-31.1","","-34.8","","71","","","","30","","40","","1.0","","100.20","","","","-49","","Blowing Snow"
"-96.08","64.30","BAKER LAKE A","2300503","2018-01-11 01:00","2018","01","11","01:00","-30.7","","-34.3","","72","","","","31","","42","","0.6","","100.24","","","","-49","","Blowing Snow"
"-96.08","64.30","BAKER LAKE A","2300503","2018-01-11 02:00","2018","01","11","02:00","-30.3","","-33.8","","72","","","","31","","43","","0.8","","100.20","","","","-48","","Blowing Snow"
"-96.08","64.30","BAKER LAKE A","2300503","2018-01-11 03:00","2018","01","11","03:00","-29.9","","-33.4","","72","","","","31","","46","","0.4","","100.18","","","","-48","","Blowing Snow"
"-96.08","64.30","BAKER LAKE A","2300503","2018-01-11 04:00","2018","01","11","04:00","-30.0","","-33.5","","72","","","","31","","61","","0.4","","100.09","","","","-50","","Blowing Snow"
"-96.08","64.30","BAKER LAKE A","2300503","2018-01-11 05:00","2018","01","11","05:00","-30.3","","-33.9","","72","","","","31","","44","","0.8","","100.21","","","","-49","","Blowing Snow"
"-96.08","64.30","BAKER LAKE A","2300503","2018-01-11 06:00","2018","01","11","06:00","-30.2","","-33.8","","72","","","","32","","40","","1.2","","100.22","","","","-48","","Blowing Snow"
"-96.08","64.30","BAKER LAKE A","2300503","2018-01-11 07:00","2018","01","11","07:00","-30.1","","-33.7","","72","","","","32","","43","","1.2","","100.19","","","","-48","","Blowing Snow"
"-96.08","64.30","BAKER LAKE A","2300503","2018-01-11 08:00","2018","01","11","08:00","-29.8","","-33.3","","72","","","","31","","38","","1.2","","100.21","","","","-47","","Blowing Snow"
"-96.08","64.30","BAKER LAKE A","2300503","2018-01-11 09:00","2018","01","11","09:00","-29.4","","-33.0","","72","","","","31","","34","","0.8","","100.20","","","","-46","","Blowing Snow"
"-96.08","64.30","BAKER LAKE A","2300503","2018-01-11 10:00","2018","01","11","10:00","-29.3","","-32.9","","72","","","","31","","28","","1.2","","100.23","","","","-44","","Blowing Snow"
"-96.08","64.30","BAKER LAKE A","2300503","2018-01-11 11:00","2018","01","11","11:00","-29.5","","-33.2","","71","","","","31","","32","","1.2","","100.20","","","","-45","","Blowing Snow"
"-96.08","64.30","BAKER LAKE A","2300503","2018-01-11 12:00","2018","01","11","12:00","-29.2","","-32.8","","72","","","","31","","48","","0.4","","100.14","","","","-48","","Blowing Snow"
"-96.08","64.30","BAKER LAKE A","2300503","2018-01-11 13:00","2018","01","11","13:00","-28.7","","-32.3","","71","","","","32","","43","","1.2","","100.17","","","","-46","","Blowing Snow"
"-96.08","64.30","BAKER LAKE A","2300503","2018-01-11 14:00","2018","01","11","14:00","-28.1","","-31.8","","72","","","","31","","43","","1.2","","100.23","","","","-45","","Blowing Snow"
"-96.08","64.30","BAKER LAKE A","2300503","2018-01-11 15:00","2018","01","11","15:00","-28.2","","-31.8","","72","","","","31","","39","","0.8","","100.21","","","","-45","","Blowing Snow"
"-96.08","64.30","BAKER LAKE A","2300503","2018-01-11 16:00","2018","01","11","16:00","-29.4","","-33.0","","72","","","","32","","39","","8.1","","100.23","","","","-47","","Blowing Snow"
"-96.08","64.30","BAKER LAKE A","2300503","2018-01-11 17:00","2018","01","11","17:00","-30.0","","-33.6","","71","","","","31","","43","","8.1","","100.28","","","","-48","","Blowing Snow"
"-96.08","64.30","BAKER LAKE A","2300503","2018-01-11 18:00","2018","01","11","18:00","-30.2","","-33.9","","71","","","","31","","44","","8.1","","100.30","","","","-48","","Blowing Snow"
"-96.08","64.30","BAKER LAKE A","2300503","2018-01-11 19:00","2018","01","11","19:00","-30.0","","-33.8","","71","","","","30","","37","","16.1","","100.38","","","","-47","","Blowing Snow"
"-96.08","64.30","BAKER LAKE A","2300503","2018-01-11 20:00","2018","01","11","20:00","-28.3","","-31.8","","73","","","","31","","43","","4.8","","100.34","","","","-46","","Blowing Snow"
"-96.08","64.30","BAKER LAKE A","2300503","2018-01-11 21:00","2018","01","11","21:00","-27.8","","-31.3","","72","","","","30","","41","","3.2","","100.36","","","","-45","","Blowing Snow"
"-96.08","64.30","BAKER LAKE A","2300503","2018-01-11 22:00","2018","01","11","22:00","-27.1","","-30.4","","74","","","","30","","43","","0.4","","100.28","","","","-44","","Blowing Snow"
"-96.08","64.30","BAKER LAKE A","2300503","2018-01-11 23:00","2018","01","11","23:00","-26.7","","-30.0","","74","","","","31","","49","","0.4","","100.28","","","","-44","","Blowing Snow"
"-96.08","64.30","BAKER LAKE A","2300503","2018-01-12 00:00","2018","01","12","00:00","-26.2","","-29.5","","75","","","","32","","54","","0.4","","100.26","","","","-44","","Blowing Snow"
"-96.08","64.30","BAKER LAKE A","2300503","2018-01-12 01:00","2018","01","12","01:00","-25.5","","-28.6","","75","","","","31","","51","","0.4","","100.31","","","","-43","","Blowing Snow"
"-96.08","64.30","BAKER LAKE A","2300503","2018-01-12 02:00","2018","01","12","02:00","-24.8","","-27.9","","76","","","","31","","58","","0.4","","100.28","","","","-43","","Blowing Snow"
"-96.08","64.30","BAKER LAKE A","2300503","2018-01-12 03:00","2018","01","12","03:00","-24.2","","-27.3","","76","","","","32","","56","","0.4","","100.32","","","","-42","","Blowing Snow"
"-96.08","64.30","BAKER LAKE A","2300503","2018-01-12 04:00","2018","01","12","04:00","-23.9","","-27.0","","76","","","","31","","55","","0.4","","100.36","","","","-41","","Blowing Snow"
"-96.08","64.30","BAKER LAKE A","2300503","2018-01-12 05:00","2018","01","12","05:00","-22.8","","-26.0","","76","","","","32","","50","","6.4","","100.39","","","","-39","","Blowing Snow"
"-96.08","64.30","BAKER LAKE A","2300503","2018-01-12 06:00","2018","01","12","06:00","-22.0","","-24.9","","78","","","","31","","45","","1.2","","100.41","","","","-37","","Blowing Snow"
"-96.08","64.30","BAKER LAKE A","2300503","2018-01-12 07:00","2018","01","12","07:00","-21.3","","-24.1","","79","","","","31","","36","","0.4","","100.48","","","","-35","","Blowing Snow"
"-96.08","64.30","BAKER LAKE A","2300503","2018-01-12 08:00","2018","01","12","08:00","-20.7","","-23.3","","80","","","","32","","44","","0.4","","100.44","","","","-36","","Blowing Snow"
"-96.08","64.30","BAKER LAKE A","2300503","2018-01-12 09:00","2018","01","12","09:00","-20.5","","-23.2","","79","","","","32","","46","","0.2","","100.44","","","","-36","","Blowing Snow"
"-96.08","64.30","BAKER LAKE A","2300503","2018-01-12 10:00","2018","01","12","10:00","-20.8","","-23.5","","79","","","","32","","55","","0.2","","100.43","","","","-37","","Blowing Snow"
"-96.08","64.30","BAKER LAKE A","2300503","2018-01-12 11:00","2018","01","12","11:00","-21.3","","-24.1","","79","","","","31","","63","","0.2","","100.49","","","","-39","","Blowing Snow"
"-96.08","64.30","BAKER LAKE A","2300503","2018-01-12 12:00","2018","01","12","12:00","-21.1","","-23.9","","79","","","","31","","62","","0.2","","100.53","","","","-38","","Blowing Snow"
"-96.08","64.30","BAKER LAKE A","2300503","2018-01-12 13:00","2018","01","12","13:00","-21.0","","-23.8","","78","","","","31","","54","","0.2","","100.54","","","","-37","","Blowing Snow"
"-96.08","64.30","BAKER LAKE A","2300503","2018-01-12 14:00","2018","01","12","14:00","-22.3","","-25.1","","78","","","","31","","54","","0.2","","100.61","","","","-39","","Blowing Snow"
"-96.08","64.30","BAKER LAKE A","2300503","2018-01-12 15:00","2018","01","12","15:00","-23.5","","-26.5","","77","","","","31","","58","","0.2","","100.70","","","","-41","","Blowing Snow"
"-96.08","64.30","BAKER LAKE A","2300503","2018-01-12 16:00","2018","01","12","16:00","-24.4","","-27.4","","76","","","","31","","56","","0.6","","100.73","","","","-42","","Blowing Snow"
"-96.08","64.30","BAKER LAKE A","2300503","2018-01-12 17:00","2018","01","12","17:00","-24.7","","-27.8","","76","","","","30","","46","","0.6","","100.89","","","","-41","","Blowing Snow"
"-96.08","64.30","BAKER LAKE A","2300503","2018-01-12 18:00","2018","01","12","18:00","-24.8","","-28.0","","75","","","","30","","46","","1.6","","100.97","","","","-41","","Blowing Snow"
"-96.08","64.30","BAKER LAKE A","2300503","2018-01-12 19:00","2018","01","12","19:00","-24.9","","-28.2","","75","","","","27","","23","","2.4","","101.05","","","","-37","","Ice Crystals,Blowing Snow"
"-96.08","64.30","BAKER LAKE A","2300503","2018-01-12 20:00","2018","01","12","20:00","-25.0","","-28.1","","76","","","","29","","34","","1.2","","100.99","","","","-40","","Ice Crystals,Blowing Snow"
"-96.08","64.30","BAKER LAKE A","2300503","2018-01-12 21:00","2018","01","12","21:00","-25.6","","-28.9","","75","","","","29","","35","","4.8","","100.98","","","","-41","","Blowing Snow"
"-96.08","64.30","BAKER LAKE A","2300503","2018-01-12 22:00","2018","01","12","22:00","-25.3","","-28.5","","75","","","","29","","43","","9.7","","100.93","","","","-42","","Ice Crystals,Blowing Snow"
"-96.08","64.30","BAKER LAKE A","2300503","2018-01-12 23:00","2018","01","12","23:00","-24.8","","-28.2","","74","","","","28","","34","","22.5","","100.99","","","","-40","","Ice Crystals,Blowing Snow"
"-96.08","64.30","BAKER LAKE A","2300503","2018-01-13 00:00","2018","01","13","00:00","-24.9","","-28.3","","74","","","","28","","34","","24.1","","100.95","","","","-40","","Ice Crystals,Blowing Snow"
"-96.08","64.30","BAKER LAKE A","2300503","2018-01-13 01:00","2018","01","13","01:00","-24.1","","-27.3","","75","","","","28","","40","","24.1","","100.90","","","","-40","","Ice Crystals,Blowing Snow"
"-96.08","64.30","BAKER LAKE A","2300503","2018-01-13 02:00","2018","01","13","02:00","-24.7","","-28.0","","75","","","","28","","35","","6.4","","100.93","","","","-40","","Ice Crystals,Blowing Snow"
"-96.08","64.30","BAKER LAKE A","2300503","2018-01-13 03:00","2018","01","13","03:00","-25.1","","-28.4","","75","","","","28","","38","","4.8","","100.91","","","","-41","","Ice Crystals,Blowing Snow"
"-96.08","64.30","BAKER LAKE A","2300503","2018-01-13 04:00","2018","01","13","04:00","-24.9","","-28.1","","75","","","","28","","34","","22.5","","100.91","","","","-40","","Ice Crystals,Blowing Snow"
"-96.08","64.30","BAKER LAKE A","2300503","2018-01-13 05:00","2018","01","13","05:00","-24.8","","-28.0","","75","","","","29","","36","","24.1","","100.92","","","","-40","","Ice Crystals,Blowing Snow"
"-96.08","64.30","BAKER LAKE A","2300503","2018-01-13 06:00","2018","01","13","06:00","-24.7","","-28.0","","75","","","","29","","35","","24.1","","100.91","","","","-40","","Ice Crystals,Blowing Snow"
"-96.08","64.30","BAKER LAKE A","2300503","2018-01-13 07:00","2018","01","13","07:00","-25.0","","-28.3","","74","","","","28","","37","","24.1","","100.90","","","","-40","","Ice Crystals,Blowing Snow"
"-96.08","64.30","BAKER LAKE A","2300503","2018-01-13 08:00","2018","01","13","08:00","-24.8","","-28.2","","74","","","","29","","34","","24.1","","100.92","","","","-40","","Ice Crystals,Blowing Snow"
"-96.08","64.30","BAKER LAKE A","2300503","2018-01-13 09:00","2018","01","13","09:00","-24.5","","-28.0","","74","","","","28","","35","","32.2","","100.91","","","","-39","","Ice Crystals,Blowing Snow"
"-96.08","64.30","BAKER LAKE A","2300503","2018-01-13 10:00","2018","01","13","10:00","-24.3","","-27.8","","74","","","","28","","36","","32.2","","100.87","","","","-39","","Ice Crystals,Blowing Snow"
"-96.08","64.30","BAKER LAKE A","2300503","2018-01-13 11:00","2018","01","13","11:00","-24.2","","-27.6","","73","","","","29","","40","","32.2","","100.85","","","","-40","","Ice Crystals,Blowing Snow"
"-96.08","64.30","BAKER LAKE A","2300503","2018-01-13 12:00","2018","01","13","12:00","-23.5","","-26.9","","74","","","","29","","35","","32.2","","100.87","","","","-38","","Ice Crystals,Blowing Snow"
"-96.08","64.30","BAKER LAKE A","2300503","2018-01-13 13:00","2018","01","13","13:00","-23.1","","-26.7","","73","","","","29","","27","","32.2","","100.92","","","","-36","","Ice Crystals,Blowing Snow"
"-96.08","64.30","BAKER LAKE A","2300503","2018-01-13 14:00","2018","01","13","14:00","-24.1","","-27.7","","73","","","","29","","18","","32.2","","100.95","","","","-35","","Ice Crystals,Blowing Snow"
"-96.08","64.30","BAKER LAKE A","2300503","2018-01-13 15:00","2018","01","13","15:00","-25.0","","-28.7","","72","","","","29","","24","","32.2","","100.99","","","","-38","","Ice Crystals,Blowing Snow"
"-96.08","64.30","BAKER LAKE A","2300503","2018-01-13 16:00","2018","01","13","16:00","-25.9","","-29.4","","72","","","","29","","19","","32.2","","101.05","","","","-38","","Ice Crystals,Blowing Snow"
"-96.08","64.30","BAKER LAKE A","2300503","2018-01-13 17:00","2018","01","13","17:00","-26.5","","-30.0","","73","","","","29","","17","","24.1","","101.08","","","","-38","","Ice Crystals"
"-96.08","64.30","BAKER LAKE A","2300503","2018-01-13 18:00","2018","01","13","18:00","-27.0","","-30.6","","72","","","","30","","30","","24.1","","101.09","","","","-42","","Ice Crystals"
"-96.08","64.30","BAKER LAKE A","2300503","2018-01-13 19:00","2018","01","13","19:00","-27.9","","-31.6","","71","","","","30","","28","","24.1","","101.12","","","","-42","","Ice Crystals"
"-96.08","64.30","BAKER LAKE A","2300503","2018-01-13 20:00","2018","01","13","20:00","-28.3","","-32.0","","72","","","","30","","35","","24.1","","101.14","","","","-44","","Ice Crystals"
"-96.08","64.30","BAKER LAKE A","2300503","2018-01-13 21:00","2018","01","13","21:00","-29.6","","-33.3","","71","","","","30","","33","","24.1","","101.17","","","","-46","","Ice Crystals"
"-96.08","64.30","BAKER LAKE A","2300503","2018-01-13 22:00","2018","01","13","22:00","-30.1","","-33.9","","70","","","","30","","28","","24.1","","101.23","","","","-45","","Ice Crystals"
"-96.08","64.30","BAKER LAKE A","2300503","2018-01-13 23:00","2018","01","13","23:00","-30.5","","-34.4","","69","","","","31","","30","","24.1","","101.33","","","","-46","","Ice Crystals,Blowing Snow"
"-96.08","64.30","BAKER LAKE A","2300503","2018-01-14 00:00","2018","01","14","00:00","-31.4","","-35.2","","70","","","","31","","32","","24.1","","101.38","","","","-48","","Ice Crystals,Blowing Snow"
"-96.08","64.30","BAKER LAKE A","2300503","2018-01-14 01:00","2018","01","14","01:00","-32.1","","-36.0","","69","","","","31","","28","","24.1","","101.47","","","","-48","","Ice Crystals,Blowing Snow"
"-96.08","64.30","BAKER LAKE A","2300503","2018-01-14 02:00","2018","01","14","02:00","-32.9","","-36.7","","69","","","","31","","19","","24.1","","101.58","","","","-46","","Ice Crystals,Blowing Snow"
"-96.08","64.30","BAKER LAKE A","2300503","2018-01-14 03:00","2018","01","14","03:00","-33.5","","-37.4","","68","","","","31","","30","","24.1","","101.64","","","","-50","","Ice Crystals,Blowing Snow"
"-96.08","64.30","BAKER LAKE A","2300503","2018-01-14 04:00","2018","01","14","04:00","-33.2","","-37.3","","67","","","","33","","32","","24.1","","101.75","","","","-50","","Ice Crystals,Blowing Snow"
"-96.08","64.30","BAKER LAKE A","2300503","2018-01-14 05:00","2018","01","14","05:00","-33.2","","-37.4","","67","","","","33","","28","","24.1","","101.87","","","","-49","","Blowing Snow"
"-96.08","64.30","BAKER LAKE A","2300503","2018-01-14 06:00","2018","01","14","06:00","-33.2","","-37.4","","67","","","","33","","28","","24.1","","102.01","","","","-49","","Ice Crystals,Blowing Snow"
"-96.08","64.30","BAKER LAKE A","2300503","2018-01-14 07:00","2018","01","14","07:00","-32.8","","-36.7","","69","","","","31","","33","","24.1","","102.10","","","","-50","","Ice Crystals,Blowing Snow"
"-96.08","64.30","BAKER LAKE A","2300503","2018-01-14 08:00","2018","01","14","08:00","-32.8","","-36.8","","68","","","","32","","29","","24.1","","102.20","","","","-49","","Ice Crystals,Blowing Snow"
"-96.08","64.30","BAKER LAKE A","2300503","2018-01-14 09:00","2018","01","14","09:00","-33.0","","-36.9","","69","","","","32","","30","","24.1","","102.37","","","","-50","","Ice Crystals,Blowing Snow"
"-96.08","64.30","BAKER LAKE A","2300503","2018-01-14 10:00","2018","01","14","10:00","-33.0","","-37.0","","69","","","","31","","34","","32.2","","102.47","","","","-50","","Ice Crystals,Blowing Snow"
"-96.08","64.30","BAKER LAKE A","2300503","2018-01-14 11:00","2018","01","14","11:00","-32.9","","-36.9","","68","","","","28","","28","","32.2","","102.56","","","","-49","","Ice Crystals,Blowing Snow"
"-96.08","64.30","BAKER LAKE A","2300503","2018-01-14 12:00","2018","01","14","12:00","-32.2","","-36.2","","69","","","","30","","36","","12.9","","102.67","","","","-50","","Ice Crystals,Blowing Snow"
"-96.08","64.30","BAKER LAKE A","2300503","2018-01-14 13:00","2018","01","14","13:00","-31.1","","-35.0","","69","","","","31","","43","","9.7","","102.63","","","","-49","","Ice Crystals,Blowing Snow"
"-96.08","64.30","BAKER LAKE A","2300503","2018-01-14 14:00","2018","01","14","14:00","-30.8","","-34.6","","69","","","","31","","36","","12.9","","102.73","","","","-48","","Ice Crystals,Blowing Snow"
"-96.08","64.30","BAKER LAKE A","2300503","2018-01-14 15:00","2018","01","14","15:00","-30.7","","-34.7","","69","","","","30","","36","","16.1","","102.81","","","","-48","","Ice Crystals,Blowing Snow"
"-96.08","64.30","BAKER LAKE A","2300503","2018-01-14 16:00","2018","01","14","16:00","-30.6","","-34.5","","70","","","","30","","27","","16.1","","102.82","","","","-46","","Ice Crystals,Blowing Snow"
"-96.08","64.30","BAKER LAKE A","2300503","2018-01-14 17:00","2018","01","14","17:00","-30.2","","-34.1","","69","","","","28","","32","","24.1","","102.95","","","","-46","","Ice Crystals,Blowing Snow"
"-96.08","64.30","BAKER LAKE A","2300503","2018-01-14 18:00","2018","01","14","18:00","-29.8","","-33.5","","71","","","","30","","23","","24.1","","102.89","","","","-44","","Ice Crystals,Blowing Snow"
"-96.08","64.30","BAKER LAKE A","2300503","2018-01-14 19:00","2018","01","14","19:00","-28.1","","-31.7","","72","","","","25","","14","","9.7","","102.95","","","","-39","","Ice Crystals,Blowing Snow"
"-96.08","64.30","BAKER LAKE A","2300503","2018-01-14 20:00","2018","01","14","20:00","-27.5","","-30.9","","73","","","","30","","36","","6.4","","102.98","","","","-43","","Ice Crystals,Blowing Snow"
"-96.08","64.30","BAKER LAKE A","2300503","2018-01-14 21:00","2018","01","14","21:00","-27.9","","-31.5","","72","","","","30","","49","","6.4","","102.81","","","","-46","","Ice Crystals,Blowing Snow"
"-96.08","64.30","BAKER LAKE A","2300503","2018-01-14 22:00","2018","01","14","22:00","-27.3","","-30.8","","73","","","","30","","33","","6.4","","102.94","","","","-43","","Ice Crystals,Blowing Snow"
"-96.08","64.30","BAKER LAKE A","2300503","2018-01-14 23:00","2018","01","14","23:00","-27.1","","-30.6","","73","","","","31","","47","","8.1","","102.86","","","","-45","","Ice Crystals,Blowing Snow"
"-96.08","64.30","BAKER LAKE A","2300503","2018-01-15 00:00","2018","01","15","00:00","-26.4","","-29.9","","73","","","","27","","16","","9.7","","102.99","","","","-37","","Ice Crystals,Blowing Snow"
"-96.08","64.30","BAKER LAKE A","2300503","2018-01-15 01:00","2018","01","15","01:00","-25.9","","-29.4","","73","","","","31","","21","","16.1","","102.94","","","","-38","","Ice Crystals,Blowing Snow"
"-96.08","64.30","BAKER LAKE A","2300503","2018-01-15 02:00","2018","01","15","02:00","-25.3","","-28.8","","73","","","","30","","38","","11.3","","102.89","","","","-41","","Ice Crystals,Blowing Snow"
"-96.08","64.30","BAKER LAKE A","2300503","2018-01-15 03:00","2018","01","15","03:00","-24.8","","-28.3","","73","","","","30","","16","","22.5","","102.94","","","","-35","","Ice Crystals,Blowing Snow"
"-96.08","64.30","BAKER LAKE A","2300503","2018-01-15 04:00","2018","01","15","04:00","-24.5","","-27.8","","75","","","","31","","39","","4.8","","102.81","","","","-40","","Ice Crystals,Blowing Snow"
"-96.08","64.30","BAKER LAKE A","2300503","2018-01-15 05:00","2018","01","15","05:00","-24.2","","-27.8","","72","","","","29","","27","","24.1","","102.92","","","","-37","","Ice Crystals,Blowing Snow"
"-96.08","64.30","BAKER LAKE A","2300503","2018-01-15 06:00","2018","01","15","06:00","-23.8","","-27.6","","71","","","","27","","21","","24.1","","102.84","","","","-36","","Ice Crystals,Blowing Snow"
"-96.08","64.30","BAKER LAKE A","2300503","2018-01-15 07:00","2018","01","15","07:00","-24.1","","-27.6","","74","","","","26","","21","","24.1","","102.78","","","","-36","","Blowing Snow"
"-96.08","64.30","BAKER LAKE A","2300503","2018-01-15 08:00","2018","01","15","08:00","-23.2","","-26.7","","73","","","","27","","14","","24.1","","102.75","","","","-33","","Blowing Snow"
"-96.08","64.30","BAKER LAKE A","2300503","2018-01-15 09:00","2018","01","15","09:00","-22.0","","-25.6","","73","","","","28","","27","","32.2","","102.63","","","","-35","","Blowing Snow"
"-96.08","64.30","BAKER LAKE A","2300503","2018-01-15 10:00","2018","01","15","10:00","-21.6","","-25.0","","74","","","","20","","12","","32.2","","102.52","","","","-30","","NA"
"-96.08","64.30","BAKER LAKE A","2300503","2018-01-15 11:00","2018","01","15","11:00","-20.6","","-23.9","","75","","","","16","","5","","32.2","","102.41","","","","-25","","NA"
"-96.08","64.30","BAKER LAKE A","2300503","2018-01-15 12:00","2018","01","15","12:00","-19.9","","-22.7","","79","","","","16","","8","","6.4","","102.18","","","","-26","","Snow"
"-96.08","64.30","BAKER LAKE A","2300503","2018-01-15 13:00","2018","01","15","13:00","-19.0","","-21.7","","80","","","","19","","23","","4.0","","101.97","","","","-30","","Snow"
"-96.08","64.30","BAKER LAKE A","2300503","2018-01-15 14:00","2018","01","15","14:00","-18.4","","-21.1","","80","","","","18","","21","","2.4","","101.81","","","","-29","","Snow"
"-96.08","64.30","BAKER LAKE A","2300503","2018-01-15 15:00","2018","01","15","15:00","-18.0","","-20.5","","81","","","","17","","18","","4.8","","101.68","","","","-27","","Snow,Snow Grains"
"-96.08","64.30","BAKER LAKE A","2300503","2018-01-15 16:00","2018","01","15","16:00","-17.5","","-20.4","","78","","","","18","","25","","24.1","","101.54","","","","-28","","NA"
"-96.08","64.30","BAKER LAKE A","2300503","2018-01-15 17:00","2018","01","15","17:00","-17.5","","-20.5","","78","","","","18","","23","","24.1","","101.35","","","","-28","","NA"
"-96.08","64.30","BAKER LAKE A","2300503","2018-01-15 18:00","2018","01","15","18:00","-17.5","","-20.5","","77","","","","20","","23","","24.1","","101.21","","","","-28","","Cloudy"
"-96.08","64.30","BAKER LAKE A","2300503","2018-01-15 19:00","2018","01","15","19:00","-17.1","","-20.1","","78","","","","20","","18","","24.1","","101.08","","","","-26","","NA"
"-96.08","64.30","BAKER LAKE A","2300503","2018-01-15 20:00","2018","01","15","20:00","-16.8","","-19.8","","78","","","","20","","13","","24.1","","100.94","","","","-25","","NA"
"-96.08","64.30","BAKER LAKE A","2300503","2018-01-15 21:00","2018","01","15","21:00","-16.6","","-19.4","","79","","","","14","","10","","24.1","","100.82","","","","-23","","Cloudy"
"-96.08","64.30","BAKER LAKE A","2300503","2018-01-15 22:00","2018","01","15","22:00","-16.5","","-19.1","","81","","","","13","","9","","24.1","","100.71","","","","-23","","NA"
"-96.08","64.30","BAKER LAKE A","2300503","2018-01-15 23:00","2018","01","15","23:00","-16.7","","-19.1","","82","","","","9","","8","","24.1","","100.75","","","","-22","","NA"
"-96.08","64.30","BAKER LAKE A","2300503","2018-01-16 00:00","2018","01","16","00:00","-16.6","","-19.1","","81","","","","8","","5","","24.1","","100.69","","","","-20","","Cloudy"
"-96.08","64.30","BAKER LAKE A","2300503","2018-01-16 01:00","2018","01","16","01:00","-16.8","","-19.3","","81","","","","7","","7","","24.1","","100.60","","","","-22","","NA"
"-96.08","64.30","BAKER LAKE A","2300503","2018-01-16 02:00","2018","01","16","02:00","-16.7","","-19.2","","81","","","","10","","6","","24.1","","100.56","","","","-21","","NA"
"-96.08","64.30","BAKER LAKE A","2300503","2018-01-16 03:00","2018","01","16","03:00","-16.9","","-19.3","","82","","","","4","","4","","24.1","","100.58","","","","-20","","Cloudy"
"-96.08","64.30","BAKER LAKE A","2300503","2018-01-16 04:00","2018","01","16","04:00","-16.9","","-19.3","","82","","","","4","","3","","24.1","","100.51","","","","-19","","NA"
"-96.08","64.30","BAKER LAKE A","2300503","2018-01-16 05:00","2018","01","16","05:00","-16.9","","-19.4","","81","","","","6","","4","","24.1","","100.49","","","","-20","","Snow"
"-96.08","64.30","BAKER LAKE A","2300503","2018-01-16 06:00","2018","01","16","06:00","-17.2","","-19.8","","81","","","","2","","6","","24.1","","100.49","","","","-22","","Snow"
"-96.08","64.30","BAKER LAKE A","2300503","2018-01-16 07:00","2018","01","16","07:00","-17.2","","-19.9","","80","","","","36","","4","","24.1","","100.45","","","","-20","","Snow"
"-96.08","64.30","BAKER LAKE A","2300503","2018-01-16 08:00","2018","01","16","08:00","-17.4","","-20.0","","80","","","","7","","10","","24.1","","100.38","","","","-24","","Snow"
"-96.08","64.30","BAKER LAKE A","2300503","2018-01-16 09:00","2018","01","16","09:00","-17.4","","-20.2","","79","","","","4","","6","","24.1","","100.41","","","","-22","","Cloudy"
"-96.08","64.30","BAKER LAKE A","2300503","2018-01-16 10:00","2018","01","16","10:00","-17.5","","-20.2","","80","","","","4","","14","","32.2","","100.48","","","","-26","","NA"
"-96.08","64.30","BAKER LAKE A","2300503","2018-01-16 11:00","2018","01","16","11:00","-17.3","","-20.2","","78","","","","5","","12","","24.1","","100.46","","","","-25","","Snow"
"-96.08","64.30","BAKER LAKE A","2300503","2018-01-16 12:00","2018","01","16","12:00","-17.2","","-20.2","","78","","","","4","","9","","32.2","","100.51","","","","-23","","Snow"
"-96.08","64.30","BAKER LAKE A","2300503","2018-01-16 13:00","2018","01","16","13:00","-17.0","","-20.1","","78","","","","3","","10","","32.2","","100.53","","","","-24","","Snow"
"-96.08","64.30","BAKER LAKE A","2300503","2018-01-16 14:00","2018","01","16","14:00","-16.7","","-19.9","","77","","","","2","","14","","32.2","","100.58","","","","-25","","Snow"
"-96.08","64.30","BAKER LAKE A","2300503","2018-01-16 15:00","2018","01","16","15:00","-16.0","","-18.3","","83","","","","5","","15","","24.1","","100.67","","","","-24","","Snow"
"-96.08","64.30","BAKER LAKE A","2300503","2018-01-16 16:00","2018","01","16","16:00","-16.1","","-18.6","","82","","","","6","","21","","16.1","","100.79","","","","-26","","Snow"
"-96.08","64.30","BAKER LAKE A","2300503","2018-01-16 17:00","2018","01","16","17:00","-16.5","","-18.7","","83","","","","6","","19","","24.1","","100.87","","","","-26","","Snow"
"-96.08","64.30","BAKER LAKE A","2300503","2018-01-16 18:00","2018","01","16","18:00","-17.0","","-19.1","","84","","","","6","","22","","9.7","","100.95","","","","-27","","Snow"
"-96.08","64.30","BAKER LAKE A","2300503","2018-01-16 19:00","2018","01","16","19:00","-17.4","","-19.7","","82","","","","6","","22","","11.3","","101.01","","","","-28","","Snow"
"-96.08","64.30","BAKER LAKE A","2300503","2018-01-16 20:00","2018","01","16","20:00","-17.7","","-20.4","","79","","","","6","","14","","24.1","","101.10","","","","-26","","Snow"
"-96.08","64.30","BAKER LAKE A","2300503","2018-01-16 21:00","2018","01","16","21:00","-18.4","","-21.5","","77","","","","5","","14","","24.1","","101.15","","","","-27","","Snow"
"-96.08","64.30","BAKER LAKE A","2300503","2018-01-16 22:00","2018","01","16","22:00","-18.8","","-21.4","","80","","","","6","","15","","24.1","","101.15","","","","-28","","Snow"
"-96.08","64.30","BAKER LAKE A","2300503","2018-01-16 23:00","2018","01","16","23:00","-18.9","","-20.9","","85","","","","8","","8","","24.1","","101.17","","","","-25","","Snow"
"-96.08","64.30","BAKER LAKE A","2300503","2018-01-17 00:00","2018","01","17","00:00","-18.8","","-20.9","","84","","","","6","","6","","24.1","","101.27","","","","-24","","Snow"
"-96.08","64.30","BAKER LAKE A","2300503","2018-01-17 01:00","2018","01","17","01:00","-19.1","","-21.3","","83","","","","2","","9","","24.1","","101.31","","","","-26","","NA"
"-96.08","64.30","BAKER LAKE A","2300503","2018-01-17 02:00","2018","01","17","02:00","-19.6","","-21.8","","83","","","","1","","9","","24.1","","101.37","","","","-26","","NA"
"-96.08","64.30","BAKER LAKE A","2300503","2018-01-17 03:00","2018","01","17","03:00","-20.4","","-22.8","","82","","","","3","","9","","24.1","","101.39","","","","-27","","Snow"
"-96.08","64.30","BAKER LAKE A","2300503","2018-01-17 04:00","2018","01","17","04:00","-21.4","","-23.9","","81","","","","1","","9","","16.1","","101.46","","","","-28","","Snow,Ice Crystals"
"-96.08","64.30","BAKER LAKE A","2300503","2018-01-17 05:00","2018","01","17","05:00","-22.4","","-25.0","","80","","","","32","","7","","1.2","","101.44","","","","-28","","Ice Crystals"
"-96.08","64.30","BAKER LAKE A","2300503","2018-01-17 06:00","2018","01","17","06:00","-23.4","","-26.1","","79","","","","28","","15","","1.6","","101.42","","","","-33","","Ice Crystals"
"-96.08","64.30","BAKER LAKE A","2300503","2018-01-17 07:00","2018","01","17","07:00","-23.6","","-26.3","","79","","","","29","","18","","4.8","","101.39","","","","-34","","Ice Crystals"
"-96.08","64.30","BAKER LAKE A","2300503","2018-01-17 08:00","2018","01","17","08:00","-23.7","","-26.4","","79","","","","30","","20","","24.1","","101.39","","","","-35","","Ice Crystals"
"-96.08","64.30","BAKER LAKE A","2300503","2018-01-17 09:00","2018","01","17","09:00","-23.2","","-25.8","","79","","","","26","","5","","32.2","","101.35","","","","-28","","Ice Crystals"
"-96.08","64.30","BAKER LAKE A","2300503","2018-01-17 10:00","2018","01","17","10:00","-22.4","","-25.0","","80","","","","30","","21","","16.1","","101.32","","","","-34","","Snow"
"-96.08","64.30","BAKER LAKE A","2300503","2018-01-17 11:00","2018","01","17","11:00","-21.4","","-23.9","","80","","","","31","","20","","16.1","","101.32","","","","-32","","Snow"
"-96.08","64.30","BAKER LAKE A","2300503","2018-01-17 12:00","2018","01","17","12:00","-20.7","","-23.2","","81","","","","29","","10","","8.1","","101.31","","","","-28","","Snow"
"-96.08","64.30","BAKER LAKE A","2300503","2018-01-17 13:00","2018","01","17","13:00","-20.4","","-22.9","","81","","","","28","","13","","8.1","","101.25","","","","-29","","Snow"
"-96.08","64.30","BAKER LAKE A","2300503","2018-01-17 14:00","2018","01","17","14:00","-19.8","","-22.2","","82","","","","30","","14","","6.4","","101.24","","","","-29","","Snow"
"-96.08","64.30","BAKER LAKE A","2300503","2018-01-17 15:00","2018","01","17","15:00","-19.4","","-21.7","","82","","","","29","","11","","9.7","","101.20","","","","-27","","Snow"
"-96.08","64.30","BAKER LAKE A","2300503","2018-01-17 16:00","2018","01","17","16:00","-20.2","","-22.6","","82","","","","31","","14","","24.1","","101.21","","","","-29","","Snow"
"-96.08","64.30","BAKER LAKE A","2300503","2018-01-17 17:00","2018","01","17","17:00","-20.9","","-23.5","","80","","","","31","","15","","24.1","","101.22","","","","-30","","Snow"
"-96.08","64.30","BAKER LAKE A","2300503","2018-01-17 18:00","2018","01","17","18:00","-23.5","","-26.3","","78","","","","32","","22","","24.1","","101.18","","","","-35","","Mainly Clear"
"-96.08","64.30","BAKER LAKE A","2300503","2018-01-17 19:00","2018","01","17","19:00","-22.1","","-24.6","","80","","","","31","","23","","24.1","","101.13","","","","-34","","NA"
"-96.08","64.30","BAKER LAKE A","2300503","2018-01-17 20:00","2018","01","17","20:00","-22.7","","-25.4","","79","","","","32","","25","","24.1","","101.08","","","","-35","","NA"
"-96.08","64.30","BAKER LAKE A","2300503","2018-01-17 21:00","2018","01","17","21:00","-23.5","","-26.2","","79","","","","32","","26","","24.1","","101.06","","","","-36","","Mainly Clear"
"-96.08","64.30","BAKER LAKE A","2300503","2018-01-17 22:00","2018","01","17","22:00","-24.1","","-26.9","","79","","","","32","","26","","24.1","","101.05","","","","-37","","NA"
"-96.08","64.30","BAKER LAKE A","2300503","2018-01-17 23:00","2018","01","17","23:00","-24.8","","-27.6","","78","","","","32","","27","","24.1","","101.00","","","","-38","","Snow"
"-96.08","64.30","BAKER LAKE A","2300503","2018-01-18 00:00","2018","01","18","00:00","-25.9","","-28.8","","77","","","","33","","34","","24.1","","100.98","","","","-41","","Mainly Clear"
"-96.08","64.30","BAKER LAKE A","2300503","2018-01-18 01:00","2018","01","18","01:00","-26.9","","-30.0","","76","","","","32","","29","","24.1","","100.95","","","","-41","","Snow"
"-96.08","64.30","BAKER LAKE A","2300503","2018-01-18 02:00","2018","01","18","02:00","-26.7","","-29.6","","77","","","","34","","6","","24.1","","101.00","","","","-33","","NA"
"-96.08","64.30","BAKER LAKE A","2300503","2018-01-18 03:00","2018","01","18","03:00","-26.9","","-29.9","","76","","","","36","","9","","24.1","","100.99","","","","-35","","Mainly Clear"
"-96.08","64.30","BAKER LAKE A","2300503","2018-01-18 04:00","2018","01","18","04:00","-28.4","","-31.6","","75","","","","34","","5","","24.1","","100.97","","","","-34","","Ice Crystals"
"-96.08","64.30","BAKER LAKE A","2300503","2018-01-18 05:00","2018","01","18","05:00","-28.1","","-31.1","","76","","","","28","","11","","24.1","","101.00","","","","-37","","Ice Crystals"
"-96.08","64.30","BAKER LAKE A","2300503","2018-01-18 06:00","2018","01","18","06:00","-29.9","","-33.0","","74","","","","36","","16","","24.1","","100.98","","","","-42","","Clear"
"-96.08","64.30","BAKER LAKE A","2300503","2018-01-18 07:00","2018","01","18","07:00","-28.7","","-31.8","","75","","","","29","","3","","24.1","","100.97","","","","-32","","NA"
"-96.08","64.30","BAKER LAKE A","2300503","2018-01-18 08:00","2018","01","18","08:00","-27.0","","-30.1","","76","","","","33","","19","","8.1","","100.96","","","","-39","","Ice Crystals"
"-96.08","64.30","BAKER LAKE A","2300503","2018-01-18 09:00","2018","01","18","09:00","-26.1","","-29.0","","77","","","","35","","24","","1.2","","100.92","","","","-39","","Ice Crystals"
"-96.08","64.30","BAKER LAKE A","2300503","2018-01-18 10:00","2018","01","18","10:00","-27.1","","-30.1","","76","","","","32","","16","","9.7","","100.96","","","","-38","","Ice Crystals"
"-96.08","64.30","BAKER LAKE A","2300503","2018-01-18 11:00","2018","01","18","11:00","-28.1","","-31.2","","75","","","","33","","21","","9.7","","100.97","","","","-41","","Ice Crystals"
"-96.08","64.30","BAKER LAKE A","2300503","2018-01-18 12:00","2018","01","18","12:00","-29.5","","-32.7","","74","","","","32","","12","","1.6","","100.96","","","","-40","","Ice Crystals"
"-96.08","64.30","BAKER LAKE A","2300503","2018-01-18 13:00","2018","01","18","13:00","-30.3","","-33.6","","74","","","","34","","17","","3.6","","100.97","","","","-43","","Ice Crystals"
"-96.08","64.30","BAKER LAKE A","2300503","2018-01-18 14:00","2018","01","18","14:00","-31.3","","-34.6","","73","","","","36","","11","","8.1","","101.00","","","","-41","","Ice Crystals"
"-96.08","64.30","BAKER LAKE A","2300503","2018-01-18 15:00","2018","01","18","15:00","-31.3","","-34.6","","73","","","","35","","22","","8.1","","101.02","","","","-45","","Ice Crystals"
"-96.08","64.30","BAKER LAKE A","2300503","2018-01-18 16:00","2018","01","18","16:00","-30.0","","-33.3","","74","","","","34","","15","","1.2","","101.01","","","","-41","","Ice Crystals"
"-96.08","64.30","BAKER LAKE A","2300503","2018-01-18 17:00","2018","01","18","17:00","-29.3","","-32.5","","74","","","","32","","10","","1.2","","101.03","","","","-38","","Ice Crystals"
"-96.08","64.30","BAKER LAKE A","2300503","2018-01-18 18:00","2018","01","18","18:00","-29.0","","-32.1","","75","","","","34","","10","","1.2","","101.05","","","","-38","","Ice Crystals"
"-96.08","64.30","BAKER LAKE A","2300503","2018-01-18 19:00","2018","01","18","19:00","-28.7","","-31.8","","75","","","","34","","8","","1.2","","101.04","","","","-36","","Ice Crystals"
"-96.08","64.30","BAKER LAKE A","2300503","2018-01-18 20:00","2018","01","18","20:00","-28.1","","-31.2","","75","","","","34","","10","","1.6","","101.01","","","","-37","","Ice Crystals"
"-96.08","64.30","BAKER LAKE A","2300503","2018-01-18 21:00","2018","01","18","21:00","-27.2","","-30.3","","76","","","","34","","12","","1.2","","101.01","","","","-37","","Ice Crystals"
"-96.08","64.30","BAKER LAKE A","2300503","2018-01-18 22:00","2018","01","18","22:00","-26.0","","-28.9","","77","","","","35","","10","","8.1","","100.98","","","","-34","","Ice Crystals"
"-96.08","64.30","BAKER LAKE A","2300503","2018-01-18 23:00","2018","01","18","23:00","-25.1","","-28.0","","77","","","","36","","10","","24.1","","101.00","","","","-33","","Ice Crystals"
"-96.08","64.30","BAKER LAKE A","2300503","2018-01-19 00:00","2018","01","19","00:00","-24.8","","-27.7","","78","","","","36","","10","","24.1","","101.02","","","","-33","","Ice Crystals"
"-96.08","64.30","BAKER LAKE A","2300503","2018-01-19 01:00","2018","01","19","01:00","-23.8","","-26.5","","78","","","","3","","5","","24.1","","101.01","","","","-29","","Ice Crystals"
"-96.08","64.30","BAKER LAKE A","2300503","2018-01-19 02:00","2018","01","19","02:00","-23.2","","-26.0","","79","","","","12","","6","","24.1","","101.00","","","","-29","","Snow,Ice Crystals"
"-96.08","64.30","BAKER LAKE A","2300503","2018-01-19 03:00","2018","01","19","03:00","-23.4","","-26.1","","79","","","","22","","4","","24.1","","101.01","","","","-27","","Snow,Ice Crystals"
"-96.08","64.30","BAKER LAKE A","2300503","2018-01-19 04:00","2018","01","19","04:00","-23.5","","-26.2","","79","","","","18","","5","","24.1","","101.02","","","","-28","","Snow,Ice Crystals"
"-96.08","64.30","BAKER LAKE A","2300503","2018-01-19 05:00","2018","01","19","05:00","-23.6","","-26.3","","78","","","","23","","4","","24.1","","101.05","","","","-27","","Snow,Ice Crystals"
"-96.08","64.30","BAKER LAKE A","2300503","2018-01-19 06:00","2018","01","19","06:00","-23.6","","-26.3","","79","","","","36","","2","","24.1","","101.07","","","","-26","","Snow,Ice Crystals"
"-96.08","64.30","BAKER LAKE A","2300503","2018-01-19 07:00","2018","01","19","07:00","-23.4","","-26.2","","79","","","","7","","9","","24.1","","101.06","","","","-31","","Snow,Ice Crystals"
"-96.08","64.30","BAKER LAKE A","2300503","2018-01-19 08:00","2018","01","19","08:00","-23.5","","-26.2","","79","","","","7","","9","","24.1","","101.09","","","","-31","","Ice Crystals"
"-96.08","64.30","BAKER LAKE A","2300503","2018-01-19 09:00","2018","01","19","09:00","-23.6","","-26.4","","79","","","","9","","11","","12.9","","101.09","","","","-32","","Snow"
"-96.08","64.30","BAKER LAKE A","2300503","2018-01-19 10:00","2018","01","19","10:00","-23.8","","-26.6","","78","","","","8","","11","","16.1","","101.13","","","","-32","","Snow"
"-96.08","64.30","BAKER LAKE A","2300503","2018-01-19 11:00","2018","01","19","11:00","-23.8","","-26.5","","78","","","","9","","10","","16.1","","101.15","","","","-32","","Snow"
"-96.08","64.30","BAKER LAKE A","2300503","2018-01-19 12:00","2018","01","19","12:00","-23.6","","-26.3","","79","","","","8","","10","","24.1","","101.19","","","","-32","","Snow"
"-96.08","64.30","BAKER LAKE A","2300503","2018-01-19 13:00","2018","01","19","13:00","-23.6","","-26.4","","78","","","","6","","11","","24.1","","101.22","","","","-32","","Snow"
"-96.08","64.30","BAKER LAKE A","2300503","2018-01-19 14:00","2018","01","19","14:00","-23.8","","-26.6","","78","","","","7","","13","","24.1","","101.25","","","","-33","","Snow"
"-96.08","64.30","BAKER LAKE A","2300503","2018-01-19 15:00","2018","01","19","15:00","-24.2","","-27.0","","78","","","","8","","16","","24.1","","101.31","","","","-35","","Snow"
"-96.08","64.30","BAKER LAKE A","2300503","2018-01-19 16:00","2018","01","19","16:00","-25.4","","-28.3","","77","","","","9","","14","","24.1","","101.37","","","","-35","","Snow"
"-96.08","64.30","BAKER LAKE A","2300503","2018-01-19 17:00","2018","01","19","17:00","-27.1","","-30.2","","76","","","","8","","12","","24.1","","101.45","","","","-37","","Snow"
"-96.08","64.30","BAKER LAKE A","2300503","2018-01-19 18:00","2018","01","19","18:00","-28.4","","-31.5","","75","","","","7","","9","","24.1","","101.47","","","","-37","","Snow"
"-96.08","64.30","BAKER LAKE A","2300503","2018-01-19 19:00","2018","01","19","19:00","-30.6","","-33.9","","74","","","","36","","10","","24.1","","101.52","","","","-40","","Snow"
"-96.08","64.30","BAKER LAKE A","2300503","2018-01-19 20:00","2018","01","19","20:00","-31.0","","-34.2","","74","","","","3","","8","","24.1","","101.56","","","","-39","","NA"
"-96.08","64.30","BAKER LAKE A","2300503","2018-01-19 21:00","2018","01","19","21:00","-31.6","","-35.0","","73","","","","1","","5","","24.1","","101.60","","","","-37","","Ice Crystals"
"-96.08","64.30","BAKER LAKE A","2300503","2018-01-19 22:00","2018","01","19","22:00","-32.5","","-35.9","","73","","","","4","","9","","24.1","","101.63","","","","-42","","Ice Crystals"
"-96.08","64.30","BAKER LAKE A","2300503","2018-01-19 23:00","2018","01","19","23:00","-33.9","","-37.4","","71","","","","35","","13","","24.1","","101.69","","","","-45","","Ice Crystals"
"-96.08","64.30","BAKER LAKE A","2300503","2018-01-20 00:00","2018","01","20","00:00","-34.4","","-38.0","","71","","","","35","","19","","24.1","","101.71","","","","-48","","Ice Crystals"
"-96.08","64.30","BAKER LAKE A","2300503","2018-01-20 01:00","2018","01","20","01:00","-34.8","","-38.4","","71","","","","35","","16","","24.1","","101.77","","","","-48","","Ice Crystals"
"-96.08","64.30","BAKER LAKE A","2300503","2018-01-20 02:00","2018","01","20","02:00","-34.4","","-37.9","","71","","","","34","","18","","24.1","","101.82","","","","-48","","Ice Crystals"
"-96.08","64.30","BAKER LAKE A","2300503","2018-01-20 03:00","2018","01","20","03:00","-34.6","","-38.1","","71","","","","35","","18","","24.1","","101.87","","","","-48","","Clear"
"-96.08","64.30","BAKER LAKE A","2300503","2018-01-20 04:00","2018","01","20","04:00","-35.2","","-38.8","","71","","","","35","","17","","24.1","","101.91","","","","-49","","NA"
"-96.08","64.30","BAKER LAKE A","2300503","2018-01-20 05:00","2018","01","20","05:00","-35.9","","-39.5","","70","","","","35","","16","","24.1","","101.95","","","","-49","","NA"
"-96.08","64.30","BAKER LAKE A","2300503","2018-01-20 06:00","2018","01","20","06:00","-36.0","","-39.6","","70","","","","32","","16","","24.1","","101.96","","","","-49","","Clear"
"-96.08","64.30","BAKER LAKE A","2300503","2018-01-20 07:00","2018","01","20","07:00","-35.2","","-38.8","","71","","","","33","","16","","24.1","","102.03","","","","-48","","NA"
"-96.08","64.30","BAKER LAKE A","2300503","2018-01-20 08:00","2018","01","20","08:00","-35.3","","-38.9","","71","","","","33","","17","","24.1","","102.04","","","","-49","","NA"
"-96.08","64.30","BAKER LAKE A","2300503","2018-01-20 09:00","2018","01","20","09:00","-34.5","","-38.1","","71","","","","33","","14","","40.2","","102.05","","","","-47","","Clear"
"-96.08","64.30","BAKER LAKE A","2300503","2018-01-20 10:00","2018","01","20","10:00","-35.0","","-38.6","","71","","","","34","","16","","40.2","","102.11","","","","-48","","NA"
"-96.08","64.30","BAKER LAKE A","2300503","2018-01-20 11:00","2018","01","20","11:00","-35.1","","-38.7","","70","","","","36","","11","","40.2","","102.14","","","","-46","","NA"
"-96.08","64.30","BAKER LAKE A","2300503","2018-01-20 12:00","2018","01","20","12:00","-34.5","","-38.1","","71","","","","23","","8","","40.2","","102.16","","","","-43","","Clear"
"-96.08","64.30","BAKER LAKE A","2300503","2018-01-20 13:00","2018","01","20","13:00","-34.9","","-38.5","","70","","","","35","","7","","40.2","","102.19","","","","-43","","NA"
"-96.08","64.30","BAKER LAKE A","2300503","2018-01-20 14:00","2018","01","20","14:00","-35.5","","-39.1","","70","","","","19","","3","","40.2","","102.24","","","","-39","","NA"
"-96.08","64.30","BAKER LAKE A","2300503","2018-01-20 15:00","2018","01","20","15:00","-36.3","","-40.0","","69","","","","36","","3","","40.2","","102.30","","","","-40","","Clear"
"-96.08","64.30","BAKER LAKE A","2300503","2018-01-20 16:00","2018","01","20","16:00","-37.4","","-41.1","","69","","","","36","","3","","40.2","","102.35","","","","-41","","NA"
"-96.08","64.30","BAKER LAKE A","2300503","2018-01-20 17:00","2018","01","20","17:00","-34.8","","-38.3","","71","","","","32","","6","","24.1","","102.38","","","","-42","","Ice Crystals"
"-96.08","64.30","BAKER LAKE A","2300503","2018-01-20 18:00","2018","01","20","18:00","-34.9","","-38.5","","70","","","","30","","4","","24.1","","102.41","","","","-40","","Ice Crystals"
"-96.08","64.30","BAKER LAKE A","2300503","2018-01-20 19:00","2018","01","20","19:00","-37.3","","-41.1","","69","","","","12","","3","","24.1","","102.46","","","","-41","","Ice Crystals"
"-96.08","64.30","BAKER LAKE A","2300503","2018-01-20 20:00","2018","01","20","20:00","-36.2","","-39.9","","70","","","","17","","5","","24.1","","102.47","","","","-43","","Ice Crystals"
"-96.08","64.30","BAKER LAKE A","2300503","2018-01-20 21:00","2018","01","20","21:00","-37.5","","-41.3","","69","","","","36","","2","","24.1","","102.47","","","","-40","","Clear"
"-96.08","64.30","BAKER LAKE A","2300503","2018-01-20 22:00","2018","01","20","22:00","-38.1","","-41.9","","69","","","","19","","5","","24.1","","102.51","","","","-45","","NA"
"-96.08","64.30","BAKER LAKE A","2300503","2018-01-20 23:00","2018","01","20","23:00","-37.7","","-41.5","","69","","","","21","","4","","24.1","","102.53","","","","-43","","NA"
"-96.08","64.30","BAKER LAKE A","2300503","2018-01-21 00:00","2018","01","21","00:00","-34.9","","-38.4","","71","","","","26","","4","","24.1","","102.57","","","","-40","","Clear"
"-96.08","64.30","BAKER LAKE A","2300503","2018-01-21 01:00","2018","01","21","01:00","-37.5","","-41.3","","69","","","","19","","7","","24.1","","102.59","","","","-46","","NA"
"-96.08","64.30","BAKER LAKE A","2300503","2018-01-21 02:00","2018","01","21","02:00","-37.9","","-41.7","","68","","","","19","","5","","24.1","","102.64","","","","-45","","NA"
"-96.08","64.30","BAKER LAKE A","2300503","2018-01-21 03:00","2018","01","21","03:00","-38.2","","-42.0","","68","","","","21","","3","","24.1","","102.68","","","","-42","","Clear"
"-96.08","64.30","BAKER LAKE A","2300503","2018-01-21 04:00","2018","01","21","04:00","-38.5","","-42.3","","68","","","","36","","1","","24.1","","102.70","","","","-40","","NA"
"-96.08","64.30","BAKER LAKE A","2300503","2018-01-21 05:00","2018","01","21","05:00","-37.5","","-41.3","","69","","","","23","","3","","24.1","","102.71","","","","-41","","NA"
"-96.08","64.30","BAKER LAKE A","2300503","2018-01-21 06:00","2018","01","21","06:00","-37.9","","-41.7","","69","","","","36","","3","","24.1","","102.72","","","","-42","","Clear"
"-96.08","64.30","BAKER LAKE A","2300503","2018-01-21 07:00","2018","01","21","07:00","-37.4","","-41.1","","69","","","","36","","1","","24.1","","102.71","","","","-39","","NA"
"-96.08","64.30","BAKER LAKE A","2300503","2018-01-21 08:00","2018","01","21","08:00","-37.0","","-40.8","","69","","","","20","","8","","24.1","","102.74","","","","-46","","NA"
"-96.08","64.30","BAKER LAKE A","2300503","2018-01-21 09:00","2018","01","21","09:00","-37.8","","-41.6","","69","","","","7","","4","","40.2","","102.76","","","","-43","","Clear"
"-96.08","64.30","BAKER LAKE A","2300503","2018-01-21 10:00","2018","01","21","10:00","-38.1","","-41.9","","68","","","","21","","7","","40.2","","102.79","","","","-47","","NA"
"-96.08","64.30","BAKER LAKE A","2300503","2018-01-21 11:00","2018","01","21","11:00","-36.8","","-40.6","","69","","","","36","","1","","40.2","","102.81","","","","-38","","NA"
"-96.08","64.30","BAKER LAKE A","2300503","2018-01-21 12:00","2018","01","21","12:00","-37.0","","-40.8","","69","","","","20","","8","","40.2","","102.81","","","","-46","","Clear"
"-96.08","64.30","BAKER LAKE A","2300503","2018-01-21 13:00","2018","01","21","13:00","-35.4","","-39.2","","69","","","","15","","5","","40.2","","102.84","","","","-42","","NA"
"-96.08","64.30","BAKER LAKE A","2300503","2018-01-21 14:00","2018","01","21","14:00","-33.7","","-37.3","","71","","","","32","","12","","40.2","","102.85","","","","-45","","NA"
"-96.08","64.30","BAKER LAKE A","2300503","2018-01-21 15:00","2018","01","21","15:00","-33.9","","-37.5","","71","","","","32","","20","","40.2","","102.87","","","","-48","","Clear"
"-96.08","64.30","BAKER LAKE A","2300503","2018-01-21 16:00","2018","01","21","16:00","-34.9","","-38.5","","70","","","","36","","1","","40.2","","102.89","","","","-36","","NA"
"-96.08","64.30","BAKER LAKE A","2300503","2018-01-21 17:00","2018","01","21","17:00","-35.1","","-38.8","","70","","","","35","","13","","24.1","","102.92","","","","-47","","NA"
"-96.08","64.30","BAKER LAKE A","2300503","2018-01-21 18:00","2018","01","21","18:00","-36.7","","-40.5","","69","","","","2","","8","","24.1","","102.94","","","","-46","","Clear"
"-96.08","64.30","BAKER LAKE A","2300503","2018-01-21 19:00","2018","01","21","19:00","-36.5","","-40.3","","69","","","","19","","5","","24.1","","102.95","","","","-43","","NA"
"-96.08","64.30","BAKER LAKE A","2300503","2018-01-21 20:00","2018","01","21","20:00","-36.7","","-40.5","","69","","","","36","","1","","24.1","","102.96","","","","-38","","NA"
"-96.08","64.30","BAKER LAKE A","2300503","2018-01-21 21:00","2018","01","21","21:00","-36.6","","-40.4","","69","","","","36","","2","","24.1","","102.96","","","","-39","","Clear"
"-96.08","64.30","BAKER LAKE A","2300503","2018-01-21 22:00","2018","01","21","22:00","-38.6","","-42.5","","68","","","","36","","3","","24.1","","102.97","","","","-43","","NA"
"-96.08","64.30","BAKER LAKE A","2300503","2018-01-21 23:00","2018","01","21","23:00","-37.4","","-41.1","","69","","","","21","","5","","24.1","","102.98","","","","-44","","NA"
"-96.08","64.30","BAKER LAKE A","2300503","2018-01-22 00:00","2018","01","22","00:00","-37.9","","-41.6","","69","","","","36","","3","","24.1","","102.98","","","","-42","","Clear"
"-96.08","64.30","BAKER LAKE A","2300503","2018-01-22 01:00","2018","01","22","01:00","-35.7","","-39.4","","70","","","","31","","24","","24.1","","102.99","","","","-52","","NA"
"-96.08","64.30","BAKER LAKE A","2300503","2018-01-22 02:00","2018","01","22","02:00","-35.1","","-38.7","","70","","","","30","","22","","24.1","","103.03","","","","-50","","NA"
"-96.08","64.30","BAKER LAKE A","2300503","2018-01-22 03:00","2018","01","22","03:00","-37.6","","-41.5","","68","","","","14","","4","","24.1","","103.06","","","","-43","","Clear"
"-96.08","64.30","BAKER LAKE A","2300503","2018-01-22 04:00","2018","01","22","04:00","-38.6","","-42.5","","68","","","","20","","9","","24.1","","103.08","","","","-49","","NA"
"-96.08","64.30","BAKER LAKE A","2300503","2018-01-22 05:00","2018","01","22","05:00","-36.1","","-39.7","","70","","","","29","","6","","24.1","","103.07","","","","-44","","NA"
"-96.08","64.30","BAKER LAKE A","2300503","2018-01-22 06:00","2018","01","22","06:00","-35.6","","-39.3","","70","","","","30","","24","","24.1","","103.06","","","","-51","","Clear"
"-96.08","64.30","BAKER LAKE A","2300503","2018-01-22 07:00","2018","01","22","07:00","-37.3","","-41.1","","69","","","","36","","2","","24.1","","103.08","","","","-40","","NA"
"-96.08","64.30","BAKER LAKE A","2300503","2018-01-22 08:00","2018","01","22","08:00","-37.9","","-41.7","","68","","","","36","","2","","32.2","","103.09","","","","-41","","NA"
"-96.08","64.30","BAKER LAKE A","2300503","2018-01-22 09:00","2018","01","22","09:00","-37.4","","-41.2","","69","","","","0","","1","","24.1","","103.10","","","","-39","","Clear"
"-96.08","64.30","BAKER LAKE A","2300503","2018-01-22 10:00","2018","01","22","10:00","-38.7","","-42.6","","68","","","","36","","3","","40.2","","103.11","","","","-43","","NA"
"-96.08","64.30","BAKER LAKE A","2300503","2018-01-22 11:00","2018","01","22","11:00","-37.2","","-41.1","","68","","","","36","","2","","40.2","","103.10","","","","-40","","NA"
"-96.08","64.30","BAKER LAKE A","2300503","2018-01-22 12:00","2018","01","22","12:00","-37.2","","-41.1","","68","","","","0","","1","","40.2","","103.10","","","","-39","","Mainly Clear"
"-96.08","64.30","BAKER LAKE A","2300503","2018-01-22 13:00","2018","01","22","13:00","-37.6","","-41.5","","68","","","","22","","5","","40.2","","103.10","","","","-44","","NA"
"-96.08","64.30","BAKER LAKE A","2300503","2018-01-22 14:00","2018","01","22","14:00","-36.6","","-40.4","","69","","","","2","","4","","40.2","","103.12","","","","-42","","NA"
"-96.08","64.30","BAKER LAKE A","2300503","2018-01-22 15:00","2018","01","22","15:00","-35.6","","-39.4","","69","","","","36","","2","","40.2","","103.11","","","","-38","","Mainly Clear"
"-96.08","64.30","BAKER LAKE A","2300503","2018-01-22 16:00","2018","01","22","16:00","-37.0","","-40.8","","69","","","","16","","4","","40.2","","103.14","","","","-42","","NA"
"-96.08","64.30","BAKER LAKE A","2300503","2018-01-22 17:00","2018","01","22","17:00","-36.9","","-40.7","","69","","","","36","","3","","24.1","","103.13","","","","-41","","NA"
"-96.08","64.30","BAKER LAKE A","2300503","2018-01-22 18:00","2018","01","22","18:00","-37.3","","-41.1","","69","","","","36","","2","","24.1","","103.14","","","","-40","","Clear"
"-96.08","64.30","BAKER LAKE A","2300503","2018-01-22 19:00","2018","01","22","19:00","-37.1","","-40.9","","69","","","","36","","1","","24.1","","103.11","","","","-38","","NA"
"-96.08","64.30","BAKER LAKE A","2300503","2018-01-22 20:00","2018","01","22","20:00","-37.3","","-41.1","","69","","","","0","","1","","24.1","","103.10","","","","-39","","NA"
"-96.08","64.30","BAKER LAKE A","2300503","2018-01-22 21:00","2018","01","22","21:00","-36.9","","-40.7","","69","","","","36","","1","","24.1","","103.05","","","","-38","","Ice Crystals"
"-96.08","64.30","BAKER LAKE A","2300503","2018-01-22 22:00","2018","01","22","22:00","-36.3","","-40.0","","69","","","","36","","2","","24.1","","103.03","","","","-39","","Ice Crystals"
"-96.08","64.30","BAKER LAKE A","2300503","2018-01-22 23:00","2018","01","22","23:00","-35.1","","-38.8","","70","","","","1","","4","","24.1","","103.01","","","","-40","","Ice Crystals"
"-96.08","64.30","BAKER LAKE A","2300503","2018-01-23 00:00","2018","01","23","00:00","-34.1","","-37.7","","71","","","","36","","2","","12.9","","103.00","","","","-37","","Ice Crystals"
"-96.08","64.30","BAKER LAKE A","2300503","2018-01-23 01:00","2018","01","23","01:00","-33.2","","-36.8","","71","","","","36","","1","","6.4","","102.98","","","","-34","","Ice Crystals,Fog"
"-96.08","64.30","BAKER LAKE A","2300503","2018-01-23 02:00","2018","01","23","02:00","-32.6","","-36.2","","71","","","","36","","2","","4.8","","102.97","","","","-35","","Ice Crystals,Fog"
"-96.08","64.30","BAKER LAKE A","2300503","2018-01-23 03:00","2018","01","23","03:00","-32.4","","-35.9","","72","","","","34","","4","","1.6","","102.98","","","","-37","","Ice Crystals,Fog"
"-96.08","64.30","BAKER LAKE A","2300503","2018-01-23 04:00","2018","01","23","04:00","-32.7","","-36.2","","72","","","","34","","3","","1.6","","102.95","","","","-36","","Ice Crystals,Fog"
"-96.08","64.30","BAKER LAKE A","2300503","2018-01-23 05:00","2018","01","23","05:00","-33.3","","-36.9","","71","","","","28","","4","","1.6","","102.93","","","","-38","","Ice Crystals,Fog"
"-96.08","64.30","BAKER LAKE A","2300503","2018-01-23 06:00","2018","01","23","06:00","-33.5","","-37.1","","71","","","","32","","3","","0.8","","102.90","","","","-37","","Ice Crystals,Freezing Fog"
"-96.08","64.30","BAKER LAKE A","2300503","2018-01-23 07:00","2018","01","23","07:00","-35.5","","-39.2","","70","","","","34","","7","","0.6","","102.89","","","","-44","","Ice Crystals,Freezing Fog"
"-96.08","64.30","BAKER LAKE A","2300503","2018-01-23 08:00","2018","01","23","08:00","-34.7","","-38.3","","70","","","","34","","3","","4.8","","102.86","","","","-38","","Ice Crystals,Fog"
"-96.08","64.30","BAKER LAKE A","2300503","2018-01-23 09:00","2018","01","23","09:00","-36.1","","-39.8","","69","","","","34","","5","","3.6","","102.84","","","","-43","","Ice Crystals,Fog"
"-96.08","64.30","BAKER LAKE A","2300503","2018-01-23 10:00","2018","01","23","10:00","-34.9","","-38.5","","70","","","","33","","4","","4.8","","102.83","","","","-40","","Ice Crystals,Fog"
"-96.08","64.30","BAKER LAKE A","2300503","2018-01-23 11:00","2018","01","23","11:00","-34.5","","-38.1","","70","","","","36","","2","","1.2","","102.82","","","","-37","","Ice Crystals,Fog"
"-96.08","64.30","BAKER LAKE A","2300503","2018-01-23 12:00","2018","01","23","12:00","-34.0","","-37.6","","71","","","","35","","3","","1.2","","102.79","","","","-38","","Ice Crystals,Fog"
"-96.08","64.30","BAKER LAKE A","2300503","2018-01-23 13:00","2018","01","23","13:00","-34.0","","-37.6","","71","","","","22","","3","","1.0","","102.76","","","","-38","","Ice Crystals,Fog"
"-96.08","64.30","BAKER LAKE A","2300503","2018-01-23 14:00","2018","01","23","14:00","-34.2","","-37.8","","70","","","","25","","3","","1.2","","102.73","","","","-38","","Ice Crystals,Fog"
"-96.08","64.30","BAKER LAKE A","2300503","2018-01-23 15:00","2018","01","23","15:00","-34.6","","-38.2","","70","","","","23","","3","","1.2","","102.73","","","","-38","","Ice Crystals,Fog"
"-96.08","64.30","BAKER LAKE A","2300503","2018-01-23 16:00","2018","01","23","16:00","-34.9","","-38.5","","70","","","","20","","3","","6.4","","102.73","","","","-39","","Ice Crystals,Fog"
"-96.08","64.30","BAKER LAKE A","2300503","2018-01-23 17:00","2018","01","23","17:00","-34.7","","-38.4","","70","","","","20","","4","","9.7","","102.71","","","","-40","","Ice Crystals,Fog"
"-96.08","64.30","BAKER LAKE A","2300503","2018-01-23 18:00","2018","01","23","18:00","-34.6","","-38.2","","70","","","","25","","3","","24.1","","102.70","","","","-38","","Ice Crystals"
"-96.08","64.30","BAKER LAKE A","2300503","2018-01-23 19:00","2018","01","23","19:00","-34.8","","-38.4","","70","","","","36","","1","","24.1","","102.68","","","","-36","","Ice Crystals"
"-96.08","64.30","BAKER LAKE A","2300503","2018-01-23 20:00","2018","01","23","20:00","-34.4","","-38.0","","70","","","","18","","4","","24.1","","102.62","","","","-39","","Ice Crystals"
"-96.08","64.30","BAKER LAKE A","2300503","2018-01-23 21:00","2018","01","23","21:00","-34.3","","-37.9","","71","","","","0","","1","","24.1","","102.60","","","","-36","","Snow"
"-96.08","64.30","BAKER LAKE A","2300503","2018-01-23 22:00","2018","01","23","22:00","-35.1","","-38.8","","70","","","","18","","4","","24.1","","102.57","","","","-40","","Ice Crystals"
"-96.08","64.30","BAKER LAKE A","2300503","2018-01-23 23:00","2018","01","23","23:00","-35.6","","-39.3","","70","","","","20","","4","","24.1","","102.55","","","","-41","","Ice Crystals"
"-96.08","64.30","BAKER LAKE A","2300503","2018-01-24 00:00","2018","01","24","00:00","-35.4","","-39.1","","70","","","","36","","1","","24.1","","102.54","","","","-37","","Ice Crystals"
"-96.08","64.30","BAKER LAKE A","2300503","2018-01-24 01:00","2018","01","24","01:00","-34.9","","-38.5","","70","","","","36","","3","","24.1","","102.51","","","","-39","","Ice Crystals"
"-96.08","64.30","BAKER LAKE A","2300503","2018-01-24 02:00","2018","01","24","02:00","-34.3","","-37.9","","71","","","","36","","2","","24.1","","102.52","","","","-37","","Snow"
"-96.08","64.30","BAKER LAKE A","2300503","2018-01-24 03:00","2018","01","24","03:00","-34.8","","-38.4","","70","","","","36","","1","","24.1","","102.49","","","","-36","","Mainly Clear"
"-96.08","64.30","BAKER LAKE A","2300503","2018-01-24 04:00","2018","01","24","04:00","-34.9","","-38.5","","70","","","","36","","4","","24.1","","102.46","","","","-40","","NA"
"-96.08","64.30","BAKER LAKE A","2300503","2018-01-24 05:00","2018","01","24","05:00","-34.4","","-38.0","","71","","","","36","","3","","24.1","","102.42","","","","-38","","NA"
"-96.08","64.30","BAKER LAKE A","2300503","2018-01-24 06:00","2018","01","24","06:00","-34.1","","-37.7","","71","","","","36","","1","","24.1","","102.39","","","","-35","","Mainly Clear"
"-96.08","64.30","BAKER LAKE A","2300503","2018-01-24 07:00","2018","01","24","07:00","-34.2","","-37.8","","71","","","","6","","3","","24.1","","102.37","","","","-38","","NA"
"-96.08","64.30","BAKER LAKE A","2300503","2018-01-24 08:00","2018","01","24","08:00","-33.6","","-37.1","","71","","","","34","","4","","24.1","","102.32","","","","-38","","Ice Crystals"
"-96.08","64.30","BAKER LAKE A","2300503","2018-01-24 09:00","2018","01","24","09:00","-33.6","","-37.1","","71","","","","36","","1","","8.1","","102.29","","","","-35","","Ice Crystals"
"-96.08","64.30","BAKER LAKE A","2300503","2018-01-24 10:00","2018","01","24","10:00","-33.7","","-37.3","","71","","","","35","","5","","8.1","","102.25","","","","-40","","Ice Crystals"
"-96.08","64.30","BAKER LAKE A","2300503","2018-01-24 11:00","2018","01","24","11:00","-32.1","","-35.6","","72","","","","2","","4","","8.1","","102.21","","","","-37","","Ice Crystals"
"-96.08","64.30","BAKER LAKE A","2300503","2018-01-24 12:00","2018","01","24","12:00","-30.5","","-34.0","","72","","","","36","","2","","4.8","","102.18","","","","-33","","Ice Crystals"
"-96.08","64.30","BAKER LAKE A","2300503","2018-01-24 13:00","2018","01","24","13:00","-30.0","","-33.4","","73","","","","4","","4","","6.4","","102.15","","","","-35","","Ice Crystals"
"-96.08","64.30","BAKER LAKE A","2300503","2018-01-24 14:00","2018","01","24","14:00","-29.3","","-32.6","","74","","","","7","","4","","40.2","","102.12","","","","-34","","Ice Crystals"
"-96.08","64.30","BAKER LAKE A","2300503","2018-01-24 15:00","2018","01","24","15:00","-28.4","","-31.6","","75","","","","11","","10","","40.2","","102.10","","","","-37","","Ice Crystals"
"-96.08","64.30","BAKER LAKE A","2300503","2018-01-24 16:00","2018","01","24","16:00","-27.2","","-30.3","","75","","","","10","","15","","24.1","","102.09","","","","-38","","Ice Crystals"
"-96.08","64.30","BAKER LAKE A","2300503","2018-01-24 17:00","2018","01","24","17:00","-26.3","","-29.4","","76","","","","11","","12","","24.1","","102.06","","","","-36","","Ice Crystals"
"-96.08","64.30","BAKER LAKE A","2300503","2018-01-24 18:00","2018","01","24","18:00","-25.9","","-29.0","","76","","","","11","","11","","24.1","","102.02","","","","-35","","Ice Crystals"
"-96.08","64.30","BAKER LAKE A","2300503","2018-01-24 19:00","2018","01","24","19:00","-25.8","","-28.8","","76","","","","10","","12","","24.1","","101.98","","","","-35","","Snow,Ice Crystals"
"-96.08","64.30","BAKER LAKE A","2300503","2018-01-24 20:00","2018","01","24","20:00","-25.9","","-28.9","","76","","","","9","","11","","24.1","","101.96","","","","-35","","Snow,Ice Crystals"
"-96.08","64.30","BAKER LAKE A","2300503","2018-01-24 21:00","2018","01","24","21:00","-25.5","","-28.5","","77","","","","9","","10","","24.1","","101.93","","","","-34","","Snow"
"-96.08","64.30","BAKER LAKE A","2300503","2018-01-24 22:00","2018","01","24","22:00","-25.5","","-28.4","","77","","","","7","","18","","24.1","","101.86","","","","-37","","Snow"
"-96.08","64.30","BAKER LAKE A","2300503","2018-01-24 23:00","2018","01","24","23:00","-25.4","","-28.3","","77","","","","11","","15","","24.1","","101.89","","","","-36","","Snow"
"-96.08","64.30","BAKER LAKE A","2300503","2018-01-25 00:00","2018","01","25","00:00","-24.9","","-27.8","","77","","","","11","","12","","24.1","","101.89","","","","-34","","Snow"
"-96.08","64.30","BAKER LAKE A","2300503","2018-01-25 01:00","2018","01","25","01:00","-24.9","","-27.8","","77","","","","10","","13","","24.1","","101.86","","","","-34","","Snow"
"-96.08","64.30","BAKER LAKE A","2300503","2018-01-25 02:00","2018","01","25","02:00","-24.9","","-27.8","","77","","","","8","","12","","24.1","","101.83","","","","-34","","Snow"
"-96.08","64.30","BAKER LAKE A","2300503","2018-01-25 03:00","2018","01","25","03:00","-24.8","","-27.7","","77","","","","9","","14","","24.1","","101.78","","","","-35","","Snow"
"-96.08","64.30","BAKER LAKE A","2300503","2018-01-25 04:00","2018","01","25","04:00","-24.8","","-27.7","","77","","","","10","","17","","24.1","","101.77","","","","-36","","Snow"
"-96.08","64.30","BAKER LAKE A","2300503","2018-01-25 05:00","2018","01","25","05:00","-24.9","","-27.7","","77","","","","10","","16","","24.1","","101.73","","","","-35","","Snow"
"-96.08","64.30","BAKER LAKE A","2300503","2018-01-25 06:00","2018","01","25","06:00","-25.1","","-28.0","","77","","","","10","","16","","24.1","","101.69","","","","-36","","Snow"
"-96.08","64.30","BAKER LAKE A","2300503","2018-01-25 07:00","2018","01","25","07:00","-25.7","","-28.7","","77","","","","8","","10","","24.1","","101.67","","","","-34","","Snow"
"-96.08","64.30","BAKER LAKE A","2300503","2018-01-25 08:00","2018","01","25","08:00","-25.8","","-28.7","","77","","","","8","","13","","16.1","","101.66","","","","-35","","Snow"
"-96.08","64.30","BAKER LAKE A","2300503","2018-01-25 09:00","2018","01","25","09:00","-25.3","","-28.2","","77","","","","8","","12","","4.8","","101.63","","","","-34","","Snow"
"-96.08","64.30","BAKER LAKE A","2300503","2018-01-25 10:00","2018","01","25","10:00","-25.2","","-28.1","","77","","","","6","","12","","16.1","","101.61","","","","-34","","Snow"
"-96.08","64.30","BAKER LAKE A","2300503","2018-01-25 11:00","2018","01","25","11:00","-24.9","","-27.8","","77","","","","4","","9","","24.1","","101.57","","","","-33","","Snow"
"-96.08","64.30","BAKER LAKE A","2300503","2018-01-25 12:00","2018","01","25","12:00","-24.6","","-27.4","","78","","","","5","","8","","8.1","","101.57","","","","-32","","Snow"
"-96.08","64.30","BAKER LAKE A","2300503","2018-01-25 13:00","2018","01","25","13:00","-26.8","","-29.9","","76","","","","35","","12","","32.2","","101.55","","","","-36","","NA"
"-96.08","64.30","BAKER LAKE A","2300503","2018-01-25 14:00","2018","01","25","14:00","-27.0","","-30.0","","76","","","","34","","15","","32.2","","101.54","","","","-38","","NA"
"-96.08","64.30","BAKER LAKE A","2300503","2018-01-25 15:00","2018","01","25","15:00","-26.8","","-29.9","","76","","","","35","","22","","24.1","","101.54","","","","-40","","Mainly Clear"
"-96.08","64.30","BAKER LAKE A","2300503","2018-01-25 16:00","2018","01","25","16:00","-27.4","","-30.5","","76","","","","35","","23","","40.2","","101.56","","","","-41","","NA"
"-96.08","64.30","BAKER LAKE A","2300503","2018-01-25 17:00","2018","01","25","17:00","-26.7","","-29.7","","76","","","","35","","21","","24.1","","101.57","","","","-39","","NA"
"-96.08","64.30","BAKER LAKE A","2300503","2018-01-25 18:00","2018","01","25","18:00","-24.0","","-26.7","","79","","","","2","","16","","24.1","","101.60","","","","-34","","Mostly Cloudy"
"-96.08","64.30","BAKER LAKE A","2300503","2018-01-25 19:00","2018","01","25","19:00","-22.8","","-25.4","","79","","","","1","","20","","24.1","","101.60","","","","-34","","NA"
"-96.08","64.30","BAKER LAKE A","2300503","2018-01-25 20:00","2018","01","25","20:00","-23.7","","-26.5","","78","","","","35","","24","","24.1","","101.61","","","","-36","","Snow"
"-96.08","64.30","BAKER LAKE A","2300503","2018-01-25 21:00","2018","01","25","21:00","-21.9","","-24.6","","80","","","","36","","22","","24.1","","101.65","","","","-33","","Snow"
"-96.08","64.30","BAKER LAKE A","2300503","2018-01-25 22:00","2018","01","25","22:00","-22.9","","-25.7","","78","","","","34","","36","","24.1","","101.66","","","","-37","","Snow,Blowing Snow"
"-96.08","64.30","BAKER LAKE A","2300503","2018-01-25 23:00","2018","01","25","23:00","-24.8","","-27.6","","78","","","","34","","31","","24.1","","101.73","","","","-39","","Snow,Blowing Snow"
"-96.08","64.30","BAKER LAKE A","2300503","2018-01-26 00:00","2018","01","26","00:00","-26.7","","-29.7","","76","","","","33","","30","","24.1","","101.78","","","","-41","","Snow,Blowing Snow"
"-96.08","64.30","BAKER LAKE A","2300503","2018-01-26 01:00","2018","01","26","01:00","-26.9","","-29.9","","76","","","","33","","39","","24.1","","101.78","","","","-43","","Blowing Snow"
"-96.08","64.30","BAKER LAKE A","2300503","2018-01-26 02:00","2018","01","26","02:00","-28.1","","-31.3","","75","","","","34","","35","","24.1","","101.86","","","","-44","","Blowing Snow"
"-96.08","64.30","BAKER LAKE A","2300503","2018-01-26 03:00","2018","01","26","03:00","-27.5","","-30.5","","76","","","","34","","36","","24.1","","101.90","","","","-43","","Blowing Snow"
"-96.08","64.30","BAKER LAKE A","2300503","2018-01-26 04:00","2018","01","26","04:00","-26.5","","-29.5","","77","","","","32","","37","","24.1","","101.91","","","","-42","","Blowing Snow"
"-96.08","64.30","BAKER LAKE A","2300503","2018-01-26 05:00","2018","01","26","05:00","-26.9","","-30.0","","76","","","","32","","37","","24.1","","101.96","","","","-43","","Blowing Snow"
"-96.08","64.30","BAKER LAKE A","2300503","2018-01-26 06:00","2018","01","26","06:00","-27.9","","-31.0","","75","","","","32","","31","","24.1","","101.99","","","","-43","","Blowing Snow"
"-96.08","64.30","BAKER LAKE A","2300503","2018-01-26 07:00","2018","01","26","07:00","-28.0","","-31.0","","76","","","","32","","32","","24.1","","102.04","","","","-43","","Blowing Snow"
"-96.08","64.30","BAKER LAKE A","2300503","2018-01-26 08:00","2018","01","26","08:00","-27.6","","-30.8","","75","","","","30","","29","","32.2","","102.07","","","","-42","","Ice Crystals,Blowing Snow"
"-96.08","64.30","BAKER LAKE A","2300503","2018-01-26 09:00","2018","01","26","09:00","-26.8","","-29.8","","76","","","","30","","34","","24.1","","102.09","","","","-42","","Mostly Cloudy"
"-96.08","64.30","BAKER LAKE A","2300503","2018-01-26 10:00","2018","01","26","10:00","-25.5","","-28.4","","77","","","","30","","30","","40.2","","102.12","","","","-40","","NA"
"-96.08","64.30","BAKER LAKE A","2300503","2018-01-26 11:00","2018","01","26","11:00","-26.0","","-29.0","","77","","","","30","","28","","24.1","","102.13","","","","-40","","NA"
"-96.08","64.30","BAKER LAKE A","2300503","2018-01-26 12:00","2018","01","26","12:00","-26.3","","-29.2","","77","","","","33","","24","","24.1","","102.17","","","","-39","","Mostly Cloudy"
"-96.08","64.30","BAKER LAKE A","2300503","2018-01-26 13:00","2018","01","26","13:00","-25.9","","-28.9","","76","","","","33","","25","","24.1","","102.19","","","","-39","","Blowing Snow"
"-96.08","64.30","BAKER LAKE A","2300503","2018-01-26 14:00","2018","01","26","14:00","-27.1","","-30.2","","76","","","","32","","26","","40.2","","102.24","","","","-41","","Blowing Snow"
"-96.08","64.30","BAKER LAKE A","2300503","2018-01-26 15:00","2018","01","26","15:00","-27.7","","-30.8","","75","","","","33","","26","","40.2","","102.29","","","","-42","","Blowing Snow"
"-96.08","64.30","BAKER LAKE A","2300503","2018-01-26 16:00","2018","01","26","16:00","-27.1","","-30.1","","76","","","","32","","23","","40.2","","102.33","","","","-40","","Blowing Snow"
"-96.08","64.30","BAKER LAKE A","2300503","2018-01-26 17:00","2018","01","26","17:00","-25.2","","-28.1","","77","","","","31","","16","","24.1","","102.38","","","","-36","","Blowing Snow"
"-96.08","64.30","BAKER LAKE A","2300503","2018-01-26 18:00","2018","01","26","18:00","-24.3","","-27.1","","78","","","","30","","35","","24.1","","102.36","","","","-39","","Blowing Snow"
"-96.08","64.30","BAKER LAKE A","2300503","2018-01-26 19:00","2018","01","26","19:00","-23.5","","-26.3","","78","","","","28","","16","","24.1","","102.35","","","","-34","","Blowing Snow"
"-96.08","64.30","BAKER LAKE A","2300503","2018-01-26 20:00","2018","01","26","20:00","-22.0","","-24.6","","80","","","","30","","28","","24.1","","102.30","","","","-35","","Blowing Snow"
"-96.08","64.30","BAKER LAKE A","2300503","2018-01-26 21:00","2018","01","26","21:00","-21.1","","-23.6","","80","","","","31","","29","","24.1","","102.28","","","","-34","","Snow,Blowing Snow"
"-96.08","64.30","BAKER LAKE A","2300503","2018-01-26 22:00","2018","01","26","22:00","-21.2","","-23.7","","80","","","","30","","32","","24.1","","102.28","","","","-34","","Snow,Blowing Snow"
"-96.08","64.30","BAKER LAKE A","2300503","2018-01-26 23:00","2018","01","26","23:00","-20.5","","-22.9","","81","","","","31","","29","","24.1","","102.29","","","","-33","","Snow,Blowing Snow"
"-96.08","64.30","BAKER LAKE A","2300503","2018-01-27 00:00","2018","01","27","00:00","-20.2","","-22.7","","81","","","","31","","32","","16.1","","102.25","","","","-33","","Snow,Blowing Snow"
"-96.08","64.30","BAKER LAKE A","2300503","2018-01-27 01:00","2018","01","27","01:00","-20.5","","-23.1","","81","","","","30","","33","","16.1","","102.23","","","","-34","","Snow,Blowing Snow"
"-96.08","64.30","BAKER LAKE A","2300503","2018-01-27 02:00","2018","01","27","02:00","-20.7","","-23.2","","81","","","","30","","39","","16.1","","102.23","","","","-35","","Snow,Blowing Snow"
"-96.08","64.30","BAKER LAKE A","2300503","2018-01-27 03:00","2018","01","27","03:00","-21.2","","-23.8","","80","","","","30","","50","","6.4","","102.16","","","","-37","","Snow,Blowing Snow"
"-96.08","64.30","BAKER LAKE A","2300503","2018-01-27 04:00","2018","01","27","04:00","-21.4","","-24.0","","80","","","","31","","47","","6.4","","102.18","","","","-37","","Snow,Blowing Snow"
"-96.08","64.30","BAKER LAKE A","2300503","2018-01-27 05:00","2018","01","27","05:00","-21.7","","-24.3","","80","","","","31","","46","","8.1","","102.16","","","","-37","","Blowing Snow"
"-96.08","64.30","BAKER LAKE A","2300503","2018-01-27 06:00","2018","01","27","06:00","-20.8","","-23.3","","81","","","","32","","55","","2.4","","102.10","","","","-37","","Blowing Snow"
"-96.08","64.30","BAKER LAKE A","2300503","2018-01-27 07:00","2018","01","27","07:00","-21.2","","-23.7","","80","","","","31","","37","","11.3","","102.21","","","","-35","","Blowing Snow"
"-96.08","64.30","BAKER LAKE A","2300503","2018-01-27 08:00","2018","01","27","08:00","-21.3","","-23.9","","80","","","","31","","42","","16.1","","102.13","","","","-36","","Blowing Snow"
"-96.08","64.30","BAKER LAKE A","2300503","2018-01-27 09:00","2018","01","27","09:00","-21.3","","-23.8","","80","","","","30","","42","","16.1","","102.12","","","","-36","","Blowing Snow"
"-96.08","64.30","BAKER LAKE A","2300503","2018-01-27 10:00","2018","01","27","10:00","-21.2","","-23.8","","80","","","","31","","45","","4.8","","102.11","","","","-36","","Blowing Snow"
"-96.08","64.30","BAKER LAKE A","2300503","2018-01-27 11:00","2018","01","27","11:00","-20.8","","-23.3","","81","","","","30","","42","","1.6","","102.07","","","","-35","","Blowing Snow"
"-96.08","64.30","BAKER LAKE A","2300503","2018-01-27 12:00","2018","01","27","12:00","-20.2","","-22.6","","81","","","","30","","46","","1.2","","102.02","","","","-35","","Blowing Snow"
"-96.08","64.30","BAKER LAKE A","2300503","2018-01-27 13:00","2018","01","27","13:00","-19.6","","-22.0","","82","","","","31","","49","","0.8","","101.99","","","","-35","","Blowing Snow"
"-96.08","64.30","BAKER LAKE A","2300503","2018-01-27 14:00","2018","01","27","14:00","-19.5","","-21.9","","82","","","","31","","52","","0.8","","101.94","","","","-35","","Blowing Snow"
"-96.08","64.30","BAKER LAKE A","2300503","2018-01-27 15:00","2018","01","27","15:00","-19.4","","-21.8","","82","","","","31","","47","","0.8","","101.97","","","","-34","","Blowing Snow"
"-96.08","64.30","BAKER LAKE A","2300503","2018-01-27 16:00","2018","01","27","16:00","-19.2","","-21.5","","82","","","","31","","45","","0.8","","102.02","","","","-34","","Blowing Snow"
"-96.08","64.30","BAKER LAKE A","2300503","2018-01-27 17:00","2018","01","27","17:00","-19.4","","-21.8","","82","","","","31","","53","","0.4","","101.99","","","","-35","","Blowing Snow"
"-96.08","64.30","BAKER LAKE A","2300503","2018-01-27 18:00","2018","01","27","18:00","-20.3","","-22.8","","81","","","","32","","50","","3.2","","102.00","","","","-36","","Blowing Snow"
"-96.08","64.30","BAKER LAKE A","2300503","2018-01-27 19:00","2018","01","27","19:00","-20.9","","-23.4","","81","","","","32","","44","","4.8","","102.03","","","","-36","","Blowing Snow"
"-96.08","64.30","BAKER LAKE A","2300503","2018-01-27 20:00","2018","01","27","20:00"
"-96.08","64.30","BAKER LAKE A","2300503","2018-01-27 21:00","2018","01","27","21:00","-21.2","","-23.7","","80","","","","30","","36","","8.1","","102.10","","","","-35","","Blowing Snow"
"-96.08","64.30","BAKER LAKE A","2300503","2018-01-27 22:00","2018","01","27","22:00","-21.7","","-24.2","","80","","","","30","","26","","9.7","","102.12","","","","-34","","Blowing Snow"
"-96.08","64.30","BAKER LAKE A","2300503","2018-01-27 23:00","2018","01","27","23:00","-21.9","","-24.5","","80","","","","32","","43","","4.8","","102.04","","","","-37","","Ice Crystals,Blowing Snow"
"-96.08","64.30","BAKER LAKE A","2300503","2018-01-28 00:00","2018","01","28","00:00","-22.2","","-24.9","","80","","","","30","","40","","6.4","","102.09","","","","-37","","Ice Crystals,Blowing Snow"
"-96.08","64.30","BAKER LAKE A","2300503","2018-01-28 01:00","2018","01","28","01:00","-22.7","","-25.4","","79","","","","31","","41","","22.5","","102.12","","","","-38","","Ice Crystals,Blowing Snow"
"-96.08","64.30","BAKER LAKE A","2300503","2018-01-28 02:00","2018","01","28","02:00","-22.7","","-25.4","","79","","","","31","","36","","20.9","","102.17","","","","-37","","Ice Crystals,Blowing Snow"
"-96.08","64.30","BAKER LAKE A","2300503","2018-01-28 03:00","2018","01","28","03:00","-22.6","","-25.2","","79","","","","32","","35","","24.1","","102.25","","","","-37","","Ice Crystals,Blowing Snow"
"-96.08","64.30","BAKER LAKE A","2300503","2018-01-28 04:00","2018","01","28","04:00","-22.8","","-25.4","","79","","","","31","","35","","24.1","","102.31","","","","-37","","Ice Crystals,Blowing Snow"
"-96.08","64.30","BAKER LAKE A","2300503","2018-01-28 05:00","2018","01","28","05:00","-22.8","","-25.5","","79","","","","31","","36","","12.9","","102.34","","","","-37","","Ice Crystals,Blowing Snow"
"-96.08","64.30","BAKER LAKE A","2300503","2018-01-28 06:00","2018","01","28","06:00","-22.9","","-25.6","","79","","","","31","","44","","6.4","","102.32","","","","-39","","Ice Crystals,Blowing Snow"
"-96.08","64.30","BAKER LAKE A","2300503","2018-01-28 07:00","2018","01","28","07:00","-23.6","","-26.3","","79","","","","32","","54","","1.6","","102.34","","","","-41","","Ice Crystals,Blowing Snow"
"-96.08","64.30","BAKER LAKE A","2300503","2018-01-28 08:00","2018","01","28","08:00","-23.8","","-26.6","","78","","","","30","","41","","12.9","","102.44","","","","-39","","Ice Crystals,Blowing Snow"
"-96.08","64.30","BAKER LAKE A","2300503","2018-01-28 09:00","2018","01","28","09:00","-24.5","","-27.3","","78","","","","30","","41","","16.1","","102.48","","","","-40","","Ice Crystals,Blowing Snow"
"-96.08","64.30","BAKER LAKE A","2300503","2018-01-28 10:00","2018","01","28","10:00","-23.9","","-26.7","","78","","","","30","","35","","16.1","","102.51","","","","-39","","Ice Crystals,Blowing Snow"
"-96.08","64.30","BAKER LAKE A","2300503","2018-01-28 11:00","2018","01","28","11:00","-23.2","","-25.9","","79","","","","27","","23","","24.1","","102.53","","","","-35","","Ice Crystals,Blowing Snow"
"-96.08","64.30","BAKER LAKE A","2300503","2018-01-28 12:00","2018","01","28","12:00","-22.4","","-25.0","","80","","","","29","","32","","16.1","","102.52","","","","-36","","Ice Crystals,Blowing Snow"
"-96.08","64.30","BAKER LAKE A","2300503","2018-01-28 13:00","2018","01","28","13:00","-21.9","","-24.5","","80","","","","30","","40","","4.0","","102.46","","","","-37","","Snow,Blowing Snow"
"-96.08","64.30","BAKER LAKE A","2300503","2018-01-28 14:00","2018","01","28","14:00","-21.4","","-24.0","","80","","","","31","","43","","1.6","","102.47","","","","-36","","Snow,Blowing Snow"
"-96.08","64.30","BAKER LAKE A","2300503","2018-01-28 15:00","2018","01","28","15:00","-24.1","","-26.9","","78","","","","32","","41","","1.2","","102.49","","","","-40","","Ice Crystals,Blowing Snow"
"-96.08","64.30","BAKER LAKE A","2300503","2018-01-28 16:00","2018","01","28","16:00","-25.9","","-28.9","","77","","","","29","","31","","16.1","","102.59","","","","-40","","Ice Crystals,Blowing Snow"
"-96.08","64.30","BAKER LAKE A","2300503","2018-01-28 17:00","2018","01","28","17:00","-26.7","","-29.7","","76","","","","29","","35","","16.1","","102.57","","","","-42","","Ice Crystals,Blowing Snow"
"-96.08","64.30","BAKER LAKE A","2300503","2018-01-28 18:00","2018","01","28","18:00","-26.5","","-29.5","","76","","","","29","","34","","24.1","","102.58","","","","-42","","Ice Crystals,Blowing Snow"
"-96.08","64.30","BAKER LAKE A","2300503","2018-01-28 19:00","2018","01","28","19:00","-26.4","","-29.4","","76","","","","30","","33","","24.1","","102.57","","","","-41","","Ice Crystals,Blowing Snow"
"-96.08","64.30","BAKER LAKE A","2300503","2018-01-28 20:00","2018","01","28","20:00","-26.2","","-29.1","","77","","","","30","","47","","8.1","","102.50","","","","-43","","Ice Crystals,Blowing Snow"
"-96.08","64.30","BAKER LAKE A","2300503","2018-01-28 21:00","2018","01","28","21:00","-26.2","","-29.1","","77","","","","30","","42","","4.8","","102.47","","","","-43","","Ice Crystals,Blowing Snow"
"-96.08","64.30","BAKER LAKE A","2300503","2018-01-28 22:00","2018","01","28","22:00","-26.7","","-29.7","","76","","","","29","","33","","20.9","","102.47","","","","-42","","Ice Crystals,Blowing Snow"
"-96.08","64.30","BAKER LAKE A","2300503","2018-01-28 23:00","2018","01","28","23:00","-26.8","","-29.8","","76","","","","29","","32","","24.1","","102.46","","","","-42","","Ice Crystals,Blowing Snow"
"-96.08","64.30","BAKER LAKE A","2300503","2018-01-29 00:00","2018","01","29","00:00","-26.9","","-29.9","","76","","","","30","","38","","12.9","","102.43","","","","-43","","Ice Crystals,Blowing Snow"
"-96.08","64.30","BAKER LAKE A","2300503","2018-01-29 01:00","2018","01","29","01:00","-26.6","","-29.5","","76","","","","30","","37","","17.7","","102.41","","","","-42","","Ice Crystals,Blowing Snow"
"-96.08","64.30","BAKER LAKE A","2300503","2018-01-29 02:00","2018","01","29","02:00","-26.6","","-29.6","","76","","","","30","","41","","16.1","","102.38","","","","-43","","Ice Crystals,Blowing Snow"
"-96.08","64.30","BAKER LAKE A","2300503","2018-01-29 03:00","2018","01","29","03:00","-26.9","","-29.9","","76","","","","29","","30","","24.1","","102.44","","","","-42","","Ice Crystals,Blowing Snow"
"-96.08","64.30","BAKER LAKE A","2300503","2018-01-29 04:00","2018","01","29","04:00","-26.9","","-29.9","","76","","","","29","","38","","24.1","","102.42","","","","-43","","Ice Crystals,Blowing Snow"
"-96.08","64.30","BAKER LAKE A","2300503","2018-01-29 05:00","2018","01","29","05:00","-26.7","","-29.7","","76","","","","30","","33","","24.1","","102.38","","","","-42","","Ice Crystals,Blowing Snow"
"-96.08","64.30","BAKER LAKE A","2300503","2018-01-29 06:00","2018","01","29","06:00","-26.6","","-29.6","","76","","","","29","","27","","24.1","","102.36","","","","-41","","Ice Crystals,Blowing Snow"
"-96.08","64.30","BAKER LAKE A","2300503","2018-01-29 07:00","2018","01","29","07:00","-26.1","","-29.1","","77","","","","30","","24","","24.1","","102.35","","","","-39","","Ice Crystals,Blowing Snow"
"-96.08","64.30","BAKER LAKE A","2300503","2018-01-29 08:00","2018","01","29","08:00","-27.0","","-30.1","","76","","","","30","","39","","14.5","","102.23","","","","-43","","Ice Crystals,Blowing Snow"
"-96.08","64.30","BAKER LAKE A","2300503","2018-01-29 09:00","2018","01","29","09:00","-27.7","","-30.8","","75","","","","30","","33","","9.7","","102.24","","","","-43","","Ice Crystals,Blowing Snow"
"-96.08","64.30","BAKER LAKE A","2300503","2018-01-29 10:00","2018","01","29","10:00","-28.4","","-31.6","","75","","","","30","","30","","32.2","","102.27","","","","-44","","Ice Crystals,Blowing Snow"
"-96.08","64.30","BAKER LAKE A","2300503","2018-01-29 11:00","2018","01","29","11:00","-28.1","","-31.2","","75","","","","30","","36","","32.2","","102.29","","","","-44","","Ice Crystals,Blowing Snow"
"-96.08","64.30","BAKER LAKE A","2300503","2018-01-29 12:00","2018","01","29","12:00","-28.0","","-31.2","","75","","","","30","","21","","12.9","","102.33","","","","-41","","Ice Crystals,Blowing Snow"
"-96.08","64.30","BAKER LAKE A","2300503","2018-01-29 13:00","2018","01","29","13:00","-28.3","","-31.5","","75","","","","31","","33","","32.2","","102.33","","","","-44","","Ice Crystals,Blowing Snow"
"-96.08","64.30","BAKER LAKE A","2300503","2018-01-29 14:00","2018","01","29","14:00","-28.6","","-31.8","","74","","","","30","","34","","32.2","","102.36","","","","-45","","Ice Crystals,Blowing Snow"
"-96.08","64.30","BAKER LAKE A","2300503","2018-01-29 15:00","2018","01","29","15:00","-29.4","","-32.6","","74","","","","30","","33","","32.2","","102.37","","","","-45","","Ice Crystals,Blowing Snow"
"-96.08","64.30","BAKER LAKE A","2300503","2018-01-29 16:00","2018","01","29","16:00","-29.7","","-32.9","","74","","","","30","","36","","8.1","","102.35","","","","-46","","Ice Crystals,Blowing Snow"
"-96.08","64.30","BAKER LAKE A","2300503","2018-01-29 17:00","2018","01","29","17:00","-29.9","","-33.2","","74","","","","30","","39","","24.1","","102.35","","","","-47","","Ice Crystals,Blowing Snow"
"-96.08","64.30","BAKER LAKE A","2300503","2018-01-29 18:00","2018","01","29","18:00","-30.7","","-34.1","","73","","","","30","","28","","24.1","","102.35","","","","-46","","Ice Crystals,Blowing Snow"
"-96.08","64.30","BAKER LAKE A","2300503","2018-01-29 19:00","2018","01","29","19:00","-30.9","","-34.2","","73","","","","28","","27","","24.1","","102.35","","","","-46","","Ice Crystals,Blowing Snow"
"-96.08","64.30","BAKER LAKE A","2300503","2018-01-29 20:00","2018","01","29","20:00","-30.9","","-34.3","","73","","","","31","","31","","24.1","","102.28","","","","-47","","Ice Crystals,Blowing Snow"
"-96.08","64.30","BAKER LAKE A","2300503","2018-01-29 21:00","2018","01","29","21:00","-30.8","","-34.1","","73","","","","30","","47","","24.1","","102.17","","","","-50","","Ice Crystals,Blowing Snow"
"-96.08","64.30","BAKER LAKE A","2300503","2018-01-29 22:00","2018","01","29","22:00","-30.5","","-33.8","","73","","","","30","","40","","24.1","","102.18","","","","-48","","Ice Crystals,Blowing Snow"
"-96.08","64.30","BAKER LAKE A","2300503","2018-01-29 23:00","2018","01","29","23:00","-29.7","","-33.0","","74","","","","30","","35","","24.1","","102.15","","","","-46","","Ice Crystals,Blowing Snow"
"-96.08","64.30","BAKER LAKE A","2300503","2018-01-30 00:00","2018","01","30","00:00","-28.8","","-32.1","","74","","","","29","","21","","24.1","","102.18","","","","-42","","Ice Crystals,Blowing Snow"
"-96.08","64.30","BAKER LAKE A","2300503","2018-01-30 01:00","2018","01","30","01:00","-29.6","","-32.8","","74","","","","27","","19","","24.1","","102.19","","","","-42","","Ice Crystals,Blowing Snow"
"-96.08","64.30","BAKER LAKE A","2300503","2018-01-30 02:00","2018","01","30","02:00","-29.2","","-32.5","","74","","","","31","","15","","24.1","","102.14","","","","-40","","Snow,Blowing Snow"
"-96.08","64.30","BAKER LAKE A","2300503","2018-01-30 03:00","2018","01","30","03:00","-28.4","","-31.7","","74","","","","29","","32","","24.1","","102.08","","","","-44","","Snow,Blowing Snow"
"-96.08","64.30","BAKER LAKE A","2300503","2018-01-30 04:00","2018","01","30","04:00","-28.0","","-31.2","","75","","","","17","","8","","24.1","","102.06","","","","-36","","Snow,Blowing Snow"
"-96.08","64.30","BAKER LAKE A","2300503","2018-01-30 05:00","2018","01","30","05:00","-28.4","","-31.6","","74","","","","23","","8","","24.1","","102.04","","","","-36","","Snow,Blowing Snow"
"-96.08","64.30","BAKER LAKE A","2300503","2018-01-30 06:00","2018","01","30","06:00","-28.5","","-31.7","","74","","","","23","","19","","24.1","","102.03","","","","-41","","Snow,Blowing Snow"
"-96.08","64.30","BAKER LAKE A","2300503","2018-01-30 07:00","2018","01","30","07:00","-28.5","","-31.7","","74","","","","22","","20","","24.1","","101.99","","","","-41","","Snow,Blowing Snow"
"-96.08","64.30","BAKER LAKE A","2300503","2018-01-30 08:00","2018","01","30","08:00","-28.2","","-31.5","","74","","","","28","","14","","22.5","","101.95","","","","-39","","Snow,Blowing Snow"
"-96.08","64.30","BAKER LAKE A","2300503","2018-01-30 09:00","2018","01","30","09:00","-28.0","","-31.2","","75","","","","26","","13","","16.1","","101.89","","","","-38","","Snow"
"-96.08","64.30","BAKER LAKE A","2300503","2018-01-30 10:00","2018","01","30","10:00","-28.1","","-31.4","","74","","","","33","","7","","24.1","","101.89","","","","-35","","Snow"
"-96.08","64.30","BAKER LAKE A","2300503","2018-01-30 11:00","2018","01","30","11:00","-28.8","","-32.2","","73","","","","29","","21","","24.1","","101.90","","","","-42","","Snow"
"-96.08","64.30","BAKER LAKE A","2300503","2018-01-30 12:00","2018","01","30","12:00","-28.4","","-31.8","","74","","","","30","","26","","32.2","","101.91","","","","-43","","Cloudy"
"-96.08","64.30","BAKER LAKE A","2300503","2018-01-30 13:00","2018","01","30","13:00","-28.4","","-31.8","","73","","","","30","","26","","8.1","","101.91","","","","-43","","Snow,Blowing Snow"
"-96.08","64.30","BAKER LAKE A","2300503","2018-01-30 14:00","2018","01","30","14:00","-28.7","","-32.2","","73","","","","33","","6","","24.1","","101.95","","","","-35","","Snow"
"-96.08","64.30","BAKER LAKE A","2300503","2018-01-30 15:00","2018","01","30","15:00","-30.2","","-33.7","","72","","","","33","","20","","32.2","","101.94","","","","-43","","Blowing Snow"
"-96.08","64.30","BAKER LAKE A","2300503","2018-01-30 16:00","2018","01","30","16:00","-31.4","","-35.1","","71","","","","31","","21","","32.2","","101.94","","","","-45","","NA"
"-96.08","64.30","BAKER LAKE A","2300503","2018-01-30 17:00","2018","01","30","17:00","-32.1","","-35.7","","71","","","","29","","16","","32.2","","101.97","","","","-44","","NA"
"-96.08","64.30","BAKER LAKE A","2300503","2018-01-30 18:00","2018","01","30","18:00","-32.9","","-36.6","","70","","","","32","","24","","24.1","","102.02","","","","-48","","Ice Crystals"
"-96.08","64.30","BAKER LAKE A","2300503","2018-01-30 19:00","2018","01","30","19:00","-33.0","","-36.7","","70","","","","32","","10","","24.1","","102.05","","","","-43","","Ice Crystals"
"-96.08","64.30","BAKER LAKE A","2300503","2018-01-30 20:00","2018","01","30","20:00","-33.3","","-37.1","","70","","","","27","","8","","24.1","","102.09","","","","-42","","Ice Crystals"
"-96.08","64.30","BAKER LAKE A","2300503","2018-01-30 21:00","2018","01","30","21:00","-34.7","","-38.5","","69","","","","30","","25","","24.1","","102.07","","","","-51","","Ice Crystals"
"-96.08","64.30","BAKER LAKE A","2300503","2018-01-30 22:00","2018","01","30","22:00","-35.0","","-38.8","","69","","","","31","","32","","24.1","","102.11","","","","-53","","Ice Crystals"
"-96.08","64.30","BAKER LAKE A","2300503","2018-01-30 23:00","2018","01","30","23:00","-35.6","","-39.4","","69","","","","30","","36","","24.1","","102.10","","","","-54","","Ice Crystals,Blowing Snow"
"-96.08","64.30","BAKER LAKE A","2300503","2018-01-31 00:00","2018","01","31","00:00","-34.7","","-38.6","","69","","","","24","","7","","24.1","","102.18","","","","-43","","Ice Crystals,Blowing Snow"
"-96.08","64.30","BAKER LAKE A","2300503","2018-01-31 01:00","2018","01","31","01:00","-35.2","","-39.0","","69","","","","32","","25","","24.1","","102.15","","","","-51","","Ice Crystals,Blowing Snow"
"-96.08","64.30","BAKER LAKE A","2300503","2018-01-31 02:00","2018","01","31","02:00","-36.0","","-39.9","","68","","","","31","","27","","24.1","","102.18","","","","-53","","Ice Crystals,Blowing Snow"
"-96.08","64.30","BAKER LAKE A","2300503","2018-01-31 03:00","2018","01","31","03:00","-36.1","","-40.1","","68","","","","29","","16","","24.1","","102.26","","","","-49","","Ice Crystals,Blowing Snow"
"-96.08","64.30","BAKER LAKE A","2300503","2018-01-31 04:00","2018","01","31","04:00","-35.5","","-39.3","","69","","","","32","","26","","12.9","","102.23","","","","-52","","Ice Crystals,Blowing Snow"
"-96.08","64.30","BAKER LAKE A","2300503","2018-01-31 05:00","2018","01","31","05:00","-35.4","","-39.3","","68","","","","31","","30","","24.1","","102.26","","","","-53","","Ice Crystals,Blowing Snow"
"-96.08","64.30","BAKER LAKE A","2300503","2018-01-31 06:00","2018","01","31","06:00","-34.4","","-38.2","","69","","","","32","","24","","24.1","","102.27","","","","-50","","Ice Crystals,Blowing Snow"
"-96.08","64.30","BAKER LAKE A","2300503","2018-01-31 07:00","2018","01","31","07:00","-33.2","","-37.2","","68","","","","31","","16","","24.1","","102.30","","","","-46","","Ice Crystals,Blowing Snow"
"-96.08","64.30","BAKER LAKE A","2300503","2018-01-31 08:00","2018","01","31","08:00","-34.1","","-38.0","","69","","","","31","","27","","24.1","","102.27","","","","-50","","Ice Crystals,Blowing Snow"
"-96.08","64.30","BAKER LAKE A","2300503","2018-01-31 09:00","2018","01","31","09:00","-34.4","","-38.3","","68","","","","31","","26","","24.1","","102.26","","","","-50","","Ice Crystals,Blowing Snow"
"-96.08","64.30","BAKER LAKE A","2300503","2018-01-31 10:00","2018","01","31","10:00","-33.8","","-37.6","","69","","","","31","","36","","16.1","","102.23","","","","-52","","Ice Crystals,Blowing Snow"
"-96.08","64.30","BAKER LAKE A","2300503","2018-01-31 11:00","2018","01","31","11:00","-33.1","","-37.2","","68","","","","33","","23","","32.2","","102.25","","","","-48","","Ice Crystals,Blowing Snow"
"-96.08","64.30","BAKER LAKE A","2300503","2018-01-31 12:00","2018","01","31","12:00","-32.8","","-37.0","","67","","","","34","","21","","32.2","","102.26","","","","-47","","Ice Crystals,Blowing Snow"
"-96.08","64.30","BAKER LAKE A","2300503","2018-01-31 13:00","2018","01","31","13:00","-32.3","","-36.4","","68","","","","31","","23","","32.2","","102.27","","","","-47","","Ice Crystals,Blowing Snow"
"-96.08","64.30","BAKER LAKE A","2300503","2018-01-31 14:00","2018","01","31","14:00","-33.0","","-37.2","","68","","","","33","","22","","32.2","","102.22","","","","-47","","Ice Crystals,Blowing Snow"
"-96.08","64.30","BAKER LAKE A","2300503","2018-01-31 15:00","2018","01","31","15:00","-33.3","","-37.3","","68","","","","34","","30","","16.1","","102.22","","","","-50","","Ice Crystals,Blowing Snow"
"-96.08","64.30","BAKER LAKE A","2300503","2018-01-31 16:00","2018","01","31","16:00","-34.1","","-38.2","","68","","","","31","","17","","32.2","","102.27","","","","-47","","Ice Crystals,Blowing Snow"
"-96.08","64.30","BAKER LAKE A","2300503","2018-01-31 17:00","2018","01","31","17:00","-34.5","","-38.5","","68","","","","30","","16","","32.2","","102.28","","","","-47","","Ice Crystals,Blowing Snow"
"-96.08","64.30","BAKER LAKE A","2300503","2018-01-31 18:00","2018","01","31","18:00","-34.9","","-38.8","","69","","","","31","","29","","24.1","","102.25","","","","-52","","Ice Crystals,Blowing Snow"
"-96.08","64.30","BAKER LAKE A","2300503","2018-01-31 19:00","2018","01","31","19:00","-35.1","","-39.0","","68","","","","32","","27","","24.1","","102.23","","","","-52","","Ice Crystals,Blowing Snow"
"-96.08","64.30","BAKER LAKE A","2300503","2018-01-31 20:00","2018","01","31","20:00","-35.5","","-39.4","","68","","","","32","","33","","24.1","","102.17","","","","-53","","Ice Crystals,Blowing Snow"
"-96.08","64.30","BAKER LAKE A","2300503","2018-01-31 21:00","2018","01","31","21:00","-35.3","","-39.2","","68","","","","32","","34","","16.1","","102.13","","","","-53","","Ice Crystals,Blowing Snow"
"-96.08","64.30","BAKER LAKE A","2300503","2018-01-31 22:00","2018","01","31","22:00","-35.4","","-39.3","","68","","","","32","","35","","16.1","","102.09","","","","-54","","Ice Crystals,Blowing Snow"
"-96.08","64.30","BAKER LAKE A","2300503","2018-01-31 23:00","2018","01","31","23:00","-34.7","","-38.6","","69","","","","33","","34","","16.1","","102.04","","","","-53","","Ice Crystals,Blowing Snow"
