"Longitude (x)","Latitude (y)","Station Name","Climate ID","Date/Time (LST)","Year","Month","Day","Time (LST)","Temp (°C)","Temp Flag","Dew Point Temp (°C)","Dew Point Temp Flag","Rel Hum (%)","Rel Hum Flag","Precip. Amount (mm)","Precip. Amount Flag","Wind Dir (10s deg)","Wind Dir Flag","Wind Spd (km/h)","Wind Spd Flag","Visibility (km)","Visibility Flag","Stn Press (kPa)","Stn Press Flag","Hmdx","Hmdx Flag","Wind Chill","Wind Chill Flag","Weather"
"-96.98","50.63","GIMLI HARBOUR CS","5031041","2019-01-01 00:00","2019","01","01","00:00","-25.6","","-29.0","","74","","","M","28","","11","","","","100.43","","","","-34","","NA"
"-96.98","50.63","GIMLI HARBOUR CS","5031041","2019-01-01 01:00","2019","01","01","01:00","-25.7","","-29.4","","71","","","M","26","","12","","","","100.44","","","","-35","","NA"
"-96.98","50.63","GIMLI HARBOUR CS","5031041","2019-01-01 02:00","2019","01","01","02:00","-25.8","","-29.3","","72","","","M","26","","12","","","","100.42","","","","-35","","NA"
"-96.98","50.63","GIMLI HARBOUR CS","5031041","2019-01-01 03:00","2019","01","01","03:00","-26.0","","-29.5","","72","","","M","26","","14","","","","100.43","","","","-36","","NA"
"-96.98","50.63","GIMLI HARBOUR CS","5031041","2019-01-01 04:00","2019","01","01","04:00","-26.6","","-30.1","","72","","","M","26","","14","","","","100.38","","","","-37","","NA"
"-96.98","50.63","GIMLI HARBOUR CS","5031041","2019-01-01 05:00","2019","01","01","05:00","-26.3","","-29.9","","72","","","M","27","","15","","","","100.31","","","","-37","","NA"
"-96.98","50.63","GIMLI HARBOUR CS","5031041","2019-01-01 06:00","2019","01","01","06:00","-26.9","","-30.5","","72","","","M","25","","11","","","","100.31","","","","-36","","NA"
"-96.98","50.63","GIMLI HARBOUR CS","5031041","2019-01-01 07:00","2019","01","01","07:00","-27.4","","-30.9","","73","","","M","21","","3","","","","100.29","","","","-31","","NA"
"-96.98","50.63","GIMLI HARBOUR CS","5031041","2019-01-01 08:00","2019","01","01","08:00","-28.2","","-31.7","","72","","","M","17","","8","","","","100.23","","","","-36","","NA"
"-96.98","50.63","GIMLI HARBOUR CS","5031041","2019-01-01 09:00","2019","01","01","09:00","-27.5","","-31.2","","71","","","M","18","","11","","","","100.13","","","","-37","","NA"
"-96.98","50.63","GIMLI HARBOUR CS","5031041","2019-01-01 10:00","2019","01","01","10:00","-26.1","","-30.6","","66","","","M","20","","19","","","","100.03","","","","-38","","NA"
"-96.98","50.63","GIMLI HARBOUR CS","5031041","2019-01-01 11:00","2019","01","01","11:00","-24.6","","-29.6","","63","","","M","21","","23","","","","99.87","","","","-37","","NA"
"-96.98","50.63","GIMLI HARBOUR CS","5031041","2019-01-01 12:00","2019","01","01","12:00","-23.2","","-28.5","","62","","","M","21","","22","","","","99.75","","","","-35","","NA"
"-96.98","50.63","GIMLI HARBOUR CS","5031041","2019-01-01 13:00","2019","01","01","13:00","-21.4","","-27.1","","60","","","M","20","","23","","","","99.60","","","","-33","","NA"
"-96.98","50.63","GIMLI HARBOUR CS","5031041","2019-01-01 14:00","2019","01","01","14:00","-20.6","","-26.5","","59","","","M","20","","24","","","","99.49","","","","-32","","NA"
"-96.98","50.63","GIMLI HARBOUR CS","5031041","2019-01-01 15:00","2019","01","01","15:00","-19.5","","-26.1","","56","","","M","20","","27","","","","99.40","","","","-31","","NA"
"-96.98","50.63","GIMLI HARBOUR CS","5031041","2019-01-01 16:00","2019","01","01","16:00","-19.2","","-25.3","","59","","","M","19","","30","","","","99.27","","","","-32","","NA"
"-96.98","50.63","GIMLI HARBOUR CS","5031041","2019-01-01 17:00","2019","01","01","17:00","-19.4","","-24.8","","62","","","M","18","","28","","","","99.07","","","","-31","","NA"
"-96.98","50.63","GIMLI HARBOUR CS","5031041","2019-01-01 18:00","2019","01","01","18:00","-19.8","","-24.7","","65","","","M","18","","29","","","","98.91","","","","-32","","NA"
"-96.98","50.63","GIMLI HARBOUR CS","5031041","2019-01-01 19:00","2019","01","01","19:00","-19.1","","-23.7","","67","","","M","18","","31","","","","98.73","","","","-32","","NA"
"-96.98","50.63","GIMLI HARBOUR CS","5031041","2019-01-01 20:00","2019","01","01","20:00","-17.9","","-22.8","","65","","","M","18","","32","","","","98.58","","","","-30","","NA"
"-96.98","50.63","GIMLI HARBOUR CS","5031041","2019-01-01 21:00","2019","01","01","21:00","-17.2","","-21.8","","67","","","M","18","","25","","","","98.44","","","","-28","","NA"
"-96.98","50.63","GIMLI HARBOUR CS","5031041","2019-01-01 22:00","2019","01","01","22:00","-17.2","","-21.7","","68","","","M","18","","27","","","","98.27","","","","-28","","NA"
"-96.98","50.63","GIMLI HARBOUR CS","5031041","2019-01-01 23:00","2019","01","01","23:00","-17.2","","-21.5","","69","","","M","18","","30","","","","98.11","","","","-29","","NA"
"-96.98","50.63","GIMLI HARBOUR CS","5031041","2019-01-02 00:00","2019","01","02","00:00","-16.8","","-21.1","","69","","","M","18","","33","","","","97.96","","","","-29","","NA"
"-96.98","50.63","GIMLI HARBOUR CS","5031041","2019-01-02 01:00","2019","01","02","01:00","-16.7","","-20.9","","70","","","M","18","","32","","","","97.84","","","","-29","","NA"
"-96.98","50.63","GIMLI HARBOUR CS","5031041","2019-01-02 02:00","2019","01","02","02:00","-16.4","","-20.1","","74","","","M","18","","33","","","","97.78","","","","-28","","NA"
"-96.98","50.63","GIMLI HARBOUR CS","5031041","2019-01-02 03:00","2019","01","02","03:00","-16.3","","-19.6","","76","","","M","18","","29","","","","97.74","","","","-28","","NA"
"-96.98","50.63","GIMLI HARBOUR CS","5031041","2019-01-02 04:00","2019","01","02","04:00","-15.9","","-18.9","","78","","","M","19","","20","","","","97.72","","","","-25","","NA"
"-96.98","50.63","GIMLI HARBOUR CS","5031041","2019-01-02 05:00","2019","01","02","05:00","-15.9","","-18.8","","78","","","M","18","","19","","","","97.69","","","","-25","","NA"
"-96.98","50.63","GIMLI HARBOUR CS","5031041","2019-01-02 06:00","2019","01","02","06:00","-17.6","","-20.2","","80","","","M","18","","13","","","","97.63","","","","-25","","NA"
"-96.98","50.63","GIMLI HARBOUR CS","5031041","2019-01-02 07:00","2019","01","02","07:00","-18.5","","-20.9","","81","","","M","19","","7","","","","97.74","","","","-24","","NA"
"-96.98","50.63","GIMLI HARBOUR CS","5031041","2019-01-02 08:00","2019","01","02","08:00","-18.0","","-20.2","","83","","","M","17","","7","","","","97.71","","","","-23","","NA"
"-96.98","50.63","GIMLI HARBOUR CS","5031041","2019-01-02 09:00","2019","01","02","09:00","-17.9","","-20.4","","81","","","M","19","","13","","","","97.78","","","","-26","","NA"
"-96.98","50.63","GIMLI HARBOUR CS","5031041","2019-01-02 10:00","2019","01","02","10:00","-17.0","","-19.7","","80","","","M","20","","13","","","","97.76","","","","-25","","NA"
"-96.98","50.63","GIMLI HARBOUR CS","5031041","2019-01-02 11:00","2019","01","02","11:00","-16.2","","-19.0","","79","","","M","21","","16","","","","97.77","","","","-25","","NA"
"-96.98","50.63","GIMLI HARBOUR CS","5031041","2019-01-02 12:00","2019","01","02","12:00","-15.9","","-18.8","","78","","","M","21","","12","","","","97.74","","","","-23","","NA"
"-96.98","50.63","GIMLI HARBOUR CS","5031041","2019-01-02 13:00","2019","01","02","13:00","-14.6","","-17.9","","76","","","M","22","","8","","","","97.78","","","","-20","","NA"
"-96.98","50.63","GIMLI HARBOUR CS","5031041","2019-01-02 14:00","2019","01","02","14:00","-14.3","","-17.5","","76","","","M","21","","9","","","","97.69","","","","-20","","NA"
"-96.98","50.63","GIMLI HARBOUR CS","5031041","2019-01-02 15:00","2019","01","02","15:00","-13.8","","-16.7","","79","","","M","20","","11","","","","97.68","","","","-20","","NA"
"-96.98","50.63","GIMLI HARBOUR CS","5031041","2019-01-02 16:00","2019","01","02","16:00","-13.6","","-16.1","","82","","","M","19","","15","","","","97.70","","","","-21","","NA"
"-96.98","50.63","GIMLI HARBOUR CS","5031041","2019-01-02 17:00","2019","01","02","17:00","-12.5","","-14.8","","83","","","M","19","","17","","","","97.65","","","","-20","","NA"
"-96.98","50.63","GIMLI HARBOUR CS","5031041","2019-01-02 18:00","2019","01","02","18:00","-11.6","","-13.9","","83","","","M","20","","18","","","","97.60","","","","-19","","NA"
"-96.98","50.63","GIMLI HARBOUR CS","5031041","2019-01-02 19:00","2019","01","02","19:00","-11.0","","-13.1","","84","","","M","20","","19","","","","97.54","","","","-19","","NA"
"-96.98","50.63","GIMLI HARBOUR CS","5031041","2019-01-02 20:00","2019","01","02","20:00","-10.4","","-12.7","","83","","","M","20","","24","","","","97.43","","","","-19","","NA"
"-96.98","50.63","GIMLI HARBOUR CS","5031041","2019-01-02 21:00","2019","01","02","21:00","-10.0","","-12.2","","84","","","M","20","","27","","","","97.30","","","","-19","","NA"
"-96.98","50.63","GIMLI HARBOUR CS","5031041","2019-01-02 22:00","2019","01","02","22:00","-11.2","","-13.3","","85","","","M","20","","21","","","","97.26","","","","-20","","NA"
"-96.98","50.63","GIMLI HARBOUR CS","5031041","2019-01-02 23:00","2019","01","02","23:00","-9.3","","-11.6","","83","","","M","19","","24","","","","97.09","","","","-18","","NA"
"-96.98","50.63","GIMLI HARBOUR CS","5031041","2019-01-03 00:00","2019","01","03","00:00","-8.1","","-10.7","","81","","","M","21","","24","","","","97.00","","","","-16","","NA"
"-96.98","50.63","GIMLI HARBOUR CS","5031041","2019-01-03 01:00","2019","01","03","01:00","-9.1","","-11.5","","82","","","M","21","","25","","","","96.89","","","","-18","","NA"
"-96.98","50.63","GIMLI HARBOUR CS","5031041","2019-01-03 02:00","2019","01","03","02:00","-9.0","","-11.4","","83","","","M","21","","22","","","","96.89","","","","-17","","NA"
"-96.98","50.63","GIMLI HARBOUR CS","5031041","2019-01-03 03:00","2019","01","03","03:00","-7.9","","-10.3","","83","","","M","21","","14","","","","96.93","","","","-14","","NA"
"-96.98","50.63","GIMLI HARBOUR CS","5031041","2019-01-03 04:00","2019","01","03","04:00","-8.0","","-10.0","","85","","","M","22","","18","","","","96.87","","","","-15","","NA"
"-96.98","50.63","GIMLI HARBOUR CS","5031041","2019-01-03 05:00","2019","01","03","05:00","-8.7","","-10.6","","86","","","M","20","","7","","","","96.83","","","","-13","","NA"
"-96.98","50.63","GIMLI HARBOUR CS","5031041","2019-01-03 06:00","2019","01","03","06:00","-9.1","","-11.0","","86","","","M","24","","7","","","","96.93","","","","-13","","NA"
"-96.98","50.63","GIMLI HARBOUR CS","5031041","2019-01-03 07:00","2019","01","03","07:00","-7.8","","-9.7","","87","","","M","20","","7","","","","96.91","","","","-11","","NA"
"-96.98","50.63","GIMLI HARBOUR CS","5031041","2019-01-03 08:00","2019","01","03","08:00","-7.4","","-9.7","","84","","","M","26","","8","","","","96.94","","","","-11","","NA"
"-96.98","50.63","GIMLI HARBOUR CS","5031041","2019-01-03 09:00","2019","01","03","09:00","-6.8","","-9.3","","83","","","M","25","","8","","","","96.95","","","","-11","","NA"
"-96.98","50.63","GIMLI HARBOUR CS","5031041","2019-01-03 10:00","2019","01","03","10:00","-4.8","","-7.6","","81","","","M","26","","12","","","","96.97","","","","-10","","NA"
"-96.98","50.63","GIMLI HARBOUR CS","5031041","2019-01-03 11:00","2019","01","03","11:00","-8.6","","-11.4","","80","","","M","26","","10","","","","97.02","","","","-14","","NA"
"-96.98","50.63","GIMLI HARBOUR CS","5031041","2019-01-03 12:00","2019","01","03","12:00","-8.3","","-11.5","","78","","","M","25","","9","","","","97.02","","","","-13","","NA"
"-96.98","50.63","GIMLI HARBOUR CS","5031041","2019-01-03 13:00","2019","01","03","13:00","-8.2","","-12.1","","74","","","M","24","","11","","","","96.96","","","","-13","","NA"
"-96.98","50.63","GIMLI HARBOUR CS","5031041","2019-01-03 14:00","2019","01","03","14:00","-7.6","","-12.2","","70","","","M","23","","10","","","","96.94","","","","-12","","NA"
"-96.98","50.63","GIMLI HARBOUR CS","5031041","2019-01-03 15:00","2019","01","03","15:00","-8.2","","-11.9","","75","","","M","20","","15","","","","96.90","","","","-15","","NA"
"-96.98","50.63","GIMLI HARBOUR CS","5031041","2019-01-03 16:00","2019","01","03","16:00","-8.4","","-12.3","","74","","","M","24","","10","","","","97.00","","","","-13","","NA"
"-96.98","50.63","GIMLI HARBOUR CS","5031041","2019-01-03 17:00","2019","01","03","17:00","-8.4","","-11.7","","77","","","M","23","","12","","","","97.00","","","","-14","","NA"
"-96.98","50.63","GIMLI HARBOUR CS","5031041","2019-01-03 18:00","2019","01","03","18:00","-8.7","","-11.7","","79","","","M","24","","16","","","","97.00","","","","-15","","NA"
"-96.98","50.63","GIMLI HARBOUR CS","5031041","2019-01-03 19:00","2019","01","03","19:00","-9.2","","-12.3","","78","","","M","25","","14","","","","97.08","","","","-16","","NA"
"-96.98","50.63","GIMLI HARBOUR CS","5031041","2019-01-03 20:00","2019","01","03","20:00","-9.3","","-12.2","","79","","","M","25","","11","","","","97.13","","","","-15","","NA"
"-96.98","50.63","GIMLI HARBOUR CS","5031041","2019-01-03 21:00","2019","01","03","21:00","-10.3","","-12.6","","83","","","M","25","","8","","","","97.20","","","","-15","","NA"
"-96.98","50.63","GIMLI HARBOUR CS","5031041","2019-01-03 22:00","2019","01","03","22:00","-10.9","","-12.9","","85","","","M","25","","8","","","","97.29","","","","-16","","NA"
"-96.98","50.63","GIMLI HARBOUR CS","5031041","2019-01-03 23:00","2019","01","03","23:00","-11.3","","-12.9","","88","","","M","25","","9","","","","97.31","","","","-16","","NA"
"-96.98","50.63","GIMLI HARBOUR CS","5031041","2019-01-04 00:00","2019","01","04","00:00","-11.8","","-13.2","","90","","","M","25","","11","","","","97.33","","","","-18","","NA"
"-96.98","50.63","GIMLI HARBOUR CS","5031041","2019-01-04 01:00","2019","01","04","01:00","-12.0","","-13.4","","89","","","M","25","","12","","","","97.37","","","","-18","","NA"
"-96.98","50.63","GIMLI HARBOUR CS","5031041","2019-01-04 02:00","2019","01","04","02:00","-12.1","","-13.7","","88","","","M","26","","11","","","","97.39","","","","-18","","NA"
"-96.98","50.63","GIMLI HARBOUR CS","5031041","2019-01-04 03:00","2019","01","04","03:00","-12.2","","-13.8","","88","","","M","25","","10","","","","97.49","","","","-18","","NA"
"-96.98","50.63","GIMLI HARBOUR CS","5031041","2019-01-04 04:00","2019","01","04","04:00","-11.8","","-13.9","","84","","","M","26","","14","","","","97.49","","","","-19","","NA"
"-96.98","50.63","GIMLI HARBOUR CS","5031041","2019-01-04 05:00","2019","01","04","05:00","-11.6","","-13.7","","84","","","M","28","","10","","","","97.51","","","","-17","","NA"
"-96.98","50.63","GIMLI HARBOUR CS","5031041","2019-01-04 06:00","2019","01","04","06:00","-11.7","","-14.2","","82","","","M","26","","11","","","","97.44","","","","-18","","NA"
"-96.98","50.63","GIMLI HARBOUR CS","5031041","2019-01-04 07:00","2019","01","04","07:00","-11.8","","-14.4","","81","","","M","27","","10","","","","97.46","","","","-17","","NA"
"-96.98","50.63","GIMLI HARBOUR CS","5031041","2019-01-04 08:00","2019","01","04","08:00","-11.9","","-14.5","","81","","","M","20","","8","","","","97.51","","","","-17","","NA"
"-96.98","50.63","GIMLI HARBOUR CS","5031041","2019-01-04 09:00","2019","01","04","09:00","-11.8","","-14.5","","80","","","M","22","","9","","","","97.55","","","","-17","","NA"
"-96.98","50.63","GIMLI HARBOUR CS","5031041","2019-01-04 10:00","2019","01","04","10:00","-11.7","","-14.8","","78","","","M","25","","8","","","","97.57","","","","-16","","NA"
"-96.98","50.63","GIMLI HARBOUR CS","5031041","2019-01-04 11:00","2019","01","04","11:00","-11.2","","-15.0","","74","","","M","26","","9","","","","97.62","","","","-16","","NA"
"-96.98","50.63","GIMLI HARBOUR CS","5031041","2019-01-04 12:00","2019","01","04","12:00","-10.4","","-15.4","","67","","","M","26","","5","","","","97.53","","","","-13","","NA"
"-96.98","50.63","GIMLI HARBOUR CS","5031041","2019-01-04 13:00","2019","01","04","13:00","-9.5","","-16.3","","58","","","M","24","","3","","","","97.52","","","","-11","","NA"
"-96.98","50.63","GIMLI HARBOUR CS","5031041","2019-01-04 14:00","2019","01","04","14:00","-10.4","","-15.5","","66","","","M","8","","3","","","","97.55","","","","-12","","NA"
"-96.98","50.63","GIMLI HARBOUR CS","5031041","2019-01-04 15:00","2019","01","04","15:00","-11.0","","-14.9","","73","","","M","9","","4","","","","97.58","","","","-13","","NA"
"-96.98","50.63","GIMLI HARBOUR CS","5031041","2019-01-04 16:00","2019","01","04","16:00","-12.7","","-14.9","","83","","","M","0","","1","","","","97.66","","","","-13","","NA"
"-96.98","50.63","GIMLI HARBOUR CS","5031041","2019-01-04 17:00","2019","01","04","17:00","-13.0","","-14.8","","86","","","M","3","","4","","","","97.62","","","","-16","","NA"
"-96.98","50.63","GIMLI HARBOUR CS","5031041","2019-01-04 18:00","2019","01","04","18:00","-13.0","","-15.0","","85","","","M","","","0","","","","97.59","","","","","","NA"
"-96.98","50.63","GIMLI HARBOUR CS","5031041","2019-01-04 19:00","2019","01","04","19:00","-12.7","","-15.2","","81","","","M","19","","5","","","","97.57","","","","-16","","NA"
"-96.98","50.63","GIMLI HARBOUR CS","5031041","2019-01-04 20:00","2019","01","04","20:00","-12.9","","-14.9","","85","","","M","1","","6","","","","97.63","","","","-17","","NA"
"-96.98","50.63","GIMLI HARBOUR CS","5031041","2019-01-04 21:00","2019","01","04","21:00","-12.9","","-14.8","","85","","","M","4","","13","","","","97.57","","","","-20","","NA"
"-96.98","50.63","GIMLI HARBOUR CS","5031041","2019-01-04 22:00","2019","01","04","22:00","-12.7","","-15.5","","79","","","M","1","","13","","","","97.66","","","","-20","","NA"
"-96.98","50.63","GIMLI HARBOUR CS","5031041","2019-01-04 23:00","2019","01","04","23:00","-13.2","","-14.7","","89","","","M","2","","21","","","","97.65","","","","-22","","NA"
"-96.98","50.63","GIMLI HARBOUR CS","5031041","2019-01-05 00:00","2019","01","05","00:00","-13.4","","-14.2","","93","","","M","2","","19","","","","97.64","","","","-22","","NA"
"-96.98","50.63","GIMLI HARBOUR CS","5031041","2019-01-05 01:00","2019","01","05","01:00","-13.4","","-14.4","","92","","","M","1","","24","","","","97.67","","","","-23","","NA"
"-96.98","50.63","GIMLI HARBOUR CS","5031041","2019-01-05 02:00","2019","01","05","02:00","-14.0","","-15.1","","91","","","M","2","","30","","","","97.74","","","","-25","","NA"
"-96.98","50.63","GIMLI HARBOUR CS","5031041","2019-01-05 03:00","2019","01","05","03:00","-14.8","","-15.9","","92","","","M","36","","16","","","","97.88","","","","-23","","NA"
"-96.98","50.63","GIMLI HARBOUR CS","5031041","2019-01-05 04:00","2019","01","05","04:00","-15.0","","-16.2","","90","","","M","36","","17","","","","97.97","","","","-23","","NA"
"-96.98","50.63","GIMLI HARBOUR CS","5031041","2019-01-05 05:00","2019","01","05","05:00","-15.1","","-17.1","","85","","","M","35","","17","","","","98.10","","","","-24","","NA"
"-96.98","50.63","GIMLI HARBOUR CS","5031041","2019-01-05 06:00","2019","01","05","06:00","-15.0","","-17.2","","83","","","M","34","","14","","","","98.25","","","","-23","","NA"
"-96.98","50.63","GIMLI HARBOUR CS","5031041","2019-01-05 07:00","2019","01","05","07:00","-15.1","","-17.3","","83","","","M","33","","15","","","","98.41","","","","-23","","NA"
"-96.98","50.63","GIMLI HARBOUR CS","5031041","2019-01-05 08:00","2019","01","05","08:00","-15.1","","-17.7","","81","","","M","34","","23","","","","98.54","","","","-25","","NA"
"-96.98","50.63","GIMLI HARBOUR CS","5031041","2019-01-05 09:00","2019","01","05","09:00","-15.3","","-17.8","","81","","","M","34","","16","","","","98.68","","","","-24","","NA"
"-96.98","50.63","GIMLI HARBOUR CS","5031041","2019-01-05 10:00","2019","01","05","10:00","-15.0","","-18.0","","78","","","M","34","","18","","","","98.78","","","","-24","","NA"
"-96.98","50.63","GIMLI HARBOUR CS","5031041","2019-01-05 11:00","2019","01","05","11:00","-15.2","","-18.0","","79","","","M","33","","19","","","","98.92","","","","-24","","NA"
"-96.98","50.63","GIMLI HARBOUR CS","5031041","2019-01-05 12:00","2019","01","05","12:00","-15.9","","-19.6","","73","","","M","34","","19","","","","99.02","","","","-25","","NA"
"-96.98","50.63","GIMLI HARBOUR CS","5031041","2019-01-05 13:00","2019","01","05","13:00","-16.0","","-20.1","","71","","","M","34","","21","","","","99.10","","","","-26","","NA"
"-96.98","50.63","GIMLI HARBOUR CS","5031041","2019-01-05 14:00","2019","01","05","14:00","-15.9","","-20.5","","68","","","M","34","","19","","","","99.19","","","","-25","","NA"
"-96.98","50.63","GIMLI HARBOUR CS","5031041","2019-01-05 15:00","2019","01","05","15:00","-15.8","","-20.6","","67","","","M","35","","13","","","","99.27","","","","-23","","NA"
"-96.98","50.63","GIMLI HARBOUR CS","5031041","2019-01-05 16:00","2019","01","05","16:00","-16.6","","-20.2","","74","","","M","1","","14","","","","99.35","","","","-25","","NA"
"-96.98","50.63","GIMLI HARBOUR CS","5031041","2019-01-05 17:00","2019","01","05","17:00","-16.7","","-19.8","","77","","","M","2","","17","","","","99.42","","","","-26","","NA"
"-96.98","50.63","GIMLI HARBOUR CS","5031041","2019-01-05 18:00","2019","01","05","18:00","-16.7","","-20.0","","76","","","M","1","","11","","","","99.49","","","","-24","","NA"
"-96.98","50.63","GIMLI HARBOUR CS","5031041","2019-01-05 19:00","2019","01","05","19:00","-16.7","","-19.4","","80","","","M","5","","7","","","","99.54","","","","-22","","NA"
"-96.98","50.63","GIMLI HARBOUR CS","5031041","2019-01-05 20:00","2019","01","05","20:00","-17.3","","-20.1","","79","","","M","7","","14","","","","99.62","","","","-25","","NA"
"-96.98","50.63","GIMLI HARBOUR CS","5031041","2019-01-05 21:00","2019","01","05","21:00","-17.2","","-20.0","","79","","","M","7","","7","","","","99.68","","","","-22","","NA"
"-96.98","50.63","GIMLI HARBOUR CS","5031041","2019-01-05 22:00","2019","01","05","22:00","-18.4","","-21.0","","80","","","M","2","","18","","","","99.70","","","","-28","","NA"
"-96.98","50.63","GIMLI HARBOUR CS","5031041","2019-01-05 23:00","2019","01","05","23:00","-18.4","","-20.7","","82","","","M","4","","14","","","","99.70","","","","-27","","NA"
"-96.98","50.63","GIMLI HARBOUR CS","5031041","2019-01-06 00:00","2019","01","06","00:00","-18.7","","-21.1","","81","","","M","5","","16","","","","99.71","","","","-28","","NA"
"-96.98","50.63","GIMLI HARBOUR CS","5031041","2019-01-06 01:00","2019","01","06","01:00","-18.8","","-21.4","","80","","","M","7","","16","","","","99.71","","","","-28","","NA"
"-96.98","50.63","GIMLI HARBOUR CS","5031041","2019-01-06 02:00","2019","01","06","02:00","-19.0","","-21.4","","81","","","M","7","","14","","","","99.70","","","","-28","","NA"
"-96.98","50.63","GIMLI HARBOUR CS","5031041","2019-01-06 03:00","2019","01","06","03:00","-19.0","","-21.4","","82","","","M","8","","10","","","","99.73","","","","-26","","NA"
"-96.98","50.63","GIMLI HARBOUR CS","5031041","2019-01-06 04:00","2019","01","06","04:00","-18.6","","-20.7","","84","","","M","11","","14","","","","99.62","","","","-27","","NA"
"-96.98","50.63","GIMLI HARBOUR CS","5031041","2019-01-06 05:00","2019","01","06","05:00","-18.3","","-21.3","","77","","","M","15","","20","","","","99.57","","","","-28","","NA"
"-96.98","50.63","GIMLI HARBOUR CS","5031041","2019-01-06 06:00","2019","01","06","06:00","-18.6","","-21.5","","77","","","M","14","","23","","","","99.54","","","","-29","","NA"
"-96.98","50.63","GIMLI HARBOUR CS","5031041","2019-01-06 07:00","2019","01","06","07:00","-19.0","","-21.6","","80","","","M","13","","25","","","","99.44","","","","-30","","NA"
"-96.98","50.63","GIMLI HARBOUR CS","5031041","2019-01-06 08:00","2019","01","06","08:00","-19.4","","-21.4","","85","","","M","13","","27","","","","99.33","","","","-31","","NA"
"-96.98","50.63","GIMLI HARBOUR CS","5031041","2019-01-06 09:00","2019","01","06","09:00","-18.8","","-20.8","","84","","","M","14","","23","","","","99.35","","","","-30","","NA"
"-96.98","50.63","GIMLI HARBOUR CS","5031041","2019-01-06 10:00","2019","01","06","10:00","-18.4","","-20.6","","82","","","M","15","","25","","","","99.29","","","","-30","","NA"
"-96.98","50.63","GIMLI HARBOUR CS","5031041","2019-01-06 11:00","2019","01","06","11:00","-17.8","","-19.7","","85","","","M","15","","23","","","","99.14","","","","-28","","NA"
"-96.98","50.63","GIMLI HARBOUR CS","5031041","2019-01-06 12:00","2019","01","06","12:00","-17.1","","-19.4","","82","","","M","14","","24","","","","99.02","","","","-28","","NA"
"-96.98","50.63","GIMLI HARBOUR CS","5031041","2019-01-06 13:00","2019","01","06","13:00","-16.5","","-18.9","","82","","","M","14","","23","","","","98.81","","","","-27","","NA"
"-96.98","50.63","GIMLI HARBOUR CS","5031041","2019-01-06 14:00","2019","01","06","14:00","-16.1","","-18.9","","79","","","M","13","","24","","","","98.70","","","","-26","","NA"
"-96.98","50.63","GIMLI HARBOUR CS","5031041","2019-01-06 15:00","2019","01","06","15:00","-15.9","","-19.4","","75","","","M","13","","27","","","","98.58","","","","-27","","NA"
"-96.98","50.63","GIMLI HARBOUR CS","5031041","2019-01-06 16:00","2019","01","06","16:00","-15.8","","-19.1","","76","","","M","13","","30","","","","98.43","","","","-27","","NA"
"-96.98","50.63","GIMLI HARBOUR CS","5031041","2019-01-06 17:00","2019","01","06","17:00","-15.8","","-18.8","","78","","","M","14","","31","","","","98.33","","","","-27","","NA"
"-96.98","50.63","GIMLI HARBOUR CS","5031041","2019-01-06 18:00","2019","01","06","18:00","-15.6","","-18.3","","80","","","M","13","","24","","","","98.22","","","","-26","","NA"
"-96.98","50.63","GIMLI HARBOUR CS","5031041","2019-01-06 19:00","2019","01","06","19:00","-15.4","","-17.9","","81","","","M","14","","22","","","","98.11","","","","-25","","NA"
"-96.98","50.63","GIMLI HARBOUR CS","5031041","2019-01-06 20:00","2019","01","06","20:00","-14.9","","-16.5","","88","","","M","14","","41","","","","97.92","","","","-27","","NA"
"-96.98","50.63","GIMLI HARBOUR CS","5031041","2019-01-06 21:00","2019","01","06","21:00","-14.5","","-15.8","","90","","","M","15","","41","","","","97.77","","","","-27","","NA"
"-96.98","50.63","GIMLI HARBOUR CS","5031041","2019-01-06 22:00","2019","01","06","22:00","-14.3","","-15.4","","91","","","M","15","","43","","","","97.60","","","","-27","","NA"
"-96.98","50.63","GIMLI HARBOUR CS","5031041","2019-01-06 23:00","2019","01","06","23:00","-14.0","","-15.1","","92","","","M","15","","36","","","","97.51","","","","-26","","NA"
"-96.98","50.63","GIMLI HARBOUR CS","5031041","2019-01-07 00:00","2019","01","07","00:00","-13.7","","-14.8","","92","","","M","15","","34","","","","97.38","","","","-25","","NA"
"-96.98","50.63","GIMLI HARBOUR CS","5031041","2019-01-07 01:00","2019","01","07","01:00","-13.5","","-14.3","","93","","","M","16","","27","","","","97.30","","","","-24","","NA"
"-96.98","50.63","GIMLI HARBOUR CS","5031041","2019-01-07 02:00","2019","01","07","02:00","-13.3","","-14.2","","93","","","M","15","","28","","","","97.21","","","","-24","","NA"
"-96.98","50.63","GIMLI HARBOUR CS","5031041","2019-01-07 03:00","2019","01","07","03:00","-13.3","","-14.2","","93","","","M","15","","27","","","","97.12","","","","-23","","NA"
"-96.98","50.63","GIMLI HARBOUR CS","5031041","2019-01-07 04:00","2019","01","07","04:00","-13.3","","-14.1","","94","","","M","16","","21","","","","97.00","","","","-22","","NA"
"-96.98","50.63","GIMLI HARBOUR CS","5031041","2019-01-07 05:00","2019","01","07","05:00","-13.1","","-13.9","","94","","","M","16","","22","","","","96.90","","","","-22","","NA"
"-96.98","50.63","GIMLI HARBOUR CS","5031041","2019-01-07 06:00","2019","01","07","06:00","-13.1","","-13.9","","94","","","M","17","","23","","","","96.82","","","","-22","","NA"
"-96.98","50.63","GIMLI HARBOUR CS","5031041","2019-01-07 07:00","2019","01","07","07:00","-13.0","","-13.7","","95","","","M","17","","22","","","","96.71","","","","-22","","NA"
"-96.98","50.63","GIMLI HARBOUR CS","5031041","2019-01-07 08:00","2019","01","07","08:00","-12.8","","-13.3","","96","","","M","17","","21","","","","96.65","","","","-22","","NA"
"-96.98","50.63","GIMLI HARBOUR CS","5031041","2019-01-07 09:00","2019","01","07","09:00","-12.1","","-12.7","","95","","","M","19","","22","","","","96.63","","","","-21","","NA"
"-96.98","50.63","GIMLI HARBOUR CS","5031041","2019-01-07 10:00","2019","01","07","10:00","-11.8","","-12.6","","94","","","M","20","","17","","","","96.58","","","","-19","","NA"
"-96.98","50.63","GIMLI HARBOUR CS","5031041","2019-01-07 11:00","2019","01","07","11:00","-11.4","","-12.8","","89","","","M","22","","18","","","","96.52","","","","-19","","NA"
"-96.98","50.63","GIMLI HARBOUR CS","5031041","2019-01-07 12:00","2019","01","07","12:00","-10.9","","-14.0","","78","","","M","23","","15","","","","96.40","","","","-18","","NA"
"-96.98","50.63","GIMLI HARBOUR CS","5031041","2019-01-07 13:00","2019","01","07","13:00","-10.0","","-16.5","","59","","","M","24","","18","","","","96.36","","","","-17","","NA"
"-96.98","50.63","GIMLI HARBOUR CS","5031041","2019-01-07 14:00","2019","01","07","14:00","-10.6","","-16.8","","60","","","M","25","","19","","","","96.38","","","","-18","","NA"
"-96.98","50.63","GIMLI HARBOUR CS","5031041","2019-01-07 15:00","2019","01","07","15:00","-10.9","","-16.1","","66","","","M","25","","17","","","","96.45","","","","-18","","NA"
"-96.98","50.63","GIMLI HARBOUR CS","5031041","2019-01-07 16:00","2019","01","07","16:00","","M","","M","70","","","M","25","","15","","","","96.50","","","","","","NA"
"-96.98","50.63","GIMLI HARBOUR CS","5031041","2019-01-07 17:00","2019","01","07","17:00","","M","","M","73","","","M","24","","20","","","","96.54","","","","","","NA"
"-96.98","50.63","GIMLI HARBOUR CS","5031041","2019-01-07 18:00","2019","01","07","18:00","","M","","M","76","","","M","28","","21","","","","96.62","","","","","","NA"
"-96.98","50.63","GIMLI HARBOUR CS","5031041","2019-01-07 19:00","2019","01","07","19:00","","M","","M","79","","","M","27","","21","","","","96.71","","","","","","NA"
"-96.98","50.63","GIMLI HARBOUR CS","5031041","2019-01-07 20:00","2019","01","07","20:00","","M","","M","77","","","M","27","","24","","","","96.78","","","","","","NA"
"-96.98","50.63","GIMLI HARBOUR CS","5031041","2019-01-07 21:00","2019","01","07","21:00","","M","","M","83","","","M","27","","23","","","","96.88","","","","","","NA"
"-96.98","50.63","GIMLI HARBOUR CS","5031041","2019-01-07 22:00","2019","01","07","22:00","","M","","M","83","","","M","27","","21","","","","97.00","","","","","","NA"
"-96.98","50.63","GIMLI HARBOUR CS","5031041","2019-01-07 23:00","2019","01","07","23:00","","M","","M","82","","","M","28","","20","","","","97.11","","","","","","NA"
"-96.98","50.63","GIMLI HARBOUR CS","5031041","2019-01-08 00:00","2019","01","08","00:00","","M","","M","80","","","M","27","","20","","","","97.20","","","","","","NA"
"-96.98","50.63","GIMLI HARBOUR CS","5031041","2019-01-08 01:00","2019","01","08","01:00","","M","","M","77","","","M","28","","20","","","","97.28","","","","","","NA"
"-96.98","50.63","GIMLI HARBOUR CS","5031041","2019-01-08 02:00","2019","01","08","02:00","","M","","M","75","","","M","29","","23","","","","97.41","","","","","","NA"
"-96.98","50.63","GIMLI HARBOUR CS","5031041","2019-01-08 03:00","2019","01","08","03:00","","M","","M","70","","","M","30","","26","","","","97.54","","","","","","NA"
"-96.98","50.63","GIMLI HARBOUR CS","5031041","2019-01-08 04:00","2019","01","08","04:00","","M","","M","72","","","M","29","","22","","","","97.64","","","","","","NA"
"-96.98","50.63","GIMLI HARBOUR CS","5031041","2019-01-08 05:00","2019","01","08","05:00","","M","","M","69","","","M","29","","28","","","","97.73","","","","","","NA"
"-96.98","50.63","GIMLI HARBOUR CS","5031041","2019-01-08 06:00","2019","01","08","06:00","","M","","M","70","","","M","30","","26","","","","97.85","","","","","","NA"
"-96.98","50.63","GIMLI HARBOUR CS","5031041","2019-01-08 07:00","2019","01","08","07:00","","M","","M","70","","","M","30","","21","","","","97.99","","","","","","NA"
"-96.98","50.63","GIMLI HARBOUR CS","5031041","2019-01-08 08:00","2019","01","08","08:00","","M","","M","69","","","M","30","","25","","","","98.10","","","","","","NA"
"-96.98","50.63","GIMLI HARBOUR CS","5031041","2019-01-08 09:00","2019","01","08","09:00","","M","","M","70","","","M","30","","22","","","","98.23","","","","","","NA"
"-96.98","50.63","GIMLI HARBOUR CS","5031041","2019-01-08 10:00","2019","01","08","10:00","","M","","M","71","","","M","30","","28","","","","98.37","","","","","","NA"
"-96.98","50.63","GIMLI HARBOUR CS","5031041","2019-01-08 11:00","2019","01","08","11:00","","M","","M","70","","","M","30","","23","","","","98.50","","","","","","NA"
"-96.98","50.63","GIMLI HARBOUR CS","5031041","2019-01-08 12:00","2019","01","08","12:00","","M","","M","68","","","M","31","","25","","","","98.56","","","","","","NA"
"-96.98","50.63","GIMLI HARBOUR CS","5031041","2019-01-08 13:00","2019","01","08","13:00","","M","","M","66","","","M","31","","26","","","","98.68","","","","","","NA"
"-96.98","50.63","GIMLI HARBOUR CS","5031041","2019-01-08 14:00","2019","01","08","14:00","","M","","M","68","","","M","31","","24","","","","98.79","","","","","","NA"
"-96.98","50.63","GIMLI HARBOUR CS","5031041","2019-01-08 15:00","2019","01","08","15:00","","M","","M","64","","","M","31","","28","","","","98.96","","","","","","NA"
"-96.98","50.63","GIMLI HARBOUR CS","5031041","2019-01-08 16:00","2019","01","08","16:00","","M","","M","65","","","M","31","","25","","","","99.11","","","","","","NA"
"-96.98","50.63","GIMLI HARBOUR CS","5031041","2019-01-08 17:00","2019","01","08","17:00","","M","","M","65","","","M","31","","22","","","","99.24","","","","","","NA"
"-96.98","50.63","GIMLI HARBOUR CS","5031041","2019-01-08 18:00","2019","01","08","18:00","","M","","M","63","","","M","31","","27","","","","99.37","","","","","","NA"
"-96.98","50.63","GIMLI HARBOUR CS","5031041","2019-01-08 19:00","2019","01","08","19:00","","M","","M","64","","","M","31","","22","","","","99.48","","","","","","NA"
"-96.98","50.63","GIMLI HARBOUR CS","5031041","2019-01-08 20:00","2019","01","08","20:00","","M","","M","65","","","M","31","","23","","","","99.58","","","","","","NA"
"-96.98","50.63","GIMLI HARBOUR CS","5031041","2019-01-08 21:00","2019","01","08","21:00","","M","","M","65","","","M","31","","23","","","","99.65","","","","","","NA"
"-96.98","50.63","GIMLI HARBOUR CS","5031041","2019-01-08 22:00","2019","01","08","22:00","","M","","M","67","","","M","31","","22","","","","99.68","","","","","","NA"
"-96.98","50.63","GIMLI HARBOUR CS","5031041","2019-01-08 23:00","2019","01","08","23:00","","M","","M","69","","","M","30","","18","","","","99.81","","","","","","NA"
"-96.98","50.63","GIMLI HARBOUR CS","5031041","2019-01-09 00:00","2019","01","09","00:00","","M","","M","70","","","M","30","","16","","","","99.92","","","","","","NA"
"-96.98","50.63","GIMLI HARBOUR CS","5031041","2019-01-09 01:00","2019","01","09","01:00","","M","","M","74","","","M","31","","16","","","","100.00","","","","","","NA"
"-96.98","50.63","GIMLI HARBOUR CS","5031041","2019-01-09 02:00","2019","01","09","02:00","","M","","M","77","","","M","30","","14","","","","100.10","","","","","","NA"
"-96.98","50.63","GIMLI HARBOUR CS","5031041","2019-01-09 03:00","2019","01","09","03:00","","M","","M","67","","","M","32","","19","","","","100.24","","","","","","NA"
"-96.98","50.63","GIMLI HARBOUR CS","5031041","2019-01-09 04:00","2019","01","09","04:00","","M","","M","70","","","M","33","","18","","","","100.32","","","","","","NA"
"-96.98","50.63","GIMLI HARBOUR CS","5031041","2019-01-09 05:00","2019","01","09","05:00","","M","","M","69","","","M","32","","20","","","","100.43","","","","","","NA"
"-96.98","50.63","GIMLI HARBOUR CS","5031041","2019-01-09 06:00","2019","01","09","06:00","","M","","M","72","","","M","34","","19","","","","100.46","","","","","","NA"
"-96.98","50.63","GIMLI HARBOUR CS","5031041","2019-01-09 07:00","2019","01","09","07:00","","M","","M","73","","","M","34","","18","","","","100.58","","","","","","NA"
"-96.98","50.63","GIMLI HARBOUR CS","5031041","2019-01-09 08:00","2019","01","09","08:00","","M","","M","74","","","M","33","","15","","","","100.67","","","","","","NA"
"-96.98","50.63","GIMLI HARBOUR CS","5031041","2019-01-09 09:00","2019","01","09","09:00","","M","","M","75","","","M","33","","14","","","","100.71","","","","","","NA"
"-96.98","50.63","GIMLI HARBOUR CS","5031041","2019-01-09 10:00","2019","01","09","10:00","","M","","M","72","","","M","32","","11","","","","100.82","","","","","","NA"
"-96.98","50.63","GIMLI HARBOUR CS","5031041","2019-01-09 11:00","2019","01","09","11:00","","M","","M","68","","","M","35","","12","","","","100.83","","","","","","NA"
"-96.98","50.63","GIMLI HARBOUR CS","5031041","2019-01-09 12:00","2019","01","09","12:00","","M","","M","66","","","M","34","","10","","","","100.81","","","","","","NA"
"-96.98","50.63","GIMLI HARBOUR CS","5031041","2019-01-09 13:00","2019","01","09","13:00","","M","","M","66","","","M","36","","8","","","","100.76","","","","","","NA"
"-96.98","50.63","GIMLI HARBOUR CS","5031041","2019-01-09 14:00","2019","01","09","14:00","","M","","M","68","","","M","3","","12","","","","100.76","","","","","","NA"
"-96.98","50.63","GIMLI HARBOUR CS","5031041","2019-01-09 15:00","2019","01","09","15:00","","M","","M","70","","","M","4","","10","","","","100.76","","","","","","NA"
"-96.98","50.63","GIMLI HARBOUR CS","5031041","2019-01-09 16:00","2019","01","09","16:00","","M","","M","73","","","M","8","","3","","","","100.78","","","","","","NA"
"-96.98","50.63","GIMLI HARBOUR CS","5031041","2019-01-09 17:00","2019","01","09","17:00","","M","","M","73","","","M","4","","5","","","","100.77","","","","","","NA"
"-96.98","50.63","GIMLI HARBOUR CS","5031041","2019-01-09 18:00","2019","01","09","18:00","","M","","M","67","","","M","35","","2","","","","100.75","","","","","","NA"
"-96.98","50.63","GIMLI HARBOUR CS","5031041","2019-01-09 19:00","2019","01","09","19:00","","M","","M","66","","","M","2","","8","","","","100.71","","","","","","NA"
"-96.98","50.63","GIMLI HARBOUR CS","5031041","2019-01-09 20:00","2019","01","09","20:00","","M","","M","67","","","M","2","","8","","","","100.73","","","","","","NA"
"-96.98","50.63","GIMLI HARBOUR CS","5031041","2019-01-09 21:00","2019","01","09","21:00","","M","","M","72","","","M","5","","9","","","","100.70","","","","","","NA"
"-96.98","50.63","GIMLI HARBOUR CS","5031041","2019-01-09 22:00","2019","01","09","22:00","","M","","M","73","","","M","7","","11","","","","100.67","","","","","","NA"
"-96.98","50.63","GIMLI HARBOUR CS","5031041","2019-01-09 23:00","2019","01","09","23:00","","M","","M","75","","","M","8","","17","","","","100.57","","","","","","NA"
"-96.98","50.63","GIMLI HARBOUR CS","5031041","2019-01-10 00:00","2019","01","10","00:00","","M","","M","74","","","M","13","","13","","","","100.55","","","","","","NA"
"-96.98","50.63","GIMLI HARBOUR CS","5031041","2019-01-10 01:00","2019","01","10","01:00","","M","","M","73","","","M","12","","18","","","","100.48","","","","","","NA"
"-96.98","50.63","GIMLI HARBOUR CS","5031041","2019-01-10 02:00","2019","01","10","02:00","","M","","M","73","","","M","13","","17","","","","100.49","","","","","","NA"
"-96.98","50.63","GIMLI HARBOUR CS","5031041","2019-01-10 03:00","2019","01","10","03:00","","M","","M","72","","","M","12","","21","","","","100.40","","","","","","NA"
"-96.98","50.63","GIMLI HARBOUR CS","5031041","2019-01-10 04:00","2019","01","10","04:00","","M","","M","73","","","M","14","","26","","","","100.38","","","","","","NA"
"-96.98","50.63","GIMLI HARBOUR CS","5031041","2019-01-10 05:00","2019","01","10","05:00","","M","","M","74","","","M","14","","20","","","","100.30","","","","","","NA"
"-96.98","50.63","GIMLI HARBOUR CS","5031041","2019-01-10 06:00","2019","01","10","06:00","","M","","M","73","","","M","14","","25","","","","100.17","","","","","","NA"
"-96.98","50.63","GIMLI HARBOUR CS","5031041","2019-01-10 07:00","2019","01","10","07:00","","M","","M","77","","","M","13","","24","","","","100.10","","","","","","NA"
"-96.98","50.63","GIMLI HARBOUR CS","5031041","2019-01-10 08:00","2019","01","10","08:00","","M","","M","77","","","M","13","","27","","","","100.03","","","","","","NA"
"-96.98","50.63","GIMLI HARBOUR CS","5031041","2019-01-10 09:00","2019","01","10","09:00","","M","","M","77","","","M","13","","25","","","","100.01","","","","","","NA"
"-96.98","50.63","GIMLI HARBOUR CS","5031041","2019-01-10 10:00","2019","01","10","10:00","","M","","M","77","","","M","13","","27","","","","99.99","","","","","","NA"
"-96.98","50.63","GIMLI HARBOUR CS","5031041","2019-01-10 11:00","2019","01","10","11:00","","M","","M","75","","","M","14","","24","","","","99.90","","","","","","NA"
"-96.98","50.63","GIMLI HARBOUR CS","5031041","2019-01-10 12:00","2019","01","10","12:00","","M","","M","73","","","M","15","","3","","","","99.77","","","","","","NA"
"-96.98","50.63","GIMLI HARBOUR CS","5031041","2019-01-10 13:00","2019","01","10","13:00","","M","","M","73","","","M","14","","23","","","","99.67","","","","","","NA"
"-96.98","50.63","GIMLI HARBOUR CS","5031041","2019-01-10 14:00","2019","01","10","14:00","","M","","M","72","","","M","14","","27","","","","99.60","","","","","","NA"
"-96.98","50.63","GIMLI HARBOUR CS","5031041","2019-01-10 15:00","2019","01","10","15:00","-11.8","","-15.1","","76","","","M","12","","26","","","","99.49","","","","-21","","NA"
"-96.98","50.63","GIMLI HARBOUR CS","5031041","2019-01-10 16:00","2019","01","10","16:00","-11.0","","-14.7","","74","","","M","13","","24","","","","99.49","","","","-20","","NA"
"-96.98","50.63","GIMLI HARBOUR CS","5031041","2019-01-10 17:00","2019","01","10","17:00","-11.0","","-14.6","","75","","","M","13","","22","","","","99.48","","","","-20","","NA"
"-96.98","50.63","GIMLI HARBOUR CS","5031041","2019-01-10 18:00","2019","01","10","18:00","-10.9","","-14.5","","75","","","M","13","","21","","","","99.47","","","","-19","","NA"
"-96.98","50.63","GIMLI HARBOUR CS","5031041","2019-01-10 19:00","2019","01","10","19:00","-11.0","","-13.4","","83","","","M","13","","20","","","","99.47","","","","-19","","NA"
"-96.98","50.63","GIMLI HARBOUR CS","5031041","2019-01-10 20:00","2019","01","10","20:00","-11.0","","-13.1","","85","","","M","13","","17","","","","99.47","","","","-18","","NA"
"-96.98","50.63","GIMLI HARBOUR CS","5031041","2019-01-10 21:00","2019","01","10","21:00","-10.9","","-12.9","","86","","","M","14","","19","","","","99.48","","","","-19","","NA"
"-96.98","50.63","GIMLI HARBOUR CS","5031041","2019-01-10 22:00","2019","01","10","22:00","-10.8","","-13.0","","84","","","M","13","","21","","","","99.46","","","","-19","","NA"
"-96.98","50.63","GIMLI HARBOUR CS","5031041","2019-01-10 23:00","2019","01","10","23:00","-10.7","","-13.2","","82","","","M","13","","20","","","","99.49","","","","-19","","NA"
"-96.98","50.63","GIMLI HARBOUR CS","5031041","2019-01-11 00:00","2019","01","11","00:00","-10.7","","-13.3","","82","","","M","12","","16","","","","99.51","","","","-18","","NA"
"-96.98","50.63","GIMLI HARBOUR CS","5031041","2019-01-11 01:00","2019","01","11","01:00","-10.6","","-13.3","","81","","","M","12","","14","","","","99.53","","","","-17","","NA"
"-96.98","50.63","GIMLI HARBOUR CS","5031041","2019-01-11 02:00","2019","01","11","02:00","-10.7","","-13.0","","83","","","M","9","","10","","","","99.55","","","","-16","","NA"
"-96.98","50.63","GIMLI HARBOUR CS","5031041","2019-01-11 03:00","2019","01","11","03:00","-10.7","","-12.7","","85","","","M","8","","6","","","","99.61","","","","-14","","NA"
"-96.98","50.63","GIMLI HARBOUR CS","5031041","2019-01-11 04:00","2019","01","11","04:00","-10.8","","-12.6","","86","","","M","5","","8","","","","99.63","","","","-15","","NA"
"-96.98","50.63","GIMLI HARBOUR CS","5031041","2019-01-11 05:00","2019","01","11","05:00","-11.1","","-12.9","","86","","","M","5","","15","","","","99.61","","","","-18","","NA"
"-96.98","50.63","GIMLI HARBOUR CS","5031041","2019-01-11 06:00","2019","01","11","06:00","-11.2","","-13.1","","86","","","M","4","","14","","","","99.67","","","","-18","","NA"
"-96.98","50.63","GIMLI HARBOUR CS","5031041","2019-01-11 07:00","2019","01","11","07:00","-11.2","","-13.2","","85","","","M","3","","16","","","","99.72","","","","-18","","NA"
"-96.98","50.63","GIMLI HARBOUR CS","5031041","2019-01-11 08:00","2019","01","11","08:00","-11.3","","-13.5","","84","","","M","2","","16","","","","99.78","","","","-19","","NA"
"-96.98","50.63","GIMLI HARBOUR CS","5031041","2019-01-11 09:00","2019","01","11","09:00","-11.8","","-13.9","","85","","","M","1","","19","","","","99.87","","","","-20","","NA"
"-96.98","50.63","GIMLI HARBOUR CS","5031041","2019-01-11 10:00","2019","01","11","10:00","-11.9","","-14.1","","84","","","M","1","","18","","","","99.92","","","","-20","","NA"
"-96.98","50.63","GIMLI HARBOUR CS","5031041","2019-01-11 11:00","2019","01","11","11:00","-11.9","","-14.4","","82","","","M","1","","18","","","","99.97","","","","-20","","NA"
"-96.98","50.63","GIMLI HARBOUR CS","5031041","2019-01-11 12:00","2019","01","11","12:00","-11.7","","-14.2","","82","","","M","2","","22","","","","99.99","","","","-20","","NA"
"-96.98","50.63","GIMLI HARBOUR CS","5031041","2019-01-11 13:00","2019","01","11","13:00","-11.4","","-14.1","","80","","","M","1","","22","","","","100.00","","","","-20","","NA"
"-96.98","50.63","GIMLI HARBOUR CS","5031041","2019-01-11 14:00","2019","01","11","14:00","-11.0","","-13.7","","80","","","M","2","","23","","","","100.04","","","","-20","","NA"
"-96.98","50.63","GIMLI HARBOUR CS","5031041","2019-01-11 15:00","2019","01","11","15:00","-10.7","","-13.4","","81","","","M","1","","19","","","","100.10","","","","-19","","NA"
"-96.98","50.63","GIMLI HARBOUR CS","5031041","2019-01-11 16:00","2019","01","11","16:00","-10.7","","-13.2","","82","","","M","36","","14","","","","100.17","","","","-17","","NA"
"-96.98","50.63","GIMLI HARBOUR CS","5031041","2019-01-11 17:00","2019","01","11","17:00","-12.3","","-14.8","","82","","","M","35","","12","","","","100.23","","","","-19","","NA"
"-96.98","50.63","GIMLI HARBOUR CS","5031041","2019-01-11 18:00","2019","01","11","18:00","-12.3","","-14.9","","81","","","M","36","","16","","","","100.28","","","","-20","","NA"
"-96.98","50.63","GIMLI HARBOUR CS","5031041","2019-01-11 19:00","2019","01","11","19:00","-12.2","","-14.7","","81","","","M","36","","18","","","","100.32","","","","-20","","NA"
"-96.98","50.63","GIMLI HARBOUR CS","5031041","2019-01-11 20:00","2019","01","11","20:00","-12.9","","-15.1","","84","","","M","36","","21","","","","100.35","","","","-22","","NA"
"-96.98","50.63","GIMLI HARBOUR CS","5031041","2019-01-11 21:00","2019","01","11","21:00","-13.9","","-16.0","","84","","","M","1","","17","","","","100.32","","","","-22","","NA"
"-96.98","50.63","GIMLI HARBOUR CS","5031041","2019-01-11 22:00","2019","01","11","22:00","-15.6","","-17.7","","84","","","M","1","","15","","","","100.35","","","","-24","","NA"
"-96.98","50.63","GIMLI HARBOUR CS","5031041","2019-01-11 23:00","2019","01","11","23:00","-16.2","","-18.0","","86","","","M","36","","14","","","","100.43","","","","-24","","NA"
"-96.98","50.63","GIMLI HARBOUR CS","5031041","2019-01-12 00:00","2019","01","12","00:00","-16.6","","-18.6","","85","","","M","1","","14","","","","100.45","","","","-25","","NA"
"-96.98","50.63","GIMLI HARBOUR CS","5031041","2019-01-12 01:00","2019","01","12","01:00","-17.0","","-19.0","","85","","","M","1","","13","","","","100.46","","","","-25","","NA"
"-96.98","50.63","GIMLI HARBOUR CS","5031041","2019-01-12 02:00","2019","01","12","02:00","-17.9","","-20.0","","83","","","M","1","","12","","","","100.49","","","","-25","","NA"
"-96.98","50.63","GIMLI HARBOUR CS","5031041","2019-01-12 03:00","2019","01","12","03:00","-17.4","","-19.5","","84","","","M","2","","6","","","","100.50","","","","-22","","NA"
"-96.98","50.63","GIMLI HARBOUR CS","5031041","2019-01-12 04:00","2019","01","12","04:00","-15.3","","-17.3","","85","","","M","1","","3","","","","100.50","","","","-17","","NA"
"-96.98","50.63","GIMLI HARBOUR CS","5031041","2019-01-12 05:00","2019","01","12","05:00","-13.7","","-15.6","","86","","","M","2","","4","","","","100.46","","","","-16","","NA"
"-96.98","50.63","GIMLI HARBOUR CS","5031041","2019-01-12 06:00","2019","01","12","06:00","-11.9","","-13.6","","87","","","M","5","","6","","","","100.45","","","","-16","","NA"
"-96.98","50.63","GIMLI HARBOUR CS","5031041","2019-01-12 07:00","2019","01","12","07:00","-11.6","","-13.3","","87","","","M","6","","5","","","","100.42","","","","-15","","NA"
"-96.98","50.63","GIMLI HARBOUR CS","5031041","2019-01-12 08:00","2019","01","12","08:00","-11.3","","-13.0","","88","","","M","9","","5","","","","100.43","","","","-14","","NA"
"-96.98","50.63","GIMLI HARBOUR CS","5031041","2019-01-12 09:00","2019","01","12","09:00","-11.2","","-12.8","","88","","","M","14","","5","","","","100.44","","","","-14","","NA"
"-96.98","50.63","GIMLI HARBOUR CS","5031041","2019-01-12 10:00","2019","01","12","10:00","-10.3","","-12.0","","87","","","M","16","","10","","","","100.43","","","","-16","","NA"
"-96.98","50.63","GIMLI HARBOUR CS","5031041","2019-01-12 11:00","2019","01","12","11:00","-9.9","","-11.6","","87","","","M","16","","8","","","","100.42","","","","-14","","NA"
"-96.98","50.63","GIMLI HARBOUR CS","5031041","2019-01-12 12:00","2019","01","12","12:00","-8.9","","-10.6","","87","","","M","18","","6","","","","100.39","","","","-12","","NA"
"-96.98","50.63","GIMLI HARBOUR CS","5031041","2019-01-12 13:00","2019","01","12","13:00","-8.4","","-10.2","","86","","","M","16","","10","","","","100.32","","","","-13","","NA"
"-96.98","50.63","GIMLI HARBOUR CS","5031041","2019-01-12 14:00","2019","01","12","14:00","-7.4","","-9.5","","85","","","M","17","","15","","","","100.24","","","","-14","","NA"
"-96.98","50.63","GIMLI HARBOUR CS","5031041","2019-01-12 15:00","2019","01","12","15:00","-6.8","","-9.1","","83","","","M","18","","19","","","","100.17","","","","-14","","NA"
"-96.98","50.63","GIMLI HARBOUR CS","5031041","2019-01-12 16:00","2019","01","12","16:00","-6.4","","-8.7","","84","","","M","18","","19","","","","100.16","","","","-13","","NA"
"-96.98","50.63","GIMLI HARBOUR CS","5031041","2019-01-12 17:00","2019","01","12","17:00","-7.1","","-9.2","","85","","","M","20","","12","","","","100.12","","","","-12","","NA"
"-96.98","50.63","GIMLI HARBOUR CS","5031041","2019-01-12 18:00","2019","01","12","18:00","-6.8","","-8.7","","86","","","M","20","","16","","","","100.08","","","","-13","","NA"
"-96.98","50.63","GIMLI HARBOUR CS","5031041","2019-01-12 19:00","2019","01","12","19:00","-6.4","","-7.9","","89","","","M","20","","19","","","","100.03","","","","-13","","NA"
"-96.98","50.63","GIMLI HARBOUR CS","5031041","2019-01-12 20:00","2019","01","12","20:00","-6.1","","-6.9","","94","","","M","19","","24","","","","99.96","","","","-14","","NA"
"-96.98","50.63","GIMLI HARBOUR CS","5031041","2019-01-12 21:00","2019","01","12","21:00","-5.9","","-6.9","","93","","","M","19","","26","","","","99.92","","","","-14","","NA"
"-96.98","50.63","GIMLI HARBOUR CS","5031041","2019-01-12 22:00","2019","01","12","22:00","-5.7","","-7.1","","90","","","M","20","","25","","","","99.84","","","","-13","","NA"
"-96.98","50.63","GIMLI HARBOUR CS","5031041","2019-01-12 23:00","2019","01","12","23:00","-5.8","","-7.6","","87","","","M","20","","27","","","","99.81","","","","-14","","NA"
"-96.98","50.63","GIMLI HARBOUR CS","5031041","2019-01-13 00:00","2019","01","13","00:00","-5.6","","-7.9","","84","","","M","20","","28","","","","99.75","","","","-14","","NA"
"-96.98","50.63","GIMLI HARBOUR CS","5031041","2019-01-13 01:00","2019","01","13","01:00","-5.6","","-8.0","","83","","","M","20","","25","","","","99.70","","","","-13","","NA"
"-96.98","50.63","GIMLI HARBOUR CS","5031041","2019-01-13 02:00","2019","01","13","02:00","-5.6","","-8.0","","83","","","M","20","","23","","","","99.67","","","","-13","","NA"
"-96.98","50.63","GIMLI HARBOUR CS","5031041","2019-01-13 03:00","2019","01","13","03:00","-5.6","","-7.9","","84","","","M","20","","24","","","","99.64","","","","-13","","NA"
"-96.98","50.63","GIMLI HARBOUR CS","5031041","2019-01-13 04:00","2019","01","13","04:00","-5.4","","-7.9","","83","","","M","21","","25","","","","99.61","","","","-13","","NA"
"-96.98","50.63","GIMLI HARBOUR CS","5031041","2019-01-13 05:00","2019","01","13","05:00","-5.6","","-7.8","","84","","","M","21","","29","","","","99.52","","","","-14","","NA"
"-96.98","50.63","GIMLI HARBOUR CS","5031041","2019-01-13 06:00","2019","01","13","06:00","-5.6","","-8.0","","83","","","M","21","","23","","","","99.48","","","","-13","","NA"
"-96.98","50.63","GIMLI HARBOUR CS","5031041","2019-01-13 07:00","2019","01","13","07:00","-6.0","","-8.6","","82","","","M","21","","18","","","","99.48","","","","-12","","NA"
"-96.98","50.63","GIMLI HARBOUR CS","5031041","2019-01-13 08:00","2019","01","13","08:00","-6.6","","-8.9","","84","","","M","21","","16","","","","99.46","","","","-13","","NA"
"-96.98","50.63","GIMLI HARBOUR CS","5031041","2019-01-13 09:00","2019","01","13","09:00","-7.0","","-9.4","","83","","","M","20","","14","","","","99.46","","","","-13","","NA"
"-96.98","50.63","GIMLI HARBOUR CS","5031041","2019-01-13 10:00","2019","01","13","10:00","-6.4","","-9.4","","79","","","M","21","","13","","","","99.51","","","","-12","","NA"
"-96.98","50.63","GIMLI HARBOUR CS","5031041","2019-01-13 11:00","2019","01","13","11:00","-6.4","","-9.3","","80","","","M","21","","11","","","","99.54","","","","-11","","NA"
"-96.98","50.63","GIMLI HARBOUR CS","5031041","2019-01-13 12:00","2019","01","13","12:00","-5.9","","-9.6","","75","","","M","22","","12","","","","99.46","","","","-11","","NA"
"-96.98","50.63","GIMLI HARBOUR CS","5031041","2019-01-13 13:00","2019","01","13","13:00","-6.0","","-9.7","","75","","","M","22","","12","","","","99.41","","","","-11","","NA"
"-96.98","50.63","GIMLI HARBOUR CS","5031041","2019-01-13 14:00","2019","01","13","14:00","-5.9","","-9.8","","74","","","M","21","","10","","","","99.39","","","","-10","","NA"
"-96.98","50.63","GIMLI HARBOUR CS","5031041","2019-01-13 15:00","2019","01","13","15:00","-6.1","","-9.4","","77","","","M","20","","11","","","","99.43","","","","-11","","NA"
"-96.98","50.63","GIMLI HARBOUR CS","5031041","2019-01-13 16:00","2019","01","13","16:00","-5.7","","-9.4","","75","","","M","27","","7","","","","99.52","","","","-9","","NA"
"-96.98","50.63","GIMLI HARBOUR CS","5031041","2019-01-13 17:00","2019","01","13","17:00","-5.8","","-9.5","","75","","","M","29","","5","","","","99.58","","","","-8","","NA"
"-96.98","50.63","GIMLI HARBOUR CS","5031041","2019-01-13 18:00","2019","01","13","18:00","-5.8","","-9.5","","75","","","M","33","","5","","","","99.61","","","","-8","","NA"
"-96.98","50.63","GIMLI HARBOUR CS","5031041","2019-01-13 19:00","2019","01","13","19:00","-5.9","","-9.6","","75","","","M","34","","5","","","","99.57","","","","-8","","NA"
"-96.98","50.63","GIMLI HARBOUR CS","5031041","2019-01-13 20:00","2019","01","13","20:00","-6.0","","-9.6","","75","","","M","34","","8","","","","99.60","","","","-10","","NA"
"-96.98","50.63","GIMLI HARBOUR CS","5031041","2019-01-13 21:00","2019","01","13","21:00","-6.1","","-9.6","","76","","","M","34","","7","","","","99.64","","","","-9","","NA"
"-96.98","50.63","GIMLI HARBOUR CS","5031041","2019-01-13 22:00","2019","01","13","22:00","-6.3","","-9.7","","76","","","M","34","","9","","","","99.67","","","","-11","","NA"
"-96.98","50.63","GIMLI HARBOUR CS","5031041","2019-01-13 23:00","2019","01","13","23:00","-7.0","","-9.5","","83","","","M","35","","15","","","","99.71","","","","-13","","NA"
"-96.98","50.63","GIMLI HARBOUR CS","5031041","2019-01-14 00:00","2019","01","14","00:00","-7.5","","-9.7","","85","","","M","35","","17","","","","99.76","","","","-14","","NA"
"-96.98","50.63","GIMLI HARBOUR CS","5031041","2019-01-14 01:00","2019","01","14","01:00","-8.2","","-9.8","","89","","","M","1","","18","","","","99.77","","","","-15","","NA"
"-96.98","50.63","GIMLI HARBOUR CS","5031041","2019-01-14 02:00","2019","01","14","02:00","-9.3","","-11.0","","87","","","M","36","","22","","","","99.84","","","","-17","","NA"
"-96.98","50.63","GIMLI HARBOUR CS","5031041","2019-01-14 03:00","2019","01","14","03:00","-10.1","","-11.8","","87","","","M","35","","16","","","","99.91","","","","-17","","NA"
"-96.98","50.63","GIMLI HARBOUR CS","5031041","2019-01-14 04:00","2019","01","14","04:00","-10.4","","-12.0","","88","","","M","35","","14","","","","99.95","","","","-17","","NA"
"-96.98","50.63","GIMLI HARBOUR CS","5031041","2019-01-14 05:00","2019","01","14","05:00","-10.6","","-12.1","","89","","","M","35","","14","","","","99.96","","","","-17","","NA"
"-96.98","50.63","GIMLI HARBOUR CS","5031041","2019-01-14 06:00","2019","01","14","06:00","-10.4","","-11.8","","89","","","M","34","","10","","","","99.95","","","","-16","","NA"
"-96.98","50.63","GIMLI HARBOUR CS","5031041","2019-01-14 07:00","2019","01","14","07:00","-10.7","","-12.2","","89","","","M","33","","10","","","","99.98","","","","-16","","NA"
"-96.98","50.63","GIMLI HARBOUR CS","5031041","2019-01-14 08:00","2019","01","14","08:00","-10.7","","-12.2","","88","","","M","32","","6","","","","99.94","","","","-14","","NA"
"-96.98","50.63","GIMLI HARBOUR CS","5031041","2019-01-14 09:00","2019","01","14","09:00","-10.5","","-12.1","","88","","","M","33","","7","","","","99.97","","","","-15","","NA"
"-96.98","50.63","GIMLI HARBOUR CS","5031041","2019-01-14 10:00","2019","01","14","10:00","-10.2","","-12.0","","87","","","M","33","","8","","","","100.01","","","","-15","","NA"
"-96.98","50.63","GIMLI HARBOUR CS","5031041","2019-01-14 11:00","2019","01","14","11:00","-9.5","","-11.2","","88","","","M","1","","12","","","","100.02","","","","-15","","NA"
"-96.98","50.63","GIMLI HARBOUR CS","5031041","2019-01-14 12:00","2019","01","14","12:00","-9.3","","-11.2","","86","","","M","4","","6","","","","99.97","","","","-13","","NA"
"-96.98","50.63","GIMLI HARBOUR CS","5031041","2019-01-14 13:00","2019","01","14","13:00","-7.6","","-10.6","","79","","","M","29","","1","","","","99.87","","","","-8","","NA"
"-96.98","50.63","GIMLI HARBOUR CS","5031041","2019-01-14 14:00","2019","01","14","14:00","-8.5","","-11.8","","77","","","M","20","","5","","","","99.82","","","","-11","","NA"
"-96.98","50.63","GIMLI HARBOUR CS","5031041","2019-01-14 15:00","2019","01","14","15:00","-9.6","","-11.4","","86","","","M","15","","13","","","","99.81","","","","-16","","NA"
"-96.98","50.63","GIMLI HARBOUR CS","5031041","2019-01-14 16:00","2019","01","14","16:00","-9.4","","-11.7","","84","","","M","19","","14","","","","99.73","","","","-16","","NA"
"-96.98","50.63","GIMLI HARBOUR CS","5031041","2019-01-14 17:00","2019","01","14","17:00","-9.7","","-11.7","","86","","","M","19","","9","","","","99.63","","","","-15","","NA"
"-96.98","50.63","GIMLI HARBOUR CS","5031041","2019-01-14 18:00","2019","01","14","18:00","-10.0","","-11.7","","88","","","M","18","","21","","","","99.39","","","","-18","","NA"
"-96.98","50.63","GIMLI HARBOUR CS","5031041","2019-01-14 19:00","2019","01","14","19:00","-10.1","","-11.9","","86","","","M","19","","15","","","","99.35","","","","-17","","NA"
"-96.98","50.63","GIMLI HARBOUR CS","5031041","2019-01-14 20:00","2019","01","14","20:00","-10.0","","-11.9","","86","","","M","18","","21","","","","99.20","","","","-18","","NA"
"-96.98","50.63","GIMLI HARBOUR CS","5031041","2019-01-14 21:00","2019","01","14","21:00","-10.2","","-12.4","","84","","","M","20","","26","","","","99.05","","","","-19","","NA"
"-96.98","50.63","GIMLI HARBOUR CS","5031041","2019-01-14 22:00","2019","01","14","22:00","-10.1","","-12.2","","85","","","M","19","","28","","","","98.86","","","","-19","","NA"
"-96.98","50.63","GIMLI HARBOUR CS","5031041","2019-01-14 23:00","2019","01","14","23:00","-9.5","","-11.9","","83","","","M","20","","27","","","","98.71","","","","-18","","NA"
"-96.98","50.63","GIMLI HARBOUR CS","5031041","2019-01-15 00:00","2019","01","15","00:00","-8.9","","-11.2","","83","","","M","20","","32","","","","98.60","","","","-18","","NA"
"-96.98","50.63","GIMLI HARBOUR CS","5031041","2019-01-15 01:00","2019","01","15","01:00","-8.1","","-10.4","","84","","","M","19","","34","","","","98.35","","","","-18","","NA"
"-96.98","50.63","GIMLI HARBOUR CS","5031041","2019-01-15 02:00","2019","01","15","02:00","-7.5","","-9.9","","83","","","M","21","","31","","","","98.20","","","","-16","","NA"
"-96.98","50.63","GIMLI HARBOUR CS","5031041","2019-01-15 03:00","2019","01","15","03:00","-6.9","","-9.5","","81","","","M","21","","33","","","","98.04","","","","-16","","NA"
"-96.98","50.63","GIMLI HARBOUR CS","5031041","2019-01-15 04:00","2019","01","15","04:00","-6.7","","-9.2","","82","","","M","21","","31","","","","97.91","","","","-15","","NA"
"-96.98","50.63","GIMLI HARBOUR CS","5031041","2019-01-15 05:00","2019","01","15","05:00","-6.4","","-8.9","","82","","","M","22","","17","","","","97.92","","","","-13","","NA"
"-96.98","50.63","GIMLI HARBOUR CS","5031041","2019-01-15 06:00","2019","01","15","06:00","-5.0","","-7.6","","82","","","M","24","","16","","","","97.95","","","","-11","","NA"
"-96.98","50.63","GIMLI HARBOUR CS","5031041","2019-01-15 07:00","2019","01","15","07:00","-4.3","","-7.0","","82","","","M","25","","9","","","","97.99","","","","-8","","NA"
"-96.98","50.63","GIMLI HARBOUR CS","5031041","2019-01-15 08:00","2019","01","15","08:00","-9.1","","-13.7","","69","","","M","33","","47","","","","98.30","","","","-20","","NA"
"-96.98","50.63","GIMLI HARBOUR CS","5031041","2019-01-15 09:00","2019","01","15","09:00","-13.4","","-18.0","","68","","","M","33","","38","","","","98.56","","","","-25","","NA"
"-96.98","50.63","GIMLI HARBOUR CS","5031041","2019-01-15 10:00","2019","01","15","10:00","-15.6","","-20.2","","68","","","M","32","","36","","","","98.79","","","","-28","","NA"
"-96.98","50.63","GIMLI HARBOUR CS","5031041","2019-01-15 11:00","2019","01","15","11:00","-16.7","","-21.7","","65","","","M","32","","34","","","","98.99","","","","-29","","NA"
"-96.98","50.63","GIMLI HARBOUR CS","5031041","2019-01-15 12:00","2019","01","15","12:00","-16.9","","-21.9","","65","","","M","32","","39","","","","99.14","","","","-30","","NA"
"-96.98","50.63","GIMLI HARBOUR CS","5031041","2019-01-15 13:00","2019","01","15","13:00","-16.7","","-21.9","","64","","","M","32","","33","","","","99.27","","","","-29","","NA"
"-96.98","50.63","GIMLI HARBOUR CS","5031041","2019-01-15 14:00","2019","01","15","14:00","-16.6","","-21.9","","63","","","M","33","","29","","","","99.42","","","","-28","","NA"
"-96.98","50.63","GIMLI HARBOUR CS","5031041","2019-01-15 15:00","2019","01","15","15:00","-17.0","","-22.5","","62","","","M","33","","25","","","","99.51","","","","-28","","NA"
"-96.98","50.63","GIMLI HARBOUR CS","5031041","2019-01-15 16:00","2019","01","15","16:00","-18.1","","-23.3","","64","","","M","33","","26","","","","99.68","","","","-29","","NA"
"-96.98","50.63","GIMLI HARBOUR CS","5031041","2019-01-15 17:00","2019","01","15","17:00","-19.7","","-24.5","","66","","","M","32","","21","","","","99.86","","","","-30","","NA"
"-96.98","50.63","GIMLI HARBOUR CS","5031041","2019-01-15 18:00","2019","01","15","18:00","-20.8","","-25.1","","68","","","M","33","","22","","","","99.94","","","","-32","","NA"
"-96.98","50.63","GIMLI HARBOUR CS","5031041","2019-01-15 19:00","2019","01","15","19:00","-21.7","","-26.3","","67","","","M","33","","21","","","","100.04","","","","-33","","NA"
"-96.98","50.63","GIMLI HARBOUR CS","5031041","2019-01-15 20:00","2019","01","15","20:00","-22.6","","-27.2","","66","","","M","33","","23","","","","100.12","","","","-35","","NA"
"-96.98","50.63","GIMLI HARBOUR CS","5031041","2019-01-15 21:00","2019","01","15","21:00","-23.1","","-27.4","","68","","","M","35","","13","","","","100.12","","","","-32","","NA"
"-96.98","50.63","GIMLI HARBOUR CS","5031041","2019-01-15 22:00","2019","01","15","22:00","-23.6","","-27.5","","70","","","M","32","","11","","","","100.21","","","","-32","","NA"
"-96.98","50.63","GIMLI HARBOUR CS","5031041","2019-01-15 23:00","2019","01","15","23:00","-24.0","","-27.8","","71","","","M","33","","14","","","","100.25","","","","-34","","NA"
"-96.98","50.63","GIMLI HARBOUR CS","5031041","2019-01-16 00:00","2019","01","16","00:00","-24.5","","-27.9","","74","","","M","32","","9","","","","100.28","","","","-32","","NA"
"-96.98","50.63","GIMLI HARBOUR CS","5031041","2019-01-16 01:00","2019","01","16","01:00","-25.3","","-28.6","","74","","","M","31","","9","","","","100.28","","","","-33","","NA"
"-96.98","50.63","GIMLI HARBOUR CS","5031041","2019-01-16 02:00","2019","01","16","02:00","-25.8","","-28.9","","76","","","M","32","","12","","","","100.25","","","","-35","","NA"
"-96.98","50.63","GIMLI HARBOUR CS","5031041","2019-01-16 03:00","2019","01","16","03:00","-25.7","","-28.7","","76","","","M","32","","8","","","","100.28","","","","-33","","NA"
"-96.98","50.63","GIMLI HARBOUR CS","5031041","2019-01-16 04:00","2019","01","16","04:00","-26.7","","-29.6","","77","","","M","29","","10","","","","100.27","","","","-35","","NA"
"-96.98","50.63","GIMLI HARBOUR CS","5031041","2019-01-16 05:00","2019","01","16","05:00","-26.8","","-29.8","","76","","","M","29","","10","","","","100.27","","","","-35","","NA"
"-96.98","50.63","GIMLI HARBOUR CS","5031041","2019-01-16 06:00","2019","01","16","06:00","-26.0","","-29.0","","76","","","M","28","","9","","","","100.31","","","","-34","","NA"
"-96.98","50.63","GIMLI HARBOUR CS","5031041","2019-01-16 07:00","2019","01","16","07:00","-25.6","","-28.7","","76","","","M","29","","8","","","","100.28","","","","-33","","NA"
"-96.98","50.63","GIMLI HARBOUR CS","5031041","2019-01-16 08:00","2019","01","16","08:00","-26.3","","-29.4","","75","","","M","27","","5","","","","100.25","","","","-31","","NA"
"-96.98","50.63","GIMLI HARBOUR CS","5031041","2019-01-16 09:00","2019","01","16","09:00","-26.0","","-29.1","","75","","","M","24","","4","","","","100.24","","","","-30","","NA"
"-96.98","50.63","GIMLI HARBOUR CS","5031041","2019-01-16 10:00","2019","01","16","10:00","-24.2","","-27.8","","72","","","M","","","0","","","","100.26","","","","","","NA"
"-96.98","50.63","GIMLI HARBOUR CS","5031041","2019-01-16 11:00","2019","01","16","11:00","-23.9","","-27.8","","71","","","M","22","","9","","","","100.23","","","","-31","","NA"
"-96.98","50.63","GIMLI HARBOUR CS","5031041","2019-01-16 12:00","2019","01","16","12:00","-22.7","","-27.0","","68","","","M","25","","6","","","","100.18","","","","-28","","NA"
"-96.98","50.63","GIMLI HARBOUR CS","5031041","2019-01-16 13:00","2019","01","16","13:00","-21.6","","-26.4","","65","","","M","23","","4","","","","100.11","","","","-25","","NA"
"-96.98","50.63","GIMLI HARBOUR CS","5031041","2019-01-16 14:00","2019","01","16","14:00","-21.1","","-26.2","","63","","","M","19","","3","","","","100.06","","","","-24","","NA"
"-96.98","50.63","GIMLI HARBOUR CS","5031041","2019-01-16 15:00","2019","01","16","15:00","-20.8","","-25.5","","66","","","M","14","","4","","","","100.01","","","","-24","","NA"
"-96.98","50.63","GIMLI HARBOUR CS","5031041","2019-01-16 16:00","2019","01","16","16:00","-20.3","","-25.2","","64","","","M","19","","7","","","","99.96","","","","-26","","NA"
"-96.98","50.63","GIMLI HARBOUR CS","5031041","2019-01-16 17:00","2019","01","16","17:00","-20.5","","-25.1","","67","","","M","21","","7","","","","99.93","","","","-26","","NA"
"-96.98","50.63","GIMLI HARBOUR CS","5031041","2019-01-16 18:00","2019","01","16","18:00","-20.3","","-25.0","","66","","","M","","","0","","","","99.93","","","","","","NA"
"-96.98","50.63","GIMLI HARBOUR CS","5031041","2019-01-16 19:00","2019","01","16","19:00","-20.2","","-24.8","","67","","","M","19","","6","","","","99.91","","","","-25","","NA"
"-96.98","50.63","GIMLI HARBOUR CS","5031041","2019-01-16 20:00","2019","01","16","20:00","-20.4","","-24.8","","68","","","M","20","","10","","","","99.85","","","","-28","","NA"
"-96.98","50.63","GIMLI HARBOUR CS","5031041","2019-01-16 21:00","2019","01","16","21:00","-20.1","","-24.4","","69","","","M","20","","5","","","","99.78","","","","-24","","NA"
"-96.98","50.63","GIMLI HARBOUR CS","5031041","2019-01-16 22:00","2019","01","16","22:00","-20.1","","-24.4","","68","","","M","21","","7","","","","99.76","","","","-26","","NA"
"-96.98","50.63","GIMLI HARBOUR CS","5031041","2019-01-16 23:00","2019","01","16","23:00","-20.7","","-24.5","","71","","","M","21","","7","","","","99.75","","","","-26","","NA"
"-96.98","50.63","GIMLI HARBOUR CS","5031041","2019-01-17 00:00","2019","01","17","00:00","-21.1","","-24.8","","73","","","M","21","","8","","","","99.71","","","","-28","","NA"
"-96.98","50.63","GIMLI HARBOUR CS","5031041","2019-01-17 01:00","2019","01","17","01:00","-21.1","","-24.6","","74","","","M","25","","4","","","","99.70","","","","-25","","NA"
"-96.98","50.63","GIMLI HARBOUR CS","5031041","2019-01-17 02:00","2019","01","17","02:00","-20.8","","-24.3","","73","","","M","30","","4","","","","99.68","","","","-24","","NA"
"-96.98","50.63","GIMLI HARBOUR CS","5031041","2019-01-17 03:00","2019","01","17","03:00","-20.8","","-24.6","","71","","","M","29","","6","","","","99.64","","","","-26","","NA"
"-96.98","50.63","GIMLI HARBOUR CS","5031041","2019-01-17 04:00","2019","01","17","04:00","-20.6","","-24.2","","73","","","M","29","","5","","","","99.58","","","","-25","","NA"
"-96.98","50.63","GIMLI HARBOUR CS","5031041","2019-01-17 05:00","2019","01","17","05:00","-20.4","","-23.7","","75","","","M","31","","8","","","","99.59","","","","-27","","NA"
"-96.98","50.63","GIMLI HARBOUR CS","5031041","2019-01-17 06:00","2019","01","17","06:00","-19.9","","-23.0","","77","","","M","29","","7","","","","99.60","","","","-26","","NA"
"-96.98","50.63","GIMLI HARBOUR CS","5031041","2019-01-17 07:00","2019","01","17","07:00","-19.5","","-22.5","","77","","","M","32","","5","","","","99.56","","","","-24","","NA"
"-96.98","50.63","GIMLI HARBOUR CS","5031041","2019-01-17 08:00","2019","01","17","08:00","-19.4","","-22.4","","77","","","M","31","","6","","","","99.58","","","","-24","","NA"
"-96.98","50.63","GIMLI HARBOUR CS","5031041","2019-01-17 09:00","2019","01","17","09:00","-19.7","","-22.7","","77","","","M","29","","6","","","","99.59","","","","-25","","NA"
"-96.98","50.63","GIMLI HARBOUR CS","5031041","2019-01-17 10:00","2019","01","17","10:00","-19.0","","-22.7","","72","","","M","31","","10","","","","99.64","","","","-26","","NA"
"-96.98","50.63","GIMLI HARBOUR CS","5031041","2019-01-17 11:00","2019","01","17","11:00","-18.4","","-23.1","","66","","","M","32","","13","","","","99.65","","","","-26","","NA"
"-96.98","50.63","GIMLI HARBOUR CS","5031041","2019-01-17 12:00","2019","01","17","12:00","-18.4","","-23.9","","62","","","M","33","","16","","","","99.63","","","","-27","","NA"
"-96.98","50.63","GIMLI HARBOUR CS","5031041","2019-01-17 13:00","2019","01","17","13:00","-18.2","","-23.8","","62","","","M","31","","20","","","","99.57","","","","-28","","NA"
"-96.98","50.63","GIMLI HARBOUR CS","5031041","2019-01-17 14:00","2019","01","17","14:00","-17.6","","-23.4","","60","","","M","31","","13","","","","99.51","","","","-25","","NA"
"-96.98","50.63","GIMLI HARBOUR CS","5031041","2019-01-17 15:00","2019","01","17","15:00","-17.4","","-23.8","","58","","","M","31","","16","","","","99.52","","","","-26","","NA"
"-96.98","50.63","GIMLI HARBOUR CS","5031041","2019-01-17 16:00","2019","01","17","16:00","-17.9","","-24.5","","56","","","M","32","","16","","","","99.58","","","","-27","","NA"
"-96.98","50.63","GIMLI HARBOUR CS","5031041","2019-01-17 17:00","2019","01","17","17:00","-19.6","","-26.1","","56","","","M","34","","12","","","","99.63","","","","-28","","NA"
"-96.98","50.63","GIMLI HARBOUR CS","5031041","2019-01-17 18:00","2019","01","17","18:00","-20.5","","-26.8","","57","","","M","32","","9","","","","99.67","","","","-27","","NA"
"-96.98","50.63","GIMLI HARBOUR CS","5031041","2019-01-17 19:00","2019","01","17","19:00","-22.8","","-27.7","","65","","","M","1","","8","","","","99.71","","","","-30","","NA"
"-96.98","50.63","GIMLI HARBOUR CS","5031041","2019-01-17 20:00","2019","01","17","20:00","-23.5","","-28.4","","64","","","M","35","","9","","","","99.75","","","","-31","","NA"
"-96.98","50.63","GIMLI HARBOUR CS","5031041","2019-01-17 21:00","2019","01","17","21:00","-23.4","","-27.8","","67","","","M","33","","10","","","","99.75","","","","-31","","NA"
"-96.98","50.63","GIMLI HARBOUR CS","5031041","2019-01-17 22:00","2019","01","17","22:00","-25.6","","-29.6","","69","","","M","36","","7","","","","99.84","","","","-32","","NA"
"-96.98","50.63","GIMLI HARBOUR CS","5031041","2019-01-17 23:00","2019","01","17","23:00","-26.0","","-29.4","","73","","","M","30","","7","","","","99.91","","","","-33","","NA"
"-96.98","50.63","GIMLI HARBOUR CS","5031041","2019-01-18 00:00","2019","01","18","00:00","-26.5","","-29.9","","73","","","M","29","","8","","","","99.97","","","","-34","","NA"
"-96.98","50.63","GIMLI HARBOUR CS","5031041","2019-01-18 01:00","2019","01","18","01:00","-27.0","","-30.8","","70","","","M","31","","11","","","","100.01","","","","-36","","NA"
"-96.98","50.63","GIMLI HARBOUR CS","5031041","2019-01-18 02:00","2019","01","18","02:00","-27.3","","-31.1","","70","","","M","31","","10","","","","100.08","","","","-36","","NA"
"-96.98","50.63","GIMLI HARBOUR CS","5031041","2019-01-18 03:00","2019","01","18","03:00","-28.0","","-31.5","","72","","","M","33","","9","","","","100.13","","","","-36","","NA"
"-96.98","50.63","GIMLI HARBOUR CS","5031041","2019-01-18 04:00","2019","01","18","04:00","-28.2","","-32.0","","70","","","M","33","","14","","","","100.15","","","","-39","","NA"
"-96.98","50.63","GIMLI HARBOUR CS","5031041","2019-01-18 05:00","2019","01","18","05:00","-28.6","","-32.3","","70","","","M","34","","14","","","","100.16","","","","-39","","NA"
"-96.98","50.63","GIMLI HARBOUR CS","5031041","2019-01-18 06:00","2019","01","18","06:00","-29.2","","-32.8","","71","","","M","33","","12","","","","100.25","","","","-39","","NA"
"-96.98","50.63","GIMLI HARBOUR CS","5031041","2019-01-18 07:00","2019","01","18","07:00","-29.7","","-32.9","","73","","","M","29","","6","","","","100.31","","","","-36","","NA"
"-96.98","50.63","GIMLI HARBOUR CS","5031041","2019-01-18 08:00","2019","01","18","08:00","-30.0","","-33.3","","73","","","M","30","","11","","","","100.39","","","","-40","","NA"
"-96.98","50.63","GIMLI HARBOUR CS","5031041","2019-01-18 09:00","2019","01","18","09:00","-30.7","","-33.9","","73","","","M","29","","9","","","","100.50","","","","-39","","NA"
"-96.98","50.63","GIMLI HARBOUR CS","5031041","2019-01-18 10:00","2019","01","18","10:00","-29.7","","-33.3","","71","","","M","31","","11","","","","100.57","","","","-39","","NA"
"-96.98","50.63","GIMLI HARBOUR CS","5031041","2019-01-18 11:00","2019","01","18","11:00","-27.8","","-31.7","","69","","","M","32","","5","","","","100.64","","","","-33","","NA"
"-96.98","50.63","GIMLI HARBOUR CS","5031041","2019-01-18 12:00","2019","01","18","12:00","-27.0","","-32.2","","61","","","M","24","","6","","","","100.65","","","","-33","","NA"
"-96.98","50.63","GIMLI HARBOUR CS","5031041","2019-01-18 13:00","2019","01","18","13:00","-25.6","","-31.7","","57","","","M","27","","4","","","","100.64","","","","-30","","NA"
"-96.98","50.63","GIMLI HARBOUR CS","5031041","2019-01-18 14:00","2019","01","18","14:00","-25.1","","-31.9","","53","","","M","32","","5","","","","100.60","","","","-30","","NA"
"-96.98","50.63","GIMLI HARBOUR CS","5031041","2019-01-18 15:00","2019","01","18","15:00","-24.8","","-30.9","","57","","","M","12","","3","","","","100.59","","","","-28","","NA"
"-96.98","50.63","GIMLI HARBOUR CS","5031041","2019-01-18 16:00","2019","01","18","16:00","-25.7","","-30.1","","67","","","M","12","","8","","","","100.62","","","","-33","","NA"
"-96.98","50.63","GIMLI HARBOUR CS","5031041","2019-01-18 17:00","2019","01","18","17:00","-26.7","","-30.5","","70","","","M","16","","8","","","","100.62","","","","-34","","NA"
"-96.98","50.63","GIMLI HARBOUR CS","5031041","2019-01-18 18:00","2019","01","18","18:00","-27.8","","-31.9","","68","","","M","19","","8","","","","100.63","","","","-35","","NA"
"-96.98","50.63","GIMLI HARBOUR CS","5031041","2019-01-18 19:00","2019","01","18","19:00","-28.1","","-32.3","","67","","","M","24","","8","","","","100.62","","","","-36","","NA"
"-96.98","50.63","GIMLI HARBOUR CS","5031041","2019-01-18 20:00","2019","01","18","20:00","-27.8","","-32.1","","67","","","M","27","","6","","","","100.60","","","","-34","","NA"
"-96.98","50.63","GIMLI HARBOUR CS","5031041","2019-01-18 21:00","2019","01","18","21:00","-28.4","","-32.4","","69","","","M","25","","8","","","","100.57","","","","-36","","NA"
"-96.98","50.63","GIMLI HARBOUR CS","5031041","2019-01-18 22:00","2019","01","18","22:00","-28.4","","-31.9","","72","","","M","27","","9","","","","100.57","","","","-37","","NA"
"-96.98","50.63","GIMLI HARBOUR CS","5031041","2019-01-18 23:00","2019","01","18","23:00","-28.4","","-31.8","","72","","","M","25","","8","","","","100.62","","","","-36","","NA"
"-96.98","50.63","GIMLI HARBOUR CS","5031041","2019-01-19 00:00","2019","01","19","00:00","-28.0","","-31.5","","72","","","M","26","","9","","","","100.63","","","","-36","","NA"
"-96.98","50.63","GIMLI HARBOUR CS","5031041","2019-01-19 01:00","2019","01","19","01:00","-28.3","","-31.8","","72","","","M","26","","10","","","","100.59","","","","-37","","NA"
"-96.98","50.63","GIMLI HARBOUR CS","5031041","2019-01-19 02:00","2019","01","19","02:00","-29.3","","-32.6","","73","","","M","21","","4","","","","100.54","","","","-34","","NA"
"-96.98","50.63","GIMLI HARBOUR CS","5031041","2019-01-19 03:00","2019","01","19","03:00","-30.9","","-34.0","","74","","","M","18","","7","","","","100.53","","","","-38","","NA"
"-96.98","50.63","GIMLI HARBOUR CS","5031041","2019-01-19 04:00","2019","01","19","04:00","-30.8","","-33.9","","74","","","M","20","","6","","","","100.47","","","","-37","","NA"
"-96.98","50.63","GIMLI HARBOUR CS","5031041","2019-01-19 05:00","2019","01","19","05:00","-31.5","","-34.6","","74","","","M","22","","3","","","","100.45","","","","-35","","NA"
"-96.98","50.63","GIMLI HARBOUR CS","5031041","2019-01-19 06:00","2019","01","19","06:00","-32.1","","-35.1","","75","","","M","22","","3","","","","100.44","","","","-36","","NA"
"-96.98","50.63","GIMLI HARBOUR CS","5031041","2019-01-19 07:00","2019","01","19","07:00","-32.9","","-36.0","","73","","","M","22","","4","","","","100.45","","","","-38","","NA"
"-96.98","50.63","GIMLI HARBOUR CS","5031041","2019-01-19 08:00","2019","01","19","08:00","-35.8","","-39.0","","73","","","M","30","","1","","","","100.50","","","","-37","","NA"
"-96.98","50.63","GIMLI HARBOUR CS","5031041","2019-01-19 09:00","2019","01","19","09:00","-34.1","","-37.5","","72","","","M","35","","8","","","","100.51","","","","-43","","NA"
"-96.98","50.63","GIMLI HARBOUR CS","5031041","2019-01-19 10:00","2019","01","19","10:00","-32.3","","-36.0","","70","","","M","36","","9","","","","100.51","","","","-41","","NA"
"-96.98","50.63","GIMLI HARBOUR CS","5031041","2019-01-19 11:00","2019","01","19","11:00","-31.3","","-35.2","","68","","","M","1","","9","","","","100.54","","","","-40","","NA"
"-96.98","50.63","GIMLI HARBOUR CS","5031041","2019-01-19 12:00","2019","01","19","12:00","-30.8","","-34.8","","67","","","M","3","","8","","","","100.55","","","","-39","","NA"
"-96.98","50.63","GIMLI HARBOUR CS","5031041","2019-01-19 13:00","2019","01","19","13:00","-30.4","","-34.7","","66","","","M","3","","10","","","","100.51","","","","-40","","NA"
"-96.98","50.63","GIMLI HARBOUR CS","5031041","2019-01-19 14:00","2019","01","19","14:00","-30.6","","-35.1","","65","","","M","2","","16","","","","100.51","","","","-43","","NA"
"-96.98","50.63","GIMLI HARBOUR CS","5031041","2019-01-19 15:00","2019","01","19","15:00","-30.5","","-34.9","","65","","","M","2","","17","","","","100.52","","","","-43","","NA"
"-96.98","50.63","GIMLI HARBOUR CS","5031041","2019-01-19 16:00","2019","01","19","16:00","-30.5","","-34.8","","66","","","M","2","","9","","","","100.59","","","","-39","","NA"
"-96.98","50.63","GIMLI HARBOUR CS","5031041","2019-01-19 17:00","2019","01","19","17:00","-30.6","","-35.6","","62","","","M","35","","10","","","","100.59","","","","-40","","NA"
"-96.98","50.63","GIMLI HARBOUR CS","5031041","2019-01-19 18:00","2019","01","19","18:00","-31.1","","-35.7","","64","","","M","33","","10","","","","100.61","","","","-40","","NA"
"-96.98","50.63","GIMLI HARBOUR CS","5031041","2019-01-19 19:00","2019","01","19","19:00","-31.6","","-35.7","","67","","","M","32","","8","","","","100.59","","","","-40","","NA"
"-96.98","50.63","GIMLI HARBOUR CS","5031041","2019-01-19 20:00","2019","01","19","20:00","-32.1","","-36.2","","67","","","M","1","","17","","","","100.51","","","","-45","","NA"
"-96.98","50.63","GIMLI HARBOUR CS","5031041","2019-01-19 21:00","2019","01","19","21:00","-32.9","","-36.7","","69","","","M","35","","10","","","","100.58","","","","-43","","NA"
"-96.98","50.63","GIMLI HARBOUR CS","5031041","2019-01-19 22:00","2019","01","19","22:00","-33.5","","-37.0","","71","","","M","35","","8","","","","100.65","","","","-42","","NA"
"-96.98","50.63","GIMLI HARBOUR CS","5031041","2019-01-19 23:00","2019","01","19","23:00","-34.2","","-37.6","","71","","","M","36","","12","","","","100.63","","","","-45","","NA"
"-96.98","50.63","GIMLI HARBOUR CS","5031041","2019-01-20 00:00","2019","01","20","00:00","-34.9","","-38.1","","73","","","M","35","","6","","","","100.67","","","","-42","","NA"
"-96.98","50.63","GIMLI HARBOUR CS","5031041","2019-01-20 01:00","2019","01","20","01:00","-35.2","","-38.5","","72","","","M","35","","8","","","","100.69","","","","-44","","NA"
"-96.98","50.63","GIMLI HARBOUR CS","5031041","2019-01-20 02:00","2019","01","20","02:00","-35.5","","-38.8","","72","","","M","36","","10","","","","100.69","","","","-46","","NA"
"-96.98","50.63","GIMLI HARBOUR CS","5031041","2019-01-20 03:00","2019","01","20","03:00","-35.7","","-39.0","","72","","","M","34","","5","","","","100.76","","","","-42","","NA"
"-96.98","50.63","GIMLI HARBOUR CS","5031041","2019-01-20 04:00","2019","01","20","04:00","-35.7","","-39.0","","72","","","M","36","","7","","","","100.75","","","","-44","","NA"
"-96.98","50.63","GIMLI HARBOUR CS","5031041","2019-01-20 05:00","2019","01","20","05:00","-35.7","","-39.0","","72","","","M","1","","7","","","","100.74","","","","-44","","NA"
"-96.98","50.63","GIMLI HARBOUR CS","5031041","2019-01-20 06:00","2019","01","20","06:00","-33.1","","-36.5","","72","","","M","34","","4","","","","100.79","","","","-38","","NA"
"-96.98","50.63","GIMLI HARBOUR CS","5031041","2019-01-20 07:00","2019","01","20","07:00","-33.1","","-36.5","","72","","","M","","","0","","","","100.78","","","","","","NA"
"-96.98","50.63","GIMLI HARBOUR CS","5031041","2019-01-20 08:00","2019","01","20","08:00","-34.3","","-37.8","","71","","","M","0","","1","","","","100.78","","","","-36","","NA"
"-96.98","50.63","GIMLI HARBOUR CS","5031041","2019-01-20 09:00","2019","01","20","09:00","-32.5","","-36.3","","69","","","M","0","","1","","","","100.78","","","","-34","","NA"
"-96.98","50.63","GIMLI HARBOUR CS","5031041","2019-01-20 10:00","2019","01","20","10:00","-31.5","","-35.7","","67","","","M","17","","5","","","","100.81","","","","-37","","NA"
"-96.98","50.63","GIMLI HARBOUR CS","5031041","2019-01-20 11:00","2019","01","20","11:00","-29.2","","-33.5","","66","","","M","16","","11","","","","100.78","","","","-39","","NA"
"-96.98","50.63","GIMLI HARBOUR CS","5031041","2019-01-20 12:00","2019","01","20","12:00","-27.9","","-32.3","","66","","","M","17","","17","","","","100.75","","","","-40","","NA"
"-96.98","50.63","GIMLI HARBOUR CS","5031041","2019-01-20 13:00","2019","01","20","13:00","-25.9","","-30.5","","65","","","M","15","","15","","","","100.66","","","","-36","","NA"
"-96.98","50.63","GIMLI HARBOUR CS","5031041","2019-01-20 14:00","2019","01","20","14:00","-24.8","","-29.6","","64","","","M","15","","14","","","","100.60","","","","-35","","NA"
"-96.98","50.63","GIMLI HARBOUR CS","5031041","2019-01-20 15:00","2019","01","20","15:00","-24.2","","-28.8","","66","","","M","14","","15","","","","100.51","","","","-34","","NA"
"-96.98","50.63","GIMLI HARBOUR CS","5031041","2019-01-20 16:00","2019","01","20","16:00","-24.1","","-28.9","","65","","","M","17","","17","","","","100.46","","","","-35","","NA"
"-96.98","50.63","GIMLI HARBOUR CS","5031041","2019-01-20 17:00","2019","01","20","17:00","-25.1","","-29.3","","68","","","M","17","","9","","","","100.39","","","","-33","","NA"
"-96.98","50.63","GIMLI HARBOUR CS","5031041","2019-01-20 18:00","2019","01","20","18:00","-26.4","","-30.1","","71","","","M","18","","4","","","","100.31","","","","-31","","NA"
"-96.98","50.63","GIMLI HARBOUR CS","5031041","2019-01-20 19:00","2019","01","20","19:00","-27.0","","-30.8","","71","","","M","18","","7","","","","100.21","","","","-34","","NA"
"-96.98","50.63","GIMLI HARBOUR CS","5031041","2019-01-20 20:00","2019","01","20","20:00","-27.4","","-31.0","","71","","","M","18","","13","","","","100.14","","","","-37","","NA"
"-96.98","50.63","GIMLI HARBOUR CS","5031041","2019-01-20 21:00","2019","01","20","21:00","-27.6","","-31.3","","70","","","M","17","","17","","","","100.02","","","","-39","","NA"
"-96.98","50.63","GIMLI HARBOUR CS","5031041","2019-01-20 22:00","2019","01","20","22:00","-27.6","","-31.6","","69","","","M","17","","17","","","","99.90","","","","-39","","NA"
"-96.98","50.63","GIMLI HARBOUR CS","5031041","2019-01-20 23:00","2019","01","20","23:00","-27.1","","-31.4","","67","","","M","17","","18","","","","99.85","","","","-39","","NA"
"-96.98","50.63","GIMLI HARBOUR CS","5031041","2019-01-21 00:00","2019","01","21","00:00","-26.8","","-31.2","","66","","","M","17","","16","","","","99.81","","","","-38","","NA"
"-96.98","50.63","GIMLI HARBOUR CS","5031041","2019-01-21 01:00","2019","01","21","01:00","-26.4","","-30.9","","66","","","M","16","","19","","","","99.71","","","","-38","","NA"
"-96.98","50.63","GIMLI HARBOUR CS","5031041","2019-01-21 02:00","2019","01","21","02:00","-25.1","","-29.7","","65","","","M","17","","22","","","","99.61","","","","-37","","NA"
"-96.98","50.63","GIMLI HARBOUR CS","5031041","2019-01-21 03:00","2019","01","21","03:00","-23.5","","-28.3","","65","","","M","17","","26","","","","99.52","","","","-36","","NA"
"-96.98","50.63","GIMLI HARBOUR CS","5031041","2019-01-21 04:00","2019","01","21","04:00","-22.2","","-26.6","","67","","","M","16","","29","","","","99.41","","","","-35","","NA"
"-96.98","50.63","GIMLI HARBOUR CS","5031041","2019-01-21 05:00","2019","01","21","05:00","-19.6","","-24.2","","67","","","M","18","","26","","","","99.33","","","","-31","","NA"
"-96.98","50.63","GIMLI HARBOUR CS","5031041","2019-01-21 06:00","2019","01","21","06:00","-18.2","","-23.0","","66","","","M","18","","34","","","","99.27","","","","-31","","NA"
"-96.98","50.63","GIMLI HARBOUR CS","5031041","2019-01-21 07:00","2019","01","21","07:00","-17.7","","-22.0","","69","","","M","17","","30","","","","99.21","","","","-30","","NA"
"-96.98","50.63","GIMLI HARBOUR CS","5031041","2019-01-21 08:00","2019","01","21","08:00","-17.2","","-21.7","","68","","","M","18","","25","","","","99.19","","","","-28","","NA"
"-96.98","50.63","GIMLI HARBOUR CS","5031041","2019-01-21 09:00","2019","01","21","09:00","-16.9","","-20.7","","72","","","M","17","","34","","","","99.13","","","","-29","","NA"
"-96.98","50.63","GIMLI HARBOUR CS","5031041","2019-01-21 10:00","2019","01","21","10:00","-16.0","","-20.2","","70","","","M","18","","31","","","","99.12","","","","-28","","NA"
"-96.98","50.63","GIMLI HARBOUR CS","5031041","2019-01-21 11:00","2019","01","21","11:00","-15.0","","-19.4","","69","","","M","19","","23","","","","99.11","","","","-25","","NA"
"-96.98","50.63","GIMLI HARBOUR CS","5031041","2019-01-21 12:00","2019","01","21","12:00","-14.4","","-19.2","","67","","","M","20","","28","","","","99.07","","","","-25","","NA"
"-96.98","50.63","GIMLI HARBOUR CS","5031041","2019-01-21 13:00","2019","01","21","13:00","-13.8","","-18.1","","70","","","M","20","","30","","","","99.06","","","","-24","","NA"
"-96.98","50.63","GIMLI HARBOUR CS","5031041","2019-01-21 14:00","2019","01","21","14:00","-13.8","","-17.6","","73","","","M","20","","31","","","","99.04","","","","-25","","NA"
"-96.98","50.63","GIMLI HARBOUR CS","5031041","2019-01-21 15:00","2019","01","21","15:00","-13.3","","-17.1","","73","","","M","20","","27","","","","98.97","","","","-23","","NA"
"-96.98","50.63","GIMLI HARBOUR CS","5031041","2019-01-21 16:00","2019","01","21","16:00","-13.1","","-16.4","","76","","","M","20","","21","","","","99.04","","","","-22","","NA"
"-96.98","50.63","GIMLI HARBOUR CS","5031041","2019-01-21 17:00","2019","01","21","17:00","-12.9","","-16.5","","74","","","M","20","","20","","","","99.05","","","","-22","","NA"
"-96.98","50.63","GIMLI HARBOUR CS","5031041","2019-01-21 18:00","2019","01","21","18:00","-12.7","","-16.1","","75","","","M","19","","14","","","","99.05","","","","-20","","NA"
"-96.98","50.63","GIMLI HARBOUR CS","5031041","2019-01-21 19:00","2019","01","21","19:00","-12.3","","-15.6","","77","","","M","20","","10","","","","99.08","","","","-18","","NA"
"-96.98","50.63","GIMLI HARBOUR CS","5031041","2019-01-21 20:00","2019","01","21","20:00","-12.2","","-14.8","","81","","","M","20","","11","","","","99.08","","","","-18","","NA"
"-96.98","50.63","GIMLI HARBOUR CS","5031041","2019-01-21 21:00","2019","01","21","21:00","-11.9","","-14.6","","80","","","M","20","","13","","","","99.08","","","","-19","","NA"
"-96.98","50.63","GIMLI HARBOUR CS","5031041","2019-01-21 22:00","2019","01","21","22:00","-11.8","","-14.8","","79","","","M","20","","14","","","","99.09","","","","-19","","NA"
"-96.98","50.63","GIMLI HARBOUR CS","5031041","2019-01-21 23:00","2019","01","21","23:00","-11.8","","-14.9","","78","","","M","20","","14","","","","99.09","","","","-19","","NA"
"-96.98","50.63","GIMLI HARBOUR CS","5031041","2019-01-22 00:00","2019","01","22","00:00","-11.8","","-14.8","","79","","","M","20","","14","","","","99.12","","","","-19","","NA"
"-96.98","50.63","GIMLI HARBOUR CS","5031041","2019-01-22 01:00","2019","01","22","01:00","-11.8","","-14.7","","79","","","M","20","","13","","","","99.10","","","","-18","","NA"
"-96.98","50.63","GIMLI HARBOUR CS","5031041","2019-01-22 02:00","2019","01","22","02:00","-11.9","","-14.6","","80","","","M","19","","10","","","","99.08","","","","-18","","NA"
"-96.98","50.63","GIMLI HARBOUR CS","5031041","2019-01-22 03:00","2019","01","22","03:00","-11.8","","-14.4","","81","","","M","20","","8","","","","99.09","","","","-17","","NA"
"-96.98","50.63","GIMLI HARBOUR CS","5031041","2019-01-22 04:00","2019","01","22","04:00","-11.7","","-14.4","","80","","","M","20","","9","","","","99.05","","","","-17","","NA"
"-96.98","50.63","GIMLI HARBOUR CS","5031041","2019-01-22 05:00","2019","01","22","05:00","-11.7","","-14.3","","81","","","M","22","","5","","","","99.06","","","","-15","","NA"
"-96.98","50.63","GIMLI HARBOUR CS","5031041","2019-01-22 06:00","2019","01","22","06:00","-11.7","","-14.1","","83","","","M","25","","3","","","","99.08","","","","-14","","NA"
"-96.98","50.63","GIMLI HARBOUR CS","5031041","2019-01-22 07:00","2019","01","22","07:00","-11.7","","-14.1","","82","","","M","27","","3","","","","99.08","","","","-14","","NA"
"-96.98","50.63","GIMLI HARBOUR CS","5031041","2019-01-22 08:00","2019","01","22","08:00","-11.8","","-14.4","","81","","","M","31","","8","","","","99.13","","","","-17","","NA"
"-96.98","50.63","GIMLI HARBOUR CS","5031041","2019-01-22 09:00","2019","01","22","09:00","-11.8","","-14.3","","82","","","M","30","","9","","","","99.15","","","","-17","","NA"
"-96.98","50.63","GIMLI HARBOUR CS","5031041","2019-01-22 10:00","2019","01","22","10:00","-11.4","","-14.2","","80","","","M","31","","9","","","","99.17","","","","-17","","NA"
"-96.98","50.63","GIMLI HARBOUR CS","5031041","2019-01-22 11:00","2019","01","22","11:00","-11.2","","-14.5","","76","","","M","32","","14","","","","99.20","","","","-18","","NA"
"-96.98","50.63","GIMLI HARBOUR CS","5031041","2019-01-22 12:00","2019","01","22","12:00","-10.4","","-14.8","","70","","","M","31","","12","","","","99.16","","","","-16","","NA"
"-96.98","50.63","GIMLI HARBOUR CS","5031041","2019-01-22 13:00","2019","01","22","13:00","-10.0","","-15.8","","62","","","M","32","","15","","","","99.09","","","","-17","","NA"
"-96.98","50.63","GIMLI HARBOUR CS","5031041","2019-01-22 14:00","2019","01","22","14:00","-9.8","","-16.6","","58","","","M","30","","13","","","","99.07","","","","-16","","NA"
"-96.98","50.63","GIMLI HARBOUR CS","5031041","2019-01-22 15:00","2019","01","22","15:00","-9.6","","-16.5","","57","","","M","32","","12","","","","99.05","","","","-15","","NA"
"-96.98","50.63","GIMLI HARBOUR CS","5031041","2019-01-22 16:00","2019","01","22","16:00","-9.9","","-16.2","","60","","","M","32","","10","","","","99.04","","","","-15","","NA"
"-96.98","50.63","GIMLI HARBOUR CS","5031041","2019-01-22 17:00","2019","01","22","17:00","-10.2","","-15.9","","63","","","M","31","","5","","","","99.03","","","","-13","","NA"
"-96.98","50.63","GIMLI HARBOUR CS","5031041","2019-01-22 18:00","2019","01","22","18:00","-10.7","","-16.0","","65","","","M","","","0","","","","98.99","","","","","","NA"
"-96.98","50.63","GIMLI HARBOUR CS","5031041","2019-01-22 19:00","2019","01","22","19:00","-11.3","","-15.6","","70","","","M","29","","3","","","","98.96","","","","-13","","NA"
"-96.98","50.63","GIMLI HARBOUR CS","5031041","2019-01-22 20:00","2019","01","22","20:00","-11.4","","-15.5","","71","","","M","28","","3","","","","98.94","","","","-13","","NA"
"-96.98","50.63","GIMLI HARBOUR CS","5031041","2019-01-22 21:00","2019","01","22","21:00","-11.4","","-15.0","","75","","","M","20","","4","","","","98.93","","","","-14","","NA"
"-96.98","50.63","GIMLI HARBOUR CS","5031041","2019-01-22 22:00","2019","01","22","22:00","-11.4","","-14.7","","77","","","M","19","","7","","","","98.86","","","","-16","","NA"
"-96.98","50.63","GIMLI HARBOUR CS","5031041","2019-01-22 23:00","2019","01","22","23:00","-11.3","","-14.4","","78","","","M","19","","10","","","","98.82","","","","-17","","NA"
"-96.98","50.63","GIMLI HARBOUR CS","5031041","2019-01-23 00:00","2019","01","23","00:00","-11.1","","-14.2","","78","","","M","18","","9","","","","98.77","","","","-16","","NA"
"-96.98","50.63","GIMLI HARBOUR CS","5031041","2019-01-23 01:00","2019","01","23","01:00","-11.0","","-13.8","","80","","","M","17","","19","","","","98.68","","","","-19","","NA"
"-96.98","50.63","GIMLI HARBOUR CS","5031041","2019-01-23 02:00","2019","01","23","02:00","-10.8","","-13.7","","80","","","M","18","","21","","","","98.59","","","","-19","","NA"
"-96.98","50.63","GIMLI HARBOUR CS","5031041","2019-01-23 03:00","2019","01","23","03:00","-10.7","","-14.0","","77","","","M","19","","17","","","","98.55","","","","-18","","NA"
"-96.98","50.63","GIMLI HARBOUR CS","5031041","2019-01-23 04:00","2019","01","23","04:00","-10.9","","-14.0","","78","","","M","17","","18","","","","98.44","","","","-19","","NA"
"-96.98","50.63","GIMLI HARBOUR CS","5031041","2019-01-23 05:00","2019","01","23","05:00","-10.8","","-14.1","","76","","","M","18","","20","","","","98.34","","","","-19","","NA"
"-96.98","50.63","GIMLI HARBOUR CS","5031041","2019-01-23 06:00","2019","01","23","06:00","-10.7","","-13.9","","77","","","M","17","","16","","","","98.31","","","","-18","","NA"
"-96.98","50.63","GIMLI HARBOUR CS","5031041","2019-01-23 07:00","2019","01","23","07:00","-10.9","","-14.0","","77","","","M","18","","18","","","","98.23","","","","-19","","NA"
"-96.98","50.63","GIMLI HARBOUR CS","5031041","2019-01-23 08:00","2019","01","23","08:00","-10.9","","-13.7","","80","","","M","17","","23","","","","98.10","","","","-20","","NA"
"-96.98","50.63","GIMLI HARBOUR CS","5031041","2019-01-23 09:00","2019","01","23","09:00","-10.7","","-13.5","","80","","","M","18","","16","","","","98.10","","","","-18","","NA"
"-96.98","50.63","GIMLI HARBOUR CS","5031041","2019-01-23 10:00","2019","01","23","10:00","-10.2","","-12.8","","81","","","M","18","","17","","","","98.08","","","","-17","","NA"
"-96.98","50.63","GIMLI HARBOUR CS","5031041","2019-01-23 11:00","2019","01","23","11:00","-9.9","","-12.6","","81","","","M","18","","18","","","","98.08","","","","-17","","NA"
"-96.98","50.63","GIMLI HARBOUR CS","5031041","2019-01-23 12:00","2019","01","23","12:00","-9.6","","-12.1","","82","","","M","19","","17","","","","98.01","","","","-17","","NA"
"-96.98","50.63","GIMLI HARBOUR CS","5031041","2019-01-23 13:00","2019","01","23","13:00","-9.3","","-12.3","","79","","","M","22","","15","","","","97.98","","","","-16","","NA"
"-96.98","50.63","GIMLI HARBOUR CS","5031041","2019-01-23 14:00","2019","01","23","14:00","-9.4","","-12.0","","81","","","M","22","","14","","","","97.96","","","","-16","","NA"
"-96.98","50.63","GIMLI HARBOUR CS","5031041","2019-01-23 15:00","2019","01","23","15:00","-8.8","","-10.9","","85","","","M","26","","8","","","","98.01","","","","-13","","NA"
"-96.98","50.63","GIMLI HARBOUR CS","5031041","2019-01-23 16:00","2019","01","23","16:00","-8.5","","-11.8","","77","","","M","33","","21","","","","98.10","","","","-16","","NA"
"-96.98","50.63","GIMLI HARBOUR CS","5031041","2019-01-23 17:00","2019","01","23","17:00","-11.3","","-14.2","","79","","","M","35","","31","","","","98.28","","","","-21","","NA"
"-96.98","50.63","GIMLI HARBOUR CS","5031041","2019-01-23 18:00","2019","01","23","18:00","-12.5","","-15.2","","80","","","M","34","","28","","","","98.44","","","","-22","","NA"
"-96.98","50.63","GIMLI HARBOUR CS","5031041","2019-01-23 19:00","2019","01","23","19:00","-13.7","","-17.2","","75","","","M","34","","33","","","","98.63","","","","-25","","NA"
"-96.98","50.63","GIMLI HARBOUR CS","5031041","2019-01-23 20:00","2019","01","23","20:00","-17.6","","-20.9","","76","","","M","33","","30","","","","98.84","","","","-29","","NA"
"-96.98","50.63","GIMLI HARBOUR CS","5031041","2019-01-23 21:00","2019","01","23","21:00","-18.3","","-21.8","","74","","","M","34","","34","","","","98.95","","","","-31","","NA"
"-96.98","50.63","GIMLI HARBOUR CS","5031041","2019-01-23 22:00","2019","01","23","22:00","-19.4","","-23.2","","71","","","M","34","","34","","","","99.08","","","","-32","","NA"
"-96.98","50.63","GIMLI HARBOUR CS","5031041","2019-01-23 23:00","2019","01","23","23:00","-20.2","","-24.5","","69","","","M","34","","33","","","","99.19","","","","-33","","NA"
"-96.98","50.63","GIMLI HARBOUR CS","5031041","2019-01-24 00:00","2019","01","24","00:00","-21.2","","-25.8","","67","","","M","33","","33","","","","99.31","","","","-35","","NA"
"-96.98","50.63","GIMLI HARBOUR CS","5031041","2019-01-24 01:00","2019","01","24","01:00","-22.1","","-26.7","","66","","","M","34","","28","","","","99.39","","","","-35","","NA"
"-96.98","50.63","GIMLI HARBOUR CS","5031041","2019-01-24 02:00","2019","01","24","02:00","-23.2","","-27.4","","68","","","M","33","","27","","","","99.48","","","","-36","","NA"
"-96.98","50.63","GIMLI HARBOUR CS","5031041","2019-01-24 03:00","2019","01","24","03:00","-24.2","","-28.4","","68","","","M","34","","21","","","","99.57","","","","-36","","NA"
"-96.98","50.63","GIMLI HARBOUR CS","5031041","2019-01-24 04:00","2019","01","24","04:00","-25.5","","-29.6","","68","","","M","33","","25","","","","99.65","","","","-39","","NA"
"-96.98","50.63","GIMLI HARBOUR CS","5031041","2019-01-24 05:00","2019","01","24","05:00","-26.3","","-30.2","","70","","","M","33","","22","","","","99.75","","","","-39","","NA"
"-96.98","50.63","GIMLI HARBOUR CS","5031041","2019-01-24 06:00","2019","01","24","06:00","-27.1","","-30.9","","70","","","M","33","","20","","","","99.82","","","","-39","","NA"
"-96.98","50.63","GIMLI HARBOUR CS","5031041","2019-01-24 07:00","2019","01","24","07:00","-27.5","","-31.1","","71","","","M","33","","15","","","","99.85","","","","-38","","NA"
"-96.98","50.63","GIMLI HARBOUR CS","5031041","2019-01-24 08:00","2019","01","24","08:00","-28.0","","-31.5","","72","","","M","31","","13","","","","99.89","","","","-38","","NA"
"-96.98","50.63","GIMLI HARBOUR CS","5031041","2019-01-24 09:00","2019","01","24","09:00","-28.2","","-32.0","","70","","","M","30","","9","","","","99.92","","","","-36","","NA"
"-96.98","50.63","GIMLI HARBOUR CS","5031041","2019-01-24 10:00","2019","01","24","10:00","-27.3","","-31.7","","66","","","M","31","","13","","","","99.91","","","","-37","","NA"
"-96.98","50.63","GIMLI HARBOUR CS","5031041","2019-01-24 11:00","2019","01","24","11:00","-26.7","","-31.8","","62","","","M","31","","13","","","","99.91","","","","-37","","NA"
"-96.98","50.63","GIMLI HARBOUR CS","5031041","2019-01-24 12:00","2019","01","24","12:00","-25.6","","-31.5","","58","","","M","31","","12","","","","99.83","","","","-35","","NA"
"-96.98","50.63","GIMLI HARBOUR CS","5031041","2019-01-24 13:00","2019","01","24","13:00","-24.9","","-31.5","","54","","","M","31","","21","","","","99.75","","","","-37","","NA"
"-96.98","50.63","GIMLI HARBOUR CS","5031041","2019-01-24 14:00","2019","01","24","14:00","-24.1","","-30.6","","55","","","M","31","","11","","","","99.66","","","","-33","","NA"
"-96.98","50.63","GIMLI HARBOUR CS","5031041","2019-01-24 15:00","2019","01","24","15:00","-23.6","","-30.3","","54","","","M","32","","9","","","","99.59","","","","-31","","NA"
"-96.98","50.63","GIMLI HARBOUR CS","5031041","2019-01-24 16:00","2019","01","24","16:00","-23.5","","-30.1","","55","","","M","32","","8","","","","99.55","","","","-30","","NA"
"-96.98","50.63","GIMLI HARBOUR CS","5031041","2019-01-24 17:00","2019","01","24","17:00","-24.0","","-30.4","","56","","","M","31","","4","","","","99.51","","","","-28","","NA"
"-96.98","50.63","GIMLI HARBOUR CS","5031041","2019-01-24 18:00","2019","01","24","18:00","-26.4","","-30.1","","71","","","M","18","","5","","","","99.45","","","","-32","","NA"
"-96.98","50.63","GIMLI HARBOUR CS","5031041","2019-01-24 19:00","2019","01","24","19:00","-26.1","","-29.7","","71","","","M","17","","7","","","","99.34","","","","-33","","NA"
"-96.98","50.63","GIMLI HARBOUR CS","5031041","2019-01-24 20:00","2019","01","24","20:00","-25.4","","-28.9","","72","","","M","16","","11","","","","99.31","","","","-34","","NA"
"-96.98","50.63","GIMLI HARBOUR CS","5031041","2019-01-24 21:00","2019","01","24","21:00","-25.1","","-29.2","","68","","","M","23","","2","","","","99.32","","","","-27","","NA"
"-96.98","50.63","GIMLI HARBOUR CS","5031041","2019-01-24 22:00","2019","01","24","22:00","-25.3","","-28.7","","73","","","M","25","","2","","","","99.29","","","","-27","","NA"
"-96.98","50.63","GIMLI HARBOUR CS","5031041","2019-01-24 23:00","2019","01","24","23:00","-25.1","","-28.2","","75","","","M","","","0","","","","99.23","","","","","","NA"
"-96.98","50.63","GIMLI HARBOUR CS","5031041","2019-01-25 00:00","2019","01","25","00:00","-26.0","","-28.8","","77","","","M","2","","3","","","","99.21","","","","-29","","NA"
"-96.98","50.63","GIMLI HARBOUR CS","5031041","2019-01-25 01:00","2019","01","25","01:00","-27.3","","-30.2","","77","","","M","1","","9","","","","99.21","","","","-35","","NA"
"-96.98","50.63","GIMLI HARBOUR CS","5031041","2019-01-25 02:00","2019","01","25","02:00","-27.7","","-30.7","","75","","","M","1","","7","","","","99.25","","","","-35","","NA"
"-96.98","50.63","GIMLI HARBOUR CS","5031041","2019-01-25 03:00","2019","01","25","03:00","-28.9","","-31.9","","75","","","M","35","","4","","","","99.29","","","","-33","","NA"
"-96.98","50.63","GIMLI HARBOUR CS","5031041","2019-01-25 04:00","2019","01","25","04:00","-30.1","","-33.1","","75","","","M","1","","13","","","","99.35","","","","-41","","NA"
"-96.98","50.63","GIMLI HARBOUR CS","5031041","2019-01-25 05:00","2019","01","25","05:00","-31.2","","-34.5","","73","","","M","35","","7","","","","99.41","","","","-39","","NA"
"-96.98","50.63","GIMLI HARBOUR CS","5031041","2019-01-25 06:00","2019","01","25","06:00","-31.4","","-34.6","","73","","","M","35","","8","","","","99.46","","","","-40","","NA"
"-96.98","50.63","GIMLI HARBOUR CS","5031041","2019-01-25 07:00","2019","01","25","07:00","-31.8","","-35.1","","72","","","M","34","","9","","","","99.52","","","","-41","","NA"
"-96.98","50.63","GIMLI HARBOUR CS","5031041","2019-01-25 08:00","2019","01","25","08:00","-32.9","","-36.2","","72","","","M","33","","4","","","","99.59","","","","-38","","NA"
"-96.98","50.63","GIMLI HARBOUR CS","5031041","2019-01-25 09:00","2019","01","25","09:00","-32.4","","-36.0","","70","","","M","33","","7","","","","99.65","","","","-40","","NA"
"-96.98","50.63","GIMLI HARBOUR CS","5031041","2019-01-25 10:00","2019","01","25","10:00","-31.6","","-35.4","","69","","","M","30","","8","","","","99.70","","","","-40","","NA"
"-96.98","50.63","GIMLI HARBOUR CS","5031041","2019-01-25 11:00","2019","01","25","11:00","-29.7","","-33.9","","67","","","M","33","","9","","","","99.74","","","","-38","","NA"
"-96.98","50.63","GIMLI HARBOUR CS","5031041","2019-01-25 12:00","2019","01","25","12:00","-28.6","","-33.1","","66","","","M","6","","7","","","","99.72","","","","-36","","NA"
"-96.98","50.63","GIMLI HARBOUR CS","5031041","2019-01-25 13:00","2019","01","25","13:00","-28.5","","-33.6","","62","","","M","11","","5","","","","99.70","","","","-34","","NA"
"-96.98","50.63","GIMLI HARBOUR CS","5031041","2019-01-25 14:00","2019","01","25","14:00","-27.8","","-32.8","","62","","","M","13","","5","","","","99.64","","","","-33","","NA"
"-96.98","50.63","GIMLI HARBOUR CS","5031041","2019-01-25 15:00","2019","01","25","15:00","-28.1","","-32.6","","65","","","M","16","","15","","","","99.59","","","","-39","","NA"
"-96.98","50.63","GIMLI HARBOUR CS","5031041","2019-01-25 16:00","2019","01","25","16:00","-28.0","","-32.2","","68","","","M","16","","17","","","","99.55","","","","-40","","NA"
"-96.98","50.63","GIMLI HARBOUR CS","5031041","2019-01-25 17:00","2019","01","25","17:00","-28.0","","-31.6","","71","","","M","18","","11","","","","99.50","","","","-37","","NA"
"-96.98","50.63","GIMLI HARBOUR CS","5031041","2019-01-25 18:00","2019","01","25","18:00","-27.9","","-31.8","","69","","","M","20","","12","","","","99.45","","","","-38","","NA"
"-96.98","50.63","GIMLI HARBOUR CS","5031041","2019-01-25 19:00","2019","01","25","19:00","-28.8","","-32.2","","72","","","M","19","","8","","","","99.36","","","","-37","","NA"
"-96.98","50.63","GIMLI HARBOUR CS","5031041","2019-01-25 20:00","2019","01","25","20:00","-28.5","","-31.8","","73","","","M","20","","12","","","","99.25","","","","-38","","NA"
"-96.98","50.63","GIMLI HARBOUR CS","5031041","2019-01-25 21:00","2019","01","25","21:00","-27.9","","-31.2","","73","","","M","20","","16","","","","99.12","","","","-39","","NA"
"-96.98","50.63","GIMLI HARBOUR CS","5031041","2019-01-25 22:00","2019","01","25","22:00","-27.4","","-30.8","","73","","","M","20","","18","","","","99.05","","","","-39","","NA"
"-96.98","50.63","GIMLI HARBOUR CS","5031041","2019-01-25 23:00","2019","01","25","23:00","-26.8","","-30.3","","72","","","M","20","","13","","","","98.97","","","","-37","","NA"
"-96.98","50.63","GIMLI HARBOUR CS","5031041","2019-01-26 00:00","2019","01","26","00:00","-26.5","","-29.9","","73","","","M","20","","14","","","","98.90","","","","-37","","NA"
"-96.98","50.63","GIMLI HARBOUR CS","5031041","2019-01-26 01:00","2019","01","26","01:00","-25.5","","-29.0","","73","","","M","21","","9","","","","98.82","","","","-33","","NA"
"-96.98","50.63","GIMLI HARBOUR CS","5031041","2019-01-26 02:00","2019","01","26","02:00","-25.7","","-28.8","","75","","","M","","","0","","","","98.75","","","","","","NA"
"-96.98","50.63","GIMLI HARBOUR CS","5031041","2019-01-26 03:00","2019","01","26","03:00","-25.9","","-28.8","","77","","","M","19","","1","","","","98.69","","","","-27","","NA"
"-96.98","50.63","GIMLI HARBOUR CS","5031041","2019-01-26 04:00","2019","01","26","04:00","-26.1","","-28.9","","77","","","M","23","","4","","","","98.73","","","","-30","","NA"
"-96.98","50.63","GIMLI HARBOUR CS","5031041","2019-01-26 05:00","2019","01","26","05:00","-27.4","","-30.1","","77","","","M","34","","4","","","","98.80","","","","-32","","NA"
"-96.98","50.63","GIMLI HARBOUR CS","5031041","2019-01-26 06:00","2019","01","26","06:00","-28.1","","-31.1","","75","","","M","34","","5","","","","98.87","","","","-33","","NA"
"-96.98","50.63","GIMLI HARBOUR CS","5031041","2019-01-26 07:00","2019","01","26","07:00","-28.3","","-31.4","","74","","","M","34","","16","","","","98.94","","","","-40","","NA"
"-96.98","50.63","GIMLI HARBOUR CS","5031041","2019-01-26 08:00","2019","01","26","08:00","-28.7","","-31.9","","74","","","M","34","","16","","","","99.04","","","","-40","","NA"
"-96.98","50.63","GIMLI HARBOUR CS","5031041","2019-01-26 09:00","2019","01","26","09:00","-29.1","","-32.6","","72","","","M","33","","14","","","","99.11","","","","-40","","NA"
"-96.98","50.63","GIMLI HARBOUR CS","5031041","2019-01-26 10:00","2019","01","26","10:00","-28.4","","-32.2","","70","","","M","33","","12","","","","99.18","","","","-38","","NA"
"-96.98","50.63","GIMLI HARBOUR CS","5031041","2019-01-26 11:00","2019","01","26","11:00","-27.0","","-31.9","","63","","","M","34","","13","","","","99.30","","","","-37","","NA"
"-96.98","50.63","GIMLI HARBOUR CS","5031041","2019-01-26 12:00","2019","01","26","12:00","-27.4","","-32.5","","61","","","M","36","","19","","","","99.37","","","","-40","","NA"
"-96.98","50.63","GIMLI HARBOUR CS","5031041","2019-01-26 13:00","2019","01","26","13:00","-27.4","","-32.9","","59","","","M","35","","17","","","","99.44","","","","-39","","NA"
"-96.98","50.63","GIMLI HARBOUR CS","5031041","2019-01-26 14:00","2019","01","26","14:00","-26.3","","-32.9","","54","","","M","33","","15","","","","99.47","","","","-37","","NA"
"-96.98","50.63","GIMLI HARBOUR CS","5031041","2019-01-26 15:00","2019","01","26","15:00","-26.2","","-32.9","","53","","","M","31","","16","","","","99.51","","","","-37","","NA"
"-96.98","50.63","GIMLI HARBOUR CS","5031041","2019-01-26 16:00","2019","01","26","16:00","-26.0","","-33.5","","50","","","M","32","","15","","","","99.58","","","","-36","","NA"
"-96.98","50.63","GIMLI HARBOUR CS","5031041","2019-01-26 17:00","2019","01","26","17:00","-26.9","","-33.9","","51","","","M","33","","13","","","","99.61","","","","-37","","NA"
"-96.98","50.63","GIMLI HARBOUR CS","5031041","2019-01-26 18:00","2019","01","26","18:00","-27.5","","-33.8","","55","","","M","31","","5","","","","99.61","","","","-33","","NA"
"-96.98","50.63","GIMLI HARBOUR CS","5031041","2019-01-26 19:00","2019","01","26","19:00","-28.1","","-33.6","","59","","","M","31","","6","","","","99.60","","","","-34","","NA"
"-96.98","50.63","GIMLI HARBOUR CS","5031041","2019-01-26 20:00","2019","01","26","20:00","-28.4","","-33.7","","60","","","M","31","","7","","","","99.60","","","","-35","","NA"
"-96.98","50.63","GIMLI HARBOUR CS","5031041","2019-01-26 21:00","2019","01","26","21:00","-28.7","","-34.2","","59","","","M","32","","6","","","","99.58","","","","-35","","NA"
"-96.98","50.63","GIMLI HARBOUR CS","5031041","2019-01-26 22:00","2019","01","26","22:00","-30.9","","-34.7","","69","","","M","29","","3","","","","99.53","","","","-34","","NA"
"-96.98","50.63","GIMLI HARBOUR CS","5031041","2019-01-26 23:00","2019","01","26","23:00","-30.7","","-34.4","","70","","","M","31","","3","","","","99.50","","","","-34","","NA"
"-96.98","50.63","GIMLI HARBOUR CS","5031041","2019-01-27 00:00","2019","01","27","00:00","-31.4","","-34.5","","74","","","M","28","","2","","","","99.50","","","","-34","","NA"
"-96.98","50.63","GIMLI HARBOUR CS","5031041","2019-01-27 01:00","2019","01","27","01:00","-33.1","","-36.4","","72","","","M","0","","1","","","","99.47","","","","-34","","NA"
"-96.98","50.63","GIMLI HARBOUR CS","5031041","2019-01-27 02:00","2019","01","27","02:00","-31.7","","-35.0","","73","","","M","13","","4","","","","99.36","","","","-36","","NA"
"-96.98","50.63","GIMLI HARBOUR CS","5031041","2019-01-27 03:00","2019","01","27","03:00","-30.6","","-34.3","","70","","","M","19","","7","","","","99.35","","","","-38","","NA"
"-96.98","50.63","GIMLI HARBOUR CS","5031041","2019-01-27 04:00","2019","01","27","04:00","-28.9","","-33.4","","65","","","M","16","","22","","","","99.14","","","","-42","","NA"
"-96.98","50.63","GIMLI HARBOUR CS","5031041","2019-01-27 05:00","2019","01","27","05:00","-28.9","","-33.5","","65","","","M","18","","24","","","","99.09","","","","-43","","NA"
"-96.98","50.63","GIMLI HARBOUR CS","5031041","2019-01-27 06:00","2019","01","27","06:00","-28.7","","-33.4","","64","","","M","17","","27","","","","98.98","","","","-43","","NA"
"-96.98","50.63","GIMLI HARBOUR CS","5031041","2019-01-27 07:00","2019","01","27","07:00","-28.0","","-32.8","","64","","","M","17","","27","","","","98.81","","","","-42","","NA"
"-96.98","50.63","GIMLI HARBOUR CS","5031041","2019-01-27 08:00","2019","01","27","08:00","-27.5","","-32.2","","64","","","M","16","","28","","","","98.72","","","","-42","","NA"
"-96.98","50.63","GIMLI HARBOUR CS","5031041","2019-01-27 09:00","2019","01","27","09:00","-27.2","","-32.0","","64","","","M","16","","30","","","","98.55","","","","-42","","NA"
"-96.98","50.63","GIMLI HARBOUR CS","5031041","2019-01-27 10:00","2019","01","27","10:00","-26.2","","-31.1","","63","","","M","16","","32","","","","98.47","","","","-41","","NA"
"-96.98","50.63","GIMLI HARBOUR CS","5031041","2019-01-27 11:00","2019","01","27","11:00","-25.0","","-29.8","","64","","","M","16","","34","","","","98.36","","","","-40","","NA"
"-96.98","50.63","GIMLI HARBOUR CS","5031041","2019-01-27 12:00","2019","01","27","12:00","-28.3","","-33.2","","63","","","M","14","","34","","","","98.20","","","","-44","","NA"
"-96.98","50.63","GIMLI HARBOUR CS","5031041","2019-01-27 13:00","2019","01","27","13:00","-27.4","","-33.2","","58","","","M","15","","37","","","","98.12","","","","-44","","NA"
"-96.98","50.63","GIMLI HARBOUR CS","5031041","2019-01-27 14:00","2019","01","27","14:00","-26.6","","-32.0","","60","","","M","14","","35","","","","98.03","","","","-42","","NA"
"-96.98","50.63","GIMLI HARBOUR CS","5031041","2019-01-27 15:00","2019","01","27","15:00","-26.1","","-30.4","","67","","","M","14","","30","","","","98.05","","","","-41","","NA"
"-96.98","50.63","GIMLI HARBOUR CS","5031041","2019-01-27 16:00","2019","01","27","16:00","-26.2","","-29.7","","72","","","M","12","","34","","","","98.07","","","","-41","","NA"
"-96.98","50.63","GIMLI HARBOUR CS","5031041","2019-01-27 17:00","2019","01","27","17:00","-25.8","","-29.0","","74","","","M","13","","31","","","","98.11","","","","-40","","NA"
"-96.98","50.63","GIMLI HARBOUR CS","5031041","2019-01-27 18:00","2019","01","27","18:00","-25.2","","-28.3","","75","","","M","12","","25","","","","98.17","","","","-38","","NA"
"-96.98","50.63","GIMLI HARBOUR CS","5031041","2019-01-27 19:00","2019","01","27","19:00","-25.7","","-28.8","","75","","","M","10","","21","","","","98.31","","","","-38","","NA"
"-96.98","50.63","GIMLI HARBOUR CS","5031041","2019-01-27 20:00","2019","01","27","20:00","-26.1","","-29.1","","76","","","M","10","","13","","","","98.44","","","","-36","","NA"
"-96.98","50.63","GIMLI HARBOUR CS","5031041","2019-01-27 21:00","2019","01","27","21:00","-26.0","","-29.7","","71","","","M","11","","12","","","","98.56","","","","-35","","NA"
"-96.98","50.63","GIMLI HARBOUR CS","5031041","2019-01-27 22:00","2019","01","27","22:00","-25.9","","-29.7","","70","","","M","9","","10","","","","98.66","","","","-34","","NA"
"-96.98","50.63","GIMLI HARBOUR CS","5031041","2019-01-27 23:00","2019","01","27","23:00","-26.0","","-29.4","","73","","","M","12","","10","","","","98.66","","","","-34","","NA"
"-96.98","50.63","GIMLI HARBOUR CS","5031041","2019-01-28 00:00","2019","01","28","00:00","-26.0","","-29.5","","72","","","M","13","","10","","","","98.74","","","","-34","","NA"
"-96.98","50.63","GIMLI HARBOUR CS","5031041","2019-01-28 01:00","2019","01","28","01:00","-26.0","","-29.6","","72","","","M","17","","9","","","","98.80","","","","-34","","NA"
"-96.98","50.63","GIMLI HARBOUR CS","5031041","2019-01-28 02:00","2019","01","28","02:00","-25.9","","-29.1","","75","","","M","22","","6","","","","98.83","","","","-32","","NA"
"-96.98","50.63","GIMLI HARBOUR CS","5031041","2019-01-28 03:00","2019","01","28","03:00","-25.8","","-28.6","","78","","","M","22","","4","","","","98.86","","","","-30","","NA"
"-96.98","50.63","GIMLI HARBOUR CS","5031041","2019-01-28 04:00","2019","01","28","04:00","-25.8","","-28.6","","77","","","M","24","","6","","","","98.88","","","","-32","","NA"
"-96.98","50.63","GIMLI HARBOUR CS","5031041","2019-01-28 05:00","2019","01","28","05:00","-25.5","","-28.2","","78","","","M","24","","7","","","","98.90","","","","-32","","NA"
"-96.98","50.63","GIMLI HARBOUR CS","5031041","2019-01-28 06:00","2019","01","28","06:00","-25.1","","-28.1","","76","","","M","27","","7","","","","98.90","","","","-32","","NA"
"-96.98","50.63","GIMLI HARBOUR CS","5031041","2019-01-28 07:00","2019","01","28","07:00","-24.7","","-28.3","","72","","","M","32","","19","","","","98.96","","","","-36","","NA"
"-96.98","50.63","GIMLI HARBOUR CS","5031041","2019-01-28 08:00","2019","01","28","08:00","-24.8","","-28.2","","73","","","M","32","","19","","","","99.01","","","","-36","","NA"
"-96.98","50.63","GIMLI HARBOUR CS","5031041","2019-01-28 09:00","2019","01","28","09:00","-25.1","","-29.0","","71","","","M","32","","16","","","","99.07","","","","-36","","NA"
"-96.98","50.63","GIMLI HARBOUR CS","5031041","2019-01-28 10:00","2019","01","28","10:00","-24.8","","-29.1","","67","","","M","32","","17","","","","99.08","","","","-36","","NA"
"-96.98","50.63","GIMLI HARBOUR CS","5031041","2019-01-28 11:00","2019","01","28","11:00","-25.1","","-31.1","","57","","","M","33","","24","","","","99.16","","","","-38","","NA"
"-96.98","50.63","GIMLI HARBOUR CS","5031041","2019-01-28 12:00","2019","01","28","12:00","-24.9","","-31.1","","56","","","M","32","","20","","","","99.14","","","","-37","","NA"
"-96.98","50.63","GIMLI HARBOUR CS","5031041","2019-01-28 13:00","2019","01","28","13:00","-24.6","","-30.8","","56","","","M","32","","19","","","","99.10","","","","-36","","NA"
"-96.98","50.63","GIMLI HARBOUR CS","5031041","2019-01-28 14:00","2019","01","28","14:00","-23.9","","-30.4","","55","","","M","32","","14","","","","99.06","","","","-34","","NA"
"-96.98","50.63","GIMLI HARBOUR CS","5031041","2019-01-28 15:00","2019","01","28","15:00","-24.4","","-29.8","","61","","","M","33","","17","","","","99.06","","","","-35","","NA"
"-96.98","50.63","GIMLI HARBOUR CS","5031041","2019-01-28 16:00","2019","01","28","16:00","-24.3","","-30.9","","54","","","M","34","","19","","","","99.05","","","","-36","","NA"
"-96.98","50.63","GIMLI HARBOUR CS","5031041","2019-01-28 17:00","2019","01","28","17:00","-27.9","","-31.4","","72","","","M","2","","15","","","","99.09","","","","-39","","NA"
"-96.98","50.63","GIMLI HARBOUR CS","5031041","2019-01-28 18:00","2019","01","28","18:00","-27.9","","-31.7","","70","","","M","1","","15","","","","99.12","","","","-39","","NA"
"-96.98","50.63","GIMLI HARBOUR CS","5031041","2019-01-28 19:00","2019","01","28","19:00","-28.4","","-33.1","","64","","","M","1","","23","","","","99.18","","","","-42","","NA"
"-96.98","50.63","GIMLI HARBOUR CS","5031041","2019-01-28 20:00","2019","01","28","20:00","-28.9","","-34.3","","60","","","M","35","","17","","","","99.25","","","","-41","","NA"
"-96.98","50.63","GIMLI HARBOUR CS","5031041","2019-01-28 21:00","2019","01","28","21:00","-29.9","","-35.5","","58","","","M","35","","22","","","","99.32","","","","-44","","NA"
"-96.98","50.63","GIMLI HARBOUR CS","5031041","2019-01-28 22:00","2019","01","28","22:00","-30.3","","-35.0","","63","","","M","35","","19","","","","99.38","","","","-43","","NA"
"-96.98","50.63","GIMLI HARBOUR CS","5031041","2019-01-28 23:00","2019","01","28","23:00","-31.3","","-35.7","","65","","","M","35","","24","","","","99.41","","","","-46","","NA"
"-96.98","50.63","GIMLI HARBOUR CS","5031041","2019-01-29 00:00","2019","01","29","00:00","-32.5","","-37.5","","61","","","M","35","","24","","","","99.47","","","","-47","","NA"
"-96.98","50.63","GIMLI HARBOUR CS","5031041","2019-01-29 01:00","2019","01","29","01:00","-33.3","","-37.6","","65","","","M","34","","18","","","","99.53","","","","-47","","NA"
"-96.98","50.63","GIMLI HARBOUR CS","5031041","2019-01-29 02:00","2019","01","29","02:00","-34.2","","-39.7","","58","","","M","34","","22","","","","99.56","","","","-49","","NA"
"-96.98","50.63","GIMLI HARBOUR CS","5031041","2019-01-29 03:00","2019","01","29","03:00","-34.9","","-40.3","","58","","","M","33","","17","","","","99.60","","","","-48","","NA"
"-96.98","50.63","GIMLI HARBOUR CS","5031041","2019-01-29 04:00","2019","01","29","04:00","-35.3","","-40.6","","59","","","M","33","","22","","","","99.62","","","","-50","","NA"
"-96.98","50.63","GIMLI HARBOUR CS","5031041","2019-01-29 05:00","2019","01","29","05:00","-36.0","","-40.4","","63","","","M","33","","21","","","","99.67","","","","-51","","NA"
"-96.98","50.63","GIMLI HARBOUR CS","5031041","2019-01-29 06:00","2019","01","29","06:00","-36.5","","-41.0","","63","","","M","33","","24","","","","99.70","","","","-53","","NA"
"-96.98","50.63","GIMLI HARBOUR CS","5031041","2019-01-29 07:00","2019","01","29","07:00","-37.0","","-41.5","","63","","","M","33","","23","","","","99.78","","","","-53","","NA"
"-96.98","50.63","GIMLI HARBOUR CS","5031041","2019-01-29 08:00","2019","01","29","08:00","-37.6","","-41.5","","67","","","M","33","","19","","","","99.84","","","","-52","","NA"
"-96.98","50.63","GIMLI HARBOUR CS","5031041","2019-01-29 09:00","2019","01","29","09:00","-37.8","","-42.2","","63","","","M","33","","22","","","","99.91","","","","-54","","NA"
"-96.98","50.63","GIMLI HARBOUR CS","5031041","2019-01-29 10:00","2019","01","29","10:00","-37.3","","-42.3","","60","","","M","34","","24","","","","99.95","","","","-54","","NA"
"-96.98","50.63","GIMLI HARBOUR CS","5031041","2019-01-29 11:00","2019","01","29","11:00","-36.9","","-42.5","","56","","","M","35","","18","","","","99.99","","","","-51","","NA"
"-96.98","50.63","GIMLI HARBOUR CS","5031041","2019-01-29 12:00","2019","01","29","12:00","-36.3","","-42.7","","52","","","M","35","","21","","","","100.00","","","","-51","","NA"
"-96.98","50.63","GIMLI HARBOUR CS","5031041","2019-01-29 13:00","2019","01","29","13:00","-35.7","","-42.8","","48","","","M","35","","25","","","","100.00","","","","-52","","NA"
"-96.98","50.63","GIMLI HARBOUR CS","5031041","2019-01-29 14:00","2019","01","29","14:00","-35.8","","-41.7","","55","","","M","33","","19","","","","99.98","","","","-50","","NA"
"-96.98","50.63","GIMLI HARBOUR CS","5031041","2019-01-29 15:00","2019","01","29","15:00","-35.4","","-41.8","","52","","","M","32","","21","","","","99.99","","","","-50","","NA"
"-96.98","50.63","GIMLI HARBOUR CS","5031041","2019-01-29 16:00","2019","01","29","16:00","-35.0","","-41.9","","50","","","M","33","","20","","","","100.04","","","","-49","","NA"
"-96.98","50.63","GIMLI HARBOUR CS","5031041","2019-01-29 17:00","2019","01","29","17:00","-35.5","","-42.1","","51","","","M","33","","19","","","","100.10","","","","-50","","NA"
"-96.98","50.63","GIMLI HARBOUR CS","5031041","2019-01-29 18:00","2019","01","29","18:00","-36.0","","-41.7","","56","","","M","33","","14","","","","100.13","","","","-48","","NA"
"-96.98","50.63","GIMLI HARBOUR CS","5031041","2019-01-29 19:00","2019","01","29","19:00","-36.4","","-42.1","","56","","","M","34","","15","","","","100.13","","","","-49","","NA"
"-96.98","50.63","GIMLI HARBOUR CS","5031041","2019-01-29 20:00","2019","01","29","20:00","-37.1","","-42.3","","58","","","M","34","","9","","","","100.15","","","","-47","","NA"
"-96.98","50.63","GIMLI HARBOUR CS","5031041","2019-01-29 21:00","2019","01","29","21:00","-37.6","","-42.0","","63","","","M","32","","9","","","","100.14","","","","-48","","NA"
"-96.98","50.63","GIMLI HARBOUR CS","5031041","2019-01-29 22:00","2019","01","29","22:00","-38.0","","-42.0","","66","","","M","31","","9","","","","100.12","","","","-48","","NA"
"-96.98","50.63","GIMLI HARBOUR CS","5031041","2019-01-29 23:00","2019","01","29","23:00","-38.8","","-42.6","","67","","","M","30","","11","","","","100.09","","","","-50","","NA"
"-96.98","50.63","GIMLI HARBOUR CS","5031041","2019-01-30 00:00","2019","01","30","00:00","-39.1","","-42.8","","68","","","M","30","","11","","","","100.08","","","","-51","","NA"
"-96.98","50.63","GIMLI HARBOUR CS","5031041","2019-01-30 01:00","2019","01","30","01:00","-39.2","","-42.9","","68","","","M","30","","12","","","","100.04","","","","-51","","NA"
"-96.98","50.63","GIMLI HARBOUR CS","5031041","2019-01-30 02:00","2019","01","30","02:00","-39.8","","-43.6","","67","","","M","29","","11","","","","100.03","","","","-51","","NA"
"-96.98","50.63","GIMLI HARBOUR CS","5031041","2019-01-30 03:00","2019","01","30","03:00","-40.2","","-44.0","","67","","","M","30","","11","","","","100.01","","","","-52","","NA"
"-96.98","50.63","GIMLI HARBOUR CS","5031041","2019-01-30 04:00","2019","01","30","04:00","-40.4","","-44.2","","67","","","M","29","","10","","","","99.99","","","","-52","","NA"
"-96.98","50.63","GIMLI HARBOUR CS","5031041","2019-01-30 05:00","2019","01","30","05:00","-40.4","","-44.2","","67","","","M","29","","9","","","","99.94","","","","-51","","NA"
"-96.98","50.63","GIMLI HARBOUR CS","5031041","2019-01-30 06:00","2019","01","30","06:00","-40.6","","-44.4","","67","","","M","29","","9","","","","99.93","","","","-51","","NA"
"-96.98","50.63","GIMLI HARBOUR CS","5031041","2019-01-30 07:00","2019","01","30","07:00","-40.4","","-44.2","","67","","","M","30","","10","","","","99.91","","","","-52","","NA"
"-96.98","50.63","GIMLI HARBOUR CS","5031041","2019-01-30 08:00","2019","01","30","08:00","-40.4","","-44.3","","67","","","M","30","","9","","","","99.92","","","","-51","","NA"
"-96.98","50.63","GIMLI HARBOUR CS","5031041","2019-01-30 09:00","2019","01","30","09:00","-40.2","","-44.2","","66","","","M","29","","6","","","","99.94","","","","-48","","NA"
"-96.98","50.63","GIMLI HARBOUR CS","5031041","2019-01-30 10:00","2019","01","30","10:00","-38.4","","-42.6","","65","","","M","29","","7","","","","99.91","","","","-47","","NA"
"-96.98","50.63","GIMLI HARBOUR CS","5031041","2019-01-30 11:00","2019","01","30","11:00","-36.1","","-40.4","","65","","","M","29","","6","","","","99.90","","","","-44","","NA"
"-96.98","50.63","GIMLI HARBOUR CS","5031041","2019-01-30 12:00","2019","01","30","12:00","-34.5","","-39.0","","64","","","M","28","","6","","","","99.85","","","","-42","","NA"
"-96.98","50.63","GIMLI HARBOUR CS","5031041","2019-01-30 13:00","2019","01","30","13:00","-34.1","","-38.8","","62","","","M","11","","6","","","","99.80","","","","-41","","NA"
"-96.98","50.63","GIMLI HARBOUR CS","5031041","2019-01-30 14:00","2019","01","30","14:00","-33.9","","-38.3","","65","","","M","12","","10","","","","99.75","","","","-44","","NA"
"-96.98","50.63","GIMLI HARBOUR CS","5031041","2019-01-30 15:00","2019","01","30","15:00","-33.6","","-38.0","","65","","","M","13","","9","","","","99.74","","","","-43","","NA"
"-96.98","50.63","GIMLI HARBOUR CS","5031041","2019-01-30 16:00","2019","01","30","16:00","-33.5","","-37.9","","65","","","M","13","","8","","","","99.76","","","","-42","","NA"
"-96.98","50.63","GIMLI HARBOUR CS","5031041","2019-01-30 17:00","2019","01","30","17:00","-33.9","","-37.9","","67","","","M","13","","8","","","","99.74","","","","-43","","NA"
"-96.98","50.63","GIMLI HARBOUR CS","5031041","2019-01-30 18:00","2019","01","30","18:00","-34.5","","-38.7","","66","","","M","22","","3","","","","99.76","","","","-38","","NA"
"-96.98","50.63","GIMLI HARBOUR CS","5031041","2019-01-30 19:00","2019","01","30","19:00","-35.4","","-39.2","","68","","","M","19","","5","","","","99.70","","","","-42","","NA"
"-96.98","50.63","GIMLI HARBOUR CS","5031041","2019-01-30 20:00","2019","01","30","20:00","-35.7","","-39.4","","69","","","M","18","","7","","","","99.68","","","","-44","","NA"
"-96.98","50.63","GIMLI HARBOUR CS","5031041","2019-01-30 21:00","2019","01","30","21:00","-36.6","","-40.0","","71","","","M","23","","3","","","","99.68","","","","-41","","NA"
"-96.98","50.63","GIMLI HARBOUR CS","5031041","2019-01-30 22:00","2019","01","30","22:00","-36.9","","-40.3","","71","","","M","24","","5","","","","99.68","","","","-43","","NA"
"-96.98","50.63","GIMLI HARBOUR CS","5031041","2019-01-30 23:00","2019","01","30","23:00","-37.3","","-40.7","","71","","","M","22","","8","","","","99.65","","","","-47","","NA"
"-96.98","50.63","GIMLI HARBOUR CS","5031041","2019-01-31 00:00","2019","01","31","00:00","-37.3","","-40.7","","71","","","M","24","","8","","","","99.65","","","","-47","","NA"
"-96.98","50.63","GIMLI HARBOUR CS","5031041","2019-01-31 01:00","2019","01","31","01:00","-38.2","","-41.6","","70","","","M","22","","3","","","","99.64","","","","-42","","NA"
"-96.98","50.63","GIMLI HARBOUR CS","5031041","2019-01-31 02:00","2019","01","31","02:00","-38.5","","-42.0","","70","","","M","18","","5","","","","99.61","","","","-45","","NA"
"-96.98","50.63","GIMLI HARBOUR CS","5031041","2019-01-31 03:00","2019","01","31","03:00","-37.3","","-40.7","","70","","","M","16","","6","","","","99.53","","","","-45","","NA"
"-96.98","50.63","GIMLI HARBOUR CS","5031041","2019-01-31 04:00","2019","01","31","04:00","-36.7","","-40.3","","70","","","M","18","","8","","","","99.53","","","","-46","","NA"
"-96.98","50.63","GIMLI HARBOUR CS","5031041","2019-01-31 05:00","2019","01","31","05:00","-36.8","","-40.2","","70","","","M","20","","5","","","","99.51","","","","-43","","NA"
"-96.98","50.63","GIMLI HARBOUR CS","5031041","2019-01-31 06:00","2019","01","31","06:00","-35.5","","-38.9","","71","","","M","17","","13","","","","99.47","","","","-47","","NA"
"-96.98","50.63","GIMLI HARBOUR CS","5031041","2019-01-31 07:00","2019","01","31","07:00","-35.0","","-38.4","","71","","","M","16","","16","","","","99.42","","","","-48","","NA"
"-96.98","50.63","GIMLI HARBOUR CS","5031041","2019-01-31 08:00","2019","01","31","08:00","-34.8","","-38.2","","71","","","M","16","","14","","","","99.45","","","","-47","","NA"
"-96.98","50.63","GIMLI HARBOUR CS","5031041","2019-01-31 09:00","2019","01","31","09:00","-34.8","","-38.4","","70","","","M","16","","17","","","","99.36","","","","-48","","NA"
"-96.98","50.63","GIMLI HARBOUR CS","5031041","2019-01-31 10:00","2019","01","31","10:00","-33.8","","-37.4","","70","","","M","17","","22","","","","99.38","","","","-49","","NA"
"-96.98","50.63","GIMLI HARBOUR CS","5031041","2019-01-31 11:00","2019","01","31","11:00","-32.6","","-36.5","","68","","","M","16","","19","","","","99.41","","","","-46","","NA"
"-96.98","50.63","GIMLI HARBOUR CS","5031041","2019-01-31 12:00","2019","01","31","12:00","-31.2","","-35.1","","68","","","M","16","","22","","","","99.34","","","","-45","","NA"
"-96.98","50.63","GIMLI HARBOUR CS","5031041","2019-01-31 13:00","2019","01","31","13:00","-29.8","","-34.2","","65","","","M","17","","26","","","","99.34","","","","-44","","NA"
"-96.98","50.63","GIMLI HARBOUR CS","5031041","2019-01-31 14:00","2019","01","31","14:00","-28.9","","-34.3","","60","","","M","16","","28","","","","99.28","","","","-44","","NA"
"-96.98","50.63","GIMLI HARBOUR CS","5031041","2019-01-31 15:00","2019","01","31","15:00","-28.2","","-33.8","","58","","","M","17","","31","","","","99.18","","","","-43","","NA"
"-96.98","50.63","GIMLI HARBOUR CS","5031041","2019-01-31 16:00","2019","01","31","16:00","-27.4","","-33.6","","56","","","M","17","","29","","","","99.15","","","","-42","","NA"
"-96.98","50.63","GIMLI HARBOUR CS","5031041","2019-01-31 17:00","2019","01","31","17:00","-26.8","","-33.1","","55","","","M","18","","30","","","","99.11","","","","-41","","NA"
"-96.98","50.63","GIMLI HARBOUR CS","5031041","2019-01-31 18:00","2019","01","31","18:00","-26.5","","-32.5","","57","","","M","18","","27","","","","99.09","","","","-40","","NA"
"-96.98","50.63","GIMLI HARBOUR CS","5031041","2019-01-31 19:00","2019","01","31","19:00","-26.3","","-31.7","","60","","","M","17","","31","","","","99.01","","","","-41","","NA"
"-96.98","50.63","GIMLI HARBOUR CS","5031041","2019-01-31 20:00","2019","01","31","20:00","-26.3","","-32.3","","57","","","M","18","","32","","","","98.95","","","","-41","","NA"
"-96.98","50.63","GIMLI HARBOUR CS","5031041","2019-01-31 21:00","2019","01","31","21:00","-26.6","","-32.3","","59","","","M","18","","27","","","","98.97","","","","-41","","NA"
"-96.98","50.63","GIMLI HARBOUR CS","5031041","2019-01-31 22:00","2019","01","31","22:00","-26.9","","-32.1","","62","","","M","18","","27","","","","98.91","","","","-41","","NA"
"-96.98","50.63","GIMLI HARBOUR CS","5031041","2019-01-31 23:00","2019","01","31","23:00","-27.6","","-31.8","","67","","","M","17","","15","","","","98.88","","","","-38","","NA"
