"Longitude (x)","Latitude (y)","Station Name","Climate ID","Date/Time (LST)","Year","Month","Day","Time (LST)","Temp (°C)","Temp Flag","Dew Point Temp (°C)","Dew Point Temp Flag","Rel Hum (%)","Rel Hum Flag","Precip. Amount (mm)","Precip. Amount Flag","Wind Dir (10s deg)","Wind Dir Flag","Wind Spd (km/h)","Wind Spd Flag","Visibility (km)","Visibility Flag","Stn Press (kPa)","Stn Press Flag","Hmdx","Hmdx Flag","Wind Chill","Wind Chill Flag","Weather"
"-114.44","62.46","YELLOWKNIFE A","2204100","2012-02-01 00:00","2012","02","01","00:00","-20.5","","-24.0","","74","","","","10","","13","","24.1","","97.80","","","","-29","","Mainly Clear"
"-114.44","62.46","YELLOWKNIFE A","2204100","2012-02-01 01:00","2012","02","01","01:00","-20.3","","-23.8","","74","","","","10","","15","","24.1","","97.78","","","","-29","","Mainly Clear"
"-114.44","62.46","YELLOWKNIFE A","2204100","2012-02-01 02:00","2012","02","01","02:00","-20.5","","-23.9","","74","","","","8","","13","","24.1","","97.78","","","","-29","","Mainly Clear"
"-114.44","62.46","YELLOWKNIFE A","2204100","2012-02-01 03:00","2012","02","01","03:00","-19.8","","-23.3","","74","","","","11","","11","","24.1","","97.79","","","","-27","","Mainly Clear"
"-114.44","62.46","YELLOWKNIFE A","2204100","2012-02-01 04:00","2012","02","01","04:00","-19.7","","-23.1","","74","","","","11","","11","","24.1","","97.82","","","","-27","","Snow"
"-114.44","62.46","YELLOWKNIFE A","2204100","2012-02-01 05:00","2012","02","01","05:00","-19.9","","-23.4","","74","","","","8","","6","","24.1","","97.83","","","","-25","","Snow"
"-114.44","62.46","YELLOWKNIFE A","2204100","2012-02-01 06:00","2012","02","01","06:00","-19.5","","-22.8","","75","","","","10","","9","","24.1","","97.88","","","","-26","","Snow"
"-114.44","62.46","YELLOWKNIFE A","2204100","2012-02-01 07:00","2012","02","01","07:00","-19.5","","-22.9","","74","","","","9","","11","","24.1","","97.92","","","","-27","","Snow"
"-114.44","62.46","YELLOWKNIFE A","2204100","2012-02-01 08:00","2012","02","01","08:00","-19.1","","-22.3","","76","","","","11","","7","","24.1","","97.96","","","","-25","","Snow"
"-114.44","62.46","YELLOWKNIFE A","2204100","2012-02-01 09:00","2012","02","01","09:00","-19.4","","-22.7","","75","","","","8","","7","","24.1","","98.04","","","","-25","","Mostly Cloudy"
"-114.44","62.46","YELLOWKNIFE A","2204100","2012-02-01 10:00","2012","02","01","10:00","-19.9","","-23.2","","75","","","","3","","4","","24.1","","98.16","","","","-23","","Mostly Cloudy"
"-114.44","62.46","YELLOWKNIFE A","2204100","2012-02-01 11:00","2012","02","01","11:00","-18.3","","-21.4","","77","","","","5","","4","","24.1","","98.22","","","","-22","","Mostly Cloudy"
"-114.44","62.46","YELLOWKNIFE A","2204100","2012-02-01 12:00","2012","02","01","12:00","-17.6","","-20.1","","81","","","","3","","4","","16.1","","98.27","","","","-21","","Snow"
"-114.44","62.46","YELLOWKNIFE A","2204100","2012-02-01 13:00","2012","02","01","13:00","-17.0","","-19.5","","81","","","","1","","4","","16.1","","98.36","","","","-20","","Snow"
"-114.44","62.46","YELLOWKNIFE A","2204100","2012-02-01 14:00","2012","02","01","14:00","-16.9","","-19.5","","80","","","","2","","11","","24.1","","98.42","","","","-24","","Snow"
"-114.44","62.46","YELLOWKNIFE A","2204100","2012-02-01 15:00","2012","02","01","15:00","-17.0","","-19.8","","79","","","","1","","4","","24.1","","98.54","","","","-20","","Snow"
"-114.44","62.46","YELLOWKNIFE A","2204100","2012-02-01 16:00","2012","02","01","16:00","-17.4","","-20.3","","78","","","","33","","4","","24.1","","98.66","","","","-21","","Snow Showers"
"-114.44","62.46","YELLOWKNIFE A","2204100","2012-02-01 17:00","2012","02","01","17:00","-17.9","","-21.0","","77","","","","","","0","","24.1","","98.78","","","","","","Snow Showers"
"-114.44","62.46","YELLOWKNIFE A","2204100","2012-02-01 18:00","2012","02","01","18:00","-18.9","","-21.9","","77","","","","36","","4","","24.1","","98.89","","","","-22","","Snow Showers"
"-114.44","62.46","YELLOWKNIFE A","2204100","2012-02-01 19:00","2012","02","01","19:00","-18.8","","-21.9","","76","","","","4","","4","","24.1","","98.93","","","","-22","","Mostly Cloudy"
"-114.44","62.46","YELLOWKNIFE A","2204100","2012-02-01 20:00","2012","02","01","20:00","-18.3","","-21.2","","78","","","","10","","4","","24.1","","99.01","","","","-22","","Snow"
"-114.44","62.46","YELLOWKNIFE A","2204100","2012-02-01 21:00","2012","02","01","21:00","-18.1","","-20.8","","79","","","","","","0","","24.1","","99.12","","","","","","Snow"
"-114.44","62.46","YELLOWKNIFE A","2204100","2012-02-01 22:00","2012","02","01","22:00","-18.4","","-21.2","","79","","","","12","","6","","24.1","","99.13","","","","-23","","Snow"
"-114.44","62.46","YELLOWKNIFE A","2204100","2012-02-01 23:00","2012","02","01","23:00","-18.3","","-21.1","","79","","","","11","","4","","24.1","","99.15","","","","-22","","Snow"
"-114.44","62.46","YELLOWKNIFE A","2204100","2012-02-02 00:00","2012","02","02","00:00","-18.6","","-21.5","","78","","","","12","","7","","24.1","","99.23","","","","-24","","Snow"
"-114.44","62.46","YELLOWKNIFE A","2204100","2012-02-02 01:00","2012","02","02","01:00","-19.3","","-22.4","","76","","","","11","","9","","16.1","","99.24","","","","-26","","Snow"
"-114.44","62.46","YELLOWKNIFE A","2204100","2012-02-02 02:00","2012","02","02","02:00","-19.7","","-22.7","","77","","","","12","","9","","16.1","","99.22","","","","-26","","Snow"
"-114.44","62.46","YELLOWKNIFE A","2204100","2012-02-02 03:00","2012","02","02","03:00","-19.7","","-22.8","","76","","","","14","","7","","16.1","","99.24","","","","-25","","Snow"
"-114.44","62.46","YELLOWKNIFE A","2204100","2012-02-02 04:00","2012","02","02","04:00","-20.2","","-23.3","","76","","","","14","","9","","16.1","","99.20","","","","-27","","Snow"
"-114.44","62.46","YELLOWKNIFE A","2204100","2012-02-02 05:00","2012","02","02","05:00","-19.9","","-23.1","","76","","","","13","","11","","24.1","","99.17","","","","-28","","Snow"
"-114.44","62.46","YELLOWKNIFE A","2204100","2012-02-02 06:00","2012","02","02","06:00","-19.5","","-22.6","","76","","","","13","","22","","16.1","","99.07","","","","-30","","Snow"
"-114.44","62.46","YELLOWKNIFE A","2204100","2012-02-02 07:00","2012","02","02","07:00","-18.6","","-21.5","","78","","","","12","","22","","8.0","","98.94","","","","-29","","Snow"
"-114.44","62.46","YELLOWKNIFE A","2204100","2012-02-02 08:00","2012","02","02","08:00","-16.6","","-19.0","","82","","","","13","","19","","9.7","","98.81","","","","-26","","Snow"
"-114.44","62.46","YELLOWKNIFE A","2204100","2012-02-02 09:00","2012","02","02","09:00","-15.0","","-17.1","","84","","","","13","","22","","8.0","","98.65","","","","-25","","Snow"
"-114.44","62.46","YELLOWKNIFE A","2204100","2012-02-02 10:00","2012","02","02","10:00","-13.3","","-14.8","","88","","","","13","","19","","24.1","","98.45","","","","-22","","Snow"
"-114.44","62.46","YELLOWKNIFE A","2204100","2012-02-02 11:00","2012","02","02","11:00","-11.1","","-11.9","","94","","","","15","","28","","24.1","","98.35","","","","-21","","Snow"
"-114.44","62.46","YELLOWKNIFE A","2204100","2012-02-02 12:00","2012","02","02","12:00","-9.7","","-10.4","","95","","","","15","","28","","24.1","","98.14","","","","-19","","Snow"
"-114.44","62.46","YELLOWKNIFE A","2204100","2012-02-02 13:00","2012","02","02","13:00","-9.1","","-9.9","","94","","","","16","","28","","24.1","","98.05","","","","-18","","Snow"
"-114.44","62.46","YELLOWKNIFE A","2204100","2012-02-02 14:00","2012","02","02","14:00","-8.2","","-8.9","","95","","","","16","","28","","24.1","","97.91","","","","-17","","Mainly Clear"
"-114.44","62.46","YELLOWKNIFE A","2204100","2012-02-02 15:00","2012","02","02","15:00","-6.5","","-7.7","","91","","","","16","","19","","24.1","","97.89","","","","-13","","Mainly Clear"
"-114.44","62.46","YELLOWKNIFE A","2204100","2012-02-02 16:00","2012","02","02","16:00","-6.2","","-7.6","","90","","","","16","","17","","24.1","","97.91","","","","-12","","Mainly Clear"
"-114.44","62.46","YELLOWKNIFE A","2204100","2012-02-02 17:00","2012","02","02","17:00","-6.9","","-8.1","","91","","","","17","","7","","24.1","","97.92","","","","-10","","Mainly Clear"
"-114.44","62.46","YELLOWKNIFE A","2204100","2012-02-02 18:00","2012","02","02","18:00","-5.2","","-6.6","","90","","","","23","","15","","24.1","","98.01","","","","-11","","Mostly Cloudy"
"-114.44","62.46","YELLOWKNIFE A","2204100","2012-02-02 19:00","2012","02","02","19:00","-2.0","","-5.0","","80","","","","24","","13","","24.1","","98.04","","","","-6","","Mainly Clear"
"-114.44","62.46","YELLOWKNIFE A","2204100","2012-02-02 20:00","2012","02","02","20:00","-1.7","","-4.8","","79","","","","26","","17","","24.1","","98.11","","","","-7","","Clear"
"-114.44","62.46","YELLOWKNIFE A","2204100","2012-02-02 21:00","2012","02","02","21:00","-1.8","","-5.1","","78","","","","26","","19","","24.1","","98.20","","","","-7","","Clear"
"-114.44","62.46","YELLOWKNIFE A","2204100","2012-02-02 22:00","2012","02","02","22:00","-1.7","","-5.1","","78","","","","26","","19","","24.1","","98.27","","","","-7","","Clear"
"-114.44","62.46","YELLOWKNIFE A","2204100","2012-02-02 23:00","2012","02","02","23:00","-2.0","","-4.9","","81","","","","26","","11","","24.1","","98.36","","","","-6","","Mainly Clear"
"-114.44","62.46","YELLOWKNIFE A","2204100","2012-02-03 00:00","2012","02","03","00:00","-2.5","","-4.7","","85","","","","25","","11","","24.1","","98.46","","","","-7","","Mostly Cloudy"
"-114.44","62.46","YELLOWKNIFE A","2204100","2012-02-03 01:00","2012","02","03","01:00","-1.9","","-4.4","","83","","","","25","","15","","24.1","","98.55","","","","-7","","Mainly Clear"
"-114.44","62.46","YELLOWKNIFE A","2204100","2012-02-03 02:00","2012","02","03","02:00","-2.5","","-4.6","","85","","","","28","","11","","24.1","","98.58","","","","-7","","Mainly Clear"
"-114.44","62.46","YELLOWKNIFE A","2204100","2012-02-03 03:00","2012","02","03","03:00","-3.0","","-5.1","","85","","","","26","","15","","24.1","","98.68","","","","-8","","Mainly Clear"
"-114.44","62.46","YELLOWKNIFE A","2204100","2012-02-03 04:00","2012","02","03","04:00","-3.1","","-5.4","","84","","","","26","","11","","24.1","","98.74","","","","-7","","Mainly Clear"
"-114.44","62.46","YELLOWKNIFE A","2204100","2012-02-03 05:00","2012","02","03","05:00","-6.2","","-7.1","","93","","","","18","","4","","24.1","","98.76","","","","-8","","Mainly Clear"
"-114.44","62.46","YELLOWKNIFE A","2204100","2012-02-03 06:00","2012","02","03","06:00","-7.4","","-8.2","","94","","","","15","","11","","24.1","","98.78","","","","-12","","Mainly Clear"
"-114.44","62.46","YELLOWKNIFE A","2204100","2012-02-03 07:00","2012","02","03","07:00","-8.6","","-9.5","","93","","","","15","","15","","24.1","","98.77","","","","-15","","Mainly Clear"
"-114.44","62.46","YELLOWKNIFE A","2204100","2012-02-03 08:00","2012","02","03","08:00","-9.3","","-10.3","","92","","","","16","","7","","24.1","","98.81","","","","-13","","Mainly Clear"
"-114.44","62.46","YELLOWKNIFE A","2204100","2012-02-03 09:00","2012","02","03","09:00","-9.0","","-10.0","","92","","","","14","","11","","24.1","","98.76","","","","-14","","Mainly Clear"
"-114.44","62.46","YELLOWKNIFE A","2204100","2012-02-03 10:00","2012","02","03","10:00","-8.7","","-10.1","","90","","","","14","","7","","24.1","","98.76","","","","-13","","Mainly Clear"
"-114.44","62.46","YELLOWKNIFE A","2204100","2012-02-03 11:00","2012","02","03","11:00","-8.3","","-9.8","","89","","","","15","","15","","24.1","","98.74","","","","-15","","Mainly Clear"
"-114.44","62.46","YELLOWKNIFE A","2204100","2012-02-03 12:00","2012","02","03","12:00","-7.3","","-9.1","","87","","","","14","","11","","24.1","","98.70","","","","-12","","Mostly Cloudy"
"-114.44","62.46","YELLOWKNIFE A","2204100","2012-02-03 13:00","2012","02","03","13:00","-6.0","","-8.0","","86","","","","15","","19","","24.1","","98.71","","","","-13","","Mostly Cloudy"
"-114.44","62.46","YELLOWKNIFE A","2204100","2012-02-03 14:00","2012","02","03","14:00","-5.7","","-7.5","","87","","","","15","","19","","24.1","","98.65","","","","-12","","Mostly Cloudy"
"-114.44","62.46","YELLOWKNIFE A","2204100","2012-02-03 15:00","2012","02","03","15:00","-5.1","","-6.7","","89","","","","15","","19","","24.1","","98.58","","","","-12","","Mostly Cloudy"
"-114.44","62.46","YELLOWKNIFE A","2204100","2012-02-03 16:00","2012","02","03","16:00","-5.1","","-6.6","","89","","","","15","","19","","24.1","","98.52","","","","-12","","Mostly Cloudy"
"-114.44","62.46","YELLOWKNIFE A","2204100","2012-02-03 17:00","2012","02","03","17:00","-3.9","","-5.7","","87","","","","14","","20","","24.1","","98.48","","","","-10","","Mostly Cloudy"
"-114.44","62.46","YELLOWKNIFE A","2204100","2012-02-03 18:00","2012","02","03","18:00","-2.5","","-4.3","","87","","","","15","","19","","24.1","","98.31","","","","-8","","Mostly Cloudy"
"-114.44","62.46","YELLOWKNIFE A","2204100","2012-02-03 19:00","2012","02","03","19:00","-1.5","","-3.4","","87","","","","16","","19","","24.1","","98.22","","","","-7","","Mostly Cloudy"
"-114.44","62.46","YELLOWKNIFE A","2204100","2012-02-03 20:00","2012","02","03","20:00","-1.1","","-3.0","","87","","","","18","","19","","24.1","","98.13","","","","-6","","Mostly Cloudy"
"-114.44","62.46","YELLOWKNIFE A","2204100","2012-02-03 21:00","2012","02","03","21:00","-0.7","","-2.2","","90","","","","15","","22","","24.1","","98.04","","","","-6","","Mostly Cloudy"
"-114.44","62.46","YELLOWKNIFE A","2204100","2012-02-03 22:00","2012","02","03","22:00","0.7","","-1.4","","86","","","","21","","19","","24.1","","97.99","","","","","","Mostly Cloudy"
"-114.44","62.46","YELLOWKNIFE A","2204100","2012-02-03 23:00","2012","02","03","23:00","2.7","","-1.3","","75","","","","24","","19","","24.1","","98.10","","","","","","Mainly Clear"
"-114.44","62.46","YELLOWKNIFE A","2204100","2012-02-04 00:00","2012","02","04","00:00","2.1","","-2.2","","73","","","","24","","15","","24.1","","98.22","","","","","","Mainly Clear"
"-114.44","62.46","YELLOWKNIFE A","2204100","2012-02-04 01:00","2012","02","04","01:00","3.3","","-3.3","","62","","","","24","","19","","24.1","","98.27","","","","","","Clear"
"-114.44","62.46","YELLOWKNIFE A","2204100","2012-02-04 02:00","2012","02","04","02:00","2.7","","-4.4","","59","","","","24","","19","","24.1","","98.35","","","","","","Clear"
"-114.44","62.46","YELLOWKNIFE A","2204100","2012-02-04 03:00","2012","02","04","03:00","1.1","","-5.3","","62","","","","24","","15","","24.1","","98.45","","","","","","Mainly Clear"
"-114.44","62.46","YELLOWKNIFE A","2204100","2012-02-04 04:00","2012","02","04","04:00","1.4","","-6.3","","56","","","","24","","15","","24.1","","98.51","","","","","","Mainly Clear"
"-114.44","62.46","YELLOWKNIFE A","2204100","2012-02-04 05:00","2012","02","04","05:00","1.9","","-6.8","","52","","","","25","","19","","24.1","","98.59","","","","","","Mainly Clear"
"-114.44","62.46","YELLOWKNIFE A","2204100","2012-02-04 06:00","2012","02","04","06:00","0.7","","-7.2","","55","","","","25","","19","","24.1","","98.67","","","","","","Clear"
"-114.44","62.46","YELLOWKNIFE A","2204100","2012-02-04 07:00","2012","02","04","07:00","0.0","","-7.7","","56","","","","27","","19","","24.1","","98.75","","","","-5","","Clear"
"-114.44","62.46","YELLOWKNIFE A","2204100","2012-02-04 08:00","2012","02","04","08:00","-0.3","","-8.0","","56","","","","27","","15","","24.1","","98.83","","","","-5","","Mainly Clear"
"-114.44","62.46","YELLOWKNIFE A","2204100","2012-02-04 09:00","2012","02","04","09:00","-1.4","","-8.6","","58","","","","25","","9","","24.1","","98.91","","","","-5","","Mainly Clear"
"-114.44","62.46","YELLOWKNIFE A","2204100","2012-02-04 10:00","2012","02","04","10:00","-3.9","","-9.2","","67","","","","21","","6","","24.1","","99.00","","","","-7","","Mainly Clear"
"-114.44","62.46","YELLOWKNIFE A","2204100","2012-02-04 11:00","2012","02","04","11:00","-3.0","","-8.9","","64","","","","24","","9","","24.1","","99.05","","","","-7","","Mainly Clear"
"-114.44","62.46","YELLOWKNIFE A","2204100","2012-02-04 12:00","2012","02","04","12:00","-1.5","","-8.8","","57","","","","25","","11","","24.1","","99.08","","","","-5","","Mainly Clear"
"-114.44","62.46","YELLOWKNIFE A","2204100","2012-02-04 13:00","2012","02","04","13:00","-0.4","","-8.7","","53","","","","27","","7","","24.1","","99.08","","","","-3","","Mainly Clear"
"-114.44","62.46","YELLOWKNIFE A","2204100","2012-02-04 14:00","2012","02","04","14:00","0.2","","-8.4","","52","","","","27","","7","","24.1","","99.12","","","","","","Mainly Clear"
"-114.44","62.46","YELLOWKNIFE A","2204100","2012-02-04 15:00","2012","02","04","15:00","-0.2","","-8.6","","53","","","","28","","4","","24.1","","99.20","","","","-1","","Mainly Clear"
"-114.44","62.46","YELLOWKNIFE A","2204100","2012-02-04 16:00","2012","02","04","16:00","-2.6","","-8.9","","62","","","","","","0","","24.1","","99.25","","","","","","Mainly Clear"
"-114.44","62.46","YELLOWKNIFE A","2204100","2012-02-04 17:00","2012","02","04","17:00","-3.0","","-9.3","","62","","","","","","0","","24.1","","99.25","","","","","","Mainly Clear"
"-114.44","62.46","YELLOWKNIFE A","2204100","2012-02-04 18:00","2012","02","04","18:00","-5.5","","-10.0","","71","","","","29","","7","","24.1","","99.39","","","","-9","","Mainly Clear"
"-114.44","62.46","YELLOWKNIFE A","2204100","2012-02-04 19:00","2012","02","04","19:00","-4.7","","-9.3","","70","","","","","","0","","24.1","","99.35","","","","","","Mostly Cloudy"
"-114.44","62.46","YELLOWKNIFE A","2204100","2012-02-04 20:00","2012","02","04","20:00","-5.8","","-9.9","","73","","","","32","","7","","24.1","","99.40","","","","-9","","Mostly Cloudy"
"-114.44","62.46","YELLOWKNIFE A","2204100","2012-02-04 21:00","2012","02","04","21:00","-4.0","","-8.3","","72","","","","36","","11","","24.1","","99.47","","","","-8","","Mostly Cloudy"
"-114.44","62.46","YELLOWKNIFE A","2204100","2012-02-04 22:00","2012","02","04","22:00","-1.2","","-6.4","","68","","","","35","","19","","24.1","","99.59","","","","-7","","Mostly Cloudy"
"-114.44","62.46","YELLOWKNIFE A","2204100","2012-02-04 23:00","2012","02","04","23:00","-1.6","","-7.3","","65","","","","34","","19","","24.1","","99.67","","","","-7","","Mostly Cloudy"
"-114.44","62.46","YELLOWKNIFE A","2204100","2012-02-05 00:00","2012","02","05","00:00","-2.9","","-6.4","","77","","","","34","","30","","24.1","","99.77","","","","-10","","Snow"
"-114.44","62.46","YELLOWKNIFE A","2204100","2012-02-05 01:00","2012","02","05","01:00","-3.9","","-9.7","","64","","","","34","","22","","24.1","","99.91","","","","-10","","Snow"
"-114.44","62.46","YELLOWKNIFE A","2204100","2012-02-05 02:00","2012","02","05","02:00","-7.2","","-14.2","","57","","","","33","","22","","24.1","","100.05","","","","-15","","Mostly Cloudy"
"-114.44","62.46","YELLOWKNIFE A","2204100","2012-02-05 03:00","2012","02","05","03:00","-9.0","","-14.9","","62","","","","33","","30","","24.1","","100.15","","","","-18","","Mainly Clear"
"-114.44","62.46","YELLOWKNIFE A","2204100","2012-02-05 04:00","2012","02","05","04:00","-12.8","","-18.3","","63","","","","33","","28","","24.1","","100.30","","","","-23","","Mainly Clear"
"-114.44","62.46","YELLOWKNIFE A","2204100","2012-02-05 05:00","2012","02","05","05:00","-14.7","","-20.1","","63","","","","34","","26","","24.1","","100.45","","","","-25","","Mainly Clear"
"-114.44","62.46","YELLOWKNIFE A","2204100","2012-02-05 06:00","2012","02","05","06:00","-16.2","","-23.5","","53","","","","33","","19","","24.1","","100.51","","","","-25","","Mainly Clear"
"-114.44","62.46","YELLOWKNIFE A","2204100","2012-02-05 07:00","2012","02","05","07:00","-17.0","","-23.0","","60","","","","33","","22","","24.1","","100.58","","","","-27","","Mostly Cloudy"
"-114.44","62.46","YELLOWKNIFE A","2204100","2012-02-05 08:00","2012","02","05","08:00","-17.6","","-22.9","","63","","","","33","","19","","24.1","","100.66","","","","-27","","Mostly Cloudy"
"-114.44","62.46","YELLOWKNIFE A","2204100","2012-02-05 09:00","2012","02","05","09:00","-18.5","","-23.8","","63","","","","33","","19","","24.1","","100.76","","","","-28","","Mainly Clear"
"-114.44","62.46","YELLOWKNIFE A","2204100","2012-02-05 10:00","2012","02","05","10:00","-19.4","","-24.6","","63","","","","33","","28","","24.1","","100.91","","","","-31","","Mainly Clear"
"-114.44","62.46","YELLOWKNIFE A","2204100","2012-02-05 11:00","2012","02","05","11:00","-19.3","","-25.0","","61","","","","35","","19","","24.1","","100.97","","","","-29","","Mostly Cloudy"
"-114.44","62.46","YELLOWKNIFE A","2204100","2012-02-05 12:00","2012","02","05","12:00","-19.7","","-25.2","","62","","","","34","","28","","24.1","","101.06","","","","-32","","Mostly Cloudy"
"-114.44","62.46","YELLOWKNIFE A","2204100","2012-02-05 13:00","2012","02","05","13:00","-19.5","","-25.4","","59","","","","34","","22","","24.1","","101.13","","","","-30","","Mainly Clear"
"-114.44","62.46","YELLOWKNIFE A","2204100","2012-02-05 14:00","2012","02","05","14:00","-19.3","","-25.4","","58","","","","35","","17","","24.1","","101.22","","","","-29","","Mainly Clear"
"-114.44","62.46","YELLOWKNIFE A","2204100","2012-02-05 15:00","2012","02","05","15:00","-19.4","","-25.4","","59","","","","32","","15","","24.1","","101.28","","","","-28","","Clear"
"-114.44","62.46","YELLOWKNIFE A","2204100","2012-02-05 16:00","2012","02","05","16:00","-19.6","","-25.6","","59","","","","35","","9","","24.1","","101.35","","","","-26","","Clear"
"-114.44","62.46","YELLOWKNIFE A","2204100","2012-02-05 17:00","2012","02","05","17:00","-20.5","","-26.2","","60","","","","1","","9","","24.1","","101.38","","","","-27","","Clear"
"-114.44","62.46","YELLOWKNIFE A","2204100","2012-02-05 18:00","2012","02","05","18:00","-21.7","","-26.9","","63","","","","32","","7","","24.1","","101.40","","","","-28","","Clear"
"-114.44","62.46","YELLOWKNIFE A","2204100","2012-02-05 19:00","2012","02","05","19:00","-23.5","","-28.1","","66","","","","34","","6","","24.1","","101.41","","","","-29","","Mainly Clear"
"-114.44","62.46","YELLOWKNIFE A","2204100","2012-02-05 20:00","2012","02","05","20:00","-23.9","","-28.4","","66","","","","31","","6","","24.1","","101.48","","","","-30","","Clear"
"-114.44","62.46","YELLOWKNIFE A","2204100","2012-02-05 21:00","2012","02","05","21:00","-23.7","","-28.0","","68","","","","","","0","","24.1","","101.47","","","","","","Clear"
"-114.44","62.46","YELLOWKNIFE A","2204100","2012-02-05 22:00","2012","02","05","22:00","-25.9","","-30.3","","66","","","","","","0","","24.1","","101.48","","","","","","Clear"
"-114.44","62.46","YELLOWKNIFE A","2204100","2012-02-05 23:00","2012","02","05","23:00","-26.5","","-30.4","","70","","","","","","0","","24.1","","101.52","","","","","","Clear"
"-114.44","62.46","YELLOWKNIFE A","2204100","2012-02-06 00:00","2012","02","06","00:00","-23.0","","-26.6","","72","","","","11","","7","","24.1","","101.44","","","","-29","","Clear"
"-114.44","62.46","YELLOWKNIFE A","2204100","2012-02-06 01:00","2012","02","06","01:00","-23.3","","-27.5","","68","","","","15","","6","","24.1","","101.38","","","","-29","","Clear"
"-114.44","62.46","YELLOWKNIFE A","2204100","2012-02-06 02:00","2012","02","06","02:00","-22.8","","-27.1","","68","","","","14","","9","","24.1","","101.39","","","","-30","","Clear"
"-114.44","62.46","YELLOWKNIFE A","2204100","2012-02-06 03:00","2012","02","06","03:00","-22.5","","-26.9","","67","","","","15","","15","","24.1","","101.34","","","","-32","","Clear"
"-114.44","62.46","YELLOWKNIFE A","2204100","2012-02-06 04:00","2012","02","06","04:00","-22.3","","-26.3","","70","","","","16","","15","","24.1","","101.33","","","","-32","","Clear"
"-114.44","62.46","YELLOWKNIFE A","2204100","2012-02-06 05:00","2012","02","06","05:00","-21.9","","-25.6","","72","","","","16","","11","","24.1","","101.31","","","","-30","","Clear"
"-114.44","62.46","YELLOWKNIFE A","2204100","2012-02-06 06:00","2012","02","06","06:00","-21.4","","-25.0","","73","","","","16","","11","","24.1","","101.23","","","","-29","","Mainly Clear"
"-114.44","62.46","YELLOWKNIFE A","2204100","2012-02-06 07:00","2012","02","06","07:00","-20.8","","-24.4","","73","","","","16","","15","","24.1","","101.14","","","","-30","","Mainly Clear"
"-114.44","62.46","YELLOWKNIFE A","2204100","2012-02-06 08:00","2012","02","06","08:00","-20.3","","-23.9","","73","","","","16","","19","","24.1","","101.10","","","","-31","","Mainly Clear"
"-114.44","62.46","YELLOWKNIFE A","2204100","2012-02-06 09:00","2012","02","06","09:00","-20.1","","-23.7","","73","","","","18","","15","","24.1","","101.00","","","","-29","","Mainly Clear"
"-114.44","62.46","YELLOWKNIFE A","2204100","2012-02-06 10:00","2012","02","06","10:00","-19.4","","-22.9","","74","","","","16","","19","","24.1","","100.91","","","","-29","","Mainly Clear"
"-114.44","62.46","YELLOWKNIFE A","2204100","2012-02-06 11:00","2012","02","06","11:00","-18.6","","-22.6","","71","","","","17","","19","","24.1","","100.87","","","","-28","","Mainly Clear"
"-114.44","62.46","YELLOWKNIFE A","2204100","2012-02-06 12:00","2012","02","06","12:00","-17.9","","-21.8","","71","","","","16","","20","","24.1","","100.80","","","","-28","","Mainly Clear"
"-114.44","62.46","YELLOWKNIFE A","2204100","2012-02-06 13:00","2012","02","06","13:00","-17.0","","-20.7","","73","","","","15","","19","","24.1","","100.69","","","","-26","","Mainly Clear"
"-114.44","62.46","YELLOWKNIFE A","2204100","2012-02-06 14:00","2012","02","06","14:00","-16.3","","-19.7","","75","","","","16","","13","","24.1","","100.62","","","","-24","","Mainly Clear"
"-114.44","62.46","YELLOWKNIFE A","2204100","2012-02-06 15:00","2012","02","06","15:00","-15.4","","-18.8","","75","","","","16","","19","","24.1","","100.53","","","","-24","","Mainly Clear"
"-114.44","62.46","YELLOWKNIFE A","2204100","2012-02-06 16:00","2012","02","06","16:00","-14.7","","-17.9","","77","","","","14","","17","","24.1","","100.43","","","","-23","","Mainly Clear"
"-114.44","62.46","YELLOWKNIFE A","2204100","2012-02-06 17:00","2012","02","06","17:00","-13.9","","-17.1","","77","","","","18","","9","","24.1","","100.34","","","","-20","","Mainly Clear"
"-114.44","62.46","YELLOWKNIFE A","2204100","2012-02-06 18:00","2012","02","06","18:00","-13.3","","-16.6","","76","","","","19","","17","","24.1","","100.28","","","","-21","","Clear"
"-114.44","62.46","YELLOWKNIFE A","2204100","2012-02-06 19:00","2012","02","06","19:00","-12.3","","-15.6","","76","","","","19","","11","","24.1","","100.21","","","","-18","","Clear"
"-114.44","62.46","YELLOWKNIFE A","2204100","2012-02-06 20:00","2012","02","06","20:00","-12.0","","-14.6","","81","","","","","","0","","24.1","","100.17","","","","","","Clear"
"-114.44","62.46","YELLOWKNIFE A","2204100","2012-02-06 21:00","2012","02","06","21:00","-11.1","","-14.0","","79","","","","19","","11","","24.1","","100.10","","","","-17","","Clear"
"-114.44","62.46","YELLOWKNIFE A","2204100","2012-02-06 22:00","2012","02","06","22:00","-12.4","","-14.6","","84","","","","19","","6","","24.1","","100.05","","","","-16","","Clear"
"-114.44","62.46","YELLOWKNIFE A","2204100","2012-02-06 23:00","2012","02","06","23:00","-12.4","","-14.7","","83","","","","","","0","","24.1","","99.98","","","","","","Clear"
"-114.44","62.46","YELLOWKNIFE A","2204100","2012-02-07 00:00","2012","02","07","00:00","-11.7","","-14.8","","78","","","","19","","9","","24.1","","99.92","","","","-17","","Clear"
"-114.44","62.46","YELLOWKNIFE A","2204100","2012-02-07 01:00","2012","02","07","01:00","-12.6","","-15.1","","82","","","","22","","4","","24.1","","99.89","","","","-15","","Clear"
"-114.44","62.46","YELLOWKNIFE A","2204100","2012-02-07 02:00","2012","02","07","02:00","-14.8","","-16.0","","91","","","","","","0","","24.1","","99.85","","","","","","Clear"
"-114.44","62.46","YELLOWKNIFE A","2204100","2012-02-07 03:00","2012","02","07","03:00","-12.5","","-15.5","","78","","","","18","","15","","24.1","","99.81","","","","-20","","Mainly Clear"
"-114.44","62.46","YELLOWKNIFE A","2204100","2012-02-07 04:00","2012","02","07","04:00","-14.2","","-16.7","","81","","","","19","","9","","24.1","","99.77","","","","-20","","Clear"
"-114.44","62.46","YELLOWKNIFE A","2204100","2012-02-07 05:00","2012","02","07","05:00","-14.5","","-16.7","","83","","","","20","","4","","24.1","","99.75","","","","-17","","Clear"
"-114.44","62.46","YELLOWKNIFE A","2204100","2012-02-07 06:00","2012","02","07","06:00","-16.2","","-17.8","","87","","","","11","","4","","24.1","","99.72","","","","-19","","Clear"
"-114.44","62.46","YELLOWKNIFE A","2204100","2012-02-07 07:00","2012","02","07","07:00","-14.9","","-16.5","","88","","","","14","","7","","24.1","","99.65","","","","-20","","Clear"
"-114.44","62.46","YELLOWKNIFE A","2204100","2012-02-07 08:00","2012","02","07","08:00","-14.5","","-16.7","","83","","","","18","","9","","24.1","","99.59","","","","-20","","Clear"
"-114.44","62.46","YELLOWKNIFE A","2204100","2012-02-07 09:00","2012","02","07","09:00","-14.2","","-16.9","","80","","","","17","","6","","24.1","","99.56","","","","-18","","Clear"
"-114.44","62.46","YELLOWKNIFE A","2204100","2012-02-07 10:00","2012","02","07","10:00","-14.7","","-17.9","","77","","","","17","","9","","24.1","","99.55","","","","-20","","Clear"
"-114.44","62.46","YELLOWKNIFE A","2204100","2012-02-07 11:00","2012","02","07","11:00","-15.7","","-19.4","","73","","","","","","0","","24.1","","99.55","","","","","","Mainly Clear"
"-114.44","62.46","YELLOWKNIFE A","2204100","2012-02-07 12:00","2012","02","07","12:00","-15.2","","-18.6","","75","","","","","","0","","24.1","","99.53","","","","","","Mainly Clear"
"-114.44","62.46","YELLOWKNIFE A","2204100","2012-02-07 13:00","2012","02","07","13:00","-13.8","","-17.5","","74","","","","4","","4","","24.1","","99.50","","","","-17","","Mainly Clear"
"-114.44","62.46","YELLOWKNIFE A","2204100","2012-02-07 14:00","2012","02","07","14:00","-13.0","","-16.8","","73","","","","4","","6","","24.1","","99.49","","","","-17","","Mainly Clear"
"-114.44","62.46","YELLOWKNIFE A","2204100","2012-02-07 15:00","2012","02","07","15:00","-12.2","","-16.5","","70","","","","5","","6","","24.1","","99.46","","","","-16","","Clear"
"-114.44","62.46","YELLOWKNIFE A","2204100","2012-02-07 16:00","2012","02","07","16:00","-12.5","","-16.7","","71","","","","4","","11","","24.1","","99.46","","","","-19","","Mainly Clear"
"-114.44","62.46","YELLOWKNIFE A","2204100","2012-02-07 17:00","2012","02","07","17:00","-13.5","","-17.3","","73","","","","6","","11","","24.1","","99.47","","","","-20","","Mainly Clear"
"-114.44","62.46","YELLOWKNIFE A","2204100","2012-02-07 18:00","2012","02","07","18:00","-13.8","","-17.0","","77","","","","7","","9","","24.1","","99.49","","","","-19","","Mainly Clear"
"-114.44","62.46","YELLOWKNIFE A","2204100","2012-02-07 19:00","2012","02","07","19:00","-15.0","","-17.6","","80","","","","6","","9","","24.1","","99.53","","","","-21","","Mainly Clear"
"-114.44","62.46","YELLOWKNIFE A","2204100","2012-02-07 20:00","2012","02","07","20:00","-15.4","","-18.2","","79","","","","6","","13","","24.1","","99.57","","","","-23","","Mainly Clear"
"-114.44","62.46","YELLOWKNIFE A","2204100","2012-02-07 21:00","2012","02","07","21:00","-16.3","","-20.1","","72","","","","6","","22","","24.1","","99.65","","","","-26","","Clear"
"-114.44","62.46","YELLOWKNIFE A","2204100","2012-02-07 22:00","2012","02","07","22:00","-17.4","","-21.0","","73","","","","6","","19","","24.1","","99.72","","","","-27","","Clear"
"-114.44","62.46","YELLOWKNIFE A","2204100","2012-02-07 23:00","2012","02","07","23:00","-18.0","","-21.9","","71","","","","6","","19","","24.1","","99.76","","","","-28","","Clear"
"-114.44","62.46","YELLOWKNIFE A","2204100","2012-02-08 00:00","2012","02","08","00:00","-18.6","","-22.7","","70","","","","6","","19","","24.1","","99.79","","","","-28","","Clear"
"-114.44","62.46","YELLOWKNIFE A","2204100","2012-02-08 01:00","2012","02","08","01:00","-19.0","","-24.1","","64","","","","6","","19","","24.1","","99.85","","","","-29","","Clear"
"-114.44","62.46","YELLOWKNIFE A","2204100","2012-02-08 02:00","2012","02","08","02:00","-19.5","","-24.9","","62","","","","6","","19","","24.1","","99.90","","","","-30","","Clear"
"-114.44","62.46","YELLOWKNIFE A","2204100","2012-02-08 03:00","2012","02","08","03:00","-20.1","","-25.9","","60","","","","6","","19","","24.1","","100.00","","","","-30","","Clear"
"-114.44","62.46","YELLOWKNIFE A","2204100","2012-02-08 04:00","2012","02","08","04:00","-20.9","","-26.8","","59","","","","6","","19","","24.1","","100.10","","","","-31","","Clear"
"-114.44","62.46","YELLOWKNIFE A","2204100","2012-02-08 05:00","2012","02","08","05:00","-21.5","","-28.3","","54","","","","6","","19","","24.1","","100.17","","","","-32","","Mainly Clear"
"-114.44","62.46","YELLOWKNIFE A","2204100","2012-02-08 06:00","2012","02","08","06:00","-22.2","","-29.4","","52","","","","6","","15","","24.1","","100.20","","","","-32","","Mainly Clear"
"-114.44","62.46","YELLOWKNIFE A","2204100","2012-02-08 07:00","2012","02","08","07:00","-23.0","","-30.4","","51","","","","5","","19","","24.1","","100.29","","","","-34","","Mainly Clear"
"-114.44","62.46","YELLOWKNIFE A","2204100","2012-02-08 08:00","2012","02","08","08:00","-23.6","","-31.1","","50","","","","5","","13","","24.1","","100.35","","","","-33","","Mainly Clear"
"-114.44","62.46","YELLOWKNIFE A","2204100","2012-02-08 09:00","2012","02","08","09:00","-24.2","","-31.1","","53","","","","6","","11","","24.1","","100.42","","","","-33","","Mainly Clear"
"-114.44","62.46","YELLOWKNIFE A","2204100","2012-02-08 10:00","2012","02","08","10:00","-24.0","","-31.2","","51","","","","6","","13","","24.1","","100.50","","","","-33","","Mainly Clear"
"-114.44","62.46","YELLOWKNIFE A","2204100","2012-02-08 11:00","2012","02","08","11:00","-23.3","","-31.3","","48","","","","6","","9","","24.1","","100.58","","","","-31","","Mainly Clear"
"-114.44","62.46","YELLOWKNIFE A","2204100","2012-02-08 12:00","2012","02","08","12:00","-22.2","","-30.5","","47","","","","7","","15","","24.1","","100.65","","","","-32","","Mainly Clear"
"-114.44","62.46","YELLOWKNIFE A","2204100","2012-02-08 13:00","2012","02","08","13:00","-21.5","","-30.2","","45","","","","4","","11","","24.1","","100.68","","","","-29","","Clear"
"-114.44","62.46","YELLOWKNIFE A","2204100","2012-02-08 14:00","2012","02","08","14:00","-20.5","","-29.8","","43","","","","5","","9","","24.1","","100.69","","","","-27","","Clear"
"-114.44","62.46","YELLOWKNIFE A","2204100","2012-02-08 15:00","2012","02","08","15:00","-19.9","","-28.9","","45","","","","6","","9","","24.1","","100.76","","","","-27","","Mainly Clear"
"-114.44","62.46","YELLOWKNIFE A","2204100","2012-02-08 16:00","2012","02","08","16:00","-20.3","","-28.9","","46","","","","4","","6","","24.1","","100.80","","","","-25","","Mainly Clear"
"-114.44","62.46","YELLOWKNIFE A","2204100","2012-02-08 17:00","2012","02","08","17:00","-21.4","","-29.2","","49","","","","","","0","","24.1","","100.82","","","","","","Mainly Clear"
"-114.44","62.46","YELLOWKNIFE A","2204100","2012-02-08 18:00","2012","02","08","18:00","-22.7","","-29.9","","52","","","","3","","6","","24.1","","100.85","","","","-28","","Clear"
"-114.44","62.46","YELLOWKNIFE A","2204100","2012-02-08 19:00","2012","02","08","19:00","-24.4","","-30.6","","56","","","","5","","6","","24.1","","100.87","","","","-30","","Clear"
"-114.44","62.46","YELLOWKNIFE A","2204100","2012-02-08 20:00","2012","02","08","20:00","-25.2","","-31.1","","58","","","","","","0","","24.1","","100.89","","","","","","Mainly Clear"
"-114.44","62.46","YELLOWKNIFE A","2204100","2012-02-08 21:00","2012","02","08","21:00","-25.2","","-30.8","","60","","","","","","0","","24.1","","100.91","","","","","","Mainly Clear"
"-114.44","62.46","YELLOWKNIFE A","2204100","2012-02-08 22:00","2012","02","08","22:00","-25.0","","-31.0","","57","","","","5","","4","","24.1","","100.96","","","","-29","","Clear"
"-114.44","62.46","YELLOWKNIFE A","2204100","2012-02-08 23:00","2012","02","08","23:00","-26.1","","-31.7","","59","","","","5","","7","","24.1","","100.98","","","","-33","","Clear"
"-114.44","62.46","YELLOWKNIFE A","2204100","2012-02-09 00:00","2012","02","09","00:00","-26.8","","-31.9","","62","","","","4","","7","","24.1","","101.02","","","","-34","","Mainly Clear"
"-114.44","62.46","YELLOWKNIFE A","2204100","2012-02-09 01:00","2012","02","09","01:00","-27.6","","-32.6","","62","","","","4","","7","","24.1","","101.08","","","","-34","","Mainly Clear"
"-114.44","62.46","YELLOWKNIFE A","2204100","2012-02-09 02:00","2012","02","09","02:00","-27.5","","-32.6","","62","","","","5","","4","","24.1","","101.16","","","","-32","","Mainly Clear"
"-114.44","62.46","YELLOWKNIFE A","2204100","2012-02-09 03:00","2012","02","09","03:00","-27.7","","-32.8","","62","","","","7","","7","","24.1","","101.18","","","","-35","","Clear"
"-114.44","62.46","YELLOWKNIFE A","2204100","2012-02-09 04:00","2012","02","09","04:00","-27.8","","-33.2","","60","","","","7","","7","","24.1","","101.19","","","","-35","","Clear"
"-114.44","62.46","YELLOWKNIFE A","2204100","2012-02-09 05:00","2012","02","09","05:00","-28.2","","-33.4","","61","","","","6","","7","","24.1","","101.21","","","","-35","","Clear"
"-114.44","62.46","YELLOWKNIFE A","2204100","2012-02-09 06:00","2012","02","09","06:00","-28.5","","-33.5","","62","","","","5","","7","","24.1","","101.25","","","","-36","","Mainly Clear"
"-114.44","62.46","YELLOWKNIFE A","2204100","2012-02-09 07:00","2012","02","09","07:00","-29.1","","-34.1","","62","","","","8","","7","","24.1","","101.27","","","","-36","","Mainly Clear"
"-114.44","62.46","YELLOWKNIFE A","2204100","2012-02-09 08:00","2012","02","09","08:00","-29.6","","-34.5","","62","","","","7","","4","","24.1","","101.29","","","","-34","","Mainly Clear"
"-114.44","62.46","YELLOWKNIFE A","2204100","2012-02-09 09:00","2012","02","09","09:00","-30.0","","-34.4","","65","","","","8","","4","","24.1","","101.35","","","","-35","","Mainly Clear"
"-114.44","62.46","YELLOWKNIFE A","2204100","2012-02-09 10:00","2012","02","09","10:00","-29.1","","-34.2","","61","","","","9","","7","","24.1","","101.44","","","","-36","","Mainly Clear"
"-114.44","62.46","YELLOWKNIFE A","2204100","2012-02-09 11:00","2012","02","09","11:00","-25.9","","-32.2","","55","","","","","","0","","24.1","","101.46","","","","","","Mainly Clear"
"-114.44","62.46","YELLOWKNIFE A","2204100","2012-02-09 12:00","2012","02","09","12:00","-25.3","","-31.8","","55","","","","11","","7","","24.1","","101.49","","","","-32","","Mainly Clear"
"-114.44","62.46","YELLOWKNIFE A","2204100","2012-02-09 13:00","2012","02","09","13:00","-23.0","","-29.8","","54","","","","13","","9","","24.1","","101.49","","","","-30","","Mainly Clear"
"-114.44","62.46","YELLOWKNIFE A","2204100","2012-02-09 14:00","2012","02","09","14:00","-21.7","","-29.5","","49","","","","17","","4","","24.1","","101.50","","","","-25","","Clear"
"-114.44","62.46","YELLOWKNIFE A","2204100","2012-02-09 15:00","2012","02","09","15:00","-21.2","","-29.6","","47","","","","17","","7","","24.1","","101.53","","","","-27","","Clear"
"-114.44","62.46","YELLOWKNIFE A","2204100","2012-02-09 16:00","2012","02","09","16:00","-22.3","","-30.5","","47","","","","15","","9","","24.1","","101.54","","","","-29","","Clear"
"-114.44","62.46","YELLOWKNIFE A","2204100","2012-02-09 17:00","2012","02","09","17:00","-23.0","","-31.4","","46","","","","15","","9","","24.1","","101.55","","","","-30","","Clear"
"-114.44","62.46","YELLOWKNIFE A","2204100","2012-02-09 18:00","2012","02","09","18:00","-22.9","","-30.8","","48","","","","13","","15","","24.1","","101.50","","","","-33","","Clear"
"-114.44","62.46","YELLOWKNIFE A","2204100","2012-02-09 19:00","2012","02","09","19:00","-23.2","","-30.6","","51","","","","13","","7","","24.1","","101.53","","","","-29","","Clear"
"-114.44","62.46","YELLOWKNIFE A","2204100","2012-02-09 20:00","2012","02","09","20:00","-23.1","","-30.6","","50","","","","11","","9","","24.1","","101.51","","","","-30","","Clear"
"-114.44","62.46","YELLOWKNIFE A","2204100","2012-02-09 21:00","2012","02","09","21:00","-23.6","","-30.8","","52","","","","11","","11","","24.1","","101.49","","","","-32","","Clear"
"-114.44","62.46","YELLOWKNIFE A","2204100","2012-02-09 22:00","2012","02","09","22:00","-24.4","","-31.2","","53","","","","13","","11","","24.1","","101.45","","","","-33","","Clear"
"-114.44","62.46","YELLOWKNIFE A","2204100","2012-02-09 23:00","2012","02","09","23:00","-24.5","","-31.3","","53","","","","14","","11","","24.1","","101.45","","","","-33","","Clear"
"-114.44","62.46","YELLOWKNIFE A","2204100","2012-02-10 00:00","2012","02","10","00:00","-23.9","","-31.0","","52","","","","15","","19","","24.1","","101.44","","","","-35","","Clear"
"-114.44","62.46","YELLOWKNIFE A","2204100","2012-02-10 01:00","2012","02","10","01:00","-24.3","","-31.0","","54","","","","14","","11","","24.1","","101.45","","","","-33","","Clear"
"-114.44","62.46","YELLOWKNIFE A","2204100","2012-02-10 02:00","2012","02","10","02:00","-24.3","","-30.9","","54","","","","13","","15","","24.1","","101.43","","","","-34","","Clear"
"-114.44","62.46","YELLOWKNIFE A","2204100","2012-02-10 03:00","2012","02","10","03:00","-24.8","","-31.0","","56","","","","13","","19","","24.1","","101.39","","","","-36","","Clear"
"-114.44","62.46","YELLOWKNIFE A","2204100","2012-02-10 04:00","2012","02","10","04:00","-24.5","","-31.1","","54","","","","14","","19","","24.1","","101.32","","","","-36","","Clear"
"-114.44","62.46","YELLOWKNIFE A","2204100","2012-02-10 05:00","2012","02","10","05:00","-24.4","","-31.0","","54","","","","13","","19","","24.1","","101.31","","","","-36","","Clear"
"-114.44","62.46","YELLOWKNIFE A","2204100","2012-02-10 06:00","2012","02","10","06:00","-24.1","","-31.1","","52","","","","13","","19","","24.1","","101.23","","","","-35","","Clear"
"-114.44","62.46","YELLOWKNIFE A","2204100","2012-02-10 07:00","2012","02","10","07:00","-24.1","","-30.9","","53","","","","13","","19","","24.1","","101.15","","","","-35","","Clear"
"-114.44","62.46","YELLOWKNIFE A","2204100","2012-02-10 08:00","2012","02","10","08:00","-24.0","","-30.3","","56","","","","14","","24","","24.1","","101.10","","","","-37","","Clear"
"-114.44","62.46","YELLOWKNIFE A","2204100","2012-02-10 09:00","2012","02","10","09:00","-23.9","","-30.5","","54","","","","16","","20","","24.1","","101.08","","","","-35","","Clear"
"-114.44","62.46","YELLOWKNIFE A","2204100","2012-02-10 10:00","2012","02","10","10:00","-23.5","","-30.2","","54","","","","16","","20","","24.1","","101.04","","","","-35","","Clear"
"-114.44","62.46","YELLOWKNIFE A","2204100","2012-02-10 11:00","2012","02","10","11:00","-23.2","","-29.9","","54","","","","16","","22","","24.1","","101.03","","","","-35","","Clear"
"-114.44","62.46","YELLOWKNIFE A","2204100","2012-02-10 12:00","2012","02","10","12:00","-22.8","","-29.6","","54","","","","15","","24","","24.1","","100.90","","","","-35","","Clear"
"-114.44","62.46","YELLOWKNIFE A","2204100","2012-02-10 13:00","2012","02","10","13:00","-22.2","","-29.2","","53","","","","15","","22","","24.1","","100.83","","","","-34","","Clear"
"-114.44","62.46","YELLOWKNIFE A","2204100","2012-02-10 14:00","2012","02","10","14:00","-20.9","","-28.0","","53","","","","15","","33","","24.1","","100.66","","","","-34","","Clear"
"-114.44","62.46","YELLOWKNIFE A","2204100","2012-02-10 15:00","2012","02","10","15:00","-20.3","","-27.7","","52","","","","15","","19","","24.1","","100.57","","","","-31","","Clear"
"-114.44","62.46","YELLOWKNIFE A","2204100","2012-02-10 16:00","2012","02","10","16:00","-19.1","","-27.6","","47","","","","15","","22","","24.1","","100.51","","","","-30","","Clear"
"-114.44","62.46","YELLOWKNIFE A","2204100","2012-02-10 17:00","2012","02","10","17:00","-18.7","","-26.8","","49","","","","14","","19","","24.1","","100.45","","","","-29","","Clear"
"-114.44","62.46","YELLOWKNIFE A","2204100","2012-02-10 18:00","2012","02","10","18:00","-18.4","","-26.1","","51","","","","15","","19","","24.1","","100.32","","","","-28","","Clear"
"-114.44","62.46","YELLOWKNIFE A","2204100","2012-02-10 19:00","2012","02","10","19:00","-18.0","","-25.4","","52","","","","15","","22","","24.1","","100.19","","","","-28","","Clear"
"-114.44","62.46","YELLOWKNIFE A","2204100","2012-02-10 20:00","2012","02","10","20:00","-18.0","","-25.2","","53","","","","16","","22","","24.1","","100.17","","","","-28","","Clear"
"-114.44","62.46","YELLOWKNIFE A","2204100","2012-02-10 21:00","2012","02","10","21:00","-18.3","","-25.0","","56","","","","16","","19","","24.1","","100.06","","","","-28","","Clear"
"-114.44","62.46","YELLOWKNIFE A","2204100","2012-02-10 22:00","2012","02","10","22:00","-18.3","","-25.0","","56","","","","16","","22","","24.1","","99.92","","","","-29","","Clear"
"-114.44","62.46","YELLOWKNIFE A","2204100","2012-02-10 23:00","2012","02","10","23:00","-18.5","","-25.0","","57","","","","16","","19","","24.1","","99.85","","","","-28","","Clear"
"-114.44","62.46","YELLOWKNIFE A","2204100","2012-02-11 00:00","2012","02","11","00:00","-18.6","","-24.9","","58","","","","15","","19","","24.1","","99.76","","","","-28","","Clear"
"-114.44","62.46","YELLOWKNIFE A","2204100","2012-02-11 01:00","2012","02","11","01:00","-18.6","","-24.8","","58","","","","16","","19","","24.1","","99.65","","","","-28","","Clear"
"-114.44","62.46","YELLOWKNIFE A","2204100","2012-02-11 02:00","2012","02","11","02:00","-18.4","","-24.4","","59","","","","16","","19","","24.1","","99.54","","","","-28","","Mainly Clear"
"-114.44","62.46","YELLOWKNIFE A","2204100","2012-02-11 03:00","2012","02","11","03:00","-18.0","","-24.1","","59","","","","16","","19","","24.1","","99.47","","","","-28","","Mainly Clear"
"-114.44","62.46","YELLOWKNIFE A","2204100","2012-02-11 04:00","2012","02","11","04:00","-17.9","","-23.9","","59","","","","16","","19","","24.1","","99.37","","","","-28","","Mainly Clear"
"-114.44","62.46","YELLOWKNIFE A","2204100","2012-02-11 05:00","2012","02","11","05:00","-17.9","","-23.5","","62","","","","16","","19","","24.1","","99.28","","","","-28","","Mainly Clear"
"-114.44","62.46","YELLOWKNIFE A","2204100","2012-02-11 06:00","2012","02","11","06:00","-17.9","","-23.2","","63","","","","16","","15","","24.1","","99.22","","","","-26","","Mainly Clear"
"-114.44","62.46","YELLOWKNIFE A","2204100","2012-02-11 07:00","2012","02","11","07:00","-17.8","","-23.1","","63","","","","16","","20","","24.1","","99.11","","","","-28","","Mainly Clear"
"-114.44","62.46","YELLOWKNIFE A","2204100","2012-02-11 08:00","2012","02","11","08:00","-17.3","","-22.6","","63","","","","15","","19","","24.1","","98.94","","","","-27","","Mainly Clear"
"-114.44","62.46","YELLOWKNIFE A","2204100","2012-02-11 09:00","2012","02","11","09:00","-16.6","","-21.6","","65","","","","16","","19","","24.1","","98.90","","","","-26","","Mostly Cloudy"
"-114.44","62.46","YELLOWKNIFE A","2204100","2012-02-11 10:00","2012","02","11","10:00","-15.9","","-21.2","","64","","","","15","","19","","24.1","","98.85","","","","-25","","Mostly Cloudy"
"-114.44","62.46","YELLOWKNIFE A","2204100","2012-02-11 11:00","2012","02","11","11:00","-15.0","","-20.4","","63","","","","16","","17","","24.1","","98.81","","","","-23","","Mostly Cloudy"
"-114.44","62.46","YELLOWKNIFE A","2204100","2012-02-11 12:00","2012","02","11","12:00","-14.3","","-19.4","","65","","","","16","","15","","24.1","","98.74","","","","-22","","Mostly Cloudy"
"-114.44","62.46","YELLOWKNIFE A","2204100","2012-02-11 13:00","2012","02","11","13:00","-13.5","","-19.1","","63","","","","16","","15","","24.1","","98.68","","","","-21","","Mostly Cloudy"
"-114.44","62.46","YELLOWKNIFE A","2204100","2012-02-11 14:00","2012","02","11","14:00","-13.3","","-18.6","","64","","","","16","","19","","24.1","","98.57","","","","-22","","Mostly Cloudy"
"-114.44","62.46","YELLOWKNIFE A","2204100","2012-02-11 15:00","2012","02","11","15:00","-13.3","","-17.9","","68","","","","16","","19","","24.1","","98.48","","","","-22","","Mostly Cloudy"
"-114.44","62.46","YELLOWKNIFE A","2204100","2012-02-11 16:00","2012","02","11","16:00","-13.5","","-17.6","","71","","","","16","","19","","24.1","","98.40","","","","-22","","Mostly Cloudy"
"-114.44","62.46","YELLOWKNIFE A","2204100","2012-02-11 17:00","2012","02","11","17:00","-14.2","","-17.8","","74","","","","15","","11","","24.1","","98.32","","","","-21","","Mostly Cloudy"
"-114.44","62.46","YELLOWKNIFE A","2204100","2012-02-11 18:00","2012","02","11","18:00","-14.3","","-17.6","","76","","","","15","","9","","24.1","","98.27","","","","-20","","Mainly Clear"
"-114.44","62.46","YELLOWKNIFE A","2204100","2012-02-11 19:00","2012","02","11","19:00","-15.3","","-18.1","","79","","","","14","","9","","24.1","","98.16","","","","-21","","Mainly Clear"
"-114.44","62.46","YELLOWKNIFE A","2204100","2012-02-11 20:00","2012","02","11","20:00","-15.4","","-18.2","","79","","","","14","","9","","24.1","","98.06","","","","-21","","Mainly Clear"
"-114.44","62.46","YELLOWKNIFE A","2204100","2012-02-11 21:00","2012","02","11","21:00","-15.5","","-18.1","","80","","","","15","","11","","24.1","","97.99","","","","-22","","Mainly Clear"
"-114.44","62.46","YELLOWKNIFE A","2204100","2012-02-11 22:00","2012","02","11","22:00","-16.9","","-19.8","","78","","","","","","0","","24.1","","97.94","","","","","","Clear"
"-114.44","62.46","YELLOWKNIFE A","2204100","2012-02-11 23:00","2012","02","11","23:00","-16.9","","-19.5","","80","","","","9","","4","","24.1","","97.89","","","","-20","","Clear"
"-114.44","62.46","YELLOWKNIFE A","2204100","2012-02-12 00:00","2012","02","12","00:00","-17.1","","-20.1","","77","","","","10","","6","","24.1","","97.82","","","","-22","","Clear"
"-114.44","62.46","YELLOWKNIFE A","2204100","2012-02-12 01:00","2012","02","12","01:00","-17.7","","-20.6","","78","","","","10","","7","","24.1","","97.76","","","","-23","","Clear"
"-114.44","62.46","YELLOWKNIFE A","2204100","2012-02-12 02:00","2012","02","12","02:00","-19.2","","-22.4","","76","","","","","","0","","24.1","","97.74","","","","","","Clear"
"-114.44","62.46","YELLOWKNIFE A","2204100","2012-02-12 03:00","2012","02","12","03:00","-18.5","","-21.3","","79","","","","8","","9","","24.1","","97.70","","","","-25","","Clear"
"-114.44","62.46","YELLOWKNIFE A","2204100","2012-02-12 04:00","2012","02","12","04:00","-18.7","","-21.8","","77","","","","9","","7","","24.1","","97.62","","","","-24","","Clear"
"-114.44","62.46","YELLOWKNIFE A","2204100","2012-02-12 05:00","2012","02","12","05:00","-19.0","","-22.0","","77","","","","9","","4","","24.1","","97.60","","","","-22","","Clear"
"-114.44","62.46","YELLOWKNIFE A","2204100","2012-02-12 06:00","2012","02","12","06:00","-18.1","","-21.1","","77","","","","13","","4","","24.1","","97.53","","","","-21","","Clear"
"-114.44","62.46","YELLOWKNIFE A","2204100","2012-02-12 07:00","2012","02","12","07:00","-19.1","","-22.7","","73","","","","11","","7","","24.1","","97.48","","","","-25","","Clear"
"-114.44","62.46","YELLOWKNIFE A","2204100","2012-02-12 08:00","2012","02","12","08:00","-19.0","","-22.1","","76","","","","12","","4","","24.1","","97.41","","","","-22","","Mainly Clear"
"-114.44","62.46","YELLOWKNIFE A","2204100","2012-02-12 09:00","2012","02","12","09:00","-19.6","","-22.8","","76","","","","10","","4","","24.1","","97.43","","","","-23","","Mainly Clear"
"-114.44","62.46","YELLOWKNIFE A","2204100","2012-02-12 10:00","2012","02","12","10:00","-18.5","","-21.3","","79","","","","9","","7","","24.1","","97.43","","","","-24","","Mainly Clear"
"-114.44","62.46","YELLOWKNIFE A","2204100","2012-02-12 11:00","2012","02","12","11:00","-16.9","","-19.8","","78","","","","10","","7","","24.1","","97.40","","","","-22","","Mostly Cloudy"
"-114.44","62.46","YELLOWKNIFE A","2204100","2012-02-12 12:00","2012","02","12","12:00","-14.8","","-17.6","","79","","","","10","","7","","24.1","","97.35","","","","-20","","Mainly Clear"
"-114.44","62.46","YELLOWKNIFE A","2204100","2012-02-12 13:00","2012","02","12","13:00","-12.1","","-16.2","","71","","","","15","","7","","24.1","","97.34","","","","-16","","Mainly Clear"
"-114.44","62.46","YELLOWKNIFE A","2204100","2012-02-12 14:00","2012","02","12","14:00","-12.2","","-16.4","","71","","","","16","","9","","24.1","","97.31","","","","-17","","Mainly Clear"
"-114.44","62.46","YELLOWKNIFE A","2204100","2012-02-12 15:00","2012","02","12","15:00","-12.7","","-16.9","","71","","","","15","","15","","24.1","","97.24","","","","-20","","Mainly Clear"
"-114.44","62.46","YELLOWKNIFE A","2204100","2012-02-12 16:00","2012","02","12","16:00","-12.6","","-16.7","","71","","","","15","","19","","24.1","","97.28","","","","-21","","Mainly Clear"
"-114.44","62.46","YELLOWKNIFE A","2204100","2012-02-12 17:00","2012","02","12","17:00","-13.7","","-17.2","","75","","","","15","","15","","24.1","","97.24","","","","-21","","Mainly Clear"
"-114.44","62.46","YELLOWKNIFE A","2204100","2012-02-12 18:00","2012","02","12","18:00","-13.6","","-16.8","","77","","","","15","","11","","24.1","","97.21","","","","-20","","Mainly Clear"
"-114.44","62.46","YELLOWKNIFE A","2204100","2012-02-12 19:00","2012","02","12","19:00","-12.8","","-16.6","","73","","","","16","","15","","24.1","","97.18","","","","-20","","Clear"
"-114.44","62.46","YELLOWKNIFE A","2204100","2012-02-12 20:00","2012","02","12","20:00","-13.2","","-16.6","","76","","","","13","","6","","24.1","","97.14","","","","-17","","Clear"
"-114.44","62.46","YELLOWKNIFE A","2204100","2012-02-12 21:00","2012","02","12","21:00","-14.8","","-17.5","","80","","","","11","","6","","24.1","","97.12","","","","-19","","Clear"
"-114.44","62.46","YELLOWKNIFE A","2204100","2012-02-12 22:00","2012","02","12","22:00","-16.1","","-18.2","","84","","","","13","","4","","24.1","","97.12","","","","-19","","Clear"
"-114.44","62.46","YELLOWKNIFE A","2204100","2012-02-12 23:00","2012","02","12","23:00","-16.4","","-18.8","","82","","","","","","0","","24.1","","97.13","","","","","","Clear"
"-114.44","62.46","YELLOWKNIFE A","2204100","2012-02-13 00:00","2012","02","13","00:00","-16.5","","-18.8","","82","","","","","","0","","24.1","","97.14","","","","","","Mainly Clear"
"-114.44","62.46","YELLOWKNIFE A","2204100","2012-02-13 01:00","2012","02","13","01:00","-15.9","","-18.5","","80","","","","","","0","","24.1","","97.16","","","","","","Mainly Clear"
"-114.44","62.46","YELLOWKNIFE A","2204100","2012-02-13 02:00","2012","02","13","02:00","-16.1","","-18.6","","81","","","","","","0","","24.1","","97.20","","","","","","Mainly Clear"
"-114.44","62.46","YELLOWKNIFE A","2204100","2012-02-13 03:00","2012","02","13","03:00","-17.0","","-19.5","","81","","","","","","0","","24.1","","97.22","","","","","","Clear"
"-114.44","62.46","YELLOWKNIFE A","2204100","2012-02-13 04:00","2012","02","13","04:00","-18.3","","-21.8","","74","","","","12","","4","","24.1","","97.24","","","","-22","","Clear"
"-114.44","62.46","YELLOWKNIFE A","2204100","2012-02-13 05:00","2012","02","13","05:00","-19.7","","-23.1","","74","","","","","","0","","24.1","","97.25","","","","","","Clear"
"-114.44","62.46","YELLOWKNIFE A","2204100","2012-02-13 06:00","2012","02","13","06:00","-20.1","","-23.3","","76","","","","","","0","","24.1","","97.25","","","","","","Clear"
"-114.44","62.46","YELLOWKNIFE A","2204100","2012-02-13 07:00","2012","02","13","07:00","-21.1","","-24.7","","73","","","","","","0","","24.1","","97.31","","","","","","Clear"
"-114.44","62.46","YELLOWKNIFE A","2204100","2012-02-13 08:00","2012","02","13","08:00","-19.8","","-23.4","","73","","","","","","0","","24.1","","97.29","","","","","","Mainly Clear"
"-114.44","62.46","YELLOWKNIFE A","2204100","2012-02-13 09:00","2012","02","13","09:00","-19.4","","-22.7","","75","","","","","","0","","24.1","","97.36","","","","","","Mainly Clear"
"-114.44","62.46","YELLOWKNIFE A","2204100","2012-02-13 10:00","2012","02","13","10:00","-18.0","","-21.1","","77","","","","","","0","","24.1","","97.42","","","","","","Mainly Clear"
"-114.44","62.46","YELLOWKNIFE A","2204100","2012-02-13 11:00","2012","02","13","11:00","-15.5","","-18.1","","80","","","","32","","7","","24.1","","97.45","","","","-20","","Mainly Clear"
"-114.44","62.46","YELLOWKNIFE A","2204100","2012-02-13 12:00","2012","02","13","12:00","-11.1","","-13.6","","82","","","","32","","15","","24.1","","97.47","","","","-18","","Mostly Cloudy"
"-114.44","62.46","YELLOWKNIFE A","2204100","2012-02-13 13:00","2012","02","13","13:00","-10.5","","-14.0","","75","","","","31","","9","","24.1","","97.52","","","","-15","","Mostly Cloudy"
"-114.44","62.46","YELLOWKNIFE A","2204100","2012-02-13 14:00","2012","02","13","14:00","-10.7","","-14.4","","74","","","","33","","11","","24.1","","97.62","","","","-16","","Cloudy"
"-114.44","62.46","YELLOWKNIFE A","2204100","2012-02-13 15:00","2012","02","13","15:00","-10.8","","-14.7","","73","","","","31","","15","","24.1","","97.68","","","","-18","","Mostly Cloudy"
"-114.44","62.46","YELLOWKNIFE A","2204100","2012-02-13 16:00","2012","02","13","16:00","-10.9","","-14.7","","74","","","","32","","19","","24.1","","97.75","","","","-19","","Mostly Cloudy"
"-114.44","62.46","YELLOWKNIFE A","2204100","2012-02-13 17:00","2012","02","13","17:00","-11.7","","-15.4","","74","","","","32","","15","","24.1","","97.79","","","","-19","","Mostly Cloudy"
"-114.44","62.46","YELLOWKNIFE A","2204100","2012-02-13 18:00","2012","02","13","18:00","-12.4","","-15.6","","77","","","","30","","11","","24.1","","97.85","","","","-18","","Mostly Cloudy"
"-114.44","62.46","YELLOWKNIFE A","2204100","2012-02-13 19:00","2012","02","13","19:00","-13.7","","-16.4","","80","","","","30","","13","","24.1","","97.88","","","","-21","","Mainly Clear"
"-114.44","62.46","YELLOWKNIFE A","2204100","2012-02-13 20:00","2012","02","13","20:00","-14.6","","-16.5","","85","","","","32","","11","","24.1","","97.88","","","","-21","","Mainly Clear"
"-114.44","62.46","YELLOWKNIFE A","2204100","2012-02-13 21:00","2012","02","13","21:00","-15.9","","-17.5","","87","","","","33","","11","","24.1","","97.90","","","","-23","","Mainly Clear"
"-114.44","62.46","YELLOWKNIFE A","2204100","2012-02-13 22:00","2012","02","13","22:00","-15.9","","-17.4","","88","","","","32","","11","","24.1","","97.92","","","","-23","","Mostly Cloudy"
"-114.44","62.46","YELLOWKNIFE A","2204100","2012-02-13 23:00","2012","02","13","23:00","-14.7","","-16.7","","85","","","","32","","9","","24.1","","97.94","","","","-20","","Mainly Clear"
"-114.44","62.46","YELLOWKNIFE A","2204100","2012-02-14 00:00","2012","02","14","00:00","-15.6","","-17.5","","85","","","","30","","7","","24.1","","97.96","","","","-21","","Snow"
"-114.44","62.46","YELLOWKNIFE A","2204100","2012-02-14 01:00","2012","02","14","01:00","-16.1","","-17.8","","87","","","","31","","9","","24.1","","97.98","","","","-22","","Snow"
"-114.44","62.46","YELLOWKNIFE A","2204100","2012-02-14 02:00","2012","02","14","02:00","-17.2","","-19.2","","84","","","","31","","9","","24.1","","97.99","","","","-23","","Clear"
"-114.44","62.46","YELLOWKNIFE A","2204100","2012-02-14 03:00","2012","02","14","03:00","-18.1","","-19.9","","86","","","","31","","6","","24.1","","98.01","","","","-23","","Snow"
"-114.44","62.46","YELLOWKNIFE A","2204100","2012-02-14 04:00","2012","02","14","04:00","-17.3","","-19.2","","85","","","","30","","9","","24.1","","98.04","","","","-24","","Mainly Clear"
"-114.44","62.46","YELLOWKNIFE A","2204100","2012-02-14 05:00","2012","02","14","05:00","-17.7","","-19.7","","84","","","","30","","11","","24.1","","98.08","","","","-25","","Mainly Clear"
"-114.44","62.46","YELLOWKNIFE A","2204100","2012-02-14 06:00","2012","02","14","06:00","-18.9","","-22.0","","76","","","","31","","11","","24.1","","98.12","","","","-26","","Mainly Clear"
"-114.44","62.46","YELLOWKNIFE A","2204100","2012-02-14 07:00","2012","02","14","07:00","-19.5","","-22.5","","77","","","","33","","13","","24.1","","98.13","","","","-28","","Clear"
"-114.44","62.46","YELLOWKNIFE A","2204100","2012-02-14 08:00","2012","02","14","08:00","-20.6","","-23.5","","78","","","","32","","11","","24.1","","98.20","","","","-28","","Clear"
"-114.44","62.46","YELLOWKNIFE A","2204100","2012-02-14 09:00","2012","02","14","09:00","-20.7","","-23.9","","75","","","","30","","17","","24.1","","98.26","","","","-31","","Clear"
"-114.44","62.46","YELLOWKNIFE A","2204100","2012-02-14 10:00","2012","02","14","10:00","-19.7","","-22.6","","78","","","","33","","11","","24.1","","98.29","","","","-27","","Clear"
"-114.44","62.46","YELLOWKNIFE A","2204100","2012-02-14 11:00","2012","02","14","11:00","-18.1","","-20.8","","79","","","","32","","6","","24.1","","98.27","","","","-23","","Clear"
"-114.44","62.46","YELLOWKNIFE A","2204100","2012-02-14 12:00","2012","02","14","12:00","-16.4","","-19.4","","78","","","","","","0","","24.1","","98.33","","","","","","Mainly Clear"
"-114.44","62.46","YELLOWKNIFE A","2204100","2012-02-14 13:00","2012","02","14","13:00","-14.3","","-18.1","","73","","","","33","","4","","24.1","","98.33","","","","-17","","Mainly Clear"
"-114.44","62.46","YELLOWKNIFE A","2204100","2012-02-14 14:00","2012","02","14","14:00","-12.7","","-17.3","","68","","","","30","","7","","24.1","","98.32","","","","-17","","Mainly Clear"
"-114.44","62.46","YELLOWKNIFE A","2204100","2012-02-14 15:00","2012","02","14","15:00","-12.2","","-17.2","","66","","","","33","","4","","24.1","","98.36","","","","-15","","Mainly Clear"
"-114.44","62.46","YELLOWKNIFE A","2204100","2012-02-14 16:00","2012","02","14","16:00","-12.3","","-17.4","","66","","","","32","","7","","24.1","","98.37","","","","-17","","Mainly Clear"
"-114.44","62.46","YELLOWKNIFE A","2204100","2012-02-14 17:00","2012","02","14","17:00","-12.1","","-17.0","","67","","","","","","0","","24.1","","98.38","","","","","","Mostly Cloudy"
"-114.44","62.46","YELLOWKNIFE A","2204100","2012-02-14 18:00","2012","02","14","18:00","-13.3","","-18.1","","67","","","","26","","4","","24.1","","98.40","","","","-16","","Mostly Cloudy"
"-114.44","62.46","YELLOWKNIFE A","2204100","2012-02-14 19:00","2012","02","14","19:00","-13.7","","-18.0","","70","","","","27","","7","","24.1","","98.43","","","","-18","","Mostly Cloudy"
"-114.44","62.46","YELLOWKNIFE A","2204100","2012-02-14 20:00","2012","02","14","20:00","-13.9","","-18.0","","71","","","","","","0","","24.1","","98.45","","","","","","Mostly Cloudy"
"-114.44","62.46","YELLOWKNIFE A","2204100","2012-02-14 21:00","2012","02","14","21:00","-13.7","","-17.7","","72","","","","","","0","","24.1","","98.39","","","","","","Mostly Cloudy"
"-114.44","62.46","YELLOWKNIFE A","2204100","2012-02-14 22:00","2012","02","14","22:00","-13.7","","-17.5","","73","","","","11","","4","","24.1","","98.38","","","","-16","","Mostly Cloudy"
"-114.44","62.46","YELLOWKNIFE A","2204100","2012-02-14 23:00","2012","02","14","23:00","-14.8","","-18.4","","74","","","","20","","4","","24.1","","98.44","","","","-18","","Mostly Cloudy"
"-114.44","62.46","YELLOWKNIFE A","2204100","2012-02-15 00:00","2012","02","15","00:00","-14.7","","-18.1","","75","","","","11","","4","","24.1","","98.45","","","","-18","","Cloudy"
"-114.44","62.46","YELLOWKNIFE A","2204100","2012-02-15 01:00","2012","02","15","01:00","-15.4","","-18.3","","78","","","","","","0","","24.1","","98.50","","","","","","Mostly Cloudy"
"-114.44","62.46","YELLOWKNIFE A","2204100","2012-02-15 02:00","2012","02","15","02:00","-16.0","","-19.4","","75","","","","11","","6","","24.1","","98.49","","","","-20","","Clear"
"-114.44","62.46","YELLOWKNIFE A","2204100","2012-02-15 03:00","2012","02","15","03:00","-18.1","","-21.7","","73","","","","12","","4","","24.1","","98.50","","","","-21","","Clear"
"-114.44","62.46","YELLOWKNIFE A","2204100","2012-02-15 04:00","2012","02","15","04:00","-18.7","","-22.9","","69","","","","","","0","","24.1","","98.54","","","","","","Clear"
"-114.44","62.46","YELLOWKNIFE A","2204100","2012-02-15 05:00","2012","02","15","05:00","-20.5","","-24.3","","72","","","","10","","4","","24.1","","98.60","","","","-24","","Clear"
"-114.44","62.46","YELLOWKNIFE A","2204100","2012-02-15 06:00","2012","02","15","06:00","-19.5","","-21.9","","81","","","","","","0","","24.1","","98.64","","","","","","Mainly Clear"
"-114.44","62.46","YELLOWKNIFE A","2204100","2012-02-15 07:00","2012","02","15","07:00","-18.1","","-20.8","","79","","","","9","","7","","24.1","","98.64","","","","-23","","Mainly Clear"
"-114.44","62.46","YELLOWKNIFE A","2204100","2012-02-15 08:00","2012","02","15","08:00","-16.9","","-19.7","","79","","","","14","","9","","24.1","","98.67","","","","-23","","Mainly Clear"
"-114.44","62.46","YELLOWKNIFE A","2204100","2012-02-15 09:00","2012","02","15","09:00","-16.6","","-19.4","","79","","","","","","0","","24.1","","98.75","","","","","","Mainly Clear"
"-114.44","62.46","YELLOWKNIFE A","2204100","2012-02-15 10:00","2012","02","15","10:00","-15.6","","-18.3","","80","","","","","","0","","24.1","","98.86","","","","","","Mostly Cloudy"
"-114.44","62.46","YELLOWKNIFE A","2204100","2012-02-15 11:00","2012","02","15","11:00","-14.7","","-18.0","","76","","","","15","","6","","24.1","","98.92","","","","-19","","Mostly Cloudy"
"-114.44","62.46","YELLOWKNIFE A","2204100","2012-02-15 12:00","2012","02","15","12:00","-14.2","","-17.8","","74","","","","","","0","","24.1","","99.00","","","","","","Snow"
"-114.44","62.46","YELLOWKNIFE A","2204100","2012-02-15 13:00","2012","02","15","13:00","-12.8","","-17.1","","70","","","","14","","6","","24.1","","98.99","","","","-17","","Snow"
"-114.44","62.46","YELLOWKNIFE A","2204100","2012-02-15 14:00","2012","02","15","14:00","-12.2","","-16.7","","69","","","","15","","7","","24.1","","99.03","","","","-17","","Mostly Cloudy"
"-114.44","62.46","YELLOWKNIFE A","2204100","2012-02-15 15:00","2012","02","15","15:00","-11.6","","-16.2","","69","","","","20","","6","","24.1","","99.05","","","","-15","","Snow"
"-114.44","62.46","YELLOWKNIFE A","2204100","2012-02-15 16:00","2012","02","15","16:00","-11.4","","-16.1","","68","","","","22","","4","","24.1","","99.09","","","","-14","","Mostly Cloudy"
"-114.44","62.46","YELLOWKNIFE A","2204100","2012-02-15 17:00","2012","02","15","17:00","-12.7","","-17.0","","70","","","","20","","6","","24.1","","99.11","","","","-17","","Mostly Cloudy"
"-114.44","62.46","YELLOWKNIFE A","2204100","2012-02-15 18:00","2012","02","15","18:00","-14.1","","-17.4","","76","","","","16","","7","","24.1","","99.13","","","","-19","","Mainly Clear"
"-114.44","62.46","YELLOWKNIFE A","2204100","2012-02-15 19:00","2012","02","15","19:00","-14.6","","-17.8","","77","","","","17","","7","","24.1","","99.17","","","","-19","","Mainly Clear"
"-114.44","62.46","YELLOWKNIFE A","2204100","2012-02-15 20:00","2012","02","15","20:00","-15.1","","-17.7","","80","","","","15","","7","","24.1","","99.15","","","","-20","","Mainly Clear"
"-114.44","62.46","YELLOWKNIFE A","2204100","2012-02-15 21:00","2012","02","15","21:00","-15.0","","-17.4","","82","","","","16","","9","","24.1","","99.19","","","","-21","","Mainly Clear"
"-114.44","62.46","YELLOWKNIFE A","2204100","2012-02-15 22:00","2012","02","15","22:00","-14.5","","-16.9","","82","","","","15","","13","","24.1","","99.21","","","","-22","","Mainly Clear"
"-114.44","62.46","YELLOWKNIFE A","2204100","2012-02-15 23:00","2012","02","15","23:00","-15.3","","-17.8","","81","","","","15","","9","","24.1","","99.19","","","","-21","","Clear"
"-114.44","62.46","YELLOWKNIFE A","2204100","2012-02-16 00:00","2012","02","16","00:00","-15.9","","-18.4","","81","","","","15","","11","","24.1","","99.19","","","","-23","","Clear"
"-114.44","62.46","YELLOWKNIFE A","2204100","2012-02-16 01:00","2012","02","16","01:00","-15.7","","-18.2","","81","","","","16","","6","","24.1","","99.20","","","","-20","","Mainly Clear"
"-114.44","62.46","YELLOWKNIFE A","2204100","2012-02-16 02:00","2012","02","16","02:00","-16.3","","-19.0","","80","","","","16","","9","","24.1","","99.20","","","","-22","","Mainly Clear"
"-114.44","62.46","YELLOWKNIFE A","2204100","2012-02-16 03:00","2012","02","16","03:00","-16.1","","-18.9","","79","","","","15","","13","","24.1","","99.16","","","","-24","","Mainly Clear"
"-114.44","62.46","YELLOWKNIFE A","2204100","2012-02-16 04:00","2012","02","16","04:00","-15.9","","-18.9","","78","","","","15","","13","","24.1","","99.10","","","","-23","","Mainly Clear"
"-114.44","62.46","YELLOWKNIFE A","2204100","2012-02-16 05:00","2012","02","16","05:00","-15.5","","-18.5","","78","","","","16","","13","","24.1","","99.10","","","","-23","","Mainly Clear"
"-114.44","62.46","YELLOWKNIFE A","2204100","2012-02-16 06:00","2012","02","16","06:00","-15.3","","-18.8","","75","","","","16","","15","","24.1","","99.14","","","","-23","","Mainly Clear"
"-114.44","62.46","YELLOWKNIFE A","2204100","2012-02-16 07:00","2012","02","16","07:00","-16.1","","-19.3","","76","","","","15","","19","","24.1","","99.12","","","","-25","","Clear"
"-114.44","62.46","YELLOWKNIFE A","2204100","2012-02-16 08:00","2012","02","16","08:00","-16.6","","-19.8","","76","","","","14","","15","","24.1","","99.04","","","","-25","","Clear"
"-114.44","62.46","YELLOWKNIFE A","2204100","2012-02-16 09:00","2012","02","16","09:00","-16.3","","-19.4","","77","","","","14","","15","","24.1","","99.02","","","","-25","","Clear"
"-114.44","62.46","YELLOWKNIFE A","2204100","2012-02-16 10:00","2012","02","16","10:00","-14.9","","-17.9","","78","","","","13","","13","","24.1","","98.98","","","","-22","","Mainly Clear"
"-114.44","62.46","YELLOWKNIFE A","2204100","2012-02-16 11:00","2012","02","16","11:00","-14.1","","-16.8","","80","","","","15","","19","","24.1","","98.98","","","","-23","","Mainly Clear"
"-114.44","62.46","YELLOWKNIFE A","2204100","2012-02-16 12:00","2012","02","16","12:00","-13.5","","-16.5","","78","","","","13","","19","","24.1","","98.92","","","","-22","","Mainly Clear"
"-114.44","62.46","YELLOWKNIFE A","2204100","2012-02-16 13:00","2012","02","16","13:00","-12.1","","-15.2","","78","","","","13","","22","","24.1","","98.84","","","","-21","","Mainly Clear"
"-114.44","62.46","YELLOWKNIFE A","2204100","2012-02-16 14:00","2012","02","16","14:00","-10.9","","-14.1","","77","","","","15","","28","","24.1","","98.80","","","","-20","","Mostly Cloudy"
"-114.44","62.46","YELLOWKNIFE A","2204100","2012-02-16 15:00","2012","02","16","15:00","-10.6","","-14.5","","73","","","","15","","22","","24.1","","98.73","","","","-19","","Mostly Cloudy"
"-114.44","62.46","YELLOWKNIFE A","2204100","2012-02-16 16:00","2012","02","16","16:00","-10.4","","-14.2","","74","","","","14","","19","","24.1","","98.69","","","","-18","","Mostly Cloudy"
"-114.44","62.46","YELLOWKNIFE A","2204100","2012-02-16 17:00","2012","02","16","17:00","-10.7","","-14.5","","74","","","","14","","19","","24.1","","98.64","","","","-19","","Mostly Cloudy"
"-114.44","62.46","YELLOWKNIFE A","2204100","2012-02-16 18:00","2012","02","16","18:00","-11.0","","-14.7","","74","","","","13","","19","","24.1","","98.58","","","","-19","","Mostly Cloudy"
"-114.44","62.46","YELLOWKNIFE A","2204100","2012-02-16 19:00","2012","02","16","19:00","-10.9","","-14.5","","75","","","","14","","19","","24.1","","98.52","","","","-19","","Mostly Cloudy"
"-114.44","62.46","YELLOWKNIFE A","2204100","2012-02-16 20:00","2012","02","16","20:00","-10.6","","-14.2","","75","","","","14","","19","","24.1","","98.47","","","","-18","","Cloudy"
"-114.44","62.46","YELLOWKNIFE A","2204100","2012-02-16 21:00","2012","02","16","21:00","-10.5","","-14.2","","74","","","","15","","33","","24.1","","98.39","","","","-21","","Cloudy"
"-114.44","62.46","YELLOWKNIFE A","2204100","2012-02-16 22:00","2012","02","16","22:00","-10.8","","-14.3","","75","","","","14","","28","","24.1","","98.35","","","","-20","","Cloudy"
"-114.44","62.46","YELLOWKNIFE A","2204100","2012-02-16 23:00","2012","02","16","23:00","-11.0","","-14.3","","77","","","","14","","22","","24.1","","98.32","","","","-20","","Mostly Cloudy"
"-114.44","62.46","YELLOWKNIFE A","2204100","2012-02-17 00:00","2012","02","17","00:00","-11.2","","-14.3","","78","","","","14","","28","","24.1","","98.27","","","","-21","","Cloudy"
"-114.44","62.46","YELLOWKNIFE A","2204100","2012-02-17 01:00","2012","02","17","01:00","-11.2","","-14.2","","78","","","","14","","22","","24.1","","98.29","","","","-20","","Cloudy"
"-114.44","62.46","YELLOWKNIFE A","2204100","2012-02-17 02:00","2012","02","17","02:00","-11.5","","-13.3","","86","","","","15","","19","","4.8","","98.29","","","","-20","","Snow"
"-114.44","62.46","YELLOWKNIFE A","2204100","2012-02-17 03:00","2012","02","17","03:00","-11.6","","-13.0","","89","","","","16","","13","","6.4","","98.26","","","","-18","","Snow"
"-114.44","62.46","YELLOWKNIFE A","2204100","2012-02-17 04:00","2012","02","17","04:00","-12.7","","-13.7","","92","","","","","","0","","24.1","","98.29","","","","","","Snow"
"-114.44","62.46","YELLOWKNIFE A","2204100","2012-02-17 05:00","2012","02","17","05:00","-13.8","","-15.2","","89","","","","","","0","","24.1","","98.36","","","","","","Mainly Clear"
"-114.44","62.46","YELLOWKNIFE A","2204100","2012-02-17 06:00","2012","02","17","06:00","-17.6","","-19.2","","87","","","","","","0","","24.1","","98.37","","","","","","Clear"
"-114.44","62.46","YELLOWKNIFE A","2204100","2012-02-17 07:00","2012","02","17","07:00","-16.0","","-17.5","","88","","","","","","0","","9.7","","98.40","","","","","","Fog"
"-114.44","62.46","YELLOWKNIFE A","2204100","2012-02-17 08:00","2012","02","17","08:00","-13.9","","-15.1","","91","","","","27","","7","","24.1","","98.46","","","","-19","","Mostly Cloudy"
"-114.44","62.46","YELLOWKNIFE A","2204100","2012-02-17 09:00","2012","02","17","09:00","-13.0","","-14.1","","91","","","","25","","7","","24.1","","98.51","","","","-18","","Mostly Cloudy"
"-114.44","62.46","YELLOWKNIFE A","2204100","2012-02-17 10:00","2012","02","17","10:00","-10.7","","-11.7","","92","","","","","","0","","24.1","","98.49","","","","","","Mostly Cloudy"
"-114.44","62.46","YELLOWKNIFE A","2204100","2012-02-17 11:00","2012","02","17","11:00","-9.3","","-9.6","","98","","","","","","0","","24.1","","98.49","","","","","","Mostly Cloudy"
"-114.44","62.46","YELLOWKNIFE A","2204100","2012-02-17 12:00","2012","02","17","12:00","-7.6","","-8.4","","94","","","","","","0","","24.1","","98.50","","","","","","Mostly Cloudy"
"-114.44","62.46","YELLOWKNIFE A","2204100","2012-02-17 13:00","2012","02","17","13:00","-7.2","","-9.6","","83","","","","18","","4","","24.1","","98.49","","","","-9","","Mostly Cloudy"
"-114.44","62.46","YELLOWKNIFE A","2204100","2012-02-17 14:00","2012","02","17","14:00","-8.3","","-10.0","","88","","","","18","","15","","24.1","","98.44","","","","-15","","Mostly Cloudy"
"-114.44","62.46","YELLOWKNIFE A","2204100","2012-02-17 15:00","2012","02","17","15:00","-8.4","","-9.9","","89","","","","15","","15","","24.1","","98.39","","","","-15","","Mostly Cloudy"
"-114.44","62.46","YELLOWKNIFE A","2204100","2012-02-17 16:00","2012","02","17","16:00","-8.0","","-9.5","","89","","","","18","","11","","24.1","","98.35","","","","-13","","Mostly Cloudy"
"-114.44","62.46","YELLOWKNIFE A","2204100","2012-02-17 17:00","2012","02","17","17:00","-9.4","","-11.1","","87","","","","16","","19","","24.1","","98.30","","","","-17","","Mostly Cloudy"
"-114.44","62.46","YELLOWKNIFE A","2204100","2012-02-17 18:00","2012","02","17","18:00","-11.3","","-12.9","","88","","","","16","","11","","24.1","","98.25","","","","-17","","Mostly Cloudy"
"-114.44","62.46","YELLOWKNIFE A","2204100","2012-02-17 19:00","2012","02","17","19:00","-11.5","","-12.8","","90","","","","17","","11","","24.1","","98.22","","","","-17","","Mainly Clear"
"-114.44","62.46","YELLOWKNIFE A","2204100","2012-02-17 20:00","2012","02","17","20:00","-12.0","","-13.4","","89","","","","17","","9","","24.1","","98.21","","","","-17","","Mainly Clear"
"-114.44","62.46","YELLOWKNIFE A","2204100","2012-02-17 21:00","2012","02","17","21:00","-12.1","","-13.4","","90","","","","17","","9","","24.1","","98.16","","","","-17","","Clear"
"-114.44","62.46","YELLOWKNIFE A","2204100","2012-02-17 22:00","2012","02","17","22:00","-12.3","","-13.4","","91","","","","17","","4","","24.1","","98.15","","","","-15","","Clear"
"-114.44","62.46","YELLOWKNIFE A","2204100","2012-02-17 23:00","2012","02","17","23:00","-14.4","","-15.0","","95","","","","","","0","","24.1","","98.13","","","","","","Clear"
"-114.44","62.46","YELLOWKNIFE A","2204100","2012-02-18 00:00","2012","02","18","00:00","-17.7","","-19.5","","86","","","","27","","4","","24.1","","98.15","","","","-21","","Clear"
"-114.44","62.46","YELLOWKNIFE A","2204100","2012-02-18 01:00","2012","02","18","01:00","-15.6","","-17.1","","88","","","","29","","17","","24.1","","98.17","","","","-24","","Clear"
"-114.44","62.46","YELLOWKNIFE A","2204100","2012-02-18 02:00","2012","02","18","02:00","-13.2","","-14.4","","91","","","","32","","19","","24.1","","98.24","","","","-22","","Clear"
"-114.44","62.46","YELLOWKNIFE A","2204100","2012-02-18 03:00","2012","02","18","03:00","-13.4","","-14.4","","92","","","","32","","19","","24.1","","98.28","","","","-22","","Clear"
"-114.44","62.46","YELLOWKNIFE A","2204100","2012-02-18 04:00","2012","02","18","04:00","-14.9","","-16.0","","91","","","","32","","15","","24.1","","98.35","","","","-23","","Clear"
"-114.44","62.46","YELLOWKNIFE A","2204100","2012-02-18 05:00","2012","02","18","05:00","-15.4","","-16.7","","90","","","","32","","13","","24.1","","98.37","","","","-23","","Clear"
"-114.44","62.46","YELLOWKNIFE A","2204100","2012-02-18 06:00","2012","02","18","06:00","-15.0","","-16.2","","91","","","","31","","15","","24.1","","98.42","","","","-23","","Clear"
"-114.44","62.46","YELLOWKNIFE A","2204100","2012-02-18 07:00","2012","02","18","07:00","-15.4","","-16.5","","91","","","","32","","17","","24.1","","98.49","","","","-24","","Clear"
"-114.44","62.46","YELLOWKNIFE A","2204100","2012-02-18 08:00","2012","02","18","08:00","-15.8","","-17.1","","90","","","","33","","15","","24.1","","98.60","","","","-24","","Clear"
"-114.44","62.46","YELLOWKNIFE A","2204100","2012-02-18 09:00","2012","02","18","09:00","-16.4","","-17.8","","89","","","","33","","9","","24.1","","98.66","","","","-22","","Clear"
"-114.44","62.46","YELLOWKNIFE A","2204100","2012-02-18 10:00","2012","02","18","10:00","-16.1","","-17.5","","89","","","","33","","9","","24.1","","98.73","","","","-22","","Clear"
"-114.44","62.46","YELLOWKNIFE A","2204100","2012-02-18 11:00","2012","02","18","11:00","-15.6","","-16.9","","90","","","","33","","9","","24.1","","98.80","","","","-22","","Clear"
"-114.44","62.46","YELLOWKNIFE A","2204100","2012-02-18 12:00","2012","02","18","12:00","-15.5","","-17.0","","88","","","","35","","7","","24.1","","98.86","","","","-20","","Mainly Clear"
"-114.44","62.46","YELLOWKNIFE A","2204100","2012-02-18 13:00","2012","02","18","13:00","-14.9","","-17.7","","79","","","","34","","6","","24.1","","98.90","","","","-19","","Mainly Clear"
"-114.44","62.46","YELLOWKNIFE A","2204100","2012-02-18 14:00","2012","02","18","14:00","-14.4","","-17.7","","76","","","","1","","7","","24.1","","98.94","","","","-19","","Mainly Clear"
"-114.44","62.46","YELLOWKNIFE A","2204100","2012-02-18 15:00","2012","02","18","15:00","-14.3","","-18.0","","73","","","","2","","15","","24.1","","98.95","","","","-22","","Mainly Clear"
"-114.44","62.46","YELLOWKNIFE A","2204100","2012-02-18 16:00","2012","02","18","16:00","-14.8","","-18.7","","72","","","","5","","15","","24.1","","98.96","","","","-23","","Mainly Clear"
"-114.44","62.46","YELLOWKNIFE A","2204100","2012-02-18 17:00","2012","02","18","17:00","-16.3","","-20.7","","69","","","","5","","9","","24.1","","99.00","","","","-22","","Mainly Clear"
"-114.44","62.46","YELLOWKNIFE A","2204100","2012-02-18 18:00","2012","02","18","18:00","-18.1","","-22.8","","67","","","","5","","7","","24.1","","99.08","","","","-23","","Mainly Clear"
"-114.44","62.46","YELLOWKNIFE A","2204100","2012-02-18 19:00","2012","02","18","19:00","-19.0","","-22.7","","73","","","","7","","4","","24.1","","99.13","","","","-22","","Mainly Clear"
"-114.44","62.46","YELLOWKNIFE A","2204100","2012-02-18 20:00","2012","02","18","20:00","-21.0","","-24.1","","76","","","","6","","11","","24.1","","99.11","","","","-29","","Clear"
"-114.44","62.46","YELLOWKNIFE A","2204100","2012-02-18 21:00","2012","02","18","21:00","-19.9","","-23.8","","71","","","","7","","19","","24.1","","99.13","","","","-30","","Clear"
"-114.44","62.46","YELLOWKNIFE A","2204100","2012-02-18 22:00","2012","02","18","22:00","-20.9","","-25.0","","70","","","","7","","15","","24.1","","99.16","","","","-30","","Clear"
"-114.44","62.46","YELLOWKNIFE A","2204100","2012-02-18 23:00","2012","02","18","23:00","-21.2","","-25.1","","71","","","","9","","17","","24.1","","99.20","","","","-31","","Clear"
"-114.44","62.46","YELLOWKNIFE A","2204100","2012-02-19 00:00","2012","02","19","00:00","-21.4","","-25.4","","70","","","","9","","15","","24.1","","99.19","","","","-31","","Clear"
"-114.44","62.46","YELLOWKNIFE A","2204100","2012-02-19 01:00","2012","02","19","01:00","-21.1","","-25.4","","68","","","","9","","15","","24.1","","99.20","","","","-30","","Mainly Clear"
"-114.44","62.46","YELLOWKNIFE A","2204100","2012-02-19 02:00","2012","02","19","02:00","-21.2","","-25.4","","69","","","","9","","19","","24.1","","99.17","","","","-32","","Mainly Clear"
"-114.44","62.46","YELLOWKNIFE A","2204100","2012-02-19 03:00","2012","02","19","03:00","-21.0","","-25.0","","70","","","","10","","19","","24.1","","99.16","","","","-31","","Mainly Clear"
"-114.44","62.46","YELLOWKNIFE A","2204100","2012-02-19 04:00","2012","02","19","04:00","-21.0","","-25.0","","70","","","","9","","15","","24.1","","99.15","","","","-30","","Mostly Cloudy"
"-114.44","62.46","YELLOWKNIFE A","2204100","2012-02-19 05:00","2012","02","19","05:00","-20.5","","-24.6","","70","","","","10","","15","","24.1","","99.12","","","","-30","","Cloudy"
"-114.44","62.46","YELLOWKNIFE A","2204100","2012-02-19 06:00","2012","02","19","06:00","-19.7","","-24.0","","69","","","","9","","19","","24.1","","99.13","","","","-30","","Cloudy"
"-114.44","62.46","YELLOWKNIFE A","2204100","2012-02-19 07:00","2012","02","19","07:00","-19.5","","-24.0","","67","","","","9","","19","","24.1","","99.11","","","","-30","","Cloudy"
"-114.44","62.46","YELLOWKNIFE A","2204100","2012-02-19 08:00","2012","02","19","08:00","-19.5","","-23.9","","68","","","","9","","19","","24.1","","99.07","","","","-30","","Mostly Cloudy"
"-114.44","62.46","YELLOWKNIFE A","2204100","2012-02-19 09:00","2012","02","19","09:00","-19.2","","-23.7","","68","","","","10","","22","","24.1","","99.02","","","","-30","","Mostly Cloudy"
"-114.44","62.46","YELLOWKNIFE A","2204100","2012-02-19 10:00","2012","02","19","10:00","-18.6","","-23.7","","64","","","","10","","19","","24.1","","99.05","","","","-28","","Mostly Cloudy"
"-114.44","62.46","YELLOWKNIFE A","2204100","2012-02-19 11:00","2012","02","19","11:00","-18.4","","-23.8","","62","","","","9","","19","","24.1","","99.06","","","","-28","","Mostly Cloudy"
"-114.44","62.46","YELLOWKNIFE A","2204100","2012-02-19 12:00","2012","02","19","12:00","-17.7","","-23.2","","62","","","","9","","19","","24.1","","99.02","","","","-27","","Mostly Cloudy"
"-114.44","62.46","YELLOWKNIFE A","2204100","2012-02-19 13:00","2012","02","19","13:00","-17.0","","-23.1","","59","","","","9","","19","","24.1","","99.02","","","","-26","","Mostly Cloudy"
"-114.44","62.46","YELLOWKNIFE A","2204100","2012-02-19 14:00","2012","02","19","14:00","-16.5","","-22.9","","58","","","","10","","19","","24.1","","99.00","","","","-26","","Mostly Cloudy"
"-114.44","62.46","YELLOWKNIFE A","2204100","2012-02-19 15:00","2012","02","19","15:00","-16.6","","-22.5","","60","","","","9","","19","","24.1","","98.91","","","","-26","","Mostly Cloudy"
"-114.44","62.46","YELLOWKNIFE A","2204100","2012-02-19 16:00","2012","02","19","16:00","-16.6","","-22.9","","58","","","","9","","19","","24.1","","98.87","","","","-26","","Mostly Cloudy"
"-114.44","62.46","YELLOWKNIFE A","2204100","2012-02-19 17:00","2012","02","19","17:00","-17.0","","-23.0","","60","","","","9","","19","","24.1","","98.88","","","","-26","","Mostly Cloudy"
"-114.44","62.46","YELLOWKNIFE A","2204100","2012-02-19 18:00","2012","02","19","18:00","-17.2","","-23.0","","61","","","","9","","19","","24.1","","98.85","","","","-27","","Mostly Cloudy"
"-114.44","62.46","YELLOWKNIFE A","2204100","2012-02-19 19:00","2012","02","19","19:00","-17.2","","-23.0","","61","","","","9","","19","","24.1","","98.86","","","","-27","","Mostly Cloudy"
"-114.44","62.46","YELLOWKNIFE A","2204100","2012-02-19 20:00","2012","02","19","20:00","-17.3","","-22.9","","62","","","","9","","19","","24.1","","98.85","","","","-27","","Mostly Cloudy"
"-114.44","62.46","YELLOWKNIFE A","2204100","2012-02-19 21:00","2012","02","19","21:00","-17.6","","-23.1","","62","","","","10","","19","","24.1","","98.86","","","","-27","","Mostly Cloudy"
"-114.44","62.46","YELLOWKNIFE A","2204100","2012-02-19 22:00","2012","02","19","22:00","-17.4","","-22.9","","62","","","","9","","19","","24.1","","98.83","","","","-27","","Mostly Cloudy"
"-114.44","62.46","YELLOWKNIFE A","2204100","2012-02-19 23:00","2012","02","19","23:00","-17.2","","-22.6","","63","","","","10","","19","","24.1","","98.82","","","","-27","","Cloudy"
"-114.44","62.46","YELLOWKNIFE A","2204100","2012-02-20 00:00","2012","02","20","00:00","-17.0","","-22.4","","63","","","","11","","19","","24.1","","98.82","","","","-26","","Cloudy"
"-114.44","62.46","YELLOWKNIFE A","2204100","2012-02-20 01:00","2012","02","20","01:00","-17.0","","-22.7","","61","","","","10","","28","","24.1","","98.81","","","","-28","","Cloudy"
"-114.44","62.46","YELLOWKNIFE A","2204100","2012-02-20 02:00","2012","02","20","02:00","-17.3","","-22.8","","62","","","","10","","19","","24.1","","98.81","","","","-27","","Cloudy"
"-114.44","62.46","YELLOWKNIFE A","2204100","2012-02-20 03:00","2012","02","20","03:00","-17.3","","-22.7","","63","","","","10","","13","","24.1","","98.79","","","","-25","","Cloudy"
"-114.44","62.46","YELLOWKNIFE A","2204100","2012-02-20 04:00","2012","02","20","04:00","-17.2","","-22.6","","63","","","","11","","15","","24.1","","98.77","","","","-26","","Cloudy"
"-114.44","62.46","YELLOWKNIFE A","2204100","2012-02-20 05:00","2012","02","20","05:00","-17.4","","-22.8","","63","","","","10","","15","","24.1","","98.74","","","","-26","","Cloudy"
"-114.44","62.46","YELLOWKNIFE A","2204100","2012-02-20 06:00","2012","02","20","06:00","-17.4","","-22.8","","63","","","","11","","11","","24.1","","98.70","","","","-25","","Mostly Cloudy"
"-114.44","62.46","YELLOWKNIFE A","2204100","2012-02-20 07:00","2012","02","20","07:00","-17.6","","-22.9","","63","","","","11","","17","","24.1","","98.66","","","","-27","","Cloudy"
"-114.44","62.46","YELLOWKNIFE A","2204100","2012-02-20 08:00","2012","02","20","08:00","-17.5","","-23.0","","62","","","","10","","15","","24.1","","98.64","","","","-26","","Cloudy"
"-114.44","62.46","YELLOWKNIFE A","2204100","2012-02-20 09:00","2012","02","20","09:00","-17.4","","-22.4","","65","","","","11","","11","","4.8","","98.63","","","","-25","","Snow,Fog"
"-114.44","62.46","YELLOWKNIFE A","2204100","2012-02-20 10:00","2012","02","20","10:00","-17.2","","-21.1","","72","","","","11","","11","","4.8","","98.61","","","","-24","","Snow,Fog"
"-114.44","62.46","YELLOWKNIFE A","2204100","2012-02-20 11:00","2012","02","20","11:00","-16.8","","-20.8","","71","","","","12","","11","","8.0","","98.57","","","","-24","","Snow,Fog"
"-114.44","62.46","YELLOWKNIFE A","2204100","2012-02-20 12:00","2012","02","20","12:00","-16.1","","-20.4","","69","","","","13","","11","","16.1","","98.52","","","","-23","","Snow"
"-114.44","62.46","YELLOWKNIFE A","2204100","2012-02-20 13:00","2012","02","20","13:00","-15.8","","-20.3","","68","","","","12","","11","","8.0","","98.49","","","","-23","","Snow"
"-114.44","62.46","YELLOWKNIFE A","2204100","2012-02-20 14:00","2012","02","20","14:00","-15.6","","-18.6","","78","","","","26","","11","","6.4","","98.44","","","","-22","","Snow,Fog"
"-114.44","62.46","YELLOWKNIFE A","2204100","2012-02-20 15:00","2012","02","20","15:00","-15.6","","-18.8","","76","","","","15","","11","","6.4","","98.40","","","","-22","","Snow,Fog"
"-114.44","62.46","YELLOWKNIFE A","2204100","2012-02-20 16:00","2012","02","20","16:00","-15.7","","-18.8","","77","","","","16","","7","","16.1","","98.36","","","","-21","","Snow"
"-114.44","62.46","YELLOWKNIFE A","2204100","2012-02-20 17:00","2012","02","20","17:00","-15.7","","-18.8","","77","","","","17","","6","","24.1","","98.32","","","","-20","","Snow"
"-114.44","62.46","YELLOWKNIFE A","2204100","2012-02-20 18:00","2012","02","20","18:00","-15.9","","-18.7","","79","","","","15","","15","","24.1","","98.24","","","","-24","","Snow"
"-114.44","62.46","YELLOWKNIFE A","2204100","2012-02-20 19:00","2012","02","20","19:00","-15.9","","-18.7","","79","","","","15","","13","","24.1","","98.19","","","","-23","","Snow"
"-114.44","62.46","YELLOWKNIFE A","2204100","2012-02-20 20:00","2012","02","20","20:00","-15.9","","-18.5","","80","","","","15","","11","","24.1","","98.11","","","","-23","","Snow"
"-114.44","62.46","YELLOWKNIFE A","2204100","2012-02-20 21:00","2012","02","20","21:00","-15.9","","-18.1","","83","","","","14","","9","","24.1","","98.03","","","","-22","","Snow"
"-114.44","62.46","YELLOWKNIFE A","2204100","2012-02-20 22:00","2012","02","20","22:00","-16.0","","-18.5","","81","","","","12","","13","","24.1","","97.95","","","","-24","","Snow"
"-114.44","62.46","YELLOWKNIFE A","2204100","2012-02-20 23:00","2012","02","20","23:00","-15.9","","-18.5","","80","","","","12","","7","","24.1","","97.89","","","","-21","","Snow"
"-114.44","62.46","YELLOWKNIFE A","2204100","2012-02-21 00:00","2012","02","21","00:00","-16.0","","-18.4","","82","","","","11","","6","","24.1","","97.81","","","","-20","","Snow"
"-114.44","62.46","YELLOWKNIFE A","2204100","2012-02-21 01:00","2012","02","21","01:00","-17.0","","-19.2","","83","","","","10","","9","","24.1","","97.75","","","","-23","","Snow"
"-114.44","62.46","YELLOWKNIFE A","2204100","2012-02-21 02:00","2012","02","21","02:00","-18.0","","-21.3","","75","","","","10","","7","","24.1","","97.66","","","","-23","","Snow"
"-114.44","62.46","YELLOWKNIFE A","2204100","2012-02-21 03:00","2012","02","21","03:00","-18.0","","-20.7","","79","","","","10","","11","","24.1","","97.57","","","","-25","","Clear"
"-114.44","62.46","YELLOWKNIFE A","2204100","2012-02-21 04:00","2012","02","21","04:00","-17.7","","-20.5","","79","","","","10","","15","","24.1","","97.53","","","","-26","","Snow"
"-114.44","62.46","YELLOWKNIFE A","2204100","2012-02-21 05:00","2012","02","21","05:00","-16.9","","-19.7","","79","","","","11","","17","","24.1","","97.45","","","","-26","","Snow"
"-114.44","62.46","YELLOWKNIFE A","2204100","2012-02-21 06:00","2012","02","21","06:00","-17.8","","-20.8","","77","","","","9","","15","","24.1","","97.39","","","","-26","","Mainly Clear"
"-114.44","62.46","YELLOWKNIFE A","2204100","2012-02-21 07:00","2012","02","21","07:00","-17.9","","-21.0","","77","","","","9","","13","","24.1","","97.32","","","","-26","","Mainly Clear"
"-114.44","62.46","YELLOWKNIFE A","2204100","2012-02-21 08:00","2012","02","21","08:00","-18.5","","-21.5","","77","","","","10","","15","","24.1","","97.31","","","","-27","","Mainly Clear"
"-114.44","62.46","YELLOWKNIFE A","2204100","2012-02-21 09:00","2012","02","21","09:00","-17.8","","-20.7","","78","","","","9","","15","","24.1","","97.28","","","","-26","","Mainly Clear"
"-114.44","62.46","YELLOWKNIFE A","2204100","2012-02-21 10:00","2012","02","21","10:00","-16.5","","-19.2","","80","","","","9","","15","","24.1","","97.22","","","","-25","","Mostly Cloudy"
"-114.44","62.46","YELLOWKNIFE A","2204100","2012-02-21 11:00","2012","02","21","11:00","-15.6","","-18.2","","80","","","","9","","15","","24.1","","97.15","","","","-24","","Mostly Cloudy"
"-114.44","62.46","YELLOWKNIFE A","2204100","2012-02-21 12:00","2012","02","21","12:00","-14.7","","-17.9","","77","","","","8","","19","","24.1","","97.11","","","","-24","","Mostly Cloudy"
"-114.44","62.46","YELLOWKNIFE A","2204100","2012-02-21 13:00","2012","02","21","13:00","-13.2","","-16.9","","74","","","","7","","15","","24.1","","97.12","","","","-21","","Mostly Cloudy"
"-114.44","62.46","YELLOWKNIFE A","2204100","2012-02-21 14:00","2012","02","21","14:00","-11.6","","-15.9","","70","","","","7","","9","","24.1","","97.13","","","","-17","","Mostly Cloudy"
"-114.44","62.46","YELLOWKNIFE A","2204100","2012-02-21 15:00","2012","02","21","15:00","-11.9","","-17.0","","66","","","","6","","7","","24.1","","97.14","","","","-16","","Mostly Cloudy"
"-114.44","62.46","YELLOWKNIFE A","2204100","2012-02-21 16:00","2012","02","21","16:00","-13.2","","-17.7","","69","","","","6","","13","","24.1","","97.14","","","","-20","","Mostly Cloudy"
"-114.44","62.46","YELLOWKNIFE A","2204100","2012-02-21 17:00","2012","02","21","17:00","-12.4","","-16.4","","72","","","","7","","13","","24.1","","97.14","","","","-19","","Mostly Cloudy"
"-114.44","62.46","YELLOWKNIFE A","2204100","2012-02-21 18:00","2012","02","21","18:00","-12.9","","-16.5","","74","","","","8","","19","","24.1","","97.12","","","","-21","","Mostly Cloudy"
"-114.44","62.46","YELLOWKNIFE A","2204100","2012-02-21 19:00","2012","02","21","19:00","-13.8","","-16.7","","79","","","","7","","15","","24.1","","97.14","","","","-21","","Mainly Clear"
"-114.44","62.46","YELLOWKNIFE A","2204100","2012-02-21 20:00","2012","02","21","20:00","-14.8","","-17.0","","83","","","","8","","9","","24.1","","97.15","","","","-21","","Mainly Clear"
"-114.44","62.46","YELLOWKNIFE A","2204100","2012-02-21 21:00","2012","02","21","21:00","-15.8","","-18.2","","82","","","","7","","13","","24.1","","97.11","","","","-23","","Mainly Clear"
"-114.44","62.46","YELLOWKNIFE A","2204100","2012-02-21 22:00","2012","02","21","22:00","-15.4","","-17.8","","82","","","","7","","13","","24.1","","97.10","","","","-23","","Mostly Cloudy"
"-114.44","62.46","YELLOWKNIFE A","2204100","2012-02-21 23:00","2012","02","21","23:00","-15.4","","-18.0","","80","","","","7","","15","","24.1","","97.09","","","","-23","","Mainly Clear"
"-114.44","62.46","YELLOWKNIFE A","2204100","2012-02-22 00:00","2012","02","22","00:00","-16.4","","-19.0","","80","","","","6","","6","","24.1","","97.07","","","","-21","","Clear"
"-114.44","62.46","YELLOWKNIFE A","2204100","2012-02-22 01:00","2012","02","22","01:00","-16.6","","-19.2","","80","","","","6","","15","","24.1","","97.08","","","","-25","","Clear"
"-114.44","62.46","YELLOWKNIFE A","2204100","2012-02-22 02:00","2012","02","22","02:00","-17.0","","-19.7","","80","","","","5","","7","","24.1","","97.12","","","","-22","","Clear"
"-114.44","62.46","YELLOWKNIFE A","2204100","2012-02-22 03:00","2012","02","22","03:00","-18.8","","-21.8","","77","","","","3","","6","","24.1","","97.19","","","","-24","","Clear"
"-114.44","62.46","YELLOWKNIFE A","2204100","2012-02-22 04:00","2012","02","22","04:00","-17.3","","-20.0","","79","","","","4","","15","","24.1","","97.16","","","","-26","","Mainly Clear"
"-114.44","62.46","YELLOWKNIFE A","2204100","2012-02-22 05:00","2012","02","22","05:00","-17.1","","-19.9","","79","","","","5","","11","","24.1","","97.19","","","","-24","","Clear"
"-114.44","62.46","YELLOWKNIFE A","2204100","2012-02-22 06:00","2012","02","22","06:00","-17.7","","-20.8","","77","","","","4","","9","","24.1","","97.23","","","","-24","","Clear"
"-114.44","62.46","YELLOWKNIFE A","2204100","2012-02-22 07:00","2012","02","22","07:00","-16.3","","-19.0","","80","","","","5","","11","","24.1","","97.31","","","","-23","","Snow"
"-114.44","62.46","YELLOWKNIFE A","2204100","2012-02-22 08:00","2012","02","22","08:00","-15.2","","-17.7","","81","","","","4","","13","","9.7","","97.37","","","","-23","","Snow"
"-114.44","62.46","YELLOWKNIFE A","2204100","2012-02-22 09:00","2012","02","22","09:00","-14.6","","-17.0","","82","","","","3","","13","","6.4","","97.38","","","","-22","","Snow,Fog"
"-114.44","62.46","YELLOWKNIFE A","2204100","2012-02-22 10:00","2012","02","22","10:00","-13.8","","-16.3","","81","","","","4","","19","","19.3","","97.42","","","","-22","","Snow"
"-114.44","62.46","YELLOWKNIFE A","2204100","2012-02-22 11:00","2012","02","22","11:00","-13.4","","-16.0","","81","","","","3","","15","","19.3","","97.51","","","","-21","","Snow"
"-114.44","62.46","YELLOWKNIFE A","2204100","2012-02-22 12:00","2012","02","22","12:00","-12.9","","-16.4","","75","","","","4","","15","","19.3","","97.58","","","","-20","","Snow"
"-114.44","62.46","YELLOWKNIFE A","2204100","2012-02-22 13:00","2012","02","22","13:00","-12.6","","-16.5","","73","","","","3","","19","","24.1","","97.66","","","","-21","","Mostly Cloudy"
"-114.44","62.46","YELLOWKNIFE A","2204100","2012-02-22 14:00","2012","02","22","14:00","-12.4","","-17.1","","68","","","","36","","15","","24.1","","97.75","","","","-20","","Mostly Cloudy"
"-114.44","62.46","YELLOWKNIFE A","2204100","2012-02-22 15:00","2012","02","22","15:00","-12.5","","-17.5","","66","","","","1","","15","","24.1","","97.84","","","","-20","","Mostly Cloudy"
"-114.44","62.46","YELLOWKNIFE A","2204100","2012-02-22 16:00","2012","02","22","16:00","-12.5","","-17.7","","65","","","","35","","15","","24.1","","97.96","","","","-20","","Mostly Cloudy"
"-114.44","62.46","YELLOWKNIFE A","2204100","2012-02-22 17:00","2012","02","22","17:00","-13.4","","-18.5","","65","","","","2","","9","","24.1","","98.05","","","","-19","","Mostly Cloudy"
"-114.44","62.46","YELLOWKNIFE A","2204100","2012-02-22 18:00","2012","02","22","18:00","-15.2","","-19.4","","70","","","","1","","9","","24.1","","98.14","","","","-21","","Mainly Clear"
"-114.44","62.46","YELLOWKNIFE A","2204100","2012-02-22 19:00","2012","02","22","19:00","-16.9","","-20.7","","72","","","","34","","9","","24.1","","98.24","","","","-23","","Snow"
"-114.44","62.46","YELLOWKNIFE A","2204100","2012-02-22 20:00","2012","02","22","20:00","-17.2","","-20.8","","74","","","","36","","13","","24.1","","98.32","","","","-25","","Snow"
"-114.44","62.46","YELLOWKNIFE A","2204100","2012-02-22 21:00","2012","02","22","21:00","-17.3","","-20.4","","77","","","","4","","6","","24.1","","98.37","","","","-22","","Snow"
"-114.44","62.46","YELLOWKNIFE A","2204100","2012-02-22 22:00","2012","02","22","22:00","-17.5","","-20.2","","79","","","","","","0","","24.1","","98.43","","","","","","Snow"
"-114.44","62.46","YELLOWKNIFE A","2204100","2012-02-22 23:00","2012","02","22","23:00","-18.0","","-21.1","","77","","","","","","0","","24.1","","98.49","","","","","","Snow"
"-114.44","62.46","YELLOWKNIFE A","2204100","2012-02-23 00:00","2012","02","23","00:00","-18.0","","-21.1","","77","","","","","","0","","8.0","","98.55","","","","","","Snow"
"-114.44","62.46","YELLOWKNIFE A","2204100","2012-02-23 01:00","2012","02","23","01:00","-17.1","","-20.3","","76","","","","","","0","","8.0","","98.61","","","","","","Snow"
"-114.44","62.46","YELLOWKNIFE A","2204100","2012-02-23 02:00","2012","02","23","02:00","-16.6","","-19.7","","77","","","","","","0","","24.1","","98.69","","","","","","Snow"
"-114.44","62.46","YELLOWKNIFE A","2204100","2012-02-23 03:00","2012","02","23","03:00","-16.2","","-19.1","","78","","","","30","","7","","16.1","","98.75","","","","-21","","Snow"
"-114.44","62.46","YELLOWKNIFE A","2204100","2012-02-23 04:00","2012","02","23","04:00","-15.6","","-18.8","","76","","","","32","","11","","24.1","","98.81","","","","-22","","Snow"
"-114.44","62.46","YELLOWKNIFE A","2204100","2012-02-23 05:00","2012","02","23","05:00","-16.2","","-19.8","","74","","","","32","","19","","24.1","","98.88","","","","-25","","Snow"
"-114.44","62.46","YELLOWKNIFE A","2204100","2012-02-23 06:00","2012","02","23","06:00","-17.6","","-21.5","","72","","","","32","","19","","24.1","","98.95","","","","-27","","Snow"
"-114.44","62.46","YELLOWKNIFE A","2204100","2012-02-23 07:00","2012","02","23","07:00","-18.1","","-22.0","","71","","","","31","","15","","24.1","","98.99","","","","-27","","Snow"
"-114.44","62.46","YELLOWKNIFE A","2204100","2012-02-23 08:00","2012","02","23","08:00","-18.4","","-22.3","","71","","","","32","","19","","24.1","","99.05","","","","-28","","Snow"
"-114.44","62.46","YELLOWKNIFE A","2204100","2012-02-23 09:00","2012","02","23","09:00","-18.8","","-23.0","","69","","","","32","","19","","24.1","","99.11","","","","-29","","Snow"
"-114.44","62.46","YELLOWKNIFE A","2204100","2012-02-23 10:00","2012","02","23","10:00","-19.5","","-23.7","","69","","","","32","","19","","24.1","","99.20","","","","-30","","Snow"
"-114.44","62.46","YELLOWKNIFE A","2204100","2012-02-23 11:00","2012","02","23","11:00","-18.8","","-23.6","","66","","","","36","","19","","24.1","","99.26","","","","-29","","Mostly Cloudy"
"-114.44","62.46","YELLOWKNIFE A","2204100","2012-02-23 12:00","2012","02","23","12:00","-18.3","","-23.1","","66","","","","35","","19","","24.1","","99.33","","","","-28","","Mostly Cloudy"
"-114.44","62.46","YELLOWKNIFE A","2204100","2012-02-23 13:00","2012","02","23","13:00","-17.9","","-22.7","","66","","","","33","","19","","24.1","","99.40","","","","-28","","Snow"
"-114.44","62.46","YELLOWKNIFE A","2204100","2012-02-23 14:00","2012","02","23","14:00","-17.9","","-23.0","","64","","","","35","","15","","24.1","","99.45","","","","-26","","Mostly Cloudy"
"-114.44","62.46","YELLOWKNIFE A","2204100","2012-02-23 15:00","2012","02","23","15:00","-17.5","","-23.4","","60","","","","32","","13","","24.1","","99.51","","","","-25","","Mostly Cloudy"
"-114.44","62.46","YELLOWKNIFE A","2204100","2012-02-23 16:00","2012","02","23","16:00","-17.9","","-23.5","","62","","","","32","","9","","24.1","","99.57","","","","-24","","Mostly Cloudy"
"-114.44","62.46","YELLOWKNIFE A","2204100","2012-02-23 17:00","2012","02","23","17:00","-18.4","","-23.8","","62","","","","32","","13","","24.1","","99.63","","","","-26","","Mostly Cloudy"
"-114.44","62.46","YELLOWKNIFE A","2204100","2012-02-23 18:00","2012","02","23","18:00","-19.8","","-24.6","","66","","","","32","","6","","24.1","","99.67","","","","-25","","Mostly Cloudy"
"-114.44","62.46","YELLOWKNIFE A","2204100","2012-02-23 19:00","2012","02","23","19:00","-21.3","","-25.2","","71","","","","33","","6","","24.1","","99.71","","","","-27","","Mostly Cloudy"
"-114.44","62.46","YELLOWKNIFE A","2204100","2012-02-23 20:00","2012","02","23","20:00","-21.7","","-25.5","","71","","","","","","0","","24.1","","99.75","","","","","","Mostly Cloudy"
"-114.44","62.46","YELLOWKNIFE A","2204100","2012-02-23 21:00","2012","02","23","21:00","-21.7","","-25.7","","70","","","","","","0","","24.1","","99.78","","","","","","Mostly Cloudy"
"-114.44","62.46","YELLOWKNIFE A","2204100","2012-02-23 22:00","2012","02","23","22:00","-21.1","","-25.2","","70","","","","","","0","","24.1","","99.82","","","","","","Snow"
"-114.44","62.46","YELLOWKNIFE A","2204100","2012-02-23 23:00","2012","02","23","23:00","-20.8","","-25.4","","67","","","","","","0","","24.1","","99.86","","","","","","Snow"
"-114.44","62.46","YELLOWKNIFE A","2204100","2012-02-24 00:00","2012","02","24","00:00","-21.1","","-25.7","","66","","","","5","","4","","24.1","","99.90","","","","-25","","Snow"
"-114.44","62.46","YELLOWKNIFE A","2204100","2012-02-24 01:00","2012","02","24","01:00","-21.6","","-25.9","","68","","","","","","0","","24.1","","99.94","","","","","","Snow"
"-114.44","62.46","YELLOWKNIFE A","2204100","2012-02-24 02:00","2012","02","24","02:00","-21.9","","-27.0","","63","","","","11","","4","","24.1","","99.99","","","","-26","","Snow"
"-114.44","62.46","YELLOWKNIFE A","2204100","2012-02-24 03:00","2012","02","24","03:00","-22.3","","-27.8","","61","","","","10","","4","","24.1","","100.01","","","","-26","","Snow"
"-114.44","62.46","YELLOWKNIFE A","2204100","2012-02-24 04:00","2012","02","24","04:00","-23.1","","-27.9","","65","","","","10","","9","","24.1","","100.04","","","","-30","","Snow"
"-114.44","62.46","YELLOWKNIFE A","2204100","2012-02-24 05:00","2012","02","24","05:00","-24.0","","-28.3","","68","","","","8","","4","","24.1","","100.06","","","","-28","","Snow"
"-114.44","62.46","YELLOWKNIFE A","2204100","2012-02-24 06:00","2012","02","24","06:00","-24.7","","-29.1","","67","","","","","","0","","24.1","","100.10","","","","","","Snow"
"-114.44","62.46","YELLOWKNIFE A","2204100","2012-02-24 07:00","2012","02","24","07:00","-25.4","","-29.6","","68","","","","7","","9","","24.1","","100.13","","","","-33","","Snow"
"-114.44","62.46","YELLOWKNIFE A","2204100","2012-02-24 08:00","2012","02","24","08:00","-25.9","","-30.4","","66","","","","7","","9","","24.1","","100.14","","","","-34","","Snow"
"-114.44","62.46","YELLOWKNIFE A","2204100","2012-02-24 09:00","2012","02","24","09:00","-26.0","","-30.5","","66","","","","5","","9","","24.1","","100.15","","","","-34","","Snow"
"-114.44","62.46","YELLOWKNIFE A","2204100","2012-02-24 10:00","2012","02","24","10:00","-25.1","","-29.9","","64","","","","7","","4","","24.1","","100.19","","","","-29","","Snow"
"-114.44","62.46","YELLOWKNIFE A","2204100","2012-02-24 11:00","2012","02","24","11:00","-24.3","","-29.7","","61","","","","3","","4","","24.1","","100.21","","","","-28","","Snow"
"-114.44","62.46","YELLOWKNIFE A","2204100","2012-02-24 12:00","2012","02","24","12:00","-23.8","","-29.4","","60","","","","3","","4","","9.7","","100.21","","","","-28","","Snow"
"-114.44","62.46","YELLOWKNIFE A","2204100","2012-02-24 13:00","2012","02","24","13:00","-22.0","","-28.0","","58","","","","","","0","","24.1","","100.21","","","","","","Mainly Clear"
"-114.44","62.46","YELLOWKNIFE A","2204100","2012-02-24 14:00","2012","02","24","14:00","-21.0","","-27.8","","54","","","","","","0","","24.1","","100.21","","","","","","Mainly Clear"
"-114.44","62.46","YELLOWKNIFE A","2204100","2012-02-24 15:00","2012","02","24","15:00","-20.1","","-27.5","","52","","","","4","","4","","24.1","","100.20","","","","-24","","Mainly Clear"
"-114.44","62.46","YELLOWKNIFE A","2204100","2012-02-24 16:00","2012","02","24","16:00","-20.2","","-27.1","","54","","","","","","0","","24.1","","100.19","","","","","","Mainly Clear"
"-114.44","62.46","YELLOWKNIFE A","2204100","2012-02-24 17:00","2012","02","24","17:00","-20.6","","-26.8","","58","","","","","","0","","24.1","","100.18","","","","","","Mainly Clear"
"-114.44","62.46","YELLOWKNIFE A","2204100","2012-02-24 18:00","2012","02","24","18:00","-21.8","","-27.3","","61","","","","","","0","","24.1","","100.18","","","","","","Mainly Clear"
"-114.44","62.46","YELLOWKNIFE A","2204100","2012-02-24 19:00","2012","02","24","19:00","-24.9","","-29.1","","68","","","","","","0","","24.1","","100.17","","","","","","Mainly Clear"
"-114.44","62.46","YELLOWKNIFE A","2204100","2012-02-24 20:00","2012","02","24","20:00","-27.9","","-32.6","","64","","","","","","0","","24.1","","100.15","","","","","","Mainly Clear"
"-114.44","62.46","YELLOWKNIFE A","2204100","2012-02-24 21:00","2012","02","24","21:00","-27.1","","-31.7","","65","","","","","","0","","24.1","","100.17","","","","","","Mainly Clear"
"-114.44","62.46","YELLOWKNIFE A","2204100","2012-02-24 22:00","2012","02","24","22:00","-26.7","","-30.6","","70","","","","","","0","","24.1","","100.18","","","","","","Mainly Clear"
"-114.44","62.46","YELLOWKNIFE A","2204100","2012-02-24 23:00","2012","02","24","23:00","-25.2","","-29.6","","67","","","","","","0","","24.1","","100.17","","","","","","Snow"
"-114.44","62.46","YELLOWKNIFE A","2204100","2012-02-25 00:00","2012","02","25","00:00","-23.9","","-28.3","","67","","","","","","0","","24.1","","100.19","","","","","","Snow"
"-114.44","62.46","YELLOWKNIFE A","2204100","2012-02-25 01:00","2012","02","25","01:00","-22.7","","-26.9","","69","","","","","","0","","24.1","","100.17","","","","","","Snow"
"-114.44","62.46","YELLOWKNIFE A","2204100","2012-02-25 02:00","2012","02","25","02:00","-22.5","","-26.8","","68","","","","","","0","","24.1","","100.17","","","","","","Snow"
"-114.44","62.46","YELLOWKNIFE A","2204100","2012-02-25 03:00","2012","02","25","03:00","-22.4","","-26.7","","68","","","","","","0","","24.1","","100.20","","","","","","Snow"
"-114.44","62.46","YELLOWKNIFE A","2204100","2012-02-25 04:00","2012","02","25","04:00","-22.2","","-26.6","","67","","","","","","0","","24.1","","100.20","","","","","","Snow"
"-114.44","62.46","YELLOWKNIFE A","2204100","2012-02-25 05:00","2012","02","25","05:00","-21.7","","-26.4","","66","","","","","","0","","24.1","","100.21","","","","","","Snow"
"-114.44","62.46","YELLOWKNIFE A","2204100","2012-02-25 06:00","2012","02","25","06:00","-22.4","","-26.8","","67","","","","","","0","","24.1","","100.22","","","","","","Snow"
"-114.44","62.46","YELLOWKNIFE A","2204100","2012-02-25 07:00","2012","02","25","07:00","-24.7","","-29.1","","67","","","","","","0","","24.1","","100.24","","","","","","Snow"
"-114.44","62.46","YELLOWKNIFE A","2204100","2012-02-25 08:00","2012","02","25","08:00","-24.8","","-29.0","","68","","","","","","0","","24.1","","100.25","","","","","","Mainly Clear"
"-114.44","62.46","YELLOWKNIFE A","2204100","2012-02-25 09:00","2012","02","25","09:00","-26.6","","-31.1","","66","","","","","","0","","24.1","","100.29","","","","","","Mainly Clear"
"-114.44","62.46","YELLOWKNIFE A","2204100","2012-02-25 10:00","2012","02","25","10:00","-21.6","","-26.3","","66","","","","","","0","","24.1","","100.33","","","","","","Mainly Clear"
"-114.44","62.46","YELLOWKNIFE A","2204100","2012-02-25 11:00","2012","02","25","11:00","-20.4","","-25.9","","61","","","","","","0","","24.1","","100.35","","","","","","Mainly Clear"
"-114.44","62.46","YELLOWKNIFE A","2204100","2012-02-25 12:00","2012","02","25","12:00","-19.5","","-25.5","","59","","","","","","0","","24.1","","100.35","","","","","","Mainly Clear"
"-114.44","62.46","YELLOWKNIFE A","2204100","2012-02-25 13:00","2012","02","25","13:00","-18.1","","-24.9","","55","","","","","","0","","24.1","","100.37","","","","","","Mainly Clear"
"-114.44","62.46","YELLOWKNIFE A","2204100","2012-02-25 14:00","2012","02","25","14:00","-17.4","","-24.6","","53","","","","27","","7","","24.1","","100.38","","","","-23","","Mainly Clear"
"-114.44","62.46","YELLOWKNIFE A","2204100","2012-02-25 15:00","2012","02","25","15:00","-17.7","","-24.4","","56","","","","32","","7","","24.1","","100.39","","","","-23","","Mainly Clear"
"-114.44","62.46","YELLOWKNIFE A","2204100","2012-02-25 16:00","2012","02","25","16:00","-17.7","","-24.4","","56","","","","26","","4","","24.1","","100.41","","","","-21","","Mainly Clear"
"-114.44","62.46","YELLOWKNIFE A","2204100","2012-02-25 17:00","2012","02","25","17:00","-18.6","","-24.7","","59","","","","28","","6","","24.1","","100.43","","","","-23","","Mostly Cloudy"
"-114.44","62.46","YELLOWKNIFE A","2204100","2012-02-25 18:00","2012","02","25","18:00","-19.8","","-24.7","","65","","","","26","","4","","24.1","","100.43","","","","-23","","Mostly Cloudy"
"-114.44","62.46","YELLOWKNIFE A","2204100","2012-02-25 19:00","2012","02","25","19:00","-20.6","","-24.9","","68","","","","29","","7","","24.1","","100.43","","","","-26","","Snow"
"-114.44","62.46","YELLOWKNIFE A","2204100","2012-02-25 20:00","2012","02","25","20:00","-21.4","","-25.4","","70","","","","30","","6","","16.1","","100.46","","","","-27","","Snow"
"-114.44","62.46","YELLOWKNIFE A","2204100","2012-02-25 21:00","2012","02","25","21:00","-22.4","","-26.3","","70","","","","33","","6","","24.1","","100.47","","","","-28","","Snow"
"-114.44","62.46","YELLOWKNIFE A","2204100","2012-02-25 22:00","2012","02","25","22:00","-22.8","","-26.9","","69","","","","34","","6","","16.1","","100.45","","","","-28","","Snow"
"-114.44","62.46","YELLOWKNIFE A","2204100","2012-02-25 23:00","2012","02","25","23:00","-22.6","","-26.6","","70","","","","","","0","","16.1","","100.47","","","","","","Snow"
"-114.44","62.46","YELLOWKNIFE A","2204100","2012-02-26 00:00","2012","02","26","00:00","-22.4","","-26.2","","71","","","","","","0","","6.4","","100.47","","","","","","Snow"
"-114.44","62.46","YELLOWKNIFE A","2204100","2012-02-26 01:00","2012","02","26","01:00","-22.5","","-26.5","","70","","","","","","0","","24.1","","100.44","","","","","","Snow"
"-114.44","62.46","YELLOWKNIFE A","2204100","2012-02-26 02:00","2012","02","26","02:00","-23.8","","-27.8","","70","","","","","","0","","24.1","","100.42","","","","","","Snow"
"-114.44","62.46","YELLOWKNIFE A","2204100","2012-02-26 03:00","2012","02","26","03:00","-24.8","","-28.9","","69","","","","","","0","","24.1","","100.44","","","","","","Snow"
"-114.44","62.46","YELLOWKNIFE A","2204100","2012-02-26 04:00","2012","02","26","04:00","-28.3","","-32.9","","65","","","","","","0","","24.1","","100.42","","","","","","Snow"
"-114.44","62.46","YELLOWKNIFE A","2204100","2012-02-26 05:00","2012","02","26","05:00","-27.6","","-32.9","","61","","","","","","0","","24.1","","100.38","","","","","","Snow"
"-114.44","62.46","YELLOWKNIFE A","2204100","2012-02-26 06:00","2012","02","26","06:00","-28.3","","-32.9","","65","","","","","","0","","24.1","","100.34","","","","","","Snow"
"-114.44","62.46","YELLOWKNIFE A","2204100","2012-02-26 07:00","2012","02","26","07:00","-28.4","","-33.2","","63","","","","","","0","","24.1","","100.29","","","","","","Snow"
"-114.44","62.46","YELLOWKNIFE A","2204100","2012-02-26 08:00","2012","02","26","08:00","-26.0","","-30.1","","68","","","","8","","4","","24.1","","100.25","","","","-30","","Snow"
"-114.44","62.46","YELLOWKNIFE A","2204100","2012-02-26 09:00","2012","02","26","09:00","-25.2","","-29.3","","69","","","","7","","4","","24.1","","100.20","","","","-29","","Snow"
"-114.44","62.46","YELLOWKNIFE A","2204100","2012-02-26 10:00","2012","02","26","10:00","-24.2","","-28.3","","69","","","","10","","7","","16.1","","100.16","","","","-31","","Snow"
"-114.44","62.46","YELLOWKNIFE A","2204100","2012-02-26 11:00","2012","02","26","11:00","-22.6","","-26.3","","72","","","","10","","7","","24.1","","100.09","","","","-29","","Snow"
"-114.44","62.46","YELLOWKNIFE A","2204100","2012-02-26 12:00","2012","02","26","12:00","-19.9","","-23.5","","73","","","","13","","9","","24.1","","100.04","","","","-27","","Snow"
"-114.44","62.46","YELLOWKNIFE A","2204100","2012-02-26 13:00","2012","02","26","13:00","-18.4","","-22.8","","68","","","","15","","19","","24.1","","99.95","","","","-28","","Snow"
"-114.44","62.46","YELLOWKNIFE A","2204100","2012-02-26 14:00","2012","02","26","14:00","-18.2","","-23.0","","66","","","","14","","15","","24.1","","99.89","","","","-27","","Mostly Cloudy"
"-114.44","62.46","YELLOWKNIFE A","2204100","2012-02-26 15:00","2012","02","26","15:00","-17.9","","-23.2","","63","","","","16","","15","","24.1","","99.81","","","","-26","","Mostly Cloudy"
"-114.44","62.46","YELLOWKNIFE A","2204100","2012-02-26 16:00","2012","02","26","16:00","-18.2","","-23.8","","61","","","","15","","15","","24.1","","99.74","","","","-27","","Mainly Clear"
"-114.44","62.46","YELLOWKNIFE A","2204100","2012-02-26 17:00","2012","02","26","17:00","-18.8","","-23.9","","64","","","","16","","19","","24.1","","99.69","","","","-29","","Mainly Clear"
"-114.44","62.46","YELLOWKNIFE A","2204100","2012-02-26 18:00","2012","02","26","18:00","-19.3","","-24.1","","66","","","","13","","15","","24.1","","99.63","","","","-28","","Mainly Clear"
"-114.44","62.46","YELLOWKNIFE A","2204100","2012-02-26 19:00","2012","02","26","19:00","-20.7","","-25.3","","67","","","","11","","19","","24.1","","99.53","","","","-31","","Mainly Clear"
"-114.44","62.46","YELLOWKNIFE A","2204100","2012-02-26 20:00","2012","02","26","20:00","-21.7","","-25.9","","69","","","","11","","19","","24.1","","99.46","","","","-32","","Snow"
"-114.44","62.46","YELLOWKNIFE A","2204100","2012-02-26 21:00","2012","02","26","21:00","-22.3","","-26.2","","71","","","","11","","19","","24.1","","99.39","","","","-33","","Snow"
"-114.44","62.46","YELLOWKNIFE A","2204100","2012-02-26 22:00","2012","02","26","22:00","-21.6","","-25.5","","71","","","","11","","19","","24.1","","99.27","","","","-32","","Snow"
"-114.44","62.46","YELLOWKNIFE A","2204100","2012-02-26 23:00","2012","02","26","23:00","-21.0","","-24.9","","71","","","","10","","15","","24.1","","99.22","","","","-30","","Snow"
"-114.44","62.46","YELLOWKNIFE A","2204100","2012-02-27 00:00","2012","02","27","00:00","-20.9","","-24.9","","70","","","","9","","15","","24.1","","99.17","","","","-30","","Snow"
"-114.44","62.46","YELLOWKNIFE A","2204100","2012-02-27 01:00","2012","02","27","01:00","-20.8","","-24.8","","70","","","","9","","11","","24.1","","99.08","","","","-29","","Snow"
"-114.44","62.46","YELLOWKNIFE A","2204100","2012-02-27 02:00","2012","02","27","02:00","-20.7","","-24.7","","70","","","","9","","15","","24.1","","99.03","","","","-30","","Snow"
"-114.44","62.46","YELLOWKNIFE A","2204100","2012-02-27 03:00","2012","02","27","03:00","-21.0","","-25.0","","70","","","","8","","15","","24.1","","98.95","","","","-30","","Snow"
"-114.44","62.46","YELLOWKNIFE A","2204100","2012-02-27 04:00","2012","02","27","04:00","-21.6","","-25.8","","69","","","","10","","19","","24.1","","98.91","","","","-32","","Snow"
"-114.44","62.46","YELLOWKNIFE A","2204100","2012-02-27 05:00","2012","02","27","05:00","-23.4","","-27.5","","69","","","","9","","15","","24.1","","98.85","","","","-33","","Snow"
"-114.44","62.46","YELLOWKNIFE A","2204100","2012-02-27 06:00","2012","02","27","06:00","-24.6","","-28.7","","69","","","","8","","19","","24.1","","98.82","","","","-36","","Clear"
"-114.44","62.46","YELLOWKNIFE A","2204100","2012-02-27 07:00","2012","02","27","07:00","-25.2","","-29.4","","68","","","","8","","19","","24.1","","98.77","","","","-37","","Clear"
"-114.44","62.46","YELLOWKNIFE A","2204100","2012-02-27 08:00","2012","02","27","08:00","-25.7","","-29.8","","68","","","","8","","19","","24.1","","98.78","","","","-37","","Mainly Clear"
"-114.44","62.46","YELLOWKNIFE A","2204100","2012-02-27 09:00","2012","02","27","09:00","-25.5","","-29.8","","67","","","","8","","19","","24.1","","98.73","","","","-37","","Mainly Clear"
"-114.44","62.46","YELLOWKNIFE A","2204100","2012-02-27 10:00","2012","02","27","10:00","-24.2","","-28.6","","67","","","","8","","19","","24.1","","98.67","","","","-36","","Mainly Clear"
"-114.44","62.46","YELLOWKNIFE A","2204100","2012-02-27 11:00","2012","02","27","11:00","-22.6","","-27.4","","65","","","","8","","9","","24.1","","98.66","","","","-30","","Clear"
"-114.44","62.46","YELLOWKNIFE A","2204100","2012-02-27 12:00","2012","02","27","12:00","-20.5","","-25.8","","62","","","","8","","11","","24.1","","98.60","","","","-28","","Mainly Clear"
"-114.44","62.46","YELLOWKNIFE A","2204100","2012-02-27 13:00","2012","02","27","13:00","-18.6","","-24.4","","60","","","","7","","9","","24.1","","98.59","","","","-25","","Mainly Clear"
"-114.44","62.46","YELLOWKNIFE A","2204100","2012-02-27 14:00","2012","02","27","14:00","-17.7","","-24.3","","56","","","","6","","4","","24.1","","98.56","","","","-21","","Mainly Clear"
"-114.44","62.46","YELLOWKNIFE A","2204100","2012-02-27 15:00","2012","02","27","15:00","-16.1","","-23.2","","54","","","","5","","4","","24.1","","98.53","","","","-19","","Mainly Clear"
"-114.44","62.46","YELLOWKNIFE A","2204100","2012-02-27 16:00","2012","02","27","16:00","-16.3","","-23.5","","54","","","","4","","4","","24.1","","98.57","","","","-19","","Mostly Cloudy"
"-114.44","62.46","YELLOWKNIFE A","2204100","2012-02-27 17:00","2012","02","27","17:00","-16.1","","-23.4","","53","","","","7","","4","","24.1","","98.58","","","","-19","","Mainly Clear"
"-114.44","62.46","YELLOWKNIFE A","2204100","2012-02-27 18:00","2012","02","27","18:00","-17.8","","-24.0","","58","","","","8","","9","","24.1","","98.53","","","","-24","","Mainly Clear"
"-114.44","62.46","YELLOWKNIFE A","2204100","2012-02-27 19:00","2012","02","27","19:00","-18.5","","-24.0","","62","","","","8","","9","","24.1","","98.52","","","","-25","","Mainly Clear"
"-114.44","62.46","YELLOWKNIFE A","2204100","2012-02-27 20:00","2012","02","27","20:00","-19.1","","-24.1","","65","","","","9","","13","","24.1","","98.57","","","","-27","","Mainly Clear"
"-114.44","62.46","YELLOWKNIFE A","2204100","2012-02-27 21:00","2012","02","27","21:00","-18.8","","-24.0","","64","","","","9","","15","","24.1","","98.49","","","","-28","","Mostly Cloudy"
"-114.44","62.46","YELLOWKNIFE A","2204100","2012-02-27 22:00","2012","02","27","22:00","-19.5","","-24.5","","64","","","","8","","13","","24.1","","98.50","","","","-28","","Mostly Cloudy"
"-114.44","62.46","YELLOWKNIFE A","2204100","2012-02-27 23:00","2012","02","27","23:00","-20.9","","-25.5","","66","","","","8","","11","","24.1","","98.53","","","","-29","","Mainly Clear"
"-114.44","62.46","YELLOWKNIFE A","2204100","2012-02-28 00:00","2012","02","28","00:00","-21.0","","-25.8","","65","","","","6","","11","","24.1","","98.52","","","","-29","","Mainly Clear"
"-114.44","62.46","YELLOWKNIFE A","2204100","2012-02-28 01:00","2012","02","28","01:00","-21.8","","-26.4","","66","","","","6","","13","","24.1","","98.53","","","","-31","","Mostly Cloudy"
"-114.44","62.46","YELLOWKNIFE A","2204100","2012-02-28 02:00","2012","02","28","02:00","-21.9","","-26.3","","67","","","","6","","15","","24.1","","98.51","","","","-31","","Mostly Cloudy"
"-114.44","62.46","YELLOWKNIFE A","2204100","2012-02-28 03:00","2012","02","28","03:00","-22.1","","-26.4","","68","","","","7","","19","","24.1","","98.48","","","","-33","","Mainly Clear"
"-114.44","62.46","YELLOWKNIFE A","2204100","2012-02-28 04:00","2012","02","28","04:00","-21.7","","-25.9","","69","","","","7","","11","","24.1","","98.49","","","","-30","","Mainly Clear"
"-114.44","62.46","YELLOWKNIFE A","2204100","2012-02-28 05:00","2012","02","28","05:00","-21.4","","-25.6","","69","","","","6","","19","","24.1","","98.50","","","","-32","","Mainly Clear"
"-114.44","62.46","YELLOWKNIFE A","2204100","2012-02-28 06:00","2012","02","28","06:00","-20.5","","-24.8","","68","","","","7","","15","","24.1","","98.51","","","","-30","","Mostly Cloudy"
"-114.44","62.46","YELLOWKNIFE A","2204100","2012-02-28 07:00","2012","02","28","07:00","-19.9","","-24.2","","69","","","","8","","15","","24.1","","98.50","","","","-29","","Mostly Cloudy"
"-114.44","62.46","YELLOWKNIFE A","2204100","2012-02-28 08:00","2012","02","28","08:00","-19.3","","-23.8","","67","","","","7","","15","","24.1","","98.47","","","","-28","","Mostly Cloudy"
"-114.44","62.46","YELLOWKNIFE A","2204100","2012-02-28 09:00","2012","02","28","09:00","-18.7","","-23.1","","68","","","","5","","17","","24.1","","98.46","","","","-28","","Cloudy"
"-114.44","62.46","YELLOWKNIFE A","2204100","2012-02-28 10:00","2012","02","28","10:00","-17.5","","-22.1","","67","","","","5","","17","","24.1","","98.50","","","","-27","","Cloudy"
"-114.44","62.46","YELLOWKNIFE A","2204100","2012-02-28 11:00","2012","02","28","11:00","-16.3","","-21.5","","64","","","","5","","17","","24.1","","98.48","","","","-25","","Cloudy"
"-114.44","62.46","YELLOWKNIFE A","2204100","2012-02-28 12:00","2012","02","28","12:00","-14.9","","-20.1","","64","","","","6","","19","","24.1","","98.45","","","","-24","","Cloudy"
"-114.44","62.46","YELLOWKNIFE A","2204100","2012-02-28 13:00","2012","02","28","13:00","-13.5","","-19.1","","63","","","","5","","19","","24.1","","98.46","","","","-22","","Cloudy"
"-114.44","62.46","YELLOWKNIFE A","2204100","2012-02-28 14:00","2012","02","28","14:00","-13.6","","-18.3","","68","","","","2","","17","","9.7","","98.49","","","","-22","","Snow"
"-114.44","62.46","YELLOWKNIFE A","2204100","2012-02-28 15:00","2012","02","28","15:00","-13.2","","-17.3","","71","","","","3","","15","","6.4","","98.51","","","","-21","","Snow"
"-114.44","62.46","YELLOWKNIFE A","2204100","2012-02-28 16:00","2012","02","28","16:00","-13.3","","-17.1","","73","","","","2","","19","","8.0","","98.55","","","","-22","","Snow"
"-114.44","62.46","YELLOWKNIFE A","2204100","2012-02-28 17:00","2012","02","28","17:00","-14.2","","-17.8","","74","","","","2","","22","","16.1","","98.55","","","","-24","","Snow"
"-114.44","62.46","YELLOWKNIFE A","2204100","2012-02-28 18:00","2012","02","28","18:00","-14.7","","-18.5","","73","","","","2","","15","","16.1","","98.57","","","","-23","","Snow"
"-114.44","62.46","YELLOWKNIFE A","2204100","2012-02-28 19:00","2012","02","28","19:00","-15.7","","-19.4","","73","","","","1","","17","","16.1","","98.62","","","","-24","","Snow"
"-114.44","62.46","YELLOWKNIFE A","2204100","2012-02-28 20:00","2012","02","28","20:00","-16.5","","-20.4","","72","","","","1","","19","","16.1","","98.64","","","","-26","","Snow"
"-114.44","62.46","YELLOWKNIFE A","2204100","2012-02-28 21:00","2012","02","28","21:00","-17.3","","-21.3","","71","","","","2","","19","","16.1","","98.64","","","","-27","","Snow"
"-114.44","62.46","YELLOWKNIFE A","2204100","2012-02-28 22:00","2012","02","28","22:00","-17.6","","-21.7","","70","","","","3","","15","","16.1","","98.63","","","","-26","","Snow"
"-114.44","62.46","YELLOWKNIFE A","2204100","2012-02-28 23:00","2012","02","28","23:00","-18.8","","-22.9","","70","","","","2","","15","","24.1","","98.68","","","","-28","","Snow"
"-114.44","62.46","YELLOWKNIFE A","2204100","2012-02-29 00:00","2012","02","29","00:00","-19.8","","-23.5","","72","","","","1","","15","","24.1","","98.70","","","","-29","","Mainly Clear"
"-114.44","62.46","YELLOWKNIFE A","2204100","2012-02-29 01:00","2012","02","29","01:00","-20.3","","-24.1","","72","","","","2","","19","","24.1","","98.71","","","","-31","","Mainly Clear"
"-114.44","62.46","YELLOWKNIFE A","2204100","2012-02-29 02:00","2012","02","29","02:00","-20.4","","-25.0","","67","","","","36","","15","","24.1","","98.78","","","","-30","","Clear"
"-114.44","62.46","YELLOWKNIFE A","2204100","2012-02-29 03:00","2012","02","29","03:00","-21.3","","-25.5","","69","","","","36","","11","","24.1","","98.83","","","","-29","","Clear"
"-114.44","62.46","YELLOWKNIFE A","2204100","2012-02-29 04:00","2012","02","29","04:00","-22.4","","-26.4","","70","","","","36","","11","","24.1","","98.87","","","","-31","","Clear"
"-114.44","62.46","YELLOWKNIFE A","2204100","2012-02-29 05:00","2012","02","29","05:00","-22.8","","-27.1","","68","","","","1","","15","","24.1","","98.91","","","","-33","","Clear"
"-114.44","62.46","YELLOWKNIFE A","2204100","2012-02-29 06:00","2012","02","29","06:00","-22.8","","-27.4","","66","","","","36","","11","","24.1","","98.98","","","","-31","","Mainly Clear"
"-114.44","62.46","YELLOWKNIFE A","2204100","2012-02-29 07:00","2012","02","29","07:00","-23.8","","-28.3","","66","","","","35","","11","","24.1","","99.06","","","","-32","","Mainly Clear"
"-114.44","62.46","YELLOWKNIFE A","2204100","2012-02-29 08:00","2012","02","29","08:00","-24.6","","-29.2","","66","","","","34","","11","","24.1","","99.10","","","","-33","","Mainly Clear"
"-114.44","62.46","YELLOWKNIFE A","2204100","2012-02-29 09:00","2012","02","29","09:00","-24.5","","-29.2","","65","","","","36","","11","","24.1","","99.12","","","","-33","","Mainly Clear"
"-114.44","62.46","YELLOWKNIFE A","2204100","2012-02-29 10:00","2012","02","29","10:00","-22.5","","-28.1","","60","","","","1","","15","","24.1","","99.16","","","","-32","","Mainly Clear"
"-114.44","62.46","YELLOWKNIFE A","2204100","2012-02-29 11:00","2012","02","29","11:00","-21.3","","-27.5","","57","","","","36","","15","","24.1","","99.21","","","","-31","","Mainly Clear"
"-114.44","62.46","YELLOWKNIFE A","2204100","2012-02-29 12:00","2012","02","29","12:00","-19.9","","-26.5","","56","","","","34","","13","","24.1","","99.25","","","","-28","","Mainly Clear"
"-114.44","62.46","YELLOWKNIFE A","2204100","2012-02-29 13:00","2012","02","29","13:00","-19.1","","-26.3","","53","","","","36","","19","","24.1","","99.28","","","","-29","","Mainly Clear"
"-114.44","62.46","YELLOWKNIFE A","2204100","2012-02-29 14:00","2012","02","29","14:00","-18.1","","-26.9","","46","","","","36","","22","","24.1","","99.33","","","","-29","","Mainly Clear"
"-114.44","62.46","YELLOWKNIFE A","2204100","2012-02-29 15:00","2012","02","29","15:00","-17.2","","-25.1","","50","","","","34","","19","","24.1","","99.35","","","","-27","","Mainly Clear"
"-114.44","62.46","YELLOWKNIFE A","2204100","2012-02-29 16:00","2012","02","29","16:00","-17.2","","-25.6","","48","","","","35","","15","","24.1","","99.43","","","","-26","","Mainly Clear"
"-114.44","62.46","YELLOWKNIFE A","2204100","2012-02-29 17:00","2012","02","29","17:00","-18.0","","-26.3","","48","","","","1","","15","","24.1","","99.47","","","","-27","","Mainly Clear"
"-114.44","62.46","YELLOWKNIFE A","2204100","2012-02-29 18:00","2012","02","29","18:00","-19.8","","-27.4","","51","","","","35","","9","","24.1","","99.53","","","","-27","","Mainly Clear"
"-114.44","62.46","YELLOWKNIFE A","2204100","2012-02-29 19:00","2012","02","29","19:00","-22.3","","-28.7","","56","","","","1","","4","","24.1","","99.58","","","","-26","","Mainly Clear"
"-114.44","62.46","YELLOWKNIFE A","2204100","2012-02-29 20:00","2012","02","29","20:00","-23.8","","-29.7","","58","","","","2","","11","","24.1","","99.60","","","","-32","","Clear"
"-114.44","62.46","YELLOWKNIFE A","2204100","2012-02-29 21:00","2012","02","29","21:00","-23.5","","-29.8","","56","","","","2","","15","","24.1","","99.63","","","","-33","","Clear"
"-114.44","62.46","YELLOWKNIFE A","2204100","2012-02-29 22:00","2012","02","29","22:00","-25.3","","-30.7","","61","","","","3","","15","","24.1","","99.64","","","","-36","","Clear"
"-114.44","62.46","YELLOWKNIFE A","2204100","2012-02-29 23:00","2012","02","29","23:00","-26.2","","-31.6","","60","","","","3","","6","","24.1","","99.73","","","","-32","","Clear"
