"Longitude (x)","Latitude (y)","Station Name","Climate ID","Date/Time (LST)","Year","Month","Day","Time (LST)","Temp (°C)","Temp Flag","Dew Point Temp (°C)","Dew Point Temp Flag","Rel Hum (%)","Rel Hum Flag","Precip. Amount (mm)","Precip. Amount Flag","Wind Dir (10s deg)","Wind Dir Flag","Wind Spd (km/h)","Wind Spd Flag","Visibility (km)","Visibility Flag","Stn Press (kPa)","Stn Press Flag","Hmdx","Hmdx Flag","Wind Chill","Wind Chill Flag","Weather"
"-53.08","46.66","CAPE RACE (AUT)","8401000","2019-01-01 00:30","2019","01","01","00:30","","M","","M","","M","0.0","","31","","11","","","","101.74","","","","","","NA"
"-53.08","46.66","CAPE RACE (AUT)","8401000","2019-01-01 01:30","2019","01","01","01:30","","M","","M","","M","0.0","","30","","24","","","","101.74","","","","","","NA"
"-53.08","46.66","CAPE RACE (AUT)","8401000","2019-01-01 02:30","2019","01","01","02:30","","M","","M","","M","0.0","","31","","22","","","","101.82","","","","","","NA"
"-53.08","46.66","CAPE RACE (AUT)","8401000","2019-01-01 03:30","2019","01","01","03:30","","M","","M","","M","0.0","","31","","17","","","","101.79","","","","","","NA"
"-53.08","46.66","CAPE RACE (AUT)","8401000","2019-01-01 04:30","2019","01","01","04:30","","M","","M","","M","0.0","","33","","6","","","","101.75","","","","","","NA"
"-53.08","46.66","CAPE RACE (AUT)","8401000","2019-01-01 05:30","2019","01","01","05:30","","M","","M","","M","0.0","","35","","12","","","","101.74","","","","","","NA"
"-53.08","46.66","CAPE RACE (AUT)","8401000","2019-01-01 06:30","2019","01","01","06:30","","M","","M","","M","0.0","","35","","5","","","","101.73","","","","","","NA"
"-53.08","46.66","CAPE RACE (AUT)","8401000","2019-01-01 07:30","2019","01","01","07:30","","M","","M","","M","0.0","","4","","7","","","","101.72","","","","","","NA"
"-53.08","46.66","CAPE RACE (AUT)","8401000","2019-01-01 08:30","2019","01","01","08:30","","M","","M","","M","0.2","","2","","6","","","","101.79","","","","","","NA"
"-53.08","46.66","CAPE RACE (AUT)","8401000","2019-01-01 09:30","2019","01","01","09:30","","M","","M","","M","0.0","","1","","5","","","","101.79","","","","","","NA"
"-53.08","46.66","CAPE RACE (AUT)","8401000","2019-01-01 10:30","2019","01","01","10:30","","M","","M","","M","0.0","","1","","3","","","","101.72","","","","","","NA"
"-53.08","46.66","CAPE RACE (AUT)","8401000","2019-01-01 11:30","2019","01","01","11:30","","M","","M","","M","0.0","","29","","2","","","","101.67","","","","","","NA"
"-53.08","46.66","CAPE RACE (AUT)","8401000","2019-01-01 12:30","2019","01","01","12:30","","M","","M","","M","0.0","","17","","6","","","","101.54","","","","","","NA"
"-53.08","46.66","CAPE RACE (AUT)","8401000","2019-01-01 13:30","2019","01","01","13:30","","M","","M","","M","0.0","","14","","12","","","","101.41","","","","","","NA"
"-53.08","46.66","CAPE RACE (AUT)","8401000","2019-01-01 14:30","2019","01","01","14:30","","M","","M","","M","0.0","","12","","15","","","","101.25","","","","","","NA"
"-53.08","46.66","CAPE RACE (AUT)","8401000","2019-01-01 15:30","2019","01","01","15:30","","M","","M","","M","0.0","","15","","18","","","","101.19","","","","","","NA"
"-53.08","46.66","CAPE RACE (AUT)","8401000","2019-01-01 16:30","2019","01","01","16:30","","M","","M","","M","0.0","","17","","19","","","","101.15","","","","","","NA"
"-53.08","46.66","CAPE RACE (AUT)","8401000","2019-01-01 17:30","2019","01","01","17:30","","M","","M","","M","0.0","","18","","20","","","","101.04","","","","","","NA"
"-53.08","46.66","CAPE RACE (AUT)","8401000","2019-01-01 18:30","2019","01","01","18:30","","M","","M","","M","0.0","","17","","21","","","","100.80","","","","","","NA"
"-53.08","46.66","CAPE RACE (AUT)","8401000","2019-01-01 19:30","2019","01","01","19:30","","M","","M","","M","0.0","","17","","33","","","","100.65","","","","","","NA"
"-53.08","46.66","CAPE RACE (AUT)","8401000","2019-01-01 20:30","2019","01","01","20:30","","M","","M","","M","0.0","","15","","35","","","","100.40","","","","","","NA"
"-53.08","46.66","CAPE RACE (AUT)","8401000","2019-01-01 21:30","2019","01","01","21:30","","M","","M","","M","0.0","","14","","46","","","","100.12","","","","","","NA"
"-53.08","46.66","CAPE RACE (AUT)","8401000","2019-01-01 22:30","2019","01","01","22:30","","M","","M","","M","0.3","","13","","48","","","","99.83","","","","","","NA"
"-53.08","46.66","CAPE RACE (AUT)","8401000","2019-01-01 23:30","2019","01","01","23:30","","M","","M","","M","0.4","","13","","53","","","","99.50","","","","","","NA"
"-53.08","46.66","CAPE RACE (AUT)","8401000","2019-01-02 00:30","2019","01","02","00:30","","M","","M","","M","0.0","","13","","55","","","","99.15","","","","","","NA"
"-53.08","46.66","CAPE RACE (AUT)","8401000","2019-01-02 01:30","2019","01","02","01:30","","M","","M","","M","0.0","","13","","51","","","","98.94","","","","","","NA"
"-53.08","46.66","CAPE RACE (AUT)","8401000","2019-01-02 02:30","2019","01","02","02:30","","M","","M","","M","0.0","","14","","49","","","","98.67","","","","","","NA"
"-53.08","46.66","CAPE RACE (AUT)","8401000","2019-01-02 03:30","2019","01","02","03:30","","M","","M","","M","0.0","","15","","49","","","","98.28","","","","","","NA"
"-53.08","46.66","CAPE RACE (AUT)","8401000","2019-01-02 04:30","2019","01","02","04:30","","M","","M","","M","0.0","","17","","44","","","","97.99","","","","","","NA"
"-53.08","46.66","CAPE RACE (AUT)","8401000","2019-01-02 05:30","2019","01","02","05:30","","M","","M","","M","0.0","","21","","46","","","","97.86","","","","","","NA"
"-53.08","46.66","CAPE RACE (AUT)","8401000","2019-01-02 06:30","2019","01","02","06:30","","M","","M","","M","0.0","","22","","47","","","","97.78","","","","","","NA"
"-53.08","46.66","CAPE RACE (AUT)","8401000","2019-01-02 07:30","2019","01","02","07:30","","M","","M","","M","0.0","","24","","68","","","","97.79","","","","","","NA"
"-53.08","46.66","CAPE RACE (AUT)","8401000","2019-01-02 08:30","2019","01","02","08:30","","M","","M","","M","0.0","","24","","76","","","","97.88","","","","","","NA"
"-53.08","46.66","CAPE RACE (AUT)","8401000","2019-01-02 09:30","2019","01","02","09:30","","M","","M","","M","0.0","","25","","77","","","","97.90","","","","","","NA"
"-53.08","46.66","CAPE RACE (AUT)","8401000","2019-01-02 10:30","2019","01","02","10:30","","M","","M","","M","0.0","","26","","73","","","","97.99","","","","","","NA"
"-53.08","46.66","CAPE RACE (AUT)","8401000","2019-01-02 11:30","2019","01","02","11:30","","M","","M","","M","0.5","","27","","73","","","","98.05","","","","","","NA"
"-53.08","46.66","CAPE RACE (AUT)","8401000","2019-01-02 12:30","2019","01","02","12:30","","M","","M","","M","0.0","","27","","75","","","","98.11","","","","","","NA"
"-53.08","46.66","CAPE RACE (AUT)","8401000","2019-01-02 13:30","2019","01","02","13:30","","M","","M","","M","0.2","","28","","73","","","","98.22","","","","","","NA"
"-53.08","46.66","CAPE RACE (AUT)","8401000","2019-01-02 14:30","2019","01","02","14:30","","M","","M","","M","0.5","","28","","78","","","","98.33","","","","","","NA"
"-53.08","46.66","CAPE RACE (AUT)","8401000","2019-01-02 15:30","2019","01","02","15:30","","M","","M","","M","0.0","","28","","70","","","","98.48","","","","","","NA"
"-53.08","46.66","CAPE RACE (AUT)","8401000","2019-01-02 16:30","2019","01","02","16:30","","M","","M","","M","0.0","","28","","68","","","","98.64","","","","","","NA"
"-53.08","46.66","CAPE RACE (AUT)","8401000","2019-01-02 17:30","2019","01","02","17:30","","M","","M","","M","0.0","","28","","73","","","","98.75","","","","","","NA"
"-53.08","46.66","CAPE RACE (AUT)","8401000","2019-01-02 18:30","2019","01","02","18:30","","M","","M","","M","1.0","","29","","73","","","","98.89","","","","","","NA"
"-53.08","46.66","CAPE RACE (AUT)","8401000","2019-01-02 19:30","2019","01","02","19:30","","M","","M","","M","0.0","","30","","71","","","","99.11","","","","","","NA"
"-53.08","46.66","CAPE RACE (AUT)","8401000","2019-01-02 20:30","2019","01","02","20:30","","M","","M","","M","0.0","","30","","61","","","","99.29","","","","","","NA"
"-53.08","46.66","CAPE RACE (AUT)","8401000","2019-01-02 21:30","2019","01","02","21:30","","M","","M","","M","0.5","","30","","64","","","","99.39","","","","","","NA"
"-53.08","46.66","CAPE RACE (AUT)","8401000","2019-01-02 22:30","2019","01","02","22:30","","M","","M","","M","0.4","","30","","72","","","","99.51","","","","","","NA"
"-53.08","46.66","CAPE RACE (AUT)","8401000","2019-01-02 23:30","2019","01","02","23:30","","M","","M","","M","0.0","","30","","69","","","","99.65","","","","","","NA"
"-53.08","46.66","CAPE RACE (AUT)","8401000","2019-01-03 00:30","2019","01","03","00:30","","M","","M","","M","0.0","","31","","60","","","","99.74","","","","","","NA"
"-53.08","46.66","CAPE RACE (AUT)","8401000","2019-01-03 01:30","2019","01","03","01:30","","M","","M","","M","0.0","","30","","60","","","","99.89","","","","","","NA"
"-53.08","46.66","CAPE RACE (AUT)","8401000","2019-01-03 02:30","2019","01","03","02:30","","M","","M","","M","0.0","","30","","56","","","","100.12","","","","","","NA"
"-53.08","46.66","CAPE RACE (AUT)","8401000","2019-01-03 03:30","2019","01","03","03:30","","M","","M","","M","0.0","","30","","50","","","","100.33","","","","","","NA"
"-53.08","46.66","CAPE RACE (AUT)","8401000","2019-01-03 04:30","2019","01","03","04:30","","M","","M","","M","0.0","","30","","49","","","","100.41","","","","","","NA"
"-53.08","46.66","CAPE RACE (AUT)","8401000","2019-01-03 05:30","2019","01","03","05:30","","M","","M","","M","0.2","","31","","35","","","","100.56","","","","","","NA"
"-53.08","46.66","CAPE RACE (AUT)","8401000","2019-01-03 06:30","2019","01","03","06:30","","M","","M","","M","0.0","","30","","32","","","","100.67","","","","","","NA"
"-53.08","46.66","CAPE RACE (AUT)","8401000","2019-01-03 07:30","2019","01","03","07:30","","M","","M","","M","0.2","","29","","21","","","","100.79","","","","","","NA"
"-53.08","46.66","CAPE RACE (AUT)","8401000","2019-01-03 08:30","2019","01","03","08:30","","M","","M","","M","0.2","","29","","35","","","","100.85","","","","","","NA"
"-53.08","46.66","CAPE RACE (AUT)","8401000","2019-01-03 09:30","2019","01","03","09:30","","M","","M","","M","0.0","","29","","35","","","","100.99","","","","","","NA"
"-53.08","46.66","CAPE RACE (AUT)","8401000","2019-01-03 10:30","2019","01","03","10:30","","M","","M","","M","0.0","","30","","37","","","","100.96","","","","","","NA"
"-53.08","46.66","CAPE RACE (AUT)","8401000","2019-01-03 11:30","2019","01","03","11:30","","M","","M","","M","0.0","","29","","43","","","","100.99","","","","","","NA"
"-53.08","46.66","CAPE RACE (AUT)","8401000","2019-01-03 12:30","2019","01","03","12:30","","M","","M","","M","0.0","","28","","36","","","","101.00","","","","","","NA"
"-53.08","46.66","CAPE RACE (AUT)","8401000","2019-01-03 13:30","2019","01","03","13:30","","M","","M","","M","0.0","","28","","43","","","","100.94","","","","","","NA"
"-53.08","46.66","CAPE RACE (AUT)","8401000","2019-01-03 14:30","2019","01","03","14:30","","M","","M","","M","0.0","","28","","29","","","","100.99","","","","","","NA"
"-53.08","46.66","CAPE RACE (AUT)","8401000","2019-01-03 15:30","2019","01","03","15:30","","M","","M","","M","0.0","","28","","36","","","","101.01","","","","","","NA"
"-53.08","46.66","CAPE RACE (AUT)","8401000","2019-01-03 16:30","2019","01","03","16:30","","M","","M","","M","0.0","","28","","32","","","","101.06","","","","","","NA"
"-53.08","46.66","CAPE RACE (AUT)","8401000","2019-01-03 17:30","2019","01","03","17:30","","M","","M","","M","0.0","","29","","10","","","","101.18","","","","","","NA"
"-53.08","46.66","CAPE RACE (AUT)","8401000","2019-01-03 18:30","2019","01","03","18:30","","M","","M","","M","0.0","","30","","19","","","","101.14","","","","","","NA"
"-53.08","46.66","CAPE RACE (AUT)","8401000","2019-01-03 19:30","2019","01","03","19:30","","M","","M","","M","0.0","","34","","12","","","","101.14","","","","","","NA"
"-53.08","46.66","CAPE RACE (AUT)","8401000","2019-01-03 20:30","2019","01","03","20:30","","M","","M","","M","0.0","","33","","14","","","","101.16","","","","","","NA"
"-53.08","46.66","CAPE RACE (AUT)","8401000","2019-01-03 21:30","2019","01","03","21:30","","M","","M","","M","0.0","","36","","11","","","","101.09","","","","","","NA"
"-53.08","46.66","CAPE RACE (AUT)","8401000","2019-01-03 22:30","2019","01","03","22:30","","M","","M","","M","0.0","","35","","12","","","","101.04","","","","","","NA"
"-53.08","46.66","CAPE RACE (AUT)","8401000","2019-01-03 23:30","2019","01","03","23:30","","M","","M","","M","0.0","","4","","14","","","","101.00","","","","","","NA"
"-53.08","46.66","CAPE RACE (AUT)","8401000","2019-01-04 00:30","2019","01","04","00:30","","M","","M","","M","0.0","","3","","13","","","","101.00","","","","","","NA"
"-53.08","46.66","CAPE RACE (AUT)","8401000","2019-01-04 01:30","2019","01","04","01:30","","M","","M","","M","0.0","","3","","11","","","","101.02","","","","","","NA"
"-53.08","46.66","CAPE RACE (AUT)","8401000","2019-01-04 02:30","2019","01","04","02:30","","M","","M","","M","0.0","","4","","15","","","","101.06","","","","","","NA"
"-53.08","46.66","CAPE RACE (AUT)","8401000","2019-01-04 03:30","2019","01","04","03:30","","M","","M","","M","0.0","","4","","15","","","","101.08","","","","","","NA"
"-53.08","46.66","CAPE RACE (AUT)","8401000","2019-01-04 04:30","2019","01","04","04:30","","M","","M","","M","0.0","","4","","15","","","","101.05","","","","","","NA"
"-53.08","46.66","CAPE RACE (AUT)","8401000","2019-01-04 05:30","2019","01","04","05:30","","M","","M","","M","0.0","","4","","16","","","","101.05","","","","","","NA"
"-53.08","46.66","CAPE RACE (AUT)","8401000","2019-01-04 06:30","2019","01","04","06:30","","M","","M","","M","0.0","","4","","12","","","","101.10","","","","","","NA"
"-53.08","46.66","CAPE RACE (AUT)","8401000","2019-01-04 07:30","2019","01","04","07:30","","M","","M","","M","0.0","","5","","17","","","","101.17","","","","","","NA"
"-53.08","46.66","CAPE RACE (AUT)","8401000","2019-01-04 08:30","2019","01","04","08:30","","M","","M","","M","0.0","","4","","22","","","","101.19","","","","","","NA"
"-53.08","46.66","CAPE RACE (AUT)","8401000","2019-01-04 09:30","2019","01","04","09:30","","M","","M","","M","0.0","","3","","20","","","","101.21","","","","","","NA"
"-53.08","46.66","CAPE RACE (AUT)","8401000","2019-01-04 10:30","2019","01","04","10:30","","M","","M","","M","0.0","","3","","20","","","","101.22","","","","","","NA"
"-53.08","46.66","CAPE RACE (AUT)","8401000","2019-01-04 11:30","2019","01","04","11:30","","M","","M","","M","0.0","","7","","15","","","","101.23","","","","","","NA"
"-53.08","46.66","CAPE RACE (AUT)","8401000","2019-01-04 12:30","2019","01","04","12:30","","M","","M","","M","0.0","","6","","14","","","","101.21","","","","","","NA"
"-53.08","46.66","CAPE RACE (AUT)","8401000","2019-01-04 13:30","2019","01","04","13:30","","M","","M","","M","0.0","","5","","19","","","","101.17","","","","","","NA"
"-53.08","46.66","CAPE RACE (AUT)","8401000","2019-01-04 14:30","2019","01","04","14:30","","M","","M","","M","0.0","","8","","16","","","","101.19","","","","","","NA"
"-53.08","46.66","CAPE RACE (AUT)","8401000","2019-01-04 15:30","2019","01","04","15:30","","M","","M","","M","0.0","","10","","17","","","","101.22","","","","","","NA"
"-53.08","46.66","CAPE RACE (AUT)","8401000","2019-01-04 16:30","2019","01","04","16:30","","M","","M","","M","0.0","","11","","13","","","","101.30","","","","","","NA"
"-53.08","46.66","CAPE RACE (AUT)","8401000","2019-01-04 17:30","2019","01","04","17:30","","M","","M","","M","0.0","","18","","3","","","","101.31","","","","","","NA"
"-53.08","46.66","CAPE RACE (AUT)","8401000","2019-01-04 18:30","2019","01","04","18:30","","M","","M","","M","0.0","","35","","6","","","","101.34","","","","","","NA"
"-53.08","46.66","CAPE RACE (AUT)","8401000","2019-01-04 19:30","2019","01","04","19:30","","M","","M","","M","0.0","","2","","5","","","","101.35","","","","","","NA"
"-53.08","46.66","CAPE RACE (AUT)","8401000","2019-01-04 20:30","2019","01","04","20:30","","M","","M","","M","0.0","","15","","17","","","","101.41","","","","","","NA"
"-53.08","46.66","CAPE RACE (AUT)","8401000","2019-01-04 21:30","2019","01","04","21:30","","M","","M","","M","0.0","","14","","16","","","","101.40","","","","","","NA"
"-53.08","46.66","CAPE RACE (AUT)","8401000","2019-01-04 22:30","2019","01","04","22:30","","M","","M","","M","0.0","","15","","16","","","","101.37","","","","","","NA"
"-53.08","46.66","CAPE RACE (AUT)","8401000","2019-01-04 23:30","2019","01","04","23:30","","M","","M","","M","0.0","","16","","12","","","","101.39","","","","","","NA"
"-53.08","46.66","CAPE RACE (AUT)","8401000","2019-01-05 00:30","2019","01","05","00:30","","M","","M","","M","0.0","","17","","11","","","","101.40","","","","","","NA"
"-53.08","46.66","CAPE RACE (AUT)","8401000","2019-01-05 01:30","2019","01","05","01:30","","M","","M","","M","0.0","","18","","20","","","","101.34","","","","","","NA"
"-53.08","46.66","CAPE RACE (AUT)","8401000","2019-01-05 02:30","2019","01","05","02:30","","M","","M","","M","0.0","","19","","24","","","","101.33","","","","","","NA"
"-53.08","46.66","CAPE RACE (AUT)","8401000","2019-01-05 03:30","2019","01","05","03:30","","M","","M","","M","0.0","","18","","31","","","","101.26","","","","","","NA"
"-53.08","46.66","CAPE RACE (AUT)","8401000","2019-01-05 04:30","2019","01","05","04:30","","M","","M","","M","0.0","","18","","26","","","","101.21","","","","","","NA"
"-53.08","46.66","CAPE RACE (AUT)","8401000","2019-01-05 05:30","2019","01","05","05:30","","M","","M","","M","0.0","","18","","27","","","","101.31","","","","","","NA"
"-53.08","46.66","CAPE RACE (AUT)","8401000","2019-01-05 06:30","2019","01","05","06:30","","M","","M","","M","0.0","","18","","32","","","","101.24","","","","","","NA"
"-53.08","46.66","CAPE RACE (AUT)","8401000","2019-01-05 07:30","2019","01","05","07:30","","M","","M","","M","0.0","","19","","34","","","","101.29","","","","","","NA"
"-53.08","46.66","CAPE RACE (AUT)","8401000","2019-01-05 08:30","2019","01","05","08:30","","M","","M","","M","0.0","","19","","36","","","","101.33","","","","","","NA"
"-53.08","46.66","CAPE RACE (AUT)","8401000","2019-01-05 09:30","2019","01","05","09:30","","M","","M","","M","0.0","","18","","34","","","","101.29","","","","","","NA"
"-53.08","46.66","CAPE RACE (AUT)","8401000","2019-01-05 10:30","2019","01","05","10:30","","M","","M","","M","0.0","","18","","32","","","","101.26","","","","","","NA"
"-53.08","46.66","CAPE RACE (AUT)","8401000","2019-01-05 11:30","2019","01","05","11:30","","M","","M","","M","0.0","","18","","32","","","","101.14","","","","","","NA"
"-53.08","46.66","CAPE RACE (AUT)","8401000","2019-01-05 12:30","2019","01","05","12:30","","M","","M","","M","0.0","","18","","34","","","","101.01","","","","","","NA"
"-53.08","46.66","CAPE RACE (AUT)","8401000","2019-01-05 13:30","2019","01","05","13:30","","M","","M","","M","0.0","","19","","31","","","","100.96","","","","","","NA"
"-53.08","46.66","CAPE RACE (AUT)","8401000","2019-01-05 14:30","2019","01","05","14:30","","M","","M","","M","0.0","","20","","34","","","","100.96","","","","","","NA"
"-53.08","46.66","CAPE RACE (AUT)","8401000","2019-01-05 15:30","2019","01","05","15:30","","M","","M","","M","0.0","","19","","29","","","","101.00","","","","","","NA"
"-53.08","46.66","CAPE RACE (AUT)","8401000","2019-01-05 16:30","2019","01","05","16:30","","M","","M","","M","0.0","","19","","29","","","","101.01","","","","","","NA"
"-53.08","46.66","CAPE RACE (AUT)","8401000","2019-01-05 17:30","2019","01","05","17:30","","M","","M","","M","0.0","","19","","29","","","","100.92","","","","","","NA"
"-53.08","46.66","CAPE RACE (AUT)","8401000","2019-01-05 18:30","2019","01","05","18:30","","M","","M","","M","0.0","","19","","26","","","","100.90","","","","","","NA"
"-53.08","46.66","CAPE RACE (AUT)","8401000","2019-01-05 19:30","2019","01","05","19:30","","M","","M","","M","0.0","","19","","30","","","","100.88","","","","","","NA"
"-53.08","46.66","CAPE RACE (AUT)","8401000","2019-01-05 20:30","2019","01","05","20:30","","M","","M","","M","0.0","","20","","19","","","","100.87","","","","","","NA"
"-53.08","46.66","CAPE RACE (AUT)","8401000","2019-01-05 21:30","2019","01","05","21:30","","M","","M","","M","0.2","","19","","28","","","","100.80","","","","","","NA"
"-53.08","46.66","CAPE RACE (AUT)","8401000","2019-01-05 22:30","2019","01","05","22:30","","M","","M","","M","0.0","","17","","13","","","","100.74","","","","","","NA"
"-53.08","46.66","CAPE RACE (AUT)","8401000","2019-01-05 23:30","2019","01","05","23:30","","M","","M","","M","0.5","","12","","6","","","","100.64","","","","","","NA"
"-53.08","46.66","CAPE RACE (AUT)","8401000","2019-01-06 00:30","2019","01","06","00:30","","M","","M","","M","0.0","","17","","23","","","","100.45","","","","","","NA"
"-53.08","46.66","CAPE RACE (AUT)","8401000","2019-01-06 01:30","2019","01","06","01:30","","M","","M","","M","0.0","","16","","19","","","","100.38","","","","","","NA"
"-53.08","46.66","CAPE RACE (AUT)","8401000","2019-01-06 02:30","2019","01","06","02:30","","M","","M","","M","0.5","","11","","9","","","","100.33","","","","","","NA"
"-53.08","46.66","CAPE RACE (AUT)","8401000","2019-01-06 03:30","2019","01","06","03:30","","M","","M","","M","1.4","","14","","24","","","","100.10","","","","","","NA"
"-53.08","46.66","CAPE RACE (AUT)","8401000","2019-01-06 04:30","2019","01","06","04:30","","M","","M","","M","1.1","","13","","34","","","","99.83","","","","","","NA"
"-53.08","46.66","CAPE RACE (AUT)","8401000","2019-01-06 05:30","2019","01","06","05:30","","M","","M","","M","1.8","","12","","33","","","","99.65","","","","","","NA"
"-53.08","46.66","CAPE RACE (AUT)","8401000","2019-01-06 06:30","2019","01","06","06:30","","M","","M","","M","2.9","","12","","38","","","","99.45","","","","","","NA"
"-53.08","46.66","CAPE RACE (AUT)","8401000","2019-01-06 07:30","2019","01","06","07:30","","M","","M","","M","3.0","","10","","53","","","","99.17","","","","","","NA"
"-53.08","46.66","CAPE RACE (AUT)","8401000","2019-01-06 08:30","2019","01","06","08:30","","M","","M","","M","3.2","","9","","45","","","","98.84","","","","","","NA"
"-53.08","46.66","CAPE RACE (AUT)","8401000","2019-01-06 09:30","2019","01","06","09:30","","M","","M","","M","2.7","","11","","47","","","","98.51","","","","","","NA"
"-53.08","46.66","CAPE RACE (AUT)","8401000","2019-01-06 10:30","2019","01","06","10:30","","M","","M","","M","2.7","","13","","47","","","","98.16","","","","","","NA"
"-53.08","46.66","CAPE RACE (AUT)","8401000","2019-01-06 11:30","2019","01","06","11:30","","M","","M","","M","1.4","","13","","45","","","","97.84","","","","","","NA"
"-53.08","46.66","CAPE RACE (AUT)","8401000","2019-01-06 12:30","2019","01","06","12:30","","M","","M","","M","0.5","","15","","38","","","","97.56","","","","","","NA"
"-53.08","46.66","CAPE RACE (AUT)","8401000","2019-01-06 13:30","2019","01","06","13:30","","M","","M","","M","0.0","","19","","34","","","","97.52","","","","","","NA"
"-53.08","46.66","CAPE RACE (AUT)","8401000","2019-01-06 14:30","2019","01","06","14:30","","M","","M","","M","0.0","","19","","39","","","","97.49","","","","","","NA"
"-53.08","46.66","CAPE RACE (AUT)","8401000","2019-01-06 15:30","2019","01","06","15:30","","M","","M","","M","0.0","","19","","45","","","","97.44","","","","","","NA"
"-53.08","46.66","CAPE RACE (AUT)","8401000","2019-01-06 16:30","2019","01","06","16:30","","M","","M","","M","0.5","","19","","46","","","","97.39","","","","","","NA"
"-53.08","46.66","CAPE RACE (AUT)","8401000","2019-01-06 17:30","2019","01","06","17:30","","M","","M","","M","0.5","","22","","44","","","","97.48","","","","","","NA"
"-53.08","46.66","CAPE RACE (AUT)","8401000","2019-01-06 18:30","2019","01","06","18:30","","M","","M","","M","0.2","","23","","48","","","","97.64","","","","","","NA"
"-53.08","46.66","CAPE RACE (AUT)","8401000","2019-01-06 19:30","2019","01","06","19:30","","M","","M","","M","0.0","","24","","56","","","","97.88","","","","","","NA"
"-53.08","46.66","CAPE RACE (AUT)","8401000","2019-01-06 20:30","2019","01","06","20:30","","M","","M","","M","0.0","","24","","61","","","","98.06","","","","","","NA"
"-53.08","46.66","CAPE RACE (AUT)","8401000","2019-01-06 21:30","2019","01","06","21:30","","M","","M","","M","0.0","","24","","53","","","","98.21","","","","","","NA"
"-53.08","46.66","CAPE RACE (AUT)","8401000","2019-01-06 22:30","2019","01","06","22:30","","M","","M","","M","0.0","","24","","62","","","","98.32","","","","","","NA"
"-53.08","46.66","CAPE RACE (AUT)","8401000","2019-01-06 23:30","2019","01","06","23:30","","M","","M","","M","0.0","","24","","57","","","","98.45","","","","","","NA"
"-53.08","46.66","CAPE RACE (AUT)","8401000","2019-01-07 00:30","2019","01","07","00:30","","M","","M","","M","0.0","","24","","62","","","","98.58","","","","","","NA"
"-53.08","46.66","CAPE RACE (AUT)","8401000","2019-01-07 01:30","2019","01","07","01:30","","M","","M","","M","0.3","","24","","52","","","","98.71","","","","","","NA"
"-53.08","46.66","CAPE RACE (AUT)","8401000","2019-01-07 02:30","2019","01","07","02:30","","M","","M","","M","0.0","","24","","59","","","","98.80","","","","","","NA"
"-53.08","46.66","CAPE RACE (AUT)","8401000","2019-01-07 03:30","2019","01","07","03:30","","M","","M","","M","0.6","","24","","52","","","","98.89","","","","","","NA"
"-53.08","46.66","CAPE RACE (AUT)","8401000","2019-01-07 04:30","2019","01","07","04:30","","M","","M","","M","0.3","","24","","49","","","","98.91","","","","","","NA"
"-53.08","46.66","CAPE RACE (AUT)","8401000","2019-01-07 05:30","2019","01","07","05:30","","M","","M","","M","0.0","","24","","44","","","","98.90","","","","","","NA"
"-53.08","46.66","CAPE RACE (AUT)","8401000","2019-01-07 06:30","2019","01","07","06:30","","M","","M","","M","0.0","","24","","48","","","","99.04","","","","","","NA"
"-53.08","46.66","CAPE RACE (AUT)","8401000","2019-01-07 07:30","2019","01","07","07:30","","M","","M","","M","0.0","","24","","53","","","","99.10","","","","","","NA"
"-53.08","46.66","CAPE RACE (AUT)","8401000","2019-01-07 08:30","2019","01","07","08:30","","M","","M","","M","0.0","","24","","44","","","","99.17","","","","","","NA"
"-53.08","46.66","CAPE RACE (AUT)","8401000","2019-01-07 09:30","2019","01","07","09:30","","M","","M","","M","0.0","","23","","44","","","","99.27","","","","","","NA"
"-53.08","46.66","CAPE RACE (AUT)","8401000","2019-01-07 10:30","2019","01","07","10:30","","M","","M","","M","0.0","","24","","39","","","","99.28","","","","","","NA"
"-53.08","46.66","CAPE RACE (AUT)","8401000","2019-01-07 11:30","2019","01","07","11:30","","M","","M","","M","0.0","","23","","44","","","","99.20","","","","","","NA"
"-53.08","46.66","CAPE RACE (AUT)","8401000","2019-01-07 12:30","2019","01","07","12:30","","M","","M","","M","0.0","","25","","45","","","","99.12","","","","","","NA"
"-53.08","46.66","CAPE RACE (AUT)","8401000","2019-01-07 13:30","2019","01","07","13:30","","M","","M","","M","0.0","","25","","40","","","","99.22","","","","","","NA"
"-53.08","46.66","CAPE RACE (AUT)","8401000","2019-01-07 14:30","2019","01","07","14:30","","M","","M","","M","0.0","","26","","37","","","","99.27","","","","","","NA"
"-53.08","46.66","CAPE RACE (AUT)","8401000","2019-01-07 15:30","2019","01","07","15:30","","M","","M","","M","0.0","","27","","38","","","","99.25","","","","","","NA"
"-53.08","46.66","CAPE RACE (AUT)","8401000","2019-01-07 16:30","2019","01","07","16:30","","M","","M","","M","0.0","","27","","27","","","","99.36","","","","","","NA"
"-53.08","46.66","CAPE RACE (AUT)","8401000","2019-01-07 17:30","2019","01","07","17:30","","M","","M","","M","0.0","","31","","21","","","","99.45","","","","","","NA"
"-53.08","46.66","CAPE RACE (AUT)","8401000","2019-01-07 18:30","2019","01","07","18:30","","M","","M","","M","0.0","","33","","6","","","","99.60","","","","","","NA"
"-53.08","46.66","CAPE RACE (AUT)","8401000","2019-01-07 19:30","2019","01","07","19:30","","M","","M","","M","0.0","","33","","25","","","","99.70","","","","","","NA"
"-53.08","46.66","CAPE RACE (AUT)","8401000","2019-01-07 20:30","2019","01","07","20:30","","M","","M","","M","0.0","","34","","22","","","","99.78","","","","","","NA"
"-53.08","46.66","CAPE RACE (AUT)","8401000","2019-01-07 21:30","2019","01","07","21:30","","M","","M","","M","0.0","","33","","27","","","","99.87","","","","","","NA"
"-53.08","46.66","CAPE RACE (AUT)","8401000","2019-01-07 22:30","2019","01","07","22:30","","M","","M","","M","0.0","","35","","35","","","","99.94","","","","","","NA"
"-53.08","46.66","CAPE RACE (AUT)","8401000","2019-01-07 23:30","2019","01","07","23:30","","M","","M","","M","0.2","","35","","30","","","","100.06","","","","","","NA"
"-53.08","46.66","CAPE RACE (AUT)","8401000","2019-01-08 00:30","2019","01","08","00:30","","M","","M","","M","0.0","","36","","24","","","","100.21","","","","","","NA"
"-53.08","46.66","CAPE RACE (AUT)","8401000","2019-01-08 01:30","2019","01","08","01:30","","M","","M","","M","0.0","","35","","32","","","","100.27","","","","","","NA"
"-53.08","46.66","CAPE RACE (AUT)","8401000","2019-01-08 02:30","2019","01","08","02:30","","M","","M","","M","0.0","","34","","34","","","","100.37","","","","","","NA"
"-53.08","46.66","CAPE RACE (AUT)","8401000","2019-01-08 03:30","2019","01","08","03:30","","M","","M","","M","0.0","","34","","25","","","","100.44","","","","","","NA"
"-53.08","46.66","CAPE RACE (AUT)","8401000","2019-01-08 04:30","2019","01","08","04:30","","M","","M","","M","0.0","","34","","28","","","","100.55","","","","","","NA"
"-53.08","46.66","CAPE RACE (AUT)","8401000","2019-01-08 05:30","2019","01","08","05:30","","M","","M","","M","0.0","","33","","34","","","","100.58","","","","","","NA"
"-53.08","46.66","CAPE RACE (AUT)","8401000","2019-01-08 06:30","2019","01","08","06:30","","M","","M","","M","0.0","","34","","33","","","","100.67","","","","","","NA"
"-53.08","46.66","CAPE RACE (AUT)","8401000","2019-01-08 07:30","2019","01","08","07:30","","M","","M","","M","0.0","","34","","33","","","","100.81","","","","","","NA"
"-53.08","46.66","CAPE RACE (AUT)","8401000","2019-01-08 08:30","2019","01","08","08:30","","M","","M","","M","0.0","","34","","35","","","","100.91","","","","","","NA"
"-53.08","46.66","CAPE RACE (AUT)","8401000","2019-01-08 09:30","2019","01","08","09:30","","M","","M","","M","0.0","","35","","34","","","","101.02","","","","","","NA"
"-53.08","46.66","CAPE RACE (AUT)","8401000","2019-01-08 10:30","2019","01","08","10:30","","M","","M","","M","0.0","","34","","30","","","","101.10","","","","","","NA"
"-53.08","46.66","CAPE RACE (AUT)","8401000","2019-01-08 11:30","2019","01","08","11:30","","M","","M","","M","0.0","","35","","34","","","","101.14","","","","","","NA"
"-53.08","46.66","CAPE RACE (AUT)","8401000","2019-01-08 12:30","2019","01","08","12:30","","M","","M","","M","0.0","","34","","37","","","","101.16","","","","","","NA"
"-53.08","46.66","CAPE RACE (AUT)","8401000","2019-01-08 13:30","2019","01","08","13:30","","M","","M","","M","0.0","","34","","33","","","","101.19","","","","","","NA"
"-53.08","46.66","CAPE RACE (AUT)","8401000","2019-01-08 14:30","2019","01","08","14:30","","M","","M","","M","0.0","","34","","33","","","","101.20","","","","","","NA"
"-53.08","46.66","CAPE RACE (AUT)","8401000","2019-01-08 15:30","2019","01","08","15:30","","M","","M","","M","0.0","","33","","30","","","","101.30","","","","","","NA"
"-53.08","46.66","CAPE RACE (AUT)","8401000","2019-01-08 16:30","2019","01","08","16:30","","M","","M","","M","0.0","","35","","27","","","","101.38","","","","","","NA"
"-53.08","46.66","CAPE RACE (AUT)","8401000","2019-01-08 17:30","2019","01","08","17:30","","M","","M","","M","0.0","","36","","34","","","","101.42","","","","","","NA"
"-53.08","46.66","CAPE RACE (AUT)","8401000","2019-01-08 18:30","2019","01","08","18:30","","M","","M","","M","0.0","","35","","35","","","","101.54","","","","","","NA"
"-53.08","46.66","CAPE RACE (AUT)","8401000","2019-01-08 19:30","2019","01","08","19:30","","M","","M","","M","0.0","","35","","29","","","","101.54","","","","","","NA"
"-53.08","46.66","CAPE RACE (AUT)","8401000","2019-01-08 20:30","2019","01","08","20:30","","M","","M","","M","0.0","","34","","29","","","","101.60","","","","","","NA"
"-53.08","46.66","CAPE RACE (AUT)","8401000","2019-01-08 21:30","2019","01","08","21:30","","M","","M","","M","0.0","","34","","26","","","","101.65","","","","","","NA"
"-53.08","46.66","CAPE RACE (AUT)","8401000","2019-01-08 22:30","2019","01","08","22:30","","M","","M","","M","0.0","","36","","28","","","","101.62","","","","","","NA"
"-53.08","46.66","CAPE RACE (AUT)","8401000","2019-01-08 23:30","2019","01","08","23:30","","M","","M","","M","0.0","","","M","19","","","","101.63","","","","","","NA"
"-53.08","46.66","CAPE RACE (AUT)","8401000","2019-01-09 00:30","2019","01","09","00:30","","M","","M","","M","0.0","","33","","27","","","","101.55","","","","","","NA"
"-53.08","46.66","CAPE RACE (AUT)","8401000","2019-01-09 01:30","2019","01","09","01:30","","M","","M","","M","0.0","","30","","25","","","","101.61","","","","","","NA"
"-53.08","46.66","CAPE RACE (AUT)","8401000","2019-01-09 02:30","2019","01","09","02:30","","M","","M","","M","0.0","","30","","32","","","","101.66","","","","","","NA"
"-53.08","46.66","CAPE RACE (AUT)","8401000","2019-01-09 03:30","2019","01","09","03:30","","M","","M","","M","0.0","","31","","30","","","","101.68","","","","","","NA"
"-53.08","46.66","CAPE RACE (AUT)","8401000","2019-01-09 04:30","2019","01","09","04:30","","M","","M","","M","0.0","","32","","30","","","","101.66","","","","","","NA"
"-53.08","46.66","CAPE RACE (AUT)","8401000","2019-01-09 05:30","2019","01","09","05:30","","M","","M","","M","0.0","","32","","24","","","","101.63","","","","","","NA"
"-53.08","46.66","CAPE RACE (AUT)","8401000","2019-01-09 06:30","2019","01","09","06:30","","M","","M","","M","0.0","","31","","23","","","","101.59","","","","","","NA"
"-53.08","46.66","CAPE RACE (AUT)","8401000","2019-01-09 07:30","2019","01","09","07:30","","M","","M","","M","0.0","","32","","21","","","","101.67","","","","","","NA"
"-53.08","46.66","CAPE RACE (AUT)","8401000","2019-01-09 08:30","2019","01","09","08:30","","M","","M","","M","0.0","","30","","19","","","","101.75","","","","","","NA"
"-53.08","46.66","CAPE RACE (AUT)","8401000","2019-01-09 09:30","2019","01","09","09:30","","M","","M","","M","0.0","","32","","17","","","","101.69","","","","","","NA"
"-53.08","46.66","CAPE RACE (AUT)","8401000","2019-01-09 10:30","2019","01","09","10:30","","M","","M","","M","0.0","","31","","14","","","","101.67","","","","","","NA"
"-53.08","46.66","CAPE RACE (AUT)","8401000","2019-01-09 11:30","2019","01","09","11:30","","M","","M","","M","0.0","","32","","16","","","","101.62","","","","","","NA"
"-53.08","46.66","CAPE RACE (AUT)","8401000","2019-01-09 12:30","2019","01","09","12:30","","M","","M","","M","0.0","","35","","14","","","","101.49","","","","","","NA"
"-53.08","46.66","CAPE RACE (AUT)","8401000","2019-01-09 13:30","2019","01","09","13:30","","M","","M","","M","0.0","","1","","16","","","","101.37","","","","","","NA"
"-53.08","46.66","CAPE RACE (AUT)","8401000","2019-01-09 14:30","2019","01","09","14:30","","M","","M","","M","0.0","","35","","12","","","","101.44","","","","","","NA"
"-53.08","46.66","CAPE RACE (AUT)","8401000","2019-01-09 15:30","2019","01","09","15:30","","M","","M","","M","0.0","","31","","13","","","","101.42","","","","","","NA"
"-53.08","46.66","CAPE RACE (AUT)","8401000","2019-01-09 16:30","2019","01","09","16:30","","M","","M","","M","0.0","","26","","5","","","","101.43","","","","","","NA"
"-53.08","46.66","CAPE RACE (AUT)","8401000","2019-01-09 17:30","2019","01","09","17:30","","M","","M","","M","0.0","","26","","4","","","","101.39","","","","","","NA"
"-53.08","46.66","CAPE RACE (AUT)","8401000","2019-01-09 18:30","2019","01","09","18:30","","M","","M","","M","0.0","","35","","5","","","","101.32","","","","","","NA"
"-53.08","46.66","CAPE RACE (AUT)","8401000","2019-01-09 19:30","2019","01","09","19:30","","M","","M","","M","0.0","","33","","6","","","","101.29","","","","","","NA"
"-53.08","46.66","CAPE RACE (AUT)","8401000","2019-01-09 20:30","2019","01","09","20:30","","M","","M","","M","0.0","","11","","9","","","","101.19","","","","","","NA"
"-53.08","46.66","CAPE RACE (AUT)","8401000","2019-01-09 21:30","2019","01","09","21:30","","M","","M","","M","0.0","","11","","14","","","","101.10","","","","","","NA"
"-53.08","46.66","CAPE RACE (AUT)","8401000","2019-01-09 22:30","2019","01","09","22:30","","M","","M","","M","0.0","","11","","17","","","","101.06","","","","","","NA"
"-53.08","46.66","CAPE RACE (AUT)","8401000","2019-01-09 23:30","2019","01","09","23:30","","M","","M","","M","0.0","","12","","22","","","","100.96","","","","","","NA"
"-53.08","46.66","CAPE RACE (AUT)","8401000","2019-01-10 00:30","2019","01","10","00:30","","M","","M","","M","0.0","","11","","26","","","","100.81","","","","","","NA"
"-53.08","46.66","CAPE RACE (AUT)","8401000","2019-01-10 01:30","2019","01","10","01:30","","M","","M","","M","0.0","","12","","29","","","","100.73","","","","","","NA"
"-53.08","46.66","CAPE RACE (AUT)","8401000","2019-01-10 02:30","2019","01","10","02:30","","M","","M","","M","0.9","","10","","36","","","","100.62","","","","","","NA"
"-53.08","46.66","CAPE RACE (AUT)","8401000","2019-01-10 03:30","2019","01","10","03:30","","M","","M","","M","0.3","","10","","25","","","","100.43","","","","","","NA"
"-53.08","46.66","CAPE RACE (AUT)","8401000","2019-01-10 04:30","2019","01","10","04:30","","M","","M","","M","0.0","","10","","4","","","","100.22","","","","","","NA"
"-53.08","46.66","CAPE RACE (AUT)","8401000","2019-01-10 05:30","2019","01","10","05:30","","M","","M","","M","1.7","","9","","3","","","","100.03","","","","","","NA"
"-53.08","46.66","CAPE RACE (AUT)","8401000","2019-01-10 06:30","2019","01","10","06:30","","M","","M","","M","1.5","","9","","2","","","","99.92","","","","","","NA"
"-53.08","46.66","CAPE RACE (AUT)","8401000","2019-01-10 07:30","2019","01","10","07:30","","M","","M","","M","6.2","","7","","1","","","","99.75","","","","","","NA"
"-53.08","46.66","CAPE RACE (AUT)","8401000","2019-01-10 08:30","2019","01","10","08:30","","M","","M","","M","5.8","","14","","2","","","","99.52","","","","","","NA"
"-53.08","46.66","CAPE RACE (AUT)","8401000","2019-01-10 09:30","2019","01","10","09:30","","M","","M","","M","2.9","","16","","26","","","","99.39","","","","","","NA"
"-53.08","46.66","CAPE RACE (AUT)","8401000","2019-01-10 10:30","2019","01","10","10:30","","M","","M","","M","0.3","","17","","36","","","","99.30","","","","","","NA"
"-53.08","46.66","CAPE RACE (AUT)","8401000","2019-01-10 11:30","2019","01","10","11:30","","M","","M","","M","0.5","","18","","34","","","","99.22","","","","","","NA"
"-53.08","46.66","CAPE RACE (AUT)","8401000","2019-01-10 12:30","2019","01","10","12:30","","M","","M","","M","0.0","","23","","24","","","","99.20","","","","","","NA"
"-53.08","46.66","CAPE RACE (AUT)","8401000","2019-01-10 13:30","2019","01","10","13:30","","M","","M","","M","0.0","","22","","15","","","","99.19","","","","","","NA"
"-53.08","46.66","CAPE RACE (AUT)","8401000","2019-01-10 14:30","2019","01","10","14:30","","M","","M","","M","0.3","","25","","16","","","","99.22","","","","","","NA"
"-53.08","46.66","CAPE RACE (AUT)","8401000","2019-01-10 15:30","2019","01","10","15:30","","M","","M","","M","0.0","","24","","17","","","","99.34","","","","","","NA"
"-53.08","46.66","CAPE RACE (AUT)","8401000","2019-01-10 16:30","2019","01","10","16:30","","M","","M","","M","0.0","","27","","11","","","","99.37","","","","","","NA"
"-53.08","46.66","CAPE RACE (AUT)","8401000","2019-01-10 17:30","2019","01","10","17:30","","M","","M","","M","0.0","","27","","15","","","","99.46","","","","","","NA"
"-53.08","46.66","CAPE RACE (AUT)","8401000","2019-01-10 18:30","2019","01","10","18:30","","M","","M","","M","0.0","","20","","10","","","","99.48","","","","","","NA"
"-53.08","46.66","CAPE RACE (AUT)","8401000","2019-01-10 19:30","2019","01","10","19:30","","M","","M","","M","0.0","","23","","6","","","","99.55","","","","","","NA"
"-53.08","46.66","CAPE RACE (AUT)","8401000","2019-01-10 20:30","2019","01","10","20:30","","M","","M","","M","0.0","","19","","5","","","","99.52","","","","","","NA"
"-53.08","46.66","CAPE RACE (AUT)","8401000","2019-01-10 21:30","2019","01","10","21:30","","M","","M","","M","0.0","","35","","3","","","","99.54","","","","","","NA"
"-53.08","46.66","CAPE RACE (AUT)","8401000","2019-01-10 22:30","2019","01","10","22:30","","M","","M","","M","0.0","","7","","8","","","","99.51","","","","","","NA"
"-53.08","46.66","CAPE RACE (AUT)","8401000","2019-01-10 23:30","2019","01","10","23:30","","M","","M","","M","0.5","","4","","12","","","","99.39","","","","","","NA"
"-53.08","46.66","CAPE RACE (AUT)","8401000","2019-01-11 00:30","2019","01","11","00:30","","M","","M","","M","0.9","","2","","18","","","","99.20","","","","","","NA"
"-53.08","46.66","CAPE RACE (AUT)","8401000","2019-01-11 01:30","2019","01","11","01:30","","M","","M","","M","0.0","","35","","12","","","","99.33","","","","","","NA"
"-53.08","46.66","CAPE RACE (AUT)","8401000","2019-01-11 02:30","2019","01","11","02:30","","M","","M","","M","0.9","","32","","21","","","","99.38","","","","","","NA"
"-53.08","46.66","CAPE RACE (AUT)","8401000","2019-01-11 03:30","2019","01","11","03:30","","M","","M","","M","1.3","","33","","18","","","","99.36","","","","","","NA"
"-53.08","46.66","CAPE RACE (AUT)","8401000","2019-01-11 04:30","2019","01","11","04:30","","M","","M","","M","0.0","","3","","15","","","","99.36","","","","","","NA"
"-53.08","46.66","CAPE RACE (AUT)","8401000","2019-01-11 05:30","2019","01","11","05:30","","M","","M","","M","0.0","","2","","8","","","","99.44","","","","","","NA"
"-53.08","46.66","CAPE RACE (AUT)","8401000","2019-01-11 06:30","2019","01","11","06:30","","M","","M","","M","0.0","","6","","19","","","","99.34","","","","","","NA"
"-53.08","46.66","CAPE RACE (AUT)","8401000","2019-01-11 07:30","2019","01","11","07:30","","M","","M","","M","0.0","","3","","13","","","","99.52","","","","","","NA"
"-53.08","46.66","CAPE RACE (AUT)","8401000","2019-01-11 08:30","2019","01","11","08:30","","M","","M","","M","0.0","","5","","17","","","","99.58","","","","","","NA"
"-53.08","46.66","CAPE RACE (AUT)","8401000","2019-01-11 09:30","2019","01","11","09:30","","M","","M","","M","0.3","","4","","9","","","","99.76","","","","","","NA"
"-53.08","46.66","CAPE RACE (AUT)","8401000","2019-01-11 10:30","2019","01","11","10:30","","M","","M","","M","0.5","","7","","3","","","","99.92","","","","","","NA"
"-53.08","46.66","CAPE RACE (AUT)","8401000","2019-01-11 11:30","2019","01","11","11:30","","M","","M","","M","0.0","","3","","9","","","","99.87","","","","","","NA"
"-53.08","46.66","CAPE RACE (AUT)","8401000","2019-01-11 12:30","2019","01","11","12:30","","M","","M","","M","0.0","","9","","7","","","","99.90","","","","","","NA"
"-53.08","46.66","CAPE RACE (AUT)","8401000","2019-01-11 13:30","2019","01","11","13:30"
"-53.08","46.66","CAPE RACE (AUT)","8401000","2019-01-11 14:30","2019","01","11","14:30"
"-53.08","46.66","CAPE RACE (AUT)","8401000","2019-01-11 15:30","2019","01","11","15:30","","M","","M","","M","0.0","","23","","26","","","","100.25","","","","","","NA"
"-53.08","46.66","CAPE RACE (AUT)","8401000","2019-01-11 16:30","2019","01","11","16:30","","M","","M","","M","0.0","","25","","39","","","","100.40","","","","","","NA"
"-53.08","46.66","CAPE RACE (AUT)","8401000","2019-01-11 17:30","2019","01","11","17:30","","M","","M","","M","0.0","","24","","34","","","","100.57","","","","","","NA"
"-53.08","46.66","CAPE RACE (AUT)","8401000","2019-01-11 18:30","2019","01","11","18:30","","M","","M","","M","0.0","","22","","29","","","","100.73","","","","","","NA"
"-53.08","46.66","CAPE RACE (AUT)","8401000","2019-01-11 19:30","2019","01","11","19:30","","M","","M","","M","0.0","","22","","32","","","","100.83","","","","","","NA"
"-53.08","46.66","CAPE RACE (AUT)","8401000","2019-01-11 20:30","2019","01","11","20:30","","M","","M","","M","0.0","","22","","27","","","","100.92","","","","","","NA"
"-53.08","46.66","CAPE RACE (AUT)","8401000","2019-01-11 21:30","2019","01","11","21:30","","M","","M","","M","0.0","","22","","22","","","","100.99","","","","","","NA"
"-53.08","46.66","CAPE RACE (AUT)","8401000","2019-01-11 22:30","2019","01","11","22:30","","M","","M","","M","0.0","","21","","27","","","","101.05","","","","","","NA"
"-53.08","46.66","CAPE RACE (AUT)","8401000","2019-01-11 23:30","2019","01","11","23:30","","M","","M","","M","0.0","","21","","34","","","","101.08","","","","","","NA"
"-53.08","46.66","CAPE RACE (AUT)","8401000","2019-01-12 00:30","2019","01","12","00:30","","M","","M","","M","0.0","","22","","31","","","","101.12","","","","","","NA"
"-53.08","46.66","CAPE RACE (AUT)","8401000","2019-01-12 01:30","2019","01","12","01:30","","M","","M","","M","0.0","","21","","28","","","","101.19","","","","","","NA"
"-53.08","46.66","CAPE RACE (AUT)","8401000","2019-01-12 02:30","2019","01","12","02:30","","M","","M","","M","0.0","","21","","26","","","","101.22","","","","","","NA"
"-53.08","46.66","CAPE RACE (AUT)","8401000","2019-01-12 03:30","2019","01","12","03:30","","M","","M","","M","0.0","","23","","34","","","","101.31","","","","","","NA"
"-53.08","46.66","CAPE RACE (AUT)","8401000","2019-01-12 04:30","2019","01","12","04:30","","M","","M","","M","0.0","","22","","30","","","","101.33","","","","","","NA"
"-53.08","46.66","CAPE RACE (AUT)","8401000","2019-01-12 05:30","2019","01","12","05:30","","M","","M","","M","0.0","","22","","25","","","","101.38","","","","","","NA"
"-53.08","46.66","CAPE RACE (AUT)","8401000","2019-01-12 06:30","2019","01","12","06:30","","M","","M","","M","0.0","","22","","22","","","","101.42","","","","","","NA"
"-53.08","46.66","CAPE RACE (AUT)","8401000","2019-01-12 07:30","2019","01","12","07:30","","M","","M","","M","0.0","","21","","21","","","","101.45","","","","","","NA"
"-53.08","46.66","CAPE RACE (AUT)","8401000","2019-01-12 08:30","2019","01","12","08:30","","M","","M","","M","0.0","","20","","21","","","","101.52","","","","","","NA"
"-53.08","46.66","CAPE RACE (AUT)","8401000","2019-01-12 09:30","2019","01","12","09:30","","M","","M","","M","0.0","","20","","23","","","","101.57","","","","","","NA"
"-53.08","46.66","CAPE RACE (AUT)","8401000","2019-01-12 10:30","2019","01","12","10:30","","M","","M","","M","0.0","","22","","28","","","","101.59","","","","","","NA"
"-53.08","46.66","CAPE RACE (AUT)","8401000","2019-01-12 11:30","2019","01","12","11:30","","M","","M","","M","0.0","","21","","31","","","","101.54","","","","","","NA"
"-53.08","46.66","CAPE RACE (AUT)","8401000","2019-01-12 12:30","2019","01","12","12:30","","M","","M","","M","0.0","","22","","32","","","","101.51","","","","","","NA"
"-53.08","46.66","CAPE RACE (AUT)","8401000","2019-01-12 13:30","2019","01","12","13:30","","M","","M","","M","0.0","","22","","24","","","","101.49","","","","","","NA"
"-53.08","46.66","CAPE RACE (AUT)","8401000","2019-01-12 14:30","2019","01","12","14:30","","M","","M","","M","0.0","","22","","22","","","","101.45","","","","","","NA"
"-53.08","46.66","CAPE RACE (AUT)","8401000","2019-01-12 15:30","2019","01","12","15:30","","M","","M","","M","0.0","","22","","23","","","","101.47","","","","","","NA"
"-53.08","46.66","CAPE RACE (AUT)","8401000","2019-01-12 16:30","2019","01","12","16:30","","M","","M","","M","0.0","","23","","33","","","","101.48","","","","","","NA"
"-53.08","46.66","CAPE RACE (AUT)","8401000","2019-01-12 17:30","2019","01","12","17:30","","M","","M","","M","0.0","","24","","27","","","","101.47","","","","","","NA"
"-53.08","46.66","CAPE RACE (AUT)","8401000","2019-01-12 18:30","2019","01","12","18:30","","M","","M","","M","0.0","","23","","20","","","","101.44","","","","","","NA"
"-53.08","46.66","CAPE RACE (AUT)","8401000","2019-01-12 19:30","2019","01","12","19:30","","M","","M","","M","0.0","","23","","22","","","","101.41","","","","","","NA"
"-53.08","46.66","CAPE RACE (AUT)","8401000","2019-01-12 20:30","2019","01","12","20:30","","M","","M","","M","0.0","","21","","21","","","","101.38","","","","","","NA"
"-53.08","46.66","CAPE RACE (AUT)","8401000","2019-01-12 21:30","2019","01","12","21:30","","M","","M","","M","0.0","","23","","29","","","","101.37","","","","","","NA"
"-53.08","46.66","CAPE RACE (AUT)","8401000","2019-01-12 22:30","2019","01","12","22:30","","M","","M","","M","0.0","","26","","29","","","","101.39","","","","","","NA"
"-53.08","46.66","CAPE RACE (AUT)","8401000","2019-01-12 23:30","2019","01","12","23:30","","M","","M","","M","0.0","","28","","38","","","","101.35","","","","","","NA"
"-53.08","46.66","CAPE RACE (AUT)","8401000","2019-01-13 00:30","2019","01","13","00:30","","M","","M","","M","0.0","","28","","36","","","","101.31","","","","","","NA"
"-53.08","46.66","CAPE RACE (AUT)","8401000","2019-01-13 01:30","2019","01","13","01:30","","M","","M","","M","0.0","","26","","27","","","","101.32","","","","","","NA"
"-53.08","46.66","CAPE RACE (AUT)","8401000","2019-01-13 02:30","2019","01","13","02:30","","M","","M","","M","0.0","","27","","24","","","","101.36","","","","","","NA"
"-53.08","46.66","CAPE RACE (AUT)","8401000","2019-01-13 03:30","2019","01","13","03:30","","M","","M","","M","0.0","","28","","26","","","","101.36","","","","","","NA"
"-53.08","46.66","CAPE RACE (AUT)","8401000","2019-01-13 04:30","2019","01","13","04:30","","M","","M","","M","0.0","","28","","32","","","","101.35","","","","","","NA"
"-53.08","46.66","CAPE RACE (AUT)","8401000","2019-01-13 05:30","2019","01","13","05:30","","M","","M","","M","0.0","","28","","32","","","","101.35","","","","","","NA"
"-53.08","46.66","CAPE RACE (AUT)","8401000","2019-01-13 06:30","2019","01","13","06:30","","M","","M","","M","0.0","","27","","35","","","","101.39","","","","","","NA"
"-53.08","46.66","CAPE RACE (AUT)","8401000","2019-01-13 07:30","2019","01","13","07:30","","M","","M","","M","0.0","","28","","30","","","","101.42","","","","","","NA"
"-53.08","46.66","CAPE RACE (AUT)","8401000","2019-01-13 08:30","2019","01","13","08:30","","M","","M","","M","0.0","","28","","30","","","","101.50","","","","","","NA"
"-53.08","46.66","CAPE RACE (AUT)","8401000","2019-01-13 09:30","2019","01","13","09:30","","M","","M","","M","0.0","","27","","31","","","","101.57","","","","","","NA"
"-53.08","46.66","CAPE RACE (AUT)","8401000","2019-01-13 10:30","2019","01","13","10:30","","M","","M","","M","0.0","","26","","30","","","","101.59","","","","","","NA"
"-53.08","46.66","CAPE RACE (AUT)","8401000","2019-01-13 11:30","2019","01","13","11:30","","M","","M","","M","0.0","","26","","31","","","","101.56","","","","","","NA"
"-53.08","46.66","CAPE RACE (AUT)","8401000","2019-01-13 12:30","2019","01","13","12:30","","M","","M","","M","0.0","","26","","37","","","","101.52","","","","","","NA"
"-53.08","46.66","CAPE RACE (AUT)","8401000","2019-01-13 13:30","2019","01","13","13:30","","M","","M","","M","0.0","","26","","36","","","","101.53","","","","","","NA"
"-53.08","46.66","CAPE RACE (AUT)","8401000","2019-01-13 14:30","2019","01","13","14:30","","M","","M","","M","0.0","","26","","36","","","","101.53","","","","","","NA"
"-53.08","46.66","CAPE RACE (AUT)","8401000","2019-01-13 15:30","2019","01","13","15:30","","M","","M","","M","0.0","","25","","40","","","","101.53","","","","","","NA"
"-53.08","46.66","CAPE RACE (AUT)","8401000","2019-01-13 16:30","2019","01","13","16:30","","M","","M","","M","0.0","","25","","39","","","","101.56","","","","","","NA"
"-53.08","46.66","CAPE RACE (AUT)","8401000","2019-01-13 17:30","2019","01","13","17:30","","M","","M","","M","0.0","","25","","43","","","","101.58","","","","","","NA"
"-53.08","46.66","CAPE RACE (AUT)","8401000","2019-01-13 18:30","2019","01","13","18:30","","M","","M","","M","0.0","","25","","36","","","","101.61","","","","","","NA"
"-53.08","46.66","CAPE RACE (AUT)","8401000","2019-01-13 19:30","2019","01","13","19:30","","M","","M","","M","0.0","","24","","39","","","","101.61","","","","","","NA"
"-53.08","46.66","CAPE RACE (AUT)","8401000","2019-01-13 20:30","2019","01","13","20:30","","M","","M","","M","0.0","","24","","38","","","","101.64","","","","","","NA"
"-53.08","46.66","CAPE RACE (AUT)","8401000","2019-01-13 21:30","2019","01","13","21:30","","M","","M","","M","0.0","","24","","39","","","","101.66","","","","","","NA"
"-53.08","46.66","CAPE RACE (AUT)","8401000","2019-01-13 22:30","2019","01","13","22:30","","M","","M","","M","0.0","","25","","36","","","","101.65","","","","","","NA"
"-53.08","46.66","CAPE RACE (AUT)","8401000","2019-01-13 23:30","2019","01","13","23:30","","M","","M","","M","0.0","","26","","27","","","","101.66","","","","","","NA"
"-53.08","46.66","CAPE RACE (AUT)","8401000","2019-01-14 00:30","2019","01","14","00:30","","M","","M","","M","0.2","","27","","30","","","","101.64","","","","","","NA"
"-53.08","46.66","CAPE RACE (AUT)","8401000","2019-01-14 01:30","2019","01","14","01:30","","M","","M","","M","0.0","","26","","27","","","","101.64","","","","","","NA"
"-53.08","46.66","CAPE RACE (AUT)","8401000","2019-01-14 02:30","2019","01","14","02:30","","M","","M","","M","0.0","","27","","35","","","","101.69","","","","","","NA"
"-53.08","46.66","CAPE RACE (AUT)","8401000","2019-01-14 03:30","2019","01","14","03:30","","M","","M","","M","0.0","","27","","33","","","","101.71","","","","","","NA"
"-53.08","46.66","CAPE RACE (AUT)","8401000","2019-01-14 04:30","2019","01","14","04:30","","M","","M","","M","0.0","","28","","35","","","","101.69","","","","","","NA"
"-53.08","46.66","CAPE RACE (AUT)","8401000","2019-01-14 05:30","2019","01","14","05:30","","M","","M","","M","0.0","","28","","30","","","","101.70","","","","","","NA"
"-53.08","46.66","CAPE RACE (AUT)","8401000","2019-01-14 06:30","2019","01","14","06:30","","M","","M","","M","0.0","","29","","32","","","","101.75","","","","","","NA"
"-53.08","46.66","CAPE RACE (AUT)","8401000","2019-01-14 07:30","2019","01","14","07:30","","M","","M","","M","0.0","","28","","25","","","","101.83","","","","","","NA"
"-53.08","46.66","CAPE RACE (AUT)","8401000","2019-01-14 08:30","2019","01","14","08:30","","M","","M","","M","0.0","","29","","28","","","","101.89","","","","","","NA"
"-53.08","46.66","CAPE RACE (AUT)","8401000","2019-01-14 09:30","2019","01","14","09:30","","M","","M","","M","0.0","","28","","37","","","","101.92","","","","","","NA"
"-53.08","46.66","CAPE RACE (AUT)","8401000","2019-01-14 10:30","2019","01","14","10:30","","M","","M","","M","0.0","","28","","34","","","","101.94","","","","","","NA"
"-53.08","46.66","CAPE RACE (AUT)","8401000","2019-01-14 11:30","2019","01","14","11:30","","M","","M","","M","0.0","","28","","35","","","","101.87","","","","","","NA"
"-53.08","46.66","CAPE RACE (AUT)","8401000","2019-01-14 12:30","2019","01","14","12:30","","M","","M","","M","0.0","","27","","33","","","","101.82","","","","","","NA"
"-53.08","46.66","CAPE RACE (AUT)","8401000","2019-01-14 13:30","2019","01","14","13:30","","M","","M","","M","0.0","","26","","33","","","","101.91","","","","","","NA"
"-53.08","46.66","CAPE RACE (AUT)","8401000","2019-01-14 14:30","2019","01","14","14:30","","M","","M","","M","0.0","","28","","30","","","","101.90","","","","","","NA"
"-53.08","46.66","CAPE RACE (AUT)","8401000","2019-01-14 15:30","2019","01","14","15:30","","M","","M","","M","0.0","","28","","27","","","","101.90","","","","","","NA"
"-53.08","46.66","CAPE RACE (AUT)","8401000","2019-01-14 16:30","2019","01","14","16:30","","M","","M","","M","0.0","","27","","23","","","","101.93","","","","","","NA"
"-53.08","46.66","CAPE RACE (AUT)","8401000","2019-01-14 17:30","2019","01","14","17:30","","M","","M","","M","0.0","","27","","17","","","","101.93","","","","","","NA"
"-53.08","46.66","CAPE RACE (AUT)","8401000","2019-01-14 18:30","2019","01","14","18:30","","M","","M","","M","0.0","","27","","19","","","","101.94","","","","","","NA"
"-53.08","46.66","CAPE RACE (AUT)","8401000","2019-01-14 19:30","2019","01","14","19:30","","M","","M","","M","0.0","","27","","20","","","","101.91","","","","","","NA"
"-53.08","46.66","CAPE RACE (AUT)","8401000","2019-01-14 20:30","2019","01","14","20:30","","M","","M","","M","0.0","","25","","18","","","","101.95","","","","","","NA"
"-53.08","46.66","CAPE RACE (AUT)","8401000","2019-01-14 21:30","2019","01","14","21:30","","M","","M","","M","0.0","","26","","15","","","","101.94","","","","","","NA"
"-53.08","46.66","CAPE RACE (AUT)","8401000","2019-01-14 22:30","2019","01","14","22:30","","M","","M","","M","0.0","","25","","11","","","","101.91","","","","","","NA"
"-53.08","46.66","CAPE RACE (AUT)","8401000","2019-01-14 23:30","2019","01","14","23:30","","M","","M","","M","0.0","","22","","9","","","","101.84","","","","","","NA"
"-53.08","46.66","CAPE RACE (AUT)","8401000","2019-01-15 00:30","2019","01","15","00:30","","M","","M","","M","0.0","","18","","16","","","","101.78","","","","","","NA"
"-53.08","46.66","CAPE RACE (AUT)","8401000","2019-01-15 01:30","2019","01","15","01:30","","M","","M","","M","0.0","","18","","14","","","","101.68","","","","","","NA"
"-53.08","46.66","CAPE RACE (AUT)","8401000","2019-01-15 02:30","2019","01","15","02:30","","M","","M","","M","0.0","","14","","16","","","","101.58","","","","","","NA"
"-53.08","46.66","CAPE RACE (AUT)","8401000","2019-01-15 03:30","2019","01","15","03:30","","M","","M","","M","0.0","","15","","18","","","","101.52","","","","","","NA"
"-53.08","46.66","CAPE RACE (AUT)","8401000","2019-01-15 04:30","2019","01","15","04:30","","M","","M","","M","0.0","","11","","25","","","","101.28","","","","","","NA"
"-53.08","46.66","CAPE RACE (AUT)","8401000","2019-01-15 05:30","2019","01","15","05:30","","M","","M","","M","0.0","","11","","29","","","","101.19","","","","","","NA"
"-53.08","46.66","CAPE RACE (AUT)","8401000","2019-01-15 06:30","2019","01","15","06:30","","M","","M","","M","0.0","","10","","34","","","","101.09","","","","","","NA"
"-53.08","46.66","CAPE RACE (AUT)","8401000","2019-01-15 07:30","2019","01","15","07:30","","M","","M","","M","0.0","","10","","41","","","","100.93","","","","","","NA"
"-53.08","46.66","CAPE RACE (AUT)","8401000","2019-01-15 08:30","2019","01","15","08:30","","M","","M","","M","0.2","","10","","42","","","","100.77","","","","","","NA"
"-53.08","46.66","CAPE RACE (AUT)","8401000","2019-01-15 09:30","2019","01","15","09:30","","M","","M","","M","1.1","","8","","50","","","","100.54","","","","","","NA"
"-53.08","46.66","CAPE RACE (AUT)","8401000","2019-01-15 10:30","2019","01","15","10:30","","M","","M","","M","1.1","","7","","54","","","","100.08","","","","","","NA"
"-53.08","46.66","CAPE RACE (AUT)","8401000","2019-01-15 11:30","2019","01","15","11:30","","M","","M","","M","1.0","","8","","50","","","","99.70","","","","","","NA"
"-53.08","46.66","CAPE RACE (AUT)","8401000","2019-01-15 12:30","2019","01","15","12:30","","M","","M","","M","3.2","","10","","46","","","","99.26","","","","","","NA"
"-53.08","46.66","CAPE RACE (AUT)","8401000","2019-01-15 13:30","2019","01","15","13:30","","M","","M","","M","1.8","","12","","53","","","","98.80","","","","","","NA"
"-53.08","46.66","CAPE RACE (AUT)","8401000","2019-01-15 14:30","2019","01","15","14:30","","M","","M","","M","0.3","","13","","55","","","","98.59","","","","","","NA"
"-53.08","46.66","CAPE RACE (AUT)","8401000","2019-01-15 15:30","2019","01","15","15:30","","M","","M","","M","0.6","","14","","34","","","","98.42","","","","","","NA"
"-53.08","46.66","CAPE RACE (AUT)","8401000","2019-01-15 16:30","2019","01","15","16:30","","M","","M","","M","0.5","","15","","31","","","","98.22","","","","","","NA"
"-53.08","46.66","CAPE RACE (AUT)","8401000","2019-01-15 17:30","2019","01","15","17:30","","M","","M","","M","0.5","","13","","16","","","","98.06","","","","","","NA"
"-53.08","46.66","CAPE RACE (AUT)","8401000","2019-01-15 18:30","2019","01","15","18:30","","M","","M","","M","0.3","","13","","7","","","","97.93","","","","","","NA"
"-53.08","46.66","CAPE RACE (AUT)","8401000","2019-01-15 19:30","2019","01","15","19:30","","M","","M","","M","1.2","","28","","17","","","","97.94","","","","","","NA"
"-53.08","46.66","CAPE RACE (AUT)","8401000","2019-01-15 20:30","2019","01","15","20:30","","M","","M","","M","0.2","","","M","37","","","","97.96","","","","","","NA"
"-53.08","46.66","CAPE RACE (AUT)","8401000","2019-01-15 21:30","2019","01","15","21:30","","M","","M","","M","0.0","","35","","33","","","","98.22","","","","","","NA"
"-53.08","46.66","CAPE RACE (AUT)","8401000","2019-01-15 22:30","2019","01","15","22:30","","M","","M","","M","0.0","","31","","36","","","","98.66","","","","","","NA"
"-53.08","46.66","CAPE RACE (AUT)","8401000","2019-01-15 23:30","2019","01","15","23:30","","M","","M","","M","0.2","","30","","44","","","","98.99","","","","","","NA"
"-53.08","46.66","CAPE RACE (AUT)","8401000","2019-01-16 00:30","2019","01","16","00:30","","M","","M","","M","0.0","","31","","51","","","","99.34","","","","","","NA"
"-53.08","46.66","CAPE RACE (AUT)","8401000","2019-01-16 01:30","2019","01","16","01:30","","M","","M","","M","0.0","","31","","50","","","","99.62","","","","","","NA"
"-53.08","46.66","CAPE RACE (AUT)","8401000","2019-01-16 02:30","2019","01","16","02:30","","M","","M","","M","0.0","","32","","53","","","","99.84","","","","","","NA"
"-53.08","46.66","CAPE RACE (AUT)","8401000","2019-01-16 03:30","2019","01","16","03:30","","M","","M","","M","0.0","","29","","36","","","","100.20","","","","","","NA"
"-53.08","46.66","CAPE RACE (AUT)","8401000","2019-01-16 04:30","2019","01","16","04:30","","M","","M","","M","0.0","","30","","38","","","","100.38","","","","","","NA"
"-53.08","46.66","CAPE RACE (AUT)","8401000","2019-01-16 05:30","2019","01","16","05:30","","M","","M","","M","0.0","","30","","32","","","","100.55","","","","","","NA"
"-53.08","46.66","CAPE RACE (AUT)","8401000","2019-01-16 06:30","2019","01","16","06:30","","M","","M","","M","0.0","","30","","39","","","","100.71","","","","","","NA"
"-53.08","46.66","CAPE RACE (AUT)","8401000","2019-01-16 07:30","2019","01","16","07:30","","M","","M","","M","0.0","","30","","27","","","","100.89","","","","","","NA"
"-53.08","46.66","CAPE RACE (AUT)","8401000","2019-01-16 08:30","2019","01","16","08:30","","M","","M","","M","0.0","","28","","21","","","","101.08","","","","","","NA"
"-53.08","46.66","CAPE RACE (AUT)","8401000","2019-01-16 09:30","2019","01","16","09:30","","M","","M","","M","0.0","","30","","21","","","","101.22","","","","","","NA"
"-53.08","46.66","CAPE RACE (AUT)","8401000","2019-01-16 10:30","2019","01","16","10:30","","M","","M","","M","0.0","","30","","19","","","","101.31","","","","","","NA"
"-53.08","46.66","CAPE RACE (AUT)","8401000","2019-01-16 11:30","2019","01","16","11:30","","M","","M","","M","0.0","","30","","20","","","","101.37","","","","","","NA"
"-53.08","46.66","CAPE RACE (AUT)","8401000","2019-01-16 12:30","2019","01","16","12:30","","M","","M","","M","0.0","","28","","14","","","","101.35","","","","","","NA"
"-53.08","46.66","CAPE RACE (AUT)","8401000","2019-01-16 13:30","2019","01","16","13:30","","M","","M","","M","0.0","","28","","20","","","","101.39","","","","","","NA"
"-53.08","46.66","CAPE RACE (AUT)","8401000","2019-01-16 14:30","2019","01","16","14:30","","M","","M","","M","0.0","","27","","12","","","","101.45","","","","","","NA"
"-53.08","46.66","CAPE RACE (AUT)","8401000","2019-01-16 15:30","2019","01","16","15:30","","M","","M","","M","0.0","","27","","10","","","","101.50","","","","","","NA"
"-53.08","46.66","CAPE RACE (AUT)","8401000","2019-01-16 16:30","2019","01","16","16:30","","M","","M","","M","0.0","","24","","7","","","","101.53","","","","","","NA"
"-53.08","46.66","CAPE RACE (AUT)","8401000","2019-01-16 17:30","2019","01","16","17:30","","M","","M","","M","0.0","","28","","3","","","","101.49","","","","","","NA"
"-53.08","46.66","CAPE RACE (AUT)","8401000","2019-01-16 18:30","2019","01","16","18:30","","M","","M","","M","0.0","","23","","5","","","","101.53","","","","","","NA"
"-53.08","46.66","CAPE RACE (AUT)","8401000","2019-01-16 19:30","2019","01","16","19:30","","M","","M","","M","0.0","","24","","16","","","","101.56","","","","","","NA"
"-53.08","46.66","CAPE RACE (AUT)","8401000","2019-01-16 20:30","2019","01","16","20:30","","M","","M","","M","0.0","","23","","19","","","","101.56","","","","","","NA"
"-53.08","46.66","CAPE RACE (AUT)","8401000","2019-01-16 21:30","2019","01","16","21:30","","M","","M","","M","0.0","","22","","20","","","","101.55","","","","","","NA"
"-53.08","46.66","CAPE RACE (AUT)","8401000","2019-01-16 22:30","2019","01","16","22:30","","M","","M","","M","0.0","","22","","27","","","","101.56","","","","","","NA"
"-53.08","46.66","CAPE RACE (AUT)","8401000","2019-01-16 23:30","2019","01","16","23:30","","M","","M","","M","0.0","","23","","17","","","","101.51","","","","","","NA"
"-53.08","46.66","CAPE RACE (AUT)","8401000","2019-01-17 00:30","2019","01","17","00:30","","M","","M","","M","0.0","","22","","23","","","","101.44","","","","","","NA"
"-53.08","46.66","CAPE RACE (AUT)","8401000","2019-01-17 01:30","2019","01","17","01:30","","M","","M","","M","0.0","","21","","26","","","","101.42","","","","","","NA"
"-53.08","46.66","CAPE RACE (AUT)","8401000","2019-01-17 02:30","2019","01","17","02:30","","M","","M","","M","0.0","","20","","19","","","","101.39","","","","","","NA"
"-53.08","46.66","CAPE RACE (AUT)","8401000","2019-01-17 03:30","2019","01","17","03:30","","M","","M","","M","0.0","","20","","24","","","","101.33","","","","","","NA"
"-53.08","46.66","CAPE RACE (AUT)","8401000","2019-01-17 04:30","2019","01","17","04:30","","M","","M","","M","0.0","","20","","23","","","","101.29","","","","","","NA"
"-53.08","46.66","CAPE RACE (AUT)","8401000","2019-01-17 05:30","2019","01","17","05:30","","M","","M","","M","0.0","","18","","31","","","","101.18","","","","","","NA"
"-53.08","46.66","CAPE RACE (AUT)","8401000","2019-01-17 06:30","2019","01","17","06:30","","M","","M","","M","0.0","","18","","26","","","","101.11","","","","","","NA"
"-53.08","46.66","CAPE RACE (AUT)","8401000","2019-01-17 07:30","2019","01","17","07:30","","M","","M","","M","0.0","","17","","19","","","","101.04","","","","","","NA"
"-53.08","46.66","CAPE RACE (AUT)","8401000","2019-01-17 08:30","2019","01","17","08:30","","M","","M","","M","0.0","","16","","20","","","","100.93","","","","","","NA"
"-53.08","46.66","CAPE RACE (AUT)","8401000","2019-01-17 09:30","2019","01","17","09:30","","M","","M","","M","0.0","","17","","33","","","","100.89","","","","","","NA"
"-53.08","46.66","CAPE RACE (AUT)","8401000","2019-01-17 10:30","2019","01","17","10:30","","M","","M","","M","0.0","","18","","45","","","","100.82","","","","","","NA"
"-53.08","46.66","CAPE RACE (AUT)","8401000","2019-01-17 11:30","2019","01","17","11:30","","M","","M","","M","0.0","","19","","46","","","","100.72","","","","","","NA"
"-53.08","46.66","CAPE RACE (AUT)","8401000","2019-01-17 12:30","2019","01","17","12:30","","M","","M","","M","0.0","","20","","42","","","","100.67","","","","","","NA"
"-53.08","46.66","CAPE RACE (AUT)","8401000","2019-01-17 13:30","2019","01","17","13:30","","M","","M","","M","0.0","","23","","36","","","","100.68","","","","","","NA"
"-53.08","46.66","CAPE RACE (AUT)","8401000","2019-01-17 14:30","2019","01","17","14:30","","M","","M","","M","0.0","","26","","40","","","","100.77","","","","","","NA"
"-53.08","46.66","CAPE RACE (AUT)","8401000","2019-01-17 15:30","2019","01","17","15:30","","M","","M","","M","0.0","","27","","40","","","","100.88","","","","","","NA"
"-53.08","46.66","CAPE RACE (AUT)","8401000","2019-01-17 16:30","2019","01","17","16:30","","M","","M","","M","0.0","","27","","43","","","","100.96","","","","","","NA"
"-53.08","46.66","CAPE RACE (AUT)","8401000","2019-01-17 17:30","2019","01","17","17:30","","M","","M","","M","0.0","","27","","37","","","","101.06","","","","","","NA"
"-53.08","46.66","CAPE RACE (AUT)","8401000","2019-01-17 18:30","2019","01","17","18:30","","M","","M","","M","0.0","","27","","43","","","","101.15","","","","","","NA"
"-53.08","46.66","CAPE RACE (AUT)","8401000","2019-01-17 19:30","2019","01","17","19:30","","M","","M","","M","0.0","","28","","41","","","","101.27","","","","","","NA"
"-53.08","46.66","CAPE RACE (AUT)","8401000","2019-01-17 20:30","2019","01","17","20:30","","M","","M","","M","0.0","","28","","36","","","","101.34","","","","","","NA"
"-53.08","46.66","CAPE RACE (AUT)","8401000","2019-01-17 21:30","2019","01","17","21:30","","M","","M","","M","0.0","","28","","38","","","","101.48","","","","","","NA"
"-53.08","46.66","CAPE RACE (AUT)","8401000","2019-01-17 22:30","2019","01","17","22:30","","M","","M","","M","0.0","","29","","40","","","","101.56","","","","","","NA"
"-53.08","46.66","CAPE RACE (AUT)","8401000","2019-01-17 23:30","2019","01","17","23:30","","M","","M","","M","0.0","","28","","40","","","","101.65","","","","","","NA"
"-53.08","46.66","CAPE RACE (AUT)","8401000","2019-01-18 00:30","2019","01","18","00:30","","M","","M","","M","0.0","","28","","40","","","","101.70","","","","","","NA"
"-53.08","46.66","CAPE RACE (AUT)","8401000","2019-01-18 01:30","2019","01","18","01:30","","M","","M","","M","0.0","","30","","31","","","","101.77","","","","","","NA"
"-53.08","46.66","CAPE RACE (AUT)","8401000","2019-01-18 02:30","2019","01","18","02:30","","M","","M","","M","0.0","","29","","32","","","","101.91","","","","","","NA"
"-53.08","46.66","CAPE RACE (AUT)","8401000","2019-01-18 03:30","2019","01","18","03:30","","M","","M","","M","0.0","","29","","31","","","","102.01","","","","","","NA"
"-53.08","46.66","CAPE RACE (AUT)","8401000","2019-01-18 04:30","2019","01","18","04:30","","M","","M","","M","0.0","","30","","27","","","","102.10","","","","","","NA"
"-53.08","46.66","CAPE RACE (AUT)","8401000","2019-01-18 05:30","2019","01","18","05:30","","M","","M","","M","0.0","","31","","22","","","","102.19","","","","","","NA"
"-53.08","46.66","CAPE RACE (AUT)","8401000","2019-01-18 06:30","2019","01","18","06:30","","M","","M","","M","0.0","","32","","16","","","","102.30","","","","","","NA"
"-53.08","46.66","CAPE RACE (AUT)","8401000","2019-01-18 07:30","2019","01","18","07:30","","M","","M","","M","0.0","","31","","15","","","","102.40","","","","","","NA"
"-53.08","46.66","CAPE RACE (AUT)","8401000","2019-01-18 08:30","2019","01","18","08:30","","M","","M","","M","0.0","","31","","14","","","","102.52","","","","","","NA"
"-53.08","46.66","CAPE RACE (AUT)","8401000","2019-01-18 09:30","2019","01","18","09:30","","M","","M","","M","0.0","","31","","14","","","","102.64","","","","","","NA"
"-53.08","46.66","CAPE RACE (AUT)","8401000","2019-01-18 10:30","2019","01","18","10:30","","M","","M","","M","0.0","","32","","15","","","","102.68","","","","","","NA"
"-53.08","46.66","CAPE RACE (AUT)","8401000","2019-01-18 11:30","2019","01","18","11:30","","M","","M","","M","0.0","","30","","12","","","","102.66","","","","","","NA"
"-53.08","46.66","CAPE RACE (AUT)","8401000","2019-01-18 12:30","2019","01","18","12:30","","M","","M","","M","0.0","","27","","11","","","","102.63","","","","","","NA"
"-53.08","46.66","CAPE RACE (AUT)","8401000","2019-01-18 13:30","2019","01","18","13:30","","M","","M","","M","0.0","","26","","8","","","","102.59","","","","","","NA"
"-53.08","46.66","CAPE RACE (AUT)","8401000","2019-01-18 14:30","2019","01","18","14:30","","M","","M","","M","0.0","","22","","6","","","","102.59","","","","","","NA"
"-53.08","46.66","CAPE RACE (AUT)","8401000","2019-01-18 15:30","2019","01","18","15:30","","M","","M","","M","0.0","","18","","8","","","","102.60","","","","","","NA"
"-53.08","46.66","CAPE RACE (AUT)","8401000","2019-01-18 16:30","2019","01","18","16:30","","M","","M","","M","0.0","","18","","11","","","","102.63","","","","","","NA"
"-53.08","46.66","CAPE RACE (AUT)","8401000","2019-01-18 17:30","2019","01","18","17:30","","M","","M","","M","0.0","","17","","13","","","","102.63","","","","","","NA"
"-53.08","46.66","CAPE RACE (AUT)","8401000","2019-01-18 18:30","2019","01","18","18:30","","M","","M","","M","0.0","","17","","15","","","","102.62","","","","","","NA"
"-53.08","46.66","CAPE RACE (AUT)","8401000","2019-01-18 19:30","2019","01","18","19:30","","M","","M","","M","0.0","","19","","16","","","","102.63","","","","","","NA"
"-53.08","46.66","CAPE RACE (AUT)","8401000","2019-01-18 20:30","2019","01","18","20:30","","M","","M","","M","0.0","","18","","23","","","","102.60","","","","","","NA"
"-53.08","46.66","CAPE RACE (AUT)","8401000","2019-01-18 21:30","2019","01","18","21:30","","M","","M","","M","0.0","","17","","22","","","","102.52","","","","","","NA"
"-53.08","46.66","CAPE RACE (AUT)","8401000","2019-01-18 22:30","2019","01","18","22:30","","M","","M","","M","0.0","","17","","22","","","","102.47","","","","","","NA"
"-53.08","46.66","CAPE RACE (AUT)","8401000","2019-01-18 23:30","2019","01","18","23:30","","M","","M","","M","0.0","","16","","23","","","","102.34","","","","","","NA"
"-53.08","46.66","CAPE RACE (AUT)","8401000","2019-01-19 00:30","2019","01","19","00:30","","M","","M","","M","0.0","","16","","21","","","","102.19","","","","","","NA"
"-53.08","46.66","CAPE RACE (AUT)","8401000","2019-01-19 01:30","2019","01","19","01:30","","M","","M","","M","0.0","","16","","23","","","","102.10","","","","","","NA"
"-53.08","46.66","CAPE RACE (AUT)","8401000","2019-01-19 02:30","2019","01","19","02:30","","M","","M","","M","0.0","","16","","24","","","","102.01","","","","","","NA"
"-53.08","46.66","CAPE RACE (AUT)","8401000","2019-01-19 03:30","2019","01","19","03:30","","M","","M","","M","0.0","","16","","23","","","","101.95","","","","","","NA"
"-53.08","46.66","CAPE RACE (AUT)","8401000","2019-01-19 04:30","2019","01","19","04:30","","M","","M","","M","0.6","","15","","23","","","","101.77","","","","","","NA"
"-53.08","46.66","CAPE RACE (AUT)","8401000","2019-01-19 05:30","2019","01","19","05:30","","M","","M","","M","1.0","","14","","28","","","","101.59","","","","","","NA"
"-53.08","46.66","CAPE RACE (AUT)","8401000","2019-01-19 06:30","2019","01","19","06:30","","M","","M","","M","0.5","","14","","29","","","","101.46","","","","","","NA"
"-53.08","46.66","CAPE RACE (AUT)","8401000","2019-01-19 07:30","2019","01","19","07:30","","M","","M","","M","0.5","","13","","36","","","","101.13","","","","","","NA"
"-53.08","46.66","CAPE RACE (AUT)","8401000","2019-01-19 08:30","2019","01","19","08:30","","M","","M","","M","2.8","","12","","36","","","","101.03","","","","","","NA"
"-53.08","46.66","CAPE RACE (AUT)","8401000","2019-01-19 09:30","2019","01","19","09:30","","M","","M","","M","2.8","","8","","20","","","","100.95","","","","","","NA"
"-53.08","46.66","CAPE RACE (AUT)","8401000","2019-01-19 10:30","2019","01","19","10:30","","M","","M","","M","0.5","","7","","16","","","","100.72","","","","","","NA"
"-53.08","46.66","CAPE RACE (AUT)","8401000","2019-01-19 11:30","2019","01","19","11:30","","M","","M","","M","0.5","","3","","10","","","","100.61","","","","","","NA"
"-53.08","46.66","CAPE RACE (AUT)","8401000","2019-01-19 12:30","2019","01","19","12:30","","M","","M","","M","1.9","","4","","9","","","","100.47","","","","","","NA"
"-53.08","46.66","CAPE RACE (AUT)","8401000","2019-01-19 13:30","2019","01","19","13:30","","M","","M","","M","0.0","","31","","11","","","","100.53","","","","","","NA"
"-53.08","46.66","CAPE RACE (AUT)","8401000","2019-01-19 14:30","2019","01","19","14:30","","M","","M","","M","0.0","","29","","39","","","","100.63","","","","","","NA"
"-53.08","46.66","CAPE RACE (AUT)","8401000","2019-01-19 15:30","2019","01","19","15:30","","M","","M","","M","0.0","","30","","49","","","","100.79","","","","","","NA"
"-53.08","46.66","CAPE RACE (AUT)","8401000","2019-01-19 16:30","2019","01","19","16:30","","M","","M","","M","0.0","","29","","31","","","","101.02","","","","","","NA"
"-53.08","46.66","CAPE RACE (AUT)","8401000","2019-01-19 17:30","2019","01","19","17:30","","M","","M","","M","0.0","","28","","36","","","","101.23","","","","","","NA"
"-53.08","46.66","CAPE RACE (AUT)","8401000","2019-01-19 18:30","2019","01","19","18:30","","M","","M","","M","0.0","","28","","37","","","","101.36","","","","","","NA"
"-53.08","46.66","CAPE RACE (AUT)","8401000","2019-01-19 19:30","2019","01","19","19:30","","M","","M","","M","0.0","","28","","22","","","","101.56","","","","","","NA"
"-53.08","46.66","CAPE RACE (AUT)","8401000","2019-01-19 20:30","2019","01","19","20:30","","M","","M","","M","0.0","","30","","13","","","","101.69","","","","","","NA"
"-53.08","46.66","CAPE RACE (AUT)","8401000","2019-01-19 21:30","2019","01","19","21:30","","M","","M","","M","0.0","","30","","19","","","","101.82","","","","","","NA"
"-53.08","46.66","CAPE RACE (AUT)","8401000","2019-01-19 22:30","2019","01","19","22:30","","M","","M","","M","0.0","","31","","19","","","","101.98","","","","","","NA"
"-53.08","46.66","CAPE RACE (AUT)","8401000","2019-01-19 23:30","2019","01","19","23:30","","M","","M","","M","0.0","","32","","16","","","","102.13","","","","","","NA"
"-53.08","46.66","CAPE RACE (AUT)","8401000","2019-01-20 00:30","2019","01","20","00:30","","M","","M","","M","0.0","","32","","20","","","","102.19","","","","","","NA"
"-53.08","46.66","CAPE RACE (AUT)","8401000","2019-01-20 01:30","2019","01","20","01:30","","M","","M","","M","0.0","","31","","20","","","","102.27","","","","","","NA"
"-53.08","46.66","CAPE RACE (AUT)","8401000","2019-01-20 02:30","2019","01","20","02:30","","M","","M","","M","0.0","","30","","16","","","","102.33","","","","","","NA"
"-53.08","46.66","CAPE RACE (AUT)","8401000","2019-01-20 03:30","2019","01","20","03:30","","M","","M","","M","0.0","","35","","9","","","","102.41","","","","","","NA"
"-53.08","46.66","CAPE RACE (AUT)","8401000","2019-01-20 04:30","2019","01","20","04:30","","M","","M","","M","0.0","","32","","10","","","","102.51","","","","","","NA"
"-53.08","46.66","CAPE RACE (AUT)","8401000","2019-01-20 05:30","2019","01","20","05:30","","M","","M","","M","0.0","","34","","7","","","","102.56","","","","","","NA"
"-53.08","46.66","CAPE RACE (AUT)","8401000","2019-01-20 06:30","2019","01","20","06:30","","M","","M","","M","0.0","","1","","10","","","","102.64","","","","","","NA"
"-53.08","46.66","CAPE RACE (AUT)","8401000","2019-01-20 07:30","2019","01","20","07:30","","M","","M","","M","0.0","","1","","11","","","","102.76","","","","","","NA"
"-53.08","46.66","CAPE RACE (AUT)","8401000","2019-01-20 08:30","2019","01","20","08:30","","M","","M","","M","0.0","","2","","15","","","","102.80","","","","","","NA"
"-53.08","46.66","CAPE RACE (AUT)","8401000","2019-01-20 09:30","2019","01","20","09:30","","M","","M","","M","0.0","","3","","16","","","","102.88","","","","","","NA"
"-53.08","46.66","CAPE RACE (AUT)","8401000","2019-01-20 10:30","2019","01","20","10:30","","M","","M","","M","0.0","","5","","16","","","","102.96","","","","","","NA"
"-53.08","46.66","CAPE RACE (AUT)","8401000","2019-01-20 11:30","2019","01","20","11:30","","M","","M","","M","0.0","","5","","15","","","","102.87","","","","","","NA"
"-53.08","46.66","CAPE RACE (AUT)","8401000","2019-01-20 12:30","2019","01","20","12:30","","M","","M","","M","0.0","","8","","15","","","","102.92","","","","","","NA"
"-53.08","46.66","CAPE RACE (AUT)","8401000","2019-01-20 13:30","2019","01","20","13:30","","M","","M","","M","0.0","","8","","14","","","","102.90","","","","","","NA"
"-53.08","46.66","CAPE RACE (AUT)","8401000","2019-01-20 14:30","2019","01","20","14:30","","M","","M","","M","0.0","","9","","21","","","","102.83","","","","","","NA"
"-53.08","46.66","CAPE RACE (AUT)","8401000","2019-01-20 15:30","2019","01","20","15:30","","M","","M","","M","0.0","","10","","28","","","","102.77","","","","","","NA"
"-53.08","46.66","CAPE RACE (AUT)","8401000","2019-01-20 16:30","2019","01","20","16:30","","M","","M","","M","0.0","","12","","25","","","","102.78","","","","","","NA"
"-53.08","46.66","CAPE RACE (AUT)","8401000","2019-01-20 17:30","2019","01","20","17:30","","M","","M","","M","0.0","","13","","27","","","","102.78","","","","","","NA"
"-53.08","46.66","CAPE RACE (AUT)","8401000","2019-01-20 18:30","2019","01","20","18:30","","M","","M","","M","0.0","","14","","28","","","","102.67","","","","","","NA"
"-53.08","46.66","CAPE RACE (AUT)","8401000","2019-01-20 19:30","2019","01","20","19:30","","M","","M","","M","0.0","","13","","34","","","","102.55","","","","","","NA"
"-53.08","46.66","CAPE RACE (AUT)","8401000","2019-01-20 20:30","2019","01","20","20:30","","M","","M","","M","0.0","","14","","29","","","","102.50","","","","","","NA"
"-53.08","46.66","CAPE RACE (AUT)","8401000","2019-01-20 21:30","2019","01","20","21:30","","M","","M","","M","0.0","","15","","32","","","","102.37","","","","","","NA"
"-53.08","46.66","CAPE RACE (AUT)","8401000","2019-01-20 22:30","2019","01","20","22:30","","M","","M","","M","0.0","","15","","28","","","","102.25","","","","","","NA"
"-53.08","46.66","CAPE RACE (AUT)","8401000","2019-01-20 23:30","2019","01","20","23:30","","M","","M","","M","0.0","","16","","23","","","","102.13","","","","","","NA"
"-53.08","46.66","CAPE RACE (AUT)","8401000","2019-01-21 00:30","2019","01","21","00:30","","M","","M","","M","0.0","","16","","22","","","","101.97","","","","","","NA"
"-53.08","46.66","CAPE RACE (AUT)","8401000","2019-01-21 01:30","2019","01","21","01:30","","M","","M","","M","0.0","","17","","22","","","","101.76","","","","","","NA"
"-53.08","46.66","CAPE RACE (AUT)","8401000","2019-01-21 02:30","2019","01","21","02:30","","M","","M","","M","0.0","","16","","23","","","","101.61","","","","","","NA"
"-53.08","46.66","CAPE RACE (AUT)","8401000","2019-01-21 03:30","2019","01","21","03:30","","M","","M","","M","0.0","","16","","26","","","","101.37","","","","","","NA"
"-53.08","46.66","CAPE RACE (AUT)","8401000","2019-01-21 04:30","2019","01","21","04:30","","M","","M","","M","0.0","","17","","38","","","","101.17","","","","","","NA"
"-53.08","46.66","CAPE RACE (AUT)","8401000","2019-01-21 05:30","2019","01","21","05:30","","M","","M","","M","0.0","","17","","52","","","","100.99","","","","","","NA"
"-53.08","46.66","CAPE RACE (AUT)","8401000","2019-01-21 06:30","2019","01","21","06:30","","M","","M","","M","0.0","","18","","52","","","","100.86","","","","","","NA"
"-53.08","46.66","CAPE RACE (AUT)","8401000","2019-01-21 07:30","2019","01","21","07:30","","M","","M","","M","0.0","","18","","52","","","","100.75","","","","","","NA"
"-53.08","46.66","CAPE RACE (AUT)","8401000","2019-01-21 08:30","2019","01","21","08:30","","M","","M","","M","0.0","","18","","52","","","","100.66","","","","","","NA"
"-53.08","46.66","CAPE RACE (AUT)","8401000","2019-01-21 09:30","2019","01","21","09:30","","M","","M","","M","0.0","","19","","54","","","","100.57","","","","","","NA"
"-53.08","46.66","CAPE RACE (AUT)","8401000","2019-01-21 10:30","2019","01","21","10:30","","M","","M","","M","0.0","","19","","58","","","","100.55","","","","","","NA"
"-53.08","46.66","CAPE RACE (AUT)","8401000","2019-01-21 11:30","2019","01","21","11:30","","M","","M","","M","0.0","","19","","61","","","","100.46","","","","","","NA"
"-53.08","46.66","CAPE RACE (AUT)","8401000","2019-01-21 12:30","2019","01","21","12:30","","M","","M","","M","0.2","","19","","68","","","","100.29","","","","","","NA"
"-53.08","46.66","CAPE RACE (AUT)","8401000","2019-01-21 13:30","2019","01","21","13:30","","M","","M","","M","0.0","","19","","61","","","","100.19","","","","","","NA"
"-53.08","46.66","CAPE RACE (AUT)","8401000","2019-01-21 14:30","2019","01","21","14:30","","M","","M","","M","0.0","","19","","61","","","","100.11","","","","","","NA"
"-53.08","46.66","CAPE RACE (AUT)","8401000","2019-01-21 15:30","2019","01","21","15:30","","M","","M","","M","0.0","","19","","58","","","","100.03","","","","","","NA"
"-53.08","46.66","CAPE RACE (AUT)","8401000","2019-01-21 16:30","2019","01","21","16:30","","M","","M","","M","0.0","","19","","59","","","","99.98","","","","","","NA"
"-53.08","46.66","CAPE RACE (AUT)","8401000","2019-01-21 17:30","2019","01","21","17:30","","M","","M","","M","0.0","","19","","62","","","","99.89","","","","","","NA"
"-53.08","46.66","CAPE RACE (AUT)","8401000","2019-01-21 18:30","2019","01","21","18:30","","M","","M","","M","0.0","","18","","58","","","","99.82","","","","","","NA"
"-53.08","46.66","CAPE RACE (AUT)","8401000","2019-01-21 19:30","2019","01","21","19:30","","M","","M","","M","0.3","","18","","57","","","","99.71","","","","","","NA"
"-53.08","46.66","CAPE RACE (AUT)","8401000","2019-01-21 20:30","2019","01","21","20:30","","M","","M","","M","1.5","","18","","56","","","","99.58","","","","","","NA"
"-53.08","46.66","CAPE RACE (AUT)","8401000","2019-01-21 21:30","2019","01","21","21:30","","M","","M","","M","0.0","","18","","57","","","","99.49","","","","","","NA"
"-53.08","46.66","CAPE RACE (AUT)","8401000","2019-01-21 22:30","2019","01","21","22:30","","M","","M","","M","0.3","","20","","39","","","","99.59","","","","","","NA"
"-53.08","46.66","CAPE RACE (AUT)","8401000","2019-01-21 23:30","2019","01","21","23:30","","M","","M","","M","0.0","","27","","39","","","","99.70","","","","","","NA"
"-53.08","46.66","CAPE RACE (AUT)","8401000","2019-01-22 00:30","2019","01","22","00:30","","M","","M","","M","0.5","","27","","23","","","","99.69","","","","","","NA"
"-53.08","46.66","CAPE RACE (AUT)","8401000","2019-01-22 01:30","2019","01","22","01:30","","M","","M","","M","0.0","","25","","12","","","","99.68","","","","","","NA"
"-53.08","46.66","CAPE RACE (AUT)","8401000","2019-01-22 02:30","2019","01","22","02:30","","M","","M","","M","0.0","","20","","11","","","","99.68","","","","","","NA"
"-53.08","46.66","CAPE RACE (AUT)","8401000","2019-01-22 03:30","2019","01","22","03:30","","M","","M","","M","0.2","","24","","21","","","","99.67","","","","","","NA"
"-53.08","46.66","CAPE RACE (AUT)","8401000","2019-01-22 04:30","2019","01","22","04:30","","M","","M","","M","0.0","","26","","23","","","","99.68","","","","","","NA"
"-53.08","46.66","CAPE RACE (AUT)","8401000","2019-01-22 05:30","2019","01","22","05:30","","M","","M","","M","0.0","","27","","34","","","","99.66","","","","","","NA"
"-53.08","46.66","CAPE RACE (AUT)","8401000","2019-01-22 06:30","2019","01","22","06:30","","M","","M","","M","0.0","","28","","30","","","","99.60","","","","","","NA"
"-53.08","46.66","CAPE RACE (AUT)","8401000","2019-01-22 07:30","2019","01","22","07:30","","M","","M","","M","0.0","","28","","26","","","","99.61","","","","","","NA"
"-53.08","46.66","CAPE RACE (AUT)","8401000","2019-01-22 08:30","2019","01","22","08:30","","M","","M","","M","0.2","","29","","25","","","","99.72","","","","","","NA"
"-53.08","46.66","CAPE RACE (AUT)","8401000","2019-01-22 09:30","2019","01","22","09:30","","M","","M","","M","0.3","","31","","30","","","","99.72","","","","","","NA"
"-53.08","46.66","CAPE RACE (AUT)","8401000","2019-01-22 10:30","2019","01","22","10:30","","M","","M","","M","0.2","","29","","32","","","","99.83","","","","","","NA"
"-53.08","46.66","CAPE RACE (AUT)","8401000","2019-01-22 11:30","2019","01","22","11:30","","M","","M","","M","0.4","","29","","25","","","","99.92","","","","","","NA"
"-53.08","46.66","CAPE RACE (AUT)","8401000","2019-01-22 12:30","2019","01","22","12:30","","M","","M","","M","0.0","","32","","21","","","","99.92","","","","","","NA"
"-53.08","46.66","CAPE RACE (AUT)","8401000","2019-01-22 13:30","2019","01","22","13:30","","M","","M","","M","0.0","","30","","18","","","","99.90","","","","","","NA"
"-53.08","46.66","CAPE RACE (AUT)","8401000","2019-01-22 14:30","2019","01","22","14:30","","M","","M","","M","0.0","","28","","20","","","","99.98","","","","","","NA"
"-53.08","46.66","CAPE RACE (AUT)","8401000","2019-01-22 15:30","2019","01","22","15:30","","M","","M","","M","0.0","","27","","17","","","","100.03","","","","","","NA"
"-53.08","46.66","CAPE RACE (AUT)","8401000","2019-01-22 16:30","2019","01","22","16:30","","M","","M","","M","0.0","","25","","18","","","","100.06","","","","","","NA"
"-53.08","46.66","CAPE RACE (AUT)","8401000","2019-01-22 17:30","2019","01","22","17:30","","M","","M","","M","0.0","","25","","9","","","","100.05","","","","","","NA"
"-53.08","46.66","CAPE RACE (AUT)","8401000","2019-01-22 18:30","2019","01","22","18:30","","M","","M","","M","0.0","","23","","15","","","","100.16","","","","","","NA"
"-53.08","46.66","CAPE RACE (AUT)","8401000","2019-01-22 19:30","2019","01","22","19:30","","M","","M","","M","0.0","","26","","22","","","","100.18","","","","","","NA"
"-53.08","46.66","CAPE RACE (AUT)","8401000","2019-01-22 20:30","2019","01","22","20:30","","M","","M","","M","0.0","","24","","16","","","","100.21","","","","","","NA"
"-53.08","46.66","CAPE RACE (AUT)","8401000","2019-01-22 21:30","2019","01","22","21:30","","M","","M","","M","0.0","","28","","37","","","","100.25","","","","","","NA"
"-53.08","46.66","CAPE RACE (AUT)","8401000","2019-01-22 22:30","2019","01","22","22:30","","M","","M","","M","0.0","","26","","27","","","","100.28","","","","","","NA"
"-53.08","46.66","CAPE RACE (AUT)","8401000","2019-01-22 23:30","2019","01","22","23:30","","M","","M","","M","0.0","","26","","24","","","","100.30","","","","","","NA"
"-53.08","46.66","CAPE RACE (AUT)","8401000","2019-01-23 00:30","2019","01","23","00:30","","M","","M","","M","0.3","","25","","31","","","","100.35","","","","","","NA"
"-53.08","46.66","CAPE RACE (AUT)","8401000","2019-01-23 01:30","2019","01","23","01:30","","M","","M","","M","0.0","","27","","33","","","","100.36","","","","","","NA"
"-53.08","46.66","CAPE RACE (AUT)","8401000","2019-01-23 02:30","2019","01","23","02:30","","M","","M","","M","0.0","","28","","19","","","","100.39","","","","","","NA"
"-53.08","46.66","CAPE RACE (AUT)","8401000","2019-01-23 03:30","2019","01","23","03:30","","M","","M","","M","0.0","","29","","23","","","","100.44","","","","","","NA"
"-53.08","46.66","CAPE RACE (AUT)","8401000","2019-01-23 04:30","2019","01","23","04:30","","M","","M","","M","0.0","","30","","35","","","","100.54","","","","","","NA"
"-53.08","46.66","CAPE RACE (AUT)","8401000","2019-01-23 05:30","2019","01","23","05:30","","M","","M","","M","0.0","","30","","21","","","","100.65","","","","","","NA"
"-53.08","46.66","CAPE RACE (AUT)","8401000","2019-01-23 06:30","2019","01","23","06:30","","M","","M","","M","0.0","","30","","13","","","","100.75","","","","","","NA"
"-53.08","46.66","CAPE RACE (AUT)","8401000","2019-01-23 07:30","2019","01","23","07:30","","M","","M","","M","0.0","","29","","22","","","","100.88","","","","","","NA"
"-53.08","46.66","CAPE RACE (AUT)","8401000","2019-01-23 08:30","2019","01","23","08:30","","M","","M","","M","0.0","","29","","21","","","","100.99","","","","","","NA"
"-53.08","46.66","CAPE RACE (AUT)","8401000","2019-01-23 09:30","2019","01","23","09:30","","M","","M","","M","0.0","","31","","29","","","","101.11","","","","","","NA"
"-53.08","46.66","CAPE RACE (AUT)","8401000","2019-01-23 10:30","2019","01","23","10:30","","M","","M","","M","0.0","","31","","36","","","","101.22","","","","","","NA"
"-53.08","46.66","CAPE RACE (AUT)","8401000","2019-01-23 11:30","2019","01","23","11:30","","M","","M","","M","0.0","","32","","39","","","","101.28","","","","","","NA"
"-53.08","46.66","CAPE RACE (AUT)","8401000","2019-01-23 12:30","2019","01","23","12:30","","M","","M","","M","0.0","","33","","34","","","","101.30","","","","","","NA"
"-53.08","46.66","CAPE RACE (AUT)","8401000","2019-01-23 13:30","2019","01","23","13:30","","M","","M","","M","0.0","","33","","29","","","","101.38","","","","","","NA"
"-53.08","46.66","CAPE RACE (AUT)","8401000","2019-01-23 14:30","2019","01","23","14:30","","M","","M","","M","0.0","","33","","38","","","","101.47","","","","","","NA"
"-53.08","46.66","CAPE RACE (AUT)","8401000","2019-01-23 15:30","2019","01","23","15:30","","M","","M","","M","0.0","","34","","25","","","","101.58","","","","","","NA"
"-53.08","46.66","CAPE RACE (AUT)","8401000","2019-01-23 16:30","2019","01","23","16:30","","M","","M","","M","0.0","","32","","19","","","","101.74","","","","","","NA"
"-53.08","46.66","CAPE RACE (AUT)","8401000","2019-01-23 17:30","2019","01","23","17:30","","M","","M","","M","0.0","","29","","15","","","","101.92","","","","","","NA"
"-53.08","46.66","CAPE RACE (AUT)","8401000","2019-01-23 18:30","2019","01","23","18:30","","M","","M","","M","0.0","","31","","21","","","","101.99","","","","","","NA"
"-53.08","46.66","CAPE RACE (AUT)","8401000","2019-01-23 19:30","2019","01","23","19:30","","M","","M","","M","0.0","","31","","13","","","","102.04","","","","","","NA"
"-53.08","46.66","CAPE RACE (AUT)","8401000","2019-01-23 20:30","2019","01","23","20:30","","M","","M","","M","0.0","","30","","21","","","","102.10","","","","","","NA"
"-53.08","46.66","CAPE RACE (AUT)","8401000","2019-01-23 21:30","2019","01","23","21:30","","M","","M","","M","0.0","","30","","17","","","","102.13","","","","","","NA"
"-53.08","46.66","CAPE RACE (AUT)","8401000","2019-01-23 22:30","2019","01","23","22:30","","M","","M","","M","0.0","","27","","12","","","","102.13","","","","","","NA"
"-53.08","46.66","CAPE RACE (AUT)","8401000","2019-01-23 23:30","2019","01","23","23:30","","M","","M","","M","0.0","","28","","12","","","","102.13","","","","","","NA"
"-53.08","46.66","CAPE RACE (AUT)","8401000","2019-01-24 00:30","2019","01","24","00:30","","M","","M","","M","0.0","","28","","14","","","","102.14","","","","","","NA"
"-53.08","46.66","CAPE RACE (AUT)","8401000","2019-01-24 01:30","2019","01","24","01:30","","M","","M","","M","0.0","","30","","16","","","","102.13","","","","","","NA"
"-53.08","46.66","CAPE RACE (AUT)","8401000","2019-01-24 02:30","2019","01","24","02:30","","M","","M","","M","0.0","","29","","14","","","","102.08","","","","","","NA"
"-53.08","46.66","CAPE RACE (AUT)","8401000","2019-01-24 03:30","2019","01","24","03:30","","M","","M","","M","0.0","","26","","17","","","","102.10","","","","","","NA"
"-53.08","46.66","CAPE RACE (AUT)","8401000","2019-01-24 04:30","2019","01","24","04:30","","M","","M","","M","0.0","","24","","20","","","","102.07","","","","","","NA"
"-53.08","46.66","CAPE RACE (AUT)","8401000","2019-01-24 05:30","2019","01","24","05:30","","M","","M","","M","0.0","","27","","18","","","","102.03","","","","","","NA"
"-53.08","46.66","CAPE RACE (AUT)","8401000","2019-01-24 06:30","2019","01","24","06:30","","M","","M","","M","0.0","","26","","10","","","","102.09","","","","","","NA"
"-53.08","46.66","CAPE RACE (AUT)","8401000","2019-01-24 07:30","2019","01","24","07:30","","M","","M","","M","0.0","","25","","10","","","","102.05","","","","","","NA"
"-53.08","46.66","CAPE RACE (AUT)","8401000","2019-01-24 08:30","2019","01","24","08:30","","M","","M","","M","0.3","","23","","13","","","","102.04","","","","","","NA"
"-53.08","46.66","CAPE RACE (AUT)","8401000","2019-01-24 09:30","2019","01","24","09:30","","M","","M","","M","0.3","","22","","12","","","","102.00","","","","","","NA"
"-53.08","46.66","CAPE RACE (AUT)","8401000","2019-01-24 10:30","2019","01","24","10:30","","M","","M","","M","0.3","","19","","15","","","","102.01","","","","","","NA"
"-53.08","46.66","CAPE RACE (AUT)","8401000","2019-01-24 11:30","2019","01","24","11:30","","M","","M","","M","0.2","","18","","19","","","","101.92","","","","","","NA"
"-53.08","46.66","CAPE RACE (AUT)","8401000","2019-01-24 12:30","2019","01","24","12:30","","M","","M","","M","0.2","","17","","14","","","","101.79","","","","","","NA"
"-53.08","46.66","CAPE RACE (AUT)","8401000","2019-01-24 13:30","2019","01","24","13:30","","M","","M","","M","0.3","","16","","17","","","","101.65","","","","","","NA"
"-53.08","46.66","CAPE RACE (AUT)","8401000","2019-01-24 14:30","2019","01","24","14:30","","M","","M","","M","0.2","","16","","21","","","","101.55","","","","","","NA"
"-53.08","46.66","CAPE RACE (AUT)","8401000","2019-01-24 15:30","2019","01","24","15:30","","M","","M","","M","0.3","","16","","21","","","","101.50","","","","","","NA"
"-53.08","46.66","CAPE RACE (AUT)","8401000","2019-01-24 16:30","2019","01","24","16:30","","M","","M","","M","0.3","","16","","18","","","","101.42","","","","","","NA"
"-53.08","46.66","CAPE RACE (AUT)","8401000","2019-01-24 17:30","2019","01","24","17:30","","M","","M","","M","0.3","","16","","14","","","","101.36","","","","","","NA"
"-53.08","46.66","CAPE RACE (AUT)","8401000","2019-01-24 18:30","2019","01","24","18:30","","M","","M","","M","0.5","","16","","5","","","","101.30","","","","","","NA"
"-53.08","46.66","CAPE RACE (AUT)","8401000","2019-01-24 19:30","2019","01","24","19:30","","M","","M","","M","1.0","","21","","10","","","","101.27","","","","","","NA"
"-53.08","46.66","CAPE RACE (AUT)","8401000","2019-01-24 20:30","2019","01","24","20:30","","M","","M","","M","0.0","","23","","17","","","","101.21","","","","","","NA"
"-53.08","46.66","CAPE RACE (AUT)","8401000","2019-01-24 21:30","2019","01","24","21:30","","M","","M","","M","0.2","","24","","19","","","","101.22","","","","","","NA"
"-53.08","46.66","CAPE RACE (AUT)","8401000","2019-01-24 22:30","2019","01","24","22:30","","M","","M","","M","0.0","","24","","15","","","","101.24","","","","","","NA"
"-53.08","46.66","CAPE RACE (AUT)","8401000","2019-01-24 23:30","2019","01","24","23:30","","M","","M","","M","0.2","","22","","17","","","","101.25","","","","","","NA"
"-53.08","46.66","CAPE RACE (AUT)","8401000","2019-01-25 00:30","2019","01","25","00:30","","M","","M","","M","0.3","","20","","15","","","","101.17","","","","","","NA"
"-53.08","46.66","CAPE RACE (AUT)","8401000","2019-01-25 01:30","2019","01","25","01:30","","M","","M","","M","0.0","","23","","7","","","","101.10","","","","","","NA"
"-53.08","46.66","CAPE RACE (AUT)","8401000","2019-01-25 02:30","2019","01","25","02:30","","M","","M","","M","0.0","","24","","32","","","","101.07","","","","","","NA"
"-53.08","46.66","CAPE RACE (AUT)","8401000","2019-01-25 03:30","2019","01","25","03:30","","M","","M","","M","0.0","","23","","26","","","","100.98","","","","","","NA"
"-53.08","46.66","CAPE RACE (AUT)","8401000","2019-01-25 04:30","2019","01","25","04:30","","M","","M","","M","0.0","","22","","27","","","","100.89","","","","","","NA"
"-53.08","46.66","CAPE RACE (AUT)","8401000","2019-01-25 05:30","2019","01","25","05:30","","M","","M","","M","0.4","","20","","26","","","","100.78","","","","","","NA"
"-53.08","46.66","CAPE RACE (AUT)","8401000","2019-01-25 06:30","2019","01","25","06:30","","M","","M","","M","0.0","","20","","39","","","","100.65","","","","","","NA"
"-53.08","46.66","CAPE RACE (AUT)","8401000","2019-01-25 07:30","2019","01","25","07:30","","M","","M","","M","0.0","","20","","38","","","","100.60","","","","","","NA"
"-53.08","46.66","CAPE RACE (AUT)","8401000","2019-01-25 08:30","2019","01","25","08:30","","M","","M","","M","1.2","","20","","47","","","","100.47","","","","","","NA"
"-53.08","46.66","CAPE RACE (AUT)","8401000","2019-01-25 09:30","2019","01","25","09:30","","M","","M","","M","2.8","","19","","55","","","","100.39","","","","","","NA"
"-53.08","46.66","CAPE RACE (AUT)","8401000","2019-01-25 10:30","2019","01","25","10:30","","M","","M","","M","0.0","","20","","55","","","","100.29","","","","","","NA"
"-53.08","46.66","CAPE RACE (AUT)","8401000","2019-01-25 11:30","2019","01","25","11:30","","M","","M","","M","0.3","","20","","52","","","","100.17","","","","","","NA"
"-53.08","46.66","CAPE RACE (AUT)","8401000","2019-01-25 12:30","2019","01","25","12:30","","M","","M","","M","0.9","","20","","47","","","","100.10","","","","","","NA"
"-53.08","46.66","CAPE RACE (AUT)","8401000","2019-01-25 13:30","2019","01","25","13:30","","M","","M","","M","0.0","","21","","50","","","","100.13","","","","","","NA"
"-53.08","46.66","CAPE RACE (AUT)","8401000","2019-01-25 14:30","2019","01","25","14:30","","M","","M","","M","0.2","","22","","40","","","","100.21","","","","","","NA"
"-53.08","46.66","CAPE RACE (AUT)","8401000","2019-01-25 15:30","2019","01","25","15:30","","M","","M","","M","0.0","","23","","40","","","","100.24","","","","","","NA"
"-53.08","46.66","CAPE RACE (AUT)","8401000","2019-01-25 16:30","2019","01","25","16:30","","M","","M","","M","0.0","","23","","35","","","","100.30","","","","","","NA"
"-53.08","46.66","CAPE RACE (AUT)","8401000","2019-01-25 17:30","2019","01","25","17:30","","M","","M","","M","0.0","","24","","37","","","","100.31","","","","","","NA"
"-53.08","46.66","CAPE RACE (AUT)","8401000","2019-01-25 18:30","2019","01","25","18:30","","M","","M","","M","0.0","","24","","45","","","","100.33","","","","","","NA"
"-53.08","46.66","CAPE RACE (AUT)","8401000","2019-01-25 19:30","2019","01","25","19:30","","M","","M","","M","0.0","","25","","44","","","","100.34","","","","","","NA"
"-53.08","46.66","CAPE RACE (AUT)","8401000","2019-01-25 20:30","2019","01","25","20:30","","M","","M","","M","0.0","","25","","37","","","","100.45","","","","","","NA"
"-53.08","46.66","CAPE RACE (AUT)","8401000","2019-01-25 21:30","2019","01","25","21:30","","M","","M","","M","0.0","","25","","38","","","","100.46","","","","","","NA"
"-53.08","46.66","CAPE RACE (AUT)","8401000","2019-01-25 22:30","2019","01","25","22:30","","M","","M","","M","0.0","","24","","34","","","","100.49","","","","","","NA"
"-53.08","46.66","CAPE RACE (AUT)","8401000","2019-01-25 23:30","2019","01","25","23:30","","M","","M","","M","0.0","","23","","31","","","","100.58","","","","","","NA"
"-53.08","46.66","CAPE RACE (AUT)","8401000","2019-01-26 00:30","2019","01","26","00:30","","M","","M","","M","0.0","","24","","31","","","","100.60","","","","","","NA"
"-53.08","46.66","CAPE RACE (AUT)","8401000","2019-01-26 01:30","2019","01","26","01:30","","M","","M","","M","0.0","","25","","31","","","","100.64","","","","","","NA"
"-53.08","46.66","CAPE RACE (AUT)","8401000","2019-01-26 02:30","2019","01","26","02:30","","M","","M","","M","0.0","","24","","30","","","","100.77","","","","","","NA"
"-53.08","46.66","CAPE RACE (AUT)","8401000","2019-01-26 03:30","2019","01","26","03:30","","M","","M","","M","0.0","","25","","35","","","","100.87","","","","","","NA"
"-53.08","46.66","CAPE RACE (AUT)","8401000","2019-01-26 04:30","2019","01","26","04:30","","M","","M","","M","0.0","","26","","29","","","","100.94","","","","","","NA"
"-53.08","46.66","CAPE RACE (AUT)","8401000","2019-01-26 05:30","2019","01","26","05:30","","M","","M","","M","0.0","","25","","29","","","","101.07","","","","","","NA"
"-53.08","46.66","CAPE RACE (AUT)","8401000","2019-01-26 06:30","2019","01","26","06:30","","M","","M","","M","0.0","","27","","25","","","","101.19","","","","","","NA"
"-53.08","46.66","CAPE RACE (AUT)","8401000","2019-01-26 07:30","2019","01","26","07:30","","M","","M","","M","0.0","","27","","17","","","","101.32","","","","","","NA"
"-53.08","46.66","CAPE RACE (AUT)","8401000","2019-01-26 08:30","2019","01","26","08:30","","M","","M","","M","0.0","","25","","17","","","","101.50","","","","","","NA"
"-53.08","46.66","CAPE RACE (AUT)","8401000","2019-01-26 09:30","2019","01","26","09:30","","M","","M","","M","0.0","","25","","12","","","","101.61","","","","","","NA"
"-53.08","46.66","CAPE RACE (AUT)","8401000","2019-01-26 10:30","2019","01","26","10:30","","M","","M","","M","0.0","","28","","20","","","","101.76","","","","","","NA"
"-53.08","46.66","CAPE RACE (AUT)","8401000","2019-01-26 11:30","2019","01","26","11:30","","M","","M","","M","0.0","","29","","21","","","","101.84","","","","","","NA"
"-53.08","46.66","CAPE RACE (AUT)","8401000","2019-01-26 12:30","2019","01","26","12:30","","M","","M","","M","0.0","","27","","17","","","","101.91","","","","","","NA"
"-53.08","46.66","CAPE RACE (AUT)","8401000","2019-01-26 13:30","2019","01","26","13:30","","M","","M","","M","0.0","","27","","17","","","","101.94","","","","","","NA"
"-53.08","46.66","CAPE RACE (AUT)","8401000","2019-01-26 14:30","2019","01","26","14:30","","M","","M","","M","0.0","","27","","21","","","","102.04","","","","","","NA"
"-53.08","46.66","CAPE RACE (AUT)","8401000","2019-01-26 15:30","2019","01","26","15:30","","M","","M","","M","0.0","","26","","20","","","","102.14","","","","","","NA"
"-53.08","46.66","CAPE RACE (AUT)","8401000","2019-01-26 16:30","2019","01","26","16:30","","M","","M","","M","0.0","","24","","15","","","","102.19","","","","","","NA"
"-53.08","46.66","CAPE RACE (AUT)","8401000","2019-01-26 17:30","2019","01","26","17:30","","M","","M","","M","0.0","","27","","17","","","","102.32","","","","","","NA"
"-53.08","46.66","CAPE RACE (AUT)","8401000","2019-01-26 18:30","2019","01","26","18:30","","M","","M","","M","0.0","","28","","22","","","","102.43","","","","","","NA"
"-53.08","46.66","CAPE RACE (AUT)","8401000","2019-01-26 19:30","2019","01","26","19:30","","M","","M","","M","0.0","","28","","15","","","","102.54","","","","","","NA"
"-53.08","46.66","CAPE RACE (AUT)","8401000","2019-01-26 20:30","2019","01","26","20:30","","M","","M","","M","0.0","","29","","11","","","","102.56","","","","","","NA"
"-53.08","46.66","CAPE RACE (AUT)","8401000","2019-01-26 21:30","2019","01","26","21:30","","M","","M","","M","0.0","","28","","7","","","","102.53","","","","","","NA"
"-53.08","46.66","CAPE RACE (AUT)","8401000","2019-01-26 22:30","2019","01","26","22:30","","M","","M","","M","0.0","","25","","8","","","","102.58","","","","","","NA"
"-53.08","46.66","CAPE RACE (AUT)","8401000","2019-01-26 23:30","2019","01","26","23:30","","M","","M","","M","0.0","","27","","11","","","","102.67","","","","","","NA"
"-53.08","46.66","CAPE RACE (AUT)","8401000","2019-01-27 00:30","2019","01","27","00:30","","M","","M","","M","0.0","","26","","9","","","","102.69","","","","","","NA"
"-53.08","46.66","CAPE RACE (AUT)","8401000","2019-01-27 01:30","2019","01","27","01:30","","M","","M","","M","0.0","","27","","4","","","","102.68","","","","","","NA"
"-53.08","46.66","CAPE RACE (AUT)","8401000","2019-01-27 02:30","2019","01","27","02:30","","M","","M","","M","0.0","","30","","4","","","","102.72","","","","","","NA"
"-53.08","46.66","CAPE RACE (AUT)","8401000","2019-01-27 03:30","2019","01","27","03:30","","M","","M","","M","0.0","","36","","9","","","","102.69","","","","","","NA"
"-53.08","46.66","CAPE RACE (AUT)","8401000","2019-01-27 04:30","2019","01","27","04:30","","M","","M","","M","0.0","","35","","14","","","","102.68","","","","","","NA"
"-53.08","46.66","CAPE RACE (AUT)","8401000","2019-01-27 05:30","2019","01","27","05:30","","M","","M","","M","0.0","","5","","13","","","","102.81","","","","","","NA"
"-53.08","46.66","CAPE RACE (AUT)","8401000","2019-01-27 06:30","2019","01","27","06:30","","M","","M","","M","0.0","","4","","16","","","","102.78","","","","","","NA"
"-53.08","46.66","CAPE RACE (AUT)","8401000","2019-01-27 07:30","2019","01","27","07:30","","M","","M","","M","0.0","","4","","21","","","","102.80","","","","","","NA"
"-53.08","46.66","CAPE RACE (AUT)","8401000","2019-01-27 08:30","2019","01","27","08:30","","M","","M","","M","0.0","","4","","19","","","","102.83","","","","","","NA"
"-53.08","46.66","CAPE RACE (AUT)","8401000","2019-01-27 09:30","2019","01","27","09:30","","M","","M","","M","0.0","","5","","26","","","","102.88","","","","","","NA"
"-53.08","46.66","CAPE RACE (AUT)","8401000","2019-01-27 10:30","2019","01","27","10:30","","M","","M","","M","0.0","","5","","25","","","","102.83","","","","","","NA"
"-53.08","46.66","CAPE RACE (AUT)","8401000","2019-01-27 11:30","2019","01","27","11:30","","M","","M","","M","0.0","","7","","21","","","","102.83","","","","","","NA"
"-53.08","46.66","CAPE RACE (AUT)","8401000","2019-01-27 12:30","2019","01","27","12:30","","M","","M","","M","0.0","","6","","23","","","","102.72","","","","","","NA"
"-53.08","46.66","CAPE RACE (AUT)","8401000","2019-01-27 13:30","2019","01","27","13:30","","M","","M","","M","0.0","","5","","29","","","","102.67","","","","","","NA"
"-53.08","46.66","CAPE RACE (AUT)","8401000","2019-01-27 14:30","2019","01","27","14:30","","M","","M","","M","0.0","","5","","27","","","","102.67","","","","","","NA"
"-53.08","46.66","CAPE RACE (AUT)","8401000","2019-01-27 15:30","2019","01","27","15:30","","M","","M","","M","0.0","","5","","23","","","","102.71","","","","","","NA"
"-53.08","46.66","CAPE RACE (AUT)","8401000","2019-01-27 16:30","2019","01","27","16:30","","M","","M","","M","0.0","","5","","25","","","","102.64","","","","","","NA"
"-53.08","46.66","CAPE RACE (AUT)","8401000","2019-01-27 17:30","2019","01","27","17:30","","M","","M","","M","0.0","","6","","20","","","","102.63","","","","","","NA"
"-53.08","46.66","CAPE RACE (AUT)","8401000","2019-01-27 18:30","2019","01","27","18:30","","M","","M","","M","0.0","","7","","21","","","","102.65","","","","","","NA"
"-53.08","46.66","CAPE RACE (AUT)","8401000","2019-01-27 19:30","2019","01","27","19:30","","M","","M","","M","0.0","","8","","20","","","","102.68","","","","","","NA"
"-53.08","46.66","CAPE RACE (AUT)","8401000","2019-01-27 20:30","2019","01","27","20:30","","M","","M","","M","0.0","","6","","16","","","","102.67","","","","","","NA"
"-53.08","46.66","CAPE RACE (AUT)","8401000","2019-01-27 21:30","2019","01","27","21:30","","M","","M","","M","0.0","","8","","14","","","","102.70","","","","","","NA"
"-53.08","46.66","CAPE RACE (AUT)","8401000","2019-01-27 22:30","2019","01","27","22:30","","M","","M","","M","0.0","","8","","16","","","","102.61","","","","","","NA"
"-53.08","46.66","CAPE RACE (AUT)","8401000","2019-01-27 23:30","2019","01","27","23:30","","M","","M","","M","0.0","","8","","20","","","","102.56","","","","","","NA"
"-53.08","46.66","CAPE RACE (AUT)","8401000","2019-01-28 00:30","2019","01","28","00:30","","M","","M","","M","0.0","","10","","17","","","","102.54","","","","","","NA"
"-53.08","46.66","CAPE RACE (AUT)","8401000","2019-01-28 01:30","2019","01","28","01:30","","M","","M","","M","0.0","","10","","17","","","","102.43","","","","","","NA"
"-53.08","46.66","CAPE RACE (AUT)","8401000","2019-01-28 02:30","2019","01","28","02:30","","M","","M","","M","0.0","","13","","18","","","","102.48","","","","","","NA"
"-53.08","46.66","CAPE RACE (AUT)","8401000","2019-01-28 03:30","2019","01","28","03:30","","M","","M","","M","0.0","","11","","17","","","","102.39","","","","","","NA"
"-53.08","46.66","CAPE RACE (AUT)","8401000","2019-01-28 04:30","2019","01","28","04:30","","M","","M","","M","0.0","","9","","18","","","","102.31","","","","","","NA"
"-53.08","46.66","CAPE RACE (AUT)","8401000","2019-01-28 05:30","2019","01","28","05:30","","M","","M","","M","0.0","","9","","18","","","","102.20","","","","","","NA"
"-53.08","46.66","CAPE RACE (AUT)","8401000","2019-01-28 06:30","2019","01","28","06:30","","M","","M","","M","0.0","","10","","20","","","","102.16","","","","","","NA"
"-53.08","46.66","CAPE RACE (AUT)","8401000","2019-01-28 07:30","2019","01","28","07:30","","M","","M","","M","0.0","","10","","20","","","","102.08","","","","","","NA"
"-53.08","46.66","CAPE RACE (AUT)","8401000","2019-01-28 08:30","2019","01","28","08:30","","M","","M","","M","0.0","","10","","22","","","","102.07","","","","","","NA"
"-53.08","46.66","CAPE RACE (AUT)","8401000","2019-01-28 09:30","2019","01","28","09:30","","M","","M","","M","0.0","","10","","32","","","","101.73","","","","","","NA"
"-53.08","46.66","CAPE RACE (AUT)","8401000","2019-01-28 10:30","2019","01","28","10:30","","M","","M","","M","0.0","","10","","22","","","","101.69","","","","","","NA"
"-53.08","46.66","CAPE RACE (AUT)","8401000","2019-01-28 11:30","2019","01","28","11:30","","M","","M","","M","0.0","","11","","20","","","","101.55","","","","","","NA"
"-53.08","46.66","CAPE RACE (AUT)","8401000","2019-01-28 12:30","2019","01","28","12:30","","M","","M","","M","0.3","","10","","16","","","","101.33","","","","","","NA"
"-53.08","46.66","CAPE RACE (AUT)","8401000","2019-01-28 13:30","2019","01","28","13:30","","M","","M","","M","1.8","","8","","14","","","","101.15","","","","","","NA"
"-53.08","46.66","CAPE RACE (AUT)","8401000","2019-01-28 14:30","2019","01","28","14:30","","M","","M","","M","2.0","","5","","16","","","","100.98","","","","","","NA"
"-53.08","46.66","CAPE RACE (AUT)","8401000","2019-01-28 15:30","2019","01","28","15:30","","M","","M","","M","2.4","","4","","17","","","","100.79","","","","","","NA"
"-53.08","46.66","CAPE RACE (AUT)","8401000","2019-01-28 16:30","2019","01","28","16:30","","M","","M","","M","0.6","","3","","14","","","","100.75","","","","","","NA"
"-53.08","46.66","CAPE RACE (AUT)","8401000","2019-01-28 17:30","2019","01","28","17:30","","M","","M","","M","0.0","","3","","8","","","","100.70","","","","","","NA"
"-53.08","46.66","CAPE RACE (AUT)","8401000","2019-01-28 18:30","2019","01","28","18:30","","M","","M","","M","0.0","","3","","3","","","","100.67","","","","","","NA"
"-53.08","46.66","CAPE RACE (AUT)","8401000","2019-01-28 19:30","2019","01","28","19:30","","M","","M","","M","0.0","","26","","10","","","","100.67","","","","","","NA"
"-53.08","46.66","CAPE RACE (AUT)","8401000","2019-01-28 20:30","2019","01","28","20:30","","M","","M","","M","0.0","","26","","19","","","","100.68","","","","","","NA"
"-53.08","46.66","CAPE RACE (AUT)","8401000","2019-01-28 21:30","2019","01","28","21:30","","M","","M","","M","0.0","","25","","17","","","","100.73","","","","","","NA"
"-53.08","46.66","CAPE RACE (AUT)","8401000","2019-01-28 22:30","2019","01","28","22:30","","M","","M","","M","0.0","","26","","19","","","","100.78","","","","","","NA"
"-53.08","46.66","CAPE RACE (AUT)","8401000","2019-01-28 23:30","2019","01","28","23:30","","M","","M","","M","0.2","","27","","15","","","","100.79","","","","","","NA"
"-53.08","46.66","CAPE RACE (AUT)","8401000","2019-01-29 00:30","2019","01","29","00:30","","M","","M","","M","0.0","","29","","22","","","","100.80","","","","","","NA"
"-53.08","46.66","CAPE RACE (AUT)","8401000","2019-01-29 01:30","2019","01","29","01:30","","M","","M","","M","0.0","","30","","20","","","","100.83","","","","","","NA"
"-53.08","46.66","CAPE RACE (AUT)","8401000","2019-01-29 02:30","2019","01","29","02:30","","M","","M","","M","0.0","","30","","9","","","","100.81","","","","","","NA"
"-53.08","46.66","CAPE RACE (AUT)","8401000","2019-01-29 03:30","2019","01","29","03:30","","M","","M","","M","0.0","","30","","15","","","","100.85","","","","","","NA"
"-53.08","46.66","CAPE RACE (AUT)","8401000","2019-01-29 04:30","2019","01","29","04:30","","M","","M","","M","0.0","","32","","9","","","","100.89","","","","","","NA"
"-53.08","46.66","CAPE RACE (AUT)","8401000","2019-01-29 05:30","2019","01","29","05:30","","M","","M","","M","0.0","","33","","7","","","","100.90","","","","","","NA"
"-53.08","46.66","CAPE RACE (AUT)","8401000","2019-01-29 06:30","2019","01","29","06:30","","M","","M","","M","0.0","","1","","9","","","","100.96","","","","","","NA"
"-53.08","46.66","CAPE RACE (AUT)","8401000","2019-01-29 07:30","2019","01","29","07:30","","M","","M","","M","0.0","","1","","9","","","","101.02","","","","","","NA"
"-53.08","46.66","CAPE RACE (AUT)","8401000","2019-01-29 08:30","2019","01","29","08:30","","M","","M","","M","0.0","","3","","20","","","","101.04","","","","","","NA"
"-53.08","46.66","CAPE RACE (AUT)","8401000","2019-01-29 09:30","2019","01","29","09:30","","M","","M","","M","0.0","","3","","23","","","","101.12","","","","","","NA"
"-53.08","46.66","CAPE RACE (AUT)","8401000","2019-01-29 10:30","2019","01","29","10:30","","M","","M","","M","0.0","","3","","29","","","","101.11","","","","","","NA"
"-53.08","46.66","CAPE RACE (AUT)","8401000","2019-01-29 11:30","2019","01","29","11:30","","M","","M","","M","0.0","","4","","26","","","","101.11","","","","","","NA"
"-53.08","46.66","CAPE RACE (AUT)","8401000","2019-01-29 12:30","2019","01","29","12:30","","M","","M","","M","0.0","","4","","28","","","","101.07","","","","","","NA"
"-53.08","46.66","CAPE RACE (AUT)","8401000","2019-01-29 13:30","2019","01","29","13:30","","M","","M","","M","0.0","","4","","25","","","","101.10","","","","","","NA"
"-53.08","46.66","CAPE RACE (AUT)","8401000","2019-01-29 14:30","2019","01","29","14:30","","M","","M","","M","0.0","","3","","21","","","","101.12","","","","","","NA"
"-53.08","46.66","CAPE RACE (AUT)","8401000","2019-01-29 15:30","2019","01","29","15:30","","M","","M","","M","0.0","","4","","23","","","","101.14","","","","","","NA"
"-53.08","46.66","CAPE RACE (AUT)","8401000","2019-01-29 16:30","2019","01","29","16:30","","M","","M","","M","0.0","","4","","23","","","","101.17","","","","","","NA"
"-53.08","46.66","CAPE RACE (AUT)","8401000","2019-01-29 17:30","2019","01","29","17:30","","M","","M","","M","0.0","","36","","15","","","","101.27","","","","","","NA"
"-53.08","46.66","CAPE RACE (AUT)","8401000","2019-01-29 18:30","2019","01","29","18:30","","M","","M","","M","0.0","","1","","13","","","","101.33","","","","","","NA"
"-53.08","46.66","CAPE RACE (AUT)","8401000","2019-01-29 19:30","2019","01","29","19:30","","M","","M","","M","0.0","","35","","11","","","","101.52","","","","","","NA"
"-53.08","46.66","CAPE RACE (AUT)","8401000","2019-01-29 20:30","2019","01","29","20:30","","M","","M","","M","0.0","","2","","13","","","","101.63","","","","","","NA"
"-53.08","46.66","CAPE RACE (AUT)","8401000","2019-01-29 21:30","2019","01","29","21:30","","M","","M","","M","0.0","","3","","20","","","","101.60","","","","","","NA"
"-53.08","46.66","CAPE RACE (AUT)","8401000","2019-01-29 22:30","2019","01","29","22:30","","M","","M","","M","0.0","","1","","25","","","","101.66","","","","","","NA"
"-53.08","46.66","CAPE RACE (AUT)","8401000","2019-01-29 23:30","2019","01","29","23:30","","M","","M","","M","0.0","","36","","13","","","","101.82","","","","","","NA"
"-53.08","46.66","CAPE RACE (AUT)","8401000","2019-01-30 00:30","2019","01","30","00:30","","M","","M","","M","0.0","","36","","15","","","","101.83","","","","","","NA"
"-53.08","46.66","CAPE RACE (AUT)","8401000","2019-01-30 01:30","2019","01","30","01:30","","M","","M","","M","0.0","","3","","27","","","","101.79","","","","","","NA"
"-53.08","46.66","CAPE RACE (AUT)","8401000","2019-01-30 02:30","2019","01","30","02:30","","M","","M","","M","0.0","","3","","30","","","","101.88","","","","","","NA"
"-53.08","46.66","CAPE RACE (AUT)","8401000","2019-01-30 03:30","2019","01","30","03:30","","M","","M","","M","0.0","","4","","29","","","","101.92","","","","","","NA"
"-53.08","46.66","CAPE RACE (AUT)","8401000","2019-01-30 04:30","2019","01","30","04:30","","M","","M","","M","0.0","","4","","28","","","","102.00","","","","","","NA"
"-53.08","46.66","CAPE RACE (AUT)","8401000","2019-01-30 05:30","2019","01","30","05:30","","M","","M","","M","0.0","","6","","35","","","","102.01","","","","","","NA"
"-53.08","46.66","CAPE RACE (AUT)","8401000","2019-01-30 06:30","2019","01","30","06:30","","M","","M","","M","0.0","","5","","32","","","","102.00","","","","","","NA"
"-53.08","46.66","CAPE RACE (AUT)","8401000","2019-01-30 07:30","2019","01","30","07:30","","M","","M","","M","0.0","","5","","35","","","","101.98","","","","","","NA"
"-53.08","46.66","CAPE RACE (AUT)","8401000","2019-01-30 08:30","2019","01","30","08:30","","M","","M","","M","0.0","","5","","39","","","","102.06","","","","","","NA"
"-53.08","46.66","CAPE RACE (AUT)","8401000","2019-01-30 09:30","2019","01","30","09:30","","M","","M","","M","0.0","","7","","35","","","","102.02","","","","","","NA"
"-53.08","46.66","CAPE RACE (AUT)","8401000","2019-01-30 10:30","2019","01","30","10:30","","M","","M","","M","0.0","","7","","36","","","","101.97","","","","","","NA"
"-53.08","46.66","CAPE RACE (AUT)","8401000","2019-01-30 11:30","2019","01","30","11:30","","M","","M","","M","0.0","","7","","36","","","","101.89","","","","","","NA"
"-53.08","46.66","CAPE RACE (AUT)","8401000","2019-01-30 12:30","2019","01","30","12:30","","M","","M","","M","0.0","","7","","38","","","","101.72","","","","","","NA"
"-53.08","46.66","CAPE RACE (AUT)","8401000","2019-01-30 13:30","2019","01","30","13:30","","M","","M","","M","0.0","","8","","34","","","","101.74","","","","","","NA"
"-53.08","46.66","CAPE RACE (AUT)","8401000","2019-01-30 14:30","2019","01","30","14:30","","M","","M","","M","0.0","","8","","31","","","","101.70","","","","","","NA"
"-53.08","46.66","CAPE RACE (AUT)","8401000","2019-01-30 15:30","2019","01","30","15:30","","M","","M","","M","0.0","","8","","30","","","","101.67","","","","","","NA"
"-53.08","46.66","CAPE RACE (AUT)","8401000","2019-01-30 16:30","2019","01","30","16:30","","M","","M","","M","0.0","","7","","37","","","","101.59","","","","","","NA"
"-53.08","46.66","CAPE RACE (AUT)","8401000","2019-01-30 17:30","2019","01","30","17:30","","M","","M","","M","0.0","","8","","36","","","","101.53","","","","","","NA"
"-53.08","46.66","CAPE RACE (AUT)","8401000","2019-01-30 18:30","2019","01","30","18:30","","M","","M","","M","0.0","","9","","28","","","","101.53","","","","","","NA"
"-53.08","46.66","CAPE RACE (AUT)","8401000","2019-01-30 19:30","2019","01","30","19:30","","M","","M","","M","0.0","","10","","32","","","","101.54","","","","","","NA"
"-53.08","46.66","CAPE RACE (AUT)","8401000","2019-01-30 20:30","2019","01","30","20:30","","M","","M","","M","0.0","","10","","21","","","","101.50","","","","","","NA"
"-53.08","46.66","CAPE RACE (AUT)","8401000","2019-01-30 21:30","2019","01","30","21:30","","M","","M","","M","0.0","","9","","18","","","","101.41","","","","","","NA"
"-53.08","46.66","CAPE RACE (AUT)","8401000","2019-01-30 22:30","2019","01","30","22:30","","M","","M","","M","0.0","","8","","24","","","","101.29","","","","","","NA"
"-53.08","46.66","CAPE RACE (AUT)","8401000","2019-01-30 23:30","2019","01","30","23:30","","M","","M","","M","0.0","","8","","18","","","","101.25","","","","","","NA"
"-53.08","46.66","CAPE RACE (AUT)","8401000","2019-01-31 00:30","2019","01","31","00:30","","M","","M","","M","0.0","","9","","14","","","","101.20","","","","","","NA"
"-53.08","46.66","CAPE RACE (AUT)","8401000","2019-01-31 01:30","2019","01","31","01:30","","M","","M","","M","0.0","","9","","10","","","","101.14","","","","","","NA"
"-53.08","46.66","CAPE RACE (AUT)","8401000","2019-01-31 02:30","2019","01","31","02:30","","M","","M","","M","0.0","","10","","12","","","","101.07","","","","","","NA"
"-53.08","46.66","CAPE RACE (AUT)","8401000","2019-01-31 03:30","2019","01","31","03:30","","M","","M","","M","0.0","","11","","6","","","","101.02","","","","","","NA"
"-53.08","46.66","CAPE RACE (AUT)","8401000","2019-01-31 04:30","2019","01","31","04:30","","M","","M","","M","0.0","","11","","8","","","","100.92","","","","","","NA"
"-53.08","46.66","CAPE RACE (AUT)","8401000","2019-01-31 05:30","2019","01","31","05:30","","M","","M","","M","0.0","","13","","10","","","","100.84","","","","","","NA"
"-53.08","46.66","CAPE RACE (AUT)","8401000","2019-01-31 06:30","2019","01","31","06:30","","M","","M","","M","0.0","","16","","8","","","","100.82","","","","","","NA"
"-53.08","46.66","CAPE RACE (AUT)","8401000","2019-01-31 07:30","2019","01","31","07:30","","M","","M","","M","0.7","","20","","5","","","","100.82","","","","","","NA"
"-53.08","46.66","CAPE RACE (AUT)","8401000","2019-01-31 08:30","2019","01","31","08:30","","M","","M","","M","0.0","","21","","7","","","","100.79","","","","","","NA"
"-53.08","46.66","CAPE RACE (AUT)","8401000","2019-01-31 09:30","2019","01","31","09:30","","M","","M","","M","1.1","","22","","14","","","","100.74","","","","","","NA"
"-53.08","46.66","CAPE RACE (AUT)","8401000","2019-01-31 10:30","2019","01","31","10:30","","M","","M","","M","0.0","","24","","27","","","","100.70","","","","","","NA"
"-53.08","46.66","CAPE RACE (AUT)","8401000","2019-01-31 11:30","2019","01","31","11:30","","M","","M","","M","0.2","","24","","18","","","","100.67","","","","","","NA"
"-53.08","46.66","CAPE RACE (AUT)","8401000","2019-01-31 12:30","2019","01","31","12:30","","M","","M","","M","0.0","","25","","29","","","","100.65","","","","","","NA"
"-53.08","46.66","CAPE RACE (AUT)","8401000","2019-01-31 13:30","2019","01","31","13:30","","M","","M","","M","0.0","","26","","36","","","","100.61","","","","","","NA"
"-53.08","46.66","CAPE RACE (AUT)","8401000","2019-01-31 14:30","2019","01","31","14:30","","M","","M","","M","0.0","","26","","31","","","","100.55","","","","","","NA"
"-53.08","46.66","CAPE RACE (AUT)","8401000","2019-01-31 15:30","2019","01","31","15:30","","M","","M","","M","0.0","","23","","21","","","","100.60","","","","","","NA"
"-53.08","46.66","CAPE RACE (AUT)","8401000","2019-01-31 16:30","2019","01","31","16:30","","M","","M","","M","0.0","","23","","18","","","","100.52","","","","","","NA"
"-53.08","46.66","CAPE RACE (AUT)","8401000","2019-01-31 17:30","2019","01","31","17:30","","M","","M","","M","0.0","","24","","23","","","","100.61","","","","","","NA"
"-53.08","46.66","CAPE RACE (AUT)","8401000","2019-01-31 18:30","2019","01","31","18:30","","M","","M","","M","0.0","","24","","38","","","","100.59","","","","","","NA"
"-53.08","46.66","CAPE RACE (AUT)","8401000","2019-01-31 19:30","2019","01","31","19:30","","M","","M","","M","0.0","","26","","47","","","","100.65","","","","","","NA"
"-53.08","46.66","CAPE RACE (AUT)","8401000","2019-01-31 20:30","2019","01","31","20:30","","M","","M","","M","0.0","","26","","50","","","","100.71","","","","","","NA"
"-53.08","46.66","CAPE RACE (AUT)","8401000","2019-01-31 21:30","2019","01","31","21:30","","M","","M","","M","0.0","","26","","51","","","","100.80","","","","","","NA"
"-53.08","46.66","CAPE RACE (AUT)","8401000","2019-01-31 22:30","2019","01","31","22:30","","M","","M","","M","0.0","","26","","55","","","","100.90","","","","","","NA"
"-53.08","46.66","CAPE RACE (AUT)","8401000","2019-01-31 23:30","2019","01","31","23:30","","M","","M","","M","0.0","","28","","44","","","","100.98","","","","","","NA"
