"Longitude (x)","Latitude (y)","Station Name","Climate ID","Date/Time (LST)","Year","Month","Day","Time (LST)","Temp (°C)","Temp Flag","Dew Point Temp (°C)","Dew Point Temp Flag","Rel Hum (%)","Rel Hum Flag","Precip. Amount (mm)","Precip. Amount Flag","Wind Dir (10s deg)","Wind Dir Flag","Wind Spd (km/h)","Wind Spd Flag","Visibility (km)","Visibility Flag","Stn Press (kPa)","Stn Press Flag","Hmdx","Hmdx Flag","Wind Chill","Wind Chill Flag","Weather"
"-139.84","67.57","OLD CROW A","2100801","2019-04-01 00:00","2019","04","01","00:00"
"-139.84","67.57","OLD CROW A","2100801","2019-04-01 01:00","2019","04","01","01:00"
"-139.84","67.57","OLD CROW A","2100801","2019-04-01 02:00","2019","04","01","02:00"
"-139.84","67.57","OLD CROW A","2100801","2019-04-01 03:00","2019","04","01","03:00"
"-139.84","67.57","OLD CROW A","2100801","2019-04-01 04:00","2019","04","01","04:00"
"-139.84","67.57","OLD CROW A","2100801","2019-04-01 05:00","2019","04","01","05:00","-3.1","","-7.7","","71","","","","3","","13","","56.3","","100.10","","","","-8","","NA"
"-139.84","67.57","OLD CROW A","2100801","2019-04-01 06:00","2019","04","01","06:00","-3.5","","-7.5","","74","","","","12","","5","","56.3","","100.10","","","","-6","","NA"
"-139.84","67.57","OLD CROW A","2100801","2019-04-01 07:00","2019","04","01","07:00","-5.6","","-7.6","","86","","","","26","","4","","56.3","","100.13","","","","-7","","Mostly Cloudy"
"-139.84","67.57","OLD CROW A","2100801","2019-04-01 08:00","2019","04","01","08:00","-5.9","","-7.7","","87","","","","26","","4","","56.3","","100.12","","","","-8","","NA"
"-139.84","67.57","OLD CROW A","2100801","2019-04-01 09:00","2019","04","01","09:00","-5.8","","-7.8","","86","","","","36","","1","","56.3","","100.12","","","","-6","","NA"
"-139.84","67.57","OLD CROW A","2100801","2019-04-01 10:00","2019","04","01","10:00","-2.1","","-7.6","","66","","","","4","","15","","56.3","","100.11","","","","-7","","Cloudy"
"-139.84","67.57","OLD CROW A","2100801","2019-04-01 11:00","2019","04","01","11:00","-1.7","","-7.9","","62","","","","5","","14","","56.3","","100.08","","","","-6","","NA"
"-139.84","67.57","OLD CROW A","2100801","2019-04-01 12:00","2019","04","01","12:00","-0.5","","-7.3","","60","","","","5","","15","","56.3","","100.06","","","","-5","","NA"
"-139.84","67.57","OLD CROW A","2100801","2019-04-01 13:00","2019","04","01","13:00","0.3","","-7.4","","56","","","","7","","9","","56.3","","100.05","","","","","","Mainly Clear"
"-139.84","67.57","OLD CROW A","2100801","2019-04-01 14:00","2019","04","01","14:00","0.5","","-7.0","","57","","","","7","","17","","56.3","","100.03","","","","","","NA"
"-139.84","67.57","OLD CROW A","2100801","2019-04-01 15:00","2019","04","01","15:00","0.7","","-6.7","","58","","","","8","","11","","56.3","","100.00","","","","","","NA"
"-139.84","67.57","OLD CROW A","2100801","2019-04-01 16:00","2019","04","01","16:00","-0.3","","-6.2","","64","","","","6","","21","","56.3","","99.99","","","","-6","","Mostly Cloudy"
"-139.84","67.57","OLD CROW A","2100801","2019-04-01 17:00","2019","04","01","17:00","-0.9","","-6.3","","67","","","","6","","17","","56.3","","99.95","","","","-6","","NA"
"-139.84","67.57","OLD CROW A","2100801","2019-04-01 18:00","2019","04","01","18:00"
"-139.84","67.57","OLD CROW A","2100801","2019-04-01 19:00","2019","04","01","19:00"
"-139.84","67.57","OLD CROW A","2100801","2019-04-01 20:00","2019","04","01","20:00"
"-139.84","67.57","OLD CROW A","2100801","2019-04-01 21:00","2019","04","01","21:00"
"-139.84","67.57","OLD CROW A","2100801","2019-04-01 22:00","2019","04","01","22:00"
"-139.84","67.57","OLD CROW A","2100801","2019-04-01 23:00","2019","04","01","23:00"
"-139.84","67.57","OLD CROW A","2100801","2019-04-02 00:00","2019","04","02","00:00"
"-139.84","67.57","OLD CROW A","2100801","2019-04-02 01:00","2019","04","02","01:00"
"-139.84","67.57","OLD CROW A","2100801","2019-04-02 02:00","2019","04","02","02:00"
"-139.84","67.57","OLD CROW A","2100801","2019-04-02 03:00","2019","04","02","03:00"
"-139.84","67.57","OLD CROW A","2100801","2019-04-02 04:00","2019","04","02","04:00"
"-139.84","67.57","OLD CROW A","2100801","2019-04-02 05:00","2019","04","02","05:00","-14.6","","-19.0","","70","","","","6","","25","","56.3","","100.22","","","","-25","","NA"
"-139.84","67.57","OLD CROW A","2100801","2019-04-02 06:00","2019","04","02","06:00","-15.7","","-19.9","","70","","","","6","","21","","56.3","","100.26","","","","-25","","NA"
"-139.84","67.57","OLD CROW A","2100801","2019-04-02 07:00","2019","04","02","07:00","-16.7","","-20.8","","71","","","","7","","16","","56.3","","100.25","","","","-25","","Mostly Cloudy"
"-139.84","67.57","OLD CROW A","2100801","2019-04-02 08:00","2019","04","02","08:00","-17.0","","-21.6","","68","","","","6","","26","","56.3","","100.27","","","","-28","","NA"
"-139.84","67.57","OLD CROW A","2100801","2019-04-02 09:00","2019","04","02","09:00","-16.5","","-21.4","","66","","","","4","","41","","56.3","","100.19","","","","-30","","NA"
"-139.84","67.57","OLD CROW A","2100801","2019-04-02 10:00","2019","04","02","10:00","-16.2","","-21.6","","63","","","","5","","33","","56.3","","100.19","","","","-28","","Mainly Clear"
"-139.84","67.57","OLD CROW A","2100801","2019-04-02 11:00","2019","04","02","11:00","-15.2","","-21.1","","61","","","","5","","41","","56.3","","100.13","","","","-28","","NA"
"-139.84","67.57","OLD CROW A","2100801","2019-04-02 12:00","2019","04","02","12:00","-14.5","","-20.1","","63","","","","5","","37","","56.3","","100.14","","","","-26","","NA"
"-139.84","67.57","OLD CROW A","2100801","2019-04-02 13:00","2019","04","02","13:00","-14.2","","-19.5","","65","","","","4","","40","","56.3","","100.12","","","","-26","","Clear"
"-139.84","67.57","OLD CROW A","2100801","2019-04-02 14:00","2019","04","02","14:00","-14.2","","-19.6","","64","","","","4","","33","","56.3","","100.10","","","","-25","","NA"
"-139.84","67.57","OLD CROW A","2100801","2019-04-02 15:00","2019","04","02","15:00","-13.2","","-19.1","","62","","","","4","","23","","56.3","","100.07","","","","-23","","NA"
"-139.84","67.57","OLD CROW A","2100801","2019-04-02 16:00","2019","04","02","16:00","-13.1","","-18.6","","64","","","","5","","22","","56.3","","100.02","","","","-22","","Clear"
"-139.84","67.57","OLD CROW A","2100801","2019-04-02 17:00","2019","04","02","17:00","-14.2","","-19.6","","64","","","","7","","26","","56.3","","99.99","","","","-24","","NA"
"-139.84","67.57","OLD CROW A","2100801","2019-04-02 18:00","2019","04","02","18:00"
"-139.84","67.57","OLD CROW A","2100801","2019-04-02 19:00","2019","04","02","19:00"
"-139.84","67.57","OLD CROW A","2100801","2019-04-02 20:00","2019","04","02","20:00"
"-139.84","67.57","OLD CROW A","2100801","2019-04-02 21:00","2019","04","02","21:00"
"-139.84","67.57","OLD CROW A","2100801","2019-04-02 22:00","2019","04","02","22:00"
"-139.84","67.57","OLD CROW A","2100801","2019-04-02 23:00","2019","04","02","23:00"
"-139.84","67.57","OLD CROW A","2100801","2019-04-03 00:00","2019","04","03","00:00"
"-139.84","67.57","OLD CROW A","2100801","2019-04-03 01:00","2019","04","03","01:00"
"-139.84","67.57","OLD CROW A","2100801","2019-04-03 02:00","2019","04","03","02:00"
"-139.84","67.57","OLD CROW A","2100801","2019-04-03 03:00","2019","04","03","03:00"
"-139.84","67.57","OLD CROW A","2100801","2019-04-03 04:00","2019","04","03","04:00"
"-139.84","67.57","OLD CROW A","2100801","2019-04-03 05:00","2019","04","03","05:00","-19.1","","-26.8","","51","","","","5","","21","","56.3","","99.93","","","","-30","","NA"
"-139.84","67.57","OLD CROW A","2100801","2019-04-03 06:00","2019","04","03","06:00","-18.9","","-26.9","","50","","","","4","","19","","56.3","","99.92","","","","-29","","NA"
"-139.84","67.57","OLD CROW A","2100801","2019-04-03 07:00","2019","04","03","07:00","-21.9","","-27.1","","64","","","","6","","6","","56.3","","99.94","","","","-27","","Clear"
"-139.84","67.57","OLD CROW A","2100801","2019-04-03 08:00","2019","04","03","08:00","-22.2","","-26.9","","66","","","","24","","7","","56.3","","99.94","","","","-28","","NA"
"-139.84","67.57","OLD CROW A","2100801","2019-04-03 09:00","2019","04","03","09:00","-20.0","","-26.0","","60","","","","14","","4","","56.3","","99.92","","","","-23","","NA"
"-139.84","67.57","OLD CROW A","2100801","2019-04-03 10:00","2019","04","03","10:00","-16.2","","-26.5","","41","","","","7","","18","","56.3","","99.90","","","","-25","","Mainly Clear"
"-139.84","67.57","OLD CROW A","2100801","2019-04-03 11:00","2019","04","03","11:00","-15.4","","-26.0","","41","","","","9","","10","","56.3","","99.90","","","","-22","","NA"
"-139.84","67.57","OLD CROW A","2100801","2019-04-03 12:00","2019","04","03","12:00","-15.1","","-25.4","","42","","","","8","","16","","56.3","","99.92","","","","-23","","NA"
"-139.84","67.57","OLD CROW A","2100801","2019-04-03 13:00","2019","04","03","13:00","-14.3","","-23.0","","48","","","","6","","13","","56.3","","99.89","","","","-21","","Mainly Clear"
"-139.84","67.57","OLD CROW A","2100801","2019-04-03 14:00","2019","04","03","14:00","-13.6","","-22.1","","49","","","","7","","13","","56.3","","99.85","","","","-21","","NA"
"-139.84","67.57","OLD CROW A","2100801","2019-04-03 15:00","2019","04","03","15:00","-13.2","","-21.0","","52","","","","8","","12","","56.3","","99.80","","","","-20","","NA"
"-139.84","67.57","OLD CROW A","2100801","2019-04-03 16:00","2019","04","03","16:00","-13.2","","-20.7","","54","","","","7","","16","","56.3","","99.79","","","","-21","","Mainly Clear"
"-139.84","67.57","OLD CROW A","2100801","2019-04-03 17:00","2019","04","03","17:00","-12.7","","-20.4","","53","","","","8","","10","","56.3","","99.73","","","","-18","","NA"
"-139.84","67.57","OLD CROW A","2100801","2019-04-03 18:00","2019","04","03","18:00"
"-139.84","67.57","OLD CROW A","2100801","2019-04-03 19:00","2019","04","03","19:00"
"-139.84","67.57","OLD CROW A","2100801","2019-04-03 20:00","2019","04","03","20:00"
"-139.84","67.57","OLD CROW A","2100801","2019-04-03 21:00","2019","04","03","21:00"
"-139.84","67.57","OLD CROW A","2100801","2019-04-03 22:00","2019","04","03","22:00"
"-139.84","67.57","OLD CROW A","2100801","2019-04-03 23:00","2019","04","03","23:00"
"-139.84","67.57","OLD CROW A","2100801","2019-04-04 00:00","2019","04","04","00:00"
"-139.84","67.57","OLD CROW A","2100801","2019-04-04 01:00","2019","04","04","01:00"
"-139.84","67.57","OLD CROW A","2100801","2019-04-04 02:00","2019","04","04","02:00"
"-139.84","67.57","OLD CROW A","2100801","2019-04-04 03:00","2019","04","04","03:00"
"-139.84","67.57","OLD CROW A","2100801","2019-04-04 04:00","2019","04","04","04:00"
"-139.84","67.57","OLD CROW A","2100801","2019-04-04 05:00","2019","04","04","05:00"
"-139.84","67.57","OLD CROW A","2100801","2019-04-04 06:00","2019","04","04","06:00"
"-139.84","67.57","OLD CROW A","2100801","2019-04-04 07:00","2019","04","04","07:00"
"-139.84","67.57","OLD CROW A","2100801","2019-04-04 08:00","2019","04","04","08:00","-20.7","","-24.4","","73","","","","9","","3","","56.3","","99.44","","","","-23","","NA"
"-139.84","67.57","OLD CROW A","2100801","2019-04-04 09:00","2019","04","04","09:00","-18.6","","-23.5","","66","","","","14","","5","","56.3","","99.43","","","","-23","","NA"
"-139.84","67.57","OLD CROW A","2100801","2019-04-04 10:00","2019","04","04","10:00","-16.4","","-22.3","","61","","","","10","","12","","56.3","","99.37","","","","-24","","Clear"
"-139.84","67.57","OLD CROW A","2100801","2019-04-04 11:00","2019","04","04","11:00","-13.8","","-20.1","","59","","","","9","","12","","56.3","","99.34","","","","-21","","NA"
"-139.84","67.57","OLD CROW A","2100801","2019-04-04 12:00","2019","04","04","12:00","-11.8","","-18.8","","57","","","","7","","14","","56.3","","99.32","","","","-19","","NA"
"-139.84","67.57","OLD CROW A","2100801","2019-04-04 13:00","2019","04","04","13:00","-10.6","","-18.0","","55","","","","7","","16","","56.3","","99.27","","","","-18","","Clear"
"-139.84","67.57","OLD CROW A","2100801","2019-04-04 14:00","2019","04","04","14:00","-9.9","","-17.4","","55","","","","6","","17","","56.3","","99.22","","","","-17","","NA"
"-139.84","67.57","OLD CROW A","2100801","2019-04-04 15:00","2019","04","04","15:00","-9.4","","-16.9","","55","","","","6","","14","","56.3","","99.17","","","","-16","","NA"
"-139.84","67.57","OLD CROW A","2100801","2019-04-04 16:00","2019","04","04","16:00","-9.3","","-16.7","","55","","","","7","","17","","56.3","","99.11","","","","-16","","Clear"
"-139.84","67.57","OLD CROW A","2100801","2019-04-04 17:00","2019","04","04","17:00","-9.1","","-16.5","","56","","","","6","","16","","56.3","","99.04","","","","-16","","NA"
"-139.84","67.57","OLD CROW A","2100801","2019-04-04 18:00","2019","04","04","18:00"
"-139.84","67.57","OLD CROW A","2100801","2019-04-04 19:00","2019","04","04","19:00"
"-139.84","67.57","OLD CROW A","2100801","2019-04-04 20:00","2019","04","04","20:00"
"-139.84","67.57","OLD CROW A","2100801","2019-04-04 21:00","2019","04","04","21:00"
"-139.84","67.57","OLD CROW A","2100801","2019-04-04 22:00","2019","04","04","22:00"
"-139.84","67.57","OLD CROW A","2100801","2019-04-04 23:00","2019","04","04","23:00"
"-139.84","67.57","OLD CROW A","2100801","2019-04-05 00:00","2019","04","05","00:00"
"-139.84","67.57","OLD CROW A","2100801","2019-04-05 01:00","2019","04","05","01:00"
"-139.84","67.57","OLD CROW A","2100801","2019-04-05 02:00","2019","04","05","02:00"
"-139.84","67.57","OLD CROW A","2100801","2019-04-05 03:00","2019","04","05","03:00"
"-139.84","67.57","OLD CROW A","2100801","2019-04-05 04:00","2019","04","05","04:00"
"-139.84","67.57","OLD CROW A","2100801","2019-04-05 05:00","2019","04","05","05:00","-20.6","","-22.8","","83","","","","10","","10","","56.3","","98.61","","","","-28","","NA"
"-139.84","67.57","OLD CROW A","2100801","2019-04-05 06:00","2019","04","05","06:00","-20.9","","-23.1","","83","","","","9","","6","","56.3","","98.57","","","","-26","","NA"
"-139.84","67.57","OLD CROW A","2100801","2019-04-05 07:00","2019","04","05","07:00","-21.2","","-23.6","","81","","","","8","","7","","56.3","","98.53","","","","-27","","Clear"
"-139.84","67.57","OLD CROW A","2100801","2019-04-05 08:00","2019","04","05","08:00","-19.3","","-22.1","","79","","","","9","","11","","56.3","","98.51","","","","-27","","NA"
"-139.84","67.57","OLD CROW A","2100801","2019-04-05 09:00","2019","04","05","09:00","-16.0","","-20.1","","71","","","","10","","6","","56.3","","98.45","","","","-20","","NA"
"-139.84","67.57","OLD CROW A","2100801","2019-04-05 10:00","2019","04","05","10:00","-12.8","","-18.4","","63","","","","7","","10","","56.3","","98.39","","","","-19","","Clear"
"-139.84","67.57","OLD CROW A","2100801","2019-04-05 11:00","2019","04","05","11:00","-11.3","","-17.7","","60","","","","7","","14","","56.3","","98.33","","","","-18","","NA"
"-139.84","67.57","OLD CROW A","2100801","2019-04-05 12:00","2019","04","05","12:00","-10.0","","-17.5","","55","","","","6","","19","","56.3","","98.28","","","","-18","","NA"
"-139.84","67.57","OLD CROW A","2100801","2019-04-05 13:00","2019","04","05","13:00","-8.9","","-16.8","","54","","","","5","","19","","56.3","","98.21","","","","-16","","Clear"
"-139.84","67.57","OLD CROW A","2100801","2019-04-05 14:00","2019","04","05","14:00","-8.2","","-16.4","","52","","","","5","","18","","56.3","","98.16","","","","-15","","NA"
"-139.84","67.57","OLD CROW A","2100801","2019-04-05 15:00","2019","04","05","15:00","-8.0","","-16.1","","53","","","","5","","19","","56.3","","98.08","","","","-15","","NA"
"-139.84","67.57","OLD CROW A","2100801","2019-04-05 16:00","2019","04","05","16:00","-8.1","","-15.9","","54","","","","3","","22","","56.3","","98.00","","","","-16","","Clear"
"-139.84","67.57","OLD CROW A","2100801","2019-04-05 17:00","2019","04","05","17:00","-8.6","","-15.9","","56","","","","4","","22","","56.3","","97.93","","","","-16","","NA"
"-139.84","67.57","OLD CROW A","2100801","2019-04-05 18:00","2019","04","05","18:00"
"-139.84","67.57","OLD CROW A","2100801","2019-04-05 19:00","2019","04","05","19:00"
"-139.84","67.57","OLD CROW A","2100801","2019-04-05 20:00","2019","04","05","20:00"
"-139.84","67.57","OLD CROW A","2100801","2019-04-05 21:00","2019","04","05","21:00"
"-139.84","67.57","OLD CROW A","2100801","2019-04-05 22:00","2019","04","05","22:00"
"-139.84","67.57","OLD CROW A","2100801","2019-04-05 23:00","2019","04","05","23:00"
"-139.84","67.57","OLD CROW A","2100801","2019-04-06 00:00","2019","04","06","00:00"
"-139.84","67.57","OLD CROW A","2100801","2019-04-06 01:00","2019","04","06","01:00"
"-139.84","67.57","OLD CROW A","2100801","2019-04-06 02:00","2019","04","06","02:00"
"-139.84","67.57","OLD CROW A","2100801","2019-04-06 03:00","2019","04","06","03:00"
"-139.84","67.57","OLD CROW A","2100801","2019-04-06 04:00","2019","04","06","04:00"
"-139.84","67.57","OLD CROW A","2100801","2019-04-06 05:00","2019","04","06","05:00","-13.9","","-18.2","","70","","","","3","","14","","56.3","","97.52","","","","-21","","NA"
"-139.84","67.57","OLD CROW A","2100801","2019-04-06 06:00","2019","04","06","06:00","-13.4","","-17.8","","70","","","","6","","10","","56.3","","97.49","","","","-19","","NA"
"-139.84","67.57","OLD CROW A","2100801","2019-04-06 07:00","2019","04","06","07:00","-14.4","","-18.6","","71","","","","3","","12","","56.3","","97.49","","","","-21","","Mainly Clear"
"-139.84","67.57","OLD CROW A","2100801","2019-04-06 08:00","2019","04","06","08:00","-13.3","","-18.4","","66","","","","4","","14","","56.3","","97.48","","","","-21","","NA"
"-139.84","67.57","OLD CROW A","2100801","2019-04-06 09:00","2019","04","06","09:00","-11.1","","-17.7","","59","","","","5","","13","","56.3","","97.45","","","","-18","","NA"
"-139.84","67.57","OLD CROW A","2100801","2019-04-06 10:00","2019","04","06","10:00","-10.0","","-17.5","","55","","","","6","","14","","56.3","","97.40","","","","-16","","Mostly Cloudy"
"-139.84","67.57","OLD CROW A","2100801","2019-04-06 11:00","2019","04","06","11:00","-9.4","","-17.2","","54","","","","5","","15","","56.3","","97.39","","","","-16","","NA"
"-139.84","67.57","OLD CROW A","2100801","2019-04-06 12:00","2019","04","06","12:00","-9.1","","-17.3","","52","","","","6","","19","","56.3","","97.37","","","","-17","","NA"
"-139.84","67.57","OLD CROW A","2100801","2019-04-06 13:00","2019","04","06","13:00","-7.8","","-16.3","","51","","","","6","","20","","56.3","","97.33","","","","-15","","Cloudy"
"-139.84","67.57","OLD CROW A","2100801","2019-04-06 14:00","2019","04","06","14:00","-7.4","","-16.4","","49","","","","4","","24","","56.3","","97.28","","","","-15","","NA"
"-139.84","67.57","OLD CROW A","2100801","2019-04-06 15:00","2019","04","06","15:00"
"-139.84","67.57","OLD CROW A","2100801","2019-04-06 16:00","2019","04","06","16:00"
"-139.84","67.57","OLD CROW A","2100801","2019-04-06 17:00","2019","04","06","17:00"
"-139.84","67.57","OLD CROW A","2100801","2019-04-06 18:00","2019","04","06","18:00"
"-139.84","67.57","OLD CROW A","2100801","2019-04-06 19:00","2019","04","06","19:00"
"-139.84","67.57","OLD CROW A","2100801","2019-04-06 20:00","2019","04","06","20:00"
"-139.84","67.57","OLD CROW A","2100801","2019-04-06 21:00","2019","04","06","21:00"
"-139.84","67.57","OLD CROW A","2100801","2019-04-06 22:00","2019","04","06","22:00"
"-139.84","67.57","OLD CROW A","2100801","2019-04-06 23:00","2019","04","06","23:00"
"-139.84","67.57","OLD CROW A","2100801","2019-04-07 00:00","2019","04","07","00:00"
"-139.84","67.57","OLD CROW A","2100801","2019-04-07 01:00","2019","04","07","01:00"
"-139.84","67.57","OLD CROW A","2100801","2019-04-07 02:00","2019","04","07","02:00"
"-139.84","67.57","OLD CROW A","2100801","2019-04-07 03:00","2019","04","07","03:00"
"-139.84","67.57","OLD CROW A","2100801","2019-04-07 04:00","2019","04","07","04:00"
"-139.84","67.57","OLD CROW A","2100801","2019-04-07 05:00","2019","04","07","05:00","-14.5","","-18.5","","72","","","","10","","12","","56.3","","97.12","","","","-21","","NA"
"-139.84","67.57","OLD CROW A","2100801","2019-04-07 06:00","2019","04","07","06:00","-16.1","","-19.5","","75","","","","10","","13","","56.3","","97.12","","","","-24","","NA"
"-139.84","67.57","OLD CROW A","2100801","2019-04-07 07:00","2019","04","07","07:00","-15.6","","-19.7","","72","","","","10","","15","","56.3","","97.12","","","","-24","","Mostly Cloudy"
"-139.84","67.57","OLD CROW A","2100801","2019-04-07 08:00","2019","04","07","08:00","-14.1","","-18.9","","67","","","","11","","13","","56.3","","97.14","","","","-21","","NA"
"-139.84","67.57","OLD CROW A","2100801","2019-04-07 09:00","2019","04","07","09:00","-11.9","","-17.9","","61","","","","9","","11","","56.3","","97.15","","","","-18","","NA"
"-139.84","67.57","OLD CROW A","2100801","2019-04-07 10:00","2019","04","07","10:00","-8.8","","-16.4","","55","","","","5","","13","","56.3","","97.17","","","","-15","","Mainly Clear"
"-139.84","67.57","OLD CROW A","2100801","2019-04-07 11:00","2019","04","07","11:00","-8.4","","-15.9","","55","","","","3","","22","","56.3","","97.12","","","","-16","","NA"
"-139.84","67.57","OLD CROW A","2100801","2019-04-07 12:00","2019","04","07","12:00","-8.2","","-15.8","","55","","","","3","","24","","56.3","","97.14","","","","-16","","NA"
"-139.84","67.57","OLD CROW A","2100801","2019-04-07 13:00","2019","04","07","13:00","-7.7","","-15.3","","55","","","","3","","25","","56.3","","97.16","","","","-16","","Clear"
"-139.84","67.57","OLD CROW A","2100801","2019-04-07 14:00","2019","04","07","14:00","-7.3","","-14.9","","55","","","","2","","25","","56.3","","97.15","","","","-15","","NA"
"-139.84","67.57","OLD CROW A","2100801","2019-04-07 15:00","2019","04","07","15:00","-6.8","","-14.5","","55","","","","4","","25","","56.3","","97.12","","","","-15","","NA"
"-139.84","67.57","OLD CROW A","2100801","2019-04-07 16:00","2019","04","07","16:00","-6.8","","-14.4","","55","","","","3","","27","","56.3","","97.12","","","","-15","","Cloudy"
"-139.84","67.57","OLD CROW A","2100801","2019-04-07 17:00","2019","04","07","17:00","-7.2","","-14.6","","56","","","","3","","25","","56.3","","97.13","","","","-15","","NA"
"-139.84","67.57","OLD CROW A","2100801","2019-04-07 18:00","2019","04","07","18:00"
"-139.84","67.57","OLD CROW A","2100801","2019-04-07 19:00","2019","04","07","19:00"
"-139.84","67.57","OLD CROW A","2100801","2019-04-07 20:00","2019","04","07","20:00"
"-139.84","67.57","OLD CROW A","2100801","2019-04-07 21:00","2019","04","07","21:00"
"-139.84","67.57","OLD CROW A","2100801","2019-04-07 22:00","2019","04","07","22:00"
"-139.84","67.57","OLD CROW A","2100801","2019-04-07 23:00","2019","04","07","23:00"
"-139.84","67.57","OLD CROW A","2100801","2019-04-08 00:00","2019","04","08","00:00"
"-139.84","67.57","OLD CROW A","2100801","2019-04-08 01:00","2019","04","08","01:00"
"-139.84","67.57","OLD CROW A","2100801","2019-04-08 02:00","2019","04","08","02:00"
"-139.84","67.57","OLD CROW A","2100801","2019-04-08 03:00","2019","04","08","03:00"
"-139.84","67.57","OLD CROW A","2100801","2019-04-08 04:00","2019","04","08","04:00"
"-139.84","67.57","OLD CROW A","2100801","2019-04-08 05:00","2019","04","08","05:00","-18.1","","-20.4","","83","","","","36","","1","","56.3","","97.25","","","","-19","","NA"
"-139.84","67.57","OLD CROW A","2100801","2019-04-08 06:00","2019","04","08","06:00","-18.6","","-21.0","","82","","","","36","","2","","56.3","","97.27","","","","-20","","NA"
"-139.84","67.57","OLD CROW A","2100801","2019-04-08 07:00","2019","04","08","07:00","-18.6","","-21.2","","80","","","","26","","3","","56.3","","97.30","","","","-21","","Mainly Clear"
"-139.84","67.57","OLD CROW A","2100801","2019-04-08 08:00","2019","04","08","08:00","-17.4","","-20.9","","75","","","","22","","4","","56.3","","97.32","","","","-21","","NA"
"-139.84","67.57","OLD CROW A","2100801","2019-04-08 09:00","2019","04","08","09:00","-15.4","","-19.8","","69","","","","25","","5","","56.3","","97.33","","","","-19","","NA"
"-139.84","67.57","OLD CROW A","2100801","2019-04-08 10:00","2019","04","08","10:00","-13.6","","-19.2","","63","","","","24","","5","","56.3","","97.35","","","","-17","","Mostly Cloudy"
"-139.84","67.57","OLD CROW A","2100801","2019-04-08 11:00","2019","04","08","11:00","-11.9","","-17.7","","62","","","","26","","8","","56.3","","97.34","","","","-17","","NA"
"-139.84","67.57","OLD CROW A","2100801","2019-04-08 12:00","2019","04","08","12:00","-9.5","","-14.6","","67","","","","4","","20","","56.3","","97.36","","","","-17","","NA"
"-139.84","67.57","OLD CROW A","2100801","2019-04-08 13:00","2019","04","08","13:00","-9.3","","-15.0","","64","","","","5","","17","","56.3","","97.37","","","","-16","","Mostly Cloudy"
"-139.84","67.57","OLD CROW A","2100801","2019-04-08 14:00","2019","04","08","14:00","-10.3","","-16.2","","63","","","","3","","26","","56.3","","97.41","","","","-19","","NA"
"-139.84","67.57","OLD CROW A","2100801","2019-04-08 15:00","2019","04","08","15:00","-10.4","","-16.3","","62","","","","5","","18","","56.3","","97.45","","","","-18","","NA"
"-139.84","67.57","OLD CROW A","2100801","2019-04-08 16:00","2019","04","08","16:00","-10.4","","-16.3","","63","","","","2","","27","","56.3","","97.49","","","","-20","","Mostly Cloudy"
"-139.84","67.57","OLD CROW A","2100801","2019-04-08 17:00","2019","04","08","17:00","-10.5","","-16.1","","64","","","","2","","27","","56.3","","97.50","","","","-20","","NA"
"-139.84","67.57","OLD CROW A","2100801","2019-04-08 18:00","2019","04","08","18:00"
"-139.84","67.57","OLD CROW A","2100801","2019-04-08 19:00","2019","04","08","19:00"
"-139.84","67.57","OLD CROW A","2100801","2019-04-08 20:00","2019","04","08","20:00"
"-139.84","67.57","OLD CROW A","2100801","2019-04-08 21:00","2019","04","08","21:00"
"-139.84","67.57","OLD CROW A","2100801","2019-04-08 22:00","2019","04","08","22:00"
"-139.84","67.57","OLD CROW A","2100801","2019-04-08 23:00","2019","04","08","23:00"
"-139.84","67.57","OLD CROW A","2100801","2019-04-09 00:00","2019","04","09","00:00"
"-139.84","67.57","OLD CROW A","2100801","2019-04-09 01:00","2019","04","09","01:00"
"-139.84","67.57","OLD CROW A","2100801","2019-04-09 02:00","2019","04","09","02:00"
"-139.84","67.57","OLD CROW A","2100801","2019-04-09 03:00","2019","04","09","03:00"
"-139.84","67.57","OLD CROW A","2100801","2019-04-09 04:00","2019","04","09","04:00"
"-139.84","67.57","OLD CROW A","2100801","2019-04-09 05:00","2019","04","09","05:00","-11.8","","-15.9","","72","","","","6","","21","","32.2","","97.89","","","","-20","","Snow"
"-139.84","67.57","OLD CROW A","2100801","2019-04-09 06:00","2019","04","09","06:00","-12.1","","-15.8","","74","","","","6","","21","","32.2","","97.95","","","","-21","","Snow"
"-139.84","67.57","OLD CROW A","2100801","2019-04-09 07:00","2019","04","09","07:00","-11.8","","-15.9","","72","","","","5","","23","","40.2","","97.97","","","","-21","","Cloudy"
"-139.84","67.57","OLD CROW A","2100801","2019-04-09 08:00","2019","04","09","08:00","-11.2","","-15.7","","70","","","","6","","28","","40.2","","97.98","","","","-21","","NA"
"-139.84","67.57","OLD CROW A","2100801","2019-04-09 09:00","2019","04","09","09:00","-10.9","","-15.7","","68","","","","5","","22","","40.2","","98.00","","","","-19","","NA"
"-139.84","67.57","OLD CROW A","2100801","2019-04-09 10:00","2019","04","09","10:00","-10.2","","-15.3","","66","","","","2","","24","","40.2","","98.01","","","","-19","","Snow"
"-139.84","67.57","OLD CROW A","2100801","2019-04-09 11:00","2019","04","09","11:00","-8.7","","-14.2","","65","","","","2","","20","","24.1","","98.03","","","","-16","","Snow"
"-139.84","67.57","OLD CROW A","2100801","2019-04-09 12:00","2019","04","09","12:00","-8.5","","-14.2","","64","","","","3","","19","","56.3","","98.06","","","","-16","","NA"
"-139.84","67.57","OLD CROW A","2100801","2019-04-09 13:00","2019","04","09","13:00","-8.5","","-14.1","","64","","","","2","","22","","56.3","","98.10","","","","-16","","Cloudy"
"-139.84","67.57","OLD CROW A","2100801","2019-04-09 14:00","2019","04","09","14:00","-8.8","","-14.5","","64","","","","2","","27","","56.3","","98.13","","","","-18","","NA"
"-139.84","67.57","OLD CROW A","2100801","2019-04-09 15:00","2019","04","09","15:00","-8.4","","-13.9","","65","","","","3","","22","","56.3","","98.17","","","","-16","","NA"
"-139.84","67.57","OLD CROW A","2100801","2019-04-09 16:00","2019","04","09","16:00","-8.2","","-13.6","","65","","","","5","","19","","56.3","","98.21","","","","-15","","Cloudy"
"-139.84","67.57","OLD CROW A","2100801","2019-04-09 17:00","2019","04","09","17:00","-8.6","","-13.8","","66","","","","4","","19","","56.3","","98.23","","","","-16","","NA"
"-139.84","67.57","OLD CROW A","2100801","2019-04-09 18:00","2019","04","09","18:00"
"-139.84","67.57","OLD CROW A","2100801","2019-04-09 19:00","2019","04","09","19:00"
"-139.84","67.57","OLD CROW A","2100801","2019-04-09 20:00","2019","04","09","20:00"
"-139.84","67.57","OLD CROW A","2100801","2019-04-09 21:00","2019","04","09","21:00"
"-139.84","67.57","OLD CROW A","2100801","2019-04-09 22:00","2019","04","09","22:00"
"-139.84","67.57","OLD CROW A","2100801","2019-04-09 23:00","2019","04","09","23:00"
"-139.84","67.57","OLD CROW A","2100801","2019-04-10 00:00","2019","04","10","00:00"
"-139.84","67.57","OLD CROW A","2100801","2019-04-10 01:00","2019","04","10","01:00"
"-139.84","67.57","OLD CROW A","2100801","2019-04-10 02:00","2019","04","10","02:00"
"-139.84","67.57","OLD CROW A","2100801","2019-04-10 03:00","2019","04","10","03:00"
"-139.84","67.57","OLD CROW A","2100801","2019-04-10 04:00","2019","04","10","04:00"
"-139.84","67.57","OLD CROW A","2100801","2019-04-10 05:00","2019","04","10","05:00","-11.8","","-14.9","","78","","","","7","","4","","56.3","","98.59","","","","-14","","NA"
"-139.84","67.57","OLD CROW A","2100801","2019-04-10 06:00","2019","04","10","06:00","-11.8","","-14.9","","78","","","","36","","1","","56.3","","98.60","","","","-12","","NA"
"-139.84","67.57","OLD CROW A","2100801","2019-04-10 07:00","2019","04","10","07:00","-11.6","","-14.8","","77","","","","13","","4","","56.3","","98.61","","","","-14","","Mostly Cloudy"
"-139.84","67.57","OLD CROW A","2100801","2019-04-10 08:00","2019","04","10","08:00","-10.9","","-14.5","","75","","","","11","","4","","56.3","","98.64","","","","-13","","NA"
"-139.84","67.57","OLD CROW A","2100801","2019-04-10 09:00","2019","04","10","09:00","-10.4","","-13.9","","76","","","","13","","3","","24.1","","98.66","","","","-12","","Snow"
"-139.84","67.57","OLD CROW A","2100801","2019-04-10 10:00","2019","04","10","10:00","-9.4","","-12.6","","77","","","","25","","3","","24.1","","98.67","","","","-11","","Cloudy"
"-139.84","67.57","OLD CROW A","2100801","2019-04-10 11:00","2019","04","10","11:00","-7.8","","-12.5","","70","","","","8","","11","","56.3","","98.68","","","","-13","","NA"
"-139.84","67.57","OLD CROW A","2100801","2019-04-10 12:00","2019","04","10","12:00","-7.4","","-12.2","","68","","","","9","","10","","56.3","","98.68","","","","-12","","NA"
"-139.84","67.57","OLD CROW A","2100801","2019-04-10 13:00","2019","04","10","13:00","-6.3","","-11.5","","67","","","","9","","9","","56.3","","98.68","","","","-11","","Cloudy"
"-139.84","67.57","OLD CROW A","2100801","2019-04-10 14:00","2019","04","10","14:00"
"-139.84","67.57","OLD CROW A","2100801","2019-04-10 15:00","2019","04","10","15:00"
"-139.84","67.57","OLD CROW A","2100801","2019-04-10 16:00","2019","04","10","16:00"
"-139.84","67.57","OLD CROW A","2100801","2019-04-10 17:00","2019","04","10","17:00"
"-139.84","67.57","OLD CROW A","2100801","2019-04-10 18:00","2019","04","10","18:00"
"-139.84","67.57","OLD CROW A","2100801","2019-04-10 19:00","2019","04","10","19:00"
"-139.84","67.57","OLD CROW A","2100801","2019-04-10 20:00","2019","04","10","20:00"
"-139.84","67.57","OLD CROW A","2100801","2019-04-10 21:00","2019","04","10","21:00"
"-139.84","67.57","OLD CROW A","2100801","2019-04-10 22:00","2019","04","10","22:00"
"-139.84","67.57","OLD CROW A","2100801","2019-04-10 23:00","2019","04","10","23:00"
"-139.84","67.57","OLD CROW A","2100801","2019-04-11 00:00","2019","04","11","00:00"
"-139.84","67.57","OLD CROW A","2100801","2019-04-11 01:00","2019","04","11","01:00"
"-139.84","67.57","OLD CROW A","2100801","2019-04-11 02:00","2019","04","11","02:00"
"-139.84","67.57","OLD CROW A","2100801","2019-04-11 03:00","2019","04","11","03:00"
"-139.84","67.57","OLD CROW A","2100801","2019-04-11 04:00","2019","04","11","04:00"
"-139.84","67.57","OLD CROW A","2100801","2019-04-11 05:00","2019","04","11","05:00","-5.4","","-7.8","","83","","","","10","","5","","32.2","","98.67","","","","-8","","NA"
"-139.84","67.57","OLD CROW A","2100801","2019-04-11 06:00","2019","04","11","06:00","-4.8","","-7.5","","82","","","","3","","14","","32.2","","98.64","","","","-10","","NA"
"-139.84","67.57","OLD CROW A","2100801","2019-04-11 07:00","2019","04","11","07:00","-4.4","","-7.2","","81","","","","4","","17","","32.2","","98.58","","","","-10","","Cloudy"
"-139.84","67.57","OLD CROW A","2100801","2019-04-11 08:00","2019","04","11","08:00","-3.8","","-6.9","","79","","","","7","","13","","40.2","","98.55","","","","-9","","NA"
"-139.84","67.57","OLD CROW A","2100801","2019-04-11 09:00","2019","04","11","09:00","-3.6","","-6.8","","78","","","","6","","17","","40.2","","98.50","","","","-9","","NA"
"-139.84","67.57","OLD CROW A","2100801","2019-04-11 10:00","2019","04","11","10:00","-3.4","","-6.8","","77","","","","6","","17","","40.2","","98.46","","","","-9","","Cloudy"
"-139.84","67.57","OLD CROW A","2100801","2019-04-11 11:00","2019","04","11","11:00","-2.8","","-6.0","","78","","","","4","","16","","56.3","","98.41","","","","-8","","NA"
"-139.84","67.57","OLD CROW A","2100801","2019-04-11 12:00","2019","04","11","12:00","-2.8","","-6.1","","78","","","","4","","22","","56.3","","98.36","","","","-9","","NA"
"-139.84","67.57","OLD CROW A","2100801","2019-04-11 13:00","2019","04","11","13:00","-2.6","","-6.3","","76","","","","3","","25","","56.3","","98.30","","","","-9","","Mostly Cloudy"
"-139.84","67.57","OLD CROW A","2100801","2019-04-11 14:00","2019","04","11","14:00","-1.7","","-6.0","","73","","","","2","","28","","56.3","","98.21","","","","-8","","NA"
"-139.84","67.57","OLD CROW A","2100801","2019-04-11 15:00","2019","04","11","15:00","-2.1","","-6.3","","73","","","","2","","32","","56.3","","98.11","","","","-9","","NA"
"-139.84","67.57","OLD CROW A","2100801","2019-04-11 16:00","2019","04","11","16:00","-2.8","","-6.7","","75","","","","2","","30","","56.3","","98.06","","","","-10","","Mainly Clear"
"-139.84","67.57","OLD CROW A","2100801","2019-04-11 17:00","2019","04","11","17:00","-3.2","","-6.9","","76","","","","4","","27","","56.3","","97.98","","","","-10","","NA"
"-139.84","67.57","OLD CROW A","2100801","2019-04-11 18:00","2019","04","11","18:00"
"-139.84","67.57","OLD CROW A","2100801","2019-04-11 19:00","2019","04","11","19:00"
"-139.84","67.57","OLD CROW A","2100801","2019-04-11 20:00","2019","04","11","20:00"
"-139.84","67.57","OLD CROW A","2100801","2019-04-11 21:00","2019","04","11","21:00"
"-139.84","67.57","OLD CROW A","2100801","2019-04-11 22:00","2019","04","11","22:00"
"-139.84","67.57","OLD CROW A","2100801","2019-04-11 23:00","2019","04","11","23:00"
"-139.84","67.57","OLD CROW A","2100801","2019-04-12 00:00","2019","04","12","00:00"
"-139.84","67.57","OLD CROW A","2100801","2019-04-12 01:00","2019","04","12","01:00"
"-139.84","67.57","OLD CROW A","2100801","2019-04-12 02:00","2019","04","12","02:00"
"-139.84","67.57","OLD CROW A","2100801","2019-04-12 03:00","2019","04","12","03:00"
"-139.84","67.57","OLD CROW A","2100801","2019-04-12 04:00","2019","04","12","04:00"
"-139.84","67.57","OLD CROW A","2100801","2019-04-12 05:00","2019","04","12","05:00","-9.8","","-13.6","","74","","","","3","","26","","48.3","","97.63","","","","-19","","Blowing Snow"
"-139.84","67.57","OLD CROW A","2100801","2019-04-12 06:00","2019","04","12","06:00","-9.8","","-13.7","","74","","","","5","","24","","56.3","","97.63","","","","-18","","Blowing Snow"
"-139.84","67.57","OLD CROW A","2100801","2019-04-12 07:00","2019","04","12","07:00","-9.4","","-13.3","","73","","","","3","","27","","56.3","","97.61","","","","-18","","Blowing Snow"
"-139.84","67.57","OLD CROW A","2100801","2019-04-12 08:00","2019","04","12","08:00","-9.3","","-13.4","","72","","","","3","","33","","56.3","","97.62","","","","-19","","Blowing Snow"
"-139.84","67.57","OLD CROW A","2100801","2019-04-12 09:00","2019","04","12","09:00","-8.6","","-13.2","","70","","","","4","","30","","56.3","","97.62","","","","-18","","Blowing Snow"
"-139.84","67.57","OLD CROW A","2100801","2019-04-12 10:00","2019","04","12","10:00","-7.9","","-12.9","","68","","","","6","","28","","56.3","","97.59","","","","-17","","Mostly Cloudy"
"-139.84","67.57","OLD CROW A","2100801","2019-04-12 11:00","2019","04","12","11:00","-6.8","","-12.1","","66","","","","7","","23","","56.3","","97.59","","","","-14","","Snow"
"-139.84","67.57","OLD CROW A","2100801","2019-04-12 12:00","2019","04","12","12:00","-5.7","","-11.2","","66","","","","4","","23","","56.3","","97.60","","","","-13","","NA"
"-139.84","67.57","OLD CROW A","2100801","2019-04-12 13:00","2019","04","12","13:00","-5.1","","-10.8","","65","","","","3","","27","","56.3","","97.54","","","","-13","","Cloudy"
"-139.84","67.57","OLD CROW A","2100801","2019-04-12 14:00","2019","04","12","14:00","-5.1","","-10.5","","66","","","","3","","19","","56.3","","97.58","","","","-12","","NA"
"-139.84","67.57","OLD CROW A","2100801","2019-04-12 15:00","2019","04","12","15:00","-5.1","","-10.6","","66","","","","2","","30","","56.3","","97.55","","","","-13","","NA"
"-139.84","67.57","OLD CROW A","2100801","2019-04-12 16:00","2019","04","12","16:00","-4.5","","-9.8","","67","","","","2","","33","","56.3","","97.50","","","","-13","","Cloudy"
"-139.84","67.57","OLD CROW A","2100801","2019-04-12 17:00","2019","04","12","17:00","-4.2","","-9.1","","69","","","","3","","26","","56.3","","97.50","","","","-11","","NA"
"-139.84","67.57","OLD CROW A","2100801","2019-04-12 18:00","2019","04","12","18:00"
"-139.84","67.57","OLD CROW A","2100801","2019-04-12 19:00","2019","04","12","19:00"
"-139.84","67.57","OLD CROW A","2100801","2019-04-12 20:00","2019","04","12","20:00"
"-139.84","67.57","OLD CROW A","2100801","2019-04-12 21:00","2019","04","12","21:00"
"-139.84","67.57","OLD CROW A","2100801","2019-04-12 22:00","2019","04","12","22:00"
"-139.84","67.57","OLD CROW A","2100801","2019-04-12 23:00","2019","04","12","23:00"
"-139.84","67.57","OLD CROW A","2100801","2019-04-13 00:00","2019","04","13","00:00"
"-139.84","67.57","OLD CROW A","2100801","2019-04-13 01:00","2019","04","13","01:00"
"-139.84","67.57","OLD CROW A","2100801","2019-04-13 02:00","2019","04","13","02:00"
"-139.84","67.57","OLD CROW A","2100801","2019-04-13 03:00","2019","04","13","03:00"
"-139.84","67.57","OLD CROW A","2100801","2019-04-13 04:00","2019","04","13","04:00"
"-139.84","67.57","OLD CROW A","2100801","2019-04-13 05:00","2019","04","13","05:00","-11.9","","-14.1","","84","","","","8","","5","","14.5","","97.56","","","","-15","","Snow"
"-139.84","67.57","OLD CROW A","2100801","2019-04-13 06:00","2019","04","13","06:00","-12.6","","-15.1","","82","","","","7","","8","","24.1","","97.56","","","","-18","","NA"
"-139.84","67.57","OLD CROW A","2100801","2019-04-13 07:00","2019","04","13","07:00","-12.4","","-14.9","","82","","","","7","","3","","32.2","","97.56","","","","-14","","Mostly Cloudy"
"-139.84","67.57","OLD CROW A","2100801","2019-04-13 08:00","2019","04","13","08:00","-12.0","","-14.4","","82","","","","27","","4","","48.3","","97.57","","","","-15","","NA"
"-139.84","67.57","OLD CROW A","2100801","2019-04-13 09:00","2019","04","13","09:00","-9.9","","-13.3","","77","","","","27","","4","","48.3","","97.55","","","","-12","","NA"
"-139.84","67.57","OLD CROW A","2100801","2019-04-13 10:00","2019","04","13","10:00","-5.8","","-10.0","","73","","","","7","","10","","16.1","","97.54","","","","-10","","Snow"
"-139.84","67.57","OLD CROW A","2100801","2019-04-13 11:00","2019","04","13","11:00","-5.4","","-9.9","","70","","","","7","","17","","24.1","","97.56","","","","-11","","Snow"
"-139.84","67.57","OLD CROW A","2100801","2019-04-13 12:00","2019","04","13","12:00","-4.8","","-9.7","","68","","","","3","","19","","40.2","","97.57","","","","-11","","NA"
"-139.84","67.57","OLD CROW A","2100801","2019-04-13 13:00","2019","04","13","13:00","-4.4","","-9.2","","69","","","","3","","18","","40.2","","97.57","","","","-10","","Mostly Cloudy"
"-139.84","67.57","OLD CROW A","2100801","2019-04-13 14:00","2019","04","13","14:00","-3.7","","-9.1","","66","","","","3","","22","","40.2","","97.58","","","","-10","","NA"
"-139.84","67.57","OLD CROW A","2100801","2019-04-13 15:00","2019","04","13","15:00","-3.1","","-8.7","","66","","","","4","","17","","56.3","","97.60","","","","-9","","NA"
"-139.84","67.57","OLD CROW A","2100801","2019-04-13 16:00","2019","04","13","16:00","-3.2","","-8.8","","66","","","","2","","20","","56.3","","97.58","","","","-9","","Mostly Cloudy"
"-139.84","67.57","OLD CROW A","2100801","2019-04-13 17:00","2019","04","13","17:00","-3.2","","-8.7","","66","","","","3","","20","","56.3","","97.59","","","","-9","","NA"
"-139.84","67.57","OLD CROW A","2100801","2019-04-13 18:00","2019","04","13","18:00"
"-139.84","67.57","OLD CROW A","2100801","2019-04-13 19:00","2019","04","13","19:00"
"-139.84","67.57","OLD CROW A","2100801","2019-04-13 20:00","2019","04","13","20:00"
"-139.84","67.57","OLD CROW A","2100801","2019-04-13 21:00","2019","04","13","21:00"
"-139.84","67.57","OLD CROW A","2100801","2019-04-13 22:00","2019","04","13","22:00"
"-139.84","67.57","OLD CROW A","2100801","2019-04-13 23:00","2019","04","13","23:00"
"-139.84","67.57","OLD CROW A","2100801","2019-04-14 00:00","2019","04","14","00:00"
"-139.84","67.57","OLD CROW A","2100801","2019-04-14 01:00","2019","04","14","01:00"
"-139.84","67.57","OLD CROW A","2100801","2019-04-14 02:00","2019","04","14","02:00"
"-139.84","67.57","OLD CROW A","2100801","2019-04-14 03:00","2019","04","14","03:00"
"-139.84","67.57","OLD CROW A","2100801","2019-04-14 04:00","2019","04","14","04:00"
"-139.84","67.57","OLD CROW A","2100801","2019-04-14 05:00","2019","04","14","05:00","-5.5","","-9.2","","75","","","","6","","14","","32.2","","97.81","","","","-11","","NA"
"-139.84","67.57","OLD CROW A","2100801","2019-04-14 06:00","2019","04","14","06:00","-5.6","","-9.4","","75","","","","5","","18","","40.2","","97.83","","","","-12","","NA"
"-139.84","67.57","OLD CROW A","2100801","2019-04-14 07:00","2019","04","14","07:00","-5.3","","-9.3","","74","","","","6","","14","","40.2","","97.84","","","","-11","","Cloudy"
"-139.84","67.57","OLD CROW A","2100801","2019-04-14 08:00","2019","04","14","08:00","-5.0","","-9.0","","74","","","","5","","14","","40.2","","97.84","","","","-10","","NA"
"-139.84","67.57","OLD CROW A","2100801","2019-04-14 09:00","2019","04","14","09:00","-4.5","","-8.9","","72","","","","6","","14","","48.3","","97.84","","","","-10","","NA"
"-139.84","67.57","OLD CROW A","2100801","2019-04-14 10:00","2019","04","14","10:00","-3.8","","-8.6","","70","","","","5","","12","","48.3","","97.84","","","","-8","","Mostly Cloudy"
"-139.84","67.57","OLD CROW A","2100801","2019-04-14 11:00","2019","04","14","11:00","-2.6","","-8.2","","66","","","","5","","12","","56.3","","97.83","","","","-7","","NA"
"-139.84","67.57","OLD CROW A","2100801","2019-04-14 12:00","2019","04","14","12:00","-1.6","","-7.5","","64","","","","4","","9","","56.3","","97.84","","","","-5","","NA"
"-139.84","67.57","OLD CROW A","2100801","2019-04-14 13:00","2019","04","14","13:00","-0.9","","-7.4","","62","","","","4","","11","","56.3","","97.85","","","","-5","","Mostly Cloudy"
"-139.84","67.57","OLD CROW A","2100801","2019-04-14 14:00","2019","04","14","14:00","0.1","","-6.9","","59","","","","13","","11","","56.3","","97.86","","","","","","NA"
"-139.84","67.57","OLD CROW A","2100801","2019-04-14 15:00","2019","04","14","15:00","0.3","","-7.2","","57","","","","10","","12","","56.3","","97.83","","","","","","NA"
"-139.84","67.57","OLD CROW A","2100801","2019-04-14 16:00","2019","04","14","16:00","0.5","","-7.5","","55","","","","9","","12","","56.3","","97.85","","","","","","Cloudy"
"-139.84","67.57","OLD CROW A","2100801","2019-04-14 17:00","2019","04","14","17:00","0.5","","-7.1","","57","","","","9","","8","","56.3","","97.82","","","","","","NA"
"-139.84","67.57","OLD CROW A","2100801","2019-04-14 18:00","2019","04","14","18:00"
"-139.84","67.57","OLD CROW A","2100801","2019-04-14 19:00","2019","04","14","19:00"
"-139.84","67.57","OLD CROW A","2100801","2019-04-14 20:00","2019","04","14","20:00"
"-139.84","67.57","OLD CROW A","2100801","2019-04-14 21:00","2019","04","14","21:00"
"-139.84","67.57","OLD CROW A","2100801","2019-04-14 22:00","2019","04","14","22:00"
"-139.84","67.57","OLD CROW A","2100801","2019-04-14 23:00","2019","04","14","23:00"
"-139.84","67.57","OLD CROW A","2100801","2019-04-15 00:00","2019","04","15","00:00"
"-139.84","67.57","OLD CROW A","2100801","2019-04-15 01:00","2019","04","15","01:00"
"-139.84","67.57","OLD CROW A","2100801","2019-04-15 02:00","2019","04","15","02:00"
"-139.84","67.57","OLD CROW A","2100801","2019-04-15 03:00","2019","04","15","03:00"
"-139.84","67.57","OLD CROW A","2100801","2019-04-15 04:00","2019","04","15","04:00"
"-139.84","67.57","OLD CROW A","2100801","2019-04-15 05:00","2019","04","15","05:00","-3.8","","-7.8","","74","","","","12","","4","","24.1","","97.79","","","","-5","","NA"
"-139.84","67.57","OLD CROW A","2100801","2019-04-15 06:00","2019","04","15","06:00","-3.9","","-7.9","","74","","","","10","","3","","56.3","","97.76","","","","-5","","NA"
"-139.84","67.57","OLD CROW A","2100801","2019-04-15 07:00","2019","04","15","07:00","-4.0","","-7.8","","75","","","","6","","5","","56.3","","97.75","","","","-6","","Cloudy"
"-139.84","67.57","OLD CROW A","2100801","2019-04-15 08:00","2019","04","15","08:00","-3.7","","-7.9","","73","","","","7","","7","","56.3","","97.73","","","","-7","","NA"
"-139.84","67.57","OLD CROW A","2100801","2019-04-15 09:00","2019","04","15","09:00","-3.2","","-7.7","","72","","","","9","","4","","56.3","","97.71","","","","-5","","NA"
"-139.84","67.57","OLD CROW A","2100801","2019-04-15 10:00","2019","04","15","10:00","-2.9","","-7.8","","69","","","","10","","3","","56.3","","97.70","","","","-4","","Cloudy"
"-139.84","67.57","OLD CROW A","2100801","2019-04-15 11:00","2019","04","15","11:00","-2.4","","-7.7","","67","","","","9","","5","","56.3","","97.67","","","","-4","","NA"
"-139.84","67.57","OLD CROW A","2100801","2019-04-15 12:00","2019","04","15","12:00","-1.9","","-7.5","","65","","","","8","","4","","56.3","","97.67","","","","-3","","NA"
"-139.84","67.57","OLD CROW A","2100801","2019-04-15 13:00","2019","04","15","13:00","-1.4","","-7.6","","63","","","","11","","3","","56.3","","97.65","","","","-2","","Cloudy"
"-139.84","67.57","OLD CROW A","2100801","2019-04-15 14:00","2019","04","15","14:00","-1.0","","-7.5","","62","","","","9","","3","","56.3","","97.63","","","","-2","","NA"
"-139.84","67.57","OLD CROW A","2100801","2019-04-15 15:00","2019","04","15","15:00","-0.2","","-7.4","","58","","","","24","","4","","56.3","","97.60","","","","-1","","NA"
"-139.84","67.57","OLD CROW A","2100801","2019-04-15 16:00","2019","04","15","16:00","-0.2","","-7.0","","60","","","","8","","5","","56.3","","97.56","","","","-2","","Cloudy"
"-139.84","67.57","OLD CROW A","2100801","2019-04-15 17:00","2019","04","15","17:00","-0.3","","-7.3","","59","","","","6","","5","","56.3","","97.53","","","","-2","","NA"
"-139.84","67.57","OLD CROW A","2100801","2019-04-15 18:00","2019","04","15","18:00"
"-139.84","67.57","OLD CROW A","2100801","2019-04-15 19:00","2019","04","15","19:00"
"-139.84","67.57","OLD CROW A","2100801","2019-04-15 20:00","2019","04","15","20:00"
"-139.84","67.57","OLD CROW A","2100801","2019-04-15 21:00","2019","04","15","21:00"
"-139.84","67.57","OLD CROW A","2100801","2019-04-15 22:00","2019","04","15","22:00"
"-139.84","67.57","OLD CROW A","2100801","2019-04-15 23:00","2019","04","15","23:00"
"-139.84","67.57","OLD CROW A","2100801","2019-04-16 00:00","2019","04","16","00:00"
"-139.84","67.57","OLD CROW A","2100801","2019-04-16 01:00","2019","04","16","01:00"
"-139.84","67.57","OLD CROW A","2100801","2019-04-16 02:00","2019","04","16","02:00"
"-139.84","67.57","OLD CROW A","2100801","2019-04-16 03:00","2019","04","16","03:00"
"-139.84","67.57","OLD CROW A","2100801","2019-04-16 04:00","2019","04","16","04:00"
"-139.84","67.57","OLD CROW A","2100801","2019-04-16 05:00","2019","04","16","05:00","-4.2","","-8.2","","74","","","","9","","7","","56.3","","97.32","","","","-7","","NA"
"-139.84","67.57","OLD CROW A","2100801","2019-04-16 06:00","2019","04","16","06:00","-4.5","","-8.3","","75","","","","7","","8","","56.3","","97.31","","","","-8","","NA"
"-139.84","67.57","OLD CROW A","2100801","2019-04-16 07:00","2019","04","16","07:00","-4.6","","-8.4","","75","","","","7","","13","","56.3","","97.28","","","","-10","","Mostly Cloudy"
"-139.84","67.57","OLD CROW A","2100801","2019-04-16 08:00","2019","04","16","08:00","-4.2","","-8.0","","75","","","","6","","10","","56.3","","97.27","","","","-8","","NA"
"-139.84","67.57","OLD CROW A","2100801","2019-04-16 09:00","2019","04","16","09:00","-4.0","","-8.0","","74","","","","6","","12","","56.3","","97.27","","","","-9","","NA"
"-139.84","67.57","OLD CROW A","2100801","2019-04-16 10:00","2019","04","16","10:00","-3.5","","-7.6","","73","","","","5","","12","","56.3","","97.27","","","","-8","","Mostly Cloudy"
"-139.84","67.57","OLD CROW A","2100801","2019-04-16 11:00","2019","04","16","11:00","-2.9","","-7.6","","70","","","","4","","12","","56.3","","97.26","","","","-7","","NA"
"-139.84","67.57","OLD CROW A","2100801","2019-04-16 12:00","2019","04","16","12:00","-2.4","","-7.1","","70","","","","5","","10","","56.3","","97.26","","","","-6","","NA"
"-139.84","67.57","OLD CROW A","2100801","2019-04-16 13:00","2019","04","16","13:00","-1.8","","-6.8","","69","","","","5","","20","","56.3","","97.27","","","","-8","","Mostly Cloudy"
"-139.84","67.57","OLD CROW A","2100801","2019-04-16 14:00","2019","04","16","14:00","-1.5","","-6.4","","69","","","","4","","20","","56.3","","97.28","","","","-7","","NA"
"-139.84","67.57","OLD CROW A","2100801","2019-04-16 15:00","2019","04","16","15:00","-1.4","","-6.7","","68","","","","5","","22","","56.3","","97.25","","","","-7","","NA"
"-139.84","67.57","OLD CROW A","2100801","2019-04-16 16:00","2019","04","16","16:00","-1.9","","-6.8","","69","","","","5","","26","","56.3","","97.25","","","","-8","","Clear"
"-139.84","67.57","OLD CROW A","2100801","2019-04-16 17:00","2019","04","16","17:00","-2.4","","-7.1","","70","","","","5","","27","","56.3","","97.25","","","","-9","","NA"
"-139.84","67.57","OLD CROW A","2100801","2019-04-16 18:00","2019","04","16","18:00"
"-139.84","67.57","OLD CROW A","2100801","2019-04-16 19:00","2019","04","16","19:00"
"-139.84","67.57","OLD CROW A","2100801","2019-04-16 20:00","2019","04","16","20:00"
"-139.84","67.57","OLD CROW A","2100801","2019-04-16 21:00","2019","04","16","21:00"
"-139.84","67.57","OLD CROW A","2100801","2019-04-16 22:00","2019","04","16","22:00"
"-139.84","67.57","OLD CROW A","2100801","2019-04-16 23:00","2019","04","16","23:00"
"-139.84","67.57","OLD CROW A","2100801","2019-04-17 00:00","2019","04","17","00:00"
"-139.84","67.57","OLD CROW A","2100801","2019-04-17 01:00","2019","04","17","01:00"
"-139.84","67.57","OLD CROW A","2100801","2019-04-17 02:00","2019","04","17","02:00"
"-139.84","67.57","OLD CROW A","2100801","2019-04-17 03:00","2019","04","17","03:00"
"-139.84","67.57","OLD CROW A","2100801","2019-04-17 04:00","2019","04","17","04:00"
"-139.84","67.57","OLD CROW A","2100801","2019-04-17 05:00","2019","04","17","05:00","-10.3","","-12.2","","86","","","","9","","9","","56.3","","97.41","","","","-15","","NA"
"-139.84","67.57","OLD CROW A","2100801","2019-04-17 06:00","2019","04","17","06:00","-8.5","","-11.3","","80","","","","7","","8","","56.3","","97.41","","","","-13","","NA"
"-139.84","67.57","OLD CROW A","2100801","2019-04-17 07:00","2019","04","17","07:00","-7.2","","-10.7","","76","","","","4","","17","","56.3","","97.41","","","","-14","","Mostly Cloudy"
"-139.84","67.57","OLD CROW A","2100801","2019-04-17 08:00","2019","04","17","08:00","-6.6","","-10.5","","74","","","","3","","18","","56.3","","97.43","","","","-13","","NA"
"-139.84","67.57","OLD CROW A","2100801","2019-04-17 09:00","2019","04","17","09:00","-5.6","","-10.2","","70","","","","3","","21","","56.3","","97.45","","","","-12","","NA"
"-139.84","67.57","OLD CROW A","2100801","2019-04-17 10:00","2019","04","17","10:00","-5.4","","-10.2","","69","","","","3","","18","","56.3","","97.43","","","","-12","","Mostly Cloudy"
"-139.84","67.57","OLD CROW A","2100801","2019-04-17 11:00","2019","04","17","11:00","-4.4","","-9.6","","67","","","","3","","23","","56.3","","97.45","","","","-11","","NA"
"-139.84","67.57","OLD CROW A","2100801","2019-04-17 12:00","2019","04","17","12:00","-3.2","","-8.9","","65","","","","3","","19","","56.3","","97.47","","","","-9","","NA"
"-139.84","67.57","OLD CROW A","2100801","2019-04-17 13:00","2019","04","17","13:00","-2.5","","-9.0","","61","","","","3","","21","","56.3","","97.46","","","","-9","","Mainly Clear"
"-139.84","67.57","OLD CROW A","2100801","2019-04-17 14:00","2019","04","17","14:00","-2.2","","-8.5","","62","","","","2","","23","","56.3","","97.47","","","","-8","","NA"
"-139.84","67.57","OLD CROW A","2100801","2019-04-17 15:00","2019","04","17","15:00","-1.6","","-8.0","","62","","","","3","","25","","56.3","","97.44","","","","-8","","NA"
"-139.84","67.57","OLD CROW A","2100801","2019-04-17 16:00","2019","04","17","16:00","-1.5","","-8.0","","62","","","","2","","21","","56.3","","97.42","","","","-7","","Mainly Clear"
"-139.84","67.57","OLD CROW A","2100801","2019-04-17 17:00","2019","04","17","17:00","-2.0","","-7.9","","64","","","","4","","23","","56.3","","97.40","","","","-8","","NA"
"-139.84","67.57","OLD CROW A","2100801","2019-04-17 18:00","2019","04","17","18:00"
"-139.84","67.57","OLD CROW A","2100801","2019-04-17 19:00","2019","04","17","19:00"
"-139.84","67.57","OLD CROW A","2100801","2019-04-17 20:00","2019","04","17","20:00"
"-139.84","67.57","OLD CROW A","2100801","2019-04-17 21:00","2019","04","17","21:00"
"-139.84","67.57","OLD CROW A","2100801","2019-04-17 22:00","2019","04","17","22:00"
"-139.84","67.57","OLD CROW A","2100801","2019-04-17 23:00","2019","04","17","23:00"
"-139.84","67.57","OLD CROW A","2100801","2019-04-18 00:00","2019","04","18","00:00"
"-139.84","67.57","OLD CROW A","2100801","2019-04-18 01:00","2019","04","18","01:00"
"-139.84","67.57","OLD CROW A","2100801","2019-04-18 02:00","2019","04","18","02:00"
"-139.84","67.57","OLD CROW A","2100801","2019-04-18 03:00","2019","04","18","03:00"
"-139.84","67.57","OLD CROW A","2100801","2019-04-18 04:00","2019","04","18","04:00"
"-139.84","67.57","OLD CROW A","2100801","2019-04-18 05:00","2019","04","18","05:00","-9.6","","-12.5","","80","","","","4","","21","","16.1","","97.38","","","","-18","","Snow"
"-139.84","67.57","OLD CROW A","2100801","2019-04-18 06:00","2019","04","18","06:00","-9.7","","-12.5","","80","","","","3","","28","","24.1","","97.37","","","","-19","","Snow"
"-139.84","67.57","OLD CROW A","2100801","2019-04-18 07:00","2019","04","18","07:00","-9.3","","-12.6","","77","","","","4","","37","","24.1","","97.39","","","","-19","","Snow"
"-139.84","67.57","OLD CROW A","2100801","2019-04-18 08:00","2019","04","18","08:00","-8.6","","-12.4","","74","","","","4","","29","","24.1","","97.35","","","","-18","","Snow"
"-139.84","67.57","OLD CROW A","2100801","2019-04-18 09:00","2019","04","18","09:00","-8.0","","-12.2","","72","","","","5","","34","","24.1","","97.33","","","","-17","","Ice Crystals"
"-139.84","67.57","OLD CROW A","2100801","2019-04-18 10:00","2019","04","18","10:00","-7.2","","-11.8","","70","","","","4","","29","","56.3","","97.37","","","","-16","","Ice Crystals"
"-139.84","67.57","OLD CROW A","2100801","2019-04-18 11:00","2019","04","18","11:00","-6.6","","-11.4","","69","","","","5","","44","","48.3","","97.30","","","","-17","","Blowing Snow"
"-139.84","67.57","OLD CROW A","2100801","2019-04-18 12:00","2019","04","18","12:00","-6.0","","-11.1","","67","","","","6","","34","","48.3","","97.33","","","","-15","","Blowing Snow"
"-139.84","67.57","OLD CROW A","2100801","2019-04-18 13:00","2019","04","18","13:00","-5.4","","-10.4","","68","","","","5","","37","","48.3","","97.32","","","","-14","","Blowing Snow"
"-139.84","67.57","OLD CROW A","2100801","2019-04-18 14:00","2019","04","18","14:00","-5.4","","-10.2","","69","","","","2","","24","","48.3","","97.33","","","","-13","","Blowing Snow"
"-139.84","67.57","OLD CROW A","2100801","2019-04-18 15:00","2019","04","18","15:00","-6.2","","-10.4","","72","","","","3","","39","","48.3","","97.29","","","","-16","","Blowing Snow"
"-139.84","67.57","OLD CROW A","2100801","2019-04-18 16:00","2019","04","18","16:00","-6.7","","-9.8","","79","","","","3","","28","","4.0","","97.31","","","","-15","","Snow,Blowing Snow"
"-139.84","67.57","OLD CROW A","2100801","2019-04-18 17:00","2019","04","18","17:00","-7.0","","-10.2","","78","","","","2","","33","","4.0","","97.26","","","","-16","","Snow,Blowing Snow"
"-139.84","67.57","OLD CROW A","2100801","2019-04-18 18:00","2019","04","18","18:00"
"-139.84","67.57","OLD CROW A","2100801","2019-04-18 19:00","2019","04","18","19:00"
"-139.84","67.57","OLD CROW A","2100801","2019-04-18 20:00","2019","04","18","20:00"
"-139.84","67.57","OLD CROW A","2100801","2019-04-18 21:00","2019","04","18","21:00"
"-139.84","67.57","OLD CROW A","2100801","2019-04-18 22:00","2019","04","18","22:00"
"-139.84","67.57","OLD CROW A","2100801","2019-04-18 23:00","2019","04","18","23:00"
"-139.84","67.57","OLD CROW A","2100801","2019-04-19 00:00","2019","04","19","00:00"
"-139.84","67.57","OLD CROW A","2100801","2019-04-19 01:00","2019","04","19","01:00"
"-139.84","67.57","OLD CROW A","2100801","2019-04-19 02:00","2019","04","19","02:00"
"-139.84","67.57","OLD CROW A","2100801","2019-04-19 03:00","2019","04","19","03:00"
"-139.84","67.57","OLD CROW A","2100801","2019-04-19 04:00","2019","04","19","04:00"
"-139.84","67.57","OLD CROW A","2100801","2019-04-19 05:00","2019","04","19","05:00","-8.3","","-11.6","","77","","","","1","","13","","8.1","","97.39","","","","-14","","Snow,Fog"
"-139.84","67.57","OLD CROW A","2100801","2019-04-19 06:00","2019","04","19","06:00","-8.3","","-11.5","","78","","","","8","","13","","4.8","","97.41","","","","-14","","Snow,Fog"
"-139.84","67.57","OLD CROW A","2100801","2019-04-19 07:00","2019","04","19","07:00","-8.1","","-11.3","","78","","","","8","","8","","4.8","","97.43","","","","-12","","Snow,Fog"
"-139.84","67.57","OLD CROW A","2100801","2019-04-19 08:00","2019","04","19","08:00","-8.1","","-12.1","","73","","","","6","","17","","6.4","","97.47","","","","-15","","Snow,Fog"
"-139.84","67.57","OLD CROW A","2100801","2019-04-19 09:00","2019","04","19","09:00","-7.5","","-11.7","","72","","","","6","","13","","8.1","","97.49","","","","-13","","Snow,Fog,Blowing Snow"
"-139.84","67.57","OLD CROW A","2100801","2019-04-19 10:00","2019","04","19","10:00","-7.3","","-11.6","","71","","","","3","","20","","32.2","","97.51","","","","-14","","Snow,Blowing Snow"
"-139.84","67.57","OLD CROW A","2100801","2019-04-19 11:00","2019","04","19","11:00","-7.0","","-10.9","","74","","","","4","","23","","3.2","","97.52","","","","-15","","Snow,Blowing Snow"
"-139.84","67.57","OLD CROW A","2100801","2019-04-19 12:00","2019","04","19","12:00","-5.9","","-10.4","","71","","","","4","","23","","32.2","","97.54","","","","-13","","Snow,Blowing Snow"
"-139.84","67.57","OLD CROW A","2100801","2019-04-19 13:00","2019","04","19","13:00","-4.9","","-10.1","","67","","","","3","","20","","40.2","","97.58","","","","-11","","Blowing Snow"
"-139.84","67.57","OLD CROW A","2100801","2019-04-19 14:00","2019","04","19","14:00","-4.1","","-9.6","","66","","","","3","","19","","40.2","","97.57","","","","-10","","NA"
"-139.84","67.57","OLD CROW A","2100801","2019-04-19 15:00","2019","04","19","15:00"
"-139.84","67.57","OLD CROW A","2100801","2019-04-19 16:00","2019","04","19","16:00"
"-139.84","67.57","OLD CROW A","2100801","2019-04-19 17:00","2019","04","19","17:00"
"-139.84","67.57","OLD CROW A","2100801","2019-04-19 18:00","2019","04","19","18:00"
"-139.84","67.57","OLD CROW A","2100801","2019-04-19 19:00","2019","04","19","19:00"
"-139.84","67.57","OLD CROW A","2100801","2019-04-19 20:00","2019","04","19","20:00"
"-139.84","67.57","OLD CROW A","2100801","2019-04-19 21:00","2019","04","19","21:00"
"-139.84","67.57","OLD CROW A","2100801","2019-04-19 22:00","2019","04","19","22:00"
"-139.84","67.57","OLD CROW A","2100801","2019-04-19 23:00","2019","04","19","23:00"
"-139.84","67.57","OLD CROW A","2100801","2019-04-20 00:00","2019","04","20","00:00"
"-139.84","67.57","OLD CROW A","2100801","2019-04-20 01:00","2019","04","20","01:00"
"-139.84","67.57","OLD CROW A","2100801","2019-04-20 02:00","2019","04","20","02:00"
"-139.84","67.57","OLD CROW A","2100801","2019-04-20 03:00","2019","04","20","03:00"
"-139.84","67.57","OLD CROW A","2100801","2019-04-20 04:00","2019","04","20","04:00"
"-139.84","67.57","OLD CROW A","2100801","2019-04-20 05:00","2019","04","20","05:00","-6.6","","-8.7","","86","","","","36","","2","","32.2","","97.82","","","","-8","","Snow"
"-139.84","67.57","OLD CROW A","2100801","2019-04-20 06:00","2019","04","20","06:00","-6.5","","-8.5","","86","","","","21","","4","","32.2","","97.83","","","","-8","","Snow"
"-139.84","67.57","OLD CROW A","2100801","2019-04-20 07:00","2019","04","20","07:00","-6.2","","-8.1","","86","","","","22","","4","","8.1","","97.83","","","","-8","","Snow,Fog"
"-139.84","67.57","OLD CROW A","2100801","2019-04-20 08:00","2019","04","20","08:00","-5.5","","-7.8","","84","","","","22","","5","","9.7","","97.84","","","","-8","","Snow,Fog"
"-139.84","67.57","OLD CROW A","2100801","2019-04-20 09:00","2019","04","20","09:00","-4.7","","-7.6","","80","","","","22","","5","","32.2","","97.84","","","","-7","","NA"
"-139.84","67.57","OLD CROW A","2100801","2019-04-20 10:00","2019","04","20","10:00","-3.8","","-7.4","","76","","","","23","","11","","56.3","","97.86","","","","-8","","Cloudy"
"-139.84","67.57","OLD CROW A","2100801","2019-04-20 11:00","2019","04","20","11:00","-2.1","","-6.1","","74","","","","24","","11","","56.3","","97.87","","","","-6","","NA"
"-139.84","67.57","OLD CROW A","2100801","2019-04-20 12:00","2019","04","20","12:00","-0.4","","-4.4","","74","","","","27","","20","","56.3","","97.87","","","","-6","","NA"
"-139.84","67.57","OLD CROW A","2100801","2019-04-20 13:00","2019","04","20","13:00","1.6","","-4.0","","66","","","","26","","7","","56.3","","97.87","","","","","","Mostly Cloudy"
"-139.84","67.57","OLD CROW A","2100801","2019-04-20 14:00","2019","04","20","14:00","3.5","","-4.5","","56","","","","19","","4","","56.3","","97.86","","","","","","NA"
"-139.84","67.57","OLD CROW A","2100801","2019-04-20 15:00","2019","04","20","15:00"
"-139.84","67.57","OLD CROW A","2100801","2019-04-20 16:00","2019","04","20","16:00"
"-139.84","67.57","OLD CROW A","2100801","2019-04-20 17:00","2019","04","20","17:00"
"-139.84","67.57","OLD CROW A","2100801","2019-04-20 18:00","2019","04","20","18:00"
"-139.84","67.57","OLD CROW A","2100801","2019-04-20 19:00","2019","04","20","19:00"
"-139.84","67.57","OLD CROW A","2100801","2019-04-20 20:00","2019","04","20","20:00"
"-139.84","67.57","OLD CROW A","2100801","2019-04-20 21:00","2019","04","20","21:00"
"-139.84","67.57","OLD CROW A","2100801","2019-04-20 22:00","2019","04","20","22:00"
"-139.84","67.57","OLD CROW A","2100801","2019-04-20 23:00","2019","04","20","23:00"
"-139.84","67.57","OLD CROW A","2100801","2019-04-21 00:00","2019","04","21","00:00"
"-139.84","67.57","OLD CROW A","2100801","2019-04-21 01:00","2019","04","21","01:00"
"-139.84","67.57","OLD CROW A","2100801","2019-04-21 02:00","2019","04","21","02:00"
"-139.84","67.57","OLD CROW A","2100801","2019-04-21 03:00","2019","04","21","03:00"
"-139.84","67.57","OLD CROW A","2100801","2019-04-21 04:00","2019","04","21","04:00"
"-139.84","67.57","OLD CROW A","2100801","2019-04-21 05:00","2019","04","21","05:00","-8.5","","-10.0","","89","","","","8","","3","","56.3","","97.86","","","","-10","","NA"
"-139.84","67.57","OLD CROW A","2100801","2019-04-21 06:00","2019","04","21","06:00","-9.6","","-10.8","","91","","","","0","","1","","56.3","","97.89","","","","-10","","NA"
"-139.84","67.57","OLD CROW A","2100801","2019-04-21 07:00","2019","04","21","07:00","-8.1","","-9.6","","89","","","","36","","2","","56.3","","97.88","","","","-9","","Mainly Clear"
"-139.84","67.57","OLD CROW A","2100801","2019-04-21 08:00","2019","04","21","08:00","-5.8","","-8.9","","79","","","","36","","1","","56.3","","97.84","","","","-6","","NA"
"-139.84","67.57","OLD CROW A","2100801","2019-04-21 09:00","2019","04","21","09:00","-2.1","","-7.4","","67","","","","6","","4","","56.3","","97.80","","","","-4","","NA"
"-139.84","67.57","OLD CROW A","2100801","2019-04-21 10:00","2019","04","21","10:00","1.4","","-7.2","","53","","","","7","","13","","56.3","","97.75","","","","","","Mostly Cloudy"
"-139.84","67.57","OLD CROW A","2100801","2019-04-21 11:00","2019","04","21","11:00","3.0","","-7.6","","46","","","","7","","12","","56.3","","97.72","","","","","","NA"
"-139.84","67.57","OLD CROW A","2100801","2019-04-21 12:00","2019","04","21","12:00","3.5","","-7.1","","46","","","","5","","14","","56.3","","97.69","","","","","","NA"
"-139.84","67.57","OLD CROW A","2100801","2019-04-21 13:00","2019","04","21","13:00","3.8","","-6.8","","46","","","","5","","15","","56.3","","97.66","","","","","","Mostly Cloudy"
"-139.84","67.57","OLD CROW A","2100801","2019-04-21 14:00","2019","04","21","14:00","3.3","","-6.0","","50","","","","4","","21","","56.3","","97.62","","","","","","NA"
"-139.84","67.57","OLD CROW A","2100801","2019-04-21 15:00","2019","04","21","15:00","3.5","","-6.2","","49","","","","4","","19","","56.3","","97.56","","","","","","NA"
"-139.84","67.57","OLD CROW A","2100801","2019-04-21 16:00","2019","04","21","16:00","3.3","","-6.4","","49","","","","3","","25","","56.3","","97.50","","","","","","Mostly Cloudy"
"-139.84","67.57","OLD CROW A","2100801","2019-04-21 17:00","2019","04","21","17:00","3.7","","-6.6","","47","","","","3","","22","","56.3","","97.46","","","","","","NA"
"-139.84","67.57","OLD CROW A","2100801","2019-04-21 18:00","2019","04","21","18:00"
"-139.84","67.57","OLD CROW A","2100801","2019-04-21 19:00","2019","04","21","19:00"
"-139.84","67.57","OLD CROW A","2100801","2019-04-21 20:00","2019","04","21","20:00"
"-139.84","67.57","OLD CROW A","2100801","2019-04-21 21:00","2019","04","21","21:00"
"-139.84","67.57","OLD CROW A","2100801","2019-04-21 22:00","2019","04","21","22:00"
"-139.84","67.57","OLD CROW A","2100801","2019-04-21 23:00","2019","04","21","23:00"
"-139.84","67.57","OLD CROW A","2100801","2019-04-22 00:00","2019","04","22","00:00"
"-139.84","67.57","OLD CROW A","2100801","2019-04-22 01:00","2019","04","22","01:00"
"-139.84","67.57","OLD CROW A","2100801","2019-04-22 02:00","2019","04","22","02:00"
"-139.84","67.57","OLD CROW A","2100801","2019-04-22 03:00","2019","04","22","03:00"
"-139.84","67.57","OLD CROW A","2100801","2019-04-22 04:00","2019","04","22","04:00"
"-139.84","67.57","OLD CROW A","2100801","2019-04-22 05:00","2019","04","22","05:00","0.3","","-7.2","","58","","","","5","","10","","56.3","","97.14","","","","","","NA"
"-139.84","67.57","OLD CROW A","2100801","2019-04-22 06:00","2019","04","22","06:00","-0.2","","-7.3","","59","","","","6","","14","","56.3","","97.11","","","","-4","","NA"
"-139.84","67.57","OLD CROW A","2100801","2019-04-22 07:00","2019","04","22","07:00","0.9","","-6.8","","56","","","","4","","17","","56.3","","97.06","","","","","","Mostly Cloudy"
"-139.84","67.57","OLD CROW A","2100801","2019-04-22 08:00","2019","04","22","08:00","1.4","","-6.8","","54","","","","6","","15","","56.3","","97.04","","","","","","NA"
"-139.84","67.57","OLD CROW A","2100801","2019-04-22 09:00","2019","04","22","09:00","2.5","","-6.3","","52","","","","2","","25","","56.3","","96.99","","","","","","NA"
"-139.84","67.57","OLD CROW A","2100801","2019-04-22 10:00","2019","04","22","10:00","3.1","","-6.4","","50","","","","3","","25","","56.3","","96.96","","","","","","Mostly Cloudy"
"-139.84","67.57","OLD CROW A","2100801","2019-04-22 11:00","2019","04","22","11:00","3.2","","-6.4","","49","","","","3","","28","","56.3","","96.91","","","","","","NA"
"-139.84","67.57","OLD CROW A","2100801","2019-04-22 12:00","2019","04","22","12:00","2.2","","-6.5","","53","","","","3","","30","","56.3","","96.89","","","","","","NA"
"-139.84","67.57","OLD CROW A","2100801","2019-04-22 13:00","2019","04","22","13:00","2.5","","-6.8","","51","","","","3","","28","","56.3","","96.87","","","","","","Mostly Cloudy"
"-139.84","67.57","OLD CROW A","2100801","2019-04-22 14:00","2019","04","22","14:00","2.9","","-6.0","","52","","","","3","","33","","56.3","","96.82","","","","","","NA"
"-139.84","67.57","OLD CROW A","2100801","2019-04-22 15:00","2019","04","22","15:00","2.6","","-5.5","","55","","","","2","","36","","56.3","","96.76","","","","","","NA"
"-139.84","67.57","OLD CROW A","2100801","2019-04-22 16:00","2019","04","22","16:00","1.4","","-4.6","","64","","","","2","","38","","56.3","","96.78","","","","","","Mostly Cloudy"
"-139.84","67.57","OLD CROW A","2100801","2019-04-22 17:00","2019","04","22","17:00","-1.2","","-6.3","","68","","","","3","","42","","56.3","","96.82","","","","-9","","NA"
"-139.84","67.57","OLD CROW A","2100801","2019-04-22 18:00","2019","04","22","18:00"
"-139.84","67.57","OLD CROW A","2100801","2019-04-22 19:00","2019","04","22","19:00"
"-139.84","67.57","OLD CROW A","2100801","2019-04-22 20:00","2019","04","22","20:00"
"-139.84","67.57","OLD CROW A","2100801","2019-04-22 21:00","2019","04","22","21:00"
"-139.84","67.57","OLD CROW A","2100801","2019-04-22 22:00","2019","04","22","22:00"
"-139.84","67.57","OLD CROW A","2100801","2019-04-22 23:00","2019","04","22","23:00"
"-139.84","67.57","OLD CROW A","2100801","2019-04-23 00:00","2019","04","23","00:00"
"-139.84","67.57","OLD CROW A","2100801","2019-04-23 01:00","2019","04","23","01:00"
"-139.84","67.57","OLD CROW A","2100801","2019-04-23 02:00","2019","04","23","02:00"
"-139.84","67.57","OLD CROW A","2100801","2019-04-23 03:00","2019","04","23","03:00"
"-139.84","67.57","OLD CROW A","2100801","2019-04-23 04:00","2019","04","23","04:00"
"-139.84","67.57","OLD CROW A","2100801","2019-04-23 05:00","2019","04","23","05:00","-6.3","","-9.6","","78","","","","4","","40","","32.2","","97.47","","","","-16","","Snow,Blowing Snow"
"-139.84","67.57","OLD CROW A","2100801","2019-04-23 06:00","2019","04","23","06:00","-6.5","","-9.7","","78","","","","2","","40","","16.1","","97.51","","","","-16","","Snow,Blowing Snow"
"-139.84","67.57","OLD CROW A","2100801","2019-04-23 07:00","2019","04","23","07:00","-6.8","","-10.1","","78","","","","4","","36","","6.4","","97.58","","","","-16","","Snow,Blowing Snow"
"-139.84","67.57","OLD CROW A","2100801","2019-04-23 08:00","2019","04","23","08:00","-6.7","","-10.3","","75","","","","4","","44","","4.0","","97.61","","","","-17","","Snow,Blowing Snow"
"-139.84","67.57","OLD CROW A","2100801","2019-04-23 09:00","2019","04","23","09:00","-6.8","","-10.7","","74","","","","4","","43","","4.0","","97.64","","","","-17","","Snow,Blowing Snow"
"-139.84","67.57","OLD CROW A","2100801","2019-04-23 10:00","2019","04","23","10:00","-7.3","","-10.9","","76","","","","4","","40","","3.2","","97.67","","","","-17","","Snow,Blowing Snow"
"-139.84","67.57","OLD CROW A","2100801","2019-04-23 11:00","2019","04","23","11:00","-7.2","","-10.6","","77","","","","4","","36","","3.2","","97.73","","","","-17","","Snow,Blowing Snow"
"-139.84","67.57","OLD CROW A","2100801","2019-04-23 12:00","2019","04","23","12:00","-7.0","","-10.4","","77","","","","4","","32","","3.2","","97.80","","","","-16","","Snow,Blowing Snow"
"-139.84","67.57","OLD CROW A","2100801","2019-04-23 13:00","2019","04","23","13:00","-7.2","","-10.4","","78","","","","4","","41","","3.2","","97.90","","","","-17","","Snow,Blowing Snow"
"-139.84","67.57","OLD CROW A","2100801","2019-04-23 14:00","2019","04","23","14:00","-7.2","","-10.5","","78","","","","3","","31","","3.2","","97.97","","","","-16","","Snow,Blowing Snow"
"-139.84","67.57","OLD CROW A","2100801","2019-04-23 15:00","2019","04","23","15:00","-7.6","","-10.6","","79","","","","4","","38","","2.4","","98.02","","","","-17","","Snow,Blowing Snow"
"-139.84","67.57","OLD CROW A","2100801","2019-04-23 16:00","2019","04","23","16:00","-7.7","","-10.7","","79","","","","3","","47","","2.0","","98.03","","","","-18","","Snow,Blowing Snow"
"-139.84","67.57","OLD CROW A","2100801","2019-04-23 17:00","2019","04","23","17:00","-7.2","","-10.4","","78","","","","3","","40","","2.0","","98.12","","","","-17","","Snow,Blowing Snow"
"-139.84","67.57","OLD CROW A","2100801","2019-04-23 18:00","2019","04","23","18:00"
"-139.84","67.57","OLD CROW A","2100801","2019-04-23 19:00","2019","04","23","19:00"
"-139.84","67.57","OLD CROW A","2100801","2019-04-23 20:00","2019","04","23","20:00"
"-139.84","67.57","OLD CROW A","2100801","2019-04-23 21:00","2019","04","23","21:00"
"-139.84","67.57","OLD CROW A","2100801","2019-04-23 22:00","2019","04","23","22:00"
"-139.84","67.57","OLD CROW A","2100801","2019-04-23 23:00","2019","04","23","23:00"
"-139.84","67.57","OLD CROW A","2100801","2019-04-24 00:00","2019","04","24","00:00"
"-139.84","67.57","OLD CROW A","2100801","2019-04-24 01:00","2019","04","24","01:00"
"-139.84","67.57","OLD CROW A","2100801","2019-04-24 02:00","2019","04","24","02:00"
"-139.84","67.57","OLD CROW A","2100801","2019-04-24 03:00","2019","04","24","03:00"
"-139.84","67.57","OLD CROW A","2100801","2019-04-24 04:00","2019","04","24","04:00"
"-139.84","67.57","OLD CROW A","2100801","2019-04-24 05:00","2019","04","24","05:00","-9.9","","-16.6","","59","","","","4","","39","","48.3","","99.05","","","","-21","","Blowing Snow"
"-139.84","67.57","OLD CROW A","2100801","2019-04-24 06:00","2019","04","24","06:00","-10.2","","-17.3","","57","","","","3","","26","","48.3","","99.15","","","","-19","","Blowing Snow"
"-139.84","67.57","OLD CROW A","2100801","2019-04-24 07:00","2019","04","24","07:00","-10.2","","-17.7","","55","","","","3","","31","","56.3","","99.19","","","","-20","","Mostly Cloudy"
"-139.84","67.57","OLD CROW A","2100801","2019-04-24 08:00","2019","04","24","08:00","-9.4","","-18.0","","50","","","","4","","34","","48.3","","99.29","","","","-19","","NA"
"-139.84","67.57","OLD CROW A","2100801","2019-04-24 09:00","2019","04","24","09:00","-8.9","","-17.9","","48","","","","3","","31","","48.3","","99.35","","","","-18","","NA"
"-139.84","67.57","OLD CROW A","2100801","2019-04-24 10:00","2019","04","24","10:00","-8.0","","-17.7","","46","","","","5","","34","","56.3","","99.43","","","","-17","","Mainly Clear"
"-139.84","67.57","OLD CROW A","2100801","2019-04-24 11:00","2019","04","24","11:00","-7.7","","-17.1","","47","","","","4","","35","","56.3","","99.48","","","","-17","","NA"
"-139.84","67.57","OLD CROW A","2100801","2019-04-24 12:00","2019","04","24","12:00","-7.2","","-15.6","","51","","","","2","","28","","56.3","","99.52","","","","-16","","NA"
"-139.84","67.57","OLD CROW A","2100801","2019-04-24 13:00","2019","04","24","13:00","-5.8","","-15.3","","47","","","","2","","26","","56.3","","99.55","","","","-14","","Mainly Clear"
"-139.84","67.57","OLD CROW A","2100801","2019-04-24 14:00","2019","04","24","14:00","-5.3","","-15.7","","44","","","","1","","26","","56.3","","99.57","","","","-13","","NA"
"-139.84","67.57","OLD CROW A","2100801","2019-04-24 15:00","2019","04","24","15:00","-4.3","","-15.0","","43","","","","1","","19","","56.3","","99.60","","","","-10","","NA"
"-139.84","67.57","OLD CROW A","2100801","2019-04-24 16:00","2019","04","24","16:00","-3.8","","-15.8","","39","","","","1","","19","","56.3","","99.60","","","","-10","","Mainly Clear"
"-139.84","67.57","OLD CROW A","2100801","2019-04-24 17:00","2019","04","24","17:00","-3.8","","-15.6","","40","","","","35","","17","","56.3","","99.61","","","","-10","","NA"
"-139.84","67.57","OLD CROW A","2100801","2019-04-24 18:00","2019","04","24","18:00"
"-139.84","67.57","OLD CROW A","2100801","2019-04-24 19:00","2019","04","24","19:00"
"-139.84","67.57","OLD CROW A","2100801","2019-04-24 20:00","2019","04","24","20:00"
"-139.84","67.57","OLD CROW A","2100801","2019-04-24 21:00","2019","04","24","21:00"
"-139.84","67.57","OLD CROW A","2100801","2019-04-24 22:00","2019","04","24","22:00"
"-139.84","67.57","OLD CROW A","2100801","2019-04-24 23:00","2019","04","24","23:00"
"-139.84","67.57","OLD CROW A","2100801","2019-04-25 00:00","2019","04","25","00:00"
"-139.84","67.57","OLD CROW A","2100801","2019-04-25 01:00","2019","04","25","01:00"
"-139.84","67.57","OLD CROW A","2100801","2019-04-25 02:00","2019","04","25","02:00"
"-139.84","67.57","OLD CROW A","2100801","2019-04-25 03:00","2019","04","25","03:00"
"-139.84","67.57","OLD CROW A","2100801","2019-04-25 04:00","2019","04","25","04:00"
"-139.84","67.57","OLD CROW A","2100801","2019-04-25 05:00","2019","04","25","05:00","-16.9","","-19.7","","79","","","","34","","4","","56.3","","99.73","","","","-20","","NA"
"-139.84","67.57","OLD CROW A","2100801","2019-04-25 06:00","2019","04","25","06:00","-17.0","","-19.8","","80","","","","36","","1","","56.3","","99.73","","","","-18","","NA"
"-139.84","67.57","OLD CROW A","2100801","2019-04-25 07:00","2019","04","25","07:00","-15.1","","-18.8","","74","","","","36","","1","","56.3","","99.73","","","","-16","","Mostly Cloudy"
"-139.84","67.57","OLD CROW A","2100801","2019-04-25 08:00","2019","04","25","08:00","-12.2","","-18.1","","62","","","","36","","3","","56.3","","99.72","","","","-14","","NA"
"-139.84","67.57","OLD CROW A","2100801","2019-04-25 09:00","2019","04","25","09:00","-9.5","","-17.2","","54","","","","36","","2","","56.3","","99.68","","","","-11","","NA"
"-139.84","67.57","OLD CROW A","2100801","2019-04-25 10:00","2019","04","25","10:00","-7.4","","-16.6","","48","","","","19","","3","","56.3","","99.66","","","","-9","","Clear"
"-139.84","67.57","OLD CROW A","2100801","2019-04-25 11:00","2019","04","25","11:00","-4.9","","-14.8","","46","","","","10","","10","","56.3","","99.65","","","","-9","","NA"
"-139.84","67.57","OLD CROW A","2100801","2019-04-25 12:00","2019","04","25","12:00","-4.1","","-14.8","","44","","","","6","","12","","56.3","","99.64","","","","-9","","NA"
"-139.84","67.57","OLD CROW A","2100801","2019-04-25 13:00","2019","04","25","13:00","-3.1","","-12.9","","47","","","","7","","10","","56.3","","99.64","","","","-7","","Clear"
"-139.84","67.57","OLD CROW A","2100801","2019-04-25 14:00","2019","04","25","14:00","-2.3","","-12.5","","46","","","","4","","13","","56.3","","99.62","","","","-7","","NA"
"-139.84","67.57","OLD CROW A","2100801","2019-04-25 15:00","2019","04","25","15:00","-1.9","","-13.0","","43","","","","4","","12","","56.3","","99.62","","","","-6","","NA"
"-139.84","67.57","OLD CROW A","2100801","2019-04-25 16:00","2019","04","25","16:00","-1.7","","-11.9","","46","","","","3","","13","","56.3","","99.61","","","","-6","","Clear"
"-139.84","67.57","OLD CROW A","2100801","2019-04-25 17:00","2019","04","25","17:00","-1.8","","-11.9","","46","","","","3","","13","","56.3","","99.59","","","","-6","","NA"
"-139.84","67.57","OLD CROW A","2100801","2019-04-25 18:00","2019","04","25","18:00"
"-139.84","67.57","OLD CROW A","2100801","2019-04-25 19:00","2019","04","25","19:00"
"-139.84","67.57","OLD CROW A","2100801","2019-04-25 20:00","2019","04","25","20:00"
"-139.84","67.57","OLD CROW A","2100801","2019-04-25 21:00","2019","04","25","21:00"
"-139.84","67.57","OLD CROW A","2100801","2019-04-25 22:00","2019","04","25","22:00"
"-139.84","67.57","OLD CROW A","2100801","2019-04-25 23:00","2019","04","25","23:00"
"-139.84","67.57","OLD CROW A","2100801","2019-04-26 00:00","2019","04","26","00:00"
"-139.84","67.57","OLD CROW A","2100801","2019-04-26 01:00","2019","04","26","01:00"
"-139.84","67.57","OLD CROW A","2100801","2019-04-26 02:00","2019","04","26","02:00"
"-139.84","67.57","OLD CROW A","2100801","2019-04-26 03:00","2019","04","26","03:00"
"-139.84","67.57","OLD CROW A","2100801","2019-04-26 04:00","2019","04","26","04:00"
"-139.84","67.57","OLD CROW A","2100801","2019-04-26 05:00","2019","04","26","05:00","-16.4","","-18.8","","82","","","","8","","3","","56.3","","99.80","","","","-19","","NA"
"-139.84","67.57","OLD CROW A","2100801","2019-04-26 06:00","2019","04","26","06:00","-15.7","","-18.4","","80","","","","26","","4","","56.3","","99.80","","","","-19","","NA"
"-139.84","67.57","OLD CROW A","2100801","2019-04-26 07:00","2019","04","26","07:00","-13.5","","-17.7","","71","","","","36","","3","","56.3","","99.80","","","","-16","","Mainly Clear"
"-139.84","67.57","OLD CROW A","2100801","2019-04-26 08:00","2019","04","26","08:00","-10.8","","-16.9","","61","","","","23","","3","","56.3","","99.81","","","","-13","","NA"
"-139.84","67.57","OLD CROW A","2100801","2019-04-26 09:00","2019","04","26","09:00","-8.6","","-15.3","","59","","","","23","","5","","56.3","","99.80","","","","-11","","NA"
"-139.84","67.57","OLD CROW A","2100801","2019-04-26 10:00","2019","04","26","10:00","-6.7","","-14.9","","52","","","","23","","4","","56.3","","99.80","","","","-9","","Clear"
"-139.84","67.57","OLD CROW A","2100801","2019-04-26 11:00","2019","04","26","11:00","-3.7","","-14.6","","43","","","","13","","7","","56.3","","99.79","","","","-7","","NA"
"-139.84","67.57","OLD CROW A","2100801","2019-04-26 12:00","2019","04","26","12:00","-2.5","","-12.9","","45","","","","10","","10","","56.3","","99.80","","","","-6","","NA"
"-139.84","67.57","OLD CROW A","2100801","2019-04-26 13:00","2019","04","26","13:00","-1.5","","-13.1","","41","","","","9","","15","","56.3","","99.81","","","","-6","","Clear"
"-139.84","67.57","OLD CROW A","2100801","2019-04-26 14:00","2019","04","26","14:00","-1.2","","-12.7","","41","","","","9","","12","","56.3","","99.82","","","","-5","","NA"
"-139.84","67.57","OLD CROW A","2100801","2019-04-26 15:00","2019","04","26","15:00","-0.8","","-13.5","","38","","","","9","","16","","56.3","","99.81","","","","-6","","NA"
"-139.84","67.57","OLD CROW A","2100801","2019-04-26 16:00","2019","04","26","16:00","-0.5","","-13.6","","37","","","","7","","18","","56.3","","99.81","","","","-6","","Clear"
"-139.84","67.57","OLD CROW A","2100801","2019-04-26 17:00","2019","04","26","17:00","-0.8","","-13.9","","37","","","","8","","14","","56.3","","99.80","","","","-5","","NA"
"-139.84","67.57","OLD CROW A","2100801","2019-04-26 18:00","2019","04","26","18:00"
"-139.84","67.57","OLD CROW A","2100801","2019-04-26 19:00","2019","04","26","19:00"
"-139.84","67.57","OLD CROW A","2100801","2019-04-26 20:00","2019","04","26","20:00"
"-139.84","67.57","OLD CROW A","2100801","2019-04-26 21:00","2019","04","26","21:00"
"-139.84","67.57","OLD CROW A","2100801","2019-04-26 22:00","2019","04","26","22:00"
"-139.84","67.57","OLD CROW A","2100801","2019-04-26 23:00","2019","04","26","23:00"
"-139.84","67.57","OLD CROW A","2100801","2019-04-27 00:00","2019","04","27","00:00"
"-139.84","67.57","OLD CROW A","2100801","2019-04-27 01:00","2019","04","27","01:00"
"-139.84","67.57","OLD CROW A","2100801","2019-04-27 02:00","2019","04","27","02:00"
"-139.84","67.57","OLD CROW A","2100801","2019-04-27 03:00","2019","04","27","03:00"
"-139.84","67.57","OLD CROW A","2100801","2019-04-27 04:00","2019","04","27","04:00"
"-139.84","67.57","OLD CROW A","2100801","2019-04-27 05:00","2019","04","27","05:00","-16.5","","-18.9","","82","","","","5","","3","","56.3","","100.06","","","","-19","","NA"
"-139.84","67.57","OLD CROW A","2100801","2019-04-27 06:00","2019","04","27","06:00","-16.0","","-18.9","","79","","","","36","","1","","56.3","","100.07","","","","-17","","NA"
"-139.84","67.57","OLD CROW A","2100801","2019-04-27 07:00","2019","04","27","07:00","-14.5","","-18.4","","73","","","","0","","1","","56.3","","100.09","","","","-15","","Clear"
"-139.84","67.57","OLD CROW A","2100801","2019-04-27 08:00","2019","04","27","08:00","-11.8","","-17.3","","64","","","","36","","3","","56.3","","100.12","","","","-14","","NA"
"-139.84","67.57","OLD CROW A","2100801","2019-04-27 09:00","2019","04","27","09:00","-9.2","","-15.8","","59","","","","36","","1","","56.3","","100.11","","","","-10","","NA"
"-139.84","67.57","OLD CROW A","2100801","2019-04-27 10:00","2019","04","27","10:00","-5.2","","-14.8","","47","","","","24","","4","","56.3","","100.12","","","","-7","","Clear"
"-139.84","67.57","OLD CROW A","2100801","2019-04-27 11:00","2019","04","27","11:00","-3.5","","-14.1","","44","","","","36","","2","","56.3","","100.10","","","","-4","","NA"
"-139.84","67.57","OLD CROW A","2100801","2019-04-27 12:00","2019","04","27","12:00","-1.5","","-14.6","","36","","","","13","","4","","56.3","","100.08","","","","-3","","NA"
"-139.84","67.57","OLD CROW A","2100801","2019-04-27 13:00","2019","04","27","13:00","0.2","","-13.4","","35","","","","15","","4","","64.4","","100.08","","","","","","Mainly Clear"
"-139.84","67.57","OLD CROW A","2100801","2019-04-27 14:00","2019","04","27","14:00"
"-139.84","67.57","OLD CROW A","2100801","2019-04-27 15:00","2019","04","27","15:00"
"-139.84","67.57","OLD CROW A","2100801","2019-04-27 16:00","2019","04","27","16:00"
"-139.84","67.57","OLD CROW A","2100801","2019-04-27 17:00","2019","04","27","17:00"
"-139.84","67.57","OLD CROW A","2100801","2019-04-27 18:00","2019","04","27","18:00"
"-139.84","67.57","OLD CROW A","2100801","2019-04-27 19:00","2019","04","27","19:00"
"-139.84","67.57","OLD CROW A","2100801","2019-04-27 20:00","2019","04","27","20:00"
"-139.84","67.57","OLD CROW A","2100801","2019-04-27 21:00","2019","04","27","21:00"
"-139.84","67.57","OLD CROW A","2100801","2019-04-27 22:00","2019","04","27","22:00"
"-139.84","67.57","OLD CROW A","2100801","2019-04-27 23:00","2019","04","27","23:00"
"-139.84","67.57","OLD CROW A","2100801","2019-04-28 00:00","2019","04","28","00:00"
"-139.84","67.57","OLD CROW A","2100801","2019-04-28 01:00","2019","04","28","01:00"
"-139.84","67.57","OLD CROW A","2100801","2019-04-28 02:00","2019","04","28","02:00"
"-139.84","67.57","OLD CROW A","2100801","2019-04-28 03:00","2019","04","28","03:00"
"-139.84","67.57","OLD CROW A","2100801","2019-04-28 04:00","2019","04","28","04:00"
"-139.84","67.57","OLD CROW A","2100801","2019-04-28 05:00","2019","04","28","05:00","-10.8","","-13.4","","82","","","","36","","3","","56.3","","100.11","","","","-13","","NA"
"-139.84","67.57","OLD CROW A","2100801","2019-04-28 06:00","2019","04","28","06:00","-11.1","","-13.8","","81","","","","36","","1","","56.3","","100.14","","","","-12","","NA"
"-139.84","67.57","OLD CROW A","2100801","2019-04-28 07:00","2019","04","28","07:00","-10.4","","-13.7","","77","","","","36","","1","","56.3","","100.14","","","","-11","","Mostly Cloudy"
"-139.84","67.57","OLD CROW A","2100801","2019-04-28 08:00","2019","04","28","08:00","-6.9","","-12.8","","63","","","","36","","2","","56.3","","100.16","","","","-8","","NA"
"-139.84","67.57","OLD CROW A","2100801","2019-04-28 09:00","2019","04","28","09:00","-5.1","","-12.1","","58","","","","8","","4","","56.3","","100.18","","","","-7","","NA"
"-139.84","67.57","OLD CROW A","2100801","2019-04-28 10:00","2019","04","28","10:00","-2.5","","-11.4","","51","","","","10","","4","","56.3","","100.19","","","","-4","","Mainly Clear"
"-139.84","67.57","OLD CROW A","2100801","2019-04-28 11:00","2019","04","28","11:00","-0.2","","-11.4","","43","","","","13","","3","","56.3","","100.17","","","","-1","","NA"
"-139.84","67.57","OLD CROW A","2100801","2019-04-28 12:00","2019","04","28","12:00","1.6","","-10.0","","42","","","","36","","1","","56.3","","100.17","","","","","","NA"
"-139.84","67.57","OLD CROW A","2100801","2019-04-28 13:00","2019","04","28","13:00","3.4","","-9.2","","39","","","","10","","3","","56.3","","100.14","","","","","","Clear"
"-139.84","67.57","OLD CROW A","2100801","2019-04-28 14:00","2019","04","28","14:00","4.2","","-8.6","","39","","","","6","","12","","56.3","","100.14","","","","","","NA"
"-139.84","67.57","OLD CROW A","2100801","2019-04-28 15:00","2019","04","28","15:00","4.4","","-7.1","","43","","","","10","","8","","56.3","","100.15","","","","","","NA"
"-139.84","67.57","OLD CROW A","2100801","2019-04-28 16:00","2019","04","28","16:00","4.2","","-6.1","","47","","","","10","","7","","56.3","","100.17","","","","","","Mainly Clear"
"-139.84","67.57","OLD CROW A","2100801","2019-04-28 17:00","2019","04","28","17:00","3.8","","-6.2","","48","","","","10","","9","","56.3","","100.16","","","","","","NA"
"-139.84","67.57","OLD CROW A","2100801","2019-04-28 18:00","2019","04","28","18:00"
"-139.84","67.57","OLD CROW A","2100801","2019-04-28 19:00","2019","04","28","19:00"
"-139.84","67.57","OLD CROW A","2100801","2019-04-28 20:00","2019","04","28","20:00"
"-139.84","67.57","OLD CROW A","2100801","2019-04-28 21:00","2019","04","28","21:00"
"-139.84","67.57","OLD CROW A","2100801","2019-04-28 22:00","2019","04","28","22:00"
"-139.84","67.57","OLD CROW A","2100801","2019-04-28 23:00","2019","04","28","23:00"
"-139.84","67.57","OLD CROW A","2100801","2019-04-29 00:00","2019","04","29","00:00"
"-139.84","67.57","OLD CROW A","2100801","2019-04-29 01:00","2019","04","29","01:00"
"-139.84","67.57","OLD CROW A","2100801","2019-04-29 02:00","2019","04","29","02:00"
"-139.84","67.57","OLD CROW A","2100801","2019-04-29 03:00","2019","04","29","03:00"
"-139.84","67.57","OLD CROW A","2100801","2019-04-29 04:00","2019","04","29","04:00"
"-139.84","67.57","OLD CROW A","2100801","2019-04-29 05:00","2019","04","29","05:00","-9.1","","-11.2","","85","","","","7","","3","","56.3","","100.30","","","","-11","","NA"
"-139.84","67.57","OLD CROW A","2100801","2019-04-29 06:00","2019","04","29","06:00","-9.1","","-11.5","","83","","","","36","","2","","56.3","","100.28","","","","-10","","NA"
"-139.84","67.57","OLD CROW A","2100801","2019-04-29 07:00","2019","04","29","07:00","-8.1","","-11.6","","76","","","","36","","2","","56.3","","100.28","","","","-9","","Mainly Clear"
"-139.84","67.57","OLD CROW A","2100801","2019-04-29 08:00","2019","04","29","08:00","-5.8","","-10.8","","68","","","","36","","1","","56.3","","100.28","","","","-6","","NA"
"-139.84","67.57","OLD CROW A","2100801","2019-04-29 09:00","2019","04","29","09:00","-3.1","","-9.8","","60","","","","36","","2","","56.3","","100.27","","","","-4","","NA"
"-139.84","67.57","OLD CROW A","2100801","2019-04-29 10:00","2019","04","29","10:00","-0.8","","-9.5","","52","","","","12","","4","","56.3","","100.25","","","","-2","","Mainly Clear"
"-139.84","67.57","OLD CROW A","2100801","2019-04-29 11:00","2019","04","29","11:00","1.3","","-8.3","","49","","","","36","","1","","56.3","","100.22","","","","","","NA"
"-139.84","67.57","OLD CROW A","2100801","2019-04-29 12:00","2019","04","29","12:00","3.6","","-8.1","","42","","","","14","","3","","56.3","","100.18","","","","","","NA"
"-139.84","67.57","OLD CROW A","2100801","2019-04-29 13:00","2019","04","29","13:00","6.3","","-7.3","","37","","","","22","","4","","56.3","","100.13","","","","","","Mainly Clear"
"-139.84","67.57","OLD CROW A","2100801","2019-04-29 14:00","2019","04","29","14:00","7.5","","-7.3","","34","","","","20","","4","","56.3","","100.09","","","","","","NA"
"-139.84","67.57","OLD CROW A","2100801","2019-04-29 15:00","2019","04","29","15:00","8.6","","-7.2","","32","","","","25","","4","","56.3","","100.06","","","","","","NA"
"-139.84","67.57","OLD CROW A","2100801","2019-04-29 16:00","2019","04","29","16:00","8.6","","-8.0","","30","","","","10","","7","","56.3","","100.03","","","","","","Mostly Cloudy"
"-139.84","67.57","OLD CROW A","2100801","2019-04-29 17:00","2019","04","29","17:00","8.0","","-7.3","","33","","","","7","","14","","56.3","","100.00","","","","","","NA"
"-139.84","67.57","OLD CROW A","2100801","2019-04-29 18:00","2019","04","29","18:00"
"-139.84","67.57","OLD CROW A","2100801","2019-04-29 19:00","2019","04","29","19:00"
"-139.84","67.57","OLD CROW A","2100801","2019-04-29 20:00","2019","04","29","20:00"
"-139.84","67.57","OLD CROW A","2100801","2019-04-29 21:00","2019","04","29","21:00"
"-139.84","67.57","OLD CROW A","2100801","2019-04-29 22:00","2019","04","29","22:00"
"-139.84","67.57","OLD CROW A","2100801","2019-04-29 23:00","2019","04","29","23:00"
"-139.84","67.57","OLD CROW A","2100801","2019-04-30 00:00","2019","04","30","00:00"
"-139.84","67.57","OLD CROW A","2100801","2019-04-30 01:00","2019","04","30","01:00"
"-139.84","67.57","OLD CROW A","2100801","2019-04-30 02:00","2019","04","30","02:00"
"-139.84","67.57","OLD CROW A","2100801","2019-04-30 03:00","2019","04","30","03:00"
"-139.84","67.57","OLD CROW A","2100801","2019-04-30 04:00","2019","04","30","04:00"
"-139.84","67.57","OLD CROW A","2100801","2019-04-30 05:00","2019","04","30","05:00","-6.9","","-8.4","","89","","","","0","","1","","56.3","","99.96","","","","-7","","NA"
"-139.84","67.57","OLD CROW A","2100801","2019-04-30 06:00","2019","04","30","06:00","-6.7","","-8.4","","88","","","","36","","1","","56.3","","99.98","","","","-7","","NA"
"-139.84","67.57","OLD CROW A","2100801","2019-04-30 07:00","2019","04","30","07:00","-5.5","","-8.2","","81","","","","36","","2","","56.3","","100.00","","","","-6","","Mainly Clear"
"-139.84","67.57","OLD CROW A","2100801","2019-04-30 08:00","2019","04","30","08:00","-3.5","","-7.7","","73","","","","36","","2","","56.3","","100.00","","","","-4","","NA"
"-139.84","67.57","OLD CROW A","2100801","2019-04-30 09:00","2019","04","30","09:00","-1.5","","-6.9","","67","","","","36","","3","","56.3","","100.00","","","","-3","","NA"
"-139.84","67.57","OLD CROW A","2100801","2019-04-30 10:00","2019","04","30","10:00","0.3","","-7.0","","58","","","","23","","5","","56.3","","100.00","","","","","","Mostly Cloudy"
"-139.84","67.57","OLD CROW A","2100801","2019-04-30 11:00","2019","04","30","11:00","1.8","","-7.1","","52","","","","13","","3","","56.3","","99.98","","","","","","NA"
"-139.84","67.57","OLD CROW A","2100801","2019-04-30 12:00","2019","04","30","12:00","3.7","","-5.6","","51","","","","36","","1","","56.3","","99.97","","","","","","NA"
"-139.84","67.57","OLD CROW A","2100801","2019-04-30 13:00","2019","04","30","13:00","4.9","","-6.2","","45","","","","36","","2","","56.3","","99.95","","","","","","Mostly Cloudy"
"-139.84","67.57","OLD CROW A","2100801","2019-04-30 14:00","2019","04","30","14:00"
"-139.84","67.57","OLD CROW A","2100801","2019-04-30 15:00","2019","04","30","15:00"
"-139.84","67.57","OLD CROW A","2100801","2019-04-30 16:00","2019","04","30","16:00"
"-139.84","67.57","OLD CROW A","2100801","2019-04-30 17:00","2019","04","30","17:00"
"-139.84","67.57","OLD CROW A","2100801","2019-04-30 18:00","2019","04","30","18:00"
"-139.84","67.57","OLD CROW A","2100801","2019-04-30 19:00","2019","04","30","19:00"
"-139.84","67.57","OLD CROW A","2100801","2019-04-30 20:00","2019","04","30","20:00"
"-139.84","67.57","OLD CROW A","2100801","2019-04-30 21:00","2019","04","30","21:00"
"-139.84","67.57","OLD CROW A","2100801","2019-04-30 22:00","2019","04","30","22:00"
"-139.84","67.57","OLD CROW A","2100801","2019-04-30 23:00","2019","04","30","23:00"
