"Longitude (x)","Latitude (y)","Station Name","Climate ID","Date/Time (LST)","Year","Month","Day","Time (LST)","Temp (°C)","Temp Flag","Dew Point Temp (°C)","Dew Point Temp Flag","Rel Hum (%)","Rel Hum Flag","Precip. Amount (mm)","Precip. Amount Flag","Wind Dir (10s deg)","Wind Dir Flag","Wind Spd (km/h)","Wind Spd Flag","Visibility (km)","Visibility Flag","Stn Press (kPa)","Stn Press Flag","Hmdx","Hmdx Flag","Wind Chill","Wind Chill Flag","Weather"
"-139.84","67.57","OLD CROW A","2100801","2019-02-01 00:00","2019","02","01","00:00"
"-139.84","67.57","OLD CROW A","2100801","2019-02-01 01:00","2019","02","01","01:00"
"-139.84","67.57","OLD CROW A","2100801","2019-02-01 02:00","2019","02","01","02:00"
"-139.84","67.57","OLD CROW A","2100801","2019-02-01 03:00","2019","02","01","03:00"
"-139.84","67.57","OLD CROW A","2100801","2019-02-01 04:00","2019","02","01","04:00"
"-139.84","67.57","OLD CROW A","2100801","2019-02-01 05:00","2019","02","01","05:00"
"-139.84","67.57","OLD CROW A","2100801","2019-02-01 06:00","2019","02","01","06:00","-37.1","","-40.6","","71","","","","36","","2","","48.3","","100.40","","","","-40","","Ice Crystals"
"-139.84","67.57","OLD CROW A","2100801","2019-02-01 07:00","2019","02","01","07:00","-37.2","","-40.6","","72","","","","7","","3","","48.3","","100.43","","","","-41","","Ice Crystals"
"-139.84","67.57","OLD CROW A","2100801","2019-02-01 08:00","2019","02","01","08:00","-38.3","","-41.8","","70","","","","0","","1","","48.3","","100.43","","","","-40","","Ice Crystals"
"-139.84","67.57","OLD CROW A","2100801","2019-02-01 09:00","2019","02","01","09:00","-38.6","","-42.4","","68","","","","25","","4","","48.3","","100.43","","","","-44","","Ice Crystals"
"-139.84","67.57","OLD CROW A","2100801","2019-02-01 10:00","2019","02","01","10:00","-39.1","","-42.9","","68","","","","36","","2","","48.3","","100.45","","","","-42","","Ice Crystals"
"-139.84","67.57","OLD CROW A","2100801","2019-02-01 11:00","2019","02","01","11:00","-39.5","","-43.3","","68","","","","36","","2","","56.3","","100.45","","","","-42","","NA"
"-139.84","67.57","OLD CROW A","2100801","2019-02-01 12:00","2019","02","01","12:00","-38.8","","-42.6","","68","","","","19","","3","","56.3","","100.43","","","","-43","","NA"
"-139.84","67.57","OLD CROW A","2100801","2019-02-01 13:00","2019","02","01","13:00","-37.2","","-40.9","","70","","","","36","","3","","56.3","","100.39","","","","-41","","Clear"
"-139.84","67.57","OLD CROW A","2100801","2019-02-01 14:00","2019","02","01","14:00","-36.4","","-40.0","","71","","","","36","","2","","56.3","","100.34","","","","-39","","NA"
"-139.84","67.57","OLD CROW A","2100801","2019-02-01 15:00","2019","02","01","15:00","-35.2","","-38.9","","70","","","","","","0","","56.3","","100.29","","","","","","NA"
"-139.84","67.57","OLD CROW A","2100801","2019-02-01 16:00","2019","02","01","16:00","-35.1","","-38.6","","71","","","","36","","1","","56.3","","100.24","","","","-36","","Clear"
"-139.84","67.57","OLD CROW A","2100801","2019-02-01 17:00","2019","02","01","17:00","-36.2","","-39.9","","70","","","","36","","1","","56.3","","100.19","","","","-37","","NA"
"-139.84","67.57","OLD CROW A","2100801","2019-02-01 18:00","2019","02","01","18:00","-38.2","","-41.9","","69","","","","36","","3","","56.3","","100.13","","","","-42","","NA"
"-139.84","67.57","OLD CROW A","2100801","2019-02-01 19:00","2019","02","01","19:00"
"-139.84","67.57","OLD CROW A","2100801","2019-02-01 20:00","2019","02","01","20:00"
"-139.84","67.57","OLD CROW A","2100801","2019-02-01 21:00","2019","02","01","21:00"
"-139.84","67.57","OLD CROW A","2100801","2019-02-01 22:00","2019","02","01","22:00"
"-139.84","67.57","OLD CROW A","2100801","2019-02-01 23:00","2019","02","01","23:00"
"-139.84","67.57","OLD CROW A","2100801","2019-02-02 00:00","2019","02","02","00:00"
"-139.84","67.57","OLD CROW A","2100801","2019-02-02 01:00","2019","02","02","01:00"
"-139.84","67.57","OLD CROW A","2100801","2019-02-02 02:00","2019","02","02","02:00"
"-139.84","67.57","OLD CROW A","2100801","2019-02-02 03:00","2019","02","02","03:00"
"-139.84","67.57","OLD CROW A","2100801","2019-02-02 04:00","2019","02","02","04:00"
"-139.84","67.57","OLD CROW A","2100801","2019-02-02 05:00","2019","02","02","05:00"
"-139.84","67.57","OLD CROW A","2100801","2019-02-02 06:00","2019","02","02","06:00","-43.5","","-47.5","","65","","","","36","","2","","9.7","","99.89","","","","-46","","Fog"
"-139.84","67.57","OLD CROW A","2100801","2019-02-02 07:00","2019","02","02","07:00","-43.3","","-47.5","","65","","","","36","","1","","9.7","","99.88","","","","-45","","Fog"
"-139.84","67.57","OLD CROW A","2100801","2019-02-02 08:00","2019","02","02","08:00","-43.7","","-47.8","","65","","","","36","","1","","4.8","","99.90","","","","-45","","Ice Crystals,Fog"
"-139.84","67.57","OLD CROW A","2100801","2019-02-02 09:00","2019","02","02","09:00","-43.6","","-47.7","","65","","","","36","","1","","56.3","","99.88","","","","-45","","Ice Crystals"
"-139.84","67.57","OLD CROW A","2100801","2019-02-02 10:00","2019","02","02","10:00","-43.5","","-47.6","","65","","","","36","","2","","56.3","","99.88","","","","-46","","Ice Crystals"
"-139.84","67.57","OLD CROW A","2100801","2019-02-02 11:00","2019","02","02","11:00","-43.2","","-47.3","","65","","","","36","","2","","4.8","","99.92","","","","-46","","NA"
"-139.84","67.57","OLD CROW A","2100801","2019-02-02 12:00","2019","02","02","12:00","-42.0","","-46.1","","65","","","","36","","3","","56.3","","99.90","","","","-46","","NA"
"-139.84","67.57","OLD CROW A","2100801","2019-02-02 13:00","2019","02","02","13:00","-41.2","","-45.2","","66","","","","36","","2","","56.3","","99.88","","","","-44","","Mainly Clear"
"-139.84","67.57","OLD CROW A","2100801","2019-02-02 14:00","2019","02","02","14:00","-39.9","","-44.0","","66","","","","28","","4","","56.3","","99.80","","","","-45","","NA"
"-139.84","67.57","OLD CROW A","2100801","2019-02-02 15:00","2019","02","02","15:00"
"-139.84","67.57","OLD CROW A","2100801","2019-02-02 16:00","2019","02","02","16:00"
"-139.84","67.57","OLD CROW A","2100801","2019-02-02 17:00","2019","02","02","17:00"
"-139.84","67.57","OLD CROW A","2100801","2019-02-02 18:00","2019","02","02","18:00"
"-139.84","67.57","OLD CROW A","2100801","2019-02-02 19:00","2019","02","02","19:00"
"-139.84","67.57","OLD CROW A","2100801","2019-02-02 20:00","2019","02","02","20:00"
"-139.84","67.57","OLD CROW A","2100801","2019-02-02 21:00","2019","02","02","21:00"
"-139.84","67.57","OLD CROW A","2100801","2019-02-02 22:00","2019","02","02","22:00"
"-139.84","67.57","OLD CROW A","2100801","2019-02-02 23:00","2019","02","02","23:00"
"-139.84","67.57","OLD CROW A","2100801","2019-02-03 00:00","2019","02","03","00:00"
"-139.84","67.57","OLD CROW A","2100801","2019-02-03 01:00","2019","02","03","01:00"
"-139.84","67.57","OLD CROW A","2100801","2019-02-03 02:00","2019","02","03","02:00"
"-139.84","67.57","OLD CROW A","2100801","2019-02-03 03:00","2019","02","03","03:00"
"-139.84","67.57","OLD CROW A","2100801","2019-02-03 04:00","2019","02","03","04:00"
"-139.84","67.57","OLD CROW A","2100801","2019-02-03 05:00","2019","02","03","05:00"
"-139.84","67.57","OLD CROW A","2100801","2019-02-03 06:00","2019","02","03","06:00","-37.9","","-41.8","","68","","","","","","0","","56.3","","99.23","","","","","","NA"
"-139.84","67.57","OLD CROW A","2100801","2019-02-03 07:00","2019","02","03","07:00","-36.4","","-40.4","","68","","","","22","","5","","56.3","","99.16","","","","-43","","Mostly Cloudy"
"-139.84","67.57","OLD CROW A","2100801","2019-02-03 08:00","2019","02","03","08:00","-35.0","","-38.7","","70","","","","21","","3","","56.3","","99.11","","","","-39","","NA"
"-139.84","67.57","OLD CROW A","2100801","2019-02-03 09:00","2019","02","03","09:00","-33.7","","-37.4","","70","","","","6","","7","","16.1","","99.07","","","","-42","","Snow"
"-139.84","67.57","OLD CROW A","2100801","2019-02-03 10:00","2019","02","03","10:00","-31.8","","-35.4","","71","","","","36","","1","","4.8","","99.06","","","","-33","","Snow"
"-139.84","67.57","OLD CROW A","2100801","2019-02-03 11:00","2019","02","03","11:00","-29.9","","-33.4","","72","","","","36","","1","","4.8","","99.08","","","","-31","","Snow"
"-139.84","67.57","OLD CROW A","2100801","2019-02-03 12:00","2019","02","03","12:00","-28.6","","-32.0","","73","","","","5","","3","","4.8","","99.08","","","","-32","","Snow"
"-139.84","67.57","OLD CROW A","2100801","2019-02-03 13:00","2019","02","03","13:00","-27.0","","-30.2","","74","","","","","","0","","24.1","","99.03","","","","","","Cloudy"
"-139.84","67.57","OLD CROW A","2100801","2019-02-03 14:00","2019","02","03","14:00","-25.2","","-28.4","","75","","","","36","","2","","24.1","","99.01","","","","-27","","Snow"
"-139.84","67.57","OLD CROW A","2100801","2019-02-03 15:00","2019","02","03","15:00"
"-139.84","67.57","OLD CROW A","2100801","2019-02-03 16:00","2019","02","03","16:00"
"-139.84","67.57","OLD CROW A","2100801","2019-02-03 17:00","2019","02","03","17:00"
"-139.84","67.57","OLD CROW A","2100801","2019-02-03 18:00","2019","02","03","18:00"
"-139.84","67.57","OLD CROW A","2100801","2019-02-03 19:00","2019","02","03","19:00"
"-139.84","67.57","OLD CROW A","2100801","2019-02-03 20:00","2019","02","03","20:00"
"-139.84","67.57","OLD CROW A","2100801","2019-02-03 21:00","2019","02","03","21:00"
"-139.84","67.57","OLD CROW A","2100801","2019-02-03 22:00","2019","02","03","22:00"
"-139.84","67.57","OLD CROW A","2100801","2019-02-03 23:00","2019","02","03","23:00"
"-139.84","67.57","OLD CROW A","2100801","2019-02-04 00:00","2019","02","04","00:00"
"-139.84","67.57","OLD CROW A","2100801","2019-02-04 01:00","2019","02","04","01:00"
"-139.84","67.57","OLD CROW A","2100801","2019-02-04 02:00","2019","02","04","02:00"
"-139.84","67.57","OLD CROW A","2100801","2019-02-04 03:00","2019","02","04","03:00"
"-139.84","67.57","OLD CROW A","2100801","2019-02-04 04:00","2019","02","04","04:00"
"-139.84","67.57","OLD CROW A","2100801","2019-02-04 05:00","2019","02","04","05:00"
"-139.84","67.57","OLD CROW A","2100801","2019-02-04 06:00","2019","02","04","06:00","-21.0","","-23.9","","78","","","","25","","3","","4.8","","98.15","","","","-24","","Snow"
"-139.84","67.57","OLD CROW A","2100801","2019-02-04 07:00","2019","02","04","07:00","-20.7","","-23.6","","78","","","","36","","2","","9.7","","98.11","","","","-22","","Snow"
"-139.84","67.57","OLD CROW A","2100801","2019-02-04 08:00","2019","02","04","08:00","-20.4","","-23.2","","79","","","","25","","7","","9.7","","98.07","","","","-26","","Snow"
"-139.84","67.57","OLD CROW A","2100801","2019-02-04 09:00","2019","02","04","09:00","-19.5","","-22.0","","80","","","","24","","14","","24.1","","98.03","","","","-28","","Snow"
"-139.84","67.57","OLD CROW A","2100801","2019-02-04 10:00","2019","02","04","10:00","-15.9","","-19.4","","75","","","","25","","32","","56.3","","98.03","","","","-28","","Cloudy"
"-139.84","67.57","OLD CROW A","2100801","2019-02-04 11:00","2019","02","04","11:00","-17.0","","-20.4","","75","","","","26","","23","","56.3","","98.07","","","","-27","","NA"
"-139.84","67.57","OLD CROW A","2100801","2019-02-04 12:00","2019","02","04","12:00","-16.2","","-19.6","","76","","","","25","","19","","9.7","","98.11","","","","-25","","Snow"
"-139.84","67.57","OLD CROW A","2100801","2019-02-04 13:00","2019","02","04","13:00","-16.2","","-19.4","","77","","","","26","","17","","4.8","","98.11","","","","-25","","Snow"
"-139.84","67.57","OLD CROW A","2100801","2019-02-04 14:00","2019","02","04","14:00","-16.7","","-20.6","","72","","","","27","","26","","24.1","","98.11","","","","-28","","NA"
"-139.84","67.57","OLD CROW A","2100801","2019-02-04 15:00","2019","02","04","15:00"
"-139.84","67.57","OLD CROW A","2100801","2019-02-04 16:00","2019","02","04","16:00"
"-139.84","67.57","OLD CROW A","2100801","2019-02-04 17:00","2019","02","04","17:00"
"-139.84","67.57","OLD CROW A","2100801","2019-02-04 18:00","2019","02","04","18:00"
"-139.84","67.57","OLD CROW A","2100801","2019-02-04 19:00","2019","02","04","19:00"
"-139.84","67.57","OLD CROW A","2100801","2019-02-04 20:00","2019","02","04","20:00"
"-139.84","67.57","OLD CROW A","2100801","2019-02-04 21:00","2019","02","04","21:00"
"-139.84","67.57","OLD CROW A","2100801","2019-02-04 22:00","2019","02","04","22:00"
"-139.84","67.57","OLD CROW A","2100801","2019-02-04 23:00","2019","02","04","23:00"
"-139.84","67.57","OLD CROW A","2100801","2019-02-05 00:00","2019","02","05","00:00"
"-139.84","67.57","OLD CROW A","2100801","2019-02-05 01:00","2019","02","05","01:00"
"-139.84","67.57","OLD CROW A","2100801","2019-02-05 02:00","2019","02","05","02:00"
"-139.84","67.57","OLD CROW A","2100801","2019-02-05 03:00","2019","02","05","03:00"
"-139.84","67.57","OLD CROW A","2100801","2019-02-05 04:00","2019","02","05","04:00"
"-139.84","67.57","OLD CROW A","2100801","2019-02-05 05:00","2019","02","05","05:00"
"-139.84","67.57","OLD CROW A","2100801","2019-02-05 06:00","2019","02","05","06:00","-28.6","","-31.5","","77","","","","6","","4","","24.1","","98.69","","","","-33","","Snow"
"-139.84","67.57","OLD CROW A","2100801","2019-02-05 07:00","2019","02","05","07:00","-28.3","","-31.4","","75","","","","13","","3","","24.1","","98.72","","","","-32","","Ice Crystals"
"-139.84","67.57","OLD CROW A","2100801","2019-02-05 08:00","2019","02","05","08:00","-26.5","","-29.5","","76","","","","30","","4","","24.1","","98.74","","","","-31","","Ice Crystals"
"-139.84","67.57","OLD CROW A","2100801","2019-02-05 09:00","2019","02","05","09:00","-27.5","","-30.5","","76","","","","24","","3","","24.1","","98.76","","","","-31","","Ice Crystals"
"-139.84","67.57","OLD CROW A","2100801","2019-02-05 10:00","2019","02","05","10:00","-28.3","","-31.3","","76","","","","0","","1","","56.3","","98.77","","","","-29","","Mostly Cloudy"
"-139.84","67.57","OLD CROW A","2100801","2019-02-05 11:00","2019","02","05","11:00","-28.8","","-31.9","","75","","","","29","","4","","56.3","","98.76","","","","-33","","NA"
"-139.84","67.57","OLD CROW A","2100801","2019-02-05 12:00","2019","02","05","12:00","-27.4","","-30.3","","77","","","","36","","3","","56.3","","98.79","","","","-31","","NA"
"-139.84","67.57","OLD CROW A","2100801","2019-02-05 13:00","2019","02","05","13:00","-27.1","","-30.1","","76","","","","36","","1","","56.3","","98.79","","","","-28","","Mainly Clear"
"-139.84","67.57","OLD CROW A","2100801","2019-02-05 14:00","2019","02","05","14:00","-25.1","","-28.2","","76","","","","25","","5","","56.3","","98.75","","","","-30","","NA"
"-139.84","67.57","OLD CROW A","2100801","2019-02-05 15:00","2019","02","05","15:00","-24.9","","-28.1","","75","","","","23","","3","","56.3","","98.74","","","","-28","","NA"
"-139.84","67.57","OLD CROW A","2100801","2019-02-05 16:00","2019","02","05","16:00","-25.1","","-28.3","","75","","","","25","","3","","56.3","","98.74","","","","-28","","Clear"
"-139.84","67.57","OLD CROW A","2100801","2019-02-05 17:00","2019","02","05","17:00","-26.1","","-29.2","","75","","","","25","","6","","56.3","","98.76","","","","-32","","NA"
"-139.84","67.57","OLD CROW A","2100801","2019-02-05 18:00","2019","02","05","18:00","-28.2","","-31.1","","76","","","","36","","1","","56.3","","98.75","","","","-29","","NA"
"-139.84","67.57","OLD CROW A","2100801","2019-02-05 19:00","2019","02","05","19:00"
"-139.84","67.57","OLD CROW A","2100801","2019-02-05 20:00","2019","02","05","20:00"
"-139.84","67.57","OLD CROW A","2100801","2019-02-05 21:00","2019","02","05","21:00"
"-139.84","67.57","OLD CROW A","2100801","2019-02-05 22:00","2019","02","05","22:00"
"-139.84","67.57","OLD CROW A","2100801","2019-02-05 23:00","2019","02","05","23:00"
"-139.84","67.57","OLD CROW A","2100801","2019-02-06 00:00","2019","02","06","00:00"
"-139.84","67.57","OLD CROW A","2100801","2019-02-06 01:00","2019","02","06","01:00"
"-139.84","67.57","OLD CROW A","2100801","2019-02-06 02:00","2019","02","06","02:00"
"-139.84","67.57","OLD CROW A","2100801","2019-02-06 03:00","2019","02","06","03:00"
"-139.84","67.57","OLD CROW A","2100801","2019-02-06 04:00","2019","02","06","04:00"
"-139.84","67.57","OLD CROW A","2100801","2019-02-06 05:00","2019","02","06","05:00"
"-139.84","67.57","OLD CROW A","2100801","2019-02-06 06:00","2019","02","06","06:00","-35.7","","-39.2","","71","","","","8","","3","","56.3","","98.94","","","","-40","","Ice Crystals"
"-139.84","67.57","OLD CROW A","2100801","2019-02-06 07:00","2019","02","06","07:00","-35.8","","-39.3","","71","","","","0","","1","","56.3","","99.00","","","","-37","","Ice Crystals"
"-139.84","67.57","OLD CROW A","2100801","2019-02-06 08:00","2019","02","06","08:00","-35.4","","-39.1","","70","","","","36","","1","","56.3","","99.03","","","","-37","","NA"
"-139.84","67.57","OLD CROW A","2100801","2019-02-06 09:00","2019","02","06","09:00","-35.7","","-39.2","","71","","","","36","","2","","56.3","","99.08","","","","-38","","Ice Crystals"
"-139.84","67.57","OLD CROW A","2100801","2019-02-06 10:00","2019","02","06","10:00","-34.9","","-38.4","","71","","","","11","","3","","56.3","","99.09","","","","-39","","Ice Crystals"
"-139.84","67.57","OLD CROW A","2100801","2019-02-06 11:00","2019","02","06","11:00","-34.3","","-37.9","","71","","","","36","","3","","56.3","","99.11","","","","-38","","Ice Crystals"
"-139.84","67.57","OLD CROW A","2100801","2019-02-06 12:00","2019","02","06","12:00","-32.4","","-35.9","","72","","","","10","","3","","56.3","","99.15","","","","-36","","Ice Crystals"
"-139.84","67.57","OLD CROW A","2100801","2019-02-06 13:00","2019","02","06","13:00","-30.1","","-33.6","","72","","","","23","","3","","56.3","","99.20","","","","-33","","Ice Crystals"
"-139.84","67.57","OLD CROW A","2100801","2019-02-06 14:00","2019","02","06","14:00","-28.5","","-31.5","","76","","","","36","","2","","56.3","","99.22","","","","-31","","Ice Crystals"
"-139.84","67.57","OLD CROW A","2100801","2019-02-06 15:00","2019","02","06","15:00","-27.3","","-30.7","","74","","","","26","","3","","56.3","","99.23","","","","-30","","NA"
"-139.84","67.57","OLD CROW A","2100801","2019-02-06 16:00","2019","02","06","16:00","-26.3","","-29.4","","75","","","","4","","3","","16.1","","99.24","","","","-29","","Snow"
"-139.84","67.57","OLD CROW A","2100801","2019-02-06 17:00","2019","02","06","17:00","-25.3","","-28.3","","76","","","","36","","1","","24.1","","99.26","","","","-26","","Snow"
"-139.84","67.57","OLD CROW A","2100801","2019-02-06 18:00","2019","02","06","18:00","-24.9","","-28.1","","75","","","","36","","3","","9.7","","99.27","","","","-28","","Snow"
"-139.84","67.57","OLD CROW A","2100801","2019-02-06 19:00","2019","02","06","19:00"
"-139.84","67.57","OLD CROW A","2100801","2019-02-06 20:00","2019","02","06","20:00"
"-139.84","67.57","OLD CROW A","2100801","2019-02-06 21:00","2019","02","06","21:00"
"-139.84","67.57","OLD CROW A","2100801","2019-02-06 22:00","2019","02","06","22:00","-25.6","","-28.8","","76","","","","0","","1","","16.1","","99.44","","","","-27","","Snow"
"-139.84","67.57","OLD CROW A","2100801","2019-02-06 23:00","2019","02","06","23:00","-24.7","","-27.8","","76","","","","36","","1","","16.1","","99.49","","","","-26","","Snow"
"-139.84","67.57","OLD CROW A","2100801","2019-02-07 00:00","2019","02","07","00:00","-24.0","","-27.2","","76","","","","8","","3","","16.1","","99.51","","","","-27","","Snow"
"-139.84","67.57","OLD CROW A","2100801","2019-02-07 01:00","2019","02","07","01:00"
"-139.84","67.57","OLD CROW A","2100801","2019-02-07 02:00","2019","02","07","02:00"
"-139.84","67.57","OLD CROW A","2100801","2019-02-07 03:00","2019","02","07","03:00"
"-139.84","67.57","OLD CROW A","2100801","2019-02-07 04:00","2019","02","07","04:00"
"-139.84","67.57","OLD CROW A","2100801","2019-02-07 05:00","2019","02","07","05:00"
"-139.84","67.57","OLD CROW A","2100801","2019-02-07 06:00","2019","02","07","06:00","-23.0","","-25.6","","80","","","","10","","4","","2.4","","99.65","","","","-27","","Snow,Fog"
"-139.84","67.57","OLD CROW A","2100801","2019-02-07 07:00","2019","02","07","07:00","-23.1","","-25.5","","81","","","","11","","4","","2.4","","99.64","","","","-27","","Snow,Fog"
"-139.84","67.57","OLD CROW A","2100801","2019-02-07 08:00","2019","02","07","08:00","-23.3","","-25.8","","80","","","","10","","5","","1.2","","99.67","","","","-28","","Snow,Fog"
"-139.84","67.57","OLD CROW A","2100801","2019-02-07 09:00","2019","02","07","09:00","-23.1","","-25.7","","80","","","","36","","2","","0.8","","99.70","","","","-25","","Freezing Fog"
"-139.84","67.57","OLD CROW A","2100801","2019-02-07 10:00","2019","02","07","10:00","-22.4","","-24.9","","80","","","","36","","1","","1.6","","99.69","","","","-23","","Ice Crystals,Fog"
"-139.84","67.57","OLD CROW A","2100801","2019-02-07 11:00","2019","02","07","11:00","-22.2","","-24.7","","80","","","","36","","2","","3.2","","99.68","","","","-24","","Fog"
"-139.84","67.57","OLD CROW A","2100801","2019-02-07 12:00","2019","02","07","12:00","-21.1","","-23.6","","81","","","","0","","1","","56.3","","99.69","","","","-22","","NA"
"-139.84","67.57","OLD CROW A","2100801","2019-02-07 13:00","2019","02","07","13:00","-20.6","","-23.1","","81","","","","13","","5","","56.3","","99.67","","","","-25","","Mostly Cloudy"
"-139.84","67.57","OLD CROW A","2100801","2019-02-07 14:00","2019","02","07","14:00","-20.6","","-23.1","","81","","","","36","","1","","56.3","","99.68","","","","-21","","NA"
"-139.84","67.57","OLD CROW A","2100801","2019-02-07 15:00","2019","02","07","15:00","-20.4","","-22.8","","81","","","","36","","2","","56.3","","99.65","","","","-22","","NA"
"-139.84","67.57","OLD CROW A","2100801","2019-02-07 16:00","2019","02","07","16:00","-20.2","","-22.6","","81","","","","24","","3","","56.3","","99.63","","","","-23","","Mostly Cloudy"
"-139.84","67.57","OLD CROW A","2100801","2019-02-07 17:00","2019","02","07","17:00","-19.8","","-22.1","","82","","","","36","","2","","56.3","","99.59","","","","-22","","NA"
"-139.84","67.57","OLD CROW A","2100801","2019-02-07 18:00","2019","02","07","18:00","-19.8","","-22.2","","82","","","","36","","2","","56.3","","99.58","","","","-22","","NA"
"-139.84","67.57","OLD CROW A","2100801","2019-02-07 19:00","2019","02","07","19:00"
"-139.84","67.57","OLD CROW A","2100801","2019-02-07 20:00","2019","02","07","20:00"
"-139.84","67.57","OLD CROW A","2100801","2019-02-07 21:00","2019","02","07","21:00"
"-139.84","67.57","OLD CROW A","2100801","2019-02-07 22:00","2019","02","07","22:00"
"-139.84","67.57","OLD CROW A","2100801","2019-02-07 23:00","2019","02","07","23:00"
"-139.84","67.57","OLD CROW A","2100801","2019-02-08 00:00","2019","02","08","00:00"
"-139.84","67.57","OLD CROW A","2100801","2019-02-08 01:00","2019","02","08","01:00"
"-139.84","67.57","OLD CROW A","2100801","2019-02-08 02:00","2019","02","08","02:00"
"-139.84","67.57","OLD CROW A","2100801","2019-02-08 03:00","2019","02","08","03:00"
"-139.84","67.57","OLD CROW A","2100801","2019-02-08 04:00","2019","02","08","04:00"
"-139.84","67.57","OLD CROW A","2100801","2019-02-08 05:00","2019","02","08","05:00"
"-139.84","67.57","OLD CROW A","2100801","2019-02-08 06:00","2019","02","08","06:00","-14.7","","-16.8","","84","","","","","","0","","56.3","","99.38","","","","","","NA"
"-139.84","67.57","OLD CROW A","2100801","2019-02-08 07:00","2019","02","08","07:00","-15.0","","-17.1","","85","","","","36","","1","","32.2","","99.35","","","","-16","","Cloudy"
"-139.84","67.57","OLD CROW A","2100801","2019-02-08 08:00","2019","02","08","08:00","-14.9","","-17.0","","85","","","","36","","1","","56.3","","99.33","","","","-16","","NA"
"-139.84","67.57","OLD CROW A","2100801","2019-02-08 09:00","2019","02","08","09:00","-14.6","","-16.5","","85","","","","1","","3","","56.3","","99.37","","","","-17","","NA"
"-139.84","67.57","OLD CROW A","2100801","2019-02-08 10:00","2019","02","08","10:00","-13.3","","-15.3","","85","","","","28","","7","","56.3","","99.36","","","","-18","","Cloudy"
"-139.84","67.57","OLD CROW A","2100801","2019-02-08 11:00","2019","02","08","11:00","-12.1","","-14.1","","85","","","","23","","4","","56.3","","99.36","","","","-15","","NA"
"-139.84","67.57","OLD CROW A","2100801","2019-02-08 12:00","2019","02","08","12:00","-11.8","","-13.9","","85","","","","24","","8","","56.3","","99.31","","","","-17","","NA"
"-139.84","67.57","OLD CROW A","2100801","2019-02-08 13:00","2019","02","08","13:00","-11.2","","-13.2","","86","","","","27","","8","","56.3","","99.30","","","","-16","","Mostly Cloudy"
"-139.84","67.57","OLD CROW A","2100801","2019-02-08 14:00","2019","02","08","14:00","-7.8","","-9.8","","85","","","","26","","7","","56.3","","99.28","","","","-11","","Snow"
"-139.84","67.57","OLD CROW A","2100801","2019-02-08 15:00","2019","02","08","15:00","-6.4","","-8.2","","87","","","","7","","8","","56.3","","99.26","","","","-10","","NA"
"-139.84","67.57","OLD CROW A","2100801","2019-02-08 16:00","2019","02","08","16:00","-2.5","","-6.0","","77","","","","26","","20","","56.3","","99.26","","","","-8","","Mostly Cloudy"
"-139.84","67.57","OLD CROW A","2100801","2019-02-08 17:00","2019","02","08","17:00","-3.2","","-6.3","","79","","","","24","","13","","56.3","","99.21","","","","-8","","NA"
"-139.84","67.57","OLD CROW A","2100801","2019-02-08 18:00","2019","02","08","18:00","-3.2","","-5.9","","82","","","","26","","16","","56.3","","99.20","","","","-9","","NA"
"-139.84","67.57","OLD CROW A","2100801","2019-02-08 19:00","2019","02","08","19:00"
"-139.84","67.57","OLD CROW A","2100801","2019-02-08 20:00","2019","02","08","20:00"
"-139.84","67.57","OLD CROW A","2100801","2019-02-08 21:00","2019","02","08","21:00"
"-139.84","67.57","OLD CROW A","2100801","2019-02-08 22:00","2019","02","08","22:00"
"-139.84","67.57","OLD CROW A","2100801","2019-02-08 23:00","2019","02","08","23:00"
"-139.84","67.57","OLD CROW A","2100801","2019-02-09 00:00","2019","02","09","00:00"
"-139.84","67.57","OLD CROW A","2100801","2019-02-09 01:00","2019","02","09","01:00"
"-139.84","67.57","OLD CROW A","2100801","2019-02-09 02:00","2019","02","09","02:00"
"-139.84","67.57","OLD CROW A","2100801","2019-02-09 03:00","2019","02","09","03:00"
"-139.84","67.57","OLD CROW A","2100801","2019-02-09 04:00","2019","02","09","04:00"
"-139.84","67.57","OLD CROW A","2100801","2019-02-09 05:00","2019","02","09","05:00"
"-139.84","67.57","OLD CROW A","2100801","2019-02-09 06:00","2019","02","09","06:00","-7.2","","-9.6","","83","","","","24","","16","","56.3","","99.84","","","","-14","","Blowing Snow"
"-139.84","67.57","OLD CROW A","2100801","2019-02-09 07:00","2019","02","09","07:00","-8.9","","-10.9","","86","","","","25","","7","","56.3","","99.97","","","","-13","","Clear"
"-139.84","67.57","OLD CROW A","2100801","2019-02-09 08:00","2019","02","09","08:00","-8.1","","-10.0","","86","","","","20","","9","","56.3","","100.05","","","","-13","","NA"
"-139.84","67.57","OLD CROW A","2100801","2019-02-09 09:00","2019","02","09","09:00","-8.4","","-10.5","","85","","","","25","","20","","56.3","","100.15","","","","-16","","NA"
"-139.84","67.57","OLD CROW A","2100801","2019-02-09 10:00","2019","02","09","10:00","-8.7","","-10.6","","86","","","","26","","15","","56.3","","100.20","","","","-15","","Mainly Clear"
"-139.84","67.57","OLD CROW A","2100801","2019-02-09 11:00","2019","02","09","11:00","-9.3","","-11.4","","85","","","","23","","8","","56.3","","100.31","","","","-14","","NA"
"-139.84","67.57","OLD CROW A","2100801","2019-02-09 12:00","2019","02","09","12:00","-8.3","","-10.7","","83","","","","25","","18","","56.3","","100.35","","","","-15","","NA"
"-139.84","67.57","OLD CROW A","2100801","2019-02-09 13:00","2019","02","09","13:00","-7.9","","-10.5","","82","","","","26","","21","","56.3","","100.37","","","","-15","","Clear"
"-139.84","67.57","OLD CROW A","2100801","2019-02-09 14:00","2019","02","09","14:00","-7.6","","-10.4","","81","","","","26","","19","","56.3","","100.37","","","","-15","","NA"
"-139.84","67.57","OLD CROW A","2100801","2019-02-09 15:00","2019","02","09","15:00","-7.4","","-10.4","","79","","","","26","","18","","56.3","","100.38","","","","-14","","NA"
"-139.84","67.57","OLD CROW A","2100801","2019-02-09 16:00","2019","02","09","16:00","-7.3","","-10.8","","76","","","","28","","22","","56.3","","100.38","","","","-15","","Mainly Clear"
"-139.84","67.57","OLD CROW A","2100801","2019-02-09 17:00","2019","02","09","17:00","-8.5","","-11.3","","80","","","","27","","14","","56.3","","100.34","","","","-15","","NA"
"-139.84","67.57","OLD CROW A","2100801","2019-02-09 18:00","2019","02","09","18:00","-9.2","","-11.8","","81","","","","24","","5","","56.3","","100.31","","","","-12","","NA"
"-139.84","67.57","OLD CROW A","2100801","2019-02-09 19:00","2019","02","09","19:00"
"-139.84","67.57","OLD CROW A","2100801","2019-02-09 20:00","2019","02","09","20:00"
"-139.84","67.57","OLD CROW A","2100801","2019-02-09 21:00","2019","02","09","21:00"
"-139.84","67.57","OLD CROW A","2100801","2019-02-09 22:00","2019","02","09","22:00"
"-139.84","67.57","OLD CROW A","2100801","2019-02-09 23:00","2019","02","09","23:00"
"-139.84","67.57","OLD CROW A","2100801","2019-02-10 00:00","2019","02","10","00:00"
"-139.84","67.57","OLD CROW A","2100801","2019-02-10 01:00","2019","02","10","01:00"
"-139.84","67.57","OLD CROW A","2100801","2019-02-10 02:00","2019","02","10","02:00"
"-139.84","67.57","OLD CROW A","2100801","2019-02-10 03:00","2019","02","10","03:00"
"-139.84","67.57","OLD CROW A","2100801","2019-02-10 04:00","2019","02","10","04:00"
"-139.84","67.57","OLD CROW A","2100801","2019-02-10 05:00","2019","02","10","05:00","-22.7","","-25.2","","80","","","","6","","4","","0.4","","99.38","","","","-26","","Ice Crystals,Freezing Fog"
"-139.84","67.57","OLD CROW A","2100801","2019-02-10 06:00","2019","02","10","06:00","-24.0","","-26.6","","79","","","","10","","3","","0.4","","99.26","","","","-27","","Ice Crystals,Freezing Fog"
"-139.84","67.57","OLD CROW A","2100801","2019-02-10 07:00","2019","02","10","07:00","-25.8","","-28.7","","77","","","","36","","2","","0.8","","99.14","","","","-28","","Ice Crystals,Freezing Fog"
"-139.84","67.57","OLD CROW A","2100801","2019-02-10 08:00","2019","02","10","08:00","-26.4","","-29.2","","77","","","","8","","3","","2.0","","99.07","","","","-29","","Ice Crystals,Fog"
"-139.84","67.57","OLD CROW A","2100801","2019-02-10 09:00","2019","02","10","09:00","-27.2","","-30.1","","76","","","","5","","3","","32.2","","99.01","","","","-30","","Ice Crystals"
"-139.84","67.57","OLD CROW A","2100801","2019-02-10 10:00","2019","02","10","10:00","-27.1","","-30.0","","77","","","","36","","2","","56.3","","98.93","","","","-29","","Ice Crystals"
"-139.84","67.57","OLD CROW A","2100801","2019-02-10 11:00","2019","02","10","11:00","-26.1","","-28.9","","78","","","","26","","3","","56.3","","98.86","","","","-29","","NA"
"-139.84","67.57","OLD CROW A","2100801","2019-02-10 12:00","2019","02","10","12:00","-25.6","","-28.3","","78","","","","25","","4","","56.3","","98.80","","","","-30","","Ice Crystals"
"-139.84","67.57","OLD CROW A","2100801","2019-02-10 13:00","2019","02","10","13:00","-24.2","","-26.9","","79","","","","36","","1","","56.3","","98.74","","","","-25","","Ice Crystals"
"-139.84","67.57","OLD CROW A","2100801","2019-02-10 14:00","2019","02","10","14:00","-22.9","","-25.5","","80","","","","23","","5","","56.3","","98.68","","","","-28","","Ice Crystals"
"-139.84","67.57","OLD CROW A","2100801","2019-02-10 15:00","2019","02","10","15:00","-21.9","","-24.4","","80","","","","23","","8","","56.3","","98.64","","","","-28","","Ice Crystals"
"-139.84","67.57","OLD CROW A","2100801","2019-02-10 16:00","2019","02","10","16:00","-21.8","","-24.4","","80","","","","27","","5","","56.3","","98.64","","","","-26","","Mainly Clear"
"-139.84","67.57","OLD CROW A","2100801","2019-02-10 17:00","2019","02","10","17:00","-22.5","","-25.1","","80","","","","36","","2","","56.3","","98.63","","","","-24","","NA"
"-139.84","67.57","OLD CROW A","2100801","2019-02-10 18:00","2019","02","10","18:00","-23.8","","-26.5","","79","","","","0","","1","","56.3","","98.66","","","","-25","","NA"
"-139.84","67.57","OLD CROW A","2100801","2019-02-10 19:00","2019","02","10","19:00"
"-139.84","67.57","OLD CROW A","2100801","2019-02-10 20:00","2019","02","10","20:00"
"-139.84","67.57","OLD CROW A","2100801","2019-02-10 21:00","2019","02","10","21:00"
"-139.84","67.57","OLD CROW A","2100801","2019-02-10 22:00","2019","02","10","22:00"
"-139.84","67.57","OLD CROW A","2100801","2019-02-10 23:00","2019","02","10","23:00"
"-139.84","67.57","OLD CROW A","2100801","2019-02-11 00:00","2019","02","11","00:00"
"-139.84","67.57","OLD CROW A","2100801","2019-02-11 01:00","2019","02","11","01:00"
"-139.84","67.57","OLD CROW A","2100801","2019-02-11 02:00","2019","02","11","02:00"
"-139.84","67.57","OLD CROW A","2100801","2019-02-11 03:00","2019","02","11","03:00"
"-139.84","67.57","OLD CROW A","2100801","2019-02-11 04:00","2019","02","11","04:00"
"-139.84","67.57","OLD CROW A","2100801","2019-02-11 05:00","2019","02","11","05:00"
"-139.84","67.57","OLD CROW A","2100801","2019-02-11 06:00","2019","02","11","06:00","-10.8","","-15.6","","68","","","","26","","43","","4.8","","98.92","","","","-22","","Snow,Blowing Snow"
"-139.84","67.57","OLD CROW A","2100801","2019-02-11 07:00","2019","02","11","07:00","-10.0","","-15.1","","67","","","","25","","30","","6.4","","98.95","","","","-20","","Snow,Blowing Snow"
"-139.84","67.57","OLD CROW A","2100801","2019-02-11 08:00","2019","02","11","08:00","-9.4","","-14.4","","68","","","","27","","40","","4.8","","98.99","","","","-20","","Snow,Blowing Snow"
"-139.84","67.57","OLD CROW A","2100801","2019-02-11 09:00","2019","02","11","09:00","-9.2","","-12.9","","75","","","","25","","26","","19.3","","98.99","","","","-18","","Snow,Blowing Snow"
"-139.84","67.57","OLD CROW A","2100801","2019-02-11 10:00","2019","02","11","10:00","-9.0","","-11.4","","83","","","","26","","26","","32.2","","99.05","","","","-18","","Blowing Snow"
"-139.84","67.57","OLD CROW A","2100801","2019-02-11 11:00","2019","02","11","11:00","-9.2","","-11.2","","85","","","","27","","23","","32.2","","99.06","","","","-17","","Blowing Snow"
"-139.84","67.57","OLD CROW A","2100801","2019-02-11 12:00","2019","02","11","12:00","-8.4","","-10.7","","84","","","","27","","22","","56.3","","99.04","","","","-16","","Snow"
"-139.84","67.57","OLD CROW A","2100801","2019-02-11 13:00","2019","02","11","13:00","-8.1","","-10.1","","85","","","","27","","31","","56.3","","99.00","","","","-17","","Snow"
"-139.84","67.57","OLD CROW A","2100801","2019-02-11 14:00","2019","02","11","14:00","-7.7","","-9.7","","85","","","","27","","23","","56.3","","99.06","","","","-15","","Snow"
"-139.84","67.57","OLD CROW A","2100801","2019-02-11 15:00","2019","02","11","15:00","-7.2","","-9.4","","85","","","","27","","26","","56.3","","98.97","","","","-15","","Snow"
"-139.84","67.57","OLD CROW A","2100801","2019-02-11 16:00","2019","02","11","16:00","-6.8","","-9.0","","84","","","","24","","14","","56.3","","98.96","","","","-13","","Cloudy"
"-139.84","67.57","OLD CROW A","2100801","2019-02-11 17:00","2019","02","11","17:00","-7.1","","-9.4","","83","","","","24","","12","","56.3","","98.85","","","","-12","","NA"
"-139.84","67.57","OLD CROW A","2100801","2019-02-11 18:00","2019","02","11","18:00","-7.3","","-9.5","","85","","","","25","","12","","56.3","","98.79","","","","-13","","NA"
"-139.84","67.57","OLD CROW A","2100801","2019-02-11 19:00","2019","02","11","19:00"
"-139.84","67.57","OLD CROW A","2100801","2019-02-11 20:00","2019","02","11","20:00"
"-139.84","67.57","OLD CROW A","2100801","2019-02-11 21:00","2019","02","11","21:00"
"-139.84","67.57","OLD CROW A","2100801","2019-02-11 22:00","2019","02","11","22:00"
"-139.84","67.57","OLD CROW A","2100801","2019-02-11 23:00","2019","02","11","23:00"
"-139.84","67.57","OLD CROW A","2100801","2019-02-12 00:00","2019","02","12","00:00"
"-139.84","67.57","OLD CROW A","2100801","2019-02-12 01:00","2019","02","12","01:00"
"-139.84","67.57","OLD CROW A","2100801","2019-02-12 02:00","2019","02","12","02:00"
"-139.84","67.57","OLD CROW A","2100801","2019-02-12 03:00","2019","02","12","03:00"
"-139.84","67.57","OLD CROW A","2100801","2019-02-12 04:00","2019","02","12","04:00"
"-139.84","67.57","OLD CROW A","2100801","2019-02-12 05:00","2019","02","12","05:00"
"-139.84","67.57","OLD CROW A","2100801","2019-02-12 06:00","2019","02","12","06:00","-12.7","","-14.7","","86","","","","19","","6","","6.4","","97.23","","","","-17","","Snow"
"-139.84","67.57","OLD CROW A","2100801","2019-02-12 07:00","2019","02","12","07:00","-12.9","","-15.1","","84","","","","36","","2","","4.8","","97.19","","","","-14","","Snow"
"-139.84","67.57","OLD CROW A","2100801","2019-02-12 08:00","2019","02","12","08:00","-12.4","","-14.4","","85","","","","18","","5","","4.0","","97.11","","","","-16","","Snow"
"-139.84","67.57","OLD CROW A","2100801","2019-02-12 09:00","2019","02","12","09:00","-11.7","","-13.2","","89","","","","27","","5","","6.4","","97.01","","","","-15","","Snow"
"-139.84","67.57","OLD CROW A","2100801","2019-02-12 10:00","2019","02","12","10:00","-9.7","","-11.3","","89","","","","24","","4","","32.2","","96.92","","","","-12","","Snow"
"-139.84","67.57","OLD CROW A","2100801","2019-02-12 11:00","2019","02","12","11:00","-10.1","","-11.5","","90","","","","5","","4","","40.2","","96.88","","","","-12","","NA"
"-139.84","67.57","OLD CROW A","2100801","2019-02-12 12:00","2019","02","12","12:00","-7.7","","-9.4","","88","","","","23","","3","","40.2","","96.82","","","","-9","","Snow"
"-139.84","67.57","OLD CROW A","2100801","2019-02-12 13:00","2019","02","12","13:00","-5.8","","-7.6","","87","","","","5","","6","","40.2","","96.76","","","","-9","","Snow"
"-139.84","67.57","OLD CROW A","2100801","2019-02-12 14:00","2019","02","12","14:00","-3.8","","-5.6","","87","","","","11","","3","","32.2","","96.73","","","","-5","","Snow"
"-139.84","67.57","OLD CROW A","2100801","2019-02-12 15:00","2019","02","12","15:00","-2.8","","-5.0","","85","","","","35","","5","","32.2","","96.71","","","","-5","","NA"
"-139.84","67.57","OLD CROW A","2100801","2019-02-12 16:00","2019","02","12","16:00","-1.7","","-5.0","","78","","","","25","","28","","32.2","","96.67","","","","-8","","Blowing Snow"
"-139.84","67.57","OLD CROW A","2100801","2019-02-12 17:00","2019","02","12","17:00","-2.4","","-3.8","","90","","","","24","","11","","4.0","","96.70","","","","-6","","Snow,Fog"
"-139.84","67.57","OLD CROW A","2100801","2019-02-12 18:00","2019","02","12","18:00","-2.6","","-4.9","","84","","","","27","","20","","9.7","","96.74","","","","-9","","Fog"
"-139.84","67.57","OLD CROW A","2100801","2019-02-12 19:00","2019","02","12","19:00"
"-139.84","67.57","OLD CROW A","2100801","2019-02-12 20:00","2019","02","12","20:00"
"-139.84","67.57","OLD CROW A","2100801","2019-02-12 21:00","2019","02","12","21:00"
"-139.84","67.57","OLD CROW A","2100801","2019-02-12 22:00","2019","02","12","22:00"
"-139.84","67.57","OLD CROW A","2100801","2019-02-12 23:00","2019","02","12","23:00"
"-139.84","67.57","OLD CROW A","2100801","2019-02-13 00:00","2019","02","13","00:00"
"-139.84","67.57","OLD CROW A","2100801","2019-02-13 01:00","2019","02","13","01:00"
"-139.84","67.57","OLD CROW A","2100801","2019-02-13 02:00","2019","02","13","02:00"
"-139.84","67.57","OLD CROW A","2100801","2019-02-13 03:00","2019","02","13","03:00"
"-139.84","67.57","OLD CROW A","2100801","2019-02-13 04:00","2019","02","13","04:00"
"-139.84","67.57","OLD CROW A","2100801","2019-02-13 05:00","2019","02","13","05:00"
"-139.84","67.57","OLD CROW A","2100801","2019-02-13 06:00","2019","02","13","06:00","-8.2","","-10.1","","86","","","","25","","11","","4.0","","97.31","","","","-13","","Snow"
"-139.84","67.57","OLD CROW A","2100801","2019-02-13 07:00","2019","02","13","07:00","-8.7","","-10.8","","85","","","","25","","8","","4.8","","97.40","","","","-13","","Snow"
"-139.84","67.57","OLD CROW A","2100801","2019-02-13 08:00","2019","02","13","08:00","-9.1","","-10.9","","87","","","","24","","7","","3.6","","97.52","","","","-13","","Snow"
"-139.84","67.57","OLD CROW A","2100801","2019-02-13 09:00","2019","02","13","09:00","-10.3","","-12.6","","83","","","","3","","13","","2.0","","97.67","","","","-17","","Snow"
"-139.84","67.57","OLD CROW A","2100801","2019-02-13 10:00","2019","02","13","10:00","-10.6","","-13.0","","83","","","","5","","17","","3.2","","97.78","","","","-18","","Snow"
"-139.84","67.57","OLD CROW A","2100801","2019-02-13 11:00","2019","02","13","11:00","-9.4","","-12.1","","81","","","","9","","10","","19.3","","97.94","","","","-15","","Snow"
"-139.84","67.57","OLD CROW A","2100801","2019-02-13 12:00","2019","02","13","12:00","-12.1","","-15.6","","75","","","","3","","21","","32.2","","98.08","","","","-21","","NA"
"-139.84","67.57","OLD CROW A","2100801","2019-02-13 13:00","2019","02","13","13:00","-15.1","","-19.0","","73","","","","3","","31","","32.2","","98.24","","","","-26","","Snow,Blowing Snow"
"-139.84","67.57","OLD CROW A","2100801","2019-02-13 14:00","2019","02","13","14:00","-15.7","","-19.6","","72","","","","4","","28","","32.2","","98.35","","","","-27","","Blowing Snow"
"-139.84","67.57","OLD CROW A","2100801","2019-02-13 15:00","2019","02","13","15:00","-16.6","","-20.7","","71","","","","4","","40","","40.2","","98.46","","","","-30","","Blowing Snow"
"-139.84","67.57","OLD CROW A","2100801","2019-02-13 16:00","2019","02","13","16:00","-17.1","","-21.6","","68","","","","4","","41","","40.2","","98.60","","","","-30","","Snow"
"-139.84","67.57","OLD CROW A","2100801","2019-02-13 17:00","2019","02","13","17:00","-18.9","","-23.2","","69","","","","4","","44","","32.2","","98.70","","","","-33","","Blowing Snow"
"-139.84","67.57","OLD CROW A","2100801","2019-02-13 18:00","2019","02","13","18:00","-19.8","","-24.5","","67","","","","5","","36","","32.2","","98.86","","","","-33","","Blowing Snow"
"-139.84","67.57","OLD CROW A","2100801","2019-02-13 19:00","2019","02","13","19:00"
"-139.84","67.57","OLD CROW A","2100801","2019-02-13 20:00","2019","02","13","20:00"
"-139.84","67.57","OLD CROW A","2100801","2019-02-13 21:00","2019","02","13","21:00"
"-139.84","67.57","OLD CROW A","2100801","2019-02-13 22:00","2019","02","13","22:00"
"-139.84","67.57","OLD CROW A","2100801","2019-02-13 23:00","2019","02","13","23:00"
"-139.84","67.57","OLD CROW A","2100801","2019-02-14 00:00","2019","02","14","00:00"
"-139.84","67.57","OLD CROW A","2100801","2019-02-14 01:00","2019","02","14","01:00"
"-139.84","67.57","OLD CROW A","2100801","2019-02-14 02:00","2019","02","14","02:00"
"-139.84","67.57","OLD CROW A","2100801","2019-02-14 03:00","2019","02","14","03:00"
"-139.84","67.57","OLD CROW A","2100801","2019-02-14 04:00","2019","02","14","04:00"
"-139.84","67.57","OLD CROW A","2100801","2019-02-14 05:00","2019","02","14","05:00"
"-139.84","67.57","OLD CROW A","2100801","2019-02-14 06:00","2019","02","14","06:00","-22.3","","-25.6","","76","","","","36","","3","","24.1","","99.79","","","","-25","","Snow"
"-139.84","67.57","OLD CROW A","2100801","2019-02-14 07:00","2019","02","14","07:00","-22.4","","-25.9","","74","","","","36","","1","","24.1","","99.82","","","","-23","","Snow"
"-139.84","67.57","OLD CROW A","2100801","2019-02-14 08:00","2019","02","14","08:00","-22.3","","-25.3","","77","","","","36","","1","","24.1","","99.86","","","","-23","","NA"
"-139.84","67.57","OLD CROW A","2100801","2019-02-14 09:00","2019","02","14","09:00","-22.5","","-26.3","","72","","","","9","","5","","24.1","","99.89","","","","-27","","NA"
"-139.84","67.57","OLD CROW A","2100801","2019-02-14 10:00","2019","02","14","10:00","-22.5","","-26.2","","73","","","","7","","4","","24.1","","99.89","","","","-26","","Cloudy"
"-139.84","67.57","OLD CROW A","2100801","2019-02-14 11:00","2019","02","14","11:00","-23.1","","-26.7","","73","","","","36","","2","","56.3","","99.90","","","","-25","","NA"
"-139.84","67.57","OLD CROW A","2100801","2019-02-14 12:00","2019","02","14","12:00","-22.8","","-26.6","","72","","","","24","","4","","56.3","","99.89","","","","-27","","Snow"
"-139.84","67.57","OLD CROW A","2100801","2019-02-14 13:00","2019","02","14","13:00","-22.9","","-26.6","","72","","","","36","","1","","56.3","","99.88","","","","-24","","Snow"
"-139.84","67.57","OLD CROW A","2100801","2019-02-14 14:00","2019","02","14","14:00","-22.4","","-26.3","","71","","","","36","","3","","40.2","","99.83","","","","-25","","Snow"
"-139.84","67.57","OLD CROW A","2100801","2019-02-14 15:00","2019","02","14","15:00","-21.7","","-26.0","","69","","","","26","","4","","32.2","","99.78","","","","-25","","Snow"
"-139.84","67.57","OLD CROW A","2100801","2019-02-14 16:00","2019","02","14","16:00","-21.7","","-25.9","","69","","","","26","","3","","56.3","","99.75","","","","-24","","Mostly Cloudy"
"-139.84","67.57","OLD CROW A","2100801","2019-02-14 17:00","2019","02","14","17:00","-21.7","","-25.8","","70","","","","36","","1","","56.3","","99.72","","","","-23","","NA"
"-139.84","67.57","OLD CROW A","2100801","2019-02-14 18:00","2019","02","14","18:00","-22.5","","-25.8","","75","","","","5","","5","","56.3","","99.69","","","","-27","","NA"
"-139.84","67.57","OLD CROW A","2100801","2019-02-14 19:00","2019","02","14","19:00"
"-139.84","67.57","OLD CROW A","2100801","2019-02-14 20:00","2019","02","14","20:00"
"-139.84","67.57","OLD CROW A","2100801","2019-02-14 21:00","2019","02","14","21:00"
"-139.84","67.57","OLD CROW A","2100801","2019-02-14 22:00","2019","02","14","22:00"
"-139.84","67.57","OLD CROW A","2100801","2019-02-14 23:00","2019","02","14","23:00"
"-139.84","67.57","OLD CROW A","2100801","2019-02-15 00:00","2019","02","15","00:00"
"-139.84","67.57","OLD CROW A","2100801","2019-02-15 01:00","2019","02","15","01:00"
"-139.84","67.57","OLD CROW A","2100801","2019-02-15 02:00","2019","02","15","02:00"
"-139.84","67.57","OLD CROW A","2100801","2019-02-15 03:00","2019","02","15","03:00"
"-139.84","67.57","OLD CROW A","2100801","2019-02-15 04:00","2019","02","15","04:00"
"-139.84","67.57","OLD CROW A","2100801","2019-02-15 05:00","2019","02","15","05:00"
"-139.84","67.57","OLD CROW A","2100801","2019-02-15 06:00","2019","02","15","06:00","-27.8","","-30.7","","76","","","","29","","4","","56.3","","99.48","","","","-32","","Ice Crystals"
"-139.84","67.57","OLD CROW A","2100801","2019-02-15 07:00","2019","02","15","07:00","-28.8","","-31.7","","76","","","","25","","7","","56.3","","99.51","","","","-36","","Ice Crystals"
"-139.84","67.57","OLD CROW A","2100801","2019-02-15 08:00","2019","02","15","08:00","-30.9","","-33.9","","76","","","","36","","1","","56.3","","99.55","","","","-32","","Ice Crystals"
"-139.84","67.57","OLD CROW A","2100801","2019-02-15 09:00","2019","02","15","09:00","-32.2","","-35.4","","74","","","","36","","2","","56.3","","99.58","","","","-35","","Ice Crystals"
"-139.84","67.57","OLD CROW A","2100801","2019-02-15 10:00","2019","02","15","10:00","-32.8","","-36.1","","73","","","","36","","2","","56.3","","99.62","","","","-35","","Clear"
"-139.84","67.57","OLD CROW A","2100801","2019-02-15 11:00","2019","02","15","11:00","-31.6","","-35.0","","73","","","","36","","1","","56.3","","99.63","","","","-33","","NA"
"-139.84","67.57","OLD CROW A","2100801","2019-02-15 12:00","2019","02","15","12:00","-29.5","","-32.5","","76","","","","26","","5","","56.3","","99.65","","","","-35","","NA"
"-139.84","67.57","OLD CROW A","2100801","2019-02-15 13:00","2019","02","15","13:00","-28.4","","-31.7","","74","","","","24","","4","","56.3","","99.64","","","","-33","","Clear"
"-139.84","67.57","OLD CROW A","2100801","2019-02-15 14:00","2019","02","15","14:00","-27.4","","-30.6","","74","","","","26","","4","","56.3","","99.65","","","","-32","","NA"
"-139.84","67.57","OLD CROW A","2100801","2019-02-15 15:00","2019","02","15","15:00","-26.5","","-30.1","","72","","","","27","","4","","56.3","","99.65","","","","-31","","NA"
"-139.84","67.57","OLD CROW A","2100801","2019-02-15 16:00","2019","02","15","16:00","-25.1","","-29.1","","70","","","","23","","5","","56.3","","99.66","","","","-30","","Clear"
"-139.84","67.57","OLD CROW A","2100801","2019-02-15 17:00","2019","02","15","17:00","-25.3","","-29.3","","70","","","","36","","2","","56.3","","99.68","","","","-27","","NA"
"-139.84","67.57","OLD CROW A","2100801","2019-02-15 18:00","2019","02","15","18:00","-28.7","","-31.7","","76","","","","36","","1","","56.3","","99.70","","","","-30","","NA"
"-139.84","67.57","OLD CROW A","2100801","2019-02-15 19:00","2019","02","15","19:00"
"-139.84","67.57","OLD CROW A","2100801","2019-02-15 20:00","2019","02","15","20:00"
"-139.84","67.57","OLD CROW A","2100801","2019-02-15 21:00","2019","02","15","21:00"
"-139.84","67.57","OLD CROW A","2100801","2019-02-15 22:00","2019","02","15","22:00"
"-139.84","67.57","OLD CROW A","2100801","2019-02-15 23:00","2019","02","15","23:00"
"-139.84","67.57","OLD CROW A","2100801","2019-02-16 00:00","2019","02","16","00:00"
"-139.84","67.57","OLD CROW A","2100801","2019-02-16 01:00","2019","02","16","01:00"
"-139.84","67.57","OLD CROW A","2100801","2019-02-16 02:00","2019","02","16","02:00"
"-139.84","67.57","OLD CROW A","2100801","2019-02-16 03:00","2019","02","16","03:00"
"-139.84","67.57","OLD CROW A","2100801","2019-02-16 04:00","2019","02","16","04:00"
"-139.84","67.57","OLD CROW A","2100801","2019-02-16 05:00","2019","02","16","05:00"
"-139.84","67.57","OLD CROW A","2100801","2019-02-16 06:00","2019","02","16","06:00","-38.2","","-41.9","","69","","","","12","","3","","56.3","","99.57","","","","-42","","Ice Crystals"
"-139.84","67.57","OLD CROW A","2100801","2019-02-16 07:00","2019","02","16","07:00","-37.6","","-41.3","","70","","","","36","","2","","56.3","","99.55","","","","-40","","Ice Crystals"
"-139.84","67.57","OLD CROW A","2100801","2019-02-16 08:00","2019","02","16","08:00","-38.3","","-42.0","","69","","","","36","","3","","56.3","","99.54","","","","-42","","Ice Crystals"
"-139.84","67.57","OLD CROW A","2100801","2019-02-16 09:00","2019","02","16","09:00","-38.6","","-42.4","","69","","","","36","","3","","56.3","","99.54","","","","-43","","NA"
"-139.84","67.57","OLD CROW A","2100801","2019-02-16 10:00","2019","02","16","10:00","-38.8","","-42.5","","68","","","","36","","2","","56.3","","99.49","","","","-42","","Mainly Clear"
"-139.84","67.57","OLD CROW A","2100801","2019-02-16 11:00","2019","02","16","11:00","-37.4","","-41.2","","69","","","","36","","1","","56.3","","99.40","","","","-39","","NA"
"-139.84","67.57","OLD CROW A","2100801","2019-02-16 12:00","2019","02","16","12:00","-35.2","","-38.8","","71","","","","25","","5","","56.3","","99.38","","","","-42","","Ice Crystals"
"-139.84","67.57","OLD CROW A","2100801","2019-02-16 13:00","2019","02","16","13:00","-33.6","","-37.1","","71","","","","36","","2","","56.3","","99.37","","","","-36","","Ice Crystals"
"-139.84","67.57","OLD CROW A","2100801","2019-02-16 14:00","2019","02","16","14:00","-31.9","","-35.6","","70","","","","26","","5","","56.3","","99.38","","","","-38","","Ice Crystals"
"-139.84","67.57","OLD CROW A","2100801","2019-02-16 15:00","2019","02","16","15:00","-30.8","","-34.9","","68","","","","26","","6","","56.3","","99.43","","","","-37","","NA"
"-139.84","67.57","OLD CROW A","2100801","2019-02-16 16:00","2019","02","16","16:00","-29.1","","-33.1","","69","","","","24","","8","","56.3","","99.40","","","","-37","","Mostly Cloudy"
"-139.84","67.57","OLD CROW A","2100801","2019-02-16 17:00","2019","02","16","17:00","-28.8","","-33.0","","68","","","","22","","3","","56.3","","99.39","","","","-32","","NA"
"-139.84","67.57","OLD CROW A","2100801","2019-02-16 18:00","2019","02","16","18:00","-29.2","","-33.3","","69","","","","25","","5","","56.3","","99.39","","","","-35","","NA"
"-139.84","67.57","OLD CROW A","2100801","2019-02-16 19:00","2019","02","16","19:00"
"-139.84","67.57","OLD CROW A","2100801","2019-02-16 20:00","2019","02","16","20:00"
"-139.84","67.57","OLD CROW A","2100801","2019-02-16 21:00","2019","02","16","21:00"
"-139.84","67.57","OLD CROW A","2100801","2019-02-16 22:00","2019","02","16","22:00"
"-139.84","67.57","OLD CROW A","2100801","2019-02-16 23:00","2019","02","16","23:00"
"-139.84","67.57","OLD CROW A","2100801","2019-02-17 00:00","2019","02","17","00:00"
"-139.84","67.57","OLD CROW A","2100801","2019-02-17 01:00","2019","02","17","01:00"
"-139.84","67.57","OLD CROW A","2100801","2019-02-17 02:00","2019","02","17","02:00"
"-139.84","67.57","OLD CROW A","2100801","2019-02-17 03:00","2019","02","17","03:00"
"-139.84","67.57","OLD CROW A","2100801","2019-02-17 04:00","2019","02","17","04:00"
"-139.84","67.57","OLD CROW A","2100801","2019-02-17 05:00","2019","02","17","05:00"
"-139.84","67.57","OLD CROW A","2100801","2019-02-17 06:00","2019","02","17","06:00","-25.2","","-27.7","","80","","","","6","","7","","56.3","","99.67","","","","-32","","NA"
"-139.84","67.57","OLD CROW A","2100801","2019-02-17 07:00","2019","02","17","07:00","-25.0","","-27.7","","79","","","","8","","4","","56.3","","99.69","","","","-29","","Mostly Cloudy"
"-139.84","67.57","OLD CROW A","2100801","2019-02-17 08:00","2019","02","17","08:00","-28.2","","-31.2","","76","","","","11","","4","","56.3","","99.70","","","","-33","","NA"
"-139.84","67.57","OLD CROW A","2100801","2019-02-17 09:00","2019","02","17","09:00","-28.2","","-31.3","","75","","","","7","","5","","56.3","","99.64","","","","-34","","NA"
"-139.84","67.57","OLD CROW A","2100801","2019-02-17 10:00","2019","02","17","10:00","-27.4","","-30.4","","76","","","","36","","1","","56.3","","99.56","","","","-28","","Cloudy"
"-139.84","67.57","OLD CROW A","2100801","2019-02-17 11:00","2019","02","17","11:00","-25.6","","-28.8","","75","","","","26","","6","","56.3","","99.55","","","","-31","","NA"
"-139.84","67.57","OLD CROW A","2100801","2019-02-17 12:00","2019","02","17","12:00","-24.9","","-28.3","","74","","","","19","","4","","56.3","","99.50","","","","-29","","NA"
"-139.84","67.57","OLD CROW A","2100801","2019-02-17 13:00","2019","02","17","13:00","-23.6","","-27.0","","74","","","","36","","1","","56.3","","99.37","","","","-25","","Ice Crystals"
"-139.84","67.57","OLD CROW A","2100801","2019-02-17 14:00","2019","02","17","14:00","-22.6","","-26.5","","71","","","","28","","3","","56.3","","99.26","","","","-25","","NA"
"-139.84","67.57","OLD CROW A","2100801","2019-02-17 15:00","2019","02","17","15:00","-21.7","","-26.1","","68","","","","6","","10","","56.3","","99.17","","","","-29","","NA"
"-139.84","67.57","OLD CROW A","2100801","2019-02-17 16:00","2019","02","17","16:00","-21.7","","-25.7","","71","","","","5","","7","","56.3","","99.00","","","","-28","","Mostly Cloudy"
"-139.84","67.57","OLD CROW A","2100801","2019-02-17 17:00","2019","02","17","17:00","-22.2","","-25.9","","73","","","","36","","1","","56.3","","98.87","","","","-23","","NA"
"-139.84","67.57","OLD CROW A","2100801","2019-02-17 18:00","2019","02","17","18:00","-23.0","","-26.2","","76","","","","7","","4","","56.3","","98.74","","","","-27","","NA"
"-139.84","67.57","OLD CROW A","2100801","2019-02-17 19:00","2019","02","17","19:00"
"-139.84","67.57","OLD CROW A","2100801","2019-02-17 20:00","2019","02","17","20:00"
"-139.84","67.57","OLD CROW A","2100801","2019-02-17 21:00","2019","02","17","21:00"
"-139.84","67.57","OLD CROW A","2100801","2019-02-17 22:00","2019","02","17","22:00"
"-139.84","67.57","OLD CROW A","2100801","2019-02-17 23:00","2019","02","17","23:00"
"-139.84","67.57","OLD CROW A","2100801","2019-02-18 00:00","2019","02","18","00:00"
"-139.84","67.57","OLD CROW A","2100801","2019-02-18 01:00","2019","02","18","01:00"
"-139.84","67.57","OLD CROW A","2100801","2019-02-18 02:00","2019","02","18","02:00"
"-139.84","67.57","OLD CROW A","2100801","2019-02-18 03:00","2019","02","18","03:00"
"-139.84","67.57","OLD CROW A","2100801","2019-02-18 04:00","2019","02","18","04:00"
"-139.84","67.57","OLD CROW A","2100801","2019-02-18 05:00","2019","02","18","05:00"
"-139.84","67.57","OLD CROW A","2100801","2019-02-18 06:00","2019","02","18","06:00","-19.9","","-22.9","","77","","","","22","","5","","3.2","","97.56","","","","-24","","Snow,Fog"
"-139.84","67.57","OLD CROW A","2100801","2019-02-18 07:00","2019","02","18","07:00","-19.7","","-22.6","","78","","","","24","","6","","2.4","","97.51","","","","-25","","Snow,Fog"
"-139.84","67.57","OLD CROW A","2100801","2019-02-18 08:00","2019","02","18","08:00","-19.1","","-22.0","","78","","","","19","","7","","4.0","","97.47","","","","-25","","Snow,Fog"
"-139.84","67.57","OLD CROW A","2100801","2019-02-18 09:00","2019","02","18","09:00","-19.2","","-22.0","","79","","","","23","","4","","32.2","","97.46","","","","-23","","NA"
"-139.84","67.57","OLD CROW A","2100801","2019-02-18 10:00","2019","02","18","10:00","-18.2","","-21.2","","78","","","","24","","16","","40.2","","97.42","","","","-27","","Cloudy"
"-139.84","67.57","OLD CROW A","2100801","2019-02-18 11:00","2019","02","18","11:00","-17.7","","-20.7","","78","","","","22","","8","","40.2","","97.36","","","","-24","","NA"
"-139.84","67.57","OLD CROW A","2100801","2019-02-18 12:00","2019","02","18","12:00","-9.2","","-10.8","","88","","","","26","","25","","19.3","","97.31","","","","-18","","Snow,Blowing Snow"
"-139.84","67.57","OLD CROW A","2100801","2019-02-18 13:00","2019","02","18","13:00","-9.8","","-12.1","","83","","","","23","","17","","24.1","","97.30","","","","-17","","Blowing Snow"
"-139.84","67.57","OLD CROW A","2100801","2019-02-18 14:00","2019","02","18","14:00","-9.0","","-11.3","","83","","","","23","","10","","32.2","","97.33","","","","-14","","NA"
"-139.84","67.57","OLD CROW A","2100801","2019-02-18 15:00","2019","02","18","15:00","-9.2","","-11.6","","83","","","","20","","11","","32.2","","97.29","","","","-15","","NA"
"-139.84","67.57","OLD CROW A","2100801","2019-02-18 16:00","2019","02","18","16:00","-8.4","","-11.0","","82","","","","24","","17","","32.2","","97.25","","","","-15","","Cloudy"
"-139.84","67.57","OLD CROW A","2100801","2019-02-18 17:00","2019","02","18","17:00","-8.0","","-10.3","","84","","","","25","","14","","32.2","","97.23","","","","-14","","NA"
"-139.84","67.57","OLD CROW A","2100801","2019-02-18 18:00","2019","02","18","18:00","-7.8","","-10.0","","84","","","","26","","26","","32.2","","97.23","","","","-16","","NA"
"-139.84","67.57","OLD CROW A","2100801","2019-02-18 19:00","2019","02","18","19:00"
"-139.84","67.57","OLD CROW A","2100801","2019-02-18 20:00","2019","02","18","20:00"
"-139.84","67.57","OLD CROW A","2100801","2019-02-18 21:00","2019","02","18","21:00"
"-139.84","67.57","OLD CROW A","2100801","2019-02-18 22:00","2019","02","18","22:00"
"-139.84","67.57","OLD CROW A","2100801","2019-02-18 23:00","2019","02","18","23:00"
"-139.84","67.57","OLD CROW A","2100801","2019-02-19 00:00","2019","02","19","00:00"
"-139.84","67.57","OLD CROW A","2100801","2019-02-19 01:00","2019","02","19","01:00"
"-139.84","67.57","OLD CROW A","2100801","2019-02-19 02:00","2019","02","19","02:00"
"-139.84","67.57","OLD CROW A","2100801","2019-02-19 03:00","2019","02","19","03:00"
"-139.84","67.57","OLD CROW A","2100801","2019-02-19 04:00","2019","02","19","04:00"
"-139.84","67.57","OLD CROW A","2100801","2019-02-19 05:00","2019","02","19","05:00"
"-139.84","67.57","OLD CROW A","2100801","2019-02-19 06:00","2019","02","19","06:00","-8.5","","-10.1","","88","","","","21","","7","","16.1","","97.60","","","","-12","","Snow"
"-139.84","67.57","OLD CROW A","2100801","2019-02-19 07:00","2019","02","19","07:00","-7.6","","-9.6","","85","","","","26","","18","","16.1","","97.67","","","","-14","","Snow"
"-139.84","67.57","OLD CROW A","2100801","2019-02-19 08:00","2019","02","19","08:00","-8.2","","-10.0","","87","","","","26","","12","","16.1","","97.75","","","","-14","","NA"
"-139.84","67.57","OLD CROW A","2100801","2019-02-19 09:00","2019","02","19","09:00","-8.1","","-10.4","","83","","","","24","","19","","32.2","","97.81","","","","-15","","NA"
"-139.84","67.57","OLD CROW A","2100801","2019-02-19 10:00","2019","02","19","10:00","-8.6","","-10.6","","85","","","","24","","8","","56.3","","97.91","","","","-13","","Cloudy"
"-139.84","67.57","OLD CROW A","2100801","2019-02-19 11:00","2019","02","19","11:00","-12.1","","-14.8","","81","","","","7","","9","","56.3","","98.03","","","","-17","","NA"
"-139.84","67.57","OLD CROW A","2100801","2019-02-19 12:00","2019","02","19","12:00","-11.7","","-14.7","","79","","","","9","","7","","56.3","","98.18","","","","-16","","Snow"
"-139.84","67.57","OLD CROW A","2100801","2019-02-19 13:00","2019","02","19","13:00","-11.9","","-14.8","","80","","","","9","","6","","4.0","","98.30","","","","-16","","Snow,Fog"
"-139.84","67.57","OLD CROW A","2100801","2019-02-19 14:00","2019","02","19","14:00","-11.5","","-14.1","","81","","","","10","","7","","1.6","","98.42","","","","-16","","Snow,Fog"
"-139.84","67.57","OLD CROW A","2100801","2019-02-19 15:00","2019","02","19","15:00"
"-139.84","67.57","OLD CROW A","2100801","2019-02-19 16:00","2019","02","19","16:00"
"-139.84","67.57","OLD CROW A","2100801","2019-02-19 17:00","2019","02","19","17:00"
"-139.84","67.57","OLD CROW A","2100801","2019-02-19 18:00","2019","02","19","18:00"
"-139.84","67.57","OLD CROW A","2100801","2019-02-19 19:00","2019","02","19","19:00"
"-139.84","67.57","OLD CROW A","2100801","2019-02-19 20:00","2019","02","19","20:00"
"-139.84","67.57","OLD CROW A","2100801","2019-02-19 21:00","2019","02","19","21:00"
"-139.84","67.57","OLD CROW A","2100801","2019-02-19 22:00","2019","02","19","22:00"
"-139.84","67.57","OLD CROW A","2100801","2019-02-19 23:00","2019","02","19","23:00"
"-139.84","67.57","OLD CROW A","2100801","2019-02-20 00:00","2019","02","20","00:00"
"-139.84","67.57","OLD CROW A","2100801","2019-02-20 01:00","2019","02","20","01:00"
"-139.84","67.57","OLD CROW A","2100801","2019-02-20 02:00","2019","02","20","02:00"
"-139.84","67.57","OLD CROW A","2100801","2019-02-20 03:00","2019","02","20","03:00"
"-139.84","67.57","OLD CROW A","2100801","2019-02-20 04:00","2019","02","20","04:00"
"-139.84","67.57","OLD CROW A","2100801","2019-02-20 05:00","2019","02","20","05:00"
"-139.84","67.57","OLD CROW A","2100801","2019-02-20 06:00","2019","02","20","06:00","-18.7","","-21.0","","82","","","","","","0","","32.2","","99.60","","","","","","Snow"
"-139.84","67.57","OLD CROW A","2100801","2019-02-20 07:00","2019","02","20","07:00","-18.8","","-20.9","","84","","","","36","","2","","40.2","","99.60","","","","-20","","Snow"
"-139.84","67.57","OLD CROW A","2100801","2019-02-20 08:00","2019","02","20","08:00","-19.5","","-22.0","","81","","","","26","","4","","40.2","","99.61","","","","-23","","Snow"
"-139.84","67.57","OLD CROW A","2100801","2019-02-20 09:00","2019","02","20","09:00","-18.5","","-21.0","","81","","","","27","","3","","40.2","","99.59","","","","-21","","Snow"
"-139.84","67.57","OLD CROW A","2100801","2019-02-20 10:00","2019","02","20","10:00","-18.8","","-21.1","","82","","","","4","","4","","40.2","","99.56","","","","-22","","Snow"
"-139.84","67.57","OLD CROW A","2100801","2019-02-20 11:00","2019","02","20","11:00","-18.2","","-20.6","","82","","","","36","","2","","40.2","","99.53","","","","-20","","Snow"
"-139.84","67.57","OLD CROW A","2100801","2019-02-20 12:00","2019","02","20","12:00","-17.4","","-20.2","","79","","","","22","","5","","56.3","","99.54","","","","-21","","Snow"
"-139.84","67.57","OLD CROW A","2100801","2019-02-20 13:00","2019","02","20","13:00","-16.6","","-19.1","","81","","","","0","","1","","56.3","","99.52","","","","-17","","Snow"
"-139.84","67.57","OLD CROW A","2100801","2019-02-20 14:00","2019","02","20","14:00","-15.9","","-19.0","","77","","","","36","","1","","56.3","","99.47","","","","-17","","Snow"
"-139.84","67.57","OLD CROW A","2100801","2019-02-20 15:00","2019","02","20","15:00","-16.2","","-19.3","","77","","","","6","","10","","56.3","","99.38","","","","-23","","NA"
"-139.84","67.57","OLD CROW A","2100801","2019-02-20 16:00","2019","02","20","16:00","-17.2","","-20.0","","79","","","","9","","5","","56.3","","99.31","","","","-21","","Mostly Cloudy"
"-139.84","67.57","OLD CROW A","2100801","2019-02-20 17:00","2019","02","20","17:00","-20.5","","-22.6","","83","","","","10","","8","","56.3","","99.24","","","","-27","","NA"
"-139.84","67.57","OLD CROW A","2100801","2019-02-20 18:00","2019","02","20","18:00","-23.1","","-25.2","","83","","","","8","","4","","56.3","","99.18","","","","-27","","NA"
"-139.84","67.57","OLD CROW A","2100801","2019-02-20 19:00","2019","02","20","19:00"
"-139.84","67.57","OLD CROW A","2100801","2019-02-20 20:00","2019","02","20","20:00"
"-139.84","67.57","OLD CROW A","2100801","2019-02-20 21:00","2019","02","20","21:00"
"-139.84","67.57","OLD CROW A","2100801","2019-02-20 22:00","2019","02","20","22:00"
"-139.84","67.57","OLD CROW A","2100801","2019-02-20 23:00","2019","02","20","23:00"
"-139.84","67.57","OLD CROW A","2100801","2019-02-21 00:00","2019","02","21","00:00"
"-139.84","67.57","OLD CROW A","2100801","2019-02-21 01:00","2019","02","21","01:00"
"-139.84","67.57","OLD CROW A","2100801","2019-02-21 02:00","2019","02","21","02:00"
"-139.84","67.57","OLD CROW A","2100801","2019-02-21 03:00","2019","02","21","03:00"
"-139.84","67.57","OLD CROW A","2100801","2019-02-21 04:00","2019","02","21","04:00"
"-139.84","67.57","OLD CROW A","2100801","2019-02-21 05:00","2019","02","21","05:00"
"-139.84","67.57","OLD CROW A","2100801","2019-02-21 06:00","2019","02","21","06:00","-25.9","","-28.8","","77","","","","36","","2","","0.2","","98.68","","","","-28","","Freezing Fog"
"-139.84","67.57","OLD CROW A","2100801","2019-02-21 07:00","2019","02","21","07:00","-26.0","","-28.9","","77","","","","9","","6","","0.2","","98.67","","","","-32","","Freezing Fog"
"-139.84","67.57","OLD CROW A","2100801","2019-02-21 08:00","2019","02","21","08:00","-26.7","","-29.6","","77","","","","36","","2","","0.2","","98.64","","","","-29","","Freezing Fog"
"-139.84","67.57","OLD CROW A","2100801","2019-02-21 09:00","2019","02","21","09:00","-27.3","","-30.2","","76","","","","7","","5","","1.2","","98.68","","","","-33","","Fog"
"-139.84","67.57","OLD CROW A","2100801","2019-02-21 10:00","2019","02","21","10:00","-26.9","","-29.8","","77","","","","0","","1","","1.6","","98.69","","","","-28","","Fog"
"-139.84","67.57","OLD CROW A","2100801","2019-02-21 11:00","2019","02","21","11:00","-26.2","","-29.1","","77","","","","22","","4","","0.4","","98.69","","","","-30","","Freezing Fog"
"-139.84","67.57","OLD CROW A","2100801","2019-02-21 12:00","2019","02","21","12:00","-26.2","","-29.2","","77","","","","11","","4","","16.1","","98.74","","","","-30","","NA"
"-139.84","67.57","OLD CROW A","2100801","2019-02-21 13:00","2019","02","21","13:00","-25.9","","-28.8","","77","","","","5","","4","","24.1","","98.77","","","","-30","","Mostly Cloudy"
"-139.84","67.57","OLD CROW A","2100801","2019-02-21 14:00","2019","02","21","14:00","-25.0","","-27.9","","78","","","","9","","4","","16.1","","98.78","","","","-29","","Fog"
"-139.84","67.57","OLD CROW A","2100801","2019-02-21 15:00","2019","02","21","15:00","-23.9","","-26.7","","78","","","","13","","3","","24.1","","98.76","","","","-27","","Ice Crystals"
"-139.84","67.57","OLD CROW A","2100801","2019-02-21 16:00","2019","02","21","16:00","-23.8","","-26.6","","78","","","","4","","4","","56.3","","98.79","","","","-28","","Mostly Cloudy"
"-139.84","67.57","OLD CROW A","2100801","2019-02-21 17:00","2019","02","21","17:00","-23.4","","-26.0","","79","","","","36","","1","","56.3","","98.82","","","","-24","","NA"
"-139.84","67.57","OLD CROW A","2100801","2019-02-21 18:00","2019","02","21","18:00","-26.0","","-28.9","","77","","","","36","","2","","56.3","","98.84","","","","-28","","NA"
"-139.84","67.57","OLD CROW A","2100801","2019-02-21 19:00","2019","02","21","19:00"
"-139.84","67.57","OLD CROW A","2100801","2019-02-21 20:00","2019","02","21","20:00"
"-139.84","67.57","OLD CROW A","2100801","2019-02-21 21:00","2019","02","21","21:00"
"-139.84","67.57","OLD CROW A","2100801","2019-02-21 22:00","2019","02","21","22:00"
"-139.84","67.57","OLD CROW A","2100801","2019-02-21 23:00","2019","02","21","23:00"
"-139.84","67.57","OLD CROW A","2100801","2019-02-22 00:00","2019","02","22","00:00"
"-139.84","67.57","OLD CROW A","2100801","2019-02-22 01:00","2019","02","22","01:00"
"-139.84","67.57","OLD CROW A","2100801","2019-02-22 02:00","2019","02","22","02:00"
"-139.84","67.57","OLD CROW A","2100801","2019-02-22 03:00","2019","02","22","03:00"
"-139.84","67.57","OLD CROW A","2100801","2019-02-22 04:00","2019","02","22","04:00"
"-139.84","67.57","OLD CROW A","2100801","2019-02-22 05:00","2019","02","22","05:00"
"-139.84","67.57","OLD CROW A","2100801","2019-02-22 06:00","2019","02","22","06:00","-34.5","","-38.0","","71","","","","7","","4","","32.2","","99.63","","","","-39","","NA"
"-139.84","67.57","OLD CROW A","2100801","2019-02-22 07:00","2019","02","22","07:00","-34.6","","-38.1","","71","","","","36","","2","","32.2","","99.69","","","","-37","","Mostly Cloudy"
"-139.84","67.57","OLD CROW A","2100801","2019-02-22 08:00","2019","02","22","08:00","-34.5","","-37.9","","72","","","","26","","3","","16.1","","99.74","","","","-38","","NA"
"-139.84","67.57","OLD CROW A","2100801","2019-02-22 09:00","2019","02","22","09:00","-35.1","","-38.7","","71","","","","36","","3","","9.7","","99.81","","","","-39","","Ice Crystals"
"-139.84","67.57","OLD CROW A","2100801","2019-02-22 10:00","2019","02","22","10:00","-33.0","","-36.4","","72","","","","36","","2","","4.8","","99.86","","","","-35","","Ice Crystals,Fog"
"-139.84","67.57","OLD CROW A","2100801","2019-02-22 11:00","2019","02","22","11:00","-30.9","","-34.2","","73","","","","36","","2","","4.8","","99.93","","","","-33","","Ice Crystals,Fog"
"-139.84","67.57","OLD CROW A","2100801","2019-02-22 12:00","2019","02","22","12:00","-29.4","","-32.7","","74","","","","36","","2","","24.1","","99.97","","","","-32","","NA"
"-139.84","67.57","OLD CROW A","2100801","2019-02-22 13:00","2019","02","22","13:00","-28.0","","-31.1","","75","","","","36","","1","","24.1","","100.01","","","","-29","","Cloudy"
"-139.84","67.57","OLD CROW A","2100801","2019-02-22 14:00","2019","02","22","14:00","-26.3","","-29.3","","76","","","","11","","4","","24.1","","100.04","","","","-30","","NA"
"-139.84","67.57","OLD CROW A","2100801","2019-02-22 15:00","2019","02","22","15:00","-25.8","","-28.8","","77","","","","36","","2","","24.1","","100.06","","","","-28","","NA"
"-139.84","67.57","OLD CROW A","2100801","2019-02-22 16:00","2019","02","22","16:00","-25.6","","-28.6","","77","","","","36","","2","","24.1","","100.09","","","","-28","","Cloudy"
"-139.84","67.57","OLD CROW A","2100801","2019-02-22 17:00","2019","02","22","17:00","-24.9","","-27.8","","78","","","","36","","2","","8.1","","100.09","","","","-27","","Fog"
"-139.84","67.57","OLD CROW A","2100801","2019-02-22 18:00","2019","02","22","18:00","-25.3","","-28.2","","77","","","","36","","1","","4.8","","100.09","","","","-26","","Fog"
"-139.84","67.57","OLD CROW A","2100801","2019-02-22 19:00","2019","02","22","19:00"
"-139.84","67.57","OLD CROW A","2100801","2019-02-22 20:00","2019","02","22","20:00"
"-139.84","67.57","OLD CROW A","2100801","2019-02-22 21:00","2019","02","22","21:00"
"-139.84","67.57","OLD CROW A","2100801","2019-02-22 22:00","2019","02","22","22:00"
"-139.84","67.57","OLD CROW A","2100801","2019-02-22 23:00","2019","02","22","23:00"
"-139.84","67.57","OLD CROW A","2100801","2019-02-23 00:00","2019","02","23","00:00"
"-139.84","67.57","OLD CROW A","2100801","2019-02-23 01:00","2019","02","23","01:00"
"-139.84","67.57","OLD CROW A","2100801","2019-02-23 02:00","2019","02","23","02:00"
"-139.84","67.57","OLD CROW A","2100801","2019-02-23 03:00","2019","02","23","03:00"
"-139.84","67.57","OLD CROW A","2100801","2019-02-23 04:00","2019","02","23","04:00"
"-139.84","67.57","OLD CROW A","2100801","2019-02-23 05:00","2019","02","23","05:00"
"-139.84","67.57","OLD CROW A","2100801","2019-02-23 06:00","2019","02","23","06:00","-33.5","","-37.0","","72","","","","36","","2","","6.4","","100.01","","","","-36","","Ice Crystals,Fog"
"-139.84","67.57","OLD CROW A","2100801","2019-02-23 07:00","2019","02","23","07:00","-34.5","","-38.0","","71","","","","36","","1","","6.4","","100.00","","","","-36","","Ice Crystals,Fog"
"-139.84","67.57","OLD CROW A","2100801","2019-02-23 08:00","2019","02","23","08:00","-33.8","","-37.2","","72","","","","36","","3","","32.2","","99.98","","","","-37","","Ice Crystals"
"-139.84","67.57","OLD CROW A","2100801","2019-02-23 09:00","2019","02","23","09:00","-32.2","","-35.6","","73","","","","36","","1","","48.3","","99.96","","","","-33","","Ice Crystals"
"-139.84","67.57","OLD CROW A","2100801","2019-02-23 10:00","2019","02","23","10:00","-31.4","","-34.7","","73","","","","36","","3","","56.3","","99.91","","","","-35","","Mostly Cloudy"
"-139.84","67.57","OLD CROW A","2100801","2019-02-23 11:00","2019","02","23","11:00","-29.7","","-32.9","","74","","","","11","","3","","48.3","","99.90","","","","-33","","NA"
"-139.84","67.57","OLD CROW A","2100801","2019-02-23 12:00","2019","02","23","12:00","-28.6","","-31.9","","74","","","","13","","4","","56.3","","99.87","","","","-33","","NA"
"-139.84","67.57","OLD CROW A","2100801","2019-02-23 13:00","2019","02","23","13:00","-26.9","","-30.0","","76","","","","27","","4","","56.3","","99.89","","","","-31","","Mostly Cloudy"
"-139.84","67.57","OLD CROW A","2100801","2019-02-23 14:00","2019","02","23","14:00","-25.0","","-28.0","","77","","","","26","","5","","56.3","","99.86","","","","-30","","NA"
"-139.84","67.57","OLD CROW A","2100801","2019-02-23 15:00","2019","02","23","15:00","-23.6","","-26.4","","78","","","","27","","8","","56.3","","99.83","","","","-30","","NA"
"-139.84","67.57","OLD CROW A","2100801","2019-02-23 16:00","2019","02","23","16:00","-21.4","","-24.0","","80","","","","25","","12","","56.3","","99.79","","","","-30","","Cloudy"
"-139.84","67.57","OLD CROW A","2100801","2019-02-23 17:00","2019","02","23","17:00","-18.1","","-20.3","","83","","","","16","","8","","56.3","","99.81","","","","-24","","NA"
"-139.84","67.57","OLD CROW A","2100801","2019-02-23 18:00","2019","02","23","18:00","-17.3","","-19.4","","83","","","","20","","7","","56.3","","99.85","","","","-23","","NA"
"-139.84","67.57","OLD CROW A","2100801","2019-02-23 19:00","2019","02","23","19:00"
"-139.84","67.57","OLD CROW A","2100801","2019-02-23 20:00","2019","02","23","20:00"
"-139.84","67.57","OLD CROW A","2100801","2019-02-23 21:00","2019","02","23","21:00"
"-139.84","67.57","OLD CROW A","2100801","2019-02-23 22:00","2019","02","23","22:00"
"-139.84","67.57","OLD CROW A","2100801","2019-02-23 23:00","2019","02","23","23:00"
"-139.84","67.57","OLD CROW A","2100801","2019-02-24 00:00","2019","02","24","00:00"
"-139.84","67.57","OLD CROW A","2100801","2019-02-24 01:00","2019","02","24","01:00"
"-139.84","67.57","OLD CROW A","2100801","2019-02-24 02:00","2019","02","24","02:00"
"-139.84","67.57","OLD CROW A","2100801","2019-02-24 03:00","2019","02","24","03:00"
"-139.84","67.57","OLD CROW A","2100801","2019-02-24 04:00","2019","02","24","04:00"
"-139.84","67.57","OLD CROW A","2100801","2019-02-24 05:00","2019","02","24","05:00"
"-139.84","67.57","OLD CROW A","2100801","2019-02-24 06:00","2019","02","24","06:00","-28.4","","-31.5","","75","","","","24","","4","","56.3","","100.16","","","","-33","","NA"
"-139.84","67.57","OLD CROW A","2100801","2019-02-24 07:00","2019","02","24","07:00","-28.6","","-31.6","","76","","","","23","","4","","56.3","","100.11","","","","-33","","Clear"
"-139.84","67.57","OLD CROW A","2100801","2019-02-24 08:00","2019","02","24","08:00","-29.2","","-32.4","","75","","","","7","","4","","56.3","","100.13","","","","-34","","NA"
"-139.84","67.57","OLD CROW A","2100801","2019-02-24 09:00","2019","02","24","09:00","-29.1","","-32.2","","75","","","","36","","1","","56.3","","100.13","","","","-30","","NA"
"-139.84","67.57","OLD CROW A","2100801","2019-02-24 10:00","2019","02","24","10:00","-28.7","","-31.8","","75","","","","36","","1","","56.3","","100.19","","","","-30","","Mainly Clear"
"-139.84","67.57","OLD CROW A","2100801","2019-02-24 11:00","2019","02","24","11:00","-26.5","","-29.6","","76","","","","36","","1","","56.3","","100.16","","","","-28","","NA"
"-139.84","67.57","OLD CROW A","2100801","2019-02-24 12:00","2019","02","24","12:00","-24.8","","-27.7","","78","","","","24","","4","","56.3","","100.14","","","","-29","","NA"
"-139.84","67.57","OLD CROW A","2100801","2019-02-24 13:00","2019","02","24","13:00","-23.5","","-26.3","","79","","","","29","","3","","56.3","","100.14","","","","-26","","Mainly Clear"
"-139.84","67.57","OLD CROW A","2100801","2019-02-24 14:00","2019","02","24","14:00","-21.7","","-24.3","","80","","","","24","","4","","56.3","","100.13","","","","-25","","NA"
"-139.84","67.57","OLD CROW A","2100801","2019-02-24 15:00","2019","02","24","15:00","-21.1","","-23.6","","80","","","","27","","5","","56.3","","100.11","","","","-26","","NA"
"-139.84","67.57","OLD CROW A","2100801","2019-02-24 16:00","2019","02","24","16:00","-20.2","","-22.6","","81","","","","27","","3","","56.3","","100.05","","","","-23","","Mainly Clear"
"-139.84","67.57","OLD CROW A","2100801","2019-02-24 17:00","2019","02","24","17:00","-19.3","","-21.6","","82","","","","26","","5","","56.3","","99.97","","","","-23","","NA"
"-139.84","67.57","OLD CROW A","2100801","2019-02-24 18:00","2019","02","24","18:00","-19.7","","-22.1","","81","","","","23","","4","","56.3","","99.92","","","","-23","","NA"
"-139.84","67.57","OLD CROW A","2100801","2019-02-24 19:00","2019","02","24","19:00"
"-139.84","67.57","OLD CROW A","2100801","2019-02-24 20:00","2019","02","24","20:00"
"-139.84","67.57","OLD CROW A","2100801","2019-02-24 21:00","2019","02","24","21:00"
"-139.84","67.57","OLD CROW A","2100801","2019-02-24 22:00","2019","02","24","22:00"
"-139.84","67.57","OLD CROW A","2100801","2019-02-24 23:00","2019","02","24","23:00"
"-139.84","67.57","OLD CROW A","2100801","2019-02-25 00:00","2019","02","25","00:00"
"-139.84","67.57","OLD CROW A","2100801","2019-02-25 01:00","2019","02","25","01:00"
"-139.84","67.57","OLD CROW A","2100801","2019-02-25 02:00","2019","02","25","02:00"
"-139.84","67.57","OLD CROW A","2100801","2019-02-25 03:00","2019","02","25","03:00"
"-139.84","67.57","OLD CROW A","2100801","2019-02-25 04:00","2019","02","25","04:00"
"-139.84","67.57","OLD CROW A","2100801","2019-02-25 05:00","2019","02","25","05:00"
"-139.84","67.57","OLD CROW A","2100801","2019-02-25 06:00","2019","02","25","06:00","-21.2","","-24.4","","76","","","","36","","1","","56.3","","100.05","","","","-22","","NA"
"-139.84","67.57","OLD CROW A","2100801","2019-02-25 07:00","2019","02","25","07:00","-21.6","","-24.8","","76","","","","6","","8","","56.3","","100.07","","","","-28","","Mostly Cloudy"
"-139.84","67.57","OLD CROW A","2100801","2019-02-25 08:00","2019","02","25","08:00","-22.8","","-25.9","","76","","","","13","","7","","56.3","","100.09","","","","-29","","NA"
"-139.84","67.57","OLD CROW A","2100801","2019-02-25 09:00","2019","02","25","09:00","-23.5","","-26.2","","78","","","","12","","3","","56.3","","100.05","","","","-26","","NA"
"-139.84","67.57","OLD CROW A","2100801","2019-02-25 10:00","2019","02","25","10:00","-23.0","","-26.1","","76","","","","7","","7","","56.3","","100.06","","","","-29","","Mainly Clear"
"-139.84","67.57","OLD CROW A","2100801","2019-02-25 11:00","2019","02","25","11:00","-20.7","","-24.5","","72","","","","8","","13","","56.3","","100.08","","","","-29","","NA"
"-139.84","67.57","OLD CROW A","2100801","2019-02-25 12:00","2019","02","25","12:00","-18.5","","-22.8","","69","","","","11","","5","","56.3","","100.05","","","","-23","","NA"
"-139.84","67.57","OLD CROW A","2100801","2019-02-25 13:00","2019","02","25","13:00","-16.9","","-21.7","","67","","","","10","","6","","56.3","","100.01","","","","-21","","Mostly Cloudy"
"-139.84","67.57","OLD CROW A","2100801","2019-02-25 14:00","2019","02","25","14:00","-15.2","","-20.2","","66","","","","36","","2","","56.3","","99.97","","","","-17","","NA"
"-139.84","67.57","OLD CROW A","2100801","2019-02-25 15:00","2019","02","25","15:00","-15.0","","-19.7","","68","","","","11","","5","","56.3","","99.89","","","","-19","","NA"
"-139.84","67.57","OLD CROW A","2100801","2019-02-25 16:00","2019","02","25","16:00","-14.6","","-19.5","","67","","","","11","","4","","72.4","","99.84","","","","-17","","Mostly Cloudy"
"-139.84","67.57","OLD CROW A","2100801","2019-02-25 17:00","2019","02","25","17:00","-14.8","","-19.9","","65","","","","36","","2","","56.3","","99.79","","","","-16","","NA"
"-139.84","67.57","OLD CROW A","2100801","2019-02-25 18:00","2019","02","25","18:00","-16.1","","-20.1","","72","","","","","","0","","56.3","","99.76","","","","","","NA"
"-139.84","67.57","OLD CROW A","2100801","2019-02-25 19:00","2019","02","25","19:00"
"-139.84","67.57","OLD CROW A","2100801","2019-02-25 20:00","2019","02","25","20:00"
"-139.84","67.57","OLD CROW A","2100801","2019-02-25 21:00","2019","02","25","21:00"
"-139.84","67.57","OLD CROW A","2100801","2019-02-25 22:00","2019","02","25","22:00"
"-139.84","67.57","OLD CROW A","2100801","2019-02-25 23:00","2019","02","25","23:00"
"-139.84","67.57","OLD CROW A","2100801","2019-02-26 00:00","2019","02","26","00:00"
"-139.84","67.57","OLD CROW A","2100801","2019-02-26 01:00","2019","02","26","01:00"
"-139.84","67.57","OLD CROW A","2100801","2019-02-26 02:00","2019","02","26","02:00"
"-139.84","67.57","OLD CROW A","2100801","2019-02-26 03:00","2019","02","26","03:00"
"-139.84","67.57","OLD CROW A","2100801","2019-02-26 04:00","2019","02","26","04:00"
"-139.84","67.57","OLD CROW A","2100801","2019-02-26 05:00","2019","02","26","05:00"
"-139.84","67.57","OLD CROW A","2100801","2019-02-26 06:00","2019","02","26","06:00","-22.7","","-25.3","","80","","","","10","","3","","24.1","","99.84","","","","-25","","NA"
"-139.84","67.57","OLD CROW A","2100801","2019-02-26 07:00","2019","02","26","07:00","-23.4","","-26.1","","79","","","","36","","2","","24.1","","99.88","","","","-25","","Mainly Clear"
"-139.84","67.57","OLD CROW A","2100801","2019-02-26 08:00","2019","02","26","08:00","-24.9","","-27.8","","78","","","","36","","2","","56.3","","99.93","","","","-27","","NA"
"-139.84","67.57","OLD CROW A","2100801","2019-02-26 09:00","2019","02","26","09:00","-24.5","","-27.2","","79","","","","12","","5","","56.3","","99.98","","","","-29","","NA"
"-139.84","67.57","OLD CROW A","2100801","2019-02-26 10:00","2019","02","26","10:00","-23.5","","-26.3","","78","","","","36","","1","","56.3","","99.98","","","","-24","","Mostly Cloudy"
"-139.84","67.57","OLD CROW A","2100801","2019-02-26 11:00","2019","02","26","11:00","-21.0","","-24.4","","74","","","","12","","4","","56.3","","100.04","","","","-25","","NA"
"-139.84","67.57","OLD CROW A","2100801","2019-02-26 12:00","2019","02","26","12:00","-19.7","","-23.7","","71","","","","36","","1","","56.3","","100.06","","","","-21","","NA"
"-139.84","67.57","OLD CROW A","2100801","2019-02-26 13:00","2019","02","26","13:00","-18.0","","-22.4","","69","","","","36","","2","","56.3","","100.06","","","","-20","","Mainly Clear"
"-139.84","67.57","OLD CROW A","2100801","2019-02-26 14:00","2019","02","26","14:00","-16.3","","-22.1","","62","","","","36","","1","","56.3","","100.07","","","","-17","","NA"
"-139.84","67.57","OLD CROW A","2100801","2019-02-26 15:00","2019","02","26","15:00"
"-139.84","67.57","OLD CROW A","2100801","2019-02-26 16:00","2019","02","26","16:00"
"-139.84","67.57","OLD CROW A","2100801","2019-02-26 17:00","2019","02","26","17:00"
"-139.84","67.57","OLD CROW A","2100801","2019-02-26 18:00","2019","02","26","18:00"
"-139.84","67.57","OLD CROW A","2100801","2019-02-26 19:00","2019","02","26","19:00"
"-139.84","67.57","OLD CROW A","2100801","2019-02-26 20:00","2019","02","26","20:00"
"-139.84","67.57","OLD CROW A","2100801","2019-02-26 21:00","2019","02","26","21:00"
"-139.84","67.57","OLD CROW A","2100801","2019-02-26 22:00","2019","02","26","22:00"
"-139.84","67.57","OLD CROW A","2100801","2019-02-26 23:00","2019","02","26","23:00"
"-139.84","67.57","OLD CROW A","2100801","2019-02-27 00:00","2019","02","27","00:00"
"-139.84","67.57","OLD CROW A","2100801","2019-02-27 01:00","2019","02","27","01:00"
"-139.84","67.57","OLD CROW A","2100801","2019-02-27 02:00","2019","02","27","02:00"
"-139.84","67.57","OLD CROW A","2100801","2019-02-27 03:00","2019","02","27","03:00"
"-139.84","67.57","OLD CROW A","2100801","2019-02-27 04:00","2019","02","27","04:00"
"-139.84","67.57","OLD CROW A","2100801","2019-02-27 05:00","2019","02","27","05:00"
"-139.84","67.57","OLD CROW A","2100801","2019-02-27 06:00","2019","02","27","06:00","-30.0","","-33.1","","75","","","","5","","4","","24.1","","99.98","","","","-35","","NA"
"-139.84","67.57","OLD CROW A","2100801","2019-02-27 07:00","2019","02","27","07:00","-29.8","","-32.8","","75","","","","36","","1","","56.3","","99.97","","","","-31","","Mainly Clear"
"-139.84","67.57","OLD CROW A","2100801","2019-02-27 08:00","2019","02","27","08:00","-30.0","","-33.1","","75","","","","7","","3","","56.3","","99.97","","","","-33","","NA"
"-139.84","67.57","OLD CROW A","2100801","2019-02-27 09:00","2019","02","27","09:00","-29.3","","-32.7","","73","","","","36","","2","","56.3","","99.96","","","","-32","","NA"
"-139.84","67.57","OLD CROW A","2100801","2019-02-27 10:00","2019","02","27","10:00","-28.4","","-31.5","","75","","","","36","","3","","56.3","","99.97","","","","-32","","Clear"
"-139.84","67.57","OLD CROW A","2100801","2019-02-27 11:00","2019","02","27","11:00","-26.0","","-29.0","","76","","","","10","","4","","56.3","","99.96","","","","-30","","NA"
"-139.84","67.57","OLD CROW A","2100801","2019-02-27 12:00","2019","02","27","12:00","-23.9","","-27.0","","76","","","","9","","3","","56.3","","99.95","","","","-27","","NA"
"-139.84","67.57","OLD CROW A","2100801","2019-02-27 13:00","2019","02","27","13:00","-20.8","","-24.4","","73","","","","11","","4","","56.3","","99.98","","","","-24","","Clear"
"-139.84","67.57","OLD CROW A","2100801","2019-02-27 14:00","2019","02","27","14:00","-17.4","","-22.4","","65","","","","8","","4","","56.3","","99.99","","","","-21","","NA"
"-139.84","67.57","OLD CROW A","2100801","2019-02-27 15:00","2019","02","27","15:00"
"-139.84","67.57","OLD CROW A","2100801","2019-02-27 16:00","2019","02","27","16:00"
"-139.84","67.57","OLD CROW A","2100801","2019-02-27 17:00","2019","02","27","17:00"
"-139.84","67.57","OLD CROW A","2100801","2019-02-27 18:00","2019","02","27","18:00"
"-139.84","67.57","OLD CROW A","2100801","2019-02-27 19:00","2019","02","27","19:00"
"-139.84","67.57","OLD CROW A","2100801","2019-02-27 20:00","2019","02","27","20:00"
"-139.84","67.57","OLD CROW A","2100801","2019-02-27 21:00","2019","02","27","21:00"
"-139.84","67.57","OLD CROW A","2100801","2019-02-27 22:00","2019","02","27","22:00"
"-139.84","67.57","OLD CROW A","2100801","2019-02-27 23:00","2019","02","27","23:00"
"-139.84","67.57","OLD CROW A","2100801","2019-02-28 00:00","2019","02","28","00:00"
"-139.84","67.57","OLD CROW A","2100801","2019-02-28 01:00","2019","02","28","01:00"
"-139.84","67.57","OLD CROW A","2100801","2019-02-28 02:00","2019","02","28","02:00"
"-139.84","67.57","OLD CROW A","2100801","2019-02-28 03:00","2019","02","28","03:00"
"-139.84","67.57","OLD CROW A","2100801","2019-02-28 04:00","2019","02","28","04:00"
"-139.84","67.57","OLD CROW A","2100801","2019-02-28 05:00","2019","02","28","05:00"
"-139.84","67.57","OLD CROW A","2100801","2019-02-28 06:00","2019","02","28","06:00","-23.7","","-26.5","","78","","","","36","","2","","24.1","","100.19","","","","-26","","NA"
"-139.84","67.57","OLD CROW A","2100801","2019-02-28 07:00","2019","02","28","07:00","-25.4","","-28.1","","78","","","","9","","5","","24.1","","100.16","","","","-30","","Mainly Clear"
"-139.84","67.57","OLD CROW A","2100801","2019-02-28 08:00","2019","02","28","08:00","-26.4","","-29.6","","75","","","","36","","1","","56.3","","100.19","","","","-27","","NA"
"-139.84","67.57","OLD CROW A","2100801","2019-02-28 09:00","2019","02","28","09:00","-27.9","","-31.0","","76","","","","7","","3","","56.3","","100.18","","","","-31","","NA"
"-139.84","67.57","OLD CROW A","2100801","2019-02-28 10:00","2019","02","28","10:00","-26.2","","-29.3","","76","","","","0","","1","","56.3","","100.19","","","","-27","","Clear"
"-139.84","67.57","OLD CROW A","2100801","2019-02-28 11:00","2019","02","28","11:00","-23.8","","-27.1","","75","","","","9","","3","","56.3","","100.22","","","","-27","","NA"
"-139.84","67.57","OLD CROW A","2100801","2019-02-28 12:00","2019","02","28","12:00","-21.2","","-25.0","","72","","","","36","","1","","56.3","","100.20","","","","-22","","NA"
"-139.84","67.57","OLD CROW A","2100801","2019-02-28 13:00","2019","02","28","13:00","-19.6","","-24.1","","68","","","","36","","1","","56.3","","100.22","","","","-20","","Clear"
"-139.84","67.57","OLD CROW A","2100801","2019-02-28 14:00","2019","02","28","14:00","-17.1","","-22.2","","65","","","","36","","2","","56.3","","100.20","","","","-19","","NA"
"-139.84","67.57","OLD CROW A","2100801","2019-02-28 15:00","2019","02","28","15:00","-15.1","","-20.7","","62","","","","","","0","","56.3","","100.19","","","","","","NA"
"-139.84","67.57","OLD CROW A","2100801","2019-02-28 16:00","2019","02","28","16:00","-14.3","","-19.5","","65","","","","9","","5","","56.3","","100.18","","","","-18","","Clear"
"-139.84","67.57","OLD CROW A","2100801","2019-02-28 17:00","2019","02","28","17:00","-14.8","","-20.0","","65","","","","9","","8","","56.3","","100.17","","","","-20","","NA"
"-139.84","67.57","OLD CROW A","2100801","2019-02-28 18:00","2019","02","28","18:00","-16.6","","-20.7","","71","","","","8","","10","","56.3","","100.18","","","","-23","","NA"
"-139.84","67.57","OLD CROW A","2100801","2019-02-28 19:00","2019","02","28","19:00"
"-139.84","67.57","OLD CROW A","2100801","2019-02-28 20:00","2019","02","28","20:00"
"-139.84","67.57","OLD CROW A","2100801","2019-02-28 21:00","2019","02","28","21:00"
"-139.84","67.57","OLD CROW A","2100801","2019-02-28 22:00","2019","02","28","22:00"
"-139.84","67.57","OLD CROW A","2100801","2019-02-28 23:00","2019","02","28","23:00"
