"Longitude (x)","Latitude (y)","Station Name","Climate ID","Date/Time (LST)","Year","Month","Day","Time (LST)","Temp (°C)","Temp Flag","Dew Point Temp (°C)","Dew Point Temp Flag","Rel Hum (%)","Rel Hum Flag","Precip. Amount (mm)","Precip. Amount Flag","Wind Dir (10s deg)","Wind Dir Flag","Wind Spd (km/h)","Wind Spd Flag","Visibility (km)","Visibility Flag","Stn Press (kPa)","Stn Press Flag","Hmdx","Hmdx Flag","Wind Chill","Wind Chill Flag","Weather"
"-59.96","43.95","SABLE ISLAND A","8204703","2019-03-01 00:00","2019","03","01","00:00","-5.6","","-13.3","","55","","","M","30","","41","","16.1","","101.58","","","","-15","","NA"
"-59.96","43.95","SABLE ISLAND A","8204703","2019-03-01 01:00","2019","03","01","01:00","-6.1","","-14.3","","53","","","M","31","","39","","16.1","","101.62","","","","-15","","NA"
"-59.96","43.95","SABLE ISLAND A","8204703","2019-03-01 02:00","2019","03","01","02:00","-6.3","","-13.7","","56","","","M","30","","46","","16.1","","101.67","","","","-16","","NA"
"-59.96","43.95","SABLE ISLAND A","8204703","2019-03-01 03:00","2019","03","01","03:00","-6.6","","-13.7","","58","","","M","30","","43","","16.1","","101.73","","","","-17","","NA"
"-59.96","43.95","SABLE ISLAND A","8204703","2019-03-01 04:00","2019","03","01","04:00","-6.6","","-12.3","","64","","","M","29","","32","","16.1","","101.80","","","","-15","","NA"
"-59.96","43.95","SABLE ISLAND A","8204703","2019-03-01 05:00","2019","03","01","05:00","-6.7","","-12.3","","65","","","M","29","","32","","16.1","","101.87","","","","-15","","NA"
"-59.96","43.95","SABLE ISLAND A","8204703","2019-03-01 06:00","2019","03","01","06:00","-6.5","","-11.5","","68","","","M","29","","32","","16.1","","101.92","","","","-15","","NA"
"-59.96","43.95","SABLE ISLAND A","8204703","2019-03-01 07:00","2019","03","01","07:00","-6.8","","-11.9","","67","","","M","31","","41","","16.1","","101.99","","","","-17","","NA"
"-59.96","43.95","SABLE ISLAND A","8204703","2019-03-01 08:00","2019","03","01","08:00","-6.5","","-11.9","","66","","","M","30","","35","","16.1","","102.08","","","","-16","","NA"
"-59.96","43.95","SABLE ISLAND A","8204703","2019-03-01 09:00","2019","03","01","09:00","-5.6","","-11.2","","65","","","M","30","","39","","16.1","","102.18","","","","-15","","NA"
"-59.96","43.95","SABLE ISLAND A","8204703","2019-03-01 10:00","2019","03","01","10:00","-5.1","","-12.2","","58","","","M","31","","35","","16.1","","102.24","","","","-14","","NA"
"-59.96","43.95","SABLE ISLAND A","8204703","2019-03-01 11:00","2019","03","01","11:00","-4.3","","-11.2","","59","","","M","30","","39","","16.1","","102.27","","","","-13","","NA"
"-59.96","43.95","SABLE ISLAND A","8204703","2019-03-01 12:00","2019","03","01","12:00","-3.7","","-11.3","","56","","","M","30","","30","","16.1","","102.30","","","","-11","","NA"
"-59.96","43.95","SABLE ISLAND A","8204703","2019-03-01 13:00","2019","03","01","13:00","-2.9","","-9.9","","59","","","M","30","","30","","16.1","","102.33","","","","-10","","NA"
"-59.96","43.95","SABLE ISLAND A","8204703","2019-03-01 14:00","2019","03","01","14:00","-2.7","","-10.1","","57","","","M","29","","30","","16.1","","102.38","","","","-10","","NA"
"-59.96","43.95","SABLE ISLAND A","8204703","2019-03-01 15:00","2019","03","01","15:00","-2.8","","-11.1","","53","","","M","30","","32","","16.1","","102.47","","","","-10","","NA"
"-59.96","43.95","SABLE ISLAND A","8204703","2019-03-01 16:00","2019","03","01","16:00","-2.2","","-9.6","","57","","","M","29","","30","","16.1","","102.48","","","","-9","","NA"
"-59.96","43.95","SABLE ISLAND A","8204703","2019-03-01 17:00","2019","03","01","17:00","-2.1","","-11.1","","50","","","M","28","","30","","16.1","","102.51","","","","-9","","NA"
"-59.96","43.95","SABLE ISLAND A","8204703","2019-03-01 18:00","2019","03","01","18:00","-2.6","","-11.4","","51","","","M","27","","24","","16.1","","102.53","","","","-9","","NA"
"-59.96","43.95","SABLE ISLAND A","8204703","2019-03-01 19:00","2019","03","01","19:00","-2.3","","-10.7","","53","","","M","26","","24","","16.1","","102.62","","","","-9","","NA"
"-59.96","43.95","SABLE ISLAND A","8204703","2019-03-01 20:00","2019","03","01","20:00","-2.0","","-9.1","","59","","","M","26","","26","","16.1","","102.64","","","","-9","","NA"
"-59.96","43.95","SABLE ISLAND A","8204703","2019-03-01 21:00","2019","03","01","21:00","-1.8","","-8.5","","60","","","M","26","","26","","16.1","","102.68","","","","-8","","NA"
"-59.96","43.95","SABLE ISLAND A","8204703","2019-03-01 22:00","2019","03","01","22:00","-1.6","","-8.2","","61","","","M","26","","30","","16.1","","102.65","","","","-9","","NA"
"-59.96","43.95","SABLE ISLAND A","8204703","2019-03-01 23:00","2019","03","01","23:00","-1.3","","-8.2","","60","","","M","26","","30","","16.1","","102.69","","","","-8","","NA"
"-59.96","43.95","SABLE ISLAND A","8204703","2019-03-02 00:00","2019","03","02","00:00","-1.0","","-7.0","","64","","","M","26","","28","","16.1","","102.70","","","","-8","","NA"
"-59.96","43.95","SABLE ISLAND A","8204703","2019-03-02 01:00","2019","03","02","01:00","-0.8","","-7.1","","62","","","M","26","","26","","16.1","","102.69","","","","-7","","NA"
"-59.96","43.95","SABLE ISLAND A","8204703","2019-03-02 02:00","2019","03","02","02:00","-1.1","","-6.5","","67","","","M","27","","22","","16.1","","102.69","","","","-7","","NA"
"-59.96","43.95","SABLE ISLAND A","8204703","2019-03-02 03:00","2019","03","02","03:00","-1.1","","-6.4","","68","","","M","26","","24","","16.1","","102.67","","","","-7","","NA"
"-59.96","43.95","SABLE ISLAND A","8204703","2019-03-02 04:00","2019","03","02","04:00","-1.4","","-6.0","","71","","","M","27","","21","","16.1","","102.62","","","","-7","","NA"
"-59.96","43.95","SABLE ISLAND A","8204703","2019-03-02 05:00","2019","03","02","05:00","-1.8","","-6.2","","72","","","M","28","","21","","16.1","","102.61","","","","-8","","NA"
"-59.96","43.95","SABLE ISLAND A","8204703","2019-03-02 06:00","2019","03","02","06:00","-2.0","","-7.1","","68","","","M","28","","18","","16.1","","102.55","","","","-7","","NA"
"-59.96","43.95","SABLE ISLAND A","8204703","2019-03-02 07:00","2019","03","02","07:00","-1.9","","-8.4","","61","","","M","27","","13","","16.1","","102.61","","","","-6","","NA"
"-59.96","43.95","SABLE ISLAND A","8204703","2019-03-02 08:00","2019","03","02","08:00","-0.9","","-7.3","","62","","","M","28","","15","","16.1","","102.62","","","","-6","","NA"
"-59.96","43.95","SABLE ISLAND A","8204703","2019-03-02 09:00","2019","03","02","09:00","0.2","","-5.5","","65","","","M","28","","13","","16.1","","102.61","","","","","","NA"
"-59.96","43.95","SABLE ISLAND A","8204703","2019-03-02 10:00","2019","03","02","10:00","0.4","","-5.2","","66","","","M","25","","11","","16.1","","102.56","","","","","","NA"
"-59.96","43.95","SABLE ISLAND A","8204703","2019-03-02 11:00","2019","03","02","11:00","0.9","","-5.4","","63","","","M","23","","9","","16.1","","102.53","","","","","","NA"
"-59.96","43.95","SABLE ISLAND A","8204703","2019-03-02 12:00","2019","03","02","12:00","1.1","","-5.6","","61","","","M","19","","9","","16.1","","102.40","","","","","","NA"
"-59.96","43.95","SABLE ISLAND A","8204703","2019-03-02 13:00","2019","03","02","13:00","0.4","","-5.7","","64","","","M","18","","11","","16.1","","102.23","","","","","","NA"
"-59.96","43.95","SABLE ISLAND A","8204703","2019-03-02 14:00","2019","03","02","14:00","-0.2","","-6.2","","64","","","M","15","","9","","16.1","","102.09","","","","-3","","NA"
"-59.96","43.95","SABLE ISLAND A","8204703","2019-03-02 15:00","2019","03","02","15:00","-0.4","","-6.2","","65","","","M","10","","9","","16.1","","102.02","","","","-4","","NA"
"-59.96","43.95","SABLE ISLAND A","8204703","2019-03-02 16:00","2019","03","02","16:00","-0.6","","-5.7","","69","","","M","10","","11","","16.1","","101.97","","","","-4","","NA"
"-59.96","43.95","SABLE ISLAND A","8204703","2019-03-02 17:00","2019","03","02","17:00","-0.9","","-5.2","","73","","","M","8","","22","","16.1","","101.80","","","","-7","","Snow"
"-59.96","43.95","SABLE ISLAND A","8204703","2019-03-02 18:00","2019","03","02","18:00","-2.3","","-3.4","","92","","","M","8","","24","","2.8","","101.75","","","","-9","","Snow"
"-59.96","43.95","SABLE ISLAND A","8204703","2019-03-02 19:00","2019","03","02","19:00","-2.0","","-2.7","","95","","","M","8","","22","","1.6","","101.66","","","","-8","","Snow"
"-59.96","43.95","SABLE ISLAND A","8204703","2019-03-02 20:00","2019","03","02","20:00","-1.8","","-2.4","","96","","","M","7","","32","","1.6","","101.43","","","","-9","","Snow"
"-59.96","43.95","SABLE ISLAND A","8204703","2019-03-02 21:00","2019","03","02","21:00","-1.6","","-2.3","","95","","","M","6","","45","","1.6","","101.17","","","","-10","","Snow"
"-59.96","43.95","SABLE ISLAND A","8204703","2019-03-02 22:00","2019","03","02","22:00","-1.5","","-2.1","","96","","","M","6","","48","","1.2","","100.87","","","","-10","","Snow"
"-59.96","43.95","SABLE ISLAND A","8204703","2019-03-02 23:00","2019","03","02","23:00","-1.5","","-2.2","","95","","","M","6","","55","","1.2","","100.72","","","","-11","","Snow"
"-59.96","43.95","SABLE ISLAND A","8204703","2019-03-03 00:00","2019","03","03","00:00","-1.6","","-2.3","","95","","","M","6","","63","","1.2","","100.34","","","","-11","","Snow"
"-59.96","43.95","SABLE ISLAND A","8204703","2019-03-03 01:00","2019","03","03","01:00","-1.2","","-2.0","","94","","","M","6","","61","","1.6","","100.16","","","","-10","","Freezing Rain,Fog"
"-59.96","43.95","SABLE ISLAND A","8204703","2019-03-03 02:00","2019","03","03","02:00","-0.9","","-1.8","","94","","","M","6","","61","","2.4","","99.92","","","","-10","","Freezing Rain,Fog"
"-59.96","43.95","SABLE ISLAND A","8204703","2019-03-03 03:00","2019","03","03","03:00","-1.2","","-2.0","","94","","","M","5","","71","","3.2","","99.64","","","","-11","","Freezing Rain,Fog"
"-59.96","43.95","SABLE ISLAND A","8204703","2019-03-03 04:00","2019","03","03","04:00","-1.4","","-2.2","","94","","","M","6","","68","","4.0","","99.48","","","","-11","","Snow"
"-59.96","43.95","SABLE ISLAND A","8204703","2019-03-03 05:00","2019","03","03","05:00","-1.3","","-2.1","","94","","","M","4","","61","","2.0","","99.51","","","","-11","","Snow"
"-59.96","43.95","SABLE ISLAND A","8204703","2019-03-03 06:00","2019","03","03","06:00","-1.9","","-2.9","","93","","","M","1","","72","","1.6","","99.71","","","","-12","","Snow"
"-59.96","43.95","SABLE ISLAND A","8204703","2019-03-03 07:00","2019","03","03","07:00","-2.8","","-3.6","","94","","","M","35","","65","","0.4","","100.05","","","","-13","","Heavy Snow"
"-59.96","43.95","SABLE ISLAND A","8204703","2019-03-03 08:00","2019","03","03","08:00","-2.8","","-3.6","","94","","","M","35","","63","","0.6","","100.34","","","","-13","","Moderate Snow"
"-59.96","43.95","SABLE ISLAND A","8204703","2019-03-03 09:00","2019","03","03","09:00","-2.5","","-4.1","","89","","","M","35","","50","","4.8","","100.53","","","","-12","","Snow"
"-59.96","43.95","SABLE ISLAND A","8204703","2019-03-03 10:00","2019","03","03","10:00","-2.4","","-3.8","","90","","","M","35","","46","","2.0","","100.70","","","","-11","","Snow"
"-59.96","43.95","SABLE ISLAND A","8204703","2019-03-03 11:00","2019","03","03","11:00","-2.7","","-3.8","","92","","","M","32","","41","","1.2","","100.93","","","","-11","","Snow"
"-59.96","43.95","SABLE ISLAND A","8204703","2019-03-03 12:00","2019","03","03","12:00","-2.9","","-4.9","","86","","","M","32","","46","","9.7","","101.08","","","","-12","","Fog"
"-59.96","43.95","SABLE ISLAND A","8204703","2019-03-03 13:00","2019","03","03","13:00","-3.1","","-5.3","","85","","","M","32","","41","","12.9","","101.17","","","","-12","","NA"
"-59.96","43.95","SABLE ISLAND A","8204703","2019-03-03 14:00","2019","03","03","14:00","-3.0","","-5.6","","83","","","M","31","","37","","12.9","","101.30","","","","-11","","NA"
"-59.96","43.95","SABLE ISLAND A","8204703","2019-03-03 15:00","2019","03","03","15:00","-3.0","","-6.1","","79","","","M","32","","43","","14.5","","101.40","","","","-12","","NA"
"-59.96","43.95","SABLE ISLAND A","8204703","2019-03-03 16:00","2019","03","03","16:00","-2.9","","-5.6","","82","","","M","31","","35","","9.7","","101.55","","","","-11","","Snow"
"-59.96","43.95","SABLE ISLAND A","8204703","2019-03-03 17:00","2019","03","03","17:00","-3.0","","-6.1","","79","","","M","31","","32","","9.7","","101.64","","","","-11","","Snow"
"-59.96","43.95","SABLE ISLAND A","8204703","2019-03-03 18:00","2019","03","03","18:00","-2.7","","-6.7","","74","","","M","31","","32","","16.1","","101.78","","","","-10","","NA"
"-59.96","43.95","SABLE ISLAND A","8204703","2019-03-03 19:00","2019","03","03","19:00","-2.5","","-6.9","","72","","","M","32","","32","","16.1","","101.88","","","","-10","","NA"
"-59.96","43.95","SABLE ISLAND A","8204703","2019-03-03 20:00","2019","03","03","20:00","-2.6","","-7.0","","72","","","M","31","","28","","16.1","","101.99","","","","-10","","NA"
"-59.96","43.95","SABLE ISLAND A","8204703","2019-03-03 21:00","2019","03","03","21:00","-2.7","","-6.7","","74","","","M","32","","24","","16.1","","102.11","","","","-9","","NA"
"-59.96","43.95","SABLE ISLAND A","8204703","2019-03-03 22:00","2019","03","03","22:00","-3.0","","-7.2","","73","","","M","32","","22","","16.1","","102.20","","","","-9","","NA"
"-59.96","43.95","SABLE ISLAND A","8204703","2019-03-03 23:00","2019","03","03","23:00","-3.1","","-7.1","","74","","","M","31","","17","","16.1","","102.25","","","","-9","","NA"
"-59.96","43.95","SABLE ISLAND A","8204703","2019-03-04 00:00","2019","03","04","00:00","-3.0","","-7.3","","73","","","M","31","","11","","16.1","","102.29","","","","-7","","NA"
"-59.96","43.95","SABLE ISLAND A","8204703","2019-03-04 01:00","2019","03","04","01:00","-3.2","","-7.4","","73","","","M","32","","11","","16.1","","102.31","","","","-7","","NA"
"-59.96","43.95","SABLE ISLAND A","8204703","2019-03-04 02:00","2019","03","04","02:00","-3.6","","-7.6","","74","","","M","35","","8","","16.1","","102.28","","","","-7","","NA"
"-59.96","43.95","SABLE ISLAND A","8204703","2019-03-04 03:00","2019","03","04","03:00","-7.6","","-10.0","","83","","","M","","","0","","16.1","","102.29","","","","","","NA"
"-59.96","43.95","SABLE ISLAND A","8204703","2019-03-04 04:00","2019","03","04","04:00","-7.6","","-9.7","","85","","","M","8","","11","","16.1","","102.22","","","","-13","","NA"
"-59.96","43.95","SABLE ISLAND A","8204703","2019-03-04 05:00","2019","03","04","05:00","-3.4","","-6.9","","77","","","M","15","","11","","16.1","","102.41","","","","-8","","NA"
"-59.96","43.95","SABLE ISLAND A","8204703","2019-03-04 06:00","2019","03","04","06:00","-3.2","","-6.5","","78","","","M","11","","17","","16.1","","102.23","","","","-9","","NA"
"-59.96","43.95","SABLE ISLAND A","8204703","2019-03-04 07:00","2019","03","04","07:00","-2.4","","-5.9","","77","","","M","12","","22","","16.1","","102.15","","","","-9","","NA"
"-59.96","43.95","SABLE ISLAND A","8204703","2019-03-04 08:00","2019","03","04","08:00","-2.3","","-5.9","","76","","","M","11","","39","","16.1","","101.97","","","","-10","","NA"
"-59.96","43.95","SABLE ISLAND A","8204703","2019-03-04 09:00","2019","03","04","09:00","-2.1","","-5.8","","76","","","M","11","","43","","16.1","","101.77","","","","-10","","NA"
"-59.96","43.95","SABLE ISLAND A","8204703","2019-03-04 10:00","2019","03","04","10:00","-1.4","","-4.4","","80","","","M","11","","34","","16.1","","101.63","","","","-9","","NA"
"-59.96","43.95","SABLE ISLAND A","8204703","2019-03-04 11:00","2019","03","04","11:00","0.1","","-1.8","","87","","","M","11","","41","","16.1","","101.44","","","","","","NA"
"-59.96","43.95","SABLE ISLAND A","8204703","2019-03-04 12:00","2019","03","04","12:00","1.0","","-0.5","","90","","","M","11","","41","","9.7","","101.13","","","","","","Rain,Fog"
"-59.96","43.95","SABLE ISLAND A","8204703","2019-03-04 13:00","2019","03","04","13:00","1.7","","0.8","","94","","","M","12","","46","","4.8","","100.67","","","","","","Rain,Fog"
"-59.96","43.95","SABLE ISLAND A","8204703","2019-03-04 14:00","2019","03","04","14:00","2.5","","1.9","","96","","","M","12","","52","","2.0","","100.38","","","","","","Rain,Fog"
"-59.96","43.95","SABLE ISLAND A","8204703","2019-03-04 15:00","2019","03","04","15:00","3.4","","3.0","","97","","","M","12","","58","","2.4","","100.11","","","","","","Rain,Fog"
"-59.96","43.95","SABLE ISLAND A","8204703","2019-03-04 16:00","2019","03","04","16:00","4.2","","3.9","","98","","","M","13","","61","","1.2","","99.71","","","","","","Moderate Rain,Fog"
"-59.96","43.95","SABLE ISLAND A","8204703","2019-03-04 17:00","2019","03","04","17:00","5.4","","5.1","","98","","","M","14","","54","","1.2","","99.30","","","","","","Rain,Fog"
"-59.96","43.95","SABLE ISLAND A","8204703","2019-03-04 18:00","2019","03","04","18:00","7.6","","7.5","","99","","","M","19","","52","","0.4","","99.29","","","","","","Rain,Fog"
"-59.96","43.95","SABLE ISLAND A","8204703","2019-03-04 19:00","2019","03","04","19:00","6.4","","6.3","","99","","","M","19","","46","","0.4","","99.15","","","","","","Rain,Fog"
"-59.96","43.95","SABLE ISLAND A","8204703","2019-03-04 20:00","2019","03","04","20:00","5.8","","5.7","","99","","","M","21","","48","","1.6","","99.08","","","","","","Fog"
"-59.96","43.95","SABLE ISLAND A","8204703","2019-03-04 21:00","2019","03","04","21:00","4.1","","3.8","","98","","","M","22","","58","","1.6","","98.93","","","","","","Fog"
"-59.96","43.95","SABLE ISLAND A","8204703","2019-03-04 22:00","2019","03","04","22:00","2.6","","2.3","","98","","","M","23","","58","","1.2","","98.76","","","","","","Fog"
"-59.96","43.95","SABLE ISLAND A","8204703","2019-03-04 23:00","2019","03","04","23:00","0.8","","0.2","","96","","","M","24","","58","","4.0","","98.67","","","","","","Fog"
"-59.96","43.95","SABLE ISLAND A","8204703","2019-03-05 00:00","2019","03","05","00:00","-0.2","","-1.2","","93","","","M","25","","46","","4.8","","98.65","","","","-8","","Fog"
"-59.96","43.95","SABLE ISLAND A","8204703","2019-03-05 01:00","2019","03","05","01:00","-0.7","","-2.4","","88","","","M","26","","46","","6.4","","98.74","","","","-9","","Fog"
"-59.96","43.95","SABLE ISLAND A","8204703","2019-03-05 02:00","2019","03","05","02:00","-0.9","","-2.8","","87","","","M","26","","46","","8.1","","98.82","","","","-9","","Fog"
"-59.96","43.95","SABLE ISLAND A","8204703","2019-03-05 03:00","2019","03","05","03:00","-0.9","","-2.6","","88","","","M","27","","37","","9.7","","98.96","","","","-8","","Fog"
"-59.96","43.95","SABLE ISLAND A","8204703","2019-03-05 04:00","2019","03","05","04:00","-1.2","","-3.3","","85","","","M","26","","39","","8.1","","99.11","","","","-9","","Fog"
"-59.96","43.95","SABLE ISLAND A","8204703","2019-03-05 05:00","2019","03","05","05:00","-1.1","","-3.5","","84","","","M","26","","39","","9.7","","99.30","","","","-9","","Fog"
"-59.96","43.95","SABLE ISLAND A","8204703","2019-03-05 06:00","2019","03","05","06:00","-1.4","","-4.4","","80","","","M","27","","35","","11.3","","99.44","","","","-9","","NA"
"-59.96","43.95","SABLE ISLAND A","8204703","2019-03-05 07:00","2019","03","05","07:00","-1.2","","-3.9","","82","","","M","27","","28","","9.7","","99.60","","","","-8","","Haze"
"-59.96","43.95","SABLE ISLAND A","8204703","2019-03-05 08:00","2019","03","05","08:00","-0.5","","-4.0","","78","","","M","26","","34","","8.1","","99.98","","","","-8","","Haze"
"-59.96","43.95","SABLE ISLAND A","8204703","2019-03-05 09:00","2019","03","05","09:00","-0.1","","-3.6","","77","","","M","26","","35","","8.1","","100.30","","","","-7","","Haze"
"-59.96","43.95","SABLE ISLAND A","8204703","2019-03-05 10:00","2019","03","05","10:00","0.4","","-2.2","","83","","","M","25","","24","","6.4","","100.62","","","","","","Fog"
"-59.96","43.95","SABLE ISLAND A","8204703","2019-03-05 11:00","2019","03","05","11:00","1.2","","-1.3","","83","","","M","22","","28","","4.8","","100.93","","","","","","Fog"
"-59.96","43.95","SABLE ISLAND A","8204703","2019-03-05 12:00","2019","03","05","12:00","1.4","","-5.2","","62","","","M","25","","46","","11.3","","101.05","","","","","","NA"
"-59.96","43.95","SABLE ISLAND A","8204703","2019-03-05 13:00","2019","03","05","13:00","0.8","","-5.3","","64","","","M","26","","41","","12.9","","100.99","","","","","","NA"
"-59.96","43.95","SABLE ISLAND A","8204703","2019-03-05 14:00","2019","03","05","14:00","0.5","","-6.0","","62","","","M","26","","43","","12.9","","100.91","","","","","","NA"
"-59.96","43.95","SABLE ISLAND A","8204703","2019-03-05 15:00","2019","03","05","15:00","0.3","","-5.5","","65","","","M","26","","35","","12.9","","100.98","","","","","","NA"
"-59.96","43.95","SABLE ISLAND A","8204703","2019-03-05 16:00","2019","03","05","16:00","-0.2","","-6.0","","65","","","M","25","","41","","14.5","","101.06","","","","-8","","NA"
"-59.96","43.95","SABLE ISLAND A","8204703","2019-03-05 17:00","2019","03","05","17:00","-0.8","","-6.4","","66","","","M","26","","32","","14.5","","101.05","","","","-8","","NA"
"-59.96","43.95","SABLE ISLAND A","8204703","2019-03-05 18:00","2019","03","05","18:00","-1.3","","-6.5","","68","","","M","25","","37","","14.5","","101.01","","","","-9","","NA"
"-59.96","43.95","SABLE ISLAND A","8204703","2019-03-05 19:00","2019","03","05","19:00","-1.5","","-6.9","","67","","","M","26","","28","","14.5","","101.18","","","","-8","","NA"
"-59.96","43.95","SABLE ISLAND A","8204703","2019-03-05 20:00","2019","03","05","20:00","-1.5","","-6.7","","68","","","M","26","","26","","16.1","","101.32","","","","-8","","NA"
"-59.96","43.95","SABLE ISLAND A","8204703","2019-03-05 21:00","2019","03","05","21:00","-1.4","","-6.1","","70","","","M","26","","24","","14.5","","101.40","","","","-8","","NA"
"-59.96","43.95","SABLE ISLAND A","8204703","2019-03-05 22:00","2019","03","05","22:00","-1.1","","-6.1","","69","","","M","26","","21","","16.1","","101.44","","","","-7","","NA"
"-59.96","43.95","SABLE ISLAND A","8204703","2019-03-05 23:00","2019","03","05","23:00","-1.2","","-5.7","","72","","","M","25","","17","","14.5","","101.39","","","","-6","","NA"
"-59.96","43.95","SABLE ISLAND A","8204703","2019-03-06 00:00","2019","03","06","00:00","-1.3","","-5.8","","72","","","M","26","","13","","16.1","","101.35","","","","-6","","NA"
"-59.96","43.95","SABLE ISLAND A","8204703","2019-03-06 01:00","2019","03","06","01:00","-1.7","","-5.9","","73","","","M","28","","13","","16.1","","101.25","","","","-6","","NA"
"-59.96","43.95","SABLE ISLAND A","8204703","2019-03-06 02:00","2019","03","06","02:00","-1.9","","-6.3","","72","","","M","30","","5","","16.1","","101.11","","","","-4","","NA"
"-59.96","43.95","SABLE ISLAND A","8204703","2019-03-06 03:00","2019","03","06","03:00","-2.1","","-6.0","","75","","","M","30","","5","","16.1","","101.05","","","","-4","","NA"
"-59.96","43.95","SABLE ISLAND A","8204703","2019-03-06 04:00","2019","03","06","04:00","-2.0","","-6.1","","74","","","M","","","0","","16.1","","100.96","","","","","","NA"
"-59.96","43.95","SABLE ISLAND A","8204703","2019-03-06 05:00","2019","03","06","05:00","-1.9","","-6.1","","73","","","M","3","","8","","16.1","","100.78","","","","-5","","NA"
"-59.96","43.95","SABLE ISLAND A","8204703","2019-03-06 06:00","2019","03","06","06:00","-1.8","","-6.3","","72","","","M","3","","5","","16.1","","100.72","","","","-4","","NA"
"-59.96","43.95","SABLE ISLAND A","8204703","2019-03-06 07:00","2019","03","06","07:00","-1.7","","-6.1","","72","","","M","2","","9","","16.1","","100.67","","","","-5","","NA"
"-59.96","43.95","SABLE ISLAND A","8204703","2019-03-06 08:00","2019","03","06","08:00","-1.5","","-6.1","","71","","","M","1","","9","","16.1","","100.61","","","","-5","","NA"
"-59.96","43.95","SABLE ISLAND A","8204703","2019-03-06 09:00","2019","03","06","09:00","-1.3","","-5.9","","71","","","M","33","","5","","16.1","","100.64","","","","-3","","Snow"
"-59.96","43.95","SABLE ISLAND A","8204703","2019-03-06 10:00","2019","03","06","10:00","-1.4","","-4.6","","79","","","M","34","","5","","16.1","","100.61","","","","-3","","Snow"
"-59.96","43.95","SABLE ISLAND A","8204703","2019-03-06 11:00","2019","03","06","11:00","-1.4","","-4.8","","78","","","M","30","","11","","16.1","","100.51","","","","-5","","NA"
"-59.96","43.95","SABLE ISLAND A","8204703","2019-03-06 12:00","2019","03","06","12:00","-0.8","","-4.1","","78","","","M","33","","24","","16.1","","100.43","","","","-7","","NA"
"-59.96","43.95","SABLE ISLAND A","8204703","2019-03-06 13:00","2019","03","06","13:00","-0.7","","-5.3","","71","","","M","31","","21","","16.1","","100.41","","","","-6","","NA"
"-59.96","43.95","SABLE ISLAND A","8204703","2019-03-06 14:00","2019","03","06","14:00","-0.6","","-4.7","","74","","","M","30","","34","","16.1","","100.36","","","","-8","","NA"
"-59.96","43.95","SABLE ISLAND A","8204703","2019-03-06 15:00","2019","03","06","15:00","-2.3","","-5.3","","80","","","M","31","","35","","16.1","","100.22","","","","-10","","Snow"
"-59.96","43.95","SABLE ISLAND A","8204703","2019-03-06 16:00","2019","03","06","16:00","-3.1","","-5.8","","82","","","M","30","","26","","9.7","","100.23","","","","-10","","Snow"
"-59.96","43.95","SABLE ISLAND A","8204703","2019-03-06 17:00","2019","03","06","17:00","-3.5","","-7.9","","72","","","M","31","","28","","16.1","","100.40","","","","-11","","Snow"
"-59.96","43.95","SABLE ISLAND A","8204703","2019-03-06 18:00","2019","03","06","18:00","-3.7","","-8.7","","68","","","M","31","","28","","16.1","","100.48","","","","-11","","NA"
"-59.96","43.95","SABLE ISLAND A","8204703","2019-03-06 19:00","2019","03","06","19:00","-3.8","","-9.7","","64","","","M","31","","24","","16.1","","100.64","","","","-11","","NA"
"-59.96","43.95","SABLE ISLAND A","8204703","2019-03-06 20:00","2019","03","06","20:00","-3.9","","-9.8","","64","","","M","27","","11","","16.1","","100.74","","","","-8","","NA"
"-59.96","43.95","SABLE ISLAND A","8204703","2019-03-06 21:00","2019","03","06","21:00","-3.9","","-9.6","","65","","","M","27","","11","","16.1","","100.73","","","","-8","","NA"
"-59.96","43.95","SABLE ISLAND A","8204703","2019-03-06 22:00","2019","03","06","22:00","-3.3","","-10.0","","60","","","M","21","","17","","16.1","","100.74","","","","-9","","NA"
"-59.96","43.95","SABLE ISLAND A","8204703","2019-03-06 23:00","2019","03","06","23:00","-3.8","","-6.1","","84","","","M","23","","15","","3.2","","100.67","","","","-9","","Snow"
"-59.96","43.95","SABLE ISLAND A","8204703","2019-03-07 00:00","2019","03","07","00:00","-3.7","","-4.7","","93","","","M","29","","50","","0.4","","100.57","","","","-13","","Heavy Snow"
"-59.96","43.95","SABLE ISLAND A","8204703","2019-03-07 01:00","2019","03","07","01:00","-5.0","","-7.8","","81","","","M","31","","45","","8.1","","100.78","","","","-15","","Snow"
"-59.96","43.95","SABLE ISLAND A","8204703","2019-03-07 02:00","2019","03","07","02:00","-5.2","","-8.7","","77","","","M","32","","34","","16.1","","100.96","","","","-14","","Snow"
"-59.96","43.95","SABLE ISLAND A","8204703","2019-03-07 03:00","2019","03","07","03:00","-5.4","","-10.5","","68","","","M","31","","24","","16.1","","101.03","","","","-13","","Snow"
"-59.96","43.95","SABLE ISLAND A","8204703","2019-03-07 04:00","2019","03","07","04:00","-6.2","","-9.4","","78","","","M","31","","22","","16.1","","101.14","","","","-13","","Snow"
"-59.96","43.95","SABLE ISLAND A","8204703","2019-03-07 05:00","2019","03","07","05:00","-5.9","","-12.9","","58","","","M","31","","30","","16.1","","101.21","","","","-14","","NA"
"-59.96","43.95","SABLE ISLAND A","8204703","2019-03-07 06:00","2019","03","07","06:00","-6.4","","-11.5","","67","","","M","29","","22","","8.1","","101.33","","","","-14","","Snow"
"-59.96","43.95","SABLE ISLAND A","8204703","2019-03-07 07:00","2019","03","07","07:00","-6.2","","-14.5","","52","","","M","28","","32","","16.1","","101.40","","","","-15","","NA"
"-59.96","43.95","SABLE ISLAND A","8204703","2019-03-07 08:00","2019","03","07","08:00","-5.7","","-12.7","","58","","","M","28","","26","","16.1","","101.54","","","","-13","","NA"
"-59.96","43.95","SABLE ISLAND A","8204703","2019-03-07 09:00","2019","03","07","09:00","-6.3","","-12.3","","63","","","M","29","","37","","12.9","","101.54","","","","-16","","NA"
"-59.96","43.95","SABLE ISLAND A","8204703","2019-03-07 10:00","2019","03","07","10:00","-6.2","","-12.5","","61","","","M","28","","32","","16.1","","101.68","","","","-15","","NA"
"-59.96","43.95","SABLE ISLAND A","8204703","2019-03-07 11:00","2019","03","07","11:00","-6.1","","-13.5","","56","","","M","28","","37","","16.1","","101.67","","","","-15","","NA"
"-59.96","43.95","SABLE ISLAND A","8204703","2019-03-07 12:00","2019","03","07","12:00","-5.8","","-14.2","","52","","","M","28","","37","","16.1","","101.73","","","","-15","","NA"
"-59.96","43.95","SABLE ISLAND A","8204703","2019-03-07 13:00","2019","03","07","13:00","-5.8","","-14.9","","49","","","M","28","","37","","16.1","","101.68","","","","-15","","NA"
"-59.96","43.95","SABLE ISLAND A","8204703","2019-03-07 14:00","2019","03","07","14:00","-6.0","","-14.3","","52","","","M","28","","26","","16.1","","101.62","","","","-14","","NA"
"-59.96","43.95","SABLE ISLAND A","8204703","2019-03-07 15:00","2019","03","07","15:00","-6.4","","-12.2","","64","","","M","26","","32","","16.1","","101.58","","","","-15","","Snow"
"-59.96","43.95","SABLE ISLAND A","8204703","2019-03-07 16:00","2019","03","07","16:00","-5.9","","-11.0","","67","","","M","24","","35","","16.1","","101.61","","","","-15","","NA"
"-59.96","43.95","SABLE ISLAND A","8204703","2019-03-07 17:00","2019","03","07","17:00","-6.0","","-10.8","","69","","","M","25","","30","","16.1","","101.69","","","","-14","","NA"
"-59.96","43.95","SABLE ISLAND A","8204703","2019-03-07 18:00","2019","03","07","18:00","-6.3","","-11.6","","66","","","M","27","","28","","16.1","","101.66","","","","-14","","NA"
"-59.96","43.95","SABLE ISLAND A","8204703","2019-03-07 19:00","2019","03","07","19:00","-6.1","","-10.5","","71","","","M","28","","26","","16.1","","101.72","","","","-14","","NA"
"-59.96","43.95","SABLE ISLAND A","8204703","2019-03-07 20:00","2019","03","07","20:00","-5.5","","-12.2","","60","","","M","26","","30","","16.1","","101.77","","","","-14","","Snow"
"-59.96","43.95","SABLE ISLAND A","8204703","2019-03-07 21:00","2019","03","07","21:00","-6.2","","-9.4","","78","","","M","27","","22","","4.8","","101.82","","","","-13","","Snow"
"-59.96","43.95","SABLE ISLAND A","8204703","2019-03-07 22:00","2019","03","07","22:00","-6.4","","-9.6","","78","","","M","27","","32","","3.2","","101.88","","","","-15","","Snow"
"-59.96","43.95","SABLE ISLAND A","8204703","2019-03-07 23:00","2019","03","07","23:00","-6.1","","-11.3","","67","","","M","28","","37","","14.5","","101.92","","","","-15","","Snow"
"-59.96","43.95","SABLE ISLAND A","8204703","2019-03-08 00:00","2019","03","08","00:00","-6.4","","-10.7","","72","","","M","30","","39","","16.1","","101.96","","","","-16","","NA"
"-59.96","43.95","SABLE ISLAND A","8204703","2019-03-08 01:00","2019","03","08","01:00","-6.7","","-10.5","","75","","","M","31","","30","","16.1","","102.04","","","","-15","","Snow"
"-59.96","43.95","SABLE ISLAND A","8204703","2019-03-08 02:00","2019","03","08","02:00","-6.9","","-12.2","","66","","","M","29","","26","","16.1","","102.10","","","","-15","","Snow"
"-59.96","43.95","SABLE ISLAND A","8204703","2019-03-08 03:00","2019","03","08","03:00","-7.3","","-12.5","","67","","","M","29","","32","","16.1","","102.13","","","","-16","","Snow"
"-59.96","43.95","SABLE ISLAND A","8204703","2019-03-08 04:00","2019","03","08","04:00","-7.7","","-13.6","","63","","","M","29","","26","","16.1","","102.19","","","","-16","","NA"
"-59.96","43.95","SABLE ISLAND A","8204703","2019-03-08 05:00","2019","03","08","05:00","-8.1","","-14.9","","58","","","M","28","","41","","16.1","","102.26","","","","-18","","NA"
"-59.96","43.95","SABLE ISLAND A","8204703","2019-03-08 06:00","2019","03","08","06:00","-8.3","","-16.5","","52","","","M","28","","32","","16.1","","102.37","","","","-18","","NA"
"-59.96","43.95","SABLE ISLAND A","8204703","2019-03-08 07:00","2019","03","08","07:00","-7.9","","-15.3","","56","","","M","28","","26","","16.1","","102.44","","","","-16","","NA"
"-59.96","43.95","SABLE ISLAND A","8204703","2019-03-08 08:00","2019","03","08","08:00","-7.1","","-14.0","","58","","","M","27","","28","","16.1","","102.48","","","","-15","","NA"
"-59.96","43.95","SABLE ISLAND A","8204703","2019-03-08 09:00","2019","03","08","09:00","-6.1","","-13.1","","58","","","M","27","","34","","16.1","","102.48","","","","-15","","NA"
"-59.96","43.95","SABLE ISLAND A","8204703","2019-03-08 10:00","2019","03","08","10:00","-5.8","","-10.8","","68","","","M","28","","41","","14.5","","102.49","","","","-15","","Snow"
"-59.96","43.95","SABLE ISLAND A","8204703","2019-03-08 11:00","2019","03","08","11:00","-5.5","","-12.5","","58","","","M","27","","37","","16.1","","102.54","","","","-14","","NA"
"-59.96","43.95","SABLE ISLAND A","8204703","2019-03-08 12:00","2019","03","08","12:00","-4.8","","-13.2","","52","","","M","27","","35","","16.1","","102.61","","","","-13","","NA"
"-59.96","43.95","SABLE ISLAND A","8204703","2019-03-08 13:00","2019","03","08","13:00","-5.3","","-13.3","","54","","","M","27","","28","","16.1","","102.50","","","","-13","","NA"
"-59.96","43.95","SABLE ISLAND A","8204703","2019-03-08 14:00","2019","03","08","14:00","-4.4","","-12.3","","54","","","M","27","","32","","16.1","","102.53","","","","-12","","NA"
"-59.96","43.95","SABLE ISLAND A","8204703","2019-03-08 15:00","2019","03","08","15:00","-4.3","","-11.4","","58","","","M","26","","34","","16.1","","102.47","","","","-13","","NA"
"-59.96","43.95","SABLE ISLAND A","8204703","2019-03-08 16:00","2019","03","08","16:00","-4.3","","-11.6","","57","","","M","26","","32","","16.1","","102.50","","","","-12","","NA"
"-59.96","43.95","SABLE ISLAND A","8204703","2019-03-08 17:00","2019","03","08","17:00","-4.0","","-10.3","","62","","","M","25","","34","","16.1","","102.50","","","","-12","","NA"
"-59.96","43.95","SABLE ISLAND A","8204703","2019-03-08 18:00","2019","03","08","18:00","-3.9","","-10.1","","62","","","M","26","","30","","16.1","","102.51","","","","-12","","Snow"
"-59.96","43.95","SABLE ISLAND A","8204703","2019-03-08 19:00","2019","03","08","19:00","-3.4","","-8.7","","67","","","M","25","","37","","16.1","","102.55","","","","-12","","Snow"
"-59.96","43.95","SABLE ISLAND A","8204703","2019-03-08 20:00","2019","03","08","20:00","-3.2","","-8.7","","66","","","M","25","","34","","16.1","","102.55","","","","-11","","NA"
"-59.96","43.95","SABLE ISLAND A","8204703","2019-03-08 21:00","2019","03","08","21:00","-2.8","","-8.1","","67","","","M","25","","30","","16.1","","102.56","","","","-10","","NA"
"-59.96","43.95","SABLE ISLAND A","8204703","2019-03-08 22:00","2019","03","08","22:00","-2.5","","-7.4","","69","","","M","25","","35","","16.1","","102.54","","","","-10","","NA"
"-59.96","43.95","SABLE ISLAND A","8204703","2019-03-08 23:00","2019","03","08","23:00","-2.2","","-7.1","","69","","","M","25","","30","","16.1","","102.50","","","","-9","","NA"
"-59.96","43.95","SABLE ISLAND A","8204703","2019-03-09 00:00","2019","03","09","00:00","-1.8","","-6.4","","71","","","M","23","","35","","16.1","","102.47","","","","-9","","NA"
"-59.96","43.95","SABLE ISLAND A","8204703","2019-03-09 01:00","2019","03","09","01:00","-1.5","","-5.7","","73","","","M","24","","35","","16.1","","102.46","","","","-9","","NA"
"-59.96","43.95","SABLE ISLAND A","8204703","2019-03-09 02:00","2019","03","09","02:00","-1.2","","-4.9","","76","","","M","23","","30","","16.1","","102.45","","","","-8","","NA"
"-59.96","43.95","SABLE ISLAND A","8204703","2019-03-09 03:00","2019","03","09","03:00","-0.8","","-3.7","","81","","","M","23","","28","","16.1","","102.35","","","","-7","","NA"
"-59.96","43.95","SABLE ISLAND A","8204703","2019-03-09 04:00","2019","03","09","04:00","-0.4","","-3.1","","82","","","M","22","","28","","14.5","","102.31","","","","-7","","NA"
"-59.96","43.95","SABLE ISLAND A","8204703","2019-03-09 05:00","2019","03","09","05:00","-0.3","","-2.7","","84","","","M","22","","21","","12.9","","102.27","","","","-6","","NA"
"-59.96","43.95","SABLE ISLAND A","8204703","2019-03-09 06:00","2019","03","09","06:00","-0.4","","-2.0","","89","","","M","20","","18","","14.5","","102.24","","","","-5","","NA"
"-59.96","43.95","SABLE ISLAND A","8204703","2019-03-09 07:00","2019","03","09","07:00","0.1","","-1.7","","88","","","M","20","","17","","16.1","","102.23","","","","","","NA"
"-59.96","43.95","SABLE ISLAND A","8204703","2019-03-09 08:00","2019","03","09","08:00","0.3","","-1.3","","89","","","M","19","","17","","12.9","","102.26","","","","","","NA"
"-59.96","43.95","SABLE ISLAND A","8204703","2019-03-09 09:00","2019","03","09","09:00","1.2","","-0.9","","86","","","M","24","","15","","11.3","","102.28","","","","","","NA"
"-59.96","43.95","SABLE ISLAND A","8204703","2019-03-09 10:00","2019","03","09","10:00","0.9","","-1.7","","83","","","M","25","","18","","16.1","","102.24","","","","","","NA"
"-59.96","43.95","SABLE ISLAND A","8204703","2019-03-09 11:00","2019","03","09","11:00","1.1","","-2.8","","75","","","M","26","","26","","16.1","","102.19","","","","","","NA"
"-59.96","43.95","SABLE ISLAND A","8204703","2019-03-09 12:00","2019","03","09","12:00","0.8","","-4.3","","69","","","M","25","","34","","16.1","","102.08","","","","","","NA"
"-59.96","43.95","SABLE ISLAND A","8204703","2019-03-09 13:00","2019","03","09","13:00","1.5","","-3.4","","70","","","M","24","","32","","16.1","","102.06","","","","","","NA"
"-59.96","43.95","SABLE ISLAND A","8204703","2019-03-09 14:00","2019","03","09","14:00","2.2","","-2.2","","73","","","M","24","","26","","16.1","","102.03","","","","","","NA"
"-59.96","43.95","SABLE ISLAND A","8204703","2019-03-09 15:00","2019","03","09","15:00","2.1","","-1.8","","76","","","M","24","","24","","16.1","","102.00","","","","","","NA"
"-59.96","43.95","SABLE ISLAND A","8204703","2019-03-09 16:00","2019","03","09","16:00","1.9","","-1.5","","78","","","M","25","","22","","16.1","","101.99","","","","","","NA"
"-59.96","43.95","SABLE ISLAND A","8204703","2019-03-09 17:00","2019","03","09","17:00","1.3","","-1.9","","79","","","M","27","","18","","16.1","","101.99","","","","","","NA"
"-59.96","43.95","SABLE ISLAND A","8204703","2019-03-09 18:00","2019","03","09","18:00","0.2","","-2.5","","82","","","M","28","","22","","16.1","","102.05","","","","","","NA"
"-59.96","43.95","SABLE ISLAND A","8204703","2019-03-09 19:00","2019","03","09","19:00","-0.2","","-5.6","","67","","","M","35","","39","","16.1","","102.23","","","","-8","","NA"
"-59.96","43.95","SABLE ISLAND A","8204703","2019-03-09 20:00","2019","03","09","20:00","-0.7","","-6.4","","66","","","M","35","","45","","16.1","","102.41","","","","-9","","NA"
"-59.96","43.95","SABLE ISLAND A","8204703","2019-03-09 21:00","2019","03","09","21:00","-1.8","","-7.0","","68","","","M","36","","43","","16.1","","102.55","","","","-10","","NA"
"-59.96","43.95","SABLE ISLAND A","8204703","2019-03-09 22:00","2019","03","09","22:00","-2.3","","-9.1","","60","","","M","35","","39","","16.1","","102.70","","","","-10","","NA"
"-59.96","43.95","SABLE ISLAND A","8204703","2019-03-09 23:00","2019","03","09","23:00","-2.6","","-10.2","","56","","","M","36","","39","","16.1","","102.81","","","","-11","","NA"
"-59.96","43.95","SABLE ISLAND A","8204703","2019-03-10 00:00","2019","03","10","00:00","-3.1","","-11.6","","52","","","M","36","","43","","16.1","","102.89","","","","-12","","NA"
"-59.96","43.95","SABLE ISLAND A","8204703","2019-03-10 01:00","2019","03","10","01:00","-3.2","","-11.3","","54","","","M","35","","43","","16.1","","103.00","","","","-12","","NA"
"-59.96","43.95","SABLE ISLAND A","8204703","2019-03-10 02:00","2019","03","10","02:00","-3.7","","-11.2","","56","","","M","35","","37","","16.1","","103.06","","","","-12","","NA"
"-59.96","43.95","SABLE ISLAND A","8204703","2019-03-10 03:00","2019","03","10","03:00","-4.2","","-11.2","","58","","","M","36","","41","","16.1","","103.05","","","","-13","","NA"
"-59.96","43.95","SABLE ISLAND A","8204703","2019-03-10 04:00","2019","03","10","04:00","-4.7","","-10.1","","66","","","M","35","","45","","16.1","","103.12","","","","-14","","NA"
"-59.96","43.95","SABLE ISLAND A","8204703","2019-03-10 05:00","2019","03","10","05:00","-4.6","","-10.6","","63","","","M","35","","41","","16.1","","103.24","","","","-14","","NA"
"-59.96","43.95","SABLE ISLAND A","8204703","2019-03-10 06:00","2019","03","10","06:00","-4.8","","-9.7","","69","","","M","36","","30","","16.1","","103.35","","","","-13","","NA"
"-59.96","43.95","SABLE ISLAND A","8204703","2019-03-10 07:00","2019","03","10","07:00","-4.5","","-9.2","","70","","","M","36","","18","","16.1","","103.48","","","","-11","","NA"
"-59.96","43.95","SABLE ISLAND A","8204703","2019-03-10 08:00","2019","03","10","08:00","-3.5","","-8.8","","67","","","M","36","","18","","16.1","","103.55","","","","-9","","NA"
"-59.96","43.95","SABLE ISLAND A","8204703","2019-03-10 09:00","2019","03","10","09:00","-2.5","","-8.7","","63","","","M","1","","18","","16.1","","103.61","","","","-8","","NA"
"-59.96","43.95","SABLE ISLAND A","8204703","2019-03-10 10:00","2019","03","10","10:00","-1.8","","-8.1","","62","","","M","1","","15","","16.1","","103.61","","","","-7","","NA"
"-59.96","43.95","SABLE ISLAND A","8204703","2019-03-10 11:00","2019","03","10","11:00","-1.3","","-7.5","","63","","","M","1","","13","","16.1","","103.62","","","","-6","","NA"
"-59.96","43.95","SABLE ISLAND A","8204703","2019-03-10 12:00","2019","03","10","12:00","-1.3","","-7.1","","65","","","M","1","","15","","16.1","","103.55","","","","-6","","NA"
"-59.96","43.95","SABLE ISLAND A","8204703","2019-03-10 13:00","2019","03","10","13:00","-1.6","","-7.2","","66","","","M","2","","9","","16.1","","103.64","","","","-5","","NA"
"-59.96","43.95","SABLE ISLAND A","8204703","2019-03-10 14:00","2019","03","10","14:00","-1.5","","-7.2","","65","","","M","3","","9","","16.1","","103.59","","","","-5","","NA"
"-59.96","43.95","SABLE ISLAND A","8204703","2019-03-10 15:00","2019","03","10","15:00","-1.4","","-7.0","","66","","","M","6","","11","","16.1","","103.61","","","","-5","","NA"
"-59.96","43.95","SABLE ISLAND A","8204703","2019-03-10 16:00","2019","03","10","16:00","-1.6","","-6.2","","71","","","M","6","","13","","16.1","","103.58","","","","-6","","NA"
"-59.96","43.95","SABLE ISLAND A","8204703","2019-03-10 17:00","2019","03","10","17:00","-2.3","","-6.1","","75","","","M","9","","15","","16.1","","103.50","","","","-7","","NA"
"-59.96","43.95","SABLE ISLAND A","8204703","2019-03-10 18:00","2019","03","10","18:00","-2.6","","-5.3","","82","","","M","11","","17","","16.1","","103.47","","","","-8","","NA"
"-59.96","43.95","SABLE ISLAND A","8204703","2019-03-10 19:00","2019","03","10","19:00","-2.5","","-5.0","","83","","","M","11","","21","","16.1","","103.44","","","","-9","","NA"
"-59.96","43.95","SABLE ISLAND A","8204703","2019-03-10 20:00","2019","03","10","20:00","-2.4","","-4.7","","84","","","M","12","","24","","16.1","","103.39","","","","-9","","NA"
"-59.96","43.95","SABLE ISLAND A","8204703","2019-03-10 21:00","2019","03","10","21:00","-2.1","","-4.3","","85","","","M","12","","28","","16.1","","103.32","","","","-9","","NA"
"-59.96","43.95","SABLE ISLAND A","8204703","2019-03-10 22:00","2019","03","10","22:00","-1.2","","-3.3","","86","","","M","15","","28","","16.1","","103.37","","","","-8","","NA"
"-59.96","43.95","SABLE ISLAND A","8204703","2019-03-10 23:00","2019","03","10","23:00","-0.2","","-2.4","","85","","","M","15","","26","","16.1","","103.32","","","","-6","","NA"
"-59.96","43.95","SABLE ISLAND A","8204703","2019-03-11 00:00","2019","03","11","00:00","0.2","","-1.5","","88","","","M","13","","28","","16.1","","103.06","","","","","","NA"
"-59.96","43.95","SABLE ISLAND A","8204703","2019-03-11 01:00","2019","03","11","01:00","1.1","","-1.0","","86","","","M","14","","35","","16.1","","103.01","","","","","","NA"
"-59.96","43.95","SABLE ISLAND A","8204703","2019-03-11 02:00","2019","03","11","02:00","1.5","","-0.3","","88","","","M","14","","43","","16.1","","102.81","","","","","","NA"
"-59.96","43.95","SABLE ISLAND A","8204703","2019-03-11 03:00","2019","03","11","03:00","1.7","","0.1","","89","","","M","14","","35","","16.1","","102.68","","","","","","NA"
"-59.96","43.95","SABLE ISLAND A","8204703","2019-03-11 04:00","2019","03","11","04:00","2.4","","0.5","","87","","","M","14","","46","","16.1","","102.34","","","","","","NA"
"-59.96","43.95","SABLE ISLAND A","8204703","2019-03-11 05:00","2019","03","11","05:00","3.0","","0.6","","84","","","M","15","","41","","14.5","","102.25","","","","","","NA"
"-59.96","43.95","SABLE ISLAND A","8204703","2019-03-11 06:00","2019","03","11","06:00","3.1","","1.2","","87","","","M","15","","45","","11.3","","102.09","","","","","","NA"
"-59.96","43.95","SABLE ISLAND A","8204703","2019-03-11 07:00","2019","03","11","07:00","3.7","","2.1","","89","","","M","15","","50","","9.7","","101.85","","","","","","Fog"
"-59.96","43.95","SABLE ISLAND A","8204703","2019-03-11 08:00","2019","03","11","08:00","4.1","","2.8","","91","","","M","15","","48","","8.1","","101.74","","","","","","Fog"
"-59.96","43.95","SABLE ISLAND A","8204703","2019-03-11 09:00","2019","03","11","09:00","4.4","","2.8","","89","","","M","15","","48","","8.1","","101.56","","","","","","Fog"
"-59.96","43.95","SABLE ISLAND A","8204703","2019-03-11 10:00","2019","03","11","10:00","4.8","","3.5","","91","","","M","16","","48","","4.8","","101.38","","","","","","Rain,Fog"
"-59.96","43.95","SABLE ISLAND A","8204703","2019-03-11 11:00","2019","03","11","11:00","5.2","","4.2","","93","","","M","17","","58","","2.4","","101.23","","","","","","Rain,Fog"
"-59.96","43.95","SABLE ISLAND A","8204703","2019-03-11 12:00","2019","03","11","12:00","5.1","","4.4","","95","","","M","17","","55","","2.4","","101.12","","","","","","Rain,Fog"
"-59.96","43.95","SABLE ISLAND A","8204703","2019-03-11 13:00","2019","03","11","13:00","4.7","","4.4","","98","","","M","17","","45","","1.2","","100.96","","","","","","Rain,Fog"
"-59.96","43.95","SABLE ISLAND A","8204703","2019-03-11 14:00","2019","03","11","14:00","4.0","","3.7","","98","","","M","18","","34","","0.8","","100.80","","","","","","Rain,Fog"
"-59.96","43.95","SABLE ISLAND A","8204703","2019-03-11 15:00","2019","03","11","15:00","4.6","","4.3","","98","","","M","17","","41","","0.2","","100.67","","","","","","Rain,Fog"
"-59.96","43.95","SABLE ISLAND A","8204703","2019-03-11 16:00","2019","03","11","16:00","5.0","","4.9","","99","","","M","21","","39","","0.8","","100.65","","","","","","Rain,Fog"
"-59.96","43.95","SABLE ISLAND A","8204703","2019-03-11 17:00","2019","03","11","17:00","3.2","","2.9","","98","","","M","23","","26","","0.2","","100.57","","","","","","Rain,Fog"
"-59.96","43.95","SABLE ISLAND A","8204703","2019-03-11 18:00","2019","03","11","18:00","0.8","","0.7","","99","","","M","25","","35","","0.4","","100.62","","","","","","Rain,Fog"
"-59.96","43.95","SABLE ISLAND A","8204703","2019-03-11 19:00","2019","03","11","19:00","0.4","","0.3","","99","","","M","24","","30","","1.2","","100.66","","","","","","Fog"
"-59.96","43.95","SABLE ISLAND A","8204703","2019-03-11 20:00","2019","03","11","20:00","1.0","","0.9","","99","","","M","24","","30","","2.8","","100.78","","","","","","Fog"
"-59.96","43.95","SABLE ISLAND A","8204703","2019-03-11 21:00","2019","03","11","21:00","0.8","","0.5","","98","","","M","23","","32","","2.4","","100.75","","","","","","Fog"
"-59.96","43.95","SABLE ISLAND A","8204703","2019-03-11 22:00","2019","03","11","22:00","1.1","","0.5","","96","","","M","24","","32","","3.6","","100.82","","","","","","Fog"
"-59.96","43.95","SABLE ISLAND A","8204703","2019-03-11 23:00","2019","03","11","23:00","1.1","","0.4","","95","","","M","24","","26","","3.2","","100.82","","","","","","Fog"
"-59.96","43.95","SABLE ISLAND A","8204703","2019-03-12 00:00","2019","03","12","00:00","1.0","","0.1","","94","","","M","24","","28","","4.0","","100.77","","","","","","Fog"
"-59.96","43.95","SABLE ISLAND A","8204703","2019-03-12 01:00","2019","03","12","01:00","1.0","","0.1","","94","","","M","24","","30","","3.6","","100.79","","","","","","Fog"
"-59.96","43.95","SABLE ISLAND A","8204703","2019-03-12 02:00","2019","03","12","02:00","1.1","","0.1","","93","","","M","24","","28","","3.6","","100.83","","","","","","Fog"
"-59.96","43.95","SABLE ISLAND A","8204703","2019-03-12 03:00","2019","03","12","03:00","1.2","","0.2","","93","","","M","24","","26","","4.0","","100.79","","","","","","Fog"
"-59.96","43.95","SABLE ISLAND A","8204703","2019-03-12 04:00","2019","03","12","04:00","1.1","","0.1","","93","","","M","24","","24","","3.6","","100.79","","","","","","Fog"
"-59.96","43.95","SABLE ISLAND A","8204703","2019-03-12 05:00","2019","03","12","05:00","1.1","","0.1","","93","","","M","23","","26","","3.6","","100.80","","","","","","Fog"
"-59.96","43.95","SABLE ISLAND A","8204703","2019-03-12 06:00","2019","03","12","06:00","1.0","","0.0","","93","","","M","22","","24","","4.0","","100.84","","","","","","Fog"
"-59.96","43.95","SABLE ISLAND A","8204703","2019-03-12 07:00","2019","03","12","07:00","1.0","","0.1","","94","","","M","23","","22","","3.6","","100.85","","","","","","Fog"
"-59.96","43.95","SABLE ISLAND A","8204703","2019-03-12 08:00","2019","03","12","08:00","1.4","","0.2","","92","","","M","24","","24","","4.0","","100.87","","","","","","Fog"
"-59.96","43.95","SABLE ISLAND A","8204703","2019-03-12 09:00","2019","03","12","09:00","2.6","","1.1","","90","","","M","24","","22","","4.0","","100.98","","","","","","Fog"
"-59.96","43.95","SABLE ISLAND A","8204703","2019-03-12 10:00","2019","03","12","10:00","3.2","","1.6","","89","","","M","22","","18","","3.2","","100.94","","","","","","Fog"
"-59.96","43.95","SABLE ISLAND A","8204703","2019-03-12 11:00","2019","03","12","11:00","3.0","","1.5","","90","","","M","24","","17","","2.8","","100.95","","","","","","Fog"
"-59.96","43.95","SABLE ISLAND A","8204703","2019-03-12 12:00","2019","03","12","12:00","3.3","","1.2","","86","","","M","24","","18","","3.2","","100.99","","","","","","Fog"
"-59.96","43.95","SABLE ISLAND A","8204703","2019-03-12 13:00","2019","03","12","13:00","3.3","","1.1","","86","","","M","23","","17","","4.0","","101.00","","","","","","Fog"
"-59.96","43.95","SABLE ISLAND A","8204703","2019-03-12 14:00","2019","03","12","14:00","3.6","","1.0","","83","","","M","25","","18","","4.8","","101.00","","","","","","Haze"
"-59.96","43.95","SABLE ISLAND A","8204703","2019-03-12 15:00","2019","03","12","15:00","3.1","","0.6","","84","","","M","26","","21","","8.1","","101.02","","","","","","Fog"
"-59.96","43.95","SABLE ISLAND A","8204703","2019-03-12 16:00","2019","03","12","16:00","2.2","","-2.0","","74","","","M","26","","18","","12.9","","101.08","","","","","","NA"
"-59.96","43.95","SABLE ISLAND A","8204703","2019-03-12 17:00","2019","03","12","17:00","1.4","","-1.9","","79","","","M","25","","15","","12.9","","101.17","","","","","","NA"
"-59.96","43.95","SABLE ISLAND A","8204703","2019-03-12 18:00","2019","03","12","18:00","0.5","","-2.6","","80","","","M","26","","17","","16.1","","101.21","","","","","","NA"
"-59.96","43.95","SABLE ISLAND A","8204703","2019-03-12 19:00","2019","03","12","19:00","0.1","","-2.6","","82","","","M","26","","13","","14.5","","101.37","","","","","","NA"
"-59.96","43.95","SABLE ISLAND A","8204703","2019-03-12 20:00","2019","03","12","20:00","-0.1","","-2.2","","86","","","M","26","","15","","12.9","","101.43","","","","-5","","NA"
"-59.96","43.95","SABLE ISLAND A","8204703","2019-03-12 21:00","2019","03","12","21:00","-0.2","","-2.4","","85","","","M","26","","13","","11.3","","101.50","","","","-4","","NA"
"-59.96","43.95","SABLE ISLAND A","8204703","2019-03-12 22:00","2019","03","12","22:00","-0.2","","-2.1","","87","","","M","27","","11","","14.5","","101.57","","","","-4","","NA"
"-59.96","43.95","SABLE ISLAND A","8204703","2019-03-12 23:00","2019","03","12","23:00","0.2","","-1.6","","88","","","M","29","","15","","16.1","","101.61","","","","","","NA"
"-59.96","43.95","SABLE ISLAND A","8204703","2019-03-13 00:00","2019","03","13","00:00","-0.2","","-1.6","","90","","","M","33","","17","","16.1","","101.62","","","","-5","","NA"
"-59.96","43.95","SABLE ISLAND A","8204703","2019-03-13 01:00","2019","03","13","01:00","-0.4","","-2.0","","89","","","M","36","","11","","16.1","","101.70","","","","-4","","NA"
"-59.96","43.95","SABLE ISLAND A","8204703","2019-03-13 02:00","2019","03","13","02:00","-0.5","","-1.9","","90","","","M","34","","9","","16.1","","101.76","","","","-4","","NA"
"-59.96","43.95","SABLE ISLAND A","8204703","2019-03-13 03:00","2019","03","13","03:00","-1.0","","-2.4","","90","","","M","34","","5","","16.1","","101.77","","","","-3","","NA"
"-59.96","43.95","SABLE ISLAND A","8204703","2019-03-13 04:00","2019","03","13","04:00","-2.3","","-3.1","","94","","","M","29","","5","","16.1","","101.80","","","","-4","","NA"
"-59.96","43.95","SABLE ISLAND A","8204703","2019-03-13 05:00","2019","03","13","05:00","-0.3","","-1.6","","91","","","M","31","","11","","16.1","","101.94","","","","-4","","NA"
"-59.96","43.95","SABLE ISLAND A","8204703","2019-03-13 06:00","2019","03","13","06:00","0.0","","-1.6","","89","","","M","33","","18","","16.1","","101.98","","","","-5","","NA"
"-59.96","43.95","SABLE ISLAND A","8204703","2019-03-13 07:00","2019","03","13","07:00","0.1","","-1.8","","87","","","M","35","","21","","16.1","","102.09","","","","","","NA"
"-59.96","43.95","SABLE ISLAND A","8204703","2019-03-13 08:00","2019","03","13","08:00","0.4","","-1.7","","86","","","M","36","","17","","16.1","","102.19","","","","","","NA"
"-59.96","43.95","SABLE ISLAND A","8204703","2019-03-13 09:00","2019","03","13","09:00","1.8","","-1.1","","81","","","M","32","","18","","16.1","","102.31","","","","","","NA"
"-59.96","43.95","SABLE ISLAND A","8204703","2019-03-13 10:00","2019","03","13","10:00","2.0","","-1.7","","77","","","M","35","","15","","16.1","","102.32","","","","","","NA"
"-59.96","43.95","SABLE ISLAND A","8204703","2019-03-13 11:00","2019","03","13","11:00","2.8","","-1.8","","72","","","M","33","","17","","16.1","","102.31","","","","","","NA"
"-59.96","43.95","SABLE ISLAND A","8204703","2019-03-13 12:00","2019","03","13","12:00","2.4","","-2.3","","71","","","M","33","","21","","16.1","","102.28","","","","","","NA"
"-59.96","43.95","SABLE ISLAND A","8204703","2019-03-13 13:00","2019","03","13","13:00","2.4","","-2.1","","72","","","M","33","","17","","16.1","","102.28","","","","","","NA"
"-59.96","43.95","SABLE ISLAND A","8204703","2019-03-13 14:00","2019","03","13","14:00","2.1","","-2.3","","73","","","M","33","","18","","16.1","","102.27","","","","","","NA"
"-59.96","43.95","SABLE ISLAND A","8204703","2019-03-13 15:00","2019","03","13","15:00","1.6","","-2.8","","72","","","M","34","","15","","16.1","","102.32","","","","","","NA"
"-59.96","43.95","SABLE ISLAND A","8204703","2019-03-13 16:00","2019","03","13","16:00","1.1","","-2.8","","76","","","M","33","","15","","16.1","","102.36","","","","","","NA"
"-59.96","43.95","SABLE ISLAND A","8204703","2019-03-13 17:00","2019","03","13","17:00","0.3","","-3.0","","79","","","M","35","","13","","16.1","","102.37","","","","","","NA"
"-59.96","43.95","SABLE ISLAND A","8204703","2019-03-13 18:00","2019","03","13","18:00","-1.1","","-3.6","","83","","","M","33","","9","","16.1","","102.31","","","","-4","","NA"
"-59.96","43.95","SABLE ISLAND A","8204703","2019-03-13 19:00","2019","03","13","19:00","-1.3","","-3.3","","86","","","M","1","","4","","16.1","","102.41","","","","-3","","NA"
"-59.96","43.95","SABLE ISLAND A","8204703","2019-03-13 20:00","2019","03","13","20:00","-2.0","","-3.4","","90","","","M","31","","4","","16.1","","102.49","","","","-3","","NA"
"-59.96","43.95","SABLE ISLAND A","8204703","2019-03-13 21:00","2019","03","13","21:00","-1.8","","-3.8","","86","","","M","27","","4","","16.1","","102.55","","","","-3","","NA"
"-59.96","43.95","SABLE ISLAND A","8204703","2019-03-13 22:00","2019","03","13","22:00","-1.8","","-3.8","","86","","","M","27","","9","","16.1","","102.57","","","","-5","","NA"
"-59.96","43.95","SABLE ISLAND A","8204703","2019-03-13 23:00","2019","03","13","23:00","-1.7","","-3.9","","85","","","M","30","","5","","16.1","","102.59","","","","-4","","NA"
"-59.96","43.95","SABLE ISLAND A","8204703","2019-03-14 00:00","2019","03","14","00:00","-1.0","","-3.4","","84","","","M","30","","13","","16.1","","102.61","","","","-5","","NA"
"-59.96","43.95","SABLE ISLAND A","8204703","2019-03-14 01:00","2019","03","14","01:00","-0.9","","-3.9","","80","","","M","30","","15","","16.1","","102.62","","","","-6","","NA"
"-59.96","43.95","SABLE ISLAND A","8204703","2019-03-14 02:00","2019","03","14","02:00","-0.9","","-3.7","","81","","","M","30","","13","","16.1","","102.64","","","","-5","","NA"
"-59.96","43.95","SABLE ISLAND A","8204703","2019-03-14 03:00","2019","03","14","03:00","-1.2","","-3.7","","83","","","M","30","","13","","16.1","","102.60","","","","-5","","NA"
"-59.96","43.95","SABLE ISLAND A","8204703","2019-03-14 04:00","2019","03","14","04:00","-1.5","","-4.2","","82","","","M","29","","9","","16.1","","102.58","","","","-5","","NA"
"-59.96","43.95","SABLE ISLAND A","8204703","2019-03-14 05:00","2019","03","14","05:00","-3.7","","-5.1","","90","","","M","25","","5","","14.5","","102.55","","","","-6","","NA"
"-59.96","43.95","SABLE ISLAND A","8204703","2019-03-14 06:00","2019","03","14","06:00","-1.2","","-2.8","","89","","","M","21","","11","","16.1","","102.62","","","","-5","","NA"
"-59.96","43.95","SABLE ISLAND A","8204703","2019-03-14 07:00","2019","03","14","07:00","-0.3","","-2.1","","88","","","M","22","","15","","16.1","","102.68","","","","-5","","NA"
"-59.96","43.95","SABLE ISLAND A","8204703","2019-03-14 08:00","2019","03","14","08:00","0.8","","-1.1","","87","","","M","21","","15","","16.1","","102.69","","","","","","NA"
"-59.96","43.95","SABLE ISLAND A","8204703","2019-03-14 09:00","2019","03","14","09:00","1.5","","-1.2","","82","","","M","23","","15","","16.1","","102.71","","","","","","NA"
"-59.96","43.95","SABLE ISLAND A","8204703","2019-03-14 10:00","2019","03","14","10:00","2.0","","-1.3","","79","","","M","24","","17","","16.1","","102.70","","","","","","NA"
"-59.96","43.95","SABLE ISLAND A","8204703","2019-03-14 11:00","2019","03","14","11:00","","M","","M","","M","","M","","M","","M","","M","","M","","","","","NA"
"-59.96","43.95","SABLE ISLAND A","8204703","2019-03-14 12:00","2019","03","14","12:00","3.1","","-0.9","","75","","","M","25","","18","","16.1","","102.70","","","","","","NA"
"-59.96","43.95","SABLE ISLAND A","8204703","2019-03-14 13:00","2019","03","14","13:00","3.0","","-0.8","","76","","","M","25","","17","","16.1","","102.63","","","","","","NA"
"-59.96","43.95","SABLE ISLAND A","8204703","2019-03-14 14:00","2019","03","14","14:00","4.1","","-0.9","","70","","27.4","","26","","13","","16.1","","102.64","","","","","","NA"
"-59.96","43.95","SABLE ISLAND A","8204703","2019-03-14 15:00","2019","03","14","15:00","3.2","","-1.0","","74","","11.9","","29","","11","","16.1","","102.65","","","","","","NA"
"-59.96","43.95","SABLE ISLAND A","8204703","2019-03-14 16:00","2019","03","14","16:00","2.3","","-0.6","","81","","0.0","","23","","11","","16.1","","102.60","","","","","","NA"
"-59.96","43.95","SABLE ISLAND A","8204703","2019-03-14 17:00","2019","03","14","17:00","1.7","","-0.1","","88","","0.0","","22","","13","","16.1","","102.61","","","","","","NA"
"-59.96","43.95","SABLE ISLAND A","8204703","2019-03-14 18:00","2019","03","14","18:00","0.9","","-0.3","","92","","0.0","","21","","13","","16.1","","102.57","","","","","","NA"
"-59.96","43.95","SABLE ISLAND A","8204703","2019-03-14 19:00","2019","03","14","19:00","0.5","","-0.2","","95","","0.0","","23","","11","","12.9","","102.64","","","","","","NA"
"-59.96","43.95","SABLE ISLAND A","8204703","2019-03-14 20:00","2019","03","14","20:00","0.3","","-0.3","","96","","0.0","","22","","11","","9.7","","102.63","","","","","","Fog"
"-59.96","43.95","SABLE ISLAND A","8204703","2019-03-14 21:00","2019","03","14","21:00","0.2","","-0.2","","97","","0.0","","23","","11","","9.7","","102.63","","","","","","Fog"
"-59.96","43.95","SABLE ISLAND A","8204703","2019-03-14 22:00","2019","03","14","22:00","0.4","","0.0","","97","","0.0","","26","","17","","12.9","","102.70","","","","","","NA"
"-59.96","43.95","SABLE ISLAND A","8204703","2019-03-14 23:00","2019","03","14","23:00","0.1","","-0.5","","96","","0.0","","25","","13","","16.1","","102.65","","","","","","NA"
"-59.96","43.95","SABLE ISLAND A","8204703","2019-03-15 00:00","2019","03","15","00:00","0.1","","-1.1","","92","","0.0","","25","","11","","16.1","","102.64","","","","","","NA"
"-59.96","43.95","SABLE ISLAND A","8204703","2019-03-15 01:00","2019","03","15","01:00","-0.1","","-1.0","","94","","0.0","","25","","9","","9.7","","102.62","","","","-3","","Fog"
"-59.96","43.95","SABLE ISLAND A","8204703","2019-03-15 02:00","2019","03","15","02:00","-0.1","","-0.7","","96","","0.0","","24","","13","","11.3","","102.61","","","","-4","","NA"
"-59.96","43.95","SABLE ISLAND A","8204703","2019-03-15 03:00","2019","03","15","03:00","-0.1","","-0.6","","97","","0.0","","23","","11","","9.7","","102.55","","","","-4","","Fog"
"-59.96","43.95","SABLE ISLAND A","8204703","2019-03-15 04:00","2019","03","15","04:00","0.0","","-0.4","","97","","0.0","","24","","13","","11.3","","102.55","","","","-4","","NA"
"-59.96","43.95","SABLE ISLAND A","8204703","2019-03-15 05:00","2019","03","15","05:00","-0.2","","-0.6","","97","","0.0","","24","","13","","11.3","","102.60","","","","-4","","NA"
"-59.96","43.95","SABLE ISLAND A","8204703","2019-03-15 06:00","2019","03","15","06:00","-0.2","","-0.6","","97","","0.0","","22","","11","","9.7","","102.62","","","","-4","","Fog"
"-59.96","43.95","SABLE ISLAND A","8204703","2019-03-15 07:00","2019","03","15","07:00","0.4","","0.0","","97","","0.0","","20","","9","","11.3","","102.64","","","","","","NA"
"-59.96","43.95","SABLE ISLAND A","8204703","2019-03-15 08:00","2019","03","15","08:00","1.4","","0.8","","96","","0.0","","18","","17","","16.1","","102.61","","","","","","NA"
"-59.96","43.95","SABLE ISLAND A","8204703","2019-03-15 09:00","2019","03","15","09:00","1.6","","0.9","","95","","0.0","","18","","18","","16.1","","102.60","","","","","","NA"
"-59.96","43.95","SABLE ISLAND A","8204703","2019-03-15 10:00","2019","03","15","10:00","2.8","","0.8","","87","","0.0","","17","","21","","16.1","","102.55","","","","","","NA"
"-59.96","43.95","SABLE ISLAND A","8204703","2019-03-15 11:00","2019","03","15","11:00","3.2","","-0.6","","76","","0.0","","17","","22","","16.1","","102.47","","","","","","NA"
"-59.96","43.95","SABLE ISLAND A","8204703","2019-03-15 12:00","2019","03","15","12:00","3.3","","0.4","","81","","0.0","","18","","17","","16.1","","102.46","","","","","","NA"
"-59.96","43.95","SABLE ISLAND A","8204703","2019-03-15 13:00","2019","03","15","13:00","3.8","","0.7","","80","","0.0","","17","","21","","16.1","","102.33","","","","","","NA"
"-59.96","43.95","SABLE ISLAND A","8204703","2019-03-15 14:00","2019","03","15","14:00","3.5","","0.6","","81","","0.0","","17","","22","","16.1","","102.22","","","","","","NA"
"-59.96","43.95","SABLE ISLAND A","8204703","2019-03-15 15:00","2019","03","15","15:00","2.9","","0.8","","86","","0.0","","17","","22","","16.1","","102.20","","","","","","NA"
"-59.96","43.95","SABLE ISLAND A","8204703","2019-03-15 16:00","2019","03","15","16:00","3.0","","1.4","","89","","0.0","","17","","21","","16.1","","102.18","","","","","","NA"
"-59.96","43.95","SABLE ISLAND A","8204703","2019-03-15 17:00","2019","03","15","17:00","3.0","","1.3","","89","","0.0","","16","","34","","16.1","","102.03","","","","","","NA"
"-59.96","43.95","SABLE ISLAND A","8204703","2019-03-15 18:00","2019","03","15","18:00","3.3","","1.8","","90","","0.0","","17","","32","","16.1","","101.96","","","","","","NA"
"-59.96","43.95","SABLE ISLAND A","8204703","2019-03-15 19:00","2019","03","15","19:00","3.2","","2.0","","92","","0.0","","18","","32","","11.3","","101.94","","","","","","NA"
"-59.96","43.95","SABLE ISLAND A","8204703","2019-03-15 20:00","2019","03","15","20:00","3.0","","2.1","","94","","0.0","","18","","30","","8.1","","101.88","","","","","","Fog"
"-59.96","43.95","SABLE ISLAND A","8204703","2019-03-15 21:00","2019","03","15","21:00","3.5","","2.3","","92","","0.0","","17","","35","","8.1","","101.81","","","","","","Fog"
"-59.96","43.95","SABLE ISLAND A","8204703","2019-03-15 22:00","2019","03","15","22:00","3.6","","2.6","","93","","0.0","","16","","37","","8.1","","101.69","","","","","","Fog"
"-59.96","43.95","SABLE ISLAND A","8204703","2019-03-15 23:00","2019","03","15","23:00","3.9","","3.2","","95","","33.8","","18","","34","","4.0","","101.68","","","","","","Rain,Fog"
"-59.96","43.95","SABLE ISLAND A","8204703","2019-03-16 00:00","2019","03","16","00:00","3.6","","3.2","","97","","194.8","","17","","30","","4.0","","101.61","","","","","","Rain,Fog"
"-59.96","43.95","SABLE ISLAND A","8204703","2019-03-16 01:00","2019","03","16","01:00","4.0","","3.6","","97","","447.3","","17","","43","","4.0","","101.42","","","","","","Fog"
"-59.96","43.95","SABLE ISLAND A","8204703","2019-03-16 02:00","2019","03","16","02:00","4.7","","4.4","","98","","","M","18","","39","","3.2","","101.36","","","","","","Fog"
"-59.96","43.95","SABLE ISLAND A","8204703","2019-03-16 03:00","2019","03","16","03:00","5.0","","4.6","","97","","198.9","","18","","39","","4.8","","101.27","","","","","","Rain,Fog"
"-59.96","43.95","SABLE ISLAND A","8204703","2019-03-16 04:00","2019","03","16","04:00","4.8","","4.4","","98","","0.0","","18","","34","","3.2","","101.16","","","","","","Rain,Fog"
"-59.96","43.95","SABLE ISLAND A","8204703","2019-03-16 05:00","2019","03","16","05:00","5.2","","4.9","","98","","234.4","","17","","37","","2.0","","101.06","","","","","","Fog"
"-59.96","43.95","SABLE ISLAND A","8204703","2019-03-16 06:00","2019","03","16","06:00","5.2","","5.1","","99","","","M","17","","37","","2.4","","100.98","","","","","","Fog"
"-59.96","43.95","SABLE ISLAND A","8204703","2019-03-16 07:00","2019","03","16","07:00","5.3","","5.0","","98","","","M","17","","43","","2.4","","100.87","","","","","","Rain,Fog"
"-59.96","43.95","SABLE ISLAND A","8204703","2019-03-16 08:00","2019","03","16","08:00","5.3","","5.1","","99","","56.1","","17","","41","","0.8","","100.88","","","","","","Fog"
"-59.96","43.95","SABLE ISLAND A","8204703","2019-03-16 09:00","2019","03","16","09:00","6.3","","6.2","","99","","151.6","","18","","54","","2.4","","100.77","","","","","","Rain,Fog"
"-59.96","43.95","SABLE ISLAND A","8204703","2019-03-16 10:00","2019","03","16","10:00","6.9","","6.6","","98","","153.7","","18","","46","","3.2","","100.68","","","","","","Rain,Fog"
"-59.96","43.95","SABLE ISLAND A","8204703","2019-03-16 11:00","2019","03","16","11:00","6.7","","6.3","","97","","83.3","","19","","45","","2.8","","100.57","","","","","","Rain,Fog"
"-59.96","43.95","SABLE ISLAND A","8204703","2019-03-16 12:00","2019","03","16","12:00","6.2","","5.8","","97","","0.0","","18","","45","","2.4","","100.49","","","","","","Fog"
"-59.96","43.95","SABLE ISLAND A","8204703","2019-03-16 13:00","2019","03","16","13:00","5.5","","5.2","","98","","0.0","","19","","37","","0.6","","100.38","","","","","","Rain,Fog"
"-59.96","43.95","SABLE ISLAND A","8204703","2019-03-16 14:00","2019","03","16","14:00","6.7","","6.6","","99","","91.7","","20","","43","","0.4","","100.27","","","","","","Moderate Rain,Fog"
"-59.96","43.95","SABLE ISLAND A","8204703","2019-03-16 15:00","2019","03","16","15:00","6.8","","6.7","","99","","212.1","","19","","45","","0.2","","100.18","","","","","","Rain,Fog"
"-59.96","43.95","SABLE ISLAND A","8204703","2019-03-16 16:00","2019","03","16","16:00","6.0","","5.9","","99","","179.8","","21","","37","","0.4","","100.20","","","","","","Rain,Fog"
"-59.96","43.95","SABLE ISLAND A","8204703","2019-03-16 17:00","2019","03","16","17:00","4.8","","4.7","","99","","","M","23","","37","","0.2","","100.25","","","","","","Rain,Fog"
"-59.96","43.95","SABLE ISLAND A","8204703","2019-03-16 18:00","2019","03","16","18:00","2.5","","2.4","","99","","","M","24","","39","","0.4","","100.29","","","","","","Rain,Fog"
"-59.96","43.95","SABLE ISLAND A","8204703","2019-03-16 19:00","2019","03","16","19:00","2.2","","2.1","","99","","","M","23","","35","","4.8","","100.35","","","","","","Fog"
"-59.96","43.95","SABLE ISLAND A","8204703","2019-03-16 20:00","2019","03","16","20:00","1.9","","1.2","","95","","","M","23","","34","","4.8","","100.37","","","","","","Fog"
"-59.96","43.95","SABLE ISLAND A","8204703","2019-03-16 21:00","2019","03","16","21:00","1.8","","0.9","","94","","","M","24","","30","","4.8","","100.41","","","","","","Fog"
"-59.96","43.95","SABLE ISLAND A","8204703","2019-03-16 22:00","2019","03","16","22:00","2.2","","0.9","","91","","","M","25","","30","","4.8","","100.45","","","","","","Fog"
"-59.96","43.95","SABLE ISLAND A","8204703","2019-03-16 23:00","2019","03","16","23:00","1.9","","0.4","","90","","","M","24","","34","","4.8","","100.51","","","","","","Fog"
"-59.96","43.95","SABLE ISLAND A","8204703","2019-03-17 00:00","2019","03","17","00:00","1.7","","0.4","","91","","","M","24","","34","","4.8","","100.51","","","","","","Fog"
"-59.96","43.95","SABLE ISLAND A","8204703","2019-03-17 01:00","2019","03","17","01:00","1.5","","0.3","","92","","","M","24","","34","","4.8","","100.54","","","","","","Fog"
"-59.96","43.95","SABLE ISLAND A","8204703","2019-03-17 02:00","2019","03","17","02:00","1.5","","0.2","","91","","","M","24","","34","","4.8","","100.56","","","","","","Fog"
"-59.96","43.95","SABLE ISLAND A","8204703","2019-03-17 03:00","2019","03","17","03:00","1.3","","0.3","","93","","","M","25","","32","","4.8","","100.59","","","","","","Fog"
"-59.96","43.95","SABLE ISLAND A","8204703","2019-03-17 04:00","2019","03","17","04:00","1.4","","-0.2","","89","","","M","26","","26","","6.4","","100.67","","","","","","Fog"
"-59.96","43.95","SABLE ISLAND A","8204703","2019-03-17 05:00","2019","03","17","05:00","0.8","","-2.5","","79","","","M","27","","28","","12.9","","100.79","","","","","","NA"
"-59.96","43.95","SABLE ISLAND A","8204703","2019-03-17 06:00","2019","03","17","06:00","0.0","","-4.4","","72","","","M","27","","35","","16.1","","100.91","","","","-7","","NA"
"-59.96","43.95","SABLE ISLAND A","8204703","2019-03-17 07:00","2019","03","17","07:00","0.1","","-5.5","","66","","","M","27","","32","","16.1","","101.03","","","","","","NA"
"-59.96","43.95","SABLE ISLAND A","8204703","2019-03-17 08:00","2019","03","17","08:00","0.2","","-5.2","","67","","","M","27","","30","","16.1","","101.12","","","","","","NA"
"-59.96","43.95","SABLE ISLAND A","8204703","2019-03-17 09:00","2019","03","17","09:00","0.3","","-5.8","","64","","","M","26","","34","","16.1","","101.18","","","","","","NA"
"-59.96","43.95","SABLE ISLAND A","8204703","2019-03-17 10:00","2019","03","17","10:00","1.0","","-5.7","","61","","","M","27","","34","","16.1","","101.22","","","","","","NA"
"-59.96","43.95","SABLE ISLAND A","8204703","2019-03-17 11:00","2019","03","17","11:00","1.3","","-6.3","","57","","","M","28","","34","","16.1","","101.25","","","","","","NA"
"-59.96","43.95","SABLE ISLAND A","8204703","2019-03-17 12:00","2019","03","17","12:00","1.1","","-5.5","","62","","","M","26","","37","","16.1","","101.27","","","","","","NA"
"-59.96","43.95","SABLE ISLAND A","8204703","2019-03-17 13:00","2019","03","17","13:00","2.2","","-5.4","","57","","","M","25","","43","","9.7","","101.30","","","","","","Haze"
"-59.96","43.95","SABLE ISLAND A","8204703","2019-03-17 14:00","2019","03","17","14:00","2.0","","-5.7","","57","","","M","26","","46","","9.7","","101.30","","","","","","Haze"
"-59.96","43.95","SABLE ISLAND A","8204703","2019-03-17 15:00","2019","03","17","15:00","1.7","","-4.8","","62","","","M","25","","34","","11.3","","101.32","","","","","","NA"
"-59.96","43.95","SABLE ISLAND A","8204703","2019-03-17 16:00","2019","03","17","16:00","1.3","","-6.5","","56","","","M","26","","41","","14.5","","101.35","","","","","","NA"
"-59.96","43.95","SABLE ISLAND A","8204703","2019-03-17 17:00","2019","03","17","17:00","0.9","","-5.0","","65","","","M","25","","34","","12.9","","101.40","","","","","","NA"
"-59.96","43.95","SABLE ISLAND A","8204703","2019-03-17 18:00","2019","03","17","18:00","0.3","","-4.5","","70","","","M","24","","41","","14.5","","101.45","","","","","","NA"
"-59.96","43.95","SABLE ISLAND A","8204703","2019-03-17 19:00","2019","03","17","19:00","0.5","","-3.4","","75","","","M","24","","39","","14.5","","101.49","","","","","","NA"
"-59.96","43.95","SABLE ISLAND A","8204703","2019-03-17 20:00","2019","03","17","20:00","0.4","","-3.3","","76","","","M","24","","37","","16.1","","101.55","","","","","","NA"
"-59.96","43.95","SABLE ISLAND A","8204703","2019-03-17 21:00","2019","03","17","21:00","0.4","","-3.8","","74","","","M","24","","41","","16.1","","101.59","","","","","","NA"
"-59.96","43.95","SABLE ISLAND A","8204703","2019-03-17 22:00","2019","03","17","22:00","0.4","","-4.1","","72","","","M","24","","43","","14.5","","101.60","","","","","","NA"
"-59.96","43.95","SABLE ISLAND A","8204703","2019-03-17 23:00","2019","03","17","23:00","0.4","","-5.2","","66","","","M","26","","35","","14.5","","101.64","","","","","","NA"
"-59.96","43.95","SABLE ISLAND A","8204703","2019-03-18 00:00","2019","03","18","00:00","0.0","","-5.4","","67","","","M","27","","28","","16.1","","101.66","","","","-6","","Rain"
"-59.96","43.95","SABLE ISLAND A","8204703","2019-03-18 01:00","2019","03","18","01:00","-0.2","","-7.2","","60","","","M","27","","28","","16.1","","101.73","","","","-7","","NA"
"-59.96","43.95","SABLE ISLAND A","8204703","2019-03-18 02:00","2019","03","18","02:00","-1.1","","-8.4","","58","","","M","30","","28","","16.1","","101.73","","","","-8","","NA"
"-59.96","43.95","SABLE ISLAND A","8204703","2019-03-18 03:00","2019","03","18","03:00","-1.2","","-9.9","","52","","","M","29","","18","","16.1","","101.72","","","","-6","","NA"
"-59.96","43.95","SABLE ISLAND A","8204703","2019-03-18 04:00","2019","03","18","04:00","-1.4","","-9.1","","56","","","M","28","","21","","16.1","","101.79","","","","-7","","NA"
"-59.96","43.95","SABLE ISLAND A","8204703","2019-03-18 05:00","2019","03","18","05:00","-1.4","","-9.4","","55","","","M","27","","15","","16.1","","101.83","","","","-6","","NA"
"-59.96","43.95","SABLE ISLAND A","8204703","2019-03-18 06:00","2019","03","18","06:00","-1.5","","-9.6","","54","","","M","26","","18","","16.1","","101.91","","","","-7","","NA"
"-59.96","43.95","SABLE ISLAND A","8204703","2019-03-18 07:00","2019","03","18","07:00","-1.3","","-8.1","","60","","","M","25","","24","","16.1","","101.95","","","","-7","","NA"
"-59.96","43.95","SABLE ISLAND A","8204703","2019-03-18 08:00","2019","03","18","08:00","-0.2","","-8.6","","54","","","M","24","","24","","16.1","","101.98","","","","-6","","NA"
"-59.96","43.95","SABLE ISLAND A","8204703","2019-03-18 09:00","2019","03","18","09:00","0.7","","-7.8","","53","","","M","25","","24","","16.1","","102.00","","","","","","NA"
"-59.96","43.95","SABLE ISLAND A","8204703","2019-03-18 10:00","2019","03","18","10:00","1.2","","-6.8","","55","","","M","25","","24","","16.1","","102.01","","","","","","NA"
"-59.96","43.95","SABLE ISLAND A","8204703","2019-03-18 11:00","2019","03","18","11:00","1.6","","-7.9","","50","","","M","24","","30","","16.1","","101.98","","","","","","NA"
"-59.96","43.95","SABLE ISLAND A","8204703","2019-03-18 12:00","2019","03","18","12:00","2.5","","-7.1","","49","","","M","24","","28","","16.1","","102.01","","","","","","NA"
"-59.96","43.95","SABLE ISLAND A","8204703","2019-03-18 13:00","2019","03","18","13:00","2.5","","-7.2","","49","","","M","25","","32","","16.1","","101.98","","","","","","NA"
"-59.96","43.95","SABLE ISLAND A","8204703","2019-03-18 14:00","2019","03","18","14:00","2.0","","-6.0","","55","","","M","25","","35","","14.5","","101.97","","","","","","NA"
"-59.96","43.95","SABLE ISLAND A","8204703","2019-03-18 15:00","2019","03","18","15:00","1.6","","-8.3","","48","","","M","26","","35","","16.1","","101.96","","","","","","NA"
"-59.96","43.95","SABLE ISLAND A","8204703","2019-03-18 16:00","2019","03","18","16:00","0.0","","-6.1","","64","","","M","27","","26","","16.1","","101.99","","","","-6","","NA"
"-59.96","43.95","SABLE ISLAND A","8204703","2019-03-18 17:00","2019","03","18","17:00","-0.7","","-8.1","","57","","","M","27","","34","","16.1","","102.07","","","","-8","","NA"
"-59.96","43.95","SABLE ISLAND A","8204703","2019-03-18 18:00","2019","03","18","18:00","-1.3","","-8.7","","57","","","M","26","","28","","16.1","","102.15","","","","-8","","NA"
"-59.96","43.95","SABLE ISLAND A","8204703","2019-03-18 19:00","2019","03","18","19:00","-1.3","","-7.9","","61","","","M","26","","22","","16.1","","102.21","","","","-7","","NA"
"-59.96","43.95","SABLE ISLAND A","8204703","2019-03-18 20:00","2019","03","18","20:00","-1.1","","-7.5","","62","","","M","26","","24","","16.1","","102.28","","","","-7","","NA"
"-59.96","43.95","SABLE ISLAND A","8204703","2019-03-18 21:00","2019","03","18","21:00","-0.9","","-7.7","","60","","","M","26","","21","","16.1","","102.30","","","","-7","","NA"
"-59.96","43.95","SABLE ISLAND A","8204703","2019-03-18 22:00","2019","03","18","22:00","-0.7","","-7.3","","61","","","M","26","","21","","16.1","","102.34","","","","-6","","NA"
"-59.96","43.95","SABLE ISLAND A","8204703","2019-03-18 23:00","2019","03","18","23:00","-0.5","","-6.2","","65","","","M","26","","22","","16.1","","102.35","","","","-6","","NA"
"-59.96","43.95","SABLE ISLAND A","8204703","2019-03-19 00:00","2019","03","19","00:00","-0.6","","-5.6","","69","","","M","26","","22","","16.1","","102.34","","","","-6","","NA"
"-59.96","43.95","SABLE ISLAND A","8204703","2019-03-19 01:00","2019","03","19","01:00","-0.5","","-4.8","","73","","","M","27","","24","","16.1","","102.35","","","","-6","","NA"
"-59.96","43.95","SABLE ISLAND A","8204703","2019-03-19 02:00","2019","03","19","02:00","-0.9","","-4.4","","77","","","M","29","","17","","16.1","","102.34","","","","-6","","NA"
"-59.96","43.95","SABLE ISLAND A","8204703","2019-03-19 03:00","2019","03","19","03:00","-1.3","","-6.2","","69","","","M","33","","17","","16.1","","102.33","","","","-6","","NA"
"-59.96","43.95","SABLE ISLAND A","8204703","2019-03-19 04:00","2019","03","19","04:00","-2.1","","-7.0","","69","","","M","34","","8","","16.1","","102.39","","","","-5","","NA"
"-59.96","43.95","SABLE ISLAND A","8204703","2019-03-19 05:00","2019","03","19","05:00","-3.5","","-7.6","","74","","","M","31","","4","","16.1","","102.42","","","","-5","","NA"
"-59.96","43.95","SABLE ISLAND A","8204703","2019-03-19 06:00","2019","03","19","06:00","-7.1","","-9.4","","84","","","M","28","","4","","16.1","","102.48","","","","-9","","NA"
"-59.96","43.95","SABLE ISLAND A","8204703","2019-03-19 07:00","2019","03","19","07:00","-3.7","","-5.8","","85","","","M","29","","5","","16.1","","102.51","","","","-6","","NA"
"-59.96","43.95","SABLE ISLAND A","8204703","2019-03-19 08:00","2019","03","19","08:00","0.2","","-7.3","","57","","","M","26","","8","","16.1","","102.54","","","","","","NA"
"-59.96","43.95","SABLE ISLAND A","8204703","2019-03-19 09:00","2019","03","19","09:00","1.0","","-6.6","","57","","","M","24","","9","","16.1","","102.57","","","","","","NA"
"-59.96","43.95","SABLE ISLAND A","8204703","2019-03-19 10:00","2019","03","19","10:00","1.3","","-8.5","","48","","","M","24","","11","","16.1","","102.56","","","","","","NA"
"-59.96","43.95","SABLE ISLAND A","8204703","2019-03-19 11:00","2019","03","19","11:00","1.9","","-7.6","","49","","","M","22","","13","","11.3","","102.57","","","","","","NA"
"-59.96","43.95","SABLE ISLAND A","8204703","2019-03-19 12:00","2019","03","19","12:00","2.4","","-6.9","","50","","","M","23","","21","","16.1","","102.57","","","","","","NA"
"-59.96","43.95","SABLE ISLAND A","8204703","2019-03-19 13:00","2019","03","19","13:00","2.3","","-6.5","","52","","","M","24","","21","","16.1","","102.56","","","","","","NA"
"-59.96","43.95","SABLE ISLAND A","8204703","2019-03-19 14:00","2019","03","19","14:00","2.1","","-6.8","","52","","","M","23","","21","","16.1","","102.49","","","","","","NA"
"-59.96","43.95","SABLE ISLAND A","8204703","2019-03-19 15:00","2019","03","19","15:00","2.0","","-6.2","","55","","","M","22","","21","","16.1","","102.48","","","","","","NA"
"-59.96","43.95","SABLE ISLAND A","8204703","2019-03-19 16:00","2019","03","19","16:00","0.3","","-5.5","","65","","","M","23","","21","","16.1","","102.48","","","","","","Rain"
"-59.96","43.95","SABLE ISLAND A","8204703","2019-03-19 17:00","2019","03","19","17:00","0.2","","-2.4","","83","","","M","24","","17","","16.1","","102.45","","","","","","Snow"
"-59.96","43.95","SABLE ISLAND A","8204703","2019-03-19 18:00","2019","03","19","18:00","-0.6","","-4.5","","75","","","M","26","","17","","16.1","","102.48","","","","-6","","NA"
"-59.96","43.95","SABLE ISLAND A","8204703","2019-03-19 19:00","2019","03","19","19:00","-1.1","","-8.4","","58","","","M","27","","21","","16.1","","102.55","","","","-7","","NA"
"-59.96","43.95","SABLE ISLAND A","8204703","2019-03-19 20:00","2019","03","19","20:00","-1.3","","-8.7","","58","","","M","26","","22","","16.1","","102.61","","","","-7","","NA"
"-59.96","43.95","SABLE ISLAND A","8204703","2019-03-19 21:00","2019","03","19","21:00","-1.7","","-9.4","","56","","","M","27","","22","","16.1","","102.63","","","","-8","","NA"
"-59.96","43.95","SABLE ISLAND A","8204703","2019-03-19 22:00","2019","03","19","22:00","-2.0","","-10.3","","53","","","M","29","","15","","16.1","","102.63","","","","-7","","NA"
"-59.96","43.95","SABLE ISLAND A","8204703","2019-03-19 23:00","2019","03","19","23:00","-2.3","","-10.6","","53","","","M","31","","17","","16.1","","102.65","","","","-8","","NA"
"-59.96","43.95","SABLE ISLAND A","8204703","2019-03-20 00:00","2019","03","20","00:00","-2.5","","-10.8","","53","","","M","31","","11","","16.1","","102.65","","","","-7","","NA"
"-59.96","43.95","SABLE ISLAND A","8204703","2019-03-20 01:00","2019","03","20","01:00","-2.4","","-9.7","","58","","","M","31","","11","","16.1","","102.66","","","","-6","","NA"
"-59.96","43.95","SABLE ISLAND A","8204703","2019-03-20 02:00","2019","03","20","02:00","-2.6","","-7.3","","70","","","M","30","","5","","16.1","","102.67","","","","-5","","NA"
"-59.96","43.95","SABLE ISLAND A","8204703","2019-03-20 03:00","2019","03","20","03:00","-2.8","","-7.0","","73","","","M","29","","9","","16.1","","102.67","","","","-6","","NA"
"-59.96","43.95","SABLE ISLAND A","8204703","2019-03-20 04:00","2019","03","20","04:00","-2.6","","-7.3","","70","","","M","31","","11","","16.1","","102.67","","","","-7","","NA"
"-59.96","43.95","SABLE ISLAND A","8204703","2019-03-20 05:00","2019","03","20","05:00","-2.7","","-7.1","","72","","","M","30","","9","","16.1","","102.70","","","","-6","","NA"
"-59.96","43.95","SABLE ISLAND A","8204703","2019-03-20 06:00","2019","03","20","06:00","-2.3","","-6.7","","72","","","M","27","","13","","16.1","","102.75","","","","-7","","NA"
"-59.96","43.95","SABLE ISLAND A","8204703","2019-03-20 07:00","2019","03","20","07:00","-1.1","","-7.0","","65","","","M","29","","11","","16.1","","102.82","","","","-5","","NA"
"-59.96","43.95","SABLE ISLAND A","8204703","2019-03-20 08:00","2019","03","20","08:00","-0.2","","-7.1","","60","","","M","30","","13","","16.1","","102.85","","","","-4","","NA"
"-59.96","43.95","SABLE ISLAND A","8204703","2019-03-20 09:00","2019","03","20","09:00","0.9","","-8.6","","49","","","M","28","","17","","16.1","","102.89","","","","","","NA"
"-59.96","43.95","SABLE ISLAND A","8204703","2019-03-20 10:00","2019","03","20","10:00","1.4","","-8.7","","47","","","M","28","","18","","16.1","","102.92","","","","","","NA"
"-59.96","43.95","SABLE ISLAND A","8204703","2019-03-20 11:00","2019","03","20","11:00","1.4","","-10.7","","40","","","M","26","","18","","16.1","","102.91","","","","","","NA"
"-59.96","43.95","SABLE ISLAND A","8204703","2019-03-20 12:00","2019","03","20","12:00","1.5","","-10.5","","41","","","M","26","","18","","16.1","","102.91","","","","","","NA"
"-59.96","43.95","SABLE ISLAND A","8204703","2019-03-20 13:00","2019","03","20","13:00","1.9","","-8.4","","46","","","M","24","","22","","16.1","","102.89","","","","","","NA"
"-59.96","43.95","SABLE ISLAND A","8204703","2019-03-20 14:00","2019","03","20","14:00","2.8","","-7.9","","46","","","M","25","","32","","16.1","","102.85","","","","","","NA"
"-59.96","43.95","SABLE ISLAND A","8204703","2019-03-20 15:00","2019","03","20","15:00","2.3","","-8.7","","44","","","M","26","","24","","16.1","","102.82","","","","","","NA"
"-59.96","43.95","SABLE ISLAND A","8204703","2019-03-20 16:00","2019","03","20","16:00","1.8","","-9.6","","43","","","M","25","","26","","16.1","","102.80","","","","","","NA"
"-59.96","43.95","SABLE ISLAND A","8204703","2019-03-20 17:00","2019","03","20","17:00","1.2","","-8.2","","50","","","M","26","","30","","16.1","","102.77","","","","","","NA"
"-59.96","43.95","SABLE ISLAND A","8204703","2019-03-20 18:00","2019","03","20","18:00","0.3","","-7.2","","57","","","M","25","","26","","16.1","","102.78","","","","","","NA"
"-59.96","43.95","SABLE ISLAND A","8204703","2019-03-20 19:00","2019","03","20","19:00","0.3","","-4.4","","71","","","M","25","","24","","16.1","","102.79","","","","","","NA"
"-59.96","43.95","SABLE ISLAND A","8204703","2019-03-20 20:00","2019","03","20","20:00","0.4","","-3.9","","73","","","M","25","","30","","16.1","","102.85","","","","","","NA"
"-59.96","43.95","SABLE ISLAND A","8204703","2019-03-20 21:00","2019","03","20","21:00","0.4","","-3.9","","73","","","M","25","","26","","16.1","","102.88","","","","","","NA"
"-59.96","43.95","SABLE ISLAND A","8204703","2019-03-20 22:00","2019","03","20","22:00","0.2","","-4.1","","73","","","M","24","","34","","16.1","","102.89","","","","","","NA"
"-59.96","43.95","SABLE ISLAND A","8204703","2019-03-20 23:00","2019","03","20","23:00","0.3","","-4.6","","70","","","M","25","","28","","16.1","","102.91","","","","","","NA"
"-59.96","43.95","SABLE ISLAND A","8204703","2019-03-21 00:00","2019","03","21","00:00","0.0","","-4.9","","70","","","M","26","","21","","16.1","","102.92","","","","-5","","NA"
"-59.96","43.95","SABLE ISLAND A","8204703","2019-03-21 01:00","2019","03","21","01:00","-0.3","","-4.7","","72","","","M","27","","17","","16.1","","102.94","","","","-5","","NA"
"-59.96","43.95","SABLE ISLAND A","8204703","2019-03-21 02:00","2019","03","21","02:00","-0.3","","-3.9","","77","","","M","25","","17","","16.1","","102.96","","","","-5","","NA"
"-59.96","43.95","SABLE ISLAND A","8204703","2019-03-21 03:00","2019","03","21","03:00","-0.4","","-3.3","","81","","","M","22","","17","","16.1","","102.94","","","","-5","","NA"
"-59.96","43.95","SABLE ISLAND A","8204703","2019-03-21 04:00","2019","03","21","04:00","-0.2","","-2.9","","82","","","M","21","","21","","16.1","","102.95","","","","-6","","NA"
"-59.96","43.95","SABLE ISLAND A","8204703","2019-03-21 05:00","2019","03","21","05:00","-0.1","","-2.7","","83","","","M","22","","21","","16.1","","102.94","","","","-6","","NA"
"-59.96","43.95","SABLE ISLAND A","8204703","2019-03-21 06:00","2019","03","21","06:00","-0.2","","-2.6","","84","","","M","22","","18","","16.1","","102.94","","","","-5","","NA"
"-59.96","43.95","SABLE ISLAND A","8204703","2019-03-21 07:00","2019","03","21","07:00","0.7","","-2.2","","81","","","M","22","","18","","16.1","","102.97","","","","","","NA"
"-59.96","43.95","SABLE ISLAND A","8204703","2019-03-21 08:00","2019","03","21","08:00","1.6","","-4.1","","66","","","M","24","","21","","16.1","","103.02","","","","","","NA"
"-59.96","43.95","SABLE ISLAND A","8204703","2019-03-21 09:00","2019","03","21","09:00","2.5","","-4.7","","59","","","M","25","","13","","16.1","","103.00","","","","","","NA"
"-59.96","43.95","SABLE ISLAND A","8204703","2019-03-21 10:00","2019","03","21","10:00","2.9","","-4.4","","59","","","M","23","","13","","16.1","","103.03","","","","","","NA"
"-59.96","43.95","SABLE ISLAND A","8204703","2019-03-21 11:00","2019","03","21","11:00","3.2","","-2.9","","64","","","M","22","","13","","16.1","","103.02","","","","","","NA"
"-59.96","43.95","SABLE ISLAND A","8204703","2019-03-21 12:00","2019","03","21","12:00","3.3","","-2.6","","65","","","M","20","","17","","16.1","","102.98","","","","","","NA"
"-59.96","43.95","SABLE ISLAND A","8204703","2019-03-21 13:00","2019","03","21","13:00","3.1","","-2.5","","67","","","M","18","","18","","16.1","","102.87","","","","","","NA"
"-59.96","43.95","SABLE ISLAND A","8204703","2019-03-21 14:00","2019","03","21","14:00","3.1","","-2.8","","65","","","M","17","","22","","16.1","","102.79","","","","","","NA"
"-59.96","43.95","SABLE ISLAND A","8204703","2019-03-21 15:00","2019","03","21","15:00","3.2","","-2.3","","67","","","M","17","","21","","16.1","","102.75","","","","","","NA"
"-59.96","43.95","SABLE ISLAND A","8204703","2019-03-21 16:00","2019","03","21","16:00","2.2","","-2.0","","74","","","M","17","","18","","16.1","","102.73","","","","","","NA"
"-59.96","43.95","SABLE ISLAND A","8204703","2019-03-21 17:00","2019","03","21","17:00","1.8","","-2.5","","73","","","M","16","","11","","16.1","","102.67","","","","","","NA"
"-59.96","43.95","SABLE ISLAND A","8204703","2019-03-21 18:00","2019","03","21","18:00","1.5","","-1.6","","80","","","M","14","","17","","16.1","","102.64","","","","","","NA"
"-59.96","43.95","SABLE ISLAND A","8204703","2019-03-21 19:00","2019","03","21","19:00","1.4","","-2.4","","76","","","M","12","","17","","16.1","","102.60","","","","","","NA"
"-59.96","43.95","SABLE ISLAND A","8204703","2019-03-21 20:00","2019","03","21","20:00","1.5","","-1.2","","82","","","M","12","","18","","16.1","","102.66","","","","","","NA"
"-59.96","43.95","SABLE ISLAND A","8204703","2019-03-21 21:00","2019","03","21","21:00","1.8","","-0.8","","83","","","M","9","","22","","16.1","","102.53","","","","","","NA"
"-59.96","43.95","SABLE ISLAND A","8204703","2019-03-21 22:00","2019","03","21","22:00","2.1","","-0.3","","84","","","M","9","","22","","16.1","","102.46","","","","","","Rain"
"-59.96","43.95","SABLE ISLAND A","8204703","2019-03-21 23:00","2019","03","21","23:00","1.8","","0.0","","88","","","M","9","","26","","16.1","","102.35","","","","","","Rain"
"-59.96","43.95","SABLE ISLAND A","8204703","2019-03-22 00:00","2019","03","22","00:00","2.5","","1.2","","91","","","M","9","","24","","16.1","","102.22","","","","","","NA"
"-59.96","43.95","SABLE ISLAND A","8204703","2019-03-22 01:00","2019","03","22","01:00","3.2","","2.3","","94","","","M","10","","28","","14.5","","102.08","","","","","","Rain"
"-59.96","43.95","SABLE ISLAND A","8204703","2019-03-22 02:00","2019","03","22","02:00","3.5","","2.9","","96","","","M","11","","32","","12.9","","101.99","","","","","","NA"
"-59.96","43.95","SABLE ISLAND A","8204703","2019-03-22 03:00","2019","03","22","03:00","3.4","","2.8","","96","","","M","12","","28","","9.7","","101.91","","","","","","Fog"
"-59.96","43.95","SABLE ISLAND A","8204703","2019-03-22 04:00","2019","03","22","04:00","3.7","","3.3","","97","","","M","13","","35","","2.8","","101.77","","","","","","Fog"
"-59.96","43.95","SABLE ISLAND A","8204703","2019-03-22 05:00","2019","03","22","05:00","4.2","","3.9","","98","","","M","13","","35","","6.4","","101.67","","","","","","Fog"
"-59.96","43.95","SABLE ISLAND A","8204703","2019-03-22 06:00","2019","03","22","06:00","4.3","","4.0","","98","","","M","13","","35","","6.4","","101.62","","","","","","Fog"
"-59.96","43.95","SABLE ISLAND A","8204703","2019-03-22 07:00","2019","03","22","07:00","4.5","","3.9","","96","","","M","13","","46","","6.4","","101.54","","","","","","Fog"
"-59.96","43.95","SABLE ISLAND A","8204703","2019-03-22 08:00","2019","03","22","08:00","5.0","","3.8","","92","","0.0","","12","","46","","6.4","","101.44","","","","","","Fog"
"-59.96","43.95","SABLE ISLAND A","8204703","2019-03-22 09:00","2019","03","22","09:00","5.0","","3.7","","91","","0.0","","12","","45","","6.4","","101.34","","","","","","Fog"
"-59.96","43.95","SABLE ISLAND A","8204703","2019-03-22 10:00","2019","03","22","10:00","5.6","","4.1","","90","","0.0","","12","","43","","6.4","","101.22","","","","","","Fog"
"-59.96","43.95","SABLE ISLAND A","8204703","2019-03-22 11:00","2019","03","22","11:00","6.0","","4.0","","87","","0.0","","11","","45","","6.4","","100.99","","","","","","Fog"
"-59.96","43.95","SABLE ISLAND A","8204703","2019-03-22 12:00","2019","03","22","12:00","6.6","","4.1","","84","","0.0","","11","","48","","6.4","","100.67","","","","","","Haze"
"-59.96","43.95","SABLE ISLAND A","8204703","2019-03-22 13:00","2019","03","22","13:00","5.4","","4.1","","91","","0.0","","11","","48","","4.8","","100.43","","","","","","Rain,Fog"
"-59.96","43.95","SABLE ISLAND A","8204703","2019-03-22 14:00","2019","03","22","14:00","5.3","","4.7","","96","","326.6","","11","","63","","2.4","","100.03","","","","","","Rain,Fog"
"-59.96","43.95","SABLE ISLAND A","8204703","2019-03-22 15:00","2019","03","22","15:00","5.2","","4.5","","95","","0.0","","11","","63","","3.6","","99.70","","","","","","Fog"
"-59.96","43.95","SABLE ISLAND A","8204703","2019-03-22 16:00","2019","03","22","16:00","5.3","","4.9","","97","","123.4","","12","","50","","1.2","","99.74","","","","","","Moderate Rain,Fog"
"-59.96","43.95","SABLE ISLAND A","8204703","2019-03-22 17:00","2019","03","22","17:00","5.4","","4.8","","96","","352.0","","12","","37","","4.0","","99.42","","","","","","Fog"
"-59.96","43.95","SABLE ISLAND A","8204703","2019-03-22 18:00","2019","03","22","18:00","5.3","","4.6","","95","","","M","13","","30","","3.2","","99.44","","","","","","Fog"
"-59.96","43.95","SABLE ISLAND A","8204703","2019-03-22 19:00","2019","03","22","19:00","4.4","","4.1","","98","","","M","16","","30","","1.0","","99.44","","","","","","Rain,Fog"
"-59.96","43.95","SABLE ISLAND A","8204703","2019-03-22 20:00","2019","03","22","20:00","4.3","","4.0","","98","","","M","16","","30","","1.6","","99.47","","","","","","Fog"
"-59.96","43.95","SABLE ISLAND A","8204703","2019-03-22 21:00","2019","03","22","21:00","5.8","","5.5","","98","","","M","17","","34","","0.8","","99.44","","","","","","Fog"
"-59.96","43.95","SABLE ISLAND A","8204703","2019-03-22 22:00","2019","03","22","22:00","5.5","","5.4","","99","","","M","16","","32","","2.0","","99.34","","","","","","Fog"
"-59.96","43.95","SABLE ISLAND A","8204703","2019-03-22 23:00","2019","03","22","23:00","5.6","","5.3","","98","","","M","16","","35","","2.0","","99.29","","","","","","Fog"
"-59.96","43.95","SABLE ISLAND A","8204703","2019-03-23 00:00","2019","03","23","00:00","5.3","","4.9","","97","","","M","19","","41","","2.0","","99.34","","","","","","Fog"
"-59.96","43.95","SABLE ISLAND A","8204703","2019-03-23 01:00","2019","03","23","01:00","5.1","","4.7","","97","","","M","19","","32","","1.6","","99.32","","","","","","Fog"
"-59.96","43.95","SABLE ISLAND A","8204703","2019-03-23 02:00","2019","03","23","02:00","5.2","","4.2","","93","","","M","21","","39","","2.8","","99.36","","","","","","Fog"
"-59.96","43.95","SABLE ISLAND A","8204703","2019-03-23 03:00","2019","03","23","03:00","3.7","","2.8","","94","","","M","21","","26","","2.0","","99.40","","","","","","Fog"
"-59.96","43.95","SABLE ISLAND A","8204703","2019-03-23 04:00","2019","03","23","04:00","3.7","","3.0","","95","","","M","22","","32","","2.0","","99.46","","","","","","Fog"
"-59.96","43.95","SABLE ISLAND A","8204703","2019-03-23 05:00","2019","03","23","05:00","3.0","","2.6","","97","","","M","18","","26","","1.6","","99.48","","","","","","Fog"
"-59.96","43.95","SABLE ISLAND A","8204703","2019-03-23 06:00","2019","03","23","06:00","3.2","","2.8","","97","","","M","17","","28","","2.4","","99.48","","","","","","Fog"
"-59.96","43.95","SABLE ISLAND A","8204703","2019-03-23 07:00","2019","03","23","07:00","3.2","","2.3","","94","","","M","17","","24","","2.4","","99.47","","","","","","Fog"
"-59.96","43.95","SABLE ISLAND A","8204703","2019-03-23 08:00","2019","03","23","08:00","4.1","","2.6","","90","","","M","19","","30","","3.6","","99.46","","","","","","Fog"
"-59.96","43.95","SABLE ISLAND A","8204703","2019-03-23 09:00","2019","03","23","09:00","4.1","","2.5","","89","","","M","18","","21","","2.8","","99.40","","","","","","Fog"
"-59.96","43.95","SABLE ISLAND A","8204703","2019-03-23 10:00","2019","03","23","10:00","5.2","","2.6","","83","","","M","17","","21","","3.2","","99.35","","","","","","Fog"
"-59.96","43.95","SABLE ISLAND A","8204703","2019-03-23 11:00","2019","03","23","11:00","5.3","","2.7","","83","","","M","16","","22","","4.0","","99.26","","","","","","Fog"
"-59.96","43.95","SABLE ISLAND A","8204703","2019-03-23 12:00","2019","03","23","12:00","4.6","","2.5","","86","","","M","22","","37","","4.8","","99.28","","","","","","Rain,Fog"
"-59.96","43.95","SABLE ISLAND A","8204703","2019-03-23 13:00","2019","03","23","13:00","3.0","","2.3","","95","","323.8","","19","","22","","1.6","","99.21","","","","","","Rain,Fog"
"-59.96","43.95","SABLE ISLAND A","8204703","2019-03-23 14:00","2019","03","23","14:00","4.2","","3.5","","95","","","M","18","","21","","1.2","","99.14","","","","","","Fog"
"-59.96","43.95","SABLE ISLAND A","8204703","2019-03-23 15:00","2019","03","23","15:00","4.4","","2.4","","87","","","M","19","","26","","3.2","","99.09","","","","","","Fog"
"-59.96","43.95","SABLE ISLAND A","8204703","2019-03-23 16:00","2019","03","23","16:00","4.6","","2.2","","84","","","M","21","","30","","3.6","","99.06","","","","","","Haze"
"-59.96","43.95","SABLE ISLAND A","8204703","2019-03-23 17:00","2019","03","23","17:00","3.4","","1.0","","84","","","M","21","","41","","4.8","","99.03","","","","","","Fog"
"-59.96","43.95","SABLE ISLAND A","8204703","2019-03-23 18:00","2019","03","23","18:00","3.0","","1.2","","88","","","M","22","","52","","4.8","","99.01","","","","","","Fog"
"-59.96","43.95","SABLE ISLAND A","8204703","2019-03-23 19:00","2019","03","23","19:00","2.2","","1.3","","94","","","M","22","","52","","2.4","","99.04","","","","","","Rain,Fog"
"-59.96","43.95","SABLE ISLAND A","8204703","2019-03-23 20:00","2019","03","23","20:00","2.5","","1.5","","93","","","M","24","","52","","3.2","","99.13","","","","","","Fog"
"-59.96","43.95","SABLE ISLAND A","8204703","2019-03-23 21:00","2019","03","23","21:00","2.6","","1.3","","91","","","M","24","","46","","4.0","","99.26","","","","","","Rain,Fog"
"-59.96","43.95","SABLE ISLAND A","8204703","2019-03-23 22:00","2019","03","23","22:00","2.5","","1.3","","92","","","M","25","","46","","4.0","","99.32","","","","","","Fog"
"-59.96","43.95","SABLE ISLAND A","8204703","2019-03-23 23:00","2019","03","23","23:00","2.5","","1.2","","91","","","M","25","","41","","4.0","","99.41","","","","","","Fog"
"-59.96","43.95","SABLE ISLAND A","8204703","2019-03-24 00:00","2019","03","24","00:00","2.5","","1.0","","90","","","M","26","","35","","4.8","","99.53","","","","","","Fog"
"-59.96","43.95","SABLE ISLAND A","8204703","2019-03-24 01:00","2019","03","24","01:00","2.6","","1.0","","89","","","M","27","","32","","6.4","","99.70","","","","","","Fog"
"-59.96","43.95","SABLE ISLAND A","8204703","2019-03-24 02:00","2019","03","24","02:00","2.2","","0.6","","89","","","M","27","","32","","4.8","","99.84","","","","","","Fog"
"-59.96","43.95","SABLE ISLAND A","8204703","2019-03-24 03:00","2019","03","24","03:00","1.8","","0.2","","89","","","M","28","","35","","8.1","","99.92","","","","","","Fog"
"-59.96","43.95","SABLE ISLAND A","8204703","2019-03-24 04:00","2019","03","24","04:00","1.9","","0.0","","87","","","M","27","","37","","14.5","","100.05","","","","","","NA"
"-59.96","43.95","SABLE ISLAND A","8204703","2019-03-24 05:00","2019","03","24","05:00","1.8","","-0.6","","84","","","M","28","","37","","16.1","","100.16","","","","","","NA"
"-59.96","43.95","SABLE ISLAND A","8204703","2019-03-24 06:00","2019","03","24","06:00","1.3","","0.0","","91","","","M","27","","26","","9.7","","100.29","","","","","","Fog"
"-59.96","43.95","SABLE ISLAND A","8204703","2019-03-24 07:00","2019","03","24","07:00","1.9","","-0.2","","86","","","M","27","","28","","9.7","","100.44","","","","","","Fog"
"-59.96","43.95","SABLE ISLAND A","8204703","2019-03-24 08:00","2019","03","24","08:00","2.3","","0.2","","86","","","M","26","","24","","9.7","","100.54","","","","","","Fog"
"-59.96","43.95","SABLE ISLAND A","8204703","2019-03-24 09:00","2019","03","24","09:00","2.6","","0.0","","83","","","M","27","","22","","9.7","","100.63","","","","","","Haze"
"-59.96","43.95","SABLE ISLAND A","8204703","2019-03-24 10:00","2019","03","24","10:00","3.2","","-1.2","","73","","","M","27","","22","","14.5","","100.72","","","","","","NA"
"-59.96","43.95","SABLE ISLAND A","8204703","2019-03-24 11:00","2019","03","24","11:00","4.2","","-2.1","","64","","","M","28","","35","","12.9","","100.80","","","","","","NA"
"-59.96","43.95","SABLE ISLAND A","8204703","2019-03-24 12:00","2019","03","24","12:00","4.0","","-2.0","","65","","","M","27","","32","","14.5","","100.84","","","","","","NA"
"-59.96","43.95","SABLE ISLAND A","8204703","2019-03-24 13:00","2019","03","24","13:00","3.5","","-2.1","","67","","","M","26","","32","","14.5","","100.85","","","","","","NA"
"-59.96","43.95","SABLE ISLAND A","8204703","2019-03-24 14:00","2019","03","24","14:00","3.6","","-1.4","","70","","","M","26","","37","","14.5","","100.88","","","","","","NA"
"-59.96","43.95","SABLE ISLAND A","8204703","2019-03-24 15:00","2019","03","24","15:00","3.1","","-1.2","","74","","","M","25","","34","","9.7","","100.87","","","","","","Haze"
"-59.96","43.95","SABLE ISLAND A","8204703","2019-03-24 16:00","2019","03","24","16:00","2.9","","-1.1","","75","","","M","25","","35","","9.7","","100.93","","","","","","Haze"
"-59.96","43.95","SABLE ISLAND A","8204703","2019-03-24 17:00","2019","03","24","17:00","2.7","","-1.2","","76","","","M","25","","35","","9.7","","100.96","","","","","","Haze"
"-59.96","43.95","SABLE ISLAND A","8204703","2019-03-24 18:00","2019","03","24","18:00","2.1","","-1.2","","79","","","M","25","","39","","8.1","","101.04","","","","","","Haze"
"-59.96","43.95","SABLE ISLAND A","8204703","2019-03-24 19:00","2019","03","24","19:00","1.9","","-0.8","","83","","","M","25","","39","","9.7","","101.12","","","","","","Haze"
"-59.96","43.95","SABLE ISLAND A","8204703","2019-03-24 20:00","2019","03","24","20:00","1.8","","-0.5","","85","","","M","24","","35","","9.7","","101.22","","","","","","Fog"
"-59.96","43.95","SABLE ISLAND A","8204703","2019-03-24 21:00","2019","03","24","21:00","1.8","","-0.5","","85","","","M","25","","35","","9.7","","101.28","","","","","","Fog"
"-59.96","43.95","SABLE ISLAND A","8204703","2019-03-24 22:00","2019","03","24","22:00","1.8","","0.2","","89","","","M","25","","32","","8.1","","101.28","","","","","","Fog"
"-59.96","43.95","SABLE ISLAND A","8204703","2019-03-24 23:00","2019","03","24","23:00","1.7","","0.2","","90","","","M","24","","28","","6.4","","101.27","","","","","","Fog"
"-59.96","43.95","SABLE ISLAND A","8204703","2019-03-25 00:00","2019","03","25","00:00","1.6","","0.3","","91","","","M","24","","30","","6.4","","101.33","","","","","","Fog"
"-59.96","43.95","SABLE ISLAND A","8204703","2019-03-25 01:00","2019","03","25","01:00","1.5","","0.3","","92","","","M","23","","28","","6.4","","101.31","","","","","","Fog"
"-59.96","43.95","SABLE ISLAND A","8204703","2019-03-25 02:00","2019","03","25","02:00","1.5","","0.5","","93","","","M","23","","30","","6.4","","101.33","","","","","","Fog"
"-59.96","43.95","SABLE ISLAND A","8204703","2019-03-25 03:00","2019","03","25","03:00","1.3","","0.4","","94","","","M","23","","24","","6.4","","101.26","","","","","","Fog"
"-59.96","43.95","SABLE ISLAND A","8204703","2019-03-25 04:00","2019","03","25","04:00","1.4","","0.5","","94","","","M","22","","30","","6.4","","101.26","","","","","","Fog"
"-59.96","43.95","SABLE ISLAND A","8204703","2019-03-25 05:00","2019","03","25","05:00","1.5","","0.6","","94","","","M","22","","28","","6.4","","101.27","","","","","","Fog"
"-59.96","43.95","SABLE ISLAND A","8204703","2019-03-25 06:00","2019","03","25","06:00","1.5","","0.5","","93","","","M","23","","28","","6.4","","101.26","","","","","","Fog"
"-59.96","43.95","SABLE ISLAND A","8204703","2019-03-25 07:00","2019","03","25","07:00","2.3","","1.3","","93","","","M","22","","28","","6.4","","101.25","","","","","","Fog"
"-59.96","43.95","SABLE ISLAND A","8204703","2019-03-25 08:00","2019","03","25","08:00","2.5","","1.3","","92","","","M","21","","21","","6.4","","101.17","","","","","","Fog"
"-59.96","43.95","SABLE ISLAND A","8204703","2019-03-25 09:00","2019","03","25","09:00","3.6","","1.5","","86","","","M","22","","24","","8.1","","101.19","","","","","","Fog"
"-59.96","43.95","SABLE ISLAND A","8204703","2019-03-25 10:00","2019","03","25","10:00","4.8","","1.7","","80","","","M","22","","24","","6.4","","101.12","","","","","","Haze"
"-59.96","43.95","SABLE ISLAND A","8204703","2019-03-25 11:00","2019","03","25","11:00","4.3","","1.5","","82","","","M","22","","28","","6.4","","101.11","","","","","","Fog"
"-59.96","43.95","SABLE ISLAND A","8204703","2019-03-25 12:00","2019","03","25","12:00","4.9","","1.9","","81","","","M","24","","30","","6.4","","101.12","","","","","","Haze"
"-59.96","43.95","SABLE ISLAND A","8204703","2019-03-25 13:00","2019","03","25","13:00","4.6","","1.7","","82","","","M","25","","32","","8.1","","101.16","","","","","","Haze"
"-59.96","43.95","SABLE ISLAND A","8204703","2019-03-25 14:00","2019","03","25","14:00","3.6","","1.0","","83","","","M","26","","24","","9.7","","101.19","","","","","","Haze"
"-59.96","43.95","SABLE ISLAND A","8204703","2019-03-25 15:00","2019","03","25","15:00","3.4","","0.8","","83","","","M","25","","22","","8.1","","101.27","","","","","","Fog"
"-59.96","43.95","SABLE ISLAND A","8204703","2019-03-25 16:00","2019","03","25","16:00","3.3","","0.9","","84","","","M","25","","22","","8.1","","101.32","","","","","","Fog"
"-59.96","43.95","SABLE ISLAND A","8204703","2019-03-25 17:00","2019","03","25","17:00","2.7","","0.6","","86","","","M","25","","21","","9.7","","101.38","","","","","","Fog"
"-59.96","43.95","SABLE ISLAND A","8204703","2019-03-25 18:00","2019","03","25","18:00","1.9","","0.3","","89","","","M","24","","17","","8.1","","101.44","","","","","","Fog"
"-59.96","43.95","SABLE ISLAND A","8204703","2019-03-25 19:00","2019","03","25","19:00","1.5","","0.2","","91","","","M","23","","21","","11.3","","101.47","","","","","","NA"
"-59.96","43.95","SABLE ISLAND A","8204703","2019-03-25 20:00","2019","03","25","20:00","1.3","","0.1","","92","","","M","23","","21","","11.3","","101.54","","","","","","NA"
"-59.96","43.95","SABLE ISLAND A","8204703","2019-03-25 21:00","2019","03","25","21:00","1.1","","0.1","","93","","","M","22","","21","","11.3","","101.60","","","","","","NA"
"-59.96","43.95","SABLE ISLAND A","8204703","2019-03-25 22:00","2019","03","25","22:00","0.9","","-0.1","","93","","","M","22","","18","","8.1","","101.60","","","","","","Fog"
"-59.96","43.95","SABLE ISLAND A","8204703","2019-03-25 23:00","2019","03","25","23:00","1.3","","0.0","","91","","","M","23","","22","","11.3","","101.61","","","","","","NA"
"-59.96","43.95","SABLE ISLAND A","8204703","2019-03-26 00:00","2019","03","26","00:00","1.1","","-0.1","","92","","","M","26","","17","","11.3","","101.56","","","","","","NA"
"-59.96","43.95","SABLE ISLAND A","8204703","2019-03-26 01:00","2019","03","26","01:00","0.7","","-1.7","","84","","","M","30","","24","","16.1","","101.57","","","","","","NA"
"-59.96","43.95","SABLE ISLAND A","8204703","2019-03-26 02:00","2019","03","26","02:00","0.1","","-4.2","","73","","","M","33","","24","","16.1","","101.62","","","","","","NA"
"-59.96","43.95","SABLE ISLAND A","8204703","2019-03-26 03:00","2019","03","26","03:00","0.1","","-5.4","","67","","","M","33","","22","","16.1","","101.64","","","","","","NA"
"-59.96","43.95","SABLE ISLAND A","8204703","2019-03-26 04:00","2019","03","26","04:00","0.3","","-8.0","","54","","","M","33","","22","","16.1","","101.63","","","","","","NA"
"-59.96","43.95","SABLE ISLAND A","8204703","2019-03-26 05:00","2019","03","26","05:00","0.2","","-7.8","","55","","","M","32","","21","","16.1","","101.70","","","","","","NA"
"-59.96","43.95","SABLE ISLAND A","8204703","2019-03-26 06:00","2019","03","26","06:00","0.0","","-7.5","","57","","","M","33","","18","","16.1","","101.73","","","","-5","","NA"
"-59.96","43.95","SABLE ISLAND A","8204703","2019-03-26 07:00","2019","03","26","07:00","0.1","","-7.0","","59","","","M","33","","18","","16.1","","101.81","","","","","","NA"
"-59.96","43.95","SABLE ISLAND A","8204703","2019-03-26 08:00","2019","03","26","08:00","0.3","","-5.6","","65","","","M","33","","18","","16.1","","101.83","","","","","","NA"
"-59.96","43.95","SABLE ISLAND A","8204703","2019-03-26 09:00","2019","03","26","09:00","0.6","","-6.4","","59","","","M","31","","17","","16.1","","101.91","","","","","","NA"
"-59.96","43.95","SABLE ISLAND A","8204703","2019-03-26 10:00","2019","03","26","10:00","1.5","","-5.9","","58","","","M","32","","21","","16.1","","101.94","","","","","","NA"
"-59.96","43.95","SABLE ISLAND A","8204703","2019-03-26 11:00","2019","03","26","11:00","1.6","","-6.8","","54","","","M","32","","24","","16.1","","101.93","","","","","","NA"
"-59.96","43.95","SABLE ISLAND A","8204703","2019-03-26 12:00","2019","03","26","12:00","0.9","","-6.1","","60","","","M","33","","26","","16.1","","101.92","","","","","","NA"
"-59.96","43.95","SABLE ISLAND A","8204703","2019-03-26 13:00","2019","03","26","13:00","0.0","","-6.9","","60","","","M","33","","21","","16.1","","101.91","","","","-5","","NA"
"-59.96","43.95","SABLE ISLAND A","8204703","2019-03-26 14:00","2019","03","26","14:00","0.0","","-9.5","","49","","","M","34","","18","","16.1","","101.89","","","","-5","","NA"
"-59.96","43.95","SABLE ISLAND A","8204703","2019-03-26 15:00","2019","03","26","15:00","-0.5","","-12.1","","41","","","M","35","","18","","16.1","","101.86","","","","-6","","NA"
"-59.96","43.95","SABLE ISLAND A","8204703","2019-03-26 16:00","2019","03","26","16:00","-0.9","","-12.1","","43","","","M","34","","17","","16.1","","101.85","","","","-6","","NA"
"-59.96","43.95","SABLE ISLAND A","8204703","2019-03-26 17:00","2019","03","26","17:00","-1.0","","-12.9","","40","","","M","36","","11","","16.1","","101.91","","","","-5","","NA"
"-59.96","43.95","SABLE ISLAND A","8204703","2019-03-26 18:00","2019","03","26","18:00","-1.3","","-11.8","","45","","","M","34","","11","","16.1","","101.95","","","","-5","","NA"
"-59.96","43.95","SABLE ISLAND A","8204703","2019-03-26 19:00","2019","03","26","19:00","-1.3","","-11.8","","45","","","M","32","","17","","16.1","","101.99","","","","-6","","NA"
"-59.96","43.95","SABLE ISLAND A","8204703","2019-03-26 20:00","2019","03","26","20:00","-1.2","","-11.7","","45","","","M","32","","17","","16.1","","102.07","","","","-6","","NA"
"-59.96","43.95","SABLE ISLAND A","8204703","2019-03-26 21:00","2019","03","26","21:00","-1.0","","-10.4","","49","","","M","32","","17","","16.1","","102.13","","","","-6","","NA"
"-59.96","43.95","SABLE ISLAND A","8204703","2019-03-26 22:00","2019","03","26","22:00","-0.8","","-10.3","","49","","","M","31","","18","","16.1","","102.18","","","","-6","","NA"
"-59.96","43.95","SABLE ISLAND A","8204703","2019-03-26 23:00","2019","03","26","23:00","-1.1","","-9.9","","52","","","M","31","","15","","16.1","","102.21","","","","-6","","NA"
"-59.96","43.95","SABLE ISLAND A","8204703","2019-03-27 00:00","2019","03","27","00:00","-1.0","","-10.2","","50","","","M","32","","17","","16.1","","102.22","","","","-6","","NA"
"-59.96","43.95","SABLE ISLAND A","8204703","2019-03-27 01:00","2019","03","27","01:00","-1.3","","-10.5","","50","","","M","35","","9","","16.1","","102.22","","","","-5","","NA"
"-59.96","43.95","SABLE ISLAND A","8204703","2019-03-27 02:00","2019","03","27","02:00","-0.9","","-8.6","","56","","","M","35","","22","","16.1","","102.25","","","","-7","","NA"
"-59.96","43.95","SABLE ISLAND A","8204703","2019-03-27 03:00","2019","03","27","03:00","-1.2","","-6.3","","68","","","M","2","","28","","16.1","","102.28","","","","-8","","NA"
"-59.96","43.95","SABLE ISLAND A","8204703","2019-03-27 04:00","2019","03","27","04:00","-1.9","","-9.1","","58","","","M","2","","34","","16.1","","102.30","","","","-9","","NA"
"-59.96","43.95","SABLE ISLAND A","8204703","2019-03-27 05:00","2019","03","27","05:00","-2.2","","-10.6","","53","","","M","1","","34","","16.1","","102.41","","","","-10","","NA"
"-59.96","43.95","SABLE ISLAND A","8204703","2019-03-27 06:00","2019","03","27","06:00","-2.5","","-10.2","","56","","","M","2","","32","","16.1","","102.52","","","","-10","","NA"
"-59.96","43.95","SABLE ISLAND A","8204703","2019-03-27 07:00","2019","03","27","07:00","-2.5","","-9.5","","59","","","M","1","","32","","16.1","","102.59","","","","-10","","NA"
"-59.96","43.95","SABLE ISLAND A","8204703","2019-03-27 08:00","2019","03","27","08:00","-1.8","","-9.4","","56","","","M","2","","34","","16.1","","102.65","","","","-9","","NA"
"-59.96","43.95","SABLE ISLAND A","8204703","2019-03-27 09:00","2019","03","27","09:00","-2.1","","-9.8","","56","","","M","2","","28","","16.1","","102.77","","","","-9","","NA"
"-59.96","43.95","SABLE ISLAND A","8204703","2019-03-27 10:00","2019","03","27","10:00","-1.7","","-10.1","","53","","","M","2","","34","","16.1","","102.82","","","","-9","","NA"
"-59.96","43.95","SABLE ISLAND A","8204703","2019-03-27 11:00","2019","03","27","11:00","-2.0","","-9.8","","55","","","M","1","","34","","16.1","","102.90","","","","-10","","NA"
"-59.96","43.95","SABLE ISLAND A","8204703","2019-03-27 12:00","2019","03","27","12:00","-2.2","","-9.9","","56","","","M","2","","26","","16.1","","102.93","","","","-9","","NA"
"-59.96","43.95","SABLE ISLAND A","8204703","2019-03-27 13:00","2019","03","27","13:00","-2.0","","-10.4","","53","","","M","2","","32","","16.1","","102.96","","","","-9","","NA"
"-59.96","43.95","SABLE ISLAND A","8204703","2019-03-27 14:00","2019","03","27","14:00","-1.5","","-9.6","","54","","","M","3","","34","","16.1","","102.97","","","","-9","","NA"
"-59.96","43.95","SABLE ISLAND A","8204703","2019-03-27 15:00","2019","03","27","15:00","-2.0","","-10.3","","53","","","M","3","","30","","16.1","","103.01","","","","-9","","NA"
"-59.96","43.95","SABLE ISLAND A","8204703","2019-03-27 16:00","2019","03","27","16:00","-2.3","","-10.3","","55","","","M","3","","30","","16.1","","103.06","","","","-9","","NA"
"-59.96","43.95","SABLE ISLAND A","8204703","2019-03-27 17:00","2019","03","27","17:00","-2.7","","-9.4","","60","","","M","3","","26","","16.1","","103.10","","","","-10","","NA"
"-59.96","43.95","SABLE ISLAND A","8204703","2019-03-27 18:00","2019","03","27","18:00","-3.3","","-9.7","","62","","","M","3","","21","","16.1","","103.17","","","","-10","","NA"
"-59.96","43.95","SABLE ISLAND A","8204703","2019-03-27 19:00","2019","03","27","19:00","-3.4","","-10.1","","60","","","M","2","","26","","16.1","","103.23","","","","-10","","NA"
"-59.96","43.95","SABLE ISLAND A","8204703","2019-03-27 20:00","2019","03","27","20:00","-3.5","","-10.1","","61","","","M","3","","26","","16.1","","103.31","","","","-11","","NA"
"-59.96","43.95","SABLE ISLAND A","8204703","2019-03-27 21:00","2019","03","27","21:00","-3.6","","-9.5","","64","","","M","4","","21","","16.1","","103.37","","","","-10","","NA"
"-59.96","43.95","SABLE ISLAND A","8204703","2019-03-27 22:00","2019","03","27","22:00","-3.6","","-9.1","","66","","","M","4","","18","","16.1","","103.39","","","","-9","","NA"
"-59.96","43.95","SABLE ISLAND A","8204703","2019-03-27 23:00","2019","03","27","23:00","-3.5","","-9.0","","66","","","M","3","","18","","16.1","","103.42","","","","-9","","NA"
"-59.96","43.95","SABLE ISLAND A","8204703","2019-03-28 00:00","2019","03","28","00:00","-4.1","","-9.0","","69","","","M","5","","11","","16.1","","103.43","","","","-9","","NA"
"-59.96","43.95","SABLE ISLAND A","8204703","2019-03-28 01:00","2019","03","28","01:00","-3.8","","-8.6","","70","","","M","3","","13","","16.1","","103.45","","","","-9","","NA"
"-59.96","43.95","SABLE ISLAND A","8204703","2019-03-28 02:00","2019","03","28","02:00","-3.9","","-8.5","","71","","","M","4","","13","","16.1","","103.47","","","","-9","","NA"
"-59.96","43.95","SABLE ISLAND A","8204703","2019-03-28 03:00","2019","03","28","03:00","-3.8","","-8.3","","71","","","M","4","","11","","16.1","","103.46","","","","-8","","NA"
"-59.96","43.95","SABLE ISLAND A","8204703","2019-03-28 04:00","2019","03","28","04:00","-3.8","","-8.4","","71","","","M","4","","13","","16.1","","103.51","","","","-9","","NA"
"-59.96","43.95","SABLE ISLAND A","8204703","2019-03-28 05:00","2019","03","28","05:00","-3.8","","-8.0","","73","","","M","3","","13","","16.1","","103.55","","","","-9","","NA"
"-59.96","43.95","SABLE ISLAND A","8204703","2019-03-28 06:00","2019","03","28","06:00","-4.2","","-8.2","","74","","","M","6","","11","","16.1","","103.61","","","","-9","","NA"
"-59.96","43.95","SABLE ISLAND A","8204703","2019-03-28 07:00","2019","03","28","07:00","-2.5","","-7.1","","71","","","M","8","","9","","16.1","","103.65","","","","-6","","NA"
"-59.96","43.95","SABLE ISLAND A","8204703","2019-03-28 08:00","2019","03","28","08:00","-1.0","","-6.8","","65","","","M","9","","11","","16.1","","103.66","","","","-5","","NA"
"-59.96","43.95","SABLE ISLAND A","8204703","2019-03-28 09:00","2019","03","28","09:00","-0.7","","-7.1","","62","","","M","8","","13","","16.1","","103.68","","","","-5","","NA"
"-59.96","43.95","SABLE ISLAND A","8204703","2019-03-28 10:00","2019","03","28","10:00","0.0","","-6.9","","60","","","M","13","","15","","16.1","","103.71","","","","-4","","NA"
"-59.96","43.95","SABLE ISLAND A","8204703","2019-03-28 11:00","2019","03","28","11:00","-0.2","","-7.3","","59","","","M","14","","13","","16.1","","103.66","","","","-4","","NA"
"-59.96","43.95","SABLE ISLAND A","8204703","2019-03-28 12:00","2019","03","28","12:00","0.9","","-5.4","","63","","","M","15","","17","","16.1","","103.62","","","","","","NA"
"-59.96","43.95","SABLE ISLAND A","8204703","2019-03-28 13:00","2019","03","28","13:00","0.7","","-5.0","","66","","","M","16","","13","","16.1","","103.54","","","","","","NA"
"-59.96","43.95","SABLE ISLAND A","8204703","2019-03-28 14:00","2019","03","28","14:00","0.9","","-4.3","","68","","","M","18","","15","","16.1","","103.51","","","","","","NA"
"-59.96","43.95","SABLE ISLAND A","8204703","2019-03-28 15:00","2019","03","28","15:00","1.2","","-4.6","","65","","","M","17","","18","","16.1","","103.42","","","","","","NA"
"-59.96","43.95","SABLE ISLAND A","8204703","2019-03-28 16:00","2019","03","28","16:00","1.1","","-4.1","","68","","","M","16","","22","","16.1","","103.38","","","","","","NA"
"-59.96","43.95","SABLE ISLAND A","8204703","2019-03-28 17:00","2019","03","28","17:00","0.3","","-4.0","","73","","","M","17","","18","","16.1","","103.33","","","","","","NA"
"-59.96","43.95","SABLE ISLAND A","8204703","2019-03-28 18:00","2019","03","28","18:00","-0.2","","-3.4","","79","","","M","18","","22","","16.1","","103.35","","","","-6","","NA"
"-59.96","43.95","SABLE ISLAND A","8204703","2019-03-28 19:00","2019","03","28","19:00","-0.3","","-3.0","","82","","","M","18","","24","","16.1","","103.33","","","","-6","","NA"
"-59.96","43.95","SABLE ISLAND A","8204703","2019-03-28 20:00","2019","03","28","20:00","0.2","","-2.4","","83","","","M","16","","26","","16.1","","103.32","","","","","","NA"
"-59.96","43.95","SABLE ISLAND A","8204703","2019-03-28 21:00","2019","03","28","21:00","0.2","","-1.9","","86","","","M","16","","26","","16.1","","103.27","","","","","","NA"
"-59.96","43.95","SABLE ISLAND A","8204703","2019-03-28 22:00","2019","03","28","22:00","0.7","","-0.9","","89","","","M","16","","24","","16.1","","103.24","","","","","","NA"
"-59.96","43.95","SABLE ISLAND A","8204703","2019-03-28 23:00","2019","03","28","23:00","1.0","","-1.0","","86","","","M","16","","24","","16.1","","103.17","","","","","","NA"
"-59.96","43.95","SABLE ISLAND A","8204703","2019-03-29 00:00","2019","03","29","00:00","1.2","","-0.7","","87","","","M","15","","24","","16.1","","103.12","","","","","","NA"
"-59.96","43.95","SABLE ISLAND A","8204703","2019-03-29 01:00","2019","03","29","01:00","1.5","","-0.4","","87","","","M","15","","24","","16.1","","103.06","","","","","","NA"
"-59.96","43.95","SABLE ISLAND A","8204703","2019-03-29 02:00","2019","03","29","02:00","1.7","","-0.1","","88","","","M","15","","26","","16.1","","102.98","","","","","","NA"
"-59.96","43.95","SABLE ISLAND A","8204703","2019-03-29 03:00","2019","03","29","03:00","1.5","","-0.1","","89","","","M","15","","24","","16.1","","102.96","","","","","","NA"
"-59.96","43.95","SABLE ISLAND A","8204703","2019-03-29 04:00","2019","03","29","04:00","1.7","","0.1","","89","","","M","15","","24","","16.1","","102.91","","","","","","NA"
"-59.96","43.95","SABLE ISLAND A","8204703","2019-03-29 05:00","2019","03","29","05:00","2.0","","0.4","","89","","","M","15","","26","","16.1","","102.85","","","","","","NA"
"-59.96","43.95","SABLE ISLAND A","8204703","2019-03-29 06:00","2019","03","29","06:00","2.2","","0.6","","89","","","M","15","","28","","16.1","","102.84","","","","","","NA"
"-59.96","43.95","SABLE ISLAND A","8204703","2019-03-29 07:00","2019","03","29","07:00","2.9","","0.8","","86","","","M","15","","26","","16.1","","102.87","","","","","","NA"
"-59.96","43.95","SABLE ISLAND A","8204703","2019-03-29 08:00","2019","03","29","08:00","3.6","","1.3","","85","","","M","15","","26","","16.1","","102.80","","","","","","NA"
"-59.96","43.95","SABLE ISLAND A","8204703","2019-03-29 09:00","2019","03","29","09:00","4.1","","1.3","","82","","","M","15","","24","","16.1","","102.78","","","","","","NA"
"-59.96","43.95","SABLE ISLAND A","8204703","2019-03-29 10:00","2019","03","29","10:00","4.3","","1.3","","81","","","M","15","","28","","14.5","","102.73","","","","","","NA"
"-59.96","43.95","SABLE ISLAND A","8204703","2019-03-29 11:00","2019","03","29","11:00","5.4","","1.6","","76","","","M","15","","28","","16.1","","102.64","","","","","","NA"
"-59.96","43.95","SABLE ISLAND A","8204703","2019-03-29 12:00","2019","03","29","12:00","5.3","","1.6","","77","","","M","16","","28","","16.1","","102.61","","","","","","NA"
"-59.96","43.95","SABLE ISLAND A","8204703","2019-03-29 13:00","2019","03","29","13:00","6.6","","1.9","","72","","","M","16","","30","","16.1","","102.54","","","","","","NA"
"-59.96","43.95","SABLE ISLAND A","8204703","2019-03-29 14:00","2019","03","29","14:00","5.8","","1.9","","76","","","M","16","","28","","16.1","","102.49","","","","","","NA"
"-59.96","43.95","SABLE ISLAND A","8204703","2019-03-29 15:00","2019","03","29","15:00","5.9","","2.2","","77","","","M","16","","26","","16.1","","102.43","","","","","","NA"
"-59.96","43.95","SABLE ISLAND A","8204703","2019-03-29 16:00","2019","03","29","16:00","5.2","","2.2","","81","","","M","16","","28","","16.1","","102.42","","","","","","NA"
"-59.96","43.95","SABLE ISLAND A","8204703","2019-03-29 17:00","2019","03","29","17:00","4.3","","2.2","","86","","","M","16","","26","","11.3","","102.43","","","","","","NA"
"-59.96","43.95","SABLE ISLAND A","8204703","2019-03-29 18:00","2019","03","29","18:00","3.4","","2.2","","92","","","M","16","","28","","11.3","","102.43","","","","","","NA"
"-59.96","43.95","SABLE ISLAND A","8204703","2019-03-29 19:00","2019","03","29","19:00","3.5","","2.5","","93","","","M","16","","34","","9.7","","102.44","","","","","","Fog"
"-59.96","43.95","SABLE ISLAND A","8204703","2019-03-29 20:00","2019","03","29","20:00","3.7","","2.5","","92","","","M","17","","30","","9.7","","102.48","","","","","","Fog"
"-59.96","43.95","SABLE ISLAND A","8204703","2019-03-29 21:00","2019","03","29","21:00","3.6","","2.6","","93","","","M","17","","28","","8.1","","102.48","","","","","","Fog"
"-59.96","43.95","SABLE ISLAND A","8204703","2019-03-29 22:00","2019","03","29","22:00","3.4","","2.5","","94","","","M","17","","26","","8.1","","102.47","","","","","","Fog"
"-59.96","43.95","SABLE ISLAND A","8204703","2019-03-29 23:00","2019","03","29","23:00","3.4","","2.5","","94","","","M","17","","28","","8.1","","102.42","","","","","","Fog"
"-59.96","43.95","SABLE ISLAND A","8204703","2019-03-30 00:00","2019","03","30","00:00","3.3","","2.4","","94","","","M","17","","26","","8.1","","102.39","","","","","","Fog"
"-59.96","43.95","SABLE ISLAND A","8204703","2019-03-30 01:00","2019","03","30","01:00","3.5","","2.6","","94","","","M","18","","24","","8.1","","102.35","","","","","","Fog"
"-59.96","43.95","SABLE ISLAND A","8204703","2019-03-30 02:00","2019","03","30","02:00","3.7","","2.8","","94","","","M","18","","22","","6.4","","102.32","","","","","","Fog"
"-59.96","43.95","SABLE ISLAND A","8204703","2019-03-30 03:00","2019","03","30","03:00","3.9","","3.0","","94","","","M","18","","24","","6.4","","102.31","","","","","","Fog"
"-59.96","43.95","SABLE ISLAND A","8204703","2019-03-30 04:00","2019","03","30","04:00","3.8","","3.1","","95","","","M","18","","18","","6.4","","102.35","","","","","","Fog"
"-59.96","43.95","SABLE ISLAND A","8204703","2019-03-30 05:00","2019","03","30","05:00","3.9","","3.3","","96","","","M","21","","13","","6.4","","102.38","","","","","","Fog"
"-59.96","43.95","SABLE ISLAND A","8204703","2019-03-30 06:00","2019","03","30","06:00","3.7","","3.1","","96","","","M","18","","18","","4.8","","102.40","","","","","","Fog"
"-59.96","43.95","SABLE ISLAND A","8204703","2019-03-30 07:00","2019","03","30","07:00","4.1","","3.5","","96","","","M","18","","17","","6.4","","102.49","","","","","","Fog"
"-59.96","43.95","SABLE ISLAND A","8204703","2019-03-30 08:00","2019","03","30","08:00","4.1","","3.4","","95","","","M","18","","9","","6.4","","102.54","","","","","","Fog"
"-59.96","43.95","SABLE ISLAND A","8204703","2019-03-30 09:00","2019","03","30","09:00","4.5","","3.6","","94","","","M","17","","11","","9.7","","102.57","","","","","","Fog"
"-59.96","43.95","SABLE ISLAND A","8204703","2019-03-30 10:00","2019","03","30","10:00","6.1","","4.1","","87","","","M","16","","11","","16.1","","102.58","","","","","","NA"
"-59.96","43.95","SABLE ISLAND A","8204703","2019-03-30 11:00","2019","03","30","11:00","6.9","","5.1","","88","","","M","20","","8","","14.5","","102.61","","","","","","NA"
"-59.96","43.95","SABLE ISLAND A","8204703","2019-03-30 12:00","2019","03","30","12:00","7.3","","4.8","","84","","","M","21","","9","","14.5","","102.60","","","","","","NA"
"-59.96","43.95","SABLE ISLAND A","8204703","2019-03-30 13:00","2019","03","30","13:00","7.9","","5.0","","82","","","M","19","","15","","16.1","","102.59","","","","","","NA"
"-59.96","43.95","SABLE ISLAND A","8204703","2019-03-30 14:00","2019","03","30","14:00","8.0","","4.6","","79","","","M","20","","11","","16.1","","102.55","","","","","","NA"
"-59.96","43.95","SABLE ISLAND A","8204703","2019-03-30 15:00","2019","03","30","15:00","7.5","","3.9","","78","","","M","18","","13","","16.1","","102.54","","","","","","NA"
"-59.96","43.95","SABLE ISLAND A","8204703","2019-03-30 16:00","2019","03","30","16:00","6.7","","3.0","","77","","","M","17","","21","","16.1","","102.51","","","","","","NA"
"-59.96","43.95","SABLE ISLAND A","8204703","2019-03-30 17:00","2019","03","30","17:00","6.0","","3.0","","81","","","M","17","","17","","12.9","","102.55","","","","","","NA"
"-59.96","43.95","SABLE ISLAND A","8204703","2019-03-30 18:00","2019","03","30","18:00","5.5","","2.9","","83","","","M","17","","26","","16.1","","102.55","","","","","","NA"
"-59.96","43.95","SABLE ISLAND A","8204703","2019-03-30 19:00","2019","03","30","19:00","5.1","","3.0","","86","","","M","17","","22","","16.1","","102.60","","","","","","NA"
"-59.96","43.95","SABLE ISLAND A","8204703","2019-03-30 20:00","2019","03","30","20:00","4.7","","2.9","","88","","","M","17","","21","","16.1","","102.63","","","","","","NA"
"-59.96","43.95","SABLE ISLAND A","8204703","2019-03-30 21:00","2019","03","30","21:00","4.7","","3.2","","90","","","M","16","","24","","14.5","","102.63","","","","","","NA"
"-59.96","43.95","SABLE ISLAND A","8204703","2019-03-30 22:00","2019","03","30","22:00","3.9","","2.9","","93","","","M","15","","18","","11.3","","102.62","","","","","","NA"
"-59.96","43.95","SABLE ISLAND A","8204703","2019-03-30 23:00","2019","03","30","23:00","4.1","","3.5","","96","","","M","15","","21","","9.7","","102.59","","","","","","Fog"
"-59.96","43.95","SABLE ISLAND A","8204703","2019-03-31 00:00","2019","03","31","00:00","3.8","","2.6","","92","","","M","15","","17","","12.9","","102.59","","","","","","NA"
"-59.96","43.95","SABLE ISLAND A","8204703","2019-03-31 01:00","2019","03","31","01:00","4.0","","3.3","","95","","","M","14","","21","","9.7","","102.54","","","","","","Fog"
"-59.96","43.95","SABLE ISLAND A","8204703","2019-03-31 02:00","2019","03","31","02:00","3.8","","3.2","","96","","","M","14","","22","","9.7","","102.46","","","","","","Fog"
"-59.96","43.95","SABLE ISLAND A","8204703","2019-03-31 03:00","2019","03","31","03:00","3.3","","2.9","","97","","","M","14","","22","","1.2","","102.41","","","","","","Rain,Fog"
"-59.96","43.95","SABLE ISLAND A","8204703","2019-03-31 04:00","2019","03","31","04:00","2.7","","2.4","","98","","","M","15","","21","","0.8","","102.36","","","","","","Rain,Fog"
"-59.96","43.95","SABLE ISLAND A","8204703","2019-03-31 05:00","2019","03","31","05:00","2.3","","2.0","","98","","","M","14","","18","","1.0","","102.33","","","","","","Rain,Fog"
"-59.96","43.95","SABLE ISLAND A","8204703","2019-03-31 06:00","2019","03","31","06:00","1.8","","1.5","","98","","","M","14","","13","","12.9","","102.32","","","","","","NA"
"-59.96","43.95","SABLE ISLAND A","8204703","2019-03-31 07:00","2019","03","31","07:00","2.2","","2.1","","99","","","M","14","","15","","0.8","","102.31","","","","","","Fog"
"-59.96","43.95","SABLE ISLAND A","8204703","2019-03-31 08:00","2019","03","31","08:00","4.3","","4.0","","98","","","M","12","","11","","12.9","","102.25","","","","","","NA"
"-59.96","43.95","SABLE ISLAND A","8204703","2019-03-31 09:00","2019","03","31","09:00","5.8","","4.0","","88","","","M","12","","18","","16.1","","102.22","","","","","","NA"
"-59.96","43.95","SABLE ISLAND A","8204703","2019-03-31 10:00","2019","03","31","10:00","6.4","","4.1","","85","","","M","13","","18","","16.1","","102.17","","","","","","NA"
"-59.96","43.95","SABLE ISLAND A","8204703","2019-03-31 11:00","2019","03","31","11:00","5.0","","3.5","","90","","","M","14","","22","","1.6","","102.11","","","","","","Fog"
"-59.96","43.95","SABLE ISLAND A","8204703","2019-03-31 12:00","2019","03","31","12:00","5.1","","3.3","","88","","","M","14","","18","","11.3","","102.02","","","","","","NA"
"-59.96","43.95","SABLE ISLAND A","8204703","2019-03-31 13:00","2019","03","31","13:00","5.6","","3.5","","86","","","M","13","","21","","3.2","","101.90","","","","","","Fog"
"-59.96","43.95","SABLE ISLAND A","8204703","2019-03-31 14:00","2019","03","31","14:00","6.0","","3.6","","85","","","M","13","","18","","4.0","","101.80","","","","","","Fog"
"-59.96","43.95","SABLE ISLAND A","8204703","2019-03-31 15:00","2019","03","31","15:00","5.2","","3.7","","90","","","M","13","","22","","1.2","","101.70","","","","","","Fog"
"-59.96","43.95","SABLE ISLAND A","8204703","2019-03-31 16:00","2019","03","31","16:00","5.3","","4.3","","93","","","M","11","","24","","1.2","","101.59","","","","","","Rain,Fog"
"-59.96","43.95","SABLE ISLAND A","8204703","2019-03-31 17:00","2019","03","31","17:00","4.5","","3.5","","93","","","M","13","","17","","11.3","","101.54","","","","","","NA"
"-59.96","43.95","SABLE ISLAND A","8204703","2019-03-31 18:00","2019","03","31","18:00","4.1","","3.4","","95","","","M","12","","22","","11.3","","101.47","","","","","","NA"
"-59.96","43.95","SABLE ISLAND A","8204703","2019-03-31 19:00","2019","03","31","19:00","3.6","","3.2","","97","","","M","12","","21","","1.2","","101.41","","","","","","Rain,Fog"
"-59.96","43.95","SABLE ISLAND A","8204703","2019-03-31 20:00","2019","03","31","20:00","3.7","","3.4","","98","","","M","11","","22","","1.6","","101.32","","","","","","Rain,Fog"
"-59.96","43.95","SABLE ISLAND A","8204703","2019-03-31 21:00","2019","03","31","21:00","4.4","","4.1","","98","","","M","12","","22","","1.6","","101.20","","","","","","Fog"
"-59.96","43.95","SABLE ISLAND A","8204703","2019-03-31 22:00","2019","03","31","22:00","4.4","","4.1","","98","","","M","13","","24","","1.0","","101.09","","","","","","Rain,Fog"
"-59.96","43.95","SABLE ISLAND A","8204703","2019-03-31 23:00","2019","03","31","23:00","4.6","","4.5","","99","","","M","13","","24","","1.2","","100.98","","","","","","Rain,Fog"
