"Longitude (x)","Latitude (y)","Station Name","Climate ID","Date/Time (LST)","Year","Month","Day","Time (LST)","Temp (°C)","Temp Flag","Dew Point Temp (°C)","Dew Point Temp Flag","Rel Hum (%)","Rel Hum Flag","Precip. Amount (mm)","Precip. Amount Flag","Wind Dir (10s deg)","Wind Dir Flag","Wind Spd (km/h)","Wind Spd Flag","Visibility (km)","Visibility Flag","Stn Press (kPa)","Stn Press Flag","Hmdx","Hmdx Flag","Wind Chill","Wind Chill Flag","Weather"
"-81.24","68.78","HALL BEACH A","2402356","2019-01-01 00:00","2019","01","01","00:00"
"-81.24","68.78","HALL BEACH A","2402356","2019-01-01 01:00","2019","01","01","01:00"
"-81.24","68.78","HALL BEACH A","2402356","2019-01-01 02:00","2019","01","01","02:00"
"-81.24","68.78","HALL BEACH A","2402356","2019-01-01 03:00","2019","01","01","03:00"
"-81.24","68.78","HALL BEACH A","2402356","2019-01-01 04:00","2019","01","01","04:00"
"-81.24","68.78","HALL BEACH A","2402356","2019-01-01 05:00","2019","01","01","05:00"
"-81.24","68.78","HALL BEACH A","2402356","2019-01-01 06:00","2019","01","01","06:00"
"-81.24","68.78","HALL BEACH A","2402356","2019-01-01 07:00","2019","01","01","07:00","-24.0","","-26.3","","82","","","","36","","10","","8.1","","100.93","","","","-32","","Snow"
"-81.24","68.78","HALL BEACH A","2402356","2019-01-01 08:00","2019","01","01","08:00","-22.3","","-24.4","","83","","","","35","","4","","3.2","","100.90","","","","-26","","Snow,Fog"
"-81.24","68.78","HALL BEACH A","2402356","2019-01-01 09:00","2019","01","01","09:00","-22.2","","-24.4","","83","","","","34","","6","","4.8","","100.85","","","","-28","","Snow,Fog"
"-81.24","68.78","HALL BEACH A","2402356","2019-01-01 10:00","2019","01","01","10:00","-18.9","","-20.7","","86","","","","13","","10","","11.3","","100.82","","","","-26","","Snow"
"-81.24","68.78","HALL BEACH A","2402356","2019-01-01 11:00","2019","01","01","11:00","-21.8","","-23.9","","83","","","","35","","3","","4.8","","100.79","","","","-25","","Snow,Fog"
"-81.24","68.78","HALL BEACH A","2402356","2019-01-01 12:00","2019","01","01","12:00","-21.9","","-23.9","","84","","","","0","","1","","4.8","","100.75","","","","-23","","Snow,Fog"
"-81.24","68.78","HALL BEACH A","2402356","2019-01-01 13:00","2019","01","01","13:00","-21.6","","-23.5","","85","","","","15","","8","","16.1","","100.71","","","","-28","","Mostly Cloudy"
"-81.24","68.78","HALL BEACH A","2402356","2019-01-01 14:00","2019","01","01","14:00","-20.8","","-22.8","","84","","","","15","","8","","16.1","","100.71","","","","-27","","Snow"
"-81.24","68.78","HALL BEACH A","2402356","2019-01-01 15:00","2019","01","01","15:00","-20.7","","-22.5","","86","","","","14","","5","","16.1","","100.69","","","","-25","","Snow"
"-81.24","68.78","HALL BEACH A","2402356","2019-01-01 16:00","2019","01","01","16:00","-21.0","","-22.9","","85","","","","36","","3","","16.1","","100.68","","","","-24","","Snow"
"-81.24","68.78","HALL BEACH A","2402356","2019-01-01 17:00","2019","01","01","17:00","-20.8","","-22.7","","85","","","","36","","2","","8.1","","100.66","","","","-23","","Snow"
"-81.24","68.78","HALL BEACH A","2402356","2019-01-01 18:00","2019","01","01","18:00","-21.0","","-22.9","","85","","","","36","","2","","16.1","","100.62","","","","-23","","Snow"
"-81.24","68.78","HALL BEACH A","2402356","2019-01-01 19:00","2019","01","01","19:00","-21.1","","-23.1","","84","","","","12","","3","","9.7","","100.62","","","","-24","","Snow"
"-81.24","68.78","HALL BEACH A","2402356","2019-01-01 20:00","2019","01","01","20:00"
"-81.24","68.78","HALL BEACH A","2402356","2019-01-01 21:00","2019","01","01","21:00"
"-81.24","68.78","HALL BEACH A","2402356","2019-01-01 22:00","2019","01","01","22:00"
"-81.24","68.78","HALL BEACH A","2402356","2019-01-01 23:00","2019","01","01","23:00"
"-81.24","68.78","HALL BEACH A","2402356","2019-01-02 00:00","2019","01","02","00:00"
"-81.24","68.78","HALL BEACH A","2402356","2019-01-02 01:00","2019","01","02","01:00"
"-81.24","68.78","HALL BEACH A","2402356","2019-01-02 02:00","2019","01","02","02:00"
"-81.24","68.78","HALL BEACH A","2402356","2019-01-02 03:00","2019","01","02","03:00"
"-81.24","68.78","HALL BEACH A","2402356","2019-01-02 04:00","2019","01","02","04:00"
"-81.24","68.78","HALL BEACH A","2402356","2019-01-02 05:00","2019","01","02","05:00"
"-81.24","68.78","HALL BEACH A","2402356","2019-01-02 06:00","2019","01","02","06:00"
"-81.24","68.78","HALL BEACH A","2402356","2019-01-02 07:00","2019","01","02","07:00","-22.5","","-24.8","","82","","","","31","","9","","16.1","","100.55","","","","-30","","Snow"
"-81.24","68.78","HALL BEACH A","2402356","2019-01-02 08:00","2019","01","02","08:00","-22.6","","-24.9","","82","","","","28","","5","","16.1","","100.55","","","","-27","","Snow"
"-81.24","68.78","HALL BEACH A","2402356","2019-01-02 09:00","2019","01","02","09:00","-22.7","","-25.0","","82","","","","28","","11","","16.1","","100.58","","","","-31","","Snow"
"-81.24","68.78","HALL BEACH A","2402356","2019-01-02 10:00","2019","01","02","10:00","-23.2","","-25.5","","82","","","","29","","12","","16.1","","100.60","","","","-32","","Snow"
"-81.24","68.78","HALL BEACH A","2402356","2019-01-02 11:00","2019","01","02","11:00","-22.5","","-24.8","","82","","","","25","","11","","16.1","","100.62","","","","-31","","NA"
"-81.24","68.78","HALL BEACH A","2402356","2019-01-02 12:00","2019","01","02","12:00","-23.1","","-25.4","","82","","","","29","","8","","16.1","","100.62","","","","-30","","NA"
"-81.24","68.78","HALL BEACH A","2402356","2019-01-02 13:00","2019","01","02","13:00","-23.1","","-25.5","","81","","","","27","","11","","16.1","","100.59","","","","-31","","Snow"
"-81.24","68.78","HALL BEACH A","2402356","2019-01-02 14:00","2019","01","02","14:00","-23.5","","-25.9","","81","","","","24","","13","","16.1","","100.59","","","","-33","","NA"
"-81.24","68.78","HALL BEACH A","2402356","2019-01-02 15:00","2019","01","02","15:00","-23.5","","-25.8","","82","","","","25","","8","","16.1","","100.61","","","","-30","","Snow"
"-81.24","68.78","HALL BEACH A","2402356","2019-01-02 16:00","2019","01","02","16:00","-23.6","","-25.9","","82","","","","27","","8","","16.1","","100.59","","","","-30","","Snow"
"-81.24","68.78","HALL BEACH A","2402356","2019-01-02 17:00","2019","01","02","17:00","-23.5","","-25.9","","81","","","","31","","7","","16.1","","100.60","","","","-30","","Snow"
"-81.24","68.78","HALL BEACH A","2402356","2019-01-02 18:00","2019","01","02","18:00","-23.6","","-26.0","","81","","","","31","","6","","16.1","","100.60","","","","-29","","Snow"
"-81.24","68.78","HALL BEACH A","2402356","2019-01-02 19:00","2019","01","02","19:00","-23.3","","-25.6","","82","","","","27","","7","","16.1","","100.58","","","","-29","","Snow"
"-81.24","68.78","HALL BEACH A","2402356","2019-01-02 20:00","2019","01","02","20:00"
"-81.24","68.78","HALL BEACH A","2402356","2019-01-02 21:00","2019","01","02","21:00"
"-81.24","68.78","HALL BEACH A","2402356","2019-01-02 22:00","2019","01","02","22:00"
"-81.24","68.78","HALL BEACH A","2402356","2019-01-02 23:00","2019","01","02","23:00"
"-81.24","68.78","HALL BEACH A","2402356","2019-01-03 00:00","2019","01","03","00:00"
"-81.24","68.78","HALL BEACH A","2402356","2019-01-03 01:00","2019","01","03","01:00"
"-81.24","68.78","HALL BEACH A","2402356","2019-01-03 02:00","2019","01","03","02:00"
"-81.24","68.78","HALL BEACH A","2402356","2019-01-03 03:00","2019","01","03","03:00"
"-81.24","68.78","HALL BEACH A","2402356","2019-01-03 04:00","2019","01","03","04:00"
"-81.24","68.78","HALL BEACH A","2402356","2019-01-03 05:00","2019","01","03","05:00"
"-81.24","68.78","HALL BEACH A","2402356","2019-01-03 06:00","2019","01","03","06:00"
"-81.24","68.78","HALL BEACH A","2402356","2019-01-03 07:00","2019","01","03","07:00","-27.0","","-29.8","","78","","","","33","","17","","2.0","","100.25","","","","-38","","Fog"
"-81.24","68.78","HALL BEACH A","2402356","2019-01-03 08:00","2019","01","03","08:00","-28.7","","-31.7","","76","","","","32","","15","","1.0","","100.20","","","","-40","","Fog"
"-81.24","68.78","HALL BEACH A","2402356","2019-01-03 09:00","2019","01","03","09:00","-31.4","","-34.8","","73","","","","33","","14","","1.0","","100.17","","","","-43","","Fog"
"-81.24","68.78","HALL BEACH A","2402356","2019-01-03 10:00","2019","01","03","10:00","-33.8","","-37.4","","71","","","","32","","16","","16.1","","100.17","","","","-46","","Mainly Clear"
"-81.24","68.78","HALL BEACH A","2402356","2019-01-03 11:00","2019","01","03","11:00","-34.1","","-37.7","","71","","","","32","","16","","24.1","","100.06","","","","-47","","NA"
"-81.24","68.78","HALL BEACH A","2402356","2019-01-03 12:00","2019","01","03","12:00","-33.5","","-37.1","","71","","","","33","","18","","16.1","","100.02","","","","-47","","NA"
"-81.24","68.78","HALL BEACH A","2402356","2019-01-03 13:00","2019","01","03","13:00","-34.3","","-37.9","","71","","","","33","","19","","16.1","","99.94","","","","-48","","Mostly Cloudy"
"-81.24","68.78","HALL BEACH A","2402356","2019-01-03 14:00","2019","01","03","14:00","-33.1","","-36.5","","72","","","","32","","19","","16.1","","99.96","","","","-47","","NA"
"-81.24","68.78","HALL BEACH A","2402356","2019-01-03 15:00","2019","01","03","15:00","-31.5","","-34.7","","74","","","","33","","21","","16.1","","99.89","","","","-45","","NA"
"-81.24","68.78","HALL BEACH A","2402356","2019-01-03 16:00","2019","01","03","16:00","-30.5","","-33.6","","75","","","","33","","17","","16.1","","99.85","","","","-43","","Mostly Cloudy"
"-81.24","68.78","HALL BEACH A","2402356","2019-01-03 17:00","2019","01","03","17:00","-29.5","","-32.5","","76","","","","34","","15","","8.1","","99.85","","","","-41","","Ice Crystals"
"-81.24","68.78","HALL BEACH A","2402356","2019-01-03 18:00","2019","01","03","18:00","-28.8","","-31.8","","76","","","","32","","13","","9.7","","99.77","","","","-39","","Ice Crystals"
"-81.24","68.78","HALL BEACH A","2402356","2019-01-03 19:00","2019","01","03","19:00","-26.9","","-29.5","","79","","","","33","","29","","9.7","","99.67","","","","-41","","Ice Crystals,Blowing Snow"
"-81.24","68.78","HALL BEACH A","2402356","2019-01-03 20:00","2019","01","03","20:00"
"-81.24","68.78","HALL BEACH A","2402356","2019-01-03 21:00","2019","01","03","21:00"
"-81.24","68.78","HALL BEACH A","2402356","2019-01-03 22:00","2019","01","03","22:00"
"-81.24","68.78","HALL BEACH A","2402356","2019-01-03 23:00","2019","01","03","23:00"
"-81.24","68.78","HALL BEACH A","2402356","2019-01-04 00:00","2019","01","04","00:00"
"-81.24","68.78","HALL BEACH A","2402356","2019-01-04 01:00","2019","01","04","01:00"
"-81.24","68.78","HALL BEACH A","2402356","2019-01-04 02:00","2019","01","04","02:00"
"-81.24","68.78","HALL BEACH A","2402356","2019-01-04 03:00","2019","01","04","03:00"
"-81.24","68.78","HALL BEACH A","2402356","2019-01-04 04:00","2019","01","04","04:00"
"-81.24","68.78","HALL BEACH A","2402356","2019-01-04 05:00","2019","01","04","05:00"
"-81.24","68.78","HALL BEACH A","2402356","2019-01-04 06:00","2019","01","04","06:00"
"-81.24","68.78","HALL BEACH A","2402356","2019-01-04 07:00","2019","01","04","07:00","-27.1","","-29.9","","78","","","","7","","17","","24.1","","99.37","","","","-39","","Blowing Snow"
"-81.24","68.78","HALL BEACH A","2402356","2019-01-04 08:00","2019","01","04","08:00","-27.2","","-29.9","","78","","","","5","","21","","24.1","","99.36","","","","-40","","Ice Crystals,Blowing Snow"
"-81.24","68.78","HALL BEACH A","2402356","2019-01-04 09:00","2019","01","04","09:00","-27.0","","-29.8","","78","","","","6","","24","","24.1","","99.33","","","","-40","","Ice Crystals,Blowing Snow"
"-81.24","68.78","HALL BEACH A","2402356","2019-01-04 10:00","2019","01","04","10:00","-26.8","","-29.4","","79","","","","7","","25","","24.1","","99.25","","","","-40","","Blowing Snow"
"-81.24","68.78","HALL BEACH A","2402356","2019-01-04 11:00","2019","01","04","11:00","-27.0","","-29.9","","77","","","","6","","21","","24.1","","99.23","","","","-40","","Blowing Snow"
"-81.24","68.78","HALL BEACH A","2402356","2019-01-04 12:00","2019","01","04","12:00","-26.8","","-29.6","","78","","","","7","","20","","24.1","","99.21","","","","-39","","Blowing Snow"
"-81.24","68.78","HALL BEACH A","2402356","2019-01-04 13:00","2019","01","04","13:00","-26.9","","-29.6","","78","","","","8","","22","","24.1","","99.21","","","","-40","","Blowing Snow"
"-81.24","68.78","HALL BEACH A","2402356","2019-01-04 14:00","2019","01","04","14:00","-26.2","","-28.8","","79","","","","7","","20","","16.1","","99.20","","","","-38","","Blowing Snow"
"-81.24","68.78","HALL BEACH A","2402356","2019-01-04 15:00","2019","01","04","15:00","-26.3","","-28.9","","79","","","","8","","22","","16.1","","99.19","","","","-39","","Ice Crystals,Blowing Snow"
"-81.24","68.78","HALL BEACH A","2402356","2019-01-04 16:00","2019","01","04","16:00","-26.0","","-28.6","","79","","","","7","","24","","16.1","","99.21","","","","-39","","Ice Crystals,Blowing Snow"
"-81.24","68.78","HALL BEACH A","2402356","2019-01-04 17:00","2019","01","04","17:00","-26.2","","-28.8","","79","","","","7","","22","","16.1","","99.22","","","","-39","","Ice Crystals,Blowing Snow"
"-81.24","68.78","HALL BEACH A","2402356","2019-01-04 18:00","2019","01","04","18:00","-26.4","","-29.0","","79","","","","7","","20","","16.1","","99.24","","","","-39","","Ice Crystals,Blowing Snow"
"-81.24","68.78","HALL BEACH A","2402356","2019-01-04 19:00","2019","01","04","19:00","-26.9","","-29.6","","78","","","","5","","23","","16.1","","99.28","","","","-40","","Ice Crystals,Blowing Snow"
"-81.24","68.78","HALL BEACH A","2402356","2019-01-04 20:00","2019","01","04","20:00"
"-81.24","68.78","HALL BEACH A","2402356","2019-01-04 21:00","2019","01","04","21:00"
"-81.24","68.78","HALL BEACH A","2402356","2019-01-04 22:00","2019","01","04","22:00"
"-81.24","68.78","HALL BEACH A","2402356","2019-01-04 23:00","2019","01","04","23:00"
"-81.24","68.78","HALL BEACH A","2402356","2019-01-05 00:00","2019","01","05","00:00"
"-81.24","68.78","HALL BEACH A","2402356","2019-01-05 01:00","2019","01","05","01:00"
"-81.24","68.78","HALL BEACH A","2402356","2019-01-05 02:00","2019","01","05","02:00"
"-81.24","68.78","HALL BEACH A","2402356","2019-01-05 03:00","2019","01","05","03:00"
"-81.24","68.78","HALL BEACH A","2402356","2019-01-05 04:00","2019","01","05","04:00"
"-81.24","68.78","HALL BEACH A","2402356","2019-01-05 05:00","2019","01","05","05:00"
"-81.24","68.78","HALL BEACH A","2402356","2019-01-05 06:00","2019","01","05","06:00"
"-81.24","68.78","HALL BEACH A","2402356","2019-01-05 07:00","2019","01","05","07:00","-25.0","","-27.5","","80","","","","5","","29","","8.1","","99.67","","","","-39","","Ice Crystals,Blowing Snow"
"-81.24","68.78","HALL BEACH A","2402356","2019-01-05 08:00","2019","01","05","08:00","-25.4","","-28.1","","79","","","","5","","24","","8.1","","99.73","","","","-38","","Ice Crystals,Blowing Snow"
"-81.24","68.78","HALL BEACH A","2402356","2019-01-05 09:00","2019","01","05","09:00","-25.3","","-27.8","","80","","","","4","","32","","8.1","","99.76","","","","-40","","Ice Crystals,Blowing Snow"
"-81.24","68.78","HALL BEACH A","2402356","2019-01-05 10:00","2019","01","05","10:00","-24.9","","-27.4","","80","","","","4","","28","","4.8","","99.81","","","","-39","","Ice Crystals,Blowing Snow"
"-81.24","68.78","HALL BEACH A","2402356","2019-01-05 11:00","2019","01","05","11:00","-24.0","","-26.4","","81","","","","6","","24","","8.1","","99.81","","","","-37","","Blowing Snow"
"-81.24","68.78","HALL BEACH A","2402356","2019-01-05 12:00","2019","01","05","12:00","-23.6","","-26.0","","81","","","","7","","20","","16.1","","99.85","","","","-35","","Blowing Snow"
"-81.24","68.78","HALL BEACH A","2402356","2019-01-05 13:00","2019","01","05","13:00","-25.7","","-28.3","","79","","","","8","","16","","16.1","","99.91","","","","-36","","Blowing Snow"
"-81.24","68.78","HALL BEACH A","2402356","2019-01-05 14:00","2019","01","05","14:00","-25.3","","-27.9","","79","","","","7","","12","","11.3","","99.96","","","","-34","","Ice Crystals"
"-81.24","68.78","HALL BEACH A","2402356","2019-01-05 15:00","2019","01","05","15:00","-29.1","","-32.1","","76","","","","34","","17","","12.9","","99.99","","","","-41","","Ice Crystals"
"-81.24","68.78","HALL BEACH A","2402356","2019-01-05 16:00","2019","01","05","16:00","-24.5","","-27.0","","80","","","","6","","16","","16.1","","100.04","","","","-35","","Haze"
"-81.24","68.78","HALL BEACH A","2402356","2019-01-05 17:00","2019","01","05","17:00","-24.0","","-26.4","","81","","","","5","","17","","16.1","","100.07","","","","-35","","Ice Crystals"
"-81.24","68.78","HALL BEACH A","2402356","2019-01-05 18:00","2019","01","05","18:00","-29.7","","-33.2","","72","","","","34","","13","","4.8","","100.11","","","","-40","","Ice Crystals"
"-81.24","68.78","HALL BEACH A","2402356","2019-01-05 19:00","2019","01","05","19:00","-31.5","","-34.7","","74","","","","34","","23","","3.2","","100.15","","","","-46","","Ice Crystals,Blowing Snow"
"-81.24","68.78","HALL BEACH A","2402356","2019-01-05 20:00","2019","01","05","20:00"
"-81.24","68.78","HALL BEACH A","2402356","2019-01-05 21:00","2019","01","05","21:00"
"-81.24","68.78","HALL BEACH A","2402356","2019-01-05 22:00","2019","01","05","22:00"
"-81.24","68.78","HALL BEACH A","2402356","2019-01-05 23:00","2019","01","05","23:00"
"-81.24","68.78","HALL BEACH A","2402356","2019-01-06 00:00","2019","01","06","00:00"
"-81.24","68.78","HALL BEACH A","2402356","2019-01-06 01:00","2019","01","06","01:00"
"-81.24","68.78","HALL BEACH A","2402356","2019-01-06 02:00","2019","01","06","02:00"
"-81.24","68.78","HALL BEACH A","2402356","2019-01-06 03:00","2019","01","06","03:00"
"-81.24","68.78","HALL BEACH A","2402356","2019-01-06 04:00","2019","01","06","04:00"
"-81.24","68.78","HALL BEACH A","2402356","2019-01-06 05:00","2019","01","06","05:00"
"-81.24","68.78","HALL BEACH A","2402356","2019-01-06 06:00","2019","01","06","06:00"
"-81.24","68.78","HALL BEACH A","2402356","2019-01-06 07:00","2019","01","06","07:00","-29.6","","-32.7","","75","","","","34","","35","","2.0","","100.12","","","","-46","","Blowing Snow"
"-81.24","68.78","HALL BEACH A","2402356","2019-01-06 08:00","2019","01","06","08:00","-30.9","","-34.1","","74","","","","32","","36","","2.0","","100.06","","","","-48","","Blowing Snow"
"-81.24","68.78","HALL BEACH A","2402356","2019-01-06 09:00","2019","01","06","09:00","-30.6","","-33.8","","74","","","","32","","34","","2.0","","100.02","","","","-47","","Blowing Snow"
"-81.24","68.78","HALL BEACH A","2402356","2019-01-06 10:00","2019","01","06","10:00","-31.4","","-34.8","","73","","","","31","","33","","4.8","","99.99","","","","-48","","Blowing Snow"
"-81.24","68.78","HALL BEACH A","2402356","2019-01-06 11:00","2019","01","06","11:00","-32.2","","-35.7","","72","","","","31","","39","","1.0","","99.97","","","","-50","","Blowing Snow"
"-81.24","68.78","HALL BEACH A","2402356","2019-01-06 12:00","2019","01","06","12:00","-32.4","","-35.9","","72","","","","31","","44","","0.6","","99.96","","","","-51","","Ice Crystals,Blowing Snow"
"-81.24","68.78","HALL BEACH A","2402356","2019-01-06 13:00","2019","01","06","13:00","-31.8","","-35.1","","73","","","","31","","50","","0.4","","99.99","","","","-51","","Ice Crystals,Blowing Snow"
"-81.24","68.78","HALL BEACH A","2402356","2019-01-06 14:00","2019","01","06","14:00","-31.8","","-35.1","","73","","","","31","","43","","0.2","","100.02","","","","-50","","Ice Crystals,Blowing Snow"
"-81.24","68.78","HALL BEACH A","2402356","2019-01-06 15:00","2019","01","06","15:00","-31.8","","-35.1","","73","","","","31","","47","","0.2","","100.08","","","","-51","","Snow,Blowing Snow"
"-81.24","68.78","HALL BEACH A","2402356","2019-01-06 16:00","2019","01","06","16:00","-31.3","","-34.5","","74","","","","31","","44","","0.4","","100.09","","","","-50","","Snow,Blowing Snow"
"-81.24","68.78","HALL BEACH A","2402356","2019-01-06 17:00","2019","01","06","17:00","-31.2","","-34.6","","73","","","","31","","44","","0.4","","100.17","","","","-50","","Snow,Blowing Snow"
"-81.24","68.78","HALL BEACH A","2402356","2019-01-06 18:00","2019","01","06","18:00","-31.3","","-34.6","","73","","","","31","","44","","0.6","","100.17","","","","-50","","Snow,Blowing Snow"
"-81.24","68.78","HALL BEACH A","2402356","2019-01-06 19:00","2019","01","06","19:00","-31.5","","-34.9","","73","","","","30","","37","","0.8","","100.26","","","","-49","","Snow,Blowing Snow"
"-81.24","68.78","HALL BEACH A","2402356","2019-01-06 20:00","2019","01","06","20:00"
"-81.24","68.78","HALL BEACH A","2402356","2019-01-06 21:00","2019","01","06","21:00"
"-81.24","68.78","HALL BEACH A","2402356","2019-01-06 22:00","2019","01","06","22:00"
"-81.24","68.78","HALL BEACH A","2402356","2019-01-06 23:00","2019","01","06","23:00"
"-81.24","68.78","HALL BEACH A","2402356","2019-01-07 00:00","2019","01","07","00:00"
"-81.24","68.78","HALL BEACH A","2402356","2019-01-07 01:00","2019","01","07","01:00"
"-81.24","68.78","HALL BEACH A","2402356","2019-01-07 02:00","2019","01","07","02:00"
"-81.24","68.78","HALL BEACH A","2402356","2019-01-07 03:00","2019","01","07","03:00"
"-81.24","68.78","HALL BEACH A","2402356","2019-01-07 04:00","2019","01","07","04:00"
"-81.24","68.78","HALL BEACH A","2402356","2019-01-07 05:00","2019","01","07","05:00"
"-81.24","68.78","HALL BEACH A","2402356","2019-01-07 06:00","2019","01","07","06:00"
"-81.24","68.78","HALL BEACH A","2402356","2019-01-07 07:00","2019","01","07","07:00","-30.6","","-33.8","","74","","","","31","","37","","1.0","","100.96","","","","-48","","Ice Crystals,Blowing Snow"
"-81.24","68.78","HALL BEACH A","2402356","2019-01-07 08:00","2019","01","07","08:00","-30.5","","-33.7","","74","","","","31","","38","","1.0","","100.99","","","","-48","","Ice Crystals,Blowing Snow"
"-81.24","68.78","HALL BEACH A","2402356","2019-01-07 09:00","2019","01","07","09:00","-30.4","","-33.6","","74","","","","31","","39","","1.0","","101.02","","","","-48","","Ice Crystals,Blowing Snow"
"-81.24","68.78","HALL BEACH A","2402356","2019-01-07 10:00","2019","01","07","10:00","-30.6","","-33.8","","74","","","","31","","36","","1.0","","101.03","","","","-48","","Ice Crystals,Blowing Snow"
"-81.24","68.78","HALL BEACH A","2402356","2019-01-07 11:00","2019","01","07","11:00","-31.0","","-34.4","","73","","","","31","","34","","1.0","","101.04","","","","-48","","Ice Crystals,Blowing Snow"
"-81.24","68.78","HALL BEACH A","2402356","2019-01-07 12:00","2019","01","07","12:00","-31.2","","-34.6","","73","","","","31","","37","","1.0","","101.02","","","","-49","","Ice Crystals,Blowing Snow"
"-81.24","68.78","HALL BEACH A","2402356","2019-01-07 13:00","2019","01","07","13:00","-30.9","","-34.1","","74","","","","31","","37","","1.0","","101.02","","","","-48","","Ice Crystals,Blowing Snow"
"-81.24","68.78","HALL BEACH A","2402356","2019-01-07 14:00","2019","01","07","14:00","-30.7","","-33.9","","74","","","","32","","35","","1.0","","101.05","","","","-48","","Ice Crystals,Blowing Snow"
"-81.24","68.78","HALL BEACH A","2402356","2019-01-07 15:00","2019","01","07","15:00","-30.8","","-34.0","","74","","","","31","","40","","0.8","","101.05","","","","-49","","Ice Crystals,Blowing Snow"
"-81.24","68.78","HALL BEACH A","2402356","2019-01-07 16:00","2019","01","07","16:00","-29.3","","-32.3","","76","","","","31","","36","","0.8","","101.06","","","","-46","","Ice Crystals,Blowing Snow"
"-81.24","68.78","HALL BEACH A","2402356","2019-01-07 17:00","2019","01","07","17:00","-29.4","","-32.5","","75","","","","31","","36","","1.0","","101.09","","","","-46","","Ice Crystals,Blowing Snow"
"-81.24","68.78","HALL BEACH A","2402356","2019-01-07 18:00","2019","01","07","18:00","-30.4","","-33.6","","74","","","","32","","35","","0.8","","101.12","","","","-47","","Ice Crystals,Blowing Snow"
"-81.24","68.78","HALL BEACH A","2402356","2019-01-07 19:00","2019","01","07","19:00","-30.0","","-33.2","","74","","","","32","","38","","1.0","","101.13","","","","-47","","Ice Crystals,Blowing Snow"
"-81.24","68.78","HALL BEACH A","2402356","2019-01-07 20:00","2019","01","07","20:00"
"-81.24","68.78","HALL BEACH A","2402356","2019-01-07 21:00","2019","01","07","21:00"
"-81.24","68.78","HALL BEACH A","2402356","2019-01-07 22:00","2019","01","07","22:00"
"-81.24","68.78","HALL BEACH A","2402356","2019-01-07 23:00","2019","01","07","23:00"
"-81.24","68.78","HALL BEACH A","2402356","2019-01-08 00:00","2019","01","08","00:00"
"-81.24","68.78","HALL BEACH A","2402356","2019-01-08 01:00","2019","01","08","01:00"
"-81.24","68.78","HALL BEACH A","2402356","2019-01-08 02:00","2019","01","08","02:00"
"-81.24","68.78","HALL BEACH A","2402356","2019-01-08 03:00","2019","01","08","03:00"
"-81.24","68.78","HALL BEACH A","2402356","2019-01-08 04:00","2019","01","08","04:00"
"-81.24","68.78","HALL BEACH A","2402356","2019-01-08 05:00","2019","01","08","05:00"
"-81.24","68.78","HALL BEACH A","2402356","2019-01-08 06:00","2019","01","08","06:00"
"-81.24","68.78","HALL BEACH A","2402356","2019-01-08 07:00","2019","01","08","07:00","-33.0","","-36.5","","72","","","","30","","23","","16.1","","101.20","","","","-48","","Blowing Snow"
"-81.24","68.78","HALL BEACH A","2402356","2019-01-08 08:00","2019","01","08","08:00","-32.7","","-36.2","","72","","","","31","","27","","16.1","","101.19","","","","-48","","Blowing Snow"
"-81.24","68.78","HALL BEACH A","2402356","2019-01-08 09:00","2019","01","08","09:00","-32.5","","-36.0","","72","","","","30","","25","","16.1","","101.19","","","","-48","","Blowing Snow"
"-81.24","68.78","HALL BEACH A","2402356","2019-01-08 10:00","2019","01","08","10:00","-32.6","","-36.1","","72","","","","31","","23","","24.1","","101.19","","","","-47","","Blowing Snow"
"-81.24","68.78","HALL BEACH A","2402356","2019-01-08 11:00","2019","01","08","11:00","-32.4","","-35.9","","72","","","","30","","22","","24.1","","101.19","","","","-47","","Blowing Snow"
"-81.24","68.78","HALL BEACH A","2402356","2019-01-08 12:00","2019","01","08","12:00","-31.7","","-35.0","","73","","","","30","","27","","24.1","","101.12","","","","-47","","Blowing Snow"
"-81.24","68.78","HALL BEACH A","2402356","2019-01-08 13:00","2019","01","08","13:00","-31.7","","-35.0","","73","","","","30","","25","","24.1","","101.14","","","","-47","","Blowing Snow"
"-81.24","68.78","HALL BEACH A","2402356","2019-01-08 14:00","2019","01","08","14:00","-31.7","","-35.2","","72","","","","30","","17","","16.1","","101.13","","","","-44","","Blowing Snow"
"-81.24","68.78","HALL BEACH A","2402356","2019-01-08 15:00","2019","01","08","15:00","-31.4","","-34.8","","73","","","","30","","26","","16.1","","101.12","","","","-47","","Ice Crystals,Blowing Snow"
"-81.24","68.78","HALL BEACH A","2402356","2019-01-08 16:00","2019","01","08","16:00","-30.8","","-34.1","","74","","","","30","","31","","9.7","","101.11","","","","-47","","Ice Crystals,Blowing Snow"
"-81.24","68.78","HALL BEACH A","2402356","2019-01-08 17:00","2019","01","08","17:00","-30.8","","-34.0","","74","","","","30","","29","","3.2","","101.12","","","","-46","","Ice Crystals,Blowing Snow"
"-81.24","68.78","HALL BEACH A","2402356","2019-01-08 18:00","2019","01","08","18:00","-30.6","","-33.8","","74","","","","30","","26","","3.2","","101.15","","","","-45","","Ice Crystals,Fog,Blowing Snow"
"-81.24","68.78","HALL BEACH A","2402356","2019-01-08 19:00","2019","01","08","19:00","-30.4","","-33.6","","74","","","","30","","22","","2.4","","101.14","","","","-44","","Ice Crystals,Fog,Blowing Snow"
"-81.24","68.78","HALL BEACH A","2402356","2019-01-08 20:00","2019","01","08","20:00"
"-81.24","68.78","HALL BEACH A","2402356","2019-01-08 21:00","2019","01","08","21:00"
"-81.24","68.78","HALL BEACH A","2402356","2019-01-08 22:00","2019","01","08","22:00"
"-81.24","68.78","HALL BEACH A","2402356","2019-01-08 23:00","2019","01","08","23:00"
"-81.24","68.78","HALL BEACH A","2402356","2019-01-09 00:00","2019","01","09","00:00"
"-81.24","68.78","HALL BEACH A","2402356","2019-01-09 01:00","2019","01","09","01:00"
"-81.24","68.78","HALL BEACH A","2402356","2019-01-09 02:00","2019","01","09","02:00"
"-81.24","68.78","HALL BEACH A","2402356","2019-01-09 03:00","2019","01","09","03:00"
"-81.24","68.78","HALL BEACH A","2402356","2019-01-09 04:00","2019","01","09","04:00"
"-81.24","68.78","HALL BEACH A","2402356","2019-01-09 05:00","2019","01","09","05:00"
"-81.24","68.78","HALL BEACH A","2402356","2019-01-09 06:00","2019","01","09","06:00"
"-81.24","68.78","HALL BEACH A","2402356","2019-01-09 07:00","2019","01","09","07:00","-28.7","","-31.7","","76","","","","31","","38","","1.2","","101.86","","","","-45","","Ice Crystals,Blowing Snow"
"-81.24","68.78","HALL BEACH A","2402356","2019-01-09 08:00","2019","01","09","08:00","-28.2","","-31.2","","76","","","","31","","40","","1.0","","101.91","","","","-45","","Ice Crystals,Blowing Snow"
"-81.24","68.78","HALL BEACH A","2402356","2019-01-09 09:00","2019","01","09","09:00","-29.2","","-32.3","","75","","","","31","","40","","1.2","","102.01","","","","-46","","Ice Crystals,Blowing Snow"
"-81.24","68.78","HALL BEACH A","2402356","2019-01-09 10:00","2019","01","09","10:00","-29.5","","-32.6","","75","","","","30","","29","","8.1","","102.12","","","","-45","","Blowing Snow"
"-81.24","68.78","HALL BEACH A","2402356","2019-01-09 11:00","2019","01","09","11:00","-30.0","","-33.1","","75","","","","30","","28","","11.3","","102.20","","","","-45","","Blowing Snow"
"-81.24","68.78","HALL BEACH A","2402356","2019-01-09 12:00","2019","01","09","12:00","-30.4","","-33.5","","75","","","","33","","31","","6.4","","102.29","","","","-46","","Blowing Snow"
"-81.24","68.78","HALL BEACH A","2402356","2019-01-09 13:00","2019","01","09","13:00","-30.1","","-33.2","","75","","","","32","","31","","1.6","","102.35","","","","-46","","Blowing Snow"
"-81.24","68.78","HALL BEACH A","2402356","2019-01-09 14:00","2019","01","09","14:00","-30.6","","-33.8","","74","","","","30","","36","","1.6","","102.40","","","","-48","","Ice Crystals,Blowing Snow"
"-81.24","68.78","HALL BEACH A","2402356","2019-01-09 15:00","2019","01","09","15:00","-30.7","","-33.9","","74","","","","31","","36","","1.2","","102.51","","","","-48","","Ice Crystals,Blowing Snow"
"-81.24","68.78","HALL BEACH A","2402356","2019-01-09 16:00","2019","01","09","16:00","-31.1","","-34.5","","73","","","","31","","27","","9.7","","102.62","","","","-46","","Ice Crystals,Blowing Snow"
"-81.24","68.78","HALL BEACH A","2402356","2019-01-09 17:00","2019","01","09","17:00","-31.1","","-34.5","","73","","","","31","","31","","3.2","","102.68","","","","-47","","Ice Crystals,Blowing Snow"
"-81.24","68.78","HALL BEACH A","2402356","2019-01-09 18:00","2019","01","09","18:00","-31.2","","-34.6","","73","","","","32","","35","","2.4","","102.75","","","","-48","","Ice Crystals,Blowing Snow"
"-81.24","68.78","HALL BEACH A","2402356","2019-01-09 19:00","2019","01","09","19:00","-31.5","","-34.9","","73","","","","31","","31","","6.4","","102.81","","","","-48","","Ice Crystals,Blowing Snow"
"-81.24","68.78","HALL BEACH A","2402356","2019-01-09 20:00","2019","01","09","20:00"
"-81.24","68.78","HALL BEACH A","2402356","2019-01-09 21:00","2019","01","09","21:00"
"-81.24","68.78","HALL BEACH A","2402356","2019-01-09 22:00","2019","01","09","22:00"
"-81.24","68.78","HALL BEACH A","2402356","2019-01-09 23:00","2019","01","09","23:00"
"-81.24","68.78","HALL BEACH A","2402356","2019-01-10 00:00","2019","01","10","00:00"
"-81.24","68.78","HALL BEACH A","2402356","2019-01-10 01:00","2019","01","10","01:00"
"-81.24","68.78","HALL BEACH A","2402356","2019-01-10 02:00","2019","01","10","02:00"
"-81.24","68.78","HALL BEACH A","2402356","2019-01-10 03:00","2019","01","10","03:00"
"-81.24","68.78","HALL BEACH A","2402356","2019-01-10 04:00","2019","01","10","04:00"
"-81.24","68.78","HALL BEACH A","2402356","2019-01-10 05:00","2019","01","10","05:00"
"-81.24","68.78","HALL BEACH A","2402356","2019-01-10 06:00","2019","01","10","06:00"
"-81.24","68.78","HALL BEACH A","2402356","2019-01-10 07:00","2019","01","10","07:00","-34.3","","-38.0","","70","","","","32","","23","","16.1","","103.27","","","","-49","","Blowing Snow"
"-81.24","68.78","HALL BEACH A","2402356","2019-01-10 08:00","2019","01","10","08:00","-34.3","","-38.0","","70","","","","32","","27","","16.1","","103.27","","","","-51","","Blowing Snow"
"-81.24","68.78","HALL BEACH A","2402356","2019-01-10 09:00","2019","01","10","09:00","-33.8","","-37.4","","71","","","","32","","30","","24.1","","103.28","","","","-51","","Blowing Snow"
"-81.24","68.78","HALL BEACH A","2402356","2019-01-10 10:00","2019","01","10","10:00","-34.7","","-38.4","","70","","","","32","","25","","24.1","","103.30","","","","-51","","Blowing Snow"
"-81.24","68.78","HALL BEACH A","2402356","2019-01-10 11:00","2019","01","10","11:00","-35.1","","-38.9","","69","","","","30","","24","","24.1","","103.35","","","","-51","","Blowing Snow"
"-81.24","68.78","HALL BEACH A","2402356","2019-01-10 12:00","2019","01","10","12:00","-35.2","","-39.0","","69","","","","30","","24","","24.1","","103.32","","","","-51","","Blowing Snow"
"-81.24","68.78","HALL BEACH A","2402356","2019-01-10 13:00","2019","01","10","13:00","-35.2","","-39.0","","69","","","","31","","22","","24.1","","103.33","","","","-50","","Blowing Snow"
"-81.24","68.78","HALL BEACH A","2402356","2019-01-10 14:00","2019","01","10","14:00","-35.4","","-39.2","","69","","","","32","","22","","16.1","","103.35","","","","-51","","Blowing Snow"
"-81.24","68.78","HALL BEACH A","2402356","2019-01-10 15:00","2019","01","10","15:00","-35.5","","-39.3","","69","","","","33","","23","","16.1","","103.34","","","","-51","","Blowing Snow"
"-81.24","68.78","HALL BEACH A","2402356","2019-01-10 16:00","2019","01","10","16:00","-35.5","","-39.3","","69","","","","31","","22","","16.1","","103.39","","","","-51","","Blowing Snow"
"-81.24","68.78","HALL BEACH A","2402356","2019-01-10 17:00","2019","01","10","17:00","-35.5","","-39.3","","69","","","","33","","26","","16.1","","103.38","","","","-52","","Blowing Snow"
"-81.24","68.78","HALL BEACH A","2402356","2019-01-10 18:00","2019","01","10","18:00","-35.9","","-39.8","","68","","","","32","","21","","16.1","","103.37","","","","-51","","Blowing Snow"
"-81.24","68.78","HALL BEACH A","2402356","2019-01-10 19:00","2019","01","10","19:00","-35.9","","-39.8","","68","","","","32","","23","","16.1","","103.38","","","","-51","","Blowing Snow"
"-81.24","68.78","HALL BEACH A","2402356","2019-01-10 20:00","2019","01","10","20:00"
"-81.24","68.78","HALL BEACH A","2402356","2019-01-10 21:00","2019","01","10","21:00"
"-81.24","68.78","HALL BEACH A","2402356","2019-01-10 22:00","2019","01","10","22:00"
"-81.24","68.78","HALL BEACH A","2402356","2019-01-10 23:00","2019","01","10","23:00"
"-81.24","68.78","HALL BEACH A","2402356","2019-01-11 00:00","2019","01","11","00:00"
"-81.24","68.78","HALL BEACH A","2402356","2019-01-11 01:00","2019","01","11","01:00"
"-81.24","68.78","HALL BEACH A","2402356","2019-01-11 02:00","2019","01","11","02:00"
"-81.24","68.78","HALL BEACH A","2402356","2019-01-11 03:00","2019","01","11","03:00"
"-81.24","68.78","HALL BEACH A","2402356","2019-01-11 04:00","2019","01","11","04:00"
"-81.24","68.78","HALL BEACH A","2402356","2019-01-11 05:00","2019","01","11","05:00"
"-81.24","68.78","HALL BEACH A","2402356","2019-01-11 06:00","2019","01","11","06:00"
"-81.24","68.78","HALL BEACH A","2402356","2019-01-11 07:00","2019","01","11","07:00","-36.3","","-40.2","","68","","","","31","","20","","16.1","","103.52","","","","-51","","Blowing Snow"
"-81.24","68.78","HALL BEACH A","2402356","2019-01-11 08:00","2019","01","11","08:00","-36.5","","-40.6","","67","","","","32","","20","","16.1","","103.49","","","","-51","","Blowing Snow"
"-81.24","68.78","HALL BEACH A","2402356","2019-01-11 09:00","2019","01","11","09:00","-36.4","","-40.3","","68","","","","32","","21","","16.1","","103.50","","","","-51","","Blowing Snow"
"-81.24","68.78","HALL BEACH A","2402356","2019-01-11 10:00","2019","01","11","10:00","-36.3","","-40.2","","68","","","","31","","22","","24.1","","103.51","","","","-52","","Blowing Snow"
"-81.24","68.78","HALL BEACH A","2402356","2019-01-11 11:00","2019","01","11","11:00","-36.3","","-40.2","","68","","","","32","","23","","24.1","","103.49","","","","-52","","Blowing Snow"
"-81.24","68.78","HALL BEACH A","2402356","2019-01-11 12:00","2019","01","11","12:00","-36.3","","-40.2","","68","","","","31","","22","","24.1","","103.51","","","","-52","","Blowing Snow"
"-81.24","68.78","HALL BEACH A","2402356","2019-01-11 13:00","2019","01","11","13:00","-36.4","","-40.3","","68","","","","32","","22","","24.1","","103.51","","","","-52","","Blowing Snow"
"-81.24","68.78","HALL BEACH A","2402356","2019-01-11 14:00","2019","01","11","14:00","-36.5","","-40.4","","68","","","","32","","23","","24.1","","103.47","","","","-52","","Blowing Snow"
"-81.24","68.78","HALL BEACH A","2402356","2019-01-11 15:00","2019","01","11","15:00","-36.1","","-40.0","","68","","","","33","","23","","16.1","","103.47","","","","-52","","Blowing Snow"
"-81.24","68.78","HALL BEACH A","2402356","2019-01-11 16:00","2019","01","11","16:00","-36.7","","-40.8","","67","","","","32","","22","","16.1","","103.48","","","","-52","","Blowing Snow"
"-81.24","68.78","HALL BEACH A","2402356","2019-01-11 17:00","2019","01","11","17:00","-36.6","","-40.5","","68","","","","31","","23","","16.1","","103.45","","","","-52","","Blowing Snow"
"-81.24","68.78","HALL BEACH A","2402356","2019-01-11 18:00","2019","01","11","18:00","-36.2","","-40.1","","68","","","","32","","22","","16.1","","103.42","","","","-52","","Blowing Snow"
"-81.24","68.78","HALL BEACH A","2402356","2019-01-11 19:00","2019","01","11","19:00","-36.5","","-40.6","","67","","","","32","","22","","16.1","","103.42","","","","-52","","Blowing Snow"
"-81.24","68.78","HALL BEACH A","2402356","2019-01-11 20:00","2019","01","11","20:00"
"-81.24","68.78","HALL BEACH A","2402356","2019-01-11 21:00","2019","01","11","21:00"
"-81.24","68.78","HALL BEACH A","2402356","2019-01-11 22:00","2019","01","11","22:00"
"-81.24","68.78","HALL BEACH A","2402356","2019-01-11 23:00","2019","01","11","23:00"
"-81.24","68.78","HALL BEACH A","2402356","2019-01-12 00:00","2019","01","12","00:00"
"-81.24","68.78","HALL BEACH A","2402356","2019-01-12 01:00","2019","01","12","01:00"
"-81.24","68.78","HALL BEACH A","2402356","2019-01-12 02:00","2019","01","12","02:00"
"-81.24","68.78","HALL BEACH A","2402356","2019-01-12 03:00","2019","01","12","03:00"
"-81.24","68.78","HALL BEACH A","2402356","2019-01-12 04:00","2019","01","12","04:00"
"-81.24","68.78","HALL BEACH A","2402356","2019-01-12 05:00","2019","01","12","05:00"
"-81.24","68.78","HALL BEACH A","2402356","2019-01-12 06:00","2019","01","12","06:00"
"-81.24","68.78","HALL BEACH A","2402356","2019-01-12 07:00","2019","01","12","07:00","-37.1","","-41.1","","67","","","","32","","19","","16.1","","102.95","","","","-52","","Blowing Snow"
"-81.24","68.78","HALL BEACH A","2402356","2019-01-12 08:00","2019","01","12","08:00","-37.4","","-41.6","","66","","","","33","","18","","16.1","","102.95","","","","-52","","Blowing Snow"
"-81.24","68.78","HALL BEACH A","2402356","2019-01-12 09:00","2019","01","12","09:00","-37.7","","-41.9","","66","","","","33","","17","","16.1","","102.91","","","","-52","","NA"
"-81.24","68.78","HALL BEACH A","2402356","2019-01-12 10:00","2019","01","12","10:00","-37.7","","-41.9","","66","","","","34","","14","","24.1","","102.84","","","","-50","","Clear"
"-81.24","68.78","HALL BEACH A","2402356","2019-01-12 11:00","2019","01","12","11:00","-37.6","","-41.8","","66","","","","33","","13","","24.1","","102.80","","","","-50","","NA"
"-81.24","68.78","HALL BEACH A","2402356","2019-01-12 12:00","2019","01","12","12:00","-37.6","","-41.8","","66","","","","30","","13","","24.1","","102.76","","","","-50","","NA"
"-81.24","68.78","HALL BEACH A","2402356","2019-01-12 13:00","2019","01","12","13:00","-36.6","","-40.6","","67","","","","33","","11","","24.1","","102.70","","","","-48","","Clear"
"-81.24","68.78","HALL BEACH A","2402356","2019-01-12 14:00","2019","01","12","14:00","-37.4","","-41.6","","66","","","","35","","12","","16.1","","102.67","","","","-49","","NA"
"-81.24","68.78","HALL BEACH A","2402356","2019-01-12 15:00","2019","01","12","15:00","-37.1","","-41.3","","66","","","","35","","10","","16.1","","102.61","","","","-48","","NA"
"-81.24","68.78","HALL BEACH A","2402356","2019-01-12 16:00","2019","01","12","16:00","-34.0","","-37.6","","71","","","","3","","8","","16.1","","102.56","","","","-43","","Clear"
"-81.24","68.78","HALL BEACH A","2402356","2019-01-12 17:00","2019","01","12","17:00","-34.5","","-38.0","","72","","","","14","","9","","4.8","","102.50","","","","-44","","Snow"
"-81.24","68.78","HALL BEACH A","2402356","2019-01-12 18:00","2019","01","12","18:00","-27.8","","-30.8","","76","","","","16","","16","","16.1","","102.45","","","","-39","","Snow"
"-81.24","68.78","HALL BEACH A","2402356","2019-01-12 19:00","2019","01","12","19:00","-27.6","","-30.6","","76","","","","14","","21","","16.1","","102.36","","","","-40","","Snow"
"-81.24","68.78","HALL BEACH A","2402356","2019-01-12 20:00","2019","01","12","20:00"
"-81.24","68.78","HALL BEACH A","2402356","2019-01-12 21:00","2019","01","12","21:00"
"-81.24","68.78","HALL BEACH A","2402356","2019-01-12 22:00","2019","01","12","22:00"
"-81.24","68.78","HALL BEACH A","2402356","2019-01-12 23:00","2019","01","12","23:00"
"-81.24","68.78","HALL BEACH A","2402356","2019-01-13 00:00","2019","01","13","00:00"
"-81.24","68.78","HALL BEACH A","2402356","2019-01-13 01:00","2019","01","13","01:00"
"-81.24","68.78","HALL BEACH A","2402356","2019-01-13 02:00","2019","01","13","02:00"
"-81.24","68.78","HALL BEACH A","2402356","2019-01-13 03:00","2019","01","13","03:00"
"-81.24","68.78","HALL BEACH A","2402356","2019-01-13 04:00","2019","01","13","04:00"
"-81.24","68.78","HALL BEACH A","2402356","2019-01-13 05:00","2019","01","13","05:00"
"-81.24","68.78","HALL BEACH A","2402356","2019-01-13 06:00","2019","01","13","06:00"
"-81.24","68.78","HALL BEACH A","2402356","2019-01-13 07:00","2019","01","13","07:00","-24.1","","-26.6","","80","","","","10","","31","","8.1","","101.67","","","","-38","","Snow,Blowing Snow"
"-81.24","68.78","HALL BEACH A","2402356","2019-01-13 08:00","2019","01","13","08:00","-23.8","","-26.3","","80","","","","9","","31","","8.1","","101.62","","","","-38","","Snow,Blowing Snow"
"-81.24","68.78","HALL BEACH A","2402356","2019-01-13 09:00","2019","01","13","09:00","-23.6","","-26.0","","81","","","","10","","32","","8.1","","101.59","","","","-38","","Snow,Blowing Snow"
"-81.24","68.78","HALL BEACH A","2402356","2019-01-13 10:00","2019","01","13","10:00","-24.2","","-26.7","","80","","","","8","","32","","4.8","","101.59","","","","-38","","Snow,Blowing Snow"
"-81.24","68.78","HALL BEACH A","2402356","2019-01-13 11:00","2019","01","13","11:00","-24.2","","-26.7","","80","","","","8","","30","","4.8","","101.59","","","","-38","","Ice Crystals,Blowing Snow"
"-81.24","68.78","HALL BEACH A","2402356","2019-01-13 12:00","2019","01","13","12:00","-24.4","","-26.9","","80","","","","7","","34","","4.8","","101.55","","","","-39","","Ice Crystals,Blowing Snow"
"-81.24","68.78","HALL BEACH A","2402356","2019-01-13 13:00","2019","01","13","13:00","-24.8","","-27.3","","80","","","","7","","34","","4.8","","101.52","","","","-40","","Ice Crystals,Blowing Snow"
"-81.24","68.78","HALL BEACH A","2402356","2019-01-13 14:00","2019","01","13","14:00","-24.8","","-27.3","","80","","","","7","","32","","4.8","","101.52","","","","-39","","Ice Crystals,Blowing Snow"
"-81.24","68.78","HALL BEACH A","2402356","2019-01-13 15:00","2019","01","13","15:00","-24.5","","-27.0","","80","","","","7","","31","","4.8","","101.51","","","","-39","","Ice Crystals,Blowing Snow"
"-81.24","68.78","HALL BEACH A","2402356","2019-01-13 16:00","2019","01","13","16:00","-24.6","","-27.1","","80","","","","6","","34","","4.8","","101.52","","","","-39","","Ice Crystals,Blowing Snow"
"-81.24","68.78","HALL BEACH A","2402356","2019-01-13 17:00","2019","01","13","17:00","-25.3","","-27.9","","79","","","","6","","29","","6.4","","101.53","","","","-39","","Ice Crystals,Blowing Snow"
"-81.24","68.78","HALL BEACH A","2402356","2019-01-13 18:00","2019","01","13","18:00","-25.3","","-27.9","","79","","","","5","","30","","4.8","","101.53","","","","-39","","Ice Crystals,Blowing Snow"
"-81.24","68.78","HALL BEACH A","2402356","2019-01-13 19:00","2019","01","13","19:00","-25.6","","-28.2","","79","","","","4","","27","","4.8","","101.53","","","","-39","","Ice Crystals,Blowing Snow"
"-81.24","68.78","HALL BEACH A","2402356","2019-01-13 20:00","2019","01","13","20:00"
"-81.24","68.78","HALL BEACH A","2402356","2019-01-13 21:00","2019","01","13","21:00"
"-81.24","68.78","HALL BEACH A","2402356","2019-01-13 22:00","2019","01","13","22:00"
"-81.24","68.78","HALL BEACH A","2402356","2019-01-13 23:00","2019","01","13","23:00"
"-81.24","68.78","HALL BEACH A","2402356","2019-01-14 00:00","2019","01","14","00:00"
"-81.24","68.78","HALL BEACH A","2402356","2019-01-14 01:00","2019","01","14","01:00"
"-81.24","68.78","HALL BEACH A","2402356","2019-01-14 02:00","2019","01","14","02:00"
"-81.24","68.78","HALL BEACH A","2402356","2019-01-14 03:00","2019","01","14","03:00"
"-81.24","68.78","HALL BEACH A","2402356","2019-01-14 04:00","2019","01","14","04:00"
"-81.24","68.78","HALL BEACH A","2402356","2019-01-14 05:00","2019","01","14","05:00"
"-81.24","68.78","HALL BEACH A","2402356","2019-01-14 06:00","2019","01","14","06:00"
"-81.24","68.78","HALL BEACH A","2402356","2019-01-14 07:00","2019","01","14","07:00","-34.2","","-37.9","","70","","","","35","","30","","2.0","","101.26","","","","-51","","Ice Crystals,Blowing Snow"
"-81.24","68.78","HALL BEACH A","2402356","2019-01-14 08:00","2019","01","14","08:00","-34.4","","-38.1","","70","","","","34","","25","","4.8","","101.21","","","","-50","","Ice Crystals,Blowing Snow"
"-81.24","68.78","HALL BEACH A","2402356","2019-01-14 09:00","2019","01","14","09:00","-34.8","","-38.5","","70","","","","34","","28","","11.3","","101.18","","","","-51","","Ice Crystals,Blowing Snow"
"-81.24","68.78","HALL BEACH A","2402356","2019-01-14 10:00","2019","01","14","10:00","-35.6","","-39.5","","68","","","","33","","28","","8.1","","101.16","","","","-52","","Ice Crystals,Blowing Snow"
"-81.24","68.78","HALL BEACH A","2402356","2019-01-14 11:00","2019","01","14","11:00","-35.8","","-39.6","","69","","","","33","","31","","8.1","","101.09","","","","-53","","Blowing Snow"
"-81.24","68.78","HALL BEACH A","2402356","2019-01-14 12:00","2019","01","14","12:00","-35.6","","-39.4","","69","","","","34","","29","","16.1","","101.05","","","","-53","","Blowing Snow"
"-81.24","68.78","HALL BEACH A","2402356","2019-01-14 13:00","2019","01","14","13:00","-35.9","","-39.7","","69","","","","33","","28","","16.1","","101.03","","","","-53","","Blowing Snow"
"-81.24","68.78","HALL BEACH A","2402356","2019-01-14 14:00","2019","01","14","14:00","-35.7","","-39.5","","69","","","","34","","30","","12.9","","100.98","","","","-53","","Blowing Snow"
"-81.24","68.78","HALL BEACH A","2402356","2019-01-14 15:00","2019","01","14","15:00","-35.8","","-39.6","","69","","","","34","","26","","12.9","","100.99","","","","-52","","Blowing Snow"
"-81.24","68.78","HALL BEACH A","2402356","2019-01-14 16:00","2019","01","14","16:00","-36.4","","-40.3","","68","","","","33","","25","","4.8","","100.98","","","","-53","","Ice Crystals,Blowing Snow"
"-81.24","68.78","HALL BEACH A","2402356","2019-01-14 17:00","2019","01","14","17:00","-36.2","","-40.1","","68","","","","33","","28","","6.4","","100.97","","","","-53","","Ice Crystals,Blowing Snow"
"-81.24","68.78","HALL BEACH A","2402356","2019-01-14 18:00","2019","01","14","18:00","-36.7","","-40.6","","68","","","","33","","26","","12.9","","100.94","","","","-53","","Ice Crystals,Blowing Snow"
"-81.24","68.78","HALL BEACH A","2402356","2019-01-14 19:00","2019","01","14","19:00","-37.0","","-41.1","","67","","","","33","","26","","9.7","","100.94","","","","-54","","Ice Crystals,Blowing Snow"
"-81.24","68.78","HALL BEACH A","2402356","2019-01-14 20:00","2019","01","14","20:00"
"-81.24","68.78","HALL BEACH A","2402356","2019-01-14 21:00","2019","01","14","21:00"
"-81.24","68.78","HALL BEACH A","2402356","2019-01-14 22:00","2019","01","14","22:00"
"-81.24","68.78","HALL BEACH A","2402356","2019-01-14 23:00","2019","01","14","23:00"
"-81.24","68.78","HALL BEACH A","2402356","2019-01-15 00:00","2019","01","15","00:00"
"-81.24","68.78","HALL BEACH A","2402356","2019-01-15 01:00","2019","01","15","01:00"
"-81.24","68.78","HALL BEACH A","2402356","2019-01-15 02:00","2019","01","15","02:00"
"-81.24","68.78","HALL BEACH A","2402356","2019-01-15 03:00","2019","01","15","03:00"
"-81.24","68.78","HALL BEACH A","2402356","2019-01-15 04:00","2019","01","15","04:00"
"-81.24","68.78","HALL BEACH A","2402356","2019-01-15 05:00","2019","01","15","05:00"
"-81.24","68.78","HALL BEACH A","2402356","2019-01-15 06:00","2019","01","15","06:00"
"-81.24","68.78","HALL BEACH A","2402356","2019-01-15 07:00","2019","01","15","07:00","-38.4","","-42.7","","65","","","","32","","24","","16.1","","100.72","","","","-55","","Blowing Snow"
"-81.24","68.78","HALL BEACH A","2402356","2019-01-15 08:00","2019","01","15","08:00","-38.7","","-43.0","","65","","","","32","","25","","16.1","","100.70","","","","-56","","Blowing Snow"
"-81.24","68.78","HALL BEACH A","2402356","2019-01-15 09:00","2019","01","15","09:00","-39.1","","-43.4","","65","","","","32","","25","","16.1","","100.69","","","","-56","","Blowing Snow"
"-81.24","68.78","HALL BEACH A","2402356","2019-01-15 10:00","2019","01","15","10:00","-39.5","","-43.9","","64","","","","31","","21","","24.1","","100.67","","","","-55","","Blowing Snow"
"-81.24","68.78","HALL BEACH A","2402356","2019-01-15 11:00","2019","01","15","11:00","-39.3","","-43.6","","65","","","","32","","24","","24.1","","100.65","","","","-56","","Blowing Snow"
"-81.24","68.78","HALL BEACH A","2402356","2019-01-15 12:00","2019","01","15","12:00","-39.1","","-43.4","","65","","","","32","","26","","24.1","","100.62","","","","-56","","Blowing Snow"
"-81.24","68.78","HALL BEACH A","2402356","2019-01-15 13:00","2019","01","15","13:00","-39.3","","-43.6","","65","","","","32","","25","","24.1","","100.64","","","","-56","","Blowing Snow"
"-81.24","68.78","HALL BEACH A","2402356","2019-01-15 14:00","2019","01","15","14:00","-39.4","","-43.7","","65","","","","32","","23","","24.1","","100.63","","","","-56","","Blowing Snow"
"-81.24","68.78","HALL BEACH A","2402356","2019-01-15 15:00","2019","01","15","15:00","-39.7","","-44.1","","64","","","","32","","22","","24.1","","100.62","","","","-56","","Blowing Snow"
"-81.24","68.78","HALL BEACH A","2402356","2019-01-15 16:00","2019","01","15","16:00","-39.4","","-43.7","","65","","","","32","","24","","16.1","","100.60","","","","-56","","Blowing Snow"
"-81.24","68.78","HALL BEACH A","2402356","2019-01-15 17:00","2019","01","15","17:00","-39.8","","-44.2","","64","","","","32","","21","","16.1","","100.59","","","","-56","","Blowing Snow"
"-81.24","68.78","HALL BEACH A","2402356","2019-01-15 18:00","2019","01","15","18:00","-39.7","","-44.1","","64","","","","31","","24","","16.1","","100.57","","","","-57","","Blowing Snow"
"-81.24","68.78","HALL BEACH A","2402356","2019-01-15 19:00","2019","01","15","19:00","-39.6","","-44.0","","64","","","","32","","21","","16.1","","100.55","","","","-56","","Blowing Snow"
"-81.24","68.78","HALL BEACH A","2402356","2019-01-15 20:00","2019","01","15","20:00"
"-81.24","68.78","HALL BEACH A","2402356","2019-01-15 21:00","2019","01","15","21:00"
"-81.24","68.78","HALL BEACH A","2402356","2019-01-15 22:00","2019","01","15","22:00"
"-81.24","68.78","HALL BEACH A","2402356","2019-01-15 23:00","2019","01","15","23:00"
"-81.24","68.78","HALL BEACH A","2402356","2019-01-16 00:00","2019","01","16","00:00"
"-81.24","68.78","HALL BEACH A","2402356","2019-01-16 01:00","2019","01","16","01:00"
"-81.24","68.78","HALL BEACH A","2402356","2019-01-16 02:00","2019","01","16","02:00"
"-81.24","68.78","HALL BEACH A","2402356","2019-01-16 03:00","2019","01","16","03:00"
"-81.24","68.78","HALL BEACH A","2402356","2019-01-16 04:00","2019","01","16","04:00"
"-81.24","68.78","HALL BEACH A","2402356","2019-01-16 05:00","2019","01","16","05:00"
"-81.24","68.78","HALL BEACH A","2402356","2019-01-16 06:00","2019","01","16","06:00"
"-81.24","68.78","HALL BEACH A","2402356","2019-01-16 07:00","2019","01","16","07:00","-38.8","","-43.1","","65","","","","31","","24","","16.1","","100.30","","","","-55","","Blowing Snow"
"-81.24","68.78","HALL BEACH A","2402356","2019-01-16 08:00","2019","01","16","08:00","-39.1","","-43.4","","65","","","","31","","25","","16.1","","100.30","","","","-56","","Blowing Snow"
"-81.24","68.78","HALL BEACH A","2402356","2019-01-16 09:00","2019","01","16","09:00","-39.2","","-43.5","","65","","","","32","","24","","16.1","","100.29","","","","-56","","Blowing Snow"
"-81.24","68.78","HALL BEACH A","2402356","2019-01-16 10:00","2019","01","16","10:00","-39.4","","-43.8","","64","","","","32","","21","","24.1","","100.30","","","","-55","","Blowing Snow"
"-81.24","68.78","HALL BEACH A","2402356","2019-01-16 11:00","2019","01","16","11:00","-39.0","","-43.3","","65","","","","32","","24","","24.1","","100.32","","","","-56","","Blowing Snow"
"-81.24","68.78","HALL BEACH A","2402356","2019-01-16 12:00","2019","01","16","12:00","-39.3","","-43.6","","65","","","","32","","26","","24.1","","100.34","","","","-57","","Blowing Snow"
"-81.24","68.78","HALL BEACH A","2402356","2019-01-16 13:00","2019","01","16","13:00","-39.2","","-43.5","","65","","","","32","","26","","24.1","","100.36","","","","-57","","Ice Crystals,Blowing Snow"
"-81.24","68.78","HALL BEACH A","2402356","2019-01-16 14:00","2019","01","16","14:00","-39.4","","-43.8","","64","","","","32","","23","","24.1","","100.38","","","","-56","","Ice Crystals,Blowing Snow"
"-81.24","68.78","HALL BEACH A","2402356","2019-01-16 15:00","2019","01","16","15:00","-39.2","","-43.5","","65","","","","32","","23","","24.1","","100.41","","","","-56","","Ice Crystals,Blowing Snow"
"-81.24","68.78","HALL BEACH A","2402356","2019-01-16 16:00","2019","01","16","16:00","-39.0","","-43.3","","65","","","","33","","20","","16.1","","100.47","","","","-54","","Ice Crystals,Blowing Snow"
"-81.24","68.78","HALL BEACH A","2402356","2019-01-16 17:00","2019","01","16","17:00","-38.3","","-42.5","","66","","","","33","","22","","9.7","","100.52","","","","-54","","Ice Crystals,Blowing Snow"
"-81.24","68.78","HALL BEACH A","2402356","2019-01-16 18:00","2019","01","16","18:00","-38.0","","-42.2","","66","","","","33","","24","","3.2","","100.56","","","","-54","","Ice Crystals,Blowing Snow"
"-81.24","68.78","HALL BEACH A","2402356","2019-01-16 19:00","2019","01","16","19:00","-37.4","","-41.4","","67","","","","34","","24","","3.2","","100.60","","","","-54","","Ice Crystals,Blowing Snow"
"-81.24","68.78","HALL BEACH A","2402356","2019-01-16 20:00","2019","01","16","20:00"
"-81.24","68.78","HALL BEACH A","2402356","2019-01-16 21:00","2019","01","16","21:00"
"-81.24","68.78","HALL BEACH A","2402356","2019-01-16 22:00","2019","01","16","22:00"
"-81.24","68.78","HALL BEACH A","2402356","2019-01-16 23:00","2019","01","16","23:00"
"-81.24","68.78","HALL BEACH A","2402356","2019-01-17 00:00","2019","01","17","00:00"
"-81.24","68.78","HALL BEACH A","2402356","2019-01-17 01:00","2019","01","17","01:00"
"-81.24","68.78","HALL BEACH A","2402356","2019-01-17 02:00","2019","01","17","02:00"
"-81.24","68.78","HALL BEACH A","2402356","2019-01-17 03:00","2019","01","17","03:00"
"-81.24","68.78","HALL BEACH A","2402356","2019-01-17 04:00","2019","01","17","04:00"
"-81.24","68.78","HALL BEACH A","2402356","2019-01-17 05:00","2019","01","17","05:00"
"-81.24","68.78","HALL BEACH A","2402356","2019-01-17 06:00","2019","01","17","06:00"
"-81.24","68.78","HALL BEACH A","2402356","2019-01-17 07:00","2019","01","17","07:00","-36.5","","-40.6","","67","","","","34","","21","","16.1","","101.23","","","","-52","","Ice Crystals,Blowing Snow"
"-81.24","68.78","HALL BEACH A","2402356","2019-01-17 08:00","2019","01","17","08:00","-36.0","","-39.9","","68","","","","35","","21","","16.1","","101.25","","","","-51","","Ice Crystals,Blowing Snow"
"-81.24","68.78","HALL BEACH A","2402356","2019-01-17 09:00","2019","01","17","09:00","-36.2","","-40.3","","67","","","","34","","19","","16.1","","101.28","","","","-51","","Ice Crystals,Blowing Snow"
"-81.24","68.78","HALL BEACH A","2402356","2019-01-17 10:00","2019","01","17","10:00","-36.3","","-40.4","","67","","","","34","","23","","16.1","","101.37","","","","-52","","Ice Crystals,Blowing Snow"
"-81.24","68.78","HALL BEACH A","2402356","2019-01-17 11:00","2019","01","17","11:00","-35.9","","-39.8","","68","","","","35","","23","","24.1","","101.39","","","","-51","","Blowing Snow"
"-81.24","68.78","HALL BEACH A","2402356","2019-01-17 12:00","2019","01","17","12:00","-35.9","","-39.8","","68","","","","34","","24","","24.1","","101.43","","","","-52","","Blowing Snow"
"-81.24","68.78","HALL BEACH A","2402356","2019-01-17 13:00","2019","01","17","13:00","-35.6","","-39.5","","68","","","","35","","24","","16.1","","101.46","","","","-51","","Blowing Snow"
"-81.24","68.78","HALL BEACH A","2402356","2019-01-17 14:00","2019","01","17","14:00","-36.0","","-39.9","","68","","","","35","","21","","16.1","","101.48","","","","-51","","Ice Crystals,Blowing Snow"
"-81.24","68.78","HALL BEACH A","2402356","2019-01-17 15:00","2019","01","17","15:00","-36.1","","-40.0","","68","","","","34","","23","","16.1","","101.54","","","","-52","","Ice Crystals,Blowing Snow"
"-81.24","68.78","HALL BEACH A","2402356","2019-01-17 16:00","2019","01","17","16:00","-35.7","","-39.6","","68","","","","34","","27","","16.1","","101.59","","","","-52","","Ice Crystals,Blowing Snow"
"-81.24","68.78","HALL BEACH A","2402356","2019-01-17 17:00","2019","01","17","17:00","-35.7","","-39.6","","68","","","","35","","26","","16.1","","101.61","","","","-52","","Ice Crystals,Blowing Snow"
"-81.24","68.78","HALL BEACH A","2402356","2019-01-17 18:00","2019","01","17","18:00","-35.3","","-39.1","","69","","","","34","","23","","16.1","","101.64","","","","-51","","Ice Crystals,Blowing Snow"
"-81.24","68.78","HALL BEACH A","2402356","2019-01-17 19:00","2019","01","17","19:00","-35.5","","-39.5","","68","","","","34","","23","","16.1","","101.66","","","","-51","","Ice Crystals,Blowing Snow"
"-81.24","68.78","HALL BEACH A","2402356","2019-01-17 20:00","2019","01","17","20:00"
"-81.24","68.78","HALL BEACH A","2402356","2019-01-17 21:00","2019","01","17","21:00"
"-81.24","68.78","HALL BEACH A","2402356","2019-01-17 22:00","2019","01","17","22:00"
"-81.24","68.78","HALL BEACH A","2402356","2019-01-17 23:00","2019","01","17","23:00"
"-81.24","68.78","HALL BEACH A","2402356","2019-01-18 00:00","2019","01","18","00:00"
"-81.24","68.78","HALL BEACH A","2402356","2019-01-18 01:00","2019","01","18","01:00"
"-81.24","68.78","HALL BEACH A","2402356","2019-01-18 02:00","2019","01","18","02:00"
"-81.24","68.78","HALL BEACH A","2402356","2019-01-18 03:00","2019","01","18","03:00"
"-81.24","68.78","HALL BEACH A","2402356","2019-01-18 04:00","2019","01","18","04:00"
"-81.24","68.78","HALL BEACH A","2402356","2019-01-18 05:00","2019","01","18","05:00"
"-81.24","68.78","HALL BEACH A","2402356","2019-01-18 06:00","2019","01","18","06:00"
"-81.24","68.78","HALL BEACH A","2402356","2019-01-18 07:00","2019","01","18","07:00","-37.7","","-41.9","","66","","","","33","","19","","16.1","","101.66","","","","-52","","Blowing Snow"
"-81.24","68.78","HALL BEACH A","2402356","2019-01-18 08:00","2019","01","18","08:00","-38.2","","-42.4","","66","","","","34","","21","","16.1","","101.66","","","","-54","","Blowing Snow"
"-81.24","68.78","HALL BEACH A","2402356","2019-01-18 09:00","2019","01","18","09:00","-37.0","","-41.1","","67","","","","32","","21","","16.1","","101.64","","","","-52","","Blowing Snow"
"-81.24","68.78","HALL BEACH A","2402356","2019-01-18 10:00","2019","01","18","10:00","-36.5","","-40.6","","67","","","","33","","18","","24.1","","101.65","","","","-51","","Blowing Snow"
"-81.24","68.78","HALL BEACH A","2402356","2019-01-18 11:00","2019","01","18","11:00","-35.9","","-39.8","","68","","","","32","","26","","24.1","","101.62","","","","-52","","Blowing Snow"
"-81.24","68.78","HALL BEACH A","2402356","2019-01-18 12:00","2019","01","18","12:00","-35.4","","-39.2","","69","","","","31","","32","","9.7","","101.55","","","","-53","","Blowing Snow"
"-81.24","68.78","HALL BEACH A","2402356","2019-01-18 13:00","2019","01","18","13:00","-34.9","","-38.7","","69","","","","31","","35","","3.2","","101.52","","","","-53","","Ice Crystals,Blowing Snow"
"-81.24","68.78","HALL BEACH A","2402356","2019-01-18 14:00","2019","01","18","14:00","-34.9","","-38.7","","69","","","","31","","34","","1.2","","101.50","","","","-53","","Ice Crystals,Blowing Snow"
"-81.24","68.78","HALL BEACH A","2402356","2019-01-18 15:00","2019","01","18","15:00","-34.6","","-38.4","","69","","","","31","","34","","0.8","","101.44","","","","-52","","Ice Crystals,Blowing Snow"
"-81.24","68.78","HALL BEACH A","2402356","2019-01-18 16:00","2019","01","18","16:00","-34.3","","-38.0","","70","","","","31","","41","","0.6","","101.41","","","","-53","","Ice Crystals,Blowing Snow"
"-81.24","68.78","HALL BEACH A","2402356","2019-01-18 17:00","2019","01","18","17:00","-33.7","","-37.4","","70","","","","30","","33","","1.0","","101.39","","","","-51","","Ice Crystals,Blowing Snow"
"-81.24","68.78","HALL BEACH A","2402356","2019-01-18 18:00","2019","01","18","18:00","-31.9","","-35.4","","72","","","","31","","49","","0.4","","101.28","","","","-51","","Ice Crystals,Blowing Snow"
"-81.24","68.78","HALL BEACH A","2402356","2019-01-18 19:00","2019","01","18","19:00","-30.7","","-34.1","","73","","","","31","","39","","0.8","","101.21","","","","-48","","Ice Crystals,Blowing Snow"
"-81.24","68.78","HALL BEACH A","2402356","2019-01-18 20:00","2019","01","18","20:00"
"-81.24","68.78","HALL BEACH A","2402356","2019-01-18 21:00","2019","01","18","21:00"
"-81.24","68.78","HALL BEACH A","2402356","2019-01-18 22:00","2019","01","18","22:00"
"-81.24","68.78","HALL BEACH A","2402356","2019-01-18 23:00","2019","01","18","23:00"
"-81.24","68.78","HALL BEACH A","2402356","2019-01-19 00:00","2019","01","19","00:00"
"-81.24","68.78","HALL BEACH A","2402356","2019-01-19 01:00","2019","01","19","01:00"
"-81.24","68.78","HALL BEACH A","2402356","2019-01-19 02:00","2019","01","19","02:00"
"-81.24","68.78","HALL BEACH A","2402356","2019-01-19 03:00","2019","01","19","03:00"
"-81.24","68.78","HALL BEACH A","2402356","2019-01-19 04:00","2019","01","19","04:00"
"-81.24","68.78","HALL BEACH A","2402356","2019-01-19 05:00","2019","01","19","05:00"
"-81.24","68.78","HALL BEACH A","2402356","2019-01-19 06:00","2019","01","19","06:00"
"-81.24","68.78","HALL BEACH A","2402356","2019-01-19 07:00","2019","01","19","07:00","-29.2","","-32.3","","75","","","","30","","16","","8.1","","100.27","","","","-41","","Ice Crystals,Blowing Snow"
"-81.24","68.78","HALL BEACH A","2402356","2019-01-19 08:00","2019","01","19","08:00","-29.1","","-32.2","","75","","","","31","","18","","16.1","","100.21","","","","-41","","Ice Crystals,Blowing Snow"
"-81.24","68.78","HALL BEACH A","2402356","2019-01-19 09:00","2019","01","19","09:00","-29.0","","-32.0","","76","","","","29","","15","","16.1","","100.13","","","","-40","","Ice Crystals,Blowing Snow"
"-81.24","68.78","HALL BEACH A","2402356","2019-01-19 10:00","2019","01","19","10:00","-30.6","","-34.0","","73","","","","27","","14","","16.1","","100.05","","","","-42","","Snow"
"-81.24","68.78","HALL BEACH A","2402356","2019-01-19 11:00","2019","01","19","11:00","-28.4","","-31.3","","77","","","","27","","15","","4.8","","99.97","","","","-39","","Snow"
"-81.24","68.78","HALL BEACH A","2402356","2019-01-19 12:00","2019","01","19","12:00","-28.8","","-31.8","","76","","","","27","","16","","8.1","","99.89","","","","-40","","Snow"
"-81.24","68.78","HALL BEACH A","2402356","2019-01-19 13:00","2019","01","19","13:00","-28.7","","-31.8","","75","","","","24","","15","","16.1","","99.85","","","","-40","","Snow,Heavy Ice Pellet Showers,Blowing Snow"
"-81.24","68.78","HALL BEACH A","2402356","2019-01-19 14:00","2019","01","19","14:00","-27.5","","-30.2","","78","","","","25","","19","","9.7","","99.82","","","","-40","","Snow,Blowing Snow"
"-81.24","68.78","HALL BEACH A","2402356","2019-01-19 15:00","2019","01","19","15:00","-26.5","","-29.3","","78","","","","25","","15","","6.4","","99.73","","","","-37","","Snow,Blowing Snow"
"-81.24","68.78","HALL BEACH A","2402356","2019-01-19 16:00","2019","01","19","16:00","-27.3","","-30.2","","77","","","","25","","12","","8.1","","99.69","","","","-37","","Snow"
"-81.24","68.78","HALL BEACH A","2402356","2019-01-19 17:00","2019","01","19","17:00","-26.4","","-29.2","","78","","","","26","","15","","16.1","","99.64","","","","-37","","Snow"
"-81.24","68.78","HALL BEACH A","2402356","2019-01-19 18:00","2019","01","19","18:00","-26.1","","-28.9","","78","","","","25","","16","","16.1","","99.62","","","","-37","","Snow"
"-81.24","68.78","HALL BEACH A","2402356","2019-01-19 19:00","2019","01","19","19:00","-27.5","","-30.4","","77","","","","29","","15","","9.7","","99.60","","","","-38","","Snow"
"-81.24","68.78","HALL BEACH A","2402356","2019-01-19 20:00","2019","01","19","20:00"
"-81.24","68.78","HALL BEACH A","2402356","2019-01-19 21:00","2019","01","19","21:00"
"-81.24","68.78","HALL BEACH A","2402356","2019-01-19 22:00","2019","01","19","22:00"
"-81.24","68.78","HALL BEACH A","2402356","2019-01-19 23:00","2019","01","19","23:00"
"-81.24","68.78","HALL BEACH A","2402356","2019-01-20 00:00","2019","01","20","00:00"
"-81.24","68.78","HALL BEACH A","2402356","2019-01-20 01:00","2019","01","20","01:00"
"-81.24","68.78","HALL BEACH A","2402356","2019-01-20 02:00","2019","01","20","02:00"
"-81.24","68.78","HALL BEACH A","2402356","2019-01-20 03:00","2019","01","20","03:00"
"-81.24","68.78","HALL BEACH A","2402356","2019-01-20 04:00","2019","01","20","04:00"
"-81.24","68.78","HALL BEACH A","2402356","2019-01-20 05:00","2019","01","20","05:00"
"-81.24","68.78","HALL BEACH A","2402356","2019-01-20 06:00","2019","01","20","06:00"
"-81.24","68.78","HALL BEACH A","2402356","2019-01-20 07:00","2019","01","20","07:00","-34.0","","-37.7","","70","","","","31","","31","","9.7","","99.64","","","","-51","","Blowing Snow"
"-81.24","68.78","HALL BEACH A","2402356","2019-01-20 08:00","2019","01","20","08:00","-34.4","","-38.1","","70","","","","32","","32","","9.7","","99.62","","","","-52","","Blowing Snow"
"-81.24","68.78","HALL BEACH A","2402356","2019-01-20 09:00","2019","01","20","09:00","-34.9","","-38.7","","69","","","","32","","21","","16.1","","99.64","","","","-50","","Blowing Snow"
"-81.24","68.78","HALL BEACH A","2402356","2019-01-20 10:00","2019","01","20","10:00","-35.4","","-39.2","","69","","","","31","","22","","16.1","","99.68","","","","-51","","Blowing Snow"
"-81.24","68.78","HALL BEACH A","2402356","2019-01-20 11:00","2019","01","20","11:00","-35.6","","-39.5","","68","","","","31","","22","","16.1","","99.66","","","","-51","","Blowing Snow"
"-81.24","68.78","HALL BEACH A","2402356","2019-01-20 12:00","2019","01","20","12:00","-35.3","","-39.1","","69","","","","32","","12","","24.1","","99.71","","","","-47","","NA"
"-81.24","68.78","HALL BEACH A","2402356","2019-01-20 13:00","2019","01","20","13:00","-35.3","","-39.1","","69","","","","30","","29","","11.3","","99.71","","","","-52","","Blowing Snow"
"-81.24","68.78","HALL BEACH A","2402356","2019-01-20 14:00","2019","01","20","14:00","-36.4","","-40.5","","67","","","","31","","16","","16.1","","99.74","","","","-50","","Blowing Snow"
"-81.24","68.78","HALL BEACH A","2402356","2019-01-20 15:00","2019","01","20","15:00","-36.5","","-40.4","","68","","","","30","","19","","16.1","","99.79","","","","-51","","Blowing Snow"
"-81.24","68.78","HALL BEACH A","2402356","2019-01-20 16:00","2019","01","20","16:00","-37.3","","-41.5","","66","","","","30","","9","","16.1","","99.83","","","","-47","","Mainly Clear"
"-81.24","68.78","HALL BEACH A","2402356","2019-01-20 17:00","2019","01","20","17:00","-37.2","","-41.2","","67","","","","28","","7","","16.1","","99.86","","","","-46","","NA"
"-81.24","68.78","HALL BEACH A","2402356","2019-01-20 18:00","2019","01","20","18:00","-36.1","","-39.9","","69","","","","25","","13","","16.1","","99.90","","","","-48","","NA"
"-81.24","68.78","HALL BEACH A","2402356","2019-01-20 19:00","2019","01","20","19:00","-33.9","","-37.6","","70","","","","25","","4","","8.1","","99.89","","","","-39","","Snow"
"-81.24","68.78","HALL BEACH A","2402356","2019-01-20 20:00","2019","01","20","20:00"
"-81.24","68.78","HALL BEACH A","2402356","2019-01-20 21:00","2019","01","20","21:00"
"-81.24","68.78","HALL BEACH A","2402356","2019-01-20 22:00","2019","01","20","22:00"
"-81.24","68.78","HALL BEACH A","2402356","2019-01-20 23:00","2019","01","20","23:00"
"-81.24","68.78","HALL BEACH A","2402356","2019-01-21 00:00","2019","01","21","00:00"
"-81.24","68.78","HALL BEACH A","2402356","2019-01-21 01:00","2019","01","21","01:00"
"-81.24","68.78","HALL BEACH A","2402356","2019-01-21 02:00","2019","01","21","02:00"
"-81.24","68.78","HALL BEACH A","2402356","2019-01-21 03:00","2019","01","21","03:00"
"-81.24","68.78","HALL BEACH A","2402356","2019-01-21 04:00","2019","01","21","04:00"
"-81.24","68.78","HALL BEACH A","2402356","2019-01-21 05:00","2019","01","21","05:00"
"-81.24","68.78","HALL BEACH A","2402356","2019-01-21 06:00","2019","01","21","06:00"
"-81.24","68.78","HALL BEACH A","2402356","2019-01-21 07:00","2019","01","21","07:00","-34.8","","-38.8","","68","","","","24","","10","","16.1","","100.02","","","","-45","","Mainly Clear"
"-81.24","68.78","HALL BEACH A","2402356","2019-01-21 08:00","2019","01","21","08:00","-38.4","","-42.7","","65","","","","25","","9","","16.1","","100.06","","","","-49","","Ice Crystals"
"-81.24","68.78","HALL BEACH A","2402356","2019-01-21 09:00","2019","01","21","09:00","-38.3","","-42.5","","66","","","","31","","20","","16.1","","100.10","","","","-54","","Ice Crystals,Blowing Snow"
"-81.24","68.78","HALL BEACH A","2402356","2019-01-21 10:00","2019","01","21","10:00","-39.5","","-43.9","","64","","","","32","","19","","16.1","","100.13","","","","-55","","Ice Crystals,Blowing Snow"
"-81.24","68.78","HALL BEACH A","2402356","2019-01-21 11:00","2019","01","21","11:00","-39.9","","-44.3","","64","","","","31","","22","","24.1","","100.18","","","","-56","","Blowing Snow"
"-81.24","68.78","HALL BEACH A","2402356","2019-01-21 12:00","2019","01","21","12:00","-40.2","","-44.6","","64","","","","32","","22","","24.1","","100.19","","","","-57","","Blowing Snow"
"-81.24","68.78","HALL BEACH A","2402356","2019-01-21 13:00","2019","01","21","13:00","-40.3","","-44.8","","63","","","","33","","20","","24.1","","100.23","","","","-56","","Blowing Snow"
"-81.24","68.78","HALL BEACH A","2402356","2019-01-21 14:00","2019","01","21","14:00","-40.4","","-44.8","","64","","","","32","","21","","24.1","","100.26","","","","-57","","Blowing Snow"
"-81.24","68.78","HALL BEACH A","2402356","2019-01-21 15:00","2019","01","21","15:00","-40.6","","-45.1","","63","","","","32","","21","","16.1","","100.29","","","","-57","","Blowing Snow"
"-81.24","68.78","HALL BEACH A","2402356","2019-01-21 16:00","2019","01","21","16:00","-40.6","","-45.0","","64","","","","32","","23","","16.1","","100.34","","","","-57","","Blowing Snow"
"-81.24","68.78","HALL BEACH A","2402356","2019-01-21 17:00","2019","01","21","17:00","-40.7","","-45.1","","64","","","","33","","23","","16.1","","100.36","","","","-58","","Blowing Snow"
"-81.24","68.78","HALL BEACH A","2402356","2019-01-21 18:00","2019","01","21","18:00","-40.4","","-44.8","","64","","","","32","","23","","16.1","","100.39","","","","-57","","Blowing Snow"
"-81.24","68.78","HALL BEACH A","2402356","2019-01-21 19:00","2019","01","21","19:00","-40.5","","-44.9","","64","","","","32","","23","","16.1","","100.36","","","","-57","","Blowing Snow"
"-81.24","68.78","HALL BEACH A","2402356","2019-01-21 20:00","2019","01","21","20:00"
"-81.24","68.78","HALL BEACH A","2402356","2019-01-21 21:00","2019","01","21","21:00"
"-81.24","68.78","HALL BEACH A","2402356","2019-01-21 22:00","2019","01","21","22:00"
"-81.24","68.78","HALL BEACH A","2402356","2019-01-21 23:00","2019","01","21","23:00"
"-81.24","68.78","HALL BEACH A","2402356","2019-01-22 00:00","2019","01","22","00:00"
"-81.24","68.78","HALL BEACH A","2402356","2019-01-22 01:00","2019","01","22","01:00"
"-81.24","68.78","HALL BEACH A","2402356","2019-01-22 02:00","2019","01","22","02:00"
"-81.24","68.78","HALL BEACH A","2402356","2019-01-22 03:00","2019","01","22","03:00"
"-81.24","68.78","HALL BEACH A","2402356","2019-01-22 04:00","2019","01","22","04:00"
"-81.24","68.78","HALL BEACH A","2402356","2019-01-22 05:00","2019","01","22","05:00"
"-81.24","68.78","HALL BEACH A","2402356","2019-01-22 06:00","2019","01","22","06:00"
"-81.24","68.78","HALL BEACH A","2402356","2019-01-22 07:00","2019","01","22","07:00","-36.3","","-40.2","","68","","","","31","","25","","16.1","","100.23","","","","-53","","Blowing Snow"
"-81.24","68.78","HALL BEACH A","2402356","2019-01-22 08:00","2019","01","22","08:00","-36.1","","-40.0","","68","","","","31","","27","","14.5","","100.19","","","","-53","","Snow,Blowing Snow"
"-81.24","68.78","HALL BEACH A","2402356","2019-01-22 09:00","2019","01","22","09:00","-36.1","","-40.0","","68","","","","31","","26","","4.0","","100.18","","","","-53","","Snow,Blowing Snow"
"-81.24","68.78","HALL BEACH A","2402356","2019-01-22 10:00","2019","01","22","10:00","-35.7","","-39.6","","68","","","","31","","27","","4.0","","100.14","","","","-52","","Heavy Ice Pellet Showers,Blowing Snow"
"-81.24","68.78","HALL BEACH A","2402356","2019-01-22 11:00","2019","01","22","11:00","-35.8","","-39.8","","68","","","","31","","27","","4.0","","100.12","","","","-52","","Snow,Blowing Snow"
"-81.24","68.78","HALL BEACH A","2402356","2019-01-22 12:00","2019","01","22","12:00","-35.7","","-39.6","","68","","","","31","","30","","4.8","","100.12","","","","-53","","Snow,Blowing Snow"
"-81.24","68.78","HALL BEACH A","2402356","2019-01-22 13:00","2019","01","22","13:00","-35.9","","-39.8","","68","","","","30","","33","","2.4","","100.09","","","","-54","","Snow,Blowing Snow"
"-81.24","68.78","HALL BEACH A","2402356","2019-01-22 14:00","2019","01","22","14:00","-36.3","","-40.2","","68","","","","30","","28","","2.4","","100.09","","","","-53","","Snow,Blowing Snow"
"-81.24","68.78","HALL BEACH A","2402356","2019-01-22 15:00","2019","01","22","15:00","-35.9","","-39.8","","68","","","","30","","33","","2.0","","100.08","","","","-54","","Snow,Blowing Snow"
"-81.24","68.78","HALL BEACH A","2402356","2019-01-22 16:00","2019","01","22","16:00","-35.9","","-39.8","","68","","","","29","","30","","2.0","","100.09","","","","-53","","Snow,Blowing Snow"
"-81.24","68.78","HALL BEACH A","2402356","2019-01-22 17:00","2019","01","22","17:00","-36.6","","-40.7","","67","","","","29","","27","","4.8","","100.12","","","","-53","","Snow,Blowing Snow"
"-81.24","68.78","HALL BEACH A","2402356","2019-01-22 18:00","2019","01","22","18:00","-37.8","","-42.0","","66","","","","27","","22","","16.1","","100.18","","","","-54","","Ice Crystals,Blowing Snow"
"-81.24","68.78","HALL BEACH A","2402356","2019-01-22 19:00","2019","01","22","19:00","-38.3","","-42.6","","65","","","","27","","23","","16.1","","100.21","","","","-55","","Ice Crystals,Blowing Snow"
"-81.24","68.78","HALL BEACH A","2402356","2019-01-22 20:00","2019","01","22","20:00"
"-81.24","68.78","HALL BEACH A","2402356","2019-01-22 21:00","2019","01","22","21:00"
"-81.24","68.78","HALL BEACH A","2402356","2019-01-22 22:00","2019","01","22","22:00"
"-81.24","68.78","HALL BEACH A","2402356","2019-01-22 23:00","2019","01","22","23:00"
"-81.24","68.78","HALL BEACH A","2402356","2019-01-23 00:00","2019","01","23","00:00"
"-81.24","68.78","HALL BEACH A","2402356","2019-01-23 01:00","2019","01","23","01:00"
"-81.24","68.78","HALL BEACH A","2402356","2019-01-23 02:00","2019","01","23","02:00"
"-81.24","68.78","HALL BEACH A","2402356","2019-01-23 03:00","2019","01","23","03:00"
"-81.24","68.78","HALL BEACH A","2402356","2019-01-23 04:00","2019","01","23","04:00"
"-81.24","68.78","HALL BEACH A","2402356","2019-01-23 05:00","2019","01","23","05:00"
"-81.24","68.78","HALL BEACH A","2402356","2019-01-23 06:00","2019","01","23","06:00"
"-81.24","68.78","HALL BEACH A","2402356","2019-01-23 07:00","2019","01","23","07:00","-40.9","","-45.3","","64","","","","29","","14","","16.1","","100.39","","","","-54","","Ice Crystals"
"-81.24","68.78","HALL BEACH A","2402356","2019-01-23 08:00","2019","01","23","08:00","-41.8","","-46.4","","62","","","","32","","13","","16.1","","100.37","","","","-55","","Ice Crystals"
"-81.24","68.78","HALL BEACH A","2402356","2019-01-23 09:00","2019","01","23","09:00","-41.6","","-46.2","","62","","","","32","","11","","16.1","","100.36","","","","-54","","Ice Crystals"
"-81.24","68.78","HALL BEACH A","2402356","2019-01-23 10:00","2019","01","23","10:00","-41.2","","-45.9","","62","","","","30","","10","","16.1","","100.39","","","","-53","","Ice Crystals"
"-81.24","68.78","HALL BEACH A","2402356","2019-01-23 11:00","2019","01","23","11:00","-42.7","","-47.5","","61","","","","32","","11","","16.1","","100.44","","","","-55","","Ice Crystals"
"-81.24","68.78","HALL BEACH A","2402356","2019-01-23 12:00","2019","01","23","12:00","-40.1","","-44.5","","64","","","","33","","16","","16.1","","100.45","","","","-54","","Ice Crystals"
"-81.24","68.78","HALL BEACH A","2402356","2019-01-23 13:00","2019","01","23","13:00","-39.1","","-43.4","","65","","","","32","","13","","1.6","","100.50","","","","-52","","Ice Crystals,Fog"
"-81.24","68.78","HALL BEACH A","2402356","2019-01-23 14:00","2019","01","23","14:00","-39.2","","-43.6","","64","","","","32","","13","","1.6","","100.57","","","","-52","","Ice Crystals,Fog"
"-81.24","68.78","HALL BEACH A","2402356","2019-01-23 15:00","2019","01","23","15:00","-39.2","","-43.5","","65","","","","33","","10","","1.6","","100.63","","","","-50","","Ice Crystals,Fog"
"-81.24","68.78","HALL BEACH A","2402356","2019-01-23 16:00","2019","01","23","16:00","-39.9","","-44.3","","64","","","","35","","12","","2.4","","100.64","","","","-52","","Ice Crystals,Fog"
"-81.24","68.78","HALL BEACH A","2402356","2019-01-23 17:00","2019","01","23","17:00","-40.1","","-44.6","","63","","","","35","","13","","2.4","","100.69","","","","-53","","Ice Crystals,Fog,Haze"
"-81.24","68.78","HALL BEACH A","2402356","2019-01-23 18:00","2019","01","23","18:00","-38.9","","-42.9","","67","","","","36","","3","","4.8","","100.70","","","","-43","","Ice Crystals,Fog"
"-81.24","68.78","HALL BEACH A","2402356","2019-01-23 19:00","2019","01","23","19:00","-34.8","","-38.8","","68","","","","15","","17","","9.7","","100.75","","","","-48","","Ice Crystals,Fog"
"-81.24","68.78","HALL BEACH A","2402356","2019-01-23 20:00","2019","01","23","20:00"
"-81.24","68.78","HALL BEACH A","2402356","2019-01-23 21:00","2019","01","23","21:00"
"-81.24","68.78","HALL BEACH A","2402356","2019-01-23 22:00","2019","01","23","22:00"
"-81.24","68.78","HALL BEACH A","2402356","2019-01-23 23:00","2019","01","23","23:00"
"-81.24","68.78","HALL BEACH A","2402356","2019-01-24 00:00","2019","01","24","00:00"
"-81.24","68.78","HALL BEACH A","2402356","2019-01-24 01:00","2019","01","24","01:00"
"-81.24","68.78","HALL BEACH A","2402356","2019-01-24 02:00","2019","01","24","02:00"
"-81.24","68.78","HALL BEACH A","2402356","2019-01-24 03:00","2019","01","24","03:00"
"-81.24","68.78","HALL BEACH A","2402356","2019-01-24 04:00","2019","01","24","04:00"
"-81.24","68.78","HALL BEACH A","2402356","2019-01-24 05:00","2019","01","24","05:00"
"-81.24","68.78","HALL BEACH A","2402356","2019-01-24 06:00","2019","01","24","06:00"
"-81.24","68.78","HALL BEACH A","2402356","2019-01-24 07:00","2019","01","24","07:00","-34.9","","-38.9","","68","","","","16","","10","","16.1","","101.27","","","","-45","","Ice Crystals"
"-81.24","68.78","HALL BEACH A","2402356","2019-01-24 08:00","2019","01","24","08:00","-34.7","","-38.5","","70","","","","14","","11","","16.1","","101.31","","","","-45","","Ice Crystals"
"-81.24","68.78","HALL BEACH A","2402356","2019-01-24 09:00","2019","01","24","09:00","-33.3","","-36.8","","72","","","","14","","3","","16.1","","101.37","","","","-37","","Ice Crystals"
"-81.24","68.78","HALL BEACH A","2402356","2019-01-24 10:00","2019","01","24","10:00","-42.3","","-46.9","","62","","","","36","","8","","4.8","","101.41","","","","-52","","Ice Crystals,Fog"
"-81.24","68.78","HALL BEACH A","2402356","2019-01-24 11:00","2019","01","24","11:00","-41.9","","-46.5","","62","","","","35","","14","","16.1","","101.42","","","","-56","","Ice Crystals"
"-81.24","68.78","HALL BEACH A","2402356","2019-01-24 12:00","2019","01","24","12:00","-38.4","","-42.6","","66","","","","34","","21","","16.1","","101.46","","","","-54","","Ice Crystals,Blowing Snow"
"-81.24","68.78","HALL BEACH A","2402356","2019-01-24 13:00","2019","01","24","13:00","-37.8","","-42.0","","66","","","","34","","21","","3.2","","101.46","","","","-53","","Ice Crystals,Fog,Blowing Snow"
"-81.24","68.78","HALL BEACH A","2402356","2019-01-24 14:00","2019","01","24","14:00","-38.7","","-43.0","","65","","","","34","","23","","9.7","","101.47","","","","-55","","Ice Crystals,Fog"
"-81.24","68.78","HALL BEACH A","2402356","2019-01-24 15:00","2019","01","24","15:00","-38.0","","-42.2","","66","","","","34","","19","","4.0","","101.47","","","","-53","","Ice Crystals,Fog"
"-81.24","68.78","HALL BEACH A","2402356","2019-01-24 16:00","2019","01","24","16:00","-37.6","","-41.8","","66","","","","35","","22","","4.0","","101.51","","","","-53","","Ice Crystals,Fog"
"-81.24","68.78","HALL BEACH A","2402356","2019-01-24 17:00","2019","01","24","17:00","-37.5","","-41.6","","67","","","","35","","21","","4.8","","101.54","","","","-53","","Ice Crystals,Fog,Blowing Snow"
"-81.24","68.78","HALL BEACH A","2402356","2019-01-24 18:00","2019","01","24","18:00","-35.5","","-39.3","","69","","","","35","","20","","4.8","","101.55","","","","-50","","Ice Crystals,Fog,Blowing Snow"
"-81.24","68.78","HALL BEACH A","2402356","2019-01-24 19:00","2019","01","24","19:00","-34.4","","-38.4","","68","","","","35","","24","","4.0","","101.57","","","","-50","","Ice Crystals,Fog,Blowing Snow"
"-81.24","68.78","HALL BEACH A","2402356","2019-01-24 20:00","2019","01","24","20:00"
"-81.24","68.78","HALL BEACH A","2402356","2019-01-24 21:00","2019","01","24","21:00"
"-81.24","68.78","HALL BEACH A","2402356","2019-01-24 22:00","2019","01","24","22:00"
"-81.24","68.78","HALL BEACH A","2402356","2019-01-24 23:00","2019","01","24","23:00"
"-81.24","68.78","HALL BEACH A","2402356","2019-01-25 00:00","2019","01","25","00:00"
"-81.24","68.78","HALL BEACH A","2402356","2019-01-25 01:00","2019","01","25","01:00"
"-81.24","68.78","HALL BEACH A","2402356","2019-01-25 02:00","2019","01","25","02:00"
"-81.24","68.78","HALL BEACH A","2402356","2019-01-25 03:00","2019","01","25","03:00"
"-81.24","68.78","HALL BEACH A","2402356","2019-01-25 04:00","2019","01","25","04:00"
"-81.24","68.78","HALL BEACH A","2402356","2019-01-25 05:00","2019","01","25","05:00"
"-81.24","68.78","HALL BEACH A","2402356","2019-01-25 06:00","2019","01","25","06:00"
"-81.24","68.78","HALL BEACH A","2402356","2019-01-25 07:00","2019","01","25","07:00","-34.2","","-37.9","","70","","","","35","","31","","1.6","","101.46","","","","-51","","Blowing Snow"
"-81.24","68.78","HALL BEACH A","2402356","2019-01-25 08:00","2019","01","25","08:00","-33.8","","-37.5","","70","","","","35","","31","","1.6","","101.48","","","","-51","","Ice Crystals,Blowing Snow"
"-81.24","68.78","HALL BEACH A","2402356","2019-01-25 09:00","2019","01","25","09:00","-34.1","","-37.8","","70","","","","35","","28","","2.4","","101.45","","","","-50","","Ice Crystals,Blowing Snow"
"-81.24","68.78","HALL BEACH A","2402356","2019-01-25 10:00","2019","01","25","10:00","-33.6","","-37.3","","70","","","","35","","29","","1.2","","101.43","","","","-50","","Ice Crystals,Blowing Snow"
"-81.24","68.78","HALL BEACH A","2402356","2019-01-25 11:00","2019","01","25","11:00","-33.9","","-37.6","","70","","","","36","","23","","1.6","","101.45","","","","-49","","Ice Crystals,Blowing Snow"
"-81.24","68.78","HALL BEACH A","2402356","2019-01-25 12:00","2019","01","25","12:00","-26.7","","-29.5","","78","","","","3","","28","","1.6","","101.46","","","","-41","","Ice Crystals,Blowing Snow"
"-81.24","68.78","HALL BEACH A","2402356","2019-01-25 13:00","2019","01","25","13:00","-26.0","","-28.8","","78","","","","3","","27","","4.8","","101.43","","","","-40","","Ice Crystals,Blowing Snow"
"-81.24","68.78","HALL BEACH A","2402356","2019-01-25 14:00","2019","01","25","14:00","-31.1","","-34.9","","70","","","","36","","22","","0.8","","101.45","","","","-45","","Ice Crystals,Blowing Snow,Freezing Fog"
"-81.24","68.78","HALL BEACH A","2402356","2019-01-25 15:00","2019","01","25","15:00","-33.5","","-37.4","","69","","","","35","","27","","0.4","","101.43","","","","-49","","Ice Crystals,Blowing Snow,Freezing Fog"
"-81.24","68.78","HALL BEACH A","2402356","2019-01-25 16:00","2019","01","25","16:00","-34.2","","-37.9","","70","","","","35","","29","","0.8","","101.40","","","","-51","","Ice Crystals,Blowing Snow,Freezing Fog"
"-81.24","68.78","HALL BEACH A","2402356","2019-01-25 17:00","2019","01","25","17:00","-34.1","","-37.8","","70","","","","35","","32","","1.2","","101.37","","","","-51","","Ice Crystals,Blowing Snow"
"-81.24","68.78","HALL BEACH A","2402356","2019-01-25 18:00","2019","01","25","18:00","-34.0","","-37.7","","70","","","","35","","32","","1.6","","101.35","","","","-51","","Ice Crystals,Blowing Snow"
"-81.24","68.78","HALL BEACH A","2402356","2019-01-25 19:00","2019","01","25","19:00","-34.2","","-37.9","","70","","","","35","","33","","1.6","","101.37","","","","-52","","Ice Crystals,Blowing Snow"
"-81.24","68.78","HALL BEACH A","2402356","2019-01-25 20:00","2019","01","25","20:00"
"-81.24","68.78","HALL BEACH A","2402356","2019-01-25 21:00","2019","01","25","21:00"
"-81.24","68.78","HALL BEACH A","2402356","2019-01-25 22:00","2019","01","25","22:00"
"-81.24","68.78","HALL BEACH A","2402356","2019-01-25 23:00","2019","01","25","23:00"
"-81.24","68.78","HALL BEACH A","2402356","2019-01-26 00:00","2019","01","26","00:00"
"-81.24","68.78","HALL BEACH A","2402356","2019-01-26 01:00","2019","01","26","01:00"
"-81.24","68.78","HALL BEACH A","2402356","2019-01-26 02:00","2019","01","26","02:00"
"-81.24","68.78","HALL BEACH A","2402356","2019-01-26 03:00","2019","01","26","03:00"
"-81.24","68.78","HALL BEACH A","2402356","2019-01-26 04:00","2019","01","26","04:00"
"-81.24","68.78","HALL BEACH A","2402356","2019-01-26 05:00","2019","01","26","05:00"
"-81.24","68.78","HALL BEACH A","2402356","2019-01-26 06:00","2019","01","26","06:00"
"-81.24","68.78","HALL BEACH A","2402356","2019-01-26 07:00","2019","01","26","07:00","-32.4","","-35.9","","72","","","","34","","34","","4.8","","100.98","","","","-50","","Blowing Snow"
"-81.24","68.78","HALL BEACH A","2402356","2019-01-26 08:00","2019","01","26","08:00","-33.4","","-37.0","","71","","","","34","","28","","4.8","","100.90","","","","-50","","Blowing Snow"
"-81.24","68.78","HALL BEACH A","2402356","2019-01-26 09:00","2019","01","26","09:00","-32.8","","-36.4","","71","","","","34","","33","","3.2","","100.87","","","","-50","","Blowing Snow"
"-81.24","68.78","HALL BEACH A","2402356","2019-01-26 10:00","2019","01","26","10:00","-32.7","","-36.3","","71","","","","34","","32","","4.8","","100.85","","","","-50","","Blowing Snow"
"-81.24","68.78","HALL BEACH A","2402356","2019-01-26 11:00","2019","01","26","11:00","-33.2","","-36.9","","70","","","","34","","29","","4.8","","100.84","","","","-50","","Blowing Snow"
"-81.24","68.78","HALL BEACH A","2402356","2019-01-26 12:00","2019","01","26","12:00","-33.0","","-36.6","","71","","","","34","","31","","4.8","","100.76","","","","-50","","Blowing Snow"
"-81.24","68.78","HALL BEACH A","2402356","2019-01-26 13:00","2019","01","26","13:00","-33.2","","-36.8","","71","","","","34","","32","","4.8","","100.72","","","","-50","","Blowing Snow"
"-81.24","68.78","HALL BEACH A","2402356","2019-01-26 14:00","2019","01","26","14:00","-33.0","","-36.6","","71","","","","34","","27","","16.1","","100.68","","","","-49","","Blowing Snow"
"-81.24","68.78","HALL BEACH A","2402356","2019-01-26 15:00","2019","01","26","15:00","-32.8","","-36.4","","71","","","","34","","28","","9.7","","100.65","","","","-49","","Blowing Snow"
"-81.24","68.78","HALL BEACH A","2402356","2019-01-26 16:00","2019","01","26","16:00","-32.8","","-36.4","","71","","","","34","","34","","6.4","","100.60","","","","-50","","Blowing Snow"
"-81.24","68.78","HALL BEACH A","2402356","2019-01-26 17:00","2019","01","26","17:00","-32.6","","-36.1","","72","","","","34","","29","","9.7","","100.62","","","","-49","","Blowing Snow"
"-81.24","68.78","HALL BEACH A","2402356","2019-01-26 18:00","2019","01","26","18:00","-33.3","","-37.0","","70","","","","33","","26","","19.3","","100.56","","","","-49","","Blowing Snow"
"-81.24","68.78","HALL BEACH A","2402356","2019-01-26 19:00","2019","01","26","19:00","-34.5","","-38.3","","69","","","","32","","27","","19.3","","100.55","","","","-51","","Blowing Snow"
"-81.24","68.78","HALL BEACH A","2402356","2019-01-26 20:00","2019","01","26","20:00"
"-81.24","68.78","HALL BEACH A","2402356","2019-01-26 21:00","2019","01","26","21:00"
"-81.24","68.78","HALL BEACH A","2402356","2019-01-26 22:00","2019","01","26","22:00"
"-81.24","68.78","HALL BEACH A","2402356","2019-01-26 23:00","2019","01","26","23:00"
"-81.24","68.78","HALL BEACH A","2402356","2019-01-27 00:00","2019","01","27","00:00"
"-81.24","68.78","HALL BEACH A","2402356","2019-01-27 01:00","2019","01","27","01:00"
"-81.24","68.78","HALL BEACH A","2402356","2019-01-27 02:00","2019","01","27","02:00"
"-81.24","68.78","HALL BEACH A","2402356","2019-01-27 03:00","2019","01","27","03:00"
"-81.24","68.78","HALL BEACH A","2402356","2019-01-27 04:00","2019","01","27","04:00"
"-81.24","68.78","HALL BEACH A","2402356","2019-01-27 05:00","2019","01","27","05:00"
"-81.24","68.78","HALL BEACH A","2402356","2019-01-27 06:00","2019","01","27","06:00"
"-81.24","68.78","HALL BEACH A","2402356","2019-01-27 07:00","2019","01","27","07:00","-34.8","","-38.6","","69","","","","32","","27","","16.1","","100.35","","","","-51","","Blowing Snow"
"-81.24","68.78","HALL BEACH A","2402356","2019-01-27 08:00","2019","01","27","08:00","-35.0","","-38.8","","69","","","","32","","30","","9.7","","100.32","","","","-52","","Blowing Snow"
"-81.24","68.78","HALL BEACH A","2402356","2019-01-27 09:00","2019","01","27","09:00","-35.2","","-39.0","","69","","","","32","","34","","3.2","","100.38","","","","-53","","Ice Crystals,Blowing Snow"
"-81.24","68.78","HALL BEACH A","2402356","2019-01-27 10:00","2019","01","27","10:00","-35.3","","-39.1","","69","","","","32","","34","","2.0","","100.36","","","","-53","","Ice Crystals,Blowing Snow"
"-81.24","68.78","HALL BEACH A","2402356","2019-01-27 11:00","2019","01","27","11:00","-34.8","","-38.6","","69","","","","32","","34","","1.6","","100.34","","","","-53","","Ice Crystals,Blowing Snow"
"-81.24","68.78","HALL BEACH A","2402356","2019-01-27 12:00","2019","01","27","12:00","-34.4","","-38.2","","69","","","","32","","31","","2.4","","100.39","","","","-52","","Ice Crystals,Blowing Snow"
"-81.24","68.78","HALL BEACH A","2402356","2019-01-27 13:00","2019","01","27","13:00","-34.0","","-37.7","","70","","","","32","","31","","4.8","","100.39","","","","-51","","Ice Crystals,Blowing Snow"
"-81.24","68.78","HALL BEACH A","2402356","2019-01-27 14:00","2019","01","27","14:00","-33.6","","-37.3","","70","","","","32","","29","","4.8","","100.41","","","","-50","","Ice Crystals,Blowing Snow"
"-81.24","68.78","HALL BEACH A","2402356","2019-01-27 15:00","2019","01","27","15:00","-33.3","","-36.9","","71","","","","32","","30","","16.1","","100.45","","","","-50","","Ice Crystals,Blowing Snow"
"-81.24","68.78","HALL BEACH A","2402356","2019-01-27 16:00","2019","01","27","16:00","-33.0","","-36.6","","71","","","","32","","38","","3.2","","100.40","","","","-51","","Ice Crystals,Blowing Snow"
"-81.24","68.78","HALL BEACH A","2402356","2019-01-27 17:00","2019","01","27","17:00","-32.7","","-36.3","","71","","","","32","","36","","2.8","","100.40","","","","-50","","Ice Crystals,Blowing Snow"
"-81.24","68.78","HALL BEACH A","2402356","2019-01-27 18:00","2019","01","27","18:00","-32.4","","-35.9","","72","","","","33","","29","","6.4","","100.49","","","","-49","","Ice Crystals,Blowing Snow"
"-81.24","68.78","HALL BEACH A","2402356","2019-01-27 19:00","2019","01","27","19:00","-32.4","","-36.0","","71","","","","32","","30","","16.1","","100.56","","","","-49","","Ice Crystals,Blowing Snow"
"-81.24","68.78","HALL BEACH A","2402356","2019-01-27 20:00","2019","01","27","20:00"
"-81.24","68.78","HALL BEACH A","2402356","2019-01-27 21:00","2019","01","27","21:00"
"-81.24","68.78","HALL BEACH A","2402356","2019-01-27 22:00","2019","01","27","22:00"
"-81.24","68.78","HALL BEACH A","2402356","2019-01-27 23:00","2019","01","27","23:00"
"-81.24","68.78","HALL BEACH A","2402356","2019-01-28 00:00","2019","01","28","00:00"
"-81.24","68.78","HALL BEACH A","2402356","2019-01-28 01:00","2019","01","28","01:00"
"-81.24","68.78","HALL BEACH A","2402356","2019-01-28 02:00","2019","01","28","02:00"
"-81.24","68.78","HALL BEACH A","2402356","2019-01-28 03:00","2019","01","28","03:00"
"-81.24","68.78","HALL BEACH A","2402356","2019-01-28 04:00","2019","01","28","04:00"
"-81.24","68.78","HALL BEACH A","2402356","2019-01-28 05:00","2019","01","28","05:00"
"-81.24","68.78","HALL BEACH A","2402356","2019-01-28 06:00","2019","01","28","06:00"
"-81.24","68.78","HALL BEACH A","2402356","2019-01-28 07:00","2019","01","28","07:00","-30.9","","-34.3","","73","","","","32","","33","","2.0","","100.79","","","","-47","","Snow,Blowing Snow"
"-81.24","68.78","HALL BEACH A","2402356","2019-01-28 08:00","2019","01","28","08:00","-30.8","","-34.2","","73","","","","33","","34","","2.4","","100.81","","","","-47","","Snow,Blowing Snow"
"-81.24","68.78","HALL BEACH A","2402356","2019-01-28 09:00","2019","01","28","09:00","-30.5","","-33.7","","74","","","","32","","32","","2.0","","100.88","","","","-47","","Snow,Blowing Snow"
"-81.24","68.78","HALL BEACH A","2402356","2019-01-28 10:00","2019","01","28","10:00","-30.2","","-33.4","","74","","","","32","","30","","2.0","","100.91","","","","-46","","Snow,Blowing Snow"
"-81.24","68.78","HALL BEACH A","2402356","2019-01-28 11:00","2019","01","28","11:00","-30.6","","-34.0","","73","","","","33","","31","","3.2","","100.94","","","","-47","","Snow,Blowing Snow"
"-81.24","68.78","HALL BEACH A","2402356","2019-01-28 12:00","2019","01","28","12:00","-30.9","","-34.3","","73","","","","33","","26","","12.9","","101.02","","","","-46","","Blowing Snow"
"-81.24","68.78","HALL BEACH A","2402356","2019-01-28 13:00","2019","01","28","13:00","-30.3","","-33.5","","74","","","","32","","30","","4.8","","101.02","","","","-46","","Blowing Snow"
"-81.24","68.78","HALL BEACH A","2402356","2019-01-28 14:00","2019","01","28","14:00","-30.6","","-33.8","","74","","","","32","","25","","16.1","","101.07","","","","-45","","Ice Crystals,Blowing Snow"
"-81.24","68.78","HALL BEACH A","2402356","2019-01-28 15:00","2019","01","28","15:00","-29.8","","-33.0","","74","","","","32","","27","","4.8","","101.11","","","","-45","","Snow,Blowing Snow"
"-81.24","68.78","HALL BEACH A","2402356","2019-01-28 16:00","2019","01","28","16:00","-29.4","","-32.5","","75","","","","33","","27","","4.8","","101.16","","","","-44","","Snow,Blowing Snow"
"-81.24","68.78","HALL BEACH A","2402356","2019-01-28 17:00","2019","01","28","17:00","-28.5","","-31.5","","76","","","","33","","31","","3.2","","101.23","","","","-44","","Ice Crystals,Blowing Snow"
"-81.24","68.78","HALL BEACH A","2402356","2019-01-28 18:00","2019","01","28","18:00","-27.5","","-30.4","","77","","","","34","","33","","1.0","","101.24","","","","-43","","Ice Crystals,Blowing Snow"
"-81.24","68.78","HALL BEACH A","2402356","2019-01-28 19:00","2019","01","28","19:00","-27.2","","-30.1","","77","","","","34","","35","","0.4","","101.29","","","","-43","","Snow,Blowing Snow"
"-81.24","68.78","HALL BEACH A","2402356","2019-01-28 20:00","2019","01","28","20:00"
"-81.24","68.78","HALL BEACH A","2402356","2019-01-28 21:00","2019","01","28","21:00"
"-81.24","68.78","HALL BEACH A","2402356","2019-01-28 22:00","2019","01","28","22:00"
"-81.24","68.78","HALL BEACH A","2402356","2019-01-28 23:00","2019","01","28","23:00"
"-81.24","68.78","HALL BEACH A","2402356","2019-01-29 00:00","2019","01","29","00:00"
"-81.24","68.78","HALL BEACH A","2402356","2019-01-29 01:00","2019","01","29","01:00"
"-81.24","68.78","HALL BEACH A","2402356","2019-01-29 02:00","2019","01","29","02:00"
"-81.24","68.78","HALL BEACH A","2402356","2019-01-29 03:00","2019","01","29","03:00"
"-81.24","68.78","HALL BEACH A","2402356","2019-01-29 04:00","2019","01","29","04:00"
"-81.24","68.78","HALL BEACH A","2402356","2019-01-29 05:00","2019","01","29","05:00"
"-81.24","68.78","HALL BEACH A","2402356","2019-01-29 06:00","2019","01","29","06:00"
"-81.24","68.78","HALL BEACH A","2402356","2019-01-29 07:00","2019","01","29","07:00","-25.3","","-27.9","","79","","","","32","","32","","2.0","","101.75","","","","-40","","Ice Crystals,Blowing Snow"
"-81.24","68.78","HALL BEACH A","2402356","2019-01-29 08:00","2019","01","29","08:00","-24.4","","-26.9","","80","","","","33","","29","","2.4","","101.77","","","","-38","","Ice Crystals,Blowing Snow"
"-81.24","68.78","HALL BEACH A","2402356","2019-01-29 09:00","2019","01","29","09:00","-24.2","","-26.7","","80","","","","33","","31","","2.4","","101.79","","","","-38","","Ice Crystals,Blowing Snow"
"-81.24","68.78","HALL BEACH A","2402356","2019-01-29 10:00","2019","01","29","10:00","-24.6","","-27.1","","80","","","","32","","27","","2.4","","101.80","","","","-38","","Ice Crystals,Blowing Snow"
"-81.24","68.78","HALL BEACH A","2402356","2019-01-29 11:00","2019","01","29","11:00","-24.3","","-26.7","","81","","","","32","","26","","1.2","","101.81","","","","-37","","Snow,Fog,Blowing Snow"
"-81.24","68.78","HALL BEACH A","2402356","2019-01-29 12:00","2019","01","29","12:00","-23.5","","-25.9","","81","","","","33","","33","","0.4","","101.81","","","","-38","","Snow,Blowing Snow,Freezing Fog"
"-81.24","68.78","HALL BEACH A","2402356","2019-01-29 13:00","2019","01","29","13:00","-23.7","","-26.2","","80","","","","33","","32","","0.4","","101.81","","","","-38","","Snow,Blowing Snow,Freezing Fog"
"-81.24","68.78","HALL BEACH A","2402356","2019-01-29 14:00","2019","01","29","14:00","-23.9","","-26.4","","80","","","","33","","30","","0.6","","101.82","","","","-38","","Snow,Blowing Snow"
"-81.24","68.78","HALL BEACH A","2402356","2019-01-29 15:00","2019","01","29","15:00","-24.1","","-26.6","","80","","","","33","","32","","0.4","","101.84","","","","-38","","Snow,Blowing Snow"
"-81.24","68.78","HALL BEACH A","2402356","2019-01-29 16:00","2019","01","29","16:00","-24.2","","-26.7","","80","","","","33","","31","","0.2","","101.86","","","","-38","","Snow,Blowing Snow,Freezing Fog"
"-81.24","68.78","HALL BEACH A","2402356","2019-01-29 17:00","2019","01","29","17:00","-26.0","","-28.8","","78","","","","32","","32","","0.4","","101.87","","","","-41","","Snow,Blowing Snow,Freezing Fog"
"-81.24","68.78","HALL BEACH A","2402356","2019-01-29 18:00","2019","01","29","18:00","-27.7","","-30.6","","77","","","","32","","32","","0.4","","101.88","","","","-43","","Snow,Blowing Snow,Freezing Fog"
"-81.24","68.78","HALL BEACH A","2402356","2019-01-29 19:00","2019","01","29","19:00","-28.2","","-31.2","","76","","","","32","","38","","0.4","","101.90","","","","-45","","Snow,Blowing Snow,Freezing Fog"
"-81.24","68.78","HALL BEACH A","2402356","2019-01-29 20:00","2019","01","29","20:00"
"-81.24","68.78","HALL BEACH A","2402356","2019-01-29 21:00","2019","01","29","21:00"
"-81.24","68.78","HALL BEACH A","2402356","2019-01-29 22:00","2019","01","29","22:00"
"-81.24","68.78","HALL BEACH A","2402356","2019-01-29 23:00","2019","01","29","23:00"
"-81.24","68.78","HALL BEACH A","2402356","2019-01-30 00:00","2019","01","30","00:00"
"-81.24","68.78","HALL BEACH A","2402356","2019-01-30 01:00","2019","01","30","01:00"
"-81.24","68.78","HALL BEACH A","2402356","2019-01-30 02:00","2019","01","30","02:00"
"-81.24","68.78","HALL BEACH A","2402356","2019-01-30 03:00","2019","01","30","03:00"
"-81.24","68.78","HALL BEACH A","2402356","2019-01-30 04:00","2019","01","30","04:00"
"-81.24","68.78","HALL BEACH A","2402356","2019-01-30 05:00","2019","01","30","05:00"
"-81.24","68.78","HALL BEACH A","2402356","2019-01-30 06:00","2019","01","30","06:00"
"-81.24","68.78","HALL BEACH A","2402356","2019-01-30 07:00","2019","01","30","07:00","-32.5","","-36.0","","72","","","","31","","24","","16.1","","102.07","","","","-47","","Ice Crystals,Blowing Snow"
"-81.24","68.78","HALL BEACH A","2402356","2019-01-30 08:00","2019","01","30","08:00","-33.6","","-37.2","","71","","","","32","","22","","19.3","","102.08","","","","-48","","Ice Crystals,Blowing Snow"
"-81.24","68.78","HALL BEACH A","2402356","2019-01-30 09:00","2019","01","30","09:00","-34.0","","-37.7","","70","","","","31","","22","","19.3","","102.16","","","","-49","","Ice Crystals,Blowing Snow"
"-81.24","68.78","HALL BEACH A","2402356","2019-01-30 10:00","2019","01","30","10:00","-33.3","","-36.9","","71","","","","31","","23","","19.3","","102.14","","","","-48","","Ice Crystals,Blowing Snow"
"-81.24","68.78","HALL BEACH A","2402356","2019-01-30 11:00","2019","01","30","11:00","-32.6","","-36.1","","72","","","","30","","18","","16.1","","102.16","","","","-46","","NA"
"-81.24","68.78","HALL BEACH A","2402356","2019-01-30 12:00","2019","01","30","12:00","-32.2","","-35.7","","72","","","","29","","16","","19.3","","102.16","","","","-45","","Snow"
"-81.24","68.78","HALL BEACH A","2402356","2019-01-30 13:00","2019","01","30","13:00","-32.2","","-35.7","","72","","","","30","","20","","24.1","","102.21","","","","-46","","Mostly Cloudy"
"-81.24","68.78","HALL BEACH A","2402356","2019-01-30 14:00","2019","01","30","14:00","-33.3","","-37.0","","70","","","","31","","19","","24.1","","102.20","","","","-47","","NA"
"-81.24","68.78","HALL BEACH A","2402356","2019-01-30 15:00","2019","01","30","15:00","-34.4","","-38.1","","70","","","","30","","13","","24.1","","102.25","","","","-46","","NA"
"-81.24","68.78","HALL BEACH A","2402356","2019-01-30 16:00","2019","01","30","16:00","-34.8","","-38.6","","69","","","","30","","18","","24.1","","102.32","","","","-48","","Mainly Clear"
"-81.24","68.78","HALL BEACH A","2402356","2019-01-30 17:00","2019","01","30","17:00","-34.9","","-38.7","","69","","","","30","","14","","24.1","","102.35","","","","-47","","NA"
"-81.24","68.78","HALL BEACH A","2402356","2019-01-30 18:00","2019","01","30","18:00","-35.4","","-39.2","","69","","","","31","","10","","24.1","","102.39","","","","-46","","NA"
"-81.24","68.78","HALL BEACH A","2402356","2019-01-30 19:00","2019","01","30","19:00","-35.0","","-38.8","","69","","","","31","","12","","24.1","","102.39","","","","-46","","Cloudy"
"-81.24","68.78","HALL BEACH A","2402356","2019-01-30 20:00","2019","01","30","20:00"
"-81.24","68.78","HALL BEACH A","2402356","2019-01-30 21:00","2019","01","30","21:00"
"-81.24","68.78","HALL BEACH A","2402356","2019-01-30 22:00","2019","01","30","22:00"
"-81.24","68.78","HALL BEACH A","2402356","2019-01-30 23:00","2019","01","30","23:00"
"-81.24","68.78","HALL BEACH A","2402356","2019-01-31 00:00","2019","01","31","00:00"
"-81.24","68.78","HALL BEACH A","2402356","2019-01-31 01:00","2019","01","31","01:00"
"-81.24","68.78","HALL BEACH A","2402356","2019-01-31 02:00","2019","01","31","02:00"
"-81.24","68.78","HALL BEACH A","2402356","2019-01-31 03:00","2019","01","31","03:00"
"-81.24","68.78","HALL BEACH A","2402356","2019-01-31 04:00","2019","01","31","04:00"
"-81.24","68.78","HALL BEACH A","2402356","2019-01-31 05:00","2019","01","31","05:00"
"-81.24","68.78","HALL BEACH A","2402356","2019-01-31 06:00","2019","01","31","06:00"
"-81.24","68.78","HALL BEACH A","2402356","2019-01-31 07:00","2019","01","31","07:00","-31.9","","-35.4","","72","","","","33","","20","","11.3","","102.36","","","","-45","","Ice Crystals,Blowing Snow"
"-81.24","68.78","HALL BEACH A","2402356","2019-01-31 08:00","2019","01","31","08:00","-31.8","","-35.1","","73","","","","33","","21","","12.9","","102.32","","","","-46","","Ice Crystals,Blowing Snow"
"-81.24","68.78","HALL BEACH A","2402356","2019-01-31 09:00","2019","01","31","09:00","-30.9","","-34.1","","74","","","","33","","23","","12.9","","102.28","","","","-45","","Ice Crystals,Blowing Snow"
"-81.24","68.78","HALL BEACH A","2402356","2019-01-31 10:00","2019","01","31","10:00","-30.0","","-33.2","","74","","","","34","","19","","6.4","","102.26","","","","-43","","Snow,Fog,Blowing Snow"
"-81.24","68.78","HALL BEACH A","2402356","2019-01-31 11:00","2019","01","31","11:00","-29.4","","-32.5","","75","","","","34","","17","","16.1","","102.25","","","","-41","","Snow"
"-81.24","68.78","HALL BEACH A","2402356","2019-01-31 12:00","2019","01","31","12:00","-29.0","","-32.1","","75","","","","34","","17","","8.1","","102.22","","","","-41","","Snow,Fog"
"-81.24","68.78","HALL BEACH A","2402356","2019-01-31 13:00","2019","01","31","13:00","-28.2","","-31.2","","76","","","","35","","12","","9.7","","102.19","","","","-38","","Snow,Fog"
"-81.24","68.78","HALL BEACH A","2402356","2019-01-31 14:00","2019","01","31","14:00","-28.1","","-31.1","","76","","","","34","","12","","6.4","","102.13","","","","-38","","Snow,Fog"
"-81.24","68.78","HALL BEACH A","2402356","2019-01-31 15:00","2019","01","31","15:00","-23.9","","-26.4","","80","","","","6","","17","","12.9","","102.13","","","","-35","","Snow"
"-81.24","68.78","HALL BEACH A","2402356","2019-01-31 16:00","2019","01","31","16:00","-23.7","","-26.1","","81","","","","5","","18","","6.4","","102.09","","","","-35","","Snow,Fog"
"-81.24","68.78","HALL BEACH A","2402356","2019-01-31 17:00","2019","01","31","17:00","-27.7","","-30.6","","77","","","","35","","21","","3.2","","102.07","","","","-40","","Ice Crystals,Fog,Blowing Snow"
"-81.24","68.78","HALL BEACH A","2402356","2019-01-31 18:00","2019","01","31","18:00","-28.1","","-31.1","","76","","","","35","","27","","2.4","","102.04","","","","-42","","Ice Crystals,Blowing Snow"
"-81.24","68.78","HALL BEACH A","2402356","2019-01-31 19:00","2019","01","31","19:00","-30.7","","-34.1","","73","","","","35","","28","","2.4","","102.00","","","","-46","","Ice Crystals,Blowing Snow"
"-81.24","68.78","HALL BEACH A","2402356","2019-01-31 20:00","2019","01","31","20:00"
"-81.24","68.78","HALL BEACH A","2402356","2019-01-31 21:00","2019","01","31","21:00"
"-81.24","68.78","HALL BEACH A","2402356","2019-01-31 22:00","2019","01","31","22:00"
"-81.24","68.78","HALL BEACH A","2402356","2019-01-31 23:00","2019","01","31","23:00"
