"Longitude (x)","Latitude (y)","Station Name","Climate ID","Date/Time (LST)","Year","Month","Day","Time (LST)","Temp (°C)","Temp Flag","Dew Point Temp (°C)","Dew Point Temp Flag","Rel Hum (%)","Rel Hum Flag","Precip. Amount (mm)","Precip. Amount Flag","Wind Dir (10s deg)","Wind Dir Flag","Wind Spd (km/h)","Wind Spd Flag","Visibility (km)","Visibility Flag","Stn Press (kPa)","Stn Press Flag","Hmdx","Hmdx Flag","Wind Chill","Wind Chill Flag","Weather"
"-133.03","69.43","TUKTOYAKTUK A","2203913","2019-01-01 00:00","2019","01","01","00:00"
"-133.03","69.43","TUKTOYAKTUK A","2203913","2019-01-01 01:00","2019","01","01","01:00"
"-133.03","69.43","TUKTOYAKTUK A","2203913","2019-01-01 02:00","2019","01","01","02:00"
"-133.03","69.43","TUKTOYAKTUK A","2203913","2019-01-01 03:00","2019","01","01","03:00"
"-133.03","69.43","TUKTOYAKTUK A","2203913","2019-01-01 04:00","2019","01","01","04:00"
"-133.03","69.43","TUKTOYAKTUK A","2203913","2019-01-01 05:00","2019","01","01","05:00"
"-133.03","69.43","TUKTOYAKTUK A","2203913","2019-01-01 06:00","2019","01","01","06:00"
"-133.03","69.43","TUKTOYAKTUK A","2203913","2019-01-01 07:00","2019","01","01","07:00","-8.4","","-10.2","","87","","","","17","","22","","24.1","","99.02","","","","-16","","NA"
"-133.03","69.43","TUKTOYAKTUK A","2203913","2019-01-01 08:00","2019","01","01","08:00","-8.8","","-10.9","","85","","","","15","","19","","24.1","","98.99","","","","-16","","Mainly Clear"
"-133.03","69.43","TUKTOYAKTUK A","2203913","2019-01-01 09:00","2019","01","01","09:00","-8.6","","-10.3","","87","","","","16","","22","","24.1","","98.98","","","","-16","","NA"
"-133.03","69.43","TUKTOYAKTUK A","2203913","2019-01-01 10:00","2019","01","01","10:00","-9.3","","-11.0","","88","","","","15","","18","","24.1","","98.92","","","","-17","","NA"
"-133.03","69.43","TUKTOYAKTUK A","2203913","2019-01-01 11:00","2019","01","01","11:00","-7.7","","-9.4","","88","","","","15","","16","","24.1","","98.88","","","","-14","","Mostly Cloudy"
"-133.03","69.43","TUKTOYAKTUK A","2203913","2019-01-01 12:00","2019","01","01","12:00","-8.2","","-9.9","","88","","","","15","","19","","24.1","","98.77","","","","-15","","NA"
"-133.03","69.43","TUKTOYAKTUK A","2203913","2019-01-01 13:00","2019","01","01","13:00","-9.6","","-11.1","","89","","","","15","","14","","24.1","","98.68","","","","-16","","NA"
"-133.03","69.43","TUKTOYAKTUK A","2203913","2019-01-01 14:00","2019","01","01","14:00","-10.7","","-12.4","","88","","","","12","","17","","24.1","","98.61","","","","-18","","Mainly Clear"
"-133.03","69.43","TUKTOYAKTUK A","2203913","2019-01-01 15:00","2019","01","01","15:00","-11.2","","-12.7","","89","","","","12","","9","","24.1","","98.55","","","","-16","","NA"
"-133.03","69.43","TUKTOYAKTUK A","2203913","2019-01-01 16:00","2019","01","01","16:00","-11.7","","-13.4","","87","","","","13","","12","","24.1","","98.42","","","","-18","","NA"
"-133.03","69.43","TUKTOYAKTUK A","2203913","2019-01-01 17:00","2019","01","01","17:00","-12.8","","-14.7","","85","","","","12","","16","","24.1","","98.35","","","","-20","","Mainly Clear"
"-133.03","69.43","TUKTOYAKTUK A","2203913","2019-01-01 18:00","2019","01","01","18:00","-12.4","","-14.2","","87","","","","10","","11","","24.1","","98.26","","","","-18","","NA"
"-133.03","69.43","TUKTOYAKTUK A","2203913","2019-01-01 19:00","2019","01","01","19:00","-14.1","","-15.9","","86","","","","10","","9","","24.1","","98.20","","","","-20","","NA"
"-133.03","69.43","TUKTOYAKTUK A","2203913","2019-01-01 20:00","2019","01","01","20:00","-13.9","","-15.9","","85","","","","8","","21","","24.1","","98.11","","","","-23","","Mostly Cloudy"
"-133.03","69.43","TUKTOYAKTUK A","2203913","2019-01-01 21:00","2019","01","01","21:00","-13.7","","-15.7","","85","","","","8","","16","","24.1","","98.01","","","","-22","","NA"
"-133.03","69.43","TUKTOYAKTUK A","2203913","2019-01-01 22:00","2019","01","01","22:00","-13.4","","-15.6","","84","","","","8","","16","","24.1","","97.91","","","","-21","","NA"
"-133.03","69.43","TUKTOYAKTUK A","2203913","2019-01-01 23:00","2019","01","01","23:00","-14.1","","-16.2","","84","","","","9","","10","","24.1","","97.89","","","","-20","","Mainly Clear"
"-133.03","69.43","TUKTOYAKTUK A","2203913","2019-01-02 00:00","2019","01","02","00:00"
"-133.03","69.43","TUKTOYAKTUK A","2203913","2019-01-02 01:00","2019","01","02","01:00"
"-133.03","69.43","TUKTOYAKTUK A","2203913","2019-01-02 02:00","2019","01","02","02:00"
"-133.03","69.43","TUKTOYAKTUK A","2203913","2019-01-02 03:00","2019","01","02","03:00"
"-133.03","69.43","TUKTOYAKTUK A","2203913","2019-01-02 04:00","2019","01","02","04:00"
"-133.03","69.43","TUKTOYAKTUK A","2203913","2019-01-02 05:00","2019","01","02","05:00"
"-133.03","69.43","TUKTOYAKTUK A","2203913","2019-01-02 06:00","2019","01","02","06:00"
"-133.03","69.43","TUKTOYAKTUK A","2203913","2019-01-02 07:00","2019","01","02","07:00","-15.9","","-18.0","","84","","","","5","","12","","24.1","","97.98","","","","-23","","NA"
"-133.03","69.43","TUKTOYAKTUK A","2203913","2019-01-02 08:00","2019","01","02","08:00","-15.6","","-17.7","","84","","","","7","","17","","24.1","","98.06","","","","-24","","Mostly Cloudy"
"-133.03","69.43","TUKTOYAKTUK A","2203913","2019-01-02 09:00","2019","01","02","09:00","-16.5","","-18.7","","83","","","","5","","9","","24.1","","98.11","","","","-23","","NA"
"-133.03","69.43","TUKTOYAKTUK A","2203913","2019-01-02 10:00","2019","01","02","10:00","-14.9","","-16.8","","86","","","","8","","7","","24.1","","98.16","","","","-20","","NA"
"-133.03","69.43","TUKTOYAKTUK A","2203913","2019-01-02 11:00","2019","01","02","11:00","-17.1","","-19.2","","84","","","","2","","10","","24.1","","98.25","","","","-24","","Mostly Cloudy"
"-133.03","69.43","TUKTOYAKTUK A","2203913","2019-01-02 12:00","2019","01","02","12:00","-15.9","","-17.9","","85","","","","4","","14","","24.1","","98.34","","","","-24","","NA"
"-133.03","69.43","TUKTOYAKTUK A","2203913","2019-01-02 13:00","2019","01","02","13:00","-15.2","","-17.0","","86","","","","4","","15","","24.1","","98.42","","","","-23","","NA"
"-133.03","69.43","TUKTOYAKTUK A","2203913","2019-01-02 14:00","2019","01","02","14:00","-13.4","","-15.3","","85","","","","4","","14","","24.1","","98.51","","","","-21","","Mostly Cloudy"
"-133.03","69.43","TUKTOYAKTUK A","2203913","2019-01-02 15:00","2019","01","02","15:00","-12.7","","-14.8","","84","","","","6","","18","","24.1","","98.59","","","","-21","","NA"
"-133.03","69.43","TUKTOYAKTUK A","2203913","2019-01-02 16:00","2019","01","02","16:00","-12.6","","-14.1","","89","","","","4","","14","","9.7","","98.71","","","","-20","","Fog"
"-133.03","69.43","TUKTOYAKTUK A","2203913","2019-01-02 17:00","2019","01","02","17:00","-12.9","","-14.8","","86","","","","4","","13","","24.1","","98.79","","","","-20","","Cloudy"
"-133.03","69.43","TUKTOYAKTUK A","2203913","2019-01-02 18:00","2019","01","02","18:00","-13.4","","-14.9","","89","","","","4","","16","","16.1","","98.87","","","","-21","","NA"
"-133.03","69.43","TUKTOYAKTUK A","2203913","2019-01-02 19:00","2019","01","02","19:00","-13.5","","-14.9","","89","","","","4","","17","","8.1","","98.96","","","","-22","","Snow"
"-133.03","69.43","TUKTOYAKTUK A","2203913","2019-01-02 20:00","2019","01","02","20:00","-14.0","","-15.8","","86","","","","5","","21","","16.1","","99.03","","","","-23","","Snow"
"-133.03","69.43","TUKTOYAKTUK A","2203913","2019-01-02 21:00","2019","01","02","21:00","-14.4","","-16.2","","86","","","","6","","20","","16.1","","99.10","","","","-23","","Snow"
"-133.03","69.43","TUKTOYAKTUK A","2203913","2019-01-02 22:00","2019","01","02","22:00","-16.0","","-18.1","","85","","","","7","","14","","24.1","","99.20","","","","-24","","NA"
"-133.03","69.43","TUKTOYAKTUK A","2203913","2019-01-02 23:00","2019","01","02","23:00","-16.9","","-19.0","","84","","","","8","","10","","24.1","","99.29","","","","-24","","Mainly Clear"
"-133.03","69.43","TUKTOYAKTUK A","2203913","2019-01-03 00:00","2019","01","03","00:00"
"-133.03","69.43","TUKTOYAKTUK A","2203913","2019-01-03 01:00","2019","01","03","01:00"
"-133.03","69.43","TUKTOYAKTUK A","2203913","2019-01-03 02:00","2019","01","03","02:00"
"-133.03","69.43","TUKTOYAKTUK A","2203913","2019-01-03 03:00","2019","01","03","03:00"
"-133.03","69.43","TUKTOYAKTUK A","2203913","2019-01-03 04:00","2019","01","03","04:00"
"-133.03","69.43","TUKTOYAKTUK A","2203913","2019-01-03 05:00","2019","01","03","05:00"
"-133.03","69.43","TUKTOYAKTUK A","2203913","2019-01-03 06:00","2019","01","03","06:00"
"-133.03","69.43","TUKTOYAKTUK A","2203913","2019-01-03 07:00","2019","01","03","07:00","-15.4","","-17.2","","86","","","","14","","8","","8.1","","99.82","","","","-21","","Snow"
"-133.03","69.43","TUKTOYAKTUK A","2203913","2019-01-03 08:00","2019","01","03","08:00","-15.2","","-17.1","","86","","","","15","","7","","9.7","","99.87","","","","-20","","Snow"
"-133.03","69.43","TUKTOYAKTUK A","2203913","2019-01-03 09:00","2019","01","03","09:00","-15.4","","-17.3","","86","","","","15","","8","","4.8","","99.93","","","","-21","","Snow"
"-133.03","69.43","TUKTOYAKTUK A","2203913","2019-01-03 10:00","2019","01","03","10:00","-15.3","","-17.2","","86","","","","16","","9","","4.8","","99.97","","","","-21","","Snow"
"-133.03","69.43","TUKTOYAKTUK A","2203913","2019-01-03 11:00","2019","01","03","11:00","-15.3","","-17.2","","86","","","","18","","10","","9.7","","100.03","","","","-22","","Snow"
"-133.03","69.43","TUKTOYAKTUK A","2203913","2019-01-03 12:00","2019","01","03","12:00","-15.2","","-17.1","","86","","","","17","","9","","9.7","","100.09","","","","-21","","Snow"
"-133.03","69.43","TUKTOYAKTUK A","2203913","2019-01-03 13:00","2019","01","03","13:00","-15.1","","-17.0","","86","","","","17","","7","","9.7","","100.18","","","","-20","","Snow"
"-133.03","69.43","TUKTOYAKTUK A","2203913","2019-01-03 14:00","2019","01","03","14:00","-15.2","","-17.1","","86","","","","21","","9","","9.7","","100.26","","","","-21","","Snow"
"-133.03","69.43","TUKTOYAKTUK A","2203913","2019-01-03 15:00","2019","01","03","15:00","-15.3","","-17.2","","86","","","","19","","4","","9.7","","100.34","","","","-18","","Snow"
"-133.03","69.43","TUKTOYAKTUK A","2203913","2019-01-03 16:00","2019","01","03","16:00","-15.2","","-17.1","","86","","","","34","","3","","9.7","","100.40","","","","-17","","Snow"
"-133.03","69.43","TUKTOYAKTUK A","2203913","2019-01-03 17:00","2019","01","03","17:00","-15.0","","-16.8","","86","","","","33","","4","","12.9","","100.46","","","","-18","","Snow"
"-133.03","69.43","TUKTOYAKTUK A","2203913","2019-01-03 18:00","2019","01","03","18:00","-14.6","","-16.5","","86","","","","35","","6","","16.1","","100.53","","","","-19","","Snow"
"-133.03","69.43","TUKTOYAKTUK A","2203913","2019-01-03 19:00","2019","01","03","19:00","-14.5","","-16.3","","86","","","","32","","8","","4.8","","100.59","","","","-20","","Snow"
"-133.03","69.43","TUKTOYAKTUK A","2203913","2019-01-03 20:00","2019","01","03","20:00","-14.8","","-16.7","","86","","","","29","","12","","6.4","","100.67","","","","-22","","Snow"
"-133.03","69.43","TUKTOYAKTUK A","2203913","2019-01-03 21:00","2019","01","03","21:00","-15.6","","-17.6","","85","","","","27","","10","","9.7","","100.73","","","","-22","","Snow"
"-133.03","69.43","TUKTOYAKTUK A","2203913","2019-01-03 22:00","2019","01","03","22:00","-16.2","","-18.2","","85","","","","26","","12","","16.1","","100.78","","","","-23","","Snow"
"-133.03","69.43","TUKTOYAKTUK A","2203913","2019-01-03 23:00","2019","01","03","23:00","-16.7","","-18.8","","84","","","","31","","11","","16.1","","100.83","","","","-24","","Snow"
"-133.03","69.43","TUKTOYAKTUK A","2203913","2019-01-04 00:00","2019","01","04","00:00"
"-133.03","69.43","TUKTOYAKTUK A","2203913","2019-01-04 01:00","2019","01","04","01:00"
"-133.03","69.43","TUKTOYAKTUK A","2203913","2019-01-04 02:00","2019","01","04","02:00"
"-133.03","69.43","TUKTOYAKTUK A","2203913","2019-01-04 03:00","2019","01","04","03:00"
"-133.03","69.43","TUKTOYAKTUK A","2203913","2019-01-04 04:00","2019","01","04","04:00"
"-133.03","69.43","TUKTOYAKTUK A","2203913","2019-01-04 05:00","2019","01","04","05:00"
"-133.03","69.43","TUKTOYAKTUK A","2203913","2019-01-04 06:00","2019","01","04","06:00"
"-133.03","69.43","TUKTOYAKTUK A","2203913","2019-01-04 07:00","2019","01","04","07:00","-17.3","","-19.4","","84","","","","31","","16","","9.7","","101.18","","","","-26","","Snow"
"-133.03","69.43","TUKTOYAKTUK A","2203913","2019-01-04 08:00","2019","01","04","08:00","-17.2","","-19.3","","84","","","","31","","18","","9.7","","101.22","","","","-26","","Snow"
"-133.03","69.43","TUKTOYAKTUK A","2203913","2019-01-04 09:00","2019","01","04","09:00","-16.8","","-18.9","","84","","","","33","","18","","9.7","","101.23","","","","-26","","Snow"
"-133.03","69.43","TUKTOYAKTUK A","2203913","2019-01-04 10:00","2019","01","04","10:00","-16.6","","-18.7","","84","","","","34","","21","","9.7","","101.26","","","","-26","","Snow"
"-133.03","69.43","TUKTOYAKTUK A","2203913","2019-01-04 11:00","2019","01","04","11:00","-16.4","","-18.5","","84","","","","32","","17","","9.7","","101.29","","","","-25","","Snow"
"-133.03","69.43","TUKTOYAKTUK A","2203913","2019-01-04 12:00","2019","01","04","12:00","-16.2","","-18.3","","84","","","","32","","12","","9.7","","101.31","","","","-23","","Snow"
"-133.03","69.43","TUKTOYAKTUK A","2203913","2019-01-04 13:00","2019","01","04","13:00","-16.3","","-18.4","","84","","","","30","","13","","9.7","","101.34","","","","-24","","Snow"
"-133.03","69.43","TUKTOYAKTUK A","2203913","2019-01-04 14:00","2019","01","04","14:00","-16.4","","-18.5","","84","","","","29","","13","","4.8","","101.34","","","","-24","","Snow"
"-133.03","69.43","TUKTOYAKTUK A","2203913","2019-01-04 15:00","2019","01","04","15:00","-16.4","","-18.5","","84","","","","32","","12","","9.7","","101.35","","","","-24","","Snow"
"-133.03","69.43","TUKTOYAKTUK A","2203913","2019-01-04 16:00","2019","01","04","16:00","-16.1","","-18.1","","84","","","","32","","18","","12.9","","101.37","","","","-25","","Snow"
"-133.03","69.43","TUKTOYAKTUK A","2203913","2019-01-04 17:00","2019","01","04","17:00","-16.1","","-18.2","","84","","","","29","","10","","12.9","","101.40","","","","-23","","Snow"
"-133.03","69.43","TUKTOYAKTUK A","2203913","2019-01-04 18:00","2019","01","04","18:00","-16.3","","-18.4","","84","","","","28","","12","","16.1","","101.42","","","","-24","","Snow"
"-133.03","69.43","TUKTOYAKTUK A","2203913","2019-01-04 19:00","2019","01","04","19:00","-16.4","","-18.5","","84","","","","26","","13","","16.1","","101.44","","","","-24","","Snow"
"-133.03","69.43","TUKTOYAKTUK A","2203913","2019-01-04 20:00","2019","01","04","20:00","-16.5","","-18.7","","84","","","","27","","12","","16.1","","101.44","","","","-24","","Snow"
"-133.03","69.43","TUKTOYAKTUK A","2203913","2019-01-04 21:00","2019","01","04","21:00","-16.1","","-18.3","","84","","","","31","","12","","16.1","","101.44","","","","-23","","Snow"
"-133.03","69.43","TUKTOYAKTUK A","2203913","2019-01-04 22:00","2019","01","04","22:00","-16.4","","-18.6","","84","","","","28","","10","","16.1","","101.45","","","","-23","","Snow"
"-133.03","69.43","TUKTOYAKTUK A","2203913","2019-01-04 23:00","2019","01","04","23:00","-16.4","","-18.7","","83","","","","27","","10","","16.1","","101.47","","","","-23","","Snow"
"-133.03","69.43","TUKTOYAKTUK A","2203913","2019-01-05 00:00","2019","01","05","00:00"
"-133.03","69.43","TUKTOYAKTUK A","2203913","2019-01-05 01:00","2019","01","05","01:00"
"-133.03","69.43","TUKTOYAKTUK A","2203913","2019-01-05 02:00","2019","01","05","02:00"
"-133.03","69.43","TUKTOYAKTUK A","2203913","2019-01-05 03:00","2019","01","05","03:00"
"-133.03","69.43","TUKTOYAKTUK A","2203913","2019-01-05 04:00","2019","01","05","04:00"
"-133.03","69.43","TUKTOYAKTUK A","2203913","2019-01-05 05:00","2019","01","05","05:00"
"-133.03","69.43","TUKTOYAKTUK A","2203913","2019-01-05 06:00","2019","01","05","06:00"
"-133.03","69.43","TUKTOYAKTUK A","2203913","2019-01-05 07:00","2019","01","05","07:00","-18.3","","-20.6","","83","","","","26","","9","","9.7","","101.56","","","","-25","","Snow"
"-133.03","69.43","TUKTOYAKTUK A","2203913","2019-01-05 08:00","2019","01","05","08:00","-18.4","","-20.7","","82","","","","25","","9","","9.7","","101.57","","","","-25","","Snow"
"-133.03","69.43","TUKTOYAKTUK A","2203913","2019-01-05 09:00","2019","01","05","09:00","-18.5","","-20.8","","82","","","","25","","10","","9.7","","101.58","","","","-25","","Snow"
"-133.03","69.43","TUKTOYAKTUK A","2203913","2019-01-05 10:00","2019","01","05","10:00","-18.2","","-20.5","","82","","","","26","","5","","9.7","","101.60","","","","-22","","Snow"
"-133.03","69.43","TUKTOYAKTUK A","2203913","2019-01-05 11:00","2019","01","05","11:00","-18.3","","-20.6","","82","","","","26","","7","","9.7","","101.62","","","","-24","","Snow"
"-133.03","69.43","TUKTOYAKTUK A","2203913","2019-01-05 12:00","2019","01","05","12:00","-18.2","","-20.6","","82","","","","24","","6","","9.7","","101.65","","","","-23","","Snow"
"-133.03","69.43","TUKTOYAKTUK A","2203913","2019-01-05 13:00","2019","01","05","13:00","-18.2","","-20.6","","82","","","","27","","8","","4.8","","101.69","","","","-24","","Snow"
"-133.03","69.43","TUKTOYAKTUK A","2203913","2019-01-05 14:00","2019","01","05","14:00","-18.1","","-20.5","","82","","","","26","","6","","4.8","","101.70","","","","-23","","Snow"
"-133.03","69.43","TUKTOYAKTUK A","2203913","2019-01-05 15:00","2019","01","05","15:00","-18.5","","-20.8","","82","","","","22","","6","","8.1","","101.73","","","","-23","","Snow"
"-133.03","69.43","TUKTOYAKTUK A","2203913","2019-01-05 16:00","2019","01","05","16:00","-18.8","","-21.1","","82","","","","21","","3","","9.7","","101.75","","","","-21","","Snow"
"-133.03","69.43","TUKTOYAKTUK A","2203913","2019-01-05 17:00","2019","01","05","17:00","-18.8","","-21.2","","82","","","","21","","5","","9.7","","101.77","","","","-23","","Snow"
"-133.03","69.43","TUKTOYAKTUK A","2203913","2019-01-05 18:00","2019","01","05","18:00","-18.9","","-21.2","","82","","","","21","","3","","16.1","","101.80","","","","-21","","Snow"
"-133.03","69.43","TUKTOYAKTUK A","2203913","2019-01-05 19:00","2019","01","05","19:00","-19.2","","-21.6","","82","","","","22","","3","","16.1","","101.81","","","","-22","","Snow"
"-133.03","69.43","TUKTOYAKTUK A","2203913","2019-01-05 20:00","2019","01","05","20:00","-19.2","","-21.6","","82","","","","23","","6","","16.1","","101.84","","","","-24","","Snow"
"-133.03","69.43","TUKTOYAKTUK A","2203913","2019-01-05 21:00","2019","01","05","21:00","-18.9","","-21.3","","82","","","","23","","5","","16.1","","101.88","","","","-23","","Snow"
"-133.03","69.43","TUKTOYAKTUK A","2203913","2019-01-05 22:00","2019","01","05","22:00","-19.1","","-21.5","","82","","","","22","","5","","16.1","","101.90","","","","-23","","Snow"
"-133.03","69.43","TUKTOYAKTUK A","2203913","2019-01-05 23:00","2019","01","05","23:00","-19.2","","-21.6","","82","","","","22","","7","","16.1","","101.92","","","","-25","","Snow"
"-133.03","69.43","TUKTOYAKTUK A","2203913","2019-01-06 00:00","2019","01","06","00:00"
"-133.03","69.43","TUKTOYAKTUK A","2203913","2019-01-06 01:00","2019","01","06","01:00"
"-133.03","69.43","TUKTOYAKTUK A","2203913","2019-01-06 02:00","2019","01","06","02:00"
"-133.03","69.43","TUKTOYAKTUK A","2203913","2019-01-06 03:00","2019","01","06","03:00"
"-133.03","69.43","TUKTOYAKTUK A","2203913","2019-01-06 04:00","2019","01","06","04:00"
"-133.03","69.43","TUKTOYAKTUK A","2203913","2019-01-06 05:00","2019","01","06","05:00"
"-133.03","69.43","TUKTOYAKTUK A","2203913","2019-01-06 06:00","2019","01","06","06:00"
"-133.03","69.43","TUKTOYAKTUK A","2203913","2019-01-06 07:00","2019","01","06","07:00","-17.9","","-20.2","","83","","","","25","","9","","9.7","","102.10","","","","-24","","Snow"
"-133.03","69.43","TUKTOYAKTUK A","2203913","2019-01-06 08:00","2019","01","06","08:00","-18.1","","-20.4","","82","","","","23","","7","","9.7","","102.11","","","","-23","","Snow"
"-133.03","69.43","TUKTOYAKTUK A","2203913","2019-01-06 09:00","2019","01","06","09:00","-18.1","","-20.4","","83","","","","36","","1","","6.4","","102.14","","","","-19","","Snow"
"-133.03","69.43","TUKTOYAKTUK A","2203913","2019-01-06 10:00","2019","01","06","10:00","-17.9","","-20.5","","81","","","","8","","13","","8.1","","102.16","","","","-26","","Snow"
"-133.03","69.43","TUKTOYAKTUK A","2203913","2019-01-06 11:00","2019","01","06","11:00","-18.2","","-20.9","","80","","","","36","","3","","9.7","","102.21","","","","-21","","Snow"
"-133.03","69.43","TUKTOYAKTUK A","2203913","2019-01-06 12:00","2019","01","06","12:00","-18.5","","-21.1","","80","","","","3","","8","","8.1","","102.24","","","","-24","","Snow"
"-133.03","69.43","TUKTOYAKTUK A","2203913","2019-01-06 13:00","2019","01","06","13:00","-19.2","","-21.7","","81","","","","5","","8","","8.1","","102.26","","","","-25","","Snow"
"-133.03","69.43","TUKTOYAKTUK A","2203913","2019-01-06 14:00","2019","01","06","14:00","-19.1","","-21.7","","81","","","","5","","12","","8.1","","102.28","","","","-27","","Snow"
"-133.03","69.43","TUKTOYAKTUK A","2203913","2019-01-06 15:00","2019","01","06","15:00","-19.6","","-22.3","","80","","","","5","","13","","9.7","","102.29","","","","-28","","Snow"
"-133.03","69.43","TUKTOYAKTUK A","2203913","2019-01-06 16:00","2019","01","06","16:00","-20.1","","-22.7","","80","","","","7","","10","","9.7","","102.31","","","","-27","","Snow"
"-133.03","69.43","TUKTOYAKTUK A","2203913","2019-01-06 17:00","2019","01","06","17:00","-20.1","","-22.5","","81","","","","10","","5","","9.7","","102.34","","","","-24","","Snow"
"-133.03","69.43","TUKTOYAKTUK A","2203913","2019-01-06 18:00","2019","01","06","18:00","-19.2","","-21.8","","81","","","","5","","11","","12.9","","102.37","","","","-27","","Snow"
"-133.03","69.43","TUKTOYAKTUK A","2203913","2019-01-06 19:00","2019","01","06","19:00","-19.6","","-22.2","","80","","","","3","","13","","12.9","","102.39","","","","-28","","Snow"
"-133.03","69.43","TUKTOYAKTUK A","2203913","2019-01-06 20:00","2019","01","06","20:00","-20.4","","-23.0","","80","","","","6","","8","","16.1","","102.40","","","","-27","","Snow"
"-133.03","69.43","TUKTOYAKTUK A","2203913","2019-01-06 21:00","2019","01","06","21:00","-21.3","","-24.0","","79","","","","36","","1","","12.9","","102.44","","","","-22","","Snow"
"-133.03","69.43","TUKTOYAKTUK A","2203913","2019-01-06 22:00","2019","01","06","22:00","-21.6","","-24.2","","80","","","","36","","2","","16.1","","102.43","","","","-23","","Snow"
"-133.03","69.43","TUKTOYAKTUK A","2203913","2019-01-06 23:00","2019","01","06","23:00","-21.4","","-24.0","","80","","","","36","","2","","12.9","","102.46","","","","-23","","Snow"
"-133.03","69.43","TUKTOYAKTUK A","2203913","2019-01-07 00:00","2019","01","07","00:00"
"-133.03","69.43","TUKTOYAKTUK A","2203913","2019-01-07 01:00","2019","01","07","01:00"
"-133.03","69.43","TUKTOYAKTUK A","2203913","2019-01-07 02:00","2019","01","07","02:00"
"-133.03","69.43","TUKTOYAKTUK A","2203913","2019-01-07 03:00","2019","01","07","03:00"
"-133.03","69.43","TUKTOYAKTUK A","2203913","2019-01-07 04:00","2019","01","07","04:00"
"-133.03","69.43","TUKTOYAKTUK A","2203913","2019-01-07 05:00","2019","01","07","05:00"
"-133.03","69.43","TUKTOYAKTUK A","2203913","2019-01-07 06:00","2019","01","07","06:00"
"-133.03","69.43","TUKTOYAKTUK A","2203913","2019-01-07 07:00","2019","01","07","07:00","-22.2","","-24.7","","81","","","","19","","9","","16.1","","102.59","","","","-29","","Snow"
"-133.03","69.43","TUKTOYAKTUK A","2203913","2019-01-07 08:00","2019","01","07","08:00","-23.0","","-25.5","","80","","","","19","","10","","16.1","","102.60","","","","-31","","Snow"
"-133.03","69.43","TUKTOYAKTUK A","2203913","2019-01-07 09:00","2019","01","07","09:00","-23.0","","-25.5","","80","","","","21","","10","","24.1","","102.64","","","","-31","","Snow"
"-133.03","69.43","TUKTOYAKTUK A","2203913","2019-01-07 10:00","2019","01","07","10:00","-23.8","","-26.4","","79","","","","26","","6","","24.1","","102.67","","","","-29","","Snow"
"-133.03","69.43","TUKTOYAKTUK A","2203913","2019-01-07 11:00","2019","01","07","11:00","-25.1","","-27.6","","80","","","","25","","5","","24.1","","102.69","","","","-30","","Mostly Cloudy"
"-133.03","69.43","TUKTOYAKTUK A","2203913","2019-01-07 12:00","2019","01","07","12:00","-25.5","","-27.8","","81","","","","24","","5","","24.1","","102.73","","","","-31","","NA"
"-133.03","69.43","TUKTOYAKTUK A","2203913","2019-01-07 13:00","2019","01","07","13:00","-26.8","","-29.1","","81","","","","22","","9","","24.1","","102.74","","","","-35","","NA"
"-133.03","69.43","TUKTOYAKTUK A","2203913","2019-01-07 14:00","2019","01","07","14:00","-27.9","","-30.5","","79","","","","23","","10","","24.1","","102.76","","","","-37","","Mostly Cloudy"
"-133.03","69.43","TUKTOYAKTUK A","2203913","2019-01-07 15:00","2019","01","07","15:00","-30.6","","-33.4","","77","","","","23","","6","","24.1","","102.80","","","","-37","","NA"
"-133.03","69.43","TUKTOYAKTUK A","2203913","2019-01-07 16:00","2019","01","07","16:00","-29.7","","-32.4","","78","","","","24","","10","","24.1","","102.81","","","","-39","","NA"
"-133.03","69.43","TUKTOYAKTUK A","2203913","2019-01-07 17:00","2019","01","07","17:00","-30.5","","-33.3","","77","","","","24","","7","","24.1","","102.85","","","","-38","","Mainly Clear"
"-133.03","69.43","TUKTOYAKTUK A","2203913","2019-01-07 18:00","2019","01","07","18:00","-29.4","","-32.3","","77","","","","25","","9","","16.1","","102.87","","","","-38","","NA"
"-133.03","69.43","TUKTOYAKTUK A","2203913","2019-01-07 19:00","2019","01","07","19:00","-28.7","","-31.7","","76","","","","26","","5","","16.1","","102.88","","","","-34","","NA"
"-133.03","69.43","TUKTOYAKTUK A","2203913","2019-01-07 20:00","2019","01","07","20:00","-28.4","","-31.3","","77","","","","26","","8","","12.9","","102.89","","","","-36","","Cloudy"
"-133.03","69.43","TUKTOYAKTUK A","2203913","2019-01-07 21:00","2019","01","07","21:00","-28.3","","-31.3","","77","","","","25","","5","","16.1","","102.89","","","","-34","","NA"
"-133.03","69.43","TUKTOYAKTUK A","2203913","2019-01-07 22:00","2019","01","07","22:00","-28.0","","-30.9","","77","","","","25","","6","","16.1","","102.90","","","","-34","","NA"
"-133.03","69.43","TUKTOYAKTUK A","2203913","2019-01-07 23:00","2019","01","07","23:00","-28.0","","-30.9","","76","","","","21","","7","","16.1","","102.91","","","","-35","","Mostly Cloudy"
"-133.03","69.43","TUKTOYAKTUK A","2203913","2019-01-08 00:00","2019","01","08","00:00"
"-133.03","69.43","TUKTOYAKTUK A","2203913","2019-01-08 01:00","2019","01","08","01:00"
"-133.03","69.43","TUKTOYAKTUK A","2203913","2019-01-08 02:00","2019","01","08","02:00"
"-133.03","69.43","TUKTOYAKTUK A","2203913","2019-01-08 03:00","2019","01","08","03:00"
"-133.03","69.43","TUKTOYAKTUK A","2203913","2019-01-08 04:00","2019","01","08","04:00"
"-133.03","69.43","TUKTOYAKTUK A","2203913","2019-01-08 05:00","2019","01","08","05:00"
"-133.03","69.43","TUKTOYAKTUK A","2203913","2019-01-08 06:00","2019","01","08","06:00"
"-133.03","69.43","TUKTOYAKTUK A","2203913","2019-01-08 07:00","2019","01","08","07:00","-30.2","","-33.4","","75","","","","17","","5","","2.0","","103.01","","","","-36","","Fog"
"-133.03","69.43","TUKTOYAKTUK A","2203913","2019-01-08 08:00","2019","01","08","08:00","-30.3","","-33.5","","74","","","","17","","5","","1.6","","103.03","","","","-36","","Fog"
"-133.03","69.43","TUKTOYAKTUK A","2203913","2019-01-08 09:00","2019","01","08","09:00","-31.6","","-34.9","","74","","","","11","","7","","4.8","","103.00","","","","-39","","Fog"
"-133.03","69.43","TUKTOYAKTUK A","2203913","2019-01-08 10:00","2019","01","08","10:00","-32.8","","-36.2","","73","","","","17","","7","","11.3","","103.01","","","","-41","","NA"
"-133.03","69.43","TUKTOYAKTUK A","2203913","2019-01-08 11:00","2019","01","08","11:00","-32.8","","-36.2","","73","","","","18","","7","","16.1","","103.02","","","","-41","","Mainly Clear"
"-133.03","69.43","TUKTOYAKTUK A","2203913","2019-01-08 12:00","2019","01","08","12:00","-33.0","","-36.3","","73","","","","16","","7","","16.1","","103.03","","","","-41","","NA"
"-133.03","69.43","TUKTOYAKTUK A","2203913","2019-01-08 13:00","2019","01","08","13:00","-34.0","","-37.4","","72","","","","16","","5","","16.1","","103.05","","","","-40","","NA"
"-133.03","69.43","TUKTOYAKTUK A","2203913","2019-01-08 14:00","2019","01","08","14:00","-34.9","","-38.3","","72","","","","10","","5","","24.1","","103.05","","","","-41","","Clear"
"-133.03","69.43","TUKTOYAKTUK A","2203913","2019-01-08 15:00","2019","01","08","15:00","-35.1","","-38.6","","71","","","","13","","5","","24.1","","103.05","","","","-41","","NA"
"-133.03","69.43","TUKTOYAKTUK A","2203913","2019-01-08 16:00","2019","01","08","16:00","-34.7","","-38.2","","72","","","","13","","5","","24.1","","103.05","","","","-41","","NA"
"-133.03","69.43","TUKTOYAKTUK A","2203913","2019-01-08 17:00","2019","01","08","17:00","-35.9","","-39.4","","71","","","","12","","5","","24.1","","103.05","","","","-42","","Mainly Clear"
"-133.03","69.43","TUKTOYAKTUK A","2203913","2019-01-08 18:00","2019","01","08","18:00","-35.9","","-39.5","","71","","","","11","","4","","24.1","","103.07","","","","-41","","NA"
"-133.03","69.43","TUKTOYAKTUK A","2203913","2019-01-08 19:00","2019","01","08","19:00","-36.2","","-39.8","","71","","","","10","","5","","24.1","","103.08","","","","-43","","NA"
"-133.03","69.43","TUKTOYAKTUK A","2203913","2019-01-08 20:00","2019","01","08","20:00","-36.1","","-39.7","","71","","","","15","","5","","24.1","","103.07","","","","-43","","Mainly Clear"
"-133.03","69.43","TUKTOYAKTUK A","2203913","2019-01-08 21:00","2019","01","08","21:00","-36.3","","-39.8","","71","","","","14","","3","","24.1","","103.08","","","","-40","","NA"
"-133.03","69.43","TUKTOYAKTUK A","2203913","2019-01-08 22:00","2019","01","08","22:00","-36.4","","-39.9","","70","","","","36","","1","","24.1","","103.08","","","","-38","","NA"
"-133.03","69.43","TUKTOYAKTUK A","2203913","2019-01-08 23:00","2019","01","08","23:00","-35.9","","-39.5","","71","","","","25","","4","","24.1","","103.11","","","","-41","","Cloudy"
"-133.03","69.43","TUKTOYAKTUK A","2203913","2019-01-09 00:00","2019","01","09","00:00"
"-133.03","69.43","TUKTOYAKTUK A","2203913","2019-01-09 01:00","2019","01","09","01:00"
"-133.03","69.43","TUKTOYAKTUK A","2203913","2019-01-09 02:00","2019","01","09","02:00"
"-133.03","69.43","TUKTOYAKTUK A","2203913","2019-01-09 03:00","2019","01","09","03:00"
"-133.03","69.43","TUKTOYAKTUK A","2203913","2019-01-09 04:00","2019","01","09","04:00"
"-133.03","69.43","TUKTOYAKTUK A","2203913","2019-01-09 05:00","2019","01","09","05:00"
"-133.03","69.43","TUKTOYAKTUK A","2203913","2019-01-09 06:00","2019","01","09","06:00"
"-133.03","69.43","TUKTOYAKTUK A","2203913","2019-01-09 07:00","2019","01","09","07:00","-35.7","","-39.3","","71","","","","23","","8","","24.1","","103.17","","","","-45","","NA"
"-133.03","69.43","TUKTOYAKTUK A","2203913","2019-01-09 08:00","2019","01","09","08:00","-35.4","","-39.0","","71","","","","25","","10","","24.1","","103.19","","","","-46","","Clear"
"-133.03","69.43","TUKTOYAKTUK A","2203913","2019-01-09 09:00","2019","01","09","09:00","-36.3","","-39.9","","70","","","","25","","11","","24.1","","103.18","","","","-47","","NA"
"-133.03","69.43","TUKTOYAKTUK A","2203913","2019-01-09 10:00","2019","01","09","10:00","-37.1","","-40.7","","70","","","","23","","4","","24.1","","103.19","","","","-42","","NA"
"-133.03","69.43","TUKTOYAKTUK A","2203913","2019-01-09 11:00","2019","01","09","11:00","-38.0","","-41.6","","69","","","","27","","4","","24.1","","103.18","","","","-43","","Clear"
"-133.03","69.43","TUKTOYAKTUK A","2203913","2019-01-09 12:00","2019","01","09","12:00","-37.8","","-41.5","","69","","","","22","","3","","24.1","","103.21","","","","-42","","NA"
"-133.03","69.43","TUKTOYAKTUK A","2203913","2019-01-09 13:00","2019","01","09","13:00","-38.7","","-42.4","","69","","","","23","","4","","16.1","","103.22","","","","-44","","NA"
"-133.03","69.43","TUKTOYAKTUK A","2203913","2019-01-09 14:00","2019","01","09","14:00","-38.3","","-42.0","","69","","","","0","","1","","16.1","","103.21","","","","-40","","Mainly Clear"
"-133.03","69.43","TUKTOYAKTUK A","2203913","2019-01-09 15:00","2019","01","09","15:00","-38.5","","-42.2","","69","","","","36","","2","","24.1","","103.22","","","","-41","","NA"
"-133.03","69.43","TUKTOYAKTUK A","2203913","2019-01-09 16:00","2019","01","09","16:00","-38.5","","-42.2","","69","","","","12","","4","","24.1","","103.22","","","","-44","","NA"
"-133.03","69.43","TUKTOYAKTUK A","2203913","2019-01-09 17:00","2019","01","09","17:00","-38.9","","-42.6","","69","","","","13","","4","","16.1","","103.23","","","","-44","","Mainly Clear"
"-133.03","69.43","TUKTOYAKTUK A","2203913","2019-01-09 18:00","2019","01","09","18:00","-39.3","","-43.0","","69","","","","8","","8","","16.1","","103.19","","","","-49","","NA"
"-133.03","69.43","TUKTOYAKTUK A","2203913","2019-01-09 19:00","2019","01","09","19:00","-39.1","","-42.9","","69","","","","36","","3","","16.1","","103.17","","","","-43","","NA"
"-133.03","69.43","TUKTOYAKTUK A","2203913","2019-01-09 20:00","2019","01","09","20:00","-39.5","","-43.3","","68","","","","9","","7","","16.1","","103.18","","","","-48","","Clear"
"-133.03","69.43","TUKTOYAKTUK A","2203913","2019-01-09 21:00","2019","01","09","21:00","-38.2","","-41.9","","69","","","","9","","6","","16.1","","103.18","","","","-46","","NA"
"-133.03","69.43","TUKTOYAKTUK A","2203913","2019-01-09 22:00","2019","01","09","22:00","-36.5","","-40.1","","70","","","","9","","8","","16.1","","103.19","","","","-46","","NA"
"-133.03","69.43","TUKTOYAKTUK A","2203913","2019-01-09 23:00","2019","01","09","23:00","-34.8","","-38.4","","71","","","","8","","12","","16.1","","103.17","","","","-46","","Clear"
"-133.03","69.43","TUKTOYAKTUK A","2203913","2019-01-10 00:00","2019","01","10","00:00"
"-133.03","69.43","TUKTOYAKTUK A","2203913","2019-01-10 01:00","2019","01","10","01:00"
"-133.03","69.43","TUKTOYAKTUK A","2203913","2019-01-10 02:00","2019","01","10","02:00"
"-133.03","69.43","TUKTOYAKTUK A","2203913","2019-01-10 03:00","2019","01","10","03:00"
"-133.03","69.43","TUKTOYAKTUK A","2203913","2019-01-10 04:00","2019","01","10","04:00"
"-133.03","69.43","TUKTOYAKTUK A","2203913","2019-01-10 05:00","2019","01","10","05:00"
"-133.03","69.43","TUKTOYAKTUK A","2203913","2019-01-10 06:00","2019","01","10","06:00"
"-133.03","69.43","TUKTOYAKTUK A","2203913","2019-01-10 07:00","2019","01","10","07:00","-38.6","","-42.3","","69","","","","6","","11","","24.1","","102.99","","","","-50","","NA"
"-133.03","69.43","TUKTOYAKTUK A","2203913","2019-01-10 08:00","2019","01","10","08:00","-38.8","","-42.5","","69","","","","4","","11","","16.1","","102.94","","","","-50","","Ice Crystals"
"-133.03","69.43","TUKTOYAKTUK A","2203913","2019-01-10 09:00","2019","01","10","09:00","-37.0","","-40.7","","70","","","","6","","13","","16.1","","102.93","","","","-49","","Ice Crystals"
"-133.03","69.43","TUKTOYAKTUK A","2203913","2019-01-10 10:00","2019","01","10","10:00","-37.6","","-41.3","","69","","","","6","","12","","16.1","","102.94","","","","-49","","Ice Crystals"
"-133.03","69.43","TUKTOYAKTUK A","2203913","2019-01-10 11:00","2019","01","10","11:00","-38.1","","-41.9","","69","","","","5","","13","","16.1","","102.90","","","","-50","","Ice Crystals"
"-133.03","69.43","TUKTOYAKTUK A","2203913","2019-01-10 12:00","2019","01","10","12:00","-38.0","","-41.7","","69","","","","4","","9","","16.1","","102.87","","","","-48","","Ice Crystals"
"-133.03","69.43","TUKTOYAKTUK A","2203913","2019-01-10 13:00","2019","01","10","13:00","-36.9","","-40.6","","70","","","","4","","12","","12.9","","102.84","","","","-49","","Ice Crystals"
"-133.03","69.43","TUKTOYAKTUK A","2203913","2019-01-10 14:00","2019","01","10","14:00","-35.6","","-39.2","","70","","","","6","","20","","11.3","","102.81","","","","-50","","Ice Crystals"
"-133.03","69.43","TUKTOYAKTUK A","2203913","2019-01-10 15:00","2019","01","10","15:00","-35.1","","-38.7","","71","","","","7","","19","","16.1","","102.77","","","","-49","","NA"
"-133.03","69.43","TUKTOYAKTUK A","2203913","2019-01-10 16:00","2019","01","10","16:00","-35.6","","-39.2","","70","","","","6","","12","","16.1","","102.75","","","","-47","","NA"
"-133.03","69.43","TUKTOYAKTUK A","2203913","2019-01-10 17:00","2019","01","10","17:00","-34.5","","-38.0","","71","","","","6","","13","","14.5","","102.71","","","","-46","","Mainly Clear"
"-133.03","69.43","TUKTOYAKTUK A","2203913","2019-01-10 18:00","2019","01","10","18:00","-34.8","","-38.4","","71","","","","8","","9","","16.1","","102.67","","","","-44","","NA"
"-133.03","69.43","TUKTOYAKTUK A","2203913","2019-01-10 19:00","2019","01","10","19:00","-34.1","","-37.6","","71","","","","7","","14","","16.1","","102.64","","","","-46","","NA"
"-133.03","69.43","TUKTOYAKTUK A","2203913","2019-01-10 20:00","2019","01","10","20:00","-34.0","","-37.5","","71","","","","6","","15","","16.1","","102.58","","","","-46","","Mainly Clear"
"-133.03","69.43","TUKTOYAKTUK A","2203913","2019-01-10 21:00","2019","01","10","21:00","-32.9","","-36.3","","72","","","","7","","15","","16.1","","102.54","","","","-45","","NA"
"-133.03","69.43","TUKTOYAKTUK A","2203913","2019-01-10 22:00","2019","01","10","22:00","-33.3","","-36.8","","72","","","","7","","16","","16.1","","102.51","","","","-46","","NA"
"-133.03","69.43","TUKTOYAKTUK A","2203913","2019-01-10 23:00","2019","01","10","23:00","-32.4","","-35.8","","72","","","","8","","17","","16.1","","102.45","","","","-45","","Mainly Clear"
"-133.03","69.43","TUKTOYAKTUK A","2203913","2019-01-11 00:00","2019","01","11","00:00"
"-133.03","69.43","TUKTOYAKTUK A","2203913","2019-01-11 01:00","2019","01","11","01:00"
"-133.03","69.43","TUKTOYAKTUK A","2203913","2019-01-11 02:00","2019","01","11","02:00"
"-133.03","69.43","TUKTOYAKTUK A","2203913","2019-01-11 03:00","2019","01","11","03:00"
"-133.03","69.43","TUKTOYAKTUK A","2203913","2019-01-11 04:00","2019","01","11","04:00"
"-133.03","69.43","TUKTOYAKTUK A","2203913","2019-01-11 05:00","2019","01","11","05:00"
"-133.03","69.43","TUKTOYAKTUK A","2203913","2019-01-11 06:00","2019","01","11","06:00"
"-133.03","69.43","TUKTOYAKTUK A","2203913","2019-01-11 07:00","2019","01","11","07:00","-28.8","","-32.0","","75","","","","5","","15","","24.1","","102.08","","","","-40","","NA"
"-133.03","69.43","TUKTOYAKTUK A","2203913","2019-01-11 08:00","2019","01","11","08:00","-28.4","","-31.5","","75","","","","5","","15","","24.1","","102.01","","","","-39","","Snow"
"-133.03","69.43","TUKTOYAKTUK A","2203913","2019-01-11 09:00","2019","01","11","09:00","-27.6","","-30.6","","76","","","","6","","15","","4.8","","101.95","","","","-38","","Snow"
"-133.03","69.43","TUKTOYAKTUK A","2203913","2019-01-11 10:00","2019","01","11","10:00","-27.2","","-30.2","","76","","","","7","","17","","4.8","","101.92","","","","-39","","Snow"
"-133.03","69.43","TUKTOYAKTUK A","2203913","2019-01-11 11:00","2019","01","11","11:00","-27.8","","-30.9","","75","","","","4","","13","","9.7","","101.89","","","","-38","","Snow"
"-133.03","69.43","TUKTOYAKTUK A","2203913","2019-01-11 12:00","2019","01","11","12:00","-27.5","","-30.6","","76","","","","6","","16","","6.4","","101.83","","","","-39","","Snow"
"-133.03","69.43","TUKTOYAKTUK A","2203913","2019-01-11 13:00","2019","01","11","13:00","-26.8","","-29.8","","76","","","","6","","12","","8.1","","101.78","","","","-36","","Snow"
"-133.03","69.43","TUKTOYAKTUK A","2203913","2019-01-11 14:00","2019","01","11","14:00","-26.2","","-29.2","","77","","","","7","","17","","4.8","","101.76","","","","-37","","Snow"
"-133.03","69.43","TUKTOYAKTUK A","2203913","2019-01-11 15:00","2019","01","11","15:00","-25.8","","-28.8","","77","","","","5","","17","","4.8","","101.71","","","","-37","","Snow"
"-133.03","69.43","TUKTOYAKTUK A","2203913","2019-01-11 16:00","2019","01","11","16:00","-25.7","","-28.6","","77","","","","6","","24","","4.8","","101.68","","","","-39","","Snow"
"-133.03","69.43","TUKTOYAKTUK A","2203913","2019-01-11 17:00","2019","01","11","17:00","-25.9","","-28.9","","77","","","","6","","23","","3.2","","101.63","","","","-39","","Snow"
"-133.03","69.43","TUKTOYAKTUK A","2203913","2019-01-11 18:00","2019","01","11","18:00","-26.3","","-29.3","","77","","","","6","","17","","4.8","","101.60","","","","-38","","Snow"
"-133.03","69.43","TUKTOYAKTUK A","2203913","2019-01-11 19:00","2019","01","11","19:00","-26.5","","-29.5","","77","","","","5","","18","","8.1","","101.57","","","","-38","","Snow"
"-133.03","69.43","TUKTOYAKTUK A","2203913","2019-01-11 20:00","2019","01","11","20:00","-26.5","","-29.5","","77","","","","6","","19","","8.1","","101.55","","","","-38","","Snow"
"-133.03","69.43","TUKTOYAKTUK A","2203913","2019-01-11 21:00","2019","01","11","21:00","-26.6","","-29.5","","77","","","","5","","14","","9.7","","101.57","","","","-37","","Snow"
"-133.03","69.43","TUKTOYAKTUK A","2203913","2019-01-11 22:00","2019","01","11","22:00","-26.6","","-29.6","","77","","","","4","","17","","9.7","","101.54","","","","-38","","Snow"
"-133.03","69.43","TUKTOYAKTUK A","2203913","2019-01-11 23:00","2019","01","11","23:00","-26.0","","-28.9","","77","","","","5","","16","","9.7","","101.57","","","","-37","","Snow"
"-133.03","69.43","TUKTOYAKTUK A","2203913","2019-01-12 00:00","2019","01","12","00:00"
"-133.03","69.43","TUKTOYAKTUK A","2203913","2019-01-12 01:00","2019","01","12","01:00"
"-133.03","69.43","TUKTOYAKTUK A","2203913","2019-01-12 02:00","2019","01","12","02:00"
"-133.03","69.43","TUKTOYAKTUK A","2203913","2019-01-12 03:00","2019","01","12","03:00"
"-133.03","69.43","TUKTOYAKTUK A","2203913","2019-01-12 04:00","2019","01","12","04:00"
"-133.03","69.43","TUKTOYAKTUK A","2203913","2019-01-12 05:00","2019","01","12","05:00"
"-133.03","69.43","TUKTOYAKTUK A","2203913","2019-01-12 06:00","2019","01","12","06:00"
"-133.03","69.43","TUKTOYAKTUK A","2203913","2019-01-12 07:00","2019","01","12","07:00","-24.2","","-26.9","","78","","","","1","","14","","9.7","","101.92","","","","-34","","Snow"
"-133.03","69.43","TUKTOYAKTUK A","2203913","2019-01-12 08:00","2019","01","12","08:00","-24.8","","-27.6","","78","","","","33","","11","","16.1","","102.03","","","","-33","","Snow"
"-133.03","69.43","TUKTOYAKTUK A","2203913","2019-01-12 09:00","2019","01","12","09:00","-24.5","","-27.2","","78","","","","33","","12","","16.1","","102.12","","","","-33","","Snow"
"-133.03","69.43","TUKTOYAKTUK A","2203913","2019-01-12 10:00","2019","01","12","10:00","-24.7","","-27.5","","78","","","","30","","11","","16.1","","102.21","","","","-33","","Snow"
"-133.03","69.43","TUKTOYAKTUK A","2203913","2019-01-12 11:00","2019","01","12","11:00","-24.6","","-27.4","","78","","","","33","","14","","24.1","","102.31","","","","-34","","Snow"
"-133.03","69.43","TUKTOYAKTUK A","2203913","2019-01-12 12:00","2019","01","12","12:00","-25.7","","-28.5","","77","","","","32","","15","","24.1","","102.41","","","","-36","","Snow"
"-133.03","69.43","TUKTOYAKTUK A","2203913","2019-01-12 13:00","2019","01","12","13:00","-26.1","","-29.0","","77","","","","33","","16","","24.1","","102.51","","","","-37","","Snow"
"-133.03","69.43","TUKTOYAKTUK A","2203913","2019-01-12 14:00","2019","01","12","14:00","-28.2","","-31.3","","76","","","","30","","14","","24.1","","102.62","","","","-39","","Mainly Clear"
"-133.03","69.43","TUKTOYAKTUK A","2203913","2019-01-12 15:00","2019","01","12","15:00","-30.0","","-33.2","","75","","","","29","","13","","24.1","","102.76","","","","-41","","NA"
"-133.03","69.43","TUKTOYAKTUK A","2203913","2019-01-12 16:00","2019","01","12","16:00","-32.1","","-35.4","","73","","","","27","","18","","12.9","","102.85","","","","-45","","NA"
"-133.03","69.43","TUKTOYAKTUK A","2203913","2019-01-12 17:00","2019","01","12","17:00","-32.7","","-36.0","","73","","","","28","","16","","12.9","","102.91","","","","-45","","Mainly Clear"
"-133.03","69.43","TUKTOYAKTUK A","2203913","2019-01-12 18:00","2019","01","12","18:00","-34.0","","-37.4","","72","","","","25","","14","","12.9","","102.99","","","","-46","","NA"
"-133.03","69.43","TUKTOYAKTUK A","2203913","2019-01-12 19:00","2019","01","12","19:00","-34.8","","-38.2","","72","","","","25","","17","","16.1","","103.02","","","","-48","","NA"
"-133.03","69.43","TUKTOYAKTUK A","2203913","2019-01-12 20:00","2019","01","12","20:00","-35.3","","-38.8","","71","","","","24","","17","","16.1","","103.09","","","","-49","","Mainly Clear"
"-133.03","69.43","TUKTOYAKTUK A","2203913","2019-01-12 21:00","2019","01","12","21:00","-35.4","","-38.8","","71","","","","23","","13","","16.1","","103.14","","","","-47","","NA"
"-133.03","69.43","TUKTOYAKTUK A","2203913","2019-01-12 22:00","2019","01","12","22:00","-36.3","","-39.8","","71","","","","19","","8","","24.1","","103.19","","","","-45","","NA"
"-133.03","69.43","TUKTOYAKTUK A","2203913","2019-01-12 23:00","2019","01","12","23:00","-37.3","","-40.9","","70","","","","17","","10","","16.1","","103.25","","","","-48","","Clear"
"-133.03","69.43","TUKTOYAKTUK A","2203913","2019-01-13 00:00","2019","01","13","00:00"
"-133.03","69.43","TUKTOYAKTUK A","2203913","2019-01-13 01:00","2019","01","13","01:00"
"-133.03","69.43","TUKTOYAKTUK A","2203913","2019-01-13 02:00","2019","01","13","02:00"
"-133.03","69.43","TUKTOYAKTUK A","2203913","2019-01-13 03:00","2019","01","13","03:00"
"-133.03","69.43","TUKTOYAKTUK A","2203913","2019-01-13 04:00","2019","01","13","04:00"
"-133.03","69.43","TUKTOYAKTUK A","2203913","2019-01-13 05:00","2019","01","13","05:00"
"-133.03","69.43","TUKTOYAKTUK A","2203913","2019-01-13 06:00","2019","01","13","06:00"
"-133.03","69.43","TUKTOYAKTUK A","2203913","2019-01-13 07:00","2019","01","13","07:00","-36.4","","-40.0","","70","","","","10","","21","","24.1","","103.29","","","","-51","","NA"
"-133.03","69.43","TUKTOYAKTUK A","2203913","2019-01-13 08:00","2019","01","13","08:00","-35.1","","-38.6","","71","","","","10","","21","","24.1","","103.27","","","","-50","","Clear"
"-133.03","69.43","TUKTOYAKTUK A","2203913","2019-01-13 09:00","2019","01","13","09:00","-34.2","","-37.7","","72","","","","10","","21","","16.1","","103.25","","","","-49","","NA"
"-133.03","69.43","TUKTOYAKTUK A","2203913","2019-01-13 10:00","2019","01","13","10:00","-33.7","","-37.2","","72","","","","11","","19","","16.1","","103.25","","","","-47","","NA"
"-133.03","69.43","TUKTOYAKTUK A","2203913","2019-01-13 11:00","2019","01","13","11:00","-33.8","","-37.2","","72","","","","11","","24","","9.7","","103.20","","","","-49","","Fog"
"-133.03","69.43","TUKTOYAKTUK A","2203913","2019-01-13 12:00","2019","01","13","12:00","-32.4","","-35.8","","73","","","","11","","28","","6.4","","103.17","","","","-48","","Fog"
"-133.03","69.43","TUKTOYAKTUK A","2203913","2019-01-13 13:00","2019","01","13","13:00","-32.5","","-35.8","","73","","","","10","","28","","6.4","","103.12","","","","-48","","Fog"
"-133.03","69.43","TUKTOYAKTUK A","2203913","2019-01-13 14:00","2019","01","13","14:00","-32.1","","-35.4","","73","","","","11","","25","","9.7","","103.13","","","","-47","","Fog,Blowing Snow"
"-133.03","69.43","TUKTOYAKTUK A","2203913","2019-01-13 15:00","2019","01","13","15:00","-33.1","","-36.5","","72","","","","10","","23","","8.1","","103.09","","","","-48","","Blowing Snow"
"-133.03","69.43","TUKTOYAKTUK A","2203913","2019-01-13 16:00","2019","01","13","16:00","-32.2","","-35.5","","73","","","","10","","31","","8.1","","102.99","","","","-49","","Blowing Snow"
"-133.03","69.43","TUKTOYAKTUK A","2203913","2019-01-13 17:00","2019","01","13","17:00","-31.0","","-34.3","","74","","","","10","","31","","9.7","","102.99","","","","-47","","Blowing Snow"
"-133.03","69.43","TUKTOYAKTUK A","2203913","2019-01-13 18:00","2019","01","13","18:00","-30.8","","-34.0","","74","","","","10","","35","","12.9","","102.99","","","","-48","","Blowing Snow"
"-133.03","69.43","TUKTOYAKTUK A","2203913","2019-01-13 19:00","2019","01","13","19:00","-30.1","","-33.4","","74","","","","10","","37","","12.9","","102.92","","","","-47","","Blowing Snow"
"-133.03","69.43","TUKTOYAKTUK A","2203913","2019-01-13 20:00","2019","01","13","20:00","-29.7","","-32.9","","74","","","","10","","34","","4.8","","102.91","","","","-46","","Blowing Snow"
"-133.03","69.43","TUKTOYAKTUK A","2203913","2019-01-13 21:00","2019","01","13","21:00","-29.1","","-32.3","","75","","","","10","","34","","9.7","","102.90","","","","-45","","Blowing Snow"
"-133.03","69.43","TUKTOYAKTUK A","2203913","2019-01-13 22:00","2019","01","13","22:00","-28.4","","-31.5","","75","","","","11","","37","","9.7","","102.87","","","","-45","","Blowing Snow"
"-133.03","69.43","TUKTOYAKTUK A","2203913","2019-01-13 23:00","2019","01","13","23:00","-28.8","","-31.9","","75","","","","12","","30","","16.1","","102.92","","","","-44","","Blowing Snow"
"-133.03","69.43","TUKTOYAKTUK A","2203913","2019-01-14 00:00","2019","01","14","00:00"
"-133.03","69.43","TUKTOYAKTUK A","2203913","2019-01-14 01:00","2019","01","14","01:00"
"-133.03","69.43","TUKTOYAKTUK A","2203913","2019-01-14 02:00","2019","01","14","02:00"
"-133.03","69.43","TUKTOYAKTUK A","2203913","2019-01-14 03:00","2019","01","14","03:00"
"-133.03","69.43","TUKTOYAKTUK A","2203913","2019-01-14 04:00","2019","01","14","04:00"
"-133.03","69.43","TUKTOYAKTUK A","2203913","2019-01-14 05:00","2019","01","14","05:00"
"-133.03","69.43","TUKTOYAKTUK A","2203913","2019-01-14 06:00","2019","01","14","06:00"
"-133.03","69.43","TUKTOYAKTUK A","2203913","2019-01-14 07:00","2019","01","14","07:00","-26.0","","-28.9","","77","","","","11","","30","","16.1","","102.97","","","","-40","","Blowing Snow"
"-133.03","69.43","TUKTOYAKTUK A","2203913","2019-01-14 08:00","2019","01","14","08:00","-25.6","","-28.5","","77","","","","12","","32","","16.1","","103.02","","","","-40","","Blowing Snow"
"-133.03","69.43","TUKTOYAKTUK A","2203913","2019-01-14 09:00","2019","01","14","09:00","-25.4","","-28.3","","77","","","","11","","27","","16.1","","103.05","","","","-39","","Blowing Snow"
"-133.03","69.43","TUKTOYAKTUK A","2203913","2019-01-14 10:00","2019","01","14","10:00","-25.4","","-28.3","","77","","","","12","","27","","16.1","","103.05","","","","-39","","Blowing Snow"
"-133.03","69.43","TUKTOYAKTUK A","2203913","2019-01-14 11:00","2019","01","14","11:00","-25.3","","-28.1","","77","","","","12","","21","","24.1","","103.13","","","","-37","","Blowing Snow"
"-133.03","69.43","TUKTOYAKTUK A","2203913","2019-01-14 12:00","2019","01","14","12:00","-25.6","","-28.4","","77","","","","11","","16","","24.1","","103.13","","","","-36","","NA"
"-133.03","69.43","TUKTOYAKTUK A","2203913","2019-01-14 13:00","2019","01","14","13:00","-24.4","","-27.2","","78","","","","11","","16","","24.1","","103.16","","","","-35","","NA"
"-133.03","69.43","TUKTOYAKTUK A","2203913","2019-01-14 14:00","2019","01","14","14:00","-23.9","","-26.6","","78","","","","12","","30","","24.1","","103.15","","","","-38","","Blowing Snow"
"-133.03","69.43","TUKTOYAKTUK A","2203913","2019-01-14 15:00","2019","01","14","15:00","-23.3","","-26.0","","79","","","","11","","24","","24.1","","103.20","","","","-36","","Blowing Snow"
"-133.03","69.43","TUKTOYAKTUK A","2203913","2019-01-14 16:00","2019","01","14","16:00","-22.7","","-25.4","","79","","","","11","","25","","24.1","","103.22","","","","-35","","NA"
"-133.03","69.43","TUKTOYAKTUK A","2203913","2019-01-14 17:00","2019","01","14","17:00","-22.4","","-25.1","","79","","","","10","","27","","24.1","","103.26","","","","-35","","Mostly Cloudy"
"-133.03","69.43","TUKTOYAKTUK A","2203913","2019-01-14 18:00","2019","01","14","18:00","-22.9","","-25.7","","79","","","","10","","18","","24.1","","103.26","","","","-34","","NA"
"-133.03","69.43","TUKTOYAKTUK A","2203913","2019-01-14 19:00","2019","01","14","19:00","-25.1","","-28.0","","77","","","","8","","14","","24.1","","103.33","","","","-35","","NA"
"-133.03","69.43","TUKTOYAKTUK A","2203913","2019-01-14 20:00","2019","01","14","20:00","-26.2","","-29.1","","77","","","","8","","16","","24.1","","103.30","","","","-37","","Clear"
"-133.03","69.43","TUKTOYAKTUK A","2203913","2019-01-14 21:00","2019","01","14","21:00","-26.8","","-29.8","","76","","","","8","","15","","24.1","","103.34","","","","-37","","NA"
"-133.03","69.43","TUKTOYAKTUK A","2203913","2019-01-14 22:00","2019","01","14","22:00","-26.8","","-29.7","","77","","","","8","","17","","24.1","","103.36","","","","-38","","NA"
"-133.03","69.43","TUKTOYAKTUK A","2203913","2019-01-14 23:00","2019","01","14","23:00","-26.9","","-29.9","","76","","","","9","","14","","24.1","","103.41","","","","-37","","Clear"
"-133.03","69.43","TUKTOYAKTUK A","2203913","2019-01-15 00:00","2019","01","15","00:00"
"-133.03","69.43","TUKTOYAKTUK A","2203913","2019-01-15 01:00","2019","01","15","01:00"
"-133.03","69.43","TUKTOYAKTUK A","2203913","2019-01-15 02:00","2019","01","15","02:00"
"-133.03","69.43","TUKTOYAKTUK A","2203913","2019-01-15 03:00","2019","01","15","03:00"
"-133.03","69.43","TUKTOYAKTUK A","2203913","2019-01-15 04:00","2019","01","15","04:00"
"-133.03","69.43","TUKTOYAKTUK A","2203913","2019-01-15 05:00","2019","01","15","05:00"
"-133.03","69.43","TUKTOYAKTUK A","2203913","2019-01-15 06:00","2019","01","15","06:00"
"-133.03","69.43","TUKTOYAKTUK A","2203913","2019-01-15 07:00","2019","01","15","07:00","-28.1","","-31.2","","76","","","","10","","15","","24.1","","103.70","","","","-39","","NA"
"-133.03","69.43","TUKTOYAKTUK A","2203913","2019-01-15 08:00","2019","01","15","08:00","-28.7","","-31.9","","75","","","","8","","14","","24.1","","103.74","","","","-39","","Mostly Cloudy"
"-133.03","69.43","TUKTOYAKTUK A","2203913","2019-01-15 09:00","2019","01","15","09:00","-28.1","","-31.2","","75","","","","9","","15","","24.1","","103.76","","","","-39","","NA"
"-133.03","69.43","TUKTOYAKTUK A","2203913","2019-01-15 10:00","2019","01","15","10:00","-28.6","","-31.7","","75","","","","8","","16","","24.1","","103.80","","","","-40","","NA"
"-133.03","69.43","TUKTOYAKTUK A","2203913","2019-01-15 11:00","2019","01","15","11:00","-29.1","","-32.2","","75","","","","9","","16","","24.1","","103.86","","","","-41","","Mainly Clear"
"-133.03","69.43","TUKTOYAKTUK A","2203913","2019-01-15 12:00","2019","01","15","12:00","-29.3","","-32.5","","75","","","","9","","19","","24.1","","103.86","","","","-42","","NA"
"-133.03","69.43","TUKTOYAKTUK A","2203913","2019-01-15 13:00","2019","01","15","13:00","-28.6","","-31.7","","75","","","","10","","21","","24.1","","103.86","","","","-42","","NA"
"-133.03","69.43","TUKTOYAKTUK A","2203913","2019-01-15 14:00","2019","01","15","14:00","-28.6","","-31.7","","75","","","","9","","14","","24.1","","103.91","","","","-39","","Mainly Clear"
"-133.03","69.43","TUKTOYAKTUK A","2203913","2019-01-15 15:00","2019","01","15","15:00","-27.8","","-30.9","","75","","","","11","","14","","24.1","","103.92","","","","-38","","NA"
"-133.03","69.43","TUKTOYAKTUK A","2203913","2019-01-15 16:00","2019","01","15","16:00","-28.0","","-31.1","","75","","","","9","","21","","24.1","","103.91","","","","-41","","NA"
"-133.03","69.43","TUKTOYAKTUK A","2203913","2019-01-15 17:00","2019","01","15","17:00","-27.9","","-31.0","","75","","","","11","","22","","24.1","","103.91","","","","-41","","Mainly Clear"
"-133.03","69.43","TUKTOYAKTUK A","2203913","2019-01-15 18:00","2019","01","15","18:00","-28.6","","-31.8","","75","","","","11","","22","","24.1","","103.91","","","","-42","","NA"
"-133.03","69.43","TUKTOYAKTUK A","2203913","2019-01-15 19:00","2019","01","15","19:00","-28.4","","-31.6","","75","","","","12","","15","","24.1","","103.95","","","","-39","","NA"
"-133.03","69.43","TUKTOYAKTUK A","2203913","2019-01-15 20:00","2019","01","15","20:00","-28.8","","-32.0","","75","","","","10","","16","","24.1","","103.96","","","","-40","","Mainly Clear"
"-133.03","69.43","TUKTOYAKTUK A","2203913","2019-01-15 21:00","2019","01","15","21:00","-28.3","","-31.4","","75","","","","11","","18","","24.1","","103.97","","","","-40","","NA"
"-133.03","69.43","TUKTOYAKTUK A","2203913","2019-01-15 22:00","2019","01","15","22:00","-29.5","","-32.7","","74","","","","9","","18","","24.1","","103.97","","","","-42","","NA"
"-133.03","69.43","TUKTOYAKTUK A","2203913","2019-01-15 23:00","2019","01","15","23:00","-29.6","","-32.8","","74","","","","10","","18","","24.1","","103.94","","","","-42","","Clear"
"-133.03","69.43","TUKTOYAKTUK A","2203913","2019-01-16 00:00","2019","01","16","00:00"
"-133.03","69.43","TUKTOYAKTUK A","2203913","2019-01-16 01:00","2019","01","16","01:00"
"-133.03","69.43","TUKTOYAKTUK A","2203913","2019-01-16 02:00","2019","01","16","02:00"
"-133.03","69.43","TUKTOYAKTUK A","2203913","2019-01-16 03:00","2019","01","16","03:00"
"-133.03","69.43","TUKTOYAKTUK A","2203913","2019-01-16 04:00","2019","01","16","04:00"
"-133.03","69.43","TUKTOYAKTUK A","2203913","2019-01-16 05:00","2019","01","16","05:00"
"-133.03","69.43","TUKTOYAKTUK A","2203913","2019-01-16 06:00","2019","01","16","06:00"
"-133.03","69.43","TUKTOYAKTUK A","2203913","2019-01-16 07:00","2019","01","16","07:00","-29.0","","-32.5","","72","","","","10","","11","","24.1","","103.79","","","","-38","","NA"
"-133.03","69.43","TUKTOYAKTUK A","2203913","2019-01-16 08:00","2019","01","16","08:00","-28.7","","-32.4","","72","","","","8","","9","","24.1","","103.76","","","","-37","","Clear"
"-133.03","69.43","TUKTOYAKTUK A","2203913","2019-01-16 09:00","2019","01","16","09:00","-28.8","","-32.3","","72","","","","10","","23","","24.1","","103.71","","","","-42","","NA"
"-133.03","69.43","TUKTOYAKTUK A","2203913","2019-01-16 10:00","2019","01","16","10:00","-28.0","","-31.4","","73","","","","10","","23","","24.1","","103.67","","","","-41","","NA"
"-133.03","69.43","TUKTOYAKTUK A","2203913","2019-01-16 11:00","2019","01","16","11:00","-28.6","","-32.2","","72","","","","9","","25","","24.1","","103.62","","","","-43","","Mainly Clear"
"-133.03","69.43","TUKTOYAKTUK A","2203913","2019-01-16 12:00","2019","01","16","12:00","-28.9","","-32.3","","73","","","","10","","27","","24.1","","103.60","","","","-44","","NA"
"-133.03","69.43","TUKTOYAKTUK A","2203913","2019-01-16 13:00","2019","01","16","13:00","-27.8","","-31.1","","74","","","","10","","29","","24.1","","103.54","","","","-43","","Blowing Snow"
"-133.03","69.43","TUKTOYAKTUK A","2203913","2019-01-16 14:00","2019","01","16","14:00","-27.5","","-30.9","","74","","","","10","","32","","24.1","","103.49","","","","-43","","Blowing Snow"
"-133.03","69.43","TUKTOYAKTUK A","2203913","2019-01-16 15:00","2019","01","16","15:00","-27.3","","-30.7","","73","","","","11","","21","","24.1","","103.49","","","","-40","","NA"
"-133.03","69.43","TUKTOYAKTUK A","2203913","2019-01-16 16:00","2019","01","16","16:00","-27.2","","-30.8","","72","","","","9","","32","","24.1","","103.42","","","","-42","","Blowing Snow"
"-133.03","69.43","TUKTOYAKTUK A","2203913","2019-01-16 17:00","2019","01","16","17:00","-25.2","","-29.1","","70","","","","10","","36","","24.1","","103.35","","","","-40","","Blowing Snow"
"-133.03","69.43","TUKTOYAKTUK A","2203913","2019-01-16 18:00","2019","01","16","18:00","-25.1","","-29.2","","69","","","","10","","34","","24.1","","103.28","","","","-40","","Blowing Snow"
"-133.03","69.43","TUKTOYAKTUK A","2203913","2019-01-16 19:00","2019","01","16","19:00","-25.7","","-29.7","","70","","","","11","","28","","24.1","","103.22","","","","-40","","NA"
"-133.03","69.43","TUKTOYAKTUK A","2203913","2019-01-16 20:00","2019","01","16","20:00","-25.5","","-29.6","","69","","","","9","","23","","24.1","","103.20","","","","-38","","Clear"
"-133.03","69.43","TUKTOYAKTUK A","2203913","2019-01-16 21:00","2019","01","16","21:00","-24.9","","-29.1","","69","","","","10","","22","","24.1","","103.15","","","","-37","","NA"
"-133.03","69.43","TUKTOYAKTUK A","2203913","2019-01-16 22:00","2019","01","16","22:00","-24.7","","-29.0","","69","","","","10","","27","","24.1","","103.09","","","","-38","","NA"
"-133.03","69.43","TUKTOYAKTUK A","2203913","2019-01-16 23:00","2019","01","16","23:00","-23.5","","-28.0","","67","","","","11","","32","","24.1","","103.05","","","","-38","","Clear"
"-133.03","69.43","TUKTOYAKTUK A","2203913","2019-01-17 00:00","2019","01","17","00:00"
"-133.03","69.43","TUKTOYAKTUK A","2203913","2019-01-17 01:00","2019","01","17","01:00"
"-133.03","69.43","TUKTOYAKTUK A","2203913","2019-01-17 02:00","2019","01","17","02:00"
"-133.03","69.43","TUKTOYAKTUK A","2203913","2019-01-17 03:00","2019","01","17","03:00"
"-133.03","69.43","TUKTOYAKTUK A","2203913","2019-01-17 04:00","2019","01","17","04:00"
"-133.03","69.43","TUKTOYAKTUK A","2203913","2019-01-17 05:00","2019","01","17","05:00"
"-133.03","69.43","TUKTOYAKTUK A","2203913","2019-01-17 06:00","2019","01","17","06:00"
"-133.03","69.43","TUKTOYAKTUK A","2203913","2019-01-17 07:00","2019","01","17","07:00","-21.7","","-26.7","","65","","","","10","","31","","24.1","","102.84","","","","-35","","Blowing Snow"
"-133.03","69.43","TUKTOYAKTUK A","2203913","2019-01-17 08:00","2019","01","17","08:00","-20.9","","-25.9","","65","","","","11","","32","","22.5","","102.85","","","","-34","","Blowing Snow"
"-133.03","69.43","TUKTOYAKTUK A","2203913","2019-01-17 09:00","2019","01","17","09:00","-21.3","","-26.3","","65","","","","11","","27","","24.1","","102.86","","","","-34","","Blowing Snow"
"-133.03","69.43","TUKTOYAKTUK A","2203913","2019-01-17 10:00","2019","01","17","10:00","-22.1","","-26.5","","68","","","","10","","24","","24.1","","102.88","","","","-34","","Blowing Snow"
"-133.03","69.43","TUKTOYAKTUK A","2203913","2019-01-17 11:00","2019","01","17","11:00","-21.7","","-26.1","","69","","","","11","","27","","24.1","","102.91","","","","-34","","Blowing Snow"
"-133.03","69.43","TUKTOYAKTUK A","2203913","2019-01-17 12:00","2019","01","17","12:00","-22.1","","-26.3","","69","","","","10","","26","","24.1","","102.92","","","","-35","","Blowing Snow"
"-133.03","69.43","TUKTOYAKTUK A","2203913","2019-01-17 13:00","2019","01","17","13:00","-21.8","","-26.1","","69","","","","11","","25","","24.1","","102.93","","","","-34","","Blowing Snow"
"-133.03","69.43","TUKTOYAKTUK A","2203913","2019-01-17 14:00","2019","01","17","14:00","-22.5","","-26.5","","70","","","","10","","28","","24.1","","102.97","","","","-35","","Blowing Snow"
"-133.03","69.43","TUKTOYAKTUK A","2203913","2019-01-17 15:00","2019","01","17","15:00","-23.4","","-27.4","","71","","","","9","","25","","24.1","","103.00","","","","-36","","Blowing Snow"
"-133.03","69.43","TUKTOYAKTUK A","2203913","2019-01-17 16:00","2019","01","17","16:00","-23.7","","-27.4","","72","","","","10","","27","","24.1","","103.00","","","","-37","","Blowing Snow"
"-133.03","69.43","TUKTOYAKTUK A","2203913","2019-01-17 17:00","2019","01","17","17:00","-23.2","","-27.1","","71","","","","10","","28","","24.1","","102.99","","","","-36","","Blowing Snow"
"-133.03","69.43","TUKTOYAKTUK A","2203913","2019-01-17 18:00","2019","01","17","18:00","-23.6","","-27.4","","71","","","","10","","28","","24.1","","102.98","","","","-37","","Blowing Snow"
"-133.03","69.43","TUKTOYAKTUK A","2203913","2019-01-17 19:00","2019","01","17","19:00","-22.2","","-26.3","","70","","","","12","","30","","24.1","","102.98","","","","-35","","Blowing Snow"
"-133.03","69.43","TUKTOYAKTUK A","2203913","2019-01-17 20:00","2019","01","17","20:00","-23.0","","-27.0","","70","","","","11","","22","","24.1","","102.99","","","","-35","","Clear"
"-133.03","69.43","TUKTOYAKTUK A","2203913","2019-01-17 21:00","2019","01","17","21:00","-23.4","","-27.6","","69","","","","11","","19","","24.1","","102.99","","","","-34","","NA"
"-133.03","69.43","TUKTOYAKTUK A","2203913","2019-01-17 22:00","2019","01","17","22:00","-23.5","","-27.6","","69","","","","11","","27","","24.1","","102.99","","","","-37","","NA"
"-133.03","69.43","TUKTOYAKTUK A","2203913","2019-01-17 23:00","2019","01","17","23:00","-23.6","","-27.8","","69","","","","10","","27","","24.1","","103.00","","","","-37","","Clear"
"-133.03","69.43","TUKTOYAKTUK A","2203913","2019-01-18 00:00","2019","01","18","00:00"
"-133.03","69.43","TUKTOYAKTUK A","2203913","2019-01-18 01:00","2019","01","18","01:00"
"-133.03","69.43","TUKTOYAKTUK A","2203913","2019-01-18 02:00","2019","01","18","02:00"
"-133.03","69.43","TUKTOYAKTUK A","2203913","2019-01-18 03:00","2019","01","18","03:00"
"-133.03","69.43","TUKTOYAKTUK A","2203913","2019-01-18 04:00","2019","01","18","04:00"
"-133.03","69.43","TUKTOYAKTUK A","2203913","2019-01-18 05:00","2019","01","18","05:00"
"-133.03","69.43","TUKTOYAKTUK A","2203913","2019-01-18 06:00","2019","01","18","06:00"
"-133.03","69.43","TUKTOYAKTUK A","2203913","2019-01-18 07:00","2019","01","18","07:00","-25.0","","-28.9","","71","","","","10","","20","","24.1","","102.95","","","","-37","","NA"
"-133.03","69.43","TUKTOYAKTUK A","2203913","2019-01-18 08:00","2019","01","18","08:00","-24.6","","-28.5","","71","","","","11","","21","","24.1","","102.91","","","","-37","","Clear"
"-133.03","69.43","TUKTOYAKTUK A","2203913","2019-01-18 09:00","2019","01","18","09:00","-24.5","","-28.5","","70","","","","12","","19","","24.1","","102.86","","","","-36","","NA"
"-133.03","69.43","TUKTOYAKTUK A","2203913","2019-01-18 10:00","2019","01","18","10:00","-24.4","","-28.5","","70","","","","10","","20","","24.1","","102.83","","","","-36","","NA"
"-133.03","69.43","TUKTOYAKTUK A","2203913","2019-01-18 11:00","2019","01","18","11:00","-24.3","","-28.2","","71","","","","9","","22","","24.1","","102.78","","","","-36","","Clear"
"-133.03","69.43","TUKTOYAKTUK A","2203913","2019-01-18 12:00","2019","01","18","12:00","-24.3","","-28.2","","71","","","","10","","14","","24.1","","102.76","","","","-34","","NA"
"-133.03","69.43","TUKTOYAKTUK A","2203913","2019-01-18 13:00","2019","01","18","13:00","-22.4","","-27.1","","66","","","","11","","27","","24.1","","102.70","","","","-35","","NA"
"-133.03","69.43","TUKTOYAKTUK A","2203913","2019-01-18 14:00","2019","01","18","14:00","-22.4","","-26.7","","69","","","","10","","27","","24.1","","102.63","","","","-35","","Mainly Clear"
"-133.03","69.43","TUKTOYAKTUK A","2203913","2019-01-18 15:00","2019","01","18","15:00","-21.5","","-26.1","","67","","","","10","","34","","24.1","","102.57","","","","-35","","NA"
"-133.03","69.43","TUKTOYAKTUK A","2203913","2019-01-18 16:00","2019","01","18","16:00","-21.6","","-26.1","","68","","","","10","","32","","24.1","","102.52","","","","-35","","Blowing Snow"
"-133.03","69.43","TUKTOYAKTUK A","2203913","2019-01-18 17:00","2019","01","18","17:00","-21.7","","-26.0","","68","","","","10","","27","","24.1","","102.47","","","","-34","","Blowing Snow"
"-133.03","69.43","TUKTOYAKTUK A","2203913","2019-01-18 18:00","2019","01","18","18:00","-22.3","","-26.5","","70","","","","9","","31","","24.1","","102.39","","","","-36","","Blowing Snow"
"-133.03","69.43","TUKTOYAKTUK A","2203913","2019-01-18 19:00","2019","01","18","19:00","-21.5","","-25.9","","68","","","","10","","35","","24.1","","102.31","","","","-35","","NA"
"-133.03","69.43","TUKTOYAKTUK A","2203913","2019-01-18 20:00","2019","01","18","20:00","-21.9","","-26.0","","70","","","","10","","28","","24.1","","102.23","","","","-35","","Blowing Snow"
"-133.03","69.43","TUKTOYAKTUK A","2203913","2019-01-18 21:00","2019","01","18","21:00","-19.7","","-24.3","","68","","","","10","","35","","24.1","","102.13","","","","-33","","Blowing Snow"
"-133.03","69.43","TUKTOYAKTUK A","2203913","2019-01-18 22:00","2019","01","18","22:00","-22.4","","-26.1","","72","","","","9","","30","","24.1","","102.07","","","","-36","","Blowing Snow"
"-133.03","69.43","TUKTOYAKTUK A","2203913","2019-01-18 23:00","2019","01","18","23:00","-21.1","","-25.2","","70","","","","9","","33","","24.1","","101.97","","","","-35","","Blowing Snow"
"-133.03","69.43","TUKTOYAKTUK A","2203913","2019-01-19 00:00","2019","01","19","00:00"
"-133.03","69.43","TUKTOYAKTUK A","2203913","2019-01-19 01:00","2019","01","19","01:00"
"-133.03","69.43","TUKTOYAKTUK A","2203913","2019-01-19 02:00","2019","01","19","02:00"
"-133.03","69.43","TUKTOYAKTUK A","2203913","2019-01-19 03:00","2019","01","19","03:00"
"-133.03","69.43","TUKTOYAKTUK A","2203913","2019-01-19 04:00","2019","01","19","04:00"
"-133.03","69.43","TUKTOYAKTUK A","2203913","2019-01-19 05:00","2019","01","19","05:00"
"-133.03","69.43","TUKTOYAKTUK A","2203913","2019-01-19 06:00","2019","01","19","06:00"
"-133.03","69.43","TUKTOYAKTUK A","2203913","2019-01-19 07:00","2019","01","19","07:00","-20.5","","-23.3","","79","","","","10","","23","","24.1","","101.56","","","","-32","","NA"
"-133.03","69.43","TUKTOYAKTUK A","2203913","2019-01-19 08:00","2019","01","19","08:00","-21.0","","-23.8","","79","","","","11","","18","","24.1","","101.54","","","","-31","","Mainly Clear"
"-133.03","69.43","TUKTOYAKTUK A","2203913","2019-01-19 09:00","2019","01","19","09:00","-21.8","","-24.5","","80","","","","11","","19","","24.1","","101.53","","","","-32","","NA"
"-133.03","69.43","TUKTOYAKTUK A","2203913","2019-01-19 10:00","2019","01","19","10:00","-22.7","","-25.3","","80","","","","11","","17","","24.1","","101.51","","","","-33","","NA"
"-133.03","69.43","TUKTOYAKTUK A","2203913","2019-01-19 11:00","2019","01","19","11:00","-23.0","","-25.6","","80","","","","10","","21","","24.1","","101.51","","","","-35","","Mainly Clear"
"-133.03","69.43","TUKTOYAKTUK A","2203913","2019-01-19 12:00","2019","01","19","12:00","-22.0","","-24.6","","80","","","","10","","17","","24.1","","101.49","","","","-32","","NA"
"-133.03","69.43","TUKTOYAKTUK A","2203913","2019-01-19 13:00","2019","01","19","13:00","-19.1","","-22.0","","78","","","","10","","19","","24.1","","101.45","","","","-29","","NA"
"-133.03","69.43","TUKTOYAKTUK A","2203913","2019-01-19 14:00","2019","01","19","14:00","-19.5","","-22.2","","79","","","","10","","14","","6.4","","101.44","","","","-28","","Snow"
"-133.03","69.43","TUKTOYAKTUK A","2203913","2019-01-19 15:00","2019","01","19","15:00","-17.8","","-20.3","","81","","","","10","","22","","6.4","","101.41","","","","-28","","Snow"
"-133.03","69.43","TUKTOYAKTUK A","2203913","2019-01-19 16:00","2019","01","19","16:00","-17.3","","-19.8","","81","","","","11","","21","","4.8","","101.40","","","","-27","","Snow"
"-133.03","69.43","TUKTOYAKTUK A","2203913","2019-01-19 17:00","2019","01","19","17:00","-17.2","","-19.9","","80","","","","12","","19","","6.4","","101.39","","","","-27","","Snow"
"-133.03","69.43","TUKTOYAKTUK A","2203913","2019-01-19 18:00","2019","01","19","18:00","-18.1","","-20.7","","80","","","","12","","20","","11.3","","101.38","","","","-28","","Snow"
"-133.03","69.43","TUKTOYAKTUK A","2203913","2019-01-19 19:00","2019","01","19","19:00","-20.2","","-22.9","","80","","","","13","","17","","16.1","","101.38","","","","-30","","NA"
"-133.03","69.43","TUKTOYAKTUK A","2203913","2019-01-19 20:00","2019","01","19","20:00","-21.8","","-24.5","","79","","","","13","","14","","16.1","","101.37","","","","-31","","Mainly Clear"
"-133.03","69.43","TUKTOYAKTUK A","2203913","2019-01-19 21:00","2019","01","19","21:00","-21.4","","-24.1","","79","","","","12","","14","","16.1","","101.39","","","","-30","","NA"
"-133.03","69.43","TUKTOYAKTUK A","2203913","2019-01-19 22:00","2019","01","19","22:00","-20.5","","-23.3","","78","","","","12","","13","","16.1","","101.41","","","","-29","","NA"
"-133.03","69.43","TUKTOYAKTUK A","2203913","2019-01-19 23:00","2019","01","19","23:00","-20.1","","-23.0","","78","","","","14","","11","","16.1","","101.42","","","","-28","","Mostly Cloudy"
"-133.03","69.43","TUKTOYAKTUK A","2203913","2019-01-20 00:00","2019","01","20","00:00"
"-133.03","69.43","TUKTOYAKTUK A","2203913","2019-01-20 01:00","2019","01","20","01:00"
"-133.03","69.43","TUKTOYAKTUK A","2203913","2019-01-20 02:00","2019","01","20","02:00"
"-133.03","69.43","TUKTOYAKTUK A","2203913","2019-01-20 03:00","2019","01","20","03:00"
"-133.03","69.43","TUKTOYAKTUK A","2203913","2019-01-20 04:00","2019","01","20","04:00"
"-133.03","69.43","TUKTOYAKTUK A","2203913","2019-01-20 05:00","2019","01","20","05:00"
"-133.03","69.43","TUKTOYAKTUK A","2203913","2019-01-20 06:00","2019","01","20","06:00"
"-133.03","69.43","TUKTOYAKTUK A","2203913","2019-01-20 07:00","2019","01","20","07:00","-20.0","","-22.7","","80","","","","25","","7","","9.7","","101.56","","","","-26","","Snow"
"-133.03","69.43","TUKTOYAKTUK A","2203913","2019-01-20 08:00","2019","01","20","08:00","-19.7","","-22.4","","80","","","","25","","13","","9.7","","101.54","","","","-28","","Snow"
"-133.03","69.43","TUKTOYAKTUK A","2203913","2019-01-20 09:00","2019","01","20","09:00","-20.3","","-23.1","","79","","","","25","","16","","9.7","","101.57","","","","-30","","Snow"
"-133.03","69.43","TUKTOYAKTUK A","2203913","2019-01-20 10:00","2019","01","20","10:00","-21.0","","-23.8","","79","","","","25","","12","","9.7","","101.58","","","","-29","","Snow"
"-133.03","69.43","TUKTOYAKTUK A","2203913","2019-01-20 11:00","2019","01","20","11:00","-21.5","","-24.3","","79","","","","23","","13","","16.1","","101.62","","","","-30","","Snow"
"-133.03","69.43","TUKTOYAKTUK A","2203913","2019-01-20 12:00","2019","01","20","12:00","-22.2","","-25.0","","78","","","","22","","7","","16.1","","101.63","","","","-28","","Snow"
"-133.03","69.43","TUKTOYAKTUK A","2203913","2019-01-20 13:00","2019","01","20","13:00","-23.4","","-26.3","","78","","","","22","","11","","16.1","","101.65","","","","-32","","Snow"
"-133.03","69.43","TUKTOYAKTUK A","2203913","2019-01-20 14:00","2019","01","20","14:00","-23.6","","-26.2","","79","","","","20","","9","","24.1","","101.66","","","","-31","","Mostly Cloudy"
"-133.03","69.43","TUKTOYAKTUK A","2203913","2019-01-20 15:00","2019","01","20","15:00","-23.9","","-26.5","","79","","","","21","","10","","24.1","","101.66","","","","-32","","NA"
"-133.03","69.43","TUKTOYAKTUK A","2203913","2019-01-20 16:00","2019","01","20","16:00","-23.2","","-26.0","","78","","","","22","","11","","24.1","","101.65","","","","-31","","NA"
"-133.03","69.43","TUKTOYAKTUK A","2203913","2019-01-20 17:00","2019","01","20","17:00","-24.5","","-27.3","","78","","","","20","","14","","24.1","","101.65","","","","-34","","Mainly Clear"
"-133.03","69.43","TUKTOYAKTUK A","2203913","2019-01-20 18:00","2019","01","20","18:00","-25.8","","-28.6","","78","","","","22","","14","","24.1","","101.65","","","","-36","","NA"
"-133.03","69.43","TUKTOYAKTUK A","2203913","2019-01-20 19:00","2019","01","20","19:00","-25.8","","-27.9","","82","","","","22","","13","","1.6","","101.65","","","","-35","","Fog"
"-133.03","69.43","TUKTOYAKTUK A","2203913","2019-01-20 20:00","2019","01","20","20:00","-26.6","","-29.4","","78","","","","21","","11","","11.3","","101.65","","","","-36","","Mainly Clear"
"-133.03","69.43","TUKTOYAKTUK A","2203913","2019-01-20 21:00","2019","01","20","21:00","-27.4","","-30.3","","77","","","","21","","10","","16.1","","101.66","","","","-36","","NA"
"-133.03","69.43","TUKTOYAKTUK A","2203913","2019-01-20 22:00","2019","01","20","22:00","-25.9","","-28.7","","78","","","","20","","8","","16.1","","101.64","","","","-33","","NA"
"-133.03","69.43","TUKTOYAKTUK A","2203913","2019-01-20 23:00","2019","01","20","23:00","-23.4","","-26.1","","79","","","","23","","10","","16.1","","101.64","","","","-31","","Snow"
"-133.03","69.43","TUKTOYAKTUK A","2203913","2019-01-21 00:00","2019","01","21","00:00"
"-133.03","69.43","TUKTOYAKTUK A","2203913","2019-01-21 01:00","2019","01","21","01:00"
"-133.03","69.43","TUKTOYAKTUK A","2203913","2019-01-21 02:00","2019","01","21","02:00"
"-133.03","69.43","TUKTOYAKTUK A","2203913","2019-01-21 03:00","2019","01","21","03:00"
"-133.03","69.43","TUKTOYAKTUK A","2203913","2019-01-21 04:00","2019","01","21","04:00"
"-133.03","69.43","TUKTOYAKTUK A","2203913","2019-01-21 05:00","2019","01","21","05:00"
"-133.03","69.43","TUKTOYAKTUK A","2203913","2019-01-21 06:00","2019","01","21","06:00"
"-133.03","69.43","TUKTOYAKTUK A","2203913","2019-01-21 07:00","2019","01","21","07:00","-17.4","","-19.8","","82","","","","27","","26","","16.1","","101.66","","","","-28","","Snow"
"-133.03","69.43","TUKTOYAKTUK A","2203913","2019-01-21 08:00","2019","01","21","08:00","-18.3","","-20.7","","82","","","","25","","26","","12.9","","101.67","","","","-30","","Snow"
"-133.03","69.43","TUKTOYAKTUK A","2203913","2019-01-21 09:00","2019","01","21","09:00","-17.4","","-19.7","","82","","","","27","","24","","9.7","","101.67","","","","-28","","Snow"
"-133.03","69.43","TUKTOYAKTUK A","2203913","2019-01-21 10:00","2019","01","21","10:00","-17.6","","-19.9","","82","","","","27","","23","","3.2","","101.67","","","","-28","","Snow"
"-133.03","69.43","TUKTOYAKTUK A","2203913","2019-01-21 11:00","2019","01","21","11:00","-17.8","","-20.2","","81","","","","29","","21","","3.2","","101.73","","","","-28","","Snow"
"-133.03","69.43","TUKTOYAKTUK A","2203913","2019-01-21 12:00","2019","01","21","12:00","-18.2","","-20.8","","81","","","","31","","19","","8.1","","101.77","","","","-28","","Snow"
"-133.03","69.43","TUKTOYAKTUK A","2203913","2019-01-21 13:00","2019","01","21","13:00","-18.6","","-21.4","","80","","","","33","","19","","8.1","","101.83","","","","-28","","Snow"
"-133.03","69.43","TUKTOYAKTUK A","2203913","2019-01-21 14:00","2019","01","21","14:00","-19.0","","-21.7","","80","","","","30","","21","","4.8","","101.86","","","","-29","","Snow,Blowing Snow"
"-133.03","69.43","TUKTOYAKTUK A","2203913","2019-01-21 15:00","2019","01","21","15:00","-19.2","","-22.1","","78","","","","31","","18","","4.8","","101.91","","","","-29","","Snow,Blowing Snow"
"-133.03","69.43","TUKTOYAKTUK A","2203913","2019-01-21 16:00","2019","01","21","16:00","-19.2","","-22.0","","78","","","","33","","17","","4.8","","101.96","","","","-29","","Snow,Blowing Snow"
"-133.03","69.43","TUKTOYAKTUK A","2203913","2019-01-21 17:00","2019","01","21","17:00","-19.8","","-22.5","","79","","","","31","","14","","11.3","","101.98","","","","-29","","Snow"
"-133.03","69.43","TUKTOYAKTUK A","2203913","2019-01-21 18:00","2019","01","21","18:00","-19.7","","-22.4","","79","","","","31","","14","","11.3","","102.04","","","","-28","","Snow"
"-133.03","69.43","TUKTOYAKTUK A","2203913","2019-01-21 19:00","2019","01","21","19:00","-19.3","","-22.1","","79","","","","31","","16","","16.1","","102.06","","","","-29","","Snow"
"-133.03","69.43","TUKTOYAKTUK A","2203913","2019-01-21 20:00","2019","01","21","20:00","-19.2","","-21.9","","80","","","","30","","16","","16.1","","102.09","","","","-28","","Snow"
"-133.03","69.43","TUKTOYAKTUK A","2203913","2019-01-21 21:00","2019","01","21","21:00","-18.0","","-20.7","","79","","","","35","","13","","16.1","","102.13","","","","-26","","Snow"
"-133.03","69.43","TUKTOYAKTUK A","2203913","2019-01-21 22:00","2019","01","21","22:00","-18.0","","-20.8","","79","","","","31","","12","","11.3","","102.21","","","","-26","","Snow"
"-133.03","69.43","TUKTOYAKTUK A","2203913","2019-01-21 23:00","2019","01","21","23:00","-19.0","","-21.8","","79","","","","36","","18","","8.1","","102.26","","","","-29","","Snow"
"-133.03","69.43","TUKTOYAKTUK A","2203913","2019-01-22 00:00","2019","01","22","00:00"
"-133.03","69.43","TUKTOYAKTUK A","2203913","2019-01-22 01:00","2019","01","22","01:00"
"-133.03","69.43","TUKTOYAKTUK A","2203913","2019-01-22 02:00","2019","01","22","02:00"
"-133.03","69.43","TUKTOYAKTUK A","2203913","2019-01-22 03:00","2019","01","22","03:00"
"-133.03","69.43","TUKTOYAKTUK A","2203913","2019-01-22 04:00","2019","01","22","04:00"
"-133.03","69.43","TUKTOYAKTUK A","2203913","2019-01-22 05:00","2019","01","22","05:00"
"-133.03","69.43","TUKTOYAKTUK A","2203913","2019-01-22 06:00","2019","01","22","06:00"
"-133.03","69.43","TUKTOYAKTUK A","2203913","2019-01-22 07:00","2019","01","22","07:00","-27.4","","-30.3","","77","","","","30","","13","","24.1","","102.60","","","","-37","","NA"
"-133.03","69.43","TUKTOYAKTUK A","2203913","2019-01-22 08:00","2019","01","22","08:00","-28.4","","-31.3","","77","","","","30","","13","","24.1","","102.62","","","","-39","","Clear"
"-133.03","69.43","TUKTOYAKTUK A","2203913","2019-01-22 09:00","2019","01","22","09:00","-29.2","","-32.2","","76","","","","36","","2","","24.1","","102.67","","","","-31","","NA"
"-133.03","69.43","TUKTOYAKTUK A","2203913","2019-01-22 10:00","2019","01","22","10:00","-28.8","","-31.7","","76","","","","31","","6","","24.1","","102.70","","","","-35","","NA"
"-133.03","69.43","TUKTOYAKTUK A","2203913","2019-01-22 11:00","2019","01","22","11:00","-32.1","","-35.1","","75","","","","23","","4","","24.1","","102.74","","","","-37","","Clear"
"-133.03","69.43","TUKTOYAKTUK A","2203913","2019-01-22 12:00","2019","01","22","12:00","-32.9","","-35.8","","76","","","","22","","5","","24.1","","102.80","","","","-39","","NA"
"-133.03","69.43","TUKTOYAKTUK A","2203913","2019-01-22 13:00","2019","01","22","13:00","-33.0","","-36.0","","75","","","","23","","8","","24.1","","102.84","","","","-41","","NA"
"-133.03","69.43","TUKTOYAKTUK A","2203913","2019-01-22 14:00","2019","01","22","14:00","-32.9","","-35.7","","76","","","","23","","8","","24.1","","102.85","","","","-41","","Clear"
"-133.03","69.43","TUKTOYAKTUK A","2203913","2019-01-22 15:00","2019","01","22","15:00","-33.1","","-36.0","","76","","","","19","","8","","24.1","","102.89","","","","-42","","NA"
"-133.03","69.43","TUKTOYAKTUK A","2203913","2019-01-22 16:00","2019","01","22","16:00","-33.1","","-36.1","","75","","","","18","","7","","24.1","","102.90","","","","-41","","NA"
"-133.03","69.43","TUKTOYAKTUK A","2203913","2019-01-22 17:00","2019","01","22","17:00","-32.2","","-35.1","","76","","","","15","","7","","24.1","","102.89","","","","-40","","Clear"
"-133.03","69.43","TUKTOYAKTUK A","2203913","2019-01-22 18:00","2019","01","22","18:00","-32.0","","-34.9","","76","","","","17","","8","","24.1","","102.88","","","","-40","","NA"
"-133.03","69.43","TUKTOYAKTUK A","2203913","2019-01-22 19:00","2019","01","22","19:00","-32.6","","-35.6","","76","","","","12","","6","","24.1","","102.84","","","","-40","","NA"
"-133.03","69.43","TUKTOYAKTUK A","2203913","2019-01-22 20:00","2019","01","22","20:00","-32.8","","-35.8","","75","","","","13","","9","","24.1","","102.82","","","","-42","","Clear"
"-133.03","69.43","TUKTOYAKTUK A","2203913","2019-01-22 21:00","2019","01","22","21:00","-31.3","","-34.2","","76","","","","16","","13","","1.6","","102.79","","","","-42","","Fog"
"-133.03","69.43","TUKTOYAKTUK A","2203913","2019-01-22 22:00","2019","01","22","22:00","-31.0","","-34.2","","74","","","","14","","16","","1.6","","102.75","","","","-43","","Fog"
"-133.03","69.43","TUKTOYAKTUK A","2203913","2019-01-22 23:00","2019","01","22","23:00","-30.0","","-33.1","","75","","","","12","","15","","0.8","","102.71","","","","-41","","Freezing Fog"
"-133.03","69.43","TUKTOYAKTUK A","2203913","2019-01-23 00:00","2019","01","23","00:00"
"-133.03","69.43","TUKTOYAKTUK A","2203913","2019-01-23 01:00","2019","01","23","01:00"
"-133.03","69.43","TUKTOYAKTUK A","2203913","2019-01-23 02:00","2019","01","23","02:00"
"-133.03","69.43","TUKTOYAKTUK A","2203913","2019-01-23 03:00","2019","01","23","03:00"
"-133.03","69.43","TUKTOYAKTUK A","2203913","2019-01-23 04:00","2019","01","23","04:00"
"-133.03","69.43","TUKTOYAKTUK A","2203913","2019-01-23 05:00","2019","01","23","05:00"
"-133.03","69.43","TUKTOYAKTUK A","2203913","2019-01-23 06:00","2019","01","23","06:00"
"-133.03","69.43","TUKTOYAKTUK A","2203913","2019-01-23 07:00","2019","01","23","07:00","-30.0","","-33.2","","74","","","","11","","25","","16.1","","102.15","","","","-44","","NA"
"-133.03","69.43","TUKTOYAKTUK A","2203913","2019-01-23 08:00","2019","01","23","08:00","-30.3","","-33.5","","74","","","","9","","13","","24.1","","102.06","","","","-41","","Clear"
"-133.03","69.43","TUKTOYAKTUK A","2203913","2019-01-23 09:00","2019","01","23","09:00","-30.2","","-33.4","","74","","","","10","","23","","24.1","","102.00","","","","-44","","NA"
"-133.03","69.43","TUKTOYAKTUK A","2203913","2019-01-23 10:00","2019","01","23","10:00","-29.7","","-32.9","","75","","","","11","","24","","24.1","","101.93","","","","-44","","NA"
"-133.03","69.43","TUKTOYAKTUK A","2203913","2019-01-23 11:00","2019","01","23","11:00","-29.2","","-32.4","","75","","","","10","","28","","16.1","","101.87","","","","-44","","Clear"
"-133.03","69.43","TUKTOYAKTUK A","2203913","2019-01-23 12:00","2019","01","23","12:00","-28.9","","-32.1","","75","","","","11","","32","","16.1","","101.78","","","","-45","","Blowing Snow"
"-133.03","69.43","TUKTOYAKTUK A","2203913","2019-01-23 13:00","2019","01","23","13:00","-28.8","","-31.9","","75","","","","11","","26","","16.1","","101.73","","","","-43","","Blowing Snow"
"-133.03","69.43","TUKTOYAKTUK A","2203913","2019-01-23 14:00","2019","01","23","14:00","-28.4","","-31.5","","75","","","","12","","28","","16.1","","101.69","","","","-43","","Blowing Snow"
"-133.03","69.43","TUKTOYAKTUK A","2203913","2019-01-23 15:00","2019","01","23","15:00","-28.4","","-31.4","","75","","","","11","","27","","16.1","","101.63","","","","-43","","Blowing Snow"
"-133.03","69.43","TUKTOYAKTUK A","2203913","2019-01-23 16:00","2019","01","23","16:00","-28.4","","-31.5","","75","","","","11","","30","","16.1","","101.52","","","","-44","","Blowing Snow"
"-133.03","69.43","TUKTOYAKTUK A","2203913","2019-01-23 17:00","2019","01","23","17:00","-28.1","","-31.1","","76","","","","11","","28","","16.1","","101.40","","","","-43","","Blowing Snow"
"-133.03","69.43","TUKTOYAKTUK A","2203913","2019-01-23 18:00","2019","01","23","18:00","-27.8","","-30.8","","76","","","","11","","25","","16.1","","101.36","","","","-42","","Blowing Snow"
"-133.03","69.43","TUKTOYAKTUK A","2203913","2019-01-23 19:00","2019","01","23","19:00","-27.5","","-30.5","","76","","","","11","","28","","16.1","","101.27","","","","-42","","Blowing Snow"
"-133.03","69.43","TUKTOYAKTUK A","2203913","2019-01-23 20:00","2019","01","23","20:00","-27.5","","-30.5","","76","","","","11","","27","","16.1","","101.18","","","","-42","","Blowing Snow"
"-133.03","69.43","TUKTOYAKTUK A","2203913","2019-01-23 21:00","2019","01","23","21:00","-27.0","","-30.0","","76","","","","12","","27","","16.1","","101.13","","","","-41","","Blowing Snow"
"-133.03","69.43","TUKTOYAKTUK A","2203913","2019-01-23 22:00","2019","01","23","22:00","-26.6","","-29.5","","77","","","","11","","27","","16.1","","101.06","","","","-41","","Blowing Snow"
"-133.03","69.43","TUKTOYAKTUK A","2203913","2019-01-23 23:00","2019","01","23","23:00","-25.8","","-28.7","","77","","","","11","","27","","16.1","","101.01","","","","-40","","Blowing Snow"
"-133.03","69.43","TUKTOYAKTUK A","2203913","2019-01-24 00:00","2019","01","24","00:00"
"-133.03","69.43","TUKTOYAKTUK A","2203913","2019-01-24 01:00","2019","01","24","01:00"
"-133.03","69.43","TUKTOYAKTUK A","2203913","2019-01-24 02:00","2019","01","24","02:00"
"-133.03","69.43","TUKTOYAKTUK A","2203913","2019-01-24 03:00","2019","01","24","03:00"
"-133.03","69.43","TUKTOYAKTUK A","2203913","2019-01-24 04:00","2019","01","24","04:00"
"-133.03","69.43","TUKTOYAKTUK A","2203913","2019-01-24 05:00","2019","01","24","05:00"
"-133.03","69.43","TUKTOYAKTUK A","2203913","2019-01-24 06:00","2019","01","24","06:00"
"-133.03","69.43","TUKTOYAKTUK A","2203913","2019-01-24 07:00","2019","01","24","07:00","-22.3","","-26.0","","73","","","","14","","14","","24.1","","100.85","","","","-32","","NA"
"-133.03","69.43","TUKTOYAKTUK A","2203913","2019-01-24 08:00","2019","01","24","08:00","-23.3","","-26.6","","75","","","","14","","10","","24.1","","100.87","","","","-31","","Mainly Clear"
"-133.03","69.43","TUKTOYAKTUK A","2203913","2019-01-24 09:00","2019","01","24","09:00","-22.7","","-25.8","","76","","","","13","","11","","24.1","","100.87","","","","-31","","NA"
"-133.03","69.43","TUKTOYAKTUK A","2203913","2019-01-24 10:00","2019","01","24","10:00","-23.6","","-26.6","","77","","","","12","","4","","24.1","","100.88","","","","-27","","NA"
"-133.03","69.43","TUKTOYAKTUK A","2203913","2019-01-24 11:00","2019","01","24","11:00","-24.0","","-26.9","","78","","","","16","","8","","24.1","","100.92","","","","-31","","Mainly Clear"
"-133.03","69.43","TUKTOYAKTUK A","2203913","2019-01-24 12:00","2019","01","24","12:00","-24.5","","-27.3","","78","","","","17","","10","","24.1","","100.93","","","","-33","","NA"
"-133.03","69.43","TUKTOYAKTUK A","2203913","2019-01-24 13:00","2019","01","24","13:00","-25.1","","-27.9","","78","","","","16","","8","","24.1","","100.90","","","","-32","","NA"
"-133.03","69.43","TUKTOYAKTUK A","2203913","2019-01-24 14:00","2019","01","24","14:00","-24.9","","-27.6","","79","","","","19","","11","","24.1","","100.91","","","","-34","","Mainly Clear"
"-133.03","69.43","TUKTOYAKTUK A","2203913","2019-01-24 15:00","2019","01","24","15:00","-25.0","","-27.8","","78","","","","15","","8","","24.1","","100.91","","","","-32","","NA"
"-133.03","69.43","TUKTOYAKTUK A","2203913","2019-01-24 16:00","2019","01","24","16:00","-25.4","","-28.0","","79","","","","13","","7","","24.1","","100.93","","","","-32","","NA"
"-133.03","69.43","TUKTOYAKTUK A","2203913","2019-01-24 17:00","2019","01","24","17:00","-26.2","","-29.0","","78","","","","10","","8","","22.5","","100.93","","","","-34","","Mainly Clear"
"-133.03","69.43","TUKTOYAKTUK A","2203913","2019-01-24 18:00","2019","01","24","18:00","-26.6","","-29.4","","78","","","","12","","6","","24.1","","100.94","","","","-33","","NA"
"-133.03","69.43","TUKTOYAKTUK A","2203913","2019-01-24 19:00","2019","01","24","19:00","-26.2","","-29.0","","78","","","","16","","7","","24.1","","100.95","","","","-33","","NA"
"-133.03","69.43","TUKTOYAKTUK A","2203913","2019-01-24 20:00","2019","01","24","20:00","-26.3","","-29.1","","78","","","","7","","3","","24.1","","101.02","","","","-29","","Clear"
"-133.03","69.43","TUKTOYAKTUK A","2203913","2019-01-24 21:00","2019","01","24","21:00","-25.7","","-28.5","","78","","","","36","","2","","24.1","","101.00","","","","-28","","NA"
"-133.03","69.43","TUKTOYAKTUK A","2203913","2019-01-24 22:00","2019","01","24","22:00","-24.1","","-26.8","","79","","","","36","","2","","24.1","","101.02","","","","-26","","NA"
"-133.03","69.43","TUKTOYAKTUK A","2203913","2019-01-24 23:00","2019","01","24","23:00","-23.4","","-26.1","","79","","","","36","","2","","24.1","","101.05","","","","-25","","Mainly Clear"
"-133.03","69.43","TUKTOYAKTUK A","2203913","2019-01-25 00:00","2019","01","25","00:00"
"-133.03","69.43","TUKTOYAKTUK A","2203913","2019-01-25 01:00","2019","01","25","01:00"
"-133.03","69.43","TUKTOYAKTUK A","2203913","2019-01-25 02:00","2019","01","25","02:00"
"-133.03","69.43","TUKTOYAKTUK A","2203913","2019-01-25 03:00","2019","01","25","03:00"
"-133.03","69.43","TUKTOYAKTUK A","2203913","2019-01-25 04:00","2019","01","25","04:00"
"-133.03","69.43","TUKTOYAKTUK A","2203913","2019-01-25 05:00","2019","01","25","05:00"
"-133.03","69.43","TUKTOYAKTUK A","2203913","2019-01-25 06:00","2019","01","25","06:00"
"-133.03","69.43","TUKTOYAKTUK A","2203913","2019-01-25 07:00","2019","01","25","07:00","-25.8","","-28.6","","78","","","","5","","8","","24.1","","100.99","","","","-33","","NA"
"-133.03","69.43","TUKTOYAKTUK A","2203913","2019-01-25 08:00","2019","01","25","08:00","-24.2","","-26.7","","80","","","","8","","12","","24.1","","100.94","","","","-33","","Clear"
"-133.03","69.43","TUKTOYAKTUK A","2203913","2019-01-25 09:00","2019","01","25","09:00","-24.9","","-27.5","","79","","","","6","","13","","24.1","","100.88","","","","-34","","NA"
"-133.03","69.43","TUKTOYAKTUK A","2203913","2019-01-25 10:00","2019","01","25","10:00","-25.0","","-27.6","","79","","","","7","","8","","24.1","","100.88","","","","-32","","NA"
"-133.03","69.43","TUKTOYAKTUK A","2203913","2019-01-25 11:00","2019","01","25","11:00","-24.5","","-27.1","","79","","","","7","","14","","24.1","","100.81","","","","-34","","Mainly Clear"
"-133.03","69.43","TUKTOYAKTUK A","2203913","2019-01-25 12:00","2019","01","25","12:00","-24.2","","-26.9","","79","","","","7","","19","","24.1","","100.71","","","","-36","","NA"
"-133.03","69.43","TUKTOYAKTUK A","2203913","2019-01-25 13:00","2019","01","25","13:00","-23.8","","-26.5","","79","","","","6","","22","","24.1","","100.68","","","","-36","","NA"
"-133.03","69.43","TUKTOYAKTUK A","2203913","2019-01-25 14:00","2019","01","25","14:00","-20.7","","-23.2","","81","","","","7","","26","","12.9","","100.63","","","","-33","","Blowing Snow"
"-133.03","69.43","TUKTOYAKTUK A","2203913","2019-01-25 15:00","2019","01","25","15:00","-19.8","","-22.3","","81","","","","8","","26","","12.9","","100.61","","","","-32","","Blowing Snow"
"-133.03","69.43","TUKTOYAKTUK A","2203913","2019-01-25 16:00","2019","01","25","16:00","-18.4","","-20.7","","82","","","","7","","29","","12.9","","100.56","","","","-30","","Blowing Snow"
"-133.03","69.43","TUKTOYAKTUK A","2203913","2019-01-25 17:00","2019","01","25","17:00","-17.4","","-19.6","","83","","","","7","","35","","8.1","","100.58","","","","-30","","Blowing Snow"
"-133.03","69.43","TUKTOYAKTUK A","2203913","2019-01-25 18:00","2019","01","25","18:00","-16.6","","-18.8","","83","","","","8","","32","","4.8","","100.58","","","","-28","","Blowing Snow"
"-133.03","69.43","TUKTOYAKTUK A","2203913","2019-01-25 19:00","2019","01","25","19:00","-16.8","","-19.0","","83","","","","7","","41","","1.6","","100.52","","","","-30","","Snow,Blowing Snow"
"-133.03","69.43","TUKTOYAKTUK A","2203913","2019-01-25 20:00","2019","01","25","20:00","-17.1","","-19.3","","83","","","","7","","39","","1.6","","100.51","","","","-30","","Snow,Blowing Snow"
"-133.03","69.43","TUKTOYAKTUK A","2203913","2019-01-25 21:00","2019","01","25","21:00","-17.2","","-19.5","","83","","","","8","","29","","1.6","","100.55","","","","-29","","Snow,Blowing Snow"
"-133.03","69.43","TUKTOYAKTUK A","2203913","2019-01-25 22:00","2019","01","25","22:00","-17.3","","-19.6","","83","","","","7","","38","","1.6","","100.51","","","","-30","","Snow,Blowing Snow"
"-133.03","69.43","TUKTOYAKTUK A","2203913","2019-01-25 23:00","2019","01","25","23:00","-17.1","","-19.5","","82","","","","7","","40","","1.6","","100.51","","","","-30","","Snow,Blowing Snow"
"-133.03","69.43","TUKTOYAKTUK A","2203913","2019-01-26 00:00","2019","01","26","00:00"
"-133.03","69.43","TUKTOYAKTUK A","2203913","2019-01-26 01:00","2019","01","26","01:00"
"-133.03","69.43","TUKTOYAKTUK A","2203913","2019-01-26 02:00","2019","01","26","02:00"
"-133.03","69.43","TUKTOYAKTUK A","2203913","2019-01-26 03:00","2019","01","26","03:00"
"-133.03","69.43","TUKTOYAKTUK A","2203913","2019-01-26 04:00","2019","01","26","04:00"
"-133.03","69.43","TUKTOYAKTUK A","2203913","2019-01-26 05:00","2019","01","26","05:00"
"-133.03","69.43","TUKTOYAKTUK A","2203913","2019-01-26 06:00","2019","01","26","06:00"
"-133.03","69.43","TUKTOYAKTUK A","2203913","2019-01-26 07:00","2019","01","26","07:00","-19.5","","-22.2","","79","","","","7","","27","","4.8","","100.76","","","","-31","","Snow,Blowing Snow"
"-133.03","69.43","TUKTOYAKTUK A","2203913","2019-01-26 08:00","2019","01","26","08:00","-20.2","","-23.0","","79","","","","7","","33","","4.8","","100.81","","","","-33","","Snow,Blowing Snow"
"-133.03","69.43","TUKTOYAKTUK A","2203913","2019-01-26 09:00","2019","01","26","09:00","-20.6","","-23.4","","78","","","","6","","27","","4.8","","100.87","","","","-33","","Snow,Blowing Snow"
"-133.03","69.43","TUKTOYAKTUK A","2203913","2019-01-26 10:00","2019","01","26","10:00","-20.9","","-23.6","","79","","","","6","","37","","4.8","","100.93","","","","-35","","Snow,Blowing Snow"
"-133.03","69.43","TUKTOYAKTUK A","2203913","2019-01-26 11:00","2019","01","26","11:00","-20.8","","-23.5","","79","","","","6","","33","","4.8","","101.03","","","","-34","","Snow,Blowing Snow"
"-133.03","69.43","TUKTOYAKTUK A","2203913","2019-01-26 12:00","2019","01","26","12:00","-21.1","","-24.0","","78","","","","6","","35","","4.8","","101.14","","","","-35","","Snow,Blowing Snow"
"-133.03","69.43","TUKTOYAKTUK A","2203913","2019-01-26 13:00","2019","01","26","13:00","-21.5","","-24.4","","78","","","","6","","32","","3.2","","101.29","","","","-35","","Snow,Blowing Snow"
"-133.03","69.43","TUKTOYAKTUK A","2203913","2019-01-26 14:00","2019","01","26","14:00","-21.8","","-24.8","","78","","","","6","","34","","3.2","","101.41","","","","-36","","Snow,Blowing Snow"
"-133.03","69.43","TUKTOYAKTUK A","2203913","2019-01-26 15:00","2019","01","26","15:00","-21.9","","-25.0","","77","","","","5","","27","","8.1","","101.54","","","","-34","","Snow,Blowing Snow"
"-133.03","69.43","TUKTOYAKTUK A","2203913","2019-01-26 16:00","2019","01","26","16:00","-22.1","","-25.2","","76","","","","6","","22","","9.7","","101.69","","","","-34","","Snow,Blowing Snow"
"-133.03","69.43","TUKTOYAKTUK A","2203913","2019-01-26 17:00","2019","01","26","17:00","-22.2","","-25.3","","76","","","","6","","20","","16.1","","101.84","","","","-33","","Snow,Blowing Snow"
"-133.03","69.43","TUKTOYAKTUK A","2203913","2019-01-26 18:00","2019","01","26","18:00","-23.9","","-27.1","","75","","","","5","","16","","16.1","","102.02","","","","-34","","Snow"
"-133.03","69.43","TUKTOYAKTUK A","2203913","2019-01-26 19:00","2019","01","26","19:00","-23.2","","-26.6","","74","","","","7","","12","","16.1","","102.19","","","","-32","","Snow"
"-133.03","69.43","TUKTOYAKTUK A","2203913","2019-01-26 20:00","2019","01","26","20:00","-22.5","","-25.6","","76","","","","2","","9","","16.1","","102.33","","","","-30","","Snow"
"-133.03","69.43","TUKTOYAKTUK A","2203913","2019-01-26 21:00","2019","01","26","21:00","-22.6","","-25.7","","76","","","","35","","5","","16.1","","102.52","","","","-27","","Snow"
"-133.03","69.43","TUKTOYAKTUK A","2203913","2019-01-26 22:00","2019","01","26","22:00","-21.9","","-25.0","","77","","","","34","","6","","16.1","","102.67","","","","-27","","Snow"
"-133.03","69.43","TUKTOYAKTUK A","2203913","2019-01-26 23:00","2019","01","26","23:00","-21.7","","-24.7","","77","","","","31","","4","","16.1","","102.82","","","","-25","","Snow"
"-133.03","69.43","TUKTOYAKTUK A","2203913","2019-01-27 00:00","2019","01","27","00:00"
"-133.03","69.43","TUKTOYAKTUK A","2203913","2019-01-27 01:00","2019","01","27","01:00"
"-133.03","69.43","TUKTOYAKTUK A","2203913","2019-01-27 02:00","2019","01","27","02:00"
"-133.03","69.43","TUKTOYAKTUK A","2203913","2019-01-27 03:00","2019","01","27","03:00"
"-133.03","69.43","TUKTOYAKTUK A","2203913","2019-01-27 04:00","2019","01","27","04:00"
"-133.03","69.43","TUKTOYAKTUK A","2203913","2019-01-27 05:00","2019","01","27","05:00"
"-133.03","69.43","TUKTOYAKTUK A","2203913","2019-01-27 06:00","2019","01","27","06:00"
"-133.03","69.43","TUKTOYAKTUK A","2203913","2019-01-27 07:00","2019","01","27","07:00","-28.7","","-31.5","","77","","","","12","","15","","24.1","","103.46","","","","-40","","NA"
"-133.03","69.43","TUKTOYAKTUK A","2203913","2019-01-27 08:00","2019","01","27","08:00","-27.1","","-30.0","","77","","","","11","","20","","24.1","","103.48","","","","-39","","Mostly Cloudy"
"-133.03","69.43","TUKTOYAKTUK A","2203913","2019-01-27 09:00","2019","01","27","09:00","-25.5","","-28.4","","78","","","","10","","23","","24.1","","103.44","","","","-38","","NA"
"-133.03","69.43","TUKTOYAKTUK A","2203913","2019-01-27 10:00","2019","01","27","10:00","-25.8","","-28.7","","77","","","","10","","26","","16.1","","103.49","","","","-39","","NA"
"-133.03","69.43","TUKTOYAKTUK A","2203913","2019-01-27 11:00","2019","01","27","11:00","-26.1","","-29.1","","77","","","","11","","33","","4.8","","103.51","","","","-41","","Snow,Blowing Snow"
"-133.03","69.43","TUKTOYAKTUK A","2203913","2019-01-27 12:00","2019","01","27","12:00","-26.3","","-29.3","","77","","","","9","","30","","9.7","","103.52","","","","-41","","Snow,Blowing Snow"
"-133.03","69.43","TUKTOYAKTUK A","2203913","2019-01-27 13:00","2019","01","27","13:00","-26.6","","-29.7","","76","","","","10","","32","","16.1","","103.49","","","","-42","","Snow,Blowing Snow"
"-133.03","69.43","TUKTOYAKTUK A","2203913","2019-01-27 14:00","2019","01","27","14:00","-26.3","","-29.3","","76","","","","10","","35","","16.1","","103.48","","","","-42","","Blowing Snow"
"-133.03","69.43","TUKTOYAKTUK A","2203913","2019-01-27 15:00","2019","01","27","15:00","-25.9","","-28.9","","76","","","","10","","35","","16.1","","103.49","","","","-41","","Blowing Snow"
"-133.03","69.43","TUKTOYAKTUK A","2203913","2019-01-27 16:00","2019","01","27","16:00","-25.3","","-28.4","","76","","","","10","","34","","16.1","","103.45","","","","-40","","Blowing Snow"
"-133.03","69.43","TUKTOYAKTUK A","2203913","2019-01-27 17:00","2019","01","27","17:00","-25.0","","-28.2","","75","","","","10","","34","","16.1","","103.37","","","","-40","","Blowing Snow"
"-133.03","69.43","TUKTOYAKTUK A","2203913","2019-01-27 18:00","2019","01","27","18:00","-24.1","","-27.5","","74","","","","10","","37","","16.1","","103.33","","","","-39","","Blowing Snow"
"-133.03","69.43","TUKTOYAKTUK A","2203913","2019-01-27 19:00","2019","01","27","19:00","-23.9","","-27.6","","73","","","","11","","39","","16.1","","103.27","","","","-39","","Blowing Snow"
"-133.03","69.43","TUKTOYAKTUK A","2203913","2019-01-27 20:00","2019","01","27","20:00","-23.2","","-26.9","","72","","","","10","","40","","9.7","","103.26","","","","-38","","Snow,Blowing Snow"
"-133.03","69.43","TUKTOYAKTUK A","2203913","2019-01-27 21:00","2019","01","27","21:00","-22.1","","-25.8","","73","","","","11","","44","","16.1","","103.16","","","","-38","","Snow,Blowing Snow"
"-133.03","69.43","TUKTOYAKTUK A","2203913","2019-01-27 22:00","2019","01","27","22:00","-21.1","","-24.9","","72","","","","11","","36","","16.1","","103.11","","","","-35","","Blowing Snow"
"-133.03","69.43","TUKTOYAKTUK A","2203913","2019-01-27 23:00","2019","01","27","23:00","-20.0","","-23.7","","73","","","","11","","34","","16.1","","103.06","","","","-33","","Blowing Snow"
"-133.03","69.43","TUKTOYAKTUK A","2203913","2019-01-28 00:00","2019","01","28","00:00"
"-133.03","69.43","TUKTOYAKTUK A","2203913","2019-01-28 01:00","2019","01","28","01:00"
"-133.03","69.43","TUKTOYAKTUK A","2203913","2019-01-28 02:00","2019","01","28","02:00"
"-133.03","69.43","TUKTOYAKTUK A","2203913","2019-01-28 03:00","2019","01","28","03:00"
"-133.03","69.43","TUKTOYAKTUK A","2203913","2019-01-28 04:00","2019","01","28","04:00"
"-133.03","69.43","TUKTOYAKTUK A","2203913","2019-01-28 05:00","2019","01","28","05:00"
"-133.03","69.43","TUKTOYAKTUK A","2203913","2019-01-28 06:00","2019","01","28","06:00"
"-133.03","69.43","TUKTOYAKTUK A","2203913","2019-01-28 07:00","2019","01","28","07:00","-17.5","","-21.0","","75","","","","12","","37","","16.1","","102.44","","","","-30","","Blowing Snow"
"-133.03","69.43","TUKTOYAKTUK A","2203913","2019-01-28 08:00","2019","01","28","08:00","-16.8","","-20.2","","75","","","","12","","32","","24.1","","102.35","","","","-29","","Blowing Snow"
"-133.03","69.43","TUKTOYAKTUK A","2203913","2019-01-28 09:00","2019","01","28","09:00","-16.2","","-19.6","","75","","","","11","","31","","24.1","","102.25","","","","-28","","Blowing Snow"
"-133.03","69.43","TUKTOYAKTUK A","2203913","2019-01-28 10:00","2019","01","28","10:00","-15.5","","-18.8","","76","","","","12","","37","","24.1","","102.16","","","","-28","","Blowing Snow"
"-133.03","69.43","TUKTOYAKTUK A","2203913","2019-01-28 11:00","2019","01","28","11:00","-15.6","","-18.7","","77","","","","12","","32","","24.1","","102.10","","","","-27","","Blowing Snow"
"-133.03","69.43","TUKTOYAKTUK A","2203913","2019-01-28 12:00","2019","01","28","12:00","-14.9","","-18.0","","78","","","","12","","27","","24.1","","102.09","","","","-25","","Blowing Snow"
"-133.03","69.43","TUKTOYAKTUK A","2203913","2019-01-28 13:00","2019","01","28","13:00","-14.8","","-17.8","","78","","","","12","","27","","24.1","","102.05","","","","-25","","Blowing Snow"
"-133.03","69.43","TUKTOYAKTUK A","2203913","2019-01-28 14:00","2019","01","28","14:00","-14.8","","-17.8","","78","","","","12","","27","","24.1","","102.00","","","","-25","","Blowing Snow"
"-133.03","69.43","TUKTOYAKTUK A","2203913","2019-01-28 15:00","2019","01","28","15:00","-14.7","","-17.6","","79","","","","13","","21","","24.1","","101.95","","","","-24","","NA"
"-133.03","69.43","TUKTOYAKTUK A","2203913","2019-01-28 16:00","2019","01","28","16:00","-14.5","","-17.4","","79","","","","12","","17","","24.1","","101.93","","","","-23","","NA"
"-133.03","69.43","TUKTOYAKTUK A","2203913","2019-01-28 17:00","2019","01","28","17:00","-14.7","","-17.7","","79","","","","13","","16","","24.1","","101.94","","","","-23","","Mostly Cloudy"
"-133.03","69.43","TUKTOYAKTUK A","2203913","2019-01-28 18:00","2019","01","28","18:00","-14.6","","-17.4","","80","","","","11","","12","","24.1","","101.92","","","","-21","","NA"
"-133.03","69.43","TUKTOYAKTUK A","2203913","2019-01-28 19:00","2019","01","28","19:00","-13.9","","-16.6","","80","","","","14","","12","","24.1","","101.90","","","","-21","","NA"
"-133.03","69.43","TUKTOYAKTUK A","2203913","2019-01-28 20:00","2019","01","28","20:00","-15.4","","-17.8","","83","","","","14","","11","","24.1","","101.91","","","","-22","","Mostly Cloudy"
"-133.03","69.43","TUKTOYAKTUK A","2203913","2019-01-28 21:00","2019","01","28","21:00","-15.0","","-17.4","","83","","","","13","","8","","24.1","","101.91","","","","-20","","NA"
"-133.03","69.43","TUKTOYAKTUK A","2203913","2019-01-28 22:00","2019","01","28","22:00","-14.2","","-16.3","","84","","","","15","","4","","24.1","","101.91","","","","-17","","NA"
"-133.03","69.43","TUKTOYAKTUK A","2203913","2019-01-28 23:00","2019","01","28","23:00","-14.2","","-16.3","","84","","","","12","","5","","24.1","","101.91","","","","-18","","Mainly Clear"
"-133.03","69.43","TUKTOYAKTUK A","2203913","2019-01-29 00:00","2019","01","29","00:00"
"-133.03","69.43","TUKTOYAKTUK A","2203913","2019-01-29 01:00","2019","01","29","01:00"
"-133.03","69.43","TUKTOYAKTUK A","2203913","2019-01-29 02:00","2019","01","29","02:00"
"-133.03","69.43","TUKTOYAKTUK A","2203913","2019-01-29 03:00","2019","01","29","03:00"
"-133.03","69.43","TUKTOYAKTUK A","2203913","2019-01-29 04:00","2019","01","29","04:00"
"-133.03","69.43","TUKTOYAKTUK A","2203913","2019-01-29 05:00","2019","01","29","05:00"
"-133.03","69.43","TUKTOYAKTUK A","2203913","2019-01-29 06:00","2019","01","29","06:00"
"-133.03","69.43","TUKTOYAKTUK A","2203913","2019-01-29 07:00","2019","01","29","07:00","-19.1","","-21.0","","85","","","","10","","7","","1.6","","101.90","","","","-25","","Fog"
"-133.03","69.43","TUKTOYAKTUK A","2203913","2019-01-29 08:00","2019","01","29","08:00","-18.7","","-20.9","","83","","","","9","","7","","3.2","","101.87","","","","-24","","Fog"
"-133.03","69.43","TUKTOYAKTUK A","2203913","2019-01-29 09:00","2019","01","29","09:00","-18.6","","-20.8","","83","","","","6","","10","","4.8","","101.82","","","","-26","","Fog"
"-133.03","69.43","TUKTOYAKTUK A","2203913","2019-01-29 10:00","2019","01","29","10:00","-18.6","","-20.8","","83","","","","5","","9","","4.8","","101.80","","","","-25","","Fog"
"-133.03","69.43","TUKTOYAKTUK A","2203913","2019-01-29 11:00","2019","01","29","11:00","-17.2","","-19.3","","84","","","","5","","10","","4.8","","101.76","","","","-24","","Fog"
"-133.03","69.43","TUKTOYAKTUK A","2203913","2019-01-29 12:00","2019","01","29","12:00","-16.7","","-18.8","","84","","","","6","","7","","2.4","","101.74","","","","-22","","Snow,Fog"
"-133.03","69.43","TUKTOYAKTUK A","2203913","2019-01-29 13:00","2019","01","29","13:00","-16.4","","-18.5","","84","","","","2","","9","","3.2","","101.70","","","","-22","","Snow,Fog"
"-133.03","69.43","TUKTOYAKTUK A","2203913","2019-01-29 14:00","2019","01","29","14:00","-16.1","","-18.2","","85","","","","4","","8","","9.7","","101.63","","","","-22","","Snow"
"-133.03","69.43","TUKTOYAKTUK A","2203913","2019-01-29 15:00","2019","01","29","15:00","-16.2","","-18.3","","85","","","","1","","11","","9.7","","101.63","","","","-23","","Snow"
"-133.03","69.43","TUKTOYAKTUK A","2203913","2019-01-29 16:00","2019","01","29","16:00","-16.0","","-18.0","","85","","","","2","","14","","11.3","","101.59","","","","-24","","Snow"
"-133.03","69.43","TUKTOYAKTUK A","2203913","2019-01-29 17:00","2019","01","29","17:00","-16.1","","-18.1","","85","","","","36","","18","","11.3","","101.54","","","","-25","","Snow"
"-133.03","69.43","TUKTOYAKTUK A","2203913","2019-01-29 18:00","2019","01","29","18:00","-16.0","","-18.0","","85","","","","36","","14","","11.3","","101.51","","","","-24","","Snow"
"-133.03","69.43","TUKTOYAKTUK A","2203913","2019-01-29 19:00","2019","01","29","19:00","-16.0","","-18.0","","85","","","","36","","13","","12.9","","101.49","","","","-24","","Snow"
"-133.03","69.43","TUKTOYAKTUK A","2203913","2019-01-29 20:00","2019","01","29","20:00","-16.1","","-18.1","","85","","","","36","","10","","9.7","","101.47","","","","-23","","Snow"
"-133.03","69.43","TUKTOYAKTUK A","2203913","2019-01-29 21:00","2019","01","29","21:00","-15.9","","-17.9","","85","","","","34","","8","","9.7","","101.43","","","","-21","","Snow"
"-133.03","69.43","TUKTOYAKTUK A","2203913","2019-01-29 22:00","2019","01","29","22:00","-15.7","","-17.7","","85","","","","34","","8","","12.9","","101.41","","","","-21","","Snow"
"-133.03","69.43","TUKTOYAKTUK A","2203913","2019-01-29 23:00","2019","01","29","23:00","-15.2","","-17.1","","85","","","","35","","21","","8.1","","101.39","","","","-25","","Snow,Blowing Snow"
"-133.03","69.43","TUKTOYAKTUK A","2203913","2019-01-30 00:00","2019","01","30","00:00"
"-133.03","69.43","TUKTOYAKTUK A","2203913","2019-01-30 01:00","2019","01","30","01:00"
"-133.03","69.43","TUKTOYAKTUK A","2203913","2019-01-30 02:00","2019","01","30","02:00"
"-133.03","69.43","TUKTOYAKTUK A","2203913","2019-01-30 03:00","2019","01","30","03:00"
"-133.03","69.43","TUKTOYAKTUK A","2203913","2019-01-30 04:00","2019","01","30","04:00"
"-133.03","69.43","TUKTOYAKTUK A","2203913","2019-01-30 05:00","2019","01","30","05:00"
"-133.03","69.43","TUKTOYAKTUK A","2203913","2019-01-30 06:00","2019","01","30","06:00"
"-133.03","69.43","TUKTOYAKTUK A","2203913","2019-01-30 07:00","2019","01","30","07:00","-15.7","","-17.8","","84","","","","32","","40","","1.6","","101.57","","","","-28","","Snow,Blowing Snow"
"-133.03","69.43","TUKTOYAKTUK A","2203913","2019-01-30 08:00","2019","01","30","08:00","-16.9","","-19.0","","83","","","","31","","45","","1.6","","101.60","","","","-31","","Snow,Blowing Snow"
"-133.03","69.43","TUKTOYAKTUK A","2203913","2019-01-30 09:00","2019","01","30","09:00","-19.3","","-21.7","","82","","","","31","","46","","0.8","","101.64","","","","-34","","Snow,Blowing Snow"
"-133.03","69.43","TUKTOYAKTUK A","2203913","2019-01-30 10:00","2019","01","30","10:00","-20.4","","-22.9","","81","","","","31","","45","","0.8","","101.67","","","","-35","","Snow,Blowing Snow"
"-133.03","69.43","TUKTOYAKTUK A","2203913","2019-01-30 11:00","2019","01","30","11:00","-20.3","","-22.9","","81","","","","31","","44","","0.8","","101.68","","","","-35","","Snow,Blowing Snow"
"-133.03","69.43","TUKTOYAKTUK A","2203913","2019-01-30 12:00","2019","01","30","12:00","-20.3","","-22.8","","80","","","","30","","42","","0.8","","101.71","","","","-35","","Snow,Blowing Snow"
"-133.03","69.43","TUKTOYAKTUK A","2203913","2019-01-30 13:00","2019","01","30","13:00","-20.2","","-22.8","","80","","","","31","","41","","0.8","","101.74","","","","-35","","Snow,Blowing Snow"
"-133.03","69.43","TUKTOYAKTUK A","2203913","2019-01-30 14:00","2019","01","30","14:00","-20.1","","-22.7","","80","","","","31","","36","","0.8","","101.78","","","","-34","","Snow,Blowing Snow"
"-133.03","69.43","TUKTOYAKTUK A","2203913","2019-01-30 15:00","2019","01","30","15:00","-20.0","","-22.6","","80","","","","31","","37","","1.2","","101.84","","","","-34","","Snow,Blowing Snow"
"-133.03","69.43","TUKTOYAKTUK A","2203913","2019-01-30 16:00","2019","01","30","16:00","-20.0","","-22.5","","80","","","","31","","36","","1.2","","101.84","","","","-34","","Snow,Blowing Snow"
"-133.03","69.43","TUKTOYAKTUK A","2203913","2019-01-30 17:00","2019","01","30","17:00","-20.1","","-22.8","","80","","","","32","","41","","1.2","","101.89","","","","-34","","Snow,Blowing Snow"
"-133.03","69.43","TUKTOYAKTUK A","2203913","2019-01-30 18:00","2019","01","30","18:00","-20.3","","-22.8","","81","","","","31","","36","","1.2","","101.91","","","","-34","","Snow,Blowing Snow"
"-133.03","69.43","TUKTOYAKTUK A","2203913","2019-01-30 19:00","2019","01","30","19:00","-20.1","","-22.9","","79","","","","33","","35","","1.2","","101.94","","","","-34","","Snow,Blowing Snow"
"-133.03","69.43","TUKTOYAKTUK A","2203913","2019-01-30 20:00","2019","01","30","20:00","-20.2","","-22.9","","79","","","","32","","36","","1.2","","102.02","","","","-34","","Snow,Blowing Snow"
"-133.03","69.43","TUKTOYAKTUK A","2203913","2019-01-30 21:00","2019","01","30","21:00","-20.6","","-23.4","","79","","","","32","","32","","1.2","","102.09","","","","-34","","Snow,Blowing Snow"
"-133.03","69.43","TUKTOYAKTUK A","2203913","2019-01-30 22:00","2019","01","30","22:00","-20.9","","-23.6","","79","","","","32","","28","","2.4","","102.11","","","","-33","","Snow,Blowing Snow"
"-133.03","69.43","TUKTOYAKTUK A","2203913","2019-01-30 23:00","2019","01","30","23:00","-20.7","","-23.6","","78","","","","32","","26","","3.2","","102.14","","","","-33","","Snow,Blowing Snow"
"-133.03","69.43","TUKTOYAKTUK A","2203913","2019-01-31 00:00","2019","01","31","00:00"
"-133.03","69.43","TUKTOYAKTUK A","2203913","2019-01-31 01:00","2019","01","31","01:00"
"-133.03","69.43","TUKTOYAKTUK A","2203913","2019-01-31 02:00","2019","01","31","02:00"
"-133.03","69.43","TUKTOYAKTUK A","2203913","2019-01-31 03:00","2019","01","31","03:00"
"-133.03","69.43","TUKTOYAKTUK A","2203913","2019-01-31 04:00","2019","01","31","04:00"
"-133.03","69.43","TUKTOYAKTUK A","2203913","2019-01-31 05:00","2019","01","31","05:00"
"-133.03","69.43","TUKTOYAKTUK A","2203913","2019-01-31 06:00","2019","01","31","06:00"
"-133.03","69.43","TUKTOYAKTUK A","2203913","2019-01-31 07:00","2019","01","31","07:00","-24.4","","-27.3","","78","","","","30","","20","","24.1","","102.55","","","","-36","","NA"
"-133.03","69.43","TUKTOYAKTUK A","2203913","2019-01-31 08:00","2019","01","31","08:00","-25.4","","-28.2","","78","","","","30","","20","","4.8","","102.59","","","","-37","","Ice Crystals"
"-133.03","69.43","TUKTOYAKTUK A","2203913","2019-01-31 09:00","2019","01","31","09:00","-26.4","","-29.3","","77","","","","30","","16","","6.4","","102.65","","","","-37","","Ice Crystals"
"-133.03","69.43","TUKTOYAKTUK A","2203913","2019-01-31 10:00","2019","01","31","10:00","-27.2","","-30.1","","77","","","","30","","14","","11.3","","102.72","","","","-38","","Ice Crystals"
"-133.03","69.43","TUKTOYAKTUK A","2203913","2019-01-31 11:00","2019","01","31","11:00","-27.6","","-30.5","","77","","","","30","","16","","16.1","","102.77","","","","-39","","Mainly Clear"
"-133.03","69.43","TUKTOYAKTUK A","2203913","2019-01-31 12:00","2019","01","31","12:00","-27.8","","-30.6","","77","","","","30","","17","","16.1","","102.83","","","","-39","","NA"
"-133.03","69.43","TUKTOYAKTUK A","2203913","2019-01-31 13:00","2019","01","31","13:00","-27.5","","-30.4","","77","","","","30","","14","","24.1","","102.91","","","","-38","","NA"
"-133.03","69.43","TUKTOYAKTUK A","2203913","2019-01-31 14:00","2019","01","31","14:00","-27.8","","-30.7","","77","","","","30","","14","","24.1","","102.99","","","","-38","","Mainly Clear"
"-133.03","69.43","TUKTOYAKTUK A","2203913","2019-01-31 15:00","2019","01","31","15:00","-28.3","","-31.3","","76","","","","29","","12","","24.1","","103.05","","","","-38","","NA"
"-133.03","69.43","TUKTOYAKTUK A","2203913","2019-01-31 16:00","2019","01","31","16:00","-28.0","","-31.0","","77","","","","30","","14","","24.1","","103.10","","","","-39","","NA"
"-133.03","69.43","TUKTOYAKTUK A","2203913","2019-01-31 17:00","2019","01","31","17:00","-28.1","","-30.9","","77","","","","29","","14","","24.1","","103.16","","","","-39","","Mainly Clear"
"-133.03","69.43","TUKTOYAKTUK A","2203913","2019-01-31 18:00","2019","01","31","18:00","-28.3","","-31.2","","77","","","","29","","12","","24.1","","103.20","","","","-38","","NA"
"-133.03","69.43","TUKTOYAKTUK A","2203913","2019-01-31 19:00","2019","01","31","19:00","-28.6","","-31.6","","76","","","","29","","13","","24.1","","103.26","","","","-39","","NA"
"-133.03","69.43","TUKTOYAKTUK A","2203913","2019-01-31 20:00","2019","01","31","20:00","-28.4","","-31.4","","76","","","","30","","13","","24.1","","103.29","","","","-39","","Clear"
"-133.03","69.43","TUKTOYAKTUK A","2203913","2019-01-31 21:00","2019","01","31","21:00","-28.3","","-31.2","","77","","","","30","","15","","24.1","","103.33","","","","-39","","NA"
"-133.03","69.43","TUKTOYAKTUK A","2203913","2019-01-31 22:00","2019","01","31","22:00","-28.9","","-31.9","","76","","","","29","","12","","24.1","","103.37","","","","-39","","NA"
"-133.03","69.43","TUKTOYAKTUK A","2203913","2019-01-31 23:00","2019","01","31","23:00","-28.3","","-31.3","","76","","","","30","","13","","24.1","","103.43","","","","-39","","Clear"
