"Longitude (x)","Latitude (y)","Station Name","Climate ID","Date/Time (LST)","Year","Month","Day","Time (LST)","Temp (°C)","Temp Flag","Dew Point Temp (°C)","Dew Point Temp Flag","Rel Hum (%)","Rel Hum Flag","Precip. Amount (mm)","Precip. Amount Flag","Wind Dir (10s deg)","Wind Dir Flag","Wind Spd (km/h)","Wind Spd Flag","Visibility (km)","Visibility Flag","Stn Press (kPa)","Stn Press Flag","Hmdx","Hmdx Flag","Wind Chill","Wind Chill Flag","Weather"
"-55.38","46.92","ST LAWRENCE","8403619","2012-02-01 00:30","2012","02","01","00:30","-7.3","","-9.5","","84","","","","28","","22","","","","101.11","","","","-15","","NA"
"-55.38","46.92","ST LAWRENCE","8403619","2012-02-01 01:30","2012","02","01","01:30","-7.0","","-8.6","","88","","","","28","","15","","","","101.14","","","","-13","","NA"
"-55.38","46.92","ST LAWRENCE","8403619","2012-02-01 02:30","2012","02","01","02:30","-6.9","","-7.7","","94","","","","27","","35","","","","101.13","","","","-16","","NA"
"-55.38","46.92","ST LAWRENCE","8403619","2012-02-01 03:30","2012","02","01","03:30","-6.2","","-8.9","","81","","","","27","","30","","","","101.19","","","","-15","","NA"
"-55.38","46.92","ST LAWRENCE","8403619","2012-02-01 04:30","2012","02","01","04:30","-6.6","","-7.8","","91","","","","28","","24","","","","101.23","","","","-14","","NA"
"-55.38","46.92","ST LAWRENCE","8403619","2012-02-01 05:30","2012","02","01","05:30","-6.3","","-8.5","","84","","","","28","","20","","","","101.25","","","","-13","","NA"
"-55.38","46.92","ST LAWRENCE","8403619","2012-02-01 06:30","2012","02","01","06:30","-6.8","","-9.9","","79","","","","29","","30","","","","101.27","","","","-15","","NA"
"-55.38","46.92","ST LAWRENCE","8403619","2012-02-01 07:30","2012","02","01","07:30","-7.1","","-10.3","","78","","","","29","","26","","","","101.32","","","","-15","","NA"
"-55.38","46.92","ST LAWRENCE","8403619","2012-02-01 08:30","2012","02","01","08:30","-6.8","","-9.3","","82","","","","29","","19","","","","101.41","","","","-14","","NA"
"-55.38","46.92","ST LAWRENCE","8403619","2012-02-01 09:30","2012","02","01","09:30","-5.8","","-8.6","","81","","","","29","","17","","","","101.40","","","","-12","","NA"
"-55.38","46.92","ST LAWRENCE","8403619","2012-02-01 10:30","2012","02","01","10:30","-5.3","","-8.2","","80","","","","30","","15","","","","101.42","","","","-11","","NA"
"-55.38","46.92","ST LAWRENCE","8403619","2012-02-01 11:30","2012","02","01","11:30","-4.5","","-8.2","","75","","","","29","","19","","","","101.41","","","","-11","","NA"
"-55.38","46.92","ST LAWRENCE","8403619","2012-02-01 12:30","2012","02","01","12:30","-4.0","","-7.9","","74","","","","29","","19","","","","101.35","","","","-10","","NA"
"-55.38","46.92","ST LAWRENCE","8403619","2012-02-01 13:30","2012","02","01","13:30","-3.8","","-7.8","","74","","","","28","","19","","","","101.32","","","","-10","","NA"
"-55.38","46.92","ST LAWRENCE","8403619","2012-02-01 14:30","2012","02","01","14:30","-3.7","","-7.6","","74","","","","28","","13","","","","101.25","","","","-9","","NA"
"-55.38","46.92","ST LAWRENCE","8403619","2012-02-01 15:30","2012","02","01","15:30","-3.9","","-7.5","","76","","","","30","","11","","","","101.22","","","","-8","","NA"
"-55.38","46.92","ST LAWRENCE","8403619","2012-02-01 16:30","2012","02","01","16:30","-4.5","","-7.5","","80","","","","28","","11","","","","101.26","","","","-9","","NA"
"-55.38","46.92","ST LAWRENCE","8403619","2012-02-01 17:30","2012","02","01","17:30","-4.8","","-7.2","","83","","","","27","","9","","","","101.26","","","","-9","","NA"
"-55.38","46.92","ST LAWRENCE","8403619","2012-02-01 18:30","2012","02","01","18:30","-5.2","","-7.2","","86","","","","32","","4","","","","101.22","","","","-7","","NA"
"-55.38","46.92","ST LAWRENCE","8403619","2012-02-01 19:30","2012","02","01","19:30","-5.5","","-6.8","","91","","","","4","","7","","","","101.11","","","","-9","","NA"
"-55.38","46.92","ST LAWRENCE","8403619","2012-02-01 20:30","2012","02","01","20:30","-5.6","","-6.4","","94","","","","5","","6","","","","101.05","","","","-8","","NA"
"-55.38","46.92","ST LAWRENCE","8403619","2012-02-01 21:30","2012","02","01","21:30","-5.7","","-6.2","","96","","","","5","","11","","","","100.96","","","","-10","","NA"
"-55.38","46.92","ST LAWRENCE","8403619","2012-02-01 22:30","2012","02","01","22:30","-5.5","","-5.8","","98","","","","5","","13","","","","100.84","","","","-11","","NA"
"-55.38","46.92","ST LAWRENCE","8403619","2012-02-01 23:30","2012","02","01","23:30","-4.2","","-4.4","","99","","","","8","","19","","","","100.69","","","","-10","","NA"
"-55.38","46.92","ST LAWRENCE","8403619","2012-02-02 00:30","2012","02","02","00:30","-3.9","","-4.1","","99","","","","9","","26","","","","100.53","","","","-11","","NA"
"-55.38","46.92","ST LAWRENCE","8403619","2012-02-02 01:30","2012","02","02","01:30","-3.7","","-3.8","","99","","","","8","","30","","","","100.35","","","","-11","","NA"
"-55.38","46.92","ST LAWRENCE","8403619","2012-02-02 02:30","2012","02","02","02:30","-3.3","","-3.4","","99","","","","8","","32","","","","100.21","","","","-11","","NA"
"-55.38","46.92","ST LAWRENCE","8403619","2012-02-02 03:30","2012","02","02","03:30","-3.3","","-3.4","","99","","","","6","","37","","","","100.02","","","","-12","","NA"
"-55.38","46.92","ST LAWRENCE","8403619","2012-02-02 04:30","2012","02","02","04:30","-3.7","","-3.8","","99","","","","5","","37","","","","99.90","","","","-12","","NA"
"-55.38","46.92","ST LAWRENCE","8403619","2012-02-02 05:30","2012","02","02","05:30","-4.0","","-4.1","","99","","","","4","","33","","","","99.90","","","","-12","","NA"
"-55.38","46.92","ST LAWRENCE","8403619","2012-02-02 06:30","2012","02","02","06:30","-5.3","","-5.5","","98","","","","3","","32","","","","99.89","","","","-14","","NA"
"-55.38","46.92","ST LAWRENCE","8403619","2012-02-02 07:30","2012","02","02","07:30","-5.7","","-6.1","","97","","","","2","","28","","","","100.00","","","","-14","","NA"
"-55.38","46.92","ST LAWRENCE","8403619","2012-02-02 08:30","2012","02","02","08:30","-5.8","","-6.4","","96","","","","1","","28","","","","100.06","","","","-14","","NA"
"-55.38","46.92","ST LAWRENCE","8403619","2012-02-02 09:30","2012","02","02","09:30","-5.8","","-6.5","","95","","","","1","","24","","","","100.15","","","","-13","","NA"
"-55.38","46.92","ST LAWRENCE","8403619","2012-02-02 10:30","2012","02","02","10:30","-5.4","","-6.5","","92","","","","1","","22","","","","100.25","","","","-12","","NA"
"-55.38","46.92","ST LAWRENCE","8403619","2012-02-02 11:30","2012","02","02","11:30","-5.5","","-6.9","","90","","","","36","","22","","","","100.33","","","","-13","","NA"
"-55.38","46.92","ST LAWRENCE","8403619","2012-02-02 12:30","2012","02","02","12:30","-5.5","","-7.4","","86","","","","35","","20","","","","100.37","","","","-12","","NA"
"-55.38","46.92","ST LAWRENCE","8403619","2012-02-02 13:30","2012","02","02","13:30","-5.4","","-8.0","","82","","","","36","","20","","","","100.43","","","","-12","","NA"
"-55.38","46.92","ST LAWRENCE","8403619","2012-02-02 14:30","2012","02","02","14:30","-5.3","","-8.9","","76","","","","36","","26","","","","100.47","","","","-13","","NA"
"-55.38","46.92","ST LAWRENCE","8403619","2012-02-02 15:30","2012","02","02","15:30","-5.4","","-9.3","","74","","","","36","","9","","","","100.58","","","","-9","","NA"
"-55.38","46.92","ST LAWRENCE","8403619","2012-02-02 16:30","2012","02","02","16:30","-6.7","","-10.6","","74","","","","3","","9","","","","100.65","","","","-11","","NA"
"-55.38","46.92","ST LAWRENCE","8403619","2012-02-02 17:30","2012","02","02","17:30","-9.4","","-12.2","","80","","","","1","","7","","","","100.72","","","","-13","","NA"
"-55.38","46.92","ST LAWRENCE","8403619","2012-02-02 18:30","2012","02","02","18:30","-10.8","","-13.3","","82","","","","3","","7","","","","100.80","","","","-15","","NA"
"-55.38","46.92","ST LAWRENCE","8403619","2012-02-02 19:30","2012","02","02","19:30","-10.8","","-12.5","","87","","","","10","","4","","","","100.92","","","","-13","","NA"
"-55.38","46.92","ST LAWRENCE","8403619","2012-02-02 20:30","2012","02","02","20:30","-10.7","","-12.4","","87","","","","4","","6","","","","101.00","","","","-14","","NA"
"-55.38","46.92","ST LAWRENCE","8403619","2012-02-02 21:30","2012","02","02","21:30","-12.4","","-13.9","","89","","","","1","","11","","","","101.01","","","","-18","","NA"
"-55.38","46.92","ST LAWRENCE","8403619","2012-02-02 22:30","2012","02","02","22:30","-13.6","","-15.7","","84","","","","3","","9","","","","101.01","","","","-19","","NA"
"-55.38","46.92","ST LAWRENCE","8403619","2012-02-02 23:30","2012","02","02","23:30","-14.4","","-15.8","","89","","","","35","","2","","","","101.02","","","","-16","","NA"
"-55.38","46.92","ST LAWRENCE","8403619","2012-02-03 00:30","2012","02","03","00:30","-13.3","","-14.3","","92","","","","2","","9","","","","100.98","","","","-19","","NA"
"-55.38","46.92","ST LAWRENCE","8403619","2012-02-03 01:30","2012","02","03","01:30","-12.8","","-13.7","","93","","","","1","","11","","","","100.98","","","","-19","","NA"
"-55.38","46.92","ST LAWRENCE","8403619","2012-02-03 02:30","2012","02","03","02:30","-12.0","","-13.4","","89","","","","2","","11","","","","100.99","","","","-18","","NA"
"-55.38","46.92","ST LAWRENCE","8403619","2012-02-03 03:30","2012","02","03","03:30","-14.8","","-15.7","","93","","","","4","","11","","","","100.99","","","","-21","","NA"
"-55.38","46.92","ST LAWRENCE","8403619","2012-02-03 04:30","2012","02","03","04:30","-12.8","","-13.6","","94","","","","5","","17","","","","100.99","","","","-21","","NA"
"-55.38","46.92","ST LAWRENCE","8403619","2012-02-03 05:30","2012","02","03","05:30","-12.5","","-13.4","","93","","","","5","","15","","","","101.02","","","","-20","","NA"
"-55.38","46.92","ST LAWRENCE","8403619","2012-02-03 06:30","2012","02","03","06:30","-12.7","","-13.7","","92","","","","6","","13","","","","101.02","","","","-20","","NA"
"-55.38","46.92","ST LAWRENCE","8403619","2012-02-03 07:30","2012","02","03","07:30","-12.2","","-13.0","","94","","","","3","","11","","","","100.97","","","","-18","","NA"
"-55.38","46.92","ST LAWRENCE","8403619","2012-02-03 08:30","2012","02","03","08:30","-10.2","","-11.5","","90","","","","1","","15","","","","101.01","","","","-17","","NA"
"-55.38","46.92","ST LAWRENCE","8403619","2012-02-03 09:30","2012","02","03","09:30","-10.2","","-11.3","","92","","","","4","","22","","","","100.95","","","","-18","","NA"
"-55.38","46.92","ST LAWRENCE","8403619","2012-02-03 10:30","2012","02","03","10:30","-8.1","","-9.7","","88","","","","4","","15","","","","100.97","","","","-14","","NA"
"-55.38","46.92","ST LAWRENCE","8403619","2012-02-03 11:30","2012","02","03","11:30","-7.5","","-9.2","","88","","","","4","","26","","","","100.85","","","","-16","","NA"
"-55.38","46.92","ST LAWRENCE","8403619","2012-02-03 12:30","2012","02","03","12:30","-7.0","","-9.0","","86","","","","2","","19","","","","100.74","","","","-14","","NA"
"-55.38","46.92","ST LAWRENCE","8403619","2012-02-03 13:30","2012","02","03","13:30","-7.3","","-9.7","","83","","","","1","","22","","","","100.63","","","","-15","","NA"
"-55.38","46.92","ST LAWRENCE","8403619","2012-02-03 14:30","2012","02","03","14:30","-7.2","","-10.1","","80","","","","1","","19","","","","100.53","","","","-14","","NA"
"-55.38","46.92","ST LAWRENCE","8403619","2012-02-03 15:30","2012","02","03","15:30","-7.3","","-10.4","","78","","","","2","","19","","","","100.55","","","","-14","","NA"
"-55.38","46.92","ST LAWRENCE","8403619","2012-02-03 16:30","2012","02","03","16:30","-7.8","","-10.7","","80","","","","2","","22","","","","100.46","","","","-15","","NA"
"-55.38","46.92","ST LAWRENCE","8403619","2012-02-03 17:30","2012","02","03","17:30","-8.9","","-11.6","","81","","","","36","","20","","","","100.40","","","","-16","","NA"
"-55.38","46.92","ST LAWRENCE","8403619","2012-02-03 18:30","2012","02","03","18:30","-9.0","","-11.0","","85","","","","1","","20","","","","100.33","","","","-17","","NA"
"-55.38","46.92","ST LAWRENCE","8403619","2012-02-03 19:30","2012","02","03","19:30","-8.1","","-10.1","","85","","","","2","","26","","","","100.19","","","","-16","","NA"
"-55.38","46.92","ST LAWRENCE","8403619","2012-02-03 20:30","2012","02","03","20:30","-8.2","","-10.1","","86","","","","1","","28","","","","100.10","","","","-17","","NA"
"-55.38","46.92","ST LAWRENCE","8403619","2012-02-03 21:30","2012","02","03","21:30","-7.9","","-9.8","","86","","","","1","","28","","","","100.05","","","","-17","","NA"
"-55.38","46.92","ST LAWRENCE","8403619","2012-02-03 22:30","2012","02","03","22:30","-7.7","","-9.4","","88","","","","36","","30","","","","99.91","","","","-17","","NA"
"-55.38","46.92","ST LAWRENCE","8403619","2012-02-03 23:30","2012","02","03","23:30","-7.7","","-9.4","","88","","","","36","","28","","","","99.81","","","","-16","","NA"
"-55.38","46.92","ST LAWRENCE","8403619","2012-02-04 00:30","2012","02","04","00:30","-7.8","","-9.3","","89","","","","36","","35","","","","99.71","","","","-17","","NA"
"-55.38","46.92","ST LAWRENCE","8403619","2012-02-04 01:30","2012","02","04","01:30","-7.7","","-9.4","","88","","","","36","","33","","","","99.67","","","","-17","","NA"
"-55.38","46.92","ST LAWRENCE","8403619","2012-02-04 02:30","2012","02","04","02:30","-7.6","","-9.4","","87","","","","36","","33","","","","99.62","","","","-17","","NA"
"-55.38","46.92","ST LAWRENCE","8403619","2012-02-04 03:30","2012","02","04","03:30","-7.7","","-9.3","","88","","","","36","","37","","","","99.53","","","","-17","","NA"
"-55.38","46.92","ST LAWRENCE","8403619","2012-02-04 04:30","2012","02","04","04:30","-7.9","","-9.5","","88","","","","36","","37","","","","99.49","","","","-18","","NA"
"-55.38","46.92","ST LAWRENCE","8403619","2012-02-04 05:30","2012","02","04","05:30","-7.4","","-9.3","","86","","","","35","","30","","","","99.52","","","","-16","","NA"
"-55.38","46.92","ST LAWRENCE","8403619","2012-02-04 06:30","2012","02","04","06:30","-7.7","","-9.6","","86","","","","34","","32","","","","99.53","","","","-17","","NA"
"-55.38","46.92","ST LAWRENCE","8403619","2012-02-04 07:30","2012","02","04","07:30","-7.6","","-9.5","","86","","","","34","","33","","","","99.52","","","","-17","","NA"
"-55.38","46.92","ST LAWRENCE","8403619","2012-02-04 08:30","2012","02","04","08:30","-7.9","","-10.1","","84","","","","33","","39","","","","99.46","","","","-18","","NA"
"-55.38","46.92","ST LAWRENCE","8403619","2012-02-04 09:30","2012","02","04","09:30","-8.2","","-10.8","","81","","","","33","","35","","","","99.43","","","","-18","","NA"
"-55.38","46.92","ST LAWRENCE","8403619","2012-02-04 10:30","2012","02","04","10:30","-7.9","","-10.6","","81","","","","32","","37","","","","99.38","","","","-18","","NA"
"-55.38","46.92","ST LAWRENCE","8403619","2012-02-04 11:30","2012","02","04","11:30","-7.4","","-10.7","","77","","","","32","","33","","","","99.33","","","","-17","","NA"
"-55.38","46.92","ST LAWRENCE","8403619","2012-02-04 12:30","2012","02","04","12:30","-7.3","","-10.6","","77","","","","32","","33","","","","99.27","","","","-16","","NA"
"-55.38","46.92","ST LAWRENCE","8403619","2012-02-04 13:30","2012","02","04","13:30","-6.9","","-10.2","","77","","","","32","","32","","","","99.24","","","","-16","","NA"
"-55.38","46.92","ST LAWRENCE","8403619","2012-02-04 14:30","2012","02","04","14:30","-6.6","","-10.0","","77","","","","32","","30","","","","99.23","","","","-15","","NA"
"-55.38","46.92","ST LAWRENCE","8403619","2012-02-04 15:30","2012","02","04","15:30","-6.0","","-9.4","","77","","","","31","","33","","","","99.20","","","","-15","","NA"
"-55.38","46.92","ST LAWRENCE","8403619","2012-02-04 16:30","2012","02","04","16:30","-6.4","","-9.4","","79","","","","31","","30","","","","99.19","","","","-15","","NA"
"-55.38","46.92","ST LAWRENCE","8403619","2012-02-04 17:30","2012","02","04","17:30","-6.8","","-9.0","","84","","","","30","","33","","","","99.21","","","","-16","","NA"
"-55.38","46.92","ST LAWRENCE","8403619","2012-02-04 18:30","2012","02","04","18:30","-6.2","","-8.4","","84","","","","31","","32","","","","99.21","","","","-15","","NA"
"-55.38","46.92","ST LAWRENCE","8403619","2012-02-04 19:30","2012","02","04","19:30","-5.6","","-8.4","","81","","","","31","","32","","","","99.25","","","","-14","","NA"
"-55.38","46.92","ST LAWRENCE","8403619","2012-02-04 20:30","2012","02","04","20:30","-6.0","","-8.3","","84","","","","30","","26","","","","99.28","","","","-14","","NA"
"-55.38","46.92","ST LAWRENCE","8403619","2012-02-04 21:30","2012","02","04","21:30","-5.6","","-8.2","","82","","","","30","","30","","","","99.28","","","","-14","","NA"
"-55.38","46.92","ST LAWRENCE","8403619","2012-02-04 22:30","2012","02","04","22:30","-5.4","","-7.8","","83","","","","30","","28","","","","99.28","","","","-13","","NA"
"-55.38","46.92","ST LAWRENCE","8403619","2012-02-04 23:30","2012","02","04","23:30","-5.1","","-7.6","","83","","","","30","","24","","","","99.27","","","","-12","","NA"
"-55.38","46.92","ST LAWRENCE","8403619","2012-02-05 00:30","2012","02","05","00:30","-4.8","","-7.4","","82","","","","30","","24","","","","99.28","","","","-12","","NA"
"-55.38","46.92","ST LAWRENCE","8403619","2012-02-05 01:30","2012","02","05","01:30","-4.8","","-7.2","","83","","","","30","","22","","","","99.29","","","","-12","","NA"
"-55.38","46.92","ST LAWRENCE","8403619","2012-02-05 02:30","2012","02","05","02:30","-5.3","","-6.1","","94","","","","30","","20","","","","99.30","","","","-12","","NA"
"-55.38","46.92","ST LAWRENCE","8403619","2012-02-05 03:30","2012","02","05","03:30","-5.2","","-6.7","","89","","","","30","","22","","","","99.32","","","","-12","","NA"
"-55.38","46.92","ST LAWRENCE","8403619","2012-02-05 04:30","2012","02","05","04:30","-5.2","","-6.5","","91","","","","30","","22","","","","99.35","","","","-12","","NA"
"-55.38","46.92","ST LAWRENCE","8403619","2012-02-05 05:30","2012","02","05","05:30","-5.3","","-7.3","","86","","","","30","","24","","","","99.38","","","","-13","","NA"
"-55.38","46.92","ST LAWRENCE","8403619","2012-02-05 06:30","2012","02","05","06:30","-5.4","","-7.2","","87","","","","31","","22","","","","99.42","","","","-12","","NA"
"-55.38","46.92","ST LAWRENCE","8403619","2012-02-05 07:30","2012","02","05","07:30","-5.2","","-8.0","","81","","","","31","","22","","","","99.47","","","","-12","","NA"
"-55.38","46.92","ST LAWRENCE","8403619","2012-02-05 08:30","2012","02","05","08:30","-5.5","","-8.3","","81","","","","30","","15","","","","99.56","","","","-11","","NA"
"-55.38","46.92","ST LAWRENCE","8403619","2012-02-05 09:30","2012","02","05","09:30","-4.1","","-8.9","","69","","","","31","","20","","","","99.61","","","","-10","","NA"
"-55.38","46.92","ST LAWRENCE","8403619","2012-02-05 10:30","2012","02","05","10:30","-3.6","","-8.9","","67","","","","31","","24","","","","99.64","","","","-10","","NA"
"-55.38","46.92","ST LAWRENCE","8403619","2012-02-05 11:30","2012","02","05","11:30","-3.0","","-8.9","","64","","","","31","","19","","","","99.65","","","","-9","","NA"
"-55.38","46.92","ST LAWRENCE","8403619","2012-02-05 12:30","2012","02","05","12:30","-2.9","","-9.1","","62","","","","29","","22","","","","99.66","","","","-9","","NA"
"-55.38","46.92","ST LAWRENCE","8403619","2012-02-05 13:30","2012","02","05","13:30","-2.6","","-8.3","","65","","","","29","","22","","","","99.64","","","","-9","","NA"
"-55.38","46.92","ST LAWRENCE","8403619","2012-02-05 14:30","2012","02","05","14:30","-2.6","","-8.3","","65","","","","27","","26","","","","99.64","","","","-9","","NA"
"-55.38","46.92","ST LAWRENCE","8403619","2012-02-05 15:30","2012","02","05","15:30","-3.5","","-8.2","","70","","","","27","","24","","","","99.66","","","","-10","","NA"
"-55.38","46.92","ST LAWRENCE","8403619","2012-02-05 16:30","2012","02","05","16:30","-4.6","","-8.0","","77","","","","27","","22","","","","99.67","","","","-11","","NA"
"-55.38","46.92","ST LAWRENCE","8403619","2012-02-05 17:30","2012","02","05","17:30","-4.5","","-7.8","","78","","","","27","","22","","","","99.69","","","","-11","","NA"
"-55.38","46.92","ST LAWRENCE","8403619","2012-02-05 18:30","2012","02","05","18:30","-5.2","","-8.1","","80","","","","27","","20","","","","99.72","","","","-12","","NA"
"-55.38","46.92","ST LAWRENCE","8403619","2012-02-05 19:30","2012","02","05","19:30","-5.1","","-7.2","","85","","","","28","","19","","","","99.77","","","","-12","","NA"
"-55.38","46.92","ST LAWRENCE","8403619","2012-02-05 20:30","2012","02","05","20:30","-5.2","","-8.8","","76","","","","28","","24","","","","99.83","","","","-12","","NA"
"-55.38","46.92","ST LAWRENCE","8403619","2012-02-05 21:30","2012","02","05","21:30","-5.7","","-8.3","","82","","","","28","","26","","","","99.87","","","","-13","","NA"
"-55.38","46.92","ST LAWRENCE","8403619","2012-02-05 22:30","2012","02","05","22:30","-6.0","","-8.2","","84","","","","27","","28","","","","99.85","","","","-14","","NA"
"-55.38","46.92","ST LAWRENCE","8403619","2012-02-05 23:30","2012","02","05","23:30","-5.8","","-9.1","","77","","","","28","","28","","","","99.86","","","","-14","","NA"
"-55.38","46.92","ST LAWRENCE","8403619","2012-02-06 00:30","2012","02","06","00:30","-5.9","","-7.9","","86","","","","27","","24","","","","99.86","","","","-13","","NA"
"-55.38","46.92","ST LAWRENCE","8403619","2012-02-06 01:30","2012","02","06","01:30","-6.1","","-7.9","","87","","","","27","","24","","","","99.83","","","","-14","","NA"
"-55.38","46.92","ST LAWRENCE","8403619","2012-02-06 02:30","2012","02","06","02:30","-6.3","","-8.7","","83","","","","27","","24","","","","99.87","","","","-14","","NA"
"-55.38","46.92","ST LAWRENCE","8403619","2012-02-06 03:30","2012","02","06","03:30","-6.1","","-7.8","","88","","","","26","","19","","","","99.91","","","","-13","","NA"
"-55.38","46.92","ST LAWRENCE","8403619","2012-02-06 04:30","2012","02","06","04:30","-6.1","","-9.1","","79","","","","27","","15","","","","99.93","","","","-12","","NA"
"-55.38","46.92","ST LAWRENCE","8403619","2012-02-06 05:30","2012","02","06","05:30","-6.6","","-8.8","","84","","","","26","","17","","","","99.95","","","","-13","","NA"
"-55.38","46.92","ST LAWRENCE","8403619","2012-02-06 06:30","2012","02","06","06:30","-6.7","","-8.3","","88","","","","26","","13","","","","99.98","","","","-12","","NA"
"-55.38","46.92","ST LAWRENCE","8403619","2012-02-06 07:30","2012","02","06","07:30","-6.4","","-7.4","","93","","","","26","","15","","","","100.03","","","","-12","","NA"
"-55.38","46.92","ST LAWRENCE","8403619","2012-02-06 08:30","2012","02","06","08:30","-5.1","","-8.2","","79","","","","26","","28","","","","100.04","","","","-13","","NA"
"-55.38","46.92","ST LAWRENCE","8403619","2012-02-06 09:30","2012","02","06","09:30","-4.5","","-8.7","","72","","","","24","","30","","","","100.09","","","","-12","","NA"
"-55.38","46.92","ST LAWRENCE","8403619","2012-02-06 10:30","2012","02","06","10:30","-4.4","","-6.8","","83","","","","26","","24","","","","100.10","","","","-11","","NA"
"-55.38","46.92","ST LAWRENCE","8403619","2012-02-06 11:30","2012","02","06","11:30","-3.7","","-7.8","","73","","","","24","","30","","","","100.07","","","","-11","","NA"
"-55.38","46.92","ST LAWRENCE","8403619","2012-02-06 12:30","2012","02","06","12:30","-3.8","","-7.5","","75","","","","23","","24","","","","100.03","","","","-11","","NA"
"-55.38","46.92","ST LAWRENCE","8403619","2012-02-06 13:30","2012","02","06","13:30","-3.5","","-7.3","","75","","","","23","","28","","","","99.95","","","","-11","","NA"
"-55.38","46.92","ST LAWRENCE","8403619","2012-02-06 14:30","2012","02","06","14:30","-3.2","","-7.0","","75","","","","23","","32","","","","99.90","","","","-11","","NA"
"-55.38","46.92","ST LAWRENCE","8403619","2012-02-06 15:30","2012","02","06","15:30","-2.8","","-5.7","","80","","","","22","","28","","","","99.82","","","","-10","","NA"
"-55.38","46.92","ST LAWRENCE","8403619","2012-02-06 16:30","2012","02","06","16:30","-3.0","","-4.5","","89","","","","21","","33","","","","99.73","","","","-11","","NA"
"-55.38","46.92","ST LAWRENCE","8403619","2012-02-06 17:30","2012","02","06","17:30","-2.1","","-2.4","","98","","","","21","","41","","","","99.63","","","","-10","","NA"
"-55.38","46.92","ST LAWRENCE","8403619","2012-02-06 18:30","2012","02","06","18:30","-1.0","","-1.3","","98","","","","23","","35","","","","99.57","","","","-8","","NA"
"-55.38","46.92","ST LAWRENCE","8403619","2012-02-06 19:30","2012","02","06","19:30","-1.6","","-1.8","","99","","","","26","","32","","","","99.58","","","","-9","","NA"
"-55.38","46.92","ST LAWRENCE","8403619","2012-02-06 20:30","2012","02","06","20:30","-1.5","","-2.2","","95","","","","26","","32","","","","99.60","","","","-9","","NA"
"-55.38","46.92","ST LAWRENCE","8403619","2012-02-06 21:30","2012","02","06","21:30","-1.4","","-2.0","","96","","","","26","","32","","","","99.63","","","","-9","","NA"
"-55.38","46.92","ST LAWRENCE","8403619","2012-02-06 22:30","2012","02","06","22:30","-1.3","","-1.8","","96","","","","26","","28","","","","99.60","","","","-8","","NA"
"-55.38","46.92","ST LAWRENCE","8403619","2012-02-06 23:30","2012","02","06","23:30","-1.3","","-2.2","","94","","","","26","","32","","","","99.62","","","","-8","","NA"
"-55.38","46.92","ST LAWRENCE","8403619","2012-02-07 00:30","2012","02","07","00:30","-0.9","","-2.1","","92","","","","26","","28","","","","99.62","","","","-7","","NA"
"-55.38","46.92","ST LAWRENCE","8403619","2012-02-07 01:30","2012","02","07","01:30","-0.9","","-2.0","","92","","","","26","","24","","","","99.62","","","","-7","","NA"
"-55.38","46.92","ST LAWRENCE","8403619","2012-02-07 02:30","2012","02","07","02:30","-0.8","","-1.7","","94","","","","25","","24","","","","99.64","","","","-7","","NA"
"-55.38","46.92","ST LAWRENCE","8403619","2012-02-07 03:30","2012","02","07","03:30","-1.2","","-1.6","","97","","","","24","","24","","","","99.64","","","","-7","","NA"
"-55.38","46.92","ST LAWRENCE","8403619","2012-02-07 04:30","2012","02","07","04:30","-0.6","","-0.8","","99","","","","24","","20","","","","99.63","","","","-6","","NA"
"-55.38","46.92","ST LAWRENCE","8403619","2012-02-07 05:30","2012","02","07","05:30","-0.5","","-1.1","","96","","","","25","","22","","","","99.64","","","","-6","","NA"
"-55.38","46.92","ST LAWRENCE","8403619","2012-02-07 06:30","2012","02","07","06:30","0.2","","-1.0","","92","","","","24","","24","","","","99.63","","","","","","NA"
"-55.38","46.92","ST LAWRENCE","8403619","2012-02-07 07:30","2012","02","07","07:30","0.5","","-0.9","","90","","","","24","","26","","","","99.65","","","","","","NA"
"-55.38","46.92","ST LAWRENCE","8403619","2012-02-07 08:30","2012","02","07","08:30","0.8","","-0.2","","93","","","","24","","22","","","","99.71","","","","","","NA"
"-55.38","46.92","ST LAWRENCE","8403619","2012-02-07 09:30","2012","02","07","09:30","1.0","","-0.1","","92","","","","24","","28","","","","99.75","","","","","","NA"
"-55.38","46.92","ST LAWRENCE","8403619","2012-02-07 10:30","2012","02","07","10:30","1.7","","-0.3","","87","","","","25","","32","","","","99.78","","","","","","NA"
"-55.38","46.92","ST LAWRENCE","8403619","2012-02-07 11:30","2012","02","07","11:30","1.6","","-0.4","","87","","","","25","","30","","","","99.83","","","","","","NA"
"-55.38","46.92","ST LAWRENCE","8403619","2012-02-07 12:30","2012","02","07","12:30","1.6","","-0.3","","87","","","","25","","30","","","","99.85","","","","","","NA"
"-55.38","46.92","ST LAWRENCE","8403619","2012-02-07 13:30","2012","02","07","13:30","1.7","","-0.7","","84","","","","25","","32","","","","99.85","","","","","","NA"
"-55.38","46.92","ST LAWRENCE","8403619","2012-02-07 14:30","2012","02","07","14:30","1.1","","-1.2","","85","","","","27","","32","","","","99.87","","","","","","NA"
"-55.38","46.92","ST LAWRENCE","8403619","2012-02-07 15:30","2012","02","07","15:30","0.5","","-2.6","","80","","","","27","","30","","","","99.94","","","","","","NA"
"-55.38","46.92","ST LAWRENCE","8403619","2012-02-07 16:30","2012","02","07","16:30","-0.2","","-4.0","","76","","","","27","","28","","","","100.02","","","","-7","","NA"
"-55.38","46.92","ST LAWRENCE","8403619","2012-02-07 17:30","2012","02","07","17:30","-1.7","","-4.4","","82","","","","27","","24","","","","100.06","","","","-8","","NA"
"-55.38","46.92","ST LAWRENCE","8403619","2012-02-07 18:30","2012","02","07","18:30","-2.3","","-4.9","","82","","","","27","","13","","","","100.17","","","","-7","","NA"
"-55.38","46.92","ST LAWRENCE","8403619","2012-02-07 19:30","2012","02","07","19:30","-2.0","","-4.8","","81","","","","27","","20","","","","100.26","","","","-8","","NA"
"-55.38","46.92","ST LAWRENCE","8403619","2012-02-07 20:30","2012","02","07","20:30","-2.0","","-5.9","","75","","","","27","","24","","","","100.33","","","","-8","","NA"
"-55.38","46.92","ST LAWRENCE","8403619","2012-02-07 21:30","2012","02","07","21:30","-2.3","","-6.2","","75","","","","27","","15","","","","100.33","","","","-7","","NA"
"-55.38","46.92","ST LAWRENCE","8403619","2012-02-07 22:30","2012","02","07","22:30","-2.5","","-6.5","","74","","","","28","","19","","","","100.32","","","","-8","","NA"
"-55.38","46.92","ST LAWRENCE","8403619","2012-02-07 23:30","2012","02","07","23:30","-2.7","","-6.5","","75","","","","27","","19","","","","100.36","","","","-8","","NA"
"-55.38","46.92","ST LAWRENCE","8403619","2012-02-08 00:30","2012","02","08","00:30","-3.1","","-7.4","","72","","","","28","","24","","","","100.36","","","","-10","","NA"
"-55.38","46.92","ST LAWRENCE","8403619","2012-02-08 01:30","2012","02","08","01:30","-3.3","","-6.9","","76","","","","29","","19","","","","100.37","","","","-9","","NA"
"-55.38","46.92","ST LAWRENCE","8403619","2012-02-08 02:30","2012","02","08","02:30","-3.6","","-7.0","","77","","","","28","","19","","","","100.39","","","","-10","","NA"
"-55.38","46.92","ST LAWRENCE","8403619","2012-02-08 03:30","2012","02","08","03:30","-3.5","","-7.1","","76","","","","28","","20","","","","100.40","","","","-10","","NA"
"-55.38","46.92","ST LAWRENCE","8403619","2012-02-08 04:30","2012","02","08","04:30","-3.8","","-5.9","","85","","","","27","","19","","","","100.44","","","","-10","","NA"
"-55.38","46.92","ST LAWRENCE","8403619","2012-02-08 05:30","2012","02","08","05:30","-3.7","","-6.6","","80","","","","27","","20","","","","100.48","","","","-10","","NA"
"-55.38","46.92","ST LAWRENCE","8403619","2012-02-08 06:30","2012","02","08","06:30","-4.1","","-7.0","","80","","","","27","","24","","","","100.50","","","","-11","","NA"
"-55.38","46.92","ST LAWRENCE","8403619","2012-02-08 07:30","2012","02","08","07:30","-4.5","","-6.6","","85","","","","27","","19","","","","100.59","","","","-11","","NA"
"-55.38","46.92","ST LAWRENCE","8403619","2012-02-08 08:30","2012","02","08","08:30","-4.5","","-6.5","","86","","","","28","","13","","","","100.70","","","","-10","","NA"
"-55.38","46.92","ST LAWRENCE","8403619","2012-02-08 09:30","2012","02","08","09:30","-3.8","","-8.0","","73","","","","28","","15","","","","100.77","","","","-9","","NA"
"-55.38","46.92","ST LAWRENCE","8403619","2012-02-08 10:30","2012","02","08","10:30","-3.4","","-7.5","","73","","","","28","","26","","","","100.83","","","","-10","","NA"
"-55.38","46.92","ST LAWRENCE","8403619","2012-02-08 11:30","2012","02","08","11:30","-3.2","","-7.5","","72","","","","29","","26","","","","100.89","","","","-10","","NA"
"-55.38","46.92","ST LAWRENCE","8403619","2012-02-08 12:30","2012","02","08","12:30","-3.7","","-8.7","","68","","","","27","","32","","","","100.89","","","","-12","","NA"
"-55.38","46.92","ST LAWRENCE","8403619","2012-02-08 13:30","2012","02","08","13:30","-3.5","","-7.9","","72","","","","28","","28","","","","100.91","","","","-11","","NA"
"-55.38","46.92","ST LAWRENCE","8403619","2012-02-08 14:30","2012","02","08","14:30","-3.7","","-7.3","","76","","","","26","","32","","","","100.95","","","","-12","","NA"
"-55.38","46.92","ST LAWRENCE","8403619","2012-02-08 15:30","2012","02","08","15:30","-4.2","","-8.6","","71","","","","28","","32","","","","101.06","","","","-12","","NA"
"-55.38","46.92","ST LAWRENCE","8403619","2012-02-08 16:30","2012","02","08","16:30","-4.7","","-8.1","","77","","","","28","","24","","","","101.10","","","","-12","","NA"
"-55.38","46.92","ST LAWRENCE","8403619","2012-02-08 17:30","2012","02","08","17:30","-4.6","","-7.6","","80","","","","27","","28","","","","101.15","","","","-12","","NA"
"-55.38","46.92","ST LAWRENCE","8403619","2012-02-08 18:30","2012","02","08","18:30","-5.1","","-8.7","","76","","","","27","","28","","","","101.24","","","","-13","","NA"
"-55.38","46.92","ST LAWRENCE","8403619","2012-02-08 19:30","2012","02","08","19:30","-5.2","","-9.0","","75","","","","27","","28","","","","101.31","","","","-13","","NA"
"-55.38","46.92","ST LAWRENCE","8403619","2012-02-08 20:30","2012","02","08","20:30","-4.6","","-8.0","","77","","","","24","","22","","","","101.35","","","","-11","","NA"
"-55.38","46.92","ST LAWRENCE","8403619","2012-02-08 21:30","2012","02","08","21:30","-4.2","","-7.8","","76","","","","23","","28","","","","101.40","","","","-12","","NA"
"-55.38","46.92","ST LAWRENCE","8403619","2012-02-08 22:30","2012","02","08","22:30","-4.2","","-7.9","","75","","","","24","","32","","","","101.43","","","","-12","","NA"
"-55.38","46.92","ST LAWRENCE","8403619","2012-02-08 23:30","2012","02","08","23:30","-3.6","","-7.2","","76","","","","24","","32","","","","101.46","","","","-11","","NA"
"-55.38","46.92","ST LAWRENCE","8403619","2012-02-09 00:30","2012","02","09","00:30","-3.2","","-6.4","","79","","","","23","","26","","","","101.49","","","","-10","","NA"
"-55.38","46.92","ST LAWRENCE","8403619","2012-02-09 01:30","2012","02","09","01:30","-2.9","","-6.4","","77","","","","23","","33","","","","101.52","","","","-11","","NA"
"-55.38","46.92","ST LAWRENCE","8403619","2012-02-09 02:30","2012","02","09","02:30","-2.5","","-6.1","","76","","","","23","","26","","","","101.53","","","","-9","","NA"
"-55.38","46.92","ST LAWRENCE","8403619","2012-02-09 03:30","2012","02","09","03:30","-2.4","","-6.2","","75","","","","23","","28","","","","101.54","","","","-9","","NA"
"-55.38","46.92","ST LAWRENCE","8403619","2012-02-09 04:30","2012","02","09","04:30","-2.3","","-5.8","","77","","","","23","","26","","","","101.59","","","","-9","","NA"
"-55.38","46.92","ST LAWRENCE","8403619","2012-02-09 05:30","2012","02","09","05:30","-2.0","","-5.6","","76","","","","23","","30","","","","101.63","","","","-9","","NA"
"-55.38","46.92","ST LAWRENCE","8403619","2012-02-09 06:30","2012","02","09","06:30","-1.8","","-5.0","","79","","","","22","","22","","","","101.62","","","","-8","","NA"
"-55.38","46.92","ST LAWRENCE","8403619","2012-02-09 07:30","2012","02","09","07:30","-1.7","","-5.1","","78","","","","22","","19","","","","101.64","","","","-7","","NA"
"-55.38","46.92","ST LAWRENCE","8403619","2012-02-09 08:30","2012","02","09","08:30","-1.4","","-4.7","","78","","","","21","","24","","","","101.70","","","","-8","","NA"
"-55.38","46.92","ST LAWRENCE","8403619","2012-02-09 09:30","2012","02","09","09:30","-0.9","","-4.6","","76","","","","20","","22","","","","101.68","","","","-7","","NA"
"-55.38","46.92","ST LAWRENCE","8403619","2012-02-09 10:30","2012","02","09","10:30","-0.3","","-4.2","","75","","","","19","","20","","","","101.66","","","","-6","","NA"
"-55.38","46.92","ST LAWRENCE","8403619","2012-02-09 11:30","2012","02","09","11:30","0.6","","-4.1","","71","","","","19","","19","","","","101.61","","","","","","NA"
"-55.38","46.92","ST LAWRENCE","8403619","2012-02-09 12:30","2012","02","09","12:30","0.1","","-3.8","","75","","","","15","","15","","","","101.43","","","","","","NA"
"-55.38","46.92","ST LAWRENCE","8403619","2012-02-09 13:30","2012","02","09","13:30","0.1","","-2.8","","81","","","","15","","17","","","","101.40","","","","","","NA"
"-55.38","46.92","ST LAWRENCE","8403619","2012-02-09 14:30","2012","02","09","14:30","0.0","","-2.1","","86","","","","12","","19","","","","101.37","","","","-5","","NA"
"-55.38","46.92","ST LAWRENCE","8403619","2012-02-09 15:30","2012","02","09","15:30","0.1","","-1.5","","89","","","","9","","17","","","","101.24","","","","","","NA"
"-55.38","46.92","ST LAWRENCE","8403619","2012-02-09 16:30","2012","02","09","16:30","0.2","","-1.0","","92","","","","9","","22","","","","101.09","","","","","","NA"
"-55.38","46.92","ST LAWRENCE","8403619","2012-02-09 17:30","2012","02","09","17:30","0.6","","-0.6","","92","","","","9","","20","","","","100.96","","","","","","NA"
"-55.38","46.92","ST LAWRENCE","8403619","2012-02-09 18:30","2012","02","09","18:30","0.4","","-0.4","","94","","","","10","","32","","","","100.80","","","","","","NA"
"-55.38","46.92","ST LAWRENCE","8403619","2012-02-09 19:30","2012","02","09","19:30","0.0","","-0.1","","99","","","","10","","32","","","","100.70","","","","-7","","NA"
"-55.38","46.92","ST LAWRENCE","8403619","2012-02-09 20:30","2012","02","09","20:30","-0.1","","-0.1","","100","","","","8","","39","","","","100.40","","","","-7","","NA"
"-55.38","46.92","ST LAWRENCE","8403619","2012-02-09 21:30","2012","02","09","21:30","-0.2","","-0.2","","100","","","","8","","44","","","","100.21","","","","-8","","NA"
"-55.38","46.92","ST LAWRENCE","8403619","2012-02-09 22:30","2012","02","09","22:30","-0.3","","-0.3","","100","","","","6","","39","","","","99.86","","","","-8","","NA"
"-55.38","46.92","ST LAWRENCE","8403619","2012-02-09 23:30","2012","02","09","23:30","-0.7","","-0.7","","100","","","","5","","52","","","","99.42","","","","-9","","NA"
"-55.38","46.92","ST LAWRENCE","8403619","2012-02-10 00:30","2012","02","10","00:30","-0.7","","-0.7","","100","","","","4","","56","","","","99.10","","","","-9","","NA"
"-55.38","46.92","ST LAWRENCE","8403619","2012-02-10 01:30","2012","02","10","01:30","-0.7","","-0.7","","100","","","","4","","57","","","","98.81","","","","-10","","NA"
"-55.38","46.92","ST LAWRENCE","8403619","2012-02-10 02:30","2012","02","10","02:30","-0.5","","-0.5","","100","","","","3","","59","","","","98.57","","","","-9","","NA"
"-55.38","46.92","ST LAWRENCE","8403619","2012-02-10 03:30","2012","02","10","03:30","-0.5","","-0.5","","100","","","","1","","46","","","","98.49","","","","-9","","NA"
"-55.38","46.92","ST LAWRENCE","8403619","2012-02-10 04:30","2012","02","10","04:30","-0.6","","-0.6","","100","","","","36","","52","","","","98.49","","","","-9","","NA"
"-55.38","46.92","ST LAWRENCE","8403619","2012-02-10 05:30","2012","02","10","05:30","-0.8","","-0.8","","100","","","","35","","52","","","","98.55","","","","-9","","NA"
"-55.38","46.92","ST LAWRENCE","8403619","2012-02-10 06:30","2012","02","10","06:30","-0.7","","-0.7","","100","","","","35","","54","","","","98.68","","","","-9","","NA"
"-55.38","46.92","ST LAWRENCE","8403619","2012-02-10 07:30","2012","02","10","07:30","-0.5","","-0.5","","100","","","","33","","41","","","","98.99","","","","-8","","NA"
"-55.38","46.92","ST LAWRENCE","8403619","2012-02-10 08:30","2012","02","10","08:30","-0.3","","-0.3","","100","","","","32","","43","","","","99.32","","","","-8","","NA"
"-55.38","46.92","ST LAWRENCE","8403619","2012-02-10 09:30","2012","02","10","09:30","0.2","","0.1","","99","","","","31","","39","","","","99.52","","","","","","NA"
"-55.38","46.92","ST LAWRENCE","8403619","2012-02-10 10:30","2012","02","10","10:30","-0.1","","-0.3","","99","","","","30","","33","","","","99.79","","","","-7","","NA"
"-55.38","46.92","ST LAWRENCE","8403619","2012-02-10 11:30","2012","02","10","11:30","-0.4","","-0.8","","97","","","","31","","39","","","","100.04","","","","-8","","NA"
"-55.38","46.92","ST LAWRENCE","8403619","2012-02-10 12:30","2012","02","10","12:30","0.5","","-0.1","","96","","","","30","","26","","","","100.21","","","","","","NA"
"-55.38","46.92","ST LAWRENCE","8403619","2012-02-10 13:30","2012","02","10","13:30","0.7","","-0.1","","94","","","","28","","33","","","","100.35","","","","","","NA"
"-55.38","46.92","ST LAWRENCE","8403619","2012-02-10 14:30","2012","02","10","14:30","0.6","","-0.6","","92","","","","29","","32","","","","100.45","","","","","","NA"
"-55.38","46.92","ST LAWRENCE","8403619","2012-02-10 15:30","2012","02","10","15:30","0.2","","-1.4","","89","","","","28","","28","","","","100.67","","","","","","NA"
"-55.38","46.92","ST LAWRENCE","8403619","2012-02-10 16:30","2012","02","10","16:30","-0.2","","-1.7","","90","","","","25","","15","","","","100.84","","","","-5","","NA"
"-55.38","46.92","ST LAWRENCE","8403619","2012-02-10 17:30","2012","02","10","17:30","-1.6","","-2.7","","92","","","","26","","19","","","","100.98","","","","-7","","NA"
"-55.38","46.92","ST LAWRENCE","8403619","2012-02-10 18:30","2012","02","10","18:30","-2.2","","-3.4","","91","","","","28","","24","","","","101.05","","","","-9","","NA"
"-55.38","46.92","ST LAWRENCE","8403619","2012-02-10 19:30","2012","02","10","19:30","-2.7","","-3.8","","92","","","","28","","11","","","","101.19","","","","-7","","NA"
"-55.38","46.92","ST LAWRENCE","8403619","2012-02-10 20:30","2012","02","10","20:30","-4.2","","-5.1","","93","","","","29","","11","","","","101.27","","","","-9","","NA"
"-55.38","46.92","ST LAWRENCE","8403619","2012-02-10 21:30","2012","02","10","21:30","-4.8","","-5.4","","96","","","","28","","7","","","","101.34","","","","-8","","NA"
"-55.38","46.92","ST LAWRENCE","8403619","2012-02-10 22:30","2012","02","10","22:30","-5.4","","-6.2","","94","","","","31","","6","","","","101.41","","","","-8","","NA"
"-55.38","46.92","ST LAWRENCE","8403619","2012-02-10 23:30","2012","02","10","23:30","-6.1","","-6.8","","95","","","","27","","9","","","","101.46","","","","-10","","NA"
"-55.38","46.92","ST LAWRENCE","8403619","2012-02-11 00:30","2012","02","11","00:30","-6.8","","-7.4","","95","","","","27","","6","","","","101.55","","","","-10","","NA"
"-55.38","46.92","ST LAWRENCE","8403619","2012-02-11 01:30","2012","02","11","01:30","-6.9","","-7.5","","95","","","","1","","2","","","","101.51","","","","-8","","NA"
"-55.38","46.92","ST LAWRENCE","8403619","2012-02-11 02:30","2012","02","11","02:30","-6.4","","-6.8","","97","","","","25","","2","","","","101.58","","","","-7","","NA"
"-55.38","46.92","ST LAWRENCE","8403619","2012-02-11 03:30","2012","02","11","03:30","-4.2","","-4.6","","97","","","","23","","9","","","","101.58","","","","-8","","NA"
"-55.38","46.92","ST LAWRENCE","8403619","2012-02-11 04:30","2012","02","11","04:30","-2.7","","-3.4","","95","","","","21","","11","","","","101.55","","","","-7","","NA"
"-55.38","46.92","ST LAWRENCE","8403619","2012-02-11 05:30","2012","02","11","05:30","-1.2","","-2.5","","91","","","","20","","22","","","","101.62","","","","-7","","NA"
"-55.38","46.92","ST LAWRENCE","8403619","2012-02-11 06:30","2012","02","11","06:30","-0.9","","-2.4","","90","","","","20","","22","","","","101.58","","","","-7","","NA"
"-55.38","46.92","ST LAWRENCE","8403619","2012-02-11 07:30","2012","02","11","07:30","-0.5","","-2.2","","88","","","","19","","20","","","","101.59","","","","-6","","NA"
"-55.38","46.92","ST LAWRENCE","8403619","2012-02-11 08:30","2012","02","11","08:30","-0.3","","-2.0","","88","","","","20","","19","","","","101.61","","","","-5","","NA"
"-55.38","46.92","ST LAWRENCE","8403619","2012-02-11 09:30","2012","02","11","09:30","0.2","","-1.3","","90","","","","20","","19","","","","101.62","","","","","","NA"
"-55.38","46.92","ST LAWRENCE","8403619","2012-02-11 10:30","2012","02","11","10:30","0.5","","-0.8","","91","","","","17","","17","","","","101.63","","","","","","NA"
"-55.38","46.92","ST LAWRENCE","8403619","2012-02-11 11:30","2012","02","11","11:30","0.9","","-0.2","","92","","","","15","","20","","","","101.56","","","","","","NA"
"-55.38","46.92","ST LAWRENCE","8403619","2012-02-11 12:30","2012","02","11","12:30","1.5","","0.2","","91","","","","15","","20","","","","101.44","","","","","","NA"
"-55.38","46.92","ST LAWRENCE","8403619","2012-02-11 13:30","2012","02","11","13:30","1.5","","0.8","","95","","","","14","","22","","","","101.37","","","","","","NA"
"-55.38","46.92","ST LAWRENCE","8403619","2012-02-11 14:30","2012","02","11","14:30","2.2","","1.2","","93","","","","13","","24","","","","101.31","","","","","","NA"
"-55.38","46.92","ST LAWRENCE","8403619","2012-02-11 15:30","2012","02","11","15:30","2.3","","1.5","","94","","","","14","","30","","","","101.23","","","","","","NA"
"-55.38","46.92","ST LAWRENCE","8403619","2012-02-11 16:30","2012","02","11","16:30","2.4","","1.7","","95","","","","14","","33","","","","101.20","","","","","","NA"
"-55.38","46.92","ST LAWRENCE","8403619","2012-02-11 17:30","2012","02","11","17:30","2.4","","1.9","","96","","","","13","","35","","","","101.09","","","","","","NA"
"-55.38","46.92","ST LAWRENCE","8403619","2012-02-11 18:30","2012","02","11","18:30","2.7","","2.3","","97","","","","14","","37","","","","101.04","","","","","","NA"
"-55.38","46.92","ST LAWRENCE","8403619","2012-02-11 19:30","2012","02","11","19:30","2.8","","2.1","","95","","","","13","","37","","","","100.97","","","","","","NA"
"-55.38","46.92","ST LAWRENCE","8403619","2012-02-11 20:30","2012","02","11","20:30","3.0","","2.3","","95","","","","14","","33","","","","100.89","","","","","","NA"
"-55.38","46.92","ST LAWRENCE","8403619","2012-02-11 21:30","2012","02","11","21:30","2.7","","2.1","","96","","","","13","","30","","","","100.79","","","","","","NA"
"-55.38","46.92","ST LAWRENCE","8403619","2012-02-11 22:30","2012","02","11","22:30","2.8","","2.1","","95","","","","13","","32","","","","100.70","","","","","","NA"
"-55.38","46.92","ST LAWRENCE","8403619","2012-02-11 23:30","2012","02","11","23:30","3.2","","2.3","","94","","","","13","","35","","","","100.47","","","","","","NA"
"-55.38","46.92","ST LAWRENCE","8403619","2012-02-12 00:30","2012","02","12","00:30","2.8","","2.4","","97","","","","12","","39","","","","100.27","","","","","","NA"
"-55.38","46.92","ST LAWRENCE","8403619","2012-02-12 01:30","2012","02","12","01:30","2.7","","2.4","","98","","","","12","","43","","","","100.07","","","","","","NA"
"-55.38","46.92","ST LAWRENCE","8403619","2012-02-12 02:30","2012","02","12","02:30","3.2","","2.9","","98","","","","12","","44","","","","99.81","","","","","","NA"
"-55.38","46.92","ST LAWRENCE","8403619","2012-02-12 03:30","2012","02","12","03:30","3.4","","3.1","","98","","","","11","","54","","","","99.42","","","","","","NA"
"-55.38","46.92","ST LAWRENCE","8403619","2012-02-12 04:30","2012","02","12","04:30","3.8","","3.5","","98","","","","12","","59","","","","98.98","","","","","","NA"
"-55.38","46.92","ST LAWRENCE","8403619","2012-02-12 05:30","2012","02","12","05:30","4.5","","4.3","","99","","","","12","","69","","","","98.62","","","","","","NA"
"-55.38","46.92","ST LAWRENCE","8403619","2012-02-12 06:30","2012","02","12","06:30","4.6","","4.4","","99","","","","13","","61","","","","98.43","","","","","","NA"
"-55.38","46.92","ST LAWRENCE","8403619","2012-02-12 07:30","2012","02","12","07:30","5.4","","5.2","","99","","","","14","","69","","","","98.39","","","","","","NA"
"-55.38","46.92","ST LAWRENCE","8403619","2012-02-12 08:30","2012","02","12","08:30","5.4","","5.2","","99","","","","15","","57","","","","98.46","","","","","","NA"
"-55.38","46.92","ST LAWRENCE","8403619","2012-02-12 09:30","2012","02","12","09:30","5.5","","5.4","","99","","","","15","","50","","","","98.48","","","","","","NA"
"-55.38","46.92","ST LAWRENCE","8403619","2012-02-12 10:30","2012","02","12","10:30","5.8","","5.7","","99","","","","15","","46","","","","98.43","","","","","","NA"
"-55.38","46.92","ST LAWRENCE","8403619","2012-02-12 11:30","2012","02","12","11:30","5.4","","5.3","","99","","","","15","","41","","","","98.41","","","","","","NA"
"-55.38","46.92","ST LAWRENCE","8403619","2012-02-12 12:30","2012","02","12","12:30","6.0","","5.9","","99","","","","15","","44","","","","98.33","","","","","","NA"
"-55.38","46.92","ST LAWRENCE","8403619","2012-02-12 13:30","2012","02","12","13:30","6.2","","6.0","","99","","","","15","","44","","","","98.22","","","","","","NA"
"-55.38","46.92","ST LAWRENCE","8403619","2012-02-12 14:30","2012","02","12","14:30","4.6","","4.5","","99","","","","13","","30","","","","98.14","","","","","","NA"
"-55.38","46.92","ST LAWRENCE","8403619","2012-02-12 15:30","2012","02","12","15:30","5.9","","5.8","","99","","","","15","","32","","","","98.05","","","","","","NA"
"-55.38","46.92","ST LAWRENCE","8403619","2012-02-12 16:30","2012","02","12","16:30","5.5","","5.4","","99","","","","14","","32","","","","97.95","","","","","","NA"
"-55.38","46.92","ST LAWRENCE","8403619","2012-02-12 17:30","2012","02","12","17:30","4.3","","4.3","","100","","","","12","","28","","","","97.82","","","","","","NA"
"-55.38","46.92","ST LAWRENCE","8403619","2012-02-12 18:30","2012","02","12","18:30","6.2","","6.1","","99","","","","14","","44","","","","97.69","","","","","","NA"
"-55.38","46.92","ST LAWRENCE","8403619","2012-02-12 19:30","2012","02","12","19:30","6.2","","6.1","","99","","","","14","","43","","","","97.61","","","","","","NA"
"-55.38","46.92","ST LAWRENCE","8403619","2012-02-12 20:30","2012","02","12","20:30","6.4","","6.3","","99","","","","15","","46","","","","97.46","","","","","","NA"
"-55.38","46.92","ST LAWRENCE","8403619","2012-02-12 21:30","2012","02","12","21:30","7.4","","7.3","","99","","","","17","","46","","","","97.60","","","","","","NA"
"-55.38","46.92","ST LAWRENCE","8403619","2012-02-12 22:30","2012","02","12","22:30","1.4","","1.3","","99","","","","24","","44","","","","97.67","","","","","","NA"
"-55.38","46.92","ST LAWRENCE","8403619","2012-02-12 23:30","2012","02","12","23:30","0.3","","0.3","","100","","","","25","","24","","","","97.70","","","","","","NA"
"-55.38","46.92","ST LAWRENCE","8403619","2012-02-13 00:30","2012","02","13","00:30","0.3","","0.3","","100","","","","23","","32","","","","97.97","","","","","","NA"
"-55.38","46.92","ST LAWRENCE","8403619","2012-02-13 01:30","2012","02","13","01:30","-0.8","","-0.8","","100","","","","27","","43","","","","98.10","","","","-9","","NA"
"-55.38","46.92","ST LAWRENCE","8403619","2012-02-13 02:30","2012","02","13","02:30","-1.4","","-1.4","","100","","","","27","","30","","","","98.08","","","","-8","","NA"
"-55.38","46.92","ST LAWRENCE","8403619","2012-02-13 03:30","2012","02","13","03:30","-1.9","","-2.4","","96","","","","27","","37","","","","98.36","","","","-10","","NA"
"-55.38","46.92","ST LAWRENCE","8403619","2012-02-13 04:30","2012","02","13","04:30","-2.1","","-2.8","","95","","","","26","","39","","","","98.43","","","","-10","","NA"
"-55.38","46.92","ST LAWRENCE","8403619","2012-02-13 05:30","2012","02","13","05:30","-2.7","","-3.5","","94","","","","27","","33","","","","98.66","","","","-10","","NA"
"-55.38","46.92","ST LAWRENCE","8403619","2012-02-13 06:30","2012","02","13","06:30","-2.4","","-3.6","","91","","","","25","","39","","","","98.87","","","","-11","","NA"
"-55.38","46.92","ST LAWRENCE","8403619","2012-02-13 07:30","2012","02","13","07:30","-3.0","","-4.4","","90","","","","25","","30","","","","99.05","","","","-10","","NA"
"-55.38","46.92","ST LAWRENCE","8403619","2012-02-13 08:30","2012","02","13","08:30","-3.5","","-4.0","","96","","","","24","","41","","","","99.15","","","","-12","","NA"
"-55.38","46.92","ST LAWRENCE","8403619","2012-02-13 09:30","2012","02","13","09:30","-4.1","","-7.4","","78","","","","23","","43","","","","99.28","","","","-13","","NA"
"-55.38","46.92","ST LAWRENCE","8403619","2012-02-13 10:30","2012","02","13","10:30","-3.7","","-6.5","","81","","","","24","","44","","","","99.33","","","","-13","","NA"
"-55.38","46.92","ST LAWRENCE","8403619","2012-02-13 11:30","2012","02","13","11:30","-3.8","","-7.1","","78","","","","24","","43","","","","99.41","","","","-13","","NA"
"-55.38","46.92","ST LAWRENCE","8403619","2012-02-13 12:30","2012","02","13","12:30","-4.4","","-9.0","","70","","","","24","","50","","","","99.45","","","","-14","","NA"
"-55.38","46.92","ST LAWRENCE","8403619","2012-02-13 13:30","2012","02","13","13:30","-5.7","","-7.6","","86","","","","24","","44","","","","99.53","","","","-15","","NA"
"-55.38","46.92","ST LAWRENCE","8403619","2012-02-13 14:30","2012","02","13","14:30","-6.7","","-11.6","","68","","","","25","","46","","","","99.66","","","","-17","","NA"
"-55.38","46.92","ST LAWRENCE","8403619","2012-02-13 15:30","2012","02","13","15:30","-7.7","","-11.7","","73","","","","25","","50","","","","99.75","","","","-19","","NA"
"-55.38","46.92","ST LAWRENCE","8403619","2012-02-13 16:30","2012","02","13","16:30","-7.6","","-13.5","","63","","","","24","","52","","","","99.85","","","","-19","","NA"
"-55.38","46.92","ST LAWRENCE","8403619","2012-02-13 17:30","2012","02","13","17:30","-8.2","","-12.7","","70","","","","24","","48","","","","100.05","","","","-19","","NA"
"-55.38","46.92","ST LAWRENCE","8403619","2012-02-13 18:30","2012","02","13","18:30","-8.8","","-11.2","","83","","","","25","","44","","","","100.19","","","","-20","","NA"
"-55.38","46.92","ST LAWRENCE","8403619","2012-02-13 19:30","2012","02","13","19:30","-7.7","","-13.5","","63","","","","24","","43","","","","100.28","","","","-18","","NA"
"-55.38","46.92","ST LAWRENCE","8403619","2012-02-13 20:30","2012","02","13","20:30","-7.0","","-12.7","","64","","","","24","","33","","","","100.33","","","","-16","","NA"
"-55.38","46.92","ST LAWRENCE","8403619","2012-02-13 21:30","2012","02","13","21:30","-6.1","","-10.1","","73","","","","21","","26","","","","100.29","","","","-14","","NA"
"-55.38","46.92","ST LAWRENCE","8403619","2012-02-13 22:30","2012","02","13","22:30","-5.3","","-7.1","","87","","","","20","","33","","","","100.22","","","","-14","","NA"
"-55.38","46.92","ST LAWRENCE","8403619","2012-02-13 23:30","2012","02","13","23:30","-4.3","","-5.2","","93","","","","21","","33","","","","100.16","","","","-12","","NA"
"-55.38","46.92","ST LAWRENCE","8403619","2012-02-14 00:30","2012","02","14","00:30","-4.0","","-4.2","","99","","","","23","","33","","","","100.19","","","","-12","","NA"
"-55.38","46.92","ST LAWRENCE","8403619","2012-02-14 01:30","2012","02","14","01:30","-5.7","","-6.0","","98","","","","27","","22","","","","100.30","","","","-13","","NA"
"-55.38","46.92","ST LAWRENCE","8403619","2012-02-14 02:30","2012","02","14","02:30","-5.0","","-6.5","","89","","","","25","","39","","","","100.39","","","","-14","","NA"
"-55.38","46.92","ST LAWRENCE","8403619","2012-02-14 03:30","2012","02","14","03:30","-5.3","","-7.2","","86","","","","26","","33","","","","100.48","","","","-14","","NA"
"-55.38","46.92","ST LAWRENCE","8403619","2012-02-14 04:30","2012","02","14","04:30","-6.2","","-9.4","","78","","","","25","","33","","","","100.61","","","","-15","","NA"
"-55.38","46.92","ST LAWRENCE","8403619","2012-02-14 05:30","2012","02","14","05:30","-6.5","","-11.4","","68","","","","24","","32","","","","100.70","","","","-15","","NA"
"-55.38","46.92","ST LAWRENCE","8403619","2012-02-14 06:30","2012","02","14","06:30","-6.4","","-11.0","","70","","","","26","","32","","","","100.83","","","","-15","","NA"
"-55.38","46.92","ST LAWRENCE","8403619","2012-02-14 07:30","2012","02","14","07:30","-6.5","","-10.7","","72","","","","26","","28","","","","100.98","","","","-15","","NA"
"-55.38","46.92","ST LAWRENCE","8403619","2012-02-14 08:30","2012","02","14","08:30","-6.1","","-10.5","","71","","","","25","","28","","","","101.10","","","","-14","","NA"
"-55.38","46.92","ST LAWRENCE","8403619","2012-02-14 09:30","2012","02","14","09:30","-5.2","","-10.4","","67","","","","24","","33","","","","101.17","","","","-14","","NA"
"-55.38","46.92","ST LAWRENCE","8403619","2012-02-14 10:30","2012","02","14","10:30","-4.4","","-9.8","","66","","","","25","","35","","","","101.20","","","","-13","","NA"
"-55.38","46.92","ST LAWRENCE","8403619","2012-02-14 11:30","2012","02","14","11:30","-3.9","","-9.7","","64","","","","24","","33","","","","101.29","","","","-12","","NA"
"-55.38","46.92","ST LAWRENCE","8403619","2012-02-14 12:30","2012","02","14","12:30","-3.4","","-9.6","","62","","","","25","","35","","","","101.35","","","","-11","","NA"
"-55.38","46.92","ST LAWRENCE","8403619","2012-02-14 13:30","2012","02","14","13:30","-3.3","","-9.5","","62","","","","26","","35","","","","101.38","","","","-11","","NA"
"-55.38","46.92","ST LAWRENCE","8403619","2012-02-14 14:30","2012","02","14","14:30","-3.7","","-10.7","","58","","","","25","","37","","","","101.46","","","","-12","","NA"
"-55.38","46.92","ST LAWRENCE","8403619","2012-02-14 15:30","2012","02","14","15:30","-3.7","","-10.0","","62","","","","25","","30","","","","101.56","","","","-11","","NA"
"-55.38","46.92","ST LAWRENCE","8403619","2012-02-14 16:30","2012","02","14","16:30","-5.1","","-10.1","","68","","","","26","","28","","","","101.68","","","","-13","","NA"
"-55.38","46.92","ST LAWRENCE","8403619","2012-02-14 17:30","2012","02","14","17:30","-6.1","","-10.5","","71","","","","26","","24","","","","101.80","","","","-14","","NA"
"-55.38","46.92","ST LAWRENCE","8403619","2012-02-14 18:30","2012","02","14","18:30","-5.8","","-9.6","","74","","","","27","","20","","","","101.95","","","","-13","","NA"
"-55.38","46.92","ST LAWRENCE","8403619","2012-02-14 19:30","2012","02","14","19:30","-6.1","","-9.9","","74","","","","27","","19","","","","102.06","","","","-13","","NA"
"-55.38","46.92","ST LAWRENCE","8403619","2012-02-14 20:30","2012","02","14","20:30","-7.7","","-10.5","","80","","","","28","","13","","","","102.18","","","","-13","","NA"
"-55.38","46.92","ST LAWRENCE","8403619","2012-02-14 21:30","2012","02","14","21:30","-9.1","","-11.4","","83","","","","30","","11","","","","102.26","","","","-15","","NA"
"-55.38","46.92","ST LAWRENCE","8403619","2012-02-14 22:30","2012","02","14","22:30","-9.2","","-11.4","","84","","","","31","","6","","","","102.33","","","","-13","","NA"
"-55.38","46.92","ST LAWRENCE","8403619","2012-02-14 23:30","2012","02","14","23:30","-9.2","","-11.7","","82","","","","34","","4","","","","102.39","","","","-11","","NA"
"-55.38","46.92","ST LAWRENCE","8403619","2012-02-15 00:30","2012","02","15","00:30","-10.6","","-12.1","","89","","","","6","","6","","","","102.43","","","","-14","","NA"
"-55.38","46.92","ST LAWRENCE","8403619","2012-02-15 01:30","2012","02","15","01:30","-11.6","","-12.8","","91","","","","5","","6","","","","102.46","","","","-15","","NA"
"-55.38","46.92","ST LAWRENCE","8403619","2012-02-15 02:30","2012","02","15","02:30","-10.3","","-11.8","","89","","","","11","","4","","","","102.47","","","","-13","","NA"
"-55.38","46.92","ST LAWRENCE","8403619","2012-02-15 03:30","2012","02","15","03:30","-6.1","","-8.0","","86","","","","17","","9","","","","102.50","","","","-10","","NA"
"-55.38","46.92","ST LAWRENCE","8403619","2012-02-15 04:30","2012","02","15","04:30","-5.4","","-7.2","","87","","","","16","","7","","","","102.48","","","","-9","","NA"
"-55.38","46.92","ST LAWRENCE","8403619","2012-02-15 05:30","2012","02","15","05:30","-5.7","","-7.3","","88","","","","11","","7","","","","102.49","","","","-9","","NA"
"-55.38","46.92","ST LAWRENCE","8403619","2012-02-15 06:30","2012","02","15","06:30","-2.7","","-5.0","","84","","","","15","","9","","","","102.46","","","","-6","","NA"
"-55.38","46.92","ST LAWRENCE","8403619","2012-02-15 07:30","2012","02","15","07:30","-1.5","","-3.7","","85","","","","14","","13","","","","102.49","","","","-6","","NA"
"-55.38","46.92","ST LAWRENCE","8403619","2012-02-15 08:30","2012","02","15","08:30","-0.4","","-2.9","","83","","","","13","","19","","","","102.47","","","","-6","","NA"
"-55.38","46.92","ST LAWRENCE","8403619","2012-02-15 09:30","2012","02","15","09:30","0.3","","-2.3","","83","","","","14","","20","","","","102.49","","","","","","NA"
"-55.38","46.92","ST LAWRENCE","8403619","2012-02-15 10:30","2012","02","15","10:30","0.8","","-2.1","","81","","","","14","","22","","","","102.45","","","","","","NA"
"-55.38","46.92","ST LAWRENCE","8403619","2012-02-15 11:30","2012","02","15","11:30","0.8","","-1.7","","83","","","","15","","17","","","","102.46","","","","","","NA"
"-55.38","46.92","ST LAWRENCE","8403619","2012-02-15 12:30","2012","02","15","12:30","0.6","","-1.1","","88","","","","14","","13","","","","102.41","","","","","","NA"
"-55.38","46.92","ST LAWRENCE","8403619","2012-02-15 13:30","2012","02","15","13:30","0.5","","-0.9","","90","","","","11","","17","","","","102.30","","","","","","NA"
"-55.38","46.92","ST LAWRENCE","8403619","2012-02-15 14:30","2012","02","15","14:30","0.2","","-1.1","","91","","","","10","","17","","","","102.20","","","","","","NA"
"-55.38","46.92","ST LAWRENCE","8403619","2012-02-15 15:30","2012","02","15","15:30","0.3","","-1.0","","91","","","","10","","20","","","","102.18","","","","","","NA"
"-55.38","46.92","ST LAWRENCE","8403619","2012-02-15 16:30","2012","02","15","16:30","0.1","","-0.8","","94","","","","9","","19","","","","102.13","","","","","","NA"
"-55.38","46.92","ST LAWRENCE","8403619","2012-02-15 17:30","2012","02","15","17:30","-0.3","","-0.4","","99","","","","9","","24","","","","102.08","","","","-6","","NA"
"-55.38","46.92","ST LAWRENCE","8403619","2012-02-15 18:30","2012","02","15","18:30","-0.1","","-0.1","","100","","","","9","","26","","","","102.01","","","","-6","","NA"
"-55.38","46.92","ST LAWRENCE","8403619","2012-02-15 19:30","2012","02","15","19:30","0.1","","0.1","","100","","","","9","","28","","","","101.92","","","","","","NA"
"-55.38","46.92","ST LAWRENCE","8403619","2012-02-15 20:30","2012","02","15","20:30","0.1","","0.1","","100","","","","10","","28","","","","101.86","","","","","","NA"
"-55.38","46.92","ST LAWRENCE","8403619","2012-02-15 21:30","2012","02","15","21:30","0.2","","0.2","","100","","","","9","","37","","","","101.75","","","","","","NA"
"-55.38","46.92","ST LAWRENCE","8403619","2012-02-15 22:30","2012","02","15","22:30","0.4","","0.4","","100","","","","9","","33","","","","101.65","","","","","","NA"
"-55.38","46.92","ST LAWRENCE","8403619","2012-02-15 23:30","2012","02","15","23:30","0.3","","0.3","","100","","","","9","","37","","","","101.58","","","","","","NA"
"-55.38","46.92","ST LAWRENCE","8403619","2012-02-16 00:30","2012","02","16","00:30","0.5","","0.5","","100","","","","9","","30","","","","101.48","","","","","","NA"
"-55.38","46.92","ST LAWRENCE","8403619","2012-02-16 01:30","2012","02","16","01:30","0.6","","0.6","","100","","","","9","","28","","","","101.41","","","","","","NA"
"-55.38","46.92","ST LAWRENCE","8403619","2012-02-16 02:30","2012","02","16","02:30","0.8","","0.8","","100","","","","8","","32","","","","101.33","","","","","","NA"
"-55.38","46.92","ST LAWRENCE","8403619","2012-02-16 03:30","2012","02","16","03:30","0.8","","0.8","","100","","","","11","","20","","","","101.26","","","","","","NA"
"-55.38","46.92","ST LAWRENCE","8403619","2012-02-16 04:30","2012","02","16","04:30","0.8","","0.8","","100","","","","8","","22","","","","101.23","","","","","","NA"
"-55.38","46.92","ST LAWRENCE","8403619","2012-02-16 05:30","2012","02","16","05:30","0.9","","0.9","","100","","","","8","","28","","","","101.19","","","","","","NA"
"-55.38","46.92","ST LAWRENCE","8403619","2012-02-16 06:30","2012","02","16","06:30","0.9","","0.9","","100","","","","7","","32","","","","101.13","","","","","","NA"
"-55.38","46.92","ST LAWRENCE","8403619","2012-02-16 07:30","2012","02","16","07:30","1.0","","1.0","","100","","","","7","","26","","","","101.11","","","","","","NA"
"-55.38","46.92","ST LAWRENCE","8403619","2012-02-16 08:30","2012","02","16","08:30","1.2","","1.2","","100","","","","7","","22","","","","101.14","","","","","","NA"
"-55.38","46.92","ST LAWRENCE","8403619","2012-02-16 09:30","2012","02","16","09:30","1.3","","1.3","","100","","","","6","","17","","","","101.15","","","","","","NA"
"-55.38","46.92","ST LAWRENCE","8403619","2012-02-16 10:30","2012","02","16","10:30","1.4","","1.4","","100","","","","6","","22","","","","101.07","","","","","","NA"
"-55.38","46.92","ST LAWRENCE","8403619","2012-02-16 11:30","2012","02","16","11:30","1.5","","1.5","","100","","","","6","","24","","","","101.01","","","","","","NA"
"-55.38","46.92","ST LAWRENCE","8403619","2012-02-16 12:30","2012","02","16","12:30","1.6","","1.6","","100","","","","6","","28","","","","100.91","","","","","","NA"
"-55.38","46.92","ST LAWRENCE","8403619","2012-02-16 13:30","2012","02","16","13:30","1.5","","1.5","","100","","","","7","","26","","","","100.82","","","","","","NA"
"-55.38","46.92","ST LAWRENCE","8403619","2012-02-16 14:30","2012","02","16","14:30","1.7","","1.7","","100","","","","7","","24","","","","100.77","","","","","","NA"
"-55.38","46.92","ST LAWRENCE","8403619","2012-02-16 15:30","2012","02","16","15:30","1.6","","1.6","","100","","","","7","","20","","","","100.68","","","","","","NA"
"-55.38","46.92","ST LAWRENCE","8403619","2012-02-16 16:30","2012","02","16","16:30","1.3","","1.3","","100","","","","7","","20","","","","100.64","","","","","","NA"
"-55.38","46.92","ST LAWRENCE","8403619","2012-02-16 17:30","2012","02","16","17:30","1.2","","1.2","","100","","","","5","","20","","","","100.61","","","","","","NA"
"-55.38","46.92","ST LAWRENCE","8403619","2012-02-16 18:30","2012","02","16","18:30","1.2","","1.2","","100","","","","6","","19","","","","100.53","","","","","","NA"
"-55.38","46.92","ST LAWRENCE","8403619","2012-02-16 19:30","2012","02","16","19:30","1.3","","1.3","","100","","","","5","","22","","","","100.39","","","","","","NA"
"-55.38","46.92","ST LAWRENCE","8403619","2012-02-16 20:30","2012","02","16","20:30","1.4","","1.3","","99","","","","2","","9","","","","100.39","","","","","","NA"
"-55.38","46.92","ST LAWRENCE","8403619","2012-02-16 21:30","2012","02","16","21:30","1.3","","1.2","","99","","","","36","","15","","","","100.28","","","","","","NA"
"-55.38","46.92","ST LAWRENCE","8403619","2012-02-16 22:30","2012","02","16","22:30","1.4","","1.1","","98","","","","1","","26","","","","100.18","","","","","","NA"
"-55.38","46.92","ST LAWRENCE","8403619","2012-02-16 23:30","2012","02","16","23:30","1.1","","0.8","","98","","","","36","","17","","","","100.11","","","","","","NA"
"-55.38","46.92","ST LAWRENCE","8403619","2012-02-17 00:30","2012","02","17","00:30","1.0","","0.7","","98","","","","35","","20","","","","100.03","","","","","","NA"
"-55.38","46.92","ST LAWRENCE","8403619","2012-02-17 01:30","2012","02","17","01:30","0.7","","0.5","","99","","","","34","","22","","","","100.00","","","","","","NA"
"-55.38","46.92","ST LAWRENCE","8403619","2012-02-17 02:30","2012","02","17","02:30","0.8","","0.5","","98","","","","35","","28","","","","99.98","","","","","","NA"
"-55.38","46.92","ST LAWRENCE","8403619","2012-02-17 03:30","2012","02","17","03:30","0.4","","0.2","","99","","","","35","","19","","","","100.03","","","","","","NA"
"-55.38","46.92","ST LAWRENCE","8403619","2012-02-17 04:30","2012","02","17","04:30","0.2","","-0.1","","98","","","","34","","20","","","","100.03","","","","","","NA"
"-55.38","46.92","ST LAWRENCE","8403619","2012-02-17 05:30","2012","02","17","05:30","0.1","","-0.4","","96","","","","34","","19","","","","100.07","","","","","","NA"
"-55.38","46.92","ST LAWRENCE","8403619","2012-02-17 06:30","2012","02","17","06:30","0.0","","-0.7","","95","","","","33","","13","","","","100.09","","","","-4","","NA"
"-55.38","46.92","ST LAWRENCE","8403619","2012-02-17 07:30","2012","02","17","07:30","-0.3","","-1.4","","92","","","","34","","28","","","","100.14","","","","-7","","NA"
"-55.38","46.92","ST LAWRENCE","8403619","2012-02-17 08:30","2012","02","17","08:30","-0.3","","-1.4","","92","","","","34","","11","","","","100.24","","","","-4","","NA"
"-55.38","46.92","ST LAWRENCE","8403619","2012-02-17 09:30","2012","02","17","09:30","0.2","","-1.3","","90","","","","35","","20","","","","100.28","","","","","","NA"
"-55.38","46.92","ST LAWRENCE","8403619","2012-02-17 10:30","2012","02","17","10:30","0.5","","-1.2","","88","","","","34","","20","","","","100.30","","","","","","NA"
"-55.38","46.92","ST LAWRENCE","8403619","2012-02-17 11:30","2012","02","17","11:30","1.3","","-1.2","","83","","","","35","","20","","","","100.32","","","","","","NA"
"-55.38","46.92","ST LAWRENCE","8403619","2012-02-17 12:30","2012","02","17","12:30","1.3","","-1.1","","84","","","","36","","22","","","","100.24","","","","","","NA"
"-55.38","46.92","ST LAWRENCE","8403619","2012-02-17 13:30","2012","02","17","13:30","1.5","","-1.0","","83","","","","34","","20","","","","100.23","","","","","","NA"
"-55.38","46.92","ST LAWRENCE","8403619","2012-02-17 14:30","2012","02","17","14:30","1.2","","-1.1","","85","","","","36","","19","","","","100.19","","","","","","NA"
"-55.38","46.92","ST LAWRENCE","8403619","2012-02-17 15:30","2012","02","17","15:30","1.2","","-0.8","","86","","","","33","","15","","","","100.20","","","","","","NA"
"-55.38","46.92","ST LAWRENCE","8403619","2012-02-17 16:30","2012","02","17","16:30","0.9","","-0.6","","90","","","","35","","13","","","","100.24","","","","","","NA"
"-55.38","46.92","ST LAWRENCE","8403619","2012-02-17 17:30","2012","02","17","17:30","0.6","","-0.6","","92","","","","35","","13","","","","100.27","","","","","","NA"
"-55.38","46.92","ST LAWRENCE","8403619","2012-02-17 18:30","2012","02","17","18:30","0.2","","-0.7","","94","","","","34","","7","","","","100.34","","","","","","NA"
"-55.38","46.92","ST LAWRENCE","8403619","2012-02-17 19:30","2012","02","17","19:30","0.2","","-0.5","","95","","","","31","","7","","","","100.37","","","","","","NA"
"-55.38","46.92","ST LAWRENCE","8403619","2012-02-17 20:30","2012","02","17","20:30","0.1","","-0.5","","96","","","","31","","7","","","","100.34","","","","","","NA"
"-55.38","46.92","ST LAWRENCE","8403619","2012-02-17 21:30","2012","02","17","21:30","0.0","","-0.9","","94","","","","33","","11","","","","100.34","","","","-4","","NA"
"-55.38","46.92","ST LAWRENCE","8403619","2012-02-17 22:30","2012","02","17","22:30","-0.3","","-1.2","","94","","","","35","","11","","","","100.32","","","","-4","","NA"
"-55.38","46.92","ST LAWRENCE","8403619","2012-02-17 23:30","2012","02","17","23:30","-0.4","","-1.3","","94","","","","27","","7","","","","100.36","","","","-3","","NA"
"-55.38","46.92","ST LAWRENCE","8403619","2012-02-18 00:30","2012","02","18","00:30","-0.4","","-1.4","","93","","","","30","","7","","","","100.36","","","","-3","","NA"
"-55.38","46.92","ST LAWRENCE","8403619","2012-02-18 01:30","2012","02","18","01:30","-0.5","","-1.9","","90","","","","29","","11","","","","100.33","","","","-4","","NA"
"-55.38","46.92","ST LAWRENCE","8403619","2012-02-18 02:30","2012","02","18","02:30","-0.8","","-1.8","","93","","","","28","","7","","","","100.33","","","","-3","","NA"
"-55.38","46.92","ST LAWRENCE","8403619","2012-02-18 03:30","2012","02","18","03:30","-1.0","","-1.7","","95","","","","28","","6","","","","100.32","","","","-3","","NA"
"-55.38","46.92","ST LAWRENCE","8403619","2012-02-18 04:30","2012","02","18","04:30","-1.1","","-1.6","","96","","","","28","","6","","","","100.33","","","","-3","","NA"
"-55.38","46.92","ST LAWRENCE","8403619","2012-02-18 05:30","2012","02","18","05:30","-1.1","","-1.7","","96","","","","27","","6","","","","100.30","","","","-3","","NA"
"-55.38","46.92","ST LAWRENCE","8403619","2012-02-18 06:30","2012","02","18","06:30","-1.2","","-1.7","","96","","","","28","","2","","","","100.27","","","","-2","","NA"
"-55.38","46.92","ST LAWRENCE","8403619","2012-02-18 07:30","2012","02","18","07:30","-1.1","","-2.8","","88","","","","32","","4","","","","100.38","","","","-2","","NA"
"-55.38","46.92","ST LAWRENCE","8403619","2012-02-18 08:30","2012","02","18","08:30","-1.0","","-2.3","","91","","","","4","","2","","","","100.36","","","","-2","","NA"
"-55.38","46.92","ST LAWRENCE","8403619","2012-02-18 09:30","2012","02","18","09:30","-0.4","","-2.4","","86","","","","7","","6","","","","100.28","","","","-2","","NA"
"-55.38","46.92","ST LAWRENCE","8403619","2012-02-18 10:30","2012","02","18","10:30","0.2","","-2.4","","83","","","","8","","11","","","","100.17","","","","","","NA"
"-55.38","46.92","ST LAWRENCE","8403619","2012-02-18 11:30","2012","02","18","11:30","0.1","","-2.0","","86","","","","9","","19","","","","100.07","","","","","","NA"
"-55.38","46.92","ST LAWRENCE","8403619","2012-02-18 12:30","2012","02","18","12:30","-0.1","","-2.0","","87","","","","11","","20","","","","100.00","","","","-5","","NA"
"-55.38","46.92","ST LAWRENCE","8403619","2012-02-18 13:30","2012","02","18","13:30","-0.5","","-1.0","","96","","","","11","","22","","","","99.87","","","","-6","","NA"
"-55.38","46.92","ST LAWRENCE","8403619","2012-02-18 14:30","2012","02","18","14:30","-0.2","","-1.2","","93","","","","11","","24","","","","99.62","","","","-6","","NA"
"-55.38","46.92","ST LAWRENCE","8403619","2012-02-18 15:30","2012","02","18","15:30","-0.6","","-0.9","","98","","","","9","","32","","","","99.50","","","","-7","","NA"
"-55.38","46.92","ST LAWRENCE","8403619","2012-02-18 16:30","2012","02","18","16:30","-0.4","","-0.5","","99","","","","10","","33","","","","99.34","","","","-7","","NA"
"-55.38","46.92","ST LAWRENCE","8403619","2012-02-18 17:30","2012","02","18","17:30","-0.3","","-0.3","","100","","","","9","","43","","","","99.12","","","","-8","","NA"
"-55.38","46.92","ST LAWRENCE","8403619","2012-02-18 18:30","2012","02","18","18:30","-0.2","","-0.2","","100","","","","8","","50","","","","98.79","","","","-8","","NA"
"-55.38","46.92","ST LAWRENCE","8403619","2012-02-18 19:30","2012","02","18","19:30","0.3","","0.3","","100","","","","9","","48","","","","98.64","","","","","","NA"
"-55.38","46.92","ST LAWRENCE","8403619","2012-02-18 20:30","2012","02","18","20:30","1.2","","1.2","","100","","","","11","","48","","","","98.51","","","","","","NA"
"-55.38","46.92","ST LAWRENCE","8403619","2012-02-18 21:30","2012","02","18","21:30","0.7","","0.7","","100","","","","18","","32","","","","98.48","","","","","","NA"
"-55.38","46.92","ST LAWRENCE","8403619","2012-02-18 22:30","2012","02","18","22:30","0.6","","0.4","","99","","","","19","","33","","","","98.38","","","","","","NA"
"-55.38","46.92","ST LAWRENCE","8403619","2012-02-18 23:30","2012","02","18","23:30","0.5","","0.1","","97","","","","19","","33","","","","98.30","","","","","","NA"
"-55.38","46.92","ST LAWRENCE","8403619","2012-02-19 00:30","2012","02","19","00:30","0.2","","-0.4","","96","","","","19","","48","","","","98.14","","","","","","NA"
"-55.38","46.92","ST LAWRENCE","8403619","2012-02-19 01:30","2012","02","19","01:30","-0.2","","-0.3","","99","","","","20","","52","","","","97.99","","","","-9","","NA"
"-55.38","46.92","ST LAWRENCE","8403619","2012-02-19 02:30","2012","02","19","02:30","0.1","","0.1","","100","","","","22","","56","","","","97.94","","","","","","NA"
"-55.38","46.92","ST LAWRENCE","8403619","2012-02-19 03:30","2012","02","19","03:30","0.2","","-0.3","","96","","","","23","","65","","","","97.96","","","","","","NA"
"-55.38","46.92","ST LAWRENCE","8403619","2012-02-19 04:30","2012","02","19","04:30","0.0","","-0.5","","96","","","","24","","61","","","","98.05","","","","-9","","NA"
"-55.38","46.92","ST LAWRENCE","8403619","2012-02-19 05:30","2012","02","19","05:30","-0.3","","-1.0","","95","","","","24","","57","","","","98.17","","","","-9","","NA"
"-55.38","46.92","ST LAWRENCE","8403619","2012-02-19 06:30","2012","02","19","06:30","-0.6","","-1.6","","93","","","","25","","59","","","","98.25","","","","-10","","NA"
"-55.38","46.92","ST LAWRENCE","8403619","2012-02-19 07:30","2012","02","19","07:30","-0.6","","-1.8","","92","","","","24","","56","","","","98.36","","","","-9","","NA"
"-55.38","46.92","ST LAWRENCE","8403619","2012-02-19 08:30","2012","02","19","08:30","-1.3","","-1.7","","97","","","","25","","52","","","","98.46","","","","-10","","NA"
"-55.38","46.92","ST LAWRENCE","8403619","2012-02-19 09:30","2012","02","19","09:30","-1.4","","-1.7","","98","","","","24","","54","","","","98.48","","","","-10","","NA"
"-55.38","46.92","ST LAWRENCE","8403619","2012-02-19 10:30","2012","02","19","10:30","-1.3","","-1.7","","97","","","","24","","57","","","","98.48","","","","-10","","NA"
"-55.38","46.92","ST LAWRENCE","8403619","2012-02-19 11:30","2012","02","19","11:30","-0.8","","-1.7","","94","","","","25","","59","","","","98.48","","","","-10","","NA"
"-55.38","46.92","ST LAWRENCE","8403619","2012-02-19 12:30","2012","02","19","12:30","-0.4","","-1.8","","90","","","","25","","59","","","","98.46","","","","-9","","NA"
"-55.38","46.92","ST LAWRENCE","8403619","2012-02-19 13:30","2012","02","19","13:30","-0.8","","-2.8","","86","","","","26","","57","","","","98.47","","","","-10","","NA"
"-55.38","46.92","ST LAWRENCE","8403619","2012-02-19 14:30","2012","02","19","14:30","-0.9","","-2.8","","87","","","","25","","54","","","","98.50","","","","-10","","NA"
"-55.38","46.92","ST LAWRENCE","8403619","2012-02-19 15:30","2012","02","19","15:30","-0.9","","-3.8","","81","","","","26","","59","","","","98.56","","","","-10","","NA"
"-55.38","46.92","ST LAWRENCE","8403619","2012-02-19 16:30","2012","02","19","16:30","-1.1","","-3.7","","82","","","","26","","56","","","","98.57","","","","-10","","NA"
"-55.38","46.92","ST LAWRENCE","8403619","2012-02-19 17:30","2012","02","19","17:30","-1.4","","-3.6","","85","","","","26","","50","","","","98.67","","","","-10","","NA"
"-55.38","46.92","ST LAWRENCE","8403619","2012-02-19 18:30","2012","02","19","18:30","-2.0","","-2.7","","95","","","","26","","54","","","","98.76","","","","-11","","NA"
"-55.38","46.92","ST LAWRENCE","8403619","2012-02-19 19:30","2012","02","19","19:30","-2.0","","-3.5","","89","","","","26","","52","","","","98.83","","","","-11","","NA"
"-55.38","46.92","ST LAWRENCE","8403619","2012-02-19 20:30","2012","02","19","20:30","-1.7","","-4.1","","84","","","","26","","50","","","","98.87","","","","-10","","NA"
"-55.38","46.92","ST LAWRENCE","8403619","2012-02-19 21:30","2012","02","19","21:30","-1.5","","-4.1","","82","","","","27","","56","","","","98.88","","","","-11","","NA"
"-55.38","46.92","ST LAWRENCE","8403619","2012-02-19 22:30","2012","02","19","22:30","-1.5","","-4.0","","83","","","","27","","48","","","","98.93","","","","-10","","NA"
"-55.38","46.92","ST LAWRENCE","8403619","2012-02-19 23:30","2012","02","19","23:30","-1.5","","-4.1","","82","","","","27","","48","","","","98.98","","","","-10","","NA"
"-55.38","46.92","ST LAWRENCE","8403619","2012-02-20 00:30","2012","02","20","00:30","-1.6","","-4.0","","84","","","","27","","39","","","","99.04","","","","-9","","NA"
"-55.38","46.92","ST LAWRENCE","8403619","2012-02-20 01:30","2012","02","20","01:30","-1.7","","-4.1","","84","","","","27","","39","","","","99.10","","","","-10","","NA"
"-55.38","46.92","ST LAWRENCE","8403619","2012-02-20 02:30","2012","02","20","02:30","-1.6","","-4.2","","82","","","","27","","41","","","","99.17","","","","-10","","NA"
"-55.38","46.92","ST LAWRENCE","8403619","2012-02-20 03:30","2012","02","20","03:30","-1.7","","-4.2","","83","","","","27","","41","","","","99.20","","","","-10","","NA"
"-55.38","46.92","ST LAWRENCE","8403619","2012-02-20 04:30","2012","02","20","04:30","-1.9","","-4.8","","81","","","","27","","41","","","","99.27","","","","-10","","NA"
"-55.38","46.92","ST LAWRENCE","8403619","2012-02-20 05:30","2012","02","20","05:30","-2.1","","-4.4","","84","","","","27","","37","","","","99.32","","","","-10","","NA"
"-55.38","46.92","ST LAWRENCE","8403619","2012-02-20 06:30","2012","02","20","06:30","-2.1","","-4.8","","82","","","","27","","37","","","","99.39","","","","-10","","NA"
"-55.38","46.92","ST LAWRENCE","8403619","2012-02-20 07:30","2012","02","20","07:30","-2.2","","-5.6","","77","","","","27","","37","","","","99.47","","","","-10","","NA"
"-55.38","46.92","ST LAWRENCE","8403619","2012-02-20 08:30","2012","02","20","08:30","-2.5","","-6.6","","73","","","","28","","39","","","","99.57","","","","-11","","NA"
"-55.38","46.92","ST LAWRENCE","8403619","2012-02-20 09:30","2012","02","20","09:30","-2.3","","-6.4","","73","","","","27","","37","","","","99.59","","","","-10","","NA"
"-55.38","46.92","ST LAWRENCE","8403619","2012-02-20 10:30","2012","02","20","10:30","-2.2","","-5.6","","77","","","","27","","35","","","","99.63","","","","-10","","NA"
"-55.38","46.92","ST LAWRENCE","8403619","2012-02-20 11:30","2012","02","20","11:30","-2.0","","-6.0","","74","","","","27","","35","","","","99.62","","","","-10","","NA"
"-55.38","46.92","ST LAWRENCE","8403619","2012-02-20 12:30","2012","02","20","12:30","-1.5","","-5.5","","74","","","","28","","35","","","","99.62","","","","-9","","NA"
"-55.38","46.92","ST LAWRENCE","8403619","2012-02-20 13:30","2012","02","20","13:30","-1.3","","-5.6","","73","","","","27","","37","","","","99.65","","","","-9","","NA"
"-55.38","46.92","ST LAWRENCE","8403619","2012-02-20 14:30","2012","02","20","14:30","-1.6","","-5.8","","73","","","","28","","32","","","","99.65","","","","-9","","NA"
"-55.38","46.92","ST LAWRENCE","8403619","2012-02-20 15:30","2012","02","20","15:30","-1.9","","-5.5","","76","","","","28","","30","","","","99.64","","","","-9","","NA"
"-55.38","46.92","ST LAWRENCE","8403619","2012-02-20 16:30","2012","02","20","16:30","-2.0","","-5.9","","75","","","","28","","32","","","","99.65","","","","-9","","NA"
"-55.38","46.92","ST LAWRENCE","8403619","2012-02-20 17:30","2012","02","20","17:30","-2.3","","-6.0","","76","","","","28","","20","","","","99.73","","","","-8","","NA"
"-55.38","46.92","ST LAWRENCE","8403619","2012-02-20 18:30","2012","02","20","18:30","-3.0","","-6.3","","78","","","","29","","13","","","","99.77","","","","-8","","NA"
"-55.38","46.92","ST LAWRENCE","8403619","2012-02-20 19:30","2012","02","20","19:30","-3.5","","-6.5","","80","","","","28","","15","","","","99.81","","","","-9","","NA"
"-55.38","46.92","ST LAWRENCE","8403619","2012-02-20 20:30","2012","02","20","20:30","-3.6","","-6.4","","81","","","","29","","9","","","","99.78","","","","-7","","NA"
"-55.38","46.92","ST LAWRENCE","8403619","2012-02-20 21:30","2012","02","20","21:30","-3.6","","-6.7","","79","","","","30","","15","","","","99.81","","","","-9","","NA"
"-55.38","46.92","ST LAWRENCE","8403619","2012-02-20 22:30","2012","02","20","22:30","-3.8","","-7.4","","76","","","","31","","17","","","","99.81","","","","-10","","NA"
"-55.38","46.92","ST LAWRENCE","8403619","2012-02-20 23:30","2012","02","20","23:30","-4.0","","-7.0","","80","","","","33","","13","","","","99.82","","","","-9","","NA"
"-55.38","46.92","ST LAWRENCE","8403619","2012-02-21 00:30","2012","02","21","00:30","-4.5","","-7.8","","78","","","","34","","17","","","","99.86","","","","-10","","NA"
"-55.38","46.92","ST LAWRENCE","8403619","2012-02-21 01:30","2012","02","21","01:30","-5.4","","-9.0","","76","","","","35","","20","","","","99.92","","","","-12","","NA"
"-55.38","46.92","ST LAWRENCE","8403619","2012-02-21 02:30","2012","02","21","02:30","-7.1","","-9.9","","80","","","","33","","17","","","","99.93","","","","-14","","NA"
"-55.38","46.92","ST LAWRENCE","8403619","2012-02-21 03:30","2012","02","21","03:30","-7.8","","-10.7","","80","","","","34","","11","","","","99.94","","","","-13","","NA"
"-55.38","46.92","ST LAWRENCE","8403619","2012-02-21 04:30","2012","02","21","04:30","-8.0","","-10.8","","80","","","","34","","15","","","","99.95","","","","-14","","NA"
"-55.38","46.92","ST LAWRENCE","8403619","2012-02-21 05:30","2012","02","21","05:30","-8.4","","-11.0","","81","","","","33","","13","","","","100.01","","","","-14","","NA"
"-55.38","46.92","ST LAWRENCE","8403619","2012-02-21 06:30","2012","02","21","06:30","-8.3","","-11.3","","79","","","","33","","19","","","","100.05","","","","-16","","NA"
"-55.38","46.92","ST LAWRENCE","8403619","2012-02-21 07:30","2012","02","21","07:30","-8.2","","-11.3","","78","","","","33","","17","","","","100.11","","","","-15","","NA"
"-55.38","46.92","ST LAWRENCE","8403619","2012-02-21 08:30","2012","02","21","08:30","-7.1","","-10.6","","76","","","","34","","20","","","","100.16","","","","-14","","NA"
"-55.38","46.92","ST LAWRENCE","8403619","2012-02-21 09:30","2012","02","21","09:30","-6.8","","-11.4","","70","","","","34","","28","","","","100.20","","","","-15","","NA"
"-55.38","46.92","ST LAWRENCE","8403619","2012-02-21 10:30","2012","02","21","10:30","-6.1","","-10.8","","69","","","","35","","20","","","","100.23","","","","-13","","NA"
"-55.38","46.92","ST LAWRENCE","8403619","2012-02-21 11:30","2012","02","21","11:30","-5.7","","-11.4","","64","","","","34","","28","","","","100.25","","","","-14","","NA"
"-55.38","46.92","ST LAWRENCE","8403619","2012-02-21 12:30","2012","02","21","12:30","-5.2","","-11.0","","64","","","","33","","26","","","","100.20","","","","-13","","NA"
"-55.38","46.92","ST LAWRENCE","8403619","2012-02-21 13:30","2012","02","21","13:30","-4.4","","-9.6","","67","","","","32","","32","","","","100.11","","","","-12","","NA"
"-55.38","46.92","ST LAWRENCE","8403619","2012-02-21 14:30","2012","02","21","14:30","-4.1","","-10.1","","63","","","","32","","32","","","","100.14","","","","-12","","NA"
"-55.38","46.92","ST LAWRENCE","8403619","2012-02-21 15:30","2012","02","21","15:30","-3.3","","-9.8","","61","","","","31","","26","","","","100.23","","","","-10","","NA"
"-55.38","46.92","ST LAWRENCE","8403619","2012-02-21 16:30","2012","02","21","16:30","-3.6","","-8.9","","67","","","","31","","28","","","","100.26","","","","-11","","NA"
"-55.38","46.92","ST LAWRENCE","8403619","2012-02-21 17:30","2012","02","21","17:30","-4.2","","-8.9","","70","","","","31","","22","","","","100.34","","","","-11","","NA"
"-55.38","46.92","ST LAWRENCE","8403619","2012-02-21 18:30","2012","02","21","18:30","-5.4","","-8.9","","76","","","","28","","6","","","","100.42","","","","-8","","NA"
"-55.38","46.92","ST LAWRENCE","8403619","2012-02-21 19:30","2012","02","21","19:30","-6.0","","-9.3","","77","","","","27","","9","","","","100.49","","","","-10","","NA"
"-55.38","46.92","ST LAWRENCE","8403619","2012-02-21 20:30","2012","02","21","20:30","-7.0","","-9.8","","80","","","","30","","13","","","","100.53","","","","-13","","NA"
"-55.38","46.92","ST LAWRENCE","8403619","2012-02-21 21:30","2012","02","21","21:30","-6.5","","-9.3","","80","","","","30","","11","","","","100.56","","","","-11","","NA"
"-55.38","46.92","ST LAWRENCE","8403619","2012-02-21 22:30","2012","02","21","22:30","-8.2","","-10.1","","86","","","","28","","11","","","","100.62","","","","-13","","NA"
"-55.38","46.92","ST LAWRENCE","8403619","2012-02-21 23:30","2012","02","21","23:30","-7.5","","-9.8","","84","","","","29","","13","","","","100.67","","","","-13","","NA"
"-55.38","46.92","ST LAWRENCE","8403619","2012-02-22 00:30","2012","02","22","00:30","-8.4","","-10.6","","84","","","","29","","6","","","","100.71","","","","-12","","NA"
"-55.38","46.92","ST LAWRENCE","8403619","2012-02-22 01:30","2012","02","22","01:30","-9.4","","-11.5","","85","","","","35","","7","","","","100.77","","","","-13","","NA"
"-55.38","46.92","ST LAWRENCE","8403619","2012-02-22 02:30","2012","02","22","02:30","-9.3","","-11.5","","84","","","","32","","13","","","","100.80","","","","-15","","NA"
"-55.38","46.92","ST LAWRENCE","8403619","2012-02-22 03:30","2012","02","22","03:30","-9.6","","-11.4","","87","","","","33","","11","","","","100.83","","","","-15","","NA"
"-55.38","46.92","ST LAWRENCE","8403619","2012-02-22 04:30","2012","02","22","04:30","-11.3","","-12.5","","91","","","","9","","6","","","","100.89","","","","-15","","NA"
"-55.38","46.92","ST LAWRENCE","8403619","2012-02-22 05:30","2012","02","22","05:30","-10.0","","-11.4","","89","","","","34","","7","","","","100.94","","","","-14","","NA"
"-55.38","46.92","ST LAWRENCE","8403619","2012-02-22 06:30","2012","02","22","06:30","-8.8","","-9.9","","92","","","","25","","6","","","","100.95","","","","-12","","NA"
"-55.38","46.92","ST LAWRENCE","8403619","2012-02-22 07:30","2012","02","22","07:30","-7.5","","-9.0","","89","","","","7","","6","","","","100.95","","","","-11","","NA"
"-55.38","46.92","ST LAWRENCE","8403619","2012-02-22 08:30","2012","02","22","08:30","-5.6","","-7.3","","88","","","","","","0","","","","100.99","","","","","","NA"
"-55.38","46.92","ST LAWRENCE","8403619","2012-02-22 09:30","2012","02","22","09:30","-3.2","","-6.1","","80","","","","22","","6","","","","100.96","","","","-6","","NA"
"-55.38","46.92","ST LAWRENCE","8403619","2012-02-22 10:30","2012","02","22","10:30","-1.7","","-5.4","","76","","","","24","","22","","","","100.90","","","","-8","","NA"
"-55.38","46.92","ST LAWRENCE","8403619","2012-02-22 11:30","2012","02","22","11:30","-1.8","","-5.5","","76","","","","23","","24","","","","100.93","","","","-8","","NA"
"-55.38","46.92","ST LAWRENCE","8403619","2012-02-22 12:30","2012","02","22","12:30","-1.4","","-5.1","","76","","","","21","","24","","","","100.84","","","","-8","","NA"
"-55.38","46.92","ST LAWRENCE","8403619","2012-02-22 13:30","2012","02","22","13:30","-0.4","","-3.9","","77","","","","21","","26","","","","100.78","","","","-7","","NA"
"-55.38","46.92","ST LAWRENCE","8403619","2012-02-22 14:30","2012","02","22","14:30","0.0","","-3.0","","80","","","","21","","24","","","","100.75","","","","-6","","NA"
"-55.38","46.92","ST LAWRENCE","8403619","2012-02-22 15:30","2012","02","22","15:30","0.4","","-2.1","","83","","","","21","","20","","","","100.67","","","","","","NA"
"-55.38","46.92","ST LAWRENCE","8403619","2012-02-22 16:30","2012","02","22","16:30","0.2","","-1.5","","88","","","","16","","17","","","","100.51","","","","","","NA"
"-55.38","46.92","ST LAWRENCE","8403619","2012-02-22 17:30","2012","02","22","17:30","0.4","","-0.9","","91","","","","15","","22","","","","100.42","","","","","","NA"
"-55.38","46.92","ST LAWRENCE","8403619","2012-02-22 18:30","2012","02","22","18:30","-0.1","","-0.4","","98","","","","15","","28","","","","100.35","","","","-6","","NA"
"-55.38","46.92","ST LAWRENCE","8403619","2012-02-22 19:30","2012","02","22","19:30","0.1","","0.1","","100","","","","13","","28","","","","100.17","","","","","","NA"
"-55.38","46.92","ST LAWRENCE","8403619","2012-02-22 20:30","2012","02","22","20:30","0.6","","0.6","","100","","","","12","","24","","","","100.07","","","","","","NA"
"-55.38","46.92","ST LAWRENCE","8403619","2012-02-22 21:30","2012","02","22","21:30","2.1","","2.1","","100","","","","15","","43","","","","99.79","","","","","","NA"
"-55.38","46.92","ST LAWRENCE","8403619","2012-02-22 22:30","2012","02","22","22:30","3.4","","3.3","","99","","","","17","","41","","","","99.62","","","","","","NA"
"-55.38","46.92","ST LAWRENCE","8403619","2012-02-22 23:30","2012","02","22","23:30","4.3","","4.1","","99","","","","17","","44","","","","99.51","","","","","","NA"
"-55.38","46.92","ST LAWRENCE","8403619","2012-02-23 00:30","2012","02","23","00:30","3.1","","3.0","","99","","","","20","","26","","","","99.48","","","","","","NA"
"-55.38","46.92","ST LAWRENCE","8403619","2012-02-23 01:30","2012","02","23","01:30","2.4","","2.4","","100","","","","22","","19","","","","99.51","","","","","","NA"
"-55.38","46.92","ST LAWRENCE","8403619","2012-02-23 02:30","2012","02","23","02:30","1.6","","1.6","","100","","","","24","","19","","","","99.50","","","","","","NA"
"-55.38","46.92","ST LAWRENCE","8403619","2012-02-23 03:30","2012","02","23","03:30","1.3","","1.3","","100","","","","25","","15","","","","99.49","","","","","","NA"
"-55.38","46.92","ST LAWRENCE","8403619","2012-02-23 04:30","2012","02","23","04:30","1.1","","1.1","","100","","","","25","","17","","","","99.50","","","","","","NA"
"-55.38","46.92","ST LAWRENCE","8403619","2012-02-23 05:30","2012","02","23","05:30","0.9","","0.9","","100","","","","26","","17","","","","99.64","","","","","","NA"
"-55.38","46.92","ST LAWRENCE","8403619","2012-02-23 06:30","2012","02","23","06:30","0.6","","0.6","","100","","","","26","","15","","","","99.71","","","","","","NA"
"-55.38","46.92","ST LAWRENCE","8403619","2012-02-23 07:30","2012","02","23","07:30","0.6","","0.6","","100","","","","26","","20","","","","99.80","","","","","","NA"
"-55.38","46.92","ST LAWRENCE","8403619","2012-02-23 08:30","2012","02","23","08:30","0.8","","0.8","","100","","","","24","","13","","","","99.91","","","","","","NA"
"-55.38","46.92","ST LAWRENCE","8403619","2012-02-23 09:30","2012","02","23","09:30","0.8","","0.8","","100","","","","26","","20","","","","99.96","","","","","","NA"
"-55.38","46.92","ST LAWRENCE","8403619","2012-02-23 10:30","2012","02","23","10:30","1.2","","1.2","","100","","","","25","","19","","","","100.04","","","","","","NA"
"-55.38","46.92","ST LAWRENCE","8403619","2012-02-23 11:30","2012","02","23","11:30","1.8","","1.8","","100","","","","24","","15","","","","100.09","","","","","","NA"
"-55.38","46.92","ST LAWRENCE","8403619","2012-02-23 12:30","2012","02","23","12:30","1.9","","1.9","","100","","","","24","","15","","","","100.09","","","","","","NA"
"-55.38","46.92","ST LAWRENCE","8403619","2012-02-23 13:30","2012","02","23","13:30","1.5","","1.5","","100","","","","24","","19","","","","100.22","","","","","","NA"
"-55.38","46.92","ST LAWRENCE","8403619","2012-02-23 14:30","2012","02","23","14:30","1.6","","1.6","","100","","","","24","","13","","","","100.14","","","","","","NA"
"-55.38","46.92","ST LAWRENCE","8403619","2012-02-23 15:30","2012","02","23","15:30","1.3","","1.3","","100","","","","20","","11","","","","100.13","","","","","","NA"
"-55.38","46.92","ST LAWRENCE","8403619","2012-02-23 16:30","2012","02","23","16:30","1.0","","1.0","","100","","","","19","","11","","","","100.21","","","","","","NA"
"-55.38","46.92","ST LAWRENCE","8403619","2012-02-23 17:30","2012","02","23","17:30","0.5","","0.5","","100","","","","17","","11","","","","100.25","","","","","","NA"
"-55.38","46.92","ST LAWRENCE","8403619","2012-02-23 18:30","2012","02","23","18:30","0.4","","0.4","","100","","","","16","","7","","","","100.22","","","","","","NA"
"-55.38","46.92","ST LAWRENCE","8403619","2012-02-23 19:30","2012","02","23","19:30","0.6","","0.6","","100","","","","10","","13","","","","100.09","","","","","","NA"
"-55.38","46.92","ST LAWRENCE","8403619","2012-02-23 20:30","2012","02","23","20:30","0.7","","0.7","","100","","","","9","","26","","","","99.91","","","","","","NA"
"-55.38","46.92","ST LAWRENCE","8403619","2012-02-23 21:30","2012","02","23","21:30","0.3","","0.3","","100","","","","9","","30","","","","99.60","","","","","","NA"
"-55.38","46.92","ST LAWRENCE","8403619","2012-02-23 22:30","2012","02","23","22:30","0.1","","0.1","","100","","","","9","","37","","","","99.37","","","","","","NA"
"-55.38","46.92","ST LAWRENCE","8403619","2012-02-23 23:30","2012","02","23","23:30","0.0","","0.0","","100","","","","9","","37","","","","99.14","","","","-7","","NA"
"-55.38","46.92","ST LAWRENCE","8403619","2012-02-24 00:30","2012","02","24","00:30","0.5","","0.5","","100","","","","9","","35","","","","99.01","","","","","","NA"
"-55.38","46.92","ST LAWRENCE","8403619","2012-02-24 01:30","2012","02","24","01:30","0.9","","0.9","","100","","","","9","","35","","","","98.81","","","","","","NA"
"-55.38","46.92","ST LAWRENCE","8403619","2012-02-24 02:30","2012","02","24","02:30","1.6","","1.6","","100","","","","8","","43","","","","98.48","","","","","","NA"
"-55.38","46.92","ST LAWRENCE","8403619","2012-02-24 03:30","2012","02","24","03:30","1.4","","1.4","","100","","","","8","","33","","","","98.31","","","","","","NA"
"-55.38","46.92","ST LAWRENCE","8403619","2012-02-24 04:30","2012","02","24","04:30","2.9","","2.9","","100","","","","13","","26","","","","98.18","","","","","","NA"
"-55.38","46.92","ST LAWRENCE","8403619","2012-02-24 05:30","2012","02","24","05:30","2.5","","2.5","","100","","","","22","","35","","","","98.19","","","","","","NA"
"-55.38","46.92","ST LAWRENCE","8403619","2012-02-24 06:30","2012","02","24","06:30","2.1","","2.1","","100","","","","21","","32","","","","98.19","","","","","","NA"
"-55.38","46.92","ST LAWRENCE","8403619","2012-02-24 07:30","2012","02","24","07:30","1.9","","1.9","","100","","","","21","","33","","","","98.22","","","","","","NA"
"-55.38","46.92","ST LAWRENCE","8403619","2012-02-24 08:30","2012","02","24","08:30","1.6","","1.6","","100","","","","21","","30","","","","98.25","","","","","","NA"
"-55.38","46.92","ST LAWRENCE","8403619","2012-02-24 09:30","2012","02","24","09:30","1.4","","1.2","","99","","","","22","","33","","","","98.24","","","","","","NA"
"-55.38","46.92","ST LAWRENCE","8403619","2012-02-24 10:30","2012","02","24","10:30","1.1","","1.0","","99","","","","22","","33","","","","98.21","","","","","","NA"
"-55.38","46.92","ST LAWRENCE","8403619","2012-02-24 11:30","2012","02","24","11:30","0.9","","0.8","","99","","","","22","","33","","","","98.20","","","","","","NA"
"-55.38","46.92","ST LAWRENCE","8403619","2012-02-24 12:30","2012","02","24","12:30","1.1","","1.0","","99","","","","24","","30","","","","98.15","","","","","","NA"
"-55.38","46.92","ST LAWRENCE","8403619","2012-02-24 13:30","2012","02","24","13:30","2.7","","2.2","","97","","","","25","","28","","","","98.17","","","","","","NA"
"-55.38","46.92","ST LAWRENCE","8403619","2012-02-24 14:30","2012","02","24","14:30","1.6","","1.4","","99","","","","25","","37","","","","98.26","","","","","","NA"
"-55.38","46.92","ST LAWRENCE","8403619","2012-02-24 15:30","2012","02","24","15:30","2.1","","1.5","","96","","","","26","","46","","","","98.37","","","","","","NA"
"-55.38","46.92","ST LAWRENCE","8403619","2012-02-24 16:30","2012","02","24","16:30","2.3","","0.8","","90","","","","27","","46","","","","98.56","","","","","","NA"
"-55.38","46.92","ST LAWRENCE","8403619","2012-02-24 17:30","2012","02","24","17:30","1.4","","-0.2","","89","","","","27","","50","","","","98.77","","","","","","NA"
"-55.38","46.92","ST LAWRENCE","8403619","2012-02-24 18:30","2012","02","24","18:30","1.0","","-0.7","","88","","","","27","","48","","","","98.97","","","","","","NA"
"-55.38","46.92","ST LAWRENCE","8403619","2012-02-24 19:30","2012","02","24","19:30","0.7","","-0.9","","89","","","","27","","48","","","","99.13","","","","","","NA"
"-55.38","46.92","ST LAWRENCE","8403619","2012-02-24 20:30","2012","02","24","20:30","0.6","","-1.3","","87","","","","28","","41","","","","99.29","","","","","","NA"
"-55.38","46.92","ST LAWRENCE","8403619","2012-02-24 21:30","2012","02","24","21:30","0.7","","-1.4","","86","","","","28","","39","","","","99.47","","","","","","NA"
"-55.38","46.92","ST LAWRENCE","8403619","2012-02-24 22:30","2012","02","24","22:30","0.4","","-1.3","","88","","","","27","","37","","","","99.61","","","","","","NA"
"-55.38","46.92","ST LAWRENCE","8403619","2012-02-24 23:30","2012","02","24","23:30","0.0","","-1.2","","92","","","","27","","32","","","","99.70","","","","-7","","NA"
"-55.38","46.92","ST LAWRENCE","8403619","2012-02-25 00:30","2012","02","25","00:30","-0.4","","-1.5","","92","","","","29","","22","","","","99.79","","","","-6","","NA"
"-55.38","46.92","ST LAWRENCE","8403619","2012-02-25 01:30","2012","02","25","01:30","-0.9","","-1.7","","94","","","","14","","4","","","","99.89","","","","-2","","NA"
"-55.38","46.92","ST LAWRENCE","8403619","2012-02-25 02:30","2012","02","25","02:30","-0.8","","-1.6","","94","","","","29","","15","","","","99.89","","","","-5","","NA"
"-55.38","46.92","ST LAWRENCE","8403619","2012-02-25 03:30","2012","02","25","03:30","-1.3","","-2.0","","95","","","","10","","6","","","","99.94","","","","-4","","NA"
"-55.38","46.92","ST LAWRENCE","8403619","2012-02-25 04:30","2012","02","25","04:30","-2.0","","-2.9","","94","","","","1","","9","","","","99.92","","","","-5","","NA"
"-55.38","46.92","ST LAWRENCE","8403619","2012-02-25 05:30","2012","02","25","05:30","-1.5","","-2.8","","91","","","","4","","13","","","","99.80","","","","-6","","NA"
"-55.38","46.92","ST LAWRENCE","8403619","2012-02-25 06:30","2012","02","25","06:30","-1.0","","-2.0","","93","","","","9","","17","","","","99.77","","","","-6","","NA"
"-55.38","46.92","ST LAWRENCE","8403619","2012-02-25 07:30","2012","02","25","07:30","0.0","","-1.0","","93","","","","10","","17","","","","99.82","","","","-5","","NA"
"-55.38","46.92","ST LAWRENCE","8403619","2012-02-25 08:30","2012","02","25","08:30","0.1","","-1.0","","92","","","","9","","26","","","","99.64","","","","","","NA"
"-55.38","46.92","ST LAWRENCE","8403619","2012-02-25 09:30","2012","02","25","09:30","0.2","","-1.2","","90","","","","10","","28","","","","99.51","","","","","","NA"
"-55.38","46.92","ST LAWRENCE","8403619","2012-02-25 10:30","2012","02","25","10:30","0.2","","-0.7","","94","","","","10","","26","","","","99.40","","","","","","NA"
"-55.38","46.92","ST LAWRENCE","8403619","2012-02-25 11:30","2012","02","25","11:30","-0.2","","-0.3","","99","","","","11","","39","","","","98.99","","","","-8","","NA"
"-55.38","46.92","ST LAWRENCE","8403619","2012-02-25 12:30","2012","02","25","12:30","0.0","","0.0","","100","","","","10","","54","","","","98.47","","","","-8","","NA"
"-55.38","46.92","ST LAWRENCE","8403619","2012-02-25 13:30","2012","02","25","13:30","-0.1","","-0.1","","100","","","","11","","43","","","","98.29","","","","-8","","NA"
"-55.38","46.92","ST LAWRENCE","8403619","2012-02-25 14:30","2012","02","25","14:30","0.1","","0.1","","100","","","","10","","28","","","","98.08","","","","","","NA"
"-55.38","46.92","ST LAWRENCE","8403619","2012-02-25 15:30","2012","02","25","15:30","0.6","","0.6","","100","","","","12","","37","","","","97.89","","","","","","NA"
"-55.38","46.92","ST LAWRENCE","8403619","2012-02-25 16:30","2012","02","25","16:30","3.5","","3.5","","100","","","","18","","33","","","","97.73","","","","","","NA"
"-55.38","46.92","ST LAWRENCE","8403619","2012-02-25 17:30","2012","02","25","17:30","2.5","","2.2","","98","","","","23","","33","","","","97.77","","","","","","NA"
"-55.38","46.92","ST LAWRENCE","8403619","2012-02-25 18:30","2012","02","25","18:30","2.1","","1.4","","95","","","","22","","33","","","","97.77","","","","","","NA"
"-55.38","46.92","ST LAWRENCE","8403619","2012-02-25 19:30","2012","02","25","19:30","2.0","","1.0","","93","","","","22","","39","","","","97.80","","","","","","NA"
"-55.38","46.92","ST LAWRENCE","8403619","2012-02-25 20:30","2012","02","25","20:30","1.9","","0.6","","91","","","","22","","41","","","","97.78","","","","","","NA"
"-55.38","46.92","ST LAWRENCE","8403619","2012-02-25 21:30","2012","02","25","21:30","2.1","","0.4","","88","","","","23","","39","","","","97.83","","","","","","NA"
"-55.38","46.92","ST LAWRENCE","8403619","2012-02-25 22:30","2012","02","25","22:30","2.2","","0.1","","86","","","","22","","41","","","","97.82","","","","","","NA"
"-55.38","46.92","ST LAWRENCE","8403619","2012-02-25 23:30","2012","02","25","23:30","2.1","","-0.1","","85","","","","23","","39","","","","97.81","","","","","","NA"
"-55.38","46.92","ST LAWRENCE","8403619","2012-02-26 00:30","2012","02","26","00:30","2.2","","-0.4","","83","","","","22","","46","","","","97.78","","","","","","NA"
"-55.38","46.92","ST LAWRENCE","8403619","2012-02-26 01:30","2012","02","26","01:30","1.9","","-0.2","","86","","","","22","","39","","","","97.77","","","","","","NA"
"-55.38","46.92","ST LAWRENCE","8403619","2012-02-26 02:30","2012","02","26","02:30","1.9","","-0.5","","84","","","","22","","41","","","","97.71","","","","","","NA"
"-55.38","46.92","ST LAWRENCE","8403619","2012-02-26 03:30","2012","02","26","03:30","1.7","","-0.3","","87","","","","22","","39","","","","97.68","","","","","","NA"
"-55.38","46.92","ST LAWRENCE","8403619","2012-02-26 04:30","2012","02","26","04:30","1.7","","-0.3","","87","","","","22","","41","","","","97.69","","","","","","NA"
"-55.38","46.92","ST LAWRENCE","8403619","2012-02-26 05:30","2012","02","26","05:30","1.6","","-0.5","","86","","","","22","","41","","","","97.70","","","","","","NA"
"-55.38","46.92","ST LAWRENCE","8403619","2012-02-26 06:30","2012","02","26","06:30","-0.4","","-0.7","","98","","","","23","","41","","","","97.71","","","","-8","","NA"
"-55.38","46.92","ST LAWRENCE","8403619","2012-02-26 07:30","2012","02","26","07:30","-0.6","","-3.1","","83","","","","24","","50","","","","97.82","","","","-9","","NA"
"-55.38","46.92","ST LAWRENCE","8403619","2012-02-26 08:30","2012","02","26","08:30","-0.3","","-2.9","","83","","","","25","","52","","","","97.91","","","","-9","","NA"
"-55.38","46.92","ST LAWRENCE","8403619","2012-02-26 09:30","2012","02","26","09:30","0.4","","-3.1","","77","","","","24","","52","","","","97.94","","","","","","NA"
"-55.38","46.92","ST LAWRENCE","8403619","2012-02-26 10:30","2012","02","26","10:30","0.3","","-4.1","","72","","","","25","","59","","","","97.99","","","","","","NA"
"-55.38","46.92","ST LAWRENCE","8403619","2012-02-26 11:30","2012","02","26","11:30","0.3","","-3.3","","77","","","","24","","61","","","","98.00","","","","","","NA"
"-55.38","46.92","ST LAWRENCE","8403619","2012-02-26 12:30","2012","02","26","12:30","0.3","","-2.4","","82","","","","25","","61","","","","98.00","","","","","","NA"
"-55.38","46.92","ST LAWRENCE","8403619","2012-02-26 13:30","2012","02","26","13:30","0.9","","-1.7","","83","","","","25","","57","","","","98.07","","","","","","NA"
"-55.38","46.92","ST LAWRENCE","8403619","2012-02-26 14:30","2012","02","26","14:30","1.6","","-1.6","","79","","","","26","","59","","","","98.15","","","","","","NA"
"-55.38","46.92","ST LAWRENCE","8403619","2012-02-26 15:30","2012","02","26","15:30","1.3","","-1.6","","81","","","","26","","50","","","","98.33","","","","","","NA"
"-55.38","46.92","ST LAWRENCE","8403619","2012-02-26 16:30","2012","02","26","16:30","1.2","","-1.6","","82","","","","27","","48","","","","98.50","","","","","","NA"
"-55.38","46.92","ST LAWRENCE","8403619","2012-02-26 17:30","2012","02","26","17:30","0.9","","-2.1","","80","","","","28","","48","","","","98.69","","","","","","NA"
"-55.38","46.92","ST LAWRENCE","8403619","2012-02-26 18:30","2012","02","26","18:30","0.9","","-2.3","","79","","","","29","","33","","","","98.93","","","","","","NA"
"-55.38","46.92","ST LAWRENCE","8403619","2012-02-26 19:30","2012","02","26","19:30","0.8","","-2.5","","79","","","","30","","28","","","","99.21","","","","","","NA"
"-55.38","46.92","ST LAWRENCE","8403619","2012-02-26 20:30","2012","02","26","20:30","0.0","","-3.3","","78","","","","30","","24","","","","99.41","","","","-6","","NA"
"-55.38","46.92","ST LAWRENCE","8403619","2012-02-26 21:30","2012","02","26","21:30","-0.2","","-3.9","","76","","","","31","","28","","","","99.63","","","","-7","","NA"
"-55.38","46.92","ST LAWRENCE","8403619","2012-02-26 22:30","2012","02","26","22:30","-0.7","","-3.6","","81","","","","30","","24","","","","99.87","","","","-7","","NA"
"-55.38","46.92","ST LAWRENCE","8403619","2012-02-26 23:30","2012","02","26","23:30","-0.8","","-4.3","","77","","","","31","","24","","","","99.95","","","","-7","","NA"
"-55.38","46.92","ST LAWRENCE","8403619","2012-02-27 00:30","2012","02","27","00:30","-1.9","","-4.7","","81","","","","30","","17","","","","100.11","","","","-7","","NA"
"-55.38","46.92","ST LAWRENCE","8403619","2012-02-27 01:30","2012","02","27","01:30","-2.7","","-5.2","","83","","","","29","","13","","","","100.25","","","","-7","","NA"
"-55.38","46.92","ST LAWRENCE","8403619","2012-02-27 02:30","2012","02","27","02:30","-2.9","","-5.7","","81","","","","28","","13","","","","100.36","","","","-8","","NA"
"-55.38","46.92","ST LAWRENCE","8403619","2012-02-27 03:30","2012","02","27","03:30","-3.2","","-5.4","","85","","","","29","","11","","","","100.45","","","","-7","","NA"
"-55.38","46.92","ST LAWRENCE","8403619","2012-02-27 04:30","2012","02","27","04:30","-3.2","","-5.3","","85","","","","30","","13","","","","100.58","","","","-8","","NA"
"-55.38","46.92","ST LAWRENCE","8403619","2012-02-27 05:30","2012","02","27","05:30","-2.4","","-4.4","","86","","","","29","","9","","","","100.68","","","","-6","","NA"
"-55.38","46.92","ST LAWRENCE","8403619","2012-02-27 06:30","2012","02","27","06:30","-2.7","","-4.6","","87","","","","29","","9","","","","100.75","","","","-6","","NA"
"-55.38","46.92","ST LAWRENCE","8403619","2012-02-27 07:30","2012","02","27","07:30","-2.9","","-5.6","","82","","","","29","","9","","","","100.85","","","","-6","","NA"
"-55.38","46.92","ST LAWRENCE","8403619","2012-02-27 08:30","2012","02","27","08:30","-1.5","","-6.0","","71","","","","29","","15","","","","100.94","","","","-6","","NA"
"-55.38","46.92","ST LAWRENCE","8403619","2012-02-27 09:30","2012","02","27","09:30","-0.5","","-6.9","","62","","","","30","","22","","","","100.97","","","","-6","","NA"
"-55.38","46.92","ST LAWRENCE","8403619","2012-02-27 10:30","2012","02","27","10:30","0.2","","-6.9","","59","","","","29","","30","","","","101.04","","","","","","NA"
"-55.38","46.92","ST LAWRENCE","8403619","2012-02-27 11:30","2012","02","27","11:30","0.4","","-6.9","","58","","","","29","","30","","","","101.09","","","","","","NA"
"-55.38","46.92","ST LAWRENCE","8403619","2012-02-27 12:30","2012","02","27","12:30","0.7","","-7.4","","55","","","","29","","30","","","","101.07","","","","","","NA"
"-55.38","46.92","ST LAWRENCE","8403619","2012-02-27 13:30","2012","02","27","13:30","1.5","","-7.2","","52","","","","29","","28","","","","101.07","","","","","","NA"
"-55.38","46.92","ST LAWRENCE","8403619","2012-02-27 14:30","2012","02","27","14:30","-0.7","","-2.9","","85","","","","27","","32","","","","101.09","","","","-8","","NA"
"-55.38","46.92","ST LAWRENCE","8403619","2012-02-27 15:30","2012","02","27","15:30","-0.7","","-5.4","","70","","","","28","","37","","","","101.14","","","","-8","","NA"
"-55.38","46.92","ST LAWRENCE","8403619","2012-02-27 16:30","2012","02","27","16:30","-1.8","","-6.0","","73","","","","28","","32","","","","101.18","","","","-9","","NA"
"-55.38","46.92","ST LAWRENCE","8403619","2012-02-27 17:30","2012","02","27","17:30","-2.2","","-6.8","","71","","","","28","","32","","","","101.22","","","","-10","","NA"
"-55.38","46.92","ST LAWRENCE","8403619","2012-02-27 18:30","2012","02","27","18:30","-3.1","","-7.4","","72","","","","28","","30","","","","101.30","","","","-11","","NA"
"-55.38","46.92","ST LAWRENCE","8403619","2012-02-27 19:30","2012","02","27","19:30","-4.1","","-8.0","","74","","","","28","","37","","","","101.36","","","","-13","","NA"
"-55.38","46.92","ST LAWRENCE","8403619","2012-02-27 20:30","2012","02","27","20:30","-5.5","","-10.0","","71","","","","28","","37","","","","101.42","","","","-14","","NA"
"-55.38","46.92","ST LAWRENCE","8403619","2012-02-27 21:30","2012","02","27","21:30","-6.4","","-9.9","","76","","","","29","","22","","","","101.49","","","","-14","","NA"
"-55.38","46.92","ST LAWRENCE","8403619","2012-02-27 22:30","2012","02","27","22:30","-7.3","","-10.8","","76","","","","30","","11","","","","101.56","","","","-12","","NA"
"-55.38","46.92","ST LAWRENCE","8403619","2012-02-27 23:30","2012","02","27","23:30","-7.9","","-10.9","","79","","","","31","","13","","","","101.62","","","","-14","","NA"
"-55.38","46.92","ST LAWRENCE","8403619","2012-02-28 00:30","2012","02","28","00:30","-8.1","","-11.3","","78","","","","31","","13","","","","101.67","","","","-14","","NA"
"-55.38","46.92","ST LAWRENCE","8403619","2012-02-28 01:30","2012","02","28","01:30","-9.1","","-12.0","","79","","","","29","","7","","","","101.70","","","","-13","","NA"
"-55.38","46.92","ST LAWRENCE","8403619","2012-02-28 02:30","2012","02","28","02:30","-9.8","","-12.1","","83","","","","30","","15","","","","101.67","","","","-16","","NA"
"-55.38","46.92","ST LAWRENCE","8403619","2012-02-28 03:30","2012","02","28","03:30","-11.2","","-13.3","","84","","","","35","","6","","","","101.66","","","","-15","","NA"
"-55.38","46.92","ST LAWRENCE","8403619","2012-02-28 04:30","2012","02","28","04:30","-10.8","","-12.6","","87","","","","28","","2","","","","101.70","","","","-12","","NA"
"-55.38","46.92","ST LAWRENCE","8403619","2012-02-28 05:30","2012","02","28","05:30","-10.8","","-12.3","","89","","","","5","","6","","","","101.69","","","","-14","","NA"
"-55.38","46.92","ST LAWRENCE","8403619","2012-02-28 06:30","2012","02","28","06:30","-10.1","","-11.6","","89","","","","3","","4","","","","101.67","","","","-12","","NA"
"-55.38","46.92","ST LAWRENCE","8403619","2012-02-28 07:30","2012","02","28","07:30","-9.2","","-11.1","","86","","","","5","","7","","","","101.64","","","","-13","","NA"
"-55.38","46.92","ST LAWRENCE","8403619","2012-02-28 08:30","2012","02","28","08:30","-7.9","","-10.5","","82","","","","6","","13","","","","101.62","","","","-14","","NA"
"-55.38","46.92","ST LAWRENCE","8403619","2012-02-28 09:30","2012","02","28","09:30","-7.0","","-10.1","","79","","","","6","","11","","","","101.55","","","","-12","","NA"
"-55.38","46.92","ST LAWRENCE","8403619","2012-02-28 10:30","2012","02","28","10:30","-5.5","","-11.1","","65","","","","7","","7","","","","101.48","","","","-9","","NA"
"-55.38","46.92","ST LAWRENCE","8403619","2012-02-28 11:30","2012","02","28","11:30","-4.4","","-9.8","","66","","","","10","","11","","","","101.41","","","","-9","","NA"
"-55.38","46.92","ST LAWRENCE","8403619","2012-02-28 12:30","2012","02","28","12:30","-4.4","","-9.5","","68","","","","11","","13","","","","101.38","","","","-9","","NA"
"-55.38","46.92","ST LAWRENCE","8403619","2012-02-28 13:30","2012","02","28","13:30","-4.2","","-9.0","","69","","","","11","","11","","","","101.29","","","","-9","","NA"
"-55.38","46.92","ST LAWRENCE","8403619","2012-02-28 14:30","2012","02","28","14:30","-4.5","","-9.1","","70","","","","8","","13","","","","101.22","","","","-10","","NA"
"-55.38","46.92","ST LAWRENCE","8403619","2012-02-28 15:30","2012","02","28","15:30","-4.7","","-9.9","","67","","","","6","","13","","","","101.19","","","","-10","","NA"
"-55.38","46.92","ST LAWRENCE","8403619","2012-02-28 16:30","2012","02","28","16:30","-5.3","","-9.1","","75","","","","7","","15","","","","101.14","","","","-11","","NA"
"-55.38","46.92","ST LAWRENCE","8403619","2012-02-28 17:30","2012","02","28","17:30","-6.1","","-9.8","","75","","","","5","","17","","","","101.13","","","","-12","","NA"
"-55.38","46.92","ST LAWRENCE","8403619","2012-02-28 18:30","2012","02","28","18:30","-6.4","","-9.8","","77","","","","4","","13","","","","101.12","","","","-12","","NA"
"-55.38","46.92","ST LAWRENCE","8403619","2012-02-28 19:30","2012","02","28","19:30","-6.4","","-9.9","","76","","","","3","","9","","","","101.08","","","","-11","","NA"
"-55.38","46.92","ST LAWRENCE","8403619","2012-02-28 20:30","2012","02","28","20:30","-6.2","","-9.3","","79","","","","2","","15","","","","101.03","","","","-12","","NA"
"-55.38","46.92","ST LAWRENCE","8403619","2012-02-28 21:30","2012","02","28","21:30","-6.9","","-10.2","","77","","","","3","","19","","","","100.98","","","","-14","","NA"
"-55.38","46.92","ST LAWRENCE","8403619","2012-02-28 22:30","2012","02","28","22:30","-7.9","","-11.2","","77","","","","36","","17","","","","100.95","","","","-15","","NA"
"-55.38","46.92","ST LAWRENCE","8403619","2012-02-28 23:30","2012","02","28","23:30","-7.6","","-11.6","","73","","","","36","","19","","","","100.95","","","","-15","","NA"
"-55.38","46.92","ST LAWRENCE","8403619","2012-02-29 00:30","2012","02","29","00:30","-7.3","","-10.4","","78","","","","1","","17","","","","100.99","","","","-14","","NA"
"-55.38","46.92","ST LAWRENCE","8403619","2012-02-29 01:30","2012","02","29","01:30","-7.3","","-10.0","","81","","","","1","","13","","","","101.01","","","","-13","","NA"
"-55.38","46.92","ST LAWRENCE","8403619","2012-02-29 02:30","2012","02","29","02:30","-7.8","","-10.3","","82","","","","36","","13","","","","101.04","","","","-14","","NA"
"-55.38","46.92","ST LAWRENCE","8403619","2012-02-29 03:30","2012","02","29","03:30","-9.0","","-11.0","","85","","","","1","","9","","","","101.04","","","","-14","","NA"
"-55.38","46.92","ST LAWRENCE","8403619","2012-02-29 04:30","2012","02","29","04:30","-9.4","","-11.1","","87","","","","1","","7","","","","101.08","","","","-13","","NA"
"-55.38","46.92","ST LAWRENCE","8403619","2012-02-29 05:30","2012","02","29","05:30","-10.1","","-11.6","","89","","","","36","","7","","","","101.12","","","","-14","","NA"
"-55.38","46.92","ST LAWRENCE","8403619","2012-02-29 06:30","2012","02","29","06:30","-11.3","","-12.9","","88","","","","35","","15","","","","101.18","","","","-18","","NA"
"-55.38","46.92","ST LAWRENCE","8403619","2012-02-29 07:30","2012","02","29","07:30","-10.6","","-12.8","","84","","","","2","","7","","","","101.26","","","","-15","","NA"
"-55.38","46.92","ST LAWRENCE","8403619","2012-02-29 08:30","2012","02","29","08:30","-8.3","","-11.0","","81","","","","5","","7","","","","101.28","","","","-12","","NA"
"-55.38","46.92","ST LAWRENCE","8403619","2012-02-29 09:30","2012","02","29","09:30","-7.4","","-11.5","","72","","","","2","","15","","","","101.28","","","","-14","","NA"
"-55.38","46.92","ST LAWRENCE","8403619","2012-02-29 10:30","2012","02","29","10:30","-7.2","","-11.5","","71","","","","2","","13","","","","101.25","","","","-13","","NA"
"-55.38","46.92","ST LAWRENCE","8403619","2012-02-29 11:30","2012","02","29","11:30","-6.7","","-11.3","","70","","","","34","","13","","","","101.21","","","","-12","","NA"
"-55.38","46.92","ST LAWRENCE","8403619","2012-02-29 12:30","2012","02","29","12:30","-6.1","","-11.0","","68","","","","33","","11","","","","101.14","","","","-11","","NA"
"-55.38","46.92","ST LAWRENCE","8403619","2012-02-29 13:30","2012","02","29","13:30","-5.7","","-11.1","","66","","","","30","","17","","","","101.10","","","","-12","","NA"
"-55.38","46.92","ST LAWRENCE","8403619","2012-02-29 14:30","2012","02","29","14:30","-5.9","","-10.5","","70","","","","30","","19","","","","101.09","","","","-13","","NA"
"-55.38","46.92","ST LAWRENCE","8403619","2012-02-29 15:30","2012","02","29","15:30","-6.6","","-12.6","","62","","","","29","","22","","","","101.08","","","","-14","","NA"
"-55.38","46.92","ST LAWRENCE","8403619","2012-02-29 16:30","2012","02","29","16:30","-6.4","","-12.8","","60","","","","30","","22","","","","101.09","","","","-14","","NA"
"-55.38","46.92","ST LAWRENCE","8403619","2012-02-29 17:30","2012","02","29","17:30","-7.5","","-12.7","","66","","","","30","","19","","","","101.10","","","","-15","","NA"
"-55.38","46.92","ST LAWRENCE","8403619","2012-02-29 18:30","2012","02","29","18:30","-8.2","","-12.1","","73","","","","30","","9","","","","101.16","","","","-13","","NA"
"-55.38","46.92","ST LAWRENCE","8403619","2012-02-29 19:30","2012","02","29","19:30","-8.8","","-11.8","","79","","","","27","","6","","","","101.18","","","","-12","","NA"
"-55.38","46.92","ST LAWRENCE","8403619","2012-02-29 20:30","2012","02","29","20:30","-9.2","","-12.0","","80","","","","","","0","","","","101.15","","","","","","NA"
"-55.38","46.92","ST LAWRENCE","8403619","2012-02-29 21:30","2012","02","29","21:30","-9.0","","-11.5","","82","","","","","","0","","","","101.13","","","","","","NA"
"-55.38","46.92","ST LAWRENCE","8403619","2012-02-29 22:30","2012","02","29","22:30","-9.2","","-10.9","","87","","","","","","0","","","","101.07","","","","","","NA"
"-55.38","46.92","ST LAWRENCE","8403619","2012-02-29 23:30","2012","02","29","23:30","-8.4","","-9.3","","93","","","","7","","2","","","","100.99","","","","-9","","NA"
