"Longitude (x)","Latitude (y)","Station Name","Climate ID","Date/Time (LST)","Year","Month","Day","Time (LST)","Temp (°C)","Temp Flag","Dew Point Temp (°C)","Dew Point Temp Flag","Rel Hum (%)","Rel Hum Flag","Precip. Amount (mm)","Precip. Amount Flag","Wind Dir (10s deg)","Wind Dir Flag","Wind Spd (km/h)","Wind Spd Flag","Visibility (km)","Visibility Flag","Stn Press (kPa)","Stn Press Flag","Hmdx","Hmdx Flag","Wind Chill","Wind Chill Flag","Weather"
"-55.38","46.92","ST LAWRENCE","8403619","2018-01-01 00:30","2018","01","01","00:30","","M","","M","","M","0.0","","25","","24","","","","99.24","","","","","","NA"
"-55.38","46.92","ST LAWRENCE","8403619","2018-01-01 01:30","2018","01","01","01:30","","M","","M","88","","0.0","","25","","37","","","","99.23","","","","","","NA"
"-55.38","46.92","ST LAWRENCE","8403619","2018-01-01 02:30","2018","01","01","02:30","","M","","M","95","","0.0","","25","","38","","","","99.31","","","","","","NA"
"-55.38","46.92","ST LAWRENCE","8403619","2018-01-01 03:30","2018","01","01","03:30","","M","","M","84","","0.0","","24","","34","","","","99.37","","","","","","NA"
"-55.38","46.92","ST LAWRENCE","8403619","2018-01-01 04:30","2018","01","01","04:30","","M","","M","84","","0.0","","26","","32","","","","99.38","","","","","","NA"
"-55.38","46.92","ST LAWRENCE","8403619","2018-01-01 05:30","2018","01","01","05:30","","M","","M","86","","0.0","","24","","36","","","","99.35","","","","","","NA"
"-55.38","46.92","ST LAWRENCE","8403619","2018-01-01 06:30","2018","01","01","06:30","","M","","M","98","","0.0","","24","","43","","","","99.30","","","","","","NA"
"-55.38","46.92","ST LAWRENCE","8403619","2018-01-01 07:30","2018","01","01","07:30","","M","","M","100","","0.0","","24","","49","","","","99.28","","","","","","NA"
"-55.38","46.92","ST LAWRENCE","8403619","2018-01-01 08:30","2018","01","01","08:30","","M","","M","100","","0.0","","26","","35","","","","99.39","","","","","","NA"
"-55.38","46.92","ST LAWRENCE","8403619","2018-01-01 09:30","2018","01","01","09:30","","M","","M","97","","0.0","","26","","33","","","","99.46","","","","","","NA"
"-55.38","46.92","ST LAWRENCE","8403619","2018-01-01 10:30","2018","01","01","10:30","","M","","M","","M","0.0","","25","","38","","","","99.55","","","","","","NA"
"-55.38","46.92","ST LAWRENCE","8403619","2018-01-01 11:30","2018","01","01","11:30","","M","","M","","M","1.5","","26","","44","","","","99.52","","","","","","NA"
"-55.38","46.92","ST LAWRENCE","8403619","2018-01-01 12:30","2018","01","01","12:30","","M","","M","","M","0.3","","27","","35","","","","99.51","","","","","","NA"
"-55.38","46.92","ST LAWRENCE","8403619","2018-01-01 13:30","2018","01","01","13:30","","M","","M","","M","0.0","","26","","36","","","","99.49","","","","","","NA"
"-55.38","46.92","ST LAWRENCE","8403619","2018-01-01 14:30","2018","01","01","14:30","","M","","M","96","","0.0","","26","","33","","","","99.52","","","","","","NA"
"-55.38","46.92","ST LAWRENCE","8403619","2018-01-01 15:30","2018","01","01","15:30","","M","","M","","M","0.5","","26","","33","","","","99.59","","","","","","NA"
"-55.38","46.92","ST LAWRENCE","8403619","2018-01-01 16:30","2018","01","01","16:30","","M","","M","","M","0.0","","27","","32","","","","99.64","","","","","","NA"
"-55.38","46.92","ST LAWRENCE","8403619","2018-01-01 17:30","2018","01","01","17:30","","M","","M","","M","0.0","","26","","32","","","","99.70","","","","","","NA"
"-55.38","46.92","ST LAWRENCE","8403619","2018-01-01 18:30","2018","01","01","18:30","","M","","M","","M","0.0","","27","","35","","","","99.78","","","","","","NA"
"-55.38","46.92","ST LAWRENCE","8403619","2018-01-01 19:30","2018","01","01","19:30","","M","","M","","M","0.0","","25","","34","","","","99.81","","","","","","NA"
"-55.38","46.92","ST LAWRENCE","8403619","2018-01-01 20:30","2018","01","01","20:30","","M","","M","","M","0.0","","25","","36","","","","99.85","","","","","","NA"
"-55.38","46.92","ST LAWRENCE","8403619","2018-01-01 21:30","2018","01","01","21:30","","M","","M","","M","0.0","","26","","38","","","","99.88","","","","","","NA"
"-55.38","46.92","ST LAWRENCE","8403619","2018-01-01 22:30","2018","01","01","22:30","","M","","M","","M","0.0","","26","","35","","","","99.94","","","","","","NA"
"-55.38","46.92","ST LAWRENCE","8403619","2018-01-01 23:30","2018","01","01","23:30","","M","","M","99","","0.0","","26","","26","","","","99.98","","","","","","NA"
"-55.38","46.92","ST LAWRENCE","8403619","2018-01-02 00:30","2018","01","02","00:30","","M","","M","","M","0.0","","27","","22","","","","100.00","","","","","","NA"
"-55.38","46.92","ST LAWRENCE","8403619","2018-01-02 01:30","2018","01","02","01:30","","M","","M","100","","0.0","","25","","24","","","","100.03","","","","","","NA"
"-55.38","46.92","ST LAWRENCE","8403619","2018-01-02 02:30","2018","01","02","02:30","","M","","M","100","","0.0","","25","","26","","","","100.09","","","","","","NA"
"-55.38","46.92","ST LAWRENCE","8403619","2018-01-02 03:30","2018","01","02","03:30","","M","","M","99","","0.0","","25","","27","","","","100.12","","","","","","NA"
"-55.38","46.92","ST LAWRENCE","8403619","2018-01-02 04:30","2018","01","02","04:30","","M","","M","100","","0.0","","24","","31","","","","100.15","","","","","","NA"
"-55.38","46.92","ST LAWRENCE","8403619","2018-01-02 05:30","2018","01","02","05:30","","M","","M","","M","0.3","","24","","26","","","","100.19","","","","","","NA"
"-55.38","46.92","ST LAWRENCE","8403619","2018-01-02 06:30","2018","01","02","06:30","","M","","M","","M","1.5","","24","","28","","","","100.24","","","","","","NA"
"-55.38","46.92","ST LAWRENCE","8403619","2018-01-02 07:30","2018","01","02","07:30","","M","","M","","M","0.5","","25","","16","","","","100.25","","","","","","NA"
"-55.38","46.92","ST LAWRENCE","8403619","2018-01-02 08:30","2018","01","02","08:30","","M","","M","","M","0.0","","24","","26","","","","100.28","","","","","","NA"
"-55.38","46.92","ST LAWRENCE","8403619","2018-01-02 09:30","2018","01","02","09:30","","M","","M","","M","0.0","","24","","20","","","","100.28","","","","","","NA"
"-55.38","46.92","ST LAWRENCE","8403619","2018-01-02 10:30","2018","01","02","10:30","","M","","M","","M","0.0","","23","","17","","","","100.31","","","","","","NA"
"-55.38","46.92","ST LAWRENCE","8403619","2018-01-02 11:30","2018","01","02","11:30","","M","","M","93","","0.0","","23","","22","","","","100.25","","","","","","NA"
"-55.38","46.92","ST LAWRENCE","8403619","2018-01-02 12:30","2018","01","02","12:30","","M","","M","76","","0.0","","23","","13","","","","100.19","","","","","","NA"
"-55.38","46.92","ST LAWRENCE","8403619","2018-01-02 13:30","2018","01","02","13:30","","M","","M","71","","0.0","","24","","17","","","","100.12","","","","","","NA"
"-55.38","46.92","ST LAWRENCE","8403619","2018-01-02 14:30","2018","01","02","14:30","","M","","M","70","","0.0","","24","","17","","","","100.06","","","","","","NA"
"-55.38","46.92","ST LAWRENCE","8403619","2018-01-02 15:30","2018","01","02","15:30","","M","","M","77","","0.0","","22","","16","","","","100.04","","","","","","NA"
"-55.38","46.92","ST LAWRENCE","8403619","2018-01-02 16:30","2018","01","02","16:30","","M","","M","83","","0.0","","22","","12","","","","100.06","","","","","","NA"
"-55.38","46.92","ST LAWRENCE","8403619","2018-01-02 17:30","2018","01","02","17:30","","M","","M","72","","0.0","","23","","19","","","","100.03","","","","","","NA"
"-55.38","46.92","ST LAWRENCE","8403619","2018-01-02 18:30","2018","01","02","18:30","","M","","M","72","","0.0","","24","","21","","","","100.04","","","","","","NA"
"-55.38","46.92","ST LAWRENCE","8403619","2018-01-02 19:30","2018","01","02","19:30","","M","","M","80","","0.0","","22","","29","","","","100.07","","","","","","NA"
"-55.38","46.92","ST LAWRENCE","8403619","2018-01-02 20:30","2018","01","02","20:30","","M","","M","90","","0.0","","27","","25","","","","100.08","","","","","","NA"
"-55.38","46.92","ST LAWRENCE","8403619","2018-01-02 21:30","2018","01","02","21:30","","M","","M","75","","0.0","","25","","32","","","","100.09","","","","","","NA"
"-55.38","46.92","ST LAWRENCE","8403619","2018-01-02 22:30","2018","01","02","22:30","","M","","M","74","","0.0","","27","","29","","","","100.12","","","","","","NA"
"-55.38","46.92","ST LAWRENCE","8403619","2018-01-02 23:30","2018","01","02","23:30","","M","","M","73","","0.0","","26","","26","","","","100.16","","","","","","NA"
"-55.38","46.92","ST LAWRENCE","8403619","2018-01-03 00:30","2018","01","03","00:30","","M","","M","77","","0.0","","24","","26","","","","100.15","","","","","","NA"
"-55.38","46.92","ST LAWRENCE","8403619","2018-01-03 01:30","2018","01","03","01:30","","M","","M","99","","0.0","","27","","29","","","","100.22","","","","","","NA"
"-55.38","46.92","ST LAWRENCE","8403619","2018-01-03 02:30","2018","01","03","02:30","","M","","M","100","","1.9","","27","","31","","","","100.32","","","","","","NA"
"-55.38","46.92","ST LAWRENCE","8403619","2018-01-03 03:30","2018","01","03","03:30","","M","","M","","M","1.0","","26","","36","","","","100.42","","","","","","NA"
"-55.38","46.92","ST LAWRENCE","8403619","2018-01-03 04:30","2018","01","03","04:30","","M","","M","","M","0.0","","26","","35","","","","100.48","","","","","","NA"
"-55.38","46.92","ST LAWRENCE","8403619","2018-01-03 05:30","2018","01","03","05:30","","M","","M","","M","0.0","","27","","23","","","","100.58","","","","","","NA"
"-55.38","46.92","ST LAWRENCE","8403619","2018-01-03 06:30","2018","01","03","06:30","","M","","M","","M","0.0","","26","","28","","","","100.69","","","","","","NA"
"-55.38","46.92","ST LAWRENCE","8403619","2018-01-03 07:30","2018","01","03","07:30","","M","","M","","M","0.0","","26","","32","","","","100.81","","","","","","NA"
"-55.38","46.92","ST LAWRENCE","8403619","2018-01-03 08:30","2018","01","03","08:30","","M","","M","","M","0.0","","26","","33","","","","100.87","","","","","","NA"
"-55.38","46.92","ST LAWRENCE","8403619","2018-01-03 09:30","2018","01","03","09:30","","M","","M","100","","0.0","","26","","36","","","","101.02","","","","","","NA"
"-55.38","46.92","ST LAWRENCE","8403619","2018-01-03 10:30","2018","01","03","10:30","","M","","M","94","","0.0","","26","","42","","","","101.14","","","","","","NA"
"-55.38","46.92","ST LAWRENCE","8403619","2018-01-03 11:30","2018","01","03","11:30","","M","","M","86","","0.0","","25","","38","","","","101.22","","","","","","NA"
"-55.38","46.92","ST LAWRENCE","8403619","2018-01-03 12:30","2018","01","03","12:30","","M","","M","83","","0.0","","26","","36","","","","101.25","","","","","","NA"
"-55.38","46.92","ST LAWRENCE","8403619","2018-01-03 13:30","2018","01","03","13:30","","M","","M","81","","0.0","","27","","32","","","","101.31","","","","","","NA"
"-55.38","46.92","ST LAWRENCE","8403619","2018-01-03 14:30","2018","01","03","14:30","","M","","M","94","","0.0","","26","","34","","","","101.40","","","","","","NA"
"-55.38","46.92","ST LAWRENCE","8403619","2018-01-03 15:30","2018","01","03","15:30","","M","","M","90","","0.0","","26","","30","","","","101.54","","","","","","NA"
"-55.38","46.92","ST LAWRENCE","8403619","2018-01-03 16:30","2018","01","03","16:30","","M","","M","87","","0.0","","27","","27","","","","101.70","","","","","","NA"
"-55.38","46.92","ST LAWRENCE","8403619","2018-01-03 17:30","2018","01","03","17:30","","M","","M","82","","0.0","","27","","27","","","","101.82","","","","","","NA"
"-55.38","46.92","ST LAWRENCE","8403619","2018-01-03 18:30","2018","01","03","18:30","","M","","M","78","","0.0","","27","","23","","","","101.97","","","","","","NA"
"-55.38","46.92","ST LAWRENCE","8403619","2018-01-03 19:30","2018","01","03","19:30","","M","","M","82","","0.0","","27","","23","","","","102.09","","","","","","NA"
"-55.38","46.92","ST LAWRENCE","8403619","2018-01-03 20:30","2018","01","03","20:30","","M","","M","90","","0.0","","26","","25","","","","102.16","","","","","","NA"
"-55.38","46.92","ST LAWRENCE","8403619","2018-01-03 21:30","2018","01","03","21:30","","M","","M","79","","0.0","","27","","17","","","","102.23","","","","","","NA"
"-55.38","46.92","ST LAWRENCE","8403619","2018-01-03 22:30","2018","01","03","22:30","","M","","M","80","","0.0","","28","","11","","","","102.27","","","","","","NA"
"-55.38","46.92","ST LAWRENCE","8403619","2018-01-03 23:30","2018","01","03","23:30","","M","","M","84","","0.0","","27","","9","","","","102.35","","","","","","NA"
"-55.38","46.92","ST LAWRENCE","8403619","2018-01-04 00:30","2018","01","04","00:30","","M","","M","82","","0.0","","31","","8","","","","102.38","","","","","","NA"
"-55.38","46.92","ST LAWRENCE","8403619","2018-01-04 01:30","2018","01","04","01:30","","M","","M","89","","0.0","","29","","7","","","","102.47","","","","","","NA"
"-55.38","46.92","ST LAWRENCE","8403619","2018-01-04 02:30","2018","01","04","02:30","","M","","M","87","","0.0","","27","","15","","","","102.58","","","","","","NA"
"-55.38","46.92","ST LAWRENCE","8403619","2018-01-04 03:30","2018","01","04","03:30","","M","","M","77","","0.0","","26","","17","","","","102.57","","","","","","NA"
"-55.38","46.92","ST LAWRENCE","8403619","2018-01-04 04:30","2018","01","04","04:30","","M","","M","84","","0.0","","27","","15","","","","102.64","","","","","","NA"
"-55.38","46.92","ST LAWRENCE","8403619","2018-01-04 05:30","2018","01","04","05:30","","M","","M","85","","0.0","","29","","6","","","","102.66","","","","","","NA"
"-55.38","46.92","ST LAWRENCE","8403619","2018-01-04 06:30","2018","01","04","06:30","","M","","M","86","","0.0","","32","","6","","","","102.68","","","","","","NA"
"-55.38","46.92","ST LAWRENCE","8403619","2018-01-04 07:30","2018","01","04","07:30","","M","","M","90","","0.0","","6","","6","","","","102.68","","","","","","NA"
"-55.38","46.92","ST LAWRENCE","8403619","2018-01-04 08:30","2018","01","04","08:30","","M","","M","93","","0.0","","6","","10","","","","102.61","","","","","","NA"
"-55.38","46.92","ST LAWRENCE","8403619","2018-01-04 09:30","2018","01","04","09:30","","M","","M","92","","0.0","","4","","7","","","","102.68","","","","","","NA"
"-55.38","46.92","ST LAWRENCE","8403619","2018-01-04 10:30","2018","01","04","10:30","","M","","M","84","","0.0","","6","","7","","","","102.74","","","","","","NA"
"-55.38","46.92","ST LAWRENCE","8403619","2018-01-04 11:30","2018","01","04","11:30","","M","","M","76","","0.0","","12","","12","","","","102.48","","","","","","NA"
"-55.38","46.92","ST LAWRENCE","8403619","2018-01-04 12:30","2018","01","04","12:30","","M","","M","74","","0.0","","13","","19","","","","102.37","","","","","","NA"
"-55.38","46.92","ST LAWRENCE","8403619","2018-01-04 13:30","2018","01","04","13:30","","M","","M","74","","0.0","","11","","23","","","","102.12","","","","","","NA"
"-55.38","46.92","ST LAWRENCE","8403619","2018-01-04 14:30","2018","01","04","14:30","","M","","M","74","","0.0","","11","","30","","","","102.01","","","","","","NA"
"-55.38","46.92","ST LAWRENCE","8403619","2018-01-04 15:30","2018","01","04","15:30","","M","","M","79","","0.0","","10","","36","","","","101.92","","","","","","NA"
"-55.38","46.92","ST LAWRENCE","8403619","2018-01-04 16:30","2018","01","04","16:30","","M","","M","83","","0.0","","10","","42","","","","101.66","","","","","","NA"
"-55.38","46.92","ST LAWRENCE","8403619","2018-01-04 17:30","2018","01","04","17:30","","M","","M","88","","0.0","","10","","43","","","","101.53","","","","","","NA"
"-55.38","46.92","ST LAWRENCE","8403619","2018-01-04 18:30","2018","01","04","18:30","","M","","M","97","","0.0","","9","","45","","","","101.22","","","","","","NA"
"-55.38","46.92","ST LAWRENCE","8403619","2018-01-04 19:30","2018","01","04","19:30","","M","","M","","M","0.0","","10","","54","","","","100.97","","","","","","NA"
"-55.38","46.92","ST LAWRENCE","8403619","2018-01-04 20:30","2018","01","04","20:30","","M","","M","","M","0.0","","9","","58","","","","100.54","","","","","","NA"
"-55.38","46.92","ST LAWRENCE","8403619","2018-01-04 21:30","2018","01","04","21:30","","M","","M","","M","0.0","","10","","63","","","","100.32","","","","","","NA"
"-55.38","46.92","ST LAWRENCE","8403619","2018-01-04 22:30","2018","01","04","22:30","","M","","M","","M","0.0","","10","","58","","","","100.00","","","","","","NA"
"-55.38","46.92","ST LAWRENCE","8403619","2018-01-04 23:30","2018","01","04","23:30","","M","","M","","M","0.6","","9","","59","","","","99.81","","","","","","NA"
"-55.38","46.92","ST LAWRENCE","8403619","2018-01-05 00:30","2018","01","05","00:30","","M","","M","","M","1.6","","10","","50","","","","99.57","","","","","","NA"
"-55.38","46.92","ST LAWRENCE","8403619","2018-01-05 01:30","2018","01","05","01:30","","M","","M","","M","0.5","","10","","42","","","","99.34","","","","","","NA"
"-55.38","46.92","ST LAWRENCE","8403619","2018-01-05 02:30","2018","01","05","02:30","","M","","M","","M","0.0","","10","","36","","","","99.06","","","","","","NA"
"-55.38","46.92","ST LAWRENCE","8403619","2018-01-05 03:30","2018","01","05","03:30","","M","","M","","M","0.0","","10","","40","","","","98.85","","","","","","NA"
"-55.38","46.92","ST LAWRENCE","8403619","2018-01-05 04:30","2018","01","05","04:30","","M","","M","","M","0.0","","9","","32","","","","98.74","","","","","","NA"
"-55.38","46.92","ST LAWRENCE","8403619","2018-01-05 05:30","2018","01","05","05:30","","M","","M","","M","0.3","","10","","23","","","","98.54","","","","","","NA"
"-55.38","46.92","ST LAWRENCE","8403619","2018-01-05 06:30","2018","01","05","06:30","","M","","M","","M","1.2","","15","","13","","","","98.46","","","","","","NA"
"-55.38","46.92","ST LAWRENCE","8403619","2018-01-05 07:30","2018","01","05","07:30","","M","","M","","M","0.0","","18","","44","","","","98.41","","","","","","NA"
"-55.38","46.92","ST LAWRENCE","8403619","2018-01-05 08:30","2018","01","05","08:30","","M","","M","","M","0.0","","19","","42","","","","98.41","","","","","","NA"
"-55.38","46.92","ST LAWRENCE","8403619","2018-01-05 09:30","2018","01","05","09:30","","M","","M","","M","0.0","","19","","37","","","","98.46","","","","","","NA"
"-55.38","46.92","ST LAWRENCE","8403619","2018-01-05 10:30","2018","01","05","10:30","","M","","M","","M","0.0","","19","","36","","","","98.52","","","","","","NA"
"-55.38","46.92","ST LAWRENCE","8403619","2018-01-05 11:30","2018","01","05","11:30","","M","","M","","M","0.0","","20","","39","","","","98.53","","","","","","NA"
"-55.38","46.92","ST LAWRENCE","8403619","2018-01-05 12:30","2018","01","05","12:30","","M","","M","","M","0.0","","20","","33","","","","98.51","","","","","","NA"
"-55.38","46.92","ST LAWRENCE","8403619","2018-01-05 13:30","2018","01","05","13:30","","M","","M","","M","0.0","","21","","24","","","","98.49","","","","","","NA"
"-55.38","46.92","ST LAWRENCE","8403619","2018-01-05 14:30","2018","01","05","14:30","","M","","M","","M","0.0","","21","","27","","","","98.53","","","","","","NA"
"-55.38","46.92","ST LAWRENCE","8403619","2018-01-05 15:30","2018","01","05","15:30","","M","","M","","M","0.0","","20","","16","","","","98.45","","","","","","NA"
"-55.38","46.92","ST LAWRENCE","8403619","2018-01-05 16:30","2018","01","05","16:30","","M","","M","","M","0.0","","20","","20","","","","98.46","","","","","","NA"
"-55.38","46.92","ST LAWRENCE","8403619","2018-01-05 17:30","2018","01","05","17:30","","M","","M","","M","0.0","","19","","25","","","","98.50","","","","","","NA"
"-55.38","46.92","ST LAWRENCE","8403619","2018-01-05 18:30","2018","01","05","18:30","","M","","M","","M","0.0","","21","","21","","","","98.49","","","","","","NA"
"-55.38","46.92","ST LAWRENCE","8403619","2018-01-05 19:30","2018","01","05","19:30","","M","","M","","M","0.0","","23","","21","","","","98.47","","","","","","NA"
"-55.38","46.92","ST LAWRENCE","8403619","2018-01-05 20:30","2018","01","05","20:30","","M","","M","","M","0.0","","22","","18","","","","98.44","","","","","","NA"
"-55.38","46.92","ST LAWRENCE","8403619","2018-01-05 21:30","2018","01","05","21:30","","M","","M","","M","0.0","","21","","14","","","","98.44","","","","","","NA"
"-55.38","46.92","ST LAWRENCE","8403619","2018-01-05 22:30","2018","01","05","22:30","","M","","M","","M","0.0","","23","","24","","","","98.45","","","","","","NA"
"-55.38","46.92","ST LAWRENCE","8403619","2018-01-05 23:30","2018","01","05","23:30","","M","","M","","M","0.0","","23","","25","","","","98.47","","","","","","NA"
"-55.38","46.92","ST LAWRENCE","8403619","2018-01-06 00:30","2018","01","06","00:30","","M","","M","100","","0.0","","22","","26","","","","98.48","","","","","","NA"
"-55.38","46.92","ST LAWRENCE","8403619","2018-01-06 01:30","2018","01","06","01:30","","M","","M","94","","0.0","","22","","35","","","","98.46","","","","","","NA"
"-55.38","46.92","ST LAWRENCE","8403619","2018-01-06 02:30","2018","01","06","02:30","","M","","M","80","","0.0","","22","","44","","","","98.46","","","","","","NA"
"-55.38","46.92","ST LAWRENCE","8403619","2018-01-06 03:30","2018","01","06","03:30","","M","","M","76","","0.0","","22","","40","","","","98.49","","","","","","NA"
"-55.38","46.92","ST LAWRENCE","8403619","2018-01-06 04:30","2018","01","06","04:30","","M","","M","71","","0.0","","23","","39","","","","98.43","","","","","","NA"
"-55.38","46.92","ST LAWRENCE","8403619","2018-01-06 05:30","2018","01","06","05:30","","M","","M","92","","0.0","","23","","49","","","","98.42","","","","","","NA"
"-55.38","46.92","ST LAWRENCE","8403619","2018-01-06 06:30","2018","01","06","06:30","","M","","M","74","","0.0","","23","","53","","","","98.43","","","","","","NA"
"-55.38","46.92","ST LAWRENCE","8403619","2018-01-06 07:30","2018","01","06","07:30","","M","","M","71","","0.0","","22","","48","","","","98.44","","","","","","NA"
"-55.38","46.92","ST LAWRENCE","8403619","2018-01-06 08:30","2018","01","06","08:30","","M","","M","93","","0.0","","23","","42","","","","98.53","","","","","","NA"
"-55.38","46.92","ST LAWRENCE","8403619","2018-01-06 09:30","2018","01","06","09:30","","M","","M","76","","0.0","","24","","43","","","","98.56","","","","","","NA"
"-55.38","46.92","ST LAWRENCE","8403619","2018-01-06 10:30","2018","01","06","10:30","","M","","M","66","","0.0","","24","","49","","","","98.62","","","","","","NA"
"-55.38","46.92","ST LAWRENCE","8403619","2018-01-06 11:30","2018","01","06","11:30","","M","","M","63","","0.0","","24","","45","","","","98.57","","","","","","NA"
"-55.38","46.92","ST LAWRENCE","8403619","2018-01-06 12:30","2018","01","06","12:30","","M","","M","69","","0.0","","25","","53","","","","98.56","","","","","","NA"
"-55.38","46.92","ST LAWRENCE","8403619","2018-01-06 13:30","2018","01","06","13:30","","M","","M","64","","0.0","","24","","50","","","","98.53","","","","","","NA"
"-55.38","46.92","ST LAWRENCE","8403619","2018-01-06 14:30","2018","01","06","14:30","","M","","M","66","","0.0","","24","","56","","","","98.54","","","","","","NA"
"-55.38","46.92","ST LAWRENCE","8403619","2018-01-06 15:30","2018","01","06","15:30","","M","","M","65","","0.0","","24","","64","","","","98.60","","","","","","NA"
"-55.38","46.92","ST LAWRENCE","8403619","2018-01-06 16:30","2018","01","06","16:30","","M","","M","66","","0.0","","24","","63","","","","98.66","","","","","","NA"
"-55.38","46.92","ST LAWRENCE","8403619","2018-01-06 17:30","2018","01","06","17:30","","M","","M","63","","0.0","","24","","65","","","","98.63","","","","","","NA"
"-55.38","46.92","ST LAWRENCE","8403619","2018-01-06 18:30","2018","01","06","18:30","","M","","M","74","","0.0","","24","","60","","","","98.74","","","","","","NA"
"-55.38","46.92","ST LAWRENCE","8403619","2018-01-06 19:30","2018","01","06","19:30","","M","","M","75","","0.0","","24","","68","","","","98.78","","","","","","NA"
"-55.38","46.92","ST LAWRENCE","8403619","2018-01-06 20:30","2018","01","06","20:30","","M","","M","93","","0.0","","25","","59","","","","98.85","","","","","","NA"
"-55.38","46.92","ST LAWRENCE","8403619","2018-01-06 21:30","2018","01","06","21:30","","M","","M","95","","0.0","","25","","55","","","","98.92","","","","","","NA"
"-55.38","46.92","ST LAWRENCE","8403619","2018-01-06 22:30","2018","01","06","22:30","","M","","M","91","","0.0","","26","","50","","","","99.01","","","","","","NA"
"-55.38","46.92","ST LAWRENCE","8403619","2018-01-06 23:30","2018","01","06","23:30","","M","","M","87","","0.0","","25","","55","","","","99.06","","","","","","NA"
"-55.38","46.92","ST LAWRENCE","8403619","2018-01-07 00:30","2018","01","07","00:30","","M","","M","93","","0.0","","25","","47","","","","99.11","","","","","","NA"
"-55.38","46.92","ST LAWRENCE","8403619","2018-01-07 01:30","2018","01","07","01:30","","M","","M","94","","0.0","","25","","48","","","","99.12","","","","","","NA"
"-55.38","46.92","ST LAWRENCE","8403619","2018-01-07 02:30","2018","01","07","02:30","","M","","M","86","","0.0","","26","","51","","","","99.18","","","","","","NA"
"-55.38","46.92","ST LAWRENCE","8403619","2018-01-07 03:30","2018","01","07","03:30","","M","","M","88","","0.0","","26","","40","","","","99.22","","","","","","NA"
"-55.38","46.92","ST LAWRENCE","8403619","2018-01-07 04:30","2018","01","07","04:30","","M","","M","74","","0.0","","25","","44","","","","99.24","","","","","","NA"
"-55.38","46.92","ST LAWRENCE","8403619","2018-01-07 05:30","2018","01","07","05:30","","M","","M","74","","0.0","","25","","43","","","","99.26","","","","","","NA"
"-55.38","46.92","ST LAWRENCE","8403619","2018-01-07 06:30","2018","01","07","06:30","","M","","M","79","","0.0","","24","","41","","","","99.34","","","","","","NA"
"-55.38","46.92","ST LAWRENCE","8403619","2018-01-07 07:30","2018","01","07","07:30","","M","","M","87","","0.0","","25","","39","","","","99.38","","","","","","NA"
"-55.38","46.92","ST LAWRENCE","8403619","2018-01-07 08:30","2018","01","07","08:30","","M","","M","91","","0.0","","26","","37","","","","99.37","","","","","","NA"
"-55.38","46.92","ST LAWRENCE","8403619","2018-01-07 09:30","2018","01","07","09:30","","M","","M","77","","0.0","","25","","44","","","","99.41","","","","","","NA"
"-55.38","46.92","ST LAWRENCE","8403619","2018-01-07 10:30","2018","01","07","10:30","","M","","M","75","","0.0","","26","","46","","","","99.46","","","","","","NA"
"-55.38","46.92","ST LAWRENCE","8403619","2018-01-07 11:30","2018","01","07","11:30","","M","","M","95","","0.0","","25","","44","","","","99.46","","","","","","NA"
"-55.38","46.92","ST LAWRENCE","8403619","2018-01-07 12:30","2018","01","07","12:30","","M","","M","76","","0.0","","27","","38","","","","99.43","","","","","","NA"
"-55.38","46.92","ST LAWRENCE","8403619","2018-01-07 13:30","2018","01","07","13:30","","M","","M","94","","0.0","","27","","44","","","","99.41","","","","","","NA"
"-55.38","46.92","ST LAWRENCE","8403619","2018-01-07 14:30","2018","01","07","14:30","","M","","M","83","","0.0","","26","","41","","","","99.43","","","","","","NA"
"-55.38","46.92","ST LAWRENCE","8403619","2018-01-07 15:30","2018","01","07","15:30","","M","","M","81","","0.0","","27","","42","","","","99.48","","","","","","NA"
"-55.38","46.92","ST LAWRENCE","8403619","2018-01-07 16:30","2018","01","07","16:30","","M","","M","73","","0.0","","27","","37","","","","99.49","","","","","","NA"
"-55.38","46.92","ST LAWRENCE","8403619","2018-01-07 17:30","2018","01","07","17:30","","M","","M","78","","0.0","","26","","39","","","","99.53","","","","","","NA"
"-55.38","46.92","ST LAWRENCE","8403619","2018-01-07 18:30","2018","01","07","18:30","","M","","M","90","","0.0","","26","","44","","","","99.57","","","","","","NA"
"-55.38","46.92","ST LAWRENCE","8403619","2018-01-07 19:30","2018","01","07","19:30","","M","","M","91","","0.0","","26","","43","","","","99.63","","","","","","NA"
"-55.38","46.92","ST LAWRENCE","8403619","2018-01-07 20:30","2018","01","07","20:30","","M","","M","92","","0.0","","26","","54","","","","99.63","","","","","","NA"
"-55.38","46.92","ST LAWRENCE","8403619","2018-01-07 21:30","2018","01","07","21:30","","M","","M","97","","0.0","","27","","44","","","","99.72","","","","","","NA"
"-55.38","46.92","ST LAWRENCE","8403619","2018-01-07 22:30","2018","01","07","22:30","","M","","M","95","","0.0","","27","","55","","","","99.81","","","","","","NA"
"-55.38","46.92","ST LAWRENCE","8403619","2018-01-07 23:30","2018","01","07","23:30","","M","","M","85","","0.0","","27","","55","","","","99.88","","","","","","NA"
"-55.38","46.92","ST LAWRENCE","8403619","2018-01-08 00:30","2018","01","08","00:30","","M","","M","73","","0.0","","28","","56","","","","99.99","","","","","","NA"
"-55.38","46.92","ST LAWRENCE","8403619","2018-01-08 01:30","2018","01","08","01:30","","M","","M","70","","0.0","","27","","53","","","","100.09","","","","","","NA"
"-55.38","46.92","ST LAWRENCE","8403619","2018-01-08 02:30","2018","01","08","02:30","","M","","M","91","","0.0","","27","","53","","","","100.19","","","","","","NA"
"-55.38","46.92","ST LAWRENCE","8403619","2018-01-08 03:30","2018","01","08","03:30","","M","","M","69","","0.0","","27","","58","","","","100.32","","","","","","NA"
"-55.38","46.92","ST LAWRENCE","8403619","2018-01-08 04:30","2018","01","08","04:30","","M","","M","82","","0.0","","26","","58","","","","100.34","","","","","","NA"
"-55.38","46.92","ST LAWRENCE","8403619","2018-01-08 05:30","2018","01","08","05:30","","M","","M","87","","0.0","","27","","50","","","","100.44","","","","","","NA"
"-55.38","46.92","ST LAWRENCE","8403619","2018-01-08 06:30","2018","01","08","06:30","","M","","M","76","","0.0","","27","","51","","","","100.60","","","","","","NA"
"-55.38","46.92","ST LAWRENCE","8403619","2018-01-08 07:30","2018","01","08","07:30","","M","","M","95","","0.0","","27","","47","","","","100.64","","","","","","NA"
"-55.38","46.92","ST LAWRENCE","8403619","2018-01-08 08:30","2018","01","08","08:30","","M","","M","86","","0.0","","26","","47","","","","100.66","","","","","","NA"
"-55.38","46.92","ST LAWRENCE","8403619","2018-01-08 09:30","2018","01","08","09:30","","M","","M","95","","0.0","","26","","43","","","","100.74","","","","","","NA"
"-55.38","46.92","ST LAWRENCE","8403619","2018-01-08 10:30","2018","01","08","10:30","","M","","M","90","","0.0","","26","","48","","","","100.73","","","","","","NA"
"-55.38","46.92","ST LAWRENCE","8403619","2018-01-08 11:30","2018","01","08","11:30","","M","","M","80","","0.0","","26","","45","","","","100.68","","","","","","NA"
"-55.38","46.92","ST LAWRENCE","8403619","2018-01-08 12:30","2018","01","08","12:30","","M","","M","86","","0.0","","26","","41","","","","100.58","","","","","","NA"
"-55.38","46.92","ST LAWRENCE","8403619","2018-01-08 13:30","2018","01","08","13:30","","M","","M","95","","0.0","","26","","39","","","","100.56","","","","","","NA"
"-55.38","46.92","ST LAWRENCE","8403619","2018-01-08 14:30","2018","01","08","14:30","","M","","M","90","","0.0","","27","","36","","","","100.58","","","","","","NA"
"-55.38","46.92","ST LAWRENCE","8403619","2018-01-08 15:30","2018","01","08","15:30","","M","","M","94","","0.0","","27","","32","","","","100.59","","","","","","NA"
"-55.38","46.92","ST LAWRENCE","8403619","2018-01-08 16:30","2018","01","08","16:30","","M","","M","86","","0.0","","27","","35","","","","100.58","","","","","","NA"
"-55.38","46.92","ST LAWRENCE","8403619","2018-01-08 17:30","2018","01","08","17:30","","M","","M","76","","0.0","","27","","25","","","","100.71","","","","","","NA"
"-55.38","46.92","ST LAWRENCE","8403619","2018-01-08 18:30","2018","01","08","18:30","","M","","M","80","","0.0","","28","","28","","","","100.74","","","","","","NA"
"-55.38","46.92","ST LAWRENCE","8403619","2018-01-08 19:30","2018","01","08","19:30","","M","","M","72","","0.0","","27","","24","","","","100.83","","","","","","NA"
"-55.38","46.92","ST LAWRENCE","8403619","2018-01-08 20:30","2018","01","08","20:30","","M","","M","73","","0.0","","28","","22","","","","100.92","","","","","","NA"
"-55.38","46.92","ST LAWRENCE","8403619","2018-01-08 21:30","2018","01","08","21:30","","M","","M","74","","0.0","","28","","22","","","","100.98","","","","","","NA"
"-55.38","46.92","ST LAWRENCE","8403619","2018-01-08 22:30","2018","01","08","22:30","","M","","M","76","","0.0","","27","","21","","","","101.06","","","","","","NA"
"-55.38","46.92","ST LAWRENCE","8403619","2018-01-08 23:30","2018","01","08","23:30","","M","","M","79","","0.0","","27","","11","","","","101.07","","","","","","NA"
"-55.38","46.92","ST LAWRENCE","8403619","2018-01-09 00:30","2018","01","09","00:30","","M","","M","80","","0.0","","26","","19","","","","101.03","","","","","","NA"
"-55.38","46.92","ST LAWRENCE","8403619","2018-01-09 01:30","2018","01","09","01:30","","M","","M","81","","0.0","","26","","19","","","","101.02","","","","","","NA"
"-55.38","46.92","ST LAWRENCE","8403619","2018-01-09 02:30","2018","01","09","02:30","","M","","M","79","","0.0","","27","","13","","","","101.07","","","","","","NA"
"-55.38","46.92","ST LAWRENCE","8403619","2018-01-09 03:30","2018","01","09","03:30","","M","","M","81","","0.0","","29","","10","","","","101.08","","","","","","NA"
"-55.38","46.92","ST LAWRENCE","8403619","2018-01-09 04:30","2018","01","09","04:30","","M","","M","82","","0.0","","24","","9","","","","101.01","","","","","","NA"
"-55.38","46.92","ST LAWRENCE","8403619","2018-01-09 05:30","2018","01","09","05:30","","M","","M","89","","0.0","","22","","14","","","","100.92","","","","","","NA"
"-55.38","46.92","ST LAWRENCE","8403619","2018-01-09 06:30","2018","01","09","06:30","","M","","M","94","","0.0","","20","","17","","","","100.84","","","","","","NA"
"-55.38","46.92","ST LAWRENCE","8403619","2018-01-09 07:30","2018","01","09","07:30","","M","","M","96","","0.0","","17","","13","","","","100.69","","","","","","NA"
"-55.38","46.92","ST LAWRENCE","8403619","2018-01-09 08:30","2018","01","09","08:30","","M","","M","98","","0.2","","15","","17","","","","100.58","","","","","","NA"
"-55.38","46.92","ST LAWRENCE","8403619","2018-01-09 09:30","2018","01","09","09:30","","M","","M","100","","0.7","","16","","26","","","","100.44","","","","","","NA"
"-55.38","46.92","ST LAWRENCE","8403619","2018-01-09 10:30","2018","01","09","10:30","","M","","M","","M","2.0","","14","","29","","","","100.24","","","","","","NA"
"-55.38","46.92","ST LAWRENCE","8403619","2018-01-09 11:30","2018","01","09","11:30","","M","","M","","M","1.6","","15","","29","","","","99.99","","","","","","NA"
"-55.38","46.92","ST LAWRENCE","8403619","2018-01-09 12:30","2018","01","09","12:30","","M","","M","","M","2.0","","15","","42","","","","99.70","","","","","","NA"
"-55.38","46.92","ST LAWRENCE","8403619","2018-01-09 13:30","2018","01","09","13:30","","M","","M","","M","1.2","","22","","34","","","","99.53","","","","","","NA"
"-55.38","46.92","ST LAWRENCE","8403619","2018-01-09 14:30","2018","01","09","14:30","","M","","M","","M","0.4","","23","","29","","","","99.43","","","","","","NA"
"-55.38","46.92","ST LAWRENCE","8403619","2018-01-09 15:30","2018","01","09","15:30","","M","","M","","M","0.0","","25","","32","","","","99.41","","","","","","NA"
"-55.38","46.92","ST LAWRENCE","8403619","2018-01-09 16:30","2018","01","09","16:30","","M","","M","","M","0.0","","26","","25","","","","99.36","","","","","","NA"
"-55.38","46.92","ST LAWRENCE","8403619","2018-01-09 17:30","2018","01","09","17:30","","M","","M","","M","0.0","","26","","23","","","","99.35","","","","","","NA"
"-55.38","46.92","ST LAWRENCE","8403619","2018-01-09 18:30","2018","01","09","18:30","","M","","M","","M","0.0","","26","","27","","","","99.31","","","","","","NA"
"-55.38","46.92","ST LAWRENCE","8403619","2018-01-09 19:30","2018","01","09","19:30","","M","","M","","M","0.0","","27","","29","","","","99.31","","","","","","NA"
"-55.38","46.92","ST LAWRENCE","8403619","2018-01-09 20:30","2018","01","09","20:30","","M","","M","","M","0.0","","27","","23","","","","99.26","","","","","","NA"
"-55.38","46.92","ST LAWRENCE","8403619","2018-01-09 21:30","2018","01","09","21:30","","M","","M","","M","0.0","","26","","33","","","","99.27","","","","","","NA"
"-55.38","46.92","ST LAWRENCE","8403619","2018-01-09 22:30","2018","01","09","22:30","","M","","M","","M","0.0","","27","","31","","","","99.25","","","","","","NA"
"-55.38","46.92","ST LAWRENCE","8403619","2018-01-09 23:30","2018","01","09","23:30","","M","","M","","M","0.0","","26","","32","","","","99.21","","","","","","NA"
"-55.38","46.92","ST LAWRENCE","8403619","2018-01-10 00:30","2018","01","10","00:30","","M","","M","","M","0.0","","27","","30","","","","99.13","","","","","","NA"
"-55.38","46.92","ST LAWRENCE","8403619","2018-01-10 01:30","2018","01","10","01:30","","M","","M","100","","0.0","","27","","40","","","","99.10","","","","","","NA"
"-55.38","46.92","ST LAWRENCE","8403619","2018-01-10 02:30","2018","01","10","02:30","","M","","M","","M","0.0","","27","","39","","","","99.13","","","","","","NA"
"-55.38","46.92","ST LAWRENCE","8403619","2018-01-10 03:30","2018","01","10","03:30","","M","","M","100","","0.0","","26","","38","","","","99.14","","","","","","NA"
"-55.38","46.92","ST LAWRENCE","8403619","2018-01-10 04:30","2018","01","10","04:30","","M","","M","","M","0.0","","26","","39","","","","99.10","","","","","","NA"
"-55.38","46.92","ST LAWRENCE","8403619","2018-01-10 05:30","2018","01","10","05:30","","M","","M","97","","0.0","","29","","28","","","","99.23","","","","","","NA"
"-55.38","46.92","ST LAWRENCE","8403619","2018-01-10 06:30","2018","01","10","06:30","","M","","M","86","","0.0","","29","","33","","","","99.37","","","","","","NA"
"-55.38","46.92","ST LAWRENCE","8403619","2018-01-10 07:30","2018","01","10","07:30","","M","","M","76","","0.0","","28","","41","","","","99.44","","","","","","NA"
"-55.38","46.92","ST LAWRENCE","8403619","2018-01-10 08:30","2018","01","10","08:30","","M","","M","82","","0.0","","29","","37","","","","99.53","","","","","","NA"
"-55.38","46.92","ST LAWRENCE","8403619","2018-01-10 09:30","2018","01","10","09:30","","M","","M","78","","0.0","","29","","29","","","","99.62","","","","","","NA"
"-55.38","46.92","ST LAWRENCE","8403619","2018-01-10 10:30","2018","01","10","10:30","","M","","M","93","","0.0","","29","","29","","","","99.69","","","","","","NA"
"-55.38","46.92","ST LAWRENCE","8403619","2018-01-10 11:30","2018","01","10","11:30","","M","","M","67","","0.0","","29","","39","","","","99.74","","","","","","NA"
"-55.38","46.92","ST LAWRENCE","8403619","2018-01-10 12:30","2018","01","10","12:30","","M","","M","64","","0.0","","28","","53","","","","99.73","","","","","","NA"
"-55.38","46.92","ST LAWRENCE","8403619","2018-01-10 13:30","2018","01","10","13:30","","M","","M","64","","0.0","","29","","50","","","","99.79","","","","","","NA"
"-55.38","46.92","ST LAWRENCE","8403619","2018-01-10 14:30","2018","01","10","14:30","","M","","M","63","","0.0","","29","","47","","","","99.91","","","","","","NA"
"-55.38","46.92","ST LAWRENCE","8403619","2018-01-10 15:30","2018","01","10","15:30","","M","","M","66","","0.0","","29","","42","","","","100.03","","","","","","NA"
"-55.38","46.92","ST LAWRENCE","8403619","2018-01-10 16:30","2018","01","10","16:30","","M","","M","71","","0.0","","29","","35","","","","100.22","","","","","","NA"
"-55.38","46.92","ST LAWRENCE","8403619","2018-01-10 17:30","2018","01","10","17:30","","M","","M","69","","0.0","","29","","36","","","","100.41","","","","","","NA"
"-55.38","46.92","ST LAWRENCE","8403619","2018-01-10 18:30","2018","01","10","18:30","","M","","M","70","","0.0","","30","","36","","","","100.63","","","","","","NA"
"-55.38","46.92","ST LAWRENCE","8403619","2018-01-10 19:30","2018","01","10","19:30","","M","","M","72","","0.0","","31","","34","","","","100.83","","","","","","NA"
"-55.38","46.92","ST LAWRENCE","8403619","2018-01-10 20:30","2018","01","10","20:30","","M","","M","74","","0.0","","30","","37","","","","100.88","","","","","","NA"
"-55.38","46.92","ST LAWRENCE","8403619","2018-01-10 21:30","2018","01","10","21:30","","M","","M","77","","0.0","","30","","26","","","","101.10","","","","","","NA"
"-55.38","46.92","ST LAWRENCE","8403619","2018-01-10 22:30","2018","01","10","22:30","","M","","M","76","","0.0","","30","","32","","","","101.24","","","","","","NA"
"-55.38","46.92","ST LAWRENCE","8403619","2018-01-10 23:30","2018","01","10","23:30","","M","","M","78","","0.0","","30","","29","","","","101.34","","","","","","NA"
"-55.38","46.92","ST LAWRENCE","8403619","2018-01-11 00:30","2018","01","11","00:30","","M","","M","78","","0.0","","30","","23","","","","101.45","","","","","","NA"
"-55.38","46.92","ST LAWRENCE","8403619","2018-01-11 01:30","2018","01","11","01:30","","M","","M","83","","0.0","","28","","14","","","","101.60","","","","","","NA"
"-55.38","46.92","ST LAWRENCE","8403619","2018-01-11 02:30","2018","01","11","02:30","","M","","M","85","","0.0","","29","","16","","","","101.70","","","","","","NA"
"-55.38","46.92","ST LAWRENCE","8403619","2018-01-11 03:30","2018","01","11","03:30","","M","","M","82","","0.0","","28","","22","","","","101.82","","","","","","NA"
"-55.38","46.92","ST LAWRENCE","8403619","2018-01-11 04:30","2018","01","11","04:30","","M","","M","84","","0.0","","28","","18","","","","101.89","","","","","","NA"
"-55.38","46.92","ST LAWRENCE","8403619","2018-01-11 05:30","2018","01","11","05:30","","M","","M","87","","0.0","","29","","11","","","","101.98","","","","","","NA"
"-55.38","46.92","ST LAWRENCE","8403619","2018-01-11 06:30","2018","01","11","06:30","","M","","M","91","","0.0","","28","","9","","","","102.06","","","","","","NA"
"-55.38","46.92","ST LAWRENCE","8403619","2018-01-11 07:30","2018","01","11","07:30","","M","","M","89","","0.0","","28","","16","","","","102.13","","","","","","NA"
"-55.38","46.92","ST LAWRENCE","8403619","2018-01-11 08:30","2018","01","11","08:30","","M","","M","90","","0.0","","28","","14","","","","102.14","","","","","","NA"
"-55.38","46.92","ST LAWRENCE","8403619","2018-01-11 09:30","2018","01","11","09:30","","M","","M","82","","0.0","","27","","22","","","","102.13","","","","","","NA"
"-55.38","46.92","ST LAWRENCE","8403619","2018-01-11 10:30","2018","01","11","10:30","","M","","M","83","","0.0","","26","","23","","","","102.12","","","","","","NA"
"-55.38","46.92","ST LAWRENCE","8403619","2018-01-11 11:30","2018","01","11","11:30","","M","","M","82","","0.0","","25","","26","","","","102.03","","","","","","NA"
"-55.38","46.92","ST LAWRENCE","8403619","2018-01-11 12:30","2018","01","11","12:30","","M","","M","80","","0.0","","24","","29","","","","101.97","","","","","","NA"
"-55.38","46.92","ST LAWRENCE","8403619","2018-01-11 13:30","2018","01","11","13:30","","M","","M","81","","0.0","","23","","29","","","","101.80","","","","","","NA"
"-55.38","46.92","ST LAWRENCE","8403619","2018-01-11 14:30","2018","01","11","14:30","","M","","M","86","","0.0","","23","","26","","","","101.77","","","","","","NA"
"-55.38","46.92","ST LAWRENCE","8403619","2018-01-11 15:30","2018","01","11","15:30","","M","","M","96","","0.0","","23","","28","","","","101.74","","","","","","NA"
"-55.38","46.92","ST LAWRENCE","8403619","2018-01-11 16:30","2018","01","11","16:30","","M","","M","100","","0.0","","22","","22","","","","101.67","","","","","","NA"
"-55.38","46.92","ST LAWRENCE","8403619","2018-01-11 17:30","2018","01","11","17:30","","M","","M","","M","0.0","","22","","32","","","","101.56","","","","","","NA"
"-55.38","46.92","ST LAWRENCE","8403619","2018-01-11 18:30","2018","01","11","18:30","","M","","M","","M","0.0","","22","","35","","","","101.50","","","","","","NA"
"-55.38","46.92","ST LAWRENCE","8403619","2018-01-11 19:30","2018","01","11","19:30","","M","","M","","M","0.0","","24","","34","","","","101.42","","","","","","NA"
"-55.38","46.92","ST LAWRENCE","8403619","2018-01-11 20:30","2018","01","11","20:30","","M","","M","","M","0.0","","25","","30","","","","101.41","","","","","","NA"
"-55.38","46.92","ST LAWRENCE","8403619","2018-01-11 21:30","2018","01","11","21:30","","M","","M","","M","0.0","","25","","19","","","","101.43","","","","","","NA"
"-55.38","46.92","ST LAWRENCE","8403619","2018-01-11 22:30","2018","01","11","22:30","","M","","M","","M","0.0","","25","","19","","","","101.45","","","","","","NA"
"-55.38","46.92","ST LAWRENCE","8403619","2018-01-11 23:30","2018","01","11","23:30","","M","","M","","M","0.0","","25","","15","","","","101.43","","","","","","NA"
"-55.38","46.92","ST LAWRENCE","8403619","2018-01-12 00:30","2018","01","12","00:30","","M","","M","","M","0.0","","23","","14","","","","101.41","","","","","","NA"
"-55.38","46.92","ST LAWRENCE","8403619","2018-01-12 01:30","2018","01","12","01:30","","M","","M","","M","0.0","","23","","15","","","","101.33","","","","","","NA"
"-55.38","46.92","ST LAWRENCE","8403619","2018-01-12 02:30","2018","01","12","02:30","","M","","M","","M","0.0","","25","","24","","","","101.35","","","","","","NA"
"-55.38","46.92","ST LAWRENCE","8403619","2018-01-12 03:30","2018","01","12","03:30","","M","","M","","M","0.0","","25","","26","","","","101.34","","","","","","NA"
"-55.38","46.92","ST LAWRENCE","8403619","2018-01-12 04:30","2018","01","12","04:30","","M","","M","","M","0.0","","24","","27","","","","101.28","","","","","","NA"
"-55.38","46.92","ST LAWRENCE","8403619","2018-01-12 05:30","2018","01","12","05:30","","M","","M","","M","0.0","","26","","39","","","","101.34","","","","","","NA"
"-55.38","46.92","ST LAWRENCE","8403619","2018-01-12 06:30","2018","01","12","06:30","","M","","M","","M","0.0","","25","","35","","","","101.36","","","","","","NA"
"-55.38","46.92","ST LAWRENCE","8403619","2018-01-12 07:30","2018","01","12","07:30","","M","","M","","M","0.0","","26","","30","","","","101.46","","","","","","NA"
"-55.38","46.92","ST LAWRENCE","8403619","2018-01-12 08:30","2018","01","12","08:30","","M","","M","","M","0.0","","25","","18","","","","101.54","","","","","","NA"
"-55.38","46.92","ST LAWRENCE","8403619","2018-01-12 09:30","2018","01","12","09:30","","M","","M","","M","0.0","","26","","31","","","","101.56","","","","","","NA"
"-55.38","46.92","ST LAWRENCE","8403619","2018-01-12 10:30","2018","01","12","10:30","","M","","M","","M","0.0","","25","","35","","","","101.56","","","","","","NA"
"-55.38","46.92","ST LAWRENCE","8403619","2018-01-12 11:30","2018","01","12","11:30","","M","","M","","M","0.0","","25","","31","","","","101.55","","","","","","NA"
"-55.38","46.92","ST LAWRENCE","8403619","2018-01-12 12:30","2018","01","12","12:30","","M","","M","","M","0.0","","24","","34","","","","101.50","","","","","","NA"
"-55.38","46.92","ST LAWRENCE","8403619","2018-01-12 13:30","2018","01","12","13:30","","M","","M","","M","0.0","","24","","38","","","","101.40","","","","","","NA"
"-55.38","46.92","ST LAWRENCE","8403619","2018-01-12 14:30","2018","01","12","14:30","","M","","M","","M","0.0","","24","","31","","","","101.46","","","","","","NA"
"-55.38","46.92","ST LAWRENCE","8403619","2018-01-12 15:30","2018","01","12","15:30","","M","","M","","M","0.0","","24","","32","","","","101.48","","","","","","NA"
"-55.38","46.92","ST LAWRENCE","8403619","2018-01-12 16:30","2018","01","12","16:30","","M","","M","","M","0.0","","25","","27","","","","101.51","","","","","","NA"
"-55.38","46.92","ST LAWRENCE","8403619","2018-01-12 17:30","2018","01","12","17:30","","M","","M","","M","0.0","","24","","27","","","","101.52","","","","","","NA"
"-55.38","46.92","ST LAWRENCE","8403619","2018-01-12 18:30","2018","01","12","18:30","","M","","M","","M","0.0","","24","","24","","","","101.52","","","","","","NA"
"-55.38","46.92","ST LAWRENCE","8403619","2018-01-12 19:30","2018","01","12","19:30","","M","","M","","M","0.0","","24","","31","","","","101.51","","","","","","NA"
"-55.38","46.92","ST LAWRENCE","8403619","2018-01-12 20:30","2018","01","12","20:30","","M","","M","","M","0.0","","23","","34","","","","101.51","","","","","","NA"
"-55.38","46.92","ST LAWRENCE","8403619","2018-01-12 21:30","2018","01","12","21:30","","M","","M","","M","0.0","","22","","32","","","","101.49","","","","","","NA"
"-55.38","46.92","ST LAWRENCE","8403619","2018-01-12 22:30","2018","01","12","22:30","","M","","M","","M","0.0","","22","","24","","","","101.46","","","","","","NA"
"-55.38","46.92","ST LAWRENCE","8403619","2018-01-12 23:30","2018","01","12","23:30","","M","","M","","M","0.0","","22","","29","","","","101.40","","","","","","NA"
"-55.38","46.92","ST LAWRENCE","8403619","2018-01-13 00:30","2018","01","13","00:30","","M","","M","","M","0.0","","22","","24","","","","101.34","","","","","","NA"
"-55.38","46.92","ST LAWRENCE","8403619","2018-01-13 01:30","2018","01","13","01:30","","M","","M","","M","0.0","","21","","33","","","","101.27","","","","","","NA"
"-55.38","46.92","ST LAWRENCE","8403619","2018-01-13 02:30","2018","01","13","02:30","","M","","M","","M","0.0","","22","","34","","","","101.26","","","","","","NA"
"-55.38","46.92","ST LAWRENCE","8403619","2018-01-13 03:30","2018","01","13","03:30","","M","","M","","M","0.0","","21","","36","","","","101.24","","","","","","NA"
"-55.38","46.92","ST LAWRENCE","8403619","2018-01-13 04:30","2018","01","13","04:30","","M","","M","","M","0.0","","21","","35","","","","101.18","","","","","","NA"
"-55.38","46.92","ST LAWRENCE","8403619","2018-01-13 05:30","2018","01","13","05:30","","M","","M","","M","0.0","","22","","41","","","","101.14","","","","","","NA"
"-55.38","46.92","ST LAWRENCE","8403619","2018-01-13 06:30","2018","01","13","06:30","","M","","M","","M","0.0","","22","","41","","","","101.11","","","","","","NA"
"-55.38","46.92","ST LAWRENCE","8403619","2018-01-13 07:30","2018","01","13","07:30","","M","","M","","M","0.0","","22","","38","","","","101.13","","","","","","NA"
"-55.38","46.92","ST LAWRENCE","8403619","2018-01-13 08:30","2018","01","13","08:30","","M","","M","","M","0.0","","22","","35","","","","101.14","","","","","","NA"
"-55.38","46.92","ST LAWRENCE","8403619","2018-01-13 09:30","2018","01","13","09:30","","M","","M","","M","0.0","","22","","37","","","","101.16","","","","","","NA"
"-55.38","46.92","ST LAWRENCE","8403619","2018-01-13 10:30","2018","01","13","10:30","","M","","M","","M","0.0","","22","","40","","","","101.14","","","","","","NA"
"-55.38","46.92","ST LAWRENCE","8403619","2018-01-13 11:30","2018","01","13","11:30","","M","","M","","M","0.0","","22","","41","","","","101.06","","","","","","NA"
"-55.38","46.92","ST LAWRENCE","8403619","2018-01-13 12:30","2018","01","13","12:30","","M","","M","","M","0.0","","22","","34","","","","100.96","","","","","","NA"
"-55.38","46.92","ST LAWRENCE","8403619","2018-01-13 13:30","2018","01","13","13:30","","M","","M","","M","0.0","","22","","44","","","","100.85","","","","","","NA"
"-55.38","46.92","ST LAWRENCE","8403619","2018-01-13 14:30","2018","01","13","14:30","","M","","M","","M","0.0","","22","","39","","","","100.88","","","","","","NA"
"-55.38","46.92","ST LAWRENCE","8403619","2018-01-13 15:30","2018","01","13","15:30","","M","","M","","M","0.0","","22","","36","","","","100.90","","","","","","NA"
"-55.38","46.92","ST LAWRENCE","8403619","2018-01-13 16:30","2018","01","13","16:30","","M","","M","","M","0.0","","22","","45","","","","100.85","","","","","","NA"
"-55.38","46.92","ST LAWRENCE","8403619","2018-01-13 17:30","2018","01","13","17:30","","M","","M","","M","0.0","","22","","40","","","","100.86","","","","","","NA"
"-55.38","46.92","ST LAWRENCE","8403619","2018-01-13 18:30","2018","01","13","18:30","","M","","M","","M","0.0","","22","","39","","","","100.81","","","","","","NA"
"-55.38","46.92","ST LAWRENCE","8403619","2018-01-13 19:30","2018","01","13","19:30","","M","","M","","M","0.0","","21","","41","","","","100.81","","","","","","NA"
"-55.38","46.92","ST LAWRENCE","8403619","2018-01-13 20:30","2018","01","13","20:30","","M","","M","","M","0.0","","21","","42","","","","100.76","","","","","","NA"
"-55.38","46.92","ST LAWRENCE","8403619","2018-01-13 21:30","2018","01","13","21:30","","M","","M","","M","0.6","","21","","38","","","","100.80","","","","","","NA"
"-55.38","46.92","ST LAWRENCE","8403619","2018-01-13 22:30","2018","01","13","22:30","","M","","M","","M","0.0","","22","","39","","","","100.78","","","","","","NA"
"-55.38","46.92","ST LAWRENCE","8403619","2018-01-13 23:30","2018","01","13","23:30","","M","","M","","M","0.0","","22","","39","","","","100.75","","","","","","NA"
"-55.38","46.92","ST LAWRENCE","8403619","2018-01-14 00:30","2018","01","14","00:30","","M","","M","","M","1.1","","23","","40","","","","100.81","","","","","","NA"
"-55.38","46.92","ST LAWRENCE","8403619","2018-01-14 01:30","2018","01","14","01:30","","M","","M","","M","0.3","","23","","34","","","","100.82","","","","","","NA"
"-55.38","46.92","ST LAWRENCE","8403619","2018-01-14 02:30","2018","01","14","02:30","","M","","M","","M","0.0","","22","","38","","","","100.84","","","","","","NA"
"-55.38","46.92","ST LAWRENCE","8403619","2018-01-14 03:30","2018","01","14","03:30","","M","","M","","M","0.0","","22","","38","","","","100.86","","","","","","NA"
"-55.38","46.92","ST LAWRENCE","8403619","2018-01-14 04:30","2018","01","14","04:30","","M","","M","","M","0.0","","23","","37","","","","100.93","","","","","","NA"
"-55.38","46.92","ST LAWRENCE","8403619","2018-01-14 05:30","2018","01","14","05:30","","M","","M","","M","0.0","","23","","34","","","","101.10","","","","","","NA"
"-55.38","46.92","ST LAWRENCE","8403619","2018-01-14 06:30","2018","01","14","06:30","","M","","M","","M","0.0","","24","","32","","","","101.10","","","","","","NA"
"-55.38","46.92","ST LAWRENCE","8403619","2018-01-14 07:30","2018","01","14","07:30","","M","","M","","M","0.0","","24","","26","","","","101.25","","","","","","NA"
"-55.38","46.92","ST LAWRENCE","8403619","2018-01-14 08:30","2018","01","14","08:30","","M","","M","","M","0.0","","24","","28","","","","101.34","","","","","","NA"
"-55.38","46.92","ST LAWRENCE","8403619","2018-01-14 09:30","2018","01","14","09:30","","M","","M","","M","0.0","","25","","17","","","","101.46","","","","","","NA"
"-55.38","46.92","ST LAWRENCE","8403619","2018-01-14 10:30","2018","01","14","10:30","","M","","M","","M","0.0","","26","","18","","","","101.54","","","","","","NA"
"-55.38","46.92","ST LAWRENCE","8403619","2018-01-14 11:30","2018","01","14","11:30","","M","","M","","M","0.0","","27","","17","","","","101.58","","","","","","NA"
"-55.38","46.92","ST LAWRENCE","8403619","2018-01-14 12:30","2018","01","14","12:30","","M","","M","","M","0.0","","27","","18","","","","101.56","","","","","","NA"
"-55.38","46.92","ST LAWRENCE","8403619","2018-01-14 13:30","2018","01","14","13:30","","M","","M","","M","0.0","","27","","15","","","","101.54","","","","","","NA"
"-55.38","46.92","ST LAWRENCE","8403619","2018-01-14 14:30","2018","01","14","14:30","","M","","M","","M","0.0","","27","","15","","","","101.60","","","","","","NA"
"-55.38","46.92","ST LAWRENCE","8403619","2018-01-14 15:30","2018","01","14","15:30","","M","","M","","M","0.0","","27","","18","","","","101.68","","","","","","NA"
"-55.38","46.92","ST LAWRENCE","8403619","2018-01-14 16:30","2018","01","14","16:30","","M","","M","","M","0.0","","28","","12","","","","101.75","","","","","","NA"
"-55.38","46.92","ST LAWRENCE","8403619","2018-01-14 17:30","2018","01","14","17:30","","M","","M","","M","0.0","","26","","8","","","","101.83","","","","","","NA"
"-55.38","46.92","ST LAWRENCE","8403619","2018-01-14 18:30","2018","01","14","18:30","","M","","M","","M","0.0","","25","","5","","","","101.92","","","","","","NA"
"-55.38","46.92","ST LAWRENCE","8403619","2018-01-14 19:30","2018","01","14","19:30","","M","","M","","M","0.0","","29","","7","","","","102.06","","","","","","NA"
"-55.38","46.92","ST LAWRENCE","8403619","2018-01-14 20:30","2018","01","14","20:30","","M","","M","","M","0.0","","28","","14","","","","102.19","","","","","","NA"
"-55.38","46.92","ST LAWRENCE","8403619","2018-01-14 21:30","2018","01","14","21:30","","M","","M","","M","0.0","","28","","16","","","","102.29","","","","","","NA"
"-55.38","46.92","ST LAWRENCE","8403619","2018-01-14 22:30","2018","01","14","22:30","","M","","M","","M","0.0","","31","","11","","","","102.29","","","","","","NA"
"-55.38","46.92","ST LAWRENCE","8403619","2018-01-14 23:30","2018","01","14","23:30","","M","","M","","M","0.0","","33","","13","","","","102.38","","","","","","NA"
"-55.38","46.92","ST LAWRENCE","8403619","2018-01-15 00:30","2018","01","15","00:30","","M","","M","","M","0.0","","34","","12","","","","102.39","","","","","","NA"
"-55.38","46.92","ST LAWRENCE","8403619","2018-01-15 01:30","2018","01","15","01:30","","M","","M","","M","0.0","","35","","21","","","","102.51","","","","","","NA"
"-55.38","46.92","ST LAWRENCE","8403619","2018-01-15 02:30","2018","01","15","02:30","","M","","M","","M","0.0","","35","","19","","","","102.58","","","","","","NA"
"-55.38","46.92","ST LAWRENCE","8403619","2018-01-15 03:30","2018","01","15","03:30","","M","","M","","M","0.0","","35","","18","","","","102.73","","","","","","NA"
"-55.38","46.92","ST LAWRENCE","8403619","2018-01-15 04:30","2018","01","15","04:30","","M","","M","","M","0.0","","35","","19","","","","102.81","","","","","","NA"
"-55.38","46.92","ST LAWRENCE","8403619","2018-01-15 05:30","2018","01","15","05:30","","M","","M","","M","0.0","","1","","15","","","","102.92","","","","","","NA"
"-55.38","46.92","ST LAWRENCE","8403619","2018-01-15 06:30","2018","01","15","06:30","","M","","M","","M","0.0","","1","","17","","","","103.05","","","","","","NA"
"-55.38","46.92","ST LAWRENCE","8403619","2018-01-15 07:30","2018","01","15","07:30","","M","","M","","M","0.0","","36","","16","","","","103.17","","","","","","NA"
"-55.38","46.92","ST LAWRENCE","8403619","2018-01-15 08:30","2018","01","15","08:30","","M","","M","","M","0.0","","1","","13","","","","103.16","","","","","","NA"
"-55.38","46.92","ST LAWRENCE","8403619","2018-01-15 09:30","2018","01","15","09:30","","M","","M","100","","0.0","","1","","16","","","","103.34","","","","","","NA"
"-55.38","46.92","ST LAWRENCE","8403619","2018-01-15 10:30","2018","01","15","10:30","","M","","M","99","","0.0","","3","","15","","","","103.37","","","","","","NA"
"-55.38","46.92","ST LAWRENCE","8403619","2018-01-15 11:30","2018","01","15","11:30","","M","","M","98","","0.0","","5","","18","","","","103.41","","","","","","NA"
"-55.38","46.92","ST LAWRENCE","8403619","2018-01-15 12:30","2018","01","15","12:30","","M","","M","91","","0.0","","3","","17","","","","103.37","","","","","","NA"
"-55.38","46.92","ST LAWRENCE","8403619","2018-01-15 13:30","2018","01","15","13:30","","M","","M","89","","0.0","","3","","11","","","","103.34","","","","","","NA"
"-55.38","46.92","ST LAWRENCE","8403619","2018-01-15 14:30","2018","01","15","14:30","","M","","M","92","","0.0","","5","","20","","","","103.35","","","","","","NA"
"-55.38","46.92","ST LAWRENCE","8403619","2018-01-15 15:30","2018","01","15","15:30","","M","","M","93","","0.0","","5","","24","","","","103.34","","","","","","NA"
"-55.38","46.92","ST LAWRENCE","8403619","2018-01-15 16:30","2018","01","15","16:30","","M","","M","95","","0.0","","6","","23","","","","103.35","","","","","","NA"
"-55.38","46.92","ST LAWRENCE","8403619","2018-01-15 17:30","2018","01","15","17:30","","M","","M","97","","0.0","","6","","19","","","","103.37","","","","","","NA"
"-55.38","46.92","ST LAWRENCE","8403619","2018-01-15 18:30","2018","01","15","18:30","","M","","M","94","","0.0","","6","","22","","","","103.33","","","","","","NA"
"-55.38","46.92","ST LAWRENCE","8403619","2018-01-15 19:30","2018","01","15","19:30","","M","","M","95","","0.0","","7","","24","","","","103.35","","","","","","NA"
"-55.38","46.92","ST LAWRENCE","8403619","2018-01-15 20:30","2018","01","15","20:30","","M","","M","94","","0.0","","7","","26","","","","103.26","","","","","","NA"
"-55.38","46.92","ST LAWRENCE","8403619","2018-01-15 21:30","2018","01","15","21:30","","M","","M","96","","0.0","","7","","28","","","","103.23","","","","","","NA"
"-55.38","46.92","ST LAWRENCE","8403619","2018-01-15 22:30","2018","01","15","22:30","","M","","M","100","","0.0","","6","","24","","","","103.20","","","","","","NA"
"-55.38","46.92","ST LAWRENCE","8403619","2018-01-15 23:30","2018","01","15","23:30","","M","","M","","M","0.9","","7","","26","","","","103.11","","","","","","NA"
"-55.38","46.92","ST LAWRENCE","8403619","2018-01-16 00:30","2018","01","16","00:30","","M","","M","","M","0.2","","7","","37","","","","102.74","","","","","","NA"
"-55.38","46.92","ST LAWRENCE","8403619","2018-01-16 01:30","2018","01","16","01:30","","M","","M","","M","0.3","","7","","36","","","","102.58","","","","","","NA"
"-55.38","46.92","ST LAWRENCE","8403619","2018-01-16 02:30","2018","01","16","02:30","","M","","M","","M","1.0","","6","","32","","","","102.37","","","","","","NA"
"-55.38","46.92","ST LAWRENCE","8403619","2018-01-16 03:30","2018","01","16","03:30","","M","","M","","M","2.3","","6","","34","","","","102.14","","","","","","NA"
"-55.38","46.92","ST LAWRENCE","8403619","2018-01-16 04:30","2018","01","16","04:30","","M","","M","","M","3.1","","6","","36","","","","102.10","","","","","","NA"
"-55.38","46.92","ST LAWRENCE","8403619","2018-01-16 05:30","2018","01","16","05:30","","M","","M","","M","3.5","","6","","40","","","","101.81","","","","","","NA"
"-55.38","46.92","ST LAWRENCE","8403619","2018-01-16 06:30","2018","01","16","06:30","","M","","M","","M","4.4","","6","","41","","","","101.63","","","","","","NA"
"-55.38","46.92","ST LAWRENCE","8403619","2018-01-16 07:30","2018","01","16","07:30","","M","","M","","M","4.1","","5","","40","","","","101.37","","","","","","NA"
"-55.38","46.92","ST LAWRENCE","8403619","2018-01-16 08:30","2018","01","16","08:30","","M","","M","","M","1.4","","5","","48","","","","101.17","","","","","","NA"
"-55.38","46.92","ST LAWRENCE","8403619","2018-01-16 09:30","2018","01","16","09:30","","M","","M","","M","1.3","","5","","45","","","","101.10","","","","","","NA"
"-55.38","46.92","ST LAWRENCE","8403619","2018-01-16 10:30","2018","01","16","10:30","","M","","M","","M","1.2","","3","","36","","","","101.10","","","","","","NA"
"-55.38","46.92","ST LAWRENCE","8403619","2018-01-16 11:30","2018","01","16","11:30","","M","","M","","M","0.3","","4","","42","","","","100.92","","","","","","NA"
"-55.38","46.92","ST LAWRENCE","8403619","2018-01-16 12:30","2018","01","16","12:30","","M","","M","","M","0.0","","2","","33","","","","101.06","","","","","","NA"
"-55.38","46.92","ST LAWRENCE","8403619","2018-01-16 13:30","2018","01","16","13:30","","M","","M","","M","0.0","","1","","29","","","","101.19","","","","","","NA"
"-55.38","46.92","ST LAWRENCE","8403619","2018-01-16 14:30","2018","01","16","14:30","","M","","M","98","","0.0","","2","","33","","","","101.04","","","","","","NA"
"-55.38","46.92","ST LAWRENCE","8403619","2018-01-16 15:30","2018","01","16","15:30","","M","","M","90","","0.0","","3","","20","","","","101.24","","","","","","NA"
"-55.38","46.92","ST LAWRENCE","8403619","2018-01-16 16:30","2018","01","16","16:30","","M","","M","89","","0.0","","35","","15","","","","101.55","","","","","","NA"
"-55.38","46.92","ST LAWRENCE","8403619","2018-01-16 17:30","2018","01","16","17:30","","M","","M","92","","0.0","","35","","14","","","","101.72","","","","","","NA"
"-55.38","46.92","ST LAWRENCE","8403619","2018-01-16 18:30","2018","01","16","18:30","","M","","M","93","","0.0","","2","","16","","","","101.80","","","","","","NA"
"-55.38","46.92","ST LAWRENCE","8403619","2018-01-16 19:30","2018","01","16","19:30","","M","","M","94","","0.0","","1","","13","","","","101.85","","","","","","NA"
"-55.38","46.92","ST LAWRENCE","8403619","2018-01-16 20:30","2018","01","16","20:30","","M","","M","97","","0.0","","33","","7","","","","102.01","","","","","","NA"
"-55.38","46.92","ST LAWRENCE","8403619","2018-01-16 21:30","2018","01","16","21:30","","M","","M","97","","0.0","","32","","5","","","","102.05","","","","","","NA"
"-55.38","46.92","ST LAWRENCE","8403619","2018-01-16 22:30","2018","01","16","22:30","","M","","M","99","","0.0","","29","","4","","","","102.13","","","","","","NA"
"-55.38","46.92","ST LAWRENCE","8403619","2018-01-16 23:30","2018","01","16","23:30","","M","","M","100","","0.0","","33","","4","","","","102.10","","","","","","NA"
"-55.38","46.92","ST LAWRENCE","8403619","2018-01-17 00:30","2018","01","17","00:30","","M","","M","98","","0.0","","2","","4","","","","102.07","","","","","","NA"
"-55.38","46.92","ST LAWRENCE","8403619","2018-01-17 01:30","2018","01","17","01:30","","M","","M","100","","0.0","","28","","6","","","","102.08","","","","","","NA"
"-55.38","46.92","ST LAWRENCE","8403619","2018-01-17 02:30","2018","01","17","02:30","","M","","M","100","","0.0","","26","","6","","","","102.10","","","","","","NA"
"-55.38","46.92","ST LAWRENCE","8403619","2018-01-17 03:30","2018","01","17","03:30","","M","","M","100","","0.0","","26","","9","","","","102.12","","","","","","NA"
"-55.38","46.92","ST LAWRENCE","8403619","2018-01-17 04:30","2018","01","17","04:30","","M","","M","100","","0.0","","26","","8","","","","102.12","","","","","","NA"
"-55.38","46.92","ST LAWRENCE","8403619","2018-01-17 05:30","2018","01","17","05:30","","M","","M","100","","0.0","","27","","15","","","","102.19","","","","","","NA"
"-55.38","46.92","ST LAWRENCE","8403619","2018-01-17 06:30","2018","01","17","06:30","","M","","M","99","","0.0","","27","","11","","","","102.21","","","","","","NA"
"-55.38","46.92","ST LAWRENCE","8403619","2018-01-17 07:30","2018","01","17","07:30","","M","","M","96","","0.0","","26","","14","","","","102.25","","","","","","NA"
"-55.38","46.92","ST LAWRENCE","8403619","2018-01-17 08:30","2018","01","17","08:30","","M","","M","93","","0.0","","27","","11","","","","102.32","","","","","","NA"
"-55.38","46.92","ST LAWRENCE","8403619","2018-01-17 09:30","2018","01","17","09:30","","M","","M","87","","0.0","","27","","18","","","","102.36","","","","","","NA"
"-55.38","46.92","ST LAWRENCE","8403619","2018-01-17 10:30","2018","01","17","10:30","","M","","M","84","","0.0","","27","","17","","","","102.38","","","","","","NA"
"-55.38","46.92","ST LAWRENCE","8403619","2018-01-17 11:30","2018","01","17","11:30","","M","","M","82","","0.0","","26","","24","","","","102.42","","","","","","NA"
"-55.38","46.92","ST LAWRENCE","8403619","2018-01-17 12:30","2018","01","17","12:30","","M","","M","81","","0.0","","26","","20","","","","102.34","","","","","","NA"
"-55.38","46.92","ST LAWRENCE","8403619","2018-01-17 13:30","2018","01","17","13:30","","M","","M","82","","0.0","","27","","22","","","","102.26","","","","","","NA"
"-55.38","46.92","ST LAWRENCE","8403619","2018-01-17 14:30","2018","01","17","14:30","","M","","M","84","","0.0","","27","","20","","","","102.21","","","","","","NA"
"-55.38","46.92","ST LAWRENCE","8403619","2018-01-17 15:30","2018","01","17","15:30","","M","","M","87","","0.0","","27","","19","","","","102.24","","","","","","NA"
"-55.38","46.92","ST LAWRENCE","8403619","2018-01-17 16:30","2018","01","17","16:30","","M","","M","91","","0.0","","28","","15","","","","102.24","","","","","","NA"
"-55.38","46.92","ST LAWRENCE","8403619","2018-01-17 17:30","2018","01","17","17:30","","M","","M","94","","0.0","","27","","7","","","","102.21","","","","","","NA"
"-55.38","46.92","ST LAWRENCE","8403619","2018-01-17 18:30","2018","01","17","18:30","","M","","M","96","","0.0","","29","","5","","","","102.16","","","","","","NA"
"-55.38","46.92","ST LAWRENCE","8403619","2018-01-17 19:30","2018","01","17","19:30","","M","","M","98","","0.0","","26","","3","","","","102.10","","","","","","NA"
"-55.38","46.92","ST LAWRENCE","8403619","2018-01-17 20:30","2018","01","17","20:30","","M","","M","100","","0.0","","12","","5","","","","101.99","","","","","","NA"
"-55.38","46.92","ST LAWRENCE","8403619","2018-01-17 21:30","2018","01","17","21:30","","M","","M","100","","0.0","","6","","9","","","","101.89","","","","","","NA"
"-55.38","46.92","ST LAWRENCE","8403619","2018-01-17 22:30","2018","01","17","22:30","","M","","M","100","","0.0","","12","","8","","","","101.88","","","","","","NA"
"-55.38","46.92","ST LAWRENCE","8403619","2018-01-17 23:30","2018","01","17","23:30","","M","","M","99","","0.0","","14","","15","","","","101.80","","","","","","NA"
"-55.38","46.92","ST LAWRENCE","8403619","2018-01-18 00:30","2018","01","18","00:30","","M","","M","95","","0.0","","14","","19","","","","101.61","","","","","","NA"
"-55.38","46.92","ST LAWRENCE","8403619","2018-01-18 01:30","2018","01","18","01:30","","M","","M","93","","0.0","","13","","19","","","","101.44","","","","","","NA"
"-55.38","46.92","ST LAWRENCE","8403619","2018-01-18 02:30","2018","01","18","02:30","","M","","M","98","","0.0","","14","","24","","","","101.28","","","","","","NA"
"-55.38","46.92","ST LAWRENCE","8403619","2018-01-18 03:30","2018","01","18","03:30","","M","","M","","M","0.0","","12","","27","","","","101.11","","","","","","NA"
"-55.38","46.92","ST LAWRENCE","8403619","2018-01-18 04:30","2018","01","18","04:30","","M","","M","","M","0.0","","12","","31","","","","100.87","","","","","","NA"
"-55.38","46.92","ST LAWRENCE","8403619","2018-01-18 05:30","2018","01","18","05:30","","M","","M","","M","0.0","","13","","34","","","","100.68","","","","","","NA"
"-55.38","46.92","ST LAWRENCE","8403619","2018-01-18 06:30","2018","01","18","06:30","","M","","M","","M","0.0","","14","","36","","","","100.56","","","","","","NA"
"-55.38","46.92","ST LAWRENCE","8403619","2018-01-18 07:30","2018","01","18","07:30","","M","","M","","M","0.3","","13","","29","","","","100.51","","","","","","NA"
"-55.38","46.92","ST LAWRENCE","8403619","2018-01-18 08:30","2018","01","18","08:30","","M","","M","","M","3.2","","12","","26","","","","100.34","","","","","","NA"
"-55.38","46.92","ST LAWRENCE","8403619","2018-01-18 09:30","2018","01","18","09:30","","M","","M","","M","3.6","","11","","18","","","","100.20","","","","","","NA"
"-55.38","46.92","ST LAWRENCE","8403619","2018-01-18 10:30","2018","01","18","10:30","","M","","M","","M","1.3","","12","","15","","","","100.09","","","","","","NA"
"-55.38","46.92","ST LAWRENCE","8403619","2018-01-18 11:30","2018","01","18","11:30","","M","","M","","M","0.4","","16","","24","","","","99.83","","","","","","NA"
"-55.38","46.92","ST LAWRENCE","8403619","2018-01-18 12:30","2018","01","18","12:30","","M","","M","","M","0.3","","21","","26","","","","99.67","","","","","","NA"
"-55.38","46.92","ST LAWRENCE","8403619","2018-01-18 13:30","2018","01","18","13:30","","M","","M","","M","0.0","","22","","29","","","","99.54","","","","","","NA"
"-55.38","46.92","ST LAWRENCE","8403619","2018-01-18 14:30","2018","01","18","14:30","","M","","M","","M","0.0","","23","","28","","","","99.53","","","","","","NA"
"-55.38","46.92","ST LAWRENCE","8403619","2018-01-18 15:30","2018","01","18","15:30","","M","","M","","M","0.0","","24","","28","","","","99.57","","","","","","NA"
"-55.38","46.92","ST LAWRENCE","8403619","2018-01-18 16:30","2018","01","18","16:30","","M","","M","","M","0.0","","25","","28","","","","99.57","","","","","","NA"
"-55.38","46.92","ST LAWRENCE","8403619","2018-01-18 17:30","2018","01","18","17:30","","M","","M","","M","0.0","","26","","23","","","","99.56","","","","","","NA"
"-55.38","46.92","ST LAWRENCE","8403619","2018-01-18 18:30","2018","01","18","18:30","","M","","M","","M","0.0","","27","","17","","","","99.62","","","","","","NA"
"-55.38","46.92","ST LAWRENCE","8403619","2018-01-18 19:30","2018","01","18","19:30","","M","","M","","M","0.0","","27","","16","","","","99.63","","","","","","NA"
"-55.38","46.92","ST LAWRENCE","8403619","2018-01-18 20:30","2018","01","18","20:30","","M","","M","","M","0.0","","28","","13","","","","99.69","","","","","","NA"
"-55.38","46.92","ST LAWRENCE","8403619","2018-01-18 21:30","2018","01","18","21:30","","M","","M","","M","0.0","","29","","14","","","","99.66","","","","","","NA"
"-55.38","46.92","ST LAWRENCE","8403619","2018-01-18 22:30","2018","01","18","22:30","","M","","M","","M","0.0","","30","","4","","","","99.69","","","","","","NA"
"-55.38","46.92","ST LAWRENCE","8403619","2018-01-18 23:30","2018","01","18","23:30","","M","","M","","M","0.0","","29","","7","","","","99.73","","","","","","NA"
"-55.38","46.92","ST LAWRENCE","8403619","2018-01-19 00:30","2018","01","19","00:30","","M","","M","","M","0.0","","27","","10","","","","99.77","","","","","","NA"
"-55.38","46.92","ST LAWRENCE","8403619","2018-01-19 01:30","2018","01","19","01:30","","M","","M","","M","0.0","","31","","10","","","","99.68","","","","","","NA"
"-55.38","46.92","ST LAWRENCE","8403619","2018-01-19 02:30","2018","01","19","02:30","","M","","M","","M","0.0","","30","","9","","","","99.67","","","","","","NA"
"-55.38","46.92","ST LAWRENCE","8403619","2018-01-19 03:30","2018","01","19","03:30","","M","","M","","M","0.0","","30","","11","","","","99.65","","","","","","NA"
"-55.38","46.92","ST LAWRENCE","8403619","2018-01-19 04:30","2018","01","19","04:30","","M","","M","","M","0.0","","32","","7","","","","99.66","","","","","","NA"
"-55.38","46.92","ST LAWRENCE","8403619","2018-01-19 05:30","2018","01","19","05:30","","M","","M","100","","0.0","","1","","6","","","","99.70","","","","","","NA"
"-55.38","46.92","ST LAWRENCE","8403619","2018-01-19 06:30","2018","01","19","06:30","","M","","M","","M","0.0","","1","","10","","","","99.64","","","","","","NA"
"-55.38","46.92","ST LAWRENCE","8403619","2018-01-19 07:30","2018","01","19","07:30","","M","","M","","M","0.0","","36","","12","","","","99.58","","","","","","NA"
"-55.38","46.92","ST LAWRENCE","8403619","2018-01-19 08:30","2018","01","19","08:30","","M","","M","","M","0.0","","3","","10","","","","99.60","","","","","","NA"
"-55.38","46.92","ST LAWRENCE","8403619","2018-01-19 09:30","2018","01","19","09:30","","M","","M","100","","0.0","","4","","12","","","","99.71","","","","","","NA"
"-55.38","46.92","ST LAWRENCE","8403619","2018-01-19 10:30","2018","01","19","10:30","","M","","M","95","","0.0","","2","","20","","","","99.64","","","","","","NA"
"-55.38","46.92","ST LAWRENCE","8403619","2018-01-19 11:30","2018","01","19","11:30","","M","","M","92","","0.0","","36","","19","","","","99.56","","","","","","NA"
"-55.38","46.92","ST LAWRENCE","8403619","2018-01-19 12:30","2018","01","19","12:30","","M","","M","86","","0.0","","1","","21","","","","99.44","","","","","","NA"
"-55.38","46.92","ST LAWRENCE","8403619","2018-01-19 13:30","2018","01","19","13:30","","M","","M","77","","0.0","","2","","23","","","","99.34","","","","","","NA"
"-55.38","46.92","ST LAWRENCE","8403619","2018-01-19 14:30","2018","01","19","14:30","","M","","M","77","","0.0","","36","","19","","","","99.38","","","","","","NA"
"-55.38","46.92","ST LAWRENCE","8403619","2018-01-19 15:30","2018","01","19","15:30","","M","","M","78","","0.0","","36","","16","","","","99.43","","","","","","NA"
"-55.38","46.92","ST LAWRENCE","8403619","2018-01-19 16:30","2018","01","19","16:30","","M","","M","81","","0.0","","1","","15","","","","99.45","","","","","","NA"
"-55.38","46.92","ST LAWRENCE","8403619","2018-01-19 17:30","2018","01","19","17:30","","M","","M","84","","0.0","","35","","14","","","","99.50","","","","","","NA"
"-55.38","46.92","ST LAWRENCE","8403619","2018-01-19 18:30","2018","01","19","18:30","","M","","M","86","","0.0","","35","","9","","","","99.52","","","","","","NA"
"-55.38","46.92","ST LAWRENCE","8403619","2018-01-19 19:30","2018","01","19","19:30","","M","","M","86","","0.0","","35","","13","","","","99.63","","","","","","NA"
"-55.38","46.92","ST LAWRENCE","8403619","2018-01-19 20:30","2018","01","19","20:30","","M","","M","87","","0.0","","35","","12","","","","99.71","","","","","","NA"
"-55.38","46.92","ST LAWRENCE","8403619","2018-01-19 21:30","2018","01","19","21:30","","M","","M","89","","0.0","","34","","8","","","","99.78","","","","","","NA"
"-55.38","46.92","ST LAWRENCE","8403619","2018-01-19 22:30","2018","01","19","22:30","","M","","M","90","","0.0","","33","","8","","","","99.85","","","","","","NA"
"-55.38","46.92","ST LAWRENCE","8403619","2018-01-19 23:30","2018","01","19","23:30","","M","","M","88","","0.0","","33","","13","","","","99.89","","","","","","NA"
"-55.38","46.92","ST LAWRENCE","8403619","2018-01-20 00:30","2018","01","20","00:30","","M","","M","87","","0.0","","34","","15","","","","99.91","","","","","","NA"
"-55.38","46.92","ST LAWRENCE","8403619","2018-01-20 01:30","2018","01","20","01:30","","M","","M","86","","0.0","","35","","12","","","","99.98","","","","","","NA"
"-55.38","46.92","ST LAWRENCE","8403619","2018-01-20 02:30","2018","01","20","02:30","","M","","M","90","","0.0","","31","","1","","","","100.10","","","","","","NA"
"-55.38","46.92","ST LAWRENCE","8403619","2018-01-20 03:30","2018","01","20","03:30","","M","","M","92","","0.0","","27","","3","","","","100.09","","","","","","NA"
"-55.38","46.92","ST LAWRENCE","8403619","2018-01-20 04:30","2018","01","20","04:30","","M","","M","94","","0.0","","34","","3","","","","100.14","","","","","","NA"
"-55.38","46.92","ST LAWRENCE","8403619","2018-01-20 05:30","2018","01","20","05:30","","M","","M","93","","0.0","","34","","5","","","","100.19","","","","","","NA"
"-55.38","46.92","ST LAWRENCE","8403619","2018-01-20 06:30","2018","01","20","06:30","","M","","M","94","","0.0","","32","","5","","","","100.25","","","","","","NA"
"-55.38","46.92","ST LAWRENCE","8403619","2018-01-20 07:30","2018","01","20","07:30","","M","","M","95","","0.0","","11","","1","","","","100.20","","","","","","NA"
"-55.38","46.92","ST LAWRENCE","8403619","2018-01-20 08:30","2018","01","20","08:30","","M","","M","97","","0.0","","28","","8","","","","100.26","","","","","","NA"
"-55.38","46.92","ST LAWRENCE","8403619","2018-01-20 09:30","2018","01","20","09:30","","M","","M","97","","0.0","","26","","3","","","","100.28","","","","","","NA"
"-55.38","46.92","ST LAWRENCE","8403619","2018-01-20 10:30","2018","01","20","10:30","","M","","M","99","","0.0","","24","","6","","","","100.18","","","","","","NA"
"-55.38","46.92","ST LAWRENCE","8403619","2018-01-20 11:30","2018","01","20","11:30","","M","","M","90","","0.0","","23","","21","","","","100.05","","","","","","NA"
"-55.38","46.92","ST LAWRENCE","8403619","2018-01-20 12:30","2018","01","20","12:30","","M","","M","84","","0.3","","21","","26","","","","99.86","","","","","","NA"
"-55.38","46.92","ST LAWRENCE","8403619","2018-01-20 13:30","2018","01","20","13:30","","M","","M","86","","0.0","","21","","30","","","","99.71","","","","","","NA"
"-55.38","46.92","ST LAWRENCE","8403619","2018-01-20 14:30","2018","01","20","14:30","","M","","M","90","","0.0","","22","","33","","","","99.59","","","","","","NA"
"-55.38","46.92","ST LAWRENCE","8403619","2018-01-20 15:30","2018","01","20","15:30","","M","","M","92","","0.0","","20","","28","","","","99.44","","","","","","NA"
"-55.38","46.92","ST LAWRENCE","8403619","2018-01-20 16:30","2018","01","20","16:30","","M","","M","100","","0.0","","20","","35","","","","99.30","","","","","","NA"
"-55.38","46.92","ST LAWRENCE","8403619","2018-01-20 17:30","2018","01","20","17:30","","M","","M","","M","1.3","","19","","29","","","","99.07","","","","","","NA"
"-55.38","46.92","ST LAWRENCE","8403619","2018-01-20 18:30","2018","01","20","18:30","","M","","M","","M","1.0","","18","","32","","","","98.85","","","","","","NA"
"-55.38","46.92","ST LAWRENCE","8403619","2018-01-20 19:30","2018","01","20","19:30","","M","","M","","M","0.9","","22","","45","","","","98.67","","","","","","NA"
"-55.38","46.92","ST LAWRENCE","8403619","2018-01-20 20:30","2018","01","20","20:30","","M","","M","","M","0.0","","24","","28","","","","98.60","","","","","","NA"
"-55.38","46.92","ST LAWRENCE","8403619","2018-01-20 21:30","2018","01","20","21:30","","M","","M","","M","0.5","","23","","37","","","","98.52","","","","","","NA"
"-55.38","46.92","ST LAWRENCE","8403619","2018-01-20 22:30","2018","01","20","22:30","","M","","M","","M","0.0","","25","","41","","","","98.47","","","","","","NA"
"-55.38","46.92","ST LAWRENCE","8403619","2018-01-20 23:30","2018","01","20","23:30","","M","","M","","M","0.0","","26","","39","","","","98.52","","","","","","NA"
"-55.38","46.92","ST LAWRENCE","8403619","2018-01-21 00:30","2018","01","21","00:30","","M","","M","","M","0.0","","26","","37","","","","98.61","","","","","","NA"
"-55.38","46.92","ST LAWRENCE","8403619","2018-01-21 01:30","2018","01","21","01:30","","M","","M","","M","0.0","","26","","37","","","","98.63","","","","","","NA"
"-55.38","46.92","ST LAWRENCE","8403619","2018-01-21 02:30","2018","01","21","02:30","","M","","M","","M","0.0","","26","","37","","","","98.76","","","","","","NA"
"-55.38","46.92","ST LAWRENCE","8403619","2018-01-21 03:30","2018","01","21","03:30","","M","","M","","M","0.0","","26","","36","","","","98.78","","","","","","NA"
"-55.38","46.92","ST LAWRENCE","8403619","2018-01-21 04:30","2018","01","21","04:30","","M","","M","","M","0.0","","26","","37","","","","98.83","","","","","","NA"
"-55.38","46.92","ST LAWRENCE","8403619","2018-01-21 05:30","2018","01","21","05:30","","M","","M","","M","0.0","","26","","41","","","","98.90","","","","","","NA"
"-55.38","46.92","ST LAWRENCE","8403619","2018-01-21 06:30","2018","01","21","06:30","","M","","M","","M","0.0","","27","","39","","","","99.02","","","","","","NA"
"-55.38","46.92","ST LAWRENCE","8403619","2018-01-21 07:30","2018","01","21","07:30","","M","","M","","M","0.0","","27","","46","","","","99.16","","","","","","NA"
"-55.38","46.92","ST LAWRENCE","8403619","2018-01-21 08:30","2018","01","21","08:30","","M","","M","","M","0.0","","26","","42","","","","99.33","","","","","","NA"
"-55.38","46.92","ST LAWRENCE","8403619","2018-01-21 09:30","2018","01","21","09:30","","M","","M","100","","0.0","","27","","40","","","","99.43","","","","","","NA"
"-55.38","46.92","ST LAWRENCE","8403619","2018-01-21 10:30","2018","01","21","10:30","","M","","M","100","","0.0","","27","","44","","","","99.55","","","","","","NA"
"-55.38","46.92","ST LAWRENCE","8403619","2018-01-21 11:30","2018","01","21","11:30","","M","","M","94","","0.0","","27","","42","","","","99.60","","","","","","NA"
"-55.38","46.92","ST LAWRENCE","8403619","2018-01-21 12:30","2018","01","21","12:30","","M","","M","86","","0.0","","28","","44","","","","99.65","","","","","","NA"
"-55.38","46.92","ST LAWRENCE","8403619","2018-01-21 13:30","2018","01","21","13:30","","M","","M","80","","0.0","","27","","43","","","","99.71","","","","","","NA"
"-55.38","46.92","ST LAWRENCE","8403619","2018-01-21 14:30","2018","01","21","14:30","","M","","M","73","","0.0","","27","","43","","","","99.82","","","","","","NA"
"-55.38","46.92","ST LAWRENCE","8403619","2018-01-21 15:30","2018","01","21","15:30","","M","","M","75","","0.0","","27","","45","","","","99.87","","","","","","NA"
"-55.38","46.92","ST LAWRENCE","8403619","2018-01-21 16:30","2018","01","21","16:30","","M","","M","76","","0.0","","27","","42","","","","100.00","","","","","","NA"
"-55.38","46.92","ST LAWRENCE","8403619","2018-01-21 17:30","2018","01","21","17:30","","M","","M","79","","0.0","","27","","38","","","","100.08","","","","","","NA"
"-55.38","46.92","ST LAWRENCE","8403619","2018-01-21 18:30","2018","01","21","18:30","","M","","M","74","","0.0","","27","","44","","","","100.14","","","","","","NA"
"-55.38","46.92","ST LAWRENCE","8403619","2018-01-21 19:30","2018","01","21","19:30","","M","","M","75","","0.0","","27","","39","","","","100.21","","","","","","NA"
"-55.38","46.92","ST LAWRENCE","8403619","2018-01-21 20:30","2018","01","21","20:30","","M","","M","76","","0.0","","27","","37","","","","100.28","","","","","","NA"
"-55.38","46.92","ST LAWRENCE","8403619","2018-01-21 21:30","2018","01","21","21:30","","M","","M","76","","0.0","","27","","44","","","","100.25","","","","","","NA"
"-55.38","46.92","ST LAWRENCE","8403619","2018-01-21 22:30","2018","01","21","22:30","","M","","M","75","","0.0","","27","","44","","","","100.29","","","","","","NA"
"-55.38","46.92","ST LAWRENCE","8403619","2018-01-21 23:30","2018","01","21","23:30","","M","","M","72","","0.0","","27","","52","","","","100.23","","","","","","NA"
"-55.38","46.92","ST LAWRENCE","8403619","2018-01-22 00:30","2018","01","22","00:30","","M","","M","72","","0.0","","28","","47","","","","100.30","","","","","","NA"
"-55.38","46.92","ST LAWRENCE","8403619","2018-01-22 01:30","2018","01","22","01:30","","M","","M","70","","0.0","","26","","46","","","","100.38","","","","","","NA"
"-55.38","46.92","ST LAWRENCE","8403619","2018-01-22 02:30","2018","01","22","02:30","","M","","M","75","","0.0","","27","","39","","","","100.42","","","","","","NA"
"-55.38","46.92","ST LAWRENCE","8403619","2018-01-22 03:30","2018","01","22","03:30","","M","","M","76","","0.0","","28","","33","","","","100.47","","","","","","NA"
"-55.38","46.92","ST LAWRENCE","8403619","2018-01-22 04:30","2018","01","22","04:30","","M","","M","78","","0.0","","27","","40","","","","100.48","","","","","","NA"
"-55.38","46.92","ST LAWRENCE","8403619","2018-01-22 05:30","2018","01","22","05:30","","M","","M","80","","0.0","","27","","44","","","","100.52","","","","","","NA"
"-55.38","46.92","ST LAWRENCE","8403619","2018-01-22 06:30","2018","01","22","06:30","","M","","M","82","","0.0","","27","","33","","","","100.58","","","","","","NA"
"-55.38","46.92","ST LAWRENCE","8403619","2018-01-22 07:30","2018","01","22","07:30","","M","","M","78","","0.0","","27","","38","","","","100.58","","","","","","NA"
"-55.38","46.92","ST LAWRENCE","8403619","2018-01-22 08:30","2018","01","22","08:30","","M","","M","92","","0.0","","27","","28","","","","100.63","","","","","","NA"
"-55.38","46.92","ST LAWRENCE","8403619","2018-01-22 09:30","2018","01","22","09:30","","M","","M","81","","0.0","","28","","33","","","","100.67","","","","","","NA"
"-55.38","46.92","ST LAWRENCE","8403619","2018-01-22 10:30","2018","01","22","10:30","","M","","M","71","","0.0","","28","","38","","","","100.73","","","","","","NA"
"-55.38","46.92","ST LAWRENCE","8403619","2018-01-22 11:30","2018","01","22","11:30","","M","","M","69","","0.0","","27","","45","","","","100.69","","","","","","NA"
"-55.38","46.92","ST LAWRENCE","8403619","2018-01-22 12:30","2018","01","22","12:30","","M","","M","71","","0.0","","27","","44","","","","100.67","","","","","","NA"
"-55.38","46.92","ST LAWRENCE","8403619","2018-01-22 13:30","2018","01","22","13:30","","M","","M","66","","0.0","","28","","46","","","","100.69","","","","","","NA"
"-55.38","46.92","ST LAWRENCE","8403619","2018-01-22 14:30","2018","01","22","14:30","","M","","M","64","","0.0","","28","","39","","","","100.77","","","","","","NA"
"-55.38","46.92","ST LAWRENCE","8403619","2018-01-22 15:30","2018","01","22","15:30","","M","","M","86","","0.0","","28","","45","","","","100.93","","","","","","NA"
"-55.38","46.92","ST LAWRENCE","8403619","2018-01-22 16:30","2018","01","22","16:30","","M","","M","70","","0.0","","29","","44","","","","101.03","","","","","","NA"
"-55.38","46.92","ST LAWRENCE","8403619","2018-01-22 17:30","2018","01","22","17:30","","M","","M","76","","0.0","","29","","38","","","","101.12","","","","","","NA"
"-55.38","46.92","ST LAWRENCE","8403619","2018-01-22 18:30","2018","01","22","18:30","","M","","M","80","","0.0","","29","","41","","","","101.20","","","","","","NA"
"-55.38","46.92","ST LAWRENCE","8403619","2018-01-22 19:30","2018","01","22","19:30","","M","","M","82","","0.0","","29","","33","","","","101.28","","","","","","NA"
"-55.38","46.92","ST LAWRENCE","8403619","2018-01-22 20:30","2018","01","22","20:30","","M","","M","84","","0.0","","27","","18","","","","101.47","","","","","","NA"
"-55.38","46.92","ST LAWRENCE","8403619","2018-01-22 21:30","2018","01","22","21:30","","M","","M","85","","0.0","","28","","21","","","","101.58","","","","","","NA"
"-55.38","46.92","ST LAWRENCE","8403619","2018-01-22 22:30","2018","01","22","22:30","","M","","M","86","","0.0","","27","","22","","","","101.65","","","","","","NA"
"-55.38","46.92","ST LAWRENCE","8403619","2018-01-22 23:30","2018","01","22","23:30","","M","","M","87","","0.0","","27","","18","","","","101.70","","","","","","NA"
"-55.38","46.92","ST LAWRENCE","8403619","2018-01-23 00:30","2018","01","23","00:30","","M","","M","87","","0.0","","28","","18","","","","101.71","","","","","","NA"
"-55.38","46.92","ST LAWRENCE","8403619","2018-01-23 01:30","2018","01","23","01:30","","M","","M","88","","0.0","","22","","7","","","","101.80","","","","","","NA"
"-55.38","46.92","ST LAWRENCE","8403619","2018-01-23 02:30","2018","01","23","02:30","","M","","M","86","","0.0","","23","","16","","","","101.84","","","","","","NA"
"-55.38","46.92","ST LAWRENCE","8403619","2018-01-23 03:30","2018","01","23","03:30","","M","","M","84","","0.0","","22","","11","","","","101.93","","","","","","NA"
"-55.38","46.92","ST LAWRENCE","8403619","2018-01-23 04:30","2018","01","23","04:30","","M","","M","88","","0.0","","27","","11","","","","101.95","","","","","","NA"
"-55.38","46.92","ST LAWRENCE","8403619","2018-01-23 05:30","2018","01","23","05:30","","M","","M","89","","0.0","","19","","18","","","","102.03","","","","","","NA"
"-55.38","46.92","ST LAWRENCE","8403619","2018-01-23 06:30","2018","01","23","06:30","","M","","M","85","","0.0","","26","","12","","","","102.06","","","","","","NA"
"-55.38","46.92","ST LAWRENCE","8403619","2018-01-23 07:30","2018","01","23","07:30","","M","","M","89","","0.0","","27","","21","","","","102.15","","","","","","NA"
"-55.38","46.92","ST LAWRENCE","8403619","2018-01-23 08:30","2018","01","23","08:30","","M","","M","88","","0.0","","29","","20","","","","102.20","","","","","","NA"
"-55.38","46.92","ST LAWRENCE","8403619","2018-01-23 09:30","2018","01","23","09:30","","M","","M","83","","0.0","","28","","13","","","","102.28","","","","","","NA"
"-55.38","46.92","ST LAWRENCE","8403619","2018-01-23 10:30","2018","01","23","10:30","","M","","M","78","","0.0","","27","","13","","","","102.36","","","","","","NA"
"-55.38","46.92","ST LAWRENCE","8403619","2018-01-23 11:30","2018","01","23","11:30","","M","","M","74","","0.0","","26","","14","","","","102.34","","","","","","NA"
"-55.38","46.92","ST LAWRENCE","8403619","2018-01-23 12:30","2018","01","23","12:30","","M","","M","70","","0.0","","28","","12","","","","102.26","","","","","","NA"
"-55.38","46.92","ST LAWRENCE","8403619","2018-01-23 13:30","2018","01","23","13:30","","M","","M","69","","0.0","","26","","13","","","","102.22","","","","","","NA"
"-55.38","46.92","ST LAWRENCE","8403619","2018-01-23 14:30","2018","01","23","14:30","","M","","M","71","","0.0","","24","","11","","","","102.21","","","","","","NA"
"-55.38","46.92","ST LAWRENCE","8403619","2018-01-23 15:30","2018","01","23","15:30","","M","","M","80","","0.0","","23","","14","","","","102.27","","","","","","NA"
"-55.38","46.92","ST LAWRENCE","8403619","2018-01-23 16:30","2018","01","23","16:30","","M","","M","82","","0.0","","23","","13","","","","102.27","","","","","","NA"
"-55.38","46.92","ST LAWRENCE","8403619","2018-01-23 17:30","2018","01","23","17:30","","M","","M","84","","0.0","","24","","9","","","","102.30","","","","","","NA"
"-55.38","46.92","ST LAWRENCE","8403619","2018-01-23 18:30","2018","01","23","18:30","","M","","M","84","","0.0","","22","","8","","","","102.24","","","","","","NA"
"-55.38","46.92","ST LAWRENCE","8403619","2018-01-23 19:30","2018","01","23","19:30","","M","","M","86","","0.0","","16","","9","","","","102.21","","","","","","NA"
"-55.38","46.92","ST LAWRENCE","8403619","2018-01-23 20:30","2018","01","23","20:30","","M","","M","87","","0.0","","16","","18","","","","102.19","","","","","","NA"
"-55.38","46.92","ST LAWRENCE","8403619","2018-01-23 21:30","2018","01","23","21:30","","M","","M","87","","0.0","","16","","20","","","","102.17","","","","","","NA"
"-55.38","46.92","ST LAWRENCE","8403619","2018-01-23 22:30","2018","01","23","22:30","","M","","M","89","","0.0","","15","","25","","","","102.00","","","","","","NA"
"-55.38","46.92","ST LAWRENCE","8403619","2018-01-23 23:30","2018","01","23","23:30","","M","","M","92","","0.0","","14","","28","","","","101.91","","","","","","NA"
"-55.38","46.92","ST LAWRENCE","8403619","2018-01-24 00:30","2018","01","24","00:30","","M","","M","94","","0.0","","14","","32","","","","101.76","","","","","","NA"
"-55.38","46.92","ST LAWRENCE","8403619","2018-01-24 01:30","2018","01","24","01:30","","M","","M","98","","0.0","","14","","31","","","","101.60","","","","","","NA"
"-55.38","46.92","ST LAWRENCE","8403619","2018-01-24 02:30","2018","01","24","02:30","","M","","M","99","","0.0","","14","","34","","","","101.44","","","","","","NA"
"-55.38","46.92","ST LAWRENCE","8403619","2018-01-24 03:30","2018","01","24","03:30","","M","","M","100","","0.0","","14","","33","","","","101.27","","","","","","NA"
"-55.38","46.92","ST LAWRENCE","8403619","2018-01-24 04:30","2018","01","24","04:30","","M","","M","100","","0.0","","14","","34","","","","101.08","","","","","","NA"
"-55.38","46.92","ST LAWRENCE","8403619","2018-01-24 05:30","2018","01","24","05:30","","M","","M","","M","0.0","","13","","29","","","","100.89","","","","","","NA"
"-55.38","46.92","ST LAWRENCE","8403619","2018-01-24 06:30","2018","01","24","06:30","","M","","M","","M","0.2","","14","","39","","","","100.62","","","","","","NA"
"-55.38","46.92","ST LAWRENCE","8403619","2018-01-24 07:30","2018","01","24","07:30","","M","","M","","M","1.8","","15","","40","","","","100.41","","","","","","NA"
"-55.38","46.92","ST LAWRENCE","8403619","2018-01-24 08:30","2018","01","24","08:30","","M","","M","","M","4.1","","14","","48","","","","100.14","","","","","","NA"
"-55.38","46.92","ST LAWRENCE","8403619","2018-01-24 09:30","2018","01","24","09:30","","M","","M","","M","0.0","","15","","52","","","","99.96","","","","","","NA"
"-55.38","46.92","ST LAWRENCE","8403619","2018-01-24 10:30","2018","01","24","10:30","","M","","M","","M","0.0","","15","","62","","","","99.74","","","","","","NA"
"-55.38","46.92","ST LAWRENCE","8403619","2018-01-24 11:30","2018","01","24","11:30","","M","","M","","M","1.9","","16","","65","","","","99.47","","","","","","NA"
"-55.38","46.92","ST LAWRENCE","8403619","2018-01-24 12:30","2018","01","24","12:30","","M","","M","","M","0.5","","17","","50","","","","99.31","","","","","","NA"
"-55.38","46.92","ST LAWRENCE","8403619","2018-01-24 13:30","2018","01","24","13:30","","M","","M","","M","","M","16","","59","","","","99.06","","","","","","NA"
"-55.38","46.92","ST LAWRENCE","8403619","2018-01-24 14:30","2018","01","24","14:30","","M","","M","","M","","M","18","","46","","","","98.87","","","","","","NA"
"-55.38","46.92","ST LAWRENCE","8403619","2018-01-24 15:30","2018","01","24","15:30","","M","","M","","M","","M","23","","36","","","","98.94","","","","","","NA"
"-55.38","46.92","ST LAWRENCE","8403619","2018-01-24 16:30","2018","01","24","16:30","","M","","M","","M","","M","24","","37","","","","99.00","","","","","","NA"
"-55.38","46.92","ST LAWRENCE","8403619","2018-01-24 17:30","2018","01","24","17:30","","M","","M","","M","","M","24","","25","","","","99.12","","","","","","NA"
"-55.38","46.92","ST LAWRENCE","8403619","2018-01-24 18:30","2018","01","24","18:30","","M","","M","","M","","M","25","","30","","","","99.19","","","","","","NA"
"-55.38","46.92","ST LAWRENCE","8403619","2018-01-24 19:30","2018","01","24","19:30","","M","","M","","M","","M","25","","24","","","","99.24","","","","","","NA"
"-55.38","46.92","ST LAWRENCE","8403619","2018-01-24 20:30","2018","01","24","20:30","","M","","M","","M","","M","24","","24","","","","99.27","","","","","","NA"
"-55.38","46.92","ST LAWRENCE","8403619","2018-01-24 21:30","2018","01","24","21:30","","M","","M","","M","","M","25","","17","","","","99.30","","","","","","NA"
"-55.38","46.92","ST LAWRENCE","8403619","2018-01-24 22:30","2018","01","24","22:30","","M","","M","","M","","M","22","","10","","","","99.30","","","","","","NA"
"-55.38","46.92","ST LAWRENCE","8403619","2018-01-24 23:30","2018","01","24","23:30","","M","","M","","M","","M","23","","28","","","","99.24","","","","","","NA"
"-55.38","46.92","ST LAWRENCE","8403619","2018-01-25 00:30","2018","01","25","00:30","","M","","M","","M","","M","23","","29","","","","99.23","","","","","","NA"
"-55.38","46.92","ST LAWRENCE","8403619","2018-01-25 01:30","2018","01","25","01:30","","M","","M","","M","","M","23","","36","","","","99.18","","","","","","NA"
"-55.38","46.92","ST LAWRENCE","8403619","2018-01-25 02:30","2018","01","25","02:30","","M","","M","","M","","M","25","","36","","","","99.25","","","","","","NA"
"-55.38","46.92","ST LAWRENCE","8403619","2018-01-25 03:30","2018","01","25","03:30","","M","","M","","M","","M","27","","29","","","","99.31","","","","","","NA"
"-55.38","46.92","ST LAWRENCE","8403619","2018-01-25 04:30","2018","01","25","04:30","","M","","M","","M","","M","27","","38","","","","99.37","","","","","","NA"
"-55.38","46.92","ST LAWRENCE","8403619","2018-01-25 05:30","2018","01","25","05:30","","M","","M","","M","","M","26","","34","","","","99.50","","","","","","NA"
"-55.38","46.92","ST LAWRENCE","8403619","2018-01-25 06:30","2018","01","25","06:30","","M","","M","","M","","M","27","","36","","","","99.57","","","","","","NA"
"-55.38","46.92","ST LAWRENCE","8403619","2018-01-25 07:30","2018","01","25","07:30","","M","","M","","M","","M","27","","38","","","","99.68","","","","","","NA"
"-55.38","46.92","ST LAWRENCE","8403619","2018-01-25 08:30","2018","01","25","08:30","","M","","M","","M","","M","26","","34","","","","99.79","","","","","","NA"
"-55.38","46.92","ST LAWRENCE","8403619","2018-01-25 09:30","2018","01","25","09:30","","M","","M","","M","","M","27","","39","","","","99.90","","","","","","NA"
"-55.38","46.92","ST LAWRENCE","8403619","2018-01-25 10:30","2018","01","25","10:30","","M","","M","","M","","M","25","","37","","","","99.99","","","","","","NA"
"-55.38","46.92","ST LAWRENCE","8403619","2018-01-25 11:30","2018","01","25","11:30","","M","","M","","M","","M","26","","37","","","","100.00","","","","","","NA"
"-55.38","46.92","ST LAWRENCE","8403619","2018-01-25 12:30","2018","01","25","12:30","","M","","M","","M","","M","26","","37","","","","99.98","","","","","","NA"
"-55.38","46.92","ST LAWRENCE","8403619","2018-01-25 13:30","2018","01","25","13:30","","M","","M","","M","","M","26","","33","","","","100.03","","","","","","NA"
"-55.38","46.92","ST LAWRENCE","8403619","2018-01-25 14:30","2018","01","25","14:30","","M","","M","","M","","M","26","","32","","","","99.98","","","","","","NA"
"-55.38","46.92","ST LAWRENCE","8403619","2018-01-25 15:30","2018","01","25","15:30","","M","","M","","M","","M","27","","29","","","","100.00","","","","","","NA"
"-55.38","46.92","ST LAWRENCE","8403619","2018-01-25 16:30","2018","01","25","16:30","","M","","M","","M","","M","27","","30","","","","100.05","","","","","","NA"
"-55.38","46.92","ST LAWRENCE","8403619","2018-01-25 17:30","2018","01","25","17:30","","M","","M","","M","","M","27","","25","","","","100.02","","","","","","NA"
"-55.38","46.92","ST LAWRENCE","8403619","2018-01-25 18:30","2018","01","25","18:30","","M","","M","100","","","M","26","","27","","","","100.02","","","","","","NA"
"-55.38","46.92","ST LAWRENCE","8403619","2018-01-25 19:30","2018","01","25","19:30","","M","","M","89","","","M","27","","28","","","","100.09","","","","","","NA"
"-55.38","46.92","ST LAWRENCE","8403619","2018-01-25 20:30","2018","01","25","20:30","","M","","M","85","","","M","26","","33","","","","100.14","","","","","","NA"
"-55.38","46.92","ST LAWRENCE","8403619","2018-01-25 21:30","2018","01","25","21:30","","M","","M","95","","","M","27","","25","","","","100.16","","","","","","NA"
"-55.38","46.92","ST LAWRENCE","8403619","2018-01-25 22:30","2018","01","25","22:30","","M","","M","90","","","M","27","","27","","","","100.21","","","","","","NA"
"-55.38","46.92","ST LAWRENCE","8403619","2018-01-25 23:30","2018","01","25","23:30","","M","","M","81","","","M","26","","33","","","","100.22","","","","","","NA"
"-55.38","46.92","ST LAWRENCE","8403619","2018-01-26 00:30","2018","01","26","00:30","","M","","M","88","","","M","26","","25","","","","100.24","","","","","","NA"
"-55.38","46.92","ST LAWRENCE","8403619","2018-01-26 01:30","2018","01","26","01:30","","M","","M","85","","","M","27","","29","","","","100.29","","","","","","NA"
"-55.38","46.92","ST LAWRENCE","8403619","2018-01-26 02:30","2018","01","26","02:30","","M","","M","83","","","M","27","","25","","","","100.36","","","","","","NA"
"-55.38","46.92","ST LAWRENCE","8403619","2018-01-26 03:30","2018","01","26","03:30","","M","","M","84","","","M","26","","27","","","","100.38","","","","","","NA"
"-55.38","46.92","ST LAWRENCE","8403619","2018-01-26 04:30","2018","01","26","04:30","","M","","M","92","","","M","26","","26","","","","100.43","","","","","","NA"
"-55.38","46.92","ST LAWRENCE","8403619","2018-01-26 05:30","2018","01","26","05:30","","M","","M","83","","","M","25","","27","","","","100.44","","","","","","NA"
"-55.38","46.92","ST LAWRENCE","8403619","2018-01-26 06:30","2018","01","26","06:30","","M","","M","88","","","M","25","","29","","","","100.47","","","","","","NA"
"-55.38","46.92","ST LAWRENCE","8403619","2018-01-26 07:30","2018","01","26","07:30","","M","","M","86","","","M","25","","32","","","","100.51","","","","","","NA"
"-55.38","46.92","ST LAWRENCE","8403619","2018-01-26 08:30","2018","01","26","08:30","","M","","M","94","","","M","26","","31","","","","100.59","","","","","","NA"
"-55.38","46.92","ST LAWRENCE","8403619","2018-01-26 09:30","2018","01","26","09:30","","M","","M","86","","","M","27","","28","","","","100.67","","","","","","NA"
"-55.38","46.92","ST LAWRENCE","8403619","2018-01-26 10:30","2018","01","26","10:30","","M","","M","80","","","M","28","","30","","","","100.75","","","","","","NA"
"-55.38","46.92","ST LAWRENCE","8403619","2018-01-26 11:30","2018","01","26","11:30","","M","","M","78","","","M","28","","30","","","","100.82","","","","","","NA"
"-55.38","46.92","ST LAWRENCE","8403619","2018-01-26 12:30","2018","01","26","12:30","","M","","M","73","","","M","28","","29","","","","100.84","","","","","","NA"
"-55.38","46.92","ST LAWRENCE","8403619","2018-01-26 13:30","2018","01","26","13:30","","M","","M","75","","","M","29","","26","","","","100.88","","","","","","NA"
"-55.38","46.92","ST LAWRENCE","8403619","2018-01-26 14:30","2018","01","26","14:30","","M","","M","74","","","M","28","","27","","","","100.92","","","","","","NA"
"-55.38","46.92","ST LAWRENCE","8403619","2018-01-26 15:30","2018","01","26","15:30","","M","","M","80","","","M","28","","29","","","","101.01","","","","","","NA"
"-55.38","46.92","ST LAWRENCE","8403619","2018-01-26 16:30","2018","01","26","16:30","","M","","M","81","","","M","28","","23","","","","101.11","","","","","","NA"
"-55.38","46.92","ST LAWRENCE","8403619","2018-01-26 17:30","2018","01","26","17:30","","M","","M","81","","","M","27","","22","","","","101.17","","","","","","NA"
"-55.38","46.92","ST LAWRENCE","8403619","2018-01-26 18:30","2018","01","26","18:30","","M","","M","82","","","M","27","","15","","","","101.24","","","","","","NA"
"-55.38","46.92","ST LAWRENCE","8403619","2018-01-26 19:30","2018","01","26","19:30","","M","","M","82","","","M","27","","14","","","","101.31","","","","","","NA"
"-55.38","46.92","ST LAWRENCE","8403619","2018-01-26 20:30","2018","01","26","20:30","","M","","M","79","","","M","30","","13","","","","101.42","","","","","","NA"
"-55.38","46.92","ST LAWRENCE","8403619","2018-01-26 21:30","2018","01","26","21:30","","M","","M","82","","","M","30","","11","","","","101.50","","","","","","NA"
"-55.38","46.92","ST LAWRENCE","8403619","2018-01-26 22:30","2018","01","26","22:30","","M","","M","80","","","M","34","","10","","","","101.56","","","","","","NA"
"-55.38","46.92","ST LAWRENCE","8403619","2018-01-26 23:30","2018","01","26","23:30","","M","","M","81","","","M","33","","11","","","","101.62","","","","","","NA"
"-55.38","46.92","ST LAWRENCE","8403619","2018-01-27 00:30","2018","01","27","00:30","","M","","M","80","","","M","32","","12","","","","101.69","","","","","","NA"
"-55.38","46.92","ST LAWRENCE","8403619","2018-01-27 01:30","2018","01","27","01:30","","M","","M","80","","","M","32","","14","","","","101.74","","","","","","NA"
"-55.38","46.92","ST LAWRENCE","8403619","2018-01-27 02:30","2018","01","27","02:30","","M","","M","81","","","M","31","","16","","","","101.85","","","","","","NA"
"-55.38","46.92","ST LAWRENCE","8403619","2018-01-27 03:30","2018","01","27","03:30","","M","","M","82","","","M","31","","20","","","","101.92","","","","","","NA"
"-55.38","46.92","ST LAWRENCE","8403619","2018-01-27 04:30","2018","01","27","04:30","","M","","M","81","","","M","33","","23","","","","102.03","","","","","","NA"
"-55.38","46.92","ST LAWRENCE","8403619","2018-01-27 05:30","2018","01","27","05:30","","M","","M","84","","","M","35","","13","","","","102.14","","","","","","NA"
"-55.38","46.92","ST LAWRENCE","8403619","2018-01-27 06:30","2018","01","27","06:30","","M","","M","87","","","M","34","","12","","","","102.25","","","","","","NA"
"-55.38","46.92","ST LAWRENCE","8403619","2018-01-27 07:30","2018","01","27","07:30","","M","","M","90","","","M","0","","1","","","","102.36","","","","","","NA"
"-55.38","46.92","ST LAWRENCE","8403619","2018-01-27 08:30","2018","01","27","08:30","","M","","M","84","","","M","30","","12","","","","102.46","","","","","","NA"
"-55.38","46.92","ST LAWRENCE","8403619","2018-01-27 09:30","2018","01","27","09:30","","M","","M","76","","","M","28","","13","","","","102.54","","","","","","NA"
"-55.38","46.92","ST LAWRENCE","8403619","2018-01-27 10:30","2018","01","27","10:30","","M","","M","66","","","M","30","","17","","","","102.59","","","","","","NA"
"-55.38","46.92","ST LAWRENCE","8403619","2018-01-27 11:30","2018","01","27","11:30","","M","","M","60","","","M","32","","17","","","","102.49","","","","","","NA"
"-55.38","46.92","ST LAWRENCE","8403619","2018-01-27 12:30","2018","01","27","12:30","","M","","M","62","","","M","29","","17","","","","102.48","","","","","","NA"
"-55.38","46.92","ST LAWRENCE","8403619","2018-01-27 13:30","2018","01","27","13:30","","M","","M","66","","","M","29","","18","","","","102.47","","","","","","NA"
"-55.38","46.92","ST LAWRENCE","8403619","2018-01-27 14:30","2018","01","27","14:30","","M","","M","64","","","M","27","","18","","","","102.46","","","","","","NA"
"-55.38","46.92","ST LAWRENCE","8403619","2018-01-27 15:30","2018","01","27","15:30","","M","","M","67","","","M","27","","19","","","","102.50","","","","","","NA"
"-55.38","46.92","ST LAWRENCE","8403619","2018-01-27 16:30","2018","01","27","16:30","","M","","M","77","","","M","25","","24","","","","102.50","","","","","","NA"
"-55.38","46.92","ST LAWRENCE","8403619","2018-01-27 17:30","2018","01","27","17:30","","M","","M","84","","","M","26","","16","","","","102.46","","","","","","NA"
"-55.38","46.92","ST LAWRENCE","8403619","2018-01-27 18:30","2018","01","27","18:30","","M","","M","85","","","M","25","","18","","","","102.45","","","","","","NA"
"-55.38","46.92","ST LAWRENCE","8403619","2018-01-27 19:30","2018","01","27","19:30","","M","","M","85","","","M","23","","19","","","","102.41","","","","","","NA"
"-55.38","46.92","ST LAWRENCE","8403619","2018-01-27 20:30","2018","01","27","20:30","","M","","M","85","","","M","23","","24","","","","102.40","","","","","","NA"
"-55.38","46.92","ST LAWRENCE","8403619","2018-01-27 21:30","2018","01","27","21:30","","M","","M","85","","","M","22","","27","","","","102.32","","","","","","NA"
"-55.38","46.92","ST LAWRENCE","8403619","2018-01-27 22:30","2018","01","27","22:30","","M","","M","86","","","M","21","","29","","","","102.29","","","","","","NA"
"-55.38","46.92","ST LAWRENCE","8403619","2018-01-27 23:30","2018","01","27","23:30","","M","","M","86","","","M","21","","36","","","","102.20","","","","","","NA"
"-55.38","46.92","ST LAWRENCE","8403619","2018-01-28 00:30","2018","01","28","00:30","","M","","M","85","","","M","21","","35","","","","102.11","","","","","","NA"
"-55.38","46.92","ST LAWRENCE","8403619","2018-01-28 01:30","2018","01","28","01:30","","M","","M","88","","","M","21","","35","","","","101.99","","","","","","NA"
"-55.38","46.92","ST LAWRENCE","8403619","2018-01-28 02:30","2018","01","28","02:30","","M","","M","93","","","M","20","","35","","","","101.84","","","","","","NA"
"-55.38","46.92","ST LAWRENCE","8403619","2018-01-28 03:30","2018","01","28","03:30","","M","","M","95","","","M","21","","39","","","","101.73","","","","","","NA"
"-55.38","46.92","ST LAWRENCE","8403619","2018-01-28 04:30","2018","01","28","04:30","","M","","M","98","","","M","21","","36","","","","101.60","","","","","","NA"
"-55.38","46.92","ST LAWRENCE","8403619","2018-01-28 05:30","2018","01","28","05:30","","M","","M","100","","","M","21","","39","","","","101.49","","","","","","NA"
"-55.38","46.92","ST LAWRENCE","8403619","2018-01-28 06:30","2018","01","28","06:30","","M","","M","","M","","M","21","","41","","","","101.37","","","","","","NA"
"-55.38","46.92","ST LAWRENCE","8403619","2018-01-28 07:30","2018","01","28","07:30","","M","","M","","M","","M","21","","38","","","","101.32","","","","","","NA"
"-55.38","46.92","ST LAWRENCE","8403619","2018-01-28 08:30","2018","01","28","08:30","","M","","M","","M","","M","22","","36","","","","101.28","","","","","","NA"
"-55.38","46.92","ST LAWRENCE","8403619","2018-01-28 09:30","2018","01","28","09:30","","M","","M","","M","","M","22","","35","","","","101.21","","","","","","NA"
"-55.38","46.92","ST LAWRENCE","8403619","2018-01-28 10:30","2018","01","28","10:30","","M","","M","","M","","M","22","","45","","","","101.16","","","","","","NA"
"-55.38","46.92","ST LAWRENCE","8403619","2018-01-28 11:30","2018","01","28","11:30","","M","","M","","M","","M","23","","44","","","","101.14","","","","","","NA"
"-55.38","46.92","ST LAWRENCE","8403619","2018-01-28 12:30","2018","01","28","12:30","","M","","M","","M","","M","24","","44","","","","101.08","","","","","","NA"
"-55.38","46.92","ST LAWRENCE","8403619","2018-01-28 13:30","2018","01","28","13:30","","M","","M","","M","","M","24","","38","","","","101.06","","","","","","NA"
"-55.38","46.92","ST LAWRENCE","8403619","2018-01-28 14:30","2018","01","28","14:30","","M","","M","","M","","M","24","","39","","","","101.06","","","","","","NA"
"-55.38","46.92","ST LAWRENCE","8403619","2018-01-28 15:30","2018","01","28","15:30","","M","","M","","M","","M","24","","37","","","","101.11","","","","","","NA"
"-55.38","46.92","ST LAWRENCE","8403619","2018-01-28 16:30","2018","01","28","16:30","","M","","M","","M","","M","24","","30","","","","101.15","","","","","","NA"
"-55.38","46.92","ST LAWRENCE","8403619","2018-01-28 17:30","2018","01","28","17:30","","M","","M","","M","","M","24","","30","","","","101.17","","","","","","NA"
"-55.38","46.92","ST LAWRENCE","8403619","2018-01-28 18:30","2018","01","28","18:30","","M","","M","","M","","M","24","","26","","","","101.16","","","","","","NA"
"-55.38","46.92","ST LAWRENCE","8403619","2018-01-28 19:30","2018","01","28","19:30","","M","","M","","M","","M","23","","27","","","","101.22","","","","","","NA"
"-55.38","46.92","ST LAWRENCE","8403619","2018-01-28 20:30","2018","01","28","20:30","","M","","M","","M","","M","24","","24","","","","101.24","","","","","","NA"
"-55.38","46.92","ST LAWRENCE","8403619","2018-01-28 21:30","2018","01","28","21:30","","M","","M","","M","","M","24","","21","","","","101.23","","","","","","NA"
"-55.38","46.92","ST LAWRENCE","8403619","2018-01-28 22:30","2018","01","28","22:30","","M","","M","","M","","M","25","","24","","","","101.21","","","","","","NA"
"-55.38","46.92","ST LAWRENCE","8403619","2018-01-28 23:30","2018","01","28","23:30","","M","","M","","M","","M","24","","18","","","","101.21","","","","","","NA"
"-55.38","46.92","ST LAWRENCE","8403619","2018-01-29 00:30","2018","01","29","00:30","","M","","M","","M","","M","25","","15","","","","101.26","","","","","","NA"
"-55.38","46.92","ST LAWRENCE","8403619","2018-01-29 01:30","2018","01","29","01:30","","M","","M","","M","","M","26","","12","","","","101.24","","","","","","NA"
"-55.38","46.92","ST LAWRENCE","8403619","2018-01-29 02:30","2018","01","29","02:30","","M","","M","","M","","M","25","","10","","","","101.30","","","","","","NA"
"-55.38","46.92","ST LAWRENCE","8403619","2018-01-29 03:30","2018","01","29","03:30","","M","","M","","M","","M","24","","6","","","","101.33","","","","","","NA"
"-55.38","46.92","ST LAWRENCE","8403619","2018-01-29 04:30","2018","01","29","04:30","","M","","M","","M","","M","29","","5","","","","101.36","","","","","","NA"
"-55.38","46.92","ST LAWRENCE","8403619","2018-01-29 05:30","2018","01","29","05:30","","M","","M","","M","","M","16","","5","","","","101.40","","","","","","NA"
"-55.38","46.92","ST LAWRENCE","8403619","2018-01-29 06:30","2018","01","29","06:30","","M","","M","","M","","M","28","","7","","","","101.48","","","","","","NA"
"-55.38","46.92","ST LAWRENCE","8403619","2018-01-29 07:30","2018","01","29","07:30","","M","","M","","M","","M","28","","18","","","","101.55","","","","","","NA"
"-55.38","46.92","ST LAWRENCE","8403619","2018-01-29 08:30","2018","01","29","08:30","","M","","M","","M","","M","28","","20","","","","101.64","","","","","","NA"
"-55.38","46.92","ST LAWRENCE","8403619","2018-01-29 09:30","2018","01","29","09:30","","M","","M","","M","","M","28","","14","","","","101.75","","","","","","NA"
"-55.38","46.92","ST LAWRENCE","8403619","2018-01-29 10:30","2018","01","29","10:30","","M","","M","","M","","M","27","","14","","","","101.82","","","","","","NA"
"-55.38","46.92","ST LAWRENCE","8403619","2018-01-29 11:30","2018","01","29","11:30","","M","","M","","M","","M","29","","18","","","","101.84","","","","","","NA"
"-55.38","46.92","ST LAWRENCE","8403619","2018-01-29 12:30","2018","01","29","12:30","","M","","M","","M","","M","29","","14","","","","101.84","","","","","","NA"
"-55.38","46.92","ST LAWRENCE","8403619","2018-01-29 13:30","2018","01","29","13:30","","M","","M","100","","","M","29","","15","","","","101.84","","","","","","NA"
"-55.38","46.92","ST LAWRENCE","8403619","2018-01-29 14:30","2018","01","29","14:30","","M","","M","88","","","M","31","","13","","","","101.86","","","","","","NA"
"-55.38","46.92","ST LAWRENCE","8403619","2018-01-29 15:30","2018","01","29","15:30","","M","","M","80","","","M","32","","11","","","","101.94","","","","","","NA"
"-55.38","46.92","ST LAWRENCE","8403619","2018-01-29 16:30","2018","01","29","16:30","","M","","M","81","","","M","34","","11","","","","101.94","","","","","","NA"
"-55.38","46.92","ST LAWRENCE","8403619","2018-01-29 17:30","2018","01","29","17:30","","M","","M","84","","","M","1","","8","","","","101.98","","","","","","NA"
"-55.38","46.92","ST LAWRENCE","8403619","2018-01-29 18:30","2018","01","29","18:30","","M","","M","80","","","M","3","","11","","","","102.04","","","","","","NA"
"-55.38","46.92","ST LAWRENCE","8403619","2018-01-29 19:30","2018","01","29","19:30","","M","","M","82","","","M","3","","12","","","","102.07","","","","","","NA"
"-55.38","46.92","ST LAWRENCE","8403619","2018-01-29 20:30","2018","01","29","20:30","","M","","M","81","","","M","4","","12","","","","102.08","","","","","","NA"
"-55.38","46.92","ST LAWRENCE","8403619","2018-01-29 21:30","2018","01","29","21:30","","M","","M","80","","","M","4","","13","","","","102.09","","","","","","NA"
"-55.38","46.92","ST LAWRENCE","8403619","2018-01-29 22:30","2018","01","29","22:30","","M","","M","78","","","M","3","","15","","","","102.08","","","","","","NA"
"-55.38","46.92","ST LAWRENCE","8403619","2018-01-29 23:30","2018","01","29","23:30","","M","","M","78","","","M","5","","19","","","","102.01","","","","","","NA"
"-55.38","46.92","ST LAWRENCE","8403619","2018-01-30 00:30","2018","01","30","00:30","","M","","M","92","","","M","5","","24","","","","101.97","","","","","","NA"
"-55.38","46.92","ST LAWRENCE","8403619","2018-01-30 01:30","2018","01","30","01:30","","M","","M","100","","","M","4","","21","","","","101.85","","","","","","NA"
"-55.38","46.92","ST LAWRENCE","8403619","2018-01-30 02:30","2018","01","30","02:30","","M","","M","","M","","M","6","","20","","","","101.76","","","","","","NA"
"-55.38","46.92","ST LAWRENCE","8403619","2018-01-30 03:30","2018","01","30","03:30","","M","","M","","M","","M","6","","32","","","","101.69","","","","","","NA"
"-55.38","46.92","ST LAWRENCE","8403619","2018-01-30 04:30","2018","01","30","04:30","","M","","M","","M","","M","6","","34","","","","101.59","","","","","","NA"
"-55.38","46.92","ST LAWRENCE","8403619","2018-01-30 05:30","2018","01","30","05:30","","M","","M","","M","","M","6","","34","","","","101.52","","","","","","NA"
"-55.38","46.92","ST LAWRENCE","8403619","2018-01-30 06:30","2018","01","30","06:30","","M","","M","","M","","M","6","","41","","","","101.43","","","","","","NA"
"-55.38","46.92","ST LAWRENCE","8403619","2018-01-30 07:30","2018","01","30","07:30","","M","","M","","M","","M","6","","43","","","","101.33","","","","","","NA"
"-55.38","46.92","ST LAWRENCE","8403619","2018-01-30 08:30","2018","01","30","08:30","","M","","M","","M","","M","6","","42","","","","101.19","","","","","","NA"
"-55.38","46.92","ST LAWRENCE","8403619","2018-01-30 09:30","2018","01","30","09:30","","M","","M","","M","","M","5","","36","","","","101.13","","","","","","NA"
"-55.38","46.92","ST LAWRENCE","8403619","2018-01-30 10:30","2018","01","30","10:30","","M","","M","","M","","M","6","","51","","","","100.89","","","","","","NA"
"-55.38","46.92","ST LAWRENCE","8403619","2018-01-30 11:30","2018","01","30","11:30","","M","","M","","M","","M","7","","37","","","","100.87","","","","","","NA"
"-55.38","46.92","ST LAWRENCE","8403619","2018-01-30 12:30","2018","01","30","12:30","","M","","M","","M","","M","7","","16","","","","100.64","","","","","","NA"
"-55.38","46.92","ST LAWRENCE","8403619","2018-01-30 13:30","2018","01","30","13:30","","M","","M","","M","","M","7","","36","","","","100.45","","","","","","NA"
"-55.38","46.92","ST LAWRENCE","8403619","2018-01-30 14:30","2018","01","30","14:30","","M","","M","","M","","M","6","","6","","","","100.28","","","","","","NA"
"-55.38","46.92","ST LAWRENCE","8403619","2018-01-30 15:30","2018","01","30","15:30","","M","","M","","M","","M","11","","3","","","","100.26","","","","","","NA"
"-55.38","46.92","ST LAWRENCE","8403619","2018-01-30 16:30","2018","01","30","16:30","","M","","M","","M","","M","8","","29","","","","100.03","","","","","","NA"
"-55.38","46.92","ST LAWRENCE","8403619","2018-01-30 17:30","2018","01","30","17:30","","M","","M","","M","","M","14","","43","","","","99.87","","","","","","NA"
"-55.38","46.92","ST LAWRENCE","8403619","2018-01-30 18:30","2018","01","30","18:30","","M","","M","","M","","M","16","","59","","","","99.70","","","","","","NA"
"-55.38","46.92","ST LAWRENCE","8403619","2018-01-30 19:30","2018","01","30","19:30","","M","","M","","M","","M","17","","54","","","","99.66","","","","","","NA"
"-55.38","46.92","ST LAWRENCE","8403619","2018-01-30 20:30","2018","01","30","20:30","","M","","M","","M","","M","17","","52","","","","99.62","","","","","","NA"
"-55.38","46.92","ST LAWRENCE","8403619","2018-01-30 21:30","2018","01","30","21:30","","M","","M","","M","","M","17","","48","","","","99.59","","","","","","NA"
"-55.38","46.92","ST LAWRENCE","8403619","2018-01-30 22:30","2018","01","30","22:30","","M","","M","","M","","M","17","","46","","","","99.55","","","","","","NA"
"-55.38","46.92","ST LAWRENCE","8403619","2018-01-30 23:30","2018","01","30","23:30","","M","","M","","M","","M","16","","45","","","","99.45","","","","","","NA"
"-55.38","46.92","ST LAWRENCE","8403619","2018-01-31 00:30","2018","01","31","00:30","","M","","M","","M","","M","15","","50","","","","99.31","","","","","","NA"
"-55.38","46.92","ST LAWRENCE","8403619","2018-01-31 01:30","2018","01","31","01:30","","M","","M","","M","","M","14","","40","","","","99.19","","","","","","NA"
"-55.38","46.92","ST LAWRENCE","8403619","2018-01-31 02:30","2018","01","31","02:30","","M","","M","","M","","M","15","","34","","","","99.11","","","","","","NA"
"-55.38","46.92","ST LAWRENCE","8403619","2018-01-31 03:30","2018","01","31","03:30","","M","","M","","M","","M","14","","37","","","","98.94","","","","","","NA"
"-55.38","46.92","ST LAWRENCE","8403619","2018-01-31 04:30","2018","01","31","04:30","","M","","M","","M","","M","14","","45","","","","98.74","","","","","","NA"
"-55.38","46.92","ST LAWRENCE","8403619","2018-01-31 05:30","2018","01","31","05:30","","M","","M","","M","","M","16","","56","","","","98.73","","","","","","NA"
"-55.38","46.92","ST LAWRENCE","8403619","2018-01-31 06:30","2018","01","31","06:30","","M","","M","","M","","M","19","","35","","","","98.77","","","","","","NA"
"-55.38","46.92","ST LAWRENCE","8403619","2018-01-31 07:30","2018","01","31","07:30","","M","","M","","M","","M","22","","33","","","","98.89","","","","","","NA"
"-55.38","46.92","ST LAWRENCE","8403619","2018-01-31 08:30","2018","01","31","08:30","","M","","M","","M","","M","21","","28","","","","98.94","","","","","","NA"
"-55.38","46.92","ST LAWRENCE","8403619","2018-01-31 09:30","2018","01","31","09:30","","M","","M","","M","","M","23","","38","","","","99.06","","","","","","NA"
"-55.38","46.92","ST LAWRENCE","8403619","2018-01-31 10:30","2018","01","31","10:30","","M","","M","","M","","M","23","","44","","","","99.17","","","","","","NA"
"-55.38","46.92","ST LAWRENCE","8403619","2018-01-31 11:30","2018","01","31","11:30","","M","","M","","M","","M","23","","45","","","","99.23","","","","","","NA"
"-55.38","46.92","ST LAWRENCE","8403619","2018-01-31 12:30","2018","01","31","12:30","","M","","M","96","","","M","24","","48","","","","99.28","","","","","","NA"
"-55.38","46.92","ST LAWRENCE","8403619","2018-01-31 13:30","2018","01","31","13:30"
"-55.38","46.92","ST LAWRENCE","8403619","2018-01-31 14:30","2018","01","31","14:30"
"-55.38","46.92","ST LAWRENCE","8403619","2018-01-31 15:30","2018","01","31","15:30"
"-55.38","46.92","ST LAWRENCE","8403619","2018-01-31 16:30","2018","01","31","16:30"
"-55.38","46.92","ST LAWRENCE","8403619","2018-01-31 17:30","2018","01","31","17:30"
"-55.38","46.92","ST LAWRENCE","8403619","2018-01-31 18:30","2018","01","31","18:30"
"-55.38","46.92","ST LAWRENCE","8403619","2018-01-31 19:30","2018","01","31","19:30"
"-55.38","46.92","ST LAWRENCE","8403619","2018-01-31 20:30","2018","01","31","20:30"
"-55.38","46.92","ST LAWRENCE","8403619","2018-01-31 21:30","2018","01","31","21:30"
"-55.38","46.92","ST LAWRENCE","8403619","2018-01-31 22:30","2018","01","31","22:30"
"-55.38","46.92","ST LAWRENCE","8403619","2018-01-31 23:30","2018","01","31","23:30"
