"Longitude (x)","Latitude (y)","Station Name","Climate ID","Date/Time (LST)","Year","Month","Day","Time (LST)","Temp (°C)","Temp Flag","Dew Point Temp (°C)","Dew Point Temp Flag","Rel Hum (%)","Rel Hum Flag","Precip. Amount (mm)","Precip. Amount Flag","Wind Dir (10s deg)","Wind Dir Flag","Wind Spd (km/h)","Wind Spd Flag","Visibility (km)","Visibility Flag","Stn Press (kPa)","Stn Press Flag","Hmdx","Hmdx Flag","Wind Chill","Wind Chill Flag","Weather"
"-87.94","52.20","LANSDOWNE HOUSE (AUT)","6014353","2012-02-01 00:00","2012","02","01","00:00","-10.4","","-12.5","","85","","","","10","","7","","","","98.13","","","","-14","","NA"
"-87.94","52.20","LANSDOWNE HOUSE (AUT)","6014353","2012-02-01 01:00","2012","02","01","01:00","-11.5","","-13.3","","86","","","","8","","9","","","","98.14","","","","-17","","NA"
"-87.94","52.20","LANSDOWNE HOUSE (AUT)","6014353","2012-02-01 02:00","2012","02","01","02:00","-13.4","","-15.0","","88","","","","8","","2","","","","98.17","","","","-15","","NA"
"-87.94","52.20","LANSDOWNE HOUSE (AUT)","6014353","2012-02-01 03:00","2012","02","01","03:00","-13.6","","-14.4","","94","","","","15","","2","","","","98.20","","","","-15","","NA"
"-87.94","52.20","LANSDOWNE HOUSE (AUT)","6014353","2012-02-01 04:00","2012","02","01","04:00","-13.3","","-14.4","","91","","","","13","","6","","","","98.23","","","","-17","","NA"
"-87.94","52.20","LANSDOWNE HOUSE (AUT)","6014353","2012-02-01 05:00","2012","02","01","05:00","-12.9","","-14.2","","90","","","","13","","4","","","","98.27","","","","-16","","NA"
"-87.94","52.20","LANSDOWNE HOUSE (AUT)","6014353","2012-02-01 06:00","2012","02","01","06:00","-12.9","","-14.3","","89","","","","11","","6","","","","98.32","","","","-17","","NA"
"-87.94","52.20","LANSDOWNE HOUSE (AUT)","6014353","2012-02-01 07:00","2012","02","01","07:00","-12.6","","-14.2","","88","","","","13","","2","","","","98.38","","","","-14","","NA"
"-87.94","52.20","LANSDOWNE HOUSE (AUT)","6014353","2012-02-01 08:00","2012","02","01","08:00","-12.5","","-14.1","","88","","","","10","","4","","","","98.43","","","","-15","","NA"
"-87.94","52.20","LANSDOWNE HOUSE (AUT)","6014353","2012-02-01 09:00","2012","02","01","09:00","-12.0","","-13.6","","88","","","","18","","6","","","","98.48","","","","-16","","NA"
"-87.94","52.20","LANSDOWNE HOUSE (AUT)","6014353","2012-02-01 10:00","2012","02","01","10:00","-11.4","","-13.2","","86","","","","19","","6","","","","98.52","","","","-15","","NA"
"-87.94","52.20","LANSDOWNE HOUSE (AUT)","6014353","2012-02-01 11:00","2012","02","01","11:00","-10.5","","-12.3","","87","","","","18","","6","","","","98.53","","","","-14","","NA"
"-87.94","52.20","LANSDOWNE HOUSE (AUT)","6014353","2012-02-01 12:00","2012","02","01","12:00","-9.1","","-11.2","","85","","","","20","","7","","","","98.55","","","","-13","","NA"
"-87.94","52.20","LANSDOWNE HOUSE (AUT)","6014353","2012-02-01 13:00","2012","02","01","13:00","-7.9","","-10.4","","82","","","","18","","9","","","","98.53","","","","-12","","NA"
"-87.94","52.20","LANSDOWNE HOUSE (AUT)","6014353","2012-02-01 14:00","2012","02","01","14:00","-6.9","","-9.7","","80","","","","18","","9","","","","98.52","","","","-11","","NA"
"-87.94","52.20","LANSDOWNE HOUSE (AUT)","6014353","2012-02-01 15:00","2012","02","01","15:00","-6.2","","-9.0","","81","","","","20","","11","","","","98.53","","","","-11","","NA"
"-87.94","52.20","LANSDOWNE HOUSE (AUT)","6014353","2012-02-01 16:00","2012","02","01","16:00","-5.6","","-8.6","","79","","","","19","","9","","","","98.54","","","","-10","","NA"
"-87.94","52.20","LANSDOWNE HOUSE (AUT)","6014353","2012-02-01 17:00","2012","02","01","17:00","-5.6","","-8.4","","81","","","","20","","6","","","","98.58","","","","-8","","NA"
"-87.94","52.20","LANSDOWNE HOUSE (AUT)","6014353","2012-02-01 18:00","2012","02","01","18:00","-6.0","","-8.5","","82","","","","19","","7","","","","98.64","","","","-9","","NA"
"-87.94","52.20","LANSDOWNE HOUSE (AUT)","6014353","2012-02-01 19:00","2012","02","01","19:00","-6.5","","-8.8","","84","","","","18","","7","","","","98.66","","","","-10","","NA"
"-87.94","52.20","LANSDOWNE HOUSE (AUT)","6014353","2012-02-01 20:00","2012","02","01","20:00","-6.7","","-8.8","","85","","","","17","","7","","","","98.67","","","","-10","","NA"
"-87.94","52.20","LANSDOWNE HOUSE (AUT)","6014353","2012-02-01 21:00","2012","02","01","21:00","-6.6","","-8.6","","86","","","","20","","6","","","","98.68","","","","-10","","NA"
"-87.94","52.20","LANSDOWNE HOUSE (AUT)","6014353","2012-02-01 22:00","2012","02","01","22:00","-6.3","","-8.1","","87","","","","19","","9","","","","98.69","","","","-11","","NA"
"-87.94","52.20","LANSDOWNE HOUSE (AUT)","6014353","2012-02-01 23:00","2012","02","01","23:00","-5.9","","-7.6","","88","","","","20","","9","","","","98.68","","","","-10","","NA"
"-87.94","52.20","LANSDOWNE HOUSE (AUT)","6014353","2012-02-02 00:00","2012","02","02","00:00","-5.6","","-7.1","","89","","","","20","","7","","","","98.66","","","","-9","","NA"
"-87.94","52.20","LANSDOWNE HOUSE (AUT)","6014353","2012-02-02 01:00","2012","02","02","01:00","-5.4","","-6.8","","90","","","","23","","6","","","","98.69","","","","-8","","NA"
"-87.94","52.20","LANSDOWNE HOUSE (AUT)","6014353","2012-02-02 02:00","2012","02","02","02:00","-5.3","","-6.4","","92","","","","24","","6","","","","98.71","","","","-8","","NA"
"-87.94","52.20","LANSDOWNE HOUSE (AUT)","6014353","2012-02-02 03:00","2012","02","02","03:00","-5.4","","-6.3","","93","","","","20","","6","","","","98.71","","","","-8","","NA"
"-87.94","52.20","LANSDOWNE HOUSE (AUT)","6014353","2012-02-02 04:00","2012","02","02","04:00","-5.3","","-5.9","","96","","","","20","","6","","","","98.71","","","","-8","","NA"
"-87.94","52.20","LANSDOWNE HOUSE (AUT)","6014353","2012-02-02 05:00","2012","02","02","05:00","-5.5","","-6.0","","96","","","","20","","6","","","","98.70","","","","-8","","NA"
"-87.94","52.20","LANSDOWNE HOUSE (AUT)","6014353","2012-02-02 06:00","2012","02","02","06:00","-5.9","","-6.3","","97","","","","22","","6","","","","98.71","","","","-9","","NA"
"-87.94","52.20","LANSDOWNE HOUSE (AUT)","6014353","2012-02-02 07:00","2012","02","02","07:00","-8.3","","-8.8","","96","","","","25","","7","","","","98.74","","","","-12","","NA"
"-87.94","52.20","LANSDOWNE HOUSE (AUT)","6014353","2012-02-02 08:00","2012","02","02","08:00","-5.8","","-6.1","","98","","","","26","","7","","","","98.77","","","","-9","","NA"
"-87.94","52.20","LANSDOWNE HOUSE (AUT)","6014353","2012-02-02 09:00","2012","02","02","09:00","-5.7","","-6.2","","96","","","","26","","7","","","","98.82","","","","-9","","NA"
"-87.94","52.20","LANSDOWNE HOUSE (AUT)","6014353","2012-02-02 10:00","2012","02","02","10:00","-6.2","","-6.6","","97","","","","26","","6","","","","98.86","","","","-9","","NA"
"-87.94","52.20","LANSDOWNE HOUSE (AUT)","6014353","2012-02-02 11:00","2012","02","02","11:00","-5.0","","-5.9","","93","","","","29","","6","","","","98.89","","","","-8","","NA"
"-87.94","52.20","LANSDOWNE HOUSE (AUT)","6014353","2012-02-02 12:00","2012","02","02","12:00","-4.7","","-6.3","","89","","","","33","","6","","","","98.94","","","","-7","","NA"
"-87.94","52.20","LANSDOWNE HOUSE (AUT)","6014353","2012-02-02 13:00","2012","02","02","13:00","-4.9","","-6.8","","87","","","","31","","7","","","","99.00","","","","-8","","NA"
"-87.94","52.20","LANSDOWNE HOUSE (AUT)","6014353","2012-02-02 14:00","2012","02","02","14:00","-5.6","","-7.4","","87","","","","32","","7","","","","99.05","","","","-9","","NA"
"-87.94","52.20","LANSDOWNE HOUSE (AUT)","6014353","2012-02-02 15:00","2012","02","02","15:00","-6.8","","-8.4","","88","","","","31","","7","","","","99.13","","","","-10","","NA"
"-87.94","52.20","LANSDOWNE HOUSE (AUT)","6014353","2012-02-02 16:00","2012","02","02","16:00","-8.0","","-10.1","","85","","","","33","","7","","","","99.21","","","","-12","","NA"
"-87.94","52.20","LANSDOWNE HOUSE (AUT)","6014353","2012-02-02 17:00","2012","02","02","17:00","-9.0","","-11.0","","85","","","","33","","6","","","","99.32","","","","-12","","NA"
"-87.94","52.20","LANSDOWNE HOUSE (AUT)","6014353","2012-02-02 18:00","2012","02","02","18:00","-10.3","","-12.3","","85","","","","33","","7","","","","99.44","","","","-14","","NA"
"-87.94","52.20","LANSDOWNE HOUSE (AUT)","6014353","2012-02-02 19:00","2012","02","02","19:00","-11.1","","-14.2","","78","","","","31","","6","","","","99.53","","","","-15","","NA"
"-87.94","52.20","LANSDOWNE HOUSE (AUT)","6014353","2012-02-02 20:00","2012","02","02","20:00","-11.3","","-13.8","","82","","","","30","","6","","","","99.59","","","","-15","","NA"
"-87.94","52.20","LANSDOWNE HOUSE (AUT)","6014353","2012-02-02 21:00","2012","02","02","21:00","-11.5","","-13.5","","85","","","","33","","6","","","","99.65","","","","-15","","NA"
"-87.94","52.20","LANSDOWNE HOUSE (AUT)","6014353","2012-02-02 22:00","2012","02","02","22:00","-12.3","","-14.4","","84","","","","35","","7","","","","99.70","","","","-17","","NA"
"-87.94","52.20","LANSDOWNE HOUSE (AUT)","6014353","2012-02-02 23:00","2012","02","02","23:00","-13.2","","-15.5","","83","","","","32","","4","","","","99.75","","","","-16","","NA"
"-87.94","52.20","LANSDOWNE HOUSE (AUT)","6014353","2012-02-03 00:00","2012","02","03","00:00","-13.8","","-15.7","","86","","","","32","","4","","","","99.83","","","","-17","","NA"
"-87.94","52.20","LANSDOWNE HOUSE (AUT)","6014353","2012-02-03 01:00","2012","02","03","01:00","-14.9","","-16.4","","88","","","","33","","2","","","","99.86","","","","-16","","NA"
"-87.94","52.20","LANSDOWNE HOUSE (AUT)","6014353","2012-02-03 02:00","2012","02","03","02:00","-15.2","","-16.5","","90","","","","31","","2","","","","99.87","","","","-17","","NA"
"-87.94","52.20","LANSDOWNE HOUSE (AUT)","6014353","2012-02-03 03:00","2012","02","03","03:00","-15.8","","-17.1","","90","","","","31","","6","","","","99.94","","","","-20","","NA"
"-87.94","52.20","LANSDOWNE HOUSE (AUT)","6014353","2012-02-03 04:00","2012","02","03","04:00","-16.3","","-17.5","","90","","","","30","","6","","","","99.96","","","","-21","","NA"
"-87.94","52.20","LANSDOWNE HOUSE (AUT)","6014353","2012-02-03 05:00","2012","02","03","05:00","-19.5","","-21.0","","88","","","","29","","4","","","","99.98","","","","-23","","NA"
"-87.94","52.20","LANSDOWNE HOUSE (AUT)","6014353","2012-02-03 06:00","2012","02","03","06:00","-20.7","","-21.9","","90","","","","25","","4","","","","99.99","","","","-24","","NA"
"-87.94","52.20","LANSDOWNE HOUSE (AUT)","6014353","2012-02-03 07:00","2012","02","03","07:00","-21.0","","-22.0","","92","","","","25","","4","","","","100.03","","","","-25","","NA"
"-87.94","52.20","LANSDOWNE HOUSE (AUT)","6014353","2012-02-03 08:00","2012","02","03","08:00","-17.7","","-18.8","","91","","","","25","","7","","","","100.03","","","","-23","","NA"
"-87.94","52.20","LANSDOWNE HOUSE (AUT)","6014353","2012-02-03 09:00","2012","02","03","09:00","-15.6","","-16.8","","90","","","","26","","6","","","","100.05","","","","-20","","NA"
"-87.94","52.20","LANSDOWNE HOUSE (AUT)","6014353","2012-02-03 10:00","2012","02","03","10:00","-14.5","","-15.8","","90","","","","22","","6","","","","99.97","","","","-19","","NA"
"-87.94","52.20","LANSDOWNE HOUSE (AUT)","6014353","2012-02-03 11:00","2012","02","03","11:00","-13.3","","-15.0","","87","","","","25","","11","","","","99.96","","","","-20","","NA"
"-87.94","52.20","LANSDOWNE HOUSE (AUT)","6014353","2012-02-03 12:00","2012","02","03","12:00","-12.1","","-14.4","","83","","","","25","","9","","","","99.96","","","","-17","","NA"
"-87.94","52.20","LANSDOWNE HOUSE (AUT)","6014353","2012-02-03 13:00","2012","02","03","13:00","-11.1","","-13.6","","82","","","","25","","9","","","","99.93","","","","-16","","NA"
"-87.94","52.20","LANSDOWNE HOUSE (AUT)","6014353","2012-02-03 14:00","2012","02","03","14:00","-10.0","","-13.1","","78","","","","25","","7","","","","99.81","","","","-14","","NA"
"-87.94","52.20","LANSDOWNE HOUSE (AUT)","6014353","2012-02-03 15:00","2012","02","03","15:00","-9.1","","-12.3","","78","","","","21","","11","","","","99.67","","","","-15","","NA"
"-87.94","52.20","LANSDOWNE HOUSE (AUT)","6014353","2012-02-03 16:00","2012","02","03","16:00","-8.2","","-11.3","","78","","","","20","","9","","","","99.58","","","","-13","","NA"
"-87.94","52.20","LANSDOWNE HOUSE (AUT)","6014353","2012-02-03 17:00","2012","02","03","17:00","-8.0","","-10.8","","80","","","","20","","9","","","","99.52","","","","-13","","NA"
"-87.94","52.20","LANSDOWNE HOUSE (AUT)","6014353","2012-02-03 18:00","2012","02","03","18:00","-7.9","","-10.6","","81","","","","20","","11","","","","99.47","","","","-13","","NA"
"-87.94","52.20","LANSDOWNE HOUSE (AUT)","6014353","2012-02-03 19:00","2012","02","03","19:00","-8.2","","-10.6","","83","","","","20","","13","","","","99.46","","","","-14","","NA"
"-87.94","52.20","LANSDOWNE HOUSE (AUT)","6014353","2012-02-03 20:00","2012","02","03","20:00","-7.8","","-9.6","","87","","","","21","","9","","","","99.39","","","","-12","","NA"
"-87.94","52.20","LANSDOWNE HOUSE (AUT)","6014353","2012-02-03 21:00","2012","02","03","21:00","-7.0","","-8.3","","90","","","","23","","11","","","","99.31","","","","-12","","NA"
"-87.94","52.20","LANSDOWNE HOUSE (AUT)","6014353","2012-02-03 22:00","2012","02","03","22:00","-6.3","","-7.3","","93","","","","23","","7","","","","99.25","","","","-10","","NA"
"-87.94","52.20","LANSDOWNE HOUSE (AUT)","6014353","2012-02-03 23:00","2012","02","03","23:00","-5.4","","-6.2","","94","","","","24","","9","","","","99.19","","","","-9","","NA"
"-87.94","52.20","LANSDOWNE HOUSE (AUT)","6014353","2012-02-04 00:00","2012","02","04","00:00","-4.6","","-5.4","","94","","","","25","","9","","","","99.10","","","","-8","","NA"
"-87.94","52.20","LANSDOWNE HOUSE (AUT)","6014353","2012-02-04 01:00","2012","02","04","01:00","-3.6","","-4.8","","91","","","","28","","11","","","","99.09","","","","-8","","NA"
"-87.94","52.20","LANSDOWNE HOUSE (AUT)","6014353","2012-02-04 02:00","2012","02","04","02:00","-3.3","","-4.7","","90","","","","28","","7","","","","99.08","","","","-6","","NA"
"-87.94","52.20","LANSDOWNE HOUSE (AUT)","6014353","2012-02-04 03:00","2012","02","04","03:00","-3.1","","-4.5","","90","","","","28","","9","","","","99.06","","","","-7","","NA"
"-87.94","52.20","LANSDOWNE HOUSE (AUT)","6014353","2012-02-04 04:00","2012","02","04","04:00","-3.1","","-4.5","","90","","","","28","","11","","","","99.06","","","","-7","","NA"
"-87.94","52.20","LANSDOWNE HOUSE (AUT)","6014353","2012-02-04 05:00","2012","02","04","05:00","-3.1","","-4.5","","90","","","","30","","9","","","","99.07","","","","-7","","NA"
"-87.94","52.20","LANSDOWNE HOUSE (AUT)","6014353","2012-02-04 06:00","2012","02","04","06:00","-3.2","","-4.5","","91","","","","30","","7","","","","99.09","","","","-6","","NA"
"-87.94","52.20","LANSDOWNE HOUSE (AUT)","6014353","2012-02-04 07:00","2012","02","04","07:00","-3.5","","-4.7","","91","","","","30","","9","","","","99.10","","","","-7","","NA"
"-87.94","52.20","LANSDOWNE HOUSE (AUT)","6014353","2012-02-04 08:00","2012","02","04","08:00","-3.8","","-4.8","","93","","","","30","","11","","","","99.12","","","","-8","","NA"
"-87.94","52.20","LANSDOWNE HOUSE (AUT)","6014353","2012-02-04 09:00","2012","02","04","09:00","-3.9","","-4.7","","94","","","","30","","11","","","","99.14","","","","-8","","NA"
"-87.94","52.20","LANSDOWNE HOUSE (AUT)","6014353","2012-02-04 10:00","2012","02","04","10:00","-3.9","","-4.9","","93","","","","29","","9","","","","99.16","","","","-8","","NA"
"-87.94","52.20","LANSDOWNE HOUSE (AUT)","6014353","2012-02-04 11:00","2012","02","04","11:00","-3.8","","-4.7","","93","","","","27","","9","","","","99.14","","","","-8","","NA"
"-87.94","52.20","LANSDOWNE HOUSE (AUT)","6014353","2012-02-04 12:00","2012","02","04","12:00","-3.5","","-4.7","","91","","","","29","","9","","","","99.18","","","","-7","","NA"
"-87.94","52.20","LANSDOWNE HOUSE (AUT)","6014353","2012-02-04 13:00","2012","02","04","13:00","-3.7","","-5.0","","91","","","","30","","9","","","","99.19","","","","-7","","NA"
"-87.94","52.20","LANSDOWNE HOUSE (AUT)","6014353","2012-02-04 14:00","2012","02","04","14:00","-3.7","","-5.0","","91","","","","30","","9","","","","99.20","","","","-7","","NA"
"-87.94","52.20","LANSDOWNE HOUSE (AUT)","6014353","2012-02-04 15:00","2012","02","04","15:00","-3.7","","-5.2","","89","","","","29","","9","","","","99.22","","","","-7","","NA"
"-87.94","52.20","LANSDOWNE HOUSE (AUT)","6014353","2012-02-04 16:00","2012","02","04","16:00","-3.5","","-5.1","","89","","","","31","","6","","","","99.23","","","","-6","","NA"
"-87.94","52.20","LANSDOWNE HOUSE (AUT)","6014353","2012-02-04 17:00","2012","02","04","17:00","-3.7","","-5.4","","88","","","","33","","6","","","","99.25","","","","-6","","NA"
"-87.94","52.20","LANSDOWNE HOUSE (AUT)","6014353","2012-02-04 18:00","2012","02","04","18:00","-3.8","","-5.3","","89","","","","28","","6","","","","99.29","","","","-6","","NA"
"-87.94","52.20","LANSDOWNE HOUSE (AUT)","6014353","2012-02-04 19:00","2012","02","04","19:00","-4.0","","-5.4","","90","","","","27","","6","","","","99.27","","","","-7","","NA"
"-87.94","52.20","LANSDOWNE HOUSE (AUT)","6014353","2012-02-04 20:00","2012","02","04","20:00","-4.0","","-5.4","","90","","","","27","","9","","","","99.25","","","","-8","","NA"
"-87.94","52.20","LANSDOWNE HOUSE (AUT)","6014353","2012-02-04 21:00","2012","02","04","21:00","-4.2","","-5.5","","91","","","","26","","9","","","","99.18","","","","-8","","NA"
"-87.94","52.20","LANSDOWNE HOUSE (AUT)","6014353","2012-02-04 22:00","2012","02","04","22:00","-5.0","","-6.0","","93","","","","26","","7","","","","99.13","","","","-8","","NA"
"-87.94","52.20","LANSDOWNE HOUSE (AUT)","6014353","2012-02-04 23:00","2012","02","04","23:00","-6.4","","-7.0","","95","","","","23","","6","","","","99.03","","","","-9","","NA"
"-87.94","52.20","LANSDOWNE HOUSE (AUT)","6014353","2012-02-05 00:00","2012","02","05","00:00","-6.8","","-7.2","","97","","","","24","","11","","","","98.90","","","","-12","","NA"
"-87.94","52.20","LANSDOWNE HOUSE (AUT)","6014353","2012-02-05 01:00","2012","02","05","01:00","-6.3","","-6.7","","97","","","","25","","9","","","","98.84","","","","-11","","NA"
"-87.94","52.20","LANSDOWNE HOUSE (AUT)","6014353","2012-02-05 02:00","2012","02","05","02:00","-6.2","","-6.7","","96","","","","24","","9","","","","98.76","","","","-10","","NA"
"-87.94","52.20","LANSDOWNE HOUSE (AUT)","6014353","2012-02-05 03:00","2012","02","05","03:00","-5.7","","-6.4","","95","","","","25","","13","","","","98.69","","","","-11","","NA"
"-87.94","52.20","LANSDOWNE HOUSE (AUT)","6014353","2012-02-05 04:00","2012","02","05","04:00","-4.3","","-5.8","","89","","","","25","","20","","","","98.62","","","","-11","","NA"
"-87.94","52.20","LANSDOWNE HOUSE (AUT)","6014353","2012-02-05 05:00","2012","02","05","05:00","-4.1","","-6.0","","87","","","","23","","19","","","","98.50","","","","-10","","NA"
"-87.94","52.20","LANSDOWNE HOUSE (AUT)","6014353","2012-02-05 06:00","2012","02","05","06:00","-3.7","","-5.6","","87","","","","23","","17","","","","98.36","","","","-9","","NA"
"-87.94","52.20","LANSDOWNE HOUSE (AUT)","6014353","2012-02-05 07:00","2012","02","05","07:00","-3.3","","-5.2","","87","","","","24","","19","","","","98.24","","","","-9","","NA"
"-87.94","52.20","LANSDOWNE HOUSE (AUT)","6014353","2012-02-05 08:00","2012","02","05","08:00","-3.3","","-5.3","","86","","","","24","","20","","","","98.17","","","","-9","","NA"
"-87.94","52.20","LANSDOWNE HOUSE (AUT)","6014353","2012-02-05 09:00","2012","02","05","09:00","-2.7","","-4.9","","85","","","","24","","22","","","","98.05","","","","-9","","NA"
"-87.94","52.20","LANSDOWNE HOUSE (AUT)","6014353","2012-02-05 10:00","2012","02","05","10:00","-1.2","","-4.3","","79","","","","25","","20","","","","98.02","","","","-7","","NA"
"-87.94","52.20","LANSDOWNE HOUSE (AUT)","6014353","2012-02-05 11:00","2012","02","05","11:00","-0.5","","-4.6","","74","","","","26","","19","","","","97.97","","","","-6","","NA"
"-87.94","52.20","LANSDOWNE HOUSE (AUT)","6014353","2012-02-05 12:00","2012","02","05","12:00","0.4","","-4.3","","71","","","","27","","15","","","","97.91","","","","","","NA"
"-87.94","52.20","LANSDOWNE HOUSE (AUT)","6014353","2012-02-05 13:00","2012","02","05","13:00","0.7","","-4.2","","70","","","","26","","19","","","","97.80","","","","","","NA"
"-87.94","52.20","LANSDOWNE HOUSE (AUT)","6014353","2012-02-05 14:00","2012","02","05","14:00","1.3","","-3.9","","68","","","","26","","15","","","","97.76","","","","","","NA"
"-87.94","52.20","LANSDOWNE HOUSE (AUT)","6014353","2012-02-05 15:00","2012","02","05","15:00","3.1","","-4.0","","60","","","","26","","17","","","","97.70","","","","","","NA"
"-87.94","52.20","LANSDOWNE HOUSE (AUT)","6014353","2012-02-05 16:00","2012","02","05","16:00","3.9","","-4.3","","55","","","","26","","11","","","","97.66","","","","","","NA"
"-87.94","52.20","LANSDOWNE HOUSE (AUT)","6014353","2012-02-05 17:00","2012","02","05","17:00","2.6","","-4.5","","59","","","","25","","11","","","","97.64","","","","","","NA"
"-87.94","52.20","LANSDOWNE HOUSE (AUT)","6014353","2012-02-05 18:00","2012","02","05","18:00","0.5","","-5.7","","63","","","","27","","9","","","","97.65","","","","","","NA"
"-87.94","52.20","LANSDOWNE HOUSE (AUT)","6014353","2012-02-05 19:00","2012","02","05","19:00","0.5","","-4.4","","70","","","","28","","9","","","","97.71","","","","","","NA"
"-87.94","52.20","LANSDOWNE HOUSE (AUT)","6014353","2012-02-05 20:00","2012","02","05","20:00","-0.1","","-4.4","","73","","","","29","","9","","","","97.72","","","","-3","","NA"
"-87.94","52.20","LANSDOWNE HOUSE (AUT)","6014353","2012-02-05 21:00","2012","02","05","21:00","-0.9","","-4.4","","77","","","","30","","11","","","","97.72","","","","-5","","NA"
"-87.94","52.20","LANSDOWNE HOUSE (AUT)","6014353","2012-02-05 22:00","2012","02","05","22:00","-2.1","","-4.8","","82","","","","31","","6","","","","97.71","","","","-4","","NA"
"-87.94","52.20","LANSDOWNE HOUSE (AUT)","6014353","2012-02-05 23:00","2012","02","05","23:00","-2.2","","-4.5","","84","","","","31","","6","","","","97.72","","","","-5","","NA"
"-87.94","52.20","LANSDOWNE HOUSE (AUT)","6014353","2012-02-06 00:00","2012","02","06","00:00","-2.2","","-4.4","","85","","","","29","","7","","","","97.74","","","","-5","","NA"
"-87.94","52.20","LANSDOWNE HOUSE (AUT)","6014353","2012-02-06 01:00","2012","02","06","01:00","-2.1","","-4.1","","86","","","","32","","7","","","","97.78","","","","-5","","NA"
"-87.94","52.20","LANSDOWNE HOUSE (AUT)","6014353","2012-02-06 02:00","2012","02","06","02:00","-2.6","","-4.9","","84","","","","34","","9","","","","97.81","","","","-6","","NA"
"-87.94","52.20","LANSDOWNE HOUSE (AUT)","6014353","2012-02-06 03:00","2012","02","06","03:00","-4.0","","-5.0","","93","","","","35","","15","","","","97.92","","","","-9","","NA"
"-87.94","52.20","LANSDOWNE HOUSE (AUT)","6014353","2012-02-06 04:00","2012","02","06","04:00","-6.9","","-7.6","","95","","","","36","","17","","","","98.07","","","","-13","","NA"
"-87.94","52.20","LANSDOWNE HOUSE (AUT)","6014353","2012-02-06 05:00","2012","02","06","05:00","-8.6","","-9.3","","95","","","","36","","15","","","","98.17","","","","-15","","NA"
"-87.94","52.20","LANSDOWNE HOUSE (AUT)","6014353","2012-02-06 06:00","2012","02","06","06:00","-9.6","","-10.9","","90","","","","36","","17","","","","98.31","","","","-17","","NA"
"-87.94","52.20","LANSDOWNE HOUSE (AUT)","6014353","2012-02-06 07:00","2012","02","06","07:00","-10.7","","-12.9","","84","","","","35","","15","","","","98.43","","","","-18","","NA"
"-87.94","52.20","LANSDOWNE HOUSE (AUT)","6014353","2012-02-06 08:00","2012","02","06","08:00","-11.2","","-13.5","","83","","","","34","","11","","","","98.54","","","","-17","","NA"
"-87.94","52.20","LANSDOWNE HOUSE (AUT)","6014353","2012-02-06 09:00","2012","02","06","09:00","-11.5","","-14.0","","82","","","","34","","13","","","","98.67","","","","-18","","NA"
"-87.94","52.20","LANSDOWNE HOUSE (AUT)","6014353","2012-02-06 10:00","2012","02","06","10:00","-11.7","","-14.8","","78","","","","34","","9","","","","98.78","","","","-17","","NA"
"-87.94","52.20","LANSDOWNE HOUSE (AUT)","6014353","2012-02-06 11:00","2012","02","06","11:00","-11.4","","-14.9","","75","","","","34","","13","","","","98.90","","","","-18","","NA"
"-87.94","52.20","LANSDOWNE HOUSE (AUT)","6014353","2012-02-06 12:00","2012","02","06","12:00","-10.9","","-14.3","","76","","","","34","","15","","","","99.00","","","","-18","","NA"
"-87.94","52.20","LANSDOWNE HOUSE (AUT)","6014353","2012-02-06 13:00","2012","02","06","13:00","-11.3","","-14.8","","75","","","","33","","15","","","","99.09","","","","-18","","NA"
"-87.94","52.20","LANSDOWNE HOUSE (AUT)","6014353","2012-02-06 14:00","2012","02","06","14:00","-11.7","","-18.3","","58","","","","35","","19","","","","99.18","","","","-20","","NA"
"-87.94","52.20","LANSDOWNE HOUSE (AUT)","6014353","2012-02-06 15:00","2012","02","06","15:00","-11.6","","-20.1","","49","","","","34","","15","","","","99.30","","","","-19","","NA"
"-87.94","52.20","LANSDOWNE HOUSE (AUT)","6014353","2012-02-06 16:00","2012","02","06","16:00","-11.6","","-18.3","","58","","","","33","","9","","","","99.39","","","","-17","","NA"
"-87.94","52.20","LANSDOWNE HOUSE (AUT)","6014353","2012-02-06 17:00","2012","02","06","17:00","-13.0","","-23.0","","43","","","","32","","6","","","","99.49","","","","-17","","NA"
"-87.94","52.20","LANSDOWNE HOUSE (AUT)","6014353","2012-02-06 18:00","2012","02","06","18:00","-14.3","","-22.9","","48","","","","32","","11","","","","99.63","","","","-21","","NA"
"-87.94","52.20","LANSDOWNE HOUSE (AUT)","6014353","2012-02-06 19:00","2012","02","06","19:00","-16.0","","-23.3","","53","","","","32","","6","","","","99.72","","","","-20","","NA"
"-87.94","52.20","LANSDOWNE HOUSE (AUT)","6014353","2012-02-06 20:00","2012","02","06","20:00","-16.9","","-23.1","","59","","","","32","","7","","","","99.76","","","","-22","","NA"
"-87.94","52.20","LANSDOWNE HOUSE (AUT)","6014353","2012-02-06 21:00","2012","02","06","21:00","-18.0","","-23.4","","63","","","","30","","7","","","","99.78","","","","-23","","NA"
"-87.94","52.20","LANSDOWNE HOUSE (AUT)","6014353","2012-02-06 22:00","2012","02","06","22:00","-18.4","","-23.2","","66","","","","30","","7","","","","99.82","","","","-24","","NA"
"-87.94","52.20","LANSDOWNE HOUSE (AUT)","6014353","2012-02-06 23:00","2012","02","06","23:00","-18.8","","-23.3","","68","","","","30","","9","","","","99.86","","","","-25","","NA"
"-87.94","52.20","LANSDOWNE HOUSE (AUT)","6014353","2012-02-07 00:00","2012","02","07","00:00","-19.3","","-23.6","","69","","","","30","","7","","","","99.94","","","","-25","","NA"
"-87.94","52.20","LANSDOWNE HOUSE (AUT)","6014353","2012-02-07 01:00","2012","02","07","01:00","-20.1","","-24.1","","70","","","","30","","7","","","","99.95","","","","-26","","NA"
"-87.94","52.20","LANSDOWNE HOUSE (AUT)","6014353","2012-02-07 02:00","2012","02","07","02:00","-20.6","","-24.5","","71","","","","29","","11","","","","99.96","","","","-28","","NA"
"-87.94","52.20","LANSDOWNE HOUSE (AUT)","6014353","2012-02-07 03:00","2012","02","07","03:00","-21.3","","-24.9","","73","","","","29","","9","","","","99.96","","","","-28","","NA"
"-87.94","52.20","LANSDOWNE HOUSE (AUT)","6014353","2012-02-07 04:00","2012","02","07","04:00","-22.1","","-25.4","","75","","","","26","","11","","","","99.95","","","","-30","","NA"
"-87.94","52.20","LANSDOWNE HOUSE (AUT)","6014353","2012-02-07 05:00","2012","02","07","05:00","-22.0","","-25.4","","74","","","","26","","13","","","","99.89","","","","-31","","NA"
"-87.94","52.20","LANSDOWNE HOUSE (AUT)","6014353","2012-02-07 06:00","2012","02","07","06:00","-23.0","","-26.2","","75","","","","26","","15","","","","99.85","","","","-33","","NA"
"-87.94","52.20","LANSDOWNE HOUSE (AUT)","6014353","2012-02-07 07:00","2012","02","07","07:00","-22.2","","-25.4","","75","","","","24","","19","","","","99.75","","","","-33","","NA"
"-87.94","52.20","LANSDOWNE HOUSE (AUT)","6014353","2012-02-07 08:00","2012","02","07","08:00","-22.6","","-26.2","","72","","","","25","","15","","","","99.66","","","","-32","","NA"
"-87.94","52.20","LANSDOWNE HOUSE (AUT)","6014353","2012-02-07 09:00","2012","02","07","09:00","-21.1","","-25.9","","65","","","","25","","24","","","","99.58","","","","-33","","NA"
"-87.94","52.20","LANSDOWNE HOUSE (AUT)","6014353","2012-02-07 10:00","2012","02","07","10:00","-19.1","","-25.2","","58","","","","25","","26","","","","99.49","","","","-31","","NA"
"-87.94","52.20","LANSDOWNE HOUSE (AUT)","6014353","2012-02-07 11:00","2012","02","07","11:00","-16.9","","-24.2","","53","","","","25","","26","","","","99.36","","","","-28","","NA"
"-87.94","52.20","LANSDOWNE HOUSE (AUT)","6014353","2012-02-07 12:00","2012","02","07","12:00","-13.5","","-23.1","","44","","","","25","","30","","","","99.24","","","","-24","","NA"
"-87.94","52.20","LANSDOWNE HOUSE (AUT)","6014353","2012-02-07 13:00","2012","02","07","13:00","-11.0","","-22.1","","40","","","","25","","30","","","","99.05","","","","-21","","NA"
"-87.94","52.20","LANSDOWNE HOUSE (AUT)","6014353","2012-02-07 14:00","2012","02","07","14:00","-8.1","","-19.9","","38","","","","25","","33","","","","98.85","","","","-17","","NA"
"-87.94","52.20","LANSDOWNE HOUSE (AUT)","6014353","2012-02-07 15:00","2012","02","07","15:00","-6.6","","-19.6","","35","","","","24","","32","","","","98.64","","","","-15","","NA"
"-87.94","52.20","LANSDOWNE HOUSE (AUT)","6014353","2012-02-07 16:00","2012","02","07","16:00","-6.0","","-17.3","","40","","","","25","","39","","","","98.52","","","","-15","","NA"
"-87.94","52.20","LANSDOWNE HOUSE (AUT)","6014353","2012-02-07 17:00","2012","02","07","17:00","-6.1","","-16.7","","43","","","","25","","37","","","","98.43","","","","-15","","NA"
"-87.94","52.20","LANSDOWNE HOUSE (AUT)","6014353","2012-02-07 18:00","2012","02","07","18:00","-6.3","","-18.1","","39","","","","26","","26","","","","98.45","","","","-14","","NA"
"-87.94","52.20","LANSDOWNE HOUSE (AUT)","6014353","2012-02-07 19:00","2012","02","07","19:00","-7.0","","-17.3","","44","","","","26","","22","","","","98.46","","","","-14","","NA"
"-87.94","52.20","LANSDOWNE HOUSE (AUT)","6014353","2012-02-07 20:00","2012","02","07","20:00","-7.8","","-16.6","","49","","","","26","","24","","","","98.42","","","","-16","","NA"
"-87.94","52.20","LANSDOWNE HOUSE (AUT)","6014353","2012-02-07 21:00","2012","02","07","21:00","-8.0","","-16.1","","52","","","","26","","20","","","","98.42","","","","-15","","NA"
"-87.94","52.20","LANSDOWNE HOUSE (AUT)","6014353","2012-02-07 22:00","2012","02","07","22:00","-8.5","","-15.7","","56","","","","26","","17","","","","98.42","","","","-15","","NA"
"-87.94","52.20","LANSDOWNE HOUSE (AUT)","6014353","2012-02-07 23:00","2012","02","07","23:00","-9.0","","-15.2","","61","","","","26","","15","","","","98.42","","","","-16","","NA"
"-87.94","52.20","LANSDOWNE HOUSE (AUT)","6014353","2012-02-08 00:00","2012","02","08","00:00","-9.4","","-14.9","","64","","","","26","","17","","","","98.40","","","","-16","","NA"
"-87.94","52.20","LANSDOWNE HOUSE (AUT)","6014353","2012-02-08 01:00","2012","02","08","01:00","-10.0","","-14.9","","67","","","","26","","15","","","","98.38","","","","-17","","NA"
"-87.94","52.20","LANSDOWNE HOUSE (AUT)","6014353","2012-02-08 02:00","2012","02","08","02:00","-10.5","","-14.9","","70","","","","26","","19","","","","98.37","","","","-18","","NA"
"-87.94","52.20","LANSDOWNE HOUSE (AUT)","6014353","2012-02-08 03:00","2012","02","08","03:00","-11.1","","-14.9","","73","","","","26","","17","","","","98.34","","","","-19","","NA"
"-87.94","52.20","LANSDOWNE HOUSE (AUT)","6014353","2012-02-08 04:00","2012","02","08","04:00","-11.5","","-15.1","","75","","","","26","","19","","","","98.30","","","","-20","","NA"
"-87.94","52.20","LANSDOWNE HOUSE (AUT)","6014353","2012-02-08 05:00","2012","02","08","05:00","-12.3","","-15.5","","77","","","","26","","19","","","","98.25","","","","-21","","NA"
"-87.94","52.20","LANSDOWNE HOUSE (AUT)","6014353","2012-02-08 06:00","2012","02","08","06:00","-12.4","","-15.4","","78","","","","26","","20","","","","98.22","","","","-21","","NA"
"-87.94","52.20","LANSDOWNE HOUSE (AUT)","6014353","2012-02-08 07:00","2012","02","08","07:00","-12.5","","-15.4","","79","","","","26","","20","","","","98.18","","","","-21","","NA"
"-87.94","52.20","LANSDOWNE HOUSE (AUT)","6014353","2012-02-08 08:00","2012","02","08","08:00","-12.5","","-15.1","","81","","","","26","","17","","","","98.14","","","","-20","","NA"
"-87.94","52.20","LANSDOWNE HOUSE (AUT)","6014353","2012-02-08 09:00","2012","02","08","09:00","-12.2","","-14.6","","82","","","","26","","20","","","","98.08","","","","-21","","NA"
"-87.94","52.20","LANSDOWNE HOUSE (AUT)","6014353","2012-02-08 10:00","2012","02","08","10:00","-11.9","","-14.1","","84","","","","26","","17","","","","98.04","","","","-20","","NA"
"-87.94","52.20","LANSDOWNE HOUSE (AUT)","6014353","2012-02-08 11:00","2012","02","08","11:00","-11.2","","-13.6","","82","","","","26","","20","","","","97.97","","","","-19","","NA"
"-87.94","52.20","LANSDOWNE HOUSE (AUT)","6014353","2012-02-08 12:00","2012","02","08","12:00","-10.5","","-13.1","","81","","","","26","","26","","","","97.92","","","","-20","","NA"
"-87.94","52.20","LANSDOWNE HOUSE (AUT)","6014353","2012-02-08 13:00","2012","02","08","13:00","-9.7","","-12.7","","79","","","","26","","17","","","","97.89","","","","-17","","NA"
"-87.94","52.20","LANSDOWNE HOUSE (AUT)","6014353","2012-02-08 14:00","2012","02","08","14:00","-9.1","","-12.7","","75","","","","27","","20","","","","97.84","","","","-17","","NA"
"-87.94","52.20","LANSDOWNE HOUSE (AUT)","6014353","2012-02-08 15:00","2012","02","08","15:00","-8.9","","-12.8","","73","","","","27","","19","","","","97.83","","","","-16","","NA"
"-87.94","52.20","LANSDOWNE HOUSE (AUT)","6014353","2012-02-08 16:00","2012","02","08","16:00","-8.8","","-12.6","","74","","","","27","","20","","","","97.84","","","","-16","","NA"
"-87.94","52.20","LANSDOWNE HOUSE (AUT)","6014353","2012-02-08 17:00","2012","02","08","17:00","-8.9","","-12.4","","76","","","","27","","15","","","","97.84","","","","-15","","NA"
"-87.94","52.20","LANSDOWNE HOUSE (AUT)","6014353","2012-02-08 18:00","2012","02","08","18:00","-9.1","","-12.5","","76","","","","27","","15","","","","97.87","","","","-16","","NA"
"-87.94","52.20","LANSDOWNE HOUSE (AUT)","6014353","2012-02-08 19:00","2012","02","08","19:00","-9.3","","-13.3","","73","","","","27","","13","","","","97.90","","","","-15","","NA"
"-87.94","52.20","LANSDOWNE HOUSE (AUT)","6014353","2012-02-08 20:00","2012","02","08","20:00","-9.9","","-13.3","","76","","","","28","","9","","","","97.91","","","","-15","","NA"
"-87.94","52.20","LANSDOWNE HOUSE (AUT)","6014353","2012-02-08 21:00","2012","02","08","21:00","-10.5","","-12.8","","83","","","","29","","7","","","","97.91","","","","-15","","NA"
"-87.94","52.20","LANSDOWNE HOUSE (AUT)","6014353","2012-02-08 22:00","2012","02","08","22:00","-10.8","","-13.6","","80","","","","28","","11","","","","97.89","","","","-17","","NA"
"-87.94","52.20","LANSDOWNE HOUSE (AUT)","6014353","2012-02-08 23:00","2012","02","08","23:00","-12.7","","-14.7","","85","","","","1","","11","","","","97.93","","","","-19","","NA"
"-87.94","52.20","LANSDOWNE HOUSE (AUT)","6014353","2012-02-09 00:00","2012","02","09","00:00","-14.7","","-18.3","","74","","","","1","","7","","","","97.92","","","","-19","","NA"
"-87.94","52.20","LANSDOWNE HOUSE (AUT)","6014353","2012-02-09 01:00","2012","02","09","01:00","-17.6","","-20.6","","77","","","","5","","6","","","","97.92","","","","-22","","NA"
"-87.94","52.20","LANSDOWNE HOUSE (AUT)","6014353","2012-02-09 02:00","2012","02","09","02:00","-19.9","","-22.6","","79","","","","7","","6","","","","97.90","","","","-25","","NA"
"-87.94","52.20","LANSDOWNE HOUSE (AUT)","6014353","2012-02-09 03:00","2012","02","09","03:00","-19.6","","-22.2","","80","","","","4","","4","","","","97.90","","","","-23","","NA"
"-87.94","52.20","LANSDOWNE HOUSE (AUT)","6014353","2012-02-09 04:00","2012","02","09","04:00","-20.0","","-22.5","","80","","","","6","","6","","","","97.82","","","","-25","","NA"
"-87.94","52.20","LANSDOWNE HOUSE (AUT)","6014353","2012-02-09 05:00","2012","02","09","05:00","-20.7","","-23.0","","82","","","","3","","4","","","","97.79","","","","-24","","NA"
"-87.94","52.20","LANSDOWNE HOUSE (AUT)","6014353","2012-02-09 06:00","2012","02","09","06:00","-22.3","","-24.7","","81","","","","1","","7","","","","97.83","","","","-28","","NA"
"-87.94","52.20","LANSDOWNE HOUSE (AUT)","6014353","2012-02-09 07:00","2012","02","09","07:00","-23.6","","-26.5","","77","","","","1","","7","","","","97.86","","","","-30","","NA"
"-87.94","52.20","LANSDOWNE HOUSE (AUT)","6014353","2012-02-09 08:00","2012","02","09","08:00","-25.1","","-28.2","","75","","","","1","","9","","","","97.94","","","","-33","","NA"
"-87.94","52.20","LANSDOWNE HOUSE (AUT)","6014353","2012-02-09 09:00","2012","02","09","09:00","-26.0","","-29.0","","76","","","","35","","6","","","","98.03","","","","-32","","NA"
"-87.94","52.20","LANSDOWNE HOUSE (AUT)","6014353","2012-02-09 10:00","2012","02","09","10:00","-25.3","","-29.0","","71","","","","31","","6","","","","98.06","","","","-31","","NA"
"-87.94","52.20","LANSDOWNE HOUSE (AUT)","6014353","2012-02-09 11:00","2012","02","09","11:00","-23.7","","-28.3","","66","","","","32","","9","","","","98.11","","","","-31","","NA"
"-87.94","52.20","LANSDOWNE HOUSE (AUT)","6014353","2012-02-09 12:00","2012","02","09","12:00","-23.0","","-28.3","","62","","","","29","","13","","","","98.16","","","","-32","","NA"
"-87.94","52.20","LANSDOWNE HOUSE (AUT)","6014353","2012-02-09 13:00","2012","02","09","13:00","-22.1","","-28.3","","57","","","","31","","11","","","","98.17","","","","-30","","NA"
"-87.94","52.20","LANSDOWNE HOUSE (AUT)","6014353","2012-02-09 14:00","2012","02","09","14:00","-21.1","","-28.2","","53","","","","30","","13","","","","98.22","","","","-30","","NA"
"-87.94","52.20","LANSDOWNE HOUSE (AUT)","6014353","2012-02-09 15:00","2012","02","09","15:00","-21.3","","-28.8","","51","","","","29","","15","","","","98.28","","","","-31","","NA"
"-87.94","52.20","LANSDOWNE HOUSE (AUT)","6014353","2012-02-09 16:00","2012","02","09","16:00","-22.4","","-29.7","","51","","","","30","","13","","","","98.41","","","","-31","","NA"
"-87.94","52.20","LANSDOWNE HOUSE (AUT)","6014353","2012-02-09 17:00","2012","02","09","17:00","-23.6","","-30.4","","54","","","","31","","9","","","","98.54","","","","-31","","NA"
"-87.94","52.20","LANSDOWNE HOUSE (AUT)","6014353","2012-02-09 18:00","2012","02","09","18:00","-24.9","","-30.9","","57","","","","33","","7","","","","98.64","","","","-31","","NA"
"-87.94","52.20","LANSDOWNE HOUSE (AUT)","6014353","2012-02-09 19:00","2012","02","09","19:00","-26.0","","-31.3","","61","","","","30","","6","","","","98.75","","","","-32","","NA"
"-87.94","52.20","LANSDOWNE HOUSE (AUT)","6014353","2012-02-09 20:00","2012","02","09","20:00","-27.0","","-31.8","","64","","","","28","","6","","","","98.86","","","","-33","","NA"
"-87.94","52.20","LANSDOWNE HOUSE (AUT)","6014353","2012-02-09 21:00","2012","02","09","21:00","-27.2","","-31.4","","67","","","","28","","9","","","","98.92","","","","-35","","NA"
"-87.94","52.20","LANSDOWNE HOUSE (AUT)","6014353","2012-02-09 22:00","2012","02","09","22:00","-27.6","","-31.8","","67","","","","27","","9","","","","98.92","","","","-36","","NA"
"-87.94","52.20","LANSDOWNE HOUSE (AUT)","6014353","2012-02-09 23:00","2012","02","09","23:00","-27.7","","-31.9","","67","","","","28","","9","","","","98.96","","","","-36","","NA"
"-87.94","52.20","LANSDOWNE HOUSE (AUT)","6014353","2012-02-10 00:00","2012","02","10","00:00","-28.2","","-32.1","","69","","","","27","","11","","","","98.98","","","","-38","","NA"
"-87.94","52.20","LANSDOWNE HOUSE (AUT)","6014353","2012-02-10 01:00","2012","02","10","01:00","-28.6","","-32.2","","71","","","","27","","9","","","","98.98","","","","-37","","NA"
"-87.94","52.20","LANSDOWNE HOUSE (AUT)","6014353","2012-02-10 02:00","2012","02","10","02:00","-28.6","","-32.1","","72","","","","27","","11","","","","98.99","","","","-38","","NA"
"-87.94","52.20","LANSDOWNE HOUSE (AUT)","6014353","2012-02-10 03:00","2012","02","10","03:00","-28.6","","-32.0","","72","","","","27","","11","","","","98.98","","","","-38","","NA"
"-87.94","52.20","LANSDOWNE HOUSE (AUT)","6014353","2012-02-10 04:00","2012","02","10","04:00","-28.0","","-31.4","","73","","","","27","","11","","","","98.98","","","","-37","","NA"
"-87.94","52.20","LANSDOWNE HOUSE (AUT)","6014353","2012-02-10 05:00","2012","02","10","05:00","-27.4","","-30.6","","74","","","","28","","13","","","","98.99","","","","-37","","NA"
"-87.94","52.20","LANSDOWNE HOUSE (AUT)","6014353","2012-02-10 06:00","2012","02","10","06:00","-27.3","","-30.7","","73","","","","28","","11","","","","99.02","","","","-36","","NA"
"-87.94","52.20","LANSDOWNE HOUSE (AUT)","6014353","2012-02-10 07:00","2012","02","10","07:00","-27.7","","-30.9","","74","","","","27","","11","","","","99.08","","","","-37","","NA"
"-87.94","52.20","LANSDOWNE HOUSE (AUT)","6014353","2012-02-10 08:00","2012","02","10","08:00","-27.8","","-30.8","","75","","","","28","","11","","","","99.13","","","","-37","","NA"
"-87.94","52.20","LANSDOWNE HOUSE (AUT)","6014353","2012-02-10 09:00","2012","02","10","09:00","-27.0","","-30.3","","74","","","","29","","15","","","","99.16","","","","-38","","NA"
"-87.94","52.20","LANSDOWNE HOUSE (AUT)","6014353","2012-02-10 10:00","2012","02","10","10:00","-25.5","","-29.7","","68","","","","29","","17","","","","99.19","","","","-37","","NA"
"-87.94","52.20","LANSDOWNE HOUSE (AUT)","6014353","2012-02-10 11:00","2012","02","10","11:00","-24.4","","-28.8","","67","","","","29","","13","","","","99.24","","","","-34","","NA"
"-87.94","52.20","LANSDOWNE HOUSE (AUT)","6014353","2012-02-10 12:00","2012","02","10","12:00","-23.4","","-28.5","","63","","","","30","","13","","","","99.26","","","","-33","","NA"
"-87.94","52.20","LANSDOWNE HOUSE (AUT)","6014353","2012-02-10 13:00","2012","02","10","13:00","-21.9","","-27.3","","62","","","","29","","11","","","","99.26","","","","-30","","NA"
"-87.94","52.20","LANSDOWNE HOUSE (AUT)","6014353","2012-02-10 14:00","2012","02","10","14:00","-21.7","","-27.5","","59","","","","28","","15","","","","99.27","","","","-31","","NA"
"-87.94","52.20","LANSDOWNE HOUSE (AUT)","6014353","2012-02-10 15:00","2012","02","10","15:00","-20.7","","-26.9","","58","","","","29","","15","","","","99.27","","","","-30","","NA"
"-87.94","52.20","LANSDOWNE HOUSE (AUT)","6014353","2012-02-10 16:00","2012","02","10","16:00","-20.5","","-26.3","","60","","","","27","","13","","","","99.22","","","","-29","","NA"
"-87.94","52.20","LANSDOWNE HOUSE (AUT)","6014353","2012-02-10 17:00","2012","02","10","17:00","-20.2","","-25.2","","64","","","","27","","15","","","","99.23","","","","-29","","NA"
"-87.94","52.20","LANSDOWNE HOUSE (AUT)","6014353","2012-02-10 18:00","2012","02","10","18:00","-20.7","","-24.9","","69","","","","27","","13","","","","99.23","","","","-29","","NA"
"-87.94","52.20","LANSDOWNE HOUSE (AUT)","6014353","2012-02-10 19:00","2012","02","10","19:00","-21.0","","-24.6","","73","","","","27","","15","","","","99.19","","","","-30","","NA"
"-87.94","52.20","LANSDOWNE HOUSE (AUT)","6014353","2012-02-10 20:00","2012","02","10","20:00","-21.0","","-24.4","","74","","","","27","","15","","","","99.15","","","","-30","","NA"
"-87.94","52.20","LANSDOWNE HOUSE (AUT)","6014353","2012-02-10 21:00","2012","02","10","21:00","-20.5","","-23.3","","78","","","","28","","13","","","","99.12","","","","-29","","NA"
"-87.94","52.20","LANSDOWNE HOUSE (AUT)","6014353","2012-02-10 22:00","2012","02","10","22:00","-19.6","","-22.3","","79","","","","28","","15","","","","99.11","","","","-29","","NA"
"-87.94","52.20","LANSDOWNE HOUSE (AUT)","6014353","2012-02-10 23:00","2012","02","10","23:00","-18.7","","-21.4","","79","","","","29","","15","","","","99.08","","","","-27","","NA"
"-87.94","52.20","LANSDOWNE HOUSE (AUT)","6014353","2012-02-11 00:00","2012","02","11","00:00","-18.6","","-21.7","","77","","","","30","","15","","","","99.09","","","","-27","","NA"
"-87.94","52.20","LANSDOWNE HOUSE (AUT)","6014353","2012-02-11 01:00","2012","02","11","01:00","-19.4","","-22.9","","74","","","","28","","15","","","","99.06","","","","-28","","NA"
"-87.94","52.20","LANSDOWNE HOUSE (AUT)","6014353","2012-02-11 02:00","2012","02","11","02:00","-19.4","","-22.8","","74","","","","28","","15","","","","99.01","","","","-28","","NA"
"-87.94","52.20","LANSDOWNE HOUSE (AUT)","6014353","2012-02-11 03:00","2012","02","11","03:00","-19.3","","-22.9","","73","","","","28","","19","","","","98.98","","","","-29","","NA"
"-87.94","52.20","LANSDOWNE HOUSE (AUT)","6014353","2012-02-11 04:00","2012","02","11","04:00","-19.4","","-22.9","","74","","","","28","","15","","","","98.94","","","","-28","","NA"
"-87.94","52.20","LANSDOWNE HOUSE (AUT)","6014353","2012-02-11 05:00","2012","02","11","05:00","-19.6","","-22.9","","75","","","","28","","17","","","","98.93","","","","-29","","NA"
"-87.94","52.20","LANSDOWNE HOUSE (AUT)","6014353","2012-02-11 06:00","2012","02","11","06:00","-19.6","","-22.5","","78","","","","27","","15","","","","98.89","","","","-29","","NA"
"-87.94","52.20","LANSDOWNE HOUSE (AUT)","6014353","2012-02-11 07:00","2012","02","11","07:00","-19.4","","-22.2","","78","","","","26","","17","","","","98.79","","","","-29","","NA"
"-87.94","52.20","LANSDOWNE HOUSE (AUT)","6014353","2012-02-11 08:00","2012","02","11","08:00","-19.1","","-21.7","","80","","","","26","","20","","","","98.70","","","","-29","","NA"
"-87.94","52.20","LANSDOWNE HOUSE (AUT)","6014353","2012-02-11 09:00","2012","02","11","09:00","-18.7","","-21.0","","82","","","","26","","24","","","","98.61","","","","-30","","NA"
"-87.94","52.20","LANSDOWNE HOUSE (AUT)","6014353","2012-02-11 10:00","2012","02","11","10:00","-17.5","","-19.7","","83","","","","26","","22","","","","98.46","","","","-28","","NA"
"-87.94","52.20","LANSDOWNE HOUSE (AUT)","6014353","2012-02-11 11:00","2012","02","11","11:00","-16.3","","-18.7","","82","","","","26","","19","","","","98.40","","","","-26","","NA"
"-87.94","52.20","LANSDOWNE HOUSE (AUT)","6014353","2012-02-11 12:00","2012","02","11","12:00","-14.9","","-17.9","","78","","","","27","","17","","","","98.39","","","","-23","","NA"
"-87.94","52.20","LANSDOWNE HOUSE (AUT)","6014353","2012-02-11 13:00","2012","02","11","13:00","-12.3","","-17.0","","68","","","","29","","15","","","","98.32","","","","-20","","NA"
"-87.94","52.20","LANSDOWNE HOUSE (AUT)","6014353","2012-02-11 14:00","2012","02","11","14:00","-11.6","","-17.9","","60","","","","28","","13","","","","98.27","","","","-18","","NA"
"-87.94","52.20","LANSDOWNE HOUSE (AUT)","6014353","2012-02-11 15:00","2012","02","11","15:00","-10.0","","-17.3","","55","","","","29","","11","","","","98.25","","","","-16","","NA"
"-87.94","52.20","LANSDOWNE HOUSE (AUT)","6014353","2012-02-11 16:00","2012","02","11","16:00","-10.0","","-18.7","","49","","","","27","","15","","","","98.28","","","","-17","","NA"
"-87.94","52.20","LANSDOWNE HOUSE (AUT)","6014353","2012-02-11 17:00","2012","02","11","17:00","-10.3","","-19.4","","47","","","","29","","13","","","","98.31","","","","-17","","NA"
"-87.94","52.20","LANSDOWNE HOUSE (AUT)","6014353","2012-02-11 18:00","2012","02","11","18:00","-11.8","","-19.5","","53","","","","27","","11","","","","98.33","","","","-18","","NA"
"-87.94","52.20","LANSDOWNE HOUSE (AUT)","6014353","2012-02-11 19:00","2012","02","11","19:00","-12.4","","-19.9","","54","","","","27","","11","","","","98.32","","","","-18","","NA"
"-87.94","52.20","LANSDOWNE HOUSE (AUT)","6014353","2012-02-11 20:00","2012","02","11","20:00","-12.1","","-19.7","","53","","","","27","","13","","","","98.32","","","","-19","","NA"
"-87.94","52.20","LANSDOWNE HOUSE (AUT)","6014353","2012-02-11 21:00","2012","02","11","21:00","-12.4","","-19.9","","54","","","","27","","11","","","","98.28","","","","-18","","NA"
"-87.94","52.20","LANSDOWNE HOUSE (AUT)","6014353","2012-02-11 22:00","2012","02","11","22:00","-12.7","","-20.3","","53","","","","27","","9","","","","98.29","","","","-18","","NA"
"-87.94","52.20","LANSDOWNE HOUSE (AUT)","6014353","2012-02-11 23:00","2012","02","11","23:00","-12.6","","-20.3","","53","","","","27","","13","","","","98.25","","","","-19","","NA"
"-87.94","52.20","LANSDOWNE HOUSE (AUT)","6014353","2012-02-12 00:00","2012","02","12","00:00","-12.6","","-20.1","","53","","","","26","","13","","","","98.23","","","","-19","","NA"
"-87.94","52.20","LANSDOWNE HOUSE (AUT)","6014353","2012-02-12 01:00","2012","02","12","01:00","-13.7","","-20.4","","57","","","","26","","15","","","","98.21","","","","-21","","NA"
"-87.94","52.20","LANSDOWNE HOUSE (AUT)","6014353","2012-02-12 02:00","2012","02","12","02:00","-13.9","","-20.2","","59","","","","26","","17","","","","98.20","","","","-22","","NA"
"-87.94","52.20","LANSDOWNE HOUSE (AUT)","6014353","2012-02-12 03:00","2012","02","12","03:00","-14.1","","-20.1","","60","","","","26","","15","","","","98.20","","","","-22","","NA"
"-87.94","52.20","LANSDOWNE HOUSE (AUT)","6014353","2012-02-12 04:00","2012","02","12","04:00","-14.4","","-20.2","","61","","","","26","","15","","","","98.18","","","","-22","","NA"
"-87.94","52.20","LANSDOWNE HOUSE (AUT)","6014353","2012-02-12 05:00","2012","02","12","05:00","-14.6","","-20.3","","62","","","","26","","15","","","","98.14","","","","-22","","NA"
"-87.94","52.20","LANSDOWNE HOUSE (AUT)","6014353","2012-02-12 06:00","2012","02","12","06:00","-14.9","","-20.5","","62","","","","26","","17","","","","98.11","","","","-23","","NA"
"-87.94","52.20","LANSDOWNE HOUSE (AUT)","6014353","2012-02-12 07:00","2012","02","12","07:00","-15.4","","-21.1","","62","","","","26","","17","","","","98.10","","","","-24","","NA"
"-87.94","52.20","LANSDOWNE HOUSE (AUT)","6014353","2012-02-12 08:00","2012","02","12","08:00","-16.5","","-21.6","","65","","","","25","","13","","","","98.06","","","","-24","","NA"
"-87.94","52.20","LANSDOWNE HOUSE (AUT)","6014353","2012-02-12 09:00","2012","02","12","09:00","-16.6","","-21.8","","64","","","","25","","13","","","","98.03","","","","-24","","NA"
"-87.94","52.20","LANSDOWNE HOUSE (AUT)","6014353","2012-02-12 10:00","2012","02","12","10:00","-13.8","","-21.3","","53","","","","26","","13","","","","97.99","","","","-21","","NA"
"-87.94","52.20","LANSDOWNE HOUSE (AUT)","6014353","2012-02-12 11:00","2012","02","12","11:00","-11.8","","-21.3","","45","","","","27","","15","","","","97.95","","","","-19","","NA"
"-87.94","52.20","LANSDOWNE HOUSE (AUT)","6014353","2012-02-12 12:00","2012","02","12","12:00","-10.9","","-19.6","","49","","","","25","","19","","","","97.91","","","","-19","","NA"
"-87.94","52.20","LANSDOWNE HOUSE (AUT)","6014353","2012-02-12 13:00","2012","02","12","13:00","-8.6","","-18.2","","46","","","","25","","15","","","","97.84","","","","-15","","NA"
"-87.94","52.20","LANSDOWNE HOUSE (AUT)","6014353","2012-02-12 14:00","2012","02","12","14:00","-6.9","","-17.9","","41","","","","26","","17","","","","97.76","","","","-13","","NA"
"-87.94","52.20","LANSDOWNE HOUSE (AUT)","6014353","2012-02-12 15:00","2012","02","12","15:00","-4.6","","-18.8","","32","","","","27","","11","","","","97.72","","","","-9","","NA"
"-87.94","52.20","LANSDOWNE HOUSE (AUT)","6014353","2012-02-12 16:00","2012","02","12","16:00","-3.8","","-18.3","","31","","","","27","","11","","","","97.71","","","","-8","","NA"
"-87.94","52.20","LANSDOWNE HOUSE (AUT)","6014353","2012-02-12 17:00","2012","02","12","17:00","-4.0","","-18.0","","33","","","","27","","9","","","","97.67","","","","-8","","NA"
"-87.94","52.20","LANSDOWNE HOUSE (AUT)","6014353","2012-02-12 18:00","2012","02","12","18:00","-5.4","","-17.5","","38","","","","26","","11","","","","97.64","","","","-10","","NA"
"-87.94","52.20","LANSDOWNE HOUSE (AUT)","6014353","2012-02-12 19:00","2012","02","12","19:00","-5.5","","-17.0","","40","","","","26","","13","","","","97.62","","","","-11","","NA"
"-87.94","52.20","LANSDOWNE HOUSE (AUT)","6014353","2012-02-12 20:00","2012","02","12","20:00","-4.7","","-17.6","","36","","","","26","","20","","","","97.58","","","","-11","","NA"
"-87.94","52.20","LANSDOWNE HOUSE (AUT)","6014353","2012-02-12 21:00","2012","02","12","21:00","-5.8","","-17.9","","38","","","","26","","22","","","","97.52","","","","-13","","NA"
"-87.94","52.20","LANSDOWNE HOUSE (AUT)","6014353","2012-02-12 22:00","2012","02","12","22:00","-6.3","","-18.7","","37","","","","26","","20","","","","97.50","","","","-13","","NA"
"-87.94","52.20","LANSDOWNE HOUSE (AUT)","6014353","2012-02-12 23:00","2012","02","12","23:00","-7.0","","-19.3","","37","","","","26","","15","","","","97.53","","","","-13","","NA"
"-87.94","52.20","LANSDOWNE HOUSE (AUT)","6014353","2012-02-13 00:00","2012","02","13","00:00","-7.5","","-19.5","","38","","","","26","","13","","","","97.52","","","","-13","","NA"
"-87.94","52.20","LANSDOWNE HOUSE (AUT)","6014353","2012-02-13 01:00","2012","02","13","01:00","-9.4","","-18.5","","48","","","","26","","11","","","","97.53","","","","-15","","NA"
"-87.94","52.20","LANSDOWNE HOUSE (AUT)","6014353","2012-02-13 02:00","2012","02","13","02:00","-7.9","","-18.9","","41","","","","26","","17","","","","97.53","","","","-15","","NA"
"-87.94","52.20","LANSDOWNE HOUSE (AUT)","6014353","2012-02-13 03:00","2012","02","13","03:00","-8.3","","-18.9","","42","","","","26","","15","","","","97.53","","","","-15","","NA"
"-87.94","52.20","LANSDOWNE HOUSE (AUT)","6014353","2012-02-13 04:00","2012","02","13","04:00","-9.6","","-17.6","","52","","","","25","","19","","","","97.48","","","","-17","","NA"
"-87.94","52.20","LANSDOWNE HOUSE (AUT)","6014353","2012-02-13 05:00","2012","02","13","05:00","-11.6","","-19.0","","54","","","","25","","13","","","","97.47","","","","-18","","NA"
"-87.94","52.20","LANSDOWNE HOUSE (AUT)","6014353","2012-02-13 06:00","2012","02","13","06:00","-12.7","","-18.8","","60","","","","24","","11","","","","97.42","","","","-19","","NA"
"-87.94","52.20","LANSDOWNE HOUSE (AUT)","6014353","2012-02-13 07:00","2012","02","13","07:00","-11.8","","-17.7","","62","","","","24","","13","","","","97.41","","","","-18","","NA"
"-87.94","52.20","LANSDOWNE HOUSE (AUT)","6014353","2012-02-13 08:00","2012","02","13","08:00","-11.8","","-17.7","","62","","","","24","","17","","","","97.36","","","","-19","","NA"
"-87.94","52.20","LANSDOWNE HOUSE (AUT)","6014353","2012-02-13 09:00","2012","02","13","09:00","-11.6","","-17.4","","62","","","","25","","19","","","","97.34","","","","-20","","NA"
"-87.94","52.20","LANSDOWNE HOUSE (AUT)","6014353","2012-02-13 10:00","2012","02","13","10:00","-11.0","","-17.2","","60","","","","26","","15","","","","97.34","","","","-18","","NA"
"-87.94","52.20","LANSDOWNE HOUSE (AUT)","6014353","2012-02-13 11:00","2012","02","13","11:00","-10.4","","-16.8","","59","","","","26","","15","","","","97.31","","","","-17","","NA"
"-87.94","52.20","LANSDOWNE HOUSE (AUT)","6014353","2012-02-13 12:00","2012","02","13","12:00","-9.8","","-15.5","","63","","","","25","","17","","","","97.28","","","","-17","","NA"
"-87.94","52.20","LANSDOWNE HOUSE (AUT)","6014353","2012-02-13 13:00","2012","02","13","13:00","-8.6","","-15.1","","59","","","","25","","15","","","","97.23","","","","-15","","NA"
"-87.94","52.20","LANSDOWNE HOUSE (AUT)","6014353","2012-02-13 14:00","2012","02","13","14:00","-6.5","","-14.6","","53","","","","25","","13","","","","97.17","","","","-12","","NA"
"-87.94","52.20","LANSDOWNE HOUSE (AUT)","6014353","2012-02-13 15:00","2012","02","13","15:00","-5.0","","-14.2","","48","","","","26","","11","","","","97.16","","","","-10","","NA"
"-87.94","52.20","LANSDOWNE HOUSE (AUT)","6014353","2012-02-13 16:00","2012","02","13","16:00","-3.5","","-13.6","","45","","","","28","","13","","","","97.13","","","","-8","","NA"
"-87.94","52.20","LANSDOWNE HOUSE (AUT)","6014353","2012-02-13 17:00","2012","02","13","17:00","-5.4","","-13.1","","55","","","","25","","13","","","","97.13","","","","-11","","NA"
"-87.94","52.20","LANSDOWNE HOUSE (AUT)","6014353","2012-02-13 18:00","2012","02","13","18:00","-7.1","","-13.7","","59","","","","25","","6","","","","97.13","","","","-10","","NA"
"-87.94","52.20","LANSDOWNE HOUSE (AUT)","6014353","2012-02-13 19:00","2012","02","13","19:00","-10.4","","-14.6","","71","","","","25","","4","","","","97.16","","","","-13","","NA"
"-87.94","52.20","LANSDOWNE HOUSE (AUT)","6014353","2012-02-13 20:00","2012","02","13","20:00","-12.7","","-15.7","","78","","","","24","","4","","","","97.14","","","","-15","","NA"
"-87.94","52.20","LANSDOWNE HOUSE (AUT)","6014353","2012-02-13 21:00","2012","02","13","21:00","-13.9","","-16.0","","84","","","","23","","6","","","","97.10","","","","-18","","NA"
"-87.94","52.20","LANSDOWNE HOUSE (AUT)","6014353","2012-02-13 22:00","2012","02","13","22:00","-16.6","","-18.3","","87","","","","25","","6","","","","97.08","","","","-21","","NA"
"-87.94","52.20","LANSDOWNE HOUSE (AUT)","6014353","2012-02-13 23:00","2012","02","13","23:00","-18.3","","-19.9","","87","","","","26","","4","","","","97.09","","","","-22","","NA"
"-87.94","52.20","LANSDOWNE HOUSE (AUT)","6014353","2012-02-14 00:00","2012","02","14","00:00","-19.0","","-20.7","","86","","","","26","","6","","","","97.07","","","","-24","","NA"
"-87.94","52.20","LANSDOWNE HOUSE (AUT)","6014353","2012-02-14 01:00","2012","02","14","01:00","-20.4","","-22.2","","85","","","","26","","6","","","","97.07","","","","-25","","NA"
"-87.94","52.20","LANSDOWNE HOUSE (AUT)","6014353","2012-02-14 02:00","2012","02","14","02:00","-20.7","","-22.5","","85","","","","26","","7","","","","97.08","","","","-26","","NA"
"-87.94","52.20","LANSDOWNE HOUSE (AUT)","6014353","2012-02-14 03:00","2012","02","14","03:00","-19.3","","-20.7","","89","","","","26","","6","","","","97.13","","","","-24","","NA"
"-87.94","52.20","LANSDOWNE HOUSE (AUT)","6014353","2012-02-14 04:00","2012","02","14","04:00","-20.2","","-22.1","","85","","","","26","","7","","","","97.15","","","","-26","","NA"
"-87.94","52.20","LANSDOWNE HOUSE (AUT)","6014353","2012-02-14 05:00","2012","02","14","05:00","-16.9","","-18.3","","89","","","","26","","7","","","","97.17","","","","-22","","NA"
"-87.94","52.20","LANSDOWNE HOUSE (AUT)","6014353","2012-02-14 06:00","2012","02","14","06:00","-15.3","","-16.8","","88","","","","27","","6","","","","97.18","","","","-20","","NA"
"-87.94","52.20","LANSDOWNE HOUSE (AUT)","6014353","2012-02-14 07:00","2012","02","14","07:00","-14.0","","-15.6","","88","","","","26","","7","","","","97.19","","","","-19","","NA"
"-87.94","52.20","LANSDOWNE HOUSE (AUT)","6014353","2012-02-14 08:00","2012","02","14","08:00","-13.2","","-14.7","","88","","","","26","","6","","","","97.19","","","","-17","","NA"
"-87.94","52.20","LANSDOWNE HOUSE (AUT)","6014353","2012-02-14 09:00","2012","02","14","09:00","-15.4","","-16.7","","90","","","","25","","6","","","","97.22","","","","-20","","NA"
"-87.94","52.20","LANSDOWNE HOUSE (AUT)","6014353","2012-02-14 10:00","2012","02","14","10:00","-12.4","","-14.9","","82","","","","25","","7","","","","97.28","","","","-17","","NA"
"-87.94","52.20","LANSDOWNE HOUSE (AUT)","6014353","2012-02-14 11:00","2012","02","14","11:00","-10.4","","-14.5","","72","","","","24","","9","","","","97.31","","","","-15","","NA"
"-87.94","52.20","LANSDOWNE HOUSE (AUT)","6014353","2012-02-14 12:00","2012","02","14","12:00","-8.1","","-15.5","","55","","","","34","","4","","","","97.33","","","","-10","","NA"
"-87.94","52.20","LANSDOWNE HOUSE (AUT)","6014353","2012-02-14 13:00","2012","02","14","13:00","-7.6","","-14.7","","57","","","","6","","9","","","","97.36","","","","-12","","NA"
"-87.94","52.20","LANSDOWNE HOUSE (AUT)","6014353","2012-02-14 14:00","2012","02","14","14:00","-6.8","","-14.0","","56","","","","9","","6","","","","97.37","","","","-10","","NA"
"-87.94","52.20","LANSDOWNE HOUSE (AUT)","6014353","2012-02-14 15:00","2012","02","14","15:00","-5.9","","-14.3","","51","","","","6","","7","","","","97.41","","","","-9","","NA"
"-87.94","52.20","LANSDOWNE HOUSE (AUT)","6014353","2012-02-14 16:00","2012","02","14","16:00","-5.7","","-14.2","","51","","","","6","","7","","","","97.46","","","","-9","","NA"
"-87.94","52.20","LANSDOWNE HOUSE (AUT)","6014353","2012-02-14 17:00","2012","02","14","17:00","-6.0","","-13.7","","54","","","","7","","4","","","","97.51","","","","-8","","NA"
"-87.94","52.20","LANSDOWNE HOUSE (AUT)","6014353","2012-02-14 18:00","2012","02","14","18:00","-8.8","","-15.1","","60","","","","6","","4","","","","97.57","","","","-11","","NA"
"-87.94","52.20","LANSDOWNE HOUSE (AUT)","6014353","2012-02-14 19:00","2012","02","14","19:00","-12.6","","-16.1","","75","","","","5","","6","","","","97.64","","","","-17","","NA"
"-87.94","52.20","LANSDOWNE HOUSE (AUT)","6014353","2012-02-14 20:00","2012","02","14","20:00","-14.0","","-17.1","","77","","","","9","","4","","","","97.68","","","","-17","","NA"
"-87.94","52.20","LANSDOWNE HOUSE (AUT)","6014353","2012-02-14 21:00","2012","02","14","21:00","-14.9","","-17.1","","83","","","","7","","4","","","","97.72","","","","-18","","NA"
"-87.94","52.20","LANSDOWNE HOUSE (AUT)","6014353","2012-02-14 22:00","2012","02","14","22:00","-17.0","","-19.0","","84","","","","8","","6","","","","97.76","","","","-22","","NA"
"-87.94","52.20","LANSDOWNE HOUSE (AUT)","6014353","2012-02-14 23:00","2012","02","14","23:00","-17.3","","-18.8","","88","","","","11","","4","","","","97.81","","","","-20","","NA"
"-87.94","52.20","LANSDOWNE HOUSE (AUT)","6014353","2012-02-15 00:00","2012","02","15","00:00","-18.4","","-20.2","","86","","","","7","","6","","","","97.85","","","","-23","","NA"
"-87.94","52.20","LANSDOWNE HOUSE (AUT)","6014353","2012-02-15 01:00","2012","02","15","01:00","-19.0","","-20.5","","88","","","","11","","6","","","","97.91","","","","-24","","NA"
"-87.94","52.20","LANSDOWNE HOUSE (AUT)","6014353","2012-02-15 02:00","2012","02","15","02:00","-20.0","","-21.6","","87","","","","9","","6","","","","97.94","","","","-25","","NA"
"-87.94","52.20","LANSDOWNE HOUSE (AUT)","6014353","2012-02-15 03:00","2012","02","15","03:00","-20.2","","-21.7","","88","","","","9","","6","","","","97.96","","","","-25","","NA"
"-87.94","52.20","LANSDOWNE HOUSE (AUT)","6014353","2012-02-15 04:00","2012","02","15","04:00","-20.5","","-22.0","","88","","","","6","","6","","","","97.95","","","","-26","","NA"
"-87.94","52.20","LANSDOWNE HOUSE (AUT)","6014353","2012-02-15 05:00","2012","02","15","05:00","-20.5","","-22.0","","88","","","","4","","6","","","","97.96","","","","-26","","NA"
"-87.94","52.20","LANSDOWNE HOUSE (AUT)","6014353","2012-02-15 06:00","2012","02","15","06:00","-21.0","","-22.7","","86","","","","3","","4","","","","98.00","","","","-25","","NA"
"-87.94","52.20","LANSDOWNE HOUSE (AUT)","6014353","2012-02-15 07:00","2012","02","15","07:00","-21.1","","-22.7","","87","","","","4","","4","","","","98.01","","","","-25","","NA"
"-87.94","52.20","LANSDOWNE HOUSE (AUT)","6014353","2012-02-15 08:00","2012","02","15","08:00","-21.1","","-22.7","","87","","","","4","","4","","","","98.04","","","","-25","","NA"
"-87.94","52.20","LANSDOWNE HOUSE (AUT)","6014353","2012-02-15 09:00","2012","02","15","09:00","-19.9","","-21.4","","88","","","","4","","6","","","","98.05","","","","-25","","NA"
"-87.94","52.20","LANSDOWNE HOUSE (AUT)","6014353","2012-02-15 10:00","2012","02","15","10:00","-16.7","","-18.2","","88","","","","4","","6","","","","98.07","","","","-21","","NA"
"-87.94","52.20","LANSDOWNE HOUSE (AUT)","6014353","2012-02-15 11:00","2012","02","15","11:00","-12.6","","-15.6","","78","","","","6","","4","","","","98.07","","","","-15","","NA"
"-87.94","52.20","LANSDOWNE HOUSE (AUT)","6014353","2012-02-15 12:00","2012","02","15","12:00","-8.5","","-12.6","","72","","","","12","","2","","","","98.08","","","","-10","","NA"
"-87.94","52.20","LANSDOWNE HOUSE (AUT)","6014353","2012-02-15 13:00","2012","02","15","13:00","-2.2","","-8.0","","64","","","","20","","7","","","","98.08","","","","-5","","NA"
"-87.94","52.20","LANSDOWNE HOUSE (AUT)","6014353","2012-02-15 14:00","2012","02","15","14:00","-1.1","","-7.5","","62","","","","26","","6","","","","98.06","","","","-3","","NA"
"-87.94","52.20","LANSDOWNE HOUSE (AUT)","6014353","2012-02-15 15:00","2012","02","15","15:00","-0.2","","-7.2","","59","","","","19","","9","","","","98.03","","","","-3","","NA"
"-87.94","52.20","LANSDOWNE HOUSE (AUT)","6014353","2012-02-15 16:00","2012","02","15","16:00","-0.1","","-6.7","","61","","","","21","","7","","","","98.03","","","","-3","","NA"
"-87.94","52.20","LANSDOWNE HOUSE (AUT)","6014353","2012-02-15 17:00","2012","02","15","17:00","-0.5","","-6.2","","65","","","","25","","6","","","","98.03","","","","-3","","NA"
"-87.94","52.20","LANSDOWNE HOUSE (AUT)","6014353","2012-02-15 18:00","2012","02","15","18:00","-0.3","","-6.3","","64","","","","16","","2","","","","98.06","","","","-1","","NA"
"-87.94","52.20","LANSDOWNE HOUSE (AUT)","6014353","2012-02-15 19:00","2012","02","15","19:00","-0.1","","-6.4","","62","","","","19","","7","","","","98.08","","","","-3","","NA"
"-87.94","52.20","LANSDOWNE HOUSE (AUT)","6014353","2012-02-15 20:00","2012","02","15","20:00","-1.0","","-6.8","","65","","","","19","","7","","","","98.06","","","","-4","","NA"
"-87.94","52.20","LANSDOWNE HOUSE (AUT)","6014353","2012-02-15 21:00","2012","02","15","21:00","-1.0","","-6.6","","66","","","","19","","7","","","","98.05","","","","-4","","NA"
"-87.94","52.20","LANSDOWNE HOUSE (AUT)","6014353","2012-02-15 22:00","2012","02","15","22:00","-0.9","","-6.4","","66","","","","19","","9","","","","98.06","","","","-4","","NA"
"-87.94","52.20","LANSDOWNE HOUSE (AUT)","6014353","2012-02-15 23:00","2012","02","15","23:00","-1.5","","-6.3","","70","","","","21","","6","","","","98.06","","","","-4","","NA"
"-87.94","52.20","LANSDOWNE HOUSE (AUT)","6014353","2012-02-16 00:00","2012","02","16","00:00","-1.1","","-6.0","","69","","","","21","","7","","","","98.06","","","","-4","","NA"
"-87.94","52.20","LANSDOWNE HOUSE (AUT)","6014353","2012-02-16 01:00","2012","02","16","01:00","-1.0","","-4.9","","75","","","","22","","9","","","","98.06","","","","-4","","NA"
"-87.94","52.20","LANSDOWNE HOUSE (AUT)","6014353","2012-02-16 02:00","2012","02","16","02:00","-2.1","","-3.6","","89","","","","16","","2","","","","98.04","","","","-3","","NA"
"-87.94","52.20","LANSDOWNE HOUSE (AUT)","6014353","2012-02-16 03:00","2012","02","16","03:00","-2.5","","-3.8","","91","","","","16","","2","","","","98.02","","","","-3","","NA"
"-87.94","52.20","LANSDOWNE HOUSE (AUT)","6014353","2012-02-16 04:00","2012","02","16","04:00","-2.3","","-4.3","","86","","","","16","","6","","","","97.97","","","","-5","","NA"
"-87.94","52.20","LANSDOWNE HOUSE (AUT)","6014353","2012-02-16 05:00","2012","02","16","05:00","-2.6","","-4.9","","84","","","","14","","2","","","","97.93","","","","-3","","NA"
"-87.94","52.20","LANSDOWNE HOUSE (AUT)","6014353","2012-02-16 06:00","2012","02","16","06:00","-2.8","","-4.9","","85","","","","14","","4","","","","97.91","","","","-4","","NA"
"-87.94","52.20","LANSDOWNE HOUSE (AUT)","6014353","2012-02-16 07:00","2012","02","16","07:00","-3.7","","-6.2","","83","","","","17","","2","","","","97.91","","","","-5","","NA"
"-87.94","52.20","LANSDOWNE HOUSE (AUT)","6014353","2012-02-16 08:00","2012","02","16","08:00","-3.4","","-4.8","","90","","","","20","","4","","","","97.92","","","","-5","","NA"
"-87.94","52.20","LANSDOWNE HOUSE (AUT)","6014353","2012-02-16 09:00","2012","02","16","09:00","-3.3","","-3.8","","96","","","","14","","4","","","","97.92","","","","-5","","NA"
"-87.94","52.20","LANSDOWNE HOUSE (AUT)","6014353","2012-02-16 10:00","2012","02","16","10:00","-3.0","","-3.6","","96","","","","8","","4","","","","97.88","","","","-5","","NA"
"-87.94","52.20","LANSDOWNE HOUSE (AUT)","6014353","2012-02-16 11:00","2012","02","16","11:00","-1.2","","-2.2","","93","","","","25","","4","","","","97.85","","","","-3","","NA"
"-87.94","52.20","LANSDOWNE HOUSE (AUT)","6014353","2012-02-16 12:00","2012","02","16","12:00","-2.2","","-2.8","","96","","","","5","","7","","","","97.85","","","","-5","","NA"
"-87.94","52.20","LANSDOWNE HOUSE (AUT)","6014353","2012-02-16 13:00","2012","02","16","13:00","-1.0","","-1.5","","96","","","","3","","6","","","","97.82","","","","-3","","NA"
"-87.94","52.20","LANSDOWNE HOUSE (AUT)","6014353","2012-02-16 14:00","2012","02","16","14:00","-0.7","","-1.4","","95","","","","36","","6","","","","97.79","","","","-3","","NA"
"-87.94","52.20","LANSDOWNE HOUSE (AUT)","6014353","2012-02-16 15:00","2012","02","16","15:00","-4.1","","-5.1","","93","","","","35","","15","","","","97.82","","","","-9","","NA"
"-87.94","52.20","LANSDOWNE HOUSE (AUT)","6014353","2012-02-16 16:00","2012","02","16","16:00","-5.4","","-6.5","","92","","","","35","","15","","","","97.90","","","","-11","","NA"
"-87.94","52.20","LANSDOWNE HOUSE (AUT)","6014353","2012-02-16 17:00","2012","02","16","17:00","-6.0","","-7.1","","92","","","","35","","13","","","","97.94","","","","-11","","NA"
"-87.94","52.20","LANSDOWNE HOUSE (AUT)","6014353","2012-02-16 18:00","2012","02","16","18:00","-7.4","","-9.0","","88","","","","35","","15","","","","98.03","","","","-14","","NA"
"-87.94","52.20","LANSDOWNE HOUSE (AUT)","6014353","2012-02-16 19:00","2012","02","16","19:00","-8.3","","-9.8","","89","","","","35","","15","","","","98.13","","","","-15","","NA"
"-87.94","52.20","LANSDOWNE HOUSE (AUT)","6014353","2012-02-16 20:00","2012","02","16","20:00","-8.9","","-10.0","","92","","","","35","","13","","","","98.18","","","","-15","","NA"
"-87.94","52.20","LANSDOWNE HOUSE (AUT)","6014353","2012-02-16 21:00","2012","02","16","21:00","-9.4","","-10.6","","91","","","","35","","15","","","","98.22","","","","-16","","NA"
"-87.94","52.20","LANSDOWNE HOUSE (AUT)","6014353","2012-02-16 22:00","2012","02","16","22:00","-9.8","","-11.1","","90","","","","36","","11","","","","98.25","","","","-15","","NA"
"-87.94","52.20","LANSDOWNE HOUSE (AUT)","6014353","2012-02-16 23:00","2012","02","16","23:00","-10.6","","-12.0","","89","","","","35","","13","","","","98.27","","","","-17","","NA"
"-87.94","52.20","LANSDOWNE HOUSE (AUT)","6014353","2012-02-17 00:00","2012","02","17","00:00","-11.0","","-12.3","","90","","","","34","","9","","","","98.30","","","","-16","","NA"
"-87.94","52.20","LANSDOWNE HOUSE (AUT)","6014353","2012-02-17 01:00","2012","02","17","01:00","-11.8","","-13.2","","89","","","","34","","9","","","","98.32","","","","-17","","NA"
"-87.94","52.20","LANSDOWNE HOUSE (AUT)","6014353","2012-02-17 02:00","2012","02","17","02:00","-12.4","","-14.0","","88","","","","35","","11","","","","98.33","","","","-18","","NA"
"-87.94","52.20","LANSDOWNE HOUSE (AUT)","6014353","2012-02-17 03:00","2012","02","17","03:00","-13.0","","-14.6","","88","","","","35","","9","","","","98.35","","","","-18","","NA"
"-87.94","52.20","LANSDOWNE HOUSE (AUT)","6014353","2012-02-17 04:00","2012","02","17","04:00","-13.0","","-14.6","","88","","","","33","","6","","","","98.38","","","","-17","","NA"
"-87.94","52.20","LANSDOWNE HOUSE (AUT)","6014353","2012-02-17 05:00","2012","02","17","05:00","-13.4","","-14.9","","88","","","","34","","6","","","","98.41","","","","-17","","NA"
"-87.94","52.20","LANSDOWNE HOUSE (AUT)","6014353","2012-02-17 06:00","2012","02","17","06:00","-13.9","","-15.4","","88","","","","33","","4","","","","98.48","","","","-17","","NA"
"-87.94","52.20","LANSDOWNE HOUSE (AUT)","6014353","2012-02-17 07:00","2012","02","17","07:00","-14.5","","-16.1","","88","","","","34","","7","","","","98.50","","","","-19","","NA"
"-87.94","52.20","LANSDOWNE HOUSE (AUT)","6014353","2012-02-17 08:00","2012","02","17","08:00","-14.6","","-16.3","","87","","","","32","","6","","","","98.57","","","","-19","","NA"
"-87.94","52.20","LANSDOWNE HOUSE (AUT)","6014353","2012-02-17 09:00","2012","02","17","09:00","-14.6","","-16.2","","88","","","","32","","6","","","","98.60","","","","-19","","NA"
"-87.94","52.20","LANSDOWNE HOUSE (AUT)","6014353","2012-02-17 10:00","2012","02","17","10:00","-14.2","","-16.1","","85","","","","35","","7","","","","98.64","","","","-19","","NA"
"-87.94","52.20","LANSDOWNE HOUSE (AUT)","6014353","2012-02-17 11:00","2012","02","17","11:00","-13.8","","-16.0","","83","","","","36","","9","","","","98.67","","","","-19","","NA"
"-87.94","52.20","LANSDOWNE HOUSE (AUT)","6014353","2012-02-17 12:00","2012","02","17","12:00","-13.1","","-15.9","","79","","","","34","","7","","","","98.69","","","","-18","","NA"
"-87.94","52.20","LANSDOWNE HOUSE (AUT)","6014353","2012-02-17 13:00","2012","02","17","13:00","-12.5","","-15.5","","78","","","","36","","7","","","","98.65","","","","-17","","NA"
"-87.94","52.20","LANSDOWNE HOUSE (AUT)","6014353","2012-02-17 14:00","2012","02","17","14:00","-11.9","","-14.8","","79","","","","36","","7","","","","98.65","","","","-16","","NA"
"-87.94","52.20","LANSDOWNE HOUSE (AUT)","6014353","2012-02-17 15:00","2012","02","17","15:00","-11.8","","-14.7","","79","","","","32","","7","","","","98.67","","","","-16","","NA"
"-87.94","52.20","LANSDOWNE HOUSE (AUT)","6014353","2012-02-17 16:00","2012","02","17","16:00","-12.1","","-14.6","","82","","","","35","","6","","","","98.70","","","","-16","","NA"
"-87.94","52.20","LANSDOWNE HOUSE (AUT)","6014353","2012-02-17 17:00","2012","02","17","17:00","-11.9","","-14.5","","81","","","","30","","7","","","","98.73","","","","-16","","NA"
"-87.94","52.20","LANSDOWNE HOUSE (AUT)","6014353","2012-02-17 18:00","2012","02","17","18:00","-12.8","","-15.4","","81","","","","30","","11","","","","98.77","","","","-19","","NA"
"-87.94","52.20","LANSDOWNE HOUSE (AUT)","6014353","2012-02-17 19:00","2012","02","17","19:00","-13.2","","-15.3","","84","","","","30","","6","","","","98.82","","","","-17","","NA"
"-87.94","52.20","LANSDOWNE HOUSE (AUT)","6014353","2012-02-17 20:00","2012","02","17","20:00","-13.5","","-15.6","","84","","","","35","","7","","","","98.83","","","","-18","","NA"
"-87.94","52.20","LANSDOWNE HOUSE (AUT)","6014353","2012-02-17 21:00","2012","02","17","21:00","-14.2","","-16.5","","83","","","","34","","6","","","","98.86","","","","-18","","NA"
"-87.94","52.20","LANSDOWNE HOUSE (AUT)","6014353","2012-02-17 22:00","2012","02","17","22:00","-15.3","","-17.2","","85","","","","36","","7","","","","98.88","","","","-20","","NA"
"-87.94","52.20","LANSDOWNE HOUSE (AUT)","6014353","2012-02-17 23:00","2012","02","17","23:00","-16.1","","-18.1","","85","","","","1","","7","","","","98.88","","","","-21","","NA"
"-87.94","52.20","LANSDOWNE HOUSE (AUT)","6014353","2012-02-18 00:00","2012","02","18","00:00","-16.7","","-19.0","","82","","","","35","","6","","","","98.86","","","","-21","","NA"
"-87.94","52.20","LANSDOWNE HOUSE (AUT)","6014353","2012-02-18 01:00","2012","02","18","01:00","-16.9","","-19.1","","83","","","","34","","4","","","","98.88","","","","-20","","NA"
"-87.94","52.20","LANSDOWNE HOUSE (AUT)","6014353","2012-02-18 02:00","2012","02","18","02:00","-17.2","","-19.2","","84","","","","32","","4","","","","98.89","","","","-20","","NA"
"-87.94","52.20","LANSDOWNE HOUSE (AUT)","6014353","2012-02-18 03:00","2012","02","18","03:00","-17.4","","-19.5","","84","","","","35","","6","","","","98.90","","","","-22","","NA"
"-87.94","52.20","LANSDOWNE HOUSE (AUT)","6014353","2012-02-18 04:00","2012","02","18","04:00","-17.8","","-19.6","","86","","","","33","","6","","","","98.91","","","","-22","","NA"
"-87.94","52.20","LANSDOWNE HOUSE (AUT)","6014353","2012-02-18 05:00","2012","02","18","05:00","-18.0","","-19.7","","86","","","","34","","4","","","","98.92","","","","-21","","NA"
"-87.94","52.20","LANSDOWNE HOUSE (AUT)","6014353","2012-02-18 06:00","2012","02","18","06:00","-18.3","","-19.9","","87","","","","32","","6","","","","98.94","","","","-23","","NA"
"-87.94","52.20","LANSDOWNE HOUSE (AUT)","6014353","2012-02-18 07:00","2012","02","18","07:00","-18.3","","-19.7","","89","","","","30","","6","","","","98.95","","","","-23","","NA"
"-87.94","52.20","LANSDOWNE HOUSE (AUT)","6014353","2012-02-18 08:00","2012","02","18","08:00","-18.2","","-19.6","","89","","","","31","","2","","","","99.00","","","","-20","","NA"
"-87.94","52.20","LANSDOWNE HOUSE (AUT)","6014353","2012-02-18 09:00","2012","02","18","09:00","-18.2","","-19.7","","88","","","","30","","6","","","","98.98","","","","-23","","NA"
"-87.94","52.20","LANSDOWNE HOUSE (AUT)","6014353","2012-02-18 10:00","2012","02","18","10:00","-18.0","","-19.6","","87","","","","25","","7","","","","98.99","","","","-23","","NA"
"-87.94","52.20","LANSDOWNE HOUSE (AUT)","6014353","2012-02-18 11:00","2012","02","18","11:00","-17.6","","-19.4","","86","","","","24","","9","","","","98.97","","","","-24","","NA"
"-87.94","52.20","LANSDOWNE HOUSE (AUT)","6014353","2012-02-18 12:00","2012","02","18","12:00","-16.7","","-18.9","","83","","","","25","","7","","","","98.95","","","","-22","","NA"
"-87.94","52.20","LANSDOWNE HOUSE (AUT)","6014353","2012-02-18 13:00","2012","02","18","13:00","-15.5","","-18.4","","78","","","","26","","7","","","","98.93","","","","-20","","NA"
"-87.94","52.20","LANSDOWNE HOUSE (AUT)","6014353","2012-02-18 14:00","2012","02","18","14:00","-13.7","","-17.4","","74","","","","25","","6","","","","98.87","","","","-18","","NA"
"-87.94","52.20","LANSDOWNE HOUSE (AUT)","6014353","2012-02-18 15:00","2012","02","18","15:00","-13.8","","-17.2","","75","","","","5","","4","","","","98.81","","","","-17","","NA"
"-87.94","52.20","LANSDOWNE HOUSE (AUT)","6014353","2012-02-18 16:00","2012","02","18","16:00","-15.2","","-18.5","","76","","","","5","","7","","","","98.79","","","","-20","","NA"
"-87.94","52.20","LANSDOWNE HOUSE (AUT)","6014353","2012-02-18 17:00","2012","02","18","17:00","-15.0","","-17.8","","79","","","","5","","7","","","","98.78","","","","-20","","NA"
"-87.94","52.20","LANSDOWNE HOUSE (AUT)","6014353","2012-02-18 18:00","2012","02","18","18:00","-18.2","","-20.1","","85","","","","12","","4","","","","98.76","","","","-21","","NA"
"-87.94","52.20","LANSDOWNE HOUSE (AUT)","6014353","2012-02-18 19:00","2012","02","18","19:00","-13.8","","-15.9","","84","","","","19","","7","","","","98.74","","","","-18","","NA"
"-87.94","52.20","LANSDOWNE HOUSE (AUT)","6014353","2012-02-18 20:00","2012","02","18","20:00","-18.8","","-20.6","","86","","","","18","","2","","","","98.74","","","","-20","","NA"
"-87.94","52.20","LANSDOWNE HOUSE (AUT)","6014353","2012-02-18 21:00","2012","02","18","21:00","-15.9","","-17.4","","88","","","","19","","4","","","","98.69","","","","-19","","NA"
"-87.94","52.20","LANSDOWNE HOUSE (AUT)","6014353","2012-02-18 22:00","2012","02","18","22:00","-15.3","","-16.9","","88","","","","20","","4","","","","98.66","","","","-18","","NA"
"-87.94","52.20","LANSDOWNE HOUSE (AUT)","6014353","2012-02-18 23:00","2012","02","18","23:00","-13.4","","-15.5","","84","","","","21","","7","","","","98.62","","","","-18","","NA"
"-87.94","52.20","LANSDOWNE HOUSE (AUT)","6014353","2012-02-19 00:00","2012","02","19","00:00","-12.7","","-14.7","","85","","","","23","","7","","","","98.58","","","","-17","","NA"
"-87.94","52.20","LANSDOWNE HOUSE (AUT)","6014353","2012-02-19 01:00","2012","02","19","01:00","-11.8","","-13.9","","84","","","","22","","6","","","","98.55","","","","-16","","NA"
"-87.94","52.20","LANSDOWNE HOUSE (AUT)","6014353","2012-02-19 02:00","2012","02","19","02:00","-11.1","","-13.1","","85","","","","22","","6","","","","98.52","","","","-15","","NA"
"-87.94","52.20","LANSDOWNE HOUSE (AUT)","6014353","2012-02-19 03:00","2012","02","19","03:00","-10.7","","-12.6","","86","","","","21","","6","","","","98.48","","","","-14","","NA"
"-87.94","52.20","LANSDOWNE HOUSE (AUT)","6014353","2012-02-19 04:00","2012","02","19","04:00","-10.3","","-12.1","","87","","","","21","","6","","","","98.44","","","","-14","","NA"
"-87.94","52.20","LANSDOWNE HOUSE (AUT)","6014353","2012-02-19 05:00","2012","02","19","05:00","-9.6","","-11.5","","86","","","","22","","7","","","","98.42","","","","-14","","NA"
"-87.94","52.20","LANSDOWNE HOUSE (AUT)","6014353","2012-02-19 06:00","2012","02","19","06:00","-8.9","","-10.8","","86","","","","23","","7","","","","98.39","","","","-13","","NA"
"-87.94","52.20","LANSDOWNE HOUSE (AUT)","6014353","2012-02-19 07:00","2012","02","19","07:00","-8.5","","-10.3","","87","","","","23","","7","","","","98.37","","","","-12","","NA"
"-87.94","52.20","LANSDOWNE HOUSE (AUT)","6014353","2012-02-19 08:00","2012","02","19","08:00","-7.9","","-9.6","","88","","","","23","","7","","","","98.35","","","","-12","","NA"
"-87.94","52.20","LANSDOWNE HOUSE (AUT)","6014353","2012-02-19 09:00","2012","02","19","09:00","-9.6","","-11.5","","86","","","","23","","11","","","","98.33","","","","-15","","NA"
"-87.94","52.20","LANSDOWNE HOUSE (AUT)","6014353","2012-02-19 10:00","2012","02","19","10:00","-6.8","","-9.1","","84","","","","25","","15","","","","98.35","","","","-13","","NA"
"-87.94","52.20","LANSDOWNE HOUSE (AUT)","6014353","2012-02-19 11:00","2012","02","19","11:00","-5.7","","-8.4","","81","","","","25","","15","","","","98.33","","","","-11","","NA"
"-87.94","52.20","LANSDOWNE HOUSE (AUT)","6014353","2012-02-19 12:00","2012","02","19","12:00","-3.8","","-7.2","","77","","","","25","","15","","","","98.31","","","","-9","","NA"
"-87.94","52.20","LANSDOWNE HOUSE (AUT)","6014353","2012-02-19 13:00","2012","02","19","13:00","-2.5","","-6.7","","73","","","","25","","15","","","","98.27","","","","-7","","NA"
"-87.94","52.20","LANSDOWNE HOUSE (AUT)","6014353","2012-02-19 14:00","2012","02","19","14:00","-0.3","","-5.9","","66","","","","26","","15","","","","98.21","","","","-5","","NA"
"-87.94","52.20","LANSDOWNE HOUSE (AUT)","6014353","2012-02-19 15:00","2012","02","19","15:00","0.3","","-6.2","","62","","","","25","","15","","","","98.17","","","","","","NA"
"-87.94","52.20","LANSDOWNE HOUSE (AUT)","6014353","2012-02-19 16:00","2012","02","19","16:00","1.2","","-5.9","","59","","","","26","","13","","","","98.19","","","","","","NA"
"-87.94","52.20","LANSDOWNE HOUSE (AUT)","6014353","2012-02-19 17:00","2012","02","19","17:00","0.9","","-6.2","","59","","","","26","","15","","","","98.20","","","","","","NA"
"-87.94","52.20","LANSDOWNE HOUSE (AUT)","6014353","2012-02-19 18:00","2012","02","19","18:00","-2.4","","-7.6","","67","","","","26","","9","","","","98.25","","","","-6","","NA"
"-87.94","52.20","LANSDOWNE HOUSE (AUT)","6014353","2012-02-19 19:00","2012","02","19","19:00","-6.5","","-8.6","","85","","","","25","","6","","","","98.32","","","","-9","","NA"
"-87.94","52.20","LANSDOWNE HOUSE (AUT)","6014353","2012-02-19 20:00","2012","02","19","20:00","-7.9","","-8.3","","97","","","","28","","4","","","","98.37","","","","-10","","NA"
"-87.94","52.20","LANSDOWNE HOUSE (AUT)","6014353","2012-02-19 21:00","2012","02","19","21:00","-9.5","","-9.8","","98","","","","24","","4","","","","98.41","","","","-12","","NA"
"-87.94","52.20","LANSDOWNE HOUSE (AUT)","6014353","2012-02-19 22:00","2012","02","19","22:00","-11.6","","-12.2","","95","","","","16","","4","","","","98.44","","","","-14","","NA"
"-87.94","52.20","LANSDOWNE HOUSE (AUT)","6014353","2012-02-19 23:00","2012","02","19","23:00","-13.9","","-14.9","","92","","","","","","0","","","","98.46","","","","","","NA"
"-87.94","52.20","LANSDOWNE HOUSE (AUT)","6014353","2012-02-20 00:00","2012","02","20","00:00","-14.8","","-15.9","","91","","","","","","0","","","","98.48","","","","","","NA"
"-87.94","52.20","LANSDOWNE HOUSE (AUT)","6014353","2012-02-20 01:00","2012","02","20","01:00","-15.7","","-16.9","","90","","","","26","","2","","","","98.52","","","","-17","","NA"
"-87.94","52.20","LANSDOWNE HOUSE (AUT)","6014353","2012-02-20 02:00","2012","02","20","02:00","-17.3","","-18.6","","90","","","","6","","4","","","","98.53","","","","-20","","NA"
"-87.94","52.20","LANSDOWNE HOUSE (AUT)","6014353","2012-02-20 03:00","2012","02","20","03:00","-16.4","","-17.5","","91","","","","5","","4","","","","98.54","","","","-19","","NA"
"-87.94","52.20","LANSDOWNE HOUSE (AUT)","6014353","2012-02-20 04:00","2012","02","20","04:00","-17.2","","-18.4","","90","","","","","","0","","","","98.54","","","","","","NA"
"-87.94","52.20","LANSDOWNE HOUSE (AUT)","6014353","2012-02-20 05:00","2012","02","20","05:00","-17.6","","-18.9","","90","","","","7","","2","","","","98.52","","","","-19","","NA"
"-87.94","52.20","LANSDOWNE HOUSE (AUT)","6014353","2012-02-20 06:00","2012","02","20","06:00","-18.6","","-20.1","","88","","","","5","","2","","","","98.53","","","","-20","","NA"
"-87.94","52.20","LANSDOWNE HOUSE (AUT)","6014353","2012-02-20 07:00","2012","02","20","07:00","-18.0","","-19.3","","90","","","","6","","4","","","","98.51","","","","-21","","NA"
"-87.94","52.20","LANSDOWNE HOUSE (AUT)","6014353","2012-02-20 08:00","2012","02","20","08:00","-17.7","","-19.0","","90","","","","5","","2","","","","98.51","","","","-19","","NA"
"-87.94","52.20","LANSDOWNE HOUSE (AUT)","6014353","2012-02-20 09:00","2012","02","20","09:00","-15.1","","-16.2","","91","","","","9","","2","","","","98.49","","","","-17","","NA"
"-87.94","52.20","LANSDOWNE HOUSE (AUT)","6014353","2012-02-20 10:00","2012","02","20","10:00","-11.3","","-12.0","","95","","","","5","","4","","","","98.45","","","","-14","","NA"
"-87.94","52.20","LANSDOWNE HOUSE (AUT)","6014353","2012-02-20 11:00","2012","02","20","11:00","-9.3","","-10.0","","95","","","","3","","4","","","","98.43","","","","-12","","NA"
"-87.94","52.20","LANSDOWNE HOUSE (AUT)","6014353","2012-02-20 12:00","2012","02","20","12:00","-7.4","","-8.7","","90","","","","5","","7","","","","98.36","","","","-11","","NA"
"-87.94","52.20","LANSDOWNE HOUSE (AUT)","6014353","2012-02-20 13:00","2012","02","20","13:00","-0.1","","-5.4","","67","","","","14","","6","","","","98.25","","","","-2","","NA"
"-87.94","52.20","LANSDOWNE HOUSE (AUT)","6014353","2012-02-20 14:00","2012","02","20","14:00","1.0","","-5.5","","62","","","","16","","9","","","","98.17","","","","","","NA"
"-87.94","52.20","LANSDOWNE HOUSE (AUT)","6014353","2012-02-20 15:00","2012","02","20","15:00","1.2","","-5.6","","60","","","","18","","9","","","","98.10","","","","","","NA"
"-87.94","52.20","LANSDOWNE HOUSE (AUT)","6014353","2012-02-20 16:00","2012","02","20","16:00","1.3","","-5.1","","62","","","","19","","9","","","","98.05","","","","","","NA"
"-87.94","52.20","LANSDOWNE HOUSE (AUT)","6014353","2012-02-20 17:00","2012","02","20","17:00","1.4","","-4.0","","67","","","","21","","11","","","","98.03","","","","","","NA"
"-87.94","52.20","LANSDOWNE HOUSE (AUT)","6014353","2012-02-20 18:00","2012","02","20","18:00","-0.2","","-1.7","","90","","","","25","","7","","","","98.05","","","","-3","","NA"
"-87.94","52.20","LANSDOWNE HOUSE (AUT)","6014353","2012-02-20 19:00","2012","02","20","19:00","-1.2","","-1.8","","96","","","","11","","2","","","","98.03","","","","-2","","NA"
"-87.94","52.20","LANSDOWNE HOUSE (AUT)","6014353","2012-02-20 20:00","2012","02","20","20:00","-0.9","","-1.1","","99","","","","12","","4","","","","97.99","","","","-2","","NA"
"-87.94","52.20","LANSDOWNE HOUSE (AUT)","6014353","2012-02-20 21:00","2012","02","20","21:00","-0.2","","-0.5","","98","","","","19","","6","","","","97.95","","","","-2","","NA"
"-87.94","52.20","LANSDOWNE HOUSE (AUT)","6014353","2012-02-20 22:00","2012","02","20","22:00","-0.2","","-0.5","","98","","","","19","","6","","","","97.91","","","","-2","","NA"
"-87.94","52.20","LANSDOWNE HOUSE (AUT)","6014353","2012-02-20 23:00","2012","02","20","23:00","-0.2","","-0.4","","99","","","","18","","6","","","","97.87","","","","-2","","NA"
"-87.94","52.20","LANSDOWNE HOUSE (AUT)","6014353","2012-02-21 00:00","2012","02","21","00:00","-0.1","","-0.3","","99","","","","19","","7","","","","97.82","","","","-3","","NA"
"-87.94","52.20","LANSDOWNE HOUSE (AUT)","6014353","2012-02-21 01:00","2012","02","21","01:00","-0.2","","-0.4","","99","","","","18","","6","","","","97.76","","","","-2","","NA"
"-87.94","52.20","LANSDOWNE HOUSE (AUT)","6014353","2012-02-21 02:00","2012","02","21","02:00","-0.3","","-0.5","","99","","","","19","","6","","","","97.71","","","","-2","","NA"
"-87.94","52.20","LANSDOWNE HOUSE (AUT)","6014353","2012-02-21 03:00","2012","02","21","03:00","-2.2","","-2.6","","97","","","","4","","9","","","","97.69","","","","-6","","NA"
"-87.94","52.20","LANSDOWNE HOUSE (AUT)","6014353","2012-02-21 04:00","2012","02","21","04:00","-4.0","","-4.6","","96","","","","4","","13","","","","97.61","","","","-9","","NA"
"-87.94","52.20","LANSDOWNE HOUSE (AUT)","6014353","2012-02-21 05:00","2012","02","21","05:00","-5.6","","-6.4","","94","","","","5","","13","","","","97.58","","","","-11","","NA"
"-87.94","52.20","LANSDOWNE HOUSE (AUT)","6014353","2012-02-21 06:00","2012","02","21","06:00","-6.6","","-7.4","","94","","","","6","","17","","","","97.53","","","","-13","","NA"
"-87.94","52.20","LANSDOWNE HOUSE (AUT)","6014353","2012-02-21 07:00","2012","02","21","07:00","-8.0","","-9.0","","92","","","","6","","19","","","","97.49","","","","-15","","NA"
"-87.94","52.20","LANSDOWNE HOUSE (AUT)","6014353","2012-02-21 08:00","2012","02","21","08:00","-9.1","","-10.1","","92","","","","6","","20","","","","97.45","","","","-17","","NA"
"-87.94","52.20","LANSDOWNE HOUSE (AUT)","6014353","2012-02-21 09:00","2012","02","21","09:00","-9.9","","-11.0","","92","","","","6","","24","","","","97.40","","","","-18","","NA"
"-87.94","52.20","LANSDOWNE HOUSE (AUT)","6014353","2012-02-21 10:00","2012","02","21","10:00","-10.3","","-11.4","","92","","","","6","","19","","","","97.38","","","","-18","","NA"
"-87.94","52.20","LANSDOWNE HOUSE (AUT)","6014353","2012-02-21 11:00","2012","02","21","11:00","-10.6","","-11.8","","91","","","","6","","19","","","","97.33","","","","-18","","NA"
"-87.94","52.20","LANSDOWNE HOUSE (AUT)","6014353","2012-02-21 12:00","2012","02","21","12:00","-10.5","","-11.6","","92","","","","6","","20","","","","97.26","","","","-18","","NA"
"-87.94","52.20","LANSDOWNE HOUSE (AUT)","6014353","2012-02-21 13:00","2012","02","21","13:00","-10.0","","-11.6","","88","","","","6","","20","","","","97.19","","","","-18","","NA"
"-87.94","52.20","LANSDOWNE HOUSE (AUT)","6014353","2012-02-21 14:00","2012","02","21","14:00","-10.2","","-11.9","","87","","","","6","","24","","","","97.12","","","","-19","","NA"
"-87.94","52.20","LANSDOWNE HOUSE (AUT)","6014353","2012-02-21 15:00","2012","02","21","15:00","-10.3","","-11.8","","89","","","","6","","22","","","","97.03","","","","-19","","NA"
"-87.94","52.20","LANSDOWNE HOUSE (AUT)","6014353","2012-02-21 16:00","2012","02","21","16:00","-10.4","","-11.8","","89","","","","6","","22","","","","97.01","","","","-19","","NA"
"-87.94","52.20","LANSDOWNE HOUSE (AUT)","6014353","2012-02-21 17:00","2012","02","21","17:00","-10.5","","-12.0","","89","","","","6","","22","","","","97.01","","","","-19","","NA"
"-87.94","52.20","LANSDOWNE HOUSE (AUT)","6014353","2012-02-21 18:00","2012","02","21","18:00","-10.8","","-12.1","","90","","","","6","","24","","","","97.00","","","","-20","","NA"
"-87.94","52.20","LANSDOWNE HOUSE (AUT)","6014353","2012-02-21 19:00","2012","02","21","19:00","-11.2","","-12.3","","92","","","","6","","20","","","","96.99","","","","-19","","NA"
"-87.94","52.20","LANSDOWNE HOUSE (AUT)","6014353","2012-02-21 20:00","2012","02","21","20:00","-11.8","","-13.2","","89","","","","6","","22","","","","96.94","","","","-21","","NA"
"-87.94","52.20","LANSDOWNE HOUSE (AUT)","6014353","2012-02-21 21:00","2012","02","21","21:00","-12.1","","-13.5","","89","","","","6","","20","","","","96.93","","","","-21","","NA"
"-87.94","52.20","LANSDOWNE HOUSE (AUT)","6014353","2012-02-21 22:00","2012","02","21","22:00","-12.6","","-14.2","","88","","","","6","","20","","","","96.93","","","","-21","","NA"
"-87.94","52.20","LANSDOWNE HOUSE (AUT)","6014353","2012-02-21 23:00","2012","02","21","23:00","-12.9","","-14.2","","90","","","","6","","20","","","","96.89","","","","-22","","NA"
"-87.94","52.20","LANSDOWNE HOUSE (AUT)","6014353","2012-02-22 00:00","2012","02","22","00:00","-13.1","","-14.6","","88","","","","6","","19","","","","96.84","","","","-22","","NA"
"-87.94","52.20","LANSDOWNE HOUSE (AUT)","6014353","2012-02-22 01:00","2012","02","22","01:00","-13.4","","-14.7","","90","","","","7","","19","","","","96.81","","","","-22","","NA"
"-87.94","52.20","LANSDOWNE HOUSE (AUT)","6014353","2012-02-22 02:00","2012","02","22","02:00","-14.0","","-15.3","","90","","","","6","","19","","","","96.79","","","","-23","","NA"
"-87.94","52.20","LANSDOWNE HOUSE (AUT)","6014353","2012-02-22 03:00","2012","02","22","03:00","-14.3","","-15.5","","91","","","","5","","17","","","","96.78","","","","-23","","NA"
"-87.94","52.20","LANSDOWNE HOUSE (AUT)","6014353","2012-02-22 04:00","2012","02","22","04:00","-14.6","","-16.0","","89","","","","4","","13","","","","96.76","","","","-22","","NA"
"-87.94","52.20","LANSDOWNE HOUSE (AUT)","6014353","2012-02-22 05:00","2012","02","22","05:00","-15.2","","-16.6","","89","","","","6","","17","","","","96.75","","","","-24","","NA"
"-87.94","52.20","LANSDOWNE HOUSE (AUT)","6014353","2012-02-22 06:00","2012","02","22","06:00","-15.3","","-17.0","","87","","","","4","","13","","","","96.74","","","","-23","","NA"
"-87.94","52.20","LANSDOWNE HOUSE (AUT)","6014353","2012-02-22 07:00","2012","02","22","07:00","-15.5","","-17.2","","87","","","","4","","13","","","","96.73","","","","-23","","NA"
"-87.94","52.20","LANSDOWNE HOUSE (AUT)","6014353","2012-02-22 08:00","2012","02","22","08:00","-15.5","","-17.2","","87","","","","4","","11","","","","96.73","","","","-22","","NA"
"-87.94","52.20","LANSDOWNE HOUSE (AUT)","6014353","2012-02-22 09:00","2012","02","22","09:00","-15.4","","-17.3","","85","","","","4","","13","","","","96.74","","","","-23","","NA"
"-87.94","52.20","LANSDOWNE HOUSE (AUT)","6014353","2012-02-22 10:00","2012","02","22","10:00","-15.8","","-17.8","","85","","","","4","","13","","","","96.74","","","","-23","","NA"
"-87.94","52.20","LANSDOWNE HOUSE (AUT)","6014353","2012-02-22 11:00","2012","02","22","11:00","-15.1","","-17.6","","81","","","","4","","13","","","","96.69","","","","-22","","NA"
"-87.94","52.20","LANSDOWNE HOUSE (AUT)","6014353","2012-02-22 12:00","2012","02","22","12:00","-14.4","","-16.9","","81","","","","6","","7","","","","96.66","","","","-19","","NA"
"-87.94","52.20","LANSDOWNE HOUSE (AUT)","6014353","2012-02-22 13:00","2012","02","22","13:00","-12.8","","-15.3","","81","","","","35","","7","","","","96.61","","","","-17","","NA"
"-87.94","52.20","LANSDOWNE HOUSE (AUT)","6014353","2012-02-22 14:00","2012","02","22","14:00","-11.3","","-13.8","","82","","","","2","","9","","","","96.58","","","","-16","","NA"
"-87.94","52.20","LANSDOWNE HOUSE (AUT)","6014353","2012-02-22 15:00","2012","02","22","15:00","-10.1","","-12.4","","83","","","","4","","7","","","","96.58","","","","-14","","NA"
"-87.94","52.20","LANSDOWNE HOUSE (AUT)","6014353","2012-02-22 16:00","2012","02","22","16:00","-9.6","","-12.1","","82","","","","5","","9","","","","96.60","","","","-14","","NA"
"-87.94","52.20","LANSDOWNE HOUSE (AUT)","6014353","2012-02-22 17:00","2012","02","22","17:00","-10.3","","-12.1","","87","","","","2","","11","","","","96.64","","","","-16","","NA"
"-87.94","52.20","LANSDOWNE HOUSE (AUT)","6014353","2012-02-22 18:00","2012","02","22","18:00","-11.0","","-12.6","","88","","","","4","","7","","","","96.66","","","","-15","","NA"
"-87.94","52.20","LANSDOWNE HOUSE (AUT)","6014353","2012-02-22 19:00","2012","02","22","19:00","-12.1","","-13.8","","87","","","","3","","9","","","","96.77","","","","-17","","NA"
"-87.94","52.20","LANSDOWNE HOUSE (AUT)","6014353","2012-02-22 20:00","2012","02","22","20:00","-12.9","","-14.7","","86","","","","5","","13","","","","96.77","","","","-20","","NA"
"-87.94","52.20","LANSDOWNE HOUSE (AUT)","6014353","2012-02-22 21:00","2012","02","22","21:00","-14.6","","-16.3","","87","","","","5","","7","","","","96.80","","","","-19","","NA"
"-87.94","52.20","LANSDOWNE HOUSE (AUT)","6014353","2012-02-22 22:00","2012","02","22","22:00","-15.7","","-17.5","","86","","","","6","","9","","","","96.82","","","","-22","","NA"
"-87.94","52.20","LANSDOWNE HOUSE (AUT)","6014353","2012-02-22 23:00","2012","02","22","23:00","-18.2","","-19.8","","87","","","","4","","4","","","","96.80","","","","-21","","NA"
"-87.94","52.20","LANSDOWNE HOUSE (AUT)","6014353","2012-02-23 00:00","2012","02","23","00:00","-19.5","","-20.8","","89","","","","36","","4","","","","96.84","","","","-23","","NA"
"-87.94","52.20","LANSDOWNE HOUSE (AUT)","6014353","2012-02-23 01:00","2012","02","23","01:00","-18.9","","-20.3","","89","","","","36","","4","","","","96.88","","","","-22","","NA"
"-87.94","52.20","LANSDOWNE HOUSE (AUT)","6014353","2012-02-23 02:00","2012","02","23","02:00","-17.7","","-19.2","","88","","","","36","","4","","","","96.93","","","","-21","","NA"
"-87.94","52.20","LANSDOWNE HOUSE (AUT)","6014353","2012-02-23 03:00","2012","02","23","03:00","-19.4","","-21.2","","86","","","","3","","2","","","","96.97","","","","-21","","NA"
"-87.94","52.20","LANSDOWNE HOUSE (AUT)","6014353","2012-02-23 04:00","2012","02","23","04:00","-19.5","","-20.9","","89","","","","","","0","","","","96.99","","","","","","NA"
"-87.94","52.20","LANSDOWNE HOUSE (AUT)","6014353","2012-02-23 05:00","2012","02","23","05:00","-18.8","","-20.2","","89","","","","28","","2","","","","97.03","","","","-20","","NA"
"-87.94","52.20","LANSDOWNE HOUSE (AUT)","6014353","2012-02-23 06:00","2012","02","23","06:00","-17.7","","-19.1","","89","","","","28","","2","","","","97.09","","","","-19","","NA"
"-87.94","52.20","LANSDOWNE HOUSE (AUT)","6014353","2012-02-23 07:00","2012","02","23","07:00","-16.9","","-18.2","","90","","","","30","","2","","","","97.13","","","","-18","","NA"
"-87.94","52.20","LANSDOWNE HOUSE (AUT)","6014353","2012-02-23 08:00","2012","02","23","08:00","-15.9","","-17.6","","87","","","","1","","6","","","","97.20","","","","-20","","NA"
"-87.94","52.20","LANSDOWNE HOUSE (AUT)","6014353","2012-02-23 09:00","2012","02","23","09:00","-16.0","","-18.0","","85","","","","2","","9","","","","97.26","","","","-22","","NA"
"-87.94","52.20","LANSDOWNE HOUSE (AUT)","6014353","2012-02-23 10:00","2012","02","23","10:00","-15.7","","-17.6","","85","","","","3","","7","","","","97.32","","","","-21","","NA"
"-87.94","52.20","LANSDOWNE HOUSE (AUT)","6014353","2012-02-23 11:00","2012","02","23","11:00","-15.7","","-17.9","","83","","","","8","","7","","","","97.36","","","","-21","","NA"
"-87.94","52.20","LANSDOWNE HOUSE (AUT)","6014353","2012-02-23 12:00","2012","02","23","12:00","-14.9","","-16.9","","85","","","","5","","6","","","","97.42","","","","-19","","NA"
"-87.94","52.20","LANSDOWNE HOUSE (AUT)","6014353","2012-02-23 13:00","2012","02","23","13:00","-13.4","","-15.9","","81","","","","7","","6","","","","97.41","","","","-17","","NA"
"-87.94","52.20","LANSDOWNE HOUSE (AUT)","6014353","2012-02-23 14:00","2012","02","23","14:00","-11.9","","-15.3","","76","","","","6","","7","","","","97.42","","","","-16","","NA"
"-87.94","52.20","LANSDOWNE HOUSE (AUT)","6014353","2012-02-23 15:00","2012","02","23","15:00","-10.5","","-14.8","","71","","","","9","","4","","","","97.45","","","","-13","","NA"
"-87.94","52.20","LANSDOWNE HOUSE (AUT)","6014353","2012-02-23 16:00","2012","02","23","16:00","-9.4","","-14.3","","67","","","","10","","2","","","","97.52","","","","-11","","NA"
"-87.94","52.20","LANSDOWNE HOUSE (AUT)","6014353","2012-02-23 17:00","2012","02","23","17:00","-9.4","","-14.2","","68","","","","9","","4","","","","97.57","","","","-12","","NA"
"-87.94","52.20","LANSDOWNE HOUSE (AUT)","6014353","2012-02-23 18:00","2012","02","23","18:00","-10.3","","-14.4","","72","","","","7","","4","","","","97.62","","","","-13","","NA"
"-87.94","52.20","LANSDOWNE HOUSE (AUT)","6014353","2012-02-23 19:00","2012","02","23","19:00","-13.7","","-16.2","","81","","","","7","","6","","","","97.65","","","","-18","","NA"
"-87.94","52.20","LANSDOWNE HOUSE (AUT)","6014353","2012-02-23 20:00","2012","02","23","20:00","-14.9","","-16.5","","88","","","","5","","7","","","","97.70","","","","-20","","NA"
"-87.94","52.20","LANSDOWNE HOUSE (AUT)","6014353","2012-02-23 21:00","2012","02","23","21:00","-16.3","","-18.1","","86","","","","5","","6","","","","97.76","","","","-21","","NA"
"-87.94","52.20","LANSDOWNE HOUSE (AUT)","6014353","2012-02-23 22:00","2012","02","23","22:00","-15.8","","-18.1","","82","","","","7","","7","","","","97.80","","","","-21","","NA"
"-87.94","52.20","LANSDOWNE HOUSE (AUT)","6014353","2012-02-23 23:00","2012","02","23","23:00","-17.2","","-19.2","","84","","","","7","","6","","","","97.82","","","","-22","","NA"
"-87.94","52.20","LANSDOWNE HOUSE (AUT)","6014353","2012-02-24 00:00","2012","02","24","00:00","-19.6","","-21.5","","85","","","","7","","7","","","","97.85","","","","-25","","NA"
"-87.94","52.20","LANSDOWNE HOUSE (AUT)","6014353","2012-02-24 01:00","2012","02","24","01:00","-18.3","","-20.4","","84","","","","4","","4","","","","97.88","","","","-22","","NA"
"-87.94","52.20","LANSDOWNE HOUSE (AUT)","6014353","2012-02-24 02:00","2012","02","24","02:00","-19.0","","-21.1","","83","","","","5","","6","","","","97.89","","","","-24","","NA"
"-87.94","52.20","LANSDOWNE HOUSE (AUT)","6014353","2012-02-24 03:00","2012","02","24","03:00","-19.6","","-21.4","","86","","","","5","","2","","","","97.89","","","","-21","","NA"
"-87.94","52.20","LANSDOWNE HOUSE (AUT)","6014353","2012-02-24 04:00","2012","02","24","04:00","-21.1","","-22.8","","86","","","","5","","4","","","","97.86","","","","-25","","NA"
"-87.94","52.20","LANSDOWNE HOUSE (AUT)","6014353","2012-02-24 05:00","2012","02","24","05:00","-21.6","","-23.1","","88","","","","5","","6","","","","97.86","","","","-27","","NA"
"-87.94","52.20","LANSDOWNE HOUSE (AUT)","6014353","2012-02-24 06:00","2012","02","24","06:00","-21.2","","-22.9","","86","","","","","","0","","","","97.90","","","","","","NA"
"-87.94","52.20","LANSDOWNE HOUSE (AUT)","6014353","2012-02-24 07:00","2012","02","24","07:00","-19.8","","-21.8","","84","","","","6","","4","","","","97.92","","","","-23","","NA"
"-87.94","52.20","LANSDOWNE HOUSE (AUT)","6014353","2012-02-24 08:00","2012","02","24","08:00","-20.0","","-21.9","","85","","","","6","","4","","","","97.99","","","","-23","","NA"
"-87.94","52.20","LANSDOWNE HOUSE (AUT)","6014353","2012-02-24 09:00","2012","02","24","09:00","-19.6","","-21.7","","83","","","","5","","6","","","","98.03","","","","-25","","NA"
"-87.94","52.20","LANSDOWNE HOUSE (AUT)","6014353","2012-02-24 10:00","2012","02","24","10:00","-18.5","","-21.6","","77","","","","6","","6","","","","98.06","","","","-23","","NA"
"-87.94","52.20","LANSDOWNE HOUSE (AUT)","6014353","2012-02-24 11:00","2012","02","24","11:00","-16.9","","-20.8","","72","","","","5","","2","","","","98.08","","","","-18","","NA"
"-87.94","52.20","LANSDOWNE HOUSE (AUT)","6014353","2012-02-24 12:00","2012","02","24","12:00","-14.9","","-19.5","","68","","","","5","","9","","","","98.06","","","","-21","","NA"
"-87.94","52.20","LANSDOWNE HOUSE (AUT)","6014353","2012-02-24 13:00","2012","02","24","13:00","-11.8","","-18.6","","57","","","","9","","4","","","","98.03","","","","-14","","NA"
"-87.94","52.20","LANSDOWNE HOUSE (AUT)","6014353","2012-02-24 14:00","2012","02","24","14:00","-11.2","","-18.3","","56","","","","6","","6","","","","98.01","","","","-15","","NA"
"-87.94","52.20","LANSDOWNE HOUSE (AUT)","6014353","2012-02-24 15:00","2012","02","24","15:00","-9.7","","-17.3","","54","","","","9","","6","","","","98.00","","","","-13","","NA"
"-87.94","52.20","LANSDOWNE HOUSE (AUT)","6014353","2012-02-24 16:00","2012","02","24","16:00","-9.5","","-18.1","","50","","","","2","","9","","","","98.04","","","","-14","","NA"
"-87.94","52.20","LANSDOWNE HOUSE (AUT)","6014353","2012-02-24 17:00","2012","02","24","17:00","-9.4","","-17.8","","50","","","","2","","7","","","","98.07","","","","-13","","NA"
"-87.94","52.20","LANSDOWNE HOUSE (AUT)","6014353","2012-02-24 18:00","2012","02","24","18:00","-10.9","","-18.2","","55","","","","1","","9","","","","98.14","","","","-16","","NA"
"-87.94","52.20","LANSDOWNE HOUSE (AUT)","6014353","2012-02-24 19:00","2012","02","24","19:00","-13.5","","-18.9","","64","","","","36","","7","","","","98.23","","","","-18","","NA"
"-87.94","52.20","LANSDOWNE HOUSE (AUT)","6014353","2012-02-24 20:00","2012","02","24","20:00","-17.6","","-21.1","","74","","","","35","","6","","","","98.30","","","","-22","","NA"
"-87.94","52.20","LANSDOWNE HOUSE (AUT)","6014353","2012-02-24 21:00","2012","02","24","21:00","-20.6","","-23.2","","80","","","","35","","4","","","","98.34","","","","-24","","NA"
"-87.94","52.20","LANSDOWNE HOUSE (AUT)","6014353","2012-02-24 22:00","2012","02","24","22:00","-21.4","","-23.2","","85","","","","","","0","","","","98.39","","","","","","NA"
"-87.94","52.20","LANSDOWNE HOUSE (AUT)","6014353","2012-02-24 23:00","2012","02","24","23:00","-24.2","","-26.0","","85","","","","34","","4","","","","98.41","","","","-28","","NA"
"-87.94","52.20","LANSDOWNE HOUSE (AUT)","6014353","2012-02-25 00:00","2012","02","25","00:00","-26.0","","-27.9","","84","","","","31","","2","","","","98.44","","","","-28","","NA"
"-87.94","52.20","LANSDOWNE HOUSE (AUT)","6014353","2012-02-25 01:00","2012","02","25","01:00","-26.5","","-28.6","","82","","","","34","","4","","","","98.47","","","","-31","","NA"
"-87.94","52.20","LANSDOWNE HOUSE (AUT)","6014353","2012-02-25 02:00","2012","02","25","02:00","-27.6","","-29.7","","82","","","","34","","4","","","","98.46","","","","-32","","NA"
"-87.94","52.20","LANSDOWNE HOUSE (AUT)","6014353","2012-02-25 03:00","2012","02","25","03:00","-29.1","","-31.3","","81","","","","26","","7","","","","98.49","","","","-36","","NA"
"-87.94","52.20","LANSDOWNE HOUSE (AUT)","6014353","2012-02-25 04:00","2012","02","25","04:00","-30.4","","-32.8","","79","","","","25","","7","","","","98.53","","","","-38","","NA"
"-87.94","52.20","LANSDOWNE HOUSE (AUT)","6014353","2012-02-25 05:00","2012","02","25","05:00","-29.6","","-31.8","","81","","","","27","","6","","","","98.61","","","","-36","","NA"
"-87.94","52.20","LANSDOWNE HOUSE (AUT)","6014353","2012-02-25 06:00","2012","02","25","06:00","-26.2","","-28.1","","84","","","","25","","4","","","","98.64","","","","-30","","NA"
"-87.94","52.20","LANSDOWNE HOUSE (AUT)","6014353","2012-02-25 07:00","2012","02","25","07:00","-23.1","","-24.9","","85","","","","31","","4","","","","98.72","","","","-27","","NA"
"-87.94","52.20","LANSDOWNE HOUSE (AUT)","6014353","2012-02-25 08:00","2012","02","25","08:00","-21.6","","-23.7","","83","","","","33","","4","","","","98.78","","","","-25","","NA"
"-87.94","52.20","LANSDOWNE HOUSE (AUT)","6014353","2012-02-25 09:00","2012","02","25","09:00","-21.0","","-22.8","","85","","","","33","","7","","","","98.83","","","","-27","","NA"
"-87.94","52.20","LANSDOWNE HOUSE (AUT)","6014353","2012-02-25 10:00","2012","02","25","10:00","-20.0","","-22.2","","83","","","","34","","6","","","","98.86","","","","-25","","NA"
"-87.94","52.20","LANSDOWNE HOUSE (AUT)","6014353","2012-02-25 11:00","2012","02","25","11:00","-18.7","","-21.9","","76","","","","34","","6","","","","98.89","","","","-24","","NA"
"-87.94","52.20","LANSDOWNE HOUSE (AUT)","6014353","2012-02-25 12:00","2012","02","25","12:00","-16.4","","-20.6","","70","","","","32","","6","","","","98.93","","","","-21","","NA"
"-87.94","52.20","LANSDOWNE HOUSE (AUT)","6014353","2012-02-25 13:00","2012","02","25","13:00","-15.1","","-20.0","","66","","","","31","","9","","","","98.95","","","","-21","","NA"
"-87.94","52.20","LANSDOWNE HOUSE (AUT)","6014353","2012-02-25 14:00","2012","02","25","14:00","-14.6","","-20.3","","62","","","","29","","11","","","","98.95","","","","-21","","NA"
"-87.94","52.20","LANSDOWNE HOUSE (AUT)","6014353","2012-02-25 15:00","2012","02","25","15:00","-13.7","","-20.6","","56","","","","30","","11","","","","98.97","","","","-20","","NA"
"-87.94","52.20","LANSDOWNE HOUSE (AUT)","6014353","2012-02-25 16:00","2012","02","25","16:00","-13.8","","-21.6","","52","","","","29","","11","","","","99.00","","","","-20","","NA"
"-87.94","52.20","LANSDOWNE HOUSE (AUT)","6014353","2012-02-25 17:00","2012","02","25","17:00","-14.3","","-21.9","","52","","","","29","","11","","","","99.07","","","","-21","","NA"
"-87.94","52.20","LANSDOWNE HOUSE (AUT)","6014353","2012-02-25 18:00","2012","02","25","18:00","-15.7","","-22.3","","57","","","","34","","6","","","","99.13","","","","-20","","NA"
"-87.94","52.20","LANSDOWNE HOUSE (AUT)","6014353","2012-02-25 19:00","2012","02","25","19:00","-19.6","","-24.2","","67","","","","35","","6","","","","99.19","","","","-25","","NA"
"-87.94","52.20","LANSDOWNE HOUSE (AUT)","6014353","2012-02-25 20:00","2012","02","25","20:00","-23.7","","-25.8","","83","","","","29","","2","","","","99.23","","","","-26","","NA"
"-87.94","52.20","LANSDOWNE HOUSE (AUT)","6014353","2012-02-25 21:00","2012","02","25","21:00","-27.0","","-29.2","","82","","","","26","","6","","","","99.29","","","","-33","","NA"
"-87.94","52.20","LANSDOWNE HOUSE (AUT)","6014353","2012-02-25 22:00","2012","02","25","22:00","-30.1","","-32.2","","82","","","","27","","6","","","","99.37","","","","-37","","NA"
"-87.94","52.20","LANSDOWNE HOUSE (AUT)","6014353","2012-02-25 23:00","2012","02","25","23:00","-30.7","","-33.2","","79","","","","28","","6","","","","99.43","","","","-37","","NA"
"-87.94","52.20","LANSDOWNE HOUSE (AUT)","6014353","2012-02-26 00:00","2012","02","26","00:00","-30.8","","-33.6","","76","","","","","","0","","","","99.45","","","","","","NA"
"-87.94","52.20","LANSDOWNE HOUSE (AUT)","6014353","2012-02-26 01:00","2012","02","26","01:00","-32.1","","-34.9","","76","","","","22","","4","","","","99.53","","","","-37","","NA"
"-87.94","52.20","LANSDOWNE HOUSE (AUT)","6014353","2012-02-26 02:00","2012","02","26","02:00","-33.2","","-36.1","","75","","","","25","","6","","","","99.60","","","","-40","","NA"
"-87.94","52.20","LANSDOWNE HOUSE (AUT)","6014353","2012-02-26 03:00","2012","02","26","03:00","-34.3","","-37.2","","75","","","","25","","4","","","","99.61","","","","-39","","NA"
"-87.94","52.20","LANSDOWNE HOUSE (AUT)","6014353","2012-02-26 04:00","2012","02","26","04:00","-34.8","","-37.9","","73","","","","","","0","","","","99.61","","","","","","NA"
"-87.94","52.20","LANSDOWNE HOUSE (AUT)","6014353","2012-02-26 05:00","2012","02","26","05:00","-36.1","","-39.5","","71","","","","23","","4","","","","99.70","","","","-41","","NA"
"-87.94","52.20","LANSDOWNE HOUSE (AUT)","6014353","2012-02-26 06:00","2012","02","26","06:00","-36.7","","-40.1","","71","","","","25","","4","","","","99.74","","","","-42","","NA"
"-87.94","52.20","LANSDOWNE HOUSE (AUT)","6014353","2012-02-26 07:00","2012","02","26","07:00","-36.9","","-40.4","","70","","","","","","0","","","","99.76","","","","","","NA"
"-87.94","52.20","LANSDOWNE HOUSE (AUT)","6014353","2012-02-26 08:00","2012","02","26","08:00","-36.6","","-39.9","","71","","","","","","0","","","","99.73","","","","","","NA"
"-87.94","52.20","LANSDOWNE HOUSE (AUT)","6014353","2012-02-26 09:00","2012","02","26","09:00","-33.9","","-37.0","","73","","","","6","","2","","","","99.71","","","","-36","","NA"
"-87.94","52.20","LANSDOWNE HOUSE (AUT)","6014353","2012-02-26 10:00","2012","02","26","10:00","-29.5","","-32.0","","79","","","","","","0","","","","99.71","","","","","","NA"
"-87.94","52.20","LANSDOWNE HOUSE (AUT)","6014353","2012-02-26 11:00","2012","02","26","11:00","-24.5","","-26.8","","81","","","","4","","4","","","","99.71","","","","-28","","NA"
"-87.94","52.20","LANSDOWNE HOUSE (AUT)","6014353","2012-02-26 12:00","2012","02","26","12:00","-23.0","","-26.2","","75","","","","4","","6","","","","99.69","","","","-28","","NA"
"-87.94","52.20","LANSDOWNE HOUSE (AUT)","6014353","2012-02-26 13:00","2012","02","26","13:00","-18.8","","-24.2","","62","","","","5","","7","","","","99.65","","","","-24","","NA"
"-87.94","52.20","LANSDOWNE HOUSE (AUT)","6014353","2012-02-26 14:00","2012","02","26","14:00","-17.0","","-23.2","","59","","","","5","","13","","","","99.57","","","","-25","","NA"
"-87.94","52.20","LANSDOWNE HOUSE (AUT)","6014353","2012-02-26 15:00","2012","02","26","15:00","-16.3","","-23.2","","55","","","","5","","7","","","","99.53","","","","-21","","NA"
"-87.94","52.20","LANSDOWNE HOUSE (AUT)","6014353","2012-02-26 16:00","2012","02","26","16:00","-16.0","","-22.5","","57","","","","6","","13","","","","99.47","","","","-24","","NA"
"-87.94","52.20","LANSDOWNE HOUSE (AUT)","6014353","2012-02-26 17:00","2012","02","26","17:00","-15.2","","-22.2","","55","","","","6","","9","","","","99.49","","","","-21","","NA"
"-87.94","52.20","LANSDOWNE HOUSE (AUT)","6014353","2012-02-26 18:00","2012","02","26","18:00","-16.0","","-22.7","","56","","","","6","","7","","","","99.47","","","","-21","","NA"
"-87.94","52.20","LANSDOWNE HOUSE (AUT)","6014353","2012-02-26 19:00","2012","02","26","19:00","-18.1","","-22.7","","67","","","","6","","6","","","","99.51","","","","-23","","NA"
"-87.94","52.20","LANSDOWNE HOUSE (AUT)","6014353","2012-02-26 20:00","2012","02","26","20:00","-18.7","","-23.1","","68","","","","6","","7","","","","99.49","","","","-24","","NA"
"-87.94","52.20","LANSDOWNE HOUSE (AUT)","6014353","2012-02-26 21:00","2012","02","26","21:00","-18.9","","-22.9","","71","","","","7","","6","","","","99.49","","","","-24","","NA"
"-87.94","52.20","LANSDOWNE HOUSE (AUT)","6014353","2012-02-26 22:00","2012","02","26","22:00","-19.1","","-22.9","","72","","","","8","","6","","","","99.44","","","","-24","","NA"
"-87.94","52.20","LANSDOWNE HOUSE (AUT)","6014353","2012-02-26 23:00","2012","02","26","23:00","-22.4","","-25.1","","79","","","","7","","6","","","","99.43","","","","-28","","NA"
"-87.94","52.20","LANSDOWNE HOUSE (AUT)","6014353","2012-02-27 00:00","2012","02","27","00:00","-23.8","","-26.2","","81","","","","6","","7","","","","99.42","","","","-30","","NA"
"-87.94","52.20","LANSDOWNE HOUSE (AUT)","6014353","2012-02-27 01:00","2012","02","27","01:00","-27.0","","-29.5","","79","","","","5","","7","","","","99.38","","","","-34","","NA"
"-87.94","52.20","LANSDOWNE HOUSE (AUT)","6014353","2012-02-27 02:00","2012","02","27","02:00","-26.7","","-28.9","","82","","","","5","","7","","","","99.40","","","","-33","","NA"
"-87.94","52.20","LANSDOWNE HOUSE (AUT)","6014353","2012-02-27 03:00","2012","02","27","03:00","-27.3","","-29.6","","81","","","","2","","4","","","","99.39","","","","-32","","NA"
"-87.94","52.20","LANSDOWNE HOUSE (AUT)","6014353","2012-02-27 04:00","2012","02","27","04:00","-26.4","","-28.6","","82","","","","4","","2","","","","99.39","","","","-28","","NA"
"-87.94","52.20","LANSDOWNE HOUSE (AUT)","6014353","2012-02-27 05:00","2012","02","27","05:00","-25.8","","-28.0","","82","","","","","","0","","","","99.40","","","","","","NA"
"-87.94","52.20","LANSDOWNE HOUSE (AUT)","6014353","2012-02-27 06:00","2012","02","27","06:00","-26.7","","-29.2","","79","","","","35","","2","","","","99.45","","","","-29","","NA"
"-87.94","52.20","LANSDOWNE HOUSE (AUT)","6014353","2012-02-27 07:00","2012","02","27","07:00","-27.6","","-29.9","","81","","","","35","","2","","","","99.48","","","","-30","","NA"
"-87.94","52.20","LANSDOWNE HOUSE (AUT)","6014353","2012-02-27 08:00","2012","02","27","08:00","-28.6","","-31.1","","79","","","","34","","2","","","","99.50","","","","-31","","NA"
"-87.94","52.20","LANSDOWNE HOUSE (AUT)","6014353","2012-02-27 09:00","2012","02","27","09:00","-27.7","","-30.2","","79","","","","34","","2","","","","99.54","","","","-30","","NA"
"-87.94","52.20","LANSDOWNE HOUSE (AUT)","6014353","2012-02-27 10:00","2012","02","27","10:00","-22.2","","-26.4","","69","","","","10","","4","","","","99.59","","","","-26","","NA"
"-87.94","52.20","LANSDOWNE HOUSE (AUT)","6014353","2012-02-27 11:00","2012","02","27","11:00","-19.6","","-24.6","","64","","","","9","","4","","","","99.62","","","","-23","","NA"
"-87.94","52.20","LANSDOWNE HOUSE (AUT)","6014353","2012-02-27 12:00","2012","02","27","12:00","-17.4","","-24.3","","55","","","","7","","7","","","","99.62","","","","-23","","NA"
"-87.94","52.20","LANSDOWNE HOUSE (AUT)","6014353","2012-02-27 13:00","2012","02","27","13:00","-15.9","","-23.8","","51","","","","10","","6","","","","99.57","","","","-20","","NA"
"-87.94","52.20","LANSDOWNE HOUSE (AUT)","6014353","2012-02-27 14:00","2012","02","27","14:00","-14.9","","-23.7","","47","","","","6","","6","","","","99.54","","","","-19","","NA"
"-87.94","52.20","LANSDOWNE HOUSE (AUT)","6014353","2012-02-27 15:00","2012","02","27","15:00","-14.1","","-22.9","","47","","","","7","","6","","","","99.49","","","","-18","","NA"
"-87.94","52.20","LANSDOWNE HOUSE (AUT)","6014353","2012-02-27 16:00","2012","02","27","16:00","-12.1","","-22.0","","44","","","","11","","4","","","","99.50","","","","-15","","NA"
"-87.94","52.20","LANSDOWNE HOUSE (AUT)","6014353","2012-02-27 17:00","2012","02","27","17:00","-12.2","","-23.8","","37","","","","25","","7","","","","99.51","","","","-17","","NA"
"-87.94","52.20","LANSDOWNE HOUSE (AUT)","6014353","2012-02-27 18:00","2012","02","27","18:00","-13.5","","-22.9","","45","","","","26","","6","","","","99.52","","","","-18","","NA"
"-87.94","52.20","LANSDOWNE HOUSE (AUT)","6014353","2012-02-27 19:00","2012","02","27","19:00","-18.7","","-24.0","","63","","","","","","0","","","","99.56","","","","","","NA"
"-87.94","52.20","LANSDOWNE HOUSE (AUT)","6014353","2012-02-27 20:00","2012","02","27","20:00","-21.1","","-24.6","","73","","","","18","","6","","","","99.57","","","","-26","","NA"
"-87.94","52.20","LANSDOWNE HOUSE (AUT)","6014353","2012-02-27 21:00","2012","02","27","21:00","-21.3","","-24.8","","73","","","","17","","4","","","","99.54","","","","-25","","NA"
"-87.94","52.20","LANSDOWNE HOUSE (AUT)","6014353","2012-02-27 22:00","2012","02","27","22:00","-23.9","","-26.8","","77","","","","17","","2","","","","99.53","","","","-26","","NA"
"-87.94","52.20","LANSDOWNE HOUSE (AUT)","6014353","2012-02-27 23:00","2012","02","27","23:00","-25.4","","-28.4","","76","","","","","","0","","","","99.50","","","","","","NA"
"-87.94","52.20","LANSDOWNE HOUSE (AUT)","6014353","2012-02-28 00:00","2012","02","28","00:00","-25.2","","-27.7","","80","","","","5","","4","","","","99.49","","","","-29","","NA"
"-87.94","52.20","LANSDOWNE HOUSE (AUT)","6014353","2012-02-28 01:00","2012","02","28","01:00","-24.1","","-26.8","","78","","","","","","0","","","","99.47","","","","","","NA"
"-87.94","52.20","LANSDOWNE HOUSE (AUT)","6014353","2012-02-28 02:00","2012","02","28","02:00","-24.6","","-27.4","","78","","","","22","","6","","","","99.45","","","","-30","","NA"
"-87.94","52.20","LANSDOWNE HOUSE (AUT)","6014353","2012-02-28 03:00","2012","02","28","03:00","-23.8","","-26.3","","80","","","","22","","4","","","","99.44","","","","-28","","NA"
"-87.94","52.20","LANSDOWNE HOUSE (AUT)","6014353","2012-02-28 04:00","2012","02","28","04:00","-24.8","","-27.6","","77","","","","","","0","","","","99.43","","","","","","NA"
"-87.94","52.20","LANSDOWNE HOUSE (AUT)","6014353","2012-02-28 05:00","2012","02","28","05:00","-24.5","","-27.4","","77","","","","21","","4","","","","99.41","","","","-28","","NA"
"-87.94","52.20","LANSDOWNE HOUSE (AUT)","6014353","2012-02-28 06:00","2012","02","28","06:00","-23.8","","-26.3","","80","","","","24","","4","","","","99.38","","","","-28","","NA"
"-87.94","52.20","LANSDOWNE HOUSE (AUT)","6014353","2012-02-28 07:00","2012","02","28","07:00","-23.7","","-26.4","","78","","","","21","","2","","","","99.37","","","","-26","","NA"
"-87.94","52.20","LANSDOWNE HOUSE (AUT)","6014353","2012-02-28 08:00","2012","02","28","08:00","-23.9","","-25.9","","84","","","","22","","4","","","","99.33","","","","-28","","NA"
"-87.94","52.20","LANSDOWNE HOUSE (AUT)","6014353","2012-02-28 09:00","2012","02","28","09:00","-21.4","","-24.2","","78","","","","22","","2","","","","99.33","","","","-23","","NA"
"-87.94","52.20","LANSDOWNE HOUSE (AUT)","6014353","2012-02-28 10:00","2012","02","28","10:00","-15.7","","-19.9","","70","","","","25","","9","","","","99.29","","","","-22","","NA"
"-87.94","52.20","LANSDOWNE HOUSE (AUT)","6014353","2012-02-28 11:00","2012","02","28","11:00","-12.3","","-17.3","","66","","","","25","","7","","","","99.25","","","","-17","","NA"
"-87.94","52.20","LANSDOWNE HOUSE (AUT)","6014353","2012-02-28 12:00","2012","02","28","12:00","-10.1","","-16.7","","58","","","","26","","7","","","","99.19","","","","-14","","NA"
"-87.94","52.20","LANSDOWNE HOUSE (AUT)","6014353","2012-02-28 13:00","2012","02","28","13:00","-8.4","","-15.5","","57","","","","25","","13","","","","99.15","","","","-14","","NA"
"-87.94","52.20","LANSDOWNE HOUSE (AUT)","6014353","2012-02-28 14:00","2012","02","28","14:00","-7.2","","-14.4","","56","","","","26","","13","","","","99.12","","","","-13","","NA"
"-87.94","52.20","LANSDOWNE HOUSE (AUT)","6014353","2012-02-28 15:00","2012","02","28","15:00","-6.6","","-14.7","","53","","","","23","","15","","","","99.09","","","","-13","","NA"
"-87.94","52.20","LANSDOWNE HOUSE (AUT)","6014353","2012-02-28 16:00","2012","02","28","16:00","-6.7","","-13.7","","57","","","","24","","15","","","","99.10","","","","-13","","NA"
"-87.94","52.20","LANSDOWNE HOUSE (AUT)","6014353","2012-02-28 17:00","2012","02","28","17:00","-6.8","","-13.2","","60","","","","24","","13","","","","99.14","","","","-12","","NA"
"-87.94","52.20","LANSDOWNE HOUSE (AUT)","6014353","2012-02-28 18:00","2012","02","28","18:00","-6.8","","-13.2","","60","","","","26","","7","","","","99.17","","","","-10","","NA"
"-87.94","52.20","LANSDOWNE HOUSE (AUT)","6014353","2012-02-28 19:00","2012","02","28","19:00","-8.6","","-12.6","","73","","","","25","","4","","","","99.20","","","","-11","","NA"
"-87.94","52.20","LANSDOWNE HOUSE (AUT)","6014353","2012-02-28 20:00","2012","02","28","20:00","-11.5","","-14.8","","76","","","","","","0","","","","99.21","","","","","","NA"
"-87.94","52.20","LANSDOWNE HOUSE (AUT)","6014353","2012-02-28 21:00","2012","02","28","21:00","-14.9","","-16.7","","86","","","","12","","2","","","","99.21","","","","-16","","NA"
"-87.94","52.20","LANSDOWNE HOUSE (AUT)","6014353","2012-02-28 22:00","2012","02","28","22:00","-17.5","","-18.9","","89","","","","6","","2","","","","99.20","","","","-19","","NA"
"-87.94","52.20","LANSDOWNE HOUSE (AUT)","6014353","2012-02-28 23:00","2012","02","28","23:00","-19.3","","-20.7","","89","","","","5","","2","","","","99.20","","","","-21","","NA"
"-87.94","52.20","LANSDOWNE HOUSE (AUT)","6014353","2012-02-29 00:00","2012","02","29","00:00","-21.0","","-22.6","","87","","","","","","0","","","","99.23","","","","","","NA"
"-87.94","52.20","LANSDOWNE HOUSE (AUT)","6014353","2012-02-29 01:00","2012","02","29","01:00","-22.9","","-24.9","","84","","","","","","0","","","","99.26","","","","","","NA"
"-87.94","52.20","LANSDOWNE HOUSE (AUT)","6014353","2012-02-29 02:00","2012","02","29","02:00","-23.9","","-26.0","","83","","","","33","","2","","","","99.24","","","","-26","","NA"
"-87.94","52.20","LANSDOWNE HOUSE (AUT)","6014353","2012-02-29 03:00","2012","02","29","03:00","-23.8","","-25.7","","84","","","","5","","2","","","","99.20","","","","-26","","NA"
"-87.94","52.20","LANSDOWNE HOUSE (AUT)","6014353","2012-02-29 04:00","2012","02","29","04:00","-24.6","","-26.6","","83","","","","5","","6","","","","99.10","","","","-30","","NA"
"-87.94","52.20","LANSDOWNE HOUSE (AUT)","6014353","2012-02-29 05:00","2012","02","29","05:00","-24.4","","-26.4","","83","","","","6","","6","","","","99.03","","","","-30","","NA"
"-87.94","52.20","LANSDOWNE HOUSE (AUT)","6014353","2012-02-29 06:00","2012","02","29","06:00","-23.9","","-25.8","","84","","","","8","","4","","","","98.99","","","","-28","","NA"
"-87.94","52.20","LANSDOWNE HOUSE (AUT)","6014353","2012-02-29 07:00","2012","02","29","07:00","-25.8","","-27.9","","82","","","","3","","2","","","","99.00","","","","-28","","NA"
"-87.94","52.20","LANSDOWNE HOUSE (AUT)","6014353","2012-02-29 08:00","2012","02","29","08:00","-24.2","","-26.2","","83","","","","6","","7","","","","98.99","","","","-31","","NA"
"-87.94","52.20","LANSDOWNE HOUSE (AUT)","6014353","2012-02-29 09:00","2012","02","29","09:00","-21.2","","-22.9","","86","","","","5","","6","","","","98.93","","","","-26","","NA"
"-87.94","52.20","LANSDOWNE HOUSE (AUT)","6014353","2012-02-29 10:00","2012","02","29","10:00","-12.3","","-13.1","","94","","","","8","","4","","","","98.87","","","","-15","","NA"
"-87.94","52.20","LANSDOWNE HOUSE (AUT)","6014353","2012-02-29 11:00","2012","02","29","11:00","-8.6","","-12.7","","72","","","","12","","13","","","","98.81","","","","-15","","NA"
"-87.94","52.20","LANSDOWNE HOUSE (AUT)","6014353","2012-02-29 12:00","2012","02","29","12:00","-6.4","","-12.0","","64","","","","11","","9","","","","98.78","","","","-11","","NA"
"-87.94","52.20","LANSDOWNE HOUSE (AUT)","6014353","2012-02-29 13:00","2012","02","29","13:00","-4.6","","-11.9","","57","","","","13","","11","","","","98.74","","","","-9","","NA"
"-87.94","52.20","LANSDOWNE HOUSE (AUT)","6014353","2012-02-29 14:00","2012","02","29","14:00","-3.7","","-11.8","","53","","","","14","","13","","","","98.64","","","","-9","","NA"
"-87.94","52.20","LANSDOWNE HOUSE (AUT)","6014353","2012-02-29 15:00","2012","02","29","15:00","-2.8","","-11.9","","49","","","","14","","13","","","","98.52","","","","-7","","NA"
"-87.94","52.20","LANSDOWNE HOUSE (AUT)","6014353","2012-02-29 16:00","2012","02","29","16:00","-3.0","","-12.0","","50","","","","13","","9","","","","98.41","","","","-7","","NA"
"-87.94","52.20","LANSDOWNE HOUSE (AUT)","6014353","2012-02-29 17:00","2012","02","29","17:00","-3.3","","-11.9","","51","","","","11","","9","","","","98.33","","","","-7","","NA"
"-87.94","52.20","LANSDOWNE HOUSE (AUT)","6014353","2012-02-29 18:00","2012","02","29","18:00","-7.5","","-13.2","","64","","","","7","","9","","","","98.27","","","","-12","","NA"
"-87.94","52.20","LANSDOWNE HOUSE (AUT)","6014353","2012-02-29 19:00","2012","02","29","19:00","-7.0","","-12.8","","63","","","","9","","11","","","","98.29","","","","-12","","NA"
"-87.94","52.20","LANSDOWNE HOUSE (AUT)","6014353","2012-02-29 20:00","2012","02","29","20:00","-10.7","","-16.3","","63","","","","10","","11","","","","98.30","","","","-16","","NA"
"-87.94","52.20","LANSDOWNE HOUSE (AUT)","6014353","2012-02-29 21:00","2012","02","29","21:00","-16.1","","-19.1","","78","","","","8","","7","","","","98.28","","","","-21","","NA"
"-87.94","52.20","LANSDOWNE HOUSE (AUT)","6014353","2012-02-29 22:00","2012","02","29","22:00","-10.9","","-15.4","","69","","","","12","","11","","","","98.25","","","","-17","","NA"
"-87.94","52.20","LANSDOWNE HOUSE (AUT)","6014353","2012-02-29 23:00","2012","02","29","23:00","-14.2","","-17.3","","77","","","","5","","6","","","","98.27","","","","-18","","NA"
