"Longitude (x)","Latitude (y)","Station Name","Climate ID","Date/Time (LST)","Year","Month","Day","Time (LST)","Temp (°C)","Temp Flag","Dew Point Temp (°C)","Dew Point Temp Flag","Rel Hum (%)","Rel Hum Flag","Precip. Amount (mm)","Precip. Amount Flag","Wind Dir (10s deg)","Wind Dir Flag","Wind Spd (km/h)","Wind Spd Flag","Visibility (km)","Visibility Flag","Stn Press (kPa)","Stn Press Flag","Hmdx","Hmdx Flag","Wind Chill","Wind Chill Flag","Weather"
"-87.94","52.20","LANSDOWNE HOUSE (AUT)","6014353","2019-02-01 00:00","2019","02","01","00:00","-32.1","","-35.3","","74","","","M","25","","11","","","","98.84","","","","-42","","NA"
"-87.94","52.20","LANSDOWNE HOUSE (AUT)","6014353","2019-02-01 01:00","2019","02","01","01:00","-33.4","","-36.2","","75","","","M","25","","10","","","","98.84","","","","-43","","NA"
"-87.94","52.20","LANSDOWNE HOUSE (AUT)","6014353","2019-02-01 02:00","2019","02","01","02:00","-34.2","","-36.9","","76","","","M","24","","9","","","","98.83","","","","-44","","NA"
"-87.94","52.20","LANSDOWNE HOUSE (AUT)","6014353","2019-02-01 03:00","2019","02","01","03:00","-35.7","","-39.1","","71","","","M","22","","6","","","","98.84","","","","-43","","NA"
"-87.94","52.20","LANSDOWNE HOUSE (AUT)","6014353","2019-02-01 04:00","2019","02","01","04:00","-36.2","","-39.1","","74","","","M","23","","8","","","","98.82","","","","-45","","NA"
"-87.94","52.20","LANSDOWNE HOUSE (AUT)","6014353","2019-02-01 05:00","2019","02","01","05:00","-35.9","","-38.9","","73","","","M","24","","10","","","","98.81","","","","-46","","NA"
"-87.94","52.20","LANSDOWNE HOUSE (AUT)","6014353","2019-02-01 06:00","2019","02","01","06:00","-35.2","","-38.4","","72","","","M","23","","8","","","","98.76","","","","-44","","NA"
"-87.94","52.20","LANSDOWNE HOUSE (AUT)","6014353","2019-02-01 07:00","2019","02","01","07:00","-34.1","","-37.2","","74","","","M","21","","6","","","","98.68","","","","-41","","NA"
"-87.94","52.20","LANSDOWNE HOUSE (AUT)","6014353","2019-02-01 08:00","2019","02","01","08:00","-31.9","","-35.2","","73","","","M","22","","7","","","","98.65","","","","-39","","NA"
"-87.94","52.20","LANSDOWNE HOUSE (AUT)","6014353","2019-02-01 09:00","2019","02","01","09:00","-30.1","","-33.6","","72","","","M","22","","8","","","","98.57","","","","-38","","NA"
"-87.94","52.20","LANSDOWNE HOUSE (AUT)","6014353","2019-02-01 10:00","2019","02","01","10:00","-27.7","","-31.2","","72","","","M","21","","9","","","","98.49","","","","-36","","NA"
"-87.94","52.20","LANSDOWNE HOUSE (AUT)","6014353","2019-02-01 11:00","2019","02","01","11:00","-24.9","","-29.1","","68","","","M","22","","9","","","","98.41","","","","-33","","NA"
"-87.94","52.20","LANSDOWNE HOUSE (AUT)","6014353","2019-02-01 12:00","2019","02","01","12:00","-22.5","","-28.2","","59","","","M","21","","12","","","","98.29","","","","-31","","NA"
"-87.94","52.20","LANSDOWNE HOUSE (AUT)","6014353","2019-02-01 13:00","2019","02","01","13:00","-21.0","","-26.3","","63","","","M","21","","11","","","","98.19","","","","-29","","NA"
"-87.94","52.20","LANSDOWNE HOUSE (AUT)","6014353","2019-02-01 14:00","2019","02","01","14:00","-20.3","","-24.7","","67","","","M","19","","16","","","","98.01","","","","-30","","NA"
"-87.94","52.20","LANSDOWNE HOUSE (AUT)","6014353","2019-02-01 15:00","2019","02","01","15:00","-19.3","","-22.3","","77","","","M","21","","14","","","","97.92","","","","-28","","NA"
"-87.94","52.20","LANSDOWNE HOUSE (AUT)","6014353","2019-02-01 16:00","2019","02","01","16:00","-18.4","","-21.1","","79","","","M","23","","14","","","","97.87","","","","-27","","NA"
"-87.94","52.20","LANSDOWNE HOUSE (AUT)","6014353","2019-02-01 17:00","2019","02","01","17:00","-18.0","","-20.7","","79","","","M","25","","18","","","","97.90","","","","-27","","NA"
"-87.94","52.20","LANSDOWNE HOUSE (AUT)","6014353","2019-02-01 18:00","2019","02","01","18:00","-18.2","","-20.9","","79","","","M","26","","16","","","","97.93","","","","-27","","NA"
"-87.94","52.20","LANSDOWNE HOUSE (AUT)","6014353","2019-02-01 19:00","2019","02","01","19:00","-18.2","","-21.5","","75","","","M","27","","12","","","","97.97","","","","-26","","NA"
"-87.94","52.20","LANSDOWNE HOUSE (AUT)","6014353","2019-02-01 20:00","2019","02","01","20:00","-19.0","","-22.0","","77","","","M","29","","9","","","","98.00","","","","-26","","NA"
"-87.94","52.20","LANSDOWNE HOUSE (AUT)","6014353","2019-02-01 21:00","2019","02","01","21:00","-20.2","","-23.2","","76","","","M","29","","10","","","","98.04","","","","-27","","NA"
"-87.94","52.20","LANSDOWNE HOUSE (AUT)","6014353","2019-02-01 22:00","2019","02","01","22:00","-21.4","","-24.4","","77","","","M","29","","10","","","","98.14","","","","-29","","NA"
"-87.94","52.20","LANSDOWNE HOUSE (AUT)","6014353","2019-02-01 23:00","2019","02","01","23:00","-22.1","","-25.3","","75","","","M","29","","10","","","","98.13","","","","-30","","NA"
"-87.94","52.20","LANSDOWNE HOUSE (AUT)","6014353","2019-02-02 00:00","2019","02","02","00:00","-22.9","","-25.9","","76","","","M","30","","9","","","","98.15","","","","-30","","NA"
"-87.94","52.20","LANSDOWNE HOUSE (AUT)","6014353","2019-02-02 01:00","2019","02","02","01:00","-23.9","","-26.9","","77","","","M","31","","8","","","","98.23","","","","-31","","NA"
"-87.94","52.20","LANSDOWNE HOUSE (AUT)","6014353","2019-02-02 02:00","2019","02","02","02:00","-24.8","","-27.9","","75","","","M","30","","9","","","","98.29","","","","-32","","NA"
"-87.94","52.20","LANSDOWNE HOUSE (AUT)","6014353","2019-02-02 03:00","2019","02","02","03:00","-25.9","","-28.9","","76","","","M","30","","9","","","","98.39","","","","-34","","NA"
"-87.94","52.20","LANSDOWNE HOUSE (AUT)","6014353","2019-02-02 04:00","2019","02","02","04:00","-26.4","","-29.6","","75","","","M","31","","11","","","","98.47","","","","-35","","NA"
"-87.94","52.20","LANSDOWNE HOUSE (AUT)","6014353","2019-02-02 05:00","2019","02","02","05:00","-27.6","","-30.7","","75","","","M","30","","10","","","","98.56","","","","-36","","NA"
"-87.94","52.20","LANSDOWNE HOUSE (AUT)","6014353","2019-02-02 06:00","2019","02","02","06:00","-28.3","","-31.5","","74","","","M","30","","9","","","","98.66","","","","-37","","NA"
"-87.94","52.20","LANSDOWNE HOUSE (AUT)","6014353","2019-02-02 07:00","2019","02","02","07:00","-29.4","","-32.5","","75","","","M","29","","7","","","","98.71","","","","-37","","NA"
"-87.94","52.20","LANSDOWNE HOUSE (AUT)","6014353","2019-02-02 08:00","2019","02","02","08:00","-30.3","","-33.3","","75","","","M","27","","7","","","","98.78","","","","-38","","NA"
"-87.94","52.20","LANSDOWNE HOUSE (AUT)","6014353","2019-02-02 09:00","2019","02","02","09:00","-30.1","","-33.3","","74","","","M","28","","6","","","","98.83","","","","-37","","NA"
"-87.94","52.20","LANSDOWNE HOUSE (AUT)","6014353","2019-02-02 10:00","2019","02","02","10:00","-29.7","","-33.2","","72","","","M","28","","9","","","","98.88","","","","-38","","NA"
"-87.94","52.20","LANSDOWNE HOUSE (AUT)","6014353","2019-02-02 11:00","2019","02","02","11:00","-28.7","","-32.3","","71","","","M","28","","9","","","","98.92","","","","-37","","NA"
"-87.94","52.20","LANSDOWNE HOUSE (AUT)","6014353","2019-02-02 12:00","2019","02","02","12:00","-27.5","","-31.2","","71","","","M","25","","12","","","","98.91","","","","-37","","NA"
"-87.94","52.20","LANSDOWNE HOUSE (AUT)","6014353","2019-02-02 13:00","2019","02","02","13:00","-25.2","","-29.8","","65","","","M","29","","6","","","","98.83","","","","-31","","NA"
"-87.94","52.20","LANSDOWNE HOUSE (AUT)","6014353","2019-02-02 14:00","2019","02","02","14:00","-23.7","","-28.3","","66","","","M","24","","8","","","","98.83","","","","-31","","NA"
"-87.94","52.20","LANSDOWNE HOUSE (AUT)","6014353","2019-02-02 15:00","2019","02","02","15:00","-22.4","","-27.1","","65","","","M","25","","8","","","","98.86","","","","-29","","NA"
"-87.94","52.20","LANSDOWNE HOUSE (AUT)","6014353","2019-02-02 16:00","2019","02","02","16:00","-21.7","","-26.0","","68","","","M","30","","3","","","","98.84","","","","-24","","NA"
"-87.94","52.20","LANSDOWNE HOUSE (AUT)","6014353","2019-02-02 17:00","2019","02","02","17:00","-21.7","","-25.7","","70","","","M","7","","4","","","","98.76","","","","-25","","NA"
"-87.94","52.20","LANSDOWNE HOUSE (AUT)","6014353","2019-02-02 18:00","2019","02","02","18:00","-21.5","","-25.6","","70","","","M","27","","1","","","","98.79","","","","-22","","NA"
"-87.94","52.20","LANSDOWNE HOUSE (AUT)","6014353","2019-02-02 19:00","2019","02","02","19:00","-21.4","","-25.4","","70","","","M","","","0","","","","98.76","","","","","","NA"
"-87.94","52.20","LANSDOWNE HOUSE (AUT)","6014353","2019-02-02 20:00","2019","02","02","20:00","-21.3","","-25.5","","69","","","M","","","0","","","","98.72","","","","","","NA"
"-87.94","52.20","LANSDOWNE HOUSE (AUT)","6014353","2019-02-02 21:00","2019","02","02","21:00","-21.3","","-25.2","","71","","","M","9","","4","","","","98.67","","","","-25","","NA"
"-87.94","52.20","LANSDOWNE HOUSE (AUT)","6014353","2019-02-02 22:00","2019","02","02","22:00","-21.4","","-24.8","","74","","","M","6","","5","","","","98.65","","","","-26","","NA"
"-87.94","52.20","LANSDOWNE HOUSE (AUT)","6014353","2019-02-02 23:00","2019","02","02","23:00","-21.6","","-24.4","","78","","","M","8","","10","","","","98.51","","","","-29","","NA"
"-87.94","52.20","LANSDOWNE HOUSE (AUT)","6014353","2019-02-03 00:00","2019","02","03","00:00","-21.8","","-24.7","","77","","","M","7","","9","","","","98.48","","","","-29","","NA"
"-87.94","52.20","LANSDOWNE HOUSE (AUT)","6014353","2019-02-03 01:00","2019","02","03","01:00","-21.8","","-24.6","","78","","","M","7","","6","","","","98.50","","","","-27","","NA"
"-87.94","52.20","LANSDOWNE HOUSE (AUT)","6014353","2019-02-03 02:00","2019","02","03","02:00","-21.9","","-24.6","","79","","","M","7","","10","","","","98.39","","","","-29","","NA"
"-87.94","52.20","LANSDOWNE HOUSE (AUT)","6014353","2019-02-03 03:00","2019","02","03","03:00","-21.9","","-24.7","","78","","","M","7","","11","","","","98.33","","","","-30","","NA"
"-87.94","52.20","LANSDOWNE HOUSE (AUT)","6014353","2019-02-03 04:00","2019","02","03","04:00","-21.8","","-24.7","","78","","","M","7","","11","","","","98.26","","","","-30","","NA"
"-87.94","52.20","LANSDOWNE HOUSE (AUT)","6014353","2019-02-03 05:00","2019","02","03","05:00","-21.8","","-24.7","","77","","","M","7","","12","","","","98.22","","","","-30","","NA"
"-87.94","52.20","LANSDOWNE HOUSE (AUT)","6014353","2019-02-03 06:00","2019","02","03","06:00","-21.9","","-24.8","","78","","","M","8","","10","","","","98.17","","","","-29","","NA"
"-87.94","52.20","LANSDOWNE HOUSE (AUT)","6014353","2019-02-03 07:00","2019","02","03","07:00","-21.9","","-24.8","","77","","","M","7","","10","","","","98.13","","","","-29","","NA"
"-87.94","52.20","LANSDOWNE HOUSE (AUT)","6014353","2019-02-03 08:00","2019","02","03","08:00","-22.0","","-25.0","","77","","","M","7","","11","","","","98.12","","","","-30","","NA"
"-87.94","52.20","LANSDOWNE HOUSE (AUT)","6014353","2019-02-03 09:00","2019","02","03","09:00","-22.0","","-25.1","","76","","","M","7","","10","","","","98.13","","","","-30","","NA"
"-87.94","52.20","LANSDOWNE HOUSE (AUT)","6014353","2019-02-03 10:00","2019","02","03","10:00","-21.9","","-24.9","","77","","","M","5","","9","","","","98.16","","","","-29","","NA"
"-87.94","52.20","LANSDOWNE HOUSE (AUT)","6014353","2019-02-03 11:00","2019","02","03","11:00","-21.7","","-24.9","","75","","","M","1","","10","","","","98.19","","","","-29","","NA"
"-87.94","52.20","LANSDOWNE HOUSE (AUT)","6014353","2019-02-03 12:00","2019","02","03","12:00","-21.0","","-24.6","","73","","","M","2","","7","","","","98.21","","","","-27","","NA"
"-87.94","52.20","LANSDOWNE HOUSE (AUT)","6014353","2019-02-03 13:00","2019","02","03","13:00","-20.4","","-24.1","","72","","","M","36","","10","","","","98.23","","","","-28","","NA"
"-87.94","52.20","LANSDOWNE HOUSE (AUT)","6014353","2019-02-03 14:00","2019","02","03","14:00","-19.8","","-23.5","","73","","","M","35","","12","","","","98.24","","","","-28","","NA"
"-87.94","52.20","LANSDOWNE HOUSE (AUT)","6014353","2019-02-03 15:00","2019","02","03","15:00","-19.5","","-23.2","","72","","","M","35","","10","","","","98.31","","","","-27","","NA"
"-87.94","52.20","LANSDOWNE HOUSE (AUT)","6014353","2019-02-03 16:00","2019","02","03","16:00","-19.5","","-23.4","","71","","","M","34","","10","","","","98.40","","","","-27","","NA"
"-87.94","52.20","LANSDOWNE HOUSE (AUT)","6014353","2019-02-03 17:00","2019","02","03","17:00","-20.0","","-23.9","","71","","","M","35","","8","","","","98.50","","","","-26","","NA"
"-87.94","52.20","LANSDOWNE HOUSE (AUT)","6014353","2019-02-03 18:00","2019","02","03","18:00","-21.7","","-24.6","","77","","","M","36","","6","","","","98.54","","","","-27","","NA"
"-87.94","52.20","LANSDOWNE HOUSE (AUT)","6014353","2019-02-03 19:00","2019","02","03","19:00","-22.4","","-25.1","","79","","","M","34","","8","","","","98.67","","","","-29","","NA"
"-87.94","52.20","LANSDOWNE HOUSE (AUT)","6014353","2019-02-03 20:00","2019","02","03","20:00","-23.5","","-26.5","","77","","","M","31","","5","","","","98.78","","","","-28","","NA"
"-87.94","52.20","LANSDOWNE HOUSE (AUT)","6014353","2019-02-03 21:00","2019","02","03","21:00","-24.0","","-26.9","","77","","","M","34","","5","","","","98.83","","","","-29","","NA"
"-87.94","52.20","LANSDOWNE HOUSE (AUT)","6014353","2019-02-03 22:00","2019","02","03","22:00","-24.9","","-27.8","","77","","","M","35","","6","","","","98.86","","","","-31","","NA"
"-87.94","52.20","LANSDOWNE HOUSE (AUT)","6014353","2019-02-03 23:00","2019","02","03","23:00","-25.8","","-28.8","","75","","","M","36","","9","","","","98.95","","","","-34","","NA"
"-87.94","52.20","LANSDOWNE HOUSE (AUT)","6014353","2019-02-04 00:00","2019","02","04","00:00","-26.4","","-29.5","","75","","","M","36","","7","","","","99.06","","","","-33","","NA"
"-87.94","52.20","LANSDOWNE HOUSE (AUT)","6014353","2019-02-04 01:00","2019","02","04","01:00","-26.6","","-29.8","","74","","","M","36","","7","","","","99.15","","","","-33","","NA"
"-87.94","52.20","LANSDOWNE HOUSE (AUT)","6014353","2019-02-04 02:00","2019","02","04","02:00","-27.8","","-30.9","","75","","","M","35","","5","","","","99.16","","","","-33","","NA"
"-87.94","52.20","LANSDOWNE HOUSE (AUT)","6014353","2019-02-04 03:00","2019","02","04","03:00","-27.9","","-31.1","","74","","","M","34","","3","","","","99.16","","","","-31","","NA"
"-87.94","52.20","LANSDOWNE HOUSE (AUT)","6014353","2019-02-04 04:00","2019","02","04","04:00","-28.1","","-31.2","","74","","","M","33","","3","","","","99.17","","","","-31","","NA"
"-87.94","52.20","LANSDOWNE HOUSE (AUT)","6014353","2019-02-04 05:00","2019","02","04","05:00","-28.3","","-31.5","","74","","","M","34","","9","","","","99.18","","","","-37","","NA"
"-87.94","52.20","LANSDOWNE HOUSE (AUT)","6014353","2019-02-04 06:00","2019","02","04","06:00","-28.2","","-31.4","","74","","","M","31","","4","","","","99.20","","","","-33","","NA"
"-87.94","52.20","LANSDOWNE HOUSE (AUT)","6014353","2019-02-04 07:00","2019","02","04","07:00","-28.3","","-31.6","","73","","","M","35","","5","","","","99.19","","","","-34","","NA"
"-87.94","52.20","LANSDOWNE HOUSE (AUT)","6014353","2019-02-04 08:00","2019","02","04","08:00","-29.2","","-32.5","","73","","","M","36","","7","","","","99.20","","","","-36","","NA"
"-87.94","52.20","LANSDOWNE HOUSE (AUT)","6014353","2019-02-04 09:00","2019","02","04","09:00","-29.8","","-33.0","","73","","","M","35","","5","","","","99.19","","","","-35","","NA"
"-87.94","52.20","LANSDOWNE HOUSE (AUT)","6014353","2019-02-04 10:00","2019","02","04","10:00","-29.2","","-33.0","","70","","","M","35","","8","","","","99.21","","","","-37","","NA"
"-87.94","52.20","LANSDOWNE HOUSE (AUT)","6014353","2019-02-04 11:00","2019","02","04","11:00","-28.4","","-32.3","","69","","","M","35","","5","","","","99.26","","","","-34","","NA"
"-87.94","52.20","LANSDOWNE HOUSE (AUT)","6014353","2019-02-04 12:00","2019","02","04","12:00","-27.1","","-31.1","","69","","","M","35","","5","","","","99.21","","","","-32","","NA"
"-87.94","52.20","LANSDOWNE HOUSE (AUT)","6014353","2019-02-04 13:00","2019","02","04","13:00","-26.4","","-30.8","","67","","","M","35","","7","","","","99.18","","","","-33","","NA"
"-87.94","52.20","LANSDOWNE HOUSE (AUT)","6014353","2019-02-04 14:00","2019","02","04","14:00","-26.0","","-30.4","","67","","","M","36","","8","","","","99.15","","","","-33","","NA"
"-87.94","52.20","LANSDOWNE HOUSE (AUT)","6014353","2019-02-04 15:00","2019","02","04","15:00","-25.5","","-29.6","","69","","","M","1","","9","","","","99.09","","","","-33","","NA"
"-87.94","52.20","LANSDOWNE HOUSE (AUT)","6014353","2019-02-04 16:00","2019","02","04","16:00","-25.0","","-29.2","","68","","","M","2","","8","","","","99.05","","","","-32","","NA"
"-87.94","52.20","LANSDOWNE HOUSE (AUT)","6014353","2019-02-04 17:00","2019","02","04","17:00","-24.7","","-29.1","","67","","","M","1","","8","","","","99.05","","","","-32","","NA"
"-87.94","52.20","LANSDOWNE HOUSE (AUT)","6014353","2019-02-04 18:00","2019","02","04","18:00","-26.1","","-29.6","","73","","","M","36","","4","","","","99.05","","","","-30","","NA"
"-87.94","52.20","LANSDOWNE HOUSE (AUT)","6014353","2019-02-04 19:00","2019","02","04","19:00","-25.2","","-28.7","","73","","","M","35","","6","","","","99.11","","","","-31","","NA"
"-87.94","52.20","LANSDOWNE HOUSE (AUT)","6014353","2019-02-04 20:00","2019","02","04","20:00","-25.8","","-29.3","","72","","","M","34","","10","","","","99.17","","","","-34","","NA"
"-87.94","52.20","LANSDOWNE HOUSE (AUT)","6014353","2019-02-04 21:00","2019","02","04","21:00","-26.2","","-29.5","","73","","","M","34","","7","","","","99.25","","","","-33","","NA"
"-87.94","52.20","LANSDOWNE HOUSE (AUT)","6014353","2019-02-04 22:00","2019","02","04","22:00","-26.9","","-30.1","","74","","","M","34","","7","","","","99.22","","","","-34","","NA"
"-87.94","52.20","LANSDOWNE HOUSE (AUT)","6014353","2019-02-04 23:00","2019","02","04","23:00","-27.2","","-30.4","","74","","","M","34","","5","","","","99.27","","","","-32","","NA"
"-87.94","52.20","LANSDOWNE HOUSE (AUT)","6014353","2019-02-05 00:00","2019","02","05","00:00","-27.8","","-31.0","","74","","","M","31","","6","","","","99.33","","","","-34","","NA"
"-87.94","52.20","LANSDOWNE HOUSE (AUT)","6014353","2019-02-05 01:00","2019","02","05","01:00","-28.5","","-31.7","","74","","","M","31","","3","","","","99.39","","","","-32","","NA"
"-87.94","52.20","LANSDOWNE HOUSE (AUT)","6014353","2019-02-05 02:00","2019","02","05","02:00","-29.3","","-32.4","","75","","","M","30","","3","","","","99.40","","","","-33","","NA"
"-87.94","52.20","LANSDOWNE HOUSE (AUT)","6014353","2019-02-05 03:00","2019","02","05","03:00","-29.8","","-32.8","","76","","","M","27","","5","","","","99.44","","","","-35","","NA"
"-87.94","52.20","LANSDOWNE HOUSE (AUT)","6014353","2019-02-05 04:00","2019","02","05","04:00","-30.6","","-33.8","","74","","","M","27","","6","","","","99.50","","","","-37","","NA"
"-87.94","52.20","LANSDOWNE HOUSE (AUT)","6014353","2019-02-05 05:00","2019","02","05","05:00","-31.4","","-33.9","","78","","","M","26","","8","","","","99.52","","","","-40","","NA"
"-87.94","52.20","LANSDOWNE HOUSE (AUT)","6014353","2019-02-05 06:00","2019","02","05","06:00","-31.7","","-34.6","","75","","","M","26","","7","","","","99.59","","","","-39","","NA"
"-87.94","52.20","LANSDOWNE HOUSE (AUT)","6014353","2019-02-05 07:00","2019","02","05","07:00","-30.1","","-33.1","","75","","","M","27","","7","","","","99.66","","","","-37","","NA"
"-87.94","52.20","LANSDOWNE HOUSE (AUT)","6014353","2019-02-05 08:00","2019","02","05","08:00","-29.8","","-32.8","","75","","","M","27","","6","","","","99.74","","","","-36","","NA"
"-87.94","52.20","LANSDOWNE HOUSE (AUT)","6014353","2019-02-05 09:00","2019","02","05","09:00","-29.5","","-32.6","","74","","","M","28","","5","","","","99.80","","","","-35","","NA"
"-87.94","52.20","LANSDOWNE HOUSE (AUT)","6014353","2019-02-05 10:00","2019","02","05","10:00","-29.4","","-32.7","","73","","","M","25","","8","","","","99.82","","","","-37","","NA"
"-87.94","52.20","LANSDOWNE HOUSE (AUT)","6014353","2019-02-05 11:00","2019","02","05","11:00","-27.6","","-31.7","","68","","","M","24","","10","","","","99.85","","","","-36","","NA"
"-87.94","52.20","LANSDOWNE HOUSE (AUT)","6014353","2019-02-05 12:00","2019","02","05","12:00","-25.2","","-30.0","","64","","","M","25","","9","","","","99.88","","","","-33","","NA"
"-87.94","52.20","LANSDOWNE HOUSE (AUT)","6014353","2019-02-05 13:00","2019","02","05","13:00","-23.7","","-28.7","","63","","","M","24","","10","","","","99.86","","","","-32","","NA"
"-87.94","52.20","LANSDOWNE HOUSE (AUT)","6014353","2019-02-05 14:00","2019","02","05","14:00","-22.2","","-27.6","","61","","","M","26","","7","","","","99.87","","","","-28","","NA"
"-87.94","52.20","LANSDOWNE HOUSE (AUT)","6014353","2019-02-05 15:00","2019","02","05","15:00","-21.1","","-26.4","","62","","","M","24","","2","","","","99.79","","","","-23","","NA"
"-87.94","52.20","LANSDOWNE HOUSE (AUT)","6014353","2019-02-05 16:00","2019","02","05","16:00","-20.1","","-25.9","","60","","","M","29","","3","","","","99.79","","","","-23","","NA"
"-87.94","52.20","LANSDOWNE HOUSE (AUT)","6014353","2019-02-05 17:00","2019","02","05","17:00","-22.7","","-27.3","","66","","","M","6","","5","","","","99.76","","","","-27","","NA"
"-87.94","52.20","LANSDOWNE HOUSE (AUT)","6014353","2019-02-05 18:00","2019","02","05","18:00","-25.2","","-28.7","","73","","","M","6","","3","","","","99.78","","","","-28","","NA"
"-87.94","52.20","LANSDOWNE HOUSE (AUT)","6014353","2019-02-05 19:00","2019","02","05","19:00","-27.0","","-29.5","","79","","","M","12","","4","","","","99.79","","","","-31","","NA"
"-87.94","52.20","LANSDOWNE HOUSE (AUT)","6014353","2019-02-05 20:00","2019","02","05","20:00","-25.1","","-27.8","","79","","","M","13","","2","","","","99.80","","","","-27","","NA"
"-87.94","52.20","LANSDOWNE HOUSE (AUT)","6014353","2019-02-05 21:00","2019","02","05","21:00","-26.2","","-29.1","","76","","","M","0","","1","","","","99.77","","","","-27","","NA"
"-87.94","52.20","LANSDOWNE HOUSE (AUT)","6014353","2019-02-05 22:00","2019","02","05","22:00","-26.0","","-28.4","","80","","","M","","","0","","","","99.77","","","","","","NA"
"-87.94","52.20","LANSDOWNE HOUSE (AUT)","6014353","2019-02-05 23:00","2019","02","05","23:00","-24.6","","-27.3","","78","","","M","8","","2","","","","99.74","","","","-27","","NA"
"-87.94","52.20","LANSDOWNE HOUSE (AUT)","6014353","2019-02-06 00:00","2019","02","06","00:00","-23.2","","-26.0","","78","","","M","0","","1","","","","99.74","","","","-24","","NA"
"-87.94","52.20","LANSDOWNE HOUSE (AUT)","6014353","2019-02-06 01:00","2019","02","06","01:00","-22.2","","-24.9","","78","","","M","8","","1","","","","99.71","","","","-23","","NA"
"-87.94","52.20","LANSDOWNE HOUSE (AUT)","6014353","2019-02-06 02:00","2019","02","06","02:00","-21.3","","-24.4","","76","","","M","15","","4","","","","99.69","","","","-25","","NA"
"-87.94","52.20","LANSDOWNE HOUSE (AUT)","6014353","2019-02-06 03:00","2019","02","06","03:00","-21.0","","-24.3","","75","","","M","19","","3","","","","99.72","","","","-24","","NA"
"-87.94","52.20","LANSDOWNE HOUSE (AUT)","6014353","2019-02-06 04:00","2019","02","06","04:00","-20.8","","-24.0","","75","","","M","0","","1","","","","99.68","","","","-22","","NA"
"-87.94","52.20","LANSDOWNE HOUSE (AUT)","6014353","2019-02-06 05:00","2019","02","06","05:00","-20.7","","-23.8","","76","","","M","11","","2","","","","99.66","","","","-22","","NA"
"-87.94","52.20","LANSDOWNE HOUSE (AUT)","6014353","2019-02-06 06:00","2019","02","06","06:00","-20.5","","-23.6","","76","","","M","7","","4","","","","99.65","","","","-24","","NA"
"-87.94","52.20","LANSDOWNE HOUSE (AUT)","6014353","2019-02-06 07:00","2019","02","06","07:00","-20.5","","-23.5","","77","","","M","14","","4","","","","99.66","","","","-24","","NA"
"-87.94","52.20","LANSDOWNE HOUSE (AUT)","6014353","2019-02-06 08:00","2019","02","06","08:00","-20.5","","-23.5","","77","","","M","7","","3","","","","99.60","","","","-23","","NA"
"-87.94","52.20","LANSDOWNE HOUSE (AUT)","6014353","2019-02-06 09:00","2019","02","06","09:00","-20.4","","-23.4","","77","","","M","7","","6","","","","99.59","","","","-25","","NA"
"-87.94","52.20","LANSDOWNE HOUSE (AUT)","6014353","2019-02-06 10:00","2019","02","06","10:00","-19.9","","-23.4","","74","","","M","13","","4","","","","99.61","","","","-23","","NA"
"-87.94","52.20","LANSDOWNE HOUSE (AUT)","6014353","2019-02-06 11:00","2019","02","06","11:00","-19.3","","-23.4","","70","","","M","6","","5","","","","99.59","","","","-23","","NA"
"-87.94","52.20","LANSDOWNE HOUSE (AUT)","6014353","2019-02-06 12:00","2019","02","06","12:00","-19.1","","-23.0","","71","","","M","5","","6","","","","99.59","","","","-24","","NA"
"-87.94","52.20","LANSDOWNE HOUSE (AUT)","6014353","2019-02-06 13:00","2019","02","06","13:00","-18.4","","-22.6","","69","","","M","7","","3","","","","99.59","","","","-21","","NA"
"-87.94","52.20","LANSDOWNE HOUSE (AUT)","6014353","2019-02-06 14:00","2019","02","06","14:00","-18.0","","-21.6","","73","","","M","6","","5","","","","99.59","","","","-22","","NA"
"-87.94","52.20","LANSDOWNE HOUSE (AUT)","6014353","2019-02-06 15:00","2019","02","06","15:00","-17.3","","-21.0","","73","","","M","36","","4","","","","99.61","","","","-20","","NA"
"-87.94","52.20","LANSDOWNE HOUSE (AUT)","6014353","2019-02-06 16:00","2019","02","06","16:00","-17.3","","-20.5","","76","","","M","2","","5","","","","99.59","","","","-21","","NA"
"-87.94","52.20","LANSDOWNE HOUSE (AUT)","6014353","2019-02-06 17:00","2019","02","06","17:00","-17.4","","-20.6","","76","","","M","5","","7","","","","99.61","","","","-23","","NA"
"-87.94","52.20","LANSDOWNE HOUSE (AUT)","6014353","2019-02-06 18:00","2019","02","06","18:00","-18.3","","-21.1","","79","","","M","36","","7","","","","99.67","","","","-24","","NA"
"-87.94","52.20","LANSDOWNE HOUSE (AUT)","6014353","2019-02-06 19:00","2019","02","06","19:00","-20.6","","-22.9","","81","","","M","35","","7","","","","99.71","","","","-26","","NA"
"-87.94","52.20","LANSDOWNE HOUSE (AUT)","6014353","2019-02-06 20:00","2019","02","06","20:00","-21.8","","-24.4","","80","","","M","1","","6","","","","99.70","","","","-27","","NA"
"-87.94","52.20","LANSDOWNE HOUSE (AUT)","6014353","2019-02-06 21:00","2019","02","06","21:00","-25.7","","-28.5","","77","","","M","36","","2","","","","99.75","","","","-28","","NA"
"-87.94","52.20","LANSDOWNE HOUSE (AUT)","6014353","2019-02-06 22:00","2019","02","06","22:00","-27.0","","-29.8","","77","","","M","36","","2","","","","99.75","","","","-29","","NA"
"-87.94","52.20","LANSDOWNE HOUSE (AUT)","6014353","2019-02-06 23:00","2019","02","06","23:00","-24.6","","-27.0","","80","","","M","1","","2","","","","99.74","","","","-27","","NA"
"-87.94","52.20","LANSDOWNE HOUSE (AUT)","6014353","2019-02-07 00:00","2019","02","07","00:00","-26.5","","-29.2","","78","","","M","2","","2","","","","99.73","","","","-29","","NA"
"-87.94","52.20","LANSDOWNE HOUSE (AUT)","6014353","2019-02-07 01:00","2019","02","07","01:00","-27.6","","-30.3","","78","","","M","2","","2","","","","99.80","","","","-30","","NA"
"-87.94","52.20","LANSDOWNE HOUSE (AUT)","6014353","2019-02-07 02:00","2019","02","07","02:00","-26.7","","-29.5","","77","","","M","","","0","","","","99.86","","","","","","NA"
"-87.94","52.20","LANSDOWNE HOUSE (AUT)","6014353","2019-02-07 03:00","2019","02","07","03:00","-25.0","","-27.7","","78","","","M","36","","3","","","","99.89","","","","-28","","NA"
"-87.94","52.20","LANSDOWNE HOUSE (AUT)","6014353","2019-02-07 04:00","2019","02","07","04:00","-24.8","","-27.4","","79","","","M","1","","4","","","","99.90","","","","-29","","NA"
"-87.94","52.20","LANSDOWNE HOUSE (AUT)","6014353","2019-02-07 05:00","2019","02","07","05:00","-24.6","","-27.2","","79","","","M","1","","3","","","","99.87","","","","-28","","NA"
"-87.94","52.20","LANSDOWNE HOUSE (AUT)","6014353","2019-02-07 06:00","2019","02","07","06:00","-24.3","","-26.9","","79","","","M","2","","7","","","","99.86","","","","-31","","NA"
"-87.94","52.20","LANSDOWNE HOUSE (AUT)","6014353","2019-02-07 07:00","2019","02","07","07:00","-24.3","","-27.0","","78","","","M","2","","7","","","","99.85","","","","-31","","NA"
"-87.94","52.20","LANSDOWNE HOUSE (AUT)","6014353","2019-02-07 08:00","2019","02","07","08:00","-24.1","","-26.9","","78","","","M","2","","5","","","","99.89","","","","-29","","NA"
"-87.94","52.20","LANSDOWNE HOUSE (AUT)","6014353","2019-02-07 09:00","2019","02","07","09:00","-23.8","","-26.6","","78","","","M","4","","8","","","","99.87","","","","-31","","NA"
"-87.94","52.20","LANSDOWNE HOUSE (AUT)","6014353","2019-02-07 10:00","2019","02","07","10:00","-23.7","","-26.6","","77","","","M","3","","8","","","","99.81","","","","-31","","NA"
"-87.94","52.20","LANSDOWNE HOUSE (AUT)","6014353","2019-02-07 11:00","2019","02","07","11:00","-23.3","","-26.4","","76","","","M","2","","11","","","","99.75","","","","-32","","NA"
"-87.94","52.20","LANSDOWNE HOUSE (AUT)","6014353","2019-02-07 12:00","2019","02","07","12:00","-22.2","","-25.8","","73","","","M","3","","11","","","","99.74","","","","-30","","NA"
"-87.94","52.20","LANSDOWNE HOUSE (AUT)","6014353","2019-02-07 13:00","2019","02","07","13:00","-21.4","","-25.5","","69","","","M","5","","12","","","","99.63","","","","-30","","NA"
"-87.94","52.20","LANSDOWNE HOUSE (AUT)","6014353","2019-02-07 14:00","2019","02","07","14:00","-21.0","","-25.3","","68","","","M","4","","15","","","","99.46","","","","-30","","NA"
"-87.94","52.20","LANSDOWNE HOUSE (AUT)","6014353","2019-02-07 15:00","2019","02","07","15:00","-20.3","","-24.6","","69","","","M","4","","12","","","","99.41","","","","-28","","NA"
"-87.94","52.20","LANSDOWNE HOUSE (AUT)","6014353","2019-02-07 16:00","2019","02","07","16:00","-20.3","","-24.1","","72","","","M","4","","10","","","","99.34","","","","-28","","NA"
"-87.94","52.20","LANSDOWNE HOUSE (AUT)","6014353","2019-02-07 17:00","2019","02","07","17:00","-20.5","","-24.0","","74","","","M","2","","16","","","","99.16","","","","-30","","NA"
"-87.94","52.20","LANSDOWNE HOUSE (AUT)","6014353","2019-02-07 18:00","2019","02","07","18:00","-20.9","","-24.2","","75","","","M","3","","17","","","","99.22","","","","-31","","NA"
"-87.94","52.20","LANSDOWNE HOUSE (AUT)","6014353","2019-02-07 19:00","2019","02","07","19:00","-21.4","","-24.3","","78","","","M","2","","14","","","","99.13","","","","-30","","NA"
"-87.94","52.20","LANSDOWNE HOUSE (AUT)","6014353","2019-02-07 20:00","2019","02","07","20:00","-22.0","","-25.0","","76","","","M","3","","14","","","","98.99","","","","-31","","NA"
"-87.94","52.20","LANSDOWNE HOUSE (AUT)","6014353","2019-02-07 21:00","2019","02","07","21:00","-22.7","","-26.0","","74","","","M","2","","15","","","","98.94","","","","-32","","NA"
"-87.94","52.20","LANSDOWNE HOUSE (AUT)","6014353","2019-02-07 22:00","2019","02","07","22:00","-23.3","","-26.4","","76","","","M","2","","17","","","","98.77","","","","-34","","NA"
"-87.94","52.20","LANSDOWNE HOUSE (AUT)","6014353","2019-02-07 23:00","2019","02","07","23:00","-23.8","","-26.9","","75","","","M","2","","17","","","","98.71","","","","-34","","NA"
"-87.94","52.20","LANSDOWNE HOUSE (AUT)","6014353","2019-02-08 00:00","2019","02","08","00:00","-24.0","","-27.1","","75","","","M","1","","16","","","","98.60","","","","-34","","NA"
"-87.94","52.20","LANSDOWNE HOUSE (AUT)","6014353","2019-02-08 01:00","2019","02","08","01:00","-24.2","","-27.3","","75","","","M","36","","14","","","","98.46","","","","-34","","NA"
"-87.94","52.20","LANSDOWNE HOUSE (AUT)","6014353","2019-02-08 02:00","2019","02","08","02:00","-24.1","","-27.3","","75","","","M","36","","18","","","","98.39","","","","-35","","NA"
"-87.94","52.20","LANSDOWNE HOUSE (AUT)","6014353","2019-02-08 03:00","2019","02","08","03:00","-24.1","","-27.3","","75","","","M","36","","17","","","","98.34","","","","-35","","NA"
"-87.94","52.20","LANSDOWNE HOUSE (AUT)","6014353","2019-02-08 04:00","2019","02","08","04:00","-24.1","","-27.3","","75","","","M","35","","13","","","","98.34","","","","-33","","NA"
"-87.94","52.20","LANSDOWNE HOUSE (AUT)","6014353","2019-02-08 05:00","2019","02","08","05:00","-24.0","","-27.2","","75","","","M","34","","8","","","","98.32","","","","-31","","NA"
"-87.94","52.20","LANSDOWNE HOUSE (AUT)","6014353","2019-02-08 06:00","2019","02","08","06:00","-23.8","","-27.1","","74","","","M","34","","13","","","","98.34","","","","-33","","NA"
"-87.94","52.20","LANSDOWNE HOUSE (AUT)","6014353","2019-02-08 07:00","2019","02","08","07:00","-23.7","","-27.1","","74","","","M","33","","10","","","","98.36","","","","-32","","NA"
"-87.94","52.20","LANSDOWNE HOUSE (AUT)","6014353","2019-02-08 08:00","2019","02","08","08:00","-23.6","","-26.9","","74","","","M","31","","10","","","","98.35","","","","-32","","NA"
"-87.94","52.20","LANSDOWNE HOUSE (AUT)","6014353","2019-02-08 09:00","2019","02","08","09:00","-23.3","","-26.7","","73","","","M","31","","16","","","","98.36","","","","-33","","NA"
"-87.94","52.20","LANSDOWNE HOUSE (AUT)","6014353","2019-02-08 10:00","2019","02","08","10:00","-22.5","","-26.2","","72","","","M","31","","13","","","","98.39","","","","-31","","NA"
"-87.94","52.20","LANSDOWNE HOUSE (AUT)","6014353","2019-02-08 11:00","2019","02","08","11:00","-21.8","","-25.5","","72","","","M","30","","17","","","","98.43","","","","-32","","NA"
"-87.94","52.20","LANSDOWNE HOUSE (AUT)","6014353","2019-02-08 12:00","2019","02","08","12:00","-21.1","","-25.0","","71","","","M","30","","16","","","","98.49","","","","-31","","NA"
"-87.94","52.20","LANSDOWNE HOUSE (AUT)","6014353","2019-02-08 13:00","2019","02","08","13:00","-20.4","","-24.6","","69","","","M","30","","17","","","","98.56","","","","-30","","NA"
"-87.94","52.20","LANSDOWNE HOUSE (AUT)","6014353","2019-02-08 14:00","2019","02","08","14:00","-19.8","","-24.3","","67","","","M","30","","16","","","","98.65","","","","-29","","NA"
"-87.94","52.20","LANSDOWNE HOUSE (AUT)","6014353","2019-02-08 15:00","2019","02","08","15:00","-19.7","","-24.2","","68","","","M","30","","17","","","","98.81","","","","-29","","NA"
"-87.94","52.20","LANSDOWNE HOUSE (AUT)","6014353","2019-02-08 16:00","2019","02","08","16:00","-19.5","","-24.2","","66","","","M","30","","19","","","","98.98","","","","-30","","NA"
"-87.94","52.20","LANSDOWNE HOUSE (AUT)","6014353","2019-02-08 17:00","2019","02","08","17:00","-19.4","","-23.7","","69","","","M","29","","15","","","","99.15","","","","-28","","NA"
"-87.94","52.20","LANSDOWNE HOUSE (AUT)","6014353","2019-02-08 18:00","2019","02","08","18:00","-19.9","","-23.8","","71","","","M","29","","16","","","","99.31","","","","-29","","NA"
"-87.94","52.20","LANSDOWNE HOUSE (AUT)","6014353","2019-02-08 19:00","2019","02","08","19:00","-20.4","","-23.9","","74","","","M","29","","14","","","","99.47","","","","-29","","NA"
"-87.94","52.20","LANSDOWNE HOUSE (AUT)","6014353","2019-02-08 20:00","2019","02","08","20:00","-21.1","","-24.4","","75","","","M","29","","15","","","","99.62","","","","-30","","NA"
"-87.94","52.20","LANSDOWNE HOUSE (AUT)","6014353","2019-02-08 21:00","2019","02","08","21:00","-21.6","","-25.1","","74","","","M","30","","15","","","","99.73","","","","-31","","NA"
"-87.94","52.20","LANSDOWNE HOUSE (AUT)","6014353","2019-02-08 22:00","2019","02","08","22:00","-22.0","","-25.4","","74","","","M","29","","12","","","","99.84","","","","-30","","NA"
"-87.94","52.20","LANSDOWNE HOUSE (AUT)","6014353","2019-02-08 23:00","2019","02","08","23:00","-22.2","","-25.5","","74","","","M","28","","15","","","","99.93","","","","-32","","NA"
"-87.94","52.20","LANSDOWNE HOUSE (AUT)","6014353","2019-02-09 00:00","2019","02","09","00:00","-22.7","","-26.0","","75","","","M","28","","13","","","","100.01","","","","-32","","NA"
"-87.94","52.20","LANSDOWNE HOUSE (AUT)","6014353","2019-02-09 01:00","2019","02","09","01:00","-23.2","","-26.2","","76","","","M","27","","11","","","","100.09","","","","-31","","NA"
"-87.94","52.20","LANSDOWNE HOUSE (AUT)","6014353","2019-02-09 02:00","2019","02","09","02:00","-23.2","","-26.3","","76","","","M","27","","12","","","","100.16","","","","-32","","NA"
"-87.94","52.20","LANSDOWNE HOUSE (AUT)","6014353","2019-02-09 03:00","2019","02","09","03:00","-23.4","","-26.5","","76","","","M","26","","17","","","","100.25","","","","-34","","NA"
"-87.94","52.20","LANSDOWNE HOUSE (AUT)","6014353","2019-02-09 04:00","2019","02","09","04:00","-23.4","","-26.5","","76","","","M","26","","15","","","","100.25","","","","-33","","NA"
"-87.94","52.20","LANSDOWNE HOUSE (AUT)","6014353","2019-02-09 05:00","2019","02","09","05:00","-23.5","","-26.6","","76","","","M","26","","17","","","","100.31","","","","-34","","NA"
"-87.94","52.20","LANSDOWNE HOUSE (AUT)","6014353","2019-02-09 06:00","2019","02","09","06:00","-24.0","","-27.1","","75","","","M","26","","18","","","","100.37","","","","-35","","NA"
"-87.94","52.20","LANSDOWNE HOUSE (AUT)","6014353","2019-02-09 07:00","2019","02","09","07:00","-23.3","","-26.3","","76","","","M","26","","16","","","","100.37","","","","-33","","NA"
"-87.94","52.20","LANSDOWNE HOUSE (AUT)","6014353","2019-02-09 08:00","2019","02","09","08:00","-23.0","","-26.2","","75","","","M","26","","17","","","","100.37","","","","-33","","NA"
"-87.94","52.20","LANSDOWNE HOUSE (AUT)","6014353","2019-02-09 09:00","2019","02","09","09:00","-23.8","","-27.1","","74","","","M","25","","17","","","","100.38","","","","-34","","NA"
"-87.94","52.20","LANSDOWNE HOUSE (AUT)","6014353","2019-02-09 10:00","2019","02","09","10:00","-21.3","","-25.3","","70","","","M","26","","20","","","","100.39","","","","-32","","NA"
"-87.94","52.20","LANSDOWNE HOUSE (AUT)","6014353","2019-02-09 11:00","2019","02","09","11:00","-19.2","","-24.2","","65","","","M","26","","21","","","","100.36","","","","-30","","NA"
"-87.94","52.20","LANSDOWNE HOUSE (AUT)","6014353","2019-02-09 12:00","2019","02","09","12:00","-16.9","","-23.0","","59","","","M","27","","20","","","","100.31","","","","-27","","NA"
"-87.94","52.20","LANSDOWNE HOUSE (AUT)","6014353","2019-02-09 13:00","2019","02","09","13:00","-15.2","","-21.8","","57","","","M","27","","21","","","","100.24","","","","-25","","NA"
"-87.94","52.20","LANSDOWNE HOUSE (AUT)","6014353","2019-02-09 14:00","2019","02","09","14:00","-14.2","","-21.5","","54","","","M","27","","25","","","","100.19","","","","-24","","NA"
"-87.94","52.20","LANSDOWNE HOUSE (AUT)","6014353","2019-02-09 15:00","2019","02","09","15:00","-14.1","","-21.1","","55","","","M","26","","27","","","","100.16","","","","-24","","NA"
"-87.94","52.20","LANSDOWNE HOUSE (AUT)","6014353","2019-02-09 16:00","2019","02","09","16:00","-14.1","","-21.3","","55","","","M","26","","25","","","","100.13","","","","-24","","NA"
"-87.94","52.20","LANSDOWNE HOUSE (AUT)","6014353","2019-02-09 17:00","2019","02","09","17:00","-14.1","","-21.4","","54","","","M","27","","22","","","","100.12","","","","-23","","NA"
"-87.94","52.20","LANSDOWNE HOUSE (AUT)","6014353","2019-02-09 18:00","2019","02","09","18:00","-15.0","","-20.8","","61","","","M","27","","14","","","","100.09","","","","-23","","NA"
"-87.94","52.20","LANSDOWNE HOUSE (AUT)","6014353","2019-02-09 19:00","2019","02","09","19:00","-16.4","","-21.8","","63","","","M","26","","18","","","","100.06","","","","-25","","NA"
"-87.94","52.20","LANSDOWNE HOUSE (AUT)","6014353","2019-02-09 20:00","2019","02","09","20:00","-16.9","","-21.3","","69","","","M","25","","16","","","","100.03","","","","-26","","NA"
"-87.94","52.20","LANSDOWNE HOUSE (AUT)","6014353","2019-02-09 21:00","2019","02","09","21:00","-17.4","","-21.4","","71","","","M","24","","19","","","","99.98","","","","-27","","NA"
"-87.94","52.20","LANSDOWNE HOUSE (AUT)","6014353","2019-02-09 22:00","2019","02","09","22:00","-17.8","","-21.8","","71","","","M","25","","18","","","","99.96","","","","-27","","NA"
"-87.94","52.20","LANSDOWNE HOUSE (AUT)","6014353","2019-02-09 23:00","2019","02","09","23:00","-18.5","","-22.4","","72","","","M","25","","18","","","","99.93","","","","-28","","NA"
"-87.94","52.20","LANSDOWNE HOUSE (AUT)","6014353","2019-02-10 00:00","2019","02","10","00:00","-19.2","","-22.8","","73","","","M","25","","18","","","","99.91","","","","-29","","NA"
"-87.94","52.20","LANSDOWNE HOUSE (AUT)","6014353","2019-02-10 01:00","2019","02","10","01:00","-19.2","","-22.9","","72","","","M","26","","17","","","","99.89","","","","-29","","NA"
"-87.94","52.20","LANSDOWNE HOUSE (AUT)","6014353","2019-02-10 02:00","2019","02","10","02:00","-19.3","","-23.1","","72","","","M","26","","16","","","","99.89","","","","-29","","NA"
"-87.94","52.20","LANSDOWNE HOUSE (AUT)","6014353","2019-02-10 03:00","2019","02","10","03:00","-19.8","","-23.5","","73","","","M","26","","15","","","","99.91","","","","-29","","NA"
"-87.94","52.20","LANSDOWNE HOUSE (AUT)","6014353","2019-02-10 04:00","2019","02","10","04:00","-19.6","","-23.3","","72","","","M","27","","15","","","","99.88","","","","-29","","NA"
"-87.94","52.20","LANSDOWNE HOUSE (AUT)","6014353","2019-02-10 05:00","2019","02","10","05:00","-20.0","","-23.6","","73","","","M","27","","11","","","","99.90","","","","-28","","NA"
"-87.94","52.20","LANSDOWNE HOUSE (AUT)","6014353","2019-02-10 06:00","2019","02","10","06:00","-20.3","","-23.8","","74","","","M","26","","12","","","","99.94","","","","-28","","NA"
"-87.94","52.20","LANSDOWNE HOUSE (AUT)","6014353","2019-02-10 07:00","2019","02","10","07:00","-20.7","","-24.1","","74","","","M","27","","11","","","","99.98","","","","-28","","NA"
"-87.94","52.20","LANSDOWNE HOUSE (AUT)","6014353","2019-02-10 08:00","2019","02","10","08:00","-21.5","","-24.8","","75","","","M","27","","12","","","","100.03","","","","-30","","NA"
"-87.94","52.20","LANSDOWNE HOUSE (AUT)","6014353","2019-02-10 09:00","2019","02","10","09:00","-21.9","","-25.2","","75","","","M","26","","12","","","","100.06","","","","-30","","NA"
"-87.94","52.20","LANSDOWNE HOUSE (AUT)","6014353","2019-02-10 10:00","2019","02","10","10:00","-21.5","","-25.5","","70","","","M","27","","11","","","","100.07","","","","-29","","NA"
"-87.94","52.20","LANSDOWNE HOUSE (AUT)","6014353","2019-02-10 11:00","2019","02","10","11:00","-20.7","","-25.4","","66","","","M","26","","13","","","","100.08","","","","-29","","NA"
"-87.94","52.20","LANSDOWNE HOUSE (AUT)","6014353","2019-02-10 12:00","2019","02","10","12:00","-20.1","","-25.1","","64","","","M","25","","16","","","","100.04","","","","-30","","NA"
"-87.94","52.20","LANSDOWNE HOUSE (AUT)","6014353","2019-02-10 13:00","2019","02","10","13:00","-19.3","","-24.8","","62","","","M","25","","17","","","","100.02","","","","-29","","NA"
"-87.94","52.20","LANSDOWNE HOUSE (AUT)","6014353","2019-02-10 14:00","2019","02","10","14:00","-18.1","","-24.3","","58","","","M","25","","17","","","","100.00","","","","-27","","NA"
"-87.94","52.20","LANSDOWNE HOUSE (AUT)","6014353","2019-02-10 15:00","2019","02","10","15:00","-16.3","","-24.1","","51","","","M","27","","14","","","","99.97","","","","-24","","NA"
"-87.94","52.20","LANSDOWNE HOUSE (AUT)","6014353","2019-02-10 16:00","2019","02","10","16:00","-15.5","","-23.6","","50","","","M","26","","14","","","","99.96","","","","-23","","NA"
"-87.94","52.20","LANSDOWNE HOUSE (AUT)","6014353","2019-02-10 17:00","2019","02","10","17:00","-15.6","","-23.5","","50","","","M","26","","13","","","","99.93","","","","-23","","NA"
"-87.94","52.20","LANSDOWNE HOUSE (AUT)","6014353","2019-02-10 18:00","2019","02","10","18:00","-18.0","","-23.5","","62","","","M","25","","8","","","","99.91","","","","-24","","NA"
"-87.94","52.20","LANSDOWNE HOUSE (AUT)","6014353","2019-02-10 19:00","2019","02","10","19:00","-22.7","","-26.1","","74","","","M","25","","5","","","","99.89","","","","-27","","NA"
"-87.94","52.20","LANSDOWNE HOUSE (AUT)","6014353","2019-02-10 20:00","2019","02","10","20:00","-24.8","","-27.2","","80","","","M","25","","5","","","","99.90","","","","-30","","NA"
"-87.94","52.20","LANSDOWNE HOUSE (AUT)","6014353","2019-02-10 21:00","2019","02","10","21:00","-25.9","","-28.2","","81","","","M","22","","9","","","","99.91","","","","-34","","NA"
"-87.94","52.20","LANSDOWNE HOUSE (AUT)","6014353","2019-02-10 22:00","2019","02","10","22:00","-27.0","","-29.3","","80","","","M","25","","8","","","","99.95","","","","-34","","NA"
"-87.94","52.20","LANSDOWNE HOUSE (AUT)","6014353","2019-02-10 23:00","2019","02","10","23:00","-27.9","","-30.5","","79","","","M","26","","6","","","","99.96","","","","-34","","NA"
"-87.94","52.20","LANSDOWNE HOUSE (AUT)","6014353","2019-02-11 00:00","2019","02","11","00:00","-29.2","","-31.8","","78","","","M","24","","9","","","","100.00","","","","-38","","NA"
"-87.94","52.20","LANSDOWNE HOUSE (AUT)","6014353","2019-02-11 01:00","2019","02","11","01:00","-30.5","","-33.6","","74","","","M","25","","7","","","","100.01","","","","-38","","NA"
"-87.94","52.20","LANSDOWNE HOUSE (AUT)","6014353","2019-02-11 02:00","2019","02","11","02:00","-31.3","","-34.4","","74","","","M","26","","4","","","","99.99","","","","-36","","NA"
"-87.94","52.20","LANSDOWNE HOUSE (AUT)","6014353","2019-02-11 03:00","2019","02","11","03:00","-32.1","","-35.2","","74","","","M","26","","5","","","","100.01","","","","-38","","NA"
"-87.94","52.20","LANSDOWNE HOUSE (AUT)","6014353","2019-02-11 04:00","2019","02","11","04:00","-33.0","","-36.2","","73","","","M","25","","5","","","","100.05","","","","-39","","NA"
"-87.94","52.20","LANSDOWNE HOUSE (AUT)","6014353","2019-02-11 05:00","2019","02","11","05:00","-31.3","","-33.9","","78","","","M","24","","7","","","","100.08","","","","-39","","NA"
"-87.94","52.20","LANSDOWNE HOUSE (AUT)","6014353","2019-02-11 06:00","2019","02","11","06:00","-31.8","","-34.8","","75","","","M","25","","2","","","","100.07","","","","-34","","NA"
"-87.94","52.20","LANSDOWNE HOUSE (AUT)","6014353","2019-02-11 07:00","2019","02","11","07:00","-34.0","","-37.1","","73","","","M","24","","6","","","","100.08","","","","-41","","NA"
"-87.94","52.20","LANSDOWNE HOUSE (AUT)","6014353","2019-02-11 08:00","2019","02","11","08:00","-35.4","","-38.8","","71","","","M","25","","6","","","","100.10","","","","-43","","NA"
"-87.94","52.20","LANSDOWNE HOUSE (AUT)","6014353","2019-02-11 09:00","2019","02","11","09:00","-32.6","","-35.6","","74","","","M","24","","4","","","","100.12","","","","-37","","NA"
"-87.94","52.20","LANSDOWNE HOUSE (AUT)","6014353","2019-02-11 10:00","2019","02","11","10:00","-28.5","","-31.4","","76","","","M","26","","2","","","","100.14","","","","-31","","NA"
"-87.94","52.20","LANSDOWNE HOUSE (AUT)","6014353","2019-02-11 11:00","2019","02","11","11:00","-22.0","","-25.8","","71","","","M","26","","5","","","","100.14","","","","-27","","NA"
"-87.94","52.20","LANSDOWNE HOUSE (AUT)","6014353","2019-02-11 12:00","2019","02","11","12:00","-20.5","","-25.9","","62","","","M","0","","1","","","","100.14","","","","-21","","NA"
"-87.94","52.20","LANSDOWNE HOUSE (AUT)","6014353","2019-02-11 13:00","2019","02","11","13:00","-21.1","","-25.8","","66","","","M","4","","10","","","","100.11","","","","-29","","NA"
"-87.94","52.20","LANSDOWNE HOUSE (AUT)","6014353","2019-02-11 14:00","2019","02","11","14:00","-17.5","","-23.9","","58","","","M","5","","9","","","","100.06","","","","-24","","NA"
"-87.94","52.20","LANSDOWNE HOUSE (AUT)","6014353","2019-02-11 15:00","2019","02","11","15:00","-14.8","","-22.0","","54","","","M","5","","7","","","","100.05","","","","-20","","NA"
"-87.94","52.20","LANSDOWNE HOUSE (AUT)","6014353","2019-02-11 16:00","2019","02","11","16:00","-13.2","","-21.0","","52","","","M","7","","5","","","","100.06","","","","-17","","NA"
"-87.94","52.20","LANSDOWNE HOUSE (AUT)","6014353","2019-02-11 17:00","2019","02","11","17:00","-14.8","","-22.6","","51","","","M","5","","5","","","","100.06","","","","-18","","NA"
"-87.94","52.20","LANSDOWNE HOUSE (AUT)","6014353","2019-02-11 18:00","2019","02","11","18:00","-15.5","","-22.1","","57","","","M","7","","4","","","","100.04","","","","-18","","NA"
"-87.94","52.20","LANSDOWNE HOUSE (AUT)","6014353","2019-02-11 19:00","2019","02","11","19:00","-18.9","","-23.1","","69","","","M","6","","6","","","","100.01","","","","-24","","NA"
"-87.94","52.20","LANSDOWNE HOUSE (AUT)","6014353","2019-02-11 20:00","2019","02","11","20:00","-22.1","","-25.2","","76","","","M","14","","5","","","","100.02","","","","-27","","NA"
"-87.94","52.20","LANSDOWNE HOUSE (AUT)","6014353","2019-02-11 21:00","2019","02","11","21:00","-23.5","","-25.8","","81","","","M","11","","3","","","","99.97","","","","-26","","NA"
"-87.94","52.20","LANSDOWNE HOUSE (AUT)","6014353","2019-02-11 22:00","2019","02","11","22:00","-24.4","","-26.2","","85","","","M","0","","1","","","","99.96","","","","-25","","NA"
"-87.94","52.20","LANSDOWNE HOUSE (AUT)","6014353","2019-02-11 23:00","2019","02","11","23:00","-25.3","","-27.6","","81","","","M","6","","5","","","","99.94","","","","-30","","NA"
"-87.94","52.20","LANSDOWNE HOUSE (AUT)","6014353","2019-02-12 00:00","2019","02","12","00:00","-25.2","","-27.8","","79","","","M","6","","5","","","","99.95","","","","-30","","NA"
"-87.94","52.20","LANSDOWNE HOUSE (AUT)","6014353","2019-02-12 01:00","2019","02","12","01:00","-26.5","","-29.5","","76","","","M","","","0","","","","99.93","","","","","","NA"
"-87.94","52.20","LANSDOWNE HOUSE (AUT)","6014353","2019-02-12 02:00","2019","02","12","02:00","-25.9","","-28.5","","79","","","M","5","","7","","","","99.87","","","","-33","","NA"
"-87.94","52.20","LANSDOWNE HOUSE (AUT)","6014353","2019-02-12 03:00","2019","02","12","03:00","-26.2","","-28.8","","79","","","M","4","","7","","","","99.82","","","","-33","","NA"
"-87.94","52.20","LANSDOWNE HOUSE (AUT)","6014353","2019-02-12 04:00","2019","02","12","04:00","-26.2","","-28.6","","80","","","M","7","","3","","","","99.79","","","","-29","","NA"
"-87.94","52.20","LANSDOWNE HOUSE (AUT)","6014353","2019-02-12 05:00","2019","02","12","05:00","-27.7","","-30.5","","77","","","M","6","","6","","","","99.77","","","","-34","","NA"
"-87.94","52.20","LANSDOWNE HOUSE (AUT)","6014353","2019-02-12 06:00","2019","02","12","06:00","-27.8","","-30.5","","78","","","M","7","","6","","","","99.74","","","","-34","","NA"
"-87.94","52.20","LANSDOWNE HOUSE (AUT)","6014353","2019-02-12 07:00","2019","02","12","07:00","-28.0","","-30.5","","79","","","M","7","","5","","","","99.69","","","","-33","","NA"
"-87.94","52.20","LANSDOWNE HOUSE (AUT)","6014353","2019-02-12 08:00","2019","02","12","08:00","-27.8","","-30.6","","77","","","M","6","","6","","","","99.62","","","","-34","","NA"
"-87.94","52.20","LANSDOWNE HOUSE (AUT)","6014353","2019-02-12 09:00","2019","02","12","09:00","-26.5","","-29.1","","79","","","M","6","","5","","","","99.61","","","","-32","","NA"
"-87.94","52.20","LANSDOWNE HOUSE (AUT)","6014353","2019-02-12 10:00","2019","02","12","10:00","-24.0","","-26.6","","79","","","M","5","","6","","","","99.58","","","","-30","","NA"
"-87.94","52.20","LANSDOWNE HOUSE (AUT)","6014353","2019-02-12 11:00","2019","02","12","11:00","-20.9","","-23.9","","77","","","M","5","","7","","","","99.53","","","","-27","","NA"
"-87.94","52.20","LANSDOWNE HOUSE (AUT)","6014353","2019-02-12 12:00","2019","02","12","12:00","-18.4","","-21.8","","74","","","M","5","","11","","","","99.45","","","","-26","","NA"
"-87.94","52.20","LANSDOWNE HOUSE (AUT)","6014353","2019-02-12 13:00","2019","02","12","13:00","-15.2","","-20.1","","66","","","M","5","","13","","","","99.33","","","","-23","","NA"
"-87.94","52.20","LANSDOWNE HOUSE (AUT)","6014353","2019-02-12 14:00","2019","02","12","14:00","-11.8","","-20.1","","50","","","M","7","","12","","","","99.20","","","","-18","","NA"
"-87.94","52.20","LANSDOWNE HOUSE (AUT)","6014353","2019-02-12 15:00","2019","02","12","15:00","-10.3","","-19.9","","45","","","M","7","","10","","","","99.11","","","","-16","","NA"
"-87.94","52.20","LANSDOWNE HOUSE (AUT)","6014353","2019-02-12 16:00","2019","02","12","16:00","-11.1","","-20.3","","47","","","M","6","","12","","","","99.03","","","","-17","","NA"
"-87.94","52.20","LANSDOWNE HOUSE (AUT)","6014353","2019-02-12 17:00","2019","02","12","17:00","-10.6","","-20.2","","45","","","M","8","","14","","","","99.00","","","","-17","","NA"
"-87.94","52.20","LANSDOWNE HOUSE (AUT)","6014353","2019-02-12 18:00","2019","02","12","18:00","-15.5","","-22.2","","56","","","M","7","","10","","","","98.99","","","","-22","","NA"
"-87.94","52.20","LANSDOWNE HOUSE (AUT)","6014353","2019-02-12 19:00","2019","02","12","19:00","-16.3","","-22.1","","61","","","M","6","","13","","","","98.95","","","","-24","","NA"
"-87.94","52.20","LANSDOWNE HOUSE (AUT)","6014353","2019-02-12 20:00","2019","02","12","20:00","-17.0","","-21.6","","68","","","M","6","","13","","","","98.90","","","","-25","","NA"
"-87.94","52.20","LANSDOWNE HOUSE (AUT)","6014353","2019-02-12 21:00","2019","02","12","21:00","-19.1","","-23.2","","70","","","M","6","","9","","","","98.84","","","","-26","","NA"
"-87.94","52.20","LANSDOWNE HOUSE (AUT)","6014353","2019-02-12 22:00","2019","02","12","22:00","-19.2","","-23.2","","71","","","M","7","","9","","","","98.79","","","","-26","","NA"
"-87.94","52.20","LANSDOWNE HOUSE (AUT)","6014353","2019-02-12 23:00","2019","02","12","23:00","-20.3","","-23.9","","73","","","M","6","","8","","","","98.74","","","","-27","","NA"
"-87.94","52.20","LANSDOWNE HOUSE (AUT)","6014353","2019-02-13 00:00","2019","02","13","00:00","-19.9","","-23.3","","74","","","M","7","","8","","","","98.66","","","","-26","","NA"
"-87.94","52.20","LANSDOWNE HOUSE (AUT)","6014353","2019-02-13 01:00","2019","02","13","01:00","-20.5","","-24.0","","73","","","M","7","","6","","","","98.58","","","","-26","","NA"
"-87.94","52.20","LANSDOWNE HOUSE (AUT)","6014353","2019-02-13 02:00","2019","02","13","02:00","-21.3","","-24.3","","77","","","M","5","","5","","","","98.54","","","","-26","","NA"
"-87.94","52.20","LANSDOWNE HOUSE (AUT)","6014353","2019-02-13 03:00","2019","02","13","03:00","-22.6","","-25.5","","78","","","M","1","","3","","","","98.48","","","","-25","","NA"
"-87.94","52.20","LANSDOWNE HOUSE (AUT)","6014353","2019-02-13 04:00","2019","02","13","04:00","-21.0","","-23.7","","78","","","M","2","","4","","","","98.44","","","","-25","","NA"
"-87.94","52.20","LANSDOWNE HOUSE (AUT)","6014353","2019-02-13 05:00","2019","02","13","05:00","-21.1","","-24.2","","76","","","M","2","","5","","","","98.38","","","","-26","","NA"
"-87.94","52.20","LANSDOWNE HOUSE (AUT)","6014353","2019-02-13 06:00","2019","02","13","06:00","-21.6","","-25.0","","74","","","M","1","","3","","","","98.34","","","","-24","","NA"
"-87.94","52.20","LANSDOWNE HOUSE (AUT)","6014353","2019-02-13 07:00","2019","02","13","07:00","-21.5","","-24.4","","77","","","M","2","","7","","","","98.28","","","","-27","","NA"
"-87.94","52.20","LANSDOWNE HOUSE (AUT)","6014353","2019-02-13 08:00","2019","02","13","08:00","-23.6","","-26.9","","74","","","M","35","","5","","","","98.26","","","","-28","","NA"
"-87.94","52.20","LANSDOWNE HOUSE (AUT)","6014353","2019-02-13 09:00","2019","02","13","09:00","-21.4","","-24.2","","78","","","M","36","","4","","","","98.22","","","","-25","","NA"
"-87.94","52.20","LANSDOWNE HOUSE (AUT)","6014353","2019-02-13 10:00","2019","02","13","10:00","-20.2","","-23.8","","73","","","M","2","","5","","","","98.18","","","","-25","","NA"
"-87.94","52.20","LANSDOWNE HOUSE (AUT)","6014353","2019-02-13 11:00","2019","02","13","11:00","-18.3","","-23.2","","65","","","M","36","","3","","","","98.17","","","","-21","","NA"
"-87.94","52.20","LANSDOWNE HOUSE (AUT)","6014353","2019-02-13 12:00","2019","02","13","12:00","-16.4","","-23.1","","56","","","M","35","","5","","","","98.15","","","","-20","","NA"
"-87.94","52.20","LANSDOWNE HOUSE (AUT)","6014353","2019-02-13 13:00","2019","02","13","13:00","-15.0","","-22.6","","52","","","M","6","","5","","","","98.06","","","","-19","","NA"
"-87.94","52.20","LANSDOWNE HOUSE (AUT)","6014353","2019-02-13 14:00","2019","02","13","14:00","-12.1","","-21.9","","44","","","M","0","","1","","","","98.01","","","","-13","","NA"
"-87.94","52.20","LANSDOWNE HOUSE (AUT)","6014353","2019-02-13 15:00","2019","02","13","15:00","-10.9","","-22.0","","39","","","M","33","","3","","","","97.96","","","","-13","","NA"
"-87.94","52.20","LANSDOWNE HOUSE (AUT)","6014353","2019-02-13 16:00","2019","02","13","16:00","-10.7","","-21.6","","40","","","M","24","","8","","","","97.94","","","","-15","","NA"
"-87.94","52.20","LANSDOWNE HOUSE (AUT)","6014353","2019-02-13 17:00","2019","02","13","17:00","-9.5","","-23.4","","31","","","M","1","","5","","","","97.90","","","","-12","","NA"
"-87.94","52.20","LANSDOWNE HOUSE (AUT)","6014353","2019-02-13 18:00","2019","02","13","18:00","-13.0","","-21.5","","49","","","M","","","0","","","","97.86","","","","","","NA"
"-87.94","52.20","LANSDOWNE HOUSE (AUT)","6014353","2019-02-13 19:00","2019","02","13","19:00","-15.7","","-20.9","","64","","","M","15","","1","","","","97.81","","","","-16","","NA"
"-87.94","52.20","LANSDOWNE HOUSE (AUT)","6014353","2019-02-13 20:00","2019","02","13","20:00","-20.2","","-24.1","","72","","","M","35","","1","","","","97.83","","","","-21","","NA"
"-87.94","52.20","LANSDOWNE HOUSE (AUT)","6014353","2019-02-13 21:00","2019","02","13","21:00","-21.0","","-24.4","","74","","","M","6","","3","","","","97.79","","","","-24","","NA"
"-87.94","52.20","LANSDOWNE HOUSE (AUT)","6014353","2019-02-13 22:00","2019","02","13","22:00","-22.2","","-25.5","","74","","","M","0","","1","","","","97.80","","","","-23","","NA"
"-87.94","52.20","LANSDOWNE HOUSE (AUT)","6014353","2019-02-13 23:00","2019","02","13","23:00","-23.7","","-26.9","","75","","","M","27","","2","","","","97.80","","","","-26","","NA"
"-87.94","52.20","LANSDOWNE HOUSE (AUT)","6014353","2019-02-14 00:00","2019","02","14","00:00","-21.3","","-24.3","","77","","","M","0","","1","","","","97.78","","","","-22","","NA"
"-87.94","52.20","LANSDOWNE HOUSE (AUT)","6014353","2019-02-14 01:00","2019","02","14","01:00","-21.0","","-24.1","","76","","","M","25","","1","","","","97.75","","","","-22","","NA"
"-87.94","52.20","LANSDOWNE HOUSE (AUT)","6014353","2019-02-14 02:00","2019","02","14","02:00","-22.1","","-25.4","","75","","","M","6","","3","","","","97.72","","","","-25","","NA"
"-87.94","52.20","LANSDOWNE HOUSE (AUT)","6014353","2019-02-14 03:00","2019","02","14","03:00","-21.5","","-24.4","","77","","","M","6","","2","","","","97.70","","","","-23","","NA"
"-87.94","52.20","LANSDOWNE HOUSE (AUT)","6014353","2019-02-14 04:00","2019","02","14","04:00","-20.3","","-23.6","","75","","","M","4","","1","","","","97.68","","","","-21","","NA"
"-87.94","52.20","LANSDOWNE HOUSE (AUT)","6014353","2019-02-14 05:00","2019","02","14","05:00","-19.6","","-22.3","","79","","","M","5","","5","","","","97.65","","","","-24","","NA"
"-87.94","52.20","LANSDOWNE HOUSE (AUT)","6014353","2019-02-14 06:00","2019","02","14","06:00","-18.3","","-21.6","","75","","","M","3","","1","","","","97.63","","","","-19","","NA"
"-87.94","52.20","LANSDOWNE HOUSE (AUT)","6014353","2019-02-14 07:00","2019","02","14","07:00","-18.0","","-22.0","","71","","","M","4","","2","","","","97.60","","","","-20","","NA"
"-87.94","52.20","LANSDOWNE HOUSE (AUT)","6014353","2019-02-14 08:00","2019","02","14","08:00","-18.0","","-21.3","","76","","","M","5","","3","","","","97.55","","","","-20","","NA"
"-87.94","52.20","LANSDOWNE HOUSE (AUT)","6014353","2019-02-14 09:00","2019","02","14","09:00","-17.9","","-21.2","","75","","","M","5","","7","","","","97.52","","","","-23","","NA"
"-87.94","52.20","LANSDOWNE HOUSE (AUT)","6014353","2019-02-14 10:00","2019","02","14","10:00","-17.3","","-21.3","","71","","","M","6","","8","","","","97.51","","","","-23","","NA"
"-87.94","52.20","LANSDOWNE HOUSE (AUT)","6014353","2019-02-14 11:00","2019","02","14","11:00","-16.1","","-20.5","","69","","","M","5","","9","","","","97.51","","","","-22","","NA"
"-87.94","52.20","LANSDOWNE HOUSE (AUT)","6014353","2019-02-14 12:00","2019","02","14","12:00","-14.6","","-19.9","","64","","","M","5","","12","","","","97.52","","","","-21","","NA"
"-87.94","52.20","LANSDOWNE HOUSE (AUT)","6014353","2019-02-14 13:00","2019","02","14","13:00","-12.8","","-19.0","","59","","","M","5","","8","","","","97.51","","","","-18","","NA"
"-87.94","52.20","LANSDOWNE HOUSE (AUT)","6014353","2019-02-14 14:00","2019","02","14","14:00","-11.6","","-17.3","","62","","","M","5","","10","","","","97.47","","","","-17","","NA"
"-87.94","52.20","LANSDOWNE HOUSE (AUT)","6014353","2019-02-14 15:00","2019","02","14","15:00","-10.7","","-14.6","","73","","","M","8","","12","","","","97.44","","","","-17","","NA"
"-87.94","52.20","LANSDOWNE HOUSE (AUT)","6014353","2019-02-14 16:00","2019","02","14","16:00"
"-87.94","52.20","LANSDOWNE HOUSE (AUT)","6014353","2019-02-14 17:00","2019","02","14","17:00","-10.6","","-13.1","","82","","","M","8","","9","","","","97.45","","","","-16","","NA"
"-87.94","52.20","LANSDOWNE HOUSE (AUT)","6014353","2019-02-14 18:00","2019","02","14","18:00","-11.0","","-12.7","","87","","","M","5","","9","","","","97.47","","","","-16","","NA"
"-87.94","52.20","LANSDOWNE HOUSE (AUT)","6014353","2019-02-14 19:00","2019","02","14","19:00","-11.3","","-12.8","","88","","","M","6","","8","","","","97.50","","","","-16","","NA"
"-87.94","52.20","LANSDOWNE HOUSE (AUT)","6014353","2019-02-14 20:00","2019","02","14","20:00","-11.5","","-13.0","","89","","","M","6","","5","","","","97.53","","","","-15","","NA"
"-87.94","52.20","LANSDOWNE HOUSE (AUT)","6014353","2019-02-14 21:00","2019","02","14","21:00","-12.0","","-13.6","","88","","","M","6","","6","","","","97.54","","","","-16","","NA"
"-87.94","52.20","LANSDOWNE HOUSE (AUT)","6014353","2019-02-14 22:00","2019","02","14","22:00","-11.9","","-13.8","","86","","","M","2","","7","","","","97.59","","","","-16","","NA"
"-87.94","52.20","LANSDOWNE HOUSE (AUT)","6014353","2019-02-14 23:00","2019","02","14","23:00","-12.5","","-14.3","","87","","","M","2","","6","","","","97.64","","","","-16","","NA"
"-87.94","52.20","LANSDOWNE HOUSE (AUT)","6014353","2019-02-15 00:00","2019","02","15","00:00","-13.3","","-15.1","","86","","","M","36","","8","","","","97.64","","","","-18","","NA"
"-87.94","52.20","LANSDOWNE HOUSE (AUT)","6014353","2019-02-15 01:00","2019","02","15","01:00","-14.0","","-15.7","","87","","","M","36","","7","","","","97.68","","","","-19","","NA"
"-87.94","52.20","LANSDOWNE HOUSE (AUT)","6014353","2019-02-15 02:00","2019","02","15","02:00","-15.0","","-16.7","","87","","","M","35","","8","","","","97.71","","","","-20","","NA"
"-87.94","52.20","LANSDOWNE HOUSE (AUT)","6014353","2019-02-15 03:00","2019","02","15","03:00","-15.6","","-17.4","","86","","","M","35","","8","","","","97.76","","","","-21","","NA"
"-87.94","52.20","LANSDOWNE HOUSE (AUT)","6014353","2019-02-15 04:00","2019","02","15","04:00","-15.8","","-17.8","","85","","","M","34","","6","","","","97.85","","","","-20","","NA"
"-87.94","52.20","LANSDOWNE HOUSE (AUT)","6014353","2019-02-15 05:00","2019","02","15","05:00","-16.3","","-18.4","","83","","","M","34","","9","","","","97.91","","","","-22","","NA"
"-87.94","52.20","LANSDOWNE HOUSE (AUT)","6014353","2019-02-15 06:00","2019","02","15","06:00","-17.0","","-19.3","","83","","","M","34","","13","","","","97.95","","","","-25","","NA"
"-87.94","52.20","LANSDOWNE HOUSE (AUT)","6014353","2019-02-15 07:00","2019","02","15","07:00","-17.0","","-19.2","","83","","","M","34","","13","","","","98.01","","","","-25","","NA"
"-87.94","52.20","LANSDOWNE HOUSE (AUT)","6014353","2019-02-15 08:00","2019","02","15","08:00","-17.5","","-19.8","","82","","","M","34","","8","","","","98.07","","","","-23","","NA"
"-87.94","52.20","LANSDOWNE HOUSE (AUT)","6014353","2019-02-15 09:00","2019","02","15","09:00","-17.4","","-19.7","","82","","","M","33","","7","","","","98.16","","","","-23","","NA"
"-87.94","52.20","LANSDOWNE HOUSE (AUT)","6014353","2019-02-15 10:00","2019","02","15","10:00","-16.6","","-19.2","","80","","","M","33","","9","","","","98.21","","","","-23","","NA"
"-87.94","52.20","LANSDOWNE HOUSE (AUT)","6014353","2019-02-15 11:00","2019","02","15","11:00","-15.2","","-19.0","","73","","","M","33","","10","","","","98.22","","","","-21","","NA"
"-87.94","52.20","LANSDOWNE HOUSE (AUT)","6014353","2019-02-15 12:00","2019","02","15","12:00","-14.2","","-18.5","","70","","","M","31","","11","","","","98.26","","","","-21","","NA"
"-87.94","52.20","LANSDOWNE HOUSE (AUT)","6014353","2019-02-15 13:00","2019","02","15","13:00","-13.7","","-17.8","","71","","","M","33","","11","","","","98.28","","","","-20","","NA"
"-87.94","52.20","LANSDOWNE HOUSE (AUT)","6014353","2019-02-15 14:00","2019","02","15","14:00","-12.8","","-17.6","","67","","","M","32","","14","","","","98.28","","","","-20","","NA"
"-87.94","52.20","LANSDOWNE HOUSE (AUT)","6014353","2019-02-15 15:00","2019","02","15","15:00"
"-87.94","52.20","LANSDOWNE HOUSE (AUT)","6014353","2019-02-15 16:00","2019","02","15","16:00","-12.3","","-17.0","","68","","","M","32","","11","","","","98.33","","","","-18","","NA"
"-87.94","52.20","LANSDOWNE HOUSE (AUT)","6014353","2019-02-15 17:00","2019","02","15","17:00","-12.8","","-17.4","","68","","","M","30","","13","","","","98.38","","","","-20","","NA"
"-87.94","52.20","LANSDOWNE HOUSE (AUT)","6014353","2019-02-15 18:00","2019","02","15","18:00","-13.6","","-17.6","","72","","","M","30","","9","","","","98.43","","","","-19","","NA"
"-87.94","52.20","LANSDOWNE HOUSE (AUT)","6014353","2019-02-15 19:00","2019","02","15","19:00","-16.1","","-19.5","","75","","","M","28","","5","","","","98.50","","","","-20","","NA"
"-87.94","52.20","LANSDOWNE HOUSE (AUT)","6014353","2019-02-15 20:00","2019","02","15","20:00","-18.5","","-20.3","","86","","","M","26","","8","","","","98.51","","","","-24","","NA"
"-87.94","52.20","LANSDOWNE HOUSE (AUT)","6014353","2019-02-15 21:00","2019","02","15","21:00","-15.8","","-18.6","","80","","","M","27","","11","","","","98.54","","","","-23","","NA"
"-87.94","52.20","LANSDOWNE HOUSE (AUT)","6014353","2019-02-15 22:00","2019","02","15","22:00","-16.4","","-18.9","","81","","","M","27","","10","","","","98.55","","","","-23","","NA"
"-87.94","52.20","LANSDOWNE HOUSE (AUT)","6014353","2019-02-15 23:00","2019","02","15","23:00","-17.9","","-20.1","","83","","","M","27","","9","","","","98.54","","","","-24","","NA"
"-87.94","52.20","LANSDOWNE HOUSE (AUT)","6014353","2019-02-16 00:00","2019","02","16","00:00","-18.2","","-20.1","","85","","","M","26","","9","","","","98.56","","","","-25","","NA"
"-87.94","52.20","LANSDOWNE HOUSE (AUT)","6014353","2019-02-16 01:00","2019","02","16","01:00","-18.4","","-20.8","","82","","","M","28","","9","","","","98.59","","","","-25","","NA"
"-87.94","52.20","LANSDOWNE HOUSE (AUT)","6014353","2019-02-16 02:00","2019","02","16","02:00","-19.1","","-21.3","","83","","","M","28","","8","","","","98.63","","","","-25","","NA"
"-87.94","52.20","LANSDOWNE HOUSE (AUT)","6014353","2019-02-16 03:00","2019","02","16","03:00","-19.1","","-21.4","","82","","","M","27","","7","","","","98.68","","","","-25","","NA"
"-87.94","52.20","LANSDOWNE HOUSE (AUT)","6014353","2019-02-16 04:00","2019","02","16","04:00","-22.2","","-24.5","","81","","","M","27","","6","","","","98.71","","","","-28","","NA"
"-87.94","52.20","LANSDOWNE HOUSE (AUT)","6014353","2019-02-16 05:00","2019","02","16","05:00","-21.6","","-23.8","","82","","","M","29","","6","","","","98.75","","","","-27","","NA"
"-87.94","52.20","LANSDOWNE HOUSE (AUT)","6014353","2019-02-16 06:00","2019","02","16","06:00","-21.3","","-23.7","","81","","","M","30","","7","","","","98.79","","","","-27","","NA"
"-87.94","52.20","LANSDOWNE HOUSE (AUT)","6014353","2019-02-16 07:00","2019","02","16","07:00","-24.1","","-27.1","","76","","","M","29","","6","","","","98.85","","","","-30","","NA"
"-87.94","52.20","LANSDOWNE HOUSE (AUT)","6014353","2019-02-16 08:00","2019","02","16","08:00","-23.0","","-25.6","","79","","","M","29","","7","","","","98.87","","","","-29","","NA"
"-87.94","52.20","LANSDOWNE HOUSE (AUT)","6014353","2019-02-16 09:00","2019","02","16","09:00","-24.2","","-26.9","","78","","","M","26","","7","","","","98.94","","","","-31","","NA"
"-87.94","52.20","LANSDOWNE HOUSE (AUT)","6014353","2019-02-16 10:00","2019","02","16","10:00","-21.9","","-25.2","","74","","","M","27","","11","","","","99.00","","","","-30","","NA"
"-87.94","52.20","LANSDOWNE HOUSE (AUT)","6014353","2019-02-16 11:00","2019","02","16","11:00","-20.2","","-24.0","","71","","","M","27","","11","","","","99.01","","","","-28","","NA"
"-87.94","52.20","LANSDOWNE HOUSE (AUT)","6014353","2019-02-16 12:00","2019","02","16","12:00","-18.4","","-22.6","","70","","","M","25","","13","","","","99.05","","","","-26","","NA"
"-87.94","52.20","LANSDOWNE HOUSE (AUT)","6014353","2019-02-16 13:00","2019","02","16","13:00","-16.6","","-21.5","","66","","","M","25","","15","","","","99.05","","","","-25","","NA"
"-87.94","52.20","LANSDOWNE HOUSE (AUT)","6014353","2019-02-16 14:00","2019","02","16","14:00","-15.0","","-20.8","","61","","","M","25","","13","","","","99.03","","","","-22","","NA"
"-87.94","52.20","LANSDOWNE HOUSE (AUT)","6014353","2019-02-16 15:00","2019","02","16","15:00","-13.8","","-20.8","","56","","","M","26","","10","","","","99.02","","","","-20","","NA"
"-87.94","52.20","LANSDOWNE HOUSE (AUT)","6014353","2019-02-16 16:00","2019","02","16","16:00","-13.8","","-20.5","","57","","","M","25","","13","","","","99.05","","","","-21","","NA"
"-87.94","52.20","LANSDOWNE HOUSE (AUT)","6014353","2019-02-16 17:00","2019","02","16","17:00","-14.2","","-20.4","","59","","","M","26","","14","","","","99.07","","","","-22","","NA"
"-87.94","52.20","LANSDOWNE HOUSE (AUT)","6014353","2019-02-16 18:00","2019","02","16","18:00","-15.9","","-21.4","","63","","","M","29","","5","","","","99.09","","","","-20","","NA"
"-87.94","52.20","LANSDOWNE HOUSE (AUT)","6014353","2019-02-16 19:00","2019","02","16","19:00","-20.4","","-23.3","","78","","","M","30","","4","","","","99.11","","","","-24","","NA"
"-87.94","52.20","LANSDOWNE HOUSE (AUT)","6014353","2019-02-16 20:00","2019","02","16","20:00","-19.5","","-22.5","","77","","","M","35","","7","","","","99.15","","","","-25","","NA"
"-87.94","52.20","LANSDOWNE HOUSE (AUT)","6014353","2019-02-16 21:00","2019","02","16","21:00","-24.2","","-26.8","","79","","","M","25","","4","","","","99.16","","","","-28","","NA"
"-87.94","52.20","LANSDOWNE HOUSE (AUT)","6014353","2019-02-16 22:00","2019","02","16","22:00","-27.5","","-30.0","","79","","","M","26","","6","","","","99.18","","","","-34","","NA"
"-87.94","52.20","LANSDOWNE HOUSE (AUT)","6014353","2019-02-16 23:00","2019","02","16","23:00","-23.0","","-25.4","","80","","","M","30","","5","","","","99.20","","","","-28","","NA"
"-87.94","52.20","LANSDOWNE HOUSE (AUT)","6014353","2019-02-17 00:00","2019","02","17","00:00","-25.7","","-28.2","","80","","","M","29","","6","","","","99.23","","","","-32","","NA"
"-87.94","52.20","LANSDOWNE HOUSE (AUT)","6014353","2019-02-17 01:00","2019","02","17","01:00","-22.5","","-25.0","","80","","","M","30","","8","","","","99.28","","","","-29","","NA"
"-87.94","52.20","LANSDOWNE HOUSE (AUT)","6014353","2019-02-17 02:00","2019","02","17","02:00","-23.1","","-25.7","","80","","","M","29","","7","","","","99.31","","","","-29","","NA"
"-87.94","52.20","LANSDOWNE HOUSE (AUT)","6014353","2019-02-17 03:00","2019","02","17","03:00","-23.9","","-26.5","","79","","","M","30","","6","","","","99.33","","","","-30","","NA"
"-87.94","52.20","LANSDOWNE HOUSE (AUT)","6014353","2019-02-17 04:00","2019","02","17","04:00","-26.6","","-29.3","","78","","","M","26","","10","","","","99.34","","","","-35","","NA"
"-87.94","52.20","LANSDOWNE HOUSE (AUT)","6014353","2019-02-17 05:00","2019","02","17","05:00","-25.5","","-28.3","","78","","","M","28","","8","","","","99.38","","","","-33","","NA"
"-87.94","52.20","LANSDOWNE HOUSE (AUT)","6014353","2019-02-17 06:00","2019","02","17","06:00","-26.2","","-29.0","","77","","","M","27","","7","","","","99.40","","","","-33","","NA"
"-87.94","52.20","LANSDOWNE HOUSE (AUT)","6014353","2019-02-17 07:00","2019","02","17","07:00","-26.4","","-29.2","","77","","","M","29","","8","","","","99.41","","","","-34","","NA"
"-87.94","52.20","LANSDOWNE HOUSE (AUT)","6014353","2019-02-17 08:00","2019","02","17","08:00","-27.0","","-29.8","","77","","","M","28","","7","","","","99.45","","","","-34","","NA"
"-87.94","52.20","LANSDOWNE HOUSE (AUT)","6014353","2019-02-17 09:00","2019","02","17","09:00","-27.0","","-29.8","","77","","","M","27","","6","","","","99.49","","","","-33","","NA"
"-87.94","52.20","LANSDOWNE HOUSE (AUT)","6014353","2019-02-17 10:00","2019","02","17","10:00","-25.0","","-27.8","","77","","","M","29","","9","","","","99.51","","","","-33","","NA"
"-87.94","52.20","LANSDOWNE HOUSE (AUT)","6014353","2019-02-17 11:00","2019","02","17","11:00","-23.0","","-25.9","","77","","","M","30","","12","","","","99.51","","","","-32","","NA"
"-87.94","52.20","LANSDOWNE HOUSE (AUT)","6014353","2019-02-17 12:00","2019","02","17","12:00","-21.5","","-26.3","","65","","","M","30","","10","","","","99.49","","","","-29","","NA"
"-87.94","52.20","LANSDOWNE HOUSE (AUT)","6014353","2019-02-17 13:00","2019","02","17","13:00","-19.4","","-25.4","","59","","","M","30","","11","","","","99.47","","","","-27","","NA"
"-87.94","52.20","LANSDOWNE HOUSE (AUT)","6014353","2019-02-17 14:00","2019","02","17","14:00","-17.6","","-24.5","","55","","","M","31","","11","","","","99.44","","","","-25","","NA"
"-87.94","52.20","LANSDOWNE HOUSE (AUT)","6014353","2019-02-17 15:00","2019","02","17","15:00","-16.7","","-24.6","","50","","","M","30","","11","","","","99.41","","","","-24","","NA"
"-87.94","52.20","LANSDOWNE HOUSE (AUT)","6014353","2019-02-17 16:00","2019","02","17","16:00","-16.1","","-25.2","","45","","","M","30","","13","","","","99.41","","","","-24","","NA"
"-87.94","52.20","LANSDOWNE HOUSE (AUT)","6014353","2019-02-17 17:00","2019","02","17","17:00","-16.5","","-26.6","","41","","","M","34","","10","","","","99.44","","","","-23","","NA"
"-87.94","52.20","LANSDOWNE HOUSE (AUT)","6014353","2019-02-17 18:00","2019","02","17","18:00","-18.3","","-26.7","","48","","","M","32","","3","","","","99.47","","","","-21","","NA"
"-87.94","52.20","LANSDOWNE HOUSE (AUT)","6014353","2019-02-17 19:00","2019","02","17","19:00","-20.5","","-27.1","","55","","","M","34","","5","","","","99.51","","","","-25","","NA"
"-87.94","52.20","LANSDOWNE HOUSE (AUT)","6014353","2019-02-17 20:00","2019","02","17","20:00","-21.0","","-26.9","","59","","","M","30","","8","","","","99.54","","","","-27","","NA"
"-87.94","52.20","LANSDOWNE HOUSE (AUT)","6014353","2019-02-17 21:00","2019","02","17","21:00","-21.6","","-26.8","","63","","","M","30","","5","","","","99.55","","","","-26","","NA"
"-87.94","52.20","LANSDOWNE HOUSE (AUT)","6014353","2019-02-17 22:00","2019","02","17","22:00","-22.6","","-27.5","","64","","","M","31","","6","","","","99.60","","","","-28","","NA"
"-87.94","52.20","LANSDOWNE HOUSE (AUT)","6014353","2019-02-17 23:00","2019","02","17","23:00","-23.6","","-28.1","","66","","","M","29","","6","","","","99.61","","","","-29","","NA"
"-87.94","52.20","LANSDOWNE HOUSE (AUT)","6014353","2019-02-18 00:00","2019","02","18","00:00","-24.4","","-28.4","","70","","","M","31","","5","","","","99.59","","","","-29","","NA"
"-87.94","52.20","LANSDOWNE HOUSE (AUT)","6014353","2019-02-18 01:00","2019","02","18","01:00","-24.9","","-28.6","","72","","","M","30","","7","","","","99.63","","","","-31","","NA"
"-87.94","52.20","LANSDOWNE HOUSE (AUT)","6014353","2019-02-18 02:00","2019","02","18","02:00","-25.8","","-29.1","","74","","","M","29","","9","","","","99.66","","","","-34","","NA"
"-87.94","52.20","LANSDOWNE HOUSE (AUT)","6014353","2019-02-18 03:00","2019","02","18","03:00","-26.5","","-29.7","","74","","","M","31","","6","","","","99.69","","","","-32","","NA"
"-87.94","52.20","LANSDOWNE HOUSE (AUT)","6014353","2019-02-18 04:00","2019","02","18","04:00","-27.3","","-30.3","","76","","","M","29","","7","","","","99.67","","","","-34","","NA"
"-87.94","52.20","LANSDOWNE HOUSE (AUT)","6014353","2019-02-18 05:00","2019","02","18","05:00","-28.3","","-31.0","","78","","","M","28","","8","","","","99.67","","","","-36","","NA"
"-87.94","52.20","LANSDOWNE HOUSE (AUT)","6014353","2019-02-18 06:00","2019","02","18","06:00","-29.7","","-32.6","","76","","","M","27","","7","","","","99.70","","","","-37","","NA"
"-87.94","52.20","LANSDOWNE HOUSE (AUT)","6014353","2019-02-18 07:00","2019","02","18","07:00","-28.7","","-31.5","","76","","","M","28","","8","","","","99.71","","","","-36","","NA"
"-87.94","52.20","LANSDOWNE HOUSE (AUT)","6014353","2019-02-18 08:00","2019","02","18","08:00","-28.9","","-31.8","","76","","","M","27","","7","","","","99.72","","","","-36","","NA"
"-87.94","52.20","LANSDOWNE HOUSE (AUT)","6014353","2019-02-18 09:00","2019","02","18","09:00","-28.3","","-31.5","","74","","","M","27","","11","","","","99.78","","","","-38","","NA"
"-87.94","52.20","LANSDOWNE HOUSE (AUT)","6014353","2019-02-18 10:00","2019","02","18","10:00","-26.6","","-30.6","","69","","","M","28","","9","","","","99.79","","","","-35","","NA"
"-87.94","52.20","LANSDOWNE HOUSE (AUT)","6014353","2019-02-18 11:00","2019","02","18","11:00","-24.8","","-29.6","","64","","","M","25","","12","","","","99.81","","","","-34","","NA"
"-87.94","52.20","LANSDOWNE HOUSE (AUT)","6014353","2019-02-18 12:00","2019","02","18","12:00","-22.6","","-28.4","","59","","","M","25","","14","","","","99.81","","","","-32","","NA"
"-87.94","52.20","LANSDOWNE HOUSE (AUT)","6014353","2019-02-18 13:00","2019","02","18","13:00","-21.3","","-27.4","","58","","","M","25","","18","","","","99.79","","","","-32","","NA"
"-87.94","52.20","LANSDOWNE HOUSE (AUT)","6014353","2019-02-18 14:00","2019","02","18","14:00","-19.9","","-26.7","","55","","0.0","","25","","18","","","","99.75","","","","-30","","NA"
"-87.94","52.20","LANSDOWNE HOUSE (AUT)","6014353","2019-02-18 15:00","2019","02","18","15:00","-17.9","","-25.7","","50","","0.0","","26","","16","","","","99.72","","","","-27","","NA"
"-87.94","52.20","LANSDOWNE HOUSE (AUT)","6014353","2019-02-18 16:00","2019","02","18","16:00","-16.6","","-25.1","","48","","0.0","","28","","14","","","","99.69","","","","-25","","NA"
"-87.94","52.20","LANSDOWNE HOUSE (AUT)","6014353","2019-02-18 17:00","2019","02","18","17:00","-16.4","","-25.0","","47","","0.0","","27","","11","","","","99.68","","","","-23","","NA"
"-87.94","52.20","LANSDOWNE HOUSE (AUT)","6014353","2019-02-18 18:00","2019","02","18","18:00","-17.4","","-25.1","","51","","0.0","","27","","12","","","","99.70","","","","-25","","NA"
"-87.94","52.20","LANSDOWNE HOUSE (AUT)","6014353","2019-02-18 19:00","2019","02","18","19:00","-18.9","","-25.5","","56","","0.0","","28","","9","","","","99.74","","","","-25","","NA"
"-87.94","52.20","LANSDOWNE HOUSE (AUT)","6014353","2019-02-18 20:00","2019","02","18","20:00","-21.4","","-26.3","","64","","","M","26","","10","","","","99.76","","","","-29","","NA"
"-87.94","52.20","LANSDOWNE HOUSE (AUT)","6014353","2019-02-18 21:00","2019","02","18","21:00","-23.2","","-27.8","","66","","0.0","","27","","7","","","","99.76","","","","-29","","NA"
"-87.94","52.20","LANSDOWNE HOUSE (AUT)","6014353","2019-02-18 22:00","2019","02","18","22:00","-23.4","","-27.3","","71","","0.0","","26","","8","","","","99.77","","","","-30","","NA"
"-87.94","52.20","LANSDOWNE HOUSE (AUT)","6014353","2019-02-18 23:00","2019","02","18","23:00","-24.3","","-28.2","","71","","0.0","","26","","9","","","","99.78","","","","-32","","NA"
"-87.94","52.20","LANSDOWNE HOUSE (AUT)","6014353","2019-02-19 00:00","2019","02","19","00:00","-24.0","","-27.4","","73","","0.0","","26","","11","","","","99.80","","","","-32","","NA"
"-87.94","52.20","LANSDOWNE HOUSE (AUT)","6014353","2019-02-19 01:00","2019","02","19","01:00","-26.2","","-28.9","","78","","0.0","","25","","10","","","","99.81","","","","-35","","NA"
"-87.94","52.20","LANSDOWNE HOUSE (AUT)","6014353","2019-02-19 02:00","2019","02","19","02:00","-27.1","","-29.6","","79","","0.0","","25","","10","","","","99.81","","","","-36","","NA"
"-87.94","52.20","LANSDOWNE HOUSE (AUT)","6014353","2019-02-19 03:00","2019","02","19","03:00","-28.0","","-30.3","","80","","0.0","","25","","8","","","","99.82","","","","-36","","NA"
"-87.94","52.20","LANSDOWNE HOUSE (AUT)","6014353","2019-02-19 04:00","2019","02","19","04:00","-28.5","","-30.7","","81","","0.0","","24","","8","","","","99.83","","","","-36","","NA"
"-87.94","52.20","LANSDOWNE HOUSE (AUT)","6014353","2019-02-19 05:00","2019","02","19","05:00","-29.2","","-31.6","","79","","0.0","","23","","8","","","","99.83","","","","-37","","NA"
"-87.94","52.20","LANSDOWNE HOUSE (AUT)","6014353","2019-02-19 06:00","2019","02","19","06:00","-30.1","","-32.6","","79","","0.0","","23","","8","","","","99.80","","","","-38","","NA"
"-87.94","52.20","LANSDOWNE HOUSE (AUT)","6014353","2019-02-19 07:00","2019","02","19","07:00","-29.9","","-32.8","","76","","0.0","","22","","7","","","","99.79","","","","-37","","NA"
"-87.94","52.20","LANSDOWNE HOUSE (AUT)","6014353","2019-02-19 08:00","2019","02","19","08:00","-29.3","","-32.2","","77","","0.0","","22","","6","","","","99.75","","","","-36","","NA"
"-87.94","52.20","LANSDOWNE HOUSE (AUT)","6014353","2019-02-19 09:00","2019","02","19","09:00","-26.1","","-28.9","","77","","","M","23","","7","","","","99.70","","","","-33","","NA"
"-87.94","52.20","LANSDOWNE HOUSE (AUT)","6014353","2019-02-19 10:00","2019","02","19","10:00","-22.9","","-26.0","","76","","","M","23","","11","","","","99.68","","","","-31","","NA"
"-87.94","52.20","LANSDOWNE HOUSE (AUT)","6014353","2019-02-19 11:00","2019","02","19","11:00","-18.9","","-23.6","","66","","","M","24","","14","","","","99.60","","","","-27","","NA"
"-87.94","52.20","LANSDOWNE HOUSE (AUT)","6014353","2019-02-19 12:00","2019","02","19","12:00","-16.0","","-23.0","","55","","","M","23","","16","","","","99.52","","","","-24","","NA"
"-87.94","52.20","LANSDOWNE HOUSE (AUT)","6014353","2019-02-19 13:00","2019","02","19","13:00","-14.3","","-22.2","","51","","","M","21","","18","","","","99.42","","","","-23","","NA"
"-87.94","52.20","LANSDOWNE HOUSE (AUT)","6014353","2019-02-19 14:00","2019","02","19","14:00","-13.4","","-21.3","","51","","","M","21","","19","","","","99.30","","","","-22","","NA"
"-87.94","52.20","LANSDOWNE HOUSE (AUT)","6014353","2019-02-19 15:00","2019","02","19","15:00","-12.0","","-19.9","","51","","","M","22","","19","","","","99.20","","","","-20","","NA"
"-87.94","52.20","LANSDOWNE HOUSE (AUT)","6014353","2019-02-19 16:00","2019","02","19","16:00","-11.7","","-19.2","","54","","","M","22","","16","","","","99.13","","","","-19","","NA"
"-87.94","52.20","LANSDOWNE HOUSE (AUT)","6014353","2019-02-19 17:00","2019","02","19","17:00","-12.0","","-19.3","","55","","","M","21","","19","","","","99.05","","","","-20","","NA"
"-87.94","52.20","LANSDOWNE HOUSE (AUT)","6014353","2019-02-19 18:00","2019","02","19","18:00","-12.6","","-19.6","","56","","","M","22","","10","","","","98.98","","","","-18","","NA"
"-87.94","52.20","LANSDOWNE HOUSE (AUT)","6014353","2019-02-19 19:00","2019","02","19","19:00","-12.9","","-19.3","","59","","","M","19","","7","","","","98.91","","","","-17","","NA"
"-87.94","52.20","LANSDOWNE HOUSE (AUT)","6014353","2019-02-19 20:00","2019","02","19","20:00","-13.7","","-19.5","","61","","","M","20","","8","","","","98.86","","","","-19","","NA"
"-87.94","52.20","LANSDOWNE HOUSE (AUT)","6014353","2019-02-19 21:00","2019","02","19","21:00","-14.0","","-19.3","","64","","","M","20","","10","","","","98.78","","","","-20","","NA"
"-87.94","52.20","LANSDOWNE HOUSE (AUT)","6014353","2019-02-19 22:00","2019","02","19","22:00","-14.5","","-19.3","","67","","","M","22","","12","","","","98.74","","","","-21","","NA"
"-87.94","52.20","LANSDOWNE HOUSE (AUT)","6014353","2019-02-19 23:00","2019","02","19","23:00","-14.4","","-19.0","","68","","","M","22","","15","","","","98.75","","","","-22","","NA"
"-87.94","52.20","LANSDOWNE HOUSE (AUT)","6014353","2019-02-20 00:00","2019","02","20","00:00","-14.5","","-18.9","","69","","","M","22","","14","","","","98.75","","","","-22","","NA"
"-87.94","52.20","LANSDOWNE HOUSE (AUT)","6014353","2019-02-20 01:00","2019","02","20","01:00","-14.9","","-18.9","","72","","","M","22","","11","","","","98.76","","","","-21","","NA"
"-87.94","52.20","LANSDOWNE HOUSE (AUT)","6014353","2019-02-20 02:00","2019","02","20","02:00","-14.0","","-18.2","","70","","","M","23","","15","","","","98.78","","","","-22","","NA"
"-87.94","52.20","LANSDOWNE HOUSE (AUT)","6014353","2019-02-20 03:00","2019","02","20","03:00","-12.9","","-17.8","","67","","","M","24","","21","","","","98.77","","","","-22","","NA"
"-87.94","52.20","LANSDOWNE HOUSE (AUT)","6014353","2019-02-20 04:00","2019","02","20","04:00","-13.9","","-18.3","","69","","","M","24","","18","","","","98.71","","","","-22","","NA"
"-87.94","52.20","LANSDOWNE HOUSE (AUT)","6014353","2019-02-20 05:00","2019","02","20","05:00","-16.2","","-19.8","","74","","","M","25","","10","","","","98.64","","","","-23","","NA"
"-87.94","52.20","LANSDOWNE HOUSE (AUT)","6014353","2019-02-20 06:00","2019","02","20","06:00","-17.2","","-19.8","","80","","","M","24","","9","","","","98.57","","","","-23","","NA"
"-87.94","52.20","LANSDOWNE HOUSE (AUT)","6014353","2019-02-20 07:00","2019","02","20","07:00","-19.0","","-21.0","","84","","","M","21","","7","","","","98.55","","","","-24","","NA"
"-87.94","52.20","LANSDOWNE HOUSE (AUT)","6014353","2019-02-20 08:00","2019","02","20","08:00","-19.7","","-21.8","","84","","","M","21","","6","","","","98.59","","","","-25","","NA"
"-87.94","52.20","LANSDOWNE HOUSE (AUT)","6014353","2019-02-20 09:00","2019","02","20","09:00","-17.3","","-20.3","","78","","","M","22","","9","","","","98.61","","","","-24","","NA"
"-87.94","52.20","LANSDOWNE HOUSE (AUT)","6014353","2019-02-20 10:00","2019","02","20","10:00"
"-87.94","52.20","LANSDOWNE HOUSE (AUT)","6014353","2019-02-20 11:00","2019","02","20","11:00","-12.0","","-18.1","","61","","","M","24","","14","","","","98.60","","","","-19","","NA"
"-87.94","52.20","LANSDOWNE HOUSE (AUT)","6014353","2019-02-20 12:00","2019","02","20","12:00","-10.1","","-17.3","","55","","","M","22","","12","","","","98.53","","","","-16","","NA"
"-87.94","52.20","LANSDOWNE HOUSE (AUT)","6014353","2019-02-20 13:00","2019","02","20","13:00","-8.0","","-16.3","","52","","","M","19","","12","","","","98.43","","","","-13","","NA"
"-87.94","52.20","LANSDOWNE HOUSE (AUT)","6014353","2019-02-20 14:00","2019","02","20","14:00","-5.9","","-15.3","","47","","","M","22","","13","","","","98.31","","","","-11","","NA"
"-87.94","52.20","LANSDOWNE HOUSE (AUT)","6014353","2019-02-20 15:00","2019","02","20","15:00","-4.4","","-14.7","","44","","","M","21","","13","","","","98.23","","","","-9","","NA"
"-87.94","52.20","LANSDOWNE HOUSE (AUT)","6014353","2019-02-20 16:00","2019","02","20","16:00","-3.6","","-14.3","","43","","","M","22","","16","","","","98.19","","","","-9","","NA"
"-87.94","52.20","LANSDOWNE HOUSE (AUT)","6014353","2019-02-20 17:00","2019","02","20","17:00","-3.4","","-14.5","","42","","","M","25","","5","","","","98.11","","","","-5","","NA"
"-87.94","52.20","LANSDOWNE HOUSE (AUT)","6014353","2019-02-20 18:00","2019","02","20","18:00","-4.9","","-14.7","","46","","","M","","","0","","","","98.06","","","","","","NA"
"-87.94","52.20","LANSDOWNE HOUSE (AUT)","6014353","2019-02-20 19:00","2019","02","20","19:00","-10.4","","-15.6","","66","","","M","10","","2","","","","98.05","","","","-12","","NA"
"-87.94","52.20","LANSDOWNE HOUSE (AUT)","6014353","2019-02-20 20:00","2019","02","20","20:00","-14.4","","-18.7","","70","","","M","6","","1","","","","98.02","","","","-15","","NA"
"-87.94","52.20","LANSDOWNE HOUSE (AUT)","6014353","2019-02-20 21:00","2019","02","20","21:00","-15.6","","-18.2","","81","","","M","11","","1","","","","97.96","","","","-16","","NA"
"-87.94","52.20","LANSDOWNE HOUSE (AUT)","6014353","2019-02-20 22:00","2019","02","20","22:00","-18.4","","-21.0","","80","","","M","3","","5","","","","97.89","","","","-22","","NA"
"-87.94","52.20","LANSDOWNE HOUSE (AUT)","6014353","2019-02-20 23:00","2019","02","20","23:00","-18.6","","-20.5","","85","","","M","2","","4","","","","97.86","","","","-22","","NA"
"-87.94","52.20","LANSDOWNE HOUSE (AUT)","6014353","2019-02-21 00:00","2019","02","21","00:00","-19.6","","-21.5","","85","","","M","1","","5","","","","97.84","","","","-24","","NA"
"-87.94","52.20","LANSDOWNE HOUSE (AUT)","6014353","2019-02-21 01:00","2019","02","21","01:00","-19.2","","-22.1","","78","","","M","3","","6","","","","97.82","","","","-24","","NA"
"-87.94","52.20","LANSDOWNE HOUSE (AUT)","6014353","2019-02-21 02:00","2019","02","21","02:00","-19.6","","-21.8","","83","","","M","6","","3","","","","97.84","","","","-22","","NA"
"-87.94","52.20","LANSDOWNE HOUSE (AUT)","6014353","2019-02-21 03:00","2019","02","21","03:00","-20.3","","-21.8","","88","","","M","36","","2","","","","97.87","","","","-22","","NA"
"-87.94","52.20","LANSDOWNE HOUSE (AUT)","6014353","2019-02-21 04:00","2019","02","21","04:00","-19.7","","-21.8","","83","","","M","2","","4","","","","97.90","","","","-23","","NA"
"-87.94","52.20","LANSDOWNE HOUSE (AUT)","6014353","2019-02-21 05:00","2019","02","21","05:00","-23.3","","-26.0","","78","","","M","35","","4","","","","97.92","","","","-27","","NA"
"-87.94","52.20","LANSDOWNE HOUSE (AUT)","6014353","2019-02-21 06:00","2019","02","21","06:00","-19.5","","-21.3","","86","","","M","1","","5","","","","97.99","","","","-24","","NA"
"-87.94","52.20","LANSDOWNE HOUSE (AUT)","6014353","2019-02-21 07:00","2019","02","21","07:00","-19.7","","-22.0","","82","","","M","36","","5","","","","98.08","","","","-24","","NA"
"-87.94","52.20","LANSDOWNE HOUSE (AUT)","6014353","2019-02-21 08:00","2019","02","21","08:00","-21.8","","-24.2","","81","","","M","1","","5","","","","98.17","","","","-26","","NA"
"-87.94","52.20","LANSDOWNE HOUSE (AUT)","6014353","2019-02-21 09:00","2019","02","21","09:00","-20.4","","-22.6","","83","","","M","33","","2","","","","98.29","","","","-22","","NA"
"-87.94","52.20","LANSDOWNE HOUSE (AUT)","6014353","2019-02-21 10:00","2019","02","21","10:00","-17.2","","-19.9","","79","","","M","36","","6","","","","98.36","","","","-22","","NA"
"-87.94","52.20","LANSDOWNE HOUSE (AUT)","6014353","2019-02-21 11:00","2019","02","21","11:00","-14.2","","-19.1","","66","","","M","36","","5","","","","98.40","","","","-18","","NA"
"-87.94","52.20","LANSDOWNE HOUSE (AUT)","6014353","2019-02-21 12:00","2019","02","21","12:00","-11.8","","-18.3","","58","","","M","35","","7","","","","98.51","","","","-16","","NA"
"-87.94","52.20","LANSDOWNE HOUSE (AUT)","6014353","2019-02-21 13:00","2019","02","21","13:00","-10.3","","-18.0","","53","","","M","2","","7","","","","98.58","","","","-14","","NA"
"-87.94","52.20","LANSDOWNE HOUSE (AUT)","6014353","2019-02-21 14:00","2019","02","21","14:00","-9.6","","-17.6","","52","","","M","3","","11","","","","98.63","","","","-15","","NA"
"-87.94","52.20","LANSDOWNE HOUSE (AUT)","6014353","2019-02-21 15:00","2019","02","21","15:00","-9.1","","-17.1","","52","","","M","3","","11","","","","98.69","","","","-15","","NA"
"-87.94","52.20","LANSDOWNE HOUSE (AUT)","6014353","2019-02-21 16:00","2019","02","21","16:00","-9.2","","-16.8","","54","","","M","2","","12","","","","98.79","","","","-15","","NA"
"-87.94","52.20","LANSDOWNE HOUSE (AUT)","6014353","2019-02-21 17:00","2019","02","21","17:00","-9.2","","-16.0","","58","","","M","36","","8","","","","98.88","","","","-14","","NA"
"-87.94","52.20","LANSDOWNE HOUSE (AUT)","6014353","2019-02-21 18:00","2019","02","21","18:00","-10.8","","-16.3","","64","","","M","2","","6","","","","98.97","","","","-14","","NA"
"-87.94","52.20","LANSDOWNE HOUSE (AUT)","6014353","2019-02-21 19:00","2019","02","21","19:00","-11.9","","-16.4","","69","","","M","1","","6","","","","99.03","","","","-16","","NA"
"-87.94","52.20","LANSDOWNE HOUSE (AUT)","6014353","2019-02-21 20:00","2019","02","21","20:00","-12.8","","-16.5","","73","","","M","3","","2","","","","99.09","","","","-14","","NA"
"-87.94","52.20","LANSDOWNE HOUSE (AUT)","6014353","2019-02-21 21:00","2019","02","21","21:00","-13.9","","-17.1","","77","","","M","6","","5","","","","99.12","","","","-17","","NA"
"-87.94","52.20","LANSDOWNE HOUSE (AUT)","6014353","2019-02-21 22:00","2019","02","21","22:00","-13.5","","-16.5","","78","","","M","7","","4","","","","99.17","","","","-16","","NA"
"-87.94","52.20","LANSDOWNE HOUSE (AUT)","6014353","2019-02-21 23:00","2019","02","21","23:00","-13.8","","-16.7","","79","","","M","8","","4","","","","99.22","","","","-17","","NA"
"-87.94","52.20","LANSDOWNE HOUSE (AUT)","6014353","2019-02-22 00:00","2019","02","22","00:00","-13.6","","-16.6","","78","","","M","9","","4","","","","99.27","","","","-16","","NA"
"-87.94","52.20","LANSDOWNE HOUSE (AUT)","6014353","2019-02-22 01:00","2019","02","22","01:00","-13.8","","-16.5","","80","","","M","9","","5","","","","99.30","","","","-17","","NA"
"-87.94","52.20","LANSDOWNE HOUSE (AUT)","6014353","2019-02-22 02:00","2019","02","22","02:00","-14.0","","-16.5","","82","","","M","9","","5","","","","99.35","","","","-17","","NA"
"-87.94","52.20","LANSDOWNE HOUSE (AUT)","6014353","2019-02-22 03:00","2019","02","22","03:00","-14.0","","-16.4","","82","","","M","10","","5","","","","99.31","","","","-17","","NA"
"-87.94","52.20","LANSDOWNE HOUSE (AUT)","6014353","2019-02-22 04:00","2019","02","22","04:00","-14.6","","-16.8","","83","","","M","8","","7","","","","99.28","","","","-19","","NA"
"-87.94","52.20","LANSDOWNE HOUSE (AUT)","6014353","2019-02-22 05:00","2019","02","22","05:00","-14.6","","-16.9","","83","","","M","11","","5","","","","99.28","","","","-18","","NA"
"-87.94","52.20","LANSDOWNE HOUSE (AUT)","6014353","2019-02-22 06:00","2019","02","22","06:00","-15.0","","-17.2","","84","","","M","8","","5","","","","99.27","","","","-19","","NA"
"-87.94","52.20","LANSDOWNE HOUSE (AUT)","6014353","2019-02-22 07:00","2019","02","22","07:00","-15.0","","-17.2","","83","","","M","9","","5","","","","99.25","","","","-19","","NA"
"-87.94","52.20","LANSDOWNE HOUSE (AUT)","6014353","2019-02-22 08:00","2019","02","22","08:00","-15.9","","-18.1","","84","","","M","9","","5","","","","99.25","","","","-20","","NA"
"-87.94","52.20","LANSDOWNE HOUSE (AUT)","6014353","2019-02-22 09:00","2019","02","22","09:00","-15.5","","-17.7","","83","","","M","6","","3","","","","99.23","","","","-18","","NA"
"-87.94","52.20","LANSDOWNE HOUSE (AUT)","6014353","2019-02-22 10:00","2019","02","22","10:00","-14.1","","-16.5","","82","","","M","5","","4","","","","99.16","","","","-17","","NA"
"-87.94","52.20","LANSDOWNE HOUSE (AUT)","6014353","2019-02-22 11:00","2019","02","22","11:00","-13.1","","-16.1","","78","","","M","4","","4","","","","99.15","","","","-16","","NA"
"-87.94","52.20","LANSDOWNE HOUSE (AUT)","6014353","2019-02-22 12:00","2019","02","22","12:00","-10.8","","-14.0","","77","","","M","5","","4","","","","99.15","","","","-13","","NA"
"-87.94","52.20","LANSDOWNE HOUSE (AUT)","6014353","2019-02-22 13:00","2019","02","22","13:00","-8.2","","-12.2","","73","","","M","26","","4","","","","99.13","","","","-10","","NA"
"-87.94","52.20","LANSDOWNE HOUSE (AUT)","6014353","2019-02-22 14:00","2019","02","22","14:00","-7.0","","-11.0","","73","","","M","28","","6","","","","99.11","","","","-10","","NA"
"-87.94","52.20","LANSDOWNE HOUSE (AUT)","6014353","2019-02-22 15:00","2019","02","22","15:00","-6.5","","-10.0","","76","","","M","29","","10","","","","99.13","","","","-11","","NA"
"-87.94","52.20","LANSDOWNE HOUSE (AUT)","6014353","2019-02-22 16:00","2019","02","22","16:00","-7.0","","-10.3","","77","","","M","28","","11","","","","99.16","","","","-12","","NA"
"-87.94","52.20","LANSDOWNE HOUSE (AUT)","6014353","2019-02-22 17:00","2019","02","22","17:00","-7.2","","-11.1","","73","","","M","29","","9","","","","99.20","","","","-12","","NA"
"-87.94","52.20","LANSDOWNE HOUSE (AUT)","6014353","2019-02-22 18:00","2019","02","22","18:00","-8.8","","-14.0","","66","","","M","27","","7","","","","99.24","","","","-13","","NA"
"-87.94","52.20","LANSDOWNE HOUSE (AUT)","6014353","2019-02-22 19:00","2019","02","22","19:00","-11.6","","-15.2","","75","","","M","30","","2","","","","99.19","","","","-13","","NA"
"-87.94","52.20","LANSDOWNE HOUSE (AUT)","6014353","2019-02-22 20:00","2019","02","22","20:00","-14.7","","-15.7","","92","","","M","23","","3","","","","99.23","","","","-17","","NA"
"-87.94","52.20","LANSDOWNE HOUSE (AUT)","6014353","2019-02-22 21:00","2019","02","22","21:00","-14.5","","-16.4","","86","","","M","20","","4","","","","99.28","","","","-17","","NA"
"-87.94","52.20","LANSDOWNE HOUSE (AUT)","6014353","2019-02-22 22:00","2019","02","22","22:00","-13.7","","-15.7","","85","","","M","21","","4","","","","99.32","","","","-16","","NA"
"-87.94","52.20","LANSDOWNE HOUSE (AUT)","6014353","2019-02-22 23:00","2019","02","22","23:00","-12.7","","-14.6","","86","","","M","22","","3","","","","99.32","","","","-15","","NA"
"-87.94","52.20","LANSDOWNE HOUSE (AUT)","6014353","2019-02-23 00:00","2019","02","23","00:00","-12.8","","-15.6","","80","","","M","25","","5","","","","99.31","","","","-16","","NA"
"-87.94","52.20","LANSDOWNE HOUSE (AUT)","6014353","2019-02-23 01:00","2019","02","23","01:00","-14.1","","-15.8","","86","","","M","23","","6","","","","99.35","","","","-18","","NA"
"-87.94","52.20","LANSDOWNE HOUSE (AUT)","6014353","2019-02-23 02:00","2019","02","23","02:00","-18.1","","-20.0","","86","","","M","24","","5","","","","99.38","","","","-22","","NA"
"-87.94","52.20","LANSDOWNE HOUSE (AUT)","6014353","2019-02-23 03:00","2019","02","23","03:00","-19.3","","-21.1","","85","","","M","22","","6","","","","99.37","","","","-24","","NA"
"-87.94","52.20","LANSDOWNE HOUSE (AUT)","6014353","2019-02-23 04:00","2019","02","23","04:00","-21.4","","-23.5","","83","","","M","22","","6","","","","99.35","","","","-27","","NA"
"-87.94","52.20","LANSDOWNE HOUSE (AUT)","6014353","2019-02-23 05:00","2019","02","23","05:00","-22.3","","-24.6","","81","","","M","20","","3","","","","99.31","","","","-25","","NA"
"-87.94","52.20","LANSDOWNE HOUSE (AUT)","6014353","2019-02-23 06:00","2019","02","23","06:00","-23.8","","-26.3","","80","","","M","","","0","","","","99.30","","","","","","NA"
"-87.94","52.20","LANSDOWNE HOUSE (AUT)","6014353","2019-02-23 07:00","2019","02","23","07:00","-23.8","","-26.1","","81","","","M","0","","1","","","","99.28","","","","-25","","NA"
"-87.94","52.20","LANSDOWNE HOUSE (AUT)","6014353","2019-02-23 08:00","2019","02","23","08:00","-24.6","","-27.3","","79","","","M","26","","1","","","","99.25","","","","-26","","NA"
"-87.94","52.20","LANSDOWNE HOUSE (AUT)","6014353","2019-02-23 09:00","2019","02","23","09:00","-22.2","","-24.6","","81","","","M","4","","3","","","","99.20","","","","-25","","NA"
"-87.94","52.20","LANSDOWNE HOUSE (AUT)","6014353","2019-02-23 10:00","2019","02","23","10:00","-19.0","","-21.4","","82","","","M","4","","3","","","","99.15","","","","-21","","NA"
"-87.94","52.20","LANSDOWNE HOUSE (AUT)","6014353","2019-02-23 11:00","2019","02","23","11:00","-16.4","","-19.0","","81","","","M","15","","1","","","","99.13","","","","-17","","NA"
"-87.94","52.20","LANSDOWNE HOUSE (AUT)","6014353","2019-02-23 12:00","2019","02","23","12:00","-7.2","","-12.1","","68","","","M","21","","9","","","","99.10","","","","-12","","NA"
"-87.94","52.20","LANSDOWNE HOUSE (AUT)","6014353","2019-02-23 13:00","2019","02","23","13:00","-6.4","","-12.1","","64","","","M","20","","15","","","","98.99","","","","-12","","NA"
"-87.94","52.20","LANSDOWNE HOUSE (AUT)","6014353","2019-02-23 14:00","2019","02","23","14:00","-6.2","","-11.9","","64","","","M","21","","10","","","","98.89","","","","-11","","NA"
"-87.94","52.20","LANSDOWNE HOUSE (AUT)","6014353","2019-02-23 15:00","2019","02","23","15:00","-5.8","","-11.6","","63","","","M","19","","11","","","","98.83","","","","-11","","NA"
"-87.94","52.20","LANSDOWNE HOUSE (AUT)","6014353","2019-02-23 16:00","2019","02","23","16:00","-5.0","","-11.3","","61","","","M","20","","10","","","","98.74","","","","-9","","NA"
"-87.94","52.20","LANSDOWNE HOUSE (AUT)","6014353","2019-02-23 17:00","2019","02","23","17:00","-5.0","","-10.3","","66","","","M","20","","8","","","","98.65","","","","-9","","NA"
"-87.94","52.20","LANSDOWNE HOUSE (AUT)","6014353","2019-02-23 18:00","2019","02","23","18:00","-5.2","","-9.4","","72","","","M","15","","6","","","","98.54","","","","-8","","NA"
"-87.94","52.20","LANSDOWNE HOUSE (AUT)","6014353","2019-02-23 19:00","2019","02","23","19:00","-6.2","","-9.0","","81","","","M","13","","5","","","","98.50","","","","-9","","NA"
"-87.94","52.20","LANSDOWNE HOUSE (AUT)","6014353","2019-02-23 20:00","2019","02","23","20:00","-7.5","","-9.3","","87","","","M","7","","6","","","","98.46","","","","-11","","NA"
"-87.94","52.20","LANSDOWNE HOUSE (AUT)","6014353","2019-02-23 21:00","2019","02","23","21:00","-6.8","","-7.9","","92","","","M","10","","7","","","","98.37","","","","-10","","NA"
"-87.94","52.20","LANSDOWNE HOUSE (AUT)","6014353","2019-02-23 22:00","2019","02","23","22:00","-7.4","","-8.8","","90","","","M","9","","6","","","","98.26","","","","-11","","NA"
"-87.94","52.20","LANSDOWNE HOUSE (AUT)","6014353","2019-02-23 23:00","2019","02","23","23:00","-7.1","","-8.3","","91","","","M","8","","8","","","","98.15","","","","-11","","NA"
"-87.94","52.20","LANSDOWNE HOUSE (AUT)","6014353","2019-02-24 00:00","2019","02","24","00:00","-8.4","","-9.6","","91","","","M","6","","8","","","","98.02","","","","-13","","NA"
"-87.94","52.20","LANSDOWNE HOUSE (AUT)","6014353","2019-02-24 01:00","2019","02","24","01:00","-7.8","","-9.1","","90","","","M","6","","8","","","","97.93","","","","-12","","NA"
"-87.94","52.20","LANSDOWNE HOUSE (AUT)","6014353","2019-02-24 02:00","2019","02","24","02:00","-7.6","","-8.8","","91","","","M","7","","10","","","","97.83","","","","-12","","NA"
"-87.94","52.20","LANSDOWNE HOUSE (AUT)","6014353","2019-02-24 03:00","2019","02","24","03:00","-7.6","","-8.8","","91","","","M","7","","12","","","","97.70","","","","-13","","NA"
"-87.94","52.20","LANSDOWNE HOUSE (AUT)","6014353","2019-02-24 04:00","2019","02","24","04:00","-7.8","","-8.9","","92","","","M","6","","11","","","","97.59","","","","-13","","NA"
"-87.94","52.20","LANSDOWNE HOUSE (AUT)","6014353","2019-02-24 05:00","2019","02","24","05:00","-7.7","","-8.8","","92","","","M","6","","16","","","","97.45","","","","-14","","NA"
"-87.94","52.20","LANSDOWNE HOUSE (AUT)","6014353","2019-02-24 06:00","2019","02","24","06:00","-7.3","","-8.5","","91","","","M","5","","13","","","","97.36","","","","-13","","NA"
"-87.94","52.20","LANSDOWNE HOUSE (AUT)","6014353","2019-02-24 07:00","2019","02","24","07:00","-7.4","","-8.7","","91","","","M","5","","13","","","","97.27","","","","-13","","NA"
"-87.94","52.20","LANSDOWNE HOUSE (AUT)","6014353","2019-02-24 08:00","2019","02","24","08:00","-7.9","","-9.2","","90","","","M","4","","11","","","","97.19","","","","-13","","NA"
"-87.94","52.20","LANSDOWNE HOUSE (AUT)","6014353","2019-02-24 09:00","2019","02","24","09:00","-7.5","","-8.9","","90","","","M","4","","16","","","","97.11","","","","-14","","NA"
"-87.94","52.20","LANSDOWNE HOUSE (AUT)","6014353","2019-02-24 10:00","2019","02","24","10:00","-7.3","","-8.6","","90","","","M","5","","16","","","","97.03","","","","-14","","NA"
"-87.94","52.20","LANSDOWNE HOUSE (AUT)","6014353","2019-02-24 11:00","2019","02","24","11:00","-6.7","","-8.4","","88","","","M","4","","21","","","","96.93","","","","-14","","NA"
"-87.94","52.20","LANSDOWNE HOUSE (AUT)","6014353","2019-02-24 12:00","2019","02","24","12:00","-6.8","","-8.8","","85","","","M","3","","19","","","","96.90","","","","-14","","NA"
"-87.94","52.20","LANSDOWNE HOUSE (AUT)","6014353","2019-02-24 13:00","2019","02","24","13:00","-7.4","","-9.0","","88","","","M","2","","20","","","","96.88","","","","-15","","NA"
"-87.94","52.20","LANSDOWNE HOUSE (AUT)","6014353","2019-02-24 14:00","2019","02","24","14:00","-8.1","","-10.2","","85","","","M","1","","19","","","","96.89","","","","-15","","NA"
"-87.94","52.20","LANSDOWNE HOUSE (AUT)","6014353","2019-02-24 15:00","2019","02","24","15:00","-8.7","","-11.0","","84","","","M","1","","22","","","","96.89","","","","-17","","NA"
"-87.94","52.20","LANSDOWNE HOUSE (AUT)","6014353","2019-02-24 16:00","2019","02","24","16:00","-11.0","","-13.8","","80","","","M","35","","24","","","","97.01","","","","-20","","NA"
"-87.94","52.20","LANSDOWNE HOUSE (AUT)","6014353","2019-02-24 17:00","2019","02","24","17:00","-13.0","","-15.7","","80","","","M","35","","25","","","","97.15","","","","-23","","NA"
"-87.94","52.20","LANSDOWNE HOUSE (AUT)","6014353","2019-02-24 18:00","2019","02","24","18:00","-15.3","","-18.4","","77","","","M","35","","24","","","","97.33","","","","-25","","NA"
"-87.94","52.20","LANSDOWNE HOUSE (AUT)","6014353","2019-02-24 19:00","2019","02","24","19:00","-17.1","","-20.6","","74","","","M","35","","28","","","","97.49","","","","-28","","NA"
"-87.94","52.20","LANSDOWNE HOUSE (AUT)","6014353","2019-02-24 20:00","2019","02","24","20:00","-18.4","","-21.9","","74","","","M","35","","21","","","","97.62","","","","-29","","NA"
"-87.94","52.20","LANSDOWNE HOUSE (AUT)","6014353","2019-02-24 21:00","2019","02","24","21:00","-19.1","","-22.5","","74","","","M","33","","15","","","","97.71","","","","-28","","NA"
"-87.94","52.20","LANSDOWNE HOUSE (AUT)","6014353","2019-02-24 22:00","2019","02","24","22:00","-19.9","","-23.8","","71","","","M","34","","16","","","","97.82","","","","-29","","NA"
"-87.94","52.20","LANSDOWNE HOUSE (AUT)","6014353","2019-02-24 23:00","2019","02","24","23:00","-20.4","","-24.3","","71","","","M","33","","14","","","","97.92","","","","-29","","NA"
"-87.94","52.20","LANSDOWNE HOUSE (AUT)","6014353","2019-02-25 00:00","2019","02","25","00:00","-21.2","","-25.1","","71","","","M","32","","14","","","","98.02","","","","-30","","NA"
"-87.94","52.20","LANSDOWNE HOUSE (AUT)","6014353","2019-02-25 01:00","2019","02","25","01:00","-23.5","","-27.9","","67","","","M","31","","18","","","","98.16","","","","-34","","NA"
"-87.94","52.20","LANSDOWNE HOUSE (AUT)","6014353","2019-02-25 02:00","2019","02","25","02:00","-24.9","","-29.2","","67","","","M","31","","16","","","","98.31","","","","-35","","NA"
"-87.94","52.20","LANSDOWNE HOUSE (AUT)","6014353","2019-02-25 03:00","2019","02","25","03:00","-26.1","","-29.9","","70","","","M","31","","11","","","","98.44","","","","-35","","NA"
"-87.94","52.20","LANSDOWNE HOUSE (AUT)","6014353","2019-02-25 04:00","2019","02","25","04:00","-26.8","","-30.6","","70","","","M","30","","19","","","","98.56","","","","-39","","NA"
"-87.94","52.20","LANSDOWNE HOUSE (AUT)","6014353","2019-02-25 05:00","2019","02","25","05:00","-27.8","","-31.5","","71","","","M","30","","15","","","","98.71","","","","-39","","NA"
"-87.94","52.20","LANSDOWNE HOUSE (AUT)","6014353","2019-02-25 06:00","2019","02","25","06:00","-28.7","","-32.4","","71","","","M","30","","17","","","","98.84","","","","-41","","NA"
"-87.94","52.20","LANSDOWNE HOUSE (AUT)","6014353","2019-02-25 07:00","2019","02","25","07:00","-29.4","","-33.1","","70","","","M","29","","14","","","","98.91","","","","-40","","NA"
"-87.94","52.20","LANSDOWNE HOUSE (AUT)","6014353","2019-02-25 08:00","2019","02","25","08:00","-29.8","","-33.4","","71","","","M","28","","12","","","","98.97","","","","-40","","NA"
"-87.94","52.20","LANSDOWNE HOUSE (AUT)","6014353","2019-02-25 09:00","2019","02","25","09:00","-29.1","","-33.1","","68","","","M","28","","14","","","","99.02","","","","-40","","NA"
"-87.94","52.20","LANSDOWNE HOUSE (AUT)","6014353","2019-02-25 10:00","2019","02","25","10:00","-27.7","","-32.4","","64","","","M","28","","17","","","","99.06","","","","-39","","NA"
"-87.94","52.20","LANSDOWNE HOUSE (AUT)","6014353","2019-02-25 11:00","2019","02","25","11:00","-25.7","","-31.1","","61","","","M","28","","15","","","","99.11","","","","-36","","NA"
"-87.94","52.20","LANSDOWNE HOUSE (AUT)","6014353","2019-02-25 12:00","2019","02","25","12:00","-24.1","","-30.1","","58","","","M","27","","15","","","","99.14","","","","-34","","NA"
"-87.94","52.20","LANSDOWNE HOUSE (AUT)","6014353","2019-02-25 13:00","2019","02","25","13:00","-22.8","","-29.3","","55","","","M","27","","21","","","","99.16","","","","-34","","NA"
"-87.94","52.20","LANSDOWNE HOUSE (AUT)","6014353","2019-02-25 14:00","2019","02","25","14:00","-22.3","","-28.8","","56","","","M","27","","19","","","","99.16","","","","-33","","NA"
"-87.94","52.20","LANSDOWNE HOUSE (AUT)","6014353","2019-02-25 15:00","2019","02","25","15:00","-21.6","","-29.1","","51","","","M","27","","21","","","","99.18","","","","-33","","NA"
"-87.94","52.20","LANSDOWNE HOUSE (AUT)","6014353","2019-02-25 16:00","2019","02","25","16:00","-21.1","","-28.3","","52","","","M","27","","18","","","","99.20","","","","-31","","NA"
"-87.94","52.20","LANSDOWNE HOUSE (AUT)","6014353","2019-02-25 17:00","2019","02","25","17:00","-21.3","","-27.8","","56","","","M","26","","19","","","","99.25","","","","-32","","NA"
"-87.94","52.20","LANSDOWNE HOUSE (AUT)","6014353","2019-02-25 18:00","2019","02","25","18:00","-21.9","","-28.0","","58","","","M","27","","16","","","","99.26","","","","-32","","NA"
"-87.94","52.20","LANSDOWNE HOUSE (AUT)","6014353","2019-02-25 19:00","2019","02","25","19:00","-22.8","","-28.2","","61","","","M","27","","10","","","","99.31","","","","-31","","NA"
"-87.94","52.20","LANSDOWNE HOUSE (AUT)","6014353","2019-02-25 20:00","2019","02","25","20:00","-24.1","","-28.5","","67","","","M","26","","10","","","","99.35","","","","-32","","NA"
"-87.94","52.20","LANSDOWNE HOUSE (AUT)","6014353","2019-02-25 21:00","2019","02","25","21:00","-25.4","","-29.9","","66","","","M","26","","10","","","","99.38","","","","-34","","NA"
"-87.94","52.20","LANSDOWNE HOUSE (AUT)","6014353","2019-02-25 22:00","2019","02","25","22:00","-26.1","","-29.5","","73","","","M","25","","12","","","","99.38","","","","-35","","NA"
"-87.94","52.20","LANSDOWNE HOUSE (AUT)","6014353","2019-02-25 23:00","2019","02","25","23:00","-27.4","","-30.0","","78","","","M","25","","12","","","","99.37","","","","-37","","NA"
"-87.94","52.20","LANSDOWNE HOUSE (AUT)","6014353","2019-02-26 00:00","2019","02","26","00:00","-27.9","","-30.4","","79","","","M","25","","8","","","","99.37","","","","-36","","NA"
"-87.94","52.20","LANSDOWNE HOUSE (AUT)","6014353","2019-02-26 01:00","2019","02","26","01:00","-24.9","","-28.0","","76","","","M","26","","14","","","","99.42","","","","-35","","NA"
"-87.94","52.20","LANSDOWNE HOUSE (AUT)","6014353","2019-02-26 02:00","2019","02","26","02:00","-25.6","","-28.6","","75","","","M","27","","10","","","","99.47","","","","-34","","NA"
"-87.94","52.20","LANSDOWNE HOUSE (AUT)","6014353","2019-02-26 03:00","2019","02","26","03:00","-26.2","","-29.1","","77","","","M","26","","11","","","","99.50","","","","-35","","NA"
"-87.94","52.20","LANSDOWNE HOUSE (AUT)","6014353","2019-02-26 04:00","2019","02","26","04:00","-27.6","","-30.4","","77","","","M","25","","14","","","","99.52","","","","-38","","NA"
"-87.94","52.20","LANSDOWNE HOUSE (AUT)","6014353","2019-02-26 05:00","2019","02","26","05:00","-28.2","","-31.0","","77","","","M","25","","12","","","","99.52","","","","-38","","NA"
"-87.94","52.20","LANSDOWNE HOUSE (AUT)","6014353","2019-02-26 06:00","2019","02","26","06:00","-27.8","","-30.7","","76","","","M","25","","13","","","","99.54","","","","-38","","NA"
"-87.94","52.20","LANSDOWNE HOUSE (AUT)","6014353","2019-02-26 07:00","2019","02","26","07:00","-27.6","","-30.7","","75","","","M","23","","11","","","","99.54","","","","-37","","NA"
"-87.94","52.20","LANSDOWNE HOUSE (AUT)","6014353","2019-02-26 08:00","2019","02","26","08:00","-27.8","","-30.9","","75","","","M","23","","14","","","","99.54","","","","-38","","NA"
"-87.94","52.20","LANSDOWNE HOUSE (AUT)","6014353","2019-02-26 09:00","2019","02","26","09:00","-26.5","","-30.0","","72","","","M","24","","16","","","","99.51","","","","-37","","NA"
"-87.94","52.20","LANSDOWNE HOUSE (AUT)","6014353","2019-02-26 10:00","2019","02","26","10:00","-24.1","","-28.4","","68","","","M","24","","18","","","","99.49","","","","-35","","NA"
"-87.94","52.20","LANSDOWNE HOUSE (AUT)","6014353","2019-02-26 11:00","2019","02","26","11:00","-21.4","","-27.1","","60","","","M","24","","21","","","","99.48","","","","-32","","NA"
"-87.94","52.20","LANSDOWNE HOUSE (AUT)","6014353","2019-02-26 12:00","2019","02","26","12:00","-19.4","","-25.7","","57","","","M","25","","24","","","","99.49","","","","-31","","NA"
"-87.94","52.20","LANSDOWNE HOUSE (AUT)","6014353","2019-02-26 13:00","2019","02","26","13:00","-17.8","","-25.1","","53","","","M","26","","26","","","","99.44","","","","-29","","NA"
"-87.94","52.20","LANSDOWNE HOUSE (AUT)","6014353","2019-02-26 14:00","2019","02","26","14:00","-16.0","","-23.9","","50","","","M","25","","19","","","","99.38","","","","-25","","NA"
"-87.94","52.20","LANSDOWNE HOUSE (AUT)","6014353","2019-02-26 15:00","2019","02","26","15:00","-14.8","","-23.1","","49","","","M","25","","20","","","","99.33","","","","-24","","NA"
"-87.94","52.20","LANSDOWNE HOUSE (AUT)","6014353","2019-02-26 16:00","2019","02","26","16:00","-13.8","","-22.4","","49","","","M","25","","19","","","","99.31","","","","-22","","NA"
"-87.94","52.20","LANSDOWNE HOUSE (AUT)","6014353","2019-02-26 17:00","2019","02","26","17:00","-13.7","","-22.7","","46","","","M","24","","21","","","","99.22","","","","-23","","NA"
"-87.94","52.20","LANSDOWNE HOUSE (AUT)","6014353","2019-02-26 18:00","2019","02","26","18:00","-13.6","","-21.9","","50","","","M","23","","18","","","","99.19","","","","-22","","NA"
"-87.94","52.20","LANSDOWNE HOUSE (AUT)","6014353","2019-02-26 19:00","2019","02","26","19:00","-15.3","","-22.2","","56","","","M","22","","12","","","","99.17","","","","-22","","NA"
"-87.94","52.20","LANSDOWNE HOUSE (AUT)","6014353","2019-02-26 20:00","2019","02","26","20:00","-15.7","","-21.8","","60","","","M","22","","16","","","","99.14","","","","-24","","NA"
"-87.94","52.20","LANSDOWNE HOUSE (AUT)","6014353","2019-02-26 21:00","2019","02","26","21:00","-16.4","","-22.0","","62","","","M","21","","19","","","","99.06","","","","-26","","NA"
"-87.94","52.20","LANSDOWNE HOUSE (AUT)","6014353","2019-02-26 22:00","2019","02","26","22:00","-16.4","","-21.5","","65","","","M","23","","18","","","","99.04","","","","-25","","NA"
"-87.94","52.20","LANSDOWNE HOUSE (AUT)","6014353","2019-02-26 23:00","2019","02","26","23:00","-16.0","","-21.4","","63","","","M","23","","19","","","","99.02","","","","-25","","NA"
"-87.94","52.20","LANSDOWNE HOUSE (AUT)","6014353","2019-02-27 00:00","2019","02","27","00:00","-16.4","","-21.8","","63","","","M","24","","19","","","","99.02","","","","-26","","NA"
"-87.94","52.20","LANSDOWNE HOUSE (AUT)","6014353","2019-02-27 01:00","2019","02","27","01:00","-17.7","","-22.6","","65","","","M","24","","15","","","","99.01","","","","-26","","NA"
"-87.94","52.20","LANSDOWNE HOUSE (AUT)","6014353","2019-02-27 02:00","2019","02","27","02:00","-18.4","","-23.1","","66","","","M","23","","15","","","","98.99","","","","-27","","NA"
"-87.94","52.20","LANSDOWNE HOUSE (AUT)","6014353","2019-02-27 03:00","2019","02","27","03:00","-18.7","","-23.2","","67","","","M","24","","18","","","","98.95","","","","-28","","NA"
"-87.94","52.20","LANSDOWNE HOUSE (AUT)","6014353","2019-02-27 04:00","2019","02","27","04:00","-19.1","","-23.7","","67","","","M","24","","19","","","","98.94","","","","-29","","NA"
"-87.94","52.20","LANSDOWNE HOUSE (AUT)","6014353","2019-02-27 05:00","2019","02","27","05:00","-19.5","","-24.3","","66","","","M","24","","17","","","","98.91","","","","-29","","NA"
"-87.94","52.20","LANSDOWNE HOUSE (AUT)","6014353","2019-02-27 06:00","2019","02","27","06:00","-19.9","","-24.9","","64","","","M","24","","20","","","","98.85","","","","-30","","NA"
"-87.94","52.20","LANSDOWNE HOUSE (AUT)","6014353","2019-02-27 07:00","2019","02","27","07:00","-21.0","","-25.7","","65","","","M","24","","18","","","","98.81","","","","-31","","NA"
"-87.94","52.20","LANSDOWNE HOUSE (AUT)","6014353","2019-02-27 08:00","2019","02","27","08:00","-21.7","","-26.2","","67","","","M","23","","17","","","","98.76","","","","-32","","NA"
"-87.94","52.20","LANSDOWNE HOUSE (AUT)","6014353","2019-02-27 09:00","2019","02","27","09:00","-20.4","","-25.7","","62","","","M","23","","18","","","","98.73","","","","-30","","NA"
"-87.94","52.20","LANSDOWNE HOUSE (AUT)","6014353","2019-02-27 10:00","2019","02","27","10:00","-18.9","","-25.3","","57","","","M","25","","20","","","","98.63","","","","-29","","NA"
"-87.94","52.20","LANSDOWNE HOUSE (AUT)","6014353","2019-02-27 11:00","2019","02","27","11:00","-16.7","","-24.6","","50","","","M","26","","15","","","","98.58","","","","-25","","NA"
"-87.94","52.20","LANSDOWNE HOUSE (AUT)","6014353","2019-02-27 12:00","2019","02","27","12:00","-14.4","","-23.6","","46","","","M","25","","18","","","","98.51","","","","-23","","NA"
"-87.94","52.20","LANSDOWNE HOUSE (AUT)","6014353","2019-02-27 13:00","2019","02","27","13:00","-13.1","","-23.8","","40","","","M","26","","22","","","","98.46","","","","-22","","NA"
"-87.94","52.20","LANSDOWNE HOUSE (AUT)","6014353","2019-02-27 14:00","2019","02","27","14:00","-12.0","","-23.4","","38","","","M","25","","20","","","","98.41","","","","-20","","NA"
"-87.94","52.20","LANSDOWNE HOUSE (AUT)","6014353","2019-02-27 15:00","2019","02","27","15:00","-11.1","","-22.9","","37","","","M","25","","20","","","","98.35","","","","-19","","NA"
"-87.94","52.20","LANSDOWNE HOUSE (AUT)","6014353","2019-02-27 16:00","2019","02","27","16:00","-10.6","","-23.3","","34","","","M","25","","19","","","","98.30","","","","-18","","NA"
"-87.94","52.20","LANSDOWNE HOUSE (AUT)","6014353","2019-02-27 17:00","2019","02","27","17:00","-10.7","","-23.3","","35","","","M","25","","16","","","","98.26","","","","-18","","NA"
"-87.94","52.20","LANSDOWNE HOUSE (AUT)","6014353","2019-02-27 18:00","2019","02","27","18:00","-11.6","","-22.5","","40","","","M","23","","8","","","","98.22","","","","-16","","NA"
"-87.94","52.20","LANSDOWNE HOUSE (AUT)","6014353","2019-02-27 19:00","2019","02","27","19:00","-12.9","","-23.0","","43","","","M","21","","9","","","","98.25","","","","-18","","NA"
"-87.94","52.20","LANSDOWNE HOUSE (AUT)","6014353","2019-02-27 20:00","2019","02","27","20:00","-14.0","","-22.0","","51","","","M","23","","7","","","","98.27","","","","-19","","NA"
"-87.94","52.20","LANSDOWNE HOUSE (AUT)","6014353","2019-02-27 21:00","2019","02","27","21:00","-13.1","","-22.0","","47","","","M","19","","6","","","","98.22","","","","-17","","NA"
"-87.94","52.20","LANSDOWNE HOUSE (AUT)","6014353","2019-02-27 22:00","2019","02","27","22:00","-15.5","","-22.7","","54","","","M","22","","7","","","","98.19","","","","-20","","NA"
"-87.94","52.20","LANSDOWNE HOUSE (AUT)","6014353","2019-02-27 23:00","2019","02","27","23:00","-14.5","","-21.7","","54","","","M","21","","7","","","","98.17","","","","-19","","NA"
"-87.94","52.20","LANSDOWNE HOUSE (AUT)","6014353","2019-02-28 00:00","2019","02","28","00:00","-17.3","","-23.2","","60","","","M","21","","8","","","","98.18","","","","-23","","NA"
"-87.94","52.20","LANSDOWNE HOUSE (AUT)","6014353","2019-02-28 01:00","2019","02","28","01:00","-18.5","","-22.7","","70","","","M","23","","8","","","","98.19","","","","-24","","NA"
"-87.94","52.20","LANSDOWNE HOUSE (AUT)","6014353","2019-02-28 02:00","2019","02","28","02:00","-19.2","","-23.0","","72","","","M","23","","7","","","","98.19","","","","-25","","NA"
"-87.94","52.20","LANSDOWNE HOUSE (AUT)","6014353","2019-02-28 03:00","2019","02","28","03:00","-21.3","","-24.0","","78","","","M","21","","6","","","","98.19","","","","-27","","NA"
"-87.94","52.20","LANSDOWNE HOUSE (AUT)","6014353","2019-02-28 04:00","2019","02","28","04:00","-21.9","","-24.1","","82","","","M","20","","7","","","","98.16","","","","-28","","NA"
"-87.94","52.20","LANSDOWNE HOUSE (AUT)","6014353","2019-02-28 05:00","2019","02","28","05:00","-22.6","","-25.5","","77","","","M","20","","8","","","","98.15","","","","-29","","NA"
"-87.94","52.20","LANSDOWNE HOUSE (AUT)","6014353","2019-02-28 06:00","2019","02","28","06:00","-20.3","","-23.5","","75","","","M","19","","9","","","","98.10","","","","-27","","NA"
"-87.94","52.20","LANSDOWNE HOUSE (AUT)","6014353","2019-02-28 07:00","2019","02","28","07:00","-20.3","","-23.3","","76","","","M","17","","9","","","","98.03","","","","-27","","NA"
"-87.94","52.20","LANSDOWNE HOUSE (AUT)","6014353","2019-02-28 08:00","2019","02","28","08:00","-19.5","","-22.6","","76","","","M","18","","10","","","","98.01","","","","-27","","NA"
"-87.94","52.20","LANSDOWNE HOUSE (AUT)","6014353","2019-02-28 09:00","2019","02","28","09:00","-18.5","","-21.8","","75","","","M","21","","12","","","","97.99","","","","-26","","NA"
"-87.94","52.20","LANSDOWNE HOUSE (AUT)","6014353","2019-02-28 10:00","2019","02","28","10:00","-16.8","","-19.8","","77","","","M","20","","9","","","","97.94","","","","-23","","NA"
"-87.94","52.20","LANSDOWNE HOUSE (AUT)","6014353","2019-02-28 11:00","2019","02","28","11:00","-16.3","","-19.9","","73","","","M","21","","12","","","","97.89","","","","-24","","NA"
"-87.94","52.20","LANSDOWNE HOUSE (AUT)","6014353","2019-02-28 12:00","2019","02","28","12:00","-15.0","","-19.8","","67","","","M","18","","12","","","","97.86","","","","-22","","NA"
"-87.94","52.20","LANSDOWNE HOUSE (AUT)","6014353","2019-02-28 13:00","2019","02","28","13:00","-13.1","","-19.0","","61","","","M","23","","9","","","","97.85","","","","-19","","NA"
"-87.94","52.20","LANSDOWNE HOUSE (AUT)","6014353","2019-02-28 14:00","2019","02","28","14:00","-11.9","","-18.9","","56","","","M","25","","10","","","","97.82","","","","-18","","NA"
"-87.94","52.20","LANSDOWNE HOUSE (AUT)","6014353","2019-02-28 15:00","2019","02","28","15:00","-11.3","","-18.1","","57","","","M","26","","13","","","","97.84","","","","-18","","NA"
"-87.94","52.20","LANSDOWNE HOUSE (AUT)","6014353","2019-02-28 16:00","2019","02","28","16:00","-11.2","","-15.6","","70","","","M","26","","11","","","","97.88","","","","-17","","NA"
"-87.94","52.20","LANSDOWNE HOUSE (AUT)","6014353","2019-02-28 17:00","2019","02","28","17:00","-11.6","","-14.6","","78","","","M","31","","6","","","","97.90","","","","-15","","NA"
"-87.94","52.20","LANSDOWNE HOUSE (AUT)","6014353","2019-02-28 18:00","2019","02","28","18:00","-11.5","","-14.6","","78","","","M","0","","1","","","","97.96","","","","-12","","NA"
"-87.94","52.20","LANSDOWNE HOUSE (AUT)","6014353","2019-02-28 19:00","2019","02","28","19:00","-15.0","","-17.2","","84","","","M","23","","2","","","","98.02","","","","-16","","NA"
"-87.94","52.20","LANSDOWNE HOUSE (AUT)","6014353","2019-02-28 20:00","2019","02","28","20:00","-15.4","","-16.7","","89","","","M","32","","4","","","","98.06","","","","-18","","NA"
"-87.94","52.20","LANSDOWNE HOUSE (AUT)","6014353","2019-02-28 21:00","2019","02","28","21:00","-18.7","","-20.8","","84","","","M","26","","3","","","","98.08","","","","-21","","NA"
"-87.94","52.20","LANSDOWNE HOUSE (AUT)","6014353","2019-02-28 22:00","2019","02","28","22:00","-18.7","","-20.7","","84","","","M","28","","4","","","","98.12","","","","-22","","NA"
"-87.94","52.20","LANSDOWNE HOUSE (AUT)","6014353","2019-02-28 23:00","2019","02","28","23:00","-21.9","","-24.2","","82","","","M","31","","3","","","","98.14","","","","-25","","NA"
