"Longitude (x)","Latitude (y)","Station Name","Climate ID","Date/Time (LST)","Year","Month","Day","Time (LST)","Temp (°C)","Temp Flag","Dew Point Temp (°C)","Dew Point Temp Flag","Rel Hum (%)","Rel Hum Flag","Precip. Amount (mm)","Precip. Amount Flag","Wind Dir (10s deg)","Wind Dir Flag","Wind Spd (km/h)","Wind Spd Flag","Visibility (km)","Visibility Flag","Stn Press (kPa)","Stn Press Flag","Hmdx","Hmdx Flag","Wind Chill","Wind Chill Flag","Weather"
"-105.14","69.11","CAMBRIDGE BAY A","2400600","2012-02-01 00:00","2012","02","01","00:00","-32.7","","-37.6","","62","","","","27","","7","","17.7","","100.29","","","","-40","","Ice Crystals"
"-105.14","69.11","CAMBRIDGE BAY A","2400600","2012-02-01 01:00","2012","02","01","01:00","-33.4","","-38.5","","60","","","","25","","15","","17.7","","100.32","","","","-46","","Ice Crystals"
"-105.14","69.11","CAMBRIDGE BAY A","2400600","2012-02-01 02:00","2012","02","01","02:00","-33.7","","-38.6","","61","","","","24","","13","","16.1","","100.36","","","","-45","","Ice Crystals"
"-105.14","69.11","CAMBRIDGE BAY A","2400600","2012-02-01 03:00","2012","02","01","03:00","-33.6","","-38.9","","59","","","","25","","11","","19.3","","100.41","","","","-44","","Ice Crystals"
"-105.14","69.11","CAMBRIDGE BAY A","2400600","2012-02-01 04:00","2012","02","01","04:00","-33.9","","-39.1","","59","","","","23","","4","","19.3","","100.43","","","","-39","","Ice Crystals"
"-105.14","69.11","CAMBRIDGE BAY A","2400600","2012-02-01 05:00","2012","02","01","05:00","-34.4","","-39.4","","60","","","","24","","11","","19.3","","100.49","","","","-45","","Ice Crystals"
"-105.14","69.11","CAMBRIDGE BAY A","2400600","2012-02-01 06:00","2012","02","01","06:00","-35.2","","-40.3","","60","","","","","","0","","19.3","","100.52","","","","","","Ice Crystals"
"-105.14","69.11","CAMBRIDGE BAY A","2400600","2012-02-01 07:00","2012","02","01","07:00","-34.1","","-39.2","","60","","","","24","","4","","19.3","","100.55","","","","-39","","Ice Crystals"
"-105.14","69.11","CAMBRIDGE BAY A","2400600","2012-02-01 08:00","2012","02","01","08:00","-34.5","","-39.6","","60","","","","21","","7","","19.3","","100.57","","","","-43","","Ice Crystals"
"-105.14","69.11","CAMBRIDGE BAY A","2400600","2012-02-01 09:00","2012","02","01","09:00","-34.7","","-40.2","","57","","","","","","0","","24.1","","100.58","","","","","","Ice Crystals"
"-105.14","69.11","CAMBRIDGE BAY A","2400600","2012-02-01 10:00","2012","02","01","10:00","-33.8","","-38.9","","60","","","","13","","4","","24.1","","100.58","","","","-39","","Ice Crystals"
"-105.14","69.11","CAMBRIDGE BAY A","2400600","2012-02-01 11:00","2012","02","01","11:00","-32.9","","-37.7","","62","","","","","","0","","24.1","","100.65","","","","","","Ice Crystals"
"-105.14","69.11","CAMBRIDGE BAY A","2400600","2012-02-01 12:00","2012","02","01","12:00","-32.4","","-37.6","","60","","","","4","","7","","24.1","","100.66","","","","-40","","Ice Crystals"
"-105.14","69.11","CAMBRIDGE BAY A","2400600","2012-02-01 13:00","2012","02","01","13:00","-31.6","","-36.6","","61","","","","","","0","","24.1","","100.70","","","","","","Ice Crystals"
"-105.14","69.11","CAMBRIDGE BAY A","2400600","2012-02-01 14:00","2012","02","01","14:00","-30.7","","-35.6","","62","","","","10","","7","","24.1","","100.70","","","","-38","","Ice Crystals"
"-105.14","69.11","CAMBRIDGE BAY A","2400600","2012-02-01 15:00","2012","02","01","15:00","-30.0","","-34.9","","62","","","","","","0","","24.1","","100.76","","","","","","Ice Crystals"
"-105.14","69.11","CAMBRIDGE BAY A","2400600","2012-02-01 16:00","2012","02","01","16:00","-30.0","","-34.9","","62","","","","12","","6","","24.1","","100.81","","","","-37","","Ice Crystals"
"-105.14","69.11","CAMBRIDGE BAY A","2400600","2012-02-01 17:00","2012","02","01","17:00","-29.7","","-34.7","","62","","","","36","","4","","24.1","","100.88","","","","-34","","Ice Crystals"
"-105.14","69.11","CAMBRIDGE BAY A","2400600","2012-02-01 18:00","2012","02","01","18:00","-29.3","","-34.5","","61","","","","9","","6","","24.1","","100.89","","","","-36","","Ice Crystals"
"-105.14","69.11","CAMBRIDGE BAY A","2400600","2012-02-01 19:00","2012","02","01","19:00","-28.4","","-33.3","","63","","","","20","","4","","19.3","","100.95","","","","-33","","Snow"
"-105.14","69.11","CAMBRIDGE BAY A","2400600","2012-02-01 20:00","2012","02","01","20:00","-29.7","","-34.7","","62","","","","18","","7","","24.1","","100.96","","","","-37","","Mainly Clear"
"-105.14","69.11","CAMBRIDGE BAY A","2400600","2012-02-01 21:00","2012","02","01","21:00","-29.1","","-33.8","","64","","","","19","","6","","24.1","","101.00","","","","-35","","Mostly Cloudy"
"-105.14","69.11","CAMBRIDGE BAY A","2400600","2012-02-01 22:00","2012","02","01","22:00","-28.2","","-33.1","","63","","","","","","0","","19.3","","101.04","","","","","","Snow"
"-105.14","69.11","CAMBRIDGE BAY A","2400600","2012-02-01 23:00","2012","02","01","23:00","-27.0","","-31.7","","64","","","","22","","9","","16.1","","101.07","","","","-35","","Snow"
"-105.14","69.11","CAMBRIDGE BAY A","2400600","2012-02-02 00:00","2012","02","02","00:00","-24.8","","-29.1","","67","","","","24","","15","","16.1","","101.15","","","","-35","","Snow"
"-105.14","69.11","CAMBRIDGE BAY A","2400600","2012-02-02 01:00","2012","02","02","01:00","-26.1","","-30.6","","66","","","","25","","9","","19.3","","101.18","","","","-34","","Snow"
"-105.14","69.11","CAMBRIDGE BAY A","2400600","2012-02-02 02:00","2012","02","02","02:00","-27.2","","-32.0","","64","","","","24","","11","","19.3","","101.21","","","","-36","","Snow"
"-105.14","69.11","CAMBRIDGE BAY A","2400600","2012-02-02 03:00","2012","02","02","03:00","-28.7","","-33.7","","62","","","","22","","13","","24.1","","101.24","","","","-39","","Mainly Clear"
"-105.14","69.11","CAMBRIDGE BAY A","2400600","2012-02-02 04:00","2012","02","02","04:00","-28.6","","-33.4","","63","","","","21","","7","","24.1","","101.26","","","","-36","","Mainly Clear"
"-105.14","69.11","CAMBRIDGE BAY A","2400600","2012-02-02 05:00","2012","02","02","05:00","-28.6","","-33.7","","61","","","","21","","4","","24.1","","101.27","","","","-33","","Mainly Clear"
"-105.14","69.11","CAMBRIDGE BAY A","2400600","2012-02-02 06:00","2012","02","02","06:00","-29.9","","-34.9","","62","","","","18","","11","","24.1","","101.25","","","","-40","","Mainly Clear"
"-105.14","69.11","CAMBRIDGE BAY A","2400600","2012-02-02 07:00","2012","02","02","07:00","-28.7","","-33.2","","65","","","","17","","13","","24.1","","101.15","","","","-39","","Mainly Clear"
"-105.14","69.11","CAMBRIDGE BAY A","2400600","2012-02-02 08:00","2012","02","02","08:00","-27.5","","-32.6","","62","","","","15","","15","","24.1","","101.09","","","","-38","","Mostly Cloudy"
"-105.14","69.11","CAMBRIDGE BAY A","2400600","2012-02-02 09:00","2012","02","02","09:00","-25.2","","-29.9","","65","","","","14","","17","","8.0","","101.02","","","","-36","","Snow,Fog"
"-105.14","69.11","CAMBRIDGE BAY A","2400600","2012-02-02 10:00","2012","02","02","10:00","-22.5","","-27.1","","66","","","","14","","24","","2.0","","100.88","","","","-35","","Snow,Fog"
"-105.14","69.11","CAMBRIDGE BAY A","2400600","2012-02-02 11:00","2012","02","02","11:00","-21.4","","-25.8","","68","","","","15","","28","","0.8","","100.69","","","","-34","","Snow,Blowing Snow"
"-105.14","69.11","CAMBRIDGE BAY A","2400600","2012-02-02 12:00","2012","02","02","12:00","-20.6","","-24.7","","70","","","","15","","37","","0.2","","100.52","","","","-34","","Blowing Snow"
"-105.14","69.11","CAMBRIDGE BAY A","2400600","2012-02-02 13:00","2012","02","02","13:00","-20.5","","-24.7","","69","","","","16","","43","","0.4","","100.29","","","","-35","","Blowing Snow"
"-105.14","69.11","CAMBRIDGE BAY A","2400600","2012-02-02 14:00","2012","02","02","14:00","-20.1","","-24.5","","68","","","","16","","48","","0.4","","100.07","","","","-35","","Blowing Snow"
"-105.14","69.11","CAMBRIDGE BAY A","2400600","2012-02-02 15:00","2012","02","02","15:00","-19.2","","-23.3","","70","","","","16","","50","","0.2","","99.87","","","","-34","","Blowing Snow"
"-105.14","69.11","CAMBRIDGE BAY A","2400600","2012-02-02 16:00","2012","02","02","16:00","-18.3","","-22.2","","71","","","","16","","46","","0.4","","99.67","","","","-33","","Blowing Snow"
"-105.14","69.11","CAMBRIDGE BAY A","2400600","2012-02-02 17:00","2012","02","02","17:00","-17.2","","-20.8","","74","","","","15","","33","","2.4","","99.50","","","","-29","","Blowing Snow"
"-105.14","69.11","CAMBRIDGE BAY A","2400600","2012-02-02 18:00","2012","02","02","18:00","-16.2","","-19.8","","74","","","","18","","46","","1.2","","99.29","","","","-30","","Blowing Snow"
"-105.14","69.11","CAMBRIDGE BAY A","2400600","2012-02-02 19:00","2012","02","02","19:00","-15.2","","-18.4","","76","","","","18","","48","","2.8","","99.12","","","","-29","","Blowing Snow"
"-105.14","69.11","CAMBRIDGE BAY A","2400600","2012-02-02 20:00","2012","02","02","20:00","-15.0","","-17.9","","78","","","","17","","37","","3.2","","99.04","","","","-27","","Blowing Snow"
"-105.14","69.11","CAMBRIDGE BAY A","2400600","2012-02-02 21:00","2012","02","02","21:00","-14.0","","-17.1","","77","","","","17","","43","","3.2","","98.90","","","","-26","","Blowing Snow"
"-105.14","69.11","CAMBRIDGE BAY A","2400600","2012-02-02 22:00","2012","02","02","22:00","-12.9","","-15.3","","82","","","","18","","43","","3.2","","98.84","","","","-25","","Blowing Snow"
"-105.14","69.11","CAMBRIDGE BAY A","2400600","2012-02-02 23:00","2012","02","02","23:00","-12.0","","-14.4","","82","","","","20","","33","","6.4","","98.77","","","","-23","","Snow"
"-105.14","69.11","CAMBRIDGE BAY A","2400600","2012-02-03 00:00","2012","02","03","00:00","-10.3","","-12.2","","86","","","","23","","33","","9.7","","98.81","","","","-20","","Snow"
"-105.14","69.11","CAMBRIDGE BAY A","2400600","2012-02-03 01:00","2012","02","03","01:00","-14.3","","-16.4","","84","","","","26","","39","","4.8","","98.92","","","","-26","","Snow,Blowing Snow"
"-105.14","69.11","CAMBRIDGE BAY A","2400600","2012-02-03 02:00","2012","02","03","02:00","-15.3","","-17.4","","84","","","","28","","41","","4.8","","99.06","","","","-28","","Snow,Blowing Snow"
"-105.14","69.11","CAMBRIDGE BAY A","2400600","2012-02-03 03:00","2012","02","03","03:00","-15.4","","-17.6","","83","","","","28","","33","","6.4","","99.22","","","","-27","","Snow,Blowing Snow"
"-105.14","69.11","CAMBRIDGE BAY A","2400600","2012-02-03 04:00","2012","02","03","04:00","-17.5","","-19.7","","83","","","","28","","37","","4.8","","99.37","","","","-30","","Snow,Blowing Snow"
"-105.14","69.11","CAMBRIDGE BAY A","2400600","2012-02-03 05:00","2012","02","03","05:00","-19.7","","-22.4","","79","","","","29","","28","","4.0","","99.55","","","","-32","","Snow,Blowing Snow"
"-105.14","69.11","CAMBRIDGE BAY A","2400600","2012-02-03 06:00","2012","02","03","06:00","-21.1","","-23.9","","78","","","","30","","35","","2.4","","99.62","","","","-35","","Snow,Blowing Snow"
"-105.14","69.11","CAMBRIDGE BAY A","2400600","2012-02-03 07:00","2012","02","03","07:00","-22.4","","-25.1","","79","","","","30","","33","","2.4","","99.75","","","","-36","","Snow,Blowing Snow"
"-105.14","69.11","CAMBRIDGE BAY A","2400600","2012-02-03 08:00","2012","02","03","08:00","-23.0","","-27.6","","66","","","","27","","37","","2.4","","99.96","","","","-38","","Snow,Blowing Snow"
"-105.14","69.11","CAMBRIDGE BAY A","2400600","2012-02-03 09:00","2012","02","03","09:00","-23.7","","-28.1","","67","","","","28","","30","","4.0","","100.09","","","","-37","","Snow,Blowing Snow"
"-105.14","69.11","CAMBRIDGE BAY A","2400600","2012-02-03 10:00","2012","02","03","10:00","-23.6","","-28.1","","66","","","","29","","28","","6.4","","100.25","","","","-37","","Fog"
"-105.14","69.11","CAMBRIDGE BAY A","2400600","2012-02-03 11:00","2012","02","03","11:00","-23.5","","-28.2","","65","","","","30","","19","","12.9","","100.34","","","","-35","","Mostly Cloudy"
"-105.14","69.11","CAMBRIDGE BAY A","2400600","2012-02-03 12:00","2012","02","03","12:00","-23.7","","-28.4","","65","","","","29","","19","","16.1","","100.48","","","","-35","","Mostly Cloudy"
"-105.14","69.11","CAMBRIDGE BAY A","2400600","2012-02-03 13:00","2012","02","03","13:00","-24.4","","-29.1","","65","","","","29","","26","","16.1","","100.60","","","","-37","","Mainly Clear"
"-105.14","69.11","CAMBRIDGE BAY A","2400600","2012-02-03 14:00","2012","02","03","14:00","-23.8","","-28.5","","65","","","","32","","15","","16.1","","100.72","","","","-34","","Mainly Clear"
"-105.14","69.11","CAMBRIDGE BAY A","2400600","2012-02-03 15:00","2012","02","03","15:00","-24.7","","-29.5","","64","","","","30","","20","","16.1","","100.81","","","","-36","","Mostly Cloudy"
"-105.14","69.11","CAMBRIDGE BAY A","2400600","2012-02-03 16:00","2012","02","03","16:00","-24.2","","-29.2","","63","","","","34","","19","","16.1","","100.82","","","","-36","","Mostly Cloudy"
"-105.14","69.11","CAMBRIDGE BAY A","2400600","2012-02-03 17:00","2012","02","03","17:00","-24.1","","-28.9","","64","","","","33","","15","","16.1","","100.95","","","","-34","","Mostly Cloudy"
"-105.14","69.11","CAMBRIDGE BAY A","2400600","2012-02-03 18:00","2012","02","03","18:00","-26.1","","-30.9","","64","","","","2","","13","","16.1","","100.98","","","","-36","","Mainly Clear"
"-105.14","69.11","CAMBRIDGE BAY A","2400600","2012-02-03 19:00","2012","02","03","19:00","-26.6","","-31.9","","61","","","","4","","13","","16.1","","100.99","","","","-36","","Mainly Clear"
"-105.14","69.11","CAMBRIDGE BAY A","2400600","2012-02-03 20:00","2012","02","03","20:00","-27.0","","-32.1","","62","","","","5","","15","","24.1","","101.00","","","","-38","","Mostly Cloudy"
"-105.14","69.11","CAMBRIDGE BAY A","2400600","2012-02-03 21:00","2012","02","03","21:00","-27.8","","-33.0","","61","","","","6","","22","","24.1","","100.86","","","","-41","","Mostly Cloudy"
"-105.14","69.11","CAMBRIDGE BAY A","2400600","2012-02-03 22:00","2012","02","03","22:00","-27.8","","-32.8","","62","","","","7","","32","","24.1","","100.74","","","","-43","","Mostly Cloudy"
"-105.14","69.11","CAMBRIDGE BAY A","2400600","2012-02-03 23:00","2012","02","03","23:00","-27.8","","-33.1","","61","","","","8","","32","","24.1","","100.68","","","","-43","","Cloudy"
"-105.14","69.11","CAMBRIDGE BAY A","2400600","2012-02-04 00:00","2012","02","04","00:00","-27.5","","-32.7","","61","","","","9","","26","","24.1","","100.69","","","","-41","","Cloudy"
"-105.14","69.11","CAMBRIDGE BAY A","2400600","2012-02-04 01:00","2012","02","04","01:00","-27.2","","-32.0","","64","","","","9","","32","","24.1","","100.42","","","","-42","","Cloudy"
"-105.14","69.11","CAMBRIDGE BAY A","2400600","2012-02-04 02:00","2012","02","04","02:00","-26.7","","-31.6","","63","","","","9","","41","","4.8","","100.31","","","","-43","","Blowing Snow"
"-105.14","69.11","CAMBRIDGE BAY A","2400600","2012-02-04 03:00","2012","02","04","03:00","-26.0","","-30.6","","65","","","","8","","43","","4.8","","100.05","","","","-43","","Blowing Snow"
"-105.14","69.11","CAMBRIDGE BAY A","2400600","2012-02-04 04:00","2012","02","04","04:00","-25.8","","-30.4","","65","","","","7","","43","","2.4","","99.94","","","","-42","","Snow,Blowing Snow"
"-105.14","69.11","CAMBRIDGE BAY A","2400600","2012-02-04 05:00","2012","02","04","05:00","-25.2","","-29.7","","66","","","","7","","46","","1.6","","99.83","","","","-42","","Snow,Blowing Snow"
"-105.14","69.11","CAMBRIDGE BAY A","2400600","2012-02-04 06:00","2012","02","04","06:00","-24.9","","-29.6","","65","","","","6","","44","","1.6","","99.85","","","","-41","","Snow,Blowing Snow"
"-105.14","69.11","CAMBRIDGE BAY A","2400600","2012-02-04 07:00","2012","02","04","07:00","-24.9","","-29.8","","64","","","","5","","50","","0.8","","99.86","","","","-42","","Snow,Blowing Snow"
"-105.14","69.11","CAMBRIDGE BAY A","2400600","2012-02-04 08:00","2012","02","04","08:00","-24.6","","-29.2","","66","","","","6","","46","","0.6","","99.95","","","","-41","","Snow,Blowing Snow"
"-105.14","69.11","CAMBRIDGE BAY A","2400600","2012-02-04 09:00","2012","02","04","09:00","-24.4","","-29.3","","64","","","","4","","46","","0.6","","100.17","","","","-41","","Snow,Blowing Snow"
"-105.14","69.11","CAMBRIDGE BAY A","2400600","2012-02-04 10:00","2012","02","04","10:00","-25.3","","-30.3","","63","","","","5","","46","","0.4","","100.28","","","","-42","","Snow,Blowing Snow"
"-105.14","69.11","CAMBRIDGE BAY A","2400600","2012-02-04 11:00","2012","02","04","11:00","-25.7","","-30.7","","63","","","","4","","52","","0.0","","100.47","","","","-43","","Snow,Blowing Snow"
"-105.14","69.11","CAMBRIDGE BAY A","2400600","2012-02-04 12:00","2012","02","04","12:00","-26.4","","-31.4","","63","","","","3","","46","","0.0","","100.66","","","","-44","","Snow,Blowing Snow"
"-105.14","69.11","CAMBRIDGE BAY A","2400600","2012-02-04 13:00","2012","02","04","13:00","-27.9","","-33.3","","60","","","","4","","37","","0.4","","100.91","","","","-44","","Snow,Blowing Snow"
"-105.14","69.11","CAMBRIDGE BAY A","2400600","2012-02-04 14:00","2012","02","04","14:00","-28.5","","-33.8","","60","","","","3","","37","","0.4","","100.99","","","","-45","","Snow,Blowing Snow"
"-105.14","69.11","CAMBRIDGE BAY A","2400600","2012-02-04 15:00","2012","02","04","15:00","-28.4","","-33.7","","60","","","","2","","37","","0.6","","101.24","","","","-45","","Snow,Blowing Snow"
"-105.14","69.11","CAMBRIDGE BAY A","2400600","2012-02-04 16:00","2012","02","04","16:00","-28.3","","-33.7","","60","","","","3","","37","","1.6","","101.35","","","","-45","","Snow,Blowing Snow"
"-105.14","69.11","CAMBRIDGE BAY A","2400600","2012-02-04 17:00","2012","02","04","17:00","-29.4","","-34.9","","59","","","","3","","37","","1.6","","101.49","","","","-46","","Snow,Blowing Snow"
"-105.14","69.11","CAMBRIDGE BAY A","2400600","2012-02-04 18:00","2012","02","04","18:00","-30.0","","-35.1","","61","","","","3","","33","","3.2","","101.71","","","","-46","","Snow,Blowing Snow"
"-105.14","69.11","CAMBRIDGE BAY A","2400600","2012-02-04 19:00","2012","02","04","19:00","-30.3","","-35.7","","59","","","","4","","24","","6.4","","101.88","","","","-45","","Ice Crystals"
"-105.14","69.11","CAMBRIDGE BAY A","2400600","2012-02-04 20:00","2012","02","04","20:00","-30.5","","-36.0","","59","","","","4","","37","","6.4","","101.93","","","","-48","","Blowing Snow"
"-105.14","69.11","CAMBRIDGE BAY A","2400600","2012-02-04 21:00","2012","02","04","21:00","-30.6","","-35.9","","60","","","","4","","37","","9.7","","102.02","","","","-48","","Blowing Snow"
"-105.14","69.11","CAMBRIDGE BAY A","2400600","2012-02-04 22:00","2012","02","04","22:00","-30.9","","-36.1","","60","","","","4","","33","","8.0","","102.11","","","","-47","","Blowing Snow"
"-105.14","69.11","CAMBRIDGE BAY A","2400600","2012-02-04 23:00","2012","02","04","23:00","-30.9","","-36.2","","60","","","","4","","28","","16.1","","102.18","","","","-46","","Cloudy"
"-105.14","69.11","CAMBRIDGE BAY A","2400600","2012-02-05 00:00","2012","02","05","00:00","-31.2","","-36.7","","58","","","","3","","32","","19.3","","102.28","","","","-48","","Cloudy"
"-105.14","69.11","CAMBRIDGE BAY A","2400600","2012-02-05 01:00","2012","02","05","01:00","-31.5","","-37.1","","58","","","","3","","35","","16.1","","102.38","","","","-49","","Mostly Cloudy"
"-105.14","69.11","CAMBRIDGE BAY A","2400600","2012-02-05 02:00","2012","02","05","02:00","-31.8","","-37.1","","59","","","","2","","26","","19.3","","102.60","","","","-47","","Mostly Cloudy"
"-105.14","69.11","CAMBRIDGE BAY A","2400600","2012-02-05 03:00","2012","02","05","03:00","-32.0","","-37.3","","59","","","","4","","30","","19.3","","102.67","","","","-48","","Mainly Clear"
"-105.14","69.11","CAMBRIDGE BAY A","2400600","2012-02-05 04:00","2012","02","05","04:00","-32.0","","-37.4","","59","","","","4","","32","","19.3","","102.74","","","","-49","","Mainly Clear"
"-105.14","69.11","CAMBRIDGE BAY A","2400600","2012-02-05 05:00","2012","02","05","05:00","-31.4","","-36.7","","59","","","","3","","26","","19.3","","102.84","","","","-47","","Mainly Clear"
"-105.14","69.11","CAMBRIDGE BAY A","2400600","2012-02-05 06:00","2012","02","05","06:00","-31.0","","-36.3","","60","","","","3","","13","","24.1","","102.92","","","","-42","","Mainly Clear"
"-105.14","69.11","CAMBRIDGE BAY A","2400600","2012-02-05 07:00","2012","02","05","07:00","-31.9","","-37.2","","59","","","","4","","7","","24.1","","102.94","","","","-39","","Mainly Clear"
"-105.14","69.11","CAMBRIDGE BAY A","2400600","2012-02-05 08:00","2012","02","05","08:00","-32.0","","-37.9","","56","","","","3","","13","","24.1","","103.00","","","","-43","","Mainly Clear"
"-105.14","69.11","CAMBRIDGE BAY A","2400600","2012-02-05 09:00","2012","02","05","09:00","-31.6","","-36.9","","59","","","","36","","7","","24.1","","103.09","","","","-39","","Mainly Clear"
"-105.14","69.11","CAMBRIDGE BAY A","2400600","2012-02-05 10:00","2012","02","05","10:00","-32.3","","-37.7","","59","","","","31","","11","","24.1","","103.12","","","","-42","","Mainly Clear"
"-105.14","69.11","CAMBRIDGE BAY A","2400600","2012-02-05 11:00","2012","02","05","11:00","-31.4","","-36.5","","61","","","","31","","9","","24.1","","103.13","","","","-40","","Mainly Clear"
"-105.14","69.11","CAMBRIDGE BAY A","2400600","2012-02-05 12:00","2012","02","05","12:00","-30.8","","-36.3","","58","","","","23","","9","","24.1","","103.12","","","","-40","","Mainly Clear"
"-105.14","69.11","CAMBRIDGE BAY A","2400600","2012-02-05 13:00","2012","02","05","13:00","-30.2","","-35.6","","59","","","","26","","17","","24.1","","103.16","","","","-42","","Mainly Clear"
"-105.14","69.11","CAMBRIDGE BAY A","2400600","2012-02-05 14:00","2012","02","05","14:00","-30.1","","-35.7","","58","","","","25","","20","","24.1","","103.12","","","","-43","","Mostly Cloudy"
"-105.14","69.11","CAMBRIDGE BAY A","2400600","2012-02-05 15:00","2012","02","05","15:00","-28.5","","-33.9","","60","","","","26","","28","","24.1","","103.09","","","","-43","","Mostly Cloudy"
"-105.14","69.11","CAMBRIDGE BAY A","2400600","2012-02-05 16:00","2012","02","05","16:00","-27.5","","-32.7","","61","","","","26","","24","","24.1","","103.11","","","","-41","","Cloudy"
"-105.14","69.11","CAMBRIDGE BAY A","2400600","2012-02-05 17:00","2012","02","05","17:00","-26.5","","-31.4","","63","","","","26","","28","","24.1","","103.05","","","","-41","","Cloudy"
"-105.14","69.11","CAMBRIDGE BAY A","2400600","2012-02-05 18:00","2012","02","05","18:00","-25.8","","-31.0","","62","","","","26","","22","","24.1","","102.98","","","","-38","","Cloudy"
"-105.14","69.11","CAMBRIDGE BAY A","2400600","2012-02-05 19:00","2012","02","05","19:00","-25.1","","-29.9","","64","","","","27","","19","","24.1","","102.98","","","","-37","","Mostly Cloudy"
"-105.14","69.11","CAMBRIDGE BAY A","2400600","2012-02-05 20:00","2012","02","05","20:00","-25.0","","-30.0","","63","","","","29","","22","","24.1","","102.93","","","","-37","","Mostly Cloudy"
"-105.14","69.11","CAMBRIDGE BAY A","2400600","2012-02-05 21:00","2012","02","05","21:00","-25.2","","-30.1","","64","","","","28","","20","","24.1","","102.84","","","","-37","","Mostly Cloudy"
"-105.14","69.11","CAMBRIDGE BAY A","2400600","2012-02-05 22:00","2012","02","05","22:00","-25.1","","-30.1","","63","","","","28","","19","","24.1","","102.79","","","","-37","","Mostly Cloudy"
"-105.14","69.11","CAMBRIDGE BAY A","2400600","2012-02-05 23:00","2012","02","05","23:00","-26.8","","-31.9","","62","","","","27","","22","","19.3","","102.68","","","","-40","","Ice Crystals"
"-105.14","69.11","CAMBRIDGE BAY A","2400600","2012-02-06 00:00","2012","02","06","00:00","-26.5","","-30.9","","66","","","","27","","26","","24.1","","102.62","","","","-40","","Ice Crystals"
"-105.14","69.11","CAMBRIDGE BAY A","2400600","2012-02-06 01:00","2012","02","06","01:00","-27.0","","-31.9","","63","","","","27","","20","","24.1","","102.57","","","","-39","","Ice Crystals"
"-105.14","69.11","CAMBRIDGE BAY A","2400600","2012-02-06 02:00","2012","02","06","02:00","-27.2","","-32.2","","62","","","","27","","19","","19.3","","102.55","","","","-39","","Ice Crystals"
"-105.14","69.11","CAMBRIDGE BAY A","2400600","2012-02-06 03:00","2012","02","06","03:00","-26.8","","-31.7","","63","","","","27","","20","","16.1","","102.46","","","","-39","","Ice Crystals"
"-105.14","69.11","CAMBRIDGE BAY A","2400600","2012-02-06 04:00","2012","02","06","04:00","-26.4","","-31.3","","63","","","","26","","22","","12.9","","102.35","","","","-39","","Ice Crystals"
"-105.14","69.11","CAMBRIDGE BAY A","2400600","2012-02-06 05:00","2012","02","06","05:00","-25.3","","-30.4","","62","","","","26","","17","","9.7","","102.22","","","","-36","","Ice Crystals"
"-105.14","69.11","CAMBRIDGE BAY A","2400600","2012-02-06 06:00","2012","02","06","06:00","-24.8","","-29.4","","66","","","","25","","9","","19.3","","102.07","","","","-32","","Ice Crystals"
"-105.14","69.11","CAMBRIDGE BAY A","2400600","2012-02-06 07:00","2012","02","06","07:00","-24.0","","-28.8","","65","","","","25","","13","","24.1","","101.92","","","","-33","","Ice Crystals"
"-105.14","69.11","CAMBRIDGE BAY A","2400600","2012-02-06 08:00","2012","02","06","08:00","-23.4","","-28.4","","63","","","","25","","19","","24.1","","101.77","","","","-34","","Ice Crystals"
"-105.14","69.11","CAMBRIDGE BAY A","2400600","2012-02-06 09:00","2012","02","06","09:00","-23.4","","-28.0","","66","","","","26","","20","","24.1","","101.77","","","","-35","","Ice Crystals"
"-105.14","69.11","CAMBRIDGE BAY A","2400600","2012-02-06 10:00","2012","02","06","10:00","-22.9","","-27.8","","64","","","","27","","22","","24.1","","101.52","","","","-35","","Ice Crystals"
"-105.14","69.11","CAMBRIDGE BAY A","2400600","2012-02-06 11:00","2012","02","06","11:00","-22.9","","-27.6","","65","","","","25","","24","","24.1","","101.40","","","","-35","","Ice Crystals"
"-105.14","69.11","CAMBRIDGE BAY A","2400600","2012-02-06 12:00","2012","02","06","12:00","-23.1","","-27.8","","65","","","","28","","24","","9.7","","101.33","","","","-35","","Ice Crystals"
"-105.14","69.11","CAMBRIDGE BAY A","2400600","2012-02-06 13:00","2012","02","06","13:00","-22.2","","-26.9","","66","","","","27","","24","","16.1","","101.28","","","","-34","","Ice Crystals"
"-105.14","69.11","CAMBRIDGE BAY A","2400600","2012-02-06 14:00","2012","02","06","14:00","-22.3","","-27.2","","64","","","","28","","22","","19.3","","101.28","","","","-34","","Ice Crystals"
"-105.14","69.11","CAMBRIDGE BAY A","2400600","2012-02-06 15:00","2012","02","06","15:00","-23.6","","-28.4","","65","","","","31","","22","","24.1","","101.29","","","","-36","","Ice Crystals"
"-105.14","69.11","CAMBRIDGE BAY A","2400600","2012-02-06 16:00","2012","02","06","16:00","-24.7","","-29.9","","62","","","","33","","22","","24.1","","101.23","","","","-37","","Ice Crystals"
"-105.14","69.11","CAMBRIDGE BAY A","2400600","2012-02-06 17:00","2012","02","06","17:00","-25.2","","-30.3","","62","","","","32","","19","","24.1","","101.26","","","","-37","","Ice Crystals"
"-105.14","69.11","CAMBRIDGE BAY A","2400600","2012-02-06 18:00","2012","02","06","18:00","-25.0","","-30.3","","61","","","","31","","24","","24.1","","101.28","","","","-38","","Ice Crystals"
"-105.14","69.11","CAMBRIDGE BAY A","2400600","2012-02-06 19:00","2012","02","06","19:00","-26.0","","-30.9","","63","","","","31","","19","","24.1","","101.32","","","","-38","","Ice Crystals"
"-105.14","69.11","CAMBRIDGE BAY A","2400600","2012-02-06 20:00","2012","02","06","20:00","-23.8","","-29.8","","58","","","","35","","28","","24.1","","101.40","","","","-37","","Ice Crystals"
"-105.14","69.11","CAMBRIDGE BAY A","2400600","2012-02-06 21:00","2012","02","06","21:00","-25.0","","-30.5","","60","","","","34","","19","","24.1","","101.46","","","","-37","","Ice Crystals"
"-105.14","69.11","CAMBRIDGE BAY A","2400600","2012-02-06 22:00","2012","02","06","22:00","-26.4","","-31.8","","60","","","","35","","26","","24.1","","101.57","","","","-40","","Ice Crystals"
"-105.14","69.11","CAMBRIDGE BAY A","2400600","2012-02-06 23:00","2012","02","06","23:00","-27.4","","-33.2","","58","","","","32","","22","","24.1","","101.57","","","","-40","","Ice Crystals"
"-105.14","69.11","CAMBRIDGE BAY A","2400600","2012-02-07 00:00","2012","02","07","00:00","-28.3","","-34.1","","57","","","","33","","33","","19.3","","101.60","","","","-44","","Mainly Clear"
"-105.14","69.11","CAMBRIDGE BAY A","2400600","2012-02-07 01:00","2012","02","07","01:00","-28.6","","-34.3","","58","","","","34","","41","","4.8","","101.70","","","","-46","","Blowing Snow"
"-105.14","69.11","CAMBRIDGE BAY A","2400600","2012-02-07 02:00","2012","02","07","02:00","-28.9","","-34.7","","57","","","","35","","43","","4.8","","101.76","","","","-47","","Blowing Snow"
"-105.14","69.11","CAMBRIDGE BAY A","2400600","2012-02-07 03:00","2012","02","07","03:00","-29.5","","-35.2","","58","","","","34","","37","","6.4","","101.85","","","","-46","","Blowing Snow"
"-105.14","69.11","CAMBRIDGE BAY A","2400600","2012-02-07 04:00","2012","02","07","04:00","-29.9","","-35.4","","59","","","","34","","43","","4.8","","101.89","","","","-48","","Blowing Snow"
"-105.14","69.11","CAMBRIDGE BAY A","2400600","2012-02-07 05:00","2012","02","07","05:00","-30.6","","-36.1","","59","","","","34","","43","","4.8","","101.97","","","","-49","","Blowing Snow"
"-105.14","69.11","CAMBRIDGE BAY A","2400600","2012-02-07 06:00","2012","02","07","06:00","-31.2","","-36.8","","58","","","","33","","37","","1.6","","101.96","","","","-49","","Blowing Snow"
"-105.14","69.11","CAMBRIDGE BAY A","2400600","2012-02-07 07:00","2012","02","07","07:00","-31.9","","-37.3","","59","","","","34","","37","","2.4","","101.97","","","","-50","","Blowing Snow"
"-105.14","69.11","CAMBRIDGE BAY A","2400600","2012-02-07 08:00","2012","02","07","08:00","-32.3","","-38.0","","57","","","","33","","33","","4.0","","102.06","","","","-49","","Blowing Snow"
"-105.14","69.11","CAMBRIDGE BAY A","2400600","2012-02-07 09:00","2012","02","07","09:00","-32.8","","-38.1","","59","","","","34","","35","","4.8","","102.00","","","","-50","","Blowing Snow"
"-105.14","69.11","CAMBRIDGE BAY A","2400600","2012-02-07 10:00","2012","02","07","10:00","-33.3","","-38.6","","59","","","","33","","56","","0.8","","101.94","","","","-54","","Blowing Snow"
"-105.14","69.11","CAMBRIDGE BAY A","2400600","2012-02-07 11:00","2012","02","07","11:00","-33.3","","-38.6","","59","","","","33","","56","","0.6","","101.97","","","","-54","","Blowing Snow"
"-105.14","69.11","CAMBRIDGE BAY A","2400600","2012-02-07 12:00","2012","02","07","12:00","-33.0","","-38.6","","57","","","","31","","46","","0.6","","102.00","","","","-53","","Blowing Snow"
"-105.14","69.11","CAMBRIDGE BAY A","2400600","2012-02-07 13:00","2012","02","07","13:00","-32.4","","-38.0","","57","","","","31","","50","","0.4","","102.05","","","","-52","","Blowing Snow"
"-105.14","69.11","CAMBRIDGE BAY A","2400600","2012-02-07 14:00","2012","02","07","14:00","-32.0","","-37.4","","59","","","","32","","50","","0.4","","102.09","","","","-52","","Blowing Snow"
"-105.14","69.11","CAMBRIDGE BAY A","2400600","2012-02-07 15:00","2012","02","07","15:00","-31.6","","-36.9","","59","","","","30","","41","","0.4","","102.10","","","","-50","","Blowing Snow"
"-105.14","69.11","CAMBRIDGE BAY A","2400600","2012-02-07 16:00","2012","02","07","16:00","-31.3","","-36.5","","60","","","","31","","46","","0.4","","102.05","","","","-50","","Blowing Snow"
"-105.14","69.11","CAMBRIDGE BAY A","2400600","2012-02-07 17:00","2012","02","07","17:00","-31.0","","-36.2","","60","","","","30","","46","","0.4","","101.99","","","","-50","","Blowing Snow"
"-105.14","69.11","CAMBRIDGE BAY A","2400600","2012-02-07 18:00","2012","02","07","18:00","-30.4","","-35.9","","59","","","","31","","46","","0.8","","101.98","","","","-49","","Blowing Snow"
"-105.14","69.11","CAMBRIDGE BAY A","2400600","2012-02-07 19:00","2012","02","07","19:00","-30.1","","-35.4","","60","","","","32","","46","","0.8","","102.00","","","","-49","","Blowing Snow"
"-105.14","69.11","CAMBRIDGE BAY A","2400600","2012-02-07 20:00","2012","02","07","20:00","-30.0","","-35.3","","60","","","","32","","39","","0.8","","101.95","","","","-47","","Blowing Snow"
"-105.14","69.11","CAMBRIDGE BAY A","2400600","2012-02-07 21:00","2012","02","07","21:00","-29.6","","-35.1","","59","","","","33","","41","","0.8","","101.99","","","","-47","","Blowing Snow"
"-105.14","69.11","CAMBRIDGE BAY A","2400600","2012-02-07 22:00","2012","02","07","22:00","-30.1","","-35.5","","59","","","","34","","39","","0.4","","101.99","","","","-47","","Blowing Snow"
"-105.14","69.11","CAMBRIDGE BAY A","2400600","2012-02-07 23:00","2012","02","07","23:00","-29.8","","-34.9","","61","","","","33","","50","","0.4","","101.95","","","","-49","","Blowing Snow"
"-105.14","69.11","CAMBRIDGE BAY A","2400600","2012-02-08 00:00","2012","02","08","00:00","-29.5","","-35.0","","59","","","","34","","52","","0.4","","101.96","","","","-49","","Blowing Snow"
"-105.14","69.11","CAMBRIDGE BAY A","2400600","2012-02-08 01:00","2012","02","08","01:00","-29.1","","-34.4","","60","","","","33","","46","","0.4","","102.02","","","","-47","","Blowing Snow"
"-105.14","69.11","CAMBRIDGE BAY A","2400600","2012-02-08 02:00","2012","02","08","02:00","-28.6","","-33.9","","60","","","","33","","46","","0.4","","102.10","","","","-47","","Blowing Snow"
"-105.14","69.11","CAMBRIDGE BAY A","2400600","2012-02-08 03:00","2012","02","08","03:00","-28.7","","-34.0","","60","","","","33","","50","","0.4","","102.09","","","","-47","","Blowing Snow"
"-105.14","69.11","CAMBRIDGE BAY A","2400600","2012-02-08 04:00","2012","02","08","04:00","-28.8","","-34.3","","59","","","","33","","50","","0.4","","102.10","","","","-47","","Blowing Snow"
"-105.14","69.11","CAMBRIDGE BAY A","2400600","2012-02-08 05:00","2012","02","08","05:00","-28.3","","-33.8","","59","","","","33","","50","","0.4","","102.08","","","","-47","","Blowing Snow"
"-105.14","69.11","CAMBRIDGE BAY A","2400600","2012-02-08 06:00","2012","02","08","06:00","-28.2","","-33.4","","61","","","","34","","59","","0.2","","102.05","","","","-48","","Blowing Snow"
"-105.14","69.11","CAMBRIDGE BAY A","2400600","2012-02-08 07:00","2012","02","08","07:00","-28.2","","-33.5","","60","","","","34","","52","","0.4","","102.12","","","","-47","","Blowing Snow"
"-105.14","69.11","CAMBRIDGE BAY A","2400600","2012-02-08 08:00","2012","02","08","08:00","-27.8","","-33.3","","59","","","","33","","46","","0.8","","102.18","","","","-45","","Blowing Snow"
"-105.14","69.11","CAMBRIDGE BAY A","2400600","2012-02-08 09:00","2012","02","08","09:00","-27.2","","-32.5","","61","","","","33","","44","","0.8","","102.25","","","","-44","","Blowing Snow"
"-105.14","69.11","CAMBRIDGE BAY A","2400600","2012-02-08 10:00","2012","02","08","10:00","-27.1","","-32.4","","61","","","","34","","32","","1.6","","102.30","","","","-42","","Blowing Snow"
"-105.14","69.11","CAMBRIDGE BAY A","2400600","2012-02-08 11:00","2012","02","08","11:00","-27.2","","-32.4","","61","","","","31","","32","","1.6","","102.34","","","","-42","","Blowing Snow"
"-105.14","69.11","CAMBRIDGE BAY A","2400600","2012-02-08 12:00","2012","02","08","12:00","-27.9","","-33.3","","60","","","","34","","37","","0.8","","102.36","","","","-44","","Blowing Snow"
"-105.14","69.11","CAMBRIDGE BAY A","2400600","2012-02-08 13:00","2012","02","08","13:00","-27.4","","-33.0","","59","","","","34","","37","","0.8","","102.38","","","","-44","","Blowing Snow"
"-105.14","69.11","CAMBRIDGE BAY A","2400600","2012-02-08 14:00","2012","02","08","14:00","-28.0","","-33.3","","60","","","","33","","44","","0.4","","102.38","","","","-45","","Blowing Snow"
"-105.14","69.11","CAMBRIDGE BAY A","2400600","2012-02-08 15:00","2012","02","08","15:00","-28.3","","-33.7","","60","","","","33","","48","","0.4","","102.43","","","","-46","","Blowing Snow"
"-105.14","69.11","CAMBRIDGE BAY A","2400600","2012-02-08 16:00","2012","02","08","16:00","-28.7","","-34.2","","59","","","","34","","52","","0.4","","102.46","","","","-48","","Blowing Snow"
"-105.14","69.11","CAMBRIDGE BAY A","2400600","2012-02-08 17:00","2012","02","08","17:00","-28.7","","-34.2","","59","","","","33","","48","","0.4","","102.52","","","","-47","","Blowing Snow"
"-105.14","69.11","CAMBRIDGE BAY A","2400600","2012-02-08 18:00","2012","02","08","18:00","-28.2","","-33.5","","60","","","","34","","57","","0.4","","102.48","","","","-47","","Blowing Snow"
"-105.14","69.11","CAMBRIDGE BAY A","2400600","2012-02-08 19:00","2012","02","08","19:00","-28.2","","-33.8","","59","","","","34","","46","","0.4","","102.56","","","","-46","","Blowing Snow"
"-105.14","69.11","CAMBRIDGE BAY A","2400600","2012-02-08 20:00","2012","02","08","20:00","-28.9","","-34.4","","59","","","","33","","33","","0.8","","102.64","","","","-45","","Blowing Snow"
"-105.14","69.11","CAMBRIDGE BAY A","2400600","2012-02-08 21:00","2012","02","08","21:00","-29.5","","-35.2","","58","","","","34","","41","","3.2","","102.66","","","","-47","","Blowing Snow"
"-105.14","69.11","CAMBRIDGE BAY A","2400600","2012-02-08 22:00","2012","02","08","22:00","-30.1","","-35.5","","59","","","","32","","33","","9.7","","102.72","","","","-46","","Blowing Snow"
"-105.14","69.11","CAMBRIDGE BAY A","2400600","2012-02-08 23:00","2012","02","08","23:00","-28.9","","-34.6","","58","","","","33","","33","","12.9","","102.76","","","","-45","","Clear"
"-105.14","69.11","CAMBRIDGE BAY A","2400600","2012-02-09 00:00","2012","02","09","00:00","-29.3","","-35.0","","58","","","","33","","33","","16.1","","102.78","","","","-45","","Mainly Clear"
"-105.14","69.11","CAMBRIDGE BAY A","2400600","2012-02-09 01:00","2012","02","09","01:00","-30.1","","-35.7","","58","","","","31","","28","","19.3","","102.86","","","","-45","","Clear"
"-105.14","69.11","CAMBRIDGE BAY A","2400600","2012-02-09 02:00","2012","02","09","02:00","-29.5","","-35.0","","59","","","","31","","33","","24.1","","102.92","","","","-46","","Clear"
"-105.14","69.11","CAMBRIDGE BAY A","2400600","2012-02-09 03:00","2012","02","09","03:00","-29.8","","-35.5","","58","","","","32","","37","","16.1","","102.95","","","","-47","","Clear"
"-105.14","69.11","CAMBRIDGE BAY A","2400600","2012-02-09 04:00","2012","02","09","04:00","-30.4","","-36.5","","55","","","","32","","33","","24.1","","102.98","","","","-47","","Clear"
"-105.14","69.11","CAMBRIDGE BAY A","2400600","2012-02-09 05:00","2012","02","09","05:00","-30.4","","-36.7","","54","","","","32","","37","","19.3","","102.99","","","","-48","","Clear"
"-105.14","69.11","CAMBRIDGE BAY A","2400600","2012-02-09 06:00","2012","02","09","06:00","-30.3","","-36.0","","57","","","","32","","32","","24.1","","103.06","","","","-46","","Mainly Clear"
"-105.14","69.11","CAMBRIDGE BAY A","2400600","2012-02-09 07:00","2012","02","09","07:00","-30.7","","-36.5","","57","","","","31","","30","","24.1","","103.06","","","","-47","","Mainly Clear"
"-105.14","69.11","CAMBRIDGE BAY A","2400600","2012-02-09 08:00","2012","02","09","08:00","-30.2","","-36.0","","57","","","","26","","17","","24.1","","103.06","","","","-42","","Mainly Clear"
"-105.14","69.11","CAMBRIDGE BAY A","2400600","2012-02-09 09:00","2012","02","09","09:00","-30.5","","-36.1","","58","","","","28","","19","","24.1","","103.05","","","","-43","","Mainly Clear"
"-105.14","69.11","CAMBRIDGE BAY A","2400600","2012-02-09 10:00","2012","02","09","10:00","-30.1","","-36.1","","56","","","","28","","19","","24.1","","103.10","","","","-43","","Mainly Clear"
"-105.14","69.11","CAMBRIDGE BAY A","2400600","2012-02-09 11:00","2012","02","09","11:00","-30.1","","-35.7","","58","","","","28","","26","","24.1","","103.06","","","","-45","","Mostly Cloudy"
"-105.14","69.11","CAMBRIDGE BAY A","2400600","2012-02-09 12:00","2012","02","09","12:00","-29.3","","-35.2","","57","","","","27","","22","","24.1","","103.05","","","","-43","","Mainly Clear"
"-105.14","69.11","CAMBRIDGE BAY A","2400600","2012-02-09 13:00","2012","02","09","13:00","-29.1","","-34.8","","58","","","","28","","20","","24.1","","103.06","","","","-42","","Mainly Clear"
"-105.14","69.11","CAMBRIDGE BAY A","2400600","2012-02-09 14:00","2012","02","09","14:00","-27.9","","-33.7","","58","","","","28","","20","","24.1","","103.06","","","","-40","","Mainly Clear"
"-105.14","69.11","CAMBRIDGE BAY A","2400600","2012-02-09 15:00","2012","02","09","15:00","-28.0","","-33.9","","57","","","","26","","19","","24.1","","103.02","","","","-40","","Mainly Clear"
"-105.14","69.11","CAMBRIDGE BAY A","2400600","2012-02-09 16:00","2012","02","09","16:00","-27.5","","-33.1","","59","","","","27","","19","","24.1","","102.99","","","","-40","","Mainly Clear"
"-105.14","69.11","CAMBRIDGE BAY A","2400600","2012-02-09 17:00","2012","02","09","17:00","-27.2","","-33.3","","56","","","","25","","17","","24.1","","102.97","","","","-39","","Mainly Clear"
"-105.14","69.11","CAMBRIDGE BAY A","2400600","2012-02-09 18:00","2012","02","09","18:00","-26.0","","-31.9","","58","","","","28","","32","","24.1","","102.92","","","","-41","","Mainly Clear"
"-105.14","69.11","CAMBRIDGE BAY A","2400600","2012-02-09 19:00","2012","02","09","19:00","-26.8","","-32.7","","57","","","","25","","22","","24.1","","102.90","","","","-40","","Mainly Clear"
"-105.14","69.11","CAMBRIDGE BAY A","2400600","2012-02-09 20:00","2012","02","09","20:00","-25.9","","-31.8","","58","","","","24","","24","","24.1","","102.82","","","","-39","","Mainly Clear"
"-105.14","69.11","CAMBRIDGE BAY A","2400600","2012-02-09 21:00","2012","02","09","21:00","-24.9","","-31.2","","56","","","","25","","28","","24.1","","102.73","","","","-39","","Mainly Clear"
"-105.14","69.11","CAMBRIDGE BAY A","2400600","2012-02-09 22:00","2012","02","09","22:00","-24.5","","-30.8","","56","","","","26","","19","","24.1","","102.68","","","","-36","","Mainly Clear"
"-105.14","69.11","CAMBRIDGE BAY A","2400600","2012-02-09 23:00","2012","02","09","23:00","-24.1","","-30.3","","57","","","","24","","19","","24.1","","102.59","","","","-35","","Mainly Clear"
"-105.14","69.11","CAMBRIDGE BAY A","2400600","2012-02-10 00:00","2012","02","10","00:00","-23.8","","-29.9","","57","","","","25","","17","","24.1","","102.47","","","","-34","","Mostly Cloudy"
"-105.14","69.11","CAMBRIDGE BAY A","2400600","2012-02-10 01:00","2012","02","10","01:00","-22.4","","-29.0","","55","","","","25","","11","","24.1","","102.32","","","","-31","","Mostly Cloudy"
"-105.14","69.11","CAMBRIDGE BAY A","2400600","2012-02-10 02:00","2012","02","10","02:00","-21.6","","-27.3","","60","","","","23","","19","","24.1","","102.19","","","","-32","","Mostly Cloudy"
"-105.14","69.11","CAMBRIDGE BAY A","2400600","2012-02-10 03:00","2012","02","10","03:00","-18.8","","-25.1","","58","","","","25","","43","","19.3","","102.07","","","","-33","","Mostly Cloudy"
"-105.14","69.11","CAMBRIDGE BAY A","2400600","2012-02-10 04:00","2012","02","10","04:00","-18.5","","-24.6","","59","","","","25","","33","","24.1","","102.01","","","","-31","","Mostly Cloudy"
"-105.14","69.11","CAMBRIDGE BAY A","2400600","2012-02-10 05:00","2012","02","10","05:00","-17.4","","-23.7","","58","","","","27","","33","","24.1","","101.97","","","","-30","","Mostly Cloudy"
"-105.14","69.11","CAMBRIDGE BAY A","2400600","2012-02-10 06:00","2012","02","10","06:00","-17.8","","-23.8","","59","","","","28","","37","","24.1","","101.86","","","","-31","","Mostly Cloudy"
"-105.14","69.11","CAMBRIDGE BAY A","2400600","2012-02-10 07:00","2012","02","10","07:00","-17.8","","-23.6","","60","","","","26","","46","","16.1","","101.66","","","","-32","","Mostly Cloudy"
"-105.14","69.11","CAMBRIDGE BAY A","2400600","2012-02-10 08:00","2012","02","10","08:00","-18.3","","-23.6","","63","","","","25","","46","","16.1","","101.45","","","","-33","","Mostly Cloudy"
"-105.14","69.11","CAMBRIDGE BAY A","2400600","2012-02-10 09:00","2012","02","10","09:00","-18.9","","-24.0","","64","","","","27","","35","","16.1","","101.47","","","","-32","","Mainly Clear"
"-105.14","69.11","CAMBRIDGE BAY A","2400600","2012-02-10 10:00","2012","02","10","10:00","-18.1","","-23.3","","64","","","","27","","22","","19.3","","101.55","","","","-29","","Mainly Clear"
"-105.14","69.11","CAMBRIDGE BAY A","2400600","2012-02-10 11:00","2012","02","10","11:00","-18.1","","-23.0","","65","","","","26","","30","","19.3","","101.41","","","","-30","","Mostly Cloudy"
"-105.14","69.11","CAMBRIDGE BAY A","2400600","2012-02-10 12:00","2012","02","10","12:00","-17.6","","-22.6","","65","","","","27","","37","","16.1","","101.30","","","","-31","","Mostly Cloudy"
"-105.14","69.11","CAMBRIDGE BAY A","2400600","2012-02-10 13:00","2012","02","10","13:00","-17.8","","-23.3","","62","","","","27","","19","","16.1","","101.34","","","","-27","","Mostly Cloudy"
"-105.14","69.11","CAMBRIDGE BAY A","2400600","2012-02-10 14:00","2012","02","10","14:00","-17.2","","-22.0","","66","","","","27","","41","","17.7","","101.14","","","","-31","","Mainly Clear"
"-105.14","69.11","CAMBRIDGE BAY A","2400600","2012-02-10 15:00","2012","02","10","15:00","-17.2","","-22.0","","66","","","","26","","33","","19.3","","101.16","","","","-29","","Mostly Cloudy"
"-105.14","69.11","CAMBRIDGE BAY A","2400600","2012-02-10 16:00","2012","02","10","16:00","-17.3","","-22.1","","66","","","","26","","39","","19.3","","101.06","","","","-30","","Mostly Cloudy"
"-105.14","69.11","CAMBRIDGE BAY A","2400600","2012-02-10 17:00","2012","02","10","17:00","-17.3","","-22.1","","66","","","","27","","20","","24.1","","101.07","","","","-27","","Mainly Clear"
"-105.14","69.11","CAMBRIDGE BAY A","2400600","2012-02-10 18:00","2012","02","10","18:00","-17.5","","-22.5","","65","","","","28","","15","","24.1","","100.97","","","","-26","","Mainly Clear"
"-105.14","69.11","CAMBRIDGE BAY A","2400600","2012-02-10 19:00","2012","02","10","19:00","-18.0","","-22.9","","65","","","","27","","17","","24.1","","100.85","","","","-27","","Mainly Clear"
"-105.14","69.11","CAMBRIDGE BAY A","2400600","2012-02-10 20:00","2012","02","10","20:00","-19.2","","-24.3","","64","","","","26","","20","","24.1","","100.72","","","","-29","","Mainly Clear"
"-105.14","69.11","CAMBRIDGE BAY A","2400600","2012-02-10 21:00","2012","02","10","21:00","-18.3","","-23.7","","63","","","","27","","13","","24.1","","100.67","","","","-26","","Mainly Clear"
"-105.14","69.11","CAMBRIDGE BAY A","2400600","2012-02-10 22:00","2012","02","10","22:00","-18.0","","-23.4","","63","","","","28","","19","","24.1","","100.57","","","","-28","","Mainly Clear"
"-105.14","69.11","CAMBRIDGE BAY A","2400600","2012-02-10 23:00","2012","02","10","23:00","-18.0","","-23.4","","63","","","","26","","19","","24.1","","100.50","","","","-28","","Mainly Clear"
"-105.14","69.11","CAMBRIDGE BAY A","2400600","2012-02-11 00:00","2012","02","11","00:00","-17.3","","-22.9","","62","","","","28","","17","","24.1","","100.41","","","","-26","","Mainly Clear"
"-105.14","69.11","CAMBRIDGE BAY A","2400600","2012-02-11 01:00","2012","02","11","01:00","-21.8","","-26.6","","65","","","","","","0","","24.1","","100.34","","","","","","Mainly Clear"
"-105.14","69.11","CAMBRIDGE BAY A","2400600","2012-02-11 02:00","2012","02","11","02:00","-22.4","","-27.2","","65","","","","","","0","","24.1","","100.29","","","","","","Mainly Clear"
"-105.14","69.11","CAMBRIDGE BAY A","2400600","2012-02-11 03:00","2012","02","11","03:00","-20.2","","-24.9","","66","","","","","","0","","24.1","","100.16","","","","","","Mainly Clear"
"-105.14","69.11","CAMBRIDGE BAY A","2400600","2012-02-11 04:00","2012","02","11","04:00","-19.8","","-24.4","","67","","","","29","","13","","24.1","","100.12","","","","-28","","Mainly Clear"
"-105.14","69.11","CAMBRIDGE BAY A","2400600","2012-02-11 05:00","2012","02","11","05:00","-20.6","","-25.2","","67","","","","31","","7","","24.1","","100.10","","","","-26","","Mainly Clear"
"-105.14","69.11","CAMBRIDGE BAY A","2400600","2012-02-11 06:00","2012","02","11","06:00","-20.0","","-24.7","","66","","","","29","","15","","24.1","","100.07","","","","-29","","Mainly Clear"
"-105.14","69.11","CAMBRIDGE BAY A","2400600","2012-02-11 07:00","2012","02","11","07:00","-20.9","","-25.7","","65","","","","28","","17","","24.1","","99.95","","","","-31","","Mainly Clear"
"-105.14","69.11","CAMBRIDGE BAY A","2400600","2012-02-11 08:00","2012","02","11","08:00","-19.9","","-24.4","","67","","","","30","","9","","24.1","","99.87","","","","-27","","Mainly Clear"
"-105.14","69.11","CAMBRIDGE BAY A","2400600","2012-02-11 09:00","2012","02","11","09:00","-22.5","","-27.7","","63","","","","","","0","","24.1","","99.84","","","","","","Mainly Clear"
"-105.14","69.11","CAMBRIDGE BAY A","2400600","2012-02-11 10:00","2012","02","11","10:00","-23.4","","-28.6","","62","","","","","","0","","24.1","","99.73","","","","","","Mainly Clear"
"-105.14","69.11","CAMBRIDGE BAY A","2400600","2012-02-11 11:00","2012","02","11","11:00","-24.1","","-29.0","","64","","","","","","0","","24.1","","99.66","","","","","","Mainly Clear"
"-105.14","69.11","CAMBRIDGE BAY A","2400600","2012-02-11 12:00","2012","02","11","12:00","-20.9","","-25.3","","68","","","","21","","7","","24.1","","99.64","","","","-27","","Mainly Clear"
"-105.14","69.11","CAMBRIDGE BAY A","2400600","2012-02-11 13:00","2012","02","11","13:00","-19.9","","-24.5","","67","","","","","","0","","24.1","","99.58","","","","","","Mainly Clear"
"-105.14","69.11","CAMBRIDGE BAY A","2400600","2012-02-11 14:00","2012","02","11","14:00","-18.1","","-22.3","","70","","","","26","","19","","24.1","","99.52","","","","-28","","Mainly Clear"
"-105.14","69.11","CAMBRIDGE BAY A","2400600","2012-02-11 15:00","2012","02","11","15:00","-19.4","","-23.8","","68","","","","26","","20","","24.1","","99.47","","","","-30","","Mainly Clear"
"-105.14","69.11","CAMBRIDGE BAY A","2400600","2012-02-11 16:00","2012","02","11","16:00","-20.0","","-24.3","","69","","","","27","","19","","24.1","","99.43","","","","-30","","Clear"
"-105.14","69.11","CAMBRIDGE BAY A","2400600","2012-02-11 17:00","2012","02","11","17:00","-21.0","","-25.7","","66","","","","26","","11","","24.1","","99.40","","","","-29","","Clear"
"-105.14","69.11","CAMBRIDGE BAY A","2400600","2012-02-11 18:00","2012","02","11","18:00","-21.8","","-26.5","","66","","","","24","","11","","24.1","","99.32","","","","-30","","Clear"
"-105.14","69.11","CAMBRIDGE BAY A","2400600","2012-02-11 19:00","2012","02","11","19:00","-21.3","","-25.8","","67","","","","25","","9","","24.1","","99.26","","","","-28","","Clear"
"-105.14","69.11","CAMBRIDGE BAY A","2400600","2012-02-11 20:00","2012","02","11","20:00","-19.3","","-23.7","","68","","","","26","","15","","16.1","","99.18","","","","-28","","Ice Crystals"
"-105.14","69.11","CAMBRIDGE BAY A","2400600","2012-02-11 21:00","2012","02","11","21:00","-19.4","","-23.8","","68","","","","26","","22","","16.1","","99.11","","","","-30","","Ice Crystals"
"-105.14","69.11","CAMBRIDGE BAY A","2400600","2012-02-11 22:00","2012","02","11","22:00","-19.5","","-23.9","","68","","","","26","","28","","16.1","","99.14","","","","-32","","Ice Crystals"
"-105.14","69.11","CAMBRIDGE BAY A","2400600","2012-02-11 23:00","2012","02","11","23:00","-19.7","","-24.3","","67","","","","28","","20","","16.1","","99.17","","","","-30","","Ice Crystals"
"-105.14","69.11","CAMBRIDGE BAY A","2400600","2012-02-12 00:00","2012","02","12","00:00","-20.7","","-25.2","","67","","","","27","","26","","16.1","","99.16","","","","-33","","Ice Crystals"
"-105.14","69.11","CAMBRIDGE BAY A","2400600","2012-02-12 01:00","2012","02","12","01:00","-21.6","","-26.1","","67","","","","29","","28","","16.1","","99.16","","","","-34","","Ice Crystals"
"-105.14","69.11","CAMBRIDGE BAY A","2400600","2012-02-12 02:00","2012","02","12","02:00","-23.0","","-28.0","","64","","","","27","","20","","19.3","","99.15","","","","-34","","Ice Crystals"
"-105.14","69.11","CAMBRIDGE BAY A","2400600","2012-02-12 03:00","2012","02","12","03:00","-23.0","","-27.9","","64","","","","30","","22","","19.3","","99.11","","","","-35","","Ice Crystals"
"-105.14","69.11","CAMBRIDGE BAY A","2400600","2012-02-12 04:00","2012","02","12","04:00","-21.7","","-26.8","","63","","","","30","","20","","19.3","","99.14","","","","-33","","Ice Crystals"
"-105.14","69.11","CAMBRIDGE BAY A","2400600","2012-02-12 05:00","2012","02","12","05:00","-21.4","","-26.2","","65","","","","29","","24","","19.3","","99.12","","","","-33","","Ice Crystals"
"-105.14","69.11","CAMBRIDGE BAY A","2400600","2012-02-12 06:00","2012","02","12","06:00","-21.4","","-26.2","","65","","","","28","","13","","16.1","","99.09","","","","-30","","Mostly Cloudy"
"-105.14","69.11","CAMBRIDGE BAY A","2400600","2012-02-12 07:00","2012","02","12","07:00","-21.1","","-26.2","","63","","","","29","","22","","4.8","","99.12","","","","-32","","Snow"
"-105.14","69.11","CAMBRIDGE BAY A","2400600","2012-02-12 08:00","2012","02","12","08:00","-21.2","","-26.2","","64","","","","29","","28","","4.8","","99.10","","","","-34","","Snow"
"-105.14","69.11","CAMBRIDGE BAY A","2400600","2012-02-12 09:00","2012","02","12","09:00","-20.9","","-27.5","","55","","","","32","","26","","2.4","","99.08","","","","-33","","Snow"
"-105.14","69.11","CAMBRIDGE BAY A","2400600","2012-02-12 10:00","2012","02","12","10:00","-20.5","","-25.8","","62","","","","33","","24","","12.9","","99.09","","","","-32","","Snow"
"-105.14","69.11","CAMBRIDGE BAY A","2400600","2012-02-12 11:00","2012","02","12","11:00","-20.7","","-26.0","","62","","","","31","","24","","16.1","","99.15","","","","-32","","Snow"
"-105.14","69.11","CAMBRIDGE BAY A","2400600","2012-02-12 12:00","2012","02","12","12:00","-20.5","","-25.7","","63","","","","31","","15","","16.1","","99.17","","","","-30","","Snow"
"-105.14","69.11","CAMBRIDGE BAY A","2400600","2012-02-12 13:00","2012","02","12","13:00","-19.8","","-25.1","","63","","","","32","","17","","16.1","","99.23","","","","-29","","Snow"
"-105.14","69.11","CAMBRIDGE BAY A","2400600","2012-02-12 14:00","2012","02","12","14:00","-19.8","","-25.0","","63","","","","34","","17","","6.4","","99.25","","","","-29","","Snow"
"-105.14","69.11","CAMBRIDGE BAY A","2400600","2012-02-12 15:00","2012","02","12","15:00","-19.4","","-24.8","","62","","","","1","","15","","6.4","","99.28","","","","-28","","Snow"
"-105.14","69.11","CAMBRIDGE BAY A","2400600","2012-02-12 16:00","2012","02","12","16:00","-19.2","","-24.6","","62","","","","2","","26","","16.1","","99.26","","","","-31","","Snow"
"-105.14","69.11","CAMBRIDGE BAY A","2400600","2012-02-12 17:00","2012","02","12","17:00","-19.2","","-24.6","","62","","","","2","","4","","16.1","","99.34","","","","-23","","Snow"
"-105.14","69.11","CAMBRIDGE BAY A","2400600","2012-02-12 18:00","2012","02","12","18:00","-18.9","","-24.4","","62","","","","33","","6","","16.1","","99.39","","","","-24","","Snow"
"-105.14","69.11","CAMBRIDGE BAY A","2400600","2012-02-12 19:00","2012","02","12","19:00","-18.8","","-24.5","","61","","","","33","","4","","16.1","","99.39","","","","-22","","Snow"
"-105.14","69.11","CAMBRIDGE BAY A","2400600","2012-02-12 20:00","2012","02","12","20:00","-18.8","","-24.4","","61","","","","33","","6","","16.1","","99.42","","","","-24","","Snow"
"-105.14","69.11","CAMBRIDGE BAY A","2400600","2012-02-12 21:00","2012","02","12","21:00","-18.6","","-24.0","","62","","","","35","","9","","16.1","","99.44","","","","-25","","Snow"
"-105.14","69.11","CAMBRIDGE BAY A","2400600","2012-02-12 22:00","2012","02","12","22:00","-18.5","","-24.0","","62","","","","4","","9","","16.1","","99.47","","","","-25","","Snow"
"-105.14","69.11","CAMBRIDGE BAY A","2400600","2012-02-12 23:00","2012","02","12","23:00","-18.3","","-23.7","","63","","","","","","0","","19.3","","99.49","","","","","","Snow"
"-105.14","69.11","CAMBRIDGE BAY A","2400600","2012-02-13 00:00","2012","02","13","00:00","-18.2","","-23.5","","63","","","","36","","4","","19.3","","99.52","","","","-21","","Snow"
"-105.14","69.11","CAMBRIDGE BAY A","2400600","2012-02-13 01:00","2012","02","13","01:00","-18.1","","-23.6","","62","","","","","","0","","19.3","","99.58","","","","","","Snow"
"-105.14","69.11","CAMBRIDGE BAY A","2400600","2012-02-13 02:00","2012","02","13","02:00","-18.1","","-23.0","","65","","","","","","0","","8.0","","99.64","","","","","","Snow"
"-105.14","69.11","CAMBRIDGE BAY A","2400600","2012-02-13 03:00","2012","02","13","03:00","-18.2","","-23.0","","66","","","","","","0","","12.9","","99.67","","","","","","Snow"
"-105.14","69.11","CAMBRIDGE BAY A","2400600","2012-02-13 04:00","2012","02","13","04:00","-18.1","","-23.0","","65","","","","3","","4","","16.1","","99.70","","","","-21","","Snow"
"-105.14","69.11","CAMBRIDGE BAY A","2400600","2012-02-13 05:00","2012","02","13","05:00","-18.0","","-22.6","","67","","","","4","","4","","16.1","","99.72","","","","-21","","Snow"
"-105.14","69.11","CAMBRIDGE BAY A","2400600","2012-02-13 06:00","2012","02","13","06:00","-17.8","","-22.4","","67","","","","6","","6","","16.1","","99.75","","","","-22","","Snow"
"-105.14","69.11","CAMBRIDGE BAY A","2400600","2012-02-13 07:00","2012","02","13","07:00","-17.7","","-22.6","","66","","","","5","","7","","6.4","","99.78","","","","-23","","Snow"
"-105.14","69.11","CAMBRIDGE BAY A","2400600","2012-02-13 08:00","2012","02","13","08:00","-17.8","","-22.5","","67","","","","8","","6","","4.8","","99.81","","","","-22","","Snow"
"-105.14","69.11","CAMBRIDGE BAY A","2400600","2012-02-13 09:00","2012","02","13","09:00","-17.7","","-22.4","","67","","","","10","","4","","12.9","","99.82","","","","-21","","Snow"
"-105.14","69.11","CAMBRIDGE BAY A","2400600","2012-02-13 10:00","2012","02","13","10:00","-17.7","","-22.4","","67","","","","","","0","","12.9","","99.86","","","","","","Snow"
"-105.14","69.11","CAMBRIDGE BAY A","2400600","2012-02-13 11:00","2012","02","13","11:00","-17.6","","-22.3","","67","","","","","","0","","12.9","","99.90","","","","","","Snow"
"-105.14","69.11","CAMBRIDGE BAY A","2400600","2012-02-13 12:00","2012","02","13","12:00","-17.5","","-22.1","","67","","","","","","0","","6.4","","99.92","","","","","","Snow"
"-105.14","69.11","CAMBRIDGE BAY A","2400600","2012-02-13 13:00","2012","02","13","13:00","-17.2","","-21.8","","67","","","","","","0","","9.7","","99.92","","","","","","Snow"
"-105.14","69.11","CAMBRIDGE BAY A","2400600","2012-02-13 14:00","2012","02","13","14:00","-17.0","","-21.9","","66","","","","5","","6","","11.3","","99.96","","","","-22","","Snow"
"-105.14","69.11","CAMBRIDGE BAY A","2400600","2012-02-13 15:00","2012","02","13","15:00","-17.4","","-22.1","","67","","","","","","0","","19.3","","99.95","","","","","","Snow"
"-105.14","69.11","CAMBRIDGE BAY A","2400600","2012-02-13 16:00","2012","02","13","16:00","-17.7","","-22.4","","67","","","","6","","6","","19.3","","99.99","","","","-22","","Snow"
"-105.14","69.11","CAMBRIDGE BAY A","2400600","2012-02-13 17:00","2012","02","13","17:00","-17.7","","-22.3","","67","","","","4","","6","","19.3","","100.02","","","","-22","","Snow"
"-105.14","69.11","CAMBRIDGE BAY A","2400600","2012-02-13 18:00","2012","02","13","18:00","-17.7","","-22.4","","67","","","","5","","7","","19.3","","99.99","","","","-23","","Snow"
"-105.14","69.11","CAMBRIDGE BAY A","2400600","2012-02-13 19:00","2012","02","13","19:00","-17.8","","-22.4","","67","","","","3","","11","","19.3","","100.00","","","","-25","","Snow"
"-105.14","69.11","CAMBRIDGE BAY A","2400600","2012-02-13 20:00","2012","02","13","20:00","-18.2","","-23.1","","65","","","","3","","9","","19.3","","100.00","","","","-25","","Snow"
"-105.14","69.11","CAMBRIDGE BAY A","2400600","2012-02-13 21:00","2012","02","13","21:00","-18.3","","-23.2","","65","","","","3","","9","","19.3","","99.99","","","","-25","","Snow"
"-105.14","69.11","CAMBRIDGE BAY A","2400600","2012-02-13 22:00","2012","02","13","22:00","-18.5","","-23.2","","66","","","","4","","9","","19.3","","100.00","","","","-25","","Snow"
"-105.14","69.11","CAMBRIDGE BAY A","2400600","2012-02-13 23:00","2012","02","13","23:00","-18.5","","-23.5","","65","","","","3","","9","","19.3","","99.99","","","","-25","","Snow"
"-105.14","69.11","CAMBRIDGE BAY A","2400600","2012-02-14 00:00","2012","02","14","00:00","-18.6","","-23.5","","65","","","","3","","13","","19.3","","99.96","","","","-27","","Snow"
"-105.14","69.11","CAMBRIDGE BAY A","2400600","2012-02-14 01:00","2012","02","14","01:00","-18.7","","-23.8","","64","","","","3","","17","","19.3","","100.00","","","","-28","","Snow"
"-105.14","69.11","CAMBRIDGE BAY A","2400600","2012-02-14 02:00","2012","02","14","02:00","-18.8","","-23.9","","64","","","","4","","19","","19.3","","100.05","","","","-29","","Snow"
"-105.14","69.11","CAMBRIDGE BAY A","2400600","2012-02-14 03:00","2012","02","14","03:00","-19.1","","-24.2","","64","","","","4","","20","","16.1","","100.00","","","","-29","","Snow"
"-105.14","69.11","CAMBRIDGE BAY A","2400600","2012-02-14 04:00","2012","02","14","04:00","-18.9","","-24.1","","63","","","","3","","19","","16.1","","99.99","","","","-29","","Snow"
"-105.14","69.11","CAMBRIDGE BAY A","2400600","2012-02-14 05:00","2012","02","14","05:00","-18.5","","-23.5","","65","","","","4","","19","","19.3","","100.02","","","","-28","","Snow"
"-105.14","69.11","CAMBRIDGE BAY A","2400600","2012-02-14 06:00","2012","02","14","06:00","-18.1","","-22.9","","66","","","","5","","17","","19.3","","100.02","","","","-27","","Snow"
"-105.14","69.11","CAMBRIDGE BAY A","2400600","2012-02-14 07:00","2012","02","14","07:00","-17.9","","-22.8","","65","","","","4","","19","","16.1","","100.03","","","","-28","","Snow"
"-105.14","69.11","CAMBRIDGE BAY A","2400600","2012-02-14 08:00","2012","02","14","08:00","-17.9","","-22.8","","65","","","","4","","19","","16.1","","100.04","","","","-28","","Snow"
"-105.14","69.11","CAMBRIDGE BAY A","2400600","2012-02-14 09:00","2012","02","14","09:00","-17.8","","-22.8","","65","","","","4","","15","","19.3","","100.06","","","","-26","","Snow"
"-105.14","69.11","CAMBRIDGE BAY A","2400600","2012-02-14 10:00","2012","02","14","10:00","-17.5","","-22.3","","66","","","","3","","13","","24.1","","100.04","","","","-25","","Snow"
"-105.14","69.11","CAMBRIDGE BAY A","2400600","2012-02-14 11:00","2012","02","14","11:00","-17.6","","-22.6","","65","","","","2","","26","","24.1","","100.04","","","","-29","","Snow"
"-105.14","69.11","CAMBRIDGE BAY A","2400600","2012-02-14 12:00","2012","02","14","12:00","-17.8","","-22.7","","65","","","","2","","22","","16.1","","100.06","","","","-28","","Snow"
"-105.14","69.11","CAMBRIDGE BAY A","2400600","2012-02-14 13:00","2012","02","14","13:00","-17.7","","-22.6","","66","","","","2","","22","","16.1","","100.08","","","","-28","","Snow"
"-105.14","69.11","CAMBRIDGE BAY A","2400600","2012-02-14 14:00","2012","02","14","14:00","-17.7","","-22.6","","66","","","","1","","22","","9.7","","100.11","","","","-28","","Snow"
"-105.14","69.11","CAMBRIDGE BAY A","2400600","2012-02-14 15:00","2012","02","14","15:00","-17.9","","-22.7","","66","","","","36","","22","","6.4","","100.12","","","","-28","","Snow"
"-105.14","69.11","CAMBRIDGE BAY A","2400600","2012-02-14 16:00","2012","02","14","16:00","-17.9","","-23.0","","64","","","","36","","20","","6.4","","100.16","","","","-28","","Snow"
"-105.14","69.11","CAMBRIDGE BAY A","2400600","2012-02-14 17:00","2012","02","14","17:00","-17.9","","-23.3","","63","","","","36","","22","","9.7","","100.19","","","","-28","","Snow"
"-105.14","69.11","CAMBRIDGE BAY A","2400600","2012-02-14 18:00","2012","02","14","18:00","-18.0","","-23.1","","64","","","","35","","11","","16.1","","100.20","","","","-25","","Snow"
"-105.14","69.11","CAMBRIDGE BAY A","2400600","2012-02-14 19:00","2012","02","14","19:00","-18.3","","-23.1","","66","","","","35","","15","","19.3","","100.20","","","","-27","","Snow"
"-105.14","69.11","CAMBRIDGE BAY A","2400600","2012-02-14 20:00","2012","02","14","20:00","-18.3","","-23.3","","65","","","","35","","13","","19.3","","100.21","","","","-26","","Snow"
"-105.14","69.11","CAMBRIDGE BAY A","2400600","2012-02-14 21:00","2012","02","14","21:00","-18.5","","-23.4","","65","","","","32","","11","","19.3","","100.19","","","","-26","","Snow"
"-105.14","69.11","CAMBRIDGE BAY A","2400600","2012-02-14 22:00","2012","02","14","22:00","-18.5","","-23.2","","66","","","","31","","15","","19.3","","100.19","","","","-27","","Snow"
"-105.14","69.11","CAMBRIDGE BAY A","2400600","2012-02-14 23:00","2012","02","14","23:00","-18.6","","-23.5","","65","","","","32","","13","","19.3","","100.21","","","","-27","","Snow"
"-105.14","69.11","CAMBRIDGE BAY A","2400600","2012-02-15 00:00","2012","02","15","00:00","-19.6","","-25.0","","62","","","","35","","22","","19.3","","100.25","","","","-30","","Snow"
"-105.14","69.11","CAMBRIDGE BAY A","2400600","2012-02-15 01:00","2012","02","15","01:00","-19.9","","-25.0","","64","","","","33","","15","","19.3","","100.30","","","","-29","","Ice Crystals"
"-105.14","69.11","CAMBRIDGE BAY A","2400600","2012-02-15 02:00","2012","02","15","02:00","-20.9","","-26.1","","63","","","","33","","15","","19.3","","100.35","","","","-30","","Ice Crystals"
"-105.14","69.11","CAMBRIDGE BAY A","2400600","2012-02-15 03:00","2012","02","15","03:00","-21.3","","-26.2","","65","","","","34","","13","","19.3","","100.37","","","","-30","","Ice Crystals"
"-105.14","69.11","CAMBRIDGE BAY A","2400600","2012-02-15 04:00","2012","02","15","04:00","-21.4","","-23.0","","87","","","","32","","15","","19.3","","100.39","","","","-31","","Ice Crystals"
"-105.14","69.11","CAMBRIDGE BAY A","2400600","2012-02-15 05:00","2012","02","15","05:00","-21.3","","-24.5","","75","","","","32","","17","","19.3","","100.44","","","","-31","","Ice Crystals"
"-105.14","69.11","CAMBRIDGE BAY A","2400600","2012-02-15 06:00","2012","02","15","06:00","-20.3","","-23.7","","74","","","","32","","17","","19.3","","100.49","","","","-30","","Snow"
"-105.14","69.11","CAMBRIDGE BAY A","2400600","2012-02-15 07:00","2012","02","15","07:00","-19.3","","-20.1","","93","","","","32","","17","","12.9","","100.49","","","","-29","","Snow"
"-105.14","69.11","CAMBRIDGE BAY A","2400600","2012-02-15 08:00","2012","02","15","08:00","-18.7","","-22.7","","71","","","","33","","26","","16.1","","100.54","","","","-30","","Snow"
"-105.14","69.11","CAMBRIDGE BAY A","2400600","2012-02-15 09:00","2012","02","15","09:00","-18.6","","-22.5","","71","","","","34","","26","","19.3","","100.56","","","","-30","","Snow"
"-105.14","69.11","CAMBRIDGE BAY A","2400600","2012-02-15 10:00","2012","02","15","10:00","-18.5","","-22.4","","71","","","","34","","17","","19.3","","100.61","","","","-28","","Snow"
"-105.14","69.11","CAMBRIDGE BAY A","2400600","2012-02-15 11:00","2012","02","15","11:00","-18.5","","-22.5","","71","","","","33","","19","","19.3","","100.69","","","","-28","","Snow"
"-105.14","69.11","CAMBRIDGE BAY A","2400600","2012-02-15 12:00","2012","02","15","12:00","-19.0","","-23.0","","71","","","","34","","19","","16.1","","100.71","","","","-29","","Snow"
"-105.14","69.11","CAMBRIDGE BAY A","2400600","2012-02-15 13:00","2012","02","15","13:00","-21.5","","-25.6","","69","","","","32","","17","","19.3","","100.77","","","","-32","","Snow"
"-105.14","69.11","CAMBRIDGE BAY A","2400600","2012-02-15 14:00","2012","02","15","14:00","-23.3","","-27.3","","70","","","","32","","22","","24.1","","100.83","","","","-35","","Mostly Cloudy"
"-105.14","69.11","CAMBRIDGE BAY A","2400600","2012-02-15 15:00","2012","02","15","15:00","-23.5","","-27.4","","70","","","","34","","22","","24.1","","100.88","","","","-35","","Mostly Cloudy"
"-105.14","69.11","CAMBRIDGE BAY A","2400600","2012-02-15 16:00","2012","02","15","16:00","-20.7","","-24.6","","71","","","","36","","28","","24.1","","100.96","","","","-33","","Mostly Cloudy"
"-105.14","69.11","CAMBRIDGE BAY A","2400600","2012-02-15 17:00","2012","02","15","17:00","-20.7","","-24.4","","72","","","","36","","17","","24.1","","101.02","","","","-31","","Mostly Cloudy"
"-105.14","69.11","CAMBRIDGE BAY A","2400600","2012-02-15 18:00","2012","02","15","18:00","-22.1","","-25.1","","77","","","","1","","15","","24.1","","101.08","","","","-32","","Mostly Cloudy"
"-105.14","69.11","CAMBRIDGE BAY A","2400600","2012-02-15 19:00","2012","02","15","19:00","-25.8","","-29.6","","70","","","","35","","11","","24.1","","101.11","","","","-35","","Mainly Clear"
"-105.14","69.11","CAMBRIDGE BAY A","2400600","2012-02-15 20:00","2012","02","15","20:00","-27.7","","-31.5","","70","","","","32","","13","","24.1","","101.15","","","","-38","","Mainly Clear"
"-105.14","69.11","CAMBRIDGE BAY A","2400600","2012-02-15 21:00","2012","02","15","21:00","-27.9","","-32.1","","67","","","","32","","17","","24.1","","101.19","","","","-40","","Mainly Clear"
"-105.14","69.11","CAMBRIDGE BAY A","2400600","2012-02-15 22:00","2012","02","15","22:00","-24.8","","-28.4","","72","","","","32","","17","","24.1","","101.20","","","","-36","","Mainly Clear"
"-105.14","69.11","CAMBRIDGE BAY A","2400600","2012-02-15 23:00","2012","02","15","23:00","-23.5","","-27.3","","71","","","","32","","11","","24.1","","101.21","","","","-32","","Mostly Cloudy"
"-105.14","69.11","CAMBRIDGE BAY A","2400600","2012-02-16 00:00","2012","02","16","00:00","-23.9","","-27.8","","70","","","","26","","11","","24.1","","101.26","","","","-32","","Mostly Cloudy"
"-105.14","69.11","CAMBRIDGE BAY A","2400600","2012-02-16 01:00","2012","02","16","01:00","-23.9","","-27.7","","71","","","","30","","13","","24.1","","101.29","","","","-33","","Mostly Cloudy"
"-105.14","69.11","CAMBRIDGE BAY A","2400600","2012-02-16 02:00","2012","02","16","02:00","-23.5","","-27.3","","71","","","","26","","11","","24.1","","101.33","","","","-32","","Cloudy"
"-105.14","69.11","CAMBRIDGE BAY A","2400600","2012-02-16 03:00","2012","02","16","03:00","-24.0","","-28.0","","69","","","","27","","13","","24.1","","101.32","","","","-33","","Cloudy"
"-105.14","69.11","CAMBRIDGE BAY A","2400600","2012-02-16 04:00","2012","02","16","04:00","-24.2","","-28.0","","71","","","","26","","15","","24.1","","101.33","","","","-34","","Cloudy"
"-105.14","69.11","CAMBRIDGE BAY A","2400600","2012-02-16 05:00","2012","02","16","05:00","-24.4","","-28.3","","70","","","","28","","11","","24.1","","101.41","","","","-33","","Cloudy"
"-105.14","69.11","CAMBRIDGE BAY A","2400600","2012-02-16 06:00","2012","02","16","06:00","-23.8","","-27.5","","71","","","","28","","9","","24.1","","101.41","","","","-31","","Cloudy"
"-105.14","69.11","CAMBRIDGE BAY A","2400600","2012-02-16 07:00","2012","02","16","07:00","-23.5","","-27.3","","71","","","","25","","15","","24.1","","101.39","","","","-33","","Cloudy"
"-105.14","69.11","CAMBRIDGE BAY A","2400600","2012-02-16 08:00","2012","02","16","08:00","-23.1","","-26.8","","72","","","","29","","19","","24.1","","101.44","","","","-34","","Cloudy"
"-105.14","69.11","CAMBRIDGE BAY A","2400600","2012-02-16 09:00","2012","02","16","09:00","-23.0","","-26.6","","72","","","","28","","17","","19.3","","101.46","","","","-33","","Mostly Cloudy"
"-105.14","69.11","CAMBRIDGE BAY A","2400600","2012-02-16 10:00","2012","02","16","10:00","-23.1","","-26.9","","71","","","","30","","15","","24.1","","101.48","","","","-33","","Mostly Cloudy"
"-105.14","69.11","CAMBRIDGE BAY A","2400600","2012-02-16 11:00","2012","02","16","11:00","-23.7","","-27.5","","71","","","","32","","11","","24.1","","101.47","","","","-32","","Mostly Cloudy"
"-105.14","69.11","CAMBRIDGE BAY A","2400600","2012-02-16 12:00","2012","02","16","12:00","-25.6","","-29.6","","69","","","","32","","11","","24.1","","101.50","","","","-34","","Mainly Clear"
"-105.14","69.11","CAMBRIDGE BAY A","2400600","2012-02-16 13:00","2012","02","16","13:00","-26.0","","-30.0","","69","","","","31","","9","","24.1","","101.52","","","","-34","","Mainly Clear"
"-105.14","69.11","CAMBRIDGE BAY A","2400600","2012-02-16 14:00","2012","02","16","14:00","-26.2","","-29.9","","71","","","","32","","7","","24.1","","101.55","","","","-33","","Mainly Clear"
"-105.14","69.11","CAMBRIDGE BAY A","2400600","2012-02-16 15:00","2012","02","16","15:00","-27.2","","-31.0","","70","","","","34","","6","","24.1","","101.57","","","","-33","","Mainly Clear"
"-105.14","69.11","CAMBRIDGE BAY A","2400600","2012-02-16 16:00","2012","02","16","16:00","-27.5","","-31.7","","67","","","","","","0","","24.1","","101.59","","","","","","Mainly Clear"
"-105.14","69.11","CAMBRIDGE BAY A","2400600","2012-02-16 17:00","2012","02","16","17:00","-29.4","","-33.4","","68","","","","","","0","","24.1","","101.59","","","","","","Mainly Clear"
"-105.14","69.11","CAMBRIDGE BAY A","2400600","2012-02-16 18:00","2012","02","16","18:00","-29.9","","-33.8","","69","","","","","","0","","24.1","","101.57","","","","","","Mainly Clear"
"-105.14","69.11","CAMBRIDGE BAY A","2400600","2012-02-16 19:00","2012","02","16","19:00","-29.7","","-33.7","","68","","","","","","0","","24.1","","101.55","","","","","","Mainly Clear"
"-105.14","69.11","CAMBRIDGE BAY A","2400600","2012-02-16 20:00","2012","02","16","20:00","-32.1","","-36.8","","63","","","","9","","7","","24.1","","101.53","","","","-40","","Mainly Clear"
"-105.14","69.11","CAMBRIDGE BAY A","2400600","2012-02-16 21:00","2012","02","16","21:00","-30.8","","-35.0","","67","","","","","","0","","24.1","","101.48","","","","","","Mainly Clear"
"-105.14","69.11","CAMBRIDGE BAY A","2400600","2012-02-16 22:00","2012","02","16","22:00","-32.0","","-36.6","","64","","","","","","0","","24.1","","101.48","","","","","","Mainly Clear"
"-105.14","69.11","CAMBRIDGE BAY A","2400600","2012-02-16 23:00","2012","02","16","23:00","-32.1","","-36.2","","67","","","","","","0","","24.1","","101.49","","","","","","Mainly Clear"
"-105.14","69.11","CAMBRIDGE BAY A","2400600","2012-02-17 00:00","2012","02","17","00:00","-31.1","","-35.2","","67","","","","8","","9","","19.3","","101.48","","","","-40","","Ice Crystals"
"-105.14","69.11","CAMBRIDGE BAY A","2400600","2012-02-17 01:00","2012","02","17","01:00","-28.4","","-32.3","","69","","","","11","","11","","19.3","","101.42","","","","-38","","Ice Crystals"
"-105.14","69.11","CAMBRIDGE BAY A","2400600","2012-02-17 02:00","2012","02","17","02:00","-29.7","","-32.9","","74","","","","7","","6","","24.1","","101.38","","","","-36","","Ice Crystals"
"-105.14","69.11","CAMBRIDGE BAY A","2400600","2012-02-17 03:00","2012","02","17","03:00","-31.5","","-36.2","","63","","","","9","","11","","24.1","","101.30","","","","-41","","Ice Crystals"
"-105.14","69.11","CAMBRIDGE BAY A","2400600","2012-02-17 04:00","2012","02","17","04:00","-28.2","","-32.4","","67","","","","7","","11","","19.3","","101.21","","","","-38","","Ice Crystals"
"-105.14","69.11","CAMBRIDGE BAY A","2400600","2012-02-17 05:00","2012","02","17","05:00","-26.4","","-30.4","","69","","","","9","","11","","2.4","","101.13","","","","-35","","Ice Crystals"
"-105.14","69.11","CAMBRIDGE BAY A","2400600","2012-02-17 06:00","2012","02","17","06:00","-26.2","","-30.3","","68","","","","11","","24","","2.4","","101.08","","","","-39","","Ice Crystals"
"-105.14","69.11","CAMBRIDGE BAY A","2400600","2012-02-17 07:00","2012","02","17","07:00","-25.8","","-29.8","","69","","","","11","","30","","2.4","","101.01","","","","-40","","Ice Crystals"
"-105.14","69.11","CAMBRIDGE BAY A","2400600","2012-02-17 08:00","2012","02","17","08:00","-25.8","","-29.8","","69","","","","13","","32","","3.2","","100.93","","","","-41","","Ice Crystals"
"-105.14","69.11","CAMBRIDGE BAY A","2400600","2012-02-17 09:00","2012","02","17","09:00","-25.2","","-29.2","","69","","","","13","","32","","1.2","","100.87","","","","-40","","Blowing Snow"
"-105.14","69.11","CAMBRIDGE BAY A","2400600","2012-02-17 10:00","2012","02","17","10:00","-23.7","","-27.5","","71","","","","13","","32","","2.4","","100.80","","","","-38","","Ice Crystals"
"-105.14","69.11","CAMBRIDGE BAY A","2400600","2012-02-17 11:00","2012","02","17","11:00","-23.0","","-26.8","","71","","","","13","","33","","1.6","","100.71","","","","-37","","Blowing Snow"
"-105.14","69.11","CAMBRIDGE BAY A","2400600","2012-02-17 12:00","2012","02","17","12:00","-21.4","","-24.7","","75","","","","13","","35","","1.6","","100.64","","","","-35","","Blowing Snow"
"-105.14","69.11","CAMBRIDGE BAY A","2400600","2012-02-17 13:00","2012","02","17","13:00","-21.0","","-24.5","","73","","","","12","","32","","1.6","","100.56","","","","-34","","Blowing Snow"
"-105.14","69.11","CAMBRIDGE BAY A","2400600","2012-02-17 14:00","2012","02","17","14:00","-20.0","","-23.3","","75","","","","13","","35","","1.2","","100.47","","","","-33","","Snow,Blowing Snow"
"-105.14","69.11","CAMBRIDGE BAY A","2400600","2012-02-17 15:00","2012","02","17","15:00","-19.3","","-22.1","","78","","","","12","","37","","1.0","","100.42","","","","-33","","Snow,Blowing Snow"
"-105.14","69.11","CAMBRIDGE BAY A","2400600","2012-02-17 16:00","2012","02","17","16:00","-19.2","","-22.3","","76","","","","12","","37","","0.8","","100.36","","","","-33","","Snow,Blowing Snow"
"-105.14","69.11","CAMBRIDGE BAY A","2400600","2012-02-17 17:00","2012","02","17","17:00","-19.2","","-22.5","","75","","","","11","","37","","0.8","","100.32","","","","-33","","Snow,Blowing Snow"
"-105.14","69.11","CAMBRIDGE BAY A","2400600","2012-02-17 18:00","2012","02","17","18:00","-19.4","","-22.6","","76","","","","12","","35","","1.6","","100.31","","","","-33","","Blowing Snow"
"-105.14","69.11","CAMBRIDGE BAY A","2400600","2012-02-17 19:00","2012","02","17","19:00","-18.8","","-22.1","","75","","","","11","","32","","1.0","","100.29","","","","-31","","Snow,Blowing Snow"
"-105.14","69.11","CAMBRIDGE BAY A","2400600","2012-02-17 20:00","2012","02","17","20:00","-19.8","","-23.1","","75","","","","9","","41","","0.8","","100.29","","","","-34","","Snow,Blowing Snow"
"-105.14","69.11","CAMBRIDGE BAY A","2400600","2012-02-17 21:00","2012","02","17","21:00","-20.7","","-24.1","","74","","","","8","","41","","0.8","","100.28","","","","-35","","Snow,Blowing Snow"
"-105.14","69.11","CAMBRIDGE BAY A","2400600","2012-02-17 22:00","2012","02","17","22:00","-20.9","","-24.5","","73","","","","7","","46","","0.8","","100.24","","","","-36","","Snow,Blowing Snow"
"-105.14","69.11","CAMBRIDGE BAY A","2400600","2012-02-17 23:00","2012","02","17","23:00","-21.7","","-25.3","","73","","","","7","","39","","0.8","","100.23","","","","-36","","Snow,Blowing Snow"
"-105.14","69.11","CAMBRIDGE BAY A","2400600","2012-02-18 00:00","2012","02","18","00:00","-22.5","","-26.3","","71","","","","5","","37","","1.2","","100.27","","","","-37","","Snow,Blowing Snow"
"-105.14","69.11","CAMBRIDGE BAY A","2400600","2012-02-18 01:00","2012","02","18","01:00","-23.0","","-26.8","","71","","","","6","","37","","1.2","","100.31","","","","-38","","Snow,Blowing Snow"
"-105.14","69.11","CAMBRIDGE BAY A","2400600","2012-02-18 02:00","2012","02","18","02:00","-24.1","","-28.0","","70","","","","4","","37","","1.2","","100.35","","","","-39","","Snow,Blowing Snow"
"-105.14","69.11","CAMBRIDGE BAY A","2400600","2012-02-18 03:00","2012","02","18","03:00","-24.5","","-28.4","","70","","","","4","","37","","1.2","","100.42","","","","-40","","Snow,Blowing Snow"
"-105.14","69.11","CAMBRIDGE BAY A","2400600","2012-02-18 04:00","2012","02","18","04:00","-25.2","","-29.0","","71","","","","4","","37","","1.2","","100.50","","","","-41","","Snow,Blowing Snow"
"-105.14","69.11","CAMBRIDGE BAY A","2400600","2012-02-18 05:00","2012","02","18","05:00","-26.5","","-30.7","","68","","","","3","","37","","1.2","","100.54","","","","-42","","Snow,Blowing Snow"
"-105.14","69.11","CAMBRIDGE BAY A","2400600","2012-02-18 06:00","2012","02","18","06:00","-27.2","","-31.5","","67","","","","3","","46","","1.2","","100.59","","","","-45","","Snow,Blowing Snow"
"-105.14","69.11","CAMBRIDGE BAY A","2400600","2012-02-18 07:00","2012","02","18","07:00","-26.5","","-30.4","","70","","","","3","","37","","1.2","","100.70","","","","-42","","Snow,Blowing Snow"
"-105.14","69.11","CAMBRIDGE BAY A","2400600","2012-02-18 08:00","2012","02","18","08:00","-26.2","","-30.1","","70","","","","4","","43","","0.8","","100.80","","","","-43","","Blowing Snow"
"-105.14","69.11","CAMBRIDGE BAY A","2400600","2012-02-18 09:00","2012","02","18","09:00","-27.3","","-31.6","","67","","","","3","","41","","0.4","","100.89","","","","-44","","Blowing Snow"
"-105.14","69.11","CAMBRIDGE BAY A","2400600","2012-02-18 10:00","2012","02","18","10:00","-28.6","","-33.0","","66","","","","3","","46","","0.4","","100.99","","","","-47","","Blowing Snow"
"-105.14","69.11","CAMBRIDGE BAY A","2400600","2012-02-18 11:00","2012","02","18","11:00","-29.5","","-33.9","","66","","","","3","","46","","0.4","","101.10","","","","-48","","Blowing Snow"
"-105.14","69.11","CAMBRIDGE BAY A","2400600","2012-02-18 12:00","2012","02","18","12:00","-30.6","","-35.0","","65","","","","3","","43","","0.6","","101.20","","","","-49","","Blowing Snow"
"-105.14","69.11","CAMBRIDGE BAY A","2400600","2012-02-18 13:00","2012","02","18","13:00","-31.0","","-35.6","","64","","","","2","","37","","1.2","","101.28","","","","-48","","Blowing Snow"
"-105.14","69.11","CAMBRIDGE BAY A","2400600","2012-02-18 14:00","2012","02","18","14:00","-31.3","","-35.6","","66","","","","2","","37","","1.2","","101.35","","","","-49","","Blowing Snow"
"-105.14","69.11","CAMBRIDGE BAY A","2400600","2012-02-18 15:00","2012","02","18","15:00","-32.1","","-36.9","","62","","","","1","","37","","1.6","","101.42","","","","-50","","Blowing Snow"
"-105.14","69.11","CAMBRIDGE BAY A","2400600","2012-02-18 16:00","2012","02","18","16:00","-32.6","","-37.2","","63","","","","36","","28","","12.9","","101.56","","","","-49","","Clear"
"-105.14","69.11","CAMBRIDGE BAY A","2400600","2012-02-18 17:00","2012","02","18","17:00","-33.2","","-37.5","","65","","","","1","","7","","24.1","","101.67","","","","-41","","Mainly Clear"
"-105.14","69.11","CAMBRIDGE BAY A","2400600","2012-02-18 18:00","2012","02","18","18:00","-33.2","","-37.7","","64","","","","1","","26","","19.3","","101.69","","","","-49","","Clear"
"-105.14","69.11","CAMBRIDGE BAY A","2400600","2012-02-18 19:00","2012","02","18","19:00","-33.6","","-38.3","","63","","","","1","","11","","24.1","","101.75","","","","-44","","Clear"
"-105.14","69.11","CAMBRIDGE BAY A","2400600","2012-02-18 20:00","2012","02","18","20:00","-32.8","","-37.3","","64","","","","35","","11","","24.1","","101.77","","","","-43","","Clear"
"-105.14","69.11","CAMBRIDGE BAY A","2400600","2012-02-18 21:00","2012","02","18","21:00","-32.6","","-37.2","","63","","","","36","","11","","24.1","","101.79","","","","-43","","Clear"
"-105.14","69.11","CAMBRIDGE BAY A","2400600","2012-02-18 22:00","2012","02","18","22:00","-32.2","","-36.6","","65","","","","32","","7","","24.1","","101.86","","","","-40","","Clear"
"-105.14","69.11","CAMBRIDGE BAY A","2400600","2012-02-18 23:00","2012","02","18","23:00","-33.2","","-37.6","","65","","","","30","","9","","24.1","","101.88","","","","-42","","Clear"
"-105.14","69.11","CAMBRIDGE BAY A","2400600","2012-02-19 00:00","2012","02","19","00:00","-33.4","","-37.6","","66","","","","29","","17","","24.1","","101.91","","","","-46","","Clear"
"-105.14","69.11","CAMBRIDGE BAY A","2400600","2012-02-19 01:00","2012","02","19","01:00","-33.6","","-37.9","","65","","","","28","","15","","24.1","","101.94","","","","-46","","Clear"
"-105.14","69.11","CAMBRIDGE BAY A","2400600","2012-02-19 02:00","2012","02","19","02:00","-32.9","","-37.5","","63","","","","31","","26","","19.3","","101.94","","","","-48","","Ice Crystals"
"-105.14","69.11","CAMBRIDGE BAY A","2400600","2012-02-19 03:00","2012","02","19","03:00","-33.0","","-37.4","","65","","","","32","","30","","22.5","","101.96","","","","-50","","Ice Crystals"
"-105.14","69.11","CAMBRIDGE BAY A","2400600","2012-02-19 04:00","2012","02","19","04:00","-33.6","","-38.1","","64","","","","30","","20","","22.5","","102.03","","","","-48","","Ice Crystals"
"-105.14","69.11","CAMBRIDGE BAY A","2400600","2012-02-19 05:00","2012","02","19","05:00","-33.2","","-37.8","","63","","","","31","","22","","22.5","","102.02","","","","-48","","Ice Crystals"
"-105.14","69.11","CAMBRIDGE BAY A","2400600","2012-02-19 06:00","2012","02","19","06:00","-33.5","","-37.8","","65","","","","30","","20","","22.5","","102.04","","","","-48","","Ice Crystals"
"-105.14","69.11","CAMBRIDGE BAY A","2400600","2012-02-19 07:00","2012","02","19","07:00","-32.4","","-36.8","","65","","","","28","","19","","24.1","","102.05","","","","-46","","Ice Crystals"
"-105.14","69.11","CAMBRIDGE BAY A","2400600","2012-02-19 08:00","2012","02","19","08:00","-32.4","","-36.9","","64","","","","29","","15","","16.1","","102.04","","","","-44","","Ice Crystals"
"-105.14","69.11","CAMBRIDGE BAY A","2400600","2012-02-19 09:00","2012","02","19","09:00","-31.6","","-36.2","","64","","","","31","","11","","14.5","","102.03","","","","-42","","Ice Crystals"
"-105.14","69.11","CAMBRIDGE BAY A","2400600","2012-02-19 10:00","2012","02","19","10:00","-31.3","","-35.8","","64","","","","32","","20","","24.1","","102.03","","","","-45","","Ice Crystals"
"-105.14","69.11","CAMBRIDGE BAY A","2400600","2012-02-19 11:00","2012","02","19","11:00","-30.6","","-34.9","","66","","","","33","","20","","16.1","","102.03","","","","-44","","Ice Crystals"
"-105.14","69.11","CAMBRIDGE BAY A","2400600","2012-02-19 12:00","2012","02","19","12:00","-30.0","","-34.6","","64","","","","32","","22","","16.1","","102.04","","","","-44","","Ice Crystals"
"-105.14","69.11","CAMBRIDGE BAY A","2400600","2012-02-19 13:00","2012","02","19","13:00","-30.0","","-34.5","","65","","","","32","","26","","16.1","","102.07","","","","-45","","Ice Crystals"
"-105.14","69.11","CAMBRIDGE BAY A","2400600","2012-02-19 14:00","2012","02","19","14:00","-29.5","","-33.9","","66","","","","32","","24","","19.3","","102.09","","","","-44","","Ice Crystals"
"-105.14","69.11","CAMBRIDGE BAY A","2400600","2012-02-19 15:00","2012","02","19","15:00","-30.0","","-34.7","","64","","","","26","","15","","19.3","","102.13","","","","-41","","Ice Crystals"
"-105.14","69.11","CAMBRIDGE BAY A","2400600","2012-02-19 16:00","2012","02","19","16:00","-30.7","","-35.2","","65","","","","30","","9","","24.1","","102.15","","","","-39","","Ice Crystals"
"-105.14","69.11","CAMBRIDGE BAY A","2400600","2012-02-19 17:00","2012","02","19","17:00","-31.3","","-35.9","","64","","","","32","","7","","24.1","","102.16","","","","-39","","Ice Crystals"
"-105.14","69.11","CAMBRIDGE BAY A","2400600","2012-02-19 18:00","2012","02","19","18:00","-31.8","","-36.3","","64","","","","29","","7","","24.1","","102.17","","","","-39","","Ice Crystals"
"-105.14","69.11","CAMBRIDGE BAY A","2400600","2012-02-19 19:00","2012","02","19","19:00","-31.3","","-35.7","","65","","","","29","","7","","24.1","","102.16","","","","-39","","Ice Crystals"
"-105.14","69.11","CAMBRIDGE BAY A","2400600","2012-02-19 20:00","2012","02","19","20:00","-31.4","","-35.6","","66","","","","34","","13","","24.1","","102.16","","","","-42","","Ice Crystals"
"-105.14","69.11","CAMBRIDGE BAY A","2400600","2012-02-19 21:00","2012","02","19","21:00","-31.2","","-35.7","","64","","","","2","","6","","24.1","","102.15","","","","-38","","Ice Crystals"
"-105.14","69.11","CAMBRIDGE BAY A","2400600","2012-02-19 22:00","2012","02","19","22:00","-32.1","","-36.1","","68","","","","3","","6","","24.1","","102.13","","","","-39","","Ice Crystals"
"-105.14","69.11","CAMBRIDGE BAY A","2400600","2012-02-19 23:00","2012","02","19","23:00","-32.9","","-37.1","","66","","","","","","0","","24.1","","102.13","","","","","","Ice Crystals"
"-105.14","69.11","CAMBRIDGE BAY A","2400600","2012-02-20 00:00","2012","02","20","00:00","-33.3","","-38.0","","63","","","","5","","4","","24.1","","102.15","","","","-38","","Ice Crystals"
"-105.14","69.11","CAMBRIDGE BAY A","2400600","2012-02-20 01:00","2012","02","20","01:00","-34.2","","-37.6","","71","","","","5","","6","","24.1","","102.16","","","","-41","","Ice Crystals"
"-105.14","69.11","CAMBRIDGE BAY A","2400600","2012-02-20 02:00","2012","02","20","02:00","-34.2","","-38.6","","64","","","","5","","4","","24.1","","102.16","","","","-39","","Ice Crystals"
"-105.14","69.11","CAMBRIDGE BAY A","2400600","2012-02-20 03:00","2012","02","20","03:00","-35.3","","-39.6","","65","","","","6","","7","","24.1","","102.15","","","","-43","","Ice Crystals"
"-105.14","69.11","CAMBRIDGE BAY A","2400600","2012-02-20 04:00","2012","02","20","04:00","-35.0","","-39.7","","62","","","","7","","6","","24.1","","102.16","","","","-42","","Ice Crystals"
"-105.14","69.11","CAMBRIDGE BAY A","2400600","2012-02-20 05:00","2012","02","20","05:00","-35.1","","-39.5","","64","","","","7","","4","","24.1","","102.13","","","","-40","","Ice Crystals"
"-105.14","69.11","CAMBRIDGE BAY A","2400600","2012-02-20 06:00","2012","02","20","06:00","-35.6","","-40.2","","63","","","","7","","9","","24.1","","102.10","","","","-45","","Ice Crystals"
"-105.14","69.11","CAMBRIDGE BAY A","2400600","2012-02-20 07:00","2012","02","20","07:00","-35.5","","-40.3","","61","","","","8","","9","","24.1","","102.05","","","","-45","","Ice Crystals"
"-105.14","69.11","CAMBRIDGE BAY A","2400600","2012-02-20 08:00","2012","02","20","08:00","-33.6","","-37.8","","66","","","","11","","9","","19.3","","102.00","","","","-43","","Ice Crystals"
"-105.14","69.11","CAMBRIDGE BAY A","2400600","2012-02-20 09:00","2012","02","20","09:00","-34.1","","-38.4","","65","","","","10","","9","","16.1","","101.98","","","","-43","","Ice Crystals"
"-105.14","69.11","CAMBRIDGE BAY A","2400600","2012-02-20 10:00","2012","02","20","10:00","-33.3","","-37.6","","65","","","","10","","7","","4.8","","101.94","","","","-41","","Ice Crystals"
"-105.14","69.11","CAMBRIDGE BAY A","2400600","2012-02-20 11:00","2012","02","20","11:00","-31.5","","-35.5","","68","","","","11","","15","","1.0","","101.89","","","","-43","","Ice Crystals"
"-105.14","69.11","CAMBRIDGE BAY A","2400600","2012-02-20 12:00","2012","02","20","12:00","-30.1","","-34.5","","65","","","","12","","15","","1.6","","101.83","","","","-42","","Ice Crystals"
"-105.14","69.11","CAMBRIDGE BAY A","2400600","2012-02-20 13:00","2012","02","20","13:00","-30.6","","-35.1","","65","","","","10","","15","","1.6","","101.79","","","","-42","","Ice Crystals"
"-105.14","69.11","CAMBRIDGE BAY A","2400600","2012-02-20 14:00","2012","02","20","14:00","-30.4","","-34.9","","65","","","","11","","20","","1.2","","101.74","","","","-44","","Ice Crystals"
"-105.14","69.11","CAMBRIDGE BAY A","2400600","2012-02-20 15:00","2012","02","20","15:00","-29.3","","-33.7","","66","","","","11","","13","","0.8","","101.70","","","","-40","","Ice Crystals"
"-105.14","69.11","CAMBRIDGE BAY A","2400600","2012-02-20 16:00","2012","02","20","16:00","-28.4","","-32.6","","67","","","","13","","24","","1.0","","101.63","","","","-42","","Ice Crystals"
"-105.14","69.11","CAMBRIDGE BAY A","2400600","2012-02-20 17:00","2012","02","20","17:00","-28.7","","-33.1","","66","","","","13","","26","","1.6","","101.54","","","","-43","","Ice Crystals"
"-105.14","69.11","CAMBRIDGE BAY A","2400600","2012-02-20 18:00","2012","02","20","18:00","-29.3","","-33.6","","66","","","","14","","20","","9.7","","101.47","","","","-42","","Ice Crystals"
"-105.14","69.11","CAMBRIDGE BAY A","2400600","2012-02-20 19:00","2012","02","20","19:00","-28.9","","-33.3","","66","","","","13","","26","","12.9","","101.39","","","","-43","","Ice Crystals"
"-105.14","69.11","CAMBRIDGE BAY A","2400600","2012-02-20 20:00","2012","02","20","20:00","-29.2","","-33.5","","66","","","","14","","26","","16.1","","101.31","","","","-44","","Ice Crystals"
"-105.14","69.11","CAMBRIDGE BAY A","2400600","2012-02-20 21:00","2012","02","20","21:00","-28.8","","-33.0","","67","","","","14","","24","","19.3","","101.19","","","","-43","","Ice Crystals"
"-105.14","69.11","CAMBRIDGE BAY A","2400600","2012-02-20 22:00","2012","02","20","22:00","-27.9","","-32.1","","67","","","","14","","22","","19.3","","101.14","","","","-41","","Ice Crystals"
"-105.14","69.11","CAMBRIDGE BAY A","2400600","2012-02-20 23:00","2012","02","20","23:00","-27.2","","-31.4","","67","","","","14","","26","","19.3","","101.08","","","","-41","","Ice Crystals"
"-105.14","69.11","CAMBRIDGE BAY A","2400600","2012-02-21 00:00","2012","02","21","00:00","-27.1","","-31.4","","67","","","","14","","24","","24.1","","101.01","","","","-40","","Ice Crystals"
"-105.14","69.11","CAMBRIDGE BAY A","2400600","2012-02-21 01:00","2012","02","21","01:00","-26.1","","-30.5","","66","","","","14","","24","","24.1","","100.94","","","","-39","","Ice Crystals"
"-105.14","69.11","CAMBRIDGE BAY A","2400600","2012-02-21 02:00","2012","02","21","02:00","-26.1","","-30.4","","67","","","","15","","26","","24.1","","100.89","","","","-40","","Ice Crystals"
"-105.14","69.11","CAMBRIDGE BAY A","2400600","2012-02-21 03:00","2012","02","21","03:00","-25.9","","-30.6","","65","","","","15","","37","","6.4","","100.80","","","","-42","","Blowing Snow"
"-105.14","69.11","CAMBRIDGE BAY A","2400600","2012-02-21 04:00","2012","02","21","04:00","-26.1","","-30.1","","69","","","","15","","35","","6.4","","100.72","","","","-41","","Blowing Snow"
"-105.14","69.11","CAMBRIDGE BAY A","2400600","2012-02-21 05:00","2012","02","21","05:00","-26.0","","-30.0","","69","","","","14","","37","","6.4","","100.65","","","","-42","","Blowing Snow"
"-105.14","69.11","CAMBRIDGE BAY A","2400600","2012-02-21 06:00","2012","02","21","06:00","-26.4","","-30.6","","68","","","","14","","30","","4.8","","100.60","","","","-41","","Fog"
"-105.14","69.11","CAMBRIDGE BAY A","2400600","2012-02-21 07:00","2012","02","21","07:00","-26.2","","-30.3","","68","","","","14","","32","","6.4","","100.53","","","","-41","","Fog"
"-105.14","69.11","CAMBRIDGE BAY A","2400600","2012-02-21 08:00","2012","02","21","08:00","-26.7","","-30.9","","68","","","","16","","35","","1.2","","100.47","","","","-42","","Blowing Snow"
"-105.14","69.11","CAMBRIDGE BAY A","2400600","2012-02-21 09:00","2012","02","21","09:00","-26.6","","-30.8","","68","","","","11","","11","","1.2","","100.49","","","","-36","","Fog"
"-105.14","69.11","CAMBRIDGE BAY A","2400600","2012-02-21 10:00","2012","02","21","10:00","-26.7","","-30.9","","68","","","","13","","24","","4.0","","100.43","","","","-40","","Ice Crystals"
"-105.14","69.11","CAMBRIDGE BAY A","2400600","2012-02-21 11:00","2012","02","21","11:00","-26.5","","-31.0","","66","","","","14","","32","","19.3","","100.38","","","","-41","","Mostly Cloudy"
"-105.14","69.11","CAMBRIDGE BAY A","2400600","2012-02-21 12:00","2012","02","21","12:00","-26.7","","-30.9","","68","","","","14","","32","","24.1","","100.36","","","","-42","","Mostly Cloudy"
"-105.14","69.11","CAMBRIDGE BAY A","2400600","2012-02-21 13:00","2012","02","21","13:00","-26.5","","-30.7","","68","","","","13","","24","","24.1","","100.34","","","","-40","","Ice Crystals"
"-105.14","69.11","CAMBRIDGE BAY A","2400600","2012-02-21 14:00","2012","02","21","14:00","-26.3","","-30.4","","68","","","","13","","30","","24.1","","100.30","","","","-41","","Mostly Cloudy"
"-105.14","69.11","CAMBRIDGE BAY A","2400600","2012-02-21 15:00","2012","02","21","15:00","-25.9","","-30.1","","68","","","","14","","30","","16.1","","100.26","","","","-40","","Mainly Clear"
"-105.14","69.11","CAMBRIDGE BAY A","2400600","2012-02-21 16:00","2012","02","21","16:00","-26.2","","-30.3","","68","","","","13","","28","","19.3","","100.24","","","","-40","","Mainly Clear"
"-105.14","69.11","CAMBRIDGE BAY A","2400600","2012-02-21 17:00","2012","02","21","17:00","-26.4","","-30.5","","68","","","","13","","28","","19.3","","100.22","","","","-41","","Mainly Clear"
"-105.14","69.11","CAMBRIDGE BAY A","2400600","2012-02-21 18:00","2012","02","21","18:00","-26.3","","-30.6","","67","","","","14","","30","","19.3","","100.20","","","","-41","","Mainly Clear"
"-105.14","69.11","CAMBRIDGE BAY A","2400600","2012-02-21 19:00","2012","02","21","19:00","-26.6","","-30.7","","68","","","","14","","30","","19.3","","100.16","","","","-41","","Mainly Clear"
"-105.14","69.11","CAMBRIDGE BAY A","2400600","2012-02-21 20:00","2012","02","21","20:00","-26.6","","-30.6","","69","","","","14","","30","","19.3","","100.11","","","","-41","","Mainly Clear"
"-105.14","69.11","CAMBRIDGE BAY A","2400600","2012-02-21 21:00","2012","02","21","21:00","-26.9","","-31.0","","68","","","","14","","28","","19.3","","100.07","","","","-41","","Mainly Clear"
"-105.14","69.11","CAMBRIDGE BAY A","2400600","2012-02-21 22:00","2012","02","21","22:00","-27.1","","-31.1","","69","","","","14","","26","","19.3","","100.03","","","","-41","","Mainly Clear"
"-105.14","69.11","CAMBRIDGE BAY A","2400600","2012-02-21 23:00","2012","02","21","23:00","-28.9","","-33.4","","65","","","","9","","13","","19.3","","100.06","","","","-39","","Mainly Clear"
"-105.14","69.11","CAMBRIDGE BAY A","2400600","2012-02-22 00:00","2012","02","22","00:00","-29.2","","-33.8","","64","","","","11","","20","","24.1","","100.03","","","","-42","","Mainly Clear"
"-105.14","69.11","CAMBRIDGE BAY A","2400600","2012-02-22 01:00","2012","02","22","01:00","-29.0","","-33.5","","65","","","","12","","24","","6.4","","100.01","","","","-43","","Fog"
"-105.14","69.11","CAMBRIDGE BAY A","2400600","2012-02-22 02:00","2012","02","22","02:00","-29.2","","-33.6","","66","","","","11","","20","","6.4","","100.02","","","","-42","","Fog"
"-105.14","69.11","CAMBRIDGE BAY A","2400600","2012-02-22 03:00","2012","02","22","03:00","-28.7","","-33.1","","66","","","","9","","19","","8.0","","100.02","","","","-41","","Fog"
"-105.14","69.11","CAMBRIDGE BAY A","2400600","2012-02-22 04:00","2012","02","22","04:00","-27.0","","-31.2","","67","","","","11","","17","","12.9","","100.02","","","","-38","","Mainly Clear"
"-105.14","69.11","CAMBRIDGE BAY A","2400600","2012-02-22 05:00","2012","02","22","05:00","-26.0","","-30.2","","68","","","","11","","19","","19.3","","99.99","","","","-38","","Mainly Clear"
"-105.14","69.11","CAMBRIDGE BAY A","2400600","2012-02-22 06:00","2012","02","22","06:00","-25.6","","-29.7","","68","","","","12","","22","","6.4","","100.00","","","","-38","","Fog"
"-105.14","69.11","CAMBRIDGE BAY A","2400600","2012-02-22 07:00","2012","02","22","07:00","-26.1","","-30.3","","68","","","","12","","19","","4.8","","100.02","","","","-38","","Fog"
"-105.14","69.11","CAMBRIDGE BAY A","2400600","2012-02-22 08:00","2012","02","22","08:00","-26.5","","-30.8","","67","","","","12","","22","","4.0","","100.02","","","","-39","","Ice Crystals"
"-105.14","69.11","CAMBRIDGE BAY A","2400600","2012-02-22 09:00","2012","02","22","09:00","-27.2","","-31.6","","66","","","","11","","19","","4.8","","100.04","","","","-39","","Ice Crystals"
"-105.14","69.11","CAMBRIDGE BAY A","2400600","2012-02-22 10:00","2012","02","22","10:00","-28.2","","-32.8","","65","","","","10","","20","","16.1","","100.03","","","","-41","","Ice Crystals"
"-105.14","69.11","CAMBRIDGE BAY A","2400600","2012-02-22 11:00","2012","02","22","11:00","-28.7","","-33.1","","66","","","","10","","24","","16.1","","100.03","","","","-43","","Ice Crystals"
"-105.14","69.11","CAMBRIDGE BAY A","2400600","2012-02-22 12:00","2012","02","22","12:00","-28.6","","-33.4","","63","","","","9","","15","","19.3","","100.10","","","","-40","","Ice Crystals"
"-105.14","69.11","CAMBRIDGE BAY A","2400600","2012-02-22 13:00","2012","02","22","13:00","-28.3","","-32.9","","65","","","","7","","22","","12.9","","100.13","","","","-42","","Ice Crystals"
"-105.14","69.11","CAMBRIDGE BAY A","2400600","2012-02-22 14:00","2012","02","22","14:00","-27.3","","-31.9","","65","","","","6","","22","","12.9","","100.17","","","","-40","","Snow"
"-105.14","69.11","CAMBRIDGE BAY A","2400600","2012-02-22 15:00","2012","02","22","15:00","-27.5","","-31.8","","67","","","","5","","17","","12.9","","100.22","","","","-39","","Snow"
"-105.14","69.11","CAMBRIDGE BAY A","2400600","2012-02-22 16:00","2012","02","22","16:00","-26.6","","-30.9","","67","","","","6","","22","","12.9","","100.25","","","","-39","","Snow"
"-105.14","69.11","CAMBRIDGE BAY A","2400600","2012-02-22 17:00","2012","02","22","17:00","-26.4","","-30.7","","67","","","","6","","24","","12.9","","100.30","","","","-40","","Snow"
"-105.14","69.11","CAMBRIDGE BAY A","2400600","2012-02-22 18:00","2012","02","22","18:00","-26.4","","-30.8","","66","","","","6","","24","","12.9","","100.31","","","","-40","","Snow"
"-105.14","69.11","CAMBRIDGE BAY A","2400600","2012-02-22 19:00","2012","02","22","19:00","-26.5","","-30.9","","66","","","","6","","15","","12.9","","100.36","","","","-37","","Snow"
"-105.14","69.11","CAMBRIDGE BAY A","2400600","2012-02-22 20:00","2012","02","22","20:00","-26.5","","-30.8","","67","","","","4","","13","","12.9","","100.39","","","","-36","","Snow"
"-105.14","69.11","CAMBRIDGE BAY A","2400600","2012-02-22 21:00","2012","02","22","21:00","-27.2","","-31.6","","66","","","","4","","19","","12.9","","100.43","","","","-39","","Snow"
"-105.14","69.11","CAMBRIDGE BAY A","2400600","2012-02-22 22:00","2012","02","22","22:00","-28.2","","-32.4","","67","","","","4","","26","","9.7","","100.48","","","","-42","","Snow"
"-105.14","69.11","CAMBRIDGE BAY A","2400600","2012-02-22 23:00","2012","02","22","23:00","-28.2","","-32.4","","67","","","","4","","26","","9.7","","100.51","","","","-42","","Snow"
"-105.14","69.11","CAMBRIDGE BAY A","2400600","2012-02-23 00:00","2012","02","23","00:00","-28.3","","-32.7","","66","","","","4","","20","","12.9","","100.56","","","","-41","","Snow"
"-105.14","69.11","CAMBRIDGE BAY A","2400600","2012-02-23 01:00","2012","02","23","01:00","-28.9","","-33.3","","66","","","","4","","19","","14.5","","100.65","","","","-41","","Snow"
"-105.14","69.11","CAMBRIDGE BAY A","2400600","2012-02-23 02:00","2012","02","23","02:00","-28.9","","-33.5","","64","","","","4","","13","","16.1","","100.73","","","","-39","","Snow"
"-105.14","69.11","CAMBRIDGE BAY A","2400600","2012-02-23 03:00","2012","02","23","03:00","-28.1","","-32.6","","65","","","","4","","28","","16.1","","100.80","","","","-43","","Mainly Clear"
"-105.14","69.11","CAMBRIDGE BAY A","2400600","2012-02-23 04:00","2012","02","23","04:00","-30.4","","-35.0","","64","","","","4","","30","","6.4","","100.86","","","","-46","","Fog"
"-105.14","69.11","CAMBRIDGE BAY A","2400600","2012-02-23 05:00","2012","02","23","05:00","-31.0","","-35.6","","64","","","","3","","24","","4.8","","100.90","","","","-45","","Fog"
"-105.14","69.11","CAMBRIDGE BAY A","2400600","2012-02-23 06:00","2012","02","23","06:00","-31.3","","-36.0","","63","","","","2","","30","","4.8","","100.96","","","","-47","","Fog"
"-105.14","69.11","CAMBRIDGE BAY A","2400600","2012-02-23 07:00","2012","02","23","07:00","-31.4","","-35.6","","66","","","","1","","24","","4.8","","101.05","","","","-46","","Fog"
"-105.14","69.11","CAMBRIDGE BAY A","2400600","2012-02-23 08:00","2012","02","23","08:00","-31.4","","-36.0","","64","","","","2","","24","","4.8","","101.10","","","","-46","","Fog"
"-105.14","69.11","CAMBRIDGE BAY A","2400600","2012-02-23 09:00","2012","02","23","09:00","-30.9","","-35.5","","64","","","","1","","24","","8.0","","101.15","","","","-45","","Ice Crystals"
"-105.14","69.11","CAMBRIDGE BAY A","2400600","2012-02-23 10:00","2012","02","23","10:00","-30.3","","-34.9","","64","","","","35","","20","","16.1","","101.19","","","","-43","","Ice Crystals"
"-105.14","69.11","CAMBRIDGE BAY A","2400600","2012-02-23 11:00","2012","02","23","11:00","-30.3","","-35.0","","63","","","","32","","19","","16.1","","101.22","","","","-43","","Ice Crystals"
"-105.14","69.11","CAMBRIDGE BAY A","2400600","2012-02-23 12:00","2012","02","23","12:00","-29.1","","-33.7","","64","","","","33","","24","","16.1","","101.30","","","","-43","","Ice Crystals"
"-105.14","69.11","CAMBRIDGE BAY A","2400600","2012-02-23 13:00","2012","02","23","13:00","-29.5","","-34.3","","63","","","","34","","22","","16.1","","101.35","","","","-43","","Ice Crystals"
"-105.14","69.11","CAMBRIDGE BAY A","2400600","2012-02-23 14:00","2012","02","23","14:00","-29.5","","-34.2","","64","","","","32","","20","","19.3","","101.41","","","","-42","","Ice Crystals"
"-105.14","69.11","CAMBRIDGE BAY A","2400600","2012-02-23 15:00","2012","02","23","15:00","-30.0","","-34.9","","62","","","","31","","22","","24.1","","101.45","","","","-44","","Ice Crystals"
"-105.14","69.11","CAMBRIDGE BAY A","2400600","2012-02-23 16:00","2012","02","23","16:00","-29.9","","-34.4","","65","","","","31","","20","","24.1","","101.48","","","","-43","","Ice Crystals"
"-105.14","69.11","CAMBRIDGE BAY A","2400600","2012-02-23 17:00","2012","02","23","17:00","-30.4","","-34.6","","67","","","","27","","20","","24.1","","101.50","","","","-44","","Ice Crystals"
"-105.14","69.11","CAMBRIDGE BAY A","2400600","2012-02-23 18:00","2012","02","23","18:00","-30.5","","-35.1","","64","","","","28","","11","","24.1","","101.49","","","","-40","","Ice Crystals"
"-105.14","69.11","CAMBRIDGE BAY A","2400600","2012-02-23 19:00","2012","02","23","19:00","-31.2","","-35.5","","66","","","","31","","24","","19.3","","101.47","","","","-46","","Ice Crystals"
"-105.14","69.11","CAMBRIDGE BAY A","2400600","2012-02-23 20:00","2012","02","23","20:00","-31.8","","-36.2","","65","","","","32","","26","","19.3","","101.49","","","","-47","","Ice Crystals"
"-105.14","69.11","CAMBRIDGE BAY A","2400600","2012-02-23 21:00","2012","02","23","21:00","-32.2","","-36.4","","66","","","","32","","26","","19.3","","101.51","","","","-48","","Ice Crystals"
"-105.14","69.11","CAMBRIDGE BAY A","2400600","2012-02-23 22:00","2012","02","23","22:00","-32.5","","-36.6","","67","","","","33","","26","","19.3","","101.56","","","","-48","","Ice Crystals"
"-105.14","69.11","CAMBRIDGE BAY A","2400600","2012-02-23 23:00","2012","02","23","23:00","-33.2","","-37.4","","66","","","","34","","26","","19.3","","101.59","","","","-49","","Ice Crystals"
"-105.14","69.11","CAMBRIDGE BAY A","2400600","2012-02-24 00:00","2012","02","24","00:00","-32.9","","-37.3","","65","","","","34","","22","","19.3","","101.62","","","","-47","","Ice Crystals"
"-105.14","69.11","CAMBRIDGE BAY A","2400600","2012-02-24 01:00","2012","02","24","01:00","-34.3","","-38.4","","66","","","","35","","20","","19.3","","101.66","","","","-49","","Ice Crystals"
"-105.14","69.11","CAMBRIDGE BAY A","2400600","2012-02-24 02:00","2012","02","24","02:00","-34.6","","-39.1","","64","","","","34","","20","","19.3","","101.72","","","","-49","","Ice Crystals"
"-105.14","69.11","CAMBRIDGE BAY A","2400600","2012-02-24 03:00","2012","02","24","03:00","-34.9","","-39.0","","66","","","","31","","19","","19.3","","101.80","","","","-49","","Ice Crystals"
"-105.14","69.11","CAMBRIDGE BAY A","2400600","2012-02-24 04:00","2012","02","24","04:00","-35.5","","-40.2","","62","","","","31","","17","","16.1","","101.84","","","","-49","","Ice Crystals"
"-105.14","69.11","CAMBRIDGE BAY A","2400600","2012-02-24 05:00","2012","02","24","05:00","-35.5","","-40.1","","63","","","","32","","19","","16.1","","101.87","","","","-50","","Ice Crystals"
"-105.14","69.11","CAMBRIDGE BAY A","2400600","2012-02-24 06:00","2012","02","24","06:00","-35.9","","-40.6","","62","","","","33","","17","","16.1","","101.88","","","","-49","","Ice Crystals"
"-105.14","69.11","CAMBRIDGE BAY A","2400600","2012-02-24 07:00","2012","02","24","07:00","-35.8","","-40.2","","64","","","","32","","20","","19.3","","101.91","","","","-50","","Ice Crystals"
"-105.14","69.11","CAMBRIDGE BAY A","2400600","2012-02-24 08:00","2012","02","24","08:00","-35.2","","-39.7","","63","","","","33","","22","","24.1","","101.93","","","","-50","","Ice Crystals"
"-105.14","69.11","CAMBRIDGE BAY A","2400600","2012-02-24 09:00","2012","02","24","09:00","-35.0","","-39.5","","63","","","","32","","24","","24.1","","101.95","","","","-51","","Ice Crystals"
"-105.14","69.11","CAMBRIDGE BAY A","2400600","2012-02-24 10:00","2012","02","24","10:00","-34.4","","-39.0","","63","","","","32","","20","","24.1","","101.97","","","","-49","","Ice Crystals"
"-105.14","69.11","CAMBRIDGE BAY A","2400600","2012-02-24 11:00","2012","02","24","11:00","-34.3","","-38.8","","64","","","","32","","24","","24.1","","102.00","","","","-50","","Ice Crystals"
"-105.14","69.11","CAMBRIDGE BAY A","2400600","2012-02-24 12:00","2012","02","24","12:00","-33.3","","-38.0","","63","","","","32","","24","","24.1","","102.02","","","","-48","","Ice Crystals"
"-105.14","69.11","CAMBRIDGE BAY A","2400600","2012-02-24 13:00","2012","02","24","13:00","-33.0","","-38.1","","60","","","","32","","20","","24.1","","102.04","","","","-47","","Ice Crystals"
"-105.14","69.11","CAMBRIDGE BAY A","2400600","2012-02-24 14:00","2012","02","24","14:00","-32.6","","-37.3","","63","","","","33","","24","","24.1","","102.06","","","","-48","","Ice Crystals"
"-105.14","69.11","CAMBRIDGE BAY A","2400600","2012-02-24 15:00","2012","02","24","15:00","-31.7","","-36.5","","62","","","","33","","20","","24.1","","102.08","","","","-45","","Ice Crystals"
"-105.14","69.11","CAMBRIDGE BAY A","2400600","2012-02-24 16:00","2012","02","24","16:00","-31.9","","-36.9","","61","","","","34","","24","","24.1","","102.10","","","","-47","","Ice Crystals"
"-105.14","69.11","CAMBRIDGE BAY A","2400600","2012-02-24 17:00","2012","02","24","17:00","-32.6","","-37.6","","61","","","","34","","13","","24.1","","102.13","","","","-44","","Ice Crystals"
"-105.14","69.11","CAMBRIDGE BAY A","2400600","2012-02-24 18:00","2012","02","24","18:00","-33.6","","-38.7","","60","","","","35","","15","","24.1","","102.15","","","","-46","","Ice Crystals"
"-105.14","69.11","CAMBRIDGE BAY A","2400600","2012-02-24 19:00","2012","02","24","19:00","-34.1","","-39.1","","61","","","","1","","11","","24.1","","102.17","","","","-45","","Ice Crystals"
"-105.14","69.11","CAMBRIDGE BAY A","2400600","2012-02-24 20:00","2012","02","24","20:00","-34.5","","-39.6","","60","","","","2","","13","","24.1","","102.18","","","","-46","","Ice Crystals"
"-105.14","69.11","CAMBRIDGE BAY A","2400600","2012-02-24 21:00","2012","02","24","21:00","-34.4","","-39.4","","60","","","","2","","15","","24.1","","102.21","","","","-47","","Ice Crystals"
"-105.14","69.11","CAMBRIDGE BAY A","2400600","2012-02-24 22:00","2012","02","24","22:00","-35.4","","-40.1","","62","","","","1","","15","","24.1","","102.23","","","","-48","","Ice Crystals"
"-105.14","69.11","CAMBRIDGE BAY A","2400600","2012-02-24 23:00","2012","02","24","23:00","-36.0","","-40.5","","63","","","","2","","13","","24.1","","102.25","","","","-48","","Ice Crystals"
"-105.14","69.11","CAMBRIDGE BAY A","2400600","2012-02-25 00:00","2012","02","25","00:00","-36.0","","-40.7","","62","","","","3","","19","","24.1","","102.29","","","","-50","","Ice Crystals"
"-105.14","69.11","CAMBRIDGE BAY A","2400600","2012-02-25 01:00","2012","02","25","01:00","-36.4","","-41.1","","62","","","","3","","13","","24.1","","102.33","","","","-48","","Ice Crystals"
"-105.14","69.11","CAMBRIDGE BAY A","2400600","2012-02-25 02:00","2012","02","25","02:00","-36.4","","-41.0","","62","","","","3","","15","","24.1","","102.36","","","","-49","","Ice Crystals"
"-105.14","69.11","CAMBRIDGE BAY A","2400600","2012-02-25 03:00","2012","02","25","03:00","-37.0","","-41.2","","65","","","","3","","19","","24.1","","102.40","","","","-52","","Ice Crystals"
"-105.14","69.11","CAMBRIDGE BAY A","2400600","2012-02-25 04:00","2012","02","25","04:00","-36.4","","-40.9","","63","","","","3","","17","","24.1","","102.45","","","","-50","","Ice Crystals"
"-105.14","69.11","CAMBRIDGE BAY A","2400600","2012-02-25 05:00","2012","02","25","05:00","-36.7","","-41.2","","63","","","","3","","9","","24.1","","102.49","","","","-47","","Ice Crystals"
"-105.14","69.11","CAMBRIDGE BAY A","2400600","2012-02-25 06:00","2012","02","25","06:00","-37.1","","-41.4","","64","","","","2","","20","","24.1","","102.51","","","","-52","","Ice Crystals"
"-105.14","69.11","CAMBRIDGE BAY A","2400600","2012-02-25 07:00","2012","02","25","07:00","-36.9","","-41.2","","64","","","","1","","24","","24.1","","102.50","","","","-53","","Ice Crystals"
"-105.14","69.11","CAMBRIDGE BAY A","2400600","2012-02-25 08:00","2012","02","25","08:00","-36.6","","-41.1","","63","","","","1","","20","","24.1","","102.55","","","","-51","","Ice Crystals"
"-105.14","69.11","CAMBRIDGE BAY A","2400600","2012-02-25 09:00","2012","02","25","09:00","-36.4","","-40.9","","63","","","","35","","9","","24.1","","102.60","","","","-46","","Ice Crystals"
"-105.14","69.11","CAMBRIDGE BAY A","2400600","2012-02-25 10:00","2012","02","25","10:00","-35.6","","-40.3","","62","","","","34","","15","","24.1","","102.65","","","","-48","","Ice Crystals"
"-105.14","69.11","CAMBRIDGE BAY A","2400600","2012-02-25 11:00","2012","02","25","11:00","-34.9","","-39.9","","60","","","","34","","17","","24.1","","102.67","","","","-48","","Ice Crystals"
"-105.14","69.11","CAMBRIDGE BAY A","2400600","2012-02-25 12:00","2012","02","25","12:00","-34.8","","-39.7","","61","","","","32","","13","","24.1","","102.70","","","","-46","","Clear"
"-105.14","69.11","CAMBRIDGE BAY A","2400600","2012-02-25 13:00","2012","02","25","13:00","-34.5","","-39.3","","62","","","","30","","9","","24.1","","102.71","","","","-44","","Clear"
"-105.14","69.11","CAMBRIDGE BAY A","2400600","2012-02-25 14:00","2012","02","25","14:00","-33.9","","-38.7","","62","","","","32","","13","","24.1","","102.75","","","","-45","","Mainly Clear"
"-105.14","69.11","CAMBRIDGE BAY A","2400600","2012-02-25 15:00","2012","02","25","15:00","-34.2","","-38.9","","62","","","","31","","13","","24.1","","102.80","","","","-46","","Mainly Clear"
"-105.14","69.11","CAMBRIDGE BAY A","2400600","2012-02-25 16:00","2012","02","25","16:00","-34.3","","-39.3","","60","","","","32","","15","","24.1","","102.83","","","","-47","","Mainly Clear"
"-105.14","69.11","CAMBRIDGE BAY A","2400600","2012-02-25 17:00","2012","02","25","17:00","-35.0","","-39.3","","65","","","","32","","15","","24.1","","102.84","","","","-48","","Clear"
"-105.14","69.11","CAMBRIDGE BAY A","2400600","2012-02-25 18:00","2012","02","25","18:00","-35.6","","-40.2","","63","","","","32","","17","","24.1","","102.85","","","","-49","","Mainly Clear"
"-105.14","69.11","CAMBRIDGE BAY A","2400600","2012-02-25 19:00","2012","02","25","19:00","-35.2","","-39.5","","65","","","","32","","19","","24.1","","102.86","","","","-49","","Clear"
"-105.14","69.11","CAMBRIDGE BAY A","2400600","2012-02-25 20:00","2012","02","25","20:00","-35.4","","-40.4","","60","","","","29","","11","","24.1","","102.87","","","","-46","","Clear"
"-105.14","69.11","CAMBRIDGE BAY A","2400600","2012-02-25 21:00","2012","02","25","21:00","-34.8","","-39.3","","64","","","","30","","13","","24.1","","102.88","","","","-46","","Clear"
"-105.14","69.11","CAMBRIDGE BAY A","2400600","2012-02-25 22:00","2012","02","25","22:00","-35.6","","-40.1","","63","","","","30","","11","","24.1","","102.87","","","","-46","","Clear"
"-105.14","69.11","CAMBRIDGE BAY A","2400600","2012-02-25 23:00","2012","02","25","23:00","-36.2","","-40.7","","63","","","","29","","9","","24.1","","102.86","","","","-46","","Clear"
"-105.14","69.11","CAMBRIDGE BAY A","2400600","2012-02-26 00:00","2012","02","26","00:00","-35.0","","-39.6","","63","","","","29","","13","","24.1","","102.89","","","","-47","","Clear"
"-105.14","69.11","CAMBRIDGE BAY A","2400600","2012-02-26 01:00","2012","02","26","01:00","-36.2","","-40.4","","65","","","","30","","13","","24.1","","102.89","","","","-48","","Clear"
"-105.14","69.11","CAMBRIDGE BAY A","2400600","2012-02-26 02:00","2012","02","26","02:00","-35.6","","-40.0","","64","","","","29","","17","","24.1","","102.86","","","","-49","","Clear"
"-105.14","69.11","CAMBRIDGE BAY A","2400600","2012-02-26 03:00","2012","02","26","03:00","-35.9","","-40.1","","65","","","","26","","6","","24.1","","102.88","","","","-43","","Clear"
"-105.14","69.11","CAMBRIDGE BAY A","2400600","2012-02-26 04:00","2012","02","26","04:00","-36.0","","-40.3","","65","","","","25","","6","","24.1","","102.87","","","","-43","","Clear"
"-105.14","69.11","CAMBRIDGE BAY A","2400600","2012-02-26 05:00","2012","02","26","05:00","-35.9","","-40.1","","65","","","","27","","7","","24.1","","102.83","","","","-44","","Clear"
"-105.14","69.11","CAMBRIDGE BAY A","2400600","2012-02-26 06:00","2012","02","26","06:00","-35.5","","-39.5","","67","","","","27","","9","","24.1","","102.81","","","","-45","","Mainly Clear"
"-105.14","69.11","CAMBRIDGE BAY A","2400600","2012-02-26 07:00","2012","02","26","07:00","-35.5","","-39.6","","66","","","","26","","7","","24.1","","102.77","","","","-44","","Mainly Clear"
"-105.14","69.11","CAMBRIDGE BAY A","2400600","2012-02-26 08:00","2012","02","26","08:00","-35.5","","-40.0","","63","","","","28","","7","","24.1","","102.73","","","","-44","","Mostly Cloudy"
"-105.14","69.11","CAMBRIDGE BAY A","2400600","2012-02-26 09:00","2012","02","26","09:00","-34.7","","-39.3","","63","","","","25","","17","","24.1","","102.71","","","","-48","","Mostly Cloudy"
"-105.14","69.11","CAMBRIDGE BAY A","2400600","2012-02-26 10:00","2012","02","26","10:00","-34.5","","-39.0","","64","","","","24","","11","","24.1","","102.68","","","","-45","","Mostly Cloudy"
"-105.14","69.11","CAMBRIDGE BAY A","2400600","2012-02-26 11:00","2012","02","26","11:00","-33.7","","-38.4","","63","","","","25","","17","","24.1","","102.61","","","","-47","","Mostly Cloudy"
"-105.14","69.11","CAMBRIDGE BAY A","2400600","2012-02-26 12:00","2012","02","26","12:00","-33.0","","-37.6","","63","","","","25","","11","","24.1","","102.57","","","","-43","","Mainly Clear"
"-105.14","69.11","CAMBRIDGE BAY A","2400600","2012-02-26 13:00","2012","02","26","13:00","-32.5","","-37.2","","63","","","","26","","15","","24.1","","102.55","","","","-44","","Mainly Clear"
"-105.14","69.11","CAMBRIDGE BAY A","2400600","2012-02-26 14:00","2012","02","26","14:00","-32.5","","-36.9","","65","","","","26","","9","","24.1","","102.49","","","","-42","","Mainly Clear"
"-105.14","69.11","CAMBRIDGE BAY A","2400600","2012-02-26 15:00","2012","02","26","15:00","-32.5","","-37.3","","62","","","","21","","6","","24.1","","102.44","","","","-39","","Mainly Clear"
"-105.14","69.11","CAMBRIDGE BAY A","2400600","2012-02-26 16:00","2012","02","26","16:00","-33.6","","-38.1","","64","","","","20","","11","","24.1","","102.37","","","","-44","","Mainly Clear"
"-105.14","69.11","CAMBRIDGE BAY A","2400600","2012-02-26 17:00","2012","02","26","17:00","-34.6","","-39.0","","64","","","","20","","7","","24.1","","102.31","","","","-43","","Mainly Clear"
"-105.14","69.11","CAMBRIDGE BAY A","2400600","2012-02-26 18:00","2012","02","26","18:00","-34.7","","-39.2","","64","","","","18","","9","","24.1","","102.23","","","","-44","","Mainly Clear"
"-105.14","69.11","CAMBRIDGE BAY A","2400600","2012-02-26 19:00","2012","02","26","19:00","-35.1","","-39.3","","65","","","","19","","9","","24.1","","102.15","","","","-45","","Mainly Clear"
"-105.14","69.11","CAMBRIDGE BAY A","2400600","2012-02-26 20:00","2012","02","26","20:00","-35.7","","-40.0","","65","","","","19","","9","","24.1","","102.06","","","","-45","","Mainly Clear"
"-105.14","69.11","CAMBRIDGE BAY A","2400600","2012-02-26 21:00","2012","02","26","21:00","-36.5","","-41.1","","62","","","","15","","6","","24.1","","101.98","","","","-44","","Mainly Clear"
"-105.14","69.11","CAMBRIDGE BAY A","2400600","2012-02-26 22:00","2012","02","26","22:00","-36.5","","-40.8","","64","","","","15","","6","","24.1","","101.94","","","","-44","","Mainly Clear"
"-105.14","69.11","CAMBRIDGE BAY A","2400600","2012-02-26 23:00","2012","02","26","23:00","-36.0","","-40.5","","63","","","","15","","6","","24.1","","101.87","","","","-43","","Mainly Clear"
"-105.14","69.11","CAMBRIDGE BAY A","2400600","2012-02-27 00:00","2012","02","27","00:00","-35.6","","-40.2","","63","","","","14","","6","","24.1","","101.81","","","","-43","","Mainly Clear"
"-105.14","69.11","CAMBRIDGE BAY A","2400600","2012-02-27 01:00","2012","02","27","01:00","-35.6","","-39.7","","66","","","","","","0","","24.1","","101.75","","","","","","Mainly Clear"
"-105.14","69.11","CAMBRIDGE BAY A","2400600","2012-02-27 02:00","2012","02","27","02:00","-35.9","","-40.3","","64","","","","","","0","","24.1","","101.68","","","","","","Mainly Clear"
"-105.14","69.11","CAMBRIDGE BAY A","2400600","2012-02-27 03:00","2012","02","27","03:00","-35.7","","-40.0","","65","","","","14","","4","","24.1","","101.63","","","","-41","","Mainly Clear"
"-105.14","69.11","CAMBRIDGE BAY A","2400600","2012-02-27 04:00","2012","02","27","04:00","-37.0","","-41.2","","65","","","","14","","6","","24.1","","101.55","","","","-45","","Mainly Clear"
"-105.14","69.11","CAMBRIDGE BAY A","2400600","2012-02-27 05:00","2012","02","27","05:00","-36.2","","-40.0","","68","","","","16","","4","","24.1","","101.49","","","","-41","","Mainly Clear"
"-105.14","69.11","CAMBRIDGE BAY A","2400600","2012-02-27 06:00","2012","02","27","06:00","-37.5","","-41.4","","67","","","","17","","6","","24.1","","101.46","","","","-45","","Mainly Clear"
"-105.14","69.11","CAMBRIDGE BAY A","2400600","2012-02-27 07:00","2012","02","27","07:00","-37.3","","-41.1","","68","","","","","","0","","24.1","","101.39","","","","","","Mainly Clear"
"-105.14","69.11","CAMBRIDGE BAY A","2400600","2012-02-27 08:00","2012","02","27","08:00","-37.4","","-41.0","","69","","","","","","0","","24.1","","101.32","","","","","","Mainly Clear"
"-105.14","69.11","CAMBRIDGE BAY A","2400600","2012-02-27 09:00","2012","02","27","09:00","-37.0","","-41.0","","66","","","","","","0","","24.1","","101.29","","","","","","Mostly Cloudy"
"-105.14","69.11","CAMBRIDGE BAY A","2400600","2012-02-27 10:00","2012","02","27","10:00","-36.6","","-41.1","","63","","","","","","0","","24.1","","101.25","","","","","","Ice Crystals"
"-105.14","69.11","CAMBRIDGE BAY A","2400600","2012-02-27 11:00","2012","02","27","11:00","-35.9","","-40.2","","65","","","","","","0","","24.1","","101.22","","","","","","Mostly Cloudy"
"-105.14","69.11","CAMBRIDGE BAY A","2400600","2012-02-27 12:00","2012","02","27","12:00","-34.1","","-38.9","","62","","","","","","0","","24.1","","101.21","","","","","","Mostly Cloudy"
"-105.14","69.11","CAMBRIDGE BAY A","2400600","2012-02-27 13:00","2012","02","27","13:00","-32.9","","-37.2","","65","","","","18","","4","","24.1","","101.19","","","","-38","","Mostly Cloudy"
"-105.14","69.11","CAMBRIDGE BAY A","2400600","2012-02-27 14:00","2012","02","27","14:00","-32.5","","-36.8","","65","","","","22","","4","","24.1","","101.16","","","","-37","","Ice Crystals"
"-105.14","69.11","CAMBRIDGE BAY A","2400600","2012-02-27 15:00","2012","02","27","15:00","-31.1","","-35.4","","66","","","","23","","6","","24.1","","101.15","","","","-38","","Ice Crystals"
"-105.14","69.11","CAMBRIDGE BAY A","2400600","2012-02-27 16:00","2012","02","27","16:00","-31.1","","-35.5","","65","","","","22","","13","","24.1","","101.12","","","","-42","","Ice Crystals"
"-105.14","69.11","CAMBRIDGE BAY A","2400600","2012-02-27 17:00","2012","02","27","17:00","-31.9","","-36.6","","63","","","","25","","7","","24.1","","101.12","","","","-39","","Ice Crystals"
"-105.14","69.11","CAMBRIDGE BAY A","2400600","2012-02-27 18:00","2012","02","27","18:00","-32.0","","-36.3","","66","","","","25","","6","","24.1","","101.11","","","","-39","","Ice Crystals"
"-105.14","69.11","CAMBRIDGE BAY A","2400600","2012-02-27 19:00","2012","02","27","19:00","-33.6","","-38.1","","64","","","","","","0","","24.1","","101.12","","","","","","Ice Crystals"
"-105.14","69.11","CAMBRIDGE BAY A","2400600","2012-02-27 20:00","2012","02","27","20:00","-34.5","","-39.0","","64","","","","36","","6","","24.1","","101.12","","","","-42","","Ice Crystals"
"-105.14","69.11","CAMBRIDGE BAY A","2400600","2012-02-27 21:00","2012","02","27","21:00","-35.3","","-39.3","","67","","","","32","","6","","24.1","","101.12","","","","-43","","Ice Crystals"
"-105.14","69.11","CAMBRIDGE BAY A","2400600","2012-02-27 22:00","2012","02","27","22:00","-35.1","","-39.4","","65","","","","33","","9","","24.1","","101.12","","","","-45","","Ice Crystals"
"-105.14","69.11","CAMBRIDGE BAY A","2400600","2012-02-27 23:00","2012","02","27","23:00","-35.4","","-39.5","","66","","","","31","","13","","24.1","","101.16","","","","-47","","Ice Crystals"
"-105.14","69.11","CAMBRIDGE BAY A","2400600","2012-02-28 00:00","2012","02","28","00:00","-36.0","","-40.5","","63","","","","31","","15","","24.1","","101.19","","","","-49","","Ice Crystals"
"-105.14","69.11","CAMBRIDGE BAY A","2400600","2012-02-28 01:00","2012","02","28","01:00","-36.1","","-40.1","","67","","","","32","","15","","24.1","","101.23","","","","-49","","Ice Crystals"
"-105.14","69.11","CAMBRIDGE BAY A","2400600","2012-02-28 02:00","2012","02","28","02:00","-36.9","","-41.0","","66","","","","32","","9","","24.1","","101.27","","","","-47","","Ice Crystals"
"-105.14","69.11","CAMBRIDGE BAY A","2400600","2012-02-28 03:00","2012","02","28","03:00","-37.4","","-41.3","","67","","","","30","","7","","24.1","","101.29","","","","-46","","Ice Crystals"
"-105.14","69.11","CAMBRIDGE BAY A","2400600","2012-02-28 04:00","2012","02","28","04:00","-38.2","","-42.0","","67","","","","30","","9","","24.1","","101.31","","","","-48","","Ice Crystals"
"-105.14","69.11","CAMBRIDGE BAY A","2400600","2012-02-28 05:00","2012","02","28","05:00","-37.9","","-41.7","","67","","","","31","","13","","24.1","","101.35","","","","-50","","Ice Crystals"
"-105.14","69.11","CAMBRIDGE BAY A","2400600","2012-02-28 06:00","2012","02","28","06:00","-36.8","","-41.1","","64","","","","29","","13","","24.1","","101.38","","","","-49","","Ice Crystals"
"-105.14","69.11","CAMBRIDGE BAY A","2400600","2012-02-28 07:00","2012","02","28","07:00","-37.7","","-41.6","","67","","","","31","","17","","19.3","","101.38","","","","-52","","Ice Crystals"
"-105.14","69.11","CAMBRIDGE BAY A","2400600","2012-02-28 08:00","2012","02","28","08:00","-37.7","","-41.6","","67","","","","31","","22","","16.1","","101.40","","","","-53","","Ice Crystals"
"-105.14","69.11","CAMBRIDGE BAY A","2400600","2012-02-28 09:00","2012","02","28","09:00","-36.3","","-41.0","","62","","","","31","","19","","16.1","","101.43","","","","-51","","Ice Crystals"
"-105.14","69.11","CAMBRIDGE BAY A","2400600","2012-02-28 10:00","2012","02","28","10:00","-36.0","","-40.6","","63","","","","25","","11","","16.1","","101.45","","","","-47","","Ice Crystals"
"-105.14","69.11","CAMBRIDGE BAY A","2400600","2012-02-28 11:00","2012","02","28","11:00","-35.3","","-39.7","","64","","","","28","","19","","16.1","","101.46","","","","-49","","Ice Crystals"
"-105.14","69.11","CAMBRIDGE BAY A","2400600","2012-02-28 12:00","2012","02","28","12:00","-34.7","","-39.6","","61","","","","27","","26","","6.4","","101.47","","","","-51","","Ice Crystals"
"-105.14","69.11","CAMBRIDGE BAY A","2400600","2012-02-28 13:00","2012","02","28","13:00","-34.6","","-39.7","","60","","","","29","","24","","12.9","","101.53","","","","-50","","Ice Crystals"
"-105.14","69.11","CAMBRIDGE BAY A","2400600","2012-02-28 14:00","2012","02","28","14:00","-34.4","","-39.1","","62","","","","31","","28","","12.9","","101.54","","","","-51","","Ice Crystals"
"-105.14","69.11","CAMBRIDGE BAY A","2400600","2012-02-28 15:00","2012","02","28","15:00","-35.2","","-39.6","","64","","","","31","","17","","19.3","","101.59","","","","-49","","Ice Crystals"
"-105.14","69.11","CAMBRIDGE BAY A","2400600","2012-02-28 16:00","2012","02","28","16:00","-35.4","","-40.0","","63","","","","32","","17","","24.1","","101.61","","","","-49","","Ice Crystals"
"-105.14","69.11","CAMBRIDGE BAY A","2400600","2012-02-28 17:00","2012","02","28","17:00","-36.1","","-41.0","","61","","","","32","","13","","24.1","","101.63","","","","-48","","Ice Crystals"
"-105.14","69.11","CAMBRIDGE BAY A","2400600","2012-02-28 18:00","2012","02","28","18:00","-36.9","","-41.4","","63","","","","32","","15","","24.1","","101.65","","","","-50","","Ice Crystals"
"-105.14","69.11","CAMBRIDGE BAY A","2400600","2012-02-28 19:00","2012","02","28","19:00","-37.0","","-41.2","","65","","","","32","","22","","24.1","","101.67","","","","-53","","Ice Crystals"
"-105.14","69.11","CAMBRIDGE BAY A","2400600","2012-02-28 20:00","2012","02","28","20:00","-37.8","","-42.1","","64","","","","32","","19","","24.1","","101.71","","","","-53","","Ice Crystals"
"-105.14","69.11","CAMBRIDGE BAY A","2400600","2012-02-28 21:00","2012","02","28","21:00","-37.4","","-41.9","","63","","","","31","","26","","24.1","","101.70","","","","-54","","Ice Crystals"
"-105.14","69.11","CAMBRIDGE BAY A","2400600","2012-02-28 22:00","2012","02","28","22:00","-36.5","","-40.2","","69","","","","28","","11","","24.1","","101.70","","","","-47","","Clear"
"-105.14","69.11","CAMBRIDGE BAY A","2400600","2012-02-28 23:00","2012","02","28","23:00","-35.9","","-40.1","","65","","","","26","","19","","24.1","","101.71","","","","-50","","Clear"
"-105.14","69.11","CAMBRIDGE BAY A","2400600","2012-02-29 00:00","2012","02","29","00:00","-37.3","","-41.4","","66","","","","28","","9","","24.1","","101.65","","","","-47","","Clear"
"-105.14","69.11","CAMBRIDGE BAY A","2400600","2012-02-29 01:00","2012","02","29","01:00","-37.8","","-41.5","","68","","","","28","","6","","24.1","","101.62","","","","-45","","Clear"
"-105.14","69.11","CAMBRIDGE BAY A","2400600","2012-02-29 02:00","2012","02","29","02:00","-37.6","","-41.7","","65","","","","26","","13","","24.1","","101.62","","","","-50","","Clear"
"-105.14","69.11","CAMBRIDGE BAY A","2400600","2012-02-29 03:00","2012","02","29","03:00","-37.8","","-41.9","","65","","","","25","","6","","24.1","","101.61","","","","-45","","Clear"
"-105.14","69.11","CAMBRIDGE BAY A","2400600","2012-02-29 04:00","2012","02","29","04:00","-37.5","","-41.3","","68","","","","26","","7","","24.1","","101.58","","","","-46","","Clear"
"-105.14","69.11","CAMBRIDGE BAY A","2400600","2012-02-29 05:00","2012","02","29","05:00","-36.8","","-40.8","","66","","","","27","","13","","24.1","","101.55","","","","-49","","Mainly Clear"
"-105.14","69.11","CAMBRIDGE BAY A","2400600","2012-02-29 06:00","2012","02","29","06:00","-36.9","","-40.8","","67","","","","26","","17","","24.1","","101.49","","","","-51","","Mainly Clear"
"-105.14","69.11","CAMBRIDGE BAY A","2400600","2012-02-29 07:00","2012","02","29","07:00","-37.2","","-41.5","","64","","","","27","","15","","24.1","","101.45","","","","-50","","Mainly Clear"
"-105.14","69.11","CAMBRIDGE BAY A","2400600","2012-02-29 08:00","2012","02","29","08:00","-37.8","","-41.8","","66","","","","24","","11","","24.1","","101.43","","","","-49","","Mainly Clear"
"-105.14","69.11","CAMBRIDGE BAY A","2400600","2012-02-29 09:00","2012","02","29","09:00","-36.2","","-40.4","","65","","","","29","","19","","24.1","","101.40","","","","-51","","Mainly Clear"
"-105.14","69.11","CAMBRIDGE BAY A","2400600","2012-02-29 10:00","2012","02","29","10:00","-35.9","","-40.3","","64","","","","28","","13","","24.1","","101.40","","","","-48","","Mainly Clear"
"-105.14","69.11","CAMBRIDGE BAY A","2400600","2012-02-29 11:00","2012","02","29","11:00","-35.8","","-40.4","","63","","","","29","","24","","24.1","","101.41","","","","-52","","Mainly Clear"
"-105.14","69.11","CAMBRIDGE BAY A","2400600","2012-02-29 12:00","2012","02","29","12:00","-35.9","","-40.3","","64","","","","28","","22","","24.1","","101.40","","","","-51","","Mainly Clear"
"-105.14","69.11","CAMBRIDGE BAY A","2400600","2012-02-29 13:00","2012","02","29","13:00","-35.7","","-40.2","","63","","","","31","","19","","24.1","","101.43","","","","-50","","Mainly Clear"
"-105.14","69.11","CAMBRIDGE BAY A","2400600","2012-02-29 14:00","2012","02","29","14:00","-35.5","","-40.1","","63","","","","31","","9","","24.1","","101.47","","","","-45","","Mainly Clear"
"-105.14","69.11","CAMBRIDGE BAY A","2400600","2012-02-29 15:00","2012","02","29","15:00","-35.5","","-40.3","","61","","","","31","","17","","24.1","","101.46","","","","-49","","Mainly Clear"
"-105.14","69.11","CAMBRIDGE BAY A","2400600","2012-02-29 16:00","2012","02","29","16:00","-35.9","","-40.4","","63","","","","27","","15","","24.1","","101.46","","","","-49","","Clear"
"-105.14","69.11","CAMBRIDGE BAY A","2400600","2012-02-29 17:00","2012","02","29","17:00","-36.7","","-41.1","","64","","","","31","","6","","24.1","","101.48","","","","-44","","Mainly Clear"
"-105.14","69.11","CAMBRIDGE BAY A","2400600","2012-02-29 18:00","2012","02","29","18:00","-36.7","","-41.2","","63","","","","25","","9","","24.1","","101.51","","","","-47","","Mainly Clear"
"-105.14","69.11","CAMBRIDGE BAY A","2400600","2012-02-29 19:00","2012","02","29","19:00","-36.9","","-41.5","","62","","","","27","","9","","24.1","","101.53","","","","-47","","Mainly Clear"
"-105.14","69.11","CAMBRIDGE BAY A","2400600","2012-02-29 20:00","2012","02","29","20:00","-37.2","","-41.3","","66","","","","29","","11","","24.1","","101.46","","","","-48","","Mainly Clear"
"-105.14","69.11","CAMBRIDGE BAY A","2400600","2012-02-29 21:00","2012","02","29","21:00","-37.7","","-42.3","","62","","","","31","","19","","24.1","","101.48","","","","-52","","Mainly Clear"
"-105.14","69.11","CAMBRIDGE BAY A","2400600","2012-02-29 22:00","2012","02","29","22:00","-38.2","","-42.3","","65","","","","32","","17","","24.1","","101.47","","","","-52","","Mainly Clear"
"-105.14","69.11","CAMBRIDGE BAY A","2400600","2012-02-29 23:00","2012","02","29","23:00","-37.3","","-41.3","","66","","","","32","","11","","24.1","","101.50","","","","-48","","Mostly Cloudy"
