"Longitude (x)","Latitude (y)","Station Name","Climate ID","Date/Time (LST)","Year","Month","Day","Time (LST)","Temp (°C)","Temp Flag","Dew Point Temp (°C)","Dew Point Temp Flag","Rel Hum (%)","Rel Hum Flag","Precip. Amount (mm)","Precip. Amount Flag","Wind Dir (10s deg)","Wind Dir Flag","Wind Spd (km/h)","Wind Spd Flag","Visibility (km)","Visibility Flag","Stn Press (kPa)","Stn Press Flag","Hmdx","Hmdx Flag","Wind Chill","Wind Chill Flag","Weather"
"-123.53","48.30","RACE ROCKS","1016640","2019-04-01 00:00","2019","04","01","00:00","8.7","","4.9","","77","","","","4","","12","","","","101.64","","","","","","NA"
"-123.53","48.30","RACE ROCKS","1016640","2019-04-01 01:00","2019","04","01","01:00","9.7","","3.7","","66","","","","5","","11","","","","101.61","","","","","","NA"
"-123.53","48.30","RACE ROCKS","1016640","2019-04-01 02:00","2019","04","01","02:00","9.8","","4.4","","69","","","","7","","3","","","","101.60","","","","","","NA"
"-123.53","48.30","RACE ROCKS","1016640","2019-04-01 03:00","2019","04","01","03:00","8.8","","3.9","","71","","","","5","","4","","","","101.58","","","","","","NA"
"-123.53","48.30","RACE ROCKS","1016640","2019-04-01 04:00","2019","04","01","04:00","8.0","","4.9","","81","","","","6","","12","","","","101.55","","","","","","NA"
"-123.53","48.30","RACE ROCKS","1016640","2019-04-01 05:00","2019","04","01","05:00","7.7","","5.6","","87","","","","9","","8","","","","101.54","","","","","","NA"
"-123.53","48.30","RACE ROCKS","1016640","2019-04-01 06:00","2019","04","01","06:00","8.8","","4.1","","73","","","","9","","9","","","","101.52","","","","","","NA"
"-123.53","48.30","RACE ROCKS","1016640","2019-04-01 07:00","2019","04","01","07:00","9.3","","4.7","","73","","","","9","","16","","","","101.51","","","","","","NA"
"-123.53","48.30","RACE ROCKS","1016640","2019-04-01 08:00","2019","04","01","08:00","10.0","","4.3","","68","","","","14","","22","","","","101.49","","","","","","NA"
"-123.53","48.30","RACE ROCKS","1016640","2019-04-01 09:00","2019","04","01","09:00","10.1","","4.8","","70","","","","12","","23","","","","101.48","","","","","","NA"
"-123.53","48.30","RACE ROCKS","1016640","2019-04-01 10:00","2019","04","01","10:00","10.2","","4.4","","67","","","","13","","23","","","","101.45","","","","","","NA"
"-123.53","48.30","RACE ROCKS","1016640","2019-04-01 11:00","2019","04","01","11:00","11.1","","4.3","","63","","","","9","","24","","","","101.40","","","","","","NA"
"-123.53","48.30","RACE ROCKS","1016640","2019-04-01 12:00","2019","04","01","12:00","11.9","","4.6","","61","","","","10","","20","","","","101.32","","","","","","NA"
"-123.53","48.30","RACE ROCKS","1016640","2019-04-01 13:00","2019","04","01","13:00","12.4","","5.4","","62","","","","10","","20","","","","101.26","","","","","","NA"
"-123.53","48.30","RACE ROCKS","1016640","2019-04-01 14:00","2019","04","01","14:00","12.8","","4.1","","56","","","","12","","19","","","","101.17","","","","","","NA"
"-123.53","48.30","RACE ROCKS","1016640","2019-04-01 15:00","2019","04","01","15:00","13.7","","2.8","","48","","","","13","","20","","","","101.10","","","","","","NA"
"-123.53","48.30","RACE ROCKS","1016640","2019-04-01 16:00","2019","04","01","16:00","14.2","","2.6","","46","","","","14","","22","","","","101.03","","","","","","NA"
"-123.53","48.30","RACE ROCKS","1016640","2019-04-01 17:00","2019","04","01","17:00","15.0","","2.1","","42","","","","15","","23","","","","100.98","","","","","","NA"
"-123.53","48.30","RACE ROCKS","1016640","2019-04-01 18:00","2019","04","01","18:00","14.5","","1.9","","43","","","","14","","18","","","","100.97","","","","","","NA"
"-123.53","48.30","RACE ROCKS","1016640","2019-04-01 19:00","2019","04","01","19:00","13.6","","3.3","","50","","","","13","","11","","","","100.94","","","","","","NA"
"-123.53","48.30","RACE ROCKS","1016640","2019-04-01 20:00","2019","04","01","20:00","12.0","","4.4","","60","","","","12","","3","","","","100.95","","","","","","NA"
"-123.53","48.30","RACE ROCKS","1016640","2019-04-01 21:00","2019","04","01","21:00","11.9","","4.2","","59","","","","12","","6","","","","100.92","","","","","","NA"
"-123.53","48.30","RACE ROCKS","1016640","2019-04-01 22:00","2019","04","01","22:00","11.6","","4.7","","63","","","","12","","10","","","","100.89","","","","","","NA"
"-123.53","48.30","RACE ROCKS","1016640","2019-04-01 23:00","2019","04","01","23:00","11.6","","4.2","","60","","","","12","","6","","","","100.86","","","","","","NA"
"-123.53","48.30","RACE ROCKS","1016640","2019-04-02 00:00","2019","04","02","00:00","11.9","","3.2","","55","","","","6","","9","","","","100.86","","","","","","NA"
"-123.53","48.30","RACE ROCKS","1016640","2019-04-02 01:00","2019","04","02","01:00","10.5","","3.9","","64","","","","5","","15","","","","100.86","","","","","","NA"
"-123.53","48.30","RACE ROCKS","1016640","2019-04-02 02:00","2019","04","02","02:00","9.5","","4.9","","73","","","","5","","17","","","","100.82","","","","","","NA"
"-123.53","48.30","RACE ROCKS","1016640","2019-04-02 03:00","2019","04","02","03:00","12.9","","-1.2","","37","","","","4","","26","","","","100.77","","","","","","NA"
"-123.53","48.30","RACE ROCKS","1016640","2019-04-02 04:00","2019","04","02","04:00","10.8","","3.2","","60","","","","9","","20","","","","100.75","","","","","","NA"
"-123.53","48.30","RACE ROCKS","1016640","2019-04-02 05:00","2019","04","02","05:00","10.7","","3.5","","61","","","","12","","18","","","","100.73","","","","","","NA"
"-123.53","48.30","RACE ROCKS","1016640","2019-04-02 06:00","2019","04","02","06:00","11.5","","1.4","","50","","","","10","","17","","","","100.71","","","","","","NA"
"-123.53","48.30","RACE ROCKS","1016640","2019-04-02 07:00","2019","04","02","07:00","11.9","","1.0","","47","","","","10","","21","","","","100.69","","","","","","NA"
"-123.53","48.30","RACE ROCKS","1016640","2019-04-02 08:00","2019","04","02","08:00","12.0","","0.7","","46","","","","6","","23","","","","100.67","","","","","","NA"
"-123.53","48.30","RACE ROCKS","1016640","2019-04-02 09:00","2019","04","02","09:00","13.3","","-1.0","","37","","","","4","","28","","","","100.63","","","","","","NA"
"-123.53","48.30","RACE ROCKS","1016640","2019-04-02 10:00","2019","04","02","10:00","13.5","","-1.3","","36","","","","4","","31","","","","100.62","","","","","","NA"
"-123.53","48.30","RACE ROCKS","1016640","2019-04-02 11:00","2019","04","02","11:00","14.3","","-2.0","","33","","","","5","","30","","","","100.60","","","","","","NA"
"-123.53","48.30","RACE ROCKS","1016640","2019-04-02 12:00","2019","04","02","12:00","14.5","","-1.0","","34","","","","6","","24","","","","100.53","","","","","","NA"
"-123.53","48.30","RACE ROCKS","1016640","2019-04-02 13:00","2019","04","02","13:00","13.5","","1.9","","45","","","","14","","18","","","","100.49","","","","","","NA"
"-123.53","48.30","RACE ROCKS","1016640","2019-04-02 14:00","2019","04","02","14:00","14.0","","0.4","","40","","","","16","","21","","","","100.44","","","","","","NA"
"-123.53","48.30","RACE ROCKS","1016640","2019-04-02 15:00","2019","04","02","15:00","13.8","","-1.8","","34","","","","17","","17","","","","100.41","","","","","","NA"
"-123.53","48.30","RACE ROCKS","1016640","2019-04-02 16:00","2019","04","02","16:00","13.6","","-1.3","","36","","","","27","","10","","","","100.40","","","","","","NA"
"-123.53","48.30","RACE ROCKS","1016640","2019-04-02 17:00","2019","04","02","17:00","15.1","","-1.5","","32","","","","27","","13","","","","100.37","","","","","","NA"
"-123.53","48.30","RACE ROCKS","1016640","2019-04-02 18:00","2019","04","02","18:00","14.6","","-1.2","","34","","","","26","","14","","","","100.35","","","","","","NA"
"-123.53","48.30","RACE ROCKS","1016640","2019-04-02 19:00","2019","04","02","19:00","12.4","","3.5","","55","","","","25","","28","","","","100.34","","","","","","NA"
"-123.53","48.30","RACE ROCKS","1016640","2019-04-02 20:00","2019","04","02","20:00","12.4","","5.3","","62","","","","28","","30","","","","100.37","","","","","","NA"
"-123.53","48.30","RACE ROCKS","1016640","2019-04-02 21:00","2019","04","02","21:00","12.9","","5.9","","63","","","","28","","31","","","","100.36","","","","","","NA"
"-123.53","48.30","RACE ROCKS","1016640","2019-04-02 22:00","2019","04","02","22:00","12.8","","6.0","","63","","","","29","","21","","","","100.33","","","","","","NA"
"-123.53","48.30","RACE ROCKS","1016640","2019-04-02 23:00","2019","04","02","23:00","9.6","","7.2","","85","","","","25","","26","","","","100.31","","","","","","NA"
"-123.53","48.30","RACE ROCKS","1016640","2019-04-03 00:00","2019","04","03","00:00","9.2","","8.0","","92","","","","27","","20","","","","100.33","","","","","","NA"
"-123.53","48.30","RACE ROCKS","1016640","2019-04-03 01:00","2019","04","03","01:00","9.4","","8.3","","93","","","","28","","16","","","","100.34","","","","","","NA"
"-123.53","48.30","RACE ROCKS","1016640","2019-04-03 02:00","2019","04","03","02:00","9.7","","7.9","","89","","","","2","","11","","","","100.33","","","","","","NA"
"-123.53","48.30","RACE ROCKS","1016640","2019-04-03 03:00","2019","04","03","03:00","9.6","","8.1","","90","","","","2","","22","","","","100.30","","","","","","NA"
"-123.53","48.30","RACE ROCKS","1016640","2019-04-03 04:00","2019","04","03","04:00","9.3","","8.0","","92","","","","30","","4","","","","100.29","","","","","","NA"
"-123.53","48.30","RACE ROCKS","1016640","2019-04-03 05:00","2019","04","03","05:00","9.3","","8.0","","92","","","","34","","4","","","","100.27","","","","","","NA"
"-123.53","48.30","RACE ROCKS","1016640","2019-04-03 06:00","2019","04","03","06:00","9.3","","8.0","","91","","","","34","","3","","","","100.29","","","","","","NA"
"-123.53","48.30","RACE ROCKS","1016640","2019-04-03 07:00","2019","04","03","07:00","9.3","","8.0","","92","","","","6","","3","","","","100.30","","","","","","NA"
"-123.53","48.30","RACE ROCKS","1016640","2019-04-03 08:00","2019","04","03","08:00","9.3","","8.0","","91","","","","3","","6","","","","100.32","","","","","","NA"
"-123.53","48.30","RACE ROCKS","1016640","2019-04-03 09:00","2019","04","03","09:00","10.4","","9.1","","92","","","","7","","3","","","","100.35","","","","","","NA"
"-123.53","48.30","RACE ROCKS","1016640","2019-04-03 10:00","2019","04","03","10:00","9.9","","8.3","","90","","","","3","","7","","","","100.36","","","","","","NA"
"-123.53","48.30","RACE ROCKS","1016640","2019-04-03 11:00","2019","04","03","11:00","9.8","","9.0","","95","","","","26","","33","","","","100.48","","","","","","NA"
"-123.53","48.30","RACE ROCKS","1016640","2019-04-03 12:00","2019","04","03","12:00","10.7","","8.0","","83","","","","28","","54","","","","100.46","","","","","","NA"
"-123.53","48.30","RACE ROCKS","1016640","2019-04-03 13:00","2019","04","03","13:00","10.6","","6.9","","78","","","","29","","50","","","","100.57","","","","","","NA"
"-123.53","48.30","RACE ROCKS","1016640","2019-04-03 14:00","2019","04","03","14:00","10.8","","6.5","","74","","","","29","","48","","","","100.66","","","","","","NA"
"-123.53","48.30","RACE ROCKS","1016640","2019-04-03 15:00","2019","04","03","15:00","11.2","","6.3","","72","","","","29","","47","","","","100.73","","","","","","NA"
"-123.53","48.30","RACE ROCKS","1016640","2019-04-03 16:00","2019","04","03","16:00","10.8","","6.3","","74","","","","29","","45","","","","100.77","","","","","","NA"
"-123.53","48.30","RACE ROCKS","1016640","2019-04-03 17:00","2019","04","03","17:00","11.1","","6.2","","72","","","","28","","45","","","","100.77","","","","","","NA"
"-123.53","48.30","RACE ROCKS","1016640","2019-04-03 18:00","2019","04","03","18:00","10.4","","6.4","","76","","","","28","","47","","","","100.79","","","","","","NA"
"-123.53","48.30","RACE ROCKS","1016640","2019-04-03 19:00","2019","04","03","19:00","10.9","","5.5","","69","","","","28","","37","","","","100.87","","","","","","NA"
"-123.53","48.30","RACE ROCKS","1016640","2019-04-03 20:00","2019","04","03","20:00","10.7","","5.6","","71","","","","29","","35","","","","100.95","","","","","","NA"
"-123.53","48.30","RACE ROCKS","1016640","2019-04-03 21:00","2019","04","03","21:00","10.1","","6.2","","76","","","","28","","31","","","","101.02","","","","","","NA"
"-123.53","48.30","RACE ROCKS","1016640","2019-04-03 22:00","2019","04","03","22:00","10.3","","7.0","","80","","","","28","","34","","","","101.06","","","","","","NA"
"-123.53","48.30","RACE ROCKS","1016640","2019-04-03 23:00","2019","04","03","23:00","10.4","","7.0","","79","","","","29","","28","","","","101.10","","","","","","NA"
"-123.53","48.30","RACE ROCKS","1016640","2019-04-04 00:00","2019","04","04","00:00","10.0","","7.2","","83","","","","28","","30","","","","101.15","","","","","","NA"
"-123.53","48.30","RACE ROCKS","1016640","2019-04-04 01:00","2019","04","04","01:00","9.6","","7.0","","84","","","","29","","27","","","","101.20","","","","","","NA"
"-123.53","48.30","RACE ROCKS","1016640","2019-04-04 02:00","2019","04","04","02:00","9.7","","6.5","","80","","","","29","","19","","","","101.22","","","","","","NA"
"-123.53","48.30","RACE ROCKS","1016640","2019-04-04 03:00","2019","04","04","03:00","9.6","","6.4","","80","","","","30","","17","","","","101.23","","","","","","NA"
"-123.53","48.30","RACE ROCKS","1016640","2019-04-04 04:00","2019","04","04","04:00","9.1","","6.4","","83","","","","9","","6","","","","101.22","","","","","","NA"
"-123.53","48.30","RACE ROCKS","1016640","2019-04-04 05:00","2019","04","04","05:00","9.0","","6.7","","85","","","","13","","7","","","","101.21","","","","","","NA"
"-123.53","48.30","RACE ROCKS","1016640","2019-04-04 06:00","2019","04","04","06:00","8.8","","6.7","","87","","","","18","","3","","","","101.21","","","","","","NA"
"-123.53","48.30","RACE ROCKS","1016640","2019-04-04 07:00","2019","04","04","07:00","8.3","","6.8","","90","","","","2","","9","","","","101.19","","","","","","NA"
"-123.53","48.30","RACE ROCKS","1016640","2019-04-04 08:00","2019","04","04","08:00","8.7","","7.5","","92","","","","6","","21","","","","101.17","","","","","","NA"
"-123.53","48.30","RACE ROCKS","1016640","2019-04-04 09:00","2019","04","04","09:00","8.4","","6.8","","89","","","","6","","13","","","","101.14","","","","","","NA"
"-123.53","48.30","RACE ROCKS","1016640","2019-04-04 10:00","2019","04","04","10:00","8.4","","6.8","","90","","","","7","","21","","","","101.12","","","","","","NA"
"-123.53","48.30","RACE ROCKS","1016640","2019-04-04 11:00","2019","04","04","11:00","8.3","","6.4","","88","","","","6","","20","","","","101.04","","","","","","NA"
"-123.53","48.30","RACE ROCKS","1016640","2019-04-04 12:00","2019","04","04","12:00","8.7","","6.2","","84","","","","6","","25","","","","100.96","","","","","","NA"
"-123.53","48.30","RACE ROCKS","1016640","2019-04-04 13:00","2019","04","04","13:00","9.8","","5.1","","73","","","","7","","20","","","","100.91","","","","","","NA"
"-123.53","48.30","RACE ROCKS","1016640","2019-04-04 14:00","2019","04","04","14:00","10.3","","4.5","","67","","","","6","","18","","","","100.80","","","","","","NA"
"-123.53","48.30","RACE ROCKS","1016640","2019-04-04 15:00","2019","04","04","15:00","11.6","","4.4","","61","","","","7","","19","","","","100.69","","","","","","NA"
"-123.53","48.30","RACE ROCKS","1016640","2019-04-04 16:00","2019","04","04","16:00","13.0","","5.2","","59","","","","8","","12","","","","100.61","","","","","","NA"
"-123.53","48.30","RACE ROCKS","1016640","2019-04-04 17:00","2019","04","04","17:00","11.4","","5.1","","65","","","","17","","3","","","","100.55","","","","","","NA"
"-123.53","48.30","RACE ROCKS","1016640","2019-04-04 18:00","2019","04","04","18:00","10.2","","6.3","","77","","","","21","","4","","","","100.49","","","","","","NA"
"-123.53","48.30","RACE ROCKS","1016640","2019-04-04 19:00","2019","04","04","19:00","10.6","","5.7","","72","","","","22","","8","","","","100.44","","","","","","NA"
"-123.53","48.30","RACE ROCKS","1016640","2019-04-04 20:00","2019","04","04","20:00","11.3","","4.8","","64","","","","26","","7","","","","100.44","","","","","","NA"
"-123.53","48.30","RACE ROCKS","1016640","2019-04-04 21:00","2019","04","04","21:00","11.9","","4.6","","61","","","","22","","4","","","","100.40","","","","","","NA"
"-123.53","48.30","RACE ROCKS","1016640","2019-04-04 22:00","2019","04","04","22:00","10.5","","5.5","","71","","","","7","","4","","","","100.36","","","","","","NA"
"-123.53","48.30","RACE ROCKS","1016640","2019-04-04 23:00","2019","04","04","23:00","9.8","","6.2","","78","","","","2","","15","","","","100.30","","","","","","NA"
"-123.53","48.30","RACE ROCKS","1016640","2019-04-05 00:00","2019","04","05","00:00","10.1","","6.8","","80","","","","4","","19","","","","100.24","","","","","","NA"
"-123.53","48.30","RACE ROCKS","1016640","2019-04-05 01:00","2019","04","05","01:00","10.5","","6.2","","75","","","","33","","11","","","","100.24","","","","","","NA"
"-123.53","48.30","RACE ROCKS","1016640","2019-04-05 02:00","2019","04","05","02:00","10.7","","7.2","","79","","","","2","","23","","","","100.13","","","","","","NA"
"-123.53","48.30","RACE ROCKS","1016640","2019-04-05 03:00","2019","04","05","03:00","10.6","","7.6","","81","","","","1","","30","","","","100.09","","","","","","NA"
"-123.53","48.30","RACE ROCKS","1016640","2019-04-05 04:00","2019","04","05","04:00","9.8","","7.3","","85","","","","30","","17","","","","100.08","","","","","","NA"
"-123.53","48.30","RACE ROCKS","1016640","2019-04-05 05:00","2019","04","05","05:00","10.0","","7.3","","83","","","","35","","8","","","","100.07","","","","","","NA"
"-123.53","48.30","RACE ROCKS","1016640","2019-04-05 06:00","2019","04","05","06:00","9.6","","7.9","","89","","","","4","","18","","","","100.01","","","","","","NA"
"-123.53","48.30","RACE ROCKS","1016640","2019-04-05 07:00","2019","04","05","07:00","9.5","","8.1","","91","","","","3","","22","","","","99.96","","","","","","NA"
"-123.53","48.30","RACE ROCKS","1016640","2019-04-05 08:00","2019","04","05","08:00","9.5","","7.9","","90","","","","4","","22","","","","99.88","","","","","","NA"
"-123.53","48.30","RACE ROCKS","1016640","2019-04-05 09:00","2019","04","05","09:00","9.6","","7.7","","88","","","","4","","26","","","","99.78","","","","","","NA"
"-123.53","48.30","RACE ROCKS","1016640","2019-04-05 10:00","2019","04","05","10:00","10.1","","7.8","","86","","","","7","","19","","","","99.72","","","","","","NA"
"-123.53","48.30","RACE ROCKS","1016640","2019-04-05 11:00","2019","04","05","11:00","11.8","","7.7","","76","","","","10","","47","","","","99.59","","","","","","NA"
"-123.53","48.30","RACE ROCKS","1016640","2019-04-05 12:00","2019","04","05","12:00","11.6","","7.4","","75","","","","18","","19","","","","99.62","","","","","","NA"
"-123.53","48.30","RACE ROCKS","1016640","2019-04-05 13:00","2019","04","05","13:00","10.5","","8.3","","86","","","","28","","39","","","","99.69","","","","","","NA"
"-123.53","48.30","RACE ROCKS","1016640","2019-04-05 14:00","2019","04","05","14:00","10.8","","6.3","","74","","","","28","","54","","","","99.76","","","","","","NA"
"-123.53","48.30","RACE ROCKS","1016640","2019-04-05 15:00","2019","04","05","15:00","9.6","","4.9","","73","","","","26","","64","","","","99.85","","","","","","NA"
"-123.53","48.30","RACE ROCKS","1016640","2019-04-05 16:00","2019","04","05","16:00","9.9","","5.1","","72","","","","27","","38","","","","100.03","","","","","","NA"
"-123.53","48.30","RACE ROCKS","1016640","2019-04-05 17:00","2019","04","05","17:00","9.9","","4.9","","71","","","","27","","50","","","","100.11","","","","","","NA"
"-123.53","48.30","RACE ROCKS","1016640","2019-04-05 18:00","2019","04","05","18:00","9.9","","3.8","","66","","","","25","","39","","","","100.25","","","","","","NA"
"-123.53","48.30","RACE ROCKS","1016640","2019-04-05 19:00","2019","04","05","19:00","9.3","","3.2","","65","","","","22","","36","","","","100.27","","","","","","NA"
"-123.53","48.30","RACE ROCKS","1016640","2019-04-05 20:00","2019","04","05","20:00","9.3","","4.2","","71","","","","26","","15","","","","100.35","","","","","","NA"
"-123.53","48.30","RACE ROCKS","1016640","2019-04-05 21:00","2019","04","05","21:00","9.4","","4.3","","70","","","","22","","16","","","","100.39","","","","","","NA"
"-123.53","48.30","RACE ROCKS","1016640","2019-04-05 22:00","2019","04","05","22:00","9.2","","4.0","","70","","","","20","","15","","","","100.38","","","","","","NA"
"-123.53","48.30","RACE ROCKS","1016640","2019-04-05 23:00","2019","04","05","23:00","8.9","","4.9","","76","","","","23","","9","","","","100.36","","","","","","NA"
"-123.53","48.30","RACE ROCKS","1016640","2019-04-06 00:00","2019","04","06","00:00","8.1","","4.8","","80","","","","","","0","","","","100.32","","","","","","NA"
"-123.53","48.30","RACE ROCKS","1016640","2019-04-06 01:00","2019","04","06","01:00","7.8","","5.1","","83","","","","2","","13","","","","100.25","","","","","","NA"
"-123.53","48.30","RACE ROCKS","1016640","2019-04-06 02:00","2019","04","06","02:00","7.6","","5.1","","84","","","","2","","6","","","","100.20","","","","","","NA"
"-123.53","48.30","RACE ROCKS","1016640","2019-04-06 03:00","2019","04","06","03:00","7.6","","5.9","","89","","","","2","","22","","","","100.06","","","","","","NA"
"-123.53","48.30","RACE ROCKS","1016640","2019-04-06 04:00","2019","04","06","04:00","7.6","","6.3","","91","","","","9","","19","","","","99.97","","","","","","NA"
"-123.53","48.30","RACE ROCKS","1016640","2019-04-06 05:00","2019","04","06","05:00","7.7","","5.8","","88","","","","4","","13","","","","99.86","","","","","","NA"
"-123.53","48.30","RACE ROCKS","1016640","2019-04-06 06:00","2019","04","06","06:00","8.4","","5.0","","79","","","","11","","35","","","","99.69","","","","","","NA"
"-123.53","48.30","RACE ROCKS","1016640","2019-04-06 07:00","2019","04","06","07:00","8.5","","4.7","","77","","","","13","","48","","","","99.53","","","","","","NA"
"-123.53","48.30","RACE ROCKS","1016640","2019-04-06 08:00","2019","04","06","08:00","8.4","","4.3","","75","","","","12","","81","","","","99.37","","","","","","NA"
"-123.53","48.30","RACE ROCKS","1016640","2019-04-06 09:00","2019","04","06","09:00","8.5","","4.3","","75","","","","12","","66","","","","99.59","","","","","","NA"
"-123.53","48.30","RACE ROCKS","1016640","2019-04-06 10:00","2019","04","06","10:00","10.1","","3.8","","65","","","","14","","23","","","","99.84","","","","","","NA"
"-123.53","48.30","RACE ROCKS","1016640","2019-04-06 11:00","2019","04","06","11:00","9.5","","2.5","","62","","","","22","","11","","","","100.05","","","","","","NA"
"-123.53","48.30","RACE ROCKS","1016640","2019-04-06 12:00","2019","04","06","12:00","9.2","","3.0","","65","","","","20","","22","","","","100.18","","","","","","NA"
"-123.53","48.30","RACE ROCKS","1016640","2019-04-06 13:00","2019","04","06","13:00","10.2","","3.8","","65","","","","16","","12","","","","100.30","","","","","","NA"
"-123.53","48.30","RACE ROCKS","1016640","2019-04-06 14:00","2019","04","06","14:00","10.3","","4.6","","68","","","","15","","8","","","","100.41","","","","","","NA"
"-123.53","48.30","RACE ROCKS","1016640","2019-04-06 15:00","2019","04","06","15:00","9.7","","3.6","","66","","","","19","","33","","","","100.49","","","","","","NA"
"-123.53","48.30","RACE ROCKS","1016640","2019-04-06 16:00","2019","04","06","16:00","9.3","","3.9","","69","","","","20","","27","","","","100.50","","","","","","NA"
"-123.53","48.30","RACE ROCKS","1016640","2019-04-06 17:00","2019","04","06","17:00","9.7","","3.7","","66","","","","22","","33","","","","100.58","","","","","","NA"
"-123.53","48.30","RACE ROCKS","1016640","2019-04-06 18:00","2019","04","06","18:00","9.0","","3.3","","67","","","","22","","25","","","","100.60","","","","","","NA"
"-123.53","48.30","RACE ROCKS","1016640","2019-04-06 19:00","2019","04","06","19:00","9.3","","2.4","","62","","","","21","","11","","","","100.63","","","","","","NA"
"-123.53","48.30","RACE ROCKS","1016640","2019-04-06 20:00","2019","04","06","20:00","9.0","","3.0","","66","","","","31","","16","","","","100.66","","","","","","NA"
"-123.53","48.30","RACE ROCKS","1016640","2019-04-06 21:00","2019","04","06","21:00","8.9","","4.2","","72","","","","21","","5","","","","100.67","","","","","","NA"
"-123.53","48.30","RACE ROCKS","1016640","2019-04-06 22:00","2019","04","06","22:00","8.6","","4.2","","74","","","","","","0","","","","100.61","","","","","","NA"
"-123.53","48.30","RACE ROCKS","1016640","2019-04-06 23:00","2019","04","06","23:00","8.2","","4.9","","80","","","","6","","4","","","","100.53","","","","","","NA"
"-123.53","48.30","RACE ROCKS","1016640","2019-04-07 00:00","2019","04","07","00:00","8.1","","4.9","","80","","","","2","","5","","","","100.50","","","","","","NA"
"-123.53","48.30","RACE ROCKS","1016640","2019-04-07 01:00","2019","04","07","01:00","7.7","","4.8","","82","","","","30","","3","","","","100.45","","","","","","NA"
"-123.53","48.30","RACE ROCKS","1016640","2019-04-07 02:00","2019","04","07","02:00","7.8","","4.0","","77","","","","24","","14","","","","100.44","","","","","","NA"
"-123.53","48.30","RACE ROCKS","1016640","2019-04-07 03:00","2019","04","07","03:00","7.3","","5.4","","88","","","","29","","12","","","","100.49","","","","","","NA"
"-123.53","48.30","RACE ROCKS","1016640","2019-04-07 04:00","2019","04","07","04:00","7.0","","5.0","","87","","","","29","","12","","","","100.50","","","","","","NA"
"-123.53","48.30","RACE ROCKS","1016640","2019-04-07 05:00","2019","04","07","05:00","7.0","","5.2","","88","","","","30","","15","","","","100.62","","","","","","NA"
"-123.53","48.30","RACE ROCKS","1016640","2019-04-07 06:00","2019","04","07","06:00","6.9","","5.1","","88","","","","26","","11","","","","100.65","","","","","","NA"
"-123.53","48.30","RACE ROCKS","1016640","2019-04-07 07:00","2019","04","07","07:00","6.9","","5.2","","89","","","","29","","9","","","","100.81","","","","","","NA"
"-123.53","48.30","RACE ROCKS","1016640","2019-04-07 08:00","2019","04","07","08:00","7.4","","5.1","","86","","","","26","","13","","","","100.92","","","","","","NA"
"-123.53","48.30","RACE ROCKS","1016640","2019-04-07 09:00","2019","04","07","09:00","7.7","","5.9","","88","","","","27","","13","","","","101.02","","","","","","NA"
"-123.53","48.30","RACE ROCKS","1016640","2019-04-07 10:00","2019","04","07","10:00","8.2","","5.3","","82","","","","27","","27","","","","101.14","","","","","","NA"
"-123.53","48.30","RACE ROCKS","1016640","2019-04-07 11:00","2019","04","07","11:00","9.3","","4.3","","71","","","","29","","33","","","","101.23","","","","","","NA"
"-123.53","48.30","RACE ROCKS","1016640","2019-04-07 12:00","2019","04","07","12:00","9.8","","4.3","","68","","","","29","","35","","","","101.29","","","","","","NA"
"-123.53","48.30","RACE ROCKS","1016640","2019-04-07 13:00","2019","04","07","13:00","10.4","","4.8","","69","","","","28","","22","","","","101.33","","","","","","NA"
"-123.53","48.30","RACE ROCKS","1016640","2019-04-07 14:00","2019","04","07","14:00","9.9","","5.2","","73","","","","21","","19","","","","101.37","","","","","","NA"
"-123.53","48.30","RACE ROCKS","1016640","2019-04-07 15:00","2019","04","07","15:00","9.9","","5.1","","72","","","","20","","20","","","","101.40","","","","","","NA"
"-123.53","48.30","RACE ROCKS","1016640","2019-04-07 16:00","2019","04","07","16:00","10.7","","5.0","","68","","","","22","","15","","","","101.41","","","","","","NA"
"-123.53","48.30","RACE ROCKS","1016640","2019-04-07 17:00","2019","04","07","17:00","12.7","","5.0","","60","","","","15","","12","","","","101.43","","","","","","NA"
"-123.53","48.30","RACE ROCKS","1016640","2019-04-07 18:00","2019","04","07","18:00","13.1","","5.4","","60","","","","","","0","","","","101.41","","","","","","NA"
"-123.53","48.30","RACE ROCKS","1016640","2019-04-07 19:00","2019","04","07","19:00","10.1","","4.9","","70","","","","31","","7","","","","101.39","","","","","","NA"
"-123.53","48.30","RACE ROCKS","1016640","2019-04-07 20:00","2019","04","07","20:00","10.1","","5.3","","73","","","","2","","12","","","","101.38","","","","","","NA"
"-123.53","48.30","RACE ROCKS","1016640","2019-04-07 21:00","2019","04","07","21:00","9.7","","4.8","","72","","","","3","","16","","","","101.36","","","","","","NA"
"-123.53","48.30","RACE ROCKS","1016640","2019-04-07 22:00","2019","04","07","22:00","9.4","","4.7","","72","","","","2","","16","","","","101.37","","","","","","NA"
"-123.53","48.30","RACE ROCKS","1016640","2019-04-07 23:00","2019","04","07","23:00","9.0","","4.8","","75","","","","3","","17","","","","101.34","","","","","","NA"
"-123.53","48.30","RACE ROCKS","1016640","2019-04-08 00:00","2019","04","08","00:00","9.0","","5.1","","77","","","","3","","21","","","","101.35","","","","","","NA"
"-123.53","48.30","RACE ROCKS","1016640","2019-04-08 01:00","2019","04","08","01:00","8.2","","5.1","","81","","","","4","","24","","","","101.28","","","","","","NA"
"-123.53","48.30","RACE ROCKS","1016640","2019-04-08 02:00","2019","04","08","02:00","8.3","","5.1","","80","","","","3","","27","","","","101.27","","","","","","NA"
"-123.53","48.30","RACE ROCKS","1016640","2019-04-08 03:00","2019","04","08","03:00","8.5","","5.1","","79","","","","2","","24","","","","101.23","","","","","","NA"
"-123.53","48.30","RACE ROCKS","1016640","2019-04-08 04:00","2019","04","08","04:00","8.2","","5.3","","82","","","","5","","15","","","","101.18","","","","","","NA"
"-123.53","48.30","RACE ROCKS","1016640","2019-04-08 05:00","2019","04","08","05:00","8.0","","5.4","","84","","","","6","","16","","","","101.13","","","","","","NA"
"-123.53","48.30","RACE ROCKS","1016640","2019-04-08 06:00","2019","04","08","06:00","8.0","","5.4","","84","","","","5","","20","","","","101.12","","","","","","NA"
"-123.53","48.30","RACE ROCKS","1016640","2019-04-08 07:00","2019","04","08","07:00","8.1","","5.6","","84","","","","4","","27","","","","101.09","","","","","","NA"
"-123.53","48.30","RACE ROCKS","1016640","2019-04-08 08:00","2019","04","08","08:00","8.3","","5.3","","81","","","","3","","30","","","","101.14","","","","","","NA"
"-123.53","48.30","RACE ROCKS","1016640","2019-04-08 09:00","2019","04","08","09:00","8.5","","5.6","","82","","","","3","","27","","","","101.13","","","","","","NA"
"-123.53","48.30","RACE ROCKS","1016640","2019-04-08 10:00","2019","04","08","10:00","8.8","","5.5","","80","","","","3","","26","","","","101.13","","","","","","NA"
"-123.53","48.30","RACE ROCKS","1016640","2019-04-08 11:00","2019","04","08","11:00","9.0","","6.0","","82","","","","4","","26","","","","101.14","","","","","","NA"
"-123.53","48.30","RACE ROCKS","1016640","2019-04-08 12:00","2019","04","08","12:00","8.9","","5.4","","79","","","","5","","32","","","","101.11","","","","","","NA"
"-123.53","48.30","RACE ROCKS","1016640","2019-04-08 13:00","2019","04","08","13:00","9.0","","5.9","","81","","","","4","","28","","","","101.10","","","","","","NA"
"-123.53","48.30","RACE ROCKS","1016640","2019-04-08 14:00","2019","04","08","14:00","8.7","","6.1","","84","","","","3","","18","","","","101.16","","","","","","NA"
"-123.53","48.30","RACE ROCKS","1016640","2019-04-08 15:00","2019","04","08","15:00","8.4","","6.3","","87","","","","1","","30","","","","101.08","","","","","","NA"
"-123.53","48.30","RACE ROCKS","1016640","2019-04-08 16:00","2019","04","08","16:00","8.4","","6.4","","87","","","","8","","9","","","","101.13","","","","","","NA"
"-123.53","48.30","RACE ROCKS","1016640","2019-04-08 17:00","2019","04","08","17:00","8.5","","6.8","","89","","","","8","","10","","","","101.06","","","","","","NA"
"-123.53","48.30","RACE ROCKS","1016640","2019-04-08 18:00","2019","04","08","18:00","8.7","","6.8","","88","","","","12","","11","","","","101.03","","","","","","NA"
"-123.53","48.30","RACE ROCKS","1016640","2019-04-08 19:00","2019","04","08","19:00","8.3","","6.8","","91","","","","13","","14","","","","101.04","","","","","","NA"
"-123.53","48.30","RACE ROCKS","1016640","2019-04-08 20:00","2019","04","08","20:00","8.2","","6.9","","92","","","","6","","6","","","","101.13","","","","","","NA"
"-123.53","48.30","RACE ROCKS","1016640","2019-04-08 21:00","2019","04","08","21:00","8.0","","7.0","","94","","","","1","","10","","","","101.15","","","","","","NA"
"-123.53","48.30","RACE ROCKS","1016640","2019-04-08 22:00","2019","04","08","22:00","7.9","","7.0","","94","","","","33","","4","","","","101.16","","","","","","NA"
"-123.53","48.30","RACE ROCKS","1016640","2019-04-08 23:00","2019","04","08","23:00","8.0","","7.2","","95","","","","27","","11","","","","101.21","","","","","","NA"
"-123.53","48.30","RACE ROCKS","1016640","2019-04-09 00:00","2019","04","09","00:00","8.0","","7.2","","94","","","","26","","16","","","","101.25","","","","","","NA"
"-123.53","48.30","RACE ROCKS","1016640","2019-04-09 01:00","2019","04","09","01:00","8.2","","7.3","","94","","","","28","","13","","","","101.28","","","","","","NA"
"-123.53","48.30","RACE ROCKS","1016640","2019-04-09 02:00","2019","04","09","02:00","8.4","","7.4","","94","","","","28","","19","","","","101.28","","","","","","NA"
"-123.53","48.30","RACE ROCKS","1016640","2019-04-09 03:00","2019","04","09","03:00","8.6","","7.3","","92","","","","28","","30","","","","101.32","","","","","","NA"
"-123.53","48.30","RACE ROCKS","1016640","2019-04-09 04:00","2019","04","09","04:00","8.7","","7.5","","92","","","","28","","31","","","","101.36","","","","","","NA"
"-123.53","48.30","RACE ROCKS","1016640","2019-04-09 05:00","2019","04","09","05:00","9.0","","7.4","","90","","","","28","","38","","","","101.41","","","","","","NA"
"-123.53","48.30","RACE ROCKS","1016640","2019-04-09 06:00","2019","04","09","06:00","9.0","","7.1","","88","","","","28","","40","","","","101.49","","","","","","NA"
"-123.53","48.30","RACE ROCKS","1016640","2019-04-09 07:00","2019","04","09","07:00","9.0","","6.7","","85","","","","27","","47","","","","101.52","","","","","","NA"
"-123.53","48.30","RACE ROCKS","1016640","2019-04-09 08:00","2019","04","09","08:00","8.8","","6.6","","86","","","","28","","40","","","","101.63","","","","","","NA"
"-123.53","48.30","RACE ROCKS","1016640","2019-04-09 09:00","2019","04","09","09:00","9.4","","6.1","","80","","","","26","","46","","","","101.69","","","","","","NA"
"-123.53","48.30","RACE ROCKS","1016640","2019-04-09 10:00","2019","04","09","10:00","9.3","","5.9","","79","","","","27","","47","","","","101.75","","","","","","NA"
"-123.53","48.30","RACE ROCKS","1016640","2019-04-09 11:00","2019","04","09","11:00","9.4","","5.9","","79","","","","28","","52","","","","101.83","","","","","","NA"
"-123.53","48.30","RACE ROCKS","1016640","2019-04-09 12:00","2019","04","09","12:00","9.5","","6.2","","80","","","","27","","55","","","","101.88","","","","","","NA"
"-123.53","48.30","RACE ROCKS","1016640","2019-04-09 13:00","2019","04","09","13:00","9.7","","5.5","","75","","","","28","","53","","","","101.90","","","","","","NA"
"-123.53","48.30","RACE ROCKS","1016640","2019-04-09 14:00","2019","04","09","14:00","9.7","","5.1","","73","","","","28","","66","","","","101.95","","","","","","NA"
"-123.53","48.30","RACE ROCKS","1016640","2019-04-09 15:00","2019","04","09","15:00","9.6","","5.4","","75","","","","28","","62","","","","101.97","","","","","","NA"
"-123.53","48.30","RACE ROCKS","1016640","2019-04-09 16:00","2019","04","09","16:00","9.5","","5.0","","74","","","","28","","61","","","","102.05","","","","","","NA"
"-123.53","48.30","RACE ROCKS","1016640","2019-04-09 17:00","2019","04","09","17:00","9.3","","5.2","","76","","","","28","","54","","","","102.07","","","","","","NA"
"-123.53","48.30","RACE ROCKS","1016640","2019-04-09 18:00","2019","04","09","18:00","9.4","","5.0","","74","","","","27","","65","","","","102.06","","","","","","NA"
"-123.53","48.30","RACE ROCKS","1016640","2019-04-09 19:00","2019","04","09","19:00","9.4","","5.2","","75","","","","26","","66","","","","102.04","","","","","","NA"
"-123.53","48.30","RACE ROCKS","1016640","2019-04-09 20:00","2019","04","09","20:00","9.2","","5.0","","75","","","","26","","59","","","","102.13","","","","","","NA"
"-123.53","48.30","RACE ROCKS","1016640","2019-04-09 21:00","2019","04","09","21:00","8.9","","5.0","","76","","","","26","","67","","","","102.17","","","","","","NA"
"-123.53","48.30","RACE ROCKS","1016640","2019-04-09 22:00","2019","04","09","22:00","8.7","","5.2","","79","","","","26","","60","","","","102.22","","","","","","NA"
"-123.53","48.30","RACE ROCKS","1016640","2019-04-09 23:00","2019","04","09","23:00","8.8","","5.6","","80","","","","25","","49","","","","102.26","","","","","","NA"
"-123.53","48.30","RACE ROCKS","1016640","2019-04-10 00:00","2019","04","10","00:00","9.0","","5.1","","77","","","","25","","51","","","","102.24","","","","","","NA"
"-123.53","48.30","RACE ROCKS","1016640","2019-04-10 01:00","2019","04","10","01:00","8.9","","4.9","","76","","","","25","","51","","","","102.24","","","","","","NA"
"-123.53","48.30","RACE ROCKS","1016640","2019-04-10 02:00","2019","04","10","02:00","9.0","","5.3","","78","","","","25","","47","","","","102.27","","","","","","NA"
"-123.53","48.30","RACE ROCKS","1016640","2019-04-10 03:00","2019","04","10","03:00","8.2","","5.5","","83","","","","27","","44","","","","102.33","","","","","","NA"
"-123.53","48.30","RACE ROCKS","1016640","2019-04-10 04:00","2019","04","10","04:00","8.9","","5.4","","79","","","","26","","39","","","","102.33","","","","","","NA"
"-123.53","48.30","RACE ROCKS","1016640","2019-04-10 05:00","2019","04","10","05:00","8.1","","5.6","","84","","","","28","","39","","","","102.33","","","","","","NA"
"-123.53","48.30","RACE ROCKS","1016640","2019-04-10 06:00","2019","04","10","06:00","8.0","","5.9","","86","","","","28","","29","","","","102.28","","","","","","NA"
"-123.53","48.30","RACE ROCKS","1016640","2019-04-10 07:00","2019","04","10","07:00","8.3","","5.9","","85","","","","27","","19","","","","102.24","","","","","","NA"
"-123.53","48.30","RACE ROCKS","1016640","2019-04-10 08:00","2019","04","10","08:00","8.6","","5.7","","82","","","","23","","6","","","","102.20","","","","","","NA"
"-123.53","48.30","RACE ROCKS","1016640","2019-04-10 09:00","2019","04","10","09:00","8.1","","5.8","","86","","","","28","","11","","","","102.18","","","","","","NA"
"-123.53","48.30","RACE ROCKS","1016640","2019-04-10 10:00","2019","04","10","10:00","7.8","","6.0","","88","","","","24","","10","","","","102.14","","","","","","NA"
"-123.53","48.30","RACE ROCKS","1016640","2019-04-10 11:00","2019","04","10","11:00","8.3","","6.6","","89","","","","26","","32","","","","102.06","","","","","","NA"
"-123.53","48.30","RACE ROCKS","1016640","2019-04-10 12:00","2019","04","10","12:00","9.0","","5.9","","81","","","","27","","45","","","","101.99","","","","","","NA"
"-123.53","48.30","RACE ROCKS","1016640","2019-04-10 13:00","2019","04","10","13:00","8.4","","6.8","","90","","","","28","","43","","","","101.96","","","","","","NA"
"-123.53","48.30","RACE ROCKS","1016640","2019-04-10 14:00","2019","04","10","14:00","8.5","","6.3","","86","","","","28","","45","","","","101.91","","","","","","NA"
"-123.53","48.30","RACE ROCKS","1016640","2019-04-10 15:00","2019","04","10","15:00","8.3","","6.4","","88","","","","28","","48","","","","101.88","","","","","","NA"
"-123.53","48.30","RACE ROCKS","1016640","2019-04-10 16:00","2019","04","10","16:00","8.5","","6.6","","88","","","","28","","42","","","","101.87","","","","","","NA"
"-123.53","48.30","RACE ROCKS","1016640","2019-04-10 17:00","2019","04","10","17:00","9.2","","6.2","","82","","","","29","","35","","","","101.85","","","","","","NA"
"-123.53","48.30","RACE ROCKS","1016640","2019-04-10 18:00","2019","04","10","18:00","9.1","","5.6","","79","","","","29","","38","","","","101.83","","","","","","NA"
"-123.53","48.30","RACE ROCKS","1016640","2019-04-10 19:00","2019","04","10","19:00","8.7","","5.1","","78","","","","29","","42","","","","101.81","","","","","","NA"
"-123.53","48.30","RACE ROCKS","1016640","2019-04-10 20:00","2019","04","10","20:00","8.5","","5.7","","83","","","","29","","42","","","","101.83","","","","","","NA"
"-123.53","48.30","RACE ROCKS","1016640","2019-04-10 21:00","2019","04","10","21:00","8.7","","5.6","","81","","","","28","","45","","","","101.87","","","","","","NA"
"-123.53","48.30","RACE ROCKS","1016640","2019-04-10 22:00","2019","04","10","22:00","8.7","","5.5","","80","","","","27","","39","","","","101.79","","","","","","NA"
"-123.53","48.30","RACE ROCKS","1016640","2019-04-10 23:00","2019","04","10","23:00","8.7","","5.2","","79","","","","27","","37","","","","101.75","","","","","","NA"
"-123.53","48.30","RACE ROCKS","1016640","2019-04-11 00:00","2019","04","11","00:00","8.6","","5.3","","79","","","","27","","41","","","","101.70","","","","","","NA"
"-123.53","48.30","RACE ROCKS","1016640","2019-04-11 01:00","2019","04","11","01:00","8.5","","5.1","","79","","","","28","","37","","","","101.66","","","","","","NA"
"-123.53","48.30","RACE ROCKS","1016640","2019-04-11 02:00","2019","04","11","02:00","8.3","","5.3","","81","","","","28","","31","","","","101.63","","","","","","NA"
"-123.53","48.30","RACE ROCKS","1016640","2019-04-11 03:00","2019","04","11","03:00","7.8","","5.6","","86","","","","31","","21","","","","101.60","","","","","","NA"
"-123.53","48.30","RACE ROCKS","1016640","2019-04-11 04:00","2019","04","11","04:00","7.8","","5.5","","85","","","","30","","20","","","","101.54","","","","","","NA"
"-123.53","48.30","RACE ROCKS","1016640","2019-04-11 05:00","2019","04","11","05:00","7.6","","5.4","","86","","","","30","","11","","","","101.50","","","","","","NA"
"-123.53","48.30","RACE ROCKS","1016640","2019-04-11 06:00","2019","04","11","06:00","7.6","","5.3","","86","","","","30","","5","","","","101.47","","","","","","NA"
"-123.53","48.30","RACE ROCKS","1016640","2019-04-11 07:00","2019","04","11","07:00","7.6","","5.5","","87","","","","11","","7","","","","101.41","","","","","","NA"
"-123.53","48.30","RACE ROCKS","1016640","2019-04-11 08:00","2019","04","11","08:00","7.8","","6.1","","89","","","","11","","15","","","","101.36","","","","","","NA"
"-123.53","48.30","RACE ROCKS","1016640","2019-04-11 09:00","2019","04","11","09:00","7.9","","6.3","","89","","","","10","","25","","","","101.32","","","","","","NA"
"-123.53","48.30","RACE ROCKS","1016640","2019-04-11 10:00","2019","04","11","10:00","8.5","","6.4","","86","","","","11","","36","","","","101.25","","","","","","NA"
"-123.53","48.30","RACE ROCKS","1016640","2019-04-11 11:00","2019","04","11","11:00","8.9","","6.0","","82","","","","11","","30","","","","101.23","","","","","","NA"
"-123.53","48.30","RACE ROCKS","1016640","2019-04-11 12:00","2019","04","11","12:00","9.0","","6.3","","83","","","","10","","29","","","","101.17","","","","","","NA"
"-123.53","48.30","RACE ROCKS","1016640","2019-04-11 13:00","2019","04","11","13:00","9.6","","6.4","","80","","","","10","","22","","","","101.10","","","","","","NA"
"-123.53","48.30","RACE ROCKS","1016640","2019-04-11 14:00","2019","04","11","14:00","9.2","","7.0","","86","","","","7","","18","","","","101.07","","","","","","NA"
"-123.53","48.30","RACE ROCKS","1016640","2019-04-11 15:00","2019","04","11","15:00","9.6","","7.0","","84","","","","8","","16","","","","101.05","","","","","","NA"
"-123.53","48.30","RACE ROCKS","1016640","2019-04-11 16:00","2019","04","11","16:00","9.2","","6.7","","85","","","","7","","10","","","","100.99","","","","","","NA"
"-123.53","48.30","RACE ROCKS","1016640","2019-04-11 17:00","2019","04","11","17:00","8.8","","6.9","","87","","","","34","","7","","","","101.01","","","","","","NA"
"-123.53","48.30","RACE ROCKS","1016640","2019-04-11 18:00","2019","04","11","18:00","8.3","","7.1","","92","","","","28","","5","","","","101.00","","","","","","NA"
"-123.53","48.30","RACE ROCKS","1016640","2019-04-11 19:00","2019","04","11","19:00","8.5","","7.7","","95","","","","25","","10","","","","101.00","","","","","","NA"
"-123.53","48.30","RACE ROCKS","1016640","2019-04-11 20:00","2019","04","11","20:00","8.8","","8.1","","96","","","","28","","28","","","","101.00","","","","","","NA"
"-123.53","48.30","RACE ROCKS","1016640","2019-04-11 21:00","2019","04","11","21:00","9.1","","7.9","","92","","","","29","","30","","","","101.05","","","","","","NA"
"-123.53","48.30","RACE ROCKS","1016640","2019-04-11 22:00","2019","04","11","22:00","9.1","","7.8","","92","","","","29","","29","","","","101.09","","","","","","NA"
"-123.53","48.30","RACE ROCKS","1016640","2019-04-11 23:00","2019","04","11","23:00","9.1","","7.8","","91","","","","30","","21","","","","101.12","","","","","","NA"
"-123.53","48.30","RACE ROCKS","1016640","2019-04-12 00:00","2019","04","12","00:00","7.9","","7.1","","95","","","","2","","17","","","","101.15","","","","","","NA"
"-123.53","48.30","RACE ROCKS","1016640","2019-04-12 01:00","2019","04","12","01:00","7.6","","7.0","","96","","","","2","","20","","","","101.19","","","","","","NA"
"-123.53","48.30","RACE ROCKS","1016640","2019-04-12 02:00","2019","04","12","02:00","7.7","","7.0","","96","","","","2","","15","","","","101.21","","","","","","NA"
"-123.53","48.30","RACE ROCKS","1016640","2019-04-12 03:00","2019","04","12","03:00","8.0","","6.9","","93","","","","3","","11","","","","101.23","","","","","","NA"
"-123.53","48.30","RACE ROCKS","1016640","2019-04-12 04:00","2019","04","12","04:00","8.2","","6.5","","89","","","","6","","8","","","","101.29","","","","","","NA"
"-123.53","48.30","RACE ROCKS","1016640","2019-04-12 05:00","2019","04","12","05:00","8.0","","6.6","","90","","","","12","","6","","","","101.36","","","","","","NA"
"-123.53","48.30","RACE ROCKS","1016640","2019-04-12 06:00","2019","04","12","06:00","8.1","","6.3","","88","","","","10","","11","","","","101.37","","","","","","NA"
"-123.53","48.30","RACE ROCKS","1016640","2019-04-12 07:00","2019","04","12","07:00","8.3","","6.0","","86","","","","7","","16","","","","101.42","","","","","","NA"
"-123.53","48.30","RACE ROCKS","1016640","2019-04-12 08:00","2019","04","12","08:00","8.5","","5.9","","84","","","","7","","11","","","","101.45","","","","","","NA"
"-123.53","48.30","RACE ROCKS","1016640","2019-04-12 09:00","2019","04","12","09:00","9.5","","6.2","","80","","","","9","","10","","","","101.43","","","","","","NA"
"-123.53","48.30","RACE ROCKS","1016640","2019-04-12 10:00","2019","04","12","10:00","9.9","","6.2","","78","","","","12","","8","","","","101.48","","","","","","NA"
"-123.53","48.30","RACE ROCKS","1016640","2019-04-12 11:00","2019","04","12","11:00","9.7","","6.1","","78","","","","13","","12","","","","101.49","","","","","","NA"
"-123.53","48.30","RACE ROCKS","1016640","2019-04-12 12:00","2019","04","12","12:00","10.4","","6.2","","75","","","","12","","9","","","","101.48","","","","","","NA"
"-123.53","48.30","RACE ROCKS","1016640","2019-04-12 13:00","2019","04","12","13:00","11.2","","6.0","","71","","","","14","","7","","","","101.50","","","","","","NA"
"-123.53","48.30","RACE ROCKS","1016640","2019-04-12 14:00","2019","04","12","14:00","10.9","","6.1","","72","","","","13","","10","","","","101.43","","","","","","NA"
"-123.53","48.30","RACE ROCKS","1016640","2019-04-12 15:00","2019","04","12","15:00","10.5","","6.3","","75","","","","13","","14","","","","101.40","","","","","","NA"
"-123.53","48.30","RACE ROCKS","1016640","2019-04-12 16:00","2019","04","12","16:00","11.2","","6.5","","73","","","","14","","10","","","","101.40","","","","","","NA"
"-123.53","48.30","RACE ROCKS","1016640","2019-04-12 17:00","2019","04","12","17:00","10.0","","6.2","","78","","","","18","","9","","","","101.38","","","","","","NA"
"-123.53","48.30","RACE ROCKS","1016640","2019-04-12 18:00","2019","04","12","18:00","10.0","","5.4","","73","","","","25","","22","","","","101.32","","","","","","NA"
"-123.53","48.30","RACE ROCKS","1016640","2019-04-12 19:00","2019","04","12","19:00","9.6","","7.1","","84","","","","25","","25","","","","101.26","","","","","","NA"
"-123.53","48.30","RACE ROCKS","1016640","2019-04-12 20:00","2019","04","12","20:00","9.6","","7.2","","85","","","","27","","36","","","","101.20","","","","","","NA"
"-123.53","48.30","RACE ROCKS","1016640","2019-04-12 21:00","2019","04","12","21:00","9.8","","6.1","","78","","","","28","","28","","","","101.26","","","","","","NA"
"-123.53","48.30","RACE ROCKS","1016640","2019-04-12 22:00","2019","04","12","22:00","9.7","","6.0","","78","","","","27","","32","","","","101.20","","","","","","NA"
"-123.53","48.30","RACE ROCKS","1016640","2019-04-12 23:00","2019","04","12","23:00","9.6","","5.7","","77","","","","28","","32","","","","101.15","","","","","","NA"
"-123.53","48.30","RACE ROCKS","1016640","2019-04-13 00:00","2019","04","13","00:00","9.3","","6.3","","81","","","","28","","35","","","","101.11","","","","","","NA"
"-123.53","48.30","RACE ROCKS","1016640","2019-04-13 01:00","2019","04","13","01:00","9.4","","5.8","","78","","","","28","","28","","","","101.08","","","","","","NA"
"-123.53","48.30","RACE ROCKS","1016640","2019-04-13 02:00","2019","04","13","02:00","9.1","","5.7","","79","","","","29","","32","","","","101.00","","","","","","NA"
"-123.53","48.30","RACE ROCKS","1016640","2019-04-13 03:00","2019","04","13","03:00","9.3","","5.3","","77","","","","29","","37","","","","100.98","","","","","","NA"
"-123.53","48.30","RACE ROCKS","1016640","2019-04-13 04:00","2019","04","13","04:00","8.0","","6.0","","87","","","","29","","33","","","","100.92","","","","","","NA"
"-123.53","48.30","RACE ROCKS","1016640","2019-04-13 05:00","2019","04","13","05:00","7.7","","5.5","","86","","","","30","","28","","","","100.89","","","","","","NA"
"-123.53","48.30","RACE ROCKS","1016640","2019-04-13 06:00","2019","04","13","06:00","7.4","","5.5","","88","","","","30","","21","","","","100.84","","","","","","NA"
"-123.53","48.30","RACE ROCKS","1016640","2019-04-13 07:00","2019","04","13","07:00","7.1","","5.5","","89","","","","33","","17","","","","100.80","","","","","","NA"
"-123.53","48.30","RACE ROCKS","1016640","2019-04-13 08:00","2019","04","13","08:00","7.2","","5.4","","89","","","","32","","17","","","","100.78","","","","","","NA"
"-123.53","48.30","RACE ROCKS","1016640","2019-04-13 09:00","2019","04","13","09:00","7.5","","5.7","","89","","","","2","","14","","","","100.69","","","","","","NA"
"-123.53","48.30","RACE ROCKS","1016640","2019-04-13 10:00","2019","04","13","10:00","7.5","","5.7","","88","","","","5","","10","","","","100.63","","","","","","NA"
"-123.53","48.30","RACE ROCKS","1016640","2019-04-13 11:00","2019","04","13","11:00","7.8","","5.8","","87","","","","7","","8","","","","100.59","","","","","","NA"
"-123.53","48.30","RACE ROCKS","1016640","2019-04-13 12:00","2019","04","13","12:00","8.0","","6.0","","87","","","","1","","5","","","","100.55","","","","","","NA"
"-123.53","48.30","RACE ROCKS","1016640","2019-04-13 13:00","2019","04","13","13:00","8.1","","6.4","","89","","","","5","","10","","","","100.46","","","","","","NA"
"-123.53","48.30","RACE ROCKS","1016640","2019-04-13 14:00","2019","04","13","14:00","8.4","","5.8","","84","","","","27","","46","","","","100.54","","","","","","NA"
"-123.53","48.30","RACE ROCKS","1016640","2019-04-13 15:00","2019","04","13","15:00","9.3","","4.5","","72","","","","27","","58","","","","100.50","","","","","","NA"
"-123.53","48.30","RACE ROCKS","1016640","2019-04-13 16:00","2019","04","13","16:00","8.6","","3.3","","70","","","","26","","60","","","","100.53","","","","","","NA"
"-123.53","48.30","RACE ROCKS","1016640","2019-04-13 17:00","2019","04","13","17:00","8.6","","5.1","","79","","","","25","","38","","","","100.62","","","","","","NA"
"-123.53","48.30","RACE ROCKS","1016640","2019-04-13 18:00","2019","04","13","18:00","7.8","","4.6","","80","","","","27","","48","","","","100.67","","","","","","NA"
"-123.53","48.30","RACE ROCKS","1016640","2019-04-13 19:00","2019","04","13","19:00","8.1","","4.2","","77","","","","25","","55","","","","100.57","","","","","","NA"
"-123.53","48.30","RACE ROCKS","1016640","2019-04-13 20:00","2019","04","13","20:00","8.2","","4.4","","77","","","","24","","54","","","","100.63","","","","","","NA"
"-123.53","48.30","RACE ROCKS","1016640","2019-04-13 21:00","2019","04","13","21:00","7.9","","3.9","","76","","","","24","","56","","","","100.64","","","","","","NA"
"-123.53","48.30","RACE ROCKS","1016640","2019-04-13 22:00","2019","04","13","22:00","7.9","","4.1","","77","","","","24","","51","","","","100.68","","","","","","NA"
"-123.53","48.30","RACE ROCKS","1016640","2019-04-13 23:00","2019","04","13","23:00","7.9","","3.7","","75","","","","25","","56","","","","100.64","","","","","","NA"
"-123.53","48.30","RACE ROCKS","1016640","2019-04-14 00:00","2019","04","14","00:00","7.7","","4.4","","79","","","","24","","51","","","","100.70","","","","","","NA"
"-123.53","48.30","RACE ROCKS","1016640","2019-04-14 01:00","2019","04","14","01:00","7.6","","3.9","","77","","","","24","","53","","","","100.74","","","","","","NA"
"-123.53","48.30","RACE ROCKS","1016640","2019-04-14 02:00","2019","04","14","02:00","7.6","","3.8","","77","","","","25","","46","","","","100.81","","","","","","NA"
"-123.53","48.30","RACE ROCKS","1016640","2019-04-14 03:00","2019","04","14","03:00","7.3","","3.8","","79","","","","25","","42","","","","100.85","","","","","","NA"
"-123.53","48.30","RACE ROCKS","1016640","2019-04-14 04:00","2019","04","14","04:00","7.3","","3.4","","77","","","","24","","39","","","","100.83","","","","","","NA"
"-123.53","48.30","RACE ROCKS","1016640","2019-04-14 05:00","2019","04","14","05:00","6.2","","3.5","","83","","","","27","","38","","","","100.89","","","","","","NA"
"-123.53","48.30","RACE ROCKS","1016640","2019-04-14 06:00","2019","04","14","06:00","6.9","","3.4","","78","","","","25","","37","","","","100.87","","","","","","NA"
"-123.53","48.30","RACE ROCKS","1016640","2019-04-14 07:00","2019","04","14","07:00","6.5","","3.5","","81","","","","25","","32","","","","100.92","","","","","","NA"
"-123.53","48.30","RACE ROCKS","1016640","2019-04-14 08:00","2019","04","14","08:00","6.3","","2.8","","78","","","","27","","40","","","","100.96","","","","","","NA"
"-123.53","48.30","RACE ROCKS","1016640","2019-04-14 09:00","2019","04","14","09:00","6.0","","2.0","","75","","","","27","","49","","","","100.91","","","","","","NA"
"-123.53","48.30","RACE ROCKS","1016640","2019-04-14 10:00","2019","04","14","10:00","7.5","","2.3","","70","","","","26","","33","","","","100.89","","","","","","NA"
"-123.53","48.30","RACE ROCKS","1016640","2019-04-14 11:00","2019","04","14","11:00","6.4","","2.8","","78","","","","29","","30","","","","100.93","","","","","","NA"
"-123.53","48.30","RACE ROCKS","1016640","2019-04-14 12:00","2019","04","14","12:00","7.0","","3.0","","76","","","","28","","32","","","","100.89","","","","","","NA"
"-123.53","48.30","RACE ROCKS","1016640","2019-04-14 13:00","2019","04","14","13:00","7.6","","2.1","","68","","","","27","","42","","","","100.85","","","","","","NA"
"-123.53","48.30","RACE ROCKS","1016640","2019-04-14 14:00","2019","04","14","14:00","7.4","","2.4","","71","","","","27","","36","","","","100.87","","","","","","NA"
"-123.53","48.30","RACE ROCKS","1016640","2019-04-14 15:00","2019","04","14","15:00","7.0","","3.6","","79","","","","25","","43","","","","100.81","","","","","","NA"
"-123.53","48.30","RACE ROCKS","1016640","2019-04-14 16:00","2019","04","14","16:00","7.3","","2.5","","72","","","","27","","34","","","","100.81","","","","","","NA"
"-123.53","48.30","RACE ROCKS","1016640","2019-04-14 17:00","2019","04","14","17:00","6.9","","3.6","","80","","","","28","","45","","","","100.75","","","","","","NA"
"-123.53","48.30","RACE ROCKS","1016640","2019-04-14 18:00","2019","04","14","18:00","7.0","","3.2","","77","","","","29","","37","","","","100.74","","","","","","NA"
"-123.53","48.30","RACE ROCKS","1016640","2019-04-14 19:00","2019","04","14","19:00","7.5","","3.3","","75","","","","28","","36","","","","100.74","","","","","","NA"
"-123.53","48.30","RACE ROCKS","1016640","2019-04-14 20:00","2019","04","14","20:00","7.5","","3.2","","74","","","","29","","36","","","","100.75","","","","","","NA"
"-123.53","48.30","RACE ROCKS","1016640","2019-04-14 21:00","2019","04","14","21:00","6.7","","2.8","","76","","","","31","","22","","","","100.81","","","","","","NA"
"-123.53","48.30","RACE ROCKS","1016640","2019-04-14 22:00","2019","04","14","22:00","6.4","","2.9","","78","","","","28","","15","","","","100.83","","","","","","NA"
"-123.53","48.30","RACE ROCKS","1016640","2019-04-14 23:00","2019","04","14","23:00","6.4","","3.1","","80","","","","30","","10","","","","100.82","","","","","","NA"
"-123.53","48.30","RACE ROCKS","1016640","2019-04-15 00:00","2019","04","15","00:00","6.2","","2.7","","78","","","","33","","9","","","","100.82","","","","","","NA"
"-123.53","48.30","RACE ROCKS","1016640","2019-04-15 01:00","2019","04","15","01:00","6.8","","3.3","","78","","","","8","","11","","","","100.80","","","","","","NA"
"-123.53","48.30","RACE ROCKS","1016640","2019-04-15 02:00","2019","04","15","02:00","6.6","","3.4","","80","","","","11","","13","","","","100.77","","","","","","NA"
"-123.53","48.30","RACE ROCKS","1016640","2019-04-15 03:00","2019","04","15","03:00","6.4","","3.0","","79","","","","10","","12","","","","100.76","","","","","","NA"
"-123.53","48.30","RACE ROCKS","1016640","2019-04-15 04:00","2019","04","15","04:00","6.8","","3.0","","76","","","","8","","19","","","","100.73","","","","","","NA"
"-123.53","48.30","RACE ROCKS","1016640","2019-04-15 05:00","2019","04","15","05:00","6.6","","3.2","","79","","","","8","","27","","","","100.70","","","","","","NA"
"-123.53","48.30","RACE ROCKS","1016640","2019-04-15 06:00","2019","04","15","06:00","6.4","","3.8","","84","","","","7","","32","","","","100.68","","","","","","NA"
"-123.53","48.30","RACE ROCKS","1016640","2019-04-15 07:00","2019","04","15","07:00","6.5","","3.6","","81","","","","8","","29","","","","100.66","","","","","","NA"
"-123.53","48.30","RACE ROCKS","1016640","2019-04-15 08:00","2019","04","15","08:00","6.2","","3.7","","84","","","","8","","28","","","","100.66","","","","","","NA"
"-123.53","48.30","RACE ROCKS","1016640","2019-04-15 09:00","2019","04","15","09:00","5.6","","2.8","","82","","","","6","","27","","","","100.64","","","","","","NA"
"-123.53","48.30","RACE ROCKS","1016640","2019-04-15 10:00","2019","04","15","10:00","6.4","","3.4","","81","","","","7","","34","","","","100.59","","","","","","NA"
"-123.53","48.30","RACE ROCKS","1016640","2019-04-15 11:00","2019","04","15","11:00","7.3","","3.8","","78","","","","7","","32","","","","100.58","","","","","","NA"
"-123.53","48.30","RACE ROCKS","1016640","2019-04-15 12:00","2019","04","15","12:00","7.7","","3.4","","75","","","","6","","30","","","","100.55","","","","","","NA"
"-123.53","48.30","RACE ROCKS","1016640","2019-04-15 13:00","2019","04","15","13:00","8.2","","2.6","","68","","","","6","","23","","","","100.51","","","","","","NA"
"-123.53","48.30","RACE ROCKS","1016640","2019-04-15 14:00","2019","04","15","14:00","9.3","","2.7","","63","","","","8","","19","","","","100.46","","","","","","NA"
"-123.53","48.30","RACE ROCKS","1016640","2019-04-15 15:00","2019","04","15","15:00","9.8","","3.4","","64","","","","8","","13","","","","100.43","","","","","","NA"
"-123.53","48.30","RACE ROCKS","1016640","2019-04-15 16:00","2019","04","15","16:00","10.6","","4.0","","64","","","","8","","10","","","","100.37","","","","","","NA"
"-123.53","48.30","RACE ROCKS","1016640","2019-04-15 17:00","2019","04","15","17:00","10.3","","2.2","","57","","","","6","","13","","","","100.36","","","","","","NA"
"-123.53","48.30","RACE ROCKS","1016640","2019-04-15 18:00","2019","04","15","18:00","10.4","","1.7","","55","","","","5","","11","","","","100.34","","","","","","NA"
"-123.53","48.30","RACE ROCKS","1016640","2019-04-15 19:00","2019","04","15","19:00","9.0","","4.9","","76","","","","20","","10","","","","100.33","","","","","","NA"
"-123.53","48.30","RACE ROCKS","1016640","2019-04-15 20:00","2019","04","15","20:00","9.3","","4.4","","71","","","","22","","12","","","","100.41","","","","","","NA"
"-123.53","48.30","RACE ROCKS","1016640","2019-04-15 21:00","2019","04","15","21:00","9.1","","3.7","","69","","","","28","","11","","","","100.47","","","","","","NA"
"-123.53","48.30","RACE ROCKS","1016640","2019-04-15 22:00","2019","04","15","22:00","9.3","","2.5","","63","","","","27","","8","","","","100.49","","","","","","NA"
"-123.53","48.30","RACE ROCKS","1016640","2019-04-15 23:00","2019","04","15","23:00","9.6","","1.6","","57","","","","31","","9","","","","100.54","","","","","","NA"
"-123.53","48.30","RACE ROCKS","1016640","2019-04-16 00:00","2019","04","16","00:00","8.4","","3.7","","72","","","","6","","2","","","","100.58","","","","","","NA"
"-123.53","48.30","RACE ROCKS","1016640","2019-04-16 01:00","2019","04","16","01:00","7.2","","3.9","","79","","","","2","","8","","","","100.62","","","","","","NA"
"-123.53","48.30","RACE ROCKS","1016640","2019-04-16 02:00","2019","04","16","02:00","7.8","","3.8","","76","","","","20","","1","","","","100.70","","","","","","NA"
"-123.53","48.30","RACE ROCKS","1016640","2019-04-16 03:00","2019","04","16","03:00","8.1","","4.0","","75","","","","18","","4","","","","100.75","","","","","","NA"
"-123.53","48.30","RACE ROCKS","1016640","2019-04-16 04:00","2019","04","16","04:00","8.1","","3.7","","74","","","","26","","10","","","","100.81","","","","","","NA"
"-123.53","48.30","RACE ROCKS","1016640","2019-04-16 05:00","2019","04","16","05:00","7.7","","4.4","","80","","","","25","","3","","","","100.87","","","","","","NA"
"-123.53","48.30","RACE ROCKS","1016640","2019-04-16 06:00","2019","04","16","06:00","8.9","","5.9","","82","","","","20","","2","","","","100.89","","","","","","NA"
"-123.53","48.30","RACE ROCKS","1016640","2019-04-16 07:00","2019","04","16","07:00","7.1","","4.2","","82","","","","3","","6","","","","100.97","","","","","","NA"
"-123.53","48.30","RACE ROCKS","1016640","2019-04-16 08:00","2019","04","16","08:00","7.7","","4.9","","83","","","","3","","3","","","","101.03","","","","","","NA"
"-123.53","48.30","RACE ROCKS","1016640","2019-04-16 09:00","2019","04","16","09:00","8.8","","5.7","","81","","","","25","","1","","","","101.13","","","","","","NA"
"-123.53","48.30","RACE ROCKS","1016640","2019-04-16 10:00","2019","04","16","10:00","9.0","","6.1","","82","","","","22","","1","","","","101.15","","","","","","NA"
"-123.53","48.30","RACE ROCKS","1016640","2019-04-16 11:00","2019","04","16","11:00","10.6","","6.6","","76","","","","16","","7","","","","101.15","","","","","","NA"
"-123.53","48.30","RACE ROCKS","1016640","2019-04-16 12:00","2019","04","16","12:00","9.0","","6.1","","82","","","","20","","4","","","","101.15","","","","","","NA"
"-123.53","48.30","RACE ROCKS","1016640","2019-04-16 13:00","2019","04","16","13:00","9.0","","6.6","","85","","","","23","","4","","","","101.15","","","","","","NA"
"-123.53","48.30","RACE ROCKS","1016640","2019-04-16 14:00","2019","04","16","14:00","9.1","","6.3","","83","","","","22","","11","","","","101.23","","","","","","NA"
"-123.53","48.30","RACE ROCKS","1016640","2019-04-16 15:00","2019","04","16","15:00","9.2","","6.2","","81","","","","21","","7","","","","101.28","","","","","","NA"
"-123.53","48.30","RACE ROCKS","1016640","2019-04-16 16:00","2019","04","16","16:00","9.4","","6.3","","81","","","","22","","12","","","","101.32","","","","","","NA"
"-123.53","48.30","RACE ROCKS","1016640","2019-04-16 17:00","2019","04","16","17:00","9.9","","6.1","","77","","","","27","","21","","","","101.37","","","","","","NA"
"-123.53","48.30","RACE ROCKS","1016640","2019-04-16 18:00","2019","04","16","18:00","9.2","","6.9","","86","","","","28","","29","","","","101.34","","","","","","NA"
"-123.53","48.30","RACE ROCKS","1016640","2019-04-16 19:00","2019","04","16","19:00","9.3","","6.4","","82","","","","29","","33","","","","101.37","","","","","","NA"
"-123.53","48.30","RACE ROCKS","1016640","2019-04-16 20:00","2019","04","16","20:00","8.6","","6.6","","88","","","","29","","25","","","","101.36","","","","","","NA"
"-123.53","48.30","RACE ROCKS","1016640","2019-04-16 21:00","2019","04","16","21:00","8.6","","6.6","","88","","","","28","","15","","","","101.44","","","","","","NA"
"-123.53","48.30","RACE ROCKS","1016640","2019-04-16 22:00","2019","04","16","22:00","9.2","","7.0","","86","","","","24","","19","","","","101.49","","","","","","NA"
"-123.53","48.30","RACE ROCKS","1016640","2019-04-16 23:00","2019","04","16","23:00","9.5","","6.6","","82","","","","24","","14","","","","101.58","","","","","","NA"
"-123.53","48.30","RACE ROCKS","1016640","2019-04-17 00:00","2019","04","17","00:00","9.6","","6.3","","80","","","","27","","36","","","","101.60","","","","","","NA"
"-123.53","48.30","RACE ROCKS","1016640","2019-04-17 01:00","2019","04","17","01:00","9.2","","6.7","","84","","","","28","","49","","","","101.58","","","","","","NA"
"-123.53","48.30","RACE ROCKS","1016640","2019-04-17 02:00","2019","04","17","02:00","9.4","","6.5","","82","","","","29","","42","","","","101.67","","","","","","NA"
"-123.53","48.30","RACE ROCKS","1016640","2019-04-17 03:00","2019","04","17","03:00","9.3","","6.3","","81","","","","28","","30","","","","101.65","","","","","","NA"
"-123.53","48.30","RACE ROCKS","1016640","2019-04-17 04:00","2019","04","17","04:00","9.3","","6.2","","81","","","","35","","1","","","","101.79","","","","","","NA"
"-123.53","48.30","RACE ROCKS","1016640","2019-04-17 05:00","2019","04","17","05:00","9.4","","6.6","","83","","","","22","","10","","","","101.84","","","","","","NA"
"-123.53","48.30","RACE ROCKS","1016640","2019-04-17 06:00","2019","04","17","06:00","9.5","","6.6","","83","","","","16","","2","","","","101.88","","","","","","NA"
"-123.53","48.30","RACE ROCKS","1016640","2019-04-17 07:00","2019","04","17","07:00","9.8","","6.7","","81","","","","12","","14","","","","101.96","","","","","","NA"
"-123.53","48.30","RACE ROCKS","1016640","2019-04-17 08:00","2019","04","17","08:00","9.5","","6.9","","84","","","","6","","9","","","","102.03","","","","","","NA"
"-123.53","48.30","RACE ROCKS","1016640","2019-04-17 09:00","2019","04","17","09:00","9.1","","7.3","","88","","","","5","","16","","","","102.08","","","","","","NA"
"-123.53","48.30","RACE ROCKS","1016640","2019-04-17 10:00","2019","04","17","10:00","9.0","","7.5","","90","","","","6","","16","","","","102.14","","","","","","NA"
"-123.53","48.30","RACE ROCKS","1016640","2019-04-17 11:00","2019","04","17","11:00","9.2","","7.4","","89","","","","5","","17","","","","102.16","","","","","","NA"
"-123.53","48.30","RACE ROCKS","1016640","2019-04-17 12:00","2019","04","17","12:00","9.7","","6.9","","83","","","","3","","21","","","","102.17","","","","","","NA"
"-123.53","48.30","RACE ROCKS","1016640","2019-04-17 13:00","2019","04","17","13:00","10.1","","7.8","","86","","","","5","","18","","","","102.19","","","","","","NA"
"-123.53","48.30","RACE ROCKS","1016640","2019-04-17 14:00","2019","04","17","14:00","10.4","","7.9","","85","","","","6","","18","","","","102.20","","","","","","NA"
"-123.53","48.30","RACE ROCKS","1016640","2019-04-17 15:00","2019","04","17","15:00","10.5","","8.0","","84","","","","6","","17","","","","102.18","","","","","","NA"
"-123.53","48.30","RACE ROCKS","1016640","2019-04-17 16:00","2019","04","17","16:00","10.5","","8.1","","85","","","","4","","11","","","","102.15","","","","","","NA"
"-123.53","48.30","RACE ROCKS","1016640","2019-04-17 17:00","2019","04","17","17:00","10.7","","8.2","","84","","","","3","","10","","","","102.15","","","","","","NA"
"-123.53","48.30","RACE ROCKS","1016640","2019-04-17 18:00","2019","04","17","18:00","12.1","","8.6","","79","","","","34","","10","","","","102.17","","","","","","NA"
"-123.53","48.30","RACE ROCKS","1016640","2019-04-17 19:00","2019","04","17","19:00","12.1","","8.4","","78","","","","28","","9","","","","102.13","","","","","","NA"
"-123.53","48.30","RACE ROCKS","1016640","2019-04-17 20:00","2019","04","17","20:00","11.8","","8.2","","79","","","","27","","19","","","","102.15","","","","","","NA"
"-123.53","48.30","RACE ROCKS","1016640","2019-04-17 21:00","2019","04","17","21:00","9.5","","8.1","","91","","","","26","","16","","","","102.22","","","","","","NA"
"-123.53","48.30","RACE ROCKS","1016640","2019-04-17 22:00","2019","04","17","22:00","9.7","","8.2","","91","","","","24","","15","","","","102.18","","","","","","NA"
"-123.53","48.30","RACE ROCKS","1016640","2019-04-17 23:00","2019","04","17","23:00","9.6","","8.3","","91","","","","26","","12","","","","102.15","","","","","","NA"
"-123.53","48.30","RACE ROCKS","1016640","2019-04-18 00:00","2019","04","18","00:00","10.2","","8.3","","88","","","","28","","11","","","","102.14","","","","","","NA"
"-123.53","48.30","RACE ROCKS","1016640","2019-04-18 01:00","2019","04","18","01:00","10.7","","8.4","","85","","","","33","","6","","","","102.09","","","","","","NA"
"-123.53","48.30","RACE ROCKS","1016640","2019-04-18 02:00","2019","04","18","02:00","10.9","","9.0","","88","","","","3","","11","","","","102.06","","","","","","NA"
"-123.53","48.30","RACE ROCKS","1016640","2019-04-18 03:00","2019","04","18","03:00","10.4","","8.9","","91","","","","31","","5","","","","102.06","","","","","","NA"
"-123.53","48.30","RACE ROCKS","1016640","2019-04-18 04:00","2019","04","18","04:00","10.0","","8.6","","91","","","","26","","7","","","","102.03","","","","","","NA"
"-123.53","48.30","RACE ROCKS","1016640","2019-04-18 05:00","2019","04","18","05:00","9.7","","8.7","","94","","","","0","","1","","","","101.97","","","","","","NA"
"-123.53","48.30","RACE ROCKS","1016640","2019-04-18 06:00","2019","04","18","06:00","9.6","","8.8","","95","","","","7","","12","","","","101.90","","","","","","NA"
"-123.53","48.30","RACE ROCKS","1016640","2019-04-18 07:00","2019","04","18","07:00","9.7","","8.9","","95","","","","5","","22","","","","101.89","","","","","","NA"
"-123.53","48.30","RACE ROCKS","1016640","2019-04-18 08:00","2019","04","18","08:00","9.7","","8.9","","95","","","","3","","20","","","","101.90","","","","","","NA"
"-123.53","48.30","RACE ROCKS","1016640","2019-04-18 09:00","2019","04","18","09:00","9.4","","8.7","","95","","","","4","","19","","","","101.84","","","","","","NA"
"-123.53","48.30","RACE ROCKS","1016640","2019-04-18 10:00","2019","04","18","10:00","10.0","","9.3","","95","","","","1","","22","","","","101.87","","","","","","NA"
"-123.53","48.30","RACE ROCKS","1016640","2019-04-18 11:00","2019","04","18","11:00","9.9","","9.0","","94","","","","1","","19","","","","101.80","","","","","","NA"
"-123.53","48.30","RACE ROCKS","1016640","2019-04-18 12:00","2019","04","18","12:00","10.0","","9.2","","95","","","","1","","16","","","","101.76","","","","","","NA"
"-123.53","48.30","RACE ROCKS","1016640","2019-04-18 13:00","2019","04","18","13:00","10.5","","9.5","","94","","","","28","","3","","","","101.69","","","","","","NA"
"-123.53","48.30","RACE ROCKS","1016640","2019-04-18 14:00","2019","04","18","14:00","9.8","","9.0","","95","","","","28","","9","","","","101.65","","","","","","NA"
"-123.53","48.30","RACE ROCKS","1016640","2019-04-18 15:00","2019","04","18","15:00","9.8","","9.1","","96","","","","25","","10","","","","101.60","","","","","","NA"
"-123.53","48.30","RACE ROCKS","1016640","2019-04-18 16:00","2019","04","18","16:00","10.2","","9.4","","95","","","","26","","14","","","","101.51","","","","","","NA"
"-123.53","48.30","RACE ROCKS","1016640","2019-04-18 17:00","2019","04","18","17:00","10.0","","9.3","","95","","","","27","","15","","","","101.49","","","","","","NA"
"-123.53","48.30","RACE ROCKS","1016640","2019-04-18 18:00","2019","04","18","18:00","10.6","","9.9","","95","","","","22","","12","","","","101.43","","","","","","NA"
"-123.53","48.30","RACE ROCKS","1016640","2019-04-18 19:00","2019","04","18","19:00","10.6","","9.7","","94","","","","21","","13","","","","101.39","","","","","","NA"
"-123.53","48.30","RACE ROCKS","1016640","2019-04-18 20:00","2019","04","18","20:00","10.4","","9.5","","94","","","","17","","4","","","","101.39","","","","","","NA"
"-123.53","48.30","RACE ROCKS","1016640","2019-04-18 21:00","2019","04","18","21:00","10.9","","9.7","","93","","","","21","","10","","","","101.39","","","","","","NA"
"-123.53","48.30","RACE ROCKS","1016640","2019-04-18 22:00","2019","04","18","22:00","10.7","","9.7","","93","","","","24","","12","","","","101.32","","","","","","NA"
"-123.53","48.30","RACE ROCKS","1016640","2019-04-18 23:00","2019","04","18","23:00","10.7","","9.7","","94","","","","23","","13","","","","101.28","","","","","","NA"
"-123.53","48.30","RACE ROCKS","1016640","2019-04-19 00:00","2019","04","19","00:00","10.9","","9.9","","93","","","","22","","15","","","","101.25","","","","","","NA"
"-123.53","48.30","RACE ROCKS","1016640","2019-04-19 01:00","2019","04","19","01:00","10.7","","9.7","","94","","","","26","","15","","","","101.21","","","","","","NA"
"-123.53","48.30","RACE ROCKS","1016640","2019-04-19 02:00","2019","04","19","02:00","11.2","","10.0","","92","","","","27","","15","","","","101.14","","","","","","NA"
"-123.53","48.30","RACE ROCKS","1016640","2019-04-19 03:00","2019","04","19","03:00","11.1","","9.6","","90","","","","27","","17","","","","101.13","","","","","","NA"
"-123.53","48.30","RACE ROCKS","1016640","2019-04-19 04:00","2019","04","19","04:00","11.0","","9.3","","89","","","","27","","16","","","","101.12","","","","","","NA"
"-123.53","48.30","RACE ROCKS","1016640","2019-04-19 05:00","2019","04","19","05:00","11.3","","9.1","","86","","","","29","","22","","","","101.08","","","","","","NA"
"-123.53","48.30","RACE ROCKS","1016640","2019-04-19 06:00","2019","04","19","06:00","11.4","","8.8","","84","","","","28","","29","","","","101.10","","","","","","NA"
"-123.53","48.30","RACE ROCKS","1016640","2019-04-19 07:00","2019","04","19","07:00","11.4","","8.8","","84","","","","30","","31","","","","101.11","","","","","","NA"
"-123.53","48.30","RACE ROCKS","1016640","2019-04-19 08:00","2019","04","19","08:00","11.3","","8.8","","85","","","","30","","44","","","","101.12","","","","","","NA"
"-123.53","48.30","RACE ROCKS","1016640","2019-04-19 09:00","2019","04","19","09:00","10.8","","8.6","","86","","","","28","","41","","","","101.14","","","","","","NA"
"-123.53","48.30","RACE ROCKS","1016640","2019-04-19 10:00","2019","04","19","10:00","10.0","","8.5","","90","","","","28","","37","","","","101.20","","","","","","NA"
"-123.53","48.30","RACE ROCKS","1016640","2019-04-19 11:00","2019","04","19","11:00","10.3","","8.7","","90","","","","28","","35","","","","101.19","","","","","","NA"
"-123.53","48.30","RACE ROCKS","1016640","2019-04-19 12:00","2019","04","19","12:00","11.4","","7.8","","78","","","","29","","38","","","","101.15","","","","","","NA"
"-123.53","48.30","RACE ROCKS","1016640","2019-04-19 13:00","2019","04","19","13:00","10.9","","7.8","","81","","","","28","","44","","","","101.13","","","","","","NA"
"-123.53","48.30","RACE ROCKS","1016640","2019-04-19 14:00","2019","04","19","14:00","10.8","","8.0","","83","","","","28","","46","","","","101.09","","","","","","NA"
"-123.53","48.30","RACE ROCKS","1016640","2019-04-19 15:00","2019","04","19","15:00","10.4","","8.2","","86","","","","28","","40","","","","101.11","","","","","","NA"
"-123.53","48.30","RACE ROCKS","1016640","2019-04-19 16:00","2019","04","19","16:00","9.8","","8.3","","90","","","","27","","39","","","","101.03","","","","","","NA"
"-123.53","48.30","RACE ROCKS","1016640","2019-04-19 17:00","2019","04","19","17:00","9.9","","8.4","","90","","","","27","","28","","","","101.07","","","","","","NA"
"-123.53","48.30","RACE ROCKS","1016640","2019-04-19 18:00","2019","04","19","18:00","12.0","","8.4","","78","","","","32","","15","","","","101.08","","","","","","NA"
"-123.53","48.30","RACE ROCKS","1016640","2019-04-19 19:00","2019","04","19","19:00","11.2","","6.9","","75","","","","30","","16","","","","101.07","","","","","","NA"
"-123.53","48.30","RACE ROCKS","1016640","2019-04-19 20:00","2019","04","19","20:00","10.0","","7.5","","84","","","","28","","28","","","","101.10","","","","","","NA"
"-123.53","48.30","RACE ROCKS","1016640","2019-04-19 21:00","2019","04","19","21:00","9.4","","7.7","","90","","","","28","","27","","","","101.15","","","","","","NA"
"-123.53","48.30","RACE ROCKS","1016640","2019-04-19 22:00","2019","04","19","22:00","9.3","","7.6","","89","","","","28","","29","","","","101.13","","","","","","NA"
"-123.53","48.30","RACE ROCKS","1016640","2019-04-19 23:00","2019","04","19","23:00","9.1","","7.8","","91","","","","28","","26","","","","101.16","","","","","","NA"
"-123.53","48.30","RACE ROCKS","1016640","2019-04-20 00:00","2019","04","20","00:00","9.1","","7.5","","90","","","","28","","18","","","","101.19","","","","","","NA"
"-123.53","48.30","RACE ROCKS","1016640","2019-04-20 01:00","2019","04","20","01:00","8.6","","6.9","","89","","","","34","","8","","","","101.21","","","","","","NA"
"-123.53","48.30","RACE ROCKS","1016640","2019-04-20 02:00","2019","04","20","02:00","8.8","","7.2","","90","","","","33","","3","","","","101.21","","","","","","NA"
"-123.53","48.30","RACE ROCKS","1016640","2019-04-20 03:00","2019","04","20","03:00","8.7","","7.3","","91","","","","26","","10","","","","101.23","","","","","","NA"
"-123.53","48.30","RACE ROCKS","1016640","2019-04-20 04:00","2019","04","20","04:00","8.4","","7.2","","92","","","","27","","5","","","","101.26","","","","","","NA"
"-123.53","48.30","RACE ROCKS","1016640","2019-04-20 05:00","2019","04","20","05:00","8.2","","7.3","","94","","","","4","","5","","","","101.29","","","","","","NA"
"-123.53","48.30","RACE ROCKS","1016640","2019-04-20 06:00","2019","04","20","06:00","9.9","","8.8","","93","","","","8","","7","","","","101.33","","","","","","NA"
"-123.53","48.30","RACE ROCKS","1016640","2019-04-20 07:00","2019","04","20","07:00","10.0","","7.9","","87","","","","11","","8","","","","101.39","","","","","","NA"
"-123.53","48.30","RACE ROCKS","1016640","2019-04-20 08:00","2019","04","20","08:00","8.2","","6.2","","87","","","","5","","6","","","","101.42","","","","","","NA"
"-123.53","48.30","RACE ROCKS","1016640","2019-04-20 09:00","2019","04","20","09:00","9.1","","5.3","","77","","","","9","","16","","","","101.45","","","","","","NA"
"-123.53","48.30","RACE ROCKS","1016640","2019-04-20 10:00","2019","04","20","10:00","9.8","","4.9","","72","","","","14","","19","","","","101.46","","","","","","NA"
"-123.53","48.30","RACE ROCKS","1016640","2019-04-20 11:00","2019","04","20","11:00","10.6","","5.0","","68","","","","15","","19","","","","101.47","","","","","","NA"
"-123.53","48.30","RACE ROCKS","1016640","2019-04-20 12:00","2019","04","20","12:00","11.3","","4.7","","64","","","","15","","16","","","","101.45","","","","","","NA"
"-123.53","48.30","RACE ROCKS","1016640","2019-04-20 13:00","2019","04","20","13:00","11.4","","5.7","","68","","","","11","","12","","","","101.45","","","","","","NA"
"-123.53","48.30","RACE ROCKS","1016640","2019-04-20 14:00","2019","04","20","14:00","11.6","","7.0","","73","","","","8","","3","","","","101.44","","","","","","NA"
"-123.53","48.30","RACE ROCKS","1016640","2019-04-20 15:00","2019","04","20","15:00","12.3","","6.5","","68","","","","14","","9","","","","101.42","","","","","","NA"
"-123.53","48.30","RACE ROCKS","1016640","2019-04-20 16:00","2019","04","20","16:00","12.0","","6.6","","69","","","","20","","4","","","","101.42","","","","","","NA"
"-123.53","48.30","RACE ROCKS","1016640","2019-04-20 17:00","2019","04","20","17:00","12.4","","4.9","","60","","","","26","","16","","","","101.45","","","","","","NA"
"-123.53","48.30","RACE ROCKS","1016640","2019-04-20 18:00","2019","04","20","18:00","10.6","","7.6","","82","","","","26","","36","","","","101.43","","","","","","NA"
"-123.53","48.30","RACE ROCKS","1016640","2019-04-20 19:00","2019","04","20","19:00","10.2","","7.1","","81","","","","27","","36","","","","101.46","","","","","","NA"
"-123.53","48.30","RACE ROCKS","1016640","2019-04-20 20:00","2019","04","20","20:00","9.8","","7.4","","85","","","","27","","35","","","","101.52","","","","","","NA"
"-123.53","48.30","RACE ROCKS","1016640","2019-04-20 21:00","2019","04","20","21:00","9.6","","7.3","","85","","","","26","","38","","","","101.57","","","","","","NA"
"-123.53","48.30","RACE ROCKS","1016640","2019-04-20 22:00","2019","04","20","22:00","9.7","","7.2","","85","","","","27","","39","","","","101.62","","","","","","NA"
"-123.53","48.30","RACE ROCKS","1016640","2019-04-20 23:00","2019","04","20","23:00","10.1","","6.4","","78","","","","27","","44","","","","101.64","","","","","","NA"
"-123.53","48.30","RACE ROCKS","1016640","2019-04-21 00:00","2019","04","21","00:00","9.4","","7.2","","86","","","","27","","42","","","","101.71","","","","","","NA"
"-123.53","48.30","RACE ROCKS","1016640","2019-04-21 01:00","2019","04","21","01:00","9.2","","7.3","","88","","","","26","","40","","","","101.73","","","","","","NA"
"-123.53","48.30","RACE ROCKS","1016640","2019-04-21 02:00","2019","04","21","02:00","9.3","","7.1","","86","","","","27","","50","","","","101.73","","","","","","NA"
"-123.53","48.30","RACE ROCKS","1016640","2019-04-21 03:00","2019","04","21","03:00","9.3","","6.9","","85","","","","27","","53","","","","101.76","","","","","","NA"
"-123.53","48.30","RACE ROCKS","1016640","2019-04-21 04:00","2019","04","21","04:00","9.2","","6.4","","83","","","","27","","54","","","","101.85","","","","","","NA"
"-123.53","48.30","RACE ROCKS","1016640","2019-04-21 05:00","2019","04","21","05:00","9.0","","6.2","","83","","","","26","","47","","","","101.87","","","","","","NA"
"-123.53","48.30","RACE ROCKS","1016640","2019-04-21 06:00","2019","04","21","06:00","9.2","","6.1","","81","","","","27","","42","","","","102.01","","","","","","NA"
"-123.53","48.30","RACE ROCKS","1016640","2019-04-21 07:00","2019","04","21","07:00","9.2","","5.8","","79","","","","27","","40","","","","102.09","","","","","","NA"
"-123.53","48.30","RACE ROCKS","1016640","2019-04-21 08:00","2019","04","21","08:00","9.1","","5.1","","76","","","","28","","43","","","","102.11","","","","","","NA"
"-123.53","48.30","RACE ROCKS","1016640","2019-04-21 09:00","2019","04","21","09:00","9.2","","5.4","","77","","","","28","","40","","","","102.14","","","","","","NA"
"-123.53","48.30","RACE ROCKS","1016640","2019-04-21 10:00","2019","04","21","10:00","9.1","","5.5","","78","","","","27","","37","","","","102.21","","","","","","NA"
"-123.53","48.30","RACE ROCKS","1016640","2019-04-21 11:00","2019","04","21","11:00","9.2","","5.6","","78","","","","28","","33","","","","102.24","","","","","","NA"
"-123.53","48.30","RACE ROCKS","1016640","2019-04-21 12:00","2019","04","21","12:00","9.6","","4.9","","73","","","","27","","32","","","","102.21","","","","","","NA"
"-123.53","48.30","RACE ROCKS","1016640","2019-04-21 13:00","2019","04","21","13:00","10.0","","5.6","","74","","","","24","","22","","","","102.23","","","","","","NA"
"-123.53","48.30","RACE ROCKS","1016640","2019-04-21 14:00","2019","04","21","14:00","10.3","","5.1","","70","","","","27","","42","","","","102.17","","","","","","NA"
"-123.53","48.30","RACE ROCKS","1016640","2019-04-21 15:00","2019","04","21","15:00","10.6","","4.9","","68","","","","28","","43","","","","102.13","","","","","","NA"
"-123.53","48.30","RACE ROCKS","1016640","2019-04-21 16:00","2019","04","21","16:00","10.4","","4.6","","67","","","","28","","44","","","","102.15","","","","","","NA"
"-123.53","48.30","RACE ROCKS","1016640","2019-04-21 17:00","2019","04","21","17:00","10.3","","4.6","","68","","","","28","","40","","","","102.12","","","","","","NA"
"-123.53","48.30","RACE ROCKS","1016640","2019-04-21 18:00","2019","04","21","18:00","10.2","","4.0","","66","","","","28","","37","","","","102.12","","","","","","NA"
"-123.53","48.30","RACE ROCKS","1016640","2019-04-21 19:00","2019","04","21","19:00","10.1","","4.1","","66","","","","28","","37","","","","102.12","","","","","","NA"
"-123.53","48.30","RACE ROCKS","1016640","2019-04-21 20:00","2019","04","21","20:00","9.6","","4.5","","70","","","","28","","31","","","","102.15","","","","","","NA"
"-123.53","48.30","RACE ROCKS","1016640","2019-04-21 21:00","2019","04","21","21:00","9.2","","4.9","","74","","","","27","","36","","","","102.15","","","","","","NA"
"-123.53","48.30","RACE ROCKS","1016640","2019-04-21 22:00","2019","04","21","22:00","9.0","","4.9","","75","","","","27","","37","","","","102.13","","","","","","NA"
"-123.53","48.30","RACE ROCKS","1016640","2019-04-21 23:00","2019","04","21","23:00","9.1","","5.2","","77","","","","27","","35","","","","102.12","","","","","","NA"
"-123.53","48.30","RACE ROCKS","1016640","2019-04-22 00:00","2019","04","22","00:00","9.2","","4.9","","75","","","","26","","31","","","","102.12","","","","","","NA"
"-123.53","48.30","RACE ROCKS","1016640","2019-04-22 01:00","2019","04","22","01:00","9.2","","4.9","","74","","","","27","","34","","","","102.07","","","","","","NA"
"-123.53","48.30","RACE ROCKS","1016640","2019-04-22 02:00","2019","04","22","02:00","9.1","","4.9","","75","","","","25","","27","","","","102.01","","","","","","NA"
"-123.53","48.30","RACE ROCKS","1016640","2019-04-22 03:00","2019","04","22","03:00","9.1","","5.0","","75","","","","26","","24","","","","102.01","","","","","","NA"
"-123.53","48.30","RACE ROCKS","1016640","2019-04-22 04:00","2019","04","22","04:00","9.1","","5.2","","77","","","","26","","18","","","","102.03","","","","","","NA"
"-123.53","48.30","RACE ROCKS","1016640","2019-04-22 05:00","2019","04","22","05:00","8.9","","5.6","","80","","","","25","","18","","","","102.07","","","","","","NA"
"-123.53","48.30","RACE ROCKS","1016640","2019-04-22 06:00","2019","04","22","06:00","8.7","","5.9","","83","","","","18","","7","","","","102.04","","","","","","NA"
"-123.53","48.30","RACE ROCKS","1016640","2019-04-22 07:00","2019","04","22","07:00","8.5","","6.2","","86","","","","12","","14","","","","101.97","","","","","","NA"
"-123.53","48.30","RACE ROCKS","1016640","2019-04-22 08:00","2019","04","22","08:00","8.4","","6.2","","86","","","","9","","13","","","","101.91","","","","","","NA"
"-123.53","48.30","RACE ROCKS","1016640","2019-04-22 09:00","2019","04","22","09:00","8.2","","6.4","","88","","","","35","","18","","","","101.97","","","","","","NA"
"-123.53","48.30","RACE ROCKS","1016640","2019-04-22 10:00","2019","04","22","10:00","8.0","","6.5","","91","","","","27","","10","","","","101.99","","","","","","NA"
"-123.53","48.30","RACE ROCKS","1016640","2019-04-22 11:00","2019","04","22","11:00","7.9","","6.7","","92","","","","27","","12","","","","101.96","","","","","","NA"
"-123.53","48.30","RACE ROCKS","1016640","2019-04-22 12:00","2019","04","22","12:00","8.3","","7.1","","92","","","","22","","4","","","","102.03","","","","","","NA"
"-123.53","48.30","RACE ROCKS","1016640","2019-04-22 13:00","2019","04","22","13:00","8.4","","7.3","","93","","","","0","","1","","","","102.04","","","","","","NA"
"-123.53","48.30","RACE ROCKS","1016640","2019-04-22 14:00","2019","04","22","14:00","8.1","","7.0","","92","","","","20","","4","","","","102.08","","","","","","NA"
"-123.53","48.30","RACE ROCKS","1016640","2019-04-22 15:00","2019","04","22","15:00","8.4","","7.1","","92","","","","36","","5","","","","102.04","","","","","","NA"
"-123.53","48.30","RACE ROCKS","1016640","2019-04-22 16:00","2019","04","22","16:00","9.0","","7.0","","88","","","","2","","7","","","","102.01","","","","","","NA"
"-123.53","48.30","RACE ROCKS","1016640","2019-04-22 17:00","2019","04","22","17:00","8.8","","7.1","","89","","","","8","","18","","","","101.83","","","","","","NA"
"-123.53","48.30","RACE ROCKS","1016640","2019-04-22 18:00","2019","04","22","18:00","8.7","","7.4","","92","","","","36","","16","","","","101.92","","","","","","NA"
"-123.53","48.30","RACE ROCKS","1016640","2019-04-22 19:00","2019","04","22","19:00","9.3","","7.2","","87","","","","2","","17","","","","101.84","","","","","","NA"
"-123.53","48.30","RACE ROCKS","1016640","2019-04-22 20:00","2019","04","22","20:00","9.7","","7.2","","85","","","","36","","11","","","","101.87","","","","","","NA"
"-123.53","48.30","RACE ROCKS","1016640","2019-04-22 21:00","2019","04","22","21:00","9.3","","7.3","","87","","","","29","","7","","","","101.85","","","","","","NA"
"-123.53","48.30","RACE ROCKS","1016640","2019-04-22 22:00","2019","04","22","22:00","9.0","","7.5","","91","","","","29","","8","","","","101.77","","","","","","NA"
"-123.53","48.30","RACE ROCKS","1016640","2019-04-22 23:00","2019","04","22","23:00","8.8","","7.6","","92","","","","28","","12","","","","101.79","","","","","","NA"
"-123.53","48.30","RACE ROCKS","1016640","2019-04-23 00:00","2019","04","23","00:00","8.7","","7.6","","92","","","","28","","18","","","","101.80","","","","","","NA"
"-123.53","48.30","RACE ROCKS","1016640","2019-04-23 01:00","2019","04","23","01:00","8.8","","7.5","","92","","","","25","","8","","","","101.77","","","","","","NA"
"-123.53","48.30","RACE ROCKS","1016640","2019-04-23 02:00","2019","04","23","02:00","8.7","","7.7","","93","","","","22","","7","","","","101.74","","","","","","NA"
"-123.53","48.30","RACE ROCKS","1016640","2019-04-23 03:00","2019","04","23","03:00","8.8","","8.0","","95","","","","24","","6","","","","101.75","","","","","","NA"
"-123.53","48.30","RACE ROCKS","1016640","2019-04-23 04:00","2019","04","23","04:00","8.6","","7.9","","95","","","","25","","12","","","","101.76","","","","","","NA"
"-123.53","48.30","RACE ROCKS","1016640","2019-04-23 05:00","2019","04","23","05:00","8.6","","7.9","","95","","","","25","","19","","","","101.70","","","","","","NA"
"-123.53","48.30","RACE ROCKS","1016640","2019-04-23 06:00","2019","04","23","06:00","9.3","","7.9","","91","","","","27","","22","","","","101.75","","","","","","NA"
"-123.53","48.30","RACE ROCKS","1016640","2019-04-23 07:00","2019","04","23","07:00","9.2","","7.8","","91","","","","28","","36","","","","101.76","","","","","","NA"
"-123.53","48.30","RACE ROCKS","1016640","2019-04-23 08:00","2019","04","23","08:00","8.7","","6.9","","88","","","","28","","43","","","","101.77","","","","","","NA"
"-123.53","48.30","RACE ROCKS","1016640","2019-04-23 09:00","2019","04","23","09:00","9.2","","6.6","","84","","","","28","","44","","","","101.76","","","","","","NA"
"-123.53","48.30","RACE ROCKS","1016640","2019-04-23 10:00","2019","04","23","10:00","9.1","","5.4","","78","","","","28","","55","","","","101.77","","","","","","NA"
"-123.53","48.30","RACE ROCKS","1016640","2019-04-23 11:00","2019","04","23","11:00","9.8","","4.4","","69","","","","28","","56","","","","101.77","","","","","","NA"
"-123.53","48.30","RACE ROCKS","1016640","2019-04-23 12:00","2019","04","23","12:00","9.2","","4.9","","75","","","","28","","65","","","","101.78","","","","","","NA"
"-123.53","48.30","RACE ROCKS","1016640","2019-04-23 13:00","2019","04","23","13:00","9.4","","4.7","","72","","","","28","","60","","","","101.84","","","","","","NA"
"-123.53","48.30","RACE ROCKS","1016640","2019-04-23 14:00","2019","04","23","14:00","9.9","","2.5","","60","","","","28","","62","","","","101.86","","","","","","NA"
"-123.53","48.30","RACE ROCKS","1016640","2019-04-23 15:00","2019","04","23","15:00","10.0","","3.6","","64","","","","28","","52","","","","101.90","","","","","","NA"
"-123.53","48.30","RACE ROCKS","1016640","2019-04-23 16:00","2019","04","23","16:00","9.7","","2.9","","63","","","","28","","62","","","","101.82","","","","","","NA"
"-123.53","48.30","RACE ROCKS","1016640","2019-04-23 17:00","2019","04","23","17:00","9.5","","3.7","","67","","","","29","","53","","","","101.92","","","","","","NA"
"-123.53","48.30","RACE ROCKS","1016640","2019-04-23 18:00","2019","04","23","18:00","9.2","","3.4","","67","","","","28","","58","","","","101.87","","","","","","NA"
"-123.53","48.30","RACE ROCKS","1016640","2019-04-23 19:00","2019","04","23","19:00","8.9","","3.9","","71","","","","28","","56","","","","101.90","","","","","","NA"
"-123.53","48.30","RACE ROCKS","1016640","2019-04-23 20:00","2019","04","23","20:00","8.9","","4.7","","75","","","","27","","50","","","","101.94","","","","","","NA"
"-123.53","48.30","RACE ROCKS","1016640","2019-04-23 21:00","2019","04","23","21:00","8.8","","4.3","","73","","","","26","","47","","","","101.97","","","","","","NA"
"-123.53","48.30","RACE ROCKS","1016640","2019-04-23 22:00","2019","04","23","22:00","8.8","","4.6","","75","","","","26","","44","","","","102.03","","","","","","NA"
"-123.53","48.30","RACE ROCKS","1016640","2019-04-23 23:00","2019","04","23","23:00","8.9","","5.0","","76","","","","26","","44","","","","102.04","","","","","","NA"
"-123.53","48.30","RACE ROCKS","1016640","2019-04-24 00:00","2019","04","24","00:00","8.8","","5.6","","80","","","","26","","40","","","","102.07","","","","","","NA"
"-123.53","48.30","RACE ROCKS","1016640","2019-04-24 01:00","2019","04","24","01:00","8.8","","5.6","","80","","","","26","","39","","","","102.11","","","","","","NA"
"-123.53","48.30","RACE ROCKS","1016640","2019-04-24 02:00","2019","04","24","02:00","8.7","","5.7","","82","","","","27","","41","","","","102.13","","","","","","NA"
"-123.53","48.30","RACE ROCKS","1016640","2019-04-24 03:00","2019","04","24","03:00","8.7","","5.6","","81","","","","27","","37","","","","102.17","","","","","","NA"
"-123.53","48.30","RACE ROCKS","1016640","2019-04-24 04:00","2019","04","24","04:00","8.5","","5.6","","82","","","","27","","30","","","","102.22","","","","","","NA"
"-123.53","48.30","RACE ROCKS","1016640","2019-04-24 05:00","2019","04","24","05:00","8.0","","5.2","","82","","","","28","","20","","","","102.27","","","","","","NA"
"-123.53","48.30","RACE ROCKS","1016640","2019-04-24 06:00","2019","04","24","06:00","8.0","","5.1","","82","","","","28","","12","","","","102.34","","","","","","NA"
"-123.53","48.30","RACE ROCKS","1016640","2019-04-24 07:00","2019","04","24","07:00","8.3","","4.9","","79","","","","29","","10","","","","102.41","","","","","","NA"
"-123.53","48.30","RACE ROCKS","1016640","2019-04-24 08:00","2019","04","24","08:00","8.7","","4.5","","75","","","","29","","9","","","","102.43","","","","","","NA"
"-123.53","48.30","RACE ROCKS","1016640","2019-04-24 09:00","2019","04","24","09:00","8.7","","5.3","","79","","","","20","","4","","","","102.43","","","","","","NA"
"-123.53","48.30","RACE ROCKS","1016640","2019-04-24 10:00","2019","04","24","10:00","9.7","","5.1","","73","","","","0","","1","","","","102.47","","","","","","NA"
"-123.53","48.30","RACE ROCKS","1016640","2019-04-24 11:00","2019","04","24","11:00","9.6","","4.5","","70","","","","7","","8","","","","102.49","","","","","","NA"
"-123.53","48.30","RACE ROCKS","1016640","2019-04-24 12:00","2019","04","24","12:00","11.0","","5.7","","70","","","","9","","7","","","","102.47","","","","","","NA"
"-123.53","48.30","RACE ROCKS","1016640","2019-04-24 13:00","2019","04","24","13:00","10.8","","4.0","","63","","","","13","","11","","","","102.47","","","","","","NA"
"-123.53","48.30","RACE ROCKS","1016640","2019-04-24 14:00","2019","04","24","14:00","11.0","","4.7","","65","","","","13","","14","","","","102.45","","","","","","NA"
"-123.53","48.30","RACE ROCKS","1016640","2019-04-24 15:00","2019","04","24","15:00","11.9","","6.2","","68","","","","9","","10","","","","102.41","","","","","","NA"
"-123.53","48.30","RACE ROCKS","1016640","2019-04-24 16:00","2019","04","24","16:00","9.8","","6.1","","78","","","","6","","10","","","","102.37","","","","","","NA"
"-123.53","48.30","RACE ROCKS","1016640","2019-04-24 17:00","2019","04","24","17:00","10.0","","5.5","","74","","","","3","","7","","","","102.35","","","","","","NA"
"-123.53","48.30","RACE ROCKS","1016640","2019-04-24 18:00","2019","04","24","18:00","11.2","","3.5","","59","","","","3","","6","","","","102.30","","","","","","NA"
"-123.53","48.30","RACE ROCKS","1016640","2019-04-24 19:00","2019","04","24","19:00","9.4","","5.3","","75","","","","27","","19","","","","102.29","","","","","","NA"
"-123.53","48.30","RACE ROCKS","1016640","2019-04-24 20:00","2019","04","24","20:00","10.1","","2.8","","60","","","","27","","15","","","","102.28","","","","","","NA"
"-123.53","48.30","RACE ROCKS","1016640","2019-04-24 21:00","2019","04","24","21:00","9.8","","3.0","","62","","","","27","","13","","","","102.28","","","","","","NA"
"-123.53","48.30","RACE ROCKS","1016640","2019-04-24 22:00","2019","04","24","22:00","10.1","","2.9","","61","","","","27","","15","","","","102.23","","","","","","NA"
"-123.53","48.30","RACE ROCKS","1016640","2019-04-24 23:00","2019","04","24","23:00","8.8","","6.1","","83","","","","24","","9","","","","102.23","","","","","","NA"
"-123.53","48.30","RACE ROCKS","1016640","2019-04-25 00:00","2019","04","25","00:00","8.5","","4.4","","75","","","","3","","5","","","","102.20","","","","","","NA"
"-123.53","48.30","RACE ROCKS","1016640","2019-04-25 01:00","2019","04","25","01:00","7.7","","4.7","","82","","","","4","","12","","","","102.20","","","","","","NA"
"-123.53","48.30","RACE ROCKS","1016640","2019-04-25 02:00","2019","04","25","02:00","7.8","","4.2","","78","","","","3","","10","","","","102.16","","","","","","NA"
"-123.53","48.30","RACE ROCKS","1016640","2019-04-25 03:00","2019","04","25","03:00","7.4","","4.2","","80","","","","5","","2","","","","102.15","","","","","","NA"
"-123.53","48.30","RACE ROCKS","1016640","2019-04-25 04:00","2019","04","25","04:00","7.1","","5.1","","87","","","","4","","9","","","","102.10","","","","","","NA"
"-123.53","48.30","RACE ROCKS","1016640","2019-04-25 05:00","2019","04","25","05:00","7.8","","5.9","","88","","","","13","","10","","","","102.08","","","","","","NA"
"-123.53","48.30","RACE ROCKS","1016640","2019-04-25 06:00","2019","04","25","06:00","8.8","","3.6","","70","","","","8","","17","","","","102.06","","","","","","NA"
"-123.53","48.30","RACE ROCKS","1016640","2019-04-25 07:00","2019","04","25","07:00","8.8","","3.3","","68","","","","9","","15","","","","102.07","","","","","","NA"
"-123.53","48.30","RACE ROCKS","1016640","2019-04-25 08:00","2019","04","25","08:00","8.9","","2.5","","64","","","","10","","18","","","","102.02","","","","","","NA"
"-123.53","48.30","RACE ROCKS","1016640","2019-04-25 09:00","2019","04","25","09:00","9.5","","3.3","","65","","","","13","","12","","","","102.00","","","","","","NA"
"-123.53","48.30","RACE ROCKS","1016640","2019-04-25 10:00","2019","04","25","10:00","10.6","","4.2","","64","","","","8","","15","","","","101.96","","","","","","NA"
"-123.53","48.30","RACE ROCKS","1016640","2019-04-25 11:00","2019","04","25","11:00","10.3","","4.1","","66","","","","9","","26","","","","101.89","","","","","","NA"
"-123.53","48.30","RACE ROCKS","1016640","2019-04-25 12:00","2019","04","25","12:00","10.6","","4.1","","64","","","","11","","24","","","","101.81","","","","","","NA"
"-123.53","48.30","RACE ROCKS","1016640","2019-04-25 13:00","2019","04","25","13:00","11.4","","3.2","","57","","","","12","","21","","","","101.74","","","","","","NA"
"-123.53","48.30","RACE ROCKS","1016640","2019-04-25 14:00","2019","04","25","14:00","11.8","","4.7","","62","","","","15","","12","","","","101.72","","","","","","NA"
"-123.53","48.30","RACE ROCKS","1016640","2019-04-25 15:00","2019","04","25","15:00","13.0","","6.0","","62","","","","","","0","","","","101.63","","","","","","NA"
"-123.53","48.30","RACE ROCKS","1016640","2019-04-25 16:00","2019","04","25","16:00","14.1","","3.5","","49","","","","15","","2","","","","101.58","","","","","","NA"
"-123.53","48.30","RACE ROCKS","1016640","2019-04-25 17:00","2019","04","25","17:00","11.9","","0.0","","44","","","","18","","4","","","","101.54","","","","","","NA"
"-123.53","48.30","RACE ROCKS","1016640","2019-04-25 18:00","2019","04","25","18:00","10.1","","5.4","","73","","","","26","","31","","","","101.48","","","","","","NA"
"-123.53","48.30","RACE ROCKS","1016640","2019-04-25 19:00","2019","04","25","19:00","9.8","","6.3","","79","","","","26","","35","","","","101.43","","","","","","NA"
"-123.53","48.30","RACE ROCKS","1016640","2019-04-25 20:00","2019","04","25","20:00","9.4","","7.4","","88","","","","27","","34","","","","101.44","","","","","","NA"
"-123.53","48.30","RACE ROCKS","1016640","2019-04-25 21:00","2019","04","25","21:00","9.6","","7.0","","84","","","","27","","42","","","","101.43","","","","","","NA"
"-123.53","48.30","RACE ROCKS","1016640","2019-04-25 22:00","2019","04","25","22:00","9.5","","7.4","","87","","","","27","","40","","","","101.40","","","","","","NA"
"-123.53","48.30","RACE ROCKS","1016640","2019-04-25 23:00","2019","04","25","23:00","9.5","","7.4","","87","","","","28","","37","","","","101.39","","","","","","NA"
"-123.53","48.30","RACE ROCKS","1016640","2019-04-26 00:00","2019","04","26","00:00","9.8","","6.4","","79","","","","28","","37","","","","101.43","","","","","","NA"
"-123.53","48.30","RACE ROCKS","1016640","2019-04-26 01:00","2019","04","26","01:00","9.6","","7.1","","85","","","","27","","43","","","","101.43","","","","","","NA"
"-123.53","48.30","RACE ROCKS","1016640","2019-04-26 02:00","2019","04","26","02:00","9.5","","7.0","","85","","","","27","","49","","","","101.42","","","","","","NA"
"-123.53","48.30","RACE ROCKS","1016640","2019-04-26 03:00","2019","04","26","03:00","9.4","","7.0","","85","","","","27","","47","","","","101.46","","","","","","NA"
"-123.53","48.30","RACE ROCKS","1016640","2019-04-26 04:00","2019","04","26","04:00","9.3","","6.6","","84","","","","28","","46","","","","101.51","","","","","","NA"
"-123.53","48.30","RACE ROCKS","1016640","2019-04-26 05:00","2019","04","26","05:00","9.1","","6.0","","81","","","","27","","48","","","","101.51","","","","","","NA"
"-123.53","48.30","RACE ROCKS","1016640","2019-04-26 06:00","2019","04","26","06:00","9.3","","6.2","","81","","","","26","","45","","","","101.55","","","","","","NA"
"-123.53","48.30","RACE ROCKS","1016640","2019-04-26 07:00","2019","04","26","07:00","9.2","","6.3","","82","","","","27","","41","","","","101.63","","","","","","NA"
"-123.53","48.30","RACE ROCKS","1016640","2019-04-26 08:00","2019","04","26","08:00","9.3","","5.8","","79","","","","26","","37","","","","101.68","","","","","","NA"
"-123.53","48.30","RACE ROCKS","1016640","2019-04-26 09:00","2019","04","26","09:00","9.2","","5.5","","78","","","","28","","46","","","","101.74","","","","","","NA"
"-123.53","48.30","RACE ROCKS","1016640","2019-04-26 10:00","2019","04","26","10:00","9.4","","4.6","","72","","","","28","","51","","","","101.77","","","","","","NA"
"-123.53","48.30","RACE ROCKS","1016640","2019-04-26 11:00","2019","04","26","11:00","9.5","","4.2","","70","","","","28","","55","","","","101.78","","","","","","NA"
"-123.53","48.30","RACE ROCKS","1016640","2019-04-26 12:00","2019","04","26","12:00","9.7","","3.8","","67","","","","28","","58","","","","101.82","","","","","","NA"
"-123.53","48.30","RACE ROCKS","1016640","2019-04-26 13:00","2019","04","26","13:00","9.6","","4.1","","69","","","","28","","64","","","","101.82","","","","","","NA"
"-123.53","48.30","RACE ROCKS","1016640","2019-04-26 14:00","2019","04","26","14:00","9.5","","4.3","","70","","","","28","","61","","","","101.92","","","","","","NA"
"-123.53","48.30","RACE ROCKS","1016640","2019-04-26 15:00","2019","04","26","15:00","9.7","","4.4","","70","","","","28","","55","","","","101.92","","","","","","NA"
"-123.53","48.30","RACE ROCKS","1016640","2019-04-26 16:00","2019","04","26","16:00","9.5","","5.3","","75","","","","28","","56","","","","101.89","","","","","","NA"
"-123.53","48.30","RACE ROCKS","1016640","2019-04-26 17:00","2019","04","26","17:00","9.6","","5.2","","74","","","","27","","50","","","","101.91","","","","","","NA"
"-123.53","48.30","RACE ROCKS","1016640","2019-04-26 18:00","2019","04","26","18:00","9.3","","5.7","","78","","","","27","","46","","","","101.90","","","","","","NA"
"-123.53","48.30","RACE ROCKS","1016640","2019-04-26 19:00","2019","04","26","19:00","9.4","","5.4","","76","","","","26","","43","","","","101.86","","","","","","NA"
"-123.53","48.30","RACE ROCKS","1016640","2019-04-26 20:00","2019","04","26","20:00","9.0","","5.5","","79","","","","25","","46","","","","101.84","","","","","","NA"
"-123.53","48.30","RACE ROCKS","1016640","2019-04-26 21:00","2019","04","26","21:00","9.2","","5.5","","78","","","","26","","52","","","","101.82","","","","","","NA"
"-123.53","48.30","RACE ROCKS","1016640","2019-04-26 22:00","2019","04","26","22:00","8.9","","5.4","","79","","","","25","","51","","","","101.80","","","","","","NA"
"-123.53","48.30","RACE ROCKS","1016640","2019-04-26 23:00","2019","04","26","23:00","8.9","","5.0","","76","","","","25","","47","","","","101.75","","","","","","NA"
"-123.53","48.30","RACE ROCKS","1016640","2019-04-27 00:00","2019","04","27","00:00","7.7","","3.9","","77","","","","26","","53","","","","101.78","","","","","","NA"
"-123.53","48.30","RACE ROCKS","1016640","2019-04-27 01:00","2019","04","27","01:00","8.5","","4.0","","73","","","","27","","54","","","","101.74","","","","","","NA"
"-123.53","48.30","RACE ROCKS","1016640","2019-04-27 02:00","2019","04","27","02:00","8.2","","3.5","","72","","","","25","","50","","","","101.71","","","","","","NA"
"-123.53","48.30","RACE ROCKS","1016640","2019-04-27 03:00","2019","04","27","03:00","7.9","","2.3","","68","","","","25","","52","","","","101.72","","","","","","NA"
"-123.53","48.30","RACE ROCKS","1016640","2019-04-27 04:00","2019","04","27","04:00","7.7","","2.0","","67","","","","25","","55","","","","101.71","","","","","","NA"
"-123.53","48.30","RACE ROCKS","1016640","2019-04-27 05:00","2019","04","27","05:00","7.6","","1.5","","65","","","","25","","51","","","","101.66","","","","","","NA"
"-123.53","48.30","RACE ROCKS","1016640","2019-04-27 06:00","2019","04","27","06:00","7.8","","2.2","","68","","","","26","","50","","","","101.67","","","","","","NA"
"-123.53","48.30","RACE ROCKS","1016640","2019-04-27 07:00","2019","04","27","07:00","7.7","","2.1","","68","","","","26","","48","","","","101.65","","","","","","NA"
"-123.53","48.30","RACE ROCKS","1016640","2019-04-27 08:00","2019","04","27","08:00","7.7","","0.9","","62","","","","27","","56","","","","101.62","","","","","","NA"
"-123.53","48.30","RACE ROCKS","1016640","2019-04-27 09:00","2019","04","27","09:00","7.8","","2.4","","69","","","","26","","56","","","","101.61","","","","","","NA"
"-123.53","48.30","RACE ROCKS","1016640","2019-04-27 10:00","2019","04","27","10:00","7.8","","1.7","","65","","","","27","","60","","","","101.64","","","","","","NA"
"-123.53","48.30","RACE ROCKS","1016640","2019-04-27 11:00","2019","04","27","11:00","8.0","","2.1","","66","","","","27","","59","","","","101.62","","","","","","NA"
"-123.53","48.30","RACE ROCKS","1016640","2019-04-27 12:00","2019","04","27","12:00","8.1","","1.6","","64","","","","27","","63","","","","101.51","","","","","","NA"
"-123.53","48.30","RACE ROCKS","1016640","2019-04-27 13:00","2019","04","27","13:00","8.4","","0.8","","59","","","","28","","59","","","","101.60","","","","","","NA"
"-123.53","48.30","RACE ROCKS","1016640","2019-04-27 14:00","2019","04","27","14:00","8.6","","2.6","","66","","","","28","","53","","","","101.60","","","","","","NA"
"-123.53","48.30","RACE ROCKS","1016640","2019-04-27 15:00","2019","04","27","15:00","8.7","","3.9","","72","","","","27","","51","","","","101.64","","","","","","NA"
"-123.53","48.30","RACE ROCKS","1016640","2019-04-27 16:00","2019","04","27","16:00","8.9","","4.4","","74","","","","27","","43","","","","101.66","","","","","","NA"
"-123.53","48.30","RACE ROCKS","1016640","2019-04-27 17:00","2019","04","27","17:00","9.1","","4.7","","74","","","","28","","46","","","","101.70","","","","","","NA"
"-123.53","48.30","RACE ROCKS","1016640","2019-04-27 18:00","2019","04","27","18:00","9.1","","5.3","","77","","","","27","","46","","","","101.70","","","","","","NA"
"-123.53","48.30","RACE ROCKS","1016640","2019-04-27 19:00","2019","04","27","19:00","9.0","","5.3","","77","","","","27","","47","","","","101.71","","","","","","NA"
"-123.53","48.30","RACE ROCKS","1016640","2019-04-27 20:00","2019","04","27","20:00","9.0","","5.4","","78","","","","27","","43","","","","101.81","","","","","","NA"
"-123.53","48.30","RACE ROCKS","1016640","2019-04-27 21:00","2019","04","27","21:00","9.4","","4.3","","70","","","","29","","32","","","","101.90","","","","","","NA"
"-123.53","48.30","RACE ROCKS","1016640","2019-04-27 22:00","2019","04","27","22:00","9.2","","4.0","","70","","","","28","","21","","","","101.95","","","","","","NA"
"-123.53","48.30","RACE ROCKS","1016640","2019-04-27 23:00","2019","04","27","23:00","8.9","","4.3","","73","","","","28","","18","","","","101.98","","","","","","NA"
"-123.53","48.30","RACE ROCKS","1016640","2019-04-28 00:00","2019","04","28","00:00","8.7","","4.2","","74","","","","28","","14","","","","102.00","","","","","","NA"
"-123.53","48.30","RACE ROCKS","1016640","2019-04-28 01:00","2019","04","28","01:00","8.2","","4.4","","77","","","","31","","3","","","","102.04","","","","","","NA"
"-123.53","48.30","RACE ROCKS","1016640","2019-04-28 02:00","2019","04","28","02:00","7.6","","4.5","","81","","","","32","","1","","","","102.06","","","","","","NA"
"-123.53","48.30","RACE ROCKS","1016640","2019-04-28 03:00","2019","04","28","03:00","7.7","","4.0","","77","","","","23","","3","","","","102.13","","","","","","NA"
"-123.53","48.30","RACE ROCKS","1016640","2019-04-28 04:00","2019","04","28","04:00","6.4","","3.9","","84","","","","6","","3","","","","102.18","","","","","","NA"
"-123.53","48.30","RACE ROCKS","1016640","2019-04-28 05:00","2019","04","28","05:00","6.7","","4.6","","86","","","","11","","3","","","","102.19","","","","","","NA"
"-123.53","48.30","RACE ROCKS","1016640","2019-04-28 06:00","2019","04","28","06:00","10.0","","6.3","","78","","","","13","","4","","","","102.24","","","","","","NA"
"-123.53","48.30","RACE ROCKS","1016640","2019-04-28 07:00","2019","04","28","07:00","10.5","","4.4","","66","","","","15","","8","","","","102.28","","","","","","NA"
"-123.53","48.30","RACE ROCKS","1016640","2019-04-28 08:00","2019","04","28","08:00","9.8","","2.7","","61","","","","13","","8","","","","102.30","","","","","","NA"
"-123.53","48.30","RACE ROCKS","1016640","2019-04-28 09:00","2019","04","28","09:00","9.6","","3.1","","64","","","","14","","14","","","","102.32","","","","","","NA"
"-123.53","48.30","RACE ROCKS","1016640","2019-04-28 10:00","2019","04","28","10:00","10.1","","3.8","","65","","","","11","","15","","","","102.31","","","","","","NA"
"-123.53","48.30","RACE ROCKS","1016640","2019-04-28 11:00","2019","04","28","11:00","10.1","","5.3","","72","","","","13","","16","","","","102.29","","","","","","NA"
"-123.53","48.30","RACE ROCKS","1016640","2019-04-28 12:00","2019","04","28","12:00","10.6","","4.4","","65","","","","13","","16","","","","102.25","","","","","","NA"
"-123.53","48.30","RACE ROCKS","1016640","2019-04-28 13:00","2019","04","28","13:00","12.2","","-1.6","","38","","","","13","","16","","","","102.20","","","","","","NA"
"-123.53","48.30","RACE ROCKS","1016640","2019-04-28 14:00","2019","04","28","14:00","12.7","","-2.2","","36","","","","16","","13","","","","102.15","","","","","","NA"
"-123.53","48.30","RACE ROCKS","1016640","2019-04-28 15:00","2019","04","28","15:00","13.0","","-2.7","","34","","","","13","","23","","","","102.07","","","","","","NA"
"-123.53","48.30","RACE ROCKS","1016640","2019-04-28 16:00","2019","04","28","16:00","13.6","","-3.8","","30","","","","14","","20","","","","102.02","","","","","","NA"
"-123.53","48.30","RACE ROCKS","1016640","2019-04-28 17:00","2019","04","28","17:00","14.2","","-5.5","","25","","","","14","","20","","","","101.97","","","","","","NA"
"-123.53","48.30","RACE ROCKS","1016640","2019-04-28 18:00","2019","04","28","18:00","12.2","","-0.2","","42","","","","27","","10","","","","101.95","","","","","","NA"
"-123.53","48.30","RACE ROCKS","1016640","2019-04-28 19:00","2019","04","28","19:00","12.6","","-4.2","","31","","","","26","","13","","","","101.92","","","","","","NA"
"-123.53","48.30","RACE ROCKS","1016640","2019-04-28 20:00","2019","04","28","20:00","12.4","","-5.3","","29","","","","26","","14","","","","101.92","","","","","","NA"
"-123.53","48.30","RACE ROCKS","1016640","2019-04-28 21:00","2019","04","28","21:00","10.7","","-1.0","","44","","","","26","","19","","","","101.92","","","","","","NA"
"-123.53","48.30","RACE ROCKS","1016640","2019-04-28 22:00","2019","04","28","22:00","9.3","","6.8","","85","","","","25","","25","","","","101.89","","","","","","NA"
"-123.53","48.30","RACE ROCKS","1016640","2019-04-28 23:00","2019","04","28","23:00","9.3","","3.8","","69","","","","27","","25","","","","101.88","","","","","","NA"
"-123.53","48.30","RACE ROCKS","1016640","2019-04-29 00:00","2019","04","29","00:00","9.1","","3.4","","68","","","","26","","19","","","","101.90","","","","","","NA"
"-123.53","48.30","RACE ROCKS","1016640","2019-04-29 01:00","2019","04","29","01:00","8.3","","1.6","","63","","","","27","","15","","","","101.85","","","","","","NA"
"-123.53","48.30","RACE ROCKS","1016640","2019-04-29 02:00","2019","04","29","02:00","8.4","","0.7","","58","","","","28","","11","","","","101.84","","","","","","NA"
"-123.53","48.30","RACE ROCKS","1016640","2019-04-29 03:00","2019","04","29","03:00","9.1","","-3.3","","41","","","","6","","3","","","","101.87","","","","","","NA"
"-123.53","48.30","RACE ROCKS","1016640","2019-04-29 04:00","2019","04","29","04:00","7.9","","3.2","","72","","","","5","","4","","","","101.86","","","","","","NA"
"-123.53","48.30","RACE ROCKS","1016640","2019-04-29 05:00","2019","04","29","05:00","8.2","","1.9","","65","","","","8","","13","","","","101.86","","","","","","NA"
"-123.53","48.30","RACE ROCKS","1016640","2019-04-29 06:00","2019","04","29","06:00","11.0","","3.6","","60","","","","12","","5","","","","101.88","","","","","","NA"
"-123.53","48.30","RACE ROCKS","1016640","2019-04-29 07:00","2019","04","29","07:00","10.9","","1.0","","51","","","","12","","12","","","","101.90","","","","","","NA"
"-123.53","48.30","RACE ROCKS","1016640","2019-04-29 08:00","2019","04","29","08:00","10.6","","0.1","","48","","","","12","","7","","","","101.89","","","","","","NA"
"-123.53","48.30","RACE ROCKS","1016640","2019-04-29 09:00","2019","04","29","09:00","10.6","","2.1","","56","","","","14","","14","","","","101.86","","","","","","NA"
"-123.53","48.30","RACE ROCKS","1016640","2019-04-29 10:00","2019","04","29","10:00","10.6","","3.7","","62","","","","15","","17","","","","101.85","","","","","","NA"
"-123.53","48.30","RACE ROCKS","1016640","2019-04-29 11:00","2019","04","29","11:00","11.0","","4.8","","66","","","","17","","14","","","","101.82","","","","","","NA"
"-123.53","48.30","RACE ROCKS","1016640","2019-04-29 12:00","2019","04","29","12:00","12.2","","1.5","","48","","","","16","","16","","","","101.76","","","","","","NA"
"-123.53","48.30","RACE ROCKS","1016640","2019-04-29 13:00","2019","04","29","13:00","13.2","","-1.6","","36","","","","17","","16","","","","101.70","","","","","","NA"
"-123.53","48.30","RACE ROCKS","1016640","2019-04-29 14:00","2019","04","29","14:00","13.7","","-1.7","","35","","","","16","","19","","","","101.62","","","","","","NA"
"-123.53","48.30","RACE ROCKS","1016640","2019-04-29 15:00","2019","04","29","15:00","14.1","","-2.3","","32","","","","16","","18","","","","101.55","","","","","","NA"
"-123.53","48.30","RACE ROCKS","1016640","2019-04-29 16:00","2019","04","29","16:00","15.3","","-4.2","","26","","","","14","","21","","","","101.50","","","","","","NA"
"-123.53","48.30","RACE ROCKS","1016640","2019-04-29 17:00","2019","04","29","17:00","16.1","","-5.3","","22","","","","15","","21","","","","101.48","","","","","","NA"
"-123.53","48.30","RACE ROCKS","1016640","2019-04-29 18:00","2019","04","29","18:00","16.0","","-4.8","","24","","","","26","","11","","","","101.48","","","","","","NA"
"-123.53","48.30","RACE ROCKS","1016640","2019-04-29 19:00","2019","04","29","19:00","14.3","","-4.5","","27","","","","29","","18","","","","101.49","","","","","","NA"
"-123.53","48.30","RACE ROCKS","1016640","2019-04-29 20:00","2019","04","29","20:00","11.4","","4.4","","62","","","","26","","14","","","","101.50","","","","","","NA"
"-123.53","48.30","RACE ROCKS","1016640","2019-04-29 21:00","2019","04","29","21:00","10.4","","5.4","","71","","","","25","","24","","","","101.52","","","","","","NA"
"-123.53","48.30","RACE ROCKS","1016640","2019-04-29 22:00","2019","04","29","22:00","10.1","","5.6","","74","","","","27","","30","","","","101.55","","","","","","NA"
"-123.53","48.30","RACE ROCKS","1016640","2019-04-29 23:00","2019","04","29","23:00","10.7","","2.8","","58","","","","27","","20","","","","101.58","","","","","","NA"
"-123.53","48.30","RACE ROCKS","1016640","2019-04-30 00:00","2019","04","30","00:00","9.7","","4.9","","72","","","","25","","18","","","","101.62","","","","","","NA"
"-123.53","48.30","RACE ROCKS","1016640","2019-04-30 01:00","2019","04","30","01:00","9.1","","4.3","","72","","","","27","","18","","","","101.60","","","","","","NA"
"-123.53","48.30","RACE ROCKS","1016640","2019-04-30 02:00","2019","04","30","02:00","9.4","","2.4","","62","","","","27","","17","","","","101.62","","","","","","NA"
"-123.53","48.30","RACE ROCKS","1016640","2019-04-30 03:00","2019","04","30","03:00","9.0","","3.4","","68","","","","24","","10","","","","101.65","","","","","","NA"
"-123.53","48.30","RACE ROCKS","1016640","2019-04-30 04:00","2019","04","30","04:00","8.6","","4.2","","74","","","","25","","7","","","","101.71","","","","","","NA"
"-123.53","48.30","RACE ROCKS","1016640","2019-04-30 05:00","2019","04","30","05:00","8.4","","3.7","","72","","","","24","","9","","","","101.72","","","","","","NA"
"-123.53","48.30","RACE ROCKS","1016640","2019-04-30 06:00","2019","04","30","06:00","9.0","","4.5","","73","","","","27","","6","","","","101.74","","","","","","NA"
"-123.53","48.30","RACE ROCKS","1016640","2019-04-30 07:00","2019","04","30","07:00","12.0","","5.8","","66","","","","","","0","","","","101.76","","","","","","NA"
"-123.53","48.30","RACE ROCKS","1016640","2019-04-30 08:00","2019","04","30","08:00","9.2","","4.7","","73","","","","4","","7","","","","101.77","","","","","","NA"
"-123.53","48.30","RACE ROCKS","1016640","2019-04-30 09:00","2019","04","30","09:00","10.1","","4.9","","70","","","","8","","9","","","","101.76","","","","","","NA"
"-123.53","48.30","RACE ROCKS","1016640","2019-04-30 10:00","2019","04","30","10:00","11.8","","2.9","","54","","","","13","","12","","","","101.76","","","","","","NA"
"-123.53","48.30","RACE ROCKS","1016640","2019-04-30 11:00","2019","04","30","11:00","12.2","","0.3","","44","","","","13","","18","","","","101.73","","","","","","NA"
"-123.53","48.30","RACE ROCKS","1016640","2019-04-30 12:00","2019","04","30","12:00","13.5","","-2.7","","32","","","","12","","11","","","","101.70","","","","","","NA"
"-123.53","48.30","RACE ROCKS","1016640","2019-04-30 13:00","2019","04","30","13:00","14.4","","-1.3","","34","","","","13","","7","","","","101.65","","","","","","NA"
"-123.53","48.30","RACE ROCKS","1016640","2019-04-30 14:00","2019","04","30","14:00","13.7","","-1.2","","36","","","","8","","13","","","","101.60","","","","","","NA"
"-123.53","48.30","RACE ROCKS","1016640","2019-04-30 15:00","2019","04","30","15:00","15.1","","-2.3","","30","","","","13","","11","","","","101.54","","","","","","NA"
"-123.53","48.30","RACE ROCKS","1016640","2019-04-30 16:00","2019","04","30","16:00","12.7","","4.3","","57","","","","19","","14","","","","101.51","","","","","","NA"
"-123.53","48.30","RACE ROCKS","1016640","2019-04-30 17:00","2019","04","30","17:00","12.0","","5.9","","66","","","","23","","17","","","","101.49","","","","","","NA"
"-123.53","48.30","RACE ROCKS","1016640","2019-04-30 18:00","2019","04","30","18:00","11.6","","4.9","","63","","","","25","","33","","","","101.39","","","","","","NA"
"-123.53","48.30","RACE ROCKS","1016640","2019-04-30 19:00","2019","04","30","19:00","12.2","","2.7","","52","","","","28","","36","","","","101.35","","","","","","NA"
"-123.53","48.30","RACE ROCKS","1016640","2019-04-30 20:00","2019","04","30","20:00","10.6","","6.7","","77","","","","30","","40","","","","101.36","","","","","","NA"
"-123.53","48.30","RACE ROCKS","1016640","2019-04-30 21:00","2019","04","30","21:00","10.3","","7.2","","81","","","","28","","39","","","","101.35","","","","","","NA"
"-123.53","48.30","RACE ROCKS","1016640","2019-04-30 22:00","2019","04","30","22:00","10.0","","7.3","","83","","","","28","","34","","","","101.34","","","","","","NA"
"-123.53","48.30","RACE ROCKS","1016640","2019-04-30 23:00","2019","04","30","23:00","10.2","","7.0","","81","","","","28","","41","","","","101.34","","","","","","NA"
