"Longitude (x)","Latitude (y)","Station Name","Climate ID","Date/Time (LST)","Year","Month","Day","Time (LST)","Temp (°C)","Temp Flag","Dew Point Temp (°C)","Dew Point Temp Flag","Rel Hum (%)","Rel Hum Flag","Precip. Amount (mm)","Precip. Amount Flag","Wind Dir (10s deg)","Wind Dir Flag","Wind Spd (km/h)","Wind Spd Flag","Visibility (km)","Visibility Flag","Stn Press (kPa)","Stn Press Flag","Hmdx","Hmdx Flag","Wind Chill","Wind Chill Flag","Weather"
"-85.01","72.99","ARCTIC BAY CS","2400404","2018-01-01 00:00","2018","01","01","00:00","-31.1","","-35.1","","68","","0.0","","4","","3","","","","101.18","","","","-35","","NA"
"-85.01","72.99","ARCTIC BAY CS","2400404","2018-01-01 01:00","2018","01","01","01:00","-31.8","","-36.0","","67","","0.0","","9","","9","","","","101.18","","","","-41","","NA"
"-85.01","72.99","ARCTIC BAY CS","2400404","2018-01-01 02:00","2018","01","01","02:00","-31.8","","-35.9","","67","","0.0","","9","","6","","","","101.18","","","","-39","","NA"
"-85.01","72.99","ARCTIC BAY CS","2400404","2018-01-01 03:00","2018","01","01","03:00","-32.3","","-36.2","","68","","0.0","","10","","4","","","","101.19","","","","-37","","NA"
"-85.01","72.99","ARCTIC BAY CS","2400404","2018-01-01 04:00","2018","01","01","04:00","-34.3","","-38.3","","67","","0.0","","33","","4","","","","101.23","","","","-39","","NA"
"-85.01","72.99","ARCTIC BAY CS","2400404","2018-01-01 05:00","2018","01","01","05:00","-32.7","","-36.1","","72","","0.0","","34","","3","","","","101.25","","","","-36","","NA"
"-85.01","72.99","ARCTIC BAY CS","2400404","2018-01-01 06:00","2018","01","01","06:00","-32.9","","-37.0","","67","","0.0","","8","","5","","","","101.27","","","","-39","","NA"
"-85.01","72.99","ARCTIC BAY CS","2400404","2018-01-01 07:00","2018","01","01","07:00","-32.6","","-36.5","","68","","0.0","","17","","1","","","","101.27","","","","-34","","NA"
"-85.01","72.99","ARCTIC BAY CS","2400404","2018-01-01 08:00","2018","01","01","08:00","-32.5","","-36.8","","66","","0.0","","7","","9","","","","101.26","","","","-42","","NA"
"-85.01","72.99","ARCTIC BAY CS","2400404","2018-01-01 09:00","2018","01","01","09:00","-32.6","","-36.5","","68","","0.0","","11","","5","","","","101.30","","","","-39","","NA"
"-85.01","72.99","ARCTIC BAY CS","2400404","2018-01-01 10:00","2018","01","01","10:00","-32.6","","-36.4","","68","","0.0","","11","","3","","","","101.28","","","","-36","","NA"
"-85.01","72.99","ARCTIC BAY CS","2400404","2018-01-01 11:00","2018","01","01","11:00","-35.8","","-39.6","","68","","0.2","","2","","2","","","","101.32","","","","-38","","NA"
"-85.01","72.99","ARCTIC BAY CS","2400404","2018-01-01 12:00","2018","01","01","12:00","-36.6","","-40.7","","65","","0.0","","9","","2","","","","101.30","","","","-39","","NA"
"-85.01","72.99","ARCTIC BAY CS","2400404","2018-01-01 13:00","2018","01","01","13:00","-35.3","","-38.9","","70","","0.0","","2","","4","","","","101.34","","","","-40","","NA"
"-85.01","72.99","ARCTIC BAY CS","2400404","2018-01-01 14:00","2018","01","01","14:00","-35.0","","-38.4","","71","","0.0","","19","","2","","","","101.36","","","","-38","","NA"
"-85.01","72.99","ARCTIC BAY CS","2400404","2018-01-01 15:00","2018","01","01","15:00","-35.2","","-38.8","","70","","0.0","","36","","3","","","","101.39","","","","-39","","NA"
"-85.01","72.99","ARCTIC BAY CS","2400404","2018-01-01 16:00","2018","01","01","16:00","-34.8","","-38.6","","68","","0.0","","1","","3","","","","101.42","","","","-39","","NA"
"-85.01","72.99","ARCTIC BAY CS","2400404","2018-01-01 17:00","2018","01","01","17:00","-33.2","","-36.9","","70","","0.0","","13","","5","","","","101.46","","","","-39","","NA"
"-85.01","72.99","ARCTIC BAY CS","2400404","2018-01-01 18:00","2018","01","01","18:00","-33.5","","-37.0","","70","","0.0","","3","","1","","","","101.49","","","","-35","","NA"
"-85.01","72.99","ARCTIC BAY CS","2400404","2018-01-01 19:00","2018","01","01","19:00","-35.8","","-39.6","","68","","0.0","","","","0","","","","101.52","","","","","","NA"
"-85.01","72.99","ARCTIC BAY CS","2400404","2018-01-01 20:00","2018","01","01","20:00","-34.6","","-38.3","","69","","0.0","","","","0","","","","101.53","","","","","","NA"
"-85.01","72.99","ARCTIC BAY CS","2400404","2018-01-01 21:00","2018","01","01","21:00","-35.8","","-39.6","","68","","0.0","","33","","1","","","","101.53","","","","-37","","NA"
"-85.01","72.99","ARCTIC BAY CS","2400404","2018-01-01 22:00","2018","01","01","22:00","-37.3","","-41.4","","66","","0.0","","33","","2","","","","101.53","","","","-40","","NA"
"-85.01","72.99","ARCTIC BAY CS","2400404","2018-01-01 23:00","2018","01","01","23:00","-36.2","","-40.3","","66","","0.0","","3","","2","","","","101.52","","","","-39","","NA"
"-85.01","72.99","ARCTIC BAY CS","2400404","2018-01-02 00:00","2018","01","02","00:00","-36.9","","-41.1","","65","","0.0","","13","","2","","","","101.52","","","","-40","","NA"
"-85.01","72.99","ARCTIC BAY CS","2400404","2018-01-02 01:00","2018","01","02","01:00","-35.4","","-39.2","","68","","0.0","","0","","1","","","","101.52","","","","-37","","NA"
"-85.01","72.99","ARCTIC BAY CS","2400404","2018-01-02 02:00","2018","01","02","02:00","-35.6","","-39.5","","68","","0.0","","1","","2","","","","101.56","","","","-38","","NA"
"-85.01","72.99","ARCTIC BAY CS","2400404","2018-01-02 03:00","2018","01","02","03:00","-35.8","","-39.7","","67","","0.0","","","","0","","","","101.56","","","","","","NA"
"-85.01","72.99","ARCTIC BAY CS","2400404","2018-01-02 04:00","2018","01","02","04:00","-34.3","","-37.6","","72","","0.0","","6","","4","","","","101.57","","","","-39","","NA"
"-85.01","72.99","ARCTIC BAY CS","2400404","2018-01-02 05:00","2018","01","02","05:00","-35.3","","-39.6","","65","","0.0","","12","","1","","","","101.59","","","","-37","","NA"
"-85.01","72.99","ARCTIC BAY CS","2400404","2018-01-02 06:00","2018","01","02","06:00","-34.2","","-37.8","","70","","0.0","","13","","2","","","","101.58","","","","-37","","NA"
"-85.01","72.99","ARCTIC BAY CS","2400404","2018-01-02 07:00","2018","01","02","07:00","-37.2","","-41.3","","66","","0.0","","1","","3","","","","101.61","","","","-41","","NA"
"-85.01","72.99","ARCTIC BAY CS","2400404","2018-01-02 08:00","2018","01","02","08:00","-36.5","","-40.6","","66","","0.0","","8","","2","","","","101.59","","","","-39","","NA"
"-85.01","72.99","ARCTIC BAY CS","2400404","2018-01-02 09:00","2018","01","02","09:00","-35.4","","-39.2","","68","","0.0","","34","","4","","","","101.61","","","","-40","","NA"
"-85.01","72.99","ARCTIC BAY CS","2400404","2018-01-02 10:00","2018","01","02","10:00","-33.8","","-37.5","","69","","0.0","","8","","3","","","","101.58","","","","-37","","NA"
"-85.01","72.99","ARCTIC BAY CS","2400404","2018-01-02 11:00","2018","01","02","11:00","-35.3","","-39.2","","67","","0.0","","6","","2","","","","101.62","","","","-38","","NA"
"-85.01","72.99","ARCTIC BAY CS","2400404","2018-01-02 12:00","2018","01","02","12:00","-33.2","","-36.8","","70","","0.0","","","","0","","","","101.61","","","","","","NA"
"-85.01","72.99","ARCTIC BAY CS","2400404","2018-01-02 13:00","2018","01","02","13:00","-32.5","","-36.1","","70","","0.0","","0","","1","","","","101.61","","","","-34","","NA"
"-85.01","72.99","ARCTIC BAY CS","2400404","2018-01-02 14:00","2018","01","02","14:00","-32.0","","-35.5","","71","","0.0","","","","0","","","","101.62","","","","","","NA"
"-85.01","72.99","ARCTIC BAY CS","2400404","2018-01-02 15:00","2018","01","02","15:00","-32.6","","-36.1","","71","","0.0","","12","","1","","","","101.64","","","","-34","","NA"
"-85.01","72.99","ARCTIC BAY CS","2400404","2018-01-02 16:00","2018","01","02","16:00","-31.4","","-34.8","","72","","0.0","","33","","3","","","","101.69","","","","-35","","NA"
"-85.01","72.99","ARCTIC BAY CS","2400404","2018-01-02 17:00","2018","01","02","17:00","-30.8","","-34.2","","72","","0.0","","11","","3","","","","101.72","","","","-34","","NA"
"-85.01","72.99","ARCTIC BAY CS","2400404","2018-01-02 18:00","2018","01","02","18:00","-31.1","","-34.5","","72","","0.0","","2","","2","","","","101.74","","","","-33","","NA"
"-85.01","72.99","ARCTIC BAY CS","2400404","2018-01-02 19:00","2018","01","02","19:00","-30.9","","-34.3","","72","","0.0","","35","","2","","","","101.79","","","","-33","","NA"
"-85.01","72.99","ARCTIC BAY CS","2400404","2018-01-02 20:00","2018","01","02","20:00","-30.3","","-33.7","","72","","0.0","","","","0","","","","101.78","","","","","","NA"
"-85.01","72.99","ARCTIC BAY CS","2400404","2018-01-02 21:00","2018","01","02","21:00","-30.6","","-33.9","","73","","0.0","","34","","2","","","","101.80","","","","-33","","NA"
"-85.01","72.99","ARCTIC BAY CS","2400404","2018-01-02 22:00","2018","01","02","22:00","-31.6","","-35.0","","71","","0.0","","35","","4","","","","101.82","","","","-36","","NA"
"-85.01","72.99","ARCTIC BAY CS","2400404","2018-01-02 23:00","2018","01","02","23:00","-32.5","","-36.2","","70","","0.0","","12","","1","","","","101.81","","","","-34","","NA"
"-85.01","72.99","ARCTIC BAY CS","2400404","2018-01-03 00:00","2018","01","03","00:00","-31.9","","-35.3","","72","","0.0","","36","","2","","","","101.83","","","","-34","","NA"
"-85.01","72.99","ARCTIC BAY CS","2400404","2018-01-03 01:00","2018","01","03","01:00","-35.2","","-39.2","","67","","0.0","","31","","5","","","","101.90","","","","-42","","NA"
"-85.01","72.99","ARCTIC BAY CS","2400404","2018-01-03 02:00","2018","01","03","02:00","-33.3","","-36.9","","70","","0.0","","34","","5","","","","101.95","","","","-39","","NA"
"-85.01","72.99","ARCTIC BAY CS","2400404","2018-01-03 03:00","2018","01","03","03:00","-33.0","","-36.5","","71","","0.0","","35","","3","","","","102.04","","","","-37","","NA"
"-85.01","72.99","ARCTIC BAY CS","2400404","2018-01-03 04:00","2018","01","03","04:00","-33.4","","-37.1","","70","","0.0","","33","","2","","","","102.09","","","","-36","","NA"
"-85.01","72.99","ARCTIC BAY CS","2400404","2018-01-03 05:00","2018","01","03","05:00","-34.8","","-38.5","","69","","0.0","","19","","2","","","","102.14","","","","-37","","NA"
"-85.01","72.99","ARCTIC BAY CS","2400404","2018-01-03 06:00","2018","01","03","06:00","-34.7","","-38.5","","68","","0.0","","14","","5","","","","102.18","","","","-41","","NA"
"-85.01","72.99","ARCTIC BAY CS","2400404","2018-01-03 07:00","2018","01","03","07:00","-35.4","","-39.2","","68","","0.0","","0","","1","","","","102.23","","","","-37","","NA"
"-85.01","72.99","ARCTIC BAY CS","2400404","2018-01-03 08:00","2018","01","03","08:00","-37.0","","-41.0","","66","","0.0","","27","","2","","","","102.27","","","","-40","","NA"
"-85.01","72.99","ARCTIC BAY CS","2400404","2018-01-03 09:00","2018","01","03","09:00","-35.8","","-39.7","","68","","0.0","","2","","1","","","","102.29","","","","-37","","NA"
"-85.01","72.99","ARCTIC BAY CS","2400404","2018-01-03 10:00","2018","01","03","10:00","-36.5","","-40.5","","66","","0.0","","","","0","","","","102.32","","","","","","NA"
"-85.01","72.99","ARCTIC BAY CS","2400404","2018-01-03 11:00","2018","01","03","11:00","-38.1","","-42.3","","65","","0.0","","12","","2","","","","102.34","","","","-41","","NA"
"-85.01","72.99","ARCTIC BAY CS","2400404","2018-01-03 12:00","2018","01","03","12:00","-35.1","","-38.8","","69","","0.0","","0","","1","","","","102.38","","","","-36","","NA"
"-85.01","72.99","ARCTIC BAY CS","2400404","2018-01-03 13:00","2018","01","03","13:00","-35.0","","-38.6","","70","","0.0","","12","","4","","","","102.41","","","","-40","","NA"
"-85.01","72.99","ARCTIC BAY CS","2400404","2018-01-03 14:00","2018","01","03","14:00","-36.5","","-40.4","","67","","0.0","","34","","4","","","","102.45","","","","-42","","NA"
"-85.01","72.99","ARCTIC BAY CS","2400404","2018-01-03 15:00","2018","01","03","15:00","-35.1","","-39.0","","68","","0.0","","36","","2","","","","102.49","","","","-38","","NA"
"-85.01","72.99","ARCTIC BAY CS","2400404","2018-01-03 16:00","2018","01","03","16:00"
"-85.01","72.99","ARCTIC BAY CS","2400404","2018-01-03 17:00","2018","01","03","17:00"
"-85.01","72.99","ARCTIC BAY CS","2400404","2018-01-03 18:00","2018","01","03","18:00"
"-85.01","72.99","ARCTIC BAY CS","2400404","2018-01-03 19:00","2018","01","03","19:00","-35.8","","-40.0","","65","","0.0","","15","","2","","","","102.59","","","","-38","","NA"
"-85.01","72.99","ARCTIC BAY CS","2400404","2018-01-03 20:00","2018","01","03","20:00","-35.1","","-38.8","","69","","0.0","","14","","2","","","","102.61","","","","-38","","NA"
"-85.01","72.99","ARCTIC BAY CS","2400404","2018-01-03 21:00","2018","01","03","21:00","-35.2","","-39.2","","67","","0.0","","0","","1","","","","102.64","","","","-36","","NA"
"-85.01","72.99","ARCTIC BAY CS","2400404","2018-01-03 22:00","2018","01","03","22:00","-34.3","","-38.1","","69","","0.0","","31","","3","","","","102.62","","","","-38","","NA"
"-85.01","72.99","ARCTIC BAY CS","2400404","2018-01-03 23:00","2018","01","03","23:00","-34.6","","-38.4","","68","","0.0","","","","0","","","","102.64","","","","","","NA"
"-85.01","72.99","ARCTIC BAY CS","2400404","2018-01-04 00:00","2018","01","04","00:00"
"-85.01","72.99","ARCTIC BAY CS","2400404","2018-01-04 01:00","2018","01","04","01:00","-33.3","","-36.8","","70","","0.0","","0","","1","","","","102.67","","","","-35","","NA"
"-85.01","72.99","ARCTIC BAY CS","2400404","2018-01-04 02:00","2018","01","04","02:00","-35.2","","-39.1","","67","","0.0","","36","","3","","","","102.72","","","","-39","","NA"
"-85.01","72.99","ARCTIC BAY CS","2400404","2018-01-04 03:00","2018","01","04","03:00","-35.9","","-39.8","","67","","0.0","","","","0","","","","102.74","","","","","","NA"
"-85.01","72.99","ARCTIC BAY CS","2400404","2018-01-04 04:00","2018","01","04","04:00","-35.7","","-39.6","","67","","0.0","","14","","2","","","","102.78","","","","-38","","NA"
"-85.01","72.99","ARCTIC BAY CS","2400404","2018-01-04 05:00","2018","01","04","05:00","-36.0","","-39.9","","68","","0.0","","33","","4","","","","102.82","","","","-41","","NA"
"-85.01","72.99","ARCTIC BAY CS","2400404","2018-01-04 06:00","2018","01","04","06:00","-35.0","","-38.8","","68","","0.0","","","","0","","","","102.86","","","","","","NA"
"-85.01","72.99","ARCTIC BAY CS","2400404","2018-01-04 07:00","2018","01","04","07:00","-34.4","","-38.1","","69","","0.0","","34","","2","","","","102.86","","","","-37","","NA"
"-85.01","72.99","ARCTIC BAY CS","2400404","2018-01-04 08:00","2018","01","04","08:00","-33.5","","-37.1","","71","","0.0","","0","","1","","","","102.85","","","","-35","","NA"
"-85.01","72.99","ARCTIC BAY CS","2400404","2018-01-04 09:00","2018","01","04","09:00","-35.3","","-39.3","","67","","0.0","","32","","3","","","","102.86","","","","-39","","NA"
"-85.01","72.99","ARCTIC BAY CS","2400404","2018-01-04 10:00","2018","01","04","10:00","-37.1","","-41.4","","64","","0.0","","","","0","","","","102.90","","","","","","NA"
"-85.01","72.99","ARCTIC BAY CS","2400404","2018-01-04 11:00","2018","01","04","11:00","-36.8","","-40.9","","66","","0.0","","0","","1","","","","102.91","","","","-38","","NA"
"-85.01","72.99","ARCTIC BAY CS","2400404","2018-01-04 12:00","2018","01","04","12:00","-34.8","","-38.6","","69","","0.0","","1","","4","","","","102.93","","","","-40","","NA"
"-85.01","72.99","ARCTIC BAY CS","2400404","2018-01-04 13:00","2018","01","04","13:00","-35.4","","-39.3","","67","","0.0","","36","","2","","","","102.95","","","","-38","","NA"
"-85.01","72.99","ARCTIC BAY CS","2400404","2018-01-04 14:00","2018","01","04","14:00","-34.5","","-38.2","","69","","0.0","","0","","1","","","","102.99","","","","-36","","NA"
"-85.01","72.99","ARCTIC BAY CS","2400404","2018-01-04 15:00","2018","01","04","15:00","-35.4","","-39.3","","67","","0.0","","0","","1","","","","103.04","","","","-37","","NA"
"-85.01","72.99","ARCTIC BAY CS","2400404","2018-01-04 16:00","2018","01","04","16:00","-34.2","","-37.9","","69","","0.0","","14","","4","","","","103.08","","","","-39","","NA"
"-85.01","72.99","ARCTIC BAY CS","2400404","2018-01-04 17:00","2018","01","04","17:00","-32.3","","-35.9","","70","","0.0","","12","","4","","","","103.09","","","","-37","","NA"
"-85.01","72.99","ARCTIC BAY CS","2400404","2018-01-04 18:00","2018","01","04","18:00","-31.8","","-35.4","","71","","0.0","","11","","2","","","","103.09","","","","-34","","NA"
"-85.01","72.99","ARCTIC BAY CS","2400404","2018-01-04 19:00","2018","01","04","19:00","-32.5","","-36.1","","70","","0.0","","9","","2","","","","103.11","","","","-35","","NA"
"-85.01","72.99","ARCTIC BAY CS","2400404","2018-01-04 20:00","2018","01","04","20:00","-31.8","","-35.3","","71","","0.0","","32","","1","","","","103.08","","","","-33","","NA"
"-85.01","72.99","ARCTIC BAY CS","2400404","2018-01-04 21:00","2018","01","04","21:00","-31.5","","-34.9","","72","","0.0","","34","","2","","","","103.07","","","","-34","","NA"
"-85.01","72.99","ARCTIC BAY CS","2400404","2018-01-04 22:00","2018","01","04","22:00","-31.7","","-35.1","","71","","0.0","","35","","3","","","","103.06","","","","-35","","NA"
"-85.01","72.99","ARCTIC BAY CS","2400404","2018-01-04 23:00","2018","01","04","23:00","-31.6","","-35.0","","71","","0.0","","36","","2","","","","103.06","","","","-34","","NA"
"-85.01","72.99","ARCTIC BAY CS","2400404","2018-01-05 00:00","2018","01","05","00:00","-31.0","","-34.4","","72","","0.0","","","","0","","","","103.07","","","","","","NA"
"-85.01","72.99","ARCTIC BAY CS","2400404","2018-01-05 01:00","2018","01","05","01:00","-30.6","","-34.0","","72","","0.0","","7","","1","","","","103.07","","","","-32","","NA"
"-85.01","72.99","ARCTIC BAY CS","2400404","2018-01-05 02:00","2018","01","05","02:00","-30.1","","-33.4","","73","","0.0","","14","","2","","","","103.05","","","","-32","","NA"
"-85.01","72.99","ARCTIC BAY CS","2400404","2018-01-05 03:00","2018","01","05","03:00","-29.8","","-33.1","","73","","0.0","","14","","2","","","","103.04","","","","-32","","NA"
"-85.01","72.99","ARCTIC BAY CS","2400404","2018-01-05 04:00","2018","01","05","04:00","-29.7","","-32.9","","73","","0.0","","14","","1","","","","103.04","","","","-31","","NA"
"-85.01","72.99","ARCTIC BAY CS","2400404","2018-01-05 05:00","2018","01","05","05:00","-29.6","","-32.9","","73","","0.0","","6","","2","","","","102.99","","","","-32","","NA"
"-85.01","72.99","ARCTIC BAY CS","2400404","2018-01-05 06:00","2018","01","05","06:00","-29.6","","-32.9","","73","","0.0","","28","","7","","","","102.96","","","","-37","","NA"
"-85.01","72.99","ARCTIC BAY CS","2400404","2018-01-05 07:00","2018","01","05","07:00","-30.4","","-33.7","","73","","0.0","","29","","10","","","","102.94","","","","-40","","NA"
"-85.01","72.99","ARCTIC BAY CS","2400404","2018-01-05 08:00","2018","01","05","08:00","-30.2","","-33.5","","73","","0.0","","","","0","","","","102.90","","","","","","NA"
"-85.01","72.99","ARCTIC BAY CS","2400404","2018-01-05 09:00","2018","01","05","09:00","-29.7","","-33.0","","73","","0.2","","14","","2","","","","102.82","","","","-32","","NA"
"-85.01","72.99","ARCTIC BAY CS","2400404","2018-01-05 10:00","2018","01","05","10:00","-30.0","","-33.2","","73","","0.0","","30","","5","","","","102.80","","","","-36","","NA"
"-85.01","72.99","ARCTIC BAY CS","2400404","2018-01-05 11:00","2018","01","05","11:00","-30.2","","-33.6","","72","","0.0","","29","","10","","","","102.77","","","","-39","","NA"
"-85.01","72.99","ARCTIC BAY CS","2400404","2018-01-05 12:00","2018","01","05","12:00","-30.4","","-33.8","","72","","0.2","","29","","13","","","","102.70","","","","-41","","NA"
"-85.01","72.99","ARCTIC BAY CS","2400404","2018-01-05 13:00","2018","01","05","13:00","-30.5","","-33.9","","72","","0.0","","28","","10","","","","102.64","","","","-40","","NA"
"-85.01","72.99","ARCTIC BAY CS","2400404","2018-01-05 14:00","2018","01","05","14:00","-30.5","","-34.0","","71","","0.0","","28","","9","","","","102.61","","","","-39","","NA"
"-85.01","72.99","ARCTIC BAY CS","2400404","2018-01-05 15:00","2018","01","05","15:00","-30.2","","-33.7","","71","","0.0","","29","","9","","","","102.59","","","","-39","","NA"
"-85.01","72.99","ARCTIC BAY CS","2400404","2018-01-05 16:00","2018","01","05","16:00","-30.0","","-33.6","","71","","0.0","","26","","3","","","","102.55","","","","-33","","NA"
"-85.01","72.99","ARCTIC BAY CS","2400404","2018-01-05 17:00","2018","01","05","17:00","-30.0","","-33.6","","71","","0.2","","29","","7","","","","102.51","","","","-37","","NA"
"-85.01","72.99","ARCTIC BAY CS","2400404","2018-01-05 18:00","2018","01","05","18:00","-30.0","","-33.6","","71","","0.0","","28","","4","","","","102.48","","","","-35","","NA"
"-85.01","72.99","ARCTIC BAY CS","2400404","2018-01-05 19:00","2018","01","05","19:00","-30.0","","-33.6","","71","","0.0","","","","0","","","","102.39","","","","","","NA"
"-85.01","72.99","ARCTIC BAY CS","2400404","2018-01-05 20:00","2018","01","05","20:00","-30.0","","-33.6","","71","","0.0","","","","0","","","","102.29","","","","","","NA"
"-85.01","72.99","ARCTIC BAY CS","2400404","2018-01-05 21:00","2018","01","05","21:00","-29.7","","-33.2","","71","","0.0","","31","","7","","","","102.21","","","","-37","","NA"
"-85.01","72.99","ARCTIC BAY CS","2400404","2018-01-05 22:00","2018","01","05","22:00","-30.0","","-33.5","","71","","0.0","","27","","5","","","","102.15","","","","-36","","NA"
"-85.01","72.99","ARCTIC BAY CS","2400404","2018-01-05 23:00","2018","01","05","23:00","-30.0","","-33.5","","72","","0.2","","","","0","","","","102.06","","","","","","NA"
"-85.01","72.99","ARCTIC BAY CS","2400404","2018-01-06 00:00","2018","01","06","00:00","-30.7","","-34.2","","71","","0.0","","12","","2","","","","101.98","","","","-33","","NA"
"-85.01","72.99","ARCTIC BAY CS","2400404","2018-01-06 01:00","2018","01","06","01:00","-32.2","","-35.8","","71","","0.0","","10","","3","","","","101.91","","","","-36","","NA"
"-85.01","72.99","ARCTIC BAY CS","2400404","2018-01-06 02:00","2018","01","06","02:00","-31.6","","-34.9","","73","","0.0","","12","","6","","","","101.82","","","","-38","","NA"
"-85.01","72.99","ARCTIC BAY CS","2400404","2018-01-06 03:00","2018","01","06","03:00","-31.1","","-34.7","","71","","0.0","","10","","4","","","","101.76","","","","-36","","NA"
"-85.01","72.99","ARCTIC BAY CS","2400404","2018-01-06 04:00","2018","01","06","04:00","-30.3","","-34.0","","70","","0.0","","12","","8","","","","101.68","","","","-38","","NA"
"-85.01","72.99","ARCTIC BAY CS","2400404","2018-01-06 05:00","2018","01","06","05:00","-30.2","","-33.7","","71","","0.0","","15","","3","","","","101.63","","","","-34","","NA"
"-85.01","72.99","ARCTIC BAY CS","2400404","2018-01-06 06:00","2018","01","06","06:00","-29.9","","-33.6","","71","","0.0","","","","0","","","","101.53","","","","","","NA"
"-85.01","72.99","ARCTIC BAY CS","2400404","2018-01-06 07:00","2018","01","06","07:00","-30.0","","-33.5","","71","","0.0","","30","","2","","","","101.44","","","","-32","","NA"
"-85.01","72.99","ARCTIC BAY CS","2400404","2018-01-06 08:00","2018","01","06","08:00","-29.1","","-32.6","","72","","0.0","","33","","9","","","","101.37","","","","-38","","NA"
"-85.01","72.99","ARCTIC BAY CS","2400404","2018-01-06 09:00","2018","01","06","09:00","-29.3","","-32.9","","71","","0.0","","32","","6","","","","101.28","","","","-36","","NA"
"-85.01","72.99","ARCTIC BAY CS","2400404","2018-01-06 10:00","2018","01","06","10:00","-29.2","","-32.7","","72","","0.0","","17","","1","","","","101.23","","","","-30","","NA"
"-85.01","72.99","ARCTIC BAY CS","2400404","2018-01-06 11:00","2018","01","06","11:00","-29.8","","-32.9","","75","","0.0","","16","","1","","","","101.16","","","","-31","","NA"
"-85.01","72.99","ARCTIC BAY CS","2400404","2018-01-06 12:00","2018","01","06","12:00","-30.9","","-34.2","","73","","0.0","","14","","2","","","","101.08","","","","-33","","NA"
"-85.01","72.99","ARCTIC BAY CS","2400404","2018-01-06 13:00","2018","01","06","13:00","-31.4","","-34.7","","73","","0.0","","","","0","","","","101.00","","","","","","NA"
"-85.01","72.99","ARCTIC BAY CS","2400404","2018-01-06 14:00","2018","01","06","14:00","-32.3","","-36.0","","69","","0.0","","15","","4","","","","100.95","","","","-37","","NA"
"-85.01","72.99","ARCTIC BAY CS","2400404","2018-01-06 15:00","2018","01","06","15:00","-30.5","","-33.9","","72","","0.0","","12","","1","","","","100.87","","","","-32","","NA"
"-85.01","72.99","ARCTIC BAY CS","2400404","2018-01-06 16:00","2018","01","06","16:00","-30.0","","-33.3","","72","","0.0","","35","","3","","","","100.80","","","","-33","","NA"
"-85.01","72.99","ARCTIC BAY CS","2400404","2018-01-06 17:00","2018","01","06","17:00","-29.0","","-32.3","","73","","0.0","","18","","2","","","","100.77","","","","-31","","NA"
"-85.01","72.99","ARCTIC BAY CS","2400404","2018-01-06 18:00","2018","01","06","18:00","-28.8","","-32.2","","72","","0.0","","13","","4","","","","100.70","","","","-33","","NA"
"-85.01","72.99","ARCTIC BAY CS","2400404","2018-01-06 19:00","2018","01","06","19:00","-29.1","","-32.3","","74","","0.0","","12","","1","","","","100.62","","","","-30","","NA"
"-85.01","72.99","ARCTIC BAY CS","2400404","2018-01-06 20:00","2018","01","06","20:00","-28.8","","-32.4","","71","","0.0","","11","","1","","","","100.55","","","","-30","","NA"
"-85.01","72.99","ARCTIC BAY CS","2400404","2018-01-06 21:00","2018","01","06","21:00","-29.0","","-32.6","","71","","0.0","","35","","5","","","","100.47","","","","-34","","NA"
"-85.01","72.99","ARCTIC BAY CS","2400404","2018-01-06 22:00","2018","01","06","22:00","-28.1","","-31.6","","72","","0.0","","16","","2","","","","100.41","","","","-30","","NA"
"-85.01","72.99","ARCTIC BAY CS","2400404","2018-01-06 23:00","2018","01","06","23:00","-27.0","","-30.8","","70","","0.0","","14","","3","","","","100.36","","","","-30","","NA"
"-85.01","72.99","ARCTIC BAY CS","2400404","2018-01-07 00:00","2018","01","07","00:00","-27.3","","-31.0","","70","","0.0","","14","","8","","","","100.29","","","","-35","","NA"
"-85.01","72.99","ARCTIC BAY CS","2400404","2018-01-07 01:00","2018","01","07","01:00","-28.5","","-31.7","","74","","0.0","","34","","4","","","","100.26","","","","-33","","NA"
"-85.01","72.99","ARCTIC BAY CS","2400404","2018-01-07 02:00","2018","01","07","02:00","-29.7","","-33.7","","68","","0.0","","16","","2","","","","100.21","","","","-32","","NA"
"-85.01","72.99","ARCTIC BAY CS","2400404","2018-01-07 03:00","2018","01","07","03:00","-30.3","","-34.0","","70","","0.0","","","","0","","","","100.18","","","","","","NA"
"-85.01","72.99","ARCTIC BAY CS","2400404","2018-01-07 04:00","2018","01","07","04:00","-30.1","","-33.3","","74","","0.0","","13","","1","","","","100.14","","","","-31","","NA"
"-85.01","72.99","ARCTIC BAY CS","2400404","2018-01-07 05:00","2018","01","07","05:00","-28.3","","-31.4","","75","","0.0","","20","","2","","","","100.13","","","","-30","","NA"
"-85.01","72.99","ARCTIC BAY CS","2400404","2018-01-07 06:00","2018","01","07","06:00","-26.5","","-29.8","","74","","0.0","","12","","7","","","","100.11","","","","-33","","NA"
"-85.01","72.99","ARCTIC BAY CS","2400404","2018-01-07 07:00","2018","01","07","07:00","-29.9","","-33.3","","72","","0.0","","29","","3","","","","100.08","","","","-33","","NA"
"-85.01","72.99","ARCTIC BAY CS","2400404","2018-01-07 08:00","2018","01","07","08:00","-29.6","","-33.0","","72","","0.0","","24","","2","","","","100.04","","","","-32","","NA"
"-85.01","72.99","ARCTIC BAY CS","2400404","2018-01-07 09:00","2018","01","07","09:00","-31.2","","-36.4","","60","","0.0","","14","","3","","","","100.01","","","","-35","","NA"
"-85.01","72.99","ARCTIC BAY CS","2400404","2018-01-07 10:00","2018","01","07","10:00","-30.2","","-33.6","","72","","0.0","","29","","2","","","","99.99","","","","-32","","NA"
"-85.01","72.99","ARCTIC BAY CS","2400404","2018-01-07 11:00","2018","01","07","11:00","-28.7","","-31.9","","74","","0.0","","13","","7","","","","99.99","","","","-36","","NA"
"-85.01","72.99","ARCTIC BAY CS","2400404","2018-01-07 12:00","2018","01","07","12:00","-28.8","","-31.9","","74","","0.0","","0","","1","","","","99.95","","","","-30","","NA"
"-85.01","72.99","ARCTIC BAY CS","2400404","2018-01-07 13:00","2018","01","07","13:00","-30.7","","-33.8","","74","","0.0","","35","","5","","","","99.95","","","","-36","","NA"
"-85.01","72.99","ARCTIC BAY CS","2400404","2018-01-07 14:00","2018","01","07","14:00","-30.4","","-33.8","","72","","0.0","","14","","3","","","","99.96","","","","-34","","NA"
"-85.01","72.99","ARCTIC BAY CS","2400404","2018-01-07 15:00","2018","01","07","15:00","-30.5","","-33.9","","72","","0.0","","","","0","","","","99.97","","","","","","NA"
"-85.01","72.99","ARCTIC BAY CS","2400404","2018-01-07 16:00","2018","01","07","16:00","-29.4","","-32.7","","73","","0.0","","34","","2","","","","99.99","","","","-32","","NA"
"-85.01","72.99","ARCTIC BAY CS","2400404","2018-01-07 17:00","2018","01","07","17:00","-29.1","","-32.3","","74","","0.0","","","","0","","","","99.99","","","","","","NA"
"-85.01","72.99","ARCTIC BAY CS","2400404","2018-01-07 18:00","2018","01","07","18:00","-28.3","","-31.5","","74","","0.0","","15","","3","","","","99.96","","","","-32","","NA"
"-85.01","72.99","ARCTIC BAY CS","2400404","2018-01-07 19:00","2018","01","07","19:00","-28.8","","-32.0","","74","","0.0","","0","","1","","","","99.96","","","","-30","","NA"
"-85.01","72.99","ARCTIC BAY CS","2400404","2018-01-07 20:00","2018","01","07","20:00","-29.1","","-32.5","","72","","0.0","","13","","4","","","","99.94","","","","-34","","NA"
"-85.01","72.99","ARCTIC BAY CS","2400404","2018-01-07 21:00","2018","01","07","21:00","-29.0","","-32.0","","75","","0.0","","31","","1","","","","99.93","","","","-30","","NA"
"-85.01","72.99","ARCTIC BAY CS","2400404","2018-01-07 22:00","2018","01","07","22:00","-30.6","","-33.2","","77","","0.0","","","","0","","","","99.93","","","","","","NA"
"-85.01","72.99","ARCTIC BAY CS","2400404","2018-01-07 23:00","2018","01","07","23:00","-29.0","","-31.8","","76","","0.0","","35","","3","","","","99.91","","","","-32","","NA"
"-85.01","72.99","ARCTIC BAY CS","2400404","2018-01-08 00:00","2018","01","08","00:00","-32.4","","-35.9","","71","","0.0","","13","","2","","","","99.92","","","","-35","","NA"
"-85.01","72.99","ARCTIC BAY CS","2400404","2018-01-08 01:00","2018","01","08","01:00","-31.2","","-34.5","","73","","0.0","","12","","2","","","","99.95","","","","-34","","NA"
"-85.01","72.99","ARCTIC BAY CS","2400404","2018-01-08 02:00","2018","01","08","02:00","-28.5","","-31.5","","75","","0.0","","13","","8","","","","99.94","","","","-36","","NA"
"-85.01","72.99","ARCTIC BAY CS","2400404","2018-01-08 03:00","2018","01","08","03:00","-30.7","","-34.1","","72","","0.0","","12","","1","","","","99.96","","","","-32","","NA"
"-85.01","72.99","ARCTIC BAY CS","2400404","2018-01-08 04:00","2018","01","08","04:00","-30.6","","-34.1","","71","","0.0","","34","","4","","","","99.96","","","","-35","","NA"
"-85.01","72.99","ARCTIC BAY CS","2400404","2018-01-08 05:00","2018","01","08","05:00","-32.9","","-36.6","","70","","0.0","","17","","1","","","","99.96","","","","-34","","NA"
"-85.01","72.99","ARCTIC BAY CS","2400404","2018-01-08 06:00","2018","01","08","06:00","-29.7","","-32.9","","74","","0.0","","15","","2","","","","99.96","","","","-32","","NA"
"-85.01","72.99","ARCTIC BAY CS","2400404","2018-01-08 07:00","2018","01","08","07:00","-32.1","","-35.4","","73","","0.0","","13","","3","","","","99.95","","","","-36","","NA"
"-85.01","72.99","ARCTIC BAY CS","2400404","2018-01-08 08:00","2018","01","08","08:00","-32.3","","-35.8","","71","","0.0","","35","","5","","","","99.94","","","","-38","","NA"
"-85.01","72.99","ARCTIC BAY CS","2400404","2018-01-08 09:00","2018","01","08","09:00","-34.4","","-38.3","","68","","0.0","","0","","1","","","","99.95","","","","-36","","NA"
"-85.01","72.99","ARCTIC BAY CS","2400404","2018-01-08 10:00","2018","01","08","10:00","-33.0","","-36.6","","70","","0.0","","29","","2","","","","99.97","","","","-35","","NA"
"-85.01","72.99","ARCTIC BAY CS","2400404","2018-01-08 11:00","2018","01","08","11:00","-31.8","","-35.2","","72","","0.0","","","","0","","","","100.01","","","","","","NA"
"-85.01","72.99","ARCTIC BAY CS","2400404","2018-01-08 12:00","2018","01","08","12:00","-30.9","","-34.1","","73","","0.0","","1","","4","","","","100.00","","","","-35","","NA"
"-85.01","72.99","ARCTIC BAY CS","2400404","2018-01-08 13:00","2018","01","08","13:00","-31.7","","-35.0","","72","","0.0","","","","0","","","","100.03","","","","","","NA"
"-85.01","72.99","ARCTIC BAY CS","2400404","2018-01-08 14:00","2018","01","08","14:00","-32.9","","-36.3","","71","","0.0","","","","0","","","","100.05","","","","","","NA"
"-85.01","72.99","ARCTIC BAY CS","2400404","2018-01-08 15:00","2018","01","08","15:00","-31.5","","-34.9","","72","","0.0","","34","","3","","","","100.08","","","","-35","","NA"
"-85.01","72.99","ARCTIC BAY CS","2400404","2018-01-08 16:00","2018","01","08","16:00","-33.1","","-36.6","","70","","0.0","","14","","2","","","","100.13","","","","-36","","NA"
"-85.01","72.99","ARCTIC BAY CS","2400404","2018-01-08 17:00","2018","01","08","17:00","-31.6","","-35.0","","72","","0.0","","35","","3","","","","100.16","","","","-35","","NA"
"-85.01","72.99","ARCTIC BAY CS","2400404","2018-01-08 18:00","2018","01","08","18:00","-30.4","","-33.5","","74","","0.0","","14","","1","","","","100.18","","","","-32","","NA"
"-85.01","72.99","ARCTIC BAY CS","2400404","2018-01-08 19:00","2018","01","08","19:00","-30.5","","-33.4","","76","","0.0","","13","","5","","","","100.21","","","","-36","","NA"
"-85.01","72.99","ARCTIC BAY CS","2400404","2018-01-08 20:00","2018","01","08","20:00","-30.7","","-33.9","","73","","0.0","","","","0","","","","100.23","","","","","","NA"
"-85.01","72.99","ARCTIC BAY CS","2400404","2018-01-08 21:00","2018","01","08","21:00","-32.2","","-35.9","","70","","0.0","","13","","2","","","","100.27","","","","-35","","NA"
"-85.01","72.99","ARCTIC BAY CS","2400404","2018-01-08 22:00","2018","01","08","22:00","-29.6","","-32.7","","74","","0.0","","11","","7","","","","100.31","","","","-37","","NA"
"-85.01","72.99","ARCTIC BAY CS","2400404","2018-01-08 23:00","2018","01","08","23:00","-29.2","","-32.4","","74","","0.0","","18","","2","","","","100.31","","","","-31","","NA"
"-85.01","72.99","ARCTIC BAY CS","2400404","2018-01-09 00:00","2018","01","09","00:00","-27.6","","-30.6","","75","","0.0","","35","","3","","","","100.35","","","","-31","","NA"
"-85.01","72.99","ARCTIC BAY CS","2400404","2018-01-09 01:00","2018","01","09","01:00","-28.5","","-31.6","","75","","0.0","","29","","1","","","","100.36","","","","-30","","NA"
"-85.01","72.99","ARCTIC BAY CS","2400404","2018-01-09 02:00","2018","01","09","02:00","-29.1","","-32.2","","75","","0.0","","33","","5","","","","100.42","","","","-35","","NA"
"-85.01","72.99","ARCTIC BAY CS","2400404","2018-01-09 03:00","2018","01","09","03:00","-29.0","","-32.1","","74","","0.0","","34","","3","","","","100.47","","","","-32","","NA"
"-85.01","72.99","ARCTIC BAY CS","2400404","2018-01-09 04:00","2018","01","09","04:00","-28.2","","-31.2","","75","","0.0","","1","","2","","","","100.51","","","","-30","","NA"
"-85.01","72.99","ARCTIC BAY CS","2400404","2018-01-09 05:00","2018","01","09","05:00","-28.1","","-31.1","","75","","0.0","","","","0","","","","100.56","","","","","","NA"
"-85.01","72.99","ARCTIC BAY CS","2400404","2018-01-09 06:00","2018","01","09","06:00","-27.3","","-30.3","","75","","0.0","","35","","3","","","","100.57","","","","-30","","NA"
"-85.01","72.99","ARCTIC BAY CS","2400404","2018-01-09 07:00","2018","01","09","07:00","-27.2","","-30.1","","76","","0.2","","32","","2","","","","100.58","","","","-29","","NA"
"-85.01","72.99","ARCTIC BAY CS","2400404","2018-01-09 08:00","2018","01","09","08:00","-27.3","","-30.2","","76","","0.0","","8","","2","","","","100.59","","","","-29","","NA"
"-85.01","72.99","ARCTIC BAY CS","2400404","2018-01-09 09:00","2018","01","09","09:00","-28.8","","-31.8","","75","","0.0","","0","","1","","","","100.62","","","","-30","","NA"
"-85.01","72.99","ARCTIC BAY CS","2400404","2018-01-09 10:00","2018","01","09","10:00","-28.8","","-31.9","","75","","0.0","","0","","1","","","","100.66","","","","-30","","NA"
"-85.01","72.99","ARCTIC BAY CS","2400404","2018-01-09 11:00","2018","01","09","11:00","-28.8","","-31.9","","74","","0.0","","1","","3","","","","100.67","","","","-32","","NA"
"-85.01","72.99","ARCTIC BAY CS","2400404","2018-01-09 12:00","2018","01","09","12:00","-28.2","","-31.1","","76","","0.0","","0","","1","","","","100.68","","","","-29","","NA"
"-85.01","72.99","ARCTIC BAY CS","2400404","2018-01-09 13:00","2018","01","09","13:00","-27.0","","-29.9","","77","","0.0","","7","","7","","","","100.71","","","","-34","","NA"
"-85.01","72.99","ARCTIC BAY CS","2400404","2018-01-09 14:00","2018","01","09","14:00","-26.7","","-29.5","","77","","0.0","","6","","6","","","","100.72","","","","-33","","NA"
"-85.01","72.99","ARCTIC BAY CS","2400404","2018-01-09 15:00","2018","01","09","15:00","-26.1","","-29.1","","76","","0.0","","11","","4","","","","100.75","","","","-30","","NA"
"-85.01","72.99","ARCTIC BAY CS","2400404","2018-01-09 16:00","2018","01","09","16:00","-27.8","","-30.8","","75","","0.0","","0","","1","","","","100.75","","","","-29","","NA"
"-85.01","72.99","ARCTIC BAY CS","2400404","2018-01-09 17:00","2018","01","09","17:00","-28.5","","-31.8","","74","","0.0","","","","0","","","","100.75","","","","","","NA"
"-85.01","72.99","ARCTIC BAY CS","2400404","2018-01-09 18:00","2018","01","09","18:00","-29.5","","-32.6","","75","","0.0","","0","","1","","","","100.74","","","","-31","","NA"
"-85.01","72.99","ARCTIC BAY CS","2400404","2018-01-09 19:00","2018","01","09","19:00","-31.3","","-34.9","","71","","0.0","","10","","2","","","","100.70","","","","-34","","NA"
"-85.01","72.99","ARCTIC BAY CS","2400404","2018-01-09 20:00","2018","01","09","20:00","-29.5","","-32.7","","74","","0.0","","0","","1","","","","100.69","","","","-31","","NA"
"-85.01","72.99","ARCTIC BAY CS","2400404","2018-01-09 21:00","2018","01","09","21:00","-29.5","","-32.8","","74","","0.0","","14","","2","","","","100.68","","","","-32","","NA"
"-85.01","72.99","ARCTIC BAY CS","2400404","2018-01-09 22:00","2018","01","09","22:00","-31.3","","-34.6","","73","","0.0","","","","0","","","","100.65","","","","","","NA"
"-85.01","72.99","ARCTIC BAY CS","2400404","2018-01-09 23:00","2018","01","09","23:00","-30.1","","-33.2","","74","","0.0","","0","","1","","","","100.61","","","","-31","","NA"
"-85.01","72.99","ARCTIC BAY CS","2400404","2018-01-10 00:00","2018","01","10","00:00","-30.3","","-33.7","","73","","0.0","","33","","2","","","","100.57","","","","-33","","NA"
"-85.01","72.99","ARCTIC BAY CS","2400404","2018-01-10 01:00","2018","01","10","01:00","-28.0","","-31.1","","75","","0.0","","16","","3","","","","100.54","","","","-31","","NA"
"-85.01","72.99","ARCTIC BAY CS","2400404","2018-01-10 02:00","2018","01","10","02:00","-30.2","","-33.4","","73","","0.0","","28","","1","","","","100.51","","","","-31","","NA"
"-85.01","72.99","ARCTIC BAY CS","2400404","2018-01-10 03:00","2018","01","10","03:00","-28.9","","-32.2","","74","","0.0","","13","","5","","","","100.49","","","","-34","","NA"
"-85.01","72.99","ARCTIC BAY CS","2400404","2018-01-10 04:00","2018","01","10","04:00","-29.7","","-33.0","","73","","0.0","","0","","1","","","","100.48","","","","-31","","NA"
"-85.01","72.99","ARCTIC BAY CS","2400404","2018-01-10 05:00","2018","01","10","05:00","-29.1","","-32.7","","71","","0.0","","14","","3","","","","100.45","","","","-32","","NA"
"-85.01","72.99","ARCTIC BAY CS","2400404","2018-01-10 06:00","2018","01","10","06:00","-28.4","","-31.7","","74","","0.0","","14","","4","","","","100.43","","","","-33","","NA"
"-85.01","72.99","ARCTIC BAY CS","2400404","2018-01-10 07:00","2018","01","10","07:00","-28.7","","-32.0","","73","","0.0","","34","","3","","","","100.40","","","","-32","","NA"
"-85.01","72.99","ARCTIC BAY CS","2400404","2018-01-10 08:00","2018","01","10","08:00","-27.5","","-31.0","","73","","0.0","","20","","2","","","","100.40","","","","-30","","NA"
"-85.01","72.99","ARCTIC BAY CS","2400404","2018-01-10 09:00","2018","01","10","09:00","-27.2","","-31.2","","69","","0.0","","16","","2","","","","100.38","","","","-29","","NA"
"-85.01","72.99","ARCTIC BAY CS","2400404","2018-01-10 10:00","2018","01","10","10:00","-25.8","","-29.5","","71","","0.0","","12","","8","","","","100.37","","","","-33","","NA"
"-85.01","72.99","ARCTIC BAY CS","2400404","2018-01-10 11:00","2018","01","10","11:00","-26.0","","-29.5","","72","","0.0","","13","","3","","","","100.35","","","","-29","","NA"
"-85.01","72.99","ARCTIC BAY CS","2400404","2018-01-10 12:00","2018","01","10","12:00","-26.2","","-30.3","","68","","0.0","","12","","5","","","","100.34","","","","-31","","NA"
"-85.01","72.99","ARCTIC BAY CS","2400404","2018-01-10 13:00","2018","01","10","13:00","-25.4","","-29.1","","71","","0.0","","13","","7","","","","100.32","","","","-32","","NA"
"-85.01","72.99","ARCTIC BAY CS","2400404","2018-01-10 14:00","2018","01","10","14:00","-25.7","","-28.9","","74","","0.0","","13","","9","","","","100.31","","","","-33","","NA"
"-85.01","72.99","ARCTIC BAY CS","2400404","2018-01-10 15:00","2018","01","10","15:00","-27.8","","-31.9","","68","","0.0","","15","","4","","","","100.31","","","","-32","","NA"
"-85.01","72.99","ARCTIC BAY CS","2400404","2018-01-10 16:00","2018","01","10","16:00","-27.3","","-31.3","","69","","0.0","","15","","5","","","","100.32","","","","-33","","NA"
"-85.01","72.99","ARCTIC BAY CS","2400404","2018-01-10 17:00","2018","01","10","17:00","-26.2","","-29.3","","76","","0.0","","16","","2","","","","100.31","","","","-28","","NA"
"-85.01","72.99","ARCTIC BAY CS","2400404","2018-01-10 18:00","2018","01","10","18:00","-23.8","","-27.4","","73","","0.0","","13","","5","","","","100.27","","","","-29","","NA"
"-85.01","72.99","ARCTIC BAY CS","2400404","2018-01-10 19:00","2018","01","10","19:00","-24.9","","-28.1","","74","","0.0","","16","","4","","","","100.24","","","","-29","","NA"
"-85.01","72.99","ARCTIC BAY CS","2400404","2018-01-10 20:00","2018","01","10","20:00","-26.6","","-30.0","","73","","0.0","","13","","4","","","","100.21","","","","-31","","NA"
"-85.01","72.99","ARCTIC BAY CS","2400404","2018-01-10 21:00","2018","01","10","21:00","-27.2","","-30.8","","71","","0.0","","","","0","","","","100.18","","","","","","NA"
"-85.01","72.99","ARCTIC BAY CS","2400404","2018-01-10 22:00","2018","01","10","22:00","-30.2","","-33.9","","70","","0.0","","18","","2","","","","100.14","","","","-32","","NA"
"-85.01","72.99","ARCTIC BAY CS","2400404","2018-01-10 23:00","2018","01","10","23:00","-28.5","","-31.4","","76","","0.0","","0","","1","","","","100.08","","","","-30","","NA"
"-85.01","72.99","ARCTIC BAY CS","2400404","2018-01-11 00:00","2018","01","11","00:00","-27.3","","-30.1","","77","","0.0","","0","","1","","","","100.05","","","","-28","","NA"
"-85.01","72.99","ARCTIC BAY CS","2400404","2018-01-11 01:00","2018","01","11","01:00","-27.3","","-30.4","","75","","0.0","","14","","4","","","","100.02","","","","-32","","NA"
"-85.01","72.99","ARCTIC BAY CS","2400404","2018-01-11 02:00","2018","01","11","02:00","-27.1","","-30.3","","74","","0.0","","14","","2","","","","99.97","","","","-29","","NA"
"-85.01","72.99","ARCTIC BAY CS","2400404","2018-01-11 03:00","2018","01","11","03:00","-25.7","","-29.0","","74","","0.0","","13","","3","","","","99.92","","","","-29","","NA"
"-85.01","72.99","ARCTIC BAY CS","2400404","2018-01-11 04:00","2018","01","11","04:00","-24.8","","-27.9","","76","","0.0","","15","","3","","","","99.85","","","","-28","","NA"
"-85.01","72.99","ARCTIC BAY CS","2400404","2018-01-11 05:00","2018","01","11","05:00","-24.4","","-27.4","","76","","0.0","","13","","9","","","","99.80","","","","-32","","NA"
"-85.01","72.99","ARCTIC BAY CS","2400404","2018-01-11 06:00","2018","01","11","06:00","-24.3","","-27.6","","74","","0.0","","13","","5","","","","99.69","","","","-29","","NA"
"-85.01","72.99","ARCTIC BAY CS","2400404","2018-01-11 07:00","2018","01","11","07:00","-24.4","","-27.6","","75","","0.0","","17","","3","","","","99.62","","","","-27","","NA"
"-85.01","72.99","ARCTIC BAY CS","2400404","2018-01-11 08:00","2018","01","11","08:00","-24.9","","-28.1","","75","","0.0","","17","","6","","","","99.52","","","","-31","","NA"
"-85.01","72.99","ARCTIC BAY CS","2400404","2018-01-11 09:00","2018","01","11","09:00","-23.9","","-27.4","","73","","0.0","","14","","5","","","","99.45","","","","-29","","NA"
"-85.01","72.99","ARCTIC BAY CS","2400404","2018-01-11 10:00","2018","01","11","10:00","-25.3","","-28.5","","75","","0.0","","19","","2","","","","99.42","","","","-27","","NA"
"-85.01","72.99","ARCTIC BAY CS","2400404","2018-01-11 11:00","2018","01","11","11:00","-27.5","","-31.5","","69","","0.0","","16","","5","","","","99.35","","","","-33","","NA"
"-85.01","72.99","ARCTIC BAY CS","2400404","2018-01-11 12:00","2018","01","11","12:00","-25.9","","-28.8","","77","","0.0","","2","","3","","","","99.30","","","","-29","","NA"
"-85.01","72.99","ARCTIC BAY CS","2400404","2018-01-11 13:00","2018","01","11","13:00","-27.2","","-30.2","","75","","0.0","","32","","2","","","","99.24","","","","-29","","NA"
"-85.01","72.99","ARCTIC BAY CS","2400404","2018-01-11 14:00","2018","01","11","14:00","-28.5","","-31.4","","76","","0.0","","17","","2","","","","99.22","","","","-31","","NA"
"-85.01","72.99","ARCTIC BAY CS","2400404","2018-01-11 15:00","2018","01","11","15:00","-28.8","","-32.7","","69","","0.0","","9","","2","","","","99.16","","","","-31","","NA"
"-85.01","72.99","ARCTIC BAY CS","2400404","2018-01-11 16:00","2018","01","11","16:00","-26.1","","-30.2","","68","","0.0","","1","","5","","","","99.12","","","","-31","","NA"
"-85.01","72.99","ARCTIC BAY CS","2400404","2018-01-11 17:00","2018","01","11","17:00","-25.4","","-30.2","","64","","0.0","","6","","6","","","","99.11","","","","-31","","NA"
"-85.01","72.99","ARCTIC BAY CS","2400404","2018-01-11 18:00","2018","01","11","18:00","-26.1","","-31.0","","63","","0.0","","7","","14","","","","99.06","","","","-36","","NA"
"-85.01","72.99","ARCTIC BAY CS","2400404","2018-01-11 19:00","2018","01","11","19:00","-30.3","","-33.7","","72","","0.0","","21","","2","","","","99.07","","","","-33","","NA"
"-85.01","72.99","ARCTIC BAY CS","2400404","2018-01-11 20:00","2018","01","11","20:00","-26.0","","-30.9","","64","","0.0","","7","","17","","","","99.01","","","","-37","","NA"
"-85.01","72.99","ARCTIC BAY CS","2400404","2018-01-11 21:00","2018","01","11","21:00","-27.9","","-31.5","","71","","0.0","","16","","4","","","","99.02","","","","-32","","NA"
"-85.01","72.99","ARCTIC BAY CS","2400404","2018-01-11 22:00","2018","01","11","22:00","-27.8","","-31.3","","72","","0.0","","","","0","","","","98.97","","","","","","NA"
"-85.01","72.99","ARCTIC BAY CS","2400404","2018-01-11 23:00","2018","01","11","23:00","-27.8","","-31.3","","72","","0.0","","36","","4","","","","98.96","","","","-32","","NA"
"-85.01","72.99","ARCTIC BAY CS","2400404","2018-01-12 00:00","2018","01","12","00:00","-28.3","","-31.9","","71","","0.0","","","","0","","","","98.97","","","","","","NA"
"-85.01","72.99","ARCTIC BAY CS","2400404","2018-01-12 01:00","2018","01","12","01:00","-28.1","","-31.9","","70","","0.0","","8","","3","","","","99.00","","","","-31","","NA"
"-85.01","72.99","ARCTIC BAY CS","2400404","2018-01-12 02:00","2018","01","12","02:00","-28.6","","-32.3","","70","","0.0","","0","","1","","","","99.01","","","","-30","","NA"
"-85.01","72.99","ARCTIC BAY CS","2400404","2018-01-12 03:00","2018","01","12","03:00","-30.0","","-34.3","","66","","0.0","","36","","3","","","","99.05","","","","-33","","NA"
"-85.01","72.99","ARCTIC BAY CS","2400404","2018-01-12 04:00","2018","01","12","04:00","-30.6","","-34.3","","70","","0.0","","36","","9","","","","99.04","","","","-39","","NA"
"-85.01","72.99","ARCTIC BAY CS","2400404","2018-01-12 05:00","2018","01","12","05:00","-29.4","","-33.2","","69","","0.0","","2","","6","","","","99.07","","","","-36","","NA"
"-85.01","72.99","ARCTIC BAY CS","2400404","2018-01-12 06:00","2018","01","12","06:00","-30.1","","-34.7","","64","","0.0","","6","","6","","","","99.13","","","","-37","","NA"
"-85.01","72.99","ARCTIC BAY CS","2400404","2018-01-12 07:00","2018","01","12","07:00","-30.8","","-34.7","","68","","0.0","","13","","8","","","","99.14","","","","-39","","NA"
"-85.01","72.99","ARCTIC BAY CS","2400404","2018-01-12 08:00","2018","01","12","08:00","-29.8","","-34.1","","67","","0.0","","12","","7","","","","99.16","","","","-37","","NA"
"-85.01","72.99","ARCTIC BAY CS","2400404","2018-01-12 09:00","2018","01","12","09:00","-28.1","","-32.8","","64","","0.0","","11","","9","","","","99.16","","","","-36","","NA"
"-85.01","72.99","ARCTIC BAY CS","2400404","2018-01-12 10:00","2018","01","12","10:00","-28.8","","-33.4","","65","","0.0","","13","","4","","","","99.20","","","","-33","","NA"
"-85.01","72.99","ARCTIC BAY CS","2400404","2018-01-12 11:00","2018","01","12","11:00","-32.8","","-37.9","","60","","0.0","","3","","5","","","","99.24","","","","-39","","NA"
"-85.01","72.99","ARCTIC BAY CS","2400404","2018-01-12 12:00","2018","01","12","12:00","-29.8","","-34.6","","63","","0.2","","8","","13","","","","99.23","","","","-40","","NA"
"-85.01","72.99","ARCTIC BAY CS","2400404","2018-01-12 13:00","2018","01","12","13:00","-31.2","","-35.0","","69","","0.0","","15","","3","","","","99.26","","","","-35","","NA"
"-85.01","72.99","ARCTIC BAY CS","2400404","2018-01-12 14:00","2018","01","12","14:00","-30.7","","-34.3","","70","","0.0","","13","","1","","","","99.29","","","","-32","","NA"
"-85.01","72.99","ARCTIC BAY CS","2400404","2018-01-12 15:00","2018","01","12","15:00","-31.4","","-35.3","","69","","0.0","","9","","4","","","","99.31","","","","-36","","NA"
"-85.01","72.99","ARCTIC BAY CS","2400404","2018-01-12 16:00","2018","01","12","16:00","-31.1","","-35.1","","68","","0.0","","7","","2","","","","99.39","","","","-33","","NA"
"-85.01","72.99","ARCTIC BAY CS","2400404","2018-01-12 17:00","2018","01","12","17:00","-30.5","","-34.4","","69","","0.0","","36","","5","","","","99.42","","","","-36","","NA"
"-85.01","72.99","ARCTIC BAY CS","2400404","2018-01-12 18:00","2018","01","12","18:00","-29.9","","-33.7","","69","","0.0","","2","","2","","","","99.46","","","","-32","","NA"
"-85.01","72.99","ARCTIC BAY CS","2400404","2018-01-12 19:00","2018","01","12","19:00","-28.8","","-32.7","","69","","0.0","","34","","4","","","","99.48","","","","-33","","NA"
"-85.01","72.99","ARCTIC BAY CS","2400404","2018-01-12 20:00","2018","01","12","20:00","-28.0","","-31.7","","71","","0.0","","0","","1","","","","99.52","","","","-29","","NA"
"-85.01","72.99","ARCTIC BAY CS","2400404","2018-01-12 21:00","2018","01","12","21:00","-27.7","","-31.4","","71","","0.0","","0","","1","","","","99.54","","","","-29","","NA"
"-85.01","72.99","ARCTIC BAY CS","2400404","2018-01-12 22:00","2018","01","12","22:00","-27.3","","-30.9","","71","","0.0","","","","0","","","","99.55","","","","","","NA"
"-85.01","72.99","ARCTIC BAY CS","2400404","2018-01-12 23:00","2018","01","12","23:00","-27.1","","-31.0","","70","","0.0","","","","0","","","","99.56","","","","","","NA"
"-85.01","72.99","ARCTIC BAY CS","2400404","2018-01-13 00:00","2018","01","13","00:00","-27.6","","-31.7","","68","","0.0","","","","0","","","","99.58","","","","","","NA"
"-85.01","72.99","ARCTIC BAY CS","2400404","2018-01-13 01:00","2018","01","13","01:00","-28.2","","-32.4","","68","","0.0","","10","","4","","","","99.59","","","","-33","","NA"
"-85.01","72.99","ARCTIC BAY CS","2400404","2018-01-13 02:00","2018","01","13","02:00","-27.4","","-31.0","","71","","0.0","","","","0","","","","99.60","","","","","","NA"
"-85.01","72.99","ARCTIC BAY CS","2400404","2018-01-13 03:00","2018","01","13","03:00","-27.7","","-31.8","","68","","0.0","","13","","5","","","","99.62","","","","-33","","NA"
"-85.01","72.99","ARCTIC BAY CS","2400404","2018-01-13 04:00","2018","01","13","04:00","-27.5","","-31.7","","67","","0.0","","9","","9","","","","99.63","","","","-36","","NA"
"-85.01","72.99","ARCTIC BAY CS","2400404","2018-01-13 05:00","2018","01","13","05:00","-27.1","","-30.9","","70","","0.0","","14","","3","","","","99.64","","","","-30","","NA"
"-85.01","72.99","ARCTIC BAY CS","2400404","2018-01-13 06:00","2018","01","13","06:00","-27.1","","-30.6","","72","","0.0","","4","","1","","","","99.67","","","","-28","","NA"
"-85.01","72.99","ARCTIC BAY CS","2400404","2018-01-13 07:00","2018","01","13","07:00","-26.5","","-30.1","","72","","0.0","","15","","4","","","","99.67","","","","-31","","NA"
"-85.01","72.99","ARCTIC BAY CS","2400404","2018-01-13 08:00","2018","01","13","08:00","-25.9","","-29.5","","71","","0.0","","13","","6","","","","99.66","","","","-32","","NA"
"-85.01","72.99","ARCTIC BAY CS","2400404","2018-01-13 09:00","2018","01","13","09:00","-26.3","","-29.9","","72","","0.0","","15","","9","","","","99.62","","","","-34","","NA"
"-85.01","72.99","ARCTIC BAY CS","2400404","2018-01-13 10:00","2018","01","13","10:00","-26.7","","-30.3","","72","","0.0","","16","","1","","","","99.64","","","","-28","","NA"
"-85.01","72.99","ARCTIC BAY CS","2400404","2018-01-13 11:00","2018","01","13","11:00","-26.4","","-30.0","","72","","0.0","","11","","1","","","","99.69","","","","-27","","NA"
"-85.01","72.99","ARCTIC BAY CS","2400404","2018-01-13 12:00","2018","01","13","12:00","-25.8","","-29.6","","70","","0.0","","0","","1","","","","99.73","","","","-27","","NA"
"-85.01","72.99","ARCTIC BAY CS","2400404","2018-01-13 13:00","2018","01","13","13:00","-25.4","","-29.4","","69","","0.0","","3","","3","","","","99.74","","","","-28","","NA"
"-85.01","72.99","ARCTIC BAY CS","2400404","2018-01-13 14:00","2018","01","13","14:00","-25.7","","-29.2","","72","","0.0","","15","","2","","","","99.81","","","","-28","","NA"
"-85.01","72.99","ARCTIC BAY CS","2400404","2018-01-13 15:00","2018","01","13","15:00","-26.1","","-29.5","","73","","0.0","","","","0","","","","99.90","","","","","","NA"
"-85.01","72.99","ARCTIC BAY CS","2400404","2018-01-13 16:00","2018","01","13","16:00","-26.7","","-30.2","","72","","0.0","","13","","4","","","","99.93","","","","-31","","NA"
"-85.01","72.99","ARCTIC BAY CS","2400404","2018-01-13 17:00","2018","01","13","17:00","-28.7","","-32.5","","69","","0.0","","12","","3","","","","100.00","","","","-32","","NA"
"-85.01","72.99","ARCTIC BAY CS","2400404","2018-01-13 18:00","2018","01","13","18:00","-27.1","","-30.5","","73","","0.0","","13","","5","","","","100.05","","","","-32","","NA"
"-85.01","72.99","ARCTIC BAY CS","2400404","2018-01-13 19:00","2018","01","13","19:00","-26.3","","-29.8","","72","","0.0","","","","0","","","","100.07","","","","","","NA"
"-85.01","72.99","ARCTIC BAY CS","2400404","2018-01-13 20:00","2018","01","13","20:00","-26.5","","-29.8","","73","","0.0","","34","","3","","","","100.09","","","","-30","","NA"
"-85.01","72.99","ARCTIC BAY CS","2400404","2018-01-13 21:00","2018","01","13","21:00","-26.0","","-29.6","","72","","0.0","","14","","2","","","","100.10","","","","-28","","NA"
"-85.01","72.99","ARCTIC BAY CS","2400404","2018-01-13 22:00","2018","01","13","22:00","-26.8","","-30.2","","72","","0.0","","10","","8","","","","100.13","","","","-34","","NA"
"-85.01","72.99","ARCTIC BAY CS","2400404","2018-01-13 23:00","2018","01","13","23:00","-28.7","","-31.8","","74","","0.0","","33","","5","","","","100.19","","","","-34","","NA"
"-85.01","72.99","ARCTIC BAY CS","2400404","2018-01-14 00:00","2018","01","14","00:00","-27.1","","-29.9","","77","","0.0","","12","","6","","","","100.19","","","","-33","","NA"
"-85.01","72.99","ARCTIC BAY CS","2400404","2018-01-14 01:00","2018","01","14","01:00","-30.2","","-33.7","","71","","0.0","","0","","1","","","","100.20","","","","-31","","NA"
"-85.01","72.99","ARCTIC BAY CS","2400404","2018-01-14 02:00","2018","01","14","02:00","-29.7","","-33.5","","69","","0.0","","12","","7","","","","100.26","","","","-37","","NA"
"-85.01","72.99","ARCTIC BAY CS","2400404","2018-01-14 03:00","2018","01","14","03:00","-25.7","","-28.7","","75","","0.0","","5","","8","","","","100.28","","","","-33","","NA"
"-85.01","72.99","ARCTIC BAY CS","2400404","2018-01-14 04:00","2018","01","14","04:00","-27.9","","-30.9","","75","","0.0","","34","","2","","","","100.36","","","","-30","","NA"
"-85.01","72.99","ARCTIC BAY CS","2400404","2018-01-14 05:00","2018","01","14","05:00","-25.7","","-30.0","","67","","0.0","","7","","16","","","","100.42","","","","-36","","NA"
"-85.01","72.99","ARCTIC BAY CS","2400404","2018-01-14 06:00","2018","01","14","06:00","-25.9","","-30.4","","66","","0.0","","7","","14","","","","100.47","","","","-36","","NA"
"-85.01","72.99","ARCTIC BAY CS","2400404","2018-01-14 07:00","2018","01","14","07:00","-27.5","","-30.8","","74","","0.0","","1","","2","","","","100.55","","","","-30","","NA"
"-85.01","72.99","ARCTIC BAY CS","2400404","2018-01-14 08:00","2018","01","14","08:00","-25.3","","-29.7","","66","","0.0","","7","","14","","","","100.56","","","","-35","","NA"
"-85.01","72.99","ARCTIC BAY CS","2400404","2018-01-14 09:00","2018","01","14","09:00","-25.1","","-29.4","","67","","0.0","","7","","15","","","","100.61","","","","-35","","NA"
"-85.01","72.99","ARCTIC BAY CS","2400404","2018-01-14 10:00","2018","01","14","10:00","-26.9","","-30.3","","73","","0.0","","2","","4","","","","100.66","","","","-31","","NA"
"-85.01","72.99","ARCTIC BAY CS","2400404","2018-01-14 11:00","2018","01","14","11:00","-24.4","","-28.6","","68","","0.0","","5","","5","","","","100.74","","","","-29","","NA"
"-85.01","72.99","ARCTIC BAY CS","2400404","2018-01-14 12:00","2018","01","14","12:00","-25.3","","-28.8","","72","","0.0","","31","","3","","","","100.81","","","","-28","","NA"
"-85.01","72.99","ARCTIC BAY CS","2400404","2018-01-14 13:00","2018","01","14","13:00","-24.5","","-27.9","","73","","0.0","","14","","4","","","","100.86","","","","-28","","NA"
"-85.01","72.99","ARCTIC BAY CS","2400404","2018-01-14 14:00","2018","01","14","14:00","-23.8","","-27.3","","73","","0.0","","1","","2","","","","100.90","","","","-26","","NA"
"-85.01","72.99","ARCTIC BAY CS","2400404","2018-01-14 15:00","2018","01","14","15:00","-25.0","","-28.5","","72","","0.0","","32","","1","","","","100.95","","","","-26","","NA"
"-85.01","72.99","ARCTIC BAY CS","2400404","2018-01-14 16:00","2018","01","14","16:00","-25.6","","-29.4","","70","","0.0","","36","","4","","","","101.07","","","","-30","","NA"
"-85.01","72.99","ARCTIC BAY CS","2400404","2018-01-14 17:00","2018","01","14","17:00","-23.9","","-27.6","","71","","0.0","","11","","1","","","","101.15","","","","-25","","NA"
"-85.01","72.99","ARCTIC BAY CS","2400404","2018-01-14 18:00","2018","01","14","18:00","-24.0","","-27.5","","73","","0.0","","5","","4","","","","101.22","","","","-28","","NA"
"-85.01","72.99","ARCTIC BAY CS","2400404","2018-01-14 19:00","2018","01","14","19:00","-29.4","","-33.9","","65","","0.0","","3","","4","","","","101.22","","","","-34","","NA"
"-85.01","72.99","ARCTIC BAY CS","2400404","2018-01-14 20:00","2018","01","14","20:00","-26.2","","-29.1","","76","","0.0","","35","","2","","","","101.23","","","","-28","","NA"
"-85.01","72.99","ARCTIC BAY CS","2400404","2018-01-14 21:00","2018","01","14","21:00","-26.6","","-29.6","","76","","0.0","","36","","4","","","","101.27","","","","-31","","NA"
"-85.01","72.99","ARCTIC BAY CS","2400404","2018-01-14 22:00","2018","01","14","22:00","-26.5","","-28.9","","80","","0.0","","10","","4","","","","101.32","","","","-31","","NA"
"-85.01","72.99","ARCTIC BAY CS","2400404","2018-01-14 23:00","2018","01","14","23:00","-25.1","","-29.0","","70","","0.0","","6","","9","","","","101.35","","","","-33","","NA"
"-85.01","72.99","ARCTIC BAY CS","2400404","2018-01-15 00:00","2018","01","15","00:00","-27.4","","-31.5","","68","","0.0","","5","","9","","","","101.36","","","","-36","","NA"
"-85.01","72.99","ARCTIC BAY CS","2400404","2018-01-15 01:00","2018","01","15","01:00","-26.5","","-30.2","","71","","0.0","","3","","5","","","","101.38","","","","-32","","NA"
"-85.01","72.99","ARCTIC BAY CS","2400404","2018-01-15 02:00","2018","01","15","02:00","-26.7","","-30.0","","74","","0.0","","12","","7","","","","101.43","","","","-33","","NA"
"-85.01","72.99","ARCTIC BAY CS","2400404","2018-01-15 03:00","2018","01","15","03:00","-28.6","","-31.6","","75","","0.0","","36","","4","","","","101.48","","","","-33","","NA"
"-85.01","72.99","ARCTIC BAY CS","2400404","2018-01-15 04:00","2018","01","15","04:00","-27.8","","-31.0","","74","","0.0","","14","","5","","","","101.47","","","","-33","","NA"
"-85.01","72.99","ARCTIC BAY CS","2400404","2018-01-15 05:00","2018","01","15","05:00","-27.9","","-31.9","","69","","0.0","","6","","5","","","","101.42","","","","-33","","NA"
"-85.01","72.99","ARCTIC BAY CS","2400404","2018-01-15 06:00","2018","01","15","06:00","-26.5","","-29.8","","74","","0.0","","12","","6","","","","101.45","","","","-32","","NA"
"-85.01","72.99","ARCTIC BAY CS","2400404","2018-01-15 07:00","2018","01","15","07:00","-30.8","","-34.3","","72","","0.0","","35","","6","","","","101.48","","","","-37","","NA"
"-85.01","72.99","ARCTIC BAY CS","2400404","2018-01-15 08:00","2018","01","15","08:00","-27.1","","-30.2","","75","","0.0","","2","","3","","","","101.45","","","","-30","","NA"
"-85.01","72.99","ARCTIC BAY CS","2400404","2018-01-15 09:00","2018","01","15","09:00","-26.1","","-30.6","","66","","0.0","","8","","15","","","","101.43","","","","-37","","NA"
"-85.01","72.99","ARCTIC BAY CS","2400404","2018-01-15 10:00","2018","01","15","10:00","-28.4","","-32.5","","68","","0.0","","5","","7","","","","101.40","","","","-35","","NA"
"-85.01","72.99","ARCTIC BAY CS","2400404","2018-01-15 11:00","2018","01","15","11:00","-28.4","","-31.3","","76","","0.0","","14","","6","","","","101.34","","","","-35","","NA"
"-85.01","72.99","ARCTIC BAY CS","2400404","2018-01-15 12:00","2018","01","15","12:00","-31.3","","-34.7","","72","","0.0","","4","","6","","","","101.32","","","","-38","","NA"
"-85.01","72.99","ARCTIC BAY CS","2400404","2018-01-15 13:00","2018","01","15","13:00","-30.3","","-33.7","","72","","0.0","","0","","1","","","","101.32","","","","-31","","NA"
"-85.01","72.99","ARCTIC BAY CS","2400404","2018-01-15 14:00","2018","01","15","14:00","-30.6","","-33.9","","73","","0.0","","30","","3","","","","101.31","","","","-34","","NA"
"-85.01","72.99","ARCTIC BAY CS","2400404","2018-01-15 15:00","2018","01","15","15:00","-30.8","","-34.1","","73","","0.0","","3","","2","","","","101.32","","","","-33","","NA"
"-85.01","72.99","ARCTIC BAY CS","2400404","2018-01-15 16:00","2018","01","15","16:00","-31.5","","-35.5","","68","","0.0","","16","","3","","","","101.33","","","","-35","","NA"
"-85.01","72.99","ARCTIC BAY CS","2400404","2018-01-15 17:00","2018","01","15","17:00","-31.5","","-35.4","","69","","0.0","","4","","6","","","","101.38","","","","-38","","NA"
"-85.01","72.99","ARCTIC BAY CS","2400404","2018-01-15 18:00","2018","01","15","18:00","-28.0","","-31.1","","75","","0.0","","12","","8","","","","101.35","","","","-36","","NA"
"-85.01","72.99","ARCTIC BAY CS","2400404","2018-01-15 19:00","2018","01","15","19:00","-31.0","","-34.7","","70","","0.0","","4","","6","","","","101.34","","","","-38","","NA"
"-85.01","72.99","ARCTIC BAY CS","2400404","2018-01-15 20:00","2018","01","15","20:00","-30.1","","-33.3","","73","","0.0","","2","","2","","","","101.33","","","","-32","","NA"
"-85.01","72.99","ARCTIC BAY CS","2400404","2018-01-15 21:00","2018","01","15","21:00","-32.5","","-36.2","","70","","0.0","","33","","4","","","","101.30","","","","-37","","NA"
"-85.01","72.99","ARCTIC BAY CS","2400404","2018-01-15 22:00","2018","01","15","22:00","-31.5","","-34.9","","72","","0.0","","35","","4","","","","101.32","","","","-36","","NA"
"-85.01","72.99","ARCTIC BAY CS","2400404","2018-01-15 23:00","2018","01","15","23:00","-31.8","","-35.1","","72","","0.0","","12","","2","","","","101.29","","","","-34","","NA"
"-85.01","72.99","ARCTIC BAY CS","2400404","2018-01-16 00:00","2018","01","16","00:00","-32.1","","-35.5","","71","","0.0","","6","","2","","","","101.29","","","","-34","","NA"
"-85.01","72.99","ARCTIC BAY CS","2400404","2018-01-16 01:00","2018","01","16","01:00","-33.1","","-36.7","","71","","0.0","","19","","1","","","","101.28","","","","-34","","NA"
"-85.01","72.99","ARCTIC BAY CS","2400404","2018-01-16 02:00","2018","01","16","02:00","-32.7","","-36.1","","71","","0.0","","36","","6","","","","101.31","","","","-40","","NA"
"-85.01","72.99","ARCTIC BAY CS","2400404","2018-01-16 03:00","2018","01","16","03:00","-34.0","","-38.0","","67","","0.0","","15","","5","","","","101.38","","","","-40","","NA"
"-85.01","72.99","ARCTIC BAY CS","2400404","2018-01-16 04:00","2018","01","16","04:00","-32.1","","-35.6","","71","","0.0","","13","","11","","","","101.37","","","","-42","","NA"
"-85.01","72.99","ARCTIC BAY CS","2400404","2018-01-16 05:00","2018","01","16","05:00","-32.6","","-35.9","","72","","0.0","","2","","1","","","","101.38","","","","-34","","NA"
"-85.01","72.99","ARCTIC BAY CS","2400404","2018-01-16 06:00","2018","01","16","06:00","-34.3","","-38.1","","69","","0.0","","36","","5","","","","101.41","","","","-41","","NA"
"-85.01","72.99","ARCTIC BAY CS","2400404","2018-01-16 07:00","2018","01","16","07:00","-34.9","","-38.8","","68","","0.0","","0","","1","","","","101.40","","","","-36","","NA"
"-85.01","72.99","ARCTIC BAY CS","2400404","2018-01-16 08:00","2018","01","16","08:00","-33.0","","-36.7","","70","","0.0","","5","","2","","","","101.41","","","","-35","","NA"
"-85.01","72.99","ARCTIC BAY CS","2400404","2018-01-16 09:00","2018","01","16","09:00","-32.9","","-36.5","","70","","0.0","","35","","6","","","","101.43","","","","-40","","NA"
"-85.01","72.99","ARCTIC BAY CS","2400404","2018-01-16 10:00","2018","01","16","10:00","-33.2","","-36.8","","70","","0.0","","16","","3","","","","101.45","","","","-37","","NA"
"-85.01","72.99","ARCTIC BAY CS","2400404","2018-01-16 11:00","2018","01","16","11:00","-34.0","","-37.8","","69","","0.0","","13","","8","","","","101.41","","","","-43","","NA"
"-85.01","72.99","ARCTIC BAY CS","2400404","2018-01-16 12:00","2018","01","16","12:00","-34.5","","-38.2","","69","","0.0","","35","","5","","","","101.47","","","","-41","","NA"
"-85.01","72.99","ARCTIC BAY CS","2400404","2018-01-16 13:00","2018","01","16","13:00","-34.3","","-37.9","","70","","0.0","","32","","4","","","","101.48","","","","-39","","NA"
"-85.01","72.99","ARCTIC BAY CS","2400404","2018-01-16 14:00","2018","01","16","14:00","-34.7","","-38.3","","70","","0.0","","34","","7","","","","101.52","","","","-43","","NA"
"-85.01","72.99","ARCTIC BAY CS","2400404","2018-01-16 15:00","2018","01","16","15:00","-33.6","","-37.3","","69","","0.0","","11","","2","","","","101.55","","","","-36","","NA"
"-85.01","72.99","ARCTIC BAY CS","2400404","2018-01-16 16:00","2018","01","16","16:00","-34.2","","-37.9","","69","","0.0","","","","0","","","","101.57","","","","","","NA"
"-85.01","72.99","ARCTIC BAY CS","2400404","2018-01-16 17:00","2018","01","16","17:00","-35.6","","-39.4","","68","","0.0","","27","","2","","","","101.60","","","","-38","","NA"
"-85.01","72.99","ARCTIC BAY CS","2400404","2018-01-16 18:00","2018","01","16","18:00","-34.8","","-38.7","","68","","0.0","","","","0","","","","101.60","","","","","","NA"
"-85.01","72.99","ARCTIC BAY CS","2400404","2018-01-16 19:00","2018","01","16","19:00","-37.3","","-41.5","","65","","0.0","","","","0","","","","101.56","","","","","","NA"
"-85.01","72.99","ARCTIC BAY CS","2400404","2018-01-16 20:00","2018","01","16","20:00","-36.4","","-40.5","","66","","0.0","","12","","4","","","","101.55","","","","-42","","NA"
"-85.01","72.99","ARCTIC BAY CS","2400404","2018-01-16 21:00","2018","01","16","21:00","-37.0","","-41.2","","65","","0.0","","","","0","","","","101.54","","","","","","NA"
"-85.01","72.99","ARCTIC BAY CS","2400404","2018-01-16 22:00","2018","01","16","22:00","-35.4","","-39.1","","69","","0.0","","12","","4","","","","101.54","","","","-40","","NA"
"-85.01","72.99","ARCTIC BAY CS","2400404","2018-01-16 23:00","2018","01","16","23:00","-36.6","","-40.6","","67","","0.0","","","","0","","","","101.46","","","","","","NA"
"-85.01","72.99","ARCTIC BAY CS","2400404","2018-01-17 00:00","2018","01","17","00:00","-35.2","","-39.1","","67","","0.0","","0","","1","","","","101.47","","","","-36","","NA"
"-85.01","72.99","ARCTIC BAY CS","2400404","2018-01-17 01:00","2018","01","17","01:00","-34.1","","-38.1","","67","","0.0","","13","","5","","","","101.43","","","","-40","","NA"
"-85.01","72.99","ARCTIC BAY CS","2400404","2018-01-17 02:00","2018","01","17","02:00","-34.7","","-38.6","","68","","0.0","","0","","1","","","","101.43","","","","-36","","NA"
"-85.01","72.99","ARCTIC BAY CS","2400404","2018-01-17 03:00","2018","01","17","03:00","-34.8","","-38.7","","68","","0.0","","13","","5","","","","101.45","","","","-41","","NA"
"-85.01","72.99","ARCTIC BAY CS","2400404","2018-01-17 04:00","2018","01","17","04:00","-35.1","","-38.9","","68","","0.0","","13","","3","","","","101.45","","","","-39","","NA"
"-85.01","72.99","ARCTIC BAY CS","2400404","2018-01-17 05:00","2018","01","17","05:00","-35.8","","-39.7","","67","","0.0","","34","","4","","","","101.43","","","","-41","","NA"
"-85.01","72.99","ARCTIC BAY CS","2400404","2018-01-17 06:00","2018","01","17","06:00","-33.7","","-37.5","","69","","0.0","","12","","5","","","","101.38","","","","-40","","NA"
"-85.01","72.99","ARCTIC BAY CS","2400404","2018-01-17 07:00","2018","01","17","07:00","-35.6","","-39.6","","67","","0.0","","26","","2","","","","101.39","","","","-38","","NA"
"-85.01","72.99","ARCTIC BAY CS","2400404","2018-01-17 08:00","2018","01","17","08:00","-34.2","","-37.9","","69","","0.0","","16","","3","","","","101.38","","","","-38","","NA"
"-85.01","72.99","ARCTIC BAY CS","2400404","2018-01-17 09:00","2018","01","17","09:00","-34.4","","-38.1","","69","","0.0","","15","","4","","","","101.36","","","","-39","","NA"
"-85.01","72.99","ARCTIC BAY CS","2400404","2018-01-17 10:00","2018","01","17","10:00","-35.0","","-38.9","","67","","0.0","","7","","2","","","","101.35","","","","-38","","NA"
"-85.01","72.99","ARCTIC BAY CS","2400404","2018-01-17 11:00","2018","01","17","11:00","-35.6","","-39.9","","65","","0.0","","14","","4","","","","101.32","","","","-41","","NA"
"-85.01","72.99","ARCTIC BAY CS","2400404","2018-01-17 12:00","2018","01","17","12:00","-33.0","","-36.7","","69","","0.0","","10","","7","","","","101.34","","","","-41","","NA"
"-85.01","72.99","ARCTIC BAY CS","2400404","2018-01-17 13:00","2018","01","17","13:00","-34.2","","-38.1","","68","","0.0","","28","","4","","","","101.32","","","","-39","","NA"
"-85.01","72.99","ARCTIC BAY CS","2400404","2018-01-17 14:00","2018","01","17","14:00","-34.1","","-37.7","","70","","0.0","","7","","5","","","","101.35","","","","-40","","NA"
"-85.01","72.99","ARCTIC BAY CS","2400404","2018-01-17 15:00","2018","01","17","15:00","-33.4","","-37.3","","68","","0.0","","15","","2","","","","101.33","","","","-36","","NA"
"-85.01","72.99","ARCTIC BAY CS","2400404","2018-01-17 16:00","2018","01","17","16:00","-32.9","","-36.7","","69","","0.0","","10","","4","","","","101.32","","","","-38","","NA"
"-85.01","72.99","ARCTIC BAY CS","2400404","2018-01-17 17:00","2018","01","17","17:00","-32.2","","-35.6","","71","","0.0","","34","","6","","","","101.33","","","","-39","","NA"
"-85.01","72.99","ARCTIC BAY CS","2400404","2018-01-17 18:00","2018","01","17","18:00","-32.5","","-36.0","","71","","0.0","","35","","6","","","","101.34","","","","-39","","NA"
"-85.01","72.99","ARCTIC BAY CS","2400404","2018-01-17 19:00","2018","01","17","19:00","-32.8","","-36.3","","71","","0.0","","33","","5","","","","101.38","","","","-39","","NA"
"-85.01","72.99","ARCTIC BAY CS","2400404","2018-01-17 20:00","2018","01","17","20:00","-32.8","","-36.4","","70","","0.0","","31","","4","","","","101.39","","","","-38","","NA"
"-85.01","72.99","ARCTIC BAY CS","2400404","2018-01-17 21:00","2018","01","17","21:00","-33.9","","-38.0","","66","","0.0","","11","","6","","","","101.37","","","","-41","","NA"
"-85.01","72.99","ARCTIC BAY CS","2400404","2018-01-17 22:00","2018","01","17","22:00","-34.2","","-38.3","","66","","0.0","","13","","4","","","","101.36","","","","-39","","NA"
"-85.01","72.99","ARCTIC BAY CS","2400404","2018-01-17 23:00","2018","01","17","23:00","-34.8","","-38.7","","67","","0.0","","0","","1","","","","101.32","","","","-36","","NA"
"-85.01","72.99","ARCTIC BAY CS","2400404","2018-01-18 00:00","2018","01","18","00:00","-34.7","","-38.4","","69","","0.0","","34","","5","","","","101.35","","","","-41","","NA"
"-85.01","72.99","ARCTIC BAY CS","2400404","2018-01-18 01:00","2018","01","18","01:00","-34.4","","-38.1","","69","","0.0","","1","","2","","","","101.36","","","","-37","","NA"
"-85.01","72.99","ARCTIC BAY CS","2400404","2018-01-18 02:00","2018","01","18","02:00","-34.8","","-38.9","","66","","0.0","","14","","4","","","","101.36","","","","-40","","NA"
"-85.01","72.99","ARCTIC BAY CS","2400404","2018-01-18 03:00","2018","01","18","03:00","-34.6","","-38.6","","67","","0.0","","16","","2","","","","101.40","","","","-37","","NA"
"-85.01","72.99","ARCTIC BAY CS","2400404","2018-01-18 04:00","2018","01","18","04:00","-35.5","","-39.5","","67","","0.0","","6","","4","","","","101.42","","","","-41","","NA"
"-85.01","72.99","ARCTIC BAY CS","2400404","2018-01-18 05:00","2018","01","18","05:00","-35.3","","-39.1","","68","","0.0","","4","","2","","","","101.42","","","","-38","","NA"
"-85.01","72.99","ARCTIC BAY CS","2400404","2018-01-18 06:00","2018","01","18","06:00","-34.9","","-38.8","","68","","0.0","","0","","1","","","","101.42","","","","-36","","NA"
"-85.01","72.99","ARCTIC BAY CS","2400404","2018-01-18 07:00","2018","01","18","07:00","-32.9","","-36.5","","71","","0.0","","17","","4","","","","101.41","","","","-38","","NA"
"-85.01","72.99","ARCTIC BAY CS","2400404","2018-01-18 08:00","2018","01","18","08:00","-34.6","","-38.6","","67","","0.0","","15","","4","","","","101.38","","","","-40","","NA"
"-85.01","72.99","ARCTIC BAY CS","2400404","2018-01-18 09:00","2018","01","18","09:00","-33.0","","-36.6","","70","","0.0","","14","","1","","","","101.37","","","","-34","","NA"
"-85.01","72.99","ARCTIC BAY CS","2400404","2018-01-18 10:00","2018","01","18","10:00","-33.8","","-37.5","","70","","0.0","","35","","6","","","","101.37","","","","-41","","NA"
"-85.01","72.99","ARCTIC BAY CS","2400404","2018-01-18 11:00","2018","01","18","11:00","-32.5","","-36.1","","71","","0.0","","","","0","","","","101.37","","","","","","NA"
"-85.01","72.99","ARCTIC BAY CS","2400404","2018-01-18 12:00","2018","01","18","12:00","-32.9","","-36.4","","71","","0.0","","0","","1","","","","101.39","","","","-34","","NA"
"-85.01","72.99","ARCTIC BAY CS","2400404","2018-01-18 13:00","2018","01","18","13:00","-32.8","","-36.3","","70","","0.0","","13","","5","","","","101.38","","","","-39","","NA"
"-85.01","72.99","ARCTIC BAY CS","2400404","2018-01-18 14:00","2018","01","18","14:00","-33.5","","-37.2","","70","","0.0","","33","","4","","","","101.41","","","","-38","","NA"
"-85.01","72.99","ARCTIC BAY CS","2400404","2018-01-18 15:00","2018","01","18","15:00","-33.1","","-36.7","","70","","0.0","","31","","3","","","","101.45","","","","-37","","NA"
"-85.01","72.99","ARCTIC BAY CS","2400404","2018-01-18 16:00","2018","01","18","16:00","-32.0","","-35.5","","71","","0.0","","36","","5","","","","101.53","","","","-38","","NA"
"-85.01","72.99","ARCTIC BAY CS","2400404","2018-01-18 17:00","2018","01","18","17:00","-32.2","","-35.7","","71","","0.0","","18","","2","","","","101.59","","","","-35","","NA"
"-85.01","72.99","ARCTIC BAY CS","2400404","2018-01-18 18:00","2018","01","18","18:00","-31.8","","-35.2","","72","","0.0","","","","0","","","","101.62","","","","","","NA"
"-85.01","72.99","ARCTIC BAY CS","2400404","2018-01-18 19:00","2018","01","18","19:00","-31.7","","-35.2","","71","","0.0","","12","","3","","","","101.67","","","","-35","","NA"
"-85.01","72.99","ARCTIC BAY CS","2400404","2018-01-18 20:00","2018","01","18","20:00","-33.8","","-37.9","","66","","0.0","","12","","4","","","","101.69","","","","-39","","NA"
"-85.01","72.99","ARCTIC BAY CS","2400404","2018-01-18 21:00","2018","01","18","21:00","-31.5","","-35.0","","71","","0.0","","30","","2","","","","101.76","","","","-34","","NA"
"-85.01","72.99","ARCTIC BAY CS","2400404","2018-01-18 22:00","2018","01","18","22:00","-29.6","","-32.9","","73","","0.0","","15","","5","","","","101.77","","","","-35","","NA"
"-85.01","72.99","ARCTIC BAY CS","2400404","2018-01-18 23:00","2018","01","18","23:00","-29.1","","-32.3","","74","","0.0","","0","","1","","","","101.80","","","","-30","","NA"
"-85.01","72.99","ARCTIC BAY CS","2400404","2018-01-19 00:00","2018","01","19","00:00","-28.9","","-32.0","","74","","0.0","","0","","1","","","","101.86","","","","-30","","NA"
"-85.01","72.99","ARCTIC BAY CS","2400404","2018-01-19 01:00","2018","01","19","01:00","-28.4","","-31.5","","74","","0.0","","0","","1","","","","101.89","","","","-29","","NA"
"-85.01","72.99","ARCTIC BAY CS","2400404","2018-01-19 02:00","2018","01","19","02:00","-28.6","","-31.7","","75","","0.0","","34","","2","","","","101.95","","","","-31","","NA"
"-85.01","72.99","ARCTIC BAY CS","2400404","2018-01-19 03:00","2018","01","19","03:00","-30.9","","-34.4","","72","","0.0","","12","","1","","","","102.03","","","","-32","","NA"
"-85.01","72.99","ARCTIC BAY CS","2400404","2018-01-19 04:00","2018","01","19","04:00","-32.0","","-35.5","","71","","0.0","","9","","2","","","","102.10","","","","-34","","NA"
"-85.01","72.99","ARCTIC BAY CS","2400404","2018-01-19 05:00","2018","01","19","05:00","-32.2","","-35.7","","71","","0.0","","3","","2","","","","102.12","","","","-35","","NA"
"-85.01","72.99","ARCTIC BAY CS","2400404","2018-01-19 06:00","2018","01","19","06:00","-31.5","","-34.9","","72","","0.0","","11","","5","","","","102.15","","","","-37","","NA"
"-85.01","72.99","ARCTIC BAY CS","2400404","2018-01-19 07:00","2018","01","19","07:00","-33.3","","-36.9","","70","","0.0","","11","","4","","","","102.16","","","","-38","","NA"
"-85.01","72.99","ARCTIC BAY CS","2400404","2018-01-19 08:00","2018","01","19","08:00","-29.5","","-32.8","","74","","0.0","","10","","6","","","","102.17","","","","-36","","NA"
"-85.01","72.99","ARCTIC BAY CS","2400404","2018-01-19 09:00","2018","01","19","09:00","-34.6","","-38.4","","68","","0.0","","0","","1","","","","102.18","","","","-36","","NA"
"-85.01","72.99","ARCTIC BAY CS","2400404","2018-01-19 10:00","2018","01","19","10:00","-35.6","","-39.7","","66","","0.0","","12","","2","","","","102.19","","","","-38","","NA"
"-85.01","72.99","ARCTIC BAY CS","2400404","2018-01-19 11:00","2018","01","19","11:00","-30.3","","-33.5","","73","","0.0","","13","","4","","","","102.20","","","","-35","","NA"
"-85.01","72.99","ARCTIC BAY CS","2400404","2018-01-19 12:00","2018","01","19","12:00","-31.6","","-35.2","","70","","0.0","","15","","5","","","","102.24","","","","-37","","NA"
"-85.01","72.99","ARCTIC BAY CS","2400404","2018-01-19 13:00","2018","01","19","13:00","-32.2","","-35.5","","72","","0.0","","31","","3","","","","102.23","","","","-36","","NA"
"-85.01","72.99","ARCTIC BAY CS","2400404","2018-01-19 14:00","2018","01","19","14:00","-33.9","","-37.4","","70","","0.0","","20","","2","","","","102.23","","","","-36","","NA"
"-85.01","72.99","ARCTIC BAY CS","2400404","2018-01-19 15:00","2018","01","19","15:00","-32.2","","-35.6","","72","","0.0","","","","0","","","","102.22","","","","","","NA"
"-85.01","72.99","ARCTIC BAY CS","2400404","2018-01-19 16:00","2018","01","19","16:00","-30.6","","-34.0","","72","","0.0","","12","","9","","","","102.22","","","","-39","","NA"
"-85.01","72.99","ARCTIC BAY CS","2400404","2018-01-19 17:00","2018","01","19","17:00","-33.8","","-37.3","","70","","0.0","","33","","5","","","","102.22","","","","-40","","NA"
"-85.01","72.99","ARCTIC BAY CS","2400404","2018-01-19 18:00","2018","01","19","18:00","-31.0","","-34.4","","72","","0.0","","18","","2","","","","102.23","","","","-33","","NA"
"-85.01","72.99","ARCTIC BAY CS","2400404","2018-01-19 19:00","2018","01","19","19:00","-33.8","","-37.4","","70","","0.0","","1","","3","","","","102.22","","","","-37","","NA"
"-85.01","72.99","ARCTIC BAY CS","2400404","2018-01-19 20:00","2018","01","19","20:00","-30.7","","-33.9","","73","","0.0","","15","","3","","","","102.18","","","","-34","","NA"
"-85.01","72.99","ARCTIC BAY CS","2400404","2018-01-19 21:00","2018","01","19","21:00","-32.8","","-36.2","","72","","0.0","","13","","1","","","","102.16","","","","-34","","NA"
"-85.01","72.99","ARCTIC BAY CS","2400404","2018-01-19 22:00","2018","01","19","22:00","-33.0","","-36.9","","68","","0.0","","","","0","","","","102.13","","","","","","NA"
"-85.01","72.99","ARCTIC BAY CS","2400404","2018-01-19 23:00","2018","01","19","23:00","-33.3","","-37.1","","69","","0.0","","12","","7","","","","102.13","","","","-41","","NA"
"-85.01","72.99","ARCTIC BAY CS","2400404","2018-01-20 00:00","2018","01","20","00:00","-32.7","","-36.4","","69","","0.0","","10","","3","","","","102.11","","","","-36","","NA"
"-85.01","72.99","ARCTIC BAY CS","2400404","2018-01-20 01:00","2018","01","20","01:00","-32.0","","-35.5","","71","","0.0","","13","","2","","","","102.10","","","","-34","","NA"
"-85.01","72.99","ARCTIC BAY CS","2400404","2018-01-20 02:00","2018","01","20","02:00","-30.9","","-34.1","","73","","0.0","","","","0","","","","102.10","","","","","","NA"
"-85.01","72.99","ARCTIC BAY CS","2400404","2018-01-20 03:00","2018","01","20","03:00","-32.4","","-36.0","","71","","0.0","","25","","1","","","","102.11","","","","-34","","NA"
"-85.01","72.99","ARCTIC BAY CS","2400404","2018-01-20 04:00","2018","01","20","04:00","-33.1","","-37.2","","67","","0.0","","13","","6","","","","102.08","","","","-40","","NA"
"-85.01","72.99","ARCTIC BAY CS","2400404","2018-01-20 05:00","2018","01","20","05:00","-31.9","","-35.7","","69","","0.0","","14","","5","","","","102.06","","","","-38","","NA"
"-85.01","72.99","ARCTIC BAY CS","2400404","2018-01-20 06:00","2018","01","20","06:00","-32.8","","-36.4","","70","","0.0","","36","","4","","","","102.05","","","","-38","","NA"
"-85.01","72.99","ARCTIC BAY CS","2400404","2018-01-20 07:00","2018","01","20","07:00","-32.8","","-36.5","","70","","0.0","","16","","1","","","","102.03","","","","-34","","NA"
"-85.01","72.99","ARCTIC BAY CS","2400404","2018-01-20 08:00","2018","01","20","08:00","-34.6","","-38.3","","69","","0.0","","6","","2","","","","102.00","","","","-37","","NA"
"-85.01","72.99","ARCTIC BAY CS","2400404","2018-01-20 09:00","2018","01","20","09:00","-33.5","","-37.5","","67","","0.0","","13","","5","","","","101.95","","","","-40","","NA"
"-85.01","72.99","ARCTIC BAY CS","2400404","2018-01-20 10:00","2018","01","20","10:00","-32.2","","-35.4","","73","","0.0","","20","","2","","","","101.93","","","","-35","","NA"
"-85.01","72.99","ARCTIC BAY CS","2400404","2018-01-20 11:00","2018","01","20","11:00","-31.5","","-34.9","","72","","0.0","","0","","1","","","","101.90","","","","-33","","NA"
"-85.01","72.99","ARCTIC BAY CS","2400404","2018-01-20 12:00","2018","01","20","12:00","-33.0","","-37.1","","67","","0.0","","15","","3","","","","101.84","","","","-37","","NA"
"-85.01","72.99","ARCTIC BAY CS","2400404","2018-01-20 13:00","2018","01","20","13:00","-30.9","","-34.2","","73","","0.0","","14","","8","","","","101.81","","","","-39","","NA"
"-85.01","72.99","ARCTIC BAY CS","2400404","2018-01-20 14:00","2018","01","20","14:00","-33.1","","-36.7","","70","","0.0","","14","","4","","","","101.78","","","","-38","","NA"
"-85.01","72.99","ARCTIC BAY CS","2400404","2018-01-20 15:00","2018","01","20","15:00","-31.9","","-35.5","","71","","0.0","","33","","2","","","","101.75","","","","-34","","NA"
"-85.01","72.99","ARCTIC BAY CS","2400404","2018-01-20 16:00","2018","01","20","16:00","-31.6","","-34.8","","73","","0.0","","","","0","","","","101.75","","","","","","NA"
"-85.01","72.99","ARCTIC BAY CS","2400404","2018-01-20 17:00","2018","01","20","17:00","-29.2","","-32.1","","76","","0.0","","15","","4","","","","101.75","","","","-34","","NA"
"-85.01","72.99","ARCTIC BAY CS","2400404","2018-01-20 18:00","2018","01","20","18:00","-30.4","","-33.9","","71","","0.0","","15","","4","","","","101.72","","","","-35","","NA"
"-85.01","72.99","ARCTIC BAY CS","2400404","2018-01-20 19:00","2018","01","20","19:00","-31.4","","-34.9","","71","","0.0","","8","","1","","","","101.69","","","","-33","","NA"
"-85.01","72.99","ARCTIC BAY CS","2400404","2018-01-20 20:00","2018","01","20","20:00","-31.0","","-34.1","","74","","0.0","","0","","1","","","","101.66","","","","-32","","NA"
"-85.01","72.99","ARCTIC BAY CS","2400404","2018-01-20 21:00","2018","01","20","21:00","-30.8","","-34.4","","70","","0.0","","15","","2","","","","101.60","","","","-33","","NA"
"-85.01","72.99","ARCTIC BAY CS","2400404","2018-01-20 22:00","2018","01","20","22:00","-29.3","","-32.3","","75","","0.0","","33","","4","","","","101.57","","","","-34","","NA"
"-85.01","72.99","ARCTIC BAY CS","2400404","2018-01-20 23:00","2018","01","20","23:00","-32.0","","-35.5","","71","","0.0","","0","","1","","","","101.55","","","","-33","","NA"
"-85.01","72.99","ARCTIC BAY CS","2400404","2018-01-21 00:00","2018","01","21","00:00","-29.4","","-32.5","","74","","0.0","","20","","2","","","","101.53","","","","-32","","NA"
"-85.01","72.99","ARCTIC BAY CS","2400404","2018-01-21 01:00","2018","01","21","01:00","-31.9","","-35.5","","70","","0.0","","15","","3","","","","101.52","","","","-35","","NA"
"-85.01","72.99","ARCTIC BAY CS","2400404","2018-01-21 02:00","2018","01","21","02:00","-29.9","","-32.8","","76","","0.0","","","","0","","","","101.51","","","","","","NA"
"-85.01","72.99","ARCTIC BAY CS","2400404","2018-01-21 03:00","2018","01","21","03:00","-28.3","","-31.0","","77","","0.0","","14","","7","","","","101.49","","","","-35","","NA"
"-85.01","72.99","ARCTIC BAY CS","2400404","2018-01-21 04:00","2018","01","21","04:00","-29.4","","-32.7","","73","","0.0","","14","","1","","","","101.48","","","","-31","","NA"
"-85.01","72.99","ARCTIC BAY CS","2400404","2018-01-21 05:00","2018","01","21","05:00","-28.7","","-31.6","","76","","0.0","","15","","5","","","","101.48","","","","-34","","NA"
"-85.01","72.99","ARCTIC BAY CS","2400404","2018-01-21 06:00","2018","01","21","06:00","-30.7","","-34.1","","72","","0.0","","30","","3","","","","101.50","","","","-34","","NA"
"-85.01","72.99","ARCTIC BAY CS","2400404","2018-01-21 07:00","2018","01","21","07:00","-30.0","","-33.3","","73","","0.0","","0","","1","","","","101.48","","","","-31","","NA"
"-85.01","72.99","ARCTIC BAY CS","2400404","2018-01-21 08:00","2018","01","21","08:00","-31.4","","-35.0","","70","","0.0","","14","","6","","","","101.47","","","","-38","","NA"
"-85.01","72.99","ARCTIC BAY CS","2400404","2018-01-21 09:00","2018","01","21","09:00","-30.1","","-33.4","","74","","0.0","","0","","1","","","","101.47","","","","-31","","NA"
"-85.01","72.99","ARCTIC BAY CS","2400404","2018-01-21 10:00","2018","01","21","10:00","-27.3","","-30.3","","76","","0.0","","0","","1","","","","101.48","","","","-28","","NA"
"-85.01","72.99","ARCTIC BAY CS","2400404","2018-01-21 11:00","2018","01","21","11:00","-27.9","","-31.0","","75","","0.0","","12","","2","","","","101.48","","","","-30","","NA"
"-85.01","72.99","ARCTIC BAY CS","2400404","2018-01-21 12:00","2018","01","21","12:00","-28.2","","-31.1","","76","","0.0","","2","","2","","","","101.48","","","","-30","","NA"
"-85.01","72.99","ARCTIC BAY CS","2400404","2018-01-21 13:00","2018","01","21","13:00","-28.0","","-31.2","","74","","0.0","","13","","3","","","","101.48","","","","-31","","NA"
"-85.01","72.99","ARCTIC BAY CS","2400404","2018-01-21 14:00","2018","01","21","14:00","-28.0","","-30.7","","78","","0.0","","0","","1","","","","101.49","","","","-29","","NA"
"-85.01","72.99","ARCTIC BAY CS","2400404","2018-01-21 15:00","2018","01","21","15:00","-29.0","","-32.2","","74","","0.0","","13","","4","","","","101.52","","","","-33","","NA"
"-85.01","72.99","ARCTIC BAY CS","2400404","2018-01-21 16:00","2018","01","21","16:00","-27.9","","-30.6","","78","","0.0","","15","","1","","","","101.54","","","","-29","","NA"
"-85.01","72.99","ARCTIC BAY CS","2400404","2018-01-21 17:00","2018","01","21","17:00","-25.1","","-27.8","","78","","0.0","","6","","4","","","","101.57","","","","-29","","NA"
"-85.01","72.99","ARCTIC BAY CS","2400404","2018-01-21 18:00","2018","01","21","18:00","-28.9","","-32.0","","75","","0.0","","14","","4","","","","101.57","","","","-33","","NA"
"-85.01","72.99","ARCTIC BAY CS","2400404","2018-01-21 19:00","2018","01","21","19:00","-28.2","","-31.2","","75","","0.0","","2","","2","","","","101.59","","","","-30","","NA"
"-85.01","72.99","ARCTIC BAY CS","2400404","2018-01-21 20:00","2018","01","21","20:00","-28.2","","-30.7","","78","","0.0","","17","","2","","","","101.60","","","","-30","","NA"
"-85.01","72.99","ARCTIC BAY CS","2400404","2018-01-21 21:00","2018","01","21","21:00","-24.5","","-27.0","","80","","0.0","","7","","4","","","","101.59","","","","-28","","NA"
"-85.01","72.99","ARCTIC BAY CS","2400404","2018-01-21 22:00","2018","01","21","22:00","-24.4","","-26.7","","81","","0.0","","7","","5","","","","101.58","","","","-29","","NA"
"-85.01","72.99","ARCTIC BAY CS","2400404","2018-01-21 23:00","2018","01","21","23:00","-24.9","","-27.2","","81","","0.0","","14","","5","","","","101.61","","","","-30","","NA"
"-85.01","72.99","ARCTIC BAY CS","2400404","2018-01-22 00:00","2018","01","22","00:00","-26.2","","-28.8","","79","","0.0","","13","","7","","","","101.62","","","","-33","","NA"
"-85.01","72.99","ARCTIC BAY CS","2400404","2018-01-22 01:00","2018","01","22","01:00","-24.0","","-26.5","","80","","0.0","","11","","5","","","","101.61","","","","-29","","NA"
"-85.01","72.99","ARCTIC BAY CS","2400404","2018-01-22 02:00","2018","01","22","02:00","-29.0","","-32.4","","73","","0.0","","3","","3","","","","101.64","","","","-32","","NA"
"-85.01","72.99","ARCTIC BAY CS","2400404","2018-01-22 03:00","2018","01","22","03:00","-27.9","","-30.9","","76","","0.0","","0","","1","","","","101.67","","","","-29","","NA"
"-85.01","72.99","ARCTIC BAY CS","2400404","2018-01-22 04:00","2018","01","22","04:00","-28.4","","-31.7","","73","","0.0","","7","","3","","","","101.68","","","","-32","","NA"
"-85.01","72.99","ARCTIC BAY CS","2400404","2018-01-22 05:00","2018","01","22","05:00","-27.1","","-30.1","","76","","0.0","","13","","2","","","","101.68","","","","-29","","NA"
"-85.01","72.99","ARCTIC BAY CS","2400404","2018-01-22 06:00","2018","01","22","06:00","-27.7","","-30.8","","75","","0.0","","36","","2","","","","101.69","","","","-30","","NA"
"-85.01","72.99","ARCTIC BAY CS","2400404","2018-01-22 07:00","2018","01","22","07:00","-27.2","","-30.1","","77","","0.0","","34","","2","","","","101.70","","","","-29","","NA"
"-85.01","72.99","ARCTIC BAY CS","2400404","2018-01-22 08:00","2018","01","22","08:00","-25.4","","-28.0","","79","","0.0","","36","","4","","","","101.71","","","","-29","","NA"
"-85.01","72.99","ARCTIC BAY CS","2400404","2018-01-22 09:00","2018","01","22","09:00","-26.5","","-29.5","","76","","0.0","","2","","4","","","","101.69","","","","-31","","NA"
"-85.01","72.99","ARCTIC BAY CS","2400404","2018-01-22 10:00","2018","01","22","10:00","-27.2","","-30.3","","75","","0.0","","34","","4","","","","101.73","","","","-31","","NA"
"-85.01","72.99","ARCTIC BAY CS","2400404","2018-01-22 11:00","2018","01","22","11:00","-27.2","","-30.2","","76","","0.0","","1","","6","","","","101.71","","","","-33","","NA"
"-85.01","72.99","ARCTIC BAY CS","2400404","2018-01-22 12:00","2018","01","22","12:00","-26.0","","-28.7","","78","","0.0","","33","","7","","","","101.70","","","","-33","","NA"
"-85.01","72.99","ARCTIC BAY CS","2400404","2018-01-22 13:00","2018","01","22","13:00","-26.1","","-28.9","","77","","0.0","","30","","9","","","","101.71","","","","-34","","NA"
"-85.01","72.99","ARCTIC BAY CS","2400404","2018-01-22 14:00","2018","01","22","14:00","-25.1","","-27.8","","78","","0.0","","0","","1","","","","101.70","","","","-26","","NA"
"-85.01","72.99","ARCTIC BAY CS","2400404","2018-01-22 15:00","2018","01","22","15:00","-24.8","","-27.4","","79","","0.0","","14","","2","","","","101.69","","","","-27","","NA"
"-85.01","72.99","ARCTIC BAY CS","2400404","2018-01-22 16:00","2018","01","22","16:00","-25.2","","-28.0","","78","","0.0","","0","","1","","","","101.70","","","","-26","","NA"
"-85.01","72.99","ARCTIC BAY CS","2400404","2018-01-22 17:00","2018","01","22","17:00","-24.8","","-27.5","","78","","0.0","","7","","7","","","","101.69","","","","-31","","NA"
"-85.01","72.99","ARCTIC BAY CS","2400404","2018-01-22 18:00","2018","01","22","18:00","-25.4","","-28.5","","75","","0.0","","7","","12","","","","101.70","","","","-35","","NA"
"-85.01","72.99","ARCTIC BAY CS","2400404","2018-01-22 19:00","2018","01","22","19:00","-25.1","","-28.3","","75","","0.0","","10","","4","","","","101.69","","","","-29","","NA"
"-85.01","72.99","ARCTIC BAY CS","2400404","2018-01-22 20:00","2018","01","22","20:00","-26.4","","-29.5","","75","","0.0","","36","","3","","","","101.67","","","","-29","","NA"
"-85.01","72.99","ARCTIC BAY CS","2400404","2018-01-22 21:00","2018","01","22","21:00","-26.3","","-29.3","","76","","0.0","","","","0","","","","101.64","","","","","","NA"
"-85.01","72.99","ARCTIC BAY CS","2400404","2018-01-22 22:00","2018","01","22","22:00","-26.2","","-29.7","","72","","0.0","","7","","6","","","","101.59","","","","-32","","NA"
"-85.01","72.99","ARCTIC BAY CS","2400404","2018-01-22 23:00","2018","01","22","23:00","-26.7","","-30.4","","71","","0.0","","6","","8","","","","101.59","","","","-34","","NA"
"-85.01","72.99","ARCTIC BAY CS","2400404","2018-01-23 00:00","2018","01","23","00:00","-26.5","","-30.1","","72","","0.0","","9","","9","","","","101.58","","","","-34","","NA"
"-85.01","72.99","ARCTIC BAY CS","2400404","2018-01-23 01:00","2018","01","23","01:00","-26.6","","-30.5","","69","","0.0","","8","","8","","","","101.56","","","","-34","","NA"
"-85.01","72.99","ARCTIC BAY CS","2400404","2018-01-23 02:00","2018","01","23","02:00","-26.9","","-31.2","","66","","0.0","","7","","18","","","","101.57","","","","-39","","NA"
"-85.01","72.99","ARCTIC BAY CS","2400404","2018-01-23 03:00","2018","01","23","03:00","-27.2","","-31.5","","67","","0.0","","7","","12","","","","101.56","","","","-37","","NA"
"-85.01","72.99","ARCTIC BAY CS","2400404","2018-01-23 04:00","2018","01","23","04:00","-27.3","","-31.7","","66","","0.0","","6","","16","","","","101.55","","","","-38","","NA"
"-85.01","72.99","ARCTIC BAY CS","2400404","2018-01-23 05:00","2018","01","23","05:00","-27.3","","-31.5","","67","","0.0","","6","","14","","","","101.54","","","","-38","","NA"
"-85.01","72.99","ARCTIC BAY CS","2400404","2018-01-23 06:00","2018","01","23","06:00","-28.5","","-32.1","","71","","0.0","","31","","3","","","","101.52","","","","-32","","NA"
"-85.01","72.99","ARCTIC BAY CS","2400404","2018-01-23 07:00","2018","01","23","07:00","-30.2","","-33.8","","70","","0.0","","10","","2","","","","101.47","","","","-32","","NA"
"-85.01","72.99","ARCTIC BAY CS","2400404","2018-01-23 08:00","2018","01","23","08:00","-29.2","","-32.2","","75","","0.0","","35","","3","","","","101.45","","","","-33","","NA"
"-85.01","72.99","ARCTIC BAY CS","2400404","2018-01-23 09:00","2018","01","23","09:00","-27.4","","-31.0","","72","","0.0","","6","","6","","","","101.44","","","","-34","","NA"
"-85.01","72.99","ARCTIC BAY CS","2400404","2018-01-23 10:00","2018","01","23","10:00","-27.6","","-31.2","","71","","0.0","","7","","11","","","","101.40","","","","-37","","NA"
"-85.01","72.99","ARCTIC BAY CS","2400404","2018-01-23 11:00","2018","01","23","11:00","-28.0","","-31.9","","69","","0.0","","7","","16","","","","101.39","","","","-39","","NA"
"-85.01","72.99","ARCTIC BAY CS","2400404","2018-01-23 12:00","2018","01","23","12:00","-28.2","","-32.5","","67","","0.0","","7","","15","","","","101.38","","","","-39","","NA"
"-85.01","72.99","ARCTIC BAY CS","2400404","2018-01-23 13:00","2018","01","23","13:00","-28.4","","-32.7","","66","","0.0","","7","","13","","","","101.39","","","","-39","","NA"
"-85.01","72.99","ARCTIC BAY CS","2400404","2018-01-23 14:00","2018","01","23","14:00","-28.7","","-33.0","","67","","0.0","","7","","16","","","","101.40","","","","-40","","NA"
"-85.01","72.99","ARCTIC BAY CS","2400404","2018-01-23 15:00","2018","01","23","15:00","-29.3","","-33.5","","67","","0.0","","7","","15","","","","101.42","","","","-41","","NA"
"-85.01","72.99","ARCTIC BAY CS","2400404","2018-01-23 16:00","2018","01","23","16:00","-29.3","","-33.5","","67","","0.0","","8","","13","","","","101.44","","","","-40","","NA"
"-85.01","72.99","ARCTIC BAY CS","2400404","2018-01-23 17:00","2018","01","23","17:00","-29.0","","-33.4","","66","","0.0","","7","","12","","","","101.44","","","","-39","","NA"
"-85.01","72.99","ARCTIC BAY CS","2400404","2018-01-23 18:00","2018","01","23","18:00","-29.2","","-32.8","","71","","0.0","","12","","5","","","","101.45","","","","-35","","NA"
"-85.01","72.99","ARCTIC BAY CS","2400404","2018-01-23 19:00","2018","01","23","19:00","-29.0","","-32.7","","71","","0.0","","12","","7","","","","101.46","","","","-36","","NA"
"-85.01","72.99","ARCTIC BAY CS","2400404","2018-01-23 20:00","2018","01","23","20:00","-29.3","","-33.4","","68","","0.0","","11","","6","","","","101.45","","","","-36","","NA"
"-85.01","72.99","ARCTIC BAY CS","2400404","2018-01-23 21:00","2018","01","23","21:00","-29.8","","-34.2","","66","","0.0","","8","","12","","","","101.46","","","","-40","","NA"
"-85.01","72.99","ARCTIC BAY CS","2400404","2018-01-23 22:00","2018","01","23","22:00","-28.5","","-32.9","","66","","0.0","","8","","14","","","","101.45","","","","-39","","NA"
"-85.01","72.99","ARCTIC BAY CS","2400404","2018-01-23 23:00","2018","01","23","23:00","-28.6","","-32.7","","68","","0.0","","12","","8","","","","101.47","","","","-36","","NA"
"-85.01","72.99","ARCTIC BAY CS","2400404","2018-01-24 00:00","2018","01","24","00:00","-28.8","","-32.3","","72","","0.0","","14","","5","","","","101.49","","","","-34","","NA"
"-85.01","72.99","ARCTIC BAY CS","2400404","2018-01-24 01:00","2018","01","24","01:00","-28.4","","-32.0","","72","","0.0","","2","","3","","","","101.51","","","","-32","","NA"
"-85.01","72.99","ARCTIC BAY CS","2400404","2018-01-24 02:00","2018","01","24","02:00","-28.4","","-32.0","","71","","0.0","","","","0","","","","101.54","","","","","","NA"
"-85.01","72.99","ARCTIC BAY CS","2400404","2018-01-24 03:00","2018","01","24","03:00","-28.2","","-31.7","","72","","0.0","","0","","1","","","","101.56","","","","-29","","NA"
"-85.01","72.99","ARCTIC BAY CS","2400404","2018-01-24 04:00","2018","01","24","04:00","-29.2","","-32.7","","72","","0.0","","15","","2","","","","101.59","","","","-31","","NA"
"-85.01","72.99","ARCTIC BAY CS","2400404","2018-01-24 05:00","2018","01","24","05:00","-29.6","","-33.0","","72","","0.0","","27","","2","","","","101.62","","","","-32","","NA"
"-85.01","72.99","ARCTIC BAY CS","2400404","2018-01-24 06:00","2018","01","24","06:00","-28.2","","-31.5","","73","","0.0","","3","","2","","","","101.62","","","","-30","","NA"
"-85.01","72.99","ARCTIC BAY CS","2400404","2018-01-24 07:00","2018","01","24","07:00","-29.2","","-32.8","","71","","0.0","","35","","11","","","","101.63","","","","-39","","NA"
"-85.01","72.99","ARCTIC BAY CS","2400404","2018-01-24 08:00","2018","01","24","08:00","-28.9","","-32.3","","72","","0.0","","32","","9","","","","101.65","","","","-37","","NA"
"-85.01","72.99","ARCTIC BAY CS","2400404","2018-01-24 09:00","2018","01","24","09:00","-27.9","","-31.6","","71","","0.0","","11","","5","","","","101.65","","","","-33","","NA"
"-85.01","72.99","ARCTIC BAY CS","2400404","2018-01-24 10:00","2018","01","24","10:00","-27.5","","-30.9","","73","","0.0","","32","","8","","","","101.66","","","","-35","","NA"
"-85.01","72.99","ARCTIC BAY CS","2400404","2018-01-24 11:00","2018","01","24","11:00","-27.3","","-31.1","","70","","0.0","","19","","3","","","","101.66","","","","-30","","NA"
"-85.01","72.99","ARCTIC BAY CS","2400404","2018-01-24 12:00","2018","01","24","12:00","-27.8","","-31.4","","71","","0.0","","0","","1","","","","101.68","","","","-29","","NA"
"-85.01","72.99","ARCTIC BAY CS","2400404","2018-01-24 13:00","2018","01","24","13:00","-27.8","","-31.3","","72","","0.0","","36","","3","","","","101.70","","","","-31","","NA"
"-85.01","72.99","ARCTIC BAY CS","2400404","2018-01-24 14:00","2018","01","24","14:00","-27.3","","-30.9","","72","","0.0","","32","","5","","","","101.72","","","","-33","","NA"
"-85.01","72.99","ARCTIC BAY CS","2400404","2018-01-24 15:00","2018","01","24","15:00","-27.4","","-31.2","","70","","0.0","","36","","1","","","","101.75","","","","-28","","NA"
"-85.01","72.99","ARCTIC BAY CS","2400404","2018-01-24 16:00","2018","01","24","16:00","-28.4","","-32.5","","68","","0.0","","8","","6","","","","101.76","","","","-35","","NA"
"-85.01","72.99","ARCTIC BAY CS","2400404","2018-01-24 17:00","2018","01","24","17:00","-28.3","","-32.8","","65","","0.0","","7","","11","","","","101.76","","","","-38","","NA"
"-85.01","72.99","ARCTIC BAY CS","2400404","2018-01-24 18:00","2018","01","24","18:00","-27.7","","-32.2","","66","","0.0","","7","","9","","","","101.77","","","","-36","","NA"
"-85.01","72.99","ARCTIC BAY CS","2400404","2018-01-24 19:00","2018","01","24","19:00","-27.7","","-31.5","","70","","0.0","","","","0","","","","101.76","","","","","","NA"
"-85.01","72.99","ARCTIC BAY CS","2400404","2018-01-24 20:00","2018","01","24","20:00","-27.2","","-31.0","","70","","0.0","","11","","7","","","","101.75","","","","-34","","NA"
"-85.01","72.99","ARCTIC BAY CS","2400404","2018-01-24 21:00","2018","01","24","21:00","-27.1","","-30.9","","70","","0.0","","12","","5","","","","101.74","","","","-32","","NA"
"-85.01","72.99","ARCTIC BAY CS","2400404","2018-01-24 22:00","2018","01","24","22:00","-27.2","","-30.9","","71","","0.0","","12","","2","","","","101.73","","","","-29","","NA"
"-85.01","72.99","ARCTIC BAY CS","2400404","2018-01-24 23:00","2018","01","24","23:00","-27.4","","-31.1","","71","","0.0","","8","","5","","","","101.70","","","","-33","","NA"
"-85.01","72.99","ARCTIC BAY CS","2400404","2018-01-25 00:00","2018","01","25","00:00","-27.5","","-31.3","","70","","0.0","","10","","3","","","","101.68","","","","-31","","NA"
"-85.01","72.99","ARCTIC BAY CS","2400404","2018-01-25 01:00","2018","01","25","01:00","-27.7","","-31.6","","69","","0.0","","8","","6","","","","101.67","","","","-34","","NA"
"-85.01","72.99","ARCTIC BAY CS","2400404","2018-01-25 02:00","2018","01","25","02:00","-27.6","","-31.0","","72","","0.0","","0","","1","","","","101.65","","","","-29","","NA"
"-85.01","72.99","ARCTIC BAY CS","2400404","2018-01-25 03:00","2018","01","25","03:00","-28.2","","-31.6","","73","","0.0","","0","","1","","","","101.64","","","","-29","","NA"
"-85.01","72.99","ARCTIC BAY CS","2400404","2018-01-25 04:00","2018","01","25","04:00","-30.6","","-34.4","","69","","0.0","","1","","2","","","","101.61","","","","-33","","NA"
"-85.01","72.99","ARCTIC BAY CS","2400404","2018-01-25 05:00","2018","01","25","05:00","-29.9","","-33.5","","71","","0.0","","14","","4","","","","101.57","","","","-34","","NA"
"-85.01","72.99","ARCTIC BAY CS","2400404","2018-01-25 06:00","2018","01","25","06:00","-30.5","","-34.5","","68","","0.0","","12","","2","","","","101.50","","","","-33","","NA"
"-85.01","72.99","ARCTIC BAY CS","2400404","2018-01-25 07:00","2018","01","25","07:00","-30.9","","-34.4","","71","","0.0","","36","","5","","","","101.46","","","","-37","","NA"
"-85.01","72.99","ARCTIC BAY CS","2400404","2018-01-25 08:00","2018","01","25","08:00","-29.6","","-33.0","","72","","0.0","","14","","3","","","","101.39","","","","-33","","NA"
"-85.01","72.99","ARCTIC BAY CS","2400404","2018-01-25 09:00","2018","01","25","09:00","-29.7","","-32.9","","74","","0.0","","","","0","","","","101.36","","","","","","NA"
"-85.01","72.99","ARCTIC BAY CS","2400404","2018-01-25 10:00","2018","01","25","10:00","-30.2","","-33.4","","73","","0.0","","16","","4","","","","101.30","","","","-35","","NA"
"-85.01","72.99","ARCTIC BAY CS","2400404","2018-01-25 11:00","2018","01","25","11:00","-30.0","","-33.9","","69","","0.0","","9","","4","","","","101.25","","","","-35","","NA"
"-85.01","72.99","ARCTIC BAY CS","2400404","2018-01-25 12:00","2018","01","25","12:00","-29.1","","-32.5","","72","","0.0","","11","","5","","","","101.20","","","","-35","","NA"
"-85.01","72.99","ARCTIC BAY CS","2400404","2018-01-25 13:00","2018","01","25","13:00","-29.0","","-32.5","","72","","0.0","","10","","8","","","","101.14","","","","-37","","NA"
"-85.01","72.99","ARCTIC BAY CS","2400404","2018-01-25 14:00","2018","01","25","14:00","-29.5","","-33.5","","68","","0.2","","8","","11","","","","101.10","","","","-39","","NA"
"-85.01","72.99","ARCTIC BAY CS","2400404","2018-01-25 15:00","2018","01","25","15:00","-28.7","","-32.6","","69","","0.0","","8","","14","","","","101.08","","","","-39","","NA"
"-85.01","72.99","ARCTIC BAY CS","2400404","2018-01-25 16:00","2018","01","25","16:00","-29.0","","-32.6","","71","","0.0","","11","","10","","","","101.05","","","","-38","","NA"
"-85.01","72.99","ARCTIC BAY CS","2400404","2018-01-25 17:00","2018","01","25","17:00","-29.4","","-33.1","","70","","0.0","","12","","3","","","","101.02","","","","-33","","NA"
"-85.01","72.99","ARCTIC BAY CS","2400404","2018-01-25 18:00","2018","01","25","18:00","-29.4","","-32.9","","72","","0.0","","0","","1","","","","101.00","","","","-31","","NA"
"-85.01","72.99","ARCTIC BAY CS","2400404","2018-01-25 19:00","2018","01","25","19:00","-30.0","","-33.4","","72","","0.0","","0","","1","","","","100.94","","","","-31","","NA"
"-85.01","72.99","ARCTIC BAY CS","2400404","2018-01-25 20:00","2018","01","25","20:00","-28.4","","-31.8","","72","","0.0","","13","","8","","","","100.89","","","","-36","","NA"
"-85.01","72.99","ARCTIC BAY CS","2400404","2018-01-25 21:00","2018","01","25","21:00","-28.1","","-31.5","","72","","0.0","","11","","5","","","","100.86","","","","-33","","NA"
"-85.01","72.99","ARCTIC BAY CS","2400404","2018-01-25 22:00","2018","01","25","22:00","-29.2","","-32.5","","73","","0.0","","3","","3","","","","100.84","","","","-33","","NA"
"-85.01","72.99","ARCTIC BAY CS","2400404","2018-01-25 23:00","2018","01","25","23:00","-30.3","","-33.5","","73","","0.0","","36","","3","","","","100.81","","","","-34","","NA"
"-85.01","72.99","ARCTIC BAY CS","2400404","2018-01-26 00:00","2018","01","26","00:00","-29.8","","-34.0","","67","","0.0","","10","","7","","","","100.77","","","","-37","","NA"
"-85.01","72.99","ARCTIC BAY CS","2400404","2018-01-26 01:00","2018","01","26","01:00","-29.7","","-34.0","","67","","0.0","","9","","9","","","","100.76","","","","-38","","NA"
"-85.01","72.99","ARCTIC BAY CS","2400404","2018-01-26 02:00","2018","01","26","02:00","-28.8","","-33.1","","67","","0.0","","8","","14","","","","100.75","","","","-40","","NA"
"-85.01","72.99","ARCTIC BAY CS","2400404","2018-01-26 03:00","2018","01","26","03:00","-28.1","","-32.3","","67","","0.0","","7","","17","","","","100.76","","","","-40","","NA"
"-85.01","72.99","ARCTIC BAY CS","2400404","2018-01-26 04:00","2018","01","26","04:00","-28.7","","-32.3","","70","","0.0","","12","","5","","","","100.77","","","","-34","","NA"
"-85.01","72.99","ARCTIC BAY CS","2400404","2018-01-26 05:00","2018","01","26","05:00","-28.3","","-31.8","","72","","0.0","","8","","2","","","","100.75","","","","-30","","NA"
"-85.01","72.99","ARCTIC BAY CS","2400404","2018-01-26 06:00","2018","01","26","06:00","-27.7","","-31.0","","74","","0.0","","34","","6","","","","100.75","","","","-34","","NA"
"-85.01","72.99","ARCTIC BAY CS","2400404","2018-01-26 07:00","2018","01","26","07:00","-27.3","","-30.7","","73","","0.0","","30","","4","","","","100.75","","","","-32","","NA"
"-85.01","72.99","ARCTIC BAY CS","2400404","2018-01-26 08:00","2018","01","26","08:00","-28.7","","-31.8","","75","","0.0","","9","","1","","","","100.74","","","","-30","","NA"
"-85.01","72.99","ARCTIC BAY CS","2400404","2018-01-26 09:00","2018","01","26","09:00","-28.1","","-31.3","","74","","0.0","","15","","4","","","","100.74","","","","-32","","NA"
"-85.01","72.99","ARCTIC BAY CS","2400404","2018-01-26 10:00","2018","01","26","10:00","-27.3","","-30.5","","74","","0.0","","4","","4","","","","100.75","","","","-32","","NA"
"-85.01","72.99","ARCTIC BAY CS","2400404","2018-01-26 11:00","2018","01","26","11:00","-26.5","","-29.8","","74","","0.0","","35","","6","","","","100.74","","","","-32","","NA"
"-85.01","72.99","ARCTIC BAY CS","2400404","2018-01-26 12:00","2018","01","26","12:00","-26.1","","-29.4","","74","","0.0","","36","","4","","","","100.73","","","","-30","","NA"
"-85.01","72.99","ARCTIC BAY CS","2400404","2018-01-26 13:00","2018","01","26","13:00","-26.0","","-29.1","","75","","0.0","","14","","6","","","","100.72","","","","-32","","NA"
"-85.01","72.99","ARCTIC BAY CS","2400404","2018-01-26 14:00","2018","01","26","14:00","-25.6","","-29.0","","74","","0.0","","","","0","","","","100.72","","","","","","NA"
"-85.01","72.99","ARCTIC BAY CS","2400404","2018-01-26 15:00","2018","01","26","15:00","-25.6","","-28.8","","74","","0.0","","2","","7","","","","100.72","","","","-32","","NA"
"-85.01","72.99","ARCTIC BAY CS","2400404","2018-01-26 16:00","2018","01","26","16:00","-25.6","","-29.0","","73","","0.0","","9","","4","","","","100.73","","","","-30","","NA"
"-85.01","72.99","ARCTIC BAY CS","2400404","2018-01-26 17:00","2018","01","26","17:00","-25.6","","-28.9","","74","","0.0","","12","","8","","","","100.71","","","","-33","","NA"
"-85.01","72.99","ARCTIC BAY CS","2400404","2018-01-26 18:00","2018","01","26","18:00","-27.5","","-31.4","","69","","0.0","","7","","7","","","","100.71","","","","-34","","NA"
"-85.01","72.99","ARCTIC BAY CS","2400404","2018-01-26 19:00","2018","01","26","19:00","-26.8","","-30.0","","74","","0.0","","12","","3","","","","100.71","","","","-30","","NA"
"-85.01","72.99","ARCTIC BAY CS","2400404","2018-01-26 20:00","2018","01","26","20:00","-27.6","","-30.8","","74","","0.0","","33","","3","","","","100.69","","","","-31","","NA"
"-85.01","72.99","ARCTIC BAY CS","2400404","2018-01-26 21:00","2018","01","26","21:00","-26.3","","-29.8","","73","","0.0","","0","","1","","","","100.69","","","","-27","","NA"
"-85.01","72.99","ARCTIC BAY CS","2400404","2018-01-26 22:00","2018","01","26","22:00","-26.5","","-29.8","","74","","0.0","","3","","4","","","","100.69","","","","-31","","NA"
"-85.01","72.99","ARCTIC BAY CS","2400404","2018-01-26 23:00","2018","01","26","23:00","-27.6","","-30.9","","73","","0.0","","34","","5","","","","100.69","","","","-33","","NA"
"-85.01","72.99","ARCTIC BAY CS","2400404","2018-01-27 00:00","2018","01","27","00:00","-27.1","","-30.1","","75","","0.0","","36","","7","","","","100.64","","","","-34","","NA"
"-85.01","72.99","ARCTIC BAY CS","2400404","2018-01-27 01:00","2018","01","27","01:00","-27.2","","-30.3","","75","","0.0","","13","","2","","","","100.63","","","","-29","","NA"
"-85.01","72.99","ARCTIC BAY CS","2400404","2018-01-27 02:00","2018","01","27","02:00","-27.5","","-30.7","","74","","0.0","","11","","4","","","","100.62","","","","-32","","NA"
"-85.01","72.99","ARCTIC BAY CS","2400404","2018-01-27 03:00","2018","01","27","03:00","-27.1","","-30.0","","76","","0.2","","34","","7","","","","100.60","","","","-34","","NA"
"-85.01","72.99","ARCTIC BAY CS","2400404","2018-01-27 04:00","2018","01","27","04:00","-27.8","","-30.9","","75","","0.0","","34","","13","","","","100.63","","","","-38","","NA"
"-85.01","72.99","ARCTIC BAY CS","2400404","2018-01-27 05:00","2018","01","27","05:00","-27.2","","-30.4","","74","","0.0","","12","","5","","","","100.67","","","","-32","","NA"
"-85.01","72.99","ARCTIC BAY CS","2400404","2018-01-27 06:00","2018","01","27","06:00","-27.5","","-31.5","","68","","0.0","","8","","10","","","","100.71","","","","-36","","NA"
"-85.01","72.99","ARCTIC BAY CS","2400404","2018-01-27 07:00","2018","01","27","07:00","-30.7","","-33.9","","73","","0.0","","25","","1","","","","100.75","","","","-32","","NA"
"-85.01","72.99","ARCTIC BAY CS","2400404","2018-01-27 08:00","2018","01","27","08:00","-28.9","","-32.0","","74","","0.0","","13","","3","","","","100.74","","","","-32","","NA"
"-85.01","72.99","ARCTIC BAY CS","2400404","2018-01-27 09:00","2018","01","27","09:00","-28.7","","-32.6","","69","","0.0","","8","","5","","","","100.74","","","","-34","","NA"
"-85.01","72.99","ARCTIC BAY CS","2400404","2018-01-27 10:00","2018","01","27","10:00","-29.3","","-33.4","","68","","0.0","","9","","11","","","","100.76","","","","-39","","NA"
"-85.01","72.99","ARCTIC BAY CS","2400404","2018-01-27 11:00","2018","01","27","11:00","-31.4","","-34.5","","73","","0.0","","5","","4","","","","100.80","","","","-36","","NA"
"-85.01","72.99","ARCTIC BAY CS","2400404","2018-01-27 12:00","2018","01","27","12:00","-28.5","","-32.4","","69","","0.0","","7","","13","","","","100.77","","","","-39","","NA"
"-85.01","72.99","ARCTIC BAY CS","2400404","2018-01-27 13:00","2018","01","27","13:00","-30.8","","-34.2","","72","","0.0","","11","","6","","","","100.79","","","","-37","","NA"
"-85.01","72.99","ARCTIC BAY CS","2400404","2018-01-27 14:00","2018","01","27","14:00","-29.6","","-33.2","","71","","0.0","","13","","4","","","","100.79","","","","-34","","NA"
"-85.01","72.99","ARCTIC BAY CS","2400404","2018-01-27 15:00","2018","01","27","15:00","-31.9","","-35.6","","70","","0.0","","31","","5","","","","100.83","","","","-38","","NA"
"-85.01","72.99","ARCTIC BAY CS","2400404","2018-01-27 16:00","2018","01","27","16:00","-33.2","","-36.7","","71","","0.0","","22","","1","","","","100.87","","","","-34","","NA"
"-85.01","72.99","ARCTIC BAY CS","2400404","2018-01-27 17:00","2018","01","27","17:00","-33.1","","-36.8","","70","","0.0","","4","","3","","","","100.87","","","","-37","","NA"
"-85.01","72.99","ARCTIC BAY CS","2400404","2018-01-27 18:00","2018","01","27","18:00","-33.2","","-36.5","","72","","0.0","","33","","5","","","","100.89","","","","-39","","NA"
"-85.01","72.99","ARCTIC BAY CS","2400404","2018-01-27 19:00","2018","01","27","19:00","-32.8","","-36.2","","71","","0.0","","36","","5","","","","100.91","","","","-39","","NA"
"-85.01","72.99","ARCTIC BAY CS","2400404","2018-01-27 20:00","2018","01","27","20:00","-31.6","","-35.1","","71","","0.0","","0","","1","","","","100.87","","","","-33","","NA"
"-85.01","72.99","ARCTIC BAY CS","2400404","2018-01-27 21:00","2018","01","27","21:00","-33.6","","-37.3","","70","","0.0","","3","","3","","","","100.86","","","","-37","","NA"
"-85.01","72.99","ARCTIC BAY CS","2400404","2018-01-27 22:00","2018","01","27","22:00","-34.0","","-37.9","","68","","0.0","","33","","5","","","","100.88","","","","-40","","NA"
"-85.01","72.99","ARCTIC BAY CS","2400404","2018-01-27 23:00","2018","01","27","23:00","-32.7","","-36.1","","72","","0.0","","36","","8","","","","100.87","","","","-41","","NA"
"-85.01","72.99","ARCTIC BAY CS","2400404","2018-01-28 00:00","2018","01","28","00:00","-32.7","","-36.3","","70","","0.0","","23","","3","","","","100.83","","","","-36","","NA"
"-85.01","72.99","ARCTIC BAY CS","2400404","2018-01-28 01:00","2018","01","28","01:00","-30.4","","-33.7","","73","","0.0","","13","","7","","","","100.79","","","","-38","","NA"
"-85.01","72.99","ARCTIC BAY CS","2400404","2018-01-28 02:00","2018","01","28","02:00","-31.1","","-34.6","","71","","0.2","","36","","6","","","","100.75","","","","-38","","NA"
"-85.01","72.99","ARCTIC BAY CS","2400404","2018-01-28 03:00","2018","01","28","03:00","-31.1","","-34.5","","72","","0.0","","0","","1","","","","100.76","","","","-32","","NA"
"-85.01","72.99","ARCTIC BAY CS","2400404","2018-01-28 04:00","2018","01","28","04:00","-29.3","","-32.7","","72","","0.0","","0","","1","","","","100.72","","","","-30","","NA"
"-85.01","72.99","ARCTIC BAY CS","2400404","2018-01-28 05:00","2018","01","28","05:00","-28.1","","-31.3","","74","","0.0","","15","","2","","","","100.73","","","","-30","","NA"
"-85.01","72.99","ARCTIC BAY CS","2400404","2018-01-28 06:00","2018","01","28","06:00","-26.8","","-30.0","","75","","0.2","","13","","7","","","","100.70","","","","-34","","NA"
"-85.01","72.99","ARCTIC BAY CS","2400404","2018-01-28 07:00","2018","01","28","07:00","-26.2","","-29.2","","76","","0.0","","12","","5","","","","100.68","","","","-31","","NA"
"-85.01","72.99","ARCTIC BAY CS","2400404","2018-01-28 08:00","2018","01","28","08:00","-26.0","","-29.0","","76","","0.2","","16","","5","","","","100.68","","","","-31","","NA"
"-85.01","72.99","ARCTIC BAY CS","2400404","2018-01-28 09:00","2018","01","28","09:00","-26.5","","-29.4","","76","","0.0","","1","","2","","","","100.68","","","","-29","","NA"
"-85.01","72.99","ARCTIC BAY CS","2400404","2018-01-28 10:00","2018","01","28","10:00","-25.6","","-28.5","","77","","0.0","","31","","8","","","","100.69","","","","-33","","NA"
"-85.01","72.99","ARCTIC BAY CS","2400404","2018-01-28 11:00","2018","01","28","11:00","-26.4","","-29.7","","74","","0.0","","32","","7","","","","100.72","","","","-33","","NA"
"-85.01","72.99","ARCTIC BAY CS","2400404","2018-01-28 12:00","2018","01","28","12:00","-27.1","","-30.4","","74","","0.2","","33","","6","","","","100.74","","","","-33","","NA"
"-85.01","72.99","ARCTIC BAY CS","2400404","2018-01-28 13:00","2018","01","28","13:00","-28.5","","-31.4","","75","","0.0","","33","","8","","","","100.75","","","","-36","","NA"
"-85.01","72.99","ARCTIC BAY CS","2400404","2018-01-28 14:00","2018","01","28","14:00","-27.9","","-31.4","","72","","0.0","","31","","4","","","","100.78","","","","-32","","NA"
"-85.01","72.99","ARCTIC BAY CS","2400404","2018-01-28 15:00","2018","01","28","15:00","-28.2","","-31.7","","72","","0.0","","12","","3","","","","100.84","","","","-31","","NA"
"-85.01","72.99","ARCTIC BAY CS","2400404","2018-01-28 16:00","2018","01","28","16:00","-28.0","","-31.3","","73","","0.0","","","","0","","","","100.89","","","","","","NA"
"-85.01","72.99","ARCTIC BAY CS","2400404","2018-01-28 17:00","2018","01","28","17:00","-28.3","","-31.5","","74","","0.0","","32","","9","","","","100.95","","","","-37","","NA"
"-85.01","72.99","ARCTIC BAY CS","2400404","2018-01-28 18:00","2018","01","28","18:00","-28.4","","-31.7","","73","","0.0","","31","","14","","","","101.00","","","","-39","","NA"
"-85.01","72.99","ARCTIC BAY CS","2400404","2018-01-28 19:00","2018","01","28","19:00","-30.7","","-34.1","","72","","0.0","","31","","9","","","","101.04","","","","-39","","NA"
"-85.01","72.99","ARCTIC BAY CS","2400404","2018-01-28 20:00","2018","01","28","20:00","-30.3","","-33.8","","71","","0.0","","14","","5","","","","101.05","","","","-36","","NA"
"-85.01","72.99","ARCTIC BAY CS","2400404","2018-01-28 21:00","2018","01","28","21:00","-30.1","","-33.6","","71","","0.0","","16","","3","","","","101.08","","","","-33","","NA"
"-85.01","72.99","ARCTIC BAY CS","2400404","2018-01-28 22:00","2018","01","28","22:00","-30.4","","-34.1","","70","","0.0","","14","","6","","","","101.10","","","","-37","","NA"
"-85.01","72.99","ARCTIC BAY CS","2400404","2018-01-28 23:00","2018","01","28","23:00","-29.3","","-32.9","","71","","0.0","","12","","3","","","","101.09","","","","-33","","NA"
"-85.01","72.99","ARCTIC BAY CS","2400404","2018-01-29 00:00","2018","01","29","00:00","-30.9","","-34.7","","70","","0.2","","0","","1","","","","101.12","","","","-32","","NA"
"-85.01","72.99","ARCTIC BAY CS","2400404","2018-01-29 01:00","2018","01","29","01:00","-29.1","","-32.9","","70","","0.0","","8","","4","","","","101.13","","","","-34","","NA"
"-85.01","72.99","ARCTIC BAY CS","2400404","2018-01-29 02:00","2018","01","29","02:00","-28.6","","-32.5","","69","","0.0","","6","","3","","","","101.14","","","","-32","","NA"
"-85.01","72.99","ARCTIC BAY CS","2400404","2018-01-29 03:00","2018","01","29","03:00","-29.1","","-32.8","","71","","0.0","","11","","3","","","","101.15","","","","-32","","NA"
"-85.01","72.99","ARCTIC BAY CS","2400404","2018-01-29 04:00","2018","01","29","04:00","-29.1","","-33.2","","68","","0.0","","11","","5","","","","101.19","","","","-35","","NA"
"-85.01","72.99","ARCTIC BAY CS","2400404","2018-01-29 05:00","2018","01","29","05:00","-28.5","","-32.5","","68","","0.0","","10","","9","","","","101.18","","","","-37","","NA"
"-85.01","72.99","ARCTIC BAY CS","2400404","2018-01-29 06:00","2018","01","29","06:00","-29.2","","-33.5","","67","","0.0","","4","","6","","","","101.19","","","","-36","","NA"
"-85.01","72.99","ARCTIC BAY CS","2400404","2018-01-29 07:00","2018","01","29","07:00","-28.5","","-32.1","","71","","0.0","","12","","3","","","","101.20","","","","-32","","NA"
"-85.01","72.99","ARCTIC BAY CS","2400404","2018-01-29 08:00","2018","01","29","08:00","-28.7","","-32.2","","72","","0.0","","13","","6","","","","101.22","","","","-35","","NA"
"-85.01","72.99","ARCTIC BAY CS","2400404","2018-01-29 09:00","2018","01","29","09:00","-29.1","","-32.5","","72","","0.0","","","","0","","","","101.20","","","","","","NA"
"-85.01","72.99","ARCTIC BAY CS","2400404","2018-01-29 10:00","2018","01","29","10:00","-29.6","","-33.3","","70","","0.0","","13","","3","","","","101.18","","","","-33","","NA"
"-85.01","72.99","ARCTIC BAY CS","2400404","2018-01-29 11:00","2018","01","29","11:00","-28.6","","-32.3","","70","","0.0","","12","","6","","","","101.18","","","","-35","","NA"
"-85.01","72.99","ARCTIC BAY CS","2400404","2018-01-29 12:00","2018","01","29","12:00","-29.5","","-33.1","","71","","0.0","","13","","7","","","","101.15","","","","-37","","NA"
"-85.01","72.99","ARCTIC BAY CS","2400404","2018-01-29 13:00","2018","01","29","13:00","-29.2","","-32.7","","72","","0.0","","15","","3","","","","101.15","","","","-33","","NA"
"-85.01","72.99","ARCTIC BAY CS","2400404","2018-01-29 14:00","2018","01","29","14:00","-29.0","","-32.3","","73","","0.0","","36","","4","","","","101.15","","","","-33","","NA"
"-85.01","72.99","ARCTIC BAY CS","2400404","2018-01-29 15:00","2018","01","29","15:00","-29.1","","-32.2","","74","","0.0","","1","","3","","","","101.17","","","","-32","","NA"
"-85.01","72.99","ARCTIC BAY CS","2400404","2018-01-29 16:00","2018","01","29","16:00","-31.9","","-35.2","","72","","0.0","","11","","2","","","","101.19","","","","-34","","NA"
"-85.01","72.99","ARCTIC BAY CS","2400404","2018-01-29 17:00","2018","01","29","17:00","-32.0","","-35.3","","73","","0.0","","13","","5","","","","101.21","","","","-38","","NA"
"-85.01","72.99","ARCTIC BAY CS","2400404","2018-01-29 18:00","2018","01","29","18:00","-31.8","","-34.9","","74","","0.0","","8","","2","","","","101.22","","","","-34","","NA"
"-85.01","72.99","ARCTIC BAY CS","2400404","2018-01-29 19:00","2018","01","29","19:00","-34.6","","-38.4","","69","","0.0","","3","","2","","","","101.23","","","","-37","","NA"
"-85.01","72.99","ARCTIC BAY CS","2400404","2018-01-29 20:00","2018","01","29","20:00","-32.5","","-35.9","","71","","0.0","","","","0","","","","101.22","","","","","","NA"
"-85.01","72.99","ARCTIC BAY CS","2400404","2018-01-29 21:00","2018","01","29","21:00","-31.5","","-34.6","","74","","0.0","","12","","6","","","","101.22","","","","-38","","NA"
"-85.01","72.99","ARCTIC BAY CS","2400404","2018-01-29 22:00","2018","01","29","22:00","-32.6","","-36.1","","71","","0.0","","17","","4","","","","101.23","","","","-37","","NA"
"-85.01","72.99","ARCTIC BAY CS","2400404","2018-01-29 23:00","2018","01","29","23:00","-32.9","","-36.4","","71","","0.0","","31","","3","","","","101.25","","","","-37","","NA"
"-85.01","72.99","ARCTIC BAY CS","2400404","2018-01-30 00:00","2018","01","30","00:00","-33.7","","-37.3","","71","","0.0","","0","","1","","","","101.26","","","","-35","","NA"
"-85.01","72.99","ARCTIC BAY CS","2400404","2018-01-30 01:00","2018","01","30","01:00","-33.0","","-36.4","","71","","0.0","","34","","5","","","","101.26","","","","-39","","NA"
"-85.01","72.99","ARCTIC BAY CS","2400404","2018-01-30 02:00","2018","01","30","02:00","-33.6","","-37.1","","71","","0.0","","35","","5","","","","101.27","","","","-40","","NA"
"-85.01","72.99","ARCTIC BAY CS","2400404","2018-01-30 03:00","2018","01","30","03:00","-35.9","","-40.0","","66","","0.0","","16","","2","","","","101.32","","","","-38","","NA"
"-85.01","72.99","ARCTIC BAY CS","2400404","2018-01-30 04:00","2018","01","30","04:00","-33.8","","-37.5","","69","","0.0","","35","","4","","","","101.40","","","","-39","","NA"
"-85.01","72.99","ARCTIC BAY CS","2400404","2018-01-30 05:00","2018","01","30","05:00","-34.1","","-37.9","","69","","0.0","","0","","1","","","","101.44","","","","-35","","NA"
"-85.01","72.99","ARCTIC BAY CS","2400404","2018-01-30 06:00","2018","01","30","06:00","-34.8","","-38.5","","69","","0.0","","36","","4","","","","101.49","","","","-40","","NA"
"-85.01","72.99","ARCTIC BAY CS","2400404","2018-01-30 07:00","2018","01","30","07:00","-34.7","","-38.2","","70","","0.2","","36","","5","","","","101.52","","","","-41","","NA"
"-85.01","72.99","ARCTIC BAY CS","2400404","2018-01-30 08:00","2018","01","30","08:00","-36.7","","-40.7","","66","","0.0","","","","0","","","","101.56","","","","","","NA"
"-85.01","72.99","ARCTIC BAY CS","2400404","2018-01-30 09:00","2018","01","30","09:00","-34.7","","-38.4","","69","","0.0","","36","","5","","","","101.57","","","","-41","","NA"
"-85.01","72.99","ARCTIC BAY CS","2400404","2018-01-30 10:00","2018","01","30","10:00","-34.7","","-38.5","","68","","0.0","","0","","1","","","","101.58","","","","-36","","NA"
"-85.01","72.99","ARCTIC BAY CS","2400404","2018-01-30 11:00","2018","01","30","11:00","-34.7","","-38.6","","68","","0.0","","1","","3","","","","101.63","","","","-38","","NA"
"-85.01","72.99","ARCTIC BAY CS","2400404","2018-01-30 12:00","2018","01","30","12:00","-35.7","","-39.3","","69","","0.0","","4","","2","","","","101.64","","","","-38","","NA"
"-85.01","72.99","ARCTIC BAY CS","2400404","2018-01-30 13:00","2018","01","30","13:00","-37.0","","-41.3","","65","","0.0","","36","","5","","","","101.69","","","","-44","","NA"
"-85.01","72.99","ARCTIC BAY CS","2400404","2018-01-30 14:00","2018","01","30","14:00","-36.3","","-40.4","","66","","0.0","","31","","5","","","","101.77","","","","-43","","NA"
"-85.01","72.99","ARCTIC BAY CS","2400404","2018-01-30 15:00","2018","01","30","15:00","-34.7","","-38.5","","69","","0.0","","30","","2","","","","101.82","","","","-37","","NA"
"-85.01","72.99","ARCTIC BAY CS","2400404","2018-01-30 16:00","2018","01","30","16:00","-37.3","","-41.1","","67","","0.0","","29","","4","","","","101.88","","","","-43","","NA"
"-85.01","72.99","ARCTIC BAY CS","2400404","2018-01-30 17:00","2018","01","30","17:00","-37.8","","-42.0","","65","","0.0","","","","0","","","","101.94","","","","","","NA"
"-85.01","72.99","ARCTIC BAY CS","2400404","2018-01-30 18:00","2018","01","30","18:00","-36.1","","-40.4","","64","","0.0","","16","","1","","","","101.98","","","","-37","","NA"
"-85.01","72.99","ARCTIC BAY CS","2400404","2018-01-30 19:00","2018","01","30","19:00","-38.4","","-42.5","","65","","0.0","","4","","2","","","","101.99","","","","-41","","NA"
"-85.01","72.99","ARCTIC BAY CS","2400404","2018-01-30 20:00","2018","01","30","20:00","-37.3","","-41.7","","63","","0.0","","36","","4","","","","102.05","","","","-43","","NA"
"-85.01","72.99","ARCTIC BAY CS","2400404","2018-01-30 21:00","2018","01","30","21:00","-35.8","","-39.7","","67","","0.0","","12","","7","","","","102.08","","","","-44","","NA"
"-85.01","72.99","ARCTIC BAY CS","2400404","2018-01-30 22:00","2018","01","30","22:00","-37.0","","-41.3","","65","","0.0","","33","","2","","","","102.12","","","","-40","","NA"
"-85.01","72.99","ARCTIC BAY CS","2400404","2018-01-30 23:00","2018","01","30","23:00","-37.5","","-41.8","","64","","0.0","","","","0","","","","102.16","","","","","","NA"
"-85.01","72.99","ARCTIC BAY CS","2400404","2018-01-31 00:00","2018","01","31","00:00","-35.8","","-39.7","","67","","0.0","","3","","2","","","","102.18","","","","-38","","NA"
"-85.01","72.99","ARCTIC BAY CS","2400404","2018-01-31 01:00","2018","01","31","01:00","-38.2","","-42.9","","62","","0.0","","3","","3","","","","102.23","","","","-42","","NA"
"-85.01","72.99","ARCTIC BAY CS","2400404","2018-01-31 02:00","2018","01","31","02:00","-36.6","","-40.6","","66","","0.0","","34","","4","","","","102.28","","","","-42","","NA"
"-85.01","72.99","ARCTIC BAY CS","2400404","2018-01-31 03:00","2018","01","31","03:00","-37.5","","-41.6","","66","","0.0","","0","","1","","","","102.32","","","","-39","","NA"
"-85.01","72.99","ARCTIC BAY CS","2400404","2018-01-31 04:00","2018","01","31","04:00","-37.0","","-41.0","","66","","0.0","","16","","1","","","","102.39","","","","-38","","NA"
"-85.01","72.99","ARCTIC BAY CS","2400404","2018-01-31 05:00","2018","01","31","05:00","-36.2","","-39.9","","68","","0.0","","14","","2","","","","102.45","","","","-39","","NA"
"-85.01","72.99","ARCTIC BAY CS","2400404","2018-01-31 06:00","2018","01","31","06:00","-35.7","","-39.7","","67","","0.0","","","","0","","","","102.47","","","","","","NA"
"-85.01","72.99","ARCTIC BAY CS","2400404","2018-01-31 07:00","2018","01","31","07:00","-37.7","","-41.8","","66","","0.0","","17","","1","","","","102.50","","","","-39","","NA"
"-85.01","72.99","ARCTIC BAY CS","2400404","2018-01-31 08:00","2018","01","31","08:00","-35.5","","-39.5","","67","","0.0","","34","","2","","","","102.53","","","","-38","","NA"
"-85.01","72.99","ARCTIC BAY CS","2400404","2018-01-31 09:00","2018","01","31","09:00","-35.8","","-39.8","","67","","0.0","","36","","2","","","","102.57","","","","-38","","NA"
"-85.01","72.99","ARCTIC BAY CS","2400404","2018-01-31 10:00","2018","01","31","10:00","-36.7","","-40.5","","67","","0.0","","17","","2","","","","102.59","","","","-39","","NA"
"-85.01","72.99","ARCTIC BAY CS","2400404","2018-01-31 11:00","2018","01","31","11:00","-35.8","","-39.6","","68","","0.0","","14","","6","","","","102.61","","","","-43","","NA"
"-85.01","72.99","ARCTIC BAY CS","2400404","2018-01-31 12:00","2018","01","31","12:00","-36.5","","-40.6","","66","","0.0","","14","","3","","","","102.62","","","","-40","","NA"
"-85.01","72.99","ARCTIC BAY CS","2400404","2018-01-31 13:00","2018","01","31","13:00","-39.5","","-44.3","","61","","0.0","","15","","1","","","","102.61","","","","-41","","NA"
"-85.01","72.99","ARCTIC BAY CS","2400404","2018-01-31 14:00","2018","01","31","14:00","-39.5","","-44.2","","61","","0.0","","0","","1","","","","102.60","","","","-41","","NA"
"-85.01","72.99","ARCTIC BAY CS","2400404","2018-01-31 15:00","2018","01","31","15:00","-38.3","","-42.6","","64","","0.0","","0","","1","","","","102.60","","","","-40","","NA"
"-85.01","72.99","ARCTIC BAY CS","2400404","2018-01-31 16:00","2018","01","31","16:00","-39.8","","-44.5","","61","","0.0","","0","","1","","","","102.60","","","","-41","","NA"
"-85.01","72.99","ARCTIC BAY CS","2400404","2018-01-31 17:00","2018","01","31","17:00","-39.3","","-43.6","","64","","0.0","","5","","2","","","","102.61","","","","-42","","NA"
"-85.01","72.99","ARCTIC BAY CS","2400404","2018-01-31 18:00","2018","01","31","18:00","-35.3","","-39.1","","68","","0.0","","12","","6","","","","102.57","","","","-43","","NA"
"-85.01","72.99","ARCTIC BAY CS","2400404","2018-01-31 19:00","2018","01","31","19:00","-39.5","","-44.3","","61","","0.0","","13","","4","","","","102.52","","","","-45","","NA"
"-85.01","72.99","ARCTIC BAY CS","2400404","2018-01-31 20:00","2018","01","31","20:00","-35.9","","-39.7","","68","","0.0","","14","","3","","","","102.45","","","","-40","","NA"
"-85.01","72.99","ARCTIC BAY CS","2400404","2018-01-31 21:00","2018","01","31","21:00","-39.0","","-43.2","","64","","0.0","","14","","1","","","","102.36","","","","-40","","NA"
"-85.01","72.99","ARCTIC BAY CS","2400404","2018-01-31 22:00","2018","01","31","22:00","-40.0","","-44.8","","60","","0.0","","32","","3","","","","102.28","","","","-44","","NA"
"-85.01","72.99","ARCTIC BAY CS","2400404","2018-01-31 23:00","2018","01","31","23:00","-37.7","","-41.8","","65","","0.0","","36","","4","","","","102.18","","","","-43","","NA"
