"Longitude (x)","Latitude (y)","Station Name","Climate ID","Date/Time (LST)","Year","Month","Day","Time (LST)","Temp (°C)","Temp Flag","Dew Point Temp (°C)","Dew Point Temp Flag","Rel Hum (%)","Rel Hum Flag","Precip. Amount (mm)","Precip. Amount Flag","Wind Dir (10s deg)","Wind Dir Flag","Wind Spd (km/h)","Wind Spd Flag","Visibility (km)","Visibility Flag","Stn Press (kPa)","Stn Press Flag","Hmdx","Hmdx Flag","Wind Chill","Wind Chill Flag","Weather"
"-55.33","47.14","WINTERLAND BRANCH HILL","8404242","2019-02-01 00:00","2019","02","01","00:00","-8.0","","-14.0","","62","","0.0","","26","","31","","","","100.64","","","","-17","","NA"
"-55.33","47.14","WINTERLAND BRANCH HILL","8404242","2019-02-01 01:00","2019","02","01","01:00","-8.5","","-12.7","","72","","0.0","","25","","24","","","","100.63","","","","-17","","NA"
"-55.33","47.14","WINTERLAND BRANCH HILL","8404242","2019-02-01 02:00","2019","02","01","02:00","-7.7","","-15.5","","53","","0.0","","26","","30","","","","100.64","","","","-17","","NA"
"-55.33","47.14","WINTERLAND BRANCH HILL","8404242","2019-02-01 03:00","2019","02","01","03:00","-7.4","","-13.4","","62","","0.0","","26","","30","","","","100.62","","","","-16","","NA"
"-55.33","47.14","WINTERLAND BRANCH HILL","8404242","2019-02-01 04:00","2019","02","01","04:00","-7.3","","-14.4","","57","","0.0","","26","","31","","","","100.64","","","","-16","","NA"
"-55.33","47.14","WINTERLAND BRANCH HILL","8404242","2019-02-01 05:00","2019","02","01","05:00","-8.4","","-11.5","","78","","0.0","","26","","30","","","","100.70","","","","-17","","NA"
"-55.33","47.14","WINTERLAND BRANCH HILL","8404242","2019-02-01 06:00","2019","02","01","06:00","-9.3","","-12.3","","79","","0.0","","26","","37","","","","100.76","","","","-19","","NA"
"-55.33","47.14","WINTERLAND BRANCH HILL","8404242","2019-02-01 07:00","2019","02","01","07:00","-10.1","","-12.3","","84","","0.3","","26","","28","","","","100.83","","","","-19","","NA"
"-55.33","47.14","WINTERLAND BRANCH HILL","8404242","2019-02-01 08:00","2019","02","01","08:00","-9.7","","-13.0","","77","","0.0","","26","","28","","","","100.88","","","","-19","","NA"
"-55.33","47.14","WINTERLAND BRANCH HILL","8404242","2019-02-01 09:00","2019","02","01","09:00","-9.5","","-13.3","","74","","0.0","","24","","36","","","","100.91","","","","-20","","NA"
"-55.33","47.14","WINTERLAND BRANCH HILL","8404242","2019-02-01 10:00","2019","02","01","10:00","-9.4","","-12.7","","77","","0.0","","25","","33","","","","100.96","","","","-19","","NA"
"-55.33","47.14","WINTERLAND BRANCH HILL","8404242","2019-02-01 11:00","2019","02","01","11:00","-9.2","","-14.0","","68","","0.0","","25","","41","","","","100.97","","","","-20","","NA"
"-55.33","47.14","WINTERLAND BRANCH HILL","8404242","2019-02-01 12:00","2019","02","01","12:00","-9.6","","-14.1","","70","","0.0","","26","","43","","","","100.93","","","","-21","","NA"
"-55.33","47.14","WINTERLAND BRANCH HILL","8404242","2019-02-01 13:00","2019","02","01","13:00","-8.9","","-18.1","","48","","0.2","","27","","48","","","","100.90","","","","-20","","NA"
"-55.33","47.14","WINTERLAND BRANCH HILL","8404242","2019-02-01 14:00","2019","02","01","14:00","-9.7","","-14.1","","70","","0.0","","27","","36","","","","100.90","","","","-20","","NA"
"-55.33","47.14","WINTERLAND BRANCH HILL","8404242","2019-02-01 15:00","2019","02","01","15:00","-9.7","","-14.3","","69","","0.0","","26","","35","","","","100.89","","","","-20","","NA"
"-55.33","47.14","WINTERLAND BRANCH HILL","8404242","2019-02-01 16:00","2019","02","01","16:00","-8.7","","-14.1","","65","","0.0","","25","","34","","","","100.85","","","","-18","","NA"
"-55.33","47.14","WINTERLAND BRANCH HILL","8404242","2019-02-01 17:00","2019","02","01","17:00","-8.9","","-13.1","","71","","0.0","","26","","30","","","","100.80","","","","-18","","NA"
"-55.33","47.14","WINTERLAND BRANCH HILL","8404242","2019-02-01 18:00","2019","02","01","18:00","-8.6","","-10.9","","84","","0.0","","24","","20","","","","100.75","","","","-16","","NA"
"-55.33","47.14","WINTERLAND BRANCH HILL","8404242","2019-02-01 19:00","2019","02","01","19:00","-7.4","","-9.3","","86","","0.3","","25","","30","","","","100.72","","","","-16","","NA"
"-55.33","47.14","WINTERLAND BRANCH HILL","8404242","2019-02-01 20:00","2019","02","01","20:00","-7.6","","-9.4","","86","","0.3","","27","","30","","","","100.69","","","","-16","","NA"
"-55.33","47.14","WINTERLAND BRANCH HILL","8404242","2019-02-01 21:00","2019","02","01","21:00","-7.7","","-10.7","","79","","0.0","","27","","24","","","","100.69","","","","-16","","NA"
"-55.33","47.14","WINTERLAND BRANCH HILL","8404242","2019-02-01 22:00","2019","02","01","22:00","-7.2","","-11.2","","73","","0.0","","27","","25","","","","100.67","","","","-15","","NA"
"-55.33","47.14","WINTERLAND BRANCH HILL","8404242","2019-02-01 23:00","2019","02","01","23:00","-7.5","","-11.8","","71","","0.0","","26","","31","","","","100.67","","","","-16","","NA"
"-55.33","47.14","WINTERLAND BRANCH HILL","8404242","2019-02-02 00:00","2019","02","02","00:00","-7.8","","-11.9","","72","","0.0","","25","","22","","","","100.62","","","","-15","","NA"
"-55.33","47.14","WINTERLAND BRANCH HILL","8404242","2019-02-02 01:00","2019","02","02","01:00","-7.6","","-12.7","","67","","0.0","","25","","26","","","","100.54","","","","-16","","NA"
"-55.33","47.14","WINTERLAND BRANCH HILL","8404242","2019-02-02 02:00","2019","02","02","02:00","-7.9","","-12.0","","72","","0.0","","25","","29","","","","100.54","","","","-17","","NA"
"-55.33","47.14","WINTERLAND BRANCH HILL","8404242","2019-02-02 03:00","2019","02","02","03:00","-7.2","","-12.4","","66","","0.0","","26","","30","","","","100.48","","","","-16","","NA"
"-55.33","47.14","WINTERLAND BRANCH HILL","8404242","2019-02-02 04:00","2019","02","02","04:00","-7.7","","-11.0","","77","","0.0","","25","","24","","","","100.46","","","","-16","","NA"
"-55.33","47.14","WINTERLAND BRANCH HILL","8404242","2019-02-02 05:00","2019","02","02","05:00","-7.5","","-10.9","","76","","0.0","","25","","20","","","","100.41","","","","-15","","NA"
"-55.33","47.14","WINTERLAND BRANCH HILL","8404242","2019-02-02 06:00","2019","02","02","06:00","-7.8","","-10.6","","81","","0.0","","25","","30","","","","100.37","","","","-17","","NA"
"-55.33","47.14","WINTERLAND BRANCH HILL","8404242","2019-02-02 07:00","2019","02","02","07:00","-7.8","","-10.4","","82","","0.2","","26","","24","","","","100.39","","","","-16","","NA"
"-55.33","47.14","WINTERLAND BRANCH HILL","8404242","2019-02-02 08:00","2019","02","02","08:00","-7.6","","-10.3","","81","","0.0","","25","","26","","","","100.41","","","","-16","","NA"
"-55.33","47.14","WINTERLAND BRANCH HILL","8404242","2019-02-02 09:00","2019","02","02","09:00","-7.5","","-10.1","","82","","0.2","","26","","30","","","","100.40","","","","-16","","NA"
"-55.33","47.14","WINTERLAND BRANCH HILL","8404242","2019-02-02 10:00","2019","02","02","10:00","-6.4","","-12.1","","64","","0.0","","27","","32","","","","100.38","","","","-15","","NA"
"-55.33","47.14","WINTERLAND BRANCH HILL","8404242","2019-02-02 11:00","2019","02","02","11:00","-6.8","","-11.3","","70","","0.0","","27","","36","","","","100.33","","","","-16","","NA"
"-55.33","47.14","WINTERLAND BRANCH HILL","8404242","2019-02-02 12:00","2019","02","02","12:00","-6.5","","-13.5","","57","","0.0","","26","","33","","","","100.27","","","","-15","","NA"
"-55.33","47.14","WINTERLAND BRANCH HILL","8404242","2019-02-02 13:00","2019","02","02","13:00","-7.7","","-10.0","","84","","0.0","","27","","31","","","","100.22","","","","-17","","NA"
"-55.33","47.14","WINTERLAND BRANCH HILL","8404242","2019-02-02 14:00","2019","02","02","14:00","-7.6","","-10.6","","79","","0.0","","26","","30","","","","100.21","","","","-16","","NA"
"-55.33","47.14","WINTERLAND BRANCH HILL","8404242","2019-02-02 15:00","2019","02","02","15:00","-7.1","","-12.4","","66","","0.0","","26","","28","","","","100.22","","","","-15","","NA"
"-55.33","47.14","WINTERLAND BRANCH HILL","8404242","2019-02-02 16:00","2019","02","02","16:00","-7.4","","-13.2","","63","","0.0","","27","","30","","","","100.21","","","","-16","","NA"
"-55.33","47.14","WINTERLAND BRANCH HILL","8404242","2019-02-02 17:00","2019","02","02","17:00","-8.1","","-11.5","","76","","0.0","","24","","18","","","","100.22","","","","-15","","NA"
"-55.33","47.14","WINTERLAND BRANCH HILL","8404242","2019-02-02 18:00","2019","02","02","18:00","-8.6","","-11.3","","81","","0.0","","22","","15","","","","100.19","","","","-15","","NA"
"-55.33","47.14","WINTERLAND BRANCH HILL","8404242","2019-02-02 19:00","2019","02","02","19:00","-7.8","","-11.0","","78","","0.0","","25","","20","","","","100.15","","","","-15","","NA"
"-55.33","47.14","WINTERLAND BRANCH HILL","8404242","2019-02-02 20:00","2019","02","02","20:00","-7.3","","-10.6","","77","","0.0","","23","","16","","","","100.08","","","","-14","","NA"
"-55.33","47.14","WINTERLAND BRANCH HILL","8404242","2019-02-02 21:00","2019","02","02","21:00","-7.2","","-9.3","","85","","0.0","","23","","14","","","","100.00","","","","-13","","NA"
"-55.33","47.14","WINTERLAND BRANCH HILL","8404242","2019-02-02 22:00","2019","02","02","22:00","-6.9","","-9.5","","82","","0.0","","24","","10","","","","99.94","","","","-12","","NA"
"-55.33","47.14","WINTERLAND BRANCH HILL","8404242","2019-02-02 23:00","2019","02","02","23:00","-7.0","","-9.1","","85","","0.3","","26","","20","","","","99.89","","","","-14","","NA"
"-55.33","47.14","WINTERLAND BRANCH HILL","8404242","2019-02-03 00:00","2019","02","03","00:00","-7.2","","-9.1","","87","","0.0","","26","","16","","","","99.82","","","","-14","","NA"
"-55.33","47.14","WINTERLAND BRANCH HILL","8404242","2019-02-03 01:00","2019","02","03","01:00","-7.2","","-8.4","","91","","0.3","","26","","8","","","","99.69","","","","-11","","NA"
"-55.33","47.14","WINTERLAND BRANCH HILL","8404242","2019-02-03 02:00","2019","02","03","02:00","-7.1","","-8.3","","91","","0.5","","23","","9","","","","99.61","","","","-11","","NA"
"-55.33","47.14","WINTERLAND BRANCH HILL","8404242","2019-02-03 03:00","2019","02","03","03:00","-6.8","","-8.3","","89","","0.2","","25","","16","","","","99.51","","","","-13","","NA"
"-55.33","47.14","WINTERLAND BRANCH HILL","8404242","2019-02-03 04:00","2019","02","03","04:00","-6.6","","-7.9","","91","","0.3","","26","","19","","","","99.46","","","","-13","","NA"
"-55.33","47.14","WINTERLAND BRANCH HILL","8404242","2019-02-03 05:00","2019","02","03","05:00","-7.5","","-9.0","","89","","0.3","","35","","18","","","","99.44","","","","-14","","NA"
"-55.33","47.14","WINTERLAND BRANCH HILL","8404242","2019-02-03 06:00","2019","02","03","06:00","-8.5","","-10.9","","83","","0.3","","35","","22","","","","99.47","","","","-16","","NA"
"-55.33","47.14","WINTERLAND BRANCH HILL","8404242","2019-02-03 07:00","2019","02","03","07:00","-9.3","","-12.2","","80","","0.0","","32","","14","","","","99.61","","","","-16","","NA"
"-55.33","47.14","WINTERLAND BRANCH HILL","8404242","2019-02-03 08:00","2019","02","03","08:00","-9.1","","-14.5","","65","","0.0","","31","","20","","","","99.68","","","","-17","","NA"
"-55.33","47.14","WINTERLAND BRANCH HILL","8404242","2019-02-03 09:00","2019","02","03","09:00","-7.6","","-14.2","","60","","0.3","","31","","20","","","","99.76","","","","-15","","NA"
"-55.33","47.14","WINTERLAND BRANCH HILL","8404242","2019-02-03 10:00","2019","02","03","10:00","-7.4","","-13.6","","61","","0.0","","32","","27","","","","99.81","","","","-16","","NA"
"-55.33","47.14","WINTERLAND BRANCH HILL","8404242","2019-02-03 11:00","2019","02","03","11:00","-6.4","","-13.5","","57","","0.0","","30","","34","","","","99.84","","","","-15","","NA"
"-55.33","47.14","WINTERLAND BRANCH HILL","8404242","2019-02-03 12:00","2019","02","03","12:00","-6.3","","-12.2","","63","","0.0","","30","","38","","","","99.82","","","","-16","","NA"
"-55.33","47.14","WINTERLAND BRANCH HILL","8404242","2019-02-03 13:00","2019","02","03","13:00","-5.9","","-10.7","","69","","0.0","","30","","28","","","","99.79","","","","-14","","NA"
"-55.33","47.14","WINTERLAND BRANCH HILL","8404242","2019-02-03 14:00","2019","02","03","14:00","-6.6","","-9.7","","78","","0.2","","28","","35","","","","99.80","","","","-16","","NA"
"-55.33","47.14","WINTERLAND BRANCH HILL","8404242","2019-02-03 15:00","2019","02","03","15:00","-7.1","","-8.8","","88","","0.0","","29","","46","","","","99.81","","","","-17","","NA"
"-55.33","47.14","WINTERLAND BRANCH HILL","8404242","2019-02-03 16:00","2019","02","03","16:00","-7.6","","-9.1","","89","","0.6","","30","","35","","","","99.90","","","","-17","","NA"
"-55.33","47.14","WINTERLAND BRANCH HILL","8404242","2019-02-03 17:00","2019","02","03","17:00","-7.6","","-12.0","","71","","0.5","","30","","40","","","","100.02","","","","-18","","NA"
"-55.33","47.14","WINTERLAND BRANCH HILL","8404242","2019-02-03 18:00","2019","02","03","18:00","-8.7","","-13.6","","67","","0.0","","30","","38","","","","100.22","","","","-19","","NA"
"-55.33","47.14","WINTERLAND BRANCH HILL","8404242","2019-02-03 19:00","2019","02","03","19:00","-10.3","","-16.4","","61","","0.0","","31","","39","","","","100.42","","","","-21","","NA"
"-55.33","47.14","WINTERLAND BRANCH HILL","8404242","2019-02-03 20:00","2019","02","03","20:00","-10.9","","-17.3","","60","","0.0","","32","","39","","","","100.63","","","","-22","","NA"
"-55.33","47.14","WINTERLAND BRANCH HILL","8404242","2019-02-03 21:00","2019","02","03","21:00","-11.1","","-17.6","","58","","0.0","","32","","34","","","","100.82","","","","-22","","NA"
"-55.33","47.14","WINTERLAND BRANCH HILL","8404242","2019-02-03 22:00","2019","02","03","22:00","-11.6","","-17.8","","60","","0.0","","32","","27","","","","100.92","","","","-21","","NA"
"-55.33","47.14","WINTERLAND BRANCH HILL","8404242","2019-02-03 23:00","2019","02","03","23:00","-12.1","","-17.1","","66","","0.0","","32","","21","","","","101.05","","","","-21","","NA"
"-55.33","47.14","WINTERLAND BRANCH HILL","8404242","2019-02-04 00:00","2019","02","04","00:00","-11.2","","-16.0","","68","","0.0","","31","","29","","","","101.13","","","","-21","","NA"
"-55.33","47.14","WINTERLAND BRANCH HILL","8404242","2019-02-04 01:00","2019","02","04","01:00","-11.3","","-15.7","","70","","0.0","","31","","15","","","","101.21","","","","-18","","NA"
"-55.33","47.14","WINTERLAND BRANCH HILL","8404242","2019-02-04 02:00","2019","02","04","02:00","-11.1","","-15.3","","71","","0.0","","28","","14","","","","101.32","","","","-18","","NA"
"-55.33","47.14","WINTERLAND BRANCH HILL","8404242","2019-02-04 03:00","2019","02","04","03:00","-11.0","","-13.7","","80","","0.0","","29","","16","","","","101.36","","","","-18","","NA"
"-55.33","47.14","WINTERLAND BRANCH HILL","8404242","2019-02-04 04:00","2019","02","04","04:00","-11.3","","-14.2","","79","","0.0","","29","","18","","","","101.41","","","","-19","","NA"
"-55.33","47.14","WINTERLAND BRANCH HILL","8404242","2019-02-04 05:00","2019","02","04","05:00","-12.1","","-14.4","","83","","0.0","","28","","13","","","","101.50","","","","-19","","NA"
"-55.33","47.14","WINTERLAND BRANCH HILL","8404242","2019-02-04 06:00","2019","02","04","06:00","-12.6","","-14.9","","83","","0.0","","26","","8","","","","101.54","","","","-18","","NA"
"-55.33","47.14","WINTERLAND BRANCH HILL","8404242","2019-02-04 07:00","2019","02","04","07:00","-11.9","","-14.1","","84","","0.0","","25","","8","","","","101.61","","","","-17","","NA"
"-55.33","47.14","WINTERLAND BRANCH HILL","8404242","2019-02-04 08:00","2019","02","04","08:00","-10.0","","-12.6","","81","","0.0","","26","","5","","","","101.67","","","","-13","","NA"
"-55.33","47.14","WINTERLAND BRANCH HILL","8404242","2019-02-04 09:00","2019","02","04","09:00","-6.0","","-10.1","","73","","0.0","","25","","15","","","","101.64","","","","-12","","NA"
"-55.33","47.14","WINTERLAND BRANCH HILL","8404242","2019-02-04 10:00","2019","02","04","10:00","-5.1","","-9.6","","70","","0.0","","24","","9","","","","101.62","","","","-9","","NA"
"-55.33","47.14","WINTERLAND BRANCH HILL","8404242","2019-02-04 11:00","2019","02","04","11:00","-4.1","","-8.6","","71","","0.0","","22","","12","","","","101.53","","","","-9","","NA"
"-55.33","47.14","WINTERLAND BRANCH HILL","8404242","2019-02-04 12:00","2019","02","04","12:00","-3.2","","-8.2","","68","","0.0","","23","","22","","","","101.48","","","","-10","","NA"
"-55.33","47.14","WINTERLAND BRANCH HILL","8404242","2019-02-04 13:00","2019","02","04","13:00","-3.2","","-7.5","","72","","0.0","","22","","22","","","","101.36","","","","-10","","NA"
"-55.33","47.14","WINTERLAND BRANCH HILL","8404242","2019-02-04 14:00","2019","02","04","14:00","-2.9","","-7.2","","72","","0.0","","22","","20","","","","101.32","","","","-9","","NA"
"-55.33","47.14","WINTERLAND BRANCH HILL","8404242","2019-02-04 15:00","2019","02","04","15:00","-3.1","","-7.0","","74","","0.0","","23","","21","","","","101.23","","","","-9","","NA"
"-55.33","47.14","WINTERLAND BRANCH HILL","8404242","2019-02-04 16:00","2019","02","04","16:00","-3.1","","-6.8","","76","","0.0","","23","","18","","","","101.15","","","","-9","","NA"
"-55.33","47.14","WINTERLAND BRANCH HILL","8404242","2019-02-04 17:00","2019","02","04","17:00","-2.8","","-4.6","","88","","0.0","","22","","11","","","","101.04","","","","-7","","NA"
"-55.33","47.14","WINTERLAND BRANCH HILL","8404242","2019-02-04 18:00","2019","02","04","18:00","-1.8","","-3.5","","88","","0.0","","22","","21","","","","100.91","","","","-8","","NA"
"-55.33","47.14","WINTERLAND BRANCH HILL","8404242","2019-02-04 19:00","2019","02","04","19:00","-0.9","","-2.0","","92","","0.0","","21","","25","","","","100.81","","","","-7","","NA"
"-55.33","47.14","WINTERLAND BRANCH HILL","8404242","2019-02-04 20:00","2019","02","04","20:00","-0.7","","-1.6","","94","","0.0","","23","","21","","","","100.73","","","","-6","","NA"
"-55.33","47.14","WINTERLAND BRANCH HILL","8404242","2019-02-04 21:00","2019","02","04","21:00","-0.3","","-0.9","","96","","0.5","","24","","21","","","","100.70","","","","-6","","NA"
"-55.33","47.14","WINTERLAND BRANCH HILL","8404242","2019-02-04 22:00","2019","02","04","22:00","0.3","","-0.3","","95","","0.2","","27","","26","","","","100.66","","","","","","NA"
"-55.33","47.14","WINTERLAND BRANCH HILL","8404242","2019-02-04 23:00","2019","02","04","23:00","0.3","","-0.5","","94","","0.0","","28","","28","","","","100.66","","","","","","NA"
"-55.33","47.14","WINTERLAND BRANCH HILL","8404242","2019-02-05 00:00","2019","02","05","00:00","0.1","","-0.9","","93","","0.0","","28","","25","","","","100.68","","","","","","NA"
"-55.33","47.14","WINTERLAND BRANCH HILL","8404242","2019-02-05 01:00","2019","02","05","01:00","-0.1","","-1.3","","92","","0.0","","28","","29","","","","100.74","","","","-6","","NA"
"-55.33","47.14","WINTERLAND BRANCH HILL","8404242","2019-02-05 02:00","2019","02","05","02:00","-0.8","","-2.5","","88","","0.0","","28","","28","","","","100.81","","","","-7","","NA"
"-55.33","47.14","WINTERLAND BRANCH HILL","8404242","2019-02-05 03:00","2019","02","05","03:00","-1.0","","-2.8","","88","","0.0","","29","","24","","","","100.87","","","","-7","","NA"
"-55.33","47.14","WINTERLAND BRANCH HILL","8404242","2019-02-05 04:00","2019","02","05","04:00","-1.7","","-4.6","","80","","0.0","","31","","17","","","","100.90","","","","-7","","NA"
"-55.33","47.14","WINTERLAND BRANCH HILL","8404242","2019-02-05 05:00","2019","02","05","05:00","-2.7","","-5.5","","81","","0.0","","32","","12","","","","101.04","","","","-7","","NA"
"-55.33","47.14","WINTERLAND BRANCH HILL","8404242","2019-02-05 06:00","2019","02","05","06:00","-3.6","","-5.7","","85","","0.0","","29","","6","","","","101.13","","","","-6","","NA"
"-55.33","47.14","WINTERLAND BRANCH HILL","8404242","2019-02-05 07:00","2019","02","05","07:00","-4.5","","-6.4","","87","","0.0","","31","","9","","","","101.17","","","","-8","","NA"
"-55.33","47.14","WINTERLAND BRANCH HILL","8404242","2019-02-05 08:00","2019","02","05","08:00","-3.5","","-5.6","","86","","0.0","","29","","7","","","","101.29","","","","-6","","NA"
"-55.33","47.14","WINTERLAND BRANCH HILL","8404242","2019-02-05 09:00","2019","02","05","09:00","-2.2","","-4.7","","83","","0.0","","25","","4","","","","101.36","","","","-4","","NA"
"-55.33","47.14","WINTERLAND BRANCH HILL","8404242","2019-02-05 10:00","2019","02","05","10:00","-0.8","","-5.1","","73","","0.0","","26","","11","","","","101.42","","","","-5","","NA"
"-55.33","47.14","WINTERLAND BRANCH HILL","8404242","2019-02-05 11:00","2019","02","05","11:00","-0.7","","-5.4","","70","","0.0","","28","","3","","","","101.38","","","","-2","","NA"
"-55.33","47.14","WINTERLAND BRANCH HILL","8404242","2019-02-05 12:00","2019","02","05","12:00","-0.4","","-5.9","","66","","0.0","","22","","12","","","","101.35","","","","-4","","NA"
"-55.33","47.14","WINTERLAND BRANCH HILL","8404242","2019-02-05 13:00","2019","02","05","13:00","-0.5","","-5.7","","68","","0.0","","21","","10","","","","101.31","","","","-4","","NA"
"-55.33","47.14","WINTERLAND BRANCH HILL","8404242","2019-02-05 14:00","2019","02","05","14:00","-0.7","","-4.9","","73","","0.0","","21","","15","","","","101.28","","","","-5","","NA"
"-55.33","47.14","WINTERLAND BRANCH HILL","8404242","2019-02-05 15:00","2019","02","05","15:00","-0.8","","-4.6","","75","","0.0","","18","","14","","","","101.17","","","","-5","","NA"
"-55.33","47.14","WINTERLAND BRANCH HILL","8404242","2019-02-05 16:00","2019","02","05","16:00","-0.7","","-3.7","","80","","0.0","","16","","12","","","","101.07","","","","-5","","NA"
"-55.33","47.14","WINTERLAND BRANCH HILL","8404242","2019-02-05 17:00","2019","02","05","17:00","-0.9","","-3.5","","82","","0.0","","15","","19","","","","101.00","","","","-6","","NA"
"-55.33","47.14","WINTERLAND BRANCH HILL","8404242","2019-02-05 18:00","2019","02","05","18:00","-0.9","","-3.0","","86","","0.0","","15","","19","","","","100.98","","","","-6","","NA"
"-55.33","47.14","WINTERLAND BRANCH HILL","8404242","2019-02-05 19:00","2019","02","05","19:00","-0.5","","-2.7","","85","","0.0","","15","","20","","","","100.85","","","","-6","","NA"
"-55.33","47.14","WINTERLAND BRANCH HILL","8404242","2019-02-05 20:00","2019","02","05","20:00","-0.1","","-1.0","","94","","","M","12","","19","","","","100.77","","","","-5","","NA"
"-55.33","47.14","WINTERLAND BRANCH HILL","8404242","2019-02-05 21:00","2019","02","05","21:00","0.5","","0.0","","97","","","M","13","","13","","","","100.68","","","","","","NA"
"-55.33","47.14","WINTERLAND BRANCH HILL","8404242","2019-02-05 22:00","2019","02","05","22:00","1.3","","0.8","","96","","","M","13","","15","","","","100.56","","","","","","NA"
"-55.33","47.14","WINTERLAND BRANCH HILL","8404242","2019-02-05 23:00","2019","02","05","23:00","2.3","","2.0","","97","","","M","11","","14","","","","100.41","","","","","","NA"
"-55.33","47.14","WINTERLAND BRANCH HILL","8404242","2019-02-06 00:00","2019","02","06","00:00","4.3","","4.1","","99","","","M","6","","8","","","","100.31","","","","","","NA"
"-55.33","47.14","WINTERLAND BRANCH HILL","8404242","2019-02-06 01:00","2019","02","06","01:00","4.4","","4.3","","99","","","M","19","","6","","","","100.20","","","","","","NA"
"-55.33","47.14","WINTERLAND BRANCH HILL","8404242","2019-02-06 02:00","2019","02","06","02:00","5.3","","4.8","","97","","","M","23","","14","","","","100.12","","","","","","NA"
"-55.33","47.14","WINTERLAND BRANCH HILL","8404242","2019-02-06 03:00","2019","02","06","03:00","5.0","","4.7","","97","","","M","24","","6","","","","100.07","","","","","","NA"
"-55.33","47.14","WINTERLAND BRANCH HILL","8404242","2019-02-06 04:00","2019","02","06","04:00","4.5","","4.3","","98","","","M","30","","2","","","","100.04","","","","","","NA"
"-55.33","47.14","WINTERLAND BRANCH HILL","8404242","2019-02-06 05:00","2019","02","06","05:00","4.3","","4.1","","99","","","M","19","","6","","","","99.97","","","","","","NA"
"-55.33","47.14","WINTERLAND BRANCH HILL","8404242","2019-02-06 06:00","2019","02","06","06:00","3.5","","3.1","","97","","","M","25","","13","","","","99.95","","","","","","NA"
"-55.33","47.14","WINTERLAND BRANCH HILL","8404242","2019-02-06 07:00","2019","02","06","07:00","3.1","","2.7","","98","","","M","29","","14","","","","100.02","","","","","","NA"
"-55.33","47.14","WINTERLAND BRANCH HILL","8404242","2019-02-06 08:00","2019","02","06","08:00","2.4","","2.2","","98","","","M","31","","12","","","","100.08","","","","","","NA"
"-55.33","47.14","WINTERLAND BRANCH HILL","8404242","2019-02-06 09:00","2019","02","06","09:00","1.9","","1.7","","99","","","M","29","","18","","","","100.13","","","","","","NA"
"-55.33","47.14","WINTERLAND BRANCH HILL","8404242","2019-02-06 10:00","2019","02","06","10:00","2.6","","2.3","","98","","","M","30","","17","","","","100.18","","","","","","NA"
"-55.33","47.14","WINTERLAND BRANCH HILL","8404242","2019-02-06 11:00","2019","02","06","11:00","3.5","","2.3","","92","","","M","36","","24","","","","100.25","","","","","","NA"
"-55.33","47.14","WINTERLAND BRANCH HILL","8404242","2019-02-06 12:00","2019","02","06","12:00","2.9","","1.4","","90","","","M","1","","22","","","","100.34","","","","","","NA"
"-55.33","47.14","WINTERLAND BRANCH HILL","8404242","2019-02-06 13:00","2019","02","06","13:00","1.8","","-0.2","","87","","","M","1","","21","","","","100.44","","","","","","NA"
"-55.33","47.14","WINTERLAND BRANCH HILL","8404242","2019-02-06 14:00","2019","02","06","14:00","1.1","","-1.8","","82","","","M","1","","25","","","","100.52","","","","","","NA"
"-55.33","47.14","WINTERLAND BRANCH HILL","8404242","2019-02-06 15:00","2019","02","06","15:00","0.0","","-2.9","","81","","","M","1","","28","","","","100.69","","","","-6","","NA"
"-55.33","47.14","WINTERLAND BRANCH HILL","8404242","2019-02-06 16:00","2019","02","06","16:00","-1.2","","-3.6","","84","","","M","1","","24","","","","100.86","","","","-7","","NA"
"-55.33","47.14","WINTERLAND BRANCH HILL","8404242","2019-02-06 17:00","2019","02","06","17:00","-1.8","","-4.4","","83","","","M","2","","21","","","","100.99","","","","-8","","NA"
"-55.33","47.14","WINTERLAND BRANCH HILL","8404242","2019-02-06 18:00","2019","02","06","18:00","-2.5","","-4.8","","84","","","M","2","","17","","","","101.13","","","","-8","","NA"
"-55.33","47.14","WINTERLAND BRANCH HILL","8404242","2019-02-06 19:00","2019","02","06","19:00","-3.0","","-5.4","","84","","","M","4","","15","","","","101.30","","","","-8","","NA"
"-55.33","47.14","WINTERLAND BRANCH HILL","8404242","2019-02-06 20:00","2019","02","06","20:00","-3.8","","-6.5","","81","","","M","2","","21","","","","101.40","","","","-10","","NA"
"-55.33","47.14","WINTERLAND BRANCH HILL","8404242","2019-02-06 21:00","2019","02","06","21:00","-5.0","","-7.4","","83","","","M","1","","24","","","","101.52","","","","-12","","NA"
"-55.33","47.14","WINTERLAND BRANCH HILL","8404242","2019-02-06 22:00","2019","02","06","22:00","-5.7","","-8.4","","81","","","M","1","","20","","","","101.67","","","","-12","","NA"
"-55.33","47.14","WINTERLAND BRANCH HILL","8404242","2019-02-06 23:00","2019","02","06","23:00","-6.3","","-9.1","","81","","","M","5","","17","","","","101.71","","","","-13","","NA"
"-55.33","47.14","WINTERLAND BRANCH HILL","8404242","2019-02-07 00:00","2019","02","07","00:00","-6.4","","-9.1","","81","","","M","5","","17","","","","101.70","","","","-13","","NA"
"-55.33","47.14","WINTERLAND BRANCH HILL","8404242","2019-02-07 01:00","2019","02","07","01:00","-6.2","","-8.5","","84","","","M","6","","12","","","","101.71","","","","-11","","NA"
"-55.33","47.14","WINTERLAND BRANCH HILL","8404242","2019-02-07 02:00","2019","02","07","02:00","-6.2","","-8.5","","84","","","M","7","","15","","","","101.78","","","","-12","","NA"
"-55.33","47.14","WINTERLAND BRANCH HILL","8404242","2019-02-07 03:00","2019","02","07","03:00","-5.9","","-8.3","","83","","","M","5","","11","","","","101.79","","","","-11","","NA"
"-55.33","47.14","WINTERLAND BRANCH HILL","8404242","2019-02-07 04:00","2019","02","07","04:00","-5.5","","-7.9","","84","","","M","5","","10","","","","101.87","","","","-10","","NA"
"-55.33","47.14","WINTERLAND BRANCH HILL","8404242","2019-02-07 05:00","2019","02","07","05:00","-5.3","","-7.8","","83","","","M","34","","6","","","","101.92","","","","-8","","NA"
"-55.33","47.14","WINTERLAND BRANCH HILL","8404242","2019-02-07 06:00","2019","02","07","06:00","-5.2","","-7.5","","84","","","M","35","","5","","","","101.89","","","","-7","","NA"
"-55.33","47.14","WINTERLAND BRANCH HILL","8404242","2019-02-07 07:00","2019","02","07","07:00","-4.9","","-7.2","","84","","","M","35","","3","","","","101.93","","","","-6","","NA"
"-55.33","47.14","WINTERLAND BRANCH HILL","8404242","2019-02-07 08:00","2019","02","07","08:00","-4.5","","-6.7","","85","","","M","36","","3","","","","101.97","","","","-6","","NA"
"-55.33","47.14","WINTERLAND BRANCH HILL","8404242","2019-02-07 09:00","2019","02","07","09:00","-4.2","","-6.2","","86","","","M","31","","4","","","","102.02","","","","-6","","NA"
"-55.33","47.14","WINTERLAND BRANCH HILL","8404242","2019-02-07 10:00","2019","02","07","10:00","-3.8","","-5.1","","91","","","M","29","","2","","","","102.09","","","","-5","","NA"
"-55.33","47.14","WINTERLAND BRANCH HILL","8404242","2019-02-07 11:00","2019","02","07","11:00","-3.6","","-4.9","","91","","","M","29","","3","","","","102.09","","","","-5","","NA"
"-55.33","47.14","WINTERLAND BRANCH HILL","8404242","2019-02-07 12:00","2019","02","07","12:00","-3.2","","-4.9","","88","","","M","","","0","","","","102.00","","","","","","NA"
"-55.33","47.14","WINTERLAND BRANCH HILL","8404242","2019-02-07 13:00","2019","02","07","13:00","-3.0","","-4.2","","91","","","M","17","","6","","","","101.95","","","","-5","","NA"
"-55.33","47.14","WINTERLAND BRANCH HILL","8404242","2019-02-07 14:00","2019","02","07","14:00","-2.7","","-5.5","","82","","","M","17","","7","","","","101.92","","","","-6","","NA"
"-55.33","47.14","WINTERLAND BRANCH HILL","8404242","2019-02-07 15:00","2019","02","07","15:00","-2.7","","-5.2","","83","","","M","23","","4","","","","101.94","","","","-4","","NA"
"-55.33","47.14","WINTERLAND BRANCH HILL","8404242","2019-02-07 16:00","2019","02","07","16:00","-2.9","","-4.8","","86","","","M","28","","6","","","","101.97","","","","-5","","NA"
"-55.33","47.14","WINTERLAND BRANCH HILL","8404242","2019-02-07 17:00","2019","02","07","17:00","-3.2","","-4.4","","91","","","M","32","","5","","","","102.00","","","","-5","","NA"
"-55.33","47.14","WINTERLAND BRANCH HILL","8404242","2019-02-07 18:00","2019","02","07","18:00","-3.5","","-4.2","","94","","","M","29","","5","","","","102.07","","","","-6","","NA"
"-55.33","47.14","WINTERLAND BRANCH HILL","8404242","2019-02-07 19:00","2019","02","07","19:00","-4.1","","-4.8","","94","","","M","29","","6","","","","102.07","","","","-7","","NA"
"-55.33","47.14","WINTERLAND BRANCH HILL","8404242","2019-02-07 20:00","2019","02","07","20:00","-4.2","","-4.8","","96","","","M","28","","6","","","","102.06","","","","-7","","NA"
"-55.33","47.14","WINTERLAND BRANCH HILL","8404242","2019-02-07 21:00","2019","02","07","21:00","-3.7","","-4.8","","92","","","M","35","","12","","","","102.12","","","","-8","","NA"
"-55.33","47.14","WINTERLAND BRANCH HILL","8404242","2019-02-07 22:00","2019","02","07","22:00","-4.1","","-5.3","","91","","","M","35","","9","","","","102.11","","","","-8","","NA"
"-55.33","47.14","WINTERLAND BRANCH HILL","8404242","2019-02-07 23:00","2019","02","07","23:00","-5.0","","-6.4","","90","","","M","4","","10","","","","102.07","","","","-9","","NA"
"-55.33","47.14","WINTERLAND BRANCH HILL","8404242","2019-02-08 00:00","2019","02","08","00:00","-7.5","","-8.5","","93","","","M","36","","6","","","","102.15","","","","-11","","NA"
"-55.33","47.14","WINTERLAND BRANCH HILL","8404242","2019-02-08 01:00","2019","02","08","01:00","-7.7","","-8.3","","95","","","M","4","","3","","","","102.12","","","","-9","","NA"
"-55.33","47.14","WINTERLAND BRANCH HILL","8404242","2019-02-08 02:00","2019","02","08","02:00","-7.7","","-8.3","","95","","","M","26","","5","","","","102.13","","","","-10","","NA"
"-55.33","47.14","WINTERLAND BRANCH HILL","8404242","2019-02-08 03:00","2019","02","08","03:00","-8.7","","-9.4","","94","","","M","25","","3","","","","102.07","","","","-10","","NA"
"-55.33","47.14","WINTERLAND BRANCH HILL","8404242","2019-02-08 04:00","2019","02","08","04:00","-8.9","","-9.7","","94","","","M","32","","2","","","","102.10","","","","-10","","NA"
"-55.33","47.14","WINTERLAND BRANCH HILL","8404242","2019-02-08 05:00","2019","02","08","05:00","-9.8","","-11.2","","90","","","M","33","","8","","","","102.17","","","","-14","","NA"
"-55.33","47.14","WINTERLAND BRANCH HILL","8404242","2019-02-08 06:00","2019","02","08","06:00","-10.4","","-11.5","","92","","","M","10","","5","","","","102.09","","","","-13","","NA"
"-55.33","47.14","WINTERLAND BRANCH HILL","8404242","2019-02-08 07:00","2019","02","08","07:00","-9.6","","-10.7","","92","","","M","17","","3","","","","102.05","","","","-11","","NA"
"-55.33","47.14","WINTERLAND BRANCH HILL","8404242","2019-02-08 08:00","2019","02","08","08:00","-7.8","","-8.6","","93","","","M","0","","1","","","","102.08","","","","-8","","NA"
"-55.33","47.14","WINTERLAND BRANCH HILL","8404242","2019-02-08 09:00","2019","02","08","09:00","-6.0","","-7.2","","92","","","M","10","","2","","","","102.00","","","","-7","","NA"
"-55.33","47.14","WINTERLAND BRANCH HILL","8404242","2019-02-08 10:00","2019","02","08","10:00","-4.2","","-5.5","","91","","","M","11","","7","","","","101.95","","","","-7","","NA"
"-55.33","47.14","WINTERLAND BRANCH HILL","8404242","2019-02-08 11:00","2019","02","08","11:00","-2.6","","-4.6","","86","","","M","14","","9","","","","101.89","","","","-6","","NA"
"-55.33","47.14","WINTERLAND BRANCH HILL","8404242","2019-02-08 12:00","2019","02","08","12:00","-1.2","","-3.4","","85","","","M","16","","19","","","","101.70","","","","-7","","NA"
"-55.33","47.14","WINTERLAND BRANCH HILL","8404242","2019-02-08 13:00","2019","02","08","13:00","-1.1","","-3.5","","83","","","M","15","","25","","","","101.58","","","","-7","","NA"
"-55.33","47.14","WINTERLAND BRANCH HILL","8404242","2019-02-08 14:00","2019","02","08","14:00","-1.2","","-3.4","","85","","","M","16","","28","","","","101.43","","","","-8","","NA"
"-55.33","47.14","WINTERLAND BRANCH HILL","8404242","2019-02-08 15:00","2019","02","08","15:00","-1.4","","-3.2","","88","","","M","15","","26","","","","101.31","","","","-8","","NA"
"-55.33","47.14","WINTERLAND BRANCH HILL","8404242","2019-02-08 16:00","2019","02","08","16:00","-1.5","","-3.1","","89","","","M","15","","28","","","","101.12","","","","-8","","NA"
"-55.33","47.14","WINTERLAND BRANCH HILL","8404242","2019-02-08 17:00","2019","02","08","17:00","-1.2","","-2.0","","94","","","M","14","","28","","","","100.90","","","","-8","","NA"
"-55.33","47.14","WINTERLAND BRANCH HILL","8404242","2019-02-08 18:00","2019","02","08","18:00","-0.1","","-0.9","","95","","","M","15","","16","","","","100.69","","","","-5","","NA"
"-55.33","47.14","WINTERLAND BRANCH HILL","8404242","2019-02-08 19:00","2019","02","08","19:00","0.1","","-0.6","","95","","","M","14","","16","","","","100.32","","","","","","NA"
"-55.33","47.14","WINTERLAND BRANCH HILL","8404242","2019-02-08 20:00","2019","02","08","20:00","0.4","","-0.1","","96","","","M","15","","46","","","","99.96","","","","","","NA"
"-55.33","47.14","WINTERLAND BRANCH HILL","8404242","2019-02-08 21:00","2019","02","08","21:00","1.3","","0.8","","97","","","M","17","","48","","","","99.71","","","","","","NA"
"-55.33","47.14","WINTERLAND BRANCH HILL","8404242","2019-02-08 22:00","2019","02","08","22:00","2.7","","2.2","","97","","","M","18","","46","","","","99.54","","","","","","NA"
"-55.33","47.14","WINTERLAND BRANCH HILL","8404242","2019-02-08 23:00","2019","02","08","23:00","3.9","","3.3","","96","","","M","20","","37","","","","99.37","","","","","","NA"
"-55.33","47.14","WINTERLAND BRANCH HILL","8404242","2019-02-09 00:00","2019","02","09","00:00","4.8","","4.3","","97","","","M","21","","34","","","","99.15","","","","","","NA"
"-55.33","47.14","WINTERLAND BRANCH HILL","8404242","2019-02-09 01:00","2019","02","09","01:00","4.7","","4.3","","97","","","M","22","","32","","","","98.98","","","","","","NA"
"-55.33","47.14","WINTERLAND BRANCH HILL","8404242","2019-02-09 02:00","2019","02","09","02:00","4.4","","4.0","","97","","","M","23","","27","","","","98.89","","","","","","NA"
"-55.33","47.14","WINTERLAND BRANCH HILL","8404242","2019-02-09 03:00","2019","02","09","03:00","4.0","","3.5","","97","","","M","25","","25","","","","98.76","","","","","","NA"
"-55.33","47.14","WINTERLAND BRANCH HILL","8404242","2019-02-09 04:00","2019","02","09","04:00","3.0","","2.6","","97","","","M","26","","21","","","","98.70","","","","","","NA"
"-55.33","47.14","WINTERLAND BRANCH HILL","8404242","2019-02-09 05:00","2019","02","09","05:00","1.2","","0.6","","96","","","M","28","","39","","","","98.74","","","","","","NA"
"-55.33","47.14","WINTERLAND BRANCH HILL","8404242","2019-02-09 06:00","2019","02","09","06:00","0.9","","0.1","","95","","","M","27","","29","","","","98.69","","","","","","NA"
"-55.33","47.14","WINTERLAND BRANCH HILL","8404242","2019-02-09 07:00","2019","02","09","07:00","0.3","","-0.8","","92","","","M","27","","26","","","","98.69","","","","","","NA"
"-55.33","47.14","WINTERLAND BRANCH HILL","8404242","2019-02-09 08:00","2019","02","09","08:00","0.4","","-1.2","","89","","","M","27","","33","","","","98.71","","","","","","NA"
"-55.33","47.14","WINTERLAND BRANCH HILL","8404242","2019-02-09 09:00","2019","02","09","09:00","0.1","","-2.0","","86","","","M","27","","38","","","","98.75","","","","","","NA"
"-55.33","47.14","WINTERLAND BRANCH HILL","8404242","2019-02-09 10:00","2019","02","09","10:00","-0.4","","-3.2","","82","","","M","27","","43","","","","98.78","","","","-8","","NA"
"-55.33","47.14","WINTERLAND BRANCH HILL","8404242","2019-02-09 11:00","2019","02","09","11:00","-1.1","","-5.6","","71","","","M","27","","51","","","","98.80","","","","-10","","NA"
"-55.33","47.14","WINTERLAND BRANCH HILL","8404242","2019-02-09 12:00","2019","02","09","12:00","-2.7","","-7.1","","72","","","M","27","","53","","","","98.82","","","","-12","","NA"
"-55.33","47.14","WINTERLAND BRANCH HILL","8404242","2019-02-09 13:00","2019","02","09","13:00","-3.0","","-9.9","","59","","","M","29","","55","","","","98.83","","","","-13","","NA"
"-55.33","47.14","WINTERLAND BRANCH HILL","8404242","2019-02-09 14:00","2019","02","09","14:00","-5.7","","-9.1","","77","","","M","29","","53","","","","98.92","","","","-16","","NA"
"-55.33","47.14","WINTERLAND BRANCH HILL","8404242","2019-02-09 15:00","2019","02","09","15:00","-6.9","","-12.0","","67","","","M","28","","58","","","","99.04","","","","-18","","NA"
"-55.33","47.14","WINTERLAND BRANCH HILL","8404242","2019-02-09 16:00","2019","02","09","16:00","-8.4","","-12.9","","70","","","M","28","","55","","","","99.08","","","","-20","","NA"
"-55.33","47.14","WINTERLAND BRANCH HILL","8404242","2019-02-09 17:00","2019","02","09","17:00","-9.2","","-13.9","","69","","","M","27","","48","","","","99.11","","","","-20","","NA"
"-55.33","47.14","WINTERLAND BRANCH HILL","8404242","2019-02-09 18:00","2019","02","09","18:00","-9.9","","-14.1","","71","","","M","28","","49","","","","99.15","","","","-22","","NA"
"-55.33","47.14","WINTERLAND BRANCH HILL","8404242","2019-02-09 19:00","2019","02","09","19:00","-10.3","","-13.6","","77","","","M","28","","49","","","","99.17","","","","-22","","NA"
"-55.33","47.14","WINTERLAND BRANCH HILL","8404242","2019-02-09 20:00","2019","02","09","20:00","-9.8","","-14.7","","68","","","M","28","","49","","","","99.15","","","","-21","","NA"
"-55.33","47.14","WINTERLAND BRANCH HILL","8404242","2019-02-09 21:00","2019","02","09","21:00","-10.0","","-13.3","","77","","","M","27","","47","","","","99.14","","","","-21","","NA"
"-55.33","47.14","WINTERLAND BRANCH HILL","8404242","2019-02-09 22:00","2019","02","09","22:00","-9.8","","-12.7","","80","","","M","27","","42","","","","99.10","","","","-21","","NA"
"-55.33","47.14","WINTERLAND BRANCH HILL","8404242","2019-02-09 23:00","2019","02","09","23:00","-8.7","","-13.6","","68","","","M","27","","56","","","","99.05","","","","-21","","NA"
"-55.33","47.14","WINTERLAND BRANCH HILL","8404242","2019-02-10 00:00","2019","02","10","00:00","-8.2","","-13.3","","67","","","M","27","","60","","","","99.00","","","","-20","","NA"
"-55.33","47.14","WINTERLAND BRANCH HILL","8404242","2019-02-10 01:00","2019","02","10","01:00","-8.0","","-11.7","","75","","","M","27","","55","","","","98.97","","","","-19","","NA"
"-55.33","47.14","WINTERLAND BRANCH HILL","8404242","2019-02-10 02:00","2019","02","10","02:00","-7.7","","-9.8","","84","","","M","28","","50","","","","98.93","","","","-19","","NA"
"-55.33","47.14","WINTERLAND BRANCH HILL","8404242","2019-02-10 03:00","2019","02","10","03:00","-7.5","","-11.5","","73","","","M","29","","46","","","","98.89","","","","-18","","NA"
"-55.33","47.14","WINTERLAND BRANCH HILL","8404242","2019-02-10 04:00","2019","02","10","04:00","-7.2","","-13.2","","62","","","M","29","","58","","","","98.87","","","","-19","","NA"
"-55.33","47.14","WINTERLAND BRANCH HILL","8404242","2019-02-10 05:00","2019","02","10","05:00","-7.2","","-12.1","","68","","","M","29","","52","","","","98.89","","","","-18","","NA"
"-55.33","47.14","WINTERLAND BRANCH HILL","8404242","2019-02-10 06:00","2019","02","10","06:00","-7.6","","-11.6","","73","","","M","28","","66","","","","98.87","","","","-20","","NA"
"-55.33","47.14","WINTERLAND BRANCH HILL","8404242","2019-02-10 07:00","2019","02","10","07:00","-7.0","","-11.2","","72","","","M","27","","56","","","","98.85","","","","-18","","NA"
"-55.33","47.14","WINTERLAND BRANCH HILL","8404242","2019-02-10 08:00","2019","02","10","08:00","-6.6","","-14.0","","55","","","M","28","","66","","","","98.89","","","","-18","","NA"
"-55.33","47.14","WINTERLAND BRANCH HILL","8404242","2019-02-10 09:00","2019","02","10","09:00","-6.6","","-13.4","","59","","","M","28","","64","","","","98.91","","","","-18","","NA"
"-55.33","47.14","WINTERLAND BRANCH HILL","8404242","2019-02-10 10:00","2019","02","10","10:00","-6.5","","-12.6","","62","","","M","28","","68","","","","98.89","","","","-18","","NA"
"-55.33","47.14","WINTERLAND BRANCH HILL","8404242","2019-02-10 11:00","2019","02","10","11:00","-7.3","","-12.5","","66","","","M","29","","60","","","","98.87","","","","-19","","NA"
"-55.33","47.14","WINTERLAND BRANCH HILL","8404242","2019-02-10 12:00","2019","02","10","12:00","-7.1","","-9.8","","82","","","M","29","","64","","","","98.80","","","","-19","","NA"
"-55.33","47.14","WINTERLAND BRANCH HILL","8404242","2019-02-10 13:00","2019","02","10","13:00","-7.4","","-9.5","","85","","","M","29","","55","","","","98.75","","","","-19","","NA"
"-55.33","47.14","WINTERLAND BRANCH HILL","8404242","2019-02-10 14:00","2019","02","10","14:00","-6.5","","-11.2","","69","","","M","29","","58","","","","98.80","","","","-18","","NA"
"-55.33","47.14","WINTERLAND BRANCH HILL","8404242","2019-02-10 15:00","2019","02","10","15:00","-6.5","","-11.2","","69","","","M","29","","68","","","","98.79","","","","-18","","NA"
"-55.33","47.14","WINTERLAND BRANCH HILL","8404242","2019-02-10 16:00","2019","02","10","16:00","-6.1","","-11.0","","68","","","M","29","","65","","","","98.90","","","","-18","","NA"
"-55.33","47.14","WINTERLAND BRANCH HILL","8404242","2019-02-10 17:00","2019","02","10","17:00","-6.4","","-11.4","","67","","","M","29","","64","","","","99.00","","","","-18","","NA"
"-55.33","47.14","WINTERLAND BRANCH HILL","8404242","2019-02-10 18:00","2019","02","10","18:00","-6.3","","-11.3","","68","","","M","29","","60","","","","99.04","","","","-17","","NA"
"-55.33","47.14","WINTERLAND BRANCH HILL","8404242","2019-02-10 19:00","2019","02","10","19:00","-6.4","","-11.0","","70","","","M","29","","54","","","","99.09","","","","-17","","NA"
"-55.33","47.14","WINTERLAND BRANCH HILL","8404242","2019-02-10 20:00","2019","02","10","20:00","-6.6","","-11.9","","66","","","M","30","","49","","","","99.15","","","","-17","","NA"
"-55.33","47.14","WINTERLAND BRANCH HILL","8404242","2019-02-10 21:00","2019","02","10","21:00","-6.9","","-12.4","","65","","","M","29","","56","","","","99.13","","","","-18","","NA"
"-55.33","47.14","WINTERLAND BRANCH HILL","8404242","2019-02-10 22:00","2019","02","10","22:00","-7.1","","-12.9","","63","","","M","29","","52","","","","99.15","","","","-18","","NA"
"-55.33","47.14","WINTERLAND BRANCH HILL","8404242","2019-02-10 23:00","2019","02","10","23:00","-7.3","","-13.8","","60","","","M","29","","58","","","","99.13","","","","-19","","NA"
"-55.33","47.14","WINTERLAND BRANCH HILL","8404242","2019-02-11 00:00","2019","02","11","00:00","-7.4","","-14.0","","59","","","M","29","","55","","","","99.10","","","","-19","","NA"
"-55.33","47.14","WINTERLAND BRANCH HILL","8404242","2019-02-11 01:00","2019","02","11","01:00","-7.4","","-14.2","","58","","","M","29","","56","","","","99.08","","","","-19","","NA"
"-55.33","47.14","WINTERLAND BRANCH HILL","8404242","2019-02-11 02:00","2019","02","11","02:00","-7.3","","-13.2","","63","","","M","29","","47","","","","99.07","","","","-18","","NA"
"-55.33","47.14","WINTERLAND BRANCH HILL","8404242","2019-02-11 03:00","2019","02","11","03:00","-7.5","","-13.4","","63","","","M","30","","44","","","","99.04","","","","-18","","NA"
"-55.33","47.14","WINTERLAND BRANCH HILL","8404242","2019-02-11 04:00","2019","02","11","04:00","-7.7","","-12.7","","67","","","M","29","","39","","","","98.97","","","","-18","","NA"
"-55.33","47.14","WINTERLAND BRANCH HILL","8404242","2019-02-11 05:00","2019","02","11","05:00","-8.3","","-11.5","","78","","","M","28","","50","","","","98.94","","","","-19","","NA"
"-55.33","47.14","WINTERLAND BRANCH HILL","8404242","2019-02-11 06:00","2019","02","11","06:00","-8.3","","-10.0","","88","","","M","28","","45","","","","98.87","","","","-19","","NA"
"-55.33","47.14","WINTERLAND BRANCH HILL","8404242","2019-02-11 07:00","2019","02","11","07:00","-8.4","","-9.7","","90","","","M","28","","56","","","","98.79","","","","-20","","NA"
"-55.33","47.14","WINTERLAND BRANCH HILL","8404242","2019-02-11 08:00","2019","02","11","08:00","-9.1","","-10.7","","88","","","M","31","","40","","","","98.90","","","","-20","","NA"
"-55.33","47.14","WINTERLAND BRANCH HILL","8404242","2019-02-11 09:00","2019","02","11","09:00","-9.1","","-11.6","","82","","","M","30","","46","","","","98.92","","","","-20","","NA"
"-55.33","47.14","WINTERLAND BRANCH HILL","8404242","2019-02-11 10:00","2019","02","11","10:00","-8.0","","-12.2","","72","","","M","30","","39","","","","98.95","","","","-18","","NA"
"-55.33","47.14","WINTERLAND BRANCH HILL","8404242","2019-02-11 11:00","2019","02","11","11:00","-7.8","","-12.9","","67","","","M","29","","48","","","","98.91","","","","-19","","NA"
"-55.33","47.14","WINTERLAND BRANCH HILL","8404242","2019-02-11 12:00","2019","02","11","12:00","-8.6","","-12.9","","71","","","M","29","","58","","","","98.80","","","","-21","","NA"
"-55.33","47.14","WINTERLAND BRANCH HILL","8404242","2019-02-11 13:00","2019","02","11","13:00","-8.9","","-11.6","","80","","","M","29","","57","","","","98.77","","","","-21","","NA"
"-55.33","47.14","WINTERLAND BRANCH HILL","8404242","2019-02-11 14:00","2019","02","11","14:00","-8.8","","-13.7","","68","","","M","29","","51","","","","98.82","","","","-20","","NA"
"-55.33","47.14","WINTERLAND BRANCH HILL","8404242","2019-02-11 15:00","2019","02","11","15:00","-8.5","","-13.5","","67","","","M","30","","41","","","","98.91","","","","-19","","NA"
"-55.33","47.14","WINTERLAND BRANCH HILL","8404242","2019-02-11 16:00","2019","02","11","16:00","-8.3","","-13.3","","67","","","M","29","","39","","","","98.98","","","","-18","","NA"
"-55.33","47.14","WINTERLAND BRANCH HILL","8404242","2019-02-11 17:00","2019","02","11","17:00","-8.3","","-12.9","","69","","","M","30","","45","","","","99.04","","","","-19","","NA"
"-55.33","47.14","WINTERLAND BRANCH HILL","8404242","2019-02-11 18:00","2019","02","11","18:00","-8.1","","-12.5","","70","","","M","30","","41","","","","99.13","","","","-18","","NA"
"-55.33","47.14","WINTERLAND BRANCH HILL","8404242","2019-02-11 19:00","2019","02","11","19:00","-8.3","","-13.2","","67","","","M","31","","43","","","","99.21","","","","-19","","NA"
"-55.33","47.14","WINTERLAND BRANCH HILL","8404242","2019-02-11 20:00","2019","02","11","20:00","-8.0","","-13.1","","67","","","M","31","","39","","","","99.30","","","","-18","","NA"
"-55.33","47.14","WINTERLAND BRANCH HILL","8404242","2019-02-11 21:00","2019","02","11","21:00","-7.5","","-12.3","","68","","","M","30","","31","","","","99.41","","","","-16","","NA"
"-55.33","47.14","WINTERLAND BRANCH HILL","8404242","2019-02-11 22:00","2019","02","11","22:00","-6.6","","-11.6","","68","","","M","30","","38","","","","99.49","","","","-16","","NA"
"-55.33","47.14","WINTERLAND BRANCH HILL","8404242","2019-02-11 23:00","2019","02","11","23:00","-6.4","","-11.1","","69","","","M","30","","32","","","","99.56","","","","-15","","NA"
"-55.33","47.14","WINTERLAND BRANCH HILL","8404242","2019-02-12 00:00","2019","02","12","00:00","-6.4","","-11.2","","69","","","M","30","","35","","","","99.61","","","","-15","","NA"
"-55.33","47.14","WINTERLAND BRANCH HILL","8404242","2019-02-12 01:00","2019","02","12","01:00","-6.7","","-11.3","","70","","","M","31","","27","","","","99.70","","","","-15","","NA"
"-55.33","47.14","WINTERLAND BRANCH HILL","8404242","2019-02-12 02:00","2019","02","12","02:00","-6.7","","-11.0","","72","","","M","30","","22","","","","99.79","","","","-14","","NA"
"-55.33","47.14","WINTERLAND BRANCH HILL","8404242","2019-02-12 03:00","2019","02","12","03:00","-6.3","","-10.7","","71","","","M","29","","29","","","","99.81","","","","-15","","NA"
"-55.33","47.14","WINTERLAND BRANCH HILL","8404242","2019-02-12 04:00","2019","02","12","04:00","-6.6","","-11.3","","70","","","M","31","","28","","","","99.90","","","","-15","","NA"
"-55.33","47.14","WINTERLAND BRANCH HILL","8404242","2019-02-12 05:00","2019","02","12","05:00","-6.7","","-11.4","","69","","","M","31","","31","","","","99.93","","","","-15","","NA"
"-55.33","47.14","WINTERLAND BRANCH HILL","8404242","2019-02-12 06:00","2019","02","12","06:00","-6.7","","-11.1","","71","","","M","30","","25","","","","100.01","","","","-15","","NA"
"-55.33","47.14","WINTERLAND BRANCH HILL","8404242","2019-02-12 07:00","2019","02","12","07:00","-6.4","","-11.4","","68","","","M","31","","28","","","","100.09","","","","-15","","NA"
"-55.33","47.14","WINTERLAND BRANCH HILL","8404242","2019-02-12 08:00","2019","02","12","08:00","-6.6","","-11.6","","68","","","M","31","","28","","","","100.21","","","","-15","","NA"
"-55.33","47.14","WINTERLAND BRANCH HILL","8404242","2019-02-12 09:00","2019","02","12","09:00","-6.1","","-11.3","","67","","","M","32","","25","","","","100.28","","","","-14","","NA"
"-55.33","47.14","WINTERLAND BRANCH HILL","8404242","2019-02-12 10:00","2019","02","12","10:00","-6.0","","-12.6","","59","","","M","31","","37","","","","100.32","","","","-15","","NA"
"-55.33","47.14","WINTERLAND BRANCH HILL","8404242","2019-02-12 11:00","2019","02","12","11:00","-5.2","","-11.2","","63","","","M","31","","29","","","","100.41","","","","-13","","NA"
"-55.33","47.14","WINTERLAND BRANCH HILL","8404242","2019-02-12 12:00","2019","02","12","12:00","-4.7","","-11.3","","60","","","M","31","","36","","","","100.43","","","","-13","","NA"
"-55.33","47.14","WINTERLAND BRANCH HILL","8404242","2019-02-12 13:00","2019","02","12","13:00","-4.8","","-11.7","","58","","","M","31","","38","","","","100.49","","","","-14","","NA"
"-55.33","47.14","WINTERLAND BRANCH HILL","8404242","2019-02-12 14:00","2019","02","12","14:00","-4.8","","-11.7","","58","","","M","31","","39","","","","100.56","","","","-14","","NA"
"-55.33","47.14","WINTERLAND BRANCH HILL","8404242","2019-02-12 15:00","2019","02","12","15:00","-4.6","","-11.5","","58","","","M","31","","31","","","","100.68","","","","-13","","NA"
"-55.33","47.14","WINTERLAND BRANCH HILL","8404242","2019-02-12 16:00","2019","02","12","16:00","-5.1","","-11.2","","63","","","M","32","","34","","","","100.70","","","","-14","","NA"
"-55.33","47.14","WINTERLAND BRANCH HILL","8404242","2019-02-12 17:00","2019","02","12","17:00","-6.1","","-11.6","","65","","","M","33","","18","","","","100.84","","","","-13","","NA"
"-55.33","47.14","WINTERLAND BRANCH HILL","8404242","2019-02-12 18:00","2019","02","12","18:00","-6.4","","-11.3","","68","","","M","31","","16","","","","100.99","","","","-13","","NA"
"-55.33","47.14","WINTERLAND BRANCH HILL","8404242","2019-02-12 19:00","2019","02","12","19:00","-7.2","","-11.5","","72","","","M","31","","18","","","","101.07","","","","-14","","NA"
"-55.33","47.14","WINTERLAND BRANCH HILL","8404242","2019-02-12 20:00","2019","02","12","20:00","-7.3","","-12.4","","67","","","M","31","","25","","","","101.17","","","","-15","","NA"
"-55.33","47.14","WINTERLAND BRANCH HILL","8404242","2019-02-12 21:00","2019","02","12","21:00","-7.3","","-11.7","","71","","","M","31","","25","","","","101.27","","","","-15","","NA"
"-55.33","47.14","WINTERLAND BRANCH HILL","8404242","2019-02-12 22:00","2019","02","12","22:00","-8.1","","-12.2","","73","","","M","31","","21","","","","101.30","","","","-16","","NA"
"-55.33","47.14","WINTERLAND BRANCH HILL","8404242","2019-02-12 23:00","2019","02","12","23:00","-8.6","","-13.0","","70","","","M","32","","16","","","","101.38","","","","-15","","NA"
"-55.33","47.14","WINTERLAND BRANCH HILL","8404242","2019-02-13 00:00","2019","02","13","00:00","-8.4","","-12.7","","71","","","M","32","","20","","","","101.41","","","","-16","","NA"
"-55.33","47.14","WINTERLAND BRANCH HILL","8404242","2019-02-13 01:00","2019","02","13","01:00","-9.9","","-13.8","","73","","","M","29","","11","","","","101.45","","","","-15","","NA"
"-55.33","47.14","WINTERLAND BRANCH HILL","8404242","2019-02-13 02:00","2019","02","13","02:00","-9.4","","-13.6","","72","","","M","34","","15","","","","101.52","","","","-16","","NA"
"-55.33","47.14","WINTERLAND BRANCH HILL","8404242","2019-02-13 03:00","2019","02","13","03:00","-10.0","","-13.2","","77","","","M","30","","10","","","","101.56","","","","-15","","NA"
"-55.33","47.14","WINTERLAND BRANCH HILL","8404242","2019-02-13 04:00","2019","02","13","04:00","-9.3","","-13.0","","75","","","M","32","","16","","","","101.56","","","","-16","","NA"
"-55.33","47.14","WINTERLAND BRANCH HILL","8404242","2019-02-13 05:00","2019","02","13","05:00","-10.2","","-13.3","","78","","","M","32","","15","","","","101.60","","","","-17","","NA"
"-55.33","47.14","WINTERLAND BRANCH HILL","8404242","2019-02-13 06:00","2019","02","13","06:00","-10.3","","-13.4","","78","","","M","31","","19","","","","101.63","","","","-18","","NA"
"-55.33","47.14","WINTERLAND BRANCH HILL","8404242","2019-02-13 07:00","2019","02","13","07:00","-10.1","","-13.4","","77","","","M","32","","6","","","","101.66","","","","-14","","NA"
"-55.33","47.14","WINTERLAND BRANCH HILL","8404242","2019-02-13 08:00","2019","02","13","08:00","-8.5","","-12.9","","71","","","M","1","","3","","","","101.72","","","","-10","","NA"
"-55.33","47.14","WINTERLAND BRANCH HILL","8404242","2019-02-13 09:00","2019","02","13","09:00","-6.6","","-12.1","","65","","","M","34","","8","","","","101.71","","","","-10","","NA"
"-55.33","47.14","WINTERLAND BRANCH HILL","8404242","2019-02-13 10:00","2019","02","13","10:00","-6.6","","-12.5","","62","","","M","34","","10","","","","101.70","","","","-11","","NA"
"-55.33","47.14","WINTERLAND BRANCH HILL","8404242","2019-02-13 11:00","2019","02","13","11:00","-6.2","","-13.0","","59","","","M","3","","5","","","","101.61","","","","-9","","NA"
"-55.33","47.14","WINTERLAND BRANCH HILL","8404242","2019-02-13 12:00","2019","02","13","12:00","-5.8","","-13.6","","54","","","M","11","","5","","","","101.52","","","","-8","","NA"
"-55.33","47.14","WINTERLAND BRANCH HILL","8404242","2019-02-13 13:00","2019","02","13","13:00","-5.7","","-12.8","","57","","","M","12","","7","","","","101.43","","","","-9","","NA"
"-55.33","47.14","WINTERLAND BRANCH HILL","8404242","2019-02-13 14:00","2019","02","13","14:00","-5.8","","-11.7","","63","","","M","13","","11","","","","101.33","","","","-11","","NA"
"-55.33","47.14","WINTERLAND BRANCH HILL","8404242","2019-02-13 15:00","2019","02","13","15:00","-5.6","","-10.3","","70","","","M","14","","11","","","","101.33","","","","-10","","NA"
"-55.33","47.14","WINTERLAND BRANCH HILL","8404242","2019-02-13 16:00","2019","02","13","16:00","-5.6","","-9.5","","74","","","M","12","","11","","","","101.18","","","","-10","","NA"
"-55.33","47.14","WINTERLAND BRANCH HILL","8404242","2019-02-13 17:00","2019","02","13","17:00","-5.4","","-9.0","","76","","","M","13","","9","","","","101.17","","","","-9","","NA"
"-55.33","47.14","WINTERLAND BRANCH HILL","8404242","2019-02-13 18:00","2019","02","13","18:00","-5.2","","-8.3","","79","","","M","12","","9","","","","101.06","","","","-9","","NA"
"-55.33","47.14","WINTERLAND BRANCH HILL","8404242","2019-02-13 19:00","2019","02","13","19:00","-5.6","","-6.8","","92","","","M","11","","14","","","","100.89","","","","-11","","NA"
"-55.33","47.14","WINTERLAND BRANCH HILL","8404242","2019-02-13 20:00","2019","02","13","20:00","-5.2","","-6.1","","94","","","M","12","","20","","","","100.69","","","","-12","","NA"
"-55.33","47.14","WINTERLAND BRANCH HILL","8404242","2019-02-13 21:00","2019","02","13","21:00","-4.9","","-5.6","","94","","","M","12","","21","","","","100.60","","","","-12","","NA"
"-55.33","47.14","WINTERLAND BRANCH HILL","8404242","2019-02-13 22:00","2019","02","13","22:00","-4.4","","-5.2","","94","","","M","12","","28","","","","100.36","","","","-12","","NA"
"-55.33","47.14","WINTERLAND BRANCH HILL","8404242","2019-02-13 23:00","2019","02","13","23:00","-3.9","","-4.8","","94","","","M","12","","29","","","","100.12","","","","-11","","NA"
"-55.33","47.14","WINTERLAND BRANCH HILL","8404242","2019-02-14 00:00","2019","02","14","00:00","-3.4","","-4.2","","94","","","M","12","","35","","","","99.83","","","","-11","","NA"
"-55.33","47.14","WINTERLAND BRANCH HILL","8404242","2019-02-14 01:00","2019","02","14","01:00","-2.5","","-3.2","","94","","","M","12","","36","","","","99.57","","","","-10","","NA"
"-55.33","47.14","WINTERLAND BRANCH HILL","8404242","2019-02-14 02:00","2019","02","14","02:00","-1.9","","-2.6","","96","","","M","12","","15","","","","99.38","","","","-7","","NA"
"-55.33","47.14","WINTERLAND BRANCH HILL","8404242","2019-02-14 03:00","2019","02","14","03:00","-1.5","","-2.1","","96","","","M","13","","11","","","","99.25","","","","-5","","NA"
"-55.33","47.14","WINTERLAND BRANCH HILL","8404242","2019-02-14 04:00","2019","02","14","04:00","-1.4","","-1.8","","97","","","M","13","","9","","","","99.13","","","","-5","","NA"
"-55.33","47.14","WINTERLAND BRANCH HILL","8404242","2019-02-14 05:00","2019","02","14","05:00","-0.7","","-1.1","","97","","","M","14","","6","","","","98.99","","","","-3","","NA"
"-55.33","47.14","WINTERLAND BRANCH HILL","8404242","2019-02-14 06:00","2019","02","14","06:00","-0.3","","-0.6","","98","","","M","15","","3","","","","98.82","","","","-1","","NA"
"-55.33","47.14","WINTERLAND BRANCH HILL","8404242","2019-02-14 07:00","2019","02","14","07:00","0.1","","-0.2","","98","","","M","17","","1","","","","98.66","","","","","","NA"
"-55.33","47.14","WINTERLAND BRANCH HILL","8404242","2019-02-14 08:00","2019","02","14","08:00","0.4","","-0.2","","96","","","M","23","","24","","","","98.67","","","","","","NA"
"-55.33","47.14","WINTERLAND BRANCH HILL","8404242","2019-02-14 09:00","2019","02","14","09:00","0.3","","-0.7","","93","","","M","24","","21","","","","98.63","","","","","","NA"
"-55.33","47.14","WINTERLAND BRANCH HILL","8404242","2019-02-14 10:00","2019","02","14","10:00","0.3","","-0.9","","91","","","M","24","","27","","","","98.61","","","","","","NA"
"-55.33","47.14","WINTERLAND BRANCH HILL","8404242","2019-02-14 11:00","2019","02","14","11:00","0.2","","-1.2","","90","","","M","25","","31","","","","98.63","","","","","","NA"
"-55.33","47.14","WINTERLAND BRANCH HILL","8404242","2019-02-14 12:00","2019","02","14","12:00","-1.9","","-3.9","","86","","","M","25","","43","","","","98.67","","","","-10","","NA"
"-55.33","47.14","WINTERLAND BRANCH HILL","8404242","2019-02-14 13:00","2019","02","14","13:00","-2.4","","-5.4","","80","","","M","27","","36","","","","98.63","","","","-10","","NA"
"-55.33","47.14","WINTERLAND BRANCH HILL","8404242","2019-02-14 14:00","2019","02","14","14:00","-3.0","","-6.1","","79","","","M","26","","35","","","","98.70","","","","-11","","NA"
"-55.33","47.14","WINTERLAND BRANCH HILL","8404242","2019-02-14 15:00","2019","02","14","15:00","-3.0","","-6.0","","80","","","M","27","","37","","","","98.73","","","","-11","","NA"
"-55.33","47.14","WINTERLAND BRANCH HILL","8404242","2019-02-14 16:00","2019","02","14","16:00","-3.0","","-5.7","","82","","","M","26","","31","","","","98.77","","","","-11","","NA"
"-55.33","47.14","WINTERLAND BRANCH HILL","8404242","2019-02-14 17:00","2019","02","14","17:00","-3.1","","-5.3","","85","","","M","26","","29","","","","98.78","","","","-10","","NA"
"-55.33","47.14","WINTERLAND BRANCH HILL","8404242","2019-02-14 18:00","2019","02","14","18:00","-3.1","","-5.1","","86","","","M","26","","31","","","","98.81","","","","-11","","NA"
"-55.33","47.14","WINTERLAND BRANCH HILL","8404242","2019-02-14 19:00","2019","02","14","19:00","-3.2","","-4.9","","88","","","M","26","","33","","","","98.81","","","","-11","","NA"
"-55.33","47.14","WINTERLAND BRANCH HILL","8404242","2019-02-14 20:00","2019","02","14","20:00","-3.1","","-4.6","","90","","","M","26","","27","","","","98.79","","","","-10","","NA"
"-55.33","47.14","WINTERLAND BRANCH HILL","8404242","2019-02-14 21:00","2019","02","14","21:00","-2.4","","-3.5","","92","","","M","26","","30","","","","98.76","","","","-10","","NA"
"-55.33","47.14","WINTERLAND BRANCH HILL","8404242","2019-02-14 22:00","2019","02","14","22:00","-1.9","","-3.6","","89","","","M","30","","27","","","","98.84","","","","-9","","NA"
"-55.33","47.14","WINTERLAND BRANCH HILL","8404242","2019-02-14 23:00","2019","02","14","23:00","-2.7","","-5.1","","84","","","M","30","","28","","","","98.98","","","","-10","","NA"
"-55.33","47.14","WINTERLAND BRANCH HILL","8404242","2019-02-15 00:00","2019","02","15","00:00","-2.4","","-4.5","","86","","","M","31","","27","","","","99.19","","","","-9","","NA"
"-55.33","47.14","WINTERLAND BRANCH HILL","8404242","2019-02-15 01:00","2019","02","15","01:00","-2.5","","-5.3","","81","","","M","32","","27","","","","99.45","","","","-9","","NA"
"-55.33","47.14","WINTERLAND BRANCH HILL","8404242","2019-02-15 02:00","2019","02","15","02:00","-2.9","","-6.0","","79","","","M","32","","25","","","","99.71","","","","-10","","NA"
"-55.33","47.14","WINTERLAND BRANCH HILL","8404242","2019-02-15 03:00","2019","02","15","03:00","-2.8","","-6.1","","78","","","M","32","","25","","","","99.97","","","","-10","","NA"
"-55.33","47.14","WINTERLAND BRANCH HILL","8404242","2019-02-15 04:00","2019","02","15","04:00","-3.0","","-6.3","","78","","","M","34","","31","","","","100.21","","","","-11","","NA"
"-55.33","47.14","WINTERLAND BRANCH HILL","8404242","2019-02-15 05:00","2019","02","15","05:00","-2.9","","-6.2","","78","","","M","35","","26","","","","100.50","","","","-10","","NA"
"-55.33","47.14","WINTERLAND BRANCH HILL","8404242","2019-02-15 06:00","2019","02","15","06:00","-3.3","","-6.2","","80","","","M","33","","22","","","","100.75","","","","-10","","NA"
"-55.33","47.14","WINTERLAND BRANCH HILL","8404242","2019-02-15 07:00","2019","02","15","07:00","-3.7","","-7.0","","78","","","M","34","","17","","","","100.98","","","","-9","","NA"
"-55.33","47.14","WINTERLAND BRANCH HILL","8404242","2019-02-15 08:00","2019","02","15","08:00","-3.6","","-7.3","","76","","","M","34","","20","","","","101.19","","","","-10","","NA"
"-55.33","47.14","WINTERLAND BRANCH HILL","8404242","2019-02-15 09:00","2019","02","15","09:00","-3.4","","-7.4","","74","","","M","36","","21","","","","101.37","","","","-10","","NA"
"-55.33","47.14","WINTERLAND BRANCH HILL","8404242","2019-02-15 10:00","2019","02","15","10:00","-3.1","","-8.0","","69","","","M","1","","26","","","","101.47","","","","-10","","NA"
"-55.33","47.14","WINTERLAND BRANCH HILL","8404242","2019-02-15 11:00","2019","02","15","11:00","-2.9","","-7.7","","70","","","M","36","","18","","","","101.63","","","","-9","","NA"
"-55.33","47.14","WINTERLAND BRANCH HILL","8404242","2019-02-15 12:00","2019","02","15","12:00","-2.3","","-8.5","","63","","","M","35","","13","","","","101.73","","","","-7","","NA"
"-55.33","47.14","WINTERLAND BRANCH HILL","8404242","2019-02-15 13:00","2019","02","15","13:00","-2.1","","-8.5","","62","","","M","35","","15","","","","101.80","","","","-7","","NA"
"-55.33","47.14","WINTERLAND BRANCH HILL","8404242","2019-02-15 14:00","2019","02","15","14:00","-1.9","","-8.4","","61","","","M","34","","11","","","","101.83","","","","-6","","NA"
"-55.33","47.14","WINTERLAND BRANCH HILL","8404242","2019-02-15 15:00","2019","02","15","15:00","-1.6","","-8.7","","58","","","M","36","","7","","","","101.85","","","","-4","","NA"
"-55.33","47.14","WINTERLAND BRANCH HILL","8404242","2019-02-15 16:00","2019","02","15","16:00","-1.1","","-8.1","","59","","","M","36","","3","","","","101.97","","","","-2","","NA"
"-55.33","47.14","WINTERLAND BRANCH HILL","8404242","2019-02-15 17:00","2019","02","15","17:00","-3.8","","-8.5","","69","","","M","35","","6","","","","101.97","","","","-6","","NA"
"-55.33","47.14","WINTERLAND BRANCH HILL","8404242","2019-02-15 18:00","2019","02","15","18:00","-5.1","","-8.3","","78","","","M","4","","6","","","","102.04","","","","-8","","NA"
"-55.33","47.14","WINTERLAND BRANCH HILL","8404242","2019-02-15 19:00","2019","02","15","19:00","-6.3","","-8.4","","85","","","M","14","","3","","","","102.07","","","","-8","","NA"
"-55.33","47.14","WINTERLAND BRANCH HILL","8404242","2019-02-15 20:00","2019","02","15","20:00","-8.4","","-10.0","","88","","","M","27","","4","","","","102.11","","","","-11","","NA"
"-55.33","47.14","WINTERLAND BRANCH HILL","8404242","2019-02-15 21:00","2019","02","15","21:00","-7.2","","-8.8","","88","","","M","10","","6","","","","102.08","","","","-10","","NA"
"-55.33","47.14","WINTERLAND BRANCH HILL","8404242","2019-02-15 22:00","2019","02","15","22:00","-9.7","","-10.7","","93","","","M","","","0","","","","102.11","","","","","","NA"
"-55.33","47.14","WINTERLAND BRANCH HILL","8404242","2019-02-15 23:00","2019","02","15","23:00","-8.4","","-9.5","","92","","","M","9","","8","","","","102.07","","","","-13","","NA"
"-55.33","47.14","WINTERLAND BRANCH HILL","8404242","2019-02-16 00:00","2019","02","16","00:00","-7.7","","-8.7","","93","","","M","","","0","","","","102.09","","","","","","NA"
"-55.33","47.14","WINTERLAND BRANCH HILL","8404242","2019-02-16 01:00","2019","02","16","01:00","-5.2","","-7.2","","86","","","M","15","","6","","","","102.08","","","","-8","","NA"
"-55.33","47.14","WINTERLAND BRANCH HILL","8404242","2019-02-16 02:00","2019","02","16","02:00","-3.8","","-5.7","","87","","","M","17","","10","","","","102.05","","","","-8","","NA"
"-55.33","47.14","WINTERLAND BRANCH HILL","8404242","2019-02-16 03:00","2019","02","16","03:00","-3.0","","-5.0","","86","","","M","19","","10","","","","102.04","","","","-7","","NA"
"-55.33","47.14","WINTERLAND BRANCH HILL","8404242","2019-02-16 04:00","2019","02","16","04:00","-3.0","","-4.7","","88","","","M","15","","11","","","","101.87","","","","-7","","NA"
"-55.33","47.14","WINTERLAND BRANCH HILL","8404242","2019-02-16 05:00","2019","02","16","05:00","-3.0","","-4.4","","90","","","M","16","","14","","","","101.83","","","","-8","","NA"
"-55.33","47.14","WINTERLAND BRANCH HILL","8404242","2019-02-16 06:00","2019","02","16","06:00","-2.4","","-3.9","","90","","","M","15","","9","","","","101.80","","","","-6","","NA"
"-55.33","47.14","WINTERLAND BRANCH HILL","8404242","2019-02-16 07:00","2019","02","16","07:00","-2.0","","-4.0","","86","","","M","16","","13","","","","101.75","","","","-6","","NA"
"-55.33","47.14","WINTERLAND BRANCH HILL","8404242","2019-02-16 08:00","2019","02","16","08:00","-1.3","","-3.1","","88","","","M","15","","23","","","","101.64","","","","-7","","NA"
"-55.33","47.14","WINTERLAND BRANCH HILL","8404242","2019-02-16 09:00","2019","02","16","09:00","-0.7","","-2.7","","86","","","M","15","","26","","","","101.53","","","","-7","","NA"
"-55.33","47.14","WINTERLAND BRANCH HILL","8404242","2019-02-16 10:00","2019","02","16","10:00","-0.3","","-2.4","","86","","","M","14","","30","","","","101.47","","","","-7","","NA"
"-55.33","47.14","WINTERLAND BRANCH HILL","8404242","2019-02-16 11:00","2019","02","16","11:00","0.3","","-2.1","","84","","","M","15","","34","","","","101.39","","","","","","NA"
"-55.33","47.14","WINTERLAND BRANCH HILL","8404242","2019-02-16 12:00","2019","02","16","12:00","0.4","","-2.1","","83","","","M","14","","33","","","","101.20","","","","","","NA"
"-55.33","47.14","WINTERLAND BRANCH HILL","8404242","2019-02-16 13:00","2019","02","16","13:00","0.8","","-1.9","","82","","","M","15","","36","","","","101.01","","","","","","NA"
"-55.33","47.14","WINTERLAND BRANCH HILL","8404242","2019-02-16 14:00","2019","02","16","14:00","0.7","","-1.4","","86","","","M","15","","43","","","","100.77","","","","","","NA"
"-55.33","47.14","WINTERLAND BRANCH HILL","8404242","2019-02-16 15:00","2019","02","16","15:00","0.5","","-0.5","","93","","","M","16","","45","","","","100.62","","","","","","NA"
"-55.33","47.14","WINTERLAND BRANCH HILL","8404242","2019-02-16 16:00","2019","02","16","16:00","0.4","","-0.1","","96","","","M","15","","39","","","","100.47","","","","","","NA"
"-55.33","47.14","WINTERLAND BRANCH HILL","8404242","2019-02-16 17:00","2019","02","16","17:00","0.2","","-0.1","","98","","","M","15","","37","","","","100.33","","","","","","NA"
"-55.33","47.14","WINTERLAND BRANCH HILL","8404242","2019-02-16 18:00","2019","02","16","18:00","0.3","","0.1","","98","","","M","15","","39","","","","100.22","","","","","","NA"
"-55.33","47.14","WINTERLAND BRANCH HILL","8404242","2019-02-16 19:00","2019","02","16","19:00","0.3","","0.0","","98","","","M","14","","34","","","","100.03","","","","","","NA"
"-55.33","47.14","WINTERLAND BRANCH HILL","8404242","2019-02-16 20:00","2019","02","16","20:00","0.7","","0.5","","98","","","M","14","","38","","","","99.79","","","","","","NA"
"-55.33","47.14","WINTERLAND BRANCH HILL","8404242","2019-02-16 21:00","2019","02","16","21:00","1.3","","0.8","","97","","","M","15","","46","","","","99.56","","","","","","NA"
"-55.33","47.14","WINTERLAND BRANCH HILL","8404242","2019-02-16 22:00","2019","02","16","22:00","1.8","","1.2","","96","","","M","15","","44","","","","99.28","","","","","","NA"
"-55.33","47.14","WINTERLAND BRANCH HILL","8404242","2019-02-16 23:00","2019","02","16","23:00","1.9","","1.5","","97","","","M","16","","53","","","","99.06","","","","","","NA"
"-55.33","47.14","WINTERLAND BRANCH HILL","8404242","2019-02-17 00:00","2019","02","17","00:00","2.4","","1.9","","97","","","M","17","","39","","","","99.03","","","","","","NA"
"-55.33","47.14","WINTERLAND BRANCH HILL","8404242","2019-02-17 01:00","2019","02","17","01:00","3.1","","2.5","","96","","","M","20","","37","","","","98.94","","","","","","NA"
"-55.33","47.14","WINTERLAND BRANCH HILL","8404242","2019-02-17 02:00","2019","02","17","02:00","2.6","","2.2","","98","","","M","21","","13","","","","98.90","","","","","","NA"
"-55.33","47.14","WINTERLAND BRANCH HILL","8404242","2019-02-17 03:00","2019","02","17","03:00","2.0","","1.8","","99","","","M","26","","15","","","","98.87","","","","","","NA"
"-55.33","47.14","WINTERLAND BRANCH HILL","8404242","2019-02-17 04:00","2019","02","17","04:00","0.4","","0.1","","98","","","M","28","","30","","","","98.91","","","","","","NA"
"-55.33","47.14","WINTERLAND BRANCH HILL","8404242","2019-02-17 05:00","2019","02","17","05:00","-0.1","","-0.5","","97","","","M","28","","35","","","","99.00","","","","-7","","NA"
"-55.33","47.14","WINTERLAND BRANCH HILL","8404242","2019-02-17 06:00","2019","02","17","06:00","-0.3","","-1.1","","94","","","M","28","","34","","","","99.10","","","","-7","","NA"
"-55.33","47.14","WINTERLAND BRANCH HILL","8404242","2019-02-17 07:00","2019","02","17","07:00","-0.6","","-2.1","","89","","","M","29","","39","","","","99.21","","","","-8","","NA"
"-55.33","47.14","WINTERLAND BRANCH HILL","8404242","2019-02-17 08:00","2019","02","17","08:00","-0.4","","-3.8","","77","","","M","29","","29","","","","99.42","","","","-7","","NA"
"-55.33","47.14","WINTERLAND BRANCH HILL","8404242","2019-02-17 09:00","2019","02","17","09:00","0.2","","-3.3","","77","","","M","29","","32","","","","99.59","","","","","","NA"
"-55.33","47.14","WINTERLAND BRANCH HILL","8404242","2019-02-17 10:00","2019","02","17","10:00","0.6","","-3.7","","73","","","M","29","","36","","","","99.65","","","","","","NA"
"-55.33","47.14","WINTERLAND BRANCH HILL","8404242","2019-02-17 11:00","2019","02","17","11:00","0.1","","-3.8","","75","","","M","29","","41","","","","99.65","","","","","","NA"
"-55.33","47.14","WINTERLAND BRANCH HILL","8404242","2019-02-17 12:00","2019","02","17","12:00","-0.4","","-3.7","","78","","","M","28","","44","","","","99.65","","","","-8","","NA"
"-55.33","47.14","WINTERLAND BRANCH HILL","8404242","2019-02-17 13:00","2019","02","17","13:00","-0.1","","-5.6","","67","","","M","29","","40","","","","99.65","","","","-8","","NA"
"-55.33","47.14","WINTERLAND BRANCH HILL","8404242","2019-02-17 14:00","2019","02","17","14:00","-0.4","","-6.4","","64","","","M","29","","43","","","","99.69","","","","-8","","NA"
"-55.33","47.14","WINTERLAND BRANCH HILL","8404242","2019-02-17 15:00","2019","02","17","15:00","-1.2","","-8.1","","60","","","M","29","","40","","","","99.74","","","","-9","","NA"
"-55.33","47.14","WINTERLAND BRANCH HILL","8404242","2019-02-17 16:00","2019","02","17","16:00","-1.6","","-6.6","","69","","","M","29","","36","","","","99.81","","","","-9","","NA"
"-55.33","47.14","WINTERLAND BRANCH HILL","8404242","2019-02-17 17:00","2019","02","17","17:00","-2.4","","-7.4","","68","","","M","28","","32","","","","99.90","","","","-10","","NA"
"-55.33","47.14","WINTERLAND BRANCH HILL","8404242","2019-02-17 18:00","2019","02","17","18:00","-2.8","","-7.7","","69","","","M","29","","33","","","","99.95","","","","-10","","NA"
"-55.33","47.14","WINTERLAND BRANCH HILL","8404242","2019-02-17 19:00","2019","02","17","19:00","-3.5","","-7.8","","73","","","M","28","","32","","","","100.00","","","","-11","","NA"
"-55.33","47.14","WINTERLAND BRANCH HILL","8404242","2019-02-17 20:00","2019","02","17","20:00","-4.1","","-8.6","","71","","","M","28","","35","","","","100.04","","","","-12","","NA"
"-55.33","47.14","WINTERLAND BRANCH HILL","8404242","2019-02-17 21:00","2019","02","17","21:00","-4.4","","-8.3","","74","","","M","28","","33","","","","100.06","","","","-13","","NA"
"-55.33","47.14","WINTERLAND BRANCH HILL","8404242","2019-02-17 22:00","2019","02","17","22:00","-4.9","","-9.5","","70","","","M","29","","38","","","","100.13","","","","-14","","NA"
"-55.33","47.14","WINTERLAND BRANCH HILL","8404242","2019-02-17 23:00","2019","02","17","23:00","-5.6","","-9.9","","72","","","M","29","","37","","","","100.13","","","","-15","","NA"
"-55.33","47.14","WINTERLAND BRANCH HILL","8404242","2019-02-18 00:00","2019","02","18","00:00","-5.8","","-10.2","","71","","","M","29","","35","","","","100.15","","","","-15","","NA"
"-55.33","47.14","WINTERLAND BRANCH HILL","8404242","2019-02-18 01:00","2019","02","18","01:00","-5.8","","-10.8","","68","","","M","29","","34","","","","100.12","","","","-15","","NA"
"-55.33","47.14","WINTERLAND BRANCH HILL","8404242","2019-02-18 02:00","2019","02","18","02:00","-5.8","","-10.4","","70","","","M","29","","35","","","","100.15","","","","-15","","NA"
"-55.33","47.14","WINTERLAND BRANCH HILL","8404242","2019-02-18 03:00","2019","02","18","03:00","-5.8","","-10.5","","69","","","M","28","","35","","","","100.16","","","","-15","","NA"
"-55.33","47.14","WINTERLAND BRANCH HILL","8404242","2019-02-18 04:00","2019","02","18","04:00","-5.6","","-10.2","","70","","","M","29","","31","","","","100.17","","","","-14","","NA"
"-55.33","47.14","WINTERLAND BRANCH HILL","8404242","2019-02-18 05:00","2019","02","18","05:00","-5.4","","-8.7","","77","","","M","28","","29","","","","100.18","","","","-13","","NA"
"-55.33","47.14","WINTERLAND BRANCH HILL","8404242","2019-02-18 06:00","2019","02","18","06:00","-5.2","","-10.0","","69","","","M","29","","33","","","","100.16","","","","-14","","NA"
"-55.33","47.14","WINTERLAND BRANCH HILL","8404242","2019-02-18 07:00","2019","02","18","07:00","-5.5","","-9.9","","71","","","M","28","","31","","","","100.18","","","","-14","","NA"
"-55.33","47.14","WINTERLAND BRANCH HILL","8404242","2019-02-18 08:00","2019","02","18","08:00","-5.1","","-10.1","","68","","","M","28","","35","","","","100.19","","","","-14","","NA"
"-55.33","47.14","WINTERLAND BRANCH HILL","8404242","2019-02-18 09:00","2019","02","18","09:00","-4.9","","-10.2","","66","","","M","27","","32","","","","100.15","","","","-13","","NA"
"-55.33","47.14","WINTERLAND BRANCH HILL","8404242","2019-02-18 10:00","2019","02","18","10:00","-5.4","","-8.8","","77","","","M","27","","32","","","","100.16","","","","-14","","NA"
"-55.33","47.14","WINTERLAND BRANCH HILL","8404242","2019-02-18 11:00","2019","02","18","11:00","-5.1","","-9.9","","69","","","M","28","","37","","","","100.16","","","","-14","","NA"
"-55.33","47.14","WINTERLAND BRANCH HILL","8404242","2019-02-18 12:00","2019","02","18","12:00","-4.7","","-9.7","","68","","","M","27","","32","","","","100.09","","","","-13","","NA"
"-55.33","47.14","WINTERLAND BRANCH HILL","8404242","2019-02-18 13:00","2019","02","18","13:00","-5.2","","-11.1","","63","","","M","28","","37","","","","100.00","","","","-14","","NA"
"-55.33","47.14","WINTERLAND BRANCH HILL","8404242","2019-02-18 14:00","2019","02","18","14:00","-5.3","","-10.8","","65","","","M","27","","37","","","","99.96","","","","-14","","NA"
"-55.33","47.14","WINTERLAND BRANCH HILL","8404242","2019-02-18 15:00","2019","02","18","15:00","-5.7","","-11.3","","64","","","M","28","","37","","","","99.90","","","","-15","","NA"
"-55.33","47.14","WINTERLAND BRANCH HILL","8404242","2019-02-18 16:00","2019","02","18","16:00","-6.1","","-9.5","","77","","","M","27","","28","","","","99.87","","","","-14","","NA"
"-55.33","47.14","WINTERLAND BRANCH HILL","8404242","2019-02-18 17:00","2019","02","18","17:00","-6.3","","-11.1","","69","","","M","28","","29","","","","99.88","","","","-15","","NA"
"-55.33","47.14","WINTERLAND BRANCH HILL","8404242","2019-02-18 18:00","2019","02","18","18:00","-6.5","","-10.7","","72","","","M","27","","27","","","","99.85","","","","-15","","NA"
"-55.33","47.14","WINTERLAND BRANCH HILL","8404242","2019-02-18 19:00","2019","02","18","19:00","-6.4","","-10.8","","71","","","M","29","","25","","","","99.81","","","","-14","","NA"
"-55.33","47.14","WINTERLAND BRANCH HILL","8404242","2019-02-18 20:00","2019","02","18","20:00","-6.6","","-10.6","","73","","","M","28","","26","","","","99.69","","","","-15","","NA"
"-55.33","47.14","WINTERLAND BRANCH HILL","8404242","2019-02-18 21:00","2019","02","18","21:00","-6.8","","-11.2","","71","","","M","29","","26","","","","99.52","","","","-15","","NA"
"-55.33","47.14","WINTERLAND BRANCH HILL","8404242","2019-02-18 22:00","2019","02","18","22:00","-7.0","","-11.3","","71","","","M","29","","20","","","","99.54","","","","-14","","NA"
"-55.33","47.14","WINTERLAND BRANCH HILL","8404242","2019-02-18 23:00","2019","02","18","23:00","-7.2","","-11.5","","71","","","M","30","","14","","","","99.43","","","","-13","","NA"
"-55.33","47.14","WINTERLAND BRANCH HILL","8404242","2019-02-19 00:00","2019","02","19","00:00","-7.6","","-11.6","","73","","","M","31","","12","","","","99.32","","","","-13","","NA"
"-55.33","47.14","WINTERLAND BRANCH HILL","8404242","2019-02-19 01:00","2019","02","19","01:00","-8.2","","-11.7","","76","","","M","33","","18","","","","99.15","","","","-15","","NA"
"-55.33","47.14","WINTERLAND BRANCH HILL","8404242","2019-02-19 02:00","2019","02","19","02:00","-9.0","","-12.2","","78","","","M","34","","15","","","","99.07","","","","-16","","NA"
"-55.33","47.14","WINTERLAND BRANCH HILL","8404242","2019-02-19 03:00","2019","02","19","03:00","-9.2","","-12.8","","75","","","M","33","","21","","","","98.99","","","","-17","","NA"
"-55.33","47.14","WINTERLAND BRANCH HILL","8404242","2019-02-19 04:00","2019","02","19","04:00","-9.0","","-12.4","","76","","","M","33","","14","","","","99.08","","","","-15","","NA"
"-55.33","47.14","WINTERLAND BRANCH HILL","8404242","2019-02-19 05:00","2019","02","19","05:00","-8.7","","-12.5","","74","","","M","33","","18","","","","99.19","","","","-16","","NA"
"-55.33","47.14","WINTERLAND BRANCH HILL","8404242","2019-02-19 06:00","2019","02","19","06:00","-8.8","","-12.1","","77","","","M","34","","13","","","","99.24","","","","-15","","NA"
"-55.33","47.14","WINTERLAND BRANCH HILL","8404242","2019-02-19 07:00","2019","02","19","07:00","-9.0","","-12.3","","77","","","M","34","","15","","","","99.31","","","","-16","","NA"
"-55.33","47.14","WINTERLAND BRANCH HILL","8404242","2019-02-19 08:00","2019","02","19","08:00","-7.8","","-12.1","","71","","","M","33","","20","","","","99.39","","","","-15","","NA"
"-55.33","47.14","WINTERLAND BRANCH HILL","8404242","2019-02-19 09:00","2019","02","19","09:00","-6.3","","-11.7","","66","","","M","32","","23","","","","99.44","","","","-14","","NA"
"-55.33","47.14","WINTERLAND BRANCH HILL","8404242","2019-02-19 10:00","2019","02","19","10:00","-5.3","","-11.0","","64","","","M","31","","25","","","","99.47","","","","-13","","NA"
"-55.33","47.14","WINTERLAND BRANCH HILL","8404242","2019-02-19 11:00","2019","02","19","11:00","-4.9","","-10.6","","65","","","M","31","","33","","","","99.47","","","","-13","","NA"
"-55.33","47.14","WINTERLAND BRANCH HILL","8404242","2019-02-19 12:00","2019","02","19","12:00","-4.1","","-9.6","","65","","","M","30","","32","","","","99.46","","","","-12","","NA"
"-55.33","47.14","WINTERLAND BRANCH HILL","8404242","2019-02-19 13:00","2019","02","19","13:00","-3.1","","-8.5","","66","","","M","29","","30","","","","99.42","","","","-11","","NA"
"-55.33","47.14","WINTERLAND BRANCH HILL","8404242","2019-02-19 14:00","2019","02","19","14:00","-3.3","","-8.5","","67","","","M","29","","34","","","","99.42","","","","-11","","NA"
"-55.33","47.14","WINTERLAND BRANCH HILL","8404242","2019-02-19 15:00","2019","02","19","15:00","-3.5","","-9.4","","63","","","M","29","","40","","","","99.42","","","","-12","","NA"
"-55.33","47.14","WINTERLAND BRANCH HILL","8404242","2019-02-19 16:00","2019","02","19","16:00","-4.5","","-12.4","","54","","","M","30","","35","","","","99.47","","","","-13","","NA"
"-55.33","47.14","WINTERLAND BRANCH HILL","8404242","2019-02-19 17:00","2019","02","19","17:00","-6.1","","-12.1","","62","","","M","30","","38","","","","99.54","","","","-15","","NA"
"-55.33","47.14","WINTERLAND BRANCH HILL","8404242","2019-02-19 18:00","2019","02","19","18:00","-6.7","","-12.2","","65","","","M","30","","32","","","","99.61","","","","-15","","NA"
"-55.33","47.14","WINTERLAND BRANCH HILL","8404242","2019-02-19 19:00","2019","02","19","19:00","-7.4","","-12.6","","66","","","M","30","","44","","","","99.65","","","","-18","","NA"
"-55.33","47.14","WINTERLAND BRANCH HILL","8404242","2019-02-19 20:00","2019","02","19","20:00","-7.9","","-12.8","","68","","","M","30","","38","","","","99.68","","","","-18","","NA"
"-55.33","47.14","WINTERLAND BRANCH HILL","8404242","2019-02-19 21:00","2019","02","19","21:00","-8.3","","-13.2","","68","","","M","31","","35","","","","99.71","","","","-18","","NA"
"-55.33","47.14","WINTERLAND BRANCH HILL","8404242","2019-02-19 22:00","2019","02","19","22:00","-9.5","","-15.0","","64","","","M","31","","44","","","","99.75","","","","-21","","NA"
"-55.33","47.14","WINTERLAND BRANCH HILL","8404242","2019-02-19 23:00","2019","02","19","23:00","-9.9","","-16.8","","57","","","M","31","","48","","","","99.75","","","","-21","","NA"
"-55.33","47.14","WINTERLAND BRANCH HILL","8404242","2019-02-20 00:00","2019","02","20","00:00","-10.5","","-18.3","","53","","","M","30","","39","","","","99.76","","","","-21","","NA"
"-55.33","47.14","WINTERLAND BRANCH HILL","8404242","2019-02-20 01:00","2019","02","20","01:00","-11.0","","-18.2","","55","","","M","31","","39","","","","99.81","","","","-22","","NA"
"-55.33","47.14","WINTERLAND BRANCH HILL","8404242","2019-02-20 02:00","2019","02","20","02:00","-11.5","","-19.1","","53","","","M","30","","41","","","","99.84","","","","-23","","NA"
"-55.33","47.14","WINTERLAND BRANCH HILL","8404242","2019-02-20 03:00","2019","02","20","03:00","-11.6","","-18.7","","56","","","M","31","","39","","","","99.85","","","","-23","","NA"
"-55.33","47.14","WINTERLAND BRANCH HILL","8404242","2019-02-20 04:00","2019","02","20","04:00","-12.3","","-19.2","","56","","","M","30","","41","","","","99.87","","","","-24","","NA"
"-55.33","47.14","WINTERLAND BRANCH HILL","8404242","2019-02-20 05:00","2019","02","20","05:00","-13.0","","-19.6","","58","","","M","31","","44","","","","99.93","","","","-25","","NA"
"-55.33","47.14","WINTERLAND BRANCH HILL","8404242","2019-02-20 06:00","2019","02","20","06:00","-13.6","","-20.7","","55","","","M","31","","46","","","","99.99","","","","-26","","NA"
"-55.33","47.14","WINTERLAND BRANCH HILL","8404242","2019-02-20 07:00","2019","02","20","07:00","-14.0","","-20.7","","57","","","M","31","","41","","","","100.05","","","","-26","","NA"
"-55.33","47.14","WINTERLAND BRANCH HILL","8404242","2019-02-20 08:00","2019","02","20","08:00","-13.5","","-21.1","","53","","","M","32","","44","","","","100.08","","","","-26","","NA"
"-55.33","47.14","WINTERLAND BRANCH HILL","8404242","2019-02-20 09:00","2019","02","20","09:00","-13.8","","-21.6","","52","","","M","31","","49","","","","100.10","","","","-27","","NA"
"-55.33","47.14","WINTERLAND BRANCH HILL","8404242","2019-02-20 10:00","2019","02","20","10:00","-14.2","","-21.4","","54","","","M","31","","44","","","","100.06","","","","-27","","NA"
"-55.33","47.14","WINTERLAND BRANCH HILL","8404242","2019-02-20 11:00","2019","02","20","11:00","-14.4","","-21.6","","54","","","M","30","","42","","","","100.05","","","","-27","","NA"
"-55.33","47.14","WINTERLAND BRANCH HILL","8404242","2019-02-20 12:00","2019","02","20","12:00","-14.9","","-21.6","","57","","","M","30","","46","","","","100.02","","","","-28","","NA"
"-55.33","47.14","WINTERLAND BRANCH HILL","8404242","2019-02-20 13:00","2019","02","20","13:00","-14.5","","-21.5","","55","","","M","30","","49","","","","99.96","","","","-28","","NA"
"-55.33","47.14","WINTERLAND BRANCH HILL","8404242","2019-02-20 14:00","2019","02","20","14:00","-14.7","","-21.7","","55","","","M","32","","44","","","","99.96","","","","-28","","NA"
"-55.33","47.14","WINTERLAND BRANCH HILL","8404242","2019-02-20 15:00","2019","02","20","15:00","-14.9","","-21.7","","56","","","M","31","","47","","","","99.98","","","","-28","","NA"
"-55.33","47.14","WINTERLAND BRANCH HILL","8404242","2019-02-20 16:00","2019","02","20","16:00","-14.7","","-20.8","","60","","","M","31","","42","","","","100.04","","","","-27","","NA"
"-55.33","47.14","WINTERLAND BRANCH HILL","8404242","2019-02-20 17:00","2019","02","20","17:00","-14.9","","-21.0","","59","","","M","31","","40","","","","100.15","","","","-27","","NA"
"-55.33","47.14","WINTERLAND BRANCH HILL","8404242","2019-02-20 18:00","2019","02","20","18:00","-14.9","","-20.7","","61","","","M","31","","38","","","","100.28","","","","-27","","NA"
"-55.33","47.14","WINTERLAND BRANCH HILL","8404242","2019-02-20 19:00","2019","02","20","19:00","-15.0","","-20.6","","62","","","M","32","","35","","","","100.38","","","","-27","","NA"
"-55.33","47.14","WINTERLAND BRANCH HILL","8404242","2019-02-20 20:00","2019","02","20","20:00","-15.6","","-21.3","","61","","","M","32","","31","","","","100.42","","","","-27","","NA"
"-55.33","47.14","WINTERLAND BRANCH HILL","8404242","2019-02-20 21:00","2019","02","20","21:00","-15.6","","-20.7","","65","","","M","32","","30","","","","100.49","","","","-27","","NA"
"-55.33","47.14","WINTERLAND BRANCH HILL","8404242","2019-02-20 22:00","2019","02","20","22:00","-15.6","","-20.1","","68","","","M","31","","21","","","","100.58","","","","-25","","NA"
"-55.33","47.14","WINTERLAND BRANCH HILL","8404242","2019-02-20 23:00","2019","02","20","23:00","-15.3","","-19.6","","70","","","M","31","","26","","","","100.63","","","","-26","","NA"
"-55.33","47.14","WINTERLAND BRANCH HILL","8404242","2019-02-21 00:00","2019","02","21","00:00","-14.8","","-18.5","","73","","","M","31","","21","","","","100.70","","","","-24","","NA"
"-55.33","47.14","WINTERLAND BRANCH HILL","8404242","2019-02-21 01:00","2019","02","21","01:00","-13.8","","-17.4","","74","","","M","31","","25","","","","100.74","","","","-24","","NA"
"-55.33","47.14","WINTERLAND BRANCH HILL","8404242","2019-02-21 02:00","2019","02","21","02:00","-13.3","","-16.9","","74","","","M","31","","26","","","","100.72","","","","-23","","NA"
"-55.33","47.14","WINTERLAND BRANCH HILL","8404242","2019-02-21 03:00","2019","02","21","03:00","-14.1","","-18.0","","72","","","M","31","","24","","","","100.75","","","","-24","","NA"
"-55.33","47.14","WINTERLAND BRANCH HILL","8404242","2019-02-21 04:00","2019","02","21","04:00","-14.4","","-18.6","","71","","","M","31","","24","","","","100.75","","","","-24","","NA"
"-55.33","47.14","WINTERLAND BRANCH HILL","8404242","2019-02-21 05:00","2019","02","21","05:00","-14.1","","-18.2","","71","","","M","32","","25","","","","100.73","","","","-24","","NA"
"-55.33","47.14","WINTERLAND BRANCH HILL","8404242","2019-02-21 06:00","2019","02","21","06:00","-14.2","","-19.4","","65","","","M","31","","24","","","","100.77","","","","-24","","NA"
"-55.33","47.14","WINTERLAND BRANCH HILL","8404242","2019-02-21 07:00","2019","02","21","07:00","-13.3","","-18.3","","66","","","M","31","","25","","","","100.81","","","","-23","","NA"
"-55.33","47.14","WINTERLAND BRANCH HILL","8404242","2019-02-21 08:00","2019","02","21","08:00","-12.3","","-18.4","","60","","","M","31","","24","","","","100.82","","","","-22","","NA"
"-55.33","47.14","WINTERLAND BRANCH HILL","8404242","2019-02-21 09:00","2019","02","21","09:00","-12.0","","-18.4","","59","","","M","31","","27","","","","100.80","","","","-22","","NA"
"-55.33","47.14","WINTERLAND BRANCH HILL","8404242","2019-02-21 10:00","2019","02","21","10:00","-10.6","","-17.6","","56","","","M","31","","28","","","","100.73","","","","-20","","NA"
"-55.33","47.14","WINTERLAND BRANCH HILL","8404242","2019-02-21 11:00","2019","02","21","11:00","-9.9","","-17.7","","53","","","M","31","","30","","","","100.64","","","","-19","","NA"
"-55.33","47.14","WINTERLAND BRANCH HILL","8404242","2019-02-21 12:00","2019","02","21","12:00","-9.1","","-16.7","","54","","","M","31","","25","","","","100.56","","","","-18","","NA"
"-55.33","47.14","WINTERLAND BRANCH HILL","8404242","2019-02-21 13:00","2019","02","21","13:00","-9.0","","-17.2","","51","","","M","30","","30","","","","100.53","","","","-18","","NA"
"-55.33","47.14","WINTERLAND BRANCH HILL","8404242","2019-02-21 14:00","2019","02","21","14:00","-8.5","","-16.3","","53","","","M","30","","24","","","","100.45","","","","-17","","NA"
"-55.33","47.14","WINTERLAND BRANCH HILL","8404242","2019-02-21 15:00","2019","02","21","15:00","-8.4","","-16.4","","53","","","M","31","","23","","","","100.32","","","","-16","","NA"
"-55.33","47.14","WINTERLAND BRANCH HILL","8404242","2019-02-21 16:00","2019","02","21","16:00","-7.9","","-15.0","","57","","","M","29","","21","","","","100.32","","","","-15","","NA"
"-55.33","47.14","WINTERLAND BRANCH HILL","8404242","2019-02-21 17:00","2019","02","21","17:00","-9.7","","-15.8","","61","","","M","30","","12","","","","100.26","","","","-16","","NA"
"-55.33","47.14","WINTERLAND BRANCH HILL","8404242","2019-02-21 18:00","2019","02","21","18:00","-9.8","","-15.4","","64","","","M","31","","14","","","","100.20","","","","-16","","NA"
"-55.33","47.14","WINTERLAND BRANCH HILL","8404242","2019-02-21 19:00","2019","02","21","19:00","-9.8","","-15.3","","64","","","M","32","","10","","","","100.15","","","","-15","","NA"
"-55.33","47.14","WINTERLAND BRANCH HILL","8404242","2019-02-21 20:00","2019","02","21","20:00","-10.1","","-14.4","","71","","","M","29","","6","","","","100.08","","","","-14","","NA"
"-55.33","47.14","WINTERLAND BRANCH HILL","8404242","2019-02-21 21:00","2019","02","21","21:00","-10.3","","-14.9","","69","","","M","3","","6","","","","100.02","","","","-14","","NA"
"-55.33","47.14","WINTERLAND BRANCH HILL","8404242","2019-02-21 22:00","2019","02","21","22:00","-10.1","","-15.0","","67","","","M","35","","8","","","","99.95","","","","-15","","NA"
"-55.33","47.14","WINTERLAND BRANCH HILL","8404242","2019-02-21 23:00","2019","02","21","23:00","-10.6","","-14.4","","73","","","M","0","","1","","","","99.89","","","","-11","","NA"
"-55.33","47.14","WINTERLAND BRANCH HILL","8404242","2019-02-22 00:00","2019","02","22","00:00","-10.9","","-15.9","","66","","","M","36","","6","","","","99.87","","","","-15","","NA"
"-55.33","47.14","WINTERLAND BRANCH HILL","8404242","2019-02-22 01:00","2019","02","22","01:00","-11.1","","-16.0","","67","","","M","1","","8","","","","99.87","","","","-16","","NA"
"-55.33","47.14","WINTERLAND BRANCH HILL","8404242","2019-02-22 02:00","2019","02","22","02:00","-11.5","","-16.5","","66","","","M","2","","8","","","","99.86","","","","-16","","NA"
"-55.33","47.14","WINTERLAND BRANCH HILL","8404242","2019-02-22 03:00","2019","02","22","03:00","-12.1","","-19.1","","56","","","M","3","","12","","","","99.86","","","","-18","","NA"
"-55.33","47.14","WINTERLAND BRANCH HILL","8404242","2019-02-22 04:00","2019","02","22","04:00","-13.9","","-18.7","","67","","","M","2","","10","","","","99.88","","","","-20","","NA"
"-55.33","47.14","WINTERLAND BRANCH HILL","8404242","2019-02-22 05:00","2019","02","22","05:00","-14.9","","-18.9","","71","","","M","2","","10","","","","99.97","","","","-21","","NA"
"-55.33","47.14","WINTERLAND BRANCH HILL","8404242","2019-02-22 06:00","2019","02","22","06:00","-14.1","","-17.9","","73","","","M","2","","9","","","","100.04","","","","-20","","NA"
"-55.33","47.14","WINTERLAND BRANCH HILL","8404242","2019-02-22 07:00","2019","02","22","07:00","-13.3","","-17.5","","71","","","M","4","","11","","","","100.10","","","","-20","","NA"
"-55.33","47.14","WINTERLAND BRANCH HILL","8404242","2019-02-22 08:00","2019","02","22","08:00","-11.3","","-16.8","","64","","","M","1","","6","","","","100.21","","","","-15","","NA"
"-55.33","47.14","WINTERLAND BRANCH HILL","8404242","2019-02-22 09:00","2019","02","22","09:00","-10.4","","-16.6","","61","","","M","34","","15","","","","100.26","","","","-17","","NA"
"-55.33","47.14","WINTERLAND BRANCH HILL","8404242","2019-02-22 10:00","2019","02","22","10:00","-9.8","","-17.5","","53","","","M","34","","19","","","","100.30","","","","-17","","NA"
"-55.33","47.14","WINTERLAND BRANCH HILL","8404242","2019-02-22 11:00","2019","02","22","11:00","-9.3","","-17.2","","53","","","M","32","","24","","","","100.34","","","","-18","","NA"
"-55.33","47.14","WINTERLAND BRANCH HILL","8404242","2019-02-22 12:00","2019","02","22","12:00","-8.2","","-17.4","","48","","","M","33","","22","","","","100.31","","","","-16","","NA"
"-55.33","47.14","WINTERLAND BRANCH HILL","8404242","2019-02-22 13:00","2019","02","22","13:00","-7.7","","-16.8","","48","","","M","30","","23","","","","100.31","","","","-15","","NA"
"-55.33","47.14","WINTERLAND BRANCH HILL","8404242","2019-02-22 14:00","2019","02","22","14:00","-7.2","","-17.8","","43","","","M","30","","29","","","","100.31","","","","-16","","NA"
"-55.33","47.14","WINTERLAND BRANCH HILL","8404242","2019-02-22 15:00","2019","02","22","15:00","-6.7","","-14.2","","55","","","M","30","","28","","","","100.31","","","","-15","","NA"
"-55.33","47.14","WINTERLAND BRANCH HILL","8404242","2019-02-22 16:00","2019","02","22","16:00","-7.0","","-14.0","","57","","","M","30","","24","","","","100.33","","","","-15","","NA"
"-55.33","47.14","WINTERLAND BRANCH HILL","8404242","2019-02-22 17:00","2019","02","22","17:00","-6.7","","-13.6","","58","","","M","30","","25","","","","100.32","","","","-15","","NA"
"-55.33","47.14","WINTERLAND BRANCH HILL","8404242","2019-02-22 18:00","2019","02","22","18:00","-6.8","","-12.4","","64","","","M","30","","24","","","","100.33","","","","-14","","NA"
"-55.33","47.14","WINTERLAND BRANCH HILL","8404242","2019-02-22 19:00","2019","02","22","19:00","-6.6","","-13.3","","59","","","M","30","","30","","","","100.36","","","","-15","","NA"
"-55.33","47.14","WINTERLAND BRANCH HILL","8404242","2019-02-22 20:00","2019","02","22","20:00","-7.2","","-13.8","","59","","","M","30","","36","","","","100.35","","","","-17","","NA"
"-55.33","47.14","WINTERLAND BRANCH HILL","8404242","2019-02-22 21:00","2019","02","22","21:00","-8.4","","-15.7","","56","","","M","31","","37","","","","100.49","","","","-18","","NA"
"-55.33","47.14","WINTERLAND BRANCH HILL","8404242","2019-02-22 22:00","2019","02","22","22:00","-9.0","","-15.5","","59","","","M","32","","37","","","","100.58","","","","-19","","NA"
"-55.33","47.14","WINTERLAND BRANCH HILL","8404242","2019-02-22 23:00","2019","02","22","23:00","-9.4","","-16.9","","55","","","M","32","","33","","","","100.61","","","","-19","","NA"
"-55.33","47.14","WINTERLAND BRANCH HILL","8404242","2019-02-23 00:00","2019","02","23","00:00","-9.5","","-16.8","","55","","","M","32","","30","","","","100.61","","","","-19","","NA"
"-55.33","47.14","WINTERLAND BRANCH HILL","8404242","2019-02-23 01:00","2019","02","23","01:00","-9.4","","-16.9","","54","","","M","32","","32","","","","100.62","","","","-19","","NA"
"-55.33","47.14","WINTERLAND BRANCH HILL","8404242","2019-02-23 02:00","2019","02","23","02:00","-9.4","","-16.5","","57","","","M","31","","28","","","","100.61","","","","-18","","NA"
"-55.33","47.14","WINTERLAND BRANCH HILL","8404242","2019-02-23 03:00","2019","02","23","03:00","-9.8","","-17.7","","53","","","M","31","","32","","","","100.59","","","","-20","","NA"
"-55.33","47.14","WINTERLAND BRANCH HILL","8404242","2019-02-23 04:00","2019","02","23","04:00","-10.5","","-17.3","","57","","","M","31","","28","","","","100.63","","","","-20","","NA"
"-55.33","47.14","WINTERLAND BRANCH HILL","8404242","2019-02-23 05:00","2019","02","23","05:00","-11.2","","-18.5","","55","","","M","32","","33","","","","100.67","","","","-22","","NA"
"-55.33","47.14","WINTERLAND BRANCH HILL","8404242","2019-02-23 06:00","2019","02","23","06:00","-11.5","","-18.2","","57","","","M","31","","31","","","","100.67","","","","-22","","NA"
"-55.33","47.14","WINTERLAND BRANCH HILL","8404242","2019-02-23 07:00","2019","02","23","07:00","-11.8","","-17.9","","61","","","M","32","","24","","","","100.76","","","","-21","","NA"
"-55.33","47.14","WINTERLAND BRANCH HILL","8404242","2019-02-23 08:00","2019","02","23","08:00","-11.0","","-18.0","","56","","","M","31","","31","","","","100.81","","","","-21","","NA"
"-55.33","47.14","WINTERLAND BRANCH HILL","8404242","2019-02-23 09:00","2019","02","23","09:00","-10.8","","-17.5","","58","","","M","31","","38","","","","100.81","","","","-22","","NA"
"-55.33","47.14","WINTERLAND BRANCH HILL","8404242","2019-02-23 10:00","2019","02","23","10:00","-10.1","","-17.2","","56","","","M","31","","39","","","","100.77","","","","-21","","NA"
"-55.33","47.14","WINTERLAND BRANCH HILL","8404242","2019-02-23 11:00","2019","02","23","11:00","-10.0","","-17.4","","55","","","M","30","","41","","","","100.77","","","","-21","","NA"
"-55.33","47.14","WINTERLAND BRANCH HILL","8404242","2019-02-23 12:00","2019","02","23","12:00","-9.6","","-17.5","","53","","","M","31","","38","","","","100.73","","","","-20","","NA"
"-55.33","47.14","WINTERLAND BRANCH HILL","8404242","2019-02-23 13:00","2019","02","23","13:00","-9.0","","-16.7","","54","","","M","30","","38","","","","100.66","","","","-19","","NA"
"-55.33","47.14","WINTERLAND BRANCH HILL","8404242","2019-02-23 14:00","2019","02","23","14:00","-8.9","","-17.1","","52","","","M","30","","38","","","","100.66","","","","-19","","NA"
"-55.33","47.14","WINTERLAND BRANCH HILL","8404242","2019-02-23 15:00","2019","02","23","15:00","-8.4","","-17.3","","48","","","M","30","","39","","","","100.67","","","","-19","","NA"
"-55.33","47.14","WINTERLAND BRANCH HILL","8404242","2019-02-23 16:00","2019","02","23","16:00","-8.9","","-16.6","","53","","","M","31","","31","","","","100.67","","","","-18","","NA"
"-55.33","47.14","WINTERLAND BRANCH HILL","8404242","2019-02-23 17:00","2019","02","23","17:00","-9.9","","-16.5","","59","","","M","30","","27","","","","100.75","","","","-19","","NA"
"-55.33","47.14","WINTERLAND BRANCH HILL","8404242","2019-02-23 18:00","2019","02","23","18:00","-10.3","","-16.5","","60","","","M","31","","33","","","","100.73","","","","-20","","NA"
"-55.33","47.14","WINTERLAND BRANCH HILL","8404242","2019-02-23 19:00","2019","02","23","19:00","-10.6","","-16.4","","63","","","M","31","","31","","","","100.79","","","","-20","","NA"
"-55.33","47.14","WINTERLAND BRANCH HILL","8404242","2019-02-23 20:00","2019","02","23","20:00","-10.7","","-16.5","","63","","","M","31","","30","","","","100.85","","","","-20","","NA"
"-55.33","47.14","WINTERLAND BRANCH HILL","8404242","2019-02-23 21:00","2019","02","23","21:00","-11.1","","-16.5","","64","","","M","32","","22","","","","100.93","","","","-20","","NA"
"-55.33","47.14","WINTERLAND BRANCH HILL","8404242","2019-02-23 22:00","2019","02","23","22:00","-11.6","","-17.8","","60","","","M","33","","24","","","","100.97","","","","-21","","NA"
"-55.33","47.14","WINTERLAND BRANCH HILL","8404242","2019-02-23 23:00","2019","02","23","23:00","-12.1","","-17.8","","62","","","M","32","","18","","","","100.98","","","","-20","","NA"
"-55.33","47.14","WINTERLAND BRANCH HILL","8404242","2019-02-24 00:00","2019","02","24","00:00","-11.9","","-17.5","","63","","","M","32","","12","","","","100.97","","","","-18","","NA"
"-55.33","47.14","WINTERLAND BRANCH HILL","8404242","2019-02-24 01:00","2019","02","24","01:00","-11.3","","-17.5","","60","","","M","32","","18","","","","100.96","","","","-19","","NA"
"-55.33","47.14","WINTERLAND BRANCH HILL","8404242","2019-02-24 02:00","2019","02","24","02:00","-10.9","","-17.4","","58","","","M","33","","23","","","","100.95","","","","-20","","NA"
"-55.33","47.14","WINTERLAND BRANCH HILL","8404242","2019-02-24 03:00","2019","02","24","03:00","-10.7","","-18.3","","54","","","M","32","","22","","","","100.98","","","","-19","","NA"
"-55.33","47.14","WINTERLAND BRANCH HILL","8404242","2019-02-24 04:00","2019","02","24","04:00","-10.4","","-18.1","","53","","","M","32","","19","","","","101.04","","","","-18","","NA"
"-55.33","47.14","WINTERLAND BRANCH HILL","8404242","2019-02-24 05:00","2019","02","24","05:00","-10.5","","-16.7","","61","","","M","30","","16","","","","101.06","","","","-18","","NA"
"-55.33","47.14","WINTERLAND BRANCH HILL","8404242","2019-02-24 06:00","2019","02","24","06:00","-9.9","","-16.4","","59","","","M","32","","23","","","","101.03","","","","-18","","NA"
"-55.33","47.14","WINTERLAND BRANCH HILL","8404242","2019-02-24 07:00","2019","02","24","07:00","-9.9","","-16.5","","58","","","M","32","","22","","","","101.04","","","","-18","","NA"
"-55.33","47.14","WINTERLAND BRANCH HILL","8404242","2019-02-24 08:00","2019","02","24","08:00","-8.5","","-16.0","","55","","","M","31","","27","","","","101.06","","","","-17","","NA"
"-55.33","47.14","WINTERLAND BRANCH HILL","8404242","2019-02-24 09:00","2019","02","24","09:00","-8.6","","-16.7","","52","","","M","31","","30","","","","101.06","","","","-18","","NA"
"-55.33","47.14","WINTERLAND BRANCH HILL","8404242","2019-02-24 10:00","2019","02","24","10:00","-8.2","","-16.7","","51","","","M","32","","33","","","","101.05","","","","-18","","NA"
"-55.33","47.14","WINTERLAND BRANCH HILL","8404242","2019-02-24 11:00","2019","02","24","11:00","-7.7","","-16.5","","49","","","M","31","","25","","","","101.10","","","","-16","","NA"
"-55.33","47.14","WINTERLAND BRANCH HILL","8404242","2019-02-24 12:00","2019","02","24","12:00","-7.3","","-17.2","","45","","","M","33","","22","","","","101.06","","","","-15","","NA"
"-55.33","47.14","WINTERLAND BRANCH HILL","8404242","2019-02-24 13:00","2019","02","24","13:00","-7.3","","-17.3","","44","","","M","32","","24","","","","101.02","","","","-15","","NA"
"-55.33","47.14","WINTERLAND BRANCH HILL","8404242","2019-02-24 14:00","2019","02","24","14:00","-6.5","","-16.7","","44","","","M","34","","25","","","","101.01","","","","-14","","NA"
"-55.33","47.14","WINTERLAND BRANCH HILL","8404242","2019-02-24 15:00","2019","02","24","15:00","-6.6","","-16.6","","45","","","M","32","","21","","","","101.02","","","","-14","","NA"
"-55.33","47.14","WINTERLAND BRANCH HILL","8404242","2019-02-24 16:00","2019","02","24","16:00","-6.9","","-16.7","","45","","","M","31","","20","","","","101.11","","","","-14","","NA"
"-55.33","47.14","WINTERLAND BRANCH HILL","8404242","2019-02-24 17:00","2019","02","24","17:00","-8.0","","-15.6","","55","","","M","31","","20","","","","101.12","","","","-15","","NA"
"-55.33","47.14","WINTERLAND BRANCH HILL","8404242","2019-02-24 18:00","2019","02","24","18:00","-9.6","","-15.3","","63","","","M","30","","10","","","","101.18","","","","-15","","NA"
"-55.33","47.14","WINTERLAND BRANCH HILL","8404242","2019-02-24 19:00","2019","02","24","19:00","-10.5","","-15.5","","67","","","M","29","","5","","","","101.18","","","","-14","","NA"
"-55.33","47.14","WINTERLAND BRANCH HILL","8404242","2019-02-24 20:00","2019","02","24","20:00","-12.0","","-16.2","","71","","","M","26","","7","","","","101.15","","","","-16","","NA"
"-55.33","47.14","WINTERLAND BRANCH HILL","8404242","2019-02-24 21:00","2019","02","24","21:00","-13.7","","-17.5","","73","","","M","27","","4","","","","101.16","","","","-16","","NA"
"-55.33","47.14","WINTERLAND BRANCH HILL","8404242","2019-02-24 22:00","2019","02","24","22:00","-15.3","","-18.5","","76","","","M","11","","8","","","","101.13","","","","-21","","NA"
"-55.33","47.14","WINTERLAND BRANCH HILL","8404242","2019-02-24 23:00","2019","02","24","23:00","-14.0","","-15.6","","88","","","M","12","","2","","","","101.03","","","","-15","","NA"
"-55.33","47.14","WINTERLAND BRANCH HILL","8404242","2019-02-25 00:00","2019","02","25","00:00","-14.1","","-16.0","","85","","","M","21","","3","","","","100.99","","","","-16","","NA"
"-55.33","47.14","WINTERLAND BRANCH HILL","8404242","2019-02-25 01:00","2019","02","25","01:00","-14.7","","-17.6","","78","","","M","11","","5","","","","100.91","","","","-18","","NA"
"-55.33","47.14","WINTERLAND BRANCH HILL","8404242","2019-02-25 02:00","2019","02","25","02:00","-16.1","","-17.7","","88","","","M","12","","2","","","","100.83","","","","-18","","NA"
"-55.33","47.14","WINTERLAND BRANCH HILL","8404242","2019-02-25 03:00","2019","02","25","03:00","-14.3","","-16.0","","87","","","M","11","","4","","","","100.66","","","","-17","","NA"
"-55.33","47.14","WINTERLAND BRANCH HILL","8404242","2019-02-25 04:00","2019","02","25","04:00","-11.0","","-13.6","","81","","","M","9","","12","","","","100.55","","","","-17","","NA"
"-55.33","47.14","WINTERLAND BRANCH HILL","8404242","2019-02-25 05:00","2019","02","25","05:00","-8.9","","-11.9","","79","","","M","13","","10","","","","100.48","","","","-14","","NA"
"-55.33","47.14","WINTERLAND BRANCH HILL","8404242","2019-02-25 06:00","2019","02","25","06:00","-5.9","","-9.6","","75","","","M","13","","21","","","","100.29","","","","-13","","NA"
"-55.33","47.14","WINTERLAND BRANCH HILL","8404242","2019-02-25 07:00","2019","02","25","07:00","-5.2","","-8.7","","76","","","M","13","","27","","","","100.19","","","","-13","","NA"
"-55.33","47.14","WINTERLAND BRANCH HILL","8404242","2019-02-25 08:00","2019","02","25","08:00","-4.7","","-8.4","","76","","","M","12","","31","","","","99.91","","","","-13","","NA"
"-55.33","47.14","WINTERLAND BRANCH HILL","8404242","2019-02-25 09:00","2019","02","25","09:00","-4.5","","-7.8","","78","","","M","13","","37","","","","99.68","","","","-13","","NA"
"-55.33","47.14","WINTERLAND BRANCH HILL","8404242","2019-02-25 10:00","2019","02","25","10:00","-4.7","","-6.4","","88","","","M","13","","39","","","","99.36","","","","-14","","NA"
"-55.33","47.14","WINTERLAND BRANCH HILL","8404242","2019-02-25 11:00","2019","02","25","11:00","-4.3","","-5.6","","90","","","M","12","","45","","","","99.07","","","","-14","","NA"
"-55.33","47.14","WINTERLAND BRANCH HILL","8404242","2019-02-25 12:00","2019","02","25","12:00","-3.9","","-5.1","","91","","","M","13","","43","","","","98.74","","","","-13","","NA"
"-55.33","47.14","WINTERLAND BRANCH HILL","8404242","2019-02-25 13:00","2019","02","25","13:00","-3.4","","-5.0","","89","","","M","12","","51","","","","98.44","","","","-13","","NA"
"-55.33","47.14","WINTERLAND BRANCH HILL","8404242","2019-02-25 14:00","2019","02","25","14:00","-2.9","","-4.0","","92","","","M","12","","36","","","","98.28","","","","-11","","NA"
"-55.33","47.14","WINTERLAND BRANCH HILL","8404242","2019-02-25 15:00","2019","02","25","15:00","-2.3","","-3.0","","95","","","M","13","","36","","","","98.17","","","","-10","","NA"
"-55.33","47.14","WINTERLAND BRANCH HILL","8404242","2019-02-25 16:00","2019","02","25","16:00","-1.6","","-2.3","","95","","","M","14","","40","","","","97.98","","","","-10","","NA"
"-55.33","47.14","WINTERLAND BRANCH HILL","8404242","2019-02-25 17:00","2019","02","25","17:00","-1.0","","-1.8","","94","","","M","16","","36","","","","97.91","","","","-8","","NA"
"-55.33","47.14","WINTERLAND BRANCH HILL","8404242","2019-02-25 18:00","2019","02","25","18:00","0.0","","-0.7","","95","","","M","18","","18","","","","97.86","","","","-5","","NA"
"-55.33","47.14","WINTERLAND BRANCH HILL","8404242","2019-02-25 19:00","2019","02","25","19:00","0.3","","-1.4","","88","","","M","21","","24","","","","97.85","","","","","","NA"
"-55.33","47.14","WINTERLAND BRANCH HILL","8404242","2019-02-25 20:00","2019","02","25","20:00","0.0","","-1.6","","89","","","M","22","","18","","","","97.77","","","","-5","","NA"
"-55.33","47.14","WINTERLAND BRANCH HILL","8404242","2019-02-25 21:00","2019","02","25","21:00","0.2","","-1.6","","88","","","M","22","","22","","","","97.77","","","","","","NA"
"-55.33","47.14","WINTERLAND BRANCH HILL","8404242","2019-02-25 22:00","2019","02","25","22:00","-0.3","","-1.4","","92","","","M","22","","17","","","","97.74","","","","-5","","NA"
"-55.33","47.14","WINTERLAND BRANCH HILL","8404242","2019-02-25 23:00","2019","02","25","23:00","-0.7","","-2.2","","90","","","M","24","","25","","","","97.71","","","","-7","","NA"
"-55.33","47.14","WINTERLAND BRANCH HILL","8404242","2019-02-26 00:00","2019","02","26","00:00","-1.6","","-2.9","","91","","","M","23","","12","","","","97.69","","","","-6","","NA"
"-55.33","47.14","WINTERLAND BRANCH HILL","8404242","2019-02-26 01:00","2019","02","26","01:00","-1.1","","-2.3","","91","","","M","23","","20","","","","97.65","","","","-7","","NA"
"-55.33","47.14","WINTERLAND BRANCH HILL","8404242","2019-02-26 02:00","2019","02","26","02:00","-0.8","","-2.5","","88","","","M","23","","23","","","","97.62","","","","-7","","NA"
"-55.33","47.14","WINTERLAND BRANCH HILL","8404242","2019-02-26 03:00","2019","02","26","03:00","-1.2","","-2.9","","88","","","M","23","","21","","","","97.57","","","","-7","","NA"
"-55.33","47.14","WINTERLAND BRANCH HILL","8404242","2019-02-26 04:00","2019","02","26","04:00","-1.7","","-3.9","","85","","","M","24","","22","","","","97.56","","","","-8","","NA"
"-55.33","47.14","WINTERLAND BRANCH HILL","8404242","2019-02-26 05:00","2019","02","26","05:00","-3.3","","-4.8","","89","","","M","26","","19","","","","97.60","","","","-9","","NA"
"-55.33","47.14","WINTERLAND BRANCH HILL","8404242","2019-02-26 06:00","2019","02","26","06:00","-3.6","","-5.7","","85","","","M","26","","27","","","","97.61","","","","-11","","NA"
"-55.33","47.14","WINTERLAND BRANCH HILL","8404242","2019-02-26 07:00","2019","02","26","07:00","-3.7","","-6.9","","78","","","M","25","","26","","","","97.61","","","","-11","","NA"
"-55.33","47.14","WINTERLAND BRANCH HILL","8404242","2019-02-26 08:00","2019","02","26","08:00","-3.9","","-7.2","","78","","","M","25","","27","","","","97.64","","","","-11","","NA"
"-55.33","47.14","WINTERLAND BRANCH HILL","8404242","2019-02-26 09:00","2019","02","26","09:00","-4.4","","-7.0","","82","","","M","25","","31","","","","97.62","","","","-12","","NA"
"-55.33","47.14","WINTERLAND BRANCH HILL","8404242","2019-02-26 10:00","2019","02","26","10:00","-3.7","","-6.0","","84","","","M","25","","32","","","","97.60","","","","-12","","NA"
"-55.33","47.14","WINTERLAND BRANCH HILL","8404242","2019-02-26 11:00","2019","02","26","11:00","-3.2","","-6.0","","81","","","M","26","","43","","","","97.61","","","","-12","","NA"
"-55.33","47.14","WINTERLAND BRANCH HILL","8404242","2019-02-26 12:00","2019","02","26","12:00","-3.7","","-6.5","","81","","","M","27","","51","","","","97.62","","","","-13","","NA"
"-55.33","47.14","WINTERLAND BRANCH HILL","8404242","2019-02-26 13:00","2019","02","26","13:00"
"-55.33","47.14","WINTERLAND BRANCH HILL","8404242","2019-02-26 14:00","2019","02","26","14:00","-4.4","","-6.8","","84","","","M","28","","49","","","","97.69","","","","-14","","NA"
"-55.33","47.14","WINTERLAND BRANCH HILL","8404242","2019-02-26 15:00","2019","02","26","15:00","-4.9","","-6.0","","92","","","M","28","","55","","","","97.76","","","","-15","","NA"
"-55.33","47.14","WINTERLAND BRANCH HILL","8404242","2019-02-26 16:00","2019","02","26","16:00","-5.8","","-7.0","","91","","","M","27","","51","","","","97.84","","","","-16","","NA"
"-55.33","47.14","WINTERLAND BRANCH HILL","8404242","2019-02-26 17:00","2019","02","26","17:00","-6.5","","-8.5","","86","","","M","27","","57","","","","97.95","","","","-18","","NA"
"-55.33","47.14","WINTERLAND BRANCH HILL","8404242","2019-02-26 18:00","2019","02","26","18:00","-7.1","","-9.7","","82","","","M","27","","49","","","","98.04","","","","-18","","NA"
"-55.33","47.14","WINTERLAND BRANCH HILL","8404242","2019-02-26 19:00","2019","02","26","19:00","-7.5","","-9.7","","84","","","M","27","","45","","","","98.11","","","","-18","","NA"
"-55.33","47.14","WINTERLAND BRANCH HILL","8404242","2019-02-26 20:00","2019","02","26","20:00","-8.1","","-10.8","","80","","","M","27","","42","","","","98.13","","","","-18","","NA"
"-55.33","47.14","WINTERLAND BRANCH HILL","8404242","2019-02-26 21:00","2019","02","26","21:00","-8.4","","-11.6","","78","","","M","27","","42","","","","98.16","","","","-19","","NA"
"-55.33","47.14","WINTERLAND BRANCH HILL","8404242","2019-02-26 22:00","2019","02","26","22:00","-9.2","","-12.0","","80","","","M","26","","41","","","","98.17","","","","-20","","NA"
"-55.33","47.14","WINTERLAND BRANCH HILL","8404242","2019-02-26 23:00","2019","02","26","23:00","-9.5","","-12.8","","77","","","M","26","","39","","","","98.14","","","","-20","","NA"
"-55.33","47.14","WINTERLAND BRANCH HILL","8404242","2019-02-27 00:00","2019","02","27","00:00","-10.1","","-13.0","","79","","","M","26","","39","","","","98.14","","","","-21","","NA"
"-55.33","47.14","WINTERLAND BRANCH HILL","8404242","2019-02-27 01:00","2019","02","27","01:00","-10.1","","-12.7","","81","","","M","26","","40","","","","98.13","","","","-21","","NA"
"-55.33","47.14","WINTERLAND BRANCH HILL","8404242","2019-02-27 02:00","2019","02","27","02:00","-10.0","","-13.0","","79","","","M","26","","39","","","","98.12","","","","-21","","NA"
"-55.33","47.14","WINTERLAND BRANCH HILL","8404242","2019-02-27 03:00","2019","02","27","03:00","-9.8","","-11.8","","86","","","M","26","","42","","","","98.06","","","","-21","","NA"
"-55.33","47.14","WINTERLAND BRANCH HILL","8404242","2019-02-27 04:00","2019","02","27","04:00","-9.5","","-11.7","","84","","","M","26","","40","","","","98.04","","","","-20","","NA"
"-55.33","47.14","WINTERLAND BRANCH HILL","8404242","2019-02-27 05:00","2019","02","27","05:00","-9.0","","-11.1","","85","","","M","26","","44","","","","98.00","","","","-20","","NA"
"-55.33","47.14","WINTERLAND BRANCH HILL","8404242","2019-02-27 06:00","2019","02","27","06:00","-8.5","","-10.5","","85","","","M","26","","44","","","","98.01","","","","-19","","NA"
"-55.33","47.14","WINTERLAND BRANCH HILL","8404242","2019-02-27 07:00","2019","02","27","07:00","-8.0","","-9.8","","87","","","M","27","","46","","","","98.02","","","","-19","","NA"
"-55.33","47.14","WINTERLAND BRANCH HILL","8404242","2019-02-27 08:00","2019","02","27","08:00","-6.8","","-9.0","","84","","","M","26","","37","","","","98.05","","","","-16","","NA"
"-55.33","47.14","WINTERLAND BRANCH HILL","8404242","2019-02-27 09:00","2019","02","27","09:00","-5.0","","-7.5","","82","","","M","27","","36","","","","98.04","","","","-14","","NA"
"-55.33","47.14","WINTERLAND BRANCH HILL","8404242","2019-02-27 10:00","2019","02","27","10:00","-2.7","","-7.4","","70","","","M","29","","39","","","","98.05","","","","-11","","NA"
"-55.33","47.14","WINTERLAND BRANCH HILL","8404242","2019-02-27 11:00","2019","02","27","11:00","-2.2","","-7.4","","68","","","M","29","","52","","","","98.07","","","","-11","","NA"
"-55.33","47.14","WINTERLAND BRANCH HILL","8404242","2019-02-27 12:00","2019","02","27","12:00","-2.5","","-7.2","","70","","","M","28","","55","","","","98.08","","","","-12","","NA"
"-55.33","47.14","WINTERLAND BRANCH HILL","8404242","2019-02-27 13:00","2019","02","27","13:00","-4.0","","-8.9","","68","","","M","28","","66","","","","98.10","","","","-15","","NA"
"-55.33","47.14","WINTERLAND BRANCH HILL","8404242","2019-02-27 14:00","2019","02","27","14:00","-4.6","","-8.4","","75","","","M","28","","59","","","","98.16","","","","-15","","NA"
"-55.33","47.14","WINTERLAND BRANCH HILL","8404242","2019-02-27 15:00","2019","02","27","15:00","-5.4","","-8.6","","78","","","M","28","","60","","","","98.20","","","","-16","","NA"
"-55.33","47.14","WINTERLAND BRANCH HILL","8404242","2019-02-27 16:00","2019","02","27","16:00","-5.7","","-8.6","","80","","","M","28","","59","","","","98.25","","","","-17","","NA"
"-55.33","47.14","WINTERLAND BRANCH HILL","8404242","2019-02-27 17:00","2019","02","27","17:00","-5.8","","-7.8","","86","","","M","28","","61","","","","98.34","","","","-17","","NA"
"-55.33","47.14","WINTERLAND BRANCH HILL","8404242","2019-02-27 18:00","2019","02","27","18:00","-5.4","","-9.7","","72","","","M","29","","54","","","","98.39","","","","-16","","NA"
"-55.33","47.14","WINTERLAND BRANCH HILL","8404242","2019-02-27 19:00","2019","02","27","19:00","-5.0","","-8.9","","74","","","M","28","","55","","","","98.49","","","","-15","","NA"
"-55.33","47.14","WINTERLAND BRANCH HILL","8404242","2019-02-27 20:00","2019","02","27","20:00","-5.0","","-9.0","","74","","","M","28","","53","","","","98.55","","","","-15","","NA"
"-55.33","47.14","WINTERLAND BRANCH HILL","8404242","2019-02-27 21:00","2019","02","27","21:00","-5.1","","-9.6","","71","","","M","29","","56","","","","98.62","","","","-16","","NA"
"-55.33","47.14","WINTERLAND BRANCH HILL","8404242","2019-02-27 22:00","2019","02","27","22:00","-5.1","","-9.2","","73","","","M","29","","56","","","","98.73","","","","-16","","NA"
"-55.33","47.14","WINTERLAND BRANCH HILL","8404242","2019-02-27 23:00","2019","02","27","23:00","-5.0","","-9.3","","72","","","M","29","","57","","","","98.84","","","","-15","","NA"
"-55.33","47.14","WINTERLAND BRANCH HILL","8404242","2019-02-28 00:00","2019","02","28","00:00","-4.9","","-9.0","","73","","","M","29","","57","","","","98.87","","","","-15","","NA"
"-55.33","47.14","WINTERLAND BRANCH HILL","8404242","2019-02-28 01:00","2019","02","28","01:00","-5.0","","-8.4","","77","","","M","28","","57","","","","98.93","","","","-15","","NA"
"-55.33","47.14","WINTERLAND BRANCH HILL","8404242","2019-02-28 02:00","2019","02","28","02:00","-5.1","","-8.6","","76","","","M","28","","55","","","","99.01","","","","-15","","NA"
"-55.33","47.14","WINTERLAND BRANCH HILL","8404242","2019-02-28 03:00","2019","02","28","03:00","-4.8","","-8.5","","75","","","M","28","","53","","","","99.09","","","","-15","","NA"
"-55.33","47.14","WINTERLAND BRANCH HILL","8404242","2019-02-28 04:00","2019","02","28","04:00","-5.0","","-8.1","","79","","","M","28","","59","","","","99.17","","","","-16","","NA"
"-55.33","47.14","WINTERLAND BRANCH HILL","8404242","2019-02-28 05:00","2019","02","28","05:00","-4.7","","-8.1","","77","","","M","29","","50","","","","99.27","","","","-15","","NA"
"-55.33","47.14","WINTERLAND BRANCH HILL","8404242","2019-02-28 06:00","2019","02","28","06:00","-5.0","","-8.0","","80","","","M","28","","57","","","","99.28","","","","-15","","NA"
"-55.33","47.14","WINTERLAND BRANCH HILL","8404242","2019-02-28 07:00","2019","02","28","07:00","-4.7","","-7.6","","80","","","M","28","","48","","","","99.38","","","","-14","","NA"
"-55.33","47.14","WINTERLAND BRANCH HILL","8404242","2019-02-28 08:00","2019","02","28","08:00","-5.0","","-8.1","","79","","","M","27","","47","","","","99.47","","","","-15","","NA"
"-55.33","47.14","WINTERLAND BRANCH HILL","8404242","2019-02-28 09:00","2019","02","28","09:00","-5.3","","-8.7","","77","","","M","28","","51","","","","99.49","","","","-15","","NA"
"-55.33","47.14","WINTERLAND BRANCH HILL","8404242","2019-02-28 10:00","2019","02","28","10:00","-6.0","","-9.1","","79","","","M","27","","38","","","","99.56","","","","-15","","NA"
"-55.33","47.14","WINTERLAND BRANCH HILL","8404242","2019-02-28 11:00","2019","02","28","11:00","-6.0","","-9.6","","76","","","M","26","","38","","","","99.56","","","","-15","","NA"
"-55.33","47.14","WINTERLAND BRANCH HILL","8404242","2019-02-28 12:00","2019","02","28","12:00","-6.3","","-10.8","","71","","","M","28","","48","","","","99.51","","","","-17","","NA"
"-55.33","47.14","WINTERLAND BRANCH HILL","8404242","2019-02-28 13:00","2019","02","28","13:00","-6.0","","-11.0","","68","","","M","27","","42","","","","99.47","","","","-16","","NA"
"-55.33","47.14","WINTERLAND BRANCH HILL","8404242","2019-02-28 14:00","2019","02","28","14:00","-6.3","","-11.6","","66","","","M","28","","46","","","","99.46","","","","-16","","NA"
"-55.33","47.14","WINTERLAND BRANCH HILL","8404242","2019-02-28 15:00","2019","02","28","15:00","-7.5","","-11.1","","76","","","M","27","","39","","","","99.47","","","","-17","","NA"
"-55.33","47.14","WINTERLAND BRANCH HILL","8404242","2019-02-28 16:00","2019","02","28","16:00","-7.0","","-12.2","","66","","","M","27","","37","","","","99.46","","","","-16","","NA"
"-55.33","47.14","WINTERLAND BRANCH HILL","8404242","2019-02-28 17:00","2019","02","28","17:00","-7.4","","-12.2","","69","","","M","27","","41","","","","99.49","","","","-17","","NA"
"-55.33","47.14","WINTERLAND BRANCH HILL","8404242","2019-02-28 18:00","2019","02","28","18:00","-8.1","","-10.9","","81","","","M","28","","42","","","","99.54","","","","-18","","NA"
"-55.33","47.14","WINTERLAND BRANCH HILL","8404242","2019-02-28 19:00","2019","02","28","19:00","-7.8","","-12.5","","69","","","M","27","","39","","","","99.56","","","","-18","","NA"
"-55.33","47.14","WINTERLAND BRANCH HILL","8404242","2019-02-28 20:00","2019","02","28","20:00","-8.0","","-12.8","","68","","","M","29","","43","","","","99.54","","","","-18","","NA"
"-55.33","47.14","WINTERLAND BRANCH HILL","8404242","2019-02-28 21:00","2019","02","28","21:00","-7.9","","-11.9","","72","","","M","28","","41","","","","99.58","","","","-18","","NA"
"-55.33","47.14","WINTERLAND BRANCH HILL","8404242","2019-02-28 22:00","2019","02","28","22:00","-7.7","","-12.1","","70","","","M","29","","43","","","","99.65","","","","-18","","NA"
"-55.33","47.14","WINTERLAND BRANCH HILL","8404242","2019-02-28 23:00","2019","02","28","23:00","-7.9","","-11.6","","75","","","M","28","","39","","","","99.65","","","","-18","","NA"
