"Longitude (x)","Latitude (y)","Station Name","Climate ID","Date/Time (LST)","Year","Month","Day","Time (LST)","Temp (°C)","Temp Flag","Dew Point Temp (°C)","Dew Point Temp Flag","Rel Hum (%)","Rel Hum Flag","Precip. Amount (mm)","Precip. Amount Flag","Wind Dir (10s deg)","Wind Dir Flag","Wind Spd (km/h)","Wind Spd Flag","Visibility (km)","Visibility Flag","Stn Press (kPa)","Stn Press Flag","Hmdx","Hmdx Flag","Wind Chill","Wind Chill Flag","Weather"
"-121.24","61.76","FORT SIMPSON A","2202103","2018-03-01 00:00","2018","03","01","00:00","-13.9","","-17.3","","76","","","","34","","22","","24.1","","100.95","","","","-23","","Snow,Blowing Snow"
"-121.24","61.76","FORT SIMPSON A","2202103","2018-03-01 01:00","2018","03","01","01:00","-14.8","","-17.9","","77","","","","34","","26","","24.1","","101.08","","","","-25","","Snow,Blowing Snow"
"-121.24","61.76","FORT SIMPSON A","2202103","2018-03-01 02:00","2018","03","01","02:00","-15.7","","-18.8","","77","","","","34","","24","","24.1","","101.20","","","","-26","","Snow,Blowing Snow"
"-121.24","61.76","FORT SIMPSON A","2202103","2018-03-01 03:00","2018","03","01","03:00","-16.7","","-19.9","","76","","","","33","","22","","24.1","","101.30","","","","-27","","Snow,Blowing Snow"
"-121.24","61.76","FORT SIMPSON A","2202103","2018-03-01 04:00","2018","03","01","04:00","-17.2","","-20.5","","76","","","","34","","27","","24.1","","101.40","","","","-28","","Snow,Blowing Snow"
"-121.24","61.76","FORT SIMPSON A","2202103","2018-03-01 05:00","2018","03","01","05:00","-17.5","","-20.9","","75","","","","34","","29","","24.1","","101.52","","","","-29","","Snow,Blowing Snow"
"-121.24","61.76","FORT SIMPSON A","2202103","2018-03-01 06:00","2018","03","01","06:00","-18.0","","-21.4","","75","","","","33","","25","","19.3","","101.63","","","","-29","","Snow,Blowing Snow"
"-121.24","61.76","FORT SIMPSON A","2202103","2018-03-01 07:00","2018","03","01","07:00","-18.6","","-21.8","","76","","","","34","","27","","24.1","","101.72","","","","-30","","Snow,Blowing Snow"
"-121.24","61.76","FORT SIMPSON A","2202103","2018-03-01 08:00","2018","03","01","08:00","-18.9","","-22.1","","76","","","","34","","30","","19.3","","101.80","","","","-31","","Snow,Blowing Snow"
"-121.24","61.76","FORT SIMPSON A","2202103","2018-03-01 09:00","2018","03","01","09:00","-19.4","","-22.8","","75","","","","34","","27","","24.1","","101.88","","","","-31","","Snow,Blowing Snow"
"-121.24","61.76","FORT SIMPSON A","2202103","2018-03-01 10:00","2018","03","01","10:00","-19.7","","-23.3","","73","","","","34","","26","","19.3","","101.97","","","","-31","","Snow,Blowing Snow"
"-121.24","61.76","FORT SIMPSON A","2202103","2018-03-01 11:00","2018","03","01","11:00","-19.2","","-23.2","","72","","","","34","","26","","24.1","","102.02","","","","-31","","Snow,Blowing Snow"
"-121.24","61.76","FORT SIMPSON A","2202103","2018-03-01 12:00","2018","03","01","12:00","-18.7","","-23.2","","68","","","","33","","21","","24.1","","102.06","","","","-29","","Snow,Blowing Snow"
"-121.24","61.76","FORT SIMPSON A","2202103","2018-03-01 13:00","2018","03","01","13:00","-18.5","","-23.2","","67","","","","34","","25","","24.1","","102.07","","","","-30","","Snow,Blowing Snow"
"-121.24","61.76","FORT SIMPSON A","2202103","2018-03-01 14:00","2018","03","01","14:00","-18.5","","-23.2","","67","","","","33","","26","","24.1","","102.11","","","","-30","","Blowing Snow"
"-121.24","61.76","FORT SIMPSON A","2202103","2018-03-01 15:00","2018","03","01","15:00","-18.4","","-23.2","","66","","","","33","","22","","24.1","","102.12","","","","-29","","Blowing Snow"
"-121.24","61.76","FORT SIMPSON A","2202103","2018-03-01 16:00","2018","03","01","16:00","-18.6","","-23.2","","68","","","","33","","25","","24.1","","102.14","","","","-30","","Snow,Blowing Snow"
"-121.24","61.76","FORT SIMPSON A","2202103","2018-03-01 17:00","2018","03","01","17:00","-18.6","","-22.4","","73","","","","33","","20","","12.9","","102.15","","","","-29","","Snow,Blowing Snow"
"-121.24","61.76","FORT SIMPSON A","2202103","2018-03-01 18:00","2018","03","01","18:00","-18.6","","-22.1","","74","","","","34","","15","","12.9","","102.13","","","","-27","","Snow,Blowing Snow"
"-121.24","61.76","FORT SIMPSON A","2202103","2018-03-01 19:00","2018","03","01","19:00","-18.9","","-22.2","","76","","","","34","","14","","16.1","","102.11","","","","-27","","Snow,Blowing Snow"
"-121.24","61.76","FORT SIMPSON A","2202103","2018-03-01 20:00","2018","03","01","20:00","-19.3","","-22.5","","76","","","","33","","17","","24.1","","102.13","","","","-29","","Snow,Blowing Snow"
"-121.24","61.76","FORT SIMPSON A","2202103","2018-03-01 21:00","2018","03","01","21:00","-19.4","","-22.6","","76","","","","34","","12","","24.1","","102.10","","","","-27","","Snow"
"-121.24","61.76","FORT SIMPSON A","2202103","2018-03-01 22:00","2018","03","01","22:00","-19.6","","-22.6","","78","","","","33","","14","","8.1","","102.11","","","","-28","","Snow"
"-121.24","61.76","FORT SIMPSON A","2202103","2018-03-01 23:00","2018","03","01","23:00","-19.8","","-22.6","","79","","","","34","","12","","16.1","","102.10","","","","-28","","Snow"
"-121.24","61.76","FORT SIMPSON A","2202103","2018-03-02 00:00","2018","03","02","00:00","-19.8","","-22.6","","79","","","","34","","9","","24.1","","102.08","","","","-27","","Snow"
"-121.24","61.76","FORT SIMPSON A","2202103","2018-03-02 01:00","2018","03","02","01:00","-19.8","","-22.6","","79","","","","34","","8","","16.1","","102.07","","","","-26","","Snow"
"-121.24","61.76","FORT SIMPSON A","2202103","2018-03-02 02:00","2018","03","02","02:00","-19.8","","-22.5","","80","","","","34","","5","","4.8","","102.02","","","","-24","","Snow"
"-121.24","61.76","FORT SIMPSON A","2202103","2018-03-02 03:00","2018","03","02","03:00","-19.9","","-22.5","","80","","","","36","","1","","8.1","","101.97","","","","-21","","Snow"
"-121.24","61.76","FORT SIMPSON A","2202103","2018-03-02 04:00","2018","03","02","04:00","-19.9","","-22.4","","80","","","","36","","1","","12.9","","101.91","","","","-21","","Snow"
"-121.24","61.76","FORT SIMPSON A","2202103","2018-03-02 05:00","2018","03","02","05:00","-19.3","","-22.1","","79","","","","11","","4","","8.1","","101.84","","","","-23","","Snow"
"-121.24","61.76","FORT SIMPSON A","2202103","2018-03-02 06:00","2018","03","02","06:00","-19.6","","-22.7","","76","","","","8","","6","","9.7","","101.78","","","","-25","","Snow"
"-121.24","61.76","FORT SIMPSON A","2202103","2018-03-02 07:00","2018","03","02","07:00","-19.8","","-22.8","","77","","","","36","","2","","24.1","","101.74","","","","-22","","Snow"
"-121.24","61.76","FORT SIMPSON A","2202103","2018-03-02 08:00","2018","03","02","08:00","-19.9","","-22.7","","78","","","","8","","3","","2.4","","101.72","","","","-22","","Snow"
"-121.24","61.76","FORT SIMPSON A","2202103","2018-03-02 09:00","2018","03","02","09:00","-19.8","","-22.7","","79","","","","3","","4","","1.6","","101.67","","","","-23","","Snow"
"-121.24","61.76","FORT SIMPSON A","2202103","2018-03-02 10:00","2018","03","02","10:00","-19.5","","-22.6","","77","","","","7","","5","","4.8","","101.62","","","","-24","","Snow"
"-121.24","61.76","FORT SIMPSON A","2202103","2018-03-02 11:00","2018","03","02","11:00","-19.0","","-22.2","","76","","","","6","","4","","4.8","","101.55","","","","-22","","Snow"
"-121.24","61.76","FORT SIMPSON A","2202103","2018-03-02 12:00","2018","03","02","12:00","-18.6","","-22.0","","75","","","","12","","5","","4.8","","101.48","","","","-23","","Snow"
"-121.24","61.76","FORT SIMPSON A","2202103","2018-03-02 13:00","2018","03","02","13:00","-18.3","","-21.8","","75","","","","18","","4","","6.4","","101.43","","","","-22","","Snow"
"-121.24","61.76","FORT SIMPSON A","2202103","2018-03-02 14:00","2018","03","02","14:00","-18.0","","-21.6","","74","","","","17","","4","","6.4","","101.38","","","","-21","","Snow"
"-121.24","61.76","FORT SIMPSON A","2202103","2018-03-02 15:00","2018","03","02","15:00","-17.9","","-21.5","","74","","","","14","","6","","6.4","","101.33","","","","-23","","Snow"
"-121.24","61.76","FORT SIMPSON A","2202103","2018-03-02 16:00","2018","03","02","16:00","-17.9","","-21.0","","77","","","","18","","6","","1.2","","101.30","","","","-23","","Snow"
"-121.24","61.76","FORT SIMPSON A","2202103","2018-03-02 17:00","2018","03","02","17:00","-17.7","","-20.7","","78","","","","19","","3","","1.6","","101.26","","","","-20","","Snow"
"-121.24","61.76","FORT SIMPSON A","2202103","2018-03-02 18:00","2018","03","02","18:00","-17.9","","-21.1","","76","","","","0","","1","","1.6","","101.23","","","","-19","","Snow"
"-121.24","61.76","FORT SIMPSON A","2202103","2018-03-02 19:00","2018","03","02","19:00","-17.7","","-20.5","","79","","","","22","","3","","1.6","","101.23","","","","-20","","Snow"
"-121.24","61.76","FORT SIMPSON A","2202103","2018-03-02 20:00","2018","03","02","20:00","-18.1","","-20.4","","82","","","","31","","3","","16.1","","101.25","","","","-21","","Snow"
"-121.24","61.76","FORT SIMPSON A","2202103","2018-03-02 21:00","2018","03","02","21:00","-18.2","","-20.6","","82","","","","36","","1","","4.8","","101.21","","","","-19","","Snow"
"-121.24","61.76","FORT SIMPSON A","2202103","2018-03-02 22:00","2018","03","02","22:00","-18.4","","-20.7","","82","","","","0","","1","","12.9","","101.18","","","","-19","","Snow"
"-121.24","61.76","FORT SIMPSON A","2202103","2018-03-02 23:00","2018","03","02","23:00","-18.1","","-20.6","","81","","","","0","","1","","9.7","","101.15","","","","-19","","Snow"
"-121.24","61.76","FORT SIMPSON A","2202103","2018-03-03 00:00","2018","03","03","00:00","-18.5","","-21.2","","80","","","","36","","3","","24.1","","101.14","","","","-21","","Snow"
"-121.24","61.76","FORT SIMPSON A","2202103","2018-03-03 01:00","2018","03","03","01:00","-21.9","","-24.2","","82","","","","36","","2","","24.1","","101.11","","","","-24","","Snow"
"-121.24","61.76","FORT SIMPSON A","2202103","2018-03-03 02:00","2018","03","03","02:00","-24.3","","-26.7","","81","","","","36","","3","","24.1","","101.11","","","","-27","","Mainly Clear"
"-121.24","61.76","FORT SIMPSON A","2202103","2018-03-03 03:00","2018","03","03","03:00","-26.7","","-29.4","","78","","","","36","","1","","24.1","","101.11","","","","-28","","NA"
"-121.24","61.76","FORT SIMPSON A","2202103","2018-03-03 04:00","2018","03","03","04:00","-28.5","","-31.5","","76","","","","36","","2","","24.1","","101.09","","","","-31","","NA"
"-121.24","61.76","FORT SIMPSON A","2202103","2018-03-03 05:00","2018","03","03","05:00","-30.2","","-33.4","","75","","","","36","","1","","24.1","","101.11","","","","-31","","Mainly Clear"
"-121.24","61.76","FORT SIMPSON A","2202103","2018-03-03 06:00","2018","03","03","06:00","-30.6","","-33.7","","74","","","","36","","2","","24.1","","101.13","","","","-33","","NA"
"-121.24","61.76","FORT SIMPSON A","2202103","2018-03-03 07:00","2018","03","03","07:00","-31.5","","-34.8","","73","","","","0","","1","","24.1","","101.16","","","","-33","","NA"
"-121.24","61.76","FORT SIMPSON A","2202103","2018-03-03 08:00","2018","03","03","08:00","-30.2","","-33.4","","74","","","","14","","5","","24.1","","101.13","","","","-36","","Mostly Cloudy"
"-121.24","61.76","FORT SIMPSON A","2202103","2018-03-03 09:00","2018","03","03","09:00","-31.9","","-35.2","","73","","","","36","","2","","24.1","","101.17","","","","-34","","NA"
"-121.24","61.76","FORT SIMPSON A","2202103","2018-03-03 10:00","2018","03","03","10:00","-29.7","","-32.9","","74","","","","36","","2","","24.1","","101.20","","","","-32","","NA"
"-121.24","61.76","FORT SIMPSON A","2202103","2018-03-03 11:00","2018","03","03","11:00","-24.9","","-27.7","","78","","","","36","","3","","24.1","","101.18","","","","-28","","Mainly Clear"
"-121.24","61.76","FORT SIMPSON A","2202103","2018-03-03 12:00","2018","03","03","12:00","-19.5","","-22.1","","80","","","","16","","4","","24.1","","101.17","","","","-23","","NA"
"-121.24","61.76","FORT SIMPSON A","2202103","2018-03-03 13:00","2018","03","03","13:00","-17.7","","-20.5","","79","","","","18","","5","","24.1","","101.15","","","","-22","","NA"
"-121.24","61.76","FORT SIMPSON A","2202103","2018-03-03 14:00","2018","03","03","14:00","-16.6","","-21.2","","68","","","","18","","8","","24.1","","101.13","","","","-22","","Mostly Cloudy"
"-121.24","61.76","FORT SIMPSON A","2202103","2018-03-03 15:00","2018","03","03","15:00","-15.6","","-20.4","","67","","","","15","","4","","24.1","","101.10","","","","-19","","NA"
"-121.24","61.76","FORT SIMPSON A","2202103","2018-03-03 16:00","2018","03","03","16:00","-14.3","","-19.8","","64","","","","15","","7","","24.1","","101.07","","","","-19","","NA"
"-121.24","61.76","FORT SIMPSON A","2202103","2018-03-03 17:00","2018","03","03","17:00","-14.7","","-19.5","","68","","","","16","","8","","24.1","","101.09","","","","-20","","Mostly Cloudy"
"-121.24","61.76","FORT SIMPSON A","2202103","2018-03-03 18:00","2018","03","03","18:00","-14.6","","-18.9","","70","","","","12","","8","","24.1","","101.08","","","","-20","","NA"
"-121.24","61.76","FORT SIMPSON A","2202103","2018-03-03 19:00","2018","03","03","19:00","-15.9","","-19.2","","76","","","","11","","7","","24.1","","101.05","","","","-21","","NA"
"-121.24","61.76","FORT SIMPSON A","2202103","2018-03-03 20:00","2018","03","03","20:00","-16.9","","-20.1","","76","","","","11","","5","","24.1","","101.05","","","","-21","","Mainly Clear"
"-121.24","61.76","FORT SIMPSON A","2202103","2018-03-03 21:00","2018","03","03","21:00","-17.4","","-20.5","","77","","","","12","","4","","24.1","","101.01","","","","-21","","NA"
"-121.24","61.76","FORT SIMPSON A","2202103","2018-03-03 22:00","2018","03","03","22:00","-17.6","","-20.5","","78","","","","12","","5","","24.1","","100.95","","","","-22","","NA"
"-121.24","61.76","FORT SIMPSON A","2202103","2018-03-03 23:00","2018","03","03","23:00","-17.7","","-20.6","","78","","","","12","","6","","24.1","","100.94","","","","-22","","Mostly Cloudy"
"-121.24","61.76","FORT SIMPSON A","2202103","2018-03-04 00:00","2018","03","04","00:00","-18.3","","-21.1","","79","","","","12","","9","","24.1","","100.92","","","","-25","","NA"
"-121.24","61.76","FORT SIMPSON A","2202103","2018-03-04 01:00","2018","03","04","01:00","-18.8","","-21.6","","79","","","","12","","9","","24.1","","100.89","","","","-25","","NA"
"-121.24","61.76","FORT SIMPSON A","2202103","2018-03-04 02:00","2018","03","04","02:00","-19.3","","-21.9","","80","","","","12","","9","","24.1","","100.87","","","","-26","","Mainly Clear"
"-121.24","61.76","FORT SIMPSON A","2202103","2018-03-04 03:00","2018","03","04","03:00","-19.3","","-21.8","","81","","","","12","","9","","24.1","","100.79","","","","-26","","NA"
"-121.24","61.76","FORT SIMPSON A","2202103","2018-03-04 04:00","2018","03","04","04:00","-19.7","","-22.2","","81","","","","12","","9","","24.1","","100.73","","","","-26","","NA"
"-121.24","61.76","FORT SIMPSON A","2202103","2018-03-04 05:00","2018","03","04","05:00","-19.8","","-22.2","","81","","","","12","","12","","24.1","","100.70","","","","-28","","Mainly Clear"
"-121.24","61.76","FORT SIMPSON A","2202103","2018-03-04 06:00","2018","03","04","06:00","-20.0","","-22.5","","81","","","","13","","13","","24.1","","100.64","","","","-28","","NA"
"-121.24","61.76","FORT SIMPSON A","2202103","2018-03-04 07:00","2018","03","04","07:00","-19.9","","-22.6","","80","","","","12","","12","","24.1","","100.57","","","","-28","","NA"
"-121.24","61.76","FORT SIMPSON A","2202103","2018-03-04 08:00","2018","03","04","08:00","-20.2","","-22.9","","80","","","","11","","11","","24.1","","100.57","","","","-28","","Mostly Cloudy"
"-121.24","61.76","FORT SIMPSON A","2202103","2018-03-04 09:00","2018","03","04","09:00","-19.9","","-22.7","","79","","","","12","","8","","24.1","","100.53","","","","-26","","NA"
"-121.24","61.76","FORT SIMPSON A","2202103","2018-03-04 10:00","2018","03","04","10:00","-18.3","","-21.6","","76","","","","13","","10","","24.1","","100.49","","","","-25","","NA"
"-121.24","61.76","FORT SIMPSON A","2202103","2018-03-04 11:00","2018","03","04","11:00","-15.9","","-19.8","","72","","","","14","","10","","24.1","","100.47","","","","-22","","Mostly Cloudy"
"-121.24","61.76","FORT SIMPSON A","2202103","2018-03-04 12:00","2018","03","04","12:00","-13.4","","-18.1","","68","","","","12","","11","","24.1","","100.43","","","","-20","","NA"
"-121.24","61.76","FORT SIMPSON A","2202103","2018-03-04 13:00","2018","03","04","13:00","-11.7","","-16.9","","66","","","","13","","13","","24.1","","100.37","","","","-18","","NA"
"-121.24","61.76","FORT SIMPSON A","2202103","2018-03-04 14:00","2018","03","04","14:00","-10.6","","-16.1","","65","","","","14","","12","","24.1","","100.32","","","","-17","","Mostly Cloudy"
"-121.24","61.76","FORT SIMPSON A","2202103","2018-03-04 15:00","2018","03","04","15:00","-9.9","","-15.7","","63","","","","11","","5","","24.1","","100.32","","","","-13","","NA"
"-121.24","61.76","FORT SIMPSON A","2202103","2018-03-04 16:00","2018","03","04","16:00","-9.6","","-14.8","","66","","","","7","","8","","24.1","","100.33","","","","-14","","NA"
"-121.24","61.76","FORT SIMPSON A","2202103","2018-03-04 17:00","2018","03","04","17:00","-10.0","","-14.9","","68","","","","4","","6","","24.1","","100.36","","","","-14","","Cloudy"
"-121.24","61.76","FORT SIMPSON A","2202103","2018-03-04 18:00","2018","03","04","18:00","-10.5","","-14.9","","70","","","","34","","10","","24.1","","100.42","","","","-16","","NA"
"-121.24","61.76","FORT SIMPSON A","2202103","2018-03-04 19:00","2018","03","04","19:00","-13.1","","-16.6","","75","","","","33","","21","","24.1","","100.51","","","","-22","","NA"
"-121.24","61.76","FORT SIMPSON A","2202103","2018-03-04 20:00","2018","03","04","20:00","-13.9","","-16.9","","78","","","","32","","18","","24.1","","100.55","","","","-22","","Mostly Cloudy"
"-121.24","61.76","FORT SIMPSON A","2202103","2018-03-04 21:00","2018","03","04","21:00","-14.4","","-17.3","","79","","","","33","","14","","24.1","","100.60","","","","-22","","NA"
"-121.24","61.76","FORT SIMPSON A","2202103","2018-03-04 22:00","2018","03","04","22:00","-14.3","","-17.2","","79","","","","32","","17","","24.1","","100.66","","","","-23","","NA"
"-121.24","61.76","FORT SIMPSON A","2202103","2018-03-04 23:00","2018","03","04","23:00","-14.3","","-16.7","","82","","","","31","","11","","6.4","","100.68","","","","-21","","Snow"
"-121.24","61.76","FORT SIMPSON A","2202103","2018-03-05 00:00","2018","03","05","00:00","-14.2","","-16.6","","83","","","","32","","13","","6.4","","100.71","","","","-21","","Snow"
"-121.24","61.76","FORT SIMPSON A","2202103","2018-03-05 01:00","2018","03","05","01:00","-14.1","","-16.4","","83","","","","32","","12","","6.4","","100.72","","","","-21","","Snow"
"-121.24","61.76","FORT SIMPSON A","2202103","2018-03-05 02:00","2018","03","05","02:00","-13.5","","-15.9","","83","","","","32","","20","","6.4","","100.74","","","","-22","","Snow"
"-121.24","61.76","FORT SIMPSON A","2202103","2018-03-05 03:00","2018","03","05","03:00","-13.4","","-15.9","","82","","","","32","","22","","6.4","","100.76","","","","-23","","Snow"
"-121.24","61.76","FORT SIMPSON A","2202103","2018-03-05 04:00","2018","03","05","04:00","-13.4","","-15.8","","82","","","","32","","24","","4.8","","100.79","","","","-23","","Snow,Blowing Snow"
"-121.24","61.76","FORT SIMPSON A","2202103","2018-03-05 05:00","2018","03","05","05:00","-13.7","","-16.3","","81","","","","32","","23","","9.7","","100.83","","","","-23","","Snow,Blowing Snow"
"-121.24","61.76","FORT SIMPSON A","2202103","2018-03-05 06:00","2018","03","05","06:00","-14.1","","-16.6","","81","","","","32","","22","","9.7","","100.87","","","","-23","","Snow,Blowing Snow"
"-121.24","61.76","FORT SIMPSON A","2202103","2018-03-05 07:00","2018","03","05","07:00","-14.6","","-17.3","","80","","","","33","","22","","16.1","","100.90","","","","-24","","Snow,Blowing Snow"
"-121.24","61.76","FORT SIMPSON A","2202103","2018-03-05 08:00","2018","03","05","08:00","-15.1","","-17.8","","80","","","","32","","18","","19.3","","100.93","","","","-24","","Snow"
"-121.24","61.76","FORT SIMPSON A","2202103","2018-03-05 09:00","2018","03","05","09:00","-15.1","","-18.1","","78","","","","33","","22","","16.1","","100.97","","","","-25","","Snow"
"-121.24","61.76","FORT SIMPSON A","2202103","2018-03-05 10:00","2018","03","05","10:00","-15.1","","-18.3","","77","","","","34","","19","","16.1","","101.00","","","","-24","","Snow"
"-121.24","61.76","FORT SIMPSON A","2202103","2018-03-05 11:00","2018","03","05","11:00","-14.8","","-18.2","","76","","","","32","","22","","16.1","","101.02","","","","-24","","Snow"
"-121.24","61.76","FORT SIMPSON A","2202103","2018-03-05 12:00","2018","03","05","12:00","-14.8","","-18.1","","76","","","","33","","18","","24.1","","101.04","","","","-23","","Snow"
"-121.24","61.76","FORT SIMPSON A","2202103","2018-03-05 13:00","2018","03","05","13:00","-14.0","","-18.0","","72","","","","33","","12","","19.3","","101.04","","","","-21","","Snow"
"-121.24","61.76","FORT SIMPSON A","2202103","2018-03-05 14:00","2018","03","05","14:00","-13.0","","-17.0","","73","","","","33","","16","","19.3","","101.00","","","","-21","","Snow"
"-121.24","61.76","FORT SIMPSON A","2202103","2018-03-05 15:00","2018","03","05","15:00","-12.7","","-17.1","","71","","","","34","","19","","24.1","","100.98","","","","-21","","Snow"
"-121.24","61.76","FORT SIMPSON A","2202103","2018-03-05 16:00","2018","03","05","16:00","-12.8","","-16.1","","77","","","","34","","10","","6.4","","100.98","","","","-19","","Snow"
"-121.24","61.76","FORT SIMPSON A","2202103","2018-03-05 17:00","2018","03","05","17:00","-13.6","","-16.5","","79","","","","33","","10","","6.4","","100.98","","","","-20","","Snow"
"-121.24","61.76","FORT SIMPSON A","2202103","2018-03-05 18:00","2018","03","05","18:00","-13.6","","-16.3","","80","","","","34","","9","","24.1","","100.97","","","","-19","","Snow"
"-121.24","61.76","FORT SIMPSON A","2202103","2018-03-05 19:00","2018","03","05","19:00","-13.7","","-15.7","","85","","","","31","","8","","12.9","","100.96","","","","-19","","Snow"
"-121.24","61.76","FORT SIMPSON A","2202103","2018-03-05 20:00","2018","03","05","20:00","-15.3","","-17.5","","84","","","","33","","8","","24.1","","100.94","","","","-21","","Snow"
"-121.24","61.76","FORT SIMPSON A","2202103","2018-03-05 21:00","2018","03","05","21:00","-15.8","","-17.9","","84","","","","32","","8","","24.1","","100.93","","","","-21","","Snow"
"-121.24","61.76","FORT SIMPSON A","2202103","2018-03-05 22:00","2018","03","05","22:00","-16.1","","-18.3","","83","","","","32","","9","","24.1","","100.90","","","","-22","","Snow"
"-121.24","61.76","FORT SIMPSON A","2202103","2018-03-05 23:00","2018","03","05","23:00","-17.9","","-19.8","","85","","","","31","","8","","24.1","","100.89","","","","-24","","Snow"
"-121.24","61.76","FORT SIMPSON A","2202103","2018-03-06 00:00","2018","03","06","00:00","-18.1","","-20.0","","85","","","","30","","7","","24.1","","100.88","","","","-23","","Snow"
"-121.24","61.76","FORT SIMPSON A","2202103","2018-03-06 01:00","2018","03","06","01:00","-21.0","","-23.3","","82","","","","32","","6","","24.1","","100.87","","","","-26","","Snow"
"-121.24","61.76","FORT SIMPSON A","2202103","2018-03-06 02:00","2018","03","06","02:00","-20.2","","-22.4","","83","","","","33","","5","","24.1","","100.85","","","","-25","","Mainly Clear"
"-121.24","61.76","FORT SIMPSON A","2202103","2018-03-06 03:00","2018","03","06","03:00","-23.0","","-25.5","","80","","","","34","","4","","24.1","","100.83","","","","-27","","NA"
"-121.24","61.76","FORT SIMPSON A","2202103","2018-03-06 04:00","2018","03","06","04:00","-26.4","","-29.3","","77","","","","36","","3","","24.1","","100.79","","","","-29","","NA"
"-121.24","61.76","FORT SIMPSON A","2202103","2018-03-06 05:00","2018","03","06","05:00","-25.1","","-27.8","","78","","","","14","","3","","24.1","","100.77","","","","-28","","Mainly Clear"
"-121.24","61.76","FORT SIMPSON A","2202103","2018-03-06 06:00","2018","03","06","06:00","-26.2","","-29.0","","78","","","","34","","3","","24.1","","100.77","","","","-29","","NA"
"-121.24","61.76","FORT SIMPSON A","2202103","2018-03-06 07:00","2018","03","06","07:00","-26.7","","-29.6","","77","","","","36","","2","","24.1","","100.75","","","","-29","","NA"
"-121.24","61.76","FORT SIMPSON A","2202103","2018-03-06 08:00","2018","03","06","08:00","-26.0","","-28.9","","77","","","","31","","3","","24.1","","100.72","","","","-29","","Mainly Clear"
"-121.24","61.76","FORT SIMPSON A","2202103","2018-03-06 09:00","2018","03","06","09:00","-25.1","","-27.9","","78","","","","36","","1","","24.1","","100.69","","","","-26","","NA"
"-121.24","61.76","FORT SIMPSON A","2202103","2018-03-06 10:00","2018","03","06","10:00","-22.9","","-25.6","","79","","","","0","","1","","24.1","","100.67","","","","-24","","NA"
"-121.24","61.76","FORT SIMPSON A","2202103","2018-03-06 11:00","2018","03","06","11:00","-15.9","","-18.1","","84","","","","34","","14","","24.1","","100.64","","","","-24","","Mostly Cloudy"
"-121.24","61.76","FORT SIMPSON A","2202103","2018-03-06 12:00","2018","03","06","12:00","-14.2","","-16.2","","85","","","","34","","12","","24.1","","100.61","","","","-21","","NA"
"-121.24","61.76","FORT SIMPSON A","2202103","2018-03-06 13:00","2018","03","06","13:00","-13.2","","-15.3","","85","","","","34","","11","","24.1","","100.56","","","","-19","","Snow"
"-121.24","61.76","FORT SIMPSON A","2202103","2018-03-06 14:00","2018","03","06","14:00","-12.6","","-15.4","","80","","","","33","","12","","24.1","","100.52","","","","-19","","Snow"
"-121.24","61.76","FORT SIMPSON A","2202103","2018-03-06 15:00","2018","03","06","15:00","-12.8","","-15.9","","78","","","","34","","8","","24.1","","100.47","","","","-18","","Snow"
"-121.24","61.76","FORT SIMPSON A","2202103","2018-03-06 16:00","2018","03","06","16:00","-11.4","","-15.4","","73","","","","34","","4","","24.1","","100.40","","","","-14","","Snow"
"-121.24","61.76","FORT SIMPSON A","2202103","2018-03-06 17:00","2018","03","06","17:00","-11.8","","-15.7","","73","","","","17","","4","","24.1","","100.37","","","","-14","","Clear"
"-121.24","61.76","FORT SIMPSON A","2202103","2018-03-06 18:00","2018","03","06","18:00","-11.8","","-15.3","","75","","","","36","","2","","24.1","","100.33","","","","-13","","NA"
"-121.24","61.76","FORT SIMPSON A","2202103","2018-03-06 19:00","2018","03","06","19:00","-14.6","","-16.8","","83","","","","9","","3","","24.1","","100.29","","","","-17","","NA"
"-121.24","61.76","FORT SIMPSON A","2202103","2018-03-06 20:00","2018","03","06","20:00","-19.1","","-21.2","","83","","","","33","","4","","24.1","","100.26","","","","-22","","Clear"
"-121.24","61.76","FORT SIMPSON A","2202103","2018-03-06 21:00","2018","03","06","21:00","-20.7","","-23.1","","81","","","","36","","2","","24.1","","100.22","","","","-22","","NA"
"-121.24","61.76","FORT SIMPSON A","2202103","2018-03-06 22:00","2018","03","06","22:00","-21.7","","-24.1","","81","","","","36","","1","","24.1","","100.18","","","","-23","","NA"
"-121.24","61.76","FORT SIMPSON A","2202103","2018-03-06 23:00","2018","03","06","23:00","-22.4","","-25.1","","79","","","","36","","3","","24.1","","100.16","","","","-25","","Mainly Clear"
"-121.24","61.76","FORT SIMPSON A","2202103","2018-03-07 00:00","2018","03","07","00:00","-23.9","","-26.6","","79","","","","35","","3","","24.1","","100.13","","","","-27","","NA"
"-121.24","61.76","FORT SIMPSON A","2202103","2018-03-07 01:00","2018","03","07","01:00","-24.8","","-27.6","","78","","","","36","","2","","24.1","","100.10","","","","-27","","NA"
"-121.24","61.76","FORT SIMPSON A","2202103","2018-03-07 02:00","2018","03","07","02:00","-26.5","","-29.4","","77","","","","2","","3","","24.1","","100.10","","","","-30","","Clear"
"-121.24","61.76","FORT SIMPSON A","2202103","2018-03-07 03:00","2018","03","07","03:00","-26.6","","-29.6","","76","","","","36","","2","","24.1","","100.08","","","","-29","","NA"
"-121.24","61.76","FORT SIMPSON A","2202103","2018-03-07 04:00","2018","03","07","04:00","-27.2","","-30.3","","76","","","","36","","1","","24.1","","100.07","","","","-28","","NA"
"-121.24","61.76","FORT SIMPSON A","2202103","2018-03-07 05:00","2018","03","07","05:00","-28.4","","-31.5","","75","","","","33","","3","","24.1","","100.10","","","","-32","","Clear"
"-121.24","61.76","FORT SIMPSON A","2202103","2018-03-07 06:00","2018","03","07","06:00","-28.7","","-31.8","","75","","","","36","","1","","24.1","","100.10","","","","-30","","NA"
"-121.24","61.76","FORT SIMPSON A","2202103","2018-03-07 07:00","2018","03","07","07:00","-29.5","","-32.8","","74","","","","36","","1","","24.1","","100.10","","","","-31","","NA"
"-121.24","61.76","FORT SIMPSON A","2202103","2018-03-07 08:00","2018","03","07","08:00","-28.9","","-31.7","","78","","","","34","","4","","4.0","","100.10","","","","-33","","Fog"
"-121.24","61.76","FORT SIMPSON A","2202103","2018-03-07 09:00","2018","03","07","09:00","-26.6","","-29.5","","77","","","","36","","1","","1.6","","100.10","","","","-28","","Fog"
"-121.24","61.76","FORT SIMPSON A","2202103","2018-03-07 10:00","2018","03","07","10:00","-25.0","","-27.9","","77","","","","36","","3","","2.4","","100.10","","","","-28","","Fog"
"-121.24","61.76","FORT SIMPSON A","2202103","2018-03-07 11:00","2018","03","07","11:00","-22.8","","-25.5","","79","","","","17","","6","","24.1","","100.09","","","","-28","","Mostly Cloudy"
"-121.24","61.76","FORT SIMPSON A","2202103","2018-03-07 12:00","2018","03","07","12:00","-19.5","","-22.0","","81","","","","36","","2","","24.1","","100.06","","","","-21","","NA"
"-121.24","61.76","FORT SIMPSON A","2202103","2018-03-07 13:00","2018","03","07","13:00","-16.4","","-18.6","","83","","","","14","","7","","24.1","","100.03","","","","-21","","NA"
"-121.24","61.76","FORT SIMPSON A","2202103","2018-03-07 14:00","2018","03","07","14:00","-14.1","","-16.5","","83","","","","15","","7","","24.1","","99.99","","","","-19","","Mainly Clear"
"-121.24","61.76","FORT SIMPSON A","2202103","2018-03-07 15:00","2018","03","07","15:00","-11.3","","-15.2","","73","","","","15","","4","","24.1","","99.94","","","","-14","","NA"
"-121.24","61.76","FORT SIMPSON A","2202103","2018-03-07 16:00","2018","03","07","16:00","-10.0","","-14.6","","70","","","","15","","4","","24.1","","99.90","","","","-12","","NA"
"-121.24","61.76","FORT SIMPSON A","2202103","2018-03-07 17:00","2018","03","07","17:00","-9.5","","-14.7","","66","","","","14","","4","","24.1","","99.87","","","","-12","","Clear"
"-121.24","61.76","FORT SIMPSON A","2202103","2018-03-07 18:00","2018","03","07","18:00","-10.3","","-15.5","","66","","","","36","","2","","24.1","","99.83","","","","-11","","NA"
"-121.24","61.76","FORT SIMPSON A","2202103","2018-03-07 19:00","2018","03","07","19:00","-11.2","","-14.6","","76","","","","12","","5","","24.1","","99.80","","","","-14","","NA"
"-121.24","61.76","FORT SIMPSON A","2202103","2018-03-07 20:00","2018","03","07","20:00","-16.8","","-18.5","","87","","","","12","","4","","24.1","","99.74","","","","-20","","Mainly Clear"
"-121.24","61.76","FORT SIMPSON A","2202103","2018-03-07 21:00","2018","03","07","21:00","-19.0","","-21.2","","83","","","","36","","2","","24.1","","99.71","","","","-21","","NA"
"-121.24","61.76","FORT SIMPSON A","2202103","2018-03-07 22:00","2018","03","07","22:00","-20.9","","-23.2","","82","","","","11","","4","","24.1","","99.68","","","","-24","","NA"
"-121.24","61.76","FORT SIMPSON A","2202103","2018-03-07 23:00","2018","03","07","23:00","-21.6","","-24.4","","79","","","","12","","4","","24.1","","99.63","","","","-25","","Mainly Clear"
"-121.24","61.76","FORT SIMPSON A","2202103","2018-03-08 00:00","2018","03","08","00:00","-21.9","","-24.5","","80","","","","12","","5","","24.1","","99.60","","","","-26","","NA"
"-121.24","61.76","FORT SIMPSON A","2202103","2018-03-08 01:00","2018","03","08","01:00","-16.3","","-18.3","","84","","","","9","","8","","24.1","","99.57","","","","-22","","NA"
"-121.24","61.76","FORT SIMPSON A","2202103","2018-03-08 02:00","2018","03","08","02:00","-17.2","","-19.4","","83","","","","9","","5","","24.1","","99.50","","","","-21","","Mainly Clear"
"-121.24","61.76","FORT SIMPSON A","2202103","2018-03-08 03:00","2018","03","08","03:00","-18.1","","-20.2","","84","","","","10","","3","","24.1","","99.48","","","","-21","","NA"
"-121.24","61.76","FORT SIMPSON A","2202103","2018-03-08 04:00","2018","03","08","04:00","-18.6","","-20.8","","83","","","","12","","5","","24.1","","99.41","","","","-23","","NA"
"-121.24","61.76","FORT SIMPSON A","2202103","2018-03-08 05:00","2018","03","08","05:00","-18.3","","-20.5","","83","","","","10","","6","","24.1","","99.36","","","","-23","","Mainly Clear"
"-121.24","61.76","FORT SIMPSON A","2202103","2018-03-08 06:00","2018","03","08","06:00","-18.9","","-21.1","","83","","","","11","","4","","24.1","","99.31","","","","-22","","NA"
"-121.24","61.76","FORT SIMPSON A","2202103","2018-03-08 07:00","2018","03","08","07:00","-21.9","","-24.3","","81","","","","36","","3","","24.1","","99.27","","","","-25","","NA"
"-121.24","61.76","FORT SIMPSON A","2202103","2018-03-08 08:00","2018","03","08","08:00","-25.3","","-28.1","","78","","","","36","","1","","24.1","","99.20","","","","-26","","Mainly Clear"
"-121.24","61.76","FORT SIMPSON A","2202103","2018-03-08 09:00","2018","03","08","09:00","-25.6","","-28.6","","77","","","","36","","2","","24.1","","99.17","","","","-28","","NA"
"-121.24","61.76","FORT SIMPSON A","2202103","2018-03-08 10:00","2018","03","08","10:00","-20.9","","-23.4","","81","","","","36","","2","","24.1","","99.13","","","","-23","","NA"
"-121.24","61.76","FORT SIMPSON A","2202103","2018-03-08 11:00","2018","03","08","11:00","-15.1","","-17.2","","84","","","","10","","5","","24.1","","99.06","","","","-19","","Mainly Clear"
"-121.24","61.76","FORT SIMPSON A","2202103","2018-03-08 12:00","2018","03","08","12:00","-13.8","","-16.2","","82","","","","16","","8","","24.1","","99.00","","","","-19","","NA"
"-121.24","61.76","FORT SIMPSON A","2202103","2018-03-08 13:00","2018","03","08","13:00","-9.6","","-14.7","","66","","","","11","","6","","24.1","","98.90","","","","-13","","NA"
"-121.24","61.76","FORT SIMPSON A","2202103","2018-03-08 14:00","2018","03","08","14:00","-8.6","","-14.8","","61","","","","13","","13","","24.1","","98.83","","","","-15","","Mostly Cloudy"
"-121.24","61.76","FORT SIMPSON A","2202103","2018-03-08 15:00","2018","03","08","15:00","-8.4","","-14.7","","61","","","","10","","8","","24.1","","98.76","","","","-13","","NA"
"-121.24","61.76","FORT SIMPSON A","2202103","2018-03-08 16:00","2018","03","08","16:00","-8.3","","-14.5","","62","","","","12","","7","","24.1","","98.70","","","","-12","","NA"
"-121.24","61.76","FORT SIMPSON A","2202103","2018-03-08 17:00","2018","03","08","17:00","-8.3","","-14.6","","61","","","","12","","12","","24.1","","98.65","","","","-14","","Cloudy"
"-121.24","61.76","FORT SIMPSON A","2202103","2018-03-08 18:00","2018","03","08","18:00","-8.7","","-14.6","","63","","","","10","","7","","24.1","","98.60","","","","-13","","NA"
"-121.24","61.76","FORT SIMPSON A","2202103","2018-03-08 19:00","2018","03","08","19:00","-9.4","","-14.7","","66","","","","11","","10","","24.1","","98.57","","","","-15","","NA"
"-121.24","61.76","FORT SIMPSON A","2202103","2018-03-08 20:00","2018","03","08","20:00","-10.1","","-14.9","","68","","","","9","","6","","24.1","","98.53","","","","-14","","Cloudy"
"-121.24","61.76","FORT SIMPSON A","2202103","2018-03-08 21:00","2018","03","08","21:00","-10.3","","-15.2","","68","","","","12","","8","","24.1","","98.49","","","","-15","","NA"
"-121.24","61.76","FORT SIMPSON A","2202103","2018-03-08 22:00","2018","03","08","22:00","-10.8","","-14.8","","73","","","","11","","8","","16.1","","98.43","","","","-15","","Snow"
"-121.24","61.76","FORT SIMPSON A","2202103","2018-03-08 23:00","2018","03","08","23:00","-11.0","","-14.4","","76","","","","11","","8","","8.1","","98.39","","","","-16","","Snow"
"-121.24","61.76","FORT SIMPSON A","2202103","2018-03-09 00:00","2018","03","09","00:00","-11.3","","-14.1","","80","","","","13","","10","","12.9","","98.37","","","","-17","","Snow"
"-121.24","61.76","FORT SIMPSON A","2202103","2018-03-09 01:00","2018","03","09","01:00","-11.7","","-14.0","","83","","","","10","","4","","9.7","","98.31","","","","-14","","Snow"
"-121.24","61.76","FORT SIMPSON A","2202103","2018-03-09 02:00","2018","03","09","02:00","-12.1","","-14.4","","83","","","","13","","4","","24.1","","98.28","","","","-15","","Snow"
"-121.24","61.76","FORT SIMPSON A","2202103","2018-03-09 03:00","2018","03","09","03:00","-12.0","","-14.4","","83","","","","14","","5","","24.1","","98.28","","","","-15","","Snow"
"-121.24","61.76","FORT SIMPSON A","2202103","2018-03-09 04:00","2018","03","09","04:00","-12.2","","-14.4","","84","","","","11","","4","","16.1","","98.23","","","","-15","","Snow"
"-121.24","61.76","FORT SIMPSON A","2202103","2018-03-09 05:00","2018","03","09","05:00","-12.6","","-14.7","","84","","","","36","","2","","8.1","","98.21","","","","-14","","Snow"
"-121.24","61.76","FORT SIMPSON A","2202103","2018-03-09 06:00","2018","03","09","06:00","-12.8","","-14.7","","86","","","","13","","4","","24.1","","98.21","","","","-15","","Snow"
"-121.24","61.76","FORT SIMPSON A","2202103","2018-03-09 07:00","2018","03","09","07:00","-14.0","","-16.1","","84","","","","20","","3","","24.1","","98.24","","","","-16","","Snow"
"-121.24","61.76","FORT SIMPSON A","2202103","2018-03-09 08:00","2018","03","09","08:00","-16.5","","-18.1","","87","","","","36","","2","","24.1","","98.28","","","","-18","","Snow"
"-121.24","61.76","FORT SIMPSON A","2202103","2018-03-09 09:00","2018","03","09","09:00","-14.1","","-16.0","","86","","","","15","","9","","24.1","","98.25","","","","-20","","NA"
"-121.24","61.76","FORT SIMPSON A","2202103","2018-03-09 10:00","2018","03","09","10:00","-13.0","","-16.0","","79","","","","17","","7","","24.1","","98.28","","","","-18","","NA"
"-121.24","61.76","FORT SIMPSON A","2202103","2018-03-09 11:00","2018","03","09","11:00","-11.8","","-15.4","","75","","","","17","","8","","24.1","","98.29","","","","-17","","Mainly Clear"
"-121.24","61.76","FORT SIMPSON A","2202103","2018-03-09 12:00","2018","03","09","12:00","-10.2","","-14.6","","71","","","","17","","8","","24.1","","98.28","","","","-15","","NA"
"-121.24","61.76","FORT SIMPSON A","2202103","2018-03-09 13:00","2018","03","09","13:00","-8.6","","-13.4","","69","","","","18","","9","","24.1","","98.27","","","","-13","","NA"
"-121.24","61.76","FORT SIMPSON A","2202103","2018-03-09 14:00","2018","03","09","14:00","-7.4","","-12.4","","68","","","","15","","13","","24.1","","98.20","","","","-13","","Mainly Clear"
"-121.24","61.76","FORT SIMPSON A","2202103","2018-03-09 15:00","2018","03","09","15:00","-6.5","","-11.7","","67","","","","16","","17","","24.1","","98.20","","","","-13","","NA"
"-121.24","61.76","FORT SIMPSON A","2202103","2018-03-09 16:00","2018","03","09","16:00","-5.6","","-11.4","","64","","","","14","","15","","24.1","","98.14","","","","-11","","NA"
"-121.24","61.76","FORT SIMPSON A","2202103","2018-03-09 17:00","2018","03","09","17:00","-6.0","","-11.6","","65","","","","12","","8","","24.1","","98.12","","","","-10","","Mostly Cloudy"
"-121.24","61.76","FORT SIMPSON A","2202103","2018-03-09 18:00","2018","03","09","18:00","-6.1","","-11.4","","66","","","","12","","12","","24.1","","98.10","","","","-11","","NA"
"-121.24","61.76","FORT SIMPSON A","2202103","2018-03-09 19:00","2018","03","09","19:00","-6.4","","-11.4","","68","","","","14","","7","","24.1","","98.07","","","","-10","","NA"
"-121.24","61.76","FORT SIMPSON A","2202103","2018-03-09 20:00","2018","03","09","20:00","-7.0","","-11.8","","69","","","","11","","3","","24.1","","98.06","","","","-9","","Mostly Cloudy"
"-121.24","61.76","FORT SIMPSON A","2202103","2018-03-09 21:00","2018","03","09","21:00","-7.1","","-11.6","","70","","","","13","","9","","24.1","","98.05","","","","-11","","NA"
"-121.24","61.76","FORT SIMPSON A","2202103","2018-03-09 22:00","2018","03","09","22:00","-7.5","","-11.6","","73","","","","12","","13","","24.1","","98.00","","","","-13","","NA"
"-121.24","61.76","FORT SIMPSON A","2202103","2018-03-09 23:00","2018","03","09","23:00","-8.6","","-12.2","","76","","","","11","","12","","24.1","","98.01","","","","-14","","Mainly Clear"
"-121.24","61.76","FORT SIMPSON A","2202103","2018-03-10 00:00","2018","03","10","00:00","-9.4","","-12.7","","77","","","","12","","10","","24.1","","98.05","","","","-15","","NA"
"-121.24","61.76","FORT SIMPSON A","2202103","2018-03-10 01:00","2018","03","10","01:00","-9.6","","-12.9","","77","","","","12","","13","","24.1","","98.07","","","","-16","","NA"
"-121.24","61.76","FORT SIMPSON A","2202103","2018-03-10 02:00","2018","03","10","02:00","-10.0","","-13.1","","78","","","","13","","11","","24.1","","98.12","","","","-16","","Mostly Cloudy"
"-121.24","61.76","FORT SIMPSON A","2202103","2018-03-10 03:00","2018","03","10","03:00","-11.1","","-13.8","","80","","","","12","","7","","24.1","","98.13","","","","-15","","NA"
"-121.24","61.76","FORT SIMPSON A","2202103","2018-03-10 04:00","2018","03","10","04:00","-12.1","","-14.5","","82","","","","13","","7","","24.1","","98.16","","","","-16","","NA"
"-121.24","61.76","FORT SIMPSON A","2202103","2018-03-10 05:00","2018","03","10","05:00","-13.1","","-15.5","","83","","","","12","","5","","24.1","","98.22","","","","-16","","Mainly Clear"
"-121.24","61.76","FORT SIMPSON A","2202103","2018-03-10 06:00","2018","03","10","06:00","-14.6","","-16.4","","87","","","","12","","5","","24.1","","98.27","","","","-18","","NA"
"-121.24","61.76","FORT SIMPSON A","2202103","2018-03-10 07:00","2018","03","10","07:00","-15.3","","-17.0","","87","","","","14","","9","","24.1","","98.34","","","","-21","","NA"
"-121.24","61.76","FORT SIMPSON A","2202103","2018-03-10 08:00","2018","03","10","08:00","-14.4","","-16.3","","86","","","","15","","8","","24.1","","98.39","","","","-20","","Mainly Clear"
"-121.24","61.76","FORT SIMPSON A","2202103","2018-03-10 09:00","2018","03","10","09:00","-15.4","","-19.8","","70","","","","17","","4","","24.1","","98.47","","","","-18","","NA"
"-121.24","61.76","FORT SIMPSON A","2202103","2018-03-10 10:00","2018","03","10","10:00","-12.8","","-15.9","","77","","","","19","","8","","24.1","","98.54","","","","-18","","NA"
"-121.24","61.76","FORT SIMPSON A","2202103","2018-03-10 11:00","2018","03","10","11:00","-3.1","","-12.1","","50","","","","20","","7","","24.1","","98.63","","","","-6","","Mainly Clear"
"-121.24","61.76","FORT SIMPSON A","2202103","2018-03-10 12:00","2018","03","10","12:00","1.7","","-10.8","","39","","","","23","","12","","24.1","","98.74","","","","","","NA"
"-121.24","61.76","FORT SIMPSON A","2202103","2018-03-10 13:00","2018","03","10","13:00","3.6","","-11.3","","33","","","","22","","20","","24.1","","98.87","","","","","","NA"
"-121.24","61.76","FORT SIMPSON A","2202103","2018-03-10 14:00","2018","03","10","14:00","4.4","","-11.2","","31","","","","26","","13","","24.1","","98.94","","","","","","Mainly Clear"
"-121.24","61.76","FORT SIMPSON A","2202103","2018-03-10 15:00","2018","03","10","15:00","5.4","","-14.5","","22","","","","28","","18","","24.1","","99.02","","","","","","NA"
"-121.24","61.76","FORT SIMPSON A","2202103","2018-03-10 16:00","2018","03","10","16:00","5.8","","-15.2","","21","","","","28","","17","","24.1","","99.09","","","","","","NA"
"-121.24","61.76","FORT SIMPSON A","2202103","2018-03-10 17:00","2018","03","10","17:00","5.6","","-14.8","","21","","","","26","","13","","24.1","","99.13","","","","","","Mainly Clear"
"-121.24","61.76","FORT SIMPSON A","2202103","2018-03-10 18:00","2018","03","10","18:00","4.0","","-15.5","","23","","","","26","","8","","24.1","","99.22","","","","","","NA"
"-121.24","61.76","FORT SIMPSON A","2202103","2018-03-10 19:00","2018","03","10","19:00","-2.5","","-12.0","","49","","","","24","","4","","24.1","","99.27","","","","-4","","NA"
"-121.24","61.76","FORT SIMPSON A","2202103","2018-03-10 20:00","2018","03","10","20:00","-4.8","","-10.8","","63","","","","21","","5","","24.1","","99.35","","","","-7","","Mainly Clear"
"-121.24","61.76","FORT SIMPSON A","2202103","2018-03-10 21:00","2018","03","10","21:00","-7.3","","-14.0","","59","","","","36","","1","","24.1","","99.41","","","","-8","","NA"
"-121.24","61.76","FORT SIMPSON A","2202103","2018-03-10 22:00","2018","03","10","22:00","-10.9","","-16.5","","64","","","","17","","4","","24.1","","99.46","","","","-13","","NA"
"-121.24","61.76","FORT SIMPSON A","2202103","2018-03-10 23:00","2018","03","10","23:00","-12.4","","-17.6","","66","","","","36","","1","","24.1","","99.51","","","","-13","","Clear"
"-121.24","61.76","FORT SIMPSON A","2202103","2018-03-11 00:00","2018","03","11","00:00","-12.7","","-16.5","","74","","","","16","","3","","24.1","","99.54","","","","-15","","NA"
"-121.24","61.76","FORT SIMPSON A","2202103","2018-03-11 01:00","2018","03","11","01:00","-11.1","","-15.5","","70","","","","11","","4","","24.1","","99.58","","","","-14","","NA"
"-121.24","61.76","FORT SIMPSON A","2202103","2018-03-11 02:00","2018","03","11","02:00","-14.0","","-18.1","","72","","","","14","","4","","24.1","","99.64","","","","-17","","Clear"
"-121.24","61.76","FORT SIMPSON A","2202103","2018-03-11 03:00","2018","03","11","03:00","-13.8","","-17.8","","72","","","","14","","6","","24.1","","99.69","","","","-18","","NA"
"-121.24","61.76","FORT SIMPSON A","2202103","2018-03-11 04:00","2018","03","11","04:00","-14.4","","-18.6","","71","","","","13","","3","","24.1","","99.74","","","","-17","","NA"
"-121.24","61.76","FORT SIMPSON A","2202103","2018-03-11 05:00","2018","03","11","05:00","-11.6","","-17.1","","64","","","","9","","7","","24.1","","99.77","","","","-16","","Clear"
"-121.24","61.76","FORT SIMPSON A","2202103","2018-03-11 06:00","2018","03","11","06:00","-9.3","","-16.5","","56","","","","12","","5","","24.1","","99.80","","","","-12","","NA"
"-121.24","61.76","FORT SIMPSON A","2202103","2018-03-11 07:00","2018","03","11","07:00","-11.7","","-17.4","","63","","","","36","","3","","24.1","","99.84","","","","-14","","NA"
"-121.24","61.76","FORT SIMPSON A","2202103","2018-03-11 08:00","2018","03","11","08:00","-11.6","","-17.0","","64","","","","8","","5","","24.1","","99.89","","","","-15","","Mainly Clear"
"-121.24","61.76","FORT SIMPSON A","2202103","2018-03-11 09:00","2018","03","11","09:00","-8.8","","-14.7","","63","","","","14","","9","","24.1","","99.92","","","","-13","","NA"
"-121.24","61.76","FORT SIMPSON A","2202103","2018-03-11 10:00","2018","03","11","10:00","-8.8","","-15.8","","57","","","","18","","3","","24.1","","99.98","","","","-10","","NA"
"-121.24","61.76","FORT SIMPSON A","2202103","2018-03-11 11:00","2018","03","11","11:00","-6.4","","-13.9","","55","","","","16","","3","","24.1","","100.00","","","","-8","","Mainly Clear"
"-121.24","61.76","FORT SIMPSON A","2202103","2018-03-11 12:00","2018","03","11","12:00","-2.1","","-12.1","","47","","","","36","","2","","24.1","","100.03","","","","-3","","NA"
"-121.24","61.76","FORT SIMPSON A","2202103","2018-03-11 13:00","2018","03","11","13:00","0.1","","-10.8","","44","","","","27","","3","","24.1","","100.03","","","","","","NA"
"-121.24","61.76","FORT SIMPSON A","2202103","2018-03-11 14:00","2018","03","11","14:00","2.3","","-9.6","","41","","","","23","","3","","24.1","","100.03","","","","","","Mainly Clear"
"-121.24","61.76","FORT SIMPSON A","2202103","2018-03-11 15:00","2018","03","11","15:00","5.1","","-8.4","","37","","","","9","","5","","24.1","","99.98","","","","","","NA"
"-121.24","61.76","FORT SIMPSON A","2202103","2018-03-11 16:00","2018","03","11","16:00","6.2","","-7.4","","37","","","","13","","7","","24.1","","99.98","","","","","","NA"
"-121.24","61.76","FORT SIMPSON A","2202103","2018-03-11 17:00","2018","03","11","17:00","5.3","","-7.1","","40","","","","11","","5","","24.1","","99.94","","","","","","Mainly Clear"
"-121.24","61.76","FORT SIMPSON A","2202103","2018-03-11 18:00","2018","03","11","18:00","5.0","","-7.2","","41","","","","12","","5","","24.1","","99.91","","","","","","NA"
"-121.24","61.76","FORT SIMPSON A","2202103","2018-03-11 19:00","2018","03","11","19:00","2.7","","-7.2","","48","","","","14","","7","","24.1","","99.86","","","","","","NA"
"-121.24","61.76","FORT SIMPSON A","2202103","2018-03-11 20:00","2018","03","11","20:00","2.2","","-7.7","","48","","","","10","","4","","24.1","","99.85","","","","","","Clear"
"-121.24","61.76","FORT SIMPSON A","2202103","2018-03-11 21:00","2018","03","11","21:00","0.8","","-8.5","","50","","","","11","","8","","24.1","","99.83","","","","","","NA"
"-121.24","61.76","FORT SIMPSON A","2202103","2018-03-11 22:00","2018","03","11","22:00","-0.3","","-9.5","","50","","","","11","","11","","24.1","","99.81","","","","-4","","NA"
"-121.24","61.76","FORT SIMPSON A","2202103","2018-03-11 23:00","2018","03","11","23:00","-1.1","","-10.8","","48","","","","12","","11","","24.1","","99.75","","","","-5","","Mainly Clear"
"-121.24","61.76","FORT SIMPSON A","2202103","2018-03-12 00:00","2018","03","12","00:00","-2.0","","-11.4","","49","","","","13","","12","","24.1","","99.72","","","","-6","","NA"
"-121.24","61.76","FORT SIMPSON A","2202103","2018-03-12 01:00","2018","03","12","01:00","-2.7","","-11.1","","53","","","","13","","12","","24.1","","99.66","","","","-7","","NA"
"-121.24","61.76","FORT SIMPSON A","2202103","2018-03-12 02:00","2018","03","12","02:00","-3.0","","-10.9","","55","","","","12","","12","","24.1","","99.61","","","","-7","","Mostly Cloudy"
"-121.24","61.76","FORT SIMPSON A","2202103","2018-03-12 03:00","2018","03","12","03:00","-3.8","","-10.6","","59","","","","12","","7","","24.1","","99.53","","","","-7","","NA"
"-121.24","61.76","FORT SIMPSON A","2202103","2018-03-12 04:00","2018","03","12","04:00","-3.5","","-10.2","","60","","","","10","","3","","24.1","","99.45","","","","-5","","NA"
"-121.24","61.76","FORT SIMPSON A","2202103","2018-03-12 05:00","2018","03","12","05:00","-3.6","","-9.9","","62","","","","13","","10","","24.1","","99.39","","","","-8","","Mostly Cloudy"
"-121.24","61.76","FORT SIMPSON A","2202103","2018-03-12 06:00","2018","03","12","06:00","-3.5","","-9.7","","63","","","","11","","5","","24.1","","99.35","","","","-6","","NA"
"-121.24","61.76","FORT SIMPSON A","2202103","2018-03-12 07:00","2018","03","12","07:00","-4.7","","-9.8","","67","","","","16","","9","","24.1","","99.26","","","","-9","","NA"
"-121.24","61.76","FORT SIMPSON A","2202103","2018-03-12 08:00","2018","03","12","08:00","-3.8","","-9.4","","65","","","","12","","10","","24.1","","99.20","","","","-8","","Mostly Cloudy"
"-121.24","61.76","FORT SIMPSON A","2202103","2018-03-12 09:00","2018","03","12","09:00","-2.9","","-8.6","","65","","","","15","","9","","24.1","","99.20","","","","-6","","NA"
"-121.24","61.76","FORT SIMPSON A","2202103","2018-03-12 10:00","2018","03","12","10:00","-0.9","","-7.8","","60","","","","16","","11","","24.1","","99.16","","","","-5","","NA"
"-121.24","61.76","FORT SIMPSON A","2202103","2018-03-12 11:00","2018","03","12","11:00","4.4","","-5.5","","49","","","","16","","12","","24.1","","99.12","","","","","","Mostly Cloudy"
"-121.24","61.76","FORT SIMPSON A","2202103","2018-03-12 12:00","2018","03","12","12:00","8.2","","-4.0","","42","","","","20","","13","","24.1","","99.10","","","","","","NA"
"-121.24","61.76","FORT SIMPSON A","2202103","2018-03-12 13:00","2018","03","12","13:00","9.2","","-4.4","","38","","","","25","","17","","24.1","","99.08","","","","","","NA"
"-121.24","61.76","FORT SIMPSON A","2202103","2018-03-12 14:00","2018","03","12","14:00","9.4","","-3.8","","39","","","","21","","17","","24.1","","99.05","","","","","","Mostly Cloudy"
"-121.24","61.76","FORT SIMPSON A","2202103","2018-03-12 15:00","2018","03","12","15:00","11.2","","-4.0","","34","","","","23","","21","","24.1","","99.06","","","","","","NA"
"-121.24","61.76","FORT SIMPSON A","2202103","2018-03-12 16:00","2018","03","12","16:00","11.3","","-3.8","","35","","","","26","","13","","24.1","","99.06","","","","","","NA"
"-121.24","61.76","FORT SIMPSON A","2202103","2018-03-12 17:00","2018","03","12","17:00","11.8","","-4.0","","33","","","","24","","17","","24.1","","99.06","","","","","","Mainly Clear"
"-121.24","61.76","FORT SIMPSON A","2202103","2018-03-12 18:00","2018","03","12","18:00","10.5","","-4.0","","36","","","","22","","13","","24.1","","99.07","","","","","","NA"
"-121.24","61.76","FORT SIMPSON A","2202103","2018-03-12 19:00","2018","03","12","19:00","8.7","","-3.7","","41","","","","22","","10","","24.1","","99.11","","","","","","NA"
"-121.24","61.76","FORT SIMPSON A","2202103","2018-03-12 20:00","2018","03","12","20:00","5.7","","-3.7","","51","","","","20","","7","","24.1","","99.12","","","","","","Mainly Clear"
"-121.24","61.76","FORT SIMPSON A","2202103","2018-03-12 21:00","2018","03","12","21:00","6.5","","-4.3","","46","","","","23","","9","","24.1","","99.16","","","","","","NA"
"-121.24","61.76","FORT SIMPSON A","2202103","2018-03-12 22:00","2018","03","12","22:00","0.9","","-5.3","","63","","","","28","","6","","24.1","","99.20","","","","","","NA"
"-121.24","61.76","FORT SIMPSON A","2202103","2018-03-12 23:00","2018","03","12","23:00","-1.1","","-4.9","","75","","","","36","","1","","24.1","","99.26","","","","-1","","Mainly Clear"
"-121.24","61.76","FORT SIMPSON A","2202103","2018-03-13 00:00","2018","03","13","00:00","-3.1","","-5.7","","82","","","","2","","4","","24.1","","99.34","","","","-5","","NA"
"-121.24","61.76","FORT SIMPSON A","2202103","2018-03-13 01:00","2018","03","13","01:00","-4.5","","-7.2","","81","","","","35","","4","","24.1","","99.40","","","","-6","","NA"
"-121.24","61.76","FORT SIMPSON A","2202103","2018-03-13 02:00","2018","03","13","02:00","-3.7","","-6.4","","81","","","","32","","9","","24.1","","99.48","","","","-7","","Clear"
"-121.24","61.76","FORT SIMPSON A","2202103","2018-03-13 03:00","2018","03","13","03:00","-5.6","","-8.4","","81","","","","34","","10","","24.1","","99.50","","","","-10","","NA"
"-121.24","61.76","FORT SIMPSON A","2202103","2018-03-13 04:00","2018","03","13","04:00","-3.2","","-6.7","","77","","","","32","","10","","24.1","","99.52","","","","-7","","NA"
"-121.24","61.76","FORT SIMPSON A","2202103","2018-03-13 05:00","2018","03","13","05:00","-4.7","","-7.6","","80","","","","31","","5","","24.1","","99.58","","","","-7","","Clear"
"-121.24","61.76","FORT SIMPSON A","2202103","2018-03-13 06:00","2018","03","13","06:00","-6.0","","-8.9","","80","","","","36","","3","","24.1","","99.62","","","","-7","","NA"
"-121.24","61.76","FORT SIMPSON A","2202103","2018-03-13 07:00","2018","03","13","07:00","-6.3","","-8.3","","86","","","","36","","1","","24.1","","99.67","","","","-7","","NA"
"-121.24","61.76","FORT SIMPSON A","2202103","2018-03-13 08:00","2018","03","13","08:00","-7.8","","-9.9","","85","","","","36","","3","","24.1","","99.68","","","","-9","","Mainly Clear"
"-121.24","61.76","FORT SIMPSON A","2202103","2018-03-13 09:00","2018","03","13","09:00","-6.3","","-8.0","","88","","","","10","","3","","24.1","","99.67","","","","-8","","NA"
"-121.24","61.76","FORT SIMPSON A","2202103","2018-03-13 10:00","2018","03","13","10:00","-1.1","","-6.2","","69","","","","15","","8","","24.1","","99.67","","","","-4","","NA"
"-121.24","61.76","FORT SIMPSON A","2202103","2018-03-13 11:00","2018","03","13","11:00","1.4","","-4.9","","63","","","","15","","16","","24.1","","99.64","","","","","","Mostly Cloudy"
"-121.24","61.76","FORT SIMPSON A","2202103","2018-03-13 12:00","2018","03","13","12:00","2.6","","-4.7","","59","","","","14","","12","","24.1","","99.61","","","","","","NA"
"-121.24","61.76","FORT SIMPSON A","2202103","2018-03-13 13:00","2018","03","13","13:00","3.6","","-4.6","","55","","","","14","","13","","24.1","","99.59","","","","","","NA"
"-121.24","61.76","FORT SIMPSON A","2202103","2018-03-13 14:00","2018","03","13","14:00","5.4","","-4.4","","49","","","","11","","8","","24.1","","99.54","","","","","","Mainly Clear"
"-121.24","61.76","FORT SIMPSON A","2202103","2018-03-13 15:00","2018","03","13","15:00","6.7","","-4.2","","46","","","","9","","10","","24.1","","99.45","","","","","","NA"
"-121.24","61.76","FORT SIMPSON A","2202103","2018-03-13 16:00","2018","03","13","16:00","7.8","","-3.7","","44","","","","13","","10","","24.1","","99.35","","","","","","NA"
"-121.24","61.76","FORT SIMPSON A","2202103","2018-03-13 17:00","2018","03","13","17:00","7.8","","-3.8","","44","","","","11","","8","","24.1","","99.28","","","","","","Mainly Clear"
"-121.24","61.76","FORT SIMPSON A","2202103","2018-03-13 18:00","2018","03","13","18:00","7.1","","-3.5","","47","","","","13","","8","","24.1","","99.23","","","","","","NA"
"-121.24","61.76","FORT SIMPSON A","2202103","2018-03-13 19:00","2018","03","13","19:00","5.7","","-3.5","","52","","","","13","","7","","24.1","","99.17","","","","","","NA"
"-121.24","61.76","FORT SIMPSON A","2202103","2018-03-13 20:00","2018","03","13","20:00","4.2","","-3.6","","57","","","","12","","4","","24.1","","99.15","","","","","","Clear"
"-121.24","61.76","FORT SIMPSON A","2202103","2018-03-13 21:00","2018","03","13","21:00","3.2","","-3.6","","61","","","","12","","7","","24.1","","99.13","","","","","","NA"
"-121.24","61.76","FORT SIMPSON A","2202103","2018-03-13 22:00","2018","03","13","22:00","2.7","","-3.8","","63","","","","12","","14","","24.1","","99.09","","","","","","NA"
"-121.24","61.76","FORT SIMPSON A","2202103","2018-03-13 23:00","2018","03","13","23:00","1.8","","-4.1","","65","","","","11","","8","","24.1","","99.06","","","","","","Clear"
"-121.24","61.76","FORT SIMPSON A","2202103","2018-03-14 00:00","2018","03","14","00:00","0.6","","-4.5","","69","","","","12","","9","","24.1","","99.03","","","","","","NA"
"-121.24","61.76","FORT SIMPSON A","2202103","2018-03-14 01:00","2018","03","14","01:00","-0.4","","-5.0","","71","","","","12","","12","","24.1","","99.02","","","","-4","","NA"
"-121.24","61.76","FORT SIMPSON A","2202103","2018-03-14 02:00","2018","03","14","02:00","-1.1","","-5.5","","72","","","","13","","11","","24.1","","98.98","","","","-5","","Clear"
"-121.24","61.76","FORT SIMPSON A","2202103","2018-03-14 03:00","2018","03","14","03:00","-1.6","","-5.7","","74","","","","13","","7","","24.1","","98.95","","","","-4","","NA"
"-121.24","61.76","FORT SIMPSON A","2202103","2018-03-14 04:00","2018","03","14","04:00","-2.4","","-5.8","","77","","","","12","","7","","24.1","","98.93","","","","-5","","NA"
"-121.24","61.76","FORT SIMPSON A","2202103","2018-03-14 05:00","2018","03","14","05:00","-2.4","","-6.1","","76","","","","12","","9","","24.1","","98.90","","","","-6","","Clear"
"-121.24","61.76","FORT SIMPSON A","2202103","2018-03-14 06:00","2018","03","14","06:00","-2.7","","-6.5","","75","","","","13","","9","","24.1","","98.89","","","","-6","","NA"
"-121.24","61.76","FORT SIMPSON A","2202103","2018-03-14 07:00","2018","03","14","07:00","-2.7","","-6.4","","76","","","","12","","9","","24.1","","98.89","","","","-6","","NA"
"-121.24","61.76","FORT SIMPSON A","2202103","2018-03-14 08:00","2018","03","14","08:00","-3.4","","-6.7","","78","","","","15","","8","","24.1","","98.88","","","","-7","","Mostly Cloudy"
"-121.24","61.76","FORT SIMPSON A","2202103","2018-03-14 09:00","2018","03","14","09:00","-2.6","","-6.5","","75","","","","13","","8","","24.1","","98.87","","","","-6","","NA"
"-121.24","61.76","FORT SIMPSON A","2202103","2018-03-14 10:00","2018","03","14","10:00","-2.0","","-6.4","","72","","","","13","","7","","24.1","","98.88","","","","-5","","NA"
"-121.24","61.76","FORT SIMPSON A","2202103","2018-03-14 11:00","2018","03","14","11:00","-2.1","","-5.6","","77","","","","36","","1","","24.1","","98.91","","","","-2","","Mostly Cloudy"
"-121.24","61.76","FORT SIMPSON A","2202103","2018-03-14 12:00","2018","03","14","12:00","2.2","","-5.7","","56","","","","9","","3","","24.1","","98.89","","","","","","NA"
"-121.24","61.76","FORT SIMPSON A","2202103","2018-03-14 13:00","2018","03","14","13:00","4.0","","-5.3","","51","","","","6","","4","","24.1","","98.87","","","","","","NA"
"-121.24","61.76","FORT SIMPSON A","2202103","2018-03-14 14:00","2018","03","14","14:00","4.5","","-4.8","","51","","","","25","","4","","24.1","","98.84","","","","","","Mainly Clear"
"-121.24","61.76","FORT SIMPSON A","2202103","2018-03-14 15:00","2018","03","14","15:00","6.4","","-4.5","","46","","","","3","","4","","24.1","","98.77","","","","","","NA"
"-121.24","61.76","FORT SIMPSON A","2202103","2018-03-14 16:00","2018","03","14","16:00","6.9","","-4.6","","44","","","","20","","4","","24.1","","98.73","","","","","","NA"
"-121.24","61.76","FORT SIMPSON A","2202103","2018-03-14 17:00","2018","03","14","17:00","6.3","","-4.0","","47","","","","10","","3","","24.1","","98.69","","","","","","Mainly Clear"
"-121.24","61.76","FORT SIMPSON A","2202103","2018-03-14 18:00","2018","03","14","18:00","5.6","","-4.4","","48","","","","36","","3","","24.1","","98.68","","","","","","NA"
"-121.24","61.76","FORT SIMPSON A","2202103","2018-03-14 19:00","2018","03","14","19:00","2.0","","-3.7","","66","","","","36","","2","","24.1","","98.67","","","","","","NA"
"-121.24","61.76","FORT SIMPSON A","2202103","2018-03-14 20:00","2018","03","14","20:00","-1.1","","-4.7","","76","","","","35","","4","","24.1","","98.70","","","","-2","","Mainly Clear"
"-121.24","61.76","FORT SIMPSON A","2202103","2018-03-14 21:00","2018","03","14","21:00","-2.7","","-5.9","","79","","","","36","","2","","24.1","","98.71","","","","-3","","NA"
"-121.24","61.76","FORT SIMPSON A","2202103","2018-03-14 22:00","2018","03","14","22:00","-3.2","","-6.3","","79","","","","10","","3","","24.1","","98.72","","","","-4","","NA"
"-121.24","61.76","FORT SIMPSON A","2202103","2018-03-14 23:00","2018","03","14","23:00","-4.5","","-6.6","","85","","","","14","","3","","24.1","","98.73","","","","-6","","Mainly Clear"
"-121.24","61.76","FORT SIMPSON A","2202103","2018-03-15 00:00","2018","03","15","00:00","-5.6","","-7.8","","85","","","","36","","2","","24.1","","98.74","","","","-7","","NA"
"-121.24","61.76","FORT SIMPSON A","2202103","2018-03-15 01:00","2018","03","15","01:00","-0.9","","-5.5","","71","","","","13","","5","","24.1","","98.73","","","","-3","","NA"
"-121.24","61.76","FORT SIMPSON A","2202103","2018-03-15 02:00","2018","03","15","02:00","-6.6","","-8.1","","89","","","","32","","4","","24.1","","98.73","","","","-9","","Mainly Clear"
"-121.24","61.76","FORT SIMPSON A","2202103","2018-03-15 03:00","2018","03","15","03:00","-7.3","","-8.9","","88","","","","34","","5","","24.1","","98.73","","","","-10","","NA"
"-121.24","61.76","FORT SIMPSON A","2202103","2018-03-15 04:00","2018","03","15","04:00","-7.9","","-9.2","","90","","","","30","","3","","24.1","","98.76","","","","-9","","NA"
"-121.24","61.76","FORT SIMPSON A","2202103","2018-03-15 05:00","2018","03","15","05:00","-8.7","","-9.7","","92","","","","31","","5","","24.1","","98.77","","","","-11","","Mainly Clear"
"-121.24","61.76","FORT SIMPSON A","2202103","2018-03-15 06:00","2018","03","15","06:00","-9.6","","-11.3","","87","","","","32","","5","","24.1","","98.79","","","","-12","","NA"
"-121.24","61.76","FORT SIMPSON A","2202103","2018-03-15 07:00","2018","03","15","07:00","-10.7","","-12.1","","89","","","","31","","4","","24.1","","98.82","","","","-13","","NA"
"-121.24","61.76","FORT SIMPSON A","2202103","2018-03-15 08:00","2018","03","15","08:00","-10.3","","-11.8","","89","","","","31","","4","","24.1","","98.82","","","","-13","","Mostly Cloudy"
"-121.24","61.76","FORT SIMPSON A","2202103","2018-03-15 09:00","2018","03","15","09:00","-8.7","","-9.9","","91","","","","12","","3","","24.1","","98.82","","","","-10","","NA"
"-121.24","61.76","FORT SIMPSON A","2202103","2018-03-15 10:00","2018","03","15","10:00","-5.0","","-7.6","","82","","","","15","","3","","24.1","","98.84","","","","-6","","NA"
"-121.24","61.76","FORT SIMPSON A","2202103","2018-03-15 11:00","2018","03","15","11:00","-3.3","","-7.4","","73","","","","15","","5","","24.1","","98.85","","","","-5","","Mostly Cloudy"
"-121.24","61.76","FORT SIMPSON A","2202103","2018-03-15 12:00","2018","03","15","12:00","-0.4","","-6.7","","63","","","","15","","7","","24.1","","98.81","","","","-3","","NA"
"-121.24","61.76","FORT SIMPSON A","2202103","2018-03-15 13:00","2018","03","15","13:00","0.9","","-6.4","","58","","","","13","","9","","24.1","","98.79","","","","","","NA"
"-121.24","61.76","FORT SIMPSON A","2202103","2018-03-15 14:00","2018","03","15","14:00","2.3","","-5.9","","55","","","","14","","12","","24.1","","98.77","","","","","","Mostly Cloudy"
"-121.24","61.76","FORT SIMPSON A","2202103","2018-03-15 15:00","2018","03","15","15:00","3.2","","-5.9","","51","","","","12","","5","","24.1","","98.72","","","","","","NA"
"-121.24","61.76","FORT SIMPSON A","2202103","2018-03-15 16:00","2018","03","15","16:00","4.1","","-5.4","","50","","","","14","","11","","24.1","","98.72","","","","","","NA"
"-121.24","61.76","FORT SIMPSON A","2202103","2018-03-15 17:00","2018","03","15","17:00","3.9","","-5.6","","50","","","","13","","7","","24.1","","98.69","","","","","","Mainly Clear"
"-121.24","61.76","FORT SIMPSON A","2202103","2018-03-15 18:00","2018","03","15","18:00","3.4","","-5.8","","51","","","","14","","11","","24.1","","98.71","","","","","","NA"
"-121.24","61.76","FORT SIMPSON A","2202103","2018-03-15 19:00","2018","03","15","19:00","2.0","","-6.2","","55","","","","13","","8","","24.1","","98.75","","","","","","NA"
"-121.24","61.76","FORT SIMPSON A","2202103","2018-03-15 20:00","2018","03","15","20:00","0.0","","-6.8","","61","","","","10","","6","","24.1","","98.82","","","","-2","","Mainly Clear"
"-121.24","61.76","FORT SIMPSON A","2202103","2018-03-15 21:00","2018","03","15","21:00","-1.5","","-7.5","","64","","","","9","","4","","24.1","","98.87","","","","-3","","NA"
"-121.24","61.76","FORT SIMPSON A","2202103","2018-03-15 22:00","2018","03","15","22:00","-2.5","","-8.1","","66","","","","11","","3","","24.1","","98.89","","","","-4","","NA"
"-121.24","61.76","FORT SIMPSON A","2202103","2018-03-15 23:00","2018","03","15","23:00","-5.1","","-9.2","","73","","","","34","","3","","24.1","","98.95","","","","-6","","Clear"
"-121.24","61.76","FORT SIMPSON A","2202103","2018-03-16 00:00","2018","03","16","00:00","-6.9","","-9.6","","81","","","","35","","5","","24.1","","99.02","","","","-9","","NA"
"-121.24","61.76","FORT SIMPSON A","2202103","2018-03-16 01:00","2018","03","16","01:00","-5.2","","-8.9","","75","","","","33","","8","","24.1","","99.13","","","","-9","","NA"
"-121.24","61.76","FORT SIMPSON A","2202103","2018-03-16 02:00","2018","03","16","02:00","-6.3","","-9.2","","80","","","","33","","8","","24.1","","99.16","","","","-10","","Mainly Clear"
"-121.24","61.76","FORT SIMPSON A","2202103","2018-03-16 03:00","2018","03","16","03:00","-7.2","","-9.9","","81","","","","34","","11","","24.1","","99.20","","","","-12","","NA"
"-121.24","61.76","FORT SIMPSON A","2202103","2018-03-16 04:00","2018","03","16","04:00","-8.3","","-10.6","","84","","","","31","","9","","24.1","","99.25","","","","-13","","NA"
"-121.24","61.76","FORT SIMPSON A","2202103","2018-03-16 05:00","2018","03","16","05:00","-9.1","","-11.3","","84","","","","32","","8","","24.1","","99.32","","","","-13","","Mainly Clear"
"-121.24","61.76","FORT SIMPSON A","2202103","2018-03-16 06:00","2018","03","16","06:00","-8.5","","-11.0","","82","","","","33","","11","","24.1","","99.38","","","","-14","","NA"
"-121.24","61.76","FORT SIMPSON A","2202103","2018-03-16 07:00","2018","03","16","07:00","-8.3","","-10.7","","83","","","","31","","9","","24.1","","99.45","","","","-13","","NA"
"-121.24","61.76","FORT SIMPSON A","2202103","2018-03-16 08:00","2018","03","16","08:00","-7.1","","-9.6","","83","","","","33","","12","","24.1","","99.51","","","","-12","","Mostly Cloudy"
"-121.24","61.76","FORT SIMPSON A","2202103","2018-03-16 09:00","2018","03","16","09:00","-6.0","","-9.0","","79","","","","33","","13","","24.1","","99.56","","","","-11","","NA"
"-121.24","61.76","FORT SIMPSON A","2202103","2018-03-16 10:00","2018","03","16","10:00","-4.4","","-7.9","","77","","","","33","","14","","24.1","","99.60","","","","-10","","NA"
"-121.24","61.76","FORT SIMPSON A","2202103","2018-03-16 11:00","2018","03","16","11:00","-2.2","","-6.6","","72","","","","33","","17","","24.1","","99.60","","","","-8","","Mainly Clear"
"-121.24","61.76","FORT SIMPSON A","2202103","2018-03-16 12:00","2018","03","16","12:00","0.2","","-5.5","","66","","","","34","","16","","24.1","","99.61","","","","","","NA"
"-121.24","61.76","FORT SIMPSON A","2202103","2018-03-16 13:00","2018","03","16","13:00","1.0","","-4.7","","66","","","","33","","11","","24.1","","99.59","","","","","","NA"
"-121.24","61.76","FORT SIMPSON A","2202103","2018-03-16 14:00","2018","03","16","14:00","2.0","","-5.1","","59","","","","35","","5","","24.1","","99.56","","","","","","Mostly Cloudy"
"-121.24","61.76","FORT SIMPSON A","2202103","2018-03-16 15:00","2018","03","16","15:00","2.8","","-4.0","","61","","","","36","","3","","24.1","","99.56","","","","","","NA"
"-121.24","61.76","FORT SIMPSON A","2202103","2018-03-16 16:00","2018","03","16","16:00","3.4","","-4.4","","57","","","","24","","5","","24.1","","99.56","","","","","","NA"
"-121.24","61.76","FORT SIMPSON A","2202103","2018-03-16 17:00","2018","03","16","17:00","4.4","","-4.9","","51","","","","0","","1","","24.1","","99.54","","","","","","Mostly Cloudy"
"-121.24","61.76","FORT SIMPSON A","2202103","2018-03-16 18:00","2018","03","16","18:00","4.6","","-4.2","","53","","","","12","","4","","24.1","","99.52","","","","","","NA"
"-121.24","61.76","FORT SIMPSON A","2202103","2018-03-16 19:00","2018","03","16","19:00","3.4","","-4.2","","58","","","","12","","7","","24.1","","99.49","","","","","","NA"
"-121.24","61.76","FORT SIMPSON A","2202103","2018-03-16 20:00","2018","03","16","20:00","2.0","","-4.1","","64","","","","12","","7","","24.1","","99.49","","","","","","Mainly Clear"
"-121.24","61.76","FORT SIMPSON A","2202103","2018-03-16 21:00","2018","03","16","21:00","1.3","","-4.3","","67","","","","13","","15","","24.1","","99.50","","","","","","NA"
"-121.24","61.76","FORT SIMPSON A","2202103","2018-03-16 22:00","2018","03","16","22:00","0.2","","-5.2","","67","","","","12","","10","","24.1","","99.54","","","","","","NA"
"-121.24","61.76","FORT SIMPSON A","2202103","2018-03-16 23:00","2018","03","16","23:00","-0.8","","-5.3","","71","","","","12","","10","","24.1","","99.58","","","","-4","","Mainly Clear"
"-121.24","61.76","FORT SIMPSON A","2202103","2018-03-17 00:00","2018","03","17","00:00","-1.7","","-5.9","","73","","","","10","","9","","24.1","","99.60","","","","-5","","NA"
"-121.24","61.76","FORT SIMPSON A","2202103","2018-03-17 01:00","2018","03","17","01:00","-2.8","","-6.7","","74","","","","12","","13","","24.1","","99.62","","","","-7","","NA"
"-121.24","61.76","FORT SIMPSON A","2202103","2018-03-17 02:00","2018","03","17","02:00","-3.5","","-7.3","","75","","","","11","","8","","24.1","","99.62","","","","-7","","Mainly Clear"
"-121.24","61.76","FORT SIMPSON A","2202103","2018-03-17 03:00","2018","03","17","03:00","-3.8","","-7.6","","75","","","","13","","11","","24.1","","99.61","","","","-8","","NA"
"-121.24","61.76","FORT SIMPSON A","2202103","2018-03-17 04:00","2018","03","17","04:00","-3.9","","-7.7","","75","","","","13","","17","","24.1","","99.61","","","","-10","","NA"
"-121.24","61.76","FORT SIMPSON A","2202103","2018-03-17 05:00","2018","03","17","05:00","-3.9","","-7.9","","74","","","","12","","12","","24.1","","99.65","","","","-9","","Mainly Clear"
"-121.24","61.76","FORT SIMPSON A","2202103","2018-03-17 06:00","2018","03","17","06:00","-4.8","","-8.3","","76","","","","12","","15","","24.1","","99.65","","","","-10","","NA"
"-121.24","61.76","FORT SIMPSON A","2202103","2018-03-17 07:00","2018","03","17","07:00","-5.3","","-8.6","","78","","","","12","","11","","24.1","","99.68","","","","-10","","NA"
"-121.24","61.76","FORT SIMPSON A","2202103","2018-03-17 08:00","2018","03","17","08:00","-5.3","","-8.8","","76","","","","14","","13","","24.1","","99.69","","","","-10","","Mostly Cloudy"
"-121.24","61.76","FORT SIMPSON A","2202103","2018-03-17 09:00","2018","03","17","09:00","-5.3","","-9.1","","75","","","","13","","16","","24.1","","99.74","","","","-11","","NA"
"-121.24","61.76","FORT SIMPSON A","2202103","2018-03-17 10:00","2018","03","17","10:00","-4.9","","-8.9","","74","","","","12","","10","","24.1","","99.77","","","","-9","","NA"
"-121.24","61.76","FORT SIMPSON A","2202103","2018-03-17 11:00","2018","03","17","11:00","-4.2","","-8.6","","71","","","","11","","12","","24.1","","99.78","","","","-9","","Mainly Clear"
"-121.24","61.76","FORT SIMPSON A","2202103","2018-03-17 12:00","2018","03","17","12:00","-2.2","","-7.8","","66","","","","13","","8","","24.1","","99.81","","","","-5","","NA"
"-121.24","61.76","FORT SIMPSON A","2202103","2018-03-17 13:00","2018","03","17","13:00","-1.0","","-7.3","","62","","","","13","","14","","24.1","","99.80","","","","-5","","NA"
"-121.24","61.76","FORT SIMPSON A","2202103","2018-03-17 14:00","2018","03","17","14:00","0.0","","-6.7","","61","","","","14","","14","","24.1","","99.81","","","","-4","","Mainly Clear"
"-121.24","61.76","FORT SIMPSON A","2202103","2018-03-17 15:00","2018","03","17","15:00","0.7","","-6.7","","58","","","","13","","9","","24.1","","99.81","","","","","","NA"
"-121.24","61.76","FORT SIMPSON A","2202103","2018-03-17 16:00","2018","03","17","16:00","1.1","","-6.5","","57","","","","14","","10","","24.1","","99.80","","","","","","NA"
"-121.24","61.76","FORT SIMPSON A","2202103","2018-03-17 17:00","2018","03","17","17:00","1.3","","-6.5","","56","","","","36","","3","","24.1","","99.82","","","","","","Clear"
"-121.24","61.76","FORT SIMPSON A","2202103","2018-03-17 18:00","2018","03","17","18:00","0.8","","-7.3","","55","","","","9","","8","","24.1","","99.87","","","","","","NA"
"-121.24","61.76","FORT SIMPSON A","2202103","2018-03-17 19:00","2018","03","17","19:00","-0.6","","-7.7","","59","","","","8","","7","","24.1","","99.91","","","","-3","","NA"
"-121.24","61.76","FORT SIMPSON A","2202103","2018-03-17 20:00","2018","03","17","20:00","-1.7","","-8.0","","62","","","","10","","6","","24.1","","99.93","","","","-4","","Clear"
"-121.24","61.76","FORT SIMPSON A","2202103","2018-03-17 21:00","2018","03","17","21:00","-2.4","","-8.5","","63","","","","6","","4","","24.1","","100.00","","","","-4","","NA"
"-121.24","61.76","FORT SIMPSON A","2202103","2018-03-17 22:00","2018","03","17","22:00","-3.8","","-8.6","","69","","","","10","","4","","24.1","","100.04","","","","-5","","NA"
"-121.24","61.76","FORT SIMPSON A","2202103","2018-03-17 23:00","2018","03","17","23:00","-3.9","","-9.1","","67","","","","10","","5","","24.1","","100.05","","","","-6","","Clear"
"-121.24","61.76","FORT SIMPSON A","2202103","2018-03-18 00:00","2018","03","18","00:00","-4.6","","-9.8","","67","","","","36","","3","","24.1","","100.04","","","","-6","","NA"
"-121.24","61.76","FORT SIMPSON A","2202103","2018-03-18 01:00","2018","03","18","01:00","-8.4","","-10.5","","85","","","","32","","3","","24.1","","100.03","","","","-10","","NA"
"-121.24","61.76","FORT SIMPSON A","2202103","2018-03-18 02:00","2018","03","18","02:00","-9.8","","-11.9","","85","","","","36","","2","","24.1","","100.06","","","","-11","","Mainly Clear"
"-121.24","61.76","FORT SIMPSON A","2202103","2018-03-18 03:00","2018","03","18","03:00","-10.9","","-13.0","","85","","","","4","","3","","24.1","","100.05","","","","-13","","NA"
"-121.24","61.76","FORT SIMPSON A","2202103","2018-03-18 04:00","2018","03","18","04:00","-11.3","","-13.2","","85","","","","36","","1","","24.1","","100.02","","","","-12","","NA"
"-121.24","61.76","FORT SIMPSON A","2202103","2018-03-18 05:00","2018","03","18","05:00","-10.9","","-13.2","","84","","","","36","","3","","24.1","","100.02","","","","-13","","Mainly Clear"
"-121.24","61.76","FORT SIMPSON A","2202103","2018-03-18 06:00","2018","03","18","06:00","-12.2","","-14.1","","86","","","","0","","1","","24.1","","99.99","","","","-13","","NA"
"-121.24","61.76","FORT SIMPSON A","2202103","2018-03-18 07:00","2018","03","18","07:00","-11.8","","-13.2","","89","","","","10","","6","","24.1","","99.96","","","","-16","","NA"
"-121.24","61.76","FORT SIMPSON A","2202103","2018-03-18 08:00","2018","03","18","08:00","-10.2","","-12.2","","85","","","","10","","4","","24.1","","99.93","","","","-13","","Clear"
"-121.24","61.76","FORT SIMPSON A","2202103","2018-03-18 09:00","2018","03","18","09:00","-9.0","","-11.7","","80","","","","13","","7","","24.1","","99.90","","","","-13","","NA"
"-121.24","61.76","FORT SIMPSON A","2202103","2018-03-18 10:00","2018","03","18","10:00","-7.2","","-11.2","","73","","","","12","","7","","24.1","","99.87","","","","-11","","NA"
"-121.24","61.76","FORT SIMPSON A","2202103","2018-03-18 11:00","2018","03","18","11:00","-4.6","","-10.0","","66","","","","14","","7","","24.1","","99.83","","","","-8","","Mainly Clear"
"-121.24","61.76","FORT SIMPSON A","2202103","2018-03-18 12:00","2018","03","18","12:00","-2.4","","-8.9","","61","","","","14","","9","","24.1","","99.77","","","","-6","","NA"
"-121.24","61.76","FORT SIMPSON A","2202103","2018-03-18 13:00","2018","03","18","13:00","-0.1","","-8.7","","53","","","","13","","8","","24.1","","99.70","","","","-3","","NA"
"-121.24","61.76","FORT SIMPSON A","2202103","2018-03-18 14:00","2018","03","18","14:00","1.5","","-6.7","","54","","","","14","","9","","24.1","","99.60","","","","","","Mostly Cloudy"
"-121.24","61.76","FORT SIMPSON A","2202103","2018-03-18 15:00","2018","03","18","15:00","2.9","","-6.1","","52","","","","14","","9","","24.1","","99.49","","","","","","NA"
"-121.24","61.76","FORT SIMPSON A","2202103","2018-03-18 16:00","2018","03","18","16:00","4.7","","-5.9","","46","","","","12","","11","","24.1","","99.37","","","","","","NA"
"-121.24","61.76","FORT SIMPSON A","2202103","2018-03-18 17:00","2018","03","18","17:00","4.8","","-5.4","","48","","","","13","","9","","24.1","","99.29","","","","","","Mostly Cloudy"
"-121.24","61.76","FORT SIMPSON A","2202103","2018-03-18 18:00","2018","03","18","18:00","4.4","","-5.2","","50","","","","13","","6","","24.1","","99.21","","","","","","NA"
"-121.24","61.76","FORT SIMPSON A","2202103","2018-03-18 19:00","2018","03","18","19:00","3.3","","-5.2","","54","","","","15","","4","","24.1","","99.16","","","","","","NA"
"-121.24","61.76","FORT SIMPSON A","2202103","2018-03-18 20:00","2018","03","18","20:00","1.3","","-5.7","","60","","","","14","","4","","24.1","","99.11","","","","","","Mostly Cloudy"
"-121.24","61.76","FORT SIMPSON A","2202103","2018-03-18 21:00","2018","03","18","21:00","0.5","","-5.8","","63","","","","12","","13","","24.1","","99.04","","","","","","NA"
"-121.24","61.76","FORT SIMPSON A","2202103","2018-03-18 22:00","2018","03","18","22:00","-0.2","","-6.0","","65","","","","12","","9","","24.1","","98.99","","","","-3","","NA"
"-121.24","61.76","FORT SIMPSON A","2202103","2018-03-18 23:00","2018","03","18","23:00","-0.6","","-6.2","","66","","","","11","","10","","24.1","","98.93","","","","-4","","Mostly Cloudy"
"-121.24","61.76","FORT SIMPSON A","2202103","2018-03-19 00:00","2018","03","19","00:00","-1.2","","-6.3","","68","","","","10","","9","","24.1","","98.87","","","","-4","","NA"
"-121.24","61.76","FORT SIMPSON A","2202103","2018-03-19 01:00","2018","03","19","01:00","-1.2","","-6.1","","69","","","","0","","1","","24.1","","98.88","","","","-2","","NA"
"-121.24","61.76","FORT SIMPSON A","2202103","2018-03-19 02:00","2018","03","19","02:00","-3.2","","-6.5","","78","","","","31","","5","","24.1","","98.90","","","","-5","","Mostly Cloudy"
"-121.24","61.76","FORT SIMPSON A","2202103","2018-03-19 03:00","2018","03","19","03:00","-2.7","","-6.4","","76","","","","34","","10","","24.1","","98.94","","","","-7","","NA"
"-121.24","61.76","FORT SIMPSON A","2202103","2018-03-19 04:00","2018","03","19","04:00","-3.8","","-7.5","","76","","","","33","","16","","24.1","","98.99","","","","-9","","NA"
"-121.24","61.76","FORT SIMPSON A","2202103","2018-03-19 05:00","2018","03","19","05:00","-4.4","","-8.0","","77","","","","33","","26","","24.1","","99.04","","","","-12","","Mostly Cloudy"
"-121.24","61.76","FORT SIMPSON A","2202103","2018-03-19 06:00","2018","03","19","06:00","-4.6","","-8.0","","78","","","","33","","23","","24.1","","99.10","","","","-12","","NA"
"-121.24","61.76","FORT SIMPSON A","2202103","2018-03-19 07:00","2018","03","19","07:00","-4.8","","-8.3","","77","","","","34","","19","","24.1","","99.12","","","","-11","","NA"
"-121.24","61.76","FORT SIMPSON A","2202103","2018-03-19 08:00","2018","03","19","08:00","-4.8","","-8.1","","78","","","","34","","23","","24.1","","99.16","","","","-12","","Mostly Cloudy"
"-121.24","61.76","FORT SIMPSON A","2202103","2018-03-19 09:00","2018","03","19","09:00","-4.3","","-7.9","","76","","","","34","","22","","24.1","","99.19","","","","-11","","NA"
"-121.24","61.76","FORT SIMPSON A","2202103","2018-03-19 10:00","2018","03","19","10:00","-4.0","","-7.9","","74","","","","33","","22","","24.1","","99.22","","","","-11","","NA"
"-121.24","61.76","FORT SIMPSON A","2202103","2018-03-19 11:00","2018","03","19","11:00","-2.8","","-6.6","","76","","","","33","","21","","24.1","","99.24","","","","-9","","Mostly Cloudy"
"-121.24","61.76","FORT SIMPSON A","2202103","2018-03-19 12:00","2018","03","19","12:00","-1.8","","-6.0","","73","","","","33","","21","","24.1","","99.25","","","","-8","","NA"
"-121.24","61.76","FORT SIMPSON A","2202103","2018-03-19 13:00","2018","03","19","13:00","-1.3","","-5.8","","71","","","","34","","22","","24.1","","99.27","","","","-7","","NA"
"-121.24","61.76","FORT SIMPSON A","2202103","2018-03-19 14:00","2018","03","19","14:00","-0.7","","-5.4","","70","","","","33","","21","","24.1","","99.27","","","","-6","","Mostly Cloudy"
"-121.24","61.76","FORT SIMPSON A","2202103","2018-03-19 15:00","2018","03","19","15:00","-0.2","","-5.1","","70","","","","33","","18","","24.1","","99.27","","","","-5","","NA"
"-121.24","61.76","FORT SIMPSON A","2202103","2018-03-19 16:00","2018","03","19","16:00","0.2","","-5.3","","67","","","","33","","17","","24.1","","99.25","","","","","","NA"
"-121.24","61.76","FORT SIMPSON A","2202103","2018-03-19 17:00","2018","03","19","17:00","0.3","","-5.2","","67","","","","32","","17","","24.1","","99.25","","","","","","Mainly Clear"
"-121.24","61.76","FORT SIMPSON A","2202103","2018-03-19 18:00","2018","03","19","18:00","-1.1","","-5.5","","72","","","","33","","16","","24.1","","99.27","","","","-6","","NA"
"-121.24","61.76","FORT SIMPSON A","2202103","2018-03-19 19:00","2018","03","19","19:00","-1.3","","-6.2","","70","","","","35","","13","","24.1","","99.25","","","","-6","","NA"
"-121.24","61.76","FORT SIMPSON A","2202103","2018-03-19 20:00","2018","03","19","20:00","-2.9","","-6.5","","76","","","","33","","9","","24.1","","99.25","","","","-6","","Mostly Cloudy"
"-121.24","61.76","FORT SIMPSON A","2202103","2018-03-19 21:00","2018","03","19","21:00","-4.7","","-7.5","","81","","","","32","","7","","24.1","","99.22","","","","-8","","NA"
"-121.24","61.76","FORT SIMPSON A","2202103","2018-03-19 22:00","2018","03","19","22:00","-5.8","","-8.2","","83","","","","33","","11","","24.1","","99.19","","","","-11","","NA"
"-121.24","61.76","FORT SIMPSON A","2202103","2018-03-19 23:00","2018","03","19","23:00","-6.3","","-8.5","","85","","","","32","","7","","24.1","","99.23","","","","-10","","Mainly Clear"
"-121.24","61.76","FORT SIMPSON A","2202103","2018-03-20 00:00","2018","03","20","00:00","-6.8","","-9.4","","82","","","","34","","9","","24.1","","99.22","","","","-11","","NA"
"-121.24","61.76","FORT SIMPSON A","2202103","2018-03-20 01:00","2018","03","20","01:00","-7.7","","-9.1","","90","","","","35","","5","","24.1","","99.24","","","","-10","","NA"
"-121.24","61.76","FORT SIMPSON A","2202103","2018-03-20 02:00","2018","03","20","02:00","-9.3","","-10.4","","92","","","","35","","4","","24.1","","99.26","","","","-12","","Mainly Clear"
"-121.24","61.76","FORT SIMPSON A","2202103","2018-03-20 03:00","2018","03","20","03:00","-9.9","","-11.1","","92","","","","36","","2","","24.1","","99.25","","","","-11","","NA"
"-121.24","61.76","FORT SIMPSON A","2202103","2018-03-20 04:00","2018","03","20","04:00","-10.2","","-11.3","","92","","","","34","","3","","24.1","","99.27","","","","-12","","NA"
"-121.24","61.76","FORT SIMPSON A","2202103","2018-03-20 05:00","2018","03","20","05:00","-9.9","","-11.2","","91","","","","36","","2","","24.1","","99.31","","","","-11","","Mostly Cloudy"
"-121.24","61.76","FORT SIMPSON A","2202103","2018-03-20 06:00","2018","03","20","06:00","-9.6","","-11.0","","90","","","","36","","2","","24.1","","99.34","","","","-11","","Snow"
"-121.24","61.76","FORT SIMPSON A","2202103","2018-03-20 07:00","2018","03","20","07:00","-7.0","","-8.5","","89","","","","13","","4","","12.9","","99.39","","","","-9","","Snow"
"-121.24","61.76","FORT SIMPSON A","2202103","2018-03-20 08:00","2018","03","20","08:00","-6.9","","-8.8","","86","","","","12","","4","","24.1","","99.42","","","","-9","","Snow"
"-121.24","61.76","FORT SIMPSON A","2202103","2018-03-20 09:00","2018","03","20","09:00","-6.5","","-8.8","","84","","","","13","","7","","19.3","","99.45","","","","-10","","Snow"
"-121.24","61.76","FORT SIMPSON A","2202103","2018-03-20 10:00","2018","03","20","10:00","-5.5","","-8.1","","82","","","","12","","8","","19.3","","99.46","","","","-9","","Snow"
"-121.24","61.76","FORT SIMPSON A","2202103","2018-03-20 11:00","2018","03","20","11:00","-4.9","","-8.0","","79","","","","12","","5","","19.3","","99.50","","","","-7","","Snow"
"-121.24","61.76","FORT SIMPSON A","2202103","2018-03-20 12:00","2018","03","20","12:00","-3.7","","-7.9","","73","","","","9","","8","","24.1","","99.52","","","","-7","","Snow"
"-121.24","61.76","FORT SIMPSON A","2202103","2018-03-20 13:00","2018","03","20","13:00","-3.8","","-6.5","","81","","","","5","","5","","12.9","","99.56","","","","-6","","Snow"
"-121.24","61.76","FORT SIMPSON A","2202103","2018-03-20 14:00","2018","03","20","14:00","-3.2","","-7.5","","73","","","","7","","7","","19.3","","99.58","","","","-6","","Snow"
"-121.24","61.76","FORT SIMPSON A","2202103","2018-03-20 15:00","2018","03","20","15:00","-2.5","","-7.8","","67","","","","6","","8","","24.1","","99.61","","","","-6","","Snow"
"-121.24","61.76","FORT SIMPSON A","2202103","2018-03-20 16:00","2018","03","20","16:00","-2.7","","-8.1","","66","","","","8","","6","","24.1","","99.64","","","","-5","","Snow"
"-121.24","61.76","FORT SIMPSON A","2202103","2018-03-20 17:00","2018","03","20","17:00","-2.6","","-9.3","","60","","","","7","","10","","24.1","","99.67","","","","-6","","Snow"
"-121.24","61.76","FORT SIMPSON A","2202103","2018-03-20 18:00","2018","03","20","18:00","-3.1","","-9.1","","63","","","","8","","8","","24.1","","99.73","","","","-6","","Snow"
"-121.24","61.76","FORT SIMPSON A","2202103","2018-03-20 19:00","2018","03","20","19:00","-3.6","","-9.4","","64","","","","9","","4","","24.1","","99.79","","","","-5","","Snow"
"-121.24","61.76","FORT SIMPSON A","2202103","2018-03-20 20:00","2018","03","20","20:00","-4.3","","-9.3","","68","","","","10","","12","","24.1","","99.87","","","","-9","","Snow"
"-121.24","61.76","FORT SIMPSON A","2202103","2018-03-20 21:00","2018","03","20","21:00","-5.4","","-9.6","","72","","","","8","","11","","24.1","","99.97","","","","-10","","Snow"
"-121.24","61.76","FORT SIMPSON A","2202103","2018-03-20 22:00","2018","03","20","22:00","-6.2","","-10.4","","73","","","","8","","7","","16.1","","100.06","","","","-10","","Snow"
"-121.24","61.76","FORT SIMPSON A","2202103","2018-03-20 23:00","2018","03","20","23:00","-7.4","","-12.4","","68","","","","9","","13","","12.9","","100.18","","","","-13","","Moderate Snow"
"-121.24","61.76","FORT SIMPSON A","2202103","2018-03-21 00:00","2018","03","21","00:00","-8.3","","-13.4","","67","","","","9","","13","","6.4","","100.27","","","","-14","","Snow"
"-121.24","61.76","FORT SIMPSON A","2202103","2018-03-21 01:00","2018","03","21","01:00","-9.1","","-14.6","","65","","","","9","","12","","19.3","","100.36","","","","-15","","Snow"
"-121.24","61.76","FORT SIMPSON A","2202103","2018-03-21 02:00","2018","03","21","02:00","-9.7","","-15.0","","66","","","","10","","11","","19.3","","100.45","","","","-15","","Snow"
"-121.24","61.76","FORT SIMPSON A","2202103","2018-03-21 03:00","2018","03","21","03:00","-10.5","","-14.7","","72","","","","8","","9","","12.9","","100.51","","","","-15","","Snow"
"-121.24","61.76","FORT SIMPSON A","2202103","2018-03-21 04:00","2018","03","21","04:00","-11.3","","-14.8","","76","","","","6","","7","","16.1","","100.60","","","","-16","","Snow"
"-121.24","61.76","FORT SIMPSON A","2202103","2018-03-21 05:00","2018","03","21","05:00","-12.1","","-15.8","","74","","","","9","","8","","24.1","","100.68","","","","-17","","Snow"
"-121.24","61.76","FORT SIMPSON A","2202103","2018-03-21 06:00","2018","03","21","06:00","-13.0","","-16.8","","73","","","","8","","5","","24.1","","100.77","","","","-16","","Snow"
"-121.24","61.76","FORT SIMPSON A","2202103","2018-03-21 07:00","2018","03","21","07:00","-13.8","","-17.5","","74","","","","9","","5","","24.1","","100.85","","","","-17","","Snow"
"-121.24","61.76","FORT SIMPSON A","2202103","2018-03-21 08:00","2018","03","21","08:00","-13.9","","-17.9","","72","","","","10","","3","","24.1","","100.91","","","","-16","","Snow"
"-121.24","61.76","FORT SIMPSON A","2202103","2018-03-21 09:00","2018","03","21","09:00","-13.6","","-18.3","","68","","","","12","","5","","24.1","","100.99","","","","-17","","NA"
"-121.24","61.76","FORT SIMPSON A","2202103","2018-03-21 10:00","2018","03","21","10:00","-13.3","","-19.2","","62","","","","12","","7","","24.1","","101.06","","","","-18","","NA"
"-121.24","61.76","FORT SIMPSON A","2202103","2018-03-21 11:00","2018","03","21","11:00","-12.2","","-18.5","","60","","","","27","","3","","24.1","","101.13","","","","-14","","Mostly Cloudy"
"-121.24","61.76","FORT SIMPSON A","2202103","2018-03-21 12:00","2018","03","21","12:00","-10.5","","-18.2","","54","","","","17","","5","","24.1","","101.16","","","","-14","","NA"
"-121.24","61.76","FORT SIMPSON A","2202103","2018-03-21 13:00","2018","03","21","13:00","-9.5","","-17.0","","55","","","","18","","5","","24.1","","101.18","","","","-12","","NA"
"-121.24","61.76","FORT SIMPSON A","2202103","2018-03-21 14:00","2018","03","21","14:00","-9.0","","-18.4","","47","","","","34","","7","","24.1","","101.21","","","","-13","","Mainly Clear"
"-121.24","61.76","FORT SIMPSON A","2202103","2018-03-21 15:00","2018","03","21","15:00","-8.1","","-19.3","","41","","","","6","","3","","24.1","","101.24","","","","-10","","NA"
"-121.24","61.76","FORT SIMPSON A","2202103","2018-03-21 16:00","2018","03","21","16:00","-8.0","","-18.9","","42","","","","36","","3","","24.1","","101.27","","","","-10","","NA"
"-121.24","61.76","FORT SIMPSON A","2202103","2018-03-21 17:00","2018","03","21","17:00","-10.0","","-17.4","","55","","","","33","","21","","24.1","","101.31","","","","-18","","Mainly Clear"
"-121.24","61.76","FORT SIMPSON A","2202103","2018-03-21 18:00","2018","03","21","18:00","-11.0","","-18.8","","53","","","","33","","19","","24.1","","101.39","","","","-19","","NA"
"-121.24","61.76","FORT SIMPSON A","2202103","2018-03-21 19:00","2018","03","21","19:00","-12.8","","-19.8","","56","","","","34","","13","","24.1","","101.47","","","","-20","","NA"
"-121.24","61.76","FORT SIMPSON A","2202103","2018-03-21 20:00","2018","03","21","20:00","-14.3","","-21.3","","56","","","","34","","13","","24.1","","101.55","","","","-21","","Mainly Clear"
"-121.24","61.76","FORT SIMPSON A","2202103","2018-03-21 21:00","2018","03","21","21:00","-15.5","","-21.9","","58","","","","35","","8","","24.1","","101.65","","","","-21","","NA"
"-121.24","61.76","FORT SIMPSON A","2202103","2018-03-21 22:00","2018","03","21","22:00","-17.1","","-22.2","","65","","","","36","","2","","24.1","","101.72","","","","-19","","NA"
"-121.24","61.76","FORT SIMPSON A","2202103","2018-03-21 23:00","2018","03","21","23:00","-19.1","","-23.0","","71","","","","33","","4","","24.1","","101.78","","","","-22","","Mainly Clear"
"-121.24","61.76","FORT SIMPSON A","2202103","2018-03-22 00:00","2018","03","22","00:00","-19.8","","-23.4","","74","","","","31","","4","","24.1","","101.83","","","","-23","","NA"
"-121.24","61.76","FORT SIMPSON A","2202103","2018-03-22 01:00","2018","03","22","01:00","-21.9","","-25.5","","73","","","","33","","3","","24.1","","101.86","","","","-25","","NA"
"-121.24","61.76","FORT SIMPSON A","2202103","2018-03-22 02:00","2018","03","22","02:00","-22.9","","-25.9","","77","","","","36","","3","","24.1","","101.88","","","","-26","","Clear"
"-121.24","61.76","FORT SIMPSON A","2202103","2018-03-22 03:00","2018","03","22","03:00","-23.6","","-26.3","","79","","","","36","","2","","24.1","","101.88","","","","-26","","NA"
"-121.24","61.76","FORT SIMPSON A","2202103","2018-03-22 04:00","2018","03","22","04:00","-24.6","","-27.2","","79","","","","36","","2","","24.1","","101.87","","","","-27","","NA"
"-121.24","61.76","FORT SIMPSON A","2202103","2018-03-22 05:00","2018","03","22","05:00","-24.7","","-27.3","","80","","","","36","","1","","24.1","","101.83","","","","-26","","Clear"
"-121.24","61.76","FORT SIMPSON A","2202103","2018-03-22 06:00","2018","03","22","06:00","-24.9","","-27.6","","79","","","","36","","2","","24.1","","101.82","","","","-27","","NA"
"-121.24","61.76","FORT SIMPSON A","2202103","2018-03-22 07:00","2018","03","22","07:00","-25.8","","-28.6","","77","","","","36","","1","","24.1","","101.82","","","","-27","","NA"
"-121.24","61.76","FORT SIMPSON A","2202103","2018-03-22 08:00","2018","03","22","08:00","-25.8","","-28.6","","77","","","","36","","1","","24.1","","101.80","","","","-27","","Mainly Clear"
"-121.24","61.76","FORT SIMPSON A","2202103","2018-03-22 09:00","2018","03","22","09:00","-21.5","","-24.9","","74","","","","10","","7","","24.1","","101.77","","","","-27","","NA"
"-121.24","61.76","FORT SIMPSON A","2202103","2018-03-22 10:00","2018","03","22","10:00","-19.0","","-24.4","","63","","","","12","","3","","24.1","","101.72","","","","-21","","NA"
"-121.24","61.76","FORT SIMPSON A","2202103","2018-03-22 11:00","2018","03","22","11:00","-17.0","","-24.0","","55","","","","36","","3","","24.1","","101.65","","","","-19","","Mainly Clear"
"-121.24","61.76","FORT SIMPSON A","2202103","2018-03-22 12:00","2018","03","22","12:00","-14.4","","-23.9","","45","","","","22","","3","","24.1","","101.54","","","","-17","","NA"
"-121.24","61.76","FORT SIMPSON A","2202103","2018-03-22 13:00","2018","03","22","13:00","-12.3","","-21.1","","49","","","","21","","4","","24.1","","101.45","","","","-15","","NA"
"-121.24","61.76","FORT SIMPSON A","2202103","2018-03-22 14:00","2018","03","22","14:00","-11.4","","-21.0","","46","","","","14","","5","","24.1","","101.30","","","","-15","","Mainly Clear"
"-121.24","61.76","FORT SIMPSON A","2202103","2018-03-22 15:00","2018","03","22","15:00","-11.0","","-21.9","","41","","","","","","0","","24.1","","101.19","","","","","","NA"
"-121.24","61.76","FORT SIMPSON A","2202103","2018-03-22 16:00","2018","03","22","16:00","-10.1","","-21.3","","40","","","","12","","5","","24.1","","101.07","","","","-13","","NA"
"-121.24","61.76","FORT SIMPSON A","2202103","2018-03-22 17:00","2018","03","22","17:00","-10.2","","-20.6","","43","","","","15","","4","","24.1","","100.98","","","","-13","","Mostly Cloudy"
"-121.24","61.76","FORT SIMPSON A","2202103","2018-03-22 18:00","2018","03","22","18:00","-10.4","","-21.1","","42","","","","14","","7","","24.1","","100.92","","","","-14","","NA"
"-121.24","61.76","FORT SIMPSON A","2202103","2018-03-22 19:00","2018","03","22","19:00","-11.1","","-21.0","","44","","","","12","","3","","24.1","","100.87","","","","-13","","NA"
"-121.24","61.76","FORT SIMPSON A","2202103","2018-03-22 20:00","2018","03","22","20:00","-12.3","","-21.8","","46","","","","11","","4","","24.1","","100.82","","","","-15","","Mainly Clear"
"-121.24","61.76","FORT SIMPSON A","2202103","2018-03-22 21:00","2018","03","22","21:00","-13.9","","-22.3","","50","","","","13","","5","","24.1","","100.77","","","","-17","","NA"
"-121.24","61.76","FORT SIMPSON A","2202103","2018-03-22 22:00","2018","03","22","22:00","-15.3","","-23.1","","52","","","","36","","3","","24.1","","100.72","","","","-17","","NA"
"-121.24","61.76","FORT SIMPSON A","2202103","2018-03-22 23:00","2018","03","22","23:00","-16.6","","-23.1","","58","","","","7","","5","","24.1","","100.69","","","","-20","","Mainly Clear"
"-121.24","61.76","FORT SIMPSON A","2202103","2018-03-23 00:00","2018","03","23","00:00","-17.0","","-23.4","","58","","","","10","","4","","24.1","","100.67","","","","-20","","NA"
"-121.24","61.76","FORT SIMPSON A","2202103","2018-03-23 01:00","2018","03","23","01:00","-17.6","","-23.8","","59","","","","8","","5","","24.1","","100.61","","","","-22","","NA"
"-121.24","61.76","FORT SIMPSON A","2202103","2018-03-23 02:00","2018","03","23","02:00","-18.2","","-24.0","","61","","","","9","","5","","24.1","","100.52","","","","-22","","Mainly Clear"
"-121.24","61.76","FORT SIMPSON A","2202103","2018-03-23 03:00","2018","03","23","03:00","-19.2","","-24.2","","65","","","","8","","4","","24.1","","100.46","","","","-23","","NA"
"-121.24","61.76","FORT SIMPSON A","2202103","2018-03-23 04:00","2018","03","23","04:00","-20.4","","-24.5","","70","","","","36","","1","","24.1","","100.42","","","","-21","","NA"
"-121.24","61.76","FORT SIMPSON A","2202103","2018-03-23 05:00","2018","03","23","05:00","-19.7","","-23.3","","74","","","","36","","1","","24.1","","100.33","","","","-21","","Mostly Cloudy"
"-121.24","61.76","FORT SIMPSON A","2202103","2018-03-23 06:00","2018","03","23","06:00","-18.4","","-23.1","","67","","","","33","","7","","24.1","","100.27","","","","-24","","NA"
"-121.24","61.76","FORT SIMPSON A","2202103","2018-03-23 07:00","2018","03","23","07:00","-19.0","","-23.3","","69","","","","33","","8","","24.1","","100.25","","","","-25","","NA"
"-121.24","61.76","FORT SIMPSON A","2202103","2018-03-23 08:00","2018","03","23","08:00","-17.9","","-23.0","","65","","","","33","","13","","24.1","","100.19","","","","-26","","Cloudy"
"-121.24","61.76","FORT SIMPSON A","2202103","2018-03-23 09:00","2018","03","23","09:00","-17.4","","-22.4","","66","","","","33","","18","","24.1","","100.10","","","","-27","","NA"
"-121.24","61.76","FORT SIMPSON A","2202103","2018-03-23 10:00","2018","03","23","10:00","-15.9","","-20.7","","67","","","","34","","17","","19.3","","100.05","","","","-25","","Snow"
"-121.24","61.76","FORT SIMPSON A","2202103","2018-03-23 11:00","2018","03","23","11:00","-14.9","","-19.6","","68","","","","34","","19","","12.9","","99.98","","","","-24","","Snow"
"-121.24","61.76","FORT SIMPSON A","2202103","2018-03-23 12:00","2018","03","23","12:00","-13.3","","-18.9","","64","","","","33","","26","","19.3","","99.90","","","","-23","","Snow"
"-121.24","61.76","FORT SIMPSON A","2202103","2018-03-23 13:00","2018","03","23","13:00","-12.7","","-18.1","","64","","","","33","","23","","24.1","","99.82","","","","-22","","Snow"
"-121.24","61.76","FORT SIMPSON A","2202103","2018-03-23 14:00","2018","03","23","14:00","-12.6","","-19.1","","59","","","","34","","30","","24.1","","99.73","","","","-23","","Snow"
"-121.24","61.76","FORT SIMPSON A","2202103","2018-03-23 15:00","2018","03","23","15:00","-12.6","","-19.0","","59","","","","34","","30","","24.1","","99.67","","","","-23","","Snow"
"-121.24","61.76","FORT SIMPSON A","2202103","2018-03-23 16:00","2018","03","23","16:00","-12.0","","-19.2","","56","","","","34","","27","","24.1","","99.64","","","","-22","","NA"
"-121.24","61.76","FORT SIMPSON A","2202103","2018-03-23 17:00","2018","03","23","17:00","-12.4","","-18.1","","63","","","","35","","21","","12.9","","99.65","","","","-21","","Snow,Blowing Snow"
"-121.24","61.76","FORT SIMPSON A","2202103","2018-03-23 18:00","2018","03","23","18:00","-12.5","","-17.0","","69","","","","36","","15","","4.8","","99.65","","","","-20","","Snow,Blowing Snow"
"-121.24","61.76","FORT SIMPSON A","2202103","2018-03-23 19:00","2018","03","23","19:00","-12.1","","-16.6","","70","","","","1","","10","","4.8","","99.63","","","","-18","","Snow"
"-121.24","61.76","FORT SIMPSON A","2202103","2018-03-23 20:00","2018","03","23","20:00","-12.3","","-15.2","","79","","","","36","","12","","2.4","","99.61","","","","-19","","Snow"
"-121.24","61.76","FORT SIMPSON A","2202103","2018-03-23 21:00","2018","03","23","21:00","-12.0","","-15.0","","79","","","","34","","18","","12.9","","99.56","","","","-20","","Snow,Blowing Snow"
"-121.24","61.76","FORT SIMPSON A","2202103","2018-03-23 22:00","2018","03","23","22:00","-12.2","","-14.8","","81","","","","33","","30","","8.1","","99.51","","","","-22","","Snow,Blowing Snow"
"-121.24","61.76","FORT SIMPSON A","2202103","2018-03-23 23:00","2018","03","23","23:00","-12.7","","-16.4","","74","","","","35","","23","","16.1","","99.50","","","","-22","","Snow,Blowing Snow"
"-121.24","61.76","FORT SIMPSON A","2202103","2018-03-24 00:00","2018","03","24","00:00","-13.2","","-16.8","","75","","","","34","","26","","12.9","","99.46","","","","-23","","Snow,Blowing Snow"
"-121.24","61.76","FORT SIMPSON A","2202103","2018-03-24 01:00","2018","03","24","01:00","-13.6","","-16.9","","76","","","","35","","26","","9.7","","99.42","","","","-24","","Snow,Blowing Snow"
"-121.24","61.76","FORT SIMPSON A","2202103","2018-03-24 02:00","2018","03","24","02:00","-14.1","","-17.8","","74","","","","34","","31","","12.9","","99.44","","","","-25","","Snow,Blowing Snow"
"-121.24","61.76","FORT SIMPSON A","2202103","2018-03-24 03:00","2018","03","24","03:00","-14.7","","-18.1","","76","","","","34","","24","","6.4","","99.47","","","","-25","","Snow,Blowing Snow"
"-121.24","61.76","FORT SIMPSON A","2202103","2018-03-24 04:00","2018","03","24","04:00","-15.1","","-18.6","","75","","","","34","","23","","9.7","","99.48","","","","-25","","Snow,Blowing Snow"
"-121.24","61.76","FORT SIMPSON A","2202103","2018-03-24 05:00","2018","03","24","05:00","-15.4","","-18.7","","76","","","","34","","25","","9.7","","99.49","","","","-26","","Snow,Blowing Snow"
"-121.24","61.76","FORT SIMPSON A","2202103","2018-03-24 06:00","2018","03","24","06:00","-15.7","","-19.1","","75","","","","33","","21","","16.1","","99.48","","","","-25","","Snow,Blowing Snow"
"-121.24","61.76","FORT SIMPSON A","2202103","2018-03-24 07:00","2018","03","24","07:00","-15.6","","-18.8","","77","","","","33","","26","","16.1","","99.49","","","","-26","","Snow,Blowing Snow"
"-121.24","61.76","FORT SIMPSON A","2202103","2018-03-24 08:00","2018","03","24","08:00","-16.1","","-20.1","","72","","","","34","","30","","19.3","","99.50","","","","-27","","Snow,Blowing Snow"
"-121.24","61.76","FORT SIMPSON A","2202103","2018-03-24 09:00","2018","03","24","09:00","-16.8","","-21.2","","69","","","","34","","31","","16.1","","99.54","","","","-29","","Snow,Blowing Snow"
"-121.24","61.76","FORT SIMPSON A","2202103","2018-03-24 10:00","2018","03","24","10:00","-16.6","","-21.7","","65","","","","33","","35","","24.1","","99.55","","","","-29","","Snow,Blowing Snow"
"-121.24","61.76","FORT SIMPSON A","2202103","2018-03-24 11:00","2018","03","24","11:00","-16.2","","-20.9","","68","","","","32","","31","","24.1","","99.55","","","","-28","","Snow,Blowing Snow"
"-121.24","61.76","FORT SIMPSON A","2202103","2018-03-24 12:00","2018","03","24","12:00","-16.0","","-21.9","","61","","","","33","","32","","24.1","","99.56","","","","-28","","Snow,Blowing Snow"
"-121.24","61.76","FORT SIMPSON A","2202103","2018-03-24 13:00","2018","03","24","13:00","-15.4","","-22.6","","55","","","","33","","31","","24.1","","99.56","","","","-27","","Blowing Snow"
"-121.24","61.76","FORT SIMPSON A","2202103","2018-03-24 14:00","2018","03","24","14:00","-15.0","","-22.1","","55","","","","34","","27","","24.1","","99.56","","","","-26","","Blowing Snow"
"-121.24","61.76","FORT SIMPSON A","2202103","2018-03-24 15:00","2018","03","24","15:00","-14.6","","-23.1","","49","","","","35","","21","","24.1","","99.58","","","","-24","","Blowing Snow"
"-121.24","61.76","FORT SIMPSON A","2202103","2018-03-24 16:00","2018","03","24","16:00","-14.7","","-23.5","","48","","","","33","","25","","24.1","","99.58","","","","-25","","NA"
"-121.24","61.76","FORT SIMPSON A","2202103","2018-03-24 17:00","2018","03","24","17:00","-15.3","","-22.0","","57","","","","35","","12","","24.1","","99.61","","","","-22","","Blowing Snow"
"-121.24","61.76","FORT SIMPSON A","2202103","2018-03-24 18:00","2018","03","24","18:00","-15.3","","-23.7","","50","","","","34","","22","","24.1","","99.64","","","","-25","","NA"
"-121.24","61.76","FORT SIMPSON A","2202103","2018-03-24 19:00","2018","03","24","19:00","-16.6","","-23.7","","55","","","","34","","20","","24.1","","99.69","","","","-26","","NA"
"-121.24","61.76","FORT SIMPSON A","2202103","2018-03-24 20:00","2018","03","24","20:00","-18.2","","-24.2","","60","","","","33","","16","","24.1","","99.71","","","","-27","","Mainly Clear"
"-121.24","61.76","FORT SIMPSON A","2202103","2018-03-24 21:00","2018","03","24","21:00","-19.5","","-25.5","","60","","","","33","","14","","24.1","","99.74","","","","-28","","NA"
"-121.24","61.76","FORT SIMPSON A","2202103","2018-03-24 22:00","2018","03","24","22:00","-20.4","","-26.0","","62","","","","32","","10","","24.1","","99.77","","","","-28","","NA"
"-121.24","61.76","FORT SIMPSON A","2202103","2018-03-24 23:00","2018","03","24","23:00","-20.3","","-25.3","","65","","","","34","","10","","24.1","","99.78","","","","-28","","Mostly Cloudy"
"-121.24","61.76","FORT SIMPSON A","2202103","2018-03-25 00:00","2018","03","25","00:00","-21.8","","-25.6","","71","","","","31","","5","","24.1","","99.81","","","","-26","","NA"
"-121.24","61.76","FORT SIMPSON A","2202103","2018-03-25 01:00","2018","03","25","01:00","-24.1","","-27.3","","75","","","","31","","6","","24.1","","99.84","","","","-30","","NA"
"-121.24","61.76","FORT SIMPSON A","2202103","2018-03-25 02:00","2018","03","25","02:00","-23.9","","-26.6","","79","","","","32","","5","","24.1","","99.88","","","","-29","","Mainly Clear"
"-121.24","61.76","FORT SIMPSON A","2202103","2018-03-25 03:00","2018","03","25","03:00","-24.7","","-27.5","","78","","","","31","","7","","24.1","","99.90","","","","-31","","NA"
"-121.24","61.76","FORT SIMPSON A","2202103","2018-03-25 04:00","2018","03","25","04:00","-25.2","","-28.0","","78","","","","32","","7","","24.1","","99.90","","","","-32","","NA"
"-121.24","61.76","FORT SIMPSON A","2202103","2018-03-25 05:00","2018","03","25","05:00","-27.1","","-30.2","","76","","","","30","","6","","24.1","","99.89","","","","-33","","Mainly Clear"
"-121.24","61.76","FORT SIMPSON A","2202103","2018-03-25 06:00","2018","03","25","06:00","-27.6","","-30.6","","77","","","","36","","1","","24.1","","99.91","","","","-29","","NA"
"-121.24","61.76","FORT SIMPSON A","2202103","2018-03-25 07:00","2018","03","25","07:00","-28.9","","-31.9","","75","","","","31","","5","","24.1","","99.92","","","","-34","","NA"
"-121.24","61.76","FORT SIMPSON A","2202103","2018-03-25 08:00","2018","03","25","08:00","-27.7","","-30.5","","78","","","","32","","5","","24.1","","99.93","","","","-33","","Mainly Clear"
"-121.24","61.76","FORT SIMPSON A","2202103","2018-03-25 09:00","2018","03","25","09:00","-25.2","","-28.6","","74","","","","33","","7","","24.1","","99.95","","","","-32","","NA"
"-121.24","61.76","FORT SIMPSON A","2202103","2018-03-25 10:00","2018","03","25","10:00","-21.7","","-26.3","","67","","","","34","","14","","24.1","","99.95","","","","-31","","NA"
"-121.24","61.76","FORT SIMPSON A","2202103","2018-03-25 11:00","2018","03","25","11:00","-20.0","","-25.9","","60","","","","34","","13","","24.1","","99.95","","","","-28","","Mostly Cloudy"
"-121.24","61.76","FORT SIMPSON A","2202103","2018-03-25 12:00","2018","03","25","12:00","-18.9","","-26.0","","54","","","","34","","13","","24.1","","99.91","","","","-27","","NA"
"-121.24","61.76","FORT SIMPSON A","2202103","2018-03-25 13:00","2018","03","25","13:00","-18.1","","-26.1","","50","","","","33","","14","","24.1","","99.86","","","","-26","","NA"
"-121.24","61.76","FORT SIMPSON A","2202103","2018-03-25 14:00","2018","03","25","14:00","-17.2","","-25.9","","48","","","","36","","15","","24.1","","99.82","","","","-26","","Mostly Cloudy"
"-121.24","61.76","FORT SIMPSON A","2202103","2018-03-25 15:00","2018","03","25","15:00","-16.4","","-25.4","","47","","","","33","","19","","24.1","","99.80","","","","-26","","NA"
"-121.24","61.76","FORT SIMPSON A","2202103","2018-03-25 16:00","2018","03","25","16:00","-16.1","","-25.8","","44","","","","32","","16","","24.1","","99.78","","","","-25","","NA"
"-121.24","61.76","FORT SIMPSON A","2202103","2018-03-25 17:00","2018","03","25","17:00","-16.3","","-27.0","","40","","","","1","","8","","24.1","","99.75","","","","-22","","Mostly Cloudy"
"-121.24","61.76","FORT SIMPSON A","2202103","2018-03-25 18:00","2018","03","25","18:00","-16.1","","-26.6","","41","","","","36","","6","","24.1","","99.74","","","","-21","","NA"
"-121.24","61.76","FORT SIMPSON A","2202103","2018-03-25 19:00","2018","03","25","19:00","-16.6","","-27.0","","41","","","","5","","4","","24.1","","99.75","","","","-20","","NA"
"-121.24","61.76","FORT SIMPSON A","2202103","2018-03-25 20:00","2018","03","25","20:00","-18.6","","-26.8","","49","","","","3","","6","","24.1","","99.77","","","","-23","","Mainly Clear"
"-121.24","61.76","FORT SIMPSON A","2202103","2018-03-25 21:00","2018","03","25","21:00","-22.1","","-27.6","","62","","","","36","","2","","24.1","","99.80","","","","-24","","NA"
"-121.24","61.76","FORT SIMPSON A","2202103","2018-03-25 22:00","2018","03","25","22:00","-23.8","","-28.8","","65","","","","36","","1","","24.1","","99.82","","","","-25","","NA"
"-121.24","61.76","FORT SIMPSON A","2202103","2018-03-25 23:00","2018","03","25","23:00","-25.9","","-30.6","","66","","","","36","","2","","24.1","","99.83","","","","-28","","Mainly Clear"
"-121.24","61.76","FORT SIMPSON A","2202103","2018-03-26 00:00","2018","03","26","00:00","-27.9","","-32.3","","67","","","","36","","2","","24.1","","99.83","","","","-30","","NA"
"-121.24","61.76","FORT SIMPSON A","2202103","2018-03-26 01:00","2018","03","26","01:00","-27.9","","-31.7","","71","","","","36","","1","","24.1","","99.84","","","","-29","","NA"
"-121.24","61.76","FORT SIMPSON A","2202103","2018-03-26 02:00","2018","03","26","02:00","-29.6","","-33.0","","72","","","","36","","2","","24.1","","99.85","","","","-32","","Clear"
"-121.24","61.76","FORT SIMPSON A","2202103","2018-03-26 03:00","2018","03","26","03:00","-30.4","","-34.0","","71","","","","36","","3","","24.1","","99.85","","","","-34","","NA"
"-121.24","61.76","FORT SIMPSON A","2202103","2018-03-26 04:00","2018","03","26","04:00","-31.4","","-35.0","","71","","","","36","","1","","24.1","","99.88","","","","-33","","NA"
"-121.24","61.76","FORT SIMPSON A","2202103","2018-03-26 05:00","2018","03","26","05:00","-31.5","","-34.8","","74","","","","36","","1","","24.1","","99.89","","","","-33","","Clear"
"-121.24","61.76","FORT SIMPSON A","2202103","2018-03-26 06:00","2018","03","26","06:00","-32.0","","-35.1","","74","","","","16","","4","","24.1","","99.88","","","","-37","","NA"
"-121.24","61.76","FORT SIMPSON A","2202103","2018-03-26 07:00","2018","03","26","07:00","-33.8","","-37.4","","71","","","","36","","1","","24.1","","99.89","","","","-35","","NA"
"-121.24","61.76","FORT SIMPSON A","2202103","2018-03-26 08:00","2018","03","26","08:00","-32.6","","-36.3","","71","","","","13","","3","","24.1","","99.88","","","","-36","","Clear"
"-121.24","61.76","FORT SIMPSON A","2202103","2018-03-26 09:00","2018","03","26","09:00","-29.2","","-33.7","","66","","","","36","","1","","24.1","","99.89","","","","-30","","NA"
"-121.24","61.76","FORT SIMPSON A","2202103","2018-03-26 10:00","2018","03","26","10:00","-25.3","","-30.9","","60","","","","17","","5","","24.1","","99.86","","","","-30","","NA"
"-121.24","61.76","FORT SIMPSON A","2202103","2018-03-26 11:00","2018","03","26","11:00","-20.0","","-28.1","","49","","","","15","","4","","24.1","","99.83","","","","-23","","Clear"
"-121.24","61.76","FORT SIMPSON A","2202103","2018-03-26 12:00","2018","03","26","12:00","-16.4","","-26.2","","43","","","","18","","6","","24.1","","99.79","","","","-21","","NA"
"-121.24","61.76","FORT SIMPSON A","2202103","2018-03-26 13:00","2018","03","26","13:00","-14.3","","-24.3","","43","","","","18","","10","","24.1","","99.73","","","","-20","","NA"
"-121.24","61.76","FORT SIMPSON A","2202103","2018-03-26 14:00","2018","03","26","14:00","-12.6","","-23.3","","41","","","","24","","9","","24.1","","99.68","","","","-18","","Clear"
"-121.24","61.76","FORT SIMPSON A","2202103","2018-03-26 15:00","2018","03","26","15:00","-11.8","","-24.4","","35","","","","23","","14","","24.1","","99.62","","","","-19","","NA"
"-121.24","61.76","FORT SIMPSON A","2202103","2018-03-26 16:00","2018","03","26","16:00","-11.5","","-24.9","","33","","","","33","","7","","24.1","","99.56","","","","-16","","NA"
"-121.24","61.76","FORT SIMPSON A","2202103","2018-03-26 17:00","2018","03","26","17:00","-11.2","","-23.3","","37","","","","16","","4","","24.1","","99.53","","","","-14","","Clear"
"-121.24","61.76","FORT SIMPSON A","2202103","2018-03-26 18:00","2018","03","26","18:00","-11.4","","-23.9","","35","","","","18","","8","","24.1","","99.49","","","","-16","","NA"
"-121.24","61.76","FORT SIMPSON A","2202103","2018-03-26 19:00","2018","03","26","19:00","-13.0","","-24.6","","38","","","","18","","9","","24.1","","99.44","","","","-18","","NA"
"-121.24","61.76","FORT SIMPSON A","2202103","2018-03-26 20:00","2018","03","26","20:00","-15.8","","-24.3","","49","","","","11","","3","","24.1","","99.40","","","","-18","","Clear"
"-121.24","61.76","FORT SIMPSON A","2202103","2018-03-26 21:00","2018","03","26","21:00","-18.5","","-24.4","","60","","","","11","","3","","24.1","","99.36","","","","-21","","NA"
"-121.24","61.76","FORT SIMPSON A","2202103","2018-03-26 22:00","2018","03","26","22:00","-20.0","","-25.4","","63","","","","36","","2","","24.1","","99.33","","","","-22","","NA"
"-121.24","61.76","FORT SIMPSON A","2202103","2018-03-26 23:00","2018","03","26","23:00","-22.5","","-27.6","","64","","","","36","","2","","24.1","","99.30","","","","-24","","Clear"
"-121.24","61.76","FORT SIMPSON A","2202103","2018-03-27 00:00","2018","03","27","00:00","-23.3","","-28.2","","64","","","","36","","3","","24.1","","99.29","","","","-26","","NA"
"-121.24","61.76","FORT SIMPSON A","2202103","2018-03-27 01:00","2018","03","27","01:00","-25.1","","-30.1","","64","","","","36","","1","","24.1","","99.26","","","","-26","","NA"
"-121.24","61.76","FORT SIMPSON A","2202103","2018-03-27 02:00","2018","03","27","02:00","-25.6","","-29.6","","70","","","","36","","3","","24.1","","99.22","","","","-29","","Clear"
"-121.24","61.76","FORT SIMPSON A","2202103","2018-03-27 03:00","2018","03","27","03:00","-26.8","","-31.7","","64","","","","36","","1","","24.1","","99.23","","","","-28","","NA"
"-121.24","61.76","FORT SIMPSON A","2202103","2018-03-27 04:00","2018","03","27","04:00","-28.3","","-32.5","","68","","","","36","","1","","24.1","","99.23","","","","-29","","NA"
"-121.24","61.76","FORT SIMPSON A","2202103","2018-03-27 05:00","2018","03","27","05:00","-28.9","","-32.9","","69","","","","36","","1","","24.1","","99.25","","","","-30","","Clear"
"-121.24","61.76","FORT SIMPSON A","2202103","2018-03-27 06:00","2018","03","27","06:00","-28.9","","-33.2","","67","","","","36","","3","","24.1","","99.26","","","","-32","","NA"
"-121.24","61.76","FORT SIMPSON A","2202103","2018-03-27 07:00","2018","03","27","07:00","-30.1","","-34.1","","69","","","","33","","3","","24.1","","99.31","","","","-33","","NA"
"-121.24","61.76","FORT SIMPSON A","2202103","2018-03-27 08:00","2018","03","27","08:00","-28.8","","-32.6","","70","","","","0","","1","","24.1","","99.35","","","","-30","","Clear"
"-121.24","61.76","FORT SIMPSON A","2202103","2018-03-27 09:00","2018","03","27","09:00","-27.1","","-32.5","","61","","","","16","","5","","24.1","","99.41","","","","-32","","NA"
"-121.24","61.76","FORT SIMPSON A","2202103","2018-03-27 10:00","2018","03","27","10:00","-20.7","","-27.6","","55","","","","33","","9","","24.1","","99.47","","","","-28","","NA"
"-121.24","61.76","FORT SIMPSON A","2202103","2018-03-27 11:00","2018","03","27","11:00","-16.9","","-26.3","","45","","","","1","","4","","24.1","","99.47","","","","-20","","Clear"
"-121.24","61.76","FORT SIMPSON A","2202103","2018-03-27 12:00","2018","03","27","12:00","-13.8","","-23.3","","45","","","","36","","1","","24.1","","99.48","","","","-14","","NA"
"-121.24","61.76","FORT SIMPSON A","2202103","2018-03-27 13:00","2018","03","27","13:00","-10.9","","-22.5","","39","","","","18","","4","","24.1","","99.47","","","","-13","","NA"
"-121.24","61.76","FORT SIMPSON A","2202103","2018-03-27 14:00","2018","03","27","14:00","-9.8","","-22.4","","35","","","","32","","5","","24.1","","99.46","","","","-13","","Clear"
"-121.24","61.76","FORT SIMPSON A","2202103","2018-03-27 15:00","2018","03","27","15:00","-8.7","","-21.4","","35","","","","34","","7","","24.1","","99.46","","","","-13","","NA"
"-121.24","61.76","FORT SIMPSON A","2202103","2018-03-27 16:00","2018","03","27","16:00","-8.1","","-21.8","","33","","","","34","","8","","24.1","","99.46","","","","-12","","NA"
"-121.24","61.76","FORT SIMPSON A","2202103","2018-03-27 17:00","2018","03","27","17:00","-7.5","","-23.5","","27","","","","36","","13","","24.1","","99.46","","","","-13","","Clear"
"-121.24","61.76","FORT SIMPSON A","2202103","2018-03-27 18:00","2018","03","27","18:00","-7.5","","-23.6","","27","","","","34","","11","","24.1","","99.47","","","","-13","","NA"
"-121.24","61.76","FORT SIMPSON A","2202103","2018-03-27 19:00","2018","03","27","19:00","-9.1","","-22.2","","34","","","","31","","12","","24.1","","99.48","","","","-15","","NA"
"-121.24","61.76","FORT SIMPSON A","2202103","2018-03-27 20:00","2018","03","27","20:00","-10.5","","-23.2","","35","","","","29","","10","","24.1","","99.54","","","","-16","","Clear"
"-121.24","61.76","FORT SIMPSON A","2202103","2018-03-27 21:00","2018","03","27","21:00","-14.8","","-23.1","","50","","","","32","","3","","24.1","","99.59","","","","-17","","NA"
"-121.24","61.76","FORT SIMPSON A","2202103","2018-03-27 22:00","2018","03","27","22:00","-16.4","","-25.1","","48","","","","34","","6","","24.1","","99.63","","","","-21","","NA"
"-121.24","61.76","FORT SIMPSON A","2202103","2018-03-27 23:00","2018","03","27","23:00","-17.4","","-25.2","","52","","","","34","","13","","24.1","","99.67","","","","-25","","Mainly Clear"
"-121.24","61.76","FORT SIMPSON A","2202103","2018-03-28 00:00","2018","03","28","00:00","-19.0","","-25.5","","57","","","","36","","2","","24.1","","99.74","","","","-21","","NA"
"-121.24","61.76","FORT SIMPSON A","2202103","2018-03-28 01:00","2018","03","28","01:00","-20.5","","-27.1","","56","","","","33","","9","","24.1","","99.83","","","","-27","","NA"
"-121.24","61.76","FORT SIMPSON A","2202103","2018-03-28 02:00","2018","03","28","02:00","-19.3","","-25.5","","58","","","","32","","9","","24.1","","99.95","","","","-26","","Clear"
"-121.24","61.76","FORT SIMPSON A","2202103","2018-03-28 03:00","2018","03","28","03:00","-21.0","","-26.1","","64","","","","33","","5","","24.1","","100.05","","","","-25","","NA"
"-121.24","61.76","FORT SIMPSON A","2202103","2018-03-28 04:00","2018","03","28","04:00","-21.8","","-26.8","","65","","","","34","","7","","24.1","","100.15","","","","-28","","NA"
"-121.24","61.76","FORT SIMPSON A","2202103","2018-03-28 05:00","2018","03","28","05:00","-20.9","","-24.9","","71","","","","34","","11","","24.1","","100.25","","","","-29","","Mainly Clear"
"-121.24","61.76","FORT SIMPSON A","2202103","2018-03-28 06:00","2018","03","28","06:00","-21.8","","-25.5","","72","","","","32","","10","","24.1","","100.35","","","","-29","","NA"
"-121.24","61.76","FORT SIMPSON A","2202103","2018-03-28 07:00","2018","03","28","07:00","-23.9","","-27.3","","74","","","","30","","7","","24.1","","100.47","","","","-30","","NA"
"-121.24","61.76","FORT SIMPSON A","2202103","2018-03-28 08:00","2018","03","28","08:00","-22.9","","-26.0","","76","","","","33","","12","","24.1","","100.54","","","","-32","","Mainly Clear"
"-121.24","61.76","FORT SIMPSON A","2202103","2018-03-28 09:00","2018","03","28","09:00","-21.0","","-25.2","","69","","","","32","","16","","24.1","","100.63","","","","-31","","NA"
"-121.24","61.76","FORT SIMPSON A","2202103","2018-03-28 10:00","2018","03","28","10:00","-19.2","","-24.2","","65","","","","34","","19","","24.1","","100.68","","","","-29","","NA"
"-121.24","61.76","FORT SIMPSON A","2202103","2018-03-28 11:00","2018","03","28","11:00","-17.1","","-23.9","","56","","","","33","","17","","24.1","","100.73","","","","-26","","Mainly Clear"
"-121.24","61.76","FORT SIMPSON A","2202103","2018-03-28 12:00","2018","03","28","12:00","-15.9","","-24.0","","50","","","","34","","11","","24.1","","100.78","","","","-23","","NA"
"-121.24","61.76","FORT SIMPSON A","2202103","2018-03-28 13:00","2018","03","28","13:00","-15.2","","-24.6","","45","","","","31","","8","","24.1","","100.82","","","","-21","","NA"
"-121.24","61.76","FORT SIMPSON A","2202103","2018-03-28 14:00","2018","03","28","14:00","-14.4","","-19.6","","65","","","","32","","14","","24.1","","100.84","","","","-22","","Clear"
"-121.24","61.76","FORT SIMPSON A","2202103","2018-03-28 15:00","2018","03","28","15:00","-13.7","","-23.8","","43","","","","33","","15","","24.1","","100.86","","","","-21","","NA"
"-121.24","61.76","FORT SIMPSON A","2202103","2018-03-28 16:00","2018","03","28","16:00","-13.4","","-23.4","","43","","","","33","","16","","24.1","","100.87","","","","-21","","NA"
"-121.24","61.76","FORT SIMPSON A","2202103","2018-03-28 17:00","2018","03","28","17:00","-12.9","","-23.5","","42","","","","32","","15","","24.1","","100.90","","","","-20","","Clear"
"-121.24","61.76","FORT SIMPSON A","2202103","2018-03-28 18:00","2018","03","28","18:00","-13.4","","-23.8","","42","","","","33","","18","","24.1","","100.92","","","","-22","","NA"
"-121.24","61.76","FORT SIMPSON A","2202103","2018-03-28 19:00","2018","03","28","19:00","-15.2","","-25.0","","44","","","","33","","17","","24.1","","100.96","","","","-24","","NA"
"-121.24","61.76","FORT SIMPSON A","2202103","2018-03-28 20:00","2018","03","28","20:00","-16.4","","-26.0","","44","","","","34","","13","","24.1","","101.00","","","","-24","","Clear"
"-121.24","61.76","FORT SIMPSON A","2202103","2018-03-28 21:00","2018","03","28","21:00","-17.9","","-26.2","","49","","","","34","","15","","24.1","","101.05","","","","-26","","NA"
"-121.24","61.76","FORT SIMPSON A","2202103","2018-03-28 22:00","2018","03","28","22:00","-20.1","","-26.9","","55","","","","36","","8","","24.1","","101.10","","","","-26","","NA"
"-121.24","61.76","FORT SIMPSON A","2202103","2018-03-28 23:00","2018","03","28","23:00","-22.4","","-27.9","","62","","","","35","","3","","24.1","","101.13","","","","-25","","Clear"
"-121.24","61.76","FORT SIMPSON A","2202103","2018-03-29 00:00","2018","03","29","00:00","-21.5","","-27.8","","57","","","","12","","4","","24.1","","101.20","","","","-25","","NA"
"-121.24","61.76","FORT SIMPSON A","2202103","2018-03-29 01:00","2018","03","29","01:00","-22.0","","-28.7","","55","","","","12","","5","","24.1","","101.23","","","","-27","","NA"
"-121.24","61.76","FORT SIMPSON A","2202103","2018-03-29 02:00","2018","03","29","02:00","-22.7","","-29.5","","55","","","","11","","8","","24.1","","101.27","","","","-29","","Clear"
"-121.24","61.76","FORT SIMPSON A","2202103","2018-03-29 03:00","2018","03","29","03:00","-23.1","","-30.0","","54","","","","11","","8","","24.1","","101.33","","","","-30","","NA"
"-121.24","61.76","FORT SIMPSON A","2202103","2018-03-29 04:00","2018","03","29","04:00","-23.8","","-30.4","","55","","","","12","","7","","24.1","","101.35","","","","-30","","NA"
"-121.24","61.76","FORT SIMPSON A","2202103","2018-03-29 05:00","2018","03","29","05:00","-24.5","","-30.9","","57","","","","11","","5","","24.1","","101.38","","","","-29","","Clear"
"-121.24","61.76","FORT SIMPSON A","2202103","2018-03-29 06:00","2018","03","29","06:00","-25.3","","-31.2","","58","","","","12","","7","","24.1","","101.44","","","","-32","","NA"
"-121.24","61.76","FORT SIMPSON A","2202103","2018-03-29 07:00","2018","03","29","07:00","-25.7","","-31.5","","59","","","","13","","5","","24.1","","101.46","","","","-31","","NA"
"-121.24","61.76","FORT SIMPSON A","2202103","2018-03-29 08:00","2018","03","29","08:00","-25.3","","-31.3","","58","","","","36","","2","","24.1","","101.49","","","","-27","","Clear"
"-121.24","61.76","FORT SIMPSON A","2202103","2018-03-29 09:00","2018","03","29","09:00","-22.6","","-30.5","","49","","","","10","","5","","24.1","","101.50","","","","-27","","NA"
"-121.24","61.76","FORT SIMPSON A","2202103","2018-03-29 10:00","2018","03","29","10:00","-20.3","","-30.0","","43","","","","14","","10","","24.1","","101.52","","","","-28","","NA"
"-121.24","61.76","FORT SIMPSON A","2202103","2018-03-29 11:00","2018","03","29","11:00","-18.0","","-28.7","","40","","","","9","","9","","24.1","","101.54","","","","-24","","Mainly Clear"
"-121.24","61.76","FORT SIMPSON A","2202103","2018-03-29 12:00","2018","03","29","12:00","-16.8","","-28.4","","37","","","","18","","9","","24.1","","101.54","","","","-23","","NA"
"-121.24","61.76","FORT SIMPSON A","2202103","2018-03-29 13:00","2018","03","29","13:00","-15.8","","-27.2","","38","","","","29","","4","","24.1","","101.52","","","","-19","","NA"
"-121.24","61.76","FORT SIMPSON A","2202103","2018-03-29 14:00","2018","03","29","14:00","-14.2","","-25.9","","37","","","","22","","4","","24.1","","101.51","","","","-17","","Clear"
"-121.24","61.76","FORT SIMPSON A","2202103","2018-03-29 15:00","2018","03","29","15:00","-13.7","","-25.3","","38","","","","28","","5","","24.1","","101.49","","","","-17","","NA"
"-121.24","61.76","FORT SIMPSON A","2202103","2018-03-29 16:00","2018","03","29","16:00","-13.2","","-26.2","","33","","","","25","","3","","24.1","","101.48","","","","-15","","NA"
"-121.24","61.76","FORT SIMPSON A","2202103","2018-03-29 17:00","2018","03","29","17:00","-12.9","","-26.4","","32","","","","35","","10","","24.1","","101.47","","","","-19","","Clear"
"-121.24","61.76","FORT SIMPSON A","2202103","2018-03-29 18:00","2018","03","29","18:00","-13.0","","-25.9","","34","","","","31","","8","","24.1","","101.46","","","","-18","","NA"
"-121.24","61.76","FORT SIMPSON A","2202103","2018-03-29 19:00","2018","03","29","19:00","-14.7","","-25.2","","41","","","","33","","14","","24.1","","101.45","","","","-22","","NA"
"-121.24","61.76","FORT SIMPSON A","2202103","2018-03-29 20:00","2018","03","29","20:00","-16.0","","-27.3","","38","","","","34","","13","","24.1","","101.45","","","","-24","","Clear"
"-121.24","61.76","FORT SIMPSON A","2202103","2018-03-29 21:00","2018","03","29","21:00","-17.4","","-27.3","","43","","","","34","","10","","24.1","","101.48","","","","-24","","NA"
"-121.24","61.76","FORT SIMPSON A","2202103","2018-03-29 22:00","2018","03","29","22:00","-20.4","","-28.1","","51","","","","32","","7","","24.1","","101.51","","","","-26","","NA"
"-121.24","61.76","FORT SIMPSON A","2202103","2018-03-29 23:00","2018","03","29","23:00","-22.0","","-28.6","","56","","","","32","","6","","24.1","","101.56","","","","-27","","Clear"
"-121.24","61.76","FORT SIMPSON A","2202103","2018-03-30 00:00","2018","03","30","00:00","-24.2","","-30.2","","58","","","","32","","4","","24.1","","101.58","","","","-28","","NA"
"-121.24","61.76","FORT SIMPSON A","2202103","2018-03-30 01:00","2018","03","30","01:00","-24.8","","-30.2","","61","","","","34","","10","","24.1","","101.62","","","","-33","","NA"
"-121.24","61.76","FORT SIMPSON A","2202103","2018-03-30 02:00","2018","03","30","02:00","-25.4","","-30.8","","62","","","","33","","6","","24.1","","101.62","","","","-31","","Clear"
"-121.24","61.76","FORT SIMPSON A","2202103","2018-03-30 03:00","2018","03","30","03:00","-26.6","","-31.6","","63","","","","33","","6","","24.1","","101.65","","","","-33","","NA"
"-121.24","61.76","FORT SIMPSON A","2202103","2018-03-30 04:00","2018","03","30","04:00","-27.7","","-32.3","","66","","","","36","","2","","24.1","","101.68","","","","-30","","NA"
"-121.24","61.76","FORT SIMPSON A","2202103","2018-03-30 05:00","2018","03","30","05:00","-28.0","","-32.1","","68","","","","36","","1","","24.1","","101.69","","","","-29","","Clear"
"-121.24","61.76","FORT SIMPSON A","2202103","2018-03-30 06:00","2018","03","30","06:00","-28.9","","-33.0","","68","","","","36","","3","","24.1","","101.73","","","","-32","","NA"
"-121.24","61.76","FORT SIMPSON A","2202103","2018-03-30 07:00","2018","03","30","07:00","-29.5","","-33.7","","68","","","","35","","3","","24.1","","101.75","","","","-33","","NA"
"-121.24","61.76","FORT SIMPSON A","2202103","2018-03-30 08:00","2018","03","30","08:00","-28.5","","-32.9","","67","","","","0","","1","","24.1","","101.78","","","","-30","","Clear"
"-121.24","61.76","FORT SIMPSON A","2202103","2018-03-30 09:00","2018","03","30","09:00","-24.4","","-30.7","","57","","","","36","","1","","24.1","","101.79","","","","-25","","NA"
"-121.24","61.76","FORT SIMPSON A","2202103","2018-03-30 10:00","2018","03","30","10:00","-19.6","","-28.7","","45","","","","36","","2","","24.1","","101.80","","","","-21","","NA"
"-121.24","61.76","FORT SIMPSON A","2202103","2018-03-30 11:00","2018","03","30","11:00","-14.9","","-26.9","","36","","","","36","","1","","24.1","","101.81","","","","-16","","Clear"
"-121.24","61.76","FORT SIMPSON A","2202103","2018-03-30 12:00","2018","03","30","12:00","-12.7","","-25.7","","34","","","","33","","5","","24.1","","101.80","","","","-16","","NA"
"-121.24","61.76","FORT SIMPSON A","2202103","2018-03-30 13:00","2018","03","30","13:00","-10.9","","-24.2","","33","","","","31","","8","","24.1","","101.77","","","","-16","","NA"
"-121.24","61.76","FORT SIMPSON A","2202103","2018-03-30 14:00","2018","03","30","14:00","-9.5","","-24.2","","30","","","","26","","5","","24.1","","101.75","","","","-12","","Mainly Clear"
"-121.24","61.76","FORT SIMPSON A","2202103","2018-03-30 15:00","2018","03","30","15:00","-8.1","","-23.2","","29","","","","17","","4","","24.1","","101.70","","","","-10","","NA"
"-121.24","61.76","FORT SIMPSON A","2202103","2018-03-30 16:00","2018","03","30","16:00","-7.3","","-21.2","","33","","","","16","","14","","24.1","","101.67","","","","-13","","NA"
"-121.24","61.76","FORT SIMPSON A","2202103","2018-03-30 17:00","2018","03","30","17:00","-7.1","","-19.7","","36","","","","18","","10","","24.1","","101.62","","","","-12","","Mainly Clear"
"-121.24","61.76","FORT SIMPSON A","2202103","2018-03-30 18:00","2018","03","30","18:00","-7.0","","-20.8","","33","","","","18","","10","","24.1","","101.57","","","","-12","","NA"
"-121.24","61.76","FORT SIMPSON A","2202103","2018-03-30 19:00","2018","03","30","19:00","-7.6","","-21.0","","34","","","","20","","10","","24.1","","101.49","","","","-12","","NA"
"-121.24","61.76","FORT SIMPSON A","2202103","2018-03-30 20:00","2018","03","30","20:00","-9.1","","-21.6","","36","","","","18","","5","","24.1","","101.43","","","","-12","","Clear"
"-121.24","61.76","FORT SIMPSON A","2202103","2018-03-30 21:00","2018","03","30","21:00","-12.8","","-21.4","","49","","","","14","","4","","24.1","","101.39","","","","-15","","NA"
"-121.24","61.76","FORT SIMPSON A","2202103","2018-03-30 22:00","2018","03","30","22:00","-14.6","","-21.6","","56","","","","36","","2","","24.1","","101.36","","","","-16","","NA"
"-121.24","61.76","FORT SIMPSON A","2202103","2018-03-30 23:00","2018","03","30","23:00","-16.2","","-21.9","","62","","","","36","","2","","24.1","","101.33","","","","-18","","Clear"
"-121.24","61.76","FORT SIMPSON A","2202103","2018-03-31 00:00","2018","03","31","00:00","-17.8","","-23.4","","62","","","","13","","3","","24.1","","101.31","","","","-20","","NA"
"-121.24","61.76","FORT SIMPSON A","2202103","2018-03-31 01:00","2018","03","31","01:00","-17.3","","-23.8","","58","","","","16","","6","","24.1","","101.28","","","","-22","","NA"
"-121.24","61.76","FORT SIMPSON A","2202103","2018-03-31 02:00","2018","03","31","02:00","-20.8","","-25.8","","64","","","","36","","2","","24.1","","101.25","","","","-23","","Clear"
"-121.24","61.76","FORT SIMPSON A","2202103","2018-03-31 03:00","2018","03","31","03:00","-21.0","","-25.9","","65","","","","15","","3","","24.1","","101.24","","","","-24","","NA"
"-121.24","61.76","FORT SIMPSON A","2202103","2018-03-31 04:00","2018","03","31","04:00","-22.5","","-27.1","","67","","","","36","","1","","24.1","","101.25","","","","-23","","NA"
"-121.24","61.76","FORT SIMPSON A","2202103","2018-03-31 05:00","2018","03","31","05:00","-23.6","","-28.1","","67","","","","36","","1","","24.1","","101.24","","","","-25","","Clear"
"-121.24","61.76","FORT SIMPSON A","2202103","2018-03-31 06:00","2018","03","31","06:00","-24.4","","-28.8","","68","","","","36","","3","","24.1","","101.23","","","","-27","","NA"
"-121.24","61.76","FORT SIMPSON A","2202103","2018-03-31 07:00","2018","03","31","07:00","-24.5","","-28.5","","70","","","","36","","1","","24.1","","101.23","","","","-25","","NA"
"-121.24","61.76","FORT SIMPSON A","2202103","2018-03-31 08:00","2018","03","31","08:00","-23.1","","-27.9","","65","","","","36","","1","","24.1","","101.22","","","","-24","","Mainly Clear"
"-121.24","61.76","FORT SIMPSON A","2202103","2018-03-31 09:00","2018","03","31","09:00","-18.2","","-25.0","","56","","","","36","","1","","24.1","","101.20","","","","-19","","NA"
"-121.24","61.76","FORT SIMPSON A","2202103","2018-03-31 10:00","2018","03","31","10:00","-14.3","","-22.1","","52","","","","32","","4","","24.1","","101.16","","","","-17","","NA"
"-121.24","61.76","FORT SIMPSON A","2202103","2018-03-31 11:00","2018","03","31","11:00","-8.5","","-20.3","","38","","","","34","","17","","24.1","","101.14","","","","-15","","Mainly Clear"
"-121.24","61.76","FORT SIMPSON A","2202103","2018-03-31 12:00","2018","03","31","12:00","-5.3","","-18.0","","37","","","","32","","26","","24.1","","101.11","","","","-13","","NA"
"-121.24","61.76","FORT SIMPSON A","2202103","2018-03-31 13:00","2018","03","31","13:00","-3.7","","-17.9","","33","","","","33","","20","","24.1","","101.08","","","","-10","","NA"
"-121.24","61.76","FORT SIMPSON A","2202103","2018-03-31 14:00","2018","03","31","14:00","-3.0","","-18.1","","31","","","","33","","9","","24.1","","101.04","","","","-7","","Mainly Clear"
"-121.24","61.76","FORT SIMPSON A","2202103","2018-03-31 15:00","2018","03","31","15:00","-2.0","","-18.1","","28","","","","33","","13","","24.1","","100.98","","","","-6","","NA"
"-121.24","61.76","FORT SIMPSON A","2202103","2018-03-31 16:00","2018","03","31","16:00","-1.3","","-18.1","","27","","","","35","","14","","24.1","","100.91","","","","-6","","NA"
"-121.24","61.76","FORT SIMPSON A","2202103","2018-03-31 17:00","2018","03","31","17:00","-1.1","","-18.2","","26","","","","35","","13","","24.1","","100.85","","","","-5","","Mainly Clear"
"-121.24","61.76","FORT SIMPSON A","2202103","2018-03-31 18:00","2018","03","31","18:00","-1.5","","-17.1","","30","","","","34","","14","","24.1","","100.79","","","","-6","","NA"
"-121.24","61.76","FORT SIMPSON A","2202103","2018-03-31 19:00","2018","03","31","19:00","-2.1","","-13.8","","41","","","","36","","9","","24.1","","100.75","","","","-6","","NA"
"-121.24","61.76","FORT SIMPSON A","2202103","2018-03-31 20:00","2018","03","31","20:00","-3.8","","-13.8","","46","","","","36","","8","","24.1","","100.71","","","","-7","","Clear"
"-121.24","61.76","FORT SIMPSON A","2202103","2018-03-31 21:00","2018","03","31","21:00","-8.3","","-15.0","","59","","","","30","","4","","24.1","","100.68","","","","-10","","NA"
"-121.24","61.76","FORT SIMPSON A","2202103","2018-03-31 22:00","2018","03","31","22:00","-10.4","","-17.1","","59","","","","36","","3","","24.1","","100.65","","","","-12","","NA"
"-121.24","61.76","FORT SIMPSON A","2202103","2018-03-31 23:00","2018","03","31","23:00","-12.8","","-17.8","","66","","","","31","","5","","24.1","","100.62","","","","-16","","Clear"
