"Longitude (x)","Latitude (y)","Station Name","Climate ID","Date/Time (LST)","Year","Month","Day","Time (LST)","Temp (°C)","Temp Flag","Dew Point Temp (°C)","Dew Point Temp Flag","Rel Hum (%)","Rel Hum Flag","Precip. Amount (mm)","Precip. Amount Flag","Wind Dir (10s deg)","Wind Dir Flag","Wind Spd (km/h)","Wind Spd Flag","Visibility (km)","Visibility Flag","Stn Press (kPa)","Stn Press Flag","Hmdx","Hmdx Flag","Wind Chill","Wind Chill Flag","Weather"
"-105.27","55.15","LA RONGE A","4064155","2019-01-01 00:00","2019","01","01","00:00","-21.1","","-23.8","","79","","","","15","","16","","24.1","","97.71","","","","-31","","Cloudy"
"-105.27","55.15","LA RONGE A","4064155","2019-01-01 01:00","2019","01","01","01:00","-20.5","","-23.2","","79","","","","16","","16","","24.1","","97.62","","","","-30","","NA"
"-105.27","55.15","LA RONGE A","4064155","2019-01-01 02:00","2019","01","01","02:00","-20.1","","-23.0","","78","","","","15","","9","","24.1","","97.46","","","","-27","","NA"
"-105.27","55.15","LA RONGE A","4064155","2019-01-01 03:00","2019","01","01","03:00","-20.3","","-23.0","","80","","","","17","","12","","24.1","","97.34","","","","-28","","Mainly Clear"
"-105.27","55.15","LA RONGE A","4064155","2019-01-01 04:00","2019","01","01","04:00","-20.6","","-23.2","","80","","","","17","","13","","24.1","","97.15","","","","-29","","NA"
"-105.27","55.15","LA RONGE A","4064155","2019-01-01 05:00","2019","01","01","05:00","-20.4","","-23.2","","79","","","","17","","14","","24.1","","96.96","","","","-29","","NA"
"-105.27","55.15","LA RONGE A","4064155","2019-01-01 06:00","2019","01","01","06:00","-19.5","","-22.3","","79","","","","18","","11","","24.1","","96.87","","","","-27","","Mostly Cloudy"
"-105.27","55.15","LA RONGE A","4064155","2019-01-01 07:00","2019","01","01","07:00","-19.5","","-22.4","","79","","","","17","","16","","24.1","","96.69","","","","-29","","NA"
"-105.27","55.15","LA RONGE A","4064155","2019-01-01 08:00","2019","01","01","08:00","-18.4","","-21.3","","79","","","","17","","16","","24.1","","96.47","","","","-27","","NA"
"-105.27","55.15","LA RONGE A","4064155","2019-01-01 09:00","2019","01","01","09:00","-17.6","","-20.5","","79","","","","16","","21","","24.1","","96.24","","","","-28","","Cloudy"
"-105.27","55.15","LA RONGE A","4064155","2019-01-01 10:00","2019","01","01","10:00","-16.4","","-18.8","","82","","","","17","","16","","24.1","","96.01","","","","-25","","NA"
"-105.27","55.15","LA RONGE A","4064155","2019-01-01 11:00","2019","01","01","11:00","-14.5","","-16.8","","83","","","","18","","17","","2.4","","95.75","","","","-23","","Snow"
"-105.27","55.15","LA RONGE A","4064155","2019-01-01 12:00","2019","01","01","12:00","-14.1","","-16.8","","80","","","","19","","17","","19.3","","95.67","","","","-22","","Snow"
"-105.27","55.15","LA RONGE A","4064155","2019-01-01 13:00","2019","01","01","13:00","-14.3","","-17.0","","80","","","","19","","15","","3.2","","95.54","","","","-22","","Snow"
"-105.27","55.15","LA RONGE A","4064155","2019-01-01 14:00","2019","01","01","14:00","-13.6","","-16.1","","81","","","","19","","13","","3.2","","95.40","","","","-21","","Snow"
"-105.27","55.15","LA RONGE A","4064155","2019-01-01 15:00","2019","01","01","15:00","-12.8","","-15.0","","83","","","","19","","12","","24.1","","95.31","","","","-19","","Snow"
"-105.27","55.15","LA RONGE A","4064155","2019-01-01 16:00","2019","01","01","16:00","-11.7","","-13.7","","86","","","","22","","8","","24.1","","95.35","","","","-16","","Snow"
"-105.27","55.15","LA RONGE A","4064155","2019-01-01 17:00","2019","01","01","17:00","-10.5","","-11.7","","91","","","","22","","7","","19.3","","95.37","","","","-15","","Freezing Drizzle,Snow"
"-105.27","55.15","LA RONGE A","4064155","2019-01-01 18:00","2019","01","01","18:00","-8.6","","-10.1","","90","","","","23","","7","","16.1","","95.34","","","","-12","","Snow"
"-105.27","55.15","LA RONGE A","4064155","2019-01-01 19:00","2019","01","01","19:00","-8.0","","-9.2","","91","","","","23","","7","","12.9","","95.35","","","","-12","","Snow"
"-105.27","55.15","LA RONGE A","4064155","2019-01-01 20:00","2019","01","01","20:00","-6.7","","-7.9","","91","","","","25","","8","","19.3","","95.33","","","","-11","","Snow"
"-105.27","55.15","LA RONGE A","4064155","2019-01-01 21:00","2019","01","01","21:00","-5.5","","-6.8","","91","","","","27","","11","","19.3","","95.33","","","","-10","","Snow"
"-105.27","55.15","LA RONGE A","4064155","2019-01-01 22:00","2019","01","01","22:00","-4.8","","-6.5","","88","","","","29","","16","","19.3","","95.38","","","","-11","","Snow"
"-105.27","55.15","LA RONGE A","4064155","2019-01-01 23:00","2019","01","01","23:00","-4.5","","-6.3","","87","","","","29","","13","","19.3","","95.37","","","","-10","","Snow"
"-105.27","55.15","LA RONGE A","4064155","2019-01-02 00:00","2019","01","02","00:00","-4.2","","-5.6","","90","","","","30","","14","","16.1","","95.43","","","","-9","","Snow"
"-105.27","55.15","LA RONGE A","4064155","2019-01-02 01:00","2019","01","02","01:00","-4.9","","-7.1","","85","","","","29","","23","","19.3","","95.50","","","","-12","","Snow"
"-105.27","55.15","LA RONGE A","4064155","2019-01-02 02:00","2019","01","02","02:00","-6.0","","-8.1","","85","","","","30","","18","","19.3","","95.54","","","","-12","","Snow"
"-105.27","55.15","LA RONGE A","4064155","2019-01-02 03:00","2019","01","02","03:00","-7.9","","-9.6","","88","","","","28","","13","","24.1","","95.59","","","","-14","","Snow"
"-105.27","55.15","LA RONGE A","4064155","2019-01-02 04:00","2019","01","02","04:00","-8.5","","-10.1","","88","","","","26","","5","","24.1","","95.60","","","","-11","","Snow"
"-105.27","55.15","LA RONGE A","4064155","2019-01-02 05:00","2019","01","02","05:00","-9.1","","-10.8","","88","","","","29","","14","","24.1","","95.62","","","","-15","","NA"
"-105.27","55.15","LA RONGE A","4064155","2019-01-02 06:00","2019","01","02","06:00","-9.5","","-11.1","","88","","","","28","","13","","24.1","","95.55","","","","-16","","Mainly Clear"
"-105.27","55.15","LA RONGE A","4064155","2019-01-02 07:00","2019","01","02","07:00","-10.0","","-11.3","","90","","","","24","","7","","24.1","","95.48","","","","-14","","NA"
"-105.27","55.15","LA RONGE A","4064155","2019-01-02 08:00","2019","01","02","08:00","-9.3","","-10.8","","89","","","","22","","5","","24.1","","95.52","","","","-12","","NA"
"-105.27","55.15","LA RONGE A","4064155","2019-01-02 09:00","2019","01","02","09:00","-9.4","","-10.6","","91","","","","17","","9","","24.1","","95.42","","","","-14","","Cloudy"
"-105.27","55.15","LA RONGE A","4064155","2019-01-02 10:00","2019","01","02","10:00","-9.8","","-11.1","","90","","","","15","","10","","24.1","","95.34","","","","-15","","NA"
"-105.27","55.15","LA RONGE A","4064155","2019-01-02 11:00","2019","01","02","11:00","-8.7","","-10.0","","91","","","","14","","14","","24.1","","95.09","","","","-15","","NA"
"-105.27","55.15","LA RONGE A","4064155","2019-01-02 12:00","2019","01","02","12:00","-7.2","","-8.5","","90","","","","14","","14","","24.1","","95.01","","","","-13","","Cloudy"
"-105.27","55.15","LA RONGE A","4064155","2019-01-02 13:00","2019","01","02","13:00","-5.5","","-7.0","","89","","","","13","","10","","24.1","","94.91","","","","-10","","NA"
"-105.27","55.15","LA RONGE A","4064155","2019-01-02 14:00","2019","01","02","14:00","-4.2","","-6.0","","88","","","","15","","9","","24.1","","94.82","","","","-8","","NA"
"-105.27","55.15","LA RONGE A","4064155","2019-01-02 15:00","2019","01","02","15:00","-3.5","","-5.2","","88","","","","13","","8","","24.1","","94.74","","","","-7","","Cloudy"
"-105.27","55.15","LA RONGE A","4064155","2019-01-02 16:00","2019","01","02","16:00","-3.8","","-5.0","","91","","","","17","","8","","24.1","","94.67","","","","-7","","NA"
"-105.27","55.15","LA RONGE A","4064155","2019-01-02 17:00","2019","01","02","17:00","-3.5","","-4.8","","91","","","","24","","3","","24.1","","94.67","","","","-5","","NA"
"-105.27","55.15","LA RONGE A","4064155","2019-01-02 18:00","2019","01","02","18:00","-3.6","","-4.4","","94","","","","20","","6","","24.1","","94.59","","","","-6","","Mostly Cloudy"
"-105.27","55.15","LA RONGE A","4064155","2019-01-02 19:00","2019","01","02","19:00","0.7","","-0.7","","90","","","","25","","13","","24.1","","94.60","","","","","","NA"
"-105.27","55.15","LA RONGE A","4064155","2019-01-02 20:00","2019","01","02","20:00","1.5","","-0.2","","89","","","","26","","16","","24.1","","94.65","","","","","","NA"
"-105.27","55.15","LA RONGE A","4064155","2019-01-02 21:00","2019","01","02","21:00","1.7","","0.2","","90","","","","26","","21","","24.1","","94.66","","","","","","Clear"
"-105.27","55.15","LA RONGE A","4064155","2019-01-02 22:00","2019","01","02","22:00","1.3","","0.0","","91","","","","26","","18","","24.1","","94.69","","","","","","NA"
"-105.27","55.15","LA RONGE A","4064155","2019-01-02 23:00","2019","01","02","23:00","1.1","","-0.2","","91","","","","27","","14","","24.1","","94.70","","","","","","NA"
"-105.27","55.15","LA RONGE A","4064155","2019-01-03 00:00","2019","01","03","00:00","0.8","","-0.5","","91","","","","26","","11","","24.1","","94.71","","","","","","Mostly Cloudy"
"-105.27","55.15","LA RONGE A","4064155","2019-01-03 01:00","2019","01","03","01:00","-0.2","","-1.1","","93","","","","24","","10","","24.1","","94.81","","","","-4","","NA"
"-105.27","55.15","LA RONGE A","4064155","2019-01-03 02:00","2019","01","03","02:00","-0.6","","-1.6","","93","","","","24","","12","","24.1","","94.83","","","","-5","","NA"
"-105.27","55.15","LA RONGE A","4064155","2019-01-03 03:00","2019","01","03","03:00","-0.7","","-1.6","","94","","","","24","","11","","24.1","","94.81","","","","-4","","Mostly Cloudy"
"-105.27","55.15","LA RONGE A","4064155","2019-01-03 04:00","2019","01","03","04:00","-0.4","","-1.5","","92","","","","24","","10","","24.1","","94.85","","","","-4","","NA"
"-105.27","55.15","LA RONGE A","4064155","2019-01-03 05:00","2019","01","03","05:00","-0.3","","-1.5","","92","","","","24","","12","","24.1","","94.86","","","","-4","","NA"
"-105.27","55.15","LA RONGE A","4064155","2019-01-03 06:00","2019","01","03","06:00","-0.5","","-1.8","","91","","","","24","","10","","24.1","","94.84","","","","-4","","Mostly Cloudy"
"-105.27","55.15","LA RONGE A","4064155","2019-01-03 07:00","2019","01","03","07:00","-1.0","","-2.2","","92","","","","23","","11","","24.1","","94.79","","","","-5","","NA"
"-105.27","55.15","LA RONGE A","4064155","2019-01-03 08:00","2019","01","03","08:00","-1.7","","-2.5","","95","","","","23","","11","","24.1","","94.81","","","","-6","","NA"
"-105.27","55.15","LA RONGE A","4064155","2019-01-03 09:00","2019","01","03","09:00","-3.5","","-3.9","","97","","","","28","","6","","24.1","","94.84","","","","-6","","Mostly Cloudy"
"-105.27","55.15","LA RONGE A","4064155","2019-01-03 10:00","2019","01","03","10:00","-1.2","","-1.9","","95","","","","25","","13","","24.1","","94.87","","","","-5","","NA"
"-105.27","55.15","LA RONGE A","4064155","2019-01-03 11:00","2019","01","03","11:00","0.0","","-1.4","","90","","","","27","","18","","24.1","","94.91","","","","-5","","NA"
"-105.27","55.15","LA RONGE A","4064155","2019-01-03 12:00","2019","01","03","12:00","0.7","","-1.4","","86","","","","26","","15","","24.1","","94.95","","","","","","Mainly Clear"
"-105.27","55.15","LA RONGE A","4064155","2019-01-03 13:00","2019","01","03","13:00","1.3","","-2.2","","78","","","","26","","15","","24.1","","94.97","","","","","","NA"
"-105.27","55.15","LA RONGE A","4064155","2019-01-03 14:00","2019","01","03","14:00","1.7","","-3.7","","67","","","","25","","20","","24.1","","94.91","","","","","","NA"
"-105.27","55.15","LA RONGE A","4064155","2019-01-03 15:00","2019","01","03","15:00","1.2","","-4.5","","66","","","","27","","21","","24.1","","94.97","","","","","","Clear"
"-105.27","55.15","LA RONGE A","4064155","2019-01-03 16:00","2019","01","03","16:00","0.3","","-5.3","","66","","","","26","","17","","24.1","","95.03","","","","","","NA"
"-105.27","55.15","LA RONGE A","4064155","2019-01-03 17:00","2019","01","03","17:00","-1.0","","-6.2","","68","","","","27","","16","","24.1","","95.09","","","","-6","","NA"
"-105.27","55.15","LA RONGE A","4064155","2019-01-03 18:00","2019","01","03","18:00","-1.2","","-7.0","","65","","","","25","","19","","24.1","","95.14","","","","-7","","Clear"
"-105.27","55.15","LA RONGE A","4064155","2019-01-03 19:00","2019","01","03","19:00","-2.0","","-7.6","","65","","","","26","","12","","24.1","","95.18","","","","-6","","NA"
"-105.27","55.15","LA RONGE A","4064155","2019-01-03 20:00","2019","01","03","20:00","-2.8","","-7.8","","68","","","","26","","13","","24.1","","95.21","","","","-7","","NA"
"-105.27","55.15","LA RONGE A","4064155","2019-01-03 21:00","2019","01","03","21:00","-3.6","","-8.2","","71","","","","26","","15","","24.1","","95.20","","","","-9","","Clear"
"-105.27","55.15","LA RONGE A","4064155","2019-01-03 22:00","2019","01","03","22:00","-4.3","","-8.7","","72","","","","24","","17","","24.1","","95.27","","","","-10","","NA"
"-105.27","55.15","LA RONGE A","4064155","2019-01-03 23:00","2019","01","03","23:00","-5.4","","-9.2","","74","","","","24","","15","","24.1","","95.28","","","","-11","","NA"
"-105.27","55.15","LA RONGE A","4064155","2019-01-04 00:00","2019","01","04","00:00","-5.4","","-9.3","","74","","","","26","","17","","24.1","","95.35","","","","-11","","Mainly Clear"
"-105.27","55.15","LA RONGE A","4064155","2019-01-04 01:00","2019","01","04","01:00","-6.7","","-10.0","","77","","","","25","","12","","24.1","","95.35","","","","-12","","NA"
"-105.27","55.15","LA RONGE A","4064155","2019-01-04 02:00","2019","01","04","02:00","-7.1","","-10.2","","79","","","","25","","16","","24.1","","95.43","","","","-13","","NA"
"-105.27","55.15","LA RONGE A","4064155","2019-01-04 03:00","2019","01","04","03:00","-7.3","","-10.4","","78","","","","25","","12","","24.1","","95.48","","","","-13","","Mainly Clear"
"-105.27","55.15","LA RONGE A","4064155","2019-01-04 04:00","2019","01","04","04:00","-7.8","","-10.9","","78","","","","27","","13","","24.1","","95.55","","","","-14","","NA"
"-105.27","55.15","LA RONGE A","4064155","2019-01-04 05:00","2019","01","04","05:00","-7.9","","-11.1","","78","","","","27","","13","","24.1","","95.56","","","","-14","","NA"
"-105.27","55.15","LA RONGE A","4064155","2019-01-04 06:00","2019","01","04","06:00","-8.2","","-11.2","","80","","","","26","","12","","24.1","","95.59","","","","-14","","Clear"
"-105.27","55.15","LA RONGE A","4064155","2019-01-04 07:00","2019","01","04","07:00","-9.8","","-11.9","","85","","","","25","","10","","24.1","","95.66","","","","-15","","NA"
"-105.27","55.15","LA RONGE A","4064155","2019-01-04 08:00","2019","01","04","08:00","-11.0","","-12.7","","88","","","","24","","8","","24.1","","95.67","","","","-16","","NA"
"-105.27","55.15","LA RONGE A","4064155","2019-01-04 09:00","2019","01","04","09:00","-13.7","","-15.0","","90","","","","24","","5","","24.1","","95.73","","","","-17","","Mainly Clear"
"-105.27","55.15","LA RONGE A","4064155","2019-01-04 10:00","2019","01","04","10:00","-11.6","","-13.0","","90","","","","25","","8","","24.1","","95.78","","","","-16","","NA"
"-105.27","55.15","LA RONGE A","4064155","2019-01-04 11:00","2019","01","04","11:00","-11.1","","-12.6","","89","","","","26","","8","","24.1","","95.81","","","","-16","","NA"
"-105.27","55.15","LA RONGE A","4064155","2019-01-04 12:00","2019","01","04","12:00","-9.0","","-11.5","","82","","","","30","","10","","24.1","","95.85","","","","-14","","Mostly Cloudy"
"-105.27","55.15","LA RONGE A","4064155","2019-01-04 13:00","2019","01","04","13:00","-7.6","","-10.7","","78","","","","30","","13","","24.1","","95.81","","","","-13","","NA"
"-105.27","55.15","LA RONGE A","4064155","2019-01-04 14:00","2019","01","04","14:00","-7.8","","-10.8","","79","","","","30","","10","","24.1","","95.81","","","","-13","","NA"
"-105.27","55.15","LA RONGE A","4064155","2019-01-04 15:00","2019","01","04","15:00","-7.9","","-10.8","","80","","","","30","","18","","24.1","","95.86","","","","-15","","Cloudy"
"-105.27","55.15","LA RONGE A","4064155","2019-01-04 16:00","2019","01","04","16:00","-8.2","","-10.6","","82","","","","31","","13","","24.1","","95.90","","","","-14","","NA"
"-105.27","55.15","LA RONGE A","4064155","2019-01-04 17:00","2019","01","04","17:00","-8.3","","-10.4","","85","","","","29","","16","","24.1","","95.98","","","","-15","","NA"
"-105.27","55.15","LA RONGE A","4064155","2019-01-04 18:00","2019","01","04","18:00","-8.2","","-10.2","","85","","","","31","","15","","24.1","","96.01","","","","-15","","Cloudy"
"-105.27","55.15","LA RONGE A","4064155","2019-01-04 19:00","2019","01","04","19:00","-8.0","","-10.2","","85","","","","31","","9","","24.1","","96.04","","","","-13","","Snow"
"-105.27","55.15","LA RONGE A","4064155","2019-01-04 20:00","2019","01","04","20:00","-7.9","","-10.2","","84","","","","33","","10","","24.1","","96.10","","","","-13","","Snow"
"-105.27","55.15","LA RONGE A","4064155","2019-01-04 21:00","2019","01","04","21:00","-8.2","","-10.3","","84","","","","29","","14","","24.1","","96.19","","","","-14","","Snow"
"-105.27","55.15","LA RONGE A","4064155","2019-01-04 22:00","2019","01","04","22:00","-9.3","","-12.1","","80","","","","33","","18","","24.1","","96.31","","","","-17","","Snow"
"-105.27","55.15","LA RONGE A","4064155","2019-01-04 23:00","2019","01","04","23:00","-9.7","","-12.5","","80","","","","30","","18","","16.1","","96.38","","","","-17","","Snow"
"-105.27","55.15","LA RONGE A","4064155","2019-01-05 00:00","2019","01","05","00:00","-11.8","","-14.6","","80","","","","33","","13","","24.1","","96.49","","","","-18","","Snow"
"-105.27","55.15","LA RONGE A","4064155","2019-01-05 01:00","2019","01","05","01:00","-12.4","","-15.2","","80","","","","32","","14","","24.1","","96.61","","","","-19","","Snow"
"-105.27","55.15","LA RONGE A","4064155","2019-01-05 02:00","2019","01","05","02:00","-12.7","","-15.7","","78","","","","32","","19","","24.1","","96.72","","","","-21","","Snow"
"-105.27","55.15","LA RONGE A","4064155","2019-01-05 03:00","2019","01","05","03:00","-13.6","","-16.5","","79","","","","31","","16","","24.1","","96.86","","","","-21","","Snow"
"-105.27","55.15","LA RONGE A","4064155","2019-01-05 04:00","2019","01","05","04:00","-14.5","","-17.2","","80","","","","33","","18","","24.1","","96.96","","","","-23","","Snow"
"-105.27","55.15","LA RONGE A","4064155","2019-01-05 05:00","2019","01","05","05:00","-16.0","","-18.8","","79","","","","33","","16","","24.1","","97.05","","","","-24","","Snow"
"-105.27","55.15","LA RONGE A","4064155","2019-01-05 06:00","2019","01","05","06:00","-17.4","","-20.4","","78","","","","33","","11","","24.1","","97.13","","","","-25","","Snow"
"-105.27","55.15","LA RONGE A","4064155","2019-01-05 07:00","2019","01","05","07:00","-17.5","","-20.5","","78","","","","35","","6","","24.1","","97.20","","","","-22","","Snow"
"-105.27","55.15","LA RONGE A","4064155","2019-01-05 08:00","2019","01","05","08:00","-17.9","","-20.9","","78","","","","32","","9","","24.1","","97.24","","","","-24","","Snow"
"-105.27","55.15","LA RONGE A","4064155","2019-01-05 09:00","2019","01","05","09:00","-18.5","","-21.5","","78","","","","31","","6","","24.1","","97.34","","","","-23","","Snow"
"-105.27","55.15","LA RONGE A","4064155","2019-01-05 10:00","2019","01","05","10:00","-20.9","","-23.2","","82","","","","36","","1","","24.1","","97.45","","","","-22","","NA"
"-105.27","55.15","LA RONGE A","4064155","2019-01-05 11:00","2019","01","05","11:00","-20.2","","-22.8","","80","","","","31","","7","","24.1","","97.52","","","","-26","","NA"
"-105.27","55.15","LA RONGE A","4064155","2019-01-05 12:00","2019","01","05","12:00","-17.9","","-21.8","","73","","","","30","","6","","24.1","","97.54","","","","-23","","Mainly Clear"
"-105.27","55.15","LA RONGE A","4064155","2019-01-05 13:00","2019","01","05","13:00","-17.5","","-21.9","","69","","","","28","","5","","24.1","","97.50","","","","-21","","NA"
"-105.27","55.15","LA RONGE A","4064155","2019-01-05 14:00","2019","01","05","14:00","-17.3","","-21.9","","68","","","","36","","2","","24.1","","97.49","","","","-19","","NA"
"-105.27","55.15","LA RONGE A","4064155","2019-01-05 15:00","2019","01","05","15:00","-17.6","","-21.4","","73","","","","18","","9","","24.1","","97.53","","","","-24","","Mainly Clear"
"-105.27","55.15","LA RONGE A","4064155","2019-01-05 16:00","2019","01","05","16:00","-18.4","","-21.6","","76","","","","14","","6","","24.1","","97.50","","","","-23","","NA"
"-105.27","55.15","LA RONGE A","4064155","2019-01-05 17:00","2019","01","05","17:00","-19.6","","-22.0","","81","","","","16","","8","","24.1","","97.53","","","","-26","","NA"
"-105.27","55.15","LA RONGE A","4064155","2019-01-05 18:00","2019","01","05","18:00","-22.1","","-24.0","","85","","","","36","","2","","24.1","","97.47","","","","-24","","Clear"
"-105.27","55.15","LA RONGE A","4064155","2019-01-05 19:00","2019","01","05","19:00","-21.6","","-23.4","","85","","","","9","","8","","24.1","","97.40","","","","-28","","NA"
"-105.27","55.15","LA RONGE A","4064155","2019-01-05 20:00","2019","01","05","20:00","-20.7","","-23.0","","82","","","","10","","8","","24.1","","97.36","","","","-27","","NA"
"-105.27","55.15","LA RONGE A","4064155","2019-01-05 21:00","2019","01","05","21:00","-21.0","","-23.1","","83","","","","9","","8","","24.1","","97.32","","","","-27","","Clear"
"-105.27","55.15","LA RONGE A","4064155","2019-01-05 22:00","2019","01","05","22:00","-20.1","","-22.4","","82","","","","10","","9","","24.1","","97.21","","","","-27","","NA"
"-105.27","55.15","LA RONGE A","4064155","2019-01-05 23:00","2019","01","05","23:00","-19.3","","-21.7","","82","","","","11","","11","","24.1","","97.18","","","","-27","","NA"
"-105.27","55.15","LA RONGE A","4064155","2019-01-06 00:00","2019","01","06","00:00","-23.3","","-25.8","","81","","","","5","","12","","24.1","","97.09","","","","-32","","Clear"
"-105.27","55.15","LA RONGE A","4064155","2019-01-06 01:00","2019","01","06","01:00","-23.3","","-25.7","","81","","","","4","","12","","24.1","","97.01","","","","-32","","NA"
"-105.27","55.15","LA RONGE A","4064155","2019-01-06 02:00","2019","01","06","02:00","-22.9","","-25.2","","81","","","","4","","14","","24.1","","96.88","","","","-32","","NA"
"-105.27","55.15","LA RONGE A","4064155","2019-01-06 03:00","2019","01","06","03:00","-20.9","","-23.1","","83","","","","5","","9","","24.1","","96.79","","","","-28","","Mostly Cloudy"
"-105.27","55.15","LA RONGE A","4064155","2019-01-06 04:00","2019","01","06","04:00","-20.7","","-23.0","","83","","","","6","","10","","24.1","","96.68","","","","-28","","NA"
"-105.27","55.15","LA RONGE A","4064155","2019-01-06 05:00","2019","01","06","05:00","-19.4","","-21.6","","83","","","","7","","9","","24.1","","96.57","","","","-26","","NA"
"-105.27","55.15","LA RONGE A","4064155","2019-01-06 06:00","2019","01","06","06:00","-18.0","","-20.3","","83","","","","7","","12","","24.1","","96.39","","","","-26","","Mostly Cloudy"
"-105.27","55.15","LA RONGE A","4064155","2019-01-06 07:00","2019","01","06","07:00","-17.5","","-19.8","","83","","","","7","","13","","24.1","","96.27","","","","-25","","NA"
"-105.27","55.15","LA RONGE A","4064155","2019-01-06 08:00","2019","01","06","08:00","-16.9","","-19.2","","83","","","","8","","15","","24.1","","96.14","","","","-25","","NA"
"-105.27","55.15","LA RONGE A","4064155","2019-01-06 09:00","2019","01","06","09:00","-16.1","","-18.4","","83","","","","9","","16","","24.1","","96.02","","","","-25","","Cloudy"
"-105.27","55.15","LA RONGE A","4064155","2019-01-06 10:00","2019","01","06","10:00","-15.5","","-17.6","","84","","","","9","","18","","24.1","","95.90","","","","-24","","NA"
"-105.27","55.15","LA RONGE A","4064155","2019-01-06 11:00","2019","01","06","11:00","-14.9","","-17.0","","84","","","","9","","17","","24.1","","95.82","","","","-23","","NA"
"-105.27","55.15","LA RONGE A","4064155","2019-01-06 12:00","2019","01","06","12:00","-14.6","","-16.7","","84","","","","8","","15","","24.1","","95.70","","","","-22","","Cloudy"
"-105.27","55.15","LA RONGE A","4064155","2019-01-06 13:00","2019","01","06","13:00","-14.6","","-16.8","","84","","","","6","","17","","24.1","","95.56","","","","-23","","NA"
"-105.27","55.15","LA RONGE A","4064155","2019-01-06 14:00","2019","01","06","14:00","-13.2","","-15.3","","84","","","","7","","14","","24.1","","95.47","","","","-20","","NA"
"-105.27","55.15","LA RONGE A","4064155","2019-01-06 15:00","2019","01","06","15:00","-12.1","","-14.3","","84","","","","9","","14","","24.1","","95.39","","","","-19","","Cloudy"
"-105.27","55.15","LA RONGE A","4064155","2019-01-06 16:00","2019","01","06","16:00","-11.3","","-13.5","","84","","","","8","","15","","24.1","","95.34","","","","-18","","NA"
"-105.27","55.15","LA RONGE A","4064155","2019-01-06 17:00","2019","01","06","17:00","-11.1","","-13.2","","85","","","","7","","13","","24.1","","95.26","","","","-18","","NA"
"-105.27","55.15","LA RONGE A","4064155","2019-01-06 18:00","2019","01","06","18:00","-10.5","","-12.3","","87","","","","6","","11","","4.8","","95.21","","","","-16","","Snow"
"-105.27","55.15","LA RONGE A","4064155","2019-01-06 19:00","2019","01","06","19:00","-10.0","","-11.6","","88","","","","7","","8","","4.8","","95.13","","","","-14","","Snow"
"-105.27","55.15","LA RONGE A","4064155","2019-01-06 20:00","2019","01","06","20:00","-9.5","","-11.1","","88","","","","9","","13","","9.7","","95.06","","","","-16","","Snow"
"-105.27","55.15","LA RONGE A","4064155","2019-01-06 21:00","2019","01","06","21:00","-9.6","","-11.3","","87","","","","10","","16","","16.1","","94.95","","","","-16","","Snow"
"-105.27","55.15","LA RONGE A","4064155","2019-01-06 22:00","2019","01","06","22:00","-9.9","","-11.8","","86","","","","7","","12","","19.3","","94.90","","","","-16","","Snow"
"-105.27","55.15","LA RONGE A","4064155","2019-01-06 23:00","2019","01","06","23:00","-10.1","","-12.2","","84","","","","8","","12","","24.1","","94.83","","","","-16","","Snow"
"-105.27","55.15","LA RONGE A","4064155","2019-01-07 00:00","2019","01","07","00:00","-10.1","","-12.3","","84","","","","8","","14","","24.1","","94.76","","","","-17","","Snow"
"-105.27","55.15","LA RONGE A","4064155","2019-01-07 01:00","2019","01","07","01:00","-10.4","","-12.5","","84","","","","6","","12","","19.3","","94.73","","","","-16","","Snow"
"-105.27","55.15","LA RONGE A","4064155","2019-01-07 02:00","2019","01","07","02:00","-10.5","","-12.6","","85","","","","5","","10","","19.3","","94.71","","","","-16","","Snow"
"-105.27","55.15","LA RONGE A","4064155","2019-01-07 03:00","2019","01","07","03:00","-10.7","","-12.6","","86","","","","5","","12","","19.3","","94.69","","","","-17","","Snow"
"-105.27","55.15","LA RONGE A","4064155","2019-01-07 04:00","2019","01","07","04:00","-10.9","","-12.3","","89","","","","2","","11","","9.7","","94.67","","","","-17","","Snow"
"-105.27","55.15","LA RONGE A","4064155","2019-01-07 05:00","2019","01","07","05:00","-10.9","","-12.3","","89","","","","33","","8","","3.2","","94.69","","","","-16","","Snow"
"-105.27","55.15","LA RONGE A","4064155","2019-01-07 06:00","2019","01","07","06:00","-10.9","","-12.5","","88","","","","32","","7","","3.2","","94.72","","","","-15","","Snow"
"-105.27","55.15","LA RONGE A","4064155","2019-01-07 07:00","2019","01","07","07:00","-10.9","","-12.5","","88","","","","31","","11","","3.2","","94.74","","","","-17","","Snow"
"-105.27","55.15","LA RONGE A","4064155","2019-01-07 08:00","2019","01","07","08:00","-10.9","","-12.7","","87","","","","31","","13","","3.2","","94.77","","","","-17","","Snow"
"-105.27","55.15","LA RONGE A","4064155","2019-01-07 09:00","2019","01","07","09:00","-10.8","","-12.7","","86","","","","30","","15","","2.4","","94.82","","","","-18","","Snow"
"-105.27","55.15","LA RONGE A","4064155","2019-01-07 10:00","2019","01","07","10:00","-10.8","","-12.9","","85","","","","31","","18","","3.2","","94.90","","","","-18","","Snow"
"-105.27","55.15","LA RONGE A","4064155","2019-01-07 11:00","2019","01","07","11:00","-11.0","","-13.2","","84","","","","30","","15","","1.2","","94.97","","","","-18","","Snow"
"-105.27","55.15","LA RONGE A","4064155","2019-01-07 12:00","2019","01","07","12:00","-12.2","","-14.5","","83","","","","28","","26","","1.6","","95.05","","","","-22","","Snow"
"-105.27","55.15","LA RONGE A","4064155","2019-01-07 13:00","2019","01","07","13:00","-12.8","","-15.5","","81","","","","29","","27","","2.4","","95.09","","","","-23","","Snow"
"-105.27","55.15","LA RONGE A","4064155","2019-01-07 14:00","2019","01","07","14:00","-13.1","","-15.9","","80","","","","29","","27","","2.4","","95.19","","","","-23","","Snow"
"-105.27","55.15","LA RONGE A","4064155","2019-01-07 15:00","2019","01","07","15:00","-13.5","","-16.1","","81","","","","29","","28","","1.2","","95.31","","","","-24","","Snow"
"-105.27","55.15","LA RONGE A","4064155","2019-01-07 16:00","2019","01","07","16:00","-13.6","","-16.2","","81","","","","29","","24","","1.6","","95.42","","","","-23","","Snow,Blowing Snow"
"-105.27","55.15","LA RONGE A","4064155","2019-01-07 17:00","2019","01","07","17:00","-13.6","","-16.4","","80","","","","29","","25","","4.8","","95.55","","","","-23","","Snow,Blowing Snow"
"-105.27","55.15","LA RONGE A","4064155","2019-01-07 18:00","2019","01","07","18:00","-13.7","","-16.2","","82","","","","29","","27","","4.8","","95.67","","","","-24","","Snow,Blowing Snow"
"-105.27","55.15","LA RONGE A","4064155","2019-01-07 19:00","2019","01","07","19:00","-13.9","","-16.4","","81","","","","30","","25","","4.8","","95.75","","","","-24","","Snow,Blowing Snow"
"-105.27","55.15","LA RONGE A","4064155","2019-01-07 20:00","2019","01","07","20:00","-14.5","","-17.4","","79","","","","29","","21","","9.7","","95.87","","","","-24","","Snow,Blowing Snow"
"-105.27","55.15","LA RONGE A","4064155","2019-01-07 21:00","2019","01","07","21:00","-15.0","","-18.6","","74","","","","31","","27","","9.7","","96.00","","","","-26","","Snow,Blowing Snow"
"-105.27","55.15","LA RONGE A","4064155","2019-01-07 22:00","2019","01","07","22:00","-15.4","","-18.7","","77","","","","30","","24","","9.7","","96.13","","","","-26","","Snow,Blowing Snow"
"-105.27","55.15","LA RONGE A","4064155","2019-01-07 23:00","2019","01","07","23:00","-16.0","","-19.2","","76","","","","30","","27","","9.7","","96.25","","","","-27","","Snow,Blowing Snow"
"-105.27","55.15","LA RONGE A","4064155","2019-01-08 00:00","2019","01","08","00:00","-16.4","","-19.8","","75","","","","30","","27","","12.9","","96.36","","","","-27","","Snow,Blowing Snow"
"-105.27","55.15","LA RONGE A","4064155","2019-01-08 01:00","2019","01","08","01:00","-16.5","","-20.0","","75","","","","29","","23","","12.9","","96.49","","","","-27","","Snow,Blowing Snow"
"-105.27","55.15","LA RONGE A","4064155","2019-01-08 02:00","2019","01","08","02:00","-18.1","","-21.5","","75","","","","29","","32","","12.9","","96.65","","","","-30","","Snow,Blowing Snow"
"-105.27","55.15","LA RONGE A","4064155","2019-01-08 03:00","2019","01","08","03:00","-19.7","","-23.1","","75","","","","28","","33","","24.1","","96.81","","","","-33","","Snow,Blowing Snow"
"-105.27","55.15","LA RONGE A","4064155","2019-01-08 04:00","2019","01","08","04:00","-20.0","","-23.6","","74","","","","29","","29","","19.3","","96.95","","","","-32","","Snow,Blowing Snow"
"-105.27","55.15","LA RONGE A","4064155","2019-01-08 05:00","2019","01","08","05:00","-20.2","","-23.9","","73","","","","29","","32","","16.1","","97.05","","","","-33","","Snow,Blowing Snow"
"-105.27","55.15","LA RONGE A","4064155","2019-01-08 06:00","2019","01","08","06:00","-20.6","","-24.1","","74","","","","29","","27","","16.1","","97.16","","","","-33","","Snow,Blowing Snow"
"-105.27","55.15","LA RONGE A","4064155","2019-01-08 07:00","2019","01","08","07:00","-20.4","","-23.9","","74","","","","28","","22","","12.9","","97.30","","","","-31","","Snow,Blowing Snow"
"-105.27","55.15","LA RONGE A","4064155","2019-01-08 08:00","2019","01","08","08:00","-20.1","","-23.5","","75","","","","28","","23","","16.1","","97.42","","","","-31","","Snow,Blowing Snow"
"-105.27","55.15","LA RONGE A","4064155","2019-01-08 09:00","2019","01","08","09:00","-19.2","","-22.5","","75","","","","29","","25","","24.1","","97.53","","","","-31","","Snow,Blowing Snow"
"-105.27","55.15","LA RONGE A","4064155","2019-01-08 10:00","2019","01","08","10:00","-18.9","","-22.3","","75","","","","29","","26","","6.4","","97.63","","","","-30","","Snow,Blowing Snow"
"-105.27","55.15","LA RONGE A","4064155","2019-01-08 11:00","2019","01","08","11:00","-19.2","","-22.7","","75","","","","28","","26","","9.7","","97.75","","","","-31","","Snow,Blowing Snow"
"-105.27","55.15","LA RONGE A","4064155","2019-01-08 12:00","2019","01","08","12:00","-18.9","","-22.3","","75","","","","29","","22","","16.1","","97.85","","","","-30","","Snow,Blowing Snow"
"-105.27","55.15","LA RONGE A","4064155","2019-01-08 13:00","2019","01","08","13:00","-18.7","","-22.2","","74","","","","28","","25","","16.1","","97.94","","","","-30","","Snow,Blowing Snow"
"-105.27","55.15","LA RONGE A","4064155","2019-01-08 14:00","2019","01","08","14:00","-18.6","","-22.5","","72","","","","29","","21","","16.1","","98.06","","","","-29","","Ice Crystals,Blowing Snow"
"-105.27","55.15","LA RONGE A","4064155","2019-01-08 15:00","2019","01","08","15:00","-18.4","","-22.6","","70","","","","29","","27","","24.1","","98.21","","","","-30","","Ice Crystals,Blowing Snow"
"-105.27","55.15","LA RONGE A","4064155","2019-01-08 16:00","2019","01","08","16:00","-18.8","","-22.9","","70","","","","29","","25","","24.1","","98.30","","","","-30","","Ice Crystals,Blowing Snow"
"-105.27","55.15","LA RONGE A","4064155","2019-01-08 17:00","2019","01","08","17:00","-19.1","","-23.1","","71","","","","27","","21","","24.1","","98.43","","","","-30","","Ice Crystals,Blowing Snow"
"-105.27","55.15","LA RONGE A","4064155","2019-01-08 18:00","2019","01","08","18:00","-20.1","","-24.0","","72","","","","28","","20","","24.1","","98.48","","","","-31","","Ice Crystals,Blowing Snow"
"-105.27","55.15","LA RONGE A","4064155","2019-01-08 19:00","2019","01","08","19:00","-21.3","","-25.0","","73","","","","30","","18","","24.1","","98.50","","","","-32","","Blowing Snow"
"-105.27","55.15","LA RONGE A","4064155","2019-01-08 20:00","2019","01","08","20:00","-22.4","","-25.5","","77","","","","26","","8","","24.1","","98.54","","","","-29","","NA"
"-105.27","55.15","LA RONGE A","4064155","2019-01-08 21:00","2019","01","08","21:00","-23.8","","-26.4","","79","","","","21","","4","","24.1","","98.58","","","","-28","","Clear"
"-105.27","55.15","LA RONGE A","4064155","2019-01-08 22:00","2019","01","08","22:00","-24.8","","-27.4","","79","","","","25","","9","","24.1","","98.61","","","","-32","","NA"
"-105.27","55.15","LA RONGE A","4064155","2019-01-08 23:00","2019","01","08","23:00","-25.6","","-28.2","","79","","","","26","","8","","24.1","","98.67","","","","-33","","NA"
"-105.27","55.15","LA RONGE A","4064155","2019-01-09 00:00","2019","01","09","00:00","-26.8","","-29.4","","79","","","","26","","6","","24.1","","98.70","","","","-33","","Clear"
"-105.27","55.15","LA RONGE A","4064155","2019-01-09 01:00","2019","01","09","01:00","-27.4","","-29.9","","80","","","","25","","3","","24.1","","98.71","","","","-31","","NA"
"-105.27","55.15","LA RONGE A","4064155","2019-01-09 02:00","2019","01","09","02:00","-28.9","","-31.5","","79","","","","20","","3","","24.1","","98.75","","","","-32","","NA"
"-105.27","55.15","LA RONGE A","4064155","2019-01-09 03:00","2019","01","09","03:00","-28.8","","-31.2","","80","","","","19","","4","","24.1","","98.78","","","","-33","","Clear"
"-105.27","55.15","LA RONGE A","4064155","2019-01-09 04:00","2019","01","09","04:00","-30.3","","-33.0","","77","","","","17","","4","","24.1","","98.76","","","","-35","","NA"
"-105.27","55.15","LA RONGE A","4064155","2019-01-09 05:00","2019","01","09","05:00","-28.7","","-31.2","","80","","","","18","","6","","24.1","","98.75","","","","-35","","NA"
"-105.27","55.15","LA RONGE A","4064155","2019-01-09 06:00","2019","01","09","06:00","-30.5","","-33.3","","77","","","","9","","4","","24.1","","98.69","","","","-35","","Clear"
"-105.27","55.15","LA RONGE A","4064155","2019-01-09 07:00","2019","01","09","07:00","-29.6","","-32.5","","77","","","","6","","5","","24.1","","98.64","","","","-35","","NA"
"-105.27","55.15","LA RONGE A","4064155","2019-01-09 08:00","2019","01","09","08:00","-29.3","","-32.3","","76","","","","8","","5","","24.1","","98.65","","","","-35","","NA"
"-105.27","55.15","LA RONGE A","4064155","2019-01-09 09:00","2019","01","09","09:00","-30.7","","-33.6","","76","","","","5","","8","","24.1","","98.61","","","","-39","","Mainly Clear"
"-105.27","55.15","LA RONGE A","4064155","2019-01-09 10:00","2019","01","09","10:00","-28.4","","-31.3","","77","","","","5","","6","","24.1","","98.61","","","","-35","","NA"
"-105.27","55.15","LA RONGE A","4064155","2019-01-09 11:00","2019","01","09","11:00","-25.3","","-28.1","","78","","","","7","","5","","24.1","","98.59","","","","-30","","NA"
"-105.27","55.15","LA RONGE A","4064155","2019-01-09 12:00","2019","01","09","12:00","-25.1","","-27.9","","78","","","","4","","10","","24.1","","98.54","","","","-33","","Mostly Cloudy"
"-105.27","55.15","LA RONGE A","4064155","2019-01-09 13:00","2019","01","09","13:00","-24.8","","-27.6","","78","","","","4","","11","","24.1","","98.46","","","","-33","","NA"
"-105.27","55.15","LA RONGE A","4064155","2019-01-09 14:00","2019","01","09","14:00","-21.5","","-24.1","","80","","","","4","","8","","24.1","","98.41","","","","-28","","NA"
"-105.27","55.15","LA RONGE A","4064155","2019-01-09 15:00","2019","01","09","15:00","-20.4","","-23.0","","80","","","","3","","12","","24.1","","98.36","","","","-29","","Cloudy"
"-105.27","55.15","LA RONGE A","4064155","2019-01-09 16:00","2019","01","09","16:00","-19.3","","-22.0","","80","","","","6","","9","","24.1","","98.34","","","","-26","","NA"
"-105.27","55.15","LA RONGE A","4064155","2019-01-09 17:00","2019","01","09","17:00","-19.0","","-21.8","","79","","","","6","","10","","24.1","","98.27","","","","-26","","NA"
"-105.27","55.15","LA RONGE A","4064155","2019-01-09 18:00","2019","01","09","18:00","-18.2","","-21.0","","79","","","","6","","11","","24.1","","98.15","","","","-25","","Cloudy"
"-105.27","55.15","LA RONGE A","4064155","2019-01-09 19:00","2019","01","09","19:00","-17.7","","-20.8","","77","","","","6","","9","","24.1","","98.11","","","","-24","","NA"
"-105.27","55.15","LA RONGE A","4064155","2019-01-09 20:00","2019","01","09","20:00","-17.9","","-20.7","","79","","","","8","","13","","12.9","","98.06","","","","-26","","Snow"
"-105.27","55.15","LA RONGE A","4064155","2019-01-09 21:00","2019","01","09","21:00","-18.1","","-20.8","","79","","","","8","","11","","24.1","","98.03","","","","-25","","Snow"
"-105.27","55.15","LA RONGE A","4064155","2019-01-09 22:00","2019","01","09","22:00","-18.0","","-20.7","","80","","","","6","","13","","19.3","","97.97","","","","-26","","Snow"
"-105.27","55.15","LA RONGE A","4064155","2019-01-09 23:00","2019","01","09","23:00","-18.0","","-20.6","","80","","","","6","","17","","12.9","","97.92","","","","-27","","Snow"
"-105.27","55.15","LA RONGE A","4064155","2019-01-10 00:00","2019","01","10","00:00","-17.5","","-20.2","","80","","","","6","","19","","9.7","","97.85","","","","-27","","Snow,Blowing Snow"
"-105.27","55.15","LA RONGE A","4064155","2019-01-10 01:00","2019","01","10","01:00","-17.6","","-20.2","","80","","","","7","","19","","12.9","","97.76","","","","-27","","Snow,Blowing Snow"
"-105.27","55.15","LA RONGE A","4064155","2019-01-10 02:00","2019","01","10","02:00","-17.8","","-20.4","","80","","","","7","","19","","16.1","","97.74","","","","-27","","Snow,Blowing Snow"
"-105.27","55.15","LA RONGE A","4064155","2019-01-10 03:00","2019","01","10","03:00","-17.9","","-20.6","","80","","","","7","","14","","24.1","","97.73","","","","-26","","Snow"
"-105.27","55.15","LA RONGE A","4064155","2019-01-10 04:00","2019","01","10","04:00","-17.9","","-20.6","","80","","","","7","","18","","24.1","","97.70","","","","-27","","Ice Crystals"
"-105.27","55.15","LA RONGE A","4064155","2019-01-10 05:00","2019","01","10","05:00","-18.0","","-20.7","","80","","","","8","","17","","24.1","","97.68","","","","-27","","Ice Crystals"
"-105.27","55.15","LA RONGE A","4064155","2019-01-10 06:00","2019","01","10","06:00","-18.2","","-20.8","","80","","","","8","","12","","24.1","","97.63","","","","-26","","Ice Crystals"
"-105.27","55.15","LA RONGE A","4064155","2019-01-10 07:00","2019","01","10","07:00","-18.6","","-21.1","","81","","","","6","","8","","24.1","","97.62","","","","-25","","Ice Crystals"
"-105.27","55.15","LA RONGE A","4064155","2019-01-10 08:00","2019","01","10","08:00","-19.8","","-22.1","","82","","","","4","","9","","24.1","","97.63","","","","-27","","Ice Crystals"
"-105.27","55.15","LA RONGE A","4064155","2019-01-10 09:00","2019","01","10","09:00","-19.4","","-21.6","","83","","","","5","","9","","24.1","","97.61","","","","-26","","Ice Crystals"
"-105.27","55.15","LA RONGE A","4064155","2019-01-10 10:00","2019","01","10","10:00","-18.2","","-20.5","","82","","","","5","","9","","24.1","","97.60","","","","-25","","Ice Crystals"
"-105.27","55.15","LA RONGE A","4064155","2019-01-10 11:00","2019","01","10","11:00","-17.2","","-19.9","","80","","","","5","","10","","24.1","","97.62","","","","-24","","Snow"
"-105.27","55.15","LA RONGE A","4064155","2019-01-10 12:00","2019","01","10","12:00","-17.0","","-19.7","","80","","","","5","","14","","24.1","","97.61","","","","-25","","Snow"
"-105.27","55.15","LA RONGE A","4064155","2019-01-10 13:00","2019","01","10","13:00","-16.4","","-19.4","","78","","","","6","","14","","24.1","","97.60","","","","-24","","Snow"
"-105.27","55.15","LA RONGE A","4064155","2019-01-10 14:00","2019","01","10","14:00","-16.1","","-19.0","","78","","","","5","","15","","24.1","","97.61","","","","-24","","Snow"
"-105.27","55.15","LA RONGE A","4064155","2019-01-10 15:00","2019","01","10","15:00","-16.3","","-19.0","","80","","","","4","","14","","24.1","","97.63","","","","-24","","Snow"
"-105.27","55.15","LA RONGE A","4064155","2019-01-10 16:00","2019","01","10","16:00","-16.4","","-19.1","","80","","","","5","","13","","24.1","","97.69","","","","-24","","Snow"
"-105.27","55.15","LA RONGE A","4064155","2019-01-10 17:00","2019","01","10","17:00","-16.4","","-18.9","","81","","","","5","","14","","24.1","","97.75","","","","-24","","NA"
"-105.27","55.15","LA RONGE A","4064155","2019-01-10 18:00","2019","01","10","18:00","-16.2","","-18.8","","81","","","","6","","16","","24.1","","97.80","","","","-25","","Cloudy"
"-105.27","55.15","LA RONGE A","4064155","2019-01-10 19:00","2019","01","10","19:00","-16.4","","-18.9","","81","","","","6","","13","","19.3","","97.83","","","","-24","","Snow"
"-105.27","55.15","LA RONGE A","4064155","2019-01-10 20:00","2019","01","10","20:00","-16.8","","-19.2","","82","","","","7","","9","","19.3","","97.85","","","","-23","","Snow"
"-105.27","55.15","LA RONGE A","4064155","2019-01-10 21:00","2019","01","10","21:00","-17.2","","-19.5","","82","","","","4","","10","","19.3","","97.92","","","","-24","","Snow"
"-105.27","55.15","LA RONGE A","4064155","2019-01-10 22:00","2019","01","10","22:00","-17.0","","-19.4","","82","","","","6","","13","","24.1","","97.94","","","","-25","","Snow"
"-105.27","55.15","LA RONGE A","4064155","2019-01-10 23:00","2019","01","10","23:00","-16.9","","-19.2","","82","","","","8","","9","","19.3","","97.99","","","","-23","","Snow"
"-105.27","55.15","LA RONGE A","4064155","2019-01-11 00:00","2019","01","11","00:00","-16.8","","-19.1","","82","","","","8","","10","","24.1","","98.01","","","","-23","","Cloudy"
"-105.27","55.15","LA RONGE A","4064155","2019-01-11 01:00","2019","01","11","01:00","-17.0","","-19.2","","83","","","","8","","10","","24.1","","98.05","","","","-24","","NA"
"-105.27","55.15","LA RONGE A","4064155","2019-01-11 02:00","2019","01","11","02:00","-16.7","","-19.0","","83","","","","12","","10","","24.1","","98.10","","","","-23","","NA"
"-105.27","55.15","LA RONGE A","4064155","2019-01-11 03:00","2019","01","11","03:00","-17.6","","-19.7","","84","","","","2","","6","","24.1","","98.17","","","","-22","","Cloudy"
"-105.27","55.15","LA RONGE A","4064155","2019-01-11 04:00","2019","01","11","04:00","-17.7","","-19.8","","84","","","","4","","4","","24.1","","98.24","","","","-21","","NA"
"-105.27","55.15","LA RONGE A","4064155","2019-01-11 05:00","2019","01","11","05:00","-17.5","","-19.7","","83","","","","8","","7","","24.1","","98.17","","","","-23","","NA"
"-105.27","55.15","LA RONGE A","4064155","2019-01-11 06:00","2019","01","11","06:00","-17.3","","-19.5","","84","","","","11","","7","","24.1","","98.17","","","","-23","","Cloudy"
"-105.27","55.15","LA RONGE A","4064155","2019-01-11 07:00","2019","01","11","07:00","-17.4","","-19.4","","85","","","","12","","7","","24.1","","98.19","","","","-23","","Snow"
"-105.27","55.15","LA RONGE A","4064155","2019-01-11 08:00","2019","01","11","08:00","-17.1","","-19.3","","84","","","","15","","7","","24.1","","98.23","","","","-22","","Snow"
"-105.27","55.15","LA RONGE A","4064155","2019-01-11 09:00","2019","01","11","09:00","-17.4","","-19.5","","84","","","","15","","10","","24.1","","98.26","","","","-24","","Snow"
"-105.27","55.15","LA RONGE A","4064155","2019-01-11 10:00","2019","01","11","10:00","-18.0","","-20.1","","84","","","","15","","13","","24.1","","98.31","","","","-26","","Snow"
"-105.27","55.15","LA RONGE A","4064155","2019-01-11 11:00","2019","01","11","11:00","-18.1","","-20.4","","83","","","","14","","12","","24.1","","98.34","","","","-26","","Snow"
"-105.27","55.15","LA RONGE A","4064155","2019-01-11 12:00","2019","01","11","12:00","-17.7","","-20.3","","81","","","","15","","15","","24.1","","98.35","","","","-26","","Mainly Clear"
"-105.27","55.15","LA RONGE A","4064155","2019-01-11 13:00","2019","01","11","13:00","-17.1","","-20.1","","79","","","","14","","17","","24.1","","98.25","","","","-26","","NA"
"-105.27","55.15","LA RONGE A","4064155","2019-01-11 14:00","2019","01","11","14:00","-16.3","","-19.5","","76","","","","14","","17","","24.1","","98.24","","","","-25","","NA"
"-105.27","55.15","LA RONGE A","4064155","2019-01-11 15:00","2019","01","11","15:00","-16.0","","-19.2","","77","","","","13","","16","","24.1","","98.18","","","","-24","","Mostly Cloudy"
"-105.27","55.15","LA RONGE A","4064155","2019-01-11 16:00","2019","01","11","16:00","-15.3","","-18.6","","76","","","","14","","13","","24.1","","98.18","","","","-23","","NA"
"-105.27","55.15","LA RONGE A","4064155","2019-01-11 17:00","2019","01","11","17:00","-15.8","","-18.8","","78","","","","14","","12","","24.1","","98.13","","","","-23","","NA"
"-105.27","55.15","LA RONGE A","4064155","2019-01-11 18:00","2019","01","11","18:00","-15.4","","-18.4","","78","","","","14","","16","","24.1","","98.07","","","","-24","","Mainly Clear"
"-105.27","55.15","LA RONGE A","4064155","2019-01-11 19:00","2019","01","11","19:00","-15.8","","-18.6","","79","","","","15","","15","","24.1","","98.04","","","","-24","","NA"
"-105.27","55.15","LA RONGE A","4064155","2019-01-11 20:00","2019","01","11","20:00","-16.1","","-18.8","","80","","","","14","","18","","24.1","","98.00","","","","-25","","NA"
"-105.27","55.15","LA RONGE A","4064155","2019-01-11 21:00","2019","01","11","21:00","-16.3","","-18.8","","81","","","","14","","20","","24.1","","97.99","","","","-26","","Snow"
"-105.27","55.15","LA RONGE A","4064155","2019-01-11 22:00","2019","01","11","22:00","-16.9","","-19.4","","81","","","","14","","17","","24.1","","97.90","","","","-26","","NA"
"-105.27","55.15","LA RONGE A","4064155","2019-01-11 23:00","2019","01","11","23:00","-17.0","","-19.6","","80","","","","15","","16","","24.1","","97.83","","","","-26","","NA"
"-105.27","55.15","LA RONGE A","4064155","2019-01-12 00:00","2019","01","12","00:00","-16.9","","-19.4","","81","","","","13","","15","","24.1","","97.78","","","","-25","","Mainly Clear"
"-105.27","55.15","LA RONGE A","4064155","2019-01-12 01:00","2019","01","12","01:00","-15.8","","-18.4","","81","","","","15","","14","","24.1","","97.71","","","","-24","","NA"
"-105.27","55.15","LA RONGE A","4064155","2019-01-12 02:00","2019","01","12","02:00","-15.2","","-17.9","","80","","","","15","","11","","24.1","","97.60","","","","-22","","NA"
"-105.27","55.15","LA RONGE A","4064155","2019-01-12 03:00","2019","01","12","03:00","-14.3","","-16.9","","81","","","","15","","13","","24.1","","97.53","","","","-21","","Cloudy"
"-105.27","55.15","LA RONGE A","4064155","2019-01-12 04:00","2019","01","12","04:00","-13.0","","-15.3","","83","","","","15","","17","","24.1","","97.42","","","","-21","","NA"
"-105.27","55.15","LA RONGE A","4064155","2019-01-12 05:00","2019","01","12","05:00","-12.1","","-15.0","","80","","","","16","","20","","24.1","","97.34","","","","-21","","NA"
"-105.27","55.15","LA RONGE A","4064155","2019-01-12 06:00","2019","01","12","06:00","-11.9","","-14.8","","79","","","","18","","16","","24.1","","97.30","","","","-19","","Mostly Cloudy"
"-105.27","55.15","LA RONGE A","4064155","2019-01-12 07:00","2019","01","12","07:00","-11.8","","-14.5","","80","","","","16","","13","","24.1","","97.23","","","","-18","","NA"
"-105.27","55.15","LA RONGE A","4064155","2019-01-12 08:00","2019","01","12","08:00","-11.3","","-14.0","","81","","","","17","","12","","24.1","","97.18","","","","-17","","NA"
"-105.27","55.15","LA RONGE A","4064155","2019-01-12 09:00","2019","01","12","09:00","-10.8","","-13.5","","81","","","","20","","6","","24.1","","97.21","","","","-14","","Cloudy"
"-105.27","55.15","LA RONGE A","4064155","2019-01-12 10:00","2019","01","12","10:00","-10.8","","-13.6","","80","","","","18","","16","","24.1","","97.12","","","","-18","","NA"
"-105.27","55.15","LA RONGE A","4064155","2019-01-12 11:00","2019","01","12","11:00","-10.7","","-13.5","","80","","","","18","","11","","24.1","","97.11","","","","-16","","NA"
"-105.27","55.15","LA RONGE A","4064155","2019-01-12 12:00","2019","01","12","12:00","-10.9","","-13.6","","81","","","","19","","8","","24.1","","97.07","","","","-16","","Mainly Clear"
"-105.27","55.15","LA RONGE A","4064155","2019-01-12 13:00","2019","01","12","13:00","-9.5","","-12.9","","76","","","","19","","14","","24.1","","97.01","","","","-16","","NA"
"-105.27","55.15","LA RONGE A","4064155","2019-01-12 14:00","2019","01","12","14:00","-8.2","","-11.8","","76","","","","23","","9","","24.1","","97.00","","","","-13","","NA"
"-105.27","55.15","LA RONGE A","4064155","2019-01-12 15:00","2019","01","12","15:00","-7.7","","-11.3","","76","","","","23","","9","","24.1","","97.04","","","","-12","","Mostly Cloudy"
"-105.27","55.15","LA RONGE A","4064155","2019-01-12 16:00","2019","01","12","16:00","-7.2","","-10.9","","75","","","","23","","4","","24.1","","97.09","","","","-9","","NA"
"-105.27","55.15","LA RONGE A","4064155","2019-01-12 17:00","2019","01","12","17:00","-7.9","","-10.9","","79","","","","18","","7","","24.1","","97.09","","","","-12","","NA"
"-105.27","55.15","LA RONGE A","4064155","2019-01-12 18:00","2019","01","12","18:00","-9.1","","-11.0","","86","","","","17","","7","","24.1","","97.17","","","","-13","","Mostly Cloudy"
"-105.27","55.15","LA RONGE A","4064155","2019-01-12 19:00","2019","01","12","19:00","-7.6","","-10.5","","80","","","","23","","6","","24.1","","97.18","","","","-11","","NA"
"-105.27","55.15","LA RONGE A","4064155","2019-01-12 20:00","2019","01","12","20:00","-7.0","","-10.2","","78","","","","26","","8","","24.1","","97.24","","","","-11","","NA"
"-105.27","55.15","LA RONGE A","4064155","2019-01-12 21:00","2019","01","12","21:00","-7.0","","-10.0","","79","","","","27","","9","","24.1","","97.27","","","","-11","","Mostly Cloudy"
"-105.27","55.15","LA RONGE A","4064155","2019-01-12 22:00","2019","01","12","22:00","-7.2","","-9.9","","81","","","","25","","7","","24.1","","97.26","","","","-11","","NA"
"-105.27","55.15","LA RONGE A","4064155","2019-01-12 23:00","2019","01","12","23:00","-8.1","","-10.4","","84","","","","25","","9","","24.1","","97.36","","","","-13","","NA"
"-105.27","55.15","LA RONGE A","4064155","2019-01-13 00:00","2019","01","13","00:00","-7.5","","-9.9","","83","","","","29","","16","","24.1","","97.42","","","","-14","","Cloudy"
"-105.27","55.15","LA RONGE A","4064155","2019-01-13 01:00","2019","01","13","01:00","-7.9","","-10.3","","83","","","","27","","11","","24.1","","97.41","","","","-13","","NA"
"-105.27","55.15","LA RONGE A","4064155","2019-01-13 02:00","2019","01","13","02:00","-10.5","","-11.8","","90","","","","30","","10","","24.1","","97.49","","","","-16","","NA"
"-105.27","55.15","LA RONGE A","4064155","2019-01-13 03:00","2019","01","13","03:00","-12.5","","-13.9","","89","","","","21","","3","","24.1","","97.53","","","","-14","","Mainly Clear"
"-105.27","55.15","LA RONGE A","4064155","2019-01-13 04:00","2019","01","13","04:00","-12.4","","-13.6","","91","","","","26","","6","","24.1","","97.57","","","","-16","","NA"
"-105.27","55.15","LA RONGE A","4064155","2019-01-13 05:00","2019","01","13","05:00","-11.7","","-13.0","","90","","","","25","","6","","24.1","","97.61","","","","-15","","NA"
"-105.27","55.15","LA RONGE A","4064155","2019-01-13 06:00","2019","01","13","06:00","-12.5","","-13.7","","91","","","","29","","7","","24.1","","97.62","","","","-17","","Mainly Clear"
"-105.27","55.15","LA RONGE A","4064155","2019-01-13 07:00","2019","01","13","07:00","-12.3","","-13.6","","91","","","","27","","13","","24.1","","97.65","","","","-19","","NA"
"-105.27","55.15","LA RONGE A","4064155","2019-01-13 08:00","2019","01","13","08:00","-12.5","","-13.7","","91","","","","29","","13","","1.2","","97.68","","","","-19","","Fog"
"-105.27","55.15","LA RONGE A","4064155","2019-01-13 09:00","2019","01","13","09:00","-11.5","","-12.7","","91","","","","29","","10","","9.7","","97.76","","","","-17","","Fog"
"-105.27","55.15","LA RONGE A","4064155","2019-01-13 10:00","2019","01","13","10:00","-10.9","","-12.2","","90","","","","28","","6","","19.3","","97.86","","","","-15","","NA"
"-105.27","55.15","LA RONGE A","4064155","2019-01-13 11:00","2019","01","13","11:00","-10.3","","-11.6","","90","","","","29","","13","","24.1","","97.95","","","","-17","","NA"
"-105.27","55.15","LA RONGE A","4064155","2019-01-13 12:00","2019","01","13","12:00","-9.5","","-10.8","","91","","","","28","","8","","24.1","","97.94","","","","-14","","Cloudy"
"-105.27","55.15","LA RONGE A","4064155","2019-01-13 13:00","2019","01","13","13:00","-9.0","","-10.2","","91","","","","31","","8","","24.1","","97.96","","","","-13","","NA"
"-105.27","55.15","LA RONGE A","4064155","2019-01-13 14:00","2019","01","13","14:00","-8.2","","-9.2","","92","","","","33","","10","","4.8","","97.96","","","","-13","","Fog"
"-105.27","55.15","LA RONGE A","4064155","2019-01-13 15:00","2019","01","13","15:00","-8.4","","-9.5","","92","","","","34","","8","","9.7","","97.97","","","","-13","","Fog"
"-105.27","55.15","LA RONGE A","4064155","2019-01-13 16:00","2019","01","13","16:00","-8.4","","-9.5","","92","","","","33","","7","","19.3","","98.03","","","","-12","","NA"
"-105.27","55.15","LA RONGE A","4064155","2019-01-13 17:00","2019","01","13","17:00","-8.2","","-9.4","","92","","","","33","","7","","24.1","","98.08","","","","-12","","NA"
"-105.27","55.15","LA RONGE A","4064155","2019-01-13 18:00","2019","01","13","18:00","-8.2","","-9.4","","91","","","","33","","3","","24.1","","98.11","","","","-10","","Cloudy"
"-105.27","55.15","LA RONGE A","4064155","2019-01-13 19:00","2019","01","13","19:00","-8.1","","-9.3","","91","","","","36","","7","","24.1","","98.15","","","","-12","","NA"
"-105.27","55.15","LA RONGE A","4064155","2019-01-13 20:00","2019","01","13","20:00","-8.4","","-9.6","","91","","","","4","","13","","24.1","","98.17","","","","-14","","NA"
"-105.27","55.15","LA RONGE A","4064155","2019-01-13 21:00","2019","01","13","21:00","-10.6","","-12.2","","88","","","","4","","20","","24.1","","98.21","","","","-19","","Cloudy"
"-105.27","55.15","LA RONGE A","4064155","2019-01-13 22:00","2019","01","13","22:00","-11.5","","-13.4","","86","","","","5","","16","","24.1","","98.23","","","","-19","","NA"
"-105.27","55.15","LA RONGE A","4064155","2019-01-13 23:00","2019","01","13","23:00","-11.8","","-13.8","","85","","","","5","","12","","24.1","","98.26","","","","-18","","NA"
"-105.27","55.15","LA RONGE A","4064155","2019-01-14 00:00","2019","01","14","00:00","-12.6","","-14.8","","84","","","","4","","11","","24.1","","98.27","","","","-19","","Cloudy"
"-105.27","55.15","LA RONGE A","4064155","2019-01-14 01:00","2019","01","14","01:00","-13.1","","-15.3","","83","","","","4","","11","","24.1","","98.26","","","","-19","","NA"
"-105.27","55.15","LA RONGE A","4064155","2019-01-14 02:00","2019","01","14","02:00","-13.8","","-16.1","","83","","","","4","","16","","24.1","","98.23","","","","-22","","NA"
"-105.27","55.15","LA RONGE A","4064155","2019-01-14 03:00","2019","01","14","03:00","-13.7","","-15.7","","85","","","","5","","9","","24.1","","98.20","","","","-19","","Cloudy"
"-105.27","55.15","LA RONGE A","4064155","2019-01-14 04:00","2019","01","14","04:00","-13.8","","-15.5","","87","","","","6","","5","","24.1","","98.18","","","","-17","","NA"
"-105.27","55.15","LA RONGE A","4064155","2019-01-14 05:00","2019","01","14","05:00","-13.7","","-15.1","","90","","","","9","","5","","24.1","","98.09","","","","-17","","Snow"
"-105.27","55.15","LA RONGE A","4064155","2019-01-14 06:00","2019","01","14","06:00","-13.7","","-15.6","","85","","","","7","","10","","24.1","","98.01","","","","-20","","Snow"
"-105.27","55.15","LA RONGE A","4064155","2019-01-14 07:00","2019","01","14","07:00","-13.5","","-15.7","","84","","","","9","","9","","24.1","","97.90","","","","-19","","NA"
"-105.27","55.15","LA RONGE A","4064155","2019-01-14 08:00","2019","01","14","08:00","-13.1","","-15.3","","84","","","","8","","11","","24.1","","97.80","","","","-19","","NA"
"-105.27","55.15","LA RONGE A","4064155","2019-01-14 09:00","2019","01","14","09:00","-12.4","","-14.7","","83","","","","7","","10","","24.1","","97.70","","","","-18","","Cloudy"
"-105.27","55.15","LA RONGE A","4064155","2019-01-14 10:00","2019","01","14","10:00","-12.5","","-14.6","","84","","","","9","","14","","1.2","","97.59","","","","-20","","Snow"
"-105.27","55.15","LA RONGE A","4064155","2019-01-14 11:00","2019","01","14","11:00","-12.2","","-14.0","","86","","","","9","","11","","1.2","","97.50","","","","-18","","Snow"
"-105.27","55.15","LA RONGE A","4064155","2019-01-14 12:00","2019","01","14","12:00","-11.3","","-13.2","","86","","","","13","","17","","1.2","","97.31","","","","-19","","Snow"
"-105.27","55.15","LA RONGE A","4064155","2019-01-14 13:00","2019","01","14","13:00","-10.9","","-12.7","","87","","","","13","","14","","1.2","","97.09","","","","-18","","Snow"
"-105.27","55.15","LA RONGE A","4064155","2019-01-14 14:00","2019","01","14","14:00","-9.6","","-11.3","","88","","","","13","","17","","1.2","","96.85","","","","-17","","Snow"
"-105.27","55.15","LA RONGE A","4064155","2019-01-14 15:00","2019","01","14","15:00","-8.2","","-9.7","","90","","","","14","","10","","1.6","","96.68","","","","-13","","Snow"
"-105.27","55.15","LA RONGE A","4064155","2019-01-14 16:00","2019","01","14","16:00","-6.8","","-8.0","","91","","","","11","","3","","16.1","","96.57","","","","-8","","Snow"
"-105.27","55.15","LA RONGE A","4064155","2019-01-14 17:00","2019","01","14","17:00","-5.2","","-6.4","","91","","","","19","","6","","24.1","","96.45","","","","-8","","Snow"
"-105.27","55.15","LA RONGE A","4064155","2019-01-14 18:00","2019","01","14","18:00","-5.0","","-6.1","","92","","","","20","","5","","24.1","","96.35","","","","-7","","Snow"
"-105.27","55.15","LA RONGE A","4064155","2019-01-14 19:00","2019","01","14","19:00","-3.8","","-4.6","","94","","","","25","","9","","6.4","","96.28","","","","-8","","Snow"
"-105.27","55.15","LA RONGE A","4064155","2019-01-14 20:00","2019","01","14","20:00","-4.3","","-6.0","","88","","","","30","","37","","6.4","","96.36","","","","-13","","Snow,Blowing Snow"
"-105.27","55.15","LA RONGE A","4064155","2019-01-14 21:00","2019","01","14","21:00","-7.7","","-10.9","","78","","","","32","","32","","16.1","","96.55","","","","-17","","Snow,Blowing Snow"
"-105.27","55.15","LA RONGE A","4064155","2019-01-14 22:00","2019","01","14","22:00","-9.1","","-12.7","","75","","","","33","","29","","24.1","","96.73","","","","-18","","Snow,Blowing Snow"
"-105.27","55.15","LA RONGE A","4064155","2019-01-14 23:00","2019","01","14","23:00","-11.6","","-14.7","","78","","","","34","","17","","9.7","","96.91","","","","-19","","Snow,Blowing Snow"
"-105.27","55.15","LA RONGE A","4064155","2019-01-15 00:00","2019","01","15","00:00","-15.0","","-19.6","","69","","","","35","","25","","19.3","","97.17","","","","-25","","Snow,Blowing Snow"
"-105.27","55.15","LA RONGE A","4064155","2019-01-15 01:00","2019","01","15","01:00","-18.2","","-22.2","","71","","","","33","","26","","19.3","","97.40","","","","-29","","Snow,Blowing Snow"
"-105.27","55.15","LA RONGE A","4064155","2019-01-15 02:00","2019","01","15","02:00","-20.3","","-24.0","","72","","","","35","","21","","24.1","","97.57","","","","-31","","Snow"
"-105.27","55.15","LA RONGE A","4064155","2019-01-15 03:00","2019","01","15","03:00","-21.5","","-25.5","","71","","","","33","","20","","24.1","","97.75","","","","-32","","Mainly Clear"
"-105.27","55.15","LA RONGE A","4064155","2019-01-15 04:00","2019","01","15","04:00","-22.0","","-25.8","","72","","","","33","","18","","24.1","","97.92","","","","-32","","NA"
"-105.27","55.15","LA RONGE A","4064155","2019-01-15 05:00","2019","01","15","05:00","-22.8","","-26.3","","73","","","","36","","10","","16.1","","98.00","","","","-31","","NA"
"-105.27","55.15","LA RONGE A","4064155","2019-01-15 06:00","2019","01","15","06:00","-23.7","","-27.1","","74","","","","33","","9","","24.1","","98.10","","","","-31","","Clear"
"-105.27","55.15","LA RONGE A","4064155","2019-01-15 07:00","2019","01","15","07:00","-24.3","","-27.4","","76","","","","34","","13","","24.1","","98.16","","","","-34","","NA"
"-105.27","55.15","LA RONGE A","4064155","2019-01-15 08:00","2019","01","15","08:00","-24.8","","-27.6","","78","","","","33","","5","","24.1","","98.20","","","","-30","","NA"
"-105.27","55.15","LA RONGE A","4064155","2019-01-15 09:00","2019","01","15","09:00","-26.9","","-29.7","","78","","","","30","","4","","24.1","","98.30","","","","-31","","Clear"
"-105.27","55.15","LA RONGE A","4064155","2019-01-15 10:00","2019","01","15","10:00","-28.3","","-30.9","","79","","","","28","","3","","24.1","","98.41","","","","-32","","NA"
"-105.27","55.15","LA RONGE A","4064155","2019-01-15 11:00","2019","01","15","11:00","-25.3","","-28.1","","78","","","","29","","4","","24.1","","98.47","","","","-29","","NA"
"-105.27","55.15","LA RONGE A","4064155","2019-01-15 12:00","2019","01","15","12:00","-24.6","","-28.4","","72","","","","1","","8","","24.1","","98.49","","","","-32","","Mainly Clear"
"-105.27","55.15","LA RONGE A","4064155","2019-01-15 13:00","2019","01","15","13:00","-24.1","","-28.4","","68","","","","3","","4","","24.1","","98.48","","","","-28","","NA"
"-105.27","55.15","LA RONGE A","4064155","2019-01-15 14:00","2019","01","15","14:00","-23.4","","-28.1","","66","","","","4","","3","","24.1","","98.48","","","","-26","","NA"
"-105.27","55.15","LA RONGE A","4064155","2019-01-15 15:00","2019","01","15","15:00","-23.8","","-28.3","","67","","","","6","","6","","24.1","","98.43","","","","-29","","Mainly Clear"
"-105.27","55.15","LA RONGE A","4064155","2019-01-15 16:00","2019","01","15","16:00","-23.1","","-27.7","","67","","","","17","","6","","24.1","","98.42","","","","-29","","NA"
"-105.27","55.15","LA RONGE A","4064155","2019-01-15 17:00","2019","01","15","17:00","-24.1","","-28.1","","70","","","","10","","3","","24.1","","98.42","","","","-27","","NA"
"-105.27","55.15","LA RONGE A","4064155","2019-01-15 18:00","2019","01","15","18:00","-25.5","","-28.8","","74","","","","18","","4","","24.1","","98.42","","","","-30","","Mainly Clear"
"-105.27","55.15","LA RONGE A","4064155","2019-01-15 19:00","2019","01","15","19:00","-27.4","","-29.9","","80","","","","20","","4","","24.1","","98.39","","","","-32","","NA"
"-105.27","55.15","LA RONGE A","4064155","2019-01-15 20:00","2019","01","15","20:00","-28.6","","-31.2","","78","","","","36","","1","","24.1","","98.37","","","","-30","","NA"
"-105.27","55.15","LA RONGE A","4064155","2019-01-15 21:00","2019","01","15","21:00","-29.4","","-32.0","","78","","","","36","","4","","24.1","","98.35","","","","-34","","Clear"
"-105.27","55.15","LA RONGE A","4064155","2019-01-15 22:00","2019","01","15","22:00","-28.7","","-31.1","","80","","","","36","","2","","24.1","","98.33","","","","-31","","NA"
"-105.27","55.15","LA RONGE A","4064155","2019-01-15 23:00","2019","01","15","23:00","-31.5","","-34.3","","76","","","","36","","3","","24.1","","98.32","","","","-35","","NA"
"-105.27","55.15","LA RONGE A","4064155","2019-01-16 00:00","2019","01","16","00:00","-31.3","","-34.1","","77","","","","3","","4","","24.1","","98.26","","","","-36","","Clear"
"-105.27","55.15","LA RONGE A","4064155","2019-01-16 01:00","2019","01","16","01:00","-31.2","","-34.1","","77","","","","36","","3","","24.1","","98.20","","","","-35","","NA"
"-105.27","55.15","LA RONGE A","4064155","2019-01-16 02:00","2019","01","16","02:00","-32.1","","-35.2","","75","","","","3","","5","","24.1","","98.19","","","","-38","","NA"
"-105.27","55.15","LA RONGE A","4064155","2019-01-16 03:00","2019","01","16","03:00","-32.0","","-35.0","","75","","","","3","","6","","24.1","","98.19","","","","-39","","Clear"
"-105.27","55.15","LA RONGE A","4064155","2019-01-16 04:00","2019","01","16","04:00","-31.6","","-34.7","","75","","","","36","","2","","24.1","","98.14","","","","-34","","NA"
"-105.27","55.15","LA RONGE A","4064155","2019-01-16 05:00","2019","01","16","05:00"
"-105.27","55.15","LA RONGE A","4064155","2019-01-16 06:00","2019","01","16","06:00","-29.8","","-32.8","","75","","","","36","","1","","24.1","","98.12","","","","-31","","Cloudy"
"-105.27","55.15","LA RONGE A","4064155","2019-01-16 07:00","2019","01","16","07:00","-28.7","","-31.7","","76","","","","3","","4","","24.1","","98.06","","","","-33","","NA"
"-105.27","55.15","LA RONGE A","4064155","2019-01-16 08:00","2019","01","16","08:00","-28.1","","-31.1","","76","","","","2","","3","","24.1","","98.07","","","","-31","","Snow"
"-105.27","55.15","LA RONGE A","4064155","2019-01-16 09:00","2019","01","16","09:00","-27.0","","-29.9","","77","","","","36","","2","","24.1","","98.05","","","","-29","","Snow"
"-105.27","55.15","LA RONGE A","4064155","2019-01-16 10:00","2019","01","16","10:00","-26.1","","-29.0","","77","","","","36","","2","","24.1","","98.05","","","","-28","","Snow"
"-105.27","55.15","LA RONGE A","4064155","2019-01-16 11:00","2019","01","16","11:00","-25.0","","-27.9","","78","","","","27","","4","","24.1","","98.08","","","","-29","","Snow"
"-105.27","55.15","LA RONGE A","4064155","2019-01-16 12:00","2019","01","16","12:00","-24.1","","-26.8","","78","","","","36","","2","","6.4","","98.08","","","","-26","","Snow"
"-105.27","55.15","LA RONGE A","4064155","2019-01-16 13:00","2019","01","16","13:00","-22.5","","-25.2","","78","","","","36","","2","","4.8","","98.04","","","","-24","","Snow"
"-105.27","55.15","LA RONGE A","4064155","2019-01-16 14:00","2019","01","16","14:00","-21.7","","-24.6","","77","","","","27","","7","","4.8","","98.02","","","","-28","","Snow"
"-105.27","55.15","LA RONGE A","4064155","2019-01-16 15:00","2019","01","16","15:00","-21.0","","-24.2","","76","","","","28","","7","","6.4","","97.97","","","","-27","","Snow"
"-105.27","55.15","LA RONGE A","4064155","2019-01-16 16:00","2019","01","16","16:00","-20.5","","-23.7","","76","","","","29","","7","","4.8","","98.01","","","","-26","","Snow"
"-105.27","55.15","LA RONGE A","4064155","2019-01-16 17:00","2019","01","16","17:00","-20.7","","-23.8","","76","","","","28","","10","","24.1","","98.03","","","","-28","","Snow"
"-105.27","55.15","LA RONGE A","4064155","2019-01-16 18:00","2019","01","16","18:00","-20.9","","-24.0","","77","","","","26","","8","","24.1","","98.03","","","","-27","","Mostly Cloudy"
"-105.27","55.15","LA RONGE A","4064155","2019-01-16 19:00","2019","01","16","19:00","-21.9","","-24.7","","78","","","","29","","10","","24.1","","98.05","","","","-29","","NA"
"-105.27","55.15","LA RONGE A","4064155","2019-01-16 20:00","2019","01","16","20:00","-22.2","","-24.9","","79","","","","29","","12","","24.1","","98.04","","","","-31","","NA"
"-105.27","55.15","LA RONGE A","4064155","2019-01-16 21:00","2019","01","16","21:00","-22.6","","-25.3","","79","","","","28","","16","","24.1","","98.04","","","","-33","","Mainly Clear"
"-105.27","55.15","LA RONGE A","4064155","2019-01-16 22:00","2019","01","16","22:00","-23.5","","-26.1","","80","","","","28","","11","","24.1","","98.03","","","","-32","","NA"
"-105.27","55.15","LA RONGE A","4064155","2019-01-16 23:00","2019","01","16","23:00","-23.8","","-26.6","","78","","","","28","","16","","24.1","","98.06","","","","-34","","NA"
"-105.27","55.15","LA RONGE A","4064155","2019-01-17 00:00","2019","01","17","00:00","-24.7","","-27.5","","78","","","","26","","9","","24.1","","98.09","","","","-32","","Clear"
"-105.27","55.15","LA RONGE A","4064155","2019-01-17 01:00","2019","01","17","01:00","-25.5","","-28.3","","78","","","","27","","16","","24.1","","98.11","","","","-36","","NA"
"-105.27","55.15","LA RONGE A","4064155","2019-01-17 02:00","2019","01","17","02:00","-26.1","","-29.0","","77","","","","28","","13","","24.1","","98.11","","","","-36","","NA"
"-105.27","55.15","LA RONGE A","4064155","2019-01-17 03:00","2019","01","17","03:00","-26.6","","-29.7","","76","","","","29","","16","","24.1","","98.15","","","","-38","","Clear"
"-105.27","55.15","LA RONGE A","4064155","2019-01-17 04:00","2019","01","17","04:00","-27.1","","-30.2","","75","","","","28","","15","","24.1","","98.13","","","","-38","","NA"
"-105.27","55.15","LA RONGE A","4064155","2019-01-17 05:00","2019","01","17","05:00","-27.9","","-31.0","","76","","","","27","","14","","24.1","","98.15","","","","-38","","NA"
"-105.27","55.15","LA RONGE A","4064155","2019-01-17 06:00","2019","01","17","06:00","-28.2","","-31.3","","76","","","","27","","14","","24.1","","98.10","","","","-39","","Clear"
"-105.27","55.15","LA RONGE A","4064155","2019-01-17 07:00","2019","01","17","07:00","-28.4","","-31.6","","75","","","","26","","18","","24.1","","98.12","","","","-40","","NA"
"-105.27","55.15","LA RONGE A","4064155","2019-01-17 08:00","2019","01","17","08:00","-29.1","","-32.3","","75","","","","27","","16","","24.1","","98.12","","","","-41","","NA"
"-105.27","55.15","LA RONGE A","4064155","2019-01-17 09:00","2019","01","17","09:00","-29.6","","-32.7","","75","","","","27","","11","","24.1","","98.09","","","","-39","","Clear"
"-105.27","55.15","LA RONGE A","4064155","2019-01-17 10:00","2019","01","17","10:00","-29.3","","-32.6","","74","","","","27","","16","","24.1","","98.14","","","","-41","","NA"
"-105.27","55.15","LA RONGE A","4064155","2019-01-17 11:00","2019","01","17","11:00","-28.7","","-32.1","","73","","","","27","","16","","24.1","","98.20","","","","-40","","NA"
"-105.27","55.15","LA RONGE A","4064155","2019-01-17 12:00","2019","01","17","12:00","-27.8","","-31.4","","72","","","","28","","21","","24.1","","98.21","","","","-41","","Clear"
"-105.27","55.15","LA RONGE A","4064155","2019-01-17 13:00","2019","01","17","13:00","-27.1","","-31.0","","70","","","","28","","21","","24.1","","98.16","","","","-40","","NA"
"-105.27","55.15","LA RONGE A","4064155","2019-01-17 14:00","2019","01","17","14:00","-26.2","","-30.5","","68","","","","29","","18","","24.1","","98.13","","","","-38","","NA"
"-105.27","55.15","LA RONGE A","4064155","2019-01-17 15:00","2019","01","17","15:00","-25.9","","-30.3","","67","","","","29","","22","","24.1","","98.12","","","","-38","","Clear"
"-105.27","55.15","LA RONGE A","4064155","2019-01-17 16:00","2019","01","17","16:00","-25.6","","-30.0","","67","","","","28","","20","","24.1","","98.10","","","","-38","","NA"
"-105.27","55.15","LA RONGE A","4064155","2019-01-17 17:00","2019","01","17","17:00","-26.7","","-30.7","","69","","","","30","","13","","24.1","","98.17","","","","-37","","NA"
"-105.27","55.15","LA RONGE A","4064155","2019-01-17 18:00","2019","01","17","18:00","-27.1","","-30.8","","72","","","","29","","13","","24.1","","98.20","","","","-37","","Clear"
"-105.27","55.15","LA RONGE A","4064155","2019-01-17 19:00","2019","01","17","19:00","-27.6","","-30.9","","74","","","","29","","15","","24.1","","98.16","","","","-38","","NA"
"-105.27","55.15","LA RONGE A","4064155","2019-01-17 20:00","2019","01","17","20:00","-28.7","","-31.8","","75","","","","26","","5","","24.1","","98.17","","","","-34","","NA"
"-105.27","55.15","LA RONGE A","4064155","2019-01-17 21:00","2019","01","17","21:00","-29.4","","-32.1","","78","","","","29","","10","","24.1","","98.19","","","","-38","","Clear"
"-105.27","55.15","LA RONGE A","4064155","2019-01-17 22:00","2019","01","17","22:00","-30.6","","-33.4","","77","","","","27","","4","","24.1","","98.22","","","","-35","","NA"
"-105.27","55.15","LA RONGE A","4064155","2019-01-17 23:00","2019","01","17","23:00","-30.7","","-33.4","","78","","","","31","","7","","24.1","","98.26","","","","-38","","NA"
"-105.27","55.15","LA RONGE A","4064155","2019-01-18 00:00","2019","01","18","00:00","-30.8","","-33.6","","77","","","","29","","8","","24.1","","98.28","","","","-39","","Clear"
"-105.27","55.15","LA RONGE A","4064155","2019-01-18 01:00","2019","01","18","01:00","-32.9","","-35.8","","76","","","","29","","3","","24.1","","98.31","","","","-37","","NA"
"-105.27","55.15","LA RONGE A","4064155","2019-01-18 02:00","2019","01","18","02:00","-35.2","","-38.4","","73","","","","36","","3","","24.1","","98.34","","","","-39","","NA"
"-105.27","55.15","LA RONGE A","4064155","2019-01-18 03:00","2019","01","18","03:00","-35.5","","-38.7","","73","","","","23","","3","","24.1","","98.38","","","","-39","","Clear"
"-105.27","55.15","LA RONGE A","4064155","2019-01-18 04:00","2019","01","18","04:00","-34.6","","-38.0","","73","","","","21","","3","","24.1","","98.41","","","","-38","","NA"
"-105.27","55.15","LA RONGE A","4064155","2019-01-18 05:00","2019","01","18","05:00","-34.0","","-37.2","","74","","","","24","","5","","24.1","","98.41","","","","-40","","NA"
"-105.27","55.15","LA RONGE A","4064155","2019-01-18 06:00","2019","01","18","06:00","-35.2","","-38.5","","73","","","","22","","3","","24.1","","98.42","","","","-39","","Clear"
"-105.27","55.15","LA RONGE A","4064155","2019-01-18 07:00","2019","01","18","07:00","-34.4","","-37.7","","73","","","","36","","2","","24.1","","98.43","","","","-37","","NA"
"-105.27","55.15","LA RONGE A","4064155","2019-01-18 08:00","2019","01","18","08:00","-33.8","","-37.1","","73","","","","25","","4","","24.1","","98.42","","","","-39","","Ice Crystals"
"-105.27","55.15","LA RONGE A","4064155","2019-01-18 09:00","2019","01","18","09:00","-33.9","","-37.2","","73","","","","36","","1","","16.1","","98.43","","","","-35","","Ice Crystals"
"-105.27","55.15","LA RONGE A","4064155","2019-01-18 10:00","2019","01","18","10:00","-31.9","","-35.2","","74","","","","24","","4","","12.9","","98.47","","","","-37","","Ice Crystals"
"-105.27","55.15","LA RONGE A","4064155","2019-01-18 11:00","2019","01","18","11:00","-29.5","","-32.7","","75","","","","27","","12","","16.1","","98.49","","","","-40","","Ice Crystals"
"-105.27","55.15","LA RONGE A","4064155","2019-01-18 12:00","2019","01","18","12:00","-28.3","","-31.3","","76","","","","27","","10","","19.3","","98.53","","","","-37","","Ice Crystals"
"-105.27","55.15","LA RONGE A","4064155","2019-01-18 13:00","2019","01","18","13:00","-26.4","","-29.3","","77","","","","28","","14","","24.1","","98.52","","","","-37","","Ice Crystals"
"-105.27","55.15","LA RONGE A","4064155","2019-01-18 14:00","2019","01","18","14:00","-25.3","","-28.2","","77","","","","29","","10","","24.1","","98.51","","","","-34","","NA"
"-105.27","55.15","LA RONGE A","4064155","2019-01-18 15:00","2019","01","18","15:00","-24.5","","-27.3","","78","","","","29","","8","","24.1","","98.50","","","","-32","","Mainly Clear"
"-105.27","55.15","LA RONGE A","4064155","2019-01-18 16:00","2019","01","18","16:00","-24.9","","-27.8","","78","","","","29","","8","","24.1","","98.52","","","","-32","","NA"
"-105.27","55.15","LA RONGE A","4064155","2019-01-18 17:00","2019","01","18","17:00","-24.8","","-27.5","","79","","","","29","","9","","24.1","","98.55","","","","-32","","NA"
"-105.27","55.15","LA RONGE A","4064155","2019-01-18 18:00","2019","01","18","18:00","-27.3","","-30.1","","77","","","","28","","7","","24.1","","98.52","","","","-34","","Mainly Clear"
"-105.27","55.15","LA RONGE A","4064155","2019-01-18 19:00","2019","01","18","19:00","-28.2","","-31.0","","78","","","","31","","4","","24.1","","98.53","","","","-33","","NA"
"-105.27","55.15","LA RONGE A","4064155","2019-01-18 20:00","2019","01","18","20:00","-31.0","","-34.1","","75","","","","28","","6","","24.1","","98.53","","","","-38","","NA"
"-105.27","55.15","LA RONGE A","4064155","2019-01-18 21:00","2019","01","18","21:00","-32.8","","-36.0","","74","","","","25","","6","","24.1","","98.54","","","","-40","","Clear"
"-105.27","55.15","LA RONGE A","4064155","2019-01-18 22:00","2019","01","18","22:00","-34.2","","-37.5","","73","","","","27","","7","","24.1","","98.53","","","","-42","","NA"
"-105.27","55.15","LA RONGE A","4064155","2019-01-18 23:00","2019","01","18","23:00","-34.1","","-37.4","","73","","","","36","","3","","24.1","","98.62","","","","-38","","NA"
"-105.27","55.15","LA RONGE A","4064155","2019-01-19 00:00","2019","01","19","00:00","-34.1","","-37.4","","73","","","","36","","3","","24.1","","98.62","","","","-38","","Clear"
"-105.27","55.15","LA RONGE A","4064155","2019-01-19 01:00","2019","01","19","01:00","-34.3","","-37.7","","73","","","","0","","1","","24.1","","98.62","","","","-36","","NA"
"-105.27","55.15","LA RONGE A","4064155","2019-01-19 02:00","2019","01","19","02:00","-35.6","","-39.0","","72","","","","23","","3","","24.1","","98.63","","","","-39","","NA"
"-105.27","55.15","LA RONGE A","4064155","2019-01-19 03:00","2019","01","19","03:00","-36.2","","-39.7","","71","","","","36","","2","","24.1","","98.65","","","","-39","","Mainly Clear"
"-105.27","55.15","LA RONGE A","4064155","2019-01-19 04:00","2019","01","19","04:00","-36.6","","-40.1","","71","","","","0","","1","","24.1","","98.66","","","","-38","","NA"
"-105.27","55.15","LA RONGE A","4064155","2019-01-19 05:00","2019","01","19","05:00","-36.7","","-40.2","","71","","","","36","","2","","24.1","","98.68","","","","-39","","NA"
"-105.27","55.15","LA RONGE A","4064155","2019-01-19 06:00","2019","01","19","06:00","-37.8","","-41.4","","70","","","","5","","5","","22.5","","98.69","","","","-44","","Mainly Clear"
"-105.27","55.15","LA RONGE A","4064155","2019-01-19 07:00","2019","01","19","07:00","-38.1","","-41.7","","70","","","","1","","4","","24.1","","98.69","","","","-43","","NA"
"-105.27","55.15","LA RONGE A","4064155","2019-01-19 08:00","2019","01","19","08:00","-37.7","","-41.3","","70","","","","4","","14","","24.1","","98.63","","","","-50","","NA"
"-105.27","55.15","LA RONGE A","4064155","2019-01-19 09:00","2019","01","19","09:00","-37.7","","-41.3","","70","","","","2","","4","","24.1","","98.60","","","","-43","","Mainly Clear"
"-105.27","55.15","LA RONGE A","4064155","2019-01-19 10:00","2019","01","19","10:00","-37.3","","-40.8","","70","","","","36","","2","","24.1","","98.63","","","","-40","","NA"
"-105.27","55.15","LA RONGE A","4064155","2019-01-19 11:00","2019","01","19","11:00","-35.0","","-38.4","","72","","","","4","","10","","24.1","","98.61","","","","-45","","NA"
"-105.27","55.15","LA RONGE A","4064155","2019-01-19 12:00","2019","01","19","12:00","-33.6","","-37.0","","72","","","","4","","11","","24.1","","98.58","","","","-44","","Mainly Clear"
"-105.27","55.15","LA RONGE A","4064155","2019-01-19 13:00","2019","01","19","13:00","-31.9","","-35.2","","73","","","","3","","6","","24.1","","98.54","","","","-39","","NA"
"-105.27","55.15","LA RONGE A","4064155","2019-01-19 14:00","2019","01","19","14:00","-31.2","","-34.5","","74","","","","4","","13","","24.1","","98.52","","","","-42","","NA"
"-105.27","55.15","LA RONGE A","4064155","2019-01-19 15:00","2019","01","19","15:00","-30.7","","-33.9","","74","","","","4","","14","","24.1","","98.41","","","","-42","","Mainly Clear"
"-105.27","55.15","LA RONGE A","4064155","2019-01-19 16:00","2019","01","19","16:00","-30.3","","-33.5","","74","","","","5","","12","","24.1","","98.36","","","","-41","","NA"
"-105.27","55.15","LA RONGE A","4064155","2019-01-19 17:00","2019","01","19","17:00","-30.6","","-33.8","","74","","","","5","","11","","24.1","","98.35","","","","-40","","NA"
"-105.27","55.15","LA RONGE A","4064155","2019-01-19 18:00","2019","01","19","18:00","-30.7","","-33.9","","74","","","","5","","13","","24.1","","98.28","","","","-41","","Mainly Clear"
"-105.27","55.15","LA RONGE A","4064155","2019-01-19 19:00","2019","01","19","19:00","-30.4","","-33.6","","74","","","","5","","8","","24.1","","98.26","","","","-38","","NA"
"-105.27","55.15","LA RONGE A","4064155","2019-01-19 20:00","2019","01","19","20:00","-31.7","","-34.9","","74","","","","4","","9","","24.1","","98.25","","","","-41","","NA"
"-105.27","55.15","LA RONGE A","4064155","2019-01-19 21:00","2019","01","19","21:00","-33.0","","-36.4","","73","","","","4","","13","","24.1","","98.20","","","","-44","","Clear"
"-105.27","55.15","LA RONGE A","4064155","2019-01-19 22:00","2019","01","19","22:00","-33.3","","-36.6","","73","","","","4","","12","","24.1","","98.19","","","","-44","","NA"
"-105.27","55.15","LA RONGE A","4064155","2019-01-19 23:00","2019","01","19","23:00","-33.9","","-37.3","","72","","","","5","","9","","24.1","","98.19","","","","-43","","NA"
"-105.27","55.15","LA RONGE A","4064155","2019-01-20 00:00","2019","01","20","00:00","-33.9","","-37.3","","72","","","","4","","9","","24.1","","98.16","","","","-43","","Clear"
"-105.27","55.15","LA RONGE A","4064155","2019-01-20 01:00","2019","01","20","01:00","-33.6","","-37.0","","72","","","","4","","10","","24.1","","98.10","","","","-43","","NA"
"-105.27","55.15","LA RONGE A","4064155","2019-01-20 02:00","2019","01","20","02:00","-33.8","","-37.2","","72","","","","4","","9","","24.1","","98.10","","","","-43","","NA"
"-105.27","55.15","LA RONGE A","4064155","2019-01-20 03:00","2019","01","20","03:00","-33.4","","-36.8","","73","","","","5","","10","","24.1","","98.07","","","","-43","","Mostly Cloudy"
"-105.27","55.15","LA RONGE A","4064155","2019-01-20 04:00","2019","01","20","04:00","-33.3","","-36.6","","73","","","","4","","8","","24.1","","98.02","","","","-42","","NA"
"-105.27","55.15","LA RONGE A","4064155","2019-01-20 05:00","2019","01","20","05:00","-33.5","","-36.8","","72","","","","5","","10","","24.1","","97.90","","","","-43","","NA"
"-105.27","55.15","LA RONGE A","4064155","2019-01-20 06:00","2019","01","20","06:00","-32.1","","-35.3","","73","","","","4","","7","","24.1","","97.82","","","","-40","","Mostly Cloudy"
"-105.27","55.15","LA RONGE A","4064155","2019-01-20 07:00","2019","01","20","07:00","-31.4","","-34.6","","74","","","","8","","8","","24.1","","97.73","","","","-40","","NA"
"-105.27","55.15","LA RONGE A","4064155","2019-01-20 08:00","2019","01","20","08:00","-29.3","","-32.4","","75","","","","11","","10","","24.1","","97.61","","","","-38","","NA"
"-105.27","55.15","LA RONGE A","4064155","2019-01-20 09:00","2019","01","20","09:00","-27.5","","-30.5","","76","","","","14","","10","","9.7","","97.55","","","","-36","","Snow"
"-105.27","55.15","LA RONGE A","4064155","2019-01-20 10:00","2019","01","20","10:00","-26.4","","-29.3","","77","","","","13","","13","","2.4","","97.44","","","","-36","","Snow"
"-105.27","55.15","LA RONGE A","4064155","2019-01-20 11:00","2019","01","20","11:00","-25.0","","-27.8","","78","","","","11","","13","","9.7","","97.32","","","","-34","","Snow"
"-105.27","55.15","LA RONGE A","4064155","2019-01-20 12:00","2019","01","20","12:00","-22.9","","-25.6","","79","","","","13","","12","","9.7","","97.15","","","","-32","","Snow"
"-105.27","55.15","LA RONGE A","4064155","2019-01-20 13:00","2019","01","20","13:00","-20.2","","-22.6","","81","","","","16","","14","","24.1","","97.02","","","","-29","","Snow"
"-105.27","55.15","LA RONGE A","4064155","2019-01-20 14:00","2019","01","20","14:00","-18.9","","-21.2","","82","","","","17","","21","","24.1","","96.89","","","","-29","","Snow"
"-105.27","55.15","LA RONGE A","4064155","2019-01-20 15:00","2019","01","20","15:00","-18.3","","-20.6","","82","","","","16","","20","","9.7","","96.76","","","","-28","","Snow"
"-105.27","55.15","LA RONGE A","4064155","2019-01-20 16:00","2019","01","20","16:00","-17.6","","-20.3","","80","","","","16","","21","","12.9","","96.63","","","","-28","","Snow"
"-105.27","55.15","LA RONGE A","4064155","2019-01-20 17:00","2019","01","20","17:00","-16.9","","-20.4","","74","","","","18","","18","","19.3","","96.58","","","","-26","","Snow,Blowing Snow"
"-105.27","55.15","LA RONGE A","4064155","2019-01-20 18:00","2019","01","20","18:00","-16.8","","-20.4","","74","","","","19","","19","","19.3","","96.51","","","","-26","","Snow,Blowing Snow"
"-105.27","55.15","LA RONGE A","4064155","2019-01-20 19:00","2019","01","20","19:00","-16.5","","-19.6","","78","","","","17","","14","","19.3","","96.43","","","","-24","","Snow"
"-105.27","55.15","LA RONGE A","4064155","2019-01-20 20:00","2019","01","20","20:00","-16.0","","-18.8","","79","","","","18","","14","","12.9","","96.33","","","","-24","","Snow"
"-105.27","55.15","LA RONGE A","4064155","2019-01-20 21:00","2019","01","20","21:00","-15.8","","-18.6","","79","","","","19","","16","","24.1","","96.27","","","","-24","","Snow"
"-105.27","55.15","LA RONGE A","4064155","2019-01-20 22:00","2019","01","20","22:00","-15.4","","-18.3","","79","","","","20","","13","","19.3","","96.22","","","","-23","","Snow"
"-105.27","55.15","LA RONGE A","4064155","2019-01-20 23:00","2019","01","20","23:00","-14.8","","-17.7","","79","","","","21","","10","","19.3","","96.23","","","","-21","","Snow"
"-105.27","55.15","LA RONGE A","4064155","2019-01-21 00:00","2019","01","21","00:00","-14.4","","-16.8","","82","","","","20","","8","","6.4","","96.21","","","","-20","","Snow"
"-105.27","55.15","LA RONGE A","4064155","2019-01-21 01:00","2019","01","21","01:00","-14.1","","-16.3","","84","","","","19","","6","","4.8","","96.23","","","","-18","","Snow"
"-105.27","55.15","LA RONGE A","4064155","2019-01-21 02:00","2019","01","21","02:00","-13.5","","-15.4","","85","","","","20","","7","","16.1","","96.22","","","","-18","","Snow"
"-105.27","55.15","LA RONGE A","4064155","2019-01-21 03:00","2019","01","21","03:00","-13.4","","-15.4","","85","","","","19","","7","","24.1","","96.21","","","","-18","","Snow"
"-105.27","55.15","LA RONGE A","4064155","2019-01-21 04:00","2019","01","21","04:00","-12.5","","-14.3","","86","","","","23","","7","","24.1","","96.24","","","","-17","","Snow"
"-105.27","55.15","LA RONGE A","4064155","2019-01-21 05:00","2019","01","21","05:00","-11.9","","-14.0","","84","","","","26","","9","","24.1","","96.28","","","","-17","","Snow"
"-105.27","55.15","LA RONGE A","4064155","2019-01-21 06:00","2019","01","21","06:00","-12.4","","-14.4","","85","","","","27","","13","","24.1","","96.34","","","","-19","","Snow"
"-105.27","55.15","LA RONGE A","4064155","2019-01-21 07:00","2019","01","21","07:00","-14.5","","-16.6","","84","","","","29","","15","","24.1","","96.43","","","","-22","","NA"
"-105.27","55.15","LA RONGE A","4064155","2019-01-21 08:00","2019","01","21","08:00","-15.4","","-17.5","","84","","","","27","","11","","24.1","","96.47","","","","-22","","NA"
"-105.27","55.15","LA RONGE A","4064155","2019-01-21 09:00","2019","01","21","09:00","-15.9","","-17.8","","86","","","","28","","12","","24.1","","96.52","","","","-23","","Mostly Cloudy"
"-105.27","55.15","LA RONGE A","4064155","2019-01-21 10:00","2019","01","21","10:00","-14.4","","-16.8","","82","","","","29","","12","","4.8","","96.59","","","","-21","","Snow"
"-105.27","55.15","LA RONGE A","4064155","2019-01-21 11:00","2019","01","21","11:00","-13.8","","-16.6","","80","","","","29","","14","","6.4","","96.69","","","","-21","","Snow"
"-105.27","55.15","LA RONGE A","4064155","2019-01-21 12:00","2019","01","21","12:00","-13.8","","-16.8","","78","","","","29","","22","","9.7","","96.73","","","","-23","","Snow"
"-105.27","55.15","LA RONGE A","4064155","2019-01-21 13:00","2019","01","21","13:00","-13.4","","-16.8","","76","","","","28","","21","","24.1","","96.76","","","","-22","","NA"
"-105.27","55.15","LA RONGE A","4064155","2019-01-21 14:00","2019","01","21","14:00","-13.3","","-17.1","","74","","","","28","","21","","24.1","","96.82","","","","-22","","NA"
"-105.27","55.15","LA RONGE A","4064155","2019-01-21 15:00","2019","01","21","15:00","-13.5","","-17.0","","75","","","","28","","20","","24.1","","96.88","","","","-22","","Snow"
"-105.27","55.15","LA RONGE A","4064155","2019-01-21 16:00","2019","01","21","16:00","-13.8","","-17.8","","72","","","","30","","21","","24.1","","96.96","","","","-23","","Snow"
"-105.27","55.15","LA RONGE A","4064155","2019-01-21 17:00","2019","01","21","17:00","-13.7","","-17.2","","75","","","","28","","16","","24.1","","97.04","","","","-22","","Snow"
"-105.27","55.15","LA RONGE A","4064155","2019-01-21 18:00","2019","01","21","18:00","-14.0","","-17.6","","75","","","","29","","12","","24.1","","97.11","","","","-21","","Snow"
"-105.27","55.15","LA RONGE A","4064155","2019-01-21 19:00","2019","01","21","19:00","-13.8","","-17.0","","77","","","","29","","12","","24.1","","97.15","","","","-21","","Snow"
"-105.27","55.15","LA RONGE A","4064155","2019-01-21 20:00","2019","01","21","20:00","-13.6","","-17.3","","74","","","","30","","18","","24.1","","97.23","","","","-22","","Snow"
"-105.27","55.15","LA RONGE A","4064155","2019-01-21 21:00","2019","01","21","21:00","-14.1","","-17.8","","74","","","","29","","13","","24.1","","97.25","","","","-21","","Snow"
"-105.27","55.15","LA RONGE A","4064155","2019-01-21 22:00","2019","01","21","22:00","-15.5","","-18.8","","77","","","","29","","13","","24.1","","97.29","","","","-23","","NA"
"-105.27","55.15","LA RONGE A","4064155","2019-01-21 23:00","2019","01","21","23:00","-14.8","","-18.5","","74","","","","30","","15","","24.1","","97.31","","","","-23","","NA"
"-105.27","55.15","LA RONGE A","4064155","2019-01-22 00:00","2019","01","22","00:00","-14.7","","-18.5","","73","","","","28","","12","","24.1","","97.35","","","","-22","","Cloudy"
"-105.27","55.15","LA RONGE A","4064155","2019-01-22 01:00","2019","01","22","01:00","-14.8","","-18.6","","73","","","","29","","14","","24.1","","97.37","","","","-22","","NA"
"-105.27","55.15","LA RONGE A","4064155","2019-01-22 02:00","2019","01","22","02:00","-15.1","","-18.9","","73","","","","29","","9","","24.1","","97.36","","","","-21","","NA"
"-105.27","55.15","LA RONGE A","4064155","2019-01-22 03:00","2019","01","22","03:00","-16.5","","-19.7","","77","","","","24","","5","","24.1","","97.38","","","","-20","","Mostly Cloudy"
"-105.27","55.15","LA RONGE A","4064155","2019-01-22 04:00","2019","01","22","04:00","-17.8","","-19.8","","84","","","","23","","8","","24.1","","97.34","","","","-24","","NA"
"-105.27","55.15","LA RONGE A","4064155","2019-01-22 05:00","2019","01","22","05:00","-18.8","","-20.9","","84","","","","24","","7","","24.1","","97.30","","","","-24","","NA"
"-105.27","55.15","LA RONGE A","4064155","2019-01-22 06:00","2019","01","22","06:00","-23.3","","-25.1","","85","","","","25","","3","","24.1","","97.25","","","","-26","","Clear"
"-105.27","55.15","LA RONGE A","4064155","2019-01-22 07:00","2019","01","22","07:00","-23.8","","-25.9","","83","","","","36","","2","","24.1","","97.23","","","","-26","","NA"
"-105.27","55.15","LA RONGE A","4064155","2019-01-22 08:00","2019","01","22","08:00","-23.9","","-26.1","","83","","","","14","","3","","24.1","","97.15","","","","-27","","NA"
"-105.27","55.15","LA RONGE A","4064155","2019-01-22 09:00","2019","01","22","09:00","-21.2","","-23.5","","82","","","","36","","2","","24.1","","97.13","","","","-23","","Cloudy"
"-105.27","55.15","LA RONGE A","4064155","2019-01-22 10:00","2019","01","22","10:00","-18.5","","-20.7","","83","","","","11","","5","","24.1","","97.07","","","","-23","","NA"
"-105.27","55.15","LA RONGE A","4064155","2019-01-22 11:00","2019","01","22","11:00","-18.1","","-20.4","","82","","","","10","","8","","1.6","","97.07","","","","-24","","Snow"
"-105.27","55.15","LA RONGE A","4064155","2019-01-22 12:00","2019","01","22","12:00","-17.4","","-19.8","","82","","","","10","","10","","4.8","","96.98","","","","-24","","Snow"
"-105.27","55.15","LA RONGE A","4064155","2019-01-22 13:00","2019","01","22","13:00","-16.6","","-19.2","","81","","","","11","","7","","9.7","","96.88","","","","-22","","Snow"
"-105.27","55.15","LA RONGE A","4064155","2019-01-22 14:00","2019","01","22","14:00","-15.9","","-18.4","","81","","","","12","","7","","24.1","","96.76","","","","-21","","Snow"
"-105.27","55.15","LA RONGE A","4064155","2019-01-22 15:00","2019","01","22","15:00","-15.4","","-18.1","","80","","","","10","","6","","24.1","","96.71","","","","-20","","Snow"
"-105.27","55.15","LA RONGE A","4064155","2019-01-22 16:00","2019","01","22","16:00","-16.2","","-18.6","","81","","","","5","","15","","4.8","","96.66","","","","-24","","Snow"
"-105.27","55.15","LA RONGE A","4064155","2019-01-22 17:00","2019","01","22","17:00","-15.8","","-18.1","","83","","","","5","","10","","2.4","","96.66","","","","-22","","Snow"
"-105.27","55.15","LA RONGE A","4064155","2019-01-22 18:00","2019","01","22","18:00","-15.3","","-17.4","","84","","","","5","","12","","4.8","","96.66","","","","-22","","Snow"
"-105.27","55.15","LA RONGE A","4064155","2019-01-22 19:00","2019","01","22","19:00","-15.2","","-17.2","","85","","","","6","","11","","3.2","","96.66","","","","-22","","Snow"
"-105.27","55.15","LA RONGE A","4064155","2019-01-22 20:00","2019","01","22","20:00","-15.1","","-17.1","","85","","","","5","","9","","8.1","","96.64","","","","-21","","Snow"
"-105.27","55.15","LA RONGE A","4064155","2019-01-22 21:00","2019","01","22","21:00","-15.0","","-17.1","","84","","","","5","","5","","6.4","","96.62","","","","-19","","Snow"
"-105.27","55.15","LA RONGE A","4064155","2019-01-22 22:00","2019","01","22","22:00","-15.2","","-17.2","","85","","","","6","","9","","9.7","","96.60","","","","-21","","Snow"
"-105.27","55.15","LA RONGE A","4064155","2019-01-22 23:00","2019","01","22","23:00","-15.1","","-17.1","","85","","","","4","","12","","4.8","","96.63","","","","-22","","Snow"
"-105.27","55.15","LA RONGE A","4064155","2019-01-23 00:00","2019","01","23","00:00","-15.2","","-17.3","","84","","","","3","","16","","4.8","","96.66","","","","-23","","Snow"
"-105.27","55.15","LA RONGE A","4064155","2019-01-23 01:00","2019","01","23","01:00","-15.7","","-17.9","","84","","","","3","","12","","4.8","","96.69","","","","-23","","Snow"
"-105.27","55.15","LA RONGE A","4064155","2019-01-23 02:00","2019","01","23","02:00","-17.0","","-19.0","","85","","","","2","","10","","12.9","","96.74","","","","-24","","Snow"
"-105.27","55.15","LA RONGE A","4064155","2019-01-23 03:00","2019","01","23","03:00","-15.7","","-18.1","","83","","","","36","","10","","9.7","","96.85","","","","-22","","Snow"
"-105.27","55.15","LA RONGE A","4064155","2019-01-23 04:00","2019","01","23","04:00","-15.6","","-18.0","","82","","","","35","","10","","16.1","","96.92","","","","-22","","NA"
"-105.27","55.15","LA RONGE A","4064155","2019-01-23 05:00","2019","01","23","05:00","-15.9","","-18.2","","83","","","","34","","11","","9.7","","96.97","","","","-23","","Snow"
"-105.27","55.15","LA RONGE A","4064155","2019-01-23 06:00","2019","01","23","06:00","-17.2","","-19.9","","80","","","","32","","9","","9.7","","97.04","","","","-23","","Snow"
"-105.27","55.15","LA RONGE A","4064155","2019-01-23 07:00","2019","01","23","07:00","-17.7","","-20.1","","82","","","","33","","9","","9.7","","97.12","","","","-24","","Snow"
"-105.27","55.15","LA RONGE A","4064155","2019-01-23 08:00","2019","01","23","08:00","-18.1","","-21.5","","75","","","","32","","25","","16.1","","97.22","","","","-29","","Snow"
"-105.27","55.15","LA RONGE A","4064155","2019-01-23 09:00","2019","01","23","09:00","-20.0","","-23.8","","72","","","","32","","17","","24.1","","97.35","","","","-30","","Mainly Clear"
"-105.27","55.15","LA RONGE A","4064155","2019-01-23 10:00","2019","01","23","10:00","-20.9","","-25.3","","69","","","","32","","22","","24.1","","97.46","","","","-32","","Blowing Snow"
"-105.27","55.15","LA RONGE A","4064155","2019-01-23 11:00","2019","01","23","11:00","-21.8","","-26.5","","66","","","","32","","32","","24.1","","97.58","","","","-35","","Blowing Snow"
"-105.27","55.15","LA RONGE A","4064155","2019-01-23 12:00","2019","01","23","12:00","-22.5","","-27.4","","65","","","","31","","26","","24.1","","97.71","","","","-35","","Blowing Snow"
"-105.27","55.15","LA RONGE A","4064155","2019-01-23 13:00","2019","01","23","13:00","-22.9","","-27.9","","64","","","","30","","17","","24.1","","97.81","","","","-33","","Blowing Snow"
"-105.27","55.15","LA RONGE A","4064155","2019-01-23 14:00","2019","01","23","14:00","-22.8","","-27.6","","65","","","","31","","26","","24.1","","97.86","","","","-35","","Blowing Snow"
"-105.27","55.15","LA RONGE A","4064155","2019-01-23 15:00","2019","01","23","15:00","-22.9","","-27.7","","66","","","","29","","17","","24.1","","97.92","","","","-33","","Blowing Snow"
"-105.27","55.15","LA RONGE A","4064155","2019-01-23 16:00","2019","01","23","16:00","-23.5","","-27.8","","68","","","","29","","22","","24.1","","97.99","","","","-35","","Blowing Snow"
"-105.27","55.15","LA RONGE A","4064155","2019-01-23 17:00","2019","01","23","17:00","-24.0","","-28.2","","69","","","","29","","28","","24.1","","98.08","","","","-37","","NA"
"-105.27","55.15","LA RONGE A","4064155","2019-01-23 18:00","2019","01","23","18:00","-24.6","","-28.8","","69","","","","28","","22","","24.1","","98.15","","","","-37","","Clear"
"-105.27","55.15","LA RONGE A","4064155","2019-01-23 19:00","2019","01","23","19:00","-25.8","","-29.4","","72","","","","29","","18","","24.1","","98.21","","","","-37","","NA"
"-105.27","55.15","LA RONGE A","4064155","2019-01-23 20:00","2019","01","23","20:00","-26.1","","-29.9","","70","","","","29","","20","","24.1","","98.26","","","","-38","","NA"
"-105.27","55.15","LA RONGE A","4064155","2019-01-23 21:00","2019","01","23","21:00","-26.5","","-30.4","","70","","","","29","","16","","24.1","","98.24","","","","-37","","Clear"
"-105.27","55.15","LA RONGE A","4064155","2019-01-23 22:00","2019","01","23","22:00","-27.0","","-30.6","","72","","","","27","","9","","24.1","","98.22","","","","-35","","NA"
"-105.27","55.15","LA RONGE A","4064155","2019-01-23 23:00","2019","01","23","23:00","-27.8","","-31.2","","74","","","","28","","11","","24.1","","98.23","","","","-37","","NA"
"-105.27","55.15","LA RONGE A","4064155","2019-01-24 00:00","2019","01","24","00:00","-27.9","","-31.2","","74","","","","27","","11","","24.1","","98.22","","","","-37","","Clear"
"-105.27","55.15","LA RONGE A","4064155","2019-01-24 01:00","2019","01","24","01:00","-28.5","","-31.7","","75","","","","27","","14","","24.1","","98.20","","","","-39","","NA"
"-105.27","55.15","LA RONGE A","4064155","2019-01-24 02:00","2019","01","24","02:00","-29.2","","-32.4","","74","","","","28","","13","","24.1","","98.20","","","","-40","","NA"
"-105.27","55.15","LA RONGE A","4064155","2019-01-24 03:00","2019","01","24","03:00","-29.7","","-32.6","","77","","","","27","","8","","24.1","","98.13","","","","-38","","Clear"
"-105.27","55.15","LA RONGE A","4064155","2019-01-24 04:00","2019","01","24","04:00","-30.7","","-33.5","","77","","","","22","","5","","24.1","","98.06","","","","-36","","NA"
"-105.27","55.15","LA RONGE A","4064155","2019-01-24 05:00","2019","01","24","05:00","-31.4","","-34.1","","78","","","","18","","4","","24.1","","97.96","","","","-36","","NA"
"-105.27","55.15","LA RONGE A","4064155","2019-01-24 06:00","2019","01","24","06:00","-33.1","","-35.8","","78","","","","22","","3","","24.1","","97.90","","","","-37","","Clear"
"-105.27","55.15","LA RONGE A","4064155","2019-01-24 07:00","2019","01","24","07:00","-32.9","","-35.9","","75","","","","36","","2","","24.1","","97.84","","","","-35","","NA"
"-105.27","55.15","LA RONGE A","4064155","2019-01-24 08:00","2019","01","24","08:00","-34.7","","-37.9","","74","","","","36","","2","","24.1","","97.72","","","","-37","","NA"
"-105.27","55.15","LA RONGE A","4064155","2019-01-24 09:00","2019","01","24","09:00","-34.0","","-37.1","","75","","","","18","","5","","24.1","","97.61","","","","-40","","Clear"
"-105.27","55.15","LA RONGE A","4064155","2019-01-24 10:00","2019","01","24","10:00","-34.5","","-37.7","","74","","","","5","","5","","24.1","","97.52","","","","-41","","NA"
"-105.27","55.15","LA RONGE A","4064155","2019-01-24 11:00","2019","01","24","11:00","-32.0","","-35.1","","75","","","","7","","3","","24.1","","97.47","","","","-36","","NA"
"-105.27","55.15","LA RONGE A","4064155","2019-01-24 12:00","2019","01","24","12:00","-28.4","","-31.6","","75","","","","15","","7","","24.1","","97.37","","","","-35","","Clear"
"-105.27","55.15","LA RONGE A","4064155","2019-01-24 13:00","2019","01","24","13:00","-28.7","","-32.3","","72","","","","3","","7","","24.1","","97.24","","","","-36","","NA"
"-105.27","55.15","LA RONGE A","4064155","2019-01-24 14:00","2019","01","24","14:00","-28.4","","-31.9","","72","","","","4","","14","","24.1","","97.23","","","","-39","","NA"
"-105.27","55.15","LA RONGE A","4064155","2019-01-24 15:00","2019","01","24","15:00","-26.8","","-30.1","","74","","","","5","","14","","24.1","","97.20","","","","-37","","Mostly Cloudy"
"-105.27","55.15","LA RONGE A","4064155","2019-01-24 16:00","2019","01","24","16:00","-27.0","","-30.3","","74","","","","5","","7","","24.1","","97.22","","","","-34","","NA"
"-105.27","55.15","LA RONGE A","4064155","2019-01-24 17:00","2019","01","24","17:00","-27.0","","-30.2","","75","","","","4","","12","","24.1","","97.26","","","","-37","","NA"
"-105.27","55.15","LA RONGE A","4064155","2019-01-24 18:00","2019","01","24","18:00","-29.1","","-31.9","","78","","","","3","","9","","24.1","","97.35","","","","-38","","Clear"
"-105.27","55.15","LA RONGE A","4064155","2019-01-24 19:00","2019","01","24","19:00","-30.3","","-33.1","","77","","","","4","","10","","24.1","","97.43","","","","-40","","NA"
"-105.27","55.15","LA RONGE A","4064155","2019-01-24 20:00","2019","01","24","20:00","-30.3","","-33.1","","77","","","","4","","7","","24.1","","97.44","","","","-38","","NA"
"-105.27","55.15","LA RONGE A","4064155","2019-01-24 21:00","2019","01","24","21:00","-30.6","","-33.3","","77","","","","7","","3","","24.1","","97.47","","","","-34","","Clear"
"-105.27","55.15","LA RONGE A","4064155","2019-01-24 22:00","2019","01","24","22:00","-33.2","","-36.2","","75","","","","5","","9","","24.1","","97.51","","","","-42","","NA"
"-105.27","55.15","LA RONGE A","4064155","2019-01-24 23:00","2019","01","24","23:00","-31.6","","-34.3","","77","","","","1","","5","","24.1","","97.55","","","","-37","","NA"
"-105.27","55.15","LA RONGE A","4064155","2019-01-25 00:00","2019","01","25","00:00","-33.9","","-36.9","","76","","","","4","","5","","24.1","","97.58","","","","-40","","Clear"
"-105.27","55.15","LA RONGE A","4064155","2019-01-25 01:00","2019","01","25","01:00","-34.9","","-37.9","","75","","","","3","","3","","24.1","","97.60","","","","-39","","NA"
"-105.27","55.15","LA RONGE A","4064155","2019-01-25 02:00","2019","01","25","02:00","-36.2","","-39.4","","73","","","","36","","2","","24.1","","97.60","","","","-39","","NA"
"-105.27","55.15","LA RONGE A","4064155","2019-01-25 03:00","2019","01","25","03:00","-36.6","","-39.9","","73","","","","1","","5","","24.1","","97.60","","","","-43","","Clear"
"-105.27","55.15","LA RONGE A","4064155","2019-01-25 04:00","2019","01","25","04:00","-36.0","","-39.3","","73","","","","4","","3","","24.1","","97.56","","","","-40","","NA"
"-105.27","55.15","LA RONGE A","4064155","2019-01-25 05:00","2019","01","25","05:00","-36.4","","-39.8","","72","","","","4","","4","","24.1","","97.51","","","","-42","","NA"
"-105.27","55.15","LA RONGE A","4064155","2019-01-25 06:00","2019","01","25","06:00","-36.0","","-39.3","","72","","","","36","","3","","24.1","","97.47","","","","-40","","Mainly Clear"
"-105.27","55.15","LA RONGE A","4064155","2019-01-25 07:00","2019","01","25","07:00","-35.2","","-38.5","","72","","","","36","","1","","24.1","","97.42","","","","-36","","NA"
"-105.27","55.15","LA RONGE A","4064155","2019-01-25 08:00","2019","01","25","08:00","-35.2","","-38.5","","72","","","","4","","3","","24.1","","97.36","","","","-39","","NA"
"-105.27","55.15","LA RONGE A","4064155","2019-01-25 09:00","2019","01","25","09:00","-34.0","","-37.3","","73","","","","3","","4","","24.1","","97.36","","","","-39","","Cloudy"
"-105.27","55.15","LA RONGE A","4064155","2019-01-25 10:00","2019","01","25","10:00","-32.4","","-35.6","","73","","","","36","","3","","24.1","","97.32","","","","-36","","NA"
"-105.27","55.15","LA RONGE A","4064155","2019-01-25 11:00","2019","01","25","11:00","-29.6","","-32.7","","75","","","","4","","5","","24.1","","97.24","","","","-35","","NA"
"-105.27","55.15","LA RONGE A","4064155","2019-01-25 12:00","2019","01","25","12:00","-28.3","","-31.3","","76","","","","4","","6","","24.1","","97.16","","","","-35","","Cloudy"
"-105.27","55.15","LA RONGE A","4064155","2019-01-25 13:00","2019","01","25","13:00","-25.1","","-28.1","","77","","","","14","","8","","24.1","","97.12","","","","-32","","NA"
"-105.27","55.15","LA RONGE A","4064155","2019-01-25 14:00","2019","01","25","14:00","-23.8","","-26.8","","77","","","","36","","1","","24.1","","97.11","","","","-25","","NA"
"-105.27","55.15","LA RONGE A","4064155","2019-01-25 15:00","2019","01","25","15:00","-23.9","","-26.8","","77","","","","4","","9","","24.1","","97.04","","","","-31","","Cloudy"
"-105.27","55.15","LA RONGE A","4064155","2019-01-25 16:00","2019","01","25","16:00","-23.3","","-26.2","","78","","","","4","","9","","24.1","","96.97","","","","-31","","NA"
"-105.27","55.15","LA RONGE A","4064155","2019-01-25 17:00","2019","01","25","17:00","-23.7","","-26.5","","78","","","","4","","7","","24.1","","96.96","","","","-30","","NA"
"-105.27","55.15","LA RONGE A","4064155","2019-01-25 18:00","2019","01","25","18:00","-23.0","","-25.8","","78","","","","3","","8","","24.1","","96.98","","","","-30","","Snow"
"-105.27","55.15","LA RONGE A","4064155","2019-01-25 19:00","2019","01","25","19:00","-22.9","","-25.8","","77","","","","1","","3","","19.3","","96.97","","","","-26","","Snow"
"-105.27","55.15","LA RONGE A","4064155","2019-01-25 20:00","2019","01","25","20:00","-23.0","","-26.1","","76","","","","1","","5","","19.3","","97.02","","","","-28","","Snow"
"-105.27","55.15","LA RONGE A","4064155","2019-01-25 21:00","2019","01","25","21:00","-23.7","","-26.8","","76","","","","1","","5","","24.1","","97.06","","","","-28","","Snow"
"-105.27","55.15","LA RONGE A","4064155","2019-01-25 22:00","2019","01","25","22:00","-25.7","","-28.2","","81","","","","36","","5","","24.1","","97.05","","","","-31","","NA"
"-105.27","55.15","LA RONGE A","4064155","2019-01-25 23:00","2019","01","25","23:00","-27.3","","-30.0","","79","","","","36","","1","","24.1","","97.06","","","","-28","","NA"
"-105.27","55.15","LA RONGE A","4064155","2019-01-26 00:00","2019","01","26","00:00","-25.8","","-28.5","","78","","","","2","","3","","24.1","","97.07","","","","-29","","Snow"
"-105.27","55.15","LA RONGE A","4064155","2019-01-26 01:00","2019","01","26","01:00","-25.7","","-28.4","","79","","","","3","","5","","24.1","","97.14","","","","-31","","Snow"
"-105.27","55.15","LA RONGE A","4064155","2019-01-26 02:00","2019","01","26","02:00","-25.2","","-27.7","","81","","","","4","","4","","24.1","","97.18","","","","-29","","Snow"
"-105.27","55.15","LA RONGE A","4064155","2019-01-26 03:00","2019","01","26","03:00","-24.9","","-27.4","","80","","","","5","","8","","24.1","","97.23","","","","-32","","Snow"
"-105.27","55.15","LA RONGE A","4064155","2019-01-26 04:00","2019","01","26","04:00","-25.0","","-27.6","","79","","","","9","","4","","24.1","","97.22","","","","-29","","Snow"
"-105.27","55.15","LA RONGE A","4064155","2019-01-26 05:00","2019","01","26","05:00","-25.1","","-27.4","","81","","","","10","","4","","24.1","","97.27","","","","-29","","Snow"
"-105.27","55.15","LA RONGE A","4064155","2019-01-26 06:00","2019","01","26","06:00","-24.9","","-27.1","","82","","","","6","","7","","24.1","","97.31","","","","-31","","Snow"
"-105.27","55.15","LA RONGE A","4064155","2019-01-26 07:00","2019","01","26","07:00","-25.0","","-27.4","","80","","","","6","","5","","16.1","","97.28","","","","-30","","Snow"
"-105.27","55.15","LA RONGE A","4064155","2019-01-26 08:00","2019","01","26","08:00","-25.2","","-27.9","","79","","","","10","","5","","24.1","","97.31","","","","-30","","Snow"
"-105.27","55.15","LA RONGE A","4064155","2019-01-26 09:00","2019","01","26","09:00","-26.0","","-28.7","","78","","","","4","","8","","24.1","","97.28","","","","-33","","Snow"
"-105.27","55.15","LA RONGE A","4064155","2019-01-26 10:00","2019","01","26","10:00","-25.9","","-28.6","","78","","","","10","","9","","24.1","","97.27","","","","-34","","NA"
"-105.27","55.15","LA RONGE A","4064155","2019-01-26 11:00","2019","01","26","11:00","-25.4","","-28.1","","79","","","","11","","10","","24.1","","97.26","","","","-34","","Snow"
"-105.27","55.15","LA RONGE A","4064155","2019-01-26 12:00","2019","01","26","12:00","-24.7","","-27.4","","79","","","","9","","15","","24.1","","97.26","","","","-35","","Snow"
"-105.27","55.15","LA RONGE A","4064155","2019-01-26 13:00","2019","01","26","13:00","-22.9","","-25.4","","80","","","","10","","7","","24.1","","97.20","","","","-29","","NA"
"-105.27","55.15","LA RONGE A","4064155","2019-01-26 14:00","2019","01","26","14:00","-22.3","","-24.9","","80","","","","10","","9","","24.1","","97.15","","","","-29","","NA"
"-105.27","55.15","LA RONGE A","4064155","2019-01-26 15:00","2019","01","26","15:00","-21.3","","-23.9","","80","","","","9","","13","","24.1","","97.05","","","","-30","","Mostly Cloudy"
"-105.27","55.15","LA RONGE A","4064155","2019-01-26 16:00","2019","01","26","16:00","-21.4","","-24.1","","80","","","","9","","14","","24.1","","96.98","","","","-30","","NA"
"-105.27","55.15","LA RONGE A","4064155","2019-01-26 17:00","2019","01","26","17:00","-20.3","","-23.1","","79","","","","9","","10","","24.1","","96.89","","","","-28","","NA"
"-105.27","55.15","LA RONGE A","4064155","2019-01-26 18:00","2019","01","26","18:00","-18.6","","-21.3","","79","","","","13","","12","","24.1","","96.79","","","","-26","","Mostly Cloudy"
"-105.27","55.15","LA RONGE A","4064155","2019-01-26 19:00","2019","01","26","19:00","-17.4","","-20.2","","79","","","","10","","11","","24.1","","96.64","","","","-25","","NA"
"-105.27","55.15","LA RONGE A","4064155","2019-01-26 20:00","2019","01","26","20:00","-16.4","","-19.3","","78","","","","15","","19","","24.1","","96.51","","","","-26","","Snow"
"-105.27","55.15","LA RONGE A","4064155","2019-01-26 21:00","2019","01","26","21:00","-16.1","","-18.7","","81","","","","15","","14","","24.1","","96.38","","","","-24","","Snow"
"-105.27","55.15","LA RONGE A","4064155","2019-01-26 22:00","2019","01","26","22:00","-15.8","","-18.1","","82","","","","15","","13","","24.1","","96.24","","","","-23","","Snow"
"-105.27","55.15","LA RONGE A","4064155","2019-01-26 23:00","2019","01","26","23:00","-15.0","","-17.3","","83","","","","16","","14","","24.1","","96.12","","","","-23","","Snow"
"-105.27","55.15","LA RONGE A","4064155","2019-01-27 00:00","2019","01","27","00:00","-14.3","","-16.4","","84","","","","16","","13","","4.8","","95.96","","","","-21","","Snow"
"-105.27","55.15","LA RONGE A","4064155","2019-01-27 01:00","2019","01","27","01:00","-13.9","","-15.9","","85","","","","14","","10","","1.6","","95.79","","","","-20","","Snow"
"-105.27","55.15","LA RONGE A","4064155","2019-01-27 02:00","2019","01","27","02:00","-13.7","","-15.7","","85","","","","13","","8","","4.8","","95.71","","","","-19","","Snow"
"-105.27","55.15","LA RONGE A","4064155","2019-01-27 03:00","2019","01","27","03:00","-13.5","","-15.6","","84","","","","11","","9","","19.3","","95.54","","","","-19","","Snow"
"-105.27","55.15","LA RONGE A","4064155","2019-01-27 04:00","2019","01","27","04:00","-13.8","","-15.7","","85","","","","10","","10","","12.9","","95.49","","","","-20","","Snow"
"-105.27","55.15","LA RONGE A","4064155","2019-01-27 05:00","2019","01","27","05:00","-15.9","","-18.0","","84","","","","4","","17","","1.6","","95.42","","","","-25","","Snow"
"-105.27","55.15","LA RONGE A","4064155","2019-01-27 06:00","2019","01","27","06:00","-17.0","","-19.4","","82","","","","4","","16","","9.7","","95.41","","","","-26","","Snow"
"-105.27","55.15","LA RONGE A","4064155","2019-01-27 07:00","2019","01","27","07:00","-17.2","","-19.6","","82","","","","4","","14","","3.2","","95.50","","","","-25","","Snow"
"-105.27","55.15","LA RONGE A","4064155","2019-01-27 08:00","2019","01","27","08:00","-16.9","","-19.4","","81","","","","36","","14","","16.1","","95.60","","","","-25","","Snow"
"-105.27","55.15","LA RONGE A","4064155","2019-01-27 09:00","2019","01","27","09:00","-16.8","","-18.7","","85","","","","36","","5","","16.1","","95.75","","","","-21","","Freezing Drizzle"
"-105.27","55.15","LA RONGE A","4064155","2019-01-27 10:00","2019","01","27","10:00","-15.9","","-17.6","","88","","","","32","","9","","24.1","","95.88","","","","-22","","Freezing Drizzle"
"-105.27","55.15","LA RONGE A","4064155","2019-01-27 11:00","2019","01","27","11:00","-15.0","","-16.6","","87","","","","31","","14","","9.7","","96.03","","","","-23","","Snow"
"-105.27","55.15","LA RONGE A","4064155","2019-01-27 12:00","2019","01","27","12:00","-13.6","","-15.3","","87","","","","30","","10","","6.4","","96.12","","","","-20","","Snow"
"-105.27","55.15","LA RONGE A","4064155","2019-01-27 13:00","2019","01","27","13:00","-11.4","","-13.4","","86","","","","29","","12","","2.4","","96.21","","","","-18","","Snow"
"-105.27","55.15","LA RONGE A","4064155","2019-01-27 14:00","2019","01","27","14:00","-10.1","","-12.0","","86","","","","29","","17","","1.6","","96.28","","","","-17","","Snow"
"-105.27","55.15","LA RONGE A","4064155","2019-01-27 15:00","2019","01","27","15:00","-9.7","","-12.6","","80","","","","31","","30","","3.2","","96.37","","","","-19","","Snow,Blowing Snow"
"-105.27","55.15","LA RONGE A","4064155","2019-01-27 16:00","2019","01","27","16:00","-10.1","","-13.4","","77","","","","31","","40","","3.2","","96.50","","","","-21","","Snow,Blowing Snow"
"-105.27","55.15","LA RONGE A","4064155","2019-01-27 17:00","2019","01","27","17:00","-10.9","","-14.4","","76","","","","31","","38","","4.8","","96.68","","","","-22","","Snow,Blowing Snow"
"-105.27","55.15","LA RONGE A","4064155","2019-01-27 18:00","2019","01","27","18:00","-11.3","","-15.2","","73","","","","32","","29","","16.1","","96.83","","","","-21","","Snow,Blowing Snow"
"-105.27","55.15","LA RONGE A","4064155","2019-01-27 19:00","2019","01","27","19:00","-12.1","","-15.6","","75","","","","32","","36","","4.8","","96.97","","","","-23","","Snow,Blowing Snow"
"-105.27","55.15","LA RONGE A","4064155","2019-01-27 20:00","2019","01","27","20:00","-13.7","","-18.1","","70","","","","34","","25","","9.7","","97.17","","","","-24","","Snow,Blowing Snow"
"-105.27","55.15","LA RONGE A","4064155","2019-01-27 21:00","2019","01","27","21:00","-14.7","","-18.7","","72","","","","31","","32","","8.1","","97.33","","","","-26","","Snow,Blowing Snow"
"-105.27","55.15","LA RONGE A","4064155","2019-01-27 22:00","2019","01","27","22:00","-15.5","","-19.6","","71","","","","32","","32","","9.7","","97.46","","","","-27","","Snow,Blowing Snow"
"-105.27","55.15","LA RONGE A","4064155","2019-01-27 23:00","2019","01","27","23:00","-16.7","","-20.9","","71","","","","31","","28","","19.3","","97.56","","","","-28","","Snow,Blowing Snow"
"-105.27","55.15","LA RONGE A","4064155","2019-01-28 00:00","2019","01","28","00:00","-17.4","","-21.3","","72","","","","31","","29","","24.1","","97.66","","","","-29","","Snow,Blowing Snow"
"-105.27","55.15","LA RONGE A","4064155","2019-01-28 01:00","2019","01","28","01:00","-17.7","","-21.4","","73","","","","30","","25","","24.1","","97.74","","","","-29","","Snow,Blowing Snow"
"-105.27","55.15","LA RONGE A","4064155","2019-01-28 02:00","2019","01","28","02:00","-18.0","","-21.6","","74","","","","30","","21","","24.1","","97.79","","","","-28","","Snow,Blowing Snow"
"-105.27","55.15","LA RONGE A","4064155","2019-01-28 03:00","2019","01","28","03:00","-18.4","","-22.4","","72","","","","30","","27","","19.3","","97.81","","","","-30","","Snow,Blowing Snow"
"-105.27","55.15","LA RONGE A","4064155","2019-01-28 04:00","2019","01","28","04:00","-19.8","","-23.6","","72","","","","30","","24","","24.1","","97.86","","","","-31","","Snow,Blowing Snow"
"-105.27","55.15","LA RONGE A","4064155","2019-01-28 05:00","2019","01","28","05:00","-21.1","","-25.2","","70","","","","30","","23","","24.1","","97.91","","","","-33","","Snow,Blowing Snow"
"-105.27","55.15","LA RONGE A","4064155","2019-01-28 06:00","2019","01","28","06:00","-22.2","","-25.8","","73","","","","29","","25","","24.1","","97.93","","","","-34","","Snow,Blowing Snow"
"-105.27","55.15","LA RONGE A","4064155","2019-01-28 07:00","2019","01","28","07:00","-22.8","","-26.3","","74","","","","28","","23","","24.1","","97.90","","","","-35","","Snow,Blowing Snow"
"-105.27","55.15","LA RONGE A","4064155","2019-01-28 08:00","2019","01","28","08:00","-23.6","","-27.1","","74","","","","28","","20","","24.1","","97.90","","","","-35","","Blowing Snow"
"-105.27","55.15","LA RONGE A","4064155","2019-01-28 09:00","2019","01","28","09:00","-24.3","","-28.0","","73","","","","28","","17","","24.1","","97.90","","","","-35","","Clear"
"-105.27","55.15","LA RONGE A","4064155","2019-01-28 10:00","2019","01","28","10:00","-24.0","","-28.8","","65","","","","30","","20","","24.1","","97.92","","","","-36","","NA"
"-105.27","55.15","LA RONGE A","4064155","2019-01-28 11:00","2019","01","28","11:00","-24.1","","-29.2","","63","","","","31","","34","","24.1","","97.96","","","","-39","","Blowing Snow"
"-105.27","55.15","LA RONGE A","4064155","2019-01-28 12:00","2019","01","28","12:00","-24.3","","-30.1","","59","","","","31","","29","","24.1","","98.01","","","","-38","","Blowing Snow"
"-105.27","55.15","LA RONGE A","4064155","2019-01-28 13:00","2019","01","28","13:00","-24.8","","-31.1","","57","","","","32","","28","","24.1","","98.11","","","","-38","","Blowing Snow"
"-105.27","55.15","LA RONGE A","4064155","2019-01-28 14:00","2019","01","28","14:00","-25.1","","-32.2","","53","","","","33","","28","","24.1","","98.15","","","","-39","","Blowing Snow"
"-105.27","55.15","LA RONGE A","4064155","2019-01-28 15:00","2019","01","28","15:00","-25.0","","-32.2","","52","","","","33","","20","","24.1","","98.19","","","","-37","","Blowing Snow"
"-105.27","55.15","LA RONGE A","4064155","2019-01-28 16:00","2019","01","28","16:00","-25.1","","-31.9","","54","","","","31","","22","","24.1","","98.24","","","","-37","","Blowing Snow"
"-105.27","55.15","LA RONGE A","4064155","2019-01-28 17:00","2019","01","28","17:00","-25.7","","-32.6","","54","","","","32","","28","","24.1","","98.30","","","","-40","","Blowing Snow"
"-105.27","55.15","LA RONGE A","4064155","2019-01-28 18:00","2019","01","28","18:00","-26.4","","-32.8","","56","","","","31","","27","","24.1","","98.33","","","","-40","","Blowing Snow"
"-105.27","55.15","LA RONGE A","4064155","2019-01-28 19:00","2019","01","28","19:00","-27.0","","-33.2","","57","","","","31","","24","","24.1","","98.39","","","","-40","","Blowing Snow"
"-105.27","55.15","LA RONGE A","4064155","2019-01-28 20:00","2019","01","28","20:00","-27.7","","-33.5","","59","","","","31","","21","","24.1","","98.41","","","","-40","","Blowing Snow"
"-105.27","55.15","LA RONGE A","4064155","2019-01-28 21:00","2019","01","28","21:00","-28.1","","-33.7","","60","","","","31","","23","","24.1","","98.40","","","","-42","","Blowing Snow"
"-105.27","55.15","LA RONGE A","4064155","2019-01-28 22:00","2019","01","28","22:00","-28.9","","-34.2","","61","","","","31","","24","","24.1","","98.45","","","","-43","","NA"
"-105.27","55.15","LA RONGE A","4064155","2019-01-28 23:00","2019","01","28","23:00","-29.6","","-34.7","","63","","","","31","","18","","24.1","","98.48","","","","-42","","Blowing Snow"
"-105.27","55.15","LA RONGE A","4064155","2019-01-29 00:00","2019","01","29","00:00","-30.4","","-35.2","","64","","","","30","","11","","24.1","","98.54","","","","-40","","Blowing Snow"
"-105.27","55.15","LA RONGE A","4064155","2019-01-29 01:00","2019","01","29","01:00","-31.1","","-35.5","","66","","","","31","","16","","24.1","","98.54","","","","-43","","Blowing Snow"
"-105.27","55.15","LA RONGE A","4064155","2019-01-29 02:00","2019","01","29","02:00","-31.8","","-36.0","","67","","","","30","","13","","24.1","","98.56","","","","-43","","NA"
"-105.27","55.15","LA RONGE A","4064155","2019-01-29 03:00","2019","01","29","03:00","-32.3","","-36.3","","68","","","","31","","10","","24.1","","98.59","","","","-42","","Clear"
"-105.27","55.15","LA RONGE A","4064155","2019-01-29 04:00","2019","01","29","04:00","-33.4","","-37.3","","69","","","","30","","13","","24.1","","98.59","","","","-45","","NA"
"-105.27","55.15","LA RONGE A","4064155","2019-01-29 05:00","2019","01","29","05:00","-33.8","","-37.4","","71","","","","29","","13","","24.1","","98.61","","","","-45","","NA"
"-105.27","55.15","LA RONGE A","4064155","2019-01-29 06:00","2019","01","29","06:00","-34.0","","-37.6","","71","","","","29","","18","","24.1","","98.61","","","","-47","","Clear"
"-105.27","55.15","LA RONGE A","4064155","2019-01-29 07:00","2019","01","29","07:00","-34.5","","-38.1","","71","","","","29","","14","","24.1","","98.61","","","","-47","","NA"
"-105.27","55.15","LA RONGE A","4064155","2019-01-29 08:00","2019","01","29","08:00","-34.9","","-38.4","","71","","","","29","","18","","24.1","","98.61","","","","-49","","NA"
"-105.27","55.15","LA RONGE A","4064155","2019-01-29 09:00","2019","01","29","09:00","-35.4","","-38.9","","71","","","","30","","14","","24.1","","98.60","","","","-48","","Mainly Clear"
"-105.27","55.15","LA RONGE A","4064155","2019-01-29 10:00","2019","01","29","10:00","-34.9","","-38.6","","70","","","","29","","13","","24.1","","98.60","","","","-47","","NA"
"-105.27","55.15","LA RONGE A","4064155","2019-01-29 11:00","2019","01","29","11:00","-33.6","","-37.8","","67","","","","28","","11","","24.1","","98.62","","","","-44","","NA"
"-105.27","55.15","LA RONGE A","4064155","2019-01-29 12:00","2019","01","29","12:00","-32.2","","-36.9","","64","","","","27","","9","","24.1","","98.62","","","","-41","","Mainly Clear"
"-105.27","55.15","LA RONGE A","4064155","2019-01-29 13:00","2019","01","29","13:00","-31.3","","-36.1","","63","","","","29","","8","","24.1","","98.55","","","","-40","","NA"
"-105.27","55.15","LA RONGE A","4064155","2019-01-29 14:00","2019","01","29","14:00","-29.5","","-35.1","","59","","","","31","","6","","24.1","","98.47","","","","-36","","NA"
"-105.27","55.15","LA RONGE A","4064155","2019-01-29 15:00","2019","01","29","15:00","-28.3","","-34.4","","57","","","","28","","3","","24.1","","98.44","","","","-32","","Mainly Clear"
"-105.27","55.15","LA RONGE A","4064155","2019-01-29 16:00","2019","01","29","16:00","-28.2","","-34.6","","56","","","","28","","4","","24.1","","98.42","","","","-33","","NA"
"-105.27","55.15","LA RONGE A","4064155","2019-01-29 17:00","2019","01","29","17:00","-30.2","","-35.4","","62","","","","2","","3","","24.1","","98.37","","","","-34","","NA"
"-105.27","55.15","LA RONGE A","4064155","2019-01-29 18:00","2019","01","29","18:00","-31.8","","-35.9","","68","","","","36","","2","","24.1","","98.34","","","","-34","","Mainly Clear"
"-105.27","55.15","LA RONGE A","4064155","2019-01-29 19:00","2019","01","29","19:00","-34.5","","-38.0","","71","","","","0","","1","","24.1","","98.31","","","","-36","","NA"
"-105.27","55.15","LA RONGE A","4064155","2019-01-29 20:00","2019","01","29","20:00","-35.0","","-38.2","","73","","","","18","","6","","24.1","","98.25","","","","-42","","NA"
"-105.27","55.15","LA RONGE A","4064155","2019-01-29 21:00","2019","01","29","21:00","-35.4","","-38.5","","74","","","","36","","2","","24.1","","98.18","","","","-38","","Clear"
"-105.27","55.15","LA RONGE A","4064155","2019-01-29 22:00","2019","01","29","22:00","-37.3","","-40.6","","72","","","","2","","4","","24.1","","98.13","","","","-43","","NA"
"-105.27","55.15","LA RONGE A","4064155","2019-01-29 23:00","2019","01","29","23:00","-38.5","","-41.9","","72","","","","36","","2","","24.1","","98.10","","","","-41","","NA"
"-105.27","55.15","LA RONGE A","4064155","2019-01-30 00:00","2019","01","30","00:00","-38.3","","-41.9","","70","","","","4","","5","","24.1","","98.05","","","","-45","","Clear"
"-105.27","55.15","LA RONGE A","4064155","2019-01-30 01:00","2019","01","30","01:00","-39.0","","-42.5","","71","","","","4","","4","","24.1","","98.03","","","","-44","","NA"
"-105.27","55.15","LA RONGE A","4064155","2019-01-30 02:00","2019","01","30","02:00","-39.5","","-42.9","","71","","","","3","","8","","24.1","","97.98","","","","-49","","NA"
"-105.27","55.15","LA RONGE A","4064155","2019-01-30 03:00","2019","01","30","03:00","-39.4","","-42.8","","71","","","","4","","7","","24.1","","97.93","","","","-48","","Clear"
"-105.27","55.15","LA RONGE A","4064155","2019-01-30 04:00","2019","01","30","04:00","-39.5","","-43.0","","70","","","","4","","9","","24.1","","97.89","","","","-50","","NA"
"-105.27","55.15","LA RONGE A","4064155","2019-01-30 05:00","2019","01","30","05:00","-39.6","","-43.2","","70","","","","3","","9","","24.1","","97.82","","","","-50","","NA"
"-105.27","55.15","LA RONGE A","4064155","2019-01-30 06:00","2019","01","30","06:00","-39.7","","-43.3","","69","","","","5","","9","","24.1","","97.75","","","","-50","","Clear"
"-105.27","55.15","LA RONGE A","4064155","2019-01-30 07:00","2019","01","30","07:00","-40.3","","-44.0","","69","","","","5","","7","","24.1","","97.71","","","","-49","","NA"
"-105.27","55.15","LA RONGE A","4064155","2019-01-30 08:00","2019","01","30","08:00","-37.5","","-41.0","","71","","","","8","","7","","24.1","","97.65","","","","-46","","NA"
"-105.27","55.15","LA RONGE A","4064155","2019-01-30 09:00","2019","01","30","09:00","-38.0","","-41.6","","70","","","","8","","6","","24.1","","97.61","","","","-46","","Mainly Clear"
"-105.27","55.15","LA RONGE A","4064155","2019-01-30 10:00","2019","01","30","10:00","-37.6","","-41.2","","70","","","","8","","7","","24.1","","97.56","","","","-46","","NA"
"-105.27","55.15","LA RONGE A","4064155","2019-01-30 11:00","2019","01","30","11:00","-35.0","","-38.6","","71","","","","7","","7","","24.1","","97.51","","","","-43","","NA"
"-105.27","55.15","LA RONGE A","4064155","2019-01-30 12:00","2019","01","30","12:00","-33.1","","-36.6","","72","","","","5","","7","","24.1","","97.45","","","","-41","","Mainly Clear"
"-105.27","55.15","LA RONGE A","4064155","2019-01-30 13:00","2019","01","30","13:00","-30.8","","-34.2","","72","","","","4","","10","","24.1","","97.39","","","","-40","","NA"
"-105.27","55.15","LA RONGE A","4064155","2019-01-30 14:00","2019","01","30","14:00","-29.8","","-33.4","","72","","","","4","","14","","24.1","","97.30","","","","-41","","NA"
"-105.27","55.15","LA RONGE A","4064155","2019-01-30 15:00","2019","01","30","15:00","-26.2","","-30.4","","68","","","","8","","12","","24.1","","97.18","","","","-36","","Mostly Cloudy"
"-105.27","55.15","LA RONGE A","4064155","2019-01-30 16:00","2019","01","30","16:00","-24.6","","-30.0","","62","","","","10","","16","","24.1","","97.12","","","","-35","","NA"
"-105.27","55.15","LA RONGE A","4064155","2019-01-30 17:00","2019","01","30","17:00","-24.8","","-29.7","","64","","","","9","","14","","24.1","","97.04","","","","-35","","NA"
"-105.27","55.15","LA RONGE A","4064155","2019-01-30 18:00","2019","01","30","18:00","-24.8","","-29.3","","67","","","","11","","14","","24.1","","97.01","","","","-35","","Mostly Cloudy"
"-105.27","55.15","LA RONGE A","4064155","2019-01-30 19:00","2019","01","30","19:00","-24.6","","-29.2","","67","","","","12","","18","","24.1","","96.94","","","","-36","","NA"
"-105.27","55.15","LA RONGE A","4064155","2019-01-30 20:00","2019","01","30","20:00","-25.1","","-29.7","","66","","","","11","","18","","24.1","","96.94","","","","-36","","NA"
"-105.27","55.15","LA RONGE A","4064155","2019-01-30 21:00","2019","01","30","21:00","-25.5","","-30.0","","67","","","","11","","18","","24.1","","96.83","","","","-37","","Snow"
"-105.27","55.15","LA RONGE A","4064155","2019-01-30 22:00","2019","01","30","22:00","-25.3","","-29.3","","70","","","","10","","19","","6.4","","96.70","","","","-37","","Snow"
"-105.27","55.15","LA RONGE A","4064155","2019-01-30 23:00","2019","01","30","23:00","-24.9","","-28.4","","73","","","","11","","19","","3.2","","96.65","","","","-36","","Snow"
"-105.27","55.15","LA RONGE A","4064155","2019-01-31 00:00","2019","01","31","00:00","-24.5","","-27.6","","76","","","","12","","17","","3.2","","96.58","","","","-35","","Snow,Blowing Snow"
"-105.27","55.15","LA RONGE A","4064155","2019-01-31 01:00","2019","01","31","01:00","-24.3","","-27.5","","76","","","","11","","16","","3.2","","96.53","","","","-35","","Snow,Blowing Snow"
"-105.27","55.15","LA RONGE A","4064155","2019-01-31 02:00","2019","01","31","02:00","-24.1","","-27.2","","76","","","","12","","17","","3.2","","96.42","","","","-35","","Snow,Blowing Snow"
"-105.27","55.15","LA RONGE A","4064155","2019-01-31 03:00","2019","01","31","03:00","-23.8","","-26.9","","76","","","","13","","14","","8.1","","96.44","","","","-33","","Snow,Blowing Snow"
"-105.27","55.15","LA RONGE A","4064155","2019-01-31 04:00","2019","01","31","04:00","-23.3","","-26.5","","75","","","","13","","15","","9.7","","96.38","","","","-33","","Snow"
"-105.27","55.15","LA RONGE A","4064155","2019-01-31 05:00","2019","01","31","05:00","-22.9","","-26.1","","76","","","","13","","11","","12.9","","96.31","","","","-31","","Snow"
"-105.27","55.15","LA RONGE A","4064155","2019-01-31 06:00","2019","01","31","06:00","-22.8","","-26.0","","76","","","","13","","11","","24.1","","96.27","","","","-31","","Snow"
"-105.27","55.15","LA RONGE A","4064155","2019-01-31 07:00","2019","01","31","07:00","-22.8","","-25.9","","76","","","","15","","8","","24.1","","96.27","","","","-30","","Snow"
"-105.27","55.15","LA RONGE A","4064155","2019-01-31 08:00","2019","01","31","08:00","-22.3","","-25.6","","75","","","","14","","13","","16.1","","96.23","","","","-31","","Snow"
"-105.27","55.15","LA RONGE A","4064155","2019-01-31 09:00","2019","01","31","09:00","-22.2","","-25.2","","77","","","","15","","11","","6.4","","96.21","","","","-30","","Snow"
"-105.27","55.15","LA RONGE A","4064155","2019-01-31 10:00","2019","01","31","10:00","-21.6","","-24.7","","77","","","","15","","11","","9.7","","96.16","","","","-30","","Snow,Blowing Snow"
"-105.27","55.15","LA RONGE A","4064155","2019-01-31 11:00","2019","01","31","11:00","-21.0","","-24.1","","77","","","","17","","9","","9.7","","96.17","","","","-28","","Snow"
"-105.27","55.15","LA RONGE A","4064155","2019-01-31 12:00","2019","01","31","12:00","-20.1","","-23.2","","77","","","","16","","4","","4.8","","96.19","","","","-24","","Snow"
"-105.27","55.15","LA RONGE A","4064155","2019-01-31 13:00","2019","01","31","13:00","-19.6","","-23.1","","74","","","","36","","1","","16.1","","96.21","","","","-20","","Snow"
"-105.27","55.15","LA RONGE A","4064155","2019-01-31 14:00","2019","01","31","14:00","-19.1","","-22.6","","74","","","","36","","3","","19.3","","96.22","","","","-22","","Snow"
"-105.27","55.15","LA RONGE A","4064155","2019-01-31 15:00","2019","01","31","15:00","-18.5","","-22.3","","73","","","","2","","4","","16.1","","96.22","","","","-22","","Snow"
"-105.27","55.15","LA RONGE A","4064155","2019-01-31 16:00","2019","01","31","16:00","-18.2","","-21.8","","74","","","","36","","1","","19.3","","96.26","","","","-19","","Snow"
"-105.27","55.15","LA RONGE A","4064155","2019-01-31 17:00","2019","01","31","17:00","-17.9","","-21.5","","74","","","","36","","1","","19.3","","96.27","","","","-19","","Snow"
"-105.27","55.15","LA RONGE A","4064155","2019-01-31 18:00","2019","01","31","18:00","-18.0","","-21.4","","76","","","","35","","5","","19.3","","96.32","","","","-22","","Snow"
"-105.27","55.15","LA RONGE A","4064155","2019-01-31 19:00","2019","01","31","19:00","-17.9","","-21.4","","74","","","","29","","7","","19.3","","96.34","","","","-23","","Snow"
"-105.27","55.15","LA RONGE A","4064155","2019-01-31 20:00","2019","01","31","20:00","-17.9","","-21.1","","76","","","","28","","7","","16.1","","96.36","","","","-23","","Snow"
"-105.27","55.15","LA RONGE A","4064155","2019-01-31 21:00","2019","01","31","21:00","-17.6","","-20.8","","77","","","","29","","12","","19.3","","96.42","","","","-25","","Snow"
"-105.27","55.15","LA RONGE A","4064155","2019-01-31 22:00","2019","01","31","22:00","-17.6","","-20.8","","76","","","","29","","9","","19.3","","96.43","","","","-24","","Snow"
"-105.27","55.15","LA RONGE A","4064155","2019-01-31 23:00","2019","01","31","23:00","-17.8","","-21.1","","75","","","","29","","14","","24.1","","96.48","","","","-26","","Snow"
