"Longitude (x)","Latitude (y)","Station Name","Climate ID","Date/Time (LST)","Year","Month","Day","Time (LST)","Temp (°C)","Temp Flag","Dew Point Temp (°C)","Dew Point Temp Flag","Rel Hum (%)","Rel Hum Flag","Precip. Amount (mm)","Precip. Amount Flag","Wind Dir (10s deg)","Wind Dir Flag","Wind Spd (km/h)","Wind Spd Flag","Visibility (km)","Visibility Flag","Stn Press (kPa)","Stn Press Flag","Hmdx","Hmdx Flag","Wind Chill","Wind Chill Flag","Weather"
"-61.05","46.55","GRAND ETANG","8201969","2019-02-01 00:00","2019","02","01","00:00","-12.2","","-17.4","","65","","","","26","","48","","","","101.40","","","","-25","","NA"
"-61.05","46.55","GRAND ETANG","8201969","2019-02-01 01:00","2019","02","01","01:00","-12.8","","-19.0","","59","","","","26","","56","","","","101.43","","","","-26","","NA"
"-61.05","46.55","GRAND ETANG","8201969","2019-02-01 02:00","2019","02","01","02:00","-13.1","","-19.6","","58","","","","26","","51","","","","101.49","","","","-26","","NA"
"-61.05","46.55","GRAND ETANG","8201969","2019-02-01 03:00","2019","02","01","03:00","-13.2","","-18.5","","64","","","","26","","47","","","","101.48","","","","-26","","NA"
"-61.05","46.55","GRAND ETANG","8201969","2019-02-01 04:00","2019","02","01","04:00","-13.0","","-17.6","","68","","","","25","","49","","","","101.47","","","","-26","","NA"
"-61.05","46.55","GRAND ETANG","8201969","2019-02-01 05:00","2019","02","01","05:00","-14.0","","-19.1","","65","","","","26","","50","","","","101.52","","","","-27","","NA"
"-61.05","46.55","GRAND ETANG","8201969","2019-02-01 06:00","2019","02","01","06:00","-13.7","","-19.2","","63","","","","26","","48","","","","101.52","","","","-27","","NA"
"-61.05","46.55","GRAND ETANG","8201969","2019-02-01 07:00","2019","02","01","07:00","-13.6","","-19.3","","62","","","","26","","38","","","","101.55","","","","-25","","NA"
"-61.05","46.55","GRAND ETANG","8201969","2019-02-01 08:00","2019","02","01","08:00","-12.9","","-19.3","","59","","","","27","","39","","","","101.62","","","","-25","","NA"
"-61.05","46.55","GRAND ETANG","8201969","2019-02-01 09:00","2019","02","01","09:00","-12.6","","-18.7","","60","","","","27","","40","","","","101.63","","","","-24","","NA"
"-61.05","46.55","GRAND ETANG","8201969","2019-02-01 10:00","2019","02","01","10:00","-12.1","","-18.9","","57","","","","27","","44","","","","101.62","","","","-24","","NA"
"-61.05","46.55","GRAND ETANG","8201969","2019-02-01 11:00","2019","02","01","11:00","-11.3","","-16.9","","63","","","","26","","36","","","","101.61","","","","-22","","NA"
"-61.05","46.55","GRAND ETANG","8201969","2019-02-01 12:00","2019","02","01","12:00","-10.7","","-16.7","","61","","","","24","","41","","","","101.50","","","","-22","","NA"
"-61.05","46.55","GRAND ETANG","8201969","2019-02-01 13:00","2019","02","01","13:00","-10.8","","-15.7","","67","","","","25","","43","","","","101.42","","","","-22","","NA"
"-61.05","46.55","GRAND ETANG","8201969","2019-02-01 14:00","2019","02","01","14:00","-11.3","","-14.0","","80","","","","25","","37","","","","101.34","","","","-22","","NA"
"-61.05","46.55","GRAND ETANG","8201969","2019-02-01 15:00","2019","02","01","15:00","-10.5","","-16.6","","61","","","","25","","41","","","","101.29","","","","-22","","NA"
"-61.05","46.55","GRAND ETANG","8201969","2019-02-01 16:00","2019","02","01","16:00","-9.7","","-15.5","","62","","","","24","","36","","","","101.30","","","","-20","","NA"
"-61.05","46.55","GRAND ETANG","8201969","2019-02-01 17:00","2019","02","01","17:00","-10.3","","-15.2","","67","","","","25","","36","","","","101.33","","","","-21","","NA"
"-61.05","46.55","GRAND ETANG","8201969","2019-02-01 18:00","2019","02","01","18:00","-10.6","","-15.3","","68","","","","25","","32","","","","101.32","","","","-21","","NA"
"-61.05","46.55","GRAND ETANG","8201969","2019-02-01 19:00","2019","02","01","19:00","-10.0","","-14.9","","67","","","","25","","39","","","","101.32","","","","-21","","NA"
"-61.05","46.55","GRAND ETANG","8201969","2019-02-01 20:00","2019","02","01","20:00","-9.7","","-14.8","","66","","","","26","","40","","","","101.33","","","","-20","","NA"
"-61.05","46.55","GRAND ETANG","8201969","2019-02-01 21:00","2019","02","01","21:00","-9.9","","-14.2","","70","","","","27","","32","","","","101.36","","","","-20","","NA"
"-61.05","46.55","GRAND ETANG","8201969","2019-02-01 22:00","2019","02","01","22:00","-10.1","","-15.6","","64","","","","26","","43","","","","101.35","","","","-21","","NA"
"-61.05","46.55","GRAND ETANG","8201969","2019-02-01 23:00","2019","02","01","23:00","-10.6","","-16.3","","62","","","","26","","40","","","","101.35","","","","-22","","NA"
"-61.05","46.55","GRAND ETANG","8201969","2019-02-02 00:00","2019","02","02","00:00","-10.8","","-15.8","","66","","","","26","","35","","","","101.30","","","","-21","","NA"
"-61.05","46.55","GRAND ETANG","8201969","2019-02-02 01:00","2019","02","02","01:00","-10.8","","-15.7","","67","","","","26","","31","","","","101.32","","","","-21","","NA"
"-61.05","46.55","GRAND ETANG","8201969","2019-02-02 02:00","2019","02","02","02:00","-10.7","","-14.9","","71","","","","27","","32","","","","101.31","","","","-21","","NA"
"-61.05","46.55","GRAND ETANG","8201969","2019-02-02 03:00","2019","02","02","03:00","-11.0","","-15.1","","72","","","","27","","33","","","","101.29","","","","-21","","NA"
"-61.05","46.55","GRAND ETANG","8201969","2019-02-02 04:00","2019","02","02","04:00","-11.3","","-15.2","","73","","","","27","","36","","","","101.27","","","","-22","","NA"
"-61.05","46.55","GRAND ETANG","8201969","2019-02-02 05:00","2019","02","02","05:00","-11.7","","-15.6","","72","","","","27","","36","","","","101.29","","","","-23","","NA"
"-61.05","46.55","GRAND ETANG","8201969","2019-02-02 06:00","2019","02","02","06:00","-11.9","","-16.0","","72","","","","27","","30","","","","101.29","","","","-22","","NA"
"-61.05","46.55","GRAND ETANG","8201969","2019-02-02 07:00","2019","02","02","07:00","-12.1","","-16.0","","73","","","","27","","34","","","","101.34","","","","-23","","NA"
"-61.05","46.55","GRAND ETANG","8201969","2019-02-02 08:00","2019","02","02","08:00","-12.2","","-16.0","","73","","","","27","","29","","","","101.34","","","","-22","","NA"
"-61.05","46.55","GRAND ETANG","8201969","2019-02-02 09:00","2019","02","02","09:00","-12.3","","-16.2","","73","","","","26","","29","","","","101.38","","","","-22","","NA"
"-61.05","46.55","GRAND ETANG","8201969","2019-02-02 10:00","2019","02","02","10:00","-11.9","","-16.0","","71","","","","25","","25","","","","101.36","","","","-21","","NA"
"-61.05","46.55","GRAND ETANG","8201969","2019-02-02 11:00","2019","02","02","11:00","-10.7","","-15.4","","68","","","","25","","24","","","","101.28","","","","-19","","NA"
"-61.05","46.55","GRAND ETANG","8201969","2019-02-02 12:00","2019","02","02","12:00","-10.0","","-15.8","","62","","","","25","","25","","","","101.19","","","","-19","","NA"
"-61.05","46.55","GRAND ETANG","8201969","2019-02-02 13:00","2019","02","02","13:00","-9.9","","-14.4","","70","","","","25","","24","","","","101.10","","","","-18","","NA"
"-61.05","46.55","GRAND ETANG","8201969","2019-02-02 14:00","2019","02","02","14:00","-9.4","","-14.7","","65","","","","24","","34","","","","100.96","","","","-19","","NA"
"-61.05","46.55","GRAND ETANG","8201969","2019-02-02 15:00","2019","02","02","15:00","-8.8","","-13.9","","66","","","","23","","32","","","","100.94","","","","-18","","NA"
"-61.05","46.55","GRAND ETANG","8201969","2019-02-02 16:00","2019","02","02","16:00","-9.0","","-14.5","","64","","","","24","","28","","","","100.87","","","","-18","","NA"
"-61.05","46.55","GRAND ETANG","8201969","2019-02-02 17:00","2019","02","02","17:00","-8.8","","-14.4","","64","","","","21","","16","","","","100.76","","","","-16","","NA"
"-61.05","46.55","GRAND ETANG","8201969","2019-02-02 18:00","2019","02","02","18:00","-8.6","","-14.6","","62","","","","20","","20","","","","100.70","","","","-16","","NA"
"-61.05","46.55","GRAND ETANG","8201969","2019-02-02 19:00","2019","02","02","19:00","-9.2","","-10.7","","89","","","","27","","25","","","","100.66","","","","-18","","NA"
"-61.05","46.55","GRAND ETANG","8201969","2019-02-02 20:00","2019","02","02","20:00","-8.9","","-9.6","","94","","","","25","","21","","","","100.56","","","","-17","","NA"
"-61.05","46.55","GRAND ETANG","8201969","2019-02-02 21:00","2019","02","02","21:00","-9.7","","-10.0","","98","","","","27","","31","","","","100.50","","","","-19","","NA"
"-61.05","46.55","GRAND ETANG","8201969","2019-02-02 22:00","2019","02","02","22:00","-9.5","","-11.5","","85","","","","26","","21","","","","100.45","","","","-17","","NA"
"-61.05","46.55","GRAND ETANG","8201969","2019-02-02 23:00","2019","02","02","23:00","-9.6","","-10.8","","91","","","","26","","17","","","","100.40","","","","-17","","NA"
"-61.05","46.55","GRAND ETANG","8201969","2019-02-03 00:00","2019","02","03","00:00","-10.1","","-11.1","","92","","","","31","","24","","","","100.40","","","","-19","","NA"
"-61.05","46.55","GRAND ETANG","8201969","2019-02-03 01:00","2019","02","03","01:00","-10.4","","-12.1","","87","","","","30","","20","","","","100.44","","","","-18","","NA"
"-61.05","46.55","GRAND ETANG","8201969","2019-02-03 02:00","2019","02","03","02:00","-10.6","","-13.0","","82","","","","30","","28","","","","100.48","","","","-20","","NA"
"-61.05","46.55","GRAND ETANG","8201969","2019-02-03 03:00","2019","02","03","03:00","-10.7","","-12.6","","85","","","","31","","29","","","","100.55","","","","-20","","NA"
"-61.05","46.55","GRAND ETANG","8201969","2019-02-03 04:00","2019","02","03","04:00","-11.1","","-13.1","","86","","","","30","","22","","","","100.62","","","","-20","","NA"
"-61.05","46.55","GRAND ETANG","8201969","2019-02-03 05:00","2019","02","03","05:00","-11.2","","-13.3","","84","","","","29","","22","","","","100.76","","","","-20","","NA"
"-61.05","46.55","GRAND ETANG","8201969","2019-02-03 06:00","2019","02","03","06:00","-11.4","","-13.6","","83","","","","29","","19","","","","100.86","","","","-19","","NA"
"-61.05","46.55","GRAND ETANG","8201969","2019-02-03 07:00","2019","02","03","07:00","-10.7","","-13.2","","82","","","","28","","22","","","","101.05","","","","-19","","NA"
"-61.05","46.55","GRAND ETANG","8201969","2019-02-03 08:00","2019","02","03","08:00","-10.6","","-13.1","","82","","","","28","","20","","","","101.14","","","","-19","","NA"
"-61.05","46.55","GRAND ETANG","8201969","2019-02-03 09:00","2019","02","03","09:00","-10.4","","-13.3","","79","","","","27","","24","","","","101.21","","","","-19","","NA"
"-61.05","46.55","GRAND ETANG","8201969","2019-02-03 10:00","2019","02","03","10:00","-10.2","","-12.3","","85","","","","27","","29","","","","101.23","","","","-20","","NA"
"-61.05","46.55","GRAND ETANG","8201969","2019-02-03 11:00","2019","02","03","11:00","-10.3","","-12.9","","81","","","","27","","29","","","","101.30","","","","-20","","NA"
"-61.05","46.55","GRAND ETANG","8201969","2019-02-03 12:00","2019","02","03","12:00","-10.0","","-12.6","","81","","","","28","","26","","","","101.28","","","","-19","","NA"
"-61.05","46.55","GRAND ETANG","8201969","2019-02-03 13:00","2019","02","03","13:00","-10.1","","-12.8","","80","","","","30","","27","","","","101.32","","","","-19","","NA"
"-61.05","46.55","GRAND ETANG","8201969","2019-02-03 14:00","2019","02","03","14:00","-9.5","","-12.2","","80","","","","30","","23","","","","101.39","","","","-18","","NA"
"-61.05","46.55","GRAND ETANG","8201969","2019-02-03 15:00","2019","02","03","15:00","-9.6","","-13.0","","76","","","","30","","26","","","","101.44","","","","-18","","NA"
"-61.05","46.55","GRAND ETANG","8201969","2019-02-03 16:00","2019","02","03","16:00","-9.8","","-12.4","","82","","","","30","","24","","","","101.55","","","","-18","","NA"
"-61.05","46.55","GRAND ETANG","8201969","2019-02-03 17:00","2019","02","03","17:00","-10.0","","-12.4","","82","","","","31","","17","","","","101.65","","","","-17","","NA"
"-61.05","46.55","GRAND ETANG","8201969","2019-02-03 18:00","2019","02","03","18:00","-9.8","","-12.3","","82","","","","31","","21","","","","101.78","","","","-18","","NA"
"-61.05","46.55","GRAND ETANG","8201969","2019-02-03 19:00","2019","02","03","19:00","-9.6","","-11.6","","85","","","","32","","16","","","","101.89","","","","-16","","NA"
"-61.05","46.55","GRAND ETANG","8201969","2019-02-03 20:00","2019","02","03","20:00","-9.5","","-12.9","","77","","","","32","","22","","","","101.98","","","","-18","","NA"
"-61.05","46.55","GRAND ETANG","8201969","2019-02-03 21:00","2019","02","03","21:00","-9.7","","-12.7","","79","","","","32","","19","","","","102.04","","","","-17","","NA"
"-61.05","46.55","GRAND ETANG","8201969","2019-02-03 22:00","2019","02","03","22:00","-9.7","","-12.4","","80","","","","31","","12","","","","102.10","","","","-16","","NA"
"-61.05","46.55","GRAND ETANG","8201969","2019-02-03 23:00","2019","02","03","23:00","-9.9","","-12.7","","80","","","","29","","7","","","","102.13","","","","-14","","NA"
"-61.05","46.55","GRAND ETANG","8201969","2019-02-04 00:00","2019","02","04","00:00","-10.7","","-13.2","","82","","","","29","","7","","","","102.12","","","","-15","","NA"
"-61.05","46.55","GRAND ETANG","8201969","2019-02-04 01:00","2019","02","04","01:00","-12.1","","-14.1","","85","","","","16","","8","","","","102.12","","","","-17","","NA"
"-61.05","46.55","GRAND ETANG","8201969","2019-02-04 02:00","2019","02","04","02:00","-11.1","","-13.4","","83","","","","14","","10","","","","102.08","","","","-17","","NA"
"-61.05","46.55","GRAND ETANG","8201969","2019-02-04 03:00","2019","02","04","03:00","-10.7","","-14.0","","77","","","","16","","12","","","","102.11","","","","-17","","NA"
"-61.05","46.55","GRAND ETANG","8201969","2019-02-04 04:00","2019","02","04","04:00","-10.2","","-13.8","","75","","","","16","","16","","","","102.09","","","","-17","","NA"
"-61.05","46.55","GRAND ETANG","8201969","2019-02-04 05:00","2019","02","04","05:00","-8.8","","-13.8","","67","","","","15","","17","","","","101.96","","","","-16","","NA"
"-61.05","46.55","GRAND ETANG","8201969","2019-02-04 06:00","2019","02","04","06:00","-9.2","","-13.0","","74","","","","17","","7","","","","101.97","","","","-13","","NA"
"-61.05","46.55","GRAND ETANG","8201969","2019-02-04 07:00","2019","02","04","07:00","-6.9","","-13.4","","60","","","","19","","14","","","","101.97","","","","-13","","NA"
"-61.05","46.55","GRAND ETANG","8201969","2019-02-04 08:00","2019","02","04","08:00","-5.8","","-12.0","","62","","","","17","","20","","","","101.88","","","","-13","","NA"
"-61.05","46.55","GRAND ETANG","8201969","2019-02-04 09:00","2019","02","04","09:00","-4.5","","-8.9","","71","","","","17","","31","","","","101.73","","","","-12","","NA"
"-61.05","46.55","GRAND ETANG","8201969","2019-02-04 10:00","2019","02","04","10:00","-3.7","","-7.4","","76","","","","17","","33","","","","101.63","","","","-12","","NA"
"-61.05","46.55","GRAND ETANG","8201969","2019-02-04 11:00","2019","02","04","11:00","-3.0","","-6.3","","78","","","","18","","28","","","","101.54","","","","-10","","NA"
"-61.05","46.55","GRAND ETANG","8201969","2019-02-04 12:00","2019","02","04","12:00","-2.2","","-4.6","","84","","","","18","","25","","","","101.41","","","","-9","","NA"
"-61.05","46.55","GRAND ETANG","8201969","2019-02-04 13:00","2019","02","04","13:00","-0.8","","-2.4","","89","","","","18","","24","","","","101.28","","","","-7","","NA"
"-61.05","46.55","GRAND ETANG","8201969","2019-02-04 14:00","2019","02","04","14:00","-0.3","","-1.9","","89","","","","19","","19","","","","101.24","","","","-5","","NA"
"-61.05","46.55","GRAND ETANG","8201969","2019-02-04 15:00","2019","02","04","15:00","0.0","","-0.5","","96","","","","19","","15","","","","101.23","","","","-4","","NA"
"-61.05","46.55","GRAND ETANG","8201969","2019-02-04 16:00","2019","02","04","16:00","0.5","","","M","100","","","","20","","19","","","","101.23","","","","","","NA"
"-61.05","46.55","GRAND ETANG","8201969","2019-02-04 17:00","2019","02","04","17:00","0.6","","","M","","M","","","20","","25","","","","101.20","","","","","","NA"
"-61.05","46.55","GRAND ETANG","8201969","2019-02-04 18:00","2019","02","04","18:00","0.7","","","M","100","","","","20","","19","","","","101.26","","","","","","NA"
"-61.05","46.55","GRAND ETANG","8201969","2019-02-04 19:00","2019","02","04","19:00","0.0","","","M","","M","","","23","","13","","","","101.35","","","","-4","","NA"
"-61.05","46.55","GRAND ETANG","8201969","2019-02-04 20:00","2019","02","04","20:00","-1.9","","","M","","M","","","32","","8","","","","101.48","","","","-5","","NA"
"-61.05","46.55","GRAND ETANG","8201969","2019-02-04 21:00","2019","02","04","21:00","-3.2","","","M","100","","","","34","","14","","","","101.52","","","","-8","","NA"
"-61.05","46.55","GRAND ETANG","8201969","2019-02-04 22:00","2019","02","04","22:00","-3.7","","","M","100","","","","34","","14","","","","101.60","","","","-9","","NA"
"-61.05","46.55","GRAND ETANG","8201969","2019-02-04 23:00","2019","02","04","23:00","-4.0","","-5.0","","92","","","","36","","13","","","","101.64","","","","-9","","NA"
"-61.05","46.55","GRAND ETANG","8201969","2019-02-05 00:00","2019","02","05","00:00","-4.2","","-6.2","","86","","","","2","","12","","","","101.65","","","","-9","","NA"
"-61.05","46.55","GRAND ETANG","8201969","2019-02-05 01:00","2019","02","05","01:00","-4.8","","-5.6","","94","","","","3","","8","","","","101.71","","","","-8","","NA"
"-61.05","46.55","GRAND ETANG","8201969","2019-02-05 02:00","2019","02","05","02:00","-5.5","","-6.6","","92","","","","5","","10","","","","101.73","","","","-10","","NA"
"-61.05","46.55","GRAND ETANG","8201969","2019-02-05 03:00","2019","02","05","03:00","-5.4","","-6.5","","92","","","","2","","11","","","","101.68","","","","-10","","NA"
"-61.05","46.55","GRAND ETANG","8201969","2019-02-05 04:00","2019","02","05","04:00","-6.3","","-6.8","","96","","","","17","","4","","","","101.63","","","","-8","","NA"
"-61.05","46.55","GRAND ETANG","8201969","2019-02-05 05:00","2019","02","05","05:00","-5.4","","-5.6","","98","","","","17","","8","","","","101.71","","","","-9","","NA"
"-61.05","46.55","GRAND ETANG","8201969","2019-02-05 06:00","2019","02","05","06:00","-4.9","","-5.3","","97","","","","17","","5","","","","101.62","","","","-7","","NA"
"-61.05","46.55","GRAND ETANG","8201969","2019-02-05 07:00","2019","02","05","07:00","-4.5","","-4.8","","98","","","","3","","8","","","","101.59","","","","-8","","NA"
"-61.05","46.55","GRAND ETANG","8201969","2019-02-05 08:00","2019","02","05","08:00","-4.0","","-4.2","","99","","","","34","","4","","","","101.56","","","","-6","","NA"
"-61.05","46.55","GRAND ETANG","8201969","2019-02-05 09:00","2019","02","05","09:00","-0.8","","-3.0","","85","","","","16","","18","","","","101.50","","","","-6","","NA"
"-61.05","46.55","GRAND ETANG","8201969","2019-02-05 10:00","2019","02","05","10:00","-1.7","","-3.0","","91","","","","26","","6","","","","101.41","","","","-4","","NA"
"-61.05","46.55","GRAND ETANG","8201969","2019-02-05 11:00","2019","02","05","11:00","3.5","","0.0","","78","","","","17","","20","","","","101.35","","","","","","NA"
"-61.05","46.55","GRAND ETANG","8201969","2019-02-05 12:00","2019","02","05","12:00","5.3","","2.2","","80","","","","15","","35","","","","101.13","","","","","","NA"
"-61.05","46.55","GRAND ETANG","8201969","2019-02-05 13:00","2019","02","05","13:00","5.3","","2.2","","80","","","","15","","39","","","","100.91","","","","","","NA"
"-61.05","46.55","GRAND ETANG","8201969","2019-02-05 14:00","2019","02","05","14:00","5.9","","4.6","","91","","","","16","","38","","","","100.80","","","","","","NA"
"-61.05","46.55","GRAND ETANG","8201969","2019-02-05 15:00","2019","02","05","15:00","8.5","","7.6","","94","","","","17","","33","","","","100.63","","","","","","NA"
"-61.05","46.55","GRAND ETANG","8201969","2019-02-05 16:00","2019","02","05","16:00","10.4","","9.2","","93","","","","19","","38","","","","100.68","","","","","","NA"
"-61.05","46.55","GRAND ETANG","8201969","2019-02-05 17:00","2019","02","05","17:00","9.3","","8.8","","97","","","","19","","23","","","","100.71","","","","","","NA"
"-61.05","46.55","GRAND ETANG","8201969","2019-02-05 18:00","2019","02","05","18:00","9.5","","9.4","","99","","","","20","","18","","","","100.68","","","","","","NA"
"-61.05","46.55","GRAND ETANG","8201969","2019-02-05 19:00","2019","02","05","19:00","10.5","","10.1","","97","","","","19","","22","","","","100.61","","","","","","NA"
"-61.05","46.55","GRAND ETANG","8201969","2019-02-05 20:00","2019","02","05","20:00","10.6","","10.1","","97","","","","19","","20","","","","100.61","","","","","","NA"
"-61.05","46.55","GRAND ETANG","8201969","2019-02-05 21:00","2019","02","05","21:00","9.4","","9.3","","99","","","","21","","24","","","","100.61","","","","","","NA"
"-61.05","46.55","GRAND ETANG","8201969","2019-02-05 22:00","2019","02","05","22:00","8.2","","","M","100","","","","20","","20","","","","100.56","","","","","","NA"
"-61.05","46.55","GRAND ETANG","8201969","2019-02-05 23:00","2019","02","05","23:00","7.5","","","M","","M","","","20","","19","","","","100.55","","","","","","NA"
"-61.05","46.55","GRAND ETANG","8201969","2019-02-06 00:00","2019","02","06","00:00","5.8","","","M","","M","","","22","","14","","","","100.62","","","","","","NA"
"-61.05","46.55","GRAND ETANG","8201969","2019-02-06 01:00","2019","02","06","01:00","4.7","","","M","","M","","","19","","7","","","","100.65","","","","","","NA"
"-61.05","46.55","GRAND ETANG","8201969","2019-02-06 02:00","2019","02","06","02:00","2.6","","","M","","M","","","20","","3","","","","100.70","","","","","","NA"
"-61.05","46.55","GRAND ETANG","8201969","2019-02-06 03:00","2019","02","06","03:00","0.9","","","M","","M","","","30","","12","","","","100.82","","","","","","NA"
"-61.05","46.55","GRAND ETANG","8201969","2019-02-06 04:00","2019","02","06","04:00","-0.6","","","M","","M","","","34","","22","","","","100.95","","","","-6","","NA"
"-61.05","46.55","GRAND ETANG","8201969","2019-02-06 05:00","2019","02","06","05:00","-1.1","","","M","","M","","","34","","22","","","","101.07","","","","-7","","NA"
"-61.05","46.55","GRAND ETANG","8201969","2019-02-06 06:00","2019","02","06","06:00","-2.4","","","M","100","","","","34","","34","","","","101.23","","","","-10","","NA"
"-61.05","46.55","GRAND ETANG","8201969","2019-02-06 07:00","2019","02","06","07:00","-2.7","","","M","100","","","","35","","33","","","","101.39","","","","-10","","NA"
"-61.05","46.55","GRAND ETANG","8201969","2019-02-06 08:00","2019","02","06","08:00","-3.0","","","M","100","","","","36","","36","","","","101.48","","","","-11","","NA"
"-61.05","46.55","GRAND ETANG","8201969","2019-02-06 09:00","2019","02","06","09:00","-3.1","","","M","100","","","","35","","32","","","","101.59","","","","-11","","NA"
"-61.05","46.55","GRAND ETANG","8201969","2019-02-06 10:00","2019","02","06","10:00","-3.4","","-3.6","","98","","","","35","","34","","","","101.69","","","","-11","","NA"
"-61.05","46.55","GRAND ETANG","8201969","2019-02-06 11:00","2019","02","06","11:00","-3.7","","-4.2","","96","","","","35","","32","","","","101.79","","","","-12","","NA"
"-61.05","46.55","GRAND ETANG","8201969","2019-02-06 12:00","2019","02","06","12:00","-4.3","","-5.2","","94","","","","1","","39","","","","101.80","","","","-13","","NA"
"-61.05","46.55","GRAND ETANG","8201969","2019-02-06 13:00","2019","02","06","13:00","-4.7","","-5.5","","94","","","","35","","36","","","","101.84","","","","-13","","NA"
"-61.05","46.55","GRAND ETANG","8201969","2019-02-06 14:00","2019","02","06","14:00","-4.9","","-5.5","","96","","","","1","","31","","","","101.91","","","","-13","","NA"
"-61.05","46.55","GRAND ETANG","8201969","2019-02-06 15:00","2019","02","06","15:00","-4.9","","-6.0","","92","","","","36","","26","","","","101.97","","","","-12","","NA"
"-61.05","46.55","GRAND ETANG","8201969","2019-02-06 16:00","2019","02","06","16:00","-5.4","","-7.0","","89","","","","36","","29","","","","102.06","","","","-13","","NA"
"-61.05","46.55","GRAND ETANG","8201969","2019-02-06 17:00","2019","02","06","17:00","-5.5","","-6.6","","92","","","","36","","28","","","","102.10","","","","-13","","NA"
"-61.05","46.55","GRAND ETANG","8201969","2019-02-06 18:00","2019","02","06","18:00","-5.2","","-6.0","","95","","","","36","","27","","","","102.20","","","","-13","","NA"
"-61.05","46.55","GRAND ETANG","8201969","2019-02-06 19:00","2019","02","06","19:00","-5.2","","-6.1","","93","","","","2","","26","","","","102.28","","","","-13","","NA"
"-61.05","46.55","GRAND ETANG","8201969","2019-02-06 20:00","2019","02","06","20:00","-5.2","","-5.8","","95","","","","1","","27","","","","102.32","","","","-13","","NA"
"-61.05","46.55","GRAND ETANG","8201969","2019-02-06 21:00","2019","02","06","21:00","-5.0","","-5.4","","97","","","","1","","15","","","","102.41","","","","-11","","NA"
"-61.05","46.55","GRAND ETANG","8201969","2019-02-06 22:00","2019","02","06","22:00","-5.1","","-5.5","","97","","","","36","","20","","","","102.34","","","","-12","","NA"
"-61.05","46.55","GRAND ETANG","8201969","2019-02-06 23:00","2019","02","06","23:00","-5.0","","-5.7","","95","","","","3","","20","","","","102.30","","","","-12","","NA"
"-61.05","46.55","GRAND ETANG","8201969","2019-02-07 00:00","2019","02","07","00:00","-4.9","","-6.2","","91","","","","3","","12","","","","102.29","","","","-10","","NA"
"-61.05","46.55","GRAND ETANG","8201969","2019-02-07 01:00","2019","02","07","01:00","-4.7","","-6.0","","90","","","","1","","6","","","","102.36","","","","-7","","NA"
"-61.05","46.55","GRAND ETANG","8201969","2019-02-07 02:00","2019","02","07","02:00","-4.7","","-6.3","","89","","","","6","","5","","","","102.33","","","","-7","","NA"
"-61.05","46.55","GRAND ETANG","8201969","2019-02-07 03:00","2019","02","07","03:00","-4.6","","-6.7","","86","","","","3","","3","","","","102.36","","","","-6","","NA"
"-61.05","46.55","GRAND ETANG","8201969","2019-02-07 04:00","2019","02","07","04:00","-4.6","","-6.6","","86","","","","0","","1","","","","102.34","","","","-5","","NA"
"-61.05","46.55","GRAND ETANG","8201969","2019-02-07 05:00","2019","02","07","05:00","-4.6","","-6.4","","87","","","","20","","1","","","","102.37","","","","-5","","NA"
"-61.05","46.55","GRAND ETANG","8201969","2019-02-07 06:00","2019","02","07","06:00","-4.4","","-6.0","","89","","","","36","","2","","","","102.39","","","","-5","","NA"
"-61.05","46.55","GRAND ETANG","8201969","2019-02-07 07:00","2019","02","07","07:00","-4.5","","-6.1","","89","","","","0","","1","","","","102.43","","","","-5","","NA"
"-61.05","46.55","GRAND ETANG","8201969","2019-02-07 08:00","2019","02","07","08:00","-4.3","","-5.7","","90","","","","8","","4","","","","102.40","","","","-6","","NA"
"-61.05","46.55","GRAND ETANG","8201969","2019-02-07 09:00","2019","02","07","09:00","-4.1","","-4.9","","94","","","","32","","8","","","","102.52","","","","-8","","NA"
"-61.05","46.55","GRAND ETANG","8201969","2019-02-07 10:00","2019","02","07","10:00","-3.5","","-4.5","","93","","","","30","","5","","","","102.51","","","","-6","","NA"
"-61.05","46.55","GRAND ETANG","8201969","2019-02-07 11:00","2019","02","07","11:00","-3.1","","-4.1","","93","","","","27","","5","","","","102.53","","","","-5","","NA"
"-61.05","46.55","GRAND ETANG","8201969","2019-02-07 12:00","2019","02","07","12:00","-2.2","","-3.5","","91","","","","29","","4","","","","102.45","","","","-4","","NA"
"-61.05","46.55","GRAND ETANG","8201969","2019-02-07 13:00","2019","02","07","13:00","-3.4","","-3.7","","98","","","","33","","5","","","","102.37","","","","-5","","NA"
"-61.05","46.55","GRAND ETANG","8201969","2019-02-07 14:00","2019","02","07","14:00","-3.5","","-3.7","","98","","","","32","","11","","","","102.42","","","","-8","","NA"
"-61.05","46.55","GRAND ETANG","8201969","2019-02-07 15:00","2019","02","07","15:00","-3.7","","-4.0","","98","","","","33","","10","","","","102.46","","","","-8","","NA"
"-61.05","46.55","GRAND ETANG","8201969","2019-02-07 16:00","2019","02","07","16:00","-3.7","","-3.9","","98","","","","33","","10","","","","102.54","","","","-8","","NA"
"-61.05","46.55","GRAND ETANG","8201969","2019-02-07 17:00","2019","02","07","17:00","-4.5","","-4.6","","99","","","","34","","10","","","","102.54","","","","-9","","NA"
"-61.05","46.55","GRAND ETANG","8201969","2019-02-07 18:00","2019","02","07","18:00","-5.9","","","M","100","","","","1","","5","","","","102.58","","","","-8","","NA"
"-61.05","46.55","GRAND ETANG","8201969","2019-02-07 19:00","2019","02","07","19:00","-6.4","","","M","100","","","","5","","2","","","","102.65","","","","-7","","NA"
"-61.05","46.55","GRAND ETANG","8201969","2019-02-07 20:00","2019","02","07","20:00","-6.2","","","M","100","","","","13","","2","","","","102.48","","","","-7","","NA"
"-61.05","46.55","GRAND ETANG","8201969","2019-02-07 21:00","2019","02","07","21:00","-5.3","","","M","100","","","","0","","1","","","","102.52","","","","-6","","NA"
"-61.05","46.55","GRAND ETANG","8201969","2019-02-07 22:00","2019","02","07","22:00","-4.9","","","M","100","","","","19","","1","","","","102.61","","","","-5","","NA"
"-61.05","46.55","GRAND ETANG","8201969","2019-02-07 23:00","2019","02","07","23:00","-4.6","","","M","100","","","","20","","2","","","","102.58","","","","-5","","NA"
"-61.05","46.55","GRAND ETANG","8201969","2019-02-08 00:00","2019","02","08","00:00","-4.5","","","M","100","","","","0","","1","","","","102.48","","","","-5","","NA"
"-61.05","46.55","GRAND ETANG","8201969","2019-02-08 01:00","2019","02","08","01:00","-4.2","","","M","100","","","","22","","4","","","","102.51","","","","-6","","NA"
"-61.05","46.55","GRAND ETANG","8201969","2019-02-08 02:00","2019","02","08","02:00","-4.1","","-4.1","","100","","","","6","","1","","","","102.51","","","","-5","","NA"
"-61.05","46.55","GRAND ETANG","8201969","2019-02-08 03:00","2019","02","08","03:00","-3.6","","-3.7","","99","","","","11","","6","","","","102.40","","","","-6","","NA"
"-61.05","46.55","GRAND ETANG","8201969","2019-02-08 04:00","2019","02","08","04:00","-3.5","","-5.2","","88","","","","19","","7","","","","102.23","","","","-6","","NA"
"-61.05","46.55","GRAND ETANG","8201969","2019-02-08 05:00","2019","02","08","05:00","-3.0","","-5.0","","86","","","","16","","9","","","","102.05","","","","-7","","NA"
"-61.05","46.55","GRAND ETANG","8201969","2019-02-08 06:00","2019","02","08","06:00","-2.3","","-4.4","","86","","","","15","","16","","","","102.03","","","","-7","","NA"
"-61.05","46.55","GRAND ETANG","8201969","2019-02-08 07:00","2019","02","08","07:00","-1.2","","-4.2","","80","","","","1","","6","","","","101.85","","","","-3","","NA"
"-61.05","46.55","GRAND ETANG","8201969","2019-02-08 08:00","2019","02","08","08:00","-1.2","","-3.7","","83","","","","17","","5","","","","101.82","","","","-3","","NA"
"-61.05","46.55","GRAND ETANG","8201969","2019-02-08 09:00","2019","02","08","09:00","-0.2","","-1.9","","89","","","","21","","15","","","","101.54","","","","-5","","NA"
"-61.05","46.55","GRAND ETANG","8201969","2019-02-08 10:00","2019","02","08","10:00","1.5","","-0.2","","89","","","","14","","59","","","","101.16","","","","","","NA"
"-61.05","46.55","GRAND ETANG","8201969","2019-02-08 11:00","2019","02","08","11:00","2.6","","1.2","","90","","","","13","","57","","","","100.83","","","","","","NA"
"-61.05","46.55","GRAND ETANG","8201969","2019-02-08 12:00","2019","02","08","12:00","3.5","","1.6","","87","","","","14","","66","","","","100.54","","","","","","NA"
"-61.05","46.55","GRAND ETANG","8201969","2019-02-08 13:00","2019","02","08","13:00","4.9","","3.1","","88","","","","14","","63","","","","100.29","","","","","","NA"
"-61.05","46.55","GRAND ETANG","8201969","2019-02-08 14:00","2019","02","08","14:00","6.3","","4.8","","90","","","","15","","53","","","","100.18","","","","","","NA"
"-61.05","46.55","GRAND ETANG","8201969","2019-02-08 15:00","2019","02","08","15:00","7.2","","6.3","","94","","","","17","","35","","","","100.14","","","","","","NA"
"-61.05","46.55","GRAND ETANG","8201969","2019-02-08 16:00","2019","02","08","16:00","6.4","","5.0","","91","","","","16","","42","","","","99.91","","","","","","NA"
"-61.05","46.55","GRAND ETANG","8201969","2019-02-08 17:00","2019","02","08","17:00","7.9","","7.4","","97","","","","18","","32","","","","99.76","","","","","","NA"
"-61.05","46.55","GRAND ETANG","8201969","2019-02-08 18:00","2019","02","08","18:00","8.9","","8.2","","95","","","","18","","28","","","","99.65","","","","","","NA"
"-61.05","46.55","GRAND ETANG","8201969","2019-02-08 19:00","2019","02","08","19:00","9.3","","8.7","","96","","","","19","","23","","","","99.68","","","","","","NA"
"-61.05","46.55","GRAND ETANG","8201969","2019-02-08 20:00","2019","02","08","20:00","8.4","","8.3","","99","","","","20","","24","","","","99.67","","","","","","NA"
"-61.05","46.55","GRAND ETANG","8201969","2019-02-08 21:00","2019","02","08","21:00","7.5","","7.0","","97","","","","21","","29","","","","99.64","","","","","","NA"
"-61.05","46.55","GRAND ETANG","8201969","2019-02-08 22:00","2019","02","08","22:00","4.2","","","M","","M","","","22","","29","","","","99.75","","","","","","NA"
"-61.05","46.55","GRAND ETANG","8201969","2019-02-08 23:00","2019","02","08","23:00","3.0","","","M","","M","","","22","","17","","","","99.76","","","","","","NA"
"-61.05","46.55","GRAND ETANG","8201969","2019-02-09 00:00","2019","02","09","00:00","2.6","","","M","100","","","","22","","17","","","","99.71","","","","","","NA"
"-61.05","46.55","GRAND ETANG","8201969","2019-02-09 01:00","2019","02","09","01:00","1.8","","","M","100","","","","20","","15","","","","99.55","","","","","","NA"
"-61.05","46.55","GRAND ETANG","8201969","2019-02-09 02:00","2019","02","09","02:00","1.1","","","M","100","","","","23","","24","","","","99.59","","","","","","NA"
"-61.05","46.55","GRAND ETANG","8201969","2019-02-09 03:00","2019","02","09","03:00","0.4","","-1.6","","87","","","","26","","37","","","","99.64","","","","","","NA"
"-61.05","46.55","GRAND ETANG","8201969","2019-02-09 04:00","2019","02","09","04:00","-0.4","","-3.1","","81","","","","27","","43","","","","99.69","","","","-8","","NA"
"-61.05","46.55","GRAND ETANG","8201969","2019-02-09 05:00","2019","02","09","05:00","-1.1","","-4.6","","77","","","","27","","50","","","","99.75","","","","-10","","NA"
"-61.05","46.55","GRAND ETANG","8201969","2019-02-09 06:00","2019","02","09","06:00","-2.1","","-6.6","","71","","","","27","","56","","","","99.80","","","","-11","","NA"
"-61.05","46.55","GRAND ETANG","8201969","2019-02-09 07:00","2019","02","09","07:00","-3.9","","-6.9","","80","","","","29","","44","","","","99.94","","","","-13","","NA"
"-61.05","46.55","GRAND ETANG","8201969","2019-02-09 08:00","2019","02","09","08:00","-5.6","","","M","100","","","","29","","46","","","","100.03","","","","-15","","NA"
"-61.05","46.55","GRAND ETANG","8201969","2019-02-09 09:00","2019","02","09","09:00","-6.9","","","M","100","","","","28","","53","","","","100.13","","","","-18","","NA"
"-61.05","46.55","GRAND ETANG","8201969","2019-02-09 10:00","2019","02","09","10:00","-9.3","","","M","100","","","","31","","53","","","","100.29","","","","-21","","NA"
"-61.05","46.55","GRAND ETANG","8201969","2019-02-09 11:00","2019","02","09","11:00","-10.8","","-10.9","","99","","","","30","","53","","","","100.45","","","","-23","","NA"
"-61.05","46.55","GRAND ETANG","8201969","2019-02-09 12:00","2019","02","09","12:00","-10.9","","-14.4","","75","","","","29","","54","","","","100.48","","","","-23","","NA"
"-61.05","46.55","GRAND ETANG","8201969","2019-02-09 13:00","2019","02","09","13:00","-11.0","","-15.0","","72","","","","30","","51","","","","100.49","","","","-23","","NA"
"-61.05","46.55","GRAND ETANG","8201969","2019-02-09 14:00","2019","02","09","14:00","-10.8","","-15.4","","69","","","","29","","52","","","","100.45","","","","-23","","NA"
"-61.05","46.55","GRAND ETANG","8201969","2019-02-09 15:00","2019","02","09","15:00","-10.9","","-15.4","","69","","","","29","","49","","","","100.49","","","","-23","","NA"
"-61.05","46.55","GRAND ETANG","8201969","2019-02-09 16:00","2019","02","09","16:00","-11.6","","-14.2","","81","","","","29","","52","","","","100.59","","","","-24","","NA"
"-61.05","46.55","GRAND ETANG","8201969","2019-02-09 17:00","2019","02","09","17:00","-12.2","","-13.6","","89","","","","29","","48","","","","100.65","","","","-25","","NA"
"-61.05","46.55","GRAND ETANG","8201969","2019-02-09 18:00","2019","02","09","18:00","-12.2","","-14.3","","85","","","","29","","52","","","","100.73","","","","-25","","NA"
"-61.05","46.55","GRAND ETANG","8201969","2019-02-09 19:00","2019","02","09","19:00","-11.7","","-15.1","","76","","","","29","","52","","","","100.83","","","","-24","","NA"
"-61.05","46.55","GRAND ETANG","8201969","2019-02-09 20:00","2019","02","09","20:00","-10.9","","-15.2","","71","","","","29","","46","","","","100.85","","","","-23","","NA"
"-61.05","46.55","GRAND ETANG","8201969","2019-02-09 21:00","2019","02","09","21:00","-10.6","","-12.3","","87","","","","28","","48","","","","100.85","","","","-22","","NA"
"-61.05","46.55","GRAND ETANG","8201969","2019-02-09 22:00","2019","02","09","22:00","-9.9","","","M","100","","","","28","","42","","","","100.81","","","","-21","","NA"
"-61.05","46.55","GRAND ETANG","8201969","2019-02-09 23:00","2019","02","09","23:00","-9.5","","-12.4","","79","","","","29","","56","","","","100.82","","","","-22","","NA"
"-61.05","46.55","GRAND ETANG","8201969","2019-02-10 00:00","2019","02","10","00:00","-9.2","","-13.8","","69","","","","29","","54","","","","100.82","","","","-21","","NA"
"-61.05","46.55","GRAND ETANG","8201969","2019-02-10 01:00","2019","02","10","01:00","-9.1","","-13.2","","72","","","","29","","57","","","","100.90","","","","-21","","NA"
"-61.05","46.55","GRAND ETANG","8201969","2019-02-10 02:00","2019","02","10","02:00","-9.0","","-12.7","","75","","","","29","","53","","","","100.90","","","","-21","","NA"
"-61.05","46.55","GRAND ETANG","8201969","2019-02-10 03:00","2019","02","10","03:00","-9.3","","-13.0","","74","","","","28","","61","","","","100.96","","","","-22","","NA"
"-61.05","46.55","GRAND ETANG","8201969","2019-02-10 04:00","2019","02","10","04:00","-9.6","","-13.4","","74","","","","28","","60","","","","100.99","","","","-22","","NA"
"-61.05","46.55","GRAND ETANG","8201969","2019-02-10 05:00","2019","02","10","05:00","-9.9","","-13.8","","73","","","","28","","58","","","","101.03","","","","-22","","NA"
"-61.05","46.55","GRAND ETANG","8201969","2019-02-10 06:00","2019","02","10","06:00","-10.2","","-14.4","","71","","","","28","","54","","","","101.07","","","","-22","","NA"
"-61.05","46.55","GRAND ETANG","8201969","2019-02-10 07:00","2019","02","10","07:00","-10.4","","-15.0","","68","","","","28","","55","","","","101.12","","","","-23","","NA"
"-61.05","46.55","GRAND ETANG","8201969","2019-02-10 08:00","2019","02","10","08:00","-10.6","","-14.8","","71","","","","28","","59","","","","101.10","","","","-23","","NA"
"-61.05","46.55","GRAND ETANG","8201969","2019-02-10 09:00","2019","02","10","09:00","-10.6","","-14.3","","74","","","","28","","56","","","","101.11","","","","-23","","NA"
"-61.05","46.55","GRAND ETANG","8201969","2019-02-10 10:00","2019","02","10","10:00","-10.7","","-14.4","","74","","","","28","","61","","","","101.13","","","","-24","","NA"
"-61.05","46.55","GRAND ETANG","8201969","2019-02-10 11:00","2019","02","10","11:00","-10.5","","-13.6","","78","","","","28","","52","","","","101.15","","","","-23","","NA"
"-61.05","46.55","GRAND ETANG","8201969","2019-02-10 12:00","2019","02","10","12:00","-10.4","","-13.7","","76","","","","28","","55","","","","101.13","","","","-23","","NA"
"-61.05","46.55","GRAND ETANG","8201969","2019-02-10 13:00","2019","02","10","13:00","-10.1","","-13.1","","79","","","","28","","55","","","","101.13","","","","-22","","NA"
"-61.05","46.55","GRAND ETANG","8201969","2019-02-10 14:00","2019","02","10","14:00","-9.9","","-13.4","","76","","","","28","","55","","","","101.13","","","","-22","","NA"
"-61.05","46.55","GRAND ETANG","8201969","2019-02-10 15:00","2019","02","10","15:00","-9.5","","-13.4","","73","","","","28","","52","","","","101.14","","","","-21","","NA"
"-61.05","46.55","GRAND ETANG","8201969","2019-02-10 16:00","2019","02","10","16:00","-9.2","","-13.5","","70","","","","28","","48","","","","101.17","","","","-20","","NA"
"-61.05","46.55","GRAND ETANG","8201969","2019-02-10 17:00","2019","02","10","17:00","-8.7","","-13.5","","68","","","","29","","43","","","","101.17","","","","-19","","NA"
"-61.05","46.55","GRAND ETANG","8201969","2019-02-10 18:00","2019","02","10","18:00","-9.1","","-13.3","","71","","","","29","","37","","","","101.16","","","","-19","","NA"
"-61.05","46.55","GRAND ETANG","8201969","2019-02-10 19:00","2019","02","10","19:00","-9.0","","-12.8","","74","","","","28","","37","","","","101.17","","","","-19","","NA"
"-61.05","46.55","GRAND ETANG","8201969","2019-02-10 20:00","2019","02","10","20:00","-8.7","","-12.9","","72","","","","29","","46","","","","101.16","","","","-20","","NA"
"-61.05","46.55","GRAND ETANG","8201969","2019-02-10 21:00","2019","02","10","21:00","-8.9","","-13.2","","71","","","","28","","58","","","","101.11","","","","-21","","NA"
"-61.05","46.55","GRAND ETANG","8201969","2019-02-10 22:00","2019","02","10","22:00","-9.6","","-14.5","","67","","","","29","","52","","","","101.11","","","","-21","","NA"
"-61.05","46.55","GRAND ETANG","8201969","2019-02-10 23:00","2019","02","10","23:00","-10.1","","-14.3","","71","","","","28","","57","","","","100.99","","","","-23","","NA"
"-61.05","46.55","GRAND ETANG","8201969","2019-02-11 00:00","2019","02","11","00:00","-10.4","","-14.1","","74","","","","28","","50","","","","101.00","","","","-22","","NA"
"-61.05","46.55","GRAND ETANG","8201969","2019-02-11 01:00","2019","02","11","01:00","-10.6","","-14.3","","74","","","","28","","48","","","","100.96","","","","-22","","NA"
"-61.05","46.55","GRAND ETANG","8201969","2019-02-11 02:00","2019","02","11","02:00","-10.9","","-14.6","","74","","","","28","","46","","","","100.90","","","","-23","","NA"
"-61.05","46.55","GRAND ETANG","8201969","2019-02-11 03:00","2019","02","11","03:00","-11.2","","-14.6","","76","","","","28","","49","","","","100.91","","","","-23","","NA"
"-61.05","46.55","GRAND ETANG","8201969","2019-02-11 04:00","2019","02","11","04:00","-11.3","","-14.9","","74","","","","28","","46","","","","100.89","","","","-23","","NA"
"-61.05","46.55","GRAND ETANG","8201969","2019-02-11 05:00","2019","02","11","05:00","-11.7","","-15.3","","75","","","","27","","50","","","","100.82","","","","-24","","NA"
"-61.05","46.55","GRAND ETANG","8201969","2019-02-11 06:00","2019","02","11","06:00","-11.8","","-15.1","","76","","","","28","","51","","","","100.81","","","","-24","","NA"
"-61.05","46.55","GRAND ETANG","8201969","2019-02-11 07:00","2019","02","11","07:00","-11.9","","-15.2","","77","","","","28","","45","","","","100.84","","","","-24","","NA"
"-61.05","46.55","GRAND ETANG","8201969","2019-02-11 08:00","2019","02","11","08:00","-12.3","","-15.1","","79","","","","28","","46","","","","100.87","","","","-25","","NA"
"-61.05","46.55","GRAND ETANG","8201969","2019-02-11 09:00","2019","02","11","09:00","-12.3","","-15.9","","75","","","","28","","49","","","","100.90","","","","-25","","NA"
"-61.05","46.55","GRAND ETANG","8201969","2019-02-11 10:00","2019","02","11","10:00","-12.5","","-15.2","","80","","","","28","","43","","","","100.90","","","","-24","","NA"
"-61.05","46.55","GRAND ETANG","8201969","2019-02-11 11:00","2019","02","11","11:00","-12.5","","-15.6","","77","","","","28","","46","","","","100.91","","","","-25","","NA"
"-61.05","46.55","GRAND ETANG","8201969","2019-02-11 12:00","2019","02","11","12:00","-12.2","","-14.8","","81","","","","27","","43","","","","100.88","","","","-24","","NA"
"-61.05","46.55","GRAND ETANG","8201969","2019-02-11 13:00","2019","02","11","13:00","-11.8","","-14.3","","81","","","","28","","40","","","","100.87","","","","-23","","NA"
"-61.05","46.55","GRAND ETANG","8201969","2019-02-11 14:00","2019","02","11","14:00","-12.0","","-13.0","","92","","","","29","","37","","","","100.90","","","","-23","","NA"
"-61.05","46.55","GRAND ETANG","8201969","2019-02-11 15:00","2019","02","11","15:00","-11.9","","-13.1","","91","","","","30","","31","","","","100.96","","","","-22","","NA"
"-61.05","46.55","GRAND ETANG","8201969","2019-02-11 16:00","2019","02","11","16:00","-11.8","","-14.1","","83","","","","30","","31","","","","101.02","","","","-22","","NA"
"-61.05","46.55","GRAND ETANG","8201969","2019-02-11 17:00","2019","02","11","17:00","-11.5","","-14.9","","76","","","","30","","33","","","","101.08","","","","-22","","NA"
"-61.05","46.55","GRAND ETANG","8201969","2019-02-11 18:00","2019","02","11","18:00","-11.2","","-14.5","","77","","","","30","","33","","","","101.14","","","","-22","","NA"
"-61.05","46.55","GRAND ETANG","8201969","2019-02-11 19:00","2019","02","11","19:00","-10.8","","-13.1","","83","","","","30","","32","","","","101.22","","","","-21","","NA"
"-61.05","46.55","GRAND ETANG","8201969","2019-02-11 20:00","2019","02","11","20:00","-10.1","","-12.5","","82","","","","31","","30","","","","101.27","","","","-20","","NA"
"-61.05","46.55","GRAND ETANG","8201969","2019-02-11 21:00","2019","02","11","21:00","-9.6","","-12.3","","81","","","","32","","26","","","","101.35","","","","-18","","NA"
"-61.05","46.55","GRAND ETANG","8201969","2019-02-11 22:00","2019","02","11","22:00","-9.5","","-12.3","","80","","","","31","","26","","","","101.40","","","","-18","","NA"
"-61.05","46.55","GRAND ETANG","8201969","2019-02-11 23:00","2019","02","11","23:00","-9.2","","-11.7","","82","","","","30","","28","","","","101.47","","","","-18","","NA"
"-61.05","46.55","GRAND ETANG","8201969","2019-02-12 00:00","2019","02","12","00:00","-9.1","","-11.6","","82","","","","30","","34","","","","101.54","","","","-19","","NA"
"-61.05","46.55","GRAND ETANG","8201969","2019-02-12 01:00","2019","02","12","01:00","-8.5","","-10.5","","86","","","","30","","31","","","","101.57","","","","-18","","NA"
"-61.05","46.55","GRAND ETANG","8201969","2019-02-12 02:00","2019","02","12","02:00","-8.4","","-10.4","","85","","","","30","","36","","","","101.61","","","","-18","","NA"
"-61.05","46.55","GRAND ETANG","8201969","2019-02-12 03:00","2019","02","12","03:00","-8.0","","-10.0","","86","","","","30","","25","","","","101.67","","","","-16","","NA"
"-61.05","46.55","GRAND ETANG","8201969","2019-02-12 04:00","2019","02","12","04:00","-8.0","","-9.9","","86","","","","29","","19","","","","101.72","","","","-15","","NA"
"-61.05","46.55","GRAND ETANG","8201969","2019-02-12 05:00","2019","02","12","05:00","-7.8","","-9.5","","88","","","","30","","18","","","","101.78","","","","-15","","NA"
"-61.05","46.55","GRAND ETANG","8201969","2019-02-12 06:00","2019","02","12","06:00","-7.2","","-8.6","","90","","","","31","","26","","","","101.86","","","","-15","","NA"
"-61.05","46.55","GRAND ETANG","8201969","2019-02-12 07:00","2019","02","12","07:00","-6.5","","-8.4","","86","","","","31","","25","","","","101.97","","","","-14","","NA"
"-61.05","46.55","GRAND ETANG","8201969","2019-02-12 08:00","2019","02","12","08:00","-6.7","","-8.6","","87","","","","30","","21","","","","102.12","","","","-14","","NA"
"-61.05","46.55","GRAND ETANG","8201969","2019-02-12 09:00","2019","02","12","09:00","-6.9","","-8.6","","87","","","","30","","24","","","","102.18","","","","-15","","NA"
"-61.05","46.55","GRAND ETANG","8201969","2019-02-12 10:00","2019","02","12","10:00","-6.8","","-8.5","","87","","","","30","","33","","","","102.23","","","","-16","","NA"
"-61.05","46.55","GRAND ETANG","8201969","2019-02-12 11:00","2019","02","12","11:00","-6.9","","-8.9","","85","","","","31","","40","","","","102.32","","","","-17","","NA"
"-61.05","46.55","GRAND ETANG","8201969","2019-02-12 12:00","2019","02","12","12:00","-6.5","","-8.8","","84","","","","31","","38","","","","102.37","","","","-16","","NA"
"-61.05","46.55","GRAND ETANG","8201969","2019-02-12 13:00","2019","02","12","13:00","-6.3","","-8.3","","85","","","","31","","33","","","","102.37","","","","-15","","NA"
"-61.05","46.55","GRAND ETANG","8201969","2019-02-12 14:00","2019","02","12","14:00","-7.0","","-9.7","","81","","","","31","","38","","","","102.47","","","","-17","","NA"
"-61.05","46.55","GRAND ETANG","8201969","2019-02-12 15:00","2019","02","12","15:00","-7.3","","-9.8","","82","","","","32","","29","","","","102.51","","","","-16","","NA"
"-61.05","46.55","GRAND ETANG","8201969","2019-02-12 16:00","2019","02","12","16:00","-7.6","","-10.0","","83","","","","31","","30","","","","102.51","","","","-16","","NA"
"-61.05","46.55","GRAND ETANG","8201969","2019-02-12 17:00","2019","02","12","17:00","-7.9","","-9.9","","85","","","","31","","29","","","","102.51","","","","-17","","NA"
"-61.05","46.55","GRAND ETANG","8201969","2019-02-12 18:00","2019","02","12","18:00","-8.0","","-10.2","","84","","","","31","","27","","","","102.58","","","","-16","","NA"
"-61.05","46.55","GRAND ETANG","8201969","2019-02-12 19:00","2019","02","12","19:00","-8.1","","-10.2","","85","","","","30","","23","","","","102.65","","","","-16","","NA"
"-61.05","46.55","GRAND ETANG","8201969","2019-02-12 20:00","2019","02","12","20:00","-8.2","","-10.0","","87","","","","31","","22","","","","102.60","","","","-16","","NA"
"-61.05","46.55","GRAND ETANG","8201969","2019-02-12 21:00","2019","02","12","21:00","-8.1","","-9.6","","89","","","","31","","20","","","","102.66","","","","-15","","NA"
"-61.05","46.55","GRAND ETANG","8201969","2019-02-12 22:00","2019","02","12","22:00","-8.3","","-9.7","","89","","","","30","","15","","","","102.66","","","","-15","","NA"
"-61.05","46.55","GRAND ETANG","8201969","2019-02-12 23:00","2019","02","12","23:00","-8.3","","-9.6","","90","","","","29","","11","","","","102.57","","","","-14","","NA"
"-61.05","46.55","GRAND ETANG","8201969","2019-02-13 00:00","2019","02","13","00:00","-8.5","","-9.7","","91","","","","29","","9","","","","102.52","","","","-13","","NA"
"-61.05","46.55","GRAND ETANG","8201969","2019-02-13 01:00","2019","02","13","01:00","-8.5","","-9.7","","91","","","","18","","5","","","","102.55","","","","-11","","NA"
"-61.05","46.55","GRAND ETANG","8201969","2019-02-13 02:00","2019","02","13","02:00","-8.9","","-10.0","","92","","","","16","","4","","","","102.55","","","","-11","","NA"
"-61.05","46.55","GRAND ETANG","8201969","2019-02-13 03:00","2019","02","13","03:00","-8.7","","-9.8","","92","","","","","","0","","","","102.49","","","","","","NA"
"-61.05","46.55","GRAND ETANG","8201969","2019-02-13 04:00","2019","02","13","04:00","-9.0","","-10.1","","92","","","","15","","3","","","","102.43","","","","-11","","NA"
"-61.05","46.55","GRAND ETANG","8201969","2019-02-13 05:00","2019","02","13","05:00","-8.7","","-9.7","","92","","","","19","","4","","","","102.36","","","","-11","","NA"
"-61.05","46.55","GRAND ETANG","8201969","2019-02-13 06:00","2019","02","13","06:00","-8.3","","-9.4","","92","","","","21","","5","","","","102.40","","","","-11","","NA"
"-61.05","46.55","GRAND ETANG","8201969","2019-02-13 07:00","2019","02","13","07:00","-8.3","","-9.4","","92","","","","20","","4","","","","102.24","","","","-10","","NA"
"-61.05","46.55","GRAND ETANG","8201969","2019-02-13 08:00","2019","02","13","08:00","-7.9","","-9.0","","92","","","","24","","5","","","","102.26","","","","-11","","NA"
"-61.05","46.55","GRAND ETANG","8201969","2019-02-13 09:00","2019","02","13","09:00","-7.3","","-8.6","","90","","","","33","","4","","","","102.12","","","","-9","","NA"
"-61.05","46.55","GRAND ETANG","8201969","2019-02-13 10:00","2019","02","13","10:00","-7.3","","-8.5","","91","","","","30","","5","","","","101.88","","","","-10","","NA"
"-61.05","46.55","GRAND ETANG","8201969","2019-02-13 11:00","2019","02","13","11:00","-7.0","","-7.9","","93","","","","31","","6","","","","101.69","","","","-10","","NA"
"-61.05","46.55","GRAND ETANG","8201969","2019-02-13 12:00","2019","02","13","12:00","-6.5","","-6.6","","99","","","","11","","3","","","","101.49","","","","-8","","NA"
"-61.05","46.55","GRAND ETANG","8201969","2019-02-13 13:00","2019","02","13","13:00","-6.8","","","M","100","","","","34","","9","","","","101.35","","","","-11","","NA"
"-61.05","46.55","GRAND ETANG","8201969","2019-02-13 14:00","2019","02","13","14:00","-6.7","","","M","100","","","","35","","9","","","","100.99","","","","-11","","NA"
"-61.05","46.55","GRAND ETANG","8201969","2019-02-13 15:00","2019","02","13","15:00","-6.2","","","M","100","","","","13","","22","","","","100.76","","","","-13","","NA"
"-61.05","46.55","GRAND ETANG","8201969","2019-02-13 16:00","2019","02","13","16:00","-5.3","","","M","100","","","","11","","60","","","","100.40","","","","-16","","NA"
"-61.05","46.55","GRAND ETANG","8201969","2019-02-13 17:00","2019","02","13","17:00","-4.9","","-5.0","","99","","","","9","","46","","","","100.25","","","","-14","","NA"
"-61.05","46.55","GRAND ETANG","8201969","2019-02-13 18:00","2019","02","13","18:00","-4.0","","-4.2","","99","","","","11","","96","","","","","M","","","-16","","NA"
"-61.05","46.55","GRAND ETANG","8201969","2019-02-13 19:00","2019","02","13","19:00","-2.5","","-3.5","","92","","","","11","","98","","","","","M","","","-14","","NA"
"-61.05","46.55","GRAND ETANG","8201969","2019-02-13 20:00","2019","02","13","20:00","-1.9","","-3.4","","89","","","","11","","102","","","","98.80","","","","-13","","NA"
"-61.05","46.55","GRAND ETANG","8201969","2019-02-13 21:00","2019","02","13","21:00","-1.4","","-3.7","","84","","","","11","","91","","","","98.92","","","","-12","","NA"
"-61.05","46.55","GRAND ETANG","8201969","2019-02-13 22:00","2019","02","13","22:00","-0.8","","-4.0","","78","","","","11","","82","","","","99.08","","","","-11","","NA"
"-61.05","46.55","GRAND ETANG","8201969","2019-02-13 23:00","2019","02","13","23:00","0.0","","-3.8","","76","","","","11","","66","","","","98.98","","","","-9","","NA"
"-61.05","46.55","GRAND ETANG","8201969","2019-02-14 00:00","2019","02","14","00:00","0.5","","-3.1","","77","","","","13","","44","","","","98.95","","","","","","NA"
"-61.05","46.55","GRAND ETANG","8201969","2019-02-14 01:00","2019","02","14","01:00","1.8","","-2.1","","75","","","","14","","24","","","","98.94","","","","","","NA"
"-61.05","46.55","GRAND ETANG","8201969","2019-02-14 02:00","2019","02","14","02:00","1.8","","-0.6","","84","","","","19","","16","","","","98.96","","","","","","NA"
"-61.05","46.55","GRAND ETANG","8201969","2019-02-14 03:00","2019","02","14","03:00","0.7","","","M","100","","","","19","","19","","","","99.00","","","","","","NA"
"-61.05","46.55","GRAND ETANG","8201969","2019-02-14 04:00","2019","02","14","04:00","-3.4","","","M","","M","","","25","","44","","","","99.15","","","","-12","","NA"
"-61.05","46.55","GRAND ETANG","8201969","2019-02-14 05:00","2019","02","14","05:00","-4.1","","-4.3","","99","","","","24","","33","","","","99.21","","","","-12","","NA"
"-61.05","46.55","GRAND ETANG","8201969","2019-02-14 06:00","2019","02","14","06:00","-4.8","","-5.2","","97","","","","23","","36","","","","99.28","","","","-13","","NA"
"-61.05","46.55","GRAND ETANG","8201969","2019-02-14 07:00","2019","02","14","07:00","-5.3","","-6.1","","94","","","","23","","36","","","","99.34","","","","-14","","NA"
"-61.05","46.55","GRAND ETANG","8201969","2019-02-14 08:00","2019","02","14","08:00","-5.3","","-6.1","","94","","","","24","","36","","","","99.45","","","","-14","","NA"
"-61.05","46.55","GRAND ETANG","8201969","2019-02-14 09:00","2019","02","14","09:00","-5.8","","-6.6","","94","","","","23","","43","","","","99.49","","","","-15","","NA"
"-61.05","46.55","GRAND ETANG","8201969","2019-02-14 10:00","2019","02","14","10:00","-6.0","","-6.8","","95","","","","23","","45","","","","99.53","","","","-16","","NA"
"-61.05","46.55","GRAND ETANG","8201969","2019-02-14 11:00","2019","02","14","11:00","-5.7","","-6.7","","93","","","","24","","38","","","","99.60","","","","-15","","NA"
"-61.05","46.55","GRAND ETANG","8201969","2019-02-14 12:00","2019","02","14","12:00","-5.5","","-7.2","","88","","","","25","","43","","","","99.65","","","","-15","","NA"
"-61.05","46.55","GRAND ETANG","8201969","2019-02-14 13:00","2019","02","14","13:00","-5.9","","-7.3","","90","","","","26","","44","","","","99.68","","","","-16","","NA"
"-61.05","46.55","GRAND ETANG","8201969","2019-02-14 14:00","2019","02","14","14:00","-5.9","","-6.8","","93","","","","26","","39","","","","99.77","","","","-15","","NA"
"-61.05","46.55","GRAND ETANG","8201969","2019-02-14 15:00","2019","02","14","15:00","-5.6","","-6.3","","95","","","","27","","38","","","","99.89","","","","-15","","NA"
"-61.05","46.55","GRAND ETANG","8201969","2019-02-14 16:00","2019","02","14","16:00","-5.6","","-7.0","","90","","","","27","","36","","","","100.03","","","","-14","","NA"
"-61.05","46.55","GRAND ETANG","8201969","2019-02-14 17:00","2019","02","14","17:00","-5.9","","-6.4","","96","","","","27","","37","","","","100.14","","","","-15","","NA"
"-61.05","46.55","GRAND ETANG","8201969","2019-02-14 18:00","2019","02","14","18:00","-6.0","","","M","100","","","","29","","41","","","","100.30","","","","-16","","NA"
"-61.05","46.55","GRAND ETANG","8201969","2019-02-14 19:00","2019","02","14","19:00","-6.7","","-6.8","","99","","","","29","","36","","","","100.46","","","","-16","","NA"
"-61.05","46.55","GRAND ETANG","8201969","2019-02-14 20:00","2019","02","14","20:00","-7.0","","-7.3","","98","","","","30","","32","","","","100.68","","","","-16","","NA"
"-61.05","46.55","GRAND ETANG","8201969","2019-02-14 21:00","2019","02","14","21:00","-7.6","","-8.8","","91","","","","30","","28","","","","100.82","","","","-16","","NA"
"-61.05","46.55","GRAND ETANG","8201969","2019-02-14 22:00","2019","02","14","22:00","-7.7","","-9.3","","88","","","","30","","22","","","","100.96","","","","-15","","NA"
"-61.05","46.55","GRAND ETANG","8201969","2019-02-14 23:00","2019","02","14","23:00","-7.7","","-9.1","","90","","","","29","","17","","","","101.09","","","","-14","","NA"
"-61.05","46.55","GRAND ETANG","8201969","2019-02-15 00:00","2019","02","15","00:00","-8.2","","-9.0","","94","","","","27","","14","","","","101.24","","","","-14","","NA"
"-61.05","46.55","GRAND ETANG","8201969","2019-02-15 01:00","2019","02","15","01:00","-7.9","","-8.5","","95","","","","29","","16","","","","101.37","","","","-14","","NA"
"-61.05","46.55","GRAND ETANG","8201969","2019-02-15 02:00","2019","02","15","02:00","-7.2","","-7.6","","97","","","","28","","16","","","","101.54","","","","-14","","NA"
"-61.05","46.55","GRAND ETANG","8201969","2019-02-15 03:00","2019","02","15","03:00","-7.0","","-7.3","","98","","","","30","","20","","","","101.63","","","","-14","","NA"
"-61.05","46.55","GRAND ETANG","8201969","2019-02-15 04:00","2019","02","15","04:00","-6.7","","-6.9","","98","","","","30","","18","","","","101.73","","","","-13","","NA"
"-61.05","46.55","GRAND ETANG","8201969","2019-02-15 05:00","2019","02","15","05:00","-6.8","","-6.9","","99","","","","30","","20","","","","101.83","","","","-14","","NA"
"-61.05","46.55","GRAND ETANG","8201969","2019-02-15 06:00","2019","02","15","06:00","-6.7","","-6.8","","99","","","","31","","13","","","","101.95","","","","-12","","NA"
"-61.05","46.55","GRAND ETANG","8201969","2019-02-15 07:00","2019","02","15","07:00","-6.5","","-6.6","","99","","","","32","","9","","","","102.04","","","","-11","","NA"
"-61.05","46.55","GRAND ETANG","8201969","2019-02-15 08:00","2019","02","15","08:00","-6.3","","-6.6","","98","","","","29","","9","","","","102.16","","","","-11","","NA"
"-61.05","46.55","GRAND ETANG","8201969","2019-02-15 09:00","2019","02","15","09:00","-5.8","","-6.8","","93","","","","21","","5","","","","102.27","","","","-8","","NA"
"-61.05","46.55","GRAND ETANG","8201969","2019-02-15 10:00","2019","02","15","10:00","-5.0","","-6.7","","88","","","","21","","7","","","","102.37","","","","-8","","NA"
"-61.05","46.55","GRAND ETANG","8201969","2019-02-15 11:00","2019","02","15","11:00","-4.4","","-6.5","","86","","","","24","","11","","","","102.40","","","","-9","","NA"
"-61.05","46.55","GRAND ETANG","8201969","2019-02-15 12:00","2019","02","15","12:00","-4.9","","-6.8","","87","","","","23","","13","","","","102.47","","","","-10","","NA"
"-61.05","46.55","GRAND ETANG","8201969","2019-02-15 13:00","2019","02","15","13:00","-3.9","","-6.3","","83","","","","25","","9","","","","102.35","","","","-8","","NA"
"-61.05","46.55","GRAND ETANG","8201969","2019-02-15 14:00","2019","02","15","14:00","-4.2","","-7.4","","79","","","","28","","5","","","","102.37","","","","-6","","NA"
"-61.05","46.55","GRAND ETANG","8201969","2019-02-15 15:00","2019","02","15","15:00","-4.5","","-8.5","","74","","","","0","","1","","","","102.31","","","","-5","","NA"
"-61.05","46.55","GRAND ETANG","8201969","2019-02-15 16:00","2019","02","15","16:00","-3.3","","-7.2","","74","","","","16","","17","","","","102.29","","","","-9","","NA"
"-61.05","46.55","GRAND ETANG","8201969","2019-02-15 17:00","2019","02","15","17:00","-3.7","","-7.4","","75","","","","14","","12","","","","102.04","","","","-8","","NA"
"-61.05","46.55","GRAND ETANG","8201969","2019-02-15 18:00","2019","02","15","18:00","-3.7","","-7.8","","73","","","","19","","9","","","","102.03","","","","-7","","NA"
"-61.05","46.55","GRAND ETANG","8201969","2019-02-15 19:00","2019","02","15","19:00","-3.8","","-7.6","","75","","","","21","","13","","","","101.97","","","","-9","","NA"
"-61.05","46.55","GRAND ETANG","8201969","2019-02-15 20:00","2019","02","15","20:00","-4.0","","-7.8","","75","","","","20","","15","","","","102.05","","","","-9","","NA"
"-61.05","46.55","GRAND ETANG","8201969","2019-02-15 21:00","2019","02","15","21:00","-4.5","","-8.7","","73","","","","19","","18","","","","101.96","","","","-11","","NA"
"-61.05","46.55","GRAND ETANG","8201969","2019-02-15 22:00","2019","02","15","22:00","-4.3","","-8.0","","75","","","","20","","14","","","","101.94","","","","-9","","NA"
"-61.05","46.55","GRAND ETANG","8201969","2019-02-15 23:00","2019","02","15","23:00","-3.5","","-7.3","","75","","","","20","","17","","","","101.89","","","","-9","","NA"
"-61.05","46.55","GRAND ETANG","8201969","2019-02-16 00:00","2019","02","16","00:00","-2.7","","-6.5","","75","","","","20","","25","","","","101.78","","","","-9","","NA"
"-61.05","46.55","GRAND ETANG","8201969","2019-02-16 01:00","2019","02","16","01:00","-2.1","","-6.0","","75","","","","14","","43","","","","101.52","","","","-10","","NA"
"-61.05","46.55","GRAND ETANG","8201969","2019-02-16 02:00","2019","02","16","02:00","-1.1","","-5.1","","74","","","","15","","44","","","","101.27","","","","-9","","NA"
"-61.05","46.55","GRAND ETANG","8201969","2019-02-16 03:00","2019","02","16","03:00","0.5","","-2.7","","79","","","","14","","45","","","","101.06","","","","","","NA"
"-61.05","46.55","GRAND ETANG","8201969","2019-02-16 04:00","2019","02","16","04:00","2.2","","-0.9","","80","","","","15","","58","","","","100.82","","","","","","NA"
"-61.05","46.55","GRAND ETANG","8201969","2019-02-16 05:00","2019","02","16","05:00","3.1","","0.1","","81","","","","14","","53","","","","100.69","","","","","","NA"
"-61.05","46.55","GRAND ETANG","8201969","2019-02-16 06:00","2019","02","16","06:00","3.8","","0.8","","81","","","","14","","51","","","","100.57","","","","","","NA"
"-61.05","46.55","GRAND ETANG","8201969","2019-02-16 07:00","2019","02","16","07:00","4.4","","1.7","","82","","","","15","","60","","","","100.52","","","","","","NA"
"-61.05","46.55","GRAND ETANG","8201969","2019-02-16 08:00","2019","02","16","08:00","6.4","","3.4","","81","","","","16","","55","","","","100.49","","","","","","NA"
"-61.05","46.55","GRAND ETANG","8201969","2019-02-16 09:00","2019","02","16","09:00","6.7","","4.5","","86","","","","16","","54","","","","100.40","","","","","","NA"
"-61.05","46.55","GRAND ETANG","8201969","2019-02-16 10:00","2019","02","16","10:00","6.8","","4.8","","87","","","","15","","55","","","","100.23","","","","","","NA"
"-61.05","46.55","GRAND ETANG","8201969","2019-02-16 11:00","2019","02","16","11:00","7.3","","6.8","","97","","","","17","","48","","","","100.20","","","","","","NA"
"-61.05","46.55","GRAND ETANG","8201969","2019-02-16 12:00","2019","02","16","12:00","7.6","","6.9","","96","","","","16","","48","","","","100.00","","","","","","NA"
"-61.05","46.55","GRAND ETANG","8201969","2019-02-16 13:00","2019","02","16","13:00","8.1","","6.9","","92","","","","17","","39","","","","99.84","","","","","","NA"
"-61.05","46.55","GRAND ETANG","8201969","2019-02-16 14:00","2019","02","16","14:00","8.3","","6.9","","91","","","","16","","38","","","","99.69","","","","","","NA"
"-61.05","46.55","GRAND ETANG","8201969","2019-02-16 15:00","2019","02","16","15:00","7.7","","6.9","","95","","","","21","","32","","","","99.64","","","","","","NA"
"-61.05","46.55","GRAND ETANG","8201969","2019-02-16 16:00","2019","02","16","16:00","7.9","","7.2","","96","","","","18","","26","","","","99.58","","","","","","NA"
"-61.05","46.55","GRAND ETANG","8201969","2019-02-16 17:00","2019","02","16","17:00","3.6","","","M","","M","","","18","","16","","","","99.66","","","","","","NA"
"-61.05","46.55","GRAND ETANG","8201969","2019-02-16 18:00","2019","02","16","18:00","0.4","","","M","","M","","","31","","11","","","","99.79","","","","","","NA"
"-61.05","46.55","GRAND ETANG","8201969","2019-02-16 19:00","2019","02","16","19:00","-0.1","","","M","","M","","","3","","6","","","","99.88","","","","-2","","NA"
"-61.05","46.55","GRAND ETANG","8201969","2019-02-16 20:00","2019","02","16","20:00","-0.6","","","M","","M","","","5","","3","","","","99.92","","","","-2","","NA"
"-61.05","46.55","GRAND ETANG","8201969","2019-02-16 21:00","2019","02","16","21:00","-0.7","","","M","","M","","","29","","7","","","","99.96","","","","-3","","NA"
"-61.05","46.55","GRAND ETANG","8201969","2019-02-16 22:00","2019","02","16","22:00","-0.9","","","M","","M","","","26","","4","","","","100.00","","","","-2","","NA"
"-61.05","46.55","GRAND ETANG","8201969","2019-02-16 23:00","2019","02","16","23:00","-0.9","","","M","","M","","","26","","11","","","","99.97","","","","-5","","NA"
"-61.05","46.55","GRAND ETANG","8201969","2019-02-17 00:00","2019","02","17","00:00","-0.9","","","M","","M","","","27","","20","","","","100.02","","","","-6","","NA"
"-61.05","46.55","GRAND ETANG","8201969","2019-02-17 01:00","2019","02","17","01:00","-1.1","","","M","100","","","","27","","23","","","","100.09","","","","-7","","NA"
"-61.05","46.55","GRAND ETANG","8201969","2019-02-17 02:00","2019","02","17","02:00","-1.1","","-1.5","","97","","","","27","","23","","","","100.12","","","","-7","","NA"
"-61.05","46.55","GRAND ETANG","8201969","2019-02-17 03:00","2019","02","17","03:00","-1.3","","-1.8","","96","","","","28","","23","","","","100.15","","","","-7","","NA"
"-61.05","46.55","GRAND ETANG","8201969","2019-02-17 04:00","2019","02","17","04:00","-1.8","","-2.2","","97","","","","28","","24","","","","100.22","","","","-8","","NA"
"-61.05","46.55","GRAND ETANG","8201969","2019-02-17 05:00","2019","02","17","05:00","-2.4","","-4.0","","89","","","","30","","31","","","","100.33","","","","-10","","NA"
"-61.05","46.55","GRAND ETANG","8201969","2019-02-17 06:00","2019","02","17","06:00","-3.7","","-5.4","","88","","","","29","","33","","","","100.47","","","","-12","","NA"
"-61.05","46.55","GRAND ETANG","8201969","2019-02-17 07:00","2019","02","17","07:00","-4.5","","-6.1","","89","","","","28","","34","","","","100.54","","","","-13","","NA"
"-61.05","46.55","GRAND ETANG","8201969","2019-02-17 08:00","2019","02","17","08:00","-5.3","","-7.3","","86","","","","29","","37","","","","100.71","","","","-14","","NA"
"-61.05","46.55","GRAND ETANG","8201969","2019-02-17 09:00","2019","02","17","09:00","-5.6","","-7.6","","86","","","","27","","29","","","","100.81","","","","-14","","NA"
"-61.05","46.55","GRAND ETANG","8201969","2019-02-17 10:00","2019","02","17","10:00","-5.8","","-8.0","","84","","","","29","","32","","","","100.86","","","","-14","","NA"
"-61.05","46.55","GRAND ETANG","8201969","2019-02-17 11:00","2019","02","17","11:00","-6.0","","-8.2","","84","","","","29","","28","","","","100.92","","","","-14","","NA"
"-61.05","46.55","GRAND ETANG","8201969","2019-02-17 12:00","2019","02","17","12:00","-6.7","","-8.8","","85","","","","30","","28","","","","100.93","","","","-15","","NA"
"-61.05","46.55","GRAND ETANG","8201969","2019-02-17 13:00","2019","02","17","13:00","-7.3","","-9.7","","83","","","","30","","35","","","","100.97","","","","-17","","NA"
"-61.05","46.55","GRAND ETANG","8201969","2019-02-17 14:00","2019","02","17","14:00","-7.7","","-10.5","","80","","","","29","","30","","","","101.00","","","","-17","","NA"
"-61.05","46.55","GRAND ETANG","8201969","2019-02-17 15:00","2019","02","17","15:00","-7.8","","-10.4","","82","","","","29","","30","","","","100.98","","","","-17","","NA"
"-61.05","46.55","GRAND ETANG","8201969","2019-02-17 16:00","2019","02","17","16:00","-8.2","","-10.7","","82","","","","29","","33","","","","101.07","","","","-18","","NA"
"-61.05","46.55","GRAND ETANG","8201969","2019-02-17 17:00","2019","02","17","17:00","-8.5","","-10.7","","84","","","","30","","25","","","","101.11","","","","-17","","NA"
"-61.05","46.55","GRAND ETANG","8201969","2019-02-17 18:00","2019","02","17","18:00","-8.4","","-11.4","","79","","","","30","","25","","","","101.16","","","","-17","","NA"
"-61.05","46.55","GRAND ETANG","8201969","2019-02-17 19:00","2019","02","17","19:00","-8.0","","-11.1","","79","","","","29","","22","","","","101.18","","","","-16","","NA"
"-61.05","46.55","GRAND ETANG","8201969","2019-02-17 20:00","2019","02","17","20:00","-8.2","","-11.4","","78","","","","29","","21","","","","101.27","","","","-16","","NA"
"-61.05","46.55","GRAND ETANG","8201969","2019-02-17 21:00","2019","02","17","21:00","-8.4","","-11.5","","79","","","","28","","13","","","","101.25","","","","-14","","NA"
"-61.05","46.55","GRAND ETANG","8201969","2019-02-17 22:00","2019","02","17","22:00","-9.2","","-11.6","","82","","","","30","","4","","","","101.24","","","","-11","","NA"
"-61.05","46.55","GRAND ETANG","8201969","2019-02-17 23:00","2019","02","17","23:00","-8.8","","-11.5","","81","","","","31","","18","","","","101.24","","","","-16","","NA"
"-61.05","46.55","GRAND ETANG","8201969","2019-02-18 00:00","2019","02","18","00:00","-9.3","","-12.3","","79","","","","31","","23","","","","101.19","","","","-18","","NA"
"-61.05","46.55","GRAND ETANG","8201969","2019-02-18 01:00","2019","02","18","01:00","-9.8","","-12.5","","81","","","","30","","15","","","","101.27","","","","-16","","NA"
"-61.05","46.55","GRAND ETANG","8201969","2019-02-18 02:00","2019","02","18","02:00","-9.7","","-12.0","","83","","","","30","","21","","","","101.30","","","","-18","","NA"
"-61.05","46.55","GRAND ETANG","8201969","2019-02-18 03:00","2019","02","18","03:00","-9.8","","-12.2","","83","","","","29","","19","","","","101.25","","","","-17","","NA"
"-61.05","46.55","GRAND ETANG","8201969","2019-02-18 04:00","2019","02","18","04:00","-10.1","","-12.6","","82","","","","29","","23","","","","101.25","","","","-19","","NA"
"-61.05","46.55","GRAND ETANG","8201969","2019-02-18 05:00","2019","02","18","05:00","-10.7","","-13.2","","82","","","","27","","22","","","","101.24","","","","-19","","NA"
"-61.05","46.55","GRAND ETANG","8201969","2019-02-18 06:00","2019","02","18","06:00","-10.7","","-13.1","","82","","","","28","","18","","","","101.25","","","","-18","","NA"
"-61.05","46.55","GRAND ETANG","8201969","2019-02-18 07:00","2019","02","18","07:00","-10.6","","-13.0","","83","","","","28","","19","","","","101.20","","","","-18","","NA"
"-61.05","46.55","GRAND ETANG","8201969","2019-02-18 08:00","2019","02","18","08:00","-10.7","","-12.9","","83","","","","27","","21","","","","101.27","","","","-19","","NA"
"-61.05","46.55","GRAND ETANG","8201969","2019-02-18 09:00","2019","02","18","09:00","-10.3","","-13.0","","80","","","","29","","18","","","","101.24","","","","-18","","NA"
"-61.05","46.55","GRAND ETANG","8201969","2019-02-18 10:00","2019","02","18","10:00","-9.1","","-12.9","","74","","","","26","","22","","","","101.23","","","","-17","","NA"
"-61.05","46.55","GRAND ETANG","8201969","2019-02-18 11:00","2019","02","18","11:00","-9.6","","-12.1","","82","","","","28","","17","","","","101.19","","","","-17","","NA"
"-61.05","46.55","GRAND ETANG","8201969","2019-02-18 12:00","2019","02","18","12:00","-9.2","","-13.1","","73","","","","25","","17","","","","101.11","","","","-16","","NA"
"-61.05","46.55","GRAND ETANG","8201969","2019-02-18 13:00","2019","02","18","13:00","-9.8","","-13.0","","77","","","","26","","18","","","","101.03","","","","-17","","NA"
"-61.05","46.55","GRAND ETANG","8201969","2019-02-18 14:00","2019","02","18","14:00","-9.4","","-12.8","","77","","","","26","","17","","","","100.92","","","","-16","","NA"
"-61.05","46.55","GRAND ETANG","8201969","2019-02-18 15:00","2019","02","18","15:00","-9.3","","-12.7","","76","","","","27","","12","","","","100.83","","","","-15","","NA"
"-61.05","46.55","GRAND ETANG","8201969","2019-02-18 16:00","2019","02","18","16:00","-9.5","","-12.6","","78","","","","26","","9","","","","100.82","","","","-14","","NA"
"-61.05","46.55","GRAND ETANG","8201969","2019-02-18 17:00","2019","02","18","17:00","-10.1","","-13.0","","80","","","","30","","8","","","","100.77","","","","-15","","NA"
"-61.05","46.55","GRAND ETANG","8201969","2019-02-18 18:00","2019","02","18","18:00","-10.5","","-13.1","","81","","","","33","","10","","","","100.72","","","","-16","","NA"
"-61.05","46.55","GRAND ETANG","8201969","2019-02-18 19:00","2019","02","18","19:00","-10.8","","-13.3","","82","","","","34","","12","","","","100.66","","","","-17","","NA"
"-61.05","46.55","GRAND ETANG","8201969","2019-02-18 20:00","2019","02","18","20:00","-11.0","","-13.7","","80","","","","32","","14","","","","100.56","","","","-18","","NA"
"-61.05","46.55","GRAND ETANG","8201969","2019-02-18 21:00","2019","02","18","21:00","-10.8","","-13.5","","80","","","","33","","18","","","","100.48","","","","-18","","NA"
"-61.05","46.55","GRAND ETANG","8201969","2019-02-18 22:00","2019","02","18","22:00","-10.8","","-13.6","","79","","","","33","","19","","","","100.48","","","","-19","","NA"
"-61.05","46.55","GRAND ETANG","8201969","2019-02-18 23:00","2019","02","18","23:00","-11.1","","-14.2","","78","","","","33","","21","","","","100.49","","","","-19","","NA"
"-61.05","46.55","GRAND ETANG","8201969","2019-02-19 00:00","2019","02","19","00:00","-11.0","","-14.1","","78","","","","33","","22","","","","100.51","","","","-20","","NA"
"-61.05","46.55","GRAND ETANG","8201969","2019-02-19 01:00","2019","02","19","01:00","-10.6","","-13.0","","82","","","","32","","22","","","","100.52","","","","-19","","NA"
"-61.05","46.55","GRAND ETANG","8201969","2019-02-19 02:00","2019","02","19","02:00","-10.3","","-12.2","","86","","","","30","","17","","","","100.51","","","","-18","","NA"
"-61.05","46.55","GRAND ETANG","8201969","2019-02-19 03:00","2019","02","19","03:00","-10.2","","-12.2","","85","","","","30","","26","","","","100.58","","","","-19","","NA"
"-61.05","46.55","GRAND ETANG","8201969","2019-02-19 04:00","2019","02","19","04:00","-9.8","","-11.8","","85","","","","30","","31","","","","100.62","","","","-19","","NA"
"-61.05","46.55","GRAND ETANG","8201969","2019-02-19 05:00","2019","02","19","05:00","-9.3","","-11.1","","87","","","","31","","32","","","","100.72","","","","-19","","NA"
"-61.05","46.55","GRAND ETANG","8201969","2019-02-19 06:00","2019","02","19","06:00","-9.2","","-11.0","","86","","","","30","","31","","","","100.79","","","","-19","","NA"
"-61.05","46.55","GRAND ETANG","8201969","2019-02-19 07:00","2019","02","19","07:00","-9.3","","-11.1","","87","","","","30","","38","","","","100.89","","","","-20","","NA"
"-61.05","46.55","GRAND ETANG","8201969","2019-02-19 08:00","2019","02","19","08:00","-9.7","","-11.3","","88","","","","30","","40","","","","101.05","","","","-20","","NA"
"-61.05","46.55","GRAND ETANG","8201969","2019-02-19 09:00","2019","02","19","09:00","-10.0","","-12.1","","85","","","","30","","43","","","","101.15","","","","-21","","NA"
"-61.05","46.55","GRAND ETANG","8201969","2019-02-19 10:00","2019","02","19","10:00","-10.1","","-12.9","","80","","","","31","","44","","","","101.25","","","","-21","","NA"
"-61.05","46.55","GRAND ETANG","8201969","2019-02-19 11:00","2019","02","19","11:00","-10.0","","-12.5","","82","","","","32","","23","","","","101.29","","","","-18","","NA"
"-61.05","46.55","GRAND ETANG","8201969","2019-02-19 12:00","2019","02","19","12:00","-9.8","","-12.7","","79","","","","32","","24","","","","101.29","","","","-18","","NA"
"-61.05","46.55","GRAND ETANG","8201969","2019-02-19 13:00","2019","02","19","13:00","-9.7","","-12.2","","82","","","","29","","36","","","","101.26","","","","-20","","NA"
"-61.05","46.55","GRAND ETANG","8201969","2019-02-19 14:00","2019","02","19","14:00","-10.3","","-12.7","","83","","","","30","","36","","","","101.32","","","","-21","","NA"
"-61.05","46.55","GRAND ETANG","8201969","2019-02-19 15:00","2019","02","19","15:00","-10.8","","-13.4","","81","","","","29","","41","","","","101.37","","","","-22","","NA"
"-61.05","46.55","GRAND ETANG","8201969","2019-02-19 16:00","2019","02","19","16:00","-11.0","","-14.0","","78","","","","30","","37","","","","101.42","","","","-22","","NA"
"-61.05","46.55","GRAND ETANG","8201969","2019-02-19 17:00","2019","02","19","17:00","-11.4","","-14.0","","81","","","","30","","37","","","","101.45","","","","-22","","NA"
"-61.05","46.55","GRAND ETANG","8201969","2019-02-19 18:00","2019","02","19","18:00","-11.7","","-14.8","","77","","","","30","","34","","","","101.58","","","","-22","","NA"
"-61.05","46.55","GRAND ETANG","8201969","2019-02-19 19:00","2019","02","19","19:00","-11.5","","-14.7","","77","","","","29","","35","","","","101.66","","","","-22","","NA"
"-61.05","46.55","GRAND ETANG","8201969","2019-02-19 20:00","2019","02","19","20:00","-11.7","","-14.9","","77","","","","30","","42","","","","101.69","","","","-23","","NA"
"-61.05","46.55","GRAND ETANG","8201969","2019-02-19 21:00","2019","02","19","21:00","-11.9","","-15.8","","73","","","","30","","39","","","","101.70","","","","-23","","NA"
"-61.05","46.55","GRAND ETANG","8201969","2019-02-19 22:00","2019","02","19","22:00","-12.0","","-16.0","","72","","","","30","","42","","","","101.71","","","","-24","","NA"
"-61.05","46.55","GRAND ETANG","8201969","2019-02-19 23:00","2019","02","19","23:00","-12.3","","-17.2","","67","","","","31","","41","","","","101.69","","","","-24","","NA"
"-61.05","46.55","GRAND ETANG","8201969","2019-02-20 00:00","2019","02","20","00:00","-13.2","","-15.2","","85","","","","30","","43","","","","101.72","","","","-25","","NA"
"-61.05","46.55","GRAND ETANG","8201969","2019-02-20 01:00","2019","02","20","01:00","-13.2","","-16.5","","76","","","","31","","41","","","","101.74","","","","-25","","NA"
"-61.05","46.55","GRAND ETANG","8201969","2019-02-20 02:00","2019","02","20","02:00","-13.3","","-17.7","","69","","","","29","","43","","","","101.75","","","","-26","","NA"
"-61.05","46.55","GRAND ETANG","8201969","2019-02-20 03:00","2019","02","20","03:00","-13.6","","-18.0","","70","","","","30","","32","","","","101.78","","","","-25","","NA"
"-61.05","46.55","GRAND ETANG","8201969","2019-02-20 04:00","2019","02","20","04:00","-13.8","","-17.5","","73","","","","31","","39","","","","101.81","","","","-26","","NA"
"-61.05","46.55","GRAND ETANG","8201969","2019-02-20 05:00","2019","02","20","05:00","-14.2","","-17.4","","76","","","","31","","34","","","","101.88","","","","-26","","NA"
"-61.05","46.55","GRAND ETANG","8201969","2019-02-20 06:00","2019","02","20","06:00","-14.6","","-19.4","","67","","","","31","","39","","","","101.95","","","","-27","","NA"
"-61.05","46.55","GRAND ETANG","8201969","2019-02-20 07:00","2019","02","20","07:00","-15.4","","-20.2","","67","","","","31","","30","","","","102.00","","","","-27","","NA"
"-61.05","46.55","GRAND ETANG","8201969","2019-02-20 08:00","2019","02","20","08:00","-15.4","","-20.1","","67","","","","30","","35","","","","102.06","","","","-27","","NA"
"-61.05","46.55","GRAND ETANG","8201969","2019-02-20 09:00","2019","02","20","09:00","-15.3","","-20.0","","67","","","","30","","37","","","","102.13","","","","-27","","NA"
"-61.05","46.55","GRAND ETANG","8201969","2019-02-20 10:00","2019","02","20","10:00","-14.8","","-20.2","","63","","","","31","","40","","","","102.11","","","","-27","","NA"
"-61.05","46.55","GRAND ETANG","8201969","2019-02-20 11:00","2019","02","20","11:00","-13.8","","-19.1","","64","","","","30","","40","","","","102.10","","","","-26","","NA"
"-61.05","46.55","GRAND ETANG","8201969","2019-02-20 12:00","2019","02","20","12:00","-13.9","","-19.8","","61","","","","30","","42","","","","102.07","","","","-26","","NA"
"-61.05","46.55","GRAND ETANG","8201969","2019-02-20 13:00","2019","02","20","13:00","-13.6","","-19.1","","63","","","","30","","43","","","","102.02","","","","-26","","NA"
"-61.05","46.55","GRAND ETANG","8201969","2019-02-20 14:00","2019","02","20","14:00","-13.5","","-18.5","","66","","","","30","","41","","","","102.03","","","","-26","","NA"
"-61.05","46.55","GRAND ETANG","8201969","2019-02-20 15:00","2019","02","20","15:00","-13.7","","-18.7","","66","","","","31","","42","","","","102.05","","","","-26","","NA"
"-61.05","46.55","GRAND ETANG","8201969","2019-02-20 16:00","2019","02","20","16:00","-13.7","","-18.2","","69","","","","31","","39","","","","102.15","","","","-26","","NA"
"-61.05","46.55","GRAND ETANG","8201969","2019-02-20 17:00","2019","02","20","17:00","-13.0","","-17.5","","69","","","","31","","30","","","","102.16","","","","-23","","NA"
"-61.05","46.55","GRAND ETANG","8201969","2019-02-20 18:00","2019","02","20","18:00","-12.9","","-17.2","","70","","","","31","","19","","","","102.18","","","","-21","","NA"
"-61.05","46.55","GRAND ETANG","8201969","2019-02-20 19:00","2019","02","20","19:00","-12.4","","-15.9","","75","","","","28","","14","","","","102.19","","","","-19","","NA"
"-61.05","46.55","GRAND ETANG","8201969","2019-02-20 20:00","2019","02","20","20:00","-13.1","","-16.1","","78","","","","35","","10","","","","102.24","","","","-19","","NA"
"-61.05","46.55","GRAND ETANG","8201969","2019-02-20 21:00","2019","02","20","21:00","-13.0","","-16.1","","77","","","","31","","10","","","","102.29","","","","-19","","NA"
"-61.05","46.55","GRAND ETANG","8201969","2019-02-20 22:00","2019","02","20","22:00","-13.6","","-16.3","","80","","","","29","","11","","","","102.34","","","","-20","","NA"
"-61.05","46.55","GRAND ETANG","8201969","2019-02-20 23:00","2019","02","20","23:00","-13.9","","-16.5","","81","","","","26","","7","","","","102.28","","","","-19","","NA"
"-61.05","46.55","GRAND ETANG","8201969","2019-02-21 00:00","2019","02","21","00:00","-14.1","","-16.5","","82","","","","25","","5","","","","102.13","","","","-18","","NA"
"-61.05","46.55","GRAND ETANG","8201969","2019-02-21 01:00","2019","02","21","01:00","-13.4","","-17.0","","74","","","","31","","10","","","","102.12","","","","-19","","NA"
"-61.05","46.55","GRAND ETANG","8201969","2019-02-21 02:00","2019","02","21","02:00","-14.2","","-17.2","","78","","","","7","","2","","","","102.19","","","","-16","","NA"
"-61.05","46.55","GRAND ETANG","8201969","2019-02-21 03:00","2019","02","21","03:00","-14.4","","-16.9","","81","","","","18","","5","","","","102.12","","","","-18","","NA"
"-61.05","46.55","GRAND ETANG","8201969","2019-02-21 04:00","2019","02","21","04:00","-15.1","","-17.4","","83","","","","16","","7","","","","102.07","","","","-20","","NA"
"-61.05","46.55","GRAND ETANG","8201969","2019-02-21 05:00","2019","02","21","05:00","-14.6","","-17.4","","79","","","","20","","6","","","","101.97","","","","-19","","NA"
"-61.05","46.55","GRAND ETANG","8201969","2019-02-21 06:00","2019","02","21","06:00","-15.1","","-17.5","","81","","","","13","","9","","","","101.89","","","","-21","","NA"
"-61.05","46.55","GRAND ETANG","8201969","2019-02-21 07:00","2019","02","21","07:00","-15.1","","-17.9","","79","","","","20","","8","","","","101.92","","","","-20","","NA"
"-61.05","46.55","GRAND ETANG","8201969","2019-02-21 08:00","2019","02","21","08:00","-13.4","","-16.1","","80","","","","15","","9","","","","101.83","","","","-19","","NA"
"-61.05","46.55","GRAND ETANG","8201969","2019-02-21 09:00","2019","02","21","09:00","-11.7","","-15.5","","74","","","","18","","9","","","","101.77","","","","-17","","NA"
"-61.05","46.55","GRAND ETANG","8201969","2019-02-21 10:00","2019","02","21","10:00","-10.8","","-15.3","","70","","","","24","","9","","","","101.71","","","","-16","","NA"
"-61.05","46.55","GRAND ETANG","8201969","2019-02-21 11:00","2019","02","21","11:00","-10.9","","-15.5","","69","","","","23","","16","","","","101.71","","","","-18","","NA"
"-61.05","46.55","GRAND ETANG","8201969","2019-02-21 12:00","2019","02","21","12:00","-10.1","","-14.8","","68","","","","24","","10","","","","101.55","","","","-15","","NA"
"-61.05","46.55","GRAND ETANG","8201969","2019-02-21 13:00","2019","02","21","13:00","-9.0","","-15.7","","58","","","","25","","11","","","","101.33","","","","-14","","NA"
"-61.05","46.55","GRAND ETANG","8201969","2019-02-21 14:00","2019","02","21","14:00","-8.1","","-15.3","","56","","","","27","","6","","","","101.12","","","","-11","","NA"
"-61.05","46.55","GRAND ETANG","8201969","2019-02-21 15:00","2019","02","21","15:00","-9.0","","-16.2","","56","","","","30","","3","","","","101.00","","","","-11","","NA"
"-61.05","46.55","GRAND ETANG","8201969","2019-02-21 16:00","2019","02","21","16:00","-10.1","","-14.3","","71","","","","34","","6","","","","100.91","","","","-14","","NA"
"-61.05","46.55","GRAND ETANG","8201969","2019-02-21 17:00","2019","02","21","17:00","-10.7","","-12.8","","84","","","","36","","8","","","","100.82","","","","-15","","NA"
"-61.05","46.55","GRAND ETANG","8201969","2019-02-21 18:00","2019","02","21","18:00","-11.0","","-12.3","","90","","","","1","","8","","","","100.77","","","","-16","","NA"
"-61.05","46.55","GRAND ETANG","8201969","2019-02-21 19:00","2019","02","21","19:00","-11.2","","-12.2","","92","","","","3","","7","","","","100.68","","","","-15","","NA"
"-61.05","46.55","GRAND ETANG","8201969","2019-02-21 20:00","2019","02","21","20:00","-11.9","","-12.9","","93","","","","2","","4","","","","100.63","","","","-14","","NA"
"-61.05","46.55","GRAND ETANG","8201969","2019-02-21 21:00","2019","02","21","21:00","-11.4","","-12.2","","94","","","","36","","6","","","","100.57","","","","-15","","NA"
"-61.05","46.55","GRAND ETANG","8201969","2019-02-21 22:00","2019","02","21","22:00","-11.1","","-11.7","","95","","","","35","","4","","","","100.57","","","","-14","","NA"
"-61.05","46.55","GRAND ETANG","8201969","2019-02-21 23:00","2019","02","21","23:00","-10.9","","-11.6","","95","","","","3","","4","","","","100.58","","","","-13","","NA"
"-61.05","46.55","GRAND ETANG","8201969","2019-02-22 00:00","2019","02","22","00:00","-10.6","","-11.1","","96","","","","9","","1","","","","100.59","","","","-11","","NA"
"-61.05","46.55","GRAND ETANG","8201969","2019-02-22 01:00","2019","02","22","01:00","-10.7","","-11.1","","96","","","","4","","2","","","","100.61","","","","-12","","NA"
"-61.05","46.55","GRAND ETANG","8201969","2019-02-22 02:00","2019","02","22","02:00","-11.9","","-12.7","","94","","","","18","","3","","","","100.66","","","","-14","","NA"
"-61.05","46.55","GRAND ETANG","8201969","2019-02-22 03:00","2019","02","22","03:00","-12.0","","-12.9","","93","","","","11","","2","","","","100.75","","","","-13","","NA"
"-61.05","46.55","GRAND ETANG","8201969","2019-02-22 04:00","2019","02","22","04:00","-12.5","","-13.5","","92","","","","","","0","","","","100.85","","","","","","NA"
"-61.05","46.55","GRAND ETANG","8201969","2019-02-22 05:00","2019","02","22","05:00","-13.1","","-14.0","","93","","","","6","","5","","","","100.94","","","","-16","","NA"
"-61.05","46.55","GRAND ETANG","8201969","2019-02-22 06:00","2019","02","22","06:00","-12.7","","-13.7","","92","","","","","","0","","","","101.06","","","","","","NA"
"-61.05","46.55","GRAND ETANG","8201969","2019-02-22 07:00","2019","02","22","07:00","-12.2","","-13.1","","93","","","","23","","6","","","","101.19","","","","-16","","NA"
"-61.05","46.55","GRAND ETANG","8201969","2019-02-22 08:00","2019","02","22","08:00","-11.1","","-11.9","","93","","","","15","","9","","","","101.28","","","","-16","","NA"
"-61.05","46.55","GRAND ETANG","8201969","2019-02-22 09:00","2019","02","22","09:00","-9.6","","-10.5","","93","","","","25","","7","","","","101.40","","","","-14","","NA"
"-61.05","46.55","GRAND ETANG","8201969","2019-02-22 10:00","2019","02","22","10:00","-8.4","","-9.9","","89","","","","27","","2","","","","101.48","","","","-9","","NA"
"-61.05","46.55","GRAND ETANG","8201969","2019-02-22 11:00","2019","02","22","11:00","-9.6","","-11.7","","85","","","","21","","5","","","","101.52","","","","-12","","NA"
"-61.05","46.55","GRAND ETANG","8201969","2019-02-22 12:00","2019","02","22","12:00","-8.5","","-10.6","","85","","","","23","","9","","","","101.55","","","","-13","","NA"
"-61.05","46.55","GRAND ETANG","8201969","2019-02-22 13:00","2019","02","22","13:00","-8.5","","-10.6","","84","","","","25","","13","","","","101.58","","","","-14","","NA"
"-61.05","46.55","GRAND ETANG","8201969","2019-02-22 14:00","2019","02","22","14:00","-7.0","","-10.4","","77","","","","23","","9","","","","101.64","","","","-11","","NA"
"-61.05","46.55","GRAND ETANG","8201969","2019-02-22 15:00","2019","02","22","15:00","-7.4","","-11.2","","75","","","","22","","11","","","","101.66","","","","-12","","NA"
"-61.05","46.55","GRAND ETANG","8201969","2019-02-22 16:00","2019","02","22","16:00","-6.9","","-11.2","","71","","","","24","","10","","","","101.71","","","","-12","","NA"
"-61.05","46.55","GRAND ETANG","8201969","2019-02-22 17:00","2019","02","22","17:00","-9.7","","-11.9","","84","","","","22","","13","","","","101.75","","","","-16","","NA"
"-61.05","46.55","GRAND ETANG","8201969","2019-02-22 18:00","2019","02","22","18:00","-11.3","","-12.8","","89","","","","20","","9","","","","101.79","","","","-16","","NA"
"-61.05","46.55","GRAND ETANG","8201969","2019-02-22 19:00","2019","02","22","19:00","-11.8","","-12.9","","92","","","","18","","5","","","","101.85","","","","-15","","NA"
"-61.05","46.55","GRAND ETANG","8201969","2019-02-22 20:00","2019","02","22","20:00","-12.6","","-13.1","","96","","","","13","","1","","","","101.89","","","","-13","","NA"
"-61.05","46.55","GRAND ETANG","8201969","2019-02-22 21:00","2019","02","22","21:00","-11.7","","-12.4","","94","","","","6","","2","","","","101.92","","","","-13","","NA"
"-61.05","46.55","GRAND ETANG","8201969","2019-02-22 22:00","2019","02","22","22:00","-12.0","","-13.0","","92","","","","36","","2","","","","101.96","","","","-13","","NA"
"-61.05","46.55","GRAND ETANG","8201969","2019-02-22 23:00","2019","02","22","23:00","-12.5","","-13.2","","95","","","","8","","2","","","","101.96","","","","-14","","NA"
"-61.05","46.55","GRAND ETANG","8201969","2019-02-23 00:00","2019","02","23","00:00","-13.2","","-13.8","","95","","","","9","","3","","","","101.93","","","","-15","","NA"
"-61.05","46.55","GRAND ETANG","8201969","2019-02-23 01:00","2019","02","23","01:00","-13.8","","-14.7","","93","","","","27","","4","","","","101.96","","","","-17","","NA"
"-61.05","46.55","GRAND ETANG","8201969","2019-02-23 02:00","2019","02","23","02:00","-12.6","","-14.4","","86","","","","30","","6","","","","101.98","","","","-17","","NA"
"-61.05","46.55","GRAND ETANG","8201969","2019-02-23 03:00","2019","02","23","03:00","-13.0","","-15.2","","84","","","","20","","2","","","","102.02","","","","-14","","NA"
"-61.05","46.55","GRAND ETANG","8201969","2019-02-23 04:00","2019","02","23","04:00","-13.0","","-15.7","","81","","","","15","","6","","","","102.04","","","","-17","","NA"
"-61.05","46.55","GRAND ETANG","8201969","2019-02-23 05:00","2019","02","23","05:00","-12.1","","-14.5","","82","","","","25","","3","","","","102.10","","","","-14","","NA"
"-61.05","46.55","GRAND ETANG","8201969","2019-02-23 06:00","2019","02","23","06:00","-12.2","","-14.4","","83","","","","0","","1","","","","102.16","","","","-13","","NA"
"-61.05","46.55","GRAND ETANG","8201969","2019-02-23 07:00","2019","02","23","07:00","-11.9","","-14.2","","83","","","","16","","1","","","","102.20","","","","-13","","NA"
"-61.05","46.55","GRAND ETANG","8201969","2019-02-23 08:00","2019","02","23","08:00","-11.1","","-13.5","","82","","","","0","","1","","","","102.25","","","","-12","","NA"
"-61.05","46.55","GRAND ETANG","8201969","2019-02-23 09:00","2019","02","23","09:00","-9.7","","-12.2","","82","","","","27","","5","","","","102.22","","","","-13","","NA"
"-61.05","46.55","GRAND ETANG","8201969","2019-02-23 10:00","2019","02","23","10:00","-9.9","","-12.5","","81","","","","29","","17","","","","102.21","","","","-17","","NA"
"-61.05","46.55","GRAND ETANG","8201969","2019-02-23 11:00","2019","02","23","11:00","-8.4","","-12.0","","75","","","","31","","13","","","","102.20","","","","-14","","NA"
"-61.05","46.55","GRAND ETANG","8201969","2019-02-23 12:00","2019","02","23","12:00","-7.6","","-11.3","","75","","","","30","","15","","","","102.22","","","","-14","","NA"
"-61.05","46.55","GRAND ETANG","8201969","2019-02-23 13:00","2019","02","23","13:00","-7.9","","-12.7","","68","","","","31","","16","","","","102.20","","","","-14","","NA"
"-61.05","46.55","GRAND ETANG","8201969","2019-02-23 14:00","2019","02","23","14:00","-8.1","","-13.0","","68","","","","30","","18","","","","102.18","","","","-15","","NA"
"-61.05","46.55","GRAND ETANG","8201969","2019-02-23 15:00","2019","02","23","15:00","-8.1","","-12.3","","72","","","","30","","13","","","","102.21","","","","-14","","NA"
"-61.05","46.55","GRAND ETANG","8201969","2019-02-23 16:00","2019","02","23","16:00","-9.6","","-13.2","","75","","","","29","","10","","","","102.21","","","","-15","","NA"
"-61.05","46.55","GRAND ETANG","8201969","2019-02-23 17:00","2019","02","23","17:00","-10.0","","-13.9","","73","","","","27","","9","","","","102.24","","","","-15","","NA"
"-61.05","46.55","GRAND ETANG","8201969","2019-02-23 18:00","2019","02","23","18:00","-11.8","","-14.4","","80","","","","19","","7","","","","102.25","","","","-16","","NA"
"-61.05","46.55","GRAND ETANG","8201969","2019-02-23 19:00","2019","02","23","19:00","-12.9","","-15.9","","78","","","","17","","7","","","","102.25","","","","-17","","NA"
"-61.05","46.55","GRAND ETANG","8201969","2019-02-23 20:00","2019","02","23","20:00","-11.5","","-14.5","","78","","","","16","","8","","","","102.27","","","","-16","","NA"
"-61.05","46.55","GRAND ETANG","8201969","2019-02-23 21:00","2019","02","23","21:00","-12.9","","-15.6","","81","","","","12","","6","","","","102.25","","","","-17","","NA"
"-61.05","46.55","GRAND ETANG","8201969","2019-02-23 22:00","2019","02","23","22:00","-13.9","","-16.3","","82","","","","30","","4","","","","102.28","","","","-17","","NA"
"-61.05","46.55","GRAND ETANG","8201969","2019-02-23 23:00","2019","02","23","23:00","-13.1","","-15.1","","85","","","","26","","5","","","","102.25","","","","-16","","NA"
"-61.05","46.55","GRAND ETANG","8201969","2019-02-24 00:00","2019","02","24","00:00","-13.4","","-14.7","","90","","","","18","","4","","","","102.26","","","","-16","","NA"
"-61.05","46.55","GRAND ETANG","8201969","2019-02-24 01:00","2019","02","24","01:00","-12.9","","-14.5","","87","","","","32","","4","","","","102.29","","","","-16","","NA"
"-61.05","46.55","GRAND ETANG","8201969","2019-02-24 02:00","2019","02","24","02:00","-13.0","","-14.7","","87","","","","5","","3","","","","102.30","","","","-15","","NA"
"-61.05","46.55","GRAND ETANG","8201969","2019-02-24 03:00","2019","02","24","03:00","-13.3","","-15.2","","85","","","","22","","8","","","","102.33","","","","-18","","NA"
"-61.05","46.55","GRAND ETANG","8201969","2019-02-24 04:00","2019","02","24","04:00","-14.3","","-16.5","","84","","","","19","","5","","","","102.34","","","","-18","","NA"
"-61.05","46.55","GRAND ETANG","8201969","2019-02-24 05:00","2019","02","24","05:00","-13.6","","-15.8","","83","","","","33","","4","","","","102.38","","","","-16","","NA"
"-61.05","46.55","GRAND ETANG","8201969","2019-02-24 06:00","2019","02","24","06:00","-13.4","","-15.2","","86","","","","0","","1","","","","102.40","","","","-14","","NA"
"-61.05","46.55","GRAND ETANG","8201969","2019-02-24 07:00","2019","02","24","07:00","-13.3","","-15.4","","84","","","","4","","6","","","","102.44","","","","-17","","NA"
"-61.05","46.55","GRAND ETANG","8201969","2019-02-24 08:00","2019","02","24","08:00","-13.0","","-14.8","","86","","","","2","","4","","","","102.49","","","","-16","","NA"
"-61.05","46.55","GRAND ETANG","8201969","2019-02-24 09:00","2019","02","24","09:00","-9.7","","-13.3","","75","","","","6","","4","","","","102.48","","","","-12","","NA"
"-61.05","46.55","GRAND ETANG","8201969","2019-02-24 10:00","2019","02","24","10:00","-6.8","","-11.9","","67","","","","25","","4","","","","102.38","","","","-9","","NA"
"-61.05","46.55","GRAND ETANG","8201969","2019-02-24 11:00","2019","02","24","11:00","-6.6","","-12.3","","64","","","","25","","7","","","","102.34","","","","-10","","NA"
"-61.05","46.55","GRAND ETANG","8201969","2019-02-24 12:00","2019","02","24","12:00","-7.3","","-12.4","","67","","","","25","","10","","","","102.29","","","","-12","","NA"
"-61.05","46.55","GRAND ETANG","8201969","2019-02-24 13:00","2019","02","24","13:00","-6.1","","-12.3","","62","","","","26","","5","","","","102.19","","","","-9","","NA"
"-61.05","46.55","GRAND ETANG","8201969","2019-02-24 14:00","2019","02","24","14:00","-7.1","","-11.4","","71","","","","30","","3","","","","102.12","","","","-9","","NA"
"-61.05","46.55","GRAND ETANG","8201969","2019-02-24 15:00","2019","02","24","15:00","-5.1","","-10.3","","67","","","","32","","3","","","","102.07","","","","-6","","NA"
"-61.05","46.55","GRAND ETANG","8201969","2019-02-24 16:00","2019","02","24","16:00","-6.0","","-9.2","","78","","","","33","","4","","","","102.00","","","","-8","","NA"
"-61.05","46.55","GRAND ETANG","8201969","2019-02-24 17:00","2019","02","24","17:00","-8.9","","-11.5","","81","","","","35","","3","","","","101.92","","","","-11","","NA"
"-61.05","46.55","GRAND ETANG","8201969","2019-02-24 18:00","2019","02","24","18:00","-11.2","","-12.8","","88","","","","10","","3","","","","101.77","","","","-13","","NA"
"-61.05","46.55","GRAND ETANG","8201969","2019-02-24 19:00","2019","02","24","19:00","-11.5","","-12.6","","91","","","","33","","4","","","","101.52","","","","-14","","NA"
"-61.05","46.55","GRAND ETANG","8201969","2019-02-24 20:00","2019","02","24","20:00","-8.6","","-10.6","","86","","","","33","","6","","","","101.33","","","","-12","","NA"
"-61.05","46.55","GRAND ETANG","8201969","2019-02-24 21:00","2019","02","24","21:00","-6.6","","-11.1","","70","","","","20","","12","","","","101.16","","","","-12","","NA"
"-61.05","46.55","GRAND ETANG","8201969","2019-02-24 22:00","2019","02","24","22:00","-6.0","","-11.1","","67","","","","32","","12","","","","101.01","","","","-11","","NA"
"-61.05","46.55","GRAND ETANG","8201969","2019-02-24 23:00","2019","02","24","23:00","-6.2","","-11.9","","64","","","","15","","25","","","","100.66","","","","-14","","NA"
"-61.05","46.55","GRAND ETANG","8201969","2019-02-25 00:00","2019","02","25","00:00","-5.5","","-14.2","","50","","","","12","","67","","","","100.14","","","","-17","","NA"
"-61.05","46.55","GRAND ETANG","8201969","2019-02-25 01:00","2019","02","25","01:00","-5.9","","-13.3","","56","","","","12","","79","","","","99.74","","","","-18","","NA"
"-61.05","46.55","GRAND ETANG","8201969","2019-02-25 02:00","2019","02","25","02:00","-5.7","","-11.8","","62","","","","11","","82","","","","99.44","","","","-18","","NA"
"-61.05","46.55","GRAND ETANG","8201969","2019-02-25 03:00","2019","02","25","03:00","-4.7","","-11.1","","61","","","","12","","90","","","","98.90","","","","-17","","NA"
"-61.05","46.55","GRAND ETANG","8201969","2019-02-25 04:00","2019","02","25","04:00","-4.5","","-8.3","","75","","","","11","","109","","","","98.41","","","","-18","","NA"
"-61.05","46.55","GRAND ETANG","8201969","2019-02-25 05:00","2019","02","25","05:00","-3.9","","-6.0","","85","","","","12","","108","","","","","M","","","-17","","NA"
"-61.05","46.55","GRAND ETANG","8201969","2019-02-25 06:00","2019","02","25","06:00","-3.2","","-6.8","","76","","","","11","","102","","","","98.03","","","","-15","","NA"
"-61.05","46.55","GRAND ETANG","8201969","2019-02-25 07:00","2019","02","25","07:00","-2.6","","-5.0","","84","","","","11","","97","","","","97.91","","","","-14","","NA"
"-61.05","46.55","GRAND ETANG","8201969","2019-02-25 08:00","2019","02","25","08:00","-1.9","","-3.6","","88","","","","2","","10","","","","97.81","","","","-6","","NA"
"-61.05","46.55","GRAND ETANG","8201969","2019-02-25 09:00","2019","02","25","09:00","0.0","","-2.8","","82","","","","1","","8","","","","97.61","","","","-3","","NA"
"-61.05","46.55","GRAND ETANG","8201969","2019-02-25 10:00","2019","02","25","10:00","1.8","","-2.0","","76","","","","","M","7","","","","97.46","","","","","","NA"
"-61.05","46.55","GRAND ETANG","8201969","2019-02-25 11:00","2019","02","25","11:00","2.4","","-0.8","","80","","","","","M","7","","","","97.50","","","","","","NA"
"-61.05","46.55","GRAND ETANG","8201969","2019-02-25 12:00","2019","02","25","12:00","3.3","","0.6","","83","","","","","M","","M","","","97.45","","","","","","NA"
"-61.05","46.55","GRAND ETANG","8201969","2019-02-25 13:00","2019","02","25","13:00","-1.8","","","M","100","","","","","M","","M","","","97.66","","","","","","NA"
"-61.05","46.55","GRAND ETANG","8201969","2019-02-25 14:00","2019","02","25","14:00","-2.5","","","M","100","","","","","M","","M","","","97.74","","","","","","NA"
"-61.05","46.55","GRAND ETANG","8201969","2019-02-25 15:00","2019","02","25","15:00","-2.4","","","M","100","","","","","M","","M","","","97.78","","","","","","NA"
"-61.05","46.55","GRAND ETANG","8201969","2019-02-25 16:00","2019","02","25","16:00","-1.7","","-3.4","","88","","","","","M","","M","","","97.79","","","","","","NA"
"-61.05","46.55","GRAND ETANG","8201969","2019-02-25 17:00","2019","02","25","17:00","-1.8","","-4.1","","84","","","","","M","","M","","","97.84","","","","","","NA"
"-61.05","46.55","GRAND ETANG","8201969","2019-02-25 18:00","2019","02","25","18:00","-1.8","","-3.5","","89","","","","","M","","M","","","97.88","","","","","","NA"
"-61.05","46.55","GRAND ETANG","8201969","2019-02-25 19:00","2019","02","25","19:00","-1.5","","-2.6","","92","","","","","M","","M","","","97.91","","","","","","NA"
"-61.05","46.55","GRAND ETANG","8201969","2019-02-25 20:00","2019","02","25","20:00","-2.3","","-4.7","","84","","","","","M","","M","","","97.99","","","","","","NA"
"-61.05","46.55","GRAND ETANG","8201969","2019-02-25 21:00","2019","02","25","21:00","-3.3","","-4.7","","90","","","","27","","35","","","","98.11","","","","-11","","NA"
"-61.05","46.55","GRAND ETANG","8201969","2019-02-25 22:00","2019","02","25","22:00","-3.7","","-6.1","","84","","","","26","","35","","","","98.10","","","","-12","","NA"
"-61.05","46.55","GRAND ETANG","8201969","2019-02-25 23:00","2019","02","25","23:00","-3.9","","-5.3","","90","","","","27","","42","","","","98.12","","","","-13","","NA"
"-61.05","46.55","GRAND ETANG","8201969","2019-02-26 00:00","2019","02","26","00:00","-4.5","","-6.2","","88","","","","27","","37","","","","98.23","","","","-13","","NA"
"-61.05","46.55","GRAND ETANG","8201969","2019-02-26 01:00","2019","02","26","01:00","-5.2","","-6.9","","88","","","","27","","43","","","","98.29","","","","-15","","NA"
"-61.05","46.55","GRAND ETANG","8201969","2019-02-26 02:00","2019","02","26","02:00","-5.9","","-7.3","","90","","","","28","","35","","","","98.39","","","","-15","","NA"
"-61.05","46.55","GRAND ETANG","8201969","2019-02-26 03:00","2019","02","26","03:00","-6.0","","-7.7","","87","","","","29","","46","","","","98.49","","","","-16","","NA"
"-61.05","46.55","GRAND ETANG","8201969","2019-02-26 04:00","2019","02","26","04:00","-6.2","","-7.8","","88","","","","29","","43","","","","98.59","","","","-16","","NA"
"-61.05","46.55","GRAND ETANG","8201969","2019-02-26 05:00","2019","02","26","05:00","-5.9","","-7.4","","89","","","","28","","42","","","","98.73","","","","-15","","NA"
"-61.05","46.55","GRAND ETANG","8201969","2019-02-26 06:00","2019","02","26","06:00","-7.4","","","M","100","","","","28","","53","","","","98.83","","","","-18","","NA"
"-61.05","46.55","GRAND ETANG","8201969","2019-02-26 07:00","2019","02","26","07:00","-8.5","","-10.0","","89","","","","28","","59","","","","98.95","","","","-20","","NA"
"-61.05","46.55","GRAND ETANG","8201969","2019-02-26 08:00","2019","02","26","08:00","-9.2","","-11.1","","86","","","","28","","53","","","","99.10","","","","-21","","NA"
"-61.05","46.55","GRAND ETANG","8201969","2019-02-26 09:00","2019","02","26","09:00","-10.1","","-11.4","","90","","","","28","","53","","","","99.24","","","","-22","","NA"
"-61.05","46.55","GRAND ETANG","8201969","2019-02-26 10:00","2019","02","26","10:00","-10.6","","-12.1","","89","","","","28","","56","","","","99.32","","","","-23","","NA"
"-61.05","46.55","GRAND ETANG","8201969","2019-02-26 11:00","2019","02","26","11:00","-11.4","","-12.1","","94","","","","27","","50","","","","99.38","","","","-24","","NA"
"-61.05","46.55","GRAND ETANG","8201969","2019-02-26 12:00","2019","02","26","12:00","-11.7","","-14.3","","81","","","","27","","52","","","","99.45","","","","-24","","NA"
"-61.05","46.55","GRAND ETANG","8201969","2019-02-26 13:00","2019","02","26","13:00","-11.9","","-14.5","","81","","","","27","","49","","","","99.42","","","","-24","","NA"
"-61.05","46.55","GRAND ETANG","8201969","2019-02-26 14:00","2019","02","26","14:00","-12.2","","-14.1","","86","","","","27","","48","","","","99.48","","","","-25","","NA"
"-61.05","46.55","GRAND ETANG","8201969","2019-02-26 15:00","2019","02","26","15:00","-12.1","","-15.2","","78","","","","28","","43","","","","99.56","","","","-24","","NA"
"-61.05","46.55","GRAND ETANG","8201969","2019-02-26 16:00","2019","02","26","16:00","-12.5","","-15.1","","80","","","","28","","45","","","","99.55","","","","-25","","NA"
"-61.05","46.55","GRAND ETANG","8201969","2019-02-26 17:00","2019","02","26","17:00","-13.1","","-14.2","","91","","","","28","","38","","","","99.57","","","","-25","","NA"
"-61.05","46.55","GRAND ETANG","8201969","2019-02-26 18:00","2019","02","26","18:00","-13.3","","-15.4","","84","","","","29","","38","","","","99.67","","","","-25","","NA"
"-61.05","46.55","GRAND ETANG","8201969","2019-02-26 19:00","2019","02","26","19:00","-13.3","","-16.9","","74","","","","28","","40","","","","99.72","","","","-25","","NA"
"-61.05","46.55","GRAND ETANG","8201969","2019-02-26 20:00","2019","02","26","20:00","-13.9","","-16.0","","84","","","","28","","41","","","","99.70","","","","-26","","NA"
"-61.05","46.55","GRAND ETANG","8201969","2019-02-26 21:00","2019","02","26","21:00","-14.0","","-15.2","","91","","","","28","","35","","","","99.77","","","","-25","","NA"
"-61.05","46.55","GRAND ETANG","8201969","2019-02-26 22:00","2019","02","26","22:00","-14.4","","-15.5","","91","","","","27","","44","","","","99.79","","","","-27","","NA"
"-61.05","46.55","GRAND ETANG","8201969","2019-02-26 23:00","2019","02","26","23:00","-14.3","","-15.4","","91","","","","27","","31","","","","99.80","","","","-25","","NA"
"-61.05","46.55","GRAND ETANG","8201969","2019-02-27 00:00","2019","02","27","00:00","-14.4","","-15.6","","91","","","","27","","44","","","","99.78","","","","-27","","NA"
"-61.05","46.55","GRAND ETANG","8201969","2019-02-27 01:00","2019","02","27","01:00","-14.4","","-15.5","","91","","","","27","","40","","","","99.85","","","","-27","","NA"
"-61.05","46.55","GRAND ETANG","8201969","2019-02-27 02:00","2019","02","27","02:00","-14.3","","-15.4","","92","","","","27","","48","","","","99.87","","","","-27","","NA"
"-61.05","46.55","GRAND ETANG","8201969","2019-02-27 03:00","2019","02","27","03:00","-14.3","","-15.4","","91","","","","27","","44","","","","99.92","","","","-27","","NA"
"-61.05","46.55","GRAND ETANG","8201969","2019-02-27 04:00","2019","02","27","04:00","-14.2","","-15.2","","92","","","","27","","41","","","","100.01","","","","-27","","NA"
"-61.05","46.55","GRAND ETANG","8201969","2019-02-27 05:00","2019","02","27","05:00","-14.2","","-15.3","","91","","","","27","","37","","","","100.14","","","","-26","","NA"
"-61.05","46.55","GRAND ETANG","8201969","2019-02-27 06:00","2019","02","27","06:00","-13.9","","-14.9","","92","","","","27","","34","","","","100.20","","","","-25","","NA"
"-61.05","46.55","GRAND ETANG","8201969","2019-02-27 07:00","2019","02","27","07:00","-13.6","","-14.6","","92","","","","27","","35","","","","100.30","","","","-25","","NA"
"-61.05","46.55","GRAND ETANG","8201969","2019-02-27 08:00","2019","02","27","08:00","-13.4","","-14.3","","92","","","","26","","27","","","","100.42","","","","-23","","NA"
"-61.05","46.55","GRAND ETANG","8201969","2019-02-27 09:00","2019","02","27","09:00","-13.1","","-14.0","","93","","","","27","","33","","","","100.45","","","","-24","","NA"
"-61.05","46.55","GRAND ETANG","8201969","2019-02-27 10:00","2019","02","27","10:00","-12.8","","-13.7","","93","","","","27","","35","","","","100.46","","","","-24","","NA"
"-61.05","46.55","GRAND ETANG","8201969","2019-02-27 11:00","2019","02","27","11:00","-12.9","","-13.9","","92","","","","27","","42","","","","100.47","","","","-25","","NA"
"-61.05","46.55","GRAND ETANG","8201969","2019-02-27 12:00","2019","02","27","12:00","-12.9","","-13.9","","92","","","","27","","44","","","","100.51","","","","-25","","NA"
"-61.05","46.55","GRAND ETANG","8201969","2019-02-27 13:00","2019","02","27","13:00","-12.4","","-13.4","","92","","","","27","","42","","","","100.52","","","","-24","","NA"
"-61.05","46.55","GRAND ETANG","8201969","2019-02-27 14:00","2019","02","27","14:00","-11.8","","-12.8","","92","","","","28","","45","","","","100.51","","","","-24","","NA"
"-61.05","46.55","GRAND ETANG","8201969","2019-02-27 15:00","2019","02","27","15:00","-11.4","","-12.4","","92","","","","28","","44","","","","100.55","","","","-23","","NA"
"-61.05","46.55","GRAND ETANG","8201969","2019-02-27 16:00","2019","02","27","16:00","-10.6","","-11.8","","91","","","","28","","39","","","","100.59","","","","-21","","NA"
"-61.05","46.55","GRAND ETANG","8201969","2019-02-27 17:00","2019","02","27","17:00","-9.8","","-11.3","","89","","","","28","","28","","","","100.65","","","","-19","","NA"
"-61.05","46.55","GRAND ETANG","8201969","2019-02-27 18:00","2019","02","27","18:00","-10.1","","-11.9","","86","","","","28","","31","","","","100.68","","","","-20","","NA"
"-61.05","46.55","GRAND ETANG","8201969","2019-02-27 19:00","2019","02","27","19:00","-9.8","","-12.2","","83","","","","29","","29","","","","100.73","","","","-19","","NA"
"-61.05","46.55","GRAND ETANG","8201969","2019-02-27 20:00","2019","02","27","20:00","-9.5","","-12.8","","77","","","","29","","35","","","","100.81","","","","-20","","NA"
"-61.05","46.55","GRAND ETANG","8201969","2019-02-27 21:00","2019","02","27","21:00","-9.6","","-13.0","","76","","","","28","","35","","","","100.87","","","","-20","","NA"
"-61.05","46.55","GRAND ETANG","8201969","2019-02-27 22:00","2019","02","27","22:00","-10.1","","-13.1","","78","","","","28","","30","","","","100.90","","","","-20","","NA"
"-61.05","46.55","GRAND ETANG","8201969","2019-02-27 23:00","2019","02","27","23:00","-10.3","","-13.0","","81","","","","28","","26","","","","100.91","","","","-19","","NA"
"-61.05","46.55","GRAND ETANG","8201969","2019-02-28 00:00","2019","02","28","00:00","-10.6","","-12.9","","83","","","","27","","22","","","","100.92","","","","-19","","NA"
"-61.05","46.55","GRAND ETANG","8201969","2019-02-28 01:00","2019","02","28","01:00","-11.0","","-12.8","","87","","","","26","","26","","","","100.98","","","","-20","","NA"
"-61.05","46.55","GRAND ETANG","8201969","2019-02-28 02:00","2019","02","28","02:00","-11.2","","-13.1","","86","","","","26","","25","","","","100.98","","","","-20","","NA"
"-61.05","46.55","GRAND ETANG","8201969","2019-02-28 03:00","2019","02","28","03:00","-11.4","","-13.5","","85","","","","26","","24","","","","100.93","","","","-20","","NA"
"-61.05","46.55","GRAND ETANG","8201969","2019-02-28 04:00","2019","02","28","04:00","-11.8","","-14.5","","80","","","","27","","26","","","","100.90","","","","-21","","NA"
"-61.05","46.55","GRAND ETANG","8201969","2019-02-28 05:00","2019","02","28","05:00","-12.4","","-15.4","","78","","","","28","","30","","","","100.92","","","","-23","","NA"
"-61.05","46.55","GRAND ETANG","8201969","2019-02-28 06:00","2019","02","28","06:00","-12.8","","-15.6","","80","","","","29","","26","","","","100.90","","","","-23","","NA"
"-61.05","46.55","GRAND ETANG","8201969","2019-02-28 07:00","2019","02","28","07:00","-13.1","","-15.7","","81","","","","27","","30","","","","100.92","","","","-24","","NA"
"-61.05","46.55","GRAND ETANG","8201969","2019-02-28 08:00","2019","02","28","08:00","-13.0","","-15.4","","82","","","","27","","24","","","","100.90","","","","-22","","NA"
"-61.05","46.55","GRAND ETANG","8201969","2019-02-28 09:00","2019","02","28","09:00","-12.9","","-15.6","","80","","","","25","","25","","","","100.88","","","","-22","","NA"
"-61.05","46.55","GRAND ETANG","8201969","2019-02-28 10:00","2019","02","28","10:00","-12.5","","-15.7","","77","","","","26","","31","","","","100.88","","","","-23","","NA"
"-61.05","46.55","GRAND ETANG","8201969","2019-02-28 11:00","2019","02","28","11:00","-12.7","","-15.9","","76","","","","25","","31","","","","100.86","","","","-23","","NA"
"-61.05","46.55","GRAND ETANG","8201969","2019-02-28 12:00","2019","02","28","12:00","-11.8","","-15.9","","71","","","","26","","30","","","","100.84","","","","-22","","NA"
"-61.05","46.55","GRAND ETANG","8201969","2019-02-28 13:00","2019","02","28","13:00","-11.5","","-16.0","","69","","","","26","","32","","","","100.79","","","","-22","","NA"
"-61.05","46.55","GRAND ETANG","8201969","2019-02-28 14:00","2019","02","28","14:00","-10.6","","-15.0","","70","","","","27","","29","","","","100.82","","","","-20","","NA"
"-61.05","46.55","GRAND ETANG","8201969","2019-02-28 15:00","2019","02","28","15:00","-11.0","","-15.7","","68","","","","28","","32","","","","100.84","","","","-21","","NA"
"-61.05","46.55","GRAND ETANG","8201969","2019-02-28 16:00","2019","02","28","16:00","-11.8","","-15.2","","75","","","","27","","26","","","","100.87","","","","-21","","NA"
"-61.05","46.55","GRAND ETANG","8201969","2019-02-28 17:00","2019","02","28","17:00","-10.5","","-14.4","","72","","","","27","","21","","","","100.87","","","","-19","","NA"
"-61.05","46.55","GRAND ETANG","8201969","2019-02-28 18:00","2019","02","28","18:00","-11.1","","-14.4","","77","","","","28","","15","","","","100.92","","","","-18","","NA"
"-61.05","46.55","GRAND ETANG","8201969","2019-02-28 19:00","2019","02","28","19:00","-11.3","","-14.6","","77","","","","22","","8","","","","100.99","","","","-16","","NA"
"-61.05","46.55","GRAND ETANG","8201969","2019-02-28 20:00","2019","02","28","20:00","-11.3","","-14.7","","76","","","","20","","11","","","","101.06","","","","-17","","NA"
"-61.05","46.55","GRAND ETANG","8201969","2019-02-28 21:00","2019","02","28","21:00","-12.2","","-15.0","","79","","","","19","","10","","","","101.15","","","","-18","","NA"
"-61.05","46.55","GRAND ETANG","8201969","2019-02-28 22:00","2019","02","28","22:00","-11.9","","-14.4","","82","","","","26","","16","","","","101.14","","","","-19","","NA"
"-61.05","46.55","GRAND ETANG","8201969","2019-02-28 23:00","2019","02","28","23:00","-12.0","","-14.3","","83","","","","27","","15","","","","101.18","","","","-19","","NA"
