"Longitude (x)","Latitude (y)","Station Name","Climate ID","Date/Time (LST)","Year","Month","Day","Time (LST)","Temp (°C)","Temp Flag","Dew Point Temp (°C)","Dew Point Temp Flag","Rel Hum (%)","Rel Hum Flag","Precip. Amount (mm)","Precip. Amount Flag","Wind Dir (10s deg)","Wind Dir Flag","Wind Spd (km/h)","Wind Spd Flag","Visibility (km)","Visibility Flag","Stn Press (kPa)","Stn Press Flag","Hmdx","Hmdx Flag","Wind Chill","Wind Chill Flag","Weather"
"-101.09","53.97","THE PAS A","5052881","2018-01-01 00:00","2018","01","01","00:00","-24.3","","-28.3","","70","","","","27","","11","","24.1","","100.59","","","","-33","","Clear"
"-101.09","53.97","THE PAS A","5052881","2018-01-01 01:00","2018","01","01","01:00","-25.1","","-28.6","","73","","","","27","","11","","24.1","","100.56","","","","-34","","NA"
"-101.09","53.97","THE PAS A","5052881","2018-01-01 02:00","2018","01","01","02:00","-24.8","","-28.3","","73","","","","27","","9","","24.1","","100.55","","","","-32","","NA"
"-101.09","53.97","THE PAS A","5052881","2018-01-01 03:00","2018","01","01","03:00","-24.6","","-28.1","","73","","","","27","","15","","24.1","","100.49","","","","-35","","Clear"
"-101.09","53.97","THE PAS A","5052881","2018-01-01 04:00","2018","01","01","04:00","-25.3","","-29.0","","72","","","","27","","9","","24.1","","100.47","","","","-33","","NA"
"-101.09","53.97","THE PAS A","5052881","2018-01-01 05:00","2018","01","01","05:00","-24.1","","-28.0","","71","","","","27","","15","","24.1","","100.35","","","","-34","","NA"
"-101.09","53.97","THE PAS A","5052881","2018-01-01 06:00","2018","01","01","06:00","-23.4","","-27.9","","67","","","","27","","18","","24.1","","100.29","","","","-34","","Clear"
"-101.09","53.97","THE PAS A","5052881","2018-01-01 07:00","2018","01","01","07:00","-23.3","","-28.0","","66","","","","27","","18","","24.1","","100.22","","","","-34","","NA"
"-101.09","53.97","THE PAS A","5052881","2018-01-01 08:00","2018","01","01","08:00","-23.4","","-27.6","","69","","","","27","","22","","24.1","","100.12","","","","-35","","NA"
"-101.09","53.97","THE PAS A","5052881","2018-01-01 09:00","2018","01","01","09:00","-22.5","","-26.1","","73","","","","23","","26","","24.1","","99.97","","","","-35","","Blowing Snow"
"-101.09","53.97","THE PAS A","5052881","2018-01-01 10:00","2018","01","01","10:00","-21.9","","-25.8","","71","","","","27","","22","","24.1","","99.92","","","","-33","","Blowing Snow"
"-101.09","53.97","THE PAS A","5052881","2018-01-01 11:00","2018","01","01","11:00","-20.6","","-25.8","","64","","","","27","","22","","24.1","","99.83","","","","-32","","Blowing Snow"
"-101.09","53.97","THE PAS A","5052881","2018-01-01 12:00","2018","01","01","12:00","-19.4","","-26.1","","56","","","","27","","22","","24.1","","99.72","","","","-30","","Blowing Snow"
"-101.09","53.97","THE PAS A","5052881","2018-01-01 13:00","2018","01","01","13:00","-18.7","","-26.3","","52","","","","27","","30","","19.3","","99.60","","","","-31","","Blowing Snow"
"-101.09","53.97","THE PAS A","5052881","2018-01-01 14:00","2018","01","01","14:00","-18.2","","-25.8","","52","","","","23","","26","","20.9","","99.39","","","","-29","","Blowing Snow"
"-101.09","53.97","THE PAS A","5052881","2018-01-01 15:00","2018","01","01","15:00","-18.0","","-25.0","","55","","","","27","","26","","24.1","","99.23","","","","-29","","Blowing Snow"
"-101.09","53.97","THE PAS A","5052881","2018-01-01 16:00","2018","01","01","16:00","-18.1","","-24.7","","57","","","","27","","22","","24.1","","99.22","","","","-29","","Blowing Snow"
"-101.09","53.97","THE PAS A","5052881","2018-01-01 17:00","2018","01","01","17:00","-18.4","","-24.6","","59","","","","23","","22","","24.1","","99.08","","","","-29","","Blowing Snow"
"-101.09","53.97","THE PAS A","5052881","2018-01-01 18:00","2018","01","01","18:00","-18.8","","-24.4","","62","","","","27","","22","","24.1","","99.02","","","","-29","","Blowing Snow"
"-101.09","53.97","THE PAS A","5052881","2018-01-01 19:00","2018","01","01","19:00","-19.4","","-24.8","","63","","","","27","","22","","24.1","","98.91","","","","-30","","Blowing Snow"
"-101.09","53.97","THE PAS A","5052881","2018-01-01 20:00","2018","01","01","20:00","-19.5","","-24.7","","64","","","","27","","22","","24.1","","98.78","","","","-30","","Blowing Snow"
"-101.09","53.97","THE PAS A","5052881","2018-01-01 21:00","2018","01","01","21:00","-19.5","","-24.5","","65","","","","27","","28","","24.1","","98.67","","","","-32","","Blowing Snow"
"-101.09","53.97","THE PAS A","5052881","2018-01-01 22:00","2018","01","01","22:00","-19.5","","-24.7","","64","","","","23","","28","","24.1","","98.49","","","","-32","","Blowing Snow"
"-101.09","53.97","THE PAS A","5052881","2018-01-01 23:00","2018","01","01","23:00","-19.4","","-24.8","","63","","","","23","","17","","24.1","","98.33","","","","-29","","NA"
"-101.09","53.97","THE PAS A","5052881","2018-01-02 00:00","2018","01","02","00:00","-20.7","","-25.2","","68","","","","18","","15","","24.1","","98.18","","","","-30","","Mostly Cloudy"
"-101.09","53.97","THE PAS A","5052881","2018-01-02 01:00","2018","01","02","01:00","-20.4","","-24.7","","69","","","","23","","9","","24.1","","98.08","","","","-27","","NA"
"-101.09","53.97","THE PAS A","5052881","2018-01-02 02:00","2018","01","02","02:00","-19.8","","-24.0","","70","","","","18","","8","","24.1","","97.96","","","","-26","","NA"
"-101.09","53.97","THE PAS A","5052881","2018-01-02 03:00","2018","01","02","03:00","-19.3","","-22.8","","74","","","","23","","4","","19.3","","97.94","","","","-23","","Snow"
"-101.09","53.97","THE PAS A","5052881","2018-01-02 04:00","2018","01","02","04:00","-18.2","","-21.1","","78","","","","32","","9","","4.8","","97.92","","","","-25","","Snow"
"-101.09","53.97","THE PAS A","5052881","2018-01-02 05:00","2018","01","02","05:00","-18.6","","-21.4","","79","","","","32","","11","","19.3","","97.96","","","","-26","","Snow"
"-101.09","53.97","THE PAS A","5052881","2018-01-02 06:00","2018","01","02","06:00","-19.1","","-22.5","","75","","","","32","","18","","16.1","","98.03","","","","-29","","Snow"
"-101.09","53.97","THE PAS A","5052881","2018-01-02 07:00","2018","01","02","07:00","-20.3","","-23.7","","75","","","","36","","15","","24.1","","98.13","","","","-29","","NA"
"-101.09","53.97","THE PAS A","5052881","2018-01-02 08:00","2018","01","02","08:00","-21.1","","-24.3","","76","","","","36","","13","","24.1","","98.29","","","","-30","","NA"
"-101.09","53.97","THE PAS A","5052881","2018-01-02 09:00","2018","01","02","09:00","-21.5","","-24.8","","75","","","","36","","13","","24.1","","98.44","","","","-30","","Mainly Clear"
"-101.09","53.97","THE PAS A","5052881","2018-01-02 10:00","2018","01","02","10:00","-21.7","","-25.5","","72","","","","36","","13","","24.1","","98.61","","","","-30","","NA"
"-101.09","53.97","THE PAS A","5052881","2018-01-02 11:00","2018","01","02","11:00","-21.6","","-25.5","","71","","","","36","","13","","24.1","","98.79","","","","-30","","NA"
"-101.09","53.97","THE PAS A","5052881","2018-01-02 12:00","2018","01","02","12:00","-21.0","","-26.0","","65","","","","32","","9","","24.1","","98.89","","","","-28","","Mainly Clear"
"-101.09","53.97","THE PAS A","5052881","2018-01-02 13:00","2018","01","02","13:00","-20.4","","-25.6","","64","","","","36","","13","","24.1","","98.97","","","","-29","","NA"
"-101.09","53.97","THE PAS A","5052881","2018-01-02 14:00","2018","01","02","14:00","-20.1","","-25.3","","64","","","","32","","14","","24.1","","99.03","","","","-29","","NA"
"-101.09","53.97","THE PAS A","5052881","2018-01-02 15:00","2018","01","02","15:00","-20.1","","-25.3","","64","","","","32","","17","","24.1","","99.15","","","","-30","","Clear"
"-101.09","53.97","THE PAS A","5052881","2018-01-02 16:00","2018","01","02","16:00","-21.2","","-26.0","","66","","","","33","","18","","24.1","","99.24","","","","-31","","NA"
"-101.09","53.97","THE PAS A","5052881","2018-01-02 17:00","2018","01","02","17:00","-22.6","","-26.8","","69","","","","32","","14","","24.1","","99.25","","","","-32","","NA"
"-101.09","53.97","THE PAS A","5052881","2018-01-02 18:00","2018","01","02","18:00","-22.1","","-26.3","","69","","","","32","","20","","24.1","","99.43","","","","-33","","Clear"
"-101.09","53.97","THE PAS A","5052881","2018-01-02 19:00","2018","01","02","19:00","-22.9","","-27.0","","70","","","","33","","16","","24.1","","99.49","","","","-33","","NA"
"-101.09","53.97","THE PAS A","5052881","2018-01-02 20:00","2018","01","02","20:00","-24.1","","-27.8","","72","","","","33","","12","","24.1","","99.51","","","","-33","","NA"
"-101.09","53.97","THE PAS A","5052881","2018-01-02 21:00","2018","01","02","21:00","-25.6","","-29.1","","73","","","","32","","6","","24.1","","99.50","","","","-31","","Clear"
"-101.09","53.97","THE PAS A","5052881","2018-01-02 22:00","2018","01","02","22:00","-25.6","","-29.3","","72","","","","33","","10","","24.1","","99.52","","","","-34","","NA"
"-101.09","53.97","THE PAS A","5052881","2018-01-02 23:00","2018","01","02","23:00","-26.4","","-30.0","","72","","","","32","","8","","24.1","","99.54","","","","-34","","NA"
"-101.09","53.97","THE PAS A","5052881","2018-01-03 00:00","2018","01","03","00:00","-26.8","","-30.4","","72","","","","33","","7","","24.1","","99.58","","","","-34","","Mainly Clear"
"-101.09","53.97","THE PAS A","5052881","2018-01-03 01:00","2018","01","03","01:00","-26.5","","-30.3","","71","","","","36","","8","","24.1","","99.59","","","","-34","","NA"
"-101.09","53.97","THE PAS A","5052881","2018-01-03 02:00","2018","01","03","02:00","-25.5","","-29.4","","71","","","","36","","5","","24.1","","99.60","","","","-31","","NA"
"-101.09","53.97","THE PAS A","5052881","2018-01-03 03:00","2018","01","03","03:00","-25.4","","-29.4","","69","","","","1","","5","","24.1","","99.63","","","","-30","","Mostly Cloudy"
"-101.09","53.97","THE PAS A","5052881","2018-01-03 04:00","2018","01","03","04:00","-25.9","","-29.9","","69","","","","36","","5","","24.1","","99.67","","","","-31","","NA"
"-101.09","53.97","THE PAS A","5052881","2018-01-03 05:00","2018","01","03","05:00","-26.6","","-30.7","","69","","","","3","","4","","24.1","","99.65","","","","-31","","NA"
"-101.09","53.97","THE PAS A","5052881","2018-01-03 06:00","2018","01","03","06:00","-27.5","","-31.4","","70","","","","4","","4","","24.1","","99.62","","","","-32","","Mostly Cloudy"
"-101.09","53.97","THE PAS A","5052881","2018-01-03 07:00","2018","01","03","07:00","-26.9","","-30.9","","69","","","","6","","3","","24.1","","99.64","","","","-30","","NA"
"-101.09","53.97","THE PAS A","5052881","2018-01-03 08:00","2018","01","03","08:00","-26.7","","-30.8","","69","","","","5","","4","","24.1","","99.66","","","","-31","","NA"
"-101.09","53.97","THE PAS A","5052881","2018-01-03 09:00","2018","01","03","09:00","-26.4","","-30.5","","69","","","","9","","6","","24.1","","99.66","","","","-32","","Mostly Cloudy"
"-101.09","53.97","THE PAS A","5052881","2018-01-03 10:00","2018","01","03","10:00","-26.1","","-30.2","","69","","","","10","","4","","24.1","","99.66","","","","-30","","NA"
"-101.09","53.97","THE PAS A","5052881","2018-01-03 11:00","2018","01","03","11:00","-25.4","","-29.6","","69","","","","12","","7","","24.1","","99.66","","","","-32","","NA"
"-101.09","53.97","THE PAS A","5052881","2018-01-03 12:00","2018","01","03","12:00","-25.1","","-29.4","","68","","","","17","","6","","24.1","","99.64","","","","-31","","Cloudy"
"-101.09","53.97","THE PAS A","5052881","2018-01-03 13:00","2018","01","03","13:00","-24.2","","-28.9","","66","","","","17","","6","","24.1","","99.60","","","","-30","","NA"
"-101.09","53.97","THE PAS A","5052881","2018-01-03 14:00","2018","01","03","14:00","-23.8","","-28.9","","63","","","","13","","11","","24.1","","99.54","","","","-32","","NA"
"-101.09","53.97","THE PAS A","5052881","2018-01-03 15:00","2018","01","03","15:00","-24.2","","-29.3","","63","","","","12","","5","","24.1","","99.57","","","","-29","","Mainly Clear"
"-101.09","53.97","THE PAS A","5052881","2018-01-03 16:00","2018","01","03","16:00","-24.9","","-29.6","","65","","","","10","","5","","24.1","","99.56","","","","-30","","NA"
"-101.09","53.97","THE PAS A","5052881","2018-01-03 17:00","2018","01","03","17:00","-26.1","","-30.5","","68","","","","8","","12","","24.1","","99.59","","","","-35","","NA"
"-101.09","53.97","THE PAS A","5052881","2018-01-03 18:00","2018","01","03","18:00","-26.3","","-30.5","","68","","","","10","","11","","24.1","","99.60","","","","-35","","Mainly Clear"
"-101.09","53.97","THE PAS A","5052881","2018-01-03 19:00","2018","01","03","19:00","-26.7","","-30.8","","69","","","","9","","7","","24.1","","99.66","","","","-33","","NA"
"-101.09","53.97","THE PAS A","5052881","2018-01-03 20:00","2018","01","03","20:00","-26.6","","-30.7","","69","","","","9","","12","","24.1","","99.57","","","","-36","","NA"
"-101.09","53.97","THE PAS A","5052881","2018-01-03 21:00","2018","01","03","21:00","-26.1","","-30.2","","69","","","","10","","11","","24.1","","99.60","","","","-35","","Mainly Clear"
"-101.09","53.97","THE PAS A","5052881","2018-01-03 22:00","2018","01","03","22:00","-26.6","","-30.6","","69","","","","10","","8","","24.1","","99.65","","","","-34","","NA"
"-101.09","53.97","THE PAS A","5052881","2018-01-03 23:00","2018","01","03","23:00","-27.4","","-31.3","","70","","","","11","","8","","24.1","","99.68","","","","-35","","NA"
"-101.09","53.97","THE PAS A","5052881","2018-01-04 00:00","2018","01","04","00:00","-27.1","","-30.4","","74","","","","9","","4","","24.1","","99.65","","","","-31","","Mainly Clear"
"-101.09","53.97","THE PAS A","5052881","2018-01-04 01:00","2018","01","04","01:00","-26.5","","-30.0","","73","","","","9","","4","","24.1","","99.70","","","","-31","","NA"
"-101.09","53.97","THE PAS A","5052881","2018-01-04 02:00","2018","01","04","02:00","-26.0","","-29.8","","71","","","","9","","4","","24.1","","99.71","","","","-30","","NA"
"-101.09","53.97","THE PAS A","5052881","2018-01-04 03:00","2018","01","04","03:00","-25.9","","-30.0","","69","","","","14","","9","","24.1","","99.72","","","","-34","","Cloudy"
"-101.09","53.97","THE PAS A","5052881","2018-01-04 04:00","2018","01","04","04:00","-26.5","","-30.1","","72","","","","9","","8","","24.1","","99.75","","","","-34","","NA"
"-101.09","53.97","THE PAS A","5052881","2018-01-04 05:00","2018","01","04","05:00","-25.7","","-29.5","","71","","","","14","","8","","24.1","","99.74","","","","-33","","NA"
"-101.09","53.97","THE PAS A","5052881","2018-01-04 06:00","2018","01","04","06:00","-25.9","","-29.7","","71","","","","9","","8","","24.1","","99.74","","","","-33","","Cloudy"
"-101.09","53.97","THE PAS A","5052881","2018-01-04 07:00","2018","01","04","07:00","-25.9","","-29.7","","71","","","","9","","8","","24.1","","99.78","","","","-33","","NA"
"-101.09","53.97","THE PAS A","5052881","2018-01-04 08:00","2018","01","04","08:00","-26.0","","-29.7","","72","","","","14","","9","","24.1","","99.79","","","","-34","","NA"
"-101.09","53.97","THE PAS A","5052881","2018-01-04 09:00","2018","01","04","09:00","-27.9","","-31.3","","73","","","","9","","8","","24.1","","99.83","","","","-36","","Mostly Cloudy"
"-101.09","53.97","THE PAS A","5052881","2018-01-04 10:00","2018","01","04","10:00","-27.2","","-31.8","","66","","","","14","","9","","24.1","","99.85","","","","-35","","NA"
"-101.09","53.97","THE PAS A","5052881","2018-01-04 11:00","2018","01","04","11:00","-26.3","","-31.2","","64","","","","14","","13","","24.1","","99.89","","","","-36","","NA"
"-101.09","53.97","THE PAS A","5052881","2018-01-04 12:00","2018","01","04","12:00","-24.6","","-30.7","","58","","","","14","","13","","24.1","","99.87","","","","-34","","Clear"
"-101.09","53.97","THE PAS A","5052881","2018-01-04 13:00","2018","01","04","13:00","-23.6","","-29.0","","62","","","","13","","13","","24.1","","99.84","","","","-33","","NA"
"-101.09","53.97","THE PAS A","5052881","2018-01-04 14:00","2018","01","04","14:00","-22.6","","-28.4","","60","","","","12","","13","","24.1","","99.88","","","","-32","","NA"
"-101.09","53.97","THE PAS A","5052881","2018-01-04 15:00","2018","01","04","15:00","-22.3","","-28.1","","60","","","","10","","12","","24.1","","99.90","","","","-31","","Clear"
"-101.09","53.97","THE PAS A","5052881","2018-01-04 16:00","2018","01","04","16:00","-23.1","","-28.5","","62","","","","10","","12","","24.1","","99.91","","","","-32","","NA"
"-101.09","53.97","THE PAS A","5052881","2018-01-04 17:00","2018","01","04","17:00","-24.3","","-29.0","","66","","","","10","","13","","24.1","","99.94","","","","-34","","NA"
"-101.09","53.97","THE PAS A","5052881","2018-01-04 18:00","2018","01","04","18:00","-24.7","","-29.0","","68","","","","10","","12","","24.1","","99.98","","","","-34","","Clear"
"-101.09","53.97","THE PAS A","5052881","2018-01-04 19:00","2018","01","04","19:00","-25.3","","-29.3","","70","","","","10","","13","","24.1","","99.99","","","","-35","","NA"
"-101.09","53.97","THE PAS A","5052881","2018-01-04 20:00","2018","01","04","20:00","-24.9","","-28.9","","70","","","","11","","16","","24.1","","99.98","","","","-35","","NA"
"-101.09","53.97","THE PAS A","5052881","2018-01-04 21:00","2018","01","04","21:00","-25.4","","-29.5","","69","","","","13","","15","","24.1","","100.01","","","","-36","","Clear"
"-101.09","53.97","THE PAS A","5052881","2018-01-04 22:00","2018","01","04","22:00","-25.9","","-30.0","","69","","","","12","","13","","24.1","","100.02","","","","-36","","NA"
"-101.09","53.97","THE PAS A","5052881","2018-01-04 23:00","2018","01","04","23:00","-26.5","","-30.4","","70","","","","11","","14","","24.1","","99.98","","","","-37","","NA"
"-101.09","53.97","THE PAS A","5052881","2018-01-05 00:00","2018","01","05","00:00","-27.0","","-30.9","","70","","","","12","","14","","24.1","","100.03","","","","-37","","Clear"
"-101.09","53.97","THE PAS A","5052881","2018-01-05 01:00","2018","01","05","01:00","-27.5","","-31.4","","70","","","","11","","10","","24.1","","100.01","","","","-36","","NA"
"-101.09","53.97","THE PAS A","5052881","2018-01-05 02:00","2018","01","05","02:00","-26.9","","-30.9","","70","","","","12","","15","","24.1","","99.96","","","","-38","","NA"
"-101.09","53.97","THE PAS A","5052881","2018-01-05 03:00","2018","01","05","03:00","-26.6","","-30.7","","69","","","","12","","16","","24.1","","99.99","","","","-38","","Clear"
"-101.09","53.97","THE PAS A","5052881","2018-01-05 04:00","2018","01","05","04:00","-26.3","","-29.9","","72","","","","14","","9","","24.1","","99.99","","","","-34","","NA"
"-101.09","53.97","THE PAS A","5052881","2018-01-05 05:00","2018","01","05","05:00","-25.8","","-29.4","","72","","","","14","","9","","24.1","","100.01","","","","-34","","NA"
"-101.09","53.97","THE PAS A","5052881","2018-01-05 06:00","2018","01","05","06:00","-25.1","","-28.8","","72","","","","9","","9","","24.1","","99.99","","","","-33","","Mostly Cloudy"
"-101.09","53.97","THE PAS A","5052881","2018-01-05 07:00","2018","01","05","07:00","-24.0","","-27.9","","71","","","","14","","13","","24.1","","99.94","","","","-33","","NA"
"-101.09","53.97","THE PAS A","5052881","2018-01-05 08:00","2018","01","05","08:00","-23.9","","-27.8","","71","","","","14","","8","","24.1","","99.87","","","","-31","","NA"
"-101.09","53.97","THE PAS A","5052881","2018-01-05 09:00","2018","01","05","09:00","-23.5","","-27.5","","70","","","","14","","8","","24.1","","99.90","","","","-30","","Cloudy"
"-101.09","53.97","THE PAS A","5052881","2018-01-05 10:00","2018","01","05","10:00","-22.9","","-27.6","","66","","","","14","","19","","24.1","","99.86","","","","-34","","NA"
"-101.09","53.97","THE PAS A","5052881","2018-01-05 11:00","2018","01","05","11:00","-21.6","","-26.5","","65","","","","14","","30","","24.1","","99.88","","","","-35","","NA"
"-101.09","53.97","THE PAS A","5052881","2018-01-05 12:00","2018","01","05","12:00","-20.7","","-25.9","","64","","","","14","","36","","24.1","","99.82","","","","-34","","Blowing Snow"
"-101.09","53.97","THE PAS A","5052881","2018-01-05 13:00","2018","01","05","13:00","-20.1","","-25.5","","62","","","","14","","30","","24.1","","99.71","","","","-33","","NA"
"-101.09","53.97","THE PAS A","5052881","2018-01-05 14:00","2018","01","05","14:00","-19.0","","-24.6","","62","","","","14","","26","","24.1","","99.57","","","","-31","","NA"
"-101.09","53.97","THE PAS A","5052881","2018-01-05 15:00","2018","01","05","15:00","-18.6","","-24.5","","60","","","","13","","20","","24.1","","99.61","","","","-29","","Cloudy"
"-101.09","53.97","THE PAS A","5052881","2018-01-05 16:00","2018","01","05","16:00","-18.4","","-23.8","","63","","","","15","","25","","24.1","","99.52","","","","-30","","NA"
"-101.09","53.97","THE PAS A","5052881","2018-01-05 17:00","2018","01","05","17:00","-17.6","","-22.9","","64","","","","15","","21","","24.1","","99.50","","","","-28","","NA"
"-101.09","53.97","THE PAS A","5052881","2018-01-05 18:00","2018","01","05","18:00","-17.1","","-22.4","","64","","","","15","","29","","24.1","","99.39","","","","-29","","Snow,Blowing Snow"
"-101.09","53.97","THE PAS A","5052881","2018-01-05 19:00","2018","01","05","19:00","-16.8","","-21.6","","67","","","","14","","35","","24.1","","99.23","","","","-29","","Blowing Snow"
"-101.09","53.97","THE PAS A","5052881","2018-01-05 20:00","2018","01","05","20:00","-16.6","","-20.9","","70","","","","14","","28","","24.1","","99.18","","","","-28","","Snow,Blowing Snow"
"-101.09","53.97","THE PAS A","5052881","2018-01-05 21:00","2018","01","05","21:00","-16.1","","-20.7","","68","","","","15","","28","","24.1","","99.05","","","","-27","","Snow,Blowing Snow"
"-101.09","53.97","THE PAS A","5052881","2018-01-05 22:00","2018","01","05","22:00","-15.9","","-20.4","","69","","","","15","","26","","24.1","","98.93","","","","-27","","Snow,Blowing Snow"
"-101.09","53.97","THE PAS A","5052881","2018-01-05 23:00","2018","01","05","23:00","-15.6","","-20.0","","70","","","","16","","28","","24.1","","98.80","","","","-26","","Snow,Blowing Snow"
"-101.09","53.97","THE PAS A","5052881","2018-01-06 00:00","2018","01","06","00:00","-15.3","","-19.8","","69","","","","16","","21","","24.1","","98.69","","","","-25","","Cloudy"
"-101.09","53.97","THE PAS A","5052881","2018-01-06 01:00","2018","01","06","01:00","-14.9","","-19.5","","68","","","","17","","22","","24.1","","98.57","","","","-24","","NA"
"-101.09","53.97","THE PAS A","5052881","2018-01-06 02:00","2018","01","06","02:00","-14.8","","-19.2","","70","","","","16","","22","","24.1","","98.46","","","","-24","","NA"
"-101.09","53.97","THE PAS A","5052881","2018-01-06 03:00","2018","01","06","03:00","-14.6","","-18.6","","72","","","","15","","24","","24.1","","98.27","","","","-24","","Cloudy"
"-101.09","53.97","THE PAS A","5052881","2018-01-06 04:00","2018","01","06","04:00","-14.4","","-18.3","","72","","","","16","","13","","24.1","","98.18","","","","-22","","NA"
"-101.09","53.97","THE PAS A","5052881","2018-01-06 05:00","2018","01","06","05:00","-15.5","","-19.0","","75","","","","14","","11","","24.1","","98.04","","","","-22","","NA"
"-101.09","53.97","THE PAS A","5052881","2018-01-06 06:00","2018","01","06","06:00","-14.9","","-18.1","","77","","","","14","","16","","24.1","","97.93","","","","-23","","Cloudy"
"-101.09","53.97","THE PAS A","5052881","2018-01-06 07:00","2018","01","06","07:00","-14.6","","-17.5","","79","","","","15","","15","","24.1","","97.79","","","","-22","","Snow"
"-101.09","53.97","THE PAS A","5052881","2018-01-06 08:00","2018","01","06","08:00","-14.0","","-16.9","","79","","","","16","","17","","24.1","","97.62","","","","-22","","Snow"
"-101.09","53.97","THE PAS A","5052881","2018-01-06 09:00","2018","01","06","09:00","-13.8","","-16.8","","79","","","","14","","14","","19.3","","97.52","","","","-21","","Snow"
"-101.09","53.97","THE PAS A","5052881","2018-01-06 10:00","2018","01","06","10:00","-13.5","","-16.4","","79","","","","15","","16","","14.5","","97.46","","","","-21","","Snow"
"-101.09","53.97","THE PAS A","5052881","2018-01-06 11:00","2018","01","06","11:00","-12.7","","-15.8","","78","","","","16","","13","","19.3","","97.35","","","","-20","","Snow"
"-101.09","53.97","THE PAS A","5052881","2018-01-06 12:00","2018","01","06","12:00","-12.0","","-15.1","","78","","","","16","","14","","19.3","","97.22","","","","-19","","Snow"
"-101.09","53.97","THE PAS A","5052881","2018-01-06 13:00","2018","01","06","13:00","-11.4","","-14.6","","78","","","","16","","13","","14.5","","97.10","","","","-18","","Snow"
"-101.09","53.97","THE PAS A","5052881","2018-01-06 14:00","2018","01","06","14:00","-10.7","","-14.1","","76","","","","16","","14","","19.3","","97.05","","","","-17","","Snow"
"-101.09","53.97","THE PAS A","5052881","2018-01-06 15:00","2018","01","06","15:00","-10.4","","-13.7","","77","","","","16","","12","","12.9","","96.98","","","","-16","","Snow"
"-101.09","53.97","THE PAS A","5052881","2018-01-06 16:00","2018","01","06","16:00","-10.2","","-13.4","","78","","","","16","","12","","19.3","","96.93","","","","-16","","Snow"
"-101.09","53.97","THE PAS A","5052881","2018-01-06 17:00","2018","01","06","17:00","-10.1","","-13.2","","78","","","","17","","8","","24.1","","96.95","","","","-15","","Snow"
"-101.09","53.97","THE PAS A","5052881","2018-01-06 18:00","2018","01","06","18:00","-10.0","","-12.9","","79","","","","16","","9","","24.1","","96.90","","","","-15","","Snow"
"-101.09","53.97","THE PAS A","5052881","2018-01-06 19:00","2018","01","06","19:00","-10.0","","-13.0","","79","","","","19","","4","","24.1","","96.85","","","","-12","","Snow"
"-101.09","53.97","THE PAS A","5052881","2018-01-06 20:00","2018","01","06","20:00","-9.9","","-12.7","","80","","","","20","","4","","24.1","","96.84","","","","-12","","Snow"
"-101.09","53.97","THE PAS A","5052881","2018-01-06 21:00","2018","01","06","21:00","-9.4","","-12.1","","81","","","","22","","4","","20.9","","96.82","","","","-12","","Snow"
"-101.09","53.97","THE PAS A","5052881","2018-01-06 22:00","2018","01","06","22:00","-9.1","","-11.5","","83","","","","26","","9","","24.1","","96.76","","","","-14","","NA"
"-101.09","53.97","THE PAS A","5052881","2018-01-06 23:00","2018","01","06","23:00","-9.1","","-11.3","","84","","","","26","","14","","24.1","","96.74","","","","-15","","NA"
"-101.09","53.97","THE PAS A","5052881","2018-01-07 00:00","2018","01","07","00:00","-8.6","","-10.6","","85","","","","26","","12","","24.1","","96.75","","","","-14","","Cloudy"
"-101.09","53.97","THE PAS A","5052881","2018-01-07 01:00","2018","01","07","01:00","-8.0","","-10.2","","85","","","","25","","15","","9.7","","96.73","","","","-14","","Snow"
"-101.09","53.97","THE PAS A","5052881","2018-01-07 02:00","2018","01","07","02:00","-7.5","","-9.7","","85","","","","26","","14","","9.7","","96.74","","","","-13","","Snow"
"-101.09","53.97","THE PAS A","5052881","2018-01-07 03:00","2018","01","07","03:00","-6.8","","-9.0","","85","","","","27","","20","","24.1","","96.78","","","","-14","","Cloudy"
"-101.09","53.97","THE PAS A","5052881","2018-01-07 04:00","2018","01","07","04:00","-5.2","","-7.2","","86","","","","29","","23","","24.1","","96.81","","","","-12","","NA"
"-101.09","53.97","THE PAS A","5052881","2018-01-07 05:00","2018","01","07","05:00","-5.2","","-7.4","","85","","","","28","","17","","24.1","","96.84","","","","-11","","NA"
"-101.09","53.97","THE PAS A","5052881","2018-01-07 06:00","2018","01","07","06:00","-4.7","","-6.8","","85","","","","25","","12","","24.1","","96.79","","","","-9","","Cloudy"
"-101.09","53.97","THE PAS A","5052881","2018-01-07 07:00","2018","01","07","07:00","-4.1","","-6.1","","86","","","","25","","17","","24.1","","96.76","","","","-10","","NA"
"-101.09","53.97","THE PAS A","5052881","2018-01-07 08:00","2018","01","07","08:00","-4.2","","-6.0","","88","","","","25","","17","","24.1","","96.72","","","","-10","","NA"
"-101.09","53.97","THE PAS A","5052881","2018-01-07 09:00","2018","01","07","09:00","-4.3","","-6.0","","88","","","","25","","22","","24.1","","96.67","","","","-11","","Mainly Clear"
"-101.09","53.97","THE PAS A","5052881","2018-01-07 10:00","2018","01","07","10:00","-4.1","","-6.0","","87","","","","24","","20","","24.1","","96.65","","","","-10","","NA"
"-101.09","53.97","THE PAS A","5052881","2018-01-07 11:00","2018","01","07","11:00","-3.0","","-5.8","","81","","","","26","","16","","22.5","","96.63","","","","-8","","NA"
"-101.09","53.97","THE PAS A","5052881","2018-01-07 12:00","2018","01","07","12:00","-2.1","","-6.1","","74","","","","25","","23","","24.1","","96.51","","","","-8","","Cloudy"
"-101.09","53.97","THE PAS A","5052881","2018-01-07 13:00","2018","01","07","13:00","-2.2","","-6.7","","72","","","","26","","33","","24.1","","96.43","","","","-10","","NA"
"-101.09","53.97","THE PAS A","5052881","2018-01-07 14:00","2018","01","07","14:00","-2.1","","-6.9","","70","","","","26","","26","","24.1","","96.39","","","","-9","","NA"
"-101.09","53.97","THE PAS A","5052881","2018-01-07 15:00","2018","01","07","15:00","-1.8","","-6.4","","71","","","","26","","28","","9.7","","96.40","","","","-9","","Snow"
"-101.09","53.97","THE PAS A","5052881","2018-01-07 16:00","2018","01","07","16:00","-4.8","","-7.1","","84","","","","31","","35","","3.2","","96.57","","","","-13","","Snow,Blowing Snow"
"-101.09","53.97","THE PAS A","5052881","2018-01-07 17:00","2018","01","07","17:00","-8.7","","-12.5","","75","","","","30","","51","","3.2","","96.81","","","","-20","","Blowing Snow"
"-101.09","53.97","THE PAS A","5052881","2018-01-07 18:00","2018","01","07","18:00","-9.4","","-14.5","","66","","","","31","","28","","24.1","","96.97","","","","-18","","Mostly Cloudy"
"-101.09","53.97","THE PAS A","5052881","2018-01-07 19:00","2018","01","07","19:00","-9.3","","-14.2","","68","","","","29","","28","","24.1","","97.05","","","","-18","","NA"
"-101.09","53.97","THE PAS A","5052881","2018-01-07 20:00","2018","01","07","20:00","-10.4","","-15.1","","69","","","","30","","32","","24.1","","97.13","","","","-20","","NA"
"-101.09","53.97","THE PAS A","5052881","2018-01-07 21:00","2018","01","07","21:00","-10.3","","-15.0","","69","","","","30","","32","","24.1","","97.16","","","","-20","","Cloudy"
"-101.09","53.97","THE PAS A","5052881","2018-01-07 22:00","2018","01","07","22:00","-10.4","","-15.3","","68","","","","31","","34","","24.1","","97.23","","","","-21","","Blowing Snow"
"-101.09","53.97","THE PAS A","5052881","2018-01-07 23:00","2018","01","07","23:00","-10.6","","-15.4","","68","","","","31","","27","","24.1","","97.32","","","","-20","","Blowing Snow"
"-101.09","53.97","THE PAS A","5052881","2018-01-08 00:00","2018","01","08","00:00","-10.8","","-15.5","","69","","","","31","","30","","24.1","","97.42","","","","-21","","Blowing Snow"
"-101.09","53.97","THE PAS A","5052881","2018-01-08 01:00","2018","01","08","01:00","-10.9","","-15.5","","69","","","","31","","28","","24.1","","97.49","","","","-20","","Blowing Snow"
"-101.09","53.97","THE PAS A","5052881","2018-01-08 02:00","2018","01","08","02:00","-11.1","","-15.9","","68","","","","32","","23","","24.1","","97.55","","","","-20","","NA"
"-101.09","53.97","THE PAS A","5052881","2018-01-08 03:00","2018","01","08","03:00","-11.3","","-15.7","","70","","","","33","","15","","24.1","","97.62","","","","-18","","Cloudy"
"-101.09","53.97","THE PAS A","5052881","2018-01-08 04:00","2018","01","08","04:00","-11.0","","-15.6","","69","","","","32","","20","","24.1","","97.73","","","","-19","","NA"
"-101.09","53.97","THE PAS A","5052881","2018-01-08 05:00","2018","01","08","05:00","-11.4","","-15.7","","71","","","","33","","22","","24.1","","97.77","","","","-20","","NA"
"-101.09","53.97","THE PAS A","5052881","2018-01-08 06:00","2018","01","08","06:00","-12.7","","-16.8","","72","","","","34","","13","","24.1","","97.87","","","","-20","","Mostly Cloudy"
"-101.09","53.97","THE PAS A","5052881","2018-01-08 07:00","2018","01","08","07:00","-14.3","","-17.9","","74","","","","34","","9","","24.1","","97.97","","","","-20","","NA"
"-101.09","53.97","THE PAS A","5052881","2018-01-08 08:00","2018","01","08","08:00","-14.9","","-18.3","","76","","","","32","","8","","24.1","","98.01","","","","-20","","NA"
"-101.09","53.97","THE PAS A","5052881","2018-01-08 09:00","2018","01","08","09:00","-15.2","","-18.8","","74","","","","32","","15","","24.1","","98.04","","","","-23","","Mainly Clear"
"-101.09","53.97","THE PAS A","5052881","2018-01-08 10:00","2018","01","08","10:00","-16.0","","-19.6","","74","","","","32","","9","","24.1","","98.10","","","","-22","","NA"
"-101.09","53.97","THE PAS A","5052881","2018-01-08 11:00","2018","01","08","11:00","-15.5","","-19.5","","72","","","","29","","8","","24.1","","98.12","","","","-21","","NA"
"-101.09","53.97","THE PAS A","5052881","2018-01-08 12:00","2018","01","08","12:00","-13.5","","-18.8","","65","","","","33","","3","","24.1","","98.15","","","","-16","","Mainly Clear"
"-101.09","53.97","THE PAS A","5052881","2018-01-08 13:00","2018","01","08","13:00","-13.3","","-18.8","","63","","","","16","","5","","24.1","","98.16","","","","-17","","NA"
"-101.09","53.97","THE PAS A","5052881","2018-01-08 14:00","2018","01","08","14:00","-13.7","","-18.6","","67","","","","16","","14","","24.1","","98.08","","","","-21","","NA"
"-101.09","53.97","THE PAS A","5052881","2018-01-08 15:00","2018","01","08","15:00","-12.4","","-16.9","","69","","","","17","","10","","24.1","","98.06","","","","-18","","Mainly Clear"
"-101.09","53.97","THE PAS A","5052881","2018-01-08 16:00","2018","01","08","16:00","-13.8","","-17.9","","71","","","","14","","11","","24.1","","98.05","","","","-20","","NA"
"-101.09","53.97","THE PAS A","5052881","2018-01-08 17:00","2018","01","08","17:00","-15.6","","-19.6","","72","","","","14","","13","","24.1","","98.02","","","","-23","","NA"
"-101.09","53.97","THE PAS A","5052881","2018-01-08 18:00","2018","01","08","18:00","-16.1","","-19.9","","73","","","","14","","16","","24.1","","97.98","","","","-25","","Mainly Clear"
"-101.09","53.97","THE PAS A","5052881","2018-01-08 19:00","2018","01","08","19:00","-15.3","","-18.9","","74","","","","15","","15","","24.1","","97.98","","","","-23","","NA"
"-101.09","53.97","THE PAS A","5052881","2018-01-08 20:00","2018","01","08","20:00","-14.4","","-17.9","","75","","","","16","","4","","24.1","","98.04","","","","-17","","NA"
"-101.09","53.97","THE PAS A","5052881","2018-01-08 21:00","2018","01","08","21:00","-13.6","","-16.9","","76","","","","17","","8","","24.1","","97.95","","","","-19","","Cloudy"
"-101.09","53.97","THE PAS A","5052881","2018-01-08 22:00","2018","01","08","22:00","-12.4","","-15.8","","76","","","","18","","13","","24.1","","97.89","","","","-19","","NA"
"-101.09","53.97","THE PAS A","5052881","2018-01-08 23:00","2018","01","08","23:00","-11.7","","-15.0","","77","","","","16","","11","","24.1","","97.91","","","","-18","","NA"
"-101.09","53.97","THE PAS A","5052881","2018-01-09 00:00","2018","01","09","00:00","-11.4","","-14.7","","77","","","","15","","11","","24.1","","97.94","","","","-17","","Cloudy"
"-101.09","53.97","THE PAS A","5052881","2018-01-09 01:00","2018","01","09","01:00","-11.4","","-14.4","","79","","","","14","","8","","24.1","","97.91","","","","-16","","NA"
"-101.09","53.97","THE PAS A","5052881","2018-01-09 02:00","2018","01","09","02:00","-11.1","","-14.2","","78","","","","15","","9","","24.1","","97.91","","","","-16","","NA"
"-101.09","53.97","THE PAS A","5052881","2018-01-09 03:00","2018","01","09","03:00","-11.9","","-14.7","","80","","","","5","","7","","24.1","","97.95","","","","-16","","Mainly Clear"
"-101.09","53.97","THE PAS A","5052881","2018-01-09 04:00","2018","01","09","04:00","-12.3","","-14.8","","82","","","","4","","5","","24.1","","97.98","","","","-16","","NA"
"-101.09","53.97","THE PAS A","5052881","2018-01-09 05:00","2018","01","09","05:00","-11.2","","-14.2","","79","","","","4","","7","","24.1","","97.96","","","","-15","","NA"
"-101.09","53.97","THE PAS A","5052881","2018-01-09 06:00","2018","01","09","06:00","-10.6","","-13.9","","77","","","","4","","8","","24.1","","97.98","","","","-15","","Cloudy"
"-101.09","53.97","THE PAS A","5052881","2018-01-09 07:00","2018","01","09","07:00","-10.8","","-14.4","","75","","","","7","","10","","24.1","","97.98","","","","-16","","NA"
"-101.09","53.97","THE PAS A","5052881","2018-01-09 08:00","2018","01","09","08:00","-10.9","","-14.4","","75","","","","7","","12","","24.1","","97.93","","","","-17","","NA"
"-101.09","53.97","THE PAS A","5052881","2018-01-09 09:00","2018","01","09","09:00","-10.9","","-14.7","","74","","","","6","","12","","24.1","","97.98","","","","-17","","Cloudy"
"-101.09","53.97","THE PAS A","5052881","2018-01-09 10:00","2018","01","09","10:00","-11.0","","-14.8","","74","","","","6","","14","","24.1","","97.98","","","","-18","","NA"
"-101.09","53.97","THE PAS A","5052881","2018-01-09 11:00","2018","01","09","11:00","-11.1","","-14.9","","74","","","","7","","17","","19.3","","97.94","","","","-19","","Snow"
"-101.09","53.97","THE PAS A","5052881","2018-01-09 12:00","2018","01","09","12:00","-11.3","","-15.3","","73","","","","7","","15","","24.1","","97.85","","","","-18","","Cloudy"
"-101.09","53.97","THE PAS A","5052881","2018-01-09 13:00","2018","01","09","13:00","-11.8","","-15.7","","73","","","","7","","11","","24.1","","97.72","","","","-18","","NA"
"-101.09","53.97","THE PAS A","5052881","2018-01-09 14:00","2018","01","09","14:00","-12.3","","-16.0","","74","","","","7","","15","","24.1","","97.58","","","","-20","","NA"
"-101.09","53.97","THE PAS A","5052881","2018-01-09 15:00","2018","01","09","15:00","-12.7","","-16.4","","74","","","","7","","23","","16.1","","97.45","","","","-22","","Snow"
"-101.09","53.97","THE PAS A","5052881","2018-01-09 16:00","2018","01","09","16:00","-13.6","","-16.9","","76","","","","8","","14","","1.2","","97.37","","","","-21","","Snow"
"-101.09","53.97","THE PAS A","5052881","2018-01-09 17:00","2018","01","09","17:00","-14.2","","-17.2","","78","","","","7","","14","","1.2","","97.31","","","","-22","","Snow"
"-101.09","53.97","THE PAS A","5052881","2018-01-09 18:00","2018","01","09","18:00","-14.6","","-17.6","","78","","","","6","","15","","1.6","","97.26","","","","-22","","Snow"
"-101.09","53.97","THE PAS A","5052881","2018-01-09 19:00","2018","01","09","19:00","-15.0","","-18.0","","78","","","","5","","13","","1.2","","97.15","","","","-22","","Snow"
"-101.09","53.97","THE PAS A","5052881","2018-01-09 20:00","2018","01","09","20:00","-15.5","","-18.6","","78","","","","5","","14","","1.2","","97.00","","","","-23","","Snow"
"-101.09","53.97","THE PAS A","5052881","2018-01-09 21:00","2018","01","09","21:00","-16.0","","-19.1","","77","","","","4","","11","","1.2","","97.01","","","","-23","","Snow"
"-101.09","53.97","THE PAS A","5052881","2018-01-09 22:00","2018","01","09","22:00","-16.6","","-19.8","","77","","","","1","","15","","1.2","","96.96","","","","-25","","Snow"
"-101.09","53.97","THE PAS A","5052881","2018-01-09 23:00","2018","01","09","23:00","-17.4","","-20.8","","75","","","","2","","17","","3.2","","96.95","","","","-26","","Snow,Blowing Snow"
"-101.09","53.97","THE PAS A","5052881","2018-01-10 00:00","2018","01","10","00:00","-17.8","","-21.4","","74","","","","1","","20","","1.6","","97.02","","","","-28","","Snow,Blowing Snow"
"-101.09","53.97","THE PAS A","5052881","2018-01-10 01:00","2018","01","10","01:00","-18.4","","-22.1","","73","","","","1","","21","","4.8","","97.03","","","","-29","","Snow,Blowing Snow"
"-101.09","53.97","THE PAS A","5052881","2018-01-10 02:00","2018","01","10","02:00","-18.8","","-22.7","","71","","","","36","","20","","4.8","","97.11","","","","-29","","Snow,Blowing Snow"
"-101.09","53.97","THE PAS A","5052881","2018-01-10 03:00","2018","01","10","03:00","-19.3","","-23.5","","69","","","","36","","27","","16.1","","97.24","","","","-31","","Snow,Blowing Snow"
"-101.09","53.97","THE PAS A","5052881","2018-01-10 04:00","2018","01","10","04:00","-19.8","","-24.2","","69","","","","35","","28","","16.1","","97.34","","","","-32","","Snow,Blowing Snow"
"-101.09","53.97","THE PAS A","5052881","2018-01-10 05:00","2018","01","10","05:00","-21.1","","-25.4","","69","","","","34","","27","","16.1","","97.48","","","","-33","","Blowing Snow"
"-101.09","53.97","THE PAS A","5052881","2018-01-10 06:00","2018","01","10","06:00","-22.3","","-26.5","","69","","","","34","","26","","24.1","","97.57","","","","-35","","Blowing Snow"
"-101.09","53.97","THE PAS A","5052881","2018-01-10 07:00","2018","01","10","07:00","-23.1","","-27.3","","69","","","","35","","23","","24.1","","97.68","","","","-35","","Blowing Snow"
"-101.09","53.97","THE PAS A","5052881","2018-01-10 08:00","2018","01","10","08:00","-23.3","","-27.6","","68","","","","35","","24","","24.1","","97.84","","","","-36","","Blowing Snow"
"-101.09","53.97","THE PAS A","5052881","2018-01-10 09:00","2018","01","10","09:00","-24.1","","-28.3","","69","","","","34","","24","","24.1","","97.99","","","","-37","","Blowing Snow"
"-101.09","53.97","THE PAS A","5052881","2018-01-10 10:00","2018","01","10","10:00","-24.4","","-28.8","","67","","","","35","","26","","24.1","","98.14","","","","-37","","Blowing Snow"
"-101.09","53.97","THE PAS A","5052881","2018-01-10 11:00","2018","01","10","11:00","-24.5","","-29.2","","66","","","","35","","26","","24.1","","98.24","","","","-38","","Blowing Snow"
"-101.09","53.97","THE PAS A","5052881","2018-01-10 12:00","2018","01","10","12:00","-24.4","","-29.3","","65","","","","35","","26","","24.1","","98.31","","","","-37","","Blowing Snow"
"-101.09","53.97","THE PAS A","5052881","2018-01-10 13:00","2018","01","10","13:00","-23.8","","-28.9","","63","","","","34","","18","","24.1","","98.41","","","","-35","","Blowing Snow"
"-101.09","53.97","THE PAS A","5052881","2018-01-10 14:00","2018","01","10","14:00","-22.9","","-28.2","","63","","","","33","","19","","24.1","","98.49","","","","-34","","Blowing Snow"
"-101.09","53.97","THE PAS A","5052881","2018-01-10 15:00","2018","01","10","15:00","-23.5","","-28.5","","64","","","","33","","19","","24.1","","98.62","","","","-35","","Cloudy"
"-101.09","53.97","THE PAS A","5052881","2018-01-10 16:00","2018","01","10","16:00","-24.3","","-29.3","","64","","","","33","","21","","24.1","","98.66","","","","-36","","NA"
"-101.09","53.97","THE PAS A","5052881","2018-01-10 17:00","2018","01","10","17:00","-24.9","","-29.8","","65","","","","32","","15","","24.1","","98.81","","","","-35","","NA"
"-101.09","53.97","THE PAS A","5052881","2018-01-10 18:00","2018","01","10","18:00","-25.7","","-30.4","","66","","","","32","","17","","24.1","","98.89","","","","-37","","Mainly Clear"
"-101.09","53.97","THE PAS A","5052881","2018-01-10 19:00","2018","01","10","19:00","-26.5","","-31.1","","66","","","","31","","13","","24.1","","98.99","","","","-36","","NA"
"-101.09","53.97","THE PAS A","5052881","2018-01-10 20:00","2018","01","10","20:00","-26.8","","-31.3","","67","","","","31","","11","","24.1","","99.06","","","","-36","","NA"
"-101.09","53.97","THE PAS A","5052881","2018-01-10 21:00","2018","01","10","21:00","-27.7","","-32.1","","67","","","","31","","13","","24.1","","99.13","","","","-38","","Mainly Clear"
"-101.09","53.97","THE PAS A","5052881","2018-01-10 22:00","2018","01","10","22:00","-28.5","","-32.6","","68","","","","31","","16","","24.1","","99.19","","","","-40","","NA"
"-101.09","53.97","THE PAS A","5052881","2018-01-10 23:00","2018","01","10","23:00","-28.8","","-32.2","","73","","","","32","","11","","24.1","","99.25","","","","-38","","NA"
"-101.09","53.97","THE PAS A","5052881","2018-01-11 00:00","2018","01","11","00:00","-29.5","","-33.4","","70","","","","32","","11","","24.1","","99.31","","","","-39","","Clear"
"-101.09","53.97","THE PAS A","5052881","2018-01-11 01:00","2018","01","11","01:00","-29.3","","-32.9","","72","","","","32","","17","","24.1","","99.33","","","","-41","","NA"
"-101.09","53.97","THE PAS A","5052881","2018-01-11 02:00","2018","01","11","02:00","-29.4","","-33.1","","71","","","","27","","11","","24.1","","99.36","","","","-39","","NA"
"-101.09","53.97","THE PAS A","5052881","2018-01-11 03:00","2018","01","11","03:00","-29.3","","-33.2","","70","","","","27","","11","","24.1","","99.39","","","","-39","","Clear"
"-101.09","53.97","THE PAS A","5052881","2018-01-11 04:00","2018","01","11","04:00","-31.1","","-34.9","","70","","","","23","","4","","24.1","","99.42","","","","-36","","NA"
"-101.09","53.97","THE PAS A","5052881","2018-01-11 05:00","2018","01","11","05:00","-30.3","","-34.3","","69","","","","27","","15","","24.1","","99.42","","","","-42","","NA"
"-101.09","53.97","THE PAS A","5052881","2018-01-11 06:00","2018","01","11","06:00","-31.7","","-35.6","","69","","","","27","","9","","24.1","","99.45","","","","-41","","Clear"
"-101.09","53.97","THE PAS A","5052881","2018-01-11 07:00","2018","01","11","07:00","-31.7","","-35.5","","70","","","","27","","8","","24.1","","99.46","","","","-40","","NA"
"-101.09","53.97","THE PAS A","5052881","2018-01-11 08:00","2018","01","11","08:00","-30.9","","-34.7","","70","","","","27","","15","","24.1","","99.46","","","","-43","","NA"
"-101.09","53.97","THE PAS A","5052881","2018-01-11 09:00","2018","01","11","09:00","-31.6","","-35.5","","69","","","","27","","13","","24.1","","99.51","","","","-43","","Clear"
"-101.09","53.97","THE PAS A","5052881","2018-01-11 10:00","2018","01","11","10:00","-31.2","","-35.6","","66","","","","27","","13","","24.1","","99.58","","","","-42","","NA"
"-101.09","53.97","THE PAS A","5052881","2018-01-11 11:00","2018","01","11","11:00","-29.7","","-34.3","","65","","","","27","","15","","24.1","","99.61","","","","-41","","NA"
"-101.09","53.97","THE PAS A","5052881","2018-01-11 12:00","2018","01","11","12:00","-27.6","","-32.8","","62","","","","27","","13","","24.1","","99.56","","","","-38","","Clear"
"-101.09","53.97","THE PAS A","5052881","2018-01-11 13:00","2018","01","11","13:00","-26.1","","-31.4","","62","","","","27","","21","","24.1","","99.48","","","","-38","","NA"
"-101.09","53.97","THE PAS A","5052881","2018-01-11 14:00","2018","01","11","14:00","-24.9","","-30.6","","60","","","","27","","18","","24.1","","99.43","","","","-36","","NA"
"-101.09","53.97","THE PAS A","5052881","2018-01-11 15:00","2018","01","11","15:00","-24.4","","-30.5","","58","","","","27","","22","","24.1","","99.39","","","","-37","","Mainly Clear"
"-101.09","53.97","THE PAS A","5052881","2018-01-11 16:00","2018","01","11","16:00","-25.4","","-30.9","","61","","","","27","","13","","24.1","","99.42","","","","-35","","NA"
"-101.09","53.97","THE PAS A","5052881","2018-01-11 17:00","2018","01","11","17:00","-26.0","","-30.4","","67","","","","27","","18","","24.1","","99.41","","","","-37","","NA"
"-101.09","53.97","THE PAS A","5052881","2018-01-11 18:00","2018","01","11","18:00","-26.7","","-30.8","","69","","","","27","","18","","24.1","","99.42","","","","-38","","Clear"
"-101.09","53.97","THE PAS A","5052881","2018-01-11 19:00","2018","01","11","19:00","-27.2","","-31.4","","68","","","","27","","18","","24.1","","99.41","","","","-39","","NA"
"-101.09","53.97","THE PAS A","5052881","2018-01-11 20:00","2018","01","11","20:00","-27.9","","-32.0","","69","","","","23","","13","","24.1","","99.40","","","","-38","","NA"
"-101.09","53.97","THE PAS A","5052881","2018-01-11 21:00","2018","01","11","21:00","-28.6","","-32.6","","69","","","","27","","13","","24.1","","99.40","","","","-39","","Clear"
"-101.09","53.97","THE PAS A","5052881","2018-01-11 22:00","2018","01","11","22:00","-28.3","","-32.2","","70","","","","27","","18","","24.1","","99.38","","","","-40","","NA"
"-101.09","53.97","THE PAS A","5052881","2018-01-11 23:00","2018","01","11","23:00","-28.0","","-31.9","","70","","","","27","","22","","24.1","","99.36","","","","-41","","NA"
"-101.09","53.97","THE PAS A","5052881","2018-01-12 00:00","2018","01","12","00:00","-29.8","","-33.5","","71","","","","27","","21","","24.1","","99.40","","","","-43","","Clear"
"-101.09","53.97","THE PAS A","5052881","2018-01-12 01:00","2018","01","12","01:00","-29.9","","-33.7","","70","","","","27","","15","","24.1","","99.40","","","","-41","","NA"
"-101.09","53.97","THE PAS A","5052881","2018-01-12 02:00","2018","01","12","02:00","-29.9","","-33.7","","70","","","","27","","11","","24.1","","99.42","","","","-40","","NA"
"-101.09","53.97","THE PAS A","5052881","2018-01-12 03:00","2018","01","12","03:00","-29.5","","-33.2","","71","","","","27","","11","","24.1","","99.46","","","","-39","","Clear"
"-101.09","53.97","THE PAS A","5052881","2018-01-12 04:00","2018","01","12","04:00","-29.8","","-33.6","","70","","","","27","","15","","24.1","","99.48","","","","-41","","NA"
"-101.09","53.97","THE PAS A","5052881","2018-01-12 05:00","2018","01","12","05:00","-30.1","","-33.9","","70","","","","27","","13","","24.1","","99.49","","","","-41","","NA"
"-101.09","53.97","THE PAS A","5052881","2018-01-12 06:00","2018","01","12","06:00","-29.2","","-33.1","","70","","","","27","","15","","24.1","","99.55","","","","-40","","Clear"
"-101.09","53.97","THE PAS A","5052881","2018-01-12 07:00","2018","01","12","07:00","-29.2","","-33.1","","70","","","","27","","9","","24.1","","99.61","","","","-38","","NA"
"-101.09","53.97","THE PAS A","5052881","2018-01-12 08:00","2018","01","12","08:00","-28.8","","-32.8","","69","","","","27","","17","","24.1","","99.65","","","","-41","","NA"
"-101.09","53.97","THE PAS A","5052881","2018-01-12 09:00","2018","01","12","09:00","-29.0","","-33.2","","68","","","","27","","18","","24.1","","99.72","","","","-41","","Clear"
"-101.09","53.97","THE PAS A","5052881","2018-01-12 10:00","2018","01","12","10:00","-28.8","","-33.5","","65","","","","27","","18","","24.1","","99.80","","","","-41","","NA"
"-101.09","53.97","THE PAS A","5052881","2018-01-12 11:00","2018","01","12","11:00","-27.8","","-32.8","","63","","","","27","","21","","24.1","","99.89","","","","-41","","NA"
"-101.09","53.97","THE PAS A","5052881","2018-01-12 12:00","2018","01","12","12:00","-26.7","","-32.1","","61","","","","27","","17","","24.1","","99.93","","","","-38","","Clear"
"-101.09","53.97","THE PAS A","5052881","2018-01-12 13:00","2018","01","12","13:00","-25.7","","-31.3","","60","","","","27","","13","","24.1","","99.94","","","","-35","","NA"
"-101.09","53.97","THE PAS A","5052881","2018-01-12 14:00","2018","01","12","14:00","-24.3","","-30.2","","59","","","","27","","18","","24.1","","99.97","","","","-35","","NA"
"-101.09","53.97","THE PAS A","5052881","2018-01-12 15:00","2018","01","12","15:00","-23.3","","-29.6","","57","","","","27","","18","","24.1","","100.01","","","","-34","","Clear"
"-101.09","53.97","THE PAS A","5052881","2018-01-12 16:00","2018","01","12","16:00","-24.0","","-29.7","","60","","","","27","","17","","24.1","","100.12","","","","-35","","NA"
"-101.09","53.97","THE PAS A","5052881","2018-01-12 17:00","2018","01","12","17:00","-24.3","","-28.8","","67","","","","27","","21","","24.1","","100.16","","","","-36","","NA"
"-101.09","53.97","THE PAS A","5052881","2018-01-12 18:00","2018","01","12","18:00","-24.9","","-29.4","","67","","","","27","","17","","24.1","","100.16","","","","-36","","Clear"
"-101.09","53.97","THE PAS A","5052881","2018-01-12 19:00","2018","01","12","19:00","-24.7","","-29.2","","67","","","","27","","21","","24.1","","100.17","","","","-37","","NA"
"-101.09","53.97","THE PAS A","5052881","2018-01-12 20:00","2018","01","12","20:00","-25.0","","-29.3","","68","","","","27","","22","","24.1","","100.19","","","","-37","","NA"
"-101.09","53.97","THE PAS A","5052881","2018-01-12 21:00","2018","01","12","21:00","-25.8","","-29.9","","69","","","","27","","15","","24.1","","100.23","","","","-36","","Clear"
"-101.09","53.97","THE PAS A","5052881","2018-01-12 22:00","2018","01","12","22:00","-25.8","","-29.9","","69","","","","27","","18","","24.1","","100.21","","","","-37","","NA"
"-101.09","53.97","THE PAS A","5052881","2018-01-12 23:00","2018","01","12","23:00","-25.9","","-29.7","","71","","","","27","","17","","24.1","","100.18","","","","-37","","NA"
"-101.09","53.97","THE PAS A","5052881","2018-01-13 00:00","2018","01","13","00:00","-27.1","","-30.7","","72","","","","27","","15","","24.1","","100.15","","","","-38","","Clear"
"-101.09","53.97","THE PAS A","5052881","2018-01-13 01:00","2018","01","13","01:00","-27.0","","-30.6","","72","","","","27","","13","","24.1","","100.14","","","","-37","","NA"
"-101.09","53.97","THE PAS A","5052881","2018-01-13 02:00","2018","01","13","02:00","-28.1","","-31.5","","73","","","","23","","5","","24.1","","100.15","","","","-33","","NA"
"-101.09","53.97","THE PAS A","5052881","2018-01-13 03:00","2018","01","13","03:00","-28.7","","-32.0","","74","","","","27","","8","","24.1","","100.12","","","","-36","","Clear"
"-101.09","53.97","THE PAS A","5052881","2018-01-13 04:00","2018","01","13","04:00","-28.1","","-31.5","","73","","","","23","","8","","24.1","","100.10","","","","-36","","NA"
"-101.09","53.97","THE PAS A","5052881","2018-01-13 05:00","2018","01","13","05:00","-29.0","","-32.6","","72","","","","23","","5","","24.1","","100.06","","","","-34","","NA"
"-101.09","53.97","THE PAS A","5052881","2018-01-13 06:00","2018","01","13","06:00","-29.4","","-32.7","","74","","","","18","","8","","24.1","","99.96","","","","-37","","Mainly Clear"
"-101.09","53.97","THE PAS A","5052881","2018-01-13 07:00","2018","01","13","07:00","-30.3","","-33.8","","72","","","","18","","5","","24.1","","99.91","","","","-36","","NA"
"-101.09","53.97","THE PAS A","5052881","2018-01-13 08:00","2018","01","13","08:00","-31.8","","-35.4","","71","","","","14","","5","","24.1","","99.80","","","","-38","","NA"
"-101.09","53.97","THE PAS A","5052881","2018-01-13 09:00","2018","01","13","09:00","-32.9","","-36.8","","69","","","","18","","8","","24.1","","99.74","","","","-41","","Clear"
"-101.09","53.97","THE PAS A","5052881","2018-01-13 10:00","2018","01","13","10:00","-31.9","","-36.1","","67","","","","18","","11","","24.1","","99.65","","","","-42","","NA"
"-101.09","53.97","THE PAS A","5052881","2018-01-13 11:00","2018","01","13","11:00","-29.9","","-34.8","","63","","","","14","","13","","24.1","","99.55","","","","-40","","NA"
"-101.09","53.97","THE PAS A","5052881","2018-01-13 12:00","2018","01","13","12:00","-26.3","","-32.5","","57","","","","18","","9","","24.1","","99.43","","","","-34","","Clear"
"-101.09","53.97","THE PAS A","5052881","2018-01-13 13:00","2018","01","13","13:00","-23.2","","-30.5","","52","","","","18","","5","","24.1","","99.30","","","","-28","","NA"
"-101.09","53.97","THE PAS A","5052881","2018-01-13 14:00","2018","01","13","14:00","-20.0","","-28.0","","50","","","","18","","9","","24.1","","99.18","","","","-27","","NA"
"-101.09","53.97","THE PAS A","5052881","2018-01-13 15:00","2018","01","13","15:00","-19.9","","-26.6","","56","","","","18","","5","","24.1","","99.06","","","","-24","","Mostly Cloudy"
"-101.09","53.97","THE PAS A","5052881","2018-01-13 16:00","2018","01","13","16:00","-19.7","","-25.6","","60","","","","18","","9","","24.1","","98.96","","","","-26","","NA"
"-101.09","53.97","THE PAS A","5052881","2018-01-13 17:00","2018","01","13","17:00","-18.9","","-24.9","","60","","","","18","","15","","24.1","","98.83","","","","-28","","NA"
"-101.09","53.97","THE PAS A","5052881","2018-01-13 18:00","2018","01","13","18:00","-18.8","","-24.0","","64","","","","18","","9","","24.1","","98.78","","","","-25","","Cloudy"
"-101.09","53.97","THE PAS A","5052881","2018-01-13 19:00","2018","01","13","19:00","-18.4","","-23.3","","66","","","","18","","9","","24.1","","98.70","","","","-25","","NA"
"-101.09","53.97","THE PAS A","5052881","2018-01-13 20:00","2018","01","13","20:00","-18.7","","-23.2","","68","","","","23","","9","","24.1","","98.65","","","","-25","","NA"
"-101.09","53.97","THE PAS A","5052881","2018-01-13 21:00","2018","01","13","21:00","-18.3","","-23.4","","65","","","","27","","13","","24.1","","98.57","","","","-26","","Snow"
"-101.09","53.97","THE PAS A","5052881","2018-01-13 22:00","2018","01","13","22:00","-18.5","","-21.9","","75","","","","27","","13","","8.1","","98.49","","","","-27","","Snow"
"-101.09","53.97","THE PAS A","5052881","2018-01-13 23:00","2018","01","13","23:00","-18.5","","-21.4","","78","","","","32","","15","","14.5","","98.45","","","","-27","","Snow"
"-101.09","53.97","THE PAS A","5052881","2018-01-14 00:00","2018","01","14","00:00","-19.5","","-22.4","","78","","","","32","","11","","24.1","","98.49","","","","-27","","Snow"
"-101.09","53.97","THE PAS A","5052881","2018-01-14 01:00","2018","01","14","01:00","-19.4","","-22.2","","79","","","","32","","11","","24.1","","98.50","","","","-27","","Snow"
"-101.09","53.97","THE PAS A","5052881","2018-01-14 02:00","2018","01","14","02:00","-20.4","","-23.9","","74","","","","36","","15","","24.1","","98.61","","","","-30","","Snow"
"-101.09","53.97","THE PAS A","5052881","2018-01-14 03:00","2018","01","14","03:00","-21.4","","-25.0","","73","","","","32","","17","","24.1","","98.68","","","","-31","","Snow"
"-101.09","53.97","THE PAS A","5052881","2018-01-14 04:00","2018","01","14","04:00","-21.6","","-25.2","","73","","","","32","","15","","24.1","","98.76","","","","-31","","Snow"
"-101.09","53.97","THE PAS A","5052881","2018-01-14 05:00","2018","01","14","05:00","-21.6","","-25.4","","72","","","","32","","18","","24.1","","98.86","","","","-32","","Snow"
"-101.09","53.97","THE PAS A","5052881","2018-01-14 06:00","2018","01","14","06:00","-21.6","","-25.4","","72","","","","32","","22","","14.5","","98.94","","","","-33","","Snow,Blowing Snow"
"-101.09","53.97","THE PAS A","5052881","2018-01-14 07:00","2018","01","14","07:00","-22.1","","-26.0","","71","","","","32","","22","","14.5","","99.08","","","","-34","","Snow,Blowing Snow"
"-101.09","53.97","THE PAS A","5052881","2018-01-14 08:00","2018","01","14","08:00","-23.5","","-27.4","","71","","","","32","","15","","24.1","","99.19","","","","-33","","NA"
"-101.09","53.97","THE PAS A","5052881","2018-01-14 09:00","2018","01","14","09:00","-25.1","","-29.1","","70","","","","32","","22","","24.1","","99.34","","","","-37","","Blowing Snow"
"-101.09","53.97","THE PAS A","5052881","2018-01-14 10:00","2018","01","14","10:00","-25.9","","-30.7","","65","","","","32","","23","","24.1","","99.51","","","","-39","","Blowing Snow"
"-101.09","53.97","THE PAS A","5052881","2018-01-14 11:00","2018","01","14","11:00","-25.7","","-30.6","","64","","","","33","","17","","24.1","","99.60","","","","-37","","NA"
"-101.09","53.97","THE PAS A","5052881","2018-01-14 12:00","2018","01","14","12:00","-24.6","","-29.9","","62","","","","33","","20","","24.1","","99.66","","","","-36","","Blowing Snow"
"-101.09","53.97","THE PAS A","5052881","2018-01-14 13:00","2018","01","14","13:00","-23.7","","-29.4","","60","","","","33","","18","","24.1","","99.72","","","","-35","","Blowing Snow"
"-101.09","53.97","THE PAS A","5052881","2018-01-14 14:00","2018","01","14","14:00","-23.0","","-28.8","","60","","","","34","","15","","24.1","","99.81","","","","-33","","NA"
"-101.09","53.97","THE PAS A","5052881","2018-01-14 15:00","2018","01","14","15:00","-22.7","","-28.5","","60","","","","33","","17","","24.1","","99.94","","","","-33","","Clear"
"-101.09","53.97","THE PAS A","5052881","2018-01-14 16:00","2018","01","14","16:00","-23.4","","-29.0","","61","","","","34","","21","","24.1","","100.09","","","","-35","","NA"
"-101.09","53.97","THE PAS A","5052881","2018-01-14 17:00","2018","01","14","17:00","-24.1","","-29.3","","63","","","","33","","21","","24.1","","100.26","","","","-36","","Blowing Snow"
"-101.09","53.97","THE PAS A","5052881","2018-01-14 18:00","2018","01","14","18:00","-25.5","","-30.3","","65","","","","33","","17","","24.1","","100.42","","","","-37","","Clear"
"-101.09","53.97","THE PAS A","5052881","2018-01-14 19:00","2018","01","14","19:00","-26.0","","-30.6","","66","","","","34","","16","","24.1","","100.55","","","","-37","","NA"
"-101.09","53.97","THE PAS A","5052881","2018-01-14 20:00","2018","01","14","20:00","-26.6","","-31.0","","67","","","","33","","14","","24.1","","100.68","","","","-37","","NA"
"-101.09","53.97","THE PAS A","5052881","2018-01-14 21:00","2018","01","14","21:00","-27.0","","-31.2","","68","","","","34","","16","","24.1","","100.80","","","","-38","","Clear"
"-101.09","53.97","THE PAS A","5052881","2018-01-14 22:00","2018","01","14","22:00","-27.8","","-32.1","","67","","","","34","","14","","24.1","","100.89","","","","-38","","NA"
"-101.09","53.97","THE PAS A","5052881","2018-01-14 23:00","2018","01","14","23:00","-28.0","","-31.9","","70","","","","36","","9","","24.1","","100.95","","","","-36","","NA"
"-101.09","53.97","THE PAS A","5052881","2018-01-15 00:00","2018","01","15","00:00","-28.2","","-31.9","","71","","","","32","","9","","24.1","","101.04","","","","-36","","Clear"
"-101.09","53.97","THE PAS A","5052881","2018-01-15 01:00","2018","01","15","01:00","-29.1","","-32.7","","72","","","","32","","8","","24.1","","101.13","","","","-37","","NA"
"-101.09","53.97","THE PAS A","5052881","2018-01-15 02:00","2018","01","15","02:00","-29.4","","-33.1","","71","","","","32","","13","","24.1","","101.19","","","","-40","","NA"
"-101.09","53.97","THE PAS A","5052881","2018-01-15 03:00","2018","01","15","03:00","-29.5","","-33.2","","71","","","","27","","8","","24.1","","101.24","","","","-37","","Clear"
"-101.09","53.97","THE PAS A","5052881","2018-01-15 04:00","2018","01","15","04:00","-29.3","","-32.9","","72","","","","27","","9","","24.1","","101.35","","","","-38","","NA"
"-101.09","53.97","THE PAS A","5052881","2018-01-15 05:00","2018","01","15","05:00","-29.2","","-32.9","","71","","","","27","","8","","24.1","","101.35","","","","-37","","NA"
"-101.09","53.97","THE PAS A","5052881","2018-01-15 06:00","2018","01","15","06:00","-31.3","","-35.1","","70","","","","27","","8","","24.1","","101.36","","","","-40","","Clear"
"-101.09","53.97","THE PAS A","5052881","2018-01-15 07:00","2018","01","15","07:00","-30.0","","-33.7","","71","","","","27","","8","","24.1","","101.43","","","","-38","","NA"
"-101.09","53.97","THE PAS A","5052881","2018-01-15 08:00","2018","01","15","08:00","-32.2","","-36.1","","69","","","","27","","4","","24.1","","101.43","","","","-37","","NA"
"-101.09","53.97","THE PAS A","5052881","2018-01-15 09:00","2018","01","15","09:00","-31.7","","-35.6","","69","","","","23","","11","","24.1","","101.42","","","","-42","","Mainly Clear"
"-101.09","53.97","THE PAS A","5052881","2018-01-15 10:00","2018","01","15","10:00","-31.1","","-35.5","","66","","","","23","","8","","24.1","","101.40","","","","-39","","NA"
"-101.09","53.97","THE PAS A","5052881","2018-01-15 11:00","2018","01","15","11:00","-27.9","","-32.9","","63","","","","27","","8","","24.1","","101.38","","","","-36","","NA"
"-101.09","53.97","THE PAS A","5052881","2018-01-15 12:00","2018","01","15","12:00","-25.8","","-31.4","","60","","","","27","","9","","24.1","","101.33","","","","-34","","Mostly Cloudy"
"-101.09","53.97","THE PAS A","5052881","2018-01-15 13:00","2018","01","15","13:00","-23.8","","-29.0","","63","","","","25","","17","","24.1","","101.26","","","","-34","","NA"
"-101.09","53.97","THE PAS A","5052881","2018-01-15 14:00","2018","01","15","14:00","-22.2","","-28.0","","60","","","","26","","16","","24.1","","101.16","","","","-32","","NA"
"-101.09","53.97","THE PAS A","5052881","2018-01-15 15:00","2018","01","15","15:00","-20.7","","-26.8","","59","","","","24","","14","","24.1","","101.10","","","","-30","","Cloudy"
"-101.09","53.97","THE PAS A","5052881","2018-01-15 16:00","2018","01","15","16:00","-20.2","","-26.5","","58","","","","25","","16","","24.1","","101.07","","","","-30","","NA"
"-101.09","53.97","THE PAS A","5052881","2018-01-15 17:00","2018","01","15","17:00","-21.6","","-27.2","","61","","","","17","","10","","24.1","","100.99","","","","-29","","NA"
"-101.09","53.97","THE PAS A","5052881","2018-01-15 18:00","2018","01","15","18:00","-22.2","","-27.3","","64","","","","21","","9","","24.1","","100.91","","","","-29","","Mostly Cloudy"
"-101.09","53.97","THE PAS A","5052881","2018-01-15 19:00","2018","01","15","19:00","-21.9","","-27.4","","62","","","","21","","9","","24.1","","100.79","","","","-29","","NA"
"-101.09","53.97","THE PAS A","5052881","2018-01-15 20:00","2018","01","15","20:00","-22.6","","-27.7","","64","","","","17","","6","","24.1","","100.69","","","","-28","","NA"
"-101.09","53.97","THE PAS A","5052881","2018-01-15 21:00","2018","01","15","21:00","-21.5","","-26.6","","64","","","","19","","10","","24.1","","100.56","","","","-29","","Cloudy"
"-101.09","53.97","THE PAS A","5052881","2018-01-15 22:00","2018","01","15","22:00","-20.2","","-25.7","","62","","","","20","","14","","24.1","","100.42","","","","-29","","NA"
"-101.09","53.97","THE PAS A","5052881","2018-01-15 23:00","2018","01","15","23:00","-19.2","","-24.6","","63","","","","21","","14","","24.1","","100.30","","","","-28","","NA"
"-101.09","53.97","THE PAS A","5052881","2018-01-16 00:00","2018","01","16","00:00","-19.0","","-24.2","","64","","","","19","","16","","24.1","","100.20","","","","-28","","Cloudy"
"-101.09","53.97","THE PAS A","5052881","2018-01-16 01:00","2018","01","16","01:00","-18.6","","-23.9","","63","","","","19","","15","","24.1","","100.12","","","","-27","","NA"
"-101.09","53.97","THE PAS A","5052881","2018-01-16 02:00","2018","01","16","02:00","-18.3","","-23.4","","65","","","","19","","15","","24.1","","99.98","","","","-27","","NA"
"-101.09","53.97","THE PAS A","5052881","2018-01-16 03:00","2018","01","16","03:00","-18.0","","-23.5","","63","","","","20","","17","","24.1","","99.84","","","","-27","","Mostly Cloudy"
"-101.09","53.97","THE PAS A","5052881","2018-01-16 04:00","2018","01","16","04:00","-17.6","","-23.3","","62","","","","21","","13","","24.1","","99.72","","","","-25","","NA"
"-101.09","53.97","THE PAS A","5052881","2018-01-16 05:00","2018","01","16","05:00","-17.7","","-23.4","","62","","","","20","","15","","24.1","","99.56","","","","-26","","NA"
"-101.09","53.97","THE PAS A","5052881","2018-01-16 06:00","2018","01","16","06:00","-17.8","","-22.9","","65","","","","22","","12","","24.1","","99.43","","","","-25","","Mainly Clear"
"-101.09","53.97","THE PAS A","5052881","2018-01-16 07:00","2018","01","16","07:00","-17.7","","-23.1","","63","","","","20","","13","","24.1","","99.29","","","","-26","","NA"
"-101.09","53.97","THE PAS A","5052881","2018-01-16 08:00","2018","01","16","08:00","-18.1","","-23.5","","64","","","","22","","10","","24.1","","99.12","","","","-25","","NA"
"-101.09","53.97","THE PAS A","5052881","2018-01-16 09:00","2018","01","16","09:00","-17.9","","-23.2","","64","","","","21","","8","","24.1","","99.00","","","","-24","","Mainly Clear"
"-101.09","53.97","THE PAS A","5052881","2018-01-16 10:00","2018","01","16","10:00","-16.6","","-22.6","","60","","","","20","","8","","24.1","","98.93","","","","-22","","NA"
"-101.09","53.97","THE PAS A","5052881","2018-01-16 11:00","2018","01","16","11:00","-12.0","","-20.9","","48","","","","24","","23","","24.1","","98.81","","","","-21","","NA"
"-101.09","53.97","THE PAS A","5052881","2018-01-16 12:00","2018","01","16","12:00","-10.6","","-20.2","","46","","","","25","","20","","24.1","","98.70","","","","-19","","Mostly Cloudy"
"-101.09","53.97","THE PAS A","5052881","2018-01-16 13:00","2018","01","16","13:00","-8.7","","-19.5","","42","","","","25","","23","","24.1","","98.59","","","","-17","","NA"
"-101.09","53.97","THE PAS A","5052881","2018-01-16 14:00","2018","01","16","14:00","-7.5","","-18.8","","41","","","","25","","21","","24.1","","98.44","","","","-15","","Blowing Snow"
"-101.09","53.97","THE PAS A","5052881","2018-01-16 15:00","2018","01","16","15:00","-6.8","","-18.7","","39","","","","24","","25","","24.1","","98.30","","","","-15","","Blowing Snow"
"-101.09","53.97","THE PAS A","5052881","2018-01-16 16:00","2018","01","16","16:00","-7.7","","-18.7","","41","","","","22","","14","","24.1","","98.24","","","","-14","","NA"
"-101.09","53.97","THE PAS A","5052881","2018-01-16 17:00","2018","01","16","17:00","-8.2","","-18.8","","43","","","","22","","14","","24.1","","98.15","","","","-14","","NA"
"-101.09","53.97","THE PAS A","5052881","2018-01-16 18:00","2018","01","16","18:00","-8.9","","-18.9","","45","","","","22","","9","","24.1","","98.09","","","","-14","","Clear"
"-101.09","53.97","THE PAS A","5052881","2018-01-16 19:00","2018","01","16","19:00","-9.7","","-19.1","","47","","","","23","","12","","24.1","","98.00","","","","-16","","NA"
"-101.09","53.97","THE PAS A","5052881","2018-01-16 20:00","2018","01","16","20:00","-9.0","","-18.4","","47","","","","24","","13","","24.1","","97.87","","","","-15","","NA"
"-101.09","53.97","THE PAS A","5052881","2018-01-16 21:00","2018","01","16","21:00","-9.9","","-18.0","","52","","","","27","","16","","24.1","","97.82","","","","-17","","Clear"
"-101.09","53.97","THE PAS A","5052881","2018-01-16 22:00","2018","01","16","22:00","-9.4","","-17.5","","52","","","","26","","13","","24.1","","97.72","","","","-15","","NA"
"-101.09","53.97","THE PAS A","5052881","2018-01-16 23:00","2018","01","16","23:00","-8.2","","-16.0","","54","","","","26","","34","","24.1","","97.63","","","","-18","","NA"
"-101.09","53.97","THE PAS A","5052881","2018-01-17 00:00","2018","01","17","00:00","-8.3","","-15.8","","56","","","","27","","19","","24.1","","97.57","","","","-16","","Clear"
"-101.09","53.97","THE PAS A","5052881","2018-01-17 01:00","2018","01","17","01:00","-10.1","","-16.2","","61","","","","32","","10","","24.1","","97.58","","","","-15","","NA"
"-101.09","53.97","THE PAS A","5052881","2018-01-17 02:00","2018","01","17","02:00","-12.8","","-17.6","","68","","","","36","","5","","24.1","","97.55","","","","-16","","NA"
"-101.09","53.97","THE PAS A","5052881","2018-01-17 03:00","2018","01","17","03:00","-15.1","","-18.2","","78","","","","17","","5","","24.1","","97.52","","","","-19","","Clear"
"-101.09","53.97","THE PAS A","5052881","2018-01-17 04:00","2018","01","17","04:00","-17.5","","-21.0","","74","","","","36","","3","","24.1","","97.53","","","","-20","","NA"
"-101.09","53.97","THE PAS A","5052881","2018-01-17 05:00","2018","01","17","05:00","-12.0","","-16.4","","70","","","","30","","7","","24.1","","97.45","","","","-16","","NA"
"-101.09","53.97","THE PAS A","5052881","2018-01-17 06:00","2018","01","17","06:00","-12.9","","-17.1","","71","","","","32","","7","","24.1","","97.44","","","","-17","","Clear"
"-101.09","53.97","THE PAS A","5052881","2018-01-17 07:00","2018","01","17","07:00","-13.6","","-17.5","","73","","","","28","","7","","24.1","","97.42","","","","-18","","NA"
"-101.09","53.97","THE PAS A","5052881","2018-01-17 08:00","2018","01","17","08:00","-13.7","","-17.3","","75","","","","33","","8","","24.1","","97.41","","","","-19","","NA"
"-101.09","53.97","THE PAS A","5052881","2018-01-17 09:00","2018","01","17","09:00","-17.2","","-20.0","","79","","","","36","","2","","24.1","","97.39","","","","-19","","Clear"
"-101.09","53.97","THE PAS A","5052881","2018-01-17 10:00","2018","01","17","10:00","-14.4","","-17.6","","77","","","","36","","9","","24.1","","97.39","","","","-20","","NA"
"-101.09","53.97","THE PAS A","5052881","2018-01-17 11:00","2018","01","17","11:00","-13.8","","-17.6","","74","","","","35","","6","","24.1","","97.41","","","","-18","","NA"
"-101.09","53.97","THE PAS A","5052881","2018-01-17 12:00","2018","01","17","12:00","-13.3","","-17.7","","70","","","","35","","9","","24.1","","97.35","","","","-19","","Clear"
"-101.09","53.97","THE PAS A","5052881","2018-01-17 13:00","2018","01","17","13:00","-12.9","","-17.8","","67","","","","35","","7","","24.1","","97.30","","","","-17","","NA"
"-101.09","53.97","THE PAS A","5052881","2018-01-17 14:00","2018","01","17","14:00","-13.0","","-17.8","","68","","","","36","","6","","24.1","","97.27","","","","-17","","NA"
"-101.09","53.97","THE PAS A","5052881","2018-01-17 15:00","2018","01","17","15:00","-11.5","","-17.4","","62","","","","34","","5","","24.1","","97.22","","","","-15","","Clear"
"-101.09","53.97","THE PAS A","5052881","2018-01-17 16:00","2018","01","17","16:00","-11.9","","-17.6","","63","","","","2","","4","","24.1","","97.33","","","","-14","","NA"
"-101.09","53.97","THE PAS A","5052881","2018-01-17 17:00","2018","01","17","17:00","-12.9","","-18.1","","65","","","","3","","7","","24.1","","97.42","","","","-17","","NA"
"-101.09","53.97","THE PAS A","5052881","2018-01-17 18:00","2018","01","17","18:00","-15.9","","-19.4","","75","","","","0","","1","","24.1","","97.42","","","","-17","","Clear"
"-101.09","53.97","THE PAS A","5052881","2018-01-17 19:00","2018","01","17","19:00","-17.6","","-20.7","","77","","","","35","","7","","24.1","","97.49","","","","-23","","NA"
"-101.09","53.97","THE PAS A","5052881","2018-01-17 20:00","2018","01","17","20:00","-16.5","","-19.8","","76","","","","25","","7","","24.1","","97.52","","","","-22","","NA"
"-101.09","53.97","THE PAS A","5052881","2018-01-17 21:00","2018","01","17","21:00","-14.5","","-18.1","","74","","","","33","","3","","24.1","","97.52","","","","-17","","Cloudy"
"-101.09","53.97","THE PAS A","5052881","2018-01-17 22:00","2018","01","17","22:00","-13.7","","-17.4","","74","","","","35","","3","","24.1","","97.53","","","","-16","","NA"
"-101.09","53.97","THE PAS A","5052881","2018-01-17 23:00","2018","01","17","23:00","-16.4","","-19.5","","78","","","","36","","3","","24.1","","97.51","","","","-19","","NA"
"-101.09","53.97","THE PAS A","5052881","2018-01-18 00:00","2018","01","18","00:00","-16.3","","-18.7","","82","","","","5","","7","","24.1","","97.52","","","","-21","","Clear"
"-101.09","53.97","THE PAS A","5052881","2018-01-18 01:00","2018","01","18","01:00","-19.6","","-22.3","","79","","","","36","","2","","24.1","","97.50","","","","-21","","NA"
"-101.09","53.97","THE PAS A","5052881","2018-01-18 02:00","2018","01","18","02:00","-20.4","","-23.3","","78","","","","36","","2","","24.1","","97.48","","","","-22","","NA"
"-101.09","53.97","THE PAS A","5052881","2018-01-18 03:00","2018","01","18","03:00","-21.5","","-24.7","","76","","","","36","","1","","24.1","","97.51","","","","-22","","Clear"
"-101.09","53.97","THE PAS A","5052881","2018-01-18 04:00","2018","01","18","04:00","-20.9","","-24.0","","77","","","","36","","2","","24.1","","97.53","","","","-23","","NA"
"-101.09","53.97","THE PAS A","5052881","2018-01-18 05:00","2018","01","18","05:00","-20.9","","-24.0","","77","","","","15","","4","","24.1","","97.44","","","","-24","","NA"
"-101.09","53.97","THE PAS A","5052881","2018-01-18 06:00","2018","01","18","06:00","-22.0","","-25.4","","75","","","","13","","4","","24.1","","97.38","","","","-26","","Cloudy"
"-101.09","53.97","THE PAS A","5052881","2018-01-18 07:00","2018","01","18","07:00","-19.7","","-22.7","","78","","","","14","","7","","24.1","","97.42","","","","-25","","NA"
"-101.09","53.97","THE PAS A","5052881","2018-01-18 08:00","2018","01","18","08:00","-16.9","","-19.4","","81","","","","13","","8","","24.1","","97.31","","","","-23","","NA"
"-101.09","53.97","THE PAS A","5052881","2018-01-18 09:00","2018","01","18","09:00","-16.4","","-18.9","","81","","","","13","","9","","24.1","","97.24","","","","-22","","Cloudy"
"-101.09","53.97","THE PAS A","5052881","2018-01-18 10:00","2018","01","18","10:00","-15.6","","-18.0","","82","","","","15","","13","","24.1","","97.28","","","","-23","","NA"
"-101.09","53.97","THE PAS A","5052881","2018-01-18 11:00","2018","01","18","11:00","-14.4","","-16.8","","82","","","","14","","16","","24.1","","97.19","","","","-22","","NA"
"-101.09","53.97","THE PAS A","5052881","2018-01-18 12:00","2018","01","18","12:00","-13.2","","-15.7","","82","","","","14","","19","","24.1","","97.14","","","","-22","","Snow Grains"
"-101.09","53.97","THE PAS A","5052881","2018-01-18 13:00","2018","01","18","13:00","-12.6","","-14.8","","84","","","","14","","22","","14.5","","96.99","","","","-22","","Snow"
"-101.09","53.97","THE PAS A","5052881","2018-01-18 14:00","2018","01","18","14:00","-12.0","","-14.1","","85","","","","14","","23","","11.3","","96.86","","","","-21","","Snow"
"-101.09","53.97","THE PAS A","5052881","2018-01-18 15:00","2018","01","18","15:00","-11.4","","-13.4","","85","","","","13","","19","","6.4","","96.77","","","","-19","","Snow Grains,Fog"
"-101.09","53.97","THE PAS A","5052881","2018-01-18 16:00","2018","01","18","16:00","-11.3","","-13.3","","85","","","","13","","19","","6.4","","96.64","","","","-19","","Snow Grains,Fog"
"-101.09","53.97","THE PAS A","5052881","2018-01-18 17:00","2018","01","18","17:00","-11.1","","-13.2","","84","","","","12","","16","","16.1","","96.48","","","","-18","","NA"
"-101.09","53.97","THE PAS A","5052881","2018-01-18 18:00","2018","01","18","18:00","-10.6","","-12.7","","85","","","","12","","18","","24.1","","96.35","","","","-18","","Cloudy"
"-101.09","53.97","THE PAS A","5052881","2018-01-18 19:00","2018","01","18","19:00","-10.2","","-12.3","","84","","","","13","","11","","24.1","","96.39","","","","-16","","NA"
"-101.09","53.97","THE PAS A","5052881","2018-01-18 20:00","2018","01","18","20:00","-10.1","","-12.5","","83","","","","10","","16","","24.1","","96.23","","","","-17","","Snow"
"-101.09","53.97","THE PAS A","5052881","2018-01-18 21:00","2018","01","18","21:00","-10.1","","-12.6","","82","","","","7","","7","","24.1","","96.21","","","","-14","","Snow"
"-101.09","53.97","THE PAS A","5052881","2018-01-18 22:00","2018","01","18","22:00","-10.3","","-12.9","","81","","","","11","","13","","24.1","","95.97","","","","-17","","Snow"
"-101.09","53.97","THE PAS A","5052881","2018-01-18 23:00","2018","01","18","23:00","-10.7","","-13.1","","83","","","","10","","11","","24.1","","95.96","","","","-16","","Snow"
"-101.09","53.97","THE PAS A","5052881","2018-01-19 00:00","2018","01","19","00:00","-11.1","","-13.0","","86","","","","10","","8","","24.1","","95.99","","","","-16","","Snow"
"-101.09","53.97","THE PAS A","5052881","2018-01-19 01:00","2018","01","19","01:00","-11.1","","-12.8","","88","","","","2","","4","","0.8","","95.99","","","","-14","","Snow,Freezing Fog"
"-101.09","53.97","THE PAS A","5052881","2018-01-19 02:00","2018","01","19","02:00","-11.2","","-13.1","","86","","","","6","","4","","3.2","","96.00","","","","-14","","Snow"
"-101.09","53.97","THE PAS A","5052881","2018-01-19 03:00","2018","01","19","03:00","-11.1","","-13.1","","86","","","","36","","10","","3.2","","96.06","","","","-17","","Snow"
"-101.09","53.97","THE PAS A","5052881","2018-01-19 04:00","2018","01","19","04:00","-11.0","","-12.9","","86","","","","36","","11","","3.2","","96.12","","","","-17","","Snow"
"-101.09","53.97","THE PAS A","5052881","2018-01-19 05:00","2018","01","19","05:00","-11.2","","-13.2","","86","","","","34","","10","","16.1","","96.15","","","","-17","","Snow"
"-101.09","53.97","THE PAS A","5052881","2018-01-19 06:00","2018","01","19","06:00","-11.1","","-13.1","","85","","","","33","","10","","16.1","","96.22","","","","-17","","Snow"
"-101.09","53.97","THE PAS A","5052881","2018-01-19 07:00","2018","01","19","07:00","-11.3","","-13.4","","85","","","","35","","15","","20.9","","96.26","","","","-18","","Snow"
"-101.09","53.97","THE PAS A","5052881","2018-01-19 08:00","2018","01","19","08:00","-11.8","","-14.0","","84","","","","36","","9","","20.9","","96.30","","","","-17","","Snow"
"-101.09","53.97","THE PAS A","5052881","2018-01-19 09:00","2018","01","19","09:00","-11.9","","-14.2","","84","","","","34","","5","","24.1","","96.36","","","","-15","","Cloudy"
"-101.09","53.97","THE PAS A","5052881","2018-01-19 10:00","2018","01","19","10:00","-11.6","","-13.8","","84","","","","2","","7","","24.1","","96.42","","","","-16","","NA"
"-101.09","53.97","THE PAS A","5052881","2018-01-19 11:00","2018","01","19","11:00","-11.4","","-13.7","","84","","","","3","","6","","24.1","","96.46","","","","-15","","Snow Grains"
"-101.09","53.97","THE PAS A","5052881","2018-01-19 12:00","2018","01","19","12:00","-11.4","","-13.6","","84","","","","2","","5","","24.1","","96.50","","","","-15","","Snow Grains"
"-101.09","53.97","THE PAS A","5052881","2018-01-19 13:00","2018","01","19","13:00","-11.2","","-13.5","","83","","","","4","","5","","2.0","","96.50","","","","-14","","Snow"
"-101.09","53.97","THE PAS A","5052881","2018-01-19 14:00","2018","01","19","14:00","-11.0","","-13.4","","83","","","","2","","6","","6.4","","96.56","","","","-15","","Snow"
"-101.09","53.97","THE PAS A","5052881","2018-01-19 15:00","2018","01","19","15:00","-10.9","","-14.0","","78","","","","3","","10","","8.1","","96.60","","","","-16","","Snow"
"-101.09","53.97","THE PAS A","5052881","2018-01-19 16:00","2018","01","19","16:00","-11.0","","-14.1","","78","","","","3","","9","","8.1","","96.70","","","","-16","","Snow"
"-101.09","53.97","THE PAS A","5052881","2018-01-19 17:00","2018","01","19","17:00","-11.6","","-14.6","","79","","","","3","","11","","20.9","","96.82","","","","-18","","Snow"
"-101.09","53.97","THE PAS A","5052881","2018-01-19 18:00","2018","01","19","18:00","-11.9","","-15.2","","77","","","","5","","9","","24.1","","96.92","","","","-17","","Snow"
"-101.09","53.97","THE PAS A","5052881","2018-01-19 19:00","2018","01","19","19:00","-12.1","","-15.3","","77","","","","4","","9","","24.1","","96.97","","","","-17","","Snow"
"-101.09","53.97","THE PAS A","5052881","2018-01-19 20:00","2018","01","19","20:00","-12.6","","-16.2","","75","","","","8","","7","","24.1","","97.04","","","","-17","","Snow"
"-101.09","53.97","THE PAS A","5052881","2018-01-19 21:00","2018","01","19","21:00","-12.8","","-16.3","","75","","","","8","","6","","24.1","","97.10","","","","-17","","Snow"
"-101.09","53.97","THE PAS A","5052881","2018-01-19 22:00","2018","01","19","22:00","-12.9","","-16.2","","77","","","","9","","10","","24.1","","97.18","","","","-19","","Snow"
"-101.09","53.97","THE PAS A","5052881","2018-01-19 23:00","2018","01","19","23:00","-13.4","","-16.8","","76","","","","8","","10","","24.1","","97.20","","","","-19","","Snow"
"-101.09","53.97","THE PAS A","5052881","2018-01-20 00:00","2018","01","20","00:00","-13.8","","-17.0","","77","","","","8","","11","","24.1","","97.28","","","","-20","","Snow"
"-101.09","53.97","THE PAS A","5052881","2018-01-20 01:00","2018","01","20","01:00","-14.6","","-18.0","","75","","","","9","","9","","24.1","","97.32","","","","-20","","Snow"
"-101.09","53.97","THE PAS A","5052881","2018-01-20 02:00","2018","01","20","02:00","-14.8","","-18.1","","77","","","","8","","10","","24.1","","97.37","","","","-21","","Snow"
"-101.09","53.97","THE PAS A","5052881","2018-01-20 03:00","2018","01","20","03:00","-15.2","","-18.4","","77","","","","8","","9","","24.1","","97.41","","","","-21","","Snow"
"-101.09","53.97","THE PAS A","5052881","2018-01-20 04:00","2018","01","20","04:00","-15.8","","-18.9","","77","","","","8","","9","","17.7","","97.43","","","","-22","","Snow"
"-101.09","53.97","THE PAS A","5052881","2018-01-20 05:00","2018","01","20","05:00","-15.9","","-19.1","","77","","","","9","","10","","17.7","","97.47","","","","-22","","Snow"
"-101.09","53.97","THE PAS A","5052881","2018-01-20 06:00","2018","01","20","06:00","-15.9","","-19.0","","77","","","","9","","8","","17.7","","97.47","","","","-21","","Snow"
"-101.09","53.97","THE PAS A","5052881","2018-01-20 07:00","2018","01","20","07:00","-15.7","","-18.8","","77","","","","9","","12","","17.7","","97.53","","","","-23","","NA"
"-101.09","53.97","THE PAS A","5052881","2018-01-20 08:00","2018","01","20","08:00","-15.9","","-19.0","","77","","","","9","","9","","20.9","","97.57","","","","-22","","Snow"
"-101.09","53.97","THE PAS A","5052881","2018-01-20 09:00","2018","01","20","09:00","-15.9","","-19.1","","77","","","","8","","9","","4.8","","97.62","","","","-22","","Snow"
"-101.09","53.97","THE PAS A","5052881","2018-01-20 10:00","2018","01","20","10:00","-15.9","","-19.1","","77","","","","6","","10","","2.4","","97.67","","","","-22","","Snow"
"-101.09","53.97","THE PAS A","5052881","2018-01-20 11:00","2018","01","20","11:00","-15.8","","-19.1","","76","","","","11","","12","","1.6","","97.71","","","","-23","","Snow"
"-101.09","53.97","THE PAS A","5052881","2018-01-20 12:00","2018","01","20","12:00","-15.0","","-18.8","","73","","","","7","","8","","24.1","","97.79","","","","-20","","Snow"
"-101.09","53.97","THE PAS A","5052881","2018-01-20 13:00","2018","01","20","13:00","-14.9","","-18.4","","75","","","","5","","8","","24.1","","97.80","","","","-20","","Snow"
"-101.09","53.97","THE PAS A","5052881","2018-01-20 14:00","2018","01","20","14:00","-14.7","","-18.4","","74","","","","7","","7","","24.1","","97.83","","","","-19","","Snow"
"-101.09","53.97","THE PAS A","5052881","2018-01-20 15:00","2018","01","20","15:00","-14.6","","-18.4","","73","","","","6","","10","","24.1","","97.87","","","","-21","","Snow,Snow Grains"
"-101.09","53.97","THE PAS A","5052881","2018-01-20 16:00","2018","01","20","16:00","-15.1","","-18.9","","73","","","","5","","10","","24.1","","98.00","","","","-21","","Snow"
"-101.09","53.97","THE PAS A","5052881","2018-01-20 17:00","2018","01","20","17:00","-15.2","","-19.0","","73","","","","6","","7","","24.1","","98.10","","","","-20","","Snow"
"-101.09","53.97","THE PAS A","5052881","2018-01-20 18:00","2018","01","20","18:00","-15.4","","-19.2","","73","","","","10","","6","","24.1","","98.15","","","","-20","","Snow"
"-101.09","53.97","THE PAS A","5052881","2018-01-20 19:00","2018","01","20","19:00","-15.5","","-19.3","","73","","","","8","","8","","1.6","","98.22","","","","-21","","Snow"
"-101.09","53.97","THE PAS A","5052881","2018-01-20 20:00","2018","01","20","20:00","-15.8","","-19.2","","75","","","","8","","7","","4.8","","98.27","","","","-21","","Snow"
"-101.09","53.97","THE PAS A","5052881","2018-01-20 21:00","2018","01","20","21:00","-16.2","","-19.5","","76","","","","7","","7","","24.1","","98.28","","","","-21","","Snow"
"-101.09","53.97","THE PAS A","5052881","2018-01-20 22:00","2018","01","20","22:00","-17.0","","-20.1","","77","","","","9","","11","","24.1","","98.37","","","","-24","","Snow"
"-101.09","53.97","THE PAS A","5052881","2018-01-20 23:00","2018","01","20","23:00","-17.1","","-20.3","","77","","","","9","","9","","24.1","","98.41","","","","-23","","Snow"
"-101.09","53.97","THE PAS A","5052881","2018-01-21 00:00","2018","01","21","00:00","-17.3","","-20.4","","77","","","","11","","10","","24.1","","98.47","","","","-24","","Snow"
"-101.09","53.97","THE PAS A","5052881","2018-01-21 01:00","2018","01","21","01:00","-17.2","","-20.4","","77","","","","10","","10","","24.1","","98.50","","","","-24","","Snow"
"-101.09","53.97","THE PAS A","5052881","2018-01-21 02:00","2018","01","21","02:00","-18.0","","-21.0","","78","","","","6","","3","","24.1","","98.57","","","","-20","","Snow"
"-101.09","53.97","THE PAS A","5052881","2018-01-21 03:00","2018","01","21","03:00","-17.8","","-20.9","","77","","","","10","","8","","24.1","","98.60","","","","-24","","Snow"
"-101.09","53.97","THE PAS A","5052881","2018-01-21 04:00","2018","01","21","04:00","-17.6","","-20.8","","76","","","","11","","9","","24.1","","98.62","","","","-24","","Snow"
"-101.09","53.97","THE PAS A","5052881","2018-01-21 05:00","2018","01","21","05:00","-17.6","","-20.9","","76","","","","11","","13","","24.1","","98.65","","","","-25","","Snow"
"-101.09","53.97","THE PAS A","5052881","2018-01-21 06:00","2018","01","21","06:00","-17.6","","-20.9","","76","","","","9","","13","","20.9","","98.63","","","","-25","","Snow"
"-101.09","53.97","THE PAS A","5052881","2018-01-21 07:00","2018","01","21","07:00","-17.7","","-21.0","","76","","","","10","","8","","16.1","","98.70","","","","-24","","Snow"
"-101.09","53.97","THE PAS A","5052881","2018-01-21 08:00","2018","01","21","08:00","-17.8","","-21.1","","76","","","","13","","10","","16.1","","98.70","","","","-25","","Snow"
"-101.09","53.97","THE PAS A","5052881","2018-01-21 09:00","2018","01","21","09:00","-17.7","","-21.0","","76","","","","10","","9","","9.7","","98.72","","","","-24","","Snow"
"-101.09","53.97","THE PAS A","5052881","2018-01-21 10:00","2018","01","21","10:00","-17.4","","-20.7","","75","","","","11","","11","","3.2","","98.76","","","","-25","","Snow"
"-101.09","53.97","THE PAS A","5052881","2018-01-21 11:00","2018","01","21","11:00","-16.9","","-20.4","","74","","","","11","","11","","6.4","","98.81","","","","-24","","Snow"
"-101.09","53.97","THE PAS A","5052881","2018-01-21 12:00","2018","01","21","12:00","-16.5","","-20.1","","74","","","","14","","9","","4.8","","98.82","","","","-23","","Snow"
"-101.09","53.97","THE PAS A","5052881","2018-01-21 13:00","2018","01","21","13:00","-16.0","","-19.8","","73","","","","14","","17","","8.1","","98.75","","","","-25","","Snow"
"-101.09","53.97","THE PAS A","5052881","2018-01-21 14:00","2018","01","21","14:00","-15.6","","-19.5","","72","","","","11","","16","","4.8","","98.76","","","","-24","","Snow"
"-101.09","53.97","THE PAS A","5052881","2018-01-21 15:00","2018","01","21","15:00","-15.5","","-19.2","","74","","","","11","","15","","4.8","","98.74","","","","-24","","Snow"
"-101.09","53.97","THE PAS A","5052881","2018-01-21 16:00","2018","01","21","16:00","-15.4","","-19.1","","74","","","","9","","9","","8.1","","98.82","","","","-21","","Snow"
"-101.09","53.97","THE PAS A","5052881","2018-01-21 17:00","2018","01","21","17:00","-15.7","","-19.2","","75","","","","8","","8","","2.4","","98.87","","","","-21","","Snow"
"-101.09","53.97","THE PAS A","5052881","2018-01-21 18:00","2018","01","21","18:00","-15.8","","-19.0","","76","","","","9","","9","","4.8","","98.92","","","","-22","","Snow"
"-101.09","53.97","THE PAS A","5052881","2018-01-21 19:00","2018","01","21","19:00","-15.8","","-19.3","","75","","","","10","","11","","9.7","","98.95","","","","-23","","Snow"
"-101.09","53.97","THE PAS A","5052881","2018-01-21 20:00","2018","01","21","20:00","-15.9","","-19.3","","75","","","","11","","13","","11.3","","98.95","","","","-23","","Snow"
"-101.09","53.97","THE PAS A","5052881","2018-01-21 21:00","2018","01","21","21:00","-16.1","","-19.7","","75","","","","10","","12","","16.1","","98.96","","","","-23","","Snow"
"-101.09","53.97","THE PAS A","5052881","2018-01-21 22:00","2018","01","21","22:00","-16.4","","-19.7","","76","","","","10","","8","","24.1","","98.98","","","","-22","","Snow"
"-101.09","53.97","THE PAS A","5052881","2018-01-21 23:00","2018","01","21","23:00","-18.8","","-21.7","","78","","","","6","","9","","24.1","","98.99","","","","-25","","NA"
"-101.09","53.97","THE PAS A","5052881","2018-01-22 00:00","2018","01","22","00:00","-19.6","","-22.5","","78","","","","8","","8","","24.1","","99.01","","","","-26","","Clear"
"-101.09","53.97","THE PAS A","5052881","2018-01-22 01:00","2018","01","22","01:00","-20.2","","-23.1","","78","","","","7","","8","","24.1","","99.01","","","","-26","","NA"
"-101.09","53.97","THE PAS A","5052881","2018-01-22 02:00","2018","01","22","02:00","-20.6","","-23.6","","78","","","","8","","8","","24.1","","99.02","","","","-27","","NA"
"-101.09","53.97","THE PAS A","5052881","2018-01-22 03:00","2018","01","22","03:00","-21.0","","-24.0","","77","","","","8","","12","","24.1","","99.01","","","","-29","","Mainly Clear"
"-101.09","53.97","THE PAS A","5052881","2018-01-22 04:00","2018","01","22","04:00","-21.1","","-24.1","","77","","","","8","","11","","24.1","","99.00","","","","-29","","NA"
"-101.09","53.97","THE PAS A","5052881","2018-01-22 05:00","2018","01","22","05:00","-20.9","","-23.9","","77","","","","8","","10","","24.1","","99.01","","","","-28","","NA"
"-101.09","53.97","THE PAS A","5052881","2018-01-22 06:00","2018","01","22","06:00","-20.5","","-23.5","","77","","","","9","","11","","24.1","","99.01","","","","-28","","Snow"
"-101.09","53.97","THE PAS A","5052881","2018-01-22 07:00","2018","01","22","07:00","-21.2","","-24.3","","77","","","","7","","6","","24.1","","99.02","","","","-26","","Snow"
"-101.09","53.97","THE PAS A","5052881","2018-01-22 08:00","2018","01","22","08:00","-21.6","","-24.7","","76","","","","8","","10","","24.1","","98.98","","","","-29","","Snow"
"-101.09","53.97","THE PAS A","5052881","2018-01-22 09:00","2018","01","22","09:00","-21.9","","-24.9","","77","","","","10","","13","","24.1","","98.97","","","","-31","","Cloudy"
"-101.09","53.97","THE PAS A","5052881","2018-01-22 10:00","2018","01","22","10:00","-21.9","","-25.0","","76","","","","11","","16","","19.3","","98.97","","","","-32","","Snow"
"-101.09","53.97","THE PAS A","5052881","2018-01-22 11:00","2018","01","22","11:00","-21.5","","-24.6","","76","","","","10","","15","","24.1","","98.95","","","","-31","","NA"
"-101.09","53.97","THE PAS A","5052881","2018-01-22 12:00","2018","01","22","12:00","-20.1","","-23.2","","77","","","","10","","14","","24.1","","98.88","","","","-29","","Cloudy"
"-101.09","53.97","THE PAS A","5052881","2018-01-22 13:00","2018","01","22","13:00","-18.1","","-21.1","","77","","","","10","","15","","19.3","","98.84","","","","-27","","Snow"
"-101.09","53.97","THE PAS A","5052881","2018-01-22 14:00","2018","01","22","14:00","-17.8","","-20.9","","77","","","","11","","12","","19.3","","98.75","","","","-25","","Snow"
"-101.09","53.97","THE PAS A","5052881","2018-01-22 15:00","2018","01","22","15:00","-17.8","","-21.0","","77","","","","9","","13","","19.3","","98.69","","","","-26","","Snow"
"-101.09","53.97","THE PAS A","5052881","2018-01-22 16:00","2018","01","22","16:00","-17.2","","-20.3","","77","","","","8","","13","","19.3","","98.69","","","","-25","","Snow"
"-101.09","53.97","THE PAS A","5052881","2018-01-22 17:00","2018","01","22","17:00","-16.2","","-19.1","","79","","","","9","","15","","24.1","","98.64","","","","-24","","NA"
"-101.09","53.97","THE PAS A","5052881","2018-01-22 18:00","2018","01","22","18:00","-16.0","","-18.7","","80","","","","9","","14","","24.1","","98.60","","","","-24","","Cloudy"
"-101.09","53.97","THE PAS A","5052881","2018-01-22 19:00","2018","01","22","19:00","-16.1","","-18.9","","79","","","","10","","11","","24.1","","98.61","","","","-23","","NA"
"-101.09","53.97","THE PAS A","5052881","2018-01-22 20:00","2018","01","22","20:00","-15.7","","-18.5","","79","","","","10","","14","","24.1","","98.61","","","","-23","","NA"
"-101.09","53.97","THE PAS A","5052881","2018-01-22 21:00","2018","01","22","21:00","-16.1","","-18.9","","79","","","","11","","19","","24.1","","98.57","","","","-25","","Snow"
"-101.09","53.97","THE PAS A","5052881","2018-01-22 22:00","2018","01","22","22:00","-15.9","","-18.8","","79","","","","10","","19","","24.1","","98.55","","","","-25","","Snow"
"-101.09","53.97","THE PAS A","5052881","2018-01-22 23:00","2018","01","22","23:00","-15.8","","-18.6","","80","","","","9","","18","","14.5","","98.50","","","","-25","","Snow"
"-101.09","53.97","THE PAS A","5052881","2018-01-23 00:00","2018","01","23","00:00","-15.8","","-18.4","","81","","","","9","","16","","4.8","","98.43","","","","-24","","Snow"
"-101.09","53.97","THE PAS A","5052881","2018-01-23 01:00","2018","01","23","01:00","-15.7","","-18.7","","78","","","","8","","10","","1.6","","98.42","","","","-22","","Snow"
"-101.09","53.97","THE PAS A","5052881","2018-01-23 02:00","2018","01","23","02:00","-15.5","","-18.4","","78","","","","9","","9","","4.8","","98.39","","","","-21","","Snow"
"-101.09","53.97","THE PAS A","5052881","2018-01-23 03:00","2018","01","23","03:00","-15.3","","-18.0","","80","","","","6","","7","","4.8","","98.40","","","","-20","","Snow"
"-101.09","53.97","THE PAS A","5052881","2018-01-23 04:00","2018","01","23","04:00","-15.4","","-18.0","","81","","","","8","","7","","4.8","","98.40","","","","-20","","Snow"
"-101.09","53.97","THE PAS A","5052881","2018-01-23 05:00","2018","01","23","05:00","-15.4","","-18.2","","80","","","","5","","6","","4.8","","98.41","","","","-20","","Snow"
"-101.09","53.97","THE PAS A","5052881","2018-01-23 06:00","2018","01","23","06:00","-16.1","","-18.8","","80","","","","6","","10","","4.8","","98.44","","","","-23","","Snow"
"-101.09","53.97","THE PAS A","5052881","2018-01-23 07:00","2018","01","23","07:00","-16.3","","-18.9","","81","","","","7","","5","","1.6","","98.44","","","","-20","","Snow"
"-101.09","53.97","THE PAS A","5052881","2018-01-23 08:00","2018","01","23","08:00","-16.5","","-19.4","","78","","","","6","","7","","4.8","","98.46","","","","-22","","Snow"
"-101.09","53.97","THE PAS A","5052881","2018-01-23 09:00","2018","01","23","09:00","-16.5","","-19.6","","78","","","","7","","8","","3.2","","98.48","","","","-22","","Snow"
"-101.09","53.97","THE PAS A","5052881","2018-01-23 10:00","2018","01","23","10:00","-16.5","","-19.6","","77","","","","6","","9","","1.6","","98.52","","","","-23","","Snow"
"-101.09","53.97","THE PAS A","5052881","2018-01-23 11:00","2018","01","23","11:00","-16.4","","-19.8","","76","","","","7","","10","","2.0","","98.55","","","","-23","","Snow"
"-101.09","53.97","THE PAS A","5052881","2018-01-23 12:00","2018","01","23","12:00","-16.2","","-19.7","","75","","","","4","","8","","6.4","","98.55","","","","-22","","Snow"
"-101.09","53.97","THE PAS A","5052881","2018-01-23 13:00","2018","01","23","13:00","-15.9","","-19.5","","74","","","","1","","9","","8.1","","98.53","","","","-22","","Snow"
"-101.09","53.97","THE PAS A","5052881","2018-01-23 14:00","2018","01","23","14:00","-16.5","","-20.2","","73","","","","35","","14","","16.1","","98.54","","","","-24","","Snow"
"-101.09","53.97","THE PAS A","5052881","2018-01-23 15:00","2018","01","23","15:00","-17.0","","-20.5","","74","","","","1","","10","","6.4","","98.58","","","","-24","","Snow"
"-101.09","53.97","THE PAS A","5052881","2018-01-23 16:00","2018","01","23","16:00","-17.3","","-20.7","","75","","","","3","","8","","6.4","","98.63","","","","-23","","Snow"
"-101.09","53.97","THE PAS A","5052881","2018-01-23 17:00","2018","01","23","17:00","-18.0","","-21.1","","77","","","","3","","4","","19.3","","98.68","","","","-21","","NA"
"-101.09","53.97","THE PAS A","5052881","2018-01-23 18:00","2018","01","23","18:00","-18.0","","-21.2","","76","","","","2","","10","","9.7","","98.72","","","","-25","","Snow"
"-101.09","53.97","THE PAS A","5052881","2018-01-23 19:00","2018","01","23","19:00","-18.5","","-21.7","","76","","","","1","","6","","19.3","","98.73","","","","-23","","Snow"
"-101.09","53.97","THE PAS A","5052881","2018-01-23 20:00","2018","01","23","20:00","-18.5","","-21.7","","76","","","","1","","8","","24.1","","98.73","","","","-24","","Snow"
"-101.09","53.97","THE PAS A","5052881","2018-01-23 21:00","2018","01","23","21:00","-18.5","","-21.7","","76","","","","2","","7","","24.1","","98.73","","","","-24","","Snow"
"-101.09","53.97","THE PAS A","5052881","2018-01-23 22:00","2018","01","23","22:00","-19.4","","-22.6","","77","","","","34","","5","","24.1","","98.76","","","","-24","","NA"
"-101.09","53.97","THE PAS A","5052881","2018-01-23 23:00","2018","01","23","23:00","-20.9","","-23.9","","77","","","","1","","4","","24.1","","98.79","","","","-24","","NA"
"-101.09","53.97","THE PAS A","5052881","2018-01-24 00:00","2018","01","24","00:00","-21.9","","-25.0","","77","","","","35","","6","","24.1","","98.77","","","","-27","","Mainly Clear"
"-101.09","53.97","THE PAS A","5052881","2018-01-24 01:00","2018","01","24","01:00","-22.0","","-25.0","","77","","","","36","","4","","24.1","","98.76","","","","-26","","NA"
"-101.09","53.97","THE PAS A","5052881","2018-01-24 02:00","2018","01","24","02:00","-23.7","","-26.8","","76","","","","33","","3","","24.1","","98.79","","","","-27","","NA"
"-101.09","53.97","THE PAS A","5052881","2018-01-24 03:00","2018","01","24","03:00","-25.0","","-28.2","","75","","","","29","","6","","24.1","","98.84","","","","-31","","Clear"
"-101.09","53.97","THE PAS A","5052881","2018-01-24 04:00","2018","01","24","04:00","-24.3","","-27.5","","76","","","","1","","5","","24.1","","98.85","","","","-29","","NA"
"-101.09","53.97","THE PAS A","5052881","2018-01-24 05:00","2018","01","24","05:00","-26.2","","-29.4","","75","","","","1","","7","","24.1","","98.87","","","","-33","","NA"
"-101.09","53.97","THE PAS A","5052881","2018-01-24 06:00","2018","01","24","06:00","-25.8","","-29.2","","74","","","","1","","8","","24.1","","98.89","","","","-33","","Clear"
"-101.09","53.97","THE PAS A","5052881","2018-01-24 07:00","2018","01","24","07:00","-27.3","","-30.7","","73","","","","36","","5","","24.1","","98.90","","","","-33","","NA"
"-101.09","53.97","THE PAS A","5052881","2018-01-24 08:00","2018","01","24","08:00","-28.8","","-32.4","","72","","","","29","","5","","24.1","","98.89","","","","-34","","NA"
"-101.09","53.97","THE PAS A","5052881","2018-01-24 09:00","2018","01","24","09:00","-29.0","","-32.4","","73","","","","36","","2","","24.1","","98.89","","","","-31","","Mostly Cloudy"
"-101.09","53.97","THE PAS A","5052881","2018-01-24 10:00","2018","01","24","10:00","-26.7","","-29.9","","75","","","","36","","4","","24.1","","98.93","","","","-31","","NA"
"-101.09","53.97","THE PAS A","5052881","2018-01-24 11:00","2018","01","24","11:00","-26.0","","-29.2","","75","","","","36","","7","","24.1","","98.95","","","","-33","","NA"
"-101.09","53.97","THE PAS A","5052881","2018-01-24 12:00","2018","01","24","12:00","-25.8","","-30.2","","67","","","","36","","8","","24.1","","98.92","","","","-33","","Mainly Clear"
"-101.09","53.97","THE PAS A","5052881","2018-01-24 13:00","2018","01","24","13:00","-24.7","","-29.5","","65","","","","36","","8","","24.1","","98.87","","","","-32","","NA"
"-101.09","53.97","THE PAS A","5052881","2018-01-24 14:00","2018","01","24","14:00","-23.8","","-28.7","","65","","","","36","","5","","24.1","","98.86","","","","-29","","NA"
"-101.09","53.97","THE PAS A","5052881","2018-01-24 15:00","2018","01","24","15:00","-23.0","","-28.1","","64","","","","36","","5","","24.1","","98.84","","","","-28","","Mainly Clear"
"-101.09","53.97","THE PAS A","5052881","2018-01-24 16:00","2018","01","24","16:00","-22.2","","-25.2","","77","","","","36","","5","","24.1","","98.85","","","","-27","","NA"
"-101.09","53.97","THE PAS A","5052881","2018-01-24 17:00","2018","01","24","17:00","-21.7","","-25.0","","75","","","","9","","4","","24.1","","98.84","","","","-25","","NA"
"-101.09","53.97","THE PAS A","5052881","2018-01-24 18:00","2018","01","24","18:00","-24.7","","-27.8","","76","","","","9","","4","","24.1","","98.85","","","","-29","","Clear"
"-101.09","53.97","THE PAS A","5052881","2018-01-24 19:00","2018","01","24","19:00","-26.5","","-29.8","","74","","","","36","","3","","24.1","","98.89","","","","-30","","NA"
"-101.09","53.97","THE PAS A","5052881","2018-01-24 20:00","2018","01","24","20:00","-27.3","","-30.8","","73","","","","9","","7","","24.1","","98.83","","","","-34","","NA"
"-101.09","53.97","THE PAS A","5052881","2018-01-24 21:00","2018","01","24","21:00","-27.2","","-30.7","","73","","","","12","","5","","24.1","","98.78","","","","-32","","Clear"
"-101.09","53.97","THE PAS A","5052881","2018-01-24 22:00","2018","01","24","22:00","-26.3","","-29.6","","74","","","","11","","7","","24.1","","98.74","","","","-33","","NA"
"-101.09","53.97","THE PAS A","5052881","2018-01-24 23:00","2018","01","24","23:00","-23.9","","-27.3","","74","","","","11","","11","","24.1","","98.72","","","","-32","","NA"
"-101.09","53.97","THE PAS A","5052881","2018-01-25 00:00","2018","01","25","00:00","-25.0","","-28.2","","75","","","","12","","9","","24.1","","98.75","","","","-33","","Clear"
"-101.09","53.97","THE PAS A","5052881","2018-01-25 01:00","2018","01","25","01:00","-24.1","","-27.5","","74","","","","12","","14","","24.1","","98.69","","","","-34","","NA"
"-101.09","53.97","THE PAS A","5052881","2018-01-25 02:00","2018","01","25","02:00","-24.2","","-27.5","","75","","","","12","","13","","16.1","","98.65","","","","-34","","NA"
"-101.09","53.97","THE PAS A","5052881","2018-01-25 03:00","2018","01","25","03:00","-23.8","","-27.1","","75","","","","13","","15","","24.1","","98.60","","","","-34","","Snow"
"-101.09","53.97","THE PAS A","5052881","2018-01-25 04:00","2018","01","25","04:00","-24.1","","-27.5","","74","","","","11","","15","","24.1","","98.53","","","","-34","","NA"
"-101.09","53.97","THE PAS A","5052881","2018-01-25 05:00","2018","01","25","05:00","-23.4","","-26.8","","74","","","","12","","13","","24.1","","98.48","","","","-33","","NA"
"-101.09","53.97","THE PAS A","5052881","2018-01-25 06:00","2018","01","25","06:00","-22.0","","-25.2","","76","","","","9","","15","","1.6","","98.44","","","","-32","","Fog"
"-101.09","53.97","THE PAS A","5052881","2018-01-25 07:00","2018","01","25","07:00","-21.7","","-24.9","","76","","","","10","","13","","24.1","","98.39","","","","-30","","Snow"
"-101.09","53.97","THE PAS A","5052881","2018-01-25 08:00","2018","01","25","08:00","-21.7","","-25.0","","75","","","","10","","14","","24.1","","98.35","","","","-31","","NA"
"-101.09","53.97","THE PAS A","5052881","2018-01-25 09:00","2018","01","25","09:00","-21.0","","-24.3","","76","","","","10","","17","","24.1","","98.25","","","","-31","","Cloudy"
"-101.09","53.97","THE PAS A","5052881","2018-01-25 10:00","2018","01","25","10:00"
"-101.09","53.97","THE PAS A","5052881","2018-01-25 11:00","2018","01","25","11:00","-18.6","","-21.7","","77","","","","10","","12","","24.1","","98.19","","","","-26","","Snow"
"-101.09","53.97","THE PAS A","5052881","2018-01-25 12:00","2018","01","25","12:00","-16.8","","-19.6","","79","","","","11","","20","","24.1","","98.09","","","","-26","","Snow"
"-101.09","53.97","THE PAS A","5052881","2018-01-25 13:00","2018","01","25","13:00","-15.7","","-18.4","","80","","","","11","","18","","24.1","","98.02","","","","-25","","Snow"
"-101.09","53.97","THE PAS A","5052881","2018-01-25 14:00","2018","01","25","14:00","-14.9","","-17.5","","81","","","","11","","18","","19.3","","97.96","","","","-24","","NA"
"-101.09","53.97","THE PAS A","5052881","2018-01-25 15:00","2018","01","25","15:00","-14.4","","-16.9","","81","","","","10","","21","","3.6","","97.85","","","","-24","","Snow"
"-101.09","53.97","THE PAS A","5052881","2018-01-25 16:00","2018","01","25","16:00","-14.1","","-16.6","","81","","","","11","","18","","1.2","","97.88","","","","-23","","Snow"
"-101.09","53.97","THE PAS A","5052881","2018-01-25 17:00","2018","01","25","17:00","-14.1","","-16.6","","82","","","","10","","18","","0.6","","97.80","","","","-23","","Moderate Snow"
"-101.09","53.97","THE PAS A","5052881","2018-01-25 18:00","2018","01","25","18:00","-14.4","","-16.9","","81","","","","10","","16","","1.2","","97.85","","","","-22","","Snow"
"-101.09","53.97","THE PAS A","5052881","2018-01-25 19:00","2018","01","25","19:00","-13.9","","-16.4","","82","","","","10","","12","","2.0","","97.79","","","","-21","","Snow"
"-101.09","53.97","THE PAS A","5052881","2018-01-25 20:00","2018","01","25","20:00","-13.1","","-15.6","","82","","","","9","","14","","2.0","","97.73","","","","-20","","Snow"
"-101.09","53.97","THE PAS A","5052881","2018-01-25 21:00","2018","01","25","21:00","-13.8","","-16.3","","81","","","","7","","9","","1.6","","97.71","","","","-19","","Snow"
"-101.09","53.97","THE PAS A","5052881","2018-01-25 22:00","2018","01","25","22:00","-13.6","","-16.1","","81","","","","7","","13","","24.1","","97.68","","","","-21","","Snow"
"-101.09","53.97","THE PAS A","5052881","2018-01-25 23:00","2018","01","25","23:00","-12.9","","-15.4","","82","","","","8","","16","","24.1","","97.65","","","","-21","","Snow"
"-101.09","53.97","THE PAS A","5052881","2018-01-26 00:00","2018","01","26","00:00","-12.5","","-15.1","","81","","","","9","","18","","14.5","","97.60","","","","-21","","Snow"
"-101.09","53.97","THE PAS A","5052881","2018-01-26 01:00","2018","01","26","01:00","-12.2","","-14.7","","82","","","","8","","16","","19.3","","97.60","","","","-20","","Snow"
"-101.09","53.97","THE PAS A","5052881","2018-01-26 02:00","2018","01","26","02:00","-12.2","","-14.4","","83","","","","6","","10","","14.5","","97.57","","","","-18","","Snow"
"-101.09","53.97","THE PAS A","5052881","2018-01-26 03:00","2018","01","26","03:00","-12.1","","-14.5","","83","","","","7","","14","","1.2","","97.55","","","","-19","","Snow,Fog"
"-101.09","53.97","THE PAS A","5052881","2018-01-26 04:00","2018","01","26","04:00","-12.2","","-14.5","","84","","","","6","","14","","0.8","","97.53","","","","-19","","Snow,Freezing Fog"
"-101.09","53.97","THE PAS A","5052881","2018-01-26 05:00","2018","01","26","05:00","-12.5","","-14.8","","83","","","","5","","8","","1.2","","97.52","","","","-17","","Snow,Fog"
"-101.09","53.97","THE PAS A","5052881","2018-01-26 06:00","2018","01","26","06:00","-12.8","","-15.1","","83","","","","1","","10","","1.2","","97.51","","","","-19","","Snow,Fog"
"-101.09","53.97","THE PAS A","5052881","2018-01-26 07:00","2018","01","26","07:00","-13.2","","-15.5","","83","","","","2","","13","","1.0","","97.52","","","","-20","","Snow,Fog"
"-101.09","53.97","THE PAS A","5052881","2018-01-26 08:00","2018","01","26","08:00","-13.7","","-16.2","","82","","","","2","","12","","11.3","","97.55","","","","-20","","Snow"
"-101.09","53.97","THE PAS A","5052881","2018-01-26 09:00","2018","01","26","09:00","-13.9","","-16.4","","82","","","","2","","16","","1.0","","97.56","","","","-22","","Snow"
"-101.09","53.97","THE PAS A","5052881","2018-01-26 10:00","2018","01","26","10:00","-14.1","","-16.7","","81","","","","2","","12","","1.0","","97.57","","","","-21","","Snow"
"-101.09","53.97","THE PAS A","5052881","2018-01-26 11:00","2018","01","26","11:00","-13.9","","-16.5","","81","","","","2","","10","","1.0","","97.59","","","","-20","","Snow"
"-101.09","53.97","THE PAS A","5052881","2018-01-26 12:00","2018","01","26","12:00","-13.3","","-15.9","","81","","","","1","","12","","3.2","","97.63","","","","-20","","Snow"
"-101.09","53.97","THE PAS A","5052881","2018-01-26 13:00","2018","01","26","13:00","-12.5","","-15.2","","80","","","","1","","13","","3.2","","97.60","","","","-19","","Snow"
"-101.09","53.97","THE PAS A","5052881","2018-01-26 14:00","2018","01","26","14:00","-12.8","","-15.9","","78","","","","3","","14","","4.8","","97.60","","","","-20","","Snow"
"-101.09","53.97","THE PAS A","5052881","2018-01-26 15:00","2018","01","26","15:00","-12.9","","-15.9","","78","","","","2","","15","","2.4","","97.64","","","","-20","","Snow"
"-101.09","53.97","THE PAS A","5052881","2018-01-26 16:00","2018","01","26","16:00","-12.7","","-15.8","","78","","","","1","","13","","2.0","","97.71","","","","-20","","Snow"
"-101.09","53.97","THE PAS A","5052881","2018-01-26 17:00","2018","01","26","17:00","-12.3","","-15.2","","79","","","","1","","19","","2.0","","97.79","","","","-21","","Snow"
"-101.09","53.97","THE PAS A","5052881","2018-01-26 18:00","2018","01","26","18:00","-12.6","","-15.5","","79","","","","1","","20","","2.0","","97.86","","","","-21","","Snow"
"-101.09","53.97","THE PAS A","5052881","2018-01-26 19:00","2018","01","26","19:00","-13.1","","-16.1","","78","","","","2","","20","","2.0","","97.95","","","","-22","","Snow"
"-101.09","53.97","THE PAS A","5052881","2018-01-26 20:00","2018","01","26","20:00","-14.0","","-17.1","","78","","","","1","","20","","2.0","","98.04","","","","-23","","Snow,Blowing Snow"
"-101.09","53.97","THE PAS A","5052881","2018-01-26 21:00","2018","01","26","21:00","-15.0","","-18.2","","77","","","","1","","22","","2.4","","98.15","","","","-25","","Snow"
"-101.09","53.97","THE PAS A","5052881","2018-01-26 22:00","2018","01","26","22:00","-16.5","","-19.9","","75","","","","1","","21","","16.1","","98.27","","","","-26","","Snow"
"-101.09","53.97","THE PAS A","5052881","2018-01-26 23:00","2018","01","26","23:00","-17.3","","-20.6","","76","","","","1","","22","","3.2","","98.36","","","","-28","","Snow,Blowing Snow"
"-101.09","53.97","THE PAS A","5052881","2018-01-27 00:00","2018","01","27","00:00","-18.3","","-21.6","","76","","","","1","","21","","19.3","","98.49","","","","-29","","Snow,Blowing Snow"
"-101.09","53.97","THE PAS A","5052881","2018-01-27 01:00","2018","01","27","01:00","-19.0","","-22.2","","76","","","","1","","20","","24.1","","98.59","","","","-29","","Snow,Blowing Snow"
"-101.09","53.97","THE PAS A","5052881","2018-01-27 02:00","2018","01","27","02:00","-19.1","","-22.4","","76","","","","36","","21","","24.1","","98.69","","","","-30","","Snow"
"-101.09","53.97","THE PAS A","5052881","2018-01-27 03:00","2018","01","27","03:00","-19.7","","-23.2","","75","","","","1","","22","","24.1","","98.83","","","","-31","","Snow"
"-101.09","53.97","THE PAS A","5052881","2018-01-27 04:00","2018","01","27","04:00","-22.2","","-26.0","","72","","","","1","","18","","24.1","","98.98","","","","-33","","Snow"
"-101.09","53.97","THE PAS A","5052881","2018-01-27 05:00","2018","01","27","05:00","-22.7","","-26.4","","72","","","","36","","14","","24.1","","99.12","","","","-32","","Snow"
"-101.09","53.97","THE PAS A","5052881","2018-01-27 06:00","2018","01","27","06:00","-22.6","","-26.2","","73","","","","36","","14","","24.1","","99.21","","","","-32","","Snow"
"-101.09","53.97","THE PAS A","5052881","2018-01-27 07:00","2018","01","27","07:00","-22.2","","-25.7","","74","","","","34","","16","","24.1","","99.30","","","","-32","","Snow"
"-101.09","53.97","THE PAS A","5052881","2018-01-27 08:00","2018","01","27","08:00","-22.0","","-25.6","","73","","","","34","","17","","24.1","","99.37","","","","-32","","Snow"
"-101.09","53.97","THE PAS A","5052881","2018-01-27 09:00","2018","01","27","09:00","-23.6","","-27.3","","72","","","","34","","17","","24.1","","99.49","","","","-34","","Mainly Clear"
"-101.09","53.97","THE PAS A","5052881","2018-01-27 10:00","2018","01","27","10:00","-24.3","","-28.2","","70","","","","34","","18","","24.1","","99.58","","","","-35","","NA"
"-101.09","53.97","THE PAS A","5052881","2018-01-27 11:00","2018","01","27","11:00","-24.0","","-28.3","","68","","","","34","","16","","24.1","","99.67","","","","-34","","NA"
"-101.09","53.97","THE PAS A","5052881","2018-01-27 12:00","2018","01","27","12:00","-23.8","","-28.2","","67","","","","34","","14","","24.1","","99.71","","","","-33","","Mainly Clear"
"-101.09","53.97","THE PAS A","5052881","2018-01-27 13:00","2018","01","27","13:00","-23.6","","-28.2","","66","","","","35","","13","","24.1","","99.72","","","","-33","","NA"
"-101.09","53.97","THE PAS A","5052881","2018-01-27 14:00","2018","01","27","14:00","-23.1","","-27.9","","66","","","","36","","13","","24.1","","99.75","","","","-32","","NA"
"-101.09","53.97","THE PAS A","5052881","2018-01-27 15:00","2018","01","27","15:00","-23.2","","-27.9","","66","","","","34","","14","","24.1","","99.80","","","","-33","","Mostly Cloudy"
"-101.09","53.97","THE PAS A","5052881","2018-01-27 16:00","2018","01","27","16:00","-23.4","","-27.9","","67","","","","31","","12","","24.1","","99.89","","","","-32","","NA"
"-101.09","53.97","THE PAS A","5052881","2018-01-27 17:00","2018","01","27","17:00","-23.5","","-27.9","","67","","","","32","","15","","24.1","","99.99","","","","-33","","NA"
"-101.09","53.97","THE PAS A","5052881","2018-01-27 18:00","2018","01","27","18:00","-24.6","","-28.9","","68","","","","33","","14","","24.1","","100.08","","","","-34","","Mostly Cloudy"
"-101.09","53.97","THE PAS A","5052881","2018-01-27 19:00","2018","01","27","19:00","-25.0","","-29.1","","69","","","","33","","11","","24.1","","100.11","","","","-34","","NA"
"-101.09","53.97","THE PAS A","5052881","2018-01-27 20:00","2018","01","27","20:00","-25.9","","-29.8","","70","","","","33","","10","","24.1","","100.13","","","","-34","","NA"
"-101.09","53.97","THE PAS A","5052881","2018-01-27 21:00","2018","01","27","21:00","-26.6","","-30.4","","70","","","","34","","9","","24.1","","100.13","","","","-35","","Cloudy"
"-101.09","53.97","THE PAS A","5052881","2018-01-27 22:00","2018","01","27","22:00","-26.9","","-30.6","","71","","","","34","","8","","24.1","","100.19","","","","-34","","NA"
"-101.09","53.97","THE PAS A","5052881","2018-01-27 23:00","2018","01","27","23:00","-27.7","","-31.4","","71","","","","34","","5","","24.1","","100.23","","","","-33","","NA"
"-101.09","53.97","THE PAS A","5052881","2018-01-28 00:00","2018","01","28","00:00","-27.3","","-31.1","","71","","","","34","","7","","24.1","","100.28","","","","-34","","Cloudy"
"-101.09","53.97","THE PAS A","5052881","2018-01-28 01:00","2018","01","28","01:00","-27.9","","-31.8","","70","","","","33","","5","","24.1","","100.37","","","","-33","","NA"
"-101.09","53.97","THE PAS A","5052881","2018-01-28 02:00","2018","01","28","02:00","-28.2","","-32.2","","70","","","","34","","5","","24.1","","100.41","","","","-34","","NA"
"-101.09","53.97","THE PAS A","5052881","2018-01-28 03:00","2018","01","28","03:00","-29.7","","-33.4","","71","","","","32","","4","","24.1","","100.43","","","","-34","","Cloudy"
"-101.09","53.97","THE PAS A","5052881","2018-01-28 04:00","2018","01","28","04:00","-29.9","","-33.3","","73","","","","32","","4","","24.1","","100.47","","","","-34","","NA"
"-101.09","53.97","THE PAS A","5052881","2018-01-28 05:00","2018","01","28","05:00","-29.7","","-33.1","","73","","","","32","","4","","24.1","","100.49","","","","-34","","NA"
"-101.09","53.97","THE PAS A","5052881","2018-01-28 06:00","2018","01","28","06:00","-29.5","","-33.1","","72","","","","","","0","","24.1","","100.53","","","","","","Cloudy"
"-101.09","53.97","THE PAS A","5052881","2018-01-28 07:00","2018","01","28","07:00","-30.6","","-34.3","","71","","","","","","0","","24.1","","100.57","","","","","","NA"
"-101.09","53.97","THE PAS A","5052881","2018-01-28 08:00","2018","01","28","08:00","-31.7","","-35.3","","71","","","","","","0","","24.1","","100.63","","","","","","NA"
"-101.09","53.97","THE PAS A","5052881","2018-01-28 09:00","2018","01","28","09:00","-31.9","","-35.8","","69","","","","32","","4","","24.1","","100.69","","","","-37","","Clear"
"-101.09","53.97","THE PAS A","5052881","2018-01-28 10:00","2018","01","28","10:00","-28.1","","-31.8","","71","","","","32","","9","","24.1","","100.74","","","","-36","","NA"
"-101.09","53.97","THE PAS A","5052881","2018-01-28 11:00","2018","01","28","11:00","-25.7","","-29.7","","70","","","","","","0","","24.1","","100.74","","","","","","NA"
"-101.09","53.97","THE PAS A","5052881","2018-01-28 12:00","2018","01","28","12:00","-24.4","","-28.5","","70","","","","28","","9","","24.1","","100.73","","","","-32","","Mostly Cloudy"
"-101.09","53.97","THE PAS A","5052881","2018-01-28 13:00","2018","01","28","13:00","-24.2","","-28.7","","67","","","","31","","9","","24.1","","100.71","","","","-32","","Ice Crystals"
"-101.09","53.97","THE PAS A","5052881","2018-01-28 14:00","2018","01","28","14:00","-22.9","","-27.8","","65","","","","31","","9","","24.1","","100.68","","","","-30","","NA"
"-101.09","53.97","THE PAS A","5052881","2018-01-28 15:00","2018","01","28","15:00","-22.2","","-26.9","","66","","","","29","","12","","16.1","","100.66","","","","-31","","Snow"
"-101.09","53.97","THE PAS A","5052881","2018-01-28 16:00","2018","01","28","16:00","-22.0","","-26.6","","67","","","","30","","10","","24.1","","100.65","","","","-30","","Snow"
"-101.09","53.97","THE PAS A","5052881","2018-01-28 17:00","2018","01","28","17:00","-22.8","","-27.4","","67","","","","28","","11","","24.1","","100.68","","","","-31","","NA"
"-101.09","53.97","THE PAS A","5052881","2018-01-28 18:00","2018","01","28","18:00","-23.9","","-27.9","","70","","","","28","","8","","24.1","","100.67","","","","-31","","Clear"
"-101.09","53.97","THE PAS A","5052881","2018-01-28 19:00","2018","01","28","19:00","-25.7","","-29.4","","72","","","","28","","9","","24.1","","100.64","","","","-33","","NA"
"-101.09","53.97","THE PAS A","5052881","2018-01-28 20:00","2018","01","28","20:00","-24.1","","-27.5","","74","","","","28","","13","","24.1","","100.61","","","","-33","","NA"
"-101.09","53.97","THE PAS A","5052881","2018-01-28 21:00","2018","01","28","21:00","-24.6","","-28.3","","72","","","","27","","10","","24.1","","100.60","","","","-33","","Mostly Cloudy"
"-101.09","53.97","THE PAS A","5052881","2018-01-28 22:00","2018","01","28","22:00","-23.6","","-27.6","","70","","","","29","","12","","24.1","","100.57","","","","-32","","NA"
"-101.09","53.97","THE PAS A","5052881","2018-01-28 23:00","2018","01","28","23:00","-24.2","","-28.4","","69","","","","31","","11","","24.1","","100.54","","","","-33","","NA"
"-101.09","53.97","THE PAS A","5052881","2018-01-29 00:00","2018","01","29","00:00","-24.3","","-28.2","","71","","","","29","","8","","24.1","","100.57","","","","-31","","Mostly Cloudy"
"-101.09","53.97","THE PAS A","5052881","2018-01-29 01:00","2018","01","29","01:00","-25.2","","-29.1","","71","","","","29","","12","","24.1","","100.61","","","","-34","","NA"
"-101.09","53.97","THE PAS A","5052881","2018-01-29 02:00","2018","01","29","02:00","-27.8","","-31.3","","73","","","","24","","4","","24.1","","100.57","","","","-32","","NA"
"-101.09","53.97","THE PAS A","5052881","2018-01-29 03:00","2018","01","29","03:00","-28.1","","-31.4","","74","","","","27","","4","","24.1","","100.53","","","","-32","","Clear"
"-101.09","53.97","THE PAS A","5052881","2018-01-29 04:00","2018","01","29","04:00","-28.5","","-31.4","","77","","","","23","","4","","24.1","","100.51","","","","-33","","NA"
"-101.09","53.97","THE PAS A","5052881","2018-01-29 05:00","2018","01","29","05:00","-27.8","","-30.8","","76","","","","27","","4","","24.1","","100.51","","","","-32","","NA"
"-101.09","53.97","THE PAS A","5052881","2018-01-29 06:00","2018","01","29","06:00","-25.8","","-29.0","","75","","","","27","","8","","24.1","","100.51","","","","-33","","Cloudy"
"-101.09","53.97","THE PAS A","5052881","2018-01-29 07:00","2018","01","29","07:00","-25.6","","-29.0","","74","","","","32","","5","","24.1","","100.45","","","","-31","","NA"
"-101.09","53.97","THE PAS A","5052881","2018-01-29 08:00","2018","01","29","08:00","-26.3","","-29.8","","73","","","","18","","4","","24.1","","100.38","","","","-30","","NA"
"-101.09","53.97","THE PAS A","5052881","2018-01-29 09:00","2018","01","29","09:00","-26.4","","-29.6","","75","","","","23","","4","","24.1","","100.40","","","","-31","","Cloudy"
"-101.09","53.97","THE PAS A","5052881","2018-01-29 10:00","2018","01","29","10:00","-25.6","","-29.4","","72","","","","36","","2","","24.1","","100.37","","","","-28","","Snow"
"-101.09","53.97","THE PAS A","5052881","2018-01-29 11:00","2018","01","29","11:00","-23.8","","-27.5","","72","","","","36","","2","","24.1","","100.34","","","","-26","","Snow"
"-101.09","53.97","THE PAS A","5052881","2018-01-29 12:00","2018","01","29","12:00","-22.3","","-26.1","","72","","","","11","","3","","24.1","","100.28","","","","-25","","Snow"
"-101.09","53.97","THE PAS A","5052881","2018-01-29 13:00","2018","01","29","13:00","-21.1","","-25.1","","70","","","","14","","7","","24.1","","100.17","","","","-27","","Ice Crystals"
"-101.09","53.97","THE PAS A","5052881","2018-01-29 14:00","2018","01","29","14:00","-20.4","","-25.3","","66","","","","16","","9","","20.9","","100.10","","","","-27","","Ice Crystals"
"-101.09","53.97","THE PAS A","5052881","2018-01-29 15:00","2018","01","29","15:00","-20.9","","-25.8","","66","","","","14","","12","","24.1","","100.02","","","","-29","","Clear"
"-101.09","53.97","THE PAS A","5052881","2018-01-29 16:00","2018","01","29","16:00","-20.9","","-25.9","","65","","","","14","","12","","24.1","","99.98","","","","-29","","NA"
"-101.09","53.97","THE PAS A","5052881","2018-01-29 17:00","2018","01","29","17:00","-21.6","","-26.0","","68","","","","12","","10","","24.1","","99.88","","","","-29","","NA"
"-101.09","53.97","THE PAS A","5052881","2018-01-29 18:00","2018","01","29","18:00","-22.8","","-26.6","","72","","","","10","","10","","24.1","","99.80","","","","-31","","Clear"
"-101.09","53.97","THE PAS A","5052881","2018-01-29 19:00","2018","01","29","19:00","-23.7","","-27.4","","72","","","","12","","11","","24.1","","99.68","","","","-32","","NA"
"-101.09","53.97","THE PAS A","5052881","2018-01-29 20:00","2018","01","29","20:00","-23.5","","-27.2","","72","","","","12","","14","","24.1","","99.57","","","","-33","","NA"
"-101.09","53.97","THE PAS A","5052881","2018-01-29 21:00","2018","01","29","21:00","-24.3","","-27.8","","73","","","","13","","13","","24.1","","99.44","","","","-34","","Mostly Cloudy"
"-101.09","53.97","THE PAS A","5052881","2018-01-29 22:00","2018","01","29","22:00","-23.9","","-27.9","","70","","","","11","","21","","24.1","","99.25","","","","-36","","NA"
"-101.09","53.97","THE PAS A","5052881","2018-01-29 23:00","2018","01","29","23:00","-24.1","","-28.0","","71","","","","12","","18","","24.1","","99.12","","","","-35","","NA"
"-101.09","53.97","THE PAS A","5052881","2018-01-30 00:00","2018","01","30","00:00","-23.7","","-27.4","","72","","","","12","","22","","24.1","","98.92","","","","-36","","Cloudy"
"-101.09","53.97","THE PAS A","5052881","2018-01-30 01:00","2018","01","30","01:00","-22.7","","-26.5","","72","","","","13","","23","","24.1","","98.71","","","","-35","","NA"
"-101.09","53.97","THE PAS A","5052881","2018-01-30 02:00","2018","01","30","02:00","-21.4","","-25.3","","71","","","","13","","21","","24.1","","98.48","","","","-32","","NA"
"-101.09","53.97","THE PAS A","5052881","2018-01-30 03:00","2018","01","30","03:00","-21.1","","-24.9","","72","","","","12","","21","","24.1","","98.28","","","","-32","","Cloudy"
"-101.09","53.97","THE PAS A","5052881","2018-01-30 04:00","2018","01","30","04:00","-20.2","","-23.9","","73","","","","12","","25","","24.1","","98.06","","","","-32","","NA"
"-101.09","53.97","THE PAS A","5052881","2018-01-30 05:00","2018","01","30","05:00","-19.5","","-23.1","","74","","","","11","","35","","24.1","","97.74","","","","-33","","NA"
"-101.09","53.97","THE PAS A","5052881","2018-01-30 06:00","2018","01","30","06:00","-19.7","","-23.3","","74","","","","11","","31","","2.4","","97.41","","","","-32","","Snow,Blowing Snow"
"-101.09","53.97","THE PAS A","5052881","2018-01-30 07:00","2018","01","30","07:00","-19.2","","-22.7","","74","","","","11","","28","","1.2","","97.21","","","","-31","","Snow,Blowing Snow"
"-101.09","53.97","THE PAS A","5052881","2018-01-30 08:00","2018","01","30","08:00","-18.5","","-21.9","","75","","","","11","","35","","1.0","","96.94","","","","-31","","Snow,Blowing Snow"
"-101.09","53.97","THE PAS A","5052881","2018-01-30 09:00","2018","01","30","09:00","-18.6","","-22.0","","75","","","","11","","38","","0.8","","96.67","","","","-32","","Moderate Snow,Blowing Snow"
"-101.09","53.97","THE PAS A","5052881","2018-01-30 10:00","2018","01","30","10:00","-18.6","","-22.0","","75","","","","11","","25","","0.8","","96.50","","","","-30","","Moderate Snow,Blowing Snow"
"-101.09","53.97","THE PAS A","5052881","2018-01-30 11:00","2018","01","30","11:00","-18.2","","-21.8","","74","","","","11","","29","","1.6","","96.37","","","","-30","","Snow,Blowing Snow"
"-101.09","53.97","THE PAS A","5052881","2018-01-30 12:00","2018","01","30","12:00","-17.5","","-20.9","","75","","","","10","","26","","1.2","","96.17","","","","-29","","Snow,Blowing Snow"
"-101.09","53.97","THE PAS A","5052881","2018-01-30 13:00","2018","01","30","13:00","-17.1","","-20.5","","75","","","","10","","17","","1.0","","96.01","","","","-26","","Snow"
"-101.09","53.97","THE PAS A","5052881","2018-01-30 14:00","2018","01","30","14:00","-16.8","","-20.3","","75","","","","9","","9","","1.0","","95.98","","","","-23","","Snow"
"-101.09","53.97","THE PAS A","5052881","2018-01-30 15:00","2018","01","30","15:00","-16.3","","-19.8","","75","","","","5","","9","","1.6","","96.06","","","","-22","","Snow"
"-101.09","53.97","THE PAS A","5052881","2018-01-30 16:00","2018","01","30","16:00","-16.2","","-19.9","","74","","","","1","","13","","1.6","","96.21","","","","-24","","Snow"
"-101.09","53.97","THE PAS A","5052881","2018-01-30 17:00","2018","01","30","17:00","-18.1","","-21.7","","74","","","","36","","22","","3.6","","96.34","","","","-29","","Snow"
"-101.09","53.97","THE PAS A","5052881","2018-01-30 18:00","2018","01","30","18:00","-19.0","","-22.8","","72","","","","35","","18","","3.2","","96.52","","","","-29","","Snow"
"-101.09","53.97","THE PAS A","5052881","2018-01-30 19:00","2018","01","30","19:00","-19.5","","-23.5","","71","","","","34","","19","","4.8","","96.61","","","","-30","","Snow"
"-101.09","53.97","THE PAS A","5052881","2018-01-30 20:00","2018","01","30","20:00","-19.6","","-23.3","","73","","","","32","","22","","4.8","","96.71","","","","-30","","Snow"
"-101.09","53.97","THE PAS A","5052881","2018-01-30 21:00","2018","01","30","21:00","-19.9","","-23.6","","72","","","","32","","22","","4.8","","96.79","","","","-31","","Snow"
"-101.09","53.97","THE PAS A","5052881","2018-01-30 22:00","2018","01","30","22:00","-20.5","","-24.4","","71","","","","33","","22","","6.4","","96.87","","","","-32","","Snow"
"-101.09","53.97","THE PAS A","5052881","2018-01-30 23:00","2018","01","30","23:00","-21.2","","-25.2","","71","","","","33","","22","","19.3","","96.96","","","","-32","","NA"
"-101.09","53.97","THE PAS A","5052881","2018-01-31 00:00","2018","01","31","00:00","-21.7","","-25.8","","70","","","","32","","23","","19.3","","97.04","","","","-33","","Cloudy"
"-101.09","53.97","THE PAS A","5052881","2018-01-31 01:00","2018","01","31","01:00","-21.6","","-25.3","","72","","","","31","","23","","19.3","","97.11","","","","-33","","Snow"
"-101.09","53.97","THE PAS A","5052881","2018-01-31 02:00","2018","01","31","02:00","-21.0","","-24.7","","73","","","","32","","24","","6.4","","97.18","","","","-33","","Snow"
"-101.09","53.97","THE PAS A","5052881","2018-01-31 03:00","2018","01","31","03:00","-20.7","","-24.5","","72","","","","32","","22","","6.4","","97.28","","","","-32","","Snow"
"-101.09","53.97","THE PAS A","5052881","2018-01-31 04:00","2018","01","31","04:00","-20.5","","-24.6","","70","","","","32","","26","","9.7","","97.38","","","","-32","","Snow"
"-101.09","53.97","THE PAS A","5052881","2018-01-31 05:00","2018","01","31","05:00","-20.8","","-25.1","","69","","","","34","","22","","16.1","","97.47","","","","-32","","Blowing Snow"
"-101.09","53.97","THE PAS A","5052881","2018-01-31 06:00","2018","01","31","06:00","-21.1","","-25.2","","70","","","","33","","25","","8.1","","97.58","","","","-33","","Snow,Blowing Snow"
"-101.09","53.97","THE PAS A","5052881","2018-01-31 07:00","2018","01","31","07:00","-21.5","","-25.9","","68","","","","35","","27","","4.0","","97.69","","","","-34","","Snow,Blowing Snow"
"-101.09","53.97","THE PAS A","5052881","2018-01-31 08:00","2018","01","31","08:00","-21.4","","-25.7","","69","","","","35","","30","","4.0","","97.81","","","","-34","","Snow,Blowing Snow"
"-101.09","53.97","THE PAS A","5052881","2018-01-31 09:00","2018","01","31","09:00","-21.5","","-25.9","","68","","","","35","","26","","3.2","","97.95","","","","-34","","Snow,Blowing Snow"
"-101.09","53.97","THE PAS A","5052881","2018-01-31 10:00","2018","01","31","10:00","-21.5","","-26.0","","68","","","","35","","28","","3.2","","98.10","","","","-34","","Snow,Blowing Snow"
"-101.09","53.97","THE PAS A","5052881","2018-01-31 11:00","2018","01","31","11:00","-21.5","","-26.5","","65","","","","35","","33","","4.0","","98.22","","","","-35","","Snow,Blowing Snow"
"-101.09","53.97","THE PAS A","5052881","2018-01-31 12:00","2018","01","31","12:00","-21.4","","-26.4","","65","","","","35","","31","","3.2","","98.31","","","","-35","","Snow,Blowing Snow"
"-101.09","53.97","THE PAS A","5052881","2018-01-31 13:00","2018","01","31","13:00","-21.1","","-26.0","","65","","","","35","","29","","3.2","","98.40","","","","-34","","Snow,Blowing Snow"
"-101.09","53.97","THE PAS A","5052881","2018-01-31 14:00","2018","01","31","14:00","-20.7","","-25.6","","65","","","","35","","23","","4.8","","98.49","","","","-32","","Snow,Blowing Snow"
"-101.09","53.97","THE PAS A","5052881","2018-01-31 15:00","2018","01","31","15:00","-20.6","","-25.7","","65","","","","35","","29","","11.3","","98.60","","","","-33","","Snow,Blowing Snow"
"-101.09","53.97","THE PAS A","5052881","2018-01-31 16:00","2018","01","31","16:00","-20.3","","-25.5","","64","","","","34","","21","","24.1","","98.76","","","","-31","","Blowing Snow"
"-101.09","53.97","THE PAS A","5052881","2018-01-31 17:00","2018","01","31","17:00","-21.1","","-25.8","","67","","","","33","","26","","24.1","","98.90","","","","-33","","Blowing Snow"
"-101.09","53.97","THE PAS A","5052881","2018-01-31 18:00","2018","01","31","18:00","-22.1","","-26.7","","67","","","","33","","23","","24.1","","99.01","","","","-34","","Blowing Snow"
"-101.09","53.97","THE PAS A","5052881","2018-01-31 19:00","2018","01","31","19:00","-22.6","","-27.1","","67","","","","33","","21","","24.1","","99.14","","","","-34","","Blowing Snow"
"-101.09","53.97","THE PAS A","5052881","2018-01-31 20:00","2018","01","31","20:00","-23.9","","-28.1","","69","","","","33","","17","","24.1","","99.21","","","","-35","","NA"
"-101.09","53.97","THE PAS A","5052881","2018-01-31 21:00","2018","01","31","21:00","-24.8","","-29.0","","69","","","","33","","18","","24.1","","99.25","","","","-36","","Mainly Clear"
"-101.09","53.97","THE PAS A","5052881","2018-01-31 22:00","2018","01","31","22:00","-25.9","","-29.9","","70","","","","32","","13","","24.1","","99.31","","","","-36","","NA"
"-101.09","53.97","THE PAS A","5052881","2018-01-31 23:00","2018","01","31","23:00","-26.3","","-30.4","","69","","","","33","","17","","24.1","","99.36","","","","-38","","NA"
