"Longitude (x)","Latitude (y)","Station Name","Climate ID","Date/Time (LST)","Year","Month","Day","Time (LST)","Temp (°C)","Temp Flag","Dew Point Temp (°C)","Dew Point Temp Flag","Rel Hum (%)","Rel Hum Flag","Precip. Amount (mm)","Precip. Amount Flag","Wind Dir (10s deg)","Wind Dir Flag","Wind Spd (km/h)","Wind Spd Flag","Visibility (km)","Visibility Flag","Stn Press (kPa)","Stn Press Flag","Hmdx","Hmdx Flag","Wind Chill","Wind Chill Flag","Weather"
"-81.24","68.78","HALL BEACH A","2402354","2019-01-01 00:00","2019","01","01","00:00","-21.2","","-23.1","","85","","0.0","","10","","8","","16.1","","101.08","","","","-28","","NA"
"-81.24","68.78","HALL BEACH A","2402354","2019-01-01 01:00","2019","01","01","01:00","-21.6","","-23.6","","84","","0.0","","9","","9","","16.1","","101.07","","","","-29","","NA"
"-81.24","68.78","HALL BEACH A","2402354","2019-01-01 02:00","2019","01","01","02:00","-21.5","","-23.4","","85","","0.0","","8","","9","","16.1","","101.06","","","","-29","","NA"
"-81.24","68.78","HALL BEACH A","2402354","2019-01-01 03:00","2019","01","01","03:00","-20.9","","-22.8","","85","","0.0","","7","","9","","16.1","","101.04","","","","-28","","NA"
"-81.24","68.78","HALL BEACH A","2402354","2019-01-01 04:00","2019","01","01","04:00","-20.9","","-22.9","","84","","0.0","","8","","11","","16.1","","101.00","","","","-29","","NA"
"-81.24","68.78","HALL BEACH A","2402354","2019-01-01 05:00","2019","01","01","05:00","-23.8","","-26.5","","79","","0.0","","","","0","","16.1","","100.97","","","","","","NA"
"-81.24","68.78","HALL BEACH A","2402354","2019-01-01 06:00","2019","01","01","06:00","-23.9","","-26.3","","81","","0.0","","1","","4","","3.2","","100.92","","","","-28","","Snow"
"-81.24","68.78","HALL BEACH A","2402354","2019-01-01 07:00","2019","01","01","07:00","-23.9","","-26.2","","82","","0.0","","1","","9","","4.8","","100.93","","","","-31","","Snow"
"-81.24","68.78","HALL BEACH A","2402354","2019-01-01 08:00","2019","01","01","08:00","-22.3","","-24.5","","83","","0.0","","","M","4","","2.8","","100.90","","","","-26","","Snow"
"-81.24","68.78","HALL BEACH A","2402354","2019-01-01 09:00","2019","01","01","09:00","-22.2","","-24.4","","83","","0.0","","34","","5","","4.8","","100.85","","","","-27","","Snow"
"-81.24","68.78","HALL BEACH A","2402354","2019-01-01 10:00","2019","01","01","10:00","-18.9","","-20.7","","86","","0.0","","13","","9","","11.3","","100.82","","","","-25","","Snow"
"-81.24","68.78","HALL BEACH A","2402354","2019-01-01 11:00","2019","01","01","11:00","-21.7","","-23.7","","84","","0.0","","35","","4","","4.0","","100.79","","","","-25","","Snow"
"-81.24","68.78","HALL BEACH A","2402354","2019-01-01 12:00","2019","01","01","12:00","-21.7","","-23.6","","85","","0.0","","","","0","","2.8","","100.75","","","","","","Snow"
"-81.24","68.78","HALL BEACH A","2402354","2019-01-01 13:00","2019","01","01","13:00","-21.5","","-23.3","","85","","0.0","","15","","8","","16.1","","100.71","","","","-28","","Snow"
"-81.24","68.78","HALL BEACH A","2402354","2019-01-01 14:00","2019","01","01","14:00","-21.0","","-23.1","","84","","0.0","","15","","8","","16.1","","100.71","","","","-27","","NA"
"-81.24","68.78","HALL BEACH A","2402354","2019-01-01 15:00","2019","01","01","15:00","-20.6","","-22.4","","86","","0.0","","14","","5","","16.1","","100.69","","","","-25","","NA"
"-81.24","68.78","HALL BEACH A","2402354","2019-01-01 16:00","2019","01","01","16:00","-21.0","","-22.9","","85","","0.0","","","M","4","","16.1","","100.68","","","","-25","","NA"
"-81.24","68.78","HALL BEACH A","2402354","2019-01-01 17:00","2019","01","01","17:00","-20.8","","-22.7","","85","","0.0","","","","0","","11.3","","100.66","","","","","","Snow"
"-81.24","68.78","HALL BEACH A","2402354","2019-01-01 18:00","2019","01","01","18:00","-20.9","","-22.8","","85","","0.0","","","","0","","16.1","","100.62","","","","","","Snow"
"-81.24","68.78","HALL BEACH A","2402354","2019-01-01 19:00","2019","01","01","19:00","-21.1","","-23.1","","84","","0.0","","","M","4","","14.5","","100.62","","","","-25","","Snow"
"-81.24","68.78","HALL BEACH A","2402354","2019-01-01 20:00","2019","01","01","20:00","-21.3","","-23.3","","84","","0.0","","20","","8","","16.1","","100.60","","","","-28","","Snow"
"-81.24","68.78","HALL BEACH A","2402354","2019-01-01 21:00","2019","01","01","21:00","-21.6","","-23.8","","83","","0.0","","26","","5","","16.1","","100.53","","","","-26","","Snow"
"-81.24","68.78","HALL BEACH A","2402354","2019-01-01 22:00","2019","01","01","22:00","-21.4","","-23.6","","83","","0.0","","26","","9","","16.1","","100.50","","","","-28","","Snow"
"-81.24","68.78","HALL BEACH A","2402354","2019-01-01 23:00","2019","01","01","23:00","-21.8","","-24.0","","83","","0.0","","27","","8","","16.1","","100.50","","","","-28","","Snow"
"-81.24","68.78","HALL BEACH A","2402354","2019-01-02 00:00","2019","01","02","00:00","-22.0","","-24.2","","83","","0.0","","","M","4","","16.1","","100.50","","","","-26","","Snow"
"-81.24","68.78","HALL BEACH A","2402354","2019-01-02 01:00","2019","01","02","01:00","-22.3","","-24.5","","83","","0.0","","25","","9","","16.1","","100.50","","","","-29","","NA"
"-81.24","68.78","HALL BEACH A","2402354","2019-01-02 02:00","2019","01","02","02:00","-22.4","","-24.7","","82","","0.0","","","M","4","","12.9","","100.50","","","","-26","","NA"
"-81.24","68.78","HALL BEACH A","2402354","2019-01-02 03:00","2019","01","02","03:00","-22.5","","-24.8","","82","","0.0","","27","","8","","16.1","","100.55","","","","-29","","Snow"
"-81.24","68.78","HALL BEACH A","2402354","2019-01-02 04:00","2019","01","02","04:00","-22.8","","-25.1","","82","","0.0","","21","","8","","11.3","","100.55","","","","-30","","Snow"
"-81.24","68.78","HALL BEACH A","2402354","2019-01-02 05:00","2019","01","02","05:00","-23.0","","-25.3","","82","","0.0","","28","","5","","16.1","","100.55","","","","-28","","NA"
"-81.24","68.78","HALL BEACH A","2402354","2019-01-02 06:00","2019","01","02","06:00","-22.5","","-24.8","","82","","0.0","","26","","8","","3.6","","100.54","","","","-29","","Haze"
"-81.24","68.78","HALL BEACH A","2402354","2019-01-02 07:00","2019","01","02","07:00","-22.5","","-24.8","","82","","0.0","","31","","9","","16.1","","100.55","","","","-30","","NA"
"-81.24","68.78","HALL BEACH A","2402354","2019-01-02 08:00","2019","01","02","08:00","-22.6","","-24.9","","82","","0.0","","28","","5","","16.1","","100.55","","","","-27","","NA"
"-81.24","68.78","HALL BEACH A","2402354","2019-01-02 09:00","2019","01","02","09:00","-22.7","","-25.0","","82","","0.0","","28","","11","","8.1","","100.58","","","","-31","","Fog"
"-81.24","68.78","HALL BEACH A","2402354","2019-01-02 10:00","2019","01","02","10:00","-23.2","","-25.5","","82","","0.0","","29","","13","","16.1","","100.60","","","","-32","","Snow"
"-81.24","68.78","HALL BEACH A","2402354","2019-01-02 11:00","2019","01","02","11:00","-22.5","","-24.8","","82","","0.0","","25","","11","","16.1","","100.62","","","","-31","","Snow"
"-81.24","68.78","HALL BEACH A","2402354","2019-01-02 12:00","2019","01","02","12:00","-23.1","","-25.4","","82","","0.0","","29","","9","","16.1","","100.61","","","","-30","","NA"
"-81.24","68.78","HALL BEACH A","2402354","2019-01-02 13:00","2019","01","02","13:00","-23.2","","-25.6","","81","","0.0","","27","","11","","16.1","","100.59","","","","-31","","Snow"
"-81.24","68.78","HALL BEACH A","2402354","2019-01-02 14:00","2019","01","02","14:00","-23.5","","-25.9","","81","","0.0","","24","","13","","16.1","","100.59","","","","-33","","NA"
"-81.24","68.78","HALL BEACH A","2402354","2019-01-02 15:00","2019","01","02","15:00","-23.5","","-25.9","","81","","0.0","","25","","8","","16.1","","100.61","","","","-30","","NA"
"-81.24","68.78","HALL BEACH A","2402354","2019-01-02 16:00","2019","01","02","16:00","-23.6","","-25.9","","82","","0.0","","27","","8","","16.1","","100.59","","","","-30","","NA"
"-81.24","68.78","HALL BEACH A","2402354","2019-01-02 17:00","2019","01","02","17:00","-23.5","","-25.9","","81","","0.0","","31","","8","","16.1","","100.60","","","","-30","","Snow"
"-81.24","68.78","HALL BEACH A","2402354","2019-01-02 18:00","2019","01","02","18:00","-23.6","","-26.0","","81","","0.0","","31","","5","","16.1","","100.60","","","","-28","","NA"
"-81.24","68.78","HALL BEACH A","2402354","2019-01-02 19:00","2019","01","02","19:00","-23.3","","-25.6","","82","","0.0","","27","","8","","16.1","","100.58","","","","-30","","Snow"
"-81.24","68.78","HALL BEACH A","2402354","2019-01-02 20:00","2019","01","02","20:00","-23.5","","-25.9","","81","","0.0","","31","","8","","14.5","","100.58","","","","-30","","Snow"
"-81.24","68.78","HALL BEACH A","2402354","2019-01-02 21:00","2019","01","02","21:00","-23.7","","-26.1","","81","","0.0","","32","","8","","16.1","","100.53","","","","-31","","NA"
"-81.24","68.78","HALL BEACH A","2402354","2019-01-02 22:00","2019","01","02","22:00","-23.4","","-25.7","","82","","0.0","","27","","9","","16.1","","100.48","","","","-31","","Snow"
"-81.24","68.78","HALL BEACH A","2402354","2019-01-02 23:00","2019","01","02","23:00","-23.6","","-25.9","","82","","0.0","","26","","13","","16.1","","100.44","","","","-33","","NA"
"-81.24","68.78","HALL BEACH A","2402354","2019-01-03 00:00","2019","01","03","00:00","-23.9","","-26.3","","81","","0.0","","28","","13","","16.1","","100.41","","","","-33","","Snow"
"-81.24","68.78","HALL BEACH A","2402354","2019-01-03 01:00","2019","01","03","01:00","-24.3","","-26.8","","80","","0.0","","29","","11","","16.1","","100.41","","","","-33","","NA"
"-81.24","68.78","HALL BEACH A","2402354","2019-01-03 02:00","2019","01","03","02:00","-24.9","","-27.4","","80","","0.0","","31","","11","","16.1","","100.39","","","","-34","","NA"
"-81.24","68.78","HALL BEACH A","2402354","2019-01-03 03:00","2019","01","03","03:00","-24.8","","-27.3","","80","","0.0","","28","","8","","16.1","","100.37","","","","-32","","NA"
"-81.24","68.78","HALL BEACH A","2402354","2019-01-03 04:00","2019","01","03","04:00","-24.8","","-27.3","","80","","0.0","","32","","17","","2.8","","100.34","","","","-36","","Snow"
"-81.24","68.78","HALL BEACH A","2402354","2019-01-03 05:00","2019","01","03","05:00","-25.7","","-28.3","","79","","0.0","","32","","13","","8.1","","100.31","","","","-35","","Fog"
"-81.24","68.78","HALL BEACH A","2402354","2019-01-03 06:00","2019","01","03","06:00","-26.0","","-28.6","","79","","0.0","","33","","15","","1.2","","100.27","","","","-36","","Snow"
"-81.24","68.78","HALL BEACH A","2402354","2019-01-03 07:00","2019","01","03","07:00","-27.0","","-29.8","","78","","0.0","","33","","17","","1.6","","100.25","","","","-38","","Haze"
"-81.24","68.78","HALL BEACH A","2402354","2019-01-03 08:00","2019","01","03","08:00","-28.7","","-31.7","","76","","0.0","","32","","15","","0.8","","100.20","","","","-40","","Moderate Snow"
"-81.24","68.78","HALL BEACH A","2402354","2019-01-03 09:00","2019","01","03","09:00","-31.5","","-34.9","","73","","0.0","","33","","15","","1.0","","100.17","","","","-43","","Haze"
"-81.24","68.78","HALL BEACH A","2402354","2019-01-03 10:00","2019","01","03","10:00","-33.8","","-37.4","","71","","0.0","","32","","15","","16.1","","100.16","","","","-46","","NA"
"-81.24","68.78","HALL BEACH A","2402354","2019-01-03 11:00","2019","01","03","11:00","-34.1","","-37.7","","71","","0.0","","32","","17","","16.1","","100.06","","","","-47","","NA"
"-81.24","68.78","HALL BEACH A","2402354","2019-01-03 12:00","2019","01","03","12:00","-33.5","","-37.1","","71","","0.0","","33","","18","","16.1","","100.02","","","","-47","","NA"
"-81.24","68.78","HALL BEACH A","2402354","2019-01-03 13:00","2019","01","03","13:00","-34.3","","-37.9","","71","","0.0","","33","","18","","16.1","","99.94","","","","-48","","NA"
"-81.24","68.78","HALL BEACH A","2402354","2019-01-03 14:00","2019","01","03","14:00","-33.0","","-36.5","","72","","0.0","","32","","18","","16.1","","99.96","","","","-46","","NA"
"-81.24","68.78","HALL BEACH A","2402354","2019-01-03 15:00","2019","01","03","15:00","-31.4","","-34.6","","74","","0.0","","33","","21","","16.1","","99.89","","","","-45","","NA"
"-81.24","68.78","HALL BEACH A","2402354","2019-01-03 16:00","2019","01","03","16:00","-30.5","","-33.6","","75","","0.0","","33","","17","","9.7","","99.85","","","","-43","","Snow"
"-81.24","68.78","HALL BEACH A","2402354","2019-01-03 17:00","2019","01","03","17:00","-29.5","","-32.5","","76","","0.0","","34","","15","","8.1","","99.85","","","","-41","","Snow"
"-81.24","68.78","HALL BEACH A","2402354","2019-01-03 18:00","2019","01","03","18:00","-28.8","","-31.8","","76","","0.0","","32","","13","","6.4","","99.77","","","","-39","","Snow"
"-81.24","68.78","HALL BEACH A","2402354","2019-01-03 19:00","2019","01","03","19:00","-26.9","","-29.5","","79","","0.0","","34","","30","","16.1","","99.67","","","","-42","","NA"
"-81.24","68.78","HALL BEACH A","2402354","2019-01-03 20:00","2019","01","03","20:00","-26.8","","-29.6","","78","","0.0","","36","","28","","16.1","","99.64","","","","-41","","NA"
"-81.24","68.78","HALL BEACH A","2402354","2019-01-03 21:00","2019","01","03","21:00","-25.5","","-28.2","","79","","0.0","","35","","39","","1.6","","99.56","","","","-41","","Snow"
"-81.24","68.78","HALL BEACH A","2402354","2019-01-03 22:00","2019","01","03","22:00","-24.7","","-27.2","","80","","0.1","","36","","30","","1.2","","99.53","","","","-39","","Snow"
"-81.24","68.78","HALL BEACH A","2402354","2019-01-03 23:00","2019","01","03","23:00","-24.2","","-26.7","","80","","0.1","","35","","32","","1.6","","99.48","","","","-38","","Snow"
"-81.24","68.78","HALL BEACH A","2402354","2019-01-04 00:00","2019","01","04","00:00","-23.8","","-26.2","","81","","0.0","","35","","28","","1.6","","99.44","","","","-37","","Snow"
"-81.24","68.78","HALL BEACH A","2402354","2019-01-04 01:00","2019","01","04","01:00","-23.4","","-25.7","","82","","0.1","","34","","26","","1.6","","99.44","","","","-36","","Snow"
"-81.24","68.78","HALL BEACH A","2402354","2019-01-04 02:00","2019","01","04","02:00","-22.8","","-25.1","","82","","0.1","","36","","13","","2.0","","99.44","","","","-32","","Snow"
"-81.24","68.78","HALL BEACH A","2402354","2019-01-04 03:00","2019","01","04","03:00","-21.0","","-23.2","","83","","0.0","","11","","17","","3.6","","99.43","","","","-31","","Snow"
"-81.24","68.78","HALL BEACH A","2402354","2019-01-04 04:00","2019","01","04","04:00","-21.7","","-24.0","","82","","0.0","","9","","22","","3.2","","99.41","","","","-33","","Snow"
"-81.24","68.78","HALL BEACH A","2402354","2019-01-04 05:00","2019","01","04","05:00","-24.4","","-26.9","","80","","0.0","","9","","21","","16.1","","99.39","","","","-36","","NA"
"-81.24","68.78","HALL BEACH A","2402354","2019-01-04 06:00","2019","01","04","06:00","-26.0","","-28.6","","79","","0.0","","8","","24","","16.1","","99.38","","","","-39","","NA"
"-81.24","68.78","HALL BEACH A","2402354","2019-01-04 07:00","2019","01","04","07:00","-27.1","","-29.9","","78","","0.0","","7","","17","","16.1","","99.37","","","","-39","","NA"
"-81.24","68.78","HALL BEACH A","2402354","2019-01-04 08:00","2019","01","04","08:00","-27.1","","-29.9","","78","","0.0","","5","","22","","16.1","","99.36","","","","-40","","NA"
"-81.24","68.78","HALL BEACH A","2402354","2019-01-04 09:00","2019","01","04","09:00","-26.9","","-29.7","","78","","0.0","","6","","24","","16.1","","99.32","","","","-40","","NA"
"-81.24","68.78","HALL BEACH A","2402354","2019-01-04 10:00","2019","01","04","10:00","-26.7","","-29.3","","79","","0.0","","7","","24","","16.1","","99.25","","","","-40","","NA"
"-81.24","68.78","HALL BEACH A","2402354","2019-01-04 11:00","2019","01","04","11:00","-27.0","","-29.9","","77","","0.0","","6","","22","","16.1","","99.22","","","","-40","","NA"
"-81.24","68.78","HALL BEACH A","2402354","2019-01-04 12:00","2019","01","04","12:00","-26.8","","-29.6","","78","","0.0","","7","","21","","16.1","","99.21","","","","-39","","NA"
"-81.24","68.78","HALL BEACH A","2402354","2019-01-04 13:00","2019","01","04","13:00","-26.9","","-29.7","","78","","0.0","","8","","22","","16.1","","99.21","","","","-40","","Snow"
"-81.24","68.78","HALL BEACH A","2402354","2019-01-04 14:00","2019","01","04","14:00","-26.2","","-28.8","","79","","0.0","","7","","21","","16.1","","99.20","","","","-39","","NA"
"-81.24","68.78","HALL BEACH A","2402354","2019-01-04 15:00","2019","01","04","15:00","-26.3","","-28.9","","79","","0.0","","8","","22","","16.1","","99.19","","","","-39","","NA"
"-81.24","68.78","HALL BEACH A","2402354","2019-01-04 16:00","2019","01","04","16:00","-26.0","","-28.6","","79","","0.0","","7","","24","","16.1","","99.21","","","","-39","","NA"
"-81.24","68.78","HALL BEACH A","2402354","2019-01-04 17:00","2019","01","04","17:00","-26.2","","-28.8","","79","","0.0","","7","","22","","16.1","","99.22","","","","-39","","NA"
"-81.24","68.78","HALL BEACH A","2402354","2019-01-04 18:00","2019","01","04","18:00","-26.4","","-29.0","","79","","0.0","","7","","21","","16.1","","99.24","","","","-39","","Snow"
"-81.24","68.78","HALL BEACH A","2402354","2019-01-04 19:00","2019","01","04","19:00","-26.9","","-29.7","","78","","0.0","","5","","22","","16.1","","99.28","","","","-40","","NA"
"-81.24","68.78","HALL BEACH A","2402354","2019-01-04 20:00","2019","01","04","20:00","-27.2","","-30.1","","77","","0.0","","6","","26","","3.6","","99.29","","","","-41","","Snow"
"-81.24","68.78","HALL BEACH A","2402354","2019-01-04 21:00","2019","01","04","21:00","-27.3","","-30.1","","78","","0.0","","6","","28","","4.8","","99.32","","","","-42","","Snow"
"-81.24","68.78","HALL BEACH A","2402354","2019-01-04 22:00","2019","01","04","22:00","-27.4","","-30.1","","78","","0.0","","7","","26","","4.0","","99.34","","","","-41","","Snow"
"-81.24","68.78","HALL BEACH A","2402354","2019-01-04 23:00","2019","01","04","23:00","-26.9","","-29.7","","78","","0.0","","7","","28","","2.4","","99.36","","","","-41","","Snow"
"-81.24","68.78","HALL BEACH A","2402354","2019-01-05 00:00","2019","01","05","00:00","-26.2","","-28.8","","79","","0.0","","6","","30","","2.0","","99.38","","","","-41","","Snow"
"-81.24","68.78","HALL BEACH A","2402354","2019-01-05 01:00","2019","01","05","01:00","-26.1","","-28.7","","79","","0.0","","6","","30","","1.6","","99.43","","","","-41","","Snow"
"-81.24","68.78","HALL BEACH A","2402354","2019-01-05 02:00","2019","01","05","02:00","-26.1","","-28.7","","79","","0.0","","6","","28","","2.4","","99.48","","","","-40","","Snow"
"-81.24","68.78","HALL BEACH A","2402354","2019-01-05 03:00","2019","01","05","03:00","-25.1","","-27.6","","80","","0.0","","7","","30","","2.0","","99.50","","","","-39","","Snow"
"-81.24","68.78","HALL BEACH A","2402354","2019-01-05 04:00","2019","01","05","04:00","-25.5","","-28.2","","79","","0.0","","7","","24","","4.8","","99.54","","","","-38","","Snow"
"-81.24","68.78","HALL BEACH A","2402354","2019-01-05 05:00","2019","01","05","05:00","-25.3","","-28.0","","79","","0.0","","6","","21","","14.5","","99.60","","","","-37","","Snow"
"-81.24","68.78","HALL BEACH A","2402354","2019-01-05 06:00","2019","01","05","06:00","-25.2","","-27.7","","80","","0.0","","5","","24","","16.1","","99.65","","","","-38","","Snow"
"-81.24","68.78","HALL BEACH A","2402354","2019-01-05 07:00","2019","01","05","07:00","-25.0","","-27.5","","80","","0.0","","5","","30","","2.0","","99.67","","","","-39","","Snow"
"-81.24","68.78","HALL BEACH A","2402354","2019-01-05 08:00","2019","01","05","08:00","-25.5","","-28.3","","78","","0.0","","5","","24","","2.4","","99.72","","","","-38","","Snow"
"-81.24","68.78","HALL BEACH A","2402354","2019-01-05 09:00","2019","01","05","09:00","-25.3","","-27.8","","80","","0.0","","4","","34","","2.0","","99.76","","","","-40","","Snow"
"-81.24","68.78","HALL BEACH A","2402354","2019-01-05 10:00","2019","01","05","10:00","-24.9","","-27.4","","80","","0.0","","4","","28","","3.2","","99.80","","","","-39","","Snow"
"-81.24","68.78","HALL BEACH A","2402354","2019-01-05 11:00","2019","01","05","11:00","-24.0","","-26.4","","81","","0.0","","6","","26","","1.6","","99.81","","","","-37","","Snow"
"-81.24","68.78","HALL BEACH A","2402354","2019-01-05 12:00","2019","01","05","12:00","-23.6","","-26.0","","81","","0.0","","7","","21","","11.3","","99.85","","","","-35","","Snow"
"-81.24","68.78","HALL BEACH A","2402354","2019-01-05 13:00","2019","01","05","13:00","-25.7","","-28.3","","79","","0.0","","8","","15","","16.1","","99.91","","","","-36","","NA"
"-81.24","68.78","HALL BEACH A","2402354","2019-01-05 14:00","2019","01","05","14:00","-25.4","","-28.1","","79","","0.0","","7","","11","","11.3","","99.96","","","","-34","","Snow"
"-81.24","68.78","HALL BEACH A","2402354","2019-01-05 15:00","2019","01","05","15:00","-29.0","","-31.9","","77","","0.0","","34","","17","","14.5","","99.99","","","","-41","","Snow"
"-81.24","68.78","HALL BEACH A","2402354","2019-01-05 16:00","2019","01","05","16:00","-24.6","","-27.1","","80","","0.0","","6","","15","","16.1","","100.04","","","","-35","","NA"
"-81.24","68.78","HALL BEACH A","2402354","2019-01-05 17:00","2019","01","05","17:00","-24.0","","-26.4","","81","","0.0","","5","","17","","16.1","","100.07","","","","-35","","Snow"
"-81.24","68.78","HALL BEACH A","2402354","2019-01-05 18:00","2019","01","05","18:00","-29.9","","-33.4","","72","","0.0","","34","","13","","3.2","","100.11","","","","-40","","Snow"
"-81.24","68.78","HALL BEACH A","2402354","2019-01-05 19:00","2019","01","05","19:00","-31.5","","-34.7","","74","","0.0","","34","","22","","2.4","","100.15","","","","-46","","Snow"
"-81.24","68.78","HALL BEACH A","2402354","2019-01-05 20:00","2019","01","05","20:00","-30.4","","-33.6","","74","","0.0","","34","","24","","2.4","","100.16","","","","-45","","Snow"
"-81.24","68.78","HALL BEACH A","2402354","2019-01-05 21:00","2019","01","05","21:00","-30.2","","-33.3","","75","","0.0","","34","","28","","2.0","","100.18","","","","-45","","Snow"
"-81.24","68.78","HALL BEACH A","2402354","2019-01-05 22:00","2019","01","05","22:00","-29.6","","-32.7","","75","","0.0","","34","","28","","2.0","","100.16","","","","-45","","Snow"
"-81.24","68.78","HALL BEACH A","2402354","2019-01-05 23:00","2019","01","05","23:00","-28.6","","-31.6","","76","","0.0","","34","","22","","3.2","","100.18","","","","-42","","Snow"
"-81.24","68.78","HALL BEACH A","2402354","2019-01-06 00:00","2019","01","06","00:00","-28.9","","-31.9","","76","","0.0","","34","","24","","2.4","","100.15","","","","-43","","Snow"
"-81.24","68.78","HALL BEACH A","2402354","2019-01-06 01:00","2019","01","06","01:00","-29.1","","-32.4","","74","","0.0","","34","","26","","3.2","","100.13","","","","-44","","Snow"
"-81.24","68.78","HALL BEACH A","2402354","2019-01-06 02:00","2019","01","06","02:00","-30.1","","-33.2","","75","","0.0","","34","","30","","2.0","","100.14","","","","-46","","Snow"
"-81.24","68.78","HALL BEACH A","2402354","2019-01-06 03:00","2019","01","06","03:00","-30.0","","-33.1","","75","","0.0","","34","","30","","2.0","","100.13","","","","-46","","Haze"
"-81.24","68.78","HALL BEACH A","2402354","2019-01-06 04:00","2019","01","06","04:00","-31.4","","-34.8","","73","","0.0","","34","","34","","1.6","","100.18","","","","-48","","Snow"
"-81.24","68.78","HALL BEACH A","2402354","2019-01-06 05:00","2019","01","06","05:00","-31.1","","-34.3","","74","","0.0","","34","","30","","1.6","","100.13","","","","-47","","Snow"
"-81.24","68.78","HALL BEACH A","2402354","2019-01-06 06:00","2019","01","06","06:00","-30.1","","-33.2","","75","","0.0","","34","","32","","1.6","","100.10","","","","-46","","Haze"
"-81.24","68.78","HALL BEACH A","2402354","2019-01-06 07:00","2019","01","06","07:00","-29.5","","-32.6","","75","","0.0","","33","","35","","1.2","","100.13","","","","-46","","Snow"
"-81.24","68.78","HALL BEACH A","2402354","2019-01-06 08:00","2019","01","06","08:00","-30.8","","-34.0","","74","","0.0","","32","","35","","2.0","","100.06","","","","-48","","Snow"
"-81.24","68.78","HALL BEACH A","2402354","2019-01-06 09:00","2019","01","06","09:00","-30.6","","-33.8","","74","","0.0","","32","","34","","2.0","","100.02","","","","-47","","Snow"
"-81.24","68.78","HALL BEACH A","2402354","2019-01-06 10:00","2019","01","06","10:00","-31.5","","-34.9","","73","","0.0","","31","","34","","3.2","","100.01","","","","-48","","Snow"
"-81.24","68.78","HALL BEACH A","2402354","2019-01-06 11:00","2019","01","06","11:00","-32.2","","-35.7","","72","","0.0","","31","","39","","1.0","","99.97","","","","-50","","Haze"
"-81.24","68.78","HALL BEACH A","2402354","2019-01-06 12:00","2019","01","06","12:00","-32.4","","-35.9","","72","","0.0","","31","","45","","0.4","","99.96","","","","-52","","Heavy Snow,Blowing Snow"
"-81.24","68.78","HALL BEACH A","2402354","2019-01-06 13:00","2019","01","06","13:00","-31.7","","-35.1","","73","","0.0","","31","","48","","0.4","","99.98","","","","-51","","Heavy Snow,Blowing Snow"
"-81.24","68.78","HALL BEACH A","2402354","2019-01-06 14:00","2019","01","06","14:00","-31.8","","-35.1","","73","","0.0","","31","","43","","0.2","","100.03","","","","-50","","Heavy Snow,Blowing Snow"
"-81.24","68.78","HALL BEACH A","2402354","2019-01-06 15:00","2019","01","06","15:00","-31.8","","-35.1","","73","","0.0","","31","","46","","0.4","","100.08","","","","-51","","Heavy Snow,Blowing Snow"
"-81.24","68.78","HALL BEACH A","2402354","2019-01-06 16:00","2019","01","06","16:00","-31.3","","-34.5","","74","","0.0","","31","","45","","0.6","","100.09","","","","-50","","Moderate Snow,Blowing Snow"
"-81.24","68.78","HALL BEACH A","2402354","2019-01-06 17:00","2019","01","06","17:00","-31.2","","-34.6","","73","","0.0","","31","","43","","0.6","","100.16","","","","-50","","Moderate Snow,Blowing Snow"
"-81.24","68.78","HALL BEACH A","2402354","2019-01-06 18:00","2019","01","06","18:00","-31.3","","-34.7","","73","","0.0","","31","","45","","0.8","","100.18","","","","-50","","Moderate Snow,Blowing Snow"
"-81.24","68.78","HALL BEACH A","2402354","2019-01-06 19:00","2019","01","06","19:00","-31.5","","-34.9","","73","","0.0","","30","","37","","1.0","","100.26","","","","-49","","Snow"
"-81.24","68.78","HALL BEACH A","2402354","2019-01-06 20:00","2019","01","06","20:00","-32.0","","-35.5","","72","","0.0","","30","","39","","1.0","","100.33","","","","-50","","Haze"
"-81.24","68.78","HALL BEACH A","2402354","2019-01-06 21:00","2019","01","06","21:00","-32.1","","-35.6","","72","","0.0","","31","","41","","1.0","","100.38","","","","-50","","Snow,Blowing Snow"
"-81.24","68.78","HALL BEACH A","2402354","2019-01-06 22:00","2019","01","06","22:00","-32.1","","-35.6","","72","","0.0","","30","","37","","1.0","","100.43","","","","-50","","Haze"
"-81.24","68.78","HALL BEACH A","2402354","2019-01-06 23:00","2019","01","06","23:00","-32.1","","-35.6","","72","","0.0","","30","","37","","1.0","","100.51","","","","-50","","Snow"
"-81.24","68.78","HALL BEACH A","2402354","2019-01-07 00:00","2019","01","07","00:00","-32.2","","-35.7","","72","","0.0","","30","","34","","1.0","","100.58","","","","-49","","Haze"
"-81.24","68.78","HALL BEACH A","2402354","2019-01-07 01:00","2019","01","07","01:00","-31.8","","-35.1","","73","","0.0","","31","","39","","1.0","","100.63","","","","-50","","Snow"
"-81.24","68.78","HALL BEACH A","2402354","2019-01-07 02:00","2019","01","07","02:00","-31.4","","-34.8","","73","","0.0","","31","","39","","1.0","","100.72","","","","-49","","Snow"
"-81.24","68.78","HALL BEACH A","2402354","2019-01-07 03:00","2019","01","07","03:00","-31.1","","-34.3","","74","","0.0","","30","","45","","0.8","","100.70","","","","-50","","Moderate Snow,Blowing Snow"
"-81.24","68.78","HALL BEACH A","2402354","2019-01-07 04:00","2019","01","07","04:00","-30.5","","-33.7","","74","","0.0","","31","","43","","0.8","","100.81","","","","-49","","Moderate Snow,Blowing Snow"
"-81.24","68.78","HALL BEACH A","2402354","2019-01-07 05:00","2019","01","07","05:00","-30.2","","-33.4","","74","","0.0","","31","","37","","0.8","","100.88","","","","-47","","Snow"
"-81.24","68.78","HALL BEACH A","2402354","2019-01-07 06:00","2019","01","07","06:00","-30.0","","-33.1","","75","","0.0","","31","","37","","0.6","","100.91","","","","-47","","Moderate Snow"
"-81.24","68.78","HALL BEACH A","2402354","2019-01-07 07:00","2019","01","07","07:00","-30.6","","-33.8","","74","","0.0","","31","","37","","0.6","","100.97","","","","-48","","Moderate Snow"
"-81.24","68.78","HALL BEACH A","2402354","2019-01-07 08:00","2019","01","07","08:00","-30.5","","-33.7","","74","","0.0","","31","","37","","1.0","","100.99","","","","-48","","Snow"
"-81.24","68.78","HALL BEACH A","2402354","2019-01-07 09:00","2019","01","07","09:00","-30.4","","-33.6","","74","","0.0","","31","","39","","1.0","","101.02","","","","-48","","Snow"
"-81.24","68.78","HALL BEACH A","2402354","2019-01-07 10:00","2019","01","07","10:00","-30.6","","-33.8","","74","","0.0","","31","","37","","1.2","","101.03","","","","-48","","Haze"
"-81.24","68.78","HALL BEACH A","2402354","2019-01-07 11:00","2019","01","07","11:00","-31.1","","-34.5","","73","","0.0","","31","","34","","0.6","","101.03","","","","-48","","Haze"
"-81.24","68.78","HALL BEACH A","2402354","2019-01-07 12:00","2019","01","07","12:00","-31.2","","-34.6","","73","","0.0","","31","","37","","0.8","","101.02","","","","-49","","Haze"
"-81.24","68.78","HALL BEACH A","2402354","2019-01-07 13:00","2019","01","07","13:00","-30.9","","-34.1","","74","","0.0","","31","","37","","1.0","","101.03","","","","-48","","Haze"
"-81.24","68.78","HALL BEACH A","2402354","2019-01-07 14:00","2019","01","07","14:00","-30.7","","-33.9","","74","","0.0","","32","","35","","0.8","","101.05","","","","-48","","Haze"
"-81.24","68.78","HALL BEACH A","2402354","2019-01-07 15:00","2019","01","07","15:00","-30.8","","-34.0","","74","","0.0","","31","","39","","1.0","","101.05","","","","-48","","Snow"
"-81.24","68.78","HALL BEACH A","2402354","2019-01-07 16:00","2019","01","07","16:00","-29.2","","-32.2","","76","","0.0","","31","","35","","1.0","","101.06","","","","-46","","Snow"
"-81.24","68.78","HALL BEACH A","2402354","2019-01-07 17:00","2019","01","07","17:00","-29.4","","-32.5","","75","","0.0","","31","","35","","1.0","","101.09","","","","-46","","Snow"
"-81.24","68.78","HALL BEACH A","2402354","2019-01-07 18:00","2019","01","07","18:00","-30.5","","-33.7","","74","","0.0","","32","","35","","1.0","","101.12","","","","-47","","Snow"
"-81.24","68.78","HALL BEACH A","2402354","2019-01-07 19:00","2019","01","07","19:00","-30.0","","-33.2","","74","","0.0","","32","","39","","1.2","","101.13","","","","-47","","Haze"
"-81.24","68.78","HALL BEACH A","2402354","2019-01-07 20:00","2019","01","07","20:00","-29.6","","-32.7","","75","","0.0","","32","","37","","2.0","","101.12","","","","-46","","Haze"
"-81.24","68.78","HALL BEACH A","2402354","2019-01-07 21:00","2019","01","07","21:00","-30.3","","-33.5","","74","","0.0","","32","","30","","6.4","","101.17","","","","-46","","Haze"
"-81.24","68.78","HALL BEACH A","2402354","2019-01-07 22:00","2019","01","07","22:00","-30.7","","-34.1","","73","","0.0","","33","","26","","16.1","","101.15","","","","-46","","NA"
"-81.24","68.78","HALL BEACH A","2402354","2019-01-07 23:00","2019","01","07","23:00","-30.9","","-34.1","","74","","0.0","","32","","28","","16.1","","101.14","","","","-46","","NA"
"-81.24","68.78","HALL BEACH A","2402354","2019-01-08 00:00","2019","01","08","00:00","-32.0","","-35.3","","73","","0.0","","31","","26","","16.1","","101.18","","","","-47","","NA"
"-81.24","68.78","HALL BEACH A","2402354","2019-01-08 01:00","2019","01","08","01:00","-32.3","","-35.8","","72","","0.0","","34","","26","","11.3","","101.18","","","","-48","","NA"
"-81.24","68.78","HALL BEACH A","2402354","2019-01-08 02:00","2019","01","08","02:00","-32.9","","-36.5","","71","","0.0","","32","","22","","16.1","","101.21","","","","-47","","NA"
"-81.24","68.78","HALL BEACH A","2402354","2019-01-08 03:00","2019","01","08","03:00","-32.8","","-36.3","","72","","0.0","","31","","22","","16.1","","101.22","","","","-47","","NA"
"-81.24","68.78","HALL BEACH A","2402354","2019-01-08 04:00","2019","01","08","04:00","-33.6","","-37.3","","70","","0.0","","31","","17","","16.1","","101.25","","","","-47","","NA"
"-81.24","68.78","HALL BEACH A","2402354","2019-01-08 05:00","2019","01","08","05:00","-33.5","","-37.1","","71","","0.0","","31","","21","","16.1","","101.20","","","","-48","","NA"
"-81.24","68.78","HALL BEACH A","2402354","2019-01-08 06:00","2019","01","08","06:00","-33.2","","-36.7","","72","","0.0","","31","","24","","16.1","","101.19","","","","-48","","NA"
"-81.24","68.78","HALL BEACH A","2402354","2019-01-08 07:00","2019","01","08","07:00","-32.9","","-36.4","","72","","0.0","","30","","24","","16.1","","101.19","","","","-48","","NA"
"-81.24","68.78","HALL BEACH A","2402354","2019-01-08 08:00","2019","01","08","08:00","-32.7","","-36.2","","72","","0.0","","31","","28","","16.1","","101.20","","","","-49","","NA"
"-81.24","68.78","HALL BEACH A","2402354","2019-01-08 09:00","2019","01","08","09:00","-32.5","","-36.0","","72","","0.0","","30","","26","","16.1","","101.19","","","","-48","","NA"
"-81.24","68.78","HALL BEACH A","2402354","2019-01-08 10:00","2019","01","08","10:00","-32.6","","-36.1","","72","","0.0","","31","","22","","16.1","","101.19","","","","-47","","NA"
"-81.24","68.78","HALL BEACH A","2402354","2019-01-08 11:00","2019","01","08","11:00","-32.4","","-35.9","","72","","0.0","","30","","22","","16.1","","101.19","","","","-47","","NA"
"-81.24","68.78","HALL BEACH A","2402354","2019-01-08 12:00","2019","01","08","12:00","-31.7","","-35.1","","73","","0.0","","30","","28","","12.9","","101.12","","","","-47","","NA"
"-81.24","68.78","HALL BEACH A","2402354","2019-01-08 13:00","2019","01","08","13:00","-31.7","","-35.1","","73","","0.0","","30","","24","","16.1","","101.13","","","","-46","","NA"
"-81.24","68.78","HALL BEACH A","2402354","2019-01-08 14:00","2019","01","08","14:00","-31.7","","-35.2","","72","","0.0","","30","","17","","6.4","","101.13","","","","-44","","Haze"
"-81.24","68.78","HALL BEACH A","2402354","2019-01-08 15:00","2019","01","08","15:00","-31.4","","-34.8","","73","","0.0","","30","","26","","4.8","","101.13","","","","-47","","Haze"
"-81.24","68.78","HALL BEACH A","2402354","2019-01-08 16:00","2019","01","08","16:00","-30.9","","-34.2","","73","","0.0","","30","","32","","4.8","","101.11","","","","-47","","Haze"
"-81.24","68.78","HALL BEACH A","2402354","2019-01-08 17:00","2019","01","08","17:00","-30.7","","-33.9","","74","","0.0","","30","","30","","2.8","","101.12","","","","-47","","Haze"
"-81.24","68.78","HALL BEACH A","2402354","2019-01-08 18:00","2019","01","08","18:00","-30.5","","-33.7","","74","","0.0","","30","","26","","2.8","","101.14","","","","-45","","Haze"
"-81.24","68.78","HALL BEACH A","2402354","2019-01-08 19:00","2019","01","08","19:00","-30.4","","-33.6","","74","","0.0","","30","","21","","2.0","","101.15","","","","-44","","Haze"
"-81.24","68.78","HALL BEACH A","2402354","2019-01-08 20:00","2019","01","08","20:00","-30.3","","-33.5","","74","","0.0","","30","","22","","1.6","","101.15","","","","-44","","Haze"
"-81.24","68.78","HALL BEACH A","2402354","2019-01-08 21:00","2019","01","08","21:00","-29.8","","-32.9","","75","","0.0","","30","","26","","2.8","","101.16","","","","-44","","Haze"
"-81.24","68.78","HALL BEACH A","2402354","2019-01-08 22:00","2019","01","08","22:00","-29.7","","-32.8","","75","","0.0","","30","","32","","1.2","","101.18","","","","-46","","Haze"
"-81.24","68.78","HALL BEACH A","2402354","2019-01-08 23:00","2019","01","08","23:00","-29.9","","-33.0","","75","","0.0","","30","","30","","2.0","","101.24","","","","-45","","Haze"
"-81.24","68.78","HALL BEACH A","2402354","2019-01-09 00:00","2019","01","09","00:00","-29.6","","-32.7","","75","","0.0","","31","","39","","0.6","","101.22","","","","-47","","Moderate Snow"
"-81.24","68.78","HALL BEACH A","2402354","2019-01-09 01:00","2019","01","09","01:00","-29.4","","-32.5","","75","","0.0","","31","","41","","0.4","","101.28","","","","-47","","Heavy Snow,Blowing Snow"
"-81.24","68.78","HALL BEACH A","2402354","2019-01-09 02:00","2019","01","09","02:00","-29.1","","-32.2","","75","","0.0","","31","","43","","0.4","","101.38","","","","-47","","Heavy Snow,Blowing Snow"
"-81.24","68.78","HALL BEACH A","2402354","2019-01-09 03:00","2019","01","09","03:00","-29.3","","-32.4","","75","","0.0","","31","","43","","1.2","","101.48","","","","-47","","Snow,Blowing Snow"
"-81.24","68.78","HALL BEACH A","2402354","2019-01-09 04:00","2019","01","09","04:00","-29.4","","-32.5","","75","","0.0","","31","","43","","1.2","","101.56","","","","-47","","Blowing Snow"
"-81.24","68.78","HALL BEACH A","2402354","2019-01-09 05:00","2019","01","09","05:00","-29.2","","-32.3","","75","","0.0","","32","","41","","1.2","","101.63","","","","-47","","Blowing Snow"
"-81.24","68.78","HALL BEACH A","2402354","2019-01-09 06:00","2019","01","09","06:00","-28.9","","-31.9","","76","","0.0","","32","","41","","0.8","","101.75","","","","-46","","Moderate Snow,Blowing Snow"
"-81.24","68.78","HALL BEACH A","2402354","2019-01-09 07:00","2019","01","09","07:00","-28.7","","-31.7","","76","","0.0","","31","","39","","1.2","","101.88","","","","-46","","Haze"
"-81.24","68.78","HALL BEACH A","2402354","2019-01-09 08:00","2019","01","09","08:00","-28.3","","-31.3","","76","","0.0","","31","","41","","1.0","","101.91","","","","-45","","Snow,Blowing Snow"
"-81.24","68.78","HALL BEACH A","2402354","2019-01-09 09:00","2019","01","09","09:00","-29.2","","-32.3","","75","","0.0","","31","","41","","1.2","","102.01","","","","-47","","Blowing Snow"
"-81.24","68.78","HALL BEACH A","2402354","2019-01-09 10:00","2019","01","09","10:00","-29.5","","-32.6","","75","","0.0","","30","","30","","6.4","","102.13","","","","-45","","Haze"
"-81.24","68.78","HALL BEACH A","2402354","2019-01-09 11:00","2019","01","09","11:00","-29.9","","-33.0","","75","","0.0","","30","","28","","11.3","","102.20","","","","-45","","NA"
"-81.24","68.78","HALL BEACH A","2402354","2019-01-09 12:00","2019","01","09","12:00","-30.4","","-33.5","","75","","0.0","","33","","32","","4.8","","102.28","","","","-47","","Haze"
"-81.24","68.78","HALL BEACH A","2402354","2019-01-09 13:00","2019","01","09","13:00","-30.1","","-33.2","","75","","0.0","","32","","32","","1.6","","102.35","","","","-46","","Haze"
"-81.24","68.78","HALL BEACH A","2402354","2019-01-09 14:00","2019","01","09","14:00","-30.6","","-33.8","","74","","0.0","","30","","37","","1.2","","102.40","","","","-48","","Haze"
"-81.24","68.78","HALL BEACH A","2402354","2019-01-09 15:00","2019","01","09","15:00","-30.7","","-33.9","","74","","0.0","","31","","37","","1.2","","102.52","","","","-48","","Haze"
"-81.24","68.78","HALL BEACH A","2402354","2019-01-09 16:00","2019","01","09","16:00","-31.1","","-34.4","","73","","0.0","","31","","28","","9.7","","102.63","","","","-47","","Haze"
"-81.24","68.78","HALL BEACH A","2402354","2019-01-09 17:00","2019","01","09","17:00","-31.1","","-34.5","","73","","0.0","","31","","32","","4.0","","102.68","","","","-47","","Haze"
"-81.24","68.78","HALL BEACH A","2402354","2019-01-09 18:00","2019","01","09","18:00","-31.2","","-34.6","","73","","0.0","","32","","35","","2.0","","102.75","","","","-48","","Haze"
"-81.24","68.78","HALL BEACH A","2402354","2019-01-09 19:00","2019","01","09","19:00","-31.5","","-34.9","","73","","0.0","","31","","32","","11.3","","102.80","","","","-48","","NA"
"-81.24","68.78","HALL BEACH A","2402354","2019-01-09 20:00","2019","01","09","20:00","-31.8","","-35.3","","72","","0.0","","32","","30","","3.2","","102.83","","","","-48","","Haze"
"-81.24","68.78","HALL BEACH A","2402354","2019-01-09 21:00","2019","01","09","21:00","-32.0","","-35.4","","73","","0.0","","31","","28","","11.3","","102.90","","","","-48","","NA"
"-81.24","68.78","HALL BEACH A","2402354","2019-01-09 22:00","2019","01","09","22:00","-31.9","","-35.4","","72","","0.0","","31","","35","","3.6","","102.94","","","","-49","","Haze"
"-81.24","68.78","HALL BEACH A","2402354","2019-01-09 23:00","2019","01","09","23:00","-32.4","","-35.9","","72","","0.0","","30","","21","","16.1","","103.01","","","","-46","","NA"
"-81.24","68.78","HALL BEACH A","2402354","2019-01-10 00:00","2019","01","10","00:00","-32.7","","-36.2","","72","","0.0","","31","","28","","14.5","","103.03","","","","-49","","NA"
"-81.24","68.78","HALL BEACH A","2402354","2019-01-10 01:00","2019","01","10","01:00","-33.1","","-36.7","","71","","0.0","","31","","28","","16.1","","103.07","","","","-49","","NA"
"-81.24","68.78","HALL BEACH A","2402354","2019-01-10 02:00","2019","01","10","02:00","-33.1","","-36.7","","71","","0.0","","32","","28","","16.1","","103.13","","","","-49","","NA"
"-81.24","68.78","HALL BEACH A","2402354","2019-01-10 03:00","2019","01","10","03:00","-33.6","","-37.2","","71","","0.0","","31","","22","","16.1","","103.18","","","","-48","","NA"
"-81.24","68.78","HALL BEACH A","2402354","2019-01-10 04:00","2019","01","10","04:00","-33.8","","-37.5","","70","","0.0","","31","","26","","16.1","","103.22","","","","-50","","NA"
"-81.24","68.78","HALL BEACH A","2402354","2019-01-10 05:00","2019","01","10","05:00","-34.1","","-37.8","","70","","0.0","","32","","22","","16.1","","103.23","","","","-49","","NA"
"-81.24","68.78","HALL BEACH A","2402354","2019-01-10 06:00","2019","01","10","06:00","-34.1","","-37.8","","70","","0.0","","31","","24","","16.1","","103.28","","","","-49","","NA"
"-81.24","68.78","HALL BEACH A","2402354","2019-01-10 07:00","2019","01","10","07:00","-34.3","","-38.0","","70","","0.0","","32","","22","","16.1","","103.27","","","","-49","","NA"
"-81.24","68.78","HALL BEACH A","2402354","2019-01-10 08:00","2019","01","10","08:00","-34.3","","-38.0","","70","","0.0","","32","","28","","16.1","","103.27","","","","-51","","NA"
"-81.24","68.78","HALL BEACH A","2402354","2019-01-10 09:00","2019","01","10","09:00","-33.8","","-37.4","","71","","0.0","","32","","30","","16.1","","103.28","","","","-51","","NA"
"-81.24","68.78","HALL BEACH A","2402354","2019-01-10 10:00","2019","01","10","10:00","-34.7","","-38.4","","70","","0.0","","32","","26","","16.1","","103.30","","","","-51","","NA"
"-81.24","68.78","HALL BEACH A","2402354","2019-01-10 11:00","2019","01","10","11:00","-35.1","","-38.9","","69","","0.0","","30","","24","","16.1","","103.35","","","","-51","","NA"
"-81.24","68.78","HALL BEACH A","2402354","2019-01-10 12:00","2019","01","10","12:00","-35.2","","-39.0","","69","","0.0","","30","","24","","16.1","","103.32","","","","-51","","NA"
"-81.24","68.78","HALL BEACH A","2402354","2019-01-10 13:00","2019","01","10","13:00","-35.2","","-39.0","","69","","0.0","","31","","22","","16.1","","103.33","","","","-50","","NA"
"-81.24","68.78","HALL BEACH A","2402354","2019-01-10 14:00","2019","01","10","14:00","-35.4","","-39.2","","69","","0.0","","32","","22","","16.1","","103.35","","","","-51","","NA"
"-81.24","68.78","HALL BEACH A","2402354","2019-01-10 15:00","2019","01","10","15:00","-35.4","","-39.2","","69","","0.0","","33","","24","","16.1","","103.34","","","","-51","","NA"
"-81.24","68.78","HALL BEACH A","2402354","2019-01-10 16:00","2019","01","10","16:00","-35.5","","-39.3","","69","","0.0","","31","","22","","16.1","","103.38","","","","-51","","NA"
"-81.24","68.78","HALL BEACH A","2402354","2019-01-10 17:00","2019","01","10","17:00","-35.5","","-39.3","","69","","0.0","","33","","26","","16.1","","103.38","","","","-52","","NA"
"-81.24","68.78","HALL BEACH A","2402354","2019-01-10 18:00","2019","01","10","18:00","-35.9","","-39.9","","68","","0.0","","32","","21","","16.1","","103.37","","","","-51","","NA"
"-81.24","68.78","HALL BEACH A","2402354","2019-01-10 19:00","2019","01","10","19:00","-35.9","","-39.9","","68","","0.0","","32","","22","","16.1","","103.38","","","","-51","","NA"
"-81.24","68.78","HALL BEACH A","2402354","2019-01-10 20:00","2019","01","10","20:00","-35.9","","-39.9","","68","","0.0","","32","","22","","16.1","","103.38","","","","-51","","NA"
"-81.24","68.78","HALL BEACH A","2402354","2019-01-10 21:00","2019","01","10","21:00","-36.2","","-40.1","","68","","0.0","","32","","22","","16.1","","103.36","","","","-52","","NA"
"-81.24","68.78","HALL BEACH A","2402354","2019-01-10 22:00","2019","01","10","22:00","-36.4","","-40.3","","68","","0.0","","32","","24","","16.1","","103.34","","","","-52","","NA"
"-81.24","68.78","HALL BEACH A","2402354","2019-01-10 23:00","2019","01","10","23:00","-36.6","","-40.7","","67","","0.0","","31","","21","","16.1","","103.39","","","","-52","","NA"
"-81.24","68.78","HALL BEACH A","2402354","2019-01-11 00:00","2019","01","11","00:00","-36.6","","-40.7","","67","","0.0","","31","","22","","16.1","","103.40","","","","-52","","NA"
"-81.24","68.78","HALL BEACH A","2402354","2019-01-11 01:00","2019","01","11","01:00","-36.5","","-40.4","","68","","0.0","","31","","21","","16.1","","103.40","","","","-52","","NA"
"-81.24","68.78","HALL BEACH A","2402354","2019-01-11 02:00","2019","01","11","02:00","-36.7","","-40.8","","67","","0.0","","31","","22","","16.1","","103.42","","","","-52","","NA"
"-81.24","68.78","HALL BEACH A","2402354","2019-01-11 03:00","2019","01","11","03:00","-36.8","","-40.9","","67","","0.0","","33","","21","","16.1","","103.44","","","","-52","","NA"
"-81.24","68.78","HALL BEACH A","2402354","2019-01-11 04:00","2019","01","11","04:00","-36.7","","-40.6","","68","","0.0","","31","","24","","16.1","","103.47","","","","-53","","NA"
"-81.24","68.78","HALL BEACH A","2402354","2019-01-11 05:00","2019","01","11","05:00","-36.2","","-40.1","","68","","0.0","","32","","22","","16.1","","103.47","","","","-52","","NA"
"-81.24","68.78","HALL BEACH A","2402354","2019-01-11 06:00","2019","01","11","06:00","-35.9","","-39.9","","68","","0.0","","31","","22","","16.1","","103.51","","","","-51","","NA"
"-81.24","68.78","HALL BEACH A","2402354","2019-01-11 07:00","2019","01","11","07:00","-36.3","","-40.2","","68","","0.0","","31","","21","","16.1","","103.52","","","","-51","","NA"
"-81.24","68.78","HALL BEACH A","2402354","2019-01-11 08:00","2019","01","11","08:00","-36.5","","-40.6","","67","","0.0","","32","","21","","16.1","","103.49","","","","-52","","NA"
"-81.24","68.78","HALL BEACH A","2402354","2019-01-11 09:00","2019","01","11","09:00","-36.4","","-40.3","","68","","0.0","","32","","21","","16.1","","103.50","","","","-51","","NA"
"-81.24","68.78","HALL BEACH A","2402354","2019-01-11 10:00","2019","01","11","10:00","-36.3","","-40.2","","68","","0.0","","31","","22","","16.1","","103.51","","","","-52","","NA"
"-81.24","68.78","HALL BEACH A","2402354","2019-01-11 11:00","2019","01","11","11:00","-36.3","","-40.2","","68","","0.0","","32","","24","","16.1","","103.49","","","","-52","","NA"
"-81.24","68.78","HALL BEACH A","2402354","2019-01-11 12:00","2019","01","11","12:00","-36.3","","-40.2","","68","","0.0","","31","","22","","16.1","","103.50","","","","-52","","NA"
"-81.24","68.78","HALL BEACH A","2402354","2019-01-11 13:00","2019","01","11","13:00","-36.4","","-40.3","","68","","0.0","","32","","22","","16.1","","103.51","","","","-52","","NA"
"-81.24","68.78","HALL BEACH A","2402354","2019-01-11 14:00","2019","01","11","14:00","-36.5","","-40.4","","68","","0.0","","31","","22","","16.1","","103.47","","","","-52","","NA"
"-81.24","68.78","HALL BEACH A","2402354","2019-01-11 15:00","2019","01","11","15:00","-36.1","","-40.0","","68","","0.0","","32","","22","","16.1","","103.47","","","","-51","","NA"
"-81.24","68.78","HALL BEACH A","2402354","2019-01-11 16:00","2019","01","11","16:00","-36.7","","-40.8","","67","","0.0","","32","","22","","16.1","","103.48","","","","-52","","NA"
"-81.24","68.78","HALL BEACH A","2402354","2019-01-11 17:00","2019","01","11","17:00","-36.6","","-40.5","","68","","0.0","","32","","22","","16.1","","103.45","","","","-52","","NA"
"-81.24","68.78","HALL BEACH A","2402354","2019-01-11 18:00","2019","01","11","18:00","-36.2","","-40.1","","68","","0.0","","32","","22","","16.1","","103.42","","","","-52","","NA"
"-81.24","68.78","HALL BEACH A","2402354","2019-01-11 19:00","2019","01","11","19:00","-36.5","","-40.6","","67","","0.0","","32","","22","","16.1","","103.42","","","","-52","","NA"
"-81.24","68.78","HALL BEACH A","2402354","2019-01-11 20:00","2019","01","11","20:00","-36.5","","-40.6","","67","","0.0","","32","","22","","16.1","","103.38","","","","-52","","NA"
"-81.24","68.78","HALL BEACH A","2402354","2019-01-11 21:00","2019","01","11","21:00","-36.4","","-40.3","","68","","0.0","","32","","22","","16.1","","103.34","","","","-52","","NA"
"-81.24","68.78","HALL BEACH A","2402354","2019-01-11 22:00","2019","01","11","22:00","-36.7","","-40.8","","67","","0.0","","32","","21","","16.1","","103.31","","","","-52","","NA"
"-81.24","68.78","HALL BEACH A","2402354","2019-01-11 23:00","2019","01","11","23:00","-36.2","","-40.1","","68","","0.0","","32","","24","","16.1","","103.25","","","","-52","","NA"
"-81.24","68.78","HALL BEACH A","2402354","2019-01-12 00:00","2019","01","12","00:00","-36.7","","-40.8","","67","","0.0","","32","","21","","16.1","","103.21","","","","-52","","NA"
"-81.24","68.78","HALL BEACH A","2402354","2019-01-12 01:00","2019","01","12","01:00","-36.5","","-40.6","","67","","0.0","","32","","22","","16.1","","103.18","","","","-52","","NA"
"-81.24","68.78","HALL BEACH A","2402354","2019-01-12 02:00","2019","01","12","02:00","-36.7","","-40.8","","67","","0.0","","32","","18","","16.1","","103.18","","","","-51","","NA"
"-81.24","68.78","HALL BEACH A","2402354","2019-01-12 03:00","2019","01","12","03:00","-37.2","","-41.4","","66","","0.0","","32","","18","","16.1","","103.13","","","","-51","","NA"
"-81.24","68.78","HALL BEACH A","2402354","2019-01-12 04:00","2019","01","12","04:00","-36.7","","-40.8","","67","","0.0","","33","","18","","16.1","","103.09","","","","-51","","NA"
"-81.24","68.78","HALL BEACH A","2402354","2019-01-12 05:00","2019","01","12","05:00","-36.9","","-41.0","","67","","0.0","","32","","21","","16.1","","103.06","","","","-52","","NA"
"-81.24","68.78","HALL BEACH A","2402354","2019-01-12 06:00","2019","01","12","06:00","-37.0","","-41.1","","67","","0.0","","32","","21","","16.1","","103.01","","","","-52","","NA"
"-81.24","68.78","HALL BEACH A","2402354","2019-01-12 07:00","2019","01","12","07:00","-37.2","","-41.3","","67","","0.0","","32","","21","","16.1","","102.95","","","","-53","","NA"
"-81.24","68.78","HALL BEACH A","2402354","2019-01-12 08:00","2019","01","12","08:00","-37.4","","-41.6","","66","","0.0","","33","","18","","16.1","","102.95","","","","-52","","NA"
"-81.24","68.78","HALL BEACH A","2402354","2019-01-12 09:00","2019","01","12","09:00","-37.6","","-41.8","","66","","0.0","","33","","17","","16.1","","102.91","","","","-52","","NA"
"-81.24","68.78","HALL BEACH A","2402354","2019-01-12 10:00","2019","01","12","10:00","-37.7","","-41.9","","66","","0.0","","34","","15","","16.1","","102.84","","","","-51","","NA"
"-81.24","68.78","HALL BEACH A","2402354","2019-01-12 11:00","2019","01","12","11:00","-37.6","","-41.8","","66","","0.0","","33","","13","","16.1","","102.80","","","","-50","","NA"
"-81.24","68.78","HALL BEACH A","2402354","2019-01-12 12:00","2019","01","12","12:00","-37.6","","-41.8","","66","","0.0","","30","","13","","16.1","","102.76","","","","-50","","NA"
"-81.24","68.78","HALL BEACH A","2402354","2019-01-12 13:00","2019","01","12","13:00","-36.7","","-40.8","","67","","0.0","","33","","11","","16.1","","102.70","","","","-48","","NA"
"-81.24","68.78","HALL BEACH A","2402354","2019-01-12 14:00","2019","01","12","14:00","-37.4","","-41.6","","66","","0.0","","35","","11","","16.1","","102.67","","","","-49","","NA"
"-81.24","68.78","HALL BEACH A","2402354","2019-01-12 15:00","2019","01","12","15:00","-37.1","","-41.3","","66","","0.0","","35","","9","","16.1","","102.61","","","","-47","","NA"
"-81.24","68.78","HALL BEACH A","2402354","2019-01-12 16:00","2019","01","12","16:00","-34.0","","-37.6","","71","","0.0","","3","","8","","16.1","","102.56","","","","-43","","NA"
"-81.24","68.78","HALL BEACH A","2402354","2019-01-12 17:00","2019","01","12","17:00","-34.2","","-37.6","","72","","0.0","","14","","9","","6.4","","102.50","","","","-44","","Snow"
"-81.24","68.78","HALL BEACH A","2402354","2019-01-12 18:00","2019","01","12","18:00","-27.8","","-30.8","","76","","0.0","","16","","15","","16.1","","102.45","","","","-39","","NA"
"-81.24","68.78","HALL BEACH A","2402354","2019-01-12 19:00","2019","01","12","19:00","-27.6","","-30.6","","76","","0.0","","14","","21","","16.1","","102.35","","","","-40","","NA"
"-81.24","68.78","HALL BEACH A","2402354","2019-01-12 20:00","2019","01","12","20:00","-27.2","","-30.1","","77","","0.0","","16","","18","","16.1","","102.33","","","","-39","","NA"
"-81.24","68.78","HALL BEACH A","2402354","2019-01-12 21:00","2019","01","12","21:00","-26.3","","-29.1","","78","","0.0","","15","","24","","16.1","","102.28","","","","-39","","NA"
"-81.24","68.78","HALL BEACH A","2402354","2019-01-12 22:00","2019","01","12","22:00","-25.6","","-28.2","","79","","0.0","","16","","22","","9.7","","102.21","","","","-38","","Fog"
"-81.24","68.78","HALL BEACH A","2402354","2019-01-12 23:00","2019","01","12","23:00","-25.1","","-27.8","","79","","0.0","","16","","22","","14.5","","102.13","","","","-37","","NA"
"-81.24","68.78","HALL BEACH A","2402354","2019-01-13 00:00","2019","01","13","00:00","-25.1","","-27.8","","79","","0.0","","14","","22","","16.1","","102.07","","","","-37","","NA"
"-81.24","68.78","HALL BEACH A","2402354","2019-01-13 01:00","2019","01","13","01:00","-25.6","","-28.2","","79","","0.0","","14","","24","","16.1","","102.02","","","","-39","","NA"
"-81.24","68.78","HALL BEACH A","2402354","2019-01-13 02:00","2019","01","13","02:00","-25.1","","-27.8","","79","","0.0","","11","","21","","16.1","","101.95","","","","-37","","NA"
"-81.24","68.78","HALL BEACH A","2402354","2019-01-13 03:00","2019","01","13","03:00","-25.2","","-27.9","","79","","0.0","","12","","26","","12.9","","101.90","","","","-39","","NA"
"-81.24","68.78","HALL BEACH A","2402354","2019-01-13 04:00","2019","01","13","04:00","-25.0","","-27.6","","79","","0.0","","11","","24","","3.6","","101.87","","","","-38","","Haze"
"-81.24","68.78","HALL BEACH A","2402354","2019-01-13 05:00","2019","01","13","05:00","-24.4","","-26.9","","80","","0.0","","10","","32","","3.2","","101.79","","","","-39","","Snow"
"-81.24","68.78","HALL BEACH A","2402354","2019-01-13 06:00","2019","01","13","06:00","-24.1","","-26.6","","80","","0.0","","10","","28","","11.3","","101.72","","","","-38","","Snow"
"-81.24","68.78","HALL BEACH A","2402354","2019-01-13 07:00","2019","01","13","07:00","-24.1","","-26.6","","81","","0.0","","10","","32","","8.1","","101.67","","","","-38","","Snow"
"-81.24","68.78","HALL BEACH A","2402354","2019-01-13 08:00","2019","01","13","08:00","-23.8","","-26.2","","81","","0.0","","9","","32","","8.1","","101.62","","","","-38","","Snow"
"-81.24","68.78","HALL BEACH A","2402354","2019-01-13 09:00","2019","01","13","09:00","-23.6","","-26.0","","81","","0.0","","10","","32","","6.4","","101.59","","","","-38","","Snow"
"-81.24","68.78","HALL BEACH A","2402354","2019-01-13 10:00","2019","01","13","10:00","-24.2","","-26.7","","80","","0.0","","8","","34","","4.8","","101.59","","","","-39","","Snow"
"-81.24","68.78","HALL BEACH A","2402354","2019-01-13 11:00","2019","01","13","11:00","-24.2","","-26.7","","80","","0.0","","8","","30","","4.8","","101.59","","","","-38","","Snow"
"-81.24","68.78","HALL BEACH A","2402354","2019-01-13 12:00","2019","01","13","12:00","-24.4","","-26.9","","80","","0.0","","7","","35","","2.4","","101.55","","","","-39","","Snow"
"-81.24","68.78","HALL BEACH A","2402354","2019-01-13 13:00","2019","01","13","13:00","-24.8","","-27.3","","80","","0.0","","7","","35","","2.4","","101.52","","","","-40","","Snow"
"-81.24","68.78","HALL BEACH A","2402354","2019-01-13 14:00","2019","01","13","14:00","-24.8","","-27.3","","80","","0.0","","7","","32","","2.0","","101.51","","","","-39","","Snow"
"-81.24","68.78","HALL BEACH A","2402354","2019-01-13 15:00","2019","01","13","15:00","-24.5","","-27.0","","80","","0.0","","7","","32","","2.4","","101.50","","","","-39","","Snow"
"-81.24","68.78","HALL BEACH A","2402354","2019-01-13 16:00","2019","01","13","16:00","-24.6","","-27.1","","80","","0.0","","6","","34","","2.0","","101.52","","","","-39","","Snow"
"-81.24","68.78","HALL BEACH A","2402354","2019-01-13 17:00","2019","01","13","17:00","-25.3","","-28.0","","79","","0.0","","6","","30","","4.8","","101.53","","","","-39","","Snow"
"-81.24","68.78","HALL BEACH A","2402354","2019-01-13 18:00","2019","01","13","18:00","-25.3","","-28.0","","79","","0.0","","5","","30","","2.8","","101.53","","","","-39","","Snow"
"-81.24","68.78","HALL BEACH A","2402354","2019-01-13 19:00","2019","01","13","19:00","-25.6","","-28.2","","79","","0.0","","4","","28","","3.2","","101.53","","","","-39","","Snow"
"-81.24","68.78","HALL BEACH A","2402354","2019-01-13 20:00","2019","01","13","20:00","-26.0","","-28.6","","79","","0.0","","4","","32","","4.8","","101.51","","","","-41","","Snow"
"-81.24","68.78","HALL BEACH A","2402354","2019-01-13 21:00","2019","01","13","21:00","-26.0","","-28.6","","79","","0.0","","4","","30","","3.6","","101.50","","","","-40","","Snow"
"-81.24","68.78","HALL BEACH A","2402354","2019-01-13 22:00","2019","01","13","22:00","-31.9","","-35.3","","73","","0.0","","35","","32","","1.6","","101.51","","","","-49","","Snow"
"-81.24","68.78","HALL BEACH A","2402354","2019-01-13 23:00","2019","01","13","23:00","-32.9","","-36.4","","72","","0.0","","35","","30","","2.0","","101.46","","","","-49","","Snow"
"-81.24","68.78","HALL BEACH A","2402354","2019-01-14 00:00","2019","01","14","00:00","-33.3","","-36.9","","71","","0.0","","35","","30","","2.0","","101.44","","","","-50","","Snow"
"-81.24","68.78","HALL BEACH A","2402354","2019-01-14 01:00","2019","01","14","01:00","-33.5","","-37.1","","71","","0.0","","35","","32","","2.0","","101.40","","","","-51","","Haze"
"-81.24","68.78","HALL BEACH A","2402354","2019-01-14 02:00","2019","01","14","02:00","-33.7","","-37.3","","71","","0.0","","35","","30","","2.4","","101.40","","","","-50","","Haze"
"-81.24","68.78","HALL BEACH A","2402354","2019-01-14 03:00","2019","01","14","03:00","-33.7","","-37.3","","71","","0.0","","35","","30","","3.2","","101.37","","","","-50","","Haze"
"-81.24","68.78","HALL BEACH A","2402354","2019-01-14 04:00","2019","01","14","04:00","-34.1","","-37.7","","71","","0.0","","35","","32","","1.6","","101.32","","","","-51","","Haze"
"-81.24","68.78","HALL BEACH A","2402354","2019-01-14 05:00","2019","01","14","05:00","-34.1","","-37.7","","71","","0.0","","35","","32","","1.6","","101.27","","","","-51","","Haze"
"-81.24","68.78","HALL BEACH A","2402354","2019-01-14 06:00","2019","01","14","06:00","-34.2","","-37.9","","70","","0.0","","35","","32","","1.6","","101.24","","","","-52","","Haze"
"-81.24","68.78","HALL BEACH A","2402354","2019-01-14 07:00","2019","01","14","07:00","-34.2","","-37.9","","70","","0.0","","35","","30","","2.0","","101.26","","","","-51","","Snow"
"-81.24","68.78","HALL BEACH A","2402354","2019-01-14 08:00","2019","01","14","08:00","-34.4","","-38.1","","70","","0.0","","34","","24","","3.6","","101.21","","","","-50","","Haze"
"-81.24","68.78","HALL BEACH A","2402354","2019-01-14 09:00","2019","01","14","09:00","-34.9","","-38.6","","70","","0.0","","34","","28","","11.3","","101.18","","","","-52","","NA"
"-81.24","68.78","HALL BEACH A","2402354","2019-01-14 10:00","2019","01","14","10:00","-35.6","","-39.6","","68","","0.0","","33","","28","","6.4","","101.16","","","","-52","","Haze"
"-81.24","68.78","HALL BEACH A","2402354","2019-01-14 11:00","2019","01","14","11:00","-35.8","","-39.6","","69","","0.0","","33","","32","","4.8","","101.09","","","","-54","","Haze"
"-81.24","68.78","HALL BEACH A","2402354","2019-01-14 12:00","2019","01","14","12:00","-35.6","","-39.4","","69","","0.0","","34","","30","","9.7","","101.05","","","","-53","","Haze"
"-81.24","68.78","HALL BEACH A","2402354","2019-01-14 13:00","2019","01","14","13:00","-35.9","","-39.7","","69","","0.0","","33","","28","","16.1","","101.04","","","","-53","","NA"
"-81.24","68.78","HALL BEACH A","2402354","2019-01-14 14:00","2019","01","14","14:00","-35.7","","-39.5","","69","","0.0","","34","","30","","11.3","","100.98","","","","-53","","NA"
"-81.24","68.78","HALL BEACH A","2402354","2019-01-14 15:00","2019","01","14","15:00","-35.8","","-39.6","","69","","0.0","","34","","26","","9.7","","100.99","","","","-52","","Haze"
"-81.24","68.78","HALL BEACH A","2402354","2019-01-14 16:00","2019","01","14","16:00","-36.4","","-40.3","","68","","0.0","","33","","26","","3.2","","100.98","","","","-53","","Haze"
"-81.24","68.78","HALL BEACH A","2402354","2019-01-14 17:00","2019","01","14","17:00","-36.2","","-40.1","","68","","0.0","","33","","28","","6.4","","100.97","","","","-53","","Haze"
"-81.24","68.78","HALL BEACH A","2402354","2019-01-14 18:00","2019","01","14","18:00","-36.7","","-40.6","","68","","0.0","","33","","26","","11.3","","100.94","","","","-53","","NA"
"-81.24","68.78","HALL BEACH A","2402354","2019-01-14 19:00","2019","01","14","19:00","-37.0","","-41.1","","67","","0.0","","33","","26","","9.7","","100.93","","","","-54","","Haze"
"-81.24","68.78","HALL BEACH A","2402354","2019-01-14 20:00","2019","01","14","20:00","-36.9","","-40.8","","68","","0.0","","33","","26","","11.3","","100.92","","","","-54","","NA"
"-81.24","68.78","HALL BEACH A","2402354","2019-01-14 21:00","2019","01","14","21:00","-37.2","","-41.3","","67","","0.0","","33","","26","","14.5","","100.91","","","","-54","","NA"
"-81.24","68.78","HALL BEACH A","2402354","2019-01-14 22:00","2019","01","14","22:00","-37.3","","-41.4","","67","","0.0","","33","","22","","16.1","","100.86","","","","-53","","NA"
"-81.24","68.78","HALL BEACH A","2402354","2019-01-14 23:00","2019","01","14","23:00","-37.4","","-41.4","","67","","0.0","","34","","24","","16.1","","100.84","","","","-54","","NA"
"-81.24","68.78","HALL BEACH A","2402354","2019-01-15 00:00","2019","01","15","00:00","-37.2","","-41.3","","67","","0.0","","34","","28","","12.9","","100.81","","","","-55","","NA"
"-81.24","68.78","HALL BEACH A","2402354","2019-01-15 01:00","2019","01","15","01:00","-37.3","","-41.4","","67","","0.0","","34","","26","","16.1","","100.79","","","","-54","","NA"
"-81.24","68.78","HALL BEACH A","2402354","2019-01-15 02:00","2019","01","15","02:00","-37.3","","-41.4","","67","","0.0","","32","","24","","16.1","","100.76","","","","-54","","NA"
"-81.24","68.78","HALL BEACH A","2402354","2019-01-15 03:00","2019","01","15","03:00","-38.6","","-42.9","","65","","0.0","","32","","21","","16.1","","100.80","","","","-54","","NA"
"-81.24","68.78","HALL BEACH A","2402354","2019-01-15 04:00","2019","01","15","04:00","-38.3","","-42.4","","66","","0.0","","33","","26","","16.1","","100.78","","","","-55","","NA"
"-81.24","68.78","HALL BEACH A","2402354","2019-01-15 05:00","2019","01","15","05:00","-37.8","","-42.0","","66","","0.0","","33","","26","","16.1","","100.74","","","","-55","","NA"
"-81.24","68.78","HALL BEACH A","2402354","2019-01-15 06:00","2019","01","15","06:00","-38.1","","-42.3","","66","","0.0","","32","","24","","16.1","","100.72","","","","-55","","NA"
"-81.24","68.78","HALL BEACH A","2402354","2019-01-15 07:00","2019","01","15","07:00","-38.4","","-42.7","","65","","0.0","","32","","24","","16.1","","100.72","","","","-55","","NA"
"-81.24","68.78","HALL BEACH A","2402354","2019-01-15 08:00","2019","01","15","08:00","-38.7","","-43.0","","65","","0.0","","32","","24","","16.1","","100.70","","","","-55","","NA"
"-81.24","68.78","HALL BEACH A","2402354","2019-01-15 09:00","2019","01","15","09:00","-39.1","","-43.4","","65","","0.0","","32","","24","","16.1","","100.69","","","","-56","","NA"
"-81.24","68.78","HALL BEACH A","2402354","2019-01-15 10:00","2019","01","15","10:00","-39.5","","-43.9","","64","","0.0","","31","","22","","16.1","","100.67","","","","-56","","NA"
"-81.24","68.78","HALL BEACH A","2402354","2019-01-15 11:00","2019","01","15","11:00","-39.3","","-43.6","","65","","0.0","","32","","24","","16.1","","100.65","","","","-56","","NA"
"-81.24","68.78","HALL BEACH A","2402354","2019-01-15 12:00","2019","01","15","12:00","-39.1","","-43.4","","65","","0.0","","32","","26","","16.1","","100.62","","","","-56","","NA"
"-81.24","68.78","HALL BEACH A","2402354","2019-01-15 13:00","2019","01","15","13:00","-39.3","","-43.6","","65","","0.0","","32","","26","","16.1","","100.64","","","","-57","","NA"
"-81.24","68.78","HALL BEACH A","2402354","2019-01-15 14:00","2019","01","15","14:00","-39.4","","-43.7","","65","","0.0","","32","","24","","16.1","","100.63","","","","-56","","NA"
"-81.24","68.78","HALL BEACH A","2402354","2019-01-15 15:00","2019","01","15","15:00","-39.7","","-44.1","","64","","0.0","","31","","22","","16.1","","100.62","","","","-56","","NA"
"-81.24","68.78","HALL BEACH A","2402354","2019-01-15 16:00","2019","01","15","16:00","-39.4","","-43.7","","65","","0.0","","32","","24","","16.1","","100.60","","","","-56","","NA"
"-81.24","68.78","HALL BEACH A","2402354","2019-01-15 17:00","2019","01","15","17:00","-39.8","","-44.2","","64","","0.0","","32","","21","","16.1","","100.59","","","","-56","","NA"
"-81.24","68.78","HALL BEACH A","2402354","2019-01-15 18:00","2019","01","15","18:00","-39.7","","-44.1","","64","","0.0","","31","","24","","16.1","","100.57","","","","-57","","NA"
"-81.24","68.78","HALL BEACH A","2402354","2019-01-15 19:00","2019","01","15","19:00","-39.6","","-44.0","","64","","0.0","","32","","21","","16.1","","100.55","","","","-56","","NA"
"-81.24","68.78","HALL BEACH A","2402354","2019-01-15 20:00","2019","01","15","20:00","-39.8","","-44.2","","64","","0.0","","32","","24","","16.1","","100.52","","","","-57","","NA"
"-81.24","68.78","HALL BEACH A","2402354","2019-01-15 21:00","2019","01","15","21:00","-39.5","","-43.9","","64","","0.0","","32","","24","","16.1","","100.47","","","","-56","","NA"
"-81.24","68.78","HALL BEACH A","2402354","2019-01-15 22:00","2019","01","15","22:00","-39.3","","-43.6","","65","","0.0","","32","","24","","16.1","","100.44","","","","-56","","NA"
"-81.24","68.78","HALL BEACH A","2402354","2019-01-15 23:00","2019","01","15","23:00","-39.9","","-44.3","","64","","0.0","","32","","24","","16.1","","100.43","","","","-57","","NA"
"-81.24","68.78","HALL BEACH A","2402354","2019-01-16 00:00","2019","01","16","00:00","-39.5","","-43.8","","65","","0.0","","32","","24","","16.1","","100.41","","","","-56","","NA"
"-81.24","68.78","HALL BEACH A","2402354","2019-01-16 01:00","2019","01","16","01:00","-39.5","","-43.9","","64","","0.0","","32","","22","","16.1","","100.41","","","","-56","","NA"
"-81.24","68.78","HALL BEACH A","2402354","2019-01-16 02:00","2019","01","16","02:00","-40.1","","-44.5","","64","","0.0","","32","","22","","16.1","","100.37","","","","-57","","NA"
"-81.24","68.78","HALL BEACH A","2402354","2019-01-16 03:00","2019","01","16","03:00","-39.1","","-43.4","","65","","0.0","","32","","24","","16.1","","100.38","","","","-56","","NA"
"-81.24","68.78","HALL BEACH A","2402354","2019-01-16 04:00","2019","01","16","04:00","-39.4","","-43.8","","64","","0.0","","32","","26","","16.1","","100.37","","","","-57","","NA"
"-81.24","68.78","HALL BEACH A","2402354","2019-01-16 05:00","2019","01","16","05:00","-39.3","","-43.6","","65","","0.0","","31","","24","","16.1","","100.34","","","","-56","","NA"
"-81.24","68.78","HALL BEACH A","2402354","2019-01-16 06:00","2019","01","16","06:00","-39.2","","-43.5","","65","","0.0","","32","","24","","16.1","","100.33","","","","-56","","NA"
"-81.24","68.78","HALL BEACH A","2402354","2019-01-16 07:00","2019","01","16","07:00","-38.8","","-43.1","","65","","0.0","","31","","24","","16.1","","100.30","","","","-55","","NA"
"-81.24","68.78","HALL BEACH A","2402354","2019-01-16 08:00","2019","01","16","08:00","-39.1","","-43.4","","65","","0.0","","31","","24","","16.1","","100.30","","","","-56","","NA"
"-81.24","68.78","HALL BEACH A","2402354","2019-01-16 09:00","2019","01","16","09:00","-39.2","","-43.5","","65","","0.0","","32","","24","","16.1","","100.29","","","","-56","","NA"
"-81.24","68.78","HALL BEACH A","2402354","2019-01-16 10:00","2019","01","16","10:00","-39.4","","-43.8","","64","","0.0","","32","","21","","16.1","","100.30","","","","-55","","NA"
"-81.24","68.78","HALL BEACH A","2402354","2019-01-16 11:00","2019","01","16","11:00","-39.0","","-43.3","","65","","0.0","","32","","24","","16.1","","100.31","","","","-56","","NA"
"-81.24","68.78","HALL BEACH A","2402354","2019-01-16 12:00","2019","01","16","12:00","-39.3","","-43.6","","65","","0.0","","32","","26","","16.1","","100.34","","","","-57","","NA"
"-81.24","68.78","HALL BEACH A","2402354","2019-01-16 13:00","2019","01","16","13:00","-39.2","","-43.5","","65","","0.0","","32","","26","","16.1","","100.35","","","","-57","","NA"
"-81.24","68.78","HALL BEACH A","2402354","2019-01-16 14:00","2019","01","16","14:00","-39.4","","-43.8","","64","","0.0","","32","","22","","16.1","","100.38","","","","-56","","NA"
"-81.24","68.78","HALL BEACH A","2402354","2019-01-16 15:00","2019","01","16","15:00","-39.2","","-43.5","","65","","0.0","","32","","22","","16.1","","100.41","","","","-55","","NA"
"-81.24","68.78","HALL BEACH A","2402354","2019-01-16 16:00","2019","01","16","16:00","-39.0","","-43.3","","65","","0.0","","33","","21","","6.4","","100.47","","","","-55","","Haze"
"-81.24","68.78","HALL BEACH A","2402354","2019-01-16 17:00","2019","01","16","17:00","-38.3","","-42.5","","66","","0.0","","33","","22","","4.8","","100.52","","","","-54","","Snow"
"-81.24","68.78","HALL BEACH A","2402354","2019-01-16 18:00","2019","01","16","18:00","-38.0","","-42.2","","66","","0.0","","33","","24","","3.6","","100.56","","","","-54","","Snow"
"-81.24","68.78","HALL BEACH A","2402354","2019-01-16 19:00","2019","01","16","19:00","-37.4","","-41.4","","67","","0.0","","34","","24","","3.2","","100.60","","","","-54","","Haze"
"-81.24","68.78","HALL BEACH A","2402354","2019-01-16 20:00","2019","01","16","20:00","-37.5","","-41.7","","66","","0.0","","33","","21","","3.6","","100.66","","","","-53","","Snow"
"-81.24","68.78","HALL BEACH A","2402354","2019-01-16 21:00","2019","01","16","21:00","-37.0","","-41.1","","67","","0.0","","34","","24","","2.4","","100.74","","","","-53","","Snow"
"-81.24","68.78","HALL BEACH A","2402354","2019-01-16 22:00","2019","01","16","22:00","-37.6","","-41.8","","66","","0.0","","33","","24","","16.1","","100.78","","","","-54","","NA"
"-81.24","68.78","HALL BEACH A","2402354","2019-01-16 23:00","2019","01","16","23:00","-37.9","","-42.1","","66","","0.0","","34","","24","","9.7","","100.79","","","","-54","","Haze"
"-81.24","68.78","HALL BEACH A","2402354","2019-01-17 00:00","2019","01","17","00:00","-36.6","","-40.7","","67","","0.0","","34","","24","","16.1","","100.86","","","","-53","","NA"
"-81.24","68.78","HALL BEACH A","2402354","2019-01-17 01:00","2019","01","17","01:00","-37.0","","-41.1","","67","","0.0","","34","","22","","16.1","","100.92","","","","-53","","NA"
"-81.24","68.78","HALL BEACH A","2402354","2019-01-17 02:00","2019","01","17","02:00","-36.8","","-40.9","","67","","0.0","","34","","24","","16.1","","100.96","","","","-53","","NA"
"-81.24","68.78","HALL BEACH A","2402354","2019-01-17 03:00","2019","01","17","03:00","-36.9","","-41.0","","67","","0.0","","34","","24","","16.1","","101.01","","","","-53","","NA"
"-81.24","68.78","HALL BEACH A","2402354","2019-01-17 04:00","2019","01","17","04:00","-36.9","","-41.0","","67","","0.0","","34","","24","","16.1","","101.10","","","","-53","","NA"
"-81.24","68.78","HALL BEACH A","2402354","2019-01-17 05:00","2019","01","17","05:00","-37.6","","-41.8","","66","","0.0","","34","","24","","16.1","","101.15","","","","-54","","NA"
"-81.24","68.78","HALL BEACH A","2402354","2019-01-17 06:00","2019","01","17","06:00","-36.6","","-40.7","","67","","0.0","","34","","22","","16.1","","101.17","","","","-52","","NA"
"-81.24","68.78","HALL BEACH A","2402354","2019-01-17 07:00","2019","01","17","07:00","-36.5","","-40.6","","67","","0.0","","34","","22","","16.1","","101.23","","","","-52","","NA"
"-81.24","68.78","HALL BEACH A","2402354","2019-01-17 08:00","2019","01","17","08:00","-36.0","","-39.9","","68","","0.0","","35","","21","","14.5","","101.25","","","","-51","","NA"
"-81.24","68.78","HALL BEACH A","2402354","2019-01-17 09:00","2019","01","17","09:00","-36.2","","-40.3","","67","","0.0","","34","","21","","14.5","","101.28","","","","-51","","NA"
"-81.24","68.78","HALL BEACH A","2402354","2019-01-17 10:00","2019","01","17","10:00","-36.3","","-40.4","","67","","0.0","","34","","22","","8.1","","101.38","","","","-52","","Haze"
"-81.24","68.78","HALL BEACH A","2402354","2019-01-17 11:00","2019","01","17","11:00","-35.9","","-39.9","","68","","0.0","","35","","22","","16.1","","101.39","","","","-51","","NA"
"-81.24","68.78","HALL BEACH A","2402354","2019-01-17 12:00","2019","01","17","12:00","-35.9","","-39.8","","68","","0.0","","34","","24","","11.3","","101.43","","","","-52","","NA"
"-81.24","68.78","HALL BEACH A","2402354","2019-01-17 13:00","2019","01","17","13:00","-35.6","","-39.6","","68","","0.0","","34","","24","","4.8","","101.46","","","","-51","","Haze"
"-81.24","68.78","HALL BEACH A","2402354","2019-01-17 14:00","2019","01","17","14:00","-36.0","","-39.9","","68","","0.0","","35","","21","","11.3","","101.48","","","","-51","","NA"
"-81.24","68.78","HALL BEACH A","2402354","2019-01-17 15:00","2019","01","17","15:00","-36.1","","-40.0","","68","","0.0","","34","","22","","9.7","","101.54","","","","-51","","Haze"
"-81.24","68.78","HALL BEACH A","2402354","2019-01-17 16:00","2019","01","17","16:00","-35.6","","-39.6","","68","","0.0","","34","","26","","9.7","","101.59","","","","-52","","Haze"
"-81.24","68.78","HALL BEACH A","2402354","2019-01-17 17:00","2019","01","17","17:00","-35.7","","-39.7","","68","","0.0","","35","","26","","16.1","","101.60","","","","-52","","NA"
"-81.24","68.78","HALL BEACH A","2402354","2019-01-17 18:00","2019","01","17","18:00","-35.3","","-39.1","","69","","0.0","","34","","22","","16.1","","101.64","","","","-50","","NA"
"-81.24","68.78","HALL BEACH A","2402354","2019-01-17 19:00","2019","01","17","19:00","-35.5","","-39.5","","68","","0.0","","34","","24","","16.1","","101.67","","","","-51","","NA"
"-81.24","68.78","HALL BEACH A","2402354","2019-01-17 20:00","2019","01","17","20:00","-35.6","","-39.6","","68","","0.0","","34","","24","","16.1","","101.67","","","","-51","","NA"
"-81.24","68.78","HALL BEACH A","2402354","2019-01-17 21:00","2019","01","17","21:00","-35.8","","-39.8","","68","","0.0","","34","","26","","16.1","","101.71","","","","-52","","NA"
"-81.24","68.78","HALL BEACH A","2402354","2019-01-17 22:00","2019","01","17","22:00","-37.0","","-41.1","","67","","0.0","","33","","26","","16.1","","101.68","","","","-54","","NA"
"-81.24","68.78","HALL BEACH A","2402354","2019-01-17 23:00","2019","01","17","23:00","-36.8","","-40.9","","67","","0.0","","34","","24","","16.1","","101.70","","","","-53","","NA"
"-81.24","68.78","HALL BEACH A","2402354","2019-01-18 00:00","2019","01","18","00:00","-36.5","","-40.6","","67","","0.0","","33","","24","","16.1","","101.66","","","","-53","","NA"
"-81.24","68.78","HALL BEACH A","2402354","2019-01-18 01:00","2019","01","18","01:00","-36.1","","-40.0","","68","","0.0","","33","","24","","16.1","","101.67","","","","-52","","NA"
"-81.24","68.78","HALL BEACH A","2402354","2019-01-18 02:00","2019","01","18","02:00","-36.7","","-40.8","","67","","0.0","","33","","22","","16.1","","101.67","","","","-52","","NA"
"-81.24","68.78","HALL BEACH A","2402354","2019-01-18 03:00","2019","01","18","03:00","-36.5","","-40.6","","67","","0.0","","32","","24","","16.1","","101.71","","","","-53","","NA"
"-81.24","68.78","HALL BEACH A","2402354","2019-01-18 04:00","2019","01","18","04:00","-37.2","","-41.3","","67","","0.0","","32","","24","","16.1","","101.72","","","","-53","","NA"
"-81.24","68.78","HALL BEACH A","2402354","2019-01-18 05:00","2019","01","18","05:00","-37.0","","-41.1","","67","","0.0","","33","","26","","16.1","","101.67","","","","-54","","NA"
"-81.24","68.78","HALL BEACH A","2402354","2019-01-18 06:00","2019","01","18","06:00","-37.4","","-41.6","","66","","0.0","","33","","22","","16.1","","101.67","","","","-53","","NA"
"-81.24","68.78","HALL BEACH A","2402354","2019-01-18 07:00","2019","01","18","07:00","-37.7","","-41.9","","66","","0.0","","33","","18","","16.1","","101.66","","","","-52","","NA"
"-81.24","68.78","HALL BEACH A","2402354","2019-01-18 08:00","2019","01","18","08:00","-38.2","","-42.4","","66","","0.0","","34","","21","","16.1","","101.66","","","","-54","","NA"
"-81.24","68.78","HALL BEACH A","2402354","2019-01-18 09:00","2019","01","18","09:00","-37.0","","-41.1","","67","","0.0","","32","","21","","16.1","","101.64","","","","-52","","NA"
"-81.24","68.78","HALL BEACH A","2402354","2019-01-18 10:00","2019","01","18","10:00","-36.5","","-40.6","","67","","0.0","","33","","18","","16.1","","101.65","","","","-51","","NA"
"-81.24","68.78","HALL BEACH A","2402354","2019-01-18 11:00","2019","01","18","11:00","-35.9","","-39.9","","68","","0.0","","32","","26","","16.1","","101.62","","","","-52","","NA"
"-81.24","68.78","HALL BEACH A","2402354","2019-01-18 12:00","2019","01","18","12:00","-35.4","","-39.2","","69","","0.0","","31","","32","","9.7","","101.55","","","","-53","","Haze"
"-81.24","68.78","HALL BEACH A","2402354","2019-01-18 13:00","2019","01","18","13:00","-34.9","","-38.7","","69","","0.0","","31","","35","","2.8","","101.53","","","","-53","","Haze"
"-81.24","68.78","HALL BEACH A","2402354","2019-01-18 14:00","2019","01","18","14:00","-34.9","","-38.7","","69","","0.0","","31","","34","","1.2","","101.50","","","","-53","","Snow"
"-81.24","68.78","HALL BEACH A","2402354","2019-01-18 15:00","2019","01","18","15:00","-34.6","","-38.4","","69","","0.0","","31","","35","","0.6","","101.43","","","","-53","","Haze"
"-81.24","68.78","HALL BEACH A","2402354","2019-01-18 16:00","2019","01","18","16:00","-34.3","","-38.0","","70","","0.0","","31","","41","","0.6","","101.41","","","","-53","","Moderate Snow,Blowing Snow"
"-81.24","68.78","HALL BEACH A","2402354","2019-01-18 17:00","2019","01","18","17:00","-33.7","","-37.4","","70","","0.0","","30","","34","","1.2","","101.39","","","","-51","","Snow"
"-81.24","68.78","HALL BEACH A","2402354","2019-01-18 18:00","2019","01","18","18:00","-31.9","","-35.4","","72","","0.0","","31","","50","","0.4","","101.28","","","","-52","","Heavy Snow,Blowing Snow"
"-81.24","68.78","HALL BEACH A","2402354","2019-01-18 19:00","2019","01","18","19:00","-30.7","","-34.1","","73","","0.0","","31","","39","","0.8","","101.21","","","","-48","","Moderate Snow,Blowing Snow"
"-81.24","68.78","HALL BEACH A","2402354","2019-01-18 20:00","2019","01","18","20:00","-30.3","","-33.5","","74","","0.0","","30","","24","","1.2","","101.15","","","","-45","","Snow"
"-81.24","68.78","HALL BEACH A","2402354","2019-01-18 21:00","2019","01","18","21:00","-29.3","","-32.4","","75","","0.0","","32","","15","","1.6","","101.02","","","","-41","","Snow"
"-81.24","68.78","HALL BEACH A","2402354","2019-01-18 22:00","2019","01","18","22:00","-28.7","","-31.8","","75","","0.0","","31","","43","","0.8","","100.91","","","","-46","","Moderate Snow,Blowing Snow"
"-81.24","68.78","HALL BEACH A","2402354","2019-01-18 23:00","2019","01","18","23:00","-29.1","","-32.2","","75","","0.0","","31","","43","","0.8","","100.85","","","","-47","","Moderate Snow,Blowing Snow"
"-81.24","68.78","HALL BEACH A","2402354","2019-01-19 00:00","2019","01","19","00:00","-29.1","","-32.2","","75","","0.0","","31","","41","","0.8","","100.76","","","","-46","","Moderate Snow,Blowing Snow"
"-81.24","68.78","HALL BEACH A","2402354","2019-01-19 01:00","2019","01","19","01:00","-28.5","","-31.5","","76","","0.0","","31","","45","","0.6","","100.69","","","","-46","","Moderate Snow,Blowing Snow"
"-81.24","68.78","HALL BEACH A","2402354","2019-01-19 02:00","2019","01","19","02:00","-28.4","","-31.4","","76","","0.0","","30","","45","","1.2","","100.58","","","","-46","","Snow,Blowing Snow"
"-81.24","68.78","HALL BEACH A","2402354","2019-01-19 03:00","2019","01","19","03:00","-29.1","","-32.4","","74","","0.0","","30","","28","","6.4","","100.58","","","","-44","","Haze"
"-81.24","68.78","HALL BEACH A","2402354","2019-01-19 04:00","2019","01","19","04:00","-30.1","","-33.3","","74","","0.0","","29","","28","","16.1","","100.46","","","","-45","","NA"
"-81.24","68.78","HALL BEACH A","2402354","2019-01-19 05:00","2019","01","19","05:00","-29.4","","-32.5","","75","","0.0","","31","","24","","16.1","","100.38","","","","-43","","NA"
"-81.24","68.78","HALL BEACH A","2402354","2019-01-19 06:00","2019","01","19","06:00","-29.3","","-32.4","","75","","0.0","","30","","26","","16.1","","100.31","","","","-44","","NA"
"-81.24","68.78","HALL BEACH A","2402354","2019-01-19 07:00","2019","01","19","07:00","-29.2","","-32.3","","75","","0.0","","30","","15","","4.8","","100.27","","","","-40","","Snow"
"-81.24","68.78","HALL BEACH A","2402354","2019-01-19 08:00","2019","01","19","08:00","-29.1","","-32.2","","75","","0.0","","31","","18","","12.9","","100.21","","","","-41","","Snow"
"-81.24","68.78","HALL BEACH A","2402354","2019-01-19 09:00","2019","01","19","09:00","-29.0","","-32.0","","76","","0.0","","29","","15","","14.5","","100.13","","","","-40","","Snow"
"-81.24","68.78","HALL BEACH A","2402354","2019-01-19 10:00","2019","01","19","10:00","-30.6","","-34.0","","73","","0.0","","27","","15","","16.1","","100.04","","","","-42","","Snow"
"-81.24","68.78","HALL BEACH A","2402354","2019-01-19 11:00","2019","01","19","11:00","-28.3","","-31.2","","77","","0.0","","27","","15","","4.8","","99.97","","","","-39","","Snow"
"-81.24","68.78","HALL BEACH A","2402354","2019-01-19 12:00","2019","01","19","12:00","-28.7","","-31.7","","76","","0.0","","27","","17","","4.8","","99.89","","","","-41","","Snow"
"-81.24","68.78","HALL BEACH A","2402354","2019-01-19 13:00","2019","01","19","13:00","-28.8","","-31.9","","75","","0.0","","24","","15","","11.3","","99.84","","","","-40","","Snow"
"-81.24","68.78","HALL BEACH A","2402354","2019-01-19 14:00","2019","01","19","14:00","-27.4","","-30.1","","78","","0.0","","25","","18","","8.1","","99.81","","","","-39","","Snow"
"-81.24","68.78","HALL BEACH A","2402354","2019-01-19 15:00","2019","01","19","15:00","-26.5","","-29.3","","78","","0.1","","25","","15","","9.7","","99.73","","","","-37","","Snow"
"-81.24","68.78","HALL BEACH A","2402354","2019-01-19 16:00","2019","01","19","16:00","-27.3","","-30.2","","77","","0.0","","25","","11","","4.8","","99.69","","","","-36","","Snow"
"-81.24","68.78","HALL BEACH A","2402354","2019-01-19 17:00","2019","01","19","17:00","-26.5","","-29.3","","78","","0.0","","26","","15","","11.3","","99.65","","","","-37","","Snow"
"-81.24","68.78","HALL BEACH A","2402354","2019-01-19 18:00","2019","01","19","18:00","-26.1","","-28.9","","78","","0.0","","25","","17","","16.1","","99.62","","","","-37","","Snow"
"-81.24","68.78","HALL BEACH A","2402354","2019-01-19 19:00","2019","01","19","19:00","-27.5","","-30.4","","77","","0.0","","29","","15","","9.7","","99.60","","","","-38","","Snow"
"-81.24","68.78","HALL BEACH A","2402354","2019-01-19 20:00","2019","01","19","20:00","-27.4","","-30.2","","78","","0.0","","29","","18","","3.6","","99.58","","","","-39","","Snow"
"-81.24","68.78","HALL BEACH A","2402354","2019-01-19 21:00","2019","01","19","21:00","-27.4","","-30.3","","77","","0.0","","29","","22","","4.8","","99.51","","","","-40","","Haze"
"-81.24","68.78","HALL BEACH A","2402354","2019-01-19 22:00","2019","01","19","22:00","-29.8","","-33.1","","74","","0.0","","28","","18","","16.1","","99.54","","","","-42","","NA"
"-81.24","68.78","HALL BEACH A","2402354","2019-01-19 23:00","2019","01","19","23:00","-31.8","","-35.1","","73","","0.0","","29","","21","","16.1","","99.48","","","","-46","","NA"
"-81.24","68.78","HALL BEACH A","2402354","2019-01-20 00:00","2019","01","20","00:00","-31.6","","-35.0","","73","","0.0","","30","","22","","11.3","","99.48","","","","-46","","Snow"
"-81.24","68.78","HALL BEACH A","2402354","2019-01-20 01:00","2019","01","20","01:00","-32.3","","-35.8","","72","","0.0","","30","","26","","16.1","","99.50","","","","-48","","NA"
"-81.24","68.78","HALL BEACH A","2402354","2019-01-20 02:00","2019","01","20","02:00","-33.0","","-36.6","","71","","0.0","","31","","28","","16.1","","99.50","","","","-49","","NA"
"-81.24","68.78","HALL BEACH A","2402354","2019-01-20 03:00","2019","01","20","03:00","-33.2","","-36.8","","71","","0.0","","31","","28","","8.1","","99.53","","","","-49","","Haze"
"-81.24","68.78","HALL BEACH A","2402354","2019-01-20 04:00","2019","01","20","04:00","-33.8","","-37.4","","71","","0.0","","32","","26","","16.1","","99.55","","","","-50","","NA"
"-81.24","68.78","HALL BEACH A","2402354","2019-01-20 05:00","2019","01","20","05:00","-33.4","","-37.0","","71","","0.0","","31","","30","","4.0","","99.61","","","","-50","","Haze"
"-81.24","68.78","HALL BEACH A","2402354","2019-01-20 06:00","2019","01","20","06:00","-33.7","","-37.3","","71","","0.0","","31","","32","","8.1","","99.61","","","","-51","","Haze"
"-81.24","68.78","HALL BEACH A","2402354","2019-01-20 07:00","2019","01","20","07:00","-34.0","","-37.7","","70","","0.0","","31","","32","","8.1","","99.64","","","","-51","","Haze"
"-81.24","68.78","HALL BEACH A","2402354","2019-01-20 08:00","2019","01","20","08:00","-34.4","","-38.1","","70","","0.0","","32","","32","","6.4","","99.62","","","","-52","","Haze"
"-81.24","68.78","HALL BEACH A","2402354","2019-01-20 09:00","2019","01","20","09:00","-34.9","","-38.7","","69","","0.0","","32","","21","","16.1","","99.64","","","","-50","","NA"
"-81.24","68.78","HALL BEACH A","2402354","2019-01-20 10:00","2019","01","20","10:00","-35.4","","-39.2","","69","","0.0","","31","","22","","12.9","","99.68","","","","-51","","NA"
"-81.24","68.78","HALL BEACH A","2402354","2019-01-20 11:00","2019","01","20","11:00","-35.6","","-39.6","","68","","0.0","","31","","22","","12.9","","99.66","","","","-51","","NA"
"-81.24","68.78","HALL BEACH A","2402354","2019-01-20 12:00","2019","01","20","12:00","-35.3","","-39.1","","69","","0.0","","32","","13","","16.1","","99.71","","","","-47","","NA"
"-81.24","68.78","HALL BEACH A","2402354","2019-01-20 13:00","2019","01","20","13:00","-35.2","","-39.0","","69","","0.0","","30","","28","","9.7","","99.71","","","","-52","","Haze"
"-81.24","68.78","HALL BEACH A","2402354","2019-01-20 14:00","2019","01","20","14:00","-36.4","","-40.5","","67","","0.0","","31","","17","","16.1","","99.74","","","","-50","","NA"
"-81.24","68.78","HALL BEACH A","2402354","2019-01-20 15:00","2019","01","20","15:00","-36.4","","-40.3","","68","","0.0","","30","","18","","9.7","","99.79","","","","-50","","Haze"
"-81.24","68.78","HALL BEACH A","2402354","2019-01-20 16:00","2019","01","20","16:00","-37.3","","-41.5","","66","","0.0","","30","","9","","16.1","","99.84","","","","-47","","NA"
"-81.24","68.78","HALL BEACH A","2402354","2019-01-20 17:00","2019","01","20","17:00","-37.2","","-41.3","","67","","0.0","","28","","8","","16.1","","99.87","","","","-46","","NA"
"-81.24","68.78","HALL BEACH A","2402354","2019-01-20 18:00","2019","01","20","18:00","-36.1","","-39.9","","69","","0.0","","25","","13","","16.1","","99.90","","","","-48","","NA"
"-81.24","68.78","HALL BEACH A","2402354","2019-01-20 19:00","2019","01","20","19:00","-33.9","","-37.6","","70","","0.0","","25","","4","","8.1","","99.89","","","","-39","","Snow"
"-81.24","68.78","HALL BEACH A","2402354","2019-01-20 20:00","2019","01","20","20:00","-34.2","","-37.9","","70","","0.0","","23","","5","","11.3","","99.92","","","","-40","","NA"
"-81.24","68.78","HALL BEACH A","2402354","2019-01-20 21:00","2019","01","20","21:00","-34.0","","-37.7","","70","","0.0","","","M","4","","4.0","","99.90","","","","-39","","Haze"
"-81.24","68.78","HALL BEACH A","2402354","2019-01-20 22:00","2019","01","20","22:00","-34.1","","-37.8","","70","","0.0","","22","","9","","2.0","","99.97","","","","-43","","Snow"
"-81.24","68.78","HALL BEACH A","2402354","2019-01-20 23:00","2019","01","20","23:00","-33.8","","-37.4","","71","","0.0","","25","","8","","12.9","","99.98","","","","-42","","NA"
"-81.24","68.78","HALL BEACH A","2402354","2019-01-21 00:00","2019","01","21","00:00","-34.3","","-37.9","","71","","0.0","","35","","11","","8.1","","99.96","","","","-45","","Haze"
"-81.24","68.78","HALL BEACH A","2402354","2019-01-21 01:00","2019","01","21","01:00","-32.3","","-35.6","","73","","0.0","","","M","8","","2.8","","99.93","","","","-41","","Snow"
"-81.24","68.78","HALL BEACH A","2402354","2019-01-21 02:00","2019","01","21","02:00","-29.0","","-32.1","","75","","0.0","","14","","18","","4.8","","99.93","","","","-41","","Snow"
"-81.24","68.78","HALL BEACH A","2402354","2019-01-21 03:00","2019","01","21","03:00","-29.2","","-32.4","","75","","0.0","","16","","17","","9.7","","99.92","","","","-41","","Haze"
"-81.24","68.78","HALL BEACH A","2402354","2019-01-21 04:00","2019","01","21","04:00","-28.8","","-31.9","","75","","0.0","","14","","21","","4.0","","99.96","","","","-42","","Haze"
"-81.24","68.78","HALL BEACH A","2402354","2019-01-21 05:00","2019","01","21","05:00","-29.3","","-32.4","","75","","0.0","","15","","15","","4.8","","99.99","","","","-41","","Haze"
"-81.24","68.78","HALL BEACH A","2402354","2019-01-21 06:00","2019","01","21","06:00","-29.8","","-33.1","","74","","0.0","","25","","9","","2.4","","99.99","","","","-38","","Haze"
"-81.24","68.78","HALL BEACH A","2402354","2019-01-21 07:00","2019","01","21","07:00","-34.9","","-38.9","","68","","0.0","","25","","9","","16.1","","100.02","","","","-44","","NA"
"-81.24","68.78","HALL BEACH A","2402354","2019-01-21 08:00","2019","01","21","08:00","-38.5","","-42.8","","65","","0.0","","25","","9","","16.1","","100.06","","","","-49","","NA"
"-81.24","68.78","HALL BEACH A","2402354","2019-01-21 09:00","2019","01","21","09:00","-38.3","","-42.5","","66","","0.0","","31","","21","","16.1","","100.09","","","","-54","","NA"
"-81.24","68.78","HALL BEACH A","2402354","2019-01-21 10:00","2019","01","21","10:00","-39.5","","-43.9","","64","","0.0","","32","","18","","16.1","","100.13","","","","-54","","NA"
"-81.24","68.78","HALL BEACH A","2402354","2019-01-21 11:00","2019","01","21","11:00","-39.9","","-44.3","","64","","0.0","","31","","22","","16.1","","100.18","","","","-56","","NA"
"-81.24","68.78","HALL BEACH A","2402354","2019-01-21 12:00","2019","01","21","12:00","-40.2","","-44.6","","64","","0.0","","32","","22","","16.1","","100.21","","","","-57","","NA"
"-81.24","68.78","HALL BEACH A","2402354","2019-01-21 13:00","2019","01","21","13:00","-40.4","","-44.9","","63","","0.0","","33","","21","","16.1","","100.23","","","","-57","","NA"
"-81.24","68.78","HALL BEACH A","2402354","2019-01-21 14:00","2019","01","21","14:00","-40.4","","-44.8","","64","","0.0","","32","","21","","16.1","","100.26","","","","-57","","NA"
"-81.24","68.78","HALL BEACH A","2402354","2019-01-21 15:00","2019","01","21","15:00","-40.7","","-45.2","","63","","0.0","","32","","21","","16.1","","100.29","","","","-57","","NA"
"-81.24","68.78","HALL BEACH A","2402354","2019-01-21 16:00","2019","01","21","16:00","-40.6","","-45.0","","64","","0.0","","32","","24","","16.1","","100.34","","","","-58","","NA"
"-81.24","68.78","HALL BEACH A","2402354","2019-01-21 17:00","2019","01","21","17:00","-40.7","","-45.1","","64","","0.0","","33","","24","","16.1","","100.36","","","","-58","","NA"
"-81.24","68.78","HALL BEACH A","2402354","2019-01-21 18:00","2019","01","21","18:00","-40.4","","-44.8","","64","","0.0","","32","","24","","16.1","","100.39","","","","-58","","NA"
"-81.24","68.78","HALL BEACH A","2402354","2019-01-21 19:00","2019","01","21","19:00","-40.4","","-44.8","","64","","0.0","","32","","22","","16.1","","100.36","","","","-57","","NA"
"-81.24","68.78","HALL BEACH A","2402354","2019-01-21 20:00","2019","01","21","20:00","-39.6","","-43.9","","65","","0.0","","32","","24","","16.1","","100.36","","","","-57","","Snow"
"-81.24","68.78","HALL BEACH A","2402354","2019-01-21 21:00","2019","01","21","21:00","-38.7","","-43.0","","65","","0.0","","32","","28","","3.6","","100.36","","","","-56","","Snow"
"-81.24","68.78","HALL BEACH A","2402354","2019-01-21 22:00","2019","01","21","22:00","-38.6","","-42.9","","65","","0.0","","32","","26","","6.4","","100.36","","","","-56","","Haze"
"-81.24","68.78","HALL BEACH A","2402354","2019-01-21 23:00","2019","01","21","23:00","-38.3","","-42.5","","66","","0.0","","32","","26","","4.8","","100.36","","","","-55","","Haze"
"-81.24","68.78","HALL BEACH A","2402354","2019-01-22 00:00","2019","01","22","00:00","-37.6","","-41.8","","66","","0.0","","31","","26","","9.7","","100.34","","","","-55","","Haze"
"-81.24","68.78","HALL BEACH A","2402354","2019-01-22 01:00","2019","01","22","01:00","-36.8","","-40.9","","67","","0.0","","31","","28","","6.4","","100.31","","","","-54","","Snow"
"-81.24","68.78","HALL BEACH A","2402354","2019-01-22 02:00","2019","01","22","02:00","-36.0","","-39.9","","68","","0.0","","31","","26","","4.0","","100.30","","","","-52","","Snow"
"-81.24","68.78","HALL BEACH A","2402354","2019-01-22 03:00","2019","01","22","03:00","-35.6","","-39.4","","69","","0.0","","31","","26","","4.0","","100.29","","","","-52","","Snow"
"-81.24","68.78","HALL BEACH A","2402354","2019-01-22 04:00","2019","01","22","04:00","-35.6","","-39.6","","68","","0.0","","31","","26","","4.0","","100.27","","","","-52","","Snow"
"-81.24","68.78","HALL BEACH A","2402354","2019-01-22 05:00","2019","01","22","05:00","-36.3","","-40.4","","67","","0.0","","31","","26","","6.4","","100.28","","","","-53","","Snow"
"-81.24","68.78","HALL BEACH A","2402354","2019-01-22 06:00","2019","01","22","06:00","-36.5","","-40.5","","67","","0.0","","31","","24","","16.1","","100.28","","","","-53","","NA"
"-81.24","68.78","HALL BEACH A","2402354","2019-01-22 07:00","2019","01","22","07:00","-36.3","","-40.2","","68","","0.0","","31","","26","","14.5","","100.23","","","","-53","","NA"
"-81.24","68.78","HALL BEACH A","2402354","2019-01-22 08:00","2019","01","22","08:00","-36.1","","-40.0","","68","","0.0","","31","","28","","14.5","","100.19","","","","-53","","NA"
"-81.24","68.78","HALL BEACH A","2402354","2019-01-22 09:00","2019","01","22","09:00","-36.1","","-40.0","","68","","0.0","","31","","26","","4.0","","100.17","","","","-53","","Snow"
"-81.24","68.78","HALL BEACH A","2402354","2019-01-22 10:00","2019","01","22","10:00","-35.7","","-39.7","","68","","0.0","","31","","26","","3.2","","100.14","","","","-52","","Snow"
"-81.24","68.78","HALL BEACH A","2402354","2019-01-22 11:00","2019","01","22","11:00","-35.8","","-39.8","","68","","0.0","","31","","28","","3.2","","100.11","","","","-53","","Snow"
"-81.24","68.78","HALL BEACH A","2402354","2019-01-22 12:00","2019","01","22","12:00","-35.7","","-39.7","","68","","0.0","","31","","30","","3.2","","100.12","","","","-53","","Haze"
"-81.24","68.78","HALL BEACH A","2402354","2019-01-22 13:00","2019","01","22","13:00","-35.9","","-39.9","","68","","0.0","","30","","34","","2.0","","100.10","","","","-54","","Snow"
"-81.24","68.78","HALL BEACH A","2402354","2019-01-22 14:00","2019","01","22","14:00","-36.4","","-40.3","","68","","0.0","","30","","30","","2.8","","100.09","","","","-54","","Snow"
"-81.24","68.78","HALL BEACH A","2402354","2019-01-22 15:00","2019","01","22","15:00","-35.9","","-39.9","","68","","0.0","","30","","34","","2.0","","100.08","","","","-54","","Snow"
"-81.24","68.78","HALL BEACH A","2402354","2019-01-22 16:00","2019","01","22","16:00","-36.0","","-39.9","","68","","0.0","","29","","30","","2.0","","100.09","","","","-53","","Snow"
"-81.24","68.78","HALL BEACH A","2402354","2019-01-22 17:00","2019","01","22","17:00","-36.6","","-40.7","","67","","0.0","","29","","28","","6.4","","100.12","","","","-54","","Haze"
"-81.24","68.78","HALL BEACH A","2402354","2019-01-22 18:00","2019","01","22","18:00","-37.8","","-42.0","","66","","0.0","","27","","22","","16.1","","100.17","","","","-54","","NA"
"-81.24","68.78","HALL BEACH A","2402354","2019-01-22 19:00","2019","01","22","19:00","-38.3","","-42.6","","65","","0.0","","26","","22","","16.1","","100.21","","","","-54","","NA"
"-81.24","68.78","HALL BEACH A","2402354","2019-01-22 20:00","2019","01","22","20:00","-39.3","","-43.6","","65","","0.0","","27","","21","","16.1","","100.21","","","","-55","","NA"
"-81.24","68.78","HALL BEACH A","2402354","2019-01-22 21:00","2019","01","22","21:00","-40.4","","-44.9","","63","","0.0","","25","","15","","16.1","","100.21","","","","-54","","NA"
"-81.24","68.78","HALL BEACH A","2402354","2019-01-22 22:00","2019","01","22","22:00","-41.0","","-45.5","","63","","0.0","","25","","17","","16.1","","100.21","","","","-56","","NA"
"-81.24","68.78","HALL BEACH A","2402354","2019-01-22 23:00","2019","01","22","23:00","-41.0","","-45.5","","63","","0.0","","26","","15","","16.1","","100.25","","","","-55","","NA"
"-81.24","68.78","HALL BEACH A","2402354","2019-01-23 00:00","2019","01","23","00:00","-40.4","","-44.9","","63","","0.0","","26","","13","","16.1","","100.28","","","","-53","","NA"
"-81.24","68.78","HALL BEACH A","2402354","2019-01-23 01:00","2019","01","23","01:00","-39.6","","-44.0","","64","","0.0","","26","","15","","8.1","","100.30","","","","-53","","Haze"
"-81.24","68.78","HALL BEACH A","2402354","2019-01-23 02:00","2019","01","23","02:00","-40.0","","-44.4","","64","","0.0","","26","","11","","11.3","","100.31","","","","-52","","NA"
"-81.24","68.78","HALL BEACH A","2402354","2019-01-23 03:00","2019","01","23","03:00","-40.9","","-45.4","","63","","0.0","","29","","13","","16.1","","100.30","","","","-54","","NA"
"-81.24","68.78","HALL BEACH A","2402354","2019-01-23 04:00","2019","01","23","04:00","-40.8","","-45.3","","63","","0.0","","29","","15","","16.1","","100.36","","","","-55","","NA"
"-81.24","68.78","HALL BEACH A","2402354","2019-01-23 05:00","2019","01","23","05:00","-41.1","","-45.6","","63","","0.0","","31","","11","","9.7","","100.37","","","","-53","","Haze"
"-81.24","68.78","HALL BEACH A","2402354","2019-01-23 06:00","2019","01","23","06:00","-41.2","","-45.7","","63","","0.0","","30","","5","","9.7","","100.39","","","","-48","","Haze"
"-81.24","68.78","HALL BEACH A","2402354","2019-01-23 07:00","2019","01","23","07:00","-40.9","","-45.3","","64","","0.0","","29","","13","","16.1","","100.38","","","","-54","","NA"
"-81.24","68.78","HALL BEACH A","2402354","2019-01-23 08:00","2019","01","23","08:00","-41.7","","-46.3","","62","","0.0","","32","","13","","16.1","","100.37","","","","-55","","NA"
"-81.24","68.78","HALL BEACH A","2402354","2019-01-23 09:00","2019","01","23","09:00","-41.7","","-46.3","","62","","0.0","","32","","11","","16.1","","100.36","","","","-54","","NA"
"-81.24","68.78","HALL BEACH A","2402354","2019-01-23 10:00","2019","01","23","10:00","-41.3","","-46.0","","62","","0.0","","30","","9","","11.3","","100.39","","","","-52","","NA"
"-81.24","68.78","HALL BEACH A","2402354","2019-01-23 11:00","2019","01","23","11:00","-42.7","","-47.5","","61","","0.0","","32","","11","","12.9","","100.44","","","","-55","","NA"
"-81.24","68.78","HALL BEACH A","2402354","2019-01-23 12:00","2019","01","23","12:00","-40.0","","-44.4","","64","","0.0","","33","","17","","6.4","","100.45","","","","-55","","Snow"
"-81.24","68.78","HALL BEACH A","2402354","2019-01-23 13:00","2019","01","23","13:00","-39.1","","-43.4","","65","","0.0","","32","","13","","1.6","","100.49","","","","-52","","Haze"
"-81.24","68.78","HALL BEACH A","2402354","2019-01-23 14:00","2019","01","23","14:00","-39.2","","-43.6","","64","","0.0","","32","","13","","1.6","","100.57","","","","-52","","Haze"
"-81.24","68.78","HALL BEACH A","2402354","2019-01-23 15:00","2019","01","23","15:00","-39.3","","-43.6","","65","","0.0","","33","","9","","1.6","","100.63","","","","-50","","Haze"
"-81.24","68.78","HALL BEACH A","2402354","2019-01-23 16:00","2019","01","23","16:00","-39.9","","-44.3","","64","","0.0","","35","","11","","2.8","","100.64","","","","-52","","Haze"
"-81.24","68.78","HALL BEACH A","2402354","2019-01-23 17:00","2019","01","23","17:00","-40.1","","-44.7","","63","","0.0","","35","","13","","3.2","","100.69","","","","-53","","Haze"
"-81.24","68.78","HALL BEACH A","2402354","2019-01-23 18:00","2019","01","23","18:00","-38.7","","-42.7","","67","","0.0","","","M","4","","6.4","","100.71","","","","-44","","Haze"
"-81.24","68.78","HALL BEACH A","2402354","2019-01-23 19:00","2019","01","23","19:00","-34.9","","-38.9","","68","","0.0","","15","","17","","12.9","","100.75","","","","-48","","NA"
"-81.24","68.78","HALL BEACH A","2402354","2019-01-23 20:00","2019","01","23","20:00","-34.8","","-38.8","","68","","0.0","","15","","13","","11.3","","100.81","","","","-46","","NA"
"-81.24","68.78","HALL BEACH A","2402354","2019-01-23 21:00","2019","01","23","21:00","-34.4","","-38.1","","70","","0.0","","14","","18","","4.8","","100.83","","","","-48","","Haze"
"-81.24","68.78","HALL BEACH A","2402354","2019-01-23 22:00","2019","01","23","22:00","-34.9","","-38.7","","69","","0.0","","16","","18","","6.4","","100.85","","","","-49","","Haze"
"-81.24","68.78","HALL BEACH A","2402354","2019-01-23 23:00","2019","01","23","23:00","-34.4","","-38.1","","70","","0.0","","15","","13","","4.0","","100.89","","","","-46","","Haze"
"-81.24","68.78","HALL BEACH A","2402354","2019-01-24 00:00","2019","01","24","00:00","-34.1","","-37.8","","70","","0.0","","15","","17","","14.5","","100.94","","","","-47","","NA"
"-81.24","68.78","HALL BEACH A","2402354","2019-01-24 01:00","2019","01","24","01:00","-33.9","","-37.5","","71","","0.0","","16","","17","","8.1","","101.02","","","","-47","","Haze"
"-81.24","68.78","HALL BEACH A","2402354","2019-01-24 02:00","2019","01","24","02:00","-35.8","","-39.8","","68","","0.0","","21","","8","","12.9","","101.07","","","","-45","","NA"
"-81.24","68.78","HALL BEACH A","2402354","2019-01-24 03:00","2019","01","24","03:00","-35.4","","-39.3","","69","","0.0","","17","","15","","16.1","","101.10","","","","-48","","NA"
"-81.24","68.78","HALL BEACH A","2402354","2019-01-24 04:00","2019","01","24","04:00","-35.6","","-39.6","","68","","0.0","","15","","17","","16.1","","101.14","","","","-49","","NA"
"-81.24","68.78","HALL BEACH A","2402354","2019-01-24 05:00","2019","01","24","05:00","-34.6","","-38.4","","69","","0.0","","16","","15","","16.1","","101.19","","","","-47","","NA"
"-81.24","68.78","HALL BEACH A","2402354","2019-01-24 06:00","2019","01","24","06:00","-34.7","","-38.5","","69","","0.0","","16","","13","","16.1","","101.24","","","","-46","","NA"
"-81.24","68.78","HALL BEACH A","2402354","2019-01-24 07:00","2019","01","24","07:00","-35.0","","-39.0","","68","","0.0","","16","","9","","16.1","","101.27","","","","-45","","NA"
"-81.24","68.78","HALL BEACH A","2402354","2019-01-24 08:00","2019","01","24","08:00","-34.5","","-38.2","","70","","0.0","","14","","11","","16.1","","101.31","","","","-45","","NA"
"-81.24","68.78","HALL BEACH A","2402354","2019-01-24 09:00","2019","01","24","09:00","-33.5","","-37.1","","71","","0.0","","","M","4","","14.5","","101.36","","","","-38","","NA"
"-81.24","68.78","HALL BEACH A","2402354","2019-01-24 10:00","2019","01","24","10:00","-42.3","","-47.0","","62","","0.0","","36","","8","","9.7","","101.41","","","","-52","","Haze"
"-81.24","68.78","HALL BEACH A","2402354","2019-01-24 11:00","2019","01","24","11:00","-41.9","","-46.5","","62","","0.0","","35","","15","","16.1","","101.42","","","","-56","","NA"
"-81.24","68.78","HALL BEACH A","2402354","2019-01-24 12:00","2019","01","24","12:00","-38.4","","-42.6","","66","","0.0","","34","","21","","16.1","","101.46","","","","-54","","NA"
"-81.24","68.78","HALL BEACH A","2402354","2019-01-24 13:00","2019","01","24","13:00","-37.9","","-42.1","","66","","0.0","","34","","21","","2.4","","101.46","","","","-53","","Snow"
"-81.24","68.78","HALL BEACH A","2402354","2019-01-24 14:00","2019","01","24","14:00","-38.7","","-43.0","","65","","0.0","","34","","24","","9.7","","101.47","","","","-55","","Snow"
"-81.24","68.78","HALL BEACH A","2402354","2019-01-24 15:00","2019","01","24","15:00","-38.0","","-42.2","","66","","0.0","","34","","21","","3.6","","101.47","","","","-54","","Snow"
"-81.24","68.78","HALL BEACH A","2402354","2019-01-24 16:00","2019","01","24","16:00","-37.6","","-41.8","","66","","0.0","","35","","22","","3.2","","101.50","","","","-53","","Snow"
"-81.24","68.78","HALL BEACH A","2402354","2019-01-24 17:00","2019","01","24","17:00","-37.5","","-41.5","","67","","0.0","","35","","21","","4.8","","101.54","","","","-53","","Snow"
"-81.24","68.78","HALL BEACH A","2402354","2019-01-24 18:00","2019","01","24","18:00","-35.4","","-39.2","","69","","0.0","","35","","21","","4.0","","101.55","","","","-50","","Snow"
"-81.24","68.78","HALL BEACH A","2402354","2019-01-24 19:00","2019","01","24","19:00","-34.4","","-38.4","","68","","0.0","","35","","24","","4.0","","101.57","","","","-50","","Snow"
"-81.24","68.78","HALL BEACH A","2402354","2019-01-24 20:00","2019","01","24","20:00","-34.6","","-38.4","","69","","0.0","","35","","26","","2.0","","101.56","","","","-51","","Snow"
"-81.24","68.78","HALL BEACH A","2402354","2019-01-24 21:00","2019","01","24","21:00","-34.9","","-38.7","","69","","0.0","","35","","28","","2.0","","101.54","","","","-52","","Snow"
"-81.24","68.78","HALL BEACH A","2402354","2019-01-24 22:00","2019","01","24","22:00","-35.6","","-39.6","","68","","0.0","","35","","28","","2.0","","101.56","","","","-52","","Snow"
"-81.24","68.78","HALL BEACH A","2402354","2019-01-24 23:00","2019","01","24","23:00","-35.3","","-39.1","","69","","0.0","","35","","34","","1.6","","101.54","","","","-53","","Snow"
"-81.24","68.78","HALL BEACH A","2402354","2019-01-25 00:00","2019","01","25","00:00","-34.5","","-38.3","","69","","0.0","","35","","30","","2.0","","101.51","","","","-51","","Snow"
"-81.24","68.78","HALL BEACH A","2402354","2019-01-25 01:00","2019","01","25","01:00","-34.5","","-38.3","","69","","0.0","","35","","34","","1.6","","101.50","","","","-52","","Snow"
"-81.24","68.78","HALL BEACH A","2402354","2019-01-25 02:00","2019","01","25","02:00","-34.6","","-38.4","","69","","0.0","","35","","35","","1.0","","101.49","","","","-53","","Snow"
"-81.24","68.78","HALL BEACH A","2402354","2019-01-25 03:00","2019","01","25","03:00","-34.1","","-37.8","","70","","0.0","","35","","34","","1.2","","101.50","","","","-52","","Snow"
"-81.24","68.78","HALL BEACH A","2402354","2019-01-25 04:00","2019","01","25","04:00","-33.8","","-37.5","","70","","0.0","","35","","32","","1.2","","101.48","","","","-51","","Snow"
"-81.24","68.78","HALL BEACH A","2402354","2019-01-25 05:00","2019","01","25","05:00","-33.7","","-37.4","","70","","0.0","","35","","32","","1.2","","101.47","","","","-51","","Snow"
"-81.24","68.78","HALL BEACH A","2402354","2019-01-25 06:00","2019","01","25","06:00","-33.8","","-37.5","","70","","0.0","","35","","30","","1.6","","101.47","","","","-51","","Snow"
"-81.24","68.78","HALL BEACH A","2402354","2019-01-25 07:00","2019","01","25","07:00","-34.2","","-37.9","","70","","0.0","","35","","32","","1.6","","101.46","","","","-52","","Snow"
"-81.24","68.78","HALL BEACH A","2402354","2019-01-25 08:00","2019","01","25","08:00","-33.8","","-37.5","","70","","0.0","","35","","32","","1.6","","101.48","","","","-51","","Snow"
"-81.24","68.78","HALL BEACH A","2402354","2019-01-25 09:00","2019","01","25","09:00","-34.0","","-37.7","","70","","0.0","","35","","28","","2.0","","101.45","","","","-50","","Snow"
"-81.24","68.78","HALL BEACH A","2402354","2019-01-25 10:00","2019","01","25","10:00","-33.6","","-37.3","","70","","0.0","","35","","30","","1.0","","101.43","","","","-50","","Snow"
"-81.24","68.78","HALL BEACH A","2402354","2019-01-25 11:00","2019","01","25","11:00","-33.9","","-37.6","","70","","0.0","","36","","24","","1.2","","101.44","","","","-49","","Snow"
"-81.24","68.78","HALL BEACH A","2402354","2019-01-25 12:00","2019","01","25","12:00","-26.7","","-29.5","","78","","0.0","","3","","28","","1.2","","101.46","","","","-41","","Snow"
"-81.24","68.78","HALL BEACH A","2402354","2019-01-25 13:00","2019","01","25","13:00","-26.0","","-28.8","","78","","0.0","","3","","28","","3.6","","101.43","","","","-40","","Snow"
"-81.24","68.78","HALL BEACH A","2402354","2019-01-25 14:00","2019","01","25","14:00","-31.2","","-34.9","","71","","0.0","","36","","21","","1.6","","101.45","","","","-45","","Snow"
"-81.24","68.78","HALL BEACH A","2402354","2019-01-25 15:00","2019","01","25","15:00","-33.6","","-37.5","","69","","0.0","","35","","28","","1.0","","101.43","","","","-50","","Snow"
"-81.24","68.78","HALL BEACH A","2402354","2019-01-25 16:00","2019","01","25","16:00","-34.2","","-37.9","","70","","0.0","","35","","30","","1.2","","101.40","","","","-51","","Haze"
"-81.24","68.78","HALL BEACH A","2402354","2019-01-25 17:00","2019","01","25","17:00","-34.1","","-37.8","","70","","0.0","","35","","34","","1.2","","101.37","","","","-52","","Snow"
"-81.24","68.78","HALL BEACH A","2402354","2019-01-25 18:00","2019","01","25","18:00","-34.0","","-37.7","","70","","0.0","","35","","32","","1.6","","101.35","","","","-51","","Snow"
"-81.24","68.78","HALL BEACH A","2402354","2019-01-25 19:00","2019","01","25","19:00","-34.2","","-37.9","","70","","0.0","","35","","34","","1.6","","101.37","","","","-52","","Snow"
"-81.24","68.78","HALL BEACH A","2402354","2019-01-25 20:00","2019","01","25","20:00","-33.9","","-37.6","","70","","0.0","","35","","30","","2.0","","101.34","","","","-51","","Snow"
"-81.24","68.78","HALL BEACH A","2402354","2019-01-25 21:00","2019","01","25","21:00","-33.3","","-36.9","","71","","0.0","","35","","34","","2.0","","101.32","","","","-51","","Snow"
"-81.24","68.78","HALL BEACH A","2402354","2019-01-25 22:00","2019","01","25","22:00","-33.2","","-36.8","","71","","0.0","","35","","34","","1.6","","101.26","","","","-51","","Snow"
"-81.24","68.78","HALL BEACH A","2402354","2019-01-25 23:00","2019","01","25","23:00","-33.0","","-36.6","","71","","0.0","","35","","34","","2.4","","101.23","","","","-50","","Snow"
"-81.24","68.78","HALL BEACH A","2402354","2019-01-26 00:00","2019","01","26","00:00","-32.8","","-36.3","","72","","0.0","","35","","37","","1.6","","101.17","","","","-51","","Snow"
"-81.24","68.78","HALL BEACH A","2402354","2019-01-26 01:00","2019","01","26","01:00","-32.4","","-35.9","","72","","0.0","","36","","34","","1.6","","101.13","","","","-50","","Snow"
"-81.24","68.78","HALL BEACH A","2402354","2019-01-26 02:00","2019","01","26","02:00","-32.5","","-36.0","","72","","0.0","","35","","37","","2.0","","101.10","","","","-50","","Snow"
"-81.24","68.78","HALL BEACH A","2402354","2019-01-26 03:00","2019","01","26","03:00","-32.4","","-35.9","","72","","0.0","","35","","34","","3.2","","101.07","","","","-50","","Haze"
"-81.24","68.78","HALL BEACH A","2402354","2019-01-26 04:00","2019","01","26","04:00","-31.8","","-35.3","","72","","0.0","","35","","39","","1.6","","101.01","","","","-50","","Snow"
"-81.24","68.78","HALL BEACH A","2402354","2019-01-26 05:00","2019","01","26","05:00","-32.2","","-35.7","","72","","0.0","","35","","39","","2.0","","100.98","","","","-50","","Snow"
"-81.24","68.78","HALL BEACH A","2402354","2019-01-26 06:00","2019","01","26","06:00","-32.2","","-35.7","","72","","0.0","","35","","34","","4.8","","100.96","","","","-49","","Haze"
"-81.24","68.78","HALL BEACH A","2402354","2019-01-26 07:00","2019","01","26","07:00","-32.4","","-35.9","","72","","0.0","","34","","34","","4.8","","100.98","","","","-50","","Haze"
"-81.24","68.78","HALL BEACH A","2402354","2019-01-26 08:00","2019","01","26","08:00","-33.4","","-37.0","","71","","0.0","","34","","28","","4.8","","100.89","","","","-50","","Haze"
"-81.24","68.78","HALL BEACH A","2402354","2019-01-26 09:00","2019","01","26","09:00","-32.8","","-36.4","","71","","0.0","","34","","34","","3.2","","100.87","","","","-50","","Haze"
"-81.24","68.78","HALL BEACH A","2402354","2019-01-26 10:00","2019","01","26","10:00","-32.7","","-36.3","","71","","0.0","","34","","32","","4.8","","100.85","","","","-50","","Haze"
"-81.24","68.78","HALL BEACH A","2402354","2019-01-26 11:00","2019","01","26","11:00","-33.3","","-37.0","","70","","0.0","","34","","30","","3.2","","100.84","","","","-50","","Haze"
"-81.24","68.78","HALL BEACH A","2402354","2019-01-26 12:00","2019","01","26","12:00","-32.9","","-36.5","","71","","0.0","","34","","32","","3.6","","100.76","","","","-50","","Haze"
"-81.24","68.78","HALL BEACH A","2402354","2019-01-26 13:00","2019","01","26","13:00","-33.2","","-36.8","","71","","0.0","","34","","32","","6.4","","100.72","","","","-50","","Haze"
"-81.24","68.78","HALL BEACH A","2402354","2019-01-26 14:00","2019","01","26","14:00","-33.0","","-36.6","","71","","0.0","","34","","26","","16.1","","100.68","","","","-49","","NA"
"-81.24","68.78","HALL BEACH A","2402354","2019-01-26 15:00","2019","01","26","15:00","-32.8","","-36.4","","71","","0.0","","34","","28","","12.9","","100.66","","","","-49","","NA"
"-81.24","68.78","HALL BEACH A","2402354","2019-01-26 16:00","2019","01","26","16:00","-32.8","","-36.4","","71","","0.0","","34","","34","","6.4","","100.61","","","","-50","","Haze"
"-81.24","68.78","HALL BEACH A","2402354","2019-01-26 17:00","2019","01","26","17:00","-32.6","","-36.1","","72","","0.0","","34","","30","","11.3","","100.62","","","","-49","","NA"
"-81.24","68.78","HALL BEACH A","2402354","2019-01-26 18:00","2019","01","26","18:00","-33.3","","-37.0","","70","","0.0","","33","","26","","16.1","","100.56","","","","-49","","NA"
"-81.24","68.78","HALL BEACH A","2402354","2019-01-26 19:00","2019","01","26","19:00","-34.5","","-38.3","","69","","0.0","","32","","28","","16.1","","100.56","","","","-51","","NA"
"-81.24","68.78","HALL BEACH A","2402354","2019-01-26 20:00","2019","01","26","20:00","-35.3","","-39.1","","69","","0.0","","32","","34","","8.1","","100.46","","","","-53","","Haze"
"-81.24","68.78","HALL BEACH A","2402354","2019-01-26 21:00","2019","01","26","21:00","-34.9","","-38.6","","70","","0.0","","34","","22","","16.1","","100.49","","","","-50","","NA"
"-81.24","68.78","HALL BEACH A","2402354","2019-01-26 22:00","2019","01","26","22:00","-33.4","","-37.0","","71","","0.0","","33","","35","","4.8","","100.35","","","","-51","","Haze"
"-81.24","68.78","HALL BEACH A","2402354","2019-01-26 23:00","2019","01","26","23:00","-33.0","","-36.6","","71","","0.0","","33","","28","","8.1","","100.39","","","","-49","","Haze"
"-81.24","68.78","HALL BEACH A","2402354","2019-01-27 00:00","2019","01","27","00:00","-34.1","","-37.8","","70","","0.0","","33","","28","","16.1","","100.35","","","","-50","","NA"
"-81.24","68.78","HALL BEACH A","2402354","2019-01-27 01:00","2019","01","27","01:00","-34.1","","-37.8","","70","","0.0","","33","","32","","12.9","","100.32","","","","-51","","NA"
"-81.24","68.78","HALL BEACH A","2402354","2019-01-27 02:00","2019","01","27","02:00","-34.5","","-38.3","","69","","0.0","","33","","30","","4.0","","100.32","","","","-51","","Haze"
"-81.24","68.78","HALL BEACH A","2402354","2019-01-27 03:00","2019","01","27","03:00","-34.8","","-38.6","","69","","0.0","","33","","34","","4.8","","100.32","","","","-53","","Haze"
"-81.24","68.78","HALL BEACH A","2402354","2019-01-27 04:00","2019","01","27","04:00","-34.8","","-38.6","","69","","0.0","","33","","34","","6.4","","100.32","","","","-53","","Haze"
"-81.24","68.78","HALL BEACH A","2402354","2019-01-27 05:00","2019","01","27","05:00","-34.8","","-38.6","","69","","0.0","","34","","28","","12.9","","100.33","","","","-51","","NA"
"-81.24","68.78","HALL BEACH A","2402354","2019-01-27 06:00","2019","01","27","06:00","-35.2","","-39.0","","69","","0.0","","33","","28","","16.1","","100.33","","","","-52","","NA"
"-81.24","68.78","HALL BEACH A","2402354","2019-01-27 07:00","2019","01","27","07:00","-34.9","","-38.7","","69","","0.0","","32","","28","","16.1","","100.34","","","","-52","","NA"
"-81.24","68.78","HALL BEACH A","2402354","2019-01-27 08:00","2019","01","27","08:00","-35.1","","-38.9","","69","","0.0","","32","","30","","9.7","","100.33","","","","-52","","Haze"
"-81.24","68.78","HALL BEACH A","2402354","2019-01-27 09:00","2019","01","27","09:00","-35.2","","-39.0","","69","","0.0","","32","","34","","2.4","","100.37","","","","-53","","Haze"
"-81.24","68.78","HALL BEACH A","2402354","2019-01-27 10:00","2019","01","27","10:00","-35.3","","-39.1","","69","","0.0","","32","","35","","2.8","","100.36","","","","-54","","Haze"
"-81.24","68.78","HALL BEACH A","2402354","2019-01-27 11:00","2019","01","27","11:00","-34.8","","-38.6","","69","","0.0","","32","","34","","2.4","","100.34","","","","-53","","Haze"
"-81.24","68.78","HALL BEACH A","2402354","2019-01-27 12:00","2019","01","27","12:00","-34.4","","-38.3","","69","","0.0","","32","","32","","4.8","","100.40","","","","-52","","Haze"
"-81.24","68.78","HALL BEACH A","2402354","2019-01-27 13:00","2019","01","27","13:00","-34.0","","-37.7","","70","","0.0","","32","","32","","4.0","","100.39","","","","-51","","Haze"
"-81.24","68.78","HALL BEACH A","2402354","2019-01-27 14:00","2019","01","27","14:00","-33.6","","-37.3","","70","","0.0","","32","","30","","4.8","","100.40","","","","-50","","Haze"
"-81.24","68.78","HALL BEACH A","2402354","2019-01-27 15:00","2019","01","27","15:00","-33.3","","-36.9","","71","","0.0","","32","","30","","12.9","","100.44","","","","-50","","NA"
"-81.24","68.78","HALL BEACH A","2402354","2019-01-27 16:00","2019","01","27","16:00","-33.0","","-36.6","","71","","0.0","","32","","39","","2.8","","100.40","","","","-51","","Haze"
"-81.24","68.78","HALL BEACH A","2402354","2019-01-27 17:00","2019","01","27","17:00","-32.7","","-36.3","","71","","0.0","","32","","37","","2.0","","100.40","","","","-51","","Haze"
"-81.24","68.78","HALL BEACH A","2402354","2019-01-27 18:00","2019","01","27","18:00","-32.4","","-35.9","","72","","0.0","","33","","30","","8.1","","100.49","","","","-49","","Haze"
"-81.24","68.78","HALL BEACH A","2402354","2019-01-27 19:00","2019","01","27","19:00","-32.4","","-36.0","","71","","0.0","","32","","30","","16.1","","100.56","","","","-49","","NA"
"-81.24","68.78","HALL BEACH A","2402354","2019-01-27 20:00","2019","01","27","20:00","-33.0","","-36.6","","71","","0.0","","31","","37","","4.8","","100.51","","","","-51","","Haze"
"-81.24","68.78","HALL BEACH A","2402354","2019-01-27 21:00","2019","01","27","21:00","-33.7","","-37.4","","70","","0.0","","32","","32","","9.7","","100.55","","","","-51","","Haze"
"-81.24","68.78","HALL BEACH A","2402354","2019-01-27 22:00","2019","01","27","22:00","-33.9","","-37.6","","70","","0.0","","32","","34","","6.4","","100.52","","","","-52","","Haze"
"-81.24","68.78","HALL BEACH A","2402354","2019-01-27 23:00","2019","01","27","23:00","-32.8","","-36.4","","71","","0.0","","32","","35","","4.8","","100.59","","","","-50","","Haze"
"-81.24","68.78","HALL BEACH A","2402354","2019-01-28 00:00","2019","01","28","00:00","-32.2","","-35.7","","72","","0.0","","32","","37","","6.4","","100.57","","","","-50","","Haze"
"-81.24","68.78","HALL BEACH A","2402354","2019-01-28 01:00","2019","01","28","01:00","-31.8","","-35.3","","72","","0.0","","32","","35","","3.2","","100.58","","","","-49","","Haze"
"-81.24","68.78","HALL BEACH A","2402354","2019-01-28 02:00","2019","01","28","02:00","-31.3","","-34.7","","73","","0.0","","32","","34","","4.8","","100.64","","","","-48","","Haze"
"-81.24","68.78","HALL BEACH A","2402354","2019-01-28 03:00","2019","01","28","03:00","-31.0","","-34.4","","73","","0.0","","32","","34","","6.4","","100.71","","","","-48","","Haze"
"-81.24","68.78","HALL BEACH A","2402354","2019-01-28 04:00","2019","01","28","04:00","-31.4","","-34.8","","73","","0.0","","32","","41","","1.6","","100.65","","","","-50","","Snow,Blowing Snow"
"-81.24","68.78","HALL BEACH A","2402354","2019-01-28 05:00","2019","01","28","05:00","-31.5","","-34.9","","73","","0.0","","33","","35","","1.6","","100.70","","","","-49","","Snow"
"-81.24","68.78","HALL BEACH A","2402354","2019-01-28 06:00","2019","01","28","06:00","-31.1","","-34.5","","73","","0.0","","33","","34","","1.2","","100.79","","","","-48","","Snow"
"-81.24","68.78","HALL BEACH A","2402354","2019-01-28 07:00","2019","01","28","07:00","-30.9","","-34.3","","73","","0.0","","32","","34","","2.0","","100.79","","","","-48","","Snow"
"-81.24","68.78","HALL BEACH A","2402354","2019-01-28 08:00","2019","01","28","08:00","-30.8","","-34.2","","73","","0.0","","33","","34","","2.8","","100.82","","","","-47","","Snow"
"-81.24","68.78","HALL BEACH A","2402354","2019-01-28 09:00","2019","01","28","09:00","-30.4","","-33.6","","74","","0.0","","32","","34","","2.0","","100.88","","","","-47","","Snow"
"-81.24","68.78","HALL BEACH A","2402354","2019-01-28 10:00","2019","01","28","10:00","-30.2","","-33.4","","74","","0.0","","32","","30","","1.6","","100.91","","","","-46","","Snow"
"-81.24","68.78","HALL BEACH A","2402354","2019-01-28 11:00","2019","01","28","11:00","-30.6","","-34.0","","73","","0.0","","33","","32","","2.4","","100.94","","","","-47","","Snow"
"-81.24","68.78","HALL BEACH A","2402354","2019-01-28 12:00","2019","01","28","12:00","-30.9","","-34.3","","73","","0.0","","33","","26","","12.9","","101.02","","","","-46","","NA"
"-81.24","68.78","HALL BEACH A","2402354","2019-01-28 13:00","2019","01","28","13:00","-30.3","","-33.5","","74","","0.0","","32","","30","","4.0","","101.02","","","","-46","","Snow"
"-81.24","68.78","HALL BEACH A","2402354","2019-01-28 14:00","2019","01","28","14:00","-30.6","","-33.8","","74","","0.0","","32","","24","","16.1","","101.07","","","","-45","","NA"
"-81.24","68.78","HALL BEACH A","2402354","2019-01-28 15:00","2019","01","28","15:00","-29.8","","-33.1","","74","","0.0","","32","","28","","4.8","","101.11","","","","-45","","Snow"
"-81.24","68.78","HALL BEACH A","2402354","2019-01-28 16:00","2019","01","28","16:00","-29.4","","-32.5","","75","","0.0","","33","","26","","3.6","","101.16","","","","-44","","Snow"
"-81.24","68.78","HALL BEACH A","2402354","2019-01-28 17:00","2019","01","28","17:00","-28.5","","-31.5","","76","","0.0","","33","","32","","2.4","","101.23","","","","-44","","Snow"
"-81.24","68.78","HALL BEACH A","2402354","2019-01-28 18:00","2019","01","28","18:00","-27.4","","-30.3","","77","","0.0","","34","","34","","1.0","","101.24","","","","-43","","Snow"
"-81.24","68.78","HALL BEACH A","2402354","2019-01-28 19:00","2019","01","28","19:00","-27.2","","-30.1","","77","","0.0","","34","","35","","0.6","","101.29","","","","-43","","Moderate Snow"
"-81.24","68.78","HALL BEACH A","2402354","2019-01-28 20:00","2019","01","28","20:00","-26.8","","-29.7","","77","","0.0","","33","","37","","0.4","","101.34","","","","-43","","Heavy Snow"
"-81.24","68.78","HALL BEACH A","2402354","2019-01-28 21:00","2019","01","28","21:00","-26.8","","-29.7","","77","","0.0","","33","","39","","0.6","","101.37","","","","-43","","Moderate Snow"
"-81.24","68.78","HALL BEACH A","2402354","2019-01-28 22:00","2019","01","28","22:00","-26.5","","-29.3","","78","","0.0","","33","","32","","0.6","","101.43","","","","-41","","Moderate Snow"
"-81.24","68.78","HALL BEACH A","2402354","2019-01-28 23:00","2019","01","28","23:00","-25.3","","-28.0","","79","","0.0","","34","","28","","1.2","","101.44","","","","-39","","Snow"
"-81.24","68.78","HALL BEACH A","2402354","2019-01-29 00:00","2019","01","29","00:00","-24.9","","-27.6","","79","","0.0","","34","","28","","1.2","","101.48","","","","-39","","Snow"
"-81.24","68.78","HALL BEACH A","2402354","2019-01-29 01:00","2019","01","29","01:00","-24.5","","-27.0","","80","","0.0","","33","","30","","1.2","","101.52","","","","-38","","Snow"
"-81.24","68.78","HALL BEACH A","2402354","2019-01-29 02:00","2019","01","29","02:00","-24.4","","-26.9","","80","","0.0","","32","","28","","1.6","","101.56","","","","-38","","Snow"
"-81.24","68.78","HALL BEACH A","2402354","2019-01-29 03:00","2019","01","29","03:00","-24.6","","-27.3","","79","","0.0","","32","","28","","2.0","","101.60","","","","-38","","Snow"
"-81.24","68.78","HALL BEACH A","2402354","2019-01-29 04:00","2019","01","29","04:00","-24.2","","-26.7","","80","","0.0","","33","","30","","2.4","","101.64","","","","-38","","Snow"
"-81.24","68.78","HALL BEACH A","2402354","2019-01-29 05:00","2019","01","29","05:00","-24.1","","-26.6","","80","","0.0","","33","","30","","2.8","","101.69","","","","-38","","Snow"
"-81.24","68.78","HALL BEACH A","2402354","2019-01-29 06:00","2019","01","29","06:00","-24.2","","-26.7","","80","","0.0","","32","","32","","6.4","","101.71","","","","-38","","Haze"
"-81.24","68.78","HALL BEACH A","2402354","2019-01-29 07:00","2019","01","29","07:00","-25.4","","-28.1","","79","","0.0","","32","","32","","1.6","","101.75","","","","-40","","Snow"
"-81.24","68.78","HALL BEACH A","2402354","2019-01-29 08:00","2019","01","29","08:00","-24.3","","-26.8","","80","","0.0","","33","","30","","2.0","","101.77","","","","-38","","Snow"
"-81.24","68.78","HALL BEACH A","2402354","2019-01-29 09:00","2019","01","29","09:00","-24.2","","-26.7","","80","","0.0","","33","","32","","1.6","","101.79","","","","-38","","Snow"
"-81.24","68.78","HALL BEACH A","2402354","2019-01-29 10:00","2019","01","29","10:00","-24.6","","-27.1","","80","","0.0","","32","","26","","1.6","","101.80","","","","-38","","Snow"
"-81.24","68.78","HALL BEACH A","2402354","2019-01-29 11:00","2019","01","29","11:00","-24.3","","-26.7","","81","","0.0","","32","","26","","1.6","","101.81","","","","-37","","Snow"
"-81.24","68.78","HALL BEACH A","2402354","2019-01-29 12:00","2019","01","29","12:00","-23.5","","-25.9","","81","","0.0","","33","","34","","0.6","","101.81","","","","-38","","Moderate Snow"
"-81.24","68.78","HALL BEACH A","2402354","2019-01-29 13:00","2019","01","29","13:00","-23.7","","-26.2","","80","","0.0","","33","","32","","0.6","","101.81","","","","-38","","Moderate Snow"
"-81.24","68.78","HALL BEACH A","2402354","2019-01-29 14:00","2019","01","29","14:00","-23.9","","-26.4","","80","","0.0","","33","","30","","1.0","","101.82","","","","-38","","Moderate Snow"
"-81.24","68.78","HALL BEACH A","2402354","2019-01-29 15:00","2019","01","29","15:00","-24.1","","-26.6","","80","","0.0","","33","","32","","0.6","","101.84","","","","-38","","Moderate Snow"
"-81.24","68.78","HALL BEACH A","2402354","2019-01-29 16:00","2019","01","29","16:00","-24.2","","-26.7","","80","","0.0","","33","","32","","0.2","","101.86","","","","-38","","Heavy Snow"
"-81.24","68.78","HALL BEACH A","2402354","2019-01-29 17:00","2019","01","29","17:00","-26.1","","-28.9","","78","","0.0","","32","","32","","0.6","","101.87","","","","-41","","Moderate Snow"
"-81.24","68.78","HALL BEACH A","2402354","2019-01-29 18:00","2019","01","29","18:00","-27.7","","-30.6","","77","","0.0","","32","","32","","0.8","","101.88","","","","-43","","Moderate Snow"
"-81.24","68.78","HALL BEACH A","2402354","2019-01-29 19:00","2019","01","29","19:00","-28.2","","-31.2","","76","","0.0","","32","","37","","0.8","","101.90","","","","-45","","Moderate Snow"
"-81.24","68.78","HALL BEACH A","2402354","2019-01-29 20:00","2019","01","29","20:00","-29.1","","-32.2","","75","","0.0","","31","","32","","0.8","","101.92","","","","-45","","Moderate Snow"
"-81.24","68.78","HALL BEACH A","2402354","2019-01-29 21:00","2019","01","29","21:00","-30.2","","-33.4","","74","","0.0","","32","","34","","0.8","","101.92","","","","-47","","Moderate Snow"
"-81.24","68.78","HALL BEACH A","2402354","2019-01-29 22:00","2019","01","29","22:00","-29.7","","-32.8","","75","","0.0","","32","","30","","1.2","","101.93","","","","-45","","Snow"
"-81.24","68.78","HALL BEACH A","2402354","2019-01-29 23:00","2019","01","29","23:00","-29.7","","-32.8","","75","","0.0","","32","","30","","1.6","","101.92","","","","-45","","Snow"
"-81.24","68.78","HALL BEACH A","2402354","2019-01-30 00:00","2019","01","30","00:00","-30.0","","-33.3","","74","","0.0","","31","","32","","1.6","","101.94","","","","-46","","Snow"
"-81.24","68.78","HALL BEACH A","2402354","2019-01-30 01:00","2019","01","30","01:00","-30.5","","-33.7","","74","","0.0","","32","","28","","2.0","","101.94","","","","-46","","Snow"
"-81.24","68.78","HALL BEACH A","2402354","2019-01-30 02:00","2019","01","30","02:00","-31.3","","-34.7","","73","","0.0","","31","","30","","3.2","","101.95","","","","-47","","Snow"
"-81.24","68.78","HALL BEACH A","2402354","2019-01-30 03:00","2019","01","30","03:00","-31.2","","-34.4","","74","","0.0","","31","","28","","2.8","","101.99","","","","-47","","Snow"
"-81.24","68.78","HALL BEACH A","2402354","2019-01-30 04:00","2019","01","30","04:00","-30.7","","-33.9","","74","","0.0","","31","","30","","1.6","","102.01","","","","-47","","Snow"
"-81.24","68.78","HALL BEACH A","2402354","2019-01-30 05:00","2019","01","30","05:00","-30.9","","-34.3","","73","","0.0","","31","","30","","2.4","","102.03","","","","-47","","Snow"
"-81.24","68.78","HALL BEACH A","2402354","2019-01-30 06:00","2019","01","30","06:00","-31.4","","-34.8","","73","","0.0","","31","","24","","8.1","","102.07","","","","-46","","Snow"
"-81.24","68.78","HALL BEACH A","2402354","2019-01-30 07:00","2019","01","30","07:00","-32.5","","-36.0","","72","","0.0","","31","","24","","16.1","","102.07","","","","-47","","Snow"
"-81.24","68.78","HALL BEACH A","2402354","2019-01-30 08:00","2019","01","30","08:00","-33.6","","-37.2","","71","","0.0","","32","","22","","16.1","","102.08","","","","-48","","Snow"
"-81.24","68.78","HALL BEACH A","2402354","2019-01-30 09:00","2019","01","30","09:00","-34.0","","-37.7","","70","","0.0","","31","","22","","16.1","","102.16","","","","-49","","NA"
"-81.24","68.78","HALL BEACH A","2402354","2019-01-30 10:00","2019","01","30","10:00","-33.3","","-36.9","","71","","0.0","","31","","22","","16.1","","102.14","","","","-48","","NA"
"-81.24","68.78","HALL BEACH A","2402354","2019-01-30 11:00","2019","01","30","11:00","-32.6","","-36.1","","72","","0.0","","30","","18","","11.3","","102.16","","","","-46","","Snow"
"-81.24","68.78","HALL BEACH A","2402354","2019-01-30 12:00","2019","01","30","12:00","-32.2","","-35.7","","72","","0.0","","29","","17","","16.1","","102.16","","","","-45","","Snow"
"-81.24","68.78","HALL BEACH A","2402354","2019-01-30 13:00","2019","01","30","13:00","-32.2","","-35.7","","72","","0.0","","30","","21","","16.1","","102.21","","","","-46","","NA"
"-81.24","68.78","HALL BEACH A","2402354","2019-01-30 14:00","2019","01","30","14:00","-33.3","","-37.0","","70","","0.0","","31","","21","","16.1","","102.20","","","","-48","","NA"
"-81.24","68.78","HALL BEACH A","2402354","2019-01-30 15:00","2019","01","30","15:00","-34.4","","-38.1","","70","","0.0","","30","","13","","4.0","","102.25","","","","-46","","Haze"
"-81.24","68.78","HALL BEACH A","2402354","2019-01-30 16:00","2019","01","30","16:00","-34.8","","-38.6","","69","","0.0","","30","","18","","16.1","","102.32","","","","-48","","NA"
"-81.24","68.78","HALL BEACH A","2402354","2019-01-30 17:00","2019","01","30","17:00","-34.9","","-38.7","","69","","0.0","","30","","15","","16.1","","102.35","","","","-47","","NA"
"-81.24","68.78","HALL BEACH A","2402354","2019-01-30 18:00","2019","01","30","18:00","-35.4","","-39.2","","69","","0.0","","31","","9","","16.1","","102.39","","","","-45","","NA"
"-81.24","68.78","HALL BEACH A","2402354","2019-01-30 19:00","2019","01","30","19:00","-35.0","","-38.8","","69","","0.0","","31","","11","","16.1","","102.39","","","","-46","","Snow"
"-81.24","68.78","HALL BEACH A","2402354","2019-01-30 20:00","2019","01","30","20:00","-35.3","","-39.1","","69","","0.0","","31","","13","","16.1","","102.41","","","","-47","","NA"
"-81.24","68.78","HALL BEACH A","2402354","2019-01-30 21:00","2019","01","30","21:00","-35.7","","-39.5","","69","","0.0","","31","","17","","16.1","","102.43","","","","-49","","NA"
"-81.24","68.78","HALL BEACH A","2402354","2019-01-30 22:00","2019","01","30","22:00","-35.5","","-39.3","","69","","0.0","","32","","18","","16.1","","102.40","","","","-49","","NA"
"-81.24","68.78","HALL BEACH A","2402354","2019-01-30 23:00","2019","01","30","23:00","-35.1","","-38.9","","69","","0.0","","32","","15","","16.1","","102.41","","","","-48","","NA"
"-81.24","68.78","HALL BEACH A","2402354","2019-01-31 00:00","2019","01","31","00:00","-34.8","","-38.6","","69","","0.0","","31","","11","","16.1","","102.42","","","","-45","","NA"
"-81.24","68.78","HALL BEACH A","2402354","2019-01-31 01:00","2019","01","31","01:00","-35.3","","-39.1","","69","","0.0","","32","","13","","16.1","","102.45","","","","-47","","NA"
"-81.24","68.78","HALL BEACH A","2402354","2019-01-31 02:00","2019","01","31","02:00","-35.1","","-38.9","","69","","0.0","","34","","13","","16.1","","102.41","","","","-47","","NA"
"-81.24","68.78","HALL BEACH A","2402354","2019-01-31 03:00","2019","01","31","03:00","-35.6","","-39.5","","68","","0.0","","33","","13","","16.1","","102.39","","","","-47","","NA"
"-81.24","68.78","HALL BEACH A","2402354","2019-01-31 04:00","2019","01","31","04:00","-35.2","","-39.0","","69","","0.0","","33","","15","","16.1","","102.39","","","","-48","","NA"
"-81.24","68.78","HALL BEACH A","2402354","2019-01-31 05:00","2019","01","31","05:00","-33.6","","-37.2","","71","","0.0","","34","","21","","16.1","","102.40","","","","-48","","NA"
"-81.24","68.78","HALL BEACH A","2402354","2019-01-31 06:00","2019","01","31","06:00","-32.6","","-36.1","","72","","0.0","","33","","17","","14.5","","102.37","","","","-45","","Snow"
"-81.24","68.78","HALL BEACH A","2402354","2019-01-31 07:00","2019","01","31","07:00","-31.9","","-35.4","","72","","0.0","","33","","21","","11.3","","102.36","","","","-46","","Snow"
"-81.24","68.78","HALL BEACH A","2402354","2019-01-31 08:00","2019","01","31","08:00","-31.8","","-35.1","","73","","0.0","","33","","21","","12.9","","102.32","","","","-46","","NA"
"-81.24","68.78","HALL BEACH A","2402354","2019-01-31 09:00","2019","01","31","09:00","-30.8","","-34.0","","74","","0.0","","33","","24","","12.9","","102.29","","","","-45","","NA"
"-81.24","68.78","HALL BEACH A","2402354","2019-01-31 10:00","2019","01","31","10:00","-30.0","","-33.3","","74","","0.0","","34","","21","","6.4","","102.26","","","","-43","","Snow"
"-81.24","68.78","HALL BEACH A","2402354","2019-01-31 11:00","2019","01","31","11:00","-29.4","","-32.5","","75","","0.0","","34","","17","","11.3","","102.25","","","","-41","","Snow"
"-81.24","68.78","HALL BEACH A","2402354","2019-01-31 12:00","2019","01","31","12:00","-29.0","","-32.1","","75","","0.0","","34","","17","","8.1","","102.22","","","","-41","","Haze"
"-81.24","68.78","HALL BEACH A","2402354","2019-01-31 13:00","2019","01","31","13:00","-28.2","","-31.2","","76","","0.0","","35","","11","","8.1","","102.18","","","","-38","","Snow"
"-81.24","68.78","HALL BEACH A","2402354","2019-01-31 14:00","2019","01","31","14:00","-28.1","","-31.1","","76","","0.0","","34","","13","","6.4","","102.13","","","","-38","","Snow"
"-81.24","68.78","HALL BEACH A","2402354","2019-01-31 15:00","2019","01","31","15:00","-23.9","","-26.4","","80","","0.0","","6","","17","","16.1","","102.13","","","","-35","","NA"
"-81.24","68.78","HALL BEACH A","2402354","2019-01-31 16:00","2019","01","31","16:00","-23.7","","-26.1","","81","","0.0","","4","","18","","8.1","","102.09","","","","-35","","Snow"
"-81.24","68.78","HALL BEACH A","2402354","2019-01-31 17:00","2019","01","31","17:00","-27.7","","-30.6","","77","","0.0","","35","","21","","2.8","","102.07","","","","-40","","Snow"
"-81.24","68.78","HALL BEACH A","2402354","2019-01-31 18:00","2019","01","31","18:00","-28.1","","-31.1","","76","","0.0","","35","","28","","1.6","","102.04","","","","-43","","Snow"
"-81.24","68.78","HALL BEACH A","2402354","2019-01-31 19:00","2019","01","31","19:00","-30.7","","-34.1","","73","","0.0","","35","","28","","2.0","","102.00","","","","-46","","Snow"
"-81.24","68.78","HALL BEACH A","2402354","2019-01-31 20:00","2019","01","31","20:00","-31.7","","-35.2","","72","","0.0","","35","","28","","2.0","","101.97","","","","-47","","Snow"
"-81.24","68.78","HALL BEACH A","2402354","2019-01-31 21:00","2019","01","31","21:00","-32.2","","-35.7","","72","","0.0","","35","","30","","2.0","","101.90","","","","-48","","Haze"
"-81.24","68.78","HALL BEACH A","2402354","2019-01-31 22:00","2019","01","31","22:00","-32.2","","-35.7","","72","","0.0","","35","","30","","2.0","","101.87","","","","-48","","Haze"
"-81.24","68.78","HALL BEACH A","2402354","2019-01-31 23:00","2019","01","31","23:00","-32.1","","-35.6","","72","","0.0","","35","","34","","2.0","","101.77","","","","-49","","Snow"
