"Longitude (x)","Latitude (y)","Station Name","Climate ID","Date/Time (LST)","Year","Month","Day","Time (LST)","Temp (°C)","Temp Flag","Dew Point Temp (°C)","Dew Point Temp Flag","Rel Hum (%)","Rel Hum Flag","Precip. Amount (mm)","Precip. Amount Flag","Wind Dir (10s deg)","Wind Dir Flag","Wind Spd (km/h)","Wind Spd Flag","Visibility (km)","Visibility Flag","Stn Press (kPa)","Stn Press Flag","Hmdx","Hmdx Flag","Wind Chill","Wind Chill Flag","Weather"
"-105.67","53.21","PRINCE ALBERT A","4056241","2019-04-01 00:00","2019","04","01","00:00","-3.9","","-7.6","","76","","","","25","","5","","24.1","","96.98","","","","-6","","Mainly Clear"
"-105.67","53.21","PRINCE ALBERT A","4056241","2019-04-01 01:00","2019","04","01","01:00","-2.8","","-7.3","","71","","","","24","","7","","24.1","","96.91","","","","-6","","NA"
"-105.67","53.21","PRINCE ALBERT A","4056241","2019-04-01 02:00","2019","04","01","02:00","-1.1","","-5.9","","70","","","","25","","10","","24.1","","96.81","","","","-5","","NA"
"-105.67","53.21","PRINCE ALBERT A","4056241","2019-04-01 03:00","2019","04","01","03:00","0.0","","-6.1","","64","","","","25","","16","","24.1","","96.69","","","","-5","","Cloudy"
"-105.67","53.21","PRINCE ALBERT A","4056241","2019-04-01 04:00","2019","04","01","04:00","-0.9","","-5.9","","69","","","","25","","13","","24.1","","96.60","","","","-5","","NA"
"-105.67","53.21","PRINCE ALBERT A","4056241","2019-04-01 05:00","2019","04","01","05:00","-0.2","","-5.0","","70","","","","27","","12","","24.1","","96.53","","","","-4","","NA"
"-105.67","53.21","PRINCE ALBERT A","4056241","2019-04-01 06:00","2019","04","01","06:00","0.1","","-4.4","","72","","","","28","","15","","24.1","","96.50","","","","","","Cloudy"
"-105.67","53.21","PRINCE ALBERT A","4056241","2019-04-01 07:00","2019","04","01","07:00","0.2","","-3.7","","75","","","","29","","14","","24.1","","96.46","","","","","","NA"
"-105.67","53.21","PRINCE ALBERT A","4056241","2019-04-01 08:00","2019","04","01","08:00","1.3","","-3.0","","73","","","","29","","19","","24.1","","96.42","","","","","","NA"
"-105.67","53.21","PRINCE ALBERT A","4056241","2019-04-01 09:00","2019","04","01","09:00","2.3","","-2.8","","69","","","","30","","24","","24.1","","96.38","","","","","","Mostly Cloudy"
"-105.67","53.21","PRINCE ALBERT A","4056241","2019-04-01 10:00","2019","04","01","10:00","3.4","","-3.0","","63","","","","30","","30","","24.1","","96.35","","","","","","NA"
"-105.67","53.21","PRINCE ALBERT A","4056241","2019-04-01 11:00","2019","04","01","11:00","4.7","","-3.2","","57","","","","29","","35","","24.1","","96.26","","","","","","NA"
"-105.67","53.21","PRINCE ALBERT A","4056241","2019-04-01 12:00","2019","04","01","12:00","5.4","","-3.5","","53","","","","30","","36","","24.1","","96.19","","","","","","Cloudy"
"-105.67","53.21","PRINCE ALBERT A","4056241","2019-04-01 13:00","2019","04","01","13:00","5.3","","-4.0","","51","","","","32","","39","","24.1","","96.16","","","","","","NA"
"-105.67","53.21","PRINCE ALBERT A","4056241","2019-04-01 14:00","2019","04","01","14:00","5.8","","-4.2","","48","","","","30","","40","","24.1","","96.09","","","","","","NA"
"-105.67","53.21","PRINCE ALBERT A","4056241","2019-04-01 15:00","2019","04","01","15:00","6.3","","-3.7","","49","","","","29","","38","","24.1","","96.00","","","","","","Mostly Cloudy"
"-105.67","53.21","PRINCE ALBERT A","4056241","2019-04-01 16:00","2019","04","01","16:00","-0.2","","-2.2","","86","","","","36","","32","","4.0","","96.13","","","","-7","","Snow Showers"
"-105.67","53.21","PRINCE ALBERT A","4056241","2019-04-01 17:00","2019","04","01","17:00","0.4","","-2.0","","84","","","","33","","20","","24.1","","96.15","","","","","","NA"
"-105.67","53.21","PRINCE ALBERT A","4056241","2019-04-01 18:00","2019","04","01","18:00","0.9","","-3.5","","72","","","","31","","24","","24.1","","96.11","","","","","","Mostly Cloudy"
"-105.67","53.21","PRINCE ALBERT A","4056241","2019-04-01 19:00","2019","04","01","19:00","-0.1","","-4.0","","75","","","","30","","18","","24.1","","96.10","","","","-5","","NA"
"-105.67","53.21","PRINCE ALBERT A","4056241","2019-04-01 20:00","2019","04","01","20:00","-0.4","","-4.0","","76","","","","31","","23","","24.1","","96.16","","","","-6","","Snow"
"-105.67","53.21","PRINCE ALBERT A","4056241","2019-04-01 21:00","2019","04","01","21:00","-1.0","","-5.8","","70","","","","32","","22","","24.1","","96.19","","","","-7","","Mainly Clear"
"-105.67","53.21","PRINCE ALBERT A","4056241","2019-04-01 22:00","2019","04","01","22:00","-1.5","","-9.4","","55","","","","34","","28","","24.1","","96.20","","","","-8","","NA"
"-105.67","53.21","PRINCE ALBERT A","4056241","2019-04-01 23:00","2019","04","01","23:00","-2.0","","-9.9","","55","","","","32","","23","","24.1","","96.24","","","","-8","","NA"
"-105.67","53.21","PRINCE ALBERT A","4056241","2019-04-02 00:00","2019","04","02","00:00","-2.7","","-9.9","","58","","","","32","","21","","24.1","","96.27","","","","-9","","Clear"
"-105.67","53.21","PRINCE ALBERT A","4056241","2019-04-02 01:00","2019","04","02","01:00","-3.3","","-11.8","","52","","","","32","","23","","24.1","","96.28","","","","-10","","NA"
"-105.67","53.21","PRINCE ALBERT A","4056241","2019-04-02 02:00","2019","04","02","02:00","-4.2","","-11.4","","58","","","","31","","18","","24.1","","96.32","","","","-10","","NA"
"-105.67","53.21","PRINCE ALBERT A","4056241","2019-04-02 03:00","2019","04","02","03:00","-4.8","","-11.6","","59","","","","30","","20","","24.1","","96.33","","","","-11","","Clear"
"-105.67","53.21","PRINCE ALBERT A","4056241","2019-04-02 04:00","2019","04","02","04:00","-5.2","","-11.6","","61","","","","30","","18","","24.1","","96.32","","","","-11","","NA"
"-105.67","53.21","PRINCE ALBERT A","4056241","2019-04-02 05:00","2019","04","02","05:00","-5.9","","-11.4","","66","","","","30","","20","","24.1","","96.31","","","","-13","","NA"
"-105.67","53.21","PRINCE ALBERT A","4056241","2019-04-02 06:00","2019","04","02","06:00","-6.0","","-12.5","","60","","","","30","","20","","24.1","","96.36","","","","-13","","Mainly Clear"
"-105.67","53.21","PRINCE ALBERT A","4056241","2019-04-02 07:00","2019","04","02","07:00","-6.2","","-12.2","","63","","","","30","","14","","24.1","","96.36","","","","-12","","NA"
"-105.67","53.21","PRINCE ALBERT A","4056241","2019-04-02 08:00","2019","04","02","08:00","-4.8","","-13.1","","52","","","","31","","24","","24.1","","96.35","","","","-12","","NA"
"-105.67","53.21","PRINCE ALBERT A","4056241","2019-04-02 09:00","2019","04","02","09:00","-4.0","","-13.2","","49","","","","32","","29","","24.1","","96.34","","","","-12","","Mostly Cloudy"
"-105.67","53.21","PRINCE ALBERT A","4056241","2019-04-02 10:00","2019","04","02","10:00","-3.4","","-13.5","","46","","","","34","","26","","24.1","","96.31","","","","-10","","NA"
"-105.67","53.21","PRINCE ALBERT A","4056241","2019-04-02 11:00","2019","04","02","11:00","-3.2","","-12.3","","50","","","","30","","23","","24.1","","96.28","","","","-10","","NA"
"-105.67","53.21","PRINCE ALBERT A","4056241","2019-04-02 12:00","2019","04","02","12:00","-2.6","","-9.5","","59","","","","29","","27","","24.1","","96.25","","","","-10","","Cloudy"
"-105.67","53.21","PRINCE ALBERT A","4056241","2019-04-02 13:00","2019","04","02","13:00","-1.4","","-10.3","","51","","","","30","","34","","24.1","","96.23","","","","-9","","NA"
"-105.67","53.21","PRINCE ALBERT A","4056241","2019-04-02 14:00","2019","04","02","14:00","-1.7","","-11.8","","46","","","","30","","32","","24.1","","96.19","","","","-9","","NA"
"-105.67","53.21","PRINCE ALBERT A","4056241","2019-04-02 15:00","2019","04","02","15:00","-1.5","","-9.6","","54","","","","32","","29","","24.1","","96.24","","","","-8","","Mostly Cloudy"
"-105.67","53.21","PRINCE ALBERT A","4056241","2019-04-02 16:00","2019","04","02","16:00","-3.0","","-8.4","","66","","","","32","","34","","19.3","","96.30","","","","-11","","NA"
"-105.67","53.21","PRINCE ALBERT A","4056241","2019-04-02 17:00","2019","04","02","17:00","-2.8","","-10.9","","54","","","","34","","35","","24.1","","96.32","","","","-11","","NA"
"-105.67","53.21","PRINCE ALBERT A","4056241","2019-04-02 18:00","2019","04","02","18:00","-3.0","","-11.9","","50","","","","34","","27","","24.1","","96.32","","","","-10","","Mainly Clear"
"-105.67","53.21","PRINCE ALBERT A","4056241","2019-04-02 19:00","2019","04","02","19:00","-3.1","","-13.6","","45","","","","34","","17","","24.1","","96.37","","","","-9","","NA"
"-105.67","53.21","PRINCE ALBERT A","4056241","2019-04-02 20:00","2019","04","02","20:00","-4.5","","-14.0","","48","","","","35","","15","","24.1","","96.40","","","","-10","","NA"
"-105.67","53.21","PRINCE ALBERT A","4056241","2019-04-02 21:00","2019","04","02","21:00","-5.4","","-14.2","","50","","","","36","","15","","24.1","","96.53","","","","-11","","Mainly Clear"
"-105.67","53.21","PRINCE ALBERT A","4056241","2019-04-02 22:00","2019","04","02","22:00","-6.6","","-14.3","","54","","","","1","","11","","24.1","","96.57","","","","-12","","NA"
"-105.67","53.21","PRINCE ALBERT A","4056241","2019-04-02 23:00","2019","04","02","23:00","-7.5","","-14.5","","57","","","","3","","7","","24.1","","96.57","","","","-11","","NA"
"-105.67","53.21","PRINCE ALBERT A","4056241","2019-04-03 00:00","2019","04","03","00:00","-9.1","","-12.3","","78","","","","36","","3","","24.1","","96.61","","","","-11","","Mainly Clear"
"-105.67","53.21","PRINCE ALBERT A","4056241","2019-04-03 01:00","2019","04","03","01:00","-10.3","","-13.6","","77","","","","27","","3","","24.1","","96.66","","","","-12","","NA"
"-105.67","53.21","PRINCE ALBERT A","4056241","2019-04-03 02:00","2019","04","03","02:00","-11.2","","-14.1","","80","","","","0","","1","","24.1","","96.72","","","","-12","","NA"
"-105.67","53.21","PRINCE ALBERT A","4056241","2019-04-03 03:00","2019","04","03","03:00","-11.3","","-14.0","","81","","","","36","","3","","24.1","","96.74","","","","-13","","Clear"
"-105.67","53.21","PRINCE ALBERT A","4056241","2019-04-03 04:00","2019","04","03","04:00","-11.7","","-14.1","","82","","","","36","","1","","24.1","","96.74","","","","-12","","NA"
"-105.67","53.21","PRINCE ALBERT A","4056241","2019-04-03 05:00","2019","04","03","05:00","-12.1","","-14.7","","81","","","","4","","3","","24.1","","96.79","","","","-14","","NA"
"-105.67","53.21","PRINCE ALBERT A","4056241","2019-04-03 06:00","2019","04","03","06:00","-10.6","","-12.5","","86","","","","36","","1","","24.1","","96.81","","","","-11","","Mostly Cloudy"
"-105.67","53.21","PRINCE ALBERT A","4056241","2019-04-03 07:00","2019","04","03","07:00","-9.8","","-11.8","","86","","","","7","","5","","24.1","","96.84","","","","-13","","NA"
"-105.67","53.21","PRINCE ALBERT A","4056241","2019-04-03 08:00","2019","04","03","08:00","-7.9","","-11.0","","79","","","","8","","4","","24.1","","96.89","","","","-10","","NA"
"-105.67","53.21","PRINCE ALBERT A","4056241","2019-04-03 09:00","2019","04","03","09:00","-6.1","","-11.6","","65","","","","8","","7","","24.1","","96.92","","","","-9","","Cloudy"
"-105.67","53.21","PRINCE ALBERT A","4056241","2019-04-03 10:00","2019","04","03","10:00","-4.5","","-13.6","","49","","","","14","","11","","24.1","","96.92","","","","-9","","NA"
"-105.67","53.21","PRINCE ALBERT A","4056241","2019-04-03 11:00","2019","04","03","11:00","-4.0","","-13.2","","49","","","","10","","17","","24.1","","96.92","","","","-10","","NA"
"-105.67","53.21","PRINCE ALBERT A","4056241","2019-04-03 12:00","2019","04","03","12:00","-3.2","","-11.6","","52","","","","10","","21","","24.1","","96.88","","","","-9","","Cloudy"
"-105.67","53.21","PRINCE ALBERT A","4056241","2019-04-03 13:00","2019","04","03","13:00","-1.8","","-11.4","","48","","","","13","","21","","24.1","","96.82","","","","-8","","NA"
"-105.67","53.21","PRINCE ALBERT A","4056241","2019-04-03 14:00","2019","04","03","14:00","-1.0","","-9.7","","52","","","","11","","21","","24.1","","96.75","","","","-7","","NA"
"-105.67","53.21","PRINCE ALBERT A","4056241","2019-04-03 15:00","2019","04","03","15:00","-0.6","","-9.0","","53","","","","13","","22","","24.1","","96.69","","","","-6","","Cloudy"
"-105.67","53.21","PRINCE ALBERT A","4056241","2019-04-03 16:00","2019","04","03","16:00","-0.2","","-9.4","","50","","","","14","","26","","24.1","","96.58","","","","-6","","NA"
"-105.67","53.21","PRINCE ALBERT A","4056241","2019-04-03 17:00","2019","04","03","17:00","-0.1","","-7.6","","57","","","","13","","18","","24.1","","96.54","","","","-5","","NA"
"-105.67","53.21","PRINCE ALBERT A","4056241","2019-04-03 18:00","2019","04","03","18:00","0.2","","-6.3","","62","","","","11","","24","","24.1","","96.45","","","","","","Cloudy"
"-105.67","53.21","PRINCE ALBERT A","4056241","2019-04-03 19:00","2019","04","03","19:00","-0.4","","-6.2","","65","","","","11","","23","","24.1","","96.37","","","","-6","","NA"
"-105.67","53.21","PRINCE ALBERT A","4056241","2019-04-03 20:00","2019","04","03","20:00","-0.9","","-6.0","","68","","","","10","","26","","24.1","","96.28","","","","-7","","NA"
"-105.67","53.21","PRINCE ALBERT A","4056241","2019-04-03 21:00","2019","04","03","21:00","-0.9","","-6.3","","67","","","","10","","24","","24.1","","96.21","","","","-7","","Mostly Cloudy"
"-105.67","53.21","PRINCE ALBERT A","4056241","2019-04-03 22:00","2019","04","03","22:00","-1.3","","-5.7","","72","","","","10","","20","","24.1","","96.15","","","","-7","","NA"
"-105.67","53.21","PRINCE ALBERT A","4056241","2019-04-03 23:00","2019","04","03","23:00","-0.9","","-5.8","","70","","","","10","","27","","24.1","","96.05","","","","-7","","NA"
"-105.67","53.21","PRINCE ALBERT A","4056241","2019-04-04 00:00","2019","04","04","00:00","-0.8","","-5.7","","69","","","","10","","24","","24.1","","95.97","","","","-7","","Mostly Cloudy"
"-105.67","53.21","PRINCE ALBERT A","4056241","2019-04-04 01:00","2019","04","04","01:00","-1.6","","-5.5","","75","","","","7","","16","","24.1","","95.87","","","","-7","","NA"
"-105.67","53.21","PRINCE ALBERT A","4056241","2019-04-04 02:00","2019","04","04","02:00","-2.2","","-5.9","","76","","","","9","","14","","24.1","","95.81","","","","-7","","NA"
"-105.67","53.21","PRINCE ALBERT A","4056241","2019-04-04 03:00","2019","04","04","03:00","-2.5","","-5.9","","77","","","","9","","19","","24.1","","95.76","","","","-8","","Mainly Clear"
"-105.67","53.21","PRINCE ALBERT A","4056241","2019-04-04 04:00","2019","04","04","04:00","-2.8","","-5.9","","80","","","","8","","19","","24.1","","95.71","","","","-9","","NA"
"-105.67","53.21","PRINCE ALBERT A","4056241","2019-04-04 05:00","2019","04","04","05:00","-3.3","","-5.9","","82","","","","6","","11","","24.1","","95.70","","","","-8","","NA"
"-105.67","53.21","PRINCE ALBERT A","4056241","2019-04-04 06:00","2019","04","04","06:00","-2.9","","-5.6","","82","","","","8","","12","","24.1","","95.69","","","","-7","","Mostly Cloudy"
"-105.67","53.21","PRINCE ALBERT A","4056241","2019-04-04 07:00","2019","04","04","07:00","-3.0","","-5.6","","83","","","","5","","8","","24.1","","95.72","","","","-6","","NA"
"-105.67","53.21","PRINCE ALBERT A","4056241","2019-04-04 08:00","2019","04","04","08:00","-2.0","","-5.5","","77","","","","3","","14","","24.1","","95.78","","","","-7","","NA"
"-105.67","53.21","PRINCE ALBERT A","4056241","2019-04-04 09:00","2019","04","04","09:00","-0.4","","-5.0","","71","","","","3","","14","","24.1","","95.81","","","","-5","","Mostly Cloudy"
"-105.67","53.21","PRINCE ALBERT A","4056241","2019-04-04 10:00","2019","04","04","10:00","0.6","","-5.0","","66","","","","35","","18","","24.1","","95.86","","","","","","NA"
"-105.67","53.21","PRINCE ALBERT A","4056241","2019-04-04 11:00","2019","04","04","11:00","1.9","","-4.8","","61","","","","36","","22","","24.1","","95.93","","","","","","NA"
"-105.67","53.21","PRINCE ALBERT A","4056241","2019-04-04 12:00","2019","04","04","12:00","3.0","","-4.7","","57","","","","3","","27","","24.1","","95.95","","","","","","Cloudy"
"-105.67","53.21","PRINCE ALBERT A","4056241","2019-04-04 13:00","2019","04","04","13:00","4.8","","-4.3","","51","","","","36","","21","","24.1","","96.00","","","","","","NA"
"-105.67","53.21","PRINCE ALBERT A","4056241","2019-04-04 14:00","2019","04","04","14:00","5.5","","-4.6","","48","","","","1","","21","","24.1","","96.07","","","","","","NA"
"-105.67","53.21","PRINCE ALBERT A","4056241","2019-04-04 15:00","2019","04","04","15:00","5.3","","-4.6","","49","","","","1","","22","","24.1","","96.12","","","","","","Cloudy"
"-105.67","53.21","PRINCE ALBERT A","4056241","2019-04-04 16:00","2019","04","04","16:00","3.2","","-4.9","","55","","","","36","","24","","24.1","","96.20","","","","","","NA"
"-105.67","53.21","PRINCE ALBERT A","4056241","2019-04-04 17:00","2019","04","04","17:00","2.5","","-4.9","","58","","","","1","","23","","24.1","","96.25","","","","","","NA"
"-105.67","53.21","PRINCE ALBERT A","4056241","2019-04-04 18:00","2019","04","04","18:00","1.3","","-5.7","","60","","","","36","","19","","24.1","","96.36","","","","","","Cloudy"
"-105.67","53.21","PRINCE ALBERT A","4056241","2019-04-04 19:00","2019","04","04","19:00","0.2","","-6.4","","61","","","","36","","21","","24.1","","96.43","","","","","","NA"
"-105.67","53.21","PRINCE ALBERT A","4056241","2019-04-04 20:00","2019","04","04","20:00","-0.7","","-6.4","","65","","","","2","","17","","24.1","","96.48","","","","-6","","NA"
"-105.67","53.21","PRINCE ALBERT A","4056241","2019-04-04 21:00","2019","04","04","21:00","-1.0","","-7.0","","64","","","","5","","21","","24.1","","96.56","","","","-7","","Mostly Cloudy"
"-105.67","53.21","PRINCE ALBERT A","4056241","2019-04-04 22:00","2019","04","04","22:00","-1.5","","-7.2","","65","","","","5","","15","","24.1","","96.64","","","","-6","","NA"
"-105.67","53.21","PRINCE ALBERT A","4056241","2019-04-04 23:00","2019","04","04","23:00","-1.8","","-7.5","","65","","","","5","","17","","24.1","","96.66","","","","-7","","NA"
"-105.67","53.21","PRINCE ALBERT A","4056241","2019-04-05 00:00","2019","04","05","00:00","-2.7","","-7.7","","68","","","","5","","12","","24.1","","96.68","","","","-7","","Mostly Cloudy"
"-105.67","53.21","PRINCE ALBERT A","4056241","2019-04-05 01:00","2019","04","05","01:00","-2.5","","-7.2","","70","","","","4","","9","","24.1","","96.71","","","","-6","","NA"
"-105.67","53.21","PRINCE ALBERT A","4056241","2019-04-05 02:00","2019","04","05","02:00","-2.7","","-7.5","","69","","","","5","","8","","24.1","","96.74","","","","-6","","NA"
"-105.67","53.21","PRINCE ALBERT A","4056241","2019-04-05 03:00","2019","04","05","03:00","-3.4","","-6.9","","77","","","","4","","7","","24.1","","96.77","","","","-6","","Cloudy"
"-105.67","53.21","PRINCE ALBERT A","4056241","2019-04-05 04:00","2019","04","05","04:00","-2.9","","-6.9","","74","","","","13","","7","","24.1","","96.78","","","","-6","","NA"
"-105.67","53.21","PRINCE ALBERT A","4056241","2019-04-05 05:00","2019","04","05","05:00","-3.4","","-7.5","","73","","","","14","","9","","24.1","","96.83","","","","-7","","NA"
"-105.67","53.21","PRINCE ALBERT A","4056241","2019-04-05 06:00","2019","04","05","06:00","-3.6","","-7.2","","76","","","","13","","8","","24.1","","96.82","","","","-7","","Cloudy"
"-105.67","53.21","PRINCE ALBERT A","4056241","2019-04-05 07:00","2019","04","05","07:00","-3.7","","-7.6","","74","","","","14","","9","","24.1","","96.87","","","","-7","","NA"
"-105.67","53.21","PRINCE ALBERT A","4056241","2019-04-05 08:00","2019","04","05","08:00","-3.4","","-7.9","","71","","","","9","","13","","24.1","","96.84","","","","-8","","NA"
"-105.67","53.21","PRINCE ALBERT A","4056241","2019-04-05 09:00","2019","04","05","09:00","-3.3","","-9.6","","62","","","","10","","12","","24.1","","96.84","","","","-8","","Mostly Cloudy"
"-105.67","53.21","PRINCE ALBERT A","4056241","2019-04-05 10:00","2019","04","05","10:00","-2.6","","-8.4","","65","","","","11","","12","","24.1","","96.86","","","","-7","","NA"
"-105.67","53.21","PRINCE ALBERT A","4056241","2019-04-05 11:00","2019","04","05","11:00","-1.7","","-7.6","","64","","","","13","","6","","24.1","","96.86","","","","-4","","NA"
"-105.67","53.21","PRINCE ALBERT A","4056241","2019-04-05 12:00","2019","04","05","12:00","-1.1","","-7.9","","60","","","","14","","5","","24.1","","96.83","","","","-3","","Mainly Clear"
"-105.67","53.21","PRINCE ALBERT A","4056241","2019-04-05 13:00","2019","04","05","13:00","0.0","","-7.3","","58","","","","19","","5","","24.1","","96.78","","","","-2","","NA"
"-105.67","53.21","PRINCE ALBERT A","4056241","2019-04-05 14:00","2019","04","05","14:00","1.4","","-6.1","","58","","","","18","","4","","24.1","","96.71","","","","","","NA"
"-105.67","53.21","PRINCE ALBERT A","4056241","2019-04-05 15:00","2019","04","05","15:00","2.1","","-6.5","","53","","","","18","","5","","24.1","","96.69","","","","","","Mainly Clear"
"-105.67","53.21","PRINCE ALBERT A","4056241","2019-04-05 16:00","2019","04","05","16:00","2.7","","-6.1","","52","","","","11","","7","","24.1","","96.62","","","","","","NA"
"-105.67","53.21","PRINCE ALBERT A","4056241","2019-04-05 17:00","2019","04","05","17:00","3.1","","-6.0","","51","","","","13","","11","","24.1","","96.60","","","","","","NA"
"-105.67","53.21","PRINCE ALBERT A","4056241","2019-04-05 18:00","2019","04","05","18:00","2.9","","-5.3","","55","","","","15","","8","","24.1","","96.58","","","","","","Mainly Clear"
"-105.67","53.21","PRINCE ALBERT A","4056241","2019-04-05 19:00","2019","04","05","19:00","1.7","","-5.2","","60","","","","16","","9","","24.1","","96.54","","","","","","NA"
"-105.67","53.21","PRINCE ALBERT A","4056241","2019-04-05 20:00","2019","04","05","20:00","0.2","","-4.9","","69","","","","17","","9","","24.1","","96.52","","","","","","NA"
"-105.67","53.21","PRINCE ALBERT A","4056241","2019-04-05 21:00","2019","04","05","21:00","-0.6","","-4.8","","73","","","","13","","5","","24.1","","96.55","","","","-2","","Mainly Clear"
"-105.67","53.21","PRINCE ALBERT A","4056241","2019-04-05 22:00","2019","04","05","22:00","-1.9","","-5.2","","78","","","","11","","4","","24.1","","96.56","","","","-3","","NA"
"-105.67","53.21","PRINCE ALBERT A","4056241","2019-04-05 23:00","2019","04","05","23:00","-1.9","","-4.7","","81","","","","8","","10","","24.1","","96.53","","","","-6","","NA"
"-105.67","53.21","PRINCE ALBERT A","4056241","2019-04-06 00:00","2019","04","06","00:00","-2.7","","-5.2","","83","","","","10","","10","","24.1","","96.51","","","","-7","","Mainly Clear"
"-105.67","53.21","PRINCE ALBERT A","4056241","2019-04-06 01:00","2019","04","06","01:00","-2.5","","-5.1","","82","","","","6","","10","","24.1","","96.48","","","","-6","","NA"
"-105.67","53.21","PRINCE ALBERT A","4056241","2019-04-06 02:00","2019","04","06","02:00","-1.9","","-4.8","","81","","","","7","","9","","24.1","","96.45","","","","-5","","NA"
"-105.67","53.21","PRINCE ALBERT A","4056241","2019-04-06 03:00","2019","04","06","03:00","-1.3","","-4.5","","79","","","","8","","13","","24.1","","96.39","","","","-6","","Cloudy"
"-105.67","53.21","PRINCE ALBERT A","4056241","2019-04-06 04:00","2019","04","06","04:00","-0.8","","-4.0","","79","","","","11","","16","","24.1","","96.32","","","","-6","","NA"
"-105.67","53.21","PRINCE ALBERT A","4056241","2019-04-06 05:00","2019","04","06","05:00","-0.3","","-3.5","","79","","","","11","","11","","24.1","","96.28","","","","-4","","NA"
"-105.67","53.21","PRINCE ALBERT A","4056241","2019-04-06 06:00","2019","04","06","06:00","-0.2","","-3.3","","80","","","","11","","21","","24.1","","96.24","","","","-6","","Cloudy"
"-105.67","53.21","PRINCE ALBERT A","4056241","2019-04-06 07:00","2019","04","06","07:00","0.1","","-3.0","","80","","","","10","","22","","24.1","","96.22","","","","","","Snow"
"-105.67","53.21","PRINCE ALBERT A","4056241","2019-04-06 08:00","2019","04","06","08:00","0.2","","-2.9","","79","","","","10","","23","","24.1","","96.18","","","","","","Snow"
"-105.67","53.21","PRINCE ALBERT A","4056241","2019-04-06 09:00","2019","04","06","09:00","0.5","","-2.6","","79","","","","11","","22","","24.1","","96.18","","","","","","Snow"
"-105.67","53.21","PRINCE ALBERT A","4056241","2019-04-06 10:00","2019","04","06","10:00","0.8","","-2.7","","78","","","","11","","18","","24.1","","96.15","","","","","","NA"
"-105.67","53.21","PRINCE ALBERT A","4056241","2019-04-06 11:00","2019","04","06","11:00","1.4","","-2.2","","77","","","","12","","24","","24.1","","96.11","","","","","","NA"
"-105.67","53.21","PRINCE ALBERT A","4056241","2019-04-06 12:00","2019","04","06","12:00","1.3","","-1.8","","80","","","","11","","23","","24.1","","96.05","","","","","","Snow"
"-105.67","53.21","PRINCE ALBERT A","4056241","2019-04-06 13:00","2019","04","06","13:00","1.5","","-1.4","","81","","","","12","","27","","24.1","","95.98","","","","","","Snow"
"-105.67","53.21","PRINCE ALBERT A","4056241","2019-04-06 14:00","2019","04","06","14:00","1.5","","-1.7","","79","","","","13","","27","","19.3","","95.93","","","","","","Snow"
"-105.67","53.21","PRINCE ALBERT A","4056241","2019-04-06 15:00","2019","04","06","15:00","0.3","","-0.9","","91","","","","12","","27","","3.2","","95.92","","","","","","Snow,Fog"
"-105.67","53.21","PRINCE ALBERT A","4056241","2019-04-06 16:00","2019","04","06","16:00","0.3","","-1.1","","91","","","","13","","25","","4.0","","95.86","","","","","","Snow,Fog"
"-105.67","53.21","PRINCE ALBERT A","4056241","2019-04-06 17:00","2019","04","06","17:00","0.3","","-1.0","","91","","","","11","","27","","4.8","","95.79","","","","","","Snow,Fog"
"-105.67","53.21","PRINCE ALBERT A","4056241","2019-04-06 18:00","2019","04","06","18:00","0.0","","-1.1","","92","","","","12","","27","","4.8","","95.80","","","","-6","","Snow,Fog"
"-105.67","53.21","PRINCE ALBERT A","4056241","2019-04-06 19:00","2019","04","06","19:00","-0.1","","-1.3","","92","","","","11","","29","","4.0","","95.71","","","","-6","","Snow,Fog"
"-105.67","53.21","PRINCE ALBERT A","4056241","2019-04-06 20:00","2019","04","06","20:00","-0.4","","-1.6","","92","","","","11","","25","","6.4","","95.66","","","","-6","","Snow,Fog"
"-105.67","53.21","PRINCE ALBERT A","4056241","2019-04-06 21:00","2019","04","06","21:00","-0.3","","-1.3","","93","","","","11","","26","","6.4","","95.65","","","","-6","","Freezing Drizzle,Fog"
"-105.67","53.21","PRINCE ALBERT A","4056241","2019-04-06 22:00","2019","04","06","22:00","-0.2","","-1.2","","93","","","","10","","22","","6.4","","95.60","","","","-6","","Freezing Drizzle,Fog"
"-105.67","53.21","PRINCE ALBERT A","4056241","2019-04-06 23:00","2019","04","06","23:00","-0.2","","-1.2","","93","","","","10","","24","","4.8","","95.52","","","","-6","","Freezing Drizzle,Snow,Fog"
"-105.67","53.21","PRINCE ALBERT A","4056241","2019-04-07 00:00","2019","04","07","00:00","-0.2","","-1.1","","93","","","","11","","25","","4.8","","95.50","","","","-6","","Freezing Drizzle,Snow,Fog"
"-105.67","53.21","PRINCE ALBERT A","4056241","2019-04-07 01:00","2019","04","07","01:00","-0.8","","-1.7","","93","","","","11","","27","","4.8","","95.44","","","","-7","","Snow,Fog"
"-105.67","53.21","PRINCE ALBERT A","4056241","2019-04-07 02:00","2019","04","07","02:00","-1.0","","-1.9","","94","","","","10","","24","","4.0","","95.43","","","","-7","","Freezing Drizzle,Fog"
"-105.67","53.21","PRINCE ALBERT A","4056241","2019-04-07 03:00","2019","04","07","03:00","-0.9","","-1.7","","95","","","","9","","18","","4.0","","95.42","","","","-6","","Freezing Drizzle,Fog"
"-105.67","53.21","PRINCE ALBERT A","4056241","2019-04-07 04:00","2019","04","07","04:00","-0.6","","-1.3","","95","","","","10","","16","","3.2","","95.41","","","","-5","","Fog"
"-105.67","53.21","PRINCE ALBERT A","4056241","2019-04-07 05:00","2019","04","07","05:00","-0.4","","-1.1","","95","","","","10","","16","","4.0","","95.44","","","","-5","","Fog"
"-105.67","53.21","PRINCE ALBERT A","4056241","2019-04-07 06:00","2019","04","07","06:00","-0.4","","-1.1","","95","","","","10","","11","","4.8","","95.48","","","","-4","","Fog"
"-105.67","53.21","PRINCE ALBERT A","4056241","2019-04-07 07:00","2019","04","07","07:00","-0.5","","-1.1","","95","","","","9","","7","","6.4","","95.50","","","","-3","","Fog"
"-105.67","53.21","PRINCE ALBERT A","4056241","2019-04-07 08:00","2019","04","07","08:00","-0.6","","-1.1","","96","","","","7","","10","","4.8","","95.48","","","","-4","","Fog"
"-105.67","53.21","PRINCE ALBERT A","4056241","2019-04-07 09:00","2019","04","07","09:00","-0.5","","-1.1","","96","","","","8","","8","","6.4","","95.47","","","","-3","","Snow,Fog"
"-105.67","53.21","PRINCE ALBERT A","4056241","2019-04-07 10:00","2019","04","07","10:00","-0.3","","-0.8","","96","","","","11","","7","","3.2","","95.48","","","","-3","","Snow,Fog"
"-105.67","53.21","PRINCE ALBERT A","4056241","2019-04-07 11:00","2019","04","07","11:00","0.0","","-0.5","","96","","","","18","","7","","1.2","","95.55","","","","-2","","Drizzle,Fog"
"-105.67","53.21","PRINCE ALBERT A","4056241","2019-04-07 12:00","2019","04","07","12:00","0.8","","0.2","","96","","","","5","","4","","4.8","","95.56","","","","","","Drizzle,Fog"
"-105.67","53.21","PRINCE ALBERT A","4056241","2019-04-07 13:00","2019","04","07","13:00","2.0","","0.9","","92","","","","36","","2","","12.9","","95.58","","","","","","NA"
"-105.67","53.21","PRINCE ALBERT A","4056241","2019-04-07 14:00","2019","04","07","14:00","2.6","","0.7","","87","","","","30","","7","","16.1","","95.56","","","","","","NA"
"-105.67","53.21","PRINCE ALBERT A","4056241","2019-04-07 15:00","2019","04","07","15:00","3.7","","1.8","","87","","","","29","","5","","19.3","","95.56","","","","","","Cloudy"
"-105.67","53.21","PRINCE ALBERT A","4056241","2019-04-07 16:00","2019","04","07","16:00","3.8","","1.8","","87","","","","2","","7","","16.1","","95.57","","","","","","NA"
"-105.67","53.21","PRINCE ALBERT A","4056241","2019-04-07 17:00","2019","04","07","17:00","4.4","","1.7","","83","","","","2","","8","","19.3","","95.57","","","","","","NA"
"-105.67","53.21","PRINCE ALBERT A","4056241","2019-04-07 18:00","2019","04","07","18:00","4.5","","1.6","","82","","","","6","","16","","24.1","","95.59","","","","","","Mostly Cloudy"
"-105.67","53.21","PRINCE ALBERT A","4056241","2019-04-07 19:00","2019","04","07","19:00","3.2","","0.8","","85","","","","8","","12","","24.1","","95.63","","","","","","NA"
"-105.67","53.21","PRINCE ALBERT A","4056241","2019-04-07 20:00","2019","04","07","20:00","0.8","","-0.2","","93","","","","9","","8","","16.1","","95.69","","","","","","NA"
"-105.67","53.21","PRINCE ALBERT A","4056241","2019-04-07 21:00","2019","04","07","21:00","0.3","","-0.4","","95","","","","3","","3","","19.3","","95.75","","","","","","Mostly Cloudy"
"-105.67","53.21","PRINCE ALBERT A","4056241","2019-04-07 22:00","2019","04","07","22:00","-0.6","","-1.2","","96","","","","36","","1","","12.9","","95.78","","","","-1","","NA"
"-105.67","53.21","PRINCE ALBERT A","4056241","2019-04-07 23:00","2019","04","07","23:00","-0.9","","-1.4","","96","","","","36","","2","","24.1","","95.80","","","","-2","","NA"
"-105.67","53.21","PRINCE ALBERT A","4056241","2019-04-08 00:00","2019","04","08","00:00","-0.7","","-1.2","","97","","","","15","","9","","2.4","","95.86","","","","-4","","Fog"
"-105.67","53.21","PRINCE ALBERT A","4056241","2019-04-08 01:00","2019","04","08","01:00","-1.4","","-1.9","","97","","","","19","","5","","0.6","","95.89","","","","-3","","Freezing Fog"
"-105.67","53.21","PRINCE ALBERT A","4056241","2019-04-08 02:00","2019","04","08","02:00","-1.4","","-1.9","","97","","","","20","","8","","0.8","","95.88","","","","-4","","Freezing Fog"
"-105.67","53.21","PRINCE ALBERT A","4056241","2019-04-08 03:00","2019","04","08","03:00","-1.1","","-1.6","","97","","","","21","","6","","0.6","","95.89","","","","-3","","Freezing Fog"
"-105.67","53.21","PRINCE ALBERT A","4056241","2019-04-08 04:00","2019","04","08","04:00","-1.4","","-1.9","","97","","","","22","","6","","1.2","","95.94","","","","-4","","Fog"
"-105.67","53.21","PRINCE ALBERT A","4056241","2019-04-08 05:00","2019","04","08","05:00","-1.6","","-2.1","","96","","","","19","","9","","4.8","","95.97","","","","-5","","Fog"
"-105.67","53.21","PRINCE ALBERT A","4056241","2019-04-08 06:00","2019","04","08","06:00","-1.7","","-2.2","","96","","","","23","","4","","6.4","","96.01","","","","-3","","Fog"
"-105.67","53.21","PRINCE ALBERT A","4056241","2019-04-08 07:00","2019","04","08","07:00","-1.2","","-1.7","","96","","","","36","","3","","8.1","","95.97","","","","-2","","Fog"
"-105.67","53.21","PRINCE ALBERT A","4056241","2019-04-08 08:00","2019","04","08","08:00","-0.8","","-1.3","","96","","","","36","","2","","19.3","","96.04","","","","-1","","NA"
"-105.67","53.21","PRINCE ALBERT A","4056241","2019-04-08 09:00","2019","04","08","09:00","0.7","","0.0","","96","","","","22","","3","","19.3","","96.04","","","","","","Mostly Cloudy"
"-105.67","53.21","PRINCE ALBERT A","4056241","2019-04-08 10:00","2019","04","08","10:00","4.2","","2.2","","86","","","","30","","5","","19.3","","96.04","","","","","","NA"
"-105.67","53.21","PRINCE ALBERT A","4056241","2019-04-08 11:00","2019","04","08","11:00","5.7","","1.9","","77","","","","36","","15","","24.1","","96.11","","","","","","NA"
"-105.67","53.21","PRINCE ALBERT A","4056241","2019-04-08 12:00","2019","04","08","12:00","7.0","","1.9","","70","","","","1","","9","","24.1","","96.13","","","","","","Mostly Cloudy"
"-105.67","53.21","PRINCE ALBERT A","4056241","2019-04-08 13:00","2019","04","08","13:00","7.8","","2.7","","70","","","","7","","8","","24.1","","96.18","","","","","","NA"
"-105.67","53.21","PRINCE ALBERT A","4056241","2019-04-08 14:00","2019","04","08","14:00","7.3","","3.0","","74","","","","9","","20","","24.1","","96.23","","","","","","NA"
"-105.67","53.21","PRINCE ALBERT A","4056241","2019-04-08 15:00","2019","04","08","15:00","7.1","","2.5","","72","","","","9","","20","","24.1","","96.28","","","","","","Mostly Cloudy"
"-105.67","53.21","PRINCE ALBERT A","4056241","2019-04-08 16:00","2019","04","08","16:00","5.8","","2.6","","80","","","","10","","19","","24.1","","96.32","","","","","","NA"
"-105.67","53.21","PRINCE ALBERT A","4056241","2019-04-08 17:00","2019","04","08","17:00","5.0","","0.8","","74","","","","10","","20","","24.1","","96.37","","","","","","NA"
"-105.67","53.21","PRINCE ALBERT A","4056241","2019-04-08 18:00","2019","04","08","18:00","4.2","","0.2","","75","","","","7","","15","","24.1","","96.45","","","","","","Mainly Clear"
"-105.67","53.21","PRINCE ALBERT A","4056241","2019-04-08 19:00","2019","04","08","19:00","3.4","","-0.5","","76","","","","8","","17","","24.1","","96.52","","","","","","NA"
"-105.67","53.21","PRINCE ALBERT A","4056241","2019-04-08 20:00","2019","04","08","20:00","2.0","","-0.8","","82","","","","9","","12","","24.1","","96.58","","","","","","NA"
"-105.67","53.21","PRINCE ALBERT A","4056241","2019-04-08 21:00","2019","04","08","21:00","0.9","","-2.0","","81","","","","12","","16","","24.1","","96.62","","","","","","Cloudy"
"-105.67","53.21","PRINCE ALBERT A","4056241","2019-04-08 22:00","2019","04","08","22:00","-0.4","","-2.5","","85","","","","14","","16","","24.1","","96.71","","","","-5","","NA"
"-105.67","53.21","PRINCE ALBERT A","4056241","2019-04-08 23:00","2019","04","08","23:00","-1.0","","-3.4","","84","","","","12","","18","","24.1","","96.72","","","","-6","","NA"
"-105.67","53.21","PRINCE ALBERT A","4056241","2019-04-09 00:00","2019","04","09","00:00","-1.2","","-3.4","","85","","","","12","","13","","24.1","","96.75","","","","-5","","Cloudy"
"-105.67","53.21","PRINCE ALBERT A","4056241","2019-04-09 01:00","2019","04","09","01:00","-1.7","","-3.7","","86","","","","11","","17","","24.1","","96.80","","","","-7","","NA"
"-105.67","53.21","PRINCE ALBERT A","4056241","2019-04-09 02:00","2019","04","09","02:00","-1.8","","-3.8","","86","","","","10","","13","","24.1","","96.83","","","","-6","","NA"
"-105.67","53.21","PRINCE ALBERT A","4056241","2019-04-09 03:00","2019","04","09","03:00","-2.2","","-4.2","","87","","","","8","","15","","24.1","","96.86","","","","-7","","Cloudy"
"-105.67","53.21","PRINCE ALBERT A","4056241","2019-04-09 04:00","2019","04","09","04:00","-2.5","","-5.0","","83","","","","9","","16","","24.1","","96.88","","","","-8","","NA"
"-105.67","53.21","PRINCE ALBERT A","4056241","2019-04-09 05:00","2019","04","09","05:00","-2.9","","-5.2","","84","","","","10","","17","","24.1","","96.94","","","","-8","","NA"
"-105.67","53.21","PRINCE ALBERT A","4056241","2019-04-09 06:00","2019","04","09","06:00","-3.5","","-5.3","","87","","","","10","","17","","24.1","","96.98","","","","-9","","Cloudy"
"-105.67","53.21","PRINCE ALBERT A","4056241","2019-04-09 07:00","2019","04","09","07:00","-3.7","","-5.5","","88","","","","10","","18","","24.1","","97.02","","","","-10","","NA"
"-105.67","53.21","PRINCE ALBERT A","4056241","2019-04-09 08:00","2019","04","09","08:00","-3.5","","-5.7","","85","","","","9","","17","","12.9","","97.06","","","","-9","","NA"
"-105.67","53.21","PRINCE ALBERT A","4056241","2019-04-09 09:00","2019","04","09","09:00","-2.7","","-5.1","","83","","","","12","","14","","19.3","","97.08","","","","-8","","Cloudy"
"-105.67","53.21","PRINCE ALBERT A","4056241","2019-04-09 10:00","2019","04","09","10:00","-2.3","","-4.3","","86","","","","12","","18","","19.3","","97.10","","","","-8","","NA"
"-105.67","53.21","PRINCE ALBERT A","4056241","2019-04-09 11:00","2019","04","09","11:00","-1.9","","-4.4","","83","","","","12","","20","","24.1","","97.09","","","","-8","","NA"
"-105.67","53.21","PRINCE ALBERT A","4056241","2019-04-09 12:00","2019","04","09","12:00","-1.6","","-4.7","","79","","","","13","","21","","24.1","","97.13","","","","-7","","Cloudy"
"-105.67","53.21","PRINCE ALBERT A","4056241","2019-04-09 13:00","2019","04","09","13:00","-0.8","","-4.7","","75","","","","12","","20","","24.1","","97.14","","","","-6","","NA"
"-105.67","53.21","PRINCE ALBERT A","4056241","2019-04-09 14:00","2019","04","09","14:00","-0.3","","-4.3","","74","","","","13","","16","","24.1","","97.16","","","","-5","","NA"
"-105.67","53.21","PRINCE ALBERT A","4056241","2019-04-09 15:00","2019","04","09","15:00","-0.1","","-4.5","","72","","","","13","","16","","24.1","","97.17","","","","-5","","Cloudy"
"-105.67","53.21","PRINCE ALBERT A","4056241","2019-04-09 16:00","2019","04","09","16:00","0.2","","-4.6","","70","","","","14","","18","","24.1","","97.16","","","","","","NA"
"-105.67","53.21","PRINCE ALBERT A","4056241","2019-04-09 17:00","2019","04","09","17:00","0.2","","-5.0","","68","","","","11","","14","","24.1","","97.13","","","","","","NA"
"-105.67","53.21","PRINCE ALBERT A","4056241","2019-04-09 18:00","2019","04","09","18:00","-0.3","","-5.2","","69","","","","7","","14","","24.1","","97.15","","","","-5","","Mostly Cloudy"
"-105.67","53.21","PRINCE ALBERT A","4056241","2019-04-09 19:00","2019","04","09","19:00","-0.3","","-5.1","","70","","","","14","","10","","24.1","","97.20","","","","-4","","NA"
"-105.67","53.21","PRINCE ALBERT A","4056241","2019-04-09 20:00","2019","04","09","20:00","-1.1","","-4.8","","76","","","","13","","13","","24.1","","97.24","","","","-5","","NA"
"-105.67","53.21","PRINCE ALBERT A","4056241","2019-04-09 21:00","2019","04","09","21:00","-1.8","","-4.8","","80","","","","16","","8","","24.1","","97.28","","","","-5","","Mainly Clear"
"-105.67","53.21","PRINCE ALBERT A","4056241","2019-04-09 22:00","2019","04","09","22:00","-3.9","","-5.7","","88","","","","7","","9","","24.1","","97.30","","","","-8","","NA"
"-105.67","53.21","PRINCE ALBERT A","4056241","2019-04-09 23:00","2019","04","09","23:00","-4.8","","-6.3","","89","","","","7","","4","","24.1","","97.32","","","","-7","","NA"
"-105.67","53.21","PRINCE ALBERT A","4056241","2019-04-10 00:00","2019","04","10","00:00","-5.1","","-6.5","","90","","","","7","","6","","24.1","","97.28","","","","-8","","Mainly Clear"
"-105.67","53.21","PRINCE ALBERT A","4056241","2019-04-10 01:00","2019","04","10","01:00","-5.2","","-6.3","","92","","","","6","","9","","24.1","","97.27","","","","-9","","NA"
"-105.67","53.21","PRINCE ALBERT A","4056241","2019-04-10 02:00","2019","04","10","02:00","-3.9","","-6.2","","84","","","","11","","12","","24.1","","97.30","","","","-9","","NA"
"-105.67","53.21","PRINCE ALBERT A","4056241","2019-04-10 03:00","2019","04","10","03:00","-4.3","","-6.7","","84","","","","10","","11","","24.1","","97.30","","","","-9","","Clear"
"-105.67","53.21","PRINCE ALBERT A","4056241","2019-04-10 04:00","2019","04","10","04:00","-5.2","","-7.1","","87","","","","9","","10","","24.1","","97.32","","","","-10","","NA"
"-105.67","53.21","PRINCE ALBERT A","4056241","2019-04-10 05:00","2019","04","10","05:00","-5.3","","-7.2","","87","","","","11","","10","","24.1","","97.38","","","","-10","","NA"
"-105.67","53.21","PRINCE ALBERT A","4056241","2019-04-10 06:00","2019","04","10","06:00","-6.1","","-7.6","","89","","","","8","","11","","24.1","","97.39","","","","-11","","Clear"
"-105.67","53.21","PRINCE ALBERT A","4056241","2019-04-10 07:00","2019","04","10","07:00","-5.4","","-7.1","","88","","","","8","","13","","24.1","","97.38","","","","-11","","NA"
"-105.67","53.21","PRINCE ALBERT A","4056241","2019-04-10 08:00","2019","04","10","08:00","-3.5","","-6.0","","83","","","","11","","12","","24.1","","97.43","","","","-8","","NA"
"-105.67","53.21","PRINCE ALBERT A","4056241","2019-04-10 09:00","2019","04","10","09:00","-1.9","","-4.6","","82","","","","14","","12","","24.1","","97.44","","","","-6","","Mainly Clear"
"-105.67","53.21","PRINCE ALBERT A","4056241","2019-04-10 10:00","2019","04","10","10:00","0.3","","-2.9","","79","","","","15","","10","","24.1","","97.39","","","","","","NA"
"-105.67","53.21","PRINCE ALBERT A","4056241","2019-04-10 11:00","2019","04","10","11:00","1.8","","-2.4","","74","","","","15","","8","","24.1","","97.37","","","","","","NA"
"-105.67","53.21","PRINCE ALBERT A","4056241","2019-04-10 12:00","2019","04","10","12:00","3.5","","-2.6","","65","","","","13","","13","","24.1","","97.37","","","","","","Mainly Clear"
"-105.67","53.21","PRINCE ALBERT A","4056241","2019-04-10 13:00","2019","04","10","13:00","4.6","","-2.0","","62","","","","14","","16","","24.1","","97.36","","","","","","NA"
"-105.67","53.21","PRINCE ALBERT A","4056241","2019-04-10 14:00","2019","04","10","14:00","4.8","","-2.0","","61","","","","14","","22","","24.1","","97.36","","","","","","NA"
"-105.67","53.21","PRINCE ALBERT A","4056241","2019-04-10 15:00","2019","04","10","15:00","4.9","","-2.3","","60","","","","13","","21","","24.1","","97.35","","","","","","Mostly Cloudy"
"-105.67","53.21","PRINCE ALBERT A","4056241","2019-04-10 16:00","2019","04","10","16:00","5.2","","-1.8","","60","","","","15","","19","","24.1","","97.31","","","","","","NA"
"-105.67","53.21","PRINCE ALBERT A","4056241","2019-04-10 17:00","2019","04","10","17:00","5.3","","-2.1","","59","","","","12","","19","","24.1","","97.29","","","","","","NA"
"-105.67","53.21","PRINCE ALBERT A","4056241","2019-04-10 18:00","2019","04","10","18:00","4.5","","-2.7","","60","","","","14","","20","","24.1","","97.29","","","","","","Mostly Cloudy"
"-105.67","53.21","PRINCE ALBERT A","4056241","2019-04-10 19:00","2019","04","10","19:00","3.1","","-3.3","","63","","","","12","","21","","24.1","","97.26","","","","","","NA"
"-105.67","53.21","PRINCE ALBERT A","4056241","2019-04-10 20:00","2019","04","10","20:00","1.4","","-3.8","","69","","","","13","","18","","24.1","","97.27","","","","","","NA"
"-105.67","53.21","PRINCE ALBERT A","4056241","2019-04-10 21:00","2019","04","10","21:00","0.2","","-4.0","","73","","","","14","","15","","24.1","","97.33","","","","","","Mainly Clear"
"-105.67","53.21","PRINCE ALBERT A","4056241","2019-04-10 22:00","2019","04","10","22:00","-0.5","","-4.3","","76","","","","15","","16","","24.1","","97.37","","","","-5","","NA"
"-105.67","53.21","PRINCE ALBERT A","4056241","2019-04-10 23:00","2019","04","10","23:00","-1.6","","-4.5","","81","","","","15","","13","","24.1","","97.38","","","","-6","","NA"
"-105.67","53.21","PRINCE ALBERT A","4056241","2019-04-11 00:00","2019","04","11","00:00","-2.0","","-5.3","","78","","","","16","","18","","24.1","","97.39","","","","-7","","Mainly Clear"
"-105.67","53.21","PRINCE ALBERT A","4056241","2019-04-11 01:00","2019","04","11","01:00","-2.5","","-5.7","","79","","","","16","","11","","24.1","","97.39","","","","-7","","NA"
"-105.67","53.21","PRINCE ALBERT A","4056241","2019-04-11 02:00","2019","04","11","02:00","-2.9","","-5.8","","80","","","","15","","11","","24.1","","97.35","","","","-7","","NA"
"-105.67","53.21","PRINCE ALBERT A","4056241","2019-04-11 03:00","2019","04","11","03:00","-3.5","","-6.2","","82","","","","13","","7","","24.1","","97.33","","","","-6","","Mainly Clear"
"-105.67","53.21","PRINCE ALBERT A","4056241","2019-04-11 04:00","2019","04","11","04:00","-4.6","","-6.6","","86","","","","10","","8","","24.1","","97.33","","","","-8","","NA"
"-105.67","53.21","PRINCE ALBERT A","4056241","2019-04-11 05:00","2019","04","11","05:00","-5.7","","-6.9","","91","","","","7","","10","","24.1","","97.33","","","","-10","","NA"
"-105.67","53.21","PRINCE ALBERT A","4056241","2019-04-11 06:00","2019","04","11","06:00","-6.0","","-7.3","","91","","","","8","","9","","24.1","","97.33","","","","-10","","Mostly Cloudy"
"-105.67","53.21","PRINCE ALBERT A","4056241","2019-04-11 07:00","2019","04","11","07:00","-3.8","","-5.9","","85","","","","12","","9","","24.1","","97.36","","","","-8","","NA"
"-105.67","53.21","PRINCE ALBERT A","4056241","2019-04-11 08:00","2019","04","11","08:00","-2.5","","-5.6","","79","","","","14","","10","","24.1","","97.37","","","","-6","","NA"
"-105.67","53.21","PRINCE ALBERT A","4056241","2019-04-11 09:00","2019","04","11","09:00","-0.5","","-4.9","","72","","","","16","","14","","24.1","","97.36","","","","-5","","Mostly Cloudy"
"-105.67","53.21","PRINCE ALBERT A","4056241","2019-04-11 10:00","2019","04","11","10:00","0.8","","-5.5","","63","","","","18","","19","","24.1","","97.34","","","","","","NA"
"-105.67","53.21","PRINCE ALBERT A","4056241","2019-04-11 11:00","2019","04","11","11:00","2.6","","-4.4","","60","","","","16","","17","","24.1","","97.34","","","","","","NA"
"-105.67","53.21","PRINCE ALBERT A","4056241","2019-04-11 12:00","2019","04","11","12:00","3.5","","-4.3","","57","","","","14","","18","","24.1","","97.29","","","","","","Mostly Cloudy"
"-105.67","53.21","PRINCE ALBERT A","4056241","2019-04-11 13:00","2019","04","11","13:00","4.3","","-3.5","","57","","","","11","","22","","24.1","","97.22","","","","","","NA"
"-105.67","53.21","PRINCE ALBERT A","4056241","2019-04-11 14:00","2019","04","11","14:00","5.0","","-3.4","","55","","","","12","","20","","24.1","","97.17","","","","","","NA"
"-105.67","53.21","PRINCE ALBERT A","4056241","2019-04-11 15:00","2019","04","11","15:00","5.5","","-3.7","","51","","","","13","","15","","24.1","","97.13","","","","","","Mainly Clear"
"-105.67","53.21","PRINCE ALBERT A","4056241","2019-04-11 16:00","2019","04","11","16:00","5.9","","-4.4","","48","","","","10","","19","","24.1","","97.12","","","","","","NA"
"-105.67","53.21","PRINCE ALBERT A","4056241","2019-04-11 17:00","2019","04","11","17:00","6.1","","-5.8","","42","","","","14","","16","","24.1","","97.07","","","","","","NA"
"-105.67","53.21","PRINCE ALBERT A","4056241","2019-04-11 18:00","2019","04","11","18:00","5.9","","-8.0","","36","","","","11","","21","","24.1","","97.06","","","","","","Mainly Clear"
"-105.67","53.21","PRINCE ALBERT A","4056241","2019-04-11 19:00","2019","04","11","19:00","4.8","","-5.3","","48","","","","11","","13","","24.1","","97.07","","","","","","NA"
"-105.67","53.21","PRINCE ALBERT A","4056241","2019-04-11 20:00","2019","04","11","20:00","2.6","","-5.5","","55","","","","12","","13","","24.1","","97.06","","","","","","NA"
"-105.67","53.21","PRINCE ALBERT A","4056241","2019-04-11 21:00","2019","04","11","21:00","-0.3","","-5.6","","67","","","","6","","9","","24.1","","97.06","","","","-3","","Mainly Clear"
"-105.67","53.21","PRINCE ALBERT A","4056241","2019-04-11 22:00","2019","04","11","22:00","-1.4","","-6.3","","69","","","","6","","3","","24.1","","97.03","","","","-2","","NA"
"-105.67","53.21","PRINCE ALBERT A","4056241","2019-04-11 23:00","2019","04","11","23:00","-3.1","","-7.3","","73","","","","6","","3","","24.1","","97.00","","","","-4","","NA"
"-105.67","53.21","PRINCE ALBERT A","4056241","2019-04-12 00:00","2019","04","12","00:00","-4.4","","-8.3","","74","","","","36","","2","","24.1","","96.98","","","","-5","","Mainly Clear"
"-105.67","53.21","PRINCE ALBERT A","4056241","2019-04-12 01:00","2019","04","12","01:00","-4.9","","-8.8","","74","","","","","","0","","24.1","","96.99","","","","","","NA"
"-105.67","53.21","PRINCE ALBERT A","4056241","2019-04-12 02:00","2019","04","12","02:00","-6.8","","-9.4","","82","","","","2","","5","","24.1","","96.99","","","","-9","","NA"
"-105.67","53.21","PRINCE ALBERT A","4056241","2019-04-12 03:00","2019","04","12","03:00","-7.5","","-9.8","","84","","","","36","","1","","24.1","","96.98","","","","-8","","Clear"
"-105.67","53.21","PRINCE ALBERT A","4056241","2019-04-12 04:00","2019","04","12","04:00","-7.5","","-9.8","","84","","","","36","","3","","24.1","","96.96","","","","-9","","NA"
"-105.67","53.21","PRINCE ALBERT A","4056241","2019-04-12 05:00","2019","04","12","05:00","-7.9","","-9.8","","87","","","","14","","3","","24.1","","96.96","","","","-9","","NA"
"-105.67","53.21","PRINCE ALBERT A","4056241","2019-04-12 06:00","2019","04","12","06:00","-9.1","","-10.9","","87","","","","33","","5","","24.1","","96.97","","","","-12","","Mainly Clear"
"-105.67","53.21","PRINCE ALBERT A","4056241","2019-04-12 07:00","2019","04","12","07:00","-7.4","","-9.4","","86","","","","25","","3","","24.1","","96.97","","","","-9","","NA"
"-105.67","53.21","PRINCE ALBERT A","4056241","2019-04-12 08:00","2019","04","12","08:00","-3.9","","-6.6","","82","","","","36","","3","","24.1","","96.96","","","","-5","","NA"
"-105.67","53.21","PRINCE ALBERT A","4056241","2019-04-12 09:00","2019","04","12","09:00","-0.7","","-6.0","","68","","","","12","","3","","24.1","","96.93","","","","-2","","Mostly Cloudy"
"-105.67","53.21","PRINCE ALBERT A","4056241","2019-04-12 10:00","2019","04","12","10:00","3.3","","-6.4","","49","","","","30","","4","","24.1","","96.87","","","","","","NA"
"-105.67","53.21","PRINCE ALBERT A","4056241","2019-04-12 11:00","2019","04","12","11:00","5.2","","-8.8","","36","","","","1","","9","","24.1","","96.84","","","","","","NA"
"-105.67","53.21","PRINCE ALBERT A","4056241","2019-04-12 12:00","2019","04","12","12:00","5.8","","-8.2","","36","","","","12","","9","","24.1","","96.78","","","","","","Mostly Cloudy"
"-105.67","53.21","PRINCE ALBERT A","4056241","2019-04-12 13:00","2019","04","12","13:00","6.4","","-8.8","","33","","","","36","","1","","24.1","","96.68","","","","","","NA"
"-105.67","53.21","PRINCE ALBERT A","4056241","2019-04-12 14:00","2019","04","12","14:00","7.7","","-5.4","","39","","","","22","","10","","24.1","","96.60","","","","","","NA"
"-105.67","53.21","PRINCE ALBERT A","4056241","2019-04-12 15:00","2019","04","12","15:00","7.7","","-9.2","","29","","","","3","","5","","24.1","","96.55","","","","","","Mostly Cloudy"
"-105.67","53.21","PRINCE ALBERT A","4056241","2019-04-12 16:00","2019","04","12","16:00","8.5","","-7.7","","31","","","","15","","10","","24.1","","96.49","","","","","","NA"
"-105.67","53.21","PRINCE ALBERT A","4056241","2019-04-12 17:00","2019","04","12","17:00","8.5","","-8.7","","29","","","","17","","5","","24.1","","96.43","","","","","","NA"
"-105.67","53.21","PRINCE ALBERT A","4056241","2019-04-12 18:00","2019","04","12","18:00","8.6","","-7.6","","31","","","","15","","6","","24.1","","96.41","","","","","","Mostly Cloudy"
"-105.67","53.21","PRINCE ALBERT A","4056241","2019-04-12 19:00","2019","04","12","19:00","7.4","","-6.5","","37","","","","36","","1","","24.1","","96.39","","","","","","NA"
"-105.67","53.21","PRINCE ALBERT A","4056241","2019-04-12 20:00","2019","04","12","20:00","4.5","","-8.2","","39","","","","18","","3","","24.1","","96.34","","","","","","NA"
"-105.67","53.21","PRINCE ALBERT A","4056241","2019-04-12 21:00","2019","04","12","21:00","1.0","","-7.9","","52","","","","36","","2","","24.1","","96.31","","","","","","Mostly Cloudy"
"-105.67","53.21","PRINCE ALBERT A","4056241","2019-04-12 22:00","2019","04","12","22:00","-1.8","","-7.9","","63","","","","36","","2","","24.1","","96.29","","","","-3","","NA"
"-105.67","53.21","PRINCE ALBERT A","4056241","2019-04-12 23:00","2019","04","12","23:00","-1.3","","-7.4","","63","","","","23","","5","","24.1","","96.27","","","","-3","","NA"
"-105.67","53.21","PRINCE ALBERT A","4056241","2019-04-13 00:00","2019","04","13","00:00","0.9","","-7.7","","53","","","","22","","5","","24.1","","96.27","","","","","","Cloudy"
"-105.67","53.21","PRINCE ALBERT A","4056241","2019-04-13 01:00","2019","04","13","01:00","0.3","","-7.7","","55","","","","22","","7","","24.1","","96.26","","","","","","NA"
"-105.67","53.21","PRINCE ALBERT A","4056241","2019-04-13 02:00","2019","04","13","02:00","-1.3","","-8.2","","60","","","","0","","1","","24.1","","96.25","","","","-2","","NA"
"-105.67","53.21","PRINCE ALBERT A","4056241","2019-04-13 03:00","2019","04","13","03:00","-1.2","","-7.8","","61","","","","23","","6","","24.1","","96.24","","","","-3","","Cloudy"
"-105.67","53.21","PRINCE ALBERT A","4056241","2019-04-13 04:00","2019","04","13","04:00","-0.7","","-8.1","","58","","","","24","","5","","24.1","","96.23","","","","-2","","NA"
"-105.67","53.21","PRINCE ALBERT A","4056241","2019-04-13 05:00","2019","04","13","05:00","-1.7","","-7.9","","62","","","","21","","8","","24.1","","96.20","","","","-5","","NA"
"-105.67","53.21","PRINCE ALBERT A","4056241","2019-04-13 06:00","2019","04","13","06:00","-4.4","","-8.9","","71","","","","36","","3","","24.1","","96.16","","","","-6","","Mostly Cloudy"
"-105.67","53.21","PRINCE ALBERT A","4056241","2019-04-13 07:00","2019","04","13","07:00","-3.6","","-7.0","","77","","","","12","","3","","24.1","","96.13","","","","-5","","NA"
"-105.67","53.21","PRINCE ALBERT A","4056241","2019-04-13 08:00","2019","04","13","08:00","-0.4","","-7.5","","59","","","","20","","3","","24.1","","96.09","","","","-1","","NA"
"-105.67","53.21","PRINCE ALBERT A","4056241","2019-04-13 09:00","2019","04","13","09:00","2.1","","-7.0","","51","","","","18","","8","","24.1","","96.07","","","","","","Cloudy"
"-105.67","53.21","PRINCE ALBERT A","4056241","2019-04-13 10:00","2019","04","13","10:00","5.5","","-6.9","","40","","","","20","","14","","24.1","","96.06","","","","","","NA"
"-105.67","53.21","PRINCE ALBERT A","4056241","2019-04-13 11:00","2019","04","13","11:00","7.8","","-6.3","","36","","","","21","","16","","24.1","","96.03","","","","","","NA"
"-105.67","53.21","PRINCE ALBERT A","4056241","2019-04-13 12:00","2019","04","13","12:00","10.9","","-6.5","","29","","","","22","","19","","24.1","","95.97","","","","","","Mostly Cloudy"
"-105.67","53.21","PRINCE ALBERT A","4056241","2019-04-13 13:00","2019","04","13","13:00","11.7","","-8.3","","24","","","","19","","23","","24.1","","95.89","","","","","","NA"
"-105.67","53.21","PRINCE ALBERT A","4056241","2019-04-13 14:00","2019","04","13","14:00","12.6","","-9.4","","21","","","","22","","24","","24.1","","95.84","","","","","","NA"
"-105.67","53.21","PRINCE ALBERT A","4056241","2019-04-13 15:00","2019","04","13","15:00","12.8","","-10.4","","19","","","","19","","30","","24.1","","95.78","","","","","","Mostly Cloudy"
"-105.67","53.21","PRINCE ALBERT A","4056241","2019-04-13 16:00","2019","04","13","16:00","13.3","","-9.7","","19","","","","18","","22","","24.1","","95.69","","","","","","NA"
"-105.67","53.21","PRINCE ALBERT A","4056241","2019-04-13 17:00","2019","04","13","17:00","13.1","","-10.9","","18","","","","17","","28","","24.1","","95.61","","","","","","NA"
"-105.67","53.21","PRINCE ALBERT A","4056241","2019-04-13 18:00","2019","04","13","18:00","12.9","","-10.2","","19","","","","18","","23","","24.1","","95.52","","","","","","Clear"
"-105.67","53.21","PRINCE ALBERT A","4056241","2019-04-13 19:00","2019","04","13","19:00","11.8","","-8.7","","23","","","","17","","16","","24.1","","95.45","","","","","","NA"
"-105.67","53.21","PRINCE ALBERT A","4056241","2019-04-13 20:00","2019","04","13","20:00","8.7","","-7.0","","32","","","","14","","17","","24.1","","95.37","","","","","","NA"
"-105.67","53.21","PRINCE ALBERT A","4056241","2019-04-13 21:00","2019","04","13","21:00","6.3","","-6.8","","39","","","","13","","17","","24.1","","95.32","","","","","","Mainly Clear"
"-105.67","53.21","PRINCE ALBERT A","4056241","2019-04-13 22:00","2019","04","13","22:00","5.6","","-5.3","","45","","","","12","","18","","24.1","","95.25","","","","","","NA"
"-105.67","53.21","PRINCE ALBERT A","4056241","2019-04-13 23:00","2019","04","13","23:00","5.6","","-5.1","","46","","","","14","","13","","24.1","","95.21","","","","","","NA"
"-105.67","53.21","PRINCE ALBERT A","4056241","2019-04-14 00:00","2019","04","14","00:00","4.5","","-5.2","","49","","","","12","","7","","24.1","","95.14","","","","","","Cloudy"
"-105.67","53.21","PRINCE ALBERT A","4056241","2019-04-14 01:00","2019","04","14","01:00","4.8","","-5.5","","47","","","","14","","13","","24.1","","95.06","","","","","","NA"
"-105.67","53.21","PRINCE ALBERT A","4056241","2019-04-14 02:00","2019","04","14","02:00","4.8","","-6.1","","45","","","","14","","10","","24.1","","95.00","","","","","","NA"
"-105.67","53.21","PRINCE ALBERT A","4056241","2019-04-14 03:00","2019","04","14","03:00","2.3","","-5.0","","59","","","","5","","5","","24.1","","94.94","","","","","","Mostly Cloudy"
"-105.67","53.21","PRINCE ALBERT A","4056241","2019-04-14 04:00","2019","04","14","04:00","2.2","","-4.5","","61","","","","7","","12","","24.1","","94.87","","","","","","NA"
"-105.67","53.21","PRINCE ALBERT A","4056241","2019-04-14 05:00","2019","04","14","05:00","2.4","","-4.0","","62","","","","11","","9","","24.1","","94.84","","","","","","NA"
"-105.67","53.21","PRINCE ALBERT A","4056241","2019-04-14 06:00","2019","04","14","06:00","2.5","","-3.4","","65","","","","7","","12","","24.1","","94.82","","","","","","Cloudy"
"-105.67","53.21","PRINCE ALBERT A","4056241","2019-04-14 07:00","2019","04","14","07:00","3.4","","-3.4","","61","","","","7","","11","","24.1","","94.77","","","","","","NA"
"-105.67","53.21","PRINCE ALBERT A","4056241","2019-04-14 08:00","2019","04","14","08:00","6.2","","-3.2","","51","","","","16","","8","","24.1","","94.75","","","","","","Rain Showers"
"-105.67","53.21","PRINCE ALBERT A","4056241","2019-04-14 09:00","2019","04","14","09:00","5.8","","0.4","","68","","","","11","","6","","24.1","","94.69","","","","","","Rain Showers"
"-105.67","53.21","PRINCE ALBERT A","4056241","2019-04-14 10:00","2019","04","14","10:00","8.2","","-0.8","","53","","","","17","","18","","24.1","","94.65","","","","","","NA"
"-105.67","53.21","PRINCE ALBERT A","4056241","2019-04-14 11:00","2019","04","14","11:00","8.6","","-1.1","","51","","","","15","","18","","24.1","","94.62","","","","","","Rain Showers"
"-105.67","53.21","PRINCE ALBERT A","4056241","2019-04-14 12:00","2019","04","14","12:00","7.4","","1.7","","67","","","","14","","19","","16.1","","94.60","","","","","","Rain Showers"
"-105.67","53.21","PRINCE ALBERT A","4056241","2019-04-14 13:00","2019","04","14","13:00","6.7","","2.6","","75","","","","17","","10","","19.3","","94.58","","","","","","Rain Showers"
"-105.67","53.21","PRINCE ALBERT A","4056241","2019-04-14 14:00","2019","04","14","14:00","6.6","","4.3","","85","","","","12","","7","","9.7","","94.57","","","","","","Rain Showers,Fog"
"-105.67","53.21","PRINCE ALBERT A","4056241","2019-04-14 15:00","2019","04","14","15:00","6.9","","5.6","","92","","","","11","","14","","9.7","","94.52","","","","","","Rain Showers"
"-105.67","53.21","PRINCE ALBERT A","4056241","2019-04-14 16:00","2019","04","14","16:00","6.5","","4.6","","88","","","","11","","17","","12.9","","94.48","","","","","","Rain Showers"
"-105.67","53.21","PRINCE ALBERT A","4056241","2019-04-14 17:00","2019","04","14","17:00","7.5","","5.3","","86","","","","11","","19","","16.1","","94.44","","","","","","Rain Showers"
"-105.67","53.21","PRINCE ALBERT A","4056241","2019-04-14 18:00","2019","04","14","18:00","6.8","","4.9","","88","","","","8","","17","","24.1","","94.46","","","","","","Cloudy"
"-105.67","53.21","PRINCE ALBERT A","4056241","2019-04-14 19:00","2019","04","14","19:00","6.4","","4.4","","87","","","","8","","10","","24.1","","94.43","","","","","","NA"
"-105.67","53.21","PRINCE ALBERT A","4056241","2019-04-14 20:00","2019","04","14","20:00","4.6","","3.5","","93","","","","7","","13","","24.1","","94.38","","","","","","NA"
"-105.67","53.21","PRINCE ALBERT A","4056241","2019-04-14 21:00","2019","04","14","21:00","3.5","","2.8","","95","","","","7","","7","","24.1","","94.41","","","","","","Mostly Cloudy"
"-105.67","53.21","PRINCE ALBERT A","4056241","2019-04-14 22:00","2019","04","14","22:00","1.9","","1.3","","96","","","","36","","3","","24.1","","94.45","","","","","","NA"
"-105.67","53.21","PRINCE ALBERT A","4056241","2019-04-14 23:00","2019","04","14","23:00","2.0","","1.6","","97","","","","31","","7","","16.1","","94.50","","","","","","NA"
"-105.67","53.21","PRINCE ALBERT A","4056241","2019-04-15 00:00","2019","04","15","00:00","1.9","","1.5","","97","","","","30","","7","","16.1","","94.49","","","","","","Cloudy"
"-105.67","53.21","PRINCE ALBERT A","4056241","2019-04-15 01:00","2019","04","15","01:00","2.7","","2.4","","97","","","","27","","7","","6.4","","94.52","","","","","","Fog"
"-105.67","53.21","PRINCE ALBERT A","4056241","2019-04-15 02:00","2019","04","15","02:00","3.2","","2.8","","97","","","","27","","7","","6.4","","94.55","","","","","","Fog"
"-105.67","53.21","PRINCE ALBERT A","4056241","2019-04-15 03:00","2019","04","15","03:00","3.3","","2.7","","96","","","","28","","8","","6.4","","94.56","","","","","","Fog"
"-105.67","53.21","PRINCE ALBERT A","4056241","2019-04-15 04:00","2019","04","15","04:00","3.1","","2.6","","97","","","","28","","8","","1.2","","94.58","","","","","","Fog"
"-105.67","53.21","PRINCE ALBERT A","4056241","2019-04-15 05:00","2019","04","15","05:00","2.4","","2.0","","97","","","","27","","12","","6.4","","94.58","","","","","","Fog"
"-105.67","53.21","PRINCE ALBERT A","4056241","2019-04-15 06:00","2019","04","15","06:00","2.8","","1.7","","93","","","","27","","14","","16.1","","94.60","","","","","","Mostly Cloudy"
"-105.67","53.21","PRINCE ALBERT A","4056241","2019-04-15 07:00","2019","04","15","07:00","3.3","","1.7","","89","","","","29","","17","","24.1","","94.64","","","","","","NA"
"-105.67","53.21","PRINCE ALBERT A","4056241","2019-04-15 08:00","2019","04","15","08:00","3.0","","1.7","","91","","","","28","","17","","19.3","","94.68","","","","","","Rain Showers"
"-105.67","53.21","PRINCE ALBERT A","4056241","2019-04-15 09:00","2019","04","15","09:00","3.7","","1.6","","86","","","","30","","25","","24.1","","94.72","","","","","","Cloudy"
"-105.67","53.21","PRINCE ALBERT A","4056241","2019-04-15 10:00","2019","04","15","10:00","4.1","","1.7","","85","","","","30","","23","","24.1","","94.76","","","","","","Rain Showers"
"-105.67","53.21","PRINCE ALBERT A","4056241","2019-04-15 11:00","2019","04","15","11:00","4.3","","2.1","","86","","","","29","","22","","19.3","","94.80","","","","","","Rain Showers"
"-105.67","53.21","PRINCE ALBERT A","4056241","2019-04-15 12:00","2019","04","15","12:00","4.7","","2.2","","84","","","","30","","23","","19.3","","94.84","","","","","","Rain Showers"
"-105.67","53.21","PRINCE ALBERT A","4056241","2019-04-15 13:00","2019","04","15","13:00","6.0","","3.3","","83","","","","30","","21","","19.3","","94.86","","","","","","Rain Showers"
"-105.67","53.21","PRINCE ALBERT A","4056241","2019-04-15 14:00","2019","04","15","14:00","6.4","","2.8","","77","","","","30","","28","","24.1","","94.92","","","","","","Rain Showers"
"-105.67","53.21","PRINCE ALBERT A","4056241","2019-04-15 15:00","2019","04","15","15:00","7.6","","2.4","","69","","","","30","","32","","24.1","","94.97","","","","","","Rain Showers"
"-105.67","53.21","PRINCE ALBERT A","4056241","2019-04-15 16:00","2019","04","15","16:00","7.0","","3.0","","76","","","","31","","27","","24.1","","95.02","","","","","","Rain Showers"
"-105.67","53.21","PRINCE ALBERT A","4056241","2019-04-15 17:00","2019","04","15","17:00","6.8","","1.7","","70","","","","34","","24","","24.1","","95.07","","","","","","NA"
"-105.67","53.21","PRINCE ALBERT A","4056241","2019-04-15 18:00","2019","04","15","18:00","7.0","","0.7","","64","","","","34","","21","","24.1","","95.15","","","","","","Mostly Cloudy"
"-105.67","53.21","PRINCE ALBERT A","4056241","2019-04-15 19:00","2019","04","15","19:00","6.1","","0.7","","68","","","","33","","21","","24.1","","95.23","","","","","","NA"
"-105.67","53.21","PRINCE ALBERT A","4056241","2019-04-15 20:00","2019","04","15","20:00","4.9","","0.3","","72","","","","31","","17","","24.1","","95.33","","","","","","NA"
"-105.67","53.21","PRINCE ALBERT A","4056241","2019-04-15 21:00","2019","04","15","21:00","4.3","","0.4","","76","","","","30","","19","","24.1","","95.40","","","","","","Mostly Cloudy"
"-105.67","53.21","PRINCE ALBERT A","4056241","2019-04-15 22:00","2019","04","15","22:00","3.8","","0.6","","80","","","","31","","18","","24.1","","95.45","","","","","","NA"
"-105.67","53.21","PRINCE ALBERT A","4056241","2019-04-15 23:00","2019","04","15","23:00","3.4","","0.5","","81","","","","30","","13","","24.1","","95.50","","","","","","NA"
"-105.67","53.21","PRINCE ALBERT A","4056241","2019-04-16 00:00","2019","04","16","00:00","2.5","","0.0","","84","","","","30","","16","","24.1","","95.55","","","","","","Mostly Cloudy"
"-105.67","53.21","PRINCE ALBERT A","4056241","2019-04-16 01:00","2019","04","16","01:00","2.2","","0.0","","85","","","","31","","14","","24.1","","95.63","","","","","","NA"
"-105.67","53.21","PRINCE ALBERT A","4056241","2019-04-16 02:00","2019","04","16","02:00","2.5","","0.4","","86","","","","30","","17","","24.1","","95.68","","","","","","NA"
"-105.67","53.21","PRINCE ALBERT A","4056241","2019-04-16 03:00","2019","04","16","03:00","2.4","","0.4","","86","","","","29","","12","","24.1","","95.74","","","","","","Cloudy"
"-105.67","53.21","PRINCE ALBERT A","4056241","2019-04-16 04:00","2019","04","16","04:00","2.6","","0.3","","85","","","","30","","17","","24.1","","95.79","","","","","","NA"
"-105.67","53.21","PRINCE ALBERT A","4056241","2019-04-16 05:00","2019","04","16","05:00","2.5","","-0.1","","83","","","","31","","14","","24.1","","95.85","","","","","","NA"
"-105.67","53.21","PRINCE ALBERT A","4056241","2019-04-16 06:00","2019","04","16","06:00","2.3","","-0.7","","81","","","","32","","16","","24.1","","95.93","","","","","","Cloudy"
"-105.67","53.21","PRINCE ALBERT A","4056241","2019-04-16 07:00","2019","04","16","07:00","2.1","","-0.5","","83","","","","31","","14","","24.1","","96.02","","","","","","NA"
"-105.67","53.21","PRINCE ALBERT A","4056241","2019-04-16 08:00","2019","04","16","08:00","2.0","","-0.9","","81","","","","31","","18","","24.1","","96.10","","","","","","NA"
"-105.67","53.21","PRINCE ALBERT A","4056241","2019-04-16 09:00","2019","04","16","09:00","2.1","","-0.4","","84","","","","32","","16","","24.1","","96.16","","","","","","Cloudy"
"-105.67","53.21","PRINCE ALBERT A","4056241","2019-04-16 10:00","2019","04","16","10:00","2.8","","-0.7","","78","","","","29","","14","","24.1","","96.21","","","","","","NA"
"-105.67","53.21","PRINCE ALBERT A","4056241","2019-04-16 11:00","2019","04","16","11:00","4.1","","-0.6","","72","","","","32","","15","","24.1","","96.25","","","","","","NA"
"-105.67","53.21","PRINCE ALBERT A","4056241","2019-04-16 12:00","2019","04","16","12:00","6.3","","-0.2","","63","","","","36","","7","","24.1","","96.28","","","","","","Mainly Clear"
"-105.67","53.21","PRINCE ALBERT A","4056241","2019-04-16 13:00","2019","04","16","13:00","8.2","","-0.2","","55","","","","31","","8","","24.1","","96.23","","","","","","NA"
"-105.67","53.21","PRINCE ALBERT A","4056241","2019-04-16 14:00","2019","04","16","14:00","9.7","","-0.8","","48","","","","31","","20","","24.1","","96.21","","","","","","NA"
"-105.67","53.21","PRINCE ALBERT A","4056241","2019-04-16 15:00","2019","04","16","15:00","10.5","","-2.1","","41","","","","30","","13","","24.1","","96.18","","","","","","Mainly Clear"
"-105.67","53.21","PRINCE ALBERT A","4056241","2019-04-16 16:00","2019","04","16","16:00","11.9","","-4.4","","32","","","","33","","13","","24.1","","96.17","","","","","","NA"
"-105.67","53.21","PRINCE ALBERT A","4056241","2019-04-16 17:00","2019","04","16","17:00","12.2","","-7.0","","26","","","","31","","19","","24.1","","96.18","","","","","","NA"
"-105.67","53.21","PRINCE ALBERT A","4056241","2019-04-16 18:00","2019","04","16","18:00","11.6","","-5.2","","30","","","","2","","7","","24.1","","96.19","","","","","","Cloudy"
"-105.67","53.21","PRINCE ALBERT A","4056241","2019-04-16 19:00","2019","04","16","19:00","10.8","","-4.6","","33","","","","36","","2","","24.1","","96.17","","","","","","NA"
"-105.67","53.21","PRINCE ALBERT A","4056241","2019-04-16 20:00","2019","04","16","20:00","9.3","","-4.9","","36","","","","14","","7","","24.1","","96.18","","","","","","NA"
"-105.67","53.21","PRINCE ALBERT A","4056241","2019-04-16 21:00","2019","04","16","21:00","3.3","","-4.5","","57","","","","7","","3","","24.1","","96.20","","","","","","Mostly Cloudy"
"-105.67","53.21","PRINCE ALBERT A","4056241","2019-04-16 22:00","2019","04","16","22:00","1.1","","-4.9","","64","","","","6","","11","","24.1","","96.22","","","","","","NA"
"-105.67","53.21","PRINCE ALBERT A","4056241","2019-04-16 23:00","2019","04","16","23:00","2.4","","-3.9","","63","","","","9","","6","","24.1","","96.21","","","","","","NA"
"-105.67","53.21","PRINCE ALBERT A","4056241","2019-04-17 00:00","2019","04","17","00:00","2.1","","-3.3","","67","","","","0","","1","","24.1","","96.23","","","","","","Mostly Cloudy"
"-105.67","53.21","PRINCE ALBERT A","4056241","2019-04-17 01:00","2019","04","17","01:00","-1.3","","-4.8","","77","","","","36","","2","","24.1","","96.22","","","","-2","","NA"
"-105.67","53.21","PRINCE ALBERT A","4056241","2019-04-17 02:00","2019","04","17","02:00","-1.5","","-5.0","","78","","","","6","","4","","24.1","","96.20","","","","-3","","NA"
"-105.67","53.21","PRINCE ALBERT A","4056241","2019-04-17 03:00","2019","04","17","03:00","-1.6","","-4.0","","83","","","","36","","2","","24.1","","96.19","","","","-2","","Mostly Cloudy"
"-105.67","53.21","PRINCE ALBERT A","4056241","2019-04-17 04:00","2019","04","17","04:00","-1.9","","-4.0","","86","","","","10","","4","","24.1","","96.17","","","","-3","","NA"
"-105.67","53.21","PRINCE ALBERT A","4056241","2019-04-17 05:00","2019","04","17","05:00","-4.0","","-5.7","","88","","","","8","","5","","24.1","","96.15","","","","-6","","NA"
"-105.67","53.21","PRINCE ALBERT A","4056241","2019-04-17 06:00","2019","04","17","06:00","-1.1","","-3.6","","83","","","","7","","5","","24.1","","96.15","","","","-3","","Mostly Cloudy"
"-105.67","53.21","PRINCE ALBERT A","4056241","2019-04-17 07:00","2019","04","17","07:00","0.0","","-1.5","","89","","","","7","","8","","24.1","","96.17","","","","-3","","NA"
"-105.67","53.21","PRINCE ALBERT A","4056241","2019-04-17 08:00","2019","04","17","08:00","1.6","","-1.3","","81","","","","7","","7","","24.1","","96.16","","","","","","NA"
"-105.67","53.21","PRINCE ALBERT A","4056241","2019-04-17 09:00","2019","04","17","09:00","5.3","","-0.4","","67","","","","22","","7","","24.1","","96.14","","","","","","Mostly Cloudy"
"-105.67","53.21","PRINCE ALBERT A","4056241","2019-04-17 10:00","2019","04","17","10:00","8.7","","1.5","","61","","","","22","","10","","24.1","","96.12","","","","","","NA"
"-105.67","53.21","PRINCE ALBERT A","4056241","2019-04-17 11:00","2019","04","17","11:00","10.2","","1.7","","55","","","","21","","17","","24.1","","96.11","","","","","","NA"
"-105.67","53.21","PRINCE ALBERT A","4056241","2019-04-17 12:00","2019","04","17","12:00","9.8","","1.7","","57","","","","22","","8","","24.1","","96.08","","","","","","Mostly Cloudy"
"-105.67","53.21","PRINCE ALBERT A","4056241","2019-04-17 13:00","2019","04","17","13:00","12.6","","1.1","","45","","","","20","","14","","24.1","","96.04","","","","","","NA"
"-105.67","53.21","PRINCE ALBERT A","4056241","2019-04-17 14:00","2019","04","17","14:00","11.8","","1.6","","49","","","","23","","26","","24.1","","96.02","","","","","","Rain Showers"
"-105.67","53.21","PRINCE ALBERT A","4056241","2019-04-17 15:00","2019","04","17","15:00","11.4","","2.6","","54","","","","15","","23","","24.1","","95.94","","","","","","Mostly Cloudy"
"-105.67","53.21","PRINCE ALBERT A","4056241","2019-04-17 16:00","2019","04","17","16:00","12.1","","1.7","","49","","","","15","","18","","24.1","","95.89","","","","","","NA"
"-105.67","53.21","PRINCE ALBERT A","4056241","2019-04-17 17:00","2019","04","17","17:00","11.4","","1.8","","51","","","","14","","22","","24.1","","95.87","","","","","","NA"
"-105.67","53.21","PRINCE ALBERT A","4056241","2019-04-17 18:00","2019","04","17","18:00","10.8","","2.2","","55","","","","14","","22","","24.1","","95.89","","","","","","Mostly Cloudy"
"-105.67","53.21","PRINCE ALBERT A","4056241","2019-04-17 19:00","2019","04","17","19:00","8.7","","3.5","","70","","","","1","","22","","24.1","","95.99","","","","","","NA"
"-105.67","53.21","PRINCE ALBERT A","4056241","2019-04-17 20:00","2019","04","17","20:00","6.8","","4.2","","83","","","","7","","12","","24.1","","96.04","","","","","","NA"
"-105.67","53.21","PRINCE ALBERT A","4056241","2019-04-17 21:00","2019","04","17","21:00","6.3","","4.3","","87","","","","4","","12","","16.1","","96.12","","","","","","Rain Showers"
"-105.67","53.21","PRINCE ALBERT A","4056241","2019-04-17 22:00","2019","04","17","22:00","5.8","","4.0","","88","","","","9","","13","","24.1","","96.12","","","","","","NA"
"-105.67","53.21","PRINCE ALBERT A","4056241","2019-04-17 23:00","2019","04","17","23:00","5.0","","3.3","","89","","","","18","","7","","24.1","","96.13","","","","","","NA"
"-105.67","53.21","PRINCE ALBERT A","4056241","2019-04-18 00:00","2019","04","18","00:00","4.3","","3.2","","93","","","","28","","5","","24.1","","96.24","","","","","","Cloudy"
"-105.67","53.21","PRINCE ALBERT A","4056241","2019-04-18 01:00","2019","04","18","01:00","3.6","","2.6","","93","","","","12","","5","","24.1","","96.26","","","","","","Rain Showers"
"-105.67","53.21","PRINCE ALBERT A","4056241","2019-04-18 02:00","2019","04","18","02:00","2.5","","2.0","","96","","","","36","","2","","24.1","","96.22","","","","","","NA"
"-105.67","53.21","PRINCE ALBERT A","4056241","2019-04-18 03:00","2019","04","18","03:00","1.7","","1.2","","96","","","","25","","5","","8.1","","96.24","","","","","","Fog"
"-105.67","53.21","PRINCE ALBERT A","4056241","2019-04-18 04:00","2019","04","18","04:00","1.6","","1.2","","97","","","","27","","14","","24.1","","96.29","","","","","","NA"
"-105.67","53.21","PRINCE ALBERT A","4056241","2019-04-18 05:00","2019","04","18","05:00","2.5","","1.6","","94","","","","27","","16","","24.1","","96.34","","","","","","NA"
"-105.67","53.21","PRINCE ALBERT A","4056241","2019-04-18 06:00","2019","04","18","06:00","1.0","","0.2","","95","","","","27","","8","","24.1","","96.39","","","","","","Clear"
"-105.67","53.21","PRINCE ALBERT A","4056241","2019-04-18 07:00","2019","04","18","07:00","1.3","","0.5","","94","","","","25","","7","","24.1","","96.46","","","","","","NA"
"-105.67","53.21","PRINCE ALBERT A","4056241","2019-04-18 08:00","2019","04","18","08:00","3.8","","1.6","","85","","","","27","","13","","24.1","","96.54","","","","","","NA"
"-105.67","53.21","PRINCE ALBERT A","4056241","2019-04-18 09:00","2019","04","18","09:00","6.6","","2.5","","75","","","","30","","12","","24.1","","96.53","","","","","","Clear"
"-105.67","53.21","PRINCE ALBERT A","4056241","2019-04-18 10:00","2019","04","18","10:00","8.5","","2.4","","65","","","","28","","14","","24.1","","96.57","","","","","","NA"
"-105.67","53.21","PRINCE ALBERT A","4056241","2019-04-18 11:00","2019","04","18","11:00","11.0","","3.4","","59","","","","27","","13","","24.1","","96.58","","","","","","NA"
"-105.67","53.21","PRINCE ALBERT A","4056241","2019-04-18 12:00","2019","04","18","12:00","12.5","","1.8","","48","","","","21","","8","","24.1","","96.59","","","","","","Mainly Clear"
"-105.67","53.21","PRINCE ALBERT A","4056241","2019-04-18 13:00","2019","04","18","13:00","13.6","","-0.2","","38","","","","26","","14","","24.1","","96.53","","","","","","NA"
"-105.67","53.21","PRINCE ALBERT A","4056241","2019-04-18 14:00","2019","04","18","14:00","14.9","","-0.4","","35","","","","26","","13","","24.1","","96.47","","","","","","NA"
"-105.67","53.21","PRINCE ALBERT A","4056241","2019-04-18 15:00","2019","04","18","15:00","15.3","","-2.2","","30","","","","28","","15","","24.1","","96.39","","","","","","Mostly Cloudy"
"-105.67","53.21","PRINCE ALBERT A","4056241","2019-04-18 16:00","2019","04","18","16:00","15.4","","-3.1","","28","","","","26","","14","","24.1","","96.32","","","","","","NA"
"-105.67","53.21","PRINCE ALBERT A","4056241","2019-04-18 17:00","2019","04","18","17:00","15.4","","-2.9","","28","","","","26","","14","","24.1","","96.26","","","","","","NA"
"-105.67","53.21","PRINCE ALBERT A","4056241","2019-04-18 18:00","2019","04","18","18:00","15.3","","-2.7","","29","","","","28","","14","","24.1","","96.22","","","","","","Mostly Cloudy"
"-105.67","53.21","PRINCE ALBERT A","4056241","2019-04-18 19:00","2019","04","18","19:00","14.6","","-2.8","","30","","","","27","","13","","24.1","","96.15","","","","","","NA"
"-105.67","53.21","PRINCE ALBERT A","4056241","2019-04-18 20:00","2019","04","18","20:00","12.8","","-2.5","","34","","","","21","","6","","24.1","","96.08","","","","","","NA"
"-105.67","53.21","PRINCE ALBERT A","4056241","2019-04-18 21:00","2019","04","18","21:00","10.0","","-1.6","","44","","","","36","","2","","24.1","","96.03","","","","","","Mostly Cloudy"
"-105.67","53.21","PRINCE ALBERT A","4056241","2019-04-18 22:00","2019","04","18","22:00","8.5","","-2.0","","48","","","","36","","3","","24.1","","95.95","","","","","","NA"
"-105.67","53.21","PRINCE ALBERT A","4056241","2019-04-18 23:00","2019","04","18","23:00","8.1","","-1.1","","52","","","","23","","7","","24.1","","95.89","","","","","","NA"
"-105.67","53.21","PRINCE ALBERT A","4056241","2019-04-19 00:00","2019","04","19","00:00","8.3","","-0.9","","52","","","","23","","5","","24.1","","95.83","","","","","","Mostly Cloudy"
"-105.67","53.21","PRINCE ALBERT A","4056241","2019-04-19 01:00","2019","04","19","01:00","7.2","","-1.1","","56","","","","36","","3","","24.1","","95.74","","","","","","NA"
"-105.67","53.21","PRINCE ALBERT A","4056241","2019-04-19 02:00","2019","04","19","02:00","7.2","","-1.5","","54","","","","36","","1","","22.5","","95.64","","","","","","NA"
"-105.67","53.21","PRINCE ALBERT A","4056241","2019-04-19 03:00","2019","04","19","03:00","6.2","","-1.1","","60","","","","9","","3","","24.1","","95.55","","","","","","Cloudy"
"-105.67","53.21","PRINCE ALBERT A","4056241","2019-04-19 04:00","2019","04","19","04:00","5.2","","-0.8","","65","","","","36","","2","","24.1","","95.48","","","","","","NA"
"-105.67","53.21","PRINCE ALBERT A","4056241","2019-04-19 05:00","2019","04","19","05:00","4.5","","0.0","","73","","","","9","","8","","24.1","","95.36","","","","","","NA"
"-105.67","53.21","PRINCE ALBERT A","4056241","2019-04-19 06:00","2019","04","19","06:00","3.6","","0.4","","79","","","","8","","8","","24.1","","95.24","","","","","","Mostly Cloudy"
"-105.67","53.21","PRINCE ALBERT A","4056241","2019-04-19 07:00","2019","04","19","07:00","5.4","","-0.7","","65","","","","3","","7","","24.1","","95.12","","","","","","NA"
"-105.67","53.21","PRINCE ALBERT A","4056241","2019-04-19 08:00","2019","04","19","08:00","8.7","","-0.1","","54","","","","25","","8","","24.1","","95.13","","","","","","NA"
"-105.67","53.21","PRINCE ALBERT A","4056241","2019-04-19 09:00","2019","04","19","09:00","12.2","","-0.3","","42","","","","21","","18","","24.1","","94.98","","","","","","Cloudy"
"-105.67","53.21","PRINCE ALBERT A","4056241","2019-04-19 10:00","2019","04","19","10:00","14.0","","0.2","","39","","","","27","","18","","24.1","","95.05","","","","","","NA"
"-105.67","53.21","PRINCE ALBERT A","4056241","2019-04-19 11:00","2019","04","19","11:00","14.1","","-1.3","","34","","","","31","","33","","24.1","","95.09","","","","","","NA"
"-105.67","53.21","PRINCE ALBERT A","4056241","2019-04-19 12:00","2019","04","19","12:00","14.4","","1.4","","41","","","","35","","28","","24.1","","95.16","","","","","","Mostly Cloudy"
"-105.67","53.21","PRINCE ALBERT A","4056241","2019-04-19 13:00","2019","04","19","13:00","15.4","","2.4","","41","","","","32","","30","","24.1","","95.20","","","","","","NA"
"-105.67","53.21","PRINCE ALBERT A","4056241","2019-04-19 14:00","2019","04","19","14:00","17.5","","3.0","","38","","","","30","","32","","24.1","","95.19","","","","","","NA"
"-105.67","53.21","PRINCE ALBERT A","4056241","2019-04-19 15:00","2019","04","19","15:00","16.7","","2.5","","38","","","","29","","36","","24.1","","95.17","","","","","","Mostly Cloudy"
"-105.67","53.21","PRINCE ALBERT A","4056241","2019-04-19 16:00","2019","04","19","16:00","16.6","","0.6","","34","","","","32","","35","","24.1","","95.18","","","","","","NA"
"-105.67","53.21","PRINCE ALBERT A","4056241","2019-04-19 17:00","2019","04","19","17:00","15.8","","-0.9","","32","","","","31","","29","","24.1","","95.17","","","","","","NA"
"-105.67","53.21","PRINCE ALBERT A","4056241","2019-04-19 18:00","2019","04","19","18:00","15.8","","-0.4","","33","","","","30","","22","","24.1","","95.19","","","","","","Mostly Cloudy"
"-105.67","53.21","PRINCE ALBERT A","4056241","2019-04-19 19:00","2019","04","19","19:00","15.4","","-0.9","","33","","","","30","","22","","24.1","","95.17","","","","","","NA"
"-105.67","53.21","PRINCE ALBERT A","4056241","2019-04-19 20:00","2019","04","19","20:00","13.9","","-1.7","","34","","","","29","","17","","24.1","","95.18","","","","","","NA"
"-105.67","53.21","PRINCE ALBERT A","4056241","2019-04-19 21:00","2019","04","19","21:00","12.5","","-1.7","","37","","","","30","","17","","24.1","","95.22","","","","","","Mostly Cloudy"
"-105.67","53.21","PRINCE ALBERT A","4056241","2019-04-19 22:00","2019","04","19","22:00","10.4","","-1.3","","44","","","","30","","13","","24.1","","95.28","","","","","","NA"
"-105.67","53.21","PRINCE ALBERT A","4056241","2019-04-19 23:00","2019","04","19","23:00","9.5","","-1.7","","45","","","","32","","10","","24.1","","95.31","","","","","","NA"
"-105.67","53.21","PRINCE ALBERT A","4056241","2019-04-20 00:00","2019","04","20","00:00","8.1","","2.8","","69","","","","24","","4","","24.1","","95.36","","","","","","Mostly Cloudy"
"-105.67","53.21","PRINCE ALBERT A","4056241","2019-04-20 01:00","2019","04","20","01:00","6.7","","-1.8","","54","","","","36","","1","","24.1","","95.39","","","","","","NA"
"-105.67","53.21","PRINCE ALBERT A","4056241","2019-04-20 02:00","2019","04","20","02:00","3.8","","-0.8","","72","","","","27","","7","","24.1","","95.44","","","","","","NA"
"-105.67","53.21","PRINCE ALBERT A","4056241","2019-04-20 03:00","2019","04","20","03:00","3.7","","-1.4","","69","","","","30","","5","","24.1","","95.48","","","","","","Mostly Cloudy"
"-105.67","53.21","PRINCE ALBERT A","4056241","2019-04-20 04:00","2019","04","20","04:00","4.6","","-1.6","","64","","","","29","","7","","24.1","","95.54","","","","","","NA"
"-105.67","53.21","PRINCE ALBERT A","4056241","2019-04-20 05:00","2019","04","20","05:00","0.8","","-2.9","","76","","","","26","","8","","24.1","","95.61","","","","","","NA"
"-105.67","53.21","PRINCE ALBERT A","4056241","2019-04-20 06:00","2019","04","20","06:00","2.0","","-3.0","","70","","","","26","","8","","24.1","","95.67","","","","","","Mainly Clear"
"-105.67","53.21","PRINCE ALBERT A","4056241","2019-04-20 07:00","2019","04","20","07:00","2.3","","-2.0","","73","","","","26","","7","","24.1","","95.71","","","","","","NA"
"-105.67","53.21","PRINCE ALBERT A","4056241","2019-04-20 08:00","2019","04","20","08:00","5.9","","-2.2","","56","","","","25","","7","","24.1","","95.73","","","","","","NA"
"-105.67","53.21","PRINCE ALBERT A","4056241","2019-04-20 09:00","2019","04","20","09:00","9.4","","-1.9","","45","","","","25","","8","","24.1","","95.78","","","","","","Clear"
"-105.67","53.21","PRINCE ALBERT A","4056241","2019-04-20 10:00","2019","04","20","10:00","12.2","","-3.4","","33","","","","24","","10","","24.1","","95.79","","","","","","NA"
"-105.67","53.21","PRINCE ALBERT A","4056241","2019-04-20 11:00","2019","04","20","11:00","13.7","","-4.9","","27","","","","25","","12","","24.1","","95.80","","","","","","NA"
"-105.67","53.21","PRINCE ALBERT A","4056241","2019-04-20 12:00","2019","04","20","12:00","14.0","","-7.3","","22","","","","31","","26","","24.1","","95.83","","","","","","Mostly Cloudy"
"-105.67","53.21","PRINCE ALBERT A","4056241","2019-04-20 13:00","2019","04","20","13:00","15.2","","-7.6","","20","","","","28","","20","","24.1","","95.80","","","","","","NA"
"-105.67","53.21","PRINCE ALBERT A","4056241","2019-04-20 14:00","2019","04","20","14:00","15.9","","-8.0","","19","","","","30","","30","","24.1","","95.81","","","","","","NA"
"-105.67","53.21","PRINCE ALBERT A","4056241","2019-04-20 15:00","2019","04","20","15:00","14.2","","-9.6","","18","","","","27","","23","","24.1","","95.83","","","","","","Mostly Cloudy"
"-105.67","53.21","PRINCE ALBERT A","4056241","2019-04-20 16:00","2019","04","20","16:00","15.3","","-8.6","","18","","","","33","","27","","24.1","","95.85","","","","","","NA"
"-105.67","53.21","PRINCE ALBERT A","4056241","2019-04-20 17:00","2019","04","20","17:00","15.2","","-9.5","","17","","","","29","","25","","24.1","","95.90","","","","","","NA"
"-105.67","53.21","PRINCE ALBERT A","4056241","2019-04-20 18:00","2019","04","20","18:00","14.8","","-8.1","","20","","","","27","","21","","24.1","","95.94","","","","","","Mainly Clear"
"-105.67","53.21","PRINCE ALBERT A","4056241","2019-04-20 19:00","2019","04","20","19:00","12.6","","-7.0","","25","","","","31","","26","","24.1","","96.02","","","","","","NA"
"-105.67","53.21","PRINCE ALBERT A","4056241","2019-04-20 20:00","2019","04","20","20:00","10.6","","-4.7","","34","","","","36","","6","","24.1","","96.09","","","","","","NA"
"-105.67","53.21","PRINCE ALBERT A","4056241","2019-04-20 21:00","2019","04","20","21:00","6.1","","-2.2","","55","","","","25","","8","","24.1","","96.19","","","","","","Mainly Clear"
"-105.67","53.21","PRINCE ALBERT A","4056241","2019-04-20 22:00","2019","04","20","22:00","2.1","","-5.1","","59","","","","0","","1","","24.1","","96.23","","","","","","NA"
"-105.67","53.21","PRINCE ALBERT A","4056241","2019-04-20 23:00","2019","04","20","23:00","1.0","","-5.2","","63","","","","29","","6","","24.1","","96.28","","","","","","NA"
"-105.67","53.21","PRINCE ALBERT A","4056241","2019-04-21 00:00","2019","04","21","00:00","2.6","","-3.1","","66","","","","26","","7","","24.1","","96.32","","","","","","Mainly Clear"
"-105.67","53.21","PRINCE ALBERT A","4056241","2019-04-21 01:00","2019","04","21","01:00","1.8","","-2.6","","72","","","","26","","7","","24.1","","96.39","","","","","","NA"
"-105.67","53.21","PRINCE ALBERT A","4056241","2019-04-21 02:00","2019","04","21","02:00","2.5","","-3.0","","67","","","","26","","8","","24.1","","96.44","","","","","","NA"
"-105.67","53.21","PRINCE ALBERT A","4056241","2019-04-21 03:00","2019","04","21","03:00","-0.8","","-4.8","","74","","","","27","","7","","24.1","","96.46","","","","-3","","Clear"
"-105.67","53.21","PRINCE ALBERT A","4056241","2019-04-21 04:00","2019","04","21","04:00","-0.4","","-3.4","","80","","","","28","","8","","24.1","","96.52","","","","-3","","NA"
"-105.67","53.21","PRINCE ALBERT A","4056241","2019-04-21 05:00","2019","04","21","05:00","0.1","","-3.5","","77","","","","26","","9","","24.1","","96.62","","","","","","NA"
"-105.67","53.21","PRINCE ALBERT A","4056241","2019-04-21 06:00","2019","04","21","06:00","0.0","","-2.5","","83","","","","25","","7","","24.1","","96.68","","","","-2","","Clear"
"-105.67","53.21","PRINCE ALBERT A","4056241","2019-04-21 07:00","2019","04","21","07:00","1.2","","-1.6","","82","","","","27","","5","","24.1","","96.75","","","","","","NA"
"-105.67","53.21","PRINCE ALBERT A","4056241","2019-04-21 08:00","2019","04","21","08:00","4.0","","-0.8","","71","","","","27","","9","","24.1","","96.82","","","","","","NA"
"-105.67","53.21","PRINCE ALBERT A","4056241","2019-04-21 09:00","2019","04","21","09:00","6.4","","-0.4","","61","","","","30","","9","","24.1","","96.86","","","","","","Clear"
"-105.67","53.21","PRINCE ALBERT A","4056241","2019-04-21 10:00","2019","04","21","10:00","9.1","","0.1","","53","","","","32","","17","","24.1","","96.90","","","","","","NA"
"-105.67","53.21","PRINCE ALBERT A","4056241","2019-04-21 11:00","2019","04","21","11:00","10.1","","0.2","","50","","","","34","","19","","24.1","","96.95","","","","","","NA"
"-105.67","53.21","PRINCE ALBERT A","4056241","2019-04-21 12:00","2019","04","21","12:00","10.3","","-0.5","","47","","","","30","","13","","24.1","","96.98","","","","","","Mainly Clear"
"-105.67","53.21","PRINCE ALBERT A","4056241","2019-04-21 13:00","2019","04","21","13:00","10.6","","-0.2","","47","","","","33","","32","","24.1","","97.02","","","","","","NA"
"-105.67","53.21","PRINCE ALBERT A","4056241","2019-04-21 14:00","2019","04","21","14:00","12.0","","-0.6","","42","","","","29","","13","","24.1","","97.03","","","","","","NA"
"-105.67","53.21","PRINCE ALBERT A","4056241","2019-04-21 15:00","2019","04","21","15:00","12.9","","-0.9","","38","","","","30","","14","","24.1","","97.04","","","","","","Mainly Clear"
"-105.67","53.21","PRINCE ALBERT A","4056241","2019-04-21 16:00","2019","04","21","16:00","12.3","","-3.0","","34","","","","32","","18","","24.1","","97.03","","","","","","NA"
"-105.67","53.21","PRINCE ALBERT A","4056241","2019-04-21 17:00","2019","04","21","17:00","11.0","","-2.7","","38","","","","32","","15","","24.1","","97.06","","","","","","NA"
"-105.67","53.21","PRINCE ALBERT A","4056241","2019-04-21 18:00","2019","04","21","18:00","12.6","","-2.8","","34","","","","1","","13","","24.1","","97.09","","","","","","Mainly Clear"
"-105.67","53.21","PRINCE ALBERT A","4056241","2019-04-21 19:00","2019","04","21","19:00","11.7","","-3.5","","34","","","","32","","16","","24.1","","97.13","","","","","","NA"
"-105.67","53.21","PRINCE ALBERT A","4056241","2019-04-21 20:00","2019","04","21","20:00","8.0","","-3.6","","43","","","","31","","14","","24.1","","97.17","","","","","","NA"
"-105.67","53.21","PRINCE ALBERT A","4056241","2019-04-21 21:00","2019","04","21","21:00","6.0","","-3.4","","51","","","","36","","2","","24.1","","97.24","","","","","","Mainly Clear"
"-105.67","53.21","PRINCE ALBERT A","4056241","2019-04-21 22:00","2019","04","21","22:00","1.5","","-4.4","","65","","","","36","","1","","24.1","","97.28","","","","","","NA"
"-105.67","53.21","PRINCE ALBERT A","4056241","2019-04-21 23:00","2019","04","21","23:00","1.2","","-4.0","","68","","","","36","","2","","24.1","","97.27","","","","","","NA"
"-105.67","53.21","PRINCE ALBERT A","4056241","2019-04-22 00:00","2019","04","22","00:00","1.1","","-3.5","","71","","","","3","","3","","24.1","","97.29","","","","","","Mostly Cloudy"
"-105.67","53.21","PRINCE ALBERT A","4056241","2019-04-22 01:00","2019","04","22","01:00","0.3","","-2.4","","82","","","","7","","8","","24.1","","97.29","","","","","","NA"
"-105.67","53.21","PRINCE ALBERT A","4056241","2019-04-22 02:00","2019","04","22","02:00","-0.5","","-4.2","","76","","","","7","","4","","24.1","","97.32","","","","-2","","NA"
"-105.67","53.21","PRINCE ALBERT A","4056241","2019-04-22 03:00","2019","04","22","03:00","-1.3","","-4.2","","81","","","","36","","1","","24.1","","97.32","","","","-2","","Mostly Cloudy"
"-105.67","53.21","PRINCE ALBERT A","4056241","2019-04-22 04:00","2019","04","22","04:00","-2.1","","-4.4","","84","","","","4","","4","","24.1","","97.34","","","","-4","","NA"
"-105.67","53.21","PRINCE ALBERT A","4056241","2019-04-22 05:00","2019","04","22","05:00","-2.9","","-5.4","","83","","","","7","","3","","24.1","","97.31","","","","-4","","NA"
"-105.67","53.21","PRINCE ALBERT A","4056241","2019-04-22 06:00","2019","04","22","06:00","-3.0","","-4.8","","87","","","","7","","7","","24.1","","97.31","","","","-6","","Mostly Cloudy"
"-105.67","53.21","PRINCE ALBERT A","4056241","2019-04-22 07:00","2019","04","22","07:00","-0.6","","-2.1","","90","","","","9","","6","","24.1","","97.31","","","","-3","","NA"
"-105.67","53.21","PRINCE ALBERT A","4056241","2019-04-22 08:00","2019","04","22","08:00","5.3","","-0.2","","68","","","","19","","4","","24.1","","97.28","","","","","","NA"
"-105.67","53.21","PRINCE ALBERT A","4056241","2019-04-22 09:00","2019","04","22","09:00","10.7","","-1.6","","42","","","","19","","15","","24.1","","97.19","","","","","","Mainly Clear"
"-105.67","53.21","PRINCE ALBERT A","4056241","2019-04-22 10:00","2019","04","22","10:00","13.4","","-3.8","","30","","","","19","","22","","24.1","","97.10","","","","","","NA"
"-105.67","53.21","PRINCE ALBERT A","4056241","2019-04-22 11:00","2019","04","22","11:00","15.6","","-3.9","","26","","","","17","","26","","24.1","","97.00","","","","","","NA"
"-105.67","53.21","PRINCE ALBERT A","4056241","2019-04-22 12:00","2019","04","22","12:00","17.2","","-4.6","","22","","","","20","","26","","24.1","","96.93","","","","","","Mostly Cloudy"
"-105.67","53.21","PRINCE ALBERT A","4056241","2019-04-22 13:00","2019","04","22","13:00","18.2","","-4.6","","21","","","","19","","28","","24.1","","96.81","","","","","","NA"
"-105.67","53.21","PRINCE ALBERT A","4056241","2019-04-22 14:00","2019","04","22","14:00","19.2","","-4.7","","19","","","","19","","27","","24.1","","96.66","","","","","","NA"
"-105.67","53.21","PRINCE ALBERT A","4056241","2019-04-22 15:00","2019","04","22","15:00","18.4","","-5.4","","19","","","","20","","34","","24.1","","96.53","","","","","","Mostly Cloudy"
"-105.67","53.21","PRINCE ALBERT A","4056241","2019-04-22 16:00","2019","04","22","16:00","19.6","","-5.8","","17","","","","19","","26","","24.1","","96.37","","","","","","NA"
"-105.67","53.21","PRINCE ALBERT A","4056241","2019-04-22 17:00","2019","04","22","17:00","19.8","","-4.3","","19","","","","21","","27","","24.1","","96.27","","","","","","NA"
"-105.67","53.21","PRINCE ALBERT A","4056241","2019-04-22 18:00","2019","04","22","18:00","19.4","","-4.2","","20","","","","18","","33","","24.1","","96.10","","","","","","Cloudy"
"-105.67","53.21","PRINCE ALBERT A","4056241","2019-04-22 19:00","2019","04","22","19:00","18.8","","-2.6","","23","","","","18","","25","","24.1","","95.98","","","","","","NA"
"-105.67","53.21","PRINCE ALBERT A","4056241","2019-04-22 20:00","2019","04","22","20:00","17.8","","-3.3","","23","","","","18","","29","","24.1","","95.87","","","","","","NA"
"-105.67","53.21","PRINCE ALBERT A","4056241","2019-04-22 21:00","2019","04","22","21:00","16.9","","-2.6","","26","","","","18","","29","","24.1","","95.79","","","","","","Cloudy"
"-105.67","53.21","PRINCE ALBERT A","4056241","2019-04-22 22:00","2019","04","22","22:00","16.0","","-2.4","","28","","","","18","","26","","24.1","","95.68","","","","","","NA"
"-105.67","53.21","PRINCE ALBERT A","4056241","2019-04-22 23:00","2019","04","22","23:00","16.2","","-2.4","","28","","","","19","","34","","24.1","","95.58","","","","","","NA"
"-105.67","53.21","PRINCE ALBERT A","4056241","2019-04-23 00:00","2019","04","23","00:00","15.7","","0.0","","34","","","","18","","28","","24.1","","95.46","","","","","","Cloudy"
"-105.67","53.21","PRINCE ALBERT A","4056241","2019-04-23 01:00","2019","04","23","01:00","14.6","","0.9","","39","","","","18","","32","","24.1","","95.39","","","","","","NA"
"-105.67","53.21","PRINCE ALBERT A","4056241","2019-04-23 02:00","2019","04","23","02:00","13.9","","2.0","","44","","","","20","","28","","24.1","","95.43","","","","","","NA"
"-105.67","53.21","PRINCE ALBERT A","4056241","2019-04-23 03:00","2019","04","23","03:00","13.9","","3.1","","48","","","","18","","28","","24.1","","95.24","","","","","","Cloudy"
"-105.67","53.21","PRINCE ALBERT A","4056241","2019-04-23 04:00","2019","04","23","04:00","13.1","","3.9","","53","","","","20","","18","","24.1","","95.27","","","","","","NA"
"-105.67","53.21","PRINCE ALBERT A","4056241","2019-04-23 05:00","2019","04","23","05:00","12.0","","4.2","","59","","","","23","","9","","24.1","","95.23","","","","","","NA"
"-105.67","53.21","PRINCE ALBERT A","4056241","2019-04-23 06:00","2019","04","23","06:00","10.7","","2.5","","57","","","","29","","19","","24.1","","95.27","","","","","","Mostly Cloudy"
"-105.67","53.21","PRINCE ALBERT A","4056241","2019-04-23 07:00","2019","04","23","07:00","11.5","","2.3","","53","","","","30","","26","","24.1","","95.38","","","","","","NA"
"-105.67","53.21","PRINCE ALBERT A","4056241","2019-04-23 08:00","2019","04","23","08:00","12.8","","3.2","","52","","","","30","","28","","24.1","","95.44","","","","","","NA"
"-105.67","53.21","PRINCE ALBERT A","4056241","2019-04-23 09:00","2019","04","23","09:00","14.0","","3.4","","48","","","","31","","32","","24.1","","95.47","","","","","","Mostly Cloudy"
"-105.67","53.21","PRINCE ALBERT A","4056241","2019-04-23 10:00","2019","04","23","10:00","16.2","","3.3","","42","","","","29","","27","","24.1","","95.50","","","","","","NA"
"-105.67","53.21","PRINCE ALBERT A","4056241","2019-04-23 11:00","2019","04","23","11:00","17.9","","-0.4","","29","","","","30","","37","","24.1","","95.47","","","","","","NA"
"-105.67","53.21","PRINCE ALBERT A","4056241","2019-04-23 12:00","2019","04","23","12:00","18.4","","-2.6","","24","","","","29","","31","","24.1","","95.42","","","","","","Mostly Cloudy"
"-105.67","53.21","PRINCE ALBERT A","4056241","2019-04-23 13:00","2019","04","23","13:00","18.6","","-3.6","","22","","","","31","","42","","24.1","","95.38","","","","","","NA"
"-105.67","53.21","PRINCE ALBERT A","4056241","2019-04-23 14:00","2019","04","23","14:00","19.1","","-3.8","","21","","","","31","","34","","24.1","","95.38","","","","","","NA"
"-105.67","53.21","PRINCE ALBERT A","4056241","2019-04-23 15:00","2019","04","23","15:00","19.3","","-4.1","","20","","","","28","","40","","24.1","","95.37","","","","","","Mainly Clear"
"-105.67","53.21","PRINCE ALBERT A","4056241","2019-04-23 16:00","2019","04","23","16:00","19.1","","-3.4","","21","","","","29","","23","","24.1","","95.35","","","","","","NA"
"-105.67","53.21","PRINCE ALBERT A","4056241","2019-04-23 17:00","2019","04","23","17:00","19.1","","-3.5","","21","","","","31","","37","","24.1","","95.35","","","","","","NA"
"-105.67","53.21","PRINCE ALBERT A","4056241","2019-04-23 18:00","2019","04","23","18:00","18.9","","-5.0","","19","","","","32","","32","","24.1","","95.35","","","","","","Mainly Clear"
"-105.67","53.21","PRINCE ALBERT A","4056241","2019-04-23 19:00","2019","04","23","19:00","17.6","","-3.5","","23","","","","28","","26","","24.1","","95.36","","","","","","NA"
"-105.67","53.21","PRINCE ALBERT A","4056241","2019-04-23 20:00","2019","04","23","20:00","14.9","","-3.4","","28","","","","29","","16","","24.1","","95.38","","","","","","NA"
"-105.67","53.21","PRINCE ALBERT A","4056241","2019-04-23 21:00","2019","04","23","21:00","11.6","","-3.9","","34","","","","29","","17","","24.1","","95.42","","","","","","Mainly Clear"
"-105.67","53.21","PRINCE ALBERT A","4056241","2019-04-23 22:00","2019","04","23","22:00","10.1","","-3.2","","39","","","","31","","16","","24.1","","95.51","","","","","","NA"
"-105.67","53.21","PRINCE ALBERT A","4056241","2019-04-23 23:00","2019","04","23","23:00","9.3","","-2.4","","44","","","","36","","17","","24.1","","95.58","","","","","","NA"
"-105.67","53.21","PRINCE ALBERT A","4056241","2019-04-24 00:00","2019","04","24","00:00","7.8","","0.7","","61","","","","34","","9","","24.1","","95.64","","","","","","Mainly Clear"
"-105.67","53.21","PRINCE ALBERT A","4056241","2019-04-24 01:00","2019","04","24","01:00","5.0","","0.6","","73","","","","27","","7","","24.1","","95.65","","","","","","NA"
"-105.67","53.21","PRINCE ALBERT A","4056241","2019-04-24 02:00","2019","04","24","02:00","3.6","","-0.9","","72","","","","28","","11","","24.1","","95.68","","","","","","NA"
"-105.67","53.21","PRINCE ALBERT A","4056241","2019-04-24 03:00","2019","04","24","03:00","2.6","","-1.1","","77","","","","28","","14","","24.1","","95.73","","","","","","Mainly Clear"
"-105.67","53.21","PRINCE ALBERT A","4056241","2019-04-24 04:00","2019","04","24","04:00","1.9","","-1.1","","80","","","","28","","9","","24.1","","95.79","","","","","","NA"
"-105.67","53.21","PRINCE ALBERT A","4056241","2019-04-24 05:00","2019","04","24","05:00","2.2","","-0.8","","80","","","","27","","10","","24.1","","95.80","","","","","","NA"
"-105.67","53.21","PRINCE ALBERT A","4056241","2019-04-24 06:00","2019","04","24","06:00","1.6","","-2.0","","77","","","","27","","14","","24.1","","95.86","","","","","","Mainly Clear"
"-105.67","53.21","PRINCE ALBERT A","4056241","2019-04-24 07:00","2019","04","24","07:00","4.2","","-2.0","","64","","","","28","","17","","24.1","","95.88","","","","","","NA"
"-105.67","53.21","PRINCE ALBERT A","4056241","2019-04-24 08:00","2019","04","24","08:00","8.3","","-2.4","","47","","","","31","","23","","24.1","","95.93","","","","","","NA"
"-105.67","53.21","PRINCE ALBERT A","4056241","2019-04-24 09:00","2019","04","24","09:00","10.7","","-2.9","","38","","","","31","","21","","24.1","","95.94","","","","","","Clear"
"-105.67","53.21","PRINCE ALBERT A","4056241","2019-04-24 10:00","2019","04","24","10:00","12.6","","-8.0","","23","","","","31","","30","","24.1","","95.91","","","","","","NA"
"-105.67","53.21","PRINCE ALBERT A","4056241","2019-04-24 11:00","2019","04","24","11:00","14.1","","-7.1","","22","","","","30","","26","","24.1","","95.89","","","","","","NA"
"-105.67","53.21","PRINCE ALBERT A","4056241","2019-04-24 12:00","2019","04","24","12:00","15.1","","-6.6","","22","","","","30","","36","","24.1","","95.86","","","","","","Mainly Clear"
"-105.67","53.21","PRINCE ALBERT A","4056241","2019-04-24 13:00","2019","04","24","13:00","15.4","","-7.4","","20","","","","31","","35","","24.1","","95.82","","","","","","NA"
"-105.67","53.21","PRINCE ALBERT A","4056241","2019-04-24 14:00","2019","04","24","14:00","15.9","","-7.8","","19","","","","29","","27","","24.1","","95.80","","","","","","NA"
"-105.67","53.21","PRINCE ALBERT A","4056241","2019-04-24 15:00","2019","04","24","15:00","15.8","","-9.5","","17","","","","30","","22","","24.1","","95.79","","","","","","Mainly Clear"
"-105.67","53.21","PRINCE ALBERT A","4056241","2019-04-24 16:00","2019","04","24","16:00","16.4","","-8.4","","17","","","","29","","32","","24.1","","95.79","","","","","","NA"
"-105.67","53.21","PRINCE ALBERT A","4056241","2019-04-24 17:00","2019","04","24","17:00","16.1","","-8.2","","18","","","","30","","33","","24.1","","95.78","","","","","","NA"
"-105.67","53.21","PRINCE ALBERT A","4056241","2019-04-24 18:00","2019","04","24","18:00","15.4","","-9.9","","16","","","","31","","30","","24.1","","95.77","","","","","","Mostly Cloudy"
"-105.67","53.21","PRINCE ALBERT A","4056241","2019-04-24 19:00","2019","04","24","19:00","14.2","","-9.1","","19","","","","30","","32","","24.1","","95.81","","","","","","NA"
"-105.67","53.21","PRINCE ALBERT A","4056241","2019-04-24 20:00","2019","04","24","20:00","12.5","","-7.9","","23","","","","31","","25","","24.1","","95.88","","","","","","NA"
"-105.67","53.21","PRINCE ALBERT A","4056241","2019-04-24 21:00","2019","04","24","21:00","11.3","","-7.6","","26","","","","30","","25","","24.1","","95.93","","","","","","Mostly Cloudy"
"-105.67","53.21","PRINCE ALBERT A","4056241","2019-04-24 22:00","2019","04","24","22:00","10.7","","-7.0","","28","","","","29","","24","","24.1","","96.00","","","","","","NA"
"-105.67","53.21","PRINCE ALBERT A","4056241","2019-04-24 23:00","2019","04","24","23:00","8.8","","-5.7","","35","","","","32","","26","","24.1","","96.08","","","","","","NA"
"-105.67","53.21","PRINCE ALBERT A","4056241","2019-04-25 00:00","2019","04","25","00:00","7.0","","-4.7","","43","","","","31","","26","","24.1","","96.14","","","","","","Mostly Cloudy"
"-105.67","53.21","PRINCE ALBERT A","4056241","2019-04-25 01:00","2019","04","25","01:00","5.3","","-2.5","","57","","","","30","","34","","24.1","","96.21","","","","","","NA"
"-105.67","53.21","PRINCE ALBERT A","4056241","2019-04-25 02:00","2019","04","25","02:00","4.7","","-1.0","","66","","","","30","","37","","24.1","","96.22","","","","","","NA"
"-105.67","53.21","PRINCE ALBERT A","4056241","2019-04-25 03:00","2019","04","25","03:00","3.5","","-0.2","","76","","","","30","","37","","24.1","","96.26","","","","","","Mostly Cloudy"
"-105.67","53.21","PRINCE ALBERT A","4056241","2019-04-25 04:00","2019","04","25","04:00","1.9","","0.4","","90","","","","31","","26","","16.1","","96.33","","","","","","Rain,Snow"
"-105.67","53.21","PRINCE ALBERT A","4056241","2019-04-25 05:00","2019","04","25","05:00","1.6","","0.5","","92","","","","31","","22","","24.1","","96.43","","","","","","NA"
"-105.67","53.21","PRINCE ALBERT A","4056241","2019-04-25 06:00","2019","04","25","06:00","1.7","","0.3","","90","","","","30","","25","","24.1","","96.48","","","","","","Cloudy"
"-105.67","53.21","PRINCE ALBERT A","4056241","2019-04-25 07:00","2019","04","25","07:00","2.5","","0.9","","89","","","","31","","24","","24.1","","96.58","","","","","","NA"
"-105.67","53.21","PRINCE ALBERT A","4056241","2019-04-25 08:00","2019","04","25","08:00","4.0","","1.2","","82","","","","31","","35","","24.1","","96.64","","","","","","NA"
"-105.67","53.21","PRINCE ALBERT A","4056241","2019-04-25 09:00","2019","04","25","09:00","4.0","","0.5","","78","","","","31","","30","","24.1","","96.70","","","","","","Cloudy"
"-105.67","53.21","PRINCE ALBERT A","4056241","2019-04-25 10:00","2019","04","25","10:00","5.2","","0.1","","69","","","","31","","25","","24.1","","96.74","","","","","","NA"
"-105.67","53.21","PRINCE ALBERT A","4056241","2019-04-25 11:00","2019","04","25","11:00","7.0","","-0.3","","60","","","","30","","30","","24.1","","96.77","","","","","","NA"
"-105.67","53.21","PRINCE ALBERT A","4056241","2019-04-25 12:00","2019","04","25","12:00","4.8","","1.1","","77","","","","31","","32","","16.1","","96.83","","","","","","Rain Showers"
"-105.67","53.21","PRINCE ALBERT A","4056241","2019-04-25 13:00","2019","04","25","13:00","4.1","","0.8","","79","","","","31","","28","","24.1","","96.88","","","","","","NA"
"-105.67","53.21","PRINCE ALBERT A","4056241","2019-04-25 14:00","2019","04","25","14:00","8.7","","-1.9","","47","","","","32","","26","","24.1","","96.83","","","","","","NA"
"-105.67","53.21","PRINCE ALBERT A","4056241","2019-04-25 15:00","2019","04","25","15:00","3.9","","-1.8","","66","","","","34","","25","","24.1","","96.87","","","","","","Rain Showers"
"-105.67","53.21","PRINCE ALBERT A","4056241","2019-04-25 16:00","2019","04","25","16:00","10.4","","-6.4","","30","","","","30","","23","","24.1","","96.77","","","","","","NA"
"-105.67","53.21","PRINCE ALBERT A","4056241","2019-04-25 17:00","2019","04","25","17:00","8.4","","-5.7","","36","","","","30","","9","","24.1","","96.78","","","","","","NA"
"-105.67","53.21","PRINCE ALBERT A","4056241","2019-04-25 18:00","2019","04","25","18:00","8.4","","-3.9","","42","","","","3","","16","","24.1","","96.78","","","","","","Mostly Cloudy"
"-105.67","53.21","PRINCE ALBERT A","4056241","2019-04-25 19:00","2019","04","25","19:00","8.0","","-5.6","","38","","","","3","","13","","24.1","","96.79","","","","","","NA"
"-105.67","53.21","PRINCE ALBERT A","4056241","2019-04-25 20:00","2019","04","25","20:00","5.2","","-5.9","","44","","","","1","","9","","24.1","","96.83","","","","","","NA"
"-105.67","53.21","PRINCE ALBERT A","4056241","2019-04-25 21:00","2019","04","25","21:00","2.1","","-6.4","","54","","","","36","","6","","24.1","","96.88","","","","","","Mainly Clear"
"-105.67","53.21","PRINCE ALBERT A","4056241","2019-04-25 22:00","2019","04","25","22:00","0.2","","-6.8","","59","","","","25","","4","","24.1","","96.92","","","","","","NA"
"-105.67","53.21","PRINCE ALBERT A","4056241","2019-04-25 23:00","2019","04","25","23:00","-2.9","","-7.1","","73","","","","27","","6","","24.1","","96.91","","","","-5","","NA"
"-105.67","53.21","PRINCE ALBERT A","4056241","2019-04-26 00:00","2019","04","26","00:00","-3.7","","-7.9","","73","","","","29","","4","","24.1","","96.90","","","","-5","","Clear"
"-105.67","53.21","PRINCE ALBERT A","4056241","2019-04-26 01:00","2019","04","26","01:00","-4.7","","-8.1","","77","","","","36","","3","","24.1","","96.89","","","","-6","","NA"
"-105.67","53.21","PRINCE ALBERT A","4056241","2019-04-26 02:00","2019","04","26","02:00","-4.6","","-8.0","","77","","","","36","","2","","24.1","","96.89","","","","-5","","NA"
"-105.67","53.21","PRINCE ALBERT A","4056241","2019-04-26 03:00","2019","04","26","03:00","-5.9","","-9.1","","78","","","","27","","3","","24.1","","96.87","","","","-7","","Clear"
"-105.67","53.21","PRINCE ALBERT A","4056241","2019-04-26 04:00","2019","04","26","04:00","-6.6","","-9.7","","79","","","","28","","3","","24.1","","96.86","","","","-8","","NA"
"-105.67","53.21","PRINCE ALBERT A","4056241","2019-04-26 05:00","2019","04","26","05:00","-6.8","","-9.8","","80","","","","33","","5","","24.1","","96.90","","","","-9","","NA"
"-105.67","53.21","PRINCE ALBERT A","4056241","2019-04-26 06:00","2019","04","26","06:00","-7.6","","-10.2","","82","","","","34","","3","","24.1","","96.91","","","","-9","","Mainly Clear"
"-105.67","53.21","PRINCE ALBERT A","4056241","2019-04-26 07:00","2019","04","26","07:00","-4.0","","-6.8","","81","","","","36","","3","","24.1","","96.92","","","","-5","","NA"
"-105.67","53.21","PRINCE ALBERT A","4056241","2019-04-26 08:00","2019","04","26","08:00","1.5","","-3.4","","70","","","","10","","4","","24.1","","96.91","","","","","","NA"
"-105.67","53.21","PRINCE ALBERT A","4056241","2019-04-26 09:00","2019","04","26","09:00","5.7","","-5.6","","44","","","","14","","3","","24.1","","96.84","","","","","","Mainly Clear"
"-105.67","53.21","PRINCE ALBERT A","4056241","2019-04-26 10:00","2019","04","26","10:00","7.4","","-7.1","","35","","","","17","","13","","24.1","","96.81","","","","","","NA"
"-105.67","53.21","PRINCE ALBERT A","4056241","2019-04-26 11:00","2019","04","26","11:00","8.4","","-8.8","","29","","","","5","","7","","24.1","","96.76","","","","","","NA"
"-105.67","53.21","PRINCE ALBERT A","4056241","2019-04-26 12:00","2019","04","26","12:00","8.6","","-12.1","","22","","","","18","","3","","24.1","","96.72","","","","","","Mostly Cloudy"
"-105.67","53.21","PRINCE ALBERT A","4056241","2019-04-26 13:00","2019","04","26","13:00","10.2","","-14.2","","17","","","","24","","7","","24.1","","96.65","","","","","","NA"
"-105.67","53.21","PRINCE ALBERT A","4056241","2019-04-26 14:00","2019","04","26","14:00","11.2","","-14.1","","16","","","","29","","22","","24.1","","96.62","","","","","","NA"
"-105.67","53.21","PRINCE ALBERT A","4056241","2019-04-26 15:00","2019","04","26","15:00","10.7","","-10.2","","22","","","","4","","20","","24.1","","96.61","","","","","","Mostly Cloudy"
"-105.67","53.21","PRINCE ALBERT A","4056241","2019-04-26 16:00","2019","04","26","16:00","10.6","","-8.3","","26","","","","1","","27","","24.1","","96.60","","","","","","NA"
"-105.67","53.21","PRINCE ALBERT A","4056241","2019-04-26 17:00","2019","04","26","17:00","10.1","","-7.3","","29","","","","36","","28","","24.1","","96.66","","","","","","NA"
"-105.67","53.21","PRINCE ALBERT A","4056241","2019-04-26 18:00","2019","04","26","18:00","8.6","","-7.6","","31","","","","3","","25","","24.1","","96.71","","","","","","Mostly Cloudy"
"-105.67","53.21","PRINCE ALBERT A","4056241","2019-04-26 19:00","2019","04","26","19:00","6.5","","-7.2","","37","","","","3","","21","","24.1","","96.75","","","","","","NA"
"-105.67","53.21","PRINCE ALBERT A","4056241","2019-04-26 20:00","2019","04","26","20:00","5.3","","-7.5","","39","","","","4","","18","","24.1","","96.78","","","","","","NA"
"-105.67","53.21","PRINCE ALBERT A","4056241","2019-04-26 21:00","2019","04","26","21:00","3.6","","-9.3","","38","","","","2","","10","","24.1","","96.83","","","","","","Mostly Cloudy"
"-105.67","53.21","PRINCE ALBERT A","4056241","2019-04-26 22:00","2019","04","26","22:00","0.6","","-8.6","","50","","","","2","","9","","24.1","","96.88","","","","","","NA"
"-105.67","53.21","PRINCE ALBERT A","4056241","2019-04-26 23:00","2019","04","26","23:00","0.4","","-8.0","","54","","","","8","","8","","24.1","","96.90","","","","","","NA"
"-105.67","53.21","PRINCE ALBERT A","4056241","2019-04-27 00:00","2019","04","27","00:00","-1.1","","-7.7","","61","","","","7","","13","","24.1","","96.92","","","","-5","","Mainly Clear"
"-105.67","53.21","PRINCE ALBERT A","4056241","2019-04-27 01:00","2019","04","27","01:00","-2.2","","-7.1","","69","","","","7","","10","","24.1","","96.96","","","","-6","","NA"
"-105.67","53.21","PRINCE ALBERT A","4056241","2019-04-27 02:00","2019","04","27","02:00","-3.0","","-7.6","","70","","","","7","","9","","24.1","","96.97","","","","-7","","NA"
"-105.67","53.21","PRINCE ALBERT A","4056241","2019-04-27 03:00","2019","04","27","03:00","-3.0","","-7.2","","73","","","","36","","2","","24.1","","96.99","","","","-4","","Clear"
"-105.67","53.21","PRINCE ALBERT A","4056241","2019-04-27 04:00","2019","04","27","04:00","-4.2","","-8.5","","72","","","","8","","3","","24.1","","96.98","","","","-5","","NA"
"-105.67","53.21","PRINCE ALBERT A","4056241","2019-04-27 05:00","2019","04","27","05:00","-6.0","","-8.8","","81","","","","6","","5","","24.1","","96.99","","","","-8","","NA"
"-105.67","53.21","PRINCE ALBERT A","4056241","2019-04-27 06:00","2019","04","27","06:00","-7.5","","-10.9","","77","","","","5","","4","","24.1","","96.99","","","","-10","","Mostly Cloudy"
"-105.67","53.21","PRINCE ALBERT A","4056241","2019-04-27 07:00","2019","04","27","07:00","-3.0","","-6.5","","77","","","","36","","3","","24.1","","97.02","","","","-4","","NA"
"-105.67","53.21","PRINCE ALBERT A","4056241","2019-04-27 08:00","2019","04","27","08:00","0.6","","-5.2","","65","","","","8","","12","","24.1","","97.01","","","","","","NA"
"-105.67","53.21","PRINCE ALBERT A","4056241","2019-04-27 09:00","2019","04","27","09:00","3.7","","-6.4","","48","","","","11","","15","","24.1","","96.98","","","","","","Mainly Clear"
"-105.67","53.21","PRINCE ALBERT A","4056241","2019-04-27 10:00","2019","04","27","10:00","5.7","","-11.3","","28","","","","9","","19","","24.1","","96.95","","","","","","NA"
"-105.67","53.21","PRINCE ALBERT A","4056241","2019-04-27 11:00","2019","04","27","11:00","6.7","","-11.7","","26","","","","10","","25","","24.1","","96.93","","","","","","NA"
"-105.67","53.21","PRINCE ALBERT A","4056241","2019-04-27 12:00","2019","04","27","12:00","7.2","","-12.0","","24","","","","2","","17","","24.1","","96.89","","","","","","Cloudy"
"-105.67","53.21","PRINCE ALBERT A","4056241","2019-04-27 13:00","2019","04","27","13:00","6.8","","-10.9","","27","","","","6","","16","","24.1","","96.86","","","","","","NA"
"-105.67","53.21","PRINCE ALBERT A","4056241","2019-04-27 14:00","2019","04","27","14:00","7.3","","-10.3","","28","","","","7","","16","","24.1","","96.83","","","","","","NA"
"-105.67","53.21","PRINCE ALBERT A","4056241","2019-04-27 15:00","2019","04","27","15:00","7.6","","-10.2","","27","","","","4","","21","","24.1","","96.82","","","","","","Cloudy"
"-105.67","53.21","PRINCE ALBERT A","4056241","2019-04-27 16:00","2019","04","27","16:00","7.4","","-9.9","","28","","","","8","","27","","24.1","","96.82","","","","","","NA"
"-105.67","53.21","PRINCE ALBERT A","4056241","2019-04-27 17:00","2019","04","27","17:00","6.8","","-9.7","","30","","","","7","","28","","24.1","","96.81","","","","","","NA"
"-105.67","53.21","PRINCE ALBERT A","4056241","2019-04-27 18:00","2019","04","27","18:00","5.9","","-9.9","","31","","","","5","","24","","24.1","","96.83","","","","","","Cloudy"
"-105.67","53.21","PRINCE ALBERT A","4056241","2019-04-27 19:00","2019","04","27","19:00","5.2","","-10.5","","31","","","","4","","23","","24.1","","96.85","","","","","","NA"
"-105.67","53.21","PRINCE ALBERT A","4056241","2019-04-27 20:00","2019","04","27","20:00","4.1","","-11.3","","32","","","","6","","16","","24.1","","96.87","","","","","","NA"
"-105.67","53.21","PRINCE ALBERT A","4056241","2019-04-27 21:00","2019","04","27","21:00","3.0","","-10.2","","37","","","","7","","22","","24.1","","96.95","","","","","","Cloudy"
"-105.67","53.21","PRINCE ALBERT A","4056241","2019-04-27 22:00","2019","04","27","22:00","1.8","","-11.1","","38","","","","7","","22","","24.1","","97.02","","","","","","NA"
"-105.67","53.21","PRINCE ALBERT A","4056241","2019-04-27 23:00","2019","04","27","23:00","0.2","","-10.6","","44","","","","8","","17","","24.1","","97.07","","","","","","NA"
"-105.67","53.21","PRINCE ALBERT A","4056241","2019-04-28 00:00","2019","04","28","00:00","-0.8","","-10.7","","47","","","","7","","19","","24.1","","97.13","","","","-6","","Mainly Clear"
"-105.67","53.21","PRINCE ALBERT A","4056241","2019-04-28 01:00","2019","04","28","01:00","-2.2","","-10.6","","53","","","","6","","14","","24.1","","97.17","","","","-7","","NA"
"-105.67","53.21","PRINCE ALBERT A","4056241","2019-04-28 02:00","2019","04","28","02:00","-3.0","","-11.0","","54","","","","6","","14","","24.1","","97.22","","","","-8","","NA"
"-105.67","53.21","PRINCE ALBERT A","4056241","2019-04-28 03:00","2019","04","28","03:00","-2.9","","-11.0","","54","","","","6","","17","","24.1","","97.23","","","","-8","","Mostly Cloudy"
"-105.67","53.21","PRINCE ALBERT A","4056241","2019-04-28 04:00","2019","04","28","04:00","-3.4","","-11.0","","56","","","","5","","17","","24.1","","97.24","","","","-9","","NA"
"-105.67","53.21","PRINCE ALBERT A","4056241","2019-04-28 05:00","2019","04","28","05:00","-3.7","","-10.5","","59","","","","7","","19","","24.1","","97.29","","","","-10","","NA"
"-105.67","53.21","PRINCE ALBERT A","4056241","2019-04-28 06:00","2019","04","28","06:00","-4.1","","-10.9","","59","","","","6","","18","","24.1","","97.33","","","","-10","","Mainly Clear"
"-105.67","53.21","PRINCE ALBERT A","4056241","2019-04-28 07:00","2019","04","28","07:00","-2.6","","-10.3","","56","","","","8","","24","","24.1","","97.39","","","","-9","","NA"
"-105.67","53.21","PRINCE ALBERT A","4056241","2019-04-28 08:00","2019","04","28","08:00","-1.1","","-10.0","","51","","","","7","","19","","24.1","","97.42","","","","-6","","NA"
"-105.67","53.21","PRINCE ALBERT A","4056241","2019-04-28 09:00","2019","04","28","09:00","0.5","","-10.0","","45","","","","6","","18","","24.1","","97.40","","","","","","Cloudy"
"-105.67","53.21","PRINCE ALBERT A","4056241","2019-04-28 10:00","2019","04","28","10:00","2.0","","-10.2","","40","","","","7","","21","","24.1","","97.40","","","","","","NA"
"-105.67","53.21","PRINCE ALBERT A","4056241","2019-04-28 11:00","2019","04","28","11:00","2.3","","-11.7","","35","","","","5","","9","","24.1","","97.43","","","","","","NA"
"-105.67","53.21","PRINCE ALBERT A","4056241","2019-04-28 12:00","2019","04","28","12:00","3.4","","-12.0","","32","","","","3","","16","","24.1","","97.41","","","","","","Mostly Cloudy"
"-105.67","53.21","PRINCE ALBERT A","4056241","2019-04-28 13:00","2019","04","28","13:00","4.3","","-13.8","","26","","","","6","","15","","24.1","","97.39","","","","","","NA"
"-105.67","53.21","PRINCE ALBERT A","4056241","2019-04-28 14:00","2019","04","28","14:00","5.1","","-14.1","","24","","","","3","","11","","24.1","","97.38","","","","","","NA"
"-105.67","53.21","PRINCE ALBERT A","4056241","2019-04-28 15:00","2019","04","28","15:00","5.5","","-15.1","","21","","","","11","","4","","24.1","","97.37","","","","","","Mostly Cloudy"
"-105.67","53.21","PRINCE ALBERT A","4056241","2019-04-28 16:00","2019","04","28","16:00","5.4","","-16.6","","19","","","","2","","5","","24.1","","97.37","","","","","","NA"
"-105.67","53.21","PRINCE ALBERT A","4056241","2019-04-28 17:00","2019","04","28","17:00","6.9","","-16.3","","18","","","","33","","22","","24.1","","97.35","","","","","","NA"
"-105.67","53.21","PRINCE ALBERT A","4056241","2019-04-28 18:00","2019","04","28","18:00","6.5","","-16.8","","17","","","","3","","9","","24.1","","97.36","","","","","","Mostly Cloudy"
"-105.67","53.21","PRINCE ALBERT A","4056241","2019-04-28 19:00","2019","04","28","19:00","5.7","","-15.7","","20","","","","3","","16","","24.1","","97.39","","","","","","NA"
"-105.67","53.21","PRINCE ALBERT A","4056241","2019-04-28 20:00","2019","04","28","20:00","3.7","","-14.5","","25","","","","36","","9","","24.1","","97.43","","","","","","NA"
"-105.67","53.21","PRINCE ALBERT A","4056241","2019-04-28 21:00","2019","04","28","21:00","0.2","","-13.7","","35","","","","34","","5","","24.1","","97.49","","","","","","Mostly Cloudy"
"-105.67","53.21","PRINCE ALBERT A","4056241","2019-04-28 22:00","2019","04","28","22:00","1.6","","-13.1","","33","","","","11","","4","","24.1","","97.53","","","","","","NA"
"-105.67","53.21","PRINCE ALBERT A","4056241","2019-04-28 23:00","2019","04","28","23:00","-1.3","","-13.2","","40","","","","36","","2","","24.1","","97.54","","","","-2","","NA"
"-105.67","53.21","PRINCE ALBERT A","4056241","2019-04-29 00:00","2019","04","29","00:00","-3.5","","-13.4","","47","","","","36","","2","","24.1","","97.54","","","","-4","","Mainly Clear"
"-105.67","53.21","PRINCE ALBERT A","4056241","2019-04-29 01:00","2019","04","29","01:00","-3.9","","-12.8","","50","","","","36","","1","","24.1","","97.56","","","","-4","","NA"
"-105.67","53.21","PRINCE ALBERT A","4056241","2019-04-29 02:00","2019","04","29","02:00","-7.7","","-14.1","","61","","","","36","","2","","24.1","","97.55","","","","-9","","NA"
"-105.67","53.21","PRINCE ALBERT A","4056241","2019-04-29 03:00","2019","04","29","03:00","-8.9","","-14.2","","66","","","","32","","9","","24.1","","97.53","","","","-14","","Clear"
"-105.67","53.21","PRINCE ALBERT A","4056241","2019-04-29 04:00","2019","04","29","04:00","-8.7","","-13.5","","68","","","","3","","3","","24.1","","97.54","","","","-10","","NA"
"-105.67","53.21","PRINCE ALBERT A","4056241","2019-04-29 05:00","2019","04","29","05:00","-9.1","","-13.5","","71","","","","36","","2","","24.1","","97.55","","","","-10","","NA"
"-105.67","53.21","PRINCE ALBERT A","4056241","2019-04-29 06:00","2019","04","29","06:00","-9.6","","-13.6","","73","","","","33","","4","","24.1","","97.56","","","","-12","","Mainly Clear"
"-105.67","53.21","PRINCE ALBERT A","4056241","2019-04-29 07:00","2019","04","29","07:00","-4.9","","-7.7","","81","","","","36","","2","","24.1","","97.56","","","","-6","","NA"
"-105.67","53.21","PRINCE ALBERT A","4056241","2019-04-29 08:00","2019","04","29","08:00","-0.4","","-6.6","","63","","","","20","","4","","24.1","","97.53","","","","-2","","NA"
"-105.67","53.21","PRINCE ALBERT A","4056241","2019-04-29 09:00","2019","04","29","09:00","3.0","","-8.2","","44","","","","26","","6","","24.1","","97.50","","","","","","Clear"
"-105.67","53.21","PRINCE ALBERT A","4056241","2019-04-29 10:00","2019","04","29","10:00","5.5","","-12.8","","25","","","","36","","2","","24.1","","97.45","","","","","","NA"
"-105.67","53.21","PRINCE ALBERT A","4056241","2019-04-29 11:00","2019","04","29","11:00","6.6","","-14.1","","21","","","","20","","5","","24.1","","97.40","","","","","","NA"
"-105.67","53.21","PRINCE ALBERT A","4056241","2019-04-29 12:00","2019","04","29","12:00","7.5","","-15.9","","17","","","","27","","14","","24.1","","97.35","","","","","","Mainly Clear"
"-105.67","53.21","PRINCE ALBERT A","4056241","2019-04-29 13:00","2019","04","29","13:00","7.8","","-14.9","","18","","","","27","","13","","24.1","","97.27","","","","","","NA"
"-105.67","53.21","PRINCE ALBERT A","4056241","2019-04-29 14:00","2019","04","29","14:00","7.6","","-15.6","","18","","","","24","","12","","24.1","","97.20","","","","","","NA"
"-105.67","53.21","PRINCE ALBERT A","4056241","2019-04-29 15:00","2019","04","29","15:00","9.5","","-15.2","","16","","","","23","","7","","24.1","","97.13","","","","","","Mainly Clear"
"-105.67","53.21","PRINCE ALBERT A","4056241","2019-04-29 16:00","2019","04","29","16:00","9.7","","-13.2","","18","","","","23","","22","","24.1","","97.08","","","","","","NA"
"-105.67","53.21","PRINCE ALBERT A","4056241","2019-04-29 17:00","2019","04","29","17:00","8.6","","-13.2","","20","","","","21","","11","","24.1","","97.03","","","","","","NA"
"-105.67","53.21","PRINCE ALBERT A","4056241","2019-04-29 18:00","2019","04","29","18:00","8.8","","-13.7","","19","","","","21","","14","","24.1","","96.99","","","","","","Mostly Cloudy"
"-105.67","53.21","PRINCE ALBERT A","4056241","2019-04-29 19:00","2019","04","29","19:00","7.0","","-10.1","","28","","","","23","","10","","24.1","","96.97","","","","","","NA"
"-105.67","53.21","PRINCE ALBERT A","4056241","2019-04-29 20:00","2019","04","29","20:00","6.5","","-9.2","","32","","","","20","","18","","24.1","","96.95","","","","","","NA"
"-105.67","53.21","PRINCE ALBERT A","4056241","2019-04-29 21:00","2019","04","29","21:00","4.0","","-3.4","","59","","","","24","","19","","24.1","","97.01","","","","","","Mostly Cloudy"
"-105.67","53.21","PRINCE ALBERT A","4056241","2019-04-29 22:00","2019","04","29","22:00","3.7","","-3.1","","61","","","","18","","14","","24.1","","96.96","","","","","","NA"
"-105.67","53.21","PRINCE ALBERT A","4056241","2019-04-29 23:00","2019","04","29","23:00","2.0","","-2.9","","70","","","","21","","18","","24.1","","96.96","","","","","","NA"
"-105.67","53.21","PRINCE ALBERT A","4056241","2019-04-30 00:00","2019","04","30","00:00","1.6","","-2.4","","75","","","","21","","14","","24.1","","96.93","","","","","","Mostly Cloudy"
"-105.67","53.21","PRINCE ALBERT A","4056241","2019-04-30 01:00","2019","04","30","01:00","0.9","","-2.1","","81","","","","23","","15","","24.1","","96.90","","","","","","NA"
"-105.67","53.21","PRINCE ALBERT A","4056241","2019-04-30 02:00","2019","04","30","02:00","0.2","","-1.9","","85","","","","23","","13","","24.1","","96.88","","","","","","NA"
"-105.67","53.21","PRINCE ALBERT A","4056241","2019-04-30 03:00","2019","04","30","03:00","-0.5","","-2.2","","89","","","","24","","15","","24.1","","96.83","","","","-5","","Clear"
"-105.67","53.21","PRINCE ALBERT A","4056241","2019-04-30 04:00","2019","04","30","04:00","-1.4","","-2.5","","92","","","","23","","13","","24.1","","96.82","","","","-6","","NA"
"-105.67","53.21","PRINCE ALBERT A","4056241","2019-04-30 05:00","2019","04","30","05:00","-2.4","","-3.4","","93","","","","23","","10","","24.1","","96.84","","","","-6","","NA"
"-105.67","53.21","PRINCE ALBERT A","4056241","2019-04-30 06:00","2019","04","30","06:00","-2.6","","-3.5","","94","","","","23","","13","","24.1","","96.83","","","","-7","","Mainly Clear"
"-105.67","53.21","PRINCE ALBERT A","4056241","2019-04-30 07:00","2019","04","30","07:00","-2.0","","-2.8","","95","","","","22","","12","","24.1","","96.86","","","","-6","","NA"
"-105.67","53.21","PRINCE ALBERT A","4056241","2019-04-30 08:00","2019","04","30","08:00","0.6","","-2.2","","82","","","","24","","8","","24.1","","96.87","","","","","","NA"
"-105.67","53.21","PRINCE ALBERT A","4056241","2019-04-30 09:00","2019","04","30","09:00","3.1","","-1.8","","70","","","","21","","10","","24.1","","96.86","","","","","","Mostly Cloudy"
"-105.67","53.21","PRINCE ALBERT A","4056241","2019-04-30 10:00","2019","04","30","10:00","4.2","","-4.1","","55","","","","19","","9","","24.1","","96.82","","","","","","NA"
"-105.67","53.21","PRINCE ALBERT A","4056241","2019-04-30 11:00","2019","04","30","11:00","6.6","","-6.0","","40","","","","19","","15","","24.1","","96.80","","","","","","NA"
"-105.67","53.21","PRINCE ALBERT A","4056241","2019-04-30 12:00","2019","04","30","12:00","8.1","","-7.0","","34","","","","21","","17","","24.1","","96.75","","","","","","Mainly Clear"
"-105.67","53.21","PRINCE ALBERT A","4056241","2019-04-30 13:00","2019","04","30","13:00","8.7","","-7.8","","30","","","","23","","32","","24.1","","96.67","","","","","","NA"
"-105.67","53.21","PRINCE ALBERT A","4056241","2019-04-30 14:00","2019","04","30","14:00","10.0","","-8.5","","26","","","","26","","15","","24.1","","96.61","","","","","","NA"
"-105.67","53.21","PRINCE ALBERT A","4056241","2019-04-30 15:00","2019","04","30","15:00","8.2","","-5.9","","36","","","","21","","10","","24.1","","96.62","","","","","","Mostly Cloudy"
"-105.67","53.21","PRINCE ALBERT A","4056241","2019-04-30 16:00","2019","04","30","16:00","8.0","","-5.9","","37","","","","27","","6","","24.1","","96.63","","","","","","NA"
"-105.67","53.21","PRINCE ALBERT A","4056241","2019-04-30 17:00","2019","04","30","17:00","4.7","","-2.7","","59","","","","33","","45","","24.1","","96.70","","","","","","NA"
"-105.67","53.21","PRINCE ALBERT A","4056241","2019-04-30 18:00","2019","04","30","18:00","1.8","","-4.4","","64","","","","36","","25","","24.1","","96.81","","","","","","Mostly Cloudy"
"-105.67","53.21","PRINCE ALBERT A","4056241","2019-04-30 19:00","2019","04","30","19:00","-0.1","","-4.7","","71","","","","2","","20","","24.1","","96.87","","","","-5","","NA"
"-105.67","53.21","PRINCE ALBERT A","4056241","2019-04-30 20:00","2019","04","30","20:00","-1.8","","-5.4","","77","","","","35","","22","","16.1","","96.94","","","","-8","","Snow"
"-105.67","53.21","PRINCE ALBERT A","4056241","2019-04-30 21:00","2019","04","30","21:00","-3.1","","-5.1","","86","","","","1","","20","","2.4","","97.00","","","","-9","","Snow"
"-105.67","53.21","PRINCE ALBERT A","4056241","2019-04-30 22:00","2019","04","30","22:00","-3.5","","-6.1","","82","","","","3","","14","","24.1","","97.01","","","","-9","","NA"
"-105.67","53.21","PRINCE ALBERT A","4056241","2019-04-30 23:00","2019","04","30","23:00","-3.6","","-6.3","","81","","","","1","","7","","24.1","","97.03","","","","-7","","NA"
