"Longitude (x)","Latitude (y)","Station Name","Climate ID","Date/Time (LST)","Year","Month","Day","Time (LST)","Temp (°C)","Temp Flag","Dew Point Temp (°C)","Dew Point Temp Flag","Rel Hum (%)","Rel Hum Flag","Precip. Amount (mm)","Precip. Amount Flag","Wind Dir (10s deg)","Wind Dir Flag","Wind Spd (km/h)","Wind Spd Flag","Visibility (km)","Visibility Flag","Stn Press (kPa)","Stn Press Flag","Hmdx","Hmdx Flag","Wind Chill","Wind Chill Flag","Weather"
"-60.42","53.32","GOOSE A","8501900","2018-01-01 00:00","2018","01","01","00:00","-4.1","","-9.2","","68","","","","2","","17","","19.3","","99.92","","","","-10","","Snow Showers"
"-60.42","53.32","GOOSE A","8501900","2018-01-01 01:00","2018","01","01","01:00","-4.6","","-8.2","","76","","","","1","","19","","9.7","","99.93","","","","-11","","Snow Showers"
"-60.42","53.32","GOOSE A","8501900","2018-01-01 02:00","2018","01","01","02:00","-4.1","","-8.7","","70","","","","2","","20","","6.4","","99.94","","","","-10","","Snow Showers"
"-60.42","53.32","GOOSE A","8501900","2018-01-01 03:00","2018","01","01","03:00","-4.6","","-8.1","","76","","","","1","","9","","4.8","","99.99","","","","-8","","Snow Showers"
"-60.42","53.32","GOOSE A","8501900","2018-01-01 04:00","2018","01","01","04:00","-4.5","","-8.7","","72","","","","1","","15","","11.3","","100.04","","","","-10","","Snow Showers"
"-60.42","53.32","GOOSE A","8501900","2018-01-01 05:00","2018","01","01","05:00","-4.8","","-8.0","","78","","","","1","","11","","3.2","","100.08","","","","-9","","Snow Showers"
"-60.42","53.32","GOOSE A","8501900","2018-01-01 06:00","2018","01","01","06:00","-4.9","","-8.8","","74","","","","2","","17","","11.3","","100.13","","","","-11","","Snow Showers"
"-60.42","53.32","GOOSE A","8501900","2018-01-01 07:00","2018","01","01","07:00","-4.4","","-9.3","","69","","","","1","","13","","24.1","","100.18","","","","-9","","Snow Showers"
"-60.42","53.32","GOOSE A","8501900","2018-01-01 08:00","2018","01","01","08:00","-4.4","","-9.0","","70","","","","1","","24","","19.3","","100.22","","","","-11","","Snow Showers"
"-60.42","53.32","GOOSE A","8501900","2018-01-01 09:00","2018","01","01","09:00","-4.3","","-8.9","","70","","","","2","","15","","12.9","","100.28","","","","-10","","Snow Showers"
"-60.42","53.32","GOOSE A","8501900","2018-01-01 10:00","2018","01","01","10:00","-3.9","","-9.7","","64","","","","2","","22","","24.1","","100.34","","","","-10","","Snow Showers"
"-60.42","53.32","GOOSE A","8501900","2018-01-01 11:00","2018","01","01","11:00","-4.4","","-10.0","","65","","","","2","","22","","16.1","","100.38","","","","-11","","Snow Showers"
"-60.42","53.32","GOOSE A","8501900","2018-01-01 12:00","2018","01","01","12:00","-4.5","","-10.1","","65","","","","1","","24","","9.7","","100.39","","","","-12","","Snow Showers"
"-60.42","53.32","GOOSE A","8501900","2018-01-01 13:00","2018","01","01","13:00","-4.6","","-10.4","","64","","","","36","","26","","24.1","","100.39","","","","-12","","Cloudy"
"-60.42","53.32","GOOSE A","8501900","2018-01-01 14:00","2018","01","01","14:00","-5.4","","-11.0","","65","","","","36","","20","","24.1","","100.44","","","","-12","","Mostly Cloudy"
"-60.42","53.32","GOOSE A","8501900","2018-01-01 15:00","2018","01","01","15:00","-5.8","","-11.3","","65","","","","1","","20","","16.1","","100.52","","","","-13","","Snow Showers"
"-60.42","53.32","GOOSE A","8501900","2018-01-01 16:00","2018","01","01","16:00","-6.2","","-11.7","","65","","","","3","","7","","24.1","","100.60","","","","-10","","Cloudy"
"-60.42","53.32","GOOSE A","8501900","2018-01-01 17:00","2018","01","01","17:00","-7.0","","-12.2","","66","","","","","","0","","24.1","","100.67","","","","","","Cloudy"
"-60.42","53.32","GOOSE A","8501900","2018-01-01 18:00","2018","01","01","18:00","-7.2","","-12.4","","66","","","","","","0","","24.1","","100.72","","","","","","Cloudy"
"-60.42","53.32","GOOSE A","8501900","2018-01-01 19:00","2018","01","01","19:00","-6.2","","-11.8","","64","","","","2","","6","","24.1","","100.75","","","","-9","","Mostly Cloudy"
"-60.42","53.32","GOOSE A","8501900","2018-01-01 20:00","2018","01","01","20:00","-7.5","","-12.2","","69","","","","35","","7","","24.1","","100.79","","","","-11","","Cloudy"
"-60.42","53.32","GOOSE A","8501900","2018-01-01 21:00","2018","01","01","21:00","-7.5","","-12.3","","68","","","","35","","17","","24.1","","100.80","","","","-14","","Cloudy"
"-60.42","53.32","GOOSE A","8501900","2018-01-01 22:00","2018","01","01","22:00","-8.0","","-12.6","","69","","","","33","","9","","24.1","","100.83","","","","-13","","Cloudy"
"-60.42","53.32","GOOSE A","8501900","2018-01-01 23:00","2018","01","01","23:00","-8.4","","-12.7","","71","","","","32","","4","","24.1","","100.86","","","","-11","","Cloudy"
"-60.42","53.32","GOOSE A","8501900","2018-01-02 00:00","2018","01","02","00:00","-8.6","","-12.7","","72","","","","33","","4","","24.1","","100.87","","","","-11","","Cloudy"
"-60.42","53.32","GOOSE A","8501900","2018-01-02 01:00","2018","01","02","01:00","-8.9","","-12.8","","73","","","","","","0","","24.1","","100.85","","","","","","Cloudy"
"-60.42","53.32","GOOSE A","8501900","2018-01-02 02:00","2018","01","02","02:00","-9.0","","-12.9","","73","","","","35","","6","","24.1","","100.87","","","","-12","","Cloudy"
"-60.42","53.32","GOOSE A","8501900","2018-01-02 03:00","2018","01","02","03:00","-9.1","","-12.9","","74","","","","33","","6","","24.1","","100.88","","","","-12","","Cloudy"
"-60.42","53.32","GOOSE A","8501900","2018-01-02 04:00","2018","01","02","04:00","-9.2","","-12.9","","74","","","","35","","6","","24.1","","100.90","","","","-13","","Cloudy"
"-60.42","53.32","GOOSE A","8501900","2018-01-02 05:00","2018","01","02","05:00","-9.3","","-13.0","","74","","","","1","","4","","24.1","","100.88","","","","-12","","Cloudy"
"-60.42","53.32","GOOSE A","8501900","2018-01-02 06:00","2018","01","02","06:00","-9.5","","-13.0","","76","","","","","","0","","24.1","","100.90","","","","","","Cloudy"
"-60.42","53.32","GOOSE A","8501900","2018-01-02 07:00","2018","01","02","07:00","-9.3","","-12.9","","75","","","","","","0","","24.1","","100.92","","","","","","Cloudy"
"-60.42","53.32","GOOSE A","8501900","2018-01-02 08:00","2018","01","02","08:00","-9.5","","-13.0","","76","","","","","","0","","24.1","","100.95","","","","","","Cloudy"
"-60.42","53.32","GOOSE A","8501900","2018-01-02 09:00","2018","01","02","09:00","-9.3","","-12.8","","76","","","","","","0","","24.1","","100.98","","","","","","Cloudy"
"-60.42","53.32","GOOSE A","8501900","2018-01-02 10:00","2018","01","02","10:00","-9.0","","-12.7","","74","","","","5","","4","","24.1","","100.98","","","","-11","","Snow"
"-60.42","53.32","GOOSE A","8501900","2018-01-02 11:00","2018","01","02","11:00","-8.9","","-12.0","","78","","","","2","","9","","24.1","","100.94","","","","-14","","Cloudy"
"-60.42","53.32","GOOSE A","8501900","2018-01-02 12:00","2018","01","02","12:00","-8.7","","-11.8","","78","","","","8","","6","","24.1","","100.88","","","","-12","","Cloudy"
"-60.42","53.32","GOOSE A","8501900","2018-01-02 13:00","2018","01","02","13:00","-8.3","","-11.4","","78","","","","7","","7","","19.3","","100.81","","","","-12","","Snow Showers"
"-60.42","53.32","GOOSE A","8501900","2018-01-02 14:00","2018","01","02","14:00","-8.1","","-11.5","","76","","","","4","","7","","24.1","","100.72","","","","-12","","Mostly Cloudy"
"-60.42","53.32","GOOSE A","8501900","2018-01-02 15:00","2018","01","02","15:00","-7.9","","-11.2","","77","","","","6","","6","","24.1","","100.71","","","","-11","","Cloudy"
"-60.42","53.32","GOOSE A","8501900","2018-01-02 16:00","2018","01","02","16:00","-7.8","","-11.2","","77","","","","5","","7","","24.1","","100.68","","","","-11","","Snow Showers"
"-60.42","53.32","GOOSE A","8501900","2018-01-02 17:00","2018","01","02","17:00","-7.9","","-11.2","","77","","","","9","","4","","24.1","","100.67","","","","-10","","Cloudy"
"-60.42","53.32","GOOSE A","8501900","2018-01-02 18:00","2018","01","02","18:00","-8.2","","-11.2","","79","","","","7","","4","","24.1","","100.64","","","","-10","","Cloudy"
"-60.42","53.32","GOOSE A","8501900","2018-01-02 19:00","2018","01","02","19:00","-8.5","","-11.3","","80","","","","15","","4","","24.1","","100.64","","","","-11","","Cloudy"
"-60.42","53.32","GOOSE A","8501900","2018-01-02 20:00","2018","01","02","20:00","-8.7","","-11.6","","79","","","","","","0","","24.1","","100.61","","","","","","Cloudy"
"-60.42","53.32","GOOSE A","8501900","2018-01-02 21:00","2018","01","02","21:00","-8.7","","-11.6","","79","","","","","","0","","19.3","","100.60","","","","","","Snow Showers"
"-60.42","53.32","GOOSE A","8501900","2018-01-02 22:00","2018","01","02","22:00","-9.4","","-12.5","","78","","","","","","0","","19.3","","100.55","","","","","","Snow Showers"
"-60.42","53.32","GOOSE A","8501900","2018-01-02 23:00","2018","01","02","23:00","-10.3","","-13.0","","81","","","","","","0","","24.1","","100.54","","","","","","Mostly Cloudy"
"-60.42","53.32","GOOSE A","8501900","2018-01-03 00:00","2018","01","03","00:00","-10.9","","-13.8","","79","","","","","","0","","24.1","","100.52","","","","","","Mostly Cloudy"
"-60.42","53.32","GOOSE A","8501900","2018-01-03 01:00","2018","01","03","01:00","-10.4","","-13.6","","77","","","","36","","4","","19.3","","100.49","","","","-13","","Snow Showers"
"-60.42","53.32","GOOSE A","8501900","2018-01-03 02:00","2018","01","03","02:00","-9.7","","-12.4","","81","","","","","","0","","19.3","","100.51","","","","","","Snow Showers"
"-60.42","53.32","GOOSE A","8501900","2018-01-03 03:00","2018","01","03","03:00","-9.2","","-12.2","","79","","","","5","","9","","24.1","","100.51","","","","-14","","Mostly Cloudy"
"-60.42","53.32","GOOSE A","8501900","2018-01-03 04:00","2018","01","03","04:00","-11.8","","-14.9","","78","","","","","","0","","24.1","","100.56","","","","","","Mostly Cloudy"
"-60.42","53.32","GOOSE A","8501900","2018-01-03 05:00","2018","01","03","05:00","-12.6","","-16.0","","76","","","","4","","4","","24.1","","100.57","","","","-15","","Mostly Cloudy"
"-60.42","53.32","GOOSE A","8501900","2018-01-03 06:00","2018","01","03","06:00","-11.8","","-15.2","","76","","","","2","","9","","24.1","","100.62","","","","-17","","Mainly Clear"
"-60.42","53.32","GOOSE A","8501900","2018-01-03 07:00","2018","01","03","07:00","-13.0","","-16.7","","74","","","","9","","7","","24.1","","100.69","","","","-18","","Mainly Clear"
"-60.42","53.32","GOOSE A","8501900","2018-01-03 08:00","2018","01","03","08:00","-15.0","","-18.2","","77","","","","","","0","","24.1","","100.76","","","","","","Mostly Cloudy"
"-60.42","53.32","GOOSE A","8501900","2018-01-03 09:00","2018","01","03","09:00","-14.5","","-18.0","","75","","","","","","0","","24.1","","100.83","","","","","","Mostly Cloudy"
"-60.42","53.32","GOOSE A","8501900","2018-01-03 10:00","2018","01","03","10:00","-10.9","","-14.3","","76","","","","1","","6","","24.1","","100.88","","","","-15","","Mostly Cloudy"
"-60.42","53.32","GOOSE A","8501900","2018-01-03 11:00","2018","01","03","11:00","-10.2","","-13.4","","77","","","","4","","6","","24.1","","100.90","","","","-14","","Mostly Cloudy"
"-60.42","53.32","GOOSE A","8501900","2018-01-03 12:00","2018","01","03","12:00","-8.8","","-12.2","","76","","","","10","","6","","24.1","","100.91","","","","-12","","Mostly Cloudy"
"-60.42","53.32","GOOSE A","8501900","2018-01-03 13:00","2018","01","03","13:00","-8.6","","-11.9","","77","","","","8","","6","","24.1","","100.90","","","","-12","","Mostly Cloudy"
"-60.42","53.32","GOOSE A","8501900","2018-01-03 14:00","2018","01","03","14:00","-7.9","","-11.5","","75","","","","11","","7","","24.1","","100.91","","","","-12","","Mainly Clear"
"-60.42","53.32","GOOSE A","8501900","2018-01-03 15:00","2018","01","03","15:00","-8.6","","-12.1","","76","","","","14","","4","","24.1","","100.95","","","","-11","","Mainly Clear"
"-60.42","53.32","GOOSE A","8501900","2018-01-03 16:00","2018","01","03","16:00","-10.7","","-14.2","","75","","","","16","","4","","24.1","","100.99","","","","-13","","Mostly Cloudy"
"-60.42","53.32","GOOSE A","8501900","2018-01-03 17:00","2018","01","03","17:00","-9.4","","-12.6","","77","","","","12","","6","","24.1","","101.04","","","","-13","","Mostly Cloudy"
"-60.42","53.32","GOOSE A","8501900","2018-01-03 18:00","2018","01","03","18:00","-9.3","","-12.3","","79","","","","5","","11","","24.1","","101.04","","","","-15","","Mostly Cloudy"
"-60.42","53.32","GOOSE A","8501900","2018-01-03 19:00","2018","01","03","19:00","-8.8","","-11.8","","79","","","","9","","6","","12.9","","101.07","","","","-12","","Snow Showers"
"-60.42","53.32","GOOSE A","8501900","2018-01-03 20:00","2018","01","03","20:00","-9.7","","-12.6","","79","","","","","","0","","8.0","","101.07","","","","","","Snow Showers"
"-60.42","53.32","GOOSE A","8501900","2018-01-03 21:00","2018","01","03","21:00","-9.0","","-12.0","","79","","","","2","","4","","9.7","","101.05","","","","-11","","Snow"
"-60.42","53.32","GOOSE A","8501900","2018-01-03 22:00","2018","01","03","22:00","-9.3","","-12.4","","78","","","","","","0","","19.3","","101.09","","","","","","Mostly Cloudy"
"-60.42","53.32","GOOSE A","8501900","2018-01-03 23:00","2018","01","03","23:00","-8.8","","-11.5","","81","","","","19","","7","","24.1","","101.15","","","","-13","","Mostly Cloudy"
"-60.42","53.32","GOOSE A","8501900","2018-01-04 00:00","2018","01","04","00:00","-8.8","","-13.7","","68","","","","18","","20","","24.1","","101.25","","","","-16","","Mostly Cloudy"
"-60.42","53.32","GOOSE A","8501900","2018-01-04 01:00","2018","01","04","01:00","-10.2","","-15.0","","68","","","","20","","19","","24.1","","101.35","","","","-18","","Snow Showers"
"-60.42","53.32","GOOSE A","8501900","2018-01-04 02:00","2018","01","04","02:00","-11.1","","-16.0","","67","","","","18","","20","","24.1","","101.43","","","","-19","","Snow Showers"
"-60.42","53.32","GOOSE A","8501900","2018-01-04 03:00","2018","01","04","03:00","-10.8","","-16.6","","62","","","","21","","22","","19.3","","101.56","","","","-19","","Snow Showers"
"-60.42","53.32","GOOSE A","8501900","2018-01-04 04:00","2018","01","04","04:00","-11.3","","-16.5","","65","","","","23","","19","","19.3","","101.60","","","","-19","","Snow Showers"
"-60.42","53.32","GOOSE A","8501900","2018-01-04 05:00","2018","01","04","05:00","-11.4","","-16.8","","64","","","","22","","19","","24.1","","101.68","","","","-19","","Snow Showers"
"-60.42","53.32","GOOSE A","8501900","2018-01-04 06:00","2018","01","04","06:00","-11.7","","-16.8","","66","","","","26","","26","","24.1","","101.76","","","","-21","","Snow Showers"
"-60.42","53.32","GOOSE A","8501900","2018-01-04 07:00","2018","01","04","07:00","-12.9","","-19.0","","60","","","","24","","24","","24.1","","101.84","","","","-22","","Mostly Cloudy"
"-60.42","53.32","GOOSE A","8501900","2018-01-04 08:00","2018","01","04","08:00","-13.5","","-18.9","","64","","","","24","","15","","24.1","","101.95","","","","-21","","Mostly Cloudy"
"-60.42","53.32","GOOSE A","8501900","2018-01-04 09:00","2018","01","04","09:00","-14.6","","-20.1","","63","","","","22","","11","","24.1","","102.04","","","","-21","","Mostly Cloudy"
"-60.42","53.32","GOOSE A","8501900","2018-01-04 10:00","2018","01","04","10:00","-14.8","","-20.3","","63","","","","24","","9","","24.1","","102.08","","","","-21","","Mainly Clear"
"-60.42","53.32","GOOSE A","8501900","2018-01-04 11:00","2018","01","04","11:00","-14.9","","-20.4","","63","","","","25","","13","","24.1","","102.08","","","","-22","","Mostly Cloudy"
"-60.42","53.32","GOOSE A","8501900","2018-01-04 12:00","2018","01","04","12:00","-14.3","","-20.3","","60","","","","25","","13","","24.1","","102.05","","","","-21","","Mostly Cloudy"
"-60.42","53.32","GOOSE A","8501900","2018-01-04 13:00","2018","01","04","13:00","-13.5","","-19.9","","59","","","","25","","17","","24.1","","102.02","","","","-22","","Mostly Cloudy"
"-60.42","53.32","GOOSE A","8501900","2018-01-04 14:00","2018","01","04","14:00","-13.4","","-19.4","","61","","","","34","","6","","24.1","","101.97","","","","-17","","Mostly Cloudy"
"-60.42","53.32","GOOSE A","8501900","2018-01-04 15:00","2018","01","04","15:00","-15.3","","-20.2","","66","","","","","","0","","24.1","","101.98","","","","","","Mostly Cloudy"
"-60.42","53.32","GOOSE A","8501900","2018-01-04 16:00","2018","01","04","16:00","-14.8","","-20.2","","63","","","","13","","4","","24.1","","102.03","","","","-18","","Mostly Cloudy"
"-60.42","53.32","GOOSE A","8501900","2018-01-04 17:00","2018","01","04","17:00","-15.2","","-20.3","","65","","","","7","","11","","24.1","","101.94","","","","-22","","Cloudy"
"-60.42","53.32","GOOSE A","8501900","2018-01-04 18:00","2018","01","04","18:00","-15.3","","-19.8","","68","","","","6","","9","","24.1","","101.89","","","","-21","","Cloudy"
"-60.42","53.32","GOOSE A","8501900","2018-01-04 19:00","2018","01","04","19:00","-15.3","","-19.6","","70","","","","6","","7","","19.3","","101.85","","","","-20","","Snow Showers"
"-60.42","53.32","GOOSE A","8501900","2018-01-04 20:00","2018","01","04","20:00","-14.6","","-19.0","","69","","","","7","","7","","19.3","","101.79","","","","-19","","Snow Showers"
"-60.42","53.32","GOOSE A","8501900","2018-01-04 21:00","2018","01","04","21:00","-14.3","","-18.7","","69","","","","6","","13","","19.3","","101.59","","","","-21","","Snow Showers"
"-60.42","53.32","GOOSE A","8501900","2018-01-04 22:00","2018","01","04","22:00","-13.5","","-18.0","","69","","","","6","","13","","24.1","","101.46","","","","-20","","Cloudy"
"-60.42","53.32","GOOSE A","8501900","2018-01-04 23:00","2018","01","04","23:00","-13.4","","-17.6","","71","","","","5","","15","","24.1","","101.34","","","","-21","","Cloudy"
"-60.42","53.32","GOOSE A","8501900","2018-01-05 00:00","2018","01","05","00:00","-13.2","","-16.9","","74","","","","5","","20","","4.0","","101.12","","","","-22","","Snow"
"-60.42","53.32","GOOSE A","8501900","2018-01-05 01:00","2018","01","05","01:00","-13.7","","-17.0","","76","","","","5","","26","","2.4","","100.91","","","","-24","","Snow"
"-60.42","53.32","GOOSE A","8501900","2018-01-05 02:00","2018","01","05","02:00","-13.0","","-16.1","","78","","","","4","","26","","2.0","","100.70","","","","-23","","Snow"
"-60.42","53.32","GOOSE A","8501900","2018-01-05 03:00","2018","01","05","03:00","-10.9","","-14.0","","78","","","","5","","32","","3.2","","100.32","","","","-21","","Snow"
"-60.42","53.32","GOOSE A","8501900","2018-01-05 04:00","2018","01","05","04:00","-10.4","","-13.4","","79","","","","5","","39","","2.4","","100.04","","","","-21","","Snow,Blowing Snow"
"-60.42","53.32","GOOSE A","8501900","2018-01-05 05:00","2018","01","05","05:00","-10.4","","-13.6","","77","","","","5","","44","","0.8","","99.81","","","","-22","","Snow,Blowing Snow"
"-60.42","53.32","GOOSE A","8501900","2018-01-05 06:00","2018","01","05","06:00","-9.9","","-13.0","","78","","","","5","","56","","0.6","","99.49","","","","-22","","Moderate Snow,Blowing Snow"
"-60.42","53.32","GOOSE A","8501900","2018-01-05 07:00","2018","01","05","07:00","-8.1","","-10.9","","80","","","","5","","52","","0.4","","99.18","","","","-19","","Moderate Snow,Blowing Snow"
"-60.42","53.32","GOOSE A","8501900","2018-01-05 08:00","2018","01","05","08:00","-6.6","","-9.2","","82","","","","5","","44","","0.4","","98.91","","","","-17","","Moderate Snow,Blowing Snow"
"-60.42","53.32","GOOSE A","8501900","2018-01-05 09:00","2018","01","05","09:00","-5.7","","-8.3","","82","","","","5","","54","","0.4","","98.63","","","","-16","","Moderate Snow,Blowing Snow"
"-60.42","53.32","GOOSE A","8501900","2018-01-05 10:00","2018","01","05","10:00","-4.8","","-7.3","","83","","","","5","","44","","0.4","","98.32","","","","-14","","Moderate Snow,Blowing Snow"
"-60.42","53.32","GOOSE A","8501900","2018-01-05 11:00","2018","01","05","11:00","-4.3","","-6.7","","83","","","","5","","46","","0.4","","97.94","","","","-14","","Moderate Snow,Blowing Snow"
"-60.42","53.32","GOOSE A","8501900","2018-01-05 12:00","2018","01","05","12:00","-3.7","","-6.1","","83","","","","5","","37","","4.0","","97.76","","","","-12","","Snow"
"-60.42","53.32","GOOSE A","8501900","2018-01-05 13:00","2018","01","05","13:00","-3.0","","-5.6","","82","","","","5","","39","","1.6","","97.48","","","","-11","","Snow"
"-60.42","53.32","GOOSE A","8501900","2018-01-05 14:00","2018","01","05","14:00","-2.7","","-5.2","","83","","","","5","","35","","3.2","","97.29","","","","-11","","Snow"
"-60.42","53.32","GOOSE A","8501900","2018-01-05 15:00","2018","01","05","15:00","-2.4","","-4.8","","84","","","","5","","39","","4.8","","97.16","","","","-11","","Snow"
"-60.42","53.32","GOOSE A","8501900","2018-01-05 16:00","2018","01","05","16:00","-2.1","","-4.8","","82","","","","5","","28","","9.7","","97.02","","","","-9","","Snow"
"-60.42","53.32","GOOSE A","8501900","2018-01-05 17:00","2018","01","05","17:00","-2.2","","-4.5","","84","","","","5","","28","","3.2","","96.92","","","","-9","","Snow"
"-60.42","53.32","GOOSE A","8501900","2018-01-05 18:00","2018","01","05","18:00","-2.1","","-4.3","","85","","","","6","","20","","2.4","","96.85","","","","-8","","Snow"
"-60.42","53.32","GOOSE A","8501900","2018-01-05 19:00","2018","01","05","19:00","-2.0","","-4.1","","86","","","","9","","15","","6.4","","96.82","","","","-7","","Snow"
"-60.42","53.32","GOOSE A","8501900","2018-01-05 20:00","2018","01","05","20:00","-1.9","","-3.9","","86","","","","6","","15","","9.7","","96.79","","","","-7","","Snow"
"-60.42","53.32","GOOSE A","8501900","2018-01-05 21:00","2018","01","05","21:00","-1.7","","-3.9","","85","","","","15","","7","","12.9","","96.76","","","","-4","","Snow"
"-60.42","53.32","GOOSE A","8501900","2018-01-05 22:00","2018","01","05","22:00","-1.7","","-5.6","","75","","","","18","","11","","24.1","","96.73","","","","-6","","Cloudy"
"-60.42","53.32","GOOSE A","8501900","2018-01-05 23:00","2018","01","05","23:00","-2.3","","-6.9","","71","","","","20","","19","","24.1","","96.74","","","","-8","","Cloudy"
"-60.42","53.32","GOOSE A","8501900","2018-01-06 00:00","2018","01","06","00:00","-3.0","","-7.9","","69","","","","19","","19","","24.1","","96.70","","","","-9","","Cloudy"
"-60.42","53.32","GOOSE A","8501900","2018-01-06 01:00","2018","01","06","01:00","-3.8","","-8.2","","71","","","","19","","9","","24.1","","96.67","","","","-8","","Snow"
"-60.42","53.32","GOOSE A","8501900","2018-01-06 02:00","2018","01","06","02:00","-4.1","","-9.0","","69","","","","18","","19","","24.1","","96.65","","","","-10","","Snow"
"-60.42","53.32","GOOSE A","8501900","2018-01-06 03:00","2018","01","06","03:00","-4.4","","-9.0","","70","","","","22","","11","","16.1","","96.69","","","","-9","","Snow Showers"
"-60.42","53.32","GOOSE A","8501900","2018-01-06 04:00","2018","01","06","04:00","-5.0","","-9.4","","71","","","","20","","19","","24.1","","96.66","","","","-11","","Snow Showers"
"-60.42","53.32","GOOSE A","8501900","2018-01-06 05:00","2018","01","06","05:00","-5.5","","-9.6","","73","","","","18","","15","","24.1","","96.64","","","","-11","","Snow Showers"
"-60.42","53.32","GOOSE A","8501900","2018-01-06 06:00","2018","01","06","06:00","-6.2","","-9.3","","79","","","","18","","13","","24.1","","96.64","","","","-12","","Snow Showers"
"-60.42","53.32","GOOSE A","8501900","2018-01-06 07:00","2018","01","06","07:00","-6.3","","-10.7","","71","","","","19","","20","","24.1","","96.63","","","","-13","","Snow Showers"
"-60.42","53.32","GOOSE A","8501900","2018-01-06 08:00","2018","01","06","08:00","-6.7","","-11.3","","70","","","","21","","20","","12.9","","96.66","","","","-14","","Snow Showers"
"-60.42","53.32","GOOSE A","8501900","2018-01-06 09:00","2018","01","06","09:00","-7.4","","-11.6","","72","","","","23","","9","","12.9","","96.69","","","","-12","","Snow Showers"
"-60.42","53.32","GOOSE A","8501900","2018-01-06 10:00","2018","01","06","10:00","-7.7","","-11.9","","72","","","","21","","17","","12.9","","96.69","","","","-14","","Snow Showers"
"-60.42","53.32","GOOSE A","8501900","2018-01-06 11:00","2018","01","06","11:00","-7.5","","-12.4","","68","","","","20","","20","","9.7","","96.64","","","","-15","","Snow Showers"
"-60.42","53.32","GOOSE A","8501900","2018-01-06 12:00","2018","01","06","12:00","-7.6","","-12.3","","69","","","","22","","17","","8.0","","96.62","","","","-14","","Snow Showers"
"-60.42","53.32","GOOSE A","8501900","2018-01-06 13:00","2018","01","06","13:00","-7.5","","-11.7","","72","","","","21","","17","","9.7","","96.60","","","","-14","","Snow"
"-60.42","53.32","GOOSE A","8501900","2018-01-06 14:00","2018","01","06","14:00","-9.2","","-13.4","","71","","","","27","","32","","2.4","","96.73","","","","-19","","Snow"
"-60.42","53.32","GOOSE A","8501900","2018-01-06 15:00","2018","01","06","15:00","-11.2","","-15.1","","73","","","","26","","26","","4.8","","96.87","","","","-20","","Snow"
"-60.42","53.32","GOOSE A","8501900","2018-01-06 16:00","2018","01","06","16:00","-13.1","","-17.9","","67","","","","27","","33","","8.0","","97.01","","","","-24","","Snow"
"-60.42","53.32","GOOSE A","8501900","2018-01-06 17:00","2018","01","06","17:00","-13.9","","-19.3","","64","","","","27","","35","","19.3","","97.14","","","","-25","","Snow"
"-60.42","53.32","GOOSE A","8501900","2018-01-06 18:00","2018","01","06","18:00","-15.1","","-19.7","","68","","","","26","","33","","8.0","","97.22","","","","-27","","Snow"
"-60.42","53.32","GOOSE A","8501900","2018-01-06 19:00","2018","01","06","19:00","-16.0","","-20.3","","69","","","","26","","32","","12.9","","97.31","","","","-28","","Snow"
"-60.42","53.32","GOOSE A","8501900","2018-01-06 20:00","2018","01","06","20:00","-16.5","","-21.5","","65","","","","26","","35","","19.3","","97.39","","","","-29","","Snow"
"-60.42","53.32","GOOSE A","8501900","2018-01-06 21:00","2018","01","06","21:00","-17.4","","-22.7","","63","","","","26","","43","","19.3","","97.47","","","","-31","","Snow"
"-60.42","53.32","GOOSE A","8501900","2018-01-06 22:00","2018","01","06","22:00","-18.1","","-22.0","","71","","","","26","","37","","1.6","","97.57","","","","-31","","Snow,Blowing Snow"
"-60.42","53.32","GOOSE A","8501900","2018-01-06 23:00","2018","01","06","23:00","-17.8","","-23.0","","64","","","","27","","33","","16.1","","97.67","","","","-30","","Snow"
"-60.42","53.32","GOOSE A","8501900","2018-01-07 00:00","2018","01","07","00:00","-18.2","","-24.6","","57","","","","27","","33","","12.9","","97.80","","","","-31","","Snow"
"-60.42","53.32","GOOSE A","8501900","2018-01-07 01:00","2018","01","07","01:00","-18.7","","-25.1","","57","","","","27","","39","","12.9","","97.89","","","","-32","","Snow"
"-60.42","53.32","GOOSE A","8501900","2018-01-07 02:00","2018","01","07","02:00","-19.3","","-25.6","","57","","","","27","","28","","16.1","","98.02","","","","-31","","Snow"
"-60.42","53.32","GOOSE A","8501900","2018-01-07 03:00","2018","01","07","03:00","-19.7","","-26.0","","57","","","","27","","30","","16.1","","98.15","","","","-32","","Snow"
"-60.42","53.32","GOOSE A","8501900","2018-01-07 04:00","2018","01","07","04:00","-20.1","","-27.1","","54","","","","28","","35","","16.1","","98.25","","","","-34","","Snow"
"-60.42","53.32","GOOSE A","8501900","2018-01-07 05:00","2018","01","07","05:00","-21.2","","-28.3","","53","","","","27","","33","","24.1","","98.33","","","","-35","","Mainly Clear"
"-60.42","53.32","GOOSE A","8501900","2018-01-07 06:00","2018","01","07","06:00","-21.2","","-28.4","","52","","","","26","","26","","24.1","","98.48","","","","-33","","Mostly Cloudy"
"-60.42","53.32","GOOSE A","8501900","2018-01-07 07:00","2018","01","07","07:00","-21.6","","-28.6","","53","","","","25","","37","","24.1","","98.58","","","","-36","","Mostly Cloudy"
"-60.42","53.32","GOOSE A","8501900","2018-01-07 08:00","2018","01","07","08:00","-21.6","","-28.7","","53","","","","26","","35","","24.1","","98.62","","","","-36","","Mainly Clear"
"-60.42","53.32","GOOSE A","8501900","2018-01-07 09:00","2018","01","07","09:00","-21.5","","-28.6","","53","","","","26","","33","","24.1","","98.69","","","","-35","","Mainly Clear"
"-60.42","53.32","GOOSE A","8501900","2018-01-07 10:00","2018","01","07","10:00","-19.9","","-27.1","","53","","","","26","","30","","24.1","","98.77","","","","-32","","Mainly Clear"
"-60.42","53.32","GOOSE A","8501900","2018-01-07 11:00","2018","01","07","11:00","-18.9","","-26.5","","51","","","","27","","33","","24.1","","98.74","","","","-32","","Mostly Cloudy"
"-60.42","53.32","GOOSE A","8501900","2018-01-07 12:00","2018","01","07","12:00","-17.6","","-24.9","","53","","","","27","","28","","24.1","","98.69","","","","-29","","Mostly Cloudy"
"-60.42","53.32","GOOSE A","8501900","2018-01-07 13:00","2018","01","07","13:00","-17.3","","-24.9","","52","","","","28","","44","","24.1","","98.68","","","","-31","","Mostly Cloudy"
"-60.42","53.32","GOOSE A","8501900","2018-01-07 14:00","2018","01","07","14:00","-17.6","","-25.2","","51","","","","27","","37","","24.1","","98.70","","","","-31","","Snow Showers"
"-60.42","53.32","GOOSE A","8501900","2018-01-07 15:00","2018","01","07","15:00","-17.7","","-25.4","","51","","","","28","","30","","24.1","","98.77","","","","-30","","Cloudy"
"-60.42","53.32","GOOSE A","8501900","2018-01-07 16:00","2018","01","07","16:00","-18.0","","-25.5","","52","","","","27","","26","","24.1","","98.84","","","","-29","","Cloudy"
"-60.42","53.32","GOOSE A","8501900","2018-01-07 17:00","2018","01","07","17:00","-18.3","","-24.7","","57","","","","27","","32","","12.9","","98.92","","","","-31","","Snow Showers"
"-60.42","53.32","GOOSE A","8501900","2018-01-07 18:00","2018","01","07","18:00","-18.2","","-24.7","","57","","","","27","","30","","19.3","","98.93","","","","-30","","Snow Showers"
"-60.42","53.32","GOOSE A","8501900","2018-01-07 19:00","2018","01","07","19:00","-18.0","","-25.0","","54","","","","27","","26","","24.1","","98.99","","","","-29","","Cloudy"
"-60.42","53.32","GOOSE A","8501900","2018-01-07 20:00","2018","01","07","20:00","-18.9","","-25.7","","55","","","","26","","24","","24.1","","99.04","","","","-30","","Cloudy"
"-60.42","53.32","GOOSE A","8501900","2018-01-07 21:00","2018","01","07","21:00","-18.4","","-25.2","","55","","","","26","","28","","24.1","","99.07","","","","-30","","Snow Showers"
"-60.42","53.32","GOOSE A","8501900","2018-01-07 22:00","2018","01","07","22:00","-18.3","","-25.2","","55","","","","27","","32","","24.1","","99.09","","","","-31","","Cloudy"
"-60.42","53.32","GOOSE A","8501900","2018-01-07 23:00","2018","01","07","23:00","-18.3","","-25.3","","54","","","","27","","30","","24.1","","99.18","","","","-30","","Mostly Cloudy"
"-60.42","53.32","GOOSE A","8501900","2018-01-08 00:00","2018","01","08","00:00","-18.5","","-25.5","","54","","","","26","","30","","24.1","","99.25","","","","-31","","Mostly Cloudy"
"-60.42","53.32","GOOSE A","8501900","2018-01-08 01:00","2018","01","08","01:00","-18.4","","-25.2","","55","","","","25","","30","","24.1","","99.29","","","","-30","","Snow Showers"
"-60.42","53.32","GOOSE A","8501900","2018-01-08 02:00","2018","01","08","02:00","-18.6","","-25.4","","55","","","","26","","32","","24.1","","99.35","","","","-31","","Mainly Clear"
"-60.42","53.32","GOOSE A","8501900","2018-01-08 03:00","2018","01","08","03:00","-18.9","","-26.0","","53","","","","26","","35","","24.1","","99.44","","","","-32","","Mainly Clear"
"-60.42","53.32","GOOSE A","8501900","2018-01-08 04:00","2018","01","08","04:00","-19.5","","-26.3","","55","","","","25","","35","","24.1","","99.56","","","","-33","","Mostly Cloudy"
"-60.42","53.32","GOOSE A","8501900","2018-01-08 05:00","2018","01","08","05:00","-19.6","","-26.5","","54","","","","26","","35","","24.1","","99.64","","","","-33","","Cloudy"
"-60.42","53.32","GOOSE A","8501900","2018-01-08 06:00","2018","01","08","06:00","-20.1","","-26.0","","59","","","","26","","37","","12.9","","99.71","","","","-34","","Snow Showers"
"-60.42","53.32","GOOSE A","8501900","2018-01-08 07:00","2018","01","08","07:00","-20.2","","-26.6","","57","","","","26","","28","","16.1","","99.81","","","","-32","","Snow Showers"
"-60.42","53.32","GOOSE A","8501900","2018-01-08 08:00","2018","01","08","08:00","-20.0","","-26.5","","56","","","","26","","30","","19.3","","99.91","","","","-33","","Snow Showers"
"-60.42","53.32","GOOSE A","8501900","2018-01-08 09:00","2018","01","08","09:00","-19.6","","-26.0","","57","","","","26","","28","","16.1","","99.99","","","","-32","","Snow Showers"
"-60.42","53.32","GOOSE A","8501900","2018-01-08 10:00","2018","01","08","10:00","-19.6","","-26.1","","56","","","","26","","30","","19.3","","100.10","","","","-32","","Snow Showers"
"-60.42","53.32","GOOSE A","8501900","2018-01-08 11:00","2018","01","08","11:00","-19.1","","-25.4","","57","","","","26","","32","","16.1","","100.18","","","","-32","","Snow Showers"
"-60.42","53.32","GOOSE A","8501900","2018-01-08 12:00","2018","01","08","12:00","-18.2","","-24.7","","57","","","","25","","30","","19.3","","100.21","","","","-30","","Snow Showers"
"-60.42","53.32","GOOSE A","8501900","2018-01-08 13:00","2018","01","08","13:00","-17.2","","-23.7","","57","","","","25","","32","","24.1","","100.25","","","","-29","","Snow Showers"
"-60.42","53.32","GOOSE A","8501900","2018-01-08 14:00","2018","01","08","14:00","-16.5","","-23.0","","57","","","","25","","33","","24.1","","100.30","","","","-28","","Snow Showers"
"-60.42","53.32","GOOSE A","8501900","2018-01-08 15:00","2018","01","08","15:00","-16.1","","-22.7","","57","","","","25","","32","","24.1","","100.39","","","","-28","","Mostly Cloudy"
"-60.42","53.32","GOOSE A","8501900","2018-01-08 16:00","2018","01","08","16:00","-16.4","","-23.0","","57","","","","25","","24","","24.1","","100.54","","","","-27","","Mainly Clear"
"-60.42","53.32","GOOSE A","8501900","2018-01-08 17:00","2018","01","08","17:00","-16.9","","-23.3","","58","","","","24","","17","","24.1","","100.63","","","","-26","","Mainly Clear"
"-60.42","53.32","GOOSE A","8501900","2018-01-08 18:00","2018","01","08","18:00","-17.3","","-23.7","","57","","","","25","","20","","24.1","","100.71","","","","-27","","Mainly Clear"
"-60.42","53.32","GOOSE A","8501900","2018-01-08 19:00","2018","01","08","19:00","-17.0","","-23.8","","56","","","","25","","30","","24.1","","100.77","","","","-29","","Mostly Cloudy"
"-60.42","53.32","GOOSE A","8501900","2018-01-08 20:00","2018","01","08","20:00","-18.3","","-25.0","","56","","","","24","","24","","24.1","","100.77","","","","-29","","Mostly Cloudy"
"-60.42","53.32","GOOSE A","8501900","2018-01-08 21:00","2018","01","08","21:00","-19.4","","-25.7","","57","","","","23","","20","","24.1","","100.79","","","","-30","","Mainly Clear"
"-60.42","53.32","GOOSE A","8501900","2018-01-08 22:00","2018","01","08","22:00","-20.3","","-26.2","","59","","","","23","","13","","24.1","","100.76","","","","-29","","Mainly Clear"
"-60.42","53.32","GOOSE A","8501900","2018-01-08 23:00","2018","01","08","23:00","-21.0","","-26.6","","61","","","","23","","13","","24.1","","100.72","","","","-30","","Mainly Clear"
"-60.42","53.32","GOOSE A","8501900","2018-01-09 00:00","2018","01","09","00:00","-20.7","","-26.6","","59","","","","25","","17","","24.1","","100.72","","","","-31","","Mainly Clear"
"-60.42","53.32","GOOSE A","8501900","2018-01-09 01:00","2018","01","09","01:00","-21.7","","-26.9","","63","","","","21","","11","","24.1","","100.72","","","","-30","","Clear"
"-60.42","53.32","GOOSE A","8501900","2018-01-09 02:00","2018","01","09","02:00","-22.2","","-27.2","","64","","","","22","","13","","24.1","","100.71","","","","-31","","Clear"
"-60.42","53.32","GOOSE A","8501900","2018-01-09 03:00","2018","01","09","03:00","-22.9","","-27.6","","65","","","","22","","11","","24.1","","100.69","","","","-31","","Clear"
"-60.42","53.32","GOOSE A","8501900","2018-01-09 04:00","2018","01","09","04:00","-23.5","","-28.2","","65","","","","23","","15","","24.1","","100.63","","","","-33","","Clear"
"-60.42","53.32","GOOSE A","8501900","2018-01-09 05:00","2018","01","09","05:00","-24.0","","-28.7","","65","","","","23","","11","","24.1","","100.58","","","","-32","","Clear"
"-60.42","53.32","GOOSE A","8501900","2018-01-09 06:00","2018","01","09","06:00","-23.9","","-28.8","","64","","","","25","","9","","24.1","","100.53","","","","-31","","Mostly Cloudy"
"-60.42","53.32","GOOSE A","8501900","2018-01-09 07:00","2018","01","09","07:00","-24.1","","-29.1","","63","","","","27","","4","","24.1","","100.50","","","","-28","","Mostly Cloudy"
"-60.42","53.32","GOOSE A","8501900","2018-01-09 08:00","2018","01","09","08:00","-24.7","","-29.9","","62","","","","28","","9","","24.1","","100.43","","","","-32","","Cloudy"
"-60.42","53.32","GOOSE A","8501900","2018-01-09 09:00","2018","01","09","09:00","-24.5","","-29.6","","63","","","","26","","6","","24.1","","100.39","","","","-30","","Mostly Cloudy"
"-60.42","53.32","GOOSE A","8501900","2018-01-09 10:00","2018","01","09","10:00","-22.9","","-27.9","","64","","","","25","","11","","24.1","","100.36","","","","-31","","Mostly Cloudy"
"-60.42","53.32","GOOSE A","8501900","2018-01-09 11:00","2018","01","09","11:00","-21.1","","-26.6","","61","","","","25","","9","","24.1","","100.23","","","","-28","","Mostly Cloudy"
"-60.42","53.32","GOOSE A","8501900","2018-01-09 12:00","2018","01","09","12:00","-20.9","","-26.9","","59","","","","33","","7","","24.1","","100.08","","","","-27","","Mostly Cloudy"
"-60.42","53.32","GOOSE A","8501900","2018-01-09 13:00","2018","01","09","13:00","-20.0","","-26.4","","57","","","","","","0","","24.1","","99.99","","","","","","Mostly Cloudy"
"-60.42","53.32","GOOSE A","8501900","2018-01-09 14:00","2018","01","09","14:00","-18.9","","-25.0","","59","","","","","","0","","24.1","","99.93","","","","","","Mostly Cloudy"
"-60.42","53.32","GOOSE A","8501900","2018-01-09 15:00","2018","01","09","15:00","-18.8","","-24.7","","60","","","","","","0","","24.1","","99.85","","","","","","Mostly Cloudy"
"-60.42","53.32","GOOSE A","8501900","2018-01-09 16:00","2018","01","09","16:00","-19.3","","-25.4","","58","","","","","","0","","24.1","","99.82","","","","","","Mostly Cloudy"
"-60.42","53.32","GOOSE A","8501900","2018-01-09 17:00","2018","01","09","17:00","-19.5","","-24.8","","63","","","","","","0","","24.1","","99.78","","","","","","Mostly Cloudy"
"-60.42","53.32","GOOSE A","8501900","2018-01-09 18:00","2018","01","09","18:00","-19.5","","-24.5","","64","","","","26","","9","","16.1","","99.73","","","","-26","","Snow Showers"
"-60.42","53.32","GOOSE A","8501900","2018-01-09 19:00","2018","01","09","19:00","-19.3","","-24.6","","63","","","","28","","9","","19.3","","99.69","","","","-26","","Snow Showers"
"-60.42","53.32","GOOSE A","8501900","2018-01-09 20:00","2018","01","09","20:00","-19.1","","-24.3","","63","","","","27","","7","","11.3","","99.69","","","","-25","","Snow Showers"
"-60.42","53.32","GOOSE A","8501900","2018-01-09 21:00","2018","01","09","21:00","-18.6","","-23.5","","65","","","","28","","11","","11.3","","99.62","","","","-26","","Snow"
"-60.42","53.32","GOOSE A","8501900","2018-01-09 22:00","2018","01","09","22:00","-18.4","","-23.1","","67","","","","29","","13","","6.4","","99.57","","","","-26","","Snow"
"-60.42","53.32","GOOSE A","8501900","2018-01-09 23:00","2018","01","09","23:00","-18.2","","-22.8","","67","","","","27","","13","","8.0","","99.54","","","","-26","","Snow"
"-60.42","53.32","GOOSE A","8501900","2018-01-10 00:00","2018","01","10","00:00","-17.4","","-22.0","","67","","","","27","","11","","6.4","","99.49","","","","-25","","Snow"
"-60.42","53.32","GOOSE A","8501900","2018-01-10 01:00","2018","01","10","01:00","-18.6","","-23.3","","66","","","","29","","15","","24.1","","99.50","","","","-27","","Snow"
"-60.42","53.32","GOOSE A","8501900","2018-01-10 02:00","2018","01","10","02:00","-18.1","","-22.8","","67","","","","28","","15","","12.9","","99.54","","","","-27","","Snow"
"-60.42","53.32","GOOSE A","8501900","2018-01-10 03:00","2018","01","10","03:00","-17.4","","-22.3","","66","","","","29","","13","","19.3","","99.57","","","","-25","","Snow"
"-60.42","53.32","GOOSE A","8501900","2018-01-10 04:00","2018","01","10","04:00","-17.4","","-22.1","","67","","","","29","","11","","4.8","","99.64","","","","-25","","Snow"
"-60.42","53.32","GOOSE A","8501900","2018-01-10 05:00","2018","01","10","05:00","-16.9","","-21.4","","68","","","","29","","15","","6.4","","99.73","","","","-25","","Snow"
"-60.42","53.32","GOOSE A","8501900","2018-01-10 06:00","2018","01","10","06:00","-16.0","","-21.4","","63","","","","30","","20","","8.0","","99.82","","","","-25","","Snow"
"-60.42","53.32","GOOSE A","8501900","2018-01-10 07:00","2018","01","10","07:00","-16.0","","-21.9","","60","","","","31","","28","","12.9","","99.93","","","","-27","","Snow"
"-60.42","53.32","GOOSE A","8501900","2018-01-10 08:00","2018","01","10","08:00","-16.4","","-22.6","","59","","","","30","","22","","12.9","","100.09","","","","-26","","Snow"
"-60.42","53.32","GOOSE A","8501900","2018-01-10 09:00","2018","01","10","09:00","-16.6","","-23.0","","58","","","","30","","26","","12.9","","100.22","","","","-27","","Snow"
"-60.42","53.32","GOOSE A","8501900","2018-01-10 10:00","2018","01","10","10:00","-16.4","","-22.9","","57","","","","30","","26","","16.1","","100.35","","","","-27","","Snow"
"-60.42","53.32","GOOSE A","8501900","2018-01-10 11:00","2018","01","10","11:00","-16.1","","-23.3","","54","","","","31","","28","","24.1","","100.50","","","","-27","","Mostly Cloudy"
"-60.42","53.32","GOOSE A","8501900","2018-01-10 12:00","2018","01","10","12:00","-16.2","","-23.4","","54","","","","31","","28","","24.1","","100.57","","","","-27","","Snow"
"-60.42","53.32","GOOSE A","8501900","2018-01-10 13:00","2018","01","10","13:00","-16.3","","-24.3","","50","","","","33","","30","","24.1","","100.69","","","","-28","","Mostly Cloudy"
"-60.42","53.32","GOOSE A","8501900","2018-01-10 14:00","2018","01","10","14:00","-16.0","","-24.2","","49","","","","33","","26","","24.1","","100.81","","","","-27","","Mostly Cloudy"
"-60.42","53.32","GOOSE A","8501900","2018-01-10 15:00","2018","01","10","15:00","-16.2","","-24.7","","48","","","","29","","26","","24.1","","100.97","","","","-27","","Mainly Clear"
"-60.42","53.32","GOOSE A","8501900","2018-01-10 16:00","2018","01","10","16:00","-17.2","","-25.6","","48","","","","29","","26","","24.1","","101.15","","","","-28","","Clear"
"-60.42","53.32","GOOSE A","8501900","2018-01-10 17:00","2018","01","10","17:00","-18.5","","-26.4","","50","","","","27","","17","","24.1","","101.27","","","","-28","","Clear"
"-60.42","53.32","GOOSE A","8501900","2018-01-10 18:00","2018","01","10","18:00","-19.1","","-27.0","","50","","","","27","","24","","24.1","","101.37","","","","-30","","Clear"
"-60.42","53.32","GOOSE A","8501900","2018-01-10 19:00","2018","01","10","19:00","-20.2","","-27.9","","50","","","","25","","20","","24.1","","101.40","","","","-31","","Clear"
"-60.42","53.32","GOOSE A","8501900","2018-01-10 20:00","2018","01","10","20:00","-20.5","","-27.9","","52","","","","26","","20","","24.1","","101.41","","","","-31","","Clear"
"-60.42","53.32","GOOSE A","8501900","2018-01-10 21:00","2018","01","10","21:00","-21.1","","-28.3","","52","","","","25","","19","","24.1","","101.44","","","","-32","","Clear"
"-60.42","53.32","GOOSE A","8501900","2018-01-10 22:00","2018","01","10","22:00","-20.8","","-28.0","","52","","","","24","","17","","24.1","","101.38","","","","-31","","Clear"
"-60.42","53.32","GOOSE A","8501900","2018-01-10 23:00","2018","01","10","23:00","-20.8","","-28.0","","52","","","","24","","17","","24.1","","101.39","","","","-31","","Mainly Clear"
"-60.42","53.32","GOOSE A","8501900","2018-01-11 00:00","2018","01","11","00:00","-21.1","","-27.4","","57","","","","18","","9","","24.1","","101.31","","","","-28","","Mostly Cloudy"
"-60.42","53.32","GOOSE A","8501900","2018-01-11 01:00","2018","01","11","01:00","-20.2","","-26.8","","56","","","","21","","11","","24.1","","101.26","","","","-28","","Mostly Cloudy"
"-60.42","53.32","GOOSE A","8501900","2018-01-11 02:00","2018","01","11","02:00","-20.5","","-26.8","","57","","","","20","","7","","24.1","","101.19","","","","-26","","Mostly Cloudy"
"-60.42","53.32","GOOSE A","8501900","2018-01-11 03:00","2018","01","11","03:00","-19.8","","-26.0","","58","","","","","","0","","24.1","","101.09","","","","","","Cloudy"
"-60.42","53.32","GOOSE A","8501900","2018-01-11 04:00","2018","01","11","04:00","-19.5","","-25.6","","58","","","","","","0","","24.1","","100.91","","","","","","Cloudy"
"-60.42","53.32","GOOSE A","8501900","2018-01-11 05:00","2018","01","11","05:00","-18.8","","-24.8","","59","","","","","","0","","24.1","","100.73","","","","","","Snow"
"-60.42","53.32","GOOSE A","8501900","2018-01-11 06:00","2018","01","11","06:00","-18.2","","-24.1","","60","","","","28","","6","","19.3","","100.60","","","","-23","","Snow"
"-60.42","53.32","GOOSE A","8501900","2018-01-11 07:00","2018","01","11","07:00","-17.3","","-22.8","","62","","","","","","0","","24.1","","100.56","","","","","","Snow"
"-60.42","53.32","GOOSE A","8501900","2018-01-11 08:00","2018","01","11","08:00","-16.0","","-21.1","","65","","","","21","","13","","24.1","","100.48","","","","-24","","Cloudy"
"-60.42","53.32","GOOSE A","8501900","2018-01-11 09:00","2018","01","11","09:00","-13.3","","-18.7","","64","","","","23","","9","","24.1","","100.45","","","","-19","","Cloudy"
"-60.42","53.32","GOOSE A","8501900","2018-01-11 10:00","2018","01","11","10:00","-13.0","","-18.1","","66","","","","24","","9","","24.1","","100.45","","","","-18","","Snow"
"-60.42","53.32","GOOSE A","8501900","2018-01-11 11:00","2018","01","11","11:00","-11.6","","-18.5","","57","","","","27","","9","","24.1","","100.40","","","","-17","","Cloudy"
"-60.42","53.32","GOOSE A","8501900","2018-01-11 12:00","2018","01","11","12:00","-9.5","","-14.2","","69","","","","25","","11","","24.1","","100.28","","","","-15","","Mostly Cloudy"
"-60.42","53.32","GOOSE A","8501900","2018-01-11 13:00","2018","01","11","13:00","-5.5","","-11.3","","64","","","","24","","20","","24.1","","100.21","","","","-12","","Mostly Cloudy"
"-60.42","53.32","GOOSE A","8501900","2018-01-11 14:00","2018","01","11","14:00","-4.7","","-10.5","","64","","","","25","","41","","24.1","","100.16","","","","-14","","Cloudy"
"-60.42","53.32","GOOSE A","8501900","2018-01-11 15:00","2018","01","11","15:00","-4.5","","-10.6","","62","","","","23","","15","","24.1","","100.16","","","","-10","","Cloudy"
"-60.42","53.32","GOOSE A","8501900","2018-01-11 16:00","2018","01","11","16:00","-4.3","","-10.2","","63","","","","20","","4","","24.1","","100.22","","","","-6","","Cloudy"
"-60.42","53.32","GOOSE A","8501900","2018-01-11 17:00","2018","01","11","17:00","-4.8","","-10.0","","67","","","","20","","9","","24.1","","100.26","","","","-9","","Cloudy"
"-60.42","53.32","GOOSE A","8501900","2018-01-11 18:00","2018","01","11","18:00","-4.8","","-10.1","","66","","","","23","","13","","24.1","","100.29","","","","-10","","Snow"
"-60.42","53.32","GOOSE A","8501900","2018-01-11 19:00","2018","01","11","19:00","-4.6","","-8.2","","76","","","","15","","4","","12.9","","100.24","","","","-6","","Snow"
"-60.42","53.32","GOOSE A","8501900","2018-01-11 20:00","2018","01","11","20:00","-5.5","","-8.3","","81","","","","","","0","","9.7","","100.26","","","","","","Snow"
"-60.42","53.32","GOOSE A","8501900","2018-01-11 21:00","2018","01","11","21:00","-5.1","","-8.3","","78","","","","13","","6","","24.1","","100.24","","","","-8","","Snow"
"-60.42","53.32","GOOSE A","8501900","2018-01-11 22:00","2018","01","11","22:00","-4.8","","-8.4","","76","","","","19","","9","","24.1","","100.22","","","","-9","","Snow"
"-60.42","53.32","GOOSE A","8501900","2018-01-11 23:00","2018","01","11","23:00","-4.8","","-8.4","","76","","","","19","","4","","16.1","","100.17","","","","-7","","Snow"
"-60.42","53.32","GOOSE A","8501900","2018-01-12 00:00","2018","01","12","00:00","-4.4","","-7.7","","78","","","","20","","11","","9.7","","100.12","","","","-9","","Snow"
"-60.42","53.32","GOOSE A","8501900","2018-01-12 01:00","2018","01","12","01:00","-4.8","","-7.7","","80","","","","20","","4","","24.1","","100.03","","","","-7","","Snow"
"-60.42","53.32","GOOSE A","8501900","2018-01-12 02:00","2018","01","12","02:00","-7.3","","-9.4","","85","","","","25","","4","","24.1","","100.06","","","","-9","","Mostly Cloudy"
"-60.42","53.32","GOOSE A","8501900","2018-01-12 03:00","2018","01","12","03:00","-6.1","","-8.6","","82","","","","","","0","","24.1","","100.03","","","","","","Cloudy"
"-60.42","53.32","GOOSE A","8501900","2018-01-12 04:00","2018","01","12","04:00","-4.5","","-8.2","","75","","","","19","","9","","24.1","","99.94","","","","-8","","Mostly Cloudy"
"-60.42","53.32","GOOSE A","8501900","2018-01-12 05:00","2018","01","12","05:00","-6.0","","-8.5","","82","","","","","","0","","24.1","","99.80","","","","","","Cloudy"
"-60.42","53.32","GOOSE A","8501900","2018-01-12 06:00","2018","01","12","06:00","-4.0","","-8.2","","73","","","","18","","7","","24.1","","99.74","","","","-7","","Cloudy"
"-60.42","53.32","GOOSE A","8501900","2018-01-12 07:00","2018","01","12","07:00","-1.8","","-5.9","","74","","","","23","","9","","19.3","","99.58","","","","-5","","Snow Showers"
"-60.42","53.32","GOOSE A","8501900","2018-01-12 08:00","2018","01","12","08:00","-0.3","","-3.6","","78","","","","17","","9","","24.1","","99.45","","","","-3","","Freezing Rain"
"-60.42","53.32","GOOSE A","8501900","2018-01-12 09:00","2018","01","12","09:00","-1.5","","-4.1","","82","","","","5","","7","","24.1","","99.40","","","","-4","","Freezing Rain"
"-60.42","53.32","GOOSE A","8501900","2018-01-12 10:00","2018","01","12","10:00","-2.5","","-4.7","","85","","","","3","","6","","24.1","","99.31","","","","-5","","Cloudy"
"-60.42","53.32","GOOSE A","8501900","2018-01-12 11:00","2018","01","12","11:00","-2.2","","-4.5","","84","","","","1","","6","","24.1","","99.18","","","","-5","","Cloudy"
"-60.42","53.32","GOOSE A","8501900","2018-01-12 12:00","2018","01","12","12:00","-0.9","","-3.2","","84","","","","33","","7","","19.3","","99.06","","","","-3","","Freezing Rain"
"-60.42","53.32","GOOSE A","8501900","2018-01-12 13:00","2018","01","12","13:00","0.1","","-2.4","","83","","","","","","0","","24.1","","98.97","","","","","","Cloudy"
"-60.42","53.32","GOOSE A","8501900","2018-01-12 14:00","2018","01","12","14:00","0.5","","-1.9","","84","","","","18","","4","","19.3","","98.92","","","","","","Rain Showers"
"-60.42","53.32","GOOSE A","8501900","2018-01-12 15:00","2018","01","12","15:00","1.0","","-1.6","","83","","","","22","","9","","24.1","","98.87","","","","","","Cloudy"
"-60.42","53.32","GOOSE A","8501900","2018-01-12 16:00","2018","01","12","16:00","3.2","","0.6","","83","","","","18","","19","","24.1","","98.83","","","","","","Rain Showers"
"-60.42","53.32","GOOSE A","8501900","2018-01-12 17:00","2018","01","12","17:00","4.7","","1.5","","80","","","","18","","19","","24.1","","98.82","","","","","","Cloudy"
"-60.42","53.32","GOOSE A","8501900","2018-01-12 18:00","2018","01","12","18:00","4.8","","1.5","","79","","","","18","","17","","24.1","","98.82","","","","","","Cloudy"
"-60.42","53.32","GOOSE A","8501900","2018-01-12 19:00","2018","01","12","19:00","3.6","","0.7","","81","","","","35","","37","","19.3","","98.85","","","","","","Rain Showers"
"-60.42","53.32","GOOSE A","8501900","2018-01-12 20:00","2018","01","12","20:00","-1.6","","-5.7","","74","","","","34","","44","","6.4","","99.03","","","","-10","","Freezing Rain,Fog"
"-60.42","53.32","GOOSE A","8501900","2018-01-12 21:00","2018","01","12","21:00","-4.4","","-8.0","","76","","","","33","","30","","4.8","","99.24","","","","-12","","Snow"
"-60.42","53.32","GOOSE A","8501900","2018-01-12 22:00","2018","01","12","22:00","-6.1","","-9.4","","77","","","","34","","26","","4.8","","99.37","","","","-14","","Snow"
"-60.42","53.32","GOOSE A","8501900","2018-01-12 23:00","2018","01","12","23:00","-7.3","","-11.1","","74","","","","34","","19","","4.0","","99.51","","","","-14","","Snow"
"-60.42","53.32","GOOSE A","8501900","2018-01-13 00:00","2018","01","13","00:00","-7.8","","-11.1","","77","","","","32","","22","","4.0","","99.65","","","","-15","","Snow"
"-60.42","53.32","GOOSE A","8501900","2018-01-13 01:00","2018","01","13","01:00","-8.3","","-12.1","","74","","","","33","","17","","8.0","","99.81","","","","-15","","Snow"
"-60.42","53.32","GOOSE A","8501900","2018-01-13 02:00","2018","01","13","02:00","-9.0","","-13.5","","70","","","","32","","30","","12.9","","99.95","","","","-18","","Snow"
"-60.42","53.32","GOOSE A","8501900","2018-01-13 03:00","2018","01","13","03:00","-10.5","","-14.9","","70","","","","32","","22","","4.8","","100.14","","","","-19","","Snow"
"-60.42","53.32","GOOSE A","8501900","2018-01-13 04:00","2018","01","13","04:00","-12.4","","-16.9","","69","","","","30","","20","","19.3","","100.29","","","","-21","","Snow"
"-60.42","53.32","GOOSE A","8501900","2018-01-13 05:00","2018","01","13","05:00","-13.5","","-18.8","","64","","","","31","","20","","19.3","","100.51","","","","-22","","Snow"
"-60.42","53.32","GOOSE A","8501900","2018-01-13 06:00","2018","01","13","06:00","-14.1","","-19.4","","64","","","","32","","19","","24.1","","100.54","","","","-23","","Mostly Cloudy"
"-60.42","53.32","GOOSE A","8501900","2018-01-13 07:00","2018","01","13","07:00","-14.7","","-20.4","","62","","","","31","","17","","24.1","","100.75","","","","-23","","Cloudy"
"-60.42","53.32","GOOSE A","8501900","2018-01-13 08:00","2018","01","13","08:00","-15.7","","-22.7","","55","","","","32","","15","","24.1","","100.85","","","","-24","","Cloudy"
"-60.42","53.32","GOOSE A","8501900","2018-01-13 09:00","2018","01","13","09:00","-16.7","","-23.9","","54","","","","31","","19","","24.1","","100.98","","","","-26","","Cloudy"
"-60.42","53.32","GOOSE A","8501900","2018-01-13 10:00","2018","01","13","10:00","-17.0","","-23.9","","55","","","","34","","26","","24.1","","101.03","","","","-28","","Cloudy"
"-60.42","53.32","GOOSE A","8501900","2018-01-13 11:00","2018","01","13","11:00","-17.0","","-24.7","","51","","","","36","","15","","24.1","","101.11","","","","-25","","Cloudy"
"-60.42","53.32","GOOSE A","8501900","2018-01-13 12:00","2018","01","13","12:00","-17.2","","-24.7","","52","","","","34","","22","","24.1","","101.08","","","","-27","","Cloudy"
"-60.42","53.32","GOOSE A","8501900","2018-01-13 13:00","2018","01","13","13:00","-17.5","","-25.4","","50","","","","34","","11","","24.1","","101.03","","","","-25","","Cloudy"
"-60.42","53.32","GOOSE A","8501900","2018-01-13 14:00","2018","01","13","14:00","-17.6","","-25.6","","50","","","","34","","17","","24.1","","101.08","","","","-27","","Cloudy"
"-60.42","53.32","GOOSE A","8501900","2018-01-13 15:00","2018","01","13","15:00","-17.9","","-25.3","","52","","","","35","","19","","24.1","","100.95","","","","-28","","Cloudy"
"-60.42","53.32","GOOSE A","8501900","2018-01-13 16:00","2018","01","13","16:00","-18.1","","-25.4","","53","","","","33","","17","","9.7","","101.07","","","","-27","","Snow Showers"
"-60.42","53.32","GOOSE A","8501900","2018-01-13 17:00","2018","01","13","17:00","-18.3","","-23.6","","63","","","","30","","13","","2.0","","101.25","","","","-26","","Snow Showers"
"-60.42","53.32","GOOSE A","8501900","2018-01-13 18:00","2018","01","13","18:00","-18.8","","-24.4","","61","","","","34","","19","","1.6","","101.21","","","","-29","","Snow"
"-60.42","53.32","GOOSE A","8501900","2018-01-13 19:00","2018","01","13","19:00","-19.0","","-24.8","","60","","","","34","","22","","8.0","","101.24","","","","-30","","Snow"
"-60.42","53.32","GOOSE A","8501900","2018-01-13 20:00","2018","01","13","20:00","-19.3","","-25.4","","58","","","","33","","24","","16.1","","101.23","","","","-31","","Snow"
"-60.42","53.32","GOOSE A","8501900","2018-01-13 21:00","2018","01","13","21:00","-19.5","","-25.3","","60","","","","32","","13","","9.7","","101.39","","","","-28","","Snow"
"-60.42","53.32","GOOSE A","8501900","2018-01-13 22:00","2018","01","13","22:00","-19.6","","-25.3","","61","","","","30","","15","","9.7","","101.45","","","","-29","","Snow"
"-60.42","53.32","GOOSE A","8501900","2018-01-13 23:00","2018","01","13","23:00","-20.6","","-26.1","","61","","","","29","","9","","19.3","","101.44","","","","-27","","Snow"
"-60.42","53.32","GOOSE A","8501900","2018-01-14 00:00","2018","01","14","00:00","-22.2","","-28.2","","58","","","","29","","11","","24.1","","101.57","","","","-30","","Mainly Clear"
"-60.42","53.32","GOOSE A","8501900","2018-01-14 01:00","2018","01","14","01:00","-22.4","","-28.5","","58","","","","29","","9","","24.1","","101.60","","","","-30","","Clear"
"-60.42","53.32","GOOSE A","8501900","2018-01-14 02:00","2018","01","14","02:00","-22.6","","-29.3","","54","","","","30","","13","","24.1","","101.67","","","","-32","","Clear"
"-60.42","53.32","GOOSE A","8501900","2018-01-14 03:00","2018","01","14","03:00","-24.3","","-30.8","","55","","","","31","","7","","24.1","","101.80","","","","-31","","Clear"
"-60.42","53.32","GOOSE A","8501900","2018-01-14 04:00","2018","01","14","04:00","-24.9","","-30.5","","60","","","","26","","4","","24.1","","101.83","","","","-29","","Mainly Clear"
"-60.42","53.32","GOOSE A","8501900","2018-01-14 05:00","2018","01","14","05:00","-25.7","","-31.6","","58","","","","28","","9","","24.1","","101.92","","","","-33","","Mainly Clear"
"-60.42","53.32","GOOSE A","8501900","2018-01-14 06:00","2018","01","14","06:00","-26.3","","-32.2","","58","","","","27","","7","","24.1","","102.02","","","","-33","","Clear"
"-60.42","53.32","GOOSE A","8501900","2018-01-14 07:00","2018","01","14","07:00","-26.1","","-32.7","","54","","","","27","","19","","24.1","","102.07","","","","-38","","Mainly Clear"
"-60.42","53.32","GOOSE A","8501900","2018-01-14 08:00","2018","01","14","08:00","-26.8","","-33.4","","54","","","","26","","26","","24.1","","102.18","","","","-41","","Mainly Clear"
"-60.42","53.32","GOOSE A","8501900","2018-01-14 09:00","2018","01","14","09:00","-26.9","","-33.6","","53","","","","26","","28","","24.1","","102.28","","","","-41","","Mainly Clear"
"-60.42","53.32","GOOSE A","8501900","2018-01-14 10:00","2018","01","14","10:00","-26.7","","-33.5","","53","","","","25","","28","","24.1","","102.30","","","","-41","","Mainly Clear"
"-60.42","53.32","GOOSE A","8501900","2018-01-14 11:00","2018","01","14","11:00","-26.0","","-32.9","","52","","","","25","","28","","24.1","","102.33","","","","-40","","Clear"
"-60.42","53.32","GOOSE A","8501900","2018-01-14 12:00","2018","01","14","12:00","-25.1","","-31.8","","54","","","","26","","28","","24.1","","102.33","","","","-39","","Clear"
"-60.42","53.32","GOOSE A","8501900","2018-01-14 13:00","2018","01","14","13:00","-24.0","","-30.7","","54","","","","24","","24","","24.1","","102.34","","","","-37","","Clear"
"-60.42","53.32","GOOSE A","8501900","2018-01-14 14:00","2018","01","14","14:00","-23.1","","-29.9","","54","","","","25","","20","","24.1","","102.39","","","","-34","","Clear"
"-60.42","53.32","GOOSE A","8501900","2018-01-14 15:00","2018","01","14","15:00","-22.7","","-29.5","","54","","","","25","","28","","24.1","","102.40","","","","-36","","Clear"
"-60.42","53.32","GOOSE A","8501900","2018-01-14 16:00","2018","01","14","16:00","-22.9","","-29.5","","55","","","","25","","30","","24.1","","102.50","","","","-36","","Clear"
"-60.42","53.32","GOOSE A","8501900","2018-01-14 17:00","2018","01","14","17:00","-23.0","","-29.5","","55","","","","26","","24","","24.1","","102.58","","","","-35","","Clear"
"-60.42","53.32","GOOSE A","8501900","2018-01-14 18:00","2018","01","14","18:00","-23.3","","-29.9","","55","","","","26","","26","","24.1","","102.70","","","","-36","","Clear"
"-60.42","53.32","GOOSE A","8501900","2018-01-14 19:00","2018","01","14","19:00","-23.8","","-30.4","","55","","","","25","","26","","24.1","","102.84","","","","-37","","Clear"
"-60.42","53.32","GOOSE A","8501900","2018-01-14 20:00","2018","01","14","20:00","-24.6","","-30.8","","56","","","","25","","37","","24.1","","102.88","","","","-40","","Clear"
"-60.42","53.32","GOOSE A","8501900","2018-01-14 21:00","2018","01","14","21:00","-24.9","","-31.5","","54","","","","26","","26","","24.1","","102.99","","","","-38","","Clear"
"-60.42","53.32","GOOSE A","8501900","2018-01-14 22:00","2018","01","14","22:00","-25.1","","-31.5","","55","","","","26","","30","","24.1","","103.01","","","","-39","","Mainly Clear"
"-60.42","53.32","GOOSE A","8501900","2018-01-14 23:00","2018","01","14","23:00","-25.1","","-31.7","","54","","","","25","","22","","24.1","","103.07","","","","-37","","Mainly Clear"
"-60.42","53.32","GOOSE A","8501900","2018-01-15 00:00","2018","01","15","00:00","-24.7","","-31.4","","54","","","","25","","32","","24.1","","103.14","","","","-39","","Mainly Clear"
"-60.42","53.32","GOOSE A","8501900","2018-01-15 01:00","2018","01","15","01:00","-24.9","","-31.7","","53","","","","24","","20","","24.1","","103.17","","","","-37","","Clear"
"-60.42","53.32","GOOSE A","8501900","2018-01-15 02:00","2018","01","15","02:00","-25.0","","-31.7","","54","","","","24","","24","","24.1","","103.27","","","","-38","","Clear"
"-60.42","53.32","GOOSE A","8501900","2018-01-15 03:00","2018","01","15","03:00","-24.7","","-31.6","","53","","","","26","","33","","24.1","","103.35","","","","-39","","Clear"
"-60.42","53.32","GOOSE A","8501900","2018-01-15 04:00","2018","01","15","04:00","-24.8","","-31.7","","53","","","","26","","30","","24.1","","103.40","","","","-39","","Clear"
"-60.42","53.32","GOOSE A","8501900","2018-01-15 05:00","2018","01","15","05:00","-24.9","","-31.9","","52","","","","26","","30","","24.1","","103.46","","","","-39","","Mainly Clear"
"-60.42","53.32","GOOSE A","8501900","2018-01-15 06:00","2018","01","15","06:00","-25.0","","-31.9","","53","","","","25","","30","","24.1","","103.48","","","","-39","","Clear"
"-60.42","53.32","GOOSE A","8501900","2018-01-15 07:00","2018","01","15","07:00","-25.1","","-31.9","","53","","","","23","","17","","24.1","","103.56","","","","-36","","Clear"
"-60.42","53.32","GOOSE A","8501900","2018-01-15 08:00","2018","01","15","08:00","-24.8","","-31.5","","54","","","","26","","22","","24.1","","103.60","","","","-37","","Clear"
"-60.42","53.32","GOOSE A","8501900","2018-01-15 09:00","2018","01","15","09:00","-24.6","","-31.1","","55","","","","26","","28","","24.1","","103.69","","","","-38","","Clear"
"-60.42","53.32","GOOSE A","8501900","2018-01-15 10:00","2018","01","15","10:00","-23.9","","-30.5","","54","","","","25","","37","","24.1","","103.76","","","","-39","","Clear"
"-60.42","53.32","GOOSE A","8501900","2018-01-15 11:00","2018","01","15","11:00","-22.8","","-29.7","","53","","","","25","","50","","24.1","","103.78","","","","-39","","Clear"
"-60.42","53.32","GOOSE A","8501900","2018-01-15 12:00","2018","01","15","12:00","-21.6","","-28.9","","52","","","","25","","30","","24.1","","103.76","","","","-35","","Clear"
"-60.42","53.32","GOOSE A","8501900","2018-01-15 13:00","2018","01","15","13:00","-20.9","","-27.9","","53","","","","25","","37","","24.1","","103.71","","","","-35","","Clear"
"-60.42","53.32","GOOSE A","8501900","2018-01-15 14:00","2018","01","15","14:00","-19.8","","-27.0","","53","","","","26","","26","","24.1","","103.70","","","","-32","","Clear"
"-60.42","53.32","GOOSE A","8501900","2018-01-15 15:00","2018","01","15","15:00","-19.3","","-26.7","","52","","","","26","","19","","24.1","","103.72","","","","-29","","Clear"
"-60.42","53.32","GOOSE A","8501900","2018-01-15 16:00","2018","01","15","16:00","-19.8","","-26.8","","54","","","","26","","28","","24.1","","103.75","","","","-32","","Clear"
"-60.42","53.32","GOOSE A","8501900","2018-01-15 17:00","2018","01","15","17:00","-20.1","","-26.9","","55","","","","26","","26","","24.1","","103.81","","","","-32","","Clear"
"-60.42","53.32","GOOSE A","8501900","2018-01-15 18:00","2018","01","15","18:00","-20.5","","-27.6","","53","","","","26","","33","","24.1","","103.76","","","","-34","","Clear"
"-60.42","53.32","GOOSE A","8501900","2018-01-15 19:00","2018","01","15","19:00","-20.2","","-27.3","","53","","","","27","","20","","24.1","","103.78","","","","-31","","Clear"
"-60.42","53.32","GOOSE A","8501900","2018-01-15 20:00","2018","01","15","20:00","-20.2","","-27.4","","53","","","","27","","22","","24.1","","103.81","","","","-31","","Clear"
"-60.42","53.32","GOOSE A","8501900","2018-01-15 21:00","2018","01","15","21:00","-20.5","","-27.3","","54","","","","25","","39","","24.1","","103.87","","","","-35","","Clear"
"-60.42","53.32","GOOSE A","8501900","2018-01-15 22:00","2018","01","15","22:00","-21.0","","-27.5","","56","","","","25","","22","","24.1","","103.87","","","","-32","","Clear"
"-60.42","53.32","GOOSE A","8501900","2018-01-15 23:00","2018","01","15","23:00","-21.2","","-27.7","","56","","","","26","","7","","24.1","","103.79","","","","-27","","Clear"
"-60.42","53.32","GOOSE A","8501900","2018-01-16 00:00","2018","01","16","00:00","-23.3","","-28.9","","60","","","","","","0","","24.1","","103.73","","","","","","Clear"
"-60.42","53.32","GOOSE A","8501900","2018-01-16 01:00","2018","01","16","01:00","-24.4","","-29.5","","63","","","","15","","7","","24.1","","103.63","","","","-31","","Clear"
"-60.42","53.32","GOOSE A","8501900","2018-01-16 02:00","2018","01","16","02:00","-25.3","","-30.0","","65","","","","19","","6","","24.1","","103.53","","","","-31","","Clear"
"-60.42","53.32","GOOSE A","8501900","2018-01-16 03:00","2018","01","16","03:00","-26.1","","-30.5","","66","","","","31","","15","","24.1","","103.43","","","","-37","","Clear"
"-60.42","53.32","GOOSE A","8501900","2018-01-16 04:00","2018","01","16","04:00","-25.8","","-30.7","","63","","","","24","","9","","24.1","","103.39","","","","-34","","Mainly Clear"
"-60.42","53.32","GOOSE A","8501900","2018-01-16 05:00","2018","01","16","05:00","-26.0","","-31.2","","62","","","","28","","4","","24.1","","103.34","","","","-30","","Mainly Clear"
"-60.42","53.32","GOOSE A","8501900","2018-01-16 06:00","2018","01","16","06:00","-26.9","","-32.3","","60","","","","26","","7","","24.1","","103.29","","","","-34","","Clear"
"-60.42","53.32","GOOSE A","8501900","2018-01-16 07:00","2018","01","16","07:00","-27.0","","-32.3","","61","","","","26","","7","","24.1","","103.18","","","","-34","","Mainly Clear"
"-60.42","53.32","GOOSE A","8501900","2018-01-16 08:00","2018","01","16","08:00","-27.4","","-32.1","","64","","","","","","0","","24.1","","103.06","","","","","","Mainly Clear"
"-60.42","53.32","GOOSE A","8501900","2018-01-16 09:00","2018","01","16","09:00","-26.8","","-32.7","","57","","","","","","0","","24.1","","103.00","","","","","","Mostly Cloudy"
"-60.42","53.32","GOOSE A","8501900","2018-01-16 10:00","2018","01","16","10:00","-25.6","","-31.0","","61","","","","29","","6","","24.1","","102.94","","","","-31","","Mainly Clear"
"-60.42","53.32","GOOSE A","8501900","2018-01-16 11:00","2018","01","16","11:00","-24.2","","-29.9","","59","","","","28","","4","","24.1","","102.81","","","","-28","","Mostly Cloudy"
"-60.42","53.32","GOOSE A","8501900","2018-01-16 12:00","2018","01","16","12:00","-22.3","","-28.5","","57","","","","24","","9","","24.1","","102.63","","","","-29","","Mostly Cloudy"
"-60.42","53.32","GOOSE A","8501900","2018-01-16 13:00","2018","01","16","13:00","-20.5","","-27.3","","54","","","","23","","13","","24.1","","102.53","","","","-29","","Mostly Cloudy"
"-60.42","53.32","GOOSE A","8501900","2018-01-16 14:00","2018","01","16","14:00","-20.1","","-26.7","","56","","","","24","","9","","24.1","","102.42","","","","-27","","Cloudy"
"-60.42","53.32","GOOSE A","8501900","2018-01-16 15:00","2018","01","16","15:00","-18.9","","-25.9","","54","","","","25","","17","","24.1","","102.37","","","","-28","","Cloudy"
"-60.42","53.32","GOOSE A","8501900","2018-01-16 16:00","2018","01","16","16:00","-19.2","","-25.8","","56","","","","25","","15","","24.1","","102.28","","","","-28","","Cloudy"
"-60.42","53.32","GOOSE A","8501900","2018-01-16 17:00","2018","01","16","17:00","-19.5","","-25.7","","58","","","","22","","13","","24.1","","102.20","","","","-28","","Cloudy"
"-60.42","53.32","GOOSE A","8501900","2018-01-16 18:00","2018","01","16","18:00","-19.5","","-25.4","","59","","","","23","","6","","24.1","","102.14","","","","-24","","Cloudy"
"-60.42","53.32","GOOSE A","8501900","2018-01-16 19:00","2018","01","16","19:00","-19.1","","-25.3","","58","","","","24","","7","","24.1","","102.10","","","","-25","","Cloudy"
"-60.42","53.32","GOOSE A","8501900","2018-01-16 20:00","2018","01","16","20:00","-20.1","","-25.6","","61","","","","21","","6","","24.1","","102.09","","","","-25","","Cloudy"
"-60.42","53.32","GOOSE A","8501900","2018-01-16 21:00","2018","01","16","21:00","-20.0","","-25.8","","60","","","","22","","20","","24.1","","102.05","","","","-30","","Cloudy"
"-60.42","53.32","GOOSE A","8501900","2018-01-16 22:00","2018","01","16","22:00","-20.1","","-26.2","","58","","","","27","","9","","24.1","","102.02","","","","-27","","Mostly Cloudy"
"-60.42","53.32","GOOSE A","8501900","2018-01-16 23:00","2018","01","16","23:00","-21.2","","-26.4","","63","","","","","","0","","24.1","","102.02","","","","","","Cloudy"
"-60.42","53.32","GOOSE A","8501900","2018-01-17 00:00","2018","01","17","00:00","-20.1","","-26.1","","59","","","","25","","20","","24.1","","101.98","","","","-31","","Cloudy"
"-60.42","53.32","GOOSE A","8501900","2018-01-17 01:00","2018","01","17","01:00","-20.1","","-26.2","","58","","","","24","","22","","24.1","","101.91","","","","-31","","Mainly Clear"
"-60.42","53.32","GOOSE A","8501900","2018-01-17 02:00","2018","01","17","02:00","-23.3","","-28.2","","64","","","","19","","7","","24.1","","101.88","","","","-29","","Clear"
"-60.42","53.32","GOOSE A","8501900","2018-01-17 03:00","2018","01","17","03:00","-22.6","","-27.8","","63","","","","22","","6","","24.1","","101.84","","","","-28","","Clear"
"-60.42","53.32","GOOSE A","8501900","2018-01-17 04:00","2018","01","17","04:00","-23.7","","-29.1","","61","","","","20","","7","","24.1","","101.83","","","","-30","","Clear"
"-60.42","53.32","GOOSE A","8501900","2018-01-17 05:00","2018","01","17","05:00","-23.4","","-28.8","","61","","","","21","","17","","24.1","","101.84","","","","-34","","Clear"
"-60.42","53.32","GOOSE A","8501900","2018-01-17 06:00","2018","01","17","06:00","-24.4","","-29.5","","63","","","","23","","19","","24.1","","101.86","","","","-36","","Clear"
"-60.42","53.32","GOOSE A","8501900","2018-01-17 07:00","2018","01","17","07:00","-24.0","","-29.2","","62","","","","22","","19","","24.1","","101.89","","","","-35","","Mainly Clear"
"-60.42","53.32","GOOSE A","8501900","2018-01-17 08:00","2018","01","17","08:00","-24.0","","-29.4","","61","","","","21","","17","","24.1","","101.90","","","","-35","","Mainly Clear"
"-60.42","53.32","GOOSE A","8501900","2018-01-17 09:00","2018","01","17","09:00","-23.8","","-29.5","","59","","","","23","","20","","24.1","","101.85","","","","-35","","Mainly Clear"
"-60.42","53.32","GOOSE A","8501900","2018-01-17 10:00","2018","01","17","10:00","-22.3","","-28.3","","58","","","","22","","17","","24.1","","101.81","","","","-33","","Mainly Clear"
"-60.42","53.32","GOOSE A","8501900","2018-01-17 11:00","2018","01","17","11:00","-20.4","","-27.2","","55","","","","25","","11","","24.1","","101.73","","","","-28","","Mainly Clear"
"-60.42","53.32","GOOSE A","8501900","2018-01-17 12:00","2018","01","17","12:00","-18.7","","-25.7","","54","","","","25","","19","","24.1","","101.63","","","","-29","","Mainly Clear"
"-60.42","53.32","GOOSE A","8501900","2018-01-17 13:00","2018","01","17","13:00","-18.5","","-25.4","","55","","","","22","","15","","24.1","","101.53","","","","-27","","Clear"
"-60.42","53.32","GOOSE A","8501900","2018-01-17 14:00","2018","01","17","14:00","-16.9","","-23.6","","56","","","","25","","13","","24.1","","101.44","","","","-25","","Mainly Clear"
"-60.42","53.32","GOOSE A","8501900","2018-01-17 15:00","2018","01","17","15:00","-16.4","","-23.7","","53","","","","24","","7","","24.1","","101.39","","","","-21","","Clear"
"-60.42","53.32","GOOSE A","8501900","2018-01-17 16:00","2018","01","17","16:00","-18.3","","-25.2","","55","","","","26","","9","","24.1","","101.40","","","","-25","","Clear"
"-60.42","53.32","GOOSE A","8501900","2018-01-17 17:00","2018","01","17","17:00","-19.5","","-25.7","","58","","","","26","","11","","24.1","","101.36","","","","-27","","Clear"
"-60.42","53.32","GOOSE A","8501900","2018-01-17 18:00","2018","01","17","18:00","-22.1","","-27.6","","61","","","","22","","6","","24.1","","101.32","","","","-27","","Clear"
"-60.42","53.32","GOOSE A","8501900","2018-01-17 19:00","2018","01","17","19:00","-20.8","","-26.3","","61","","","","24","","4","","24.1","","101.25","","","","-24","","Clear"
"-60.42","53.32","GOOSE A","8501900","2018-01-17 20:00","2018","01","17","20:00","-23.5","","-29.2","","59","","","","21","","4","","24.1","","101.21","","","","-27","","Clear"
"-60.42","53.32","GOOSE A","8501900","2018-01-17 21:00","2018","01","17","21:00","-24.2","","-28.9","","65","","","","24","","9","","24.1","","101.13","","","","-32","","Mostly Cloudy"
"-60.42","53.32","GOOSE A","8501900","2018-01-17 22:00","2018","01","17","22:00","-22.0","","-28.3","","57","","","","20","","11","","24.1","","101.08","","","","-30","","Mainly Clear"
"-60.42","53.32","GOOSE A","8501900","2018-01-17 23:00","2018","01","17","23:00","-21.4","","-26.4","","64","","","","22","","7","","24.1","","100.98","","","","-27","","Mostly Cloudy"
"-60.42","53.32","GOOSE A","8501900","2018-01-18 00:00","2018","01","18","00:00","-21.2","","-26.2","","64","","","","25","","9","","24.1","","100.92","","","","-28","","Mostly Cloudy"
"-60.42","53.32","GOOSE A","8501900","2018-01-18 01:00","2018","01","18","01:00","-19.8","","-24.8","","64","","","","21","","9","","24.1","","100.85","","","","-27","","Mostly Cloudy"
"-60.42","53.32","GOOSE A","8501900","2018-01-18 02:00","2018","01","18","02:00","-18.8","","-23.6","","66","","","","21","","6","","24.1","","100.78","","","","-24","","Cloudy"
"-60.42","53.32","GOOSE A","8501900","2018-01-18 03:00","2018","01","18","03:00","-19.5","","-24.4","","65","","","","22","","6","","24.1","","100.68","","","","-24","","Cloudy"
"-60.42","53.32","GOOSE A","8501900","2018-01-18 04:00","2018","01","18","04:00","-17.7","","-22.5","","66","","","","18","","17","","24.1","","100.62","","","","-27","","Mostly Cloudy"
"-60.42","53.32","GOOSE A","8501900","2018-01-18 05:00","2018","01","18","05:00","-15.2","","-20.6","","63","","","","18","","15","","24.1","","100.50","","","","-23","","Cloudy"
"-60.42","53.32","GOOSE A","8501900","2018-01-18 06:00","2018","01","18","06:00","-15.2","","-20.6","","63","","","","18","","15","","24.1","","100.39","","","","-23","","Cloudy"
"-60.42","53.32","GOOSE A","8501900","2018-01-18 07:00","2018","01","18","07:00","-13.6","","-19.4","","62","","","","20","","13","","24.1","","100.30","","","","-21","","Cloudy"
"-60.42","53.32","GOOSE A","8501900","2018-01-18 08:00","2018","01","18","08:00","-13.8","","-18.9","","65","","","","18","","7","","24.1","","100.22","","","","-18","","Cloudy"
"-60.42","53.32","GOOSE A","8501900","2018-01-18 09:00","2018","01","18","09:00","-12.2","","-18.0","","62","","","","20","","19","","19.3","","100.15","","","","-20","","Cloudy"
"-60.42","53.32","GOOSE A","8501900","2018-01-18 10:00","2018","01","18","10:00","-11.8","","-19.3","","54","","","","18","","13","","12.9","","100.08","","","","-18","","Snow Showers"
"-60.42","53.32","GOOSE A","8501900","2018-01-18 11:00","2018","01","18","11:00","-13.0","","-17.0","","72","","","","8","","11","","16.1","","99.96","","","","-19","","Snow Showers"
"-60.42","53.32","GOOSE A","8501900","2018-01-18 12:00","2018","01","18","12:00","-12.5","","-16.4","","73","","","","9","","11","","19.3","","99.79","","","","-19","","Snow Showers"
"-60.42","53.32","GOOSE A","8501900","2018-01-18 13:00","2018","01","18","13:00","-12.5","","-16.2","","74","","","","5","","15","","16.1","","99.65","","","","-20","","Snow Showers"
"-60.42","53.32","GOOSE A","8501900","2018-01-18 14:00","2018","01","18","14:00","-12.3","","-15.6","","76","","","","6","","11","","8.0","","99.56","","","","-18","","Snow"
"-60.42","53.32","GOOSE A","8501900","2018-01-18 15:00","2018","01","18","15:00","-12.5","","-15.7","","77","","","","8","","9","","12.9","","99.50","","","","-18","","Snow"
"-60.42","53.32","GOOSE A","8501900","2018-01-18 16:00","2018","01","18","16:00","-12.5","","-15.5","","78","","","","5","","7","","8.0","","99.44","","","","-17","","Snow"
"-60.42","53.32","GOOSE A","8501900","2018-01-18 17:00","2018","01","18","17:00","-12.6","","-15.6","","78","","","","5","","6","","6.4","","99.39","","","","-17","","Snow"
"-60.42","53.32","GOOSE A","8501900","2018-01-18 18:00","2018","01","18","18:00","-13.4","","-16.5","","77","","","","18","","4","","19.3","","99.36","","","","-16","","Snow"
"-60.42","53.32","GOOSE A","8501900","2018-01-18 19:00","2018","01","18","19:00","-14.2","","-17.5","","76","","","","","","0","","24.1","","99.33","","","","","","Snow Showers"
"-60.42","53.32","GOOSE A","8501900","2018-01-18 20:00","2018","01","18","20:00","-14.0","","-17.1","","77","","","","","","0","","16.1","","99.31","","","","","","Snow Showers"
"-60.42","53.32","GOOSE A","8501900","2018-01-18 21:00","2018","01","18","21:00","-13.4","","-16.7","","76","","","","28","","7","","6.4","","99.32","","","","-18","","Snow Showers"
"-60.42","53.32","GOOSE A","8501900","2018-01-18 22:00","2018","01","18","22:00","-13.2","","-16.3","","77","","","","27","","7","","16.1","","99.36","","","","-18","","Snow Showers"
"-60.42","53.32","GOOSE A","8501900","2018-01-18 23:00","2018","01","18","23:00","-13.3","","-16.7","","76","","","","27","","13","","24.1","","99.39","","","","-20","","Mostly Cloudy"
"-60.42","53.32","GOOSE A","8501900","2018-01-19 00:00","2018","01","19","00:00","-14.2","","-17.5","","76","","","","28","","20","","24.1","","99.43","","","","-23","","Mainly Clear"
"-60.42","53.32","GOOSE A","8501900","2018-01-19 01:00","2018","01","19","01:00","-12.4","","-16.7","","70","","","","26","","22","","24.1","","99.49","","","","-21","","Clear"
"-60.42","53.32","GOOSE A","8501900","2018-01-19 02:00","2018","01","19","02:00","-12.8","","-17.7","","67","","","","27","","24","","24.1","","99.57","","","","-22","","Clear"
"-60.42","53.32","GOOSE A","8501900","2018-01-19 03:00","2018","01","19","03:00","-14.3","","-19.3","","66","","","","26","","24","","24.1","","99.64","","","","-24","","Clear"
"-60.42","53.32","GOOSE A","8501900","2018-01-19 04:00","2018","01","19","04:00","-14.9","","-20.2","","64","","","","26","","28","","24.1","","99.67","","","","-26","","Clear"
"-60.42","53.32","GOOSE A","8501900","2018-01-19 05:00","2018","01","19","05:00","-15.6","","-20.4","","67","","","","27","","28","","24.1","","99.73","","","","-26","","Clear"
"-60.42","53.32","GOOSE A","8501900","2018-01-19 06:00","2018","01","19","06:00","-16.5","","-21.4","","66","","","","27","","24","","24.1","","99.82","","","","-27","","Clear"
"-60.42","53.32","GOOSE A","8501900","2018-01-19 07:00","2018","01","19","07:00","-16.7","","-22.0","","63","","","","27","","28","","24.1","","99.92","","","","-28","","Clear"
"-60.42","53.32","GOOSE A","8501900","2018-01-19 08:00","2018","01","19","08:00","-18.4","","-23.9","","62","","","","26","","24","","24.1","","100.01","","","","-29","","Clear"
"-60.42","53.32","GOOSE A","8501900","2018-01-19 09:00","2018","01","19","09:00","-18.4","","-24.5","","59","","","","27","","17","","24.1","","100.06","","","","-28","","Clear"
"-60.42","53.32","GOOSE A","8501900","2018-01-19 10:00","2018","01","19","10:00","-18.2","","-25.4","","53","","","","26","","26","","24.1","","100.11","","","","-29","","Mainly Clear"
"-60.42","53.32","GOOSE A","8501900","2018-01-19 11:00","2018","01","19","11:00","-18.1","","-25.3","","53","","","","26","","33","","24.1","","100.08","","","","-31","","Mainly Clear"
"-60.42","53.32","GOOSE A","8501900","2018-01-19 12:00","2018","01","19","12:00","-17.5","","-24.7","","53","","","","27","","30","","24.1","","100.05","","","","-29","","Clear"
"-60.42","53.32","GOOSE A","8501900","2018-01-19 13:00","2018","01","19","13:00","-16.9","","-24.4","","52","","","","25","","30","","24.1","","100.06","","","","-29","","Mainly Clear"
"-60.42","53.32","GOOSE A","8501900","2018-01-19 14:00","2018","01","19","14:00","-16.4","","-24.8","","48","","","","28","","22","","24.1","","100.04","","","","-26","","Clear"
"-60.42","53.32","GOOSE A","8501900","2018-01-19 15:00","2018","01","19","15:00","-16.4","","-24.3","","50","","","","26","","19","","24.1","","100.06","","","","-26","","Mainly Clear"
"-60.42","53.32","GOOSE A","8501900","2018-01-19 16:00","2018","01","19","16:00","-17.4","","-24.9","","52","","","","27","","13","","24.1","","100.10","","","","-25","","Clear"
"-60.42","53.32","GOOSE A","8501900","2018-01-19 17:00","2018","01","19","17:00","-20.5","","-26.6","","58","","","","26","","7","","24.1","","100.12","","","","-26","","Clear"
"-60.42","53.32","GOOSE A","8501900","2018-01-19 18:00","2018","01","19","18:00","-20.0","","-26.3","","57","","","","25","","11","","24.1","","100.13","","","","-28","","Clear"
"-60.42","53.32","GOOSE A","8501900","2018-01-19 19:00","2018","01","19","19:00","-19.9","","-26.5","","56","","","","25","","17","","24.1","","100.13","","","","-30","","Clear"
"-60.42","53.32","GOOSE A","8501900","2018-01-19 20:00","2018","01","19","20:00","-21.5","","-27.8","","57","","","","28","","15","","24.1","","100.12","","","","-31","","Clear"
"-60.42","53.32","GOOSE A","8501900","2018-01-19 21:00","2018","01","19","21:00","-22.6","","-28.6","","58","","","","22","","7","","24.1","","100.09","","","","-29","","Clear"
"-60.42","53.32","GOOSE A","8501900","2018-01-19 22:00","2018","01","19","22:00","-22.5","","-28.3","","59","","","","26","","22","","24.1","","100.07","","","","-34","","Clear"
"-60.42","53.32","GOOSE A","8501900","2018-01-19 23:00","2018","01","19","23:00","-21.9","","-28.2","","57","","","","25","","22","","24.1","","100.06","","","","-33","","Clear"
"-60.42","53.32","GOOSE A","8501900","2018-01-20 00:00","2018","01","20","00:00","-21.9","","-28.3","","56","","","","26","","24","","24.1","","100.01","","","","-34","","Clear"
"-60.42","53.32","GOOSE A","8501900","2018-01-20 01:00","2018","01","20","01:00","-23.0","","-28.6","","60","","","","25","","9","","24.1","","99.96","","","","-30","","Clear"
"-60.42","53.32","GOOSE A","8501900","2018-01-20 02:00","2018","01","20","02:00","-24.3","","-29.5","","62","","","","25","","15","","24.1","","99.96","","","","-34","","Mainly Clear"
"-60.42","53.32","GOOSE A","8501900","2018-01-20 03:00","2018","01","20","03:00","-23.7","","-29.4","","59","","","","27","","19","","24.1","","99.92","","","","-35","","Mainly Clear"
"-60.42","53.32","GOOSE A","8501900","2018-01-20 04:00","2018","01","20","04:00","-24.1","","-30.3","","57","","","","29","","20","","24.1","","99.86","","","","-36","","Clear"
"-60.42","53.32","GOOSE A","8501900","2018-01-20 05:00","2018","01","20","05:00","-24.5","","-30.2","","59","","","","28","","19","","24.1","","99.78","","","","-36","","Mainly Clear"
"-60.42","53.32","GOOSE A","8501900","2018-01-20 06:00","2018","01","20","06:00","-24.4","","-29.8","","61","","","","27","","17","","24.1","","99.76","","","","-35","","Mostly Cloudy"
"-60.42","53.32","GOOSE A","8501900","2018-01-20 07:00","2018","01","20","07:00","-25.1","","-30.9","","58","","","","28","","11","","24.1","","99.68","","","","-34","","Cloudy"
"-60.42","53.32","GOOSE A","8501900","2018-01-20 08:00","2018","01","20","08:00","-24.7","","-30.2","","60","","","","27","","11","","24.1","","99.64","","","","-33","","Mostly Cloudy"
"-60.42","53.32","GOOSE A","8501900","2018-01-20 09:00","2018","01","20","09:00","-24.8","","-30.6","","59","","","","24","","7","","24.1","","99.52","","","","-31","","Cloudy"
"-60.42","53.32","GOOSE A","8501900","2018-01-20 10:00","2018","01","20","10:00","-23.5","","-29.1","","60","","","","","","0","","24.1","","99.38","","","","","","Cloudy"
"-60.42","53.32","GOOSE A","8501900","2018-01-20 11:00","2018","01","20","11:00","-21.8","","-28.0","","57","","","","","","0","","24.1","","99.32","","","","","","Cloudy"
"-60.42","53.32","GOOSE A","8501900","2018-01-20 12:00","2018","01","20","12:00","-21.2","","-26.9","","60","","","","35","","4","","6.4","","99.20","","","","-25","","Snow"
"-60.42","53.32","GOOSE A","8501900","2018-01-20 13:00","2018","01","20","13:00","-20.0","","-25.1","","64","","","","","","0","","2.0","","99.02","","","","","","Snow"
"-60.42","53.32","GOOSE A","8501900","2018-01-20 14:00","2018","01","20","14:00","-20.0","","-24.9","","65","","","","6","","6","","2.0","","98.87","","","","-25","","Snow"
"-60.42","53.32","GOOSE A","8501900","2018-01-20 15:00","2018","01","20","15:00","-19.7","","-24.5","","66","","","","3","","7","","2.0","","98.77","","","","-25","","Snow"
"-60.42","53.32","GOOSE A","8501900","2018-01-20 16:00","2018","01","20","16:00","-19.2","","-23.9","","66","","","","36","","7","","0.8","","98.71","","","","-25","","Moderate Snow"
"-60.42","53.32","GOOSE A","8501900","2018-01-20 17:00","2018","01","20","17:00","-19.1","","-23.7","","67","","","","20","","6","","2.0","","98.67","","","","-24","","Snow"
"-60.42","53.32","GOOSE A","8501900","2018-01-20 18:00","2018","01","20","18:00","-19.1","","-23.7","","67","","","","22","","4","","4.0","","98.63","","","","-22","","Snow"
"-60.42","53.32","GOOSE A","8501900","2018-01-20 19:00","2018","01","20","19:00","-19.0","","-23.6","","67","","","","25","","4","","4.8","","98.63","","","","-22","","Snow"
"-60.42","53.32","GOOSE A","8501900","2018-01-20 20:00","2018","01","20","20:00","-18.8","","-23.4","","67","","","","24","","4","","9.7","","98.65","","","","-22","","Snow"
"-60.42","53.32","GOOSE A","8501900","2018-01-20 21:00","2018","01","20","21:00","-18.7","","-23.2","","68","","","","21","","6","","9.7","","98.65","","","","-24","","Snow"
"-60.42","53.32","GOOSE A","8501900","2018-01-20 22:00","2018","01","20","22:00","-18.8","","-23.4","","67","","","","22","","7","","19.3","","98.66","","","","-24","","Snow"
"-60.42","53.32","GOOSE A","8501900","2018-01-20 23:00","2018","01","20","23:00","-18.4","","-23.4","","65","","","","24","","13","","24.1","","98.67","","","","-26","","Snow"
"-60.42","53.32","GOOSE A","8501900","2018-01-21 00:00","2018","01","21","00:00","-18.3","","-23.3","","65","","","","25","","17","","24.1","","98.68","","","","-28","","Snow"
"-60.42","53.32","GOOSE A","8501900","2018-01-21 01:00","2018","01","21","01:00","-17.6","","-22.9","","63","","","","25","","26","","24.1","","98.71","","","","-29","","Snow"
"-60.42","53.32","GOOSE A","8501900","2018-01-21 02:00","2018","01","21","02:00","-17.3","","-22.6","","63","","","","25","","26","","24.1","","98.73","","","","-28","","Snow"
"-60.42","53.32","GOOSE A","8501900","2018-01-21 03:00","2018","01","21","03:00","-17.8","","-24.1","","58","","","","26","","39","","24.1","","98.74","","","","-31","","Mostly Cloudy"
"-60.42","53.32","GOOSE A","8501900","2018-01-21 04:00","2018","01","21","04:00","-18.3","","-24.7","","57","","","","27","","26","","24.1","","98.80","","","","-30","","Mostly Cloudy"
"-60.42","53.32","GOOSE A","8501900","2018-01-21 05:00","2018","01","21","05:00","-19.9","","-26.7","","55","","","","26","","30","","24.1","","98.90","","","","-32","","Mostly Cloudy"
"-60.42","53.32","GOOSE A","8501900","2018-01-21 06:00","2018","01","21","06:00","-20.7","","-27.3","","55","","","","26","","35","","24.1","","98.97","","","","-34","","Cloudy"
"-60.42","53.32","GOOSE A","8501900","2018-01-21 07:00","2018","01","21","07:00","-20.7","","-27.5","","54","","","","26","","30","","24.1","","99.03","","","","-33","","Cloudy"
"-60.42","53.32","GOOSE A","8501900","2018-01-21 08:00","2018","01","21","08:00","-21.1","","-27.9","","54","","","","25","","30","","24.1","","99.05","","","","-34","","Mostly Cloudy"
"-60.42","53.32","GOOSE A","8501900","2018-01-21 09:00","2018","01","21","09:00","-20.8","","-27.5","","55","","","","26","","30","","24.1","","99.10","","","","-34","","Mainly Clear"
"-60.42","53.32","GOOSE A","8501900","2018-01-21 10:00","2018","01","21","10:00","-19.2","","-26.0","","55","","","","26","","33","","24.1","","99.13","","","","-32","","Mostly Cloudy"
"-60.42","53.32","GOOSE A","8501900","2018-01-21 11:00","2018","01","21","11:00","-18.3","","-25.0","","56","","","","26","","32","","24.1","","99.16","","","","-31","","Mostly Cloudy"
"-60.42","53.32","GOOSE A","8501900","2018-01-21 12:00","2018","01","21","12:00","-16.9","","-23.9","","55","","","","27","","28","","24.1","","99.19","","","","-28","","Mostly Cloudy"
"-60.42","53.32","GOOSE A","8501900","2018-01-21 13:00","2018","01","21","13:00","-16.6","","-22.7","","59","","","","26","","28","","4.8","","99.22","","","","-28","","Snow Showers"
"-60.42","53.32","GOOSE A","8501900","2018-01-21 14:00","2018","01","21","14:00","-16.0","","-21.5","","63","","","","27","","32","","6.4","","99.29","","","","-28","","Snow Showers"
"-60.42","53.32","GOOSE A","8501900","2018-01-21 15:00","2018","01","21","15:00","-15.7","","-20.6","","66","","","","27","","26","","3.2","","99.40","","","","-26","","Snow Showers"
"-60.42","53.32","GOOSE A","8501900","2018-01-21 16:00","2018","01","21","16:00","-15.2","","-20.0","","67","","","","27","","30","","3.2","","99.49","","","","-26","","Snow Showers"
"-60.42","53.32","GOOSE A","8501900","2018-01-21 17:00","2018","01","21","17:00","-14.9","","-20.0","","65","","","","27","","35","","12.9","","99.61","","","","-27","","Snow Showers"
"-60.42","53.32","GOOSE A","8501900","2018-01-21 18:00","2018","01","21","18:00","-15.0","","-20.4","","63","","","","26","","33","","24.1","","99.69","","","","-27","","Mostly Cloudy"
"-60.42","53.32","GOOSE A","8501900","2018-01-21 19:00","2018","01","21","19:00","-15.3","","-21.2","","61","","","","26","","30","","24.1","","99.77","","","","-26","","Mostly Cloudy"
"-60.42","53.32","GOOSE A","8501900","2018-01-21 20:00","2018","01","21","20:00","-15.5","","-22.0","","57","","","","26","","26","","24.1","","99.83","","","","-26","","Mostly Cloudy"
"-60.42","53.32","GOOSE A","8501900","2018-01-21 21:00","2018","01","21","21:00","-16.4","","-22.5","","59","","","","25","","28","","24.1","","99.88","","","","-28","","Mostly Cloudy"
"-60.42","53.32","GOOSE A","8501900","2018-01-21 22:00","2018","01","21","22:00","-16.9","","-22.9","","60","","","","25","","35","","24.1","","99.89","","","","-29","","Mostly Cloudy"
"-60.42","53.32","GOOSE A","8501900","2018-01-21 23:00","2018","01","21","23:00","-17.3","","-23.5","","58","","","","26","","32","","24.1","","99.93","","","","-29","","Mainly Clear"
"-60.42","53.32","GOOSE A","8501900","2018-01-22 00:00","2018","01","22","00:00","-17.0","","-23.9","","55","","","","26","","19","","24.1","","99.97","","","","-26","","Mainly Clear"
"-60.42","53.32","GOOSE A","8501900","2018-01-22 01:00","2018","01","22","01:00","-17.4","","-24.2","","55","","","","26","","20","","24.1","","100.04","","","","-27","","Mostly Cloudy"
"-60.42","53.32","GOOSE A","8501900","2018-01-22 02:00","2018","01","22","02:00","-17.4","","-24.1","","56","","","","26","","24","","24.1","","100.10","","","","-28","","Mostly Cloudy"
"-60.42","53.32","GOOSE A","8501900","2018-01-22 03:00","2018","01","22","03:00","-17.4","","-24.4","","54","","","","27","","19","","24.1","","100.18","","","","-27","","Mainly Clear"
"-60.42","53.32","GOOSE A","8501900","2018-01-22 04:00","2018","01","22","04:00","-18.2","","-25.2","","54","","","","26","","19","","24.1","","100.23","","","","-28","","Mainly Clear"
"-60.42","53.32","GOOSE A","8501900","2018-01-22 05:00","2018","01","22","05:00","-19.1","","-25.9","","55","","","","25","","28","","24.1","","100.27","","","","-31","","Mainly Clear"
"-60.42","53.32","GOOSE A","8501900","2018-01-22 06:00","2018","01","22","06:00","-19.5","","-26.5","","54","","","","26","","33","","24.1","","100.33","","","","-32","","Clear"
"-60.42","53.32","GOOSE A","8501900","2018-01-22 07:00","2018","01","22","07:00","-20.2","","-27.2","","54","","","","24","","22","","24.1","","100.42","","","","-31","","Mainly Clear"
"-60.42","53.32","GOOSE A","8501900","2018-01-22 08:00","2018","01","22","08:00","-20.2","","-27.2","","54","","","","26","","30","","24.1","","100.50","","","","-33","","Clear"
"-60.42","53.32","GOOSE A","8501900","2018-01-22 09:00","2018","01","22","09:00","-19.6","","-26.8","","53","","","","27","","32","","24.1","","100.58","","","","-32","","Clear"
"-60.42","53.32","GOOSE A","8501900","2018-01-22 10:00","2018","01","22","10:00","-18.8","","-26.5","","51","","","","26","","33","","24.1","","100.67","","","","-32","","Clear"
"-60.42","53.32","GOOSE A","8501900","2018-01-22 11:00","2018","01","22","11:00","-17.8","","-25.8","","50","","","","26","","37","","24.1","","100.74","","","","-31","","Clear"
"-60.42","53.32","GOOSE A","8501900","2018-01-22 12:00","2018","01","22","12:00","-16.3","","-24.7","","48","","","","27","","33","","24.1","","100.72","","","","-28","","Clear"
"-60.42","53.32","GOOSE A","8501900","2018-01-22 13:00","2018","01","22","13:00","-15.0","","-23.5","","48","","","","26","","32","","24.1","","100.73","","","","-26","","Clear"
"-60.42","53.32","GOOSE A","8501900","2018-01-22 14:00","2018","01","22","14:00","-14.0","","-23.3","","45","","","","28","","35","","24.1","","100.76","","","","-25","","Clear"
"-60.42","53.32","GOOSE A","8501900","2018-01-22 15:00","2018","01","22","15:00","-14.1","","-23.5","","45","","","","28","","28","","24.1","","100.84","","","","-25","","Clear"
"-60.42","53.32","GOOSE A","8501900","2018-01-22 16:00","2018","01","22","16:00","-14.6","","-23.5","","47","","","","28","","32","","24.1","","100.89","","","","-26","","Mainly Clear"
"-60.42","53.32","GOOSE A","8501900","2018-01-22 17:00","2018","01","22","17:00","-15.5","","-24.2","","47","","","","27","","20","","24.1","","100.99","","","","-25","","Mainly Clear"
"-60.42","53.32","GOOSE A","8501900","2018-01-22 18:00","2018","01","22","18:00","-15.9","","-24.6","","47","","","","27","","35","","24.1","","101.07","","","","-28","","Mainly Clear"
"-60.42","53.32","GOOSE A","8501900","2018-01-22 19:00","2018","01","22","19:00","-15.6","","-24.3","","47","","","","28","","37","","24.1","","101.12","","","","-28","","Mostly Cloudy"
"-60.42","53.32","GOOSE A","8501900","2018-01-22 20:00","2018","01","22","20:00","-15.3","","-23.9","","48","","","","27","","37","","24.1","","101.18","","","","-27","","Cloudy"
"-60.42","53.32","GOOSE A","8501900","2018-01-22 21:00","2018","01","22","21:00","-15.6","","-24.2","","48","","","","27","","37","","24.1","","101.26","","","","-28","","Mostly Cloudy"
"-60.42","53.32","GOOSE A","8501900","2018-01-22 22:00","2018","01","22","22:00","-16.4","","-24.8","","48","","","","27","","33","","24.1","","101.33","","","","-28","","Mainly Clear"
"-60.42","53.32","GOOSE A","8501900","2018-01-22 23:00","2018","01","22","23:00","-17.0","","-25.2","","49","","","","27","","28","","24.1","","101.41","","","","-28","","Mainly Clear"
"-60.42","53.32","GOOSE A","8501900","2018-01-23 00:00","2018","01","23","00:00","-17.7","","-25.8","","49","","","","26","","33","","24.1","","101.49","","","","-30","","Clear"
"-60.42","53.32","GOOSE A","8501900","2018-01-23 01:00","2018","01","23","01:00","-18.4","","-26.2","","50","","","","27","","35","","24.1","","101.55","","","","-31","","Clear"
"-60.42","53.32","GOOSE A","8501900","2018-01-23 02:00","2018","01","23","02:00","-19.3","","-27.1","","50","","","","25","","26","","24.1","","101.64","","","","-31","","Clear"
"-60.42","53.32","GOOSE A","8501900","2018-01-23 03:00","2018","01","23","03:00","-19.8","","-27.4","","51","","","","25","","41","","24.1","","101.69","","","","-34","","Clear"
"-60.42","53.32","GOOSE A","8501900","2018-01-23 04:00","2018","01","23","04:00","-19.8","","-27.5","","50","","","","26","","35","","24.1","","101.77","","","","-33","","Clear"
"-60.42","53.32","GOOSE A","8501900","2018-01-23 05:00","2018","01","23","05:00","-20.3","","-27.8","","51","","","","25","","30","","24.1","","101.81","","","","-33","","Clear"
"-60.42","53.32","GOOSE A","8501900","2018-01-23 06:00","2018","01","23","06:00","-20.5","","-27.9","","52","","","","26","","37","","24.1","","101.87","","","","-34","","Clear"
"-60.42","53.32","GOOSE A","8501900","2018-01-23 07:00","2018","01","23","07:00","-21.2","","-28.4","","52","","","","25","","37","","24.1","","101.91","","","","-35","","Clear"
"-60.42","53.32","GOOSE A","8501900","2018-01-23 08:00","2018","01","23","08:00","-21.4","","-28.9","","51","","","","26","","41","","24.1","","101.99","","","","-36","","Mainly Clear"
"-60.42","53.32","GOOSE A","8501900","2018-01-23 09:00","2018","01","23","09:00","-21.2","","-28.6","","51","","","","25","","43","","24.1","","102.05","","","","-36","","Mostly Cloudy"
"-60.42","53.32","GOOSE A","8501900","2018-01-23 10:00","2018","01","23","10:00","-21.0","","-28.2","","52","","","","25","","44","","24.1","","102.04","","","","-36","","Mostly Cloudy"
"-60.42","53.32","GOOSE A","8501900","2018-01-23 11:00","2018","01","23","11:00","-20.3","","-28.1","","50","","","","24","","35","","24.1","","102.04","","","","-34","","Mainly Clear"
"-60.42","53.32","GOOSE A","8501900","2018-01-23 12:00","2018","01","23","12:00","-19.5","","-27.5","","49","","","","25","","32","","24.1","","102.01","","","","-32","","Mainly Clear"
"-60.42","53.32","GOOSE A","8501900","2018-01-23 13:00","2018","01","23","13:00","-18.3","","-26.4","","49","","","","25","","32","","24.1","","101.95","","","","-31","","Mostly Cloudy"
"-60.42","53.32","GOOSE A","8501900","2018-01-23 14:00","2018","01","23","14:00","-17.2","","-25.7","","48","","","","24","","33","","24.1","","101.95","","","","-29","","Mainly Clear"
"-60.42","53.32","GOOSE A","8501900","2018-01-23 15:00","2018","01","23","15:00","-16.7","","-25.3","","47","","","","24","","30","","24.1","","101.91","","","","-28","","Mostly Cloudy"
"-60.42","53.32","GOOSE A","8501900","2018-01-23 16:00","2018","01","23","16:00","-16.9","","-24.9","","50","","","","25","","30","","24.1","","101.93","","","","-29","","Mostly Cloudy"
"-60.42","53.32","GOOSE A","8501900","2018-01-23 17:00","2018","01","23","17:00","-17.0","","-24.6","","52","","","","27","","30","","24.1","","101.89","","","","-29","","Mainly Clear"
"-60.42","53.32","GOOSE A","8501900","2018-01-23 18:00","2018","01","23","18:00","-16.8","","-24.3","","52","","","","26","","24","","24.1","","101.87","","","","-27","","Mostly Cloudy"
"-60.42","53.32","GOOSE A","8501900","2018-01-23 19:00","2018","01","23","19:00","-18.0","","-25.1","","54","","","","23","","13","","24.1","","101.83","","","","-26","","Mainly Clear"
"-60.42","53.32","GOOSE A","8501900","2018-01-23 20:00","2018","01","23","20:00","-18.1","","-25.1","","54","","","","22","","7","","24.1","","101.81","","","","-23","","Cloudy"
"-60.42","53.32","GOOSE A","8501900","2018-01-23 21:00","2018","01","23","21:00","-17.8","","-25.0","","53","","","","23","","11","","24.1","","101.74","","","","-25","","Cloudy"
"-60.42","53.32","GOOSE A","8501900","2018-01-23 22:00","2018","01","23","22:00","-17.8","","-24.3","","57","","","","27","","4","","24.1","","101.67","","","","-21","","Cloudy"
"-60.42","53.32","GOOSE A","8501900","2018-01-23 23:00","2018","01","23","23:00","-17.7","","-24.3","","56","","","","","","0","","24.1","","101.57","","","","","","Cloudy"
"-60.42","53.32","GOOSE A","8501900","2018-01-24 00:00","2018","01","24","00:00","-17.6","","-24.6","","54","","","","","","0","","24.1","","101.39","","","","","","Cloudy"
"-60.42","53.32","GOOSE A","8501900","2018-01-24 01:00","2018","01","24","01:00","-17.9","","-23.1","","64","","","","3","","7","","4.0","","101.17","","","","-23","","Snow"
"-60.42","53.32","GOOSE A","8501900","2018-01-24 02:00","2018","01","24","02:00","-17.8","","-22.6","","66","","","","5","","13","","3.2","","100.98","","","","-26","","Snow"
"-60.42","53.32","GOOSE A","8501900","2018-01-24 03:00","2018","01","24","03:00","-17.8","","-22.6","","66","","","","5","","20","","2.0","","100.79","","","","-28","","Snow"
"-60.42","53.32","GOOSE A","8501900","2018-01-24 04:00","2018","01","24","04:00","-17.8","","-22.6","","66","","","","6","","19","","2.8","","100.60","","","","-27","","Snow"
"-60.42","53.32","GOOSE A","8501900","2018-01-24 05:00","2018","01","24","05:00","-17.5","","-22.1","","67","","","","4","","19","","2.0","","100.33","","","","-27","","Snow"
"-60.42","53.32","GOOSE A","8501900","2018-01-24 06:00","2018","01","24","06:00","-16.8","","-21.4","","67","","","","7","","22","","2.8","","100.07","","","","-27","","Snow"
"-60.42","53.32","GOOSE A","8501900","2018-01-24 07:00","2018","01","24","07:00","-15.9","","-20.3","","69","","","","6","","19","","1.2","","99.73","","","","-25","","Snow"
"-60.42","53.32","GOOSE A","8501900","2018-01-24 08:00","2018","01","24","08:00","-14.1","","-15.7","","88","","","","4","","30","","0.8","","99.49","","","","-25","","Moderate Snow"
"-60.42","53.32","GOOSE A","8501900","2018-01-24 09:00","2018","01","24","09:00","-13.0","","-16.4","","76","","","","4","","37","","1.2","","99.16","","","","-24","","Snow,Blowing Snow"
"-60.42","53.32","GOOSE A","8501900","2018-01-24 10:00","2018","01","24","10:00","-11.0","","-14.2","","77","","","","6","","41","","0.8","","98.87","","","","-22","","Snow,Blowing Snow"
"-60.42","53.32","GOOSE A","8501900","2018-01-24 11:00","2018","01","24","11:00","-9.8","","-12.9","","78","","","","5","","39","","0.4","","98.55","","","","-20","","Snow,Blowing Snow"
"-60.42","53.32","GOOSE A","8501900","2018-01-24 12:00","2018","01","24","12:00","-8.5","","-11.4","","80","","","","5","","41","","0.6","","98.27","","","","-19","","Snow,Blowing Snow"
"-60.42","53.32","GOOSE A","8501900","2018-01-24 13:00","2018","01","24","13:00","-7.3","","-10.1","","80","","","","5","","37","","0.6","","97.93","","","","-17","","Snow,Blowing Snow"
"-60.42","53.32","GOOSE A","8501900","2018-01-24 14:00","2018","01","24","14:00","-6.5","","-9.6","","79","","","","5","","32","","1.6","","97.71","","","","-15","","Snow"
"-60.42","53.32","GOOSE A","8501900","2018-01-24 15:00","2018","01","24","15:00","-5.8","","-8.7","","80","","","","4","","32","","1.2","","97.52","","","","-14","","Snow"
"-60.42","53.32","GOOSE A","8501900","2018-01-24 16:00","2018","01","24","16:00","-5.1","","-8.0","","80","","","","4","","20","","2.0","","97.45","","","","-12","","Snow"
"-60.42","53.32","GOOSE A","8501900","2018-01-24 17:00","2018","01","24","17:00","-4.6","","-7.4","","81","","","","3","","19","","1.6","","97.36","","","","-11","","Snow"
"-60.42","53.32","GOOSE A","8501900","2018-01-24 18:00","2018","01","24","18:00","-4.3","","-7.1","","81","","","","1","","15","","3.2","","97.32","","","","-10","","Snow"
"-60.42","53.32","GOOSE A","8501900","2018-01-24 19:00","2018","01","24","19:00","-5.3","","-8.0","","81","","","","29","","13","","1.6","","97.31","","","","-10","","Snow"
"-60.42","53.32","GOOSE A","8501900","2018-01-24 20:00","2018","01","24","20:00","-5.2","","-8.1","","80","","","","29","","22","","2.4","","97.33","","","","-12","","Snow"
"-60.42","53.32","GOOSE A","8501900","2018-01-24 21:00","2018","01","24","21:00","-5.9","","-9.1","","78","","","","25","","19","","9.7","","97.35","","","","-13","","Snow"
"-60.42","53.32","GOOSE A","8501900","2018-01-24 22:00","2018","01","24","22:00","-5.9","","-9.4","","76","","","","25","","22","","24.1","","97.36","","","","-13","","Snow"
"-60.42","53.32","GOOSE A","8501900","2018-01-24 23:00","2018","01","24","23:00","-5.7","","-8.3","","82","","","","25","","28","","6.4","","97.38","","","","-14","","Snow"
"-60.42","53.32","GOOSE A","8501900","2018-01-25 00:00","2018","01","25","00:00","-5.8","","-8.9","","79","","","","27","","17","","6.4","","97.38","","","","-12","","Snow"
"-60.42","53.32","GOOSE A","8501900","2018-01-25 01:00","2018","01","25","01:00","-4.7","","-8.0","","78","","","","32","","26","","6.4","","97.41","","","","-12","","Snow"
"-60.42","53.32","GOOSE A","8501900","2018-01-25 02:00","2018","01","25","02:00","-4.9","","-8.9","","73","","","","34","","35","","8.0","","97.46","","","","-13","","Snow"
"-60.42","53.32","GOOSE A","8501900","2018-01-25 03:00","2018","01","25","03:00","-5.3","","-9.2","","74","","","","33","","22","","4.8","","97.59","","","","-12","","Snow"
"-60.42","53.32","GOOSE A","8501900","2018-01-25 04:00","2018","01","25","04:00","-5.5","","-9.8","","72","","","","32","","15","","4.8","","97.74","","","","-11","","Snow"
"-60.42","53.32","GOOSE A","8501900","2018-01-25 05:00","2018","01","25","05:00","-5.6","","-9.5","","74","","","","34","","30","","1.6","","97.85","","","","-14","","Snow"
"-60.42","53.32","GOOSE A","8501900","2018-01-25 06:00","2018","01","25","06:00","-5.5","","-10.3","","69","","","","33","","37","","19.3","","98.00","","","","-14","","Snow"
"-60.42","53.32","GOOSE A","8501900","2018-01-25 07:00","2018","01","25","07:00","-5.3","","-10.2","","68","","","","31","","32","","24.1","","98.18","","","","-14","","Snow"
"-60.42","53.32","GOOSE A","8501900","2018-01-25 08:00","2018","01","25","08:00","-5.6","","-10.5","","68","","","","31","","32","","16.1","","98.37","","","","-14","","Snow"
"-60.42","53.32","GOOSE A","8501900","2018-01-25 09:00","2018","01","25","09:00","-6.1","","-11.7","","65","","","","32","","30","","24.1","","98.57","","","","-14","","Mostly Cloudy"
"-60.42","53.32","GOOSE A","8501900","2018-01-25 10:00","2018","01","25","10:00","-7.5","","-13.4","","63","","","","30","","32","","24.1","","98.79","","","","-17","","Mostly Cloudy"
"-60.42","53.32","GOOSE A","8501900","2018-01-25 11:00","2018","01","25","11:00","-8.3","","-14.4","","61","","","","29","","35","","24.1","","98.98","","","","-18","","Mostly Cloudy"
"-60.42","53.32","GOOSE A","8501900","2018-01-25 12:00","2018","01","25","12:00","-7.8","","-14.1","","61","","","","28","","35","","24.1","","99.12","","","","-17","","Mostly Cloudy"
"-60.42","53.32","GOOSE A","8501900","2018-01-25 13:00","2018","01","25","13:00","-7.3","","-13.9","","59","","","","28","","20","","24.1","","99.22","","","","-14","","Mostly Cloudy"
"-60.42","53.32","GOOSE A","8501900","2018-01-25 14:00","2018","01","25","14:00","-7.7","","-14.4","","59","","","","29","","28","","24.1","","99.32","","","","-16","","Mostly Cloudy"
"-60.42","53.32","GOOSE A","8501900","2018-01-25 15:00","2018","01","25","15:00","-9.0","","-15.1","","61","","","","28","","28","","24.1","","99.48","","","","-18","","Mostly Cloudy"
"-60.42","53.32","GOOSE A","8501900","2018-01-25 16:00","2018","01","25","16:00","-10.1","","-16.5","","59","","","","27","","32","","24.1","","99.68","","","","-20","","Cloudy"
"-60.42","53.32","GOOSE A","8501900","2018-01-25 17:00","2018","01","25","17:00","-11.1","","-17.3","","60","","","","27","","30","","24.1","","99.82","","","","-21","","Cloudy"
"-60.42","53.32","GOOSE A","8501900","2018-01-25 18:00","2018","01","25","18:00","-12.6","","-18.8","","60","","","","28","","17","","24.1","","99.97","","","","-20","","Cloudy"
"-60.42","53.32","GOOSE A","8501900","2018-01-25 19:00","2018","01","25","19:00","-13.5","","-19.9","","59","","","","29","","26","","24.1","","100.04","","","","-23","","Cloudy"
"-60.42","53.32","GOOSE A","8501900","2018-01-25 20:00","2018","01","25","20:00","-14.2","","-20.4","","59","","","","28","","20","","24.1","","100.15","","","","-23","","Cloudy"
"-60.42","53.32","GOOSE A","8501900","2018-01-25 21:00","2018","01","25","21:00","-14.7","","-19.5","","67","","","","27","","22","","9.7","","100.21","","","","-24","","Snow Showers"
"-60.42","53.32","GOOSE A","8501900","2018-01-25 22:00","2018","01","25","22:00","-15.2","","-19.6","","69","","","","27","","24","","12.9","","100.29","","","","-25","","Snow Showers"
"-60.42","53.32","GOOSE A","8501900","2018-01-25 23:00","2018","01","25","23:00","-15.6","","-21.1","","63","","","","28","","22","","24.1","","100.34","","","","-25","","Mostly Cloudy"
"-60.42","53.32","GOOSE A","8501900","2018-01-26 00:00","2018","01","26","00:00","-16.0","","-21.9","","60","","","","28","","22","","24.1","","100.42","","","","-26","","Mostly Cloudy"
"-60.42","53.32","GOOSE A","8501900","2018-01-26 01:00","2018","01","26","01:00","-16.5","","-22.4","","60","","","","27","","24","","24.1","","100.48","","","","-27","","Cloudy"
"-60.42","53.32","GOOSE A","8501900","2018-01-26 02:00","2018","01","26","02:00","-16.9","","-22.6","","61","","","","27","","17","","24.1","","100.58","","","","-26","","Mostly Cloudy"
"-60.42","53.32","GOOSE A","8501900","2018-01-26 03:00","2018","01","26","03:00","-17.4","","-23.5","","59","","","","28","","19","","24.1","","100.66","","","","-27","","Mainly Clear"
"-60.42","53.32","GOOSE A","8501900","2018-01-26 04:00","2018","01","26","04:00","-18.0","","-24.1","","59","","","","28","","9","","24.1","","100.78","","","","-24","","Mostly Cloudy"
"-60.42","53.32","GOOSE A","8501900","2018-01-26 05:00","2018","01","26","05:00","-18.5","","-26.1","","51","","","","29","","13","","24.1","","100.91","","","","-27","","Mostly Cloudy"
"-60.42","53.32","GOOSE A","8501900","2018-01-26 06:00","2018","01","26","06:00","-19.5","","-27.0","","51","","","","31","","15","","24.1","","101.05","","","","-28","","Mostly Cloudy"
"-60.42","53.32","GOOSE A","8501900","2018-01-26 07:00","2018","01","26","07:00","-20.7","","-28.2","","51","","","","31","","9","","24.1","","101.17","","","","-28","","Mostly Cloudy"
"-60.42","53.32","GOOSE A","8501900","2018-01-26 08:00","2018","01","26","08:00","-21.5","","-29.4","","49","","","","31","","9","","24.1","","101.34","","","","-29","","Mostly Cloudy"
"-60.42","53.32","GOOSE A","8501900","2018-01-26 09:00","2018","01","26","09:00","-21.1","","-30.1","","44","","","","31","","17","","24.1","","101.43","","","","-31","","Mostly Cloudy"
"-60.42","53.32","GOOSE A","8501900","2018-01-26 10:00","2018","01","26","10:00","-21.0","","-29.1","","48","","","","28","","17","","24.1","","101.54","","","","-31","","Mostly Cloudy"
"-60.42","53.32","GOOSE A","8501900","2018-01-26 11:00","2018","01","26","11:00","-20.8","","-29.0","","48","","","","27","","22","","24.1","","101.62","","","","-32","","Mainly Clear"
"-60.42","53.32","GOOSE A","8501900","2018-01-26 12:00","2018","01","26","12:00","-20.9","","-29.0","","48","","","","25","","24","","24.1","","101.64","","","","-33","","Mainly Clear"
"-60.42","53.32","GOOSE A","8501900","2018-01-26 13:00","2018","01","26","13:00","-20.2","","-28.3","","48","","","","26","","32","","24.1","","101.64","","","","-33","","Mainly Clear"
"-60.42","53.32","GOOSE A","8501900","2018-01-26 14:00","2018","01","26","14:00","-19.0","","-28.2","","44","","","","27","","35","","24.1","","101.68","","","","-32","","Mainly Clear"
"-60.42","53.32","GOOSE A","8501900","2018-01-26 15:00","2018","01","26","15:00","-19.6","","-28.0","","47","","","","25","","28","","24.1","","101.72","","","","-32","","Mainly Clear"
"-60.42","53.32","GOOSE A","8501900","2018-01-26 16:00","2018","01","26","16:00","-20.2","","-28.4","","48","","","","26","","28","","24.1","","101.82","","","","-32","","Clear"
"-60.42","53.32","GOOSE A","8501900","2018-01-26 17:00","2018","01","26","17:00","-21.0","","-29.3","","47","","","","27","","24","","24.1","","101.93","","","","-33","","Clear"
"-60.42","53.32","GOOSE A","8501900","2018-01-26 18:00","2018","01","26","18:00","-22.1","","-30.2","","48","","","","27","","28","","24.1","","102.06","","","","-35","","Clear"
"-60.42","53.32","GOOSE A","8501900","2018-01-26 19:00","2018","01","26","19:00","-22.8","","-30.8","","48","","","","27","","24","","24.1","","102.16","","","","-35","","Clear"
"-60.42","53.32","GOOSE A","8501900","2018-01-26 20:00","2018","01","26","20:00","-23.6","","-31.2","","50","","","","26","","22","","24.1","","102.22","","","","-36","","Clear"
"-60.42","53.32","GOOSE A","8501900","2018-01-26 21:00","2018","01","26","21:00","-24.2","","-31.7","","50","","","","26","","30","","24.1","","102.23","","","","-38","","Clear"
"-60.42","53.32","GOOSE A","8501900","2018-01-26 22:00","2018","01","26","22:00","-24.7","","-32.1","","50","","","","24","","28","","24.1","","102.23","","","","-38","","Clear"
"-60.42","53.32","GOOSE A","8501900","2018-01-26 23:00","2018","01","26","23:00","-25.0","","-32.5","","50","","","","25","","32","","24.1","","102.24","","","","-39","","Clear"
"-60.42","53.32","GOOSE A","8501900","2018-01-27 00:00","2018","01","27","00:00","-25.3","","-32.5","","51","","","","26","","35","","24.1","","102.23","","","","-40","","Clear"
"-60.42","53.32","GOOSE A","8501900","2018-01-27 01:00","2018","01","27","01:00","-24.9","","-32.0","","52","","","","25","","30","","24.1","","102.24","","","","-39","","Clear"
"-60.42","53.32","GOOSE A","8501900","2018-01-27 02:00","2018","01","27","02:00","-25.0","","-31.9","","53","","","","25","","32","","24.1","","102.25","","","","-39","","Clear"
"-60.42","53.32","GOOSE A","8501900","2018-01-27 03:00","2018","01","27","03:00","-24.6","","-31.5","","53","","","","26","","30","","24.1","","102.27","","","","-39","","Clear"
"-60.42","53.32","GOOSE A","8501900","2018-01-27 04:00","2018","01","27","04:00","-24.6","","-31.4","","53","","","","26","","17","","24.1","","102.31","","","","-35","","Clear"
"-60.42","53.32","GOOSE A","8501900","2018-01-27 05:00","2018","01","27","05:00","-24.1","","-31.3","","51","","","","27","","20","","24.1","","102.31","","","","-36","","Clear"
"-60.42","53.32","GOOSE A","8501900","2018-01-27 06:00","2018","01","27","06:00","-24.4","","-31.0","","54","","","","27","","6","","24.1","","102.32","","","","-30","","Clear"
"-60.42","53.32","GOOSE A","8501900","2018-01-27 07:00","2018","01","27","07:00","-25.8","","-32.1","","55","","","","27","","17","","24.1","","102.29","","","","-37","","Clear"
"-60.42","53.32","GOOSE A","8501900","2018-01-27 08:00","2018","01","27","08:00","-26.5","","-32.2","","59","","","","","","0","","24.1","","102.30","","","","","","Mainly Clear"
"-60.42","53.32","GOOSE A","8501900","2018-01-27 09:00","2018","01","27","09:00","-24.9","","-31.3","","55","","","","25","","11","","24.1","","102.27","","","","-34","","Mainly Clear"
"-60.42","53.32","GOOSE A","8501900","2018-01-27 10:00","2018","01","27","10:00","-23.6","","-30.2","","55","","","","22","","11","","24.1","","102.21","","","","-32","","Mainly Clear"
"-60.42","53.32","GOOSE A","8501900","2018-01-27 11:00","2018","01","27","11:00","-22.2","","-29.2","","53","","","","22","","7","","24.1","","102.09","","","","-28","","Mainly Clear"
"-60.42","53.32","GOOSE A","8501900","2018-01-27 12:00","2018","01","27","12:00","-20.7","","-28.0","","52","","","","24","","7","","24.1","","101.95","","","","-26","","Mostly Cloudy"
"-60.42","53.32","GOOSE A","8501900","2018-01-27 13:00","2018","01","27","13:00","-19.6","","-27.0","","52","","","","","","0","","24.1","","101.79","","","","","","Mostly Cloudy"
"-60.42","53.32","GOOSE A","8501900","2018-01-27 14:00","2018","01","27","14:00","-19.1","","-26.4","","52","","","","9","","7","","24.1","","101.55","","","","-25","","Mostly Cloudy"
"-60.42","53.32","GOOSE A","8501900","2018-01-27 15:00","2018","01","27","15:00","-18.8","","-25.6","","55","","","","7","","9","","24.1","","101.39","","","","-25","","Mostly Cloudy"
"-60.42","53.32","GOOSE A","8501900","2018-01-27 16:00","2018","01","27","16:00","-18.9","","-24.7","","60","","","","7","","9","","6.4","","101.31","","","","-25","","Snow"
"-60.42","53.32","GOOSE A","8501900","2018-01-27 17:00","2018","01","27","17:00","-19.1","","-24.0","","65","","","","6","","15","","4.0","","101.09","","","","-28","","Snow"
"-60.42","53.32","GOOSE A","8501900","2018-01-27 18:00","2018","01","27","18:00","-18.8","","-23.5","","66","","","","4","","17","","6.4","","100.88","","","","-28","","Snow"
"-60.42","53.32","GOOSE A","8501900","2018-01-27 19:00","2018","01","27","19:00","-18.4","","-23.0","","67","","","","5","","19","","3.2","","100.71","","","","-28","","Snow"
"-60.42","53.32","GOOSE A","8501900","2018-01-27 20:00","2018","01","27","20:00","-18.5","","-23.1","","67","","","","5","","13","","8.0","","100.59","","","","-27","","Snow"
"-60.42","53.32","GOOSE A","8501900","2018-01-27 21:00","2018","01","27","21:00","-18.2","","-22.9","","67","","","","7","","19","","8.0","","100.47","","","","-28","","Snow"
"-60.42","53.32","GOOSE A","8501900","2018-01-27 22:00","2018","01","27","22:00","-17.8","","-22.3","","68","","","","8","","6","","8.0","","100.32","","","","-22","","Snow"
"-60.42","53.32","GOOSE A","8501900","2018-01-27 23:00","2018","01","27","23:00","-17.5","","-21.9","","68","","","","5","","4","","24.1","","100.19","","","","-21","","Snow"
"-60.42","53.32","GOOSE A","8501900","2018-01-28 00:00","2018","01","28","00:00","-17.6","","-22.1","","68","","","","34","","4","","24.1","","100.10","","","","-21","","Snow"
"-60.42","53.32","GOOSE A","8501900","2018-01-28 01:00","2018","01","28","01:00","-17.2","","-21.8","","67","","","","","","0","","19.3","","100.00","","","","","","Snow"
"-60.42","53.32","GOOSE A","8501900","2018-01-28 02:00","2018","01","28","02:00","-16.6","","-21.0","","69","","","","30","","4","","24.1","","99.94","","","","-20","","Snow"
"-60.42","53.32","GOOSE A","8501900","2018-01-28 03:00","2018","01","28","03:00","-15.9","","-20.2","","69","","","","34","","4","","12.9","","99.82","","","","-19","","Snow"
"-60.42","53.32","GOOSE A","8501900","2018-01-28 04:00","2018","01","28","04:00","-16.0","","-20.3","","69","","","","","","0","","19.3","","99.74","","","","","","Snow"
"-60.42","53.32","GOOSE A","8501900","2018-01-28 05:00","2018","01","28","05:00","-16.5","","-20.9","","69","","","","","","0","","24.1","","99.65","","","","","","Snow"
"-60.42","53.32","GOOSE A","8501900","2018-01-28 06:00","2018","01","28","06:00","-16.1","","-20.5","","69","","","","","","0","","24.1","","99.60","","","","","","Cloudy"
"-60.42","53.32","GOOSE A","8501900","2018-01-28 07:00","2018","01","28","07:00","-15.2","","-19.3","","71","","","","","","0","","12.9","","99.55","","","","","","Snow"
"-60.42","53.32","GOOSE A","8501900","2018-01-28 08:00","2018","01","28","08:00","-14.8","","-18.9","","71","","","","","","0","","19.3","","99.52","","","","","","Snow Showers"
"-60.42","53.32","GOOSE A","8501900","2018-01-28 09:00","2018","01","28","09:00","-15.3","","-19.7","","69","","","","","","0","","19.3","","99.48","","","","","","Mostly Cloudy"
"-60.42","53.32","GOOSE A","8501900","2018-01-28 10:00","2018","01","28","10:00","-13.5","","-17.5","","72","","","","","","0","","19.3","","99.44","","","","","","Snow"
"-60.42","53.32","GOOSE A","8501900","2018-01-28 11:00","2018","01","28","11:00","-12.4","","-16.4","","72","","","","","","0","","24.1","","99.39","","","","","","Mostly Cloudy"
"-60.42","53.32","GOOSE A","8501900","2018-01-28 12:00","2018","01","28","12:00","-10.9","","-15.1","","71","","","","","","0","","24.1","","99.33","","","","","","Mostly Cloudy"
"-60.42","53.32","GOOSE A","8501900","2018-01-28 13:00","2018","01","28","13:00","-10.0","","-13.0","","79","","","","","","0","","24.1","","99.30","","","","","","Mostly Cloudy"
"-60.42","53.32","GOOSE A","8501900","2018-01-28 14:00","2018","01","28","14:00","-6.5","","-10.5","","73","","","","","","0","","24.1","","99.28","","","","","","Snow Showers"
"-60.42","53.32","GOOSE A","8501900","2018-01-28 15:00","2018","01","28","15:00","-5.2","","-9.1","","74","","","","31","","4","","19.3","","99.35","","","","-7","","Snow Showers"
"-60.42","53.32","GOOSE A","8501900","2018-01-28 16:00","2018","01","28","16:00","-2.5","","-6.4","","75","","","","27","","20","","24.1","","99.52","","","","-8","","Snow Showers"
"-60.42","53.32","GOOSE A","8501900","2018-01-28 17:00","2018","01","28","17:00","-2.9","","-7.7","","69","","","","31","","30","","24.1","","99.66","","","","-10","","Mostly Cloudy"
"-60.42","53.32","GOOSE A","8501900","2018-01-28 18:00","2018","01","28","18:00","-7.1","","-13.5","","60","","","","29","","22","","24.1","","99.91","","","","-15","","Mainly Clear"
"-60.42","53.32","GOOSE A","8501900","2018-01-28 19:00","2018","01","28","19:00","-9.9","","-16.9","","57","","","","29","","32","","24.1","","100.13","","","","-20","","Mostly Cloudy"
"-60.42","53.32","GOOSE A","8501900","2018-01-28 20:00","2018","01","28","20:00","-11.6","","-18.5","","57","","","","28","","35","","24.1","","100.31","","","","-22","","Mostly Cloudy"
"-60.42","53.32","GOOSE A","8501900","2018-01-28 21:00","2018","01","28","21:00","-13.5","","-20.4","","56","","","","30","","33","","24.1","","100.51","","","","-25","","Cloudy"
"-60.42","53.32","GOOSE A","8501900","2018-01-28 22:00","2018","01","28","22:00","-14.6","","-21.5","","56","","","","29","","32","","24.1","","100.67","","","","-26","","Mostly Cloudy"
"-60.42","53.32","GOOSE A","8501900","2018-01-28 23:00","2018","01","28","23:00","-15.6","","-22.0","","58","","","","28","","30","","24.1","","100.79","","","","-27","","Mostly Cloudy"
"-60.42","53.32","GOOSE A","8501900","2018-01-29 00:00","2018","01","29","00:00","-16.8","","-23.1","","58","","","","27","","30","","24.1","","100.91","","","","-28","","Mostly Cloudy"
"-60.42","53.32","GOOSE A","8501900","2018-01-29 01:00","2018","01","29","01:00","-17.9","","-23.6","","61","","","","26","","28","","24.1","","100.94","","","","-29","","Mainly Clear"
"-60.42","53.32","GOOSE A","8501900","2018-01-29 02:00","2018","01","29","02:00","-18.4","","-23.9","","62","","","","26","","26","","24.1","","101.03","","","","-30","","Clear"
"-60.42","53.32","GOOSE A","8501900","2018-01-29 03:00","2018","01","29","03:00","-18.6","","-24.8","","58","","","","26","","35","","24.1","","101.12","","","","-32","","Clear"
"-60.42","53.32","GOOSE A","8501900","2018-01-29 04:00","2018","01","29","04:00","-19.2","","-25.3","","58","","","","26","","46","","24.1","","101.15","","","","-34","","Clear"
"-60.42","53.32","GOOSE A","8501900","2018-01-29 05:00","2018","01","29","05:00","-19.5","","-25.8","","57","","","","27","","33","","24.1","","101.26","","","","-32","","Clear"
"-60.42","53.32","GOOSE A","8501900","2018-01-29 06:00","2018","01","29","06:00","-19.8","","-27.7","","49","","","","27","","41","","24.1","","101.34","","","","-34","","Clear"
"-60.42","53.32","GOOSE A","8501900","2018-01-29 07:00","2018","01","29","07:00","-20.2","","-28.1","","49","","","","27","","39","","24.1","","101.50","","","","-34","","Clear"
"-60.42","53.32","GOOSE A","8501900","2018-01-29 08:00","2018","01","29","08:00","-20.7","","-28.8","","48","","","","27","","26","","24.1","","101.62","","","","-33","","Clear"
"-60.42","53.32","GOOSE A","8501900","2018-01-29 09:00","2018","01","29","09:00","-20.6","","-28.6","","49","","","","28","","24","","24.1","","101.74","","","","-32","","Clear"
"-60.42","53.32","GOOSE A","8501900","2018-01-29 10:00","2018","01","29","10:00","-19.8","","-28.3","","47","","","","28","","28","","24.1","","101.81","","","","-32","","Clear"
"-60.42","53.32","GOOSE A","8501900","2018-01-29 11:00","2018","01","29","11:00","-18.8","","-27.7","","45","","","","27","","39","","24.1","","101.90","","","","-32","","Clear"
"-60.42","53.32","GOOSE A","8501900","2018-01-29 12:00","2018","01","29","12:00","-18.1","","-27.4","","44","","","","28","","37","","24.1","","101.93","","","","-31","","Clear"
"-60.42","53.32","GOOSE A","8501900","2018-01-29 13:00","2018","01","29","13:00","-17.2","","-26.9","","43","","","","28","","39","","24.1","","101.95","","","","-30","","Clear"
"-60.42","53.32","GOOSE A","8501900","2018-01-29 14:00","2018","01","29","14:00","-17.3","","-26.9","","43","","","","28","","37","","24.1","","102.02","","","","-30","","Clear"
"-60.42","53.32","GOOSE A","8501900","2018-01-29 15:00","2018","01","29","15:00","-17.2","","-27.3","","41","","","","27","","43","","24.1","","102.12","","","","-31","","Clear"
"-60.42","53.32","GOOSE A","8501900","2018-01-29 16:00","2018","01","29","16:00","-17.5","","-27.9","","40","","","","28","","33","","24.1","","102.21","","","","-30","","Clear"
"-60.42","53.32","GOOSE A","8501900","2018-01-29 17:00","2018","01","29","17:00","-18.5","","-27.3","","46","","","","26","","30","","24.1","","102.31","","","","-31","","Clear"
"-60.42","53.32","GOOSE A","8501900","2018-01-29 18:00","2018","01","29","18:00","-19.0","","-28.0","","45","","","","27","","30","","24.1","","102.39","","","","-31","","Clear"
"-60.42","53.32","GOOSE A","8501900","2018-01-29 19:00","2018","01","29","19:00","-19.3","","-28.1","","46","","","","27","","24","","24.1","","102.49","","","","-31","","Clear"
"-60.42","53.32","GOOSE A","8501900","2018-01-29 20:00","2018","01","29","20:00","-20.5","","-28.3","","50","","","","27","","15","","24.1","","102.57","","","","-30","","Clear"
"-60.42","53.32","GOOSE A","8501900","2018-01-29 21:00","2018","01","29","21:00","-21.2","","-28.7","","51","","","","25","","13","","24.1","","102.58","","","","-30","","Clear"
"-60.42","53.32","GOOSE A","8501900","2018-01-29 22:00","2018","01","29","22:00","-21.5","","-28.8","","52","","","","21","","11","","24.1","","102.62","","","","-29","","Clear"
"-60.42","53.32","GOOSE A","8501900","2018-01-29 23:00","2018","01","29","23:00","-22.3","","-29.6","","51","","","","24","","20","","24.1","","102.64","","","","-33","","Clear"
"-60.42","53.32","GOOSE A","8501900","2018-01-30 00:00","2018","01","30","00:00","-22.0","","-29.1","","53","","","","25","","26","","24.1","","102.73","","","","-34","","Clear"
"-60.42","53.32","GOOSE A","8501900","2018-01-30 01:00","2018","01","30","01:00","-21.8","","-28.7","","54","","","","27","","19","","24.1","","102.74","","","","-32","","Clear"
"-60.42","53.32","GOOSE A","8501900","2018-01-30 02:00","2018","01","30","02:00","-23.2","","-29.8","","55","","","","27","","13","","24.1","","102.73","","","","-32","","Clear"
"-60.42","53.32","GOOSE A","8501900","2018-01-30 03:00","2018","01","30","03:00","-24.8","","-31.1","","56","","","","","","0","","24.1","","102.75","","","","","","Clear"
"-60.42","53.32","GOOSE A","8501900","2018-01-30 04:00","2018","01","30","04:00","-26.0","","-31.9","","58","","","","27","","9","","24.1","","102.79","","","","-34","","Clear"
"-60.42","53.32","GOOSE A","8501900","2018-01-30 05:00","2018","01","30","05:00","-26.0","","-32.3","","55","","","","29","","19","","24.1","","102.78","","","","-38","","Clear"
"-60.42","53.32","GOOSE A","8501900","2018-01-30 06:00","2018","01","30","06:00","-26.1","","-32.5","","55","","","","29","","22","","24.1","","102.82","","","","-39","","Clear"
"-60.42","53.32","GOOSE A","8501900","2018-01-30 07:00","2018","01","30","07:00","-26.3","","-32.5","","56","","","","29","","20","","24.1","","102.86","","","","-38","","Mostly Cloudy"
"-60.42","53.32","GOOSE A","8501900","2018-01-30 08:00","2018","01","30","08:00","-26.9","","-33.4","","54","","","","30","","19","","24.1","","102.83","","","","-39","","Mostly Cloudy"
"-60.42","53.32","GOOSE A","8501900","2018-01-30 09:00","2018","01","30","09:00","-27.2","","-32.9","","58","","","","27","","20","","24.1","","102.79","","","","-40","","Mainly Clear"
"-60.42","53.32","GOOSE A","8501900","2018-01-30 10:00","2018","01","30","10:00","-25.2","","-31.8","","54","","","","26","","7","","24.1","","102.80","","","","-32","","Mainly Clear"
"-60.42","53.32","GOOSE A","8501900","2018-01-30 11:00","2018","01","30","11:00","-22.3","","-29.6","","51","","","","29","","11","","24.1","","102.85","","","","-30","","Mainly Clear"
"-60.42","53.32","GOOSE A","8501900","2018-01-30 12:00","2018","01","30","12:00","-21.5","","-29.3","","49","","","","","","0","","24.1","","102.69","","","","","","Mainly Clear"
"-60.42","53.32","GOOSE A","8501900","2018-01-30 13:00","2018","01","30","13:00","-20.1","","-29.1","","45","","","","","","0","","24.1","","102.57","","","","","","Mostly Cloudy"
"-60.42","53.32","GOOSE A","8501900","2018-01-30 14:00","2018","01","30","14:00","-19.0","","-29.0","","41","","","","","","0","","24.1","","102.46","","","","","","Mostly Cloudy"
"-60.42","53.32","GOOSE A","8501900","2018-01-30 15:00","2018","01","30","15:00","-20.9","","-29.6","","46","","","","13","","11","","24.1","","102.43","","","","-29","","Mostly Cloudy"
"-60.42","53.32","GOOSE A","8501900","2018-01-30 16:00","2018","01","30","16:00","-21.3","","-29.5","","48","","","","","","0","","24.1","","102.38","","","","","","Mostly Cloudy"
"-60.42","53.32","GOOSE A","8501900","2018-01-30 17:00","2018","01","30","17:00","-22.8","","-29.9","","52","","","","","","0","","24.1","","102.37","","","","","","Mostly Cloudy"
"-60.42","53.32","GOOSE A","8501900","2018-01-30 18:00","2018","01","30","18:00","-22.9","","-29.8","","53","","","","4","","4","","24.1","","102.29","","","","-27","","Mostly Cloudy"
"-60.42","53.32","GOOSE A","8501900","2018-01-30 19:00","2018","01","30","19:00","-22.3","","-29.6","","51","","","","","","0","","24.1","","102.20","","","","","","Cloudy"
"-60.42","53.32","GOOSE A","8501900","2018-01-30 20:00","2018","01","30","20:00","-22.3","","-29.7","","51","","","","","","0","","24.1","","102.14","","","","","","Cloudy"
"-60.42","53.32","GOOSE A","8501900","2018-01-30 21:00","2018","01","30","21:00","-22.6","","-29.8","","52","","","","","","0","","24.1","","102.07","","","","","","Cloudy"
"-60.42","53.32","GOOSE A","8501900","2018-01-30 22:00","2018","01","30","22:00","-22.8","","-29.4","","55","","","","","","0","","24.1","","101.94","","","","","","Cloudy"
"-60.42","53.32","GOOSE A","8501900","2018-01-30 23:00","2018","01","30","23:00","-22.4","","-28.7","","56","","","","","","0","","8.0","","101.86","","","","","","Snow"
"-60.42","53.32","GOOSE A","8501900","2018-01-31 00:00","2018","01","31","00:00","-21.7","","-27.0","","62","","","","","","0","","4.8","","101.69","","","","","","Snow"
"-60.42","53.32","GOOSE A","8501900","2018-01-31 01:00","2018","01","31","01:00","-20.6","","-25.4","","65","","","","2","","11","","3.2","","101.43","","","","-28","","Snow"
"-60.42","53.32","GOOSE A","8501900","2018-01-31 02:00","2018","01","31","02:00","-19.8","","-25.0","","63","","","","35","","17","","12.9","","101.25","","","","-29","","Snow"
"-60.42","53.32","GOOSE A","8501900","2018-01-31 03:00","2018","01","31","03:00","-19.1","","-24.1","","65","","","","1","","13","","6.4","","100.99","","","","-27","","Snow"
"-60.42","53.32","GOOSE A","8501900","2018-01-31 04:00","2018","01","31","04:00","-19.0","","-23.8","","66","","","","36","","11","","4.8","","100.79","","","","-26","","Snow"
"-60.42","53.32","GOOSE A","8501900","2018-01-31 05:00","2018","01","31","05:00","-18.3","","-22.9","","67","","","","36","","13","","1.6","","100.67","","","","-26","","Snow"
"-60.42","53.32","GOOSE A","8501900","2018-01-31 06:00","2018","01","31","06:00","-18.3","","-23.0","","67","","","","32","","15","","1.2","","100.56","","","","-27","","Snow"
"-60.42","53.32","GOOSE A","8501900","2018-01-31 07:00","2018","01","31","07:00","-18.6","","-23.4","","66","","","","35","","20","","0.8","","100.25","","","","-29","","Moderate Snow"
"-60.42","53.32","GOOSE A","8501900","2018-01-31 08:00","2018","01","31","08:00","-17.8","","-22.5","","67","","","","36","","22","","1.6","","100.01","","","","-28","","Snow"
"-60.42","53.32","GOOSE A","8501900","2018-01-31 09:00","2018","01","31","09:00","-17.3","","-22.2","","66","","","","32","","9","","1.2","","99.81","","","","-24","","Snow"
"-60.42","53.32","GOOSE A","8501900","2018-01-31 10:00","2018","01","31","10:00","-16.0","","-20.3","","69","","","","1","","22","","0.8","","99.33","","","","-26","","Moderate Snow"
"-60.42","53.32","GOOSE A","8501900","2018-01-31 11:00","2018","01","31","11:00","-15.3","","-19.4","","71","","","","34","","32","","0.6","","99.24","","","","-27","","Moderate Snow"
"-60.42","53.32","GOOSE A","8501900","2018-01-31 12:00","2018","01","31","12:00","-14.6","","-21.1","","58","","","","33","","28","","0.4","","99.05","","","","-25","","Heavy Snow"
"-60.42","53.32","GOOSE A","8501900","2018-01-31 13:00","2018","01","31","13:00","-14.3","","-17.7","","75","","","","34","","22","","0.6","","98.85","","","","-24","","Moderate Snow"
"-60.42","53.32","GOOSE A","8501900","2018-01-31 14:00","2018","01","31","14:00","-13.6","","-16.9","","76","","","","34","","20","","1.6","","98.75","","","","-22","","Snow"
"-60.42","53.32","GOOSE A","8501900","2018-01-31 15:00","2018","01","31","15:00","-12.7","","-16.9","","71","","","","34","","24","","0.8","","98.73","","","","-22","","Moderate Snow"
"-60.42","53.32","GOOSE A","8501900","2018-01-31 16:00","2018","01","31","16:00","-12.2","","-16.0","","73","","","","32","","24","","2.0","","98.81","","","","-21","","Snow"
"-60.42","53.32","GOOSE A","8501900","2018-01-31 17:00","2018","01","31","17:00","-11.6","","-16.2","","69","","","","32","","19","","12.9","","98.92","","","","-20","","Snow"
"-60.42","53.32","GOOSE A","8501900","2018-01-31 18:00","2018","01","31","18:00","-10.4","","-15.8","","65","","","","32","","15","","24.1","","99.04","","","","-17","","Cloudy"
"-60.42","53.32","GOOSE A","8501900","2018-01-31 19:00","2018","01","31","19:00","-9.7","","-15.6","","62","","","","33","","33","","24.1","","99.15","","","","-20","","Mostly Cloudy"
"-60.42","53.32","GOOSE A","8501900","2018-01-31 20:00","2018","01","31","20:00","-10.0","","-15.4","","65","","","","30","","15","","24.1","","99.36","","","","-17","","Mostly Cloudy"
"-60.42","53.32","GOOSE A","8501900","2018-01-31 21:00","2018","01","31","21:00","-10.0","","-15.6","","64","","","","28","","15","","24.1","","99.52","","","","-17","","Mostly Cloudy"
"-60.42","53.32","GOOSE A","8501900","2018-01-31 22:00","2018","01","31","22:00","-11.4","","-16.7","","65","","","","27","","15","","24.1","","99.72","","","","-18","","Mostly Cloudy"
"-60.42","53.32","GOOSE A","8501900","2018-01-31 23:00","2018","01","31","23:00","-11.4","","-16.3","","67","","","","27","","26","","24.1","","99.86","","","","-21","","Cloudy"
