"Longitude (x)","Latitude (y)","Station Name","Climate ID","Date/Time (LST)","Year","Month","Day","Time (LST)","Temp (°C)","Temp Flag","Dew Point Temp (°C)","Dew Point Temp Flag","Rel Hum (%)","Rel Hum Flag","Precip. Amount (mm)","Precip. Amount Flag","Wind Dir (10s deg)","Wind Dir Flag","Wind Spd (km/h)","Wind Spd Flag","Visibility (km)","Visibility Flag","Stn Press (kPa)","Stn Press Flag","Hmdx","Hmdx Flag","Wind Chill","Wind Chill Flag","Weather"
"-79.42","46.36","NORTH BAY A","6085701","2019-04-01 00:00","2019","04","01","00:00"
"-79.42","46.36","NORTH BAY A","6085701","2019-04-01 01:00","2019","04","01","01:00"
"-79.42","46.36","NORTH BAY A","6085701","2019-04-01 02:00","2019","04","01","02:00"
"-79.42","46.36","NORTH BAY A","6085701","2019-04-01 03:00","2019","04","01","03:00"
"-79.42","46.36","NORTH BAY A","6085701","2019-04-01 04:00","2019","04","01","04:00"
"-79.42","46.36","NORTH BAY A","6085701","2019-04-01 05:00","2019","04","01","05:00"
"-79.42","46.36","NORTH BAY A","6085701","2019-04-01 06:00","2019","04","01","06:00","-13.7","","-14.8","","91","","","","30","","21","","48.3","","97.53","","","","-23","","NA"
"-79.42","46.36","NORTH BAY A","6085701","2019-04-01 07:00","2019","04","01","07:00","-12.5","","-12.6","","99","","","","30","","16","","48.3","","97.58","","","","-20","","Clear"
"-79.42","46.36","NORTH BAY A","6085701","2019-04-01 08:00","2019","04","01","08:00","-8.7","","-12.8","","73","","","","24","","10","","48.3","","97.61","","","","-14","","NA"
"-79.42","46.36","NORTH BAY A","6085701","2019-04-01 09:00","2019","04","01","09:00","-7.4","","-9.1","","88","","","","21","","15","","48.3","","97.62","","","","-14","","NA"
"-79.42","46.36","NORTH BAY A","6085701","2019-04-01 10:00","2019","04","01","10:00","-6.3","","-8.3","","86","","","","24","","11","","48.3","","97.64","","","","-11","","Mainly Clear"
"-79.42","46.36","NORTH BAY A","6085701","2019-04-01 11:00","2019","04","01","11:00","-3.6","","-8.1","","71","","","","24","","17","","48.3","","97.62","","","","-9","","NA"
"-79.42","46.36","NORTH BAY A","6085701","2019-04-01 12:00","2019","04","01","12:00","-1.0","","-8.4","","57","","","","25","","21","","48.3","","97.56","","","","-7","","NA"
"-79.42","46.36","NORTH BAY A","6085701","2019-04-01 13:00","2019","04","01","13:00","0.4","","-8.9","","50","","","","26","","22","","48.3","","97.51","","","","","","Mainly Clear"
"-79.42","46.36","NORTH BAY A","6085701","2019-04-01 14:00","2019","04","01","14:00","0.4","","-8.2","","53","","","","25","","23","","32.2","","97.49","","","","","","Snow Showers"
"-79.42","46.36","NORTH BAY A","6085701","2019-04-01 15:00","2019","04","01","15:00","0.6","","-8.8","","50","","","","25","","32","","48.3","","97.46","","","","","","Snow Showers"
"-79.42","46.36","NORTH BAY A","6085701","2019-04-01 16:00","2019","04","01","16:00","-0.4","","-6.8","","62","","","","25","","22","","48.3","","97.47","","","","-6","","Mostly Cloudy"
"-79.42","46.36","NORTH BAY A","6085701","2019-04-01 17:00","2019","04","01","17:00","-0.8","","-7.1","","63","","","","26","","23","","48.3","","97.48","","","","-7","","NA"
"-79.42","46.36","NORTH BAY A","6085701","2019-04-01 18:00","2019","04","01","18:00","-1.7","","-7.8","","63","","","","25","","18","","48.3","","97.52","","","","-7","","NA"
"-79.42","46.36","NORTH BAY A","6085701","2019-04-01 19:00","2019","04","01","19:00","-3.1","","-8.9","","65","","","","25","","14","","32.2","","97.53","","","","-8","","Mostly Cloudy"
"-79.42","46.36","NORTH BAY A","6085701","2019-04-01 20:00","2019","04","01","20:00","-4.0","","-8.2","","73","","","","23","","11","","24.1","","97.58","","","","-8","","NA"
"-79.42","46.36","NORTH BAY A","6085701","2019-04-01 21:00","2019","04","01","21:00","-4.8","","-8.6","","75","","","","23","","8","","24.1","","97.59","","","","-8","","NA"
"-79.42","46.36","NORTH BAY A","6085701","2019-04-01 22:00","2019","04","01","22:00"
"-79.42","46.36","NORTH BAY A","6085701","2019-04-01 23:00","2019","04","01","23:00"
"-79.42","46.36","NORTH BAY A","6085701","2019-04-02 00:00","2019","04","02","00:00"
"-79.42","46.36","NORTH BAY A","6085701","2019-04-02 01:00","2019","04","02","01:00"
"-79.42","46.36","NORTH BAY A","6085701","2019-04-02 02:00","2019","04","02","02:00"
"-79.42","46.36","NORTH BAY A","6085701","2019-04-02 03:00","2019","04","02","03:00"
"-79.42","46.36","NORTH BAY A","6085701","2019-04-02 04:00","2019","04","02","04:00"
"-79.42","46.36","NORTH BAY A","6085701","2019-04-02 05:00","2019","04","02","05:00"
"-79.42","46.36","NORTH BAY A","6085701","2019-04-02 06:00","2019","04","02","06:00","-1.7","","-2.7","","93","","","","19","","29","","11.3","","97.14","","","","-9","","Snow"
"-79.42","46.36","NORTH BAY A","6085701","2019-04-02 07:00","2019","04","02","07:00","-1.3","","-2.3","","93","","","","19","","29","","24.1","","97.13","","","","-8","","Snow"
"-79.42","46.36","NORTH BAY A","6085701","2019-04-02 08:00","2019","04","02","08:00","-1.3","","-1.7","","97","","","","19","","36","","4.8","","97.10","","","","-9","","Snow"
"-79.42","46.36","NORTH BAY A","6085701","2019-04-02 09:00","2019","04","02","09:00","-1.2","","-1.5","","98","","","","20","","34","","4.8","","97.03","","","","-8","","Snow"
"-79.42","46.36","NORTH BAY A","6085701","2019-04-02 10:00","2019","04","02","10:00","-0.9","","-0.9","","100","","","","20","","35","","4.8","","96.97","","","","-8","","Snow"
"-79.42","46.36","NORTH BAY A","6085701","2019-04-02 11:00","2019","04","02","11:00","-0.4","","-0.4","","100","","","","20","","34","","4.8","","96.93","","","","-7","","Snow"
"-79.42","46.36","NORTH BAY A","6085701","2019-04-02 12:00","2019","04","02","12:00","-0.3","","-0.3","","100","","","","21","","35","","4.8","","96.90","","","","-7","","Snow"
"-79.42","46.36","NORTH BAY A","6085701","2019-04-02 13:00","2019","04","02","13:00","0.1","","0.1","","100","","","","20","","34","","6.4","","96.86","","","","","","Snow"
"-79.42","46.36","NORTH BAY A","6085701","2019-04-02 14:00","2019","04","02","14:00","0.5","","0.4","","99","","","","21","","38","","9.7","","96.82","","","","","","Snow"
"-79.42","46.36","NORTH BAY A","6085701","2019-04-02 15:00","2019","04","02","15:00","0.5","","0.4","","99","","","","20","","37","","4.8","","96.81","","","","","","Snow"
"-79.42","46.36","NORTH BAY A","6085701","2019-04-02 16:00","2019","04","02","16:00","0.1","","0.1","","100","","","","20","","37","","2.4","","96.82","","","","","","Snow"
"-79.42","46.36","NORTH BAY A","6085701","2019-04-02 17:00","2019","04","02","17:00","0.1","","0.1","","100","","","","20","","33","","0.6","","96.83","","","","","","Moderate Snow"
"-79.42","46.36","NORTH BAY A","6085701","2019-04-02 18:00","2019","04","02","18:00","0.4","","0.4","","100","","","","20","","31","","1.6","","96.81","","","","","","Snow"
"-79.42","46.36","NORTH BAY A","6085701","2019-04-02 19:00","2019","04","02","19:00","0.4","","0.4","","100","","","","21","","19","","2.4","","96.78","","","","","","Snow"
"-79.42","46.36","NORTH BAY A","6085701","2019-04-02 20:00","2019","04","02","20:00","0.4","","0.4","","100","","","","22","","10","","4.0","","96.73","","","","","","Snow"
"-79.42","46.36","NORTH BAY A","6085701","2019-04-02 21:00","2019","04","02","21:00","0.4","","0.4","","100","","","","20","","19","","6.4","","96.72","","","","","","Snow"
"-79.42","46.36","NORTH BAY A","6085701","2019-04-02 22:00","2019","04","02","22:00"
"-79.42","46.36","NORTH BAY A","6085701","2019-04-02 23:00","2019","04","02","23:00"
"-79.42","46.36","NORTH BAY A","6085701","2019-04-03 00:00","2019","04","03","00:00"
"-79.42","46.36","NORTH BAY A","6085701","2019-04-03 01:00","2019","04","03","01:00"
"-79.42","46.36","NORTH BAY A","6085701","2019-04-03 02:00","2019","04","03","02:00"
"-79.42","46.36","NORTH BAY A","6085701","2019-04-03 03:00","2019","04","03","03:00"
"-79.42","46.36","NORTH BAY A","6085701","2019-04-03 04:00","2019","04","03","04:00"
"-79.42","46.36","NORTH BAY A","6085701","2019-04-03 05:00","2019","04","03","05:00"
"-79.42","46.36","NORTH BAY A","6085701","2019-04-03 06:00","2019","04","03","06:00","-0.2","","-0.2","","100","","","","22","","30","","0.4","","96.06","","","","-7","","Heavy Snow,Blowing Snow"
"-79.42","46.36","NORTH BAY A","6085701","2019-04-03 07:00","2019","04","03","07:00","-0.2","","-0.2","","100","","","","25","","24","","6.4","","96.15","","","","-6","","Snow,Blowing Snow"
"-79.42","46.36","NORTH BAY A","6085701","2019-04-03 08:00","2019","04","03","08:00","-0.4","","-1.0","","96","","","","28","","31","","32.2","","96.24","","","","-7","","Snow,Blowing Snow"
"-79.42","46.36","NORTH BAY A","6085701","2019-04-03 09:00","2019","04","03","09:00","-0.1","","-1.3","","92","","","","27","","29","","48.3","","96.32","","","","-6","","NA"
"-79.42","46.36","NORTH BAY A","6085701","2019-04-03 10:00","2019","04","03","10:00","0.4","","-3.4","","76","","","","29","","39","","48.3","","96.39","","","","","","Blowing Snow"
"-79.42","46.36","NORTH BAY A","6085701","2019-04-03 11:00","2019","04","03","11:00","0.8","","-6.2","","60","","","","28","","47","","48.3","","96.47","","","","","","Blowing Snow"
"-79.42","46.36","NORTH BAY A","6085701","2019-04-03 12:00","2019","04","03","12:00","-0.1","","-7.5","","58","","","","29","","41","","19.3","","96.58","","","","-8","","Snow Showers"
"-79.42","46.36","NORTH BAY A","6085701","2019-04-03 13:00","2019","04","03","13:00","1.5","","-8.9","","46","","","","28","","36","","48.3","","96.64","","","","","","Mostly Cloudy"
"-79.42","46.36","NORTH BAY A","6085701","2019-04-03 14:00","2019","04","03","14:00","0.9","","-8.4","","50","","","","28","","59","","24.1","","96.72","","","","","","Snow Showers"
"-79.42","46.36","NORTH BAY A","6085701","2019-04-03 15:00","2019","04","03","15:00","0.8","","-8.5","","50","","","","27","","41","","32.2","","96.81","","","","","","NA"
"-79.42","46.36","NORTH BAY A","6085701","2019-04-03 16:00","2019","04","03","16:00","1.2","","-10.4","","42","","","","28","","44","","48.3","","96.89","","","","","","Mostly Cloudy"
"-79.42","46.36","NORTH BAY A","6085701","2019-04-03 17:00","2019","04","03","17:00","0.0","","-12.4","","39","","","","29","","47","","48.3","","97.03","","","","-8","","NA"
"-79.42","46.36","NORTH BAY A","6085701","2019-04-03 18:00","2019","04","03","18:00","-1.0","","-12.5","","42","","","","30","","44","","48.3","","97.16","","","","-9","","NA"
"-79.42","46.36","NORTH BAY A","6085701","2019-04-03 19:00","2019","04","03","19:00","-2.0","","-13.2","","42","","","","29","","38","","24.1","","97.28","","","","-10","","Mainly Clear"
"-79.42","46.36","NORTH BAY A","6085701","2019-04-03 20:00","2019","04","03","20:00","-2.9","","-13.4","","45","","","","30","","37","","24.1","","97.41","","","","-11","","NA"
"-79.42","46.36","NORTH BAY A","6085701","2019-04-03 21:00","2019","04","03","21:00","-3.6","","-12.7","","50","","","","30","","26","","24.1","","97.52","","","","-11","","NA"
"-79.42","46.36","NORTH BAY A","6085701","2019-04-03 22:00","2019","04","03","22:00"
"-79.42","46.36","NORTH BAY A","6085701","2019-04-03 23:00","2019","04","03","23:00"
"-79.42","46.36","NORTH BAY A","6085701","2019-04-04 00:00","2019","04","04","00:00"
"-79.42","46.36","NORTH BAY A","6085701","2019-04-04 01:00","2019","04","04","01:00"
"-79.42","46.36","NORTH BAY A","6085701","2019-04-04 02:00","2019","04","04","02:00"
"-79.42","46.36","NORTH BAY A","6085701","2019-04-04 03:00","2019","04","04","03:00"
"-79.42","46.36","NORTH BAY A","6085701","2019-04-04 04:00","2019","04","04","04:00"
"-79.42","46.36","NORTH BAY A","6085701","2019-04-04 05:00","2019","04","04","05:00"
"-79.42","46.36","NORTH BAY A","6085701","2019-04-04 06:00","2019","04","04","06:00","-10.8","","-13.0","","84","","","","31","","21","","48.3","","98.26","","","","-19","","NA"
"-79.42","46.36","NORTH BAY A","6085701","2019-04-04 07:00","2019","04","04","07:00","-8.6","","-11.6","","79","","","","32","","26","","48.3","","98.37","","","","-17","","Mainly Clear"
"-79.42","46.36","NORTH BAY A","6085701","2019-04-04 08:00","2019","04","04","08:00","-6.5","","-8.3","","87","","","","31","","28","","48.3","","98.46","","","","-15","","NA"
"-79.42","46.36","NORTH BAY A","6085701","2019-04-04 09:00","2019","04","04","09:00","-4.9","","-8.8","","74","","","","32","","32","","48.3","","98.51","","","","-13","","NA"
"-79.42","46.36","NORTH BAY A","6085701","2019-04-04 10:00","2019","04","04","10:00","-4.1","","-9.6","","66","","","","33","","32","","48.3","","98.57","","","","-12","","Mostly Cloudy"
"-79.42","46.36","NORTH BAY A","6085701","2019-04-04 11:00","2019","04","04","11:00","-3.5","","-10.1","","61","","","","31","","30","","48.3","","98.60","","","","-11","","NA"
"-79.42","46.36","NORTH BAY A","6085701","2019-04-04 12:00","2019","04","04","12:00","-2.3","","-10.1","","56","","","","34","","27","","48.3","","98.61","","","","-9","","NA"
"-79.42","46.36","NORTH BAY A","6085701","2019-04-04 13:00","2019","04","04","13:00","-1.7","","-11.6","","47","","","","32","","20","","48.3","","98.61","","","","-7","","Mainly Clear"
"-79.42","46.36","NORTH BAY A","6085701","2019-04-04 14:00","2019","04","04","14:00","-1.3","","-10.4","","50","","","","29","","21","","48.3","","98.60","","","","-7","","NA"
"-79.42","46.36","NORTH BAY A","6085701","2019-04-04 15:00","2019","04","04","15:00","-0.3","","-11.6","","42","","","","33","","30","","48.3","","98.56","","","","-7","","NA"
"-79.42","46.36","NORTH BAY A","6085701","2019-04-04 16:00","2019","04","04","16:00","-1.1","","-9.5","","53","","","","24","","20","","48.3","","98.55","","","","-7","","Mainly Clear"
"-79.42","46.36","NORTH BAY A","6085701","2019-04-04 17:00","2019","04","04","17:00","-1.2","","-9.7","","53","","","","24","","18","","48.3","","98.59","","","","-6","","NA"
"-79.42","46.36","NORTH BAY A","6085701","2019-04-04 18:00","2019","04","04","18:00","-2.0","","-10.0","","54","","","","24","","14","","48.3","","98.59","","","","-7","","NA"
"-79.42","46.36","NORTH BAY A","6085701","2019-04-04 19:00","2019","04","04","19:00","-3.7","","-8.1","","72","","","","30","","9","","24.1","","98.63","","","","-7","","Mainly Clear"
"-79.42","46.36","NORTH BAY A","6085701","2019-04-04 20:00","2019","04","04","20:00","-3.8","","-10.1","","62","","","","29","","13","","24.1","","98.64","","","","-9","","NA"
"-79.42","46.36","NORTH BAY A","6085701","2019-04-04 21:00","2019","04","04","21:00","-5.2","","-8.5","","78","","","","25","","4","","24.1","","98.65","","","","-7","","NA"
"-79.42","46.36","NORTH BAY A","6085701","2019-04-04 22:00","2019","04","04","22:00"
"-79.42","46.36","NORTH BAY A","6085701","2019-04-04 23:00","2019","04","04","23:00"
"-79.42","46.36","NORTH BAY A","6085701","2019-04-05 00:00","2019","04","05","00:00"
"-79.42","46.36","NORTH BAY A","6085701","2019-04-05 01:00","2019","04","05","01:00"
"-79.42","46.36","NORTH BAY A","6085701","2019-04-05 02:00","2019","04","05","02:00"
"-79.42","46.36","NORTH BAY A","6085701","2019-04-05 03:00","2019","04","05","03:00"
"-79.42","46.36","NORTH BAY A","6085701","2019-04-05 04:00","2019","04","05","04:00"
"-79.42","46.36","NORTH BAY A","6085701","2019-04-05 05:00","2019","04","05","05:00"
"-79.42","46.36","NORTH BAY A","6085701","2019-04-05 06:00","2019","04","05","06:00","-6.2","","-13.1","","58","","","","13","","12","","48.3","","98.19","","","","-11","","NA"
"-79.42","46.36","NORTH BAY A","6085701","2019-04-05 07:00","2019","04","05","07:00","-6.3","","-11.6","","67","","","","15","","14","","48.3","","98.22","","","","-12","","Mostly Cloudy"
"-79.42","46.36","NORTH BAY A","6085701","2019-04-05 08:00","2019","04","05","08:00","-5.1","","-9.2","","73","","","","15","","16","","48.3","","98.17","","","","-11","","NA"
"-79.42","46.36","NORTH BAY A","6085701","2019-04-05 09:00","2019","04","05","09:00","-3.3","","-8.8","","66","","","","14","","14","","48.3","","98.03","","","","-8","","NA"
"-79.42","46.36","NORTH BAY A","6085701","2019-04-05 10:00","2019","04","05","10:00","-1.2","","-9.3","","54","","","","17","","18","","48.3","","97.96","","","","-6","","Cloudy"
"-79.42","46.36","NORTH BAY A","6085701","2019-04-05 11:00","2019","04","05","11:00","0.7","","-8.2","","52","","","","16","","14","","48.3","","97.86","","","","","","NA"
"-79.42","46.36","NORTH BAY A","6085701","2019-04-05 12:00","2019","04","05","12:00","2.1","","-6.0","","55","","","","20","","24","","48.3","","97.72","","","","","","NA"
"-79.42","46.36","NORTH BAY A","6085701","2019-04-05 13:00","2019","04","05","13:00","2.8","","-6.2","","52","","","","18","","15","","48.3","","97.58","","","","","","Cloudy"
"-79.42","46.36","NORTH BAY A","6085701","2019-04-05 14:00","2019","04","05","14:00","3.1","","-3.9","","60","","","","21","","32","","48.3","","97.49","","","","","","NA"
"-79.42","46.36","NORTH BAY A","6085701","2019-04-05 15:00","2019","04","05","15:00","1.5","","-1.1","","83","","","","21","","23","","12.9","","97.45","","","","","","Snow"
"-79.42","46.36","NORTH BAY A","6085701","2019-04-05 16:00","2019","04","05","16:00","-0.1","","-0.2","","99","","","","20","","21","","2.0","","97.36","","","","-6","","Snow"
"-79.42","46.36","NORTH BAY A","6085701","2019-04-05 17:00","2019","04","05","17:00","0.0","","-0.9","","94","","","","19","","22","","1.6","","97.32","","","","-6","","Snow"
"-79.42","46.36","NORTH BAY A","6085701","2019-04-05 18:00","2019","04","05","18:00","-0.2","","-0.4","","98","","","","24","","12","","2.4","","97.31","","","","-4","","Snow"
"-79.42","46.36","NORTH BAY A","6085701","2019-04-05 19:00","2019","04","05","19:00","-0.3","","-0.3","","100","","","","23","","11","","0.8","","97.29","","","","-4","","Snow,Freezing Fog"
"-79.42","46.36","NORTH BAY A","6085701","2019-04-05 20:00","2019","04","05","20:00","-0.2","","-0.2","","100","","","","26","","14","","0.8","","97.30","","","","-4","","Freezing Drizzle,Snow,Freezing Fog"
"-79.42","46.36","NORTH BAY A","6085701","2019-04-05 21:00","2019","04","05","21:00","-0.1","","-0.1","","100","","","","24","","13","","0.4","","97.28","","","","-4","","Freezing Drizzle,Freezing Fog"
"-79.42","46.36","NORTH BAY A","6085701","2019-04-05 22:00","2019","04","05","22:00"
"-79.42","46.36","NORTH BAY A","6085701","2019-04-05 23:00","2019","04","05","23:00"
"-79.42","46.36","NORTH BAY A","6085701","2019-04-06 00:00","2019","04","06","00:00"
"-79.42","46.36","NORTH BAY A","6085701","2019-04-06 01:00","2019","04","06","01:00"
"-79.42","46.36","NORTH BAY A","6085701","2019-04-06 02:00","2019","04","06","02:00"
"-79.42","46.36","NORTH BAY A","6085701","2019-04-06 03:00","2019","04","06","03:00"
"-79.42","46.36","NORTH BAY A","6085701","2019-04-06 04:00","2019","04","06","04:00"
"-79.42","46.36","NORTH BAY A","6085701","2019-04-06 05:00","2019","04","06","05:00"
"-79.42","46.36","NORTH BAY A","6085701","2019-04-06 06:00","2019","04","06","06:00","-0.8","","-0.8","","100","","","","29","","21","","0.6","","97.48","","","","-6","","Freezing Fog"
"-79.42","46.36","NORTH BAY A","6085701","2019-04-06 07:00","2019","04","06","07:00","-0.6","","-0.6","","100","","","","29","","21","","0.4","","97.54","","","","-6","","Freezing Fog"
"-79.42","46.36","NORTH BAY A","6085701","2019-04-06 08:00","2019","04","06","08:00","-0.5","","-0.5","","100","","","","22","","17","","0.0","","97.55","","","","-5","","Freezing Fog"
"-79.42","46.36","NORTH BAY A","6085701","2019-04-06 09:00","2019","04","06","09:00","-0.4","","-0.4","","100","","","","28","","27","","0.2","","97.63","","","","-7","","Freezing Fog"
"-79.42","46.36","NORTH BAY A","6085701","2019-04-06 10:00","2019","04","06","10:00","0.1","","0.1","","100","","","","25","","16","","0.8","","97.64","","","","","","Fog"
"-79.42","46.36","NORTH BAY A","6085701","2019-04-06 11:00","2019","04","06","11:00","0.6","","0.6","","100","","","","24","","12","","16.1","","97.74","","","","","","NA"
"-79.42","46.36","NORTH BAY A","6085701","2019-04-06 12:00","2019","04","06","12:00","1.4","","1.3","","99","","","","29","","16","","24.1","","97.74","","","","","","NA"
"-79.42","46.36","NORTH BAY A","6085701","2019-04-06 13:00","2019","04","06","13:00","2.9","","1.2","","88","","","","30","","25","","32.2","","97.73","","","","","","Cloudy"
"-79.42","46.36","NORTH BAY A","6085701","2019-04-06 14:00","2019","04","06","14:00","4.1","","2.3","","88","","","","29","","28","","48.3","","97.75","","","","","","NA"
"-79.42","46.36","NORTH BAY A","6085701","2019-04-06 15:00","2019","04","06","15:00","4.8","","2.2","","83","","","","30","","28","","48.3","","97.73","","","","","","NA"
"-79.42","46.36","NORTH BAY A","6085701","2019-04-06 16:00","2019","04","06","16:00","4.9","","1.9","","81","","","","28","","24","","48.3","","97.71","","","","","","Cloudy"
"-79.42","46.36","NORTH BAY A","6085701","2019-04-06 17:00","2019","04","06","17:00","4.9","","2.1","","82","","","","30","","21","","48.3","","97.70","","","","","","NA"
"-79.42","46.36","NORTH BAY A","6085701","2019-04-06 18:00","2019","04","06","18:00","4.1","","1.8","","85","","","","28","","16","","48.3","","97.70","","","","","","NA"
"-79.42","46.36","NORTH BAY A","6085701","2019-04-06 19:00","2019","04","06","19:00","3.0","","1.6","","90","","","","30","","17","","32.2","","97.73","","","","","","Cloudy"
"-79.42","46.36","NORTH BAY A","6085701","2019-04-06 20:00","2019","04","06","20:00","3.5","","1.7","","88","","","","29","","17","","24.1","","97.77","","","","","","NA"
"-79.42","46.36","NORTH BAY A","6085701","2019-04-06 21:00","2019","04","06","21:00","3.2","","1.8","","91","","","","28","","13","","24.1","","97.80","","","","","","NA"
"-79.42","46.36","NORTH BAY A","6085701","2019-04-06 22:00","2019","04","06","22:00"
"-79.42","46.36","NORTH BAY A","6085701","2019-04-06 23:00","2019","04","06","23:00"
"-79.42","46.36","NORTH BAY A","6085701","2019-04-07 00:00","2019","04","07","00:00"
"-79.42","46.36","NORTH BAY A","6085701","2019-04-07 01:00","2019","04","07","01:00"
"-79.42","46.36","NORTH BAY A","6085701","2019-04-07 02:00","2019","04","07","02:00"
"-79.42","46.36","NORTH BAY A","6085701","2019-04-07 03:00","2019","04","07","03:00"
"-79.42","46.36","NORTH BAY A","6085701","2019-04-07 04:00","2019","04","07","04:00"
"-79.42","46.36","NORTH BAY A","6085701","2019-04-07 05:00","2019","04","07","05:00"
"-79.42","46.36","NORTH BAY A","6085701","2019-04-07 06:00","2019","04","07","06:00","1.4","","1.0","","97","","","","26","","6","","2.0","","97.76","","","","","","Drizzle,Fog"
"-79.42","46.36","NORTH BAY A","6085701","2019-04-07 07:00","2019","04","07","07:00","1.1","","1.1","","100","","","","14","","4","","0.4","","97.84","","","","","","Drizzle,Fog"
"-79.42","46.36","NORTH BAY A","6085701","2019-04-07 08:00","2019","04","07","08:00","1.6","","0.9","","95","","","","6","","12","","1.6","","97.84","","","","","","Drizzle,Fog"
"-79.42","46.36","NORTH BAY A","6085701","2019-04-07 09:00","2019","04","07","09:00","2.0","","1.9","","99","","","","7","","15","","6.4","","97.87","","","","","","Drizzle,Fog"
"-79.42","46.36","NORTH BAY A","6085701","2019-04-07 10:00","2019","04","07","10:00","1.8","","1.5","","98","","","","6","","14","","4.8","","97.86","","","","","","Drizzle,Fog"
"-79.42","46.36","NORTH BAY A","6085701","2019-04-07 11:00","2019","04","07","11:00","2.1","","2.1","","100","","","","5","","23","","6.4","","97.84","","","","","","Drizzle,Fog"
"-79.42","46.36","NORTH BAY A","6085701","2019-04-07 12:00","2019","04","07","12:00","2.0","","2.0","","100","","","","6","","29","","4.8","","97.76","","","","","","Drizzle,Fog"
"-79.42","46.36","NORTH BAY A","6085701","2019-04-07 13:00","2019","04","07","13:00","1.7","","1.4","","98","","","","6","","27","","4.8","","97.75","","","","","","Drizzle,Fog"
"-79.42","46.36","NORTH BAY A","6085701","2019-04-07 14:00","2019","04","07","14:00","1.7","","1.7","","100","","","","6","","31","","9.7","","97.62","","","","","","Drizzle,Fog"
"-79.42","46.36","NORTH BAY A","6085701","2019-04-07 15:00","2019","04","07","15:00","1.9","","1.9","","100","","","","6","","31","","24.1","","97.50","","","","","","Drizzle"
"-79.42","46.36","NORTH BAY A","6085701","2019-04-07 16:00","2019","04","07","16:00","1.9","","1.9","","100","","","","6","","33","","24.1","","97.39","","","","","","Drizzle"
"-79.42","46.36","NORTH BAY A","6085701","2019-04-07 17:00","2019","04","07","17:00","1.7","","1.7","","100","","","","7","","32","","9.7","","97.41","","","","","","Drizzle,Fog"
"-79.42","46.36","NORTH BAY A","6085701","2019-04-07 18:00","2019","04","07","18:00","1.6","","1.2","","97","","","","7","","30","","9.7","","97.36","","","","","","Rain,Fog"
"-79.42","46.36","NORTH BAY A","6085701","2019-04-07 19:00","2019","04","07","19:00","1.3","","1.3","","100","","","","7","","34","","9.7","","97.29","","","","","","Rain,Fog"
"-79.42","46.36","NORTH BAY A","6085701","2019-04-07 20:00","2019","04","07","20:00","1.2","","1.2","","100","","","","7","","36","","9.7","","97.23","","","","","","Rain,Fog"
"-79.42","46.36","NORTH BAY A","6085701","2019-04-07 21:00","2019","04","07","21:00","1.4","","1.4","","100","","","","7","","41","","16.1","","97.06","","","","","","Rain"
"-79.42","46.36","NORTH BAY A","6085701","2019-04-07 22:00","2019","04","07","22:00"
"-79.42","46.36","NORTH BAY A","6085701","2019-04-07 23:00","2019","04","07","23:00"
"-79.42","46.36","NORTH BAY A","6085701","2019-04-08 00:00","2019","04","08","00:00"
"-79.42","46.36","NORTH BAY A","6085701","2019-04-08 01:00","2019","04","08","01:00"
"-79.42","46.36","NORTH BAY A","6085701","2019-04-08 02:00","2019","04","08","02:00"
"-79.42","46.36","NORTH BAY A","6085701","2019-04-08 03:00","2019","04","08","03:00"
"-79.42","46.36","NORTH BAY A","6085701","2019-04-08 04:00","2019","04","08","04:00"
"-79.42","46.36","NORTH BAY A","6085701","2019-04-08 05:00","2019","04","08","05:00"
"-79.42","46.36","NORTH BAY A","6085701","2019-04-08 06:00","2019","04","08","06:00","1.5","","1.5","","100","","","","9","","32","","4.8","","96.02","","","","","","Rain"
"-79.42","46.36","NORTH BAY A","6085701","2019-04-08 07:00","2019","04","08","07:00","1.3","","1.0","","98","","","","8","","31","","16.1","","95.96","","","","","","Rain"
"-79.42","46.36","NORTH BAY A","6085701","2019-04-08 08:00","2019","04","08","08:00","1.3","","1.3","","100","","","","8","","39","","4.8","","95.88","","","","","","Rain,Fog"
"-79.42","46.36","NORTH BAY A","6085701","2019-04-08 09:00","2019","04","08","09:00","1.3","","1.3","","100","","","","11","","10","","8.1","","95.92","","","","","","Rain,Fog"
"-79.42","46.36","NORTH BAY A","6085701","2019-04-08 10:00","2019","04","08","10:00","1.2","","1.2","","100","","","","8","","27","","6.4","","95.95","","","","","","Drizzle,Fog"
"-79.42","46.36","NORTH BAY A","6085701","2019-04-08 11:00","2019","04","08","11:00","1.3","","1.3","","100","","","","7","","17","","4.8","","96.00","","","","","","Drizzle,Fog"
"-79.42","46.36","NORTH BAY A","6085701","2019-04-08 12:00","2019","04","08","12:00","2.0","","1.7","","98","","","","32","","16","","9.7","","96.05","","","","","","Drizzle,Fog"
"-79.42","46.36","NORTH BAY A","6085701","2019-04-08 13:00","2019","04","08","13:00","2.7","","2.0","","95","","","","31","","28","","24.1","","96.14","","","","","","Cloudy"
"-79.42","46.36","NORTH BAY A","6085701","2019-04-08 14:00","2019","04","08","14:00","2.3","","2.3","","100","","","","29","","23","","32.2","","96.21","","","","","","NA"
"-79.42","46.36","NORTH BAY A","6085701","2019-04-08 15:00","2019","04","08","15:00","2.5","","1.8","","96","","","","23","","14","","32.2","","96.25","","","","","","NA"
"-79.42","46.36","NORTH BAY A","6085701","2019-04-08 16:00","2019","04","08","16:00","3.4","","2.7","","95","","","","30","","21","","32.2","","96.32","","","","","","Cloudy"
"-79.42","46.36","NORTH BAY A","6085701","2019-04-08 17:00","2019","04","08","17:00","3.8","","2.8","","93","","","","30","","19","","32.2","","96.34","","","","","","NA"
"-79.42","46.36","NORTH BAY A","6085701","2019-04-08 18:00","2019","04","08","18:00","2.8","","2.2","","96","","","","26","","3","","32.2","","96.36","","","","","","NA"
"-79.42","46.36","NORTH BAY A","6085701","2019-04-08 19:00","2019","04","08","19:00","2.9","","2.5","","97","","","","22","","4","","32.2","","96.39","","","","","","Cloudy"
"-79.42","46.36","NORTH BAY A","6085701","2019-04-08 20:00","2019","04","08","20:00","2.2","","2.1","","99","","","","18","","12","","24.1","","96.39","","","","","","NA"
"-79.42","46.36","NORTH BAY A","6085701","2019-04-08 21:00","2019","04","08","21:00","1.6","","1.6","","100","","","","19","","15","","24.1","","96.39","","","","","","NA"
"-79.42","46.36","NORTH BAY A","6085701","2019-04-08 22:00","2019","04","08","22:00"
"-79.42","46.36","NORTH BAY A","6085701","2019-04-08 23:00","2019","04","08","23:00"
"-79.42","46.36","NORTH BAY A","6085701","2019-04-09 00:00","2019","04","09","00:00"
"-79.42","46.36","NORTH BAY A","6085701","2019-04-09 01:00","2019","04","09","01:00"
"-79.42","46.36","NORTH BAY A","6085701","2019-04-09 02:00","2019","04","09","02:00"
"-79.42","46.36","NORTH BAY A","6085701","2019-04-09 03:00","2019","04","09","03:00"
"-79.42","46.36","NORTH BAY A","6085701","2019-04-09 04:00","2019","04","09","04:00"
"-79.42","46.36","NORTH BAY A","6085701","2019-04-09 05:00","2019","04","09","05:00"
"-79.42","46.36","NORTH BAY A","6085701","2019-04-09 06:00","2019","04","09","06:00","1.2","","1.2","","100","","","","14","","7","","6.4","","95.75","","","","","","Rain,Fog"
"-79.42","46.36","NORTH BAY A","6085701","2019-04-09 07:00","2019","04","09","07:00","0.4","","0.4","","100","","","","3","","17","","6.4","","95.70","","","","","","Snow"
"-79.42","46.36","NORTH BAY A","6085701","2019-04-09 08:00","2019","04","09","08:00","0.4","","0.4","","100","","","","7","","13","","1.2","","95.68","","","","","","Snow"
"-79.42","46.36","NORTH BAY A","6085701","2019-04-09 09:00","2019","04","09","09:00","0.4","","0.3","","99","","","","5","","26","","4.8","","95.64","","","","","","Snow"
"-79.42","46.36","NORTH BAY A","6085701","2019-04-09 10:00","2019","04","09","10:00","0.5","","0.2","","98","","","","7","","25","","2.4","","95.65","","","","","","Snow"
"-79.42","46.36","NORTH BAY A","6085701","2019-04-09 11:00","2019","04","09","11:00","0.7","","0.1","","96","","","","5","","23","","4.8","","95.70","","","","","","Snow"
"-79.42","46.36","NORTH BAY A","6085701","2019-04-09 12:00","2019","04","09","12:00","0.8","","-0.1","","94","","","","5","","11","","3.2","","95.78","","","","","","Snow"
"-79.42","46.36","NORTH BAY A","6085701","2019-04-09 13:00","2019","04","09","13:00","0.7","","0.0","","95","","","","33","","12","","2.4","","95.85","","","","","","Snow"
"-79.42","46.36","NORTH BAY A","6085701","2019-04-09 14:00","2019","04","09","14:00","0.7","","-0.3","","93","","","","33","","13","","4.8","","95.93","","","","","","Snow"
"-79.42","46.36","NORTH BAY A","6085701","2019-04-09 15:00","2019","04","09","15:00","0.8","","-0.1","","94","","","","34","","14","","3.2","","96.00","","","","","","Snow"
"-79.42","46.36","NORTH BAY A","6085701","2019-04-09 16:00","2019","04","09","16:00","0.4","","-0.2","","96","","","","33","","26","","2.4","","96.09","","","","","","Snow"
"-79.42","46.36","NORTH BAY A","6085701","2019-04-09 17:00","2019","04","09","17:00","-0.4","","-1.0","","96","","","","33","","23","","2.4","","96.20","","","","-6","","Snow"
"-79.42","46.36","NORTH BAY A","6085701","2019-04-09 18:00","2019","04","09","18:00","-0.6","","-1.2","","96","","","","33","","22","","2.4","","96.29","","","","-6","","Snow"
"-79.42","46.36","NORTH BAY A","6085701","2019-04-09 19:00","2019","04","09","19:00","-1.3","","-2.1","","94","","","","33","","17","","16.1","","96.38","","","","-6","","Snow"
"-79.42","46.36","NORTH BAY A","6085701","2019-04-09 20:00","2019","04","09","20:00","-1.5","","-2.5","","93","","","","34","","15","","16.1","","96.48","","","","-6","","Snow"
"-79.42","46.36","NORTH BAY A","6085701","2019-04-09 21:00","2019","04","09","21:00","-1.8","","-2.9","","92","","","","34","","13","","16.1","","96.55","","","","-6","","Snow"
"-79.42","46.36","NORTH BAY A","6085701","2019-04-09 22:00","2019","04","09","22:00"
"-79.42","46.36","NORTH BAY A","6085701","2019-04-09 23:00","2019","04","09","23:00"
"-79.42","46.36","NORTH BAY A","6085701","2019-04-10 00:00","2019","04","10","00:00"
"-79.42","46.36","NORTH BAY A","6085701","2019-04-10 01:00","2019","04","10","01:00"
"-79.42","46.36","NORTH BAY A","6085701","2019-04-10 02:00","2019","04","10","02:00"
"-79.42","46.36","NORTH BAY A","6085701","2019-04-10 03:00","2019","04","10","03:00"
"-79.42","46.36","NORTH BAY A","6085701","2019-04-10 04:00","2019","04","10","04:00"
"-79.42","46.36","NORTH BAY A","6085701","2019-04-10 05:00","2019","04","10","05:00"
"-79.42","46.36","NORTH BAY A","6085701","2019-04-10 06:00","2019","04","10","06:00","-5.3","","-6.6","","91","","","","35","","19","","32.2","","97.05","","","","-12","","NA"
"-79.42","46.36","NORTH BAY A","6085701","2019-04-10 07:00","2019","04","10","07:00","-5.4","","-7.2","","87","","","","35","","16","","32.2","","97.12","","","","-11","","Blowing Snow"
"-79.42","46.36","NORTH BAY A","6085701","2019-04-10 08:00","2019","04","10","08:00","-5.2","","-7.5","","84","","","","35","","22","","32.2","","97.16","","","","-12","","Blowing Snow"
"-79.42","46.36","NORTH BAY A","6085701","2019-04-10 09:00","2019","04","10","09:00","-4.4","","-7.6","","78","","","","1","","12","","48.3","","97.28","","","","-9","","NA"
"-79.42","46.36","NORTH BAY A","6085701","2019-04-10 10:00","2019","04","10","10:00","-2.7","","-7.3","","71","","","","35","","25","","48.3","","97.30","","","","-9","","Mainly Clear"
"-79.42","46.36","NORTH BAY A","6085701","2019-04-10 11:00","2019","04","10","11:00","-2.5","","-8.4","","64","","","","35","","21","","48.3","","97.33","","","","-9","","NA"
"-79.42","46.36","NORTH BAY A","6085701","2019-04-10 12:00","2019","04","10","12:00","-2.1","","-9.4","","58","","","","33","","28","","48.3","","97.43","","","","-9","","NA"
"-79.42","46.36","NORTH BAY A","6085701","2019-04-10 13:00","2019","04","10","13:00","-1.4","","-10.3","","51","","","","33","","23","","48.3","","97.44","","","","-7","","Mainly Clear"
"-79.42","46.36","NORTH BAY A","6085701","2019-04-10 14:00","2019","04","10","14:00","-0.6","","-12.2","","41","","","","33","","17","","48.3","","97.43","","","","-6","","NA"
"-79.42","46.36","NORTH BAY A","6085701","2019-04-10 15:00","2019","04","10","15:00","0.1","","-10.6","","45","","","","34","","23","","48.3","","97.43","","","","","","NA"
"-79.42","46.36","NORTH BAY A","6085701","2019-04-10 16:00","2019","04","10","16:00","0.5","","-10.0","","46","","","","33","","23","","48.3","","97.43","","","","","","Mainly Clear"
"-79.42","46.36","NORTH BAY A","6085701","2019-04-10 17:00","2019","04","10","17:00","-0.1","","-7.8","","56","","","","34","","22","","48.3","","97.50","","","","-6","","NA"
"-79.42","46.36","NORTH BAY A","6085701","2019-04-10 18:00","2019","04","10","18:00","-1.4","","-7.3","","64","","","","33","","23","","48.3","","97.54","","","","-7","","NA"
"-79.42","46.36","NORTH BAY A","6085701","2019-04-10 19:00","2019","04","10","19:00","-2.1","","-7.0","","69","","","","36","","15","","48.3","","97.54","","","","-7","","Mostly Cloudy"
"-79.42","46.36","NORTH BAY A","6085701","2019-04-10 20:00","2019","04","10","20:00","-2.8","","-8.4","","66","","","","34","","17","","24.1","","97.65","","","","-8","","NA"
"-79.42","46.36","NORTH BAY A","6085701","2019-04-10 21:00","2019","04","10","21:00","-4.0","","-8.5","","71","","","","32","","16","","24.1","","97.73","","","","-10","","NA"
"-79.42","46.36","NORTH BAY A","6085701","2019-04-10 22:00","2019","04","10","22:00"
"-79.42","46.36","NORTH BAY A","6085701","2019-04-10 23:00","2019","04","10","23:00"
"-79.42","46.36","NORTH BAY A","6085701","2019-04-11 00:00","2019","04","11","00:00"
"-79.42","46.36","NORTH BAY A","6085701","2019-04-11 01:00","2019","04","11","01:00"
"-79.42","46.36","NORTH BAY A","6085701","2019-04-11 02:00","2019","04","11","02:00"
"-79.42","46.36","NORTH BAY A","6085701","2019-04-11 03:00","2019","04","11","03:00"
"-79.42","46.36","NORTH BAY A","6085701","2019-04-11 04:00","2019","04","11","04:00"
"-79.42","46.36","NORTH BAY A","6085701","2019-04-11 05:00","2019","04","11","05:00"
"-79.42","46.36","NORTH BAY A","6085701","2019-04-11 06:00","2019","04","11","06:00","-7.6","","-9.3","","88","","","","2","","14","","48.3","","98.11","","","","-14","","NA"
"-79.42","46.36","NORTH BAY A","6085701","2019-04-11 07:00","2019","04","11","07:00","-6.8","","-9.3","","82","","","","3","","17","","48.3","","98.17","","","","-13","","Mostly Cloudy"
"-79.42","46.36","NORTH BAY A","6085701","2019-04-11 08:00","2019","04","11","08:00","-5.7","","-9.7","","74","","","","4","","23","","48.3","","98.17","","","","-13","","NA"
"-79.42","46.36","NORTH BAY A","6085701","2019-04-11 09:00","2019","04","11","09:00","-4.4","","-9.7","","67","","","","4","","18","","48.3","","98.19","","","","-10","","NA"
"-79.42","46.36","NORTH BAY A","6085701","2019-04-11 10:00","2019","04","11","10:00","-3.0","","-9.5","","61","","","","8","","13","","48.3","","98.16","","","","-8","","Mostly Cloudy"
"-79.42","46.36","NORTH BAY A","6085701","2019-04-11 11:00","2019","04","11","11:00","-1.9","","-8.4","","61","","","","10","","10","","48.3","","98.16","","","","-6","","NA"
"-79.42","46.36","NORTH BAY A","6085701","2019-04-11 12:00","2019","04","11","12:00","-1.0","","-9.1","","55","","","","6","","24","","48.3","","97.97","","","","-7","","NA"
"-79.42","46.36","NORTH BAY A","6085701","2019-04-11 13:00","2019","04","11","13:00","0.4","","-7.8","","54","","","","7","","26","","48.3","","97.98","","","","","","Mostly Cloudy"
"-79.42","46.36","NORTH BAY A","6085701","2019-04-11 14:00","2019","04","11","14:00","1.3","","-7.6","","52","","","","9","","18","","48.3","","97.96","","","","","","NA"
"-79.42","46.36","NORTH BAY A","6085701","2019-04-11 15:00","2019","04","11","15:00","1.1","","-7.1","","55","","","","10","","14","","48.3","","97.91","","","","","","NA"
"-79.42","46.36","NORTH BAY A","6085701","2019-04-11 16:00","2019","04","11","16:00","1.6","","-6.8","","54","","","","7","","32","","48.3","","97.84","","","","","","Cloudy"
"-79.42","46.36","NORTH BAY A","6085701","2019-04-11 17:00","2019","04","11","17:00","1.0","","-6.5","","58","","","","8","","24","","48.3","","97.82","","","","","","NA"
"-79.42","46.36","NORTH BAY A","6085701","2019-04-11 18:00","2019","04","11","18:00","0.8","","-5.8","","61","","","","7","","22","","48.3","","97.79","","","","","","NA"
"-79.42","46.36","NORTH BAY A","6085701","2019-04-11 19:00","2019","04","11","19:00","1.0","","-5.4","","63","","","","8","","13","","48.3","","97.81","","","","","","Cloudy"
"-79.42","46.36","NORTH BAY A","6085701","2019-04-11 20:00","2019","04","11","20:00","0.9","","-5.6","","62","","","","8","","13","","24.1","","97.79","","","","","","NA"
"-79.42","46.36","NORTH BAY A","6085701","2019-04-11 21:00","2019","04","11","21:00","0.6","","-4.8","","67","","","","7","","22","","24.1","","97.79","","","","","","NA"
"-79.42","46.36","NORTH BAY A","6085701","2019-04-11 22:00","2019","04","11","22:00"
"-79.42","46.36","NORTH BAY A","6085701","2019-04-11 23:00","2019","04","11","23:00"
"-79.42","46.36","NORTH BAY A","6085701","2019-04-12 00:00","2019","04","12","00:00"
"-79.42","46.36","NORTH BAY A","6085701","2019-04-12 01:00","2019","04","12","01:00"
"-79.42","46.36","NORTH BAY A","6085701","2019-04-12 02:00","2019","04","12","02:00"
"-79.42","46.36","NORTH BAY A","6085701","2019-04-12 03:00","2019","04","12","03:00"
"-79.42","46.36","NORTH BAY A","6085701","2019-04-12 04:00","2019","04","12","04:00"
"-79.42","46.36","NORTH BAY A","6085701","2019-04-12 05:00","2019","04","12","05:00"
"-79.42","46.36","NORTH BAY A","6085701","2019-04-12 06:00","2019","04","12","06:00","0.1","","-2.3","","84","","","","9","","39","","16.1","","96.78","","","","","","Rain"
"-79.42","46.36","NORTH BAY A","6085701","2019-04-12 07:00","2019","04","12","07:00","0.3","","-2.1","","84","","","","9","","37","","19.3","","96.80","","","","","","Rain"
"-79.42","46.36","NORTH BAY A","6085701","2019-04-12 08:00","2019","04","12","08:00","0.6","","-1.7","","84","","","","9","","29","","32.2","","96.74","","","","","","Rain"
"-79.42","46.36","NORTH BAY A","6085701","2019-04-12 09:00","2019","04","12","09:00","0.9","","-1.3","","86","","","","9","","33","","48.3","","96.59","","","","","","NA"
"-79.42","46.36","NORTH BAY A","6085701","2019-04-12 10:00","2019","04","12","10:00","2.1","","-0.6","","83","","","","9","","28","","48.3","","96.48","","","","","","Cloudy"
"-79.42","46.36","NORTH BAY A","6085701","2019-04-12 11:00","2019","04","12","11:00","2.9","","0.2","","82","","","","8","","28","","24.1","","96.42","","","","","","Rain"
"-79.42","46.36","NORTH BAY A","6085701","2019-04-12 12:00","2019","04","12","12:00","3.3","","1.2","","86","","","","12","","16","","32.2","","96.33","","","","","","Rain"
"-79.42","46.36","NORTH BAY A","6085701","2019-04-12 13:00","2019","04","12","13:00","3.6","","2.3","","91","","","","16","","17","","24.1","","96.36","","","","","","Rain"
"-79.42","46.36","NORTH BAY A","6085701","2019-04-12 14:00","2019","04","12","14:00","5.3","","4.1","","92","","","","13","","16","","24.1","","96.17","","","","","","Rain"
"-79.42","46.36","NORTH BAY A","6085701","2019-04-12 15:00","2019","04","12","15:00","6.0","","5.2","","94","","","","15","","18","","32.2","","96.13","","","","","","NA"
"-79.42","46.36","NORTH BAY A","6085701","2019-04-12 16:00","2019","04","12","16:00","6.7","","6.1","","96","","","","17","","21","","48.3","","96.18","","","","","","Cloudy"
"-79.42","46.36","NORTH BAY A","6085701","2019-04-12 17:00","2019","04","12","17:00","7.1","","6.0","","93","","","","18","","24","","48.3","","96.19","","","","","","NA"
"-79.42","46.36","NORTH BAY A","6085701","2019-04-12 18:00","2019","04","12","18:00","7.4","","5.8","","89","","","","22","","15","","48.3","","96.17","","","","","","NA"
"-79.42","46.36","NORTH BAY A","6085701","2019-04-12 19:00","2019","04","12","19:00","8.6","","7.0","","90","","","","28","","17","","24.1","","96.17","","","","","","Cloudy"
"-79.42","46.36","NORTH BAY A","6085701","2019-04-12 20:00","2019","04","12","20:00","7.9","","5.7","","86","","","","26","","20","","24.1","","96.27","","","","","","Rain"
"-79.42","46.36","NORTH BAY A","6085701","2019-04-12 21:00","2019","04","12","21:00","5.8","","3.8","","87","","","","22","","15","","24.1","","96.28","","","","","","NA"
"-79.42","46.36","NORTH BAY A","6085701","2019-04-12 22:00","2019","04","12","22:00"
"-79.42","46.36","NORTH BAY A","6085701","2019-04-12 23:00","2019","04","12","23:00"
"-79.42","46.36","NORTH BAY A","6085701","2019-04-13 00:00","2019","04","13","00:00"
"-79.42","46.36","NORTH BAY A","6085701","2019-04-13 01:00","2019","04","13","01:00"
"-79.42","46.36","NORTH BAY A","6085701","2019-04-13 02:00","2019","04","13","02:00"
"-79.42","46.36","NORTH BAY A","6085701","2019-04-13 03:00","2019","04","13","03:00"
"-79.42","46.36","NORTH BAY A","6085701","2019-04-13 04:00","2019","04","13","04:00"
"-79.42","46.36","NORTH BAY A","6085701","2019-04-13 05:00","2019","04","13","05:00"
"-79.42","46.36","NORTH BAY A","6085701","2019-04-13 06:00","2019","04","13","06:00","1.4","","-2.4","","76","","","","23","","13","","48.3","","96.58","","","","","","NA"
"-79.42","46.36","NORTH BAY A","6085701","2019-04-13 07:00","2019","04","13","07:00","1.5","","-2.5","","75","","","","23","","17","","48.3","","96.59","","","","","","Cloudy"
"-79.42","46.36","NORTH BAY A","6085701","2019-04-13 08:00","2019","04","13","08:00","1.9","","-3.2","","69","","","","25","","16","","48.3","","96.61","","","","","","NA"
"-79.42","46.36","NORTH BAY A","6085701","2019-04-13 09:00","2019","04","13","09:00","1.9","","-2.5","","73","","","","24","","19","","48.3","","96.64","","","","","","NA"
"-79.42","46.36","NORTH BAY A","6085701","2019-04-13 10:00","2019","04","13","10:00","1.8","","-1.9","","76","","","","25","","21","","48.3","","96.68","","","","","","Cloudy"
"-79.42","46.36","NORTH BAY A","6085701","2019-04-13 11:00","2019","04","13","11:00","1.8","","-2.1","","75","","","","24","","23","","48.3","","96.77","","","","","","NA"
"-79.42","46.36","NORTH BAY A","6085701","2019-04-13 12:00","2019","04","13","12:00","1.7","","-2.5","","74","","","","25","","22","","48.3","","96.84","","","","","","Snow"
"-79.42","46.36","NORTH BAY A","6085701","2019-04-13 13:00","2019","04","13","13:00","1.8","","-2.7","","72","","","","25","","25","","48.3","","96.87","","","","","","Cloudy"
"-79.42","46.36","NORTH BAY A","6085701","2019-04-13 14:00","2019","04","13","14:00","1.9","","-3.1","","70","","","","25","","24","","48.3","","96.96","","","","","","NA"
"-79.42","46.36","NORTH BAY A","6085701","2019-04-13 15:00","2019","04","13","15:00","2.3","","-3.1","","68","","","","26","","24","","48.3","","96.95","","","","","","NA"
"-79.42","46.36","NORTH BAY A","6085701","2019-04-13 16:00","2019","04","13","16:00","2.7","","-3.0","","66","","","","26","","23","","48.3","","96.99","","","","","","Mostly Cloudy"
"-79.42","46.36","NORTH BAY A","6085701","2019-04-13 17:00","2019","04","13","17:00","3.3","","-2.9","","64","","","","25","","26","","48.3","","97.06","","","","","","NA"
"-79.42","46.36","NORTH BAY A","6085701","2019-04-13 18:00","2019","04","13","18:00","2.3","","-3.3","","67","","","","27","","24","","48.3","","97.05","","","","","","NA"
"-79.42","46.36","NORTH BAY A","6085701","2019-04-13 19:00","2019","04","13","19:00","1.6","","-3.1","","71","","","","28","","20","","48.3","","97.01","","","","","","Mostly Cloudy"
"-79.42","46.36","NORTH BAY A","6085701","2019-04-13 20:00","2019","04","13","20:00","1.6","","-2.5","","74","","","","27","","18","","24.1","","97.09","","","","","","NA"
"-79.42","46.36","NORTH BAY A","6085701","2019-04-13 21:00","2019","04","13","21:00","1.3","","-2.6","","75","","","","27","","24","","24.1","","97.13","","","","","","NA"
"-79.42","46.36","NORTH BAY A","6085701","2019-04-13 22:00","2019","04","13","22:00"
"-79.42","46.36","NORTH BAY A","6085701","2019-04-13 23:00","2019","04","13","23:00"
"-79.42","46.36","NORTH BAY A","6085701","2019-04-14 00:00","2019","04","14","00:00"
"-79.42","46.36","NORTH BAY A","6085701","2019-04-14 01:00","2019","04","14","01:00"
"-79.42","46.36","NORTH BAY A","6085701","2019-04-14 02:00","2019","04","14","02:00"
"-79.42","46.36","NORTH BAY A","6085701","2019-04-14 03:00","2019","04","14","03:00"
"-79.42","46.36","NORTH BAY A","6085701","2019-04-14 04:00","2019","04","14","04:00"
"-79.42","46.36","NORTH BAY A","6085701","2019-04-14 05:00","2019","04","14","05:00"
"-79.42","46.36","NORTH BAY A","6085701","2019-04-14 06:00","2019","04","14","06:00","-2.2","","-3.9","","88","","","","33","","16","","48.3","","97.20","","","","-7","","NA"
"-79.42","46.36","NORTH BAY A","6085701","2019-04-14 07:00","2019","04","14","07:00","-1.6","","-4.3","","82","","","","32","","13","","48.3","","97.33","","","","-6","","Cloudy"
"-79.42","46.36","NORTH BAY A","6085701","2019-04-14 08:00","2019","04","14","08:00","0.1","","-4.4","","72","","","","4","","19","","48.3","","97.24","","","","","","NA"
"-79.42","46.36","NORTH BAY A","6085701","2019-04-14 09:00","2019","04","14","09:00","0.7","","-4.4","","69","","","","3","","8","","48.3","","97.18","","","","","","NA"
"-79.42","46.36","NORTH BAY A","6085701","2019-04-14 10:00","2019","04","14","10:00","1.2","","-4.2","","67","","","","12","","8","","48.3","","97.11","","","","","","Mostly Cloudy"
"-79.42","46.36","NORTH BAY A","6085701","2019-04-14 11:00","2019","04","14","11:00","2.0","","-4.1","","64","","","","12","","7","","48.3","","97.05","","","","","","NA"
"-79.42","46.36","NORTH BAY A","6085701","2019-04-14 12:00","2019","04","14","12:00","2.7","","-4.4","","60","","","","6","","27","","48.3","","96.85","","","","","","NA"
"-79.42","46.36","NORTH BAY A","6085701","2019-04-14 13:00","2019","04","14","13:00","3.7","","-4.0","","57","","","","9","","13","","48.3","","96.76","","","","","","Cloudy"
"-79.42","46.36","NORTH BAY A","6085701","2019-04-14 14:00","2019","04","14","14:00","3.3","","-3.3","","62","","","","8","","15","","48.3","","96.65","","","","","","NA"
"-79.42","46.36","NORTH BAY A","6085701","2019-04-14 15:00","2019","04","14","15:00","4.5","","-4.0","","54","","","","5","","25","","48.3","","96.51","","","","","","NA"
"-79.42","46.36","NORTH BAY A","6085701","2019-04-14 16:00","2019","04","14","16:00","4.6","","-4.1","","53","","","","5","","27","","48.3","","96.40","","","","","","Cloudy"
"-79.42","46.36","NORTH BAY A","6085701","2019-04-14 17:00","2019","04","14","17:00","4.9","","-4.1","","52","","","","5","","28","","48.3","","96.23","","","","","","NA"
"-79.42","46.36","NORTH BAY A","6085701","2019-04-14 18:00","2019","04","14","18:00","4.2","","-3.0","","59","","","","5","","28","","24.1","","96.22","","","","","","Snow"
"-79.42","46.36","NORTH BAY A","6085701","2019-04-14 19:00","2019","04","14","19:00","1.0","","0.3","","95","","","","6","","27","","3.2","","96.25","","","","","","Snow"
"-79.42","46.36","NORTH BAY A","6085701","2019-04-14 20:00","2019","04","14","20:00","0.4","","0.4","","100","","","","5","","25","","0.8","","96.11","","","","","","Moderate Snow"
"-79.42","46.36","NORTH BAY A","6085701","2019-04-14 21:00","2019","04","14","21:00","0.5","","0.4","","99","","","","5","","26","","2.4","","96.05","","","","","","Snow"
"-79.42","46.36","NORTH BAY A","6085701","2019-04-14 22:00","2019","04","14","22:00"
"-79.42","46.36","NORTH BAY A","6085701","2019-04-14 23:00","2019","04","14","23:00"
"-79.42","46.36","NORTH BAY A","6085701","2019-04-15 00:00","2019","04","15","00:00"
"-79.42","46.36","NORTH BAY A","6085701","2019-04-15 01:00","2019","04","15","01:00"
"-79.42","46.36","NORTH BAY A","6085701","2019-04-15 02:00","2019","04","15","02:00"
"-79.42","46.36","NORTH BAY A","6085701","2019-04-15 03:00","2019","04","15","03:00"
"-79.42","46.36","NORTH BAY A","6085701","2019-04-15 04:00","2019","04","15","04:00"
"-79.42","46.36","NORTH BAY A","6085701","2019-04-15 05:00","2019","04","15","05:00"
"-79.42","46.36","NORTH BAY A","6085701","2019-04-15 06:00","2019","04","15","06:00","-2.1","","-2.6","","96","","","","36","","27","","1.2","","95.47","","","","-9","","Snow,Blowing Snow"
"-79.42","46.36","NORTH BAY A","6085701","2019-04-15 07:00","2019","04","15","07:00","-1.8","","-2.6","","94","","","","36","","23","","4.8","","95.58","","","","-8","","Snow,Blowing Snow"
"-79.42","46.36","NORTH BAY A","6085701","2019-04-15 08:00","2019","04","15","08:00","-1.8","","-3.2","","90","","","","36","","20","","24.1","","95.64","","","","-8","","Snow,Blowing Snow"
"-79.42","46.36","NORTH BAY A","6085701","2019-04-15 09:00","2019","04","15","09:00","-0.9","","-4.2","","78","","","","35","","31","","48.3","","95.72","","","","-8","","NA"
"-79.42","46.36","NORTH BAY A","6085701","2019-04-15 10:00","2019","04","15","10:00","-0.4","","-4.4","","74","","","","34","","27","","48.3","","95.82","","","","-7","","Cloudy"
"-79.42","46.36","NORTH BAY A","6085701","2019-04-15 11:00","2019","04","15","11:00","1.1","","-5.1","","63","","","","34","","30","","48.3","","95.83","","","","","","NA"
"-79.42","46.36","NORTH BAY A","6085701","2019-04-15 12:00","2019","04","15","12:00","2.6","","-5.0","","58","","","","33","","31","","48.3","","95.88","","","","","","NA"
"-79.42","46.36","NORTH BAY A","6085701","2019-04-15 13:00","2019","04","15","13:00","3.2","","-4.4","","57","","","","33","","42","","48.3","","95.97","","","","","","Mostly Cloudy"
"-79.42","46.36","NORTH BAY A","6085701","2019-04-15 14:00","2019","04","15","14:00","4.2","","-5.5","","49","","","","35","","37","","48.3","","96.05","","","","","","NA"
"-79.42","46.36","NORTH BAY A","6085701","2019-04-15 15:00","2019","04","15","15:00","4.6","","-5.4","","48","","","","34","","34","","48.3","","96.13","","","","","","NA"
"-79.42","46.36","NORTH BAY A","6085701","2019-04-15 16:00","2019","04","15","16:00","4.7","","-5.7","","47","","","","33","","40","","48.3","","96.23","","","","","","Mainly Clear"
"-79.42","46.36","NORTH BAY A","6085701","2019-04-15 17:00","2019","04","15","17:00","4.9","","-5.8","","46","","","","33","","32","","48.3","","96.36","","","","","","NA"
"-79.42","46.36","NORTH BAY A","6085701","2019-04-15 18:00","2019","04","15","18:00","3.9","","-4.5","","54","","","","33","","35","","48.3","","96.48","","","","","","NA"
"-79.42","46.36","NORTH BAY A","6085701","2019-04-15 19:00","2019","04","15","19:00","2.5","","-4.5","","60","","","","34","","15","","48.3","","96.62","","","","","","Mainly Clear"
"-79.42","46.36","NORTH BAY A","6085701","2019-04-15 20:00","2019","04","15","20:00","-0.2","","-4.5","","73","","","","33","","16","","24.1","","96.73","","","","-5","","NA"
"-79.42","46.36","NORTH BAY A","6085701","2019-04-15 21:00","2019","04","15","21:00","-0.2","","-5.2","","69","","","","33","","17","","24.1","","96.80","","","","-5","","NA"
"-79.42","46.36","NORTH BAY A","6085701","2019-04-15 22:00","2019","04","15","22:00"
"-79.42","46.36","NORTH BAY A","6085701","2019-04-15 23:00","2019","04","15","23:00"
"-79.42","46.36","NORTH BAY A","6085701","2019-04-16 00:00","2019","04","16","00:00"
"-79.42","46.36","NORTH BAY A","6085701","2019-04-16 01:00","2019","04","16","01:00"
"-79.42","46.36","NORTH BAY A","6085701","2019-04-16 02:00","2019","04","16","02:00"
"-79.42","46.36","NORTH BAY A","6085701","2019-04-16 03:00","2019","04","16","03:00"
"-79.42","46.36","NORTH BAY A","6085701","2019-04-16 04:00","2019","04","16","04:00"
"-79.42","46.36","NORTH BAY A","6085701","2019-04-16 05:00","2019","04","16","05:00"
"-79.42","46.36","NORTH BAY A","6085701","2019-04-16 06:00","2019","04","16","06:00","-5.5","","-6.6","","92","","","","32","","19","","48.3","","97.26","","","","-12","","NA"
"-79.42","46.36","NORTH BAY A","6085701","2019-04-16 07:00","2019","04","16","07:00","-2.2","","-5.2","","80","","","","33","","15","","48.3","","97.28","","","","-7","","Mainly Clear"
"-79.42","46.36","NORTH BAY A","6085701","2019-04-16 08:00","2019","04","16","08:00","1.0","","-4.4","","67","","","","33","","18","","48.3","","97.29","","","","","","NA"
"-79.42","46.36","NORTH BAY A","6085701","2019-04-16 09:00","2019","04","16","09:00","2.9","","-4.0","","60","","","","32","","22","","48.3","","97.31","","","","","","NA"
"-79.42","46.36","NORTH BAY A","6085701","2019-04-16 10:00","2019","04","16","10:00","3.3","","-2.4","","66","","","","29","","16","","48.3","","97.31","","","","","","Mainly Clear"
"-79.42","46.36","NORTH BAY A","6085701","2019-04-16 11:00","2019","04","16","11:00","3.0","","-3.1","","64","","","","22","","13","","48.3","","97.29","","","","","","NA"
"-79.42","46.36","NORTH BAY A","6085701","2019-04-16 12:00","2019","04","16","12:00","4.3","","-3.0","","59","","","","23","","17","","48.3","","97.23","","","","","","NA"
"-79.42","46.36","NORTH BAY A","6085701","2019-04-16 13:00","2019","04","16","13:00","4.5","","-2.2","","62","","","","21","","23","","48.3","","97.20","","","","","","Mainly Clear"
"-79.42","46.36","NORTH BAY A","6085701","2019-04-16 14:00","2019","04","16","14:00","4.8","","-2.9","","58","","","","23","","18","","48.3","","97.20","","","","","","NA"
"-79.42","46.36","NORTH BAY A","6085701","2019-04-16 15:00","2019","04","16","15:00","5.7","","-2.2","","57","","","","21","","18","","48.3","","97.20","","","","","","NA"
"-79.42","46.36","NORTH BAY A","6085701","2019-04-16 16:00","2019","04","16","16:00","5.4","","-2.9","","55","","","","21","","19","","48.3","","97.19","","","","","","Mostly Cloudy"
"-79.42","46.36","NORTH BAY A","6085701","2019-04-16 17:00","2019","04","16","17:00","6.2","","-4.8","","45","","","","28","","22","","48.3","","97.21","","","","","","NA"
"-79.42","46.36","NORTH BAY A","6085701","2019-04-16 18:00","2019","04","16","18:00","6.8","","-4.9","","43","","","","25","","9","","48.3","","97.25","","","","","","NA"
"-79.42","46.36","NORTH BAY A","6085701","2019-04-16 19:00","2019","04","16","19:00","4.6","","-3.9","","54","","","","30","","7","","48.3","","97.27","","","","","","Mostly Cloudy"
"-79.42","46.36","NORTH BAY A","6085701","2019-04-16 20:00","2019","04","16","20:00","1.4","","-2.4","","76","","","","32","","15","","24.1","","97.34","","","","","","NA"
"-79.42","46.36","NORTH BAY A","6085701","2019-04-16 21:00","2019","04","16","21:00","0.0","","-4.3","","73","","","","30","","17","","24.1","","97.40","","","","-5","","NA"
"-79.42","46.36","NORTH BAY A","6085701","2019-04-16 22:00","2019","04","16","22:00"
"-79.42","46.36","NORTH BAY A","6085701","2019-04-16 23:00","2019","04","16","23:00"
"-79.42","46.36","NORTH BAY A","6085701","2019-04-17 00:00","2019","04","17","00:00"
"-79.42","46.36","NORTH BAY A","6085701","2019-04-17 01:00","2019","04","17","01:00"
"-79.42","46.36","NORTH BAY A","6085701","2019-04-17 02:00","2019","04","17","02:00"
"-79.42","46.36","NORTH BAY A","6085701","2019-04-17 03:00","2019","04","17","03:00"
"-79.42","46.36","NORTH BAY A","6085701","2019-04-17 04:00","2019","04","17","04:00"
"-79.42","46.36","NORTH BAY A","6085701","2019-04-17 05:00","2019","04","17","05:00"
"-79.42","46.36","NORTH BAY A","6085701","2019-04-17 06:00","2019","04","17","06:00","-3.5","","-6.5","","80","","","","9","","5","","48.3","","97.66","","","","-6","","NA"
"-79.42","46.36","NORTH BAY A","6085701","2019-04-17 07:00","2019","04","17","07:00","-1.6","","-5.8","","73","","","","10","","5","","48.3","","97.71","","","","-3","","Clear"
"-79.42","46.36","NORTH BAY A","6085701","2019-04-17 08:00","2019","04","17","08:00","3.4","","-6.1","","50","","","","5","","10","","48.3","","97.71","","","","","","NA"
"-79.42","46.36","NORTH BAY A","6085701","2019-04-17 09:00","2019","04","17","09:00","5.7","","-3.6","","51","","","","13","","9","","48.3","","97.67","","","","","","NA"
"-79.42","46.36","NORTH BAY A","6085701","2019-04-17 10:00","2019","04","17","10:00","6.3","","-4.2","","47","","","","13","","8","","48.3","","97.69","","","","","","Mainly Clear"
"-79.42","46.36","NORTH BAY A","6085701","2019-04-17 11:00","2019","04","17","11:00","8.3","","-6.5","","35","","","","5","","10","","48.3","","97.69","","","","","","NA"
"-79.42","46.36","NORTH BAY A","6085701","2019-04-17 12:00","2019","04","17","12:00","9.1","","-5.6","","35","","","","17","","10","","48.3","","97.67","","","","","","NA"
"-79.42","46.36","NORTH BAY A","6085701","2019-04-17 13:00","2019","04","17","13:00","10.2","","-8.3","","26","","","","31","","10","","48.3","","97.61","","","","","","Mainly Clear"
"-79.42","46.36","NORTH BAY A","6085701","2019-04-17 14:00","2019","04","17","14:00","9.5","","-4.6","","37","","","","5","","12","","48.3","","97.52","","","","","","NA"
"-79.42","46.36","NORTH BAY A","6085701","2019-04-17 15:00","2019","04","17","15:00","10.3","","-6.9","","29","","","","16","","13","","48.3","","97.43","","","","","","NA"
"-79.42","46.36","NORTH BAY A","6085701","2019-04-17 16:00","2019","04","17","16:00","12.0","","-7.5","","25","","","","3","","12","","48.3","","97.36","","","","","","Mainly Clear"
"-79.42","46.36","NORTH BAY A","6085701","2019-04-17 17:00","2019","04","17","17:00","10.0","","-5.3","","34","","","","14","","11","","48.3","","97.29","","","","","","NA"
"-79.42","46.36","NORTH BAY A","6085701","2019-04-17 18:00","2019","04","17","18:00","9.0","","-4.5","","38","","","","11","","12","","48.3","","97.25","","","","","","NA"
"-79.42","46.36","NORTH BAY A","6085701","2019-04-17 19:00","2019","04","17","19:00","8.5","","-6.0","","35","","","","8","","12","","48.3","","97.19","","","","","","Mostly Cloudy"
"-79.42","46.36","NORTH BAY A","6085701","2019-04-17 20:00","2019","04","17","20:00","6.1","","-4.6","","46","","","","10","","13","","24.1","","97.15","","","","","","NA"
"-79.42","46.36","NORTH BAY A","6085701","2019-04-17 21:00","2019","04","17","21:00","6.8","","-4.1","","46","","","","8","","19","","24.1","","97.12","","","","","","NA"
"-79.42","46.36","NORTH BAY A","6085701","2019-04-17 22:00","2019","04","17","22:00"
"-79.42","46.36","NORTH BAY A","6085701","2019-04-17 23:00","2019","04","17","23:00"
"-79.42","46.36","NORTH BAY A","6085701","2019-04-18 00:00","2019","04","18","00:00"
"-79.42","46.36","NORTH BAY A","6085701","2019-04-18 01:00","2019","04","18","01:00"
"-79.42","46.36","NORTH BAY A","6085701","2019-04-18 02:00","2019","04","18","02:00"
"-79.42","46.36","NORTH BAY A","6085701","2019-04-18 03:00","2019","04","18","03:00"
"-79.42","46.36","NORTH BAY A","6085701","2019-04-18 04:00","2019","04","18","04:00"
"-79.42","46.36","NORTH BAY A","6085701","2019-04-18 05:00","2019","04","18","05:00"
"-79.42","46.36","NORTH BAY A","6085701","2019-04-18 06:00","2019","04","18","06:00","2.3","","2.0","","98","","","","10","","14","","9.7","","95.90","","","","","","Rain,Fog"
"-79.42","46.36","NORTH BAY A","6085701","2019-04-18 07:00","2019","04","18","07:00","3.3","","2.9","","97","","","","14","","21","","24.1","","95.82","","","","","","Drizzle"
"-79.42","46.36","NORTH BAY A","6085701","2019-04-18 08:00","2019","04","18","08:00","3.8","","3.8","","100","","","","12","","15","","12.9","","95.78","","","","","","Rain"
"-79.42","46.36","NORTH BAY A","6085701","2019-04-18 09:00","2019","04","18","09:00","4.5","","4.5","","100","","","","17","","19","","32.2","","95.71","","","","","","NA"
"-79.42","46.36","NORTH BAY A","6085701","2019-04-18 10:00","2019","04","18","10:00","5.8","","5.7","","99","","","","18","","24","","48.3","","95.68","","","","","","Cloudy"
"-79.42","46.36","NORTH BAY A","6085701","2019-04-18 11:00","2019","04","18","11:00","6.1","","6.0","","99","","","","19","","18","","48.3","","95.66","","","","","","NA"
"-79.42","46.36","NORTH BAY A","6085701","2019-04-18 12:00","2019","04","18","12:00","7.5","","6.7","","95","","","","20","","27","","48.3","","95.65","","","","","","NA"
"-79.42","46.36","NORTH BAY A","6085701","2019-04-18 13:00","2019","04","18","13:00","6.8","","6.5","","98","","","","19","","19","","4.0","","95.63","","","","","","Rain,Fog"
"-79.42","46.36","NORTH BAY A","6085701","2019-04-18 14:00","2019","04","18","14:00","7.1","","7.1","","100","","","","23","","13","","0.4","","95.69","","","","","","Moderate Rain,Fog"
"-79.42","46.36","NORTH BAY A","6085701","2019-04-18 15:00","2019","04","18","15:00","7.8","","7.8","","100","","","","16","","4","","0.4","","95.59","","","","","","Moderate Rain,Fog"
"-79.42","46.36","NORTH BAY A","6085701","2019-04-18 16:00","2019","04","18","16:00","8.3","","8.3","","100","","","","25","","5","","0.4","","95.56","","","","","","Rain,Fog"
"-79.42","46.36","NORTH BAY A","6085701","2019-04-18 17:00","2019","04","18","17:00","8.6","","8.6","","100","","","","32","","18","","0.8","","95.53","","","","","","Rain,Fog"
"-79.42","46.36","NORTH BAY A","6085701","2019-04-18 18:00","2019","04","18","18:00","7.9","","7.9","","100","","","","31","","14","","0.4","","95.59","","","","","","Rain,Fog"
"-79.42","46.36","NORTH BAY A","6085701","2019-04-18 19:00","2019","04","18","19:00","6.2","","6.2","","100","","","","32","","22","","3.2","","95.64","","","","","","Rain,Fog"
"-79.42","46.36","NORTH BAY A","6085701","2019-04-18 20:00","2019","04","18","20:00","3.9","","3.9","","100","","","","34","","18","","16.1","","95.73","","","","","","Moderate Rain"
"-79.42","46.36","NORTH BAY A","6085701","2019-04-18 21:00","2019","04","18","21:00","3.0","","3.0","","100","","","","34","","16","","19.3","","95.80","","","","","","Moderate Rain"
"-79.42","46.36","NORTH BAY A","6085701","2019-04-18 22:00","2019","04","18","22:00"
"-79.42","46.36","NORTH BAY A","6085701","2019-04-18 23:00","2019","04","18","23:00"
"-79.42","46.36","NORTH BAY A","6085701","2019-04-19 00:00","2019","04","19","00:00"
"-79.42","46.36","NORTH BAY A","6085701","2019-04-19 01:00","2019","04","19","01:00"
"-79.42","46.36","NORTH BAY A","6085701","2019-04-19 02:00","2019","04","19","02:00"
"-79.42","46.36","NORTH BAY A","6085701","2019-04-19 03:00","2019","04","19","03:00"
"-79.42","46.36","NORTH BAY A","6085701","2019-04-19 04:00","2019","04","19","04:00"
"-79.42","46.36","NORTH BAY A","6085701","2019-04-19 05:00","2019","04","19","05:00"
"-79.42","46.36","NORTH BAY A","6085701","2019-04-19 06:00","2019","04","19","06:00","1.1","","0.8","","98","","","","1","","13","","16.1","","96.32","","","","","","Rain"
"-79.42","46.36","NORTH BAY A","6085701","2019-04-19 07:00","2019","04","19","07:00","1.2","","0.9","","98","","","","1","","14","","16.1","","96.34","","","","","","Rain"
"-79.42","46.36","NORTH BAY A","6085701","2019-04-19 08:00","2019","04","19","08:00","1.1","","0.8","","98","","","","3","","19","","8.1","","96.34","","","","","","Snow"
"-79.42","46.36","NORTH BAY A","6085701","2019-04-19 09:00","2019","04","19","09:00","1.6","","0.9","","95","","","","4","","28","","24.1","","96.33","","","","","","Rain,Snow"
"-79.42","46.36","NORTH BAY A","6085701","2019-04-19 10:00","2019","04","19","10:00","1.6","","1.0","","96","","","","4","","22","","11.3","","96.49","","","","","","Snow"
"-79.42","46.36","NORTH BAY A","6085701","2019-04-19 11:00","2019","04","19","11:00","1.3","","0.9","","97","","","","36","","15","","8.1","","96.56","","","","","","Snow"
"-79.42","46.36","NORTH BAY A","6085701","2019-04-19 12:00","2019","04","19","12:00","1.5","","1.1","","97","","","","2","","17","","9.7","","96.58","","","","","","Snow"
"-79.42","46.36","NORTH BAY A","6085701","2019-04-19 13:00","2019","04","19","13:00","2.0","","1.3","","95","","","","1","","13","","12.9","","96.62","","","","","","Snow"
"-79.42","46.36","NORTH BAY A","6085701","2019-04-19 14:00","2019","04","19","14:00","2.5","","1.5","","93","","","","2","","16","","24.1","","96.61","","","","","","Snow"
"-79.42","46.36","NORTH BAY A","6085701","2019-04-19 15:00","2019","04","19","15:00","2.7","","1.4","","91","","","","4","","12","","32.2","","96.61","","","","","","Snow"
"-79.42","46.36","NORTH BAY A","6085701","2019-04-19 16:00","2019","04","19","16:00","3.0","","1.5","","90","","","","32","","8","","32.2","","96.67","","","","","","Cloudy"
"-79.42","46.36","NORTH BAY A","6085701","2019-04-19 17:00","2019","04","19","17:00","2.9","","1.1","","88","","","","35","","13","","48.3","","96.76","","","","","","NA"
"-79.42","46.36","NORTH BAY A","6085701","2019-04-19 18:00","2019","04","19","18:00","2.7","","1.1","","89","","","","36","","12","","48.3","","96.74","","","","","","NA"
"-79.42","46.36","NORTH BAY A","6085701","2019-04-19 19:00","2019","04","19","19:00","2.4","","0.8","","89","","","","35","","11","","48.3","","96.79","","","","","","Mostly Cloudy"
"-79.42","46.36","NORTH BAY A","6085701","2019-04-19 20:00","2019","04","19","20:00","2.3","","0.7","","89","","","","35","","12","","24.1","","96.81","","","","","","NA"
"-79.42","46.36","NORTH BAY A","6085701","2019-04-19 21:00","2019","04","19","21:00","2.4","","0.3","","86","","","","2","","10","","24.1","","96.85","","","","","","NA"
"-79.42","46.36","NORTH BAY A","6085701","2019-04-19 22:00","2019","04","19","22:00"
"-79.42","46.36","NORTH BAY A","6085701","2019-04-19 23:00","2019","04","19","23:00"
"-79.42","46.36","NORTH BAY A","6085701","2019-04-20 00:00","2019","04","20","00:00"
"-79.42","46.36","NORTH BAY A","6085701","2019-04-20 01:00","2019","04","20","01:00"
"-79.42","46.36","NORTH BAY A","6085701","2019-04-20 02:00","2019","04","20","02:00"
"-79.42","46.36","NORTH BAY A","6085701","2019-04-20 03:00","2019","04","20","03:00"
"-79.42","46.36","NORTH BAY A","6085701","2019-04-20 04:00","2019","04","20","04:00"
"-79.42","46.36","NORTH BAY A","6085701","2019-04-20 05:00","2019","04","20","05:00"
"-79.42","46.36","NORTH BAY A","6085701","2019-04-20 06:00","2019","04","20","06:00","1.8","","-0.4","","85","","","","4","","25","","48.3","","96.85","","","","","","NA"
"-79.42","46.36","NORTH BAY A","6085701","2019-04-20 07:00","2019","04","20","07:00","2.8","","-0.2","","81","","","","4","","30","","48.3","","96.80","","","","","","Mostly Cloudy"
"-79.42","46.36","NORTH BAY A","6085701","2019-04-20 08:00","2019","04","20","08:00","3.5","","0.2","","79","","","","5","","32","","48.3","","96.77","","","","","","NA"
"-79.42","46.36","NORTH BAY A","6085701","2019-04-20 09:00","2019","04","20","09:00","6.0","","1.0","","70","","","","6","","25","","48.3","","96.75","","","","","","NA"
"-79.42","46.36","NORTH BAY A","6085701","2019-04-20 10:00","2019","04","20","10:00","7.2","","1.1","","65","","","","5","","23","","48.3","","96.74","","","","","","Mostly Cloudy"
"-79.42","46.36","NORTH BAY A","6085701","2019-04-20 11:00","2019","04","20","11:00","8.5","","1.3","","61","","","","4","","32","","48.3","","96.72","","","","","","NA"
"-79.42","46.36","NORTH BAY A","6085701","2019-04-20 12:00","2019","04","20","12:00","9.6","","1.3","","56","","","","5","","32","","48.3","","96.66","","","","","","NA"
"-79.42","46.36","NORTH BAY A","6085701","2019-04-20 13:00","2019","04","20","13:00","10.6","","1.7","","54","","","","7","","33","","48.3","","96.56","","","","","","Mostly Cloudy"
"-79.42","46.36","NORTH BAY A","6085701","2019-04-20 14:00","2019","04","20","14:00","11.4","","1.6","","51","","","","5","","30","","48.3","","96.49","","","","","","NA"
"-79.42","46.36","NORTH BAY A","6085701","2019-04-20 15:00","2019","04","20","15:00","11.3","","1.8","","52","","","","4","","25","","48.3","","96.39","","","","","","NA"
"-79.42","46.36","NORTH BAY A","6085701","2019-04-20 16:00","2019","04","20","16:00","11.8","","2.0","","51","","","","5","","30","","48.3","","96.34","","","","","","Mainly Clear"
"-79.42","46.36","NORTH BAY A","6085701","2019-04-20 17:00","2019","04","20","17:00","11.1","","2.2","","54","","","","5","","26","","48.3","","96.31","","","","","","NA"
"-79.42","46.36","NORTH BAY A","6085701","2019-04-20 18:00","2019","04","20","18:00","9.2","","2.1","","61","","","","6","","21","","48.3","","96.35","","","","","","NA"
"-79.42","46.36","NORTH BAY A","6085701","2019-04-20 19:00","2019","04","20","19:00","6.7","","5.6","","92","","","","7","","10","","8.1","","96.35","","","","","","Rain"
"-79.42","46.36","NORTH BAY A","6085701","2019-04-20 20:00","2019","04","20","20:00","6.4","","5.2","","92","","","","9","","10","","24.1","","96.37","","","","","","NA"
"-79.42","46.36","NORTH BAY A","6085701","2019-04-20 21:00","2019","04","20","21:00","5.9","","5.1","","95","","","","17","","4","","24.1","","96.45","","","","","","NA"
"-79.42","46.36","NORTH BAY A","6085701","2019-04-20 22:00","2019","04","20","22:00"
"-79.42","46.36","NORTH BAY A","6085701","2019-04-20 23:00","2019","04","20","23:00"
"-79.42","46.36","NORTH BAY A","6085701","2019-04-21 00:00","2019","04","21","00:00"
"-79.42","46.36","NORTH BAY A","6085701","2019-04-21 01:00","2019","04","21","01:00"
"-79.42","46.36","NORTH BAY A","6085701","2019-04-21 02:00","2019","04","21","02:00"
"-79.42","46.36","NORTH BAY A","6085701","2019-04-21 03:00","2019","04","21","03:00"
"-79.42","46.36","NORTH BAY A","6085701","2019-04-21 04:00","2019","04","21","04:00"
"-79.42","46.36","NORTH BAY A","6085701","2019-04-21 05:00","2019","04","21","05:00"
"-79.42","46.36","NORTH BAY A","6085701","2019-04-21 06:00","2019","04","21","06:00","2.3","","2.3","","100","","","","27","","6","","0.4","","96.71","","","","","","Fog"
"-79.42","46.36","NORTH BAY A","6085701","2019-04-21 07:00","2019","04","21","07:00","2.5","","2.5","","100","","","","32","","15","","0.8","","96.82","","","","","","Fog"
"-79.42","46.36","NORTH BAY A","6085701","2019-04-21 08:00","2019","04","21","08:00","5.9","","5.9","","100","","","","31","","27","","48.3","","96.92","","","","","","NA"
"-79.42","46.36","NORTH BAY A","6085701","2019-04-21 09:00","2019","04","21","09:00","7.1","","5.3","","88","","","","16","","13","","48.3","","97.03","","","","","","NA"
"-79.42","46.36","NORTH BAY A","6085701","2019-04-21 10:00","2019","04","21","10:00","6.4","","5.1","","92","","","","20","","16","","48.3","","97.10","","","","","","Mostly Cloudy"
"-79.42","46.36","NORTH BAY A","6085701","2019-04-21 11:00","2019","04","21","11:00","9.2","","5.4","","77","","","","21","","13","","48.3","","97.13","","","","","","NA"
"-79.42","46.36","NORTH BAY A","6085701","2019-04-21 12:00","2019","04","21","12:00","9.2","","5.1","","75","","","","17","","7","","48.3","","97.17","","","","","","NA"
"-79.42","46.36","NORTH BAY A","6085701","2019-04-21 13:00","2019","04","21","13:00","9.6","","3.7","","67","","","","21","","17","","48.3","","97.24","","","","","","Mostly Cloudy"
"-79.42","46.36","NORTH BAY A","6085701","2019-04-21 14:00","2019","04","21","14:00","11.5","","3.5","","58","","","","24","","8","","48.3","","97.27","","","","","","NA"
"-79.42","46.36","NORTH BAY A","6085701","2019-04-21 15:00","2019","04","21","15:00","12.2","","2.7","","52","","","","21","","13","","48.3","","97.29","","","","","","NA"
"-79.42","46.36","NORTH BAY A","6085701","2019-04-21 16:00","2019","04","21","16:00","13.4","","2.1","","46","","","","22","","15","","48.3","","97.34","","","","","","Mainly Clear"
"-79.42","46.36","NORTH BAY A","6085701","2019-04-21 17:00","2019","04","21","17:00","13.3","","-0.7","","38","","","","23","","13","","48.3","","97.38","","","","","","NA"
"-79.42","46.36","NORTH BAY A","6085701","2019-04-21 18:00","2019","04","21","18:00","12.9","","-2.3","","35","","","","24","","7","","48.3","","97.45","","","","","","NA"
"-79.42","46.36","NORTH BAY A","6085701","2019-04-21 19:00","2019","04","21","19:00","10.5","","-0.7","","46","","","","31","","19","","48.3","","97.52","","","","","","Mostly Cloudy"
"-79.42","46.36","NORTH BAY A","6085701","2019-04-21 20:00","2019","04","21","20:00","8.9","","0.0","","54","","","","3","","18","","24.1","","97.60","","","","","","NA"
"-79.42","46.36","NORTH BAY A","6085701","2019-04-21 21:00","2019","04","21","21:00","10.0","","0.1","","50","","","","3","","12","","24.1","","97.69","","","","","","NA"
"-79.42","46.36","NORTH BAY A","6085701","2019-04-21 22:00","2019","04","21","22:00"
"-79.42","46.36","NORTH BAY A","6085701","2019-04-21 23:00","2019","04","21","23:00"
"-79.42","46.36","NORTH BAY A","6085701","2019-04-22 00:00","2019","04","22","00:00"
"-79.42","46.36","NORTH BAY A","6085701","2019-04-22 01:00","2019","04","22","01:00"
"-79.42","46.36","NORTH BAY A","6085701","2019-04-22 02:00","2019","04","22","02:00"
"-79.42","46.36","NORTH BAY A","6085701","2019-04-22 03:00","2019","04","22","03:00"
"-79.42","46.36","NORTH BAY A","6085701","2019-04-22 04:00","2019","04","22","04:00"
"-79.42","46.36","NORTH BAY A","6085701","2019-04-22 05:00","2019","04","22","05:00"
"-79.42","46.36","NORTH BAY A","6085701","2019-04-22 06:00","2019","04","22","06:00","5.2","","0.7","","73","","","","6","","27","","48.3","","97.99","","","","","","NA"
"-79.42","46.36","NORTH BAY A","6085701","2019-04-22 07:00","2019","04","22","07:00","5.0","","0.8","","74","","","","6","","26","","48.3","","98.04","","","","","","Cloudy"
"-79.42","46.36","NORTH BAY A","6085701","2019-04-22 08:00","2019","04","22","08:00","5.0","","0.8","","74","","","","6","","28","","48.3","","98.00","","","","","","NA"
"-79.42","46.36","NORTH BAY A","6085701","2019-04-22 09:00","2019","04","22","09:00","5.1","","0.9","","74","","","","5","","21","","48.3","","98.06","","","","","","NA"
"-79.42","46.36","NORTH BAY A","6085701","2019-04-22 10:00","2019","04","22","10:00","5.7","","1.2","","73","","","","8","","17","","48.3","","98.07","","","","","","Cloudy"
"-79.42","46.36","NORTH BAY A","6085701","2019-04-22 11:00","2019","04","22","11:00","7.2","","2.7","","73","","","","6","","23","","48.3","","98.03","","","","","","NA"
"-79.42","46.36","NORTH BAY A","6085701","2019-04-22 12:00","2019","04","22","12:00","7.8","","3.3","","73","","","","9","","14","","48.3","","97.99","","","","","","NA"
"-79.42","46.36","NORTH BAY A","6085701","2019-04-22 13:00","2019","04","22","13:00","8.4","","3.5","","71","","","","7","","26","","48.3","","97.90","","","","","","Cloudy"
"-79.42","46.36","NORTH BAY A","6085701","2019-04-22 14:00","2019","04","22","14:00","10.0","","3.8","","65","","","","7","","25","","48.3","","97.84","","","","","","NA"
"-79.42","46.36","NORTH BAY A","6085701","2019-04-22 15:00","2019","04","22","15:00","10.7","","3.5","","61","","","","6","","23","","48.3","","97.77","","","","","","NA"
"-79.42","46.36","NORTH BAY A","6085701","2019-04-22 16:00","2019","04","22","16:00","10.5","","3.9","","64","","","","6","","26","","48.3","","97.68","","","","","","Mostly Cloudy"
"-79.42","46.36","NORTH BAY A","6085701","2019-04-22 17:00","2019","04","22","17:00","10.5","","4.5","","66","","","","6","","30","","48.3","","97.64","","","","","","NA"
"-79.42","46.36","NORTH BAY A","6085701","2019-04-22 18:00","2019","04","22","18:00","9.9","","4.5","","69","","","","6","","25","","48.3","","97.60","","","","","","NA"
"-79.42","46.36","NORTH BAY A","6085701","2019-04-22 19:00","2019","04","22","19:00","8.7","","3.4","","69","","","","6","","29","","48.3","","97.62","","","","","","Cloudy"
"-79.42","46.36","NORTH BAY A","6085701","2019-04-22 20:00","2019","04","22","20:00","8.5","","3.4","","70","","","","6","","28","","24.1","","97.61","","","","","","NA"
"-79.42","46.36","NORTH BAY A","6085701","2019-04-22 21:00","2019","04","22","21:00","8.1","","4.0","","75","","","","7","","27","","24.1","","97.58","","","","","","Rain"
"-79.42","46.36","NORTH BAY A","6085701","2019-04-22 22:00","2019","04","22","22:00"
"-79.42","46.36","NORTH BAY A","6085701","2019-04-22 23:00","2019","04","22","23:00"
"-79.42","46.36","NORTH BAY A","6085701","2019-04-23 00:00","2019","04","23","00:00"
"-79.42","46.36","NORTH BAY A","6085701","2019-04-23 01:00","2019","04","23","01:00"
"-79.42","46.36","NORTH BAY A","6085701","2019-04-23 02:00","2019","04","23","02:00"
"-79.42","46.36","NORTH BAY A","6085701","2019-04-23 03:00","2019","04","23","03:00"
"-79.42","46.36","NORTH BAY A","6085701","2019-04-23 04:00","2019","04","23","04:00"
"-79.42","46.36","NORTH BAY A","6085701","2019-04-23 05:00","2019","04","23","05:00"
"-79.42","46.36","NORTH BAY A","6085701","2019-04-23 06:00","2019","04","23","06:00","6.8","","3.2","","78","","","","12","","13","","48.3","","96.86","","","","","","NA"
"-79.42","46.36","NORTH BAY A","6085701","2019-04-23 07:00","2019","04","23","07:00","8.1","","3.9","","75","","","","13","","15","","48.3","","96.77","","","","","","Mostly Cloudy"
"-79.42","46.36","NORTH BAY A","6085701","2019-04-23 08:00","2019","04","23","08:00","8.5","","4.7","","77","","","","15","","18","","32.2","","96.61","","","","","","Rain Showers"
"-79.42","46.36","NORTH BAY A","6085701","2019-04-23 09:00","2019","04","23","09:00","10.2","","4.8","","69","","","","15","","21","","48.3","","96.50","","","","","","Rain Showers"
"-79.42","46.36","NORTH BAY A","6085701","2019-04-23 10:00","2019","04","23","10:00","10.1","","5.0","","71","","","","11","","14","","48.3","","96.37","","","","","","Rain Showers"
"-79.42","46.36","NORTH BAY A","6085701","2019-04-23 11:00","2019","04","23","11:00","11.3","","5.2","","66","","","","12","","16","","48.3","","96.24","","","","","","Rain Showers"
"-79.42","46.36","NORTH BAY A","6085701","2019-04-23 12:00","2019","04","23","12:00","10.4","","5.4","","71","","","","16","","13","","48.3","","96.16","","","","","","Rain Showers"
"-79.42","46.36","NORTH BAY A","6085701","2019-04-23 13:00","2019","04","23","13:00","10.4","","5.6","","72","","","","14","","14","","32.2","","96.03","","","","","","Rain Showers"
"-79.42","46.36","NORTH BAY A","6085701","2019-04-23 14:00","2019","04","23","14:00","9.2","","8.3","","94","","","","17","","9","","6.4","","95.96","","","","","","Rain Showers,Fog"
"-79.42","46.36","NORTH BAY A","6085701","2019-04-23 15:00","2019","04","23","15:00","8.2","","8.2","","100","","","","7","","10","","6.4","","95.88","","","","","","Rain Showers,Fog"
"-79.42","46.36","NORTH BAY A","6085701","2019-04-23 16:00","2019","04","23","16:00","7.9","","7.9","","100","","","","34","","12","","4.8","","95.82","","","","","","Rain,Fog"
"-79.42","46.36","NORTH BAY A","6085701","2019-04-23 17:00","2019","04","23","17:00","7.7","","7.7","","100","","","","5","","23","","16.1","","95.76","","","","","","NA"
"-79.42","46.36","NORTH BAY A","6085701","2019-04-23 18:00","2019","04","23","18:00","7.0","","7.0","","100","","","","33","","32","","3.2","","95.81","","","","","","Drizzle,Fog"
"-79.42","46.36","NORTH BAY A","6085701","2019-04-23 19:00","2019","04","23","19:00","4.8","","4.7","","99","","","","33","","40","","6.4","","95.85","","","","","","Drizzle,Fog"
"-79.42","46.36","NORTH BAY A","6085701","2019-04-23 20:00","2019","04","23","20:00","2.7","","2.7","","100","","","","33","","30","","12.9","","95.94","","","","","","Drizzle"
"-79.42","46.36","NORTH BAY A","6085701","2019-04-23 21:00","2019","04","23","21:00","2.2","","2.2","","100","","","","33","","41","","12.9","","96.03","","","","","","Drizzle"
"-79.42","46.36","NORTH BAY A","6085701","2019-04-23 22:00","2019","04","23","22:00"
"-79.42","46.36","NORTH BAY A","6085701","2019-04-23 23:00","2019","04","23","23:00"
"-79.42","46.36","NORTH BAY A","6085701","2019-04-24 00:00","2019","04","24","00:00"
"-79.42","46.36","NORTH BAY A","6085701","2019-04-24 01:00","2019","04","24","01:00"
"-79.42","46.36","NORTH BAY A","6085701","2019-04-24 02:00","2019","04","24","02:00"
"-79.42","46.36","NORTH BAY A","6085701","2019-04-24 03:00","2019","04","24","03:00"
"-79.42","46.36","NORTH BAY A","6085701","2019-04-24 04:00","2019","04","24","04:00"
"-79.42","46.36","NORTH BAY A","6085701","2019-04-24 05:00","2019","04","24","05:00"
"-79.42","46.36","NORTH BAY A","6085701","2019-04-24 06:00","2019","04","24","06:00","0.8","","0.8","","100","","","","33","","27","","16.1","","96.56","","","","","","Drizzle"
"-79.42","46.36","NORTH BAY A","6085701","2019-04-24 07:00","2019","04","24","07:00","1.0","","1.0","","100","","","","33","","25","","24.1","","96.66","","","","","","Cloudy"
"-79.42","46.36","NORTH BAY A","6085701","2019-04-24 08:00","2019","04","24","08:00","1.2","","1.2","","100","","","","32","","26","","16.1","","96.72","","","","","","Drizzle"
"-79.42","46.36","NORTH BAY A","6085701","2019-04-24 09:00","2019","04","24","09:00","1.6","","1.5","","99","","","","33","","28","","24.1","","96.76","","","","","","NA"
"-79.42","46.36","NORTH BAY A","6085701","2019-04-24 10:00","2019","04","24","10:00","1.9","","1.8","","99","","","","32","","32","","32.2","","96.86","","","","","","Cloudy"
"-79.42","46.36","NORTH BAY A","6085701","2019-04-24 11:00","2019","04","24","11:00","2.4","","2.0","","97","","","","32","","31","","40.2","","96.90","","","","","","NA"
"-79.42","46.36","NORTH BAY A","6085701","2019-04-24 12:00","2019","04","24","12:00","3.5","","2.3","","92","","","","32","","29","","48.3","","96.90","","","","","","NA"
"-79.42","46.36","NORTH BAY A","6085701","2019-04-24 13:00","2019","04","24","13:00","4.4","","2.5","","87","","","","33","","23","","48.3","","96.88","","","","","","Mostly Cloudy"
"-79.42","46.36","NORTH BAY A","6085701","2019-04-24 14:00","2019","04","24","14:00","5.2","","2.0","","80","","","","32","","30","","48.3","","96.86","","","","","","NA"
"-79.42","46.36","NORTH BAY A","6085701","2019-04-24 15:00","2019","04","24","15:00","5.5","","2.3","","80","","","","31","","25","","48.3","","96.86","","","","","","NA"
"-79.42","46.36","NORTH BAY A","6085701","2019-04-24 16:00","2019","04","24","16:00","5.7","","1.8","","76","","","","32","","22","","48.3","","96.83","","","","","","Cloudy"
"-79.42","46.36","NORTH BAY A","6085701","2019-04-24 17:00","2019","04","24","17:00","5.7","","1.7","","75","","","","32","","17","","48.3","","96.83","","","","","","NA"
"-79.42","46.36","NORTH BAY A","6085701","2019-04-24 18:00","2019","04","24","18:00","4.9","","1.8","","81","","","","23","","12","","48.3","","96.85","","","","","","NA"
"-79.42","46.36","NORTH BAY A","6085701","2019-04-24 19:00","2019","04","24","19:00","4.7","","1.9","","82","","","","22","","7","","48.3","","96.87","","","","","","Mostly Cloudy"
"-79.42","46.36","NORTH BAY A","6085701","2019-04-24 20:00","2019","04","24","20:00","2.4","","1.2","","92","","","","16","","9","","24.1","","96.90","","","","","","NA"
"-79.42","46.36","NORTH BAY A","6085701","2019-04-24 21:00","2019","04","24","21:00","2.7","","1.2","","90","","","","14","","9","","24.1","","96.88","","","","","","NA"
"-79.42","46.36","NORTH BAY A","6085701","2019-04-24 22:00","2019","04","24","22:00"
"-79.42","46.36","NORTH BAY A","6085701","2019-04-24 23:00","2019","04","24","23:00"
"-79.42","46.36","NORTH BAY A","6085701","2019-04-25 00:00","2019","04","25","00:00"
"-79.42","46.36","NORTH BAY A","6085701","2019-04-25 01:00","2019","04","25","01:00"
"-79.42","46.36","NORTH BAY A","6085701","2019-04-25 02:00","2019","04","25","02:00"
"-79.42","46.36","NORTH BAY A","6085701","2019-04-25 03:00","2019","04","25","03:00"
"-79.42","46.36","NORTH BAY A","6085701","2019-04-25 04:00","2019","04","25","04:00"
"-79.42","46.36","NORTH BAY A","6085701","2019-04-25 05:00","2019","04","25","05:00"
"-79.42","46.36","NORTH BAY A","6085701","2019-04-25 06:00","2019","04","25","06:00","1.0","","0.7","","98","","","","17","","13","","48.3","","96.73","","","","","","NA"
"-79.42","46.36","NORTH BAY A","6085701","2019-04-25 07:00","2019","04","25","07:00","2.6","","1.6","","93","","","","19","","22","","48.3","","96.76","","","","","","Mostly Cloudy"
"-79.42","46.36","NORTH BAY A","6085701","2019-04-25 08:00","2019","04","25","08:00","3.6","","1.9","","89","","","","18","","20","","48.3","","96.73","","","","","","NA"
"-79.42","46.36","NORTH BAY A","6085701","2019-04-25 09:00","2019","04","25","09:00","4.6","","2.5","","86","","","","19","","21","","48.3","","96.72","","","","","","NA"
"-79.42","46.36","NORTH BAY A","6085701","2019-04-25 10:00","2019","04","25","10:00","6.2","","2.7","","78","","","","19","","27","","48.3","","96.68","","","","","","Cloudy"
"-79.42","46.36","NORTH BAY A","6085701","2019-04-25 11:00","2019","04","25","11:00","7.2","","2.0","","69","","","","20","","30","","48.3","","96.66","","","","","","Rain"
"-79.42","46.36","NORTH BAY A","6085701","2019-04-25 12:00","2019","04","25","12:00","8.1","","2.5","","68","","","","21","","20","","48.3","","96.67","","","","","","NA"
"-79.42","46.36","NORTH BAY A","6085701","2019-04-25 13:00","2019","04","25","13:00","9.7","","2.1","","59","","","","23","","17","","48.3","","96.65","","","","","","Cloudy"
"-79.42","46.36","NORTH BAY A","6085701","2019-04-25 14:00","2019","04","25","14:00","10.4","","2.7","","59","","","","24","","15","","48.3","","96.63","","","","","","NA"
"-79.42","46.36","NORTH BAY A","6085701","2019-04-25 15:00","2019","04","25","15:00","11.3","","2.7","","55","","","","20","","26","","48.3","","96.56","","","","","","NA"
"-79.42","46.36","NORTH BAY A","6085701","2019-04-25 16:00","2019","04","25","16:00","13.6","","3.5","","50","","","","21","","21","","48.3","","96.54","","","","","","Mostly Cloudy"
"-79.42","46.36","NORTH BAY A","6085701","2019-04-25 17:00","2019","04","25","17:00","12.9","","4.3","","56","","","","24","","12","","48.3","","96.53","","","","","","NA"
"-79.42","46.36","NORTH BAY A","6085701","2019-04-25 18:00","2019","04","25","18:00","12.2","","3.6","","55","","","","26","","8","","48.3","","96.53","","","","","","NA"
"-79.42","46.36","NORTH BAY A","6085701","2019-04-25 19:00","2019","04","25","19:00","9.0","","4.0","","71","","","","32","","15","","48.3","","96.51","","","","","","Mostly Cloudy"
"-79.42","46.36","NORTH BAY A","6085701","2019-04-25 20:00","2019","04","25","20:00","6.7","","4.2","","84","","","","33","","14","","24.1","","96.54","","","","","","NA"
"-79.42","46.36","NORTH BAY A","6085701","2019-04-25 21:00","2019","04","25","21:00","6.9","","4.2","","83","","","","33","","13","","24.1","","96.53","","","","","","NA"
"-79.42","46.36","NORTH BAY A","6085701","2019-04-25 22:00","2019","04","25","22:00"
"-79.42","46.36","NORTH BAY A","6085701","2019-04-25 23:00","2019","04","25","23:00"
"-79.42","46.36","NORTH BAY A","6085701","2019-04-26 00:00","2019","04","26","00:00"
"-79.42","46.36","NORTH BAY A","6085701","2019-04-26 01:00","2019","04","26","01:00"
"-79.42","46.36","NORTH BAY A","6085701","2019-04-26 02:00","2019","04","26","02:00"
"-79.42","46.36","NORTH BAY A","6085701","2019-04-26 03:00","2019","04","26","03:00"
"-79.42","46.36","NORTH BAY A","6085701","2019-04-26 04:00","2019","04","26","04:00"
"-79.42","46.36","NORTH BAY A","6085701","2019-04-26 05:00","2019","04","26","05:00"
"-79.42","46.36","NORTH BAY A","6085701","2019-04-26 06:00","2019","04","26","06:00","6.8","","3.7","","81","","","","5","","28","","32.2","","95.78","","","","","","NA"
"-79.42","46.36","NORTH BAY A","6085701","2019-04-26 07:00","2019","04","26","07:00","6.8","","3.4","","79","","","","6","","29","","32.2","","95.71","","","","","","Cloudy"
"-79.42","46.36","NORTH BAY A","6085701","2019-04-26 08:00","2019","04","26","08:00","7.0","","4.5","","84","","","","9","","22","","12.9","","95.66","","","","","","Rain"
"-79.42","46.36","NORTH BAY A","6085701","2019-04-26 09:00","2019","04","26","09:00","5.2","","5.2","","100","","","","6","","26","","8.1","","95.53","","","","","","Rain,Fog"
"-79.42","46.36","NORTH BAY A","6085701","2019-04-26 10:00","2019","04","26","10:00","5.1","","5.1","","100","","","","4","","26","","8.1","","95.34","","","","","","Rain,Fog"
"-79.42","46.36","NORTH BAY A","6085701","2019-04-26 11:00","2019","04","26","11:00","5.1","","3.6","","90","","","","3","","23","","8.1","","95.16","","","","","","Rain,Fog"
"-79.42","46.36","NORTH BAY A","6085701","2019-04-26 12:00","2019","04","26","12:00","5.1","","5.1","","100","","","","4","","31","","8.1","","95.00","","","","","","Rain,Fog"
"-79.42","46.36","NORTH BAY A","6085701","2019-04-26 13:00","2019","04","26","13:00","5.4","","5.2","","","M","","","1","","12","","9.7","","94.98","","","","","","Rain,Fog"
"-79.42","46.36","NORTH BAY A","6085701","2019-04-26 14:00","2019","04","26","14:00","5.5","","5.5","","100","","","","35","","10","","9.7","","94.91","","","","","","Rain,Fog"
"-79.42","46.36","NORTH BAY A","6085701","2019-04-26 15:00","2019","04","26","15:00","5.6","","5.6","","100","","","","35","","15","","9.7","","94.84","","","","","","Rain,Fog"
"-79.42","46.36","NORTH BAY A","6085701","2019-04-26 16:00","2019","04","26","16:00","5.4","","5.4","","100","","","","33","","25","","12.9","","94.84","","","","","","Rain"
"-79.42","46.36","NORTH BAY A","6085701","2019-04-26 17:00","2019","04","26","17:00","4.7","","4.7","","100","","","","34","","27","","12.9","","94.86","","","","","","Rain"
"-79.42","46.36","NORTH BAY A","6085701","2019-04-26 18:00","2019","04","26","18:00","4.3","","4.3","","100","","","","32","","32","","16.1","","94.86","","","","","","Rain"
"-79.42","46.36","NORTH BAY A","6085701","2019-04-26 19:00","2019","04","26","19:00","3.9","","3.9","","100","","","","32","","39","","16.1","","94.85","","","","","","Rain"
"-79.42","46.36","NORTH BAY A","6085701","2019-04-26 20:00","2019","04","26","20:00","3.4","","3.4","","100","","","","32","","36","","16.1","","94.84","","","","","","Rain"
"-79.42","46.36","NORTH BAY A","6085701","2019-04-26 21:00","2019","04","26","21:00","2.8","","2.8","","100","","","","31","","31","","16.1","","94.91","","","","","","Rain"
"-79.42","46.36","NORTH BAY A","6085701","2019-04-26 22:00","2019","04","26","22:00"
"-79.42","46.36","NORTH BAY A","6085701","2019-04-26 23:00","2019","04","26","23:00"
"-79.42","46.36","NORTH BAY A","6085701","2019-04-27 00:00","2019","04","27","00:00"
"-79.42","46.36","NORTH BAY A","6085701","2019-04-27 01:00","2019","04","27","01:00"
"-79.42","46.36","NORTH BAY A","6085701","2019-04-27 02:00","2019","04","27","02:00"
"-79.42","46.36","NORTH BAY A","6085701","2019-04-27 03:00","2019","04","27","03:00"
"-79.42","46.36","NORTH BAY A","6085701","2019-04-27 04:00","2019","04","27","04:00"
"-79.42","46.36","NORTH BAY A","6085701","2019-04-27 05:00","2019","04","27","05:00"
"-79.42","46.36","NORTH BAY A","6085701","2019-04-27 06:00","2019","04","27","06:00","-2.7","","-2.9","","99","","","","31","","44","","2.4","","95.24","","","","-11","","Snow"
"-79.42","46.36","NORTH BAY A","6085701","2019-04-27 07:00","2019","04","27","07:00","-2.9","","-3.4","","96","","","","32","","45","","4.8","","95.32","","","","-12","","Snow,Blowing Snow"
"-79.42","46.36","NORTH BAY A","6085701","2019-04-27 08:00","2019","04","27","08:00","-2.7","","-3.8","","92","","","","32","","47","","8.1","","95.46","","","","-12","","Snow,Blowing Snow"
"-79.42","46.36","NORTH BAY A","6085701","2019-04-27 09:00","2019","04","27","09:00","-1.8","","-3.3","","89","","","","33","","43","","9.7","","95.53","","","","-10","","Snow,Blowing Snow"
"-79.42","46.36","NORTH BAY A","6085701","2019-04-27 10:00","2019","04","27","10:00","-0.8","","-2.2","","90","","","","33","","39","","32.2","","95.61","","","","-8","","Cloudy"
"-79.42","46.36","NORTH BAY A","6085701","2019-04-27 11:00","2019","04","27","11:00","-0.2","","-1.8","","89","","","","32","","40","","48.3","","95.70","","","","-8","","NA"
"-79.42","46.36","NORTH BAY A","6085701","2019-04-27 12:00","2019","04","27","12:00","0.4","","-1.3","","89","","","","32","","47","","48.3","","95.76","","","","","","NA"
"-79.42","46.36","NORTH BAY A","6085701","2019-04-27 13:00","2019","04","27","13:00","1.5","","0.3","","92","","","","33","","40","","48.3","","95.85","","","","","","Cloudy"
"-79.42","46.36","NORTH BAY A","6085701","2019-04-27 14:00","2019","04","27","14:00","1.4","","0.1","","91","","","","30","","36","","48.3","","95.98","","","","","","NA"
"-79.42","46.36","NORTH BAY A","6085701","2019-04-27 15:00","2019","04","27","15:00","2.0","","0.4","","89","","","","32","","37","","48.3","","96.04","","","","","","NA"
"-79.42","46.36","NORTH BAY A","6085701","2019-04-27 16:00","2019","04","27","16:00","1.7","","0.0","","88","","","","32","","35","","48.3","","96.15","","","","","","Cloudy"
"-79.42","46.36","NORTH BAY A","6085701","2019-04-27 17:00","2019","04","27","17:00","1.1","","-0.7","","88","","","","34","","28","","48.3","","96.26","","","","","","NA"
"-79.42","46.36","NORTH BAY A","6085701","2019-04-27 18:00","2019","04","27","18:00","0.3","","-1.3","","89","","","","34","","26","","48.3","","96.37","","","","","","NA"
"-79.42","46.36","NORTH BAY A","6085701","2019-04-27 19:00","2019","04","27","19:00","-0.1","","-2.5","","84","","","","31","","25","","48.3","","96.51","","","","-6","","Cloudy"
"-79.42","46.36","NORTH BAY A","6085701","2019-04-27 20:00","2019","04","27","20:00","0.0","","-2.7","","82","","","","31","","25","","24.1","","96.61","","","","-6","","NA"
"-79.42","46.36","NORTH BAY A","6085701","2019-04-27 21:00","2019","04","27","21:00","-0.1","","-2.6","","83","","","","33","","22","","24.1","","96.67","","","","-6","","NA"
"-79.42","46.36","NORTH BAY A","6085701","2019-04-27 22:00","2019","04","27","22:00"
"-79.42","46.36","NORTH BAY A","6085701","2019-04-27 23:00","2019","04","27","23:00"
"-79.42","46.36","NORTH BAY A","6085701","2019-04-28 00:00","2019","04","28","00:00"
"-79.42","46.36","NORTH BAY A","6085701","2019-04-28 01:00","2019","04","28","01:00"
"-79.42","46.36","NORTH BAY A","6085701","2019-04-28 02:00","2019","04","28","02:00"
"-79.42","46.36","NORTH BAY A","6085701","2019-04-28 03:00","2019","04","28","03:00"
"-79.42","46.36","NORTH BAY A","6085701","2019-04-28 04:00","2019","04","28","04:00"
"-79.42","46.36","NORTH BAY A","6085701","2019-04-28 05:00","2019","04","28","05:00"
"-79.42","46.36","NORTH BAY A","6085701","2019-04-28 06:00","2019","04","28","06:00","-4.0","","-4.3","","98","","","","31","","18","","48.3","","97.17","","","","-10","","NA"
"-79.42","46.36","NORTH BAY A","6085701","2019-04-28 07:00","2019","04","28","07:00","-2.3","","-5.3","","80","","","","32","","24","","48.3","","97.27","","","","-9","","Mostly Cloudy"
"-79.42","46.36","NORTH BAY A","6085701","2019-04-28 08:00","2019","04","28","08:00","-1.0","","-6.8","","65","","","","32","","21","","48.3","","97.32","","","","-7","","NA"
"-79.42","46.36","NORTH BAY A","6085701","2019-04-28 09:00","2019","04","28","09:00","0.1","","-7.3","","58","","","","30","","25","","48.3","","97.35","","","","","","NA"
"-79.42","46.36","NORTH BAY A","6085701","2019-04-28 10:00","2019","04","28","10:00","1.2","","-8.0","","50","","","","33","","21","","48.3","","97.40","","","","","","Clear"
"-79.42","46.36","NORTH BAY A","6085701","2019-04-28 11:00","2019","04","28","11:00","2.6","","-7.9","","46","","","","29","","28","","48.3","","97.43","","","","","","NA"
"-79.42","46.36","NORTH BAY A","6085701","2019-04-28 12:00","2019","04","28","12:00","3.7","","-8.2","","42","","","","29","","31","","48.3","","97.50","","","","","","NA"
"-79.42","46.36","NORTH BAY A","6085701","2019-04-28 13:00","2019","04","28","13:00","4.8","","-8.1","","39","","","","32","","24","","48.3","","97.53","","","","","","Clear"
"-79.42","46.36","NORTH BAY A","6085701","2019-04-28 14:00","2019","04","28","14:00","5.4","","-6.9","","41","","","","31","","36","","48.3","","97.59","","","","","","NA"
"-79.42","46.36","NORTH BAY A","6085701","2019-04-28 15:00","2019","04","28","15:00","6.3","","-6.7","","39","","","","32","","35","","48.3","","97.63","","","","","","NA"
"-79.42","46.36","NORTH BAY A","6085701","2019-04-28 16:00","2019","04","28","16:00","5.6","","-7.5","","38","","","","32","","30","","48.3","","97.69","","","","","","Mostly Cloudy"
"-79.42","46.36","NORTH BAY A","6085701","2019-04-28 17:00","2019","04","28","17:00","5.5","","-6.5","","42","","","","32","","27","","48.3","","97.75","","","","","","NA"
"-79.42","46.36","NORTH BAY A","6085701","2019-04-28 18:00","2019","04","28","18:00","5.2","","-7.4","","40","","","","32","","16","","48.3","","97.79","","","","","","NA"
"-79.42","46.36","NORTH BAY A","6085701","2019-04-28 19:00","2019","04","28","19:00","3.9","","-7.0","","45","","","","31","","18","","48.3","","97.92","","","","","","Mainly Clear"
"-79.42","46.36","NORTH BAY A","6085701","2019-04-28 20:00","2019","04","28","20:00","1.8","","-7.2","","51","","","","34","","15","","24.1","","97.99","","","","","","NA"
"-79.42","46.36","NORTH BAY A","6085701","2019-04-28 21:00","2019","04","28","21:00","0.6","","-6.0","","61","","","","3","","12","","24.1","","98.08","","","","","","NA"
"-79.42","46.36","NORTH BAY A","6085701","2019-04-28 22:00","2019","04","28","22:00"
"-79.42","46.36","NORTH BAY A","6085701","2019-04-28 23:00","2019","04","28","23:00"
"-79.42","46.36","NORTH BAY A","6085701","2019-04-29 00:00","2019","04","29","00:00"
"-79.42","46.36","NORTH BAY A","6085701","2019-04-29 01:00","2019","04","29","01:00"
"-79.42","46.36","NORTH BAY A","6085701","2019-04-29 02:00","2019","04","29","02:00"
"-79.42","46.36","NORTH BAY A","6085701","2019-04-29 03:00","2019","04","29","03:00"
"-79.42","46.36","NORTH BAY A","6085701","2019-04-29 04:00","2019","04","29","04:00"
"-79.42","46.36","NORTH BAY A","6085701","2019-04-29 05:00","2019","04","29","05:00"
"-79.42","46.36","NORTH BAY A","6085701","2019-04-29 06:00","2019","04","29","06:00","-0.8","","-6.3","","66","","","","17","","9","","48.3","","98.41","","","","-4","","NA"
"-79.42","46.36","NORTH BAY A","6085701","2019-04-29 07:00","2019","04","29","07:00","1.1","","-6.5","","57","","","","18","","15","","48.3","","98.47","","","","","","Mainly Clear"
"-79.42","46.36","NORTH BAY A","6085701","2019-04-29 08:00","2019","04","29","08:00","3.5","","-6.8","","47","","","","10","","10","","48.3","","98.37","","","","","","NA"
"-79.42","46.36","NORTH BAY A","6085701","2019-04-29 09:00","2019","04","29","09:00","4.7","","-6.4","","45","","","","17","","23","","48.3","","98.31","","","","","","NA"
"-79.42","46.36","NORTH BAY A","6085701","2019-04-29 10:00","2019","04","29","10:00","6.2","","-5.4","","43","","","","19","","25","","48.3","","98.29","","","","","","Mostly Cloudy"
"-79.42","46.36","NORTH BAY A","6085701","2019-04-29 11:00","2019","04","29","11:00","6.8","","-3.8","","47","","","","21","","18","","48.3","","98.31","","","","","","NA"
"-79.42","46.36","NORTH BAY A","6085701","2019-04-29 12:00","2019","04","29","12:00","7.0","","-6.7","","37","","","","23","","13","","48.3","","98.29","","","","","","NA"
"-79.42","46.36","NORTH BAY A","6085701","2019-04-29 13:00","2019","04","29","13:00","7.2","","-6.9","","36","","","","22","","15","","48.3","","98.22","","","","","","Cloudy"
"-79.42","46.36","NORTH BAY A","6085701","2019-04-29 14:00","2019","04","29","14:00","7.0","","-7.0","","36","","","","23","","10","","48.3","","98.16","","","","","","NA"
"-79.42","46.36","NORTH BAY A","6085701","2019-04-29 15:00","2019","04","29","15:00","6.8","","-7.8","","35","","","","23","","7","","48.3","","98.05","","","","","","NA"
"-79.42","46.36","NORTH BAY A","6085701","2019-04-29 16:00","2019","04","29","16:00","6.2","","-4.8","","45","","","","11","","10","","48.3","","97.97","","","","","","Cloudy"
"-79.42","46.36","NORTH BAY A","6085701","2019-04-29 17:00","2019","04","29","17:00","4.8","","-2.8","","58","","","","36","","9","","48.3","","97.96","","","","","","NA"
"-79.42","46.36","NORTH BAY A","6085701","2019-04-29 18:00","2019","04","29","18:00","3.6","","-1.2","","71","","","","3","","19","","24.1","","97.96","","","","","","NA"
"-79.42","46.36","NORTH BAY A","6085701","2019-04-29 19:00","2019","04","29","19:00","2.3","","-0.2","","83","","","","6","","8","","24.1","","97.98","","","","","","Cloudy"
"-79.42","46.36","NORTH BAY A","6085701","2019-04-29 20:00","2019","04","29","20:00","2.0","","0.4","","89","","","","15","","10","","16.1","","97.98","","","","","","Snow"
"-79.42","46.36","NORTH BAY A","6085701","2019-04-29 21:00","2019","04","29","21:00","1.7","","0.2","","90","","","","10","","9","","16.1","","98.00","","","","","","Snow"
"-79.42","46.36","NORTH BAY A","6085701","2019-04-29 22:00","2019","04","29","22:00"
"-79.42","46.36","NORTH BAY A","6085701","2019-04-29 23:00","2019","04","29","23:00"
"-79.42","46.36","NORTH BAY A","6085701","2019-04-30 00:00","2019","04","30","00:00"
"-79.42","46.36","NORTH BAY A","6085701","2019-04-30 01:00","2019","04","30","01:00"
"-79.42","46.36","NORTH BAY A","6085701","2019-04-30 02:00","2019","04","30","02:00"
"-79.42","46.36","NORTH BAY A","6085701","2019-04-30 03:00","2019","04","30","03:00"
"-79.42","46.36","NORTH BAY A","6085701","2019-04-30 04:00","2019","04","30","04:00"
"-79.42","46.36","NORTH BAY A","6085701","2019-04-30 05:00","2019","04","30","05:00"
"-79.42","46.36","NORTH BAY A","6085701","2019-04-30 06:00","2019","04","30","06:00","0.2","","-0.6","","94","","","","33","","4","","48.3","","98.14","","","","","","NA"
"-79.42","46.36","NORTH BAY A","6085701","2019-04-30 07:00","2019","04","30","07:00","1.8","","-0.1","","87","","","","1","","14","","48.3","","98.20","","","","","","Mostly Cloudy"
"-79.42","46.36","NORTH BAY A","6085701","2019-04-30 08:00","2019","04","30","08:00","4.2","","-0.7","","70","","","","6","","10","","48.3","","98.25","","","","","","NA"
"-79.42","46.36","NORTH BAY A","6085701","2019-04-30 09:00","2019","04","30","09:00","5.5","","-1.2","","62","","","","9","","15","","48.3","","98.26","","","","","","NA"
"-79.42","46.36","NORTH BAY A","6085701","2019-04-30 10:00","2019","04","30","10:00","6.7","","-2.2","","53","","","","11","","9","","48.3","","98.31","","","","","","Mostly Cloudy"
"-79.42","46.36","NORTH BAY A","6085701","2019-04-30 11:00","2019","04","30","11:00","6.5","","-3.1","","50","","","","29","","6","","48.3","","98.37","","","","","","NA"
"-79.42","46.36","NORTH BAY A","6085701","2019-04-30 12:00","2019","04","30","12:00","8.2","","-4.0","","42","","","","35","","20","","48.3","","98.40","","","","","","NA"
"-79.42","46.36","NORTH BAY A","6085701","2019-04-30 13:00","2019","04","30","13:00","8.3","","-5.1","","38","","","","34","","14","","48.3","","98.43","","","","","","Mainly Clear"
"-79.42","46.36","NORTH BAY A","6085701","2019-04-30 14:00","2019","04","30","14:00","9.0","","-4.8","","37","","","","34","","14","","48.3","","98.41","","","","","","NA"
"-79.42","46.36","NORTH BAY A","6085701","2019-04-30 15:00","2019","04","30","15:00","9.7","","-5.1","","35","","","","33","","22","","48.3","","98.43","","","","","","NA"
"-79.42","46.36","NORTH BAY A","6085701","2019-04-30 16:00","2019","04","30","16:00","9.5","","-6.2","","33","","","","34","","18","","48.3","","98.43","","","","","","Cloudy"
"-79.42","46.36","NORTH BAY A","6085701","2019-04-30 17:00","2019","04","30","17:00","8.8","","-6.8","","32","","","","34","","12","","48.3","","98.47","","","","","","NA"
"-79.42","46.36","NORTH BAY A","6085701","2019-04-30 18:00","2019","04","30","18:00","7.8","","-7.3","","33","","","","2","","14","","48.3","","98.51","","","","","","NA"
"-79.42","46.36","NORTH BAY A","6085701","2019-04-30 19:00","2019","04","30","19:00","6.4","","-8.2","","34","","","","36","","13","","48.3","","98.53","","","","","","Cloudy"
"-79.42","46.36","NORTH BAY A","6085701","2019-04-30 20:00","2019","04","30","20:00","5.4","","-9.4","","34","","","","4","","16","","24.1","","98.51","","","","","","NA"
"-79.42","46.36","NORTH BAY A","6085701","2019-04-30 21:00","2019","04","30","21:00","4.4","","-11.2","","31","","","","3","","11","","24.1","","98.56","","","","","","NA"
"-79.42","46.36","NORTH BAY A","6085701","2019-04-30 22:00","2019","04","30","22:00"
"-79.42","46.36","NORTH BAY A","6085701","2019-04-30 23:00","2019","04","30","23:00"
