"Longitude (x)","Latitude (y)","Station Name","Climate ID","Date/Time (LST)","Year","Month","Day","Time (LST)","Temp (°C)","Temp Flag","Dew Point Temp (°C)","Dew Point Temp Flag","Rel Hum (%)","Rel Hum Flag","Precip. Amount (mm)","Precip. Amount Flag","Wind Dir (10s deg)","Wind Dir Flag","Wind Spd (km/h)","Wind Spd Flag","Visibility (km)","Visibility Flag","Stn Press (kPa)","Stn Press Flag","Hmdx","Hmdx Flag","Wind Chill","Wind Chill Flag","Weather"
"-68.42","58.10","KUUJJUAQ A","7113534","2012-02-01 00:00","2012","02","01","00:00","-26.2","","-31.0","","64","","","","26","","7","","24.1","","101.29","","","","-33","","Clear"
"-68.42","58.10","KUUJJUAQ A","7113534","2012-02-01 01:00","2012","02","01","01:00","-26.4","","-31.3","","63","","","","22","","9","","24.1","","101.34","","","","-34","","Ice Crystals"
"-68.42","58.10","KUUJJUAQ A","7113534","2012-02-01 02:00","2012","02","01","02:00","-26.5","","-31.3","","64","","","","23","","13","","24.1","","101.35","","","","-36","","Mainly Clear"
"-68.42","58.10","KUUJJUAQ A","7113534","2012-02-01 03:00","2012","02","01","03:00","-27.1","","-31.9","","64","","","","21","","6","","24.1","","101.40","","","","-33","","Mainly Clear"
"-68.42","58.10","KUUJJUAQ A","7113534","2012-02-01 04:00","2012","02","01","04:00","-26.7","","-31.5","","64","","","","22","","17","","24.1","","101.42","","","","-38","","Mainly Clear"
"-68.42","58.10","KUUJJUAQ A","7113534","2012-02-01 05:00","2012","02","01","05:00","-26.5","","-31.3","","64","","","","23","","22","","24.1","","101.44","","","","-39","","Ice Crystals"
"-68.42","58.10","KUUJJUAQ A","7113534","2012-02-01 06:00","2012","02","01","06:00","-26.0","","-30.8","","64","","","","24","","17","","24.1","","101.47","","","","-37","","Ice Crystals"
"-68.42","58.10","KUUJJUAQ A","7113534","2012-02-01 07:00","2012","02","01","07:00","-25.9","","-30.8","","63","","","","24","","13","","24.1","","101.53","","","","-36","","Ice Crystals"
"-68.42","58.10","KUUJJUAQ A","7113534","2012-02-01 08:00","2012","02","01","08:00","-25.8","","-30.6","","64","","","","23","","11","","24.1","","101.54","","","","-35","","Ice Crystals"
"-68.42","58.10","KUUJJUAQ A","7113534","2012-02-01 09:00","2012","02","01","09:00","-25.0","","-30.0","","63","","","","24","","15","","24.1","","101.59","","","","-35","","Ice Crystals"
"-68.42","58.10","KUUJJUAQ A","7113534","2012-02-01 10:00","2012","02","01","10:00","-24.2","","-29.5","","62","","","","23","","15","","19.3","","101.59","","","","-34","","Ice Crystals"
"-68.42","58.10","KUUJJUAQ A","7113534","2012-02-01 11:00","2012","02","01","11:00","-23.6","","-28.7","","63","","","","24","","19","","16.1","","101.58","","","","-35","","Snow"
"-68.42","58.10","KUUJJUAQ A","7113534","2012-02-01 12:00","2012","02","01","12:00","-22.8","","-28.1","","62","","","","23","","19","","19.3","","101.59","","","","-34","","Snow"
"-68.42","58.10","KUUJJUAQ A","7113534","2012-02-01 13:00","2012","02","01","13:00","-22.1","","-27.1","","64","","","","22","","19","","16.1","","101.62","","","","-33","","Snow"
"-68.42","58.10","KUUJJUAQ A","7113534","2012-02-01 14:00","2012","02","01","14:00","-21.2","","-26.0","","65","","","","24","","15","","16.1","","101.67","","","","-31","","Snow"
"-68.42","58.10","KUUJJUAQ A","7113534","2012-02-01 15:00","2012","02","01","15:00","-21.4","","-26.3","","65","","","","23","","13","","24.1","","101.71","","","","-30","","Snow"
"-68.42","58.10","KUUJJUAQ A","7113534","2012-02-01 16:00","2012","02","01","16:00","-22.1","","-26.9","","65","","","","24","","19","","24.1","","101.76","","","","-33","","Snow"
"-68.42","58.10","KUUJJUAQ A","7113534","2012-02-01 17:00","2012","02","01","17:00","-22.4","","-27.0","","66","","","","24","","9","","24.1","","101.80","","","","-30","","Snow"
"-68.42","58.10","KUUJJUAQ A","7113534","2012-02-01 18:00","2012","02","01","18:00","-22.7","","-27.3","","66","","","","24","","9","","24.1","","101.80","","","","-30","","Snow"
"-68.42","58.10","KUUJJUAQ A","7113534","2012-02-01 19:00","2012","02","01","19:00","-22.7","","-27.2","","67","","","","23","","17","","24.1","","101.81","","","","-33","","Snow"
"-68.42","58.10","KUUJJUAQ A","7113534","2012-02-01 20:00","2012","02","01","20:00","-22.7","","-26.9","","69","","","","24","","13","","24.1","","101.83","","","","-32","","Snow"
"-68.42","58.10","KUUJJUAQ A","7113534","2012-02-01 21:00","2012","02","01","21:00","-22.8","","-26.9","","69","","","","25","","17","","24.1","","101.83","","","","-33","","Snow"
"-68.42","58.10","KUUJJUAQ A","7113534","2012-02-01 22:00","2012","02","01","22:00","-23.2","","-27.5","","68","","","","23","","15","","24.1","","101.83","","","","-33","","Snow"
"-68.42","58.10","KUUJJUAQ A","7113534","2012-02-01 23:00","2012","02","01","23:00","-23.9","","-28.4","","66","","","","22","","13","","24.1","","101.82","","","","-33","","Snow"
"-68.42","58.10","KUUJJUAQ A","7113534","2012-02-02 00:00","2012","02","02","00:00","-24.5","","-28.9","","67","","","","23","","11","","24.1","","101.83","","","","-33","","Snow"
"-68.42","58.10","KUUJJUAQ A","7113534","2012-02-02 01:00","2012","02","02","01:00","-25.7","","-30.3","","65","","","","23","","11","","24.1","","101.85","","","","-34","","Snow"
"-68.42","58.10","KUUJJUAQ A","7113534","2012-02-02 02:00","2012","02","02","02:00","-26.4","","-31.0","","65","","","","25","","13","","24.1","","101.87","","","","-36","","Snow"
"-68.42","58.10","KUUJJUAQ A","7113534","2012-02-02 03:00","2012","02","02","03:00","-27.5","","-32.1","","65","","","","22","","13","","24.1","","101.86","","","","-38","","Snow"
"-68.42","58.10","KUUJJUAQ A","7113534","2012-02-02 04:00","2012","02","02","04:00","-27.5","","-32.3","","64","","","","23","","13","","24.1","","101.87","","","","-38","","Ice Crystals"
"-68.42","58.10","KUUJJUAQ A","7113534","2012-02-02 05:00","2012","02","02","05:00","-26.9","","-31.4","","66","","","","24","","7","","24.1","","101.87","","","","-34","","Snow"
"-68.42","58.10","KUUJJUAQ A","7113534","2012-02-02 06:00","2012","02","02","06:00","-25.6","","-30.1","","66","","","","22","","9","","24.1","","101.86","","","","-33","","Snow"
"-68.42","58.10","KUUJJUAQ A","7113534","2012-02-02 07:00","2012","02","02","07:00","-25.0","","-29.2","","68","","","","22","","19","","24.1","","101.86","","","","-37","","Snow"
"-68.42","58.10","KUUJJUAQ A","7113534","2012-02-02 08:00","2012","02","02","08:00","-24.9","","-29.1","","68","","","","22","","15","","24.1","","101.86","","","","-35","","Snow"
"-68.42","58.10","KUUJJUAQ A","7113534","2012-02-02 09:00","2012","02","02","09:00","-24.6","","-28.9","","67","","","","22","","19","","6.4","","101.85","","","","-36","","Snow"
"-68.42","58.10","KUUJJUAQ A","7113534","2012-02-02 10:00","2012","02","02","10:00","-24.1","","-28.4","","68","","","","25","","17","","4.8","","101.83","","","","-35","","Snow"
"-68.42","58.10","KUUJJUAQ A","7113534","2012-02-02 11:00","2012","02","02","11:00","-23.4","","-27.6","","68","","","","22","","19","","4.8","","101.79","","","","-34","","Snow"
"-68.42","58.10","KUUJJUAQ A","7113534","2012-02-02 12:00","2012","02","02","12:00","-22.1","","-26.2","","69","","","","22","","9","","6.4","","101.77","","","","-29","","Snow"
"-68.42","58.10","KUUJJUAQ A","7113534","2012-02-02 13:00","2012","02","02","13:00","-21.8","","-26.2","","67","","","","22","","9","","8.0","","101.75","","","","-29","","Snow"
"-68.42","58.10","KUUJJUAQ A","7113534","2012-02-02 14:00","2012","02","02","14:00","-21.5","","-26.1","","66","","","","25","","19","","8.0","","101.78","","","","-32","","Snow"
"-68.42","58.10","KUUJJUAQ A","7113534","2012-02-02 15:00","2012","02","02","15:00","-21.9","","-26.2","","68","","","","22","","20","","8.0","","101.79","","","","-33","","Snow"
"-68.42","58.10","KUUJJUAQ A","7113534","2012-02-02 16:00","2012","02","02","16:00","-22.0","","-26.6","","66","","","","22","","9","","8.0","","101.83","","","","-29","","Snow"
"-68.42","58.10","KUUJJUAQ A","7113534","2012-02-02 17:00","2012","02","02","17:00","-21.9","","-26.6","","66","","","","24","","20","","24.1","","101.82","","","","-33","","Snow"
"-68.42","58.10","KUUJJUAQ A","7113534","2012-02-02 18:00","2012","02","02","18:00","-22.4","","-27.3","","64","","","","27","","19","","24.1","","101.85","","","","-33","","Snow"
"-68.42","58.10","KUUJJUAQ A","7113534","2012-02-02 19:00","2012","02","02","19:00","-23.1","","-28.0","","64","","","","25","","17","","24.1","","101.84","","","","-34","","Snow"
"-68.42","58.10","KUUJJUAQ A","7113534","2012-02-02 20:00","2012","02","02","20:00","-24.3","","-29.1","","64","","","","24","","17","","24.1","","101.83","","","","-35","","Snow"
"-68.42","58.10","KUUJJUAQ A","7113534","2012-02-02 21:00","2012","02","02","21:00","-25.2","","-29.8","","65","","","","23","","13","","24.1","","101.84","","","","-35","","Snow"
"-68.42","58.10","KUUJJUAQ A","7113534","2012-02-02 22:00","2012","02","02","22:00","-25.2","","-29.7","","66","","","","22","","9","","24.1","","101.83","","","","-33","","Snow"
"-68.42","58.10","KUUJJUAQ A","7113534","2012-02-02 23:00","2012","02","02","23:00","-24.2","","-28.6","","67","","","","","","0","","24.1","","101.83","","","","","","Snow"
"-68.42","58.10","KUUJJUAQ A","7113534","2012-02-03 00:00","2012","02","03","00:00","-23.8","","-28.5","","65","","","","21","","7","","24.1","","101.82","","","","-30","","Snow"
"-68.42","58.10","KUUJJUAQ A","7113534","2012-02-03 01:00","2012","02","03","01:00","-23.8","","-27.9","","69","","","","","","0","","24.1","","101.81","","","","","","Snow"
"-68.42","58.10","KUUJJUAQ A","7113534","2012-02-03 02:00","2012","02","03","02:00","-22.9","","-27.4","","67","","","","22","","11","","24.1","","101.83","","","","-31","","Snow"
"-68.42","58.10","KUUJJUAQ A","7113534","2012-02-03 03:00","2012","02","03","03:00","-21.7","","-26.2","","67","","","","25","","7","","24.1","","101.83","","","","-28","","Snow"
"-68.42","58.10","KUUJJUAQ A","7113534","2012-02-03 04:00","2012","02","03","04:00","-22.2","","-26.7","","67","","","","23","","9","","24.1","","101.88","","","","-29","","Snow"
"-68.42","58.10","KUUJJUAQ A","7113534","2012-02-03 05:00","2012","02","03","05:00","-23.8","","-28.3","","66","","","","24","","13","","24.1","","101.89","","","","-33","","Snow"
"-68.42","58.10","KUUJJUAQ A","7113534","2012-02-03 06:00","2012","02","03","06:00","-23.1","","-27.6","","67","","","","24","","9","","24.1","","101.92","","","","-30","","Snow"
"-68.42","58.10","KUUJJUAQ A","7113534","2012-02-03 07:00","2012","02","03","07:00","-22.4","","-26.8","","67","","","","23","","6","","24.1","","101.95","","","","-28","","Snow"
"-68.42","58.10","KUUJJUAQ A","7113534","2012-02-03 08:00","2012","02","03","08:00","-22.1","","-26.6","","67","","","","24","","15","","24.1","","101.97","","","","-32","","Snow"
"-68.42","58.10","KUUJJUAQ A","7113534","2012-02-03 09:00","2012","02","03","09:00","-21.3","","-25.9","","66","","","","23","","7","","24.1","","101.95","","","","-27","","Snow"
"-68.42","58.10","KUUJJUAQ A","7113534","2012-02-03 10:00","2012","02","03","10:00","-20.2","","-25.0","","65","","","","21","","11","","24.1","","101.95","","","","-28","","Snow"
"-68.42","58.10","KUUJJUAQ A","7113534","2012-02-03 11:00","2012","02","03","11:00","-19.3","","-24.2","","65","","","","23","","13","","24.1","","101.91","","","","-28","","Snow"
"-68.42","58.10","KUUJJUAQ A","7113534","2012-02-03 12:00","2012","02","03","12:00","-18.1","","-22.6","","68","","","","22","","15","","16.1","","101.87","","","","-27","","Snow"
"-68.42","58.10","KUUJJUAQ A","7113534","2012-02-03 13:00","2012","02","03","13:00","-17.4","","-22.2","","66","","","","25","","15","","8.0","","101.88","","","","-26","","Snow"
"-68.42","58.10","KUUJJUAQ A","7113534","2012-02-03 14:00","2012","02","03","14:00","-17.4","","-22.1","","67","","","","23","","11","","12.9","","101.89","","","","-25","","Snow"
"-68.42","58.10","KUUJJUAQ A","7113534","2012-02-03 15:00","2012","02","03","15:00","-18.1","","-23.1","","65","","","","23","","11","","19.3","","101.90","","","","-25","","Snow"
"-68.42","58.10","KUUJJUAQ A","7113534","2012-02-03 16:00","2012","02","03","16:00","-19.2","","-24.1","","65","","","","23","","15","","24.1","","101.93","","","","-28","","Snow"
"-68.42","58.10","KUUJJUAQ A","7113534","2012-02-03 17:00","2012","02","03","17:00","-19.8","","-24.8","","64","","","","23","","13","","24.1","","101.94","","","","-28","","Snow"
"-68.42","58.10","KUUJJUAQ A","7113534","2012-02-03 18:00","2012","02","03","18:00","-20.1","","-24.9","","65","","","","24","","19","","24.1","","101.94","","","","-30","","Snow"
"-68.42","58.10","KUUJJUAQ A","7113534","2012-02-03 19:00","2012","02","03","19:00","-20.3","","-25.0","","66","","","","23","","11","","24.1","","101.94","","","","-28","","Snow"
"-68.42","58.10","KUUJJUAQ A","7113534","2012-02-03 20:00","2012","02","03","20:00","-20.2","","-25.1","","65","","","","23","","7","","24.1","","101.95","","","","-26","","Snow"
"-68.42","58.10","KUUJJUAQ A","7113534","2012-02-03 21:00","2012","02","03","21:00","-20.2","","-25.0","","65","","","","23","","9","","24.1","","101.96","","","","-27","","Snow"
"-68.42","58.10","KUUJJUAQ A","7113534","2012-02-03 22:00","2012","02","03","22:00","-20.0","","-24.9","","65","","","","23","","13","","19.3","","101.94","","","","-28","","Snow"
"-68.42","58.10","KUUJJUAQ A","7113534","2012-02-03 23:00","2012","02","03","23:00","-20.1","","-25.1","","64","","","","23","","11","","24.1","","101.93","","","","-28","","Snow"
"-68.42","58.10","KUUJJUAQ A","7113534","2012-02-04 00:00","2012","02","04","00:00","-20.7","","-25.7","","64","","","","24","","15","","24.1","","101.92","","","","-30","","Snow"
"-68.42","58.10","KUUJJUAQ A","7113534","2012-02-04 01:00","2012","02","04","01:00","-21.8","","-26.7","","64","","","","23","","11","","24.1","","101.94","","","","-30","","Snow"
"-68.42","58.10","KUUJJUAQ A","7113534","2012-02-04 02:00","2012","02","04","02:00","-23.8","","-28.7","","64","","","","22","","6","","24.1","","101.99","","","","-29","","Mainly Clear"
"-68.42","58.10","KUUJJUAQ A","7113534","2012-02-04 03:00","2012","02","04","03:00","-25.5","","-30.0","","66","","","","","","0","","24.1","","102.02","","","","","","Mainly Clear"
"-68.42","58.10","KUUJJUAQ A","7113534","2012-02-04 04:00","2012","02","04","04:00","-26.3","","-31.1","","64","","","","24","","13","","24.1","","102.05","","","","-36","","Snow"
"-68.42","58.10","KUUJJUAQ A","7113534","2012-02-04 05:00","2012","02","04","05:00","-26.4","","-31.1","","64","","","","22","","6","","24.1","","102.08","","","","-32","","Snow"
"-68.42","58.10","KUUJJUAQ A","7113534","2012-02-04 06:00","2012","02","04","06:00","-27.7","","-32.2","","65","","","","23","","11","","24.1","","102.11","","","","-37","","Mainly Clear"
"-68.42","58.10","KUUJJUAQ A","7113534","2012-02-04 07:00","2012","02","04","07:00","-28.1","","-32.2","","68","","","","23","","6","","24.1","","102.13","","","","-34","","Ice Crystals"
"-68.42","58.10","KUUJJUAQ A","7113534","2012-02-04 08:00","2012","02","04","08:00","-27.1","","-31.2","","68","","","","21","","15","","24.1","","102.10","","","","-38","","Ice Crystals"
"-68.42","58.10","KUUJJUAQ A","7113534","2012-02-04 09:00","2012","02","04","09:00","-26.6","","-30.8","","68","","","","23","","9","","8.0","","102.09","","","","-35","","Snow"
"-68.42","58.10","KUUJJUAQ A","7113534","2012-02-04 10:00","2012","02","04","10:00","-25.0","","-29.2","","68","","","","24","","9","","8.0","","102.05","","","","-33","","Snow"
"-68.42","58.10","KUUJJUAQ A","7113534","2012-02-04 11:00","2012","02","04","11:00","-23.8","","-28.2","","67","","","","23","","15","","16.1","","102.00","","","","-34","","Snow"
"-68.42","58.10","KUUJJUAQ A","7113534","2012-02-04 12:00","2012","02","04","12:00","-23.0","","-27.8","","65","","","","24","","13","","16.1","","101.96","","","","-32","","Snow"
"-68.42","58.10","KUUJJUAQ A","7113534","2012-02-04 13:00","2012","02","04","13:00","-22.2","","-27.3","","63","","","","25","","9","","16.1","","101.93","","","","-29","","Snow"
"-68.42","58.10","KUUJJUAQ A","7113534","2012-02-04 14:00","2012","02","04","14:00","-21.6","","-26.6","","64","","","","24","","13","","16.1","","101.94","","","","-30","","Snow"
"-68.42","58.10","KUUJJUAQ A","7113534","2012-02-04 15:00","2012","02","04","15:00","-21.4","","-26.4","","64","","","","24","","17","","16.1","","101.92","","","","-31","","Snow"
"-68.42","58.10","KUUJJUAQ A","7113534","2012-02-04 16:00","2012","02","04","16:00","-21.6","","-26.5","","65","","","","23","","9","","19.3","","101.90","","","","-29","","Snow"
"-68.42","58.10","KUUJJUAQ A","7113534","2012-02-04 17:00","2012","02","04","17:00","-21.9","","-26.6","","66","","","","23","","9","","24.1","","101.85","","","","-29","","Snow"
"-68.42","58.10","KUUJJUAQ A","7113534","2012-02-04 18:00","2012","02","04","18:00","-22.3","","-27.0","","66","","","","23","","19","","24.1","","101.81","","","","-33","","Snow"
"-68.42","58.10","KUUJJUAQ A","7113534","2012-02-04 19:00","2012","02","04","19:00","-23.3","","-27.9","","66","","","","24","","22","","24.1","","101.77","","","","-35","","Snow"
"-68.42","58.10","KUUJJUAQ A","7113534","2012-02-04 20:00","2012","02","04","20:00","-24.2","","-29.2","","63","","","","25","","7","","24.1","","101.66","","","","-31","","Snow"
"-68.42","58.10","KUUJJUAQ A","7113534","2012-02-04 21:00","2012","02","04","21:00","-25.3","","-30.1","","64","","","","22","","7","","24.1","","101.50","","","","-32","","Snow"
"-68.42","58.10","KUUJJUAQ A","7113534","2012-02-04 22:00","2012","02","04","22:00","-26.9","","-31.6","","64","","","","24","","15","","24.1","","101.51","","","","-38","","Mainly Clear"
"-68.42","58.10","KUUJJUAQ A","7113534","2012-02-04 23:00","2012","02","04","23:00","-28.3","","-32.5","","67","","","","","","0","","24.1","","101.43","","","","","","Snow"
"-68.42","58.10","KUUJJUAQ A","7113534","2012-02-05 00:00","2012","02","05","00:00","-27.3","","-31.6","","67","","","","20","","7","","24.1","","101.31","","","","-34","","Snow"
"-68.42","58.10","KUUJJUAQ A","7113534","2012-02-05 01:00","2012","02","05","01:00","-24.8","","-29.3","","66","","","","24","","9","","8.0","","101.22","","","","-32","","Snow"
"-68.42","58.10","KUUJJUAQ A","7113534","2012-02-05 02:00","2012","02","05","02:00","-24.2","","-29.0","","64","","","","25","","7","","24.1","","101.12","","","","-31","","Snow"
"-68.42","58.10","KUUJJUAQ A","7113534","2012-02-05 03:00","2012","02","05","03:00","-23.7","","-27.9","","68","","","","23","","11","","8.0","","101.02","","","","-32","","Snow"
"-68.42","58.10","KUUJJUAQ A","7113534","2012-02-05 04:00","2012","02","05","04:00","-23.0","","-26.8","","71","","","","21","","19","","8.0","","100.84","","","","-34","","Snow"
"-68.42","58.10","KUUJJUAQ A","7113534","2012-02-05 05:00","2012","02","05","05:00","-21.9","","-25.6","","72","","","","19","","7","","24.1","","100.74","","","","-28","","Snow"
"-68.42","58.10","KUUJJUAQ A","7113534","2012-02-05 06:00","2012","02","05","06:00","-21.0","","-24.7","","72","","","","","","0","","24.1","","100.62","","","","","","Snow"
"-68.42","58.10","KUUJJUAQ A","7113534","2012-02-05 07:00","2012","02","05","07:00","-20.7","","-24.7","","70","","","","25","","6","","24.1","","100.53","","","","-26","","Snow"
"-68.42","58.10","KUUJJUAQ A","7113534","2012-02-05 08:00","2012","02","05","08:00","-20.0","","-23.9","","71","","","","","","0","","24.1","","100.39","","","","","","Snow"
"-68.42","58.10","KUUJJUAQ A","7113534","2012-02-05 09:00","2012","02","05","09:00","-19.4","","-23.4","","71","","","","","","0","","24.1","","100.29","","","","","","Snow"
"-68.42","58.10","KUUJJUAQ A","7113534","2012-02-05 10:00","2012","02","05","10:00","-18.2","","-22.5","","69","","","","23","","9","","24.1","","100.18","","","","-25","","Snow"
"-68.42","58.10","KUUJJUAQ A","7113534","2012-02-05 11:00","2012","02","05","11:00","-17.3","","-21.8","","68","","","","23","","7","","24.1","","100.02","","","","-23","","Snow"
"-68.42","58.10","KUUJJUAQ A","7113534","2012-02-05 12:00","2012","02","05","12:00","-16.5","","-20.8","","69","","","","13","","9","","24.1","","99.90","","","","-23","","Snow"
"-68.42","58.10","KUUJJUAQ A","7113534","2012-02-05 13:00","2012","02","05","13:00","-16.2","","-20.5","","69","","","","","","0","","24.1","","99.76","","","","","","Snow"
"-68.42","58.10","KUUJJUAQ A","7113534","2012-02-05 14:00","2012","02","05","14:00","-15.9","","-20.3","","69","","","","","","0","","24.1","","99.68","","","","","","Snow"
"-68.42","58.10","KUUJJUAQ A","7113534","2012-02-05 15:00","2012","02","05","15:00","-15.3","","-19.1","","73","","","","","","0","","24.1","","99.58","","","","","","Snow"
"-68.42","58.10","KUUJJUAQ A","7113534","2012-02-05 16:00","2012","02","05","16:00","-15.9","","-19.6","","73","","","","18","","6","","24.1","","99.52","","","","-20","","Mostly Cloudy"
"-68.42","58.10","KUUJJUAQ A","7113534","2012-02-05 17:00","2012","02","05","17:00","-17.0","","-20.6","","74","","","","15","","6","","24.1","","99.46","","","","-22","","Mostly Cloudy"
"-68.42","58.10","KUUJJUAQ A","7113534","2012-02-05 18:00","2012","02","05","18:00","-17.6","","-20.8","","76","","","","","","0","","24.1","","99.43","","","","","","Snow"
"-68.42","58.10","KUUJJUAQ A","7113534","2012-02-05 19:00","2012","02","05","19:00","-18.2","","-21.7","","74","","","","","","0","","24.1","","99.38","","","","","","Mostly Cloudy"
"-68.42","58.10","KUUJJUAQ A","7113534","2012-02-05 20:00","2012","02","05","20:00","-19.4","","-22.7","","75","","","","","","0","","24.1","","99.34","","","","","","Mainly Clear"
"-68.42","58.10","KUUJJUAQ A","7113534","2012-02-05 21:00","2012","02","05","21:00","-20.6","","-24.1","","73","","","","","","0","","24.1","","99.28","","","","","","Mainly Clear"
"-68.42","58.10","KUUJJUAQ A","7113534","2012-02-05 22:00","2012","02","05","22:00","-21.0","","-25.0","","70","","","","","","0","","24.1","","99.27","","","","","","Ice Crystals"
"-68.42","58.10","KUUJJUAQ A","7113534","2012-02-05 23:00","2012","02","05","23:00","-20.9","","-24.2","","75","","","","","","0","","24.1","","99.26","","","","","","Mostly Cloudy"
"-68.42","58.10","KUUJJUAQ A","7113534","2012-02-06 00:00","2012","02","06","00:00","-21.7","","-25.8","","69","","","","","","0","","24.1","","99.21","","","","","","Mostly Cloudy"
"-68.42","58.10","KUUJJUAQ A","7113534","2012-02-06 01:00","2012","02","06","01:00","-21.5","","-25.6","","69","","","","","","0","","24.1","","99.16","","","","","","Mostly Cloudy"
"-68.42","58.10","KUUJJUAQ A","7113534","2012-02-06 02:00","2012","02","06","02:00","-21.4","","-25.1","","72","","","","","","0","","24.1","","99.14","","","","","","Mostly Cloudy"
"-68.42","58.10","KUUJJUAQ A","7113534","2012-02-06 03:00","2012","02","06","03:00","-21.1","","-24.9","","71","","","","","","0","","24.1","","99.20","","","","","","Mostly Cloudy"
"-68.42","58.10","KUUJJUAQ A","7113534","2012-02-06 04:00","2012","02","06","04:00","-22.0","","-25.7","","72","","","","","","0","","24.1","","99.18","","","","","","Mostly Cloudy"
"-68.42","58.10","KUUJJUAQ A","7113534","2012-02-06 05:00","2012","02","06","05:00","-21.9","","-25.7","","71","","","","","","0","","24.1","","99.17","","","","","","Mostly Cloudy"
"-68.42","58.10","KUUJJUAQ A","7113534","2012-02-06 06:00","2012","02","06","06:00","-21.2","","-25.2","","70","","","","","","0","","24.1","","99.23","","","","","","Mostly Cloudy"
"-68.42","58.10","KUUJJUAQ A","7113534","2012-02-06 07:00","2012","02","06","07:00","-21.1","","-25.0","","71","","","","","","0","","24.1","","99.25","","","","","","Snow"
"-68.42","58.10","KUUJJUAQ A","7113534","2012-02-06 08:00","2012","02","06","08:00","-21.4","","-25.2","","71","","","","21","","6","","24.1","","99.26","","","","-27","","Snow"
"-68.42","58.10","KUUJJUAQ A","7113534","2012-02-06 09:00","2012","02","06","09:00","-20.7","","-24.5","","72","","","","","","0","","24.1","","99.26","","","","","","Snow"
"-68.42","58.10","KUUJJUAQ A","7113534","2012-02-06 10:00","2012","02","06","10:00","-19.4","","-23.0","","73","","","","","","0","","24.1","","99.27","","","","","","Snow"
"-68.42","58.10","KUUJJUAQ A","7113534","2012-02-06 11:00","2012","02","06","11:00","-18.7","","-22.4","","73","","","","16","","6","","11.3","","99.22","","","","-24","","Snow"
"-68.42","58.10","KUUJJUAQ A","7113534","2012-02-06 12:00","2012","02","06","12:00","-17.3","","-21.3","","71","","","","","","0","","12.9","","99.24","","","","","","Snow"
"-68.42","58.10","KUUJJUAQ A","7113534","2012-02-06 13:00","2012","02","06","13:00","-16.3","","-20.4","","71","","","","","","0","","9.7","","99.21","","","","","","Snow"
"-68.42","58.10","KUUJJUAQ A","7113534","2012-02-06 14:00","2012","02","06","14:00","-15.6","","-19.6","","71","","","","","","0","","12.9","","99.26","","","","","","Snow"
"-68.42","58.10","KUUJJUAQ A","7113534","2012-02-06 15:00","2012","02","06","15:00","-15.2","","-19.2","","71","","","","","","0","","12.9","","99.27","","","","","","Snow"
"-68.42","58.10","KUUJJUAQ A","7113534","2012-02-06 16:00","2012","02","06","16:00","-15.6","","-19.3","","73","","","","23","","9","","9.7","","99.31","","","","-22","","Snow"
"-68.42","58.10","KUUJJUAQ A","7113534","2012-02-06 17:00","2012","02","06","17:00","-15.0","","-18.7","","73","","","","","","0","","9.7","","99.35","","","","","","Snow"
"-68.42","58.10","KUUJJUAQ A","7113534","2012-02-06 18:00","2012","02","06","18:00","-15.5","","-18.8","","76","","","","","","0","","12.9","","99.37","","","","","","Snow"
"-68.42","58.10","KUUJJUAQ A","7113534","2012-02-06 19:00","2012","02","06","19:00","-14.8","","-18.2","","75","","","","33","","11","","12.9","","99.43","","","","-21","","Snow"
"-68.42","58.10","KUUJJUAQ A","7113534","2012-02-06 20:00","2012","02","06","20:00","-14.6","","-18.4","","73","","","","32","","19","","9.7","","99.48","","","","-23","","Snow"
"-68.42","58.10","KUUJJUAQ A","7113534","2012-02-06 21:00","2012","02","06","21:00","-15.5","","-19.5","","71","","","","33","","20","","3.2","","99.54","","","","-25","","Snow"
"-68.42","58.10","KUUJJUAQ A","7113534","2012-02-06 22:00","2012","02","06","22:00","-16.8","","-21.1","","69","","","","33","","17","","12.9","","99.62","","","","-26","","Snow"
"-68.42","58.10","KUUJJUAQ A","7113534","2012-02-06 23:00","2012","02","06","23:00","-17.7","","-22.4","","67","","","","34","","7","","9.7","","99.73","","","","-23","","Snow"
"-68.42","58.10","KUUJJUAQ A","7113534","2012-02-07 00:00","2012","02","07","00:00","-18.3","","-23.5","","64","","","","31","","22","","6.4","","99.81","","","","-29","","Snow"
"-68.42","58.10","KUUJJUAQ A","7113534","2012-02-07 01:00","2012","02","07","01:00","-21.2","","-26.3","","63","","","","31","","17","","16.1","","99.93","","","","-31","","Snow"
"-68.42","58.10","KUUJJUAQ A","7113534","2012-02-07 02:00","2012","02","07","02:00","-23.4","","-29.4","","58","","","","28","","19","","24.1","","100.04","","","","-34","","Snow"
"-68.42","58.10","KUUJJUAQ A","7113534","2012-02-07 03:00","2012","02","07","03:00","-25.4","","-31.5","","57","","","","27","","22","","24.1","","100.11","","","","-38","","Mainly Clear"
"-68.42","58.10","KUUJJUAQ A","7113534","2012-02-07 04:00","2012","02","07","04:00","-27.1","","-32.7","","59","","","","21","","13","","24.1","","100.17","","","","-37","","Clear"
"-68.42","58.10","KUUJJUAQ A","7113534","2012-02-07 05:00","2012","02","07","05:00","-27.9","","-33.4","","59","","","","25","","15","","24.1","","100.22","","","","-39","","Clear"
"-68.42","58.10","KUUJJUAQ A","7113534","2012-02-07 06:00","2012","02","07","06:00","-28.4","","-34.1","","58","","","","24","","15","","24.1","","100.28","","","","-39","","Mainly Clear"
"-68.42","58.10","KUUJJUAQ A","7113534","2012-02-07 07:00","2012","02","07","07:00","-28.6","","-34.2","","59","","","","22","","15","","24.1","","100.27","","","","-40","","Mainly Clear"
"-68.42","58.10","KUUJJUAQ A","7113534","2012-02-07 08:00","2012","02","07","08:00","-28.2","","-33.7","","59","","","","22","","22","","24.1","","100.32","","","","-41","","Mainly Clear"
"-68.42","58.10","KUUJJUAQ A","7113534","2012-02-07 09:00","2012","02","07","09:00","-27.5","","-33.2","","58","","","","22","","26","","24.1","","100.27","","","","-41","","Mainly Clear"
"-68.42","58.10","KUUJJUAQ A","7113534","2012-02-07 10:00","2012","02","07","10:00","-25.8","","-31.8","","57","","","","23","","19","","24.1","","100.22","","","","-38","","Mainly Clear"
"-68.42","58.10","KUUJJUAQ A","7113534","2012-02-07 11:00","2012","02","07","11:00","-24.5","","-30.6","","57","","","","22","","24","","24.1","","100.13","","","","-37","","Mostly Cloudy"
"-68.42","58.10","KUUJJUAQ A","7113534","2012-02-07 12:00","2012","02","07","12:00","-23.6","","-29.1","","61","","","","21","","19","","16.1","","100.01","","","","-35","","Snow"
"-68.42","58.10","KUUJJUAQ A","7113534","2012-02-07 13:00","2012","02","07","13:00","-22.4","","-28.3","","59","","","","22","","28","","8.0","","99.86","","","","-35","","Snow"
"-68.42","58.10","KUUJJUAQ A","7113534","2012-02-07 14:00","2012","02","07","14:00","-21.6","","-26.3","","66","","","","22","","28","","3.2","","99.78","","","","-34","","Snow"
"-68.42","58.10","KUUJJUAQ A","7113534","2012-02-07 15:00","2012","02","07","15:00","-20.8","","-25.6","","65","","","","21","","32","","3.2","","99.68","","","","-34","","Snow"
"-68.42","58.10","KUUJJUAQ A","7113534","2012-02-07 16:00","2012","02","07","16:00","-20.0","","-24.9","","65","","","","20","","19","","4.0","","99.60","","","","-30","","Snow"
"-68.42","58.10","KUUJJUAQ A","7113534","2012-02-07 17:00","2012","02","07","17:00","-19.8","","-24.4","","67","","","","18","","24","","4.0","","99.45","","","","-31","","Snow"
"-68.42","58.10","KUUJJUAQ A","7113534","2012-02-07 18:00","2012","02","07","18:00","-19.3","","-23.4","","70","","","","20","","28","","4.0","","99.22","","","","-31","","Snow"
"-68.42","58.10","KUUJJUAQ A","7113534","2012-02-07 19:00","2012","02","07","19:00","-19.1","","-23.3","","69","","","","19","","26","","3.2","","99.10","","","","-31","","Snow"
"-68.42","58.10","KUUJJUAQ A","7113534","2012-02-07 20:00","2012","02","07","20:00","-18.5","","-22.7","","69","","","","21","","30","","3.2","","98.98","","","","-31","","Snow"
"-68.42","58.10","KUUJJUAQ A","7113534","2012-02-07 21:00","2012","02","07","21:00","-17.9","","-22.0","","70","","","","20","","30","","3.2","","98.85","","","","-30","","Snow"
"-68.42","58.10","KUUJJUAQ A","7113534","2012-02-07 22:00","2012","02","07","22:00","-17.8","","-21.8","","71","","","","21","","30","","3.2","","98.71","","","","-30","","Snow"
"-68.42","58.10","KUUJJUAQ A","7113534","2012-02-07 23:00","2012","02","07","23:00","-17.7","","-21.7","","71","","","","22","","30","","3.2","","98.58","","","","-30","","Snow"
"-68.42","58.10","KUUJJUAQ A","7113534","2012-02-08 00:00","2012","02","08","00:00","-17.7","","-21.4","","73","","","","21","","32","","6.4","","98.48","","","","-30","","Snow,Blowing Snow"
"-68.42","58.10","KUUJJUAQ A","7113534","2012-02-08 01:00","2012","02","08","01:00","-18.1","","-22.1","","71","","","","23","","24","","6.4","","98.40","","","","-29","","Snow"
"-68.42","58.10","KUUJJUAQ A","7113534","2012-02-08 02:00","2012","02","08","02:00","-18.5","","-22.8","","69","","","","21","","28","","9.7","","98.33","","","","-30","","Snow"
"-68.42","58.10","KUUJJUAQ A","7113534","2012-02-08 03:00","2012","02","08","03:00","-18.5","","-23.0","","68","","","","22","","26","","24.1","","98.29","","","","-30","","Snow"
"-68.42","58.10","KUUJJUAQ A","7113534","2012-02-08 04:00","2012","02","08","04:00","-18.8","","-21.5","","79","","","","26","","26","","0.4","","98.29","","","","-30","","Snow,Blowing Snow"
"-68.42","58.10","KUUJJUAQ A","7113534","2012-02-08 05:00","2012","02","08","05:00","-23.2","","-29.9","","54","","","","27","","26","","24.1","","98.48","","","","-36","","Snow"
"-68.42","58.10","KUUJJUAQ A","7113534","2012-02-08 06:00","2012","02","08","06:00","-25.2","","-31.8","","54","","","","27","","24","","24.1","","98.60","","","","-38","","Ice Crystals"
"-68.42","58.10","KUUJJUAQ A","7113534","2012-02-08 07:00","2012","02","08","07:00","-26.5","","-33.1","","54","","","","24","","13","","24.1","","98.71","","","","-36","","Ice Crystals"
"-68.42","58.10","KUUJJUAQ A","7113534","2012-02-08 08:00","2012","02","08","08:00","-26.4","","-34.1","","48","","","","26","","28","","24.1","","98.80","","","","-41","","Ice Crystals"
"-68.42","58.10","KUUJJUAQ A","7113534","2012-02-08 09:00","2012","02","08","09:00","-26.4","","-33.9","","49","","","","26","","28","","24.1","","98.88","","","","-41","","Mainly Clear"
"-68.42","58.10","KUUJJUAQ A","7113534","2012-02-08 10:00","2012","02","08","10:00","-26.0","","-34.2","","46","","","","27","","19","","24.1","","98.91","","","","-38","","Mainly Clear"
"-68.42","58.10","KUUJJUAQ A","7113534","2012-02-08 11:00","2012","02","08","11:00","-26.5","","-34.0","","49","","","","27","","28","","19.3","","98.93","","","","-41","","Mostly Cloudy"
"-68.42","58.10","KUUJJUAQ A","7113534","2012-02-08 12:00","2012","02","08","12:00","-25.8","","-33.4","","49","","","","24","","22","","19.3","","98.93","","","","-38","","Ice Crystals"
"-68.42","58.10","KUUJJUAQ A","7113534","2012-02-08 13:00","2012","02","08","13:00","-25.7","","-33.3","","49","","","","25","","28","","16.1","","98.96","","","","-40","","Ice Crystals"
"-68.42","58.10","KUUJJUAQ A","7113534","2012-02-08 14:00","2012","02","08","14:00","-25.5","","-32.3","","53","","","","25","","19","","6.4","","98.99","","","","-37","","Ice Crystals"
"-68.42","58.10","KUUJJUAQ A","7113534","2012-02-08 15:00","2012","02","08","15:00","-25.4","","-32.6","","51","","","","25","","19","","9.7","","99.03","","","","-37","","Ice Crystals"
"-68.42","58.10","KUUJJUAQ A","7113534","2012-02-08 16:00","2012","02","08","16:00","-25.3","","-31.8","","55","","","","24","","17","","6.4","","99.07","","","","-36","","Snow"
"-68.42","58.10","KUUJJUAQ A","7113534","2012-02-08 17:00","2012","02","08","17:00","-25.7","","-31.5","","58","","","","22","","9","","9.7","","99.14","","","","-33","","Snow"
"-68.42","58.10","KUUJJUAQ A","7113534","2012-02-08 18:00","2012","02","08","18:00","-26.3","","-33.2","","52","","","","24","","19","","24.1","","99.18","","","","-38","","Ice Crystals"
"-68.42","58.10","KUUJJUAQ A","7113534","2012-02-08 19:00","2012","02","08","19:00","-26.8","","-33.1","","55","","","","24","","11","","24.1","","99.20","","","","-36","","Ice Crystals"
"-68.42","58.10","KUUJJUAQ A","7113534","2012-02-08 20:00","2012","02","08","20:00","-27.3","","-32.5","","61","","","","19","","7","","24.1","","99.19","","","","-34","","Ice Crystals"
"-68.42","58.10","KUUJJUAQ A","7113534","2012-02-08 21:00","2012","02","08","21:00","-27.3","","-32.4","","62","","","","22","","9","","24.1","","99.20","","","","-35","","Ice Crystals"
"-68.42","58.10","KUUJJUAQ A","7113534","2012-02-08 22:00","2012","02","08","22:00","-27.9","","-32.9","","62","","","","","","0","","16.1","","99.25","","","","","","Ice Crystals"
"-68.42","58.10","KUUJJUAQ A","7113534","2012-02-08 23:00","2012","02","08","23:00","-29.2","","-34.0","","63","","","","","","0","","24.1","","99.30","","","","","","Ice Crystals"
"-68.42","58.10","KUUJJUAQ A","7113534","2012-02-09 00:00","2012","02","09","00:00","-29.5","","-34.1","","64","","","","","","0","","24.1","","99.35","","","","","","Ice Crystals"
"-68.42","58.10","KUUJJUAQ A","7113534","2012-02-09 01:00","2012","02","09","01:00","-30.3","","-34.4","","67","","","","23","","7","","24.1","","99.39","","","","-38","","Ice Crystals"
"-68.42","58.10","KUUJJUAQ A","7113534","2012-02-09 02:00","2012","02","09","02:00","-30.8","","-35.4","","64","","","","","","0","","24.1","","99.47","","","","","","Ice Crystals"
"-68.42","58.10","KUUJJUAQ A","7113534","2012-02-09 03:00","2012","02","09","03:00","-30.5","","-35.5","","62","","","","23","","7","","24.1","","99.52","","","","-38","","Ice Crystals"
"-68.42","58.10","KUUJJUAQ A","7113534","2012-02-09 04:00","2012","02","09","04:00","-30.6","","-35.5","","62","","","","24","","7","","24.1","","99.60","","","","-38","","Ice Crystals"
"-68.42","58.10","KUUJJUAQ A","7113534","2012-02-09 05:00","2012","02","09","05:00","-30.9","","-35.8","","62","","","","24","","17","","24.1","","99.66","","","","-43","","Ice Crystals"
"-68.42","58.10","KUUJJUAQ A","7113534","2012-02-09 06:00","2012","02","09","06:00","-31.9","","-36.9","","61","","","","19","","6","","24.1","","99.77","","","","-39","","Ice Crystals"
"-68.42","58.10","KUUJJUAQ A","7113534","2012-02-09 07:00","2012","02","09","07:00","-32.6","","-37.3","","63","","","","23","","11","","24.1","","99.85","","","","-43","","Ice Crystals"
"-68.42","58.10","KUUJJUAQ A","7113534","2012-02-09 08:00","2012","02","09","08:00","-32.6","","-38.0","","59","","","","","","0","","24.1","","99.94","","","","","","Ice Crystals"
"-68.42","58.10","KUUJJUAQ A","7113534","2012-02-09 09:00","2012","02","09","09:00","-30.6","","-36.0","","59","","","","23","","19","","24.1","","99.98","","","","-44","","Ice Crystals"
"-68.42","58.10","KUUJJUAQ A","7113534","2012-02-09 10:00","2012","02","09","10:00","-29.1","","-35.6","","53","","","","23","","19","","24.1","","100.06","","","","-42","","Ice Crystals"
"-68.42","58.10","KUUJJUAQ A","7113534","2012-02-09 11:00","2012","02","09","11:00","-28.1","","-35.2","","51","","","","22","","22","","24.1","","100.11","","","","-41","","Ice Crystals"
"-68.42","58.10","KUUJJUAQ A","7113534","2012-02-09 12:00","2012","02","09","12:00","-27.5","","-34.6","","51","","","","24","","19","","24.1","","100.17","","","","-40","","Ice Crystals"
"-68.42","58.10","KUUJJUAQ A","7113534","2012-02-09 13:00","2012","02","09","13:00","-27.2","","-34.5","","50","","","","22","","19","","24.1","","100.24","","","","-39","","Ice Crystals"
"-68.42","58.10","KUUJJUAQ A","7113534","2012-02-09 14:00","2012","02","09","14:00","-26.7","","-33.8","","51","","","","21","","19","","19.3","","100.31","","","","-39","","Ice Crystals"
"-68.42","58.10","KUUJJUAQ A","7113534","2012-02-09 15:00","2012","02","09","15:00","-26.5","","-34.0","","49","","","","21","","19","","19.3","","100.39","","","","-38","","Ice Crystals"
"-68.42","58.10","KUUJJUAQ A","7113534","2012-02-09 16:00","2012","02","09","16:00","-26.7","","-33.4","","53","","","","22","","13","","16.1","","100.48","","","","-37","","Ice Crystals"
"-68.42","58.10","KUUJJUAQ A","7113534","2012-02-09 17:00","2012","02","09","17:00","-27.0","","-33.3","","55","","","","21","","11","","16.1","","100.56","","","","-36","","Ice Crystals"
"-68.42","58.10","KUUJJUAQ A","7113534","2012-02-09 18:00","2012","02","09","18:00","-27.5","","-33.2","","58","","","","","","0","","16.1","","100.61","","","","","","Ice Crystals"
"-68.42","58.10","KUUJJUAQ A","7113534","2012-02-09 19:00","2012","02","09","19:00","-28.0","","-33.4","","60","","","","22","","7","","24.1","","100.67","","","","-35","","Ice Crystals"
"-68.42","58.10","KUUJJUAQ A","7113534","2012-02-09 20:00","2012","02","09","20:00","-28.1","","-33.9","","58","","","","","","0","","24.1","","100.74","","","","","","Mostly Cloudy"
"-68.42","58.10","KUUJJUAQ A","7113534","2012-02-09 21:00","2012","02","09","21:00","-28.5","","-34.1","","59","","","","","","0","","24.1","","100.79","","","","","","Mostly Cloudy"
"-68.42","58.10","KUUJJUAQ A","7113534","2012-02-09 22:00","2012","02","09","22:00","-28.9","","-34.3","","60","","","","","","0","","24.1","","100.80","","","","","","Snow"
"-68.42","58.10","KUUJJUAQ A","7113534","2012-02-09 23:00","2012","02","09","23:00","-29.9","","-34.9","","62","","","","22","","6","","24.1","","100.80","","","","-36","","Snow"
"-68.42","58.10","KUUJJUAQ A","7113534","2012-02-10 00:00","2012","02","10","00:00","-30.0","","-34.8","","63","","","","","","0","","16.1","","100.78","","","","","","Ice Crystals"
"-68.42","58.10","KUUJJUAQ A","7113534","2012-02-10 01:00","2012","02","10","01:00","-30.6","","-35.1","","65","","","","","","0","","24.1","","100.81","","","","","","Ice Crystals"
"-68.42","58.10","KUUJJUAQ A","7113534","2012-02-10 02:00","2012","02","10","02:00","-30.9","","-35.4","","65","","","","","","0","","24.1","","100.80","","","","","","Ice Crystals"
"-68.42","58.10","KUUJJUAQ A","7113534","2012-02-10 03:00","2012","02","10","03:00","-31.2","","-35.7","","64","","","","","","0","","24.1","","100.78","","","","","","Ice Crystals"
"-68.42","58.10","KUUJJUAQ A","7113534","2012-02-10 04:00","2012","02","10","04:00","-31.7","","-36.2","","64","","","","","","0","","24.1","","100.79","","","","","","Ice Crystals"
"-68.42","58.10","KUUJJUAQ A","7113534","2012-02-10 05:00","2012","02","10","05:00","-32.0","","-36.8","","62","","","","","","0","","19.3","","100.81","","","","","","Ice Crystals"
"-68.42","58.10","KUUJJUAQ A","7113534","2012-02-10 06:00","2012","02","10","06:00","-33.6","","-39.2","","57","","","","","","0","","24.1","","100.82","","","","","","Ice Crystals"
"-68.42","58.10","KUUJJUAQ A","7113534","2012-02-10 07:00","2012","02","10","07:00","-33.7","","-37.5","","69","","","","","","0","","19.3","","100.81","","","","","","Ice Crystals"
"-68.42","58.10","KUUJJUAQ A","7113534","2012-02-10 08:00","2012","02","10","08:00","-33.7","","-37.9","","66","","","","","","0","","16.1","","100.81","","","","","","Ice Crystals"
"-68.42","58.10","KUUJJUAQ A","7113534","2012-02-10 09:00","2012","02","10","09:00","-32.6","","-36.6","","67","","","","","","0","","16.1","","100.79","","","","","","Ice Crystals"
"-68.42","58.10","KUUJJUAQ A","7113534","2012-02-10 10:00","2012","02","10","10:00","-29.8","","-34.3","","65","","","","","","0","","19.3","","100.77","","","","","","Ice Crystals"
"-68.42","58.10","KUUJJUAQ A","7113534","2012-02-10 11:00","2012","02","10","11:00","-26.8","","-33.6","","53","","","","","","0","","24.1","","100.73","","","","","","Ice Crystals"
"-68.42","58.10","KUUJJUAQ A","7113534","2012-02-10 12:00","2012","02","10","12:00","-27.6","","-33.4","","58","","","","","","0","","24.1","","100.64","","","","","","Ice Crystals"
"-68.42","58.10","KUUJJUAQ A","7113534","2012-02-10 13:00","2012","02","10","13:00","-27.0","","-32.7","","58","","","","35","","9","","24.1","","100.57","","","","-35","","Ice Crystals"
"-68.42","58.10","KUUJJUAQ A","7113534","2012-02-10 14:00","2012","02","10","14:00","-26.4","","-32.4","","57","","","","33","","13","","12.9","","100.55","","","","-36","","Snow"
"-68.42","58.10","KUUJJUAQ A","7113534","2012-02-10 15:00","2012","02","10","15:00","-26.3","","-32.3","","57","","","","32","","11","","8.0","","100.58","","","","-35","","Snow"
"-68.42","58.10","KUUJJUAQ A","7113534","2012-02-10 16:00","2012","02","10","16:00","-27.1","","-32.6","","60","","","","29","","13","","4.8","","100.62","","","","-37","","Snow"
"-68.42","58.10","KUUJJUAQ A","7113534","2012-02-10 17:00","2012","02","10","17:00","-27.8","","-33.1","","61","","","","29","","11","","6.4","","100.62","","","","-37","","Snow"
"-68.42","58.10","KUUJJUAQ A","7113534","2012-02-10 18:00","2012","02","10","18:00","-28.2","","-33.4","","61","","","","","","0","","9.7","","100.66","","","","","","Snow"
"-68.42","58.10","KUUJJUAQ A","7113534","2012-02-10 19:00","2012","02","10","19:00","-29.6","","-34.5","","62","","","","22","","6","","16.1","","100.70","","","","-36","","Ice Crystals"
"-68.42","58.10","KUUJJUAQ A","7113534","2012-02-10 20:00","2012","02","10","20:00","-29.8","","-35.0","","61","","","","20","","7","","19.3","","100.70","","","","-37","","Ice Crystals"
"-68.42","58.10","KUUJJUAQ A","7113534","2012-02-10 21:00","2012","02","10","21:00","-31.5","","-36.5","","61","","","","","","0","","24.1","","100.69","","","","","","Ice Crystals"
"-68.42","58.10","KUUJJUAQ A","7113534","2012-02-10 22:00","2012","02","10","22:00","-32.7","","-37.6","","62","","","","22","","11","","24.1","","100.67","","","","-43","","Clear"
"-68.42","58.10","KUUJJUAQ A","7113534","2012-02-10 23:00","2012","02","10","23:00","-33.2","","-37.6","","65","","","","21","","17","","24.1","","100.69","","","","-46","","Clear"
"-68.42","58.10","KUUJJUAQ A","7113534","2012-02-11 00:00","2012","02","11","00:00","-34.0","","-38.4","","64","","","","22","","9","","24.1","","100.68","","","","-43","","Clear"
"-68.42","58.10","KUUJJUAQ A","7113534","2012-02-11 01:00","2012","02","11","01:00","-34.2","","-39.1","","61","","","","19","","13","","24.1","","100.69","","","","-46","","Clear"
"-68.42","58.10","KUUJJUAQ A","7113534","2012-02-11 02:00","2012","02","11","02:00","-34.9","","-39.4","","63","","","","21","","17","","24.1","","100.72","","","","-48","","Clear"
"-68.42","58.10","KUUJJUAQ A","7113534","2012-02-11 03:00","2012","02","11","03:00","-35.2","","-40.2","","60","","","","21","","20","","24.1","","100.67","","","","-50","","Clear"
"-68.42","58.10","KUUJJUAQ A","7113534","2012-02-11 04:00","2012","02","11","04:00","-37.1","","-41.3","","65","","","","22","","17","","24.1","","100.66","","","","-51","","Ice Crystals"
"-68.42","58.10","KUUJJUAQ A","7113534","2012-02-11 05:00","2012","02","11","05:00","-37.3","","-42.0","","62","","","","21","","17","","24.1","","100.63","","","","-51","","Ice Crystals"
"-68.42","58.10","KUUJJUAQ A","7113534","2012-02-11 06:00","2012","02","11","06:00","-38.0","","-42.1","","65","","","","19","","9","","24.1","","100.66","","","","-48","","Ice Crystals"
"-68.42","58.10","KUUJJUAQ A","7113534","2012-02-11 07:00","2012","02","11","07:00","-37.5","","-41.4","","67","","","","20","","17","","24.1","","100.64","","","","-51","","Ice Crystals"
"-68.42","58.10","KUUJJUAQ A","7113534","2012-02-11 08:00","2012","02","11","08:00","-37.4","","-41.5","","65","","","","24","","19","","24.1","","100.64","","","","-52","","Ice Crystals"
"-68.42","58.10","KUUJJUAQ A","7113534","2012-02-11 09:00","2012","02","11","09:00","-35.2","","-39.5","","65","","","","20","","13","","24.1","","100.65","","","","-47","","Ice Crystals"
"-68.42","58.10","KUUJJUAQ A","7113534","2012-02-11 10:00","2012","02","11","10:00","-32.8","","-37.8","","61","","","","22","","13","","24.1","","100.68","","","","-44","","Ice Crystals"
"-68.42","58.10","KUUJJUAQ A","7113534","2012-02-11 11:00","2012","02","11","11:00","-31.0","","-36.7","","57","","","","22","","19","","24.1","","100.65","","","","-44","","Ice Crystals"
"-68.42","58.10","KUUJJUAQ A","7113534","2012-02-11 12:00","2012","02","11","12:00","-29.0","","-35.2","","55","","","","21","","19","","24.1","","100.62","","","","-42","","Ice Crystals"
"-68.42","58.10","KUUJJUAQ A","7113534","2012-02-11 13:00","2012","02","11","13:00","-28.3","","-35.0","","53","","","","22","","19","","24.1","","100.63","","","","-41","","Ice Crystals"
"-68.42","58.10","KUUJJUAQ A","7113534","2012-02-11 14:00","2012","02","11","14:00","-27.4","","-34.4","","51","","","","24","","19","","24.1","","100.65","","","","-40","","Ice Crystals"
"-68.42","58.10","KUUJJUAQ A","7113534","2012-02-11 15:00","2012","02","11","15:00","-27.2","","-34.9","","48","","","","24","","19","","24.1","","100.70","","","","-39","","Ice Crystals"
"-68.42","58.10","KUUJJUAQ A","7113534","2012-02-11 16:00","2012","02","11","16:00","-28.9","","-35.4","","53","","","","22","","19","","24.1","","100.77","","","","-41","","Ice Crystals"
"-68.42","58.10","KUUJJUAQ A","7113534","2012-02-11 17:00","2012","02","11","17:00","-30.0","","-35.7","","58","","","","23","","15","","24.1","","100.84","","","","-41","","Ice Crystals"
"-68.42","58.10","KUUJJUAQ A","7113534","2012-02-11 18:00","2012","02","11","18:00","-31.6","","-36.9","","59","","","","22","","19","","24.1","","100.85","","","","-45","","Clear"
"-68.42","58.10","KUUJJUAQ A","7113534","2012-02-11 19:00","2012","02","11","19:00","-32.2","","-37.2","","61","","","","22","","7","","24.1","","100.93","","","","-40","","Clear"
"-68.42","58.10","KUUJJUAQ A","7113534","2012-02-11 20:00","2012","02","11","20:00","-32.1","","-37.4","","59","","","","20","","11","","24.1","","100.96","","","","-42","","Clear"
"-68.42","58.10","KUUJJUAQ A","7113534","2012-02-11 21:00","2012","02","11","21:00","-33.0","","-38.0","","61","","","","19","","9","","24.1","","100.99","","","","-42","","Clear"
"-68.42","58.10","KUUJJUAQ A","7113534","2012-02-11 22:00","2012","02","11","22:00","-34.3","","-39.0","","62","","","","18","","7","","24.1","","101.04","","","","-42","","Clear"
"-68.42","58.10","KUUJJUAQ A","7113534","2012-02-11 23:00","2012","02","11","23:00","-35.4","","-39.9","","63","","","","22","","15","","24.1","","101.06","","","","-48","","Clear"
"-68.42","58.10","KUUJJUAQ A","7113534","2012-02-12 00:00","2012","02","12","00:00","-35.6","","-40.3","","62","","","","17","","9","","24.1","","101.05","","","","-45","","Clear"
"-68.42","58.10","KUUJJUAQ A","7113534","2012-02-12 01:00","2012","02","12","01:00","-36.5","","-40.6","","66","","","","21","","9","","24.1","","101.09","","","","-46","","Clear"
"-68.42","58.10","KUUJJUAQ A","7113534","2012-02-12 02:00","2012","02","12","02:00","-37.1","","-41.2","","66","","","","22","","13","","24.1","","101.13","","","","-49","","Clear"
"-68.42","58.10","KUUJJUAQ A","7113534","2012-02-12 03:00","2012","02","12","03:00","-37.1","","-41.7","","62","","","","21","","11","","24.1","","101.13","","","","-48","","Clear"
"-68.42","58.10","KUUJJUAQ A","7113534","2012-02-12 04:00","2012","02","12","04:00","-37.7","","-41.6","","67","","","","18","","7","","24.1","","101.18","","","","-46","","Clear"
"-68.42","58.10","KUUJJUAQ A","7113534","2012-02-12 05:00","2012","02","12","05:00","-38.1","","-42.2","","65","","","","","","0","","24.1","","101.20","","","","","","Clear"
"-68.42","58.10","KUUJJUAQ A","7113534","2012-02-12 06:00","2012","02","12","06:00","-38.7","","-42.9","","64","","","","","","0","","24.1","","101.19","","","","","","Ice Crystals"
"-68.42","58.10","KUUJJUAQ A","7113534","2012-02-12 07:00","2012","02","12","07:00","-38.5","","-42.5","","66","","","","","","0","","19.3","","101.14","","","","","","Ice Crystals"
"-68.42","58.10","KUUJJUAQ A","7113534","2012-02-12 08:00","2012","02","12","08:00","-39.7","","-43.1","","70","","","","","","0","","1.6","","101.19","","","","","","Fog"
"-68.42","58.10","KUUJJUAQ A","7113534","2012-02-12 09:00","2012","02","12","09:00","-38.1","","-42.5","","63","","","","","","0","","1.2","","101.03","","","","","","Fog"
"-68.42","58.10","KUUJJUAQ A","7113534","2012-02-12 10:00","2012","02","12","10:00","-35.2","","-38.5","","72","","","","","","0","","16.1","","100.96","","","","","","Ice Crystals"
"-68.42","58.10","KUUJJUAQ A","7113534","2012-02-12 11:00","2012","02","12","11:00","-32.9","","-37.7","","62","","","","","","0","","24.1","","100.85","","","","","","Ice Crystals"
"-68.42","58.10","KUUJJUAQ A","7113534","2012-02-12 12:00","2012","02","12","12:00","-31.7","","-38.2","","53","","","","13","","7","","24.1","","100.70","","","","-39","","Mainly Clear"
"-68.42","58.10","KUUJJUAQ A","7113534","2012-02-12 13:00","2012","02","12","13:00","-27.8","","-35.2","","49","","","","","","0","","24.1","","100.70","","","","","","Mainly Clear"
"-68.42","58.10","KUUJJUAQ A","7113534","2012-02-12 14:00","2012","02","12","14:00","-26.2","","-33.2","","52","","","","33","","9","","24.1","","100.71","","","","-34","","Mostly Cloudy"
"-68.42","58.10","KUUJJUAQ A","7113534","2012-02-12 15:00","2012","02","12","15:00","-26.8","","-33.7","","52","","","","33","","15","","24.1","","100.66","","","","-37","","Ice Crystals"
"-68.42","58.10","KUUJJUAQ A","7113534","2012-02-12 16:00","2012","02","12","16:00","-26.6","","-32.6","","57","","","","30","","17","","24.1","","100.52","","","","-38","","Ice Crystals"
"-68.42","58.10","KUUJJUAQ A","7113534","2012-02-12 17:00","2012","02","12","17:00","-27.1","","-32.6","","60","","","","30","","19","","24.1","","100.46","","","","-39","","Ice Crystals"
"-68.42","58.10","KUUJJUAQ A","7113534","2012-02-12 18:00","2012","02","12","18:00","-25.0","","-29.9","","64","","","","33","","19","","24.1","","100.37","","","","-37","","Snow"
"-68.42","58.10","KUUJJUAQ A","7113534","2012-02-12 19:00","2012","02","12","19:00","-23.6","","-28.3","","65","","","","34","","24","","19.3","","100.34","","","","-36","","Snow"
"-68.42","58.10","KUUJJUAQ A","7113534","2012-02-12 20:00","2012","02","12","20:00","-22.3","","-27.3","","64","","","","30","","19","","19.3","","100.40","","","","-33","","Snow"
"-68.42","58.10","KUUJJUAQ A","7113534","2012-02-12 21:00","2012","02","12","21:00","-22.1","","-27.1","","64","","","","32","","19","","19.3","","100.26","","","","-33","","Snow"
"-68.42","58.10","KUUJJUAQ A","7113534","2012-02-12 22:00","2012","02","12","22:00","-21.3","","-26.0","","66","","","","33","","20","","6.4","","100.11","","","","-32","","Snow"
"-68.42","58.10","KUUJJUAQ A","7113534","2012-02-12 23:00","2012","02","12","23:00","-20.6","","-24.9","","68","","","","32","","22","","3.2","","100.05","","","","-32","","Snow"
"-68.42","58.10","KUUJJUAQ A","7113534","2012-02-13 00:00","2012","02","13","00:00","-20.0","","-24.1","","70","","","","32","","20","","2.4","","99.95","","","","-30","","Snow"
"-68.42","58.10","KUUJJUAQ A","7113534","2012-02-13 01:00","2012","02","13","01:00","-19.9","","-24.0","","70","","","","34","","22","","3.2","","99.94","","","","-31","","Snow"
"-68.42","58.10","KUUJJUAQ A","7113534","2012-02-13 02:00","2012","02","13","02:00","-19.6","","-23.8","","69","","","","33","","24","","4.0","","99.84","","","","-31","","Snow"
"-68.42","58.10","KUUJJUAQ A","7113534","2012-02-13 03:00","2012","02","13","03:00","-18.8","","-23.2","","68","","","","32","","15","","3.2","","99.76","","","","-28","","Snow"
"-68.42","58.10","KUUJJUAQ A","7113534","2012-02-13 04:00","2012","02","13","04:00","-18.1","","-22.2","","70","","","","34","","26","","3.2","","99.67","","","","-29","","Snow"
"-68.42","58.10","KUUJJUAQ A","7113534","2012-02-13 05:00","2012","02","13","05:00","-18.0","","-22.1","","70","","","","34","","22","","2.4","","99.61","","","","-28","","Snow"
"-68.42","58.10","KUUJJUAQ A","7113534","2012-02-13 06:00","2012","02","13","06:00","-18.1","","-22.3","","70","","","","36","","26","","3.2","","99.56","","","","-29","","Snow"
"-68.42","58.10","KUUJJUAQ A","7113534","2012-02-13 07:00","2012","02","13","07:00","-18.2","","-22.3","","70","","","","33","","24","","2.4","","99.44","","","","-29","","Snow,Blowing Snow"
"-68.42","58.10","KUUJJUAQ A","7113534","2012-02-13 08:00","2012","02","13","08:00","-20.0","","-24.2","","69","","","","33","","26","","1.6","","99.35","","","","-32","","Snow,Blowing Snow"
"-68.42","58.10","KUUJJUAQ A","7113534","2012-02-13 09:00","2012","02","13","09:00","-19.8","","-24.0","","69","","","","31","","28","","1.6","","99.21","","","","-32","","Snow,Blowing Snow"
"-68.42","58.10","KUUJJUAQ A","7113534","2012-02-13 10:00","2012","02","13","10:00","-19.9","","-24.2","","69","","","","32","","30","","1.6","","99.15","","","","-32","","Snow,Blowing Snow"
"-68.42","58.10","KUUJJUAQ A","7113534","2012-02-13 11:00","2012","02","13","11:00","-19.9","","-24.3","","68","","","","33","","32","","1.6","","99.02","","","","-33","","Snow,Blowing Snow"
"-68.42","58.10","KUUJJUAQ A","7113534","2012-02-13 12:00","2012","02","13","12:00","-19.9","","-24.4","","67","","","","32","","41","","1.6","","98.82","","","","-34","","Snow,Blowing Snow"
"-68.42","58.10","KUUJJUAQ A","7113534","2012-02-13 13:00","2012","02","13","13:00","-19.5","","-24.0","","67","","","","32","","39","","1.6","","98.76","","","","-33","","Snow,Blowing Snow"
"-68.42","58.10","KUUJJUAQ A","7113534","2012-02-13 14:00","2012","02","13","14:00","-19.6","","-24.5","","65","","","","31","","24","","3.2","","98.74","","","","-31","","Snow,Blowing Snow"
"-68.42","58.10","KUUJJUAQ A","7113534","2012-02-13 15:00","2012","02","13","15:00","-19.7","","-24.3","","67","","","","31","","28","","1.6","","98.68","","","","-32","","Snow,Blowing Snow"
"-68.42","58.10","KUUJJUAQ A","7113534","2012-02-13 16:00","2012","02","13","16:00","-19.6","","-24.3","","66","","","","32","","26","","2.4","","98.63","","","","-31","","Snow,Blowing Snow"
"-68.42","58.10","KUUJJUAQ A","7113534","2012-02-13 17:00","2012","02","13","17:00","-19.8","","-24.4","","67","","","","30","","32","","2.4","","98.60","","","","-33","","Snow,Blowing Snow"
"-68.42","58.10","KUUJJUAQ A","7113534","2012-02-13 18:00","2012","02","13","18:00","-19.7","","-24.3","","67","","","","29","","32","","2.4","","98.57","","","","-33","","Snow,Blowing Snow"
"-68.42","58.10","KUUJJUAQ A","7113534","2012-02-13 19:00","2012","02","13","19:00","-20.2","","-24.9","","66","","","","29","","22","","3.2","","98.60","","","","-31","","Snow,Blowing Snow"
"-68.42","58.10","KUUJJUAQ A","7113534","2012-02-13 20:00","2012","02","13","20:00","-19.6","","-24.6","","64","","","","27","","28","","6.4","","98.51","","","","-32","","Snow"
"-68.42","58.10","KUUJJUAQ A","7113534","2012-02-13 21:00","2012","02","13","21:00","-19.2","","-24.3","","64","","","","27","","22","","16.1","","98.44","","","","-30","","Snow"
"-68.42","58.10","KUUJJUAQ A","7113534","2012-02-13 22:00","2012","02","13","22:00","-19.2","","-24.4","","63","","","","27","","26","","6.4","","98.38","","","","-31","","Snow"
"-68.42","58.10","KUUJJUAQ A","7113534","2012-02-13 23:00","2012","02","13","23:00","-18.9","","-23.9","","65","","","","28","","26","","6.4","","98.32","","","","-30","","Snow"
"-68.42","58.10","KUUJJUAQ A","7113534","2012-02-14 00:00","2012","02","14","00:00","-18.9","","-23.9","","65","","","","27","","32","","3.2","","98.32","","","","-31","","Snow"
"-68.42","58.10","KUUJJUAQ A","7113534","2012-02-14 01:00","2012","02","14","01:00","-18.7","","-23.3","","67","","","","28","","22","","3.2","","98.31","","","","-29","","Snow,Blowing Snow"
"-68.42","58.10","KUUJJUAQ A","7113534","2012-02-14 02:00","2012","02","14","02:00","-19.2","","-24.2","","65","","","","27","","28","","3.2","","98.31","","","","-31","","Snow,Blowing Snow"
"-68.42","58.10","KUUJJUAQ A","7113534","2012-02-14 03:00","2012","02","14","03:00","-19.9","","-25.3","","62","","","","29","","28","","3.2","","98.32","","","","-32","","Snow,Blowing Snow"
"-68.42","58.10","KUUJJUAQ A","7113534","2012-02-14 04:00","2012","02","14","04:00","-20.4","","-25.6","","63","","","","29","","35","","3.2","","98.34","","","","-34","","Snow,Blowing Snow"
"-68.42","58.10","KUUJJUAQ A","7113534","2012-02-14 05:00","2012","02","14","05:00","-20.7","","-26.1","","62","","","","29","","33","","3.2","","98.40","","","","-34","","Snow,Blowing Snow"
"-68.42","58.10","KUUJJUAQ A","7113534","2012-02-14 06:00","2012","02","14","06:00","-21.1","","-26.6","","61","","","","27","","32","","3.2","","98.46","","","","-34","","Snow,Blowing Snow"
"-68.42","58.10","KUUJJUAQ A","7113534","2012-02-14 07:00","2012","02","14","07:00","-21.2","","-26.7","","61","","","","28","","28","","3.2","","98.49","","","","-34","","Snow,Blowing Snow"
"-68.42","58.10","KUUJJUAQ A","7113534","2012-02-14 08:00","2012","02","14","08:00","-21.3","","-26.8","","61","","","","28","","32","","6.4","","98.53","","","","-35","","Snow,Blowing Snow"
"-68.42","58.10","KUUJJUAQ A","7113534","2012-02-14 09:00","2012","02","14","09:00","-21.0","","-26.3","","62","","","","27","","19","","2.0","","98.59","","","","-31","","Snow,Blowing Snow"
"-68.42","58.10","KUUJJUAQ A","7113534","2012-02-14 10:00","2012","02","14","10:00","-20.4","","-25.9","","61","","","","28","","19","","4.8","","98.66","","","","-31","","Snow,Blowing Snow"
"-68.42","58.10","KUUJJUAQ A","7113534","2012-02-14 11:00","2012","02","14","11:00","-20.4","","-25.4","","64","","","","27","","30","","1.6","","98.69","","","","-33","","Snow,Blowing Snow"
"-68.42","58.10","KUUJJUAQ A","7113534","2012-02-14 12:00","2012","02","14","12:00","-20.0","","-25.3","","63","","","","26","","28","","3.2","","98.74","","","","-32","","Snow,Blowing Snow"
"-68.42","58.10","KUUJJUAQ A","7113534","2012-02-14 13:00","2012","02","14","13:00","-19.6","","-24.3","","66","","","","26","","28","","2.4","","98.77","","","","-32","","Snow,Blowing Snow"
"-68.42","58.10","KUUJJUAQ A","7113534","2012-02-14 14:00","2012","02","14","14:00","-19.0","","-24.3","","63","","","","25","","28","","4.8","","98.87","","","","-31","","Snow,Blowing Snow"
"-68.42","58.10","KUUJJUAQ A","7113534","2012-02-14 15:00","2012","02","14","15:00","-18.9","","-24.4","","62","","","","26","","28","","12.9","","98.95","","","","-31","","Snow"
"-68.42","58.10","KUUJJUAQ A","7113534","2012-02-14 16:00","2012","02","14","16:00","-19.4","","-24.9","","62","","","","25","","24","","19.3","","99.01","","","","-31","","Snow"
"-68.42","58.10","KUUJJUAQ A","7113534","2012-02-14 17:00","2012","02","14","17:00","-19.0","","-25.0","","59","","","","25","","33","","24.1","","99.08","","","","-32","","Snow"
"-68.42","58.10","KUUJJUAQ A","7113534","2012-02-14 18:00","2012","02","14","18:00","-19.2","","-25.9","","55","","","","25","","24","","24.1","","99.19","","","","-30","","Snow"
"-68.42","58.10","KUUJJUAQ A","7113534","2012-02-14 19:00","2012","02","14","19:00","-19.4","","-25.7","","57","","","","26","","30","","24.1","","99.25","","","","-32","","Ice Crystals"
"-68.42","58.10","KUUJJUAQ A","7113534","2012-02-14 20:00","2012","02","14","20:00","-19.6","","-25.6","","59","","","","24","","28","","24.1","","99.39","","","","-32","","Ice Crystals"
"-68.42","58.10","KUUJJUAQ A","7113534","2012-02-14 21:00","2012","02","14","21:00","-19.9","","-25.8","","59","","","","26","","28","","24.1","","99.45","","","","-32","","Ice Crystals"
"-68.42","58.10","KUUJJUAQ A","7113534","2012-02-14 22:00","2012","02","14","22:00","-20.3","","-26.2","","59","","","","24","","22","","24.1","","99.56","","","","-31","","Ice Crystals"
"-68.42","58.10","KUUJJUAQ A","7113534","2012-02-14 23:00","2012","02","14","23:00","-20.0","","-26.0","","59","","","","25","","22","","24.1","","99.64","","","","-31","","Ice Crystals"
"-68.42","58.10","KUUJJUAQ A","7113534","2012-02-15 00:00","2012","02","15","00:00","-19.6","","-25.5","","59","","","","24","","26","","24.1","","99.71","","","","-31","","Ice Crystals"
"-68.42","58.10","KUUJJUAQ A","7113534","2012-02-15 01:00","2012","02","15","01:00","-19.2","","-24.9","","61","","","","24","","28","","24.1","","99.81","","","","-31","","Ice Crystals"
"-68.42","58.10","KUUJJUAQ A","7113534","2012-02-15 02:00","2012","02","15","02:00","-19.2","","-24.8","","61","","","","25","","26","","24.1","","99.96","","","","-31","","Ice Crystals"
"-68.42","58.10","KUUJJUAQ A","7113534","2012-02-15 03:00","2012","02","15","03:00","-19.3","","-24.8","","62","","","","26","","24","","24.1","","100.06","","","","-31","","Ice Crystals"
"-68.42","58.10","KUUJJUAQ A","7113534","2012-02-15 04:00","2012","02","15","04:00","-19.3","","-24.7","","62","","","","23","","24","","24.1","","100.16","","","","-31","","Ice Crystals"
"-68.42","58.10","KUUJJUAQ A","7113534","2012-02-15 05:00","2012","02","15","05:00","-19.3","","-24.4","","64","","","","24","","20","","24.1","","100.23","","","","-30","","Ice Crystals"
"-68.42","58.10","KUUJJUAQ A","7113534","2012-02-15 06:00","2012","02","15","06:00","-19.0","","-24.3","","63","","","","24","","19","","24.1","","100.29","","","","-29","","Ice Crystals"
"-68.42","58.10","KUUJJUAQ A","7113534","2012-02-15 07:00","2012","02","15","07:00","-18.6","","-23.6","","65","","","","24","","20","","12.9","","100.40","","","","-29","","Snow"
"-68.42","58.10","KUUJJUAQ A","7113534","2012-02-15 08:00","2012","02","15","08:00","-18.5","","-23.2","","66","","","","23","","24","","9.7","","100.50","","","","-29","","Snow"
"-68.42","58.10","KUUJJUAQ A","7113534","2012-02-15 09:00","2012","02","15","09:00","-18.0","","-22.4","","68","","","","23","","19","","8.0","","100.61","","","","-28","","Snow"
"-68.42","58.10","KUUJJUAQ A","7113534","2012-02-15 10:00","2012","02","15","10:00","-17.0","","-21.8","","66","","","","23","","19","","16.1","","100.67","","","","-26","","Snow"
"-68.42","58.10","KUUJJUAQ A","7113534","2012-02-15 11:00","2012","02","15","11:00","-16.2","","-21.9","","61","","","","24","","28","","24.1","","100.79","","","","-27","","Snow"
"-68.42","58.10","KUUJJUAQ A","7113534","2012-02-15 12:00","2012","02","15","12:00","-15.9","","-22.1","","59","","","","26","","28","","24.1","","100.87","","","","-27","","Mostly Cloudy"
"-68.42","58.10","KUUJJUAQ A","7113534","2012-02-15 13:00","2012","02","15","13:00","-15.2","","-21.7","","58","","","","25","","28","","19.3","","100.95","","","","-26","","Ice Crystals"
"-68.42","58.10","KUUJJUAQ A","7113534","2012-02-15 14:00","2012","02","15","14:00","-14.9","","-21.2","","59","","","","24","","28","","19.3","","101.07","","","","-26","","Mostly Cloudy"
"-68.42","58.10","KUUJJUAQ A","7113534","2012-02-15 15:00","2012","02","15","15:00","-15.2","","-21.0","","61","","","","27","","19","","19.3","","101.20","","","","-24","","Mostly Cloudy"
"-68.42","58.10","KUUJJUAQ A","7113534","2012-02-15 16:00","2012","02","15","16:00","-15.0","","-20.6","","62","","","","25","","19","","19.3","","101.31","","","","-24","","Mostly Cloudy"
"-68.42","58.10","KUUJJUAQ A","7113534","2012-02-15 17:00","2012","02","15","17:00","-15.2","","-20.5","","64","","","","24","","15","","24.1","","101.42","","","","-23","","Mostly Cloudy"
"-68.42","58.10","KUUJJUAQ A","7113534","2012-02-15 18:00","2012","02","15","18:00","-16.3","","-21.3","","65","","","","24","","9","","24.1","","101.51","","","","-22","","Mostly Cloudy"
"-68.42","58.10","KUUJJUAQ A","7113534","2012-02-15 19:00","2012","02","15","19:00","-17.7","","-22.0","","69","","","","24","","11","","24.1","","101.57","","","","-25","","Mainly Clear"
"-68.42","58.10","KUUJJUAQ A","7113534","2012-02-15 20:00","2012","02","15","20:00","-18.9","","-22.9","","71","","","","20","","7","","24.1","","101.61","","","","-24","","Mostly Cloudy"
"-68.42","58.10","KUUJJUAQ A","7113534","2012-02-15 21:00","2012","02","15","21:00","-17.3","","-21.4","","70","","","","15","","4","","24.1","","101.66","","","","-20","","Cloudy"
"-68.42","58.10","KUUJJUAQ A","7113534","2012-02-15 22:00","2012","02","15","22:00","-15.6","","-19.9","","70","","","","22","","9","","24.1","","101.68","","","","-22","","Snow"
"-68.42","58.10","KUUJJUAQ A","7113534","2012-02-15 23:00","2012","02","15","23:00","-15.0","","-19.1","","71","","","","22","","7","","24.1","","101.70","","","","-20","","Snow"
"-68.42","58.10","KUUJJUAQ A","7113534","2012-02-16 00:00","2012","02","16","00:00","-14.4","","-18.6","","70","","","","22","","9","","24.1","","101.72","","","","-20","","Snow"
"-68.42","58.10","KUUJJUAQ A","7113534","2012-02-16 01:00","2012","02","16","01:00","-13.7","","-18.2","","69","","","","23","","7","","24.1","","101.72","","","","-18","","Snow"
"-68.42","58.10","KUUJJUAQ A","7113534","2012-02-16 02:00","2012","02","16","02:00","-13.6","","-18.1","","69","","","","21","","13","","24.1","","101.72","","","","-21","","Snow"
"-68.42","58.10","KUUJJUAQ A","7113534","2012-02-16 03:00","2012","02","16","03:00","-13.8","","-18.2","","69","","","","21","","15","","24.1","","101.73","","","","-21","","Snow"
"-68.42","58.10","KUUJJUAQ A","7113534","2012-02-16 04:00","2012","02","16","04:00","-14.1","","-18.3","","70","","","","20","","7","","24.1","","101.75","","","","-19","","Snow"
"-68.42","58.10","KUUJJUAQ A","7113534","2012-02-16 05:00","2012","02","16","05:00","-14.0","","-18.1","","71","","","","17","","7","","24.1","","101.76","","","","-19","","Mostly Cloudy"
"-68.42","58.10","KUUJJUAQ A","7113534","2012-02-16 06:00","2012","02","16","06:00","-13.8","","-18.2","","69","","","","19","","7","","24.1","","101.76","","","","-18","","Mostly Cloudy"
"-68.42","58.10","KUUJJUAQ A","7113534","2012-02-16 07:00","2012","02","16","07:00","-13.8","","-18.5","","68","","","","18","","15","","24.1","","101.76","","","","-21","","Mostly Cloudy"
"-68.42","58.10","KUUJJUAQ A","7113534","2012-02-16 08:00","2012","02","16","08:00","-13.9","","-19.1","","65","","","","18","","15","","24.1","","101.75","","","","-22","","Mostly Cloudy"
"-68.42","58.10","KUUJJUAQ A","7113534","2012-02-16 09:00","2012","02","16","09:00","-13.4","","-19.0","","63","","","","19","","19","","24.1","","101.70","","","","-22","","Mostly Cloudy"
"-68.42","58.10","KUUJJUAQ A","7113534","2012-02-16 10:00","2012","02","16","10:00","-12.2","","-18.3","","60","","","","19","","7","","24.1","","101.64","","","","-17","","Mostly Cloudy"
"-68.42","58.10","KUUJJUAQ A","7113534","2012-02-16 11:00","2012","02","16","11:00","-10.1","","-16.4","","60","","","","20","","11","","24.1","","101.57","","","","-16","","Mainly Clear"
"-68.42","58.10","KUUJJUAQ A","7113534","2012-02-16 12:00","2012","02","16","12:00","-8.4","","-14.4","","62","","","","19","","19","","24.1","","101.46","","","","-16","","Mainly Clear"
"-68.42","58.10","KUUJJUAQ A","7113534","2012-02-16 13:00","2012","02","16","13:00","-7.9","","-13.4","","65","","","","18","","19","","24.1","","101.35","","","","-15","","Mainly Clear"
"-68.42","58.10","KUUJJUAQ A","7113534","2012-02-16 14:00","2012","02","16","14:00","-7.6","","-13.2","","64","","","","15","","19","","24.1","","101.24","","","","-15","","Mainly Clear"
"-68.42","58.10","KUUJJUAQ A","7113534","2012-02-16 15:00","2012","02","16","15:00","-7.3","","-13.5","","61","","","","16","","19","","24.1","","101.13","","","","-14","","Mainly Clear"
"-68.42","58.10","KUUJJUAQ A","7113534","2012-02-16 16:00","2012","02","16","16:00","-8.5","","-13.8","","66","","","","15","","13","","24.1","","101.05","","","","-14","","Mainly Clear"
"-68.42","58.10","KUUJJUAQ A","7113534","2012-02-16 17:00","2012","02","16","17:00","-9.4","","-14.4","","67","","","","16","","13","","24.1","","101.00","","","","-15","","Clear"
"-68.42","58.10","KUUJJUAQ A","7113534","2012-02-16 18:00","2012","02","16","18:00","-9.6","","-14.4","","68","","","","15","","13","","24.1","","100.95","","","","-16","","Mainly Clear"
"-68.42","58.10","KUUJJUAQ A","7113534","2012-02-16 19:00","2012","02","16","19:00","-9.9","","-14.6","","68","","","","26","","6","","24.1","","100.92","","","","-13","","Mostly Cloudy"
"-68.42","58.10","KUUJJUAQ A","7113534","2012-02-16 20:00","2012","02","16","20:00","-11.1","","-15.3","","71","","","","19","","11","","24.1","","100.87","","","","-17","","Mainly Clear"
"-68.42","58.10","KUUJJUAQ A","7113534","2012-02-16 21:00","2012","02","16","21:00","-10.2","","-14.2","","72","","","","23","","15","","24.1","","100.82","","","","-17","","Mainly Clear"
"-68.42","58.10","KUUJJUAQ A","7113534","2012-02-16 22:00","2012","02","16","22:00","-8.7","","-11.1","","83","","","","23","","11","","24.1","","100.77","","","","-14","","Snow"
"-68.42","58.10","KUUJJUAQ A","7113534","2012-02-16 23:00","2012","02","16","23:00","-10.3","","-13.2","","79","","","","23","","7","","24.1","","100.76","","","","-14","","Mostly Cloudy"
"-68.42","58.10","KUUJJUAQ A","7113534","2012-02-17 00:00","2012","02","17","00:00","-11.7","","-14.0","","83","","","","25","","4","","24.1","","100.77","","","","-14","","Mostly Cloudy"
"-68.42","58.10","KUUJJUAQ A","7113534","2012-02-17 01:00","2012","02","17","01:00","-13.8","","-15.4","","88","","","","","","0","","24.1","","100.80","","","","","","Mainly Clear"
"-68.42","58.10","KUUJJUAQ A","7113534","2012-02-17 02:00","2012","02","17","02:00","-15.9","","-18.3","","82","","","","","","0","","24.1","","100.82","","","","","","Mostly Cloudy"
"-68.42","58.10","KUUJJUAQ A","7113534","2012-02-17 03:00","2012","02","17","03:00","-14.5","","-16.6","","84","","","","26","","11","","24.1","","100.86","","","","-21","","Mainly Clear"
"-68.42","58.10","KUUJJUAQ A","7113534","2012-02-17 04:00","2012","02","17","04:00","-14.9","","-17.2","","83","","","","26","","9","","24.1","","100.86","","","","-21","","Mainly Clear"
"-68.42","58.10","KUUJJUAQ A","7113534","2012-02-17 05:00","2012","02","17","05:00","-16.1","","-18.3","","83","","","","","","0","","24.1","","100.87","","","","","","Mainly Clear"
"-68.42","58.10","KUUJJUAQ A","7113534","2012-02-17 06:00","2012","02","17","06:00","-17.4","","-18.8","","89","","","","","","0","","24.1","","100.88","","","","","","Mainly Clear"
"-68.42","58.10","KUUJJUAQ A","7113534","2012-02-17 07:00","2012","02","17","07:00","-17.9","","-21.2","","75","","","","18","","6","","24.1","","100.94","","","","-23","","Mostly Cloudy"
"-68.42","58.10","KUUJJUAQ A","7113534","2012-02-17 08:00","2012","02","17","08:00","-18.1","","-21.5","","75","","","","","","0","","19.3","","100.91","","","","","","Ice Crystals"
"-68.42","58.10","KUUJJUAQ A","7113534","2012-02-17 09:00","2012","02","17","09:00","-15.1","","-18.7","","74","","","","","","0","","24.1","","100.93","","","","","","Mostly Cloudy"
"-68.42","58.10","KUUJJUAQ A","7113534","2012-02-17 10:00","2012","02","17","10:00","-13.8","","-18.9","","65","","","","","","0","","24.1","","100.93","","","","","","Snow"
"-68.42","58.10","KUUJJUAQ A","7113534","2012-02-17 11:00","2012","02","17","11:00","-12.4","","-18.0","","63","","","","26","","7","","24.1","","100.93","","","","-17","","Mostly Cloudy"
"-68.42","58.10","KUUJJUAQ A","7113534","2012-02-17 12:00","2012","02","17","12:00","-12.2","","-17.2","","66","","","","","","0","","24.1","","100.88","","","","","","Mainly Clear"
"-68.42","58.10","KUUJJUAQ A","7113534","2012-02-17 13:00","2012","02","17","13:00","-11.8","","-16.9","","66","","","","7","","9","","24.1","","100.84","","","","-17","","Mainly Clear"
"-68.42","58.10","KUUJJUAQ A","7113534","2012-02-17 14:00","2012","02","17","14:00","-11.1","","-16.7","","63","","","","5","","9","","24.1","","100.82","","","","-16","","Mainly Clear"
"-68.42","58.10","KUUJJUAQ A","7113534","2012-02-17 15:00","2012","02","17","15:00","-11.5","","-16.6","","66","","","","5","","9","","24.1","","100.81","","","","-17","","Mainly Clear"
"-68.42","58.10","KUUJJUAQ A","7113534","2012-02-17 16:00","2012","02","17","16:00","-12.7","","-17.4","","68","","","","35","","7","","24.1","","100.82","","","","-17","","Mainly Clear"
"-68.42","58.10","KUUJJUAQ A","7113534","2012-02-17 17:00","2012","02","17","17:00","-14.3","","-17.9","","74","","","","2","","6","","24.1","","100.84","","","","-18","","Mainly Clear"
"-68.42","58.10","KUUJJUAQ A","7113534","2012-02-17 18:00","2012","02","17","18:00","-14.9","","-18.5","","74","","","","35","","11","","24.1","","100.87","","","","-21","","Mainly Clear"
"-68.42","58.10","KUUJJUAQ A","7113534","2012-02-17 19:00","2012","02","17","19:00","-16.9","","-20.2","","76","","","","34","","13","","24.1","","100.86","","","","-25","","Clear"
"-68.42","58.10","KUUJJUAQ A","7113534","2012-02-17 20:00","2012","02","17","20:00","-17.5","","-20.6","","77","","","","34","","9","","24.1","","100.85","","","","-24","","Mainly Clear"
"-68.42","58.10","KUUJJUAQ A","7113534","2012-02-17 21:00","2012","02","17","21:00","-17.3","","-20.5","","76","","","","34","","13","","24.1","","100.83","","","","-25","","Ice Crystals"
"-68.42","58.10","KUUJJUAQ A","7113534","2012-02-17 22:00","2012","02","17","22:00","-17.8","","-20.6","","79","","","","33","","7","","24.1","","100.81","","","","-23","","Snow"
"-68.42","58.10","KUUJJUAQ A","7113534","2012-02-17 23:00","2012","02","17","23:00","-17.8","","-20.9","","77","","","","33","","9","","24.1","","100.79","","","","-24","","Snow"
"-68.42","58.10","KUUJJUAQ A","7113534","2012-02-18 00:00","2012","02","18","00:00","-17.3","","-20.4","","77","","","","34","","7","","6.4","","100.81","","","","-23","","Snow"
"-68.42","58.10","KUUJJUAQ A","7113534","2012-02-18 01:00","2012","02","18","01:00","-19.4","","-23.1","","72","","","","34","","7","","9.7","","100.75","","","","-25","","Snow"
"-68.42","58.10","KUUJJUAQ A","7113534","2012-02-18 02:00","2012","02","18","02:00","-17.4","","-20.7","","75","","","","34","","7","","6.4","","100.75","","","","-23","","Snow"
"-68.42","58.10","KUUJJUAQ A","7113534","2012-02-18 03:00","2012","02","18","03:00","-17.5","","-20.8","","75","","","","34","","15","","24.1","","100.73","","","","-26","","Ice Crystals"
"-68.42","58.10","KUUJJUAQ A","7113534","2012-02-18 04:00","2012","02","18","04:00","-17.4","","-20.7","","75","","","","34","","7","","24.1","","100.74","","","","-23","","Snow"
"-68.42","58.10","KUUJJUAQ A","7113534","2012-02-18 05:00","2012","02","18","05:00","-17.2","","-21.4","","70","","","","34","","9","","24.1","","100.75","","","","-23","","Snow"
"-68.42","58.10","KUUJJUAQ A","7113534","2012-02-18 06:00","2012","02","18","06:00","-16.0","","-19.2","","76","","","","34","","7","","24.1","","100.77","","","","-21","","Snow"
"-68.42","58.10","KUUJJUAQ A","7113534","2012-02-18 07:00","2012","02","18","07:00","-15.1","","-18.1","","78","","","","35","","9","","24.1","","100.77","","","","-21","","Snow"
"-68.42","58.10","KUUJJUAQ A","7113534","2012-02-18 08:00","2012","02","18","08:00","-14.7","","-17.5","","79","","","","35","","19","","16.1","","100.77","","","","-24","","Snow"
"-68.42","58.10","KUUJJUAQ A","7113534","2012-02-18 09:00","2012","02","18","09:00","-14.2","","-17.1","","79","","","","36","","11","","2.4","","100.79","","","","-21","","Snow"
"-68.42","58.10","KUUJJUAQ A","7113534","2012-02-18 10:00","2012","02","18","10:00","-14.1","","-17.3","","77","","","","2","","15","","4.8","","100.80","","","","-22","","Snow"
"-68.42","58.10","KUUJJUAQ A","7113534","2012-02-18 11:00","2012","02","18","11:00","-13.7","","-17.1","","75","","","","2","","13","","19.3","","100.78","","","","-21","","Snow"
"-68.42","58.10","KUUJJUAQ A","7113534","2012-02-18 12:00","2012","02","18","12:00","-13.4","","-17.5","","71","","","","1","","7","","6.4","","100.76","","","","-18","","Snow"
"-68.42","58.10","KUUJJUAQ A","7113534","2012-02-18 13:00","2012","02","18","13:00","-13.0","","-16.4","","76","","","","3","","9","","16.1","","100.75","","","","-18","","Snow"
"-68.42","58.10","KUUJJUAQ A","7113534","2012-02-18 14:00","2012","02","18","14:00","-13.0","","-16.6","","74","","","","5","","17","","4.8","","100.74","","","","-21","","Snow"
"-68.42","58.10","KUUJJUAQ A","7113534","2012-02-18 15:00","2012","02","18","15:00","-13.0","","-16.2","","77","","","","4","","20","","4.0","","100.75","","","","-22","","Snow"
"-68.42","58.10","KUUJJUAQ A","7113534","2012-02-18 16:00","2012","02","18","16:00","-13.0","","-16.2","","77","","","","4","","20","","6.4","","100.75","","","","-22","","Snow"
"-68.42","58.10","KUUJJUAQ A","7113534","2012-02-18 17:00","2012","02","18","17:00","-12.6","","-15.7","","78","","","","3","","24","","12.9","","100.76","","","","-22","","Snow"
"-68.42","58.10","KUUJJUAQ A","7113534","2012-02-18 18:00","2012","02","18","18:00","-13.0","","-15.7","","80","","","","5","","20","","9.7","","100.79","","","","-22","","Snow"
"-68.42","58.10","KUUJJUAQ A","7113534","2012-02-18 19:00","2012","02","18","19:00","-12.6","","-15.3","","80","","","","4","","11","","16.1","","100.81","","","","-19","","Snow"
"-68.42","58.10","KUUJJUAQ A","7113534","2012-02-18 20:00","2012","02","18","20:00","-12.5","","-15.1","","81","","","","4","","9","","4.0","","100.80","","","","-18","","Snow"
"-68.42","58.10","KUUJJUAQ A","7113534","2012-02-18 21:00","2012","02","18","21:00","-12.3","","-14.7","","82","","","","4","","15","","4.8","","100.82","","","","-20","","Snow"
"-68.42","58.10","KUUJJUAQ A","7113534","2012-02-18 22:00","2012","02","18","22:00","-12.6","","-15.0","","82","","","","4","","13","","4.0","","100.81","","","","-19","","Snow"
"-68.42","58.10","KUUJJUAQ A","7113534","2012-02-18 23:00","2012","02","18","23:00","-12.7","","-15.2","","82","","","","5","","7","","6.4","","100.82","","","","-17","","Snow"
"-68.42","58.10","KUUJJUAQ A","7113534","2012-02-19 00:00","2012","02","19","00:00","-12.3","","-15.0","","80","","","","3","","7","","6.4","","100.81","","","","-17","","Snow"
"-68.42","58.10","KUUJJUAQ A","7113534","2012-02-19 01:00","2012","02","19","01:00","-12.3","","-14.7","","82","","","","3","","7","","3.2","","100.81","","","","-17","","Snow"
"-68.42","58.10","KUUJJUAQ A","7113534","2012-02-19 02:00","2012","02","19","02:00","-12.3","","-14.6","","83","","","","3","","9","","6.4","","100.81","","","","-18","","Snow"
"-68.42","58.10","KUUJJUAQ A","7113534","2012-02-19 03:00","2012","02","19","03:00","-12.5","","-14.7","","84","","","","1","","6","","4.8","","100.81","","","","-16","","Snow"
"-68.42","58.10","KUUJJUAQ A","7113534","2012-02-19 04:00","2012","02","19","04:00","-13.0","","-15.4","","82","","","","35","","7","","4.8","","100.83","","","","-18","","Snow"
"-68.42","58.10","KUUJJUAQ A","7113534","2012-02-19 05:00","2012","02","19","05:00","-13.6","","-16.1","","81","","","","35","","9","","9.7","","100.84","","","","-19","","Snow"
"-68.42","58.10","KUUJJUAQ A","7113534","2012-02-19 06:00","2012","02","19","06:00","-13.7","","-16.3","","81","","","","34","","9","","9.7","","100.86","","","","-19","","Snow"
"-68.42","58.10","KUUJJUAQ A","7113534","2012-02-19 07:00","2012","02","19","07:00","-14.5","","-17.2","","80","","","","35","","7","","24.1","","100.90","","","","-19","","Snow"
"-68.42","58.10","KUUJJUAQ A","7113534","2012-02-19 08:00","2012","02","19","08:00","-14.5","","-17.5","","78","","","","31","","13","","12.9","","100.91","","","","-22","","Snow"
"-68.42","58.10","KUUJJUAQ A","7113534","2012-02-19 09:00","2012","02","19","09:00","-13.8","","-17.1","","76","","","","34","","11","","12.9","","100.92","","","","-20","","Ice Crystals"
"-68.42","58.10","KUUJJUAQ A","7113534","2012-02-19 10:00","2012","02","19","10:00","-12.2","","-16.1","","73","","","","4","","9","","24.1","","100.94","","","","-17","","Snow"
"-68.42","58.10","KUUJJUAQ A","7113534","2012-02-19 11:00","2012","02","19","11:00","-12.7","","-16.3","","74","","","","36","","15","","24.1","","100.94","","","","-20","","Snow"
"-68.42","58.10","KUUJJUAQ A","7113534","2012-02-19 12:00","2012","02","19","12:00","-12.6","","-16.7","","71","","","","35","","15","","24.1","","100.94","","","","-20","","Snow"
"-68.42","58.10","KUUJJUAQ A","7113534","2012-02-19 13:00","2012","02","19","13:00","-12.7","","-16.9","","71","","","","36","","17","","24.1","","100.93","","","","-21","","Snow"
"-68.42","58.10","KUUJJUAQ A","7113534","2012-02-19 14:00","2012","02","19","14:00","-13.4","","-18.2","","67","","","","33","","19","","24.1","","100.95","","","","-22","","Ice Crystals"
"-68.42","58.10","KUUJJUAQ A","7113534","2012-02-19 15:00","2012","02","19","15:00","-13.9","","-18.7","","67","","","","34","","19","","24.1","","100.99","","","","-23","","Ice Crystals"
"-68.42","58.10","KUUJJUAQ A","7113534","2012-02-19 16:00","2012","02","19","16:00","-14.0","","-18.7","","68","","","","34","","9","","24.1","","101.02","","","","-20","","Snow"
"-68.42","58.10","KUUJJUAQ A","7113534","2012-02-19 17:00","2012","02","19","17:00","-14.0","","-18.1","","71","","","","31","","13","","16.1","","101.02","","","","-21","","Snow"
"-68.42","58.10","KUUJJUAQ A","7113534","2012-02-19 18:00","2012","02","19","18:00","-14.6","","-18.2","","74","","","","32","","7","","24.1","","101.04","","","","-19","","Snow"
"-68.42","58.10","KUUJJUAQ A","7113534","2012-02-19 19:00","2012","02","19","19:00","-14.9","","-18.3","","75","","","","31","","7","","24.1","","101.06","","","","-20","","Snow"
"-68.42","58.10","KUUJJUAQ A","7113534","2012-02-19 20:00","2012","02","19","20:00","-15.8","","-19.2","","75","","","","32","","7","","24.1","","101.05","","","","-21","","Snow"
"-68.42","58.10","KUUJJUAQ A","7113534","2012-02-19 21:00","2012","02","19","21:00","-16.7","","-19.9","","76","","","","32","","7","","24.1","","101.05","","","","-22","","Snow"
"-68.42","58.10","KUUJJUAQ A","7113534","2012-02-19 22:00","2012","02","19","22:00","-17.1","","-20.4","","75","","","","31","","9","","24.1","","101.04","","","","-23","","Snow"
"-68.42","58.10","KUUJJUAQ A","7113534","2012-02-19 23:00","2012","02","19","23:00","-17.8","","-21.3","","74","","","","33","","11","","24.1","","101.03","","","","-25","","Snow"
"-68.42","58.10","KUUJJUAQ A","7113534","2012-02-20 00:00","2012","02","20","00:00","-17.5","","-21.1","","73","","","","33","","7","","24.1","","101.03","","","","-23","","Snow"
"-68.42","58.10","KUUJJUAQ A","7113534","2012-02-20 01:00","2012","02","20","01:00","-16.3","","-19.9","","74","","","","31","","7","","24.1","","101.02","","","","-21","","Snow"
"-68.42","58.10","KUUJJUAQ A","7113534","2012-02-20 02:00","2012","02","20","02:00","-16.0","","-19.6","","74","","","","30","","7","","24.1","","101.06","","","","-21","","Snow"
"-68.42","58.10","KUUJJUAQ A","7113534","2012-02-20 03:00","2012","02","20","03:00","-16.6","","-20.1","","74","","","","29","","11","","24.1","","101.07","","","","-24","","Snow"
"-68.42","58.10","KUUJJUAQ A","7113534","2012-02-20 04:00","2012","02","20","04:00","-17.5","","-20.8","","75","","","","","","0","","24.1","","101.11","","","","","","Snow"
"-68.42","58.10","KUUJJUAQ A","7113534","2012-02-20 05:00","2012","02","20","05:00","-18.3","","-21.8","","74","","","","23","","4","","24.1","","101.13","","","","-22","","Snow"
"-68.42","58.10","KUUJJUAQ A","7113534","2012-02-20 06:00","2012","02","20","06:00","-18.3","","-21.7","","75","","","","23","","6","","24.1","","101.12","","","","-23","","Snow"
"-68.42","58.10","KUUJJUAQ A","7113534","2012-02-20 07:00","2012","02","20","07:00","-18.4","","-21.9","","74","","","","26","","7","","24.1","","101.08","","","","-24","","Snow"
"-68.42","58.10","KUUJJUAQ A","7113534","2012-02-20 08:00","2012","02","20","08:00","-18.1","","-22.2","","70","","","","23","","9","","24.1","","101.06","","","","-24","","Snow"
"-68.42","58.10","KUUJJUAQ A","7113534","2012-02-20 09:00","2012","02","20","09:00","-17.8","","-22.6","","66","","","","24","","13","","24.1","","101.03","","","","-26","","Snow"
"-68.42","58.10","KUUJJUAQ A","7113534","2012-02-20 10:00","2012","02","20","10:00","-17.4","","-22.0","","67","","","","22","","13","","19.3","","101.01","","","","-25","","Snow"
"-68.42","58.10","KUUJJUAQ A","7113534","2012-02-20 11:00","2012","02","20","11:00","-16.5","","-21.8","","64","","","","23","","15","","24.1","","100.96","","","","-25","","Snow"
"-68.42","58.10","KUUJJUAQ A","7113534","2012-02-20 12:00","2012","02","20","12:00","-15.3","","-21.4","","60","","","","22","","17","","24.1","","100.92","","","","-24","","Snow"
"-68.42","58.10","KUUJJUAQ A","7113534","2012-02-20 13:00","2012","02","20","13:00","-14.6","","-20.8","","59","","","","26","","11","","24.1","","100.91","","","","-21","","Snow"
"-68.42","58.10","KUUJJUAQ A","7113534","2012-02-20 14:00","2012","02","20","14:00","-14.3","","-20.6","","59","","","","25","","20","","24.1","","100.86","","","","-23","","Snow"
"-68.42","58.10","KUUJJUAQ A","7113534","2012-02-20 15:00","2012","02","20","15:00","-14.0","","-19.6","","63","","","","22","","13","","24.1","","100.82","","","","-21","","Snow"
"-68.42","58.10","KUUJJUAQ A","7113534","2012-02-20 16:00","2012","02","20","16:00","-14.5","","-19.4","","66","","","","20","","9","","24.1","","100.79","","","","-20","","Snow"
"-68.42","58.10","KUUJJUAQ A","7113534","2012-02-20 17:00","2012","02","20","17:00","-14.4","","-18.8","","69","","","","24","","17","","24.1","","100.76","","","","-23","","Snow"
"-68.42","58.10","KUUJJUAQ A","7113534","2012-02-20 18:00","2012","02","20","18:00","-14.8","","-19.7","","66","","","","23","","19","","24.1","","100.74","","","","-24","","Snow"
"-68.42","58.10","KUUJJUAQ A","7113534","2012-02-20 19:00","2012","02","20","19:00","-15.3","","-19.6","","70","","","","22","","9","","12.9","","100.71","","","","-21","","Snow"
"-68.42","58.10","KUUJJUAQ A","7113534","2012-02-20 20:00","2012","02","20","20:00","-15.4","","-19.7","","70","","","","24","","11","","12.9","","100.65","","","","-22","","Snow"
"-68.42","58.10","KUUJJUAQ A","7113534","2012-02-20 21:00","2012","02","20","21:00","-15.1","","-19.4","","70","","","","20","","9","","12.9","","100.60","","","","-21","","Snow"
"-68.42","58.10","KUUJJUAQ A","7113534","2012-02-20 22:00","2012","02","20","22:00","-14.9","","-19.2","","70","","","","24","","15","","24.1","","100.54","","","","-23","","Snow"
"-68.42","58.10","KUUJJUAQ A","7113534","2012-02-20 23:00","2012","02","20","23:00","-15.8","","-19.4","","74","","","","24","","15","","24.1","","100.49","","","","-24","","Snow"
"-68.42","58.10","KUUJJUAQ A","7113534","2012-02-21 00:00","2012","02","21","00:00","-15.0","","-18.7","","73","","","","23","","11","","24.1","","100.46","","","","-22","","Snow"
"-68.42","58.10","KUUJJUAQ A","7113534","2012-02-21 01:00","2012","02","21","01:00","-14.6","","-20.0","","63","","","","26","","19","","24.1","","100.45","","","","-23","","Snow"
"-68.42","58.10","KUUJJUAQ A","7113534","2012-02-21 02:00","2012","02","21","02:00","-15.8","","-22.1","","58","","","","25","","22","","6.4","","100.45","","","","-26","","Snow"
"-68.42","58.10","KUUJJUAQ A","7113534","2012-02-21 03:00","2012","02","21","03:00","-18.1","","-23.8","","61","","","","24","","15","","24.1","","100.44","","","","-27","","Snow"
"-68.42","58.10","KUUJJUAQ A","7113534","2012-02-21 04:00","2012","02","21","04:00","-19.4","","-24.9","","62","","","","28","","9","","24.1","","100.46","","","","-26","","Snow"
"-68.42","58.10","KUUJJUAQ A","7113534","2012-02-21 05:00","2012","02","21","05:00","-20.3","","-26.6","","57","","","","25","","15","","24.1","","100.47","","","","-29","","Snow"
"-68.42","58.10","KUUJJUAQ A","7113534","2012-02-21 06:00","2012","02","21","06:00","-21.0","","-26.7","","60","","","","25","","22","","24.1","","100.39","","","","-32","","Snow"
"-68.42","58.10","KUUJJUAQ A","7113534","2012-02-21 07:00","2012","02","21","07:00","-22.2","","-27.9","","60","","","","22","","9","","24.1","","100.42","","","","-29","","Snow"
"-68.42","58.10","KUUJJUAQ A","7113534","2012-02-21 08:00","2012","02","21","08:00","-22.0","","-27.3","","62","","","","24","","19","","24.1","","100.38","","","","-33","","Ice Crystals"
"-68.42","58.10","KUUJJUAQ A","7113534","2012-02-21 09:00","2012","02","21","09:00","-20.5","","-26.7","","58","","","","25","","17","","24.1","","100.34","","","","-30","","Ice Crystals"
"-68.42","58.10","KUUJJUAQ A","7113534","2012-02-21 10:00","2012","02","21","10:00","-19.0","","-25.6","","56","","","","25","","19","","24.1","","100.29","","","","-29","","Ice Crystals"
"-68.42","58.10","KUUJJUAQ A","7113534","2012-02-21 11:00","2012","02","21","11:00","-18.1","","-25.0","","55","","","","25","","22","","24.1","","100.23","","","","-29","","Ice Crystals"
"-68.42","58.10","KUUJJUAQ A","7113534","2012-02-21 12:00","2012","02","21","12:00","-17.7","","-24.2","","57","","","","25","","32","","24.1","","100.20","","","","-30","","Snow"
"-68.42","58.10","KUUJJUAQ A","7113534","2012-02-21 13:00","2012","02","21","13:00","-17.5","","-24.3","","55","","","","26","","28","","24.1","","100.19","","","","-29","","Snow"
"-68.42","58.10","KUUJJUAQ A","7113534","2012-02-21 14:00","2012","02","21","14:00","-17.4","","-24.5","","54","","","","26","","22","","24.1","","100.20","","","","-28","","Snow"
"-68.42","58.10","KUUJJUAQ A","7113534","2012-02-21 15:00","2012","02","21","15:00","-17.9","","-25.0","","54","","","","26","","24","","24.1","","100.16","","","","-29","","Snow"
"-68.42","58.10","KUUJJUAQ A","7113534","2012-02-21 16:00","2012","02","21","16:00","-18.9","","-25.5","","56","","","","27","","15","","24.1","","100.22","","","","-28","","Snow"
"-68.42","58.10","KUUJJUAQ A","7113534","2012-02-21 17:00","2012","02","21","17:00","-20.0","","-25.9","","59","","","","28","","22","","24.1","","100.28","","","","-31","","Mainly Clear"
"-68.42","58.10","KUUJJUAQ A","7113534","2012-02-21 18:00","2012","02","21","18:00","-21.3","","-26.7","","62","","","","28","","15","","24.1","","100.34","","","","-31","","Ice Crystals"
"-68.42","58.10","KUUJJUAQ A","7113534","2012-02-21 19:00","2012","02","21","19:00","-22.1","","-27.2","","63","","","","22","","4","","24.1","","100.39","","","","-26","","Snow"
"-68.42","58.10","KUUJJUAQ A","7113534","2012-02-21 20:00","2012","02","21","20:00","-21.7","","-26.8","","63","","","","","","0","","24.1","","100.41","","","","","","Snow"
"-68.42","58.10","KUUJJUAQ A","7113534","2012-02-21 21:00","2012","02","21","21:00","-22.9","","-28.0","","63","","","","25","","7","","24.1","","100.43","","","","-29","","Mainly Clear"
"-68.42","58.10","KUUJJUAQ A","7113534","2012-02-21 22:00","2012","02","21","22:00","-24.5","","-29.0","","66","","","","22","","11","","24.1","","100.44","","","","-33","","Ice Crystals"
"-68.42","58.10","KUUJJUAQ A","7113534","2012-02-21 23:00","2012","02","21","23:00","-24.8","","-29.1","","67","","","","23","","9","","24.1","","100.47","","","","-32","","Mainly Clear"
"-68.42","58.10","KUUJJUAQ A","7113534","2012-02-22 00:00","2012","02","22","00:00","-24.1","","-28.6","","66","","","","24","","7","","24.1","","100.51","","","","-30","","Snow"
"-68.42","58.10","KUUJJUAQ A","7113534","2012-02-22 01:00","2012","02","22","01:00","-26.2","","-30.5","","67","","","","23","","6","","24.1","","100.53","","","","-32","","Mainly Clear"
"-68.42","58.10","KUUJJUAQ A","7113534","2012-02-22 02:00","2012","02","22","02:00","-27.3","","-31.6","","67","","","","21","","7","","24.1","","100.58","","","","-34","","Clear"
"-68.42","58.10","KUUJJUAQ A","7113534","2012-02-22 03:00","2012","02","22","03:00","-27.1","","-31.5","","66","","","","21","","9","","24.1","","100.60","","","","-35","","Ice Crystals"
"-68.42","58.10","KUUJJUAQ A","7113534","2012-02-22 04:00","2012","02","22","04:00","-27.1","","-31.5","","66","","","","22","","7","","24.1","","100.62","","","","-34","","Snow"
"-68.42","58.10","KUUJJUAQ A","7113534","2012-02-22 05:00","2012","02","22","05:00","-26.3","","-30.6","","67","","","","24","","7","","24.1","","100.63","","","","-33","","Snow"
"-68.42","58.10","KUUJJUAQ A","7113534","2012-02-22 06:00","2012","02","22","06:00","-25.9","","-30.3","","66","","","","","","0","","12.9","","100.66","","","","","","Snow"
"-68.42","58.10","KUUJJUAQ A","7113534","2012-02-22 07:00","2012","02","22","07:00","-26.2","","-30.8","","65","","","","24","","19","","9.7","","100.72","","","","-38","","Snow"
"-68.42","58.10","KUUJJUAQ A","7113534","2012-02-22 08:00","2012","02","22","08:00","-25.4","","-30.0","","65","","","","21","","11","","24.1","","100.71","","","","-34","","Snow"
"-68.42","58.10","KUUJJUAQ A","7113534","2012-02-22 09:00","2012","02","22","09:00","-24.8","","-29.9","","63","","","","22","","11","","24.1","","100.69","","","","-33","","Ice Crystals"
"-68.42","58.10","KUUJJUAQ A","7113534","2012-02-22 10:00","2012","02","22","10:00","-23.2","","-29.0","","59","","","","22","","15","","24.1","","100.65","","","","-33","","Mainly Clear"
"-68.42","58.10","KUUJJUAQ A","7113534","2012-02-22 11:00","2012","02","22","11:00","-21.0","","-27.7","","55","","","","22","","9","","24.1","","100.59","","","","-28","","Mainly Clear"
"-68.42","58.10","KUUJJUAQ A","7113534","2012-02-22 12:00","2012","02","22","12:00","-19.4","","-25.8","","57","","","","27","","13","","24.1","","100.55","","","","-28","","Clear"
"-68.42","58.10","KUUJJUAQ A","7113534","2012-02-22 13:00","2012","02","22","13:00","-17.6","","-25.0","","52","","","","22","","9","","24.1","","100.50","","","","-24","","Clear"
"-68.42","58.10","KUUJJUAQ A","7113534","2012-02-22 14:00","2012","02","22","14:00","-16.9","","-24.7","","51","","","","24","","7","","24.1","","100.49","","","","-22","","Clear"
"-68.42","58.10","KUUJJUAQ A","7113534","2012-02-22 15:00","2012","02","22","15:00","-16.5","","-24.5","","50","","","","28","","7","","24.1","","100.48","","","","-22","","Clear"
"-68.42","58.10","KUUJJUAQ A","7113534","2012-02-22 16:00","2012","02","22","16:00","-18.5","","-25.3","","55","","","","","","0","","24.1","","100.49","","","","","","Clear"
"-68.42","58.10","KUUJJUAQ A","7113534","2012-02-22 17:00","2012","02","22","17:00","-20.0","","-26.1","","58","","","","32","","9","","24.1","","100.51","","","","-27","","Clear"
"-68.42","58.10","KUUJJUAQ A","7113534","2012-02-22 18:00","2012","02","22","18:00","-22.0","","-27.2","","63","","","","33","","9","","24.1","","100.53","","","","-29","","Clear"
"-68.42","58.10","KUUJJUAQ A","7113534","2012-02-22 19:00","2012","02","22","19:00","-23.4","","-28.3","","64","","","","3","","6","","24.1","","100.54","","","","-29","","Clear"
"-68.42","58.10","KUUJJUAQ A","7113534","2012-02-22 20:00","2012","02","22","20:00","-24.5","","-28.7","","68","","","","33","","11","","24.1","","100.57","","","","-33","","Clear"
"-68.42","58.10","KUUJJUAQ A","7113534","2012-02-22 21:00","2012","02","22","21:00","-26.2","","-30.3","","68","","","","","","0","","24.1","","100.60","","","","","","Clear"
"-68.42","58.10","KUUJJUAQ A","7113534","2012-02-22 22:00","2012","02","22","22:00","-27.3","","-32.5","","61","","","","","","0","","24.1","","100.59","","","","","","Clear"
"-68.42","58.10","KUUJJUAQ A","7113534","2012-02-22 23:00","2012","02","22","23:00","-27.0","","-31.3","","67","","","","30","","4","","24.1","","100.58","","","","-31","","Clear"
"-68.42","58.10","KUUJJUAQ A","7113534","2012-02-23 00:00","2012","02","23","00:00","-29.9","","-33.8","","69","","","","","","0","","24.1","","100.58","","","","","","Clear"
"-68.42","58.10","KUUJJUAQ A","7113534","2012-02-23 01:00","2012","02","23","01:00","-30.5","","-34.7","","67","","","","","","0","","24.1","","100.57","","","","","","Clear"
"-68.42","58.10","KUUJJUAQ A","7113534","2012-02-23 02:00","2012","02","23","02:00","-31.5","","-36.0","","64","","","","","","0","","24.1","","100.63","","","","","","Clear"
"-68.42","58.10","KUUJJUAQ A","7113534","2012-02-23 03:00","2012","02","23","03:00","-32.5","","-37.2","","63","","","","","","0","","24.1","","100.63","","","","","","Clear"
"-68.42","58.10","KUUJJUAQ A","7113534","2012-02-23 04:00","2012","02","23","04:00","-32.7","","-37.3","","63","","","","","","0","","24.1","","100.64","","","","","","Clear"
"-68.42","58.10","KUUJJUAQ A","7113534","2012-02-23 05:00","2012","02","23","05:00","-31.7","","-35.9","","66","","","","","","0","","24.1","","100.65","","","","","","Clear"
"-68.42","58.10","KUUJJUAQ A","7113534","2012-02-23 06:00","2012","02","23","06:00","-32.9","","-37.0","","67","","","","","","0","","24.1","","100.65","","","","","","Snow"
"-68.42","58.10","KUUJJUAQ A","7113534","2012-02-23 07:00","2012","02","23","07:00","-31.9","","-36.4","","64","","","","","","0","","24.1","","100.70","","","","","","Snow"
"-68.42","58.10","KUUJJUAQ A","7113534","2012-02-23 08:00","2012","02","23","08:00","-30.2","","-34.6","","65","","","","","","0","","19.3","","100.70","","","","","","Snow"
"-68.42","58.10","KUUJJUAQ A","7113534","2012-02-23 09:00","2012","02","23","09:00","-28.3","","-32.6","","67","","","","","","0","","19.3","","100.73","","","","","","Snow"
"-68.42","58.10","KUUJJUAQ A","7113534","2012-02-23 10:00","2012","02","23","10:00","-25.4","","-29.6","","68","","","","","","0","","19.3","","100.73","","","","","","Snow"
"-68.42","58.10","KUUJJUAQ A","7113534","2012-02-23 11:00","2012","02","23","11:00","-22.8","","-26.9","","69","","","","","","0","","24.1","","100.69","","","","","","Snow"
"-68.42","58.10","KUUJJUAQ A","7113534","2012-02-23 12:00","2012","02","23","12:00","-20.1","","-25.6","","61","","","","","","0","","24.1","","100.65","","","","","","Snow"
"-68.42","58.10","KUUJJUAQ A","7113534","2012-02-23 13:00","2012","02","23","13:00","-19.0","","-24.8","","60","","","","","","0","","24.1","","100.64","","","","","","Mostly Cloudy"
"-68.42","58.10","KUUJJUAQ A","7113534","2012-02-23 14:00","2012","02","23","14:00","-18.2","","-24.3","","59","","","","5","","7","","24.1","","100.65","","","","-24","","Snow"
"-68.42","58.10","KUUJJUAQ A","7113534","2012-02-23 15:00","2012","02","23","15:00","-18.4","","-23.9","","62","","","","5","","9","","24.1","","100.66","","","","-25","","Snow"
"-68.42","58.10","KUUJJUAQ A","7113534","2012-02-23 16:00","2012","02","23","16:00","-18.9","","-23.5","","67","","","","4","","11","","24.1","","100.70","","","","-26","","Snow"
"-68.42","58.10","KUUJJUAQ A","7113534","2012-02-23 17:00","2012","02","23","17:00","-18.8","","-22.8","","71","","","","5","","17","","24.1","","100.74","","","","-28","","Snow"
"-68.42","58.10","KUUJJUAQ A","7113534","2012-02-23 18:00","2012","02","23","18:00","-18.2","","-22.1","","71","","","","5","","11","","24.1","","100.76","","","","-25","","Snow"
"-68.42","58.10","KUUJJUAQ A","7113534","2012-02-23 19:00","2012","02","23","19:00","-18.0","","-22.1","","70","","","","5","","13","","24.1","","100.77","","","","-26","","Snow"
"-68.42","58.10","KUUJJUAQ A","7113534","2012-02-23 20:00","2012","02","23","20:00","-17.9","","-22.3","","68","","","","4","","22","","24.1","","100.81","","","","-28","","Snow"
"-68.42","58.10","KUUJJUAQ A","7113534","2012-02-23 21:00","2012","02","23","21:00","-19.3","","-23.4","","70","","","","5","","11","","24.1","","100.83","","","","-27","","Snow"
"-68.42","58.10","KUUJJUAQ A","7113534","2012-02-23 22:00","2012","02","23","22:00","-19.4","","-23.3","","71","","","","3","","7","","24.1","","100.82","","","","-25","","Snow"
"-68.42","58.10","KUUJJUAQ A","7113534","2012-02-23 23:00","2012","02","23","23:00","-20.4","","-24.1","","72","","","","4","","9","","24.1","","100.80","","","","-27","","Snow"
"-68.42","58.10","KUUJJUAQ A","7113534","2012-02-24 00:00","2012","02","24","00:00","-21.0","","-24.7","","72","","","","3","","7","","24.1","","100.80","","","","-27","","Ice Crystals"
"-68.42","58.10","KUUJJUAQ A","7113534","2012-02-24 01:00","2012","02","24","01:00","-21.1","","-24.6","","73","","","","36","","6","","24.1","","100.82","","","","-26","","Ice Crystals"
"-68.42","58.10","KUUJJUAQ A","7113534","2012-02-24 02:00","2012","02","24","02:00","-22.2","","-26.4","","69","","","","36","","7","","24.1","","100.82","","","","-28","","Ice Crystals"
"-68.42","58.10","KUUJJUAQ A","7113534","2012-02-24 03:00","2012","02","24","03:00","-20.5","","-25.0","","67","","","","4","","9","","24.1","","100.84","","","","-27","","Mainly Clear"
"-68.42","58.10","KUUJJUAQ A","7113534","2012-02-24 04:00","2012","02","24","04:00","-20.6","","-25.1","","67","","","","36","","7","","24.1","","100.83","","","","-26","","Mostly Cloudy"
"-68.42","58.10","KUUJJUAQ A","7113534","2012-02-24 05:00","2012","02","24","05:00","-20.3","","-24.6","","68","","","","2","","7","","24.1","","100.84","","","","-26","","Mostly Cloudy"
"-68.42","58.10","KUUJJUAQ A","7113534","2012-02-24 06:00","2012","02","24","06:00","-20.0","","-23.9","","71","","","","3","","6","","24.1","","100.85","","","","-25","","Mostly Cloudy"
"-68.42","58.10","KUUJJUAQ A","7113534","2012-02-24 07:00","2012","02","24","07:00","-20.4","","-24.5","","70","","","","33","","9","","24.1","","100.89","","","","-27","","Mostly Cloudy"
"-68.42","58.10","KUUJJUAQ A","7113534","2012-02-24 08:00","2012","02","24","08:00","-19.1","","-23.2","","70","","","","34","","7","","24.1","","100.87","","","","-25","","Cloudy"
"-68.42","58.10","KUUJJUAQ A","7113534","2012-02-24 09:00","2012","02","24","09:00","-17.3","","-21.1","","72","","","","32","","11","","6.4","","100.85","","","","-24","","Snow"
"-68.42","58.10","KUUJJUAQ A","7113534","2012-02-24 10:00","2012","02","24","10:00","-16.7","","-20.8","","70","","","","6","","19","","16.1","","100.84","","","","-26","","Snow"
"-68.42","58.10","KUUJJUAQ A","7113534","2012-02-24 11:00","2012","02","24","11:00","-16.0","","-20.7","","67","","","","4","","19","","24.1","","100.78","","","","-25","","Snow"
"-68.42","58.10","KUUJJUAQ A","7113534","2012-02-24 12:00","2012","02","24","12:00","-16.2","","-21.0","","66","","","","3","","20","","24.1","","100.74","","","","-26","","Snow"
"-68.42","58.10","KUUJJUAQ A","7113534","2012-02-24 13:00","2012","02","24","13:00","-15.9","","-20.7","","67","","","","4","","19","","12.9","","100.74","","","","-25","","Snow"
"-68.42","58.10","KUUJJUAQ A","7113534","2012-02-24 14:00","2012","02","24","14:00","-15.9","","-20.3","","69","","","","7","","24","","4.8","","100.73","","","","-26","","Snow"
"-68.42","58.10","KUUJJUAQ A","7113534","2012-02-24 15:00","2012","02","24","15:00","-15.6","","-19.6","","71","","","","3","","20","","9.7","","100.77","","","","-25","","Snow"
"-68.42","58.10","KUUJJUAQ A","7113534","2012-02-24 16:00","2012","02","24","16:00","-15.2","","-19.0","","73","","","","3","","13","","3.2","","100.78","","","","-23","","Snow"
"-68.42","58.10","KUUJJUAQ A","7113534","2012-02-24 17:00","2012","02","24","17:00","-16.4","","-19.8","","75","","","","34","","13","","24.1","","100.78","","","","-24","","Snow"
"-68.42","58.10","KUUJJUAQ A","7113534","2012-02-24 18:00","2012","02","24","18:00","-17.5","","-21.0","","74","","","","35","","19","","24.1","","100.77","","","","-27","","Snow"
"-68.42","58.10","KUUJJUAQ A","7113534","2012-02-24 19:00","2012","02","24","19:00","-17.9","","-21.5","","73","","","","34","","13","","24.1","","100.77","","","","-26","","Snow"
"-68.42","58.10","KUUJJUAQ A","7113534","2012-02-24 20:00","2012","02","24","20:00","-17.8","","-21.2","","75","","","","34","","15","","24.1","","100.76","","","","-26","","Snow"
"-68.42","58.10","KUUJJUAQ A","7113534","2012-02-24 21:00","2012","02","24","21:00","-18.4","","-21.9","","74","","","","33","","13","","24.1","","100.74","","","","-26","","Snow"
"-68.42","58.10","KUUJJUAQ A","7113534","2012-02-24 22:00","2012","02","24","22:00","-19.7","","-23.5","","72","","","","33","","7","","24.1","","100.72","","","","-25","","Snow"
"-68.42","58.10","KUUJJUAQ A","7113534","2012-02-24 23:00","2012","02","24","23:00","-19.9","","-23.7","","72","","","","31","","9","","24.1","","100.71","","","","-27","","Snow"
"-68.42","58.10","KUUJJUAQ A","7113534","2012-02-25 00:00","2012","02","25","00:00","-19.7","","-23.5","","72","","","","29","","13","","24.1","","100.71","","","","-28","","Snow"
"-68.42","58.10","KUUJJUAQ A","7113534","2012-02-25 01:00","2012","02","25","01:00","-19.7","","-23.3","","73","","","","28","","7","","24.1","","100.71","","","","-25","","Snow"
"-68.42","58.10","KUUJJUAQ A","7113534","2012-02-25 02:00","2012","02","25","02:00","-18.8","","-22.3","","74","","","","29","","9","","24.1","","100.68","","","","-25","","Snow"
"-68.42","58.10","KUUJJUAQ A","7113534","2012-02-25 03:00","2012","02","25","03:00","-18.0","","-21.3","","75","","","","30","","7","","24.1","","100.64","","","","-23","","Snow"
"-68.42","58.10","KUUJJUAQ A","7113534","2012-02-25 04:00","2012","02","25","04:00","-17.3","","-20.6","","75","","","","31","","4","","24.1","","100.63","","","","-20","","Snow"
"-68.42","58.10","KUUJJUAQ A","7113534","2012-02-25 05:00","2012","02","25","05:00","-16.7","","-19.7","","78","","","","32","","7","","24.1","","100.60","","","","-22","","Snow"
"-68.42","58.10","KUUJJUAQ A","7113534","2012-02-25 06:00","2012","02","25","06:00","-16.3","","-19.2","","78","","","","","","0","","24.1","","100.58","","","","","","Snow"
"-68.42","58.10","KUUJJUAQ A","7113534","2012-02-25 07:00","2012","02","25","07:00","-16.2","","-19.3","","77","","","","","","0","","24.1","","100.54","","","","","","Snow"
"-68.42","58.10","KUUJJUAQ A","7113534","2012-02-25 08:00","2012","02","25","08:00","-15.4","","-18.3","","78","","","","","","0","","24.1","","100.50","","","","","","Snow"
"-68.42","58.10","KUUJJUAQ A","7113534","2012-02-25 09:00","2012","02","25","09:00","-14.7","","-17.7","","78","","","","34","","15","","24.1","","100.48","","","","-23","","Snow"
"-68.42","58.10","KUUJJUAQ A","7113534","2012-02-25 10:00","2012","02","25","10:00","-13.7","","-16.7","","78","","","","","","0","","19.3","","100.44","","","","","","Snow"
"-68.42","58.10","KUUJJUAQ A","7113534","2012-02-25 11:00","2012","02","25","11:00","-13.5","","-17.2","","74","","","","35","","9","","19.3","","100.39","","","","-19","","Snow"
"-68.42","58.10","KUUJJUAQ A","7113534","2012-02-25 12:00","2012","02","25","12:00","-13.3","","-17.5","","71","","","","35","","9","","19.3","","100.33","","","","-19","","Snow"
"-68.42","58.10","KUUJJUAQ A","7113534","2012-02-25 13:00","2012","02","25","13:00","-13.2","","-17.4","","71","","","","30","","11","","19.3","","100.30","","","","-19","","Snow"
"-68.42","58.10","KUUJJUAQ A","7113534","2012-02-25 14:00","2012","02","25","14:00","-12.7","","-17.5","","67","","","","35","","6","","24.1","","100.25","","","","-17","","Snow"
"-68.42","58.10","KUUJJUAQ A","7113534","2012-02-25 15:00","2012","02","25","15:00","-12.7","","-17.4","","68","","","","3","","9","","24.1","","100.25","","","","-18","","Snow"
"-68.42","58.10","KUUJJUAQ A","7113534","2012-02-25 16:00","2012","02","25","16:00","-12.7","","-17.1","","70","","","","","","0","","24.1","","100.26","","","","","","Snow"
"-68.42","58.10","KUUJJUAQ A","7113534","2012-02-25 17:00","2012","02","25","17:00","-12.9","","-16.9","","72","","","","35","","6","","24.1","","100.24","","","","-17","","Snow"
"-68.42","58.10","KUUJJUAQ A","7113534","2012-02-25 18:00","2012","02","25","18:00","-13.0","","-17.1","","71","","","","35","","7","","24.1","","100.23","","","","-18","","Snow"
"-68.42","58.10","KUUJJUAQ A","7113534","2012-02-25 19:00","2012","02","25","19:00","-13.2","","-17.1","","72","","","","36","","7","","24.1","","100.21","","","","-18","","Snow"
"-68.42","58.10","KUUJJUAQ A","7113534","2012-02-25 20:00","2012","02","25","20:00","-13.3","","-16.8","","75","","","","3","","6","","24.1","","100.21","","","","-17","","Snow"
"-68.42","58.10","KUUJJUAQ A","7113534","2012-02-25 21:00","2012","02","25","21:00","-13.0","","-16.9","","72","","","","32","","6","","24.1","","100.21","","","","-17","","Snow"
"-68.42","58.10","KUUJJUAQ A","7113534","2012-02-25 22:00","2012","02","25","22:00","-14.1","","-16.9","","79","","","","","","0","","24.1","","100.17","","","","","","Snow"
"-68.42","58.10","KUUJJUAQ A","7113534","2012-02-25 23:00","2012","02","25","23:00","-13.9","","-16.9","","78","","","","27","","4","","24.1","","100.16","","","","-17","","Snow"
"-68.42","58.10","KUUJJUAQ A","7113534","2012-02-26 00:00","2012","02","26","00:00","-13.8","","-16.9","","77","","","","31","","6","","24.1","","100.14","","","","-18","","Snow"
"-68.42","58.10","KUUJJUAQ A","7113534","2012-02-26 01:00","2012","02","26","01:00","-13.5","","-16.5","","78","","","","29","","7","","24.1","","100.15","","","","-18","","Snow"
"-68.42","58.10","KUUJJUAQ A","7113534","2012-02-26 02:00","2012","02","26","02:00","-13.4","","-16.3","","79","","","","30","","4","","12.9","","100.19","","","","-16","","Snow"
"-68.42","58.10","KUUJJUAQ A","7113534","2012-02-26 03:00","2012","02","26","03:00","-13.0","","-16.1","","78","","","","33","","9","","12.9","","100.21","","","","-18","","Snow"
"-68.42","58.10","KUUJJUAQ A","7113534","2012-02-26 04:00","2012","02","26","04:00","-13.7","","-17.4","","74","","","","30","","13","","12.9","","100.25","","","","-21","","Snow"
"-68.42","58.10","KUUJJUAQ A","7113534","2012-02-26 05:00","2012","02","26","05:00","-14.4","","-18.3","","72","","","","34","","11","","12.9","","100.30","","","","-21","","Snow"
"-68.42","58.10","KUUJJUAQ A","7113534","2012-02-26 06:00","2012","02","26","06:00","-14.9","","-19.0","","71","","","","32","","13","","12.9","","100.36","","","","-22","","Snow"
"-68.42","58.10","KUUJJUAQ A","7113534","2012-02-26 07:00","2012","02","26","07:00","-15.3","","-19.6","","70","","","","","","0","","19.3","","100.42","","","","","","Snow"
"-68.42","58.10","KUUJJUAQ A","7113534","2012-02-26 08:00","2012","02","26","08:00","-15.5","","-20.2","","67","","","","27","","13","","19.3","","100.44","","","","-23","","Snow"
"-68.42","58.10","KUUJJUAQ A","7113534","2012-02-26 09:00","2012","02","26","09:00","-15.3","","-19.9","","68","","","","30","","17","","9.7","","100.49","","","","-24","","Snow"
"-68.42","58.10","KUUJJUAQ A","7113534","2012-02-26 10:00","2012","02","26","10:00","-14.6","","-20.0","","63","","","","27","","15","","19.3","","100.48","","","","-22","","Snow"
"-68.42","58.10","KUUJJUAQ A","7113534","2012-02-26 11:00","2012","02","26","11:00","-14.5","","-20.1","","62","","","","27","","20","","19.3","","100.51","","","","-24","","Snow"
"-68.42","58.10","KUUJJUAQ A","7113534","2012-02-26 12:00","2012","02","26","12:00","-14.4","","-20.1","","62","","","","27","","22","","24.1","","100.52","","","","-24","","Snow"
"-68.42","58.10","KUUJJUAQ A","7113534","2012-02-26 13:00","2012","02","26","13:00","-14.5","","-20.2","","62","","","","27","","22","","19.3","","100.56","","","","-24","","Snow"
"-68.42","58.10","KUUJJUAQ A","7113534","2012-02-26 14:00","2012","02","26","14:00","-14.6","","-20.8","","59","","","","27","","24","","19.3","","100.65","","","","-24","","Snow"
"-68.42","58.10","KUUJJUAQ A","7113534","2012-02-26 15:00","2012","02","26","15:00","-15.2","","-20.7","","63","","","","28","","22","","8.0","","100.74","","","","-25","","Snow"
"-68.42","58.10","KUUJJUAQ A","7113534","2012-02-26 16:00","2012","02","26","16:00","-15.6","","-20.8","","64","","","","26","","20","","8.0","","100.82","","","","-25","","Snow"
"-68.42","58.10","KUUJJUAQ A","7113534","2012-02-26 17:00","2012","02","26","17:00","-16.2","","-21.3","","65","","","","27","","20","","4.8","","100.92","","","","-26","","Snow"
"-68.42","58.10","KUUJJUAQ A","7113534","2012-02-26 18:00","2012","02","26","18:00","-16.9","","-22.2","","63","","","","28","","22","","9.7","","101.00","","","","-27","","Snow"
"-68.42","58.10","KUUJJUAQ A","7113534","2012-02-26 19:00","2012","02","26","19:00","-17.7","","-22.9","","64","","","","28","","22","","12.9","","101.04","","","","-28","","Snow"
"-68.42","58.10","KUUJJUAQ A","7113534","2012-02-26 20:00","2012","02","26","20:00","-18.7","","-24.1","","62","","","","28","","22","","12.9","","101.12","","","","-29","","Snow"
"-68.42","58.10","KUUJJUAQ A","7113534","2012-02-26 21:00","2012","02","26","21:00","-19.9","","-25.7","","60","","","","26","","15","","12.9","","101.18","","","","-29","","Snow"
"-68.42","58.10","KUUJJUAQ A","7113534","2012-02-26 22:00","2012","02","26","22:00","-20.1","","-25.8","","60","","","","27","","15","","12.9","","101.19","","","","-29","","Snow"
"-68.42","58.10","KUUJJUAQ A","7113534","2012-02-26 23:00","2012","02","26","23:00","-20.7","","-26.2","","61","","","","25","","15","","24.1","","101.23","","","","-30","","Snow"
"-68.42","58.10","KUUJJUAQ A","7113534","2012-02-27 00:00","2012","02","27","00:00","-21.0","","-26.8","","60","","","","25","","15","","24.1","","101.29","","","","-30","","Snow"
"-68.42","58.10","KUUJJUAQ A","7113534","2012-02-27 01:00","2012","02","27","01:00","-21.1","","-26.6","","61","","","","27","","22","","12.9","","101.33","","","","-32","","Snow"
"-68.42","58.10","KUUJJUAQ A","7113534","2012-02-27 02:00","2012","02","27","02:00","-21.8","","-27.0","","63","","","","26","","15","","12.9","","101.39","","","","-31","","Snow"
"-68.42","58.10","KUUJJUAQ A","7113534","2012-02-27 03:00","2012","02","27","03:00","-22.4","","-27.8","","61","","","","25","","11","","24.1","","101.47","","","","-31","","Snow"
"-68.42","58.10","KUUJJUAQ A","7113534","2012-02-27 04:00","2012","02","27","04:00","-23.8","","-28.9","","63","","","","21","","11","","24.1","","101.56","","","","-32","","Mainly Clear"
"-68.42","58.10","KUUJJUAQ A","7113534","2012-02-27 05:00","2012","02","27","05:00","-24.5","","-29.2","","65","","","","24","","7","","24.1","","101.59","","","","-31","","Mainly Clear"
"-68.42","58.10","KUUJJUAQ A","7113534","2012-02-27 06:00","2012","02","27","06:00","-21.7","","-27.7","","58","","","","27","","11","","24.1","","101.61","","","","-30","","Snow"
"-68.42","58.10","KUUJJUAQ A","7113534","2012-02-27 07:00","2012","02","27","07:00","-22.0","","-28.1","","58","","","","28","","19","","24.1","","101.63","","","","-33","","Snow"
"-68.42","58.10","KUUJJUAQ A","7113534","2012-02-27 08:00","2012","02","27","08:00","-22.3","","-28.4","","58","","","","27","","19","","24.1","","101.66","","","","-33","","Mainly Clear"
"-68.42","58.10","KUUJJUAQ A","7113534","2012-02-27 09:00","2012","02","27","09:00","-21.2","","-27.8","","55","","","","26","","24","","24.1","","101.69","","","","-33","","Mainly Clear"
"-68.42","58.10","KUUJJUAQ A","7113534","2012-02-27 10:00","2012","02","27","10:00","-22.0","","-28.7","","55","","","","26","","26","","24.1","","101.74","","","","-34","","Mostly Cloudy"
"-68.42","58.10","KUUJJUAQ A","7113534","2012-02-27 11:00","2012","02","27","11:00","-21.6","","-28.4","","54","","","","25","","19","","24.1","","101.76","","","","-32","","Mostly Cloudy"
"-68.42","58.10","KUUJJUAQ A","7113534","2012-02-27 12:00","2012","02","27","12:00","-21.0","","-28.1","","53","","","","25","","20","","24.1","","101.77","","","","-32","","Mostly Cloudy"
"-68.42","58.10","KUUJJUAQ A","7113534","2012-02-27 13:00","2012","02","27","13:00","-20.2","","-28.2","","49","","","","27","","19","","24.1","","101.77","","","","-30","","Mostly Cloudy"
"-68.42","58.10","KUUJJUAQ A","7113534","2012-02-27 14:00","2012","02","27","14:00","-20.2","","-27.6","","52","","","","25","","19","","24.1","","101.82","","","","-30","","Mostly Cloudy"
"-68.42","58.10","KUUJJUAQ A","7113534","2012-02-27 15:00","2012","02","27","15:00","-21.2","","-28.4","","52","","","","28","","20","","19.3","","101.88","","","","-32","","Snow"
"-68.42","58.10","KUUJJUAQ A","7113534","2012-02-27 16:00","2012","02","27","16:00","-21.9","","-29.2","","52","","","","26","","20","","24.1","","101.92","","","","-33","","Mostly Cloudy"
"-68.42","58.10","KUUJJUAQ A","7113534","2012-02-27 17:00","2012","02","27","17:00","-23.2","","-30.1","","53","","","","25","","11","","24.1","","101.97","","","","-31","","Mostly Cloudy"
"-68.42","58.10","KUUJJUAQ A","7113534","2012-02-27 18:00","2012","02","27","18:00","-24.3","","-30.8","","55","","","","","","0","","24.1","","101.96","","","","","","Mostly Cloudy"
"-68.42","58.10","KUUJJUAQ A","7113534","2012-02-27 19:00","2012","02","27","19:00","-24.7","","-31.0","","56","","","","22","","7","","24.1","","101.96","","","","-31","","Ice Crystals"
"-68.42","58.10","KUUJJUAQ A","7113534","2012-02-27 20:00","2012","02","27","20:00","-25.4","","-31.7","","56","","","","24","","7","","24.1","","101.97","","","","-32","","Clear"
"-68.42","58.10","KUUJJUAQ A","7113534","2012-02-27 21:00","2012","02","27","21:00","-25.7","","-31.8","","57","","","","23","","11","","24.1","","101.98","","","","-34","","Mainly Clear"
"-68.42","58.10","KUUJJUAQ A","7113534","2012-02-27 22:00","2012","02","27","22:00","-26.6","","-32.2","","59","","","","24","","6","","24.1","","101.95","","","","-33","","Clear"
"-68.42","58.10","KUUJJUAQ A","7113534","2012-02-27 23:00","2012","02","27","23:00","-27.3","","-32.6","","61","","","","23","","11","","24.1","","101.95","","","","-36","","Mainly Clear"
"-68.42","58.10","KUUJJUAQ A","7113534","2012-02-28 00:00","2012","02","28","00:00","-27.5","","-32.7","","61","","","","18","","6","","24.1","","101.93","","","","-34","","Mainly Clear"
"-68.42","58.10","KUUJJUAQ A","7113534","2012-02-28 01:00","2012","02","28","01:00","-27.4","","-32.9","","59","","","","23","","7","","24.1","","101.92","","","","-34","","Mostly Cloudy"
"-68.42","58.10","KUUJJUAQ A","7113534","2012-02-28 02:00","2012","02","28","02:00","-28.3","","-33.4","","62","","","","23","","7","","24.1","","101.92","","","","-35","","Mainly Clear"
"-68.42","58.10","KUUJJUAQ A","7113534","2012-02-28 03:00","2012","02","28","03:00","-28.2","","-33.2","","62","","","","24","","13","","24.1","","101.88","","","","-38","","Mostly Cloudy"
"-68.42","58.10","KUUJJUAQ A","7113534","2012-02-28 04:00","2012","02","28","04:00","-28.3","","-33.2","","63","","","","24","","11","","24.1","","101.88","","","","-38","","Mostly Cloudy"
"-68.42","58.10","KUUJJUAQ A","7113534","2012-02-28 05:00","2012","02","28","05:00","-28.1","","-33.1","","62","","","","24","","11","","24.1","","101.91","","","","-37","","Mostly Cloudy"
"-68.42","58.10","KUUJJUAQ A","7113534","2012-02-28 06:00","2012","02","28","06:00","-28.8","","-33.6","","63","","","","19","","6","","24.1","","101.92","","","","-35","","Mostly Cloudy"
"-68.42","58.10","KUUJJUAQ A","7113534","2012-02-28 07:00","2012","02","28","07:00","-28.1","","-33.0","","63","","","","","","0","","24.1","","101.92","","","","","","Mostly Cloudy"
"-68.42","58.10","KUUJJUAQ A","7113534","2012-02-28 08:00","2012","02","28","08:00","-27.0","","-32.2","","61","","","","24","","9","","24.1","","101.91","","","","-35","","Snow"
"-68.42","58.10","KUUJJUAQ A","7113534","2012-02-28 09:00","2012","02","28","09:00","-26.0","","-31.6","","59","","","","25","","9","","16.1","","101.90","","","","-34","","Snow"
"-68.42","58.10","KUUJJUAQ A","7113534","2012-02-28 10:00","2012","02","28","10:00","-24.8","","-31.5","","54","","","","27","","19","","19.3","","101.88","","","","-36","","Ice Crystals"
"-68.42","58.10","KUUJJUAQ A","7113534","2012-02-28 11:00","2012","02","28","11:00","-24.1","","-31.3","","51","","","","26","","19","","19.3","","101.86","","","","-35","","Ice Crystals"
"-68.42","58.10","KUUJJUAQ A","7113534","2012-02-28 12:00","2012","02","28","12:00","-23.8","","-31.1","","51","","","","27","","19","","24.1","","101.83","","","","-35","","Ice Crystals"
"-68.42","58.10","KUUJJUAQ A","7113534","2012-02-28 13:00","2012","02","28","13:00","-23.0","","-30.9","","48","","","","25","","19","","24.1","","101.83","","","","-34","","Ice Crystals"
"-68.42","58.10","KUUJJUAQ A","7113534","2012-02-28 14:00","2012","02","28","14:00","-23.4","","-31.0","","50","","","","26","","19","","24.1","","101.85","","","","-34","","Ice Crystals"
"-68.42","58.10","KUUJJUAQ A","7113534","2012-02-28 15:00","2012","02","28","15:00","-23.4","","-31.0","","50","","","","27","","19","","24.1","","101.85","","","","-34","","Mostly Cloudy"
"-68.42","58.10","KUUJJUAQ A","7113534","2012-02-28 16:00","2012","02","28","16:00","-24.3","","-31.6","","51","","","","28","","22","","24.1","","101.88","","","","-36","","Mostly Cloudy"
"-68.42","58.10","KUUJJUAQ A","7113534","2012-02-28 17:00","2012","02","28","17:00","-25.0","","-32.5","","50","","","","25","","19","","24.1","","101.92","","","","-37","","Mostly Cloudy"
"-68.42","58.10","KUUJJUAQ A","7113534","2012-02-28 18:00","2012","02","28","18:00","-26.5","","-33.4","","52","","","","27","","19","","24.1","","101.96","","","","-38","","Ice Crystals"
"-68.42","58.10","KUUJJUAQ A","7113534","2012-02-28 19:00","2012","02","28","19:00","-27.6","","-33.9","","55","","","","27","","7","","24.1","","101.96","","","","-34","","Ice Crystals"
"-68.42","58.10","KUUJJUAQ A","7113534","2012-02-28 20:00","2012","02","28","20:00","-28.5","","-34.7","","55","","","","26","","11","","24.1","","101.96","","","","-38","","Ice Crystals"
"-68.42","58.10","KUUJJUAQ A","7113534","2012-02-28 21:00","2012","02","28","21:00","-29.0","","-34.8","","57","","","","25","","15","","24.1","","101.95","","","","-40","","Ice Crystals"
"-68.42","58.10","KUUJJUAQ A","7113534","2012-02-28 22:00","2012","02","28","22:00","-29.9","","-35.3","","59","","","","","","0","","24.1","","101.95","","","","","","Ice Crystals"
"-68.42","58.10","KUUJJUAQ A","7113534","2012-02-28 23:00","2012","02","28","23:00","-30.2","","-35.5","","60","","","","24","","7","","24.1","","101.93","","","","-38","","Ice Crystals"
"-68.42","58.10","KUUJJUAQ A","7113534","2012-02-29 00:00","2012","02","29","00:00","-31.1","","-36.3","","60","","","","22","","7","","24.1","","101.91","","","","-39","","Ice Crystals"
"-68.42","58.10","KUUJJUAQ A","7113534","2012-02-29 01:00","2012","02","29","01:00","-31.6","","-36.8","","60","","","","","","0","","24.1","","101.91","","","","","","Ice Crystals"
"-68.42","58.10","KUUJJUAQ A","7113534","2012-02-29 02:00","2012","02","29","02:00","-31.6","","-36.7","","61","","","","23","","9","","24.1","","101.93","","","","-40","","Ice Crystals"
"-68.42","58.10","KUUJJUAQ A","7113534","2012-02-29 03:00","2012","02","29","03:00","-32.2","","-37.1","","62","","","","23","","9","","24.1","","101.94","","","","-41","","Ice Crystals"
"-68.42","58.10","KUUJJUAQ A","7113534","2012-02-29 04:00","2012","02","29","04:00","-32.7","","-37.7","","61","","","","24","","11","","24.1","","101.98","","","","-43","","Ice Crystals"
"-68.42","58.10","KUUJJUAQ A","7113534","2012-02-29 05:00","2012","02","29","05:00","-32.3","","-37.0","","63","","","","24","","7","","24.1","","102.00","","","","-40","","Ice Crystals"
"-68.42","58.10","KUUJJUAQ A","7113534","2012-02-29 06:00","2012","02","29","06:00","-31.7","","-36.4","","63","","","","23","","7","","24.1","","102.02","","","","-39","","Clear"
"-68.42","58.10","KUUJJUAQ A","7113534","2012-02-29 07:00","2012","02","29","07:00","-32.9","","-37.6","","63","","","","23","","7","","24.1","","102.07","","","","-41","","Clear"
"-68.42","58.10","KUUJJUAQ A","7113534","2012-02-29 08:00","2012","02","29","08:00","-30.9","","-36.0","","61","","","","23","","9","","24.1","","102.08","","","","-40","","Clear"
"-68.42","58.10","KUUJJUAQ A","7113534","2012-02-29 09:00","2012","02","29","09:00","-28.3","","-34.6","","55","","","","27","","11","","24.1","","102.11","","","","-38","","Mainly Clear"
"-68.42","58.10","KUUJJUAQ A","7113534","2012-02-29 10:00","2012","02","29","10:00","-26.2","","-33.2","","52","","","","21","","19","","24.1","","102.11","","","","-38","","Mainly Clear"
"-68.42","58.10","KUUJJUAQ A","7113534","2012-02-29 11:00","2012","02","29","11:00","-24.7","","-32.3","","49","","","","27","","13","","24.1","","102.13","","","","-34","","Mainly Clear"
"-68.42","58.10","KUUJJUAQ A","7113534","2012-02-29 12:00","2012","02","29","12:00","-24.3","","-31.4","","52","","","","28","","9","","24.1","","102.11","","","","-32","","Mainly Clear"
"-68.42","58.10","KUUJJUAQ A","7113534","2012-02-29 13:00","2012","02","29","13:00","-24.0","","-31.7","","49","","","","26","","15","","24.1","","102.11","","","","-34","","Mainly Clear"
"-68.42","58.10","KUUJJUAQ A","7113534","2012-02-29 14:00","2012","02","29","14:00","-24.2","","-31.6","","50","","","","26","","11","","24.1","","102.14","","","","-33","","Mainly Clear"
"-68.42","58.10","KUUJJUAQ A","7113534","2012-02-29 15:00","2012","02","29","15:00","-24.4","","-32.0","","49","","","","26","","20","","24.1","","102.17","","","","-36","","Mainly Clear"
"-68.42","58.10","KUUJJUAQ A","7113534","2012-02-29 16:00","2012","02","29","16:00","-25.0","","-32.6","","49","","","","26","","19","","24.1","","102.21","","","","-37","","Mainly Clear"
"-68.42","58.10","KUUJJUAQ A","7113534","2012-02-29 17:00","2012","02","29","17:00","-26.0","","-33.3","","50","","","","24","","7","","24.1","","102.25","","","","-33","","Mainly Clear"
"-68.42","58.10","KUUJJUAQ A","7113534","2012-02-29 18:00","2012","02","29","18:00","-27.0","","-33.8","","53","","","","23","","11","","24.1","","102.26","","","","-36","","Mainly Clear"
"-68.42","58.10","KUUJJUAQ A","7113534","2012-02-29 19:00","2012","02","29","19:00","-27.5","","-33.9","","54","","","","24","","9","","24.1","","102.27","","","","-36","","Clear"
"-68.42","58.10","KUUJJUAQ A","7113534","2012-02-29 20:00","2012","02","29","20:00","-27.9","","-34.1","","55","","","","25","","9","","24.1","","102.30","","","","-36","","Clear"
"-68.42","58.10","KUUJJUAQ A","7113534","2012-02-29 21:00","2012","02","29","21:00","-28.9","","-34.8","","57","","","","24","","7","","24.1","","102.29","","","","-36","","Clear"
"-68.42","58.10","KUUJJUAQ A","7113534","2012-02-29 22:00","2012","02","29","22:00","-29.6","","-35.0","","59","","","","23","","15","","24.1","","102.26","","","","-41","","Clear"
"-68.42","58.10","KUUJJUAQ A","7113534","2012-02-29 23:00","2012","02","29","23:00","-29.8","","-35.2","","59","","","","24","","11","","24.1","","102.25","","","","-39","","Mainly Clear"
