"Longitude (x)","Latitude (y)","Station Name","Climate ID","Date/Time (LST)","Year","Month","Day","Time (LST)","Temp (°C)","Temp Flag","Dew Point Temp (°C)","Dew Point Temp Flag","Rel Hum (%)","Rel Hum Flag","Precip. Amount (mm)","Precip. Amount Flag","Wind Dir (10s deg)","Wind Dir Flag","Wind Spd (km/h)","Wind Spd Flag","Visibility (km)","Visibility Flag","Stn Press (kPa)","Stn Press Flag","Hmdx","Hmdx Flag","Wind Chill","Wind Chill Flag","Weather"
"-115.14","67.82","KUGLUKTUK A","2300903","2018-03-01 00:00","2018","03","01","00:00","-28.4","","-32.5","","69","","","","25","","21","","19.3","","103.08","","","","-41","","Ice Crystals,Blowing Snow"
"-115.14","67.82","KUGLUKTUK A","2300903","2018-03-01 01:00","2018","03","01","01:00","-29.5","","-33.4","","69","","","","23","","25","","19.3","","103.16","","","","-44","","Ice Crystals,Blowing Snow"
"-115.14","67.82","KUGLUKTUK A","2300903","2018-03-01 02:00","2018","03","01","02:00","-28.2","","-32.4","","68","","","","23","","20","","16.1","","103.26","","","","-41","","Ice Crystals,Blowing Snow"
"-115.14","67.82","KUGLUKTUK A","2300903","2018-03-01 03:00","2018","03","01","03:00","-28.2","","-32.1","","70","","","","25","","22","","16.1","","103.33","","","","-41","","Ice Crystals,Blowing Snow"
"-115.14","67.82","KUGLUKTUK A","2300903","2018-03-01 04:00","2018","03","01","04:00","-30.1","","-33.9","","70","","","","23","","23","","19.3","","103.40","","","","-44","","Ice Crystals,Blowing Snow"
"-115.14","67.82","KUGLUKTUK A","2300903","2018-03-01 05:00","2018","03","01","05:00","-30.2","","-34.4","","68","","","","23","","24","","19.3","","103.47","","","","-44","","Ice Crystals,Blowing Snow"
"-115.14","67.82","KUGLUKTUK A","2300903","2018-03-01 06:00","2018","03","01","06:00","-30.4","","-34.5","","68","","","","22","","23","","19.3","","103.55","","","","-44","","Ice Crystals,Blowing Snow"
"-115.14","67.82","KUGLUKTUK A","2300903","2018-03-01 07:00","2018","03","01","07:00","-29.3","","-33.8","","66","","","","24","","27","","16.1","","103.62","","","","-44","","Ice Crystals,Blowing Snow"
"-115.14","67.82","KUGLUKTUK A","2300903","2018-03-01 08:00","2018","03","01","08:00","-30.1","","-34.4","","67","","","","24","","30","","19.3","","103.68","","","","-46","","Ice Crystals,Blowing Snow"
"-115.14","67.82","KUGLUKTUK A","2300903","2018-03-01 09:00","2018","03","01","09:00","-30.6","","-35.2","","65","","","","23","","18","","19.3","","103.74","","","","-43","","Ice Crystals,Blowing Snow"
"-115.14","67.82","KUGLUKTUK A","2300903","2018-03-01 10:00","2018","03","01","10:00","-31.2","","-35.6","","67","","","","22","","22","","24.1","","103.80","","","","-45","","NA"
"-115.14","67.82","KUGLUKTUK A","2300903","2018-03-01 11:00","2018","03","01","11:00","-30.7","","-35.2","","66","","","","22","","17","","24.1","","103.87","","","","-43","","Clear"
"-115.14","67.82","KUGLUKTUK A","2300903","2018-03-01 12:00","2018","03","01","12:00","-29.7","","-34.5","","64","","","","22","","16","","24.1","","103.89","","","","-41","","NA"
"-115.14","67.82","KUGLUKTUK A","2300903","2018-03-01 13:00","2018","03","01","13:00","-28.9","","-33.8","","64","","","","23","","23","","24.1","","103.93","","","","-43","","NA"
"-115.14","67.82","KUGLUKTUK A","2300903","2018-03-01 14:00","2018","03","01","14:00","-29.0","","-34.1","","62","","","","25","","29","","24.1","","103.97","","","","-44","","Blowing Snow"
"-115.14","67.82","KUGLUKTUK A","2300903","2018-03-01 15:00","2018","03","01","15:00","-28.4","","-33.5","","63","","","","24","","25","","24.1","","104.01","","","","-42","","Blowing Snow"
"-115.14","67.82","KUGLUKTUK A","2300903","2018-03-01 16:00","2018","03","01","16:00","-28.7","","-33.7","","63","","","","24","","30","","24.1","","104.03","","","","-44","","Blowing Snow"
"-115.14","67.82","KUGLUKTUK A","2300903","2018-03-01 17:00","2018","03","01","17:00","-30.1","","-34.5","","66","","","","24","","21","","24.1","","104.07","","","","-44","","Blowing Snow"
"-115.14","67.82","KUGLUKTUK A","2300903","2018-03-01 18:00","2018","03","01","18:00","-29.6","","-33.9","","67","","","","24","","32","","24.1","","104.07","","","","-46","","Blowing Snow"
"-115.14","67.82","KUGLUKTUK A","2300903","2018-03-01 19:00","2018","03","01","19:00","-29.9","","-34.4","","66","","","","23","","22","","24.1","","104.10","","","","-44","","Blowing Snow"
"-115.14","67.82","KUGLUKTUK A","2300903","2018-03-01 20:00","2018","03","01","20:00","-32.0","","-36.1","","68","","","","21","","19","","24.1","","104.13","","","","-45","","Clear"
"-115.14","67.82","KUGLUKTUK A","2300903","2018-03-01 21:00","2018","03","01","21:00","-30.0","","-34.0","","69","","","","22","","23","","24.1","","104.14","","","","-44","","NA"
"-115.14","67.82","KUGLUKTUK A","2300903","2018-03-01 22:00","2018","03","01","22:00","-29.1","","-33.0","","70","","","","23","","28","","24.1","","104.15","","","","-44","","NA"
"-115.14","67.82","KUGLUKTUK A","2300903","2018-03-01 23:00","2018","03","01","23:00","-30.5","","-33.8","","74","","","","22","","22","","24.1","","104.13","","","","-44","","Clear"
"-115.14","67.82","KUGLUKTUK A","2300903","2018-03-02 00:00","2018","03","02","00:00","-30.4","","-33.9","","72","","","","22","","14","","24.1","","104.12","","","","-42","","NA"
"-115.14","67.82","KUGLUKTUK A","2300903","2018-03-02 01:00","2018","03","02","01:00","-29.2","","-33.0","","70","","","","22","","19","","24.1","","104.13","","","","-42","","NA"
"-115.14","67.82","KUGLUKTUK A","2300903","2018-03-02 02:00","2018","03","02","02:00","-29.1","","-33.2","","69","","","","22","","23","","24.1","","104.11","","","","-43","","Mainly Clear"
"-115.14","67.82","KUGLUKTUK A","2300903","2018-03-02 03:00","2018","03","02","03:00","-30.3","","-33.9","","72","","","","22","","22","","24.1","","104.17","","","","-44","","NA"
"-115.14","67.82","KUGLUKTUK A","2300903","2018-03-02 04:00","2018","03","02","04:00","-30.1","","-33.8","","71","","","","22","","21","","24.1","","104.17","","","","-44","","NA"
"-115.14","67.82","KUGLUKTUK A","2300903","2018-03-02 05:00","2018","03","02","05:00","-29.9","","-33.9","","69","","","","29","","6","","24.1","","104.17","","","","-36","","Mainly Clear"
"-115.14","67.82","KUGLUKTUK A","2300903","2018-03-02 06:00","2018","03","02","06:00","-27.0","","-31.5","","67","","","","21","","27","","24.1","","104.15","","","","-41","","NA"
"-115.14","67.82","KUGLUKTUK A","2300903","2018-03-02 07:00","2018","03","02","07:00","-27.3","","-31.4","","68","","","","19","","17","","24.1","","104.16","","","","-39","","NA"
"-115.14","67.82","KUGLUKTUK A","2300903","2018-03-02 08:00","2018","03","02","08:00","-25.0","","-29.5","","67","","","","21","","36","","24.1","","104.12","","","","-40","","Mainly Clear"
"-115.14","67.82","KUGLUKTUK A","2300903","2018-03-02 09:00","2018","03","02","09:00","-24.7","","-29.6","","64","","","","21","","29","","24.1","","104.15","","","","-39","","NA"
"-115.14","67.82","KUGLUKTUK A","2300903","2018-03-02 10:00","2018","03","02","10:00","-24.8","","-30.1","","62","","","","20","","37","","24.1","","104.14","","","","-40","","Blowing Snow"
"-115.14","67.82","KUGLUKTUK A","2300903","2018-03-02 11:00","2018","03","02","11:00","-24.3","","-29.4","","64","","","","20","","34","","24.1","","104.14","","","","-39","","Mostly Cloudy"
"-115.14","67.82","KUGLUKTUK A","2300903","2018-03-02 12:00","2018","03","02","12:00","-23.3","","-28.5","","63","","","","20","","31","","24.1","","104.13","","","","-37","","NA"
"-115.14","67.82","KUGLUKTUK A","2300903","2018-03-02 13:00","2018","03","02","13:00","-22.8","","-28.2","","62","","","","20","","30","","24.1","","104.09","","","","-36","","NA"
"-115.14","67.82","KUGLUKTUK A","2300903","2018-03-02 14:00","2018","03","02","14:00","-22.7","","-28.3","","61","","","","36","","2","","24.1","","104.12","","","","-25","","Mainly Clear"
"-115.14","67.82","KUGLUKTUK A","2300903","2018-03-02 15:00","2018","03","02","15:00","-23.4","","-28.6","","63","","","","10","","10","","24.1","","104.05","","","","-31","","NA"
"-115.14","67.82","KUGLUKTUK A","2300903","2018-03-02 16:00","2018","03","02","16:00","-23.1","","-27.9","","66","","","","12","","12","","24.1","","104.00","","","","-32","","NA"
"-115.14","67.82","KUGLUKTUK A","2300903","2018-03-02 17:00","2018","03","02","17:00","-24.2","","-28.5","","68","","","","15","","11","","24.1","","103.95","","","","-33","","Mainly Clear"
"-115.14","67.82","KUGLUKTUK A","2300903","2018-03-02 18:00","2018","03","02","18:00","-25.1","","-29.3","","69","","","","11","","10","","24.1","","103.90","","","","-33","","NA"
"-115.14","67.82","KUGLUKTUK A","2300903","2018-03-02 19:00","2018","03","02","19:00","-23.3","","-27.4","","69","","","","16","","5","","24.1","","103.84","","","","-28","","Snow"
"-115.14","67.82","KUGLUKTUK A","2300903","2018-03-02 20:00","2018","03","02","20:00","-22.8","","-26.9","","70","","","","15","","7","","19.3","","103.77","","","","-29","","Snow"
"-115.14","67.82","KUGLUKTUK A","2300903","2018-03-02 21:00","2018","03","02","21:00","-23.0","","-26.4","","74","","","","36","","2","","19.3","","103.72","","","","-25","","Ice Crystals"
"-115.14","67.82","KUGLUKTUK A","2300903","2018-03-02 22:00","2018","03","02","22:00","-23.0","","-26.0","","77","","","","6","","3","","8.1","","103.67","","","","-26","","Ice Crystals"
"-115.14","67.82","KUGLUKTUK A","2300903","2018-03-02 23:00","2018","03","02","23:00","-23.7","","-26.5","","78","","","","32","","3","","8.1","","103.58","","","","-27","","Snow"
"-115.14","67.82","KUGLUKTUK A","2300903","2018-03-03 00:00","2018","03","03","00:00","-22.2","","-24.8","","80","","","","5","","13","","6.4","","103.51","","","","-31","","Snow"
"-115.14","67.82","KUGLUKTUK A","2300903","2018-03-03 01:00","2018","03","03","01:00","-23.4","","-26.0","","80","","","","36","","13","","8.1","","103.40","","","","-33","","Snow"
"-115.14","67.82","KUGLUKTUK A","2300903","2018-03-03 02:00","2018","03","03","02:00","-23.2","","-25.6","","80","","","","36","","2","","8.1","","103.32","","","","-25","","Snow"
"-115.14","67.82","KUGLUKTUK A","2300903","2018-03-03 03:00","2018","03","03","03:00","-22.6","","-25.1","","80","","","","31","","8","","8.1","","103.24","","","","-29","","Snow"
"-115.14","67.82","KUGLUKTUK A","2300903","2018-03-03 04:00","2018","03","03","04:00","-25.8","","-28.8","","77","","","","26","","17","","8.1","","103.21","","","","-37","","Snow"
"-115.14","67.82","KUGLUKTUK A","2300903","2018-03-03 05:00","2018","03","03","05:00","-27.4","","-30.4","","76","","","","25","","24","","12.9","","103.19","","","","-41","","Snow,Blowing Snow"
"-115.14","67.82","KUGLUKTUK A","2300903","2018-03-03 06:00","2018","03","03","06:00","-29.9","","-33.1","","74","","","","22","","26","","19.3","","103.15","","","","-45","","Snow,Blowing Snow"
"-115.14","67.82","KUGLUKTUK A","2300903","2018-03-03 07:00","2018","03","03","07:00","-31.1","","-34.3","","74","","","","23","","31","","19.3","","103.12","","","","-47","","Ice Crystals,Blowing Snow"
"-115.14","67.82","KUGLUKTUK A","2300903","2018-03-03 08:00","2018","03","03","08:00","-31.3","","-34.6","","73","","","","21","","25","","12.9","","103.07","","","","-46","","Ice Crystals,Blowing Snow"
"-115.14","67.82","KUGLUKTUK A","2300903","2018-03-03 09:00","2018","03","03","09:00","-30.6","","-34.0","","73","","","","22","","28","","8.1","","103.06","","","","-46","","Ice Crystals,Blowing Snow"
"-115.14","67.82","KUGLUKTUK A","2300903","2018-03-03 10:00","2018","03","03","10:00","-30.7","","-34.2","","72","","","","22","","28","","8.1","","103.05","","","","-46","","Ice Crystals,Blowing Snow"
"-115.14","67.82","KUGLUKTUK A","2300903","2018-03-03 11:00","2018","03","03","11:00","-28.9","","-32.3","","73","","","","24","","27","","16.1","","103.01","","","","-44","","Ice Crystals,Blowing Snow"
"-115.14","67.82","KUGLUKTUK A","2300903","2018-03-03 12:00","2018","03","03","12:00","-28.1","","-31.7","","72","","","","19","","18","","19.3","","102.98","","","","-40","","Ice Crystals"
"-115.14","67.82","KUGLUKTUK A","2300903","2018-03-03 13:00","2018","03","03","13:00","-27.5","","-31.2","","72","","","","22","","17","","19.3","","102.97","","","","-39","","Ice Crystals"
"-115.14","67.82","KUGLUKTUK A","2300903","2018-03-03 14:00","2018","03","03","14:00","-27.8","","-31.3","","72","","","","22","","16","","24.1","","102.95","","","","-39","","Ice Crystals"
"-115.14","67.82","KUGLUKTUK A","2300903","2018-03-03 15:00","2018","03","03","15:00","-27.8","","-31.4","","72","","","","23","","19","","24.1","","102.93","","","","-40","","NA"
"-115.14","67.82","KUGLUKTUK A","2300903","2018-03-03 16:00","2018","03","03","16:00","-27.8","","-31.4","","72","","","","23","","12","","24.1","","102.92","","","","-37","","NA"
"-115.14","67.82","KUGLUKTUK A","2300903","2018-03-03 17:00","2018","03","03","17:00","-25.5","","-28.6","","76","","","","34","","4","","24.1","","102.90","","","","-30","","Mostly Cloudy"
"-115.14","67.82","KUGLUKTUK A","2300903","2018-03-03 18:00","2018","03","03","18:00","-29.8","","-32.9","","75","","","","35","","4","","24.1","","102.87","","","","-34","","NA"
"-115.14","67.82","KUGLUKTUK A","2300903","2018-03-03 19:00","2018","03","03","19:00","-28.4","","-31.4","","76","","","","21","","4","","24.1","","102.85","","","","-33","","NA"
"-115.14","67.82","KUGLUKTUK A","2300903","2018-03-03 20:00","2018","03","03","20:00","-29.7","","-32.6","","76","","","","3","","3","","24.1","","102.82","","","","-33","","Clear"
"-115.14","67.82","KUGLUKTUK A","2300903","2018-03-03 21:00","2018","03","03","21:00","-30.1","","-33.0","","77","","","","18","","7","","24.1","","102.79","","","","-37","","NA"
"-115.14","67.82","KUGLUKTUK A","2300903","2018-03-03 22:00","2018","03","03","22:00","-28.7","","-31.5","","77","","","","36","","3","","24.1","","102.76","","","","-32","","NA"
"-115.14","67.82","KUGLUKTUK A","2300903","2018-03-03 23:00","2018","03","03","23:00","-28.4","","-31.1","","78","","","","22","","10","","24.1","","102.75","","","","-37","","Clear"
"-115.14","67.82","KUGLUKTUK A","2300903","2018-03-04 00:00","2018","03","04","00:00","-29.2","","-32.4","","75","","","","28","","4","","24.1","","102.72","","","","-34","","Ice Crystals"
"-115.14","67.82","KUGLUKTUK A","2300903","2018-03-04 01:00","2018","03","04","01:00","-31.9","","-35.1","","74","","","","36","","2","","24.1","","102.71","","","","-34","","NA"
"-115.14","67.82","KUGLUKTUK A","2300903","2018-03-04 02:00","2018","03","04","02:00","-27.5","","-30.3","","77","","","","22","","4","","24.1","","102.67","","","","-32","","Mostly Cloudy"
"-115.14","67.82","KUGLUKTUK A","2300903","2018-03-04 03:00","2018","03","04","03:00","-24.7","","-27.5","","78","","","","22","","10","","24.1","","102.65","","","","-33","","NA"
"-115.14","67.82","KUGLUKTUK A","2300903","2018-03-04 04:00","2018","03","04","04:00","-27.7","","-30.7","","76","","","","30","","4","","24.1","","102.67","","","","-32","","NA"
"-115.14","67.82","KUGLUKTUK A","2300903","2018-03-04 05:00","2018","03","04","05:00","-29.6","","-33.0","","73","","","","34","","5","","24.1","","102.65","","","","-35","","Mostly Cloudy"
"-115.14","67.82","KUGLUKTUK A","2300903","2018-03-04 06:00","2018","03","04","06:00","-26.1","","-29.0","","76","","","","21","","13","","24.1","","102.62","","","","-36","","NA"
"-115.14","67.82","KUGLUKTUK A","2300903","2018-03-04 07:00","2018","03","04","07:00","-25.6","","-28.5","","77","","","","22","","18","","24.1","","102.60","","","","-37","","NA"
"-115.14","67.82","KUGLUKTUK A","2300903","2018-03-04 08:00","2018","03","04","08:00","-23.8","","-26.9","","76","","","","22","","23","","24.1","","102.58","","","","-36","","Mostly Cloudy"
"-115.14","67.82","KUGLUKTUK A","2300903","2018-03-04 09:00","2018","03","04","09:00","-25.3","","-29.1","","71","","","","27","","5","","24.1","","102.59","","","","-30","","NA"
"-115.14","67.82","KUGLUKTUK A","2300903","2018-03-04 10:00","2018","03","04","10:00","-23.8","","-27.2","","74","","","","22","","22","","24.1","","102.56","","","","-36","","NA"
"-115.14","67.82","KUGLUKTUK A","2300903","2018-03-04 11:00","2018","03","04","11:00","-21.1","","-24.7","","73","","","","22","","17","","24.1","","102.54","","","","-31","","Mostly Cloudy"
"-115.14","67.82","KUGLUKTUK A","2300903","2018-03-04 12:00","2018","03","04","12:00","-19.1","","-22.9","","72","","","","23","","21","","24.1","","102.55","","","","-30","","NA"
"-115.14","67.82","KUGLUKTUK A","2300903","2018-03-04 13:00","2018","03","04","13:00","-17.2","","-20.8","","74","","","","23","","25","","24.1","","102.55","","","","-28","","Blowing Snow"
"-115.14","67.82","KUGLUKTUK A","2300903","2018-03-04 14:00","2018","03","04","14:00","-16.6","","-20.0","","75","","","","23","","17","","24.1","","102.55","","","","-25","","Mostly Cloudy"
"-115.14","67.82","KUGLUKTUK A","2300903","2018-03-04 15:00","2018","03","04","15:00","-16.5","","-19.8","","76","","","","23","","22","","24.1","","102.58","","","","-27","","NA"
"-115.14","67.82","KUGLUKTUK A","2300903","2018-03-04 16:00","2018","03","04","16:00","-16.3","","-19.5","","77","","","","22","","24","","24.1","","102.57","","","","-27","","NA"
"-115.14","67.82","KUGLUKTUK A","2300903","2018-03-04 17:00","2018","03","04","17:00","-16.9","","-19.9","","78","","","","21","","18","","24.1","","102.61","","","","-26","","Mostly Cloudy"
"-115.14","67.82","KUGLUKTUK A","2300903","2018-03-04 18:00","2018","03","04","18:00","-16.2","","-19.3","","77","","","","22","","25","","24.1","","102.60","","","","-27","","NA"
"-115.14","67.82","KUGLUKTUK A","2300903","2018-03-04 19:00","2018","03","04","19:00","-17.4","","-20.1","","79","","","","23","","19","","24.1","","102.66","","","","-27","","NA"
"-115.14","67.82","KUGLUKTUK A","2300903","2018-03-04 20:00","2018","03","04","20:00","-15.8","","-18.7","","79","","","","23","","25","","24.1","","102.70","","","","-26","","Mostly Cloudy"
"-115.14","67.82","KUGLUKTUK A","2300903","2018-03-04 21:00","2018","03","04","21:00","-16.2","","-19.0","","80","","","","24","","14","","24.1","","102.75","","","","-24","","NA"
"-115.14","67.82","KUGLUKTUK A","2300903","2018-03-04 22:00","2018","03","04","22:00","-17.3","","-19.6","","82","","","","21","","17","","24.1","","102.77","","","","-26","","NA"
"-115.14","67.82","KUGLUKTUK A","2300903","2018-03-04 23:00","2018","03","04","23:00","-17.6","","-19.9","","82","","","","24","","24","","24.1","","102.78","","","","-28","","Mainly Clear"
"-115.14","67.82","KUGLUKTUK A","2300903","2018-03-05 00:00","2018","03","05","00:00","-16.2","","-19.0","","79","","","","26","","14","","24.1","","102.82","","","","-24","","NA"
"-115.14","67.82","KUGLUKTUK A","2300903","2018-03-05 01:00","2018","03","05","01:00","-17.8","","-20.4","","80","","","","23","","13","","24.1","","102.83","","","","-26","","NA"
"-115.14","67.82","KUGLUKTUK A","2300903","2018-03-05 02:00","2018","03","05","02:00","-17.8","","-20.3","","81","","","","23","","14","","24.1","","102.87","","","","-26","","Mostly Cloudy"
"-115.14","67.82","KUGLUKTUK A","2300903","2018-03-05 03:00","2018","03","05","03:00","-19.3","","-21.6","","82","","","","33","","4","","24.1","","102.91","","","","-23","","NA"
"-115.14","67.82","KUGLUKTUK A","2300903","2018-03-05 04:00","2018","03","05","04:00","-18.5","","-21.2","","79","","","","17","","6","","24.1","","102.93","","","","-23","","NA"
"-115.14","67.82","KUGLUKTUK A","2300903","2018-03-05 05:00","2018","03","05","05:00","-18.8","","-21.1","","82","","","","22","","5","","24.1","","102.96","","","","-23","","Cloudy"
"-115.14","67.82","KUGLUKTUK A","2300903","2018-03-05 06:00","2018","03","05","06:00","-19.5","","-21.8","","82","","","","36","","3","","24.1","","102.98","","","","-22","","NA"
"-115.14","67.82","KUGLUKTUK A","2300903","2018-03-05 07:00","2018","03","05","07:00","-19.3","","-21.6","","82","","","","20","","6","","24.1","","102.96","","","","-24","","Snow"
"-115.14","67.82","KUGLUKTUK A","2300903","2018-03-05 08:00","2018","03","05","08:00","-17.9","","-20.4","","81","","","","26","","9","","24.1","","102.97","","","","-24","","Snow"
"-115.14","67.82","KUGLUKTUK A","2300903","2018-03-05 09:00","2018","03","05","09:00","-17.7","","-20.5","","79","","","","23","","13","","24.1","","102.99","","","","-26","","NA"
"-115.14","67.82","KUGLUKTUK A","2300903","2018-03-05 10:00","2018","03","05","10:00","-19.3","","-21.8","","81","","","","21","","14","","24.1","","102.98","","","","-28","","NA"
"-115.14","67.82","KUGLUKTUK A","2300903","2018-03-05 11:00","2018","03","05","11:00","-18.9","","-21.6","","80","","","","22","","17","","24.1","","102.99","","","","-28","","Mainly Clear"
"-115.14","67.82","KUGLUKTUK A","2300903","2018-03-05 12:00","2018","03","05","12:00","-18.8","","-21.7","","78","","","","21","","9","","24.1","","102.98","","","","-25","","NA"
"-115.14","67.82","KUGLUKTUK A","2300903","2018-03-05 13:00","2018","03","05","13:00","-18.1","","-21.5","","75","","","","31","","3","","24.1","","103.01","","","","-21","","NA"
"-115.14","67.82","KUGLUKTUK A","2300903","2018-03-05 14:00","2018","03","05","14:00","-17.4","","-20.5","","77","","","","24","","11","","24.1","","103.01","","","","-25","","Mainly Clear"
"-115.14","67.82","KUGLUKTUK A","2300903","2018-03-05 15:00","2018","03","05","15:00","-17.4","","-20.4","","78","","","","23","","18","","24.1","","103.00","","","","-27","","NA"
"-115.14","67.82","KUGLUKTUK A","2300903","2018-03-05 16:00","2018","03","05","16:00","-17.9","","-20.8","","78","","","","22","","13","","24.1","","102.99","","","","-26","","NA"
"-115.14","67.82","KUGLUKTUK A","2300903","2018-03-05 17:00","2018","03","05","17:00","-18.1","","-21.0","","78","","","","21","","19","","24.1","","102.99","","","","-28","","Mainly Clear"
"-115.14","67.82","KUGLUKTUK A","2300903","2018-03-05 18:00","2018","03","05","18:00","-19.5","","-22.1","","80","","","","27","","10","","24.1","","103.02","","","","-27","","NA"
"-115.14","67.82","KUGLUKTUK A","2300903","2018-03-05 19:00","2018","03","05","19:00","-19.5","","-22.1","","80","","","","22","","14","","24.1","","103.01","","","","-28","","NA"
"-115.14","67.82","KUGLUKTUK A","2300903","2018-03-05 20:00","2018","03","05","20:00","-20.2","","-22.6","","81","","","","23","","23","","24.1","","103.00","","","","-31","","Clear"
"-115.14","67.82","KUGLUKTUK A","2300903","2018-03-05 21:00","2018","03","05","21:00","-20.5","","-22.7","","83","","","","23","","16","","24.1","","103.02","","","","-30","","NA"
"-115.14","67.82","KUGLUKTUK A","2300903","2018-03-05 22:00","2018","03","05","22:00","-21.3","","-23.5","","83","","","","36","","3","","24.1","","103.03","","","","-24","","NA"
"-115.14","67.82","KUGLUKTUK A","2300903","2018-03-05 23:00","2018","03","05","23:00","-20.6","","-23.1","","81","","","","23","","21","","24.1","","103.01","","","","-31","","Clear"
"-115.14","67.82","KUGLUKTUK A","2300903","2018-03-06 00:00","2018","03","06","00:00","-20.1","","-22.5","","82","","","","23","","14","","24.1","","103.02","","","","-29","","NA"
"-115.14","67.82","KUGLUKTUK A","2300903","2018-03-06 01:00","2018","03","06","01:00","-21.4","","-23.6","","82","","","","23","","13","","24.1","","103.03","","","","-30","","NA"
"-115.14","67.82","KUGLUKTUK A","2300903","2018-03-06 02:00","2018","03","06","02:00","-21.7","","-23.7","","84","","","","24","","12","","24.1","","103.02","","","","-30","","Clear"
"-115.14","67.82","KUGLUKTUK A","2300903","2018-03-06 03:00","2018","03","06","03:00","-22.1","","-24.3","","83","","","","22","","15","","24.1","","103.01","","","","-32","","NA"
"-115.14","67.82","KUGLUKTUK A","2300903","2018-03-06 04:00","2018","03","06","04:00","-21.5","","-23.5","","84","","","","23","","10","","24.1","","103.01","","","","-29","","NA"
"-115.14","67.82","KUGLUKTUK A","2300903","2018-03-06 05:00","2018","03","06","05:00","-21.4","","-23.7","","82","","","","22","","13","","24.1","","103.02","","","","-30","","Clear"
"-115.14","67.82","KUGLUKTUK A","2300903","2018-03-06 06:00","2018","03","06","06:00","-23.0","","-25.2","","83","","","","22","","9","","24.1","","103.00","","","","-30","","NA"
"-115.14","67.82","KUGLUKTUK A","2300903","2018-03-06 07:00","2018","03","06","07:00","-24.7","","-26.9","","83","","","","36","","6","","24.1","","102.99","","","","-30","","NA"
"-115.14","67.82","KUGLUKTUK A","2300903","2018-03-06 08:00","2018","03","06","08:00","-24.5","","-26.8","","82","","","","11","","6","","24.1","","102.97","","","","-30","","Clear"
"-115.14","67.82","KUGLUKTUK A","2300903","2018-03-06 09:00","2018","03","06","09:00","-23.9","","-26.1","","82","","","","36","","3","","24.1","","102.95","","","","-27","","NA"
"-115.14","67.82","KUGLUKTUK A","2300903","2018-03-06 10:00","2018","03","06","10:00","-25.8","","-28.5","","79","","","","31","","3","","24.1","","102.93","","","","-29","","NA"
"-115.14","67.82","KUGLUKTUK A","2300903","2018-03-06 11:00","2018","03","06","11:00","-25.2","","-27.8","","79","","","","34","","6","","24.1","","102.90","","","","-31","","Clear"
"-115.14","67.82","KUGLUKTUK A","2300903","2018-03-06 12:00","2018","03","06","12:00","-24.5","","-27.0","","80","","","","30","","4","","24.1","","102.89","","","","-28","","NA"
"-115.14","67.82","KUGLUKTUK A","2300903","2018-03-06 13:00","2018","03","06","13:00","-24.0","","-26.7","","79","","","","36","","2","","24.1","","102.85","","","","-26","","NA"
"-115.14","67.82","KUGLUKTUK A","2300903","2018-03-06 14:00","2018","03","06","14:00","-24.1","","-26.7","","79","","","","36","","3","","24.1","","102.80","","","","-27","","Mainly Clear"
"-115.14","67.82","KUGLUKTUK A","2300903","2018-03-06 15:00","2018","03","06","15:00","-23.5","","-26.2","","79","","","","33","","3","","24.1","","102.77","","","","-26","","NA"
"-115.14","67.82","KUGLUKTUK A","2300903","2018-03-06 16:00","2018","03","06","16:00","-23.6","","-26.4","","79","","","","36","","3","","24.1","","102.74","","","","-26","","NA"
"-115.14","67.82","KUGLUKTUK A","2300903","2018-03-06 17:00","2018","03","06","17:00","-23.7","","-26.4","","79","","","","36","","2","","24.1","","102.71","","","","-26","","Mainly Clear"
"-115.14","67.82","KUGLUKTUK A","2300903","2018-03-06 18:00","2018","03","06","18:00","-24.0","","-26.5","","80","","","","36","","3","","24.1","","102.66","","","","-27","","NA"
"-115.14","67.82","KUGLUKTUK A","2300903","2018-03-06 19:00","2018","03","06","19:00","-25.3","","-27.8","","80","","","","31","","3","","24.1","","102.62","","","","-28","","NA"
"-115.14","67.82","KUGLUKTUK A","2300903","2018-03-06 20:00","2018","03","06","20:00","-25.2","","-27.8","","80","","","","36","","3","","24.1","","102.57","","","","-28","","Mainly Clear"
"-115.14","67.82","KUGLUKTUK A","2300903","2018-03-06 21:00","2018","03","06","21:00","-26.4","","-29.1","","78","","","","35","","5","","24.1","","102.53","","","","-32","","NA"
"-115.14","67.82","KUGLUKTUK A","2300903","2018-03-06 22:00","2018","03","06","22:00","-26.0","","-28.7","","78","","","","36","","2","","24.1","","102.49","","","","-28","","NA"
"-115.14","67.82","KUGLUKTUK A","2300903","2018-03-06 23:00","2018","03","06","23:00","-26.8","","-29.5","","78","","","","33","","5","","24.1","","102.47","","","","-32","","Clear"
"-115.14","67.82","KUGLUKTUK A","2300903","2018-03-07 00:00","2018","03","07","00:00","-26.9","","-29.6","","78","","","","30","","4","","24.1","","102.44","","","","-31","","NA"
"-115.14","67.82","KUGLUKTUK A","2300903","2018-03-07 01:00","2018","03","07","01:00","-26.5","","-29.3","","78","","","","36","","2","","24.1","","102.42","","","","-29","","NA"
"-115.14","67.82","KUGLUKTUK A","2300903","2018-03-07 02:00","2018","03","07","02:00","-27.6","","-30.5","","77","","","","36","","3","","24.1","","102.39","","","","-31","","Clear"
"-115.14","67.82","KUGLUKTUK A","2300903","2018-03-07 03:00","2018","03","07","03:00","-27.9","","-30.8","","77","","","","1","","3","","24.1","","102.35","","","","-31","","NA"
"-115.14","67.82","KUGLUKTUK A","2300903","2018-03-07 04:00","2018","03","07","04:00","-28.9","","-31.9","","76","","","","34","","5","","24.1","","102.30","","","","-34","","NA"
"-115.14","67.82","KUGLUKTUK A","2300903","2018-03-07 05:00","2018","03","07","05:00","-28.5","","-31.4","","77","","","","30","","7","","24.1","","102.29","","","","-36","","Mainly Clear"
"-115.14","67.82","KUGLUKTUK A","2300903","2018-03-07 06:00","2018","03","07","06:00","-29.1","","-32.0","","76","","","","34","","7","","24.1","","102.28","","","","-36","","NA"
"-115.14","67.82","KUGLUKTUK A","2300903","2018-03-07 07:00","2018","03","07","07:00","-28.3","","-31.3","","76","","","","33","","4","","24.1","","102.28","","","","-33","","NA"
"-115.14","67.82","KUGLUKTUK A","2300903","2018-03-07 08:00","2018","03","07","08:00","-28.3","","-31.2","","76","","","","31","","7","","24.1","","102.23","","","","-35","","Mostly Cloudy"
"-115.14","67.82","KUGLUKTUK A","2300903","2018-03-07 09:00","2018","03","07","09:00","-27.7","","-30.6","","77","","","","32","","4","","24.1","","102.20","","","","-32","","NA"
"-115.14","67.82","KUGLUKTUK A","2300903","2018-03-07 10:00","2018","03","07","10:00","-27.5","","-30.4","","77","","","","32","","6","","24.1","","102.17","","","","-34","","NA"
"-115.14","67.82","KUGLUKTUK A","2300903","2018-03-07 11:00","2018","03","07","11:00","-26.9","","-29.8","","77","","","","31","","8","","24.1","","102.15","","","","-34","","Mostly Cloudy"
"-115.14","67.82","KUGLUKTUK A","2300903","2018-03-07 12:00","2018","03","07","12:00","-26.0","","-28.8","","77","","","","36","","7","","24.1","","102.13","","","","-33","","NA"
"-115.14","67.82","KUGLUKTUK A","2300903","2018-03-07 13:00","2018","03","07","13:00","-25.1","","-27.9","","78","","","","1","","6","","24.1","","102.13","","","","-31","","NA"
"-115.14","67.82","KUGLUKTUK A","2300903","2018-03-07 14:00","2018","03","07","14:00","-24.9","","-27.7","","78","","","","36","","1","","24.1","","102.11","","","","-26","","Mostly Cloudy"
"-115.14","67.82","KUGLUKTUK A","2300903","2018-03-07 15:00","2018","03","07","15:00","-24.3","","-27.0","","78","","","","6","","4","","24.1","","102.08","","","","-28","","NA"
"-115.14","67.82","KUGLUKTUK A","2300903","2018-03-07 16:00","2018","03","07","16:00","-24.9","","-27.8","","78","","","","36","","1","","24.1","","102.05","","","","-26","","NA"
"-115.14","67.82","KUGLUKTUK A","2300903","2018-03-07 17:00","2018","03","07","17:00","-25.7","","-28.5","","77","","","","16","","3","","24.1","","102.01","","","","-29","","Cloudy"
"-115.14","67.82","KUGLUKTUK A","2300903","2018-03-07 18:00","2018","03","07","18:00","-25.1","","-27.9","","78","","","","36","","1","","24.1","","102.00","","","","-26","","NA"
"-115.14","67.82","KUGLUKTUK A","2300903","2018-03-07 19:00","2018","03","07","19:00","-25.4","","-28.1","","78","","","","36","","3","","24.1","","101.97","","","","-28","","NA"
"-115.14","67.82","KUGLUKTUK A","2300903","2018-03-07 20:00","2018","03","07","20:00","-26.3","","-29.1","","77","","","","15","","3","","24.1","","101.90","","","","-29","","Mostly Cloudy"
"-115.14","67.82","KUGLUKTUK A","2300903","2018-03-07 21:00","2018","03","07","21:00","-25.1","","-27.8","","78","","","","24","","3","","8.1","","101.87","","","","-28","","Snow"
"-115.14","67.82","KUGLUKTUK A","2300903","2018-03-07 22:00","2018","03","07","22:00","-25.5","","-28.3","","78","","","","36","","1","","8.1","","101.82","","","","-27","","Ice Crystals"
"-115.14","67.82","KUGLUKTUK A","2300903","2018-03-07 23:00","2018","03","07","23:00","-25.6","","-28.3","","78","","","","30","","5","","8.1","","101.78","","","","-31","","Ice Crystals"
"-115.14","67.82","KUGLUKTUK A","2300903","2018-03-08 00:00","2018","03","08","00:00","-25.6","","-28.4","","78","","","","15","","3","","6.4","","101.76","","","","-29","","Ice Crystals"
"-115.14","67.82","KUGLUKTUK A","2300903","2018-03-08 01:00","2018","03","08","01:00","-25.0","","-27.7","","79","","","","36","","2","","12.9","","101.74","","","","-27","","Ice Crystals"
"-115.14","67.82","KUGLUKTUK A","2300903","2018-03-08 02:00","2018","03","08","02:00","-25.4","","-28.2","","78","","","","36","","2","","12.9","","101.71","","","","-27","","Ice Crystals"
"-115.14","67.82","KUGLUKTUK A","2300903","2018-03-08 03:00","2018","03","08","03:00","-25.5","","-28.2","","78","","","","36","","2","","9.7","","101.67","","","","-28","","Ice Crystals"
"-115.14","67.82","KUGLUKTUK A","2300903","2018-03-08 04:00","2018","03","08","04:00","-25.3","","-28.0","","78","","","","36","","2","","12.9","","101.63","","","","-27","","Ice Crystals"
"-115.14","67.82","KUGLUKTUK A","2300903","2018-03-08 05:00","2018","03","08","05:00","-26.2","","-28.9","","78","","","","30","","4","","16.1","","101.60","","","","-30","","Ice Crystals"
"-115.14","67.82","KUGLUKTUK A","2300903","2018-03-08 06:00","2018","03","08","06:00","-26.6","","-29.4","","78","","","","36","","2","","24.1","","101.55","","","","-29","","Ice Crystals"
"-115.14","67.82","KUGLUKTUK A","2300903","2018-03-08 07:00","2018","03","08","07:00","-27.8","","-30.7","","77","","","","20","","6","","24.1","","101.51","","","","-34","","NA"
"-115.14","67.82","KUGLUKTUK A","2300903","2018-03-08 08:00","2018","03","08","08:00","-28.2","","-31.1","","77","","","","30","","5","","24.1","","101.47","","","","-34","","Mainly Clear"
"-115.14","67.82","KUGLUKTUK A","2300903","2018-03-08 09:00","2018","03","08","09:00","-28.2","","-31.1","","76","","","","31","","4","","24.1","","101.43","","","","-33","","NA"
"-115.14","67.82","KUGLUKTUK A","2300903","2018-03-08 10:00","2018","03","08","10:00","-28.9","","-31.9","","76","","","","18","","7","","19.3","","101.39","","","","-36","","Ice Crystals"
"-115.14","67.82","KUGLUKTUK A","2300903","2018-03-08 11:00","2018","03","08","11:00","-27.1","","-29.9","","77","","","","21","","7","","19.3","","101.34","","","","-34","","Ice Crystals"
"-115.14","67.82","KUGLUKTUK A","2300903","2018-03-08 12:00","2018","03","08","12:00","-25.4","","-28.2","","78","","","","33","","4","","19.3","","101.31","","","","-29","","Ice Crystals"
"-115.14","67.82","KUGLUKTUK A","2300903","2018-03-08 13:00","2018","03","08","13:00","-25.0","","-27.8","","78","","","","36","","3","","16.1","","101.28","","","","-28","","Ice Crystals"
"-115.14","67.82","KUGLUKTUK A","2300903","2018-03-08 14:00","2018","03","08","14:00","-24.1","","-26.8","","79","","","","36","","2","","16.1","","101.24","","","","-26","","Ice Crystals"
"-115.14","67.82","KUGLUKTUK A","2300903","2018-03-08 15:00","2018","03","08","15:00","-23.6","","-26.2","","80","","","","10","","4","","19.3","","101.21","","","","-27","","Ice Crystals"
"-115.14","67.82","KUGLUKTUK A","2300903","2018-03-08 16:00","2018","03","08","16:00","-23.4","","-26.0","","80","","","","14","","3","","16.1","","101.16","","","","-26","","Ice Crystals"
"-115.14","67.82","KUGLUKTUK A","2300903","2018-03-08 17:00","2018","03","08","17:00","-22.2","","-24.7","","81","","","","6","","6","","9.7","","101.13","","","","-28","","Ice Crystals"
"-115.14","67.82","KUGLUKTUK A","2300903","2018-03-08 18:00","2018","03","08","18:00","-23.0","","-25.6","","80","","","","7","","5","","9.7","","101.10","","","","-28","","Ice Crystals"
"-115.14","67.82","KUGLUKTUK A","2300903","2018-03-08 19:00","2018","03","08","19:00","-22.8","","-25.3","","80","","","","6","","11","","9.7","","101.06","","","","-31","","Ice Crystals"
"-115.14","67.82","KUGLUKTUK A","2300903","2018-03-08 20:00","2018","03","08","20:00","-23.1","","-25.7","","80","","","","5","","10","","8.1","","101.03","","","","-31","","Ice Crystals"
"-115.14","67.82","KUGLUKTUK A","2300903","2018-03-08 21:00","2018","03","08","21:00","-23.5","","-26.1","","80","","","","5","","14","","9.7","","100.98","","","","-33","","Ice Crystals"
"-115.14","67.82","KUGLUKTUK A","2300903","2018-03-08 22:00","2018","03","08","22:00","-23.6","","-26.2","","80","","","","5","","11","","9.7","","100.95","","","","-32","","Ice Crystals"
"-115.14","67.82","KUGLUKTUK A","2300903","2018-03-08 23:00","2018","03","08","23:00","-23.6","","-26.2","","80","","","","6","","13","","9.7","","100.94","","","","-33","","Ice Crystals"
"-115.14","67.82","KUGLUKTUK A","2300903","2018-03-09 00:00","2018","03","09","00:00","-23.9","","-26.5","","79","","","","5","","10","","12.9","","100.92","","","","-32","","Ice Crystals"
"-115.14","67.82","KUGLUKTUK A","2300903","2018-03-09 01:00","2018","03","09","01:00","-24.0","","-26.6","","79","","","","7","","11","","16.1","","100.90","","","","-32","","Ice Crystals"
"-115.14","67.82","KUGLUKTUK A","2300903","2018-03-09 02:00","2018","03","09","02:00","-23.9","","-26.6","","79","","","","6","","12","","12.9","","100.88","","","","-33","","Ice Crystals"
"-115.14","67.82","KUGLUKTUK A","2300903","2018-03-09 03:00","2018","03","09","03:00","-23.6","","-26.2","","80","","","","6","","9","","12.9","","100.87","","","","-31","","Snow"
"-115.14","67.82","KUGLUKTUK A","2300903","2018-03-09 04:00","2018","03","09","04:00","-23.8","","-26.4","","79","","","","6","","10","","16.1","","100.86","","","","-32","","Snow"
"-115.14","67.82","KUGLUKTUK A","2300903","2018-03-09 05:00","2018","03","09","05:00","-24.0","","-26.7","","79","","","","6","","12","","16.1","","100.84","","","","-33","","Snow"
"-115.14","67.82","KUGLUKTUK A","2300903","2018-03-09 06:00","2018","03","09","06:00","-24.1","","-26.7","","79","","","","5","","12","","12.9","","100.83","","","","-33","","Snow"
"-115.14","67.82","KUGLUKTUK A","2300903","2018-03-09 07:00","2018","03","09","07:00","-24.2","","-26.8","","79","","","","5","","11","","12.9","","100.81","","","","-33","","Snow"
"-115.14","67.82","KUGLUKTUK A","2300903","2018-03-09 08:00","2018","03","09","08:00","-24.1","","-26.8","","79","","","","5","","11","","12.9","","100.81","","","","-33","","Snow"
"-115.14","67.82","KUGLUKTUK A","2300903","2018-03-09 09:00","2018","03","09","09:00","-24.0","","-26.7","","79","","","","7","","12","","12.9","","100.81","","","","-33","","Snow"
"-115.14","67.82","KUGLUKTUK A","2300903","2018-03-09 10:00","2018","03","09","10:00","-23.8","","-26.5","","79","","","","5","","12","","12.9","","100.80","","","","-33","","Snow"
"-115.14","67.82","KUGLUKTUK A","2300903","2018-03-09 11:00","2018","03","09","11:00","-23.8","","-26.5","","79","","","","5","","10","","12.9","","100.81","","","","-32","","Snow"
"-115.14","67.82","KUGLUKTUK A","2300903","2018-03-09 12:00","2018","03","09","12:00","-23.6","","-26.3","","79","","","","5","","10","","12.9","","100.82","","","","-32","","Snow"
"-115.14","67.82","KUGLUKTUK A","2300903","2018-03-09 13:00","2018","03","09","13:00","-23.4","","-26.0","","79","","","","7","","10","","16.1","","100.81","","","","-31","","Snow"
"-115.14","67.82","KUGLUKTUK A","2300903","2018-03-09 14:00","2018","03","09","14:00","-23.2","","-25.9","","79","","","","7","","10","","19.3","","100.81","","","","-31","","Snow"
"-115.14","67.82","KUGLUKTUK A","2300903","2018-03-09 15:00","2018","03","09","15:00","-23.0","","-25.6","","79","","","","7","","11","","24.1","","100.78","","","","-31","","Snow"
"-115.14","67.82","KUGLUKTUK A","2300903","2018-03-09 16:00","2018","03","09","16:00","-23.6","","-26.2","","79","","","","6","","13","","24.1","","100.78","","","","-33","","Ice Crystals"
"-115.14","67.82","KUGLUKTUK A","2300903","2018-03-09 17:00","2018","03","09","17:00","-24.1","","-26.8","","79","","","","7","","12","","24.1","","100.76","","","","-33","","Mainly Clear"
"-115.14","67.82","KUGLUKTUK A","2300903","2018-03-09 18:00","2018","03","09","18:00","-25.0","","-27.7","","79","","","","7","","11","","24.1","","100.78","","","","-34","","NA"
"-115.14","67.82","KUGLUKTUK A","2300903","2018-03-09 19:00","2018","03","09","19:00","-25.6","","-28.3","","78","","","","6","","12","","24.1","","100.78","","","","-35","","NA"
"-115.14","67.82","KUGLUKTUK A","2300903","2018-03-09 20:00","2018","03","09","20:00","-26.1","","-28.9","","78","","","","7","","15","","24.1","","100.75","","","","-37","","Ice Crystals"
"-115.14","67.82","KUGLUKTUK A","2300903","2018-03-09 21:00","2018","03","09","21:00","-26.5","","-29.3","","78","","","","7","","14","","24.1","","100.74","","","","-37","","Ice Crystals"
"-115.14","67.82","KUGLUKTUK A","2300903","2018-03-09 22:00","2018","03","09","22:00","-28.0","","-30.9","","77","","","","5","","12","","19.3","","100.72","","","","-38","","Ice Crystals"
"-115.14","67.82","KUGLUKTUK A","2300903","2018-03-09 23:00","2018","03","09","23:00","-28.6","","-31.6","","76","","","","4","","9","","19.3","","100.73","","","","-37","","Ice Crystals"
"-115.14","67.82","KUGLUKTUK A","2300903","2018-03-10 00:00","2018","03","10","00:00","-27.7","","-30.6","","77","","","","5","","13","","19.3","","100.71","","","","-38","","Ice Crystals"
"-115.14","67.82","KUGLUKTUK A","2300903","2018-03-10 01:00","2018","03","10","01:00","-27.6","","-30.5","","77","","","","4","","13","","6.4","","100.71","","","","-38","","Ice Crystals"
"-115.14","67.82","KUGLUKTUK A","2300903","2018-03-10 02:00","2018","03","10","02:00","-27.9","","-30.8","","76","","","","4","","17","","9.7","","100.69","","","","-40","","Ice Crystals"
"-115.14","67.82","KUGLUKTUK A","2300903","2018-03-10 03:00","2018","03","10","03:00","-28.4","","-31.4","","76","","","","3","","19","","9.7","","100.70","","","","-41","","Ice Crystals"
"-115.14","67.82","KUGLUKTUK A","2300903","2018-03-10 04:00","2018","03","10","04:00","-29.1","","-32.1","","75","","","","2","","19","","9.7","","100.72","","","","-42","","Ice Crystals"
"-115.14","67.82","KUGLUKTUK A","2300903","2018-03-10 05:00","2018","03","10","05:00","-30.1","","-33.2","","75","","","","3","","15","","9.7","","100.74","","","","-42","","Ice Crystals"
"-115.14","67.82","KUGLUKTUK A","2300903","2018-03-10 06:00","2018","03","10","06:00","-29.6","","-32.7","","75","","","","4","","16","","12.9","","100.77","","","","-41","","Ice Crystals"
"-115.14","67.82","KUGLUKTUK A","2300903","2018-03-10 07:00","2018","03","10","07:00","-29.2","","-32.3","","76","","","","3","","14","","6.4","","100.79","","","","-40","","Ice Crystals"
"-115.14","67.82","KUGLUKTUK A","2300903","2018-03-10 08:00","2018","03","10","08:00","-28.9","","-32.0","","76","","","","4","","12","","8.1","","100.80","","","","-39","","Snow"
"-115.14","67.82","KUGLUKTUK A","2300903","2018-03-10 09:00","2018","03","10","09:00","-28.7","","-31.8","","76","","","","4","","9","","4.8","","100.82","","","","-37","","Snow"
"-115.14","67.82","KUGLUKTUK A","2300903","2018-03-10 10:00","2018","03","10","10:00","-28.5","","-31.6","","76","","","","3","","10","","4.8","","100.82","","","","-37","","Snow"
"-115.14","67.82","KUGLUKTUK A","2300903","2018-03-10 11:00","2018","03","10","11:00","-28.1","","-31.1","","76","","","","2","","11","","9.7","","100.86","","","","-37","","Snow"
"-115.14","67.82","KUGLUKTUK A","2300903","2018-03-10 12:00","2018","03","10","12:00","-27.2","","-30.3","","76","","","","3","","13","","4.8","","100.92","","","","-37","","Snow"
"-115.14","67.82","KUGLUKTUK A","2300903","2018-03-10 13:00","2018","03","10","13:00","-26.9","","-29.9","","76","","","","2","","14","","8.1","","100.98","","","","-37","","Snow"
"-115.14","67.82","KUGLUKTUK A","2300903","2018-03-10 14:00","2018","03","10","14:00","-26.6","","-29.6","","76","","","","35","","15","","24.1","","101.05","","","","-37","","Ice Crystals"
"-115.14","67.82","KUGLUKTUK A","2300903","2018-03-10 15:00","2018","03","10","15:00","-26.3","","-29.3","","77","","","","35","","15","","24.1","","101.14","","","","-37","","Ice Crystals"
"-115.14","67.82","KUGLUKTUK A","2300903","2018-03-10 16:00","2018","03","10","16:00","-26.3","","-29.3","","76","","","","35","","15","","24.1","","101.21","","","","-37","","Ice Crystals"
"-115.14","67.82","KUGLUKTUK A","2300903","2018-03-10 17:00","2018","03","10","17:00","-26.5","","-29.5","","76","","","","34","","11","","24.1","","101.28","","","","-35","","Ice Crystals"
"-115.14","67.82","KUGLUKTUK A","2300903","2018-03-10 18:00","2018","03","10","18:00","-27.0","","-30.0","","76","","","","26","","14","","24.1","","101.36","","","","-37","","Ice Crystals"
"-115.14","67.82","KUGLUKTUK A","2300903","2018-03-10 19:00","2018","03","10","19:00","-28.0","","-31.1","","75","","","","25","","14","","24.1","","101.42","","","","-39","","Ice Crystals"
"-115.14","67.82","KUGLUKTUK A","2300903","2018-03-10 20:00","2018","03","10","20:00","-27.9","","-31.1","","75","","","","24","","16","","24.1","","101.50","","","","-39","","Ice Crystals"
"-115.14","67.82","KUGLUKTUK A","2300903","2018-03-10 21:00","2018","03","10","21:00","-27.0","","-30.1","","76","","","","23","","9","","16.1","","101.53","","","","-35","","Snow"
"-115.14","67.82","KUGLUKTUK A","2300903","2018-03-10 22:00","2018","03","10","22:00","-26.5","","-29.5","","76","","","","24","","8","","16.1","","101.58","","","","-34","","Snow"
"-115.14","67.82","KUGLUKTUK A","2300903","2018-03-10 23:00","2018","03","10","23:00","-26.7","","-29.7","","76","","","","30","","4","","19.3","","101.61","","","","-31","","Snow"
"-115.14","67.82","KUGLUKTUK A","2300903","2018-03-11 00:00","2018","03","11","00:00","-26.6","","-29.6","","76","","","","36","","2","","16.1","","101.66","","","","-29","","Snow"
"-115.14","67.82","KUGLUKTUK A","2300903","2018-03-11 01:00","2018","03","11","01:00","-26.2","","-29.3","","76","","","","23","","8","","19.3","","101.72","","","","-34","","Snow"
"-115.14","67.82","KUGLUKTUK A","2300903","2018-03-11 02:00","2018","03","11","02:00","-25.9","","-29.0","","76","","","","30","","3","","19.3","","101.77","","","","-29","","Snow"
"-115.14","67.82","KUGLUKTUK A","2300903","2018-03-11 03:00","2018","03","11","03:00","-26.9","","-29.9","","76","","","","36","","1","","24.1","","101.82","","","","-28","","Ice Crystals"
"-115.14","67.82","KUGLUKTUK A","2300903","2018-03-11 04:00","2018","03","11","04:00","-26.8","","-29.8","","76","","","","2","","6","","24.1","","101.91","","","","-33","","Ice Crystals"
"-115.14","67.82","KUGLUKTUK A","2300903","2018-03-11 05:00","2018","03","11","05:00","-26.6","","-29.7","","76","","","","4","","5","","19.3","","101.94","","","","-32","","Snow"
"-115.14","67.82","KUGLUKTUK A","2300903","2018-03-11 06:00","2018","03","11","06:00","-26.3","","-29.2","","76","","","","14","","5","","19.3","","101.97","","","","-31","","Snow"
"-115.14","67.82","KUGLUKTUK A","2300903","2018-03-11 07:00","2018","03","11","07:00","-26.0","","-29.1","","76","","","","36","","3","","16.1","","102.01","","","","-29","","Snow"
"-115.14","67.82","KUGLUKTUK A","2300903","2018-03-11 08:00","2018","03","11","08:00","-25.6","","-28.8","","75","","","","6","","5","","12.9","","102.05","","","","-31","","Snow"
"-115.14","67.82","KUGLUKTUK A","2300903","2018-03-11 09:00","2018","03","11","09:00","-25.2","","-28.4","","75","","","","8","","7","","9.7","","102.09","","","","-32","","Snow"
"-115.14","67.82","KUGLUKTUK A","2300903","2018-03-11 10:00","2018","03","11","10:00","-25.1","","-28.4","","74","","","","9","","6","","9.7","","102.16","","","","-31","","Snow"
"-115.14","67.82","KUGLUKTUK A","2300903","2018-03-11 11:00","2018","03","11","11:00","-24.7","","-28.1","","74","","","","10","","4","","16.1","","102.21","","","","-29","","Snow"
"-115.14","67.82","KUGLUKTUK A","2300903","2018-03-11 12:00","2018","03","11","12:00","-24.2","","-27.9","","72","","","","8","","4","","12.9","","102.25","","","","-28","","Snow"
"-115.14","67.82","KUGLUKTUK A","2300903","2018-03-11 13:00","2018","03","11","13:00","-23.8","","-27.5","","72","","","","6","","5","","16.1","","102.31","","","","-29","","Snow"
"-115.14","67.82","KUGLUKTUK A","2300903","2018-03-11 14:00","2018","03","11","14:00","-23.6","","-27.4","","72","","","","9","","4","","24.1","","102.36","","","","-27","","Snow"
"-115.14","67.82","KUGLUKTUK A","2300903","2018-03-11 15:00","2018","03","11","15:00","-24.0","","-27.6","","73","","","","9","","7","","24.1","","102.38","","","","-30","","Ice Crystals"
"-115.14","67.82","KUGLUKTUK A","2300903","2018-03-11 16:00","2018","03","11","16:00","-24.4","","-28.0","","73","","","","7","","7","","24.1","","102.41","","","","-31","","Ice Crystals"
"-115.14","67.82","KUGLUKTUK A","2300903","2018-03-11 17:00","2018","03","11","17:00","-25.3","","-28.6","","75","","","","10","","13","","24.1","","102.41","","","","-35","","Clear"
"-115.14","67.82","KUGLUKTUK A","2300903","2018-03-11 18:00","2018","03","11","18:00","-26.1","","-29.3","","75","","","","9","","11","","24.1","","102.39","","","","-35","","NA"
"-115.14","67.82","KUGLUKTUK A","2300903","2018-03-11 19:00","2018","03","11","19:00","-27.3","","-30.1","","78","","","","8","","15","","24.1","","102.37","","","","-38","","NA"
"-115.14","67.82","KUGLUKTUK A","2300903","2018-03-11 20:00","2018","03","11","20:00","-28.4","","-31.3","","77","","","","1","","3","","24.1","","102.38","","","","-32","","Clear"
"-115.14","67.82","KUGLUKTUK A","2300903","2018-03-11 21:00","2018","03","11","21:00","-29.6","","-32.6","","76","","","","1","","4","","24.1","","102.39","","","","-34","","Ice Crystals"
"-115.14","67.82","KUGLUKTUK A","2300903","2018-03-11 22:00","2018","03","11","22:00","-29.5","","-32.5","","76","","","","2","","10","","24.1","","102.32","","","","-39","","Ice Crystals"
"-115.14","67.82","KUGLUKTUK A","2300903","2018-03-11 23:00","2018","03","11","23:00","-29.1","","-32.0","","77","","","","3","","15","","24.1","","102.32","","","","-40","","Ice Crystals"
"-115.14","67.82","KUGLUKTUK A","2300903","2018-03-12 00:00","2018","03","12","00:00","-29.0","","-31.9","","76","","","","4","","9","","24.1","","102.28","","","","-37","","Ice Crystals"
"-115.14","67.82","KUGLUKTUK A","2300903","2018-03-12 01:00","2018","03","12","01:00","-29.0","","-31.9","","76","","","","5","","9","","19.3","","102.21","","","","-37","","Ice Crystals"
"-115.14","67.82","KUGLUKTUK A","2300903","2018-03-12 02:00","2018","03","12","02:00","-29.4","","-32.4","","76","","","","3","","11","","24.1","","102.16","","","","-39","","Ice Crystals"
"-115.14","67.82","KUGLUKTUK A","2300903","2018-03-12 03:00","2018","03","12","03:00","-29.3","","-32.3","","76","","","","4","","7","","19.3","","102.12","","","","-36","","Ice Crystals"
"-115.14","67.82","KUGLUKTUK A","2300903","2018-03-12 04:00","2018","03","12","04:00","-29.1","","-32.1","","76","","","","3","","9","","19.3","","102.04","","","","-38","","Ice Crystals"
"-115.14","67.82","KUGLUKTUK A","2300903","2018-03-12 05:00","2018","03","12","05:00","-28.5","","-31.5","","76","","","","6","","12","","19.3","","101.90","","","","-38","","Ice Crystals"
"-115.14","67.82","KUGLUKTUK A","2300903","2018-03-12 06:00","2018","03","12","06:00","-27.8","","-30.8","","76","","","","5","","15","","16.1","","101.76","","","","-39","","Ice Crystals"
"-115.14","67.82","KUGLUKTUK A","2300903","2018-03-12 07:00","2018","03","12","07:00","-26.9","","-29.8","","77","","","","7","","17","","12.9","","101.59","","","","-38","","Ice Crystals"
"-115.14","67.82","KUGLUKTUK A","2300903","2018-03-12 08:00","2018","03","12","08:00","-25.3","","-28.1","","78","","","","5","","21","","8.1","","101.47","","","","-37","","Ice Crystals"
"-115.14","67.82","KUGLUKTUK A","2300903","2018-03-12 09:00","2018","03","12","09:00","-23.7","","-26.4","","79","","","","4","","18","","3.2","","101.46","","","","-35","","Ice Crystals"
"-115.14","67.82","KUGLUKTUK A","2300903","2018-03-12 10:00","2018","03","12","10:00","-22.6","","-25.2","","80","","","","6","","21","","1.6","","101.33","","","","-34","","Snow"
"-115.14","67.82","KUGLUKTUK A","2300903","2018-03-12 11:00","2018","03","12","11:00","-20.9","","-23.5","","80","","","","6","","18","","2.4","","101.15","","","","-31","","Snow,Blowing Snow"
"-115.14","67.82","KUGLUKTUK A","2300903","2018-03-12 12:00","2018","03","12","12:00","-19.9","","-22.6","","80","","","","5","","21","","0.8","","100.97","","","","-31","","Snow,Blowing Snow"
"-115.14","67.82","KUGLUKTUK A","2300903","2018-03-12 13:00","2018","03","12","13:00","-20.2","","-22.9","","79","","","","7","","25","","0.4","","101.01","","","","-32","","Moderate Snow,Blowing Snow"
"-115.14","67.82","KUGLUKTUK A","2300903","2018-03-12 14:00","2018","03","12","14:00","-19.9","","-22.6","","79","","","","3","","15","","2.4","","101.02","","","","-29","","Snow"
"-115.14","67.82","KUGLUKTUK A","2300903","2018-03-12 15:00","2018","03","12","15:00","-19.6","","-22.4","","79","","","","4","","21","","4.0","","101.06","","","","-30","","Snow"
"-115.14","67.82","KUGLUKTUK A","2300903","2018-03-12 16:00","2018","03","12","16:00","-19.8","","-22.6","","79","","","","3","","22","","6.4","","101.07","","","","-31","","Snow,Blowing Snow"
"-115.14","67.82","KUGLUKTUK A","2300903","2018-03-12 17:00","2018","03","12","17:00","-19.7","","-22.4","","80","","","","1","","19","","4.8","","101.17","","","","-30","","Snow"
"-115.14","67.82","KUGLUKTUK A","2300903","2018-03-12 18:00","2018","03","12","18:00","-19.8","","-22.5","","80","","","","3","","21","","4.8","","101.15","","","","-30","","Snow"
"-115.14","67.82","KUGLUKTUK A","2300903","2018-03-12 19:00","2018","03","12","19:00","-19.6","","-22.1","","81","","","","1","","19","","4.8","","101.30","","","","-30","","Snow"
"-115.14","67.82","KUGLUKTUK A","2300903","2018-03-12 20:00","2018","03","12","20:00","-20.5","","-22.9","","81","","","","2","","25","","3.2","","101.37","","","","-32","","Snow,Blowing Snow"
"-115.14","67.82","KUGLUKTUK A","2300903","2018-03-12 21:00","2018","03","12","21:00","-21.3","","-24.0","","80","","","","2","","21","","6.4","","101.46","","","","-32","","Snow"
"-115.14","67.82","KUGLUKTUK A","2300903","2018-03-12 22:00","2018","03","12","22:00","-21.7","","-24.3","","80","","","","2","","19","","6.4","","101.52","","","","-32","","Snow"
"-115.14","67.82","KUGLUKTUK A","2300903","2018-03-12 23:00","2018","03","12","23:00","-22.5","","-25.1","","80","","","","3","","16","","12.9","","101.63","","","","-32","","Ice Crystals"
"-115.14","67.82","KUGLUKTUK A","2300903","2018-03-13 00:00","2018","03","13","00:00","-22.1","","-25.0","","77","","","","3","","13","","19.3","","101.74","","","","-31","","Ice Crystals"
"-115.14","67.82","KUGLUKTUK A","2300903","2018-03-13 01:00","2018","03","13","01:00","-22.1","","-25.1","","77","","","","4","","14","","12.9","","101.80","","","","-31","","Snow"
"-115.14","67.82","KUGLUKTUK A","2300903","2018-03-13 02:00","2018","03","13","02:00","-22.6","","-25.4","","78","","","","4","","12","","19.3","","101.89","","","","-31","","Snow"
"-115.14","67.82","KUGLUKTUK A","2300903","2018-03-13 03:00","2018","03","13","03:00","-23.4","","-26.0","","79","","","","5","","12","","19.3","","101.97","","","","-32","","Snow"
"-115.14","67.82","KUGLUKTUK A","2300903","2018-03-13 04:00","2018","03","13","04:00","-24.8","","-27.4","","79","","","","5","","17","","19.3","","102.05","","","","-36","","Snow"
"-115.14","67.82","KUGLUKTUK A","2300903","2018-03-13 05:00","2018","03","13","05:00","-25.3","","-28.0","","79","","","","5","","15","","19.3","","102.12","","","","-36","","Snow"
"-115.14","67.82","KUGLUKTUK A","2300903","2018-03-13 06:00","2018","03","13","06:00","-25.7","","-28.5","","78","","","","7","","19","","16.1","","102.13","","","","-37","","Snow,Blowing Snow"
"-115.14","67.82","KUGLUKTUK A","2300903","2018-03-13 07:00","2018","03","13","07:00","-24.7","","-27.5","","78","","","","7","","8","","12.9","","102.26","","","","-32","","Snow"
"-115.14","67.82","KUGLUKTUK A","2300903","2018-03-13 08:00","2018","03","13","08:00","-24.8","","-27.7","","77","","","","7","","14","","19.3","","102.23","","","","-35","","Snow"
"-115.14","67.82","KUGLUKTUK A","2300903","2018-03-13 09:00","2018","03","13","09:00","-25.4","","-28.4","","76","","","","6","","7","","24.1","","102.26","","","","-32","","Ice Crystals"
"-115.14","67.82","KUGLUKTUK A","2300903","2018-03-13 10:00","2018","03","13","10:00","-25.7","","-28.8","","76","","","","5","","8","","24.1","","102.25","","","","-33","","Ice Crystals"
"-115.14","67.82","KUGLUKTUK A","2300903","2018-03-13 11:00","2018","03","13","11:00","-24.9","","-28.0","","76","","","","6","","8","","24.1","","102.27","","","","-32","","Ice Crystals"
"-115.14","67.82","KUGLUKTUK A","2300903","2018-03-13 12:00","2018","03","13","12:00","-23.8","","-26.9","","76","","","","8","","12","","24.1","","102.22","","","","-33","","Snow"
"-115.14","67.82","KUGLUKTUK A","2300903","2018-03-13 13:00","2018","03","13","13:00","-23.2","","-26.4","","75","","","","9","","10","","24.1","","102.18","","","","-31","","NA"
"-115.14","67.82","KUGLUKTUK A","2300903","2018-03-13 14:00","2018","03","13","14:00","-22.5","","-25.7","","76","","","","6","","13","","19.3","","102.11","","","","-31","","Mostly Cloudy"
"-115.14","67.82","KUGLUKTUK A","2300903","2018-03-13 15:00","2018","03","13","15:00","-21.7","","-24.6","","78","","","","6","","12","","19.3","","102.03","","","","-30","","Snow"
"-115.14","67.82","KUGLUKTUK A","2300903","2018-03-13 16:00","2018","03","13","16:00","-20.5","","-23.4","","78","","","","4","","8","","12.9","","101.95","","","","-27","","Snow"
"-115.14","67.82","KUGLUKTUK A","2300903","2018-03-13 17:00","2018","03","13","17:00","-18.9","","-21.7","","79","","","","36","","8","","16.1","","101.88","","","","-25","","Snow"
"-115.14","67.82","KUGLUKTUK A","2300903","2018-03-13 18:00","2018","03","13","18:00","-18.6","","-21.1","","81","","","","36","","8","","24.1","","101.78","","","","-25","","Snow"
"-115.14","67.82","KUGLUKTUK A","2300903","2018-03-13 19:00","2018","03","13","19:00","-18.5","","-20.8","","82","","","","36","","11","","24.1","","101.71","","","","-26","","Snow"
"-115.14","67.82","KUGLUKTUK A","2300903","2018-03-13 20:00","2018","03","13","20:00","-18.7","","-21.0","","82","","","","34","","11","","24.1","","101.66","","","","-26","","Snow"
"-115.14","67.82","KUGLUKTUK A","2300903","2018-03-13 21:00","2018","03","13","21:00","-18.8","","-21.1","","82","","","","34","","9","","24.1","","101.62","","","","-25","","Snow"
"-115.14","67.82","KUGLUKTUK A","2300903","2018-03-13 22:00","2018","03","13","22:00","-19.8","","-22.0","","83","","","","32","","8","","24.1","","101.56","","","","-26","","Snow"
"-115.14","67.82","KUGLUKTUK A","2300903","2018-03-13 23:00","2018","03","13","23:00","-19.0","","-21.3","","82","","","","34","","10","","24.1","","101.52","","","","-26","","Ice Crystals"
"-115.14","67.82","KUGLUKTUK A","2300903","2018-03-14 00:00","2018","03","14","00:00","-18.8","","-21.2","","82","","","","30","","10","","24.1","","101.52","","","","-26","","Ice Crystals"
"-115.14","67.82","KUGLUKTUK A","2300903","2018-03-14 01:00","2018","03","14","01:00","-19.2","","-21.6","","81","","","","30","","9","","24.1","","101.49","","","","-26","","Ice Crystals"
"-115.14","67.82","KUGLUKTUK A","2300903","2018-03-14 02:00","2018","03","14","02:00","-19.0","","-21.4","","81","","","","27","","10","","24.1","","101.48","","","","-26","","Ice Crystals"
"-115.14","67.82","KUGLUKTUK A","2300903","2018-03-14 03:00","2018","03","14","03:00","-19.8","","-22.2","","82","","","","27","","12","","24.1","","101.46","","","","-28","","Ice Crystals"
"-115.14","67.82","KUGLUKTUK A","2300903","2018-03-14 04:00","2018","03","14","04:00","-18.9","","-21.2","","82","","","","35","","14","","24.1","","101.47","","","","-27","","Ice Crystals"
"-115.14","67.82","KUGLUKTUK A","2300903","2018-03-14 05:00","2018","03","14","05:00","-19.1","","-21.6","","81","","","","35","","15","","24.1","","101.52","","","","-28","","Ice Crystals"
"-115.14","67.82","KUGLUKTUK A","2300903","2018-03-14 06:00","2018","03","14","06:00","-22.0","","-24.6","","80","","","","36","","15","","24.1","","101.58","","","","-32","","Ice Crystals"
"-115.14","67.82","KUGLUKTUK A","2300903","2018-03-14 07:00","2018","03","14","07:00","-22.4","","-24.8","","81","","","","35","","7","","24.1","","101.65","","","","-28","","Ice Crystals"
"-115.14","67.82","KUGLUKTUK A","2300903","2018-03-14 08:00","2018","03","14","08:00","-21.3","","-23.8","","81","","","","36","","2","","16.1","","101.68","","","","-23","","Snow"
"-115.14","67.82","KUGLUKTUK A","2300903","2018-03-14 09:00","2018","03","14","09:00","-19.8","","-22.0","","83","","","","3","","5","","16.1","","101.74","","","","-24","","Snow"
"-115.14","67.82","KUGLUKTUK A","2300903","2018-03-14 10:00","2018","03","14","10:00","-19.6","","-21.7","","83","","","","2","","13","","16.1","","101.80","","","","-28","","Snow"
"-115.14","67.82","KUGLUKTUK A","2300903","2018-03-14 11:00","2018","03","14","11:00","-19.9","","-22.1","","83","","","","2","","5","","19.3","","101.83","","","","-24","","Snow"
"-115.14","67.82","KUGLUKTUK A","2300903","2018-03-14 12:00","2018","03","14","12:00","-19.7","","-22.1","","82","","","","2","","7","","24.1","","101.88","","","","-25","","Snow Grains"
"-115.14","67.82","KUGLUKTUK A","2300903","2018-03-14 13:00","2018","03","14","13:00","-19.8","","-22.6","","79","","","","3","","12","","24.1","","101.92","","","","-28","","Ice Crystals"
"-115.14","67.82","KUGLUKTUK A","2300903","2018-03-14 14:00","2018","03","14","14:00","-20.6","","-23.7","","76","","","","3","","14","","24.1","","101.95","","","","-29","","Mostly Cloudy"
"-115.14","67.82","KUGLUKTUK A","2300903","2018-03-14 15:00","2018","03","14","15:00","-22.0","","-25.2","","76","","","","3","","9","","24.1","","102.03","","","","-29","","NA"
"-115.14","67.82","KUGLUKTUK A","2300903","2018-03-14 16:00","2018","03","14","16:00","-22.9","","-26.1","","76","","","","2","","10","","24.1","","102.09","","","","-31","","NA"
"-115.14","67.82","KUGLUKTUK A","2300903","2018-03-14 17:00","2018","03","14","17:00","-23.0","","-26.1","","76","","","","3","","6","","24.1","","102.14","","","","-28","","Mainly Clear"
"-115.14","67.82","KUGLUKTUK A","2300903","2018-03-14 18:00","2018","03","14","18:00","-23.8","","-26.3","","80","","","","1","","3","","24.1","","102.20","","","","-27","","NA"
"-115.14","67.82","KUGLUKTUK A","2300903","2018-03-14 19:00","2018","03","14","19:00","-23.3","","-26.0","","79","","","","5","","10","","24.1","","102.19","","","","-31","","NA"
"-115.14","67.82","KUGLUKTUK A","2300903","2018-03-14 20:00","2018","03","14","20:00","-23.3","","-25.8","","81","","","","4","","5","","19.3","","102.20","","","","-28","","Ice Crystals"
"-115.14","67.82","KUGLUKTUK A","2300903","2018-03-14 21:00","2018","03","14","21:00","-23.1","","-25.6","","81","","","","4","","7","","19.3","","102.21","","","","-29","","Ice Crystals"
"-115.14","67.82","KUGLUKTUK A","2300903","2018-03-14 22:00","2018","03","14","22:00","-23.4","","-25.8","","81","","","","5","","9","","19.3","","102.26","","","","-31","","NA"
"-115.14","67.82","KUGLUKTUK A","2300903","2018-03-14 23:00","2018","03","14","23:00","-23.5","","-25.9","","81","","","","5","","12","","19.3","","102.26","","","","-32","","Ice Crystals"
"-115.14","67.82","KUGLUKTUK A","2300903","2018-03-15 00:00","2018","03","15","00:00","-22.8","","-25.3","","81","","","","6","","15","","19.3","","102.29","","","","-33","","Ice Crystals"
"-115.14","67.82","KUGLUKTUK A","2300903","2018-03-15 01:00","2018","03","15","01:00","-23.1","","-25.5","","81","","","","6","","18","","19.3","","102.25","","","","-34","","Ice Crystals"
"-115.14","67.82","KUGLUKTUK A","2300903","2018-03-15 02:00","2018","03","15","02:00","-23.3","","-25.9","","80","","","","7","","21","","19.3","","102.29","","","","-35","","Ice Crystals"
"-115.14","67.82","KUGLUKTUK A","2300903","2018-03-15 03:00","2018","03","15","03:00","-24.1","","-26.8","","79","","","","8","","29","","16.1","","102.30","","","","-38","","Ice Crystals,Blowing Snow"
"-115.14","67.82","KUGLUKTUK A","2300903","2018-03-15 04:00","2018","03","15","04:00","-24.2","","-26.9","","78","","","","8","","31","","16.1","","102.30","","","","-38","","Ice Crystals,Blowing Snow"
"-115.14","67.82","KUGLUKTUK A","2300903","2018-03-15 05:00","2018","03","15","05:00","-23.9","","-26.7","","79","","","","9","","37","","12.9","","102.22","","","","-39","","Ice Crystals,Blowing Snow"
"-115.14","67.82","KUGLUKTUK A","2300903","2018-03-15 06:00","2018","03","15","06:00","-24.4","","-27.1","","78","","","","8","","41","","4.8","","102.24","","","","-40","","Snow,Blowing Snow"
"-115.14","67.82","KUGLUKTUK A","2300903","2018-03-15 07:00","2018","03","15","07:00","-24.9","","-27.8","","78","","","","9","","37","","0.6","","102.19","","","","-40","","Blowing Snow"
"-115.14","67.82","KUGLUKTUK A","2300903","2018-03-15 08:00","2018","03","15","08:00","-24.9","","-27.8","","77","","","","9","","41","","0.8","","102.17","","","","-41","","Blowing Snow"
"-115.14","67.82","KUGLUKTUK A","2300903","2018-03-15 09:00","2018","03","15","09:00","-23.7","","-26.6","","78","","","","9","","33","","0.8","","102.20","","","","-38","","Blowing Snow"
"-115.14","67.82","KUGLUKTUK A","2300903","2018-03-15 10:00","2018","03","15","10:00","-23.3","","-26.1","","78","","","","9","","39","","0.4","","102.15","","","","-38","","Blowing Snow"
"-115.14","67.82","KUGLUKTUK A","2300903","2018-03-15 11:00","2018","03","15","11:00","-22.2","","-25.0","","79","","","","9","","43","","0.2","","102.04","","","","-37","","Blowing Snow"
"-115.14","67.82","KUGLUKTUK A","2300903","2018-03-15 12:00","2018","03","15","12:00","-21.4","","-24.2","","79","","","","9","","44","","0.2","","102.00","","","","-37","","Blowing Snow"
"-115.14","67.82","KUGLUKTUK A","2300903","2018-03-15 13:00","2018","03","15","13:00","-20.5","","-23.1","","80","","","","9","","37","","0.4","","101.99","","","","-34","","Blowing Snow"
"-115.14","67.82","KUGLUKTUK A","2300903","2018-03-15 14:00","2018","03","15","14:00","-20.0","","-22.6","","80","","","","9","","40","","0.2","","101.91","","","","-34","","Blowing Snow"
"-115.14","67.82","KUGLUKTUK A","2300903","2018-03-15 15:00","2018","03","15","15:00","-19.5","","-22.0","","81","","","","9","","46","","0.2","","101.78","","","","-34","","Blowing Snow"
"-115.14","67.82","KUGLUKTUK A","2300903","2018-03-15 16:00","2018","03","15","16:00","-18.6","","-21.1","","82","","","","9","","53","","0.4","","101.67","","","","-34","","Blowing Snow"
"-115.14","67.82","KUGLUKTUK A","2300903","2018-03-15 17:00","2018","03","15","17:00","-18.3","","-20.7","","82","","","","9","","47","","0.8","","101.58","","","","-33","","Blowing Snow"
"-115.14","67.82","KUGLUKTUK A","2300903","2018-03-15 18:00","2018","03","15","18:00","-17.6","","-19.8","","83","","","","8","","45","","2.0","","101.49","","","","-32","","Blowing Snow"
"-115.14","67.82","KUGLUKTUK A","2300903","2018-03-15 19:00","2018","03","15","19:00","-16.4","","-18.6","","83","","","","10","","43","","6.4","","101.38","","","","-30","","Blowing Snow"
"-115.14","67.82","KUGLUKTUK A","2300903","2018-03-15 20:00","2018","03","15","20:00","-13.1","","-16.6","","75","","","","13","","39","","12.9","","101.30","","","","-25","","Blowing Snow"
"-115.14","67.82","KUGLUKTUK A","2300903","2018-03-15 21:00","2018","03","15","21:00","-13.1","","-16.3","","77","","","","11","","32","","11.3","","101.25","","","","-24","","Snow,Blowing Snow"
"-115.14","67.82","KUGLUKTUK A","2300903","2018-03-15 22:00","2018","03","15","22:00","-12.8","","-16.0","","77","","","","13","","29","","12.9","","101.14","","","","-23","","Snow,Blowing Snow"
"-115.14","67.82","KUGLUKTUK A","2300903","2018-03-15 23:00","2018","03","15","23:00","-13.1","","-16.5","","76","","","","14","","34","","12.9","","101.08","","","","-24","","Snow,Blowing Snow"
"-115.14","67.82","KUGLUKTUK A","2300903","2018-03-16 00:00","2018","03","16","00:00","-13.0","","-16.4","","76","","","","15","","23","","12.9","","101.07","","","","-22","","Snow,Blowing Snow"
"-115.14","67.82","KUGLUKTUK A","2300903","2018-03-16 01:00","2018","03","16","01:00","-12.5","","-14.9","","83","","","","20","","28","","6.4","","101.02","","","","-22","","Snow,Blowing Snow"
"-115.14","67.82","KUGLUKTUK A","2300903","2018-03-16 02:00","2018","03","16","02:00","-13.9","","-16.2","","83","","","","20","","29","","4.8","","100.97","","","","-24","","Snow,Blowing Snow"
"-115.14","67.82","KUGLUKTUK A","2300903","2018-03-16 03:00","2018","03","16","03:00","-14.0","","-16.1","","85","","","","21","","33","","3.2","","100.91","","","","-25","","Snow,Blowing Snow"
"-115.14","67.82","KUGLUKTUK A","2300903","2018-03-16 04:00","2018","03","16","04:00","-13.5","","-15.4","","86","","","","22","","29","","2.4","","100.86","","","","-24","","Snow,Blowing Snow"
"-115.14","67.82","KUGLUKTUK A","2300903","2018-03-16 05:00","2018","03","16","05:00","-12.9","","-14.7","","86","","","","22","","27","","2.4","","100.82","","","","-23","","Snow,Blowing Snow"
"-115.14","67.82","KUGLUKTUK A","2300903","2018-03-16 06:00","2018","03","16","06:00","-12.5","","-14.3","","86","","","","22","","23","","2.4","","100.80","","","","-22","","Snow,Blowing Snow"
"-115.14","67.82","KUGLUKTUK A","2300903","2018-03-16 07:00","2018","03","16","07:00","-11.2","","-13.0","","87","","","","24","","27","","3.2","","100.78","","","","-21","","Snow,Blowing Snow"
"-115.14","67.82","KUGLUKTUK A","2300903","2018-03-16 08:00","2018","03","16","08:00","-12.0","","-14.3","","83","","","","25","","26","","24.1","","100.79","","","","-22","","Cloudy"
"-115.14","67.82","KUGLUKTUK A","2300903","2018-03-16 09:00","2018","03","16","09:00","-11.9","","-14.4","","82","","","","26","","26","","24.1","","100.79","","","","-21","","Snow"
"-115.14","67.82","KUGLUKTUK A","2300903","2018-03-16 10:00","2018","03","16","10:00","-10.7","","-13.0","","83","","","","26","","32","","24.1","","100.85","","","","-21","","Snow"
"-115.14","67.82","KUGLUKTUK A","2300903","2018-03-16 11:00","2018","03","16","11:00","-9.4","","-11.9","","82","","","","27","","33","","19.3","","100.88","","","","-19","","Snow,Blowing Snow"
"-115.14","67.82","KUGLUKTUK A","2300903","2018-03-16 12:00","2018","03","16","12:00","-8.8","","-11.4","","81","","","","28","","30","","24.1","","100.96","","","","-18","","Snow,Blowing Snow"
"-115.14","67.82","KUGLUKTUK A","2300903","2018-03-16 13:00","2018","03","16","13:00","-9.5","","-12.9","","76","","","","33","","26","","24.1","","101.10","","","","-18","","Snow Grains,Blowing Snow"
"-115.14","67.82","KUGLUKTUK A","2300903","2018-03-16 14:00","2018","03","16","14:00","-9.9","","-13.3","","76","","","","28","","16","","24.1","","101.19","","","","-17","","Mostly Cloudy"
"-115.14","67.82","KUGLUKTUK A","2300903","2018-03-16 15:00","2018","03","16","15:00","-11.0","","-14.4","","76","","","","25","","22","","24.1","","101.29","","","","-20","","NA"
"-115.14","67.82","KUGLUKTUK A","2300903","2018-03-16 16:00","2018","03","16","16:00","-11.3","","-15.2","","73","","","","28","","21","","24.1","","101.40","","","","-20","","NA"
"-115.14","67.82","KUGLUKTUK A","2300903","2018-03-16 17:00","2018","03","16","17:00","-12.3","","-15.4","","78","","","","27","","18","","24.1","","101.50","","","","-20","","Mostly Cloudy"
"-115.14","67.82","KUGLUKTUK A","2300903","2018-03-16 18:00","2018","03","16","18:00","-12.5","","-15.4","","79","","","","27","","13","","24.1","","101.53","","","","-19","","NA"
"-115.14","67.82","KUGLUKTUK A","2300903","2018-03-16 19:00","2018","03","16","19:00","-12.4","","-15.6","","77","","","","26","","17","","24.1","","101.58","","","","-20","","NA"
"-115.14","67.82","KUGLUKTUK A","2300903","2018-03-16 20:00","2018","03","16","20:00","-12.6","","-15.7","","78","","","","26","","13","","24.1","","101.64","","","","-19","","Snow"
"-115.14","67.82","KUGLUKTUK A","2300903","2018-03-16 21:00","2018","03","16","21:00","-12.5","","-15.8","","77","","","","26","","12","","24.1","","101.69","","","","-19","","Snow"
"-115.14","67.82","KUGLUKTUK A","2300903","2018-03-16 22:00","2018","03","16","22:00","-13.5","","-16.4","","79","","","","26","","17","","24.1","","101.74","","","","-22","","Snow"
"-115.14","67.82","KUGLUKTUK A","2300903","2018-03-16 23:00","2018","03","16","23:00","-13.8","","-16.4","","81","","","","27","","15","","24.1","","101.78","","","","-21","","Snow"
"-115.14","67.82","KUGLUKTUK A","2300903","2018-03-17 00:00","2018","03","17","00:00","-13.9","","-16.3","","83","","","","26","","13","","24.1","","101.84","","","","-21","","Snow"
"-115.14","67.82","KUGLUKTUK A","2300903","2018-03-17 01:00","2018","03","17","01:00","-14.4","","-16.8","","82","","","","24","","10","","24.1","","101.88","","","","-21","","Snow"
"-115.14","67.82","KUGLUKTUK A","2300903","2018-03-17 02:00","2018","03","17","02:00","-14.8","","-17.1","","83","","","","22","","13","","24.1","","101.90","","","","-22","","Snow"
"-115.14","67.82","KUGLUKTUK A","2300903","2018-03-17 03:00","2018","03","17","03:00","-15.3","","-17.8","","81","","","","23","","8","","24.1","","101.94","","","","-21","","Snow"
"-115.14","67.82","KUGLUKTUK A","2300903","2018-03-17 04:00","2018","03","17","04:00","-16.8","","-19.1","","83","","","","33","","7","","24.1","","101.97","","","","-22","","Snow"
"-115.14","67.82","KUGLUKTUK A","2300903","2018-03-17 05:00","2018","03","17","05:00","-18.9","","-20.9","","85","","","","27","","11","","24.1","","101.99","","","","-26","","Snow"
"-115.14","67.82","KUGLUKTUK A","2300903","2018-03-17 06:00","2018","03","17","06:00","-18.7","","-21.1","","82","","","","24","","8","","24.1","","102.01","","","","-25","","Snow"
"-115.14","67.82","KUGLUKTUK A","2300903","2018-03-17 07:00","2018","03","17","07:00","-18.9","","-21.4","","81","","","","20","","11","","24.1","","102.03","","","","-26","","NA"
"-115.14","67.82","KUGLUKTUK A","2300903","2018-03-17 08:00","2018","03","17","08:00","-19.8","","-22.6","","79","","","","36","","1","","24.1","","102.08","","","","-21","","Mostly Cloudy"
"-115.14","67.82","KUGLUKTUK A","2300903","2018-03-17 09:00","2018","03","17","09:00","-20.5","","-23.5","","77","","","","24","","11","","24.1","","102.11","","","","-28","","NA"
"-115.14","67.82","KUGLUKTUK A","2300903","2018-03-17 10:00","2018","03","17","10:00","-21.1","","-23.9","","78","","","","22","","13","","24.1","","102.12","","","","-30","","NA"
"-115.14","67.82","KUGLUKTUK A","2300903","2018-03-17 11:00","2018","03","17","11:00","-18.9","","-21.6","","80","","","","25","","5","","24.1","","102.13","","","","-23","","Mostly Cloudy"
"-115.14","67.82","KUGLUKTUK A","2300903","2018-03-17 12:00","2018","03","17","12:00","-17.9","","-21.2","","76","","","","27","","6","","24.1","","102.13","","","","-23","","NA"
"-115.14","67.82","KUGLUKTUK A","2300903","2018-03-17 13:00","2018","03","17","13:00","-18.4","","-21.1","","80","","","","33","","6","","24.1","","102.12","","","","-23","","NA"
"-115.14","67.82","KUGLUKTUK A","2300903","2018-03-17 14:00","2018","03","17","14:00","-17.6","","-20.8","","76","","","","36","","2","","24.1","","102.15","","","","-19","","Mostly Cloudy"
"-115.14","67.82","KUGLUKTUK A","2300903","2018-03-17 15:00","2018","03","17","15:00","-18.1","","-20.6","","81","","","","3","","8","","24.1","","102.13","","","","-24","","NA"
"-115.14","67.82","KUGLUKTUK A","2300903","2018-03-17 16:00","2018","03","17","16:00","-17.8","","-20.2","","82","","","","11","","7","","24.1","","102.09","","","","-23","","NA"
"-115.14","67.82","KUGLUKTUK A","2300903","2018-03-17 17:00","2018","03","17","17:00","-17.3","","-19.7","","82","","","","7","","6","","24.1","","102.05","","","","-22","","Cloudy"
"-115.14","67.82","KUGLUKTUK A","2300903","2018-03-17 18:00","2018","03","17","18:00","-17.0","","-19.3","","82","","","","2","","8","","24.1","","101.99","","","","-23","","Ice Crystals"
"-115.14","67.82","KUGLUKTUK A","2300903","2018-03-17 19:00","2018","03","17","19:00","-16.2","","-18.4","","83","","","","3","","8","","8.1","","101.94","","","","-22","","Ice Crystals"
"-115.14","67.82","KUGLUKTUK A","2300903","2018-03-17 20:00","2018","03","17","20:00","-15.3","","-17.3","","85","","","","8","","16","","3.2","","101.88","","","","-24","","Snow"
"-115.14","67.82","KUGLUKTUK A","2300903","2018-03-17 21:00","2018","03","17","21:00","-15.2","","-17.2","","85","","","","9","","20","","3.2","","101.84","","","","-24","","Snow"
"-115.14","67.82","KUGLUKTUK A","2300903","2018-03-17 22:00","2018","03","17","22:00","-14.9","","-16.8","","86","","","","2","","8","","3.2","","101.77","","","","-20","","Snow"
"-115.14","67.82","KUGLUKTUK A","2300903","2018-03-17 23:00","2018","03","17","23:00","-14.7","","-16.4","","87","","","","36","","12","","4.8","","101.73","","","","-22","","Snow"
"-115.14","67.82","KUGLUKTUK A","2300903","2018-03-18 00:00","2018","03","18","00:00","-15.3","","-17.2","","86","","","","34","","14","","8.1","","101.71","","","","-23","","Snow"
"-115.14","67.82","KUGLUKTUK A","2300903","2018-03-18 01:00","2018","03","18","01:00","-16.1","","-18.0","","85","","","","32","","9","","8.1","","101.69","","","","-22","","Snow"
"-115.14","67.82","KUGLUKTUK A","2300903","2018-03-18 02:00","2018","03","18","02:00","-15.9","","-17.9","","85","","","","28","","7","","9.7","","101.69","","","","-21","","Snow"
"-115.14","67.82","KUGLUKTUK A","2300903","2018-03-18 03:00","2018","03","18","03:00","-15.1","","-17.3","","84","","","","25","","9","","12.9","","101.72","","","","-21","","Snow"
"-115.14","67.82","KUGLUKTUK A","2300903","2018-03-18 04:00","2018","03","18","04:00","-14.2","","-16.5","","83","","","","25","","31","","12.9","","101.70","","","","-25","","Snow,Blowing Snow"
"-115.14","67.82","KUGLUKTUK A","2300903","2018-03-18 05:00","2018","03","18","05:00","-16.8","","-19.3","","82","","","","28","","31","","19.3","","101.81","","","","-29","","Blowing Snow"
"-115.14","67.82","KUGLUKTUK A","2300903","2018-03-18 06:00","2018","03","18","06:00","-19.2","","-22.4","","77","","","","19","","13","","24.1","","101.90","","","","-27","","NA"
"-115.14","67.82","KUGLUKTUK A","2300903","2018-03-18 07:00","2018","03","18","07:00","-15.5","","-18.3","","79","","","","32","","17","","19.3","","101.95","","","","-24","","Snow"
"-115.14","67.82","KUGLUKTUK A","2300903","2018-03-18 08:00","2018","03","18","08:00","-18.7","","-21.5","","79","","","","27","","23","","19.3","","102.01","","","","-30","","Snow"
"-115.14","67.82","KUGLUKTUK A","2300903","2018-03-18 09:00","2018","03","18","09:00","-18.9","","-22.0","","77","","","","27","","23","","24.1","","102.05","","","","-30","","Snow"
"-115.14","67.82","KUGLUKTUK A","2300903","2018-03-18 10:00","2018","03","18","10:00","-19.1","","-22.0","","79","","","","23","","18","","24.1","","102.11","","","","-29","","Snow"
"-115.14","67.82","KUGLUKTUK A","2300903","2018-03-18 11:00","2018","03","18","11:00","-19.1","","-22.3","","76","","","","23","","16","","24.1","","102.13","","","","-28","","Mostly Cloudy"
"-115.14","67.82","KUGLUKTUK A","2300903","2018-03-18 12:00","2018","03","18","12:00","-19.1","","-22.4","","75","","","","25","","14","","24.1","","102.16","","","","-28","","NA"
"-115.14","67.82","KUGLUKTUK A","2300903","2018-03-18 13:00","2018","03","18","13:00","-18.4","","-21.8","","75","","","","27","","14","","24.1","","102.17","","","","-27","","Snow"
"-115.14","67.82","KUGLUKTUK A","2300903","2018-03-18 14:00","2018","03","18","14:00","-18.5","","-21.9","","75","","","","27","","10","","24.1","","102.15","","","","-25","","Snow"
"-115.14","67.82","KUGLUKTUK A","2300903","2018-03-18 15:00","2018","03","18","15:00","-19.6","","-23.3","","73","","","","25","","16","","24.1","","102.13","","","","-29","","NA"
"-115.14","67.82","KUGLUKTUK A","2300903","2018-03-18 16:00","2018","03","18","16:00","-21.5","","-25.4","","72","","","","26","","14","","24.1","","102.12","","","","-31","","NA"
"-115.14","67.82","KUGLUKTUK A","2300903","2018-03-18 17:00","2018","03","18","17:00","-22.6","","-25.6","","77","","","","23","","11","","24.1","","102.10","","","","-31","","Mainly Clear"
"-115.14","67.82","KUGLUKTUK A","2300903","2018-03-18 18:00","2018","03","18","18:00","-24.0","","-26.6","","80","","","","23","","13","","24.1","","102.07","","","","-33","","NA"
"-115.14","67.82","KUGLUKTUK A","2300903","2018-03-18 19:00","2018","03","18","19:00","-25.1","","-27.5","","81","","","","22","","15","","24.1","","102.04","","","","-35","","NA"
"-115.14","67.82","KUGLUKTUK A","2300903","2018-03-18 20:00","2018","03","18","20:00","-22.2","","-24.6","","81","","","","24","","5","","24.1","","102.02","","","","-27","","Mainly Clear"
"-115.14","67.82","KUGLUKTUK A","2300903","2018-03-18 21:00","2018","03","18","21:00","-24.8","","-26.9","","83","","","","32","","3","","24.1","","102.01","","","","-28","","Ice Crystals"
"-115.14","67.82","KUGLUKTUK A","2300903","2018-03-18 22:00","2018","03","18","22:00","-25.6","","-28.3","","78","","","","36","","2","","24.1","","102.00","","","","-28","","Ice Crystals"
"-115.14","67.82","KUGLUKTUK A","2300903","2018-03-18 23:00","2018","03","18","23:00","-24.3","","-26.8","","80","","","","29","","4","","24.1","","101.99","","","","-28","","Ice Crystals"
"-115.14","67.82","KUGLUKTUK A","2300903","2018-03-19 00:00","2018","03","19","00:00","-23.7","","-26.1","","81","","","","32","","7","","24.1","","101.95","","","","-30","","Ice Crystals"
"-115.14","67.82","KUGLUKTUK A","2300903","2018-03-19 01:00","2018","03","19","01:00","-23.6","","-26.1","","81","","","","31","","7","","19.3","","101.95","","","","-30","","Ice Crystals"
"-115.14","67.82","KUGLUKTUK A","2300903","2018-03-19 02:00","2018","03","19","02:00","-24.1","","-26.6","","80","","","","32","","5","","19.3","","101.91","","","","-29","","Snow Grains"
"-115.14","67.82","KUGLUKTUK A","2300903","2018-03-19 03:00","2018","03","19","03:00","-22.0","","-24.3","","82","","","","36","","10","","19.3","","101.92","","","","-30","","Snow Grains"
"-115.14","67.82","KUGLUKTUK A","2300903","2018-03-19 04:00","2018","03","19","04:00","-22.3","","-24.6","","82","","","","33","","8","","19.3","","101.93","","","","-29","","Snow Grains"
"-115.14","67.82","KUGLUKTUK A","2300903","2018-03-19 05:00","2018","03","19","05:00","-22.5","","-24.9","","81","","","","2","","7","","19.3","","101.90","","","","-29","","Snow Grains"
"-115.14","67.82","KUGLUKTUK A","2300903","2018-03-19 06:00","2018","03","19","06:00","-23.6","","-26.1","","80","","","","29","","10","","12.9","","101.88","","","","-32","","Snow"
"-115.14","67.82","KUGLUKTUK A","2300903","2018-03-19 07:00","2018","03","19","07:00","-22.9","","-25.4","","81","","","","31","","12","","12.9","","101.88","","","","-32","","Snow"
"-115.14","67.82","KUGLUKTUK A","2300903","2018-03-19 08:00","2018","03","19","08:00","-23.0","","-25.4","","81","","","","35","","4","","8.1","","101.87","","","","-27","","Snow"
"-115.14","67.82","KUGLUKTUK A","2300903","2018-03-19 09:00","2018","03","19","09:00","-22.7","","-25.2","","80","","","","35","","11","","8.1","","101.88","","","","-31","","Snow"
"-115.14","67.82","KUGLUKTUK A","2300903","2018-03-19 10:00","2018","03","19","10:00","-22.8","","-25.3","","80","","","","35","","13","","6.4","","101.88","","","","-32","","Snow"
"-115.14","67.82","KUGLUKTUK A","2300903","2018-03-19 11:00","2018","03","19","11:00","-22.5","","-25.0","","80","","","","1","","9","","8.1","","101.88","","","","-30","","Snow"
"-115.14","67.82","KUGLUKTUK A","2300903","2018-03-19 12:00","2018","03","19","12:00","-22.4","","-24.9","","80","","","","5","","7","","8.1","","101.89","","","","-28","","Snow"
"-115.14","67.82","KUGLUKTUK A","2300903","2018-03-19 13:00","2018","03","19","13:00","-21.9","","-24.4","","81","","","","33","","5","","9.7","","101.89","","","","-26","","Snow"
"-115.14","67.82","KUGLUKTUK A","2300903","2018-03-19 14:00","2018","03","19","14:00","-22.0","","-24.5","","81","","","","4","","6","","8.1","","101.92","","","","-27","","Snow"
"-115.14","67.82","KUGLUKTUK A","2300903","2018-03-19 15:00","2018","03","19","15:00","-22.1","","-24.6","","80","","","","36","","9","","8.1","","101.95","","","","-29","","Snow"
"-115.14","67.82","KUGLUKTUK A","2300903","2018-03-19 16:00","2018","03","19","16:00","-22.4","","-24.9","","80","","","","32","","6","","8.1","","101.98","","","","-28","","Snow"
"-115.14","67.82","KUGLUKTUK A","2300903","2018-03-19 17:00","2018","03","19","17:00","-22.9","","-25.5","","80","","","","2","","8","","12.9","","102.00","","","","-30","","Snow"
"-115.14","67.82","KUGLUKTUK A","2300903","2018-03-19 18:00","2018","03","19","18:00","-23.7","","-26.3","","79","","","","7","","9","","9.7","","102.02","","","","-31","","Snow"
"-115.14","67.82","KUGLUKTUK A","2300903","2018-03-19 19:00","2018","03","19","19:00","-24.0","","-26.7","","79","","","","11","","7","","8.1","","102.05","","","","-30","","Snow"
"-115.14","67.82","KUGLUKTUK A","2300903","2018-03-19 20:00","2018","03","19","20:00","-24.5","","-27.2","","79","","","","8","","6","","9.7","","102.06","","","","-30","","Snow"
"-115.14","67.82","KUGLUKTUK A","2300903","2018-03-19 21:00","2018","03","19","21:00","-25.4","","-28.1","","78","","","","3","","9","","9.7","","102.07","","","","-33","","Snow"
"-115.14","67.82","KUGLUKTUK A","2300903","2018-03-19 22:00","2018","03","19","22:00","-26.3","","-29.1","","78","","","","2","","5","","9.7","","102.11","","","","-31","","Snow"
"-115.14","67.82","KUGLUKTUK A","2300903","2018-03-19 23:00","2018","03","19","23:00","-28.1","","-31.0","","77","","","","2","","4","","12.9","","102.14","","","","-32","","Snow"
"-115.14","67.82","KUGLUKTUK A","2300903","2018-03-20 00:00","2018","03","20","00:00","-28.2","","-31.1","","77","","","","1","","4","","24.1","","102.18","","","","-33","","Ice Crystals"
"-115.14","67.82","KUGLUKTUK A","2300903","2018-03-20 01:00","2018","03","20","01:00","-28.6","","-31.5","","76","","","","4","","10","","19.3","","102.22","","","","-37","","Ice Crystals"
"-115.14","67.82","KUGLUKTUK A","2300903","2018-03-20 02:00","2018","03","20","02:00","-29.0","","-31.9","","76","","","","36","","2","","16.1","","102.26","","","","-31","","Ice Crystals"
"-115.14","67.82","KUGLUKTUK A","2300903","2018-03-20 03:00","2018","03","20","03:00","-29.3","","-32.3","","76","","","","10","","4","","4.0","","102.28","","","","-34","","Ice Crystals,Fog"
"-115.14","67.82","KUGLUKTUK A","2300903","2018-03-20 04:00","2018","03","20","04:00","-29.5","","-32.5","","76","","","","6","","4","","3.2","","102.30","","","","-34","","Ice Crystals,Fog"
"-115.14","67.82","KUGLUKTUK A","2300903","2018-03-20 05:00","2018","03","20","05:00","-29.4","","-32.5","","76","","","","7","","3","","3.2","","102.33","","","","-33","","Ice Crystals,Fog"
"-115.14","67.82","KUGLUKTUK A","2300903","2018-03-20 06:00","2018","03","20","06:00","-30.6","","-33.8","","74","","","","18","","5","","2.4","","102.38","","","","-36","","Ice Crystals,Fog"
"-115.14","67.82","KUGLUKTUK A","2300903","2018-03-20 07:00","2018","03","20","07:00","-30.8","","-33.9","","75","","","","15","","5","","0.8","","102.42","","","","-37","","Ice Crystals,Freezing Fog"
"-115.14","67.82","KUGLUKTUK A","2300903","2018-03-20 08:00","2018","03","20","08:00","-29.6","","-32.6","","75","","","","11","","3","","2.4","","102.46","","","","-33","","Ice Crystals,Fog"
"-115.14","67.82","KUGLUKTUK A","2300903","2018-03-20 09:00","2018","03","20","09:00","-29.2","","-32.3","","75","","","","17","","3","","6.4","","102.50","","","","-33","","Ice Crystals,Fog"
"-115.14","67.82","KUGLUKTUK A","2300903","2018-03-20 10:00","2018","03","20","10:00","-28.4","","-31.5","","76","","","","3","","5","","8.1","","102.55","","","","-34","","Ice Crystals,Fog"
"-115.14","67.82","KUGLUKTUK A","2300903","2018-03-20 11:00","2018","03","20","11:00","-27.9","","-30.9","","76","","","","2","","5","","12.9","","102.60","","","","-33","","Ice Crystals"
"-115.14","67.82","KUGLUKTUK A","2300903","2018-03-20 12:00","2018","03","20","12:00","-27.4","","-30.4","","76","","","","3","","7","","16.1","","102.64","","","","-34","","Ice Crystals"
"-115.14","67.82","KUGLUKTUK A","2300903","2018-03-20 13:00","2018","03","20","13:00","-26.7","","-29.7","","77","","","","11","","7","","16.1","","102.67","","","","-33","","Ice Crystals"
"-115.14","67.82","KUGLUKTUK A","2300903","2018-03-20 14:00","2018","03","20","14:00","-26.9","","-29.8","","77","","","","12","","7","","12.9","","102.75","","","","-34","","Ice Crystals"
"-115.14","67.82","KUGLUKTUK A","2300903","2018-03-20 15:00","2018","03","20","15:00","-27.3","","-30.2","","76","","","","13","","6","","12.9","","102.81","","","","-33","","Ice Crystals"
"-115.14","67.82","KUGLUKTUK A","2300903","2018-03-20 16:00","2018","03","20","16:00","-27.6","","-30.6","","76","","","","12","","6","","19.3","","102.87","","","","-34","","Ice Crystals"
"-115.14","67.82","KUGLUKTUK A","2300903","2018-03-20 17:00","2018","03","20","17:00","-28.0","","-31.0","","76","","","","13","","4","","24.1","","102.91","","","","-32","","Ice Crystals"
"-115.14","67.82","KUGLUKTUK A","2300903","2018-03-20 18:00","2018","03","20","18:00","-28.9","","-31.9","","75","","","","12","","5","","24.1","","102.97","","","","-34","","Ice Crystals"
"-115.14","67.82","KUGLUKTUK A","2300903","2018-03-20 19:00","2018","03","20","19:00","-28.6","","-31.6","","76","","","","14","","5","","24.1","","103.05","","","","-34","","Ice Crystals"
"-115.14","67.82","KUGLUKTUK A","2300903","2018-03-20 20:00","2018","03","20","20:00","-30.4","","-33.5","","75","","","","16","","5","","24.1","","103.09","","","","-36","","Ice Crystals"
"-115.14","67.82","KUGLUKTUK A","2300903","2018-03-20 21:00","2018","03","20","21:00","-30.9","","-34.0","","74","","","","15","","5","","24.1","","103.14","","","","-37","","Ice Crystals"
"-115.14","67.82","KUGLUKTUK A","2300903","2018-03-20 22:00","2018","03","20","22:00","-31.7","","-35.0","","74","","","","","","0","","24.1","","103.19","","","","","","Ice Crystals"
"-115.14","67.82","KUGLUKTUK A","2300903","2018-03-20 23:00","2018","03","20","23:00","-30.9","","-34.1","","74","","","","36","","5","","24.1","","103.25","","","","-37","","Ice Crystals"
"-115.14","67.82","KUGLUKTUK A","2300903","2018-03-21 00:00","2018","03","21","00:00","-32.9","","-36.2","","73","","","","0","","1","","24.1","","103.31","","","","-34","","Ice Crystals"
"-115.14","67.82","KUGLUKTUK A","2300903","2018-03-21 01:00","2018","03","21","01:00","-31.7","","-34.9","","74","","","","36","","1","","24.1","","103.37","","","","-33","","Ice Crystals"
"-115.14","67.82","KUGLUKTUK A","2300903","2018-03-21 02:00","2018","03","21","02:00","-34.8","","-38.2","","72","","","","25","","5","","19.3","","103.42","","","","-41","","Ice Crystals"
"-115.14","67.82","KUGLUKTUK A","2300903","2018-03-21 03:00","2018","03","21","03:00","-34.9","","-38.3","","72","","","","22","","8","","19.3","","103.47","","","","-44","","Ice Crystals"
"-115.14","67.82","KUGLUKTUK A","2300903","2018-03-21 04:00","2018","03","21","04:00","-35.1","","-38.6","","71","","","","22","","12","","19.3","","103.51","","","","-46","","Ice Crystals"
"-115.14","67.82","KUGLUKTUK A","2300903","2018-03-21 05:00","2018","03","21","05:00","-34.8","","-38.3","","72","","","","24","","13","","19.3","","103.56","","","","-46","","Ice Crystals"
"-115.14","67.82","KUGLUKTUK A","2300903","2018-03-21 06:00","2018","03","21","06:00","-34.6","","-38.0","","72","","","","23","","7","","24.1","","103.61","","","","-43","","Ice Crystals"
"-115.14","67.82","KUGLUKTUK A","2300903","2018-03-21 07:00","2018","03","21","07:00","-34.1","","-37.5","","72","","","","36","","2","","24.1","","103.63","","","","-37","","Ice Crystals"
"-115.14","67.82","KUGLUKTUK A","2300903","2018-03-21 08:00","2018","03","21","08:00","-34.1","","-37.5","","72","","","","36","","2","","24.1","","103.67","","","","-37","","Ice Crystals"
"-115.14","67.82","KUGLUKTUK A","2300903","2018-03-21 09:00","2018","03","21","09:00","-32.3","","-35.6","","73","","","","36","","1","","24.1","","103.70","","","","-33","","NA"
"-115.14","67.82","KUGLUKTUK A","2300903","2018-03-21 10:00","2018","03","21","10:00","-32.8","","-36.1","","73","","","","36","","1","","16.1","","103.76","","","","-34","","Ice Crystals"
"-115.14","67.82","KUGLUKTUK A","2300903","2018-03-21 11:00","2018","03","21","11:00","-31.9","","-35.3","","73","","","","32","","5","","19.3","","103.81","","","","-38","","Ice Crystals"
"-115.14","67.82","KUGLUKTUK A","2300903","2018-03-21 12:00","2018","03","21","12:00","-30.4","","-33.6","","74","","","","36","","1","","19.3","","103.86","","","","-32","","Ice Crystals"
"-115.14","67.82","KUGLUKTUK A","2300903","2018-03-21 13:00","2018","03","21","13:00","-29.5","","-32.6","","75","","","","36","","1","","24.1","","103.86","","","","-31","","Ice Crystals"
"-115.14","67.82","KUGLUKTUK A","2300903","2018-03-21 14:00","2018","03","21","14:00","-28.4","","-31.5","","75","","","","36","","2","","19.3","","103.87","","","","-31","","Ice Crystals"
"-115.14","67.82","KUGLUKTUK A","2300903","2018-03-21 15:00","2018","03","21","15:00","-28.2","","-31.3","","75","","","","30","","4","","19.3","","103.85","","","","-33","","Ice Crystals"
"-115.14","67.82","KUGLUKTUK A","2300903","2018-03-21 16:00","2018","03","21","16:00","-28.5","","-31.6","","75","","","","35","","3","","24.1","","103.83","","","","-32","","Ice Crystals"
"-115.14","67.82","KUGLUKTUK A","2300903","2018-03-21 17:00","2018","03","21","17:00","-28.6","","-31.6","","76","","","","36","","7","","24.1","","103.82","","","","-36","","Ice Crystals"
"-115.14","67.82","KUGLUKTUK A","2300903","2018-03-21 18:00","2018","03","21","18:00","-28.1","","-31.2","","76","","","","17","","5","","24.1","","103.85","","","","-33","","Ice Crystals"
"-115.14","67.82","KUGLUKTUK A","2300903","2018-03-21 19:00","2018","03","21","19:00","-28.7","","-31.8","","75","","","","21","","8","","24.1","","103.85","","","","-36","","Ice Crystals"
"-115.14","67.82","KUGLUKTUK A","2300903","2018-03-21 20:00","2018","03","21","20:00","-29.2","","-32.3","","75","","","","25","","15","","24.1","","103.84","","","","-40","","Ice Crystals"
"-115.14","67.82","KUGLUKTUK A","2300903","2018-03-21 21:00","2018","03","21","21:00","-30.4","","-33.6","","74","","","","2","","4","","24.1","","103.86","","","","-35","","Ice Crystals"
"-115.14","67.82","KUGLUKTUK A","2300903","2018-03-21 22:00","2018","03","21","22:00","-27.6","","-30.7","","76","","","","25","","12","","24.1","","103.81","","","","-37","","NA"
"-115.14","67.82","KUGLUKTUK A","2300903","2018-03-21 23:00","2018","03","21","23:00","-25.6","","-28.5","","78","","","","23","","23","","24.1","","103.79","","","","-38","","Mainly Clear"
"-115.14","67.82","KUGLUKTUK A","2300903","2018-03-22 00:00","2018","03","22","00:00","-24.2","","-26.8","","80","","","","24","","23","","24.1","","103.80","","","","-37","","Ice Crystals"
"-115.14","67.82","KUGLUKTUK A","2300903","2018-03-22 01:00","2018","03","22","01:00","-24.9","","-27.6","","78","","","","23","","25","","24.1","","103.81","","","","-38","","Ice Crystals"
"-115.14","67.82","KUGLUKTUK A","2300903","2018-03-22 02:00","2018","03","22","02:00","-23.8","","-26.4","","80","","","","23","","22","","24.1","","103.79","","","","-36","","Ice Crystals"
"-115.14","67.82","KUGLUKTUK A","2300903","2018-03-22 03:00","2018","03","22","03:00","-23.9","","-26.5","","79","","","","26","","23","","24.1","","103.79","","","","-36","","Ice Crystals"
"-115.14","67.82","KUGLUKTUK A","2300903","2018-03-22 04:00","2018","03","22","04:00","-24.4","","-27.1","","79","","","","26","","22","","24.1","","103.79","","","","-37","","Ice Crystals"
"-115.14","67.82","KUGLUKTUK A","2300903","2018-03-22 05:00","2018","03","22","05:00","-27.2","","-30.4","","76","","","","23","","21","","24.1","","103.78","","","","-40","","Ice Crystals"
"-115.14","67.82","KUGLUKTUK A","2300903","2018-03-22 06:00","2018","03","22","06:00","-27.6","","-30.6","","77","","","","24","","20","","24.1","","103.76","","","","-40","","NA"
"-115.14","67.82","KUGLUKTUK A","2300903","2018-03-22 07:00","2018","03","22","07:00","-26.8","","-29.7","","77","","","","22","","22","","24.1","","103.72","","","","-40","","NA"
"-115.14","67.82","KUGLUKTUK A","2300903","2018-03-22 08:00","2018","03","22","08:00","-24.5","","-27.3","","78","","","","23","","19","","24.1","","103.69","","","","-36","","Mostly Cloudy"
"-115.14","67.82","KUGLUKTUK A","2300903","2018-03-22 09:00","2018","03","22","09:00","-24.6","","-27.3","","79","","","","25","","14","","24.1","","103.67","","","","-34","","NA"
"-115.14","67.82","KUGLUKTUK A","2300903","2018-03-22 10:00","2018","03","22","10:00","-24.1","","-26.9","","79","","","","25","","13","","24.1","","103.62","","","","-33","","NA"
"-115.14","67.82","KUGLUKTUK A","2300903","2018-03-22 11:00","2018","03","22","11:00","-23.8","","-26.5","","79","","","","23","","12","","24.1","","103.57","","","","-33","","Mostly Cloudy"
"-115.14","67.82","KUGLUKTUK A","2300903","2018-03-22 12:00","2018","03","22","12:00","-22.7","","-25.4","","79","","","","30","","8","","24.1","","103.51","","","","-29","","NA"
"-115.14","67.82","KUGLUKTUK A","2300903","2018-03-22 13:00","2018","03","22","13:00","-21.9","","-24.6","","79","","","","32","","7","","24.1","","103.46","","","","-28","","NA"
"-115.14","67.82","KUGLUKTUK A","2300903","2018-03-22 14:00","2018","03","22","14:00","-21.3","","-24.0","","79","","","","34","","3","","24.1","","103.36","","","","-24","","Mostly Cloudy"
"-115.14","67.82","KUGLUKTUK A","2300903","2018-03-22 15:00","2018","03","22","15:00","-21.4","","-24.2","","79","","","","2","","3","","12.9","","103.27","","","","-24","","Snow Grains"
"-115.14","67.82","KUGLUKTUK A","2300903","2018-03-22 16:00","2018","03","22","16:00","-20.6","","-23.2","","80","","","","36","","3","","8.1","","103.18","","","","-23","","Snow Grains"
"-115.14","67.82","KUGLUKTUK A","2300903","2018-03-22 17:00","2018","03","22","17:00","-20.3","","-22.9","","81","","","","10","","4","","4.8","","103.09","","","","-24","","Snow Grains"
"-115.14","67.82","KUGLUKTUK A","2300903","2018-03-22 18:00","2018","03","22","18:00","-19.8","","-22.2","","82","","","","36","","2","","4.8","","102.99","","","","-22","","Snow Grains"
"-115.14","67.82","KUGLUKTUK A","2300903","2018-03-22 19:00","2018","03","22","19:00","-19.5","","-21.8","","82","","","","15","","4","","3.6","","102.93","","","","-23","","Snow Grains"
"-115.14","67.82","KUGLUKTUK A","2300903","2018-03-22 20:00","2018","03","22","20:00","-19.4","","-21.6","","83","","","","15","","6","","4.8","","102.83","","","","-24","","Snow Grains"
"-115.14","67.82","KUGLUKTUK A","2300903","2018-03-22 21:00","2018","03","22","21:00","-19.0","","-21.2","","83","","","","30","","5","","4.8","","102.76","","","","-23","","Snow Grains"
"-115.14","67.82","KUGLUKTUK A","2300903","2018-03-22 22:00","2018","03","22","22:00","-19.3","","-21.5","","83","","","","33","","4","","6.4","","102.71","","","","-23","","Snow Grains"
"-115.14","67.82","KUGLUKTUK A","2300903","2018-03-22 23:00","2018","03","22","23:00","-19.5","","-21.7","","83","","","","35","","4","","6.4","","102.64","","","","-23","","Snow Grains"
"-115.14","67.82","KUGLUKTUK A","2300903","2018-03-23 00:00","2018","03","23","00:00","-20.4","","-22.6","","83","","","","35","","5","","8.1","","102.58","","","","-25","","Ice Crystals"
"-115.14","67.82","KUGLUKTUK A","2300903","2018-03-23 01:00","2018","03","23","01:00","-21.0","","-23.2","","83","","","","36","","3","","16.1","","102.55","","","","-24","","Ice Crystals"
"-115.14","67.82","KUGLUKTUK A","2300903","2018-03-23 02:00","2018","03","23","02:00","-21.8","","-24.1","","82","","","","32","","5","","24.1","","102.49","","","","-26","","Ice Crystals"
"-115.14","67.82","KUGLUKTUK A","2300903","2018-03-23 03:00","2018","03","23","03:00","-21.9","","-24.1","","82","","","","30","","4","","24.1","","102.45","","","","-26","","Ice Crystals"
"-115.14","67.82","KUGLUKTUK A","2300903","2018-03-23 04:00","2018","03","23","04:00","-24.1","","-26.7","","80","","","","26","","10","","24.1","","102.40","","","","-32","","Ice Crystals"
"-115.14","67.82","KUGLUKTUK A","2300903","2018-03-23 05:00","2018","03","23","05:00","-25.4","","-28.2","","78","","","","26","","8","","24.1","","102.37","","","","-33","","Ice Crystals"
"-115.14","67.82","KUGLUKTUK A","2300903","2018-03-23 06:00","2018","03","23","06:00","-25.1","","-27.7","","79","","","","22","","8","","24.1","","102.34","","","","-32","","Ice Crystals"
"-115.14","67.82","KUGLUKTUK A","2300903","2018-03-23 07:00","2018","03","23","07:00","-24.9","","-27.6","","79","","","","36","","1","","19.3","","102.32","","","","-26","","Ice Crystals"
"-115.14","67.82","KUGLUKTUK A","2300903","2018-03-23 08:00","2018","03","23","08:00","-24.3","","-26.9","","80","","","","15","","3","","16.1","","102.28","","","","-27","","Ice Crystals"
"-115.14","67.82","KUGLUKTUK A","2300903","2018-03-23 09:00","2018","03","23","09:00","-23.3","","-25.9","","80","","","","29","","3","","16.1","","102.29","","","","-26","","Ice Crystals"
"-115.14","67.82","KUGLUKTUK A","2300903","2018-03-23 10:00","2018","03","23","10:00","-22.7","","-25.2","","80","","","","33","","3","","19.3","","102.28","","","","-25","","Ice Crystals"
"-115.14","67.82","KUGLUKTUK A","2300903","2018-03-23 11:00","2018","03","23","11:00","-23.3","","-25.9","","80","","","","31","","5","","16.1","","102.28","","","","-28","","Ice Crystals"
"-115.14","67.82","KUGLUKTUK A","2300903","2018-03-23 12:00","2018","03","23","12:00","-24.3","","-26.9","","79","","","","35","","4","","19.3","","102.29","","","","-28","","Ice Crystals"
"-115.14","67.82","KUGLUKTUK A","2300903","2018-03-23 13:00","2018","03","23","13:00","-23.6","","-26.4","","79","","","","28","","5","","19.3","","102.27","","","","-28","","Ice Crystals"
"-115.14","67.82","KUGLUKTUK A","2300903","2018-03-23 14:00","2018","03","23","14:00","-23.5","","-26.2","","79","","","","27","","6","","19.3","","102.28","","","","-29","","Ice Crystals"
"-115.14","67.82","KUGLUKTUK A","2300903","2018-03-23 15:00","2018","03","23","15:00","-23.5","","-26.1","","79","","","","31","","4","","19.3","","102.29","","","","-27","","Ice Crystals"
"-115.14","67.82","KUGLUKTUK A","2300903","2018-03-23 16:00","2018","03","23","16:00","-23.9","","-26.6","","79","","","","29","","7","","19.3","","102.27","","","","-30","","Ice Crystals"
"-115.14","67.82","KUGLUKTUK A","2300903","2018-03-23 17:00","2018","03","23","17:00","-24.7","","-27.5","","78","","","","30","","7","","19.3","","102.26","","","","-31","","Ice Crystals"
"-115.14","67.82","KUGLUKTUK A","2300903","2018-03-23 18:00","2018","03","23","18:00","-25.7","","-28.6","","77","","","","28","","9","","19.3","","102.25","","","","-33","","Ice Crystals"
"-115.14","67.82","KUGLUKTUK A","2300903","2018-03-23 19:00","2018","03","23","19:00","-25.9","","-28.6","","78","","","","31","","5","","24.1","","102.26","","","","-31","","Ice Crystals"
"-115.14","67.82","KUGLUKTUK A","2300903","2018-03-23 20:00","2018","03","23","20:00","-25.2","","-27.9","","79","","","","1","","3","","24.1","","102.29","","","","-28","","Ice Crystals"
"-115.14","67.82","KUGLUKTUK A","2300903","2018-03-23 21:00","2018","03","23","21:00","-25.2","","-27.9","","78","","","","35","","7","","24.1","","102.26","","","","-32","","Ice Crystals"
"-115.14","67.82","KUGLUKTUK A","2300903","2018-03-23 22:00","2018","03","23","22:00","-25.4","","-28.1","","78","","","","24","","8","","24.1","","102.25","","","","-33","","Ice Crystals"
"-115.14","67.82","KUGLUKTUK A","2300903","2018-03-23 23:00","2018","03","23","23:00","-25.3","","-28.1","","78","","","","25","","7","","16.1","","102.25","","","","-32","","Ice Crystals"
"-115.14","67.82","KUGLUKTUK A","2300903","2018-03-24 00:00","2018","03","24","00:00","-24.9","","-27.7","","78","","","","25","","12","","12.9","","102.22","","","","-34","","Snow Grains"
"-115.14","67.82","KUGLUKTUK A","2300903","2018-03-24 01:00","2018","03","24","01:00","-24.7","","-27.4","","79","","","","26","","10","","12.9","","102.19","","","","-33","","Snow Grains"
"-115.14","67.82","KUGLUKTUK A","2300903","2018-03-24 02:00","2018","03","24","02:00","-24.9","","-27.6","","79","","","","28","","9","","16.1","","102.17","","","","-33","","Snow Grains"
"-115.14","67.82","KUGLUKTUK A","2300903","2018-03-24 03:00","2018","03","24","03:00","-24.4","","-27.0","","79","","","","29","","8","","24.1","","102.13","","","","-31","","Ice Crystals"
"-115.14","67.82","KUGLUKTUK A","2300903","2018-03-24 04:00","2018","03","24","04:00","-25.6","","-28.3","","78","","","","28","","10","","8.1","","102.10","","","","-34","","Ice Crystals"
"-115.14","67.82","KUGLUKTUK A","2300903","2018-03-24 05:00","2018","03","24","05:00","-26.7","","-29.5","","78","","","","30","","13","","16.1","","102.06","","","","-37","","Ice Crystals"
"-115.14","67.82","KUGLUKTUK A","2300903","2018-03-24 06:00","2018","03","24","06:00","-28.4","","-31.4","","76","","","","36","","2","","24.1","","102.06","","","","-31","","Ice Crystals"
"-115.14","67.82","KUGLUKTUK A","2300903","2018-03-24 07:00","2018","03","24","07:00","-29.3","","-32.3","","76","","","","31","","6","","24.1","","102.04","","","","-36","","NA"
"-115.14","67.82","KUGLUKTUK A","2300903","2018-03-24 08:00","2018","03","24","08:00","-28.1","","-31.1","","76","","","","32","","7","","24.1","","102.03","","","","-35","","Mostly Cloudy"
"-115.14","67.82","KUGLUKTUK A","2300903","2018-03-24 09:00","2018","03","24","09:00","-29.2","","-32.4","","75","","","","36","","2","","12.9","","102.04","","","","-31","","Ice Crystals"
"-115.14","67.82","KUGLUKTUK A","2300903","2018-03-24 10:00","2018","03","24","10:00","-27.7","","-30.7","","76","","","","34","","7","","12.9","","102.02","","","","-35","","Ice Crystals"
"-115.14","67.82","KUGLUKTUK A","2300903","2018-03-24 11:00","2018","03","24","11:00","-27.2","","-30.2","","76","","","","35","","5","","16.1","","101.98","","","","-32","","Ice Crystals"
"-115.14","67.82","KUGLUKTUK A","2300903","2018-03-24 12:00","2018","03","24","12:00","-27.2","","-30.2","","76","","","","28","","12","","16.1","","101.97","","","","-37","","Ice Crystals"
"-115.14","67.82","KUGLUKTUK A","2300903","2018-03-24 13:00","2018","03","24","13:00","-27.6","","-30.7","","75","","","","23","","12","","16.1","","101.95","","","","-37","","Ice Crystals"
"-115.14","67.82","KUGLUKTUK A","2300903","2018-03-24 14:00","2018","03","24","14:00","-26.6","","-29.6","","76","","","","26","","5","","16.1","","101.97","","","","-32","","Ice Crystals"
"-115.14","67.82","KUGLUKTUK A","2300903","2018-03-24 15:00","2018","03","24","15:00","-26.3","","-29.4","","76","","","","31","","7","","16.1","","101.96","","","","-33","","Ice Crystals"
"-115.14","67.82","KUGLUKTUK A","2300903","2018-03-24 16:00","2018","03","24","16:00","-27.1","","-30.3","","74","","","","31","","8","","16.1","","101.95","","","","-35","","Ice Crystals"
"-115.14","67.82","KUGLUKTUK A","2300903","2018-03-24 17:00","2018","03","24","17:00","-28.0","","-31.2","","74","","","","33","","3","","16.1","","101.95","","","","-31","","Ice Crystals"
"-115.14","67.82","KUGLUKTUK A","2300903","2018-03-24 18:00","2018","03","24","18:00","-29.4","","-32.6","","75","","","","36","","4","","16.1","","101.94","","","","-34","","Ice Crystals"
"-115.14","67.82","KUGLUKTUK A","2300903","2018-03-24 19:00","2018","03","24","19:00","-29.8","","-32.9","","75","","","","6","","5","","19.3","","101.96","","","","-35","","Ice Crystals"
"-115.14","67.82","KUGLUKTUK A","2300903","2018-03-24 20:00","2018","03","24","20:00","-30.7","","-33.7","","75","","","","36","","2","","9.7","","101.99","","","","-33","","Ice Crystals"
"-115.14","67.82","KUGLUKTUK A","2300903","2018-03-24 21:00","2018","03","24","21:00","-30.2","","-33.2","","75","","","","30","","5","","12.9","","101.98","","","","-36","","Ice Crystals"
"-115.14","67.82","KUGLUKTUK A","2300903","2018-03-24 22:00","2018","03","24","22:00","-31.0","","-34.1","","75","","","","32","","5","","12.9","","101.98","","","","-37","","Ice Crystals"
"-115.14","67.82","KUGLUKTUK A","2300903","2018-03-24 23:00","2018","03","24","23:00","-32.2","","-35.3","","74","","","","29","","6","","12.9","","101.95","","","","-39","","Ice Crystals"
"-115.14","67.82","KUGLUKTUK A","2300903","2018-03-25 00:00","2018","03","25","00:00","-34.2","","-37.5","","73","","","","36","","1","","12.9","","101.95","","","","-35","","Ice Crystals"
"-115.14","67.82","KUGLUKTUK A","2300903","2018-03-25 01:00","2018","03","25","01:00","-35.0","","-38.3","","73","","","","23","","8","","12.9","","101.97","","","","-44","","Ice Crystals"
"-115.14","67.82","KUGLUKTUK A","2300903","2018-03-25 02:00","2018","03","25","02:00","-35.6","","-39.0","","72","","","","22","","15","","16.1","","101.97","","","","-48","","Ice Crystals"
"-115.14","67.82","KUGLUKTUK A","2300903","2018-03-25 03:00","2018","03","25","03:00","-35.7","","-39.1","","71","","","","22","","16","","16.1","","101.95","","","","-49","","Ice Crystals"
"-115.14","67.82","KUGLUKTUK A","2300903","2018-03-25 04:00","2018","03","25","04:00","-36.6","","-40.1","","71","","","","22","","19","","16.1","","101.95","","","","-51","","Ice Crystals"
"-115.14","67.82","KUGLUKTUK A","2300903","2018-03-25 05:00","2018","03","25","05:00","-35.4","","-38.8","","71","","","","23","","19","","16.1","","101.93","","","","-50","","Ice Crystals"
"-115.14","67.82","KUGLUKTUK A","2300903","2018-03-25 06:00","2018","03","25","06:00","-36.1","","-39.6","","71","","","","23","","22","","12.9","","101.92","","","","-51","","Ice Crystals"
"-115.14","67.82","KUGLUKTUK A","2300903","2018-03-25 07:00","2018","03","25","07:00","-36.0","","-39.6","","71","","","","23","","20","","12.9","","101.90","","","","-51","","Ice Crystals"
"-115.14","67.82","KUGLUKTUK A","2300903","2018-03-25 08:00","2018","03","25","08:00","-35.5","","-39.0","","71","","","","23","","22","","16.1","","101.90","","","","-51","","Ice Crystals"
"-115.14","67.82","KUGLUKTUK A","2300903","2018-03-25 09:00","2018","03","25","09:00","-34.6","","-38.1","","71","","","","23","","22","","16.1","","101.89","","","","-50","","Ice Crystals"
"-115.14","67.82","KUGLUKTUK A","2300903","2018-03-25 10:00","2018","03","25","10:00","-33.7","","-37.1","","72","","","","23","","19","","19.3","","101.89","","","","-47","","Ice Crystals"
"-115.14","67.82","KUGLUKTUK A","2300903","2018-03-25 11:00","2018","03","25","11:00","-32.9","","-36.4","","72","","","","23","","17","","19.3","","101.87","","","","-46","","Clear"
"-115.14","67.82","KUGLUKTUK A","2300903","2018-03-25 12:00","2018","03","25","12:00","-31.7","","-35.1","","73","","","","24","","19","","19.3","","101.84","","","","-45","","NA"
"-115.14","67.82","KUGLUKTUK A","2300903","2018-03-25 13:00","2018","03","25","13:00","-31.3","","-34.7","","73","","","","24","","19","","19.3","","101.82","","","","-44","","Ice Crystals"
"-115.14","67.82","KUGLUKTUK A","2300903","2018-03-25 14:00","2018","03","25","14:00","-30.5","","-33.9","","73","","","","24","","18","","19.3","","101.78","","","","-43","","Ice Crystals"
"-115.14","67.82","KUGLUKTUK A","2300903","2018-03-25 15:00","2018","03","25","15:00","-29.5","","-33.0","","72","","","","25","","20","","19.3","","101.78","","","","-42","","Ice Crystals"
"-115.14","67.82","KUGLUKTUK A","2300903","2018-03-25 16:00","2018","03","25","16:00","-29.2","","-32.9","","71","","","","26","","23","","19.3","","101.76","","","","-43","","Ice Crystals,Blowing Snow"
"-115.14","67.82","KUGLUKTUK A","2300903","2018-03-25 17:00","2018","03","25","17:00","-30.5","","-34.2","","71","","","","23","","20","","19.3","","101.74","","","","-44","","Ice Crystals"
"-115.14","67.82","KUGLUKTUK A","2300903","2018-03-25 18:00","2018","03","25","18:00","-29.4","","-33.1","","71","","","","25","","27","","19.3","","101.68","","","","-44","","Ice Crystals"
"-115.14","67.82","KUGLUKTUK A","2300903","2018-03-25 19:00","2018","03","25","19:00","-31.5","","-34.7","","74","","","","26","","25","","19.3","","101.67","","","","-46","","Ice Crystals,Blowing Snow"
"-115.14","67.82","KUGLUKTUK A","2300903","2018-03-25 20:00","2018","03","25","20:00","-33.4","","-36.7","","73","","","","24","","23","","19.3","","101.63","","","","-48","","Ice Crystals,Blowing Snow"
"-115.14","67.82","KUGLUKTUK A","2300903","2018-03-25 21:00","2018","03","25","21:00","-33.1","","-36.3","","74","","","","23","","23","","19.3","","101.58","","","","-48","","Ice Crystals,Blowing Snow"
"-115.14","67.82","KUGLUKTUK A","2300903","2018-03-25 22:00","2018","03","25","22:00","-31.8","","-35.1","","73","","","","22","","18","","12.9","","101.53","","","","-45","","Ice Crystals,Blowing Snow"
"-115.14","67.82","KUGLUKTUK A","2300903","2018-03-25 23:00","2018","03","25","23:00","-31.4","","-34.8","","73","","","","23","","19","","9.7","","101.47","","","","-45","","Ice Crystals"
"-115.14","67.82","KUGLUKTUK A","2300903","2018-03-26 00:00","2018","03","26","00:00","-31.4","","-34.8","","72","","","","22","","21","","9.7","","101.38","","","","-45","","Ice Crystals,Blowing Snow"
"-115.14","67.82","KUGLUKTUK A","2300903","2018-03-26 01:00","2018","03","26","01:00","-31.1","","-34.6","","73","","","","23","","23","","9.7","","101.32","","","","-45","","Ice Crystals,Blowing Snow"
"-115.14","67.82","KUGLUKTUK A","2300903","2018-03-26 02:00","2018","03","26","02:00","-30.5","","-34.0","","73","","","","24","","22","","9.7","","101.30","","","","-44","","Ice Crystals,Blowing Snow"
"-115.14","67.82","KUGLUKTUK A","2300903","2018-03-26 03:00","2018","03","26","03:00","-30.9","","-34.4","","72","","","","23","","26","","12.9","","101.24","","","","-46","","Ice Crystals,Blowing Snow"
"-115.14","67.82","KUGLUKTUK A","2300903","2018-03-26 04:00","2018","03","26","04:00","-30.3","","-33.8","","72","","","","24","","26","","12.9","","101.20","","","","-45","","Ice Crystals,Blowing Snow"
"-115.14","67.82","KUGLUKTUK A","2300903","2018-03-26 05:00","2018","03","26","05:00","-30.7","","-34.3","","71","","","","23","","26","","9.7","","101.14","","","","-46","","Ice Crystals,Blowing Snow"
"-115.14","67.82","KUGLUKTUK A","2300903","2018-03-26 06:00","2018","03","26","06:00","-30.4","","-34.0","","72","","","","23","","25","","8.1","","101.10","","","","-45","","Ice Crystals,Blowing Snow"
"-115.14","67.82","KUGLUKTUK A","2300903","2018-03-26 07:00","2018","03","26","07:00","-29.6","","-33.0","","73","","","","23","","27","","4.8","","101.06","","","","-44","","Ice Crystals,Blowing Snow"
"-115.14","67.82","KUGLUKTUK A","2300903","2018-03-26 08:00","2018","03","26","08:00","-28.8","","-32.3","","72","","","","24","","29","","8.1","","101.02","","","","-44","","Snow Grains,Blowing Snow"
"-115.14","67.82","KUGLUKTUK A","2300903","2018-03-26 09:00","2018","03","26","09:00","-28.0","","-31.5","","72","","","","24","","26","","8.1","","100.98","","","","-42","","Snow Grains,Blowing Snow"
"-115.14","67.82","KUGLUKTUK A","2300903","2018-03-26 10:00","2018","03","26","10:00","-26.9","","-30.6","","72","","","","23","","26","","6.4","","100.94","","","","-41","","Snow Grains,Blowing Snow"
"-115.14","67.82","KUGLUKTUK A","2300903","2018-03-26 11:00","2018","03","26","11:00","-25.8","","-29.7","","70","","","","24","","25","","6.4","","100.92","","","","-39","","Snow Grains,Blowing Snow"
"-115.14","67.82","KUGLUKTUK A","2300903","2018-03-26 12:00","2018","03","26","12:00","-25.0","","-28.7","","72","","","","25","","23","","8.1","","100.88","","","","-38","","Snow Grains,Blowing Snow"
"-115.14","67.82","KUGLUKTUK A","2300903","2018-03-26 13:00","2018","03","26","13:00","-26.7","","-30.5","","71","","","","28","","21","","19.3","","100.91","","","","-39","","Snow Grains,Blowing Snow"
"-115.14","67.82","KUGLUKTUK A","2300903","2018-03-26 14:00","2018","03","26","14:00","-26.3","","-30.1","","71","","","","26","","23","","6.4","","100.95","","","","-39","","Snow Grains,Blowing Snow"
"-115.14","67.82","KUGLUKTUK A","2300903","2018-03-26 15:00","2018","03","26","15:00","-25.5","","-30.2","","65","","","","27","","18","","19.3","","100.97","","","","-37","","Snow Grains,Blowing Snow"
"-115.14","67.82","KUGLUKTUK A","2300903","2018-03-26 16:00","2018","03","26","16:00","-27.1","","-31.5","","67","","","","32","","24","","19.3","","100.99","","","","-40","","Ice Crystals"
"-115.14","67.82","KUGLUKTUK A","2300903","2018-03-26 17:00","2018","03","26","17:00","-28.9","","-33.2","","67","","","","28","","19","","19.3","","101.02","","","","-41","","Ice Crystals"
"-115.14","67.82","KUGLUKTUK A","2300903","2018-03-26 18:00","2018","03","26","18:00","-29.1","","-33.2","","69","","","","27","","19","","19.3","","101.05","","","","-42","","Ice Crystals"
"-115.14","67.82","KUGLUKTUK A","2300903","2018-03-26 19:00","2018","03","26","19:00","-29.2","","-33.4","","68","","","","28","","17","","19.3","","101.10","","","","-41","","Ice Crystals"
"-115.14","67.82","KUGLUKTUK A","2300903","2018-03-26 20:00","2018","03","26","20:00","-30.1","","-34.4","","67","","","","26","","16","","12.9","","101.11","","","","-42","","Ice Crystals"
"-115.14","67.82","KUGLUKTUK A","2300903","2018-03-26 21:00","2018","03","26","21:00","-30.9","","-35.1","","68","","","","25","","15","","9.7","","101.12","","","","-43","","Ice Crystals"
"-115.14","67.82","KUGLUKTUK A","2300903","2018-03-26 22:00","2018","03","26","22:00","-31.4","","-35.5","","68","","","","26","","14","","4.8","","101.14","","","","-43","","Ice Crystals,Blowing Snow"
"-115.14","67.82","KUGLUKTUK A","2300903","2018-03-26 23:00","2018","03","26","23:00","-32.5","","-36.1","","71","","","","26","","18","","4.0","","101.15","","","","-46","","Ice Crystals,Blowing Snow"
"-115.14","67.82","KUGLUKTUK A","2300903","2018-03-27 00:00","2018","03","27","00:00","-35.5","","-39.2","","70","","","","25","","19","","16.1","","101.16","","","","-50","","Ice Crystals,Blowing Snow"
"-115.14","67.82","KUGLUKTUK A","2300903","2018-03-27 01:00","2018","03","27","01:00","-33.3","","-37.2","","69","","","","26","","26","","19.3","","101.16","","","","-49","","Ice Crystals,Blowing Snow"
"-115.14","67.82","KUGLUKTUK A","2300903","2018-03-27 02:00","2018","03","27","02:00","-33.9","","-37.6","","70","","","","26","","23","","19.3","","101.19","","","","-49","","Ice Crystals,Blowing Snow"
"-115.14","67.82","KUGLUKTUK A","2300903","2018-03-27 03:00","2018","03","27","03:00","-35.2","","-38.9","","70","","","","26","","18","","19.3","","101.24","","","","-49","","Ice Crystals"
"-115.14","67.82","KUGLUKTUK A","2300903","2018-03-27 04:00","2018","03","27","04:00","-37.2","","-40.5","","73","","","","24","","12","","19.3","","101.25","","","","-49","","Ice Crystals"
"-115.14","67.82","KUGLUKTUK A","2300903","2018-03-27 05:00","2018","03","27","05:00","-35.5","","-38.7","","74","","","","26","","17","","24.1","","101.29","","","","-49","","Ice Crystals"
"-115.14","67.82","KUGLUKTUK A","2300903","2018-03-27 06:00","2018","03","27","06:00","-36.7","","-40.1","","72","","","","26","","8","","24.1","","101.32","","","","-46","","Ice Crystals"
"-115.14","67.82","KUGLUKTUK A","2300903","2018-03-27 07:00","2018","03","27","07:00","-37.3","","-40.5","","73","","","","26","","10","","24.1","","101.36","","","","-48","","NA"
"-115.14","67.82","KUGLUKTUK A","2300903","2018-03-27 08:00","2018","03","27","08:00","-37.1","","-40.6","","71","","","","24","","12","","24.1","","101.39","","","","-49","","Clear"
"-115.14","67.82","KUGLUKTUK A","2300903","2018-03-27 09:00","2018","03","27","09:00","-35.2","","-38.6","","72","","","","26","","8","","24.1","","101.41","","","","-44","","NA"
"-115.14","67.82","KUGLUKTUK A","2300903","2018-03-27 10:00","2018","03","27","10:00","-36.4","","-40.2","","69","","","","1","","4","","24.1","","101.47","","","","-42","","NA"
"-115.14","67.82","KUGLUKTUK A","2300903","2018-03-27 11:00","2018","03","27","11:00","-35.3","","-39.1","","69","","","","12","","4","","24.1","","101.52","","","","-40","","Clear"
"-115.14","67.82","KUGLUKTUK A","2300903","2018-03-27 12:00","2018","03","27","12:00","-34.4","","-38.1","","70","","","","36","","3","","24.1","","101.59","","","","-38","","Ice Crystals"
"-115.14","67.82","KUGLUKTUK A","2300903","2018-03-27 13:00","2018","03","27","13:00","-33.1","","-37.3","","67","","","","36","","3","","24.1","","101.63","","","","-37","","Ice Crystals"
"-115.14","67.82","KUGLUKTUK A","2300903","2018-03-27 14:00","2018","03","27","14:00","-32.5","","-37.2","","64","","","","33","","4","","24.1","","101.71","","","","-37","","Clear"
"-115.14","67.82","KUGLUKTUK A","2300903","2018-03-27 15:00","2018","03","27","15:00","-32.8","","-36.8","","68","","","","13","","4","","24.1","","101.78","","","","-38","","NA"
"-115.14","67.82","KUGLUKTUK A","2300903","2018-03-27 16:00","2018","03","27","16:00","-33.0","","-37.2","","67","","","","36","","1","","24.1","","101.87","","","","-34","","NA"
"-115.14","67.82","KUGLUKTUK A","2300903","2018-03-27 17:00","2018","03","27","17:00","-33.0","","-37.2","","67","","","","22","","5","","24.1","","101.96","","","","-39","","Clear"
"-115.14","67.82","KUGLUKTUK A","2300903","2018-03-27 18:00","2018","03","27","18:00","-33.7","","-37.6","","68","","","","24","","9","","24.1","","102.01","","","","-43","","NA"
"-115.14","67.82","KUGLUKTUK A","2300903","2018-03-27 19:00","2018","03","27","19:00","-34.9","","-38.7","","69","","","","24","","8","","24.1","","102.10","","","","-44","","NA"
"-115.14","67.82","KUGLUKTUK A","2300903","2018-03-27 20:00","2018","03","27","20:00","-35.4","","-38.7","","73","","","","22","","8","","24.1","","102.18","","","","-44","","Clear"
"-115.14","67.82","KUGLUKTUK A","2300903","2018-03-27 21:00","2018","03","27","21:00","-36.1","","-39.3","","74","","","","24","","10","","24.1","","102.25","","","","-46","","NA"
"-115.14","67.82","KUGLUKTUK A","2300903","2018-03-27 22:00","2018","03","27","22:00","-35.0","","-38.2","","73","","","","27","","17","","24.1","","102.31","","","","-48","","NA"
"-115.14","67.82","KUGLUKTUK A","2300903","2018-03-27 23:00","2018","03","27","23:00","-36.8","","-40.1","","73","","","","27","","12","","24.1","","102.38","","","","-48","","Clear"
"-115.14","67.82","KUGLUKTUK A","2300903","2018-03-28 00:00","2018","03","28","00:00","-37.5","","-40.9","","72","","","","23","","20","","24.1","","102.43","","","","-53","","NA"
"-115.14","67.82","KUGLUKTUK A","2300903","2018-03-28 01:00","2018","03","28","01:00","-37.5","","-41.0","","71","","","","23","","25","","19.3","","102.49","","","","-54","","Ice Crystals,Blowing Snow"
"-115.14","67.82","KUGLUKTUK A","2300903","2018-03-28 02:00","2018","03","28","02:00","-38.4","","-42.1","","69","","","","23","","28","","9.7","","102.53","","","","-56","","Ice Crystals,Blowing Snow"
"-115.14","67.82","KUGLUKTUK A","2300903","2018-03-28 03:00","2018","03","28","03:00","-37.8","","-41.5","","69","","","","23","","29","","16.1","","102.58","","","","-56","","Ice Crystals,Blowing Snow"
"-115.14","67.82","KUGLUKTUK A","2300903","2018-03-28 04:00","2018","03","28","04:00","-37.7","","-41.4","","69","","","","23","","29","","12.9","","102.64","","","","-55","","Ice Crystals,Blowing Snow"
"-115.14","67.82","KUGLUKTUK A","2300903","2018-03-28 05:00","2018","03","28","05:00","-37.8","","-41.5","","69","","","","24","","30","","9.7","","102.70","","","","-56","","Ice Crystals,Blowing Snow"
"-115.14","67.82","KUGLUKTUK A","2300903","2018-03-28 06:00","2018","03","28","06:00","-37.1","","-40.8","","70","","","","23","","30","","8.1","","102.75","","","","-55","","Ice Crystals,Blowing Snow"
"-115.14","67.82","KUGLUKTUK A","2300903","2018-03-28 07:00","2018","03","28","07:00","-35.4","","-39.0","","70","","","","23","","27","","8.1","","102.77","","","","-52","","Ice Crystals,Blowing Snow"
"-115.14","67.82","KUGLUKTUK A","2300903","2018-03-28 08:00","2018","03","28","08:00","-33.4","","-36.9","","71","","","","25","","31","","12.9","","102.80","","","","-50","","Ice Crystals,Blowing Snow"
"-115.14","67.82","KUGLUKTUK A","2300903","2018-03-28 09:00","2018","03","28","09:00","-32.3","","-35.8","","72","","","","26","","29","","12.9","","102.84","","","","-48","","Ice Crystals,Blowing Snow"
"-115.14","67.82","KUGLUKTUK A","2300903","2018-03-28 10:00","2018","03","28","10:00","-30.9","","-34.6","","71","","","","26","","26","","12.9","","102.89","","","","-46","","Ice Crystals,Blowing Snow"
"-115.14","67.82","KUGLUKTUK A","2300903","2018-03-28 11:00","2018","03","28","11:00","-28.7","","-32.5","","71","","","","27","","21","","12.9","","102.93","","","","-42","","Ice Crystals,Blowing Snow"
"-115.14","67.82","KUGLUKTUK A","2300903","2018-03-28 12:00","2018","03","28","12:00","-27.7","","-31.5","","70","","","","25","","21","","16.1","","102.97","","","","-40","","Ice Crystals,Blowing Snow"
"-115.14","67.82","KUGLUKTUK A","2300903","2018-03-28 13:00","2018","03","28","13:00","-26.8","","-30.8","","69","","","","26","","17","","24.1","","103.06","","","","-38","","Ice Crystals"
"-115.14","67.82","KUGLUKTUK A","2300903","2018-03-28 14:00","2018","03","28","14:00","-25.9","","-30.5","","66","","","","31","","10","","24.1","","103.11","","","","-34","","Ice Crystals"
"-115.14","67.82","KUGLUKTUK A","2300903","2018-03-28 15:00","2018","03","28","15:00","-25.6","","-30.0","","68","","","","27","","13","","24.1","","103.15","","","","-35","","Ice Crystals"
"-115.14","67.82","KUGLUKTUK A","2300903","2018-03-28 16:00","2018","03","28","16:00","-25.4","","-29.7","","68","","","","32","","17","","24.1","","103.17","","","","-36","","NA"
"-115.14","67.82","KUGLUKTUK A","2300903","2018-03-28 17:00","2018","03","28","17:00","-25.9","","-30.2","","68","","","","29","","12","","24.1","","103.24","","","","-35","","Mainly Clear"
"-115.14","67.82","KUGLUKTUK A","2300903","2018-03-28 18:00","2018","03","28","18:00","-27.1","","-31.3","","68","","","","29","","7","","24.1","","103.30","","","","-34","","NA"
"-115.14","67.82","KUGLUKTUK A","2300903","2018-03-28 19:00","2018","03","28","19:00","-28.0","","-31.9","","70","","","","27","","18","","24.1","","103.33","","","","-40","","NA"
"-115.14","67.82","KUGLUKTUK A","2300903","2018-03-28 20:00","2018","03","28","20:00","-28.8","","-32.4","","72","","","","27","","19","","24.1","","103.37","","","","-41","","Clear"
"-115.14","67.82","KUGLUKTUK A","2300903","2018-03-28 21:00","2018","03","28","21:00","-29.1","","-32.7","","72","","","","28","","17","","24.1","","103.40","","","","-41","","NA"
"-115.14","67.82","KUGLUKTUK A","2300903","2018-03-28 22:00","2018","03","28","22:00","-29.8","","-33.0","","74","","","","26","","16","","24.1","","103.44","","","","-42","","NA"
"-115.14","67.82","KUGLUKTUK A","2300903","2018-03-28 23:00","2018","03","28","23:00","-32.9","","-36.1","","74","","","","24","","22","","24.1","","103.44","","","","-47","","Ice Crystals"
"-115.14","67.82","KUGLUKTUK A","2300903","2018-03-29 00:00","2018","03","29","00:00","-32.2","","-35.5","","74","","","","24","","21","","24.1","","103.43","","","","-46","","Ice Crystals"
"-115.14","67.82","KUGLUKTUK A","2300903","2018-03-29 01:00","2018","03","29","01:00","-32.8","","-36.1","","73","","","","24","","23","","24.1","","103.44","","","","-48","","Ice Crystals"
"-115.14","67.82","KUGLUKTUK A","2300903","2018-03-29 02:00","2018","03","29","02:00","-30.6","","-33.5","","76","","","","26","","26","","24.1","","103.45","","","","-45","","Ice Crystals,Blowing Snow"
"-115.14","67.82","KUGLUKTUK A","2300903","2018-03-29 03:00","2018","03","29","03:00","-31.7","","-35.0","","73","","","","25","","25","","16.1","","103.48","","","","-47","","Ice Crystals,Blowing Snow"
"-115.14","67.82","KUGLUKTUK A","2300903","2018-03-29 04:00","2018","03","29","04:00","-30.9","","-34.2","","73","","","","26","","28","","24.1","","103.50","","","","-46","","Ice Crystals,Blowing Snow"
"-115.14","67.82","KUGLUKTUK A","2300903","2018-03-29 05:00","2018","03","29","05:00","-30.3","","-33.6","","74","","","","25","","30","","24.1","","103.50","","","","-46","","Ice Crystals,Blowing Snow"
"-115.14","67.82","KUGLUKTUK A","2300903","2018-03-29 06:00","2018","03","29","06:00","-30.6","","-33.9","","73","","","","26","","35","","24.1","","103.51","","","","-47","","Blowing Snow"
"-115.14","67.82","KUGLUKTUK A","2300903","2018-03-29 07:00","2018","03","29","07:00","-30.4","","-33.9","","72","","","","26","","31","","24.1","","103.51","","","","-46","","Blowing Snow"
"-115.14","67.82","KUGLUKTUK A","2300903","2018-03-29 08:00","2018","03","29","08:00","-29.5","","-33.2","","71","","","","26","","34","","24.1","","103.49","","","","-46","","Blowing Snow"
"-115.14","67.82","KUGLUKTUK A","2300903","2018-03-29 09:00","2018","03","29","09:00","-29.0","","-33.0","","69","","","","26","","32","","24.1","","103.47","","","","-45","","Blowing Snow"
"-115.14","67.82","KUGLUKTUK A","2300903","2018-03-29 10:00","2018","03","29","10:00","-27.6","","-31.4","","70","","","","26","","30","","24.1","","103.47","","","","-42","","Blowing Snow"
"-115.14","67.82","KUGLUKTUK A","2300903","2018-03-29 11:00","2018","03","29","11:00","-26.8","","-31.0","","68","","","","25","","30","","24.1","","103.46","","","","-41","","Blowing Snow"
"-115.14","67.82","KUGLUKTUK A","2300903","2018-03-29 12:00","2018","03","29","12:00","-25.6","","-29.9","","68","","","","25","","33","","24.1","","103.45","","","","-40","","Blowing Snow"
"-115.14","67.82","KUGLUKTUK A","2300903","2018-03-29 13:00","2018","03","29","13:00","-24.2","","-28.5","","69","","","","25","","32","","24.1","","103.42","","","","-38","","Blowing Snow"
"-115.14","67.82","KUGLUKTUK A","2300903","2018-03-29 14:00","2018","03","29","14:00","-23.3","","-27.5","","69","","","","26","","34","","24.1","","103.40","","","","-38","","Ice Crystals,Blowing Snow"
"-115.14","67.82","KUGLUKTUK A","2300903","2018-03-29 15:00","2018","03","29","15:00","-22.3","","-26.7","","68","","","","26","","36","","24.1","","103.39","","","","-37","","Blowing Snow"
"-115.14","67.82","KUGLUKTUK A","2300903","2018-03-29 16:00","2018","03","29","16:00","-21.6","","-26.0","","69","","","","27","","36","","24.1","","103.35","","","","-36","","Blowing Snow"
"-115.14","67.82","KUGLUKTUK A","2300903","2018-03-29 17:00","2018","03","29","17:00","-21.6","","-25.9","","69","","","","25","","27","","24.1","","103.40","","","","-34","","Blowing Snow"
"-115.14","67.82","KUGLUKTUK A","2300903","2018-03-29 18:00","2018","03","29","18:00","-21.0","","-25.3","","69","","","","26","","26","","24.1","","103.40","","","","-33","","Blowing Snow"
"-115.14","67.82","KUGLUKTUK A","2300903","2018-03-29 19:00","2018","03","29","19:00","-22.7","","-26.9","","70","","","","25","","25","","24.1","","103.39","","","","-35","","Blowing Snow"
"-115.14","67.82","KUGLUKTUK A","2300903","2018-03-29 20:00","2018","03","29","20:00","-22.6","","-26.9","","69","","","","26","","31","","24.1","","103.37","","","","-36","","Blowing Snow"
"-115.14","67.82","KUGLUKTUK A","2300903","2018-03-29 21:00","2018","03","29","21:00","-23.2","","-27.4","","69","","","","26","","32","","24.1","","103.35","","","","-37","","Blowing Snow"
"-115.14","67.82","KUGLUKTUK A","2300903","2018-03-29 22:00","2018","03","29","22:00","-23.4","","-27.9","","68","","","","26","","34","","24.1","","103.33","","","","-38","","Blowing Snow"
"-115.14","67.82","KUGLUKTUK A","2300903","2018-03-29 23:00","2018","03","29","23:00","-23.5","","-28.2","","66","","","","25","","31","","24.1","","103.31","","","","-37","","Blowing Snow"
"-115.14","67.82","KUGLUKTUK A","2300903","2018-03-30 00:00","2018","03","30","00:00","-23.4","","-28.2","","65","","","","26","","35","","24.1","","103.29","","","","-38","","Blowing Snow"
"-115.14","67.82","KUGLUKTUK A","2300903","2018-03-30 01:00","2018","03","30","01:00","-23.1","","-27.5","","68","","","","25","","32","","24.1","","103.27","","","","-37","","Blowing Snow"
"-115.14","67.82","KUGLUKTUK A","2300903","2018-03-30 02:00","2018","03","30","02:00","-23.2","","-27.8","","67","","","","26","","34","","24.1","","103.24","","","","-37","","Blowing Snow"
"-115.14","67.82","KUGLUKTUK A","2300903","2018-03-30 03:00","2018","03","30","03:00","-23.4","","-27.8","","68","","","","25","","36","","24.1","","103.17","","","","-38","","Blowing Snow"
"-115.14","67.82","KUGLUKTUK A","2300903","2018-03-30 04:00","2018","03","30","04:00","-23.6","","-27.9","","68","","","","25","","36","","24.1","","103.12","","","","-38","","Blowing Snow"
"-115.14","67.82","KUGLUKTUK A","2300903","2018-03-30 05:00","2018","03","30","05:00","-23.2","","-28.3","","64","","","","25","","33","","24.1","","103.13","","","","-37","","Blowing Snow"
"-115.14","67.82","KUGLUKTUK A","2300903","2018-03-30 06:00","2018","03","30","06:00","-23.6","","-28.5","","64","","","","25","","30","","24.1","","103.15","","","","-37","","Blowing Snow"
"-115.14","67.82","KUGLUKTUK A","2300903","2018-03-30 07:00","2018","03","30","07:00","-24.1","","-28.7","","66","","","","24","","34","","24.1","","103.10","","","","-39","","Blowing Snow"
"-115.14","67.82","KUGLUKTUK A","2300903","2018-03-30 08:00","2018","03","30","08:00","-22.8","","-27.8","","64","","","","24","","28","","24.1","","103.10","","","","-36","","Blowing Snow"
"-115.14","67.82","KUGLUKTUK A","2300903","2018-03-30 09:00","2018","03","30","09:00","-23.0","","-27.7","","66","","","","24","","34","","24.1","","103.08","","","","-37","","Blowing Snow"
"-115.14","67.82","KUGLUKTUK A","2300903","2018-03-30 10:00","2018","03","30","10:00","-22.3","","-27.3","","64","","","","24","","31","","24.1","","103.08","","","","-36","","Blowing Snow"
"-115.14","67.82","KUGLUKTUK A","2300903","2018-03-30 11:00","2018","03","30","11:00","-20.9","","-25.7","","66","","","","24","","28","","24.1","","103.03","","","","-33","","Blowing Snow"
"-115.14","67.82","KUGLUKTUK A","2300903","2018-03-30 12:00","2018","03","30","12:00","-19.4","","-24.3","","66","","","","24","","28","","24.1","","102.98","","","","-31","","Blowing Snow"
"-115.14","67.82","KUGLUKTUK A","2300903","2018-03-30 13:00","2018","03","30","13:00","-18.0","","-24.2","","59","","","","26","","35","","24.1","","102.93","","","","-31","","Blowing Snow"
"-115.14","67.82","KUGLUKTUK A","2300903","2018-03-30 14:00","2018","03","30","14:00","-17.5","","-22.4","","66","","","","24","","30","","24.1","","102.92","","","","-29","","Blowing Snow"
"-115.14","67.82","KUGLUKTUK A","2300903","2018-03-30 15:00","2018","03","30","15:00","-16.3","","-21.9","","62","","","","27","","34","","24.1","","102.89","","","","-28","","Blowing Snow"
"-115.14","67.82","KUGLUKTUK A","2300903","2018-03-30 16:00","2018","03","30","16:00","-16.0","","-21.6","","62","","","","26","","23","","24.1","","102.90","","","","-26","","Blowing Snow"
"-115.14","67.82","KUGLUKTUK A","2300903","2018-03-30 17:00","2018","03","30","17:00","-15.4","","-21.4","","61","","","","29","","31","","24.1","","102.83","","","","-27","","Blowing Snow"
"-115.14","67.82","KUGLUKTUK A","2300903","2018-03-30 18:00","2018","03","30","18:00","-15.2","","-21.7","","58","","","","25","","28","","24.1","","102.81","","","","-26","","Blowing Snow"
"-115.14","67.82","KUGLUKTUK A","2300903","2018-03-30 19:00","2018","03","30","19:00","-16.9","","-21.8","","67","","","","25","","26","","24.1","","102.76","","","","-28","","Blowing Snow"
"-115.14","67.82","KUGLUKTUK A","2300903","2018-03-30 20:00","2018","03","30","20:00","-15.8","","-22.3","","58","","","","26","","30","","24.1","","102.73","","","","-27","","Blowing Snow"
"-115.14","67.82","KUGLUKTUK A","2300903","2018-03-30 21:00","2018","03","30","21:00","-16.6","","-23.3","","57","","","","28","","27","","24.1","","102.72","","","","-28","","Blowing Snow"
"-115.14","67.82","KUGLUKTUK A","2300903","2018-03-30 22:00","2018","03","30","22:00","-16.4","","-23.1","","57","","","","28","","27","","24.1","","102.71","","","","-27","","Blowing Snow"
"-115.14","67.82","KUGLUKTUK A","2300903","2018-03-30 23:00","2018","03","30","23:00","-16.9","","-23.4","","58","","","","29","","30","","24.1","","102.66","","","","-29","","Blowing Snow"
"-115.14","67.82","KUGLUKTUK A","2300903","2018-03-31 00:00","2018","03","31","00:00","-16.4","","-23.6","","54","","","","29","","30","","19.3","","102.64","","","","-28","","Blowing Snow"
"-115.14","67.82","KUGLUKTUK A","2300903","2018-03-31 01:00","2018","03","31","01:00","-16.8","","-23.3","","58","","","","29","","25","","24.1","","102.66","","","","-27","","Blowing Snow"
"-115.14","67.82","KUGLUKTUK A","2300903","2018-03-31 02:00","2018","03","31","02:00","-17.6","","-23.6","","60","","","","29","","20","","24.1","","102.65","","","","-27","","Blowing Snow"
"-115.14","67.82","KUGLUKTUK A","2300903","2018-03-31 03:00","2018","03","31","03:00","-20.0","","-23.8","","72","","","","28","","14","","24.1","","102.68","","","","-29","","NA"
"-115.14","67.82","KUGLUKTUK A","2300903","2018-03-31 04:00","2018","03","31","04:00","-21.2","","-24.6","","75","","","","29","","25","","24.1","","102.64","","","","-33","","Blowing Snow"
"-115.14","67.82","KUGLUKTUK A","2300903","2018-03-31 05:00","2018","03","31","05:00","-21.1","","-24.3","","76","","","","26","","21","","24.1","","102.66","","","","-32","","Mainly Clear"
"-115.14","67.82","KUGLUKTUK A","2300903","2018-03-31 06:00","2018","03","31","06:00","-20.1","","-23.4","","76","","","","26","","27","","24.1","","102.65","","","","-32","","Blowing Snow"
"-115.14","67.82","KUGLUKTUK A","2300903","2018-03-31 07:00","2018","03","31","07:00","-20.3","","-23.6","","75","","","","26","","26","","24.1","","102.64","","","","-32","","Blowing Snow"
"-115.14","67.82","KUGLUKTUK A","2300903","2018-03-31 08:00","2018","03","31","08:00","-18.2","","-21.9","","73","","","","30","","22","","24.1","","102.65","","","","-29","","Mostly Cloudy"
"-115.14","67.82","KUGLUKTUK A","2300903","2018-03-31 09:00","2018","03","31","09:00","-17.5","","-21.3","","73","","","","27","","10","","19.3","","102.65","","","","-24","","NA"
"-115.14","67.82","KUGLUKTUK A","2300903","2018-03-31 10:00","2018","03","31","10:00","-17.4","","-20.9","","75","","","","33","","18","","19.3","","102.63","","","","-27","","NA"
"-115.14","67.82","KUGLUKTUK A","2300903","2018-03-31 11:00","2018","03","31","11:00","-16.9","","-21.2","","70","","","","34","","21","","19.3","","102.61","","","","-27","","Clear"
"-115.14","67.82","KUGLUKTUK A","2300903","2018-03-31 12:00","2018","03","31","12:00","-16.4","","-20.6","","70","","","","31","","30","","9.7","","102.59","","","","-28","","Blowing Snow"
"-115.14","67.82","KUGLUKTUK A","2300903","2018-03-31 13:00","2018","03","31","13:00","-16.2","","-18.7","","81","","","","28","","20","","2.4","","102.60","","","","-26","","Snow,Fog"
"-115.14","67.82","KUGLUKTUK A","2300903","2018-03-31 14:00","2018","03","31","14:00","-17.1","","-20.1","","77","","","","34","","28","","4.0","","102.59","","","","-28","","Fog,Blowing Snow"
"-115.14","67.82","KUGLUKTUK A","2300903","2018-03-31 15:00","2018","03","31","15:00","-17.8","","-21.1","","75","","","","34","","30","","4.8","","102.62","","","","-30","","Fog,Blowing Snow"
"-115.14","67.82","KUGLUKTUK A","2300903","2018-03-31 16:00","2018","03","31","16:00","-18.6","","-22.1","","74","","","","34","","25","","12.9","","102.61","","","","-30","","Ice Crystals,Blowing Snow"
"-115.14","67.82","KUGLUKTUK A","2300903","2018-03-31 17:00","2018","03","31","17:00","-19.3","","-23.0","","73","","","","33","","19","","24.1","","102.61","","","","-29","","Ice Crystals"
"-115.14","67.82","KUGLUKTUK A","2300903","2018-03-31 18:00","2018","03","31","18:00","-20.4","","-23.8","","74","","","","32","","12","","24.1","","102.63","","","","-29","","Ice Crystals"
"-115.14","67.82","KUGLUKTUK A","2300903","2018-03-31 19:00","2018","03","31","19:00","-22.0","","-25.2","","76","","","","31","","17","","24.1","","102.64","","","","-32","","NA"
"-115.14","67.82","KUGLUKTUK A","2300903","2018-03-31 20:00","2018","03","31","20:00","-23.3","","-26.1","","78","","","","30","","12","","24.1","","102.64","","","","-32","","Clear"
"-115.14","67.82","KUGLUKTUK A","2300903","2018-03-31 21:00","2018","03","31","21:00","-23.8","","-26.6","","78","","","","31","","7","","24.1","","102.62","","","","-30","","NA"
"-115.14","67.82","KUGLUKTUK A","2300903","2018-03-31 22:00","2018","03","31","22:00","-24.5","","-27.2","","79","","","","32","","7","","24.1","","102.58","","","","-31","","NA"
"-115.14","67.82","KUGLUKTUK A","2300903","2018-03-31 23:00","2018","03","31","23:00","-24.9","","-27.3","","81","","","","30","","6","","24.1","","102.56","","","","-31","","Clear"
