"Longitude (x)","Latitude (y)","Station Name","Climate ID","Date/Time (LST)","Year","Month","Day","Time (LST)","Temp (°C)","Temp Flag","Dew Point Temp (°C)","Dew Point Temp Flag","Rel Hum (%)","Rel Hum Flag","Precip. Amount (mm)","Precip. Amount Flag","Wind Dir (10s deg)","Wind Dir Flag","Wind Spd (km/h)","Wind Spd Flag","Visibility (km)","Visibility Flag","Stn Press (kPa)","Stn Press Flag","Hmdx","Hmdx Flag","Wind Chill","Wind Chill Flag","Weather"
"-115.14","67.82","KUGLUKTUK A","2300903","2019-02-01 00:00","2019","02","01","00:00","-38.7","","-42.7","","67","","","","23","","24","","24.1","","102.83","","","","-55","","Ice Crystals,Blowing Snow"
"-115.14","67.82","KUGLUKTUK A","2300903","2019-02-01 01:00","2019","02","01","01:00","-39.6","","-43.6","","67","","","","22","","22","","19.3","","102.88","","","","-56","","Ice Crystals,Blowing Snow"
"-115.14","67.82","KUGLUKTUK A","2300903","2019-02-01 02:00","2019","02","01","02:00","-38.3","","-42.3","","67","","","","23","","27","","24.1","","102.90","","","","-56","","Ice Crystals,Blowing Snow"
"-115.14","67.82","KUGLUKTUK A","2300903","2019-02-01 03:00","2019","02","01","03:00","-37.4","","-41.4","","68","","","","22","","26","","19.3","","102.92","","","","-54","","Ice Crystals,Blowing Snow"
"-115.14","67.82","KUGLUKTUK A","2300903","2019-02-01 04:00","2019","02","01","04:00","-36.5","","-40.4","","68","","","","22","","27","","16.1","","102.98","","","","-53","","Ice Crystals,Blowing Snow"
"-115.14","67.82","KUGLUKTUK A","2300903","2019-02-01 05:00","2019","02","01","05:00","-36.0","","-39.9","","69","","","","22","","26","","16.1","","102.98","","","","-52","","Ice Crystals,Blowing Snow"
"-115.14","67.82","KUGLUKTUK A","2300903","2019-02-01 06:00","2019","02","01","06:00","-36.2","","-40.1","","69","","","","22","","25","","16.1","","102.99","","","","-52","","Ice Crystals,Blowing Snow"
"-115.14","67.82","KUGLUKTUK A","2300903","2019-02-01 07:00","2019","02","01","07:00","-33.6","","-37.2","","70","","","","23","","27","","16.1","","102.98","","","","-50","","Ice Crystals,Blowing Snow"
"-115.14","67.82","KUGLUKTUK A","2300903","2019-02-01 08:00","2019","02","01","08:00","-32.1","","-35.7","","71","","","","24","","27","","12.9","","102.99","","","","-48","","Snow Grains,Blowing Snow"
"-115.14","67.82","KUGLUKTUK A","2300903","2019-02-01 09:00","2019","02","01","09:00","-30.9","","-34.5","","72","","","","25","","25","","9.7","","103.02","","","","-46","","Snow Grains,Blowing Snow"
"-115.14","67.82","KUGLUKTUK A","2300903","2019-02-01 10:00","2019","02","01","10:00","-31.2","","-34.8","","72","","","","24","","27","","19.3","","103.03","","","","-46","","Snow Grains,Blowing Snow"
"-115.14","67.82","KUGLUKTUK A","2300903","2019-02-01 11:00","2019","02","01","11:00","-31.9","","-35.5","","71","","","","25","","29","","19.3","","103.05","","","","-48","","Blowing Snow"
"-115.14","67.82","KUGLUKTUK A","2300903","2019-02-01 12:00","2019","02","01","12:00","-32.3","","-36.0","","71","","","","22","","25","","19.3","","103.06","","","","-47","","Blowing Snow"
"-115.14","67.82","KUGLUKTUK A","2300903","2019-02-01 13:00","2019","02","01","13:00","-32.3","","-35.9","","71","","","","24","","31","","24.1","","103.06","","","","-49","","Blowing Snow"
"-115.14","67.82","KUGLUKTUK A","2300903","2019-02-01 14:00","2019","02","01","14:00","-32.9","","-36.5","","71","","","","24","","27","","24.1","","103.04","","","","-49","","Blowing Snow"
"-115.14","67.82","KUGLUKTUK A","2300903","2019-02-01 15:00","2019","02","01","15:00","-32.8","","-36.5","","70","","","","25","","31","","24.1","","103.03","","","","-49","","Blowing Snow"
"-115.14","67.82","KUGLUKTUK A","2300903","2019-02-01 16:00","2019","02","01","16:00","-33.9","","-37.7","","70","","","","25","","26","","24.1","","103.05","","","","-50","","Blowing Snow"
"-115.14","67.82","KUGLUKTUK A","2300903","2019-02-01 17:00","2019","02","01","17:00","-32.1","","-35.7","","71","","","","26","","34","","16.1","","103.03","","","","-49","","Blowing Snow"
"-115.14","67.82","KUGLUKTUK A","2300903","2019-02-01 18:00","2019","02","01","18:00","-32.2","","-35.9","","71","","","","26","","34","","16.1","","103.02","","","","-49","","Blowing Snow"
"-115.14","67.82","KUGLUKTUK A","2300903","2019-02-01 19:00","2019","02","01","19:00","-32.5","","-36.1","","71","","","","26","","30","","24.1","","103.04","","","","-49","","Blowing Snow"
"-115.14","67.82","KUGLUKTUK A","2300903","2019-02-01 20:00","2019","02","01","20:00","-32.8","","-36.5","","71","","","","26","","28","","24.1","","103.01","","","","-49","","Blowing Snow"
"-115.14","67.82","KUGLUKTUK A","2300903","2019-02-01 21:00","2019","02","01","21:00","-32.4","","-36.0","","71","","","","26","","28","","24.1","","103.02","","","","-48","","Ice Crystals,Blowing Snow"
"-115.14","67.82","KUGLUKTUK A","2300903","2019-02-01 22:00","2019","02","01","22:00","-33.7","","-37.5","","70","","","","22","","19","","19.3","","103.05","","","","-47","","Ice Crystals"
"-115.14","67.82","KUGLUKTUK A","2300903","2019-02-01 23:00","2019","02","01","23:00","-32.7","","-36.3","","71","","","","25","","28","","16.1","","103.03","","","","-49","","Ice Crystals,Blowing Snow"
"-115.14","67.82","KUGLUKTUK A","2300903","2019-02-02 00:00","2019","02","02","00:00","-32.1","","-35.6","","71","","","","24","","29","","16.1","","103.03","","","","-48","","Ice Crystals,Blowing Snow"
"-115.14","67.82","KUGLUKTUK A","2300903","2019-02-02 01:00","2019","02","02","01:00","-30.8","","-34.4","","72","","","","26","","31","","12.9","","103.03","","","","-47","","Ice Crystals,Blowing Snow"
"-115.14","67.82","KUGLUKTUK A","2300903","2019-02-02 02:00","2019","02","02","02:00","-30.3","","-33.7","","72","","","","26","","33","","16.1","","103.05","","","","-47","","Ice Crystals,Blowing Snow"
"-115.14","67.82","KUGLUKTUK A","2300903","2019-02-02 03:00","2019","02","02","03:00","-30.9","","-34.5","","72","","","","25","","31","","19.3","","103.06","","","","-47","","Ice Crystals,Blowing Snow"
"-115.14","67.82","KUGLUKTUK A","2300903","2019-02-02 04:00","2019","02","02","04:00","-30.5","","-34.0","","72","","","","25","","31","","19.3","","103.07","","","","-46","","Ice Crystals,Blowing Snow"
"-115.14","67.82","KUGLUKTUK A","2300903","2019-02-02 05:00","2019","02","02","05:00","-32.0","","-35.6","","71","","","","24","","24","","19.3","","103.09","","","","-47","","Ice Crystals,Blowing Snow"
"-115.14","67.82","KUGLUKTUK A","2300903","2019-02-02 06:00","2019","02","02","06:00","-32.8","","-36.4","","71","","","","23","","26","","19.3","","103.08","","","","-48","","Ice Crystals,Blowing Snow"
"-115.14","67.82","KUGLUKTUK A","2300903","2019-02-02 07:00","2019","02","02","07:00","-30.7","","-34.2","","72","","","","26","","34","","19.3","","103.06","","","","-47","","Ice Crystals,Blowing Snow"
"-115.14","67.82","KUGLUKTUK A","2300903","2019-02-02 08:00","2019","02","02","08:00","-32.8","","-36.5","","70","","","","24","","24","","19.3","","103.07","","","","-48","","Ice Crystals,Blowing Snow"
"-115.14","67.82","KUGLUKTUK A","2300903","2019-02-02 09:00","2019","02","02","09:00","-32.8","","-36.4","","71","","","","24","","22","","19.3","","103.09","","","","-47","","Blowing Snow"
"-115.14","67.82","KUGLUKTUK A","2300903","2019-02-02 10:00","2019","02","02","10:00","-32.4","","-36.1","","71","","","","24","","25","","24.1","","103.11","","","","-48","","Blowing Snow"
"-115.14","67.82","KUGLUKTUK A","2300903","2019-02-02 11:00","2019","02","02","11:00","-30.9","","-34.3","","72","","","","25","","26","","24.1","","103.12","","","","-46","","Blowing Snow"
"-115.14","67.82","KUGLUKTUK A","2300903","2019-02-02 12:00","2019","02","02","12:00","-31.4","","-35.0","","72","","","","24","","26","","24.1","","103.13","","","","-47","","Blowing Snow"
"-115.14","67.82","KUGLUKTUK A","2300903","2019-02-02 13:00","2019","02","02","13:00","-30.9","","-34.5","","72","","","","25","","19","","24.1","","103.13","","","","-44","","Blowing Snow"
"-115.14","67.82","KUGLUKTUK A","2300903","2019-02-02 14:00","2019","02","02","14:00","-31.1","","-34.7","","72","","","","24","","27","","24.1","","103.11","","","","-46","","Blowing Snow"
"-115.14","67.82","KUGLUKTUK A","2300903","2019-02-02 15:00","2019","02","02","15:00","-29.9","","-33.4","","72","","","","24","","26","","24.1","","103.13","","","","-45","","NA"
"-115.14","67.82","KUGLUKTUK A","2300903","2019-02-02 16:00","2019","02","02","16:00","-29.8","","-33.3","","72","","","","24","","26","","24.1","","103.15","","","","-44","","NA"
"-115.14","67.82","KUGLUKTUK A","2300903","2019-02-02 17:00","2019","02","02","17:00","-30.0","","-33.5","","72","","","","24","","26","","24.1","","103.15","","","","-45","","Mainly Clear"
"-115.14","67.82","KUGLUKTUK A","2300903","2019-02-02 18:00","2019","02","02","18:00","-30.9","","-34.5","","72","","","","23","","26","","24.1","","103.13","","","","-46","","NA"
"-115.14","67.82","KUGLUKTUK A","2300903","2019-02-02 19:00","2019","02","02","19:00","-29.9","","-33.5","","72","","","","24","","28","","24.1","","103.11","","","","-45","","NA"
"-115.14","67.82","KUGLUKTUK A","2300903","2019-02-02 20:00","2019","02","02","20:00","-30.7","","-34.3","","71","","","","23","","28","","24.1","","103.08","","","","-46","","Clear"
"-115.14","67.82","KUGLUKTUK A","2300903","2019-02-02 21:00","2019","02","02","21:00","-31.7","","-35.3","","71","","","","22","","22","","24.1","","103.08","","","","-46","","NA"
"-115.14","67.82","KUGLUKTUK A","2300903","2019-02-02 22:00","2019","02","02","22:00","-32.0","","-35.6","","71","","","","22","","27","","24.1","","103.04","","","","-48","","NA"
"-115.14","67.82","KUGLUKTUK A","2300903","2019-02-02 23:00","2019","02","02","23:00","-31.0","","-34.7","","71","","","","23","","24","","24.1","","103.03","","","","-45","","Mainly Clear"
"-115.14","67.82","KUGLUKTUK A","2300903","2019-02-03 00:00","2019","02","03","00:00","-30.9","","-34.6","","71","","","","23","","27","","19.3","","103.05","","","","-46","","Ice Crystals"
"-115.14","67.82","KUGLUKTUK A","2300903","2019-02-03 01:00","2019","02","03","01:00","-31.4","","-35.1","","70","","","","22","","27","","19.3","","103.03","","","","-47","","Ice Crystals"
"-115.14","67.82","KUGLUKTUK A","2300903","2019-02-03 02:00","2019","02","03","02:00","-32.3","","-36.1","","70","","","","23","","24","","24.1","","103.06","","","","-47","","Ice Crystals"
"-115.14","67.82","KUGLUKTUK A","2300903","2019-02-03 03:00","2019","02","03","03:00","-33.0","","-36.8","","70","","","","22","","23","","24.1","","103.03","","","","-48","","NA"
"-115.14","67.82","KUGLUKTUK A","2300903","2019-02-03 04:00","2019","02","03","04:00","-32.3","","-36.1","","70","","","","22","","25","","24.1","","103.02","","","","-47","","NA"
"-115.14","67.82","KUGLUKTUK A","2300903","2019-02-03 05:00","2019","02","03","05:00","-32.4","","-36.2","","70","","","","22","","25","","24.1","","103.00","","","","-48","","Clear"
"-115.14","67.82","KUGLUKTUK A","2300903","2019-02-03 06:00","2019","02","03","06:00","-32.4","","-36.3","","69","","","","23","","21","","24.1","","103.01","","","","-46","","NA"
"-115.14","67.82","KUGLUKTUK A","2300903","2019-02-03 07:00","2019","02","03","07:00","-33.5","","-37.4","","69","","","","22","","22","","24.1","","103.02","","","","-48","","NA"
"-115.14","67.82","KUGLUKTUK A","2300903","2019-02-03 08:00","2019","02","03","08:00","-33.8","","-37.7","","69","","","","21","","17","","24.1","","103.02","","","","-47","","Clear"
"-115.14","67.82","KUGLUKTUK A","2300903","2019-02-03 09:00","2019","02","03","09:00","-34.2","","-38.0","","69","","","","22","","17","","24.1","","103.00","","","","-47","","NA"
"-115.14","67.82","KUGLUKTUK A","2300903","2019-02-03 10:00","2019","02","03","10:00","-33.8","","-37.6","","69","","","","22","","21","","24.1","","103.01","","","","-48","","NA"
"-115.14","67.82","KUGLUKTUK A","2300903","2019-02-03 11:00","2019","02","03","11:00","-33.4","","-37.3","","69","","","","22","","22","","24.1","","103.02","","","","-48","","Clear"
"-115.14","67.82","KUGLUKTUK A","2300903","2019-02-03 12:00","2019","02","03","12:00","-32.0","","-35.9","","69","","","","29","","5","","24.1","","103.03","","","","-38","","NA"
"-115.14","67.82","KUGLUKTUK A","2300903","2019-02-03 13:00","2019","02","03","13:00","-32.6","","-36.5","","69","","","","31","","6","","24.1","","103.05","","","","-40","","NA"
"-115.14","67.82","KUGLUKTUK A","2300903","2019-02-03 14:00","2019","02","03","14:00","-32.4","","-36.4","","68","","","","23","","10","","24.1","","103.08","","","","-42","","Clear"
"-115.14","67.82","KUGLUKTUK A","2300903","2019-02-03 15:00","2019","02","03","15:00","-34.1","","-37.9","","69","","","","25","","8","","24.1","","103.10","","","","-43","","NA"
"-115.14","67.82","KUGLUKTUK A","2300903","2019-02-03 16:00","2019","02","03","16:00","-34.9","","-38.8","","68","","","","20","","12","","24.1","","103.07","","","","-46","","NA"
"-115.14","67.82","KUGLUKTUK A","2300903","2019-02-03 17:00","2019","02","03","17:00","-36.5","","-40.4","","68","","","","36","","2","","24.1","","103.09","","","","-39","","Clear"
"-115.14","67.82","KUGLUKTUK A","2300903","2019-02-03 18:00","2019","02","03","18:00","-36.7","","-40.3","","70","","","","13","","4","","24.1","","103.07","","","","-42","","NA"
"-115.14","67.82","KUGLUKTUK A","2300903","2019-02-03 19:00","2019","02","03","19:00","-38.5","","-42.3","","68","","","","31","","7","","24.1","","103.09","","","","-47","","NA"
"-115.14","67.82","KUGLUKTUK A","2300903","2019-02-03 20:00","2019","02","03","20:00","-37.8","","-41.5","","69","","","","15","","9","","24.1","","103.04","","","","-48","","Clear"
"-115.14","67.82","KUGLUKTUK A","2300903","2019-02-03 21:00","2019","02","03","21:00","-38.8","","-42.6","","69","","","","31","","7","","24.1","","103.06","","","","-48","","NA"
"-115.14","67.82","KUGLUKTUK A","2300903","2019-02-03 22:00","2019","02","03","22:00","-37.8","","-41.5","","69","","","","13","","10","","24.1","","103.03","","","","-48","","NA"
"-115.14","67.82","KUGLUKTUK A","2300903","2019-02-03 23:00","2019","02","03","23:00","-39.4","","-43.3","","68","","","","32","","5","","24.1","","103.02","","","","-46","","Clear"
"-115.14","67.82","KUGLUKTUK A","2300903","2019-02-04 00:00","2019","02","04","00:00","-38.0","","-41.8","","69","","","","36","","2","","24.1","","103.01","","","","-41","","NA"
"-115.14","67.82","KUGLUKTUK A","2300903","2019-02-04 01:00","2019","02","04","01:00","-38.5","","-42.4","","68","","","","11","","7","","24.1","","102.99","","","","-47","","NA"
"-115.14","67.82","KUGLUKTUK A","2300903","2019-02-04 02:00","2019","02","04","02:00","-38.8","","-42.7","","67","","","","34","","3","","24.1","","103.00","","","","-43","","Clear"
"-115.14","67.82","KUGLUKTUK A","2300903","2019-02-04 03:00","2019","02","04","03:00","-38.7","","-42.6","","68","","","","36","","2","","16.1","","102.96","","","","-41","","NA"
"-115.14","67.82","KUGLUKTUK A","2300903","2019-02-04 04:00","2019","02","04","04:00","-37.8","","-41.7","","68","","","","36","","2","","24.1","","102.94","","","","-40","","NA"
"-115.14","67.82","KUGLUKTUK A","2300903","2019-02-04 05:00","2019","02","04","05:00","-39.1","","-43.1","","67","","","","34","","4","","24.1","","102.90","","","","-45","","Clear"
"-115.14","67.82","KUGLUKTUK A","2300903","2019-02-04 06:00","2019","02","04","06:00","-39.4","","-43.4","","67","","","","0","","1","","24.1","","102.87","","","","-41","","NA"
"-115.14","67.82","KUGLUKTUK A","2300903","2019-02-04 07:00","2019","02","04","07:00","-39.4","","-43.3","","67","","","","34","","4","","24.1","","102.87","","","","-45","","Ice Crystals"
"-115.14","67.82","KUGLUKTUK A","2300903","2019-02-04 08:00","2019","02","04","08:00","-40.4","","-44.5","","66","","","","31","","9","","24.1","","102.85","","","","-51","","Ice Crystals"
"-115.14","67.82","KUGLUKTUK A","2300903","2019-02-04 09:00","2019","02","04","09:00","-39.6","","-43.6","","67","","","","29","","4","","24.1","","102.84","","","","-45","","NA"
"-115.14","67.82","KUGLUKTUK A","2300903","2019-02-04 10:00","2019","02","04","10:00","-39.2","","-43.2","","67","","","","30","","3","","24.1","","102.84","","","","-43","","NA"
"-115.14","67.82","KUGLUKTUK A","2300903","2019-02-04 11:00","2019","02","04","11:00","-39.2","","-43.2","","67","","","","32","","6","","24.1","","102.82","","","","-47","","Clear"
"-115.14","67.82","KUGLUKTUK A","2300903","2019-02-04 12:00","2019","02","04","12:00","-40.0","","-44.1","","66","","","","11","","4","","24.1","","102.80","","","","-46","","NA"
"-115.14","67.82","KUGLUKTUK A","2300903","2019-02-04 13:00","2019","02","04","13:00","-39.5","","-43.6","","66","","","","15","","8","","24.1","","102.79","","","","-49","","NA"
"-115.14","67.82","KUGLUKTUK A","2300903","2019-02-04 14:00","2019","02","04","14:00","-38.8","","-42.8","","67","","","","36","","5","","24.1","","102.77","","","","-46","","Clear"
"-115.14","67.82","KUGLUKTUK A","2300903","2019-02-04 15:00","2019","02","04","15:00","-39.1","","-43.1","","67","","","","36","","3","","24.1","","102.79","","","","-43","","NA"
"-115.14","67.82","KUGLUKTUK A","2300903","2019-02-04 16:00","2019","02","04","16:00","-38.9","","-42.9","","67","","","","32","","5","","24.1","","102.80","","","","-46","","NA"
"-115.14","67.82","KUGLUKTUK A","2300903","2019-02-04 17:00","2019","02","04","17:00","-36.9","","-40.8","","68","","","","25","","9","","24.1","","102.82","","","","-47","","Clear"
"-115.14","67.82","KUGLUKTUK A","2300903","2019-02-04 18:00","2019","02","04","18:00","-39.3","","-43.4","","67","","","","16","","14","","24.1","","102.81","","","","-52","","NA"
"-115.14","67.82","KUGLUKTUK A","2300903","2019-02-04 19:00","2019","02","04","19:00","-40.5","","-44.6","","66","","","","32","","7","","24.1","","102.81","","","","-49","","Ice Crystals"
"-115.14","67.82","KUGLUKTUK A","2300903","2019-02-04 20:00","2019","02","04","20:00","-37.7","","-41.6","","68","","","","31","","4","","24.1","","102.80","","","","-43","","Ice Crystals"
"-115.14","67.82","KUGLUKTUK A","2300903","2019-02-04 21:00","2019","02","04","21:00","-34.2","","-37.9","","70","","","","36","","1","","24.1","","102.78","","","","-35","","NA"
"-115.14","67.82","KUGLUKTUK A","2300903","2019-02-04 22:00","2019","02","04","22:00","-32.8","","-36.5","","71","","","","25","","5","","24.1","","102.77","","","","-39","","NA"
"-115.14","67.82","KUGLUKTUK A","2300903","2019-02-04 23:00","2019","02","04","23:00","-35.8","","-39.4","","70","","","","31","","6","","24.1","","102.79","","","","-43","","Ice Crystals"
"-115.14","67.82","KUGLUKTUK A","2300903","2019-02-05 00:00","2019","02","05","00:00","-31.1","","-34.6","","72","","","","23","","17","","24.1","","102.81","","","","-44","","Ice Crystals"
"-115.14","67.82","KUGLUKTUK A","2300903","2019-02-05 01:00","2019","02","05","01:00","-32.0","","-35.6","","71","","","","19","","8","","24.1","","102.84","","","","-40","","NA"
"-115.14","67.82","KUGLUKTUK A","2300903","2019-02-05 02:00","2019","02","05","02:00","-31.9","","-35.5","","72","","","","22","","9","","24.1","","102.86","","","","-41","","Clear"
"-115.14","67.82","KUGLUKTUK A","2300903","2019-02-05 03:00","2019","02","05","03:00","-30.6","","-34.1","","72","","","","20","","21","","24.1","","102.85","","","","-44","","NA"
"-115.14","67.82","KUGLUKTUK A","2300903","2019-02-05 04:00","2019","02","05","04:00","-32.5","","-36.2","","70","","","","26","","6","","24.1","","102.87","","","","-39","","NA"
"-115.14","67.82","KUGLUKTUK A","2300903","2019-02-05 05:00","2019","02","05","05:00","-32.2","","-35.8","","71","","","","19","","15","","24.1","","102.88","","","","-44","","Clear"
"-115.14","67.82","KUGLUKTUK A","2300903","2019-02-05 06:00","2019","02","05","06:00","-31.3","","-34.8","","72","","","","21","","17","","24.1","","102.88","","","","-44","","NA"
"-115.14","67.82","KUGLUKTUK A","2300903","2019-02-05 07:00","2019","02","05","07:00","-32.1","","-35.6","","72","","","","23","","14","","24.1","","102.91","","","","-44","","NA"
"-115.14","67.82","KUGLUKTUK A","2300903","2019-02-05 08:00","2019","02","05","08:00","-30.8","","-34.3","","72","","","","21","","16","","24.1","","102.94","","","","-43","","Clear"
"-115.14","67.82","KUGLUKTUK A","2300903","2019-02-05 09:00","2019","02","05","09:00","-29.3","","-32.7","","73","","","","20","","12","","24.1","","102.96","","","","-39","","NA"
"-115.14","67.82","KUGLUKTUK A","2300903","2019-02-05 10:00","2019","02","05","10:00","-29.7","","-33.2","","73","","","","19","","12","","24.1","","102.98","","","","-40","","NA"
"-115.14","67.82","KUGLUKTUK A","2300903","2019-02-05 11:00","2019","02","05","11:00","-29.0","","-32.5","","72","","","","23","","19","","24.1","","102.97","","","","-42","","Mainly Clear"
"-115.14","67.82","KUGLUKTUK A","2300903","2019-02-05 12:00","2019","02","05","12:00","-28.9","","-32.6","","71","","","","21","","7","","24.1","","102.98","","","","-36","","NA"
"-115.14","67.82","KUGLUKTUK A","2300903","2019-02-05 13:00","2019","02","05","13:00","-28.4","","-32.5","","69","","","","23","","17","","24.1","","103.00","","","","-40","","NA"
"-115.14","67.82","KUGLUKTUK A","2300903","2019-02-05 14:00","2019","02","05","14:00","-31.1","","-34.7","","71","","","","27","","6","","24.1","","103.04","","","","-38","","Mainly Clear"
"-115.14","67.82","KUGLUKTUK A","2300903","2019-02-05 15:00","2019","02","05","15:00","-29.6","","-33.7","","68","","","","23","","20","","24.1","","103.07","","","","-43","","NA"
"-115.14","67.82","KUGLUKTUK A","2300903","2019-02-05 16:00","2019","02","05","16:00","-29.4","","-33.5","","68","","","","23","","14","","24.1","","103.09","","","","-40","","NA"
"-115.14","67.82","KUGLUKTUK A","2300903","2019-02-05 17:00","2019","02","05","17:00","-29.7","","-33.6","","70","","","","23","","21","","24.1","","103.10","","","","-43","","Mainly Clear"
"-115.14","67.82","KUGLUKTUK A","2300903","2019-02-05 18:00","2019","02","05","18:00","-30.6","","-34.7","","68","","","","23","","17","","24.1","","103.08","","","","-43","","NA"
"-115.14","67.82","KUGLUKTUK A","2300903","2019-02-05 19:00","2019","02","05","19:00","-29.2","","-33.3","","69","","","","24","","16","","24.1","","103.07","","","","-41","","NA"
"-115.14","67.82","KUGLUKTUK A","2300903","2019-02-05 20:00","2019","02","05","20:00","-30.2","","-34.2","","69","","","","23","","20","","24.1","","103.07","","","","-43","","Mainly Clear"
"-115.14","67.82","KUGLUKTUK A","2300903","2019-02-05 21:00","2019","02","05","21:00","-30.6","","-34.4","","70","","","","23","","19","","24.1","","103.10","","","","-44","","NA"
"-115.14","67.82","KUGLUKTUK A","2300903","2019-02-05 22:00","2019","02","05","22:00","-30.8","","-34.8","","69","","","","23","","26","","24.1","","103.08","","","","-46","","NA"
"-115.14","67.82","KUGLUKTUK A","2300903","2019-02-05 23:00","2019","02","05","23:00","-30.5","","-34.4","","69","","","","24","","17","","24.1","","103.11","","","","-43","","Clear"
"-115.14","67.82","KUGLUKTUK A","2300903","2019-02-06 00:00","2019","02","06","00:00","-30.1","","-34.1","","69","","","","24","","16","","24.1","","103.14","","","","-42","","NA"
"-115.14","67.82","KUGLUKTUK A","2300903","2019-02-06 01:00","2019","02","06","01:00","-31.1","","-35.0","","70","","","","27","","7","","24.1","","103.18","","","","-39","","NA"
"-115.14","67.82","KUGLUKTUK A","2300903","2019-02-06 02:00","2019","02","06","02:00","-34.7","","-38.2","","71","","","","28","","11","","24.1","","103.20","","","","-45","","Clear"
"-115.14","67.82","KUGLUKTUK A","2300903","2019-02-06 03:00","2019","02","06","03:00","-32.2","","-35.7","","72","","","","25","","14","","24.1","","103.21","","","","-44","","Ice Crystals"
"-115.14","67.82","KUGLUKTUK A","2300903","2019-02-06 04:00","2019","02","06","04:00","-32.1","","-35.8","","71","","","","26","","8","","24.1","","103.21","","","","-40","","Ice Crystals"
"-115.14","67.82","KUGLUKTUK A","2300903","2019-02-06 05:00","2019","02","06","05:00","-30.9","","-34.5","","71","","","","24","","17","","19.3","","103.21","","","","-43","","Ice Crystals"
"-115.14","67.82","KUGLUKTUK A","2300903","2019-02-06 06:00","2019","02","06","06:00","-31.5","","-35.4","","70","","","","23","","18","","24.1","","103.22","","","","-44","","Ice Crystals"
"-115.14","67.82","KUGLUKTUK A","2300903","2019-02-06 07:00","2019","02","06","07:00","-32.8","","-36.4","","71","","","","31","","8","","24.1","","103.24","","","","-41","","Ice Crystals"
"-115.14","67.82","KUGLUKTUK A","2300903","2019-02-06 08:00","2019","02","06","08:00","-34.1","","-37.7","","71","","","","28","","12","","12.9","","103.26","","","","-45","","Ice Crystals"
"-115.14","67.82","KUGLUKTUK A","2300903","2019-02-06 09:00","2019","02","06","09:00","-30.2","","-34.1","","70","","","","24","","22","","24.1","","103.29","","","","-44","","Ice Crystals"
"-115.14","67.82","KUGLUKTUK A","2300903","2019-02-06 10:00","2019","02","06","10:00","-30.7","","-34.7","","68","","","","26","","11","","24.1","","103.32","","","","-41","","Ice Crystals"
"-115.14","67.82","KUGLUKTUK A","2300903","2019-02-06 11:00","2019","02","06","11:00","-32.0","","-35.9","","69","","","","22","","8","","24.1","","103.36","","","","-40","","Ice Crystals"
"-115.14","67.82","KUGLUKTUK A","2300903","2019-02-06 12:00","2019","02","06","12:00","-31.3","","-35.3","","69","","","","24","","8","","24.1","","103.39","","","","-40","","Ice Crystals"
"-115.14","67.82","KUGLUKTUK A","2300903","2019-02-06 13:00","2019","02","06","13:00","-31.4","","-35.8","","66","","","","23","","19","","24.1","","103.39","","","","-45","","Ice Crystals"
"-115.14","67.82","KUGLUKTUK A","2300903","2019-02-06 14:00","2019","02","06","14:00","-30.6","","-34.4","","70","","","","27","","7","","24.1","","103.43","","","","-38","","Ice Crystals"
"-115.14","67.82","KUGLUKTUK A","2300903","2019-02-06 15:00","2019","02","06","15:00","-32.1","","-36.0","","69","","","","26","","7","","24.1","","103.45","","","","-40","","Ice Crystals"
"-115.14","67.82","KUGLUKTUK A","2300903","2019-02-06 16:00","2019","02","06","16:00","-32.9","","-36.7","","70","","","","28","","10","","24.1","","103.48","","","","-43","","Ice Crystals"
"-115.14","67.82","KUGLUKTUK A","2300903","2019-02-06 17:00","2019","02","06","17:00","-35.4","","-39.4","","68","","","","28","","4","","24.1","","103.53","","","","-40","","Ice Crystals"
"-115.14","67.82","KUGLUKTUK A","2300903","2019-02-06 18:00","2019","02","06","18:00","-34.8","","-38.3","","71","","","","24","","11","","24.1","","103.55","","","","-45","","Ice Crystals"
"-115.14","67.82","KUGLUKTUK A","2300903","2019-02-06 19:00","2019","02","06","19:00","-33.1","","-36.5","","72","","","","23","","11","","24.1","","103.57","","","","-43","","Ice Crystals"
"-115.14","67.82","KUGLUKTUK A","2300903","2019-02-06 20:00","2019","02","06","20:00","-33.4","","-36.9","","72","","","","25","","12","","24.1","","103.59","","","","-44","","Ice Crystals"
"-115.14","67.82","KUGLUKTUK A","2300903","2019-02-06 21:00","2019","02","06","21:00","-33.9","","-37.3","","72","","","","25","","10","","24.1","","103.61","","","","-44","","Ice Crystals"
"-115.14","67.82","KUGLUKTUK A","2300903","2019-02-06 22:00","2019","02","06","22:00","-33.1","","-36.5","","72","","","","25","","9","","24.1","","103.63","","","","-42","","Ice Crystals"
"-115.14","67.82","KUGLUKTUK A","2300903","2019-02-06 23:00","2019","02","06","23:00","-35.6","","-39.2","","70","","","","23","","16","","24.1","","103.66","","","","-49","","Ice Crystals"
"-115.14","67.82","KUGLUKTUK A","2300903","2019-02-07 00:00","2019","02","07","00:00","-33.1","","-36.6","","71","","","","23","","17","","24.1","","103.68","","","","-46","","Ice Crystals"
"-115.14","67.82","KUGLUKTUK A","2300903","2019-02-07 01:00","2019","02","07","01:00","-33.6","","-37.3","","70","","","","23","","17","","24.1","","103.71","","","","-47","","Ice Crystals"
"-115.14","67.82","KUGLUKTUK A","2300903","2019-02-07 02:00","2019","02","07","02:00","-33.9","","-37.5","","71","","","","23","","15","","24.1","","103.74","","","","-46","","Ice Crystals"
"-115.14","67.82","KUGLUKTUK A","2300903","2019-02-07 03:00","2019","02","07","03:00","-34.3","","-37.9","","70","","","","23","","19","","24.1","","103.79","","","","-48","","Ice Crystals"
"-115.14","67.82","KUGLUKTUK A","2300903","2019-02-07 04:00","2019","02","07","04:00","-34.4","","-38.1","","70","","","","19","","8","","19.3","","103.81","","","","-43","","Ice Crystals"
"-115.14","67.82","KUGLUKTUK A","2300903","2019-02-07 05:00","2019","02","07","05:00","-33.7","","-37.2","","72","","","","21","","14","","19.3","","103.84","","","","-46","","Ice Crystals"
"-115.14","67.82","KUGLUKTUK A","2300903","2019-02-07 06:00","2019","02","07","06:00","-34.9","","-38.4","","71","","","","21","","11","","19.3","","103.86","","","","-46","","Ice Crystals"
"-115.14","67.82","KUGLUKTUK A","2300903","2019-02-07 07:00","2019","02","07","07:00","-34.7","","-38.4","","70","","","","22","","24","","19.3","","103.86","","","","-50","","Ice Crystals,Blowing Snow"
"-115.14","67.82","KUGLUKTUK A","2300903","2019-02-07 08:00","2019","02","07","08:00","-33.2","","-36.8","","71","","","","36","","2","","24.1","","103.90","","","","-36","","Ice Crystals"
"-115.14","67.82","KUGLUKTUK A","2300903","2019-02-07 09:00","2019","02","07","09:00","-34.8","","-38.5","","70","","","","22","","16","","24.1","","103.94","","","","-48","","Ice Crystals"
"-115.14","67.82","KUGLUKTUK A","2300903","2019-02-07 10:00","2019","02","07","10:00","-34.3","","-38.0","","70","","","","20","","14","","24.1","","103.96","","","","-46","","Ice Crystals"
"-115.14","67.82","KUGLUKTUK A","2300903","2019-02-07 11:00","2019","02","07","11:00","-32.7","","-36.4","","71","","","","23","","22","","19.3","","104.00","","","","-47","","Ice Crystals"
"-115.14","67.82","KUGLUKTUK A","2300903","2019-02-07 12:00","2019","02","07","12:00","-33.4","","-37.1","","70","","","","22","","30","","19.3","","103.99","","","","-50","","Ice Crystals,Blowing Snow"
"-115.14","67.82","KUGLUKTUK A","2300903","2019-02-07 13:00","2019","02","07","13:00","-32.3","","-35.9","","71","","","","23","","22","","19.3","","104.03","","","","-47","","Ice Crystals,Blowing Snow"
"-115.14","67.82","KUGLUKTUK A","2300903","2019-02-07 14:00","2019","02","07","14:00","-31.5","","-35.2","","71","","","","22","","29","","19.3","","104.06","","","","-47","","Ice Crystals,Blowing Snow"
"-115.14","67.82","KUGLUKTUK A","2300903","2019-02-07 15:00","2019","02","07","15:00","-31.7","","-35.5","","70","","","","20","","16","","24.1","","104.07","","","","-44","","Ice Crystals,Blowing Snow"
"-115.14","67.82","KUGLUKTUK A","2300903","2019-02-07 16:00","2019","02","07","16:00","-31.9","","-35.6","","70","","","","22","","34","","24.1","","104.06","","","","-49","","Ice Crystals,Blowing Snow"
"-115.14","67.82","KUGLUKTUK A","2300903","2019-02-07 17:00","2019","02","07","17:00","-32.4","","-36.1","","70","","","","22","","29","","19.3","","104.11","","","","-49","","Ice Crystals,Blowing Snow"
"-115.14","67.82","KUGLUKTUK A","2300903","2019-02-07 18:00","2019","02","07","18:00","-32.3","","-36.0","","71","","","","22","","31","","19.3","","104.09","","","","-49","","Ice Crystals,Blowing Snow"
"-115.14","67.82","KUGLUKTUK A","2300903","2019-02-07 19:00","2019","02","07","19:00","-31.9","","-35.6","","70","","","","23","","33","","19.3","","104.09","","","","-49","","Ice Crystals,Blowing Snow"
"-115.14","67.82","KUGLUKTUK A","2300903","2019-02-07 20:00","2019","02","07","20:00","-32.0","","-35.6","","71","","","","22","","36","","19.3","","104.10","","","","-49","","Ice Crystals,Blowing Snow"
"-115.14","67.82","KUGLUKTUK A","2300903","2019-02-07 21:00","2019","02","07","21:00","-31.6","","-35.3","","71","","","","22","","35","","19.3","","104.08","","","","-49","","Ice Crystals,Blowing Snow"
"-115.14","67.82","KUGLUKTUK A","2300903","2019-02-07 22:00","2019","02","07","22:00","-30.4","","-34.1","","71","","","","23","","37","","19.3","","104.08","","","","-48","","Ice Crystals,Blowing Snow"
"-115.14","67.82","KUGLUKTUK A","2300903","2019-02-07 23:00","2019","02","07","23:00","-30.5","","-34.2","","71","","","","23","","32","","16.1","","104.07","","","","-47","","Ice Crystals,Blowing Snow"
"-115.14","67.82","KUGLUKTUK A","2300903","2019-02-08 00:00","2019","02","08","00:00","-29.8","","-33.5","","71","","","","23","","37","","16.1","","104.06","","","","-47","","Ice Crystals,Blowing Snow"
"-115.14","67.82","KUGLUKTUK A","2300903","2019-02-08 01:00","2019","02","08","01:00","-30.3","","-34.0","","71","","","","23","","37","","16.1","","104.09","","","","-47","","Ice Crystals,Blowing Snow"
"-115.14","67.82","KUGLUKTUK A","2300903","2019-02-08 02:00","2019","02","08","02:00","-30.2","","-33.9","","71","","","","23","","35","","16.1","","104.09","","","","-47","","Ice Crystals,Blowing Snow"
"-115.14","67.82","KUGLUKTUK A","2300903","2019-02-08 03:00","2019","02","08","03:00","-30.2","","-34.0","","71","","","","22","","16","","19.3","","104.11","","","","-42","","Ice Crystals"
"-115.14","67.82","KUGLUKTUK A","2300903","2019-02-08 04:00","2019","02","08","04:00","-30.2","","-33.9","","71","","","","22","","22","","19.3","","104.09","","","","-44","","Ice Crystals,Blowing Snow"
"-115.14","67.82","KUGLUKTUK A","2300903","2019-02-08 05:00","2019","02","08","05:00","-29.9","","-33.8","","70","","","","21","","18","","19.3","","104.08","","","","-42","","Ice Crystals"
"-115.14","67.82","KUGLUKTUK A","2300903","2019-02-08 06:00","2019","02","08","06:00","-29.6","","-33.5","","70","","","","21","","21","","19.3","","104.03","","","","-43","","Ice Crystals"
"-115.14","67.82","KUGLUKTUK A","2300903","2019-02-08 07:00","2019","02","08","07:00","-29.0","","-32.6","","72","","","","23","","17","","24.1","","103.97","","","","-41","","Ice Crystals"
"-115.14","67.82","KUGLUKTUK A","2300903","2019-02-08 08:00","2019","02","08","08:00","-28.8","","-32.5","","71","","","","22","","26","","24.1","","103.93","","","","-43","","Ice Crystals"
"-115.14","67.82","KUGLUKTUK A","2300903","2019-02-08 09:00","2019","02","08","09:00","-29.0","","-32.6","","72","","","","23","","23","","24.1","","103.89","","","","-43","","Ice Crystals"
"-115.14","67.82","KUGLUKTUK A","2300903","2019-02-08 10:00","2019","02","08","10:00","-28.1","","-31.9","","70","","","","23","","34","","24.1","","103.84","","","","-44","","Ice Crystals,Blowing Snow"
"-115.14","67.82","KUGLUKTUK A","2300903","2019-02-08 11:00","2019","02","08","11:00","-27.3","","-31.4","","69","","","","22","","25","","24.1","","103.78","","","","-41","","Ice Crystals,Blowing Snow"
"-115.14","67.82","KUGLUKTUK A","2300903","2019-02-08 12:00","2019","02","08","12:00","-27.3","","-31.2","","70","","","","22","","15","","24.1","","103.72","","","","-38","","Ice Crystals,Blowing Snow"
"-115.14","67.82","KUGLUKTUK A","2300903","2019-02-08 13:00","2019","02","08","13:00","-25.6","","-29.5","","71","","","","22","","18","","24.1","","103.67","","","","-37","","Ice Crystals,Blowing Snow"
"-115.14","67.82","KUGLUKTUK A","2300903","2019-02-08 14:00","2019","02","08","14:00","-25.7","","-29.5","","71","","","","24","","20","","24.1","","103.61","","","","-38","","Ice Crystals,Blowing Snow"
"-115.14","67.82","KUGLUKTUK A","2300903","2019-02-08 15:00","2019","02","08","15:00","-25.0","","-28.8","","71","","","","22","","24","","24.1","","103.50","","","","-38","","Ice Crystals,Blowing Snow"
"-115.14","67.82","KUGLUKTUK A","2300903","2019-02-08 16:00","2019","02","08","16:00","-24.0","","-27.9","","71","","","","21","","21","","24.1","","103.44","","","","-36","","Ice Crystals,Blowing Snow"
"-115.14","67.82","KUGLUKTUK A","2300903","2019-02-08 17:00","2019","02","08","17:00","-23.1","","-27.3","","69","","","","23","","35","","24.1","","103.32","","","","-37","","Ice Crystals,Blowing Snow"
"-115.14","67.82","KUGLUKTUK A","2300903","2019-02-08 18:00","2019","02","08","18:00","-21.7","","-26.0","","69","","","","22","","37","","24.1","","103.20","","","","-36","","Ice Crystals,Blowing Snow"
"-115.14","67.82","KUGLUKTUK A","2300903","2019-02-08 19:00","2019","02","08","19:00","-19.9","","-24.4","","68","","","","21","","37","","24.1","","103.05","","","","-34","","Blowing Snow"
"-115.14","67.82","KUGLUKTUK A","2300903","2019-02-08 20:00","2019","02","08","20:00","-18.3","","-23.2","","66","","","","21","","27","","24.1","","102.94","","","","-30","","Blowing Snow"
"-115.14","67.82","KUGLUKTUK A","2300903","2019-02-08 21:00","2019","02","08","21:00","-17.5","","-21.6","","71","","","","22","","38","","12.9","","102.73","","","","-31","","Ice Crystals,Blowing Snow"
"-115.14","67.82","KUGLUKTUK A","2300903","2019-02-08 22:00","2019","02","08","22:00","-16.2","","-20.7","","68","","","","21","","41","","9.7","","102.53","","","","-29","","Ice Crystals,Blowing Snow"
"-115.14","67.82","KUGLUKTUK A","2300903","2019-02-08 23:00","2019","02","08","23:00","-15.8","","-20.5","","68","","","","21","","32","","19.3","","102.33","","","","-27","","Ice Crystals,Blowing Snow"
"-115.14","67.82","KUGLUKTUK A","2300903","2019-02-09 00:00","2019","02","09","00:00","-15.0","","-20.2","","65","","","","23","","33","","19.3","","102.21","","","","-27","","Ice Crystals,Blowing Snow"
"-115.14","67.82","KUGLUKTUK A","2300903","2019-02-09 01:00","2019","02","09","01:00","-14.7","","-18.9","","71","","","","22","","37","","16.1","","102.00","","","","-27","","Ice Crystals,Blowing Snow"
"-115.14","67.82","KUGLUKTUK A","2300903","2019-02-09 02:00","2019","02","09","02:00","-14.1","","-18.1","","72","","","","21","","62","","3.2","","101.76","","","","-28","","Ice Crystals,Blowing Snow"
"-115.14","67.82","KUGLUKTUK A","2300903","2019-02-09 03:00","2019","02","09","03:00","-14.5","","-18.1","","74","","","","21","","59","","2.4","","101.56","","","","-29","","Snow,Blowing Snow"
"-115.14","67.82","KUGLUKTUK A","2300903","2019-02-09 04:00","2019","02","09","04:00","-14.9","","-17.2","","83","","","","21","","48","","1.6","","101.42","","","","-28","","Snow,Blowing Snow"
"-115.14","67.82","KUGLUKTUK A","2300903","2019-02-09 05:00","2019","02","09","05:00","-14.3","","-16.5","","84","","","","22","","54","","0.6","","101.25","","","","-28","","Snow,Blowing Snow"
"-115.14","67.82","KUGLUKTUK A","2300903","2019-02-09 06:00","2019","02","09","06:00","-14.2","","-16.2","","84","","","","23","","56","","0.2","","101.04","","","","-28","","Snow,Blowing Snow"
"-115.14","67.82","KUGLUKTUK A","2300903","2019-02-09 07:00","2019","02","09","07:00","-14.1","","-16.1","","84","","","","22","","56","","0.2","","100.97","","","","-28","","Snow,Blowing Snow"
"-115.14","67.82","KUGLUKTUK A","2300903","2019-02-09 08:00","2019","02","09","08:00","-13.1","","-15.1","","85","","","","24","","48","","0.2","","100.99","","","","-26","","Snow,Blowing Snow"
"-115.14","67.82","KUGLUKTUK A","2300903","2019-02-09 09:00","2019","02","09","09:00","-12.7","","-14.8","","84","","","","25","","45","","0.4","","101.01","","","","-25","","Snow,Blowing Snow"
"-115.14","67.82","KUGLUKTUK A","2300903","2019-02-09 10:00","2019","02","09","10:00","-12.8","","-14.9","","84","","","","25","","41","","4.0","","100.95","","","","-25","","Snow,Blowing Snow"
"-115.14","67.82","KUGLUKTUK A","2300903","2019-02-09 11:00","2019","02","09","11:00","-12.5","","-14.9","","83","","","","27","","40","","8.1","","100.98","","","","-24","","Snow,Blowing Snow"
"-115.14","67.82","KUGLUKTUK A","2300903","2019-02-09 12:00","2019","02","09","12:00","-12.2","","-14.7","","82","","","","28","","43","","12.9","","100.99","","","","-24","","Snow,Blowing Snow"
"-115.14","67.82","KUGLUKTUK A","2300903","2019-02-09 13:00","2019","02","09","13:00","-11.3","","-13.6","","83","","","","28","","24","","19.3","","101.06","","","","-20","","Snow,Blowing Snow"
"-115.14","67.82","KUGLUKTUK A","2300903","2019-02-09 14:00","2019","02","09","14:00","-9.7","","-11.9","","84","","","","28","","30","","19.3","","101.10","","","","-19","","Snow,Blowing Snow"
"-115.14","67.82","KUGLUKTUK A","2300903","2019-02-09 15:00","2019","02","09","15:00","-9.7","","-12.0","","83","","","","26","","21","","24.1","","101.21","","","","-18","","NA"
"-115.14","67.82","KUGLUKTUK A","2300903","2019-02-09 16:00","2019","02","09","16:00","-8.5","","-10.9","","83","","","","23","","22","","24.1","","101.23","","","","-16","","NA"
"-115.14","67.82","KUGLUKTUK A","2300903","2019-02-09 17:00","2019","02","09","17:00","-6.5","","-8.4","","87","","","","29","","35","","16.1","","101.25","","","","-16","","Snow,Blowing Snow"
"-115.14","67.82","KUGLUKTUK A","2300903","2019-02-09 18:00","2019","02","09","18:00","-7.4","","-9.2","","87","","","","31","","32","","9.7","","101.39","","","","-16","","Snow,Blowing Snow"
"-115.14","67.82","KUGLUKTUK A","2300903","2019-02-09 19:00","2019","02","09","19:00","-7.5","","-9.7","","84","","","","31","","22","","16.1","","101.42","","","","-15","","Snow,Blowing Snow"
"-115.14","67.82","KUGLUKTUK A","2300903","2019-02-09 20:00","2019","02","09","20:00","-7.1","","-9.2","","85","","","","29","","22","","24.1","","101.46","","","","-15","","Cloudy"
"-115.14","67.82","KUGLUKTUK A","2300903","2019-02-09 21:00","2019","02","09","21:00","-8.1","","-10.4","","83","","","","31","","35","","24.1","","101.58","","","","-18","","Snow Grains,Blowing Snow"
"-115.14","67.82","KUGLUKTUK A","2300903","2019-02-09 22:00","2019","02","09","22:00","-9.7","","-12.4","","81","","","","29","","36","","3.2","","101.61","","","","-20","","Snow,Blowing Snow"
"-115.14","67.82","KUGLUKTUK A","2300903","2019-02-09 23:00","2019","02","09","23:00","-10.3","","-12.7","","82","","","","31","","31","","6.4","","101.68","","","","-20","","Snow,Blowing Snow"
"-115.14","67.82","KUGLUKTUK A","2300903","2019-02-10 00:00","2019","02","10","00:00","-10.7","","-12.9","","84","","","","31","","30","","2.0","","101.73","","","","-20","","Snow,Blowing Snow"
"-115.14","67.82","KUGLUKTUK A","2300903","2019-02-10 01:00","2019","02","10","01:00","-11.3","","-13.8","","82","","","","31","","44","","1.6","","101.70","","","","-23","","Snow,Blowing Snow"
"-115.14","67.82","KUGLUKTUK A","2300903","2019-02-10 02:00","2019","02","10","02:00","-11.7","","-14.1","","83","","","","31","","39","","4.0","","101.73","","","","-23","","Snow,Blowing Snow"
"-115.14","67.82","KUGLUKTUK A","2300903","2019-02-10 03:00","2019","02","10","03:00","-11.8","","-14.1","","83","","","","32","","41","","2.4","","101.74","","","","-23","","Snow,Blowing Snow"
"-115.14","67.82","KUGLUKTUK A","2300903","2019-02-10 04:00","2019","02","10","04:00","-11.6","","-14.3","","81","","","","32","","37","","4.0","","101.75","","","","-23","","Snow,Blowing Snow"
"-115.14","67.82","KUGLUKTUK A","2300903","2019-02-10 05:00","2019","02","10","05:00","-11.7","","-14.9","","78","","","","30","","22","","9.7","","101.75","","","","-20","","Snow,Blowing Snow"
"-115.14","67.82","KUGLUKTUK A","2300903","2019-02-10 06:00","2019","02","10","06:00","-12.4","","-14.9","","82","","","","32","","42","","6.4","","101.71","","","","-24","","Snow,Blowing Snow"
"-115.14","67.82","KUGLUKTUK A","2300903","2019-02-10 07:00","2019","02","10","07:00","-12.9","","-16.0","","78","","","","31","","35","","12.9","","101.72","","","","-24","","Snow,Blowing Snow"
"-115.14","67.82","KUGLUKTUK A","2300903","2019-02-10 08:00","2019","02","10","08:00","-13.3","","-16.2","","79","","","","31","","24","","6.4","","101.75","","","","-23","","Snow Grains,Blowing Snow"
"-115.14","67.82","KUGLUKTUK A","2300903","2019-02-10 09:00","2019","02","10","09:00","-13.4","","-16.5","","77","","","","30","","28","","6.4","","101.74","","","","-24","","Snow Grains,Blowing Snow"
"-115.14","67.82","KUGLUKTUK A","2300903","2019-02-10 10:00","2019","02","10","10:00","-14.1","","-16.4","","83","","","","33","","13","","6.4","","101.73","","","","-21","","Snow Grains,Fog,Blowing Snow"
"-115.14","67.82","KUGLUKTUK A","2300903","2019-02-10 11:00","2019","02","10","11:00","-14.0","","-17.1","","77","","","","32","","26","","12.9","","101.71","","","","-24","","Snow Grains,Blowing Snow"
"-115.14","67.82","KUGLUKTUK A","2300903","2019-02-10 12:00","2019","02","10","12:00","-14.2","","-16.7","","81","","","","32","","28","","6.4","","101.72","","","","-25","","Snow Grains,Blowing Snow"
"-115.14","67.82","KUGLUKTUK A","2300903","2019-02-10 13:00","2019","02","10","13:00","-14.5","","-17.0","","82","","","","33","","36","","6.4","","101.69","","","","-26","","Snow Grains,Blowing Snow"
"-115.14","67.82","KUGLUKTUK A","2300903","2019-02-10 14:00","2019","02","10","14:00","-15.1","","-17.8","","80","","","","36","","24","","6.4","","101.69","","","","-25","","Snow Grains,Blowing Snow"
"-115.14","67.82","KUGLUKTUK A","2300903","2019-02-10 15:00","2019","02","10","15:00","-15.5","","-18.3","","79","","","","36","","26","","8.1","","101.75","","","","-26","","Snow Grains,Fog"
"-115.14","67.82","KUGLUKTUK A","2300903","2019-02-10 16:00","2019","02","10","16:00","-16.1","","-18.8","","80","","","","36","","22","","6.4","","101.79","","","","-26","","Snow Grains,Fog"
"-115.14","67.82","KUGLUKTUK A","2300903","2019-02-10 17:00","2019","02","10","17:00","-16.4","","-19.5","","78","","","","36","","11","","6.4","","101.83","","","","-23","","Snow Grains,Fog"
"-115.14","67.82","KUGLUKTUK A","2300903","2019-02-10 18:00","2019","02","10","18:00","-16.7","","-19.8","","77","","","","36","","19","","6.4","","101.86","","","","-26","","Snow Grains,Fog"
"-115.14","67.82","KUGLUKTUK A","2300903","2019-02-10 19:00","2019","02","10","19:00","-17.0","","-20.3","","76","","","","33","","11","","8.1","","101.88","","","","-24","","Snow Grains,Fog"
"-115.14","67.82","KUGLUKTUK A","2300903","2019-02-10 20:00","2019","02","10","20:00","-19.0","","-22.0","","78","","","","35","","13","","24.1","","101.94","","","","-27","","Ice Crystals"
"-115.14","67.82","KUGLUKTUK A","2300903","2019-02-10 21:00","2019","02","10","21:00","-20.7","","-23.5","","79","","","","2","","10","","24.1","","101.98","","","","-28","","Ice Crystals"
"-115.14","67.82","KUGLUKTUK A","2300903","2019-02-10 22:00","2019","02","10","22:00","-20.2","","-23.2","","77","","","","36","","6","","24.1","","102.04","","","","-25","","NA"
"-115.14","67.82","KUGLUKTUK A","2300903","2019-02-10 23:00","2019","02","10","23:00","-20.6","","-23.8","","76","","","","30","","5","","24.1","","102.11","","","","-25","","Clear"
"-115.14","67.82","KUGLUKTUK A","2300903","2019-02-11 00:00","2019","02","11","00:00","-21.4","","-24.3","","78","","","","28","","8","","24.1","","102.16","","","","-28","","NA"
"-115.14","67.82","KUGLUKTUK A","2300903","2019-02-11 01:00","2019","02","11","01:00","-24.2","","-27.0","","78","","","","21","","9","","24.1","","102.19","","","","-32","","NA"
"-115.14","67.82","KUGLUKTUK A","2300903","2019-02-11 02:00","2019","02","11","02:00","-24.8","","-27.2","","81","","","","24","","13","","24.1","","102.20","","","","-34","","Clear"
"-115.14","67.82","KUGLUKTUK A","2300903","2019-02-11 03:00","2019","02","11","03:00","-23.4","","-26.0","","80","","","","18","","4","","24.1","","102.27","","","","-27","","NA"
"-115.14","67.82","KUGLUKTUK A","2300903","2019-02-11 04:00","2019","02","11","04:00","-25.4","","-28.0","","80","","","","21","","10","","24.1","","102.30","","","","-34","","NA"
"-115.14","67.82","KUGLUKTUK A","2300903","2019-02-11 05:00","2019","02","11","05:00","-24.8","","-27.4","","79","","","","22","","18","","24.1","","102.26","","","","-36","","Clear"
"-115.14","67.82","KUGLUKTUK A","2300903","2019-02-11 06:00","2019","02","11","06:00","-23.9","","-26.4","","80","","","","23","","21","","24.1","","102.26","","","","-36","","NA"
"-115.14","67.82","KUGLUKTUK A","2300903","2019-02-11 07:00","2019","02","11","07:00","-22.3","","-24.6","","82","","","","24","","13","","16.1","","102.30","","","","-31","","Snow Grains"
"-115.14","67.82","KUGLUKTUK A","2300903","2019-02-11 08:00","2019","02","11","08:00","-21.1","","-23.5","","82","","","","23","","12","","16.1","","102.36","","","","-29","","Snow Grains"
"-115.14","67.82","KUGLUKTUK A","2300903","2019-02-11 09:00","2019","02","11","09:00","-21.2","","-23.5","","82","","","","22","","16","","16.1","","102.35","","","","-31","","Snow Grains"
"-115.14","67.82","KUGLUKTUK A","2300903","2019-02-11 10:00","2019","02","11","10:00","-22.2","","-24.5","","82","","","","25","","13","","16.1","","102.39","","","","-31","","NA"
"-115.14","67.82","KUGLUKTUK A","2300903","2019-02-11 11:00","2019","02","11","11:00","-24.2","","-26.8","","79","","","","22","","13","","16.1","","102.38","","","","-34","","Fog,Haze"
"-115.14","67.82","KUGLUKTUK A","2300903","2019-02-11 12:00","2019","02","11","12:00","-24.4","","-27.3","","77","","","","19","","10","","16.1","","102.35","","","","-32","","Haze"
"-115.14","67.82","KUGLUKTUK A","2300903","2019-02-11 13:00","2019","02","11","13:00","-23.2","","-26.1","","77","","","","22","","15","","24.1","","102.33","","","","-33","","NA"
"-115.14","67.82","KUGLUKTUK A","2300903","2019-02-11 14:00","2019","02","11","14:00","-22.2","","-25.1","","78","","","","24","","16","","24.1","","102.28","","","","-32","","Clear"
"-115.14","67.82","KUGLUKTUK A","2300903","2019-02-11 15:00","2019","02","11","15:00","-22.4","","-25.2","","78","","","","25","","9","","24.1","","102.27","","","","-30","","NA"
"-115.14","67.82","KUGLUKTUK A","2300903","2019-02-11 16:00","2019","02","11","16:00","-22.3","","-25.3","","77","","","","23","","14","","24.1","","102.26","","","","-32","","NA"
"-115.14","67.82","KUGLUKTUK A","2300903","2019-02-11 17:00","2019","02","11","17:00","-22.3","","-25.3","","77","","","","23","","22","","24.1","","102.23","","","","-34","","Clear"
"-115.14","67.82","KUGLUKTUK A","2300903","2019-02-11 18:00","2019","02","11","18:00","-23.6","","-26.4","","78","","","","23","","21","","24.1","","102.20","","","","-35","","NA"
"-115.14","67.82","KUGLUKTUK A","2300903","2019-02-11 19:00","2019","02","11","19:00","-23.0","","-26.0","","77","","","","23","","24","","24.1","","102.21","","","","-35","","NA"
"-115.14","67.82","KUGLUKTUK A","2300903","2019-02-11 20:00","2019","02","11","20:00","-23.2","","-26.1","","77","","","","22","","21","","24.1","","102.12","","","","-35","","Clear"
"-115.14","67.82","KUGLUKTUK A","2300903","2019-02-11 21:00","2019","02","11","21:00","-21.7","","-24.7","","77","","","","23","","29","","24.1","","102.04","","","","-35","","NA"
"-115.14","67.82","KUGLUKTUK A","2300903","2019-02-11 22:00","2019","02","11","22:00","-21.3","","-24.4","","76","","","","21","","31","","24.1","","101.98","","","","-34","","Blowing Snow"
"-115.14","67.82","KUGLUKTUK A","2300903","2019-02-11 23:00","2019","02","11","23:00","-21.4","","-24.8","","75","","","","21","","37","","24.1","","101.91","","","","-36","","Blowing Snow"
"-115.14","67.82","KUGLUKTUK A","2300903","2019-02-12 00:00","2019","02","12","00:00","-21.9","","-25.1","","76","","","","21","","37","","24.1","","101.81","","","","-36","","Blowing Snow"
"-115.14","67.82","KUGLUKTUK A","2300903","2019-02-12 01:00","2019","02","12","01:00","-21.8","","-25.0","","76","","","","22","","36","","24.1","","101.72","","","","-36","","Blowing Snow"
"-115.14","67.82","KUGLUKTUK A","2300903","2019-02-12 02:00","2019","02","12","02:00","-21.4","","-24.6","","75","","","","22","","32","","24.1","","101.68","","","","-35","","Blowing Snow"
"-115.14","67.82","KUGLUKTUK A","2300903","2019-02-12 03:00","2019","02","12","03:00","-20.6","","-24.0","","75","","","","21","","37","","24.1","","101.59","","","","-34","","Blowing Snow"
"-115.14","67.82","KUGLUKTUK A","2300903","2019-02-12 04:00","2019","02","12","04:00","-20.3","","-23.6","","75","","","","21","","34","","24.1","","101.48","","","","-34","","Blowing Snow"
"-115.14","67.82","KUGLUKTUK A","2300903","2019-02-12 05:00","2019","02","12","05:00","-19.8","","-23.1","","75","","","","21","","34","","24.1","","101.38","","","","-33","","Blowing Snow"
"-115.14","67.82","KUGLUKTUK A","2300903","2019-02-12 06:00","2019","02","12","06:00","-20.3","","-23.6","","75","","","","23","","25","","24.1","","101.31","","","","-32","","Blowing Snow"
"-115.14","67.82","KUGLUKTUK A","2300903","2019-02-12 07:00","2019","02","12","07:00","-19.7","","-23.0","","76","","","","22","","31","","24.1","","101.20","","","","-32","","Blowing Snow"
"-115.14","67.82","KUGLUKTUK A","2300903","2019-02-12 08:00","2019","02","12","08:00","-19.1","","-22.2","","76","","","","22","","37","","24.1","","101.10","","","","-33","","Blowing Snow"
"-115.14","67.82","KUGLUKTUK A","2300903","2019-02-12 09:00","2019","02","12","09:00","-18.8","","-22.0","","76","","","","21","","38","","24.1","","101.02","","","","-32","","Blowing Snow"
"-115.14","67.82","KUGLUKTUK A","2300903","2019-02-12 10:00","2019","02","12","10:00","-18.5","","-21.8","","76","","","","21","","41","","24.1","","100.93","","","","-32","","Blowing Snow"
"-115.14","67.82","KUGLUKTUK A","2300903","2019-02-12 11:00","2019","02","12","11:00","-17.7","","-21.2","","75","","","","21","","37","","24.1","","100.86","","","","-31","","Blowing Snow"
"-115.14","67.82","KUGLUKTUK A","2300903","2019-02-12 12:00","2019","02","12","12:00","-17.2","","-20.8","","74","","","","21","","39","","24.1","","100.79","","","","-30","","Blowing Snow"
"-115.14","67.82","KUGLUKTUK A","2300903","2019-02-12 13:00","2019","02","12","13:00","-17.2","","-20.9","","73","","","","20","","39","","24.1","","100.68","","","","-30","","Blowing Snow"
"-115.14","67.82","KUGLUKTUK A","2300903","2019-02-12 14:00","2019","02","12","14:00","-17.2","","-20.9","","73","","","","21","","40","","24.1","","100.61","","","","-30","","Blowing Snow"
"-115.14","67.82","KUGLUKTUK A","2300903","2019-02-12 15:00","2019","02","12","15:00","-17.0","","-20.6","","74","","","","21","","40","","24.1","","100.53","","","","-30","","Blowing Snow"
"-115.14","67.82","KUGLUKTUK A","2300903","2019-02-12 16:00","2019","02","12","16:00","-17.4","","-21.3","","72","","","","20","","4","","24.1","","100.45","","","","-21","","NA"
"-115.14","67.82","KUGLUKTUK A","2300903","2019-02-12 17:00","2019","02","12","17:00","-17.4","","-20.9","","75","","","","21","","45","","24.1","","100.30","","","","-31","","Blowing Snow"
"-115.14","67.82","KUGLUKTUK A","2300903","2019-02-12 18:00","2019","02","12","18:00","-17.3","","-20.5","","76","","","","21","","50","","12.9","","100.14","","","","-32","","Blowing Snow"
"-115.14","67.82","KUGLUKTUK A","2300903","2019-02-12 19:00","2019","02","12","19:00","-16.4","","-19.8","","75","","","","21","","62","","6.4","","100.04","","","","-32","","Blowing Snow"
"-115.14","67.82","KUGLUKTUK A","2300903","2019-02-12 20:00","2019","02","12","20:00","-16.5","","-19.7","","76","","","","21","","53","","6.4","","99.97","","","","-31","","Blowing Snow"
"-115.14","67.82","KUGLUKTUK A","2300903","2019-02-12 21:00","2019","02","12","21:00","-15.9","","-19.2","","76","","","","21","","50","","6.4","","99.94","","","","-30","","Blowing Snow"
"-115.14","67.82","KUGLUKTUK A","2300903","2019-02-12 22:00","2019","02","12","22:00","-16.3","","-19.4","","77","","","","20","","55","","12.9","","99.89","","","","-31","","Blowing Snow"
"-115.14","67.82","KUGLUKTUK A","2300903","2019-02-12 23:00","2019","02","12","23:00","-15.8","","-19.5","","73","","","","22","","30","","12.9","","99.95","","","","-27","","Blowing Snow"
"-115.14","67.82","KUGLUKTUK A","2300903","2019-02-13 00:00","2019","02","13","00:00","-15.9","","-19.5","","74","","","","21","","48","","8.1","","99.80","","","","-30","","Blowing Snow"
"-115.14","67.82","KUGLUKTUK A","2300903","2019-02-13 01:00","2019","02","13","01:00","-15.6","","-18.8","","77","","","","22","","43","","6.4","","99.77","","","","-29","","Blowing Snow"
"-115.14","67.82","KUGLUKTUK A","2300903","2019-02-13 02:00","2019","02","13","02:00","-15.9","","-19.5","","74","","","","22","","37","","16.1","","99.80","","","","-28","","Blowing Snow"
"-115.14","67.82","KUGLUKTUK A","2300903","2019-02-13 03:00","2019","02","13","03:00","-15.3","","-19.0","","74","","","","21","","41","","16.1","","99.78","","","","-28","","Blowing Snow"
"-115.14","67.82","KUGLUKTUK A","2300903","2019-02-13 04:00","2019","02","13","04:00","-15.4","","-18.9","","75","","","","21","","39","","16.1","","99.78","","","","-28","","Blowing Snow"
"-115.14","67.82","KUGLUKTUK A","2300903","2019-02-13 05:00","2019","02","13","05:00","-15.1","","-18.4","","76","","","","22","","36","","6.4","","99.78","","","","-27","","Snow,Blowing Snow"
"-115.14","67.82","KUGLUKTUK A","2300903","2019-02-13 06:00","2019","02","13","06:00","-15.0","","-18.1","","78","","","","22","","33","","16.1","","99.80","","","","-27","","Snow,Blowing Snow"
"-115.14","67.82","KUGLUKTUK A","2300903","2019-02-13 07:00","2019","02","13","07:00","-14.9","","-17.9","","78","","","","22","","34","","16.1","","99.82","","","","-27","","Snow,Blowing Snow"
"-115.14","67.82","KUGLUKTUK A","2300903","2019-02-13 08:00","2019","02","13","08:00","-14.8","","-17.8","","78","","","","22","","30","","16.1","","99.81","","","","-26","","Snow,Blowing Snow"
"-115.14","67.82","KUGLUKTUK A","2300903","2019-02-13 09:00","2019","02","13","09:00","-14.7","","-17.9","","77","","","","22","","26","","12.9","","99.83","","","","-25","","Snow,Blowing Snow"
"-115.14","67.82","KUGLUKTUK A","2300903","2019-02-13 10:00","2019","02","13","10:00","-14.9","","-17.9","","79","","","","23","","19","","19.3","","99.86","","","","-24","","NA"
"-115.14","67.82","KUGLUKTUK A","2300903","2019-02-13 11:00","2019","02","13","11:00","-14.9","","-17.9","","78","","","","24","","19","","19.3","","99.91","","","","-24","","Mostly Cloudy"
"-115.14","67.82","KUGLUKTUK A","2300903","2019-02-13 12:00","2019","02","13","12:00","-15.4","","-18.2","","79","","","","24","","16","","19.3","","99.92","","","","-24","","NA"
"-115.14","67.82","KUGLUKTUK A","2300903","2019-02-13 13:00","2019","02","13","13:00","-15.2","","-18.2","","78","","","","25","","18","","24.1","","99.96","","","","-24","","NA"
"-115.14","67.82","KUGLUKTUK A","2300903","2019-02-13 14:00","2019","02","13","14:00","-15.0","","-18.1","","77","","","","22","","23","","16.1","","100.00","","","","-25","","Snow"
"-115.14","67.82","KUGLUKTUK A","2300903","2019-02-13 15:00","2019","02","13","15:00","-14.3","","-17.5","","77","","","","24","","22","","12.9","","100.06","","","","-24","","Snow"
"-115.14","67.82","KUGLUKTUK A","2300903","2019-02-13 16:00","2019","02","13","16:00","-14.5","","-17.6","","78","","","","24","","20","","9.7","","100.15","","","","-24","","Snow"
"-115.14","67.82","KUGLUKTUK A","2300903","2019-02-13 17:00","2019","02","13","17:00","-14.4","","-17.6","","77","","","","25","","25","","12.9","","100.24","","","","-24","","Snow"
"-115.14","67.82","KUGLUKTUK A","2300903","2019-02-13 18:00","2019","02","13","18:00","-14.3","","-17.3","","78","","","","23","","19","","12.9","","100.32","","","","-23","","Snow"
"-115.14","67.82","KUGLUKTUK A","2300903","2019-02-13 19:00","2019","02","13","19:00","-14.6","","-17.7","","78","","","","25","","25","","12.9","","100.41","","","","-25","","Snow"
"-115.14","67.82","KUGLUKTUK A","2300903","2019-02-13 20:00","2019","02","13","20:00","-14.6","","-17.5","","79","","","","24","","27","","12.9","","100.46","","","","-25","","Snow,Blowing Snow"
"-115.14","67.82","KUGLUKTUK A","2300903","2019-02-13 21:00","2019","02","13","21:00","-14.2","","-17.0","","80","","","","23","","23","","16.1","","100.54","","","","-24","","Snow,Blowing Snow"
"-115.14","67.82","KUGLUKTUK A","2300903","2019-02-13 22:00","2019","02","13","22:00","-14.1","","-16.9","","79","","","","24","","26","","16.1","","100.63","","","","-24","","Snow,Blowing Snow"
"-115.14","67.82","KUGLUKTUK A","2300903","2019-02-13 23:00","2019","02","13","23:00","-13.7","","-16.2","","82","","","","24","","26","","16.1","","100.69","","","","-24","","Snow,Blowing Snow"
"-115.14","67.82","KUGLUKTUK A","2300903","2019-02-14 00:00","2019","02","14","00:00","-12.6","","-15.1","","81","","","","26","","28","","12.9","","100.77","","","","-23","","Snow,Blowing Snow"
"-115.14","67.82","KUGLUKTUK A","2300903","2019-02-14 01:00","2019","02","14","01:00","-12.4","","-14.5","","85","","","","26","","25","","12.9","","100.88","","","","-22","","Snow,Blowing Snow"
"-115.14","67.82","KUGLUKTUK A","2300903","2019-02-14 02:00","2019","02","14","02:00","-10.6","","-13.2","","81","","","","32","","26","","16.1","","101.03","","","","-20","","Snow,Blowing Snow"
"-115.14","67.82","KUGLUKTUK A","2300903","2019-02-14 03:00","2019","02","14","03:00","-13.4","","-15.9","","81","","","","34","","34","","6.4","","101.21","","","","-25","","Snow,Blowing Snow"
"-115.14","67.82","KUGLUKTUK A","2300903","2019-02-14 04:00","2019","02","14","04:00","-13.8","","-16.5","","80","","","","32","","24","","12.9","","101.34","","","","-23","","Snow,Blowing Snow"
"-115.14","67.82","KUGLUKTUK A","2300903","2019-02-14 05:00","2019","02","14","05:00","-14.3","","-17.2","","79","","","","31","","24","","12.9","","101.45","","","","-24","","Snow,Blowing Snow"
"-115.14","67.82","KUGLUKTUK A","2300903","2019-02-14 06:00","2019","02","14","06:00","-14.9","","-17.7","","79","","","","32","","24","","24.1","","101.55","","","","-25","","Blowing Snow"
"-115.14","67.82","KUGLUKTUK A","2300903","2019-02-14 07:00","2019","02","14","07:00","-15.4","","-18.2","","79","","","","33","","19","","24.1","","101.65","","","","-24","","NA"
"-115.14","67.82","KUGLUKTUK A","2300903","2019-02-14 08:00","2019","02","14","08:00","-16.4","","-19.2","","79","","","","30","","19","","24.1","","101.73","","","","-26","","Mainly Clear"
"-115.14","67.82","KUGLUKTUK A","2300903","2019-02-14 09:00","2019","02","14","09:00","-16.4","","-19.5","","77","","","","31","","22","","12.9","","101.84","","","","-26","","NA"
"-115.14","67.82","KUGLUKTUK A","2300903","2019-02-14 10:00","2019","02","14","10:00","-17.4","","-20.1","","79","","","","32","","17","","12.9","","101.96","","","","-26","","NA"
"-115.14","67.82","KUGLUKTUK A","2300903","2019-02-14 11:00","2019","02","14","11:00","-17.2","","-20.2","","78","","","","32","","14","","8.1","","102.10","","","","-25","","Fog"
"-115.14","67.82","KUGLUKTUK A","2300903","2019-02-14 12:00","2019","02","14","12:00","-17.1","","-20.1","","78","","","","33","","17","","8.1","","102.17","","","","-26","","Snow,Fog"
"-115.14","67.82","KUGLUKTUK A","2300903","2019-02-14 13:00","2019","02","14","13:00","-17.0","","-20.2","","77","","","","32","","23","","6.4","","102.28","","","","-27","","Snow,Fog"
"-115.14","67.82","KUGLUKTUK A","2300903","2019-02-14 14:00","2019","02","14","14:00","-17.8","","-21.0","","77","","","","33","","27","","4.8","","102.33","","","","-29","","Snow,Fog,Blowing Snow"
"-115.14","67.82","KUGLUKTUK A","2300903","2019-02-14 15:00","2019","02","14","15:00","-18.4","","-21.1","","80","","","","32","","33","","2.4","","102.41","","","","-31","","Snow,Fog"
"-115.14","67.82","KUGLUKTUK A","2300903","2019-02-14 16:00","2019","02","14","16:00","-19.1","","-21.8","","80","","","","33","","34","","1.6","","102.51","","","","-32","","Snow,Fog,Blowing Snow"
"-115.14","67.82","KUGLUKTUK A","2300903","2019-02-14 17:00","2019","02","14","17:00","-19.5","","-22.4","","78","","","","32","","29","","2.4","","102.56","","","","-32","","Snow,Fog,Blowing Snow"
"-115.14","67.82","KUGLUKTUK A","2300903","2019-02-14 18:00","2019","02","14","18:00","-20.0","","-22.8","","79","","","","32","","27","","2.4","","102.63","","","","-32","","Snow,Fog,Blowing Snow"
"-115.14","67.82","KUGLUKTUK A","2300903","2019-02-14 19:00","2019","02","14","19:00","-20.7","","-23.3","","80","","","","33","","22","","4.8","","102.68","","","","-32","","Snow,Fog,Blowing Snow"
"-115.14","67.82","KUGLUKTUK A","2300903","2019-02-14 20:00","2019","02","14","20:00","-21.4","","-24.3","","78","","","","30","","14","","4.8","","102.72","","","","-30","","Snow,Fog,Blowing Snow"
"-115.14","67.82","KUGLUKTUK A","2300903","2019-02-14 21:00","2019","02","14","21:00","-22.6","","-25.5","","78","","","","30","","13","","6.4","","102.75","","","","-32","","Snow,Fog"
"-115.14","67.82","KUGLUKTUK A","2300903","2019-02-14 22:00","2019","02","14","22:00","-24.0","","-26.8","","78","","","","32","","17","","8.1","","102.78","","","","-35","","Snow,Fog"
"-115.14","67.82","KUGLUKTUK A","2300903","2019-02-14 23:00","2019","02","14","23:00","-23.4","","-26.5","","76","","","","32","","22","","8.1","","102.81","","","","-35","","Snow,Blowing Snow"
"-115.14","67.82","KUGLUKTUK A","2300903","2019-02-15 00:00","2019","02","15","00:00","-25.0","","-27.8","","78","","","","30","","19","","8.1","","102.83","","","","-37","","Snow"
"-115.14","67.82","KUGLUKTUK A","2300903","2019-02-15 01:00","2019","02","15","01:00","-28.2","","-31.4","","75","","","","23","","13","","16.1","","102.89","","","","-38","","Ice Crystals"
"-115.14","67.82","KUGLUKTUK A","2300903","2019-02-15 02:00","2019","02","15","02:00","-29.1","","-32.3","","75","","","","16","","7","","19.3","","102.95","","","","-36","","Ice Crystals"
"-115.14","67.82","KUGLUKTUK A","2300903","2019-02-15 03:00","2019","02","15","03:00","-28.5","","-31.6","","75","","","","24","","16","","16.1","","103.02","","","","-40","","Ice Crystals"
"-115.14","67.82","KUGLUKTUK A","2300903","2019-02-15 04:00","2019","02","15","04:00","-29.3","","-32.8","","72","","","","25","","16","","16.1","","103.03","","","","-41","","Ice Crystals"
"-115.14","67.82","KUGLUKTUK A","2300903","2019-02-15 05:00","2019","02","15","05:00","-27.8","","-30.8","","76","","","","26","","22","","19.3","","103.04","","","","-41","","Ice Crystals"
"-115.14","67.82","KUGLUKTUK A","2300903","2019-02-15 06:00","2019","02","15","06:00","-30.9","","-34.1","","74","","","","25","","13","","19.3","","103.08","","","","-42","","Ice Crystals"
"-115.14","67.82","KUGLUKTUK A","2300903","2019-02-15 07:00","2019","02","15","07:00","-31.8","","-35.1","","73","","","","25","","18","","19.3","","103.11","","","","-45","","Ice Crystals"
"-115.14","67.82","KUGLUKTUK A","2300903","2019-02-15 08:00","2019","02","15","08:00","-30.7","","-33.9","","74","","","","25","","17","","19.3","","103.14","","","","-43","","Ice Crystals"
"-115.14","67.82","KUGLUKTUK A","2300903","2019-02-15 09:00","2019","02","15","09:00","-31.5","","-34.8","","73","","","","22","","18","","19.3","","103.16","","","","-44","","Ice Crystals"
"-115.14","67.82","KUGLUKTUK A","2300903","2019-02-15 10:00","2019","02","15","10:00","-31.3","","-34.6","","73","","","","24","","18","","19.3","","103.21","","","","-44","","Ice Crystals,Blowing Snow"
"-115.14","67.82","KUGLUKTUK A","2300903","2019-02-15 11:00","2019","02","15","11:00","-31.0","","-34.3","","74","","","","23","","21","","19.3","","103.27","","","","-45","","Ice Crystals"
"-115.14","67.82","KUGLUKTUK A","2300903","2019-02-15 12:00","2019","02","15","12:00","-30.8","","-34.2","","73","","","","23","","20","","19.3","","103.31","","","","-44","","Ice Crystals"
"-115.14","67.82","KUGLUKTUK A","2300903","2019-02-15 13:00","2019","02","15","13:00","-31.5","","-35.0","","72","","","","23","","21","","12.9","","103.35","","","","-45","","Ice Crystals,Blowing Snow"
"-115.14","67.82","KUGLUKTUK A","2300903","2019-02-15 14:00","2019","02","15","14:00","-31.5","","-35.0","","72","","","","21","","15","","19.3","","103.39","","","","-43","","Ice Crystals"
"-115.14","67.82","KUGLUKTUK A","2300903","2019-02-15 15:00","2019","02","15","15:00","-31.6","","-35.1","","72","","","","21","","20","","19.3","","103.42","","","","-45","","Ice Crystals,Blowing Snow"
"-115.14","67.82","KUGLUKTUK A","2300903","2019-02-15 16:00","2019","02","15","16:00","-32.4","","-36.0","","71","","","","21","","17","","19.3","","103.44","","","","-45","","Ice Crystals"
"-115.14","67.82","KUGLUKTUK A","2300903","2019-02-15 17:00","2019","02","15","17:00","-32.4","","-35.9","","72","","","","22","","20","","19.3","","103.49","","","","-46","","Ice Crystals"
"-115.14","67.82","KUGLUKTUK A","2300903","2019-02-15 18:00","2019","02","15","18:00","-32.7","","-36.1","","72","","","","22","","20","","19.3","","103.53","","","","-47","","Ice Crystals"
"-115.14","67.82","KUGLUKTUK A","2300903","2019-02-15 19:00","2019","02","15","19:00","-32.1","","-35.6","","72","","","","22","","18","","16.1","","103.53","","","","-45","","Ice Crystals"
"-115.14","67.82","KUGLUKTUK A","2300903","2019-02-15 20:00","2019","02","15","20:00","-31.2","","-34.7","","72","","","","22","","17","","16.1","","103.55","","","","-44","","Ice Crystals"
"-115.14","67.82","KUGLUKTUK A","2300903","2019-02-15 21:00","2019","02","15","21:00","-30.8","","-34.3","","72","","","","21","","4","","16.1","","103.60","","","","-35","","Ice Crystals"
"-115.14","67.82","KUGLUKTUK A","2300903","2019-02-15 22:00","2019","02","15","22:00","-30.8","","-34.4","","72","","","","24","","9","","16.1","","103.64","","","","-40","","Ice Crystals"
"-115.14","67.82","KUGLUKTUK A","2300903","2019-02-15 23:00","2019","02","15","23:00","-30.4","","-33.9","","72","","","","23","","16","","16.1","","103.70","","","","-42","","Ice Crystals"
"-115.14","67.82","KUGLUKTUK A","2300903","2019-02-16 00:00","2019","02","16","00:00","-31.1","","-34.6","","72","","","","23","","11","","16.1","","103.73","","","","-41","","Ice Crystals"
"-115.14","67.82","KUGLUKTUK A","2300903","2019-02-16 01:00","2019","02","16","01:00","-31.8","","-35.4","","72","","","","29","","4","","16.1","","103.78","","","","-36","","Ice Crystals"
"-115.14","67.82","KUGLUKTUK A","2300903","2019-02-16 02:00","2019","02","16","02:00","-32.1","","-35.6","","72","","","","36","","2","","19.3","","103.82","","","","-34","","Ice Crystals"
"-115.14","67.82","KUGLUKTUK A","2300903","2019-02-16 03:00","2019","02","16","03:00","-32.9","","-36.4","","72","","","","36","","1","","19.3","","103.85","","","","-34","","Ice Crystals"
"-115.14","67.82","KUGLUKTUK A","2300903","2019-02-16 04:00","2019","02","16","04:00","-33.7","","-37.1","","73","","","","23","","8","","19.3","","103.86","","","","-42","","Ice Crystals"
"-115.14","67.82","KUGLUKTUK A","2300903","2019-02-16 05:00","2019","02","16","05:00","-34.1","","-37.5","","72","","","","22","","13","","19.3","","103.91","","","","-46","","Ice Crystals"
"-115.14","67.82","KUGLUKTUK A","2300903","2019-02-16 06:00","2019","02","16","06:00","-34.4","","-37.7","","73","","","","21","","10","","19.3","","103.93","","","","-44","","Ice Crystals"
"-115.14","67.82","KUGLUKTUK A","2300903","2019-02-16 07:00","2019","02","16","07:00","-36.2","","-39.6","","72","","","","29","","6","","19.3","","103.98","","","","-44","","Ice Crystals"
"-115.14","67.82","KUGLUKTUK A","2300903","2019-02-16 08:00","2019","02","16","08:00","-34.6","","-37.8","","73","","","","16","","3","","24.1","","104.03","","","","-38","","Ice Crystals"
"-115.14","67.82","KUGLUKTUK A","2300903","2019-02-16 09:00","2019","02","16","09:00","-35.7","","-39.0","","73","","","","35","","4","","16.1","","104.06","","","","-41","","Ice Crystals"
"-115.14","67.82","KUGLUKTUK A","2300903","2019-02-16 10:00","2019","02","16","10:00","-35.8","","-39.1","","72","","","","6","","5","","16.1","","104.09","","","","-42","","Ice Crystals"
"-115.14","67.82","KUGLUKTUK A","2300903","2019-02-16 11:00","2019","02","16","11:00","-36.2","","-39.6","","71","","","","22","","3","","19.3","","104.09","","","","-40","","Ice Crystals"
"-115.14","67.82","KUGLUKTUK A","2300903","2019-02-16 12:00","2019","02","16","12:00","-35.5","","-38.9","","72","","","","36","","1","","19.3","","104.10","","","","-37","","Ice Crystals"
"-115.14","67.82","KUGLUKTUK A","2300903","2019-02-16 13:00","2019","02","16","13:00","-36.4","","-40.1","","70","","","","10","","5","","19.3","","104.14","","","","-43","","Ice Crystals"
"-115.14","67.82","KUGLUKTUK A","2300903","2019-02-16 14:00","2019","02","16","14:00","-35.5","","-39.1","","71","","","","15","","5","","19.3","","104.12","","","","-42","","Ice Crystals"
"-115.14","67.82","KUGLUKTUK A","2300903","2019-02-16 15:00","2019","02","16","15:00","-36.4","","-40.2","","69","","","","32","","5","","19.3","","104.13","","","","-43","","Ice Crystals"
"-115.14","67.82","KUGLUKTUK A","2300903","2019-02-16 16:00","2019","02","16","16:00","-36.0","","-39.8","","69","","","","14","","3","","19.3","","104.16","","","","-40","","Ice Crystals"
"-115.14","67.82","KUGLUKTUK A","2300903","2019-02-16 17:00","2019","02","16","17:00","-36.5","","-40.2","","70","","","","30","","4","","19.3","","104.18","","","","-42","","Ice Crystals"
"-115.14","67.82","KUGLUKTUK A","2300903","2019-02-16 18:00","2019","02","16","18:00","-36.0","","-39.5","","71","","","","36","","3","","24.1","","104.16","","","","-40","","Ice Crystals"
"-115.14","67.82","KUGLUKTUK A","2300903","2019-02-16 19:00","2019","02","16","19:00","-36.7","","-40.2","","70","","","","34","","3","","24.1","","104.13","","","","-41","","Ice Crystals"
"-115.14","67.82","KUGLUKTUK A","2300903","2019-02-16 20:00","2019","02","16","20:00","-37.5","","-41.0","","70","","","","36","","2","","24.1","","104.11","","","","-40","","Ice Crystals"
"-115.14","67.82","KUGLUKTUK A","2300903","2019-02-16 21:00","2019","02","16","21:00","-37.8","","-41.4","","69","","","","35","","5","","24.1","","104.08","","","","-44","","Ice Crystals"
"-115.14","67.82","KUGLUKTUK A","2300903","2019-02-16 22:00","2019","02","16","22:00","-38.2","","-42.0","","69","","","","13","","3","","24.1","","104.08","","","","-42","","Ice Crystals"
"-115.14","67.82","KUGLUKTUK A","2300903","2019-02-16 23:00","2019","02","16","23:00","-37.8","","-41.6","","68","","","","34","","3","","24.1","","104.06","","","","-42","","Ice Crystals"
"-115.14","67.82","KUGLUKTUK A","2300903","2019-02-17 00:00","2019","02","17","00:00","-36.0","","-39.7","","70","","","","36","","1","","24.1","","104.01","","","","-37","","Ice Crystals"
"-115.14","67.82","KUGLUKTUK A","2300903","2019-02-17 01:00","2019","02","17","01:00","-38.5","","-42.3","","68","","","","32","","8","","19.3","","103.96","","","","-48","","Ice Crystals"
"-115.14","67.82","KUGLUKTUK A","2300903","2019-02-17 02:00","2019","02","17","02:00","-38.2","","-42.1","","68","","","","33","","8","","19.3","","103.94","","","","-48","","Ice Crystals"
"-115.14","67.82","KUGLUKTUK A","2300903","2019-02-17 03:00","2019","02","17","03:00","-36.6","","-40.4","","69","","","","36","","5","","19.3","","103.90","","","","-43","","Ice Crystals"
"-115.14","67.82","KUGLUKTUK A","2300903","2019-02-17 04:00","2019","02","17","04:00","-36.4","","-40.1","","69","","","","32","","3","","19.3","","103.88","","","","-40","","Ice Crystals"
"-115.14","67.82","KUGLUKTUK A","2300903","2019-02-17 05:00","2019","02","17","05:00","-37.2","","-41.0","","68","","","","33","","3","","19.3","","103.81","","","","-41","","Ice Crystals"
"-115.14","67.82","KUGLUKTUK A","2300903","2019-02-17 06:00","2019","02","17","06:00","-37.0","","-40.8","","69","","","","33","","6","","19.3","","103.72","","","","-45","","Ice Crystals"
"-115.14","67.82","KUGLUKTUK A","2300903","2019-02-17 07:00","2019","02","17","07:00","-37.3","","-41.1","","68","","","","32","","8","","19.3","","103.68","","","","-47","","Ice Crystals"
"-115.14","67.82","KUGLUKTUK A","2300903","2019-02-17 08:00","2019","02","17","08:00","-29.8","","-33.1","","74","","","","22","","16","","24.1","","103.61","","","","-42","","Ice Crystals"
"-115.14","67.82","KUGLUKTUK A","2300903","2019-02-17 09:00","2019","02","17","09:00","-30.2","","-33.6","","73","","","","23","","12","","24.1","","103.58","","","","-40","","NA"
"-115.14","67.82","KUGLUKTUK A","2300903","2019-02-17 10:00","2019","02","17","10:00","-27.1","","-30.3","","75","","","","21","","22","","24.1","","103.46","","","","-40","","Blowing Snow"
"-115.14","67.82","KUGLUKTUK A","2300903","2019-02-17 11:00","2019","02","17","11:00","-25.6","","-28.6","","77","","","","22","","23","","24.1","","103.39","","","","-38","","Blowing Snow"
"-115.14","67.82","KUGLUKTUK A","2300903","2019-02-17 12:00","2019","02","17","12:00","-24.6","","-27.7","","76","","","","22","","28","","24.1","","103.29","","","","-38","","Blowing Snow"
"-115.14","67.82","KUGLUKTUK A","2300903","2019-02-17 13:00","2019","02","17","13:00","-24.3","","-27.4","","76","","","","23","","21","","24.1","","103.19","","","","-36","","Blowing Snow"
"-115.14","67.82","KUGLUKTUK A","2300903","2019-02-17 14:00","2019","02","17","14:00","-23.8","","-27.3","","74","","","","23","","23","","24.1","","103.14","","","","-36","","Blowing Snow"
"-115.14","67.82","KUGLUKTUK A","2300903","2019-02-17 15:00","2019","02","17","15:00","-23.6","","-27.6","","70","","","","21","","29","","24.1","","103.04","","","","-37","","Blowing Snow"
"-115.14","67.82","KUGLUKTUK A","2300903","2019-02-17 16:00","2019","02","17","16:00","-23.4","","-27.8","","68","","","","19","","28","","24.1","","102.89","","","","-37","","Blowing Snow"
"-115.14","67.82","KUGLUKTUK A","2300903","2019-02-17 17:00","2019","02","17","17:00","-23.4","","-27.7","","68","","","","21","","32","","24.1","","102.74","","","","-37","","Blowing Snow"
"-115.14","67.82","KUGLUKTUK A","2300903","2019-02-17 18:00","2019","02","17","18:00","-23.7","","-27.6","","71","","","","22","","42","","16.1","","102.62","","","","-39","","Blowing Snow"
"-115.14","67.82","KUGLUKTUK A","2300903","2019-02-17 19:00","2019","02","17","19:00","-24.0","","-27.8","","71","","","","21","","39","","24.1","","102.58","","","","-39","","Blowing Snow"
"-115.14","67.82","KUGLUKTUK A","2300903","2019-02-17 20:00","2019","02","17","20:00","-24.2","","-28.3","","69","","","","20","","23","","24.1","","102.53","","","","-37","","Blowing Snow"
"-115.14","67.82","KUGLUKTUK A","2300903","2019-02-17 21:00","2019","02","17","21:00","-23.7","","-27.7","","70","","","","21","","37","","12.9","","102.36","","","","-39","","Blowing Snow"
"-115.14","67.82","KUGLUKTUK A","2300903","2019-02-17 22:00","2019","02","17","22:00","-23.5","","-27.4","","71","","","","21","","32","","12.9","","102.29","","","","-38","","Ice Crystals,Blowing Snow"
"-115.14","67.82","KUGLUKTUK A","2300903","2019-02-17 23:00","2019","02","17","23:00","-24.1","","-28.1","","70","","","","21","","27","","24.1","","102.21","","","","-37","","Ice Crystals,Blowing Snow"
"-115.14","67.82","KUGLUKTUK A","2300903","2019-02-18 00:00","2019","02","18","00:00","-24.9","","-29.0","","69","","","","21","","31","","19.3","","102.12","","","","-39","","Ice Crystals,Blowing Snow"
"-115.14","67.82","KUGLUKTUK A","2300903","2019-02-18 01:00","2019","02","18","01:00","-25.0","","-29.0","","70","","","","20","","31","","16.1","","102.00","","","","-39","","Snow,Blowing Snow"
"-115.14","67.82","KUGLUKTUK A","2300903","2019-02-18 02:00","2019","02","18","02:00","-25.5","","-29.4","","70","","","","22","","29","","19.3","","101.85","","","","-40","","Ice Crystals,Blowing Snow"
"-115.14","67.82","KUGLUKTUK A","2300903","2019-02-18 03:00","2019","02","18","03:00","-24.6","","-28.4","","71","","","","22","","30","","24.1","","101.77","","","","-39","","Ice Crystals,Blowing Snow"
"-115.14","67.82","KUGLUKTUK A","2300903","2019-02-18 04:00","2019","02","18","04:00","-24.1","","-27.8","","73","","","","23","","29","","19.3","","101.66","","","","-38","","Ice Crystals,Blowing Snow"
"-115.14","67.82","KUGLUKTUK A","2300903","2019-02-18 05:00","2019","02","18","05:00","-23.9","","-27.4","","73","","","","23","","24","","24.1","","101.61","","","","-36","","Mainly Clear"
"-115.14","67.82","KUGLUKTUK A","2300903","2019-02-18 06:00","2019","02","18","06:00","-24.6","","-28.1","","73","","","","23","","19","","24.1","","101.55","","","","-36","","Snow"
"-115.14","67.82","KUGLUKTUK A","2300903","2019-02-18 07:00","2019","02","18","07:00","-22.9","","-26.5","","73","","","","24","","24","","24.1","","101.49","","","","-35","","Snow"
"-115.14","67.82","KUGLUKTUK A","2300903","2019-02-18 08:00","2019","02","18","08:00","-24.3","","-27.6","","75","","","","23","","15","","24.1","","101.44","","","","-34","","Mainly Clear"
"-115.14","67.82","KUGLUKTUK A","2300903","2019-02-18 09:00","2019","02","18","09:00","-24.2","","-27.4","","75","","","","21","","16","","24.1","","101.37","","","","-35","","NA"
"-115.14","67.82","KUGLUKTUK A","2300903","2019-02-18 10:00","2019","02","18","10:00","-22.3","","-25.8","","74","","","","19","","15","","24.1","","101.31","","","","-32","","NA"
"-115.14","67.82","KUGLUKTUK A","2300903","2019-02-18 11:00","2019","02","18","11:00","-21.5","","-25.1","","73","","","","21","","11","","24.1","","101.28","","","","-29","","Mostly Cloudy"
"-115.14","67.82","KUGLUKTUK A","2300903","2019-02-18 12:00","2019","02","18","12:00","-22.2","","-26.0","","72","","","","27","","4","","24.1","","101.23","","","","-26","","NA"
"-115.14","67.82","KUGLUKTUK A","2300903","2019-02-18 13:00","2019","02","18","13:00","-24.2","","-27.7","","73","","","","35","","7","","24.1","","101.21","","","","-31","","NA"
"-115.14","67.82","KUGLUKTUK A","2300903","2019-02-18 14:00","2019","02","18","14:00","-23.9","","-27.3","","74","","","","32","","7","","24.1","","101.18","","","","-30","","Clear"
"-115.14","67.82","KUGLUKTUK A","2300903","2019-02-18 15:00","2019","02","18","15:00","-25.7","","-29.0","","74","","","","34","","9","","24.1","","101.20","","","","-33","","NA"
"-115.14","67.82","KUGLUKTUK A","2300903","2019-02-18 16:00","2019","02","18","16:00","-27.0","","-30.3","","74","","","","36","","4","","24.1","","101.14","","","","-31","","NA"
"-115.14","67.82","KUGLUKTUK A","2300903","2019-02-18 17:00","2019","02","18","17:00","-26.9","","-30.0","","76","","","","1","","9","","24.1","","101.14","","","","-35","","Snow Grains"
"-115.14","67.82","KUGLUKTUK A","2300903","2019-02-18 18:00","2019","02","18","18:00","-26.8","","-29.8","","76","","","","2","","5","","24.1","","101.11","","","","-32","","Snow Grains"
"-115.14","67.82","KUGLUKTUK A","2300903","2019-02-18 19:00","2019","02","18","19:00","-26.2","","-29.2","","76","","","","36","","1","","16.1","","101.04","","","","-27","","Snow Grains"
"-115.14","67.82","KUGLUKTUK A","2300903","2019-02-18 20:00","2019","02","18","20:00","-25.8","","-28.4","","79","","","","32","","8","","6.4","","101.01","","","","-33","","Snow Grains,Fog"
"-115.14","67.82","KUGLUKTUK A","2300903","2019-02-18 21:00","2019","02","18","21:00","-25.7","","-28.2","","80","","","","26","","3","","6.4","","100.97","","","","-29","","Snow Grains,Fog"
"-115.14","67.82","KUGLUKTUK A","2300903","2019-02-18 22:00","2019","02","18","22:00","-25.0","","-27.7","","78","","","","32","","4","","16.1","","100.92","","","","-29","","Snow Grains"
"-115.14","67.82","KUGLUKTUK A","2300903","2019-02-18 23:00","2019","02","18","23:00","-24.3","","-27.1","","78","","","","9","","5","","8.1","","100.90","","","","-29","","Snow Grains,Fog"
"-115.14","67.82","KUGLUKTUK A","2300903","2019-02-19 00:00","2019","02","19","00:00","-23.8","","-26.6","","78","","","","12","","11","","16.1","","100.84","","","","-32","","Snow Grains"
"-115.14","67.82","KUGLUKTUK A","2300903","2019-02-19 01:00","2019","02","19","01:00","-22.9","","-25.6","","79","","","","7","","3","","19.3","","100.78","","","","-26","","Snow"
"-115.14","67.82","KUGLUKTUK A","2300903","2019-02-19 02:00","2019","02","19","02:00","-22.2","","-24.9","","79","","","","1","","7","","19.3","","100.73","","","","-28","","Snow,Snow Grains"
"-115.14","67.82","KUGLUKTUK A","2300903","2019-02-19 03:00","2019","02","19","03:00","-21.1","","-23.8","","80","","","","36","","1","","24.1","","100.70","","","","-22","","Snow"
"-115.14","67.82","KUGLUKTUK A","2300903","2019-02-19 04:00","2019","02","19","04:00","-21.2","","-23.8","","80","","","","1","","7","","24.1","","100.70","","","","-27","","Snow"
"-115.14","67.82","KUGLUKTUK A","2300903","2019-02-19 05:00","2019","02","19","05:00","-21.1","","-23.7","","80","","","","6","","4","","24.1","","100.67","","","","-25","","Mostly Cloudy"
"-115.14","67.82","KUGLUKTUK A","2300903","2019-02-19 06:00","2019","02","19","06:00","-23.4","","-26.2","","78","","","","33","","4","","24.1","","100.65","","","","-27","","NA"
"-115.14","67.82","KUGLUKTUK A","2300903","2019-02-19 07:00","2019","02","19","07:00","-24.2","","-27.0","","78","","","","36","","1","","24.1","","100.63","","","","-25","","NA"
"-115.14","67.82","KUGLUKTUK A","2300903","2019-02-19 08:00","2019","02","19","08:00","-25.9","","-28.9","","77","","","","33","","7","","24.1","","100.66","","","","-33","","Mainly Clear"
"-115.14","67.82","KUGLUKTUK A","2300903","2019-02-19 09:00","2019","02","19","09:00","-25.7","","-28.6","","77","","","","35","","7","","24.1","","100.69","","","","-32","","NA"
"-115.14","67.82","KUGLUKTUK A","2300903","2019-02-19 10:00","2019","02","19","10:00","-25.4","","-28.4","","77","","","","1","","5","","24.1","","100.73","","","","-30","","NA"
"-115.14","67.82","KUGLUKTUK A","2300903","2019-02-19 11:00","2019","02","19","11:00","-24.9","","-27.8","","77","","","","32","","6","","24.1","","100.76","","","","-31","","Mostly Cloudy"
"-115.14","67.82","KUGLUKTUK A","2300903","2019-02-19 12:00","2019","02","19","12:00","-24.7","","-27.6","","77","","","","36","","6","","24.1","","100.79","","","","-30","","NA"
"-115.14","67.82","KUGLUKTUK A","2300903","2019-02-19 13:00","2019","02","19","13:00","-24.1","","-27.0","","78","","","","1","","5","","24.1","","100.84","","","","-29","","NA"
"-115.14","67.82","KUGLUKTUK A","2300903","2019-02-19 14:00","2019","02","19","14:00","-24.5","","-27.4","","78","","","","2","","8","","19.3","","100.87","","","","-32","","Snow Grains"
"-115.14","67.82","KUGLUKTUK A","2300903","2019-02-19 15:00","2019","02","19","15:00","-23.8","","-26.6","","78","","","","36","","6","","24.1","","100.92","","","","-29","","Snow Grains"
"-115.14","67.82","KUGLUKTUK A","2300903","2019-02-19 16:00","2019","02","19","16:00","-23.4","","-26.2","","78","","","","36","","1","","3.2","","100.95","","","","-24","","Snow Grains"
"-115.14","67.82","KUGLUKTUK A","2300903","2019-02-19 17:00","2019","02","19","17:00","-23.6","","-26.4","","78","","","","5","","4","","8.1","","100.99","","","","-27","","Snow Grains"
"-115.14","67.82","KUGLUKTUK A","2300903","2019-02-19 18:00","2019","02","19","18:00","-23.6","","-26.4","","78","","","","1","","4","","9.7","","101.03","","","","-27","","Snow Grains"
"-115.14","67.82","KUGLUKTUK A","2300903","2019-02-19 19:00","2019","02","19","19:00","-24.4","","-27.3","","77","","","","2","","8","","16.1","","101.08","","","","-31","","Ice Crystals"
"-115.14","67.82","KUGLUKTUK A","2300903","2019-02-19 20:00","2019","02","19","20:00","-25.3","","-28.2","","77","","","","1","","8","","16.1","","101.13","","","","-32","","Ice Crystals"
"-115.14","67.82","KUGLUKTUK A","2300903","2019-02-19 21:00","2019","02","19","21:00","-25.2","","-28.1","","77","","","","4","","6","","12.9","","101.18","","","","-31","","Snow Grains"
"-115.14","67.82","KUGLUKTUK A","2300903","2019-02-19 22:00","2019","02","19","22:00","-25.2","","-28.2","","77","","","","4","","7","","16.1","","101.24","","","","-32","","Snow Grains"
"-115.14","67.82","KUGLUKTUK A","2300903","2019-02-19 23:00","2019","02","19","23:00","-25.9","","-28.9","","76","","","","3","","9","","16.1","","101.30","","","","-34","","Snow Grains"
"-115.14","67.82","KUGLUKTUK A","2300903","2019-02-20 00:00","2019","02","20","00:00","-27.4","","-30.5","","75","","","","2","","12","","19.3","","101.37","","","","-37","","Snow Grains"
"-115.14","67.82","KUGLUKTUK A","2300903","2019-02-20 01:00","2019","02","20","01:00","-28.6","","-31.8","","74","","","","3","","13","","19.3","","101.41","","","","-39","","Snow Grains"
"-115.14","67.82","KUGLUKTUK A","2300903","2019-02-20 02:00","2019","02","20","02:00","-29.4","","-32.7","","74","","","","3","","13","","19.3","","101.47","","","","-40","","Snow Grains"
"-115.14","67.82","KUGLUKTUK A","2300903","2019-02-20 03:00","2019","02","20","03:00","-30.0","","-33.3","","74","","","","4","","7","","19.3","","101.53","","","","-37","","Snow Grains"
"-115.14","67.82","KUGLUKTUK A","2300903","2019-02-20 04:00","2019","02","20","04:00","-29.5","","-32.8","","74","","","","2","","9","","24.1","","101.60","","","","-38","","Snow Grains"
"-115.14","67.82","KUGLUKTUK A","2300903","2019-02-20 05:00","2019","02","20","05:00","-29.2","","-32.5","","74","","","","3","","9","","19.3","","101.65","","","","-38","","Ice Crystals"
"-115.14","67.82","KUGLUKTUK A","2300903","2019-02-20 06:00","2019","02","20","06:00","-29.4","","-32.7","","74","","","","3","","8","","12.9","","101.72","","","","-37","","Ice Crystals"
"-115.14","67.82","KUGLUKTUK A","2300903","2019-02-20 07:00","2019","02","20","07:00","-30.0","","-33.3","","73","","","","4","","7","","19.3","","101.80","","","","-37","","Ice Crystals"
"-115.14","67.82","KUGLUKTUK A","2300903","2019-02-20 08:00","2019","02","20","08:00","-30.3","","-33.6","","73","","","","5","","5","","24.1","","101.84","","","","-36","","Ice Crystals"
"-115.14","67.82","KUGLUKTUK A","2300903","2019-02-20 09:00","2019","02","20","09:00","-30.2","","-33.5","","73","","","","1","","3","","24.1","","101.91","","","","-34","","NA"
"-115.14","67.82","KUGLUKTUK A","2300903","2019-02-20 10:00","2019","02","20","10:00","-30.4","","-33.8","","73","","","","3","","5","","24.1","","101.98","","","","-36","","NA"
"-115.14","67.82","KUGLUKTUK A","2300903","2019-02-20 11:00","2019","02","20","11:00","-30.1","","-33.5","","73","","","","35","","4","","24.1","","102.05","","","","-35","","Mostly Cloudy"
"-115.14","67.82","KUGLUKTUK A","2300903","2019-02-20 12:00","2019","02","20","12:00","-30.3","","-33.7","","73","","","","23","","4","","24.1","","102.08","","","","-35","","NA"
"-115.14","67.82","KUGLUKTUK A","2300903","2019-02-20 13:00","2019","02","20","13:00","-29.4","","-32.7","","73","","","","24","","6","","24.1","","102.10","","","","-36","","NA"
"-115.14","67.82","KUGLUKTUK A","2300903","2019-02-20 14:00","2019","02","20","14:00","-28.5","","-31.8","","74","","","","24","","7","","24.1","","102.13","","","","-36","","Cloudy"
"-115.14","67.82","KUGLUKTUK A","2300903","2019-02-20 15:00","2019","02","20","15:00","-28.1","","-31.3","","75","","","","21","","9","","24.1","","102.13","","","","-36","","NA"
"-115.14","67.82","KUGLUKTUK A","2300903","2019-02-20 16:00","2019","02","20","16:00","-28.0","","-31.2","","75","","","","23","","13","","24.1","","102.16","","","","-38","","NA"
"-115.14","67.82","KUGLUKTUK A","2300903","2019-02-20 17:00","2019","02","20","17:00","-27.7","","-30.9","","75","","","","23","","8","","24.1","","102.21","","","","-35","","Cloudy"
"-115.14","67.82","KUGLUKTUK A","2300903","2019-02-20 18:00","2019","02","20","18:00","-26.8","","-29.9","","76","","","","20","","15","","24.1","","102.18","","","","-37","","Snow Grains"
"-115.14","67.82","KUGLUKTUK A","2300903","2019-02-20 19:00","2019","02","20","19:00","-26.6","","-29.7","","76","","","","22","","15","","16.1","","102.16","","","","-37","","Snow Grains"
"-115.14","67.82","KUGLUKTUK A","2300903","2019-02-20 20:00","2019","02","20","20:00","-26.3","","-29.4","","76","","","","22","","13","","16.1","","102.11","","","","-36","","Snow Grains"
"-115.14","67.82","KUGLUKTUK A","2300903","2019-02-20 21:00","2019","02","20","21:00","-25.5","","-28.5","","77","","","","24","","18","","4.8","","102.09","","","","-37","","Snow Grains,Fog"
"-115.14","67.82","KUGLUKTUK A","2300903","2019-02-20 22:00","2019","02","20","22:00","-25.9","","-28.9","","76","","","","24","","18","","0.8","","102.05","","","","-37","","Snow,Freezing Fog"
"-115.14","67.82","KUGLUKTUK A","2300903","2019-02-20 23:00","2019","02","20","23:00","-25.6","","-28.6","","76","","","","23","","17","","8.1","","102.04","","","","-37","","Snow,Fog"
"-115.14","67.82","KUGLUKTUK A","2300903","2019-02-21 00:00","2019","02","21","00:00","-25.4","","-28.4","","77","","","","22","","18","","4.8","","101.98","","","","-37","","Snow,Fog"
"-115.14","67.82","KUGLUKTUK A","2300903","2019-02-21 01:00","2019","02","21","01:00","-24.9","","-27.9","","77","","","","22","","15","","6.4","","101.95","","","","-35","","Ice Crystals,Fog"
"-115.14","67.82","KUGLUKTUK A","2300903","2019-02-21 02:00","2019","02","21","02:00","-24.4","","-27.3","","77","","","","22","","21","","6.4","","101.89","","","","-36","","Ice Crystals,Fog"
"-115.14","67.82","KUGLUKTUK A","2300903","2019-02-21 03:00","2019","02","21","03:00","-24.4","","-27.3","","77","","","","23","","21","","1.6","","101.90","","","","-36","","Ice Crystals,Fog"
"-115.14","67.82","KUGLUKTUK A","2300903","2019-02-21 04:00","2019","02","21","04:00","-24.2","","-27.1","","78","","","","22","","17","","6.4","","101.84","","","","-35","","Ice Crystals"
"-115.14","67.82","KUGLUKTUK A","2300903","2019-02-21 05:00","2019","02","21","05:00","-24.1","","-26.9","","78","","","","21","","19","","2.4","","101.76","","","","-35","","Ice Crystals,Fog"
"-115.14","67.82","KUGLUKTUK A","2300903","2019-02-21 06:00","2019","02","21","06:00","-23.7","","-26.6","","78","","","","22","","23","","3.2","","101.68","","","","-36","","Ice Crystals,Fog"
"-115.14","67.82","KUGLUKTUK A","2300903","2019-02-21 07:00","2019","02","21","07:00","-23.4","","-26.2","","78","","","","23","","21","","1.6","","101.65","","","","-35","","Ice Crystals,Fog"
"-115.14","67.82","KUGLUKTUK A","2300903","2019-02-21 08:00","2019","02","21","08:00","-23.5","","-26.3","","78","","","","23","","22","","2.4","","101.58","","","","-35","","Ice Crystals,Fog"
"-115.14","67.82","KUGLUKTUK A","2300903","2019-02-21 09:00","2019","02","21","09:00","-23.9","","-26.7","","78","","","","23","","20","","2.0","","101.53","","","","-35","","Fog"
"-115.14","67.82","KUGLUKTUK A","2300903","2019-02-21 10:00","2019","02","21","10:00","-23.9","","-26.8","","78","","","","23","","16","","6.4","","101.45","","","","-34","","Fog"
"-115.14","67.82","KUGLUKTUK A","2300903","2019-02-21 11:00","2019","02","21","11:00","-23.4","","-26.2","","78","","","","23","","11","","16.1","","101.44","","","","-32","","Cloudy"
"-115.14","67.82","KUGLUKTUK A","2300903","2019-02-21 12:00","2019","02","21","12:00","-22.6","","-25.4","","79","","","","24","","9","","16.1","","101.43","","","","-30","","NA"
"-115.14","67.82","KUGLUKTUK A","2300903","2019-02-21 13:00","2019","02","21","13:00","-22.2","","-24.9","","79","","","","25","","16","","19.3","","101.37","","","","-32","","Snow Grains"
"-115.14","67.82","KUGLUKTUK A","2300903","2019-02-21 14:00","2019","02","21","14:00","-23.7","","-26.6","","78","","","","24","","16","","2.4","","101.33","","","","-34","","Fog"
"-115.14","67.82","KUGLUKTUK A","2300903","2019-02-21 15:00","2019","02","21","15:00","-23.6","","-26.5","","78","","","","24","","13","","2.4","","101.26","","","","-33","","Fog"
"-115.14","67.82","KUGLUKTUK A","2300903","2019-02-21 16:00","2019","02","21","16:00","-25.5","","-28.5","","76","","","","24","","13","","1.6","","101.25","","","","-35","","Fog"
"-115.14","67.82","KUGLUKTUK A","2300903","2019-02-21 17:00","2019","02","21","17:00","-27.3","","-30.5","","75","","","","22","","22","","24.1","","101.17","","","","-40","","Mainly Clear"
"-115.14","67.82","KUGLUKTUK A","2300903","2019-02-21 18:00","2019","02","21","18:00","-26.7","","-29.8","","76","","","","22","","19","","24.1","","101.14","","","","-39","","NA"
"-115.14","67.82","KUGLUKTUK A","2300903","2019-02-21 19:00","2019","02","21","19:00","-28.2","","-31.4","","75","","","","23","","18","","24.1","","101.10","","","","-40","","Ice Crystals"
"-115.14","67.82","KUGLUKTUK A","2300903","2019-02-21 20:00","2019","02","21","20:00","-27.4","","-30.5","","75","","","","23","","24","","24.1","","101.08","","","","-41","","Ice Crystals"
"-115.14","67.82","KUGLUKTUK A","2300903","2019-02-21 21:00","2019","02","21","21:00","-27.3","","-30.4","","76","","","","23","","23","","24.1","","101.09","","","","-41","","Ice Crystals"
"-115.14","67.82","KUGLUKTUK A","2300903","2019-02-21 22:00","2019","02","21","22:00","-26.6","","-29.7","","76","","","","23","","26","","24.1","","101.07","","","","-40","","Ice Crystals"
"-115.14","67.82","KUGLUKTUK A","2300903","2019-02-21 23:00","2019","02","21","23:00","-25.9","","-28.9","","76","","","","23","","25","","19.3","","101.08","","","","-39","","Ice Crystals,Blowing Snow"
"-115.14","67.82","KUGLUKTUK A","2300903","2019-02-22 00:00","2019","02","22","00:00","-27.3","","-30.6","","75","","","","23","","25","","24.1","","101.05","","","","-41","","Ice Crystals"
"-115.14","67.82","KUGLUKTUK A","2300903","2019-02-22 01:00","2019","02","22","01:00","-27.4","","-30.6","","75","","","","23","","26","","24.1","","101.03","","","","-41","","Ice Crystals,Blowing Snow"
"-115.14","67.82","KUGLUKTUK A","2300903","2019-02-22 02:00","2019","02","22","02:00","-26.1","","-29.1","","76","","","","24","","25","","24.1","","101.08","","","","-39","","Ice Crystals"
"-115.14","67.82","KUGLUKTUK A","2300903","2019-02-22 03:00","2019","02","22","03:00","-27.7","","-30.9","","75","","","","23","","20","","24.1","","101.12","","","","-40","","Ice Crystals"
"-115.14","67.82","KUGLUKTUK A","2300903","2019-02-22 04:00","2019","02","22","04:00","-27.5","","-30.7","","75","","","","23","","27","","16.1","","101.09","","","","-42","","Ice Crystals,Blowing Snow"
"-115.14","67.82","KUGLUKTUK A","2300903","2019-02-22 05:00","2019","02","22","05:00","-26.4","","-29.5","","76","","","","24","","35","","12.9","","101.09","","","","-42","","Ice Crystals,Blowing Snow"
"-115.14","67.82","KUGLUKTUK A","2300903","2019-02-22 06:00","2019","02","22","06:00","-26.2","","-29.3","","76","","","","24","","34","","6.4","","101.14","","","","-41","","Snow,Blowing Snow"
"-115.14","67.82","KUGLUKTUK A","2300903","2019-02-22 07:00","2019","02","22","07:00","-24.2","","-27.0","","78","","","","25","","30","","4.8","","101.18","","","","-38","","Snow,Blowing Snow"
"-115.14","67.82","KUGLUKTUK A","2300903","2019-02-22 08:00","2019","02","22","08:00","-23.4","","-26.2","","78","","","","27","","32","","1.2","","101.21","","","","-37","","Snow,Blowing Snow"
"-115.14","67.82","KUGLUKTUK A","2300903","2019-02-22 09:00","2019","02","22","09:00","-21.7","","-24.4","","79","","","","29","","27","","24.1","","101.29","","","","-34","","Blowing Snow"
"-115.14","67.82","KUGLUKTUK A","2300903","2019-02-22 10:00","2019","02","22","10:00","-22.2","","-25.0","","79","","","","31","","31","","12.9","","101.40","","","","-36","","Blowing Snow"
"-115.14","67.82","KUGLUKTUK A","2300903","2019-02-22 11:00","2019","02","22","11:00","-21.9","","-24.8","","78","","","","30","","23","","16.1","","101.58","","","","-34","","Snow Grains,Blowing Snow"
"-115.14","67.82","KUGLUKTUK A","2300903","2019-02-22 12:00","2019","02","22","12:00","-22.6","","-25.9","","75","","","","30","","20","","16.1","","101.71","","","","-34","","Snow Grains,Blowing Snow"
"-115.14","67.82","KUGLUKTUK A","2300903","2019-02-22 13:00","2019","02","22","13:00","-23.5","","-27.1","","73","","","","32","","28","","19.3","","101.83","","","","-37","","Blowing Snow"
"-115.14","67.82","KUGLUKTUK A","2300903","2019-02-22 14:00","2019","02","22","14:00","-23.8","","-27.6","","72","","","","31","","36","","8.1","","101.93","","","","-39","","Snow Grains,Blowing Snow"
"-115.14","67.82","KUGLUKTUK A","2300903","2019-02-22 15:00","2019","02","22","15:00","-24.2","","-27.9","","72","","","","29","","27","","4.8","","102.07","","","","-37","","Snow Grains,Blowing Snow"
"-115.14","67.82","KUGLUKTUK A","2300903","2019-02-22 16:00","2019","02","22","16:00","-24.9","","-28.8","","71","","","","31","","36","","6.4","","102.13","","","","-40","","Blowing Snow"
"-115.14","67.82","KUGLUKTUK A","2300903","2019-02-22 17:00","2019","02","22","17:00","-25.7","","-29.4","","72","","","","31","","34","","4.8","","102.25","","","","-41","","Blowing Snow"
"-115.14","67.82","KUGLUKTUK A","2300903","2019-02-22 18:00","2019","02","22","18:00","-25.7","","-29.5","","71","","","","31","","33","","4.8","","102.38","","","","-41","","Blowing Snow"
"-115.14","67.82","KUGLUKTUK A","2300903","2019-02-22 19:00","2019","02","22","19:00","-26.4","","-30.1","","72","","","","29","","31","","2.0","","102.45","","","","-41","","Fog,Blowing Snow"
"-115.14","67.82","KUGLUKTUK A","2300903","2019-02-22 20:00","2019","02","22","20:00","-27.3","","-30.6","","74","","","","31","","21","","4.8","","102.57","","","","-40","","Fog,Blowing Snow"
"-115.14","67.82","KUGLUKTUK A","2300903","2019-02-22 21:00","2019","02","22","21:00","-27.4","","-30.8","","74","","","","29","","25","","6.4","","102.67","","","","-41","","Fog,Blowing Snow"
"-115.14","67.82","KUGLUKTUK A","2300903","2019-02-22 22:00","2019","02","22","22:00","-26.8","","-29.9","","75","","","","34","","20","","2.4","","102.77","","","","-39","","Ice Crystals,Fog"
"-115.14","67.82","KUGLUKTUK A","2300903","2019-02-22 23:00","2019","02","22","23:00","-27.2","","-30.5","","74","","","","26","","19","","12.9","","102.87","","","","-39","","Ice Crystals"
"-115.14","67.82","KUGLUKTUK A","2300903","2019-02-23 00:00","2019","02","23","00:00","-26.4","","-29.8","","74","","","","20","","15","","6.4","","102.93","","","","-37","","Ice Crystals"
"-115.14","67.82","KUGLUKTUK A","2300903","2019-02-23 01:00","2019","02","23","01:00","-25.5","","-29.1","","73","","","","26","","13","","12.9","","103.01","","","","-35","","Ice Crystals"
"-115.14","67.82","KUGLUKTUK A","2300903","2019-02-23 02:00","2019","02","23","02:00","-25.9","","-30.1","","68","","","","29","","23","","19.3","","103.08","","","","-39","","Ice Crystals,Blowing Snow"
"-115.14","67.82","KUGLUKTUK A","2300903","2019-02-23 03:00","2019","02","23","03:00","-25.9","","-29.9","","69","","","","29","","26","","12.9","","103.12","","","","-39","","Ice Crystals,Blowing Snow"
"-115.14","67.82","KUGLUKTUK A","2300903","2019-02-23 04:00","2019","02","23","04:00","-26.0","","-30.2","","68","","","","28","","24","","16.1","","103.17","","","","-39","","Ice Crystals,Blowing Snow"
"-115.14","67.82","KUGLUKTUK A","2300903","2019-02-23 05:00","2019","02","23","05:00","-26.5","","-29.8","","74","","","","25","","33","","9.7","","103.22","","","","-42","","Ice Crystals,Blowing Snow"
"-115.14","67.82","KUGLUKTUK A","2300903","2019-02-23 06:00","2019","02","23","06:00","-26.5","","-29.8","","74","","","","26","","35","","12.9","","103.26","","","","-42","","Ice Crystals,Blowing Snow"
"-115.14","67.82","KUGLUKTUK A","2300903","2019-02-23 07:00","2019","02","23","07:00","-26.8","","-30.4","","72","","","","27","","35","","9.7","","103.30","","","","-42","","Ice Crystals,Blowing Snow"
"-115.14","67.82","KUGLUKTUK A","2300903","2019-02-23 08:00","2019","02","23","08:00","-27.2","","-31.4","","68","","","","28","","31","","12.9","","103.35","","","","-42","","Ice Crystals,Blowing Snow"
"-115.14","67.82","KUGLUKTUK A","2300903","2019-02-23 09:00","2019","02","23","09:00","-26.7","","-31.3","","66","","","","26","","28","","16.1","","103.36","","","","-41","","Ice Crystals,Blowing Snow"
"-115.14","67.82","KUGLUKTUK A","2300903","2019-02-23 10:00","2019","02","23","10:00","-27.8","","-32.4","","65","","","","26","","37","","19.3","","103.32","","","","-44","","Ice Crystals,Blowing Snow"
"-115.14","67.82","KUGLUKTUK A","2300903","2019-02-23 11:00","2019","02","23","11:00","-26.0","","-31.4","","62","","","","26","","32","","19.3","","103.35","","","","-41","","Ice Crystals,Blowing Snow"
"-115.14","67.82","KUGLUKTUK A","2300903","2019-02-23 12:00","2019","02","23","12:00","-26.8","","-31.7","","64","","","","21","","21","","19.3","","103.37","","","","-39","","Ice Crystals,Blowing Snow"
"-115.14","67.82","KUGLUKTUK A","2300903","2019-02-23 13:00","2019","02","23","13:00","-26.6","","-31.8","","63","","","","21","","23","","24.1","","103.35","","","","-40","","Ice Crystals,Blowing Snow"
"-115.14","67.82","KUGLUKTUK A","2300903","2019-02-23 14:00","2019","02","23","14:00","-25.9","","-31.0","","63","","","","24","","31","","24.1","","103.32","","","","-40","","Ice Crystals,Blowing Snow"
"-115.14","67.82","KUGLUKTUK A","2300903","2019-02-23 15:00","2019","02","23","15:00","-25.6","","-30.9","","62","","","","24","","30","","24.1","","103.28","","","","-40","","Ice Crystals,Blowing Snow"
"-115.14","67.82","KUGLUKTUK A","2300903","2019-02-23 16:00","2019","02","23","16:00","-26.2","","-31.2","","63","","","","24","","31","","24.1","","103.24","","","","-41","","Ice Crystals,Blowing Snow"
"-115.14","67.82","KUGLUKTUK A","2300903","2019-02-23 17:00","2019","02","23","17:00","-28.1","","-32.6","","66","","","","23","","25","","24.1","","103.23","","","","-42","","Ice Crystals,Blowing Snow"
"-115.14","67.82","KUGLUKTUK A","2300903","2019-02-23 18:00","2019","02","23","18:00","-28.1","","-32.6","","66","","","","22","","20","","24.1","","103.20","","","","-41","","Ice Crystals,Blowing Snow"
"-115.14","67.82","KUGLUKTUK A","2300903","2019-02-23 19:00","2019","02","23","19:00","-28.4","","-32.7","","67","","","","24","","37","","24.1","","103.15","","","","-45","","Ice Crystals,Blowing Snow"
"-115.14","67.82","KUGLUKTUK A","2300903","2019-02-23 20:00","2019","02","23","20:00","-28.8","","-33.2","","67","","","","23","","27","","24.1","","103.18","","","","-43","","Ice Crystals,Blowing Snow"
"-115.14","67.82","KUGLUKTUK A","2300903","2019-02-23 21:00","2019","02","23","21:00","-28.7","","-33.3","","65","","","","23","","31","","24.1","","103.14","","","","-44","","Ice Crystals,Blowing Snow"
"-115.14","67.82","KUGLUKTUK A","2300903","2019-02-23 22:00","2019","02","23","22:00","-29.0","","-33.9","","63","","","","21","","23","","24.1","","103.12","","","","-43","","Ice Crystals"
"-115.14","67.82","KUGLUKTUK A","2300903","2019-02-23 23:00","2019","02","23","23:00","-29.9","","-34.3","","66","","","","23","","25","","24.1","","103.12","","","","-44","","Clear"
"-115.14","67.82","KUGLUKTUK A","2300903","2019-02-24 00:00","2019","02","24","00:00","-30.2","","-34.8","","65","","","","22","","24","","24.1","","103.12","","","","-44","","NA"
"-115.14","67.82","KUGLUKTUK A","2300903","2019-02-24 01:00","2019","02","24","01:00","-29.8","","-34.8","","63","","","","23","","23","","24.1","","103.13","","","","-44","","NA"
"-115.14","67.82","KUGLUKTUK A","2300903","2019-02-24 02:00","2019","02","24","02:00","-31.0","","-35.5","","66","","","","22","","22","","24.1","","103.13","","","","-45","","Clear"
"-115.14","67.82","KUGLUKTUK A","2300903","2019-02-24 03:00","2019","02","24","03:00","-30.2","","-34.9","","65","","","","22","","22","","24.1","","103.13","","","","-44","","NA"
"-115.14","67.82","KUGLUKTUK A","2300903","2019-02-24 04:00","2019","02","24","04:00","-31.0","","-35.3","","67","","","","23","","22","","24.1","","103.12","","","","-45","","NA"
"-115.14","67.82","KUGLUKTUK A","2300903","2019-02-24 05:00","2019","02","24","05:00","-31.5","","-35.6","","68","","","","23","","18","","24.1","","103.08","","","","-44","","Clear"
"-115.14","67.82","KUGLUKTUK A","2300903","2019-02-24 06:00","2019","02","24","06:00","-31.3","","-35.4","","68","","","","22","","21","","24.1","","103.01","","","","-45","","NA"
"-115.14","67.82","KUGLUKTUK A","2300903","2019-02-24 07:00","2019","02","24","07:00","-30.4","","-34.6","","67","","","","22","","24","","24.1","","102.94","","","","-45","","NA"
"-115.14","67.82","KUGLUKTUK A","2300903","2019-02-24 08:00","2019","02","24","08:00","-29.8","","-34.2","","66","","","","26","","5","","24.1","","102.90","","","","-35","","Cloudy"
"-115.14","67.82","KUGLUKTUK A","2300903","2019-02-24 09:00","2019","02","24","09:00","-29.6","","-34.2","","65","","","","23","","25","","24.1","","102.88","","","","-44","","Blowing Snow"
"-115.14","67.82","KUGLUKTUK A","2300903","2019-02-24 10:00","2019","02","24","10:00","-29.0","","-33.6","","65","","","","21","","23","","24.1","","102.84","","","","-43","","Blowing Snow"
"-115.14","67.82","KUGLUKTUK A","2300903","2019-02-24 11:00","2019","02","24","11:00","-26.7","","-31.8","","63","","","","22","","29","","24.1","","102.77","","","","-41","","Blowing Snow"
"-115.14","67.82","KUGLUKTUK A","2300903","2019-02-24 12:00","2019","02","24","12:00","-26.0","","-30.9","","64","","","","23","","27","","24.1","","102.71","","","","-40","","Blowing Snow"
"-115.14","67.82","KUGLUKTUK A","2300903","2019-02-24 13:00","2019","02","24","13:00","-24.1","","-29.3","","63","","","","23","","29","","24.1","","102.63","","","","-38","","Blowing Snow"
"-115.14","67.82","KUGLUKTUK A","2300903","2019-02-24 14:00","2019","02","24","14:00","-22.8","","-28.3","","62","","","","22","","32","","19.3","","102.52","","","","-37","","Blowing Snow"
"-115.14","67.82","KUGLUKTUK A","2300903","2019-02-24 15:00","2019","02","24","15:00","-22.1","","-27.1","","65","","","","22","","34","","19.3","","102.43","","","","-36","","Blowing Snow"
"-115.14","67.82","KUGLUKTUK A","2300903","2019-02-24 16:00","2019","02","24","16:00","-22.0","","-26.1","","70","","","","24","","18","","19.3","","102.37","","","","-32","","Blowing Snow"
"-115.14","67.82","KUGLUKTUK A","2300903","2019-02-24 17:00","2019","02","24","17:00","-21.2","","-24.7","","74","","","","23","","35","","19.3","","102.28","","","","-35","","Blowing Snow"
"-115.14","67.82","KUGLUKTUK A","2300903","2019-02-24 18:00","2019","02","24","18:00","-21.7","","-25.2","","74","","","","23","","41","","16.1","","102.15","","","","-37","","Blowing Snow"
"-115.14","67.82","KUGLUKTUK A","2300903","2019-02-24 19:00","2019","02","24","19:00","-21.9","","-25.5","","73","","","","24","","43","","16.1","","102.05","","","","-37","","Blowing Snow"
"-115.14","67.82","KUGLUKTUK A","2300903","2019-02-24 20:00","2019","02","24","20:00","-19.7","","-23.4","","73","","","","24","","30","","19.3","","102.06","","","","-32","","Blowing Snow"
"-115.14","67.82","KUGLUKTUK A","2300903","2019-02-24 21:00","2019","02","24","21:00","-19.5","","-22.8","","75","","","","23","","30","","19.3","","101.97","","","","-32","","Snow,Blowing Snow"
"-115.14","67.82","KUGLUKTUK A","2300903","2019-02-24 22:00","2019","02","24","22:00","-19.1","","-22.3","","76","","","","23","","31","","16.1","","101.93","","","","-32","","Snow,Blowing Snow"
"-115.14","67.82","KUGLUKTUK A","2300903","2019-02-24 23:00","2019","02","24","23:00","-18.0","","-20.9","","79","","","","25","","36","","4.8","","101.92","","","","-31","","Snow,Blowing Snow"
"-115.14","67.82","KUGLUKTUK A","2300903","2019-02-25 00:00","2019","02","25","00:00","-17.5","","-20.2","","80","","","","25","","31","","4.8","","101.90","","","","-29","","Snow,Blowing Snow"
"-115.14","67.82","KUGLUKTUK A","2300903","2019-02-25 01:00","2019","02","25","01:00","-16.6","","-19.1","","81","","","","26","","34","","3.2","","101.85","","","","-29","","Snow,Blowing Snow"
"-115.14","67.82","KUGLUKTUK A","2300903","2019-02-25 02:00","2019","02","25","02:00","-16.2","","-18.7","","81","","","","26","","32","","3.2","","101.87","","","","-28","","Snow,Blowing Snow"
"-115.14","67.82","KUGLUKTUK A","2300903","2019-02-25 03:00","2019","02","25","03:00","-15.8","","-18.2","","82","","","","25","","33","","3.2","","101.87","","","","-28","","Snow,Blowing Snow"
"-115.14","67.82","KUGLUKTUK A","2300903","2019-02-25 04:00","2019","02","25","04:00","-14.9","","-17.2","","82","","","","26","","32","","6.4","","101.82","","","","-26","","Snow,Blowing Snow"
"-115.14","67.82","KUGLUKTUK A","2300903","2019-02-25 05:00","2019","02","25","05:00","-13.7","","-16.2","","82","","","","27","","26","","12.9","","101.87","","","","-24","","Snow,Blowing Snow"
"-115.14","67.82","KUGLUKTUK A","2300903","2019-02-25 06:00","2019","02","25","06:00","-12.9","","-15.8","","79","","","","32","","18","","16.1","","101.91","","","","-21","","Snow"
"-115.14","67.82","KUGLUKTUK A","2300903","2019-02-25 07:00","2019","02","25","07:00","-13.2","","-16.1","","79","","","","34","","22","","12.9","","101.93","","","","-22","","Snow,Blowing Snow"
"-115.14","67.82","KUGLUKTUK A","2300903","2019-02-25 08:00","2019","02","25","08:00","-13.7","","-16.2","","81","","","","32","","8","","16.1","","101.93","","","","-19","","Snow"
"-115.14","67.82","KUGLUKTUK A","2300903","2019-02-25 09:00","2019","02","25","09:00","-13.8","","-16.1","","83","","","","22","","11","","16.1","","101.93","","","","-20","","Snow"
"-115.14","67.82","KUGLUKTUK A","2300903","2019-02-25 10:00","2019","02","25","10:00","-12.7","","-15.1","","82","","","","26","","21","","12.9","","101.91","","","","-21","","Snow"
"-115.14","67.82","KUGLUKTUK A","2300903","2019-02-25 11:00","2019","02","25","11:00","-13.0","","-15.4","","83","","","","23","","16","","16.1","","101.88","","","","-21","","Snow"
"-115.14","67.82","KUGLUKTUK A","2300903","2019-02-25 12:00","2019","02","25","12:00","-12.6","","-15.0","","83","","","","26","","29","","24.1","","101.82","","","","-23","","Snow"
"-115.14","67.82","KUGLUKTUK A","2300903","2019-02-25 13:00","2019","02","25","13:00","-12.4","","-14.9","","81","","","","26","","30","","24.1","","101.78","","","","-23","","Snow"
"-115.14","67.82","KUGLUKTUK A","2300903","2019-02-25 14:00","2019","02","25","14:00","-12.3","","-15.3","","79","","","","25","","30","","24.1","","101.81","","","","-23","","Snow"
"-115.14","67.82","KUGLUKTUK A","2300903","2019-02-25 15:00","2019","02","25","15:00","-13.8","","-16.6","","80","","","","24","","30","","24.1","","101.78","","","","-24","","NA"
"-115.14","67.82","KUGLUKTUK A","2300903","2019-02-25 16:00","2019","02","25","16:00","-12.4","","-15.2","","80","","","","25","","28","","24.1","","101.65","","","","-22","","NA"
"-115.14","67.82","KUGLUKTUK A","2300903","2019-02-25 17:00","2019","02","25","17:00","-12.0","","-14.7","","81","","","","24","","28","","24.1","","101.56","","","","-22","","Cloudy"
"-115.14","67.82","KUGLUKTUK A","2300903","2019-02-25 18:00","2019","02","25","18:00","-11.3","","-14.1","","80","","","","25","","36","","4.0","","101.46","","","","-22","","Snow,Blowing Snow"
"-115.14","67.82","KUGLUKTUK A","2300903","2019-02-25 19:00","2019","02","25","19:00","-10.9","","-13.1","","84","","","","24","","24","","3.2","","101.40","","","","-20","","Snow,Blowing Snow"
"-115.14","67.82","KUGLUKTUK A","2300903","2019-02-25 20:00","2019","02","25","20:00","-10.4","","-12.8","","83","","","","24","","29","","16.1","","101.32","","","","-20","","Snow,Blowing Snow"
"-115.14","67.82","KUGLUKTUK A","2300903","2019-02-25 21:00","2019","02","25","21:00","-8.3","","-10.6","","84","","","","32","","34","","9.7","","101.35","","","","-18","","Snow,Blowing Snow"
"-115.14","67.82","KUGLUKTUK A","2300903","2019-02-25 22:00","2019","02","25","22:00","-9.7","","-11.6","","86","","","","33","","28","","9.7","","101.41","","","","-19","","Snow Grains,Blowing Snow"
"-115.14","67.82","KUGLUKTUK A","2300903","2019-02-25 23:00","2019","02","25","23:00","-9.6","","-11.7","","85","","","","34","","33","","8.1","","101.48","","","","-19","","Blowing Snow"
"-115.14","67.82","KUGLUKTUK A","2300903","2019-02-26 00:00","2019","02","26","00:00","-9.9","","-12.1","","85","","","","33","","26","","24.1","","101.48","","","","-19","","Blowing Snow"
"-115.14","67.82","KUGLUKTUK A","2300903","2019-02-26 01:00","2019","02","26","01:00","-8.7","","-10.8","","85","","","","27","","25","","16.1","","101.45","","","","-17","","Snow Grains"
"-115.14","67.82","KUGLUKTUK A","2300903","2019-02-26 02:00","2019","02","26","02:00","-9.7","","-12.8","","78","","","","27","","23","","24.1","","101.40","","","","-18","","Blowing Snow"
"-115.14","67.82","KUGLUKTUK A","2300903","2019-02-26 03:00","2019","02","26","03:00","-8.4","","-12.2","","74","","","","27","","28","","24.1","","101.35","","","","-17","","Blowing Snow"
"-115.14","67.82","KUGLUKTUK A","2300903","2019-02-26 04:00","2019","02","26","04:00","-7.8","","-10.9","","79","","","","31","","47","","9.7","","101.20","","","","-19","","Blowing Snow"
"-115.14","67.82","KUGLUKTUK A","2300903","2019-02-26 05:00","2019","02","26","05:00","-9.2","","-11.8","","81","","","","28","","35","","9.7","","101.17","","","","-19","","Blowing Snow"
"-115.14","67.82","KUGLUKTUK A","2300903","2019-02-26 06:00","2019","02","26","06:00","-9.3","","-11.9","","82","","","","28","","34","","12.9","","101.15","","","","-19","","Blowing Snow"
"-115.14","67.82","KUGLUKTUK A","2300903","2019-02-26 07:00","2019","02","26","07:00","-8.5","","-11.0","","82","","","","28","","42","","16.1","","101.04","","","","-19","","Blowing Snow"
"-115.14","67.82","KUGLUKTUK A","2300903","2019-02-26 08:00","2019","02","26","08:00","-8.1","","-10.5","","83","","","","29","","50","","16.1","","101.00","","","","-19","","Blowing Snow"
"-115.14","67.82","KUGLUKTUK A","2300903","2019-02-26 09:00","2019","02","26","09:00","-10.0","","-12.8","","80","","","","28","","32","","24.1","","101.07","","","","-20","","Blowing Snow"
"-115.14","67.82","KUGLUKTUK A","2300903","2019-02-26 10:00","2019","02","26","10:00","-9.3","","-12.0","","81","","","","27","","31","","12.9","","101.07","","","","-19","","Snow,Blowing Snow"
"-115.14","67.82","KUGLUKTUK A","2300903","2019-02-26 11:00","2019","02","26","11:00","-9.4","","-11.6","","85","","","","28","","47","","9.7","","101.06","","","","-21","","Snow,Blowing Snow"
"-115.14","67.82","KUGLUKTUK A","2300903","2019-02-26 12:00","2019","02","26","12:00","-8.9","","-11.6","","81","","","","31","","50","","6.4","","101.08","","","","-20","","Snow,Blowing Snow"
"-115.14","67.82","KUGLUKTUK A","2300903","2019-02-26 13:00","2019","02","26","13:00","-9.1","","-11.7","","82","","","","30","","40","","8.1","","101.15","","","","-20","","Snow,Blowing Snow"
"-115.14","67.82","KUGLUKTUK A","2300903","2019-02-26 14:00","2019","02","26","14:00","-9.5","","-11.4","","87","","","","32","","55","","3.2","","101.16","","","","-22","","Snow,Blowing Snow"
"-115.14","67.82","KUGLUKTUK A","2300903","2019-02-26 15:00","2019","02","26","15:00","-9.6","","-11.6","","86","","","","31","","41","","2.4","","101.25","","","","-20","","Snow,Blowing Snow"
"-115.14","67.82","KUGLUKTUK A","2300903","2019-02-26 16:00","2019","02","26","16:00","-9.8","","-12.5","","81","","","","31","","37","","6.4","","101.33","","","","-20","","Snow,Blowing Snow"
"-115.14","67.82","KUGLUKTUK A","2300903","2019-02-26 17:00","2019","02","26","17:00","-13.3","","-15.6","","83","","","","35","","39","","6.4","","101.46","","","","-25","","Snow,Blowing Snow"
"-115.14","67.82","KUGLUKTUK A","2300903","2019-02-26 18:00","2019","02","26","18:00","-14.0","","-16.9","","79","","","","33","","36","","4.8","","101.58","","","","-26","","Snow,Blowing Snow"
"-115.14","67.82","KUGLUKTUK A","2300903","2019-02-26 19:00","2019","02","26","19:00","-14.1","","-16.9","","79","","","","33","","37","","9.7","","101.66","","","","-26","","Snow,Blowing Snow"
"-115.14","67.82","KUGLUKTUK A","2300903","2019-02-26 20:00","2019","02","26","20:00","-13.8","","-16.9","","78","","","","31","","25","","9.7","","101.65","","","","-24","","Snow,Blowing Snow"
"-115.14","67.82","KUGLUKTUK A","2300903","2019-02-26 21:00","2019","02","26","21:00","-13.7","","-16.5","","79","","","","31","","26","","16.1","","101.68","","","","-24","","Snow,Blowing Snow"
"-115.14","67.82","KUGLUKTUK A","2300903","2019-02-26 22:00","2019","02","26","22:00","-13.4","","-16.6","","77","","","","30","","31","","16.1","","101.69","","","","-24","","Snow,Blowing Snow"
"-115.14","67.82","KUGLUKTUK A","2300903","2019-02-26 23:00","2019","02","26","23:00","-12.7","","-15.7","","79","","","","31","","39","","12.9","","101.67","","","","-24","","Snow,Blowing Snow"
"-115.14","67.82","KUGLUKTUK A","2300903","2019-02-27 00:00","2019","02","27","00:00","-13.9","","-16.0","","84","","","","33","","50","","2.8","","101.75","","","","-27","","Snow,Blowing Snow"
"-115.14","67.82","KUGLUKTUK A","2300903","2019-02-27 01:00","2019","02","27","01:00","-14.4","","-16.4","","85","","","","32","","58","","0.2","","101.79","","","","-29","","Blowing Snow"
"-115.14","67.82","KUGLUKTUK A","2300903","2019-02-27 02:00","2019","02","27","02:00","-15.1","","-17.4","","83","","","","32","","44","","2.8","","101.87","","","","-28","","Blowing Snow"
"-115.14","67.82","KUGLUKTUK A","2300903","2019-02-27 03:00","2019","02","27","03:00","-15.8","","-18.0","","83","","","","33","","58","","2.4","","101.90","","","","-30","","Blowing Snow"
"-115.14","67.82","KUGLUKTUK A","2300903","2019-02-27 04:00","2019","02","27","04:00","-16.7","","-19.0","","83","","","","33","","49","","1.6","","101.98","","","","-31","","Blowing Snow"
"-115.14","67.82","KUGLUKTUK A","2300903","2019-02-27 05:00","2019","02","27","05:00","-18.8","","-21.4","","80","","","","33","","32","","2.4","","102.08","","","","-31","","Blowing Snow"
"-115.14","67.82","KUGLUKTUK A","2300903","2019-02-27 06:00","2019","02","27","06:00","-18.3","","-20.7","","82","","","","33","","48","","1.6","","102.12","","","","-33","","Blowing Snow"
"-115.14","67.82","KUGLUKTUK A","2300903","2019-02-27 07:00","2019","02","27","07:00","-18.4","","-20.8","","82","","","","33","","46","","0.8","","102.15","","","","-33","","Blowing Snow"
"-115.14","67.82","KUGLUKTUK A","2300903","2019-02-27 08:00","2019","02","27","08:00","-19.1","","-21.6","","81","","","","33","","49","","0.2","","102.17","","","","-34","","Blowing Snow"
"-115.14","67.82","KUGLUKTUK A","2300903","2019-02-27 09:00","2019","02","27","09:00","-19.9","","-22.5","","80","","","","33","","44","","3.2","","102.29","","","","-35","","Blowing Snow"
"-115.14","67.82","KUGLUKTUK A","2300903","2019-02-27 10:00","2019","02","27","10:00","-20.8","","-23.6","","78","","","","32","","35","","9.7","","102.34","","","","-34","","Blowing Snow"
"-115.14","67.82","KUGLUKTUK A","2300903","2019-02-27 11:00","2019","02","27","11:00","-20.9","","-23.8","","78","","","","33","","30","","4.8","","102.44","","","","-34","","Snow,Blowing Snow"
"-115.14","67.82","KUGLUKTUK A","2300903","2019-02-27 12:00","2019","02","27","12:00","-21.2","","-24.3","","77","","","","34","","28","","12.9","","102.54","","","","-34","","Blowing Snow"
"-115.14","67.82","KUGLUKTUK A","2300903","2019-02-27 13:00","2019","02","27","13:00","-21.2","","-24.2","","77","","","","34","","33","","4.8","","102.55","","","","-35","","Snow,Blowing Snow"
"-115.14","67.82","KUGLUKTUK A","2300903","2019-02-27 14:00","2019","02","27","14:00","-21.3","","-24.5","","76","","","","34","","32","","9.7","","102.66","","","","-35","","Snow,Blowing Snow"
"-115.14","67.82","KUGLUKTUK A","2300903","2019-02-27 15:00","2019","02","27","15:00","-21.4","","-24.4","","77","","","","34","","33","","3.2","","102.70","","","","-35","","Snow,Blowing Snow"
"-115.14","67.82","KUGLUKTUK A","2300903","2019-02-27 16:00","2019","02","27","16:00","-21.7","","-24.9","","75","","","","34","","32","","8.1","","102.78","","","","-35","","Snow,Blowing Snow"
"-115.14","67.82","KUGLUKTUK A","2300903","2019-02-27 17:00","2019","02","27","17:00","-22.4","","-25.9","","74","","","","35","","32","","8.1","","102.89","","","","-36","","Snow,Blowing Snow"
"-115.14","67.82","KUGLUKTUK A","2300903","2019-02-27 18:00","2019","02","27","18:00","-23.9","","-27.3","","74","","","","34","","28","","16.1","","102.94","","","","-37","","NA"
"-115.14","67.82","KUGLUKTUK A","2300903","2019-02-27 19:00","2019","02","27","19:00","-23.9","","-27.1","","75","","","","35","","24","","19.3","","103.02","","","","-36","","Snow"
"-115.14","67.82","KUGLUKTUK A","2300903","2019-02-27 20:00","2019","02","27","20:00","-25.7","","-28.9","","75","","","","33","","15","","24.1","","103.05","","","","-36","","Mainly Clear"
"-115.14","67.82","KUGLUKTUK A","2300903","2019-02-27 21:00","2019","02","27","21:00","-26.2","","-29.4","","75","","","","32","","9","","24.1","","103.13","","","","-34","","NA"
"-115.14","67.82","KUGLUKTUK A","2300903","2019-02-27 22:00","2019","02","27","22:00","-26.4","","-29.7","","75","","","","35","","13","","24.1","","103.16","","","","-36","","NA"
"-115.14","67.82","KUGLUKTUK A","2300903","2019-02-27 23:00","2019","02","27","23:00","-25.6","","-28.9","","74","","","","1","","21","","24.1","","103.25","","","","-38","","Snow Grains"
"-115.14","67.82","KUGLUKTUK A","2300903","2019-02-28 00:00","2019","02","28","00:00"
"-115.14","67.82","KUGLUKTUK A","2300903","2019-02-28 01:00","2019","02","28","01:00","-26.7","","-30.4","","72","","","","36","","17","","24.1","","103.47","","","","-38","","Ice Crystals"
"-115.14","67.82","KUGLUKTUK A","2300903","2019-02-28 02:00","2019","02","28","02:00","-28.0","","-31.4","","73","","","","3","","15","","24.1","","103.53","","","","-39","","Ice Crystals"
"-115.14","67.82","KUGLUKTUK A","2300903","2019-02-28 03:00","2019","02","28","03:00","-30.1","","-33.5","","73","","","","8","","20","","24.1","","103.63","","","","-43","","Ice Crystals"
"-115.14","67.82","KUGLUKTUK A","2300903","2019-02-28 04:00","2019","02","28","04:00","-31.7","","-35.4","","70","","","","9","","14","","24.1","","103.72","","","","-43","","Ice Crystals"
"-115.14","67.82","KUGLUKTUK A","2300903","2019-02-28 05:00","2019","02","28","05:00","-32.7","","-36.2","","71","","","","8","","14","","24.1","","103.83","","","","-44","","Ice Crystals"
"-115.14","67.82","KUGLUKTUK A","2300903","2019-02-28 06:00","2019","02","28","06:00","-33.4","","-37.0","","70","","","","8","","9","","24.1","","103.94","","","","-43","","Ice Crystals"
"-115.14","67.82","KUGLUKTUK A","2300903","2019-02-28 07:00","2019","02","28","07:00","-33.7","","-37.5","","70","","","","7","","8","","24.1","","104.03","","","","-42","","NA"
"-115.14","67.82","KUGLUKTUK A","2300903","2019-02-28 08:00","2019","02","28","08:00","-34.3","","-38.0","","70","","","","5","","10","","24.1","","104.09","","","","-44","","Clear"
"-115.14","67.82","KUGLUKTUK A","2300903","2019-02-28 09:00","2019","02","28","09:00","-34.5","","-38.2","","70","","","","11","","10","","24.1","","104.18","","","","-45","","NA"
"-115.14","67.82","KUGLUKTUK A","2300903","2019-02-28 10:00","2019","02","28","10:00","-34.3","","-38.1","","69","","","","36","","2","","24.1","","104.25","","","","-37","","NA"
"-115.14","67.82","KUGLUKTUK A","2300903","2019-02-28 11:00","2019","02","28","11:00","-33.6","","-37.7","","67","","","","36","","1","","24.1","","104.32","","","","-35","","Clear"
"-115.14","67.82","KUGLUKTUK A","2300903","2019-02-28 12:00","2019","02","28","12:00","-33.5","","-37.6","","68","","","","20","","3","","24.1","","104.37","","","","-37","","NA"
"-115.14","67.82","KUGLUKTUK A","2300903","2019-02-28 13:00","2019","02","28","13:00","-33.0","","-37.5","","65","","","","36","","2","","24.1","","104.44","","","","-35","","NA"
"-115.14","67.82","KUGLUKTUK A","2300903","2019-02-28 14:00","2019","02","28","14:00","-32.9","","-37.0","","67","","","","23","","9","","24.1","","104.50","","","","-42","","Clear"
"-115.14","67.82","KUGLUKTUK A","2300903","2019-02-28 15:00","2019","02","28","15:00","-33.0","","-37.1","","67","","","","23","","10","","24.1","","104.53","","","","-43","","NA"
"-115.14","67.82","KUGLUKTUK A","2300903","2019-02-28 16:00","2019","02","28","16:00","-33.1","","-37.3","","67","","","","23","","11","","24.1","","104.57","","","","-43","","NA"
"-115.14","67.82","KUGLUKTUK A","2300903","2019-02-28 17:00","2019","02","28","17:00","-33.5","","-37.5","","68","","","","21","","13","","24.1","","104.58","","","","-45","","Clear"
"-115.14","67.82","KUGLUKTUK A","2300903","2019-02-28 18:00","2019","02","28","18:00","-33.8","","-37.8","","68","","","","31","","3","","24.1","","104.64","","","","-37","","NA"
"-115.14","67.82","KUGLUKTUK A","2300903","2019-02-28 19:00","2019","02","28","19:00","-33.7","","-37.5","","69","","","","22","","14","","24.1","","104.64","","","","-46","","NA"
"-115.14","67.82","KUGLUKTUK A","2300903","2019-02-28 20:00","2019","02","28","20:00","-33.8","","-37.6","","69","","","","23","","17","","24.1","","104.63","","","","-47","","Clear"
"-115.14","67.82","KUGLUKTUK A","2300903","2019-02-28 21:00","2019","02","28","21:00","-32.7","","-36.4","","70","","","","28","","8","","24.1","","104.64","","","","-41","","NA"
"-115.14","67.82","KUGLUKTUK A","2300903","2019-02-28 22:00","2019","02","28","22:00","-33.5","","-37.3","","70","","","","27","","4","","24.1","","104.65","","","","-38","","NA"
"-115.14","67.82","KUGLUKTUK A","2300903","2019-02-28 23:00","2019","02","28","23:00","-34.0","","-37.6","","71","","","","23","","18","","24.1","","104.65","","","","-47","","Clear"
