"Longitude (x)","Latitude (y)","Station Name","Climate ID","Date/Time (LST)","Year","Month","Day","Time (LST)","Temp (°C)","Temp Flag","Dew Point Temp (°C)","Dew Point Temp Flag","Rel Hum (%)","Rel Hum Flag","Precip. Amount (mm)","Precip. Amount Flag","Wind Dir (10s deg)","Wind Dir Flag","Wind Spd (km/h)","Wind Spd Flag","Visibility (km)","Visibility Flag","Stn Press (kPa)","Stn Press Flag","Hmdx","Hmdx Flag","Wind Chill","Wind Chill Flag","Weather"
"-115.14","67.82","KUGLUKTUK A","2300903","2019-04-01 00:00","2019","04","01","00:00","-10.6","","-12.9","","84","","","","31","","49","","2.4","","101.39","","","","-22","","Blowing Snow"
"-115.14","67.82","KUGLUKTUK A","2300903","2019-04-01 01:00","2019","04","01","01:00","-11.5","","-13.6","","85","","","","31","","39","","3.2","","101.46","","","","-23","","Blowing Snow"
"-115.14","67.82","KUGLUKTUK A","2300903","2019-04-01 02:00","2019","04","01","02:00","-11.7","","-14.3","","81","","","","30","","39","","16.1","","101.51","","","","-23","","Blowing Snow"
"-115.14","67.82","KUGLUKTUK A","2300903","2019-04-01 03:00","2019","04","01","03:00","-11.8","","-14.2","","82","","","","32","","49","","2.4","","101.48","","","","-24","","Blowing Snow"
"-115.14","67.82","KUGLUKTUK A","2300903","2019-04-01 04:00","2019","04","01","04:00","-11.9","","-14.8","","80","","","","30","","35","","19.3","","101.62","","","","-23","","Blowing Snow"
"-115.14","67.82","KUGLUKTUK A","2300903","2019-04-01 05:00","2019","04","01","05:00","-11.8","","-14.9","","78","","","","31","","41","","24.1","","101.59","","","","-23","","Blowing Snow"
"-115.14","67.82","KUGLUKTUK A","2300903","2019-04-01 06:00","2019","04","01","06:00","-13.1","","-16.3","","77","","","","29","","34","","24.1","","101.56","","","","-24","","Blowing Snow"
"-115.14","67.82","KUGLUKTUK A","2300903","2019-04-01 07:00","2019","04","01","07:00","-13.5","","-16.5","","79","","","","27","","35","","24.1","","101.59","","","","-25","","Blowing Snow"
"-115.14","67.82","KUGLUKTUK A","2300903","2019-04-01 08:00","2019","04","01","08:00","-12.4","","-15.7","","77","","","","31","","46","","12.9","","101.52","","","","-25","","Blowing Snow"
"-115.14","67.82","KUGLUKTUK A","2300903","2019-04-01 09:00","2019","04","01","09:00","-12.8","","-16.0","","77","","","","31","","48","","19.3","","101.55","","","","-25","","Blowing Snow"
"-115.14","67.82","KUGLUKTUK A","2300903","2019-04-01 10:00","2019","04","01","10:00","-13.2","","-16.1","","79","","","","32","","49","","19.3","","101.57","","","","-26","","Blowing Snow"
"-115.14","67.82","KUGLUKTUK A","2300903","2019-04-01 11:00","2019","04","01","11:00","-13.2","","-16.0","","79","","","","32","","43","","19.3","","101.65","","","","-25","","Blowing Snow"
"-115.14","67.82","KUGLUKTUK A","2300903","2019-04-01 12:00","2019","04","01","12:00","-13.4","","-15.8","","83","","","","33","","41","","2.4","","101.70","","","","-25","","Blowing Snow"
"-115.14","67.82","KUGLUKTUK A","2300903","2019-04-01 13:00","2019","04","01","13:00","-13.4","","-16.4","","79","","","","31","","26","","9.7","","101.80","","","","-23","","Blowing Snow"
"-115.14","67.82","KUGLUKTUK A","2300903","2019-04-01 14:00","2019","04","01","14:00","-13.7","","-16.6","","79","","","","31","","32","","4.0","","101.83","","","","-25","","Snow,Blowing Snow"
"-115.14","67.82","KUGLUKTUK A","2300903","2019-04-01 15:00","2019","04","01","15:00","-13.9","","-16.8","","79","","","","31","","32","","6.4","","101.89","","","","-25","","Snow,Blowing Snow"
"-115.14","67.82","KUGLUKTUK A","2300903","2019-04-01 16:00","2019","04","01","16:00","-14.3","","-17.6","","76","","","","32","","38","","19.3","","101.94","","","","-26","","Blowing Snow"
"-115.14","67.82","KUGLUKTUK A","2300903","2019-04-01 17:00","2019","04","01","17:00","-14.8","","-17.9","","77","","","","33","","33","","19.3","","102.01","","","","-26","","Blowing Snow"
"-115.14","67.82","KUGLUKTUK A","2300903","2019-04-01 18:00","2019","04","01","18:00","-15.1","","-18.7","","75","","","","32","","27","","19.3","","102.05","","","","-26","","NA"
"-115.14","67.82","KUGLUKTUK A","2300903","2019-04-01 19:00","2019","04","01","19:00","-15.1","","-18.5","","76","","","","31","","24","","16.1","","102.06","","","","-25","","Snow Grains"
"-115.14","67.82","KUGLUKTUK A","2300903","2019-04-01 20:00","2019","04","01","20:00","-15.3","","-18.6","","76","","","","32","","20","","24.1","","102.05","","","","-25","","Snow Grains"
"-115.14","67.82","KUGLUKTUK A","2300903","2019-04-01 21:00","2019","04","01","21:00","-15.6","","-18.8","","77","","","","31","","25","","24.1","","102.03","","","","-26","","Snow,Blowing Snow"
"-115.14","67.82","KUGLUKTUK A","2300903","2019-04-01 22:00","2019","04","01","22:00","-16.1","","-19.3","","77","","","","30","","24","","16.1","","102.00","","","","-26","","Snow Grains,Blowing Snow"
"-115.14","67.82","KUGLUKTUK A","2300903","2019-04-01 23:00","2019","04","01","23:00","-16.1","","-19.4","","76","","","","31","","22","","16.1","","101.98","","","","-26","","Snow,Blowing Snow"
"-115.14","67.82","KUGLUKTUK A","2300903","2019-04-02 00:00","2019","04","02","00:00","-16.5","","-19.9","","76","","","","31","","26","","16.1","","101.98","","","","-27","","Snow,Blowing Snow"
"-115.14","67.82","KUGLUKTUK A","2300903","2019-04-02 01:00","2019","04","02","01:00","-16.6","","-20.0","","75","","","","31","","26","","16.1","","101.97","","","","-27","","Snow,Blowing Snow"
"-115.14","67.82","KUGLUKTUK A","2300903","2019-04-02 02:00","2019","04","02","02:00","-16.4","","-19.2","","79","","","","30","","25","","0.2","","101.93","","","","-27","","Blowing Snow,Freezing Fog"
"-115.14","67.82","KUGLUKTUK A","2300903","2019-04-02 03:00","2019","04","02","03:00","-16.2","","-18.6","","82","","","","29","","24","","2.4","","101.92","","","","-27","","Snow Grains,Fog,Blowing Snow"
"-115.14","67.82","KUGLUKTUK A","2300903","2019-04-02 04:00","2019","04","02","04:00","-17.2","","-19.6","","82","","","","27","","26","","2.4","","101.93","","","","-28","","Snow Grains,Fog,Blowing Snow"
"-115.14","67.82","KUGLUKTUK A","2300903","2019-04-02 05:00","2019","04","02","05:00","-17.3","","-20.1","","79","","","","30","","28","","2.8","","101.91","","","","-29","","Fog,Blowing Snow"
"-115.14","67.82","KUGLUKTUK A","2300903","2019-04-02 06:00","2019","04","02","06:00","-17.7","","-20.5","","79","","","","31","","28","","3.6","","101.85","","","","-29","","Ice Crystals,Fog"
"-115.14","67.82","KUGLUKTUK A","2300903","2019-04-02 07:00","2019","04","02","07:00","-17.9","","-21.2","","76","","","","30","","29","","6.4","","101.87","","","","-30","","Ice Crystals,Blowing Snow"
"-115.14","67.82","KUGLUKTUK A","2300903","2019-04-02 08:00","2019","04","02","08:00","-18.2","","-21.3","","77","","","","31","","23","","3.2","","101.89","","","","-29","","Snow,Blowing Snow"
"-115.14","67.82","KUGLUKTUK A","2300903","2019-04-02 09:00","2019","04","02","09:00","-18.1","","-21.4","","76","","","","31","","25","","2.4","","101.91","","","","-29","","Snow,Blowing Snow"
"-115.14","67.82","KUGLUKTUK A","2300903","2019-04-02 10:00","2019","04","02","10:00","-17.9","","-21.3","","75","","","","31","","33","","2.4","","101.90","","","","-30","","Snow,Blowing Snow"
"-115.14","67.82","KUGLUKTUK A","2300903","2019-04-02 11:00","2019","04","02","11:00","-18.1","","-21.5","","75","","","","31","","30","","2.4","","101.92","","","","-30","","Snow,Blowing Snow"
"-115.14","67.82","KUGLUKTUK A","2300903","2019-04-02 12:00","2019","04","02","12:00","-17.9","","-21.4","","75","","","","31","","25","","2.4","","101.93","","","","-29","","Snow,Blowing Snow"
"-115.14","67.82","KUGLUKTUK A","2300903","2019-04-02 13:00","2019","04","02","13:00","-18.1","","-21.4","","76","","","","32","","26","","1.2","","102.00","","","","-29","","Snow,Blowing Snow"
"-115.14","67.82","KUGLUKTUK A","2300903","2019-04-02 14:00","2019","04","02","14:00","-19.7","","-23.2","","74","","","","31","","43","","1.6","","102.03","","","","-34","","Snow,Blowing Snow"
"-115.14","67.82","KUGLUKTUK A","2300903","2019-04-02 15:00","2019","04","02","15:00","-20.8","","-24.6","","72","","","","30","","36","","4.8","","102.06","","","","-35","","Blowing Snow"
"-115.14","67.82","KUGLUKTUK A","2300903","2019-04-02 16:00","2019","04","02","16:00","-21.3","","-25.6","","69","","","","30","","31","","6.4","","102.08","","","","-34","","Blowing Snow"
"-115.14","67.82","KUGLUKTUK A","2300903","2019-04-02 17:00","2019","04","02","17:00","-22.3","","-26.7","","68","","","","30","","34","","4.8","","102.12","","","","-36","","Blowing Snow"
"-115.14","67.82","KUGLUKTUK A","2300903","2019-04-02 18:00","2019","04","02","18:00","-23.0","","-27.4","","68","","","","31","","34","","8.1","","102.12","","","","-37","","Blowing Snow"
"-115.14","67.82","KUGLUKTUK A","2300903","2019-04-02 19:00","2019","04","02","19:00","-23.2","","-27.1","","71","","","","32","","35","","9.7","","102.12","","","","-38","","Blowing Snow"
"-115.14","67.82","KUGLUKTUK A","2300903","2019-04-02 20:00","2019","04","02","20:00","-23.9","","-28.0","","70","","","","29","","20","","12.9","","102.13","","","","-35","","Blowing Snow"
"-115.14","67.82","KUGLUKTUK A","2300903","2019-04-02 21:00","2019","04","02","21:00","-24.2","","-28.3","","69","","","","29","","17","","19.3","","102.13","","","","-35","","NA"
"-115.14","67.82","KUGLUKTUK A","2300903","2019-04-02 22:00","2019","04","02","22:00","-25.4","","-28.8","","73","","","","27","","25","","24.1","","102.08","","","","-39","","Blowing Snow"
"-115.14","67.82","KUGLUKTUK A","2300903","2019-04-02 23:00","2019","04","02","23:00","-25.8","","-29.2","","73","","","","26","","29","","24.1","","102.05","","","","-40","","Blowing Snow"
"-115.14","67.82","KUGLUKTUK A","2300903","2019-04-03 00:00","2019","04","03","00:00","-26.0","","-29.6","","73","","","","26","","31","","24.1","","102.01","","","","-41","","Blowing Snow"
"-115.14","67.82","KUGLUKTUK A","2300903","2019-04-03 01:00","2019","04","03","01:00","-26.2","","-30.0","","71","","","","27","","27","","19.3","","102.01","","","","-40","","Blowing Snow"
"-115.14","67.82","KUGLUKTUK A","2300903","2019-04-03 02:00","2019","04","03","02:00","-27.1","","-31.0","","70","","","","26","","29","","19.3","","101.96","","","","-42","","Blowing Snow"
"-115.14","67.82","KUGLUKTUK A","2300903","2019-04-03 03:00","2019","04","03","03:00","-27.1","","-30.9","","71","","","","26","","30","","19.3","","101.97","","","","-42","","Blowing Snow"
"-115.14","67.82","KUGLUKTUK A","2300903","2019-04-03 04:00","2019","04","03","04:00","-26.9","","-30.9","","69","","","","26","","28","","19.3","","101.96","","","","-41","","Blowing Snow"
"-115.14","67.82","KUGLUKTUK A","2300903","2019-04-03 05:00","2019","04","03","05:00","-28.6","","-32.2","","72","","","","27","","24","","19.3","","101.95","","","","-42","","Blowing Snow"
"-115.14","67.82","KUGLUKTUK A","2300903","2019-04-03 06:00","2019","04","03","06:00","-28.1","","-31.5","","73","","","","26","","25","","24.1","","101.95","","","","-42","","Blowing Snow"
"-115.14","67.82","KUGLUKTUK A","2300903","2019-04-03 07:00","2019","04","03","07:00","-28.3","","-31.9","","72","","","","26","","25","","24.1","","101.96","","","","-42","","NA"
"-115.14","67.82","KUGLUKTUK A","2300903","2019-04-03 08:00","2019","04","03","08:00","-27.7","","-31.5","","71","","","","26","","22","","24.1","","101.94","","","","-41","","Mainly Clear"
"-115.14","67.82","KUGLUKTUK A","2300903","2019-04-03 09:00","2019","04","03","09:00","-28.7","","-32.5","","70","","","","24","","21","","24.1","","101.92","","","","-42","","NA"
"-115.14","67.82","KUGLUKTUK A","2300903","2019-04-03 10:00","2019","04","03","10:00","-27.5","","-31.6","","69","","","","24","","22","","24.1","","101.93","","","","-40","","NA"
"-115.14","67.82","KUGLUKTUK A","2300903","2019-04-03 11:00","2019","04","03","11:00","-26.9","","-31.1","","68","","","","24","","24","","24.1","","101.92","","","","-40","","Clear"
"-115.14","67.82","KUGLUKTUK A","2300903","2019-04-03 12:00","2019","04","03","12:00","-26.1","","-30.5","","67","","","","26","","27","","24.1","","101.93","","","","-40","","NA"
"-115.14","67.82","KUGLUKTUK A","2300903","2019-04-03 13:00","2019","04","03","13:00","-24.9","","-29.3","","67","","","","25","","26","","24.1","","101.93","","","","-38","","NA"
"-115.14","67.82","KUGLUKTUK A","2300903","2019-04-03 14:00","2019","04","03","14:00","-24.2","","-28.5","","68","","","","26","","30","","19.3","","101.93","","","","-38","","Clear"
"-115.14","67.82","KUGLUKTUK A","2300903","2019-04-03 15:00","2019","04","03","15:00","-23.2","","-27.6","","68","","","","27","","28","","19.3","","101.90","","","","-36","","Blowing Snow"
"-115.14","67.82","KUGLUKTUK A","2300903","2019-04-03 16:00","2019","04","03","16:00","-22.9","","-27.3","","68","","","","26","","30","","19.3","","101.89","","","","-36","","Blowing Snow"
"-115.14","67.82","KUGLUKTUK A","2300903","2019-04-03 17:00","2019","04","03","17:00","-22.7","","-27.2","","67","","","","25","","32","","24.1","","101.85","","","","-36","","Blowing Snow"
"-115.14","67.82","KUGLUKTUK A","2300903","2019-04-03 18:00","2019","04","03","18:00","-22.9","","-27.4","","68","","","","24","","30","","24.1","","101.80","","","","-36","","Blowing Snow"
"-115.14","67.82","KUGLUKTUK A","2300903","2019-04-03 19:00","2019","04","03","19:00","-22.6","","-26.7","","70","","","","24","","32","","19.3","","101.74","","","","-36","","Blowing Snow"
"-115.14","67.82","KUGLUKTUK A","2300903","2019-04-03 20:00","2019","04","03","20:00","-23.1","","-26.7","","73","","","","23","","29","","19.3","","101.67","","","","-36","","Blowing Snow"
"-115.14","67.82","KUGLUKTUK A","2300903","2019-04-03 21:00","2019","04","03","21:00","-21.9","","-25.8","","71","","","","24","","35","","19.3","","101.61","","","","-36","","Blowing Snow"
"-115.14","67.82","KUGLUKTUK A","2300903","2019-04-03 22:00","2019","04","03","22:00","-21.0","","-24.1","","76","","","","25","","35","","3.2","","101.56","","","","-35","","Snow,Blowing Snow"
"-115.14","67.82","KUGLUKTUK A","2300903","2019-04-03 23:00","2019","04","03","23:00","-20.1","","-23.2","","77","","","","25","","41","","3.2","","101.51","","","","-34","","Snow,Blowing Snow"
"-115.14","67.82","KUGLUKTUK A","2300903","2019-04-04 00:00","2019","04","04","00:00","-20.1","","-23.3","","76","","","","25","","37","","8.1","","101.45","","","","-34","","Snow,Blowing Snow"
"-115.14","67.82","KUGLUKTUK A","2300903","2019-04-04 01:00","2019","04","04","01:00","-19.5","","-22.6","","77","","","","25","","33","","4.8","","101.42","","","","-32","","Snow,Blowing Snow"
"-115.14","67.82","KUGLUKTUK A","2300903","2019-04-04 02:00","2019","04","04","02:00","-19.2","","-22.0","","79","","","","25","","40","","3.2","","101.33","","","","-33","","Snow,Blowing Snow"
"-115.14","67.82","KUGLUKTUK A","2300903","2019-04-04 03:00","2019","04","04","03:00","-18.6","","-21.2","","80","","","","26","","40","","3.2","","101.25","","","","-32","","Snow,Blowing Snow"
"-115.14","67.82","KUGLUKTUK A","2300903","2019-04-04 04:00","2019","04","04","04:00","-18.0","","-20.9","","79","","","","23","","27","","8.1","","101.25","","","","-29","","Snow,Blowing Snow"
"-115.14","67.82","KUGLUKTUK A","2300903","2019-04-04 05:00","2019","04","04","05:00","-18.1","","-20.7","","80","","","","24","","43","","3.2","","101.15","","","","-32","","Snow,Blowing Snow"
"-115.14","67.82","KUGLUKTUK A","2300903","2019-04-04 06:00","2019","04","04","06:00","-17.4","","-19.9","","81","","","","25","","37","","1.6","","101.09","","","","-30","","Snow,Blowing Snow"
"-115.14","67.82","KUGLUKTUK A","2300903","2019-04-04 07:00","2019","04","04","07:00","-16.6","","-19.1","","81","","","","24","","39","","9.7","","101.01","","","","-29","","Snow,Blowing Snow"
"-115.14","67.82","KUGLUKTUK A","2300903","2019-04-04 08:00","2019","04","04","08:00","-15.6","","-18.5","","78","","","","26","","39","","9.7","","100.95","","","","-28","","Snow,Blowing Snow"
"-115.14","67.82","KUGLUKTUK A","2300903","2019-04-04 09:00","2019","04","04","09:00","-14.0","","-17.0","","78","","","","25","","42","","6.4","","100.89","","","","-26","","Snow,Blowing Snow"
"-115.14","67.82","KUGLUKTUK A","2300903","2019-04-04 10:00","2019","04","04","10:00","-13.2","","-16.7","","75","","","","30","","36","","6.4","","100.91","","","","-25","","Snow,Blowing Snow"
"-115.14","67.82","KUGLUKTUK A","2300903","2019-04-04 11:00","2019","04","04","11:00","-13.4","","-15.8","","83","","","","32","","36","","1.6","","100.98","","","","-25","","Snow,Blowing Snow"
"-115.14","67.82","KUGLUKTUK A","2300903","2019-04-04 12:00","2019","04","04","12:00","-13.7","","-16.3","","81","","","","30","","35","","2.4","","101.01","","","","-25","","Snow,Blowing Snow"
"-115.14","67.82","KUGLUKTUK A","2300903","2019-04-04 13:00","2019","04","04","13:00","-13.6","","-16.0","","83","","","","33","","37","","1.6","","101.04","","","","-25","","Snow,Blowing Snow"
"-115.14","67.82","KUGLUKTUK A","2300903","2019-04-04 14:00","2019","04","04","14:00","-13.4","","-15.8","","82","","","","32","","37","","2.0","","101.08","","","","-25","","Snow,Blowing Snow"
"-115.14","67.82","KUGLUKTUK A","2300903","2019-04-04 15:00","2019","04","04","15:00","-13.2","","-15.9","","81","","","","32","","32","","4.8","","101.13","","","","-24","","Snow,Blowing Snow"
"-115.14","67.82","KUGLUKTUK A","2300903","2019-04-04 16:00","2019","04","04","16:00","-13.6","","-16.2","","81","","","","33","","31","","8.1","","101.16","","","","-24","","Snow,Blowing Snow"
"-115.14","67.82","KUGLUKTUK A","2300903","2019-04-04 17:00","2019","04","04","17:00","-13.6","","-16.6","","79","","","","32","","29","","12.9","","101.20","","","","-24","","Snow,Blowing Snow"
"-115.14","67.82","KUGLUKTUK A","2300903","2019-04-04 18:00","2019","04","04","18:00","-13.8","","-16.7","","79","","","","31","","25","","16.1","","101.22","","","","-24","","Blowing Snow"
"-115.14","67.82","KUGLUKTUK A","2300903","2019-04-04 19:00","2019","04","04","19:00","-13.9","","-17.1","","77","","","","31","","29","","19.3","","101.25","","","","-24","","Blowing Snow"
"-115.14","67.82","KUGLUKTUK A","2300903","2019-04-04 20:00","2019","04","04","20:00","-14.1","","-17.3","","77","","","","30","","27","","16.1","","101.29","","","","-24","","Blowing Snow"
"-115.14","67.82","KUGLUKTUK A","2300903","2019-04-04 21:00","2019","04","04","21:00","-14.0","","-16.5","","82","","","","32","","39","","3.2","","101.28","","","","-26","","Snow,Blowing Snow"
"-115.14","67.82","KUGLUKTUK A","2300903","2019-04-04 22:00","2019","04","04","22:00","-14.1","","-16.7","","81","","","","31","","31","","3.2","","101.32","","","","-25","","Snow,Blowing Snow"
"-115.14","67.82","KUGLUKTUK A","2300903","2019-04-04 23:00","2019","04","04","23:00","-14.8","","-17.4","","81","","","","33","","32","","3.2","","101.32","","","","-26","","Snow,Blowing Snow"
"-115.14","67.82","KUGLUKTUK A","2300903","2019-04-05 00:00","2019","04","05","00:00","-15.6","","-17.9","","82","","","","33","","32","","6.4","","101.35","","","","-27","","Snow,Blowing Snow"
"-115.14","67.82","KUGLUKTUK A","2300903","2019-04-05 01:00","2019","04","05","01:00","-15.6","","-18.0","","82","","","","33","","34","","12.9","","101.39","","","","-27","","Blowing Snow"
"-115.14","67.82","KUGLUKTUK A","2300903","2019-04-05 02:00","2019","04","05","02:00","-15.6","","-18.1","","81","","","","34","","28","","16.1","","101.41","","","","-26","","Blowing Snow"
"-115.14","67.82","KUGLUKTUK A","2300903","2019-04-05 03:00","2019","04","05","03:00","-16.2","","-19.1","","79","","","","33","","21","","24.1","","101.44","","","","-26","","NA"
"-115.14","67.82","KUGLUKTUK A","2300903","2019-04-05 04:00","2019","04","05","04:00","-16.4","","-19.0","","81","","","","34","","30","","19.3","","101.44","","","","-28","","Blowing Snow"
"-115.14","67.82","KUGLUKTUK A","2300903","2019-04-05 05:00","2019","04","05","05:00","-16.3","","-19.3","","78","","","","35","","24","","19.3","","101.50","","","","-27","","Snow,Blowing Snow"
"-115.14","67.82","KUGLUKTUK A","2300903","2019-04-05 06:00","2019","04","05","06:00","-16.7","","-20.3","","74","","","","34","","15","","24.1","","101.55","","","","-25","","NA"
"-115.14","67.82","KUGLUKTUK A","2300903","2019-04-05 07:00","2019","04","05","07:00","-16.9","","-20.6","","73","","","","34","","14","","12.9","","101.57","","","","-25","","Snow"
"-115.14","67.82","KUGLUKTUK A","2300903","2019-04-05 08:00","2019","04","05","08:00","-16.8","","-21.2","","69","","","","33","","7","","19.3","","101.59","","","","-22","","Snow"
"-115.14","67.82","KUGLUKTUK A","2300903","2019-04-05 09:00","2019","04","05","09:00","-16.6","","-20.9","","70","","","","29","","5","","19.3","","101.62","","","","-20","","NA"
"-115.14","67.82","KUGLUKTUK A","2300903","2019-04-05 10:00","2019","04","05","10:00","-16.9","","-20.6","","74","","","","34","","10","","19.3","","101.66","","","","-24","","NA"
"-115.14","67.82","KUGLUKTUK A","2300903","2019-04-05 11:00","2019","04","05","11:00","-17.1","","-21.1","","71","","","","36","","15","","24.1","","101.69","","","","-26","","Cloudy"
"-115.14","67.82","KUGLUKTUK A","2300903","2019-04-05 12:00","2019","04","05","12:00","-16.9","","-21.4","","69","","","","35","","9","","19.3","","101.70","","","","-23","","NA"
"-115.14","67.82","KUGLUKTUK A","2300903","2019-04-05 13:00","2019","04","05","13:00","-16.4","","-20.9","","69","","","","32","","6","","24.1","","101.74","","","","-21","","NA"
"-115.14","67.82","KUGLUKTUK A","2300903","2019-04-05 14:00","2019","04","05","14:00","-15.6","","-20.4","","67","","","","32","","5","","24.1","","101.75","","","","-19","","Mainly Clear"
"-115.14","67.82","KUGLUKTUK A","2300903","2019-04-05 15:00","2019","04","05","15:00","-15.0","","-20.2","","65","","","","36","","3","","24.1","","101.78","","","","-17","","NA"
"-115.14","67.82","KUGLUKTUK A","2300903","2019-04-05 16:00","2019","04","05","16:00","-16.0","","-20.1","","71","","","","15","","4","","24.1","","101.77","","","","-19","","NA"
"-115.14","67.82","KUGLUKTUK A","2300903","2019-04-05 17:00","2019","04","05","17:00","-16.3","","-20.4","","71","","","","9","","4","","24.1","","101.78","","","","-19","","Mainly Clear"
"-115.14","67.82","KUGLUKTUK A","2300903","2019-04-05 18:00","2019","04","05","18:00","-17.5","","-21.0","","75","","","","12","","10","","24.1","","101.77","","","","-24","","NA"
"-115.14","67.82","KUGLUKTUK A","2300903","2019-04-05 19:00","2019","04","05","19:00","-17.6","","-21.1","","74","","","","19","","4","","24.1","","101.74","","","","-21","","NA"
"-115.14","67.82","KUGLUKTUK A","2300903","2019-04-05 20:00","2019","04","05","20:00","-19.6","","-22.4","","79","","","","17","","7","","24.1","","101.76","","","","-25","","Mainly Clear"
"-115.14","67.82","KUGLUKTUK A","2300903","2019-04-05 21:00","2019","04","05","21:00","-20.5","","-23.1","","80","","","","22","","12","","24.1","","101.79","","","","-29","","NA"
"-115.14","67.82","KUGLUKTUK A","2300903","2019-04-05 22:00","2019","04","05","22:00","-20.9","","-23.5","","80","","","","0","","1","","19.3","","101.80","","","","-22","","Ice Crystals"
"-115.14","67.82","KUGLUKTUK A","2300903","2019-04-05 23:00","2019","04","05","23:00","-21.7","","-24.1","","81","","","","21","","10","","19.3","","101.79","","","","-29","","Ice Crystals"
"-115.14","67.82","KUGLUKTUK A","2300903","2019-04-06 00:00","2019","04","06","00:00","-23.0","","-25.4","","81","","","","33","","6","","19.3","","101.80","","","","-28","","Ice Crystals"
"-115.14","67.82","KUGLUKTUK A","2300903","2019-04-06 01:00","2019","04","06","01:00","-22.1","","-24.6","","81","","","","20","","12","","19.3","","101.81","","","","-31","","Ice Crystals"
"-115.14","67.82","KUGLUKTUK A","2300903","2019-04-06 02:00","2019","04","06","02:00","-21.4","","-24.0","","80","","","","19","","7","","19.3","","101.81","","","","-27","","Ice Crystals"
"-115.14","67.82","KUGLUKTUK A","2300903","2019-04-06 03:00","2019","04","06","03:00","-21.5","","-24.1","","80","","","","30","","5","","19.3","","101.81","","","","-26","","Ice Crystals"
"-115.14","67.82","KUGLUKTUK A","2300903","2019-04-06 04:00","2019","04","06","04:00","-20.9","","-23.5","","80","","","","36","","2","","19.3","","101.77","","","","-23","","Ice Crystals"
"-115.14","67.82","KUGLUKTUK A","2300903","2019-04-06 05:00","2019","04","06","05:00","-20.9","","-23.4","","80","","","","36","","2","","19.3","","101.77","","","","-23","","Ice Crystals"
"-115.14","67.82","KUGLUKTUK A","2300903","2019-04-06 06:00","2019","04","06","06:00","-20.1","","-22.6","","81","","","","1","","3","","19.3","","101.75","","","","-23","","Ice Crystals"
"-115.14","67.82","KUGLUKTUK A","2300903","2019-04-06 07:00","2019","04","06","07:00","-19.6","","-22.1","","81","","","","3","","6","","19.3","","101.76","","","","-25","","Ice Crystals"
"-115.14","67.82","KUGLUKTUK A","2300903","2019-04-06 08:00","2019","04","06","08:00","-19.1","","-21.8","","80","","","","2","","5","","24.1","","101.75","","","","-23","","Ice Crystals"
"-115.14","67.82","KUGLUKTUK A","2300903","2019-04-06 09:00","2019","04","06","09:00","-18.6","","-22.0","","75","","","","10","","7","","24.1","","101.75","","","","-24","","Ice Crystals"
"-115.14","67.82","KUGLUKTUK A","2300903","2019-04-06 10:00","2019","04","06","10:00","-18.0","","-21.7","","73","","","","9","","9","","24.1","","101.73","","","","-24","","NA"
"-115.14","67.82","KUGLUKTUK A","2300903","2019-04-06 11:00","2019","04","06","11:00","-18.0","","-21.8","","73","","","","11","","5","","24.1","","101.72","","","","-22","","Mainly Clear"
"-115.14","67.82","KUGLUKTUK A","2300903","2019-04-06 12:00","2019","04","06","12:00","-17.4","","-21.6","","70","","","","8","","11","","24.1","","101.73","","","","-25","","NA"
"-115.14","67.82","KUGLUKTUK A","2300903","2019-04-06 13:00","2019","04","06","13:00","-17.4","","-21.3","","73","","","","8","","9","","24.1","","101.69","","","","-24","","NA"
"-115.14","67.82","KUGLUKTUK A","2300903","2019-04-06 14:00","2019","04","06","14:00","-17.5","","-21.1","","74","","","","7","","15","","24.1","","101.69","","","","-26","","Clear"
"-115.14","67.82","KUGLUKTUK A","2300903","2019-04-06 15:00","2019","04","06","15:00","-17.6","","-20.9","","75","","","","8","","16","","24.1","","101.66","","","","-26","","NA"
"-115.14","67.82","KUGLUKTUK A","2300903","2019-04-06 16:00","2019","04","06","16:00","-17.8","","-21.1","","76","","","","8","","17","","24.1","","101.64","","","","-27","","NA"
"-115.14","67.82","KUGLUKTUK A","2300903","2019-04-06 17:00","2019","04","06","17:00","-18.3","","-21.5","","76","","","","8","","21","","24.1","","101.60","","","","-29","","Clear"
"-115.14","67.82","KUGLUKTUK A","2300903","2019-04-06 18:00","2019","04","06","18:00","-19.1","","-22.1","","77","","","","8","","19","","24.1","","101.56","","","","-29","","NA"
"-115.14","67.82","KUGLUKTUK A","2300903","2019-04-06 19:00","2019","04","06","19:00","-20.3","","-23.1","","78","","","","8","","16","","24.1","","101.52","","","","-30","","NA"
"-115.14","67.82","KUGLUKTUK A","2300903","2019-04-06 20:00","2019","04","06","20:00","-21.3","","-24.0","","79","","","","7","","14","","24.1","","101.51","","","","-30","","Mainly Clear"
"-115.14","67.82","KUGLUKTUK A","2300903","2019-04-06 21:00","2019","04","06","21:00","-23.7","","-26.4","","79","","","","36","","5","","24.1","","101.50","","","","-28","","NA"
"-115.14","67.82","KUGLUKTUK A","2300903","2019-04-06 22:00","2019","04","06","22:00","-25.2","","-27.9","","79","","","","35","","7","","24.1","","101.50","","","","-32","","NA"
"-115.14","67.82","KUGLUKTUK A","2300903","2019-04-06 23:00","2019","04","06","23:00","-25.7","","-28.4","","78","","","","36","","7","","24.1","","101.48","","","","-32","","Clear"
"-115.14","67.82","KUGLUKTUK A","2300903","2019-04-07 00:00","2019","04","07","00:00","-25.8","","-28.5","","78","","","","32","","6","","24.1","","101.48","","","","-32","","Ice Crystals"
"-115.14","67.82","KUGLUKTUK A","2300903","2019-04-07 01:00","2019","04","07","01:00","-26.8","","-29.6","","78","","","","1","","9","","24.1","","101.44","","","","-35","","Ice Crystals"
"-115.14","67.82","KUGLUKTUK A","2300903","2019-04-07 02:00","2019","04","07","02:00","-27.1","","-30.1","","76","","","","1","","9","","24.1","","101.40","","","","-35","","Clear"
"-115.14","67.82","KUGLUKTUK A","2300903","2019-04-07 03:00","2019","04","07","03:00","-27.1","","-30.1","","77","","","","36","","11","","24.1","","101.34","","","","-36","","NA"
"-115.14","67.82","KUGLUKTUK A","2300903","2019-04-07 04:00","2019","04","07","04:00","-26.5","","-29.5","","76","","","","2","","10","","24.1","","101.30","","","","-35","","NA"
"-115.14","67.82","KUGLUKTUK A","2300903","2019-04-07 05:00","2019","04","07","05:00","-25.7","","-28.6","","77","","","","2","","14","","24.1","","101.25","","","","-36","","Mostly Cloudy"
"-115.14","67.82","KUGLUKTUK A","2300903","2019-04-07 06:00","2019","04","07","06:00","-24.0","","-26.8","","78","","","","2","","9","","24.1","","101.21","","","","-31","","NA"
"-115.14","67.82","KUGLUKTUK A","2300903","2019-04-07 07:00","2019","04","07","07:00","-23.1","","-25.9","","78","","","","2","","14","","24.1","","101.15","","","","-33","","NA"
"-115.14","67.82","KUGLUKTUK A","2300903","2019-04-07 08:00","2019","04","07","08:00","-22.3","","-25.0","","79","","","","3","","17","","24.1","","101.12","","","","-33","","Mostly Cloudy"
"-115.14","67.82","KUGLUKTUK A","2300903","2019-04-07 09:00","2019","04","07","09:00","-21.4","","-24.3","","78","","","","2","","17","","24.1","","101.10","","","","-31","","NA"
"-115.14","67.82","KUGLUKTUK A","2300903","2019-04-07 10:00","2019","04","07","10:00","-20.9","","-23.9","","77","","","","3","","16","","24.1","","101.07","","","","-31","","NA"
"-115.14","67.82","KUGLUKTUK A","2300903","2019-04-07 11:00","2019","04","07","11:00","-20.3","","-23.4","","77","","","","3","","17","","19.3","","101.04","","","","-30","","Snow"
"-115.14","67.82","KUGLUKTUK A","2300903","2019-04-07 12:00","2019","04","07","12:00","-18.6","","-21.8","","76","","","","4","","14","","16.1","","100.99","","","","-27","","Snow"
"-115.14","67.82","KUGLUKTUK A","2300903","2019-04-07 13:00","2019","04","07","13:00","-17.3","","-20.5","","77","","","","5","","16","","16.1","","100.94","","","","-26","","Snow"
"-115.14","67.82","KUGLUKTUK A","2300903","2019-04-07 14:00","2019","04","07","14:00","-16.4","","-19.5","","77","","","","4","","15","","19.3","","100.91","","","","-25","","Snow"
"-115.14","67.82","KUGLUKTUK A","2300903","2019-04-07 15:00","2019","04","07","15:00","-16.0","","-18.9","","79","","","","4","","16","","24.1","","100.88","","","","-24","","Snow"
"-115.14","67.82","KUGLUKTUK A","2300903","2019-04-07 16:00","2019","04","07","16:00","-15.3","","-18.1","","79","","","","3","","15","","24.1","","100.83","","","","-23","","Snow"
"-115.14","67.82","KUGLUKTUK A","2300903","2019-04-07 17:00","2019","04","07","17:00","-14.5","","-17.2","","80","","","","2","","16","","12.9","","100.80","","","","-23","","Ice Crystals"
"-115.14","67.82","KUGLUKTUK A","2300903","2019-04-07 18:00","2019","04","07","18:00","-14.1","","-16.4","","83","","","","1","","17","","12.9","","100.79","","","","-22","","Ice Crystals"
"-115.14","67.82","KUGLUKTUK A","2300903","2019-04-07 19:00","2019","04","07","19:00","-14.5","","-16.6","","84","","","","1","","19","","9.7","","100.80","","","","-23","","Ice Crystals"
"-115.14","67.82","KUGLUKTUK A","2300903","2019-04-07 20:00","2019","04","07","20:00","-14.9","","-17.0","","85","","","","1","","20","","24.1","","100.79","","","","-24","","Ice Crystals"
"-115.14","67.82","KUGLUKTUK A","2300903","2019-04-07 21:00","2019","04","07","21:00","-15.1","","-17.3","","83","","","","1","","18","","12.9","","100.81","","","","-24","","Snow"
"-115.14","67.82","KUGLUKTUK A","2300903","2019-04-07 22:00","2019","04","07","22:00","-15.4","","-17.6","","83","","","","1","","17","","6.4","","100.82","","","","-24","","Snow"
"-115.14","67.82","KUGLUKTUK A","2300903","2019-04-07 23:00","2019","04","07","23:00","-15.9","","-18.2","","83","","","","34","","15","","4.8","","100.82","","","","-24","","Snow"
"-115.14","67.82","KUGLUKTUK A","2300903","2019-04-08 00:00","2019","04","08","00:00","-16.2","","-18.4","","83","","","","34","","15","","8.1","","100.79","","","","-24","","Snow"
"-115.14","67.82","KUGLUKTUK A","2300903","2019-04-08 01:00","2019","04","08","01:00","-16.4","","-18.8","","82","","","","33","","15","","6.4","","100.78","","","","-25","","Snow"
"-115.14","67.82","KUGLUKTUK A","2300903","2019-04-08 02:00","2019","04","08","02:00","-16.4","","-18.8","","82","","","","35","","14","","12.9","","100.80","","","","-24","","Snow"
"-115.14","67.82","KUGLUKTUK A","2300903","2019-04-08 03:00","2019","04","08","03:00","-16.3","","-18.9","","81","","","","35","","15","","24.1","","100.80","","","","-25","","NA"
"-115.14","67.82","KUGLUKTUK A","2300903","2019-04-08 04:00","2019","04","08","04:00","-16.3","","-19.1","","79","","","","36","","14","","24.1","","100.82","","","","-24","","NA"
"-115.14","67.82","KUGLUKTUK A","2300903","2019-04-08 05:00","2019","04","08","05:00","-16.3","","-19.0","","80","","","","36","","14","","24.1","","100.84","","","","-24","","Cloudy"
"-115.14","67.82","KUGLUKTUK A","2300903","2019-04-08 06:00","2019","04","08","06:00","-16.2","","-19.1","","79","","","","36","","12","","24.1","","100.84","","","","-23","","NA"
"-115.14","67.82","KUGLUKTUK A","2300903","2019-04-08 07:00","2019","04","08","07:00","-15.9","","-18.9","","78","","","","1","","9","","24.1","","100.86","","","","-22","","NA"
"-115.14","67.82","KUGLUKTUK A","2300903","2019-04-08 08:00","2019","04","08","08:00","-15.8","","-18.7","","79","","","","1","","12","","6.4","","100.86","","","","-23","","Snow Pellets"
"-115.14","67.82","KUGLUKTUK A","2300903","2019-04-08 09:00","2019","04","08","09:00","-15.2","","-18.2","","78","","","","1","","4","","19.3","","100.87","","","","-18","","Snow Grains"
"-115.14","67.82","KUGLUKTUK A","2300903","2019-04-08 10:00","2019","04","08","10:00","-14.7","","-18.6","","72","","","","36","","1","","24.1","","100.89","","","","-15","","Snow Grains"
"-115.14","67.82","KUGLUKTUK A","2300903","2019-04-08 11:00","2019","04","08","11:00","-14.5","","-18.1","","75","","","","20","","4","","24.1","","100.91","","","","-17","","Mostly Cloudy"
"-115.14","67.82","KUGLUKTUK A","2300903","2019-04-08 12:00","2019","04","08","12:00","-14.0","","-17.6","","74","","","","36","","3","","24.1","","100.92","","","","-16","","NA"
"-115.14","67.82","KUGLUKTUK A","2300903","2019-04-08 13:00","2019","04","08","13:00","-13.0","","-17.3","","71","","","","33","","4","","24.1","","100.94","","","","-16","","NA"
"-115.14","67.82","KUGLUKTUK A","2300903","2019-04-08 14:00","2019","04","08","14:00","-13.0","","-17.4","","70","","","","36","","3","","24.1","","100.97","","","","-15","","Cloudy"
"-115.14","67.82","KUGLUKTUK A","2300903","2019-04-08 15:00","2019","04","08","15:00","-13.1","","-17.0","","73","","","","2","","5","","24.1","","100.99","","","","-16","","NA"
"-115.14","67.82","KUGLUKTUK A","2300903","2019-04-08 16:00","2019","04","08","16:00","-13.1","","-16.5","","76","","","","1","","7","","24.1","","101.01","","","","-18","","NA"
"-115.14","67.82","KUGLUKTUK A","2300903","2019-04-08 17:00","2019","04","08","17:00","-13.1","","-16.6","","75","","","","4","","6","","24.1","","101.03","","","","-17","","Mostly Cloudy"
"-115.14","67.82","KUGLUKTUK A","2300903","2019-04-08 18:00","2019","04","08","18:00","-13.1","","-16.6","","76","","","","6","","4","","24.1","","101.03","","","","-16","","NA"
"-115.14","67.82","KUGLUKTUK A","2300903","2019-04-08 19:00","2019","04","08","19:00","-13.1","","-16.4","","77","","","","11","","5","","24.1","","101.05","","","","-16","","NA"
"-115.14","67.82","KUGLUKTUK A","2300903","2019-04-08 20:00","2019","04","08","20:00","-13.0","","-16.2","","77","","","","5","","6","","24.1","","101.05","","","","-17","","Mostly Cloudy"
"-115.14","67.82","KUGLUKTUK A","2300903","2019-04-08 21:00","2019","04","08","21:00","-12.9","","-15.9","","79","","","","8","","10","","24.1","","101.06","","","","-19","","NA"
"-115.14","67.82","KUGLUKTUK A","2300903","2019-04-08 22:00","2019","04","08","22:00","-12.8","","-15.7","","80","","","","8","","9","","24.1","","101.05","","","","-18","","Snow"
"-115.14","67.82","KUGLUKTUK A","2300903","2019-04-08 23:00","2019","04","08","23:00","-12.7","","-15.4","","81","","","","8","","10","","24.1","","101.03","","","","-18","","Snow"
"-115.14","67.82","KUGLUKTUK A","2300903","2019-04-09 00:00","2019","04","09","00:00","-12.6","","-15.0","","82","","","","5","","11","","24.1","","101.01","","","","-19","","Snow"
"-115.14","67.82","KUGLUKTUK A","2300903","2019-04-09 01:00","2019","04","09","01:00","-12.4","","-15.0","","81","","","","6","","12","","24.1","","100.99","","","","-19","","Snow"
"-115.14","67.82","KUGLUKTUK A","2300903","2019-04-09 02:00","2019","04","09","02:00","-12.3","","-14.8","","82","","","","8","","13","","19.3","","100.98","","","","-19","","Cloudy"
"-115.14","67.82","KUGLUKTUK A","2300903","2019-04-09 03:00","2019","04","09","03:00","-12.3","","-14.7","","83","","","","6","","11","","19.3","","100.97","","","","-18","","Snow"
"-115.14","67.82","KUGLUKTUK A","2300903","2019-04-09 04:00","2019","04","09","04:00","-12.0","","-14.2","","84","","","","7","","9","","19.3","","100.97","","","","-17","","Snow"
"-115.14","67.82","KUGLUKTUK A","2300903","2019-04-09 05:00","2019","04","09","05:00","-11.8","","-13.9","","85","","","","6","","12","","16.1","","100.97","","","","-18","","Snow"
"-115.14","67.82","KUGLUKTUK A","2300903","2019-04-09 06:00","2019","04","09","06:00","-11.6","","-13.6","","86","","","","4","","8","","19.3","","100.97","","","","-16","","Snow"
"-115.14","67.82","KUGLUKTUK A","2300903","2019-04-09 07:00","2019","04","09","07:00","-11.2","","-13.3","","85","","","","5","","8","","4.8","","100.96","","","","-16","","Snow"
"-115.14","67.82","KUGLUKTUK A","2300903","2019-04-09 08:00","2019","04","09","08:00","-11.0","","-12.9","","86","","","","2","","11","","2.4","","100.94","","","","-17","","Snow"
"-115.14","67.82","KUGLUKTUK A","2300903","2019-04-09 09:00","2019","04","09","09:00","-10.5","","-12.5","","86","","","","2","","8","","2.4","","100.95","","","","-15","","Snow"
"-115.14","67.82","KUGLUKTUK A","2300903","2019-04-09 10:00","2019","04","09","10:00","-10.2","","-12.3","","84","","","","36","","9","","6.4","","100.94","","","","-15","","Snow"
"-115.14","67.82","KUGLUKTUK A","2300903","2019-04-09 11:00","2019","04","09","11:00","-9.6","","-12.1","","82","","","","35","","8","","6.4","","100.96","","","","-14","","Snow"
"-115.14","67.82","KUGLUKTUK A","2300903","2019-04-09 12:00","2019","04","09","12:00","-9.6","","-12.0","","82","","","","33","","9","","6.4","","101.00","","","","-14","","Ice Crystals"
"-115.14","67.82","KUGLUKTUK A","2300903","2019-04-09 13:00","2019","04","09","13:00","-9.5","","-12.1","","82","","","","32","","8","","9.7","","101.02","","","","-14","","Snow"
"-115.14","67.82","KUGLUKTUK A","2300903","2019-04-09 14:00","2019","04","09","14:00","-9.1","","-11.9","","81","","","","30","","6","","12.9","","101.04","","","","-12","","Snow"
"-115.14","67.82","KUGLUKTUK A","2300903","2019-04-09 15:00","2019","04","09","15:00","-9.1","","-11.8","","81","","","","27","","7","","24.1","","101.10","","","","-13","","Snow Grains,Ice Crystals"
"-115.14","67.82","KUGLUKTUK A","2300903","2019-04-09 16:00","2019","04","09","16:00","-9.2","","-12.1","","80","","","","25","","11","","24.1","","101.13","","","","-15","","Snow Grains"
"-115.14","67.82","KUGLUKTUK A","2300903","2019-04-09 17:00","2019","04","09","17:00","-8.9","","-11.9","","79","","","","26","","12","","24.1","","101.17","","","","-15","","Cloudy"
"-115.14","67.82","KUGLUKTUK A","2300903","2019-04-09 18:00","2019","04","09","18:00","-8.6","","-11.5","","80","","","","26","","15","","24.1","","101.22","","","","-15","","NA"
"-115.14","67.82","KUGLUKTUK A","2300903","2019-04-09 19:00","2019","04","09","19:00","-8.6","","-11.0","","83","","","","28","","16","","24.1","","101.25","","","","-15","","Snow Grains"
"-115.14","67.82","KUGLUKTUK A","2300903","2019-04-09 20:00","2019","04","09","20:00","-8.4","","-10.7","","83","","","","26","","12","","24.1","","101.31","","","","-14","","Cloudy"
"-115.14","67.82","KUGLUKTUK A","2300903","2019-04-09 21:00","2019","04","09","21:00","-8.1","","-10.6","","83","","","","31","","8","","24.1","","101.34","","","","-12","","NA"
"-115.14","67.82","KUGLUKTUK A","2300903","2019-04-09 22:00","2019","04","09","22:00","-8.6","","-10.8","","85","","","","2","","4","","24.1","","101.40","","","","-11","","Snow Grains"
"-115.14","67.82","KUGLUKTUK A","2300903","2019-04-09 23:00","2019","04","09","23:00","-8.8","","-11.0","","84","","","","36","","16","","24.1","","101.43","","","","-16","","Snow Grains"
"-115.14","67.82","KUGLUKTUK A","2300903","2019-04-10 00:00","2019","04","10","00:00","-9.3","","-11.6","","84","","","","1","","16","","24.1","","101.46","","","","-16","","NA"
"-115.14","67.82","KUGLUKTUK A","2300903","2019-04-10 01:00","2019","04","10","01:00","-9.5","","-11.7","","84","","","","36","","15","","24.1","","101.50","","","","-16","","NA"
"-115.14","67.82","KUGLUKTUK A","2300903","2019-04-10 02:00","2019","04","10","02:00","-9.6","","-11.7","","85","","","","1","","13","","24.1","","101.54","","","","-16","","Cloudy"
"-115.14","67.82","KUGLUKTUK A","2300903","2019-04-10 03:00","2019","04","10","03:00","-10.0","","-12.0","","86","","","","36","","14","","24.1","","101.57","","","","-16","","NA"
"-115.14","67.82","KUGLUKTUK A","2300903","2019-04-10 04:00","2019","04","10","04:00","-10.1","","-11.5","","89","","","","35","","15","","24.1","","101.62","","","","-17","","NA"
"-115.14","67.82","KUGLUKTUK A","2300903","2019-04-10 05:00","2019","04","10","05:00","-9.8","","-11.0","","91","","","","35","","13","","8.1","","101.64","","","","-16","","Snow Grains"
"-115.14","67.82","KUGLUKTUK A","2300903","2019-04-10 06:00","2019","04","10","06:00","-9.7","","-10.8","","92","","","","34","","7","","9.7","","101.70","","","","-14","","Snow Grains"
"-115.14","67.82","KUGLUKTUK A","2300903","2019-04-10 07:00","2019","04","10","07:00","-9.5","","-10.7","","91","","","","1","","4","","6.4","","101.75","","","","-12","","Snow,Fog"
"-115.14","67.82","KUGLUKTUK A","2300903","2019-04-10 08:00","2019","04","10","08:00","-8.9","","-10.4","","89","","","","36","","2","","12.9","","101.77","","","","-10","","Snow"
"-115.14","67.82","KUGLUKTUK A","2300903","2019-04-10 09:00","2019","04","10","09:00","-9.1","","-10.9","","87","","","","29","","11","","19.3","","101.80","","","","-15","","Snow"
"-115.14","67.82","KUGLUKTUK A","2300903","2019-04-10 10:00","2019","04","10","10:00","-8.9","","-10.8","","86","","","","28","","9","","19.3","","101.82","","","","-14","","Snow"
"-115.14","67.82","KUGLUKTUK A","2300903","2019-04-10 11:00","2019","04","10","11:00","-8.3","","-11.0","","81","","","","35","","5","","24.1","","101.83","","","","-11","","Cloudy"
"-115.14","67.82","KUGLUKTUK A","2300903","2019-04-10 12:00","2019","04","10","12:00","-8.7","","-11.9","","78","","","","2","","9","","24.1","","101.88","","","","-13","","NA"
"-115.14","67.82","KUGLUKTUK A","2300903","2019-04-10 13:00","2019","04","10","13:00","-8.7","","-11.9","","77","","","","1","","13","","24.1","","101.90","","","","-15","","NA"
"-115.14","67.82","KUGLUKTUK A","2300903","2019-04-10 14:00","2019","04","10","14:00","-8.9","","-11.8","","80","","","","1","","17","","24.1","","101.92","","","","-16","","Cloudy"
"-115.14","67.82","KUGLUKTUK A","2300903","2019-04-10 15:00","2019","04","10","15:00","-9.0","","-11.7","","81","","","","3","","15","","24.1","","101.94","","","","-16","","NA"
"-115.14","67.82","KUGLUKTUK A","2300903","2019-04-10 16:00","2019","04","10","16:00","-9.1","","-11.6","","82","","","","4","","9","","24.1","","101.96","","","","-14","","NA"
"-115.14","67.82","KUGLUKTUK A","2300903","2019-04-10 17:00","2019","04","10","17:00","-9.2","","-11.9","","81","","","","4","","8","","24.1","","102.00","","","","-14","","Cloudy"
"-115.14","67.82","KUGLUKTUK A","2300903","2019-04-10 18:00","2019","04","10","18:00","-9.4","","-11.9","","82","","","","2","","7","","24.1","","102.03","","","","-13","","NA"
"-115.14","67.82","KUGLUKTUK A","2300903","2019-04-10 19:00","2019","04","10","19:00","-9.3","","-11.7","","83","","","","1","","9","","24.1","","102.03","","","","-14","","NA"
"-115.14","67.82","KUGLUKTUK A","2300903","2019-04-10 20:00","2019","04","10","20:00","-9.5","","-11.7","","85","","","","3","","8","","24.1","","102.03","","","","-14","","Cloudy"
"-115.14","67.82","KUGLUKTUK A","2300903","2019-04-10 21:00","2019","04","10","21:00","-9.5","","-11.6","","85","","","","7","","5","","24.1","","102.04","","","","-12","","Snow"
"-115.14","67.82","KUGLUKTUK A","2300903","2019-04-10 22:00","2019","04","10","22:00","-9.6","","-11.7","","85","","","","9","","4","","24.1","","102.04","","","","-12","","Snow"
"-115.14","67.82","KUGLUKTUK A","2300903","2019-04-10 23:00","2019","04","10","23:00","-9.8","","-11.6","","87","","","","36","","1","","12.9","","102.03","","","","-10","","Snow"
"-115.14","67.82","KUGLUKTUK A","2300903","2019-04-11 00:00","2019","04","11","00:00","-9.8","","-11.5","","88","","","","4","","4","","16.1","","102.02","","","","-12","","Snow"
"-115.14","67.82","KUGLUKTUK A","2300903","2019-04-11 01:00","2019","04","11","01:00","-9.8","","-11.5","","87","","","","5","","5","","16.1","","102.03","","","","-13","","Snow"
"-115.14","67.82","KUGLUKTUK A","2300903","2019-04-11 02:00","2019","04","11","02:00","-9.9","","-11.4","","89","","","","1","","4","","19.3","","102.06","","","","-12","","Snow"
"-115.14","67.82","KUGLUKTUK A","2300903","2019-04-11 03:00","2019","04","11","03:00","-10.0","","-11.5","","89","","","","3","","7","","19.3","","102.04","","","","-14","","Snow"
"-115.14","67.82","KUGLUKTUK A","2300903","2019-04-11 04:00","2019","04","11","04:00","-10.0","","-11.5","","89","","","","8","","4","","19.3","","102.03","","","","-12","","NA"
"-115.14","67.82","KUGLUKTUK A","2300903","2019-04-11 05:00","2019","04","11","05:00","-9.9","","-11.4","","89","","","","12","","5","","8.1","","102.00","","","","-13","","Snow,Fog"
"-115.14","67.82","KUGLUKTUK A","2300903","2019-04-11 06:00","2019","04","11","06:00","-9.9","","-11.4","","89","","","","3","","5","","6.4","","102.00","","","","-13","","Snow,Fog"
"-115.14","67.82","KUGLUKTUK A","2300903","2019-04-11 07:00","2019","04","11","07:00","-9.7","","-11.3","","88","","","","35","","8","","19.3","","101.98","","","","-14","","Snow"
"-115.14","67.82","KUGLUKTUK A","2300903","2019-04-11 08:00","2019","04","11","08:00","-9.5","","-11.2","","88","","","","3","","7","","19.3","","101.97","","","","-13","","Snow"
"-115.14","67.82","KUGLUKTUK A","2300903","2019-04-11 09:00","2019","04","11","09:00","-9.6","","-10.8","","91","","","","3","","11","","9.7","","101.94","","","","-15","","Snow"
"-115.14","67.82","KUGLUKTUK A","2300903","2019-04-11 10:00","2019","04","11","10:00","-9.2","","-10.2","","92","","","","3","","7","","4.8","","101.92","","","","-13","","Snow"
"-115.14","67.82","KUGLUKTUK A","2300903","2019-04-11 11:00","2019","04","11","11:00","-9.0","","-10.3","","90","","","","1","","8","","8.1","","101.91","","","","-13","","Snow"
"-115.14","67.82","KUGLUKTUK A","2300903","2019-04-11 12:00","2019","04","11","12:00","-8.6","","-10.2","","88","","","","35","","6","","4.8","","101.91","","","","-12","","Snow"
"-115.14","67.82","KUGLUKTUK A","2300903","2019-04-11 13:00","2019","04","11","13:00","-8.1","","-10.4","","83","","","","36","","7","","6.4","","101.89","","","","-12","","Snow"
"-115.14","67.82","KUGLUKTUK A","2300903","2019-04-11 14:00","2019","04","11","14:00","-8.3","","-10.4","","85","","","","34","","9","","3.2","","101.88","","","","-13","","Snow"
"-115.14","67.82","KUGLUKTUK A","2300903","2019-04-11 15:00","2019","04","11","15:00","-8.2","","-10.7","","82","","","","34","","6","","9.7","","101.87","","","","-11","","Snow"
"-115.14","67.82","KUGLUKTUK A","2300903","2019-04-11 16:00","2019","04","11","16:00","-8.4","","-10.8","","83","","","","33","","10","","12.9","","101.86","","","","-13","","Snow"
"-115.14","67.82","KUGLUKTUK A","2300903","2019-04-11 17:00","2019","04","11","17:00","-8.4","","-10.7","","83","","","","36","","6","","12.9","","101.85","","","","-12","","Snow"
"-115.14","67.82","KUGLUKTUK A","2300903","2019-04-11 18:00","2019","04","11","18:00","-8.7","","-10.8","","85","","","","36","","10","","24.1","","101.83","","","","-14","","NA"
"-115.14","67.82","KUGLUKTUK A","2300903","2019-04-11 19:00","2019","04","11","19:00","-9.1","","-11.0","","86","","","","2","","11","","19.3","","101.81","","","","-15","","Snow"
"-115.14","67.82","KUGLUKTUK A","2300903","2019-04-11 20:00","2019","04","11","20:00","-9.4","","-11.4","","85","","","","1","","10","","19.3","","101.82","","","","-15","","Snow"
"-115.14","67.82","KUGLUKTUK A","2300903","2019-04-11 21:00","2019","04","11","21:00","-9.8","","-11.5","","87","","","","3","","12","","19.3","","101.77","","","","-16","","Snow"
"-115.14","67.82","KUGLUKTUK A","2300903","2019-04-11 22:00","2019","04","11","22:00","-10.0","","-11.8","","86","","","","3","","9","","24.1","","101.73","","","","-15","","Snow"
"-115.14","67.82","KUGLUKTUK A","2300903","2019-04-11 23:00","2019","04","11","23:00","-10.2","","-11.9","","87","","","","1","","11","","19.3","","101.68","","","","-16","","Snow"
"-115.14","67.82","KUGLUKTUK A","2300903","2019-04-12 00:00","2019","04","12","00:00","-10.3","","-12.1","","87","","","","4","","12","","16.1","","101.61","","","","-16","","Snow"
"-115.14","67.82","KUGLUKTUK A","2300903","2019-04-12 01:00","2019","04","12","01:00","-10.3","","-11.9","","88","","","","3","","14","","9.7","","101.57","","","","-17","","Snow"
"-115.14","67.82","KUGLUKTUK A","2300903","2019-04-12 02:00","2019","04","12","02:00","-10.4","","-12.1","","88","","","","4","","14","","9.7","","101.52","","","","-17","","Snow"
"-115.14","67.82","KUGLUKTUK A","2300903","2019-04-12 03:00","2019","04","12","03:00","-10.5","","-12.2","","87","","","","4","","15","","16.1","","101.49","","","","-17","","Snow"
"-115.14","67.82","KUGLUKTUK A","2300903","2019-04-12 04:00","2019","04","12","04:00","-10.7","","-12.5","","87","","","","4","","18","","9.7","","101.45","","","","-18","","Snow"
"-115.14","67.82","KUGLUKTUK A","2300903","2019-04-12 05:00","2019","04","12","05:00","-10.8","","-12.5","","87","","","","5","","12","","12.9","","101.42","","","","-17","","Snow"
"-115.14","67.82","KUGLUKTUK A","2300903","2019-04-12 06:00","2019","04","12","06:00","-11.0","","-12.8","","87","","","","3","","17","","12.9","","101.36","","","","-18","","NA"
"-115.14","67.82","KUGLUKTUK A","2300903","2019-04-12 07:00","2019","04","12","07:00","-11.2","","-12.9","","87","","","","3","","17","","3.2","","101.34","","","","-19","","Snow"
"-115.14","67.82","KUGLUKTUK A","2300903","2019-04-12 08:00","2019","04","12","08:00","-11.3","","-13.2","","86","","","","3","","23","","9.7","","101.29","","","","-20","","Snow"
"-115.14","67.82","KUGLUKTUK A","2300903","2019-04-12 09:00","2019","04","12","09:00","-11.5","","-13.7","","84","","","","5","","21","","8.1","","101.25","","","","-20","","Snow"
"-115.14","67.82","KUGLUKTUK A","2300903","2019-04-12 10:00","2019","04","12","10:00","-11.6","","-13.8","","84","","","","5","","16","","4.8","","101.22","","","","-19","","Snow"
"-115.14","67.82","KUGLUKTUK A","2300903","2019-04-12 11:00","2019","04","12","11:00","-11.9","","-14.0","","85","","","","5","","16","","0.8","","101.21","","","","-19","","Moderate Snow"
"-115.14","67.82","KUGLUKTUK A","2300903","2019-04-12 12:00","2019","04","12","12:00","-11.6","","-14.2","","81","","","","4","","17","","4.8","","101.20","","","","-19","","Snow"
"-115.14","67.82","KUGLUKTUK A","2300903","2019-04-12 13:00","2019","04","12","13:00","-11.9","","-14.3","","83","","","","4","","20","","1.2","","101.18","","","","-20","","Snow"
"-115.14","67.82","KUGLUKTUK A","2300903","2019-04-12 14:00","2019","04","12","14:00","-11.2","","-14.0","","80","","","","4","","25","","8.1","","101.16","","","","-20","","Snow,Blowing Snow"
"-115.14","67.82","KUGLUKTUK A","2300903","2019-04-12 15:00","2019","04","12","15:00","-11.3","","-13.9","","81","","","","5","","21","","12.9","","101.15","","","","-20","","Snow,Blowing Snow"
"-115.14","67.82","KUGLUKTUK A","2300903","2019-04-12 16:00","2019","04","12","16:00","-11.9","","-14.3","","82","","","","5","","22","","12.9","","101.14","","","","-21","","Snow"
"-115.14","67.82","KUGLUKTUK A","2300903","2019-04-12 17:00","2019","04","12","17:00","-12.1","","-14.4","","83","","","","5","","26","","12.9","","101.09","","","","-22","","Snow,Blowing Snow"
"-115.14","67.82","KUGLUKTUK A","2300903","2019-04-12 18:00","2019","04","12","18:00","-12.7","","-15.0","","83","","","","6","","23","","16.1","","101.10","","","","-22","","Snow,Blowing Snow"
"-115.14","67.82","KUGLUKTUK A","2300903","2019-04-12 19:00","2019","04","12","19:00","-13.4","","-15.8","","82","","","","6","","26","","12.9","","101.11","","","","-23","","Snow,Blowing Snow"
"-115.14","67.82","KUGLUKTUK A","2300903","2019-04-12 20:00","2019","04","12","20:00","-13.8","","-16.2","","83","","","","6","","21","","12.9","","101.11","","","","-23","","Snow,Blowing Snow"
"-115.14","67.82","KUGLUKTUK A","2300903","2019-04-12 21:00","2019","04","12","21:00","-14.2","","-16.4","","83","","","","6","","22","","9.7","","101.09","","","","-24","","Snow,Fog,Blowing Snow"
"-115.14","67.82","KUGLUKTUK A","2300903","2019-04-12 22:00","2019","04","12","22:00","-14.4","","-16.6","","83","","","","6","","23","","9.7","","101.09","","","","-24","","Snow,Fog,Blowing Snow"
"-115.14","67.82","KUGLUKTUK A","2300903","2019-04-12 23:00","2019","04","12","23:00","-14.6","","-17.0","","82","","","","6","","26","","9.7","","101.08","","","","-25","","Snow,Fog,Blowing Snow"
"-115.14","67.82","KUGLUKTUK A","2300903","2019-04-13 00:00","2019","04","13","00:00","-15.1","","-17.5","","82","","","","5","","23","","9.7","","101.06","","","","-25","","Snow,Fog,Blowing Snow"
"-115.14","67.82","KUGLUKTUK A","2300903","2019-04-13 01:00","2019","04","13","01:00","-15.5","","-18.1","","81","","","","5","","28","","12.9","","101.08","","","","-26","","Snow,Blowing Snow"
"-115.14","67.82","KUGLUKTUK A","2300903","2019-04-13 02:00","2019","04","13","02:00","-16.0","","-18.3","","83","","","","5","","23","","19.3","","101.06","","","","-26","","Snow,Blowing Snow"
"-115.14","67.82","KUGLUKTUK A","2300903","2019-04-13 03:00","2019","04","13","03:00","-16.2","","-18.9","","80","","","","6","","26","","24.1","","101.08","","","","-27","","Snow,Blowing Snow"
"-115.14","67.82","KUGLUKTUK A","2300903","2019-04-13 04:00","2019","04","13","04:00","-16.5","","-19.2","","80","","","","5","","23","","24.1","","101.09","","","","-27","","Snow,Blowing Snow"
"-115.14","67.82","KUGLUKTUK A","2300903","2019-04-13 05:00","2019","04","13","05:00","-17.0","","-19.6","","80","","","","4","","30","","9.7","","101.09","","","","-29","","Snow,Fog,Blowing Snow"
"-115.14","67.82","KUGLUKTUK A","2300903","2019-04-13 06:00","2019","04","13","06:00","-17.4","","-19.7","","82","","","","5","","26","","6.4","","101.09","","","","-28","","Snow,Fog,Blowing Snow"
"-115.14","67.82","KUGLUKTUK A","2300903","2019-04-13 07:00","2019","04","13","07:00","-17.8","","-20.2","","81","","","","4","","27","","6.4","","101.10","","","","-29","","Fog,Blowing Snow"
"-115.14","67.82","KUGLUKTUK A","2300903","2019-04-13 08:00","2019","04","13","08:00","-17.9","","-20.6","","80","","","","4","","25","","9.7","","101.11","","","","-29","","Fog,Blowing Snow"
"-115.14","67.82","KUGLUKTUK A","2300903","2019-04-13 09:00","2019","04","13","09:00","-17.9","","-21.1","","76","","","","5","","23","","19.3","","101.13","","","","-29","","Blowing Snow"
"-115.14","67.82","KUGLUKTUK A","2300903","2019-04-13 10:00","2019","04","13","10:00","-17.9","","-21.2","","75","","","","6","","22","","12.9","","101.16","","","","-28","","Snow Grains,Blowing Snow"
"-115.14","67.82","KUGLUKTUK A","2300903","2019-04-13 11:00","2019","04","13","11:00","-17.6","","-21.1","","75","","","","6","","21","","16.1","","101.16","","","","-28","","Snow Grains,Blowing Snow"
"-115.14","67.82","KUGLUKTUK A","2300903","2019-04-13 12:00","2019","04","13","12:00","-17.5","","-21.2","","73","","","","6","","21","","16.1","","101.17","","","","-28","","Snow Grains,Blowing Snow"
"-115.14","67.82","KUGLUKTUK A","2300903","2019-04-13 13:00","2019","04","13","13:00","-17.5","","-21.2","","73","","","","7","","26","","16.1","","101.20","","","","-29","","Snow Grains,Blowing Snow"
"-115.14","67.82","KUGLUKTUK A","2300903","2019-04-13 14:00","2019","04","13","14:00","-17.4","","-21.1","","73","","","","6","","26","","16.1","","101.24","","","","-28","","Snow Grains,Blowing Snow"
"-115.14","67.82","KUGLUKTUK A","2300903","2019-04-13 15:00","2019","04","13","15:00","-17.3","","-20.8","","75","","","","7","","23","","12.9","","101.28","","","","-28","","Snow Grains,Blowing Snow"
"-115.14","67.82","KUGLUKTUK A","2300903","2019-04-13 16:00","2019","04","13","16:00","-17.4","","-21.0","","74","","","","7","","24","","16.1","","101.30","","","","-28","","Snow,Blowing Snow"
"-115.14","67.82","KUGLUKTUK A","2300903","2019-04-13 17:00","2019","04","13","17:00","-17.4","","-20.6","","76","","","","7","","28","","16.1","","101.33","","","","-29","","Snow,Blowing Snow"
"-115.14","67.82","KUGLUKTUK A","2300903","2019-04-13 18:00","2019","04","13","18:00","-17.6","","-20.6","","77","","","","6","","23","","16.1","","101.35","","","","-28","","Snow,Blowing Snow"
"-115.14","67.82","KUGLUKTUK A","2300903","2019-04-13 19:00","2019","04","13","19:00","-18.3","","-21.4","","77","","","","6","","28","","16.1","","101.39","","","","-30","","Snow,Blowing Snow"
"-115.14","67.82","KUGLUKTUK A","2300903","2019-04-13 20:00","2019","04","13","20:00","-18.7","","-21.8","","77","","","","6","","26","","9.7","","101.41","","","","-30","","Snow,Blowing Snow"
"-115.14","67.82","KUGLUKTUK A","2300903","2019-04-13 21:00","2019","04","13","21:00","-18.8","","-21.7","","78","","","","6","","26","","6.4","","101.45","","","","-30","","Snow,Fog,Blowing Snow"
"-115.14","67.82","KUGLUKTUK A","2300903","2019-04-13 22:00","2019","04","13","22:00","-19.5","","-22.4","","78","","","","6","","27","","8.1","","101.46","","","","-31","","Snow,Fog,Blowing Snow"
"-115.14","67.82","KUGLUKTUK A","2300903","2019-04-13 23:00","2019","04","13","23:00","-19.9","","-22.8","","78","","","","5","","25","","4.8","","101.49","","","","-31","","Snow,Fog,Blowing Snow"
"-115.14","67.82","KUGLUKTUK A","2300903","2019-04-14 00:00","2019","04","14","00:00","-20.9","","-23.8","","78","","","","5","","27","","9.7","","101.53","","","","-33","","Snow,Fog,Blowing Snow"
"-115.14","67.82","KUGLUKTUK A","2300903","2019-04-14 01:00","2019","04","14","01:00","-23.5","","-26.2","","79","","","","4","","22","","16.1","","101.57","","","","-35","","Snow,Blowing Snow"
"-115.14","67.82","KUGLUKTUK A","2300903","2019-04-14 02:00","2019","04","14","02:00","-24.4","","-27.3","","78","","","","4","","21","","24.1","","101.62","","","","-36","","Ice Crystals"
"-115.14","67.82","KUGLUKTUK A","2300903","2019-04-14 03:00","2019","04","14","03:00","-26.0","","-28.9","","77","","","","4","","22","","24.1","","101.63","","","","-39","","Ice Crystals"
"-115.14","67.82","KUGLUKTUK A","2300903","2019-04-14 04:00","2019","04","14","04:00","-26.0","","-29.0","","77","","","","4","","22","","24.1","","101.69","","","","-39","","Ice Crystals"
"-115.14","67.82","KUGLUKTUK A","2300903","2019-04-14 05:00","2019","04","14","05:00","-26.7","","-29.6","","77","","","","4","","21","","24.1","","101.73","","","","-39","","Ice Crystals"
"-115.14","67.82","KUGLUKTUK A","2300903","2019-04-14 06:00","2019","04","14","06:00","-27.1","","-30.1","","76","","","","4","","16","","24.1","","101.76","","","","-38","","Ice Crystals"
"-115.14","67.82","KUGLUKTUK A","2300903","2019-04-14 07:00","2019","04","14","07:00","-26.8","","-29.9","","76","","","","4","","19","","24.1","","101.75","","","","-39","","Ice Crystals"
"-115.14","67.82","KUGLUKTUK A","2300903","2019-04-14 08:00","2019","04","14","08:00","-26.4","","-29.6","","75","","","","4","","19","","24.1","","101.77","","","","-38","","Mostly Cloudy"
"-115.14","67.82","KUGLUKTUK A","2300903","2019-04-14 09:00","2019","04","14","09:00","-25.2","","-28.5","","74","","","","4","","18","","19.3","","101.78","","","","-36","","Snow"
"-115.14","67.82","KUGLUKTUK A","2300903","2019-04-14 10:00","2019","04","14","10:00","-24.2","","-27.9","","72","","","","5","","19","","19.3","","101.80","","","","-36","","Snow"
"-115.14","67.82","KUGLUKTUK A","2300903","2019-04-14 11:00","2019","04","14","11:00","-23.7","","-27.3","","73","","","","4","","19","","19.3","","101.79","","","","-35","","Snow"
"-115.14","67.82","KUGLUKTUK A","2300903","2019-04-14 12:00","2019","04","14","12:00","-22.6","","-26.2","","73","","","","5","","22","","19.3","","101.80","","","","-34","","Snow"
"-115.14","67.82","KUGLUKTUK A","2300903","2019-04-14 13:00","2019","04","14","13:00","-21.4","","-25.1","","73","","","","5","","20","","16.1","","101.83","","","","-32","","Snow"
"-115.14","67.82","KUGLUKTUK A","2300903","2019-04-14 14:00","2019","04","14","14:00","-20.4","","-23.9","","74","","","","5","","17","","19.3","","101.85","","","","-30","","Snow"
"-115.14","67.82","KUGLUKTUK A","2300903","2019-04-14 15:00","2019","04","14","15:00","-20.0","","-23.6","","74","","","","6","","16","","19.3","","101.86","","","","-29","","Snow"
"-115.14","67.82","KUGLUKTUK A","2300903","2019-04-14 16:00","2019","04","14","16:00","-19.7","","-23.2","","74","","","","7","","17","","19.3","","101.90","","","","-29","","Snow"
"-115.14","67.82","KUGLUKTUK A","2300903","2019-04-14 17:00","2019","04","14","17:00","-19.6","","-23.0","","74","","","","7","","20","","24.1","","101.91","","","","-30","","Mostly Cloudy"
"-115.14","67.82","KUGLUKTUK A","2300903","2019-04-14 18:00","2019","04","14","18:00","-19.7","","-23.1","","75","","","","7","","18","","24.1","","101.93","","","","-30","","NA"
"-115.14","67.82","KUGLUKTUK A","2300903","2019-04-14 19:00","2019","04","14","19:00","-21.0","","-24.1","","76","","","","6","","18","","24.1","","101.94","","","","-31","","NA"
"-115.14","67.82","KUGLUKTUK A","2300903","2019-04-14 20:00","2019","04","14","20:00","-22.1","","-25.0","","78","","","","6","","15","","24.1","","101.97","","","","-32","","Clear"
"-115.14","67.82","KUGLUKTUK A","2300903","2019-04-14 21:00","2019","04","14","21:00","-22.9","","-25.4","","80","","","","6","","15","","24.1","","101.99","","","","-33","","NA"
"-115.14","67.82","KUGLUKTUK A","2300903","2019-04-14 22:00","2019","04","14","22:00","-24.5","","-26.9","","81","","","","5","","16","","24.1","","102.00","","","","-35","","NA"
"-115.14","67.82","KUGLUKTUK A","2300903","2019-04-14 23:00","2019","04","14","23:00","-25.8","","-28.1","","82","","","","3","","4","","24.1","","102.01","","","","-30","","Clear"
"-115.14","67.82","KUGLUKTUK A","2300903","2019-04-15 00:00","2019","04","15","00:00","-26.1","","-28.4","","82","","","","1","","6","","24.1","","102.00","","","","-32","","NA"
"-115.14","67.82","KUGLUKTUK A","2300903","2019-04-15 01:00","2019","04","15","01:00","-27.5","","-29.8","","81","","","","9","","5","","24.1","","102.03","","","","-33","","NA"
"-115.14","67.82","KUGLUKTUK A","2300903","2019-04-15 02:00","2019","04","15","02:00","-28.1","","-30.5","","80","","","","17","","8","","24.1","","102.03","","","","-36","","Clear"
"-115.14","67.82","KUGLUKTUK A","2300903","2019-04-15 03:00","2019","04","15","03:00","-28.3","","-30.8","","80","","","","31","","6","","24.1","","102.04","","","","-35","","NA"
"-115.14","67.82","KUGLUKTUK A","2300903","2019-04-15 04:00","2019","04","15","04:00","-28.1","","-30.7","","79","","","","30","","4","","24.1","","102.05","","","","-32","","NA"
"-115.14","67.82","KUGLUKTUK A","2300903","2019-04-15 05:00","2019","04","15","05:00","-30.1","","-33.0","","77","","","","29","","3","","24.1","","102.06","","","","-33","","Clear"
"-115.14","67.82","KUGLUKTUK A","2300903","2019-04-15 06:00","2019","04","15","06:00","-29.4","","-32.3","","77","","","","36","","1","","24.1","","102.07","","","","-31","","NA"
"-115.14","67.82","KUGLUKTUK A","2300903","2019-04-15 07:00","2019","04","15","07:00","-29.6","","-32.6","","76","","","","23","","3","","24.1","","102.08","","","","-33","","NA"
"-115.14","67.82","KUGLUKTUK A","2300903","2019-04-15 08:00","2019","04","15","08:00","-28.3","","-31.3","","76","","","","23","","9","","24.1","","102.08","","","","-37","","Clear"
"-115.14","67.82","KUGLUKTUK A","2300903","2019-04-15 09:00","2019","04","15","09:00","-27.6","","-30.7","","75","","","","22","","12","","24.1","","102.08","","","","-37","","NA"
"-115.14","67.82","KUGLUKTUK A","2300903","2019-04-15 10:00","2019","04","15","10:00","-26.1","","-29.1","","76","","","","22","","11","","24.1","","102.08","","","","-35","","NA"
"-115.14","67.82","KUGLUKTUK A","2300903","2019-04-15 11:00","2019","04","15","11:00","-24.8","","-27.8","","77","","","","23","","8","","24.1","","102.06","","","","-32","","Clear"
"-115.14","67.82","KUGLUKTUK A","2300903","2019-04-15 12:00","2019","04","15","12:00","-23.7","","-26.6","","77","","","","28","","5","","24.1","","102.02","","","","-28","","NA"
"-115.14","67.82","KUGLUKTUK A","2300903","2019-04-15 13:00","2019","04","15","13:00","-23.1","","-26.0","","77","","","","29","","5","","24.1","","102.04","","","","-28","","NA"
"-115.14","67.82","KUGLUKTUK A","2300903","2019-04-15 14:00","2019","04","15","14:00","-22.6","","-25.5","","77","","","","31","","5","","24.1","","102.03","","","","-27","","Clear"
"-115.14","67.82","KUGLUKTUK A","2300903","2019-04-15 15:00","2019","04","15","15:00","-22.0","","-25.0","","77","","","","36","","3","","24.1","","102.03","","","","-25","","NA"
"-115.14","67.82","KUGLUKTUK A","2300903","2019-04-15 16:00","2019","04","15","16:00","-22.3","","-25.3","","77","","","","2","","3","","24.1","","102.00","","","","-25","","NA"
"-115.14","67.82","KUGLUKTUK A","2300903","2019-04-15 17:00","2019","04","15","17:00","-22.4","","-25.4","","78","","","","36","","2","","24.1","","101.98","","","","-24","","Clear"
"-115.14","67.82","KUGLUKTUK A","2300903","2019-04-15 18:00","2019","04","15","18:00","-22.6","","-25.5","","77","","","","36","","3","","24.1","","101.95","","","","-25","","NA"
"-115.14","67.82","KUGLUKTUK A","2300903","2019-04-15 19:00","2019","04","15","19:00","-23.0","","-25.9","","77","","","","36","","3","","24.1","","101.91","","","","-26","","NA"
"-115.14","67.82","KUGLUKTUK A","2300903","2019-04-15 20:00","2019","04","15","20:00","-23.5","","-26.2","","78","","","","12","","4","","24.1","","101.89","","","","-27","","Mainly Clear"
"-115.14","67.82","KUGLUKTUK A","2300903","2019-04-15 21:00","2019","04","15","21:00","-24.6","","-27.2","","79","","","","14","","4","","24.1","","101.89","","","","-29","","Ice Crystals"
"-115.14","67.82","KUGLUKTUK A","2300903","2019-04-15 22:00","2019","04","15","22:00","-25.3","","-28.0","","78","","","","35","","4","","24.1","","101.86","","","","-29","","NA"
"-115.14","67.82","KUGLUKTUK A","2300903","2019-04-15 23:00","2019","04","15","23:00","-26.0","","-28.7","","78","","","","13","","5","","24.1","","101.83","","","","-31","","Clear"
"-115.14","67.82","KUGLUKTUK A","2300903","2019-04-16 00:00","2019","04","16","00:00","-25.6","","-28.4","","78","","","","5","","7","","24.1","","101.78","","","","-32","","NA"
"-115.14","67.82","KUGLUKTUK A","2300903","2019-04-16 01:00","2019","04","16","01:00","-28.4","","-31.2","","77","","","","35","","3","","24.1","","101.79","","","","-32","","NA"
"-115.14","67.82","KUGLUKTUK A","2300903","2019-04-16 02:00","2019","04","16","02:00","-29.3","","-32.4","","75","","","","2","","7","","24.1","","101.76","","","","-36","","Mainly Clear"
"-115.14","67.82","KUGLUKTUK A","2300903","2019-04-16 03:00","2019","04","16","03:00","-29.8","","-33.1","","74","","","","36","","4","","24.1","","101.73","","","","-34","","NA"
"-115.14","67.82","KUGLUKTUK A","2300903","2019-04-16 04:00","2019","04","16","04:00","-30.3","","-33.7","","73","","","","33","","4","","24.1","","101.71","","","","-35","","NA"
"-115.14","67.82","KUGLUKTUK A","2300903","2019-04-16 05:00","2019","04","16","05:00","-29.1","","-32.3","","75","","","","36","","3","","24.1","","101.68","","","","-32","","Mainly Clear"
"-115.14","67.82","KUGLUKTUK A","2300903","2019-04-16 06:00","2019","04","16","06:00","-28.1","","-31.3","","75","","","","36","","3","","24.1","","101.66","","","","-31","","NA"
"-115.14","67.82","KUGLUKTUK A","2300903","2019-04-16 07:00","2019","04","16","07:00","-27.6","","-30.8","","75","","","","29","","4","","24.1","","101.63","","","","-32","","NA"
"-115.14","67.82","KUGLUKTUK A","2300903","2019-04-16 08:00","2019","04","16","08:00","-27.1","","-30.2","","75","","","","35","","3","","24.1","","101.61","","","","-30","","Mainly Clear"
"-115.14","67.82","KUGLUKTUK A","2300903","2019-04-16 09:00","2019","04","16","09:00","-26.3","","-29.4","","75","","","","33","","3","","24.1","","101.57","","","","-29","","NA"
"-115.14","67.82","KUGLUKTUK A","2300903","2019-04-16 10:00","2019","04","16","10:00","-25.1","","-28.2","","76","","","","35","","3","","24.1","","101.57","","","","-28","","Ice Crystals"
"-115.14","67.82","KUGLUKTUK A","2300903","2019-04-16 11:00","2019","04","16","11:00","-24.7","","-27.7","","77","","","","36","","4","","24.1","","101.54","","","","-29","","Ice Crystals"
"-115.14","67.82","KUGLUKTUK A","2300903","2019-04-16 12:00","2019","04","16","12:00","-24.3","","-27.3","","77","","","","2","","6","","24.1","","101.53","","","","-30","","Ice Crystals"
"-115.14","67.82","KUGLUKTUK A","2300903","2019-04-16 13:00","2019","04","16","13:00","-22.9","","-25.8","","78","","","","2","","6","","24.1","","101.50","","","","-28","","NA"
"-115.14","67.82","KUGLUKTUK A","2300903","2019-04-16 14:00","2019","04","16","14:00","-22.3","","-25.1","","78","","","","2","","7","","24.1","","101.47","","","","-28","","Mainly Clear"
"-115.14","67.82","KUGLUKTUK A","2300903","2019-04-16 15:00","2019","04","16","15:00","-21.4","","-24.2","","79","","","","7","","8","","24.1","","101.45","","","","-28","","NA"
"-115.14","67.82","KUGLUKTUK A","2300903","2019-04-16 16:00","2019","04","16","16:00","-20.2","","-22.8","","80","","","","9","","5","","24.1","","101.42","","","","-25","","NA"
"-115.14","67.82","KUGLUKTUK A","2300903","2019-04-16 17:00","2019","04","16","17:00","-20.1","","-22.7","","80","","","","36","","2","","24.1","","101.39","","","","-22","","Clear"
"-115.14","67.82","KUGLUKTUK A","2300903","2019-04-16 18:00","2019","04","16","18:00","-19.8","","-22.4","","80","","","","34","","4","","24.1","","101.35","","","","-23","","NA"
"-115.14","67.82","KUGLUKTUK A","2300903","2019-04-16 19:00","2019","04","16","19:00","-20.9","","-23.5","","80","","","","19","","3","","24.1","","101.30","","","","-24","","NA"
"-115.14","67.82","KUGLUKTUK A","2300903","2019-04-16 20:00","2019","04","16","20:00","-22.0","","-24.7","","79","","","","21","","3","","24.1","","101.28","","","","-25","","Clear"
"-115.14","67.82","KUGLUKTUK A","2300903","2019-04-16 21:00","2019","04","16","21:00","-23.3","","-26.0","","79","","","","22","","8","","24.1","","101.28","","","","-30","","NA"
"-115.14","67.82","KUGLUKTUK A","2300903","2019-04-16 22:00","2019","04","16","22:00","-21.4","","-23.9","","80","","","","29","","5","","24.1","","101.25","","","","-26","","NA"
"-115.14","67.82","KUGLUKTUK A","2300903","2019-04-16 23:00","2019","04","16","23:00","-23.1","","-25.8","","79","","","","29","","11","","24.1","","101.25","","","","-31","","Clear"
"-115.14","67.82","KUGLUKTUK A","2300903","2019-04-17 00:00","2019","04","17","00:00","-22.8","","-25.4","","79","","","","33","","6","","24.1","","101.27","","","","-28","","NA"
"-115.14","67.82","KUGLUKTUK A","2300903","2019-04-17 01:00","2019","04","17","01:00","-23.8","","-26.6","","78","","","","30","","6","","24.1","","101.26","","","","-29","","NA"
"-115.14","67.82","KUGLUKTUK A","2300903","2019-04-17 02:00","2019","04","17","02:00","-24.8","","-27.7","","77","","","","30","","9","","24.1","","101.28","","","","-32","","Clear"
"-115.14","67.82","KUGLUKTUK A","2300903","2019-04-17 03:00","2019","04","17","03:00","-24.3","","-27.1","","78","","","","33","","5","","24.1","","101.28","","","","-29","","NA"
"-115.14","67.82","KUGLUKTUK A","2300903","2019-04-17 04:00","2019","04","17","04:00","-24.8","","-27.7","","77","","","","33","","5","","24.1","","101.27","","","","-30","","NA"
"-115.14","67.82","KUGLUKTUK A","2300903","2019-04-17 05:00","2019","04","17","05:00","-25.1","","-28.1","","77","","","","36","","3","","24.1","","101.26","","","","-28","","Clear"
"-115.14","67.82","KUGLUKTUK A","2300903","2019-04-17 06:00","2019","04","17","06:00","-25.8","","-28.8","","77","","","","2","","6","","24.1","","101.26","","","","-32","","NA"
"-115.14","67.82","KUGLUKTUK A","2300903","2019-04-17 07:00","2019","04","17","07:00","-25.3","","-28.3","","77","","","","32","","4","","24.1","","101.25","","","","-29","","NA"
"-115.14","67.82","KUGLUKTUK A","2300903","2019-04-17 08:00","2019","04","17","08:00","-24.9","","-27.9","","77","","","","33","","8","","24.1","","101.26","","","","-32","","Mainly Clear"
"-115.14","67.82","KUGLUKTUK A","2300903","2019-04-17 09:00","2019","04","17","09:00","-23.8","","-26.7","","78","","","","30","","4","","24.1","","101.28","","","","-28","","NA"
"-115.14","67.82","KUGLUKTUK A","2300903","2019-04-17 10:00","2019","04","17","10:00","-23.1","","-26.0","","78","","","","30","","6","","24.1","","101.30","","","","-29","","NA"
"-115.14","67.82","KUGLUKTUK A","2300903","2019-04-17 11:00","2019","04","17","11:00","-22.3","","-25.1","","78","","","","34","","4","","24.1","","101.33","","","","-26","","Mainly Clear"
"-115.14","67.82","KUGLUKTUK A","2300903","2019-04-17 12:00","2019","04","17","12:00","-21.8","","-24.6","","78","","","","29","","6","","24.1","","101.35","","","","-27","","NA"
"-115.14","67.82","KUGLUKTUK A","2300903","2019-04-17 13:00","2019","04","17","13:00","-21.2","","-23.9","","79","","","","29","","6","","24.1","","101.37","","","","-26","","NA"
"-115.14","67.82","KUGLUKTUK A","2300903","2019-04-17 14:00","2019","04","17","14:00","-20.5","","-23.3","","79","","","","32","","6","","24.1","","101.39","","","","-26","","Clear"
"-115.14","67.82","KUGLUKTUK A","2300903","2019-04-17 15:00","2019","04","17","15:00","-20.2","","-23.0","","79","","","","30","","6","","24.1","","101.41","","","","-25","","NA"
"-115.14","67.82","KUGLUKTUK A","2300903","2019-04-17 16:00","2019","04","17","16:00","-20.0","","-22.8","","79","","","","28","","6","","24.1","","101.43","","","","-25","","NA"
"-115.14","67.82","KUGLUKTUK A","2300903","2019-04-17 17:00","2019","04","17","17:00","-19.6","","-22.5","","79","","","","28","","5","","24.1","","101.45","","","","-24","","Clear"
"-115.14","67.82","KUGLUKTUK A","2300903","2019-04-17 18:00","2019","04","17","18:00","-20.2","","-23.0","","79","","","","23","","8","","24.1","","101.46","","","","-26","","NA"
"-115.14","67.82","KUGLUKTUK A","2300903","2019-04-17 19:00","2019","04","17","19:00","-20.8","","-23.7","","78","","","","25","","9","","24.1","","101.46","","","","-28","","NA"
"-115.14","67.82","KUGLUKTUK A","2300903","2019-04-17 20:00","2019","04","17","20:00","-21.5","","-24.2","","79","","","","23","","7","","24.1","","101.44","","","","-27","","Clear"
"-115.14","67.82","KUGLUKTUK A","2300903","2019-04-17 21:00","2019","04","17","21:00","-23.1","","-25.9","","79","","","","25","","8","","24.1","","101.48","","","","-30","","NA"
"-115.14","67.82","KUGLUKTUK A","2300903","2019-04-17 22:00","2019","04","17","22:00","-23.6","","-26.4","","79","","","","20","","4","","24.1","","101.47","","","","-27","","NA"
"-115.14","67.82","KUGLUKTUK A","2300903","2019-04-17 23:00","2019","04","17","23:00","-23.7","","-26.4","","79","","","","23","","4","","24.1","","101.48","","","","-28","","Clear"
"-115.14","67.82","KUGLUKTUK A","2300903","2019-04-18 00:00","2019","04","18","00:00","-24.6","","-27.3","","79","","","","23","","8","","24.1","","101.47","","","","-32","","NA"
"-115.14","67.82","KUGLUKTUK A","2300903","2019-04-18 01:00","2019","04","18","01:00","-25.4","","-28.1","","78","","","","22","","9","","24.1","","101.45","","","","-33","","NA"
"-115.14","67.82","KUGLUKTUK A","2300903","2019-04-18 02:00","2019","04","18","02:00","-25.6","","-28.5","","78","","","","21","","7","","24.1","","101.45","","","","-32","","Clear"
"-115.14","67.82","KUGLUKTUK A","2300903","2019-04-18 03:00","2019","04","18","03:00","-25.4","","-28.2","","78","","","","25","","4","","24.1","","101.44","","","","-29","","NA"
"-115.14","67.82","KUGLUKTUK A","2300903","2019-04-18 04:00","2019","04","18","04:00","-26.6","","-29.5","","77","","","","22","","9","","24.1","","101.38","","","","-35","","NA"
"-115.14","67.82","KUGLUKTUK A","2300903","2019-04-18 05:00","2019","04","18","05:00","-28.0","","-31.0","","76","","","","2","","3","","24.1","","101.38","","","","-31","","Clear"
"-115.14","67.82","KUGLUKTUK A","2300903","2019-04-18 06:00","2019","04","18","06:00","-26.2","","-29.0","","78","","","","36","","1","","24.1","","101.36","","","","-27","","NA"
"-115.14","67.82","KUGLUKTUK A","2300903","2019-04-18 07:00","2019","04","18","07:00","-25.7","","-28.6","","77","","","","36","","1","","24.1","","101.32","","","","-27","","NA"
"-115.14","67.82","KUGLUKTUK A","2300903","2019-04-18 08:00","2019","04","18","08:00","-26.1","","-29.2","","76","","","","30","","7","","24.1","","101.28","","","","-33","","Ice Crystals"
"-115.14","67.82","KUGLUKTUK A","2300903","2019-04-18 09:00","2019","04","18","09:00","-24.6","","-27.5","","77","","","","31","","6","","19.3","","101.25","","","","-30","","Ice Crystals"
"-115.14","67.82","KUGLUKTUK A","2300903","2019-04-18 10:00","2019","04","18","10:00","-23.7","","-26.7","","77","","","","33","","4","","19.3","","101.21","","","","-28","","Ice Crystals"
"-115.14","67.82","KUGLUKTUK A","2300903","2019-04-18 11:00","2019","04","18","11:00","-22.9","","-25.9","","77","","","","1","","4","","19.3","","101.20","","","","-27","","Ice Crystals"
"-115.14","67.82","KUGLUKTUK A","2300903","2019-04-18 12:00","2019","04","18","12:00","-21.5","","-24.4","","78","","","","35","","3","","24.1","","101.15","","","","-24","","Ice Crystals"
"-115.14","67.82","KUGLUKTUK A","2300903","2019-04-18 13:00","2019","04","18","13:00","-20.2","","-23.1","","78","","","","34","","3","","19.3","","101.16","","","","-23","","Ice Crystals"
"-115.14","67.82","KUGLUKTUK A","2300903","2019-04-18 14:00","2019","04","18","14:00","-19.9","","-22.8","","78","","","","2","","7","","19.3","","101.10","","","","-26","","Ice Crystals"
"-115.14","67.82","KUGLUKTUK A","2300903","2019-04-18 15:00","2019","04","18","15:00","-18.9","","-21.7","","79","","","","5","","6","","19.3","","101.08","","","","-24","","Ice Crystals"
"-115.14","67.82","KUGLUKTUK A","2300903","2019-04-18 16:00","2019","04","18","16:00","-18.4","","-21.1","","79","","","","6","","5","","24.1","","101.08","","","","-22","","Ice Crystals"
"-115.14","67.82","KUGLUKTUK A","2300903","2019-04-18 17:00","2019","04","18","17:00","-19.0","","-21.7","","79","","","","20","","6","","19.3","","101.04","","","","-24","","Ice Crystals"
"-115.14","67.82","KUGLUKTUK A","2300903","2019-04-18 18:00","2019","04","18","18:00","-18.4","","-21.1","","80","","","","36","","2","","24.1","","101.01","","","","-20","","Ice Crystals"
"-115.14","67.82","KUGLUKTUK A","2300903","2019-04-18 19:00","2019","04","18","19:00","-19.3","","-22.1","","79","","","","26","","16","","24.1","","100.98","","","","-29","","Ice Crystals"
"-115.14","67.82","KUGLUKTUK A","2300903","2019-04-18 20:00","2019","04","18","20:00","-20.1","","-22.6","","81","","","","28","","13","","24.1","","100.94","","","","-29","","Ice Crystals"
"-115.14","67.82","KUGLUKTUK A","2300903","2019-04-18 21:00","2019","04","18","21:00","-21.4","","-23.7","","83","","","","36","","3","","24.1","","100.94","","","","-24","","Ice Crystals"
"-115.14","67.82","KUGLUKTUK A","2300903","2019-04-18 22:00","2019","04","18","22:00","-23.3","","-25.8","","80","","","","26","","8","","24.1","","100.91","","","","-30","","Ice Crystals"
"-115.14","67.82","KUGLUKTUK A","2300903","2019-04-18 23:00","2019","04","18","23:00","-23.0","","-25.4","","81","","","","28","","13","","24.1","","100.92","","","","-32","","Ice Crystals"
"-115.14","67.82","KUGLUKTUK A","2300903","2019-04-19 00:00","2019","04","19","00:00","-24.1","","-26.7","","80","","","","26","","11","","24.1","","100.93","","","","-33","","Ice Crystals"
"-115.14","67.82","KUGLUKTUK A","2300903","2019-04-19 01:00","2019","04","19","01:00","-25.5","","-28.2","","79","","","","27","","9","","24.1","","100.95","","","","-33","","Ice Crystals"
"-115.14","67.82","KUGLUKTUK A","2300903","2019-04-19 02:00","2019","04","19","02:00","-23.5","","-26.0","","80","","","","30","","10","","24.1","","100.97","","","","-31","","Ice Crystals"
"-115.14","67.82","KUGLUKTUK A","2300903","2019-04-19 03:00","2019","04","19","03:00","-23.7","","-26.2","","80","","","","36","","2","","24.1","","101.00","","","","-26","","Ice Crystals"
"-115.14","67.82","KUGLUKTUK A","2300903","2019-04-19 04:00","2019","04","19","04:00","-23.3","","-25.9","","80","","","","0","","1","","24.1","","101.02","","","","-24","","Ice Crystals"
"-115.14","67.82","KUGLUKTUK A","2300903","2019-04-19 05:00","2019","04","19","05:00","-23.3","","-25.9","","80","","","","36","","3","","24.1","","101.05","","","","-26","","Ice Crystals"
"-115.14","67.82","KUGLUKTUK A","2300903","2019-04-19 06:00","2019","04","19","06:00","-23.8","","-26.4","","79","","","","36","","1","","24.1","","101.05","","","","-25","","Ice Crystals"
"-115.14","67.82","KUGLUKTUK A","2300903","2019-04-19 07:00","2019","04","19","07:00","-23.0","","-25.6","","80","","","","18","","5","","24.1","","101.05","","","","-28","","Ice Crystals"
"-115.14","67.82","KUGLUKTUK A","2300903","2019-04-19 08:00","2019","04","19","08:00","-22.7","","-25.3","","79","","","","21","","8","","16.1","","101.05","","","","-29","","Ice Crystals"
"-115.14","67.82","KUGLUKTUK A","2300903","2019-04-19 09:00","2019","04","19","09:00","-21.9","","-24.7","","79","","","","36","","3","","12.9","","101.09","","","","-25","","Ice Crystals"
"-115.14","67.82","KUGLUKTUK A","2300903","2019-04-19 10:00","2019","04","19","10:00","-20.2","","-22.9","","80","","","","31","","5","","12.9","","101.13","","","","-25","","Ice Crystals"
"-115.14","67.82","KUGLUKTUK A","2300903","2019-04-19 11:00","2019","04","19","11:00","-19.9","","-22.5","","80","","","","29","","6","","12.9","","101.17","","","","-25","","Ice Crystals"
"-115.14","67.82","KUGLUKTUK A","2300903","2019-04-19 12:00","2019","04","19","12:00","-19.2","","-21.7","","81","","","","30","","7","","16.1","","101.20","","","","-25","","Ice Crystals"
"-115.14","67.82","KUGLUKTUK A","2300903","2019-04-19 13:00","2019","04","19","13:00","-18.5","","-21.0","","81","","","","30","","5","","12.9","","101.22","","","","-23","","Ice Crystals"
"-115.14","67.82","KUGLUKTUK A","2300903","2019-04-19 14:00","2019","04","19","14:00","-17.7","","-20.2","","81","","","","30","","5","","12.9","","101.24","","","","-22","","Ice Crystals"
"-115.14","67.82","KUGLUKTUK A","2300903","2019-04-19 15:00","2019","04","19","15:00","-17.3","","-19.8","","81","","","","32","","6","","16.1","","101.27","","","","-22","","Ice Crystals"
"-115.14","67.82","KUGLUKTUK A","2300903","2019-04-19 16:00","2019","04","19","16:00","-16.8","","-19.3","","81","","","","31","","3","","24.1","","101.30","","","","-19","","Ice Crystals"
"-115.14","67.82","KUGLUKTUK A","2300903","2019-04-19 17:00","2019","04","19","17:00","-16.9","","-19.4","","81","","","","35","","4","","24.1","","101.33","","","","-20","","Mainly Clear"
"-115.14","67.82","KUGLUKTUK A","2300903","2019-04-19 18:00","2019","04","19","18:00","-17.8","","-20.3","","81","","","","26","","8","","24.1","","101.33","","","","-24","","Ice Crystals"
"-115.14","67.82","KUGLUKTUK A","2300903","2019-04-19 19:00","2019","04","19","19:00","-18.6","","-20.9","","82","","","","25","","9","","24.1","","101.35","","","","-25","","Ice Crystals"
"-115.14","67.82","KUGLUKTUK A","2300903","2019-04-19 20:00","2019","04","19","20:00","-20.0","","-22.3","","82","","","","24","","14","","24.1","","101.36","","","","-29","","Ice Crystals"
"-115.14","67.82","KUGLUKTUK A","2300903","2019-04-19 21:00","2019","04","19","21:00","-22.1","","-24.5","","81","","","","23","","16","","24.1","","101.37","","","","-32","","Ice Crystals"
"-115.14","67.82","KUGLUKTUK A","2300903","2019-04-19 22:00","2019","04","19","22:00","-22.4","","-24.7","","81","","","","23","","14","","1.6","","101.41","","","","-32","","Ice Crystals,Fog"
"-115.14","67.82","KUGLUKTUK A","2300903","2019-04-19 23:00","2019","04","19","23:00","-23.4","","-26.0","","80","","","","22","","18","","0.8","","101.45","","","","-34","","Ice Crystals,Freezing Fog"
"-115.14","67.82","KUGLUKTUK A","2300903","2019-04-20 00:00","2019","04","20","00:00","-24.5","","-27.3","","78","","","","22","","19","","4.8","","101.47","","","","-36","","Ice Crystals,Fog"
"-115.14","67.82","KUGLUKTUK A","2300903","2019-04-20 01:00","2019","04","20","01:00","-24.9","","-27.7","","78","","","","22","","18","","4.8","","101.49","","","","-36","","Ice Crystals,Fog"
"-115.14","67.82","KUGLUKTUK A","2300903","2019-04-20 02:00","2019","04","20","02:00","-24.7","","-27.6","","78","","","","22","","14","","4.8","","101.54","","","","-35","","Ice Crystals,Fog"
"-115.14","67.82","KUGLUKTUK A","2300903","2019-04-20 03:00","2019","04","20","03:00","-24.3","","-27.1","","78","","","","22","","14","","4.8","","101.55","","","","-34","","Ice Crystals,Fog"
"-115.14","67.82","KUGLUKTUK A","2300903","2019-04-20 04:00","2019","04","20","04:00","-24.2","","-27.0","","78","","","","22","","14","","0.8","","101.57","","","","-34","","Ice Crystals,Freezing Fog"
"-115.14","67.82","KUGLUKTUK A","2300903","2019-04-20 05:00","2019","04","20","05:00","-25.1","","-28.0","","77","","","","22","","15","","0.8","","101.60","","","","-35","","Ice Crystals,Freezing Fog"
"-115.14","67.82","KUGLUKTUK A","2300903","2019-04-20 06:00","2019","04","20","06:00","-25.6","","-28.5","","77","","","","22","","12","","3.2","","101.61","","","","-35","","Ice Crystals,Fog"
"-115.14","67.82","KUGLUKTUK A","2300903","2019-04-20 07:00","2019","04","20","07:00","-25.3","","-28.3","","77","","","","22","","14","","6.4","","101.62","","","","-35","","Ice Crystals,Fog"
"-115.14","67.82","KUGLUKTUK A","2300903","2019-04-20 08:00","2019","04","20","08:00","-24.4","","-27.2","","78","","","","22","","12","","0.8","","101.65","","","","-33","","Ice Crystals,Freezing Fog"
"-115.14","67.82","KUGLUKTUK A","2300903","2019-04-20 09:00","2019","04","20","09:00","-23.5","","-26.4","","78","","","","23","","7","","0.8","","101.66","","","","-30","","Ice Crystals,Freezing Fog"
"-115.14","67.82","KUGLUKTUK A","2300903","2019-04-20 10:00","2019","04","20","10:00","-22.7","","-25.5","","78","","","","23","","7","","12.9","","101.68","","","","-29","","Ice Crystals"
"-115.14","67.82","KUGLUKTUK A","2300903","2019-04-20 11:00","2019","04","20","11:00","-21.9","","-24.7","","78","","","","21","","7","","24.1","","101.70","","","","-28","","Ice Crystals"
"-115.14","67.82","KUGLUKTUK A","2300903","2019-04-20 12:00","2019","04","20","12:00","-20.9","","-23.6","","79","","","","23","","5","","24.1","","101.71","","","","-25","","Ice Crystals"
"-115.14","67.82","KUGLUKTUK A","2300903","2019-04-20 13:00","2019","04","20","13:00","-19.2","","-21.8","","80","","","","36","","2","","19.3","","101.74","","","","-21","","Ice Crystals"
"-115.14","67.82","KUGLUKTUK A","2300903","2019-04-20 14:00","2019","04","20","14:00","-18.8","","-21.3","","81","","","","36","","2","","19.3","","101.73","","","","-20","","Ice Crystals"
"-115.14","67.82","KUGLUKTUK A","2300903","2019-04-20 15:00","2019","04","20","15:00","-19.0","","-21.5","","81","","","","2","","4","","19.3","","101.74","","","","-22","","Ice Crystals"
"-115.14","67.82","KUGLUKTUK A","2300903","2019-04-20 16:00","2019","04","20","16:00","-18.9","","-21.4","","81","","","","12","","7","","24.1","","101.75","","","","-24","","Ice Crystals"
"-115.14","67.82","KUGLUKTUK A","2300903","2019-04-20 17:00","2019","04","20","17:00","-18.5","","-20.9","","81","","","","9","","4","","19.3","","101.75","","","","-22","","Ice Crystals"
"-115.14","67.82","KUGLUKTUK A","2300903","2019-04-20 18:00","2019","04","20","18:00","-18.8","","-21.3","","81","","","","4","","4","","24.1","","101.75","","","","-22","","Ice Crystals"
"-115.14","67.82","KUGLUKTUK A","2300903","2019-04-20 19:00","2019","04","20","19:00","-19.6","","-22.2","","80","","","","1","","4","","24.1","","101.75","","","","-23","","Ice Crystals"
"-115.14","67.82","KUGLUKTUK A","2300903","2019-04-20 20:00","2019","04","20","20:00","-20.4","","-22.9","","80","","","","6","","7","","24.1","","101.75","","","","-26","","Ice Crystals"
"-115.14","67.82","KUGLUKTUK A","2300903","2019-04-20 21:00","2019","04","20","21:00","-20.8","","-23.3","","81","","","","6","","8","","24.1","","101.74","","","","-27","","Ice Crystals"
"-115.14","67.82","KUGLUKTUK A","2300903","2019-04-20 22:00","2019","04","20","22:00","-22.4","","-25.1","","80","","","","36","","3","","24.1","","101.77","","","","-25","","Ice Crystals"
"-115.14","67.82","KUGLUKTUK A","2300903","2019-04-20 23:00","2019","04","20","23:00","-23.5","","-26.1","","79","","","","4","","7","","24.1","","101.75","","","","-30","","Ice Crystals"
"-115.14","67.82","KUGLUKTUK A","2300903","2019-04-21 00:00","2019","04","21","00:00","-23.3","","-26.0","","79","","","","32","","5","","24.1","","101.75","","","","-28","","Ice Crystals"
"-115.14","67.82","KUGLUKTUK A","2300903","2019-04-21 01:00","2019","04","21","01:00","-23.3","","-26.0","","79","","","","36","","2","","24.1","","101.75","","","","-25","","Ice Crystals"
"-115.14","67.82","KUGLUKTUK A","2300903","2019-04-21 02:00","2019","04","21","02:00","-23.1","","-25.8","","79","","","","30","","4","","24.1","","101.74","","","","-27","","Ice Crystals"
"-115.14","67.82","KUGLUKTUK A","2300903","2019-04-21 03:00","2019","04","21","03:00","-23.0","","-25.7","","79","","","","36","","3","","24.1","","101.75","","","","-26","","Ice Crystals"
"-115.14","67.82","KUGLUKTUK A","2300903","2019-04-21 04:00","2019","04","21","04:00","-23.9","","-26.7","","78","","","","36","","2","","24.1","","101.74","","","","-26","","Ice Crystals"
"-115.14","67.82","KUGLUKTUK A","2300903","2019-04-21 05:00","2019","04","21","05:00","-24.7","","-27.6","","77","","","","32","","5","","24.1","","101.75","","","","-30","","Ice Crystals"
"-115.14","67.82","KUGLUKTUK A","2300903","2019-04-21 06:00","2019","04","21","06:00","-23.6","","-26.4","","78","","","","36","","1","","24.1","","101.76","","","","-25","","Ice Crystals"
"-115.14","67.82","KUGLUKTUK A","2300903","2019-04-21 07:00","2019","04","21","07:00","-23.6","","-26.5","","77","","","","36","","1","","19.3","","101.75","","","","-25","","Ice Crystals"
"-115.14","67.82","KUGLUKTUK A","2300903","2019-04-21 08:00","2019","04","21","08:00","-23.7","","-26.5","","78","","","","32","","4","","19.3","","101.74","","","","-28","","Ice Crystals"
"-115.14","67.82","KUGLUKTUK A","2300903","2019-04-21 09:00","2019","04","21","09:00","-21.6","","-24.4","","79","","","","36","","2","","24.1","","101.73","","","","-23","","Ice Crystals"
"-115.14","67.82","KUGLUKTUK A","2300903","2019-04-21 10:00","2019","04","21","10:00","-20.8","","-23.4","","80","","","","36","","1","","24.1","","101.74","","","","-22","","Ice Crystals"
"-115.14","67.82","KUGLUKTUK A","2300903","2019-04-21 11:00","2019","04","21","11:00","-20.1","","-22.7","","80","","","","35","","4","","24.1","","101.72","","","","-24","","Ice Crystals"
"-115.14","67.82","KUGLUKTUK A","2300903","2019-04-21 12:00","2019","04","21","12:00","-19.0","","-21.5","","81","","","","36","","2","","24.1","","101.74","","","","-21","","Ice Crystals"
"-115.14","67.82","KUGLUKTUK A","2300903","2019-04-21 13:00","2019","04","21","13:00","-18.3","","-20.8","","81","","","","2","","7","","24.1","","101.73","","","","-24","","Ice Crystals"
"-115.14","67.82","KUGLUKTUK A","2300903","2019-04-21 14:00","2019","04","21","14:00","-16.8","","-19.1","","83","","","","2","","5","","24.1","","101.73","","","","-21","","Ice Crystals"
"-115.14","67.82","KUGLUKTUK A","2300903","2019-04-21 15:00","2019","04","21","15:00","-15.9","","-18.2","","83","","","","2","","7","","24.1","","101.74","","","","-21","","Ice Crystals"
"-115.14","67.82","KUGLUKTUK A","2300903","2019-04-21 16:00","2019","04","21","16:00","-14.9","","-17.0","","84","","","","8","","8","","24.1","","101.73","","","","-20","","NA"
"-115.14","67.82","KUGLUKTUK A","2300903","2019-04-21 17:00","2019","04","21","17:00","-14.5","","-16.5","","84","","","","1","","7","","24.1","","101.72","","","","-19","","Clear"
"-115.14","67.82","KUGLUKTUK A","2300903","2019-04-21 18:00","2019","04","21","18:00","-14.3","","-16.4","","85","","","","2","","5","","24.1","","101.71","","","","-18","","NA"
"-115.14","67.82","KUGLUKTUK A","2300903","2019-04-21 19:00","2019","04","21","19:00","-15.1","","-17.1","","85","","","","1","","6","","24.1","","101.69","","","","-19","","NA"
"-115.14","67.82","KUGLUKTUK A","2300903","2019-04-21 20:00","2019","04","21","20:00","-15.6","","-17.7","","84","","","","4","","5","","24.1","","101.68","","","","-19","","Mostly Cloudy"
"-115.14","67.82","KUGLUKTUK A","2300903","2019-04-21 21:00","2019","04","21","21:00","-15.9","","-17.9","","85","","","","3","","14","","24.1","","101.69","","","","-24","","NA"
"-115.14","67.82","KUGLUKTUK A","2300903","2019-04-21 22:00","2019","04","21","22:00","-16.4","","-18.4","","85","","","","5","","12","","24.1","","101.68","","","","-24","","NA"
"-115.14","67.82","KUGLUKTUK A","2300903","2019-04-21 23:00","2019","04","21","23:00","-18.1","","-20.3","","83","","","","3","","5","","24.1","","101.69","","","","-22","","Ice Crystals"
"-115.14","67.82","KUGLUKTUK A","2300903","2019-04-22 00:00","2019","04","22","00:00","-20.4","","-22.9","","81","","","","4","","4","","24.1","","101.67","","","","-24","","Ice Crystals"
"-115.14","67.82","KUGLUKTUK A","2300903","2019-04-22 01:00","2019","04","22","01:00","-21.3","","-23.8","","80","","","","3","","8","","24.1","","101.69","","","","-28","","Ice Crystals"
"-115.14","67.82","KUGLUKTUK A","2300903","2019-04-22 02:00","2019","04","22","02:00","-21.9","","-24.5","","80","","","","3","","9","","24.1","","101.68","","","","-29","","Ice Crystals"
"-115.14","67.82","KUGLUKTUK A","2300903","2019-04-22 03:00","2019","04","22","03:00","-21.9","","-24.4","","80","","","","2","","5","","24.1","","101.66","","","","-26","","Ice Crystals"
"-115.14","67.82","KUGLUKTUK A","2300903","2019-04-22 04:00","2019","04","22","04:00","-22.1","","-24.7","","80","","","","1","","8","","24.1","","101.64","","","","-29","","Ice Crystals"
"-115.14","67.82","KUGLUKTUK A","2300903","2019-04-22 05:00","2019","04","22","05:00","-22.2","","-24.9","","79","","","","4","","8","","24.1","","101.63","","","","-29","","Ice Crystals"
"-115.14","67.82","KUGLUKTUK A","2300903","2019-04-22 06:00","2019","04","22","06:00","-22.1","","-24.7","","79","","","","4","","7","","24.1","","101.59","","","","-28","","Ice Crystals"
"-115.14","67.82","KUGLUKTUK A","2300903","2019-04-22 07:00","2019","04","22","07:00","-22.1","","-24.8","","79","","","","36","","5","","24.1","","101.55","","","","-27","","Ice Crystals"
"-115.14","67.82","KUGLUKTUK A","2300903","2019-04-22 08:00","2019","04","22","08:00","-21.6","","-24.2","","79","","","","2","","7","","24.1","","101.53","","","","-28","","Clear"
"-115.14","67.82","KUGLUKTUK A","2300903","2019-04-22 09:00","2019","04","22","09:00","-20.2","","-22.8","","80","","","","3","","9","","24.1","","101.51","","","","-27","","NA"
"-115.14","67.82","KUGLUKTUK A","2300903","2019-04-22 10:00","2019","04","22","10:00","-19.4","","-22.0","","81","","","","3","","9","","24.1","","101.46","","","","-26","","NA"
"-115.14","67.82","KUGLUKTUK A","2300903","2019-04-22 11:00","2019","04","22","11:00","-18.6","","-21.0","","81","","","","3","","7","","24.1","","101.42","","","","-24","","Clear"
"-115.14","67.82","KUGLUKTUK A","2300903","2019-04-22 12:00","2019","04","22","12:00","-17.6","","-20.0","","82","","","","3","","10","","24.1","","101.37","","","","-24","","NA"
"-115.14","67.82","KUGLUKTUK A","2300903","2019-04-22 13:00","2019","04","22","13:00","-16.1","","-18.4","","83","","","","5","","10","","24.1","","101.34","","","","-23","","NA"
"-115.14","67.82","KUGLUKTUK A","2300903","2019-04-22 14:00","2019","04","22","14:00","-15.3","","-17.5","","83","","","","4","","8","","24.1","","101.31","","","","-21","","Clear"
"-115.14","67.82","KUGLUKTUK A","2300903","2019-04-22 15:00","2019","04","22","15:00","-14.5","","-16.8","","82","","","","8","","7","","24.1","","101.27","","","","-19","","NA"
"-115.14","67.82","KUGLUKTUK A","2300903","2019-04-22 16:00","2019","04","22","16:00","-14.0","","-16.6","","81","","","","10","","5","","24.1","","101.19","","","","-17","","NA"
"-115.14","67.82","KUGLUKTUK A","2300903","2019-04-22 17:00","2019","04","22","17:00","-13.1","","-15.7","","81","","","","3","","8","","24.1","","101.16","","","","-18","","Clear"
"-115.14","67.82","KUGLUKTUK A","2300903","2019-04-22 18:00","2019","04","22","18:00","-12.7","","-15.1","","83","","","","5","","10","","24.1","","101.12","","","","-18","","NA"
"-115.14","67.82","KUGLUKTUK A","2300903","2019-04-22 19:00","2019","04","22","19:00","-13.6","","-15.7","","84","","","","4","","12","","24.1","","101.08","","","","-20","","NA"
"-115.14","67.82","KUGLUKTUK A","2300903","2019-04-22 20:00","2019","04","22","20:00","-15.9","","-17.7","","87","","","","3","","9","","24.1","","101.06","","","","-22","","Mostly Cloudy"
"-115.14","67.82","KUGLUKTUK A","2300903","2019-04-22 21:00","2019","04","22","21:00","-17.4","","-19.3","","85","","","","3","","10","","24.1","","101.04","","","","-24","","NA"
"-115.14","67.82","KUGLUKTUK A","2300903","2019-04-22 22:00","2019","04","22","22:00","-18.4","","-20.4","","84","","","","3","","11","","24.1","","101.03","","","","-26","","Ice Crystals"
"-115.14","67.82","KUGLUKTUK A","2300903","2019-04-22 23:00","2019","04","22","23:00","-19.6","","-21.7","","84","","","","2","","11","","24.1","","101.00","","","","-27","","Ice Crystals"
"-115.14","67.82","KUGLUKTUK A","2300903","2019-04-23 00:00","2019","04","23","00:00","-20.8","","-23.1","","82","","","","2","","11","","24.1","","100.99","","","","-29","","Ice Crystals"
"-115.14","67.82","KUGLUKTUK A","2300903","2019-04-23 01:00","2019","04","23","01:00","-21.4","","-23.6","","83","","","","32","","8","","24.1","","100.99","","","","-28","","Ice Crystals"
"-115.14","67.82","KUGLUKTUK A","2300903","2019-04-23 02:00","2019","04","23","02:00","-22.0","","-24.4","","81","","","","1","","12","","24.1","","100.99","","","","-30","","Ice Crystals"
"-115.14","67.82","KUGLUKTUK A","2300903","2019-04-23 03:00","2019","04","23","03:00","-22.4","","-24.9","","81","","","","36","","8","","24.1","","101.00","","","","-29","","Ice Crystals"
"-115.14","67.82","KUGLUKTUK A","2300903","2019-04-23 04:00","2019","04","23","04:00","-23.1","","-25.7","","80","","","","34","","7","","24.1","","101.00","","","","-29","","NA"
"-115.14","67.82","KUGLUKTUK A","2300903","2019-04-23 05:00","2019","04","23","05:00","-22.6","","-25.2","","80","","","","36","","6","","24.1","","101.01","","","","-28","","Mostly Cloudy"
"-115.14","67.82","KUGLUKTUK A","2300903","2019-04-23 06:00","2019","04","23","06:00","-22.3","","-24.9","","80","","","","35","","7","","24.1","","101.03","","","","-28","","NA"
"-115.14","67.82","KUGLUKTUK A","2300903","2019-04-23 07:00","2019","04","23","07:00","-21.3","","-23.9","","80","","","","2","","11","","24.1","","101.02","","","","-29","","NA"
"-115.14","67.82","KUGLUKTUK A","2300903","2019-04-23 08:00","2019","04","23","08:00","-20.5","","-23.1","","80","","","","2","","17","","24.1","","101.05","","","","-30","","Cloudy"
"-115.14","67.82","KUGLUKTUK A","2300903","2019-04-23 09:00","2019","04","23","09:00","-20.0","","-22.6","","80","","","","3","","17","","24.1","","101.10","","","","-30","","NA"
"-115.14","67.82","KUGLUKTUK A","2300903","2019-04-23 10:00","2019","04","23","10:00","-19.2","","-22.0","","79","","","","4","","17","","24.1","","101.10","","","","-29","","NA"
"-115.14","67.82","KUGLUKTUK A","2300903","2019-04-23 11:00","2019","04","23","11:00","-18.1","","-21.1","","78","","","","4","","16","","24.1","","101.14","","","","-27","","Mostly Cloudy"
"-115.14","67.82","KUGLUKTUK A","2300903","2019-04-23 12:00","2019","04","23","12:00","-17.3","","-20.6","","76","","","","4","","19","","24.1","","101.15","","","","-27","","NA"
"-115.14","67.82","KUGLUKTUK A","2300903","2019-04-23 13:00","2019","04","23","13:00","-16.1","","-19.6","","75","","","","6","","18","","24.1","","101.19","","","","-25","","NA"
"-115.14","67.82","KUGLUKTUK A","2300903","2019-04-23 14:00","2019","04","23","14:00","-15.7","","-19.3","","74","","","","4","","21","","24.1","","101.26","","","","-25","","Mostly Cloudy"
"-115.14","67.82","KUGLUKTUK A","2300903","2019-04-23 15:00","2019","04","23","15:00","-15.0","","-18.6","","74","","","","5","","26","","24.1","","101.31","","","","-25","","NA"
"-115.14","67.82","KUGLUKTUK A","2300903","2019-04-23 16:00","2019","04","23","16:00","-15.8","","-19.1","","76","","","","5","","26","","24.1","","101.33","","","","-26","","NA"
"-115.14","67.82","KUGLUKTUK A","2300903","2019-04-23 17:00","2019","04","23","17:00","-15.8","","-19.1","","77","","","","6","","23","","24.1","","101.39","","","","-26","","Mostly Cloudy"
"-115.14","67.82","KUGLUKTUK A","2300903","2019-04-23 18:00","2019","04","23","18:00","-16.2","","-19.2","","78","","","","5","","22","","24.1","","101.45","","","","-26","","Ice Crystals"
"-115.14","67.82","KUGLUKTUK A","2300903","2019-04-23 19:00","2019","04","23","19:00","-17.3","","-20.2","","79","","","","5","","23","","24.1","","101.51","","","","-28","","Ice Crystals"
"-115.14","67.82","KUGLUKTUK A","2300903","2019-04-23 20:00","2019","04","23","20:00","-17.8","","-20.6","","79","","","","6","","26","","24.1","","101.56","","","","-29","","Mostly Cloudy"
"-115.14","67.82","KUGLUKTUK A","2300903","2019-04-23 21:00","2019","04","23","21:00","-18.3","","-21.0","","80","","","","5","","21","","24.1","","101.62","","","","-29","","NA"
"-115.14","67.82","KUGLUKTUK A","2300903","2019-04-23 22:00","2019","04","23","22:00","-19.0","","-21.6","","81","","","","5","","19","","19.3","","101.71","","","","-29","","Ice Crystals"
"-115.14","67.82","KUGLUKTUK A","2300903","2019-04-23 23:00","2019","04","23","23:00","-19.5","","-22.1","","80","","","","5","","19","","24.1","","101.74","","","","-30","","Ice Crystals"
"-115.14","67.82","KUGLUKTUK A","2300903","2019-04-24 00:00","2019","04","24","00:00","-20.2","","-22.8","","80","","","","5","","20","","24.1","","101.77","","","","-31","","Ice Crystals"
"-115.14","67.82","KUGLUKTUK A","2300903","2019-04-24 01:00","2019","04","24","01:00","-20.5","","-23.2","","79","","","","5","","28","","24.1","","101.83","","","","-33","","Ice Crystals"
"-115.14","67.82","KUGLUKTUK A","2300903","2019-04-24 02:00","2019","04","24","02:00","-21.7","","-24.5","","79","","","","4","","21","","19.3","","101.90","","","","-33","","Ice Crystals"
"-115.14","67.82","KUGLUKTUK A","2300903","2019-04-24 03:00","2019","04","24","03:00","-23.1","","-25.9","","78","","","","4","","17","","24.1","","101.95","","","","-34","","Ice Crystals"
"-115.14","67.82","KUGLUKTUK A","2300903","2019-04-24 04:00","2019","04","24","04:00","-24.1","","-27.0","","78","","","","4","","21","","24.1","","102.02","","","","-36","","NA"
"-115.14","67.82","KUGLUKTUK A","2300903","2019-04-24 05:00","2019","04","24","05:00","-24.8","","-27.8","","77","","","","4","","17","","24.1","","102.05","","","","-36","","Mainly Clear"
"-115.14","67.82","KUGLUKTUK A","2300903","2019-04-24 06:00","2019","04","24","06:00","-25.0","","-28.1","","76","","","","4","","12","","24.1","","102.09","","","","-34","","NA"
"-115.14","67.82","KUGLUKTUK A","2300903","2019-04-24 07:00","2019","04","24","07:00","-24.4","","-27.6","","75","","","","4","","16","","24.1","","102.13","","","","-35","","NA"
"-115.14","67.82","KUGLUKTUK A","2300903","2019-04-24 08:00","2019","04","24","08:00","-23.8","","-27.1","","75","","","","3","","10","","24.1","","102.18","","","","-32","","Mainly Clear"
"-115.14","67.82","KUGLUKTUK A","2300903","2019-04-24 09:00","2019","04","24","09:00","-22.6","","-26.1","","74","","","","4","","10","","24.1","","102.24","","","","-30","","NA"
"-115.14","67.82","KUGLUKTUK A","2300903","2019-04-24 10:00","2019","04","24","10:00","-21.7","","-25.4","","73","","","","4","","9","","24.1","","102.28","","","","-29","","NA"
"-115.14","67.82","KUGLUKTUK A","2300903","2019-04-24 11:00","2019","04","24","11:00","-20.7","","-24.5","","72","","","","2","","6","","24.1","","102.31","","","","-26","","Mainly Clear"
"-115.14","67.82","KUGLUKTUK A","2300903","2019-04-24 12:00","2019","04","24","12:00","-20.3","","-24.2","","72","","","","36","","1","","24.1","","102.35","","","","-21","","NA"
"-115.14","67.82","KUGLUKTUK A","2300903","2019-04-24 13:00","2019","04","24","13:00","-19.0","","-23.2","","70","","","","24","","7","","24.1","","102.37","","","","-24","","NA"
"-115.14","67.82","KUGLUKTUK A","2300903","2019-04-24 14:00","2019","04","24","14:00","-19.0","","-22.9","","72","","","","27","","15","","24.1","","102.35","","","","-28","","Clear"
"-115.14","67.82","KUGLUKTUK A","2300903","2019-04-24 15:00","2019","04","24","15:00","-18.3","","-22.2","","72","","","","25","","18","","24.1","","102.36","","","","-28","","NA"
"-115.14","67.82","KUGLUKTUK A","2300903","2019-04-24 16:00","2019","04","24","16:00","-17.8","","-21.7","","72","","","","24","","22","","24.1","","102.35","","","","-28","","NA"
"-115.14","67.82","KUGLUKTUK A","2300903","2019-04-24 17:00","2019","04","24","17:00","-17.7","","-21.5","","73","","","","24","","27","","24.1","","102.32","","","","-29","","Clear"
"-115.14","67.82","KUGLUKTUK A","2300903","2019-04-24 18:00","2019","04","24","18:00","-17.7","","-21.3","","74","","","","24","","29","","24.1","","102.29","","","","-29","","NA"
"-115.14","67.82","KUGLUKTUK A","2300903","2019-04-24 19:00","2019","04","24","19:00","-18.2","","-21.7","","74","","","","24","","29","","24.1","","102.25","","","","-30","","NA"
"-115.14","67.82","KUGLUKTUK A","2300903","2019-04-24 20:00","2019","04","24","20:00","-19.1","","-22.6","","75","","","","23","","27","","24.1","","102.21","","","","-31","","Clear"
"-115.14","67.82","KUGLUKTUK A","2300903","2019-04-24 21:00","2019","04","24","21:00","-20.3","","-23.8","","74","","","","23","","26","","24.1","","102.18","","","","-32","","NA"
"-115.14","67.82","KUGLUKTUK A","2300903","2019-04-24 22:00","2019","04","24","22:00","-19.2","","-23.2","","71","","","","24","","33","","24.1","","102.13","","","","-32","","NA"
"-115.14","67.82","KUGLUKTUK A","2300903","2019-04-24 23:00","2019","04","24","23:00","-20.3","","-23.7","","75","","","","23","","29","","24.1","","102.08","","","","-33","","Mainly Clear"
"-115.14","67.82","KUGLUKTUK A","2300903","2019-04-25 00:00","2019","04","25","00:00","-19.9","","-23.5","","74","","","","23","","29","","24.1","","102.06","","","","-32","","NA"
"-115.14","67.82","KUGLUKTUK A","2300903","2019-04-25 01:00","2019","04","25","01:00","-18.4","","-21.9","","74","","","","24","","31","","19.3","","102.02","","","","-31","","Snow"
"-115.14","67.82","KUGLUKTUK A","2300903","2019-04-25 02:00","2019","04","25","02:00","-15.4","","-17.3","","85","","","","26","","30","","19.3","","101.97","","","","-27","","Snow"
"-115.14","67.82","KUGLUKTUK A","2300903","2019-04-25 03:00","2019","04","25","03:00","-16.1","","-19.7","","74","","","","24","","31","","24.1","","101.94","","","","-28","","Snow"
"-115.14","67.82","KUGLUKTUK A","2300903","2019-04-25 04:00","2019","04","25","04:00","-17.3","","-21.0","","73","","","","23","","34","","24.1","","101.90","","","","-30","","Snow"
"-115.14","67.82","KUGLUKTUK A","2300903","2019-04-25 05:00","2019","04","25","05:00","-16.6","","-19.9","","76","","","","25","","32","","24.1","","101.86","","","","-28","","Snow"
"-115.14","67.82","KUGLUKTUK A","2300903","2019-04-25 06:00","2019","04","25","06:00","-13.8","","-17.9","","72","","","","26","","32","","24.1","","101.83","","","","-25","","Snow"
"-115.14","67.82","KUGLUKTUK A","2300903","2019-04-25 07:00","2019","04","25","07:00","-13.8","","-17.6","","73","","","","25","","38","","24.1","","101.77","","","","-26","","Snow Grains"
"-115.14","67.82","KUGLUKTUK A","2300903","2019-04-25 08:00","2019","04","25","08:00","-13.5","","-16.8","","77","","","","25","","39","","24.1","","101.70","","","","-25","","Snow Grains,Blowing Snow"
"-115.14","67.82","KUGLUKTUK A","2300903","2019-04-25 09:00","2019","04","25","09:00","-12.6","","-15.2","","81","","","","26","","41","","16.1","","101.67","","","","-24","","Snow Grains,Blowing Snow"
"-115.14","67.82","KUGLUKTUK A","2300903","2019-04-25 10:00","2019","04","25","10:00","-10.9","","-14.1","","78","","","","27","","34","","16.1","","101.68","","","","-21","","Snow,Blowing Snow"
"-115.14","67.82","KUGLUKTUK A","2300903","2019-04-25 11:00","2019","04","25","11:00","-10.2","","-13.3","","78","","","","32","","32","","16.1","","101.71","","","","-20","","Snow,Blowing Snow"
"-115.14","67.82","KUGLUKTUK A","2300903","2019-04-25 12:00","2019","04","25","12:00","-10.6","","-14.4","","74","","","","33","","21","","24.1","","101.77","","","","-19","","Snow"
"-115.14","67.82","KUGLUKTUK A","2300903","2019-04-25 13:00","2019","04","25","13:00","-10.9","","-14.4","","75","","","","33","","31","","19.3","","101.81","","","","-21","","Snow,Blowing Snow"
"-115.14","67.82","KUGLUKTUK A","2300903","2019-04-25 14:00","2019","04","25","14:00","-10.6","","-14.1","","75","","","","34","","26","","24.1","","101.83","","","","-20","","Blowing Snow"
"-115.14","67.82","KUGLUKTUK A","2300903","2019-04-25 15:00","2019","04","25","15:00","-11.0","","-14.1","","79","","","","33","","26","","3.6","","101.86","","","","-20","","Snow Pellets,Blowing Snow"
"-115.14","67.82","KUGLUKTUK A","2300903","2019-04-25 16:00","2019","04","25","16:00","-11.0","","-13.5","","82","","","","34","","22","","6.4","","101.88","","","","-20","","Snow,Blowing Snow"
"-115.14","67.82","KUGLUKTUK A","2300903","2019-04-25 17:00","2019","04","25","17:00","-11.3","","-14.3","","78","","","","32","","27","","6.4","","101.89","","","","-21","","Snow,Blowing Snow"
"-115.14","67.82","KUGLUKTUK A","2300903","2019-04-25 18:00","2019","04","25","18:00","-11.8","","-14.6","","80","","","","32","","28","","4.8","","101.90","","","","-22","","Ice Pellets,Blowing Snow"
"-115.14","67.82","KUGLUKTUK A","2300903","2019-04-25 19:00","2019","04","25","19:00","-12.2","","-14.3","","84","","","","31","","23","","2.8","","101.91","","","","-21","","Ice Pellets,Blowing Snow"
"-115.14","67.82","KUGLUKTUK A","2300903","2019-04-25 20:00","2019","04","25","20:00","-12.5","","-14.8","","83","","","","31","","16","","4.8","","101.91","","","","-20","","Snow Grains,Blowing Snow"
"-115.14","67.82","KUGLUKTUK A","2300903","2019-04-25 21:00","2019","04","25","21:00","-12.6","","-14.4","","86","","","","28","","19","","3.2","","101.91","","","","-21","","Snow"
"-115.14","67.82","KUGLUKTUK A","2300903","2019-04-25 22:00","2019","04","25","22:00","-12.8","","-14.9","","84","","","","29","","21","","3.2","","101.92","","","","-22","","Snow"
"-115.14","67.82","KUGLUKTUK A","2300903","2019-04-25 23:00","2019","04","25","23:00","-13.7","","-15.9","","83","","","","30","","23","","8.1","","101.92","","","","-23","","Snow,Blowing Snow"
"-115.14","67.82","KUGLUKTUK A","2300903","2019-04-26 00:00","2019","04","26","00:00","-14.4","","-17.1","","80","","","","30","","23","","19.3","","101.92","","","","-24","","Snow"
"-115.14","67.82","KUGLUKTUK A","2300903","2019-04-26 01:00","2019","04","26","01:00","-13.0","","-16.0","","78","","","","30","","28","","19.3","","101.92","","","","-23","","Snow,Blowing Snow"
"-115.14","67.82","KUGLUKTUK A","2300903","2019-04-26 02:00","2019","04","26","02:00","-13.5","","-15.8","","83","","","","27","","26","","9.7","","101.95","","","","-23","","Snow,Blowing Snow"
"-115.14","67.82","KUGLUKTUK A","2300903","2019-04-26 03:00","2019","04","26","03:00","-13.6","","-16.1","","81","","","","27","","23","","19.3","","101.95","","","","-23","","Snow"
"-115.14","67.82","KUGLUKTUK A","2300903","2019-04-26 04:00","2019","04","26","04:00","-14.2","","-16.9","","80","","","","27","","33","","19.3","","101.92","","","","-25","","Snow,Blowing Snow"
"-115.14","67.82","KUGLUKTUK A","2300903","2019-04-26 05:00","2019","04","26","05:00","-14.7","","-17.5","","80","","","","26","","31","","19.3","","101.94","","","","-26","","Snow,Blowing Snow"
"-115.14","67.82","KUGLUKTUK A","2300903","2019-04-26 06:00","2019","04","26","06:00","-13.8","","-16.7","","79","","","","26","","30","","24.1","","101.91","","","","-24","","Blowing Snow"
"-115.14","67.82","KUGLUKTUK A","2300903","2019-04-26 07:00","2019","04","26","07:00","-14.0","","-16.9","","79","","","","27","","40","","16.1","","101.87","","","","-26","","Blowing Snow"
"-115.14","67.82","KUGLUKTUK A","2300903","2019-04-26 08:00","2019","04","26","08:00","-13.9","","-17.1","","77","","","","25","","36","","16.1","","101.85","","","","-25","","Blowing Snow"
"-115.14","67.82","KUGLUKTUK A","2300903","2019-04-26 09:00","2019","04","26","09:00","-13.2","","-16.2","","78","","","","25","","40","","16.1","","101.81","","","","-25","","Blowing Snow"
"-115.14","67.82","KUGLUKTUK A","2300903","2019-04-26 10:00","2019","04","26","10:00","-12.8","","-15.5","","81","","","","27","","47","","9.7","","101.75","","","","-25","","Blowing Snow"
"-115.14","67.82","KUGLUKTUK A","2300903","2019-04-26 11:00","2019","04","26","11:00","-11.6","","-14.3","","81","","","","25","","44","","6.4","","101.81","","","","-23","","Blowing Snow"
"-115.14","67.82","KUGLUKTUK A","2300903","2019-04-26 12:00","2019","04","26","12:00","-10.8","","-13.5","","81","","","","25","","46","","6.4","","101.83","","","","-22","","Blowing Snow"
"-115.14","67.82","KUGLUKTUK A","2300903","2019-04-26 13:00","2019","04","26","13:00","-9.9","","-13.2","","77","","","","30","","46","","6.4","","101.84","","","","-21","","Blowing Snow"
"-115.14","67.82","KUGLUKTUK A","2300903","2019-04-26 14:00","2019","04","26","14:00","-10.0","","-13.4","","76","","","","30","","43","","9.7","","101.87","","","","-21","","Blowing Snow"
"-115.14","67.82","KUGLUKTUK A","2300903","2019-04-26 15:00","2019","04","26","15:00","-9.9","","-13.5","","75","","","","28","","31","","16.1","","101.96","","","","-20","","Blowing Snow"
"-115.14","67.82","KUGLUKTUK A","2300903","2019-04-26 16:00","2019","04","26","16:00","-10.1","","-13.5","","76","","","","30","","39","","16.1","","101.96","","","","-21","","Blowing Snow"
"-115.14","67.82","KUGLUKTUK A","2300903","2019-04-26 17:00","2019","04","26","17:00","-10.3","","-14.1","","74","","","","30","","32","","19.3","","102.01","","","","-20","","Blowing Snow"
"-115.14","67.82","KUGLUKTUK A","2300903","2019-04-26 18:00","2019","04","26","18:00","-11.2","","-14.7","","75","","","","29","","27","","24.1","","102.02","","","","-21","","Blowing Snow"
"-115.14","67.82","KUGLUKTUK A","2300903","2019-04-26 19:00","2019","04","26","19:00","-12.2","","-15.8","","75","","","","30","","24","","24.1","","102.01","","","","-21","","Blowing Snow"
"-115.14","67.82","KUGLUKTUK A","2300903","2019-04-26 20:00","2019","04","26","20:00","-13.5","","-16.9","","75","","","","28","","23","","24.1","","102.03","","","","-23","","Blowing Snow"
"-115.14","67.82","KUGLUKTUK A","2300903","2019-04-26 21:00","2019","04","26","21:00","-14.1","","-17.1","","78","","","","29","","29","","24.1","","102.02","","","","-25","","Blowing Snow"
"-115.14","67.82","KUGLUKTUK A","2300903","2019-04-26 22:00","2019","04","26","22:00","-13.9","","-17.5","","75","","","","28","","32","","24.1","","102.03","","","","-25","","Blowing Snow"
"-115.14","67.82","KUGLUKTUK A","2300903","2019-04-26 23:00","2019","04","26","23:00","-14.4","","-17.7","","76","","","","29","","30","","24.1","","102.05","","","","-25","","Blowing Snow"
"-115.14","67.82","KUGLUKTUK A","2300903","2019-04-27 00:00","2019","04","27","00:00","-15.6","","-18.9","","76","","","","26","","21","","24.1","","102.09","","","","-25","","Blowing Snow"
"-115.14","67.82","KUGLUKTUK A","2300903","2019-04-27 01:00","2019","04","27","01:00","-15.4","","-18.7","","76","","","","26","","27","","24.1","","102.09","","","","-26","","NA"
"-115.14","67.82","KUGLUKTUK A","2300903","2019-04-27 02:00","2019","04","27","02:00","-15.1","","-18.4","","76","","","","27","","33","","24.1","","102.08","","","","-27","","Cloudy"
"-115.14","67.82","KUGLUKTUK A","2300903","2019-04-27 03:00","2019","04","27","03:00","-15.4","","-18.8","","76","","","","27","","33","","16.1","","102.09","","","","-27","","Snow,Blowing Snow"
"-115.14","67.82","KUGLUKTUK A","2300903","2019-04-27 04:00","2019","04","27","04:00","-15.1","","-18.4","","76","","","","26","","34","","16.1","","102.10","","","","-27","","Snow,Blowing Snow"
"-115.14","67.82","KUGLUKTUK A","2300903","2019-04-27 05:00","2019","04","27","05:00","-15.1","","-17.9","","79","","","","27","","37","","8.1","","102.08","","","","-27","","Snow Grains,Blowing Snow"
"-115.14","67.82","KUGLUKTUK A","2300903","2019-04-27 06:00","2019","04","27","06:00","-15.3","","-18.1","","79","","","","27","","38","","12.9","","102.10","","","","-28","","Snow Grains,Blowing Snow"
"-115.14","67.82","KUGLUKTUK A","2300903","2019-04-27 07:00","2019","04","27","07:00","-14.6","","-17.9","","76","","","","27","","37","","12.9","","102.12","","","","-27","","Snow Grains,Blowing Snow"
"-115.14","67.82","KUGLUKTUK A","2300903","2019-04-27 08:00","2019","04","27","08:00","-13.9","","-17.1","","77","","","","27","","39","","16.1","","102.12","","","","-26","","Blowing Snow"
"-115.14","67.82","KUGLUKTUK A","2300903","2019-04-27 09:00","2019","04","27","09:00","-13.4","","-15.8","","82","","","","26","","38","","0.8","","102.13","","","","-25","","Snow,Blowing Snow"
"-115.14","67.82","KUGLUKTUK A","2300903","2019-04-27 10:00","2019","04","27","10:00","-12.6","","-15.1","","82","","","","28","","44","","0.8","","102.16","","","","-25","","Snow,Blowing Snow"
"-115.14","67.82","KUGLUKTUK A","2300903","2019-04-27 11:00","2019","04","27","11:00","-12.1","","-14.7","","82","","","","28","","36","","1.6","","102.21","","","","-23","","Snow,Blowing Snow"
"-115.14","67.82","KUGLUKTUK A","2300903","2019-04-27 12:00","2019","04","27","12:00","-11.3","","-13.8","","82","","","","28","","43","","4.8","","102.23","","","","-23","","Snow,Blowing Snow"
"-115.14","67.82","KUGLUKTUK A","2300903","2019-04-27 13:00","2019","04","27","13:00","-10.6","","-13.7","","78","","","","30","","39","","19.3","","102.28","","","","-21","","Blowing Snow"
"-115.14","67.82","KUGLUKTUK A","2300903","2019-04-27 14:00","2019","04","27","14:00","-10.2","","-13.4","","77","","","","30","","36","","19.3","","102.35","","","","-21","","Blowing Snow"
"-115.14","67.82","KUGLUKTUK A","2300903","2019-04-27 15:00","2019","04","27","15:00","-10.3","","-13.9","","75","","","","30","","36","","19.3","","102.40","","","","-21","","Blowing Snow"
"-115.14","67.82","KUGLUKTUK A","2300903","2019-04-27 16:00","2019","04","27","16:00","-10.2","","-14.0","","74","","","","31","","36","","24.1","","102.42","","","","-21","","Blowing Snow"
"-115.14","67.82","KUGLUKTUK A","2300903","2019-04-27 17:00","2019","04","27","17:00","-10.8","","-14.4","","75","","","","31","","34","","24.1","","102.44","","","","-21","","Blowing Snow"
"-115.14","67.82","KUGLUKTUK A","2300903","2019-04-27 18:00","2019","04","27","18:00","-10.9","","-14.6","","74","","","","30","","27","","24.1","","102.45","","","","-20","","Blowing Snow"
"-115.14","67.82","KUGLUKTUK A","2300903","2019-04-27 19:00","2019","04","27","19:00","-11.2","","-14.8","","75","","","","31","","31","","24.1","","102.45","","","","-21","","Blowing Snow"
"-115.14","67.82","KUGLUKTUK A","2300903","2019-04-27 20:00","2019","04","27","20:00","-11.4","","-14.8","","76","","","","31","","27","","24.1","","102.47","","","","-21","","Blowing Snow"
"-115.14","67.82","KUGLUKTUK A","2300903","2019-04-27 21:00","2019","04","27","21:00","-11.6","","-15.0","","76","","","","31","","26","","24.1","","102.48","","","","-21","","NA"
"-115.14","67.82","KUGLUKTUK A","2300903","2019-04-27 22:00","2019","04","27","22:00","-12.0","","-15.2","","77","","","","31","","25","","24.1","","102.48","","","","-21","","NA"
"-115.14","67.82","KUGLUKTUK A","2300903","2019-04-27 23:00","2019","04","27","23:00","-12.4","","-15.6","","78","","","","29","","25","","16.1","","102.47","","","","-22","","Snow"
"-115.14","67.82","KUGLUKTUK A","2300903","2019-04-28 00:00","2019","04","28","00:00","-12.3","","-15.5","","77","","","","30","","35","","16.1","","102.46","","","","-23","","Snow,Blowing Snow"
"-115.14","67.82","KUGLUKTUK A","2300903","2019-04-28 01:00","2019","04","28","01:00","-12.3","","-15.5","","77","","","","29","","29","","16.1","","102.48","","","","-22","","Snow,Blowing Snow"
"-115.14","67.82","KUGLUKTUK A","2300903","2019-04-28 02:00","2019","04","28","02:00","-12.6","","-15.3","","80","","","","27","","27","","12.9","","102.45","","","","-22","","Snow,Blowing Snow"
"-115.14","67.82","KUGLUKTUK A","2300903","2019-04-28 03:00","2019","04","28","03:00","-12.7","","-15.5","","79","","","","27","","27","","6.4","","102.46","","","","-23","","Snow,Blowing Snow"
"-115.14","67.82","KUGLUKTUK A","2300903","2019-04-28 04:00","2019","04","28","04:00","-12.7","","-15.4","","80","","","","28","","30","","16.1","","102.46","","","","-23","","Snow,Blowing Snow"
"-115.14","67.82","KUGLUKTUK A","2300903","2019-04-28 05:00","2019","04","28","05:00","-12.6","","-15.4","","80","","","","28","","29","","9.7","","102.47","","","","-23","","Snow,Blowing Snow"
"-115.14","67.82","KUGLUKTUK A","2300903","2019-04-28 06:00","2019","04","28","06:00","-12.5","","-15.3","","80","","","","28","","29","","6.4","","102.51","","","","-23","","Snow,Blowing Snow"
"-115.14","67.82","KUGLUKTUK A","2300903","2019-04-28 07:00","2019","04","28","07:00","-12.5","","-15.4","","79","","","","27","","26","","19.3","","102.50","","","","-22","","Snow,Blowing Snow"
"-115.14","67.82","KUGLUKTUK A","2300903","2019-04-28 08:00","2019","04","28","08:00","-12.4","","-15.4","","79","","","","26","","26","","16.1","","102.50","","","","-22","","Snow,Blowing Snow"
"-115.14","67.82","KUGLUKTUK A","2300903","2019-04-28 09:00","2019","04","28","09:00","-12.4","","-15.0","","81","","","","27","","29","","12.9","","102.48","","","","-23","","Snow,Blowing Snow"
"-115.14","67.82","KUGLUKTUK A","2300903","2019-04-28 10:00","2019","04","28","10:00","-11.6","","-14.7","","78","","","","29","","24","","4.8","","102.48","","","","-21","","Snow,Blowing Snow"
"-115.14","67.82","KUGLUKTUK A","2300903","2019-04-28 11:00","2019","04","28","11:00","-10.9","","-14.6","","75","","","","29","","25","","16.1","","102.50","","","","-20","","Snow,Blowing Snow"
"-115.14","67.82","KUGLUKTUK A","2300903","2019-04-28 12:00","2019","04","28","12:00","-10.6","","-13.9","","77","","","","30","","24","","19.3","","102.50","","","","-19","","Snow,Blowing Snow"
"-115.14","67.82","KUGLUKTUK A","2300903","2019-04-28 13:00","2019","04","28","13:00","-10.8","","-14.7","","73","","","","32","","28","","16.1","","102.51","","","","-20","","Snow,Blowing Snow"
"-115.14","67.82","KUGLUKTUK A","2300903","2019-04-28 14:00","2019","04","28","14:00","-10.5","","-14.3","","74","","","","30","","24","","16.1","","102.53","","","","-19","","Snow,Blowing Snow"
"-115.14","67.82","KUGLUKTUK A","2300903","2019-04-28 15:00","2019","04","28","15:00","-11.0","","-15.1","","72","","","","30","","28","","16.1","","102.54","","","","-21","","Snow,Blowing Snow"
"-115.14","67.82","KUGLUKTUK A","2300903","2019-04-28 16:00","2019","04","28","16:00","-10.9","","-14.8","","73","","","","31","","26","","16.1","","102.55","","","","-20","","Snow,Blowing Snow"
"-115.14","67.82","KUGLUKTUK A","2300903","2019-04-28 17:00","2019","04","28","17:00","-11.0","","-14.5","","75","","","","31","","26","","24.1","","102.57","","","","-20","","Blowing Snow"
"-115.14","67.82","KUGLUKTUK A","2300903","2019-04-28 18:00","2019","04","28","18:00","-11.0","","-14.4","","76","","","","31","","30","","24.1","","102.59","","","","-21","","Blowing Snow"
"-115.14","67.82","KUGLUKTUK A","2300903","2019-04-28 19:00","2019","04","28","19:00","-11.4","","-14.8","","77","","","","31","","30","","24.1","","102.61","","","","-21","","Blowing Snow"
"-115.14","67.82","KUGLUKTUK A","2300903","2019-04-28 20:00","2019","04","28","20:00","-11.6","","-14.3","","81","","","","31","","28","","16.1","","102.61","","","","-21","","Blowing Snow"
"-115.14","67.82","KUGLUKTUK A","2300903","2019-04-28 21:00","2019","04","28","21:00","-12.3","","-15.5","","77","","","","36","","21","","12.9","","102.64","","","","-21","","Snow"
"-115.14","67.82","KUGLUKTUK A","2300903","2019-04-28 22:00","2019","04","28","22:00","-13.6","","-15.6","","85","","","","35","","10","","16.1","","102.67","","","","-20","","Snow"
"-115.14","67.82","KUGLUKTUK A","2300903","2019-04-28 23:00","2019","04","28","23:00","-14.3","","-16.6","","83","","","","4","","10","","16.1","","102.72","","","","-20","","Snow"
"-115.14","67.82","KUGLUKTUK A","2300903","2019-04-29 00:00","2019","04","29","00:00","-14.7","","-17.3","","81","","","","4","","16","","16.1","","102.77","","","","-23","","Snow"
"-115.14","67.82","KUGLUKTUK A","2300903","2019-04-29 01:00","2019","04","29","01:00","-17.0","","-20.1","","77","","","","8","","12","","16.1","","102.82","","","","-24","","Snow"
"-115.14","67.82","KUGLUKTUK A","2300903","2019-04-29 02:00","2019","04","29","02:00","-18.6","","-21.6","","77","","","","3","","15","","16.1","","102.91","","","","-27","","Snow"
"-115.14","67.82","KUGLUKTUK A","2300903","2019-04-29 03:00","2019","04","29","03:00","-20.8","","-23.9","","76","","","","5","","21","","16.1","","102.97","","","","-32","","Snow"
"-115.14","67.82","KUGLUKTUK A","2300903","2019-04-29 04:00","2019","04","29","04:00","-22.9","","-25.9","","77","","","","4","","17","","24.1","","103.05","","","","-33","","NA"
"-115.14","67.82","KUGLUKTUK A","2300903","2019-04-29 05:00","2019","04","29","05:00"
"-115.14","67.82","KUGLUKTUK A","2300903","2019-04-29 06:00","2019","04","29","06:00","-23.0","","-26.1","","77","","","","6","","6","","24.1","","103.16","","","","-28","","NA"
"-115.14","67.82","KUGLUKTUK A","2300903","2019-04-29 07:00","2019","04","29","07:00","-22.7","","-25.9","","76","","","","0","","1","","24.1","","103.19","","","","-24","","NA"
"-115.14","67.82","KUGLUKTUK A","2300903","2019-04-29 08:00","2019","04","29","08:00","-22.7","","-25.9","","75","","","","22","","8","","24.1","","103.21","","","","-29","","Clear"
"-115.14","67.82","KUGLUKTUK A","2300903","2019-04-29 09:00","2019","04","29","09:00","-21.6","","-25.0","","75","","","","21","","8","","24.1","","103.24","","","","-28","","NA"
"-115.14","67.82","KUGLUKTUK A","2300903","2019-04-29 10:00","2019","04","29","10:00","-20.5","","-24.0","","74","","","","22","","9","","24.1","","103.27","","","","-27","","NA"
"-115.14","67.82","KUGLUKTUK A","2300903","2019-04-29 11:00","2019","04","29","11:00","-19.5","","-23.6","","71","","","","27","","11","","24.1","","103.29","","","","-27","","Clear"
"-115.14","67.82","KUGLUKTUK A","2300903","2019-04-29 12:00","2019","04","29","12:00","-18.7","","-22.9","","70","","","","27","","12","","24.1","","103.33","","","","-26","","NA"
"-115.14","67.82","KUGLUKTUK A","2300903","2019-04-29 13:00","2019","04","29","13:00","-17.7","","-22.0","","70","","","","26","","13","","24.1","","103.35","","","","-26","","NA"
"-115.14","67.82","KUGLUKTUK A","2300903","2019-04-29 14:00","2019","04","29","14:00","-17.3","","-21.8","","69","","","","26","","16","","24.1","","103.36","","","","-26","","Clear"
"-115.14","67.82","KUGLUKTUK A","2300903","2019-04-29 15:00","2019","04","29","15:00","-16.6","","-21.1","","69","","","","25","","13","","24.1","","103.36","","","","-24","","NA"
"-115.14","67.82","KUGLUKTUK A","2300903","2019-04-29 16:00","2019","04","29","16:00","-16.4","","-20.9","","69","","","","26","","20","","24.1","","103.35","","","","-26","","NA"
"-115.14","67.82","KUGLUKTUK A","2300903","2019-04-29 17:00","2019","04","29","17:00","-15.9","","-20.2","","70","","","","26","","15","","24.1","","103.35","","","","-24","","Mainly Clear"
"-115.14","67.82","KUGLUKTUK A","2300903","2019-04-29 18:00","2019","04","29","18:00","-15.9","","-20.0","","71","","","","1","","8","","24.1","","103.36","","","","-21","","NA"
"-115.14","67.82","KUGLUKTUK A","2300903","2019-04-29 19:00","2019","04","29","19:00","-16.1","","-20.2","","72","","","","35","","5","","24.1","","103.34","","","","-20","","NA"
"-115.14","67.82","KUGLUKTUK A","2300903","2019-04-29 20:00","2019","04","29","20:00","-17.4","","-21.3","","72","","","","25","","7","","24.1","","103.32","","","","-23","","Mainly Clear"
"-115.14","67.82","KUGLUKTUK A","2300903","2019-04-29 21:00","2019","04","29","21:00","-18.2","","-21.8","","74","","","","27","","14","","24.1","","103.31","","","","-27","","NA"
"-115.14","67.82","KUGLUKTUK A","2300903","2019-04-29 22:00","2019","04","29","22:00","-18.8","","-22.4","","74","","","","26","","17","","24.1","","103.27","","","","-28","","NA"
"-115.14","67.82","KUGLUKTUK A","2300903","2019-04-29 23:00","2019","04","29","23:00","-22.1","","-25.1","","77","","","","25","","17","","24.1","","103.21","","","","-32","","Mainly Clear"
"-115.14","67.82","KUGLUKTUK A","2300903","2019-04-30 00:00","2019","04","30","00:00","-21.4","","-24.2","","79","","","","24","","21","","24.1","","103.19","","","","-32","","NA"
"-115.14","67.82","KUGLUKTUK A","2300903","2019-04-30 01:00","2019","04","30","01:00","-21.6","","-24.1","","81","","","","23","","22","","24.1","","103.16","","","","-33","","NA"
"-115.14","67.82","KUGLUKTUK A","2300903","2019-04-30 02:00","2019","04","30","02:00","-21.4","","-23.8","","81","","","","24","","28","","24.1","","103.13","","","","-34","","Ice Crystals"
"-115.14","67.82","KUGLUKTUK A","2300903","2019-04-30 03:00","2019","04","30","03:00","-22.3","","-24.7","","81","","","","24","","26","","24.1","","103.08","","","","-35","","Ice Crystals"
"-115.14","67.82","KUGLUKTUK A","2300903","2019-04-30 04:00","2019","04","30","04:00","-21.8","","-24.4","","80","","","","25","","26","","24.1","","103.05","","","","-34","","NA"
"-115.14","67.82","KUGLUKTUK A","2300903","2019-04-30 05:00","2019","04","30","05:00","-22.2","","-25.0","","79","","","","24","","25","","24.1","","103.03","","","","-34","","Mostly Cloudy"
"-115.14","67.82","KUGLUKTUK A","2300903","2019-04-30 06:00","2019","04","30","06:00","-20.3","","-23.1","","79","","","","25","","27","","24.1","","102.97","","","","-32","","NA"
"-115.14","67.82","KUGLUKTUK A","2300903","2019-04-30 07:00","2019","04","30","07:00","-18.9","","-21.6","","80","","","","24","","26","","24.1","","102.90","","","","-30","","NA"
"-115.14","67.82","KUGLUKTUK A","2300903","2019-04-30 08:00","2019","04","30","08:00","-17.9","","-20.9","","78","","","","26","","28","","24.1","","102.86","","","","-29","","Cloudy"
"-115.14","67.82","KUGLUKTUK A","2300903","2019-04-30 09:00","2019","04","30","09:00","-16.9","","-19.8","","79","","","","26","","31","","24.1","","102.77","","","","-29","","NA"
"-115.14","67.82","KUGLUKTUK A","2300903","2019-04-30 10:00","2019","04","30","10:00","-15.7","","-18.5","","79","","","","26","","28","","16.1","","102.69","","","","-27","","Snow"
"-115.14","67.82","KUGLUKTUK A","2300903","2019-04-30 11:00","2019","04","30","11:00","-14.4","","-17.0","","81","","","","27","","25","","12.9","","102.62","","","","-24","","Snow"
"-115.14","67.82","KUGLUKTUK A","2300903","2019-04-30 12:00","2019","04","30","12:00","-14.1","","-16.7","","80","","","","25","","25","","8.1","","102.54","","","","-24","","Snow,Blowing Snow"
"-115.14","67.82","KUGLUKTUK A","2300903","2019-04-30 13:00","2019","04","30","13:00","-13.4","","-16.4","","79","","","","24","","24","","4.0","","102.49","","","","-23","","Snow,Blowing Snow"
"-115.14","67.82","KUGLUKTUK A","2300903","2019-04-30 14:00","2019","04","30","14:00","-12.6","","-15.4","","80","","","","24","","23","","4.0","","102.40","","","","-22","","Snow,Blowing Snow"
"-115.14","67.82","KUGLUKTUK A","2300903","2019-04-30 15:00","2019","04","30","15:00","-11.6","","-14.3","","81","","","","24","","23","","4.0","","102.29","","","","-20","","Snow,Blowing Snow"
"-115.14","67.82","KUGLUKTUK A","2300903","2019-04-30 16:00","2019","04","30","16:00","-10.2","","-12.7","","82","","","","24","","21","","4.8","","102.19","","","","-18","","Snow,Blowing Snow"
"-115.14","67.82","KUGLUKTUK A","2300903","2019-04-30 17:00","2019","04","30","17:00","-9.5","","-12.0","","82","","","","25","","16","","8.1","","102.09","","","","-16","","Snow"
"-115.14","67.82","KUGLUKTUK A","2300903","2019-04-30 18:00","2019","04","30","18:00","-10.1","","-12.2","","85","","","","23","","10","","8.1","","102.04","","","","-15","","Snow"
"-115.14","67.82","KUGLUKTUK A","2300903","2019-04-30 19:00","2019","04","30","19:00","-10.8","","-12.7","","86","","","","32","","11","","12.9","","102.00","","","","-17","","Snow"
"-115.14","67.82","KUGLUKTUK A","2300903","2019-04-30 20:00","2019","04","30","20:00","-12.8","","-14.5","","87","","","","4","","19","","12.9","","101.95","","","","-21","","Snow"
"-115.14","67.82","KUGLUKTUK A","2300903","2019-04-30 21:00","2019","04","30","21:00","-13.7","","-15.5","","86","","","","5","","10","","12.9","","101.92","","","","-20","","Snow"
"-115.14","67.82","KUGLUKTUK A","2300903","2019-04-30 22:00","2019","04","30","22:00","-13.6","","-15.3","","87","","","","6","","16","","16.1","","101.88","","","","-21","","Snow"
"-115.14","67.82","KUGLUKTUK A","2300903","2019-04-30 23:00","2019","04","30","23:00","-16.0","","-17.9","","86","","","","31","","5","","6.4","","101.87","","","","-20","","Snow"
