"Longitude (x)","Latitude (y)","Station Name","Climate ID","Date/Time (LST)","Year","Month","Day","Time (LST)","Temp (°C)","Temp Flag","Dew Point Temp (°C)","Dew Point Temp Flag","Rel Hum (%)","Rel Hum Flag","Precip. Amount (mm)","Precip. Amount Flag","Wind Dir (10s deg)","Wind Dir Flag","Wind Spd (km/h)","Wind Spd Flag","Visibility (km)","Visibility Flag","Stn Press (kPa)","Stn Press Flag","Hmdx","Hmdx Flag","Wind Chill","Wind Chill Flag","Weather"
"-101.08","56.86","LYNN LAKE","5061645","2019-03-01 00:00","2019","03","01","00:00","-26.9","","-29.8","","77","","0.0","","3","","15","","16.1","","98.04","","","","-38","","Snow"
"-101.08","56.86","LYNN LAKE","5061645","2019-03-01 01:00","2019","03","01","01:00","-27.5","","-30.4","","77","","0.0","","2","","13","","16.1","","98.12","","","","-38","","NA"
"-101.08","56.86","LYNN LAKE","5061645","2019-03-01 02:00","2019","03","01","02:00","-28.5","","-31.4","","77","","0.0","","1","","11","","16.1","","98.18","","","","-38","","Snow"
"-101.08","56.86","LYNN LAKE","5061645","2019-03-01 03:00","2019","03","01","03:00","-29.0","","-32.0","","76","","0.0","","1","","11","","16.1","","98.24","","","","-38","","Snow"
"-101.08","56.86","LYNN LAKE","5061645","2019-03-01 04:00","2019","03","01","04:00","-29.7","","-32.8","","75","","0.0","","36","","11","","16.1","","98.30","","","","-39","","Snow"
"-101.08","56.86","LYNN LAKE","5061645","2019-03-01 05:00","2019","03","01","05:00","-30.1","","-33.3","","74","","0.0","","36","","11","","16.1","","98.34","","","","-40","","Snow"
"-101.08","56.86","LYNN LAKE","5061645","2019-03-01 06:00","2019","03","01","06:00","-30.4","","-33.8","","73","","0.0","","1","","11","","16.1","","98.40","","","","-40","","Snow"
"-101.08","56.86","LYNN LAKE","5061645","2019-03-01 07:00","2019","03","01","07:00","-31.1","","-34.5","","73","","0.0","","35","","13","","16.1","","98.45","","","","-42","","Snow"
"-101.08","56.86","LYNN LAKE","5061645","2019-03-01 08:00","2019","03","01","08:00","-31.3","","-34.7","","73","","0.0","","34","","9","","14.5","","98.52","","","","-40","","Snow"
"-101.08","56.86","LYNN LAKE","5061645","2019-03-01 09:00","2019","03","01","09:00","-30.7","","-34.4","","71","","0.0","","35","","13","","11.3","","98.57","","","","-41","","Snow"
"-101.08","56.86","LYNN LAKE","5061645","2019-03-01 10:00","2019","03","01","10:00","-29.3","","-33.3","","69","","0.0","","35","","9","","9.7","","98.64","","","","-38","","Snow"
"-101.08","56.86","LYNN LAKE","5061645","2019-03-01 11:00","2019","03","01","11:00","-28.1","","-32.6","","66","","0.0","","33","","11","","12.9","","98.67","","","","-37","","Snow"
"-101.08","56.86","LYNN LAKE","5061645","2019-03-01 12:00","2019","03","01","12:00","-26.2","","-30.9","","65","","0.0","","33","","13","","11.3","","98.68","","","","-36","","NA"
"-101.08","56.86","LYNN LAKE","5061645","2019-03-01 13:00","2019","03","01","13:00","-24.3","","-29.3","","64","","0.0","","35","","13","","12.9","","98.68","","","","-34","","NA"
"-101.08","56.86","LYNN LAKE","5061645","2019-03-01 14:00","2019","03","01","14:00","-23.1","","-28.5","","62","","0.0","","31","","15","","16.1","","98.64","","","","-33","","NA"
"-101.08","56.86","LYNN LAKE","5061645","2019-03-01 15:00","2019","03","01","15:00","-23.5","","-28.7","","63","","0.0","","30","","15","","16.1","","98.66","","","","-33","","Snow"
"-101.08","56.86","LYNN LAKE","5061645","2019-03-01 16:00","2019","03","01","16:00","-24.4","","-29.2","","65","","0.0","","31","","13","","16.1","","98.66","","","","-34","","Snow"
"-101.08","56.86","LYNN LAKE","5061645","2019-03-01 17:00","2019","03","01","17:00","-25.8","","-30.3","","67","","0.1","","30","","13","","16.1","","98.69","","","","-35","","Snow"
"-101.08","56.86","LYNN LAKE","5061645","2019-03-01 18:00","2019","03","01","18:00","-27.3","","-31.7","","67","","0.0","","31","","18","","16.1","","98.73","","","","-39","","NA"
"-101.08","56.86","LYNN LAKE","5061645","2019-03-01 19:00","2019","03","01","19:00","-28.0","","-32.1","","69","","0.0","","31","","11","","16.1","","98.76","","","","-37","","Snow"
"-101.08","56.86","LYNN LAKE","5061645","2019-03-01 20:00","2019","03","01","20:00","-28.4","","-32.6","","68","","0.0","","31","","11","","16.1","","98.78","","","","-38","","NA"
"-101.08","56.86","LYNN LAKE","5061645","2019-03-01 21:00","2019","03","01","21:00","-28.6","","-32.3","","71","","0.0","","30","","8","","16.1","","98.77","","","","-36","","NA"
"-101.08","56.86","LYNN LAKE","5061645","2019-03-01 22:00","2019","03","01","22:00","-28.1","","-32.0","","70","","0.0","","33","","11","","16.1","","98.73","","","","-37","","NA"
"-101.08","56.86","LYNN LAKE","5061645","2019-03-01 23:00","2019","03","01","23:00","-29.1","","-32.8","","71","","0.0","","31","","9","","16.1","","98.72","","","","-38","","NA"
"-101.08","56.86","LYNN LAKE","5061645","2019-03-02 00:00","2019","03","02","00:00","-30.2","","-33.4","","74","","0.0","","29","","9","","16.1","","98.72","","","","-39","","NA"
"-101.08","56.86","LYNN LAKE","5061645","2019-03-02 01:00","2019","03","02","01:00","-30.2","","-33.4","","74","","0.0","","29","","9","","16.1","","98.71","","","","-39","","Snow"
"-101.08","56.86","LYNN LAKE","5061645","2019-03-02 02:00","2019","03","02","02:00","-29.4","","-32.8","","73","","0.0","","30","","13","","16.1","","98.68","","","","-40","","Snow"
"-101.08","56.86","LYNN LAKE","5061645","2019-03-02 03:00","2019","03","02","03:00","-29.9","","-33.2","","74","","0.0","","29","","9","","16.1","","98.65","","","","-38","","Snow"
"-101.08","56.86","LYNN LAKE","5061645","2019-03-02 04:00","2019","03","02","04:00","-28.7","","-32.0","","74","","0.0","","30","","11","","16.1","","98.60","","","","-38","","Snow"
"-101.08","56.86","LYNN LAKE","5061645","2019-03-02 05:00","2019","03","02","05:00","-28.1","","-31.4","","74","","0.0","","28","","11","","16.1","","98.56","","","","-37","","Snow"
"-101.08","56.86","LYNN LAKE","5061645","2019-03-02 06:00","2019","03","02","06:00","-27.4","","-30.7","","74","","0.0","","30","","13","","8.1","","98.53","","","","-37","","Snow"
"-101.08","56.86","LYNN LAKE","5061645","2019-03-02 07:00","2019","03","02","07:00","-26.8","","-30.1","","74","","0.0","","30","","13","","12.9","","98.52","","","","-37","","Snow"
"-101.08","56.86","LYNN LAKE","5061645","2019-03-02 08:00","2019","03","02","08:00","-26.9","","-30.4","","73","","0.0","","31","","17","","16.1","","98.50","","","","-38","","Snow"
"-101.08","56.86","LYNN LAKE","5061645","2019-03-02 09:00","2019","03","02","09:00","-27.1","","-30.6","","73","","0.0","","31","","13","","12.9","","98.48","","","","-37","","Snow"
"-101.08","56.86","LYNN LAKE","5061645","2019-03-02 10:00","2019","03","02","10:00","-27.4","","-31.3","","70","","0.0","","31","","18","","16.1","","98.47","","","","-39","","NA"
"-101.08","56.86","LYNN LAKE","5061645","2019-03-02 11:00","2019","03","02","11:00","-26.3","","-30.7","","67","","0.0","","32","","13","","14.5","","98.44","","","","-36","","NA"
"-101.08","56.86","LYNN LAKE","5061645","2019-03-02 12:00","2019","03","02","12:00","-25.6","","-30.2","","66","","0.0","","34","","15","","14.5","","98.43","","","","-36","","NA"
"-101.08","56.86","LYNN LAKE","5061645","2019-03-02 13:00","2019","03","02","13:00","-24.4","","-29.6","","63","","0.0","","32","","15","","16.1","","98.39","","","","-35","","NA"
"-101.08","56.86","LYNN LAKE","5061645","2019-03-02 14:00","2019","03","02","14:00","-23.4","","-28.7","","63","","0.0","","31","","21","","4.8","","98.34","","","","-35","","Snow"
"-101.08","56.86","LYNN LAKE","5061645","2019-03-02 15:00","2019","03","02","15:00","-22.4","","-27.1","","67","","0.0","","32","","21","","4.8","","98.30","","","","-34","","Snow"
"-101.08","56.86","LYNN LAKE","5061645","2019-03-02 16:00","2019","03","02","16:00","-21.7","","-26.6","","65","","0.0","","32","","18","","16.1","","98.29","","","","-32","","NA"
"-101.08","56.86","LYNN LAKE","5061645","2019-03-02 17:00","2019","03","02","17:00","-21.1","","-25.1","","71","","0.0","","30","","18","","16.1","","98.24","","","","-31","","NA"
"-101.08","56.86","LYNN LAKE","5061645","2019-03-02 18:00","2019","03","02","18:00","-21.1","","-24.6","","74","","0.0","","30","","17","","16.1","","98.20","","","","-31","","NA"
"-101.08","56.86","LYNN LAKE","5061645","2019-03-02 19:00","2019","03","02","19:00","-21.0","","-24.0","","77","","0.0","","31","","17","","16.1","","98.15","","","","-31","","NA"
"-101.08","56.86","LYNN LAKE","5061645","2019-03-02 20:00","2019","03","02","20:00","-20.6","","-23.7","","77","","0.0","","31","","22","","16.1","","98.06","","","","-32","","NA"
"-101.08","56.86","LYNN LAKE","5061645","2019-03-02 21:00","2019","03","02","21:00","-20.7","","-24.2","","74","","0.0","","31","","21","","16.1","","98.00","","","","-32","","NA"
"-101.08","56.86","LYNN LAKE","5061645","2019-03-02 22:00","2019","03","02","22:00","-19.7","","-22.3","","80","","0.0","","31","","22","","2.4","","97.91","","","","-31","","Snow"
"-101.08","56.86","LYNN LAKE","5061645","2019-03-02 23:00","2019","03","02","23:00","-19.5","","-21.8","","82","","0.0","","30","","21","","4.0","","97.87","","","","-30","","Snow"
"-101.08","56.86","LYNN LAKE","5061645","2019-03-03 00:00","2019","03","03","00:00","-18.8","","-21.2","","82","","0.0","","31","","18","","8.1","","97.80","","","","-28","","Snow"
"-101.08","56.86","LYNN LAKE","5061645","2019-03-03 01:00","2019","03","03","01:00","-18.7","","-21.1","","82","","0.0","","31","","22","","9.7","","97.78","","","","-29","","Snow"
"-101.08","56.86","LYNN LAKE","5061645","2019-03-03 02:00","2019","03","03","02:00","-18.4","","-20.9","","81","","0.0","","31","","24","","6.4","","97.73","","","","-29","","Snow"
"-101.08","56.86","LYNN LAKE","5061645","2019-03-03 03:00","2019","03","03","03:00","-18.3","","-20.8","","81","","0.0","","32","","26","","6.4","","97.74","","","","-30","","Snow"
"-101.08","56.86","LYNN LAKE","5061645","2019-03-03 04:00","2019","03","03","04:00","-18.1","","-20.5","","82","","0.0","","34","","24","","4.8","","97.75","","","","-29","","Snow"
"-101.08","56.86","LYNN LAKE","5061645","2019-03-03 05:00","2019","03","03","05:00","-18.0","","-20.7","","80","","0.0","","34","","18","","6.4","","97.77","","","","-27","","Snow"
"-101.08","56.86","LYNN LAKE","5061645","2019-03-03 06:00","2019","03","03","06:00","-18.1","","-20.6","","81","","0.0","","33","","22","","2.4","","97.77","","","","-29","","Snow"
"-101.08","56.86","LYNN LAKE","5061645","2019-03-03 07:00","2019","03","03","07:00","-18.2","","-20.9","","80","","0.0","","33","","26","","11.3","","97.76","","","","-29","","Snow"
"-101.08","56.86","LYNN LAKE","5061645","2019-03-03 08:00","2019","03","03","08:00","-18.2","","-20.7","","81","","0.0","","34","","30","","11.3","","97.78","","","","-30","","Snow"
"-101.08","56.86","LYNN LAKE","5061645","2019-03-03 09:00","2019","03","03","09:00","-18.0","","-20.4","","82","","0.0","","33","","18","","8.1","","97.75","","","","-27","","Snow"
"-101.08","56.86","LYNN LAKE","5061645","2019-03-03 10:00","2019","03","03","10:00","-17.2","","-20.0","","79","","0.0","","33","","28","","16.1","","97.73","","","","-29","","NA"
"-101.08","56.86","LYNN LAKE","5061645","2019-03-03 11:00","2019","03","03","11:00","-16.4","","-19.7","","76","","0.0","","33","","28","","16.1","","97.69","","","","-28","","NA"
"-101.08","56.86","LYNN LAKE","5061645","2019-03-03 12:00","2019","03","03","12:00","-16.1","","-19.4","","76","","0.0","","32","","28","","1.6","","97.68","","","","-27","","Snow"
"-101.08","56.86","LYNN LAKE","5061645","2019-03-03 13:00","2019","03","03","13:00","-15.3","","-19.1","","73","","0.0","","31","","26","","4.0","","97.63","","","","-26","","Snow"
"-101.08","56.86","LYNN LAKE","5061645","2019-03-03 14:00","2019","03","03","14:00","-14.4","","-18.9","","69","","0.0","","31","","28","","8.1","","97.55","","","","-25","","Haze"
"-101.08","56.86","LYNN LAKE","5061645","2019-03-03 15:00","2019","03","03","15:00","-13.8","","-18.3","","69","","0.0","","31","","22","","16.1","","97.50","","","","-23","","NA"
"-101.08","56.86","LYNN LAKE","5061645","2019-03-03 16:00","2019","03","03","16:00","-14.6","","-18.2","","75","","0.0","","31","","30","","8.1","","97.47","","","","-26","","Haze"
"-101.08","56.86","LYNN LAKE","5061645","2019-03-03 17:00","2019","03","03","17:00","-14.4","","-17.1","","80","","0.0","","31","","26","","2.0","","97.40","","","","-25","","Snow"
"-101.08","56.86","LYNN LAKE","5061645","2019-03-03 18:00","2019","03","03","18:00","-14.3","","-16.7","","82","","0.0","","30","","32","","4.8","","97.32","","","","-25","","Snow"
"-101.08","56.86","LYNN LAKE","5061645","2019-03-03 19:00","2019","03","03","19:00","-14.8","","-17.2","","82","","0.0","","31","","22","","16.1","","97.23","","","","-24","","NA"
"-101.08","56.86","LYNN LAKE","5061645","2019-03-03 20:00","2019","03","03","20:00","-14.2","","-16.6","","82","","0.0","","31","","32","","11.3","","97.16","","","","-25","","Snow"
"-101.08","56.86","LYNN LAKE","5061645","2019-03-03 21:00","2019","03","03","21:00","-13.6","","-15.8","","84","","0.0","","31","","28","","6.4","","97.05","","","","-24","","Snow"
"-101.08","56.86","LYNN LAKE","5061645","2019-03-03 22:00","2019","03","03","22:00","-13.0","","-15.2","","84","","0.0","","31","","30","","4.8","","96.96","","","","-23","","Snow"
"-101.08","56.86","LYNN LAKE","5061645","2019-03-03 23:00","2019","03","03","23:00","-12.6","","-14.9","","83","","0.0","","32","","32","","6.4","","96.87","","","","-23","","Snow"
"-101.08","56.86","LYNN LAKE","5061645","2019-03-04 00:00","2019","03","04","00:00","-12.5","","-15.3","","80","","0.0","","31","","37","","9.7","","96.85","","","","-24","","Snow"
"-101.08","56.86","LYNN LAKE","5061645","2019-03-04 01:00","2019","03","04","01:00","-13.2","","-16.0","","80","","0.0","","32","","26","","16.1","","96.80","","","","-23","","NA"
"-101.08","56.86","LYNN LAKE","5061645","2019-03-04 02:00","2019","03","04","02:00","-13.5","","-16.3","","80","","0.0","","32","","30","","16.1","","96.80","","","","-24","","Snow"
"-101.08","56.86","LYNN LAKE","5061645","2019-03-04 03:00","2019","03","04","03:00","-13.4","","-16.0","","81","","0.0","","33","","28","","12.9","","96.76","","","","-24","","Snow"
"-101.08","56.86","LYNN LAKE","5061645","2019-03-04 04:00","2019","03","04","04:00","-13.2","","-16.1","","79","","0.0","","34","","35","","4.8","","96.77","","","","-24","","Snow"
"-101.08","56.86","LYNN LAKE","5061645","2019-03-04 05:00","2019","03","04","05:00","-13.5","","-16.9","","76","","0.0","","36","","22","","16.1","","96.82","","","","-23","","Snow"
"-101.08","56.86","LYNN LAKE","5061645","2019-03-04 06:00","2019","03","04","06:00","-13.8","","-17.3","","75","","0.0","","35","","26","","12.9","","96.86","","","","-24","","Snow"
"-101.08","56.86","LYNN LAKE","5061645","2019-03-04 07:00","2019","03","04","07:00","-13.9","","-17.6","","74","","0.0","","35","","30","","14.5","","96.89","","","","-25","","Snow"
"-101.08","56.86","LYNN LAKE","5061645","2019-03-04 08:00","2019","03","04","08:00","-14.0","","-17.4","","76","","0.0","","34","","22","","14.5","","96.95","","","","-23","","Snow"
"-101.08","56.86","LYNN LAKE","5061645","2019-03-04 09:00","2019","03","04","09:00","-13.7","","-17.4","","74","","0.0","","35","","18","","16.1","","96.99","","","","-22","","Snow"
"-101.08","56.86","LYNN LAKE","5061645","2019-03-04 10:00","2019","03","04","10:00","-14.1","","-18.3","","71","","0.0","","36","","30","","16.1","","97.05","","","","-25","","NA"
"-101.08","56.86","LYNN LAKE","5061645","2019-03-04 11:00","2019","03","04","11:00","-13.6","","-18.7","","66","","0.0","","36","","32","","16.1","","97.11","","","","-25","","NA"
"-101.08","56.86","LYNN LAKE","5061645","2019-03-04 12:00","2019","03","04","12:00","-12.6","","-18.1","","64","","0.0","","36","","22","","16.1","","97.16","","","","-22","","NA"
"-101.08","56.86","LYNN LAKE","5061645","2019-03-04 13:00","2019","03","04","13:00","-12.7","","-19.0","","60","","0.0","","35","","24","","16.1","","97.19","","","","-22","","NA"
"-101.08","56.86","LYNN LAKE","5061645","2019-03-04 14:00","2019","03","04","14:00","-12.0","","-18.5","","59","","0.0","","34","","17","","16.1","","97.21","","","","-20","","NA"
"-101.08","56.86","LYNN LAKE","5061645","2019-03-04 15:00","2019","03","04","15:00","-11.4","","-18.3","","57","","0.0","","33","","22","","16.1","","97.23","","","","-20","","NA"
"-101.08","56.86","LYNN LAKE","5061645","2019-03-04 16:00","2019","03","04","16:00","-11.1","","-18.1","","57","","0.0","","34","","26","","16.1","","97.26","","","","-20","","NA"
"-101.08","56.86","LYNN LAKE","5061645","2019-03-04 17:00","2019","03","04","17:00","-11.5","","-18.6","","56","","0.0","","35","","24","","16.1","","97.29","","","","-21","","NA"
"-101.08","56.86","LYNN LAKE","5061645","2019-03-04 18:00","2019","03","04","18:00","-13.0","","-18.9","","62","","0.0","","34","","11","","16.1","","97.33","","","","-19","","NA"
"-101.08","56.86","LYNN LAKE","5061645","2019-03-04 19:00","2019","03","04","19:00","-14.6","","-19.6","","66","","0.0","","34","","11","","16.1","","97.36","","","","-21","","NA"
"-101.08","56.86","LYNN LAKE","5061645","2019-03-04 20:00","2019","03","04","20:00","-16.1","","-20.2","","71","","0.0","","31","","9","","16.1","","97.37","","","","-22","","NA"
"-101.08","56.86","LYNN LAKE","5061645","2019-03-04 21:00","2019","03","04","21:00","-17.4","","-20.9","","75","","0.0","","30","","11","","16.1","","97.38","","","","-25","","NA"
"-101.08","56.86","LYNN LAKE","5061645","2019-03-04 22:00","2019","03","04","22:00","-18.0","","-21.0","","78","","0.0","","30","","13","","16.1","","97.38","","","","-26","","NA"
"-101.08","56.86","LYNN LAKE","5061645","2019-03-04 23:00","2019","03","04","23:00","-17.8","","-20.8","","78","","0.0","","31","","11","","16.1","","97.37","","","","-25","","NA"
"-101.08","56.86","LYNN LAKE","5061645","2019-03-05 00:00","2019","03","05","00:00","-19.9","","-21.8","","85","","0.0","","29","","11","","16.1","","97.34","","","","-28","","NA"
"-101.08","56.86","LYNN LAKE","5061645","2019-03-05 01:00","2019","03","05","01:00","-20.6","","-22.2","","87","","0.0","","29","","13","","16.1","","97.33","","","","-29","","NA"
"-101.08","56.86","LYNN LAKE","5061645","2019-03-05 02:00","2019","03","05","02:00","-20.9","","-22.7","","86","","0.0","","28","","9","","16.1","","97.32","","","","-28","","NA"
"-101.08","56.86","LYNN LAKE","5061645","2019-03-05 03:00","2019","03","05","03:00","-21.4","","-23.0","","87","","0.0","","29","","5","","16.1","","97.30","","","","-26","","NA"
"-101.08","56.86","LYNN LAKE","5061645","2019-03-05 04:00","2019","03","05","04:00","-20.0","","-21.9","","85","","0.0","","29","","9","","16.1","","97.31","","","","-27","","NA"
"-101.08","56.86","LYNN LAKE","5061645","2019-03-05 05:00","2019","03","05","05:00","-19.2","","-21.4","","83","","0.0","","31","","9","","16.1","","97.30","","","","-26","","NA"
"-101.08","56.86","LYNN LAKE","5061645","2019-03-05 06:00","2019","03","05","06:00","-18.1","","-20.9","","79","","0.0","","35","","9","","16.1","","97.32","","","","-24","","NA"
"-101.08","56.86","LYNN LAKE","5061645","2019-03-05 07:00","2019","03","05","07:00","-18.3","","-21.0","","80","","0.0","","36","","15","","16.1","","97.34","","","","-27","","NA"
"-101.08","56.86","LYNN LAKE","5061645","2019-03-05 08:00","2019","03","05","08:00","-18.2","","-20.7","","81","","0.0","","34","","9","","8.1","","97.38","","","","-25","","Snow"
"-101.08","56.86","LYNN LAKE","5061645","2019-03-05 09:00","2019","03","05","09:00","-17.4","","-20.1","","80","","0.0","","35","","15","","8.1","","97.41","","","","-26","","Snow"
"-101.08","56.86","LYNN LAKE","5061645","2019-03-05 10:00","2019","03","05","10:00","-16.9","","-20.6","","73","","0.0","","35","","30","","6.4","","97.44","","","","-29","","Snow"
"-101.08","56.86","LYNN LAKE","5061645","2019-03-05 11:00","2019","03","05","11:00","-16.3","","-20.7","","69","","0.0","","35","","18","","12.9","","97.48","","","","-25","","Snow"
"-101.08","56.86","LYNN LAKE","5061645","2019-03-05 12:00","2019","03","05","12:00","-15.4","","-20.7","","64","","0.0","","35","","21","","16.1","","97.50","","","","-25","","NA"
"-101.08","56.86","LYNN LAKE","5061645","2019-03-05 13:00","2019","03","05","13:00","-15.2","","-20.6","","64","","0.0","","33","","24","","16.1","","97.56","","","","-25","","NA"
"-101.08","56.86","LYNN LAKE","5061645","2019-03-05 14:00","2019","03","05","14:00","-14.6","","-20.3","","62","","0.0","","33","","21","","16.1","","97.59","","","","-24","","NA"
"-101.08","56.86","LYNN LAKE","5061645","2019-03-05 15:00","2019","03","05","15:00","-15.2","","-21.1","","61","","0.0","","32","","22","","16.1","","97.64","","","","-25","","NA"
"-101.08","56.86","LYNN LAKE","5061645","2019-03-05 16:00","2019","03","05","16:00","-16.3","","-22.1","","61","","0.0","","34","","30","","16.1","","97.70","","","","-28","","NA"
"-101.08","56.86","LYNN LAKE","5061645","2019-03-05 17:00","2019","03","05","17:00","-17.1","","-22.4","","64","","0.0","","34","","22","","16.1","","97.77","","","","-27","","NA"
"-101.08","56.86","LYNN LAKE","5061645","2019-03-05 18:00","2019","03","05","18:00","-17.3","","-21.6","","70","","0.0","","33","","17","","16.1","","97.78","","","","-26","","NA"
"-101.08","56.86","LYNN LAKE","5061645","2019-03-05 19:00","2019","03","05","19:00","-17.3","","-21.1","","73","","0.0","","30","","13","","16.1","","97.77","","","","-25","","NA"
"-101.08","56.86","LYNN LAKE","5061645","2019-03-05 20:00","2019","03","05","20:00","-16.7","","-19.8","","77","","0.0","","29","","17","","16.1","","97.70","","","","-26","","Snow"
"-101.08","56.86","LYNN LAKE","5061645","2019-03-05 21:00","2019","03","05","21:00","-14.9","","-17.6","","80","","0.0","","31","","18","","16.1","","97.69","","","","-24","","NA"
"-101.08","56.86","LYNN LAKE","5061645","2019-03-05 22:00","2019","03","05","22:00","-15.0","","-17.9","","79","","0.0","","35","","26","","16.1","","97.73","","","","-25","","NA"
"-101.08","56.86","LYNN LAKE","5061645","2019-03-05 23:00","2019","03","05","23:00","-16.5","","-19.8","","76","","0.0","","34","","28","","16.1","","97.78","","","","-28","","NA"
"-101.08","56.86","LYNN LAKE","5061645","2019-03-06 00:00","2019","03","06","00:00","-17.7","","-20.7","","78","","0.0","","34","","24","","16.1","","97.81","","","","-28","","NA"
"-101.08","56.86","LYNN LAKE","5061645","2019-03-06 01:00","2019","03","06","01:00","-18.5","","-21.3","","79","","0.0","","32","","17","","16.1","","97.87","","","","-28","","NA"
"-101.08","56.86","LYNN LAKE","5061645","2019-03-06 02:00","2019","03","06","02:00","-19.1","","-21.7","","80","","0.0","","33","","22","","16.1","","97.92","","","","-30","","NA"
"-101.08","56.86","LYNN LAKE","5061645","2019-03-06 03:00","2019","03","06","03:00","-19.6","","-22.2","","80","","0.0","","33","","22","","16.1","","97.96","","","","-30","","NA"
"-101.08","56.86","LYNN LAKE","5061645","2019-03-06 04:00","2019","03","06","04:00","-20.0","","-22.8","","79","","0.0","","32","","17","","16.1","","97.97","","","","-30","","NA"
"-101.08","56.86","LYNN LAKE","5061645","2019-03-06 05:00","2019","03","06","05:00","-20.6","","-23.1","","81","","0.0","","32","","15","","16.1","","98.04","","","","-30","","NA"
"-101.08","56.86","LYNN LAKE","5061645","2019-03-06 06:00","2019","03","06","06:00","-21.1","","-23.4","","82","","0.0","","32","","15","","16.1","","98.10","","","","-30","","NA"
"-101.08","56.86","LYNN LAKE","5061645","2019-03-06 07:00","2019","03","06","07:00","-21.4","","-23.6","","83","","0.0","","32","","17","","16.1","","98.10","","","","-31","","NA"
"-101.08","56.86","LYNN LAKE","5061645","2019-03-06 08:00","2019","03","06","08:00","-20.9","","-23.2","","82","","0.0","","32","","18","","16.1","","98.13","","","","-31","","NA"
"-101.08","56.86","LYNN LAKE","5061645","2019-03-06 09:00","2019","03","06","09:00","-19.2","","-22.3","","77","","0.0","","31","","17","","16.1","","98.16","","","","-29","","NA"
"-101.08","56.86","LYNN LAKE","5061645","2019-03-06 10:00","2019","03","06","10:00","-16.8","","-21.5","","67","","0.0","","32","","18","","16.1","","98.15","","","","-26","","NA"
"-101.08","56.86","LYNN LAKE","5061645","2019-03-06 11:00","2019","03","06","11:00","-14.4","","-20.8","","59","","0.0","","31","","15","","16.1","","98.12","","","","-22","","NA"
"-101.08","56.86","LYNN LAKE","5061645","2019-03-06 12:00","2019","03","06","12:00","-12.8","","-19.4","","58","","0.0","","28","","17","","16.1","","98.09","","","","-21","","NA"
"-101.08","56.86","LYNN LAKE","5061645","2019-03-06 13:00","2019","03","06","13:00","-11.8","","-18.9","","56","","0.0","","28","","18","","16.1","","98.07","","","","-20","","NA"
"-101.08","56.86","LYNN LAKE","5061645","2019-03-06 14:00","2019","03","06","14:00","-11.1","","-17.3","","61","","0.0","","29","","17","","16.1","","98.04","","","","-19","","NA"
"-101.08","56.86","LYNN LAKE","5061645","2019-03-06 15:00","2019","03","06","15:00","-10.8","","-17.0","","61","","0.0","","29","","24","","16.1","","97.95","","","","-20","","NA"
"-101.08","56.86","LYNN LAKE","5061645","2019-03-06 16:00","2019","03","06","16:00","-10.2","","-16.4","","61","","0.0","","29","","21","","16.1","","97.94","","","","-18","","NA"
"-101.08","56.86","LYNN LAKE","5061645","2019-03-06 17:00","2019","03","06","17:00","-10.1","","-16.5","","60","","0.0","","27","","18","","16.1","","97.89","","","","-18","","NA"
"-101.08","56.86","LYNN LAKE","5061645","2019-03-06 18:00","2019","03","06","18:00","-10.5","","-16.9","","60","","0.0","","28","","15","","16.1","","97.83","","","","-17","","NA"
"-101.08","56.86","LYNN LAKE","5061645","2019-03-06 19:00","2019","03","06","19:00","-11.8","","-17.9","","61","","0.0","","26","","13","","16.1","","97.76","","","","-18","","NA"
"-101.08","56.86","LYNN LAKE","5061645","2019-03-06 20:00","2019","03","06","20:00","-12.4","","-17.3","","67","","0.0","","26","","21","","16.1","","97.66","","","","-21","","NA"
"-101.08","56.86","LYNN LAKE","5061645","2019-03-06 21:00","2019","03","06","21:00","-12.6","","-17.5","","67","","0.0","","26","","15","","16.1","","97.65","","","","-20","","NA"
"-101.08","56.86","LYNN LAKE","5061645","2019-03-06 22:00","2019","03","06","22:00","-12.6","","-17.7","","66","","0.0","","26","","17","","16.1","","97.60","","","","-20","","NA"
"-101.08","56.86","LYNN LAKE","5061645","2019-03-06 23:00","2019","03","06","23:00","-12.0","","-17.8","","63","","0.0","","27","","13","","16.1","","97.53","","","","-19","","NA"
"-101.08","56.86","LYNN LAKE","5061645","2019-03-07 00:00","2019","03","07","00:00","-13.7","","-18.2","","69","","0.0","","26","","13","","16.1","","97.52","","","","-21","","NA"
"-101.08","56.86","LYNN LAKE","5061645","2019-03-07 01:00","2019","03","07","01:00","-13.5","","-18.4","","67","","0.0","","27","","18","","16.1","","97.48","","","","-22","","NA"
"-101.08","56.86","LYNN LAKE","5061645","2019-03-07 02:00","2019","03","07","02:00","-13.8","","-18.3","","69","","0.0","","27","","15","","16.1","","97.42","","","","-21","","NA"
"-101.08","56.86","LYNN LAKE","5061645","2019-03-07 03:00","2019","03","07","03:00","-13.8","","-18.0","","71","","0.0","","27","","17","","16.1","","97.36","","","","-22","","NA"
"-101.08","56.86","LYNN LAKE","5061645","2019-03-07 04:00","2019","03","07","04:00","-13.8","","-18.0","","71","","0.0","","27","","18","","16.1","","97.29","","","","-22","","NA"
"-101.08","56.86","LYNN LAKE","5061645","2019-03-07 05:00","2019","03","07","05:00","-14.1","","-18.4","","70","","0.0","","27","","18","","16.1","","97.25","","","","-23","","NA"
"-101.08","56.86","LYNN LAKE","5061645","2019-03-07 06:00","2019","03","07","06:00","-14.6","","-18.6","","72","","0.0","","27","","21","","16.1","","97.20","","","","-24","","NA"
"-101.08","56.86","LYNN LAKE","5061645","2019-03-07 07:00","2019","03","07","07:00","-14.8","","-18.8","","72","","0.0","","28","","21","","16.1","","97.17","","","","-24","","NA"
"-101.08","56.86","LYNN LAKE","5061645","2019-03-07 08:00","2019","03","07","08:00","-14.9","","-19.0","","71","","0.0","","27","","13","","16.1","","97.12","","","","-22","","NA"
"-101.08","56.86","LYNN LAKE","5061645","2019-03-07 09:00","2019","03","07","09:00","-13.6","","-18.5","","67","","0.0","","27","","18","","16.1","","97.07","","","","-22","","NA"
"-101.08","56.86","LYNN LAKE","5061645","2019-03-07 10:00","2019","03","07","10:00","-11.6","","-17.5","","62","","0.0","","27","","17","","16.1","","97.03","","","","-19","","NA"
"-101.08","56.86","LYNN LAKE","5061645","2019-03-07 11:00","2019","03","07","11:00","-9.9","","-17.0","","57","","0.0","","28","","17","","16.1","","96.98","","","","-17","","NA"
"-101.08","56.86","LYNN LAKE","5061645","2019-03-07 12:00","2019","03","07","12:00","-8.1","","-16.2","","53","","0.0","","27","","11","","16.1","","96.93","","","","-13","","NA"
"-101.08","56.86","LYNN LAKE","5061645","2019-03-07 13:00","2019","03","07","13:00","-6.8","","-15.8","","49","","0.0","","25","","22","","16.1","","96.88","","","","-14","","NA"
"-101.08","56.86","LYNN LAKE","5061645","2019-03-07 14:00","2019","03","07","14:00","-5.8","","-16.2","","44","","0.0","","27","","17","","16.1","","96.81","","","","-12","","NA"
"-101.08","56.86","LYNN LAKE","5061645","2019-03-07 15:00","2019","03","07","15:00","-5.5","","-16.5","","42","","0.0","","27","","21","","16.1","","96.73","","","","-12","","NA"
"-101.08","56.86","LYNN LAKE","5061645","2019-03-07 16:00","2019","03","07","16:00","-5.5","","-16.0","","44","","0.0","","29","","15","","16.1","","96.72","","","","-11","","NA"
"-101.08","56.86","LYNN LAKE","5061645","2019-03-07 17:00","2019","03","07","17:00","-6.0","","-15.4","","48","","0.0","","29","","21","","16.1","","96.71","","","","-13","","NA"
"-101.08","56.86","LYNN LAKE","5061645","2019-03-07 18:00","2019","03","07","18:00","-6.6","","-15.3","","50","","0.0","","27","","9","","16.1","","96.71","","","","-11","","NA"
"-101.08","56.86","LYNN LAKE","5061645","2019-03-07 19:00","2019","03","07","19:00","-9.7","","-15.7","","62","","0.0","","23","","5","","16.1","","96.70","","","","-13","","NA"
"-101.08","56.86","LYNN LAKE","5061645","2019-03-07 20:00","2019","03","07","20:00","-9.7","","-15.7","","62","","0.0","","26","","11","","16.1","","96.69","","","","-15","","NA"
"-101.08","56.86","LYNN LAKE","5061645","2019-03-07 21:00","2019","03","07","21:00","-10.5","","-16.3","","63","","0.0","","27","","9","","16.1","","96.67","","","","-15","","NA"
"-101.08","56.86","LYNN LAKE","5061645","2019-03-07 22:00","2019","03","07","22:00","-12.6","","-17.2","","69","","0.0","","26","","9","","16.1","","96.67","","","","-18","","NA"
"-101.08","56.86","LYNN LAKE","5061645","2019-03-07 23:00","2019","03","07","23:00","-13.7","","-18.1","","70","","0.0","","28","","11","","16.1","","96.67","","","","-20","","NA"
"-101.08","56.86","LYNN LAKE","5061645","2019-03-08 00:00","2019","03","08","00:00","-16.2","","-19.4","","76","","0.0","","27","","4","","16.1","","96.66","","","","-19","","NA"
"-101.08","56.86","LYNN LAKE","5061645","2019-03-08 01:00","2019","03","08","01:00","-18.4","","-19.8","","89","","0.0","","24","","4","","16.1","","96.65","","","","-22","","NA"
"-101.08","56.86","LYNN LAKE","5061645","2019-03-08 02:00","2019","03","08","02:00","-21.1","","-22.6","","88","","0.0","","31","","4","","16.1","","96.66","","","","-25","","NA"
"-101.08","56.86","LYNN LAKE","5061645","2019-03-08 03:00","2019","03","08","03:00","-23.1","","-25.0","","85","","0.0","","","","0","","16.1","","96.68","","","","","","NA"
"-101.08","56.86","LYNN LAKE","5061645","2019-03-08 04:00","2019","03","08","04:00","-24.1","","-26.1","","84","","0.0","","","","0","","16.1","","96.66","","","","","","NA"
"-101.08","56.86","LYNN LAKE","5061645","2019-03-08 05:00","2019","03","08","05:00","-24.8","","-26.4","","87","","0.0","","1","","4","","16.1","","96.64","","","","-29","","NA"
"-101.08","56.86","LYNN LAKE","5061645","2019-03-08 06:00","2019","03","08","06:00","-25.6","","-28.0","","81","","0.0","","","","0","","16.1","","96.64","","","","","","NA"
"-101.08","56.86","LYNN LAKE","5061645","2019-03-08 07:00","2019","03","08","07:00","-25.8","","-28.0","","82","","0.0","","5","","5","","16.1","","96.59","","","","-31","","NA"
"-101.08","56.86","LYNN LAKE","5061645","2019-03-08 08:00","2019","03","08","08:00","-25.0","","-26.7","","86","","0.0","","","","0","","16.1","","96.57","","","","","","NA"
"-101.08","56.86","LYNN LAKE","5061645","2019-03-08 09:00","2019","03","08","09:00","-21.1","","-23.0","","85","","0.0","","6","","4","","16.1","","96.59","","","","-25","","NA"
"-101.08","56.86","LYNN LAKE","5061645","2019-03-08 10:00","2019","03","08","10:00","-17.3","","-19.3","","85","","0.0","","14","","8","","16.1","","96.58","","","","-23","","NA"
"-101.08","56.86","LYNN LAKE","5061645","2019-03-08 11:00","2019","03","08","11:00","-13.3","","-18.0","","68","","0.0","","14","","5","","16.1","","96.56","","","","-17","","NA"
"-101.08","56.86","LYNN LAKE","5061645","2019-03-08 12:00","2019","03","08","12:00","-10.7","","-17.0","","60","","0.0","","13","","8","","16.1","","96.51","","","","-15","","NA"
"-101.08","56.86","LYNN LAKE","5061645","2019-03-08 13:00","2019","03","08","13:00","-7.3","","-15.8","","51","","0.0","","12","","8","","16.1","","96.44","","","","-11","","NA"
"-101.08","56.86","LYNN LAKE","5061645","2019-03-08 14:00","2019","03","08","14:00","-4.7","","-15.9","","42","","0.0","","18","","11","","16.1","","96.35","","","","-9","","NA"
"-101.08","56.86","LYNN LAKE","5061645","2019-03-08 15:00","2019","03","08","15:00","-4.5","","-15.0","","44","","0.0","","14","","11","","16.1","","96.29","","","","-9","","NA"
"-101.08","56.86","LYNN LAKE","5061645","2019-03-08 16:00","2019","03","08","16:00","-4.0","","-15.7","","40","","0.0","","20","","8","","16.1","","96.25","","","","-7","","NA"
"-101.08","56.86","LYNN LAKE","5061645","2019-03-08 17:00","2019","03","08","17:00","-4.7","","-15.6","","43","","0.0","","13","","8","","16.1","","96.25","","","","-8","","NA"
"-101.08","56.86","LYNN LAKE","5061645","2019-03-08 18:00","2019","03","08","18:00","-4.7","","-16.3","","40","","0.0","","13","","5","","16.1","","96.24","","","","-7","","NA"
"-101.08","56.86","LYNN LAKE","5061645","2019-03-08 19:00","2019","03","08","19:00","-8.0","","-16.4","","51","","0.0","","12","","8","","16.1","","96.23","","","","-12","","NA"
"-101.08","56.86","LYNN LAKE","5061645","2019-03-08 20:00","2019","03","08","20:00","-8.2","","-16.7","","51","","0.0","","14","","8","","16.1","","96.20","","","","-12","","NA"
"-101.08","56.86","LYNN LAKE","5061645","2019-03-08 21:00","2019","03","08","21:00","-11.6","","-17.5","","62","","0.0","","5","","8","","16.1","","96.18","","","","-16","","NA"
"-101.08","56.86","LYNN LAKE","5061645","2019-03-08 22:00","2019","03","08","22:00","-13.4","","-17.6","","71","","0.0","","7","","8","","16.1","","96.16","","","","-18","","NA"
"-101.08","56.86","LYNN LAKE","5061645","2019-03-08 23:00","2019","03","08","23:00","-13.8","","-17.1","","77","","0.0","","9","","5","","16.1","","96.13","","","","-17","","NA"
"-101.08","56.86","LYNN LAKE","5061645","2019-03-09 00:00","2019","03","09","00:00","-15.4","","-18.0","","81","","0.0","","5","","5","","16.1","","96.14","","","","-19","","NA"
"-101.08","56.86","LYNN LAKE","5061645","2019-03-09 01:00","2019","03","09","01:00","-15.9","","-18.0","","84","","0.0","","","","0","","16.1","","96.12","","","","","","NA"
"-101.08","56.86","LYNN LAKE","5061645","2019-03-09 02:00","2019","03","09","02:00","-15.9","","-17.9","","85","","0.0","","3","","5","","16.1","","96.10","","","","-20","","NA"
"-101.08","56.86","LYNN LAKE","5061645","2019-03-09 03:00","2019","03","09","03:00","-16.9","","-18.7","","86","","0.0","","1","","8","","16.1","","96.11","","","","-23","","NA"
"-101.08","56.86","LYNN LAKE","5061645","2019-03-09 04:00","2019","03","09","04:00","-16.9","","-18.7","","86","","0.0","","1","","5","","16.1","","96.11","","","","-21","","NA"
"-101.08","56.86","LYNN LAKE","5061645","2019-03-09 05:00","2019","03","09","05:00","-16.7","","-18.5","","86","","0.0","","2","","9","","16.1","","96.15","","","","-23","","NA"
"-101.08","56.86","LYNN LAKE","5061645","2019-03-09 06:00","2019","03","09","06:00","-17.0","","-18.8","","86","","0.0","","3","","8","","16.1","","96.16","","","","-23","","NA"
"-101.08","56.86","LYNN LAKE","5061645","2019-03-09 07:00","2019","03","09","07:00","-18.5","","-20.0","","88","","0.0","","1","","9","","16.1","","96.25","","","","-25","","NA"
"-101.08","56.86","LYNN LAKE","5061645","2019-03-09 08:00","2019","03","09","08:00","-18.8","","-20.5","","87","","0.0","","4","","9","","16.1","","96.31","","","","-25","","NA"
"-101.08","56.86","LYNN LAKE","5061645","2019-03-09 09:00","2019","03","09","09:00","-18.4","","-20.4","","85","","0.0","","3","","9","","16.1","","96.36","","","","-25","","NA"
"-101.08","56.86","LYNN LAKE","5061645","2019-03-09 10:00","2019","03","09","10:00","-16.7","","-19.7","","78","","0.0","","2","","13","","16.1","","96.42","","","","-24","","NA"
"-101.08","56.86","LYNN LAKE","5061645","2019-03-09 11:00","2019","03","09","11:00","-14.4","","-18.6","","71","","0.0","","2","","18","","16.1","","96.50","","","","-23","","NA"
"-101.08","56.86","LYNN LAKE","5061645","2019-03-09 12:00","2019","03","09","12:00","-12.7","","-18.1","","65","","0.0","","3","","17","","16.1","","96.56","","","","-21","","NA"
"-101.08","56.86","LYNN LAKE","5061645","2019-03-09 13:00","2019","03","09","13:00","-11.3","","-17.3","","62","","0.0","","3","","15","","16.1","","96.63","","","","-18","","NA"
"-101.08","56.86","LYNN LAKE","5061645","2019-03-09 14:00","2019","03","09","14:00","-9.7","","-16.6","","58","","0.0","","4","","18","","16.1","","96.69","","","","-17","","NA"
"-101.08","56.86","LYNN LAKE","5061645","2019-03-09 15:00","2019","03","09","15:00","-9.0","","-16.0","","57","","0.0","","2","","17","","16.1","","96.75","","","","-16","","NA"
"-101.08","56.86","LYNN LAKE","5061645","2019-03-09 16:00","2019","03","09","16:00","-8.7","","-16.2","","55","","0.0","","4","","21","","16.1","","96.84","","","","-16","","NA"
"-101.08","56.86","LYNN LAKE","5061645","2019-03-09 17:00","2019","03","09","17:00","-9.0","","-16.1","","57","","0.0","","5","","18","","16.1","","96.95","","","","-16","","NA"
"-101.08","56.86","LYNN LAKE","5061645","2019-03-09 18:00","2019","03","09","18:00","-10.3","","-16.5","","61","","0.0","","5","","13","","16.1","","97.09","","","","-17","","NA"
"-101.08","56.86","LYNN LAKE","5061645","2019-03-09 19:00","2019","03","09","19:00","-12.5","","-17.4","","67","","0.0","","5","","9","","16.1","","97.18","","","","-18","","NA"
"-101.08","56.86","LYNN LAKE","5061645","2019-03-09 20:00","2019","03","09","20:00","-14.0","","-17.8","","73","","0.0","","4","","15","","16.1","","97.25","","","","-22","","NA"
"-101.08","56.86","LYNN LAKE","5061645","2019-03-09 21:00","2019","03","09","21:00","-15.7","","-18.6","","79","","0.0","","5","","9","","16.1","","97.30","","","","-22","","NA"
"-101.08","56.86","LYNN LAKE","5061645","2019-03-09 22:00","2019","03","09","22:00","-16.8","","-18.8","","85","","0.0","","5","","11","","16.1","","97.32","","","","-24","","NA"
"-101.08","56.86","LYNN LAKE","5061645","2019-03-09 23:00","2019","03","09","23:00","-17.9","","-19.6","","87","","0.0","","3","","11","","16.1","","97.41","","","","-25","","NA"
"-101.08","56.86","LYNN LAKE","5061645","2019-03-10 00:00","2019","03","10","00:00","-17.4","","-19.2","","86","","0.0","","2","","8","","16.1","","97.45","","","","-23","","NA"
"-101.08","56.86","LYNN LAKE","5061645","2019-03-10 01:00","2019","03","10","01:00","-16.8","","-18.9","","84","","0.0","","3","","8","","16.1","","97.50","","","","-22","","NA"
"-101.08","56.86","LYNN LAKE","5061645","2019-03-10 02:00","2019","03","10","02:00","-16.7","","-18.8","","84","","0.0","","3","","8","","16.1","","97.58","","","","-22","","NA"
"-101.08","56.86","LYNN LAKE","5061645","2019-03-10 03:00","2019","03","10","03:00","-16.4","","-18.7","","83","","0.0","","5","","5","","16.1","","97.59","","","","-20","","NA"
"-101.08","56.86","LYNN LAKE","5061645","2019-03-10 04:00","2019","03","10","04:00","-16.4","","-18.7","","83","","0.0","","4","","5","","16.1","","97.63","","","","-20","","NA"
"-101.08","56.86","LYNN LAKE","5061645","2019-03-10 05:00","2019","03","10","05:00","-16.6","","-18.7","","84","","0.0","","1","","4","","16.1","","97.66","","","","-20","","NA"
"-101.08","56.86","LYNN LAKE","5061645","2019-03-10 06:00","2019","03","10","06:00","-16.7","","-18.8","","84","","0.0","","3","","5","","16.1","","97.68","","","","-21","","Snow"
"-101.08","56.86","LYNN LAKE","5061645","2019-03-10 07:00","2019","03","10","07:00","-16.9","","-19.0","","84","","0.0","","3","","4","","16.1","","97.71","","","","-20","","NA"
"-101.08","56.86","LYNN LAKE","5061645","2019-03-10 08:00","2019","03","10","08:00","-16.9","","-19.0","","84","","0.0","","6","","5","","16.1","","97.74","","","","-21","","Snow"
"-101.08","56.86","LYNN LAKE","5061645","2019-03-10 09:00","2019","03","10","09:00","-16.7","","-19.1","","82","","0.0","","7","","8","","16.1","","97.78","","","","-22","","Snow"
"-101.08","56.86","LYNN LAKE","5061645","2019-03-10 10:00","2019","03","10","10:00","-16.4","","-18.9","","81","","0.0","","10","","8","","16.1","","97.80","","","","-22","","Snow"
"-101.08","56.86","LYNN LAKE","5061645","2019-03-10 11:00","2019","03","10","11:00","-15.2","","-18.2","","78","","0.0","","15","","9","","16.1","","97.79","","","","-21","","Snow"
"-101.08","56.86","LYNN LAKE","5061645","2019-03-10 12:00","2019","03","10","12:00","-13.4","","-17.5","","72","","0.0","","16","","9","","16.1","","97.75","","","","-19","","NA"
"-101.08","56.86","LYNN LAKE","5061645","2019-03-10 13:00","2019","03","10","13:00","-12.4","","-17.7","","65","","0.0","","13","","15","","16.1","","97.69","","","","-20","","NA"
"-101.08","56.86","LYNN LAKE","5061645","2019-03-10 14:00","2019","03","10","14:00","-11.2","","-17.7","","59","","0.0","","19","","8","","16.1","","97.64","","","","-16","","NA"
"-101.08","56.86","LYNN LAKE","5061645","2019-03-10 15:00","2019","03","10","15:00","-10.5","","-17.4","","58","","0.0","","16","","13","","16.1","","97.56","","","","-17","","NA"
"-101.08","56.86","LYNN LAKE","5061645","2019-03-10 16:00","2019","03","10","16:00","-9.9","","-17.1","","56","","0.0","","20","","13","","16.1","","97.50","","","","-16","","NA"
"-101.08","56.86","LYNN LAKE","5061645","2019-03-10 17:00","2019","03","10","17:00","-10.2","","-17.0","","58","","0.0","","20","","11","","16.1","","97.48","","","","-16","","NA"
"-101.08","56.86","LYNN LAKE","5061645","2019-03-10 18:00","2019","03","10","18:00","-11.0","","-17.1","","61","","0.0","","20","","13","","16.1","","97.38","","","","-17","","NA"
"-101.08","56.86","LYNN LAKE","5061645","2019-03-10 19:00","2019","03","10","19:00","-12.2","","-17.2","","67","","0.0","","17","","9","","16.1","","97.27","","","","-17","","NA"
"-101.08","56.86","LYNN LAKE","5061645","2019-03-10 20:00","2019","03","10","20:00","-13.5","","-18.2","","68","","0.0","","17","","11","","16.1","","97.25","","","","-20","","NA"
"-101.08","56.86","LYNN LAKE","5061645","2019-03-10 21:00","2019","03","10","21:00","-13.8","","-17.8","","72","","0.0","","20","","11","","16.1","","97.21","","","","-20","","NA"
"-101.08","56.86","LYNN LAKE","5061645","2019-03-10 22:00","2019","03","10","22:00","-13.6","","-17.4","","73","","0.0","","19","","13","","16.1","","97.10","","","","-21","","NA"
"-101.08","56.86","LYNN LAKE","5061645","2019-03-10 23:00","2019","03","10","23:00","-13.8","","-17.2","","76","","0.0","","19","","11","","16.1","","97.04","","","","-20","","NA"
"-101.08","56.86","LYNN LAKE","5061645","2019-03-11 00:00","2019","03","11","00:00","-13.9","","-17.3","","76","","0.0","","19","","17","","16.1","","96.96","","","","-22","","NA"
"-101.08","56.86","LYNN LAKE","5061645","2019-03-11 01:00","2019","03","11","01:00","-14.5","","-17.5","","78","","0.0","","19","","11","","16.1","","96.89","","","","-21","","NA"
"-101.08","56.86","LYNN LAKE","5061645","2019-03-11 02:00","2019","03","11","02:00","-14.6","","-17.3","","80","","0.0","","19","","15","","16.1","","96.80","","","","-22","","NA"
"-101.08","56.86","LYNN LAKE","5061645","2019-03-11 03:00","2019","03","11","03:00","-14.5","","-17.0","","82","","0.0","","18","","15","","16.1","","96.64","","","","-22","","NA"
"-101.08","56.86","LYNN LAKE","5061645","2019-03-11 04:00","2019","03","11","04:00","-14.5","","-16.8","","83","","0.0","","20","","17","","16.1","","96.54","","","","-23","","NA"
"-101.08","56.86","LYNN LAKE","5061645","2019-03-11 05:00","2019","03","11","05:00","-14.4","","-16.6","","83","","0.0","","17","","15","","16.1","","96.41","","","","-22","","NA"
"-101.08","56.86","LYNN LAKE","5061645","2019-03-11 06:00","2019","03","11","06:00","-13.4","","-15.9","","82","","0.0","","18","","17","","16.1","","96.25","","","","-21","","NA"
"-101.08","56.86","LYNN LAKE","5061645","2019-03-11 07:00","2019","03","11","07:00","-13.1","","-15.6","","82","","0.0","","20","","17","","16.1","","96.19","","","","-21","","NA"
"-101.08","56.86","LYNN LAKE","5061645","2019-03-11 08:00","2019","03","11","08:00","-12.3","","-15.1","","80","","0.0","","19","","15","","16.1","","96.07","","","","-20","","NA"
"-101.08","56.86","LYNN LAKE","5061645","2019-03-11 09:00","2019","03","11","09:00","-10.6","","-14.2","","75","","0.0","","20","","17","","16.1","","95.97","","","","-18","","NA"
"-101.08","56.86","LYNN LAKE","5061645","2019-03-11 10:00","2019","03","11","10:00"
"-101.08","56.86","LYNN LAKE","5061645","2019-03-11 11:00","2019","03","11","11:00","-6.9","","-12.5","","65","","0.0","","21","","13","","16.1","","95.78","","","","-12","","NA"
"-101.08","56.86","LYNN LAKE","5061645","2019-03-11 12:00","2019","03","11","12:00","-4.6","","-11.7","","58","","0.0","","22","","26","","16.1","","95.71","","","","-12","","NA"
"-101.08","56.86","LYNN LAKE","5061645","2019-03-11 13:00","2019","03","11","13:00","-3.5","","-11.4","","55","","0.0","","23","","21","","16.1","","95.66","","","","-10","","NA"
"-101.08","56.86","LYNN LAKE","5061645","2019-03-11 14:00","2019","03","11","14:00","-2.0","","-10.4","","53","","0.0","","23","","15","","16.1","","95.58","","","","-7","","NA"
"-101.08","56.86","LYNN LAKE","5061645","2019-03-11 15:00","2019","03","11","15:00","-0.6","","-9.8","","50","","0.0","","23","","22","","16.1","","95.53","","","","-6","","NA"
"-101.08","56.86","LYNN LAKE","5061645","2019-03-11 16:00","2019","03","11","16:00","0.8","","-9.1","","48","","0.0","","24","","22","","16.1","","95.53","","","","","","NA"
"-101.08","56.86","LYNN LAKE","5061645","2019-03-11 17:00","2019","03","11","17:00","1.7","","-8.0","","49","","0.0","","23","","21","","16.1","","95.49","","","","","","NA"
"-101.08","56.86","LYNN LAKE","5061645","2019-03-11 18:00","2019","03","11","18:00","0.7","","-8.3","","51","","0.0","","22","","11","","16.1","","95.51","","","","","","NA"
"-101.08","56.86","LYNN LAKE","5061645","2019-03-11 19:00","2019","03","11","19:00","-1.3","","-8.4","","59","","0.0","","22","","11","","16.1","","95.51","","","","-5","","NA"
"-101.08","56.86","LYNN LAKE","5061645","2019-03-11 20:00","2019","03","11","20:00","-2.2","","-8.3","","63","","0.0","","22","","13","","16.1","","95.54","","","","-7","","NA"
"-101.08","56.86","LYNN LAKE","5061645","2019-03-11 21:00","2019","03","11","21:00","-3.0","","-8.3","","67","","0.0","","23","","13","","16.1","","95.55","","","","-8","","NA"
"-101.08","56.86","LYNN LAKE","5061645","2019-03-11 22:00","2019","03","11","22:00","-3.3","","-8.2","","69","","0.0","","23","","13","","16.1","","95.54","","","","-8","","NA"
"-101.08","56.86","LYNN LAKE","5061645","2019-03-11 23:00","2019","03","11","23:00","-4.2","","-8.4","","73","","0.0","","23","","13","","16.1","","95.51","","","","-9","","NA"
"-101.08","56.86","LYNN LAKE","5061645","2019-03-12 00:00","2019","03","12","00:00","-5.3","","-8.7","","77","","0.0","","23","","11","","16.1","","95.52","","","","-10","","NA"
"-101.08","56.86","LYNN LAKE","5061645","2019-03-12 01:00","2019","03","12","01:00","-6.0","","-8.9","","80","","0.0","","24","","9","","16.1","","95.50","","","","-10","","NA"
"-101.08","56.86","LYNN LAKE","5061645","2019-03-12 02:00","2019","03","12","02:00","-7.0","","-9.3","","84","","0.0","","24","","13","","16.1","","95.48","","","","-13","","NA"
"-101.08","56.86","LYNN LAKE","5061645","2019-03-12 03:00","2019","03","12","03:00","-6.7","","-9.1","","83","","0.0","","23","","13","","16.1","","95.51","","","","-12","","NA"
"-101.08","56.86","LYNN LAKE","5061645","2019-03-12 04:00","2019","03","12","04:00","-6.3","","-8.7","","83","","0.0","","24","","9","","16.1","","95.46","","","","-11","","NA"
"-101.08","56.86","LYNN LAKE","5061645","2019-03-12 05:00","2019","03","12","05:00","-6.6","","-8.7","","85","","0.0","","","","0","","16.1","","95.43","","","","","","NA"
"-101.08","56.86","LYNN LAKE","5061645","2019-03-12 06:00","2019","03","12","06:00","-7.3","","-9.4","","85","","0.0","","","","0","","16.1","","95.43","","","","","","NA"
"-101.08","56.86","LYNN LAKE","5061645","2019-03-12 07:00","2019","03","12","07:00","-8.5","","-9.7","","91","","0.0","","14","","8","","16.1","","95.44","","","","-13","","NA"
"-101.08","56.86","LYNN LAKE","5061645","2019-03-12 08:00","2019","03","12","08:00","-8.9","","-10.3","","90","","0.0","","18","","5","","16.1","","95.42","","","","-12","","NA"
"-101.08","56.86","LYNN LAKE","5061645","2019-03-12 09:00","2019","03","12","09:00","-6.5","","-9.1","","82","","0.0","","17","","4","","16.1","","95.38","","","","-8","","NA"
"-101.08","56.86","LYNN LAKE","5061645","2019-03-12 10:00","2019","03","12","10:00","-2.2","","-7.5","","67","","0.0","","21","","13","","16.1","","95.38","","","","-7","","NA"
"-101.08","56.86","LYNN LAKE","5061645","2019-03-12 11:00","2019","03","12","11:00","1.9","","-6.5","","54","","0.0","","15","","9","","16.1","","95.32","","","","","","NA"
"-101.08","56.86","LYNN LAKE","5061645","2019-03-12 12:00","2019","03","12","12:00","4.9","","-7.0","","42","","0.5","","21","","17","","16.1","","95.30","","","","","","NA"
"-101.08","56.86","LYNN LAKE","5061645","2019-03-12 13:00","2019","03","12","13:00","5.1","","-6.7","","42","","1.0","","22","","15","","16.1","","95.32","","","","","","NA"
"-101.08","56.86","LYNN LAKE","5061645","2019-03-12 14:00","2019","03","12","14:00","5.7","","-7.0","","40","","2.0","","26","","15","","16.1","","95.33","","","","","","NA"
"-101.08","56.86","LYNN LAKE","5061645","2019-03-12 15:00","2019","03","12","15:00","5.5","","-6.3","","42","","1.5","","30","","11","","16.1","","95.36","","","","","","NA"
"-101.08","56.86","LYNN LAKE","5061645","2019-03-12 16:00","2019","03","12","16:00","5.5","","-5.2","","46","","1.2","","33","","9","","16.1","","95.37","","","","","","NA"
"-101.08","56.86","LYNN LAKE","5061645","2019-03-12 17:00","2019","03","12","17:00","3.8","","-1.3","","69","","1.0","","15","","13","","16.1","","95.38","","","","","","NA"
"-101.08","56.86","LYNN LAKE","5061645","2019-03-12 18:00","2019","03","12","18:00","3.2","","-1.4","","72","","1.0","","14","","9","","16.1","","95.40","","","","","","NA"
"-101.08","56.86","LYNN LAKE","5061645","2019-03-12 19:00","2019","03","12","19:00","2.4","","-1.8","","74","","0.2","","22","","4","","16.1","","95.47","","","","","","NA"
"-101.08","56.86","LYNN LAKE","5061645","2019-03-12 20:00","2019","03","12","20:00","1.4","","-1.8","","79","","0.2","","22","","5","","16.1","","95.52","","","","","","NA"
"-101.08","56.86","LYNN LAKE","5061645","2019-03-12 21:00","2019","03","12","21:00","1.6","","-2.0","","77","","0.0","","31","","9","","16.1","","95.59","","","","","","NA"
"-101.08","56.86","LYNN LAKE","5061645","2019-03-12 22:00","2019","03","12","22:00","1.2","","-1.0","","85","","0.2","","1","","5","","16.1","","95.64","","","","","","NA"
"-101.08","56.86","LYNN LAKE","5061645","2019-03-12 23:00","2019","03","12","23:00","-0.2","","-1.1","","94","","0.0","","31","","8","","16.1","","95.70","","","","-3","","NA"
"-101.08","56.86","LYNN LAKE","5061645","2019-03-13 00:00","2019","03","13","00:00","-1.9","","-1.9","","100","","0.0","","32","","11","","16.1","","95.79","","","","-6","","NA"
"-101.08","56.86","LYNN LAKE","5061645","2019-03-13 01:00","2019","03","13","01:00","-1.1","","-1.1","","100","","0.0","","1","","11","","2.0","","95.86","","","","-5","","Fog"
"-101.08","56.86","LYNN LAKE","5061645","2019-03-13 02:00","2019","03","13","02:00","-1.8","","","M","","M","0.0","","34","","11","","1.0","","95.98","","","","-6","","NA"
"-101.08","56.86","LYNN LAKE","5061645","2019-03-13 03:00","2019","03","13","03:00","-2.6","","","M","","M","0.0","","33","","8","","0.4","","96.03","","","","-6","","Freezing Fog"
"-101.08","56.86","LYNN LAKE","5061645","2019-03-13 04:00","2019","03","13","04:00","-3.5","","","M","","M","0.0","","","M","4","","0.4","","96.09","","","","-5","","Freezing Fog"
"-101.08","56.86","LYNN LAKE","5061645","2019-03-13 05:00","2019","03","13","05:00","-4.2","","-4.2","","100","","0.0","","31","","13","","2.0","","96.16","","","","-9","","Snow"
"-101.08","56.86","LYNN LAKE","5061645","2019-03-13 06:00","2019","03","13","06:00","-5.8","","-5.8","","100","","0.0","","29","","5","","16.1","","96.27","","","","-8","","NA"
"-101.08","56.86","LYNN LAKE","5061645","2019-03-13 07:00","2019","03","13","07:00","-6.8","","-6.9","","99","","0.0","","29","","9","","16.1","","96.38","","","","-11","","NA"
"-101.08","56.86","LYNN LAKE","5061645","2019-03-13 08:00","2019","03","13","08:00","-6.2","","-6.4","","99","","0.0","","30","","15","","16.1","","96.45","","","","-12","","NA"
"-101.08","56.86","LYNN LAKE","5061645","2019-03-13 09:00","2019","03","13","09:00","-4.9","","-5.9","","93","","0.0","","30","","21","","16.1","","96.53","","","","-12","","NA"
"-101.08","56.86","LYNN LAKE","5061645","2019-03-13 10:00","2019","03","13","10:00","-3.6","","-6.1","","83","","0.0","","32","","15","","16.1","","96.61","","","","-9","","NA"
"-101.08","56.86","LYNN LAKE","5061645","2019-03-13 11:00","2019","03","13","11:00","-2.1","","-6.3","","73","","0.0","","31","","17","","16.1","","96.70","","","","-7","","NA"
"-101.08","56.86","LYNN LAKE","5061645","2019-03-13 12:00","2019","03","13","12:00","-1.0","","-6.5","","67","","0.0","","28","","17","","16.1","","96.74","","","","-6","","NA"
"-101.08","56.86","LYNN LAKE","5061645","2019-03-13 13:00","2019","03","13","13:00","-0.4","","-6.7","","63","","0.0","","29","","21","","16.1","","96.80","","","","-6","","NA"
"-101.08","56.86","LYNN LAKE","5061645","2019-03-13 14:00","2019","03","13","14:00","0.7","","-6.4","","59","","0.0","","28","","21","","16.1","","96.81","","","","","","NA"
"-101.08","56.86","LYNN LAKE","5061645","2019-03-13 15:00","2019","03","13","15:00","-0.3","","-6.5","","63","","0.0","","30","","22","","16.1","","96.91","","","","-6","","NA"
"-101.08","56.86","LYNN LAKE","5061645","2019-03-13 16:00","2019","03","13","16:00","0.0","","-6.4","","62","","0.0","","29","","18","","16.1","","96.98","","","","-5","","NA"
"-101.08","56.86","LYNN LAKE","5061645","2019-03-13 17:00","2019","03","13","17:00","-0.5","","-6.6","","64","","0.0","","31","","13","","16.1","","97.05","","","","-5","","NA"
"-101.08","56.86","LYNN LAKE","5061645","2019-03-13 18:00","2019","03","13","18:00","-1.8","","-6.8","","69","","0.0","","31","","11","","16.1","","97.12","","","","-6","","NA"
"-101.08","56.86","LYNN LAKE","5061645","2019-03-13 19:00","2019","03","13","19:00","-2.6","","-7.0","","72","","0.0","","30","","8","","16.1","","97.18","","","","-6","","NA"
"-101.08","56.86","LYNN LAKE","5061645","2019-03-13 20:00","2019","03","13","20:00","-2.7","","-6.5","","75","","0.0","","31","","9","","16.1","","97.22","","","","-6","","NA"
"-101.08","56.86","LYNN LAKE","5061645","2019-03-13 21:00","2019","03","13","21:00","-3.0","","-7.2","","73","","0.0","","31","","15","","16.1","","97.30","","","","-8","","NA"
"-101.08","56.86","LYNN LAKE","5061645","2019-03-13 22:00","2019","03","13","22:00","-3.3","","-8.2","","69","","0.0","","31","","18","","16.1","","97.32","","","","-9","","NA"
"-101.08","56.86","LYNN LAKE","5061645","2019-03-13 23:00","2019","03","13","23:00","-3.9","","-8.2","","72","","0.0","","32","","17","","16.1","","97.36","","","","-10","","NA"
"-101.08","56.86","LYNN LAKE","5061645","2019-03-14 00:00","2019","03","14","00:00","-4.6","","-8.7","","73","","0.0","","34","","18","","16.1","","97.41","","","","-11","","NA"
"-101.08","56.86","LYNN LAKE","5061645","2019-03-14 01:00","2019","03","14","01:00","-5.2","","-9.0","","75","","0.0","","33","","17","","16.1","","97.43","","","","-11","","NA"
"-101.08","56.86","LYNN LAKE","5061645","2019-03-14 02:00","2019","03","14","02:00","-5.6","","-9.2","","76","","0.0","","34","","13","","16.1","","97.47","","","","-11","","NA"
"-101.08","56.86","LYNN LAKE","5061645","2019-03-14 03:00","2019","03","14","03:00","-6.0","","-9.2","","78","","0.0","","36","","11","","16.1","","97.48","","","","-11","","NA"
"-101.08","56.86","LYNN LAKE","5061645","2019-03-14 04:00","2019","03","14","04:00","-6.5","","-9.6","","79","","0.0","","33","","11","","16.1","","97.54","","","","-11","","NA"
"-101.08","56.86","LYNN LAKE","5061645","2019-03-14 05:00","2019","03","14","05:00","-6.8","","-9.8","","79","","0.0","","32","","9","","16.1","","97.51","","","","-11","","Snow"
"-101.08","56.86","LYNN LAKE","5061645","2019-03-14 06:00","2019","03","14","06:00","-6.9","","-9.8","","80","","0.0","","29","","9","","16.1","","97.56","","","","-11","","Snow"
"-101.08","56.86","LYNN LAKE","5061645","2019-03-14 07:00","2019","03","14","07:00","-7.5","","-10.3","","81","","0.0","","31","","9","","16.1","","97.54","","","","-12","","NA"
"-101.08","56.86","LYNN LAKE","5061645","2019-03-14 08:00","2019","03","14","08:00","-7.3","","-10.0","","81","","0.0","","32","","11","","16.1","","97.51","","","","-12","","NA"
"-101.08","56.86","LYNN LAKE","5061645","2019-03-14 09:00","2019","03","14","09:00","-6.5","","-9.7","","78","","0.0","","32","","17","","16.1","","97.47","","","","-13","","NA"
"-101.08","56.86","LYNN LAKE","5061645","2019-03-14 10:00","2019","03","14","10:00","-6.4","","-9.1","","81","","0.0","","31","","13","","16.1","","97.45","","","","-12","","Snow"
"-101.08","56.86","LYNN LAKE","5061645","2019-03-14 11:00","2019","03","14","11:00","-5.4","","-10.0","","70","","0.0","","32","","17","","16.1","","97.45","","","","-11","","NA"
"-101.08","56.86","LYNN LAKE","5061645","2019-03-14 12:00","2019","03","14","12:00","-5.4","","-10.2","","69","","0.0","","33","","21","","16.1","","97.45","","","","-12","","NA"
"-101.08","56.86","LYNN LAKE","5061645","2019-03-14 13:00","2019","03","14","13:00","-5.5","","-10.6","","67","","0.0","","33","","17","","16.1","","97.48","","","","-12","","NA"
"-101.08","56.86","LYNN LAKE","5061645","2019-03-14 14:00","2019","03","14","14:00","-5.6","","-11.3","","64","","0.0","","31","","21","","16.1","","97.48","","","","-12","","NA"
"-101.08","56.86","LYNN LAKE","5061645","2019-03-14 15:00","2019","03","14","15:00","-6.1","","-11.9","","64","","0.0","","34","","24","","16.1","","97.52","","","","-14","","NA"
"-101.08","56.86","LYNN LAKE","5061645","2019-03-14 16:00","2019","03","14","16:00","-6.9","","-12.9","","63","","0.0","","34","","17","","16.1","","97.56","","","","-13","","NA"
"-101.08","56.86","LYNN LAKE","5061645","2019-03-14 17:00","2019","03","14","17:00","-7.5","","-13.9","","61","","0.0","","33","","18","","16.1","","97.60","","","","-14","","NA"
"-101.08","56.86","LYNN LAKE","5061645","2019-03-14 18:00","2019","03","14","18:00","-9.6","","-15.7","","61","","0.0","","35","","18","","16.1","","97.66","","","","-17","","NA"
"-101.08","56.86","LYNN LAKE","5061645","2019-03-14 19:00","2019","03","14","19:00","-11.1","","-16.5","","65","","0.0","","35","","17","","16.1","","97.70","","","","-19","","NA"
"-101.08","56.86","LYNN LAKE","5061645","2019-03-14 20:00","2019","03","14","20:00","-13.0","","-17.4","","70","","0.0","","35","","9","","16.1","","97.77","","","","-18","","NA"
"-101.08","56.86","LYNN LAKE","5061645","2019-03-14 21:00","2019","03","14","21:00","-14.1","","-18.1","","72","","0.0","","35","","11","","16.1","","97.81","","","","-21","","NA"
"-101.08","56.86","LYNN LAKE","5061645","2019-03-14 22:00","2019","03","14","22:00","-15.4","","-18.8","","75","","0.0","","36","","5","","16.1","","97.81","","","","-19","","NA"
"-101.08","56.86","LYNN LAKE","5061645","2019-03-14 23:00","2019","03","14","23:00","-16.7","","-19.6","","79","","0.0","","34","","9","","16.1","","97.85","","","","-23","","NA"
"-101.08","56.86","LYNN LAKE","5061645","2019-03-15 00:00","2019","03","15","00:00","-17.4","","-20.0","","81","","0.0","","34","","9","","16.1","","97.86","","","","-24","","NA"
"-101.08","56.86","LYNN LAKE","5061645","2019-03-15 01:00","2019","03","15","01:00","-18.1","","-20.4","","83","","0.0","","32","","11","","16.1","","97.85","","","","-25","","NA"
"-101.08","56.86","LYNN LAKE","5061645","2019-03-15 02:00","2019","03","15","02:00","-19.6","","-21.5","","85","","0.0","","30","","13","","16.1","","97.88","","","","-28","","NA"
"-101.08","56.86","LYNN LAKE","5061645","2019-03-15 03:00","2019","03","15","03:00","-20.3","","-22.1","","86","","0.0","","29","","13","","16.1","","97.89","","","","-29","","NA"
"-101.08","56.86","LYNN LAKE","5061645","2019-03-15 04:00","2019","03","15","04:00","-21.0","","-22.8","","86","","0.0","","30","","11","","16.1","","97.92","","","","-29","","NA"
"-101.08","56.86","LYNN LAKE","5061645","2019-03-15 05:00","2019","03","15","05:00","-21.6","","-23.2","","87","","0.0","","30","","8","","16.1","","97.94","","","","-28","","NA"
"-101.08","56.86","LYNN LAKE","5061645","2019-03-15 06:00","2019","03","15","06:00","-22.5","","-24.1","","87","","0.0","","30","","9","","16.1","","97.94","","","","-30","","NA"
"-101.08","56.86","LYNN LAKE","5061645","2019-03-15 07:00","2019","03","15","07:00","-22.4","","-24.2","","86","","0.0","","32","","8","","16.1","","97.97","","","","-29","","NA"
"-101.08","56.86","LYNN LAKE","5061645","2019-03-15 08:00","2019","03","15","08:00","-21.2","","-23.2","","84","","0.0","","30","","9","","16.1","","97.99","","","","-28","","NA"
"-101.08","56.86","LYNN LAKE","5061645","2019-03-15 09:00","2019","03","15","09:00","-18.9","","-22.0","","77","","0.0","","","","0","","16.1","","97.99","","","","","","NA"
"-101.08","56.86","LYNN LAKE","5061645","2019-03-15 10:00","2019","03","15","10:00","-16.3","","-20.7","","69","","0.0","","","","0","","16.1","","97.99","","","","","","NA"
"-101.08","56.86","LYNN LAKE","5061645","2019-03-15 11:00","2019","03","15","11:00","-13.7","","-18.9","","65","","0.0","","","","0","","16.1","","97.93","","","","","","NA"
"-101.08","56.86","LYNN LAKE","5061645","2019-03-15 12:00","2019","03","15","12:00","-10.2","","-16.7","","59","","0.0","","","M","5","","16.1","","97.93","","","","-13","","NA"
"-101.08","56.86","LYNN LAKE","5061645","2019-03-15 13:00","2019","03","15","13:00","-8.2","","-15.6","","56","","0.0","","","M","4","","16.1","","97.88","","","","-10","","NA"
"-101.08","56.86","LYNN LAKE","5061645","2019-03-15 14:00","2019","03","15","14:00","-6.8","","-15.3","","51","","0.0","","","M","4","","16.1","","97.83","","","","-9","","NA"
"-101.08","56.86","LYNN LAKE","5061645","2019-03-15 15:00","2019","03","15","15:00","-4.6","","-13.6","","50","","0.0","","","M","4","","16.1","","97.78","","","","-6","","NA"
"-101.08","56.86","LYNN LAKE","5061645","2019-03-15 16:00","2019","03","15","16:00","-4.1","","-13.5","","49","","0.0","","17","","9","","16.1","","97.72","","","","-8","","NA"
"-101.08","56.86","LYNN LAKE","5061645","2019-03-15 17:00","2019","03","15","17:00","-3.7","","-13.8","","46","","0.0","","20","","11","","16.1","","97.71","","","","-8","","NA"
"-101.08","56.86","LYNN LAKE","5061645","2019-03-15 18:00","2019","03","15","18:00","-4.5","","-13.4","","50","","0.0","","20","","9","","16.1","","97.68","","","","-8","","NA"
"-101.08","56.86","LYNN LAKE","5061645","2019-03-15 19:00","2019","03","15","19:00","-6.2","","-13.9","","55","","0.0","","18","","5","","16.1","","97.67","","","","-9","","NA"
"-101.08","56.86","LYNN LAKE","5061645","2019-03-15 20:00","2019","03","15","20:00","-8.8","","-14.2","","65","","0.0","","15","","9","","16.1","","97.65","","","","-13","","NA"
"-101.08","56.86","LYNN LAKE","5061645","2019-03-15 21:00","2019","03","15","21:00","-9.8","","-14.5","","69","","0.0","","15","","8","","16.1","","97.63","","","","-14","","NA"
"-101.08","56.86","LYNN LAKE","5061645","2019-03-15 22:00","2019","03","15","22:00","-12.6","","-15.5","","79","","0.0","","14","","8","","16.1","","97.62","","","","-18","","NA"
"-101.08","56.86","LYNN LAKE","5061645","2019-03-15 23:00","2019","03","15","23:00","-12.5","","-15.6","","78","","0.0","","14","","5","","16.1","","97.59","","","","-16","","NA"
"-101.08","56.86","LYNN LAKE","5061645","2019-03-16 00:00","2019","03","16","00:00","-13.9","","-16.5","","81","","0.0","","13","","8","","16.1","","97.54","","","","-19","","NA"
"-101.08","56.86","LYNN LAKE","5061645","2019-03-16 01:00","2019","03","16","01:00","-13.0","","-16.1","","78","","0.0","","12","","5","","16.1","","97.52","","","","-16","","NA"
"-101.08","56.86","LYNN LAKE","5061645","2019-03-16 02:00","2019","03","16","02:00","-13.2","","-16.1","","79","","0.0","","11","","8","","16.1","","97.49","","","","-18","","NA"
"-101.08","56.86","LYNN LAKE","5061645","2019-03-16 03:00","2019","03","16","03:00","-13.4","","-16.2","","80","","0.0","","14","","5","","16.1","","97.48","","","","-17","","NA"
"-101.08","56.86","LYNN LAKE","5061645","2019-03-16 04:00","2019","03","16","04:00","-14.3","","-16.4","","84","","0.0","","12","","5","","16.1","","97.47","","","","-18","","NA"
"-101.08","56.86","LYNN LAKE","5061645","2019-03-16 05:00","2019","03","16","05:00","-14.2","","-16.5","","83","","0.0","","10","","5","","16.1","","97.46","","","","-18","","NA"
"-101.08","56.86","LYNN LAKE","5061645","2019-03-16 06:00","2019","03","16","06:00","-12.7","","-15.5","","80","","0.0","","13","","5","","16.1","","97.45","","","","-16","","NA"
"-101.08","56.86","LYNN LAKE","5061645","2019-03-16 07:00","2019","03","16","07:00","-12.6","","-15.5","","79","","0.0","","12","","4","","16.1","","97.47","","","","-15","","NA"
"-101.08","56.86","LYNN LAKE","5061645","2019-03-16 08:00","2019","03","16","08:00","-12.1","","-15.2","","78","","0.0","","12","","8","","16.1","","97.50","","","","-17","","NA"
"-101.08","56.86","LYNN LAKE","5061645","2019-03-16 09:00","2019","03","16","09:00","-10.9","","-14.6","","75","","0.0","","10","","8","","16.1","","97.49","","","","-16","","NA"
"-101.08","56.86","LYNN LAKE","5061645","2019-03-16 10:00","2019","03","16","10:00","-9.8","","-13.9","","72","","0.0","","13","","11","","16.1","","97.50","","","","-15","","NA"
"-101.08","56.86","LYNN LAKE","5061645","2019-03-16 11:00","2019","03","16","11:00","-8.1","","-13.4","","66","","0.0","","10","","9","","16.1","","97.52","","","","-13","","NA"
"-101.08","56.86","LYNN LAKE","5061645","2019-03-16 12:00","2019","03","16","12:00","-6.7","","-12.5","","64","","0.0","","13","","13","","16.1","","97.53","","","","-12","","NA"
"-101.08","56.86","LYNN LAKE","5061645","2019-03-16 13:00","2019","03","16","13:00","-6.1","","-10.8","","69","","0.0","","13","","13","","9.7","","97.52","","","","-11","","Snow"
"-101.08","56.86","LYNN LAKE","5061645","2019-03-16 14:00","2019","03","16","14:00","-5.5","","-9.8","","72","","0.0","","10","","9","","16.1","","97.55","","","","-10","","NA"
"-101.08","56.86","LYNN LAKE","5061645","2019-03-16 15:00","2019","03","16","15:00","-4.9","","-8.8","","74","","0.0","","13","","11","","16.1","","97.56","","","","-9","","Snow"
"-101.08","56.86","LYNN LAKE","5061645","2019-03-16 16:00","2019","03","16","16:00","-4.7","","-7.9","","79","","0.0","","13","","11","","16.1","","97.59","","","","-9","","NA"
"-101.08","56.86","LYNN LAKE","5061645","2019-03-16 17:00","2019","03","16","17:00","-4.8","","-7.4","","82","","0.0","","11","","9","","16.1","","97.61","","","","-9","","Snow"
"-101.08","56.86","LYNN LAKE","5061645","2019-03-16 18:00","2019","03","16","18:00","-4.7","","-7.1","","84","","0.0","","12","","5","","16.1","","97.63","","","","-7","","NA"
"-101.08","56.86","LYNN LAKE","5061645","2019-03-16 19:00","2019","03","16","19:00","-4.8","","-7.0","","85","","0.0","","12","","8","","16.1","","97.63","","","","-8","","Snow"
"-101.08","56.86","LYNN LAKE","5061645","2019-03-16 20:00","2019","03","16","20:00","-5.0","","-7.0","","86","","0.0","","11","","4","","16.1","","97.63","","","","-7","","Snow"
"-101.08","56.86","LYNN LAKE","5061645","2019-03-16 21:00","2019","03","16","21:00","-5.6","","-8.4","","81","","0.0","","10","","9","","16.1","","97.64","","","","-10","","NA"
"-101.08","56.86","LYNN LAKE","5061645","2019-03-16 22:00","2019","03","16","22:00","-6.9","","-8.9","","86","","0.0","","8","","4","","16.1","","97.66","","","","-9","","NA"
"-101.08","56.86","LYNN LAKE","5061645","2019-03-16 23:00","2019","03","16","23:00","-7.7","","-8.8","","92","","0.0","","7","","4","","16.1","","97.68","","","","-10","","NA"
"-101.08","56.86","LYNN LAKE","5061645","2019-03-17 00:00","2019","03","17","00:00","-7.6","","-8.8","","91","","0.0","","7","","5","","16.1","","97.70","","","","-10","","NA"
"-101.08","56.86","LYNN LAKE","5061645","2019-03-17 01:00","2019","03","17","01:00","-7.7","","-8.8","","92","","0.0","","35","","4","","16.1","","97.74","","","","-10","","NA"
"-101.08","56.86","LYNN LAKE","5061645","2019-03-17 02:00","2019","03","17","02:00","-8.2","","-8.9","","95","","0.0","","","","0","","11.3","","97.75","","","","","","Snow"
"-101.08","56.86","LYNN LAKE","5061645","2019-03-17 03:00","2019","03","17","03:00","-8.2","","-8.9","","95","","0.0","","31","","4","","16.1","","97.78","","","","-10","","Snow"
"-101.08","56.86","LYNN LAKE","5061645","2019-03-17 04:00","2019","03","17","04:00","-8.6","","-9.3","","95","","0.0","","29","","5","","14.5","","97.82","","","","-11","","Snow"
"-101.08","56.86","LYNN LAKE","5061645","2019-03-17 05:00","2019","03","17","05:00","-10.2","","-10.3","","99","","0.0","","28","","9","","16.1","","97.86","","","","-15","","Snow"
"-101.08","56.86","LYNN LAKE","5061645","2019-03-17 06:00","2019","03","17","06:00","-11.0","","-11.4","","97","","0.0","","29","","13","","16.1","","97.89","","","","-17","","NA"
"-101.08","56.86","LYNN LAKE","5061645","2019-03-17 07:00","2019","03","17","07:00","-10.1","","-10.1","","100","","0.0","","29","","11","","0.2","","97.93","","","","-16","","Freezing Fog"
"-101.08","56.86","LYNN LAKE","5061645","2019-03-17 08:00","2019","03","17","08:00","-9.7","","-9.8","","99","","0.0","","","","0","","16.1","","97.93","","","","","","NA"
"-101.08","56.86","LYNN LAKE","5061645","2019-03-17 09:00","2019","03","17","09:00","-5.9","","-5.9","","100","","0.0","","25","","5","","16.1","","97.95","","","","-8","","NA"
"-101.08","56.86","LYNN LAKE","5061645","2019-03-17 10:00","2019","03","17","10:00","-3.7","","-4.9","","92","","0.0","","25","","11","","16.1","","97.93","","","","-8","","NA"
"-101.08","56.86","LYNN LAKE","5061645","2019-03-17 11:00","2019","03","17","11:00","-0.9","","-5.4","","71","","0.0","","27","","15","","16.1","","97.93","","","","-6","","NA"
"-101.08","56.86","LYNN LAKE","5061645","2019-03-17 12:00","2019","03","17","12:00","0.4","","-5.4","","65","","0.0","","29","","13","","16.1","","97.91","","","","","","NA"
"-101.08","56.86","LYNN LAKE","5061645","2019-03-17 13:00","2019","03","17","13:00","1.3","","-5.4","","61","","0.0","","29","","21","","16.1","","97.87","","","","","","NA"
"-101.08","56.86","LYNN LAKE","5061645","2019-03-17 14:00","2019","03","17","14:00","2.2","","-5.5","","57","","0.0","","25","","15","","16.1","","97.81","","","","","","NA"
"-101.08","56.86","LYNN LAKE","5061645","2019-03-17 15:00","2019","03","17","15:00","3.2","","-5.4","","53","","0.2","","22","","11","","16.1","","97.74","","","","","","NA"
"-101.08","56.86","LYNN LAKE","5061645","2019-03-17 16:00","2019","03","17","16:00","3.6","","-6.8","","47","","0.0","","22","","18","","16.1","","97.66","","","","","","NA"
"-101.08","56.86","LYNN LAKE","5061645","2019-03-17 17:00","2019","03","17","17:00","3.9","","-6.9","","45","","0.2","","24","","13","","16.1","","97.59","","","","","","NA"
"-101.08","56.86","LYNN LAKE","5061645","2019-03-17 18:00","2019","03","17","18:00","2.7","","-6.0","","53","","0.0","","20","","9","","16.1","","97.54","","","","","","NA"
"-101.08","56.86","LYNN LAKE","5061645","2019-03-17 19:00","2019","03","17","19:00","1.0","","-6.4","","58","","0.0","","19","","9","","16.1","","97.49","","","","","","NA"
"-101.08","56.86","LYNN LAKE","5061645","2019-03-17 20:00","2019","03","17","20:00","-0.1","","-6.1","","64","","0.0","","17","","8","","16.1","","97.42","","","","-3","","NA"
"-101.08","56.86","LYNN LAKE","5061645","2019-03-17 21:00","2019","03","17","21:00","0.6","","-5.7","","63","","0.0","","20","","13","","16.1","","97.36","","","","","","NA"
"-101.08","56.86","LYNN LAKE","5061645","2019-03-17 22:00","2019","03","17","22:00","0.4","","-5.0","","67","","0.0","","22","","13","","16.1","","97.28","","","","","","NA"
"-101.08","56.86","LYNN LAKE","5061645","2019-03-17 23:00","2019","03","17","23:00","0.9","","-0.8","","88","","0.0","","24","","17","","16.1","","97.21","","","","","","Rain"
"-101.08","56.86","LYNN LAKE","5061645","2019-03-18 00:00","2019","03","18","00:00","-0.3","","-0.6","","98","","0.0","","21","","8","","16.1","","97.14","","","","-3","","NA"
"-101.08","56.86","LYNN LAKE","5061645","2019-03-18 01:00","2019","03","18","01:00","-0.3","","-0.4","","99","","0.0","","20","","9","","16.1","","97.08","","","","-3","","NA"
"-101.08","56.86","LYNN LAKE","5061645","2019-03-18 02:00","2019","03","18","02:00","-0.3","","-0.6","","98","","0.0","","19","","5","","16.1","","97.07","","","","-2","","NA"
"-101.08","56.86","LYNN LAKE","5061645","2019-03-18 03:00","2019","03","18","03:00","-0.8","","-1.3","","97","","0.0","","16","","5","","16.1","","97.02","","","","-2","","NA"
"-101.08","56.86","LYNN LAKE","5061645","2019-03-18 04:00","2019","03","18","04:00","-1.7","","-1.7","","100","","0.0","","15","","5","","16.1","","97.01","","","","-4","","NA"
"-101.08","56.86","LYNN LAKE","5061645","2019-03-18 05:00","2019","03","18","05:00","-2.5","","-2.5","","100","","0.0","","","M","4","","16.1","","97.01","","","","-4","","NA"
"-101.08","56.86","LYNN LAKE","5061645","2019-03-18 06:00","2019","03","18","06:00","-2.8","","-2.8","","100","","0.0","","34","","8","","16.1","","97.05","","","","-6","","NA"
"-101.08","56.86","LYNN LAKE","5061645","2019-03-18 07:00","2019","03","18","07:00","-3.3","","-3.3","","100","","0.0","","","M","4","","16.1","","97.13","","","","-5","","NA"
"-101.08","56.86","LYNN LAKE","5061645","2019-03-18 08:00","2019","03","18","08:00","-2.5","","-2.6","","99","","0.0","","","M","4","","16.1","","97.18","","","","-4","","NA"
"-101.08","56.86","LYNN LAKE","5061645","2019-03-18 09:00","2019","03","18","09:00","1.5","","-0.9","","84","","0.0","","36","","9","","16.1","","97.21","","","","","","NA"
"-101.08","56.86","LYNN LAKE","5061645","2019-03-18 10:00","2019","03","18","10:00","3.2","","-1.0","","74","","0.0","","","M","4","","16.1","","97.26","","","","","","NA"
"-101.08","56.86","LYNN LAKE","5061645","2019-03-18 11:00","2019","03","18","11:00","3.7","","-0.7","","73","","0.0","","","","0","","16.1","","97.33","","","","","","NA"
"-101.08","56.86","LYNN LAKE","5061645","2019-03-18 12:00","2019","03","18","12:00","5.2","","-2.0","","60","","0.0","","33","","15","","16.1","","97.36","","","","","","NA"
"-101.08","56.86","LYNN LAKE","5061645","2019-03-18 13:00","2019","03","18","13:00","6.1","","-3.8","","49","","0.0","","1","","9","","16.1","","97.37","","","","","","NA"
"-101.08","56.86","LYNN LAKE","5061645","2019-03-18 14:00","2019","03","18","14:00","6.7","","-5.3","","42","","0.0","","34","","15","","16.1","","97.40","","","","","","NA"
"-101.08","56.86","LYNN LAKE","5061645","2019-03-18 15:00","2019","03","18","15:00","6.5","","-4.4","","46","","0.0","","31","","15","","16.1","","97.39","","","","","","NA"
"-101.08","56.86","LYNN LAKE","5061645","2019-03-18 16:00","2019","03","18","16:00","6.5","","-4.5","","45","","0.0","","28","","13","","16.1","","97.40","","","","","","NA"
"-101.08","56.86","LYNN LAKE","5061645","2019-03-18 17:00","2019","03","18","17:00","5.7","","-4.4","","48","","0.0","","28","","15","","16.1","","97.47","","","","","","NA"
"-101.08","56.86","LYNN LAKE","5061645","2019-03-18 18:00","2019","03","18","18:00","4.6","","-3.6","","55","","0.0","","29","","13","","16.1","","97.45","","","","","","NA"
"-101.08","56.86","LYNN LAKE","5061645","2019-03-18 19:00","2019","03","18","19:00","2.3","","-4.1","","63","","0.0","","29","","9","","16.1","","97.41","","","","","","NA"
"-101.08","56.86","LYNN LAKE","5061645","2019-03-18 20:00","2019","03","18","20:00","0.4","","-4.6","","69","","0.0","","23","","8","","16.1","","97.34","","","","","","NA"
"-101.08","56.86","LYNN LAKE","5061645","2019-03-18 21:00","2019","03","18","21:00","-1.2","","-4.6","","78","","0.0","","23","","9","","16.1","","97.32","","","","-4","","NA"
"-101.08","56.86","LYNN LAKE","5061645","2019-03-18 22:00","2019","03","18","22:00","-1.0","","-3.9","","81","","0.0","","23","","13","","16.1","","97.21","","","","-5","","NA"
"-101.08","56.86","LYNN LAKE","5061645","2019-03-18 23:00","2019","03","18","23:00","0.5","","-2.4","","81","","0.0","","24","","11","","16.1","","97.17","","","","","","NA"
"-101.08","56.86","LYNN LAKE","5061645","2019-03-19 00:00","2019","03","19","00:00","1.6","","-1.8","","78","","0.0","","22","","17","","16.1","","97.03","","","","","","NA"
"-101.08","56.86","LYNN LAKE","5061645","2019-03-19 01:00","2019","03","19","01:00","1.9","","-1.5","","78","","0.0","","22","","15","","16.1","","96.91","","","","","","NA"
"-101.08","56.86","LYNN LAKE","5061645","2019-03-19 02:00","2019","03","19","02:00","2.0","","-1.5","","78","","0.0","","22","","17","","16.1","","96.72","","","","","","NA"
"-101.08","56.86","LYNN LAKE","5061645","2019-03-19 03:00","2019","03","19","03:00","2.4","","-1.6","","75","","0.0","","22","","17","","16.1","","96.56","","","","","","NA"
"-101.08","56.86","LYNN LAKE","5061645","2019-03-19 04:00","2019","03","19","04:00","2.6","","-2.1","","71","","0.0","","24","","17","","16.1","","96.46","","","","","","NA"
"-101.08","56.86","LYNN LAKE","5061645","2019-03-19 05:00","2019","03","19","05:00","2.8","","-2.6","","68","","0.0","","26","","15","","16.1","","96.40","","","","","","NA"
"-101.08","56.86","LYNN LAKE","5061645","2019-03-19 06:00","2019","03","19","06:00","2.3","","-2.8","","69","","0.0","","28","","15","","16.1","","96.33","","","","","","NA"
"-101.08","56.86","LYNN LAKE","5061645","2019-03-19 07:00","2019","03","19","07:00","2.3","","-2.6","","70","","0.0","","30","","21","","16.1","","96.35","","","","","","NA"
"-101.08","56.86","LYNN LAKE","5061645","2019-03-19 08:00","2019","03","19","08:00","2.8","","-2.3","","69","","0.0","","30","","21","","16.1","","96.35","","","","","","NA"
"-101.08","56.86","LYNN LAKE","5061645","2019-03-19 09:00","2019","03","19","09:00","4.1","","-1.7","","66","","0.0","","32","","28","","16.1","","96.38","","","","","","NA"
"-101.08","56.86","LYNN LAKE","5061645","2019-03-19 10:00","2019","03","19","10:00","4.6","","-1.8","","63","","0.2","","32","","28","","16.1","","96.45","","","","","","NA"
"-101.08","56.86","LYNN LAKE","5061645","2019-03-19 11:00","2019","03","19","11:00","5.5","","-2.0","","59","","0.0","","31","","22","","16.1","","96.50","","","","","","NA"
"-101.08","56.86","LYNN LAKE","5061645","2019-03-19 12:00","2019","03","19","12:00","5.4","","-2.1","","58","","0.0","","31","","30","","16.1","","96.63","","","","","","NA"
"-101.08","56.86","LYNN LAKE","5061645","2019-03-19 13:00","2019","03","19","13:00","6.0","","-1.9","","57","","0.0","","34","","28","","16.1","","96.73","","","","","","NA"
"-101.08","56.86","LYNN LAKE","5061645","2019-03-19 14:00","2019","03","19","14:00","6.0","","-2.0","","57","","0.0","","34","","28","","16.1","","96.85","","","","","","NA"
"-101.08","56.86","LYNN LAKE","5061645","2019-03-19 15:00","2019","03","19","15:00","6.2","","-2.0","","56","","0.0","","34","","22","","16.1","","96.95","","","","","","NA"
"-101.08","56.86","LYNN LAKE","5061645","2019-03-19 16:00","2019","03","19","16:00","6.2","","-2.0","","56","","0.0","","35","","17","","16.1","","97.05","","","","","","NA"
"-101.08","56.86","LYNN LAKE","5061645","2019-03-19 17:00","2019","03","19","17:00","5.3","","-2.3","","58","","0.0","","36","","18","","16.1","","97.12","","","","","","NA"
"-101.08","56.86","LYNN LAKE","5061645","2019-03-19 18:00","2019","03","19","18:00","4.7","","-2.1","","62","","0.0","","35","","17","","16.1","","97.21","","","","","","NA"
"-101.08","56.86","LYNN LAKE","5061645","2019-03-19 19:00","2019","03","19","19:00","2.7","","-2.0","","71","","0.0","","34","","8","","16.1","","97.26","","","","","","NA"
"-101.08","56.86","LYNN LAKE","5061645","2019-03-19 20:00","2019","03","19","20:00","1.0","","-2.6","","77","","0.0","","35","","8","","16.1","","97.35","","","","","","NA"
"-101.08","56.86","LYNN LAKE","5061645","2019-03-19 21:00","2019","03","19","21:00","-0.2","","-2.7","","83","","0.0","","36","","9","","16.1","","97.40","","","","-3","","NA"
"-101.08","56.86","LYNN LAKE","5061645","2019-03-19 22:00","2019","03","19","22:00","-1.5","","-3.1","","89","","0.0","","5","","8","","16.1","","97.45","","","","-5","","NA"
"-101.08","56.86","LYNN LAKE","5061645","2019-03-19 23:00","2019","03","19","23:00","-3.7","","-3.8","","99","","0.0","","","","0","","16.1","","97.48","","","","","","NA"
"-101.08","56.86","LYNN LAKE","5061645","2019-03-20 00:00","2019","03","20","00:00","-3.2","","-3.2","","100","","0.0","","13","","5","","16.1","","97.50","","","","-5","","NA"
"-101.08","56.86","LYNN LAKE","5061645","2019-03-20 01:00","2019","03","20","01:00","-4.6","","-4.6","","100","","0.0","","21","","8","","16.1","","97.52","","","","-8","","NA"
"-101.08","56.86","LYNN LAKE","5061645","2019-03-20 02:00","2019","03","20","02:00","-4.8","","-4.8","","100","","0.0","","19","","8","","16.1","","97.53","","","","-8","","NA"
"-101.08","56.86","LYNN LAKE","5061645","2019-03-20 03:00","2019","03","20","03:00","-4.9","","-4.9","","100","","0.0","","20","","8","","16.1","","97.51","","","","-8","","NA"
"-101.08","56.86","LYNN LAKE","5061645","2019-03-20 04:00","2019","03","20","04:00","-5.0","","-5.0","","100","","0.0","","19","","8","","16.1","","97.45","","","","-9","","NA"
"-101.08","56.86","LYNN LAKE","5061645","2019-03-20 05:00","2019","03","20","05:00","-3.5","","-3.5","","100","","0.0","","21","","11","","16.1","","97.39","","","","-8","","NA"
"-101.08","56.86","LYNN LAKE","5061645","2019-03-20 06:00","2019","03","20","06:00","-2.5","","-2.8","","98","","0.0","","20","","13","","16.1","","97.34","","","","-7","","NA"
"-101.08","56.86","LYNN LAKE","5061645","2019-03-20 07:00","2019","03","20","07:00","-2.8","","-3.1","","98","","0.0","","21","","11","","16.1","","97.28","","","","-7","","NA"
"-101.08","56.86","LYNN LAKE","5061645","2019-03-20 08:00","2019","03","20","08:00","-1.0","","-2.6","","89","","0.0","","22","","17","","16.1","","97.21","","","","-6","","NA"
"-101.08","56.86","LYNN LAKE","5061645","2019-03-20 09:00","2019","03","20","09:00","1.6","","-2.2","","76","","0.0","","22","","26","","16.1","","97.08","","","","","","NA"
"-101.08","56.86","LYNN LAKE","5061645","2019-03-20 10:00","2019","03","20","10:00","4.3","","-1.8","","64","","0.0","","22","","24","","16.1","","96.95","","","","","","NA"
"-101.08","56.86","LYNN LAKE","5061645","2019-03-20 11:00","2019","03","20","11:00","7.8","","-1.8","","51","","0.0","","23","","26","","16.1","","96.85","","","","","","NA"
"-101.08","56.86","LYNN LAKE","5061645","2019-03-20 12:00","2019","03","20","12:00","9.4","","-1.4","","47","","0.0","","26","","26","","16.1","","96.75","","","","","","NA"
"-101.08","56.86","LYNN LAKE","5061645","2019-03-20 13:00","2019","03","20","13:00","10.5","","-1.8","","42","","0.0","","24","","22","","16.1","","96.66","","","","","","NA"
"-101.08","56.86","LYNN LAKE","5061645","2019-03-20 14:00","2019","03","20","14:00","11.3","","-2.2","","39","","0.0","","28","","21","","16.1","","96.64","","","","","","NA"
"-101.08","56.86","LYNN LAKE","5061645","2019-03-20 15:00","2019","03","20","15:00","11.2","","-2.1","","39","","0.0","","29","","17","","16.1","","96.64","","","","","","NA"
"-101.08","56.86","LYNN LAKE","5061645","2019-03-20 16:00","2019","03","20","16:00","11.9","","-3.5","","34","","0.0","","30","","24","","16.1","","96.65","","","","","","NA"
"-101.08","56.86","LYNN LAKE","5061645","2019-03-20 17:00","2019","03","20","17:00","11.5","","-3.4","","35","","0.0","","30","","21","","16.1","","96.71","","","","","","NA"
"-101.08","56.86","LYNN LAKE","5061645","2019-03-20 18:00","2019","03","20","18:00","10.5","","-3.0","","39","","0.0","","31","","17","","16.1","","96.79","","","","","","NA"
"-101.08","56.86","LYNN LAKE","5061645","2019-03-20 19:00","2019","03","20","19:00","7.9","","-2.3","","49","","0.0","","31","","13","","16.1","","96.87","","","","","","NA"
"-101.08","56.86","LYNN LAKE","5061645","2019-03-20 20:00","2019","03","20","20:00","6.6","","-1.7","","55","","0.0","","32","","21","","16.1","","96.95","","","","","","NA"
"-101.08","56.86","LYNN LAKE","5061645","2019-03-20 21:00","2019","03","20","21:00","5.6","","-1.6","","60","","0.0","","32","","13","","16.1","","97.03","","","","","","NA"
"-101.08","56.86","LYNN LAKE","5061645","2019-03-20 22:00","2019","03","20","22:00","4.7","","-1.5","","64","","0.0","","32","","17","","16.1","","97.08","","","","","","NA"
"-101.08","56.86","LYNN LAKE","5061645","2019-03-20 23:00","2019","03","20","23:00","4.6","","-1.6","","64","","0.0","","32","","18","","16.1","","97.17","","","","","","NA"
"-101.08","56.86","LYNN LAKE","5061645","2019-03-21 00:00","2019","03","21","00:00","4.1","","-1.4","","67","","0.0","","33","","17","","16.1","","97.21","","","","","","NA"
"-101.08","56.86","LYNN LAKE","5061645","2019-03-21 01:00","2019","03","21","01:00","2.9","","-1.7","","72","","0.0","","31","","13","","16.1","","97.25","","","","","","NA"
"-101.08","56.86","LYNN LAKE","5061645","2019-03-21 02:00","2019","03","21","02:00","2.7","","-2.0","","71","","0.0","","34","","21","","16.1","","97.33","","","","","","NA"
"-101.08","56.86","LYNN LAKE","5061645","2019-03-21 03:00","2019","03","21","03:00","2.2","","-2.5","","71","","0.0","","34","","26","","16.1","","97.41","","","","","","NA"
"-101.08","56.86","LYNN LAKE","5061645","2019-03-21 04:00","2019","03","21","04:00","0.2","","-3.7","","75","","0.0","","34","","22","","16.1","","97.54","","","","","","NA"
"-101.08","56.86","LYNN LAKE","5061645","2019-03-21 05:00","2019","03","21","05:00","-1.1","","-4.1","","80","","0.0","","34","","18","","16.1","","97.64","","","","-6","","NA"
"-101.08","56.86","LYNN LAKE","5061645","2019-03-21 06:00","2019","03","21","06:00","-2.1","","-4.5","","84","","0.0","","33","","17","","16.1","","97.75","","","","-7","","NA"
"-101.08","56.86","LYNN LAKE","5061645","2019-03-21 07:00","2019","03","21","07:00","-2.8","","-5.0","","85","","0.0","","33","","18","","16.1","","97.82","","","","-8","","NA"
"-101.08","56.86","LYNN LAKE","5061645","2019-03-21 08:00","2019","03","21","08:00","-2.6","","-5.3","","82","","0.0","","34","","17","","16.1","","97.83","","","","-8","","NA"
"-101.08","56.86","LYNN LAKE","5061645","2019-03-21 09:00","2019","03","21","09:00","-1.9","","-5.4","","77","","0.0","","33","","15","","16.1","","97.89","","","","-7","","NA"
"-101.08","56.86","LYNN LAKE","5061645","2019-03-21 10:00","2019","03","21","10:00","-1.7","","-6.0","","72","","0.0","","33","","21","","16.1","","97.94","","","","-8","","NA"
"-101.08","56.86","LYNN LAKE","5061645","2019-03-21 11:00","2019","03","21","11:00","-0.4","","-6.0","","66","","0.0","","34","","13","","16.1","","97.98","","","","-5","","NA"
"-101.08","56.86","LYNN LAKE","5061645","2019-03-21 12:00","2019","03","21","12:00","0.3","","-6.2","","62","","0.0","","34","","17","","16.1","","98.02","","","","","","NA"
"-101.08","56.86","LYNN LAKE","5061645","2019-03-21 13:00","2019","03","21","13:00","0.9","","-6.8","","57","","0.0","","33","","17","","16.1","","98.08","","","","","","NA"
"-101.08","56.86","LYNN LAKE","5061645","2019-03-21 14:00","2019","03","21","14:00","1.5","","-7.5","","52","","0.0","","33","","18","","16.1","","98.09","","","","","","NA"
"-101.08","56.86","LYNN LAKE","5061645","2019-03-21 15:00","2019","03","21","15:00","1.6","","-7.5","","51","","0.0","","1","","18","","16.1","","98.08","","","","","","NA"
"-101.08","56.86","LYNN LAKE","5061645","2019-03-21 16:00","2019","03","21","16:00","2.1","","-7.1","","51","","0.0","","34","","11","","16.1","","98.10","","","","","","NA"
"-101.08","56.86","LYNN LAKE","5061645","2019-03-21 17:00","2019","03","21","17:00","1.3","","-8.1","","50","","0.0","","1","","9","","16.1","","98.12","","","","","","NA"
"-101.08","56.86","LYNN LAKE","5061645","2019-03-21 18:00","2019","03","21","18:00","0.5","","-9.2","","48","","0.0","","1","","8","","16.1","","98.11","","","","","","NA"
"-101.08","56.86","LYNN LAKE","5061645","2019-03-21 19:00","2019","03","21","19:00","-1.4","","-8.8","","57","","0.0","","4","","5","","16.1","","98.07","","","","-3","","NA"
"-101.08","56.86","LYNN LAKE","5061645","2019-03-21 20:00","2019","03","21","20:00","-4.2","","-8.8","","71","","0.0","","","","0","","16.1","","98.09","","","","","","NA"
"-101.08","56.86","LYNN LAKE","5061645","2019-03-21 21:00","2019","03","21","21:00","-4.7","","-9.0","","72","","0.0","","15","","5","","16.1","","98.09","","","","-7","","NA"
"-101.08","56.86","LYNN LAKE","5061645","2019-03-21 22:00","2019","03","21","22:00","-7.3","","-9.3","","86","","0.0","","12","","4","","16.1","","98.05","","","","-9","","NA"
"-101.08","56.86","LYNN LAKE","5061645","2019-03-21 23:00","2019","03","21","23:00","-8.3","","-9.4","","92","","0.0","","14","","5","","16.1","","98.00","","","","-11","","NA"
"-101.08","56.86","LYNN LAKE","5061645","2019-03-22 00:00","2019","03","22","00:00","-8.7","","-10.6","","86","","0.0","","14","","8","","16.1","","97.95","","","","-13","","NA"
"-101.08","56.86","LYNN LAKE","5061645","2019-03-22 01:00","2019","03","22","01:00","-9.1","","-10.6","","89","","0.0","","16","","8","","16.1","","97.93","","","","-13","","NA"
"-101.08","56.86","LYNN LAKE","5061645","2019-03-22 02:00","2019","03","22","02:00","-9.5","","-10.8","","91","","0.0","","15","","9","","16.1","","97.85","","","","-14","","NA"
"-101.08","56.86","LYNN LAKE","5061645","2019-03-22 03:00","2019","03","22","03:00","-7.0","","-9.5","","82","","0.0","","18","","13","","16.1","","97.78","","","","-13","","NA"
"-101.08","56.86","LYNN LAKE","5061645","2019-03-22 04:00","2019","03","22","04:00","-7.2","","-9.6","","83","","0.0","","19","","9","","16.1","","97.71","","","","-12","","NA"
"-101.08","56.86","LYNN LAKE","5061645","2019-03-22 05:00","2019","03","22","05:00","-7.2","","-9.6","","83","","0.0","","18","","11","","16.1","","97.62","","","","-12","","NA"
"-101.08","56.86","LYNN LAKE","5061645","2019-03-22 06:00","2019","03","22","06:00","-7.6","","-9.8","","85","","0.0","","18","","11","","16.1","","97.53","","","","-13","","NA"
"-101.08","56.86","LYNN LAKE","5061645","2019-03-22 07:00","2019","03","22","07:00","-7.7","","-9.9","","85","","0.0","","17","","13","","16.1","","97.42","","","","-13","","NA"
"-101.08","56.86","LYNN LAKE","5061645","2019-03-22 08:00","2019","03","22","08:00","-5.7","","-9.1","","77","","0.0","","18","","11","","16.1","","97.30","","","","-10","","NA"
"-101.08","56.86","LYNN LAKE","5061645","2019-03-22 09:00","2019","03","22","09:00","-2.4","","-7.3","","69","","0.0","","21","","17","","16.1","","97.14","","","","-8","","NA"
"-101.08","56.86","LYNN LAKE","5061645","2019-03-22 10:00","2019","03","22","10:00","1.7","","-5.7","","58","","0.0","","20","","21","","16.1","","97.04","","","","","","NA"
"-101.08","56.86","LYNN LAKE","5061645","2019-03-22 11:00","2019","03","22","11:00","4.9","","-5.3","","48","","0.0","","20","","24","","16.1","","96.90","","","","","","NA"
"-101.08","56.86","LYNN LAKE","5061645","2019-03-22 12:00","2019","03","22","12:00","6.8","","-4.2","","45","","0.0","","19","","17","","16.1","","96.76","","","","","","NA"
"-101.08","56.86","LYNN LAKE","5061645","2019-03-22 13:00","2019","03","22","13:00","8.8","","-3.5","","42","","0.0","","20","","21","","16.1","","96.60","","","","","","NA"
"-101.08","56.86","LYNN LAKE","5061645","2019-03-22 14:00","2019","03","22","14:00","10.0","","-2.2","","42","","0.0","","23","","28","","16.1","","96.53","","","","","","NA"
"-101.08","56.86","LYNN LAKE","5061645","2019-03-22 15:00","2019","03","22","15:00","10.8","","-0.9","","44","","0.0","","23","","22","","16.1","","96.46","","","","","","NA"
"-101.08","56.86","LYNN LAKE","5061645","2019-03-22 16:00","2019","03","22","16:00","11.3","","-0.2","","45","","0.0","","25","","18","","16.1","","96.43","","","","","","NA"
"-101.08","56.86","LYNN LAKE","5061645","2019-03-22 17:00","2019","03","22","17:00","11.8","","0.3","","45","","0.0","","28","","21","","16.1","","96.47","","","","","","NA"
"-101.08","56.86","LYNN LAKE","5061645","2019-03-22 18:00","2019","03","22","18:00","10.5","","0.6","","50","","0.0","","28","","17","","16.1","","96.51","","","","","","NA"
"-101.08","56.86","LYNN LAKE","5061645","2019-03-22 19:00","2019","03","22","19:00","8.3","","0.5","","58","","0.0","","28","","9","","16.1","","96.55","","","","","","NA"
"-101.08","56.86","LYNN LAKE","5061645","2019-03-22 20:00","2019","03","22","20:00","6.3","","0.0","","64","","0.0","","31","","11","","16.1","","96.59","","","","","","NA"
"-101.08","56.86","LYNN LAKE","5061645","2019-03-22 21:00","2019","03","22","21:00","5.1","","-0.9","","65","","0.0","","32","","11","","16.1","","96.66","","","","","","NA"
"-101.08","56.86","LYNN LAKE","5061645","2019-03-22 22:00","2019","03","22","22:00","3.6","","-1.4","","70","","0.0","","33","","11","","16.1","","96.70","","","","","","NA"
"-101.08","56.86","LYNN LAKE","5061645","2019-03-22 23:00","2019","03","22","23:00","2.6","","-1.9","","72","","0.0","","33","","11","","16.1","","96.75","","","","","","NA"
"-101.08","56.86","LYNN LAKE","5061645","2019-03-23 00:00","2019","03","23","00:00","1.2","","-2.2","","78","","0.0","","34","","11","","16.1","","96.81","","","","","","NA"
"-101.08","56.86","LYNN LAKE","5061645","2019-03-23 01:00","2019","03","23","01:00","0.4","","-2.2","","83","","0.0","","36","","15","","16.1","","96.88","","","","","","NA"
"-101.08","56.86","LYNN LAKE","5061645","2019-03-23 02:00","2019","03","23","02:00","-1.5","","-2.8","","91","","0.0","","36","","8","","16.1","","96.95","","","","-5","","NA"
"-101.08","56.86","LYNN LAKE","5061645","2019-03-23 03:00","2019","03","23","03:00","-2.1","","-2.8","","95","","0.0","","1","","9","","16.1","","97.02","","","","-6","","NA"
"-101.08","56.86","LYNN LAKE","5061645","2019-03-23 04:00","2019","03","23","04:00","-1.2","","-2.5","","91","","0.0","","1","","17","","16.1","","97.09","","","","-6","","NA"
"-101.08","56.86","LYNN LAKE","5061645","2019-03-23 05:00","2019","03","23","05:00","-2.1","","-3.8","","88","","0.0","","35","","17","","16.1","","97.22","","","","-7","","NA"
"-101.08","56.86","LYNN LAKE","5061645","2019-03-23 06:00","2019","03","23","06:00","-3.2","","-5.0","","87","","0.0","","2","","13","","16.1","","97.36","","","","-8","","NA"
"-101.08","56.86","LYNN LAKE","5061645","2019-03-23 07:00","2019","03","23","07:00","-3.8","","-6.1","","84","","0.0","","2","","22","","16.1","","97.51","","","","-10","","NA"
"-101.08","56.86","LYNN LAKE","5061645","2019-03-23 08:00","2019","03","23","08:00","-6.2","","-9.0","","81","","0.0","","3","","30","","16.1","","97.72","","","","-15","","Snow"
"-101.08","56.86","LYNN LAKE","5061645","2019-03-23 09:00","2019","03","23","09:00","-7.5","","-11.3","","75","","0.0","","4","","24","","16.1","","97.87","","","","-15","","NA"
"-101.08","56.86","LYNN LAKE","5061645","2019-03-23 10:00","2019","03","23","10:00","-7.8","","-12.7","","68","","0.0","","2","","26","","16.1","","98.04","","","","-16","","NA"
"-101.08","56.86","LYNN LAKE","5061645","2019-03-23 11:00","2019","03","23","11:00","-8.8","","-13.4","","70","","0.0","","2","","24","","16.1","","98.24","","","","-17","","NA"
"-101.08","56.86","LYNN LAKE","5061645","2019-03-23 12:00","2019","03","23","12:00","-9.2","","-15.4","","61","","0.0","","3","","26","","16.1","","98.44","","","","-18","","NA"
"-101.08","56.86","LYNN LAKE","5061645","2019-03-23 13:00","2019","03","23","13:00","-9.6","","-16.4","","58","","0.0","","3","","32","","16.1","","98.58","","","","-19","","NA"
"-101.08","56.86","LYNN LAKE","5061645","2019-03-23 14:00","2019","03","23","14:00","-9.0","","-15.8","","58","","0.0","","3","","21","","16.1","","98.65","","","","-17","","NA"
"-101.08","56.86","LYNN LAKE","5061645","2019-03-23 15:00","2019","03","23","15:00","-8.8","","-17.0","","52","","0.0","","36","","18","","16.1","","98.73","","","","-16","","NA"
"-101.08","56.86","LYNN LAKE","5061645","2019-03-23 16:00","2019","03","23","16:00","-9.1","","-17.0","","53","","0.0","","2","","17","","16.1","","98.81","","","","-16","","NA"
"-101.08","56.86","LYNN LAKE","5061645","2019-03-23 17:00","2019","03","23","17:00","-9.6","","-17.8","","52","","0.0","","1","","17","","16.1","","98.91","","","","-17","","NA"
"-101.08","56.86","LYNN LAKE","5061645","2019-03-23 18:00","2019","03","23","18:00","-10.7","","-18.6","","53","","0.0","","1","","17","","16.1","","99.00","","","","-18","","NA"
"-101.08","56.86","LYNN LAKE","5061645","2019-03-23 19:00","2019","03","23","19:00","-12.4","","-19.5","","56","","0.0","","3","","13","","16.1","","99.07","","","","-19","","NA"
"-101.08","56.86","LYNN LAKE","5061645","2019-03-23 20:00","2019","03","23","20:00","-13.9","","-20.1","","60","","0.0","","2","","11","","16.1","","99.13","","","","-20","","NA"
"-101.08","56.86","LYNN LAKE","5061645","2019-03-23 21:00","2019","03","23","21:00","-15.3","","-20.7","","64","","0.0","","1","","8","","16.1","","99.18","","","","-21","","NA"
"-101.08","56.86","LYNN LAKE","5061645","2019-03-23 22:00","2019","03","23","22:00","-16.2","","-21.1","","67","","0.0","","4","","11","","16.1","","99.22","","","","-23","","NA"
"-101.08","56.86","LYNN LAKE","5061645","2019-03-23 23:00","2019","03","23","23:00","-17.0","","-21.3","","70","","0.0","","35","","5","","16.1","","99.26","","","","-21","","NA"
"-101.08","56.86","LYNN LAKE","5061645","2019-03-24 00:00","2019","03","24","00:00","-18.2","","-22.1","","72","","0.0","","2","","5","","16.1","","99.30","","","","-22","","NA"
"-101.08","56.86","LYNN LAKE","5061645","2019-03-24 01:00","2019","03","24","01:00","-20.1","","-22.6","","81","","0.0","","34","","5","","16.1","","99.29","","","","-24","","NA"
"-101.08","56.86","LYNN LAKE","5061645","2019-03-24 02:00","2019","03","24","02:00","-20.3","","-22.8","","81","","0.0","","32","","5","","16.1","","99.30","","","","-25","","NA"
"-101.08","56.86","LYNN LAKE","5061645","2019-03-24 03:00","2019","03","24","03:00","-20.4","","-22.8","","82","","0.0","","31","","8","","16.1","","99.27","","","","-27","","NA"
"-101.08","56.86","LYNN LAKE","5061645","2019-03-24 04:00","2019","03","24","04:00","-23.0","","-24.7","","86","","0.0","","28","","4","","16.1","","99.22","","","","-27","","NA"
"-101.08","56.86","LYNN LAKE","5061645","2019-03-24 05:00","2019","03","24","05:00","-22.5","","-24.4","","85","","0.0","","29","","9","","16.1","","99.23","","","","-30","","NA"
"-101.08","56.86","LYNN LAKE","5061645","2019-03-24 06:00","2019","03","24","06:00","-21.8","","-24.0","","83","","0.0","","30","","13","","16.1","","99.25","","","","-31","","NA"
"-101.08","56.86","LYNN LAKE","5061645","2019-03-24 07:00","2019","03","24","07:00","-21.2","","-23.8","","80","","0.0","","30","","11","","16.1","","99.30","","","","-29","","NA"
"-101.08","56.86","LYNN LAKE","5061645","2019-03-24 08:00","2019","03","24","08:00","-18.3","","-22.0","","73","","0.0","","30","","5","","16.1","","99.32","","","","-22","","NA"
"-101.08","56.86","LYNN LAKE","5061645","2019-03-24 09:00","2019","03","24","09:00","-14.7","","-20.9","","60","","0.0","","29","","9","","16.1","","99.27","","","","-20","","NA"
"-101.08","56.86","LYNN LAKE","5061645","2019-03-24 10:00","2019","03","24","10:00","-12.5","","-20.7","","51","","0.0","","30","","13","","16.1","","99.23","","","","-19","","NA"
"-101.08","56.86","LYNN LAKE","5061645","2019-03-24 11:00","2019","03","24","11:00","-10.9","","-20.9","","44","","0.0","","33","","13","","16.1","","99.22","","","","-17","","NA"
"-101.08","56.86","LYNN LAKE","5061645","2019-03-24 12:00","2019","03","24","12:00","-10.3","","-19.4","","48","","0.0","","2","","13","","16.1","","99.19","","","","-17","","NA"
"-101.08","56.86","LYNN LAKE","5061645","2019-03-24 13:00","2019","03","24","13:00","-9.0","","-19.2","","44","","0.0","","","M","5","","16.1","","99.13","","","","-12","","NA"
"-101.08","56.86","LYNN LAKE","5061645","2019-03-24 14:00","2019","03","24","14:00","-7.9","","-19.7","","39","","0.0","","28","","8","","16.1","","99.07","","","","-12","","NA"
"-101.08","56.86","LYNN LAKE","5061645","2019-03-24 15:00","2019","03","24","15:00","-7.0","","-19.0","","38","","0.0","","30","","5","","16.1","","99.05","","","","-10","","NA"
"-101.08","56.86","LYNN LAKE","5061645","2019-03-24 16:00","2019","03","24","16:00","-6.3","","-20.2","","33","","0.0","","29","","9","","16.1","","99.02","","","","-11","","NA"
"-101.08","56.86","LYNN LAKE","5061645","2019-03-24 17:00","2019","03","24","17:00","-6.2","","-19.4","","35","","0.0","","28","","11","","16.1","","98.97","","","","-11","","NA"
"-101.08","56.86","LYNN LAKE","5061645","2019-03-24 18:00","2019","03","24","18:00","-6.7","","-20.5","","33","","0.0","","28","","8","","16.1","","98.93","","","","-11","","NA"
"-101.08","56.86","LYNN LAKE","5061645","2019-03-24 19:00","2019","03","24","19:00","-8.2","","-18.8","","43","","0.0","","31","","8","","16.1","","98.89","","","","-12","","NA"
"-101.08","56.86","LYNN LAKE","5061645","2019-03-24 20:00","2019","03","24","20:00","-10.2","","-18.9","","50","","0.0","","33","","8","","16.1","","98.85","","","","-15","","NA"
"-101.08","56.86","LYNN LAKE","5061645","2019-03-24 21:00","2019","03","24","21:00","-11.9","","-19.1","","56","","0.0","","30","","8","","16.1","","98.84","","","","-17","","NA"
"-101.08","56.86","LYNN LAKE","5061645","2019-03-24 22:00","2019","03","24","22:00","-15.1","","-18.6","","75","","0.0","","30","","8","","16.1","","98.79","","","","-20","","NA"
"-101.08","56.86","LYNN LAKE","5061645","2019-03-24 23:00","2019","03","24","23:00","-16.6","","-19.4","","79","","0.0","","29","","8","","16.1","","98.77","","","","-22","","NA"
"-101.08","56.86","LYNN LAKE","5061645","2019-03-25 00:00","2019","03","25","00:00","-15.2","","-19.7","","69","","0.0","","23","","9","","16.1","","98.70","","","","-21","","NA"
"-101.08","56.86","LYNN LAKE","5061645","2019-03-25 01:00","2019","03","25","01:00","-16.4","","-19.2","","79","","0.0","","24","","4","","16.1","","98.68","","","","-19","","NA"
"-101.08","56.86","LYNN LAKE","5061645","2019-03-25 02:00","2019","03","25","02:00","-17.4","","-19.8","","82","","0.0","","23","","8","","16.1","","98.63","","","","-23","","NA"
"-101.08","56.86","LYNN LAKE","5061645","2019-03-25 03:00","2019","03","25","03:00","-15.6","","-18.9","","76","","0.0","","22","","8","","16.1","","98.58","","","","-21","","NA"
"-101.08","56.86","LYNN LAKE","5061645","2019-03-25 04:00","2019","03","25","04:00","-13.5","","-17.4","","73","","0.0","","","","0","","16.1","","98.53","","","","","","NA"
"-101.08","56.86","LYNN LAKE","5061645","2019-03-25 05:00","2019","03","25","05:00","-12.7","","-16.7","","72","","0.0","","16","","4","","16.1","","98.46","","","","-15","","NA"
"-101.08","56.86","LYNN LAKE","5061645","2019-03-25 06:00","2019","03","25","06:00","-11.4","","-15.7","","71","","0.0","","19","","4","","16.1","","98.39","","","","-14","","NA"
"-101.08","56.86","LYNN LAKE","5061645","2019-03-25 07:00","2019","03","25","07:00","-10.4","","-14.5","","72","","0.0","","","M","4","","16.1","","98.32","","","","-13","","NA"
"-101.08","56.86","LYNN LAKE","5061645","2019-03-25 08:00","2019","03","25","08:00","-7.4","","-14.2","","59","","0.0","","21","","11","","16.1","","98.24","","","","-12","","NA"
"-101.08","56.86","LYNN LAKE","5061645","2019-03-25 09:00","2019","03","25","09:00","-5.3","","-13.7","","52","","0.0","","20","","8","","16.1","","98.19","","","","-9","","NA"
"-101.08","56.86","LYNN LAKE","5061645","2019-03-25 10:00","2019","03","25","10:00","-4.1","","-12.9","","51","","0.0","","21","","13","","16.1","","98.08","","","","-9","","NA"
"-101.08","56.86","LYNN LAKE","5061645","2019-03-25 11:00","2019","03","25","11:00","-0.8","","-11.7","","44","","0.0","","21","","18","","16.1","","97.99","","","","-6","","NA"
"-101.08","56.86","LYNN LAKE","5061645","2019-03-25 12:00","2019","03","25","12:00","0.6","","-10.9","","42","","0.0","","22","","18","","16.1","","97.91","","","","","","NA"
"-101.08","56.86","LYNN LAKE","5061645","2019-03-25 13:00","2019","03","25","13:00","3.1","","-8.8","","42","","0.0","","23","","18","","16.1","","97.82","","","","","","NA"
"-101.08","56.86","LYNN LAKE","5061645","2019-03-25 14:00","2019","03","25","14:00","4.9","","-9.0","","36","","0.0","","26","","21","","16.1","","97.74","","","","","","NA"
"-101.08","56.86","LYNN LAKE","5061645","2019-03-25 15:00","2019","03","25","15:00","5.3","","-7.6","","39","","0.0","","22","","18","","16.1","","97.67","","","","","","NA"
"-101.08","56.86","LYNN LAKE","5061645","2019-03-25 16:00","2019","03","25","16:00","5.5","","-7.4","","39","","0.0","","23","","18","","16.1","","97.59","","","","","","NA"
"-101.08","56.86","LYNN LAKE","5061645","2019-03-25 17:00","2019","03","25","17:00","5.9","","-7.7","","37","","0.0","","22","","21","","16.1","","97.49","","","","","","NA"
"-101.08","56.86","LYNN LAKE","5061645","2019-03-25 18:00","2019","03","25","18:00","5.0","","-6.3","","44","","0.0","","22","","17","","16.1","","97.43","","","","","","NA"
"-101.08","56.86","LYNN LAKE","5061645","2019-03-25 19:00","2019","03","25","19:00","3.5","","-5.4","","52","","0.0","","23","","18","","16.1","","97.38","","","","","","NA"
"-101.08","56.86","LYNN LAKE","5061645","2019-03-25 20:00","2019","03","25","20:00","1.0","","-5.7","","61","","0.0","","21","","13","","16.1","","97.31","","","","","","NA"
"-101.08","56.86","LYNN LAKE","5061645","2019-03-25 21:00","2019","03","25","21:00","0.2","","-5.2","","67","","0.0","","21","","13","","16.1","","97.25","","","","","","NA"
"-101.08","56.86","LYNN LAKE","5061645","2019-03-25 22:00","2019","03","25","22:00","0.3","","-6.9","","59","","0.0","","21","","17","","16.1","","97.15","","","","","","NA"
"-101.08","56.86","LYNN LAKE","5061645","2019-03-25 23:00","2019","03","25","23:00","-0.7","","-8.3","","57","","0.0","","22","","17","","16.1","","97.07","","","","-6","","NA"
"-101.08","56.86","LYNN LAKE","5061645","2019-03-26 00:00","2019","03","26","00:00","-1.2","","-8.6","","57","","0.0","","23","","13","","16.1","","97.01","","","","-5","","NA"
"-101.08","56.86","LYNN LAKE","5061645","2019-03-26 01:00","2019","03","26","01:00","-2.1","","-9.1","","59","","0.0","","22","","17","","16.1","","96.94","","","","-7","","NA"
"-101.08","56.86","LYNN LAKE","5061645","2019-03-26 02:00","2019","03","26","02:00","-2.5","","-9.2","","60","","0.0","","23","","17","","16.1","","96.88","","","","-8","","NA"
"-101.08","56.86","LYNN LAKE","5061645","2019-03-26 03:00","2019","03","26","03:00","-2.6","","-8.9","","62","","0.0","","23","","17","","16.1","","96.81","","","","-8","","NA"
"-101.08","56.86","LYNN LAKE","5061645","2019-03-26 04:00","2019","03","26","04:00","-2.4","","-8.4","","63","","0.0","","22","","15","","16.1","","96.73","","","","-7","","NA"
"-101.08","56.86","LYNN LAKE","5061645","2019-03-26 05:00","2019","03","26","05:00","-2.6","","-8.0","","67","","0.0","","23","","17","","16.1","","96.66","","","","-8","","NA"
"-101.08","56.86","LYNN LAKE","5061645","2019-03-26 06:00","2019","03","26","06:00","-2.3","","-7.4","","68","","0.0","","22","","13","","16.1","","96.60","","","","-7","","NA"
"-101.08","56.86","LYNN LAKE","5061645","2019-03-26 07:00","2019","03","26","07:00","-1.3","","-6.0","","71","","0.0","","24","","11","","16.1","","96.55","","","","-5","","NA"
"-101.08","56.86","LYNN LAKE","5061645","2019-03-26 08:00","2019","03","26","08:00","-0.9","","-5.5","","71","","0.0","","23","","11","","16.1","","96.51","","","","-5","","NA"
"-101.08","56.86","LYNN LAKE","5061645","2019-03-26 09:00","2019","03","26","09:00","1.5","","-4.3","","65","","0.0","","26","","13","","16.1","","96.51","","","","","","NA"
"-101.08","56.86","LYNN LAKE","5061645","2019-03-26 10:00","2019","03","26","10:00","3.3","","-2.4","","66","","0.0","","29","","21","","16.1","","96.46","","","","","","NA"
"-101.08","56.86","LYNN LAKE","5061645","2019-03-26 11:00","2019","03","26","11:00","4.8","","-1.2","","65","","0.0","","30","","17","","16.1","","96.43","","","","","","NA"
"-101.08","56.86","LYNN LAKE","5061645","2019-03-26 12:00","2019","03","26","12:00","5.7","","-1.0","","62","","0.0","","29","","17","","16.1","","96.40","","","","","","NA"
"-101.08","56.86","LYNN LAKE","5061645","2019-03-26 13:00","2019","03","26","13:00","6.4","","-1.2","","58","","0.0","","29","","21","","16.1","","96.39","","","","","","NA"
"-101.08","56.86","LYNN LAKE","5061645","2019-03-26 14:00","2019","03","26","14:00","6.3","","-1.1","","59","","0.0","","27","","18","","16.1","","96.38","","","","","","NA"
"-101.08","56.86","LYNN LAKE","5061645","2019-03-26 15:00","2019","03","26","15:00","6.6","","-0.9","","59","","0.0","","28","","17","","16.1","","96.38","","","","","","NA"
"-101.08","56.86","LYNN LAKE","5061645","2019-03-26 16:00","2019","03","26","16:00","6.7","","-1.0","","58","","0.0","","28","","15","","16.1","","96.37","","","","","","NA"
"-101.08","56.86","LYNN LAKE","5061645","2019-03-26 17:00","2019","03","26","17:00","6.3","","-0.7","","61","","0.0","","29","","13","","16.1","","96.36","","","","","","NA"
"-101.08","56.86","LYNN LAKE","5061645","2019-03-26 18:00","2019","03","26","18:00","4.3","","-0.3","","72","","0.0","","34","","15","","16.1","","96.37","","","","","","NA"
"-101.08","56.86","LYNN LAKE","5061645","2019-03-26 19:00","2019","03","26","19:00","1.9","","-0.9","","82","","0.0","","35","","11","","16.1","","96.39","","","","","","NA"
"-101.08","56.86","LYNN LAKE","5061645","2019-03-26 20:00","2019","03","26","20:00","0.3","","-1.4","","88","","0.0","","31","","8","","16.1","","96.43","","","","","","NA"
"-101.08","56.86","LYNN LAKE","5061645","2019-03-26 21:00","2019","03","26","21:00","-0.2","","-1.5","","91","","0.0","","27","","8","","16.1","","96.41","","","","-3","","NA"
"-101.08","56.86","LYNN LAKE","5061645","2019-03-26 22:00","2019","03","26","22:00","-0.6","","-1.7","","92","","0.0","","26","","8","","16.1","","96.39","","","","-3","","NA"
"-101.08","56.86","LYNN LAKE","5061645","2019-03-26 23:00","2019","03","26","23:00","-0.2","","-1.6","","90","","0.0","","27","","8","","16.1","","96.38","","","","-3","","NA"
"-101.08","56.86","LYNN LAKE","5061645","2019-03-27 00:00","2019","03","27","00:00","0.1","","-1.5","","89","","0.0","","28","","9","","16.1","","96.38","","","","","","NA"
"-101.08","56.86","LYNN LAKE","5061645","2019-03-27 01:00","2019","03","27","01:00","0.2","","-1.3","","90","","0.0","","28","","9","","16.1","","96.38","","","","","","NA"
"-101.08","56.86","LYNN LAKE","5061645","2019-03-27 02:00","2019","03","27","02:00","0.6","","-0.4","","93","","0.0","","31","","9","","16.1","","96.38","","","","","","NA"
"-101.08","56.86","LYNN LAKE","5061645","2019-03-27 03:00","2019","03","27","03:00","0.7","","0.3","","97","","0.0","","31","","5","","16.1","","96.37","","","","","","NA"
"-101.08","56.86","LYNN LAKE","5061645","2019-03-27 04:00","2019","03","27","04:00","0.5","","0.2","","98","","0.0","","35","","9","","16.1","","96.36","","","","","","NA"
"-101.08","56.86","LYNN LAKE","5061645","2019-03-27 05:00","2019","03","27","05:00","0.3","","0.0","","98","","0.0","","34","","9","","16.1","","96.39","","","","","","Rain,Snow"
"-101.08","56.86","LYNN LAKE","5061645","2019-03-27 06:00","2019","03","27","06:00","-1.8","","-2.2","","97","","0.0","","36","","22","","12.9","","96.48","","","","-8","","Snow"
"-101.08","56.86","LYNN LAKE","5061645","2019-03-27 07:00","2019","03","27","07:00","-3.9","","-5.2","","91","","0.0","","36","","15","","11.3","","96.57","","","","-9","","Snow"
"-101.08","56.86","LYNN LAKE","5061645","2019-03-27 08:00","2019","03","27","08:00","-5.4","","-6.6","","91","","0.0","","34","","24","","4.8","","96.66","","","","-13","","Snow"
"-101.08","56.86","LYNN LAKE","5061645","2019-03-27 09:00","2019","03","27","09:00","-5.9","","-7.7","","88","","0.0","","33","","22","","4.8","","96.72","","","","-13","","Snow"
"-101.08","56.86","LYNN LAKE","5061645","2019-03-27 10:00","2019","03","27","10:00","-6.1","","-8.7","","82","","0.0","","34","","17","","4.8","","96.77","","","","-12","","Snow"
"-101.08","56.86","LYNN LAKE","5061645","2019-03-27 11:00","2019","03","27","11:00","-5.1","","-9.5","","71","","0.0","","34","","24","","16.1","","96.82","","","","-12","","Snow"
"-101.08","56.86","LYNN LAKE","5061645","2019-03-27 12:00","2019","03","27","12:00","-6.2","","-9.6","","77","","0.0","","34","","22","","8.1","","96.87","","","","-13","","Snow"
"-101.08","56.86","LYNN LAKE","5061645","2019-03-27 13:00","2019","03","27","13:00","-5.2","","-10.2","","68","","0.0","","32","","24","","16.1","","96.89","","","","-12","","Snow"
"-101.08","56.86","LYNN LAKE","5061645","2019-03-27 14:00","2019","03","27","14:00","-5.4","","-10.7","","67","","0.0","","34","","24","","16.1","","96.95","","","","-13","","Snow"
"-101.08","56.86","LYNN LAKE","5061645","2019-03-27 15:00","2019","03","27","15:00","-6.2","","-12.1","","63","","0.0","","34","","26","","16.1","","97.03","","","","-14","","Snow"
"-101.08","56.86","LYNN LAKE","5061645","2019-03-27 16:00","2019","03","27","16:00","-6.5","","-11.8","","66","","0.0","","34","","22","","16.1","","97.10","","","","-14","","Snow"
"-101.08","56.86","LYNN LAKE","5061645","2019-03-27 17:00","2019","03","27","17:00","-6.8","","-11.6","","69","","0.0","","32","","30","","16.1","","97.17","","","","-15","","Snow"
"-101.08","56.86","LYNN LAKE","5061645","2019-03-27 18:00","2019","03","27","18:00","-7.2","","-11.5","","72","","0.0","","32","","18","","16.1","","97.25","","","","-14","","Snow"
"-101.08","56.86","LYNN LAKE","5061645","2019-03-27 19:00","2019","03","27","19:00","-7.8","","-12.6","","69","","0.0","","34","","24","","16.1","","97.33","","","","-16","","Snow"
"-101.08","56.86","LYNN LAKE","5061645","2019-03-27 20:00","2019","03","27","20:00","-9.3","","-12.3","","79","","0.0","","34","","18","","16.1","","97.44","","","","-17","","NA"
"-101.08","56.86","LYNN LAKE","5061645","2019-03-27 21:00","2019","03","27","21:00","-10.3","","-12.5","","84","","0.0","","32","","11","","16.1","","97.52","","","","-16","","NA"
"-101.08","56.86","LYNN LAKE","5061645","2019-03-27 22:00","2019","03","27","22:00","-11.2","","-14.8","","75","","0.0","","34","","15","","16.1","","97.57","","","","-18","","NA"
"-101.08","56.86","LYNN LAKE","5061645","2019-03-27 23:00","2019","03","27","23:00","-12.6","","-16.8","","71","","0.0","","32","","9","","16.1","","97.65","","","","-18","","NA"
"-101.08","56.86","LYNN LAKE","5061645","2019-03-28 00:00","2019","03","28","00:00","-14.2","","-17.4","","77","","0.0","","29","","11","","16.1","","97.68","","","","-21","","NA"
"-101.08","56.86","LYNN LAKE","5061645","2019-03-28 01:00","2019","03","28","01:00","-15.4","","-18.0","","81","","0.0","","28","","11","","16.1","","97.69","","","","-22","","NA"
"-101.08","56.86","LYNN LAKE","5061645","2019-03-28 02:00","2019","03","28","02:00","-15.9","","-18.2","","83","","0.0","","30","","11","","16.1","","97.74","","","","-23","","NA"
"-101.08","56.86","LYNN LAKE","5061645","2019-03-28 03:00","2019","03","28","03:00","-16.7","","-18.6","","85","","0.0","","29","","9","","16.1","","97.79","","","","-23","","NA"
"-101.08","56.86","LYNN LAKE","5061645","2019-03-28 04:00","2019","03","28","04:00","-17.4","","-19.2","","86","","0.0","","26","","8","","16.1","","97.81","","","","-23","","NA"
"-101.08","56.86","LYNN LAKE","5061645","2019-03-28 05:00","2019","03","28","05:00","-17.8","","-19.6","","86","","0.0","","28","","11","","16.1","","97.82","","","","-25","","NA"
"-101.08","56.86","LYNN LAKE","5061645","2019-03-28 06:00","2019","03","28","06:00","-17.4","","-19.8","","82","","0.0","","30","","9","","16.1","","97.82","","","","-24","","NA"
"-101.08","56.86","LYNN LAKE","5061645","2019-03-28 07:00","2019","03","28","07:00","-16.7","","-19.4","","80","","0.0","","30","","9","","16.1","","97.83","","","","-23","","NA"
"-101.08","56.86","LYNN LAKE","5061645","2019-03-28 08:00","2019","03","28","08:00","-15.4","","-19.0","","74","","0.0","","28","","11","","16.1","","97.80","","","","-22","","NA"
"-101.08","56.86","LYNN LAKE","5061645","2019-03-28 09:00","2019","03","28","09:00","-13.4","","-18.6","","65","","0.0","","27","","11","","16.1","","97.76","","","","-20","","NA"
"-101.08","56.86","LYNN LAKE","5061645","2019-03-28 10:00","2019","03","28","10:00","-9.6","","-16.2","","59","","0.0","","28","","13","","16.1","","97.67","","","","-16","","NA"
"-101.08","56.86","LYNN LAKE","5061645","2019-03-28 11:00","2019","03","28","11:00","-6.6","","-13.7","","58","","0.0","","29","","15","","16.1","","97.60","","","","-13","","NA"
"-101.08","56.86","LYNN LAKE","5061645","2019-03-28 12:00","2019","03","28","12:00","-5.0","","-12.9","","54","","0.0","","30","","15","","16.1","","97.53","","","","-11","","NA"
"-101.08","56.86","LYNN LAKE","5061645","2019-03-28 13:00","2019","03","28","13:00","-4.2","","-12.5","","53","","0.0","","29","","17","","16.1","","97.48","","","","-10","","NA"
"-101.08","56.86","LYNN LAKE","5061645","2019-03-28 14:00","2019","03","28","14:00","-3.6","","-13.7","","46","","0.0","","28","","21","","16.1","","97.41","","","","-10","","NA"
"-101.08","56.86","LYNN LAKE","5061645","2019-03-28 15:00","2019","03","28","15:00","-3.1","","-11.4","","53","","0.0","","30","","9","","16.1","","97.35","","","","-7","","NA"
"-101.08","56.86","LYNN LAKE","5061645","2019-03-28 16:00","2019","03","28","16:00","-2.8","","-9.7","","59","","0.0","","","M","11","","16.1","","97.31","","","","-7","","NA"
"-101.08","56.86","LYNN LAKE","5061645","2019-03-28 17:00","2019","03","28","17:00","-3.6","","-7.0","","77","","0.0","","","M","4","","4.8","","97.30","","","","-5","","Snow"
"-101.08","56.86","LYNN LAKE","5061645","2019-03-28 18:00","2019","03","28","18:00","-4.2","","-5.3","","92","","0.0","","5","","5","","2.0","","97.27","","","","-6","","Snow"
"-101.08","56.86","LYNN LAKE","5061645","2019-03-28 19:00","2019","03","28","19:00","-4.7","","-5.0","","98","","0.0","","8","","11","","1.6","","97.22","","","","-9","","Snow"
"-101.08","56.86","LYNN LAKE","5061645","2019-03-28 20:00","2019","03","28","20:00","-5.6","","-5.9","","98","","0.0","","7","","13","","2.0","","97.22","","","","-11","","Snow"
"-101.08","56.86","LYNN LAKE","5061645","2019-03-28 21:00","2019","03","28","21:00","-6.2","","-6.5","","98","","0.0","","5","","13","","2.0","","97.26","","","","-12","","Snow"
"-101.08","56.86","LYNN LAKE","5061645","2019-03-28 22:00","2019","03","28","22:00","-7.0","","-7.4","","97","","0.0","","5","","13","","4.8","","97.30","","","","-13","","Snow"
"-101.08","56.86","LYNN LAKE","5061645","2019-03-28 23:00","2019","03","28","23:00","-7.6","","-8.5","","93","","0.0","","4","","13","","16.1","","97.35","","","","-13","","Snow"
"-101.08","56.86","LYNN LAKE","5061645","2019-03-29 00:00","2019","03","29","00:00","-8.2","","-9.5","","90","","0.0","","1","","11","","16.1","","97.42","","","","-13","","NA"
"-101.08","56.86","LYNN LAKE","5061645","2019-03-29 01:00","2019","03","29","01:00","-10.4","","-11.3","","93","","0.0","","1","","11","","16.1","","97.49","","","","-16","","NA"
"-101.08","56.86","LYNN LAKE","5061645","2019-03-29 02:00","2019","03","29","02:00","-12.6","","-13.8","","91","","0.0","","36","","9","","16.1","","97.58","","","","-18","","NA"
"-101.08","56.86","LYNN LAKE","5061645","2019-03-29 03:00","2019","03","29","03:00","-14.0","","-15.9","","86","","0.0","","36","","9","","16.1","","97.67","","","","-20","","NA"
"-101.08","56.86","LYNN LAKE","5061645","2019-03-29 04:00","2019","03","29","04:00","-14.8","","-17.1","","83","","0.0","","31","","13","","16.1","","97.70","","","","-22","","NA"
"-101.08","56.86","LYNN LAKE","5061645","2019-03-29 05:00","2019","03","29","05:00","-15.8","","-18.1","","83","","0.0","","31","","11","","16.1","","97.75","","","","-23","","NA"
"-101.08","56.86","LYNN LAKE","5061645","2019-03-29 06:00","2019","03","29","06:00","-16.9","","-19.0","","84","","0.0","","29","","11","","16.1","","97.79","","","","-24","","NA"
"-101.08","56.86","LYNN LAKE","5061645","2019-03-29 07:00","2019","03","29","07:00","-17.0","","-19.0","","85","","0.0","","28","","13","","16.1","","97.84","","","","-25","","NA"
"-101.08","56.86","LYNN LAKE","5061645","2019-03-29 08:00","2019","03","29","08:00","-14.5","","-17.2","","80","","0.0","","32","","11","","16.1","","97.91","","","","-21","","NA"
"-101.08","56.86","LYNN LAKE","5061645","2019-03-29 09:00","2019","03","29","09:00","-12.4","","-16.9","","70","","0.0","","32","","18","","16.1","","97.93","","","","-20","","NA"
"-101.08","56.86","LYNN LAKE","5061645","2019-03-29 10:00","2019","03","29","10:00","-10.9","","-16.9","","62","","0.0","","33","","18","","16.1","","98.00","","","","-19","","NA"
"-101.08","56.86","LYNN LAKE","5061645","2019-03-29 11:00","2019","03","29","11:00","-9.2","","-17.1","","53","","0.0","","34","","17","","16.1","","98.03","","","","-16","","NA"
"-101.08","56.86","LYNN LAKE","5061645","2019-03-29 12:00","2019","03","29","12:00","-7.7","","-15.7","","53","","0.0","","33","","22","","16.1","","98.08","","","","-15","","NA"
"-101.08","56.86","LYNN LAKE","5061645","2019-03-29 13:00","2019","03","29","13:00","-6.8","","-13.8","","58","","0.0","","32","","30","","16.1","","98.10","","","","-15","","NA"
"-101.08","56.86","LYNN LAKE","5061645","2019-03-29 14:00","2019","03","29","14:00","-5.8","","-12.3","","60","","0.0","","34","","22","","16.1","","98.15","","","","-13","","NA"
"-101.08","56.86","LYNN LAKE","5061645","2019-03-29 15:00","2019","03","29","15:00","-5.5","","-12.3","","59","","0.0","","33","","24","","16.1","","98.15","","","","-13","","NA"
"-101.08","56.86","LYNN LAKE","5061645","2019-03-29 16:00","2019","03","29","16:00","-5.2","","-11.7","","61","","0.0","","31","","17","","16.1","","98.18","","","","-11","","NA"
"-101.08","56.86","LYNN LAKE","5061645","2019-03-29 17:00","2019","03","29","17:00","-4.3","","-10.9","","60","","0.0","","32","","18","","16.1","","98.22","","","","-10","","NA"
"-101.08","56.86","LYNN LAKE","5061645","2019-03-29 18:00","2019","03","29","18:00","-4.5","","-10.4","","64","","0.0","","31","","21","","16.1","","98.26","","","","-11","","Snow"
"-101.08","56.86","LYNN LAKE","5061645","2019-03-29 19:00","2019","03","29","19:00","-5.0","","-10.8","","64","","0.0","","31","","17","","16.1","","98.27","","","","-11","","NA"
"-101.08","56.86","LYNN LAKE","5061645","2019-03-29 20:00","2019","03","29","20:00","-6.3","","-10.7","","71","","0.0","","27","","9","","16.1","","98.25","","","","-11","","NA"
"-101.08","56.86","LYNN LAKE","5061645","2019-03-29 21:00","2019","03","29","21:00","-5.6","","-9.5","","74","","0.0","","29","","8","","16.1","","98.25","","","","-9","","NA"
"-101.08","56.86","LYNN LAKE","5061645","2019-03-29 22:00","2019","03","29","22:00","-5.1","","-9.0","","74","","0.0","","31","","11","","16.1","","98.23","","","","-10","","NA"
"-101.08","56.86","LYNN LAKE","5061645","2019-03-29 23:00","2019","03","29","23:00","-6.9","","-9.2","","84","","0.0","","30","","11","","16.1","","98.24","","","","-12","","NA"
"-101.08","56.86","LYNN LAKE","5061645","2019-03-30 00:00","2019","03","30","00:00","-8.1","","-9.8","","88","","0.0","","29","","11","","16.1","","98.24","","","","-13","","NA"
"-101.08","56.86","LYNN LAKE","5061645","2019-03-30 01:00","2019","03","30","01:00","-9.2","","-10.6","","90","","0.0","","29","","11","","16.1","","98.28","","","","-15","","NA"
"-101.08","56.86","LYNN LAKE","5061645","2019-03-30 02:00","2019","03","30","02:00","-10.1","","-11.2","","92","","0.0","","28","","11","","16.1","","98.29","","","","-16","","NA"
"-101.08","56.86","LYNN LAKE","5061645","2019-03-30 03:00","2019","03","30","03:00","-9.8","","-10.7","","93","","0.0","","28","","13","","16.1","","98.28","","","","-16","","NA"
"-101.08","56.86","LYNN LAKE","5061645","2019-03-30 04:00","2019","03","30","04:00","-10.2","","-11.1","","93","","0.0","","29","","13","","16.1","","98.27","","","","-16","","NA"
"-101.08","56.86","LYNN LAKE","5061645","2019-03-30 05:00","2019","03","30","05:00","-11.1","","-11.8","","95","","0.0","","29","","13","","16.1","","98.27","","","","-18","","NA"
"-101.08","56.86","LYNN LAKE","5061645","2019-03-30 06:00","2019","03","30","06:00","-11.2","","-11.7","","96","","0.0","","28","","13","","16.1","","98.30","","","","-18","","NA"
"-101.08","56.86","LYNN LAKE","5061645","2019-03-30 07:00","2019","03","30","07:00","-9.6","","-10.7","","92","","0.0","","30","","11","","16.1","","98.34","","","","-15","","NA"
"-101.08","56.86","LYNN LAKE","5061645","2019-03-30 08:00","2019","03","30","08:00","-8.3","","-10.0","","88","","0.0","","27","","9","","16.1","","98.32","","","","-13","","NA"
"-101.08","56.86","LYNN LAKE","5061645","2019-03-30 09:00","2019","03","30","09:00","-5.7","","-9.0","","78","","0.0","","28","","11","","16.1","","98.29","","","","-10","","NA"
"-101.08","56.86","LYNN LAKE","5061645","2019-03-30 10:00","2019","03","30","10:00","-2.9","","-8.4","","66","","0.0","","29","","17","","16.1","","98.28","","","","-8","","NA"
"-101.08","56.86","LYNN LAKE","5061645","2019-03-30 11:00","2019","03","30","11:00","-1.9","","-8.2","","62","","0.0","","29","","18","","16.1","","98.26","","","","-7","","NA"
"-101.08","56.86","LYNN LAKE","5061645","2019-03-30 12:00","2019","03","30","12:00","-0.7","","-8.2","","57","","0.0","","31","","11","","16.1","","98.22","","","","-4","","NA"
"-101.08","56.86","LYNN LAKE","5061645","2019-03-30 13:00","2019","03","30","13:00","0.0","","-8.8","","52","","0.2","","32","","15","","16.1","","98.20","","","","-4","","NA"
"-101.08","56.86","LYNN LAKE","5061645","2019-03-30 14:00","2019","03","30","14:00","0.9","","-9.2","","47","","0.0","","34","","11","","16.1","","98.15","","","","","","NA"
"-101.08","56.86","LYNN LAKE","5061645","2019-03-30 15:00","2019","03","30","15:00","1.0","","-10.1","","43","","0.0","","29","","9","","16.1","","98.12","","","","","","NA"
"-101.08","56.86","LYNN LAKE","5061645","2019-03-30 16:00","2019","03","30","16:00","1.5","","-11.5","","38","","0.0","","29","","11","","16.1","","98.09","","","","","","NA"
"-101.08","56.86","LYNN LAKE","5061645","2019-03-30 17:00","2019","03","30","17:00","1.2","","-11.2","","39","","0.0","","31","","17","","16.1","","98.06","","","","","","NA"
"-101.08","56.86","LYNN LAKE","5061645","2019-03-30 18:00","2019","03","30","18:00","0.1","","-11.9","","40","","0.0","","30","","9","","16.1","","98.01","","","","","","NA"
"-101.08","56.86","LYNN LAKE","5061645","2019-03-30 19:00","2019","03","30","19:00","-0.4","","-11.0","","45","","0.0","","26","","9","","16.1","","97.97","","","","-4","","NA"
"-101.08","56.86","LYNN LAKE","5061645","2019-03-30 20:00","2019","03","30","20:00","-1.0","","-10.1","","50","","0.0","","26","","8","","16.1","","97.94","","","","-4","","NA"
"-101.08","56.86","LYNN LAKE","5061645","2019-03-30 21:00","2019","03","30","21:00","-1.8","","-9.5","","56","","0.0","","29","","8","","16.1","","97.92","","","","-5","","NA"
"-101.08","56.86","LYNN LAKE","5061645","2019-03-30 22:00","2019","03","30","22:00","-3.0","","-8.1","","68","","0.0","","29","","8","","16.1","","97.89","","","","-6","","NA"
"-101.08","56.86","LYNN LAKE","5061645","2019-03-30 23:00","2019","03","30","23:00","-4.2","","-7.2","","80","","0.0","","29","","8","","16.1","","97.90","","","","-8","","NA"
"-101.08","56.86","LYNN LAKE","5061645","2019-03-31 00:00","2019","03","31","00:00","-4.6","","-5.7","","92","","0.0","","29","","11","","16.1","","97.91","","","","-9","","NA"
"-101.08","56.86","LYNN LAKE","5061645","2019-03-31 01:00","2019","03","31","01:00","-3.2","","-5.2","","86","","0.0","","34","","17","","16.1","","97.95","","","","-9","","NA"
"-101.08","56.86","LYNN LAKE","5061645","2019-03-31 02:00","2019","03","31","02:00","-4.4","","-8.3","","75","","0.0","","36","","24","","16.1","","98.04","","","","-11","","NA"
"-101.08","56.86","LYNN LAKE","5061645","2019-03-31 03:00","2019","03","31","03:00","-5.3","","-9.8","","71","","0.0","","35","","21","","16.1","","98.07","","","","-12","","NA"
"-101.08","56.86","LYNN LAKE","5061645","2019-03-31 04:00","2019","03","31","04:00","-6.6","","-10.2","","76","","0.0","","34","","18","","16.1","","98.11","","","","-13","","NA"
"-101.08","56.86","LYNN LAKE","5061645","2019-03-31 05:00","2019","03","31","05:00","-7.8","","-10.2","","83","","0.0","","32","","13","","16.1","","98.16","","","","-14","","NA"
"-101.08","56.86","LYNN LAKE","5061645","2019-03-31 06:00","2019","03","31","06:00","-8.7","","-11.3","","82","","0.0","","31","","13","","16.1","","98.19","","","","-15","","NA"
"-101.08","56.86","LYNN LAKE","5061645","2019-03-31 07:00","2019","03","31","07:00","-9.8","","-11.8","","86","","0.0","","29","","11","","16.1","","98.20","","","","-15","","NA"
"-101.08","56.86","LYNN LAKE","5061645","2019-03-31 08:00","2019","03","31","08:00","-7.6","","-10.5","","80","","0.0","","29","","8","","16.1","","98.18","","","","-12","","NA"
"-101.08","56.86","LYNN LAKE","5061645","2019-03-31 09:00","2019","03","31","09:00","-4.8","","-9.5","","70","","0.0","","31","","21","","16.1","","98.16","","","","-11","","NA"
"-101.08","56.86","LYNN LAKE","5061645","2019-03-31 10:00","2019","03","31","10:00","-3.9","","-10.6","","60","","0.0","","33","","18","","16.1","","98.09","","","","-10","","NA"
"-101.08","56.86","LYNN LAKE","5061645","2019-03-31 11:00","2019","03","31","11:00","-3.4","","-10.1","","60","","0.0","","30","","18","","16.1","","98.07","","","","-9","","NA"
"-101.08","56.86","LYNN LAKE","5061645","2019-03-31 12:00","2019","03","31","12:00","-2.9","","-10.9","","54","","0.0","","29","","21","","16.1","","98.00","","","","-9","","NA"
"-101.08","56.86","LYNN LAKE","5061645","2019-03-31 13:00","2019","03","31","13:00","-2.7","","-14.0","","42","","0.0","","35","","24","","16.1","","97.96","","","","-9","","NA"
"-101.08","56.86","LYNN LAKE","5061645","2019-03-31 14:00","2019","03","31","14:00","-2.2","","-11.8","","48","","0.0","","31","","17","","16.1","","97.90","","","","-8","","NA"
"-101.08","56.86","LYNN LAKE","5061645","2019-03-31 15:00","2019","03","31","15:00","-2.0","","-12.4","","45","","0.0","","30","","28","","16.1","","97.83","","","","-9","","NA"
"-101.08","56.86","LYNN LAKE","5061645","2019-03-31 16:00","2019","03","31","16:00","-1.8","","-10.7","","51","","0.0","","31","","18","","16.1","","97.78","","","","-7","","NA"
"-101.08","56.86","LYNN LAKE","5061645","2019-03-31 17:00","2019","03","31","17:00","-2.0","","-8.8","","60","","0.0","","28","","17","","16.1","","97.72","","","","-7","","NA"
"-101.08","56.86","LYNN LAKE","5061645","2019-03-31 18:00","2019","03","31","18:00","-2.2","","-8.4","","63","","0.0","","29","","15","","16.1","","97.66","","","","-7","","NA"
"-101.08","56.86","LYNN LAKE","5061645","2019-03-31 19:00","2019","03","31","19:00","-2.7","","-9.0","","62","","0.0","","27","","11","","16.1","","97.57","","","","-7","","NA"
"-101.08","56.86","LYNN LAKE","5061645","2019-03-31 20:00","2019","03","31","20:00","-4.3","","-9.6","","67","","0.0","","24","","9","","16.1","","97.48","","","","-8","","NA"
"-101.08","56.86","LYNN LAKE","5061645","2019-03-31 21:00","2019","03","31","21:00","-5.3","","-10.5","","67","","0.0","","24","","11","","16.1","","97.38","","","","-10","","NA"
"-101.08","56.86","LYNN LAKE","5061645","2019-03-31 22:00","2019","03","31","22:00","-6.0","","-11.0","","68","","0.0","","23","","13","","16.1","","97.25","","","","-11","","NA"
"-101.08","56.86","LYNN LAKE","5061645","2019-03-31 23:00","2019","03","31","23:00","-6.5","","-11.5","","68","","0.0","","22","","11","","16.1","","97.11","","","","-11","","NA"
