"Longitude (x)","Latitude (y)","Station Name","Climate ID","Date/Time (LST)","Year","Month","Day","Time (LST)","Temp (°C)","Temp Flag","Dew Point Temp (°C)","Dew Point Temp Flag","Rel Hum (%)","Rel Hum Flag","Precip. Amount (mm)","Precip. Amount Flag","Wind Dir (10s deg)","Wind Dir Flag","Wind Spd (km/h)","Wind Spd Flag","Visibility (km)","Visibility Flag","Stn Press (kPa)","Stn Press Flag","Hmdx","Hmdx Flag","Wind Chill","Wind Chill Flag","Weather"
"-66.09","43.83","YARMOUTH A","8206500","2012-02-01 00:00","2012","02","01","00:00","-3.1","","-4.2","","92","","","","9","","17","E","6.4","","101.45","","","","-9","E","Snow"
"-66.09","43.83","YARMOUTH A","8206500","2012-02-01 01:00","2012","02","01","01:00","-2.8","","-3.8","","93","","","","9","","17","E","16.1","","101.37","","","","-8","E","Snow"
"-66.09","43.83","YARMOUTH A","8206500","2012-02-01 02:00","2012","02","01","02:00","-2.4","","-3.5","","92","","","","9","","17","E","24.1","","101.33","","","","-8","E","Cloudy"
"-66.09","43.83","YARMOUTH A","8206500","2012-02-01 03:00","2012","02","01","03:00","-2.0","","-3.0","","93","","","","9","","17","E","24.1","","101.26","","","","-7","E","Cloudy"
"-66.09","43.83","YARMOUTH A","8206500","2012-02-01 04:00","2012","02","01","04:00","-1.4","","-2.3","","94","","","","9","","17","E","24.1","","101.23","","","","-7","E","Cloudy"
"-66.09","43.83","YARMOUTH A","8206500","2012-02-01 05:00","2012","02","01","05:00","-0.7","","-1.7","","93","","","","9","","17","E","24.1","","101.16","","","","-6","E","Cloudy"
"-66.09","43.83","YARMOUTH A","8206500","2012-02-01 06:00","2012","02","01","06:00","0.3","","-0.6","","94","","","","9","","17","E","24.1","","101.05","","","","","","Cloudy"
"-66.09","43.83","YARMOUTH A","8206500","2012-02-01 07:00","2012","02","01","07:00","0.7","","-0.1","","94","","","","9","","17","E","12.9","","100.99","","","","","","Cloudy"
"-66.09","43.83","YARMOUTH A","8206500","2012-02-01 08:00","2012","02","01","08:00","1.1","","0.4","","95","","","","9","","17","E","3.2","","100.85","","","","","","Fog"
"-66.09","43.83","YARMOUTH A","8206500","2012-02-01 09:00","2012","02","01","09:00","1.9","","1.3","","96","","","","9","","26","E","2.4","","100.82","","","","","","Fog"
"-66.09","43.83","YARMOUTH A","8206500","2012-02-01 10:00","2012","02","01","10:00","3.1","","2.6","","97","","","","9","","17","E","0.6","","100.73","","","","","","Fog"
"-66.09","43.83","YARMOUTH A","8206500","2012-02-01 11:00","2012","02","01","11:00","4.2","","4.0","","99","","","","9","","17","E","0.4","","100.64","","","","","","Fog"
"-66.09","43.83","YARMOUTH A","8206500","2012-02-01 12:00","2012","02","01","12:00","5.5","","5.4","","99","","","","14","","9","E","3.2","","100.45","","","","","","Fog"
"-66.09","43.83","YARMOUTH A","8206500","2012-02-01 13:00","2012","02","01","13:00","6.5","","6.3","","99","","","","14","","9","E","4.8","","100.34","","","","","","Fog"
"-66.09","43.83","YARMOUTH A","8206500","2012-02-01 14:00","2012","02","01","14:00","7.1","","6.4","","95","","","","23","","9","E","6.4","","100.24","","","","","","Fog"
"-66.09","43.83","YARMOUTH A","8206500","2012-02-01 15:00","2012","02","01","15:00","7.0","","5.9","","93","","","","27","","9","E","6.4","","100.18","","","","","","Fog"
"-66.09","43.83","YARMOUTH A","8206500","2012-02-01 16:00","2012","02","01","16:00","6.7","","5.6","","93","","","","23","","4","E","6.4","","100.18","","","","","","Fog"
"-66.09","43.83","YARMOUTH A","8206500","2012-02-01 17:00","2012","02","01","17:00","5.8","","5.0","","95","","","","27","","4","E","6.4","","100.15","","","","","","Rain Showers,Fog"
"-66.09","43.83","YARMOUTH A","8206500","2012-02-01 18:00","2012","02","01","18:00","5.3","","4.8","","97","","","","27","","9","E","4.8","","100.19","","","","","","Rain Showers,Fog"
"-66.09","43.83","YARMOUTH A","8206500","2012-02-01 19:00","2012","02","01","19:00","4.7","","4.3","","97","","","","27","","9","E","4.8","","100.23","","","","","","Rain Showers,Fog"
"-66.09","43.83","YARMOUTH A","8206500","2012-02-01 20:00","2012","02","01","20:00","4.3","","3.5","","95","","","","27","","9","E","9.7","","100.28","","","","","","Fog"
"-66.09","43.83","YARMOUTH A","8206500","2012-02-01 21:00","2012","02","01","21:00","3.9","","3.0","","94","","","","27","","9","E","9.7","","100.29","","","","","","Fog"
"-66.09","43.83","YARMOUTH A","8206500","2012-02-01 22:00","2012","02","01","22:00","3.6","","2.6","","93","","","","27","","9","E","14.5","","100.33","","","","","","Rain Showers"
"-66.09","43.83","YARMOUTH A","8206500","2012-02-01 23:00","2012","02","01","23:00","3.3","","2.5","","94","","","","27","","9","E","9.7","","100.34","","","","","","Fog"
"-66.09","43.83","YARMOUTH A","8206500","2012-02-02 00:00","2012","02","02","00:00","2.9","","2.1","","94","","","","27","","9","E","8.0","","100.39","","","","","","Fog"
"-66.09","43.83","YARMOUTH A","8206500","2012-02-02 01:00","2012","02","02","01:00","1.6","","0.9","","95","","","","32","","9","E","8.0","","100.43","","","","","","Rain Showers,Fog"
"-66.09","43.83","YARMOUTH A","8206500","2012-02-02 02:00","2012","02","02","02:00","1.0","","0.2","","94","","","","32","","17","E","8.0","","100.53","","","","","","Rain Showers,Fog"
"-66.09","43.83","YARMOUTH A","8206500","2012-02-02 03:00","2012","02","02","03:00","0.3","","-0.5","","94","","","","32","","17","E","8.0","","100.61","","","","","","Rain Showers,Fog"
"-66.09","43.83","YARMOUTH A","8206500","2012-02-02 04:00","2012","02","02","04:00","0.1","","-1.0","","92","","","","32","","17","E","9.7","","100.66","","","","","","Fog"
"-66.09","43.83","YARMOUTH A","8206500","2012-02-02 05:00","2012","02","02","05:00","0.1","","-1.1","","92","","","","32","","17","E","14.5","","100.76","","","","","","Cloudy"
"-66.09","43.83","YARMOUTH A","8206500","2012-02-02 06:00","2012","02","02","06:00","-0.3","","-1.9","","89","","","","32","","26","E","19.3","","100.86","","","","-6","E","Cloudy"
"-66.09","43.83","YARMOUTH A","8206500","2012-02-02 07:00","2012","02","02","07:00","-0.7","","-2.6","","87","","","","36","","26","E","19.3","","100.91","","","","-7","E","Cloudy"
"-66.09","43.83","YARMOUTH A","8206500","2012-02-02 08:00","2012","02","02","08:00","-1.3","","-3.5","","85","","","","36","","26","E","24.1","","100.97","","","","-8","E","Cloudy"
"-66.09","43.83","YARMOUTH A","8206500","2012-02-02 09:00","2012","02","02","09:00","-1.7","","-3.8","","86","","","","36","","17","E","24.1","","101.04","","","","-7","E","Cloudy"
"-66.09","43.83","YARMOUTH A","8206500","2012-02-02 10:00","2012","02","02","10:00","-1.7","","-4.4","","82","","","","36","","17","E","24.1","","101.08","","","","-7","E","Cloudy"
"-66.09","43.83","YARMOUTH A","8206500","2012-02-02 11:00","2012","02","02","11:00","-1.2","","-4.0","","81","","","","36","","17","E","24.1","","101.09","","","","-6","E","Cloudy"
"-66.09","43.83","YARMOUTH A","8206500","2012-02-02 12:00","2012","02","02","12:00","-0.7","","-4.3","","77","","","","8","","19","","24.1","","101.09","","","","-6","","Cloudy"
"-66.09","43.83","YARMOUTH A","8206500","2012-02-02 13:00","2012","02","02","13:00","-0.7","","-3.2","","83","","","","4","","15","","6.4","","101.10","","","","-5","","Snow Showers"
"-66.09","43.83","YARMOUTH A","8206500","2012-02-02 14:00","2012","02","02","14:00","-0.2","","-4.2","","74","","","","3","","17","","24.1","","101.11","","","","-5","","Cloudy"
"-66.09","43.83","YARMOUTH A","8206500","2012-02-02 15:00","2012","02","02","15:00","-0.5","","-4.5","","74","","","","2","","19","","24.1","","101.08","","","","-6","","Cloudy"
"-66.09","43.83","YARMOUTH A","8206500","2012-02-02 16:00","2012","02","02","16:00","-0.7","","-4.9","","73","","","","5","","15","","24.1","","101.11","","","","-5","","Cloudy"
"-66.09","43.83","YARMOUTH A","8206500","2012-02-02 17:00","2012","02","02","17:00","-0.8","","-4.8","","74","","","","4","","6","","24.1","","101.16","","","","-3","","Cloudy"
"-66.09","43.83","YARMOUTH A","8206500","2012-02-02 18:00","2012","02","02","18:00","-1.4","","-4.4","","80","","","","3","","15","","24.1","","101.22","","","","-6","","Cloudy"
"-66.09","43.83","YARMOUTH A","8206500","2012-02-02 19:00","2012","02","02","19:00","-1.8","","-4.6","","81","","","","5","","17","","24.1","","101.23","","","","-7","","Cloudy"
"-66.09","43.83","YARMOUTH A","8206500","2012-02-02 20:00","2012","02","02","20:00","-2.5","","-5.2","","82","","","","3","","20","","24.1","","101.27","","","","-8","","Cloudy"
"-66.09","43.83","YARMOUTH A","8206500","2012-02-02 21:00","2012","02","02","21:00","-3.1","","-5.3","","85","","","","4","","20","","24.1","","101.27","","","","-9","","Cloudy"
"-66.09","43.83","YARMOUTH A","8206500","2012-02-02 22:00","2012","02","02","22:00","-3.3","","-6.0","","82","","","","4","","22","","24.1","","101.27","","","","-10","","Cloudy"
"-66.09","43.83","YARMOUTH A","8206500","2012-02-02 23:00","2012","02","02","23:00","-3.7","","-6.5","","81","","","","3","","24","","24.1","","101.27","","","","-11","","Cloudy"
"-66.09","43.83","YARMOUTH A","8206500","2012-02-03 00:00","2012","02","03","00:00","-4.4","","-7.6","","78","","","","3","","24","","24.1","","101.26","","","","-11","","Cloudy"
"-66.09","43.83","YARMOUTH A","8206500","2012-02-03 01:00","2012","02","03","01:00","-4.9","","-7.7","","81","","","","3","","28","","24.1","","101.30","","","","-13","","Cloudy"
"-66.09","43.83","YARMOUTH A","8206500","2012-02-03 02:00","2012","02","03","02:00","-5.0","","-7.9","","80","","","","2","","30","","24.1","","101.28","","","","-13","","Cloudy"
"-66.09","43.83","YARMOUTH A","8206500","2012-02-03 03:00","2012","02","03","03:00","-5.7","","-8.8","","79","","","","3","","22","","24.1","","101.34","","","","-13","","Cloudy"
"-66.09","43.83","YARMOUTH A","8206500","2012-02-03 04:00","2012","02","03","04:00","-6.9","","-11.4","","70","","","","2","","24","","24.1","","101.36","","","","-15","","Cloudy"
"-66.09","43.83","YARMOUTH A","8206500","2012-02-03 05:00","2012","02","03","05:00","-7.0","","-10.6","","75","","","","2","","22","","24.1","","101.38","","","","-14","","Mainly Clear"
"-66.09","43.83","YARMOUTH A","8206500","2012-02-03 06:00","2012","02","03","06:00","-6.9","","-10.2","","77","","","","3","","19","","24.1","","101.44","","","","-14","","Mainly Clear"
"-66.09","43.83","YARMOUTH A","8206500","2012-02-03 07:00","2012","02","03","07:00","-6.9","","-9.9","","79","","","","2","","19","","24.1","","101.50","","","","-14","","Mainly Clear"
"-66.09","43.83","YARMOUTH A","8206500","2012-02-03 08:00","2012","02","03","08:00","-6.7","","-9.7","","79","","","","3","","20","","24.1","","101.57","","","","-14","","Mostly Cloudy"
"-66.09","43.83","YARMOUTH A","8206500","2012-02-03 09:00","2012","02","03","09:00","-5.8","","-8.8","","79","","","","36","","15","E","24.1","","101.62","","","","-12","E","Mostly Cloudy"
"-66.09","43.83","YARMOUTH A","8206500","2012-02-03 10:00","2012","02","03","10:00","-4.2","","-9.7","","65","","","","2","","32","","24.1","","101.62","","","","-12","","Snow Showers"
"-66.09","43.83","YARMOUTH A","8206500","2012-02-03 11:00","2012","02","03","11:00","-4.3","","-9.4","","68","","","","36","","33","","24.1","","101.63","","","","-12","","Mostly Cloudy"
"-66.09","43.83","YARMOUTH A","8206500","2012-02-03 12:00","2012","02","03","12:00","-4.0","","-10.3","","62","","","","36","","28","","24.1","","101.59","","","","-11","","Mostly Cloudy"
"-66.09","43.83","YARMOUTH A","8206500","2012-02-03 13:00","2012","02","03","13:00","-3.5","","-11.0","","56","","","","35","","35","","24.1","","101.54","","","","-12","","Cloudy"
"-66.09","43.83","YARMOUTH A","8206500","2012-02-03 14:00","2012","02","03","14:00","-4.3","","-10.8","","60","","","","1","","33","","24.1","","101.49","","","","-12","","Cloudy"
"-66.09","43.83","YARMOUTH A","8206500","2012-02-03 15:00","2012","02","03","15:00","-4.1","","-11.7","","55","","","","36","","37","","24.1","","101.53","","","","-13","","Cloudy"
"-66.09","43.83","YARMOUTH A","8206500","2012-02-03 16:00","2012","02","03","16:00","-3.9","","-11.0","","58","","","","35","","28","","24.1","","101.56","","","","-11","","Cloudy"
"-66.09","43.83","YARMOUTH A","8206500","2012-02-03 17:00","2012","02","03","17:00","-4.2","","-10.2","","63","","","","35","","24","","24.1","","101.57","","","","-11","","Cloudy"
"-66.09","43.83","YARMOUTH A","8206500","2012-02-03 18:00","2012","02","03","18:00","-4.3","","-9.4","","68","","","","35","","22","","24.1","","101.61","","","","-11","","Cloudy"
"-66.09","43.83","YARMOUTH A","8206500","2012-02-03 19:00","2012","02","03","19:00","-4.3","","-9.4","","68","","","","35","","15","","24.1","","101.64","","","","-10","","Cloudy"
"-66.09","43.83","YARMOUTH A","8206500","2012-02-03 20:00","2012","02","03","20:00","-4.1","","-10.4","","61","","","","36","","20","","24.1","","101.62","","","","-10","","Mostly Cloudy"
"-66.09","43.83","YARMOUTH A","8206500","2012-02-03 21:00","2012","02","03","21:00","-4.7","","-10.5","","64","","","","36","","17","","24.1","","101.62","","","","-11","","Mainly Clear"
"-66.09","43.83","YARMOUTH A","8206500","2012-02-03 22:00","2012","02","03","22:00","-5.3","","-10.3","","68","","","","36","","13","","24.1","","101.65","","","","-10","","Mainly Clear"
"-66.09","43.83","YARMOUTH A","8206500","2012-02-03 23:00","2012","02","03","23:00","-3.6","","-8.9","","67","","","","3","","20","","24.1","","101.63","","","","-10","","Mostly Cloudy"
"-66.09","43.83","YARMOUTH A","8206500","2012-02-04 00:00","2012","02","04","00:00","-3.2","","-8.4","","67","","","","33","","22","","24.1","","101.59","","","","-10","","Mostly Cloudy"
"-66.09","43.83","YARMOUTH A","8206500","2012-02-04 01:00","2012","02","04","01:00","-3.9","","-8.5","","70","","","","33","","20","","24.1","","101.57","","","","-10","","Mainly Clear"
"-66.09","43.83","YARMOUTH A","8206500","2012-02-04 02:00","2012","02","04","02:00","-3.9","","-9.2","","67","","","","34","","24","","24.1","","101.51","","","","-11","","Mainly Clear"
"-66.09","43.83","YARMOUTH A","8206500","2012-02-04 03:00","2012","02","04","03:00","-3.2","","-8.6","","66","","","","34","","19","","24.1","","101.50","","","","-9","","Cloudy"
"-66.09","43.83","YARMOUTH A","8206500","2012-02-04 04:00","2012","02","04","04:00","-2.7","","-8.9","","62","","","","33","","17","","24.1","","101.45","","","","-8","","Cloudy"
"-66.09","43.83","YARMOUTH A","8206500","2012-02-04 05:00","2012","02","04","05:00","-2.7","","-10.0","","57","","","","32","","15","","24.1","","101.44","","","","-8","","Cloudy"
"-66.09","43.83","YARMOUTH A","8206500","2012-02-04 06:00","2012","02","04","06:00","-2.3","","-8.3","","63","","","","33","","22","","24.1","","101.41","","","","-8","","Cloudy"
"-66.09","43.83","YARMOUTH A","8206500","2012-02-04 07:00","2012","02","04","07:00","-2.3","","-7.8","","66","","","","33","","17","","24.1","","101.41","","","","-8","","Cloudy"
"-66.09","43.83","YARMOUTH A","8206500","2012-02-04 08:00","2012","02","04","08:00","-2.4","","-7.4","","68","","","","34","","17","","24.1","","101.40","","","","-8","","Cloudy"
"-66.09","43.83","YARMOUTH A","8206500","2012-02-04 09:00","2012","02","04","09:00","-2.2","","-7.0","","70","","","","34","","26","","19.3","","101.36","","","","-9","","Snow Showers"
"-66.09","43.83","YARMOUTH A","8206500","2012-02-04 10:00","2012","02","04","10:00","-1.8","","-7.5","","65","","","","34","","24","","24.1","","101.34","","","","-8","","Snow Showers"
"-66.09","43.83","YARMOUTH A","8206500","2012-02-04 11:00","2012","02","04","11:00","-1.8","","-5.3","","77","","","","34","","24","","8.0","","101.36","","","","-8","","Snow Showers"
"-66.09","43.83","YARMOUTH A","8206500","2012-02-04 12:00","2012","02","04","12:00","-1.2","","-8.5","","58","","","","32","","30","","19.3","","101.29","","","","-8","","Mostly Cloudy"
"-66.09","43.83","YARMOUTH A","8206500","2012-02-04 13:00","2012","02","04","13:00","-1.9","","-8.4","","61","","","","33","","37","","24.1","","101.19","","","","-10","","Snow Showers"
"-66.09","43.83","YARMOUTH A","8206500","2012-02-04 14:00","2012","02","04","14:00","-2.3","","-8.9","","60","","","","34","","33","","24.1","","101.14","","","","-10","","Snow Showers"
"-66.09","43.83","YARMOUTH A","8206500","2012-02-04 15:00","2012","02","04","15:00","-1.7","","-8.5","","60","","","","34","","32","","24.1","","101.11","","","","-9","","Snow Showers"
"-66.09","43.83","YARMOUTH A","8206500","2012-02-04 16:00","2012","02","04","16:00","-2.7","","-9.3","","60","","","","35","","30","","24.1","","101.09","","","","-10","","Mainly Clear"
"-66.09","43.83","YARMOUTH A","8206500","2012-02-04 17:00","2012","02","04","17:00","-3.8","","-8.1","","72","","","","35","","22","","9.7","","101.11","","","","-10","","Snow Showers"
"-66.09","43.83","YARMOUTH A","8206500","2012-02-04 18:00","2012","02","04","18:00","-3.4","","-8.2","","69","","","","33","","22","","9.7","","101.13","","","","-10","","Snow Showers"
"-66.09","43.83","YARMOUTH A","8206500","2012-02-04 19:00","2012","02","04","19:00","-3.2","","-7.9","","70","","","","35","","22","","14.5","","101.18","","","","-10","","Snow Showers"
"-66.09","43.83","YARMOUTH A","8206500","2012-02-04 20:00","2012","02","04","20:00","-3.2","","-8.0","","69","","","","35","","24","","14.5","","101.20","","","","-10","","Snow Showers"
"-66.09","43.83","YARMOUTH A","8206500","2012-02-04 21:00","2012","02","04","21:00","-3.4","","-8.6","","67","","","","34","","30","","16.1","","101.20","","","","-11","","Snow Showers"
"-66.09","43.83","YARMOUTH A","8206500","2012-02-04 22:00","2012","02","04","22:00","-3.7","","-8.4","","70","","","","36","","19","","14.5","","101.21","","","","-10","","Mostly Cloudy"
"-66.09","43.83","YARMOUTH A","8206500","2012-02-04 23:00","2012","02","04","23:00","-4.5","","-7.2","","81","","","","35","","30","","4.8","","101.20","","","","-12","","Snow Showers"
"-66.09","43.83","YARMOUTH A","8206500","2012-02-05 00:00","2012","02","05","00:00","-5.3","","-8.9","","76","","","","36","","32","","4.8","","101.19","","","","-14","","Snow Showers"
"-66.09","43.83","YARMOUTH A","8206500","2012-02-05 01:00","2012","02","05","01:00","-5.7","","-10.5","","69","","","","36","","28","","14.5","","101.17","","","","-14","","Snow Showers"
"-66.09","43.83","YARMOUTH A","8206500","2012-02-05 02:00","2012","02","05","02:00","-5.9","","-11.4","","65","","","","35","","22","","19.3","","101.16","","","","-13","","Snow Showers"
"-66.09","43.83","YARMOUTH A","8206500","2012-02-05 03:00","2012","02","05","03:00","-6.2","","-12.1","","63","","","","34","","24","","14.5","","101.20","","","","-14","","Mostly Cloudy"
"-66.09","43.83","YARMOUTH A","8206500","2012-02-05 04:00","2012","02","05","04:00","-6.5","","-12.7","","61","","","","35","","22","","19.3","","101.17","","","","-14","","Snow Showers"
"-66.09","43.83","YARMOUTH A","8206500","2012-02-05 05:00","2012","02","05","05:00","-6.5","","-12.1","","64","","","","35","","22","","14.5","","101.20","","","","-14","","Snow Showers"
"-66.09","43.83","YARMOUTH A","8206500","2012-02-05 06:00","2012","02","05","06:00","-6.6","","-11.7","","67","","","","34","","22","","19.3","","101.21","","","","-14","","Mostly Cloudy"
"-66.09","43.83","YARMOUTH A","8206500","2012-02-05 07:00","2012","02","05","07:00","-7.0","","-12.1","","67","","","","36","","22","","19.3","","101.23","","","","-14","","Mostly Cloudy"
"-66.09","43.83","YARMOUTH A","8206500","2012-02-05 08:00","2012","02","05","08:00","-7.1","","-12.1","","67","","","","36","","24","","4.8","","101.25","","","","-15","","Snow Showers"
"-66.09","43.83","YARMOUTH A","8206500","2012-02-05 09:00","2012","02","05","09:00","-7.2","","-11.8","","70","","","","35","","26","","6.4","","101.25","","","","-15","","Snow Showers"
"-66.09","43.83","YARMOUTH A","8206500","2012-02-05 10:00","2012","02","05","10:00","-6.7","","-11.0","","71","","","","33","","26","","4.8","","101.25","","","","-15","","Snow Showers"
"-66.09","43.83","YARMOUTH A","8206500","2012-02-05 11:00","2012","02","05","11:00","-6.6","","-10.8","","72","","","","34","","32","","4.8","","101.22","","","","-15","","Snow Showers"
"-66.09","43.83","YARMOUTH A","8206500","2012-02-05 12:00","2012","02","05","12:00","-6.5","","-10.9","","71","","","","34","","26","","8.0","","101.20","","","","-14","","Snow Showers"
"-66.09","43.83","YARMOUTH A","8206500","2012-02-05 13:00","2012","02","05","13:00","-6.2","","-11.2","","68","","","","33","","32","","12.9","","101.16","","","","-15","","Snow Showers"
"-66.09","43.83","YARMOUTH A","8206500","2012-02-05 14:00","2012","02","05","14:00","-5.6","","-10.8","","67","","","","33","","22","","24.1","","101.09","","","","-13","","Mainly Clear"
"-66.09","43.83","YARMOUTH A","8206500","2012-02-05 15:00","2012","02","05","15:00","-5.4","","-11.2","","64","","","","33","","22","","24.1","","101.07","","","","-12","","Mostly Cloudy"
"-66.09","43.83","YARMOUTH A","8206500","2012-02-05 16:00","2012","02","05","16:00","-5.4","","-12.2","","59","","","","31","","24","","24.1","","101.05","","","","-13","","Mainly Clear"
"-66.09","43.83","YARMOUTH A","8206500","2012-02-05 17:00","2012","02","05","17:00","-5.4","","-12.1","","59","","","","32","","20","","24.1","","101.04","","","","-12","","Mainly Clear"
"-66.09","43.83","YARMOUTH A","8206500","2012-02-05 18:00","2012","02","05","18:00","-5.6","","-12.4","","59","","","","31","","17","","24.1","","101.06","","","","-12","","Mainly Clear"
"-66.09","43.83","YARMOUTH A","8206500","2012-02-05 19:00","2012","02","05","19:00","-5.6","","-12.3","","59","","","","32","","13","","24.1","","101.07","","","","-11","","Clear"
"-66.09","43.83","YARMOUTH A","8206500","2012-02-05 20:00","2012","02","05","20:00","-4.7","","-12.1","","56","","","","31","","17","","24.1","","101.09","","","","-11","","Clear"
"-66.09","43.83","YARMOUTH A","8206500","2012-02-05 21:00","2012","02","05","21:00","-4.5","","-11.9","","56","","","","31","","15","","24.1","","101.08","","","","-10","","Clear"
"-66.09","43.83","YARMOUTH A","8206500","2012-02-05 22:00","2012","02","05","22:00","-3.8","","-11.8","","54","","","","31","","19","","24.1","","101.10","","","","-10","","Clear"
"-66.09","43.83","YARMOUTH A","8206500","2012-02-05 23:00","2012","02","05","23:00","-3.3","","-11.6","","53","","","","30","","20","","24.1","","101.03","","","","-9","","Clear"
"-66.09","43.83","YARMOUTH A","8206500","2012-02-06 00:00","2012","02","06","00:00","-2.2","","-10.5","","53","","","","28","","20","","24.1","","100.99","","","","-8","","Clear"
"-66.09","43.83","YARMOUTH A","8206500","2012-02-06 01:00","2012","02","06","01:00","-1.0","","-8.4","","57","","","","27","","19","","24.1","","100.91","","","","-6","","Mostly Cloudy"
"-66.09","43.83","YARMOUTH A","8206500","2012-02-06 02:00","2012","02","06","02:00","0.1","","-7.3","","57","","","","28","","28","","24.1","","100.86","","","","","","Cloudy"
"-66.09","43.83","YARMOUTH A","8206500","2012-02-06 03:00","2012","02","06","03:00","0.7","","-6.1","","60","","","","27","","22","","24.1","","100.80","","","","","","Cloudy"
"-66.09","43.83","YARMOUTH A","8206500","2012-02-06 04:00","2012","02","06","04:00","0.4","","-5.1","","67","","","","29","","20","","24.1","","100.74","","","","","","Mostly Cloudy"
"-66.09","43.83","YARMOUTH A","8206500","2012-02-06 05:00","2012","02","06","05:00","0.5","","-4.8","","68","","","","27","","26","","24.1","","100.70","","","","","","Mostly Cloudy"
"-66.09","43.83","YARMOUTH A","8206500","2012-02-06 06:00","2012","02","06","06:00","0.0","","-5.6","","66","","","","26","","22","","24.1","","100.64","","","","-6","","Mostly Cloudy"
"-66.09","43.83","YARMOUTH A","8206500","2012-02-06 07:00","2012","02","06","07:00","0.1","","-5.2","","67","","","","27","","20","","24.1","","100.66","","","","","","Mostly Cloudy"
"-66.09","43.83","YARMOUTH A","8206500","2012-02-06 08:00","2012","02","06","08:00","0.7","","-4.7","","67","","","","26","","28","","24.1","","100.61","","","","","","Mostly Cloudy"
"-66.09","43.83","YARMOUTH A","8206500","2012-02-06 09:00","2012","02","06","09:00","1.9","","-2.9","","70","","","","26","","26","","24.1","","100.57","","","","","","Mainly Clear"
"-66.09","43.83","YARMOUTH A","8206500","2012-02-06 10:00","2012","02","06","10:00","2.7","","-2.5","","69","","","","26","","32","","24.1","","100.54","","","","","","Mostly Cloudy"
"-66.09","43.83","YARMOUTH A","8206500","2012-02-06 11:00","2012","02","06","11:00","3.1","","-2.1","","69","","","","26","","28","","24.1","","100.54","","","","","","Cloudy"
"-66.09","43.83","YARMOUTH A","8206500","2012-02-06 12:00","2012","02","06","12:00","3.4","","-1.7","","69","","","","26","","35","","24.1","","100.46","","","","","","Cloudy"
"-66.09","43.83","YARMOUTH A","8206500","2012-02-06 13:00","2012","02","06","13:00","4.0","","-1.4","","68","","","","26","","33","","24.1","","100.41","","","","","","Mostly Cloudy"
"-66.09","43.83","YARMOUTH A","8206500","2012-02-06 14:00","2012","02","06","14:00","4.8","","-1.1","","66","","","","27","","39","","24.1","","100.37","","","","","","Mostly Cloudy"
"-66.09","43.83","YARMOUTH A","8206500","2012-02-06 15:00","2012","02","06","15:00","4.5","","-1.2","","66","","","","28","","33","","24.1","","100.28","","","","","","Mainly Clear"
"-66.09","43.83","YARMOUTH A","8206500","2012-02-06 16:00","2012","02","06","16:00","3.5","","-0.8","","73","","","","26","","28","","24.1","","100.26","","","","","","Mostly Cloudy"
"-66.09","43.83","YARMOUTH A","8206500","2012-02-06 17:00","2012","02","06","17:00","3.4","","-0.6","","75","","","","26","","32","","24.1","","100.27","","","","","","Cloudy"
"-66.09","43.83","YARMOUTH A","8206500","2012-02-06 18:00","2012","02","06","18:00","3.4","","-0.2","","77","","","","26","","32","","24.1","","100.27","","","","","","Mostly Cloudy"
"-66.09","43.83","YARMOUTH A","8206500","2012-02-06 19:00","2012","02","06","19:00","3.3","","0.2","","80","","","","27","","28","","24.1","","100.29","","","","","","Mainly Clear"
"-66.09","43.83","YARMOUTH A","8206500","2012-02-06 20:00","2012","02","06","20:00","3.5","","0.2","","79","","","","27","","32","","24.1","","100.29","","","","","","Clear"
"-66.09","43.83","YARMOUTH A","8206500","2012-02-06 21:00","2012","02","06","21:00","3.8","","0.4","","78","","","","27","","26","","24.1","","100.33","","","","","","Clear"
"-66.09","43.83","YARMOUTH A","8206500","2012-02-06 22:00","2012","02","06","22:00","3.9","","1.0","","81","","","","26","","22","","24.1","","100.34","","","","","","Clear"
"-66.09","43.83","YARMOUTH A","8206500","2012-02-06 23:00","2012","02","06","23:00","3.7","","1.2","","84","","","","26","","17","","24.1","","100.32","","","","","","Clear"
"-66.09","43.83","YARMOUTH A","8206500","2012-02-07 00:00","2012","02","07","00:00","4.5","","1.9","","83","","","","26","","20","","24.1","","100.28","","","","","","Clear"
"-66.09","43.83","YARMOUTH A","8206500","2012-02-07 01:00","2012","02","07","01:00","4.4","","1.8","","83","","","","27","","24","","24.1","","100.28","","","","","","Clear"
"-66.09","43.83","YARMOUTH A","8206500","2012-02-07 02:00","2012","02","07","02:00","3.6","","0.6","","81","","","","33","","20","","24.1","","100.35","","","","","","Clear"
"-66.09","43.83","YARMOUTH A","8206500","2012-02-07 03:00","2012","02","07","03:00","2.4","","-1.3","","77","","","","34","","19","","24.1","","100.41","","","","","","Clear"
"-66.09","43.83","YARMOUTH A","8206500","2012-02-07 04:00","2012","02","07","04:00","0.8","","-2.4","","79","","","","32","","11","","24.1","","100.41","","","","","","Clear"
"-66.09","43.83","YARMOUTH A","8206500","2012-02-07 05:00","2012","02","07","05:00","1.4","","-2.4","","76","","","","31","","9","","24.1","","100.44","","","","","","Clear"
"-66.09","43.83","YARMOUTH A","8206500","2012-02-07 06:00","2012","02","07","06:00","1.5","","-2.9","","72","","","","32","","11","","24.1","","100.49","","","","","","Clear"
"-66.09","43.83","YARMOUTH A","8206500","2012-02-07 07:00","2012","02","07","07:00","1.5","","-2.5","","75","","","","32","","15","","24.1","","100.57","","","","","","Clear"
"-66.09","43.83","YARMOUTH A","8206500","2012-02-07 08:00","2012","02","07","08:00","1.6","","-2.1","","76","","","","31","","9","","24.1","","100.64","","","","","","Mostly Cloudy"
"-66.09","43.83","YARMOUTH A","8206500","2012-02-07 09:00","2012","02","07","09:00","3.6","","-2.3","","65","","","","31","","20","","24.1","","100.70","","","","","","Mostly Cloudy"
"-66.09","43.83","YARMOUTH A","8206500","2012-02-07 10:00","2012","02","07","10:00","4.0","","-2.7","","62","","","","33","","20","","24.1","","100.74","","","","","","Mostly Cloudy"
"-66.09","43.83","YARMOUTH A","8206500","2012-02-07 11:00","2012","02","07","11:00","3.8","","-3.2","","60","","","","33","","19","","24.1","","100.74","","","","","","Cloudy"
"-66.09","43.83","YARMOUTH A","8206500","2012-02-07 12:00","2012","02","07","12:00","3.5","","-2.8","","63","","","","34","","19","","24.1","","100.76","","","","","","Cloudy"
"-66.09","43.83","YARMOUTH A","8206500","2012-02-07 13:00","2012","02","07","13:00","3.1","","-3.3","","63","","","","35","","20","","24.1","","100.72","","","","","","Cloudy"
"-66.09","43.83","YARMOUTH A","8206500","2012-02-07 14:00","2012","02","07","14:00","3.1","","-3.1","","64","","","","32","","17","","24.1","","100.68","","","","","","Cloudy"
"-66.09","43.83","YARMOUTH A","8206500","2012-02-07 15:00","2012","02","07","15:00","2.9","","-3.3","","64","","","","34","","13","","24.1","","100.73","","","","","","Cloudy"
"-66.09","43.83","YARMOUTH A","8206500","2012-02-07 16:00","2012","02","07","16:00","2.7","","-2.8","","67","","","","31","","11","","24.1","","100.79","","","","","","Mostly Cloudy"
"-66.09","43.83","YARMOUTH A","8206500","2012-02-07 17:00","2012","02","07","17:00","2.3","","-3.1","","67","","","","35","","13","","24.1","","100.83","","","","","","Mostly Cloudy"
"-66.09","43.83","YARMOUTH A","8206500","2012-02-07 18:00","2012","02","07","18:00","1.2","","-3.6","","70","","","","35","","9","","24.1","","100.87","","","","","","Mostly Cloudy"
"-66.09","43.83","YARMOUTH A","8206500","2012-02-07 19:00","2012","02","07","19:00","-1.5","","-5.1","","76","","","","35","","7","","24.1","","100.95","","","","-4","","Mainly Clear"
"-66.09","43.83","YARMOUTH A","8206500","2012-02-07 20:00","2012","02","07","20:00","-1.0","","-4.6","","77","","","","34","","9","","24.1","","101.02","","","","-4","","Mostly Cloudy"
"-66.09","43.83","YARMOUTH A","8206500","2012-02-07 21:00","2012","02","07","21:00","-0.9","","-5.8","","69","","","","35","","19","","24.1","","101.09","","","","-6","","Mostly Cloudy"
"-66.09","43.83","YARMOUTH A","8206500","2012-02-07 22:00","2012","02","07","22:00","-1.5","","-5.9","","72","","","","4","","15","","24.1","","101.18","","","","-6","","Mostly Cloudy"
"-66.09","43.83","YARMOUTH A","8206500","2012-02-07 23:00","2012","02","07","23:00","-2.3","","-6.4","","73","","","","34","","13","","24.1","","101.27","","","","-7","","Mostly Cloudy"
"-66.09","43.83","YARMOUTH A","8206500","2012-02-08 00:00","2012","02","08","00:00","-3.1","","-8.1","","68","","","","36","","15","","24.1","","101.36","","","","-8","","Mainly Clear"
"-66.09","43.83","YARMOUTH A","8206500","2012-02-08 01:00","2012","02","08","01:00","-3.0","","-9.2","","62","","","","35","","24","","24.1","","101.44","","","","-10","","Mostly Cloudy"
"-66.09","43.83","YARMOUTH A","8206500","2012-02-08 02:00","2012","02","08","02:00","-3.6","","-9.6","","63","","","","36","","30","","24.1","","101.52","","","","-11","","Mostly Cloudy"
"-66.09","43.83","YARMOUTH A","8206500","2012-02-08 03:00","2012","02","08","03:00","-4.3","","-10.4","","62","","","","36","","17","","24.1","","101.60","","","","-10","","Mostly Cloudy"
"-66.09","43.83","YARMOUTH A","8206500","2012-02-08 04:00","2012","02","08","04:00","-5.1","","-11.6","","60","","","","34","","22","","24.1","","101.66","","","","-12","","Mostly Cloudy"
"-66.09","43.83","YARMOUTH A","8206500","2012-02-08 05:00","2012","02","08","05:00","-5.9","","-12.5","","60","","","","34","","19","","24.1","","101.71","","","","-13","","Mostly Cloudy"
"-66.09","43.83","YARMOUTH A","8206500","2012-02-08 06:00","2012","02","08","06:00","-6.3","","-12.5","","61","","","","34","","19","","24.1","","101.76","","","","-13","","Mostly Cloudy"
"-66.09","43.83","YARMOUTH A","8206500","2012-02-08 07:00","2012","02","08","07:00","-7.4","","-13.0","","64","","","","34","","11","","24.1","","101.79","","","","-12","","Mainly Clear"
"-66.09","43.83","YARMOUTH A","8206500","2012-02-08 08:00","2012","02","08","08:00","-8.0","","-13.0","","67","","","","3","","6","","24.1","","101.87","","","","-11","","Mainly Clear"
"-66.09","43.83","YARMOUTH A","8206500","2012-02-08 09:00","2012","02","08","09:00","-6.2","","-12.5","","61","","","","7","","9","","24.1","","101.95","","","","-10","","Snow Showers"
"-66.09","43.83","YARMOUTH A","8206500","2012-02-08 10:00","2012","02","08","10:00","-5.4","","-12.2","","59","","","","27","","6","","24.1","","102.00","","","","-8","","Clear"
"-66.09","43.83","YARMOUTH A","8206500","2012-02-08 11:00","2012","02","08","11:00","-4.1","","-11.9","","55","","","","32","","13","","24.1","","101.98","","","","-9","","Clear"
"-66.09","43.83","YARMOUTH A","8206500","2012-02-08 12:00","2012","02","08","12:00","-3.3","","-11.7","","52","","","","31","","15","","24.1","","101.98","","","","-8","","Mainly Clear"
"-66.09","43.83","YARMOUTH A","8206500","2012-02-08 13:00","2012","02","08","13:00","-3.0","","-12.1","","49","","","","27","","15","","24.1","","101.87","","","","-8","","Mainly Clear"
"-66.09","43.83","YARMOUTH A","8206500","2012-02-08 14:00","2012","02","08","14:00","-2.5","","-11.8","","49","","","","26","","20","","24.1","","101.83","","","","-8","","Mainly Clear"
"-66.09","43.83","YARMOUTH A","8206500","2012-02-08 15:00","2012","02","08","15:00","-2.5","","-11.0","","52","","","","24","","11","","24.1","","101.76","","","","-7","","Mainly Clear"
"-66.09","43.83","YARMOUTH A","8206500","2012-02-08 16:00","2012","02","08","16:00","-1.8","","-11.0","","49","","","","27","","19","","24.1","","101.71","","","","-7","","Mainly Clear"
"-66.09","43.83","YARMOUTH A","8206500","2012-02-08 17:00","2012","02","08","17:00","-2.4","","-10.3","","55","","","","25","","15","","24.1","","101.73","","","","-7","","Mainly Clear"
"-66.09","43.83","YARMOUTH A","8206500","2012-02-08 18:00","2012","02","08","18:00","-3.1","","-9.1","","63","","","","25","","19","","24.1","","101.68","","","","-9","","Mainly Clear"
"-66.09","43.83","YARMOUTH A","8206500","2012-02-08 19:00","2012","02","08","19:00","-2.0","","-7.5","","66","","","","24","","17","","24.1","","101.67","","","","-7","","Mostly Cloudy"
"-66.09","43.83","YARMOUTH A","8206500","2012-02-08 20:00","2012","02","08","20:00","-1.0","","-6.6","","66","","","","23","","17","","24.1","","101.65","","","","-6","","Mostly Cloudy"
"-66.09","43.83","YARMOUTH A","8206500","2012-02-08 21:00","2012","02","08","21:00","-0.5","","-5.7","","68","","","","23","","20","","24.1","","101.61","","","","-6","","Cloudy"
"-66.09","43.83","YARMOUTH A","8206500","2012-02-08 22:00","2012","02","08","22:00","-0.1","","-5.4","","67","","","","23","","19","","24.1","","101.58","","","","-5","","Cloudy"
"-66.09","43.83","YARMOUTH A","8206500","2012-02-08 23:00","2012","02","08","23:00","-0.1","","-5.3","","68","","","","23","","13","","24.1","","101.51","","","","-4","","Cloudy"
"-66.09","43.83","YARMOUTH A","8206500","2012-02-09 00:00","2012","02","09","00:00","0.1","","-5.0","","69","","","","21","","15","","24.1","","101.45","","","","","","Cloudy"
"-66.09","43.83","YARMOUTH A","8206500","2012-02-09 01:00","2012","02","09","01:00","-0.1","","-4.6","","72","","","","20","","11","","24.1","","101.37","","","","-4","","Cloudy"
"-66.09","43.83","YARMOUTH A","8206500","2012-02-09 02:00","2012","02","09","02:00","-0.2","","-4.4","","73","","","","20","","15","","24.1","","101.37","","","","-5","","Cloudy"
"-66.09","43.83","YARMOUTH A","8206500","2012-02-09 03:00","2012","02","09","03:00","0.2","","-4.1","","73","","","","20","","15","","24.1","","101.35","","","","","","Cloudy"
"-66.09","43.83","YARMOUTH A","8206500","2012-02-09 04:00","2012","02","09","04:00","0.0","","-3.7","","76","","","","18","","9","","24.1","","101.28","","","","-3","","Cloudy"
"-66.09","43.83","YARMOUTH A","8206500","2012-02-09 05:00","2012","02","09","05:00","-0.2","","-3.6","","78","","","","18","","9","","24.1","","101.17","","","","-3","","Cloudy"
"-66.09","43.83","YARMOUTH A","8206500","2012-02-09 06:00","2012","02","09","06:00","-0.3","","-3.4","","80","","","","13","","7","","24.1","","101.11","","","","-3","","Cloudy"
"-66.09","43.83","YARMOUTH A","8206500","2012-02-09 07:00","2012","02","09","07:00","-0.6","","-3.5","","81","","","","10","","7","","24.1","","101.04","","","","-3","","Cloudy"
"-66.09","43.83","YARMOUTH A","8206500","2012-02-09 08:00","2012","02","09","08:00","-1.0","","-3.6","","82","","","","10","","9","","24.1","","101.05","","","","-4","","Cloudy"
"-66.09","43.83","YARMOUTH A","8206500","2012-02-09 09:00","2012","02","09","09:00","-0.8","","-3.6","","81","","","","12","","9","","24.1","","101.01","","","","-4","","Cloudy"
"-66.09","43.83","YARMOUTH A","8206500","2012-02-09 10:00","2012","02","09","10:00","-0.1","","-3.8","","76","","","","12","","9","","24.1","","100.95","","","","-3","","Cloudy"
"-66.09","43.83","YARMOUTH A","8206500","2012-02-09 11:00","2012","02","09","11:00","0.5","","-3.9","","72","","","","11","","7","","24.1","","100.93","","","","","","Cloudy"
"-66.09","43.83","YARMOUTH A","8206500","2012-02-09 12:00","2012","02","09","12:00","0.8","","-4.1","","70","","","","10","","13","","24.1","","100.85","","","","","","Cloudy"
"-66.09","43.83","YARMOUTH A","8206500","2012-02-09 13:00","2012","02","09","13:00","1.2","","-3.9","","69","","","","7","","7","","24.1","","100.77","","","","","","Cloudy"
"-66.09","43.83","YARMOUTH A","8206500","2012-02-09 14:00","2012","02","09","14:00","2.1","","-3.7","","65","","","","13","","9","","24.1","","100.65","","","","","","Cloudy"
"-66.09","43.83","YARMOUTH A","8206500","2012-02-09 15:00","2012","02","09","15:00","2.5","","-3.1","","67","","","","27","","4","","24.1","","100.61","","","","","","Cloudy"
"-66.09","43.83","YARMOUTH A","8206500","2012-02-09 16:00","2012","02","09","16:00","1.8","","-2.7","","72","","","","27","","11","","24.1","","100.69","","","","","","Cloudy"
"-66.09","43.83","YARMOUTH A","8206500","2012-02-09 17:00","2012","02","09","17:00","1.7","","-2.4","","74","","","","28","","9","","24.1","","100.74","","","","","","Mostly Cloudy"
"-66.09","43.83","YARMOUTH A","8206500","2012-02-09 18:00","2012","02","09","18:00","-0.5","","-2.6","","86","","","","26","","9","","24.1","","100.79","","","","-4","","Mostly Cloudy"
"-66.09","43.83","YARMOUTH A","8206500","2012-02-09 19:00","2012","02","09","19:00","-0.2","","-1.5","","91","","","","27","","7","","24.1","","100.85","","","","-3","","Mainly Clear"
"-66.09","43.83","YARMOUTH A","8206500","2012-02-09 20:00","2012","02","09","20:00","-0.1","","-1.6","","90","","","","30","","11","","24.1","","100.89","","","","-4","","Clear"
"-66.09","43.83","YARMOUTH A","8206500","2012-02-09 21:00","2012","02","09","21:00","0.8","","-4.3","","69","","","","31","","19","","24.1","","100.96","","","","","","Clear"
"-66.09","43.83","YARMOUTH A","8206500","2012-02-09 22:00","2012","02","09","22:00","0.5","","-4.9","","67","","","","31","","15","","24.1","","100.97","","","","","","Clear"
"-66.09","43.83","YARMOUTH A","8206500","2012-02-09 23:00","2012","02","09","23:00","0.0","","-5.5","","66","","","","32","","13","","24.1","","101.02","","","","-4","","Clear"
"-66.09","43.83","YARMOUTH A","8206500","2012-02-10 00:00","2012","02","10","00:00","-0.3","","-5.9","","66","","","","34","","13","","24.1","","101.08","","","","-4","","Clear"
"-66.09","43.83","YARMOUTH A","8206500","2012-02-10 01:00","2012","02","10","01:00","-0.9","","-6.2","","67","","","","33","","13","","24.1","","101.13","","","","-5","","Clear"
"-66.09","43.83","YARMOUTH A","8206500","2012-02-10 02:00","2012","02","10","02:00","-1.1","","-6.2","","68","","","","34","","11","","24.1","","101.21","","","","-5","","Clear"
"-66.09","43.83","YARMOUTH A","8206500","2012-02-10 03:00","2012","02","10","03:00","-1.8","","-5.9","","74","","","","33","","7","","24.1","","101.28","","","","-4","","Clear"
"-66.09","43.83","YARMOUTH A","8206500","2012-02-10 04:00","2012","02","10","04:00","-2.5","","-6.2","","76","","","","34","","7","","24.1","","101.29","","","","-5","","Clear"
"-66.09","43.83","YARMOUTH A","8206500","2012-02-10 05:00","2012","02","10","05:00","-2.4","","-5.4","","80","","","","36","","6","","24.1","","101.33","","","","-5","","Clear"
"-66.09","43.83","YARMOUTH A","8206500","2012-02-10 06:00","2012","02","10","06:00","-4.5","","-6.6","","85","","","","3","","6","","24.1","","101.36","","","","-7","","Clear"
"-66.09","43.83","YARMOUTH A","8206500","2012-02-10 07:00","2012","02","10","07:00","-4.0","","-6.3","","84","","","","12","","6","","24.1","","101.40","","","","-7","","Clear"
"-66.09","43.83","YARMOUTH A","8206500","2012-02-10 08:00","2012","02","10","08:00","-5.9","","-7.3","","90","","","","10","","4","","24.1","","101.47","","","","-8","","Clear"
"-66.09","43.83","YARMOUTH A","8206500","2012-02-10 09:00","2012","02","10","09:00","-1.4","","-4.0","","82","","","","15","","6","","24.1","","101.55","","","","-4","","Clear"
"-66.09","43.83","YARMOUTH A","8206500","2012-02-10 10:00","2012","02","10","10:00","3.0","","-2.5","","67","","","","16","","15","","24.1","","101.56","","","","","","Clear"
"-66.09","43.83","YARMOUTH A","8206500","2012-02-10 11:00","2012","02","10","11:00","3.8","","-2.4","","64","","","","16","","20","","24.1","","101.55","","","","","","Mainly Clear"
"-66.09","43.83","YARMOUTH A","8206500","2012-02-10 12:00","2012","02","10","12:00","4.9","","-2.1","","60","","","","17","","17","","24.1","","101.51","","","","","","Mainly Clear"
"-66.09","43.83","YARMOUTH A","8206500","2012-02-10 13:00","2012","02","10","13:00","5.5","","-2.4","","57","","","","18","","26","","24.1","","101.37","","","","","","Mostly Cloudy"
"-66.09","43.83","YARMOUTH A","8206500","2012-02-10 14:00","2012","02","10","14:00","5.9","","-1.3","","60","","","","17","","22","","24.1","","101.32","","","","","","Mainly Clear"
"-66.09","43.83","YARMOUTH A","8206500","2012-02-10 15:00","2012","02","10","15:00","5.9","","0.0","","66","","","","17","","22","","24.1","","101.28","","","","","","Mostly Cloudy"
"-66.09","43.83","YARMOUTH A","8206500","2012-02-10 16:00","2012","02","10","16:00","5.4","","1.2","","74","","","","19","","24","","24.1","","101.27","","","","","","Mainly Clear"
"-66.09","43.83","YARMOUTH A","8206500","2012-02-10 17:00","2012","02","10","17:00","4.7","","1.5","","80","","","","19","","19","","24.1","","101.24","","","","","","Cloudy"
"-66.09","43.83","YARMOUTH A","8206500","2012-02-10 18:00","2012","02","10","18:00","2.2","","0.6","","89","","","","18","","13","","19.3","","101.23","","","","","","Cloudy"
"-66.09","43.83","YARMOUTH A","8206500","2012-02-10 19:00","2012","02","10","19:00","0.9","","-0.4","","91","","","","18","","11","","19.3","","101.19","","","","","","Mostly Cloudy"
"-66.09","43.83","YARMOUTH A","8206500","2012-02-10 20:00","2012","02","10","20:00","0.7","","-0.4","","92","","","","17","","11","","19.3","","101.19","","","","","","Cloudy"
"-66.09","43.83","YARMOUTH A","8206500","2012-02-10 21:00","2012","02","10","21:00","1.5","","0.2","","91","","","","17","","13","","24.1","","101.14","","","","","","Cloudy"
"-66.09","43.83","YARMOUTH A","8206500","2012-02-10 22:00","2012","02","10","22:00","2.8","","0.6","","85","","","","18","","17","","24.1","","101.09","","","","","","Cloudy"
"-66.09","43.83","YARMOUTH A","8206500","2012-02-10 23:00","2012","02","10","23:00","3.2","","1.5","","89","","","","18","","22","","24.1","","101.01","","","","","","Cloudy"
"-66.09","43.83","YARMOUTH A","8206500","2012-02-11 00:00","2012","02","11","00:00","3.4","","2.0","","91","","","","19","","20","","19.3","","100.98","","","","","","Cloudy"
"-66.09","43.83","YARMOUTH A","8206500","2012-02-11 01:00","2012","02","11","01:00","3.6","","2.2","","91","","","","20","","19","","19.3","","100.92","","","","","","Cloudy"
"-66.09","43.83","YARMOUTH A","8206500","2012-02-11 02:00","2012","02","11","02:00","3.4","","2.3","","92","","","","19","","15","","19.3","","100.84","","","","","","Cloudy"
"-66.09","43.83","YARMOUTH A","8206500","2012-02-11 03:00","2012","02","11","03:00","3.8","","2.7","","93","","","","20","","17","","19.3","","100.79","","","","","","Cloudy"
"-66.09","43.83","YARMOUTH A","8206500","2012-02-11 04:00","2012","02","11","04:00","4.1","","0.3","","76","","","","22","","20","","14.5","","100.78","","","","","","Rain Showers"
"-66.09","43.83","YARMOUTH A","8206500","2012-02-11 05:00","2012","02","11","05:00","3.2","","1.4","","88","","","","22","","13","","14.5","","100.74","","","","","","Rain Showers"
"-66.09","43.83","YARMOUTH A","8206500","2012-02-11 06:00","2012","02","11","06:00","3.4","","1.7","","89","","","","20","","17","","14.5","","100.66","","","","","","Rain Showers"
"-66.09","43.83","YARMOUTH A","8206500","2012-02-11 07:00","2012","02","11","07:00","3.3","","1.1","","85","","","","19","","9","","14.5","","100.54","","","","","","Rain Showers"
"-66.09","43.83","YARMOUTH A","8206500","2012-02-11 08:00","2012","02","11","08:00","2.8","","1.4","","90","","","","15","","7","","9.7","","100.51","","","","","","Rain Showers"
"-66.09","43.83","YARMOUTH A","8206500","2012-02-11 09:00","2012","02","11","09:00","3.4","","2.5","","94","","","","18","","13","","9.7","","100.45","","","","","","Rain Showers"
"-66.09","43.83","YARMOUTH A","8206500","2012-02-11 10:00","2012","02","11","10:00","3.9","","3.2","","95","","","","16","","13","","9.7","","100.38","","","","","","Rain Showers,Fog"
"-66.09","43.83","YARMOUTH A","8206500","2012-02-11 11:00","2012","02","11","11:00","3.8","","3.0","","95","","","","17","","13","","9.7","","100.34","","","","","","Rain Showers,Fog"
"-66.09","43.83","YARMOUTH A","8206500","2012-02-11 12:00","2012","02","11","12:00","4.0","","3.2","","95","","","","16","","15","","9.7","","100.22","","","","","","Rain Showers,Fog"
"-66.09","43.83","YARMOUTH A","8206500","2012-02-11 13:00","2012","02","11","13:00","4.0","","3.4","","96","","","","18","","7","","9.7","","100.02","","","","","","Rain Showers,Fog"
"-66.09","43.83","YARMOUTH A","8206500","2012-02-11 14:00","2012","02","11","14:00","4.2","","3.5","","95","","","","17","","7","","9.7","","99.86","","","","","","Rain Showers,Fog"
"-66.09","43.83","YARMOUTH A","8206500","2012-02-11 15:00","2012","02","11","15:00","4.4","","3.3","","93","","","","27","","4","","9.7","","99.70","","","","","","Rain,Fog"
"-66.09","43.83","YARMOUTH A","8206500","2012-02-11 16:00","2012","02","11","16:00","2.4","","1.4","","93","","","","33","","13","","9.7","","99.65","","","","","","Rain,Fog"
"-66.09","43.83","YARMOUTH A","8206500","2012-02-11 17:00","2012","02","11","17:00","1.5","","0.9","","96","","","","36","","15","","9.7","","99.47","","","","","","Rain Showers,Snow Showers"
"-66.09","43.83","YARMOUTH A","8206500","2012-02-11 18:00","2012","02","11","18:00","1.1","","0.6","","96","","","","1","","13","","9.7","","99.30","","","","","","Rain Showers,Snow Showers"
"-66.09","43.83","YARMOUTH A","8206500","2012-02-11 19:00","2012","02","11","19:00","1.0","","-0.1","","92","","","","3","","20","","8.0","","99.12","","","","","","Rain Showers,Fog"
"-66.09","43.83","YARMOUTH A","8206500","2012-02-11 20:00","2012","02","11","20:00","0.5","","0.1","","97","","","","36","","15","","8.0","","98.98","","","","","","Rain Showers,Snow Showers"
"-66.09","43.83","YARMOUTH A","8206500","2012-02-11 21:00","2012","02","11","21:00","0.2","","-0.1","","98","","","","36","","26","","3.2","","98.76","","","","","","Snow Showers"
"-66.09","43.83","YARMOUTH A","8206500","2012-02-11 22:00","2012","02","11","22:00","0.2","","-0.3","","96","","","","36","","30","","3.2","","98.52","","","","","","Snow"
"-66.09","43.83","YARMOUTH A","8206500","2012-02-11 23:00","2012","02","11","23:00","0.1","","-0.7","","94","","","","36","","35","","3.2","","98.35","","","","","","Snow"
"-66.09","43.83","YARMOUTH A","8206500","2012-02-12 00:00","2012","02","12","00:00","-1.5","","-2.8","","91","","","","36","","52","","2.4","","98.22","","","","-10","","Snow,Blowing Snow"
"-66.09","43.83","YARMOUTH A","8206500","2012-02-12 01:00","2012","02","12","01:00","-3.0","","-4.3","","91","","","","35","","48","","2.0","","98.16","","","","-12","","Snow,Blowing Snow"
"-66.09","43.83","YARMOUTH A","8206500","2012-02-12 02:00","2012","02","12","02:00","-3.4","","-5.2","","87","","","","36","","57","","4.8","","98.16","","","","-13","","Snow,Blowing Snow"
"-66.09","43.83","YARMOUTH A","8206500","2012-02-12 03:00","2012","02","12","03:00","-3.7","","-5.4","","88","","","","36","","46","","9.7","","98.16","","","","-13","","Snow"
"-66.09","43.83","YARMOUTH A","8206500","2012-02-12 04:00","2012","02","12","04:00","-3.8","","-5.6","","87","","","","36","","33","","14.5","","98.37","","","","-12","","Snow Showers"
"-66.09","43.83","YARMOUTH A","8206500","2012-02-12 05:00","2012","02","12","05:00","-3.8","","-5.9","","85","","","","34","","37","","14.5","","98.64","","","","-12","","Snow Showers"
"-66.09","43.83","YARMOUTH A","8206500","2012-02-12 06:00","2012","02","12","06:00","-5.7","","-7.3","","88","","","","35","","50","","6.4","","98.55","","","","-16","","Snow Showers,Blowing Snow"
"-66.09","43.83","YARMOUTH A","8206500","2012-02-12 07:00","2012","02","12","07:00","-6.4","","-8.3","","86","","","","35","","35","","9.7","","98.84","","","","-15","","Snow Showers"
"-66.09","43.83","YARMOUTH A","8206500","2012-02-12 08:00","2012","02","12","08:00","-7.2","","-9.4","","84","","","","35","","46","","8.0","","98.85","","","","-18","","Snow Showers"
"-66.09","43.83","YARMOUTH A","8206500","2012-02-12 09:00","2012","02","12","09:00","-7.6","","-9.9","","84","","","","36","","33","","8.0","","99.06","","","","-17","","Snow Showers"
"-66.09","43.83","YARMOUTH A","8206500","2012-02-12 10:00","2012","02","12","10:00","-7.7","","-10.1","","83","","","","35","","28","","4.8","","99.16","","","","-16","","Snow Showers"
"-66.09","43.83","YARMOUTH A","8206500","2012-02-12 11:00","2012","02","12","11:00","-7.5","","-10.8","","77","","","","34","","33","","9.7","","99.20","","","","-17","","Snow Showers"
"-66.09","43.83","YARMOUTH A","8206500","2012-02-12 12:00","2012","02","12","12:00","-7.7","","-10.7","","79","","","","34","","39","","9.7","","99.18","","","","-18","","Snow Showers"
"-66.09","43.83","YARMOUTH A","8206500","2012-02-12 13:00","2012","02","12","13:00","-7.6","","-10.2","","82","","","","34","","28","","14.5","","99.08","","","","-16","","Snow Showers"
"-66.09","43.83","YARMOUTH A","8206500","2012-02-12 14:00","2012","02","12","14:00","-7.4","","-10.8","","77","","","","34","","35","","19.3","","99.09","","","","-17","","Snow Showers"
"-66.09","43.83","YARMOUTH A","8206500","2012-02-12 15:00","2012","02","12","15:00","-7.5","","-11.1","","75","","","","34","","33","","19.3","","99.08","","","","-17","","Cloudy"
"-66.09","43.83","YARMOUTH A","8206500","2012-02-12 16:00","2012","02","12","16:00","-7.7","","-11.2","","76","","","","33","","30","","14.5","","99.11","","","","-17","","Snow Showers"
"-66.09","43.83","YARMOUTH A","8206500","2012-02-12 17:00","2012","02","12","17:00","-7.6","","-11.5","","74","","","","33","","32","","9.7","","99.18","","","","-17","","Snow Showers"
"-66.09","43.83","YARMOUTH A","8206500","2012-02-12 18:00","2012","02","12","18:00","-7.6","","-11.2","","75","","","","32","","26","","3.2","","99.29","","","","-16","","Snow Showers"
"-66.09","43.83","YARMOUTH A","8206500","2012-02-12 19:00","2012","02","12","19:00","-7.0","","-10.7","","75","","","","31","","35","","2.4","","99.40","","","","-16","","Snow Showers"
"-66.09","43.83","YARMOUTH A","8206500","2012-02-12 20:00","2012","02","12","20:00","-7.6","","-12.9","","66","","","","31","","32","","8.0","","99.52","","","","-17","","Snow Showers"
"-66.09","43.83","YARMOUTH A","8206500","2012-02-12 21:00","2012","02","12","21:00","-8.9","","-13.0","","72","","","","32","","30","","9.7","","99.63","","","","-18","","Snow Showers"
"-66.09","43.83","YARMOUTH A","8206500","2012-02-12 22:00","2012","02","12","22:00","-9.9","","-13.9","","73","","","","34","","35","","4.8","","99.75","","","","-20","","Snow Showers"
"-66.09","43.83","YARMOUTH A","8206500","2012-02-12 23:00","2012","02","12","23:00","-10.9","","-15.2","","71","","","","32","","35","","4.8","","99.89","","","","-21","","Snow Showers,Blowing Snow"
"-66.09","43.83","YARMOUTH A","8206500","2012-02-13 00:00","2012","02","13","00:00","-12.0","","-15.9","","73","","","","33","","33","","4.8","","99.98","","","","-23","","Snow Showers,Blowing Snow"
"-66.09","43.83","YARMOUTH A","8206500","2012-02-13 01:00","2012","02","13","01:00","-12.0","","-17.5","","64","","","","32","","35","","8.0","","100.05","","","","-23","","Snow Showers,Blowing Snow"
"-66.09","43.83","YARMOUTH A","8206500","2012-02-13 02:00","2012","02","13","02:00","-12.1","","-17.0","","67","","","","31","","37","","9.7","","100.11","","","","-23","","Snow Showers"
"-66.09","43.83","YARMOUTH A","8206500","2012-02-13 03:00","2012","02","13","03:00","-11.9","","-17.0","","66","","","","31","","32","","9.7","","100.16","","","","-22","","Snow Showers"
"-66.09","43.83","YARMOUTH A","8206500","2012-02-13 04:00","2012","02","13","04:00","-11.5","","-17.4","","62","","","","31","","37","","14.5","","100.18","","","","-22","","Snow Showers"
"-66.09","43.83","YARMOUTH A","8206500","2012-02-13 05:00","2012","02","13","05:00","-10.9","","-15.1","","71","","","","32","","35","","4.8","","100.23","","","","-21","","Snow Showers"
"-66.09","43.83","YARMOUTH A","8206500","2012-02-13 06:00","2012","02","13","06:00","-10.3","","-13.8","","75","","","","31","","24","","4.8","","100.25","","","","-19","","Snow Showers,Blowing Snow"
"-66.09","43.83","YARMOUTH A","8206500","2012-02-13 07:00","2012","02","13","07:00","-9.0","","-12.5","","76","","","","28","","20","","4.8","","100.23","","","","-17","","Snow Showers"
"-66.09","43.83","YARMOUTH A","8206500","2012-02-13 08:00","2012","02","13","08:00","-8.1","","-11.6","","76","","","","27","","20","","4.0","","100.26","","","","-15","","Snow Showers,Blowing Snow"
"-66.09","43.83","YARMOUTH A","8206500","2012-02-13 09:00","2012","02","13","09:00","-6.6","","-12.0","","65","","","","28","","33","","12.9","","100.25","","","","-15","","Snow Showers"
"-66.09","43.83","YARMOUTH A","8206500","2012-02-13 10:00","2012","02","13","10:00","-6.6","","-9.2","","82","","","","28","","28","","0.8","","100.26","","","","-15","","Snow Showers,Blowing Snow"
"-66.09","43.83","YARMOUTH A","8206500","2012-02-13 11:00","2012","02","13","11:00","-4.9","","-10.0","","67","","","","28","","32","","9.7","","100.23","","","","-13","","Snow Showers"
"-66.09","43.83","YARMOUTH A","8206500","2012-02-13 12:00","2012","02","13","12:00","-4.8","","-8.0","","78","","","","27","","37","","0.4","","100.18","","","","-14","","Snow Showers,Blowing Snow"
"-66.09","43.83","YARMOUTH A","8206500","2012-02-13 13:00","2012","02","13","13:00","-3.8","","-6.8","","80","","","","28","","44","","0.8","","100.12","","","","-13","","Snow Showers,Blowing Snow"
"-66.09","43.83","YARMOUTH A","8206500","2012-02-13 14:00","2012","02","13","14:00","-2.9","","-8.3","","66","","","","28","","32","","9.7","","100.09","","","","-10","","Snow Showers"
"-66.09","43.83","YARMOUTH A","8206500","2012-02-13 15:00","2012","02","13","15:00","-2.3","","-8.9","","60","","","","30","","37","","16.1","","100.12","","","","-10","","Snow Showers"
"-66.09","43.83","YARMOUTH A","8206500","2012-02-13 16:00","2012","02","13","16:00","-2.5","","-9.4","","59","","","","30","","33","","19.3","","100.18","","","","-10","","Mostly Cloudy"
"-66.09","43.83","YARMOUTH A","8206500","2012-02-13 17:00","2012","02","13","17:00","-2.9","","-10.0","","58","","","","30","","37","","19.3","","100.27","","","","-11","","Mainly Clear"
"-66.09","43.83","YARMOUTH A","8206500","2012-02-13 18:00","2012","02","13","18:00","-3.1","","-10.1","","58","","","","28","","32","","16.1","","100.42","","","","-11","","Snow Showers"
"-66.09","43.83","YARMOUTH A","8206500","2012-02-13 19:00","2012","02","13","19:00","-2.9","","-7.1","","73","","","","27","","28","","12.9","","100.51","","","","-10","","Snow Showers"
"-66.09","43.83","YARMOUTH A","8206500","2012-02-13 20:00","2012","02","13","20:00","-2.4","","-7.7","","67","","","","27","","32","","19.3","","100.58","","","","-10","","Snow Showers"
"-66.09","43.83","YARMOUTH A","8206500","2012-02-13 21:00","2012","02","13","21:00","-1.9","","-10.2","","53","","","","30","","35","","24.1","","100.64","","","","-9","","Mostly Cloudy"
"-66.09","43.83","YARMOUTH A","8206500","2012-02-13 22:00","2012","02","13","22:00","-2.1","","-10.0","","55","","","","31","","30","","24.1","","100.74","","","","-9","","Mainly Clear"
"-66.09","43.83","YARMOUTH A","8206500","2012-02-13 23:00","2012","02","13","23:00","-4.6","","-9.3","","70","","","","35","","15","","24.1","","100.85","","","","-10","","Clear"
"-66.09","43.83","YARMOUTH A","8206500","2012-02-14 00:00","2012","02","14","00:00","-7.1","","-10.8","","75","","","","36","","9","","24.1","","100.93","","","","-11","","Clear"
"-66.09","43.83","YARMOUTH A","8206500","2012-02-14 01:00","2012","02","14","01:00","-7.7","","-10.7","","79","","","","5","","6","","24.1","","101.01","","","","-11","","Mostly Cloudy"
"-66.09","43.83","YARMOUTH A","8206500","2012-02-14 02:00","2012","02","14","02:00","-8.1","","-10.7","","82","","","","","","0","","24.1","","101.07","","","","","","Mainly Clear"
"-66.09","43.83","YARMOUTH A","8206500","2012-02-14 03:00","2012","02","14","03:00","-7.7","","-10.7","","79","","","","9","","6","","24.1","","101.13","","","","-11","","Mostly Cloudy"
"-66.09","43.83","YARMOUTH A","8206500","2012-02-14 04:00","2012","02","14","04:00","-8.4","","-11.1","","81","","","","8","","7","","24.1","","101.17","","","","-12","","Mostly Cloudy"
"-66.09","43.83","YARMOUTH A","8206500","2012-02-14 05:00","2012","02","14","05:00","-9.1","","-11.4","","83","","","","11","","6","","24.1","","101.28","","","","-12","","Mainly Clear"
"-66.09","43.83","YARMOUTH A","8206500","2012-02-14 06:00","2012","02","14","06:00","-9.7","","-12.3","","81","","","","10","","7","","24.1","","101.33","","","","-14","","Clear"
"-66.09","43.83","YARMOUTH A","8206500","2012-02-14 07:00","2012","02","14","07:00","-11.2","","-13.7","","82","","","","11","","9","","24.1","","101.41","","","","-16","","Mainly Clear"
"-66.09","43.83","YARMOUTH A","8206500","2012-02-14 08:00","2012","02","14","08:00","-11.1","","-14.0","","79","","","","8","","11","","24.1","","101.47","","","","-17","","Mainly Clear"
"-66.09","43.83","YARMOUTH A","8206500","2012-02-14 09:00","2012","02","14","09:00","-6.9","","-10.8","","74","","","","12","","15","","24.1","","101.49","","","","-13","","Mainly Clear"
"-66.09","43.83","YARMOUTH A","8206500","2012-02-14 10:00","2012","02","14","10:00","-4.8","","-9.4","","70","","","","10","","13","","24.1","","101.53","","","","-10","","Mainly Clear"
"-66.09","43.83","YARMOUTH A","8206500","2012-02-14 11:00","2012","02","14","11:00","-1.9","","-6.9","","69","","","","11","","19","","24.1","","101.52","","","","-7","","Mostly Cloudy"
"-66.09","43.83","YARMOUTH A","8206500","2012-02-14 12:00","2012","02","14","12:00","0.4","","-4.3","","71","","","","13","","13","","24.1","","101.50","","","","","","Mostly Cloudy"
"-66.09","43.83","YARMOUTH A","8206500","2012-02-14 13:00","2012","02","14","13:00","3.0","","-2.0","","70","","","","14","","17","","24.1","","101.46","","","","","","Cloudy"
"-66.09","43.83","YARMOUTH A","8206500","2012-02-14 14:00","2012","02","14","14:00","3.4","","-1.7","","69","","","","18","","19","","24.1","","101.42","","","","","","Mostly Cloudy"
"-66.09","43.83","YARMOUTH A","8206500","2012-02-14 15:00","2012","02","14","15:00","3.5","","-2.2","","66","","","","18","","17","","24.1","","101.40","","","","","","Cloudy"
"-66.09","43.83","YARMOUTH A","8206500","2012-02-14 16:00","2012","02","14","16:00","3.5","","-1.2","","71","","","","18","","13","","24.1","","101.42","","","","","","Cloudy"
"-66.09","43.83","YARMOUTH A","8206500","2012-02-14 17:00","2012","02","14","17:00","3.2","","-0.2","","78","","","","18","","15","","24.1","","101.43","","","","","","Cloudy"
"-66.09","43.83","YARMOUTH A","8206500","2012-02-14 18:00","2012","02","14","18:00","2.2","","-0.2","","84","","","","18","","11","","24.1","","101.46","","","","","","Cloudy"
"-66.09","43.83","YARMOUTH A","8206500","2012-02-14 19:00","2012","02","14","19:00","2.1","","0.6","","90","","","","20","","11","","24.1","","101.52","","","","","","Cloudy"
"-66.09","43.83","YARMOUTH A","8206500","2012-02-14 20:00","2012","02","14","20:00","2.7","","-0.2","","81","","","","21","","11","","24.1","","101.57","","","","","","Cloudy"
"-66.09","43.83","YARMOUTH A","8206500","2012-02-14 21:00","2012","02","14","21:00","2.0","","-0.8","","82","","","","18","","7","","24.1","","101.58","","","","","","Cloudy"
"-66.09","43.83","YARMOUTH A","8206500","2012-02-14 22:00","2012","02","14","22:00","2.4","","0.7","","89","","","","18","","7","","24.1","","101.60","","","","","","Cloudy"
"-66.09","43.83","YARMOUTH A","8206500","2012-02-14 23:00","2012","02","14","23:00","1.8","","0.4","","90","","","","18","","7","","24.1","","101.59","","","","","","Cloudy"
"-66.09","43.83","YARMOUTH A","8206500","2012-02-15 00:00","2012","02","15","00:00","2.2","","1.1","","92","","","","18","","11","","24.1","","101.63","","","","","","Cloudy"
"-66.09","43.83","YARMOUTH A","8206500","2012-02-15 01:00","2012","02","15","01:00","2.2","","1.2","","93","","","","17","","7","","19.3","","101.63","","","","","","Cloudy"
"-66.09","43.83","YARMOUTH A","8206500","2012-02-15 02:00","2012","02","15","02:00","1.3","","0.4","","94","","","","13","","7","","19.3","","101.61","","","","","","Cloudy"
"-66.09","43.83","YARMOUTH A","8206500","2012-02-15 03:00","2012","02","15","03:00","0.8","","-0.2","","93","","","","14","","7","","12.9","","101.62","","","","","","Cloudy"
"-66.09","43.83","YARMOUTH A","8206500","2012-02-15 04:00","2012","02","15","04:00","0.9","","0.2","","95","","","","12","","6","","16.1","","101.61","","","","","","Mostly Cloudy"
"-66.09","43.83","YARMOUTH A","8206500","2012-02-15 05:00","2012","02","15","05:00","-0.2","","-1.1","","94","","","","11","","7","","12.9","","101.64","","","","-3","","Clear"
"-66.09","43.83","YARMOUTH A","8206500","2012-02-15 06:00","2012","02","15","06:00","-0.3","","-1.1","","94","","","","8","","6","","0.8","","101.66","","","","-2","","Freezing Fog"
"-66.09","43.83","YARMOUTH A","8206500","2012-02-15 07:00","2012","02","15","07:00","-0.6","","-1.4","","94","","","","9","","6","","0.6","","101.66","","","","-3","","Freezing Fog"
"-66.09","43.83","YARMOUTH A","8206500","2012-02-15 08:00","2012","02","15","08:00","-0.6","","-1.3","","95","","","","10","","4","","0.4","","101.72","","","","-2","","Freezing Fog"
"-66.09","43.83","YARMOUTH A","8206500","2012-02-15 09:00","2012","02","15","09:00","1.3","","1.2","","99","","","","13","","6","","12.9","","101.75","","","","","","Cloudy"
"-66.09","43.83","YARMOUTH A","8206500","2012-02-15 10:00","2012","02","15","10:00","3.3","","2.9","","97","","","","17","","7","","24.1","","101.73","","","","","","Cloudy"
"-66.09","43.83","YARMOUTH A","8206500","2012-02-15 11:00","2012","02","15","11:00","5.6","","3.0","","83","","","","20","","15","","24.1","","101.72","","","","","","Mostly Cloudy"
"-66.09","43.83","YARMOUTH A","8206500","2012-02-15 12:00","2012","02","15","12:00","5.4","","2.4","","81","","","","18","","19","","24.1","","101.71","","","","","","Mostly Cloudy"
"-66.09","43.83","YARMOUTH A","8206500","2012-02-15 13:00","2012","02","15","13:00","6.1","","2.9","","80","","","","22","","11","","24.1","","101.68","","","","","","Mostly Cloudy"
"-66.09","43.83","YARMOUTH A","8206500","2012-02-15 14:00","2012","02","15","14:00","5.6","","3.5","","86","","","","25","","9","","24.1","","101.65","","","","","","Cloudy"
"-66.09","43.83","YARMOUTH A","8206500","2012-02-15 15:00","2012","02","15","15:00","5.0","","3.2","","88","","","","18","","11","","24.1","","101.63","","","","","","Cloudy"
"-66.09","43.83","YARMOUTH A","8206500","2012-02-15 16:00","2012","02","15","16:00","4.9","","3.0","","87","","","","20","","7","","24.1","","101.65","","","","","","Cloudy"
"-66.09","43.83","YARMOUTH A","8206500","2012-02-15 17:00","2012","02","15","17:00","4.4","","3.1","","91","","","","28","","7","","24.1","","101.67","","","","","","Cloudy"
"-66.09","43.83","YARMOUTH A","8206500","2012-02-15 18:00","2012","02","15","18:00","3.4","","2.5","","94","","","","30","","7","","24.1","","101.69","","","","","","Cloudy"
"-66.09","43.83","YARMOUTH A","8206500","2012-02-15 19:00","2012","02","15","19:00","2.9","","2.2","","95","","","","16","","4","","24.1","","101.70","","","","","","Cloudy"
"-66.09","43.83","YARMOUTH A","8206500","2012-02-15 20:00","2012","02","15","20:00","2.3","","1.9","","97","","","","26","","4","","24.1","","101.71","","","","","","Cloudy"
"-66.09","43.83","YARMOUTH A","8206500","2012-02-15 21:00","2012","02","15","21:00","1.5","","0.6","","94","","","","","","0","","4.8","","101.71","","","","","","Fog"
"-66.09","43.83","YARMOUTH A","8206500","2012-02-15 22:00","2012","02","15","22:00","1.4","","0.9","","96","","","","2","","6","","0.2","","101.71","","","","","","Fog"
"-66.09","43.83","YARMOUTH A","8206500","2012-02-15 23:00","2012","02","15","23:00","1.9","","1.3","","96","","","","2","","6","","1.6","","101.69","","","","","","Fog"
"-66.09","43.83","YARMOUTH A","8206500","2012-02-16 00:00","2012","02","16","00:00","2.1","","1.5","","96","","","","35","","11","","16.1","","101.70","","","","","","Cloudy"
"-66.09","43.83","YARMOUTH A","8206500","2012-02-16 01:00","2012","02","16","01:00","1.9","","1.1","","94","","","","36","","9","","19.3","","101.71","","","","","","Cloudy"
"-66.09","43.83","YARMOUTH A","8206500","2012-02-16 02:00","2012","02","16","02:00","2.0","","1.4","","96","","","","34","","7","","19.3","","101.70","","","","","","Cloudy"
"-66.09","43.83","YARMOUTH A","8206500","2012-02-16 03:00","2012","02","16","03:00","0.9","","0.2","","95","","","","36","","7","","24.1","","101.67","","","","","","Clear"
"-66.09","43.83","YARMOUTH A","8206500","2012-02-16 04:00","2012","02","16","04:00","0.6","","-0.2","","94","","","","35","","9","","12.9","","101.69","","","","","","Cloudy"
"-66.09","43.83","YARMOUTH A","8206500","2012-02-16 05:00","2012","02","16","05:00","-0.2","","-1.4","","92","","","","35","","7","","0.6","","101.72","","","","-3","","Freezing Fog"
"-66.09","43.83","YARMOUTH A","8206500","2012-02-16 06:00","2012","02","16","06:00","-0.2","","-1.1","","94","","","","35","","11","","1.2","","101.78","","","","-4","","Fog"
"-66.09","43.83","YARMOUTH A","8206500","2012-02-16 07:00","2012","02","16","07:00","-0.2","","-0.9","","95","","","","36","","9","","11.3","","101.76","","","","-3","","Cloudy"
"-66.09","43.83","YARMOUTH A","8206500","2012-02-16 08:00","2012","02","16","08:00","-0.1","","-1.1","","93","","","","3","","9","","6.4","","101.74","","","","-3","","Fog"
"-66.09","43.83","YARMOUTH A","8206500","2012-02-16 09:00","2012","02","16","09:00","1.3","","1.1","","99","","","","36","","7","","6.4","","101.78","","","","","","Fog"
"-66.09","43.83","YARMOUTH A","8206500","2012-02-16 10:00","2012","02","16","10:00","2.4","","1.9","","96","","","","33","","9","","16.1","","101.82","","","","","","Mainly Clear"
"-66.09","43.83","YARMOUTH A","8206500","2012-02-16 11:00","2012","02","16","11:00","5.3","","1.0","","74","","","","2","","11","","24.1","","101.77","","","","","","Mainly Clear"
"-66.09","43.83","YARMOUTH A","8206500","2012-02-16 12:00","2012","02","16","12:00","6.9","","1.8","","70","","","","32","","17","","24.1","","101.77","","","","","","Mostly Cloudy"
"-66.09","43.83","YARMOUTH A","8206500","2012-02-16 13:00","2012","02","16","13:00","6.4","","1.1","","69","","","","32","","15","","24.1","","101.69","","","","","","Mostly Cloudy"
"-66.09","43.83","YARMOUTH A","8206500","2012-02-16 14:00","2012","02","16","14:00","6.3","","0.0","","64","","","","35","","19","","24.1","","101.60","","","","","","Mainly Clear"
"-66.09","43.83","YARMOUTH A","8206500","2012-02-16 15:00","2012","02","16","15:00","6.2","","0.8","","68","","","","31","","19","","24.1","","101.53","","","","","","Mainly Clear"
"-66.09","43.83","YARMOUTH A","8206500","2012-02-16 16:00","2012","02","16","16:00","4.8","","0.9","","76","","","","31","","20","","24.1","","101.52","","","","","","Mainly Clear"
"-66.09","43.83","YARMOUTH A","8206500","2012-02-16 17:00","2012","02","16","17:00","3.3","","0.9","","84","","","","33","","20","","24.1","","101.52","","","","","","Mainly Clear"
"-66.09","43.83","YARMOUTH A","8206500","2012-02-16 18:00","2012","02","16","18:00","1.9","","0.4","","90","","","","32","","13","","24.1","","101.50","","","","","","Mainly Clear"
"-66.09","43.83","YARMOUTH A","8206500","2012-02-16 19:00","2012","02","16","19:00","0.9","","-0.1","","93","","","","32","","13","","24.1","","101.54","","","","","","Clear"
"-66.09","43.83","YARMOUTH A","8206500","2012-02-16 20:00","2012","02","16","20:00","0.4","","-0.7","","92","","","","34","","11","","24.1","","101.50","","","","","","Clear"
"-66.09","43.83","YARMOUTH A","8206500","2012-02-16 21:00","2012","02","16","21:00","-0.9","","-2.2","","91","","","","33","","9","","24.1","","101.54","","","","-4","","Clear"
"-66.09","43.83","YARMOUTH A","8206500","2012-02-16 22:00","2012","02","16","22:00","-1.2","","-2.5","","91","","","","33","","9","","24.1","","101.51","","","","-4","","Clear"
"-66.09","43.83","YARMOUTH A","8206500","2012-02-16 23:00","2012","02","16","23:00","-1.4","","-2.6","","92","","","","36","","9","","24.1","","101.46","","","","-5","","Clear"
"-66.09","43.83","YARMOUTH A","8206500","2012-02-17 00:00","2012","02","17","00:00","-1.9","","-3.0","","92","","","","2","","4","","24.1","","101.41","","","","-3","","Clear"
"-66.09","43.83","YARMOUTH A","8206500","2012-02-17 01:00","2012","02","17","01:00","-2.4","","-3.5","","92","","","","4","","6","","24.1","","101.34","","","","-5","","Clear"
"-66.09","43.83","YARMOUTH A","8206500","2012-02-17 02:00","2012","02","17","02:00","-2.0","","-3.0","","93","","","","7","","11","","24.1","","101.31","","","","-6","","Mostly Cloudy"
"-66.09","43.83","YARMOUTH A","8206500","2012-02-17 03:00","2012","02","17","03:00","-1.2","","-2.7","","90","","","","6","","11","","24.1","","101.29","","","","-5","","Cloudy"
"-66.09","43.83","YARMOUTH A","8206500","2012-02-17 04:00","2012","02","17","04:00","-1.2","","-2.7","","90","","","","11","","7","","24.1","","101.25","","","","-4","","Cloudy"
"-66.09","43.83","YARMOUTH A","8206500","2012-02-17 05:00","2012","02","17","05:00","-1.3","","-2.5","","92","","","","12","","7","","24.1","","101.22","","","","-4","","Cloudy"
"-66.09","43.83","YARMOUTH A","8206500","2012-02-17 06:00","2012","02","17","06:00","-1.0","","-2.3","","91","","","","12","","9","","4.8","","101.19","","","","-4","","Fog"
"-66.09","43.83","YARMOUTH A","8206500","2012-02-17 07:00","2012","02","17","07:00","-0.7","","-1.9","","92","","","","11","","11","","4.8","","101.16","","","","-4","","Fog"
"-66.09","43.83","YARMOUTH A","8206500","2012-02-17 08:00","2012","02","17","08:00","-0.2","","-1.3","","92","","","","12","","11","","3.2","","101.19","","","","-4","","Freezing Rain,Fog"
"-66.09","43.83","YARMOUTH A","8206500","2012-02-17 09:00","2012","02","17","09:00","0.4","","-0.7","","92","","","","12","","7","","2.4","","101.14","","","","","","Rain,Fog"
"-66.09","43.83","YARMOUTH A","8206500","2012-02-17 10:00","2012","02","17","10:00","1.3","","0.4","","94","","","","14","","9","","3.2","","101.10","","","","","","Fog"
"-66.09","43.83","YARMOUTH A","8206500","2012-02-17 11:00","2012","02","17","11:00","2.2","","1.4","","94","","","","14","","11","","2.4","","101.04","","","","","","Rain Showers,Fog"
"-66.09","43.83","YARMOUTH A","8206500","2012-02-17 12:00","2012","02","17","12:00","3.3","","2.5","","94","","","","17","","9","","3.2","","100.97","","","","","","Rain Showers,Fog"
"-66.09","43.83","YARMOUTH A","8206500","2012-02-17 13:00","2012","02","17","13:00","4.3","","3.2","","93","","","","19","","24","","6.4","","100.86","","","","","","Rain Showers,Fog"
"-66.09","43.83","YARMOUTH A","8206500","2012-02-17 14:00","2012","02","17","14:00","4.3","","3.2","","93","","","","19","","20","","6.4","","100.75","","","","","","Rain Showers,Fog"
"-66.09","43.83","YARMOUTH A","8206500","2012-02-17 15:00","2012","02","17","15:00","4.1","","2.9","","92","","","","19","","19","","4.8","","100.67","","","","","","Rain Showers,Fog"
"-66.09","43.83","YARMOUTH A","8206500","2012-02-17 16:00","2012","02","17","16:00","4.1","","3.0","","93","","","","20","","24","","4.0","","100.62","","","","","","Rain Showers,Fog"
"-66.09","43.83","YARMOUTH A","8206500","2012-02-17 17:00","2012","02","17","17:00","4.0","","3.0","","93","","","","19","","19","","4.0","","100.59","","","","","","Rain Showers,Fog"
"-66.09","43.83","YARMOUTH A","8206500","2012-02-17 18:00","2012","02","17","18:00","4.1","","3.2","","94","","","","20","","19","","4.0","","100.56","","","","","","Rain Showers,Fog"
"-66.09","43.83","YARMOUTH A","8206500","2012-02-17 19:00","2012","02","17","19:00","4.2","","3.2","","93","","","","20","","17","","3.2","","100.52","","","","","","Rain Showers,Fog"
"-66.09","43.83","YARMOUTH A","8206500","2012-02-17 20:00","2012","02","17","20:00","4.1","","3.4","","95","","","","20","","17","","3.2","","100.48","","","","","","Rain Showers,Fog"
"-66.09","43.83","YARMOUTH A","8206500","2012-02-17 21:00","2012","02","17","21:00","4.1","","3.4","","95","","","","26","","9","","4.8","","100.45","","","","","","Rain Showers,Fog"
"-66.09","43.83","YARMOUTH A","8206500","2012-02-17 22:00","2012","02","17","22:00","4.0","","3.2","","95","","","","25","","4","","4.8","","100.40","","","","","","Rain Showers,Fog"
"-66.09","43.83","YARMOUTH A","8206500","2012-02-17 23:00","2012","02","17","23:00","3.3","","2.5","","94","","","","","","0","","2.4","","100.31","","","","","","Rain Showers,Fog"
"-66.09","43.83","YARMOUTH A","8206500","2012-02-18 00:00","2012","02","18","00:00","3.2","","2.4","","94","","","","34","","20","","4.8","","100.23","","","","","","Rain Showers,Fog"
"-66.09","43.83","YARMOUTH A","8206500","2012-02-18 01:00","2012","02","18","01:00","1.9","","0.1","","88","","","","1","","22","","9.7","","100.17","","","","","","Rain Showers,Fog"
"-66.09","43.83","YARMOUTH A","8206500","2012-02-18 02:00","2012","02","18","02:00","1.6","","0.3","","91","","","","5","","13","","14.5","","100.11","","","","","","Rain Showers"
"-66.09","43.83","YARMOUTH A","8206500","2012-02-18 03:00","2012","02","18","03:00","1.8","","0.3","","90","","","","35","","17","","14.5","","100.12","","","","","","Rain Showers"
"-66.09","43.83","YARMOUTH A","8206500","2012-02-18 04:00","2012","02","18","04:00"
"-66.09","43.83","YARMOUTH A","8206500","2012-02-18 05:00","2012","02","18","05:00","0.8","","-0.7","","90","","","","34","","15","","24.1","","100.07","","","","","","Mainly Clear"
"-66.09","43.83","YARMOUTH A","8206500","2012-02-18 06:00","2012","02","18","06:00","1.7","","-1.3","","80","","","","32","","22","","24.1","","100.12","","","","","","Mostly Cloudy"
"-66.09","43.83","YARMOUTH A","8206500","2012-02-18 07:00","2012","02","18","07:00","1.8","","-3.1","","70","","","","32","","24","","24.1","","100.15","","","","","","Mainly Clear"
"-66.09","43.83","YARMOUTH A","8206500","2012-02-18 08:00","2012","02","18","08:00","1.9","","-3.2","","69","","","","32","","26","","24.1","","100.18","","","","","","Mainly Clear"
"-66.09","43.83","YARMOUTH A","8206500","2012-02-18 09:00","2012","02","18","09:00","3.0","","-3.0","","65","","","","31","","26","","24.1","","100.22","","","","","","Mostly Cloudy"
"-66.09","43.83","YARMOUTH A","8206500","2012-02-18 10:00","2012","02","18","10:00","3.7","","-2.7","","63","","","","31","","33","","24.1","","100.23","","","","","","Mainly Clear"
"-66.09","43.83","YARMOUTH A","8206500","2012-02-18 11:00","2012","02","18","11:00","3.8","","-2.5","","63","","","","31","","41","","24.1","","100.21","","","","","","Mainly Clear"
"-66.09","43.83","YARMOUTH A","8206500","2012-02-18 12:00","2012","02","18","12:00","4.0","","-3.3","","59","","","","31","","41","","24.1","","100.19","","","","","","Mainly Clear"
"-66.09","43.83","YARMOUTH A","8206500","2012-02-18 13:00","2012","02","18","13:00","4.0","","-3.5","","58","","","","32","","35","","24.1","","100.11","","","","","","Mainly Clear"
"-66.09","43.83","YARMOUTH A","8206500","2012-02-18 14:00","2012","02","18","14:00","4.2","","-2.8","","60","","","","30","","35","","24.1","","100.09","","","","","","Mainly Clear"
"-66.09","43.83","YARMOUTH A","8206500","2012-02-18 15:00","2012","02","18","15:00","3.5","","-3.2","","61","","","","30","","30","","24.1","","100.12","","","","","","Cloudy"
"-66.09","43.83","YARMOUTH A","8206500","2012-02-18 16:00","2012","02","18","16:00","3.5","","-4.5","","56","","","","30","","30","","24.1","","100.13","","","","","","Cloudy"
"-66.09","43.83","YARMOUTH A","8206500","2012-02-18 17:00","2012","02","18","17:00","3.3","","-3.8","","60","","","","29","","28","","24.1","","100.14","","","","","","Cloudy"
"-66.09","43.83","YARMOUTH A","8206500","2012-02-18 18:00","2012","02","18","18:00","3.1","","-4.3","","58","","","","29","","24","","24.1","","100.15","","","","","","Cloudy"
"-66.09","43.83","YARMOUTH A","8206500","2012-02-18 19:00","2012","02","18","19:00","3.1","","-4.2","","59","","","","28","","30","","24.1","","100.19","","","","","","Mostly Cloudy"
"-66.09","43.83","YARMOUTH A","8206500","2012-02-18 20:00","2012","02","18","20:00","3.1","","-4.5","","57","","","","29","","32","","24.1","","100.23","","","","","","Mostly Cloudy"
"-66.09","43.83","YARMOUTH A","8206500","2012-02-18 21:00","2012","02","18","21:00","3.2","","-4.3","","58","","","","30","","24","","24.1","","100.31","","","","","","Cloudy"
"-66.09","43.83","YARMOUTH A","8206500","2012-02-18 22:00","2012","02","18","22:00","2.7","","-5.1","","56","","","","31","","33","","24.1","","100.39","","","","","","Cloudy"
"-66.09","43.83","YARMOUTH A","8206500","2012-02-18 23:00","2012","02","18","23:00","2.4","","-5.8","","55","","","","30","","28","","24.1","","100.42","","","","","","Mostly Cloudy"
"-66.09","43.83","YARMOUTH A","8206500","2012-02-19 00:00","2012","02","19","00:00","2.0","","-6.3","","54","","","","31","","35","","24.1","","100.42","","","","","","Mostly Cloudy"
"-66.09","43.83","YARMOUTH A","8206500","2012-02-19 01:00","2012","02","19","01:00","2.1","","-6.1","","55","","","","31","","30","","24.1","","100.43","","","","","","Mostly Cloudy"
"-66.09","43.83","YARMOUTH A","8206500","2012-02-19 02:00","2012","02","19","02:00","1.5","","-6.2","","57","","","","34","","32","","24.1","","100.45","","","","","","Mainly Clear"
"-66.09","43.83","YARMOUTH A","8206500","2012-02-19 03:00","2012","02","19","03:00","1.5","","-6.0","","57","","","","31","","22","","24.1","","100.47","","","","","","Mostly Cloudy"
"-66.09","43.83","YARMOUTH A","8206500","2012-02-19 04:00","2012","02","19","04:00","1.3","","-5.6","","60","","","","31","","28","","24.1","","100.49","","","","","","Mostly Cloudy"
"-66.09","43.83","YARMOUTH A","8206500","2012-02-19 05:00","2012","02","19","05:00","1.1","","-6.2","","58","","","","30","","28","","24.1","","100.53","","","","","","Mostly Cloudy"
"-66.09","43.83","YARMOUTH A","8206500","2012-02-19 06:00","2012","02","19","06:00","0.9","","-6.7","","57","","","","32","","32","","24.1","","100.54","","","","","","Mostly Cloudy"
"-66.09","43.83","YARMOUTH A","8206500","2012-02-19 07:00","2012","02","19","07:00","0.0","","-7.0","","59","","","","31","","30","","24.1","","100.60","","","","-6","","Mostly Cloudy"
"-66.09","43.83","YARMOUTH A","8206500","2012-02-19 08:00","2012","02","19","08:00","-0.5","","-6.7","","63","","","","32","","28","","24.1","","100.67","","","","-7","","Mostly Cloudy"
"-66.09","43.83","YARMOUTH A","8206500","2012-02-19 09:00","2012","02","19","09:00","-0.1","","-6.9","","60","","","","33","","32","","24.1","","100.68","","","","-7","","Mainly Clear"
"-66.09","43.83","YARMOUTH A","8206500","2012-02-19 10:00","2012","02","19","10:00","0.0","","-7.0","","59","","","","32","","32","","24.1","","100.68","","","","-7","","Mainly Clear"
"-66.09","43.83","YARMOUTH A","8206500","2012-02-19 11:00","2012","02","19","11:00","0.2","","-7.0","","58","","","","32","","33","","24.1","","100.70","","","","","","Mainly Clear"
"-66.09","43.83","YARMOUTH A","8206500","2012-02-19 12:00","2012","02","19","12:00","0.8","","-6.6","","58","","","","30","","32","","24.1","","100.70","","","","","","Mainly Clear"
"-66.09","43.83","YARMOUTH A","8206500","2012-02-19 13:00","2012","02","19","13:00","0.9","","-6.3","","59","","","","30","","30","","24.1","","100.69","","","","","","Mainly Clear"
"-66.09","43.83","YARMOUTH A","8206500","2012-02-19 14:00","2012","02","19","14:00","1.1","","-6.4","","57","","","","30","","33","","24.1","","100.65","","","","","","Mainly Clear"
"-66.09","43.83","YARMOUTH A","8206500","2012-02-19 15:00","2012","02","19","15:00","1.2","","-6.5","","56","","","","30","","33","","24.1","","100.66","","","","","","Mainly Clear"
"-66.09","43.83","YARMOUTH A","8206500","2012-02-19 16:00","2012","02","19","16:00","1.2","","-7.9","","51","","","","30","","32","","24.1","","100.67","","","","","","Clear"
"-66.09","43.83","YARMOUTH A","8206500","2012-02-19 17:00","2012","02","19","17:00","1.3","","-8.9","","47","","","","31","","33","","24.1","","100.66","","","","","","Clear"
"-66.09","43.83","YARMOUTH A","8206500","2012-02-19 18:00","2012","02","19","18:00","1.0","","-9.0","","47","","","","30","","26","","24.1","","100.69","","","","","","Clear"
"-66.09","43.83","YARMOUTH A","8206500","2012-02-19 19:00","2012","02","19","19:00","1.4","","-9.0","","46","","","","31","","24","","24.1","","100.72","","","","","","Clear"
"-66.09","43.83","YARMOUTH A","8206500","2012-02-19 20:00","2012","02","19","20:00","0.8","","-9.4","","46","","","","32","","20","","24.1","","100.73","","","","","","Clear"
"-66.09","43.83","YARMOUTH A","8206500","2012-02-19 21:00","2012","02","19","21:00","1.1","","-9.1","","46","","","","32","","32","","24.1","","100.76","","","","","","Clear"
"-66.09","43.83","YARMOUTH A","8206500","2012-02-19 22:00","2012","02","19","22:00","0.3","","-10.0","","46","","","","33","","28","","24.1","","100.81","","","","","","Clear"
"-66.09","43.83","YARMOUTH A","8206500","2012-02-19 23:00","2012","02","19","23:00","0.0","","-9.9","","47","","","","33","","22","","24.1","","100.82","","","","-6","","Clear"
"-66.09","43.83","YARMOUTH A","8206500","2012-02-20 00:00","2012","02","20","00:00","-1.0","","-9.6","","52","","","","34","","20","","24.1","","100.81","","","","-7","","Clear"
"-66.09","43.83","YARMOUTH A","8206500","2012-02-20 01:00","2012","02","20","01:00","-1.0","","-9.4","","53","","","","33","","32","","24.1","","100.83","","","","-8","","Clear"
"-66.09","43.83","YARMOUTH A","8206500","2012-02-20 02:00","2012","02","20","02:00","-1.8","","-9.5","","56","","","","34","","28","","24.1","","100.74","","","","-9","","Clear"
"-66.09","43.83","YARMOUTH A","8206500","2012-02-20 03:00","2012","02","20","03:00","-2.6","","-10.1","","56","","","","35","","20","","24.1","","100.75","","","","-9","","Clear"
"-66.09","43.83","YARMOUTH A","8206500","2012-02-20 04:00","2012","02","20","04:00","-3.5","","-10.0","","61","","","","35","","19","","24.1","","100.75","","","","-9","","Clear"
"-66.09","43.83","YARMOUTH A","8206500","2012-02-20 05:00","2012","02","20","05:00","-3.4","","-9.4","","63","","","","35","","15","","24.1","","100.80","","","","-9","","Clear"
"-66.09","43.83","YARMOUTH A","8206500","2012-02-20 06:00","2012","02","20","06:00","-3.4","","-9.0","","65","","","","36","","20","","24.1","","100.82","","","","-10","","Mostly Cloudy"
"-66.09","43.83","YARMOUTH A","8206500","2012-02-20 07:00","2012","02","20","07:00","-3.5","","-9.0","","66","","","","36","","13","","24.1","","100.82","","","","-8","","Mostly Cloudy"
"-66.09","43.83","YARMOUTH A","8206500","2012-02-20 08:00","2012","02","20","08:00","-3.5","","-9.1","","65","","","","35","","24","","24.1","","100.90","","","","-10","","Mostly Cloudy"
"-66.09","43.83","YARMOUTH A","8206500","2012-02-20 09:00","2012","02","20","09:00","-3.0","","-9.2","","62","","","","34","","22","","24.1","","100.89","","","","-9","","Cloudy"
"-66.09","43.83","YARMOUTH A","8206500","2012-02-20 10:00","2012","02","20","10:00","-2.8","","-9.1","","62","","","","35","","26","","24.1","","100.87","","","","-10","","Cloudy"
"-66.09","43.83","YARMOUTH A","8206500","2012-02-20 11:00","2012","02","20","11:00","-2.1","","-9.1","","59","","","","34","","32","","24.1","","100.87","","","","-9","","Mainly Clear"
"-66.09","43.83","YARMOUTH A","8206500","2012-02-20 12:00","2012","02","20","12:00","-1.7","","-8.5","","60","","","","34","","32","","24.1","","100.84","","","","-9","","Mainly Clear"
"-66.09","43.83","YARMOUTH A","8206500","2012-02-20 13:00","2012","02","20","13:00","-1.9","","-8.4","","61","","","","34","","37","","24.1","","100.78","","","","-10","","Mainly Clear"
"-66.09","43.83","YARMOUTH A","8206500","2012-02-20 14:00","2012","02","20","14:00","-2.0","","-9.4","","57","","","","35","","37","","24.1","","100.74","","","","-10","","Mainly Clear"
"-66.09","43.83","YARMOUTH A","8206500","2012-02-20 15:00","2012","02","20","15:00","-2.1","","-9.2","","58","","","","35","","33","","24.1","","100.77","","","","-10","","Mainly Clear"
"-66.09","43.83","YARMOUTH A","8206500","2012-02-20 16:00","2012","02","20","16:00","-1.4","","-9.5","","54","","","","34","","33","","24.1","","100.78","","","","-9","","Mainly Clear"
"-66.09","43.83","YARMOUTH A","8206500","2012-02-20 17:00","2012","02","20","17:00","-2.0","","-10.8","","51","","","","33","","28","","24.1","","100.84","","","","-9","","Clear"
"-66.09","43.83","YARMOUTH A","8206500","2012-02-20 18:00","2012","02","20","18:00","-2.7","","-12.2","","48","","","","35","","37","","24.1","","100.93","","","","-11","","Clear"
"-66.09","43.83","YARMOUTH A","8206500","2012-02-20 19:00","2012","02","20","19:00","-2.5","","-11.8","","49","","","","35","","32","","24.1","","101.03","","","","-10","","Clear"
"-66.09","43.83","YARMOUTH A","8206500","2012-02-20 20:00","2012","02","20","20:00","-2.9","","-12.2","","49","","","","35","","32","","24.1","","101.15","","","","-10","","Clear"
"-66.09","43.83","YARMOUTH A","8206500","2012-02-20 21:00","2012","02","20","21:00","-3.5","","-12.9","","48","","","","36","","28","","24.1","","101.21","","","","-11","","Clear"
"-66.09","43.83","YARMOUTH A","8206500","2012-02-20 22:00","2012","02","20","22:00","-3.4","","-13.0","","47","","","","35","","33","","24.1","","101.31","","","","-11","","Clear"
"-66.09","43.83","YARMOUTH A","8206500","2012-02-20 23:00","2012","02","20","23:00","-3.9","","-12.8","","50","","","","35","","41","","24.1","","101.36","","","","-13","","Clear"
"-66.09","43.83","YARMOUTH A","8206500","2012-02-21 00:00","2012","02","21","00:00","-4.8","","-12.5","","55","","","","36","","33","","24.1","","101.43","","","","-13","","Clear"
"-66.09","43.83","YARMOUTH A","8206500","2012-02-21 01:00","2012","02","21","01:00","-5.4","","-12.7","","56","","","","36","","22","","24.1","","101.50","","","","-12","","Clear"
"-66.09","43.83","YARMOUTH A","8206500","2012-02-21 02:00","2012","02","21","02:00","-6.0","","-12.1","","62","","","","1","","19","","24.1","","101.55","","","","-13","","Clear"
"-66.09","43.83","YARMOUTH A","8206500","2012-02-21 03:00","2012","02","21","03:00","-6.5","","-11.7","","67","","","","36","","11","","24.1","","101.61","","","","-11","","Clear"
"-66.09","43.83","YARMOUTH A","8206500","2012-02-21 04:00","2012","02","21","04:00","-6.2","","-10.9","","69","","","","36","","15","","24.1","","101.64","","","","-12","","Clear"
"-66.09","43.83","YARMOUTH A","8206500","2012-02-21 05:00","2012","02","21","05:00","-5.8","","-10.0","","72","","","","35","","17","","24.1","","101.70","","","","-12","","Clear"
"-66.09","43.83","YARMOUTH A","8206500","2012-02-21 06:00","2012","02","21","06:00","-5.8","","-10.0","","72","","","","34","","17","","24.1","","101.76","","","","-12","","Mainly Clear"
"-66.09","43.83","YARMOUTH A","8206500","2012-02-21 07:00","2012","02","21","07:00","-5.6","","-9.2","","76","","","","35","","11","","24.1","","101.83","","","","-10","","Mainly Clear"
"-66.09","43.83","YARMOUTH A","8206500","2012-02-21 08:00","2012","02","21","08:00","-4.3","","-8.4","","73","","","","34","","19","","24.1","","101.87","","","","-10","","Mainly Clear"
"-66.09","43.83","YARMOUTH A","8206500","2012-02-21 09:00","2012","02","21","09:00","-3.4","","-8.0","","70","","","","35","","17","","24.1","","101.95","","","","-9","","Mainly Clear"
"-66.09","43.83","YARMOUTH A","8206500","2012-02-21 10:00","2012","02","21","10:00","-2.3","","-7.7","","66","","","","32","","26","","24.1","","101.90","","","","-9","","Mainly Clear"
"-66.09","43.83","YARMOUTH A","8206500","2012-02-21 11:00","2012","02","21","11:00","-1.3","","-7.5","","63","","","","35","","11","","24.1","","101.87","","","","-5","","Mostly Cloudy"
"-66.09","43.83","YARMOUTH A","8206500","2012-02-21 12:00","2012","02","21","12:00","-0.8","","-7.8","","59","","","","30","","19","","24.1","","101.90","","","","-6","","Mainly Clear"
"-66.09","43.83","YARMOUTH A","8206500","2012-02-21 13:00","2012","02","21","13:00","-0.3","","-7.3","","59","","","","29","","20","","24.1","","101.82","","","","-6","","Mainly Clear"
"-66.09","43.83","YARMOUTH A","8206500","2012-02-21 14:00","2012","02","21","14:00","-0.1","","-7.4","","58","","","","30","","15","","24.1","","101.73","","","","-5","","Mainly Clear"
"-66.09","43.83","YARMOUTH A","8206500","2012-02-21 15:00","2012","02","21","15:00","-0.3","","-6.5","","63","","","","29","","20","","24.1","","101.68","","","","-6","","Mostly Cloudy"
"-66.09","43.83","YARMOUTH A","8206500","2012-02-21 16:00","2012","02","21","16:00","-0.6","","-6.9","","62","","","","30","","11","","24.1","","101.67","","","","-4","","Cloudy"
"-66.09","43.83","YARMOUTH A","8206500","2012-02-21 17:00","2012","02","21","17:00","-1.2","","-6.4","","68","","","","27","","11","","24.1","","101.66","","","","-5","","Cloudy"
"-66.09","43.83","YARMOUTH A","8206500","2012-02-21 18:00","2012","02","21","18:00","-1.9","","-6.4","","71","","","","24","","7","","24.1","","101.64","","","","-5","","Cloudy"
"-66.09","43.83","YARMOUTH A","8206500","2012-02-21 19:00","2012","02","21","19:00","-1.4","","-5.9","","71","","","","25","","13","","24.1","","101.64","","","","-6","","Cloudy"
"-66.09","43.83","YARMOUTH A","8206500","2012-02-21 20:00","2012","02","21","20:00","-1.4","","-5.4","","74","","","","22","","11","","24.1","","101.53","","","","-5","","Cloudy"
"-66.09","43.83","YARMOUTH A","8206500","2012-02-21 21:00","2012","02","21","21:00","-0.4","","-4.9","","72","","","","22","","15","","24.1","","101.47","","","","-5","","Cloudy"
"-66.09","43.83","YARMOUTH A","8206500","2012-02-21 22:00","2012","02","21","22:00","0.6","","-3.8","","72","","","","22","","19","","24.1","","101.42","","","","","","Cloudy"
"-66.09","43.83","YARMOUTH A","8206500","2012-02-21 23:00","2012","02","21","23:00","1.1","","-3.1","","74","","","","21","","20","","24.1","","101.31","","","","","","Cloudy"
"-66.09","43.83","YARMOUTH A","8206500","2012-02-22 00:00","2012","02","22","00:00","1.8","","-2.3","","74","","","","21","","22","","24.1","","101.21","","","","","","Cloudy"
"-66.09","43.83","YARMOUTH A","8206500","2012-02-22 01:00","2012","02","22","01:00","2.3","","-1.8","","74","","","","22","","22","","24.1","","101.16","","","","","","Cloudy"
"-66.09","43.83","YARMOUTH A","8206500","2012-02-22 02:00","2012","02","22","02:00","2.4","","-1.1","","78","","","","20","","20","","24.1","","101.03","","","","","","Cloudy"
"-66.09","43.83","YARMOUTH A","8206500","2012-02-22 03:00","2012","02","22","03:00","2.1","","0.4","","88","","","","20","","22","","16.1","","100.89","","","","","","Rain Showers"
"-66.09","43.83","YARMOUTH A","8206500","2012-02-22 04:00","2012","02","22","04:00","1.8","","1.0","","94","","","","17","","20","","16.1","","100.75","","","","","","Rain Showers"
"-66.09","43.83","YARMOUTH A","8206500","2012-02-22 05:00","2012","02","22","05:00","2.0","","1.3","","95","","","","16","","15","","6.4","","100.57","","","","","","Rain Showers,Fog"
"-66.09","43.83","YARMOUTH A","8206500","2012-02-22 06:00","2012","02","22","06:00","2.3","","1.7","","96","","","","16","","22","","9.7","","100.39","","","","","","Moderate Rain Showers,Fog"
"-66.09","43.83","YARMOUTH A","8206500","2012-02-22 07:00","2012","02","22","07:00","2.7","","2.2","","97","","","","16","","15","","9.7","","100.28","","","","","","Rain Showers,Fog"
"-66.09","43.83","YARMOUTH A","8206500","2012-02-22 08:00","2012","02","22","08:00","3.6","","3.2","","97","","","","13","","13","","4.0","","100.08","","","","","","Rain Showers,Fog"
"-66.09","43.83","YARMOUTH A","8206500","2012-02-22 09:00","2012","02","22","09:00","4.0","","3.2","","95","","","","15","","6","","3.2","","99.98","","","","","","Fog"
"-66.09","43.83","YARMOUTH A","8206500","2012-02-22 10:00","2012","02","22","10:00","4.6","","3.9","","95","","","","5","","4","","0.4","","99.95","","","","","","Fog"
"-66.09","43.83","YARMOUTH A","8206500","2012-02-22 11:00","2012","02","22","11:00","5.1","","4.3","","95","","","","26","","17","","3.2","","100.01","","","","","","Fog"
"-66.09","43.83","YARMOUTH A","8206500","2012-02-22 12:00","2012","02","22","12:00","5.1","","4.4","","95","","","","23","","19","","2.4","","99.98","","","","","","Fog"
"-66.09","43.83","YARMOUTH A","8206500","2012-02-22 13:00","2012","02","22","13:00","5.9","","5.2","","95","","","","24","","15","","11.3","","99.89","","","","","","Cloudy"
"-66.09","43.83","YARMOUTH A","8206500","2012-02-22 14:00","2012","02","22","14:00","6.2","","4.4","","88","","","","24","","17","","12.9","","99.82","","","","","","Cloudy"
"-66.09","43.83","YARMOUTH A","8206500","2012-02-22 15:00","2012","02","22","15:00","6.2","","4.5","","89","","","","22","","17","","12.9","","99.78","","","","","","Cloudy"
"-66.09","43.83","YARMOUTH A","8206500","2012-02-22 16:00","2012","02","22","16:00","6.3","","4.5","","88","","","","21","","19","","12.9","","99.70","","","","","","Cloudy"
"-66.09","43.83","YARMOUTH A","8206500","2012-02-22 17:00","2012","02","22","17:00","5.3","","3.9","","91","","","","20","","17","","12.9","","99.61","","","","","","Cloudy"
"-66.09","43.83","YARMOUTH A","8206500","2012-02-22 18:00","2012","02","22","18:00","5.3","","3.9","","91","","","","22","","17","","8.0","","99.67","","","","","","Fog"
"-66.09","43.83","YARMOUTH A","8206500","2012-02-22 19:00","2012","02","22","19:00","4.7","","3.3","","91","","","","25","","19","","16.1","","99.73","","","","","","Mostly Cloudy"
"-66.09","43.83","YARMOUTH A","8206500","2012-02-22 20:00","2012","02","22","20:00","4.2","","2.7","","90","","","","26","","13","","16.1","","99.72","","","","","","Clear"
"-66.09","43.83","YARMOUTH A","8206500","2012-02-22 21:00","2012","02","22","21:00","3.0","","1.5","","90","","","","25","","13","","16.1","","99.76","","","","","","Mainly Clear"
"-66.09","43.83","YARMOUTH A","8206500","2012-02-22 22:00","2012","02","22","22:00","3.1","","2.2","","94","","","","25","","11","","16.1","","99.83","","","","","","Mainly Clear"
"-66.09","43.83","YARMOUTH A","8206500","2012-02-22 23:00","2012","02","22","23:00","3.9","","3.2","","95","","","","23","","15","","24.1","","99.86","","","","","","Mainly Clear"
"-66.09","43.83","YARMOUTH A","8206500","2012-02-23 00:00","2012","02","23","00:00","3.9","","3.5","","97","","","","24","","13","","16.1","","99.86","","","","","","Mainly Clear"
"-66.09","43.83","YARMOUTH A","8206500","2012-02-23 01:00","2012","02","23","01:00","3.8","","3.5","","98","","","","21","","13","","8.0","","99.88","","","","","","Fog"
"-66.09","43.83","YARMOUTH A","8206500","2012-02-23 02:00","2012","02","23","02:00","2.1","","1.8","","98","","","","15","","9","","0.2","","99.85","","","","","","Fog"
"-66.09","43.83","YARMOUTH A","8206500","2012-02-23 03:00","2012","02","23","03:00","3.0","","2.9","","99","","","","20","","19","","4.8","","99.89","","","","","","Fog"
"-66.09","43.83","YARMOUTH A","8206500","2012-02-23 04:00","2012","02","23","04:00","3.0","","2.8","","99","","","","18","","15","","4.8","","99.82","","","","","","Fog"
"-66.09","43.83","YARMOUTH A","8206500","2012-02-23 05:00","2012","02","23","05:00","2.8","","2.7","","99","","","","17","","13","","4.0","","99.76","","","","","","Fog"
"-66.09","43.83","YARMOUTH A","8206500","2012-02-23 06:00","2012","02","23","06:00","2.6","","2.5","","99","","","","16","","11","","4.8","","99.69","","","","","","Fog"
"-66.09","43.83","YARMOUTH A","8206500","2012-02-23 07:00","2012","02","23","07:00","2.6","","2.3","","98","","","","16","","15","","9.7","","99.59","","","","","","Fog"
"-66.09","43.83","YARMOUTH A","8206500","2012-02-23 08:00","2012","02","23","08:00","3.2","","2.7","","97","","","","15","","13","","12.9","","99.61","","","","","","Cloudy"
"-66.09","43.83","YARMOUTH A","8206500","2012-02-23 09:00","2012","02","23","09:00","4.1","","2.6","","90","","","","15","","15","","16.1","","99.59","","","","","","Cloudy"
"-66.09","43.83","YARMOUTH A","8206500","2012-02-23 10:00","2012","02","23","10:00","5.1","","2.9","","86","","","","13","","13","","16.1","","99.49","","","","","","Rain"
"-66.09","43.83","YARMOUTH A","8206500","2012-02-23 11:00","2012","02","23","11:00","5.4","","1.9","","78","","","","15","","11","","12.9","","99.41","","","","","","Rain"
"-66.09","43.83","YARMOUTH A","8206500","2012-02-23 12:00","2012","02","23","12:00","4.7","","2.7","","87","","","","11","","9","","8.0","","99.20","","","","","","Rain,Fog"
"-66.09","43.83","YARMOUTH A","8206500","2012-02-23 13:00","2012","02","23","13:00","4.9","","3.6","","91","","","","10","","15","","8.0","","98.92","","","","","","Moderate Rain,Fog"
"-66.09","43.83","YARMOUTH A","8206500","2012-02-23 14:00","2012","02","23","14:00","5.8","","4.7","","93","","","","11","","11","","6.4","","98.69","","","","","","Rain,Fog"
"-66.09","43.83","YARMOUTH A","8206500","2012-02-23 15:00","2012","02","23","15:00","6.8","","5.7","","93","","","","15","","13","","4.8","","98.54","","","","","","Fog"
"-66.09","43.83","YARMOUTH A","8206500","2012-02-23 16:00","2012","02","23","16:00","6.0","","5.0","","93","","","","23","","24","","0.4","","98.58","","","","","","Fog"
"-66.09","43.83","YARMOUTH A","8206500","2012-02-23 17:00","2012","02","23","17:00","6.0","","5.0","","93","","","","23","","30","","6.4","","98.58","","","","","","Fog"
"-66.09","43.83","YARMOUTH A","8206500","2012-02-23 18:00","2012","02","23","18:00","5.6","","3.2","","85","","","","29","","39","","12.9","","98.69","","","","","","Mainly Clear"
"-66.09","43.83","YARMOUTH A","8206500","2012-02-23 19:00","2012","02","23","19:00","4.7","","2.7","","87","","","","29","","35","","24.1","","98.91","","","","","","Mostly Cloudy"
"-66.09","43.83","YARMOUTH A","8206500","2012-02-23 20:00","2012","02","23","20:00","4.7","","2.2","","84","","","","30","","33","","24.1","","99.06","","","","","","Cloudy"
"-66.09","43.83","YARMOUTH A","8206500","2012-02-23 21:00","2012","02","23","21:00","3.8","","1.6","","86","","","","31","","33","","24.1","","99.24","","","","","","Mostly Cloudy"
"-66.09","43.83","YARMOUTH A","8206500","2012-02-23 22:00","2012","02","23","22:00","3.8","","0.4","","78","","","","30","","37","","24.1","","99.39","","","","","","Mainly Clear"
"-66.09","43.83","YARMOUTH A","8206500","2012-02-23 23:00","2012","02","23","23:00","3.4","","-1.0","","73","","","","30","","44","","24.1","","99.50","","","","","","Mainly Clear"
"-66.09","43.83","YARMOUTH A","8206500","2012-02-24 00:00","2012","02","24","00:00","2.9","","-1.6","","72","","","","30","","32","","24.1","","99.59","","","","","","Clear"
"-66.09","43.83","YARMOUTH A","8206500","2012-02-24 01:00","2012","02","24","01:00","2.9","","-1.9","","71","","","","30","","37","","24.1","","99.72","","","","","","Clear"
"-66.09","43.83","YARMOUTH A","8206500","2012-02-24 02:00","2012","02","24","02:00","2.7","","-2.0","","71","","","","30","","35","","24.1","","99.85","","","","","","Mostly Cloudy"
"-66.09","43.83","YARMOUTH A","8206500","2012-02-24 03:00","2012","02","24","03:00","2.5","","-1.9","","73","","","","30","","26","","24.1","","99.97","","","","","","Mainly Clear"
"-66.09","43.83","YARMOUTH A","8206500","2012-02-24 04:00","2012","02","24","04:00","2.1","","-1.9","","75","","","","31","","32","","24.1","","99.99","","","","","","Mainly Clear"
"-66.09","43.83","YARMOUTH A","8206500","2012-02-24 05:00","2012","02","24","05:00","2.1","","-1.6","","76","","","","30","","24","","24.1","","100.13","","","","","","Clear"
"-66.09","43.83","YARMOUTH A","8206500","2012-02-24 06:00","2012","02","24","06:00","1.8","","-2.0","","76","","","","32","","19","","24.1","","100.14","","","","","","Mainly Clear"
"-66.09","43.83","YARMOUTH A","8206500","2012-02-24 07:00","2012","02","24","07:00","1.9","","-2.1","","75","","","","33","","22","","24.1","","100.23","","","","","","Mostly Cloudy"
"-66.09","43.83","YARMOUTH A","8206500","2012-02-24 08:00","2012","02","24","08:00","1.7","","-2.0","","76","","","","33","","15","","24.1","","100.28","","","","","","Mostly Cloudy"
"-66.09","43.83","YARMOUTH A","8206500","2012-02-24 09:00","2012","02","24","09:00","2.2","","-2.1","","73","","","","33","","17","","24.1","","100.35","","","","","","Cloudy"
"-66.09","43.83","YARMOUTH A","8206500","2012-02-24 10:00","2012","02","24","10:00","3.1","","-1.7","","71","","","","34","","15","","24.1","","100.32","","","","","","Cloudy"
"-66.09","43.83","YARMOUTH A","8206500","2012-02-24 11:00","2012","02","24","11:00","3.3","","-2.0","","68","","","","33","","13","","24.1","","100.43","","","","","","Cloudy"
"-66.09","43.83","YARMOUTH A","8206500","2012-02-24 12:00","2012","02","24","12:00","3.4","","-1.7","","69","","","","31","","9","","24.1","","100.39","","","","","","Cloudy"
"-66.09","43.83","YARMOUTH A","8206500","2012-02-24 13:00","2012","02","24","13:00","4.1","","-2.1","","64","","","","28","","7","","24.1","","100.35","","","","","","Cloudy"
"-66.09","43.83","YARMOUTH A","8206500","2012-02-24 14:00","2012","02","24","14:00","4.0","","-1.9","","65","","","","","","0","","24.1","","100.29","","","","","","Cloudy"
"-66.09","43.83","YARMOUTH A","8206500","2012-02-24 15:00","2012","02","24","15:00","4.0","","-1.9","","65","","","","28","","7","","24.1","","100.27","","","","","","Cloudy"
"-66.09","43.83","YARMOUTH A","8206500","2012-02-24 16:00","2012","02","24","16:00","4.0","","-1.3","","68","","","","19","","7","","24.1","","100.21","","","","","","Cloudy"
"-66.09","43.83","YARMOUTH A","8206500","2012-02-24 17:00","2012","02","24","17:00","3.7","","-1.4","","69","","","","16","","7","","24.1","","100.11","","","","","","Cloudy"
"-66.09","43.83","YARMOUTH A","8206500","2012-02-24 18:00","2012","02","24","18:00","3.0","","-1.8","","71","","","","12","","9","","24.1","","100.07","","","","","","Cloudy"
"-66.09","43.83","YARMOUTH A","8206500","2012-02-24 19:00","2012","02","24","19:00","2.5","","-1.6","","74","","","","12","","7","","24.1","","100.01","","","","","","Cloudy"
"-66.09","43.83","YARMOUTH A","8206500","2012-02-24 20:00","2012","02","24","20:00","2.7","","-2.0","","71","","","","13","","15","","24.1","","99.92","","","","","","Cloudy"
"-66.09","43.83","YARMOUTH A","8206500","2012-02-24 21:00","2012","02","24","21:00","2.6","","-0.6","","79","","","","14","","20","","19.3","","99.74","","","","","","Rain"
"-66.09","43.83","YARMOUTH A","8206500","2012-02-24 22:00","2012","02","24","22:00","2.3","","-0.4","","82","","","","12","","19","","16.1","","99.67","","","","","","Rain"
"-66.09","43.83","YARMOUTH A","8206500","2012-02-24 23:00","2012","02","24","23:00","2.5","","-0.2","","82","","","","12","","24","","19.3","","99.36","","","","","","Cloudy"
"-66.09","43.83","YARMOUTH A","8206500","2012-02-25 00:00","2012","02","25","00:00","2.7","","0.6","","86","","","","12","","32","","12.9","","99.16","","","","","","Rain Showers"
"-66.09","43.83","YARMOUTH A","8206500","2012-02-25 01:00","2012","02","25","01:00","2.7","","2.0","","95","","","","12","","37","","8.0","","98.70","","","","","","Rain Showers,Fog"
"-66.09","43.83","YARMOUTH A","8206500","2012-02-25 02:00","2012","02","25","02:00","3.2","","2.5","","95","","","","12","","37","","6.4","","98.34","","","","","","Rain Showers,Fog"
"-66.09","43.83","YARMOUTH A","8206500","2012-02-25 03:00","2012","02","25","03:00","3.9","","3.3","","96","","","","13","","48","","8.0","","97.85","","","","","","Rain Showers,Fog"
"-66.09","43.83","YARMOUTH A","8206500","2012-02-25 04:00","2012","02","25","04:00","5.9","","5.7","","99","","","","15","","30","","4.8","","97.64","","","","","","Rain Showers,Fog"
"-66.09","43.83","YARMOUTH A","8206500","2012-02-25 05:00","2012","02","25","05:00","8.2","","7.9","","98","","","","21","","26","","4.8","","97.49","","","","","","Rain Showers,Fog"
"-66.09","43.83","YARMOUTH A","8206500","2012-02-25 06:00","2012","02","25","06:00","5.8","","4.5","","91","","","","24","","44","","8.0","","97.66","","","","","","Rain Showers,Fog"
"-66.09","43.83","YARMOUTH A","8206500","2012-02-25 07:00","2012","02","25","07:00","4.5","","2.0","","84","","","","25","","52","","16.1","","97.77","","","","","","Cloudy"
"-66.09","43.83","YARMOUTH A","8206500","2012-02-25 08:00","2012","02","25","08:00","4.1","","1.4","","83","","","","26","","43","","19.3","","97.92","","","","","","Mostly Cloudy"
"-66.09","43.83","YARMOUTH A","8206500","2012-02-25 09:00","2012","02","25","09:00","4.2","","-0.7","","70","","","","26","","50","","19.3","","98.02","","","","","","Mostly Cloudy"
"-66.09","43.83","YARMOUTH A","8206500","2012-02-25 10:00","2012","02","25","10:00","4.5","","-1.2","","66","","","","25","","48","","19.3","","98.05","","","","","","Mostly Cloudy"
"-66.09","43.83","YARMOUTH A","8206500","2012-02-25 11:00","2012","02","25","11:00","3.9","","-1.6","","67","","","","26","","56","","19.3","","98.09","","","","","","Ice Pellet Showers"
"-66.09","43.83","YARMOUTH A","8206500","2012-02-25 12:00","2012","02","25","12:00","4.7","","-2.0","","62","","","","26","","50","","19.3","","98.12","","","","","","Mostly Cloudy"
"-66.09","43.83","YARMOUTH A","8206500","2012-02-25 13:00","2012","02","25","13:00","4.2","","-2.1","","64","","","","26","","48","","16.1","","98.10","","","","","","Cloudy"
"-66.09","43.83","YARMOUTH A","8206500","2012-02-25 14:00","2012","02","25","14:00","4.0","","-2.4","","63","","","","26","","39","","14.5","","98.13","","","","","","Snow Pellets"
"-66.09","43.83","YARMOUTH A","8206500","2012-02-25 15:00","2012","02","25","15:00","2.4","","-1.7","","74","","","","26","","52","","9.7","","98.19","","","","","","Snow Pellets"
"-66.09","43.83","YARMOUTH A","8206500","2012-02-25 16:00","2012","02","25","16:00","3.5","","-2.6","","64","","","","26","","37","","16.1","","98.20","","","","","","Snow Pellets"
"-66.09","43.83","YARMOUTH A","8206500","2012-02-25 17:00","2012","02","25","17:00","3.4","","-3.5","","61","","","","26","","54","","19.3","","98.24","","","","","","Snow Pellets"
"-66.09","43.83","YARMOUTH A","8206500","2012-02-25 18:00","2012","02","25","18:00","2.9","","-2.8","","66","","","","28","","44","","14.5","","98.32","","","","","","Mostly Cloudy"
"-66.09","43.83","YARMOUTH A","8206500","2012-02-25 19:00","2012","02","25","19:00","2.6","","-2.3","","70","","","","28","","41","","14.5","","98.45","","","","","","Snow Showers"
"-66.09","43.83","YARMOUTH A","8206500","2012-02-25 20:00","2012","02","25","20:00","2.5","","-3.3","","66","","","","29","","44","","19.3","","98.55","","","","","","Cloudy"
"-66.09","43.83","YARMOUTH A","8206500","2012-02-25 21:00","2012","02","25","21:00","1.6","","-2.5","","74","","","","28","","39","","14.5","","98.69","","","","","","Snow Showers"
"-66.09","43.83","YARMOUTH A","8206500","2012-02-25 22:00","2012","02","25","22:00","2.2","","-3.6","","65","","","","29","","39","","19.3","","98.81","","","","","","Cloudy"
"-66.09","43.83","YARMOUTH A","8206500","2012-02-25 23:00","2012","02","25","23:00","1.9","","-4.0","","65","","","","29","","39","","14.5","","98.94","","","","","","Snow Showers"
"-66.09","43.83","YARMOUTH A","8206500","2012-02-26 00:00","2012","02","26","00:00","1.7","","-4.0","","66","","","","29","","43","","19.3","","99.03","","","","","","Cloudy"
"-66.09","43.83","YARMOUTH A","8206500","2012-02-26 01:00","2012","02","26","01:00"
"-66.09","43.83","YARMOUTH A","8206500","2012-02-26 02:00","2012","02","26","02:00","1.3","","-4.0","","68","","","","29","","35","","24.1","","99.26","","","","","","Mostly Cloudy"
"-66.09","43.83","YARMOUTH A","8206500","2012-02-26 03:00","2012","02","26","03:00","1.1","","-3.9","","69","","","","29","","43","","24.1","","99.38","","","","","","Mostly Cloudy"
"-66.09","43.83","YARMOUTH A","8206500","2012-02-26 04:00","2012","02","26","04:00","1.0","","-4.5","","67","","","","30","","43","","24.1","","99.52","","","","","","Cloudy"
"-66.09","43.83","YARMOUTH A","8206500","2012-02-26 05:00","2012","02","26","05:00","0.7","","-5.3","","64","","","","30","","41","","24.1","","99.69","","","","","","Cloudy"
"-66.09","43.83","YARMOUTH A","8206500","2012-02-26 06:00","2012","02","26","06:00","0.4","","-5.0","","67","","","","30","","39","","24.1","","99.85","","","","","","Cloudy"
"-66.09","43.83","YARMOUTH A","8206500","2012-02-26 07:00","2012","02","26","07:00","-0.2","","-6.1","","64","","","","30","","41","","24.1","","100.05","","","","-8","","Cloudy"
"-66.09","43.83","YARMOUTH A","8206500","2012-02-26 08:00","2012","02","26","08:00","-0.7","","-6.7","","64","","","","30","","37","","24.1","","100.25","","","","-8","","Cloudy"
"-66.09","43.83","YARMOUTH A","8206500","2012-02-26 09:00","2012","02","26","09:00","-1.4","","-7.5","","63","","","","31","","41","","24.1","","100.42","","","","-9","","Mostly Cloudy"
"-66.09","43.83","YARMOUTH A","8206500","2012-02-26 10:00","2012","02","26","10:00","-1.8","","-7.9","","63","","","","32","","39","","24.1","","100.54","","","","-10","","Cloudy"
"-66.09","43.83","YARMOUTH A","8206500","2012-02-26 11:00","2012","02","26","11:00","-2.0","","-8.4","","62","","","","32","","33","","24.1","","100.68","","","","-9","","Cloudy"
"-66.09","43.83","YARMOUTH A","8206500","2012-02-26 12:00","2012","02","26","12:00","-2.1","","-8.3","","62","","","","31","","33","","24.1","","100.80","","","","-10","","Cloudy"
"-66.09","43.83","YARMOUTH A","8206500","2012-02-26 13:00","2012","02","26","13:00","-2.1","","-8.6","","61","","","","33","","35","","24.1","","100.85","","","","-10","","Cloudy"
"-66.09","43.83","YARMOUTH A","8206500","2012-02-26 14:00","2012","02","26","14:00","-1.8","","-8.2","","62","","","","31","","35","","24.1","","100.91","","","","-9","","Cloudy"
"-66.09","43.83","YARMOUTH A","8206500","2012-02-26 15:00","2012","02","26","15:00","-1.3","","-9.0","","56","","","","31","","32","","24.1","","101.04","","","","-8","","Mostly Cloudy"
"-66.09","43.83","YARMOUTH A","8206500","2012-02-26 16:00","2012","02","26","16:00","-0.1","","-8.3","","54","","","","32","","33","","24.1","","101.13","","","","-7","","Mostly Cloudy"
"-66.09","43.83","YARMOUTH A","8206500","2012-02-26 17:00","2012","02","26","17:00","-0.5","","-9.0","","53","","","","31","","32","","24.1","","101.27","","","","-7","","Mainly Clear"
"-66.09","43.83","YARMOUTH A","8206500","2012-02-26 18:00","2012","02","26","18:00","-1.1","","-10.7","","48","","","","32","","28","","24.1","","101.44","","","","-8","","Clear"
"-66.09","43.83","YARMOUTH A","8206500","2012-02-26 19:00","2012","02","26","19:00","-1.0","","-10.4","","49","","","","32","","33","","24.1","","101.57","","","","-8","","Clear"
"-66.09","43.83","YARMOUTH A","8206500","2012-02-26 20:00","2012","02","26","20:00","-1.0","","-10.3","","49","","","","32","","33","","24.1","","101.72","","","","-8","","Clear"
"-66.09","43.83","YARMOUTH A","8206500","2012-02-26 21:00","2012","02","26","21:00","-1.4","","-10.5","","50","","","","33","","37","","24.1","","101.80","","","","-9","","Clear"
"-66.09","43.83","YARMOUTH A","8206500","2012-02-26 22:00","2012","02","26","22:00","-2.0","","-10.8","","51","","","","34","","39","","24.1","","101.89","","","","-10","","Clear"
"-66.09","43.83","YARMOUTH A","8206500","2012-02-26 23:00","2012","02","26","23:00","-2.5","","-10.7","","53","","","","33","","35","","24.1","","101.98","","","","-10","","Mainly Clear"
"-66.09","43.83","YARMOUTH A","8206500","2012-02-27 00:00","2012","02","27","00:00","-3.0","","-10.4","","57","","","","33","","35","","24.1","","102.05","","","","-11","","Mainly Clear"
"-66.09","43.83","YARMOUTH A","8206500","2012-02-27 01:00","2012","02","27","01:00","-3.9","","-10.6","","60","","","","33","","26","","24.1","","102.12","","","","-11","","Mostly Cloudy"
"-66.09","43.83","YARMOUTH A","8206500","2012-02-27 02:00","2012","02","27","02:00","-4.3","","-11.3","","58","","","","33","","30","","24.1","","102.20","","","","-12","","Mainly Clear"
"-66.09","43.83","YARMOUTH A","8206500","2012-02-27 03:00","2012","02","27","03:00","-5.0","","-11.4","","61","","","","34","","30","","24.1","","102.25","","","","-13","","Mostly Cloudy"
"-66.09","43.83","YARMOUTH A","8206500","2012-02-27 04:00","2012","02","27","04:00","-5.3","","-11.4","","62","","","","32","","26","","24.1","","102.33","","","","-13","","Mainly Clear"
"-66.09","43.83","YARMOUTH A","8206500","2012-02-27 05:00","2012","02","27","05:00","-5.7","","-11.9","","62","","","","32","","26","","24.1","","102.42","","","","-13","","Mainly Clear"
"-66.09","43.83","YARMOUTH A","8206500","2012-02-27 06:00","2012","02","27","06:00","-6.1","","-12.1","","62","","","","33","","26","","24.1","","102.44","","","","-14","","Clear"
"-66.09","43.83","YARMOUTH A","8206500","2012-02-27 07:00","2012","02","27","07:00","-6.0","","-12.6","","60","","","","32","","17","","24.1","","102.50","","","","-12","","Mainly Clear"
"-66.09","43.83","YARMOUTH A","8206500","2012-02-27 08:00","2012","02","27","08:00","-5.3","","-11.5","","62","","","","32","","22","","24.1","","102.52","","","","-12","","Mainly Clear"
"-66.09","43.83","YARMOUTH A","8206500","2012-02-27 09:00","2012","02","27","09:00","-4.5","","-11.8","","57","","","","34","","28","","24.1","","102.55","","","","-12","","Mainly Clear"
"-66.09","43.83","YARMOUTH A","8206500","2012-02-27 10:00","2012","02","27","10:00","-3.7","","-10.8","","58","","","","36","","24","","24.1","","102.56","","","","-11","","Mostly Cloudy"
"-66.09","43.83","YARMOUTH A","8206500","2012-02-27 11:00","2012","02","27","11:00","-3.6","","-10.5","","59","","","","33","","22","","24.1","","102.55","","","","-10","","Cloudy"
"-66.09","43.83","YARMOUTH A","8206500","2012-02-27 12:00","2012","02","27","12:00","-2.3","","-10.1","","55","","","","31","","20","","24.1","","102.54","","","","-8","","Cloudy"
"-66.09","43.83","YARMOUTH A","8206500","2012-02-27 13:00","2012","02","27","13:00","-2.9","","-10.4","","56","","","","30","","17","","24.1","","102.39","","","","-8","","Cloudy"
"-66.09","43.83","YARMOUTH A","8206500","2012-02-27 14:00","2012","02","27","14:00","-2.8","","-9.9","","58","","","","28","","15","","24.1","","102.33","","","","-8","","Cloudy"
"-66.09","43.83","YARMOUTH A","8206500","2012-02-27 15:00","2012","02","27","15:00","-2.9","","-9.8","","59","","","","28","","15","","24.1","","102.28","","","","-8","","Cloudy"
"-66.09","43.83","YARMOUTH A","8206500","2012-02-27 16:00","2012","02","27","16:00","-2.2","","-9.5","","57","","","","26","","11","","24.1","","102.19","","","","-6","","Cloudy"
"-66.09","43.83","YARMOUTH A","8206500","2012-02-27 17:00","2012","02","27","17:00","-2.1","","-8.4","","62","","","","18","","6","","24.1","","102.13","","","","-4","","Cloudy"
"-66.09","43.83","YARMOUTH A","8206500","2012-02-27 18:00","2012","02","27","18:00","-1.8","","-7.4","","66","","","","15","","13","","24.1","","102.01","","","","-6","","Cloudy"
"-66.09","43.83","YARMOUTH A","8206500","2012-02-27 19:00","2012","02","27","19:00","-1.2","","-6.2","","69","","","","14","","15","","24.1","","101.93","","","","-6","","Cloudy"
"-66.09","43.83","YARMOUTH A","8206500","2012-02-27 20:00","2012","02","27","20:00","-0.7","","-5.1","","72","","","","14","","15","","24.1","","101.80","","","","-5","","Cloudy"
"-66.09","43.83","YARMOUTH A","8206500","2012-02-27 21:00","2012","02","27","21:00","-0.6","","-4.4","","75","","","","13","","15","","24.1","","101.67","","","","-5","","Cloudy"
"-66.09","43.83","YARMOUTH A","8206500","2012-02-27 22:00","2012","02","27","22:00","0.4","","-1.3","","88","","","","15","","13","","4.0","","101.58","","","","","","Snow"
"-66.09","43.83","YARMOUTH A","8206500","2012-02-27 23:00","2012","02","27","23:00","1.9","","0.3","","89","","","","17","","11","","4.8","","101.45","","","","","","Rain"
"-66.09","43.83","YARMOUTH A","8206500","2012-02-28 00:00","2012","02","28","00:00","2.2","","0.6","","89","","","","17","","13","","9.7","","101.33","","","","","","Rain"
"-66.09","43.83","YARMOUTH A","8206500","2012-02-28 01:00","2012","02","28","01:00","3.2","","1.4","","88","","","","19","","22","","14.5","","101.17","","","","","","Rain"
"-66.09","43.83","YARMOUTH A","8206500","2012-02-28 02:00","2012","02","28","02:00","3.3","","2.0","","91","","","","20","","19","","14.5","","101.04","","","","","","Rain"
"-66.09","43.83","YARMOUTH A","8206500","2012-02-28 03:00","2012","02","28","03:00","2.4","","1.5","","94","","","","20","","7","","19.3","","100.92","","","","","","Mainly Clear"
"-66.09","43.83","YARMOUTH A","8206500","2012-02-28 04:00","2012","02","28","04:00","3.5","","2.3","","92","","","","25","","13","","19.3","","100.86","","","","","","Cloudy"
"-66.09","43.83","YARMOUTH A","8206500","2012-02-28 05:00","2012","02","28","05:00","4.3","","2.9","","91","","","","27","","17","","19.3","","100.83","","","","","","Cloudy"
"-66.09","43.83","YARMOUTH A","8206500","2012-02-28 06:00","2012","02","28","06:00","4.4","","2.2","","86","","","","31","","17","","19.3","","100.79","","","","","","Cloudy"
"-66.09","43.83","YARMOUTH A","8206500","2012-02-28 07:00","2012","02","28","07:00","3.6","","1.1","","84","","","","31","","28","","14.5","","100.85","","","","","","Rain Showers"
"-66.09","43.83","YARMOUTH A","8206500","2012-02-28 08:00","2012","02","28","08:00","1.6","","-1.8","","78","","","","32","","33","","12.9","","100.92","","","","","","Snow Showers"
"-66.09","43.83","YARMOUTH A","8206500","2012-02-28 09:00","2012","02","28","09:00","0.6","","-2.6","","79","","","","33","","35","","19.3","","101.00","","","","","","Cloudy"
"-66.09","43.83","YARMOUTH A","8206500","2012-02-28 10:00","2012","02","28","10:00","-0.9","","-4.0","","79","","","","32","","32","","24.1","","101.08","","","","-8","","Cloudy"
"-66.09","43.83","YARMOUTH A","8206500","2012-02-28 11:00","2012","02","28","11:00","-1.9","","-4.9","","80","","","","32","","35","","24.1","","101.16","","","","-9","","Cloudy"
"-66.09","43.83","YARMOUTH A","8206500","2012-02-28 12:00","2012","02","28","12:00","-2.4","","-5.9","","77","","","","32","","35","","19.3","","101.25","","","","-10","","Cloudy"
"-66.09","43.83","YARMOUTH A","8206500","2012-02-28 13:00","2012","02","28","13:00","-3.2","","-6.5","","78","","","","33","","43","","19.3","","101.30","","","","-12","","Cloudy"
"-66.09","43.83","YARMOUTH A","8206500","2012-02-28 14:00","2012","02","28","14:00","-3.1","","-6.7","","76","","","","34","","39","","19.3","","101.34","","","","-11","","Snow Showers"
"-66.09","43.83","YARMOUTH A","8206500","2012-02-28 15:00","2012","02","28","15:00","-2.7","","-7.2","","71","","","","35","","41","","19.3","","101.45","","","","-11","","Cloudy"
"-66.09","43.83","YARMOUTH A","8206500","2012-02-28 16:00","2012","02","28","16:00","-2.5","","-7.2","","70","","","","35","","35","","19.3","","101.56","","","","-10","","Cloudy"
"-66.09","43.83","YARMOUTH A","8206500","2012-02-28 17:00","2012","02","28","17:00","-2.6","","-8.1","","66","","","","36","","37","","16.1","","101.71","","","","-11","","Snow Showers"
"-66.09","43.83","YARMOUTH A","8206500","2012-02-28 18:00","2012","02","28","18:00","-3.1","","-8.4","","67","","","","1","","28","","19.3","","101.76","","","","-10","","Snow Showers"
"-66.09","43.83","YARMOUTH A","8206500","2012-02-28 19:00","2012","02","28","19:00","-3.3","","-8.1","","69","","","","36","","20","","19.3","","101.94","","","","-9","","Snow Showers"
"-66.09","43.83","YARMOUTH A","8206500","2012-02-28 20:00","2012","02","28","20:00","-3.5","","-8.4","","69","","","","2","","20","","9.7","","102.02","","","","-10","","Snow Showers"
"-66.09","43.83","YARMOUTH A","8206500","2012-02-28 21:00","2012","02","28","21:00","-3.7","","-8.3","","70","","","","1","","20","","14.5","","102.10","","","","-10","","Snow Showers"
"-66.09","43.83","YARMOUTH A","8206500","2012-02-28 22:00","2012","02","28","22:00","-3.8","","-8.1","","72","","","","1","","20","","14.5","","102.11","","","","-10","","Snow Showers"
"-66.09","43.83","YARMOUTH A","8206500","2012-02-28 23:00","2012","02","28","23:00","-4.0","","-8.0","","74","","","","3","","17","","14.5","","102.16","","","","-10","","Snow Showers"
"-66.09","43.83","YARMOUTH A","8206500","2012-02-29 00:00","2012","02","29","00:00","-4.4","","-7.5","","79","","","","4","","13","","14.5","","102.18","","","","-9","","Snow Showers"
"-66.09","43.83","YARMOUTH A","8206500","2012-02-29 01:00","2012","02","29","01:00","-4.5","","-7.9","","77","","","","5","","9","","19.3","","102.20","","","","-8","","Snow Showers"
"-66.09","43.83","YARMOUTH A","8206500","2012-02-29 02:00","2012","02","29","02:00","-4.6","","-8.3","","75","","","","6","","7","","19.3","","102.21","","","","-8","","Snow Showers"
"-66.09","43.83","YARMOUTH A","8206500","2012-02-29 03:00","2012","02","29","03:00","-4.7","","-8.4","","75","","","","15","","4","","19.3","","102.25","","","","-6","","Cloudy"
"-66.09","43.83","YARMOUTH A","8206500","2012-02-29 04:00","2012","02","29","04:00","-4.6","","-8.1","","76","","","","12","","4","","19.3","","102.23","","","","-6","","Cloudy"
"-66.09","43.83","YARMOUTH A","8206500","2012-02-29 05:00","2012","02","29","05:00","-4.6","","-8.0","","77","","","","16","","6","","19.3","","102.24","","","","-7","","Cloudy"
"-66.09","43.83","YARMOUTH A","8206500","2012-02-29 06:00","2012","02","29","06:00","-4.6","","-8.3","","75","","","","14","","6","","19.3","","102.24","","","","-7","","Snow Showers"
"-66.09","43.83","YARMOUTH A","8206500","2012-02-29 07:00","2012","02","29","07:00","-4.3","","-8.0","","75","","","","16","","6","","24.1","","102.24","","","","-7","","Cloudy"
"-66.09","43.83","YARMOUTH A","8206500","2012-02-29 08:00","2012","02","29","08:00","-4.3","","-7.7","","77","","","","13","","4","","24.1","","102.22","","","","-6","","Cloudy"
"-66.09","43.83","YARMOUTH A","8206500","2012-02-29 09:00","2012","02","29","09:00","-3.0","","-7.0","","74","","","","18","","6","","24.1","","102.23","","","","-5","","Mostly Cloudy"
"-66.09","43.83","YARMOUTH A","8206500","2012-02-29 10:00","2012","02","29","10:00","-2.0","","-8.8","","60","","","","30","","19","","24.1","","102.20","","","","-8","","Mostly Cloudy"
"-66.09","43.83","YARMOUTH A","8206500","2012-02-29 11:00","2012","02","29","11:00","-1.1","","-8.9","","55","","","","27","","15","","24.1","","102.13","","","","-6","","Mostly Cloudy"
"-66.09","43.83","YARMOUTH A","8206500","2012-02-29 12:00","2012","02","29","12:00","-0.7","","-8.7","","55","","","","28","","15","","24.1","","102.14","","","","-5","","Mostly Cloudy"
"-66.09","43.83","YARMOUTH A","8206500","2012-02-29 13:00","2012","02","29","13:00","-0.2","","-7.6","","57","","","","28","","19","","24.1","","102.05","","","","-5","","Mostly Cloudy"
"-66.09","43.83","YARMOUTH A","8206500","2012-02-29 14:00","2012","02","29","14:00","0.6","","-7.0","","57","","","","28","","19","","24.1","","101.98","","","","","","Mostly Cloudy"
"-66.09","43.83","YARMOUTH A","8206500","2012-02-29 15:00","2012","02","29","15:00","1.0","","-7.4","","53","","","","28","","20","","24.1","","101.90","","","","","","Mostly Cloudy"
"-66.09","43.83","YARMOUTH A","8206500","2012-02-29 16:00","2012","02","29","16:00","-0.3","","-9.9","","48","","","","28","","22","","24.1","","101.87","","","","-6","","Mostly Cloudy"
"-66.09","43.83","YARMOUTH A","8206500","2012-02-29 17:00","2012","02","29","17:00","-0.8","","-9.0","","54","","","","30","","19","","24.1","","101.84","","","","-6","","Cloudy"
"-66.09","43.83","YARMOUTH A","8206500","2012-02-29 18:00","2012","02","29","18:00","-1.4","","-8.2","","60","","","","31","","13","","24.1","","101.88","","","","-6","","Cloudy"
"-66.09","43.83","YARMOUTH A","8206500","2012-02-29 19:00","2012","02","29","19:00","-3.0","","-8.7","","65","","","","36","","11","","24.1","","101.91","","","","-7","","Cloudy"
"-66.09","43.83","YARMOUTH A","8206500","2012-02-29 20:00","2012","02","29","20:00","-2.4","","-9.0","","60","","","","6","","6","","24.1","","101.87","","","","-5","","Cloudy"
"-66.09","43.83","YARMOUTH A","8206500","2012-02-29 21:00","2012","02","29","21:00","-3.1","","-9.4","","62","","","","7","","9","","24.1","","101.84","","","","-7","","Cloudy"
"-66.09","43.83","YARMOUTH A","8206500","2012-02-29 22:00","2012","02","29","22:00","-3.5","","-10.0","","61","","","","7","","9","","24.1","","101.77","","","","-7","","Cloudy"
"-66.09","43.83","YARMOUTH A","8206500","2012-02-29 23:00","2012","02","29","23:00","-4.5","","-9.6","","67","","","","8","","7","","24.1","","101.78","","","","-8","","Cloudy"
