"Longitude (x)","Latitude (y)","Station Name","Climate ID","Date/Time (LST)","Year","Month","Day","Time (LST)","Temp (°C)","Temp Flag","Dew Point Temp (°C)","Dew Point Temp Flag","Rel Hum (%)","Rel Hum Flag","Precip. Amount (mm)","Precip. Amount Flag","Wind Dir (10s deg)","Wind Dir Flag","Wind Spd (km/h)","Wind Spd Flag","Visibility (km)","Visibility Flag","Stn Press (kPa)","Stn Press Flag","Hmdx","Hmdx Flag","Wind Chill","Wind Chill Flag","Weather"
"-59.19","55.08","MAKKOVIK A","8502588","2018-03-01 00:00","2018","03","01","00:00"
"-59.19","55.08","MAKKOVIK A","8502588","2018-03-01 01:00","2018","03","01","01:00"
"-59.19","55.08","MAKKOVIK A","8502588","2018-03-01 02:00","2018","03","01","02:00"
"-59.19","55.08","MAKKOVIK A","8502588","2018-03-01 03:00","2018","03","01","03:00"
"-59.19","55.08","MAKKOVIK A","8502588","2018-03-01 04:00","2018","03","01","04:00"
"-59.19","55.08","MAKKOVIK A","8502588","2018-03-01 05:00","2018","03","01","05:00"
"-59.19","55.08","MAKKOVIK A","8502588","2018-03-01 06:00","2018","03","01","06:00","-4.7","","-5.2","","96","","","","29","","18","","1.2","","101.81","","","","-11","","Freezing Drizzle"
"-59.19","55.08","MAKKOVIK A","8502588","2018-03-01 07:00","2018","03","01","07:00","-5.2","","-5.8","","96","","","","28","","17","","1.0","","101.84","","","","-11","","Snow"
"-59.19","55.08","MAKKOVIK A","8502588","2018-03-01 08:00","2018","03","01","08:00","-5.4","","-6.0","","95","","","","26","","9","","2.4","","101.83","","","","-9","","Snow"
"-59.19","55.08","MAKKOVIK A","8502588","2018-03-01 09:00","2018","03","01","09:00","-5.1","","-5.7","","95","","","","28","","13","","1.0","","101.82","","","","-10","","Snow"
"-59.19","55.08","MAKKOVIK A","8502588","2018-03-01 10:00","2018","03","01","10:00","-4.6","","-5.2","","95","","","","25","","15","","1.0","","101.81","","","","-10","","Snow"
"-59.19","55.08","MAKKOVIK A","8502588","2018-03-01 11:00","2018","03","01","11:00","-4.3","","-4.9","","95","","","","24","","16","","1.0","","101.82","","","","-10","","Snow"
"-59.19","55.08","MAKKOVIK A","8502588","2018-03-01 12:00","2018","03","01","12:00","-3.9","","-4.5","","95","","","","25","","21","","1.0","","101.77","","","","-10","","Snow"
"-59.19","55.08","MAKKOVIK A","8502588","2018-03-01 13:00","2018","03","01","13:00","-3.8","","-4.4","","95","","","","26","","16","","1.0","","101.77","","","","-9","","Snow"
"-59.19","55.08","MAKKOVIK A","8502588","2018-03-01 14:00","2018","03","01","14:00","-3.6","","-4.2","","95","","","","25","","16","","1.0","","101.75","","","","-9","","Snow"
"-59.19","55.08","MAKKOVIK A","8502588","2018-03-01 15:00","2018","03","01","15:00","-3.4","","-4.0","","96","","","","25","","17","","1.0","","101.79","","","","-9","","Snow"
"-59.19","55.08","MAKKOVIK A","8502588","2018-03-01 16:00","2018","03","01","16:00","-3.4","","-4.0","","96","","","","25","","17","","1.0","","101.84","","","","-9","","Snow"
"-59.19","55.08","MAKKOVIK A","8502588","2018-03-01 17:00","2018","03","01","17:00","-3.6","","-4.3","","95","","","","27","","21","","1.6","","101.89","","","","-10","","Snow"
"-59.19","55.08","MAKKOVIK A","8502588","2018-03-01 18:00","2018","03","01","18:00"
"-59.19","55.08","MAKKOVIK A","8502588","2018-03-01 19:00","2018","03","01","19:00"
"-59.19","55.08","MAKKOVIK A","8502588","2018-03-01 20:00","2018","03","01","20:00"
"-59.19","55.08","MAKKOVIK A","8502588","2018-03-01 21:00","2018","03","01","21:00"
"-59.19","55.08","MAKKOVIK A","8502588","2018-03-01 22:00","2018","03","01","22:00"
"-59.19","55.08","MAKKOVIK A","8502588","2018-03-01 23:00","2018","03","01","23:00"
"-59.19","55.08","MAKKOVIK A","8502588","2018-03-02 00:00","2018","03","02","00:00"
"-59.19","55.08","MAKKOVIK A","8502588","2018-03-02 01:00","2018","03","02","01:00"
"-59.19","55.08","MAKKOVIK A","8502588","2018-03-02 02:00","2018","03","02","02:00"
"-59.19","55.08","MAKKOVIK A","8502588","2018-03-02 03:00","2018","03","02","03:00"
"-59.19","55.08","MAKKOVIK A","8502588","2018-03-02 04:00","2018","03","02","04:00"
"-59.19","55.08","MAKKOVIK A","8502588","2018-03-02 05:00","2018","03","02","05:00"
"-59.19","55.08","MAKKOVIK A","8502588","2018-03-02 06:00","2018","03","02","06:00","0.0","","-0.1","","100","","","","11","","33","","2.4","","102.07","","","","-7","","Drizzle"
"-59.19","55.08","MAKKOVIK A","8502588","2018-03-02 07:00","2018","03","02","07:00","0.1","","0.1","","100","","","","11","","30","","2.0","","102.10","","","","","","Drizzle"
"-59.19","55.08","MAKKOVIK A","8502588","2018-03-02 08:00","2018","03","02","08:00","0.0","","0.0","","100","","","","11","","32","","6.4","","102.13","","","","-7","","Drizzle"
"-59.19","55.08","MAKKOVIK A","8502588","2018-03-02 09:00","2018","03","02","09:00","0.3","","0.2","","99","","","","11","","30","","6.4","","102.18","","","","","","Drizzle"
"-59.19","55.08","MAKKOVIK A","8502588","2018-03-02 10:00","2018","03","02","10:00","0.7","","-0.6","","91","","","","11","","34","","24.1","","102.22","","","","","","NA"
"-59.19","55.08","MAKKOVIK A","8502588","2018-03-02 11:00","2018","03","02","11:00","1.0","","-0.5","","90","","","","12","","30","","24.1","","102.23","","","","","","Mainly Clear"
"-59.19","55.08","MAKKOVIK A","8502588","2018-03-02 12:00","2018","03","02","12:00","1.6","","-0.6","","86","","","","11","","35","","24.1","","102.19","","","","","","NA"
"-59.19","55.08","MAKKOVIK A","8502588","2018-03-02 13:00","2018","03","02","13:00","2.0","","-1.2","","79","","","","11","","24","","24.1","","102.22","","","","","","NA"
"-59.19","55.08","MAKKOVIK A","8502588","2018-03-02 14:00","2018","03","02","14:00","1.5","","-1.3","","81","","","","10","","19","","24.1","","102.24","","","","","","Mainly Clear"
"-59.19","55.08","MAKKOVIK A","8502588","2018-03-02 15:00","2018","03","02","15:00","","M","","M","","M","","","","","","M","24.1","","","M","","","","","NA"
"-59.19","55.08","MAKKOVIK A","8502588","2018-03-02 16:00","2018","03","02","16:00","0.6","","-1.4","","86","","","","","","","M","24.1","","102.32","","","","","","NA"
"-59.19","55.08","MAKKOVIK A","8502588","2018-03-02 17:00","2018","03","02","17:00","0.0","","-0.7","","95","","","","5","","18","","24.1","","","M","","","-5","","Mostly Cloudy"
"-59.19","55.08","MAKKOVIK A","8502588","2018-03-02 18:00","2018","03","02","18:00"
"-59.19","55.08","MAKKOVIK A","8502588","2018-03-02 19:00","2018","03","02","19:00"
"-59.19","55.08","MAKKOVIK A","8502588","2018-03-02 20:00","2018","03","02","20:00"
"-59.19","55.08","MAKKOVIK A","8502588","2018-03-02 21:00","2018","03","02","21:00"
"-59.19","55.08","MAKKOVIK A","8502588","2018-03-02 22:00","2018","03","02","22:00"
"-59.19","55.08","MAKKOVIK A","8502588","2018-03-02 23:00","2018","03","02","23:00"
"-59.19","55.08","MAKKOVIK A","8502588","2018-03-03 00:00","2018","03","03","00:00"
"-59.19","55.08","MAKKOVIK A","8502588","2018-03-03 01:00","2018","03","03","01:00"
"-59.19","55.08","MAKKOVIK A","8502588","2018-03-03 02:00","2018","03","03","02:00"
"-59.19","55.08","MAKKOVIK A","8502588","2018-03-03 03:00","2018","03","03","03:00"
"-59.19","55.08","MAKKOVIK A","8502588","2018-03-03 04:00","2018","03","03","04:00"
"-59.19","55.08","MAKKOVIK A","8502588","2018-03-03 05:00","2018","03","03","05:00"
"-59.19","55.08","MAKKOVIK A","8502588","2018-03-03 06:00","2018","03","03","06:00","-1.6","","-1.6","","100","","","","36","","9","","1.0","","102.73","","","","-5","","Snow"
"-59.19","55.08","MAKKOVIK A","8502588","2018-03-03 07:00","2018","03","03","07:00","","M","","M","","M","","","36","","9","","1.6","","","M","","","","","Snow"
"-59.19","55.08","MAKKOVIK A","8502588","2018-03-03 08:00","2018","03","03","08:00","-1.8","","-1.8","","100","","","","","","0","","0.8","","102.80","","","","","","Snow,Freezing Fog"
"-59.19","55.08","MAKKOVIK A","8502588","2018-03-03 09:00","2018","03","03","09:00","-1.6","","","M","","M","","","","","0","","0.8","","102.80","","","","","","Freezing Fog"
"-59.19","55.08","MAKKOVIK A","8502588","2018-03-03 10:00","2018","03","03","10:00","-1.2","","","M","","M","","","","","0","","0.8","","102.83","","","","","","Freezing Fog"
"-59.19","55.08","MAKKOVIK A","8502588","2018-03-03 11:00","2018","03","03","11:00","-0.8","","","M","","M","","","","","0","","0.8","","102.81","","","","","","Freezing Fog"
"-59.19","55.08","MAKKOVIK A","8502588","2018-03-03 12:00","2018","03","03","12:00","-0.2","","","M","","M","","","36","","9","","11.3","","102.79","","","","-3","","Snow"
"-59.19","55.08","MAKKOVIK A","8502588","2018-03-03 13:00","2018","03","03","13:00","-0.2","","-0.9","","95","","","","5","","9","","24.1","","102.76","","","","-3","","NA"
"-59.19","55.08","MAKKOVIK A","8502588","2018-03-03 14:00","2018","03","03","14:00","-0.4","","-1.4","","93","","","","5","","9","","24.1","","102.75","","","","-4","","Mostly Cloudy"
"-59.19","55.08","MAKKOVIK A","8502588","2018-03-03 15:00","2018","03","03","15:00","-0.7","","-1.4","","95","","","","5","","9","","24.1","","102.75","","","","-4","","NA"
"-59.19","55.08","MAKKOVIK A","8502588","2018-03-03 16:00","2018","03","03","16:00","-0.7","","","M","","M","","","5","","9","","24.1","","102.75","","","","-4","","NA"
"-59.19","55.08","MAKKOVIK A","8502588","2018-03-03 17:00","2018","03","03","17:00","-1.3","","-1.4","","99","","","","5","","9","","0.8","","102.73","","","","-5","","Freezing Fog"
"-59.19","55.08","MAKKOVIK A","8502588","2018-03-03 18:00","2018","03","03","18:00"
"-59.19","55.08","MAKKOVIK A","8502588","2018-03-03 19:00","2018","03","03","19:00"
"-59.19","55.08","MAKKOVIK A","8502588","2018-03-03 20:00","2018","03","03","20:00"
"-59.19","55.08","MAKKOVIK A","8502588","2018-03-03 21:00","2018","03","03","21:00"
"-59.19","55.08","MAKKOVIK A","8502588","2018-03-03 22:00","2018","03","03","22:00"
"-59.19","55.08","MAKKOVIK A","8502588","2018-03-03 23:00","2018","03","03","23:00"
"-59.19","55.08","MAKKOVIK A","8502588","2018-03-04 00:00","2018","03","04","00:00"
"-59.19","55.08","MAKKOVIK A","8502588","2018-03-04 01:00","2018","03","04","01:00"
"-59.19","55.08","MAKKOVIK A","8502588","2018-03-04 02:00","2018","03","04","02:00"
"-59.19","55.08","MAKKOVIK A","8502588","2018-03-04 03:00","2018","03","04","03:00"
"-59.19","55.08","MAKKOVIK A","8502588","2018-03-04 04:00","2018","03","04","04:00"
"-59.19","55.08","MAKKOVIK A","8502588","2018-03-04 05:00","2018","03","04","05:00"
"-59.19","55.08","MAKKOVIK A","8502588","2018-03-04 06:00","2018","03","04","06:00","-3.8","","","M","","M","","","","","0","","24.1","","102.66","","","","","","NA"
"-59.19","55.08","MAKKOVIK A","8502588","2018-03-04 07:00","2018","03","04","07:00","-4.0","","-4.4","","97","","","","36","","9","","24.1","","102.66","","","","-8","","NA"
"-59.19","55.08","MAKKOVIK A","8502588","2018-03-04 08:00","2018","03","04","08:00","-3.5","","-3.9","","97","","","","","","0","","24.1","","102.68","","","","","","Mostly Cloudy"
"-59.19","55.08","MAKKOVIK A","8502588","2018-03-04 09:00","2018","03","04","09:00","-3.6","","-4.0","","97","","","","","","0","","24.1","","102.72","","","","","","NA"
"-59.19","55.08","MAKKOVIK A","8502588","2018-03-04 10:00","2018","03","04","10:00","-3.0","","-3.3","","98","","","","","","0","","24.1","","102.74","","","","","","NA"
"-59.19","55.08","MAKKOVIK A","8502588","2018-03-04 11:00","2018","03","04","11:00","-2.4","","-2.7","","98","","","","","","0","","4.8","","102.73","","","","","","Snow"
"-59.19","55.08","MAKKOVIK A","8502588","2018-03-04 12:00","2018","03","04","12:00","-2.2","","-2.5","","98","","","","","","0","","6.4","","102.71","","","","","","Snow"
"-59.19","55.08","MAKKOVIK A","8502588","2018-03-04 13:00","2018","03","04","13:00","-2.1","","-3.2","","92","","","","","","0","","8.1","","102.68","","","","","","Snow Showers"
"-59.19","55.08","MAKKOVIK A","8502588","2018-03-04 14:00","2018","03","04","14:00","-2.2","","-3.6","","90","","","","","","0","","24.1","","102.67","","","","","","Mostly Cloudy"
"-59.19","55.08","MAKKOVIK A","8502588","2018-03-04 15:00","2018","03","04","15:00","-2.6","","-2.9","","98","","","","36","","9","","24.1","","102.65","","","","-6","","NA"
"-59.19","55.08","MAKKOVIK A","8502588","2018-03-04 16:00","2018","03","04","16:00","-2.6","","-2.9","","98","","","","36","","9","","6.4","","102.65","","","","-6","","Snow Showers"
"-59.19","55.08","MAKKOVIK A","8502588","2018-03-04 17:00","2018","03","04","17:00","-2.9","","-3.2","","98","","","","36","","9","","4.0","","102.68","","","","-6","","Snow Showers"
"-59.19","55.08","MAKKOVIK A","8502588","2018-03-04 18:00","2018","03","04","18:00"
"-59.19","55.08","MAKKOVIK A","8502588","2018-03-04 19:00","2018","03","04","19:00"
"-59.19","55.08","MAKKOVIK A","8502588","2018-03-04 20:00","2018","03","04","20:00"
"-59.19","55.08","MAKKOVIK A","8502588","2018-03-04 21:00","2018","03","04","21:00"
"-59.19","55.08","MAKKOVIK A","8502588","2018-03-04 22:00","2018","03","04","22:00"
"-59.19","55.08","MAKKOVIK A","8502588","2018-03-04 23:00","2018","03","04","23:00"
"-59.19","55.08","MAKKOVIK A","8502588","2018-03-05 00:00","2018","03","05","00:00"
"-59.19","55.08","MAKKOVIK A","8502588","2018-03-05 01:00","2018","03","05","01:00"
"-59.19","55.08","MAKKOVIK A","8502588","2018-03-05 02:00","2018","03","05","02:00"
"-59.19","55.08","MAKKOVIK A","8502588","2018-03-05 03:00","2018","03","05","03:00"
"-59.19","55.08","MAKKOVIK A","8502588","2018-03-05 04:00","2018","03","05","04:00"
"-59.19","55.08","MAKKOVIK A","8502588","2018-03-05 05:00","2018","03","05","05:00"
"-59.19","55.08","MAKKOVIK A","8502588","2018-03-05 06:00","2018","03","05","06:00","-4.3","","-4.4","","99","","","","27","","9","","0.8","","102.59","","","","-8","","Snow"
"-59.19","55.08","MAKKOVIK A","8502588","2018-03-05 07:00","2018","03","05","07:00","-4.2","","-4.6","","97","","","","","","0","","4.0","","102.59","","","","","","Snow"
"-59.19","55.08","MAKKOVIK A","8502588","2018-03-05 08:00","2018","03","05","08:00","-3.9","","-4.2","","98","","","","","","0","","1.6","","102.60","","","","","","Freezing Drizzle"
"-59.19","55.08","MAKKOVIK A","8502588","2018-03-05 09:00","2018","03","05","09:00","-2.6","","-2.9","","98","","","","","","0","","4.8","","102.61","","","","","","Freezing Drizzle"
"-59.19","55.08","MAKKOVIK A","8502588","2018-03-05 10:00","2018","03","05","10:00","-2.1","","-2.4","","98","","","","36","","9","","8.1","","102.60","","","","-6","","Freezing Drizzle"
"-59.19","55.08","MAKKOVIK A","8502588","2018-03-05 11:00","2018","03","05","11:00","-1.9","","-2.2","","98","","","","36","","9","","6.4","","102.59","","","","-5","","Freezing Drizzle"
"-59.19","55.08","MAKKOVIK A","8502588","2018-03-05 12:00","2018","03","05","12:00","-1.9","","-2.2","","98","","","","36","","9","","6.4","","102.59","","","","-5","","Freezing Drizzle"
"-59.19","55.08","MAKKOVIK A","8502588","2018-03-05 13:00","2018","03","05","13:00","-1.9","","-2.2","","98","","","","36","","9","","24.1","","102.59","","","","-5","","NA"
"-59.19","55.08","MAKKOVIK A","8502588","2018-03-05 14:00","2018","03","05","14:00","-2.1","","-2.4","","97","","","","1","","18","","24.1","","102.58","","","","-8","","Mostly Cloudy"
"-59.19","55.08","MAKKOVIK A","8502588","2018-03-05 15:00","2018","03","05","15:00","-2.3","","-2.7","","97","","","","2","","16","","24.1","","102.59","","","","-7","","NA"
"-59.19","55.08","MAKKOVIK A","8502588","2018-03-05 16:00","2018","03","05","16:00","-2.5","","-2.9","","97","","","","36","","12","","24.1","","102.60","","","","-7","","NA"
"-59.19","55.08","MAKKOVIK A","8502588","2018-03-05 17:00","2018","03","05","17:00","-3.3","","-3.7","","97","","","","2","","13","","24.1","","102.60","","","","-8","","Mostly Cloudy"
"-59.19","55.08","MAKKOVIK A","8502588","2018-03-05 18:00","2018","03","05","18:00"
"-59.19","55.08","MAKKOVIK A","8502588","2018-03-05 19:00","2018","03","05","19:00"
"-59.19","55.08","MAKKOVIK A","8502588","2018-03-05 20:00","2018","03","05","20:00"
"-59.19","55.08","MAKKOVIK A","8502588","2018-03-05 21:00","2018","03","05","21:00"
"-59.19","55.08","MAKKOVIK A","8502588","2018-03-05 22:00","2018","03","05","22:00"
"-59.19","55.08","MAKKOVIK A","8502588","2018-03-05 23:00","2018","03","05","23:00"
"-59.19","55.08","MAKKOVIK A","8502588","2018-03-06 00:00","2018","03","06","00:00"
"-59.19","55.08","MAKKOVIK A","8502588","2018-03-06 01:00","2018","03","06","01:00"
"-59.19","55.08","MAKKOVIK A","8502588","2018-03-06 02:00","2018","03","06","02:00"
"-59.19","55.08","MAKKOVIK A","8502588","2018-03-06 03:00","2018","03","06","03:00"
"-59.19","55.08","MAKKOVIK A","8502588","2018-03-06 04:00","2018","03","06","04:00"
"-59.19","55.08","MAKKOVIK A","8502588","2018-03-06 05:00","2018","03","06","05:00"
"-59.19","55.08","MAKKOVIK A","8502588","2018-03-06 06:00","2018","03","06","06:00","-5.4","","-5.9","","96","","","","35","","11","","6.4","","102.39","","","","-10","","Fog"
"-59.19","55.08","MAKKOVIK A","8502588","2018-03-06 07:00","2018","03","06","07:00","-5.2","","-5.7","","96","","","","35","","10","","1.0","","102.39","","","","-10","","Freezing Drizzle,Fog"
"-59.19","55.08","MAKKOVIK A","8502588","2018-03-06 08:00","2018","03","06","08:00","-5.5","","-6.0","","96","","","","35","","16","","11.3","","102.40","","","","-11","","Cloudy"
"-59.19","55.08","MAKKOVIK A","8502588","2018-03-06 09:00","2018","03","06","09:00","-5.4","","-6.0","","96","","","","34","","12","","4.0","","102.43","","","","-10","","Fog"
"-59.19","55.08","MAKKOVIK A","8502588","2018-03-06 10:00","2018","03","06","10:00","-5.2","","-5.8","","95","","","","34","","19","","19.3","","102.44","","","","-12","","NA"
"-59.19","55.08","MAKKOVIK A","8502588","2018-03-06 11:00","2018","03","06","11:00","-5.2","","-5.8","","95","","","","33","","17","","4.8","","102.44","","","","-11","","Fog"
"-59.19","55.08","MAKKOVIK A","8502588","2018-03-06 12:00","2018","03","06","12:00","-5.0","","-5.7","","95","","","","34","","18","","4.8","","102.42","","","","-11","","Fog"
"-59.19","55.08","MAKKOVIK A","8502588","2018-03-06 13:00","2018","03","06","13:00","-4.8","","-5.6","","94","","","","33","","21","","6.4","","102.39","","","","-11","","Fog"
"-59.19","55.08","MAKKOVIK A","8502588","2018-03-06 14:00","2018","03","06","14:00","-5.0","","-5.8","","94","","","","34","","25","","8.1","","102.40","","","","-12","","Fog"
"-59.19","55.08","MAKKOVIK A","8502588","2018-03-06 15:00","2018","03","06","15:00","-5.0","","-5.8","","94","","","","33","","17","","11.3","","102.39","","","","-11","","NA"
"-59.19","55.08","MAKKOVIK A","8502588","2018-03-06 16:00","2018","03","06","16:00","-5.4","","-6.3","","93","","","","34","","15","","16.1","","102.37","","","","-11","","Snow Grains"
"-59.19","55.08","MAKKOVIK A","8502588","2018-03-06 17:00","2018","03","06","17:00","-6.4","","-7.2","","94","","","","34","","20","","6.4","","102.40","","","","-13","","Freezing Drizzle"
"-59.19","55.08","MAKKOVIK A","8502588","2018-03-06 18:00","2018","03","06","18:00"
"-59.19","55.08","MAKKOVIK A","8502588","2018-03-06 19:00","2018","03","06","19:00"
"-59.19","55.08","MAKKOVIK A","8502588","2018-03-06 20:00","2018","03","06","20:00"
"-59.19","55.08","MAKKOVIK A","8502588","2018-03-06 21:00","2018","03","06","21:00"
"-59.19","55.08","MAKKOVIK A","8502588","2018-03-06 22:00","2018","03","06","22:00"
"-59.19","55.08","MAKKOVIK A","8502588","2018-03-06 23:00","2018","03","06","23:00"
"-59.19","55.08","MAKKOVIK A","8502588","2018-03-07 00:00","2018","03","07","00:00"
"-59.19","55.08","MAKKOVIK A","8502588","2018-03-07 01:00","2018","03","07","01:00"
"-59.19","55.08","MAKKOVIK A","8502588","2018-03-07 02:00","2018","03","07","02:00"
"-59.19","55.08","MAKKOVIK A","8502588","2018-03-07 03:00","2018","03","07","03:00"
"-59.19","55.08","MAKKOVIK A","8502588","2018-03-07 04:00","2018","03","07","04:00"
"-59.19","55.08","MAKKOVIK A","8502588","2018-03-07 05:00","2018","03","07","05:00"
"-59.19","55.08","MAKKOVIK A","8502588","2018-03-07 06:00","2018","03","07","06:00","-8.0","","-9.0","","93","","","","29","","19","","19.3","","102.35","","","","-15","","NA"
"-59.19","55.08","MAKKOVIK A","8502588","2018-03-07 07:00","2018","03","07","07:00","-8.2","","-9.2","","92","","","","27","","12","","19.3","","102.40","","","","-14","","Snow"
"-59.19","55.08","MAKKOVIK A","8502588","2018-03-07 08:00","2018","03","07","08:00","-8.1","","-9.2","","92","","","","27","","17","","19.3","","102.40","","","","-15","","Snow"
"-59.19","55.08","MAKKOVIK A","8502588","2018-03-07 09:00","2018","03","07","09:00","-8.0","","-9.3","","91","","","","28","","15","","19.3","","102.42","","","","-14","","Snow"
"-59.19","55.08","MAKKOVIK A","8502588","2018-03-07 10:00","2018","03","07","10:00","-7.9","","-9.2","","90","","","","28","","17","","19.3","","102.41","","","","-15","","Snow"
"-59.19","55.08","MAKKOVIK A","8502588","2018-03-07 11:00","2018","03","07","11:00","-7.8","","-9.2","","90","","","","28","","15","","19.3","","102.39","","","","-14","","Snow"
"-59.19","55.08","MAKKOVIK A","8502588","2018-03-07 12:00","2018","03","07","12:00","-7.6","","-9.0","","90","","","","28","","17","","19.3","","102.35","","","","-14","","Snow"
"-59.19","55.08","MAKKOVIK A","8502588","2018-03-07 13:00","2018","03","07","13:00","-7.1","","-8.5","","90","","","","31","","14","","19.3","","102.32","","","","-13","","Snow"
"-59.19","55.08","MAKKOVIK A","8502588","2018-03-07 14:00","2018","03","07","14:00","-6.9","","-8.5","","89","","","","29","","11","","19.3","","102.30","","","","-12","","Snow"
"-59.19","55.08","MAKKOVIK A","8502588","2018-03-07 15:00","2018","03","07","15:00","-6.8","","-8.6","","87","","","","31","","11","","24.1","","102.29","","","","-12","","Snow"
"-59.19","55.08","MAKKOVIK A","8502588","2018-03-07 16:00","2018","03","07","16:00","-7.0","","-8.9","","87","","","","31","","11","","24.1","","102.30","","","","-12","","Snow"
"-59.19","55.08","MAKKOVIK A","8502588","2018-03-07 17:00","2018","03","07","17:00","-7.5","","-9.1","","88","","","","30","","7","","24.1","","102.32","","","","-11","","Mostly Cloudy"
"-59.19","55.08","MAKKOVIK A","8502588","2018-03-07 18:00","2018","03","07","18:00"
"-59.19","55.08","MAKKOVIK A","8502588","2018-03-07 19:00","2018","03","07","19:00"
"-59.19","55.08","MAKKOVIK A","8502588","2018-03-07 20:00","2018","03","07","20:00"
"-59.19","55.08","MAKKOVIK A","8502588","2018-03-07 21:00","2018","03","07","21:00"
"-59.19","55.08","MAKKOVIK A","8502588","2018-03-07 22:00","2018","03","07","22:00"
"-59.19","55.08","MAKKOVIK A","8502588","2018-03-07 23:00","2018","03","07","23:00"
"-59.19","55.08","MAKKOVIK A","8502588","2018-03-08 00:00","2018","03","08","00:00"
"-59.19","55.08","MAKKOVIK A","8502588","2018-03-08 01:00","2018","03","08","01:00"
"-59.19","55.08","MAKKOVIK A","8502588","2018-03-08 02:00","2018","03","08","02:00"
"-59.19","55.08","MAKKOVIK A","8502588","2018-03-08 03:00","2018","03","08","03:00"
"-59.19","55.08","MAKKOVIK A","8502588","2018-03-08 04:00","2018","03","08","04:00"
"-59.19","55.08","MAKKOVIK A","8502588","2018-03-08 05:00","2018","03","08","05:00"
"-59.19","55.08","MAKKOVIK A","8502588","2018-03-08 06:00","2018","03","08","06:00","-10.8","","-11.9","","92","","","","23","","12","","24.1","","102.06","","","","-17","","NA"
"-59.19","55.08","MAKKOVIK A","8502588","2018-03-08 07:00","2018","03","08","07:00","-10.2","","-11.4","","91","","","","22","","12","","24.1","","102.07","","","","-16","","NA"
"-59.19","55.08","MAKKOVIK A","8502588","2018-03-08 08:00","2018","03","08","08:00","-9.4","","-10.7","","90","","","","22","","10","","24.1","","102.07","","","","-15","","Clear"
"-59.19","55.08","MAKKOVIK A","8502588","2018-03-08 09:00","2018","03","08","09:00","-8.5","","-10.0","","89","","","","23","","10","","24.1","","102.04","","","","-13","","NA"
"-59.19","55.08","MAKKOVIK A","8502588","2018-03-08 10:00","2018","03","08","10:00","-7.3","","-9.6","","84","","","","27","","7","","24.1","","102.01","","","","-11","","NA"
"-59.19","55.08","MAKKOVIK A","8502588","2018-03-08 11:00","2018","03","08","11:00","-6.9","","-9.8","","80","","","","32","","5","","24.1","","102.01","","","","-9","","Clear"
"-59.19","55.08","MAKKOVIK A","8502588","2018-03-08 12:00","2018","03","08","12:00","-6.5","","-9.7","","79","","","","31","","12","","24.1","","101.99","","","","-12","","NA"
"-59.19","55.08","MAKKOVIK A","8502588","2018-03-08 13:00","2018","03","08","13:00","-6.1","","-9.5","","77","","","","31","","12","","24.1","","101.94","","","","-11","","NA"
"-59.19","55.08","MAKKOVIK A","8502588","2018-03-08 14:00","2018","03","08","14:00","-5.8","","-9.6","","75","","","","32","","7","","24.1","","101.89","","","","-9","","Clear"
"-59.19","55.08","MAKKOVIK A","8502588","2018-03-08 15:00","2018","03","08","15:00","-6.4","","-10.0","","76","","","","1","","8","","24.1","","101.88","","","","-10","","NA"
"-59.19","55.08","MAKKOVIK A","8502588","2018-03-08 16:00","2018","03","08","16:00","-7.1","","-10.3","","78","","","","4","","9","","24.1","","101.87","","","","-11","","NA"
"-59.19","55.08","MAKKOVIK A","8502588","2018-03-08 17:00","2018","03","08","17:00","-8.3","","-11.3","","80","","","","36","","2","","24.1","","101.88","","","","-9","","Clear"
"-59.19","55.08","MAKKOVIK A","8502588","2018-03-08 18:00","2018","03","08","18:00"
"-59.19","55.08","MAKKOVIK A","8502588","2018-03-08 19:00","2018","03","08","19:00"
"-59.19","55.08","MAKKOVIK A","8502588","2018-03-08 20:00","2018","03","08","20:00"
"-59.19","55.08","MAKKOVIK A","8502588","2018-03-08 21:00","2018","03","08","21:00"
"-59.19","55.08","MAKKOVIK A","8502588","2018-03-08 22:00","2018","03","08","22:00"
"-59.19","55.08","MAKKOVIK A","8502588","2018-03-08 23:00","2018","03","08","23:00"
"-59.19","55.08","MAKKOVIK A","8502588","2018-03-09 00:00","2018","03","09","00:00"
"-59.19","55.08","MAKKOVIK A","8502588","2018-03-09 01:00","2018","03","09","01:00"
"-59.19","55.08","MAKKOVIK A","8502588","2018-03-09 02:00","2018","03","09","02:00"
"-59.19","55.08","MAKKOVIK A","8502588","2018-03-09 03:00","2018","03","09","03:00"
"-59.19","55.08","MAKKOVIK A","8502588","2018-03-09 04:00","2018","03","09","04:00"
"-59.19","55.08","MAKKOVIK A","8502588","2018-03-09 05:00","2018","03","09","05:00"
"-59.19","55.08","MAKKOVIK A","8502588","2018-03-09 06:00","2018","03","09","06:00","-13.8","","-15.0","","90","","","","19","","3","","24.1","","101.82","","","","-16","","NA"
"-59.19","55.08","MAKKOVIK A","8502588","2018-03-09 07:00","2018","03","09","07:00","-13.6","","-14.8","","91","","","","8","","5","","24.1","","101.82","","","","-17","","NA"
"-59.19","55.08","MAKKOVIK A","8502588","2018-03-09 08:00","2018","03","09","08:00","-14.1","","-15.2","","91","","","","36","","2","","24.1","","101.81","","","","-15","","Clear"
"-59.19","55.08","MAKKOVIK A","8502588","2018-03-09 09:00","2018","03","09","09:00","-12.8","","-14.2","","89","","","","36","","2","","24.1","","101.81","","","","-14","","NA"
"-59.19","55.08","MAKKOVIK A","8502588","2018-03-09 10:00","2018","03","09","10:00","-11.7","","-13.5","","87","","","","36","","3","","24.1","","101.80","","","","-14","","NA"
"-59.19","55.08","MAKKOVIK A","8502588","2018-03-09 11:00","2018","03","09","11:00","-10.9","","-13.3","","83","","","","5","","4","","24.1","","101.77","","","","-13","","Clear"
"-59.19","55.08","MAKKOVIK A","8502588","2018-03-09 12:00","2018","03","09","12:00","-8.1","","-12.1","","73","","","","4","","7","","24.1","","101.72","","","","-12","","NA"
"-59.19","55.08","MAKKOVIK A","8502588","2018-03-09 13:00","2018","03","09","13:00","-5.6","","-10.7","","67","","","","10","","6","","24.1","","101.67","","","","-8","","NA"
"-59.19","55.08","MAKKOVIK A","8502588","2018-03-09 14:00","2018","03","09","14:00","-4.0","","-9.7","","65","","","","11","","16","","24.1","","101.62","","","","-10","","Clear"
"-59.19","55.08","MAKKOVIK A","8502588","2018-03-09 15:00","2018","03","09","15:00","-3.8","","-9.3","","66","","","","15","","11","","24.1","","101.58","","","","-8","","NA"
"-59.19","55.08","MAKKOVIK A","8502588","2018-03-09 16:00","2018","03","09","16:00","-3.8","","-9.3","","66","","","","10","","14","","24.1","","101.54","","","","-9","","NA"
"-59.19","55.08","MAKKOVIK A","8502588","2018-03-09 17:00","2018","03","09","17:00","-5.3","","-9.5","","72","","","","10","","17","","24.1","","101.53","","","","-11","","Mainly Clear"
"-59.19","55.08","MAKKOVIK A","8502588","2018-03-09 18:00","2018","03","09","18:00"
"-59.19","55.08","MAKKOVIK A","8502588","2018-03-09 19:00","2018","03","09","19:00"
"-59.19","55.08","MAKKOVIK A","8502588","2018-03-09 20:00","2018","03","09","20:00"
"-59.19","55.08","MAKKOVIK A","8502588","2018-03-09 21:00","2018","03","09","21:00"
"-59.19","55.08","MAKKOVIK A","8502588","2018-03-09 22:00","2018","03","09","22:00"
"-59.19","55.08","MAKKOVIK A","8502588","2018-03-09 23:00","2018","03","09","23:00"
"-59.19","55.08","MAKKOVIK A","8502588","2018-03-10 00:00","2018","03","10","00:00"
"-59.19","55.08","MAKKOVIK A","8502588","2018-03-10 01:00","2018","03","10","01:00"
"-59.19","55.08","MAKKOVIK A","8502588","2018-03-10 02:00","2018","03","10","02:00"
"-59.19","55.08","MAKKOVIK A","8502588","2018-03-10 03:00","2018","03","10","03:00"
"-59.19","55.08","MAKKOVIK A","8502588","2018-03-10 04:00","2018","03","10","04:00"
"-59.19","55.08","MAKKOVIK A","8502588","2018-03-10 05:00","2018","03","10","05:00"
"-59.19","55.08","MAKKOVIK A","8502588","2018-03-10 06:00","2018","03","10","06:00","-3.9","","-7.3","","77","","","","10","","10","","24.1","","101.25","","","","-8","","NA"
"-59.19","55.08","MAKKOVIK A","8502588","2018-03-10 07:00","2018","03","10","07:00","-3.7","","-7.2","","77","","","","11","","17","","24.1","","101.23","","","","-9","","NA"
"-59.19","55.08","MAKKOVIK A","8502588","2018-03-10 08:00","2018","03","10","08:00","-3.4","","-7.2","","75","","","","10","","18","","24.1","","101.21","","","","-9","","Cloudy"
"-59.19","55.08","MAKKOVIK A","8502588","2018-03-10 09:00","2018","03","10","09:00","-3.1","","-6.7","","76","","","","10","","18","","24.1","","101.23","","","","-9","","NA"
"-59.19","55.08","MAKKOVIK A","8502588","2018-03-10 10:00","2018","03","10","10:00","-2.9","","-6.4","","77","","","","9","","23","","24.1","","101.18","","","","-9","","NA"
"-59.19","55.08","MAKKOVIK A","8502588","2018-03-10 11:00","2018","03","10","11:00","-2.6","","-6.1","","77","","","","9","","21","","24.1","","101.17","","","","-9","","Cloudy"
"-59.19","55.08","MAKKOVIK A","8502588","2018-03-10 12:00","2018","03","10","12:00","-2.4","","-5.6","","79","","","","10","","23","","19.3","","101.15","","","","-9","","NA"
"-59.19","55.08","MAKKOVIK A","8502588","2018-03-10 13:00","2018","03","10","13:00","-2.7","","-5.6","","80","","","","9","","24","","19.3","","101.13","","","","-9","","Snow"
"-59.19","55.08","MAKKOVIK A","8502588","2018-03-10 14:00","2018","03","10","14:00","-2.7","","-5.4","","82","","","","9","","19","","19.3","","101.10","","","","-8","","Snow"
"-59.19","55.08","MAKKOVIK A","8502588","2018-03-10 15:00","2018","03","10","15:00","-2.7","","-5.4","","82","","","","9","","19","","24.1","","101.11","","","","-8","","Snow"
"-59.19","55.08","MAKKOVIK A","8502588","2018-03-10 16:00","2018","03","10","16:00","-2.8","","-5.4","","82","","","","10","","18","","24.1","","101.11","","","","-8","","Snow"
"-59.19","55.08","MAKKOVIK A","8502588","2018-03-10 17:00","2018","03","10","17:00","-2.9","","-5.6","","81","","","","10","","21","","19.3","","101.13","","","","-9","","Snow"
"-59.19","55.08","MAKKOVIK A","8502588","2018-03-10 18:00","2018","03","10","18:00"
"-59.19","55.08","MAKKOVIK A","8502588","2018-03-10 19:00","2018","03","10","19:00"
"-59.19","55.08","MAKKOVIK A","8502588","2018-03-10 20:00","2018","03","10","20:00"
"-59.19","55.08","MAKKOVIK A","8502588","2018-03-10 21:00","2018","03","10","21:00"
"-59.19","55.08","MAKKOVIK A","8502588","2018-03-10 22:00","2018","03","10","22:00"
"-59.19","55.08","MAKKOVIK A","8502588","2018-03-10 23:00","2018","03","10","23:00"
"-59.19","55.08","MAKKOVIK A","8502588","2018-03-11 00:00","2018","03","11","00:00"
"-59.19","55.08","MAKKOVIK A","8502588","2018-03-11 01:00","2018","03","11","01:00"
"-59.19","55.08","MAKKOVIK A","8502588","2018-03-11 02:00","2018","03","11","02:00"
"-59.19","55.08","MAKKOVIK A","8502588","2018-03-11 03:00","2018","03","11","03:00"
"-59.19","55.08","MAKKOVIK A","8502588","2018-03-11 04:00","2018","03","11","04:00"
"-59.19","55.08","MAKKOVIK A","8502588","2018-03-11 05:00","2018","03","11","05:00","-3.7","","-4.7","","93","","","","1","","8","","6.4","","101.11","","","","-7","","Snow"
"-59.19","55.08","MAKKOVIK A","8502588","2018-03-11 06:00","2018","03","11","06:00","-3.7","","-4.9","","91","","","","36","","3","","24.1","","101.13","","","","-5","","NA"
"-59.19","55.08","MAKKOVIK A","8502588","2018-03-11 07:00","2018","03","11","07:00","-3.7","","-4.6","","93","","","","6","","4","","11.3","","101.15","","","","-5","","Snow"
"-59.19","55.08","MAKKOVIK A","8502588","2018-03-11 08:00","2018","03","11","08:00","-3.5","","-4.2","","95","","","","2","","8","","16.1","","101.17","","","","-7","","Snow"
"-59.19","55.08","MAKKOVIK A","8502588","2018-03-11 09:00","2018","03","11","09:00","-3.2","","-3.9","","95","","","","4","","10","","11.3","","101.21","","","","-7","","Snow"
"-59.19","55.08","MAKKOVIK A","8502588","2018-03-11 10:00","2018","03","11","10:00","-2.9","","-3.8","","93","","","","3","","13","","11.3","","101.23","","","","-8","","Snow"
"-59.19","55.08","MAKKOVIK A","8502588","2018-03-11 11:00","2018","03","11","11:00","-2.3","","-3.7","","90","","","","4","","11","","11.3","","101.22","","","","-6","","Snow"
"-59.19","55.08","MAKKOVIK A","8502588","2018-03-11 12:00","2018","03","11","12:00","-2.4","","-3.7","","90","","","","3","","13","","11.3","","101.21","","","","-7","","Snow"
"-59.19","55.08","MAKKOVIK A","8502588","2018-03-11 13:00","2018","03","11","13:00","-2.2","","-3.6","","90","","","","3","","8","","11.3","","101.19","","","","-5","","Snow"
"-59.19","55.08","MAKKOVIK A","8502588","2018-03-11 14:00","2018","03","11","14:00","-2.5","","-3.7","","92","","","","2","","11","","16.1","","101.18","","","","-7","","Snow"
"-59.19","55.08","MAKKOVIK A","8502588","2018-03-11 15:00","2018","03","11","15:00","-2.4","","-3.6","","91","","","","3","","8","","11.3","","101.21","","","","-6","","Snow"
"-59.19","55.08","MAKKOVIK A","8502588","2018-03-11 16:00","2018","03","11","16:00","-2.6","","-3.7","","92","","","","36","","2","","16.1","","101.20","","","","-3","","Snow"
"-59.19","55.08","MAKKOVIK A","8502588","2018-03-11 17:00","2018","03","11","17:00"
"-59.19","55.08","MAKKOVIK A","8502588","2018-03-11 18:00","2018","03","11","18:00"
"-59.19","55.08","MAKKOVIK A","8502588","2018-03-11 19:00","2018","03","11","19:00"
"-59.19","55.08","MAKKOVIK A","8502588","2018-03-11 20:00","2018","03","11","20:00"
"-59.19","55.08","MAKKOVIK A","8502588","2018-03-11 21:00","2018","03","11","21:00"
"-59.19","55.08","MAKKOVIK A","8502588","2018-03-11 22:00","2018","03","11","22:00"
"-59.19","55.08","MAKKOVIK A","8502588","2018-03-11 23:00","2018","03","11","23:00"
"-59.19","55.08","MAKKOVIK A","8502588","2018-03-12 00:00","2018","03","12","00:00"
"-59.19","55.08","MAKKOVIK A","8502588","2018-03-12 01:00","2018","03","12","01:00"
"-59.19","55.08","MAKKOVIK A","8502588","2018-03-12 02:00","2018","03","12","02:00"
"-59.19","55.08","MAKKOVIK A","8502588","2018-03-12 03:00","2018","03","12","03:00"
"-59.19","55.08","MAKKOVIK A","8502588","2018-03-12 04:00","2018","03","12","04:00"
"-59.19","55.08","MAKKOVIK A","8502588","2018-03-12 05:00","2018","03","12","05:00","-3.7","","-4.3","","95","","","","35","","10","","3.2","","101.38","","","","-8","","Snow"
"-59.19","55.08","MAKKOVIK A","8502588","2018-03-12 06:00","2018","03","12","06:00","-4.1","","-4.6","","96","","","","34","","7","","6.4","","101.42","","","","-7","","Snow"
"-59.19","55.08","MAKKOVIK A","8502588","2018-03-12 07:00","2018","03","12","07:00","-4.0","","-4.3","","97","","","","32","","9","","3.6","","101.46","","","","-8","","Snow"
"-59.19","55.08","MAKKOVIK A","8502588","2018-03-12 08:00","2018","03","12","08:00","-3.6","","-4.3","","96","","","","35","","9","","6.4","","101.49","","","","-7","","Snow"
"-59.19","55.08","MAKKOVIK A","8502588","2018-03-12 09:00","2018","03","12","09:00","-3.4","","-4.3","","94","","","","33","","8","","6.4","","101.52","","","","-7","","Snow"
"-59.19","55.08","MAKKOVIK A","8502588","2018-03-12 10:00","2018","03","12","10:00","-3.0","","-4.5","","89","","","","34","","8","","6.4","","101.55","","","","-6","","Snow"
"-59.19","55.08","MAKKOVIK A","8502588","2018-03-12 11:00","2018","03","12","11:00","-2.6","","-4.5","","87","","","","35","","9","","6.4","","101.54","","","","-6","","Snow"
"-59.19","55.08","MAKKOVIK A","8502588","2018-03-12 12:00","2018","03","12","12:00","-2.4","","-4.7","","84","","","","36","","10","","11.3","","101.53","","","","-6","","Snow"
"-59.19","55.08","MAKKOVIK A","8502588","2018-03-12 13:00","2018","03","12","13:00","-2.0","","-7.2","","68","","","","1","","9","","19.3","","101.56","","","","-5","","Snow"
"-59.19","55.08","MAKKOVIK A","8502588","2018-03-12 14:00","2018","03","12","14:00","-2.1","","-7.2","","68","","","","3","","9","","24.1","","101.58","","","","-6","","Mostly Cloudy"
"-59.19","55.08","MAKKOVIK A","8502588","2018-03-12 15:00","2018","03","12","15:00","-2.3","","-6.6","","72","","","","36","","8","","24.1","","101.60","","","","-5","","NA"
"-59.19","55.08","MAKKOVIK A","8502588","2018-03-12 16:00","2018","03","12","16:00","-2.6","","-6.7","","74","","","","36","","3","","24.1","","101.62","","","","-4","","NA"
"-59.19","55.08","MAKKOVIK A","8502588","2018-03-12 17:00","2018","03","12","17:00"
"-59.19","55.08","MAKKOVIK A","8502588","2018-03-12 18:00","2018","03","12","18:00"
"-59.19","55.08","MAKKOVIK A","8502588","2018-03-12 19:00","2018","03","12","19:00"
"-59.19","55.08","MAKKOVIK A","8502588","2018-03-12 20:00","2018","03","12","20:00"
"-59.19","55.08","MAKKOVIK A","8502588","2018-03-12 21:00","2018","03","12","21:00"
"-59.19","55.08","MAKKOVIK A","8502588","2018-03-12 22:00","2018","03","12","22:00"
"-59.19","55.08","MAKKOVIK A","8502588","2018-03-12 23:00","2018","03","12","23:00"
"-59.19","55.08","MAKKOVIK A","8502588","2018-03-13 00:00","2018","03","13","00:00"
"-59.19","55.08","MAKKOVIK A","8502588","2018-03-13 01:00","2018","03","13","01:00"
"-59.19","55.08","MAKKOVIK A","8502588","2018-03-13 02:00","2018","03","13","02:00"
"-59.19","55.08","MAKKOVIK A","8502588","2018-03-13 03:00","2018","03","13","03:00"
"-59.19","55.08","MAKKOVIK A","8502588","2018-03-13 04:00","2018","03","13","04:00"
"-59.19","55.08","MAKKOVIK A","8502588","2018-03-13 05:00","2018","03","13","05:00","-3.5","","-7.4","","75","","","","23","","12","","24.1","","101.77","","","","-8","","Cloudy"
"-59.19","55.08","MAKKOVIK A","8502588","2018-03-13 06:00","2018","03","13","06:00","-2.8","","-7.5","","70","","","","24","","17","","24.1","","101.75","","","","-8","","NA"
"-59.19","55.08","MAKKOVIK A","8502588","2018-03-13 07:00","2018","03","13","07:00","-3.2","","-7.4","","73","","","","24","","15","","24.1","","101.76","","","","-8","","NA"
"-59.19","55.08","MAKKOVIK A","8502588","2018-03-13 08:00","2018","03","13","08:00","-1.8","","-8.2","","62","","","","27","","20","","24.1","","101.77","","","","-8","","Cloudy"
"-59.19","55.08","MAKKOVIK A","8502588","2018-03-13 09:00","2018","03","13","09:00","-1.6","","-7.9","","62","","","","26","","19","","24.1","","101.77","","","","-7","","NA"
"-59.19","55.08","MAKKOVIK A","8502588","2018-03-13 10:00","2018","03","13","10:00","-1.3","","-7.4","","63","","","","26","","15","","24.1","","101.75","","","","-6","","NA"
"-59.19","55.08","MAKKOVIK A","8502588","2018-03-13 11:00","2018","03","13","11:00","-1.1","","-7.7","","61","","","","26","","14","","24.1","","101.74","","","","-6","","Mostly Cloudy"
"-59.19","55.08","MAKKOVIK A","8502588","2018-03-13 12:00","2018","03","13","12:00","-0.9","","-7.6","","60","","","","26","","21","","24.1","","101.73","","","","-7","","NA"
"-59.19","55.08","MAKKOVIK A","8502588","2018-03-13 13:00","2018","03","13","13:00","-0.7","","-7.3","","61","","","","27","","21","","24.1","","101.70","","","","-6","","NA"
"-59.19","55.08","MAKKOVIK A","8502588","2018-03-13 14:00","2018","03","13","14:00","-0.5","","-7.7","","59","","","","31","","9","","24.1","","101.65","","","","-4","","Mostly Cloudy"
"-59.19","55.08","MAKKOVIK A","8502588","2018-03-13 15:00","2018","03","13","15:00","-0.2","","-8.4","","54","","","","26","","4","","24.1","","101.59","","","","-1","","NA"
"-59.19","55.08","MAKKOVIK A","8502588","2018-03-13 16:00","2018","03","13","16:00","-0.3","","-8.3","","55","","","","5","","3","","24.1","","101.54","","","","-1","","NA"
"-59.19","55.08","MAKKOVIK A","8502588","2018-03-13 17:00","2018","03","13","17:00"
"-59.19","55.08","MAKKOVIK A","8502588","2018-03-13 18:00","2018","03","13","18:00"
"-59.19","55.08","MAKKOVIK A","8502588","2018-03-13 19:00","2018","03","13","19:00"
"-59.19","55.08","MAKKOVIK A","8502588","2018-03-13 20:00","2018","03","13","20:00"
"-59.19","55.08","MAKKOVIK A","8502588","2018-03-13 21:00","2018","03","13","21:00"
"-59.19","55.08","MAKKOVIK A","8502588","2018-03-13 22:00","2018","03","13","22:00"
"-59.19","55.08","MAKKOVIK A","8502588","2018-03-13 23:00","2018","03","13","23:00"
"-59.19","55.08","MAKKOVIK A","8502588","2018-03-14 00:00","2018","03","14","00:00"
"-59.19","55.08","MAKKOVIK A","8502588","2018-03-14 01:00","2018","03","14","01:00"
"-59.19","55.08","MAKKOVIK A","8502588","2018-03-14 02:00","2018","03","14","02:00"
"-59.19","55.08","MAKKOVIK A","8502588","2018-03-14 03:00","2018","03","14","03:00"
"-59.19","55.08","MAKKOVIK A","8502588","2018-03-14 04:00","2018","03","14","04:00"
"-59.19","55.08","MAKKOVIK A","8502588","2018-03-14 05:00","2018","03","14","05:00","-6.7","","-10.1","","77","","","","17","","7","","24.1","","101.22","","","","-10","","Mainly Clear"
"-59.19","55.08","MAKKOVIK A","8502588","2018-03-14 06:00","2018","03","14","06:00","-4.2","","-9.0","","70","","","","20","","7","","24.1","","101.15","","","","-7","","NA"
"-59.19","55.08","MAKKOVIK A","8502588","2018-03-14 07:00","2018","03","14","07:00","-6.2","","-10.0","","75","","","","22","","12","","24.1","","101.14","","","","-11","","NA"
"-59.19","55.08","MAKKOVIK A","8502588","2018-03-14 08:00","2018","03","14","08:00","-5.2","","-9.8","","70","","","","26","","3","","24.1","","101.10","","","","-7","","Mainly Clear"
"-59.19","55.08","MAKKOVIK A","8502588","2018-03-14 09:00","2018","03","14","09:00","-3.5","","-9.4","","64","","","","19","","7","","24.1","","101.09","","","","-6","","NA"
"-59.19","55.08","MAKKOVIK A","8502588","2018-03-14 10:00","2018","03","14","10:00","-3.0","","-10.0","","59","","","","4","","4","","24.1","","101.02","","","","-5","","NA"
"-59.19","55.08","MAKKOVIK A","8502588","2018-03-14 11:00","2018","03","14","11:00","-2.8","","-8.5","","65","","","","9","","8","","24.1","","100.95","","","","-6","","Mostly Cloudy"
"-59.19","55.08","MAKKOVIK A","8502588","2018-03-14 12:00","2018","03","14","12:00","-2.2","","-7.5","","67","","","","8","","5","","24.1","","100.84","","","","-4","","NA"
"-59.19","55.08","MAKKOVIK A","8502588","2018-03-14 13:00","2018","03","14","13:00","-1.2","","-6.4","","68","","","","9","","19","","24.1","","100.75","","","","-7","","NA"
"-59.19","55.08","MAKKOVIK A","8502588","2018-03-14 14:00","2018","03","14","14:00","-2.1","","-6.6","","71","","","","8","","10","","24.1","","100.69","","","","-6","","Mostly Cloudy"
"-59.19","55.08","MAKKOVIK A","8502588","2018-03-14 15:00","2018","03","14","15:00","-2.6","","-5.5","","80","","","","7","","19","","24.1","","100.61","","","","-8","","NA"
"-59.19","55.08","MAKKOVIK A","8502588","2018-03-14 16:00","2018","03","14","16:00","-2.7","","-5.9","","79","","","","8","","23","","24.1","","100.54","","","","-9","","NA"
"-59.19","55.08","MAKKOVIK A","8502588","2018-03-14 17:00","2018","03","14","17:00"
"-59.19","55.08","MAKKOVIK A","8502588","2018-03-14 18:00","2018","03","14","18:00"
"-59.19","55.08","MAKKOVIK A","8502588","2018-03-14 19:00","2018","03","14","19:00"
"-59.19","55.08","MAKKOVIK A","8502588","2018-03-14 20:00","2018","03","14","20:00"
"-59.19","55.08","MAKKOVIK A","8502588","2018-03-14 21:00","2018","03","14","21:00"
"-59.19","55.08","MAKKOVIK A","8502588","2018-03-14 22:00","2018","03","14","22:00"
"-59.19","55.08","MAKKOVIK A","8502588","2018-03-14 23:00","2018","03","14","23:00"
"-59.19","55.08","MAKKOVIK A","8502588","2018-03-15 00:00","2018","03","15","00:00"
"-59.19","55.08","MAKKOVIK A","8502588","2018-03-15 01:00","2018","03","15","01:00"
"-59.19","55.08","MAKKOVIK A","8502588","2018-03-15 02:00","2018","03","15","02:00"
"-59.19","55.08","MAKKOVIK A","8502588","2018-03-15 03:00","2018","03","15","03:00"
"-59.19","55.08","MAKKOVIK A","8502588","2018-03-15 04:00","2018","03","15","04:00"
"-59.19","55.08","MAKKOVIK A","8502588","2018-03-15 05:00","2018","03","15","05:00","-2.8","","-3.5","","95","","","","11","","34","","2.4","","99.26","","","","-11","","Snow"
"-59.19","55.08","MAKKOVIK A","8502588","2018-03-15 06:00","2018","03","15","06:00","-2.3","","-3.1","","94","","","","11","","26","","4.0","","99.24","","","","-9","","Snow"
"-59.19","55.08","MAKKOVIK A","8502588","2018-03-15 07:00","2018","03","15","07:00","-2.4","","-2.9","","96","","","","14","","19","","6.4","","99.14","","","","-8","","Snow"
"-59.19","55.08","MAKKOVIK A","8502588","2018-03-15 08:00","2018","03","15","08:00","-2.0","","-3.1","","92","","","","11","","19","","24.1","","99.12","","","","-8","","Mainly Clear"
"-59.19","55.08","MAKKOVIK A","8502588","2018-03-15 09:00","2018","03","15","09:00","-1.4","","-3.5","","86","","","","14","","20","","24.1","","99.20","","","","-7","","NA"
"-59.19","55.08","MAKKOVIK A","8502588","2018-03-15 10:00","2018","03","15","10:00","-0.6","","-3.6","","80","","","","13","","9","","24.1","","99.15","","","","-4","","NA"
"-59.19","55.08","MAKKOVIK A","8502588","2018-03-15 11:00","2018","03","15","11:00","0.1","","-3.5","","76","","","","13","","10","","24.1","","99.11","","","","","","Mainly Clear"
"-59.19","55.08","MAKKOVIK A","8502588","2018-03-15 12:00","2018","03","15","12:00","0.8","","-3.7","","72","","","","13","","17","","24.1","","99.01","","","","","","NA"
"-59.19","55.08","MAKKOVIK A","8502588","2018-03-15 13:00","2018","03","15","13:00","0.8","","-3.5","","73","","","","11","","13","","24.1","","98.93","","","","","","NA"
"-59.19","55.08","MAKKOVIK A","8502588","2018-03-15 14:00","2018","03","15","14:00","0.1","","-3.6","","76","","","","4","","13","","24.1","","98.78","","","","","","Mostly Cloudy"
"-59.19","55.08","MAKKOVIK A","8502588","2018-03-15 15:00","2018","03","15","15:00","-0.9","","-2.9","","86","","","","9","","24","","24.1","","98.69","","","","-7","","NA"
"-59.19","55.08","MAKKOVIK A","8502588","2018-03-15 16:00","2018","03","15","16:00","-1.0","","-1.9","","93","","","","9","","27","","2.4","","98.58","","","","-7","","Snow"
"-59.19","55.08","MAKKOVIK A","8502588","2018-03-15 17:00","2018","03","15","17:00"
"-59.19","55.08","MAKKOVIK A","8502588","2018-03-15 18:00","2018","03","15","18:00"
"-59.19","55.08","MAKKOVIK A","8502588","2018-03-15 19:00","2018","03","15","19:00"
"-59.19","55.08","MAKKOVIK A","8502588","2018-03-15 20:00","2018","03","15","20:00"
"-59.19","55.08","MAKKOVIK A","8502588","2018-03-15 21:00","2018","03","15","21:00"
"-59.19","55.08","MAKKOVIK A","8502588","2018-03-15 22:00","2018","03","15","22:00"
"-59.19","55.08","MAKKOVIK A","8502588","2018-03-15 23:00","2018","03","15","23:00"
"-59.19","55.08","MAKKOVIK A","8502588","2018-03-16 00:00","2018","03","16","00:00"
"-59.19","55.08","MAKKOVIK A","8502588","2018-03-16 01:00","2018","03","16","01:00"
"-59.19","55.08","MAKKOVIK A","8502588","2018-03-16 02:00","2018","03","16","02:00"
"-59.19","55.08","MAKKOVIK A","8502588","2018-03-16 03:00","2018","03","16","03:00"
"-59.19","55.08","MAKKOVIK A","8502588","2018-03-16 04:00","2018","03","16","04:00"
"-59.19","55.08","MAKKOVIK A","8502588","2018-03-16 05:00","2018","03","16","05:00","-1.8","","-3.2","","90","","","","21","","11","","24.1","","96.96","","","","-6","","Mostly Cloudy"
"-59.19","55.08","MAKKOVIK A","8502588","2018-03-16 06:00","2018","03","16","06:00","-1.2","","-3.6","","84","","","","21","","17","","24.1","","97.00","","","","-6","","NA"
"-59.19","55.08","MAKKOVIK A","8502588","2018-03-16 07:00","2018","03","16","07:00","-0.9","","-3.9","","80","","","","21","","14","","24.1","","97.05","","","","-5","","NA"
"-59.19","55.08","MAKKOVIK A","8502588","2018-03-16 08:00","2018","03","16","08:00","-1.5","","-4.7","","79","","","","18","","28","","24.1","","97.11","","","","-8","","Mostly Cloudy"
"-59.19","55.08","MAKKOVIK A","8502588","2018-03-16 09:00","2018","03","16","09:00","-0.9","","-5.4","","72","","","","17","","27","","24.1","","97.10","","","","-7","","NA"
"-59.19","55.08","MAKKOVIK A","8502588","2018-03-16 10:00","2018","03","16","10:00","0.2","","-5.6","","65","","","","15","","16","","24.1","","97.16","","","","","","NA"
"-59.19","55.08","MAKKOVIK A","8502588","2018-03-16 11:00","2018","03","16","11:00","0.3","","-4.8","","69","","","","14","","20","","24.1","","97.15","","","","","","Mainly Clear"
"-59.19","55.08","MAKKOVIK A","8502588","2018-03-16 12:00","2018","03","16","12:00","0.5","","-5.0","","67","","","","15","","28","","24.1","","97.14","","","","","","NA"
"-59.19","55.08","MAKKOVIK A","8502588","2018-03-16 13:00","2018","03","16","13:00","0.5","","-5.2","","66","","","","13","","22","","24.1","","97.16","","","","","","NA"
"-59.19","55.08","MAKKOVIK A","8502588","2018-03-16 14:00","2018","03","16","14:00","-0.3","","-4.0","","76","","","","11","","32","","24.1","","97.12","","","","-7","","Mostly Cloudy"
"-59.19","55.08","MAKKOVIK A","8502588","2018-03-16 15:00","2018","03","16","15:00","0.1","","-3.0","","80","","","","11","","20","","24.1","","97.18","","","","","","NA"
"-59.19","55.08","MAKKOVIK A","8502588","2018-03-16 16:00","2018","03","16","16:00","-0.4","","-2.9","","83","","","","10","","22","","24.1","","97.25","","","","-6","","NA"
"-59.19","55.08","MAKKOVIK A","8502588","2018-03-16 17:00","2018","03","16","17:00"
"-59.19","55.08","MAKKOVIK A","8502588","2018-03-16 18:00","2018","03","16","18:00"
"-59.19","55.08","MAKKOVIK A","8502588","2018-03-16 19:00","2018","03","16","19:00"
"-59.19","55.08","MAKKOVIK A","8502588","2018-03-16 20:00","2018","03","16","20:00"
"-59.19","55.08","MAKKOVIK A","8502588","2018-03-16 21:00","2018","03","16","21:00"
"-59.19","55.08","MAKKOVIK A","8502588","2018-03-16 22:00","2018","03","16","22:00"
"-59.19","55.08","MAKKOVIK A","8502588","2018-03-16 23:00","2018","03","16","23:00"
"-59.19","55.08","MAKKOVIK A","8502588","2018-03-17 00:00","2018","03","17","00:00"
"-59.19","55.08","MAKKOVIK A","8502588","2018-03-17 01:00","2018","03","17","01:00"
"-59.19","55.08","MAKKOVIK A","8502588","2018-03-17 02:00","2018","03","17","02:00"
"-59.19","55.08","MAKKOVIK A","8502588","2018-03-17 03:00","2018","03","17","03:00"
"-59.19","55.08","MAKKOVIK A","8502588","2018-03-17 04:00","2018","03","17","04:00"
"-59.19","55.08","MAKKOVIK A","8502588","2018-03-17 05:00","2018","03","17","05:00","-3.5","","-6.2","","81","","","","11","","13","","24.1","","97.82","","","","-8","","Mostly Cloudy"
"-59.19","55.08","MAKKOVIK A","8502588","2018-03-17 06:00","2018","03","17","06:00","-3.6","","-6.1","","83","","","","14","","18","","24.1","","97.83","","","","-9","","NA"
"-59.19","55.08","MAKKOVIK A","8502588","2018-03-17 07:00","2018","03","17","07:00","-4.3","","-5.6","","91","","","","11","","13","","24.1","","97.88","","","","-9","","NA"
"-59.19","55.08","MAKKOVIK A","8502588","2018-03-17 08:00","2018","03","17","08:00","-4.0","","-5.2","","92","","","","6","","8","","24.1","","97.92","","","","-7","","Mostly Cloudy"
"-59.19","55.08","MAKKOVIK A","8502588","2018-03-17 09:00","2018","03","17","09:00","-3.1","","-3.9","","95","","","","10","","20","","16.1","","97.97","","","","-9","","Snow"
"-59.19","55.08","MAKKOVIK A","8502588","2018-03-17 10:00","2018","03","17","10:00","-2.7","","-3.9","","91","","","","6","","7","","8.1","","97.97","","","","-6","","Snow"
"-59.19","55.08","MAKKOVIK A","8502588","2018-03-17 11:00","2018","03","17","11:00","-2.1","","-3.2","","93","","","","2","","8","","4.8","","97.95","","","","-5","","Snow"
"-59.19","55.08","MAKKOVIK A","8502588","2018-03-17 12:00","2018","03","17","12:00","-1.6","","-2.7","","92","","","","3","","12","","4.8","","97.94","","","","-6","","Snow"
"-59.19","55.08","MAKKOVIK A","8502588","2018-03-17 13:00","2018","03","17","13:00","-1.6","","-2.4","","95","","","","3","","8","","1.2","","97.95","","","","-5","","Snow"
"-59.19","55.08","MAKKOVIK A","8502588","2018-03-17 14:00","2018","03","17","14:00","-1.2","","-2.1","","93","","","","1","","5","","1.6","","97.97","","","","-3","","Snow"
"-59.19","55.08","MAKKOVIK A","8502588","2018-03-17 15:00","2018","03","17","15:00","-1.2","","-2.5","","91","","","","29","","3","","24.1","","98.00","","","","-2","","NA"
"-59.19","55.08","MAKKOVIK A","8502588","2018-03-17 16:00","2018","03","17","16:00"
"-59.19","55.08","MAKKOVIK A","8502588","2018-03-17 17:00","2018","03","17","17:00"
"-59.19","55.08","MAKKOVIK A","8502588","2018-03-17 18:00","2018","03","17","18:00"
"-59.19","55.08","MAKKOVIK A","8502588","2018-03-17 19:00","2018","03","17","19:00"
"-59.19","55.08","MAKKOVIK A","8502588","2018-03-17 20:00","2018","03","17","20:00"
"-59.19","55.08","MAKKOVIK A","8502588","2018-03-17 21:00","2018","03","17","21:00"
"-59.19","55.08","MAKKOVIK A","8502588","2018-03-17 22:00","2018","03","17","22:00"
"-59.19","55.08","MAKKOVIK A","8502588","2018-03-17 23:00","2018","03","17","23:00"
"-59.19","55.08","MAKKOVIK A","8502588","2018-03-18 00:00","2018","03","18","00:00"
"-59.19","55.08","MAKKOVIK A","8502588","2018-03-18 01:00","2018","03","18","01:00"
"-59.19","55.08","MAKKOVIK A","8502588","2018-03-18 02:00","2018","03","18","02:00"
"-59.19","55.08","MAKKOVIK A","8502588","2018-03-18 03:00","2018","03","18","03:00"
"-59.19","55.08","MAKKOVIK A","8502588","2018-03-18 04:00","2018","03","18","04:00"
"-59.19","55.08","MAKKOVIK A","8502588","2018-03-18 05:00","2018","03","18","05:00","-3.8","","-4.2","","97","","","","30","","14","","2.4","","98.36","","","","-9","","Snow"
"-59.19","55.08","MAKKOVIK A","8502588","2018-03-18 06:00","2018","03","18","06:00","-3.1","","-3.5","","97","","","","24","","4","","2.4","","98.35","","","","-5","","Snow"
"-59.19","55.08","MAKKOVIK A","8502588","2018-03-18 07:00","2018","03","18","07:00","-2.0","","-2.2","","98","","","","34","","18","","1.6","","98.31","","","","-7","","Snow,Fog"
"-59.19","55.08","MAKKOVIK A","8502588","2018-03-18 08:00","2018","03","18","08:00","-1.2","","-1.4","","99","","","","35","","25","","0.8","","98.30","","","","-7","","Freezing Drizzle,Snow,Freezing Fog"
"-59.19","55.08","MAKKOVIK A","8502588","2018-03-18 09:00","2018","03","18","09:00","-0.6","","-0.7","","99","","","","35","","28","","0.8","","98.28","","","","-7","","Freezing Drizzle,Snow,Freezing Fog"
"-59.19","55.08","MAKKOVIK A","8502588","2018-03-18 10:00","2018","03","18","10:00","-0.2","","-0.3","","99","","","","34","","27","","1.2","","98.22","","","","-6","","Freezing Drizzle,Snow,Fog"
"-59.19","55.08","MAKKOVIK A","8502588","2018-03-18 11:00","2018","03","18","11:00","-0.1","","-0.1","","99","","","","35","","33","","1.2","","98.16","","","","-7","","Freezing Drizzle,Snow,Fog"
"-59.19","55.08","MAKKOVIK A","8502588","2018-03-18 12:00","2018","03","18","12:00","0.1","","0.0","","99","","","","34","","34","","2.4","","98.09","","","","","","Drizzle,Snow,Fog"
"-59.19","55.08","MAKKOVIK A","8502588","2018-03-18 13:00","2018","03","18","13:00","0.1","","0.0","","99","","","","34","","30","","1.6","","98.02","","","","","","Drizzle,Snow,Fog"
"-59.19","55.08","MAKKOVIK A","8502588","2018-03-18 14:00","2018","03","18","14:00","0.2","","0.1","","99","","","","35","","30","","2.0","","97.98","","","","","","Drizzle,Snow,Fog"
"-59.19","55.08","MAKKOVIK A","8502588","2018-03-18 15:00","2018","03","18","15:00","0.0","","-0.1","","100","","","","35","","37","","2.0","","97.92","","","","-7","","Drizzle,Fog"
"-59.19","55.08","MAKKOVIK A","8502588","2018-03-18 16:00","2018","03","18","16:00","-0.2","","-0.2","","100","","","","35","","36","","2.0","","97.88","","","","-7","","Snow,Fog"
"-59.19","55.08","MAKKOVIK A","8502588","2018-03-18 17:00","2018","03","18","17:00"
"-59.19","55.08","MAKKOVIK A","8502588","2018-03-18 18:00","2018","03","18","18:00"
"-59.19","55.08","MAKKOVIK A","8502588","2018-03-18 19:00","2018","03","18","19:00"
"-59.19","55.08","MAKKOVIK A","8502588","2018-03-18 20:00","2018","03","18","20:00"
"-59.19","55.08","MAKKOVIK A","8502588","2018-03-18 21:00","2018","03","18","21:00"
"-59.19","55.08","MAKKOVIK A","8502588","2018-03-18 22:00","2018","03","18","22:00"
"-59.19","55.08","MAKKOVIK A","8502588","2018-03-18 23:00","2018","03","18","23:00"
"-59.19","55.08","MAKKOVIK A","8502588","2018-03-19 00:00","2018","03","19","00:00"
"-59.19","55.08","MAKKOVIK A","8502588","2018-03-19 01:00","2018","03","19","01:00"
"-59.19","55.08","MAKKOVIK A","8502588","2018-03-19 02:00","2018","03","19","02:00"
"-59.19","55.08","MAKKOVIK A","8502588","2018-03-19 03:00","2018","03","19","03:00"
"-59.19","55.08","MAKKOVIK A","8502588","2018-03-19 04:00","2018","03","19","04:00"
"-59.19","55.08","MAKKOVIK A","8502588","2018-03-19 05:00","2018","03","19","05:00","-0.9","","-1.7","","94","","","","32","","46","","1.2","","97.49","","","","-9","","Snow,Blowing Snow"
"-59.19","55.08","MAKKOVIK A","8502588","2018-03-19 06:00","2018","03","19","06:00","-0.9","","-1.0","","99","","","","32","","41","","1.2","","97.47","","","","-9","","Snow,Blowing Snow"
"-59.19","55.08","MAKKOVIK A","8502588","2018-03-19 07:00","2018","03","19","07:00","-0.9","","-1.6","","95","","","","32","","37","","1.2","","97.46","","","","-8","","Snow,Blowing Snow"
"-59.19","55.08","MAKKOVIK A","8502588","2018-03-19 08:00","2018","03","19","08:00","-0.2","","-0.3","","99","","","","35","","36","","1.2","","97.46","","","","-7","","Snow,Blowing Snow"
"-59.19","55.08","MAKKOVIK A","8502588","2018-03-19 09:00","2018","03","19","09:00","0.0","","-0.1","","99","","","","35","","31","","1.2","","97.45","","","","-7","","Snow,Blowing Snow"
"-59.19","55.08","MAKKOVIK A","8502588","2018-03-19 10:00","2018","03","19","10:00","0.3","","0.2","","99","","","","36","","27","","2.0","","97.50","","","","","","Drizzle,Snow,Fog"
"-59.19","55.08","MAKKOVIK A","8502588","2018-03-19 11:00","2018","03","19","11:00","0.2","","-0.1","","98","","","","2","","22","","2.0","","97.57","","","","","","Drizzle,Fog"
"-59.19","55.08","MAKKOVIK A","8502588","2018-03-19 12:00","2018","03","19","12:00","-0.2","","-0.4","","99","","","","2","","17","","0.4","","97.64","","","","-5","","Freezing Drizzle,Freezing Fog"
"-59.19","55.08","MAKKOVIK A","8502588","2018-03-19 13:00","2018","03","19","13:00","0.1","","0.0","","99","","","","34","","18","","0.4","","97.65","","","","","","Drizzle,Fog"
"-59.19","55.08","MAKKOVIK A","8502588","2018-03-19 14:00","2018","03","19","14:00","-1.1","","-1.8","","95","","","","33","","50","","0.8","","97.65","","","","-10","","Freezing Drizzle,Freezing Fog"
"-59.19","55.08","MAKKOVIK A","8502588","2018-03-19 15:00","2018","03","19","15:00","-3.0","","-3.5","","96","","","","30","","36","","0.8","","97.64","","","","-11","","Snow,Blowing Snow"
"-59.19","55.08","MAKKOVIK A","8502588","2018-03-19 16:00","2018","03","19","16:00","-4.7","","-5.2","","96","","","","30","","41","","0.8","","97.55","","","","-14","","Snow,Blowing Snow"
"-59.19","55.08","MAKKOVIK A","8502588","2018-03-19 17:00","2018","03","19","17:00"
"-59.19","55.08","MAKKOVIK A","8502588","2018-03-19 18:00","2018","03","19","18:00"
"-59.19","55.08","MAKKOVIK A","8502588","2018-03-19 19:00","2018","03","19","19:00"
"-59.19","55.08","MAKKOVIK A","8502588","2018-03-19 20:00","2018","03","19","20:00"
"-59.19","55.08","MAKKOVIK A","8502588","2018-03-19 21:00","2018","03","19","21:00"
"-59.19","55.08","MAKKOVIK A","8502588","2018-03-19 22:00","2018","03","19","22:00"
"-59.19","55.08","MAKKOVIK A","8502588","2018-03-19 23:00","2018","03","19","23:00"
"-59.19","55.08","MAKKOVIK A","8502588","2018-03-20 00:00","2018","03","20","00:00"
"-59.19","55.08","MAKKOVIK A","8502588","2018-03-20 01:00","2018","03","20","01:00"
"-59.19","55.08","MAKKOVIK A","8502588","2018-03-20 02:00","2018","03","20","02:00"
"-59.19","55.08","MAKKOVIK A","8502588","2018-03-20 03:00","2018","03","20","03:00"
"-59.19","55.08","MAKKOVIK A","8502588","2018-03-20 04:00","2018","03","20","04:00"
"-59.19","55.08","MAKKOVIK A","8502588","2018-03-20 05:00","2018","03","20","05:00","-3.8","","-4.9","","92","","","","32","","47","","19.3","","98.14","","","","-13","","Blowing Snow"
"-59.19","55.08","MAKKOVIK A","8502588","2018-03-20 06:00","2018","03","20","06:00","-3.8","","-4.8","","93","","","","32","","46","","4.0","","98.20","","","","-13","","Snow,Blowing Snow"
"-59.19","55.08","MAKKOVIK A","8502588","2018-03-20 07:00","2018","03","20","07:00","-3.8","","-4.5","","94","","","","33","","43","","2.4","","98.29","","","","-13","","Snow,Blowing Snow"
"-59.19","55.08","MAKKOVIK A","8502588","2018-03-20 08:00","2018","03","20","08:00","-4.1","","-5.1","","93","","","","33","","57","","2.4","","98.33","","","","-14","","Freezing Drizzle,Snow,Blowing Snow"
"-59.19","55.08","MAKKOVIK A","8502588","2018-03-20 09:00","2018","03","20","09:00","-5.2","","-6.1","","93","","","","32","","45","","1.6","","98.47","","","","-15","","Snow,Blowing Snow"
"-59.19","55.08","MAKKOVIK A","8502588","2018-03-20 10:00","2018","03","20","10:00","-5.7","","-6.7","","93","","","","28","","32","","2.4","","98.60","","","","-14","","Freezing Drizzle,Snow,Blowing Snow"
"-59.19","55.08","MAKKOVIK A","8502588","2018-03-20 11:00","2018","03","20","11:00","-5.7","","-7.0","","91","","","","29","","35","","2.4","","98.64","","","","-14","","Freezing Drizzle,Snow,Blowing Snow"
"-59.19","55.08","MAKKOVIK A","8502588","2018-03-20 12:00","2018","03","20","12:00","-5.7","","-6.9","","91","","","","29","","32","","1.6","","98.71","","","","-14","","Snow,Blowing Snow"
"-59.19","55.08","MAKKOVIK A","8502588","2018-03-20 13:00","2018","03","20","13:00","-5.6","","-6.9","","91","","","","28","","31","","1.2","","98.77","","","","-14","","Snow,Blowing Snow"
"-59.19","55.08","MAKKOVIK A","8502588","2018-03-20 14:00","2018","03","20","14:00","-5.8","","-7.3","","90","","","","28","","28","","1.2","","98.83","","","","-14","","Snow,Blowing Snow"
"-59.19","55.08","MAKKOVIK A","8502588","2018-03-20 15:00","2018","03","20","15:00","-5.8","","-6.9","","92","","","","28","","34","","1.2","","98.91","","","","-15","","Snow,Blowing Snow"
"-59.19","55.08","MAKKOVIK A","8502588","2018-03-20 16:00","2018","03","20","16:00","-6.1","","-7.0","","94","","","","29","","34","","1.6","","99.02","","","","-15","","Snow,Blowing Snow"
"-59.19","55.08","MAKKOVIK A","8502588","2018-03-20 17:00","2018","03","20","17:00"
"-59.19","55.08","MAKKOVIK A","8502588","2018-03-20 18:00","2018","03","20","18:00"
"-59.19","55.08","MAKKOVIK A","8502588","2018-03-20 19:00","2018","03","20","19:00"
"-59.19","55.08","MAKKOVIK A","8502588","2018-03-20 20:00","2018","03","20","20:00"
"-59.19","55.08","MAKKOVIK A","8502588","2018-03-20 21:00","2018","03","20","21:00"
"-59.19","55.08","MAKKOVIK A","8502588","2018-03-20 22:00","2018","03","20","22:00"
"-59.19","55.08","MAKKOVIK A","8502588","2018-03-20 23:00","2018","03","20","23:00"
"-59.19","55.08","MAKKOVIK A","8502588","2018-03-21 00:00","2018","03","21","00:00"
"-59.19","55.08","MAKKOVIK A","8502588","2018-03-21 01:00","2018","03","21","01:00"
"-59.19","55.08","MAKKOVIK A","8502588","2018-03-21 02:00","2018","03","21","02:00"
"-59.19","55.08","MAKKOVIK A","8502588","2018-03-21 03:00","2018","03","21","03:00"
"-59.19","55.08","MAKKOVIK A","8502588","2018-03-21 04:00","2018","03","21","04:00"
"-59.19","55.08","MAKKOVIK A","8502588","2018-03-21 05:00","2018","03","21","05:00","-6.5","","-7.2","","95","","","","31","","45","","1.2","","99.68","","","","-17","","Snow,Blowing Snow"
"-59.19","55.08","MAKKOVIK A","8502588","2018-03-21 06:00","2018","03","21","06:00","-6.4","","-7.0","","95","","","","31","","36","","1.2","","99.84","","","","-16","","Snow,Blowing Snow"
"-59.19","55.08","MAKKOVIK A","8502588","2018-03-21 07:00","2018","03","21","07:00","-6.3","","-7.0","","94","","","","29","","34","","4.8","","100.01","","","","-15","","Snow,Blowing Snow"
"-59.19","55.08","MAKKOVIK A","8502588","2018-03-21 08:00","2018","03","21","08:00","-6.3","","-7.1","","94","","","","30","","37","","4.8","","100.14","","","","-16","","Snow,Blowing Snow"
"-59.19","55.08","MAKKOVIK A","8502588","2018-03-21 09:00","2018","03","21","09:00","-5.9","","-6.8","","93","","","","30","","41","","4.8","","100.28","","","","-15","","Freezing Drizzle,Snow,Blowing Snow"
"-59.19","55.08","MAKKOVIK A","8502588","2018-03-21 10:00","2018","03","21","10:00","-5.6","","-6.6","","93","","","","30","","35","","4.8","","100.39","","","","-14","","Freezing Drizzle"
"-59.19","55.08","MAKKOVIK A","8502588","2018-03-21 11:00","2018","03","21","11:00","-5.6","","-6.9","","91","","","","30","","32","","11.3","","100.51","","","","-14","","Freezing Drizzle"
"-59.19","55.08","MAKKOVIK A","8502588","2018-03-21 12:00","2018","03","21","12:00","-5.6","","-7.1","","89","","","","31","","41","","11.3","","100.60","","","","-15","","Fog"
"-59.19","55.08","MAKKOVIK A","8502588","2018-03-21 13:00","2018","03","21","13:00","-5.5","","-7.0","","89","","","","30","","34","","12.9","","100.71","","","","-14","","Freezing Drizzle,Fog"
"-59.19","55.08","MAKKOVIK A","8502588","2018-03-21 14:00","2018","03","21","14:00","-5.5","","-7.2","","88","","","","30","","31","","4.8","","100.83","","","","-14","","Snow"
"-59.19","55.08","MAKKOVIK A","8502588","2018-03-21 15:00","2018","03","21","15:00","-6.0","","-7.5","","89","","","","31","","31","","2.8","","100.90","","","","-14","","Snow"
"-59.19","55.08","MAKKOVIK A","8502588","2018-03-21 16:00","2018","03","21","16:00","-5.4","","-7.7","","84","","","","28","","18","","24.1","","101.00","","","","-12","","NA"
"-59.19","55.08","MAKKOVIK A","8502588","2018-03-21 17:00","2018","03","21","17:00"
"-59.19","55.08","MAKKOVIK A","8502588","2018-03-21 18:00","2018","03","21","18:00"
"-59.19","55.08","MAKKOVIK A","8502588","2018-03-21 19:00","2018","03","21","19:00"
"-59.19","55.08","MAKKOVIK A","8502588","2018-03-21 20:00","2018","03","21","20:00"
"-59.19","55.08","MAKKOVIK A","8502588","2018-03-21 21:00","2018","03","21","21:00"
"-59.19","55.08","MAKKOVIK A","8502588","2018-03-21 22:00","2018","03","21","22:00"
"-59.19","55.08","MAKKOVIK A","8502588","2018-03-21 23:00","2018","03","21","23:00"
"-59.19","55.08","MAKKOVIK A","8502588","2018-03-22 00:00","2018","03","22","00:00"
"-59.19","55.08","MAKKOVIK A","8502588","2018-03-22 01:00","2018","03","22","01:00"
"-59.19","55.08","MAKKOVIK A","8502588","2018-03-22 02:00","2018","03","22","02:00"
"-59.19","55.08","MAKKOVIK A","8502588","2018-03-22 03:00","2018","03","22","03:00"
"-59.19","55.08","MAKKOVIK A","8502588","2018-03-22 04:00","2018","03","22","04:00"
"-59.19","55.08","MAKKOVIK A","8502588","2018-03-22 05:00","2018","03","22","05:00","-6.1","","-9.4","","78","","","","29","","16","","24.1","","101.62","","","","-12","","Mostly Cloudy"
"-59.19","55.08","MAKKOVIK A","8502588","2018-03-22 06:00","2018","03","22","06:00","-7.5","","-9.6","","85","","","","30","","16","","24.1","","101.65","","","","-14","","NA"
"-59.19","55.08","MAKKOVIK A","8502588","2018-03-22 07:00","2018","03","22","07:00","-8.1","","-10.1","","86","","","","6","","5","","24.1","","101.71","","","","-11","","NA"
"-59.19","55.08","MAKKOVIK A","8502588","2018-03-22 08:00","2018","03","22","08:00","-7.2","","-9.8","","82","","","","28","","10","","24.1","","101.74","","","","-12","","Mostly Cloudy"
"-59.19","55.08","MAKKOVIK A","8502588","2018-03-22 09:00","2018","03","22","09:00","-6.3","","-9.8","","76","","","","29","","11","","24.1","","101.81","","","","-11","","NA"
"-59.19","55.08","MAKKOVIK A","8502588","2018-03-22 10:00","2018","03","22","10:00","-5.7","","-9.4","","75","","","","22","","9","","19.3","","101.82","","","","-10","","Snow"
"-59.19","55.08","MAKKOVIK A","8502588","2018-03-22 11:00","2018","03","22","11:00","-5.2","","-8.9","","76","","","","23","","6","","24.1","","101.79","","","","-8","","Snow"
"-59.19","55.08","MAKKOVIK A","8502588","2018-03-22 12:00","2018","03","22","12:00","-4.5","","-8.6","","73","","","","31","","4","","24.1","","101.74","","","","-6","","NA"
"-59.19","55.08","MAKKOVIK A","8502588","2018-03-22 13:00","2018","03","22","13:00","-4.2","","-8.4","","73","","","","9","","7","","24.1","","101.72","","","","-7","","NA"
"-59.19","55.08","MAKKOVIK A","8502588","2018-03-22 14:00","2018","03","22","14:00","-4.1","","-8.3","","73","","","","36","","2","","24.1","","101.74","","","","-5","","Mainly Clear"
"-59.19","55.08","MAKKOVIK A","8502588","2018-03-22 15:00","2018","03","22","15:00","-3.7","","-7.9","","73","","","","36","","2","","24.1","","101.73","","","","-5","","NA"
"-59.19","55.08","MAKKOVIK A","8502588","2018-03-22 16:00","2018","03","22","16:00","-4.2","","-8.0","","75","","","","36","","2","","24.1","","101.74","","","","-5","","NA"
"-59.19","55.08","MAKKOVIK A","8502588","2018-03-22 17:00","2018","03","22","17:00"
"-59.19","55.08","MAKKOVIK A","8502588","2018-03-22 18:00","2018","03","22","18:00"
"-59.19","55.08","MAKKOVIK A","8502588","2018-03-22 19:00","2018","03","22","19:00"
"-59.19","55.08","MAKKOVIK A","8502588","2018-03-22 20:00","2018","03","22","20:00"
"-59.19","55.08","MAKKOVIK A","8502588","2018-03-22 21:00","2018","03","22","21:00"
"-59.19","55.08","MAKKOVIK A","8502588","2018-03-22 22:00","2018","03","22","22:00"
"-59.19","55.08","MAKKOVIK A","8502588","2018-03-22 23:00","2018","03","22","23:00"
"-59.19","55.08","MAKKOVIK A","8502588","2018-03-23 00:00","2018","03","23","00:00"
"-59.19","55.08","MAKKOVIK A","8502588","2018-03-23 01:00","2018","03","23","01:00"
"-59.19","55.08","MAKKOVIK A","8502588","2018-03-23 02:00","2018","03","23","02:00"
"-59.19","55.08","MAKKOVIK A","8502588","2018-03-23 03:00","2018","03","23","03:00"
"-59.19","55.08","MAKKOVIK A","8502588","2018-03-23 04:00","2018","03","23","04:00"
"-59.19","55.08","MAKKOVIK A","8502588","2018-03-23 05:00","2018","03","23","05:00","-8.0","","-8.7","","95","","","","35","","3","","24.1","","101.23","","","","-10","","Cloudy"
"-59.19","55.08","MAKKOVIK A","8502588","2018-03-23 06:00","2018","03","23","06:00","-7.7","","-8.6","","94","","","","17","","4","","24.1","","101.21","","","","-10","","NA"
"-59.19","55.08","MAKKOVIK A","8502588","2018-03-23 07:00","2018","03","23","07:00","-7.7","","-8.5","","94","","","","36","","2","","24.1","","101.20","","","","-9","","NA"
"-59.19","55.08","MAKKOVIK A","8502588","2018-03-23 08:00","2018","03","23","08:00","-7.1","","-8.3","","92","","","","36","","1","","24.1","","101.16","","","","-8","","Snow"
"-59.19","55.08","MAKKOVIK A","8502588","2018-03-23 09:00","2018","03","23","09:00","-6.6","","-8.0","","90","","","","30","","5","","24.1","","101.11","","","","-9","","Snow"
"-59.19","55.08","MAKKOVIK A","8502588","2018-03-23 10:00","2018","03","23","10:00","-5.7","","-7.2","","90","","","","32","","7","","24.1","","101.08","","","","-9","","Snow"
"-59.19","55.08","MAKKOVIK A","8502588","2018-03-23 11:00","2018","03","23","11:00","-6.4","","-8.0","","89","","","","32","","13","","19.3","","101.04","","","","-12","","Snow"
"-59.19","55.08","MAKKOVIK A","8502588","2018-03-23 12:00","2018","03","23","12:00","-4.9","","-7.1","","85","","","","33","","7","","24.1","","101.00","","","","-8","","Snow Showers"
"-59.19","55.08","MAKKOVIK A","8502588","2018-03-23 13:00","2018","03","23","13:00","-3.4","","-7.0","","76","","","","2","","17","","24.1","","100.97","","","","-9","","NA"
"-59.19","55.08","MAKKOVIK A","8502588","2018-03-23 14:00","2018","03","23","14:00","-3.8","","-5.8","","86","","","","35","","14","","8.1","","100.95","","","","-9","","Snow"
"-59.19","55.08","MAKKOVIK A","8502588","2018-03-23 15:00","2018","03","23","15:00","-3.7","","-4.8","","92","","","","2","","15","","2.4","","100.96","","","","-9","","Snow"
"-59.19","55.08","MAKKOVIK A","8502588","2018-03-23 16:00","2018","03","23","16:00","-4.2","","-5.4","","91","","","","2","","22","","3.2","","100.99","","","","-11","","Snow"
"-59.19","55.08","MAKKOVIK A","8502588","2018-03-23 17:00","2018","03","23","17:00"
"-59.19","55.08","MAKKOVIK A","8502588","2018-03-23 18:00","2018","03","23","18:00"
"-59.19","55.08","MAKKOVIK A","8502588","2018-03-23 19:00","2018","03","23","19:00"
"-59.19","55.08","MAKKOVIK A","8502588","2018-03-23 20:00","2018","03","23","20:00"
"-59.19","55.08","MAKKOVIK A","8502588","2018-03-23 21:00","2018","03","23","21:00"
"-59.19","55.08","MAKKOVIK A","8502588","2018-03-23 22:00","2018","03","23","22:00"
"-59.19","55.08","MAKKOVIK A","8502588","2018-03-23 23:00","2018","03","23","23:00"
"-59.19","55.08","MAKKOVIK A","8502588","2018-03-24 00:00","2018","03","24","00:00"
"-59.19","55.08","MAKKOVIK A","8502588","2018-03-24 01:00","2018","03","24","01:00"
"-59.19","55.08","MAKKOVIK A","8502588","2018-03-24 02:00","2018","03","24","02:00"
"-59.19","55.08","MAKKOVIK A","8502588","2018-03-24 03:00","2018","03","24","03:00"
"-59.19","55.08","MAKKOVIK A","8502588","2018-03-24 04:00","2018","03","24","04:00"
"-59.19","55.08","MAKKOVIK A","8502588","2018-03-24 05:00","2018","03","24","05:00","-12.1","","-13.7","","88","","","","30","","29","","24.1","","101.68","","","","-22","","Snow Showers"
"-59.19","55.08","MAKKOVIK A","8502588","2018-03-24 06:00","2018","03","24","06:00","-12.9","","-14.5","","88","","","","30","","40","","6.4","","101.78","","","","-25","","Snow Showers,Blowing Snow"
"-59.19","55.08","MAKKOVIK A","8502588","2018-03-24 07:00","2018","03","24","07:00","-13.0","","-14.8","","87","","","","30","","35","","9.7","","101.87","","","","-24","","Snow Showers,Blowing Snow"
"-59.19","55.08","MAKKOVIK A","8502588","2018-03-24 08:00","2018","03","24","08:00","-13.4","","-15.3","","86","","","","28","","28","","8.1","","101.97","","","","-24","","Snow Showers,Blowing Snow"
"-59.19","55.08","MAKKOVIK A","8502588","2018-03-24 09:00","2018","03","24","09:00","-13.2","","-15.5","","83","","","","27","","12","","9.7","","102.11","","","","-20","","Snow,Snow Showers,Blowing Snow"
"-59.19","55.08","MAKKOVIK A","8502588","2018-03-24 10:00","2018","03","24","10:00","-13.1","","-15.7","","81","","","","29","","26","","16.1","","102.18","","","","-23","","Snow Showers,Blowing Snow"
"-59.19","55.08","MAKKOVIK A","8502588","2018-03-24 11:00","2018","03","24","11:00","-13.3","","-15.8","","81","","","","28","","25","","11.3","","102.21","","","","-23","","Snow Showers,Blowing Snow"
"-59.19","55.08","MAKKOVIK A","8502588","2018-03-24 12:00","2018","03","24","12:00","-12.4","","-15.2","","80","","","","29","","22","","16.1","","102.23","","","","-21","","Snow Showers,Blowing Snow"
"-59.19","55.08","MAKKOVIK A","8502588","2018-03-24 13:00","2018","03","24","13:00","-12.2","","-15.1","","79","","","","30","","34","","16.1","","102.25","","","","-23","","Snow Showers"
"-59.19","55.08","MAKKOVIK A","8502588","2018-03-24 14:00","2018","03","24","14:00","-11.9","","-15.1","","77","","","","31","","30","","19.3","","102.31","","","","-22","","Snow Showers"
"-59.19","55.08","MAKKOVIK A","8502588","2018-03-24 15:00","2018","03","24","15:00","-12.4","","-16.1","","75","","","","31","","18","","24.1","","102.35","","","","-20","","NA"
"-59.19","55.08","MAKKOVIK A","8502588","2018-03-24 16:00","2018","03","24","16:00","-12.8","","-17.6","","68","","","","31","","18","","24.1","","102.38","","","","-21","","NA"
"-59.19","55.08","MAKKOVIK A","8502588","2018-03-24 17:00","2018","03","24","17:00"
"-59.19","55.08","MAKKOVIK A","8502588","2018-03-24 18:00","2018","03","24","18:00"
"-59.19","55.08","MAKKOVIK A","8502588","2018-03-24 19:00","2018","03","24","19:00"
"-59.19","55.08","MAKKOVIK A","8502588","2018-03-24 20:00","2018","03","24","20:00"
"-59.19","55.08","MAKKOVIK A","8502588","2018-03-24 21:00","2018","03","24","21:00"
"-59.19","55.08","MAKKOVIK A","8502588","2018-03-24 22:00","2018","03","24","22:00"
"-59.19","55.08","MAKKOVIK A","8502588","2018-03-24 23:00","2018","03","24","23:00"
"-59.19","55.08","MAKKOVIK A","8502588","2018-03-25 00:00","2018","03","25","00:00"
"-59.19","55.08","MAKKOVIK A","8502588","2018-03-25 01:00","2018","03","25","01:00"
"-59.19","55.08","MAKKOVIK A","8502588","2018-03-25 02:00","2018","03","25","02:00"
"-59.19","55.08","MAKKOVIK A","8502588","2018-03-25 03:00","2018","03","25","03:00"
"-59.19","55.08","MAKKOVIK A","8502588","2018-03-25 04:00","2018","03","25","04:00"
"-59.19","55.08","MAKKOVIK A","8502588","2018-03-25 05:00","2018","03","25","05:00","-18.0","","-23.5","","63","","","","23","","26","","24.1","","102.38","","","","-29","","Clear"
"-59.19","55.08","MAKKOVIK A","8502588","2018-03-25 06:00","2018","03","25","06:00","-16.7","","-23.4","","57","","","","25","","36","","24.1","","102.34","","","","-29","","NA"
"-59.19","55.08","MAKKOVIK A","8502588","2018-03-25 07:00","2018","03","25","07:00","-16.2","","-23.1","","56","","","","24","","29","","24.1","","102.34","","","","-27","","NA"
"-59.19","55.08","MAKKOVIK A","8502588","2018-03-25 08:00","2018","03","25","08:00","-15.5","","-22.4","","56","","","","23","","34","","24.1","","102.33","","","","-27","","Mainly Clear"
"-59.19","55.08","MAKKOVIK A","8502588","2018-03-25 09:00","2018","03","25","09:00","-12.9","","-20.9","","52","","","","24","","39","","24.1","","102.31","","","","-25","","NA"
"-59.19","55.08","MAKKOVIK A","8502588","2018-03-25 10:00","2018","03","25","10:00","-10.4","","-19.4","","48","","","","24","","36","","24.1","","102.30","","","","-21","","NA"
"-59.19","55.08","MAKKOVIK A","8502588","2018-03-25 11:00","2018","03","25","11:00","-8.1","","-19.4","","40","","","","28","","40","","24.1","","102.29","","","","-18","","Mainly Clear"
"-59.19","55.08","MAKKOVIK A","8502588","2018-03-25 12:00","2018","03","25","12:00","-7.3","","-19.0","","39","","","","28","","43","","24.1","","102.30","","","","-17","","NA"
"-59.19","55.08","MAKKOVIK A","8502588","2018-03-25 13:00","2018","03","25","13:00","-6.9","","-17.9","","41","","","","29","","35","","24.1","","102.27","","","","-16","","NA"
"-59.19","55.08","MAKKOVIK A","8502588","2018-03-25 14:00","2018","03","25","14:00","-6.6","","-17.8","","41","","","","27","","39","","24.1","","102.28","","","","-16","","Mainly Clear"
"-59.19","55.08","MAKKOVIK A","8502588","2018-03-25 15:00","2018","03","25","15:00","-6.4","","-17.2","","42","","","","25","","30","","24.1","","102.25","","","","-15","","NA"
"-59.19","55.08","MAKKOVIK A","8502588","2018-03-25 16:00","2018","03","25","16:00","-6.9","","-17.5","","43","","","","25","","28","","24.1","","102.29","","","","-15","","NA"
"-59.19","55.08","MAKKOVIK A","8502588","2018-03-25 17:00","2018","03","25","17:00"
"-59.19","55.08","MAKKOVIK A","8502588","2018-03-25 18:00","2018","03","25","18:00"
"-59.19","55.08","MAKKOVIK A","8502588","2018-03-25 19:00","2018","03","25","19:00"
"-59.19","55.08","MAKKOVIK A","8502588","2018-03-25 20:00","2018","03","25","20:00"
"-59.19","55.08","MAKKOVIK A","8502588","2018-03-25 21:00","2018","03","25","21:00"
"-59.19","55.08","MAKKOVIK A","8502588","2018-03-25 22:00","2018","03","25","22:00"
"-59.19","55.08","MAKKOVIK A","8502588","2018-03-25 23:00","2018","03","25","23:00"
"-59.19","55.08","MAKKOVIK A","8502588","2018-03-26 00:00","2018","03","26","00:00"
"-59.19","55.08","MAKKOVIK A","8502588","2018-03-26 01:00","2018","03","26","01:00"
"-59.19","55.08","MAKKOVIK A","8502588","2018-03-26 02:00","2018","03","26","02:00"
"-59.19","55.08","MAKKOVIK A","8502588","2018-03-26 03:00","2018","03","26","03:00"
"-59.19","55.08","MAKKOVIK A","8502588","2018-03-26 04:00","2018","03","26","04:00"
"-59.19","55.08","MAKKOVIK A","8502588","2018-03-26 05:00","2018","03","26","05:00","-8.4","","-16.0","","55","","","","23","","33","","24.1","","102.08","","","","-18","","Mainly Clear"
"-59.19","55.08","MAKKOVIK A","8502588","2018-03-26 06:00","2018","03","26","06:00","-8.9","","-16.9","","53","","","","23","","27","","24.1","","102.13","","","","-18","","Blowing Snow"
"-59.19","55.08","MAKKOVIK A","8502588","2018-03-26 07:00","2018","03","26","07:00","-8.7","","-16.7","","53","","","","22","","35","","24.1","","102.15","","","","-18","","Blowing Snow"
"-59.19","55.08","MAKKOVIK A","8502588","2018-03-26 08:00","2018","03","26","08:00","-7.2","","-16.5","","48","","","","25","","32","","24.1","","102.15","","","","-16","","Blowing Snow"
"-59.19","55.08","MAKKOVIK A","8502588","2018-03-26 09:00","2018","03","26","09:00","-6.2","","-15.1","","50","","","","25","","30","","24.1","","102.20","","","","-15","","Blowing Snow"
"-59.19","55.08","MAKKOVIK A","8502588","2018-03-26 10:00","2018","03","26","10:00","-4.9","","-13.5","","51","","","","24","","32","","24.1","","102.17","","","","-13","","Blowing Snow"
"-59.19","55.08","MAKKOVIK A","8502588","2018-03-26 11:00","2018","03","26","11:00","-2.4","","-11.1","","52","","","","24","","28","","24.1","","102.14","","","","-9","","Blowing Snow"
"-59.19","55.08","MAKKOVIK A","8502588","2018-03-26 12:00","2018","03","26","12:00","-1.9","","-11.3","","49","","","","24","","33","","24.1","","102.09","","","","-9","","NA"
"-59.19","55.08","MAKKOVIK A","8502588","2018-03-26 13:00","2018","03","26","13:00","-0.5","","-10.9","","46","","","","24","","31","","24.1","","102.02","","","","-7","","Blowing Snow"
"-59.19","55.08","MAKKOVIK A","8502588","2018-03-26 14:00","2018","03","26","14:00","0.9","","-8.9","","48","","","","24","","30","","24.1","","101.91","","","","","","Mainly Clear"
"-59.19","55.08","MAKKOVIK A","8502588","2018-03-26 15:00","2018","03","26","15:00","1.6","","-8.5","","47","","","","26","","37","","24.1","","101.87","","","","","","NA"
"-59.19","55.08","MAKKOVIK A","8502588","2018-03-26 16:00","2018","03","26","16:00","1.5","","-9.0","","46","","","","26","","26","","24.1","","101.80","","","","","","NA"
"-59.19","55.08","MAKKOVIK A","8502588","2018-03-26 17:00","2018","03","26","17:00"
"-59.19","55.08","MAKKOVIK A","8502588","2018-03-26 18:00","2018","03","26","18:00"
"-59.19","55.08","MAKKOVIK A","8502588","2018-03-26 19:00","2018","03","26","19:00"
"-59.19","55.08","MAKKOVIK A","8502588","2018-03-26 20:00","2018","03","26","20:00"
"-59.19","55.08","MAKKOVIK A","8502588","2018-03-26 21:00","2018","03","26","21:00"
"-59.19","55.08","MAKKOVIK A","8502588","2018-03-26 22:00","2018","03","26","22:00"
"-59.19","55.08","MAKKOVIK A","8502588","2018-03-26 23:00","2018","03","26","23:00"
"-59.19","55.08","MAKKOVIK A","8502588","2018-03-27 00:00","2018","03","27","00:00"
"-59.19","55.08","MAKKOVIK A","8502588","2018-03-27 01:00","2018","03","27","01:00"
"-59.19","55.08","MAKKOVIK A","8502588","2018-03-27 02:00","2018","03","27","02:00"
"-59.19","55.08","MAKKOVIK A","8502588","2018-03-27 03:00","2018","03","27","03:00"
"-59.19","55.08","MAKKOVIK A","8502588","2018-03-27 04:00","2018","03","27","04:00"
"-59.19","55.08","MAKKOVIK A","8502588","2018-03-27 05:00","2018","03","27","05:00","0.2","","-7.0","","59","","","","26","","37","","24.1","","101.76","","","","","","Mainly Clear"
"-59.19","55.08","MAKKOVIK A","8502588","2018-03-27 06:00","2018","03","27","06:00","-0.4","","-7.4","","60","","","","25","","35","","24.1","","101.83","","","","-7","","NA"
"-59.19","55.08","MAKKOVIK A","8502588","2018-03-27 07:00","2018","03","27","07:00","-1.0","","-7.5","","62","","","","21","","19","","24.1","","101.96","","","","-6","","NA"
"-59.19","55.08","MAKKOVIK A","8502588","2018-03-27 08:00","2018","03","27","08:00","0.1","","-7.2","","58","","","","25","","32","","24.1","","101.96","","","","","","Mainly Clear"
"-59.19","55.08","MAKKOVIK A","8502588","2018-03-27 09:00","2018","03","27","09:00","0.7","","-6.6","","58","","","","26","","24","","24.1","","102.08","","","","","","NA"
"-59.19","55.08","MAKKOVIK A","8502588","2018-03-27 10:00","2018","03","27","10:00","1.4","","-6.0","","58","","","","26","","30","","24.1","","102.10","","","","","","NA"
"-59.19","55.08","MAKKOVIK A","8502588","2018-03-27 11:00","2018","03","27","11:00","2.1","","-5.5","","57","","","","27","","32","","24.1","","102.10","","","","","","Mainly Clear"
"-59.19","55.08","MAKKOVIK A","8502588","2018-03-27 12:00","2018","03","27","12:00","2.5","","-5.2","","57","","","","27","","25","","24.1","","102.09","","","","","","NA"
"-59.19","55.08","MAKKOVIK A","8502588","2018-03-27 13:00","2018","03","27","13:00","2.9","","-4.9","","57","","","","27","","25","","24.1","","102.09","","","","","","NA"
"-59.19","55.08","MAKKOVIK A","8502588","2018-03-27 14:00","2018","03","27","14:00","3.4","","-4.9","","54","","","","27","","16","","24.1","","102.06","","","","","","Mainly Clear"
"-59.19","55.08","MAKKOVIK A","8502588","2018-03-27 15:00","2018","03","27","15:00","3.7","","-4.9","","54","","","","28","","18","","24.1","","102.05","","","","","","NA"
"-59.19","55.08","MAKKOVIK A","8502588","2018-03-27 16:00","2018","03","27","16:00","3.2","","-4.4","","57","","","","25","","13","","24.1","","102.05","","","","","","NA"
"-59.19","55.08","MAKKOVIK A","8502588","2018-03-27 17:00","2018","03","27","17:00"
"-59.19","55.08","MAKKOVIK A","8502588","2018-03-27 18:00","2018","03","27","18:00"
"-59.19","55.08","MAKKOVIK A","8502588","2018-03-27 19:00","2018","03","27","19:00"
"-59.19","55.08","MAKKOVIK A","8502588","2018-03-27 20:00","2018","03","27","20:00"
"-59.19","55.08","MAKKOVIK A","8502588","2018-03-27 21:00","2018","03","27","21:00"
"-59.19","55.08","MAKKOVIK A","8502588","2018-03-27 22:00","2018","03","27","22:00"
"-59.19","55.08","MAKKOVIK A","8502588","2018-03-27 23:00","2018","03","27","23:00"
"-59.19","55.08","MAKKOVIK A","8502588","2018-03-28 00:00","2018","03","28","00:00"
"-59.19","55.08","MAKKOVIK A","8502588","2018-03-28 01:00","2018","03","28","01:00"
"-59.19","55.08","MAKKOVIK A","8502588","2018-03-28 02:00","2018","03","28","02:00"
"-59.19","55.08","MAKKOVIK A","8502588","2018-03-28 03:00","2018","03","28","03:00"
"-59.19","55.08","MAKKOVIK A","8502588","2018-03-28 04:00","2018","03","28","04:00"
"-59.19","55.08","MAKKOVIK A","8502588","2018-03-28 05:00","2018","03","28","05:00","1.8","","-9.9","","42","","","","24","","15","","24.1","","101.35","","","","","","Mainly Clear"
"-59.19","55.08","MAKKOVIK A","8502588","2018-03-28 06:00","2018","03","28","06:00","1.4","","-11.5","","38","","","","21","","13","","24.1","","101.32","","","","","","NA"
"-59.19","55.08","MAKKOVIK A","8502588","2018-03-28 07:00","2018","03","28","07:00","0.8","","-11.4","","40","","","","36","","1","","24.1","","101.31","","","","","","NA"
"-59.19","55.08","MAKKOVIK A","8502588","2018-03-28 08:00","2018","03","28","08:00","1.8","","-12.5","","34","","","","23","","28","","24.1","","101.25","","","","","","Mainly Clear"
"-59.19","55.08","MAKKOVIK A","8502588","2018-03-28 09:00","2018","03","28","09:00","2.9","","-12.3","","32","","","","22","","10","","24.1","","101.24","","","","","","NA"
"-59.19","55.08","MAKKOVIK A","8502588","2018-03-28 10:00","2018","03","28","10:00","4.5","","-12.8","","27","","","","23","","24","","24.1","","101.18","","","","","","NA"
"-59.19","55.08","MAKKOVIK A","8502588","2018-03-28 11:00","2018","03","28","11:00","6.2","","-12.6","","25","","","","21","","31","","24.1","","101.08","","","","","","Mostly Cloudy"
"-59.19","55.08","MAKKOVIK A","8502588","2018-03-28 12:00","2018","03","28","12:00","6.6","","-12.5","","24","","","","18","","22","","24.1","","101.05","","","","","","NA"
"-59.19","55.08","MAKKOVIK A","8502588","2018-03-28 13:00","2018","03","28","13:00","7.0","","-12.3","","24","","","","18","","10","","24.1","","101.01","","","","","","NA"
"-59.19","55.08","MAKKOVIK A","8502588","2018-03-28 14:00","2018","03","28","14:00","6.5","","-9.4","","31","","","","22","","24","","24.1","","100.93","","","","","","Mainly Clear"
"-59.19","55.08","MAKKOVIK A","8502588","2018-03-28 15:00","2018","03","28","15:00","6.6","","-11.0","","27","","","","22","","15","","24.1","","100.92","","","","","","NA"
"-59.19","55.08","MAKKOVIK A","8502588","2018-03-28 16:00","2018","03","28","16:00","5.9","","-10.3","","30","","","","21","","9","","24.1","","100.95","","","","","","NA"
"-59.19","55.08","MAKKOVIK A","8502588","2018-03-28 17:00","2018","03","28","17:00"
"-59.19","55.08","MAKKOVIK A","8502588","2018-03-28 18:00","2018","03","28","18:00"
"-59.19","55.08","MAKKOVIK A","8502588","2018-03-28 19:00","2018","03","28","19:00"
"-59.19","55.08","MAKKOVIK A","8502588","2018-03-28 20:00","2018","03","28","20:00"
"-59.19","55.08","MAKKOVIK A","8502588","2018-03-28 21:00","2018","03","28","21:00"
"-59.19","55.08","MAKKOVIK A","8502588","2018-03-28 22:00","2018","03","28","22:00"
"-59.19","55.08","MAKKOVIK A","8502588","2018-03-28 23:00","2018","03","28","23:00"
"-59.19","55.08","MAKKOVIK A","8502588","2018-03-29 00:00","2018","03","29","00:00"
"-59.19","55.08","MAKKOVIK A","8502588","2018-03-29 01:00","2018","03","29","01:00"
"-59.19","55.08","MAKKOVIK A","8502588","2018-03-29 02:00","2018","03","29","02:00"
"-59.19","55.08","MAKKOVIK A","8502588","2018-03-29 03:00","2018","03","29","03:00"
"-59.19","55.08","MAKKOVIK A","8502588","2018-03-29 04:00","2018","03","29","04:00"
"-59.19","55.08","MAKKOVIK A","8502588","2018-03-29 05:00","2018","03","29","05:00","0.8","","-2.8","","77","","","","35","","3","","24.1","","100.64","","","","","","Mostly Cloudy"
"-59.19","55.08","MAKKOVIK A","8502588","2018-03-29 06:00","2018","03","29","06:00","-0.6","","-3.0","","84","","","","34","","3","","24.1","","100.62","","","","-2","","NA"
"-59.19","55.08","MAKKOVIK A","8502588","2018-03-29 07:00","2018","03","29","07:00","-0.6","","-3.0","","83","","","","11","","4","","24.1","","100.63","","","","-2","","NA"
"-59.19","55.08","MAKKOVIK A","8502588","2018-03-29 08:00","2018","03","29","08:00","-0.3","","-2.7","","84","","","","33","","8","","24.1","","100.58","","","","-3","","Mostly Cloudy"
"-59.19","55.08","MAKKOVIK A","8502588","2018-03-29 09:00","2018","03","29","09:00","0.9","","-2.8","","77","","","","33","","8","","24.1","","100.59","","","","","","NA"
"-59.19","55.08","MAKKOVIK A","8502588","2018-03-29 10:00","2018","03","29","10:00","0.9","","-2.4","","78","","","","31","","6","","24.1","","100.63","","","","","","NA"
"-59.19","55.08","MAKKOVIK A","8502588","2018-03-29 11:00","2018","03","29","11:00","0.7","","-2.4","","80","","","","32","","8","","24.1","","100.61","","","","","","Mostly Cloudy"
"-59.19","55.08","MAKKOVIK A","8502588","2018-03-29 12:00","2018","03","29","12:00","0.9","","-2.4","","79","","","","32","","4","","24.1","","100.58","","","","","","NA"
"-59.19","55.08","MAKKOVIK A","8502588","2018-03-29 13:00","2018","03","29","13:00","1.1","","-2.3","","78","","","","29","","10","","24.1","","100.54","","","","","","NA"
"-59.19","55.08","MAKKOVIK A","8502588","2018-03-29 14:00","2018","03","29","14:00","0.9","","-2.2","","80","","","","31","","10","","24.1","","100.50","","","","","","Mostly Cloudy"
"-59.19","55.08","MAKKOVIK A","8502588","2018-03-29 15:00","2018","03","29","15:00","0.1","","-1.9","","87","","","","32","","14","","24.1","","100.50","","","","","","NA"
"-59.19","55.08","MAKKOVIK A","8502588","2018-03-29 16:00","2018","03","29","16:00","0.4","","-2.2","","83","","","","31","","8","","24.1","","100.51","","","","","","NA"
"-59.19","55.08","MAKKOVIK A","8502588","2018-03-29 17:00","2018","03","29","17:00"
"-59.19","55.08","MAKKOVIK A","8502588","2018-03-29 18:00","2018","03","29","18:00"
"-59.19","55.08","MAKKOVIK A","8502588","2018-03-29 19:00","2018","03","29","19:00"
"-59.19","55.08","MAKKOVIK A","8502588","2018-03-29 20:00","2018","03","29","20:00"
"-59.19","55.08","MAKKOVIK A","8502588","2018-03-29 21:00","2018","03","29","21:00"
"-59.19","55.08","MAKKOVIK A","8502588","2018-03-29 22:00","2018","03","29","22:00"
"-59.19","55.08","MAKKOVIK A","8502588","2018-03-29 23:00","2018","03","29","23:00"
"-59.19","55.08","MAKKOVIK A","8502588","2018-03-30 00:00","2018","03","30","00:00"
"-59.19","55.08","MAKKOVIK A","8502588","2018-03-30 01:00","2018","03","30","01:00"
"-59.19","55.08","MAKKOVIK A","8502588","2018-03-30 02:00","2018","03","30","02:00"
"-59.19","55.08","MAKKOVIK A","8502588","2018-03-30 03:00","2018","03","30","03:00"
"-59.19","55.08","MAKKOVIK A","8502588","2018-03-30 04:00","2018","03","30","04:00"
"-59.19","55.08","MAKKOVIK A","8502588","2018-03-30 05:00","2018","03","30","05:00","-3.0","","-3.3","","98","","","","36","","2","","24.1","","100.53","","","","-4","","Mostly Cloudy"
"-59.19","55.08","MAKKOVIK A","8502588","2018-03-30 06:00","2018","03","30","06:00","-2.6","","-2.8","","99","","","","36","","1","","24.1","","100.55","","","","-3","","NA"
"-59.19","55.08","MAKKOVIK A","8502588","2018-03-30 07:00","2018","03","30","07:00","-1.6","","-2.5","","93","","","","36","","1","","24.1","","100.56","","","","-2","","NA"
"-59.19","55.08","MAKKOVIK A","8502588","2018-03-30 08:00","2018","03","30","08:00","-1.3","","-2.8","","89","","","","32","","5","","24.1","","100.51","","","","-3","","Mostly Cloudy"
"-59.19","55.08","MAKKOVIK A","8502588","2018-03-30 09:00","2018","03","30","09:00","0.9","","-1.9","","82","","","","11","","9","","24.1","","100.43","","","","","","NA"
"-59.19","55.08","MAKKOVIK A","8502588","2018-03-30 10:00","2018","03","30","10:00","2.1","","-1.5","","77","","","","13","","18","","24.1","","100.42","","","","","","NA"
"-59.19","55.08","MAKKOVIK A","8502588","2018-03-30 11:00","2018","03","30","11:00","3.5","","-1.9","","68","","","","18","","16","","24.1","","100.38","","","","","","Cloudy"
"-59.19","55.08","MAKKOVIK A","8502588","2018-03-30 12:00","2018","03","30","12:00","2.9","","-1.4","","73","","","","12","","18","","24.1","","100.26","","","","","","NA"
"-59.19","55.08","MAKKOVIK A","8502588","2018-03-30 13:00","2018","03","30","13:00","3.5","","-1.5","","70","","","","13","","19","","24.1","","100.18","","","","","","NA"
"-59.19","55.08","MAKKOVIK A","8502588","2018-03-30 14:00","2018","03","30","14:00","2.9","","-1.4","","73","","","","11","","21","","24.1","","100.15","","","","","","Cloudy"
"-59.19","55.08","MAKKOVIK A","8502588","2018-03-30 15:00","2018","03","30","15:00","2.6","","-1.5","","74","","","","10","","18","","24.1","","100.11","","","","","","NA"
"-59.19","55.08","MAKKOVIK A","8502588","2018-03-30 16:00","2018","03","30","16:00","2.6","","-1.5","","74","","","","12","","19","","24.1","","100.05","","","","","","NA"
"-59.19","55.08","MAKKOVIK A","8502588","2018-03-30 17:00","2018","03","30","17:00"
"-59.19","55.08","MAKKOVIK A","8502588","2018-03-30 18:00","2018","03","30","18:00"
"-59.19","55.08","MAKKOVIK A","8502588","2018-03-30 19:00","2018","03","30","19:00"
"-59.19","55.08","MAKKOVIK A","8502588","2018-03-30 20:00","2018","03","30","20:00"
"-59.19","55.08","MAKKOVIK A","8502588","2018-03-30 21:00","2018","03","30","21:00"
"-59.19","55.08","MAKKOVIK A","8502588","2018-03-30 22:00","2018","03","30","22:00"
"-59.19","55.08","MAKKOVIK A","8502588","2018-03-30 23:00","2018","03","30","23:00"
"-59.19","55.08","MAKKOVIK A","8502588","2018-03-31 00:00","2018","03","31","00:00"
"-59.19","55.08","MAKKOVIK A","8502588","2018-03-31 01:00","2018","03","31","01:00"
"-59.19","55.08","MAKKOVIK A","8502588","2018-03-31 02:00","2018","03","31","02:00"
"-59.19","55.08","MAKKOVIK A","8502588","2018-03-31 03:00","2018","03","31","03:00"
"-59.19","55.08","MAKKOVIK A","8502588","2018-03-31 04:00","2018","03","31","04:00"
"-59.19","55.08","MAKKOVIK A","8502588","2018-03-31 05:00","2018","03","31","05:00","0.1","","-0.8","","94","","","","14","","18","","6.4","","99.32","","","","","","Snow"
"-59.19","55.08","MAKKOVIK A","8502588","2018-03-31 06:00","2018","03","31","06:00","0.1","","-0.8","","94","","","","16","","8","","6.4","","99.29","","","","","","Snow"
"-59.19","55.08","MAKKOVIK A","8502588","2018-03-31 07:00","2018","03","31","07:00","-0.1","","-0.4","","98","","","","36","","1","","4.0","","99.28","","","","0","","Snow"
"-59.19","55.08","MAKKOVIK A","8502588","2018-03-31 08:00","2018","03","31","08:00","0.1","","-0.2","","98","","","","14","","3","","2.4","","99.21","","","","","","Snow"
"-59.19","55.08","MAKKOVIK A","8502588","2018-03-31 09:00","2018","03","31","09:00","0.3","","0.0","","98","","","","36","","1","","2.8","","99.14","","","","","","Snow"
"-59.19","55.08","MAKKOVIK A","8502588","2018-03-31 10:00","2018","03","31","10:00","0.4","","0.1","","98","","","","0","","1","","4.8","","99.08","","","","","","Snow"
"-59.19","55.08","MAKKOVIK A","8502588","2018-03-31 11:00","2018","03","31","11:00","0.8","","0.4","","97","","","","36","","2","","4.0","","98.98","","","","","","Snow"
"-59.19","55.08","MAKKOVIK A","8502588","2018-03-31 12:00","2018","03","31","12:00","0.5","","0.1","","97","","","","30","","4","","3.2","","98.93","","","","","","Snow"
"-59.19","55.08","MAKKOVIK A","8502588","2018-03-31 13:00","2018","03","31","13:00","-2.0","","-2.4","","97","","","","34","","31","","1.2","","98.88","","","","-9","","Snow"
"-59.19","55.08","MAKKOVIK A","8502588","2018-03-31 14:00","2018","03","31","14:00","-4.2","","-5.6","","90","","","","33","","33","","2.4","","98.93","","","","-12","","Snow"
"-59.19","55.08","MAKKOVIK A","8502588","2018-03-31 15:00","2018","03","31","15:00","-4.6","","-5.9","","91","","","","32","","22","","2.8","","98.90","","","","-11","","Snow"
"-59.19","55.08","MAKKOVIK A","8502588","2018-03-31 16:00","2018","03","31","16:00","-5.6","","-6.9","","90","","","","33","","17","","4.8","","98.93","","","","-12","","Snow"
"-59.19","55.08","MAKKOVIK A","8502588","2018-03-31 17:00","2018","03","31","17:00"
"-59.19","55.08","MAKKOVIK A","8502588","2018-03-31 18:00","2018","03","31","18:00"
"-59.19","55.08","MAKKOVIK A","8502588","2018-03-31 19:00","2018","03","31","19:00"
"-59.19","55.08","MAKKOVIK A","8502588","2018-03-31 20:00","2018","03","31","20:00"
"-59.19","55.08","MAKKOVIK A","8502588","2018-03-31 21:00","2018","03","31","21:00"
"-59.19","55.08","MAKKOVIK A","8502588","2018-03-31 22:00","2018","03","31","22:00"
"-59.19","55.08","MAKKOVIK A","8502588","2018-03-31 23:00","2018","03","31","23:00"
