"Longitude (x)","Latitude (y)","Station Name","Climate ID","Date/Time (LST)","Year","Month","Day","Time (LST)","Temp (°C)","Temp Flag","Dew Point Temp (°C)","Dew Point Temp Flag","Rel Hum (%)","Rel Hum Flag","Precip. Amount (mm)","Precip. Amount Flag","Wind Dir (10s deg)","Wind Dir Flag","Wind Spd (km/h)","Wind Spd Flag","Visibility (km)","Visibility Flag","Stn Press (kPa)","Stn Press Flag","Hmdx","Hmdx Flag","Wind Chill","Wind Chill Flag","Weather"
"-59.19","55.08","MAKKOVIK A","8502588","2018-04-01 00:00","2018","04","01","00:00"
"-59.19","55.08","MAKKOVIK A","8502588","2018-04-01 01:00","2018","04","01","01:00"
"-59.19","55.08","MAKKOVIK A","8502588","2018-04-01 02:00","2018","04","01","02:00"
"-59.19","55.08","MAKKOVIK A","8502588","2018-04-01 03:00","2018","04","01","03:00"
"-59.19","55.08","MAKKOVIK A","8502588","2018-04-01 04:00","2018","04","01","04:00"
"-59.19","55.08","MAKKOVIK A","8502588","2018-04-01 05:00","2018","04","01","05:00","-15.0","","-17.3","","83","","","","24","","49","","1.2","","98.90","","","","-28","","Snow,Blowing Snow"
"-59.19","55.08","MAKKOVIK A","8502588","2018-04-01 06:00","2018","04","01","06:00","-15.4","","-17.7","","83","","","","24","","44","","1.2","","98.95","","","","-28","","Snow,Blowing Snow"
"-59.19","55.08","MAKKOVIK A","8502588","2018-04-01 07:00","2018","04","01","07:00","-15.8","","-18.1","","83","","","","23","","41","","1.2","","98.97","","","","-29","","Snow,Blowing Snow"
"-59.19","55.08","MAKKOVIK A","8502588","2018-04-01 08:00","2018","04","01","08:00","-15.3","","-17.8","","82","","","","25","","43","","1.2","","98.95","","","","-28","","Snow,Blowing Snow"
"-59.19","55.08","MAKKOVIK A","8502588","2018-04-01 09:00","2018","04","01","09:00","-15.1","","-17.8","","80","","","","25","","49","","1.2","","98.91","","","","-29","","Snow,Blowing Snow"
"-59.19","55.08","MAKKOVIK A","8502588","2018-04-01 10:00","2018","04","01","10:00","-14.5","","-17.6","","77","","","","23","","54","","1.2","","98.88","","","","-28","","Snow,Blowing Snow"
"-59.19","55.08","MAKKOVIK A","8502588","2018-04-01 11:00","2018","04","01","11:00","-13.1","","-16.8","","74","","","","24","","50","","1.2","","98.93","","","","-26","","Snow,Blowing Snow"
"-59.19","55.08","MAKKOVIK A","8502588","2018-04-01 12:00","2018","04","01","12:00","-11.8","","-16.0","","71","","","","24","","48","","2.4","","98.91","","","","-24","","Blowing Snow"
"-59.19","55.08","MAKKOVIK A","8502588","2018-04-01 13:00","2018","04","01","13:00","-10.9","","-15.5","","69","","","","25","","46","","8.1","","98.95","","","","-23","","Blowing Snow"
"-59.19","55.08","MAKKOVIK A","8502588","2018-04-01 14:00","2018","04","01","14:00","-9.8","","-15.2","","65","","","","25","","42","","8.1","","98.93","","","","-21","","Blowing Snow"
"-59.19","55.08","MAKKOVIK A","8502588","2018-04-01 15:00","2018","04","01","15:00","-10.0","","-16.6","","59","","","","25","","49","","12.9","","98.93","","","","-22","","Blowing Snow"
"-59.19","55.08","MAKKOVIK A","8502588","2018-04-01 16:00","2018","04","01","16:00","-9.4","","-16.3","","58","","","","26","","42","","19.3","","98.98","","","","-20","","Blowing Snow"
"-59.19","55.08","MAKKOVIK A","8502588","2018-04-01 17:00","2018","04","01","17:00"
"-59.19","55.08","MAKKOVIK A","8502588","2018-04-01 18:00","2018","04","01","18:00"
"-59.19","55.08","MAKKOVIK A","8502588","2018-04-01 19:00","2018","04","01","19:00"
"-59.19","55.08","MAKKOVIK A","8502588","2018-04-01 20:00","2018","04","01","20:00"
"-59.19","55.08","MAKKOVIK A","8502588","2018-04-01 21:00","2018","04","01","21:00"
"-59.19","55.08","MAKKOVIK A","8502588","2018-04-01 22:00","2018","04","01","22:00"
"-59.19","55.08","MAKKOVIK A","8502588","2018-04-01 23:00","2018","04","01","23:00"
"-59.19","55.08","MAKKOVIK A","8502588","2018-04-02 00:00","2018","04","02","00:00"
"-59.19","55.08","MAKKOVIK A","8502588","2018-04-02 01:00","2018","04","02","01:00"
"-59.19","55.08","MAKKOVIK A","8502588","2018-04-02 02:00","2018","04","02","02:00"
"-59.19","55.08","MAKKOVIK A","8502588","2018-04-02 03:00","2018","04","02","03:00"
"-59.19","55.08","MAKKOVIK A","8502588","2018-04-02 04:00","2018","04","02","04:00"
"-59.19","55.08","MAKKOVIK A","8502588","2018-04-02 05:00","2018","04","02","05:00","-14.5","","-21.1","","58","","","","24","","25","","24.1","","99.12","","","","-25","","Mainly Clear"
"-59.19","55.08","MAKKOVIK A","8502588","2018-04-02 06:00","2018","04","02","06:00","-15.3","","-21.0","","62","","","","24","","24","","24.1","","99.20","","","","-25","","NA"
"-59.19","55.08","MAKKOVIK A","8502588","2018-04-02 07:00","2018","04","02","07:00","-14.7","","-20.7","","61","","","","25","","36","","24.1","","99.26","","","","-27","","NA"
"-59.19","55.08","MAKKOVIK A","8502588","2018-04-02 08:00","2018","04","02","08:00","-13.9","","-20.4","","59","","","","25","","34","","24.1","","99.33","","","","-25","","Mainly Clear"
"-59.19","55.08","MAKKOVIK A","8502588","2018-04-02 09:00","2018","04","02","09:00","-12.7","","-19.9","","56","","","","23","","24","","24.1","","99.44","","","","-22","","NA"
"-59.19","55.08","MAKKOVIK A","8502588","2018-04-02 10:00","2018","04","02","10:00","-11.4","","-19.1","","54","","","","25","","29","","24.1","","99.53","","","","-21","","NA"
"-59.19","55.08","MAKKOVIK A","8502588","2018-04-02 11:00","2018","04","02","11:00","-10.0","","-18.5","","50","","","","27","","30","","24.1","","99.62","","","","-20","","Mostly Cloudy"
"-59.19","55.08","MAKKOVIK A","8502588","2018-04-02 12:00","2018","04","02","12:00","-9.0","","-17.7","","50","","","","28","","35","","24.1","","99.68","","","","-19","","NA"
"-59.19","55.08","MAKKOVIK A","8502588","2018-04-02 13:00","2018","04","02","13:00","-8.8","","-17.8","","48","","","","28","","38","","24.1","","99.77","","","","-19","","NA"
"-59.19","55.08","MAKKOVIK A","8502588","2018-04-02 14:00","2018","04","02","14:00","-9.0","","-17.9","","49","","","","27","","38","","24.1","","99.91","","","","-19","","Blowing Snow"
"-59.19","55.08","MAKKOVIK A","8502588","2018-04-02 15:00","2018","04","02","15:00","-8.8","","-18.0","","48","","","","27","","40","","24.1","","100.00","","","","-19","","Blowing Snow"
"-59.19","55.08","MAKKOVIK A","8502588","2018-04-02 16:00","2018","04","02","16:00","-9.0","","-17.9","","49","","","","27","","32","","24.1","","100.08","","","","-18","","Blowing Snow"
"-59.19","55.08","MAKKOVIK A","8502588","2018-04-02 17:00","2018","04","02","17:00"
"-59.19","55.08","MAKKOVIK A","8502588","2018-04-02 18:00","2018","04","02","18:00"
"-59.19","55.08","MAKKOVIK A","8502588","2018-04-02 19:00","2018","04","02","19:00"
"-59.19","55.08","MAKKOVIK A","8502588","2018-04-02 20:00","2018","04","02","20:00"
"-59.19","55.08","MAKKOVIK A","8502588","2018-04-02 21:00","2018","04","02","21:00"
"-59.19","55.08","MAKKOVIK A","8502588","2018-04-02 22:00","2018","04","02","22:00"
"-59.19","55.08","MAKKOVIK A","8502588","2018-04-02 23:00","2018","04","02","23:00"
"-59.19","55.08","MAKKOVIK A","8502588","2018-04-03 00:00","2018","04","03","00:00"
"-59.19","55.08","MAKKOVIK A","8502588","2018-04-03 01:00","2018","04","03","01:00"
"-59.19","55.08","MAKKOVIK A","8502588","2018-04-03 02:00","2018","04","03","02:00"
"-59.19","55.08","MAKKOVIK A","8502588","2018-04-03 03:00","2018","04","03","03:00"
"-59.19","55.08","MAKKOVIK A","8502588","2018-04-03 04:00","2018","04","03","04:00"
"-59.19","55.08","MAKKOVIK A","8502588","2018-04-03 05:00","2018","04","03","05:00","-15.1","","-22.3","","55","","","","25","","25","","24.1","","100.46","","","","-25","","Mainly Clear"
"-59.19","55.08","MAKKOVIK A","8502588","2018-04-03 06:00","2018","04","03","06:00","-14.1","","-21.8","","53","","","","25","","29","","24.1","","100.44","","","","-25","","NA"
"-59.19","55.08","MAKKOVIK A","8502588","2018-04-03 07:00","2018","04","03","07:00","-13.6","","-21.3","","53","","","","25","","31","","24.1","","100.44","","","","-24","","NA"
"-59.19","55.08","MAKKOVIK A","8502588","2018-04-03 08:00","2018","04","03","08:00","-12.4","","-20.1","","53","","","","26","","31","","24.1","","100.46","","","","-23","","Mostly Cloudy"
"-59.19","55.08","MAKKOVIK A","8502588","2018-04-03 09:00","2018","04","03","09:00","-11.2","","-20.4","","47","","","","27","","32","","24.1","","100.48","","","","-21","","NA"
"-59.19","55.08","MAKKOVIK A","8502588","2018-04-03 10:00","2018","04","03","10:00","-10.1","","-20.3","","43","","","","27","","30","","24.1","","100.50","","","","-20","","NA"
"-59.19","55.08","MAKKOVIK A","8502588","2018-04-03 11:00","2018","04","03","11:00","-8.7","","-19.8","","41","","","","28","","23","","24.1","","100.49","","","","-17","","Mainly Clear"
"-59.19","55.08","MAKKOVIK A","8502588","2018-04-03 12:00","2018","04","03","12:00","-8.3","","-20.1","","39","","","","29","","31","","24.1","","100.42","","","","-17","","NA"
"-59.19","55.08","MAKKOVIK A","8502588","2018-04-03 13:00","2018","04","03","13:00","-7.4","","-19.4","","38","","","","27","","26","","24.1","","100.37","","","","-16","","NA"
"-59.19","55.08","MAKKOVIK A","8502588","2018-04-03 14:00","2018","04","03","14:00","-6.6","","-20.2","","33","","","","28","","23","","24.1","","100.36","","","","-14","","Clear"
"-59.19","55.08","MAKKOVIK A","8502588","2018-04-03 15:00","2018","04","03","15:00","-5.9","","-19.0","","35","","","","28","","27","","24.1","","100.38","","","","-14","","NA"
"-59.19","55.08","MAKKOVIK A","8502588","2018-04-03 16:00","2018","04","03","16:00","-5.7","","-17.7","","39","","","","28","","16","","24.1","","100.38","","","","-12","","NA"
"-59.19","55.08","MAKKOVIK A","8502588","2018-04-03 17:00","2018","04","03","17:00"
"-59.19","55.08","MAKKOVIK A","8502588","2018-04-03 18:00","2018","04","03","18:00"
"-59.19","55.08","MAKKOVIK A","8502588","2018-04-03 19:00","2018","04","03","19:00"
"-59.19","55.08","MAKKOVIK A","8502588","2018-04-03 20:00","2018","04","03","20:00"
"-59.19","55.08","MAKKOVIK A","8502588","2018-04-03 21:00","2018","04","03","21:00"
"-59.19","55.08","MAKKOVIK A","8502588","2018-04-03 22:00","2018","04","03","22:00"
"-59.19","55.08","MAKKOVIK A","8502588","2018-04-03 23:00","2018","04","03","23:00"
"-59.19","55.08","MAKKOVIK A","8502588","2018-04-04 00:00","2018","04","04","00:00"
"-59.19","55.08","MAKKOVIK A","8502588","2018-04-04 01:00","2018","04","04","01:00"
"-59.19","55.08","MAKKOVIK A","8502588","2018-04-04 02:00","2018","04","04","02:00"
"-59.19","55.08","MAKKOVIK A","8502588","2018-04-04 03:00","2018","04","04","03:00"
"-59.19","55.08","MAKKOVIK A","8502588","2018-04-04 04:00","2018","04","04","04:00"
"-59.19","55.08","MAKKOVIK A","8502588","2018-04-04 05:00","2018","04","04","05:00","-19.0","","-24.8","","61","","","","25","","30","","24.1","","100.90","","","","-31","","Clear"
"-59.19","55.08","MAKKOVIK A","8502588","2018-04-04 06:00","2018","04","04","06:00","-19.2","","-25.6","","58","","","","25","","32","","24.1","","100.90","","","","-32","","NA"
"-59.19","55.08","MAKKOVIK A","8502588","2018-04-04 07:00","2018","04","04","07:00"
"-59.19","55.08","MAKKOVIK A","8502588","2018-04-04 08:00","2018","04","04","08:00","-17.9","","-25.7","","51","","","","25","","37","","24.1","","100.92","","","","-31","","Clear"
"-59.19","55.08","MAKKOVIK A","8502588","2018-04-04 09:00","2018","04","04","09:00","-17.2","","-25.8","","48","","","","27","","40","","24.1","","100.97","","","","-30","","NA"
"-59.19","55.08","MAKKOVIK A","8502588","2018-04-04 10:00","2018","04","04","10:00","-16.6","","-24.8","","50","","","","26","","42","","24.1","","100.95","","","","-30","","Blowing Snow"
"-59.19","55.08","MAKKOVIK A","8502588","2018-04-04 11:00","2018","04","04","11:00","-15.9","","-24.7","","48","","","","27","","42","","24.1","","100.91","","","","-29","","Blowing Snow"
"-59.19","55.08","MAKKOVIK A","8502588","2018-04-04 12:00","2018","04","04","12:00","-15.5","","-24.2","","48","","","","27","","43","","24.1","","100.86","","","","-28","","Blowing Snow"
"-59.19","55.08","MAKKOVIK A","8502588","2018-04-04 13:00","2018","04","04","13:00","-15.3","","-24.5","","46","","","","26","","42","","24.1","","100.85","","","","-28","","Blowing Snow"
"-59.19","55.08","MAKKOVIK A","8502588","2018-04-04 14:00","2018","04","04","14:00","-14.8","","-23.9","","47","","","","27","","32","","24.1","","100.83","","","","-26","","Blowing Snow"
"-59.19","55.08","MAKKOVIK A","8502588","2018-04-04 15:00","2018","04","04","15:00","-14.7","","-23.7","","47","","","","27","","33","","24.1","","100.81","","","","-26","","Blowing Snow"
"-59.19","55.08","MAKKOVIK A","8502588","2018-04-04 16:00","2018","04","04","16:00","-14.6","","-23.8","","46","","","","28","","27","","24.1","","100.83","","","","-25","","NA"
"-59.19","55.08","MAKKOVIK A","8502588","2018-04-04 17:00","2018","04","04","17:00"
"-59.19","55.08","MAKKOVIK A","8502588","2018-04-04 18:00","2018","04","04","18:00"
"-59.19","55.08","MAKKOVIK A","8502588","2018-04-04 19:00","2018","04","04","19:00"
"-59.19","55.08","MAKKOVIK A","8502588","2018-04-04 20:00","2018","04","04","20:00"
"-59.19","55.08","MAKKOVIK A","8502588","2018-04-04 21:00","2018","04","04","21:00"
"-59.19","55.08","MAKKOVIK A","8502588","2018-04-04 22:00","2018","04","04","22:00"
"-59.19","55.08","MAKKOVIK A","8502588","2018-04-04 23:00","2018","04","04","23:00"
"-59.19","55.08","MAKKOVIK A","8502588","2018-04-05 00:00","2018","04","05","00:00"
"-59.19","55.08","MAKKOVIK A","8502588","2018-04-05 01:00","2018","04","05","01:00"
"-59.19","55.08","MAKKOVIK A","8502588","2018-04-05 02:00","2018","04","05","02:00"
"-59.19","55.08","MAKKOVIK A","8502588","2018-04-05 03:00","2018","04","05","03:00"
"-59.19","55.08","MAKKOVIK A","8502588","2018-04-05 04:00","2018","04","05","04:00"
"-59.19","55.08","MAKKOVIK A","8502588","2018-04-05 05:00","2018","04","05","05:00","-18.1","","-25.8","","52","","","","10","","9","","24.1","","100.12","","","","-24","","Mainly Clear"
"-59.19","55.08","MAKKOVIK A","8502588","2018-04-05 06:00","2018","04","05","06:00","-17.1","","-24.0","","56","","","","9","","12","","24.1","","99.89","","","","-25","","NA"
"-59.19","55.08","MAKKOVIK A","8502588","2018-04-05 07:00","2018","04","05","07:00","-15.2","","-20.7","","63","","","","10","","26","","24.1","","99.77","","","","-26","","NA"
"-59.19","55.08","MAKKOVIK A","8502588","2018-04-05 08:00","2018","04","05","08:00","-13.5","","-18.9","","65","","","","9","","39","","16.1","","99.52","","","","-25","","Snow"
"-59.19","55.08","MAKKOVIK A","8502588","2018-04-05 09:00","2018","04","05","09:00","-13.1","","-16.2","","78","","","","7","","33","","2.4","","99.33","","","","-24","","Snow,Blowing Snow"
"-59.19","55.08","MAKKOVIK A","8502588","2018-04-05 10:00","2018","04","05","10:00","-12.2","","-14.5","","83","","","","7","","29","","1.6","","99.11","","","","-22","","Snow,Blowing Snow"
"-59.19","55.08","MAKKOVIK A","8502588","2018-04-05 11:00","2018","04","05","11:00","-11.7","","-13.5","","87","","","","6","","35","","1.2","","98.77","","","","-22","","Snow,Blowing Snow"
"-59.19","55.08","MAKKOVIK A","8502588","2018-04-05 12:00","2018","04","05","12:00","-10.4","","-11.9","","89","","","","5","","30","","1.0","","98.46","","","","-20","","Snow,Blowing Snow"
"-59.19","55.08","MAKKOVIK A","8502588","2018-04-05 13:00","2018","04","05","13:00","-8.1","","-9.4","","90","","","","5","","31","","1.2","","98.02","","","","-17","","Snow,Blowing Snow"
"-59.19","55.08","MAKKOVIK A","8502588","2018-04-05 14:00","2018","04","05","14:00","-4.8","","-6.0","","92","","","","7","","32","","1.0","","97.71","","","","-13","","Snow,Blowing Snow"
"-59.19","55.08","MAKKOVIK A","8502588","2018-04-05 15:00","2018","04","05","15:00","-3.4","","-4.4","","92","","","","9","","47","","2.4","","97.44","","","","-13","","Snow,Blowing Snow"
"-59.19","55.08","MAKKOVIK A","8502588","2018-04-05 16:00","2018","04","05","16:00","-2.4","","-3.3","","93","","","","9","","46","","2.4","","97.17","","","","-11","","Snow,Blowing Snow"
"-59.19","55.08","MAKKOVIK A","8502588","2018-04-05 17:00","2018","04","05","17:00"
"-59.19","55.08","MAKKOVIK A","8502588","2018-04-05 18:00","2018","04","05","18:00"
"-59.19","55.08","MAKKOVIK A","8502588","2018-04-05 19:00","2018","04","05","19:00"
"-59.19","55.08","MAKKOVIK A","8502588","2018-04-05 20:00","2018","04","05","20:00"
"-59.19","55.08","MAKKOVIK A","8502588","2018-04-05 21:00","2018","04","05","21:00"
"-59.19","55.08","MAKKOVIK A","8502588","2018-04-05 22:00","2018","04","05","22:00"
"-59.19","55.08","MAKKOVIK A","8502588","2018-04-05 23:00","2018","04","05","23:00"
"-59.19","55.08","MAKKOVIK A","8502588","2018-04-06 00:00","2018","04","06","00:00"
"-59.19","55.08","MAKKOVIK A","8502588","2018-04-06 01:00","2018","04","06","01:00"
"-59.19","55.08","MAKKOVIK A","8502588","2018-04-06 02:00","2018","04","06","02:00"
"-59.19","55.08","MAKKOVIK A","8502588","2018-04-06 03:00","2018","04","06","03:00"
"-59.19","55.08","MAKKOVIK A","8502588","2018-04-06 04:00","2018","04","06","04:00"
"-59.19","55.08","MAKKOVIK A","8502588","2018-04-06 05:00","2018","04","06","05:00","-17.1","","-23.2","","59","","","","27","","28","","24.1","","97.54","","","","-28","","Clear"
"-59.19","55.08","MAKKOVIK A","8502588","2018-04-06 06:00","2018","04","06","06:00","-17.4","","-22.7","","64","","","","22","","21","","24.1","","97.51","","","","-27","","NA"
"-59.19","55.08","MAKKOVIK A","8502588","2018-04-06 07:00","2018","04","06","07:00","-17.3","","-22.4","","65","","","","19","","32","","24.1","","97.45","","","","-29","","Blowing Snow"
"-59.19","55.08","MAKKOVIK A","8502588","2018-04-06 08:00","2018","04","06","08:00","-16.6","","-21.9","","64","","","","21","","41","","24.1","","97.39","","","","-30","","Blowing Snow"
"-59.19","55.08","MAKKOVIK A","8502588","2018-04-06 09:00","2018","04","06","09:00","-15.5","","-21.0","","63","","","","23","","45","","16.1","","97.39","","","","-29","","Blowing Snow"
"-59.19","55.08","MAKKOVIK A","8502588","2018-04-06 10:00","2018","04","06","10:00","-14.4","","-20.2","","62","","","","22","","36","","19.3","","97.40","","","","-26","","Blowing Snow"
"-59.19","55.08","MAKKOVIK A","8502588","2018-04-06 11:00","2018","04","06","11:00","-13.6","","-18.9","","65","","","","22","","40","","19.3","","97.37","","","","-26","","Blowing Snow"
"-59.19","55.08","MAKKOVIK A","8502588","2018-04-06 12:00","2018","04","06","12:00","-13.2","","-18.1","","67","","","","23","","42","","11.3","","97.35","","","","-25","","Blowing Snow"
"-59.19","55.08","MAKKOVIK A","8502588","2018-04-06 13:00","2018","04","06","13:00","-12.7","","-16.8","","72","","","","24","","41","","1.6","","97.38","","","","-24","","Blowing Snow"
"-59.19","55.08","MAKKOVIK A","8502588","2018-04-06 14:00","2018","04","06","14:00","-12.4","","-16.0","","75","","","","24","","42","","2.4","","97.39","","","","-24","","Blowing Snow"
"-59.19","55.08","MAKKOVIK A","8502588","2018-04-06 15:00","2018","04","06","15:00","-12.3","","-16.2","","73","","","","25","","55","","1.2","","97.37","","","","-25","","Blowing Snow"
"-59.19","55.08","MAKKOVIK A","8502588","2018-04-06 16:00","2018","04","06","16:00","-12.2","","-14.9","","80","","","","25","","53","","1.2","","97.48","","","","-25","","Blowing Snow"
"-59.19","55.08","MAKKOVIK A","8502588","2018-04-06 17:00","2018","04","06","17:00"
"-59.19","55.08","MAKKOVIK A","8502588","2018-04-06 18:00","2018","04","06","18:00"
"-59.19","55.08","MAKKOVIK A","8502588","2018-04-06 19:00","2018","04","06","19:00"
"-59.19","55.08","MAKKOVIK A","8502588","2018-04-06 20:00","2018","04","06","20:00"
"-59.19","55.08","MAKKOVIK A","8502588","2018-04-06 21:00","2018","04","06","21:00"
"-59.19","55.08","MAKKOVIK A","8502588","2018-04-06 22:00","2018","04","06","22:00"
"-59.19","55.08","MAKKOVIK A","8502588","2018-04-06 23:00","2018","04","06","23:00"
"-59.19","55.08","MAKKOVIK A","8502588","2018-04-07 00:00","2018","04","07","00:00"
"-59.19","55.08","MAKKOVIK A","8502588","2018-04-07 01:00","2018","04","07","01:00"
"-59.19","55.08","MAKKOVIK A","8502588","2018-04-07 02:00","2018","04","07","02:00"
"-59.19","55.08","MAKKOVIK A","8502588","2018-04-07 03:00","2018","04","07","03:00"
"-59.19","55.08","MAKKOVIK A","8502588","2018-04-07 04:00","2018","04","07","04:00"
"-59.19","55.08","MAKKOVIK A","8502588","2018-04-07 05:00","2018","04","07","05:00","-12.4","","-17.6","","65","","","","25","","37","","24.1","","98.53","","","","-24","","Mainly Clear"
"-59.19","55.08","MAKKOVIK A","8502588","2018-04-07 06:00","2018","04","07","06:00","-12.8","","-17.4","","69","","","","24","","40","","24.1","","98.55","","","","-25","","Blowing Snow"
"-59.19","55.08","MAKKOVIK A","8502588","2018-04-07 07:00","2018","04","07","07:00","-11.8","","-17.5","","63","","","","25","","47","","24.1","","98.58","","","","-24","","Blowing Snow"
"-59.19","55.08","MAKKOVIK A","8502588","2018-04-07 08:00","2018","04","07","08:00","-11.0","","-16.7","","63","","","","25","","48","","24.1","","98.59","","","","-23","","Blowing Snow"
"-59.19","55.08","MAKKOVIK A","8502588","2018-04-07 09:00","2018","04","07","09:00","-10.2","","-16.0","","63","","","","26","","43","","24.1","","98.62","","","","-21","","Blowing Snow"
"-59.19","55.08","MAKKOVIK A","8502588","2018-04-07 10:00","2018","04","07","10:00","-9.2","","-15.2","","62","","","","25","","46","","24.1","","98.64","","","","-20","","Blowing Snow"
"-59.19","55.08","MAKKOVIK A","8502588","2018-04-07 11:00","2018","04","07","11:00","-8.2","","-14.5","","61","","","","26","","44","","24.1","","98.66","","","","-19","","Blowing Snow"
"-59.19","55.08","MAKKOVIK A","8502588","2018-04-07 12:00","2018","04","07","12:00","-7.5","","-14.3","","59","","","","25","","48","","24.1","","98.69","","","","-18","","Blowing Snow"
"-59.19","55.08","MAKKOVIK A","8502588","2018-04-07 13:00","2018","04","07","13:00","-6.5","","-14.0","","56","","","","27","","50","","24.1","","98.71","","","","-17","","Blowing Snow"
"-59.19","55.08","MAKKOVIK A","8502588","2018-04-07 14:00","2018","04","07","14:00","-5.9","","-13.7","","55","","","","27","","45","","24.1","","98.77","","","","-16","","Blowing Snow"
"-59.19","55.08","MAKKOVIK A","8502588","2018-04-07 15:00","2018","04","07","15:00","-5.9","","-13.8","","54","","","","27","","47","","24.1","","98.81","","","","-16","","Blowing Snow"
"-59.19","55.08","MAKKOVIK A","8502588","2018-04-07 16:00","2018","04","07","16:00","-5.7","","-13.5","","54","","","","27","","35","","24.1","","98.86","","","","-14","","Blowing Snow"
"-59.19","55.08","MAKKOVIK A","8502588","2018-04-07 17:00","2018","04","07","17:00"
"-59.19","55.08","MAKKOVIK A","8502588","2018-04-07 18:00","2018","04","07","18:00"
"-59.19","55.08","MAKKOVIK A","8502588","2018-04-07 19:00","2018","04","07","19:00"
"-59.19","55.08","MAKKOVIK A","8502588","2018-04-07 20:00","2018","04","07","20:00"
"-59.19","55.08","MAKKOVIK A","8502588","2018-04-07 21:00","2018","04","07","21:00"
"-59.19","55.08","MAKKOVIK A","8502588","2018-04-07 22:00","2018","04","07","22:00"
"-59.19","55.08","MAKKOVIK A","8502588","2018-04-07 23:00","2018","04","07","23:00"
"-59.19","55.08","MAKKOVIK A","8502588","2018-04-08 00:00","2018","04","08","00:00"
"-59.19","55.08","MAKKOVIK A","8502588","2018-04-08 01:00","2018","04","08","01:00"
"-59.19","55.08","MAKKOVIK A","8502588","2018-04-08 02:00","2018","04","08","02:00"
"-59.19","55.08","MAKKOVIK A","8502588","2018-04-08 03:00","2018","04","08","03:00"
"-59.19","55.08","MAKKOVIK A","8502588","2018-04-08 04:00","2018","04","08","04:00"
"-59.19","55.08","MAKKOVIK A","8502588","2018-04-08 05:00","2018","04","08","05:00","-11.8","","-18.1","","60","","","","24","","35","","24.1","","99.37","","","","-23","","Clear"
"-59.19","55.08","MAKKOVIK A","8502588","2018-04-08 06:00","2018","04","08","06:00","-11.9","","-17.9","","62","","","","24","","36","","24.1","","99.43","","","","-23","","NA"
"-59.19","55.08","MAKKOVIK A","8502588","2018-04-08 07:00","2018","04","08","07:00","-10.8","","-17.4","","59","","","","25","","45","","24.1","","99.49","","","","-22","","NA"
"-59.19","55.08","MAKKOVIK A","8502588","2018-04-08 08:00","2018","04","08","08:00","-10.4","","-17.0","","59","","","","25","","41","","24.1","","99.58","","","","-21","","Clear"
"-59.19","55.08","MAKKOVIK A","8502588","2018-04-08 09:00","2018","04","08","09:00","-9.3","","-16.7","","55","","","","24","","40","","24.1","","99.69","","","","-20","","NA"
"-59.19","55.08","MAKKOVIK A","8502588","2018-04-08 10:00","2018","04","08","10:00","-7.9","","-15.8","","54","","","","25","","33","","24.1","","99.75","","","","-17","","NA"
"-59.19","55.08","MAKKOVIK A","8502588","2018-04-08 11:00","2018","04","08","11:00","-6.7","","-15.6","","50","","","","25","","48","","24.1","","99.80","","","","-17","","Clear"
"-59.19","55.08","MAKKOVIK A","8502588","2018-04-08 12:00","2018","04","08","12:00","-6.3","","-14.9","","51","","","","26","","48","","24.1","","99.85","","","","-17","","NA"
"-59.19","55.08","MAKKOVIK A","8502588","2018-04-08 13:00","2018","04","08","13:00","-5.5","","-14.5","","49","","","","26","","34","","24.1","","99.90","","","","-14","","NA"
"-59.19","55.08","MAKKOVIK A","8502588","2018-04-08 14:00","2018","04","08","14:00","-4.6","","-14.5","","46","","","","27","","29","","24.1","","99.91","","","","-12","","Clear"
"-59.19","55.08","MAKKOVIK A","8502588","2018-04-08 15:00","2018","04","08","15:00","-4.1","","-15.2","","42","","","","28","","25","","24.1","","99.99","","","","-11","","NA"
"-59.19","55.08","MAKKOVIK A","8502588","2018-04-08 16:00","2018","04","08","16:00","-3.4","","-15.0","","40","","","","28","","18","","24.1","","100.02","","","","-9","","NA"
"-59.19","55.08","MAKKOVIK A","8502588","2018-04-08 17:00","2018","04","08","17:00"
"-59.19","55.08","MAKKOVIK A","8502588","2018-04-08 18:00","2018","04","08","18:00"
"-59.19","55.08","MAKKOVIK A","8502588","2018-04-08 19:00","2018","04","08","19:00"
"-59.19","55.08","MAKKOVIK A","8502588","2018-04-08 20:00","2018","04","08","20:00"
"-59.19","55.08","MAKKOVIK A","8502588","2018-04-08 21:00","2018","04","08","21:00"
"-59.19","55.08","MAKKOVIK A","8502588","2018-04-08 22:00","2018","04","08","22:00"
"-59.19","55.08","MAKKOVIK A","8502588","2018-04-08 23:00","2018","04","08","23:00"
"-59.19","55.08","MAKKOVIK A","8502588","2018-04-09 00:00","2018","04","09","00:00"
"-59.19","55.08","MAKKOVIK A","8502588","2018-04-09 01:00","2018","04","09","01:00"
"-59.19","55.08","MAKKOVIK A","8502588","2018-04-09 02:00","2018","04","09","02:00"
"-59.19","55.08","MAKKOVIK A","8502588","2018-04-09 03:00","2018","04","09","03:00"
"-59.19","55.08","MAKKOVIK A","8502588","2018-04-09 04:00","2018","04","09","04:00"
"-59.19","55.08","MAKKOVIK A","8502588","2018-04-09 05:00","2018","04","09","05:00","-8.6","","-17.3","","50","","","","36","","2","","24.1","","99.99","","","","-10","","Mostly Cloudy"
"-59.19","55.08","MAKKOVIK A","8502588","2018-04-09 06:00","2018","04","09","06:00","-8.8","","-16.3","","55","","","","36","","3","","24.1","","99.90","","","","-10","","NA"
"-59.19","55.08","MAKKOVIK A","8502588","2018-04-09 07:00","2018","04","09","07:00","-9.7","","-15.6","","62","","","","30","","8","","24.1","","99.84","","","","-14","","NA"
"-59.19","55.08","MAKKOVIK A","8502588","2018-04-09 08:00","2018","04","09","08:00","-9.3","","-14.1","","68","","","","28","","5","","24.1","","99.78","","","","-12","","Cloudy"
"-59.19","55.08","MAKKOVIK A","8502588","2018-04-09 09:00","2018","04","09","09:00","-8.5","","-12.9","","71","","","","33","","9","","24.1","","99.71","","","","-13","","NA"
"-59.19","55.08","MAKKOVIK A","8502588","2018-04-09 10:00","2018","04","09","10:00","-7.0","","-10.7","","75","","","","36","","12","","24.1","","99.58","","","","-12","","NA"
"-59.19","55.08","MAKKOVIK A","8502588","2018-04-09 11:00","2018","04","09","11:00","-6.9","","-10.6","","75","","","","36","","17","","24.1","","99.43","","","","-13","","Cloudy"
"-59.19","55.08","MAKKOVIK A","8502588","2018-04-09 12:00","2018","04","09","12:00","-6.7","","-10.2","","76","","","","35","","25","","24.1","","99.28","","","","-15","","NA"
"-59.19","55.08","MAKKOVIK A","8502588","2018-04-09 13:00","2018","04","09","13:00","-6.3","","-9.7","","77","","","","35","","26","","24.1","","99.20","","","","-14","","NA"
"-59.19","55.08","MAKKOVIK A","8502588","2018-04-09 14:00","2018","04","09","14:00","-6.0","","-8.3","","84","","","","33","","33","","19.3","","99.10","","","","-15","","Snow"
"-59.19","55.08","MAKKOVIK A","8502588","2018-04-09 15:00","2018","04","09","15:00","-5.8","","-7.2","","90","","","","33","","32","","1.2","","99.03","","","","-14","","Snow"
"-59.19","55.08","MAKKOVIK A","8502588","2018-04-09 16:00","2018","04","09","16:00","-4.9","","-5.9","","93","","","","33","","40","","1.0","","98.94","","","","-14","","Snow"
"-59.19","55.08","MAKKOVIK A","8502588","2018-04-09 17:00","2018","04","09","17:00"
"-59.19","55.08","MAKKOVIK A","8502588","2018-04-09 18:00","2018","04","09","18:00"
"-59.19","55.08","MAKKOVIK A","8502588","2018-04-09 19:00","2018","04","09","19:00"
"-59.19","55.08","MAKKOVIK A","8502588","2018-04-09 20:00","2018","04","09","20:00"
"-59.19","55.08","MAKKOVIK A","8502588","2018-04-09 21:00","2018","04","09","21:00"
"-59.19","55.08","MAKKOVIK A","8502588","2018-04-09 22:00","2018","04","09","22:00"
"-59.19","55.08","MAKKOVIK A","8502588","2018-04-09 23:00","2018","04","09","23:00"
"-59.19","55.08","MAKKOVIK A","8502588","2018-04-10 00:00","2018","04","10","00:00"
"-59.19","55.08","MAKKOVIK A","8502588","2018-04-10 01:00","2018","04","10","01:00"
"-59.19","55.08","MAKKOVIK A","8502588","2018-04-10 02:00","2018","04","10","02:00"
"-59.19","55.08","MAKKOVIK A","8502588","2018-04-10 03:00","2018","04","10","03:00"
"-59.19","55.08","MAKKOVIK A","8502588","2018-04-10 04:00","2018","04","10","04:00"
"-59.19","55.08","MAKKOVIK A","8502588","2018-04-10 05:00","2018","04","10","05:00","-8.7","","-12.2","","76","","","","29","","48","","6.4","","99.44","","","","-20","","Snow,Blowing Snow"
"-59.19","55.08","MAKKOVIK A","8502588","2018-04-10 06:00","2018","04","10","06:00","-8.6","","-13.9","","66","","","","28","","46","","8.1","","99.54","","","","-19","","Snow,Blowing Snow"
"-59.19","55.08","MAKKOVIK A","8502588","2018-04-10 07:00","2018","04","10","07:00","-9.2","","-14.9","","64","","","","28","","37","","24.1","","99.63","","","","-19","","Blowing Snow"
"-59.19","55.08","MAKKOVIK A","8502588","2018-04-10 08:00","2018","04","10","08:00","-9.1","","-15.6","","59","","","","27","","36","","24.1","","99.73","","","","-19","","Mainly Clear"
"-59.19","55.08","MAKKOVIK A","8502588","2018-04-10 09:00","2018","04","10","09:00","-9.2","","-16.4","","56","","","","27","","31","","24.1","","99.81","","","","-19","","NA"
"-59.19","55.08","MAKKOVIK A","8502588","2018-04-10 10:00","2018","04","10","10:00","-9.0","","-16.8","","54","","","","28","","27","","24.1","","99.87","","","","-18","","NA"
"-59.19","55.08","MAKKOVIK A","8502588","2018-04-10 11:00","2018","04","10","11:00","-8.7","","-17.0","","51","","","","28","","27","","24.1","","99.92","","","","-17","","Mostly Cloudy"
"-59.19","55.08","MAKKOVIK A","8502588","2018-04-10 12:00","2018","04","10","12:00","-8.5","","-15.0","","60","","","","30","","22","","24.1","","99.95","","","","-16","","NA"
"-59.19","55.08","MAKKOVIK A","8502588","2018-04-10 13:00","2018","04","10","13:00","-9.5","","-15.2","","64","","","","31","","34","","24.1","","99.99","","","","-19","","NA"
"-59.19","55.08","MAKKOVIK A","8502588","2018-04-10 14:00","2018","04","10","14:00","-9.7","","-15.7","","62","","","","30","","39","","24.1","","100.04","","","","-20","","Mainly Clear"
"-59.19","55.08","MAKKOVIK A","8502588","2018-04-10 15:00","2018","04","10","15:00","-8.5","","-16.0","","55","","","","29","","33","","24.1","","100.12","","","","-18","","NA"
"-59.19","55.08","MAKKOVIK A","8502588","2018-04-10 16:00","2018","04","10","16:00","-8.3","","-16.5","","52","","","","28","","27","","24.1","","100.20","","","","-17","","NA"
"-59.19","55.08","MAKKOVIK A","8502588","2018-04-10 17:00","2018","04","10","17:00"
"-59.19","55.08","MAKKOVIK A","8502588","2018-04-10 18:00","2018","04","10","18:00"
"-59.19","55.08","MAKKOVIK A","8502588","2018-04-10 19:00","2018","04","10","19:00"
"-59.19","55.08","MAKKOVIK A","8502588","2018-04-10 20:00","2018","04","10","20:00"
"-59.19","55.08","MAKKOVIK A","8502588","2018-04-10 21:00","2018","04","10","21:00"
"-59.19","55.08","MAKKOVIK A","8502588","2018-04-10 22:00","2018","04","10","22:00"
"-59.19","55.08","MAKKOVIK A","8502588","2018-04-10 23:00","2018","04","10","23:00"
"-59.19","55.08","MAKKOVIK A","8502588","2018-04-11 00:00","2018","04","11","00:00"
"-59.19","55.08","MAKKOVIK A","8502588","2018-04-11 01:00","2018","04","11","01:00"
"-59.19","55.08","MAKKOVIK A","8502588","2018-04-11 02:00","2018","04","11","02:00"
"-59.19","55.08","MAKKOVIK A","8502588","2018-04-11 03:00","2018","04","11","03:00"
"-59.19","55.08","MAKKOVIK A","8502588","2018-04-11 04:00","2018","04","11","04:00"
"-59.19","55.08","MAKKOVIK A","8502588","2018-04-11 05:00","2018","04","11","05:00","-12.3","","-18.0","","63","","","","19","","14","","24.1","","100.54","","","","-19","","Mainly Clear"
"-59.19","55.08","MAKKOVIK A","8502588","2018-04-11 06:00","2018","04","11","06:00","-12.3","","-18.6","","60","","","","20","","11","","24.1","","100.55","","","","-18","","NA"
"-59.19","55.08","MAKKOVIK A","8502588","2018-04-11 07:00","2018","04","11","07:00","-10.2","","-17.8","","54","","","","21","","7","","24.1","","100.54","","","","-14","","NA"
"-59.19","55.08","MAKKOVIK A","8502588","2018-04-11 08:00","2018","04","11","08:00","-9.1","","-17.1","","53","","","","36","","2","","24.1","","100.56","","","","-10","","Cloudy"
"-59.19","55.08","MAKKOVIK A","8502588","2018-04-11 09:00","2018","04","11","09:00","-8.3","","-17.5","","48","","","","36","","3","","24.1","","100.57","","","","-10","","NA"
"-59.19","55.08","MAKKOVIK A","8502588","2018-04-11 10:00","2018","04","11","10:00","-7.7","","-17.0","","48","","","","31","","7","","24.1","","100.58","","","","-11","","NA"
"-59.19","55.08","MAKKOVIK A","8502588","2018-04-11 11:00","2018","04","11","11:00","-7.0","","-15.9","","49","","","","36","","7","","24.1","","100.59","","","","-11","","Mostly Cloudy"
"-59.19","55.08","MAKKOVIK A","8502588","2018-04-11 12:00","2018","04","11","12:00","-6.8","","-14.3","","55","","","","32","","5","","24.1","","100.58","","","","-9","","NA"
"-59.19","55.08","MAKKOVIK A","8502588","2018-04-11 13:00","2018","04","11","13:00","-6.6","","-14.2","","55","","","","35","","8","","24.1","","100.58","","","","-10","","NA"
"-59.19","55.08","MAKKOVIK A","8502588","2018-04-11 14:00","2018","04","11","14:00","","M","","M","","M","","","","","","M","24.1","","","M","","","","","Clear"
"-59.19","55.08","MAKKOVIK A","8502588","2018-04-11 15:00","2018","04","11","15:00","-6.6","","-13.0","","60","","","","3","","10","","24.1","","100.57","","","","-11","","NA"
"-59.19","55.08","MAKKOVIK A","8502588","2018-04-11 16:00","2018","04","11","16:00","-7.1","","-12.6","","65","","","","6","","12","","24.1","","100.58","","","","-12","","NA"
"-59.19","55.08","MAKKOVIK A","8502588","2018-04-11 17:00","2018","04","11","17:00"
"-59.19","55.08","MAKKOVIK A","8502588","2018-04-11 18:00","2018","04","11","18:00"
"-59.19","55.08","MAKKOVIK A","8502588","2018-04-11 19:00","2018","04","11","19:00"
"-59.19","55.08","MAKKOVIK A","8502588","2018-04-11 20:00","2018","04","11","20:00"
"-59.19","55.08","MAKKOVIK A","8502588","2018-04-11 21:00","2018","04","11","21:00"
"-59.19","55.08","MAKKOVIK A","8502588","2018-04-11 22:00","2018","04","11","22:00"
"-59.19","55.08","MAKKOVIK A","8502588","2018-04-11 23:00","2018","04","11","23:00"
"-59.19","55.08","MAKKOVIK A","8502588","2018-04-12 00:00","2018","04","12","00:00"
"-59.19","55.08","MAKKOVIK A","8502588","2018-04-12 01:00","2018","04","12","01:00"
"-59.19","55.08","MAKKOVIK A","8502588","2018-04-12 02:00","2018","04","12","02:00"
"-59.19","55.08","MAKKOVIK A","8502588","2018-04-12 03:00","2018","04","12","03:00"
"-59.19","55.08","MAKKOVIK A","8502588","2018-04-12 04:00","2018","04","12","04:00"
"-59.19","55.08","MAKKOVIK A","8502588","2018-04-12 05:00","2018","04","12","05:00","-13.6","","-18.8","","65","","","","19","","12","","24.1","","100.72","","","","-20","","Clear"
"-59.19","55.08","MAKKOVIK A","8502588","2018-04-12 06:00","2018","04","12","06:00","-11.6","","-17.9","","60","","","","21","","14","","24.1","","100.71","","","","-18","","NA"
"-59.19","55.08","MAKKOVIK A","8502588","2018-04-12 07:00","2018","04","12","07:00","-10.9","","-17.7","","58","","","","21","","12","","24.1","","100.72","","","","-17","","NA"
"-59.19","55.08","MAKKOVIK A","8502588","2018-04-12 08:00","2018","04","12","08:00","-8.5","","-16.8","","52","","","","20","","7","","24.1","","100.72","","","","-12","","Clear"
"-59.19","55.08","MAKKOVIK A","8502588","2018-04-12 09:00","2018","04","12","09:00","-6.5","","-17.1","","43","","","","33","","3","","24.1","","100.62","","","","-8","","NA"
"-59.19","55.08","MAKKOVIK A","8502588","2018-04-12 10:00","2018","04","12","10:00","-4.1","","-13.8","","47","","","","15","","19","","24.1","","100.54","","","","-10","","NA"
"-59.19","55.08","MAKKOVIK A","8502588","2018-04-12 11:00","2018","04","12","11:00","-2.4","","-12.7","","45","","","","15","","25","","24.1","","100.48","","","","-9","","Mainly Clear"
"-59.19","55.08","MAKKOVIK A","8502588","2018-04-12 12:00","2018","04","12","12:00","-1.2","","-11.7","","45","","","","13","","21","","24.1","","100.37","","","","-7","","NA"
"-59.19","55.08","MAKKOVIK A","8502588","2018-04-12 13:00","2018","04","12","13:00","-0.9","","-10.3","","49","","","","14","","34","","24.1","","100.27","","","","-8","","NA"
"-59.19","55.08","MAKKOVIK A","8502588","2018-04-12 14:00","2018","04","12","14:00","-0.3","","-8.6","","54","","","","13","","32","","24.1","","100.21","","","","-7","","Mainly Clear"
"-59.19","55.08","MAKKOVIK A","8502588","2018-04-12 15:00","2018","04","12","15:00","0.5","","-7.0","","57","","","","14","","21","","24.1","","100.17","","","","","","NA"
"-59.19","55.08","MAKKOVIK A","8502588","2018-04-12 16:00","2018","04","12","16:00","3.3","","-6.5","","49","","","","20","","22","","24.1","","100.14","","","","","","NA"
"-59.19","55.08","MAKKOVIK A","8502588","2018-04-12 17:00","2018","04","12","17:00"
"-59.19","55.08","MAKKOVIK A","8502588","2018-04-12 18:00","2018","04","12","18:00"
"-59.19","55.08","MAKKOVIK A","8502588","2018-04-12 19:00","2018","04","12","19:00"
"-59.19","55.08","MAKKOVIK A","8502588","2018-04-12 20:00","2018","04","12","20:00"
"-59.19","55.08","MAKKOVIK A","8502588","2018-04-12 21:00","2018","04","12","21:00"
"-59.19","55.08","MAKKOVIK A","8502588","2018-04-12 22:00","2018","04","12","22:00"
"-59.19","55.08","MAKKOVIK A","8502588","2018-04-12 23:00","2018","04","12","23:00"
"-59.19","55.08","MAKKOVIK A","8502588","2018-04-13 00:00","2018","04","13","00:00"
"-59.19","55.08","MAKKOVIK A","8502588","2018-04-13 01:00","2018","04","13","01:00"
"-59.19","55.08","MAKKOVIK A","8502588","2018-04-13 02:00","2018","04","13","02:00"
"-59.19","55.08","MAKKOVIK A","8502588","2018-04-13 03:00","2018","04","13","03:00"
"-59.19","55.08","MAKKOVIK A","8502588","2018-04-13 04:00","2018","04","13","04:00"
"-59.19","55.08","MAKKOVIK A","8502588","2018-04-13 05:00","2018","04","13","05:00","-1.8","","-4.1","","84","","","","25","","16","","24.1","","100.15","","","","-7","","Mostly Cloudy"
"-59.19","55.08","MAKKOVIK A","8502588","2018-04-13 06:00","2018","04","13","06:00","-1.6","","-4.0","","84","","","","25","","20","","24.1","","100.21","","","","-7","","NA"
"-59.19","55.08","MAKKOVIK A","8502588","2018-04-13 07:00","2018","04","13","07:00","-2.4","","-4.5","","85","","","","31","","14","","24.1","","100.29","","","","-7","","NA"
"-59.19","55.08","MAKKOVIK A","8502588","2018-04-13 08:00","2018","04","13","08:00","-3.4","","-5.9","","83","","","","33","","16","","24.1","","100.34","","","","-9","","Mostly Cloudy"
"-59.19","55.08","MAKKOVIK A","8502588","2018-04-13 09:00","2018","04","13","09:00","-4.2","","-8.7","","71","","","","35","","12","","24.1","","100.38","","","","-9","","NA"
"-59.19","55.08","MAKKOVIK A","8502588","2018-04-13 10:00","2018","04","13","10:00","-3.9","","-9.7","","64","","","","35","","17","","24.1","","100.37","","","","-10","","NA"
"-59.19","55.08","MAKKOVIK A","8502588","2018-04-13 11:00","2018","04","13","11:00","-4.3","","-9.8","","66","","","","36","","16","","24.1","","100.37","","","","-10","","Mostly Cloudy"
"-59.19","55.08","MAKKOVIK A","8502588","2018-04-13 12:00","2018","04","13","12:00","-4.8","","-10.7","","63","","","","3","","19","","24.1","","100.32","","","","-11","","NA"
"-59.19","55.08","MAKKOVIK A","8502588","2018-04-13 13:00","2018","04","13","13:00","-5.0","","-10.3","","66","","","","3","","17","","24.1","","100.26","","","","-11","","NA"
"-59.19","55.08","MAKKOVIK A","8502588","2018-04-13 14:00","2018","04","13","14:00","-5.0","","-9.2","","72","","","","5","","20","","24.1","","100.18","","","","-12","","Mostly Cloudy"
"-59.19","55.08","MAKKOVIK A","8502588","2018-04-13 15:00","2018","04","13","15:00","-4.4","","-7.5","","79","","","","6","","18","","8.1","","100.12","","","","-10","","Snow"
"-59.19","55.08","MAKKOVIK A","8502588","2018-04-13 16:00","2018","04","13","16:00","-3.5","","-5.5","","86","","","","9","","22","","4.8","","100.02","","","","-10","","Snow"
"-59.19","55.08","MAKKOVIK A","8502588","2018-04-13 17:00","2018","04","13","17:00"
"-59.19","55.08","MAKKOVIK A","8502588","2018-04-13 18:00","2018","04","13","18:00"
"-59.19","55.08","MAKKOVIK A","8502588","2018-04-13 19:00","2018","04","13","19:00"
"-59.19","55.08","MAKKOVIK A","8502588","2018-04-13 20:00","2018","04","13","20:00"
"-59.19","55.08","MAKKOVIK A","8502588","2018-04-13 21:00","2018","04","13","21:00"
"-59.19","55.08","MAKKOVIK A","8502588","2018-04-13 22:00","2018","04","13","22:00"
"-59.19","55.08","MAKKOVIK A","8502588","2018-04-13 23:00","2018","04","13","23:00"
"-59.19","55.08","MAKKOVIK A","8502588","2018-04-14 00:00","2018","04","14","00:00"
"-59.19","55.08","MAKKOVIK A","8502588","2018-04-14 01:00","2018","04","14","01:00"
"-59.19","55.08","MAKKOVIK A","8502588","2018-04-14 02:00","2018","04","14","02:00"
"-59.19","55.08","MAKKOVIK A","8502588","2018-04-14 03:00","2018","04","14","03:00"
"-59.19","55.08","MAKKOVIK A","8502588","2018-04-14 04:00","2018","04","14","04:00"
"-59.19","55.08","MAKKOVIK A","8502588","2018-04-14 05:00","2018","04","14","05:00","-9.5","","-10.9","","90","","","","30","","41","","1.0","","99.39","","","","-20","","Snow,Blowing Snow"
"-59.19","55.08","MAKKOVIK A","8502588","2018-04-14 06:00","2018","04","14","06:00","-9.8","","-11.2","","90","","","","31","","36","","2.4","","99.37","","","","-20","","Snow"
"-59.19","55.08","MAKKOVIK A","8502588","2018-04-14 07:00","2018","04","14","07:00","-10.2","","-11.6","","90","","","","31","","43","","1.0","","99.35","","","","-21","","Snow"
"-59.19","55.08","MAKKOVIK A","8502588","2018-04-14 08:00","2018","04","14","08:00","-10.5","","-12.2","","87","","","","32","","41","","1.0","","99.38","","","","-22","","Snow"
"-59.19","55.08","MAKKOVIK A","8502588","2018-04-14 09:00","2018","04","14","09:00","-10.4","","-12.3","","86","","","","32","","40","","1.0","","99.40","","","","-21","","Snow"
"-59.19","55.08","MAKKOVIK A","8502588","2018-04-14 10:00","2018","04","14","10:00","-10.2","","-12.2","","85","","","","32","","49","","1.0","","99.40","","","","-22","","Snow,Blowing Snow"
"-59.19","55.08","MAKKOVIK A","8502588","2018-04-14 11:00","2018","04","14","11:00","-10.2","","-12.4","","84","","","","31","","54","","1.0","","99.40","","","","-22","","Snow,Blowing Snow"
"-59.19","55.08","MAKKOVIK A","8502588","2018-04-14 12:00","2018","04","14","12:00","-10.1","","-12.2","","84","","","","32","","53","","0.8","","99.41","","","","-22","","Snow,Blowing Snow"
"-59.19","55.08","MAKKOVIK A","8502588","2018-04-14 13:00","2018","04","14","13:00","-9.8","","-11.8","","85","","","","31","","60","","0.8","","99.42","","","","-22","","Snow,Blowing Snow"
"-59.19","55.08","MAKKOVIK A","8502588","2018-04-14 14:00","2018","04","14","14:00","-9.8","","-11.7","","87","","","","32","","66","","0.8","","99.45","","","","-23","","Snow,Blowing Snow"
"-59.19","55.08","MAKKOVIK A","8502588","2018-04-14 15:00","2018","04","14","15:00","-9.9","","-11.4","","88","","","","32","","52","","0.8","","99.52","","","","-22","","Snow,Blowing Snow"
"-59.19","55.08","MAKKOVIK A","8502588","2018-04-14 16:00","2018","04","14","16:00","-9.5","","-10.7","","91","","","","29","","30","","0.6","","99.66","","","","-19","","Snow,Blowing Snow"
"-59.19","55.08","MAKKOVIK A","8502588","2018-04-14 17:00","2018","04","14","17:00"
"-59.19","55.08","MAKKOVIK A","8502588","2018-04-14 18:00","2018","04","14","18:00"
"-59.19","55.08","MAKKOVIK A","8502588","2018-04-14 19:00","2018","04","14","19:00"
"-59.19","55.08","MAKKOVIK A","8502588","2018-04-14 20:00","2018","04","14","20:00"
"-59.19","55.08","MAKKOVIK A","8502588","2018-04-14 21:00","2018","04","14","21:00"
"-59.19","55.08","MAKKOVIK A","8502588","2018-04-14 22:00","2018","04","14","22:00"
"-59.19","55.08","MAKKOVIK A","8502588","2018-04-14 23:00","2018","04","14","23:00"
"-59.19","55.08","MAKKOVIK A","8502588","2018-04-15 00:00","2018","04","15","00:00"
"-59.19","55.08","MAKKOVIK A","8502588","2018-04-15 01:00","2018","04","15","01:00"
"-59.19","55.08","MAKKOVIK A","8502588","2018-04-15 02:00","2018","04","15","02:00"
"-59.19","55.08","MAKKOVIK A","8502588","2018-04-15 03:00","2018","04","15","03:00"
"-59.19","55.08","MAKKOVIK A","8502588","2018-04-15 04:00","2018","04","15","04:00"
"-59.19","55.08","MAKKOVIK A","8502588","2018-04-15 05:00","2018","04","15","05:00","-6.8","","-7.7","","93","","","","27","","25","","1.2","","101.02","","","","-15","","Snow,Blowing Snow"
"-59.19","55.08","MAKKOVIK A","8502588","2018-04-15 06:00","2018","04","15","06:00","-4.7","","-5.5","","94","","","","32","","47","","1.6","","101.16","","","","-14","","Snow,Blowing Snow"
"-59.19","55.08","MAKKOVIK A","8502588","2018-04-15 07:00","2018","04","15","07:00","-5.3","","-6.3","","93","","","","32","","48","","2.0","","101.32","","","","-15","","Snow,Blowing Snow"
"-59.19","55.08","MAKKOVIK A","8502588","2018-04-15 08:00","2018","04","15","08:00","-6.5","","-7.5","","93","","","","31","","42","","1.2","","101.50","","","","-16","","Snow,Blowing Snow"
"-59.19","55.08","MAKKOVIK A","8502588","2018-04-15 09:00","2018","04","15","09:00","-6.6","","-7.9","","90","","","","31","","43","","3.2","","101.64","","","","-17","","Snow,Blowing Snow"
"-59.19","55.08","MAKKOVIK A","8502588","2018-04-15 10:00","2018","04","15","10:00","-6.5","","-9.7","","78","","","","31","","41","","16.1","","101.78","","","","-16","","Blowing Snow"
"-59.19","55.08","MAKKOVIK A","8502588","2018-04-15 11:00","2018","04","15","11:00","-6.7","","-9.6","","80","","","","31","","33","","19.3","","101.91","","","","-16","","Blowing Snow"
"-59.19","55.08","MAKKOVIK A","8502588","2018-04-15 12:00","2018","04","15","12:00","-6.2","","-9.0","","80","","","","31","","22","","24.1","","101.93","","","","-13","","NA"
"-59.19","55.08","MAKKOVIK A","8502588","2018-04-15 13:00","2018","04","15","13:00","-5.8","","-9.0","","78","","","","30","","18","","24.1","","101.94","","","","-12","","NA"
"-59.19","55.08","MAKKOVIK A","8502588","2018-04-15 14:00","2018","04","15","14:00","-5.1","","-8.2","","79","","","","31","","20","","24.1","","101.95","","","","-12","","Mainly Clear"
"-59.19","55.08","MAKKOVIK A","8502588","2018-04-15 15:00","2018","04","15","15:00","-5.0","","-10.7","","64","","","","31","","17","","24.1","","101.96","","","","-11","","NA"
"-59.19","55.08","MAKKOVIK A","8502588","2018-04-15 16:00","2018","04","15","16:00","-5.6","","-11.6","","63","","","","31","","30","","24.1","","102.00","","","","-14","","NA"
"-59.19","55.08","MAKKOVIK A","8502588","2018-04-15 17:00","2018","04","15","17:00"
"-59.19","55.08","MAKKOVIK A","8502588","2018-04-15 18:00","2018","04","15","18:00"
"-59.19","55.08","MAKKOVIK A","8502588","2018-04-15 19:00","2018","04","15","19:00"
"-59.19","55.08","MAKKOVIK A","8502588","2018-04-15 20:00","2018","04","15","20:00"
"-59.19","55.08","MAKKOVIK A","8502588","2018-04-15 21:00","2018","04","15","21:00"
"-59.19","55.08","MAKKOVIK A","8502588","2018-04-15 22:00","2018","04","15","22:00"
"-59.19","55.08","MAKKOVIK A","8502588","2018-04-15 23:00","2018","04","15","23:00"
"-59.19","55.08","MAKKOVIK A","8502588","2018-04-16 00:00","2018","04","16","00:00"
"-59.19","55.08","MAKKOVIK A","8502588","2018-04-16 01:00","2018","04","16","01:00"
"-59.19","55.08","MAKKOVIK A","8502588","2018-04-16 02:00","2018","04","16","02:00"
"-59.19","55.08","MAKKOVIK A","8502588","2018-04-16 03:00","2018","04","16","03:00"
"-59.19","55.08","MAKKOVIK A","8502588","2018-04-16 04:00","2018","04","16","04:00"
"-59.19","55.08","MAKKOVIK A","8502588","2018-04-16 05:00","2018","04","16","05:00","-10.7","","-16.3","","64","","","","28","","31","","24.1","","102.16","","","","-21","","Clear"
"-59.19","55.08","MAKKOVIK A","8502588","2018-04-16 06:00","2018","04","16","06:00","-11.9","","-17.0","","66","","","","26","","32","","24.1","","102.14","","","","-22","","Blowing Snow"
"-59.19","55.08","MAKKOVIK A","8502588","2018-04-16 07:00","2018","04","16","07:00","-10.8","","-16.4","","64","","","","26","","35","","24.1","","102.12","","","","-21","","Blowing Snow"
"-59.19","55.08","MAKKOVIK A","8502588","2018-04-16 08:00","2018","04","16","08:00","-9.3","","-15.8","","59","","","","26","","36","","24.1","","102.07","","","","-19","","Blowing Snow"
"-59.19","55.08","MAKKOVIK A","8502588","2018-04-16 09:00","2018","04","16","09:00","-8.3","","-15.3","","57","","","","27","","30","","24.1","","102.06","","","","-17","","Blowing Snow"
"-59.19","55.08","MAKKOVIK A","8502588","2018-04-16 10:00","2018","04","16","10:00","-7.1","","-14.4","","57","","","","26","","31","","24.1","","102.00","","","","-16","","Blowing Snow"
"-59.19","55.08","MAKKOVIK A","8502588","2018-04-16 11:00","2018","04","16","11:00","-5.8","","-14.0","","53","","","","27","","27","","24.1","","101.93","","","","-14","","Blowing Snow"
"-59.19","55.08","MAKKOVIK A","8502588","2018-04-16 12:00","2018","04","16","12:00","-4.8","","-14.0","","49","","","","29","","33","","24.1","","101.90","","","","-13","","Blowing Snow"
"-59.19","55.08","MAKKOVIK A","8502588","2018-04-16 13:00","2018","04","16","13:00","-3.9","","-13.2","","49","","","","28","","34","","24.1","","101.84","","","","-12","","Blowing Snow"
"-59.19","55.08","MAKKOVIK A","8502588","2018-04-16 14:00","2018","04","16","14:00","-3.3","","-12.7","","49","","","","28","","35","","24.1","","101.77","","","","-11","","Blowing Snow"
"-59.19","55.08","MAKKOVIK A","8502588","2018-04-16 15:00","2018","04","16","15:00","-3.2","","-10.3","","58","","","","30","","26","","24.1","","101.72","","","","-10","","Blowing Snow"
"-59.19","55.08","MAKKOVIK A","8502588","2018-04-16 16:00","2018","04","16","16:00","-3.1","","-9.7","","61","","","","29","","21","","24.1","","101.66","","","","-9","","NA"
"-59.19","55.08","MAKKOVIK A","8502588","2018-04-16 17:00","2018","04","16","17:00"
"-59.19","55.08","MAKKOVIK A","8502588","2018-04-16 18:00","2018","04","16","18:00"
"-59.19","55.08","MAKKOVIK A","8502588","2018-04-16 19:00","2018","04","16","19:00"
"-59.19","55.08","MAKKOVIK A","8502588","2018-04-16 20:00","2018","04","16","20:00"
"-59.19","55.08","MAKKOVIK A","8502588","2018-04-16 21:00","2018","04","16","21:00"
"-59.19","55.08","MAKKOVIK A","8502588","2018-04-16 22:00","2018","04","16","22:00"
"-59.19","55.08","MAKKOVIK A","8502588","2018-04-16 23:00","2018","04","16","23:00"
"-59.19","55.08","MAKKOVIK A","8502588","2018-04-17 00:00","2018","04","17","00:00"
"-59.19","55.08","MAKKOVIK A","8502588","2018-04-17 01:00","2018","04","17","01:00"
"-59.19","55.08","MAKKOVIK A","8502588","2018-04-17 02:00","2018","04","17","02:00"
"-59.19","55.08","MAKKOVIK A","8502588","2018-04-17 03:00","2018","04","17","03:00"
"-59.19","55.08","MAKKOVIK A","8502588","2018-04-17 04:00","2018","04","17","04:00"
"-59.19","55.08","MAKKOVIK A","8502588","2018-04-17 05:00","2018","04","17","05:00","-8.4","","-13.8","","65","","","","25","","21","","24.1","","101.64","","","","-16","","Mainly Clear"
"-59.19","55.08","MAKKOVIK A","8502588","2018-04-17 06:00","2018","04","17","06:00","-10.8","","-15.1","","71","","","","22","","15","","24.1","","101.62","","","","-18","","NA"
"-59.19","55.08","MAKKOVIK A","8502588","2018-04-17 07:00","2018","04","17","07:00","-7.6","","-13.3","","64","","","","27","","16","","24.1","","101.61","","","","-14","","NA"
"-59.19","55.08","MAKKOVIK A","8502588","2018-04-17 08:00","2018","04","17","08:00","-7.0","","-13.2","","61","","","","23","","20","","24.1","","101.61","","","","-14","","Mainly Clear"
"-59.19","55.08","MAKKOVIK A","8502588","2018-04-17 09:00","2018","04","17","09:00","-4.5","","-12.5","","54","","","","25","","12","","24.1","","101.59","","","","-9","","NA"
"-59.19","55.08","MAKKOVIK A","8502588","2018-04-17 10:00","2018","04","17","10:00","-3.3","","-12.0","","51","","","","25","","12","","24.1","","101.59","","","","-8","","NA"
"-59.19","55.08","MAKKOVIK A","8502588","2018-04-17 11:00","2018","04","17","11:00","-2.4","","-12.2","","47","","","","29","","20","","24.1","","101.56","","","","-8","","Mainly Clear"
"-59.19","55.08","MAKKOVIK A","8502588","2018-04-17 12:00","2018","04","17","12:00","-2.1","","-11.7","","48","","","","30","","26","","24.1","","101.52","","","","-9","","NA"
"-59.19","55.08","MAKKOVIK A","8502588","2018-04-17 13:00","2018","04","17","13:00","-2.5","","-10.6","","54","","","","31","","20","","24.1","","101.49","","","","-8","","NA"
"-59.19","55.08","MAKKOVIK A","8502588","2018-04-17 14:00","2018","04","17","14:00","-2.2","","-11.6","","49","","","","32","","21","","24.1","","101.43","","","","-8","","Mainly Clear"
"-59.19","55.08","MAKKOVIK A","8502588","2018-04-17 15:00","2018","04","17","15:00","-2.2","","-10.8","","52","","","","32","","22","","24.1","","101.42","","","","-8","","NA"
"-59.19","55.08","MAKKOVIK A","8502588","2018-04-17 16:00","2018","04","17","16:00","-2.8","","-10.3","","56","","","","33","","17","","24.1","","101.36","","","","-8","","NA"
"-59.19","55.08","MAKKOVIK A","8502588","2018-04-17 17:00","2018","04","17","17:00"
"-59.19","55.08","MAKKOVIK A","8502588","2018-04-17 18:00","2018","04","17","18:00"
"-59.19","55.08","MAKKOVIK A","8502588","2018-04-17 19:00","2018","04","17","19:00"
"-59.19","55.08","MAKKOVIK A","8502588","2018-04-17 20:00","2018","04","17","20:00"
"-59.19","55.08","MAKKOVIK A","8502588","2018-04-17 21:00","2018","04","17","21:00"
"-59.19","55.08","MAKKOVIK A","8502588","2018-04-17 22:00","2018","04","17","22:00"
"-59.19","55.08","MAKKOVIK A","8502588","2018-04-17 23:00","2018","04","17","23:00"
"-59.19","55.08","MAKKOVIK A","8502588","2018-04-18 00:00","2018","04","18","00:00"
"-59.19","55.08","MAKKOVIK A","8502588","2018-04-18 01:00","2018","04","18","01:00"
"-59.19","55.08","MAKKOVIK A","8502588","2018-04-18 02:00","2018","04","18","02:00"
"-59.19","55.08","MAKKOVIK A","8502588","2018-04-18 03:00","2018","04","18","03:00"
"-59.19","55.08","MAKKOVIK A","8502588","2018-04-18 04:00","2018","04","18","04:00"
"-59.19","55.08","MAKKOVIK A","8502588","2018-04-18 05:00","2018","04","18","05:00","-5.2","","-7.1","","86","","","","6","","10","","24.1","","100.80","","","","-10","","Cloudy"
"-59.19","55.08","MAKKOVIK A","8502588","2018-04-18 06:00","2018","04","18","06:00","-4.8","","-6.5","","87","","","","4","","14","","19.3","","100.75","","","","-10","","NA"
"-59.19","55.08","MAKKOVIK A","8502588","2018-04-18 07:00","2018","04","18","07:00","-4.0","","-5.9","","87","","","","4","","16","","19.3","","100.71","","","","-10","","NA"
"-59.19","55.08","MAKKOVIK A","8502588","2018-04-18 08:00","2018","04","18","08:00","-3.8","","-5.3","","90","","","","5","","14","","11.3","","100.66","","","","-9","","Snow"
"-59.19","55.08","MAKKOVIK A","8502588","2018-04-18 09:00","2018","04","18","09:00","-3.3","","-4.7","","90","","","","5","","14","","11.3","","100.64","","","","-8","","Snow"
"-59.19","55.08","MAKKOVIK A","8502588","2018-04-18 10:00","2018","04","18","10:00","-3.0","","-3.9","","94","","","","5","","16","","2.0","","100.57","","","","-8","","Snow"
"-59.19","55.08","MAKKOVIK A","8502588","2018-04-18 11:00","2018","04","18","11:00","-2.7","","-3.5","","94","","","","4","","15","","1.6","","100.51","","","","-8","","Snow"
"-59.19","55.08","MAKKOVIK A","8502588","2018-04-18 12:00","2018","04","18","12:00","-2.5","","-3.4","","94","","","","4","","15","","1.6","","100.45","","","","-7","","Snow"
"-59.19","55.08","MAKKOVIK A","8502588","2018-04-18 13:00","2018","04","18","13:00","-2.4","","-3.1","","94","","","","4","","17","","1.6","","100.37","","","","-8","","Snow"
"-59.19","55.08","MAKKOVIK A","8502588","2018-04-18 14:00","2018","04","18","14:00","-1.8","","-2.9","","92","","","","6","","17","","2.0","","100.31","","","","-7","","Snow"
"-59.19","55.08","MAKKOVIK A","8502588","2018-04-18 15:00","2018","04","18","15:00","-1.5","","-2.9","","90","","","","6","","22","","6.4","","100.25","","","","-7","","Snow"
"-59.19","55.08","MAKKOVIK A","8502588","2018-04-18 16:00","2018","04","18","16:00","-1.7","","-2.7","","93","","","","8","","27","","2.4","","100.20","","","","-8","","Snow"
"-59.19","55.08","MAKKOVIK A","8502588","2018-04-18 17:00","2018","04","18","17:00"
"-59.19","55.08","MAKKOVIK A","8502588","2018-04-18 18:00","2018","04","18","18:00"
"-59.19","55.08","MAKKOVIK A","8502588","2018-04-18 19:00","2018","04","18","19:00"
"-59.19","55.08","MAKKOVIK A","8502588","2018-04-18 20:00","2018","04","18","20:00"
"-59.19","55.08","MAKKOVIK A","8502588","2018-04-18 21:00","2018","04","18","21:00"
"-59.19","55.08","MAKKOVIK A","8502588","2018-04-18 22:00","2018","04","18","22:00"
"-59.19","55.08","MAKKOVIK A","8502588","2018-04-18 23:00","2018","04","18","23:00"
"-59.19","55.08","MAKKOVIK A","8502588","2018-04-19 00:00","2018","04","19","00:00"
"-59.19","55.08","MAKKOVIK A","8502588","2018-04-19 01:00","2018","04","19","01:00"
"-59.19","55.08","MAKKOVIK A","8502588","2018-04-19 02:00","2018","04","19","02:00"
"-59.19","55.08","MAKKOVIK A","8502588","2018-04-19 03:00","2018","04","19","03:00"
"-59.19","55.08","MAKKOVIK A","8502588","2018-04-19 04:00","2018","04","19","04:00"
"-59.19","55.08","MAKKOVIK A","8502588","2018-04-19 05:00","2018","04","19","05:00","-1.2","","-1.5","","98","","","","2","","23","","1.6","","99.89","","","","-7","","Snow"
"-59.19","55.08","MAKKOVIK A","8502588","2018-04-19 06:00","2018","04","19","06:00","-1.0","","-1.7","","95","","","","2","","26","","3.2","","99.91","","","","-7","","Snow"
"-59.19","55.08","MAKKOVIK A","8502588","2018-04-19 07:00","2018","04","19","07:00","-0.8","","-2.2","","90","","","","1","","30","","8.1","","99.96","","","","-8","","Snow,Blowing Snow"
"-59.19","55.08","MAKKOVIK A","8502588","2018-04-19 08:00","2018","04","19","08:00","-0.6","","-2.4","","88","","","","1","","31","","2.4","","99.98","","","","-7","","Snow,Blowing Snow"
"-59.19","55.08","MAKKOVIK A","8502588","2018-04-19 09:00","2018","04","19","09:00","-0.8","","-2.2","","90","","","","36","","26","","4.8","","100.05","","","","-7","","Snow,Blowing Snow"
"-59.19","55.08","MAKKOVIK A","8502588","2018-04-19 10:00","2018","04","19","10:00","-0.5","","-2.4","","87","","","","36","","26","","4.8","","100.08","","","","-7","","Snow,Blowing Snow"
"-59.19","55.08","MAKKOVIK A","8502588","2018-04-19 11:00","2018","04","19","11:00","-1.0","","-2.2","","92","","","","35","","26","","4.8","","100.12","","","","-7","","Snow,Blowing Snow"
"-59.19","55.08","MAKKOVIK A","8502588","2018-04-19 12:00","2018","04","19","12:00","-1.2","","-2.4","","92","","","","35","","26","","4.8","","100.15","","","","-8","","Snow,Blowing Snow"
"-59.19","55.08","MAKKOVIK A","8502588","2018-04-19 13:00","2018","04","19","13:00","-1.4","","-2.7","","91","","","","34","","30","","4.8","","100.20","","","","-8","","Snow,Blowing Snow"
"-59.19","55.08","MAKKOVIK A","8502588","2018-04-19 14:00","2018","04","19","14:00","-1.7","","-3.1","","91","","","","34","","37","","4.8","","100.25","","","","-9","","Fog,Blowing Snow"
"-59.19","55.08","MAKKOVIK A","8502588","2018-04-19 15:00","2018","04","19","15:00","-2.4","","-3.2","","94","","","","33","","35","","4.8","","100.31","","","","-10","","Freezing Drizzle"
"-59.19","55.08","MAKKOVIK A","8502588","2018-04-19 16:00","2018","04","19","16:00","-2.7","","-3.3","","96","","","","32","","35","","2.4","","100.35","","","","-11","","Freezing Drizzle,Snow"
"-59.19","55.08","MAKKOVIK A","8502588","2018-04-19 17:00","2018","04","19","17:00"
"-59.19","55.08","MAKKOVIK A","8502588","2018-04-19 18:00","2018","04","19","18:00"
"-59.19","55.08","MAKKOVIK A","8502588","2018-04-19 19:00","2018","04","19","19:00"
"-59.19","55.08","MAKKOVIK A","8502588","2018-04-19 20:00","2018","04","19","20:00"
"-59.19","55.08","MAKKOVIK A","8502588","2018-04-19 21:00","2018","04","19","21:00"
"-59.19","55.08","MAKKOVIK A","8502588","2018-04-19 22:00","2018","04","19","22:00"
"-59.19","55.08","MAKKOVIK A","8502588","2018-04-19 23:00","2018","04","19","23:00"
"-59.19","55.08","MAKKOVIK A","8502588","2018-04-20 00:00","2018","04","20","00:00"
"-59.19","55.08","MAKKOVIK A","8502588","2018-04-20 01:00","2018","04","20","01:00"
"-59.19","55.08","MAKKOVIK A","8502588","2018-04-20 02:00","2018","04","20","02:00"
"-59.19","55.08","MAKKOVIK A","8502588","2018-04-20 03:00","2018","04","20","03:00"
"-59.19","55.08","MAKKOVIK A","8502588","2018-04-20 04:00","2018","04","20","04:00"
"-59.19","55.08","MAKKOVIK A","8502588","2018-04-20 05:00","2018","04","20","05:00","-5.7","","-6.4","","95","","","","32","","39","","3.6","","100.78","","","","-15","","Freezing Rain,Freezing Drizzle"
"-59.19","55.08","MAKKOVIK A","8502588","2018-04-20 06:00","2018","04","20","06:00","-5.6","","-6.3","","94","","","","32","","37","","4.0","","100.81","","","","-15","","Freezing Rain,Freezing Drizzle"
"-59.19","55.08","MAKKOVIK A","8502588","2018-04-20 07:00","2018","04","20","07:00","-5.5","","-6.4","","93","","","","32","","32","","6.4","","100.83","","","","-14","","Freezing Drizzle"
"-59.19","55.08","MAKKOVIK A","8502588","2018-04-20 08:00","2018","04","20","08:00","-5.2","","-6.2","","92","","","","32","","39","","4.8","","100.83","","","","-14","","Freezing Drizzle"
"-59.19","55.08","MAKKOVIK A","8502588","2018-04-20 09:00","2018","04","20","09:00","-5.0","","-6.2","","91","","","","32","","35","","8.1","","100.86","","","","-14","","Freezing Drizzle"
"-59.19","55.08","MAKKOVIK A","8502588","2018-04-20 10:00","2018","04","20","10:00","-4.7","","-5.8","","92","","","","32","","30","","8.1","","100.89","","","","-13","","Freezing Drizzle"
"-59.19","55.08","MAKKOVIK A","8502588","2018-04-20 11:00","2018","04","20","11:00","-4.7","","-5.8","","92","","","","32","","30","","6.4","","100.91","","","","-13","","Freezing Drizzle"
"-59.19","55.08","MAKKOVIK A","8502588","2018-04-20 12:00","2018","04","20","12:00","-4.3","","-5.3","","93","","","","32","","29","","6.4","","100.91","","","","-12","","Freezing Drizzle"
"-59.19","55.08","MAKKOVIK A","8502588","2018-04-20 13:00","2018","04","20","13:00","-4.1","","-5.2","","92","","","","33","","33","","8.1","","100.88","","","","-12","","Freezing Drizzle"
"-59.19","55.08","MAKKOVIK A","8502588","2018-04-20 14:00","2018","04","20","14:00","-3.9","","-5.0","","92","","","","33","","30","","4.8","","100.87","","","","-12","","Freezing Drizzle,Snow"
"-59.19","55.08","MAKKOVIK A","8502588","2018-04-20 15:00","2018","04","20","15:00","-3.7","","-5.0","","91","","","","34","","30","","2.4","","100.86","","","","-11","","Freezing Drizzle,Snow"
"-59.19","55.08","MAKKOVIK A","8502588","2018-04-20 16:00","2018","04","20","16:00","-3.7","","-4.9","","92","","","","34","","27","","2.4","","100.88","","","","-11","","Freezing Drizzle,Snow"
"-59.19","55.08","MAKKOVIK A","8502588","2018-04-20 17:00","2018","04","20","17:00"
"-59.19","55.08","MAKKOVIK A","8502588","2018-04-20 18:00","2018","04","20","18:00"
"-59.19","55.08","MAKKOVIK A","8502588","2018-04-20 19:00","2018","04","20","19:00"
"-59.19","55.08","MAKKOVIK A","8502588","2018-04-20 20:00","2018","04","20","20:00"
"-59.19","55.08","MAKKOVIK A","8502588","2018-04-20 21:00","2018","04","20","21:00"
"-59.19","55.08","MAKKOVIK A","8502588","2018-04-20 22:00","2018","04","20","22:00"
"-59.19","55.08","MAKKOVIK A","8502588","2018-04-20 23:00","2018","04","20","23:00"
"-59.19","55.08","MAKKOVIK A","8502588","2018-04-21 00:00","2018","04","21","00:00"
"-59.19","55.08","MAKKOVIK A","8502588","2018-04-21 01:00","2018","04","21","01:00"
"-59.19","55.08","MAKKOVIK A","8502588","2018-04-21 02:00","2018","04","21","02:00"
"-59.19","55.08","MAKKOVIK A","8502588","2018-04-21 03:00","2018","04","21","03:00"
"-59.19","55.08","MAKKOVIK A","8502588","2018-04-21 04:00","2018","04","21","04:00"
"-59.19","55.08","MAKKOVIK A","8502588","2018-04-21 05:00","2018","04","21","05:00","-5.0","","-5.7","","95","","","","31","","29","","2.4","","100.57","","","","-13","","Snow"
"-59.19","55.08","MAKKOVIK A","8502588","2018-04-21 06:00","2018","04","21","06:00","-3.8","","-4.5","","95","","","","33","","31","","2.4","","100.56","","","","-12","","Snow,Blowing Snow"
"-59.19","55.08","MAKKOVIK A","8502588","2018-04-21 07:00","2018","04","21","07:00","-3.7","","-4.6","","94","","","","32","","36","","1.6","","100.57","","","","-12","","Snow,Blowing Snow"
"-59.19","55.08","MAKKOVIK A","8502588","2018-04-21 08:00","2018","04","21","08:00","-4.2","","-5.1","","93","","","","31","","32","","1.6","","100.57","","","","-12","","Snow,Blowing Snow"
"-59.19","55.08","MAKKOVIK A","8502588","2018-04-21 09:00","2018","04","21","09:00","-4.2","","-5.2","","93","","","","31","","33","","1.6","","100.57","","","","-12","","Snow,Blowing Snow"
"-59.19","55.08","MAKKOVIK A","8502588","2018-04-21 10:00","2018","04","21","10:00","-3.7","","-4.9","","91","","","","31","","28","","1.6","","100.58","","","","-11","","Snow,Blowing Snow"
"-59.19","55.08","MAKKOVIK A","8502588","2018-04-21 11:00","2018","04","21","11:00","-4.2","","-5.5","","91","","","","31","","35","","1.6","","100.57","","","","-13","","Snow,Blowing Snow"
"-59.19","55.08","MAKKOVIK A","8502588","2018-04-21 12:00","2018","04","21","12:00","-4.7","","-6.0","","91","","","","32","","40","","1.6","","100.57","","","","-14","","Snow,Blowing Snow"
"-59.19","55.08","MAKKOVIK A","8502588","2018-04-21 13:00","2018","04","21","13:00","-4.8","","-5.9","","92","","","","31","","36","","2.4","","100.59","","","","-13","","Snow,Blowing Snow"
"-59.19","55.08","MAKKOVIK A","8502588","2018-04-21 14:00","2018","04","21","14:00","-4.8","","-6.0","","91","","","","32","","37","","3.6","","100.57","","","","-14","","Snow,Blowing Snow"
"-59.19","55.08","MAKKOVIK A","8502588","2018-04-21 15:00","2018","04","21","15:00","-4.9","","-6.0","","92","","","","31","","40","","4.0","","100.60","","","","-14","","Snow,Blowing Snow"
"-59.19","55.08","MAKKOVIK A","8502588","2018-04-21 16:00","2018","04","21","16:00","-4.8","","-5.8","","92","","","","32","","33","","3.6","","100.61","","","","-13","","Snow,Blowing Snow"
"-59.19","55.08","MAKKOVIK A","8502588","2018-04-21 17:00","2018","04","21","17:00"
"-59.19","55.08","MAKKOVIK A","8502588","2018-04-21 18:00","2018","04","21","18:00"
"-59.19","55.08","MAKKOVIK A","8502588","2018-04-21 19:00","2018","04","21","19:00"
"-59.19","55.08","MAKKOVIK A","8502588","2018-04-21 20:00","2018","04","21","20:00"
"-59.19","55.08","MAKKOVIK A","8502588","2018-04-21 21:00","2018","04","21","21:00"
"-59.19","55.08","MAKKOVIK A","8502588","2018-04-21 22:00","2018","04","21","22:00"
"-59.19","55.08","MAKKOVIK A","8502588","2018-04-21 23:00","2018","04","21","23:00"
"-59.19","55.08","MAKKOVIK A","8502588","2018-04-22 00:00","2018","04","22","00:00"
"-59.19","55.08","MAKKOVIK A","8502588","2018-04-22 01:00","2018","04","22","01:00"
"-59.19","55.08","MAKKOVIK A","8502588","2018-04-22 02:00","2018","04","22","02:00"
"-59.19","55.08","MAKKOVIK A","8502588","2018-04-22 03:00","2018","04","22","03:00"
"-59.19","55.08","MAKKOVIK A","8502588","2018-04-22 04:00","2018","04","22","04:00"
"-59.19","55.08","MAKKOVIK A","8502588","2018-04-22 05:00","2018","04","22","05:00","-6.5","","-8.4","","86","","","","30","","53","","9.7","","100.55","","","","-17","","Snow,Blowing Snow"
"-59.19","55.08","MAKKOVIK A","8502588","2018-04-22 06:00","2018","04","22","06:00","-6.7","","-8.8","","85","","","","30","","46","","9.7","","100.57","","","","-17","","Snow,Blowing Snow"
"-59.19","55.08","MAKKOVIK A","8502588","2018-04-22 07:00","2018","04","22","07:00","-6.6","","-8.8","","85","","","","30","","47","","8.1","","100.60","","","","-17","","Snow,Blowing Snow"
"-59.19","55.08","MAKKOVIK A","8502588","2018-04-22 08:00","2018","04","22","08:00","-6.5","","-8.6","","85","","","","30","","43","","11.3","","100.65","","","","-16","","Blowing Snow"
"-59.19","55.08","MAKKOVIK A","8502588","2018-04-22 09:00","2018","04","22","09:00","-6.3","","-8.4","","86","","","","30","","45","","9.7","","100.65","","","","-16","","Snow,Blowing Snow"
"-59.19","55.08","MAKKOVIK A","8502588","2018-04-22 10:00","2018","04","22","10:00","-6.0","","-8.2","","84","","","","29","","39","","9.7","","100.66","","","","-15","","Snow,Blowing Snow"
"-59.19","55.08","MAKKOVIK A","8502588","2018-04-22 11:00","2018","04","22","11:00","-5.4","","-8.2","","81","","","","30","","40","","9.7","","100.68","","","","-15","","Snow,Blowing Snow"
"-59.19","55.08","MAKKOVIK A","8502588","2018-04-22 12:00","2018","04","22","12:00","-4.8","","-8.1","","78","","","","29","","36","","24.1","","100.68","","","","-13","","Blowing Snow"
"-59.19","55.08","MAKKOVIK A","8502588","2018-04-22 13:00","2018","04","22","13:00","-4.1","","-7.8","","76","","","","29","","24","","24.1","","100.67","","","","-11","","NA"
"-59.19","55.08","MAKKOVIK A","8502588","2018-04-22 14:00","2018","04","22","14:00","-3.8","","-7.7","","74","","","","31","","19","","24.1","","100.64","","","","-10","","Mainly Clear"
"-59.19","55.08","MAKKOVIK A","8502588","2018-04-22 15:00","2018","04","22","15:00","-3.4","","-7.7","","73","","","","32","","15","","24.1","","100.65","","","","-9","","NA"
"-59.19","55.08","MAKKOVIK A","8502588","2018-04-22 16:00","2018","04","22","16:00","-3.3","","-8.7","","66","","","","32","","15","","24.1","","100.65","","","","-8","","NA"
"-59.19","55.08","MAKKOVIK A","8502588","2018-04-22 17:00","2018","04","22","17:00"
"-59.19","55.08","MAKKOVIK A","8502588","2018-04-22 18:00","2018","04","22","18:00"
"-59.19","55.08","MAKKOVIK A","8502588","2018-04-22 19:00","2018","04","22","19:00"
"-59.19","55.08","MAKKOVIK A","8502588","2018-04-22 20:00","2018","04","22","20:00"
"-59.19","55.08","MAKKOVIK A","8502588","2018-04-22 21:00","2018","04","22","21:00"
"-59.19","55.08","MAKKOVIK A","8502588","2018-04-22 22:00","2018","04","22","22:00"
"-59.19","55.08","MAKKOVIK A","8502588","2018-04-22 23:00","2018","04","22","23:00"
"-59.19","55.08","MAKKOVIK A","8502588","2018-04-23 00:00","2018","04","23","00:00"
"-59.19","55.08","MAKKOVIK A","8502588","2018-04-23 01:00","2018","04","23","01:00"
"-59.19","55.08","MAKKOVIK A","8502588","2018-04-23 02:00","2018","04","23","02:00"
"-59.19","55.08","MAKKOVIK A","8502588","2018-04-23 03:00","2018","04","23","03:00"
"-59.19","55.08","MAKKOVIK A","8502588","2018-04-23 04:00","2018","04","23","04:00"
"-59.19","55.08","MAKKOVIK A","8502588","2018-04-23 05:00","2018","04","23","05:00","-6.0","","-11.2","","67","","","","23","","25","","24.1","","100.51","","","","-14","","Clear"
"-59.19","55.08","MAKKOVIK A","8502588","2018-04-23 06:00","2018","04","23","06:00","-5.2","","-11.2","","63","","","","23","","30","","24.1","","100.50","","","","-13","","NA"
"-59.19","55.08","MAKKOVIK A","8502588","2018-04-23 07:00","2018","04","23","07:00","-3.5","","-10.3","","59","","","","23","","30","","24.1","","100.47","","","","-11","","NA"
"-59.19","55.08","MAKKOVIK A","8502588","2018-04-23 08:00","2018","04","23","08:00","-0.9","","-8.3","","57","","","","23","","27","","24.1","","100.51","","","","-7","","Mainly Clear"
"-59.19","55.08","MAKKOVIK A","8502588","2018-04-23 09:00","2018","04","23","09:00","0.4","","-7.2","","57","","","","24","","25","","24.1","","100.52","","","","","","NA"
"-59.19","55.08","MAKKOVIK A","8502588","2018-04-23 10:00","2018","04","23","10:00","2.0","","-5.2","","59","","","","26","","27","","24.1","","100.54","","","","","","NA"
"-59.19","55.08","MAKKOVIK A","8502588","2018-04-23 11:00","2018","04","23","11:00","2.5","","-4.5","","60","","","","27","","26","","24.1","","100.53","","","","","","Mostly Cloudy"
"-59.19","55.08","MAKKOVIK A","8502588","2018-04-23 12:00","2018","04","23","12:00","1.0","","-4.4","","68","","","","31","","30","","24.1","","100.58","","","","","","NA"
"-59.19","55.08","MAKKOVIK A","8502588","2018-04-23 13:00","2018","04","23","13:00","0.5","","-5.3","","65","","","","32","","31","","24.1","","100.63","","","","","","NA"
"-59.19","55.08","MAKKOVIK A","8502588","2018-04-23 14:00","2018","04","23","14:00","0.1","","-5.9","","64","","","","30","","26","","24.1","","100.67","","","","","","Mostly Cloudy"
"-59.19","55.08","MAKKOVIK A","8502588","2018-04-23 15:00","2018","04","23","15:00","0.0","","-5.8","","65","","","","30","","18","","24.1","","100.69","","","","-5","","NA"
"-59.19","55.08","MAKKOVIK A","8502588","2018-04-23 16:00","2018","04","23","16:00","0.4","","-6.0","","63","","","","32","","17","","24.1","","100.69","","","","","","NA"
"-59.19","55.08","MAKKOVIK A","8502588","2018-04-23 17:00","2018","04","23","17:00"
"-59.19","55.08","MAKKOVIK A","8502588","2018-04-23 18:00","2018","04","23","18:00"
"-59.19","55.08","MAKKOVIK A","8502588","2018-04-23 19:00","2018","04","23","19:00"
"-59.19","55.08","MAKKOVIK A","8502588","2018-04-23 20:00","2018","04","23","20:00"
"-59.19","55.08","MAKKOVIK A","8502588","2018-04-23 21:00","2018","04","23","21:00"
"-59.19","55.08","MAKKOVIK A","8502588","2018-04-23 22:00","2018","04","23","22:00"
"-59.19","55.08","MAKKOVIK A","8502588","2018-04-23 23:00","2018","04","23","23:00"
"-59.19","55.08","MAKKOVIK A","8502588","2018-04-24 00:00","2018","04","24","00:00"
"-59.19","55.08","MAKKOVIK A","8502588","2018-04-24 01:00","2018","04","24","01:00"
"-59.19","55.08","MAKKOVIK A","8502588","2018-04-24 02:00","2018","04","24","02:00"
"-59.19","55.08","MAKKOVIK A","8502588","2018-04-24 03:00","2018","04","24","03:00"
"-59.19","55.08","MAKKOVIK A","8502588","2018-04-24 04:00","2018","04","24","04:00"
"-59.19","55.08","MAKKOVIK A","8502588","2018-04-24 05:00","2018","04","24","05:00","-2.3","","-7.7","","66","","","","26","","4","","24.1","","100.21","","","","-4","","Mostly Cloudy"
"-59.19","55.08","MAKKOVIK A","8502588","2018-04-24 06:00","2018","04","24","06:00","0.3","","-7.9","","54","","","","20","","3","","24.1","","100.17","","","","","","NA"
"-59.19","55.08","MAKKOVIK A","8502588","2018-04-24 07:00","2018","04","24","07:00","1.2","","-5.7","","60","","","","16","","5","","24.1","","100.08","","","","","","NA"
"-59.19","55.08","MAKKOVIK A","8502588","2018-04-24 08:00","2018","04","24","08:00","3.1","","-3.4","","62","","","","36","","3","","24.1","","100.03","","","","","","Mostly Cloudy"
"-59.19","55.08","MAKKOVIK A","8502588","2018-04-24 09:00","2018","04","24","09:00","3.7","","-3.1","","61","","","","7","","5","","24.1","","99.99","","","","","","NA"
"-59.19","55.08","MAKKOVIK A","8502588","2018-04-24 10:00","2018","04","24","10:00","6.9","","-1.0","","57","","","","24","","19","","24.1","","99.93","","","","","","NA"
"-59.19","55.08","MAKKOVIK A","8502588","2018-04-24 11:00","2018","04","24","11:00","7.1","","-0.7","","57","","","","25","","17","","24.1","","99.90","","","","","","Mostly Cloudy"
"-59.19","55.08","MAKKOVIK A","8502588","2018-04-24 12:00","2018","04","24","12:00","7.7","","-0.4","","56","","","","29","","12","","24.1","","99.88","","","","","","NA"
"-59.19","55.08","MAKKOVIK A","8502588","2018-04-24 13:00","2018","04","24","13:00","8.3","","-0.2","","55","","","","32","","4","","24.1","","99.86","","","","","","NA"
"-59.19","55.08","MAKKOVIK A","8502588","2018-04-24 14:00","2018","04","24","14:00","7.5","","-0.4","","57","","","","7","","4","","24.1","","99.83","","","","","","Mostly Cloudy"
"-59.19","55.08","MAKKOVIK A","8502588","2018-04-24 15:00","2018","04","24","15:00","7.5","","0.0","","59","","","","2","","4","","24.1","","99.86","","","","","","NA"
"-59.19","55.08","MAKKOVIK A","8502588","2018-04-24 16:00","2018","04","24","16:00","6.3","","0.6","","67","","","","36","","3","","19.3","","99.91","","","","","","Rain"
"-59.19","55.08","MAKKOVIK A","8502588","2018-04-24 17:00","2018","04","24","17:00"
"-59.19","55.08","MAKKOVIK A","8502588","2018-04-24 18:00","2018","04","24","18:00"
"-59.19","55.08","MAKKOVIK A","8502588","2018-04-24 19:00","2018","04","24","19:00"
"-59.19","55.08","MAKKOVIK A","8502588","2018-04-24 20:00","2018","04","24","20:00"
"-59.19","55.08","MAKKOVIK A","8502588","2018-04-24 21:00","2018","04","24","21:00"
"-59.19","55.08","MAKKOVIK A","8502588","2018-04-24 22:00","2018","04","24","22:00"
"-59.19","55.08","MAKKOVIK A","8502588","2018-04-24 23:00","2018","04","24","23:00"
"-59.19","55.08","MAKKOVIK A","8502588","2018-04-25 00:00","2018","04","25","00:00"
"-59.19","55.08","MAKKOVIK A","8502588","2018-04-25 01:00","2018","04","25","01:00"
"-59.19","55.08","MAKKOVIK A","8502588","2018-04-25 02:00","2018","04","25","02:00"
"-59.19","55.08","MAKKOVIK A","8502588","2018-04-25 03:00","2018","04","25","03:00"
"-59.19","55.08","MAKKOVIK A","8502588","2018-04-25 04:00","2018","04","25","04:00"
"-59.19","55.08","MAKKOVIK A","8502588","2018-04-25 05:00","2018","04","25","05:00","-0.5","","-0.7","","99","","","","33","","4","","11.3","","100.29","","","","-2","","Freezing Drizzle"
"-59.19","55.08","MAKKOVIK A","8502588","2018-04-25 06:00","2018","04","25","06:00","-0.2","","-0.3","","99","","","","18","","3","","24.1","","100.30","","","","-1","","NA"
"-59.19","55.08","MAKKOVIK A","8502588","2018-04-25 07:00","2018","04","25","07:00","0.2","","-0.2","","97","","","","36","","1","","24.1","","100.30","","","","","","NA"
"-59.19","55.08","MAKKOVIK A","8502588","2018-04-25 08:00","2018","04","25","08:00","1.7","","0.7","","93","","","","25","","12","","24.1","","100.28","","","","","","Mostly Cloudy"
"-59.19","55.08","MAKKOVIK A","8502588","2018-04-25 09:00","2018","04","25","09:00","2.8","","0.9","","87","","","","25","","16","","19.3","","100.27","","","","","","Rain"
"-59.19","55.08","MAKKOVIK A","8502588","2018-04-25 10:00","2018","04","25","10:00","3.8","","0.9","","81","","","","25","","23","","19.3","","100.27","","","","","","Rain"
"-59.19","55.08","MAKKOVIK A","8502588","2018-04-25 11:00","2018","04","25","11:00","4.5","","0.7","","76","","","","26","","21","","19.3","","100.28","","","","","","Rain"
"-59.19","55.08","MAKKOVIK A","8502588","2018-04-25 12:00","2018","04","25","12:00","4.8","","1.1","","77","","","","28","","16","","19.3","","100.28","","","","","","Rain"
"-59.19","55.08","MAKKOVIK A","8502588","2018-04-25 13:00","2018","04","25","13:00","5.4","","0.9","","73","","","","27","","20","","24.1","","100.32","","","","","","NA"
"-59.19","55.08","MAKKOVIK A","8502588","2018-04-25 14:00","2018","04","25","14:00","6.1","","0.5","","67","","","","29","","18","","24.1","","100.35","","","","","","Mostly Cloudy"
"-59.19","55.08","MAKKOVIK A","8502588","2018-04-25 15:00","2018","04","25","15:00","5.9","","0.5","","68","","","","29","","13","","24.1","","100.40","","","","","","NA"
"-59.19","55.08","MAKKOVIK A","8502588","2018-04-25 16:00","2018","04","25","16:00","2.6","","0.5","","86","","","","36","","19","","24.1","","100.48","","","","","","NA"
"-59.19","55.08","MAKKOVIK A","8502588","2018-04-25 17:00","2018","04","25","17:00"
"-59.19","55.08","MAKKOVIK A","8502588","2018-04-25 18:00","2018","04","25","18:00"
"-59.19","55.08","MAKKOVIK A","8502588","2018-04-25 19:00","2018","04","25","19:00"
"-59.19","55.08","MAKKOVIK A","8502588","2018-04-25 20:00","2018","04","25","20:00"
"-59.19","55.08","MAKKOVIK A","8502588","2018-04-25 21:00","2018","04","25","21:00"
"-59.19","55.08","MAKKOVIK A","8502588","2018-04-25 22:00","2018","04","25","22:00"
"-59.19","55.08","MAKKOVIK A","8502588","2018-04-25 23:00","2018","04","25","23:00"
"-59.19","55.08","MAKKOVIK A","8502588","2018-04-26 00:00","2018","04","26","00:00"
"-59.19","55.08","MAKKOVIK A","8502588","2018-04-26 01:00","2018","04","26","01:00"
"-59.19","55.08","MAKKOVIK A","8502588","2018-04-26 02:00","2018","04","26","02:00"
"-59.19","55.08","MAKKOVIK A","8502588","2018-04-26 03:00","2018","04","26","03:00"
"-59.19","55.08","MAKKOVIK A","8502588","2018-04-26 04:00","2018","04","26","04:00"
"-59.19","55.08","MAKKOVIK A","8502588","2018-04-26 05:00","2018","04","26","05:00","-2.1","","-4.2","","86","","","","19","","7","","24.1","","101.10","","","","-5","","Clear"
"-59.19","55.08","MAKKOVIK A","8502588","2018-04-26 06:00","2018","04","26","06:00","-0.9","","-3.2","","84","","","","36","","2","","24.1","","101.11","","","","-2","","NA"
"-59.19","55.08","MAKKOVIK A","8502588","2018-04-26 07:00","2018","04","26","07:00","-0.8","","-3.8","","80","","","","36","","3","","24.1","","101.05","","","","-2","","NA"
"-59.19","55.08","MAKKOVIK A","8502588","2018-04-26 08:00","2018","04","26","08:00","0.9","","-2.4","","79","","","","15","","14","","24.1","","101.05","","","","","","Mainly Clear"
"-59.19","55.08","MAKKOVIK A","8502588","2018-04-26 09:00","2018","04","26","09:00","2.3","","-1.9","","74","","","","14","","16","","24.1","","100.99","","","","","","NA"
"-59.19","55.08","MAKKOVIK A","8502588","2018-04-26 10:00","2018","04","26","10:00","3.3","","-1.7","","70","","","","14","","17","","24.1","","100.95","","","","","","NA"
"-59.19","55.08","MAKKOVIK A","8502588","2018-04-26 11:00","2018","04","26","11:00","4.7","","-1.7","","63","","","","14","","17","","24.1","","100.88","","","","","","Mostly Cloudy"
"-59.19","55.08","MAKKOVIK A","8502588","2018-04-26 12:00","2018","04","26","12:00","5.4","","-1.9","","59","","","","14","","21","","24.1","","100.81","","","","","","NA"
"-59.19","55.08","MAKKOVIK A","8502588","2018-04-26 13:00","2018","04","26","13:00","5.5","","-1.3","","62","","","","14","","24","","24.1","","100.73","","","","","","NA"
"-59.19","55.08","MAKKOVIK A","8502588","2018-04-26 14:00","2018","04","26","14:00","5.3","","-0.9","","64","","","","14","","26","","24.1","","100.65","","","","","","Mostly Cloudy"
"-59.19","55.08","MAKKOVIK A","8502588","2018-04-26 15:00","2018","04","26","15:00","5.6","","-0.7","","64","","","","13","","28","","24.1","","100.57","","","","","","NA"
"-59.19","55.08","MAKKOVIK A","8502588","2018-04-26 16:00","2018","04","26","16:00","5.0","","-0.4","","68","","","","14","","29","","24.1","","100.51","","","","","","NA"
"-59.19","55.08","MAKKOVIK A","8502588","2018-04-26 17:00","2018","04","26","17:00"
"-59.19","55.08","MAKKOVIK A","8502588","2018-04-26 18:00","2018","04","26","18:00"
"-59.19","55.08","MAKKOVIK A","8502588","2018-04-26 19:00","2018","04","26","19:00"
"-59.19","55.08","MAKKOVIK A","8502588","2018-04-26 20:00","2018","04","26","20:00"
"-59.19","55.08","MAKKOVIK A","8502588","2018-04-26 21:00","2018","04","26","21:00"
"-59.19","55.08","MAKKOVIK A","8502588","2018-04-26 22:00","2018","04","26","22:00"
"-59.19","55.08","MAKKOVIK A","8502588","2018-04-26 23:00","2018","04","26","23:00"
"-59.19","55.08","MAKKOVIK A","8502588","2018-04-27 00:00","2018","04","27","00:00"
"-59.19","55.08","MAKKOVIK A","8502588","2018-04-27 01:00","2018","04","27","01:00"
"-59.19","55.08","MAKKOVIK A","8502588","2018-04-27 02:00","2018","04","27","02:00"
"-59.19","55.08","MAKKOVIK A","8502588","2018-04-27 03:00","2018","04","27","03:00"
"-59.19","55.08","MAKKOVIK A","8502588","2018-04-27 04:00","2018","04","27","04:00"
"-59.19","55.08","MAKKOVIK A","8502588","2018-04-27 05:00","2018","04","27","05:00","4.9","","3.3","","89","","","","12","","16","","24.1","","98.55","","","","","","Mostly Cloudy"
"-59.19","55.08","MAKKOVIK A","8502588","2018-04-27 06:00","2018","04","27","06:00","6.2","","4.2","","87","","","","18","","5","","24.1","","98.53","","","","","","NA"
"-59.19","55.08","MAKKOVIK A","8502588","2018-04-27 07:00","2018","04","27","07:00","5.5","","3.8","","89","","","","21","","18","","24.1","","98.53","","","","","","NA"
"-59.19","55.08","MAKKOVIK A","8502588","2018-04-27 08:00","2018","04","27","08:00","6.4","","4.5","","87","","","","22","","12","","24.1","","98.53","","","","","","Mostly Cloudy"
"-59.19","55.08","MAKKOVIK A","8502588","2018-04-27 09:00","2018","04","27","09:00","6.1","","4.0","","86","","","","25","","22","","24.1","","98.57","","","","","","NA"
"-59.19","55.08","MAKKOVIK A","8502588","2018-04-27 10:00","2018","04","27","10:00","5.8","","5.0","","94","","","","24","","19","","24.1","","98.63","","","","","","NA"
"-59.19","55.08","MAKKOVIK A","8502588","2018-04-27 11:00","2018","04","27","11:00","5.4","","3.9","","90","","","","27","","26","","11.3","","98.74","","","","","","Cloudy"
"-59.19","55.08","MAKKOVIK A","8502588","2018-04-27 12:00","2018","04","27","12:00","2.3","","1.7","","96","","","","30","","21","","24.1","","98.89","","","","","","NA"
"-59.19","55.08","MAKKOVIK A","8502588","2018-04-27 13:00","2018","04","27","13:00","2.5","","1.1","","91","","","","30","","36","","24.1","","99.04","","","","","","NA"
"-59.19","55.08","MAKKOVIK A","8502588","2018-04-27 14:00","2018","04","27","14:00","2.1","","0.2","","87","","","","31","","34","","24.1","","99.23","","","","","","Mostly Cloudy"
"-59.19","55.08","MAKKOVIK A","8502588","2018-04-27 15:00","2018","04","27","15:00","1.9","","0.3","","89","","","","30","","26","","24.1","","99.39","","","","","","NA"
"-59.19","55.08","MAKKOVIK A","8502588","2018-04-27 16:00","2018","04","27","16:00","1.9","","0.6","","91","","","","30","","17","","24.1","","99.54","","","","","","NA"
"-59.19","55.08","MAKKOVIK A","8502588","2018-04-27 17:00","2018","04","27","17:00"
"-59.19","55.08","MAKKOVIK A","8502588","2018-04-27 18:00","2018","04","27","18:00"
"-59.19","55.08","MAKKOVIK A","8502588","2018-04-27 19:00","2018","04","27","19:00"
"-59.19","55.08","MAKKOVIK A","8502588","2018-04-27 20:00","2018","04","27","20:00"
"-59.19","55.08","MAKKOVIK A","8502588","2018-04-27 21:00","2018","04","27","21:00"
"-59.19","55.08","MAKKOVIK A","8502588","2018-04-27 22:00","2018","04","27","22:00"
"-59.19","55.08","MAKKOVIK A","8502588","2018-04-27 23:00","2018","04","27","23:00"
"-59.19","55.08","MAKKOVIK A","8502588","2018-04-28 00:00","2018","04","28","00:00"
"-59.19","55.08","MAKKOVIK A","8502588","2018-04-28 01:00","2018","04","28","01:00"
"-59.19","55.08","MAKKOVIK A","8502588","2018-04-28 02:00","2018","04","28","02:00"
"-59.19","55.08","MAKKOVIK A","8502588","2018-04-28 03:00","2018","04","28","03:00"
"-59.19","55.08","MAKKOVIK A","8502588","2018-04-28 04:00","2018","04","28","04:00"
"-59.19","55.08","MAKKOVIK A","8502588","2018-04-28 05:00","2018","04","28","05:00","-2.5","","-4.4","","87","","","","4","","9","","24.1","","101.14","","","","-6","","Cloudy"
"-59.19","55.08","MAKKOVIK A","8502588","2018-04-28 06:00","2018","04","28","06:00","-3.3","","-5.2","","87","","","","4","","11","","24.1","","101.14","","","","-8","","NA"
"-59.19","55.08","MAKKOVIK A","8502588","2018-04-28 07:00","2018","04","28","07:00","-2.8","","-4.1","","91","","","","5","","13","","24.1","","101.18","","","","-7","","NA"
"-59.19","55.08","MAKKOVIK A","8502588","2018-04-28 08:00","2018","04","28","08:00","-2.2","","-3.3","","92","","","","6","","13","","24.1","","101.13","","","","-7","","Cloudy"
"-59.19","55.08","MAKKOVIK A","8502588","2018-04-28 09:00","2018","04","28","09:00","-0.2","","-2.2","","86","","","","8","","21","","24.1","","101.12","","","","-6","","NA"
"-59.19","55.08","MAKKOVIK A","8502588","2018-04-28 10:00","2018","04","28","10:00","0.6","","-2.1","","82","","","","9","","30","","24.1","","101.08","","","","","","NA"
"-59.19","55.08","MAKKOVIK A","8502588","2018-04-28 11:00","2018","04","28","11:00","0.6","","-1.9","","83","","","","9","","25","","24.1","","100.96","","","","","","Cloudy"
"-59.19","55.08","MAKKOVIK A","8502588","2018-04-28 12:00","2018","04","28","12:00","0.2","","-1.3","","90","","","","9","","23","","11.3","","100.88","","","","","","Rain"
"-59.19","55.08","MAKKOVIK A","8502588","2018-04-28 13:00","2018","04","28","13:00","0.2","","-0.8","","93","","","","10","","24","","9.7","","100.78","","","","","","Rain"
"-59.19","55.08","MAKKOVIK A","8502588","2018-04-28 14:00","2018","04","28","14:00","0.2","","-0.5","","95","","","","9","","18","","11.3","","100.70","","","","","","Rain"
"-59.19","55.08","MAKKOVIK A","8502588","2018-04-28 15:00","2018","04","28","15:00","0.8","","0.1","","95","","","","34","","6","","11.3","","100.66","","","","","","Rain"
"-59.19","55.08","MAKKOVIK A","8502588","2018-04-28 16:00","2018","04","28","16:00","1.4","","0.4","","93","","","","14","","17","","11.3","","100.58","","","","","","Rain"
"-59.19","55.08","MAKKOVIK A","8502588","2018-04-28 17:00","2018","04","28","17:00"
"-59.19","55.08","MAKKOVIK A","8502588","2018-04-28 18:00","2018","04","28","18:00"
"-59.19","55.08","MAKKOVIK A","8502588","2018-04-28 19:00","2018","04","28","19:00"
"-59.19","55.08","MAKKOVIK A","8502588","2018-04-28 20:00","2018","04","28","20:00"
"-59.19","55.08","MAKKOVIK A","8502588","2018-04-28 21:00","2018","04","28","21:00"
"-59.19","55.08","MAKKOVIK A","8502588","2018-04-28 22:00","2018","04","28","22:00"
"-59.19","55.08","MAKKOVIK A","8502588","2018-04-28 23:00","2018","04","28","23:00"
"-59.19","55.08","MAKKOVIK A","8502588","2018-04-29 00:00","2018","04","29","00:00"
"-59.19","55.08","MAKKOVIK A","8502588","2018-04-29 01:00","2018","04","29","01:00"
"-59.19","55.08","MAKKOVIK A","8502588","2018-04-29 02:00","2018","04","29","02:00"
"-59.19","55.08","MAKKOVIK A","8502588","2018-04-29 03:00","2018","04","29","03:00"
"-59.19","55.08","MAKKOVIK A","8502588","2018-04-29 04:00","2018","04","29","04:00"
"-59.19","55.08","MAKKOVIK A","8502588","2018-04-29 05:00","2018","04","29","05:00","-0.3","","-0.4","","99","","","","34","","18","","1.0","","100.69","","","","-5","","Snow,Fog"
"-59.19","55.08","MAKKOVIK A","8502588","2018-04-29 06:00","2018","04","29","06:00","-0.2","","-0.3","","100","","","","34","","22","","1.0","","100.80","","","","-6","","Snow,Fog"
"-59.19","55.08","MAKKOVIK A","8502588","2018-04-29 07:00","2018","04","29","07:00","-0.1","","-0.2","","99","","","","36","","20","","1.2","","100.88","","","","-5","","Freezing Drizzle,Snow,Fog"
"-59.19","55.08","MAKKOVIK A","8502588","2018-04-29 08:00","2018","04","29","08:00","0.2","","0.1","","99","","","","1","","27","","1.6","","100.97","","","","","","Drizzle,Fog"
"-59.19","55.08","MAKKOVIK A","8502588","2018-04-29 09:00","2018","04","29","09:00","0.1","","-0.2","","98","","","","36","","20","","2.0","","101.09","","","","","","Drizzle,Fog"
"-59.19","55.08","MAKKOVIK A","8502588","2018-04-29 10:00","2018","04","29","10:00","-0.1","","-0.5","","97","","","","36","","22","","4.0","","101.19","","","","-6","","Freezing Drizzle,Fog"
"-59.19","55.08","MAKKOVIK A","8502588","2018-04-29 11:00","2018","04","29","11:00","0.1","","-0.7","","94","","","","1","","24","","8.1","","101.25","","","","","","Fog"
"-59.19","55.08","MAKKOVIK A","8502588","2018-04-29 12:00","2018","04","29","12:00","0.2","","-1.0","","91","","","","35","","18","","9.7","","101.27","","","","","","Fog"
"-59.19","55.08","MAKKOVIK A","8502588","2018-04-29 13:00","2018","04","29","13:00","0.4","","-1.2","","89","","","","2","","18","","11.3","","101.25","","","","","","NA"
"-59.19","55.08","MAKKOVIK A","8502588","2018-04-29 14:00","2018","04","29","14:00","0.1","","-1.6","","88","","","","1","","21","","11.3","","101.29","","","","","","Cloudy"
"-59.19","55.08","MAKKOVIK A","8502588","2018-04-29 15:00","2018","04","29","15:00","-0.2","","-2.1","","87","","","","2","","20","","16.1","","101.29","","","","-5","","NA"
"-59.19","55.08","MAKKOVIK A","8502588","2018-04-29 16:00","2018","04","29","16:00","-0.4","","-2.1","","88","","","","36","","14","","19.3","","101.29","","","","-5","","NA"
"-59.19","55.08","MAKKOVIK A","8502588","2018-04-29 17:00","2018","04","29","17:00"
"-59.19","55.08","MAKKOVIK A","8502588","2018-04-29 18:00","2018","04","29","18:00"
"-59.19","55.08","MAKKOVIK A","8502588","2018-04-29 19:00","2018","04","29","19:00"
"-59.19","55.08","MAKKOVIK A","8502588","2018-04-29 20:00","2018","04","29","20:00"
"-59.19","55.08","MAKKOVIK A","8502588","2018-04-29 21:00","2018","04","29","21:00"
"-59.19","55.08","MAKKOVIK A","8502588","2018-04-29 22:00","2018","04","29","22:00"
"-59.19","55.08","MAKKOVIK A","8502588","2018-04-29 23:00","2018","04","29","23:00"
"-59.19","55.08","MAKKOVIK A","8502588","2018-04-30 00:00","2018","04","30","00:00"
"-59.19","55.08","MAKKOVIK A","8502588","2018-04-30 01:00","2018","04","30","01:00"
"-59.19","55.08","MAKKOVIK A","8502588","2018-04-30 02:00","2018","04","30","02:00"
"-59.19","55.08","MAKKOVIK A","8502588","2018-04-30 03:00","2018","04","30","03:00"
"-59.19","55.08","MAKKOVIK A","8502588","2018-04-30 04:00","2018","04","30","04:00"
"-59.19","55.08","MAKKOVIK A","8502588","2018-04-30 05:00","2018","04","30","05:00","-1.2","","-3.0","","88","","","","23","","19","","24.1","","100.80","","","","-7","","Mainly Clear"
"-59.19","55.08","MAKKOVIK A","8502588","2018-04-30 06:00","2018","04","30","06:00","-0.5","","-3.0","","84","","","","24","","21","","24.1","","100.76","","","","-6","","NA"
"-59.19","55.08","MAKKOVIK A","8502588","2018-04-30 07:00","2018","04","30","07:00","1.3","","-2.7","","75","","","","24","","30","","24.1","","100.64","","","","","","NA"
"-59.19","55.08","MAKKOVIK A","8502588","2018-04-30 08:00","2018","04","30","08:00","2.2","","-2.0","","73","","","","23","","41","","24.1","","100.55","","","","","","Mainly Clear"
"-59.19","55.08","MAKKOVIK A","8502588","2018-04-30 09:00","2018","04","30","09:00","3.1","","-2.0","","69","","","","23","","42","","24.1","","100.52","","","","","","NA"
"-59.19","55.08","MAKKOVIK A","8502588","2018-04-30 10:00","2018","04","30","10:00","4.2","","-1.3","","67","","","","23","","40","","24.1","","100.42","","","","","","NA"
"-59.19","55.08","MAKKOVIK A","8502588","2018-04-30 11:00","2018","04","30","11:00","5.5","","-1.3","","62","","","","22","","47","","24.1","","100.32","","","","","","Mainly Clear"
"-59.19","55.08","MAKKOVIK A","8502588","2018-04-30 12:00","2018","04","30","12:00","6.7","","-1.5","","56","","","","23","","38","","24.1","","100.25","","","","","","NA"
"-59.19","55.08","MAKKOVIK A","8502588","2018-04-30 13:00","2018","04","30","13:00","7.7","","-2.4","","49","","","","23","","46","","24.1","","100.16","","","","","","NA"
"-59.19","55.08","MAKKOVIK A","8502588","2018-04-30 14:00","2018","04","30","14:00","8.3","","-2.4","","47","","","","23","","42","","24.1","","100.17","","","","","","Mostly Cloudy"
"-59.19","55.08","MAKKOVIK A","8502588","2018-04-30 15:00","2018","04","30","15:00","8.7","","-2.6","","45","","","","23","","36","","24.1","","100.15","","","","","","NA"
"-59.19","55.08","MAKKOVIK A","8502588","2018-04-30 16:00","2018","04","30","16:00","9.5","","-2.8","","42","","","","24","","32","","24.1","","100.18","","","","","","NA"
"-59.19","55.08","MAKKOVIK A","8502588","2018-04-30 17:00","2018","04","30","17:00"
"-59.19","55.08","MAKKOVIK A","8502588","2018-04-30 18:00","2018","04","30","18:00"
"-59.19","55.08","MAKKOVIK A","8502588","2018-04-30 19:00","2018","04","30","19:00"
"-59.19","55.08","MAKKOVIK A","8502588","2018-04-30 20:00","2018","04","30","20:00"
"-59.19","55.08","MAKKOVIK A","8502588","2018-04-30 21:00","2018","04","30","21:00"
"-59.19","55.08","MAKKOVIK A","8502588","2018-04-30 22:00","2018","04","30","22:00"
"-59.19","55.08","MAKKOVIK A","8502588","2018-04-30 23:00","2018","04","30","23:00"
