"Longitude (x)","Latitude (y)","Station Name","Climate ID","Date/Time (LST)","Year","Month","Day","Time (LST)","Temp (°C)","Temp Flag","Dew Point Temp (°C)","Dew Point Temp Flag","Rel Hum (%)","Rel Hum Flag","Precip. Amount (mm)","Precip. Amount Flag","Wind Dir (10s deg)","Wind Dir Flag","Wind Spd (km/h)","Wind Spd Flag","Visibility (km)","Visibility Flag","Stn Press (kPa)","Stn Press Flag","Hmdx","Hmdx Flag","Wind Chill","Wind Chill Flag","Weather"
"-63.51","44.88","HALIFAX STANFIELD INT'L A","8202251","2019-03-01 00:00","2019","03","01","00:00","-10.5","","-17.9","","55","","","","31","","27","","24.1","","100.03","","","","-20","","NA"
"-63.51","44.88","HALIFAX STANFIELD INT'L A","8202251","2019-03-01 01:00","2019","03","01","01:00","-10.9","","-17.9","","57","","","","32","","26","","24.1","","100.01","","","","-20","","NA"
"-63.51","44.88","HALIFAX STANFIELD INT'L A","8202251","2019-03-01 02:00","2019","03","01","02:00","-10.9","","-17.8","","57","","","","32","","27","","24.1","","100.07","","","","-20","","Clear"
"-63.51","44.88","HALIFAX STANFIELD INT'L A","8202251","2019-03-01 03:00","2019","03","01","03:00","-11.0","","-17.6","","59","","","","32","","24","","24.1","","100.14","","","","-20","","NA"
"-63.51","44.88","HALIFAX STANFIELD INT'L A","8202251","2019-03-01 04:00","2019","03","01","04:00","-10.9","","-17.6","","58","","","","31","","28","","24.1","","100.21","","","","-20","","NA"
"-63.51","44.88","HALIFAX STANFIELD INT'L A","8202251","2019-03-01 05:00","2019","03","01","05:00","-11.1","","-17.2","","61","","","","32","","26","","24.1","","100.26","","","","-20","","Clear"
"-63.51","44.88","HALIFAX STANFIELD INT'L A","8202251","2019-03-01 06:00","2019","03","01","06:00","-11.5","","-16.6","","66","","","","30","","25","","24.1","","100.35","","","","-21","","NA"
"-63.51","44.88","HALIFAX STANFIELD INT'L A","8202251","2019-03-01 07:00","2019","03","01","07:00","-11.4","","-16.0","","69","","","","31","","23","","24.1","","100.44","","","","-20","","NA"
"-63.51","44.88","HALIFAX STANFIELD INT'L A","8202251","2019-03-01 08:00","2019","03","01","08:00","-10.0","","-15.5","","64","","","","30","","18","","24.1","","100.52","","","","-17","","Clear"
"-63.51","44.88","HALIFAX STANFIELD INT'L A","8202251","2019-03-01 09:00","2019","03","01","09:00","-8.0","","-15.3","","56","","","","30","","14","","24.1","","100.62","","","","-14","","NA"
"-63.51","44.88","HALIFAX STANFIELD INT'L A","8202251","2019-03-01 10:00","2019","03","01","10:00","-6.2","","-15.6","","48","","","","33","","25","","24.1","","100.62","","","","-14","","NA"
"-63.51","44.88","HALIFAX STANFIELD INT'L A","8202251","2019-03-01 11:00","2019","03","01","11:00","-4.2","","-16.6","","38","","","","31","","25","","24.1","","100.68","","","","-11","","Mainly Clear"
"-63.51","44.88","HALIFAX STANFIELD INT'L A","8202251","2019-03-01 12:00","2019","03","01","12:00","-3.5","","-15.3","","40","","","","32","","23","","24.1","","100.69","","","","-10","","NA"
"-63.51","44.88","HALIFAX STANFIELD INT'L A","8202251","2019-03-01 13:00","2019","03","01","13:00","-2.5","","-16.0","","35","","","","32","","23","","24.1","","100.69","","","","-9","","NA"
"-63.51","44.88","HALIFAX STANFIELD INT'L A","8202251","2019-03-01 14:00","2019","03","01","14:00","-1.9","","-16.5","","32","","","","29","","19","","24.1","","100.69","","","","-7","","Mainly Clear"
"-63.51","44.88","HALIFAX STANFIELD INT'L A","8202251","2019-03-01 15:00","2019","03","01","15:00","-1.0","","-16.1","","31","","","","30","","23","","24.1","","100.67","","","","-7","","NA"
"-63.51","44.88","HALIFAX STANFIELD INT'L A","8202251","2019-03-01 16:00","2019","03","01","16:00","-0.7","","-16.8","","29","","","","29","","19","","24.1","","100.66","","","","-6","","NA"
"-63.51","44.88","HALIFAX STANFIELD INT'L A","8202251","2019-03-01 17:00","2019","03","01","17:00","-1.2","","-17.8","","28","","","","30","","26","","24.1","","100.67","","","","-8","","Clear"
"-63.51","44.88","HALIFAX STANFIELD INT'L A","8202251","2019-03-01 18:00","2019","03","01","18:00","-2.4","","-17.6","","30","","","","29","","16","","24.1","","100.67","","","","-8","","NA"
"-63.51","44.88","HALIFAX STANFIELD INT'L A","8202251","2019-03-01 19:00","2019","03","01","19:00","-3.7","","-16.4","","37","","","","27","","8","","24.1","","100.73","","","","-7","","NA"
"-63.51","44.88","HALIFAX STANFIELD INT'L A","8202251","2019-03-01 20:00","2019","03","01","20:00","-3.7","","-18.0","","33","","","","27","","9","","24.1","","100.76","","","","-7","","Clear"
"-63.51","44.88","HALIFAX STANFIELD INT'L A","8202251","2019-03-01 21:00","2019","03","01","21:00","-4.5","","-16.5","","39","","","","26","","14","","24.1","","100.76","","","","-10","","NA"
"-63.51","44.88","HALIFAX STANFIELD INT'L A","8202251","2019-03-01 22:00","2019","03","01","22:00","-5.2","","-15.2","","46","","","","27","","14","","24.1","","100.78","","","","-11","","NA"
"-63.51","44.88","HALIFAX STANFIELD INT'L A","8202251","2019-03-01 23:00","2019","03","01","23:00","-6.2","","-12.9","","60","","","","24","","11","","24.1","","100.81","","","","-11","","Clear"
"-63.51","44.88","HALIFAX STANFIELD INT'L A","8202251","2019-03-02 00:00","2019","03","02","00:00","-6.1","","-11.8","","64","","","","24","","13","","24.1","","100.80","","","","-11","","NA"
"-63.51","44.88","HALIFAX STANFIELD INT'L A","8202251","2019-03-02 01:00","2019","03","02","01:00","-5.7","","-10.3","","70","","","","24","","21","","24.1","","100.78","","","","-13","","NA"
"-63.51","44.88","HALIFAX STANFIELD INT'L A","8202251","2019-03-02 02:00","2019","03","02","02:00","-6.2","","-9.9","","75","","","","22","","17","","24.1","","100.79","","","","-12","","Clear"
"-63.51","44.88","HALIFAX STANFIELD INT'L A","8202251","2019-03-02 03:00","2019","03","02","03:00","-6.6","","-9.8","","78","","","","22","","16","","24.1","","100.75","","","","-13","","NA"
"-63.51","44.88","HALIFAX STANFIELD INT'L A","8202251","2019-03-02 04:00","2019","03","02","04:00","-7.0","","-9.6","","82","","","","21","","13","","24.1","","100.68","","","","-13","","NA"
"-63.51","44.88","HALIFAX STANFIELD INT'L A","8202251","2019-03-02 05:00","2019","03","02","05:00","-7.3","","-9.3","","86","","","","21","","15","","24.1","","100.68","","","","-13","","Clear"
"-63.51","44.88","HALIFAX STANFIELD INT'L A","8202251","2019-03-02 06:00","2019","03","02","06:00","-7.3","","-9.1","","87","","","","23","","11","","24.1","","100.67","","","","-12","","NA"
"-63.51","44.88","HALIFAX STANFIELD INT'L A","8202251","2019-03-02 07:00","2019","03","02","07:00","-7.1","","-8.9","","87","","","","22","","12","","24.1","","100.64","","","","-12","","NA"
"-63.51","44.88","HALIFAX STANFIELD INT'L A","8202251","2019-03-02 08:00","2019","03","02","08:00","-5.6","","-7.8","","85","","","","24","","5","","24.1","","100.61","","","","-8","","Mostly Cloudy"
"-63.51","44.88","HALIFAX STANFIELD INT'L A","8202251","2019-03-02 09:00","2019","03","02","09:00","-3.4","","-6.2","","81","","","","27","","3","","24.1","","100.61","","","","-5","","NA"
"-63.51","44.88","HALIFAX STANFIELD INT'L A","8202251","2019-03-02 10:00","2019","03","02","10:00","-2.4","","-6.1","","76","","","","33","","4","","24.1","","100.54","","","","-4","","NA"
"-63.51","44.88","HALIFAX STANFIELD INT'L A","8202251","2019-03-02 11:00","2019","03","02","11:00","-1.4","","-8.9","","57","","","","34","","3","","24.1","","100.47","","","","-2","","Cloudy"
"-63.51","44.88","HALIFAX STANFIELD INT'L A","8202251","2019-03-02 12:00","2019","03","02","12:00","-0.3","","-10.0","","48","","","","1","","8","","24.1","","100.39","","","","-3","","NA"
"-63.51","44.88","HALIFAX STANFIELD INT'L A","8202251","2019-03-02 13:00","2019","03","02","13:00","0.0","","-9.7","","48","","","","9","","8","","24.1","","100.25","","","","-3","","NA"
"-63.51","44.88","HALIFAX STANFIELD INT'L A","8202251","2019-03-02 14:00","2019","03","02","14:00","0.2","","-9.4","","49","","","","12","","10","","24.1","","100.14","","","","","","Cloudy"
"-63.51","44.88","HALIFAX STANFIELD INT'L A","8202251","2019-03-02 15:00","2019","03","02","15:00","-0.3","","-7.8","","57","","","","11","","10","","24.1","","100.04","","","","-4","","NA"
"-63.51","44.88","HALIFAX STANFIELD INT'L A","8202251","2019-03-02 16:00","2019","03","02","16:00","-0.5","","-7.5","","59","","","","9","","13","","24.1","","99.92","","","","-5","","NA"
"-63.51","44.88","HALIFAX STANFIELD INT'L A","8202251","2019-03-02 17:00","2019","03","02","17:00","-0.7","","-7.5","","60","","","","6","","12","","24.1","","99.76","","","","-5","","Cloudy"
"-63.51","44.88","HALIFAX STANFIELD INT'L A","8202251","2019-03-02 18:00","2019","03","02","18:00","-1.0","","-7.7","","61","","","","9","","17","","24.1","","99.64","","","","-6","","NA"
"-63.51","44.88","HALIFAX STANFIELD INT'L A","8202251","2019-03-02 19:00","2019","03","02","19:00","-1.5","","-7.8","","62","","","","7","","27","","6.4","","99.59","","","","-8","","Snow"
"-63.51","44.88","HALIFAX STANFIELD INT'L A","8202251","2019-03-02 20:00","2019","03","02","20:00","-3.4","","-5.3","","87","","","","7","","20","","3.2","","99.59","","","","-10","","Snow"
"-63.51","44.88","HALIFAX STANFIELD INT'L A","8202251","2019-03-02 21:00","2019","03","02","21:00","-3.9","","-4.5","","96","","","","5","","19","","2.4","","99.45","","","","-10","","Snow"
"-63.51","44.88","HALIFAX STANFIELD INT'L A","8202251","2019-03-02 22:00","2019","03","02","22:00","-4.6","","-5.3","","95","","","","5","","24","","2.0","","99.41","","","","-12","","Snow"
"-63.51","44.88","HALIFAX STANFIELD INT'L A","8202251","2019-03-02 23:00","2019","03","02","23:00","-5.2","","-5.7","","96","","","","2","","28","","1.6","","99.21","","","","-13","","Snow"
"-63.51","44.88","HALIFAX STANFIELD INT'L A","8202251","2019-03-03 00:00","2019","03","03","00:00","-5.9","","-6.4","","96","","","","1","","23","","2.0","","99.06","","","","-13","","Snow"
"-63.51","44.88","HALIFAX STANFIELD INT'L A","8202251","2019-03-03 01:00","2019","03","03","01:00","-6.5","","-7.0","","96","","","","1","","28","","2.0","","99.02","","","","-15","","Snow,Blowing Snow"
"-63.51","44.88","HALIFAX STANFIELD INT'L A","8202251","2019-03-03 02:00","2019","03","03","02:00","-6.8","","-7.3","","96","","","","36","","27","","1.6","","99.08","","","","-15","","Snow,Blowing Snow"
"-63.51","44.88","HALIFAX STANFIELD INT'L A","8202251","2019-03-03 03:00","2019","03","03","03:00","-7.1","","-7.6","","96","","","","35","","30","","1.2","","99.11","","","","-16","","Snow,Blowing Snow"
"-63.51","44.88","HALIFAX STANFIELD INT'L A","8202251","2019-03-03 04:00","2019","03","03","04:00","-7.6","","-8.3","","95","","","","35","","26","","2.0","","99.22","","","","-16","","Snow,Blowing Snow"
"-63.51","44.88","HALIFAX STANFIELD INT'L A","8202251","2019-03-03 05:00","2019","03","03","05:00","-7.8","","-8.5","","95","","","","35","","27","","2.0","","99.31","","","","-16","","Snow,Blowing Snow"
"-63.51","44.88","HALIFAX STANFIELD INT'L A","8202251","2019-03-03 06:00","2019","03","03","06:00","-7.8","","-8.3","","96","","","","34","","20","","2.4","","99.38","","","","-15","","Snow"
"-63.51","44.88","HALIFAX STANFIELD INT'L A","8202251","2019-03-03 07:00","2019","03","03","07:00","-7.9","","-8.3","","97","","","","35","","21","","4.0","","99.38","","","","-15","","Snow"
"-63.51","44.88","HALIFAX STANFIELD INT'L A","8202251","2019-03-03 08:00","2019","03","03","08:00","-7.6","","-8.3","","95","","","","32","","23","","24.1","","99.54","","","","-15","","Snow"
"-63.51","44.88","HALIFAX STANFIELD INT'L A","8202251","2019-03-03 09:00","2019","03","03","09:00","-7.0","","-8.4","","90","","","","32","","28","","24.1","","99.64","","","","-15","","Snow"
"-63.51","44.88","HALIFAX STANFIELD INT'L A","8202251","2019-03-03 10:00","2019","03","03","10:00","-6.1","","-8.5","","84","","","","32","","31","","24.1","","99.70","","","","-15","","Snow,Blowing Snow"
"-63.51","44.88","HALIFAX STANFIELD INT'L A","8202251","2019-03-03 11:00","2019","03","03","11:00","-4.9","","-8.1","","78","","","","33","","32","","24.1","","99.73","","","","-13","","Mostly Cloudy"
"-63.51","44.88","HALIFAX STANFIELD INT'L A","8202251","2019-03-03 12:00","2019","03","03","12:00","-3.9","","-8.7","","69","","","","32","","28","","24.1","","99.78","","","","-11","","NA"
"-63.51","44.88","HALIFAX STANFIELD INT'L A","8202251","2019-03-03 13:00","2019","03","03","13:00","-3.5","","-9.1","","66","","","","33","","24","","24.1","","99.78","","","","-10","","NA"
"-63.51","44.88","HALIFAX STANFIELD INT'L A","8202251","2019-03-03 14:00","2019","03","03","14:00","-2.6","","-8.9","","62","","","","30","","25","","24.1","","99.88","","","","-9","","Mostly Cloudy"
"-63.51","44.88","HALIFAX STANFIELD INT'L A","8202251","2019-03-03 15:00","2019","03","03","15:00","-2.9","","-8.3","","67","","","","32","","21","","24.1","","99.89","","","","-9","","NA"
"-63.51","44.88","HALIFAX STANFIELD INT'L A","8202251","2019-03-03 16:00","2019","03","03","16:00","-2.4","","-8.1","","65","","","","29","","18","","24.1","","99.93","","","","-8","","NA"
"-63.51","44.88","HALIFAX STANFIELD INT'L A","8202251","2019-03-03 17:00","2019","03","03","17:00","-1.9","","-8.2","","62","","","","30","","14","","24.1","","99.97","","","","-7","","Mostly Cloudy"
"-63.51","44.88","HALIFAX STANFIELD INT'L A","8202251","2019-03-03 18:00","2019","03","03","18:00","-3.3","","-8.4","","68","","","","27","","9","","24.1","","100.03","","","","-7","","NA"
"-63.51","44.88","HALIFAX STANFIELD INT'L A","8202251","2019-03-03 19:00","2019","03","03","19:00","-4.7","","-8.8","","73","","","","26","","7","","24.1","","100.09","","","","-8","","NA"
"-63.51","44.88","HALIFAX STANFIELD INT'L A","8202251","2019-03-03 20:00","2019","03","03","20:00","-4.3","","-9.6","","67","","","","23","","7","","24.1","","100.20","","","","-7","","Clear"
"-63.51","44.88","HALIFAX STANFIELD INT'L A","8202251","2019-03-03 21:00","2019","03","03","21:00","-5.3","","-9.2","","74","","","","21","","11","","24.1","","100.27","","","","-10","","NA"
"-63.51","44.88","HALIFAX STANFIELD INT'L A","8202251","2019-03-03 22:00","2019","03","03","22:00","-5.0","","-9.1","","73","","","","18","","11","","24.1","","100.28","","","","-10","","NA"
"-63.51","44.88","HALIFAX STANFIELD INT'L A","8202251","2019-03-03 23:00","2019","03","03","23:00","-5.7","","-8.8","","79","","","","18","","12","","24.1","","100.35","","","","-11","","Cloudy"
"-63.51","44.88","HALIFAX STANFIELD INT'L A","8202251","2019-03-04 00:00","2019","03","04","00:00","-5.3","","-8.3","","80","","","","14","","14","","24.1","","100.31","","","","-11","","NA"
"-63.51","44.88","HALIFAX STANFIELD INT'L A","8202251","2019-03-04 01:00","2019","03","04","01:00","-5.7","","-8.3","","82","","","","13","","14","","24.1","","100.28","","","","-11","","NA"
"-63.51","44.88","HALIFAX STANFIELD INT'L A","8202251","2019-03-04 02:00","2019","03","04","02:00","-5.8","","-6.9","","92","","","","13","","14","","24.1","","100.22","","","","-11","","Cloudy"
"-63.51","44.88","HALIFAX STANFIELD INT'L A","8202251","2019-03-04 03:00","2019","03","04","03:00","-6.1","","-6.5","","97","","","","11","","11","","24.1","","100.18","","","","-11","","NA"
"-63.51","44.88","HALIFAX STANFIELD INT'L A","8202251","2019-03-04 04:00","2019","03","04","04:00","-5.5","","-5.6","","99","","","","12","","12","","24.1","","100.13","","","","-10","","NA"
"-63.51","44.88","HALIFAX STANFIELD INT'L A","8202251","2019-03-04 05:00","2019","03","04","05:00","-5.4","","-5.4","","100","","","","12","","13","","24.1","","100.02","","","","-11","","Cloudy"
"-63.51","44.88","HALIFAX STANFIELD INT'L A","8202251","2019-03-04 06:00","2019","03","04","06:00","-4.3","","-4.3","","100","","","","13","","17","","24.1","","99.93","","","","-10","","Snow"
"-63.51","44.88","HALIFAX STANFIELD INT'L A","8202251","2019-03-04 07:00","2019","03","04","07:00","-3.9","","-3.9","","100","","","","13","","19","","2.4","","99.88","","","","-10","","Snow"
"-63.51","44.88","HALIFAX STANFIELD INT'L A","8202251","2019-03-04 08:00","2019","03","04","08:00","-3.5","","-3.6","","99","","","","13","","22","","2.0","","99.79","","","","-10","","Snow"
"-63.51","44.88","HALIFAX STANFIELD INT'L A","8202251","2019-03-04 09:00","2019","03","04","09:00","-3.5","","-3.8","","98","","","","12","","24","","1.0","","99.57","","","","-10","","Snow"
"-63.51","44.88","HALIFAX STANFIELD INT'L A","8202251","2019-03-04 10:00","2019","03","04","10:00","-3.7","","-4.1","","97","","","","11","","34","","1.0","","99.31","","","","-12","","Snow,Blowing Snow"
"-63.51","44.88","HALIFAX STANFIELD INT'L A","8202251","2019-03-04 11:00","2019","03","04","11:00","-3.6","","-4.0","","97","","","","10","","37","","0.8","","98.97","","","","-12","","Snow,Blowing Snow"
"-63.51","44.88","HALIFAX STANFIELD INT'L A","8202251","2019-03-04 12:00","2019","03","04","12:00","-3.7","","-4.4","","95","","","","9","","45","","2.0","","98.48","","","","-13","","Moderate Ice Pellets,Blowing Snow"
"-63.51","44.88","HALIFAX STANFIELD INT'L A","8202251","2019-03-04 13:00","2019","03","04","13:00","-2.7","","-3.0","","98","","","","11","","46","","0.8","","97.99","","","","-12","","Freezing Rain,Ice Pellets"
"-63.51","44.88","HALIFAX STANFIELD INT'L A","8202251","2019-03-04 14:00","2019","03","04","14:00","-0.6","","-1.0","","97","","","","12","","45","","4.8","","97.53","","","","-9","","Freezing Rain,Fog"
"-63.51","44.88","HALIFAX STANFIELD INT'L A","8202251","2019-03-04 15:00","2019","03","04","15:00","0.4","","0.3","","99","","","","11","","41","","4.0","","97.17","","","","","","Rain,Fog"
"-63.51","44.88","HALIFAX STANFIELD INT'L A","8202251","2019-03-04 16:00","2019","03","04","16:00","1.8","","1.8","","100","","","","4","","8","","2.8","","97.10","","","","","","Rain,Fog"
"-63.51","44.88","HALIFAX STANFIELD INT'L A","8202251","2019-03-04 17:00","2019","03","04","17:00","1.0","","1.0","","100","","","","1","","21","","1.6","","96.89","","","","","","Drizzle,Fog"
"-63.51","44.88","HALIFAX STANFIELD INT'L A","8202251","2019-03-04 18:00","2019","03","04","18:00","0.1","","0.1","","100","","","","32","","35","","0.4","","96.94","","","","","","Drizzle,Fog"
"-63.51","44.88","HALIFAX STANFIELD INT'L A","8202251","2019-03-04 19:00","2019","03","04","19:00","-3.8","","-3.8","","100","","","","33","","43","","3.2","","97.15","","","","-13","","Freezing Drizzle,Fog"
"-63.51","44.88","HALIFAX STANFIELD INT'L A","8202251","2019-03-04 20:00","2019","03","04","20:00","-4.8","","-4.8","","100","","","","31","","39","","4.8","","97.36","","","","-14","","Fog"
"-63.51","44.88","HALIFAX STANFIELD INT'L A","8202251","2019-03-04 21:00","2019","03","04","21:00","-4.9","","-4.9","","100","","","","30","","32","","24.1","","97.65","","","","-13","","NA"
"-63.51","44.88","HALIFAX STANFIELD INT'L A","8202251","2019-03-04 22:00","2019","03","04","22:00","-4.7","","-4.8","","99","","","","30","","42","","24.1","","97.90","","","","-14","","NA"
"-63.51","44.88","HALIFAX STANFIELD INT'L A","8202251","2019-03-04 23:00","2019","03","04","23:00","-5.4","","-5.7","","98","","","","30","","36","","24.1","","98.05","","","","-14","","Cloudy"
"-63.51","44.88","HALIFAX STANFIELD INT'L A","8202251","2019-03-05 00:00","2019","03","05","00:00","-5.4","","-5.9","","96","","","","28","","21","","24.1","","98.22","","","","-12","","NA"
"-63.51","44.88","HALIFAX STANFIELD INT'L A","8202251","2019-03-05 01:00","2019","03","05","01:00","-5.4","","-6.1","","95","","","","29","","25","","24.1","","98.39","","","","-13","","NA"
"-63.51","44.88","HALIFAX STANFIELD INT'L A","8202251","2019-03-05 02:00","2019","03","05","02:00","-5.2","","-6.2","","93","","","","28","","27","","24.1","","98.53","","","","-13","","Cloudy"
"-63.51","44.88","HALIFAX STANFIELD INT'L A","8202251","2019-03-05 03:00","2019","03","05","03:00","-5.3","","-6.3","","93","","","","29","","24","","24.1","","98.62","","","","-13","","NA"
"-63.51","44.88","HALIFAX STANFIELD INT'L A","8202251","2019-03-05 04:00","2019","03","05","04:00","-6.0","","-6.8","","94","","","","28","","17","","24.1","","98.65","","","","-12","","NA"
"-63.51","44.88","HALIFAX STANFIELD INT'L A","8202251","2019-03-05 05:00","2019","03","05","05:00","-6.5","","-7.3","","94","","","","25","","18","","24.1","","98.68","","","","-13","","Clear"
"-63.51","44.88","HALIFAX STANFIELD INT'L A","8202251","2019-03-05 06:00","2019","03","05","06:00","-6.8","","-7.3","","96","","","","22","","21","","24.1","","98.77","","","","-14","","NA"
"-63.51","44.88","HALIFAX STANFIELD INT'L A","8202251","2019-03-05 07:00","2019","03","05","07:00","-6.9","","-7.0","","99","","","","23","","21","","24.1","","98.83","","","","-14","","NA"
"-63.51","44.88","HALIFAX STANFIELD INT'L A","8202251","2019-03-05 08:00","2019","03","05","08:00","-4.9","","-5.9","","93","","","","25","","28","","24.1","","98.91","","","","-13","","Mainly Clear"
"-63.51","44.88","HALIFAX STANFIELD INT'L A","8202251","2019-03-05 09:00","2019","03","05","09:00","-4.4","","-6.8","","83","","","","27","","26","","24.1","","99.04","","","","-12","","NA"
"-63.51","44.88","HALIFAX STANFIELD INT'L A","8202251","2019-03-05 10:00","2019","03","05","10:00","-4.1","","-7.5","","77","","","","26","","31","","24.1","","99.13","","","","-12","","NA"
"-63.51","44.88","HALIFAX STANFIELD INT'L A","8202251","2019-03-05 11:00","2019","03","05","11:00","-3.9","","-7.3","","77","","","","25","","28","","24.1","","99.19","","","","-11","","Mostly Cloudy"
"-63.51","44.88","HALIFAX STANFIELD INT'L A","8202251","2019-03-05 12:00","2019","03","05","12:00","-3.2","","-7.0","","75","","","","26","","25","","24.1","","99.20","","","","-10","","Snow Showers"
"-63.51","44.88","HALIFAX STANFIELD INT'L A","8202251","2019-03-05 13:00","2019","03","05","13:00","-3.4","","-7.6","","73","","","","30","","21","","24.1","","99.23","","","","-10","","NA"
"-63.51","44.88","HALIFAX STANFIELD INT'L A","8202251","2019-03-05 14:00","2019","03","05","14:00","-2.9","","-9.7","","60","","","","26","","27","","24.1","","99.25","","","","-10","","Mostly Cloudy"
"-63.51","44.88","HALIFAX STANFIELD INT'L A","8202251","2019-03-05 15:00","2019","03","05","15:00","-3.4","","-9.9","","61","","","","28","","24","","24.1","","99.24","","","","-10","","NA"
"-63.51","44.88","HALIFAX STANFIELD INT'L A","8202251","2019-03-05 16:00","2019","03","05","16:00","-3.0","","-9.7","","60","","","","25","","14","","24.1","","99.29","","","","-8","","NA"
"-63.51","44.88","HALIFAX STANFIELD INT'L A","8202251","2019-03-05 17:00","2019","03","05","17:00","-3.3","","-9.2","","64","","","","23","","18","","24.1","","99.32","","","","-9","","Mostly Cloudy"
"-63.51","44.88","HALIFAX STANFIELD INT'L A","8202251","2019-03-05 18:00","2019","03","05","18:00","-3.4","","-9.4","","63","","","","27","","12","","24.1","","99.34","","","","-8","","NA"
"-63.51","44.88","HALIFAX STANFIELD INT'L A","8202251","2019-03-05 19:00","2019","03","05","19:00","-4.4","","-9.6","","67","","","","29","","9","","24.1","","99.37","","","","-8","","NA"
"-63.51","44.88","HALIFAX STANFIELD INT'L A","8202251","2019-03-05 20:00","2019","03","05","20:00","-6.5","","-9.7","","78","","","","34","","10","","24.1","","99.40","","","","-11","","Clear"
"-63.51","44.88","HALIFAX STANFIELD INT'L A","8202251","2019-03-05 21:00","2019","03","05","21:00","-7.0","","-10.4","","77","","","","32","","9","","24.1","","99.46","","","","-11","","NA"
"-63.51","44.88","HALIFAX STANFIELD INT'L A","8202251","2019-03-05 22:00","2019","03","05","22:00","-7.5","","-11.1","","76","","","","36","","2","","24.1","","99.47","","","","-9","","NA"
"-63.51","44.88","HALIFAX STANFIELD INT'L A","8202251","2019-03-05 23:00","2019","03","05","23:00","-7.9","","-11.1","","78","","","","31","","5","","24.1","","99.40","","","","-11","","Mainly Clear"
"-63.51","44.88","HALIFAX STANFIELD INT'L A","8202251","2019-03-06 00:00","2019","03","06","00:00","-8.3","","-11.1","","81","","","","22","","9","","24.1","","99.40","","","","-13","","NA"
"-63.51","44.88","HALIFAX STANFIELD INT'L A","8202251","2019-03-06 01:00","2019","03","06","01:00","-9.2","","-11.7","","82","","","","22","","10","","24.1","","99.37","","","","-14","","NA"
"-63.51","44.88","HALIFAX STANFIELD INT'L A","8202251","2019-03-06 02:00","2019","03","06","02:00","-9.1","","-12.0","","79","","","","24","","10","","24.1","","99.26","","","","-14","","Mainly Clear"
"-63.51","44.88","HALIFAX STANFIELD INT'L A","8202251","2019-03-06 03:00","2019","03","06","03:00","-9.5","","-12.2","","81","","","","28","","7","","24.1","","99.10","","","","-13","","NA"
"-63.51","44.88","HALIFAX STANFIELD INT'L A","8202251","2019-03-06 04:00","2019","03","06","04:00","-12.4","","-13.6","","91","","","","4","","5","","24.1","","99.06","","","","-16","","NA"
"-63.51","44.88","HALIFAX STANFIELD INT'L A","8202251","2019-03-06 05:00","2019","03","06","05:00","-10.6","","-12.2","","88","","","","12","","9","","24.1","","99.11","","","","-16","","Mostly Cloudy"
"-63.51","44.88","HALIFAX STANFIELD INT'L A","8202251","2019-03-06 06:00","2019","03","06","06:00","-9.3","","-11.5","","84","","","","9","","9","","24.1","","99.03","","","","-14","","Snow"
"-63.51","44.88","HALIFAX STANFIELD INT'L A","8202251","2019-03-06 07:00","2019","03","06","07:00","-10.6","","-12.2","","88","","","","31","","9","","24.1","","99.01","","","","-16","","NA"
"-63.51","44.88","HALIFAX STANFIELD INT'L A","8202251","2019-03-06 08:00","2019","03","06","08:00","-11.3","","-12.5","","91","","","","36","","11","","24.1","","99.00","","","","-17","","Mainly Clear"
"-63.51","44.88","HALIFAX STANFIELD INT'L A","8202251","2019-03-06 09:00","2019","03","06","09:00","-8.9","","-10.4","","89","","","","1","","11","","24.1","","99.00","","","","-14","","NA"
"-63.51","44.88","HALIFAX STANFIELD INT'L A","8202251","2019-03-06 10:00","2019","03","06","10:00","-7.2","","-9.5","","84","","","","36","","10","","24.1","","98.98","","","","-12","","NA"
"-63.51","44.88","HALIFAX STANFIELD INT'L A","8202251","2019-03-06 11:00","2019","03","06","11:00","-6.0","","-9.6","","76","","","","32","","8","","24.1","","98.93","","","","-10","","Mainly Clear"
"-63.51","44.88","HALIFAX STANFIELD INT'L A","8202251","2019-03-06 12:00","2019","03","06","12:00","-4.9","","-10.9","","63","","","","28","","12","","24.1","","98.86","","","","-10","","NA"
"-63.51","44.88","HALIFAX STANFIELD INT'L A","8202251","2019-03-06 13:00","2019","03","06","13:00","-4.6","","-11.7","","58","","","","32","","7","","24.1","","98.78","","","","-8","","NA"
"-63.51","44.88","HALIFAX STANFIELD INT'L A","8202251","2019-03-06 14:00","2019","03","06","14:00","-4.2","","-10.2","","63","","","","29","","16","","19.3","","98.71","","","","-10","","Mostly Cloudy"
"-63.51","44.88","HALIFAX STANFIELD INT'L A","8202251","2019-03-06 15:00","2019","03","06","15:00","-4.7","","-10.9","","62","","","","36","","18","","24.1","","98.68","","","","-11","","NA"
"-63.51","44.88","HALIFAX STANFIELD INT'L A","8202251","2019-03-06 16:00","2019","03","06","16:00","-4.4","","-12.4","","54","","","","31","","16","","24.1","","98.69","","","","-10","","NA"
"-63.51","44.88","HALIFAX STANFIELD INT'L A","8202251","2019-03-06 17:00","2019","03","06","17:00","-5.6","","-11.8","","62","","","","32","","30","","24.1","","98.76","","","","-14","","Cloudy"
"-63.51","44.88","HALIFAX STANFIELD INT'L A","8202251","2019-03-06 18:00","2019","03","06","18:00","-6.8","","-11.9","","67","","","","31","","22","","24.1","","98.88","","","","-14","","NA"
"-63.51","44.88","HALIFAX STANFIELD INT'L A","8202251","2019-03-06 19:00","2019","03","06","19:00","-7.4","","-12.5","","67","","","","30","","18","","24.1","","98.96","","","","-14","","NA"
"-63.51","44.88","HALIFAX STANFIELD INT'L A","8202251","2019-03-06 20:00","2019","03","06","20:00","-8.4","","-12.8","","71","","","","29","","18","","24.1","","99.05","","","","-15","","Mainly Clear"
"-63.51","44.88","HALIFAX STANFIELD INT'L A","8202251","2019-03-06 21:00","2019","03","06","21:00","-9.2","","-12.7","","76","","","","29","","18","","24.1","","99.14","","","","-16","","NA"
"-63.51","44.88","HALIFAX STANFIELD INT'L A","8202251","2019-03-06 22:00","2019","03","06","22:00","-10.1","","-13.3","","78","","","","30","","15","","24.1","","99.21","","","","-17","","NA"
"-63.51","44.88","HALIFAX STANFIELD INT'L A","8202251","2019-03-06 23:00","2019","03","06","23:00","-10.8","","-14.4","","75","","","","29","","14","","24.1","","99.26","","","","-17","","Clear"
"-63.51","44.88","HALIFAX STANFIELD INT'L A","8202251","2019-03-07 00:00","2019","03","07","00:00","-11.3","","-15.1","","74","","","","29","","11","","24.1","","99.30","","","","-17","","NA"
"-63.51","44.88","HALIFAX STANFIELD INT'L A","8202251","2019-03-07 01:00","2019","03","07","01:00","-11.9","","-14.5","","81","","","","27","","11","","24.1","","99.37","","","","-18","","NA"
"-63.51","44.88","HALIFAX STANFIELD INT'L A","8202251","2019-03-07 02:00","2019","03","07","02:00","-11.8","","-13.8","","85","","","","30","","15","","16.1","","99.45","","","","-19","","Snow"
"-63.51","44.88","HALIFAX STANFIELD INT'L A","8202251","2019-03-07 03:00","2019","03","07","03:00","-12.8","","-15.7","","79","","","","29","","15","","24.1","","99.47","","","","-20","","NA"
"-63.51","44.88","HALIFAX STANFIELD INT'L A","8202251","2019-03-07 04:00","2019","03","07","04:00","-13.1","","-17.2","","72","","","","30","","16","","24.1","","99.54","","","","-21","","NA"
"-63.51","44.88","HALIFAX STANFIELD INT'L A","8202251","2019-03-07 05:00","2019","03","07","05:00","-14.1","","-17.3","","77","","","","27","","16","","24.1","","99.62","","","","-22","","Mainly Clear"
"-63.51","44.88","HALIFAX STANFIELD INT'L A","8202251","2019-03-07 06:00","2019","03","07","06:00","-14.2","","-16.6","","82","","","","26","","19","","24.1","","99.68","","","","-23","","NA"
"-63.51","44.88","HALIFAX STANFIELD INT'L A","8202251","2019-03-07 07:00","2019","03","07","07:00","-14.7","","-17.9","","77","","","","26","","17","","24.1","","99.73","","","","-23","","NA"
"-63.51","44.88","HALIFAX STANFIELD INT'L A","8202251","2019-03-07 08:00","2019","03","07","08:00","-13.8","","-18.2","","70","","","","26","","17","","24.1","","99.77","","","","-22","","Mainly Clear"
"-63.51","44.88","HALIFAX STANFIELD INT'L A","8202251","2019-03-07 09:00","2019","03","07","09:00","-12.0","","-18.0","","61","","","","27","","18","","24.1","","99.84","","","","-20","","NA"
"-63.51","44.88","HALIFAX STANFIELD INT'L A","8202251","2019-03-07 10:00","2019","03","07","10:00","-10.5","","-19.1","","50","","","","29","","24","","24.1","","99.85","","","","-19","","NA"
"-63.51","44.88","HALIFAX STANFIELD INT'L A","8202251","2019-03-07 11:00","2019","03","07","11:00","-9.8","","-19.1","","47","","","","27","","23","","24.1","","99.81","","","","-18","","Mainly Clear"
"-63.51","44.88","HALIFAX STANFIELD INT'L A","8202251","2019-03-07 12:00","2019","03","07","12:00","-9.2","","-17.3","","52","","","","29","","20","","24.1","","99.79","","","","-17","","NA"
"-63.51","44.88","HALIFAX STANFIELD INT'L A","8202251","2019-03-07 13:00","2019","03","07","13:00","-9.6","","-16.1","","60","","","","25","","25","","12.9","","99.72","","","","-18","","Snow Showers"
"-63.51","44.88","HALIFAX STANFIELD INT'L A","8202251","2019-03-07 14:00","2019","03","07","14:00","-9.0","","-16.0","","57","","","","31","","17","","16.1","","99.67","","","","-16","","Mostly Cloudy"
"-63.51","44.88","HALIFAX STANFIELD INT'L A","8202251","2019-03-07 15:00","2019","03","07","15:00","-8.5","","-16.2","","54","","","","26","","15","","16.1","","99.65","","","","-15","","Snow Showers"
"-63.51","44.88","HALIFAX STANFIELD INT'L A","8202251","2019-03-07 16:00","2019","03","07","16:00","-9.4","","-15.6","","61","","","","27","","20","","24.1","","99.71","","","","-17","","NA"
"-63.51","44.88","HALIFAX STANFIELD INT'L A","8202251","2019-03-07 17:00","2019","03","07","17:00","-9.9","","-16.1","","61","","","","27","","25","","24.1","","99.75","","","","-19","","Mainly Clear"
"-63.51","44.88","HALIFAX STANFIELD INT'L A","8202251","2019-03-07 18:00","2019","03","07","18:00","-10.7","","-16.6","","62","","","","29","","17","","24.1","","99.83","","","","-18","","NA"
"-63.51","44.88","HALIFAX STANFIELD INT'L A","8202251","2019-03-07 19:00","2019","03","07","19:00","-11.7","","-17.2","","64","","","","26","","16","","24.1","","99.93","","","","-19","","NA"
"-63.51","44.88","HALIFAX STANFIELD INT'L A","8202251","2019-03-07 20:00","2019","03","07","20:00","-12.6","","-16.5","","73","","","","26","","17","","24.1","","100.01","","","","-20","","Clear"
"-63.51","44.88","HALIFAX STANFIELD INT'L A","8202251","2019-03-07 21:00","2019","03","07","21:00","-12.9","","-16.1","","77","","","","26","","21","","24.1","","100.08","","","","-22","","NA"
"-63.51","44.88","HALIFAX STANFIELD INT'L A","8202251","2019-03-07 22:00","2019","03","07","22:00","-13.3","","-15.9","","81","","","","27","","15","","24.1","","100.19","","","","-21","","Snow"
"-63.51","44.88","HALIFAX STANFIELD INT'L A","8202251","2019-03-07 23:00","2019","03","07","23:00","-13.6","","-15.8","","84","","","","26","","13","","24.1","","100.26","","","","-21","","Mainly Clear"
"-63.51","44.88","HALIFAX STANFIELD INT'L A","8202251","2019-03-08 00:00","2019","03","08","00:00","-13.7","","-16.6","","79","","","","25","","11","","24.1","","100.29","","","","-20","","NA"
"-63.51","44.88","HALIFAX STANFIELD INT'L A","8202251","2019-03-08 01:00","2019","03","08","01:00","-15.3","","-18.0","","80","","","","24","","13","","24.1","","100.31","","","","-23","","NA"
"-63.51","44.88","HALIFAX STANFIELD INT'L A","8202251","2019-03-08 02:00","2019","03","08","02:00","-15.1","","-18.9","","73","","","","23","","11","","24.1","","100.36","","","","-22","","Clear"
"-63.51","44.88","HALIFAX STANFIELD INT'L A","8202251","2019-03-08 03:00","2019","03","08","03:00","-15.4","","-19.5","","71","","","","24","","15","","24.1","","100.38","","","","-23","","NA"
"-63.51","44.88","HALIFAX STANFIELD INT'L A","8202251","2019-03-08 04:00","2019","03","08","04:00","-14.0","","-19.8","","62","","","","26","","19","","24.1","","100.40","","","","-23","","NA"
"-63.51","44.88","HALIFAX STANFIELD INT'L A","8202251","2019-03-08 05:00","2019","03","08","05:00","-14.6","","-20.0","","64","","","","27","","19","","24.1","","100.46","","","","-23","","Clear"
"-63.51","44.88","HALIFAX STANFIELD INT'L A","8202251","2019-03-08 06:00","2019","03","08","06:00","-15.5","","-20.3","","67","","","","26","","16","","24.1","","100.50","","","","-24","","NA"
"-63.51","44.88","HALIFAX STANFIELD INT'L A","8202251","2019-03-08 07:00","2019","03","08","07:00","-14.3","","-20.2","","61","","","","25","","19","","24.1","","100.54","","","","-23","","NA"
"-63.51","44.88","HALIFAX STANFIELD INT'L A","8202251","2019-03-08 08:00","2019","03","08","08:00","-12.7","","-19.1","","59","","","","25","","20","","24.1","","100.58","","","","-21","","Clear"
"-63.51","44.88","HALIFAX STANFIELD INT'L A","8202251","2019-03-08 09:00","2019","03","08","09:00","-12.0","","-18.5","","59","","","","22","","25","","24.1","","100.62","","","","-21","","NA"
"-63.51","44.88","HALIFAX STANFIELD INT'L A","8202251","2019-03-08 10:00","2019","03","08","10:00","-9.1","","-16.0","","58","","","","23","","20","","24.1","","100.61","","","","-17","","NA"
"-63.51","44.88","HALIFAX STANFIELD INT'L A","8202251","2019-03-08 11:00","2019","03","08","11:00","-7.4","","-14.9","","56","","","","24","","33","","24.1","","100.54","","","","-17","","Mostly Cloudy"
"-63.51","44.88","HALIFAX STANFIELD INT'L A","8202251","2019-03-08 12:00","2019","03","08","12:00","-6.3","","-14.2","","54","","","","25","","27","","24.1","","100.52","","","","-14","","NA"
"-63.51","44.88","HALIFAX STANFIELD INT'L A","8202251","2019-03-08 13:00","2019","03","08","13:00","-5.4","","-12.9","","56","","","","26","","24","","24.1","","100.48","","","","-13","","NA"
"-63.51","44.88","HALIFAX STANFIELD INT'L A","8202251","2019-03-08 14:00","2019","03","08","14:00","-4.5","","-13.2","","51","","","","27","","21","","24.1","","100.41","","","","-11","","Mostly Cloudy"
"-63.51","44.88","HALIFAX STANFIELD INT'L A","8202251","2019-03-08 15:00","2019","03","08","15:00","-3.7","","-12.9","","49","","","","25","","26","","24.1","","100.35","","","","-11","","NA"
"-63.51","44.88","HALIFAX STANFIELD INT'L A","8202251","2019-03-08 16:00","2019","03","08","16:00","-3.0","","-12.5","","48","","","","25","","28","","24.1","","100.31","","","","-10","","NA"
"-63.51","44.88","HALIFAX STANFIELD INT'L A","8202251","2019-03-08 17:00","2019","03","08","17:00","-2.5","","-12.7","","46","","","","26","","29","","24.1","","100.29","","","","-10","","Mostly Cloudy"
"-63.51","44.88","HALIFAX STANFIELD INT'L A","8202251","2019-03-08 18:00","2019","03","08","18:00","-3.1","","-12.1","","50","","","","24","","21","","24.1","","100.30","","","","-9","","NA"
"-63.51","44.88","HALIFAX STANFIELD INT'L A","8202251","2019-03-08 19:00","2019","03","08","19:00","-4.5","","-9.9","","66","","","","23","","21","","24.1","","100.34","","","","-11","","NA"
"-63.51","44.88","HALIFAX STANFIELD INT'L A","8202251","2019-03-08 20:00","2019","03","08","20:00","-4.9","","-9.6","","70","","","","22","","17","","24.1","","100.35","","","","-11","","Mostly Cloudy"
"-63.51","44.88","HALIFAX STANFIELD INT'L A","8202251","2019-03-08 21:00","2019","03","08","21:00","-5.5","","-9.2","","75","","","","21","","16","","24.1","","100.33","","","","-11","","NA"
"-63.51","44.88","HALIFAX STANFIELD INT'L A","8202251","2019-03-08 22:00","2019","03","08","22:00","-6.0","","-9.2","","78","","","","18","","10","","24.1","","100.32","","","","-10","","NA"
"-63.51","44.88","HALIFAX STANFIELD INT'L A","8202251","2019-03-08 23:00","2019","03","08","23:00","-6.1","","-8.9","","81","","","","21","","16","","24.1","","100.30","","","","-12","","Mainly Clear"
"-63.51","44.88","HALIFAX STANFIELD INT'L A","8202251","2019-03-09 00:00","2019","03","09","00:00","-5.0","","-8.1","","79","","","","22","","23","","24.1","","100.28","","","","-12","","NA"
"-63.51","44.88","HALIFAX STANFIELD INT'L A","8202251","2019-03-09 01:00","2019","03","09","01:00","-4.2","","-7.5","","78","","","","22","","21","","24.1","","100.29","","","","-11","","NA"
"-63.51","44.88","HALIFAX STANFIELD INT'L A","8202251","2019-03-09 02:00","2019","03","09","02:00","-3.9","","-7.0","","79","","","","22","","17","","24.1","","100.30","","","","-10","","Cloudy"
"-63.51","44.88","HALIFAX STANFIELD INT'L A","8202251","2019-03-09 03:00","2019","03","09","03:00","-3.5","","-6.6","","79","","","","22","","15","","24.1","","100.20","","","","-9","","NA"
"-63.51","44.88","HALIFAX STANFIELD INT'L A","8202251","2019-03-09 04:00","2019","03","09","04:00","-3.4","","-6.4","","80","","","","22","","15","","24.1","","100.14","","","","-9","","NA"
"-63.51","44.88","HALIFAX STANFIELD INT'L A","8202251","2019-03-09 05:00","2019","03","09","05:00","-3.5","","-6.3","","81","","","","21","","17","","24.1","","100.07","","","","-9","","Mostly Cloudy"
"-63.51","44.88","HALIFAX STANFIELD INT'L A","8202251","2019-03-09 06:00","2019","03","09","06:00","-3.6","","-6.2","","83","","","","21","","16","","24.1","","100.08","","","","-9","","NA"
"-63.51","44.88","HALIFAX STANFIELD INT'L A","8202251","2019-03-09 07:00","2019","03","09","07:00","-3.7","","-6.0","","84","","","","21","","15","","24.1","","100.08","","","","-9","","NA"
"-63.51","44.88","HALIFAX STANFIELD INT'L A","8202251","2019-03-09 08:00","2019","03","09","08:00","-3.1","","-5.6","","83","","","","22","","19","","24.1","","100.12","","","","-9","","Mainly Clear"
"-63.51","44.88","HALIFAX STANFIELD INT'L A","8202251","2019-03-09 09:00","2019","03","09","09:00","-1.1","","-4.6","","77","","","","26","","23","","24.1","","100.17","","","","-7","","NA"
"-63.51","44.88","HALIFAX STANFIELD INT'L A","8202251","2019-03-09 10:00","2019","03","09","10:00","-0.3","","-7.1","","60","","","","27","","22","","24.1","","100.15","","","","-6","","NA"
"-63.51","44.88","HALIFAX STANFIELD INT'L A","8202251","2019-03-09 11:00","2019","03","09","11:00","0.4","","-9.4","","48","","","","31","","26","","24.1","","100.14","","","","","","Clear"
"-63.51","44.88","HALIFAX STANFIELD INT'L A","8202251","2019-03-09 12:00","2019","03","09","12:00","1.0","","-10.5","","42","","","","29","","28","","24.1","","100.17","","","","","","NA"
"-63.51","44.88","HALIFAX STANFIELD INT'L A","8202251","2019-03-09 13:00","2019","03","09","13:00","1.4","","-11.4","","38","","","","27","","38","","24.1","","100.15","","","","","","NA"
"-63.51","44.88","HALIFAX STANFIELD INT'L A","8202251","2019-03-09 14:00","2019","03","09","14:00","1.1","","-11.1","","40","","","","30","","35","","24.1","","100.17","","","","","","Mainly Clear"
"-63.51","44.88","HALIFAX STANFIELD INT'L A","8202251","2019-03-09 15:00","2019","03","09","15:00","0.8","","-11.9","","38","","","","31","","40","","24.1","","100.20","","","","","","NA"
"-63.51","44.88","HALIFAX STANFIELD INT'L A","8202251","2019-03-09 16:00","2019","03","09","16:00","-0.4","","-12.2","","41","","","","30","","35","","24.1","","100.32","","","","-7","","NA"
"-63.51","44.88","HALIFAX STANFIELD INT'L A","8202251","2019-03-09 17:00","2019","03","09","17:00","-1.0","","-11.4","","45","","","","33","","38","","24.1","","100.43","","","","-9","","Mostly Cloudy"
"-63.51","44.88","HALIFAX STANFIELD INT'L A","8202251","2019-03-09 18:00","2019","03","09","18:00","-4.2","","-6.0","","87","","","","36","","33","","2.4","","100.64","","","","-12","","Snow Showers"
"-63.51","44.88","HALIFAX STANFIELD INT'L A","8202251","2019-03-09 19:00","2019","03","09","19:00","-4.7","","-8.4","","75","","","","36","","21","","24.1","","100.85","","","","-11","","NA"
"-63.51","44.88","HALIFAX STANFIELD INT'L A","8202251","2019-03-09 20:00","2019","03","09","20:00","-5.7","","-10.2","","71","","","","35","","15","","24.1","","100.99","","","","-11","","Clear"
"-63.51","44.88","HALIFAX STANFIELD INT'L A","8202251","2019-03-09 21:00","2019","03","09","21:00","-6.8","","-10.5","","75","","","","34","","10","","24.1","","101.08","","","","-11","","NA"
"-63.51","44.88","HALIFAX STANFIELD INT'L A","8202251","2019-03-09 22:00","2019","03","09","22:00","-7.7","","-10.5","","80","","","","34","","12","","24.1","","101.23","","","","-13","","NA"
"-63.51","44.88","HALIFAX STANFIELD INT'L A","8202251","2019-03-09 23:00","2019","03","09","23:00","-8.3","","-10.4","","85","","","","35","","10","","24.1","","101.29","","","","-13","","Clear"
"-63.51","44.88","HALIFAX STANFIELD INT'L A","8202251","2019-03-10 00:00","2019","03","10","00:00","-9.0","","-10.5","","89","","","","33","","9","","24.1","","101.33","","","","-14","","NA"
"-63.51","44.88","HALIFAX STANFIELD INT'L A","8202251","2019-03-10 01:00","2019","03","10","01:00","-9.0","","-10.4","","90","","","","34","","9","","24.1","","101.34","","","","-14","","NA"
"-63.51","44.88","HALIFAX STANFIELD INT'L A","8202251","2019-03-10 02:00","2019","03","10","02:00","-9.6","","-11.1","","89","","","","33","","9","","24.1","","101.47","","","","-14","","Clear"
"-63.51","44.88","HALIFAX STANFIELD INT'L A","8202251","2019-03-10 03:00","2019","03","10","03:00","-9.8","","-11.5","","88","","","","31","","10","","24.1","","101.49","","","","-15","","NA"
"-63.51","44.88","HALIFAX STANFIELD INT'L A","8202251","2019-03-10 04:00","2019","03","10","04:00","-10.0","","-12.7","","81","","","","26","","8","","24.1","","101.58","","","","-14","","NA"
"-63.51","44.88","HALIFAX STANFIELD INT'L A","8202251","2019-03-10 05:00","2019","03","10","05:00","-10.5","","-13.2","","81","","","","36","","7","","24.1","","101.58","","","","-15","","Clear"
"-63.51","44.88","HALIFAX STANFIELD INT'L A","8202251","2019-03-10 06:00","2019","03","10","06:00","-10.8","","-13.2","","83","","","","31","","3","","24.1","","101.68","","","","-13","","NA"
"-63.51","44.88","HALIFAX STANFIELD INT'L A","8202251","2019-03-10 07:00","2019","03","10","07:00","-10.0","","-13.0","","79","","","","32","","5","","24.1","","101.70","","","","-13","","NA"
"-63.51","44.88","HALIFAX STANFIELD INT'L A","8202251","2019-03-10 08:00","2019","03","10","08:00","-8.8","","-13.2","","71","","","","25","","7","","24.1","","101.79","","","","-13","","Mainly Clear"
"-63.51","44.88","HALIFAX STANFIELD INT'L A","8202251","2019-03-10 09:00","2019","03","10","09:00","-6.6","","-13.6","","58","","","","13","","7","","24.1","","101.80","","","","-10","","NA"
"-63.51","44.88","HALIFAX STANFIELD INT'L A","8202251","2019-03-10 10:00","2019","03","10","10:00","-5.2","","-12.8","","56","","","","11","","10","","24.1","","101.77","","","","-10","","NA"
"-63.51","44.88","HALIFAX STANFIELD INT'L A","8202251","2019-03-10 11:00","2019","03","10","11:00","-3.6","","-13.0","","49","","","","6","","4","","24.1","","101.78","","","","-5","","Mostly Cloudy"
"-63.51","44.88","HALIFAX STANFIELD INT'L A","8202251","2019-03-10 12:00","2019","03","10","12:00","-2.1","","-13.0","","43","","","","36","","1","","24.1","","101.74","","","","-2","","NA"
"-63.51","44.88","HALIFAX STANFIELD INT'L A","8202251","2019-03-10 13:00","2019","03","10","13:00","0.0","","-13.0","","37","","","","12","","11","","24.1","","101.61","","","","-4","","NA"
"-63.51","44.88","HALIFAX STANFIELD INT'L A","8202251","2019-03-10 14:00","2019","03","10","14:00","-0.3","","-12.1","","41","","","","13","","18","","24.1","","101.57","","","","-5","","Cloudy"
"-63.51","44.88","HALIFAX STANFIELD INT'L A","8202251","2019-03-10 15:00","2019","03","10","15:00","-1.1","","-11.8","","44","","","","14","","23","","24.1","","101.53","","","","-7","","NA"
"-63.51","44.88","HALIFAX STANFIELD INT'L A","8202251","2019-03-10 16:00","2019","03","10","16:00","-2.3","","-11.4","","50","","","","13","","28","","24.1","","101.43","","","","-9","","NA"
"-63.51","44.88","HALIFAX STANFIELD INT'L A","8202251","2019-03-10 17:00","2019","03","10","17:00","-3.5","","-9.3","","65","","","","15","","22","","24.1","","101.39","","","","-10","","Cloudy"
"-63.51","44.88","HALIFAX STANFIELD INT'L A","8202251","2019-03-10 18:00","2019","03","10","18:00","-4.7","","-8.0","","78","","","","13","","24","","24.1","","101.31","","","","-12","","NA"
"-63.51","44.88","HALIFAX STANFIELD INT'L A","8202251","2019-03-10 19:00","2019","03","10","19:00","-4.7","","-7.2","","83","","","","16","","22","","24.1","","101.32","","","","-12","","NA"
"-63.51","44.88","HALIFAX STANFIELD INT'L A","8202251","2019-03-10 20:00","2019","03","10","20:00","-4.1","","-6.0","","87","","","","15","","28","","24.1","","101.21","","","","-12","","Cloudy"
"-63.51","44.88","HALIFAX STANFIELD INT'L A","8202251","2019-03-10 21:00","2019","03","10","21:00","-3.0","","-4.6","","89","","","","14","","30","","24.1","","101.03","","","","-10","","NA"
"-63.51","44.88","HALIFAX STANFIELD INT'L A","8202251","2019-03-10 22:00","2019","03","10","22:00","-2.4","","-3.7","","91","","","","14","","32","","24.1","","100.80","","","","-10","","NA"
"-63.51","44.88","HALIFAX STANFIELD INT'L A","8202251","2019-03-10 23:00","2019","03","10","23:00","-2.2","","-2.5","","98","","","","14","","32","","1.6","","100.61","","","","-10","","Snow"
"-63.51","44.88","HALIFAX STANFIELD INT'L A","8202251","2019-03-11 00:00","2019","03","11","00:00","-1.1","","-1.4","","98","","","","15","","39","","2.8","","100.44","","","","-9","","Snow"
"-63.51","44.88","HALIFAX STANFIELD INT'L A","8202251","2019-03-11 01:00","2019","03","11","01:00","0.1","","0.0","","99","","","","15","","41","","1.6","","100.27","","","","","","Snow"
"-63.51","44.88","HALIFAX STANFIELD INT'L A","8202251","2019-03-11 02:00","2019","03","11","02:00","0.8","","0.8","","100","","","","14","","50","","4.8","","100.01","","","","","","Rain,Snow,Fog"
"-63.51","44.88","HALIFAX STANFIELD INT'L A","8202251","2019-03-11 03:00","2019","03","11","03:00","1.3","","1.3","","100","","","","14","","52","","4.8","","99.67","","","","","","Rain,Fog"
"-63.51","44.88","HALIFAX STANFIELD INT'L A","8202251","2019-03-11 04:00","2019","03","11","04:00","2.3","","2.3","","100","","","","15","","50","","3.2","","99.38","","","","","","Rain,Fog"
"-63.51","44.88","HALIFAX STANFIELD INT'L A","8202251","2019-03-11 05:00","2019","03","11","05:00","3.5","","3.5","","100","","","","16","","48","","4.0","","99.23","","","","","","Rain,Fog"
"-63.51","44.88","HALIFAX STANFIELD INT'L A","8202251","2019-03-11 06:00","2019","03","11","06:00","3.8","","3.8","","100","","","","16","","43","","4.0","","99.12","","","","","","Rain,Fog"
"-63.51","44.88","HALIFAX STANFIELD INT'L A","8202251","2019-03-11 07:00","2019","03","11","07:00","4.5","","4.5","","100","","","","17","","37","","4.0","","98.98","","","","","","Rain,Fog"
"-63.51","44.88","HALIFAX STANFIELD INT'L A","8202251","2019-03-11 08:00","2019","03","11","08:00","4.9","","4.9","","100","","","","19","","37","","1.6","","98.93","","","","","","Drizzle,Fog"
"-63.51","44.88","HALIFAX STANFIELD INT'L A","8202251","2019-03-11 09:00","2019","03","11","09:00","4.0","","4.0","","100","","","","20","","18","","0.2","","98.91","","","","","","Fog"
"-63.51","44.88","HALIFAX STANFIELD INT'L A","8202251","2019-03-11 10:00","2019","03","11","10:00","3.7","","3.7","","100","","","","22","","20","","0.4","","98.89","","","","","","Fog"
"-63.51","44.88","HALIFAX STANFIELD INT'L A","8202251","2019-03-11 11:00","2019","03","11","11:00","4.1","","4.1","","100","","","","23","","20","","24.1","","98.90","","","","","","Cloudy"
"-63.51","44.88","HALIFAX STANFIELD INT'L A","8202251","2019-03-11 12:00","2019","03","11","12:00","5.1","","4.0","","93","","","","24","","23","","24.1","","98.87","","","","","","NA"
"-63.51","44.88","HALIFAX STANFIELD INT'L A","8202251","2019-03-11 13:00","2019","03","11","13:00","6.5","","2.6","","76","","","","24","","28","","24.1","","98.76","","","","","","NA"
"-63.51","44.88","HALIFAX STANFIELD INT'L A","8202251","2019-03-11 14:00","2019","03","11","14:00","6.3","","1.4","","71","","","","25","","23","","24.1","","98.68","","","","","","Mostly Cloudy"
"-63.51","44.88","HALIFAX STANFIELD INT'L A","8202251","2019-03-11 15:00","2019","03","11","15:00","5.7","","1.2","","73","","","","23","","21","","24.1","","98.64","","","","","","NA"
"-63.51","44.88","HALIFAX STANFIELD INT'L A","8202251","2019-03-11 16:00","2019","03","11","16:00","5.4","","1.1","","74","","","","26","","16","","24.1","","98.65","","","","","","NA"
"-63.51","44.88","HALIFAX STANFIELD INT'L A","8202251","2019-03-11 17:00","2019","03","11","17:00","5.4","","-0.2","","67","","","","26","","24","","24.1","","98.64","","","","","","Mostly Cloudy"
"-63.51","44.88","HALIFAX STANFIELD INT'L A","8202251","2019-03-11 18:00","2019","03","11","18:00","3.7","","0.8","","81","","","","26","","20","","24.1","","98.70","","","","","","NA"
"-63.51","44.88","HALIFAX STANFIELD INT'L A","8202251","2019-03-11 19:00","2019","03","11","19:00","2.7","","0.1","","83","","","","25","","18","","24.1","","98.76","","","","","","NA"
"-63.51","44.88","HALIFAX STANFIELD INT'L A","8202251","2019-03-11 20:00","2019","03","11","20:00","2.3","","-1.0","","79","","","","25","","20","","24.1","","98.81","","","","","","Mainly Clear"
"-63.51","44.88","HALIFAX STANFIELD INT'L A","8202251","2019-03-11 21:00","2019","03","11","21:00","1.6","","-1.1","","82","","","","23","","23","","24.1","","98.86","","","","","","NA"
"-63.51","44.88","HALIFAX STANFIELD INT'L A","8202251","2019-03-11 22:00","2019","03","11","22:00","1.2","","-1.2","","84","","","","25","","22","","24.1","","98.84","","","","","","NA"
"-63.51","44.88","HALIFAX STANFIELD INT'L A","8202251","2019-03-11 23:00","2019","03","11","23:00","1.0","","-1.6","","83","","","","25","","20","","24.1","","98.81","","","","","","Clear"
"-63.51","44.88","HALIFAX STANFIELD INT'L A","8202251","2019-03-12 00:00","2019","03","12","00:00","0.8","","-1.8","","83","","","","24","","17","","24.1","","98.79","","","","","","NA"
"-63.51","44.88","HALIFAX STANFIELD INT'L A","8202251","2019-03-12 01:00","2019","03","12","01:00","-0.9","","-1.6","","95","","","","23","","19","","24.1","","98.82","","","","-6","","NA"
"-63.51","44.88","HALIFAX STANFIELD INT'L A","8202251","2019-03-12 02:00","2019","03","12","02:00","0.1","","-2.2","","85","","","","25","","18","","24.1","","98.82","","","","","","Clear"
"-63.51","44.88","HALIFAX STANFIELD INT'L A","8202251","2019-03-12 03:00","2019","03","12","03:00","-0.3","","-3.2","","81","","","","25","","20","","24.1","","98.82","","","","-6","","NA"
"-63.51","44.88","HALIFAX STANFIELD INT'L A","8202251","2019-03-12 04:00","2019","03","12","04:00","-1.5","","-3.9","","84","","","","25","","16","","24.1","","98.83","","","","-6","","NA"
"-63.51","44.88","HALIFAX STANFIELD INT'L A","8202251","2019-03-12 05:00","2019","03","12","05:00","-2.3","","-3.4","","92","","","","22","","14","","24.1","","98.87","","","","-7","","Clear"
"-63.51","44.88","HALIFAX STANFIELD INT'L A","8202251","2019-03-12 06:00","2019","03","12","06:00","-2.4","","-4.1","","88","","","","24","","14","","24.1","","98.93","","","","-7","","NA"
"-63.51","44.88","HALIFAX STANFIELD INT'L A","8202251","2019-03-12 07:00","2019","03","12","07:00","-1.7","","-4.9","","79","","","","26","","19","","24.1","","98.98","","","","-7","","NA"
"-63.51","44.88","HALIFAX STANFIELD INT'L A","8202251","2019-03-12 08:00","2019","03","12","08:00","-1.0","","-4.5","","77","","","","26","","17","","24.1","","99.02","","","","-6","","Mainly Clear"
"-63.51","44.88","HALIFAX STANFIELD INT'L A","8202251","2019-03-12 09:00","2019","03","12","09:00","-0.1","","-4.2","","74","","","","29","","17","","24.1","","99.05","","","","-5","","NA"
"-63.51","44.88","HALIFAX STANFIELD INT'L A","8202251","2019-03-12 10:00","2019","03","12","10:00","-0.1","","-4.4","","73","","","","28","","21","","24.1","","99.08","","","","-6","","NA"
"-63.51","44.88","HALIFAX STANFIELD INT'L A","8202251","2019-03-12 11:00","2019","03","12","11:00","0.3","","-4.4","","71","","","","29","","17","","24.1","","99.10","","","","","","Snow Showers"
"-63.51","44.88","HALIFAX STANFIELD INT'L A","8202251","2019-03-12 12:00","2019","03","12","12:00","0.8","","-5.2","","64","","","","27","","20","","24.1","","99.15","","","","","","Snow Showers"
"-63.51","44.88","HALIFAX STANFIELD INT'L A","8202251","2019-03-12 13:00","2019","03","12","13:00","1.1","","-5.4","","62","","","","31","","19","","24.1","","99.18","","","","","","NA"
"-63.51","44.88","HALIFAX STANFIELD INT'L A","8202251","2019-03-12 14:00","2019","03","12","14:00","1.5","","-5.4","","60","","","","28","","22","","24.1","","99.19","","","","","","Cloudy"
"-63.51","44.88","HALIFAX STANFIELD INT'L A","8202251","2019-03-12 15:00","2019","03","12","15:00","1.8","","-5.2","","60","","","","29","","27","","24.1","","99.22","","","","","","NA"
"-63.51","44.88","HALIFAX STANFIELD INT'L A","8202251","2019-03-12 16:00","2019","03","12","16:00","1.5","","-4.7","","63","","","","31","","19","","24.1","","99.29","","","","","","NA"
"-63.51","44.88","HALIFAX STANFIELD INT'L A","8202251","2019-03-12 17:00","2019","03","12","17:00","1.4","","-4.1","","67","","","","32","","13","","24.1","","99.37","","","","","","Mostly Cloudy"
"-63.51","44.88","HALIFAX STANFIELD INT'L A","8202251","2019-03-12 18:00","2019","03","12","18:00","0.8","","-4.8","","66","","","","33","","19","","24.1","","99.47","","","","","","NA"
"-63.51","44.88","HALIFAX STANFIELD INT'L A","8202251","2019-03-12 19:00","2019","03","12","19:00","0.3","","-4.8","","69","","","","31","","8","","24.1","","99.60","","","","","","NA"
"-63.51","44.88","HALIFAX STANFIELD INT'L A","8202251","2019-03-12 20:00","2019","03","12","20:00","-0.3","","-4.7","","72","","","","27","","9","","24.1","","99.71","","","","-3","","Mostly Cloudy"
"-63.51","44.88","HALIFAX STANFIELD INT'L A","8202251","2019-03-12 21:00","2019","03","12","21:00","0.2","","-4.8","","69","","","","29","","8","","24.1","","99.78","","","","","","NA"
"-63.51","44.88","HALIFAX STANFIELD INT'L A","8202251","2019-03-12 22:00","2019","03","12","22:00","0.2","","-4.7","","70","","","","29","","9","","24.1","","99.86","","","","","","NA"
"-63.51","44.88","HALIFAX STANFIELD INT'L A","8202251","2019-03-12 23:00","2019","03","12","23:00","-0.3","","-4.1","","75","","","","33","","8","","24.1","","99.92","","","","-3","","Cloudy"
"-63.51","44.88","HALIFAX STANFIELD INT'L A","8202251","2019-03-13 00:00","2019","03","13","00:00","-0.5","","-4.2","","76","","","","34","","10","","24.1","","99.95","","","","-4","","NA"
"-63.51","44.88","HALIFAX STANFIELD INT'L A","8202251","2019-03-13 01:00","2019","03","13","01:00","-0.9","","-4.4","","77","","","","35","","12","","32.2","","100.01","","","","-5","","NA"
"-63.51","44.88","HALIFAX STANFIELD INT'L A","8202251","2019-03-13 02:00","2019","03","13","02:00","-1.2","","-5.2","","74","","","","36","","10","","24.1","","100.08","","","","-5","","Mostly Cloudy"
"-63.51","44.88","HALIFAX STANFIELD INT'L A","8202251","2019-03-13 03:00","2019","03","13","03:00","-1.9","","-5.9","","74","","","","36","","10","","24.1","","100.12","","","","-6","","NA"
"-63.51","44.88","HALIFAX STANFIELD INT'L A","8202251","2019-03-13 04:00","2019","03","13","04:00","-3.0","","-6.3","","78","","","","36","","8","","24.1","","100.19","","","","-6","","NA"
"-63.51","44.88","HALIFAX STANFIELD INT'L A","8202251","2019-03-13 05:00","2019","03","13","05:00","-3.0","","-6.7","","76","","","","36","","8","","24.1","","100.26","","","","-6","","Mainly Clear"
"-63.51","44.88","HALIFAX STANFIELD INT'L A","8202251","2019-03-13 06:00","2019","03","13","06:00","-3.9","","-6.4","","83","","","","31","","12","","24.1","","100.38","","","","-9","","NA"
"-63.51","44.88","HALIFAX STANFIELD INT'L A","8202251","2019-03-13 07:00","2019","03","13","07:00","-3.9","","-6.9","","80","","","","31","","12","","24.1","","100.47","","","","-9","","NA"
"-63.51","44.88","HALIFAX STANFIELD INT'L A","8202251","2019-03-13 08:00","2019","03","13","08:00","-3.3","","-7.1","","75","","","","33","","14","","24.1","","100.52","","","","-8","","Mainly Clear"
"-63.51","44.88","HALIFAX STANFIELD INT'L A","8202251","2019-03-13 09:00","2019","03","13","09:00","-2.1","","-7.3","","68","","","","32","","16","","24.1","","100.57","","","","-7","","NA"
"-63.51","44.88","HALIFAX STANFIELD INT'L A","8202251","2019-03-13 10:00","2019","03","13","10:00","-0.9","","-7.5","","61","","","","29","","8","","24.1","","100.57","","","","-4","","NA"
"-63.51","44.88","HALIFAX STANFIELD INT'L A","8202251","2019-03-13 11:00","2019","03","13","11:00","0.3","","-7.5","","56","","","","29","","12","","24.1","","100.57","","","","","","Mainly Clear"
"-63.51","44.88","HALIFAX STANFIELD INT'L A","8202251","2019-03-13 12:00","2019","03","13","12:00","1.3","","-8.3","","49","","","","29","","19","","24.1","","100.55","","","","","","NA"
"-63.51","44.88","HALIFAX STANFIELD INT'L A","8202251","2019-03-13 13:00","2019","03","13","13:00","2.4","","-8.0","","46","","","","30","","12","","24.1","","100.55","","","","","","NA"
"-63.51","44.88","HALIFAX STANFIELD INT'L A","8202251","2019-03-13 14:00","2019","03","13","14:00","3.0","","-9.6","","39","","","","28","","13","","24.1","","100.49","","","","","","Mainly Clear"
"-63.51","44.88","HALIFAX STANFIELD INT'L A","8202251","2019-03-13 15:00","2019","03","13","15:00","3.6","","-9.9","","37","","","","28","","7","","24.1","","100.48","","","","","","NA"
"-63.51","44.88","HALIFAX STANFIELD INT'L A","8202251","2019-03-13 16:00","2019","03","13","16:00","4.1","","-9.1","","38","","","","29","","15","","24.1","","100.47","","","","","","NA"
"-63.51","44.88","HALIFAX STANFIELD INT'L A","8202251","2019-03-13 17:00","2019","03","13","17:00","3.8","","-9.5","","37","","","","31","","15","","24.1","","100.46","","","","","","Clear"
"-63.51","44.88","HALIFAX STANFIELD INT'L A","8202251","2019-03-13 18:00","2019","03","13","18:00","2.4","","-8.2","","45","","","","34","","9","","24.1","","100.49","","","","","","NA"
"-63.51","44.88","HALIFAX STANFIELD INT'L A","8202251","2019-03-13 19:00","2019","03","13","19:00","0.4","","-6.3","","61","","","","23","","7","","24.1","","100.58","","","","","","NA"
"-63.51","44.88","HALIFAX STANFIELD INT'L A","8202251","2019-03-13 20:00","2019","03","13","20:00","-1.3","","-5.8","","72","","","","23","","10","","24.1","","100.66","","","","-5","","Mainly Clear"
"-63.51","44.88","HALIFAX STANFIELD INT'L A","8202251","2019-03-13 21:00","2019","03","13","21:00","-1.2","","-5.8","","71","","","","32","","8","","24.1","","100.65","","","","-4","","NA"
"-63.51","44.88","HALIFAX STANFIELD INT'L A","8202251","2019-03-13 22:00","2019","03","13","22:00","-2.2","","-7.5","","67","","","","35","","12","","24.1","","100.73","","","","-6","","NA"
"-63.51","44.88","HALIFAX STANFIELD INT'L A","8202251","2019-03-13 23:00","2019","03","13","23:00","-2.5","","-7.3","","70","","","","35","","9","","24.1","","100.76","","","","-6","","Mostly Cloudy"
"-63.51","44.88","HALIFAX STANFIELD INT'L A","8202251","2019-03-14 00:00","2019","03","14","00:00","-1.7","","-7.8","","63","","","","30","","5","","24.1","","100.77","","","","-4","","NA"
"-63.51","44.88","HALIFAX STANFIELD INT'L A","8202251","2019-03-14 01:00","2019","03","14","01:00","-1.7","","-6.3","","71","","","","30","","9","","24.1","","100.75","","","","-5","","NA"
"-63.51","44.88","HALIFAX STANFIELD INT'L A","8202251","2019-03-14 02:00","2019","03","14","02:00","-2.1","","-6.1","","74","","","","28","","10","","24.1","","100.78","","","","-6","","Mainly Clear"
"-63.51","44.88","HALIFAX STANFIELD INT'L A","8202251","2019-03-14 03:00","2019","03","14","03:00","-2.4","","-6.2","","75","","","","30","","12","","24.1","","100.78","","","","-7","","NA"
"-63.51","44.88","HALIFAX STANFIELD INT'L A","8202251","2019-03-14 04:00","2019","03","14","04:00","-3.9","","-7.1","","78","","","","22","","8","","24.1","","100.74","","","","-7","","NA"
"-63.51","44.88","HALIFAX STANFIELD INT'L A","8202251","2019-03-14 05:00","2019","03","14","05:00","-4.4","","-7.2","","81","","","","20","","12","","24.1","","100.67","","","","-9","","Clear"
"-63.51","44.88","HALIFAX STANFIELD INT'L A","8202251","2019-03-14 06:00","2019","03","14","06:00","-4.3","","-7.2","","80","","","","21","","9","","24.1","","100.67","","","","-8","","NA"
"-63.51","44.88","HALIFAX STANFIELD INT'L A","8202251","2019-03-14 07:00","2019","03","14","07:00","-4.2","","-6.7","","83","","","","23","","12","","24.1","","100.78","","","","-9","","NA"
"-63.51","44.88","HALIFAX STANFIELD INT'L A","8202251","2019-03-14 08:00","2019","03","14","08:00","-2.3","","-5.1","","81","","","","33","","4","","24.1","","100.80","","","","-4","","Mainly Clear"
"-63.51","44.88","HALIFAX STANFIELD INT'L A","8202251","2019-03-14 09:00","2019","03","14","09:00","-0.3","","-5.0","","70","","","","31","","8","","24.1","","100.89","","","","-3","","NA"
"-63.51","44.88","HALIFAX STANFIELD INT'L A","8202251","2019-03-14 10:00","2019","03","14","10:00","1.6","","-4.4","","65","","","","33","","10","","24.1","","100.95","","","","","","NA"
"-63.51","44.88","HALIFAX STANFIELD INT'L A","8202251","2019-03-14 11:00","2019","03","14","11:00","3.2","","-4.9","","56","","","","25","","7","","24.1","","100.79","","","","","","Mainly Clear"
"-63.51","44.88","HALIFAX STANFIELD INT'L A","8202251","2019-03-14 12:00","2019","03","14","12:00","5.1","","-5.9","","45","","","","28","","12","","24.1","","100.82","","","","","","NA"
"-63.51","44.88","HALIFAX STANFIELD INT'L A","8202251","2019-03-14 13:00","2019","03","14","13:00","6.3","","-7.0","","38","","","","32","","7","","24.1","","100.79","","","","","","NA"
"-63.51","44.88","HALIFAX STANFIELD INT'L A","8202251","2019-03-14 14:00","2019","03","14","14:00","7.3","","-7.9","","33","","","","36","","3","","24.1","","100.70","","","","","","Mainly Clear"
"-63.51","44.88","HALIFAX STANFIELD INT'L A","8202251","2019-03-14 15:00","2019","03","14","15:00","7.8","","-9.2","","29","","","","11","","6","","24.1","","100.65","","","","","","NA"
"-63.51","44.88","HALIFAX STANFIELD INT'L A","8202251","2019-03-14 16:00","2019","03","14","16:00","7.8","","-5.5","","39","","","","16","","16","","24.1","","100.57","","","","","","NA"
"-63.51","44.88","HALIFAX STANFIELD INT'L A","8202251","2019-03-14 17:00","2019","03","14","17:00","5.8","","-2.7","","54","","","","20","","16","","24.1","","100.64","","","","","","Mostly Cloudy"
"-63.51","44.88","HALIFAX STANFIELD INT'L A","8202251","2019-03-14 18:00","2019","03","14","18:00","3.4","","-3.0","","63","","","","22","","14","","24.1","","100.67","","","","","","NA"
"-63.51","44.88","HALIFAX STANFIELD INT'L A","8202251","2019-03-14 19:00","2019","03","14","19:00","1.3","","-2.8","","74","","","","20","","14","","24.1","","100.68","","","","","","NA"
"-63.51","44.88","HALIFAX STANFIELD INT'L A","8202251","2019-03-14 20:00","2019","03","14","20:00","0.3","","-2.1","","84","","","","23","","13","","24.1","","100.72","","","","","","Mostly Cloudy"
"-63.51","44.88","HALIFAX STANFIELD INT'L A","8202251","2019-03-14 21:00","2019","03","14","21:00","-0.3","","-1.9","","89","","","","19","","11","","24.1","","100.68","","","","-4","","NA"
"-63.51","44.88","HALIFAX STANFIELD INT'L A","8202251","2019-03-14 22:00","2019","03","14","22:00","-0.4","","-1.4","","93","","","","19","","14","","24.1","","100.67","","","","-5","","NA"
"-63.51","44.88","HALIFAX STANFIELD INT'L A","8202251","2019-03-14 23:00","2019","03","14","23:00","-0.8","","-1.2","","97","","","","21","","14","","24.1","","100.67","","","","-5","","Mainly Clear"
"-63.51","44.88","HALIFAX STANFIELD INT'L A","8202251","2019-03-15 00:00","2019","03","15","00:00","-1.4","","-1.4","","100","","","","19","","12","","24.1","","100.64","","","","-5","","NA"
"-63.51","44.88","HALIFAX STANFIELD INT'L A","8202251","2019-03-15 01:00","2019","03","15","01:00","-1.3","","-1.3","","100","","","","20","","13","","24.1","","100.61","","","","-6","","NA"
"-63.51","44.88","HALIFAX STANFIELD INT'L A","8202251","2019-03-15 02:00","2019","03","15","02:00","-1.8","","-1.8","","100","","","","17","","12","","22.5","","100.57","","","","-6","","Mainly Clear"
"-63.51","44.88","HALIFAX STANFIELD INT'L A","8202251","2019-03-15 03:00","2019","03","15","03:00","-2.8","","-2.8","","100","","","","17","","13","","3.6","","100.54","","","","-7","","Fog"
"-63.51","44.88","HALIFAX STANFIELD INT'L A","8202251","2019-03-15 04:00","2019","03","15","04:00","-2.0","","-2.0","","100","","","","17","","19","","9.7","","100.48","","","","-8","","Fog"
"-63.51","44.88","HALIFAX STANFIELD INT'L A","8202251","2019-03-15 05:00","2019","03","15","05:00","-1.5","","-1.5","","100","","","","19","","13","","9.7","","100.44","","","","-6","","Fog"
"-63.51","44.88","HALIFAX STANFIELD INT'L A","8202251","2019-03-15 06:00","2019","03","15","06:00","-1.1","","-1.1","","100","","","","20","","16","","16.1","","100.44","","","","-6","","NA"
"-63.51","44.88","HALIFAX STANFIELD INT'L A","8202251","2019-03-15 07:00","2019","03","15","07:00","-1.2","","-1.2","","100","","","","16","","14","","12.9","","100.39","","","","-6","","NA"
"-63.51","44.88","HALIFAX STANFIELD INT'L A","8202251","2019-03-15 08:00","2019","03","15","08:00","-0.6","","-0.6","","100","","","","17","","18","","16.1","","100.37","","","","-6","","Cloudy"
"-63.51","44.88","HALIFAX STANFIELD INT'L A","8202251","2019-03-15 09:00","2019","03","15","09:00","1.1","","0.0","","92","","","","17","","22","","24.1","","100.36","","","","","","NA"
"-63.51","44.88","HALIFAX STANFIELD INT'L A","8202251","2019-03-15 10:00","2019","03","15","10:00","3.2","","1.1","","86","","","","18","","22","","24.1","","100.27","","","","","","NA"
"-63.51","44.88","HALIFAX STANFIELD INT'L A","8202251","2019-03-15 11:00","2019","03","15","11:00","6.1","","1.4","","72","","","","19","","28","","24.1","","100.18","","","","","","Mostly Cloudy"
"-63.51","44.88","HALIFAX STANFIELD INT'L A","8202251","2019-03-15 12:00","2019","03","15","12:00","5.1","","1.9","","80","","","","17","","31","","24.1","","100.08","","","","","","NA"
"-63.51","44.88","HALIFAX STANFIELD INT'L A","8202251","2019-03-15 13:00","2019","03","15","13:00","4.4","","2.2","","86","","","","17","","23","","24.1","","99.99","","","","","","NA"
"-63.51","44.88","HALIFAX STANFIELD INT'L A","8202251","2019-03-15 14:00","2019","03","15","14:00","4.4","","2.8","","89","","","","16","","25","","19.3","","99.86","","","","","","Cloudy"
"-63.51","44.88","HALIFAX STANFIELD INT'L A","8202251","2019-03-15 15:00","2019","03","15","15:00","4.9","","3.4","","90","","","","17","","27","","24.1","","99.73","","","","","","NA"
"-63.51","44.88","HALIFAX STANFIELD INT'L A","8202251","2019-03-15 16:00","2019","03","15","16:00","4.9","","4.3","","96","","","","18","","30","","19.3","","99.53","","","","","","NA"
"-63.51","44.88","HALIFAX STANFIELD INT'L A","8202251","2019-03-15 17:00","2019","03","15","17:00","5.6","","5.3","","98","","","","18","","23","","4.0","","99.51","","","","","","Rain,Fog"
"-63.51","44.88","HALIFAX STANFIELD INT'L A","8202251","2019-03-15 18:00","2019","03","15","18:00","6.3","","6.3","","100","","","","18","","30","","4.0","","99.39","","","","","","Rain Showers,Fog"
"-63.51","44.88","HALIFAX STANFIELD INT'L A","8202251","2019-03-15 19:00","2019","03","15","19:00","6.7","","6.7","","100","","","","18","","22","","2.4","","99.32","","","","","","Rain Showers,Fog"
"-63.51","44.88","HALIFAX STANFIELD INT'L A","8202251","2019-03-15 20:00","2019","03","15","20:00","8.8","","8.8","","100","","","","20","","38","","4.8","","99.22","","","","","","Rain Showers,Fog"
"-63.51","44.88","HALIFAX STANFIELD INT'L A","8202251","2019-03-15 21:00","2019","03","15","21:00","8.3","","8.3","","100","","","","20","","52","","3.6","","99.18","","","","","","Rain Showers,Fog"
"-63.51","44.88","HALIFAX STANFIELD INT'L A","8202251","2019-03-15 22:00","2019","03","15","22:00","7.1","","7.1","","100","","","","20","","37","","4.8","","99.09","","","","","","Rain Showers,Fog"
"-63.51","44.88","HALIFAX STANFIELD INT'L A","8202251","2019-03-15 23:00","2019","03","15","23:00","6.5","","6.5","","100","","","","21","","37","","2.4","","99.07","","","","","","Drizzle,Fog"
"-63.51","44.88","HALIFAX STANFIELD INT'L A","8202251","2019-03-16 00:00","2019","03","16","00:00","6.3","","6.3","","100","","","","21","","32","","6.4","","98.97","","","","","","Rain Showers,Fog"
"-63.51","44.88","HALIFAX STANFIELD INT'L A","8202251","2019-03-16 01:00","2019","03","16","01:00","6.3","","6.3","","100","","","","19","","23","","2.4","","98.91","","","","","","Rain Showers,Fog"
"-63.51","44.88","HALIFAX STANFIELD INT'L A","8202251","2019-03-16 02:00","2019","03","16","02:00","6.6","","6.6","","100","","","","20","","26","","3.2","","98.79","","","","","","Rain Showers,Fog"
"-63.51","44.88","HALIFAX STANFIELD INT'L A","8202251","2019-03-16 03:00","2019","03","16","03:00","7.5","","7.5","","100","","","","21","","24","","3.2","","98.70","","","","","","Rain Showers,Fog"
"-63.51","44.88","HALIFAX STANFIELD INT'L A","8202251","2019-03-16 04:00","2019","03","16","04:00","7.7","","7.7","","100","","","","21","","28","","3.2","","98.59","","","","","","Moderate Rain Showers,Fog"
"-63.51","44.88","HALIFAX STANFIELD INT'L A","8202251","2019-03-16 05:00","2019","03","16","05:00","7.9","","7.9","","100","","","","21","","29","","4.8","","98.48","","","","","","Rain Showers,Fog"
"-63.51","44.88","HALIFAX STANFIELD INT'L A","8202251","2019-03-16 06:00","2019","03","16","06:00","7.2","","7.2","","100","","","","20","","27","","2.4","","98.36","","","","","","Fog"
"-63.51","44.88","HALIFAX STANFIELD INT'L A","8202251","2019-03-16 07:00","2019","03","16","07:00","6.8","","6.8","","100","","","","21","","27","","3.2","","98.28","","","","","","Fog"
"-63.51","44.88","HALIFAX STANFIELD INT'L A","8202251","2019-03-16 08:00","2019","03","16","08:00","6.3","","6.3","","100","","","","20","","22","","0.2","","98.27","","","","","","Fog"
"-63.51","44.88","HALIFAX STANFIELD INT'L A","8202251","2019-03-16 09:00","2019","03","16","09:00","6.2","","6.2","","100","","","","21","","13","","0.2","","98.28","","","","","","Fog"
"-63.51","44.88","HALIFAX STANFIELD INT'L A","8202251","2019-03-16 10:00","2019","03","16","10:00","6.3","","6.3","","100","","","","19","","20","","0.8","","98.26","","","","","","Fog"
"-63.51","44.88","HALIFAX STANFIELD INT'L A","8202251","2019-03-16 11:00","2019","03","16","11:00","6.8","","6.8","","100","","","","19","","26","","3.2","","98.19","","","","","","Fog"
"-63.51","44.88","HALIFAX STANFIELD INT'L A","8202251","2019-03-16 12:00","2019","03","16","12:00","7.1","","7.1","","100","","","","20","","30","","1.6","","98.09","","","","","","Fog"
"-63.51","44.88","HALIFAX STANFIELD INT'L A","8202251","2019-03-16 13:00","2019","03","16","13:00","7.5","","7.5","","100","","","","22","","20","","6.4","","98.07","","","","","","Fog"
"-63.51","44.88","HALIFAX STANFIELD INT'L A","8202251","2019-03-16 14:00","2019","03","16","14:00","8.1","","8.1","","100","","","","24","","22","","16.1","","98.09","","","","","","Cloudy"
"-63.51","44.88","HALIFAX STANFIELD INT'L A","8202251","2019-03-16 15:00","2019","03","16","15:00","9.9","","7.6","","86","","","","29","","20","","24.1","","98.10","","","","","","NA"
"-63.51","44.88","HALIFAX STANFIELD INT'L A","8202251","2019-03-16 16:00","2019","03","16","16:00","9.0","","3.0","","66","","","","28","","25","","24.1","","98.17","","","","","","NA"
"-63.51","44.88","HALIFAX STANFIELD INT'L A","8202251","2019-03-16 17:00","2019","03","16","17:00","8.2","","2.0","","65","","","","27","","28","","24.1","","98.21","","","","","","Mostly Cloudy"
"-63.51","44.88","HALIFAX STANFIELD INT'L A","8202251","2019-03-16 18:00","2019","03","16","18:00","6.3","","0.0","","64","","","","27","","18","","24.1","","98.28","","","","","","NA"
"-63.51","44.88","HALIFAX STANFIELD INT'L A","8202251","2019-03-16 19:00","2019","03","16","19:00","5.1","","0.1","","70","","","","28","","12","","24.1","","98.37","","","","","","NA"
"-63.51","44.88","HALIFAX STANFIELD INT'L A","8202251","2019-03-16 20:00","2019","03","16","20:00","4.2","","-0.3","","72","","","","26","","25","","24.1","","98.45","","","","","","Mainly Clear"
"-63.51","44.88","HALIFAX STANFIELD INT'L A","8202251","2019-03-16 21:00","2019","03","16","21:00","3.4","","-1.6","","70","","","","27","","20","","24.1","","98.49","","","","","","NA"
"-63.51","44.88","HALIFAX STANFIELD INT'L A","8202251","2019-03-16 22:00","2019","03","16","22:00","2.5","","-4.9","","58","","","","28","","25","","24.1","","98.55","","","","","","NA"
"-63.51","44.88","HALIFAX STANFIELD INT'L A","8202251","2019-03-16 23:00","2019","03","16","23:00","1.4","","-5.6","","60","","","","29","","32","","24.1","","98.61","","","","","","Clear"
"-63.51","44.88","HALIFAX STANFIELD INT'L A","8202251","2019-03-17 00:00","2019","03","17","00:00","-0.4","","-7.4","","59","","","","29","","34","","24.1","","98.68","","","","-7","","NA"
"-63.51","44.88","HALIFAX STANFIELD INT'L A","8202251","2019-03-17 01:00","2019","03","17","01:00","-1.6","","-8.1","","62","","","","28","","19","","24.1","","98.75","","","","-7","","NA"
"-63.51","44.88","HALIFAX STANFIELD INT'L A","8202251","2019-03-17 02:00","2019","03","17","02:00","-2.1","","-8.0","","64","","","","29","","23","","24.1","","98.80","","","","-8","","Mainly Clear"
"-63.51","44.88","HALIFAX STANFIELD INT'L A","8202251","2019-03-17 03:00","2019","03","17","03:00","-2.5","","-8.6","","63","","","","30","","28","","24.1","","98.87","","","","-10","","NA"
"-63.51","44.88","HALIFAX STANFIELD INT'L A","8202251","2019-03-17 04:00","2019","03","17","04:00","-3.5","","-9.7","","62","","","","30","","25","","24.1","","98.96","","","","-10","","NA"
"-63.51","44.88","HALIFAX STANFIELD INT'L A","8202251","2019-03-17 05:00","2019","03","17","05:00","-4.0","","-10.2","","62","","","","30","","23","","24.1","","99.05","","","","-11","","Clear"
"-63.51","44.88","HALIFAX STANFIELD INT'L A","8202251","2019-03-17 06:00","2019","03","17","06:00","-4.4","","-10.8","","61","","","","29","","25","","24.1","","99.14","","","","-12","","NA"
"-63.51","44.88","HALIFAX STANFIELD INT'L A","8202251","2019-03-17 07:00","2019","03","17","07:00","-4.3","","-10.2","","63","","","","26","","13","","24.1","","99.22","","","","-9","","NA"
"-63.51","44.88","HALIFAX STANFIELD INT'L A","8202251","2019-03-17 08:00","2019","03","17","08:00","-3.1","","-10.2","","58","","","","27","","26","","24.1","","99.27","","","","-10","","Mainly Clear"
"-63.51","44.88","HALIFAX STANFIELD INT'L A","8202251","2019-03-17 09:00","2019","03","17","09:00","-1.7","","-12.0","","46","","","","28","","43","","24.1","","99.31","","","","-10","","NA"
"-63.51","44.88","HALIFAX STANFIELD INT'L A","8202251","2019-03-17 10:00","2019","03","17","10:00","-1.0","","-11.7","","44","","","","28","","30","","24.1","","99.34","","","","-8","","NA"
"-63.51","44.88","HALIFAX STANFIELD INT'L A","8202251","2019-03-17 11:00","2019","03","17","11:00","-0.6","","-11.1","","45","","","","26","","39","","24.1","","99.33","","","","-8","","Mainly Clear"
"-63.51","44.88","HALIFAX STANFIELD INT'L A","8202251","2019-03-17 12:00","2019","03","17","12:00","-0.6","","-10.2","","49","","","","28","","29","","24.1","","99.36","","","","-7","","NA"
"-63.51","44.88","HALIFAX STANFIELD INT'L A","8202251","2019-03-17 13:00","2019","03","17","13:00","-0.6","","-10.9","","46","","","","28","","30","","24.1","","99.33","","","","-7","","NA"
"-63.51","44.88","HALIFAX STANFIELD INT'L A","8202251","2019-03-17 14:00","2019","03","17","14:00","-0.4","","-10.2","","48","","","","28","","30","","24.1","","99.29","","","","-7","","Mainly Clear"
"-63.51","44.88","HALIFAX STANFIELD INT'L A","8202251","2019-03-17 15:00","2019","03","17","15:00","0.6","","-11.0","","42","","","","29","","24","","24.1","","99.30","","","","","","NA"
"-63.51","44.88","HALIFAX STANFIELD INT'L A","8202251","2019-03-17 16:00","2019","03","17","16:00","0.7","","-12.3","","37","","","","27","","28","","24.1","","99.30","","","","","","NA"
"-63.51","44.88","HALIFAX STANFIELD INT'L A","8202251","2019-03-17 17:00","2019","03","17","17:00","-0.3","","-11.2","","44","","","","30","","25","","24.1","","99.33","","","","-6","","Mainly Clear"
"-63.51","44.88","HALIFAX STANFIELD INT'L A","8202251","2019-03-17 18:00","2019","03","17","18:00","-1.5","","-12.5","","43","","","","28","","21","","24.1","","99.42","","","","-7","","NA"
"-63.51","44.88","HALIFAX STANFIELD INT'L A","8202251","2019-03-17 19:00","2019","03","17","19:00","-2.9","","-12.9","","46","","","","28","","14","","24.1","","99.53","","","","-8","","NA"
"-63.51","44.88","HALIFAX STANFIELD INT'L A","8202251","2019-03-17 20:00","2019","03","17","20:00","-3.2","","-13.3","","46","","","","27","","14","","24.1","","99.62","","","","-8","","Clear"
"-63.51","44.88","HALIFAX STANFIELD INT'L A","8202251","2019-03-17 21:00","2019","03","17","21:00","-3.5","","-12.2","","51","","","","25","","20","","24.1","","99.67","","","","-10","","NA"
"-63.51","44.88","HALIFAX STANFIELD INT'L A","8202251","2019-03-17 22:00","2019","03","17","22:00","-3.8","","-11.7","","55","","","","25","","19","","24.1","","99.74","","","","-10","","NA"
"-63.51","44.88","HALIFAX STANFIELD INT'L A","8202251","2019-03-17 23:00","2019","03","17","23:00","-4.6","","-11.8","","57","","","","27","","13","","24.1","","99.80","","","","-10","","Clear"
"-63.51","44.88","HALIFAX STANFIELD INT'L A","8202251","2019-03-18 00:00","2019","03","18","00:00","-4.9","","-11.5","","60","","","","26","","12","","24.1","","99.84","","","","-10","","NA"
"-63.51","44.88","HALIFAX STANFIELD INT'L A","8202251","2019-03-18 01:00","2019","03","18","01:00","-5.5","","-12.2","","60","","","","30","","13","","24.1","","99.90","","","","-11","","NA"
"-63.51","44.88","HALIFAX STANFIELD INT'L A","8202251","2019-03-18 02:00","2019","03","18","02:00","-6.1","","-12.5","","61","","","","30","","13","","24.1","","99.93","","","","-11","","Clear"
"-63.51","44.88","HALIFAX STANFIELD INT'L A","8202251","2019-03-18 03:00","2019","03","18","03:00","-6.9","","-12.3","","65","","","","25","","8","","24.1","","99.93","","","","-11","","NA"
"-63.51","44.88","HALIFAX STANFIELD INT'L A","8202251","2019-03-18 04:00","2019","03","18","04:00","-7.1","","-13.2","","62","","","","27","","8","","24.1","","99.90","","","","-11","","NA"
"-63.51","44.88","HALIFAX STANFIELD INT'L A","8202251","2019-03-18 05:00","2019","03","18","05:00","-8.3","","-12.3","","73","","","","21","","11","","24.1","","99.93","","","","-14","","Clear"
"-63.51","44.88","HALIFAX STANFIELD INT'L A","8202251","2019-03-18 06:00","2019","03","18","06:00","-8.3","","-12.2","","74","","","","21","","12","","24.1","","99.98","","","","-14","","NA"
"-63.51","44.88","HALIFAX STANFIELD INT'L A","8202251","2019-03-18 07:00","2019","03","18","07:00","-7.6","","-11.4","","74","","","","23","","14","","24.1","","100.03","","","","-14","","NA"
"-63.51","44.88","HALIFAX STANFIELD INT'L A","8202251","2019-03-18 08:00","2019","03","18","08:00","-4.9","","-11.2","","62","","","","26","","19","","24.1","","100.08","","","","-11","","Mainly Clear"
"-63.51","44.88","HALIFAX STANFIELD INT'L A","8202251","2019-03-18 09:00","2019","03","18","09:00","-3.6","","-11.1","","56","","","","25","","26","","24.1","","100.05","","","","-11","","NA"
"-63.51","44.88","HALIFAX STANFIELD INT'L A","8202251","2019-03-18 10:00","2019","03","18","10:00","-3.5","","-12.3","","51","","","","27","","27","","24.1","","100.03","","","","-11","","NA"
"-63.51","44.88","HALIFAX STANFIELD INT'L A","8202251","2019-03-18 11:00","2019","03","18","11:00","-2.2","","-11.5","","49","","","","26","","29","","24.1","","100.01","","","","-9","","Mostly Cloudy"
"-63.51","44.88","HALIFAX STANFIELD INT'L A","8202251","2019-03-18 12:00","2019","03","18","12:00","-1.9","","-11.0","","50","","","","26","","25","","24.1","","99.99","","","","-8","","NA"
"-63.51","44.88","HALIFAX STANFIELD INT'L A","8202251","2019-03-18 13:00","2019","03","18","13:00","-1.0","","-11.4","","45","","","","24","","19","","24.1","","99.99","","","","-6","","NA"
"-63.51","44.88","HALIFAX STANFIELD INT'L A","8202251","2019-03-18 14:00","2019","03","18","14:00","0.2","","-11.6","","41","","","","25","","26","","24.1","","99.93","","","","","","Mostly Cloudy"
"-63.51","44.88","HALIFAX STANFIELD INT'L A","8202251","2019-03-18 15:00","2019","03","18","15:00","0.4","","-12.6","","37","","","","26","","22","","24.1","","99.93","","","","","","NA"
"-63.51","44.88","HALIFAX STANFIELD INT'L A","8202251","2019-03-18 16:00","2019","03","18","16:00","0.3","","-12.0","","40","","","","30","","25","","24.1","","99.93","","","","","","NA"
"-63.51","44.88","HALIFAX STANFIELD INT'L A","8202251","2019-03-18 17:00","2019","03","18","17:00","-0.2","","-10.7","","45","","","","31","","19","","24.1","","100.00","","","","-5","","Mostly Cloudy"
"-63.51","44.88","HALIFAX STANFIELD INT'L A","8202251","2019-03-18 18:00","2019","03","18","18:00","-0.8","","-12.3","","42","","","","30","","18","","24.1","","100.12","","","","-6","","NA"
"-63.51","44.88","HALIFAX STANFIELD INT'L A","8202251","2019-03-18 19:00","2019","03","18","19:00","-2.3","","-12.1","","47","","","","29","","17","","24.1","","100.21","","","","-8","","NA"
"-63.51","44.88","HALIFAX STANFIELD INT'L A","8202251","2019-03-18 20:00","2019","03","18","20:00","-3.0","","-12.5","","48","","","","29","","14","","24.1","","100.31","","","","-8","","Clear"
"-63.51","44.88","HALIFAX STANFIELD INT'L A","8202251","2019-03-18 21:00","2019","03","18","21:00","-3.8","","-11.5","","56","","","","26","","11","","24.1","","100.40","","","","-8","","NA"
"-63.51","44.88","HALIFAX STANFIELD INT'L A","8202251","2019-03-18 22:00","2019","03","18","22:00","-3.7","","-11.7","","54","","","","25","","15","","24.1","","100.44","","","","-9","","NA"
"-63.51","44.88","HALIFAX STANFIELD INT'L A","8202251","2019-03-18 23:00","2019","03","18","23:00","-4.2","","-11.1","","59","","","","25","","14","","24.1","","100.46","","","","-9","","Clear"
"-63.51","44.88","HALIFAX STANFIELD INT'L A","8202251","2019-03-19 00:00","2019","03","19","00:00","-4.9","","-11.0","","62","","","","27","","13","","24.1","","100.48","","","","-10","","NA"
"-63.51","44.88","HALIFAX STANFIELD INT'L A","8202251","2019-03-19 01:00","2019","03","19","01:00","-5.2","","-11.1","","64","","","","27","","10","","24.1","","100.49","","","","-10","","NA"
"-63.51","44.88","HALIFAX STANFIELD INT'L A","8202251","2019-03-19 02:00","2019","03","19","02:00","-5.6","","-10.8","","67","","","","30","","9","","24.1","","100.50","","","","-10","","Clear"
"-63.51","44.88","HALIFAX STANFIELD INT'L A","8202251","2019-03-19 03:00","2019","03","19","03:00","-6.6","","-10.8","","72","","","","35","","7","","24.1","","100.49","","","","-10","","NA"
"-63.51","44.88","HALIFAX STANFIELD INT'L A","8202251","2019-03-19 04:00","2019","03","19","04:00","-6.7","","-10.8","","73","","","","36","","9","","24.1","","100.49","","","","-11","","NA"
"-63.51","44.88","HALIFAX STANFIELD INT'L A","8202251","2019-03-19 05:00","2019","03","19","05:00","-7.6","","-11.1","","76","","","","36","","10","","24.1","","100.54","","","","-12","","Clear"
"-63.51","44.88","HALIFAX STANFIELD INT'L A","8202251","2019-03-19 06:00","2019","03","19","06:00","-7.7","","-12.3","","70","","","","36","","8","","24.1","","100.60","","","","-12","","NA"
"-63.51","44.88","HALIFAX STANFIELD INT'L A","8202251","2019-03-19 07:00","2019","03","19","07:00","-7.0","","-12.4","","66","","","","34","","9","","24.1","","100.67","","","","-11","","NA"
"-63.51","44.88","HALIFAX STANFIELD INT'L A","8202251","2019-03-19 08:00","2019","03","19","08:00","-5.4","","-13.0","","56","","","","34","","9","","24.1","","100.67","","","","-9","","Clear"
"-63.51","44.88","HALIFAX STANFIELD INT'L A","8202251","2019-03-19 09:00","2019","03","19","09:00","-4.1","","-12.6","","52","","","","36","","15","","24.1","","100.70","","","","-9","","NA"
"-63.51","44.88","HALIFAX STANFIELD INT'L A","8202251","2019-03-19 10:00","2019","03","19","10:00","-2.6","","-12.4","","47","","","","35","","6","","24.1","","100.71","","","","-5","","NA"
"-63.51","44.88","HALIFAX STANFIELD INT'L A","8202251","2019-03-19 11:00","2019","03","19","11:00","-0.7","","-12.3","","41","","","","25","","13","","24.1","","100.70","","","","-5","","Mainly Clear"
"-63.51","44.88","HALIFAX STANFIELD INT'L A","8202251","2019-03-19 12:00","2019","03","19","12:00","-0.8","","-12.8","","40","","","","30","","12","","24.1","","100.67","","","","-5","","NA"
"-63.51","44.88","HALIFAX STANFIELD INT'L A","8202251","2019-03-19 13:00","2019","03","19","13:00","0.0","","-11.5","","42","","","","32","","22","","24.1","","100.62","","","","-6","","NA"
"-63.51","44.88","HALIFAX STANFIELD INT'L A","8202251","2019-03-19 14:00","2019","03","19","14:00","0.3","","-11.3","","42","","","","31","","24","","24.1","","100.58","","","","","","Mostly Cloudy"
"-63.51","44.88","HALIFAX STANFIELD INT'L A","8202251","2019-03-19 15:00","2019","03","19","15:00","0.4","","-12.1","","39","","","","29","","21","","24.1","","100.58","","","","","","NA"
"-63.51","44.88","HALIFAX STANFIELD INT'L A","8202251","2019-03-19 16:00","2019","03","19","16:00","0.3","","-13.3","","36","","","","28","","21","","24.1","","100.57","","","","","","NA"
"-63.51","44.88","HALIFAX STANFIELD INT'L A","8202251","2019-03-19 17:00","2019","03","19","17:00","-0.4","","-13.3","","37","","","","31","","22","","24.1","","100.57","","","","-6","","Mainly Clear"
"-63.51","44.88","HALIFAX STANFIELD INT'L A","8202251","2019-03-19 18:00","2019","03","19","18:00","-1.4","","-14.4","","37","","","","31","","19","","24.1","","100.62","","","","-7","","NA"
"-63.51","44.88","HALIFAX STANFIELD INT'L A","8202251","2019-03-19 19:00","2019","03","19","19:00","-2.9","","-13.2","","45","","","","32","","11","","24.1","","100.70","","","","-7","","NA"
"-63.51","44.88","HALIFAX STANFIELD INT'L A","8202251","2019-03-19 20:00","2019","03","19","20:00","-3.5","","-13.0","","48","","","","32","","12","","24.1","","100.77","","","","-8","","Clear"
"-63.51","44.88","HALIFAX STANFIELD INT'L A","8202251","2019-03-19 21:00","2019","03","19","21:00","-4.2","","-12.6","","53","","","","32","","10","","24.1","","100.81","","","","-8","","NA"
"-63.51","44.88","HALIFAX STANFIELD INT'L A","8202251","2019-03-19 22:00","2019","03","19","22:00","-4.1","","-12.8","","51","","","","30","","10","","24.1","","100.83","","","","-8","","NA"
"-63.51","44.88","HALIFAX STANFIELD INT'L A","8202251","2019-03-19 23:00","2019","03","19","23:00","-4.7","","-12.9","","53","","","","25","","9","","24.1","","100.83","","","","-9","","Clear"
"-63.51","44.88","HALIFAX STANFIELD INT'L A","8202251","2019-03-20 00:00","2019","03","20","00:00","-4.7","","-13.4","","51","","","","25","","12","","24.1","","100.83","","","","-9","","NA"
"-63.51","44.88","HALIFAX STANFIELD INT'L A","8202251","2019-03-20 01:00","2019","03","20","01:00","-4.6","","-12.9","","53","","","","26","","16","","24.1","","100.84","","","","-10","","NA"
"-63.51","44.88","HALIFAX STANFIELD INT'L A","8202251","2019-03-20 02:00","2019","03","20","02:00","-6.1","","-12.5","","61","","","","24","","10","","24.1","","100.84","","","","-11","","Clear"
"-63.51","44.88","HALIFAX STANFIELD INT'L A","8202251","2019-03-20 03:00","2019","03","20","03:00","-6.5","","-12.1","","65","","","","23","","10","","24.1","","100.83","","","","-11","","NA"
"-63.51","44.88","HALIFAX STANFIELD INT'L A","8202251","2019-03-20 04:00","2019","03","20","04:00","-7.3","","-12.2","","68","","","","23","","10","","24.1","","100.83","","","","-12","","NA"
"-63.51","44.88","HALIFAX STANFIELD INT'L A","8202251","2019-03-20 05:00","2019","03","20","05:00","-5.6","","-12.8","","57","","","","27","","7","","24.1","","100.86","","","","-9","","Clear"
"-63.51","44.88","HALIFAX STANFIELD INT'L A","8202251","2019-03-20 06:00","2019","03","20","06:00","-6.8","","-12.7","","63","","","","27","","6","","24.1","","100.91","","","","-10","","NA"
"-63.51","44.88","HALIFAX STANFIELD INT'L A","8202251","2019-03-20 07:00","2019","03","20","07:00","-5.5","","-12.1","","60","","","","27","","7","","24.1","","100.97","","","","-9","","NA"
"-63.51","44.88","HALIFAX STANFIELD INT'L A","8202251","2019-03-20 08:00","2019","03","20","08:00","-4.1","","-11.0","","59","","","","32","","8","","24.1","","100.99","","","","-8","","Mainly Clear"
"-63.51","44.88","HALIFAX STANFIELD INT'L A","8202251","2019-03-20 09:00","2019","03","20","09:00","-2.7","","-11.9","","50","","","","34","","7","","24.1","","101.01","","","","-6","","NA"
"-63.51","44.88","HALIFAX STANFIELD INT'L A","8202251","2019-03-20 10:00","2019","03","20","10:00","-1.4","","-12.0","","45","","","","31","","8","","24.1","","101.02","","","","-4","","NA"
"-63.51","44.88","HALIFAX STANFIELD INT'L A","8202251","2019-03-20 11:00","2019","03","20","11:00","0.1","","-14.8","","32","","","","31","","18","","24.1","","100.99","","","","","","Clear"
"-63.51","44.88","HALIFAX STANFIELD INT'L A","8202251","2019-03-20 12:00","2019","03","20","12:00","1.3","","-15.7","","27","","","","31","","17","","24.1","","100.95","","","","","","NA"
"-63.51","44.88","HALIFAX STANFIELD INT'L A","8202251","2019-03-20 13:00","2019","03","20","13:00","2.7","","-14.8","","26","","","","31","","17","","24.1","","100.90","","","","","","NA"
"-63.51","44.88","HALIFAX STANFIELD INT'L A","8202251","2019-03-20 14:00","2019","03","20","14:00","2.9","","-16.2","","23","","","","27","","16","","24.1","","100.80","","","","","","Mainly Clear"
"-63.51","44.88","HALIFAX STANFIELD INT'L A","8202251","2019-03-20 15:00","2019","03","20","15:00","3.8","","-15.1","","24","","","","30","","21","","24.1","","100.75","","","","","","NA"
"-63.51","44.88","HALIFAX STANFIELD INT'L A","8202251","2019-03-20 16:00","2019","03","20","16:00","4.2","","-16.2","","21","","","","28","","15","","24.1","","100.70","","","","","","NA"
"-63.51","44.88","HALIFAX STANFIELD INT'L A","8202251","2019-03-20 17:00","2019","03","20","17:00","2.4","","-10.9","","37","","","","22","","20","","24.1","","100.70","","","","","","Mainly Clear"
"-63.51","44.88","HALIFAX STANFIELD INT'L A","8202251","2019-03-20 18:00","2019","03","20","18:00","1.0","","-9.4","","46","","","","20","","22","","24.1","","100.72","","","","","","NA"
"-63.51","44.88","HALIFAX STANFIELD INT'L A","8202251","2019-03-20 19:00","2019","03","20","19:00","-1.3","","-8.4","","59","","","","18","","5","","24.1","","100.77","","","","-3","","NA"
"-63.51","44.88","HALIFAX STANFIELD INT'L A","8202251","2019-03-20 20:00","2019","03","20","20:00","-2.1","","-7.4","","67","","","","25","","7","","24.1","","100.84","","","","-5","","Clear"
"-63.51","44.88","HALIFAX STANFIELD INT'L A","8202251","2019-03-20 21:00","2019","03","20","21:00","-3.0","","-7.0","","74","","","","21","","7","","24.1","","100.89","","","","-6","","NA"
"-63.51","44.88","HALIFAX STANFIELD INT'L A","8202251","2019-03-20 22:00","2019","03","20","22:00","-3.3","","-6.8","","77","","","","23","","9","","24.1","","100.91","","","","-7","","NA"
"-63.51","44.88","HALIFAX STANFIELD INT'L A","8202251","2019-03-20 23:00","2019","03","20","23:00","-1.9","","-10.5","","52","","","","25","","17","","24.1","","100.96","","","","-7","","Clear"
"-63.51","44.88","HALIFAX STANFIELD INT'L A","8202251","2019-03-21 00:00","2019","03","21","00:00","-3.3","","-10.9","","56","","","","23","","10","","24.1","","100.95","","","","-7","","NA"
"-63.51","44.88","HALIFAX STANFIELD INT'L A","8202251","2019-03-21 01:00","2019","03","21","01:00","-4.0","","-11.1","","58","","","","22","","10","","24.1","","100.95","","","","-8","","NA"
"-63.51","44.88","HALIFAX STANFIELD INT'L A","8202251","2019-03-21 02:00","2019","03","21","02:00","-4.8","","-10.6","","64","","","","21","","11","","24.1","","100.97","","","","-9","","Clear"
"-63.51","44.88","HALIFAX STANFIELD INT'L A","8202251","2019-03-21 03:00","2019","03","21","03:00","-4.5","","-10.6","","63","","","","22","","13","","24.1","","100.91","","","","-10","","NA"
"-63.51","44.88","HALIFAX STANFIELD INT'L A","8202251","2019-03-21 04:00","2019","03","21","04:00","-4.4","","-10.2","","64","","","","22","","9","","24.1","","100.92","","","","-8","","NA"
"-63.51","44.88","HALIFAX STANFIELD INT'L A","8202251","2019-03-21 05:00","2019","03","21","05:00","-4.6","","-9.2","","70","","","","21","","12","","24.1","","100.92","","","","-9","","Mainly Clear"
"-63.51","44.88","HALIFAX STANFIELD INT'L A","8202251","2019-03-21 06:00","2019","03","21","06:00","-4.5","","-7.8","","78","","","","20","","13","","24.1","","100.90","","","","-10","","NA"
"-63.51","44.88","HALIFAX STANFIELD INT'L A","8202251","2019-03-21 07:00","2019","03","21","07:00","-2.9","","-4.8","","87","","","","20","","15","","24.1","","100.92","","","","-8","","NA"
"-63.51","44.88","HALIFAX STANFIELD INT'L A","8202251","2019-03-21 08:00","2019","03","21","08:00","-1.3","","-3.6","","85","","","","17","","14","","24.1","","100.94","","","","-6","","Mainly Clear"
"-63.51","44.88","HALIFAX STANFIELD INT'L A","8202251","2019-03-21 09:00","2019","03","21","09:00","0.7","","-1.5","","85","","","","20","","19","","24.1","","100.92","","","","","","NA"
"-63.51","44.88","HALIFAX STANFIELD INT'L A","8202251","2019-03-21 10:00","2019","03","21","10:00","2.1","","-1.4","","78","","","","17","","11","","24.1","","100.96","","","","","","NA"
"-63.51","44.88","HALIFAX STANFIELD INT'L A","8202251","2019-03-21 11:00","2019","03","21","11:00","4.4","","-2.0","","63","","","","17","","16","","24.1","","100.87","","","","","","Mostly Cloudy"
"-63.51","44.88","HALIFAX STANFIELD INT'L A","8202251","2019-03-21 12:00","2019","03","21","12:00","5.8","","-4.7","","47","","","","20","","22","","24.1","","100.76","","","","","","NA"
"-63.51","44.88","HALIFAX STANFIELD INT'L A","8202251","2019-03-21 13:00","2019","03","21","13:00","6.5","","-5.2","","43","","","","20","","23","","24.1","","100.68","","","","","","NA"
"-63.51","44.88","HALIFAX STANFIELD INT'L A","8202251","2019-03-21 14:00","2019","03","21","14:00","5.6","","-3.7","","51","","","","21","","26","","24.1","","100.64","","","","","","Mainly Clear"
"-63.51","44.88","HALIFAX STANFIELD INT'L A","8202251","2019-03-21 15:00","2019","03","21","15:00","5.5","","-6.4","","42","","","","22","","28","","24.1","","100.58","","","","","","NA"
"-63.51","44.88","HALIFAX STANFIELD INT'L A","8202251","2019-03-21 16:00","2019","03","21","16:00","4.4","","-7.5","","42","","","","21","","24","","24.1","","100.55","","","","","","NA"
"-63.51","44.88","HALIFAX STANFIELD INT'L A","8202251","2019-03-21 17:00","2019","03","21","17:00","2.8","","-4.9","","57","","","","19","","22","","24.1","","100.50","","","","","","Mostly Cloudy"
"-63.51","44.88","HALIFAX STANFIELD INT'L A","8202251","2019-03-21 18:00","2019","03","21","18:00","1.1","","-5.8","","60","","","","18","","17","","24.1","","100.54","","","","","","NA"
"-63.51","44.88","HALIFAX STANFIELD INT'L A","8202251","2019-03-21 19:00","2019","03","21","19:00","-0.2","","-5.8","","66","","","","19","","17","","24.1","","100.60","","","","-5","","NA"
"-63.51","44.88","HALIFAX STANFIELD INT'L A","8202251","2019-03-21 20:00","2019","03","21","20:00","-1.4","","-4.4","","80","","","","17","","10","","24.1","","100.55","","","","-5","","Mainly Clear"
"-63.51","44.88","HALIFAX STANFIELD INT'L A","8202251","2019-03-21 21:00","2019","03","21","21:00","-1.9","","-3.5","","89","","","","15","","12","","24.1","","100.49","","","","-6","","NA"
"-63.51","44.88","HALIFAX STANFIELD INT'L A","8202251","2019-03-21 22:00","2019","03","21","22:00","-2.1","","-2.4","","98","","","","13","","11","","24.1","","100.45","","","","-6","","NA"
"-63.51","44.88","HALIFAX STANFIELD INT'L A","8202251","2019-03-21 23:00","2019","03","21","23:00","-1.6","","-1.7","","99","","","","13","","16","","24.1","","100.31","","","","-7","","Cloudy"
"-63.51","44.88","HALIFAX STANFIELD INT'L A","8202251","2019-03-22 00:00","2019","03","22","00:00","-0.7","","-0.7","","100","","","","13","","16","","6.4","","100.20","","","","-5","","Freezing Drizzle"
"-63.51","44.88","HALIFAX STANFIELD INT'L A","8202251","2019-03-22 01:00","2019","03","22","01:00","-0.4","","-0.4","","100","","","","11","","14","","4.0","","100.09","","","","-5","","Fog"
"-63.51","44.88","HALIFAX STANFIELD INT'L A","8202251","2019-03-22 02:00","2019","03","22","02:00","0.0","","0.0","","100","","","","12","","18","","24.1","","99.96","","","","-5","","Cloudy"
"-63.51","44.88","HALIFAX STANFIELD INT'L A","8202251","2019-03-22 03:00","2019","03","22","03:00","0.3","","0.3","","100","","","","12","","22","","9.7","","99.77","","","","","","Drizzle,Fog"
"-63.51","44.88","HALIFAX STANFIELD INT'L A","8202251","2019-03-22 04:00","2019","03","22","04:00","1.0","","1.0","","100","","","","12","","25","","4.0","","99.59","","","","","","Fog"
"-63.51","44.88","HALIFAX STANFIELD INT'L A","8202251","2019-03-22 05:00","2019","03","22","05:00","1.6","","1.6","","100","","","","12","","26","","0.8","","99.45","","","","","","Fog"
"-63.51","44.88","HALIFAX STANFIELD INT'L A","8202251","2019-03-22 06:00","2019","03","22","06:00","1.9","","1.9","","100","","","","11","","24","","3.2","","99.35","","","","","","Drizzle,Fog"
"-63.51","44.88","HALIFAX STANFIELD INT'L A","8202251","2019-03-22 07:00","2019","03","22","07:00","2.6","","2.6","","100","","","","12","","20","","2.0","","99.29","","","","","","Rain Showers,Fog"
"-63.51","44.88","HALIFAX STANFIELD INT'L A","8202251","2019-03-22 08:00","2019","03","22","08:00","5.1","","5.1","","100","","","","14","","21","","12.9","","99.20","","","","","","Cloudy"
"-63.51","44.88","HALIFAX STANFIELD INT'L A","8202251","2019-03-22 09:00","2019","03","22","09:00","5.6","","5.6","","100","","","","13","","32","","16.1","","99.03","","","","","","NA"
"-63.51","44.88","HALIFAX STANFIELD INT'L A","8202251","2019-03-22 10:00","2019","03","22","10:00","6.3","","6.2","","99","","","","13","","33","","16.1","","98.85","","","","","","NA"
"-63.51","44.88","HALIFAX STANFIELD INT'L A","8202251","2019-03-22 11:00","2019","03","22","11:00","6.2","","6.1","","99","","","","12","","37","","12.9","","98.58","","","","","","Cloudy"
"-63.51","44.88","HALIFAX STANFIELD INT'L A","8202251","2019-03-22 12:00","2019","03","22","12:00","6.7","","5.8","","94","","","","12","","47","","16.1","","98.31","","","","","","NA"
"-63.51","44.88","HALIFAX STANFIELD INT'L A","8202251","2019-03-22 13:00","2019","03","22","13:00","7.0","","5.8","","92","","","","12","","53","","12.9","","98.03","","","","","","Rain Showers"
"-63.51","44.88","HALIFAX STANFIELD INT'L A","8202251","2019-03-22 14:00","2019","03","22","14:00","5.7","","5.6","","99","","","","11","","48","","2.4","","97.74","","","","","","Moderate Rain Showers,Fog"
"-63.51","44.88","HALIFAX STANFIELD INT'L A","8202251","2019-03-22 15:00","2019","03","22","15:00","5.4","","5.0","","97","","","","11","","49","","4.0","","97.50","","","","","","Moderate Rain,Fog"
"-63.51","44.88","HALIFAX STANFIELD INT'L A","8202251","2019-03-22 16:00","2019","03","22","16:00","3.7","","3.4","","98","","","","12","","32","","19.3","","97.22","","","","","","Drizzle"
"-63.51","44.88","HALIFAX STANFIELD INT'L A","8202251","2019-03-22 17:00","2019","03","22","17:00","4.8","","4.8","","100","","","","13","","27","","2.4","","97.17","","","","","","Rain,Drizzle,Fog"
"-63.51","44.88","HALIFAX STANFIELD INT'L A","8202251","2019-03-22 18:00","2019","03","22","18:00","4.5","","4.5","","100","","","","13","","22","","0.2","","97.11","","","","","","Fog"
"-63.51","44.88","HALIFAX STANFIELD INT'L A","8202251","2019-03-22 19:00","2019","03","22","19:00","3.8","","3.8","","100","","","","13","","17","","0.4","","97.04","","","","","","Fog"
"-63.51","44.88","HALIFAX STANFIELD INT'L A","8202251","2019-03-22 20:00","2019","03","22","20:00","4.3","","4.3","","100","","","","13","","21","","3.6","","96.99","","","","","","Thunderstorms,Rain,Fog"
"-63.51","44.88","HALIFAX STANFIELD INT'L A","8202251","2019-03-22 21:00","2019","03","22","21:00","5.6","","5.6","","100","","","","16","","21","","6.4","","96.97","","","","","","Rain,Fog"
"-63.51","44.88","HALIFAX STANFIELD INT'L A","8202251","2019-03-22 22:00","2019","03","22","22:00","5.5","","5.5","","100","","","","17","","27","","4.0","","96.89","","","","","","Drizzle,Fog"
"-63.51","44.88","HALIFAX STANFIELD INT'L A","8202251","2019-03-22 23:00","2019","03","22","23:00","4.7","","4.7","","100","","","","19","","30","","2.4","","96.88","","","","","","Fog"
"-63.51","44.88","HALIFAX STANFIELD INT'L A","8202251","2019-03-23 00:00","2019","03","23","00:00","2.9","","2.9","","100","","","","19","","36","","9.7","","96.89","","","","","","Fog"
"-63.51","44.88","HALIFAX STANFIELD INT'L A","8202251","2019-03-23 01:00","2019","03","23","01:00","2.5","","2.5","","100","","","","20","","30","","4.8","","96.89","","","","","","Drizzle,Fog"
"-63.51","44.88","HALIFAX STANFIELD INT'L A","8202251","2019-03-23 02:00","2019","03","23","02:00","2.3","","2.3","","100","","","","20","","27","","16.1","","96.94","","","","","","Cloudy"
"-63.51","44.88","HALIFAX STANFIELD INT'L A","8202251","2019-03-23 03:00","2019","03","23","03:00","2.1","","2.1","","100","","","","18","","25","","11.3","","96.90","","","","","","Drizzle"
"-63.51","44.88","HALIFAX STANFIELD INT'L A","8202251","2019-03-23 04:00","2019","03","23","04:00","2.1","","2.0","","99","","","","19","","35","","16.1","","96.84","","","","","","Drizzle"
"-63.51","44.88","HALIFAX STANFIELD INT'L A","8202251","2019-03-23 05:00","2019","03","23","05:00","2.1","","1.5","","96","","","","20","","32","","19.3","","96.84","","","","","","Cloudy"
"-63.51","44.88","HALIFAX STANFIELD INT'L A","8202251","2019-03-23 06:00","2019","03","23","06:00","2.0","","1.4","","96","","","","20","","30","","16.1","","96.83","","","","","","NA"
"-63.51","44.88","HALIFAX STANFIELD INT'L A","8202251","2019-03-23 07:00","2019","03","23","07:00","2.0","","1.3","","95","","","","20","","33","","19.3","","96.87","","","","","","NA"
"-63.51","44.88","HALIFAX STANFIELD INT'L A","8202251","2019-03-23 08:00","2019","03","23","08:00","2.1","","1.5","","96","","","","20","","31","","9.7","","96.88","","","","","","Rain,Fog"
"-63.51","44.88","HALIFAX STANFIELD INT'L A","8202251","2019-03-23 09:00","2019","03","23","09:00","2.9","","1.6","","91","","","","21","","32","","24.1","","96.87","","","","","","NA"
"-63.51","44.88","HALIFAX STANFIELD INT'L A","8202251","2019-03-23 10:00","2019","03","23","10:00","3.1","","1.6","","90","","","","21","","34","","24.1","","96.90","","","","","","NA"
"-63.51","44.88","HALIFAX STANFIELD INT'L A","8202251","2019-03-23 11:00","2019","03","23","11:00","3.7","","1.4","","85","","","","21","","35","","24.1","","96.85","","","","","","Cloudy"
"-63.51","44.88","HALIFAX STANFIELD INT'L A","8202251","2019-03-23 12:00","2019","03","23","12:00","3.2","","1.5","","88","","","","21","","29","","24.1","","96.83","","","","","","Rain"
"-63.51","44.88","HALIFAX STANFIELD INT'L A","8202251","2019-03-23 13:00","2019","03","23","13:00","3.4","","1.6","","88","","","","20","","31","","20.9","","96.79","","","","","","Rain Showers"
"-63.51","44.88","HALIFAX STANFIELD INT'L A","8202251","2019-03-23 14:00","2019","03","23","14:00","3.2","","1.9","","91","","","","20","","28","","24.1","","96.73","","","","","","Rain Showers"
"-63.51","44.88","HALIFAX STANFIELD INT'L A","8202251","2019-03-23 15:00","2019","03","23","15:00","3.1","","2.0","","93","","","","20","","20","","24.1","","96.75","","","","","","NA"
"-63.51","44.88","HALIFAX STANFIELD INT'L A","8202251","2019-03-23 16:00","2019","03","23","16:00","2.8","","2.1","","95","","","","28","","23","","19.3","","96.86","","","","","","Rain"
"-63.51","44.88","HALIFAX STANFIELD INT'L A","8202251","2019-03-23 17:00","2019","03","23","17:00","2.7","","2.1","","96","","","","28","","20","","24.1","","96.96","","","","","","Rain"
"-63.51","44.88","HALIFAX STANFIELD INT'L A","8202251","2019-03-23 18:00","2019","03","23","18:00","2.4","","1.7","","95","","","","29","","27","","19.3","","97.09","","","","","","Rain"
"-63.51","44.88","HALIFAX STANFIELD INT'L A","8202251","2019-03-23 19:00","2019","03","23","19:00","2.3","","1.9","","97","","","","30","","28","","19.3","","97.27","","","","","","Rain"
"-63.51","44.88","HALIFAX STANFIELD INT'L A","8202251","2019-03-23 20:00","2019","03","23","20:00","2.0","","1.6","","97","","","","30","","24","","24.1","","97.49","","","","","","Rain"
"-63.51","44.88","HALIFAX STANFIELD INT'L A","8202251","2019-03-23 21:00","2019","03","23","21:00","1.6","","1.3","","98","","","","30","","34","","24.1","","97.66","","","","","","NA"
"-63.51","44.88","HALIFAX STANFIELD INT'L A","8202251","2019-03-23 22:00","2019","03","23","22:00","1.5","","0.6","","94","","","","30","","34","","24.1","","97.80","","","","","","NA"
"-63.51","44.88","HALIFAX STANFIELD INT'L A","8202251","2019-03-23 23:00","2019","03","23","23:00","1.3","","-0.3","","89","","","","31","","30","","24.1","","97.94","","","","","","Cloudy"
"-63.51","44.88","HALIFAX STANFIELD INT'L A","8202251","2019-03-24 00:00","2019","03","24","00:00","1.0","","0.3","","95","","","","31","","29","","24.1","","98.05","","","","","","NA"
"-63.51","44.88","HALIFAX STANFIELD INT'L A","8202251","2019-03-24 01:00","2019","03","24","01:00","1.0","","-0.5","","90","","","","30","","31","","24.1","","98.16","","","","","","NA"
"-63.51","44.88","HALIFAX STANFIELD INT'L A","8202251","2019-03-24 02:00","2019","03","24","02:00","1.1","","-0.8","","87","","","","30","","29","","24.1","","98.28","","","","","","Cloudy"
"-63.51","44.88","HALIFAX STANFIELD INT'L A","8202251","2019-03-24 03:00","2019","03","24","03:00","1.5","","-0.8","","85","","","","30","","27","","24.1","","98.35","","","","","","NA"
"-63.51","44.88","HALIFAX STANFIELD INT'L A","8202251","2019-03-24 04:00","2019","03","24","04:00","1.2","","-3.2","","73","","","","30","","39","","24.1","","98.44","","","","","","NA"
"-63.51","44.88","HALIFAX STANFIELD INT'L A","8202251","2019-03-24 05:00","2019","03","24","05:00","0.1","","-4.7","","70","","","","30","","31","","24.1","","98.52","","","","","","Mainly Clear"
"-63.51","44.88","HALIFAX STANFIELD INT'L A","8202251","2019-03-24 06:00","2019","03","24","06:00","-0.4","","-5.8","","67","","","","30","","30","","24.1","","98.65","","","","-7","","NA"
"-63.51","44.88","HALIFAX STANFIELD INT'L A","8202251","2019-03-24 07:00","2019","03","24","07:00","-0.3","","-6.8","","62","","","","30","","32","","24.1","","98.78","","","","-7","","NA"
"-63.51","44.88","HALIFAX STANFIELD INT'L A","8202251","2019-03-24 08:00","2019","03","24","08:00","0.6","","-7.1","","56","","","","30","","18","","24.1","","98.87","","","","","","Clear"
"-63.51","44.88","HALIFAX STANFIELD INT'L A","8202251","2019-03-24 09:00","2019","03","24","09:00","2.1","","-8.2","","47","","","","30","","23","","24.1","","98.96","","","","","","NA"
"-63.51","44.88","HALIFAX STANFIELD INT'L A","8202251","2019-03-24 10:00","2019","03","24","10:00","3.2","","-7.6","","45","","","","28","","21","","24.1","","98.99","","","","","","NA"
"-63.51","44.88","HALIFAX STANFIELD INT'L A","8202251","2019-03-24 11:00","2019","03","24","11:00","5.3","","-7.8","","38","","","","27","","25","","24.1","","99.04","","","","","","Clear"
"-63.51","44.88","HALIFAX STANFIELD INT'L A","8202251","2019-03-24 12:00","2019","03","24","12:00","6.2","","-9.0","","33","","","","27","","25","","24.1","","98.99","","","","","","NA"
"-63.51","44.88","HALIFAX STANFIELD INT'L A","8202251","2019-03-24 13:00","2019","03","24","13:00","7.5","","-8.7","","31","","","","28","","21","","24.1","","98.97","","","","","","NA"
"-63.51","44.88","HALIFAX STANFIELD INT'L A","8202251","2019-03-24 14:00","2019","03","24","14:00","8.1","","-9.3","","28","","","","31","","30","","24.1","","98.96","","","","","","Clear"
"-63.51","44.88","HALIFAX STANFIELD INT'L A","8202251","2019-03-24 15:00","2019","03","24","15:00","8.8","","-8.0","","30","","","","29","","23","","24.1","","98.96","","","","","","NA"
"-63.51","44.88","HALIFAX STANFIELD INT'L A","8202251","2019-03-24 16:00","2019","03","24","16:00","9.0","","-6.8","","32","","","","30","","26","","24.1","","98.97","","","","","","NA"
"-63.51","44.88","HALIFAX STANFIELD INT'L A","8202251","2019-03-24 17:00","2019","03","24","17:00","8.6","","-6.8","","33","","","","30","","25","","24.1","","99.02","","","","","","Mostly Cloudy"
"-63.51","44.88","HALIFAX STANFIELD INT'L A","8202251","2019-03-24 18:00","2019","03","24","18:00","7.1","","-5.6","","40","","","","29","","18","","24.1","","99.10","","","","","","NA"
"-63.51","44.88","HALIFAX STANFIELD INT'L A","8202251","2019-03-24 19:00","2019","03","24","19:00","5.0","","-6.0","","45","","","","26","","16","","24.1","","99.21","","","","","","NA"
"-63.51","44.88","HALIFAX STANFIELD INT'L A","8202251","2019-03-24 20:00","2019","03","24","20:00","4.1","","-6.0","","48","","","","25","","16","","24.1","","99.28","","","","","","Mainly Clear"
"-63.51","44.88","HALIFAX STANFIELD INT'L A","8202251","2019-03-24 21:00","2019","03","24","21:00","3.4","","-5.6","","52","","","","25","","25","","24.1","","99.32","","","","","","NA"
"-63.51","44.88","HALIFAX STANFIELD INT'L A","8202251","2019-03-24 22:00","2019","03","24","22:00","2.3","","-5.3","","57","","","","26","","19","","24.1","","99.35","","","","","","NA"
"-63.51","44.88","HALIFAX STANFIELD INT'L A","8202251","2019-03-24 23:00","2019","03","24","23:00","1.9","","-4.5","","62","","","","27","","19","","24.1","","99.38","","","","","","Mostly Cloudy"
"-63.51","44.88","HALIFAX STANFIELD INT'L A","8202251","2019-03-25 00:00","2019","03","25","00:00","1.3","","-4.2","","67","","","","27","","13","","24.1","","99.36","","","","","","NA"
"-63.51","44.88","HALIFAX STANFIELD INT'L A","8202251","2019-03-25 01:00","2019","03","25","01:00","0.8","","-3.9","","71","","","","28","","11","","24.1","","99.35","","","","","","NA"
"-63.51","44.88","HALIFAX STANFIELD INT'L A","8202251","2019-03-25 02:00","2019","03","25","02:00","0.4","","-3.9","","73","","","","28","","5","","24.1","","99.27","","","","","","Mainly Clear"
"-63.51","44.88","HALIFAX STANFIELD INT'L A","8202251","2019-03-25 03:00","2019","03","25","03:00","-1.1","","-4.0","","81","","","","19","","14","","24.1","","99.25","","","","-6","","NA"
"-63.51","44.88","HALIFAX STANFIELD INT'L A","8202251","2019-03-25 04:00","2019","03","25","04:00","-0.7","","-3.7","","80","","","","22","","8","","24.1","","99.24","","","","-4","","NA"
"-63.51","44.88","HALIFAX STANFIELD INT'L A","8202251","2019-03-25 05:00","2019","03","25","05:00","-1.2","","-3.6","","84","","","","22","","7","","24.1","","99.25","","","","-4","","Mostly Cloudy"
"-63.51","44.88","HALIFAX STANFIELD INT'L A","8202251","2019-03-25 06:00","2019","03","25","06:00","-1.1","","-3.2","","86","","","","24","","7","","24.1","","99.27","","","","-4","","NA"
"-63.51","44.88","HALIFAX STANFIELD INT'L A","8202251","2019-03-25 07:00","2019","03","25","07:00","0.2","","-3.0","","79","","","","27","","15","","24.1","","99.30","","","","","","NA"
"-63.51","44.88","HALIFAX STANFIELD INT'L A","8202251","2019-03-25 08:00","2019","03","25","08:00","0.9","","-2.1","","80","","","","28","","15","","24.1","","99.30","","","","","","Mostly Cloudy"
"-63.51","44.88","HALIFAX STANFIELD INT'L A","8202251","2019-03-25 09:00","2019","03","25","09:00","0.8","","-1.4","","85","","","","31","","23","","16.1","","99.35","","","","","","Snow Showers"
"-63.51","44.88","HALIFAX STANFIELD INT'L A","8202251","2019-03-25 10:00","2019","03","25","10:00","2.0","","-2.3","","73","","","","28","","22","","24.1","","99.38","","","","","","NA"
"-63.51","44.88","HALIFAX STANFIELD INT'L A","8202251","2019-03-25 11:00","2019","03","25","11:00","3.1","","-4.9","","56","","","","30","","28","","24.1","","99.35","","","","","","Mostly Cloudy"
"-63.51","44.88","HALIFAX STANFIELD INT'L A","8202251","2019-03-25 12:00","2019","03","25","12:00","3.7","","-5.5","","51","","","","29","","26","","24.1","","99.36","","","","","","NA"
"-63.51","44.88","HALIFAX STANFIELD INT'L A","8202251","2019-03-25 13:00","2019","03","25","13:00","3.9","","-6.9","","45","","","","29","","24","","24.1","","99.36","","","","","","NA"
"-63.51","44.88","HALIFAX STANFIELD INT'L A","8202251","2019-03-25 14:00","2019","03","25","14:00","4.3","","-15.6","","22","","","","29","","32","","24.1","","99.34","","","","","","Clear"
"-63.51","44.88","HALIFAX STANFIELD INT'L A","8202251","2019-03-25 15:00","2019","03","25","15:00","4.3","","-14.2","","25","","","","31","","32","","24.1","","99.35","","","","","","NA"
"-63.51","44.88","HALIFAX STANFIELD INT'L A","8202251","2019-03-25 16:00","2019","03","25","16:00","4.0","","-13.5","","27","","","","30","","26","","24.1","","99.38","","","","","","NA"
"-63.51","44.88","HALIFAX STANFIELD INT'L A","8202251","2019-03-25 17:00","2019","03","25","17:00","3.3","","-14.2","","27","","","","29","","22","","24.1","","99.42","","","","","","Mainly Clear"
"-63.51","44.88","HALIFAX STANFIELD INT'L A","8202251","2019-03-25 18:00","2019","03","25","18:00","1.4","","-15.1","","28","","","","30","","22","","24.1","","99.48","","","","","","NA"
"-63.51","44.88","HALIFAX STANFIELD INT'L A","8202251","2019-03-25 19:00","2019","03","25","19:00","-0.5","","-14.2","","35","","","","30","","14","","24.1","","99.56","","","","-5","","NA"
"-63.51","44.88","HALIFAX STANFIELD INT'L A","8202251","2019-03-25 20:00","2019","03","25","20:00","-1.5","","-14.9","","36","","","","28","","13","","24.1","","99.67","","","","-6","","Clear"
"-63.51","44.88","HALIFAX STANFIELD INT'L A","8202251","2019-03-25 21:00","2019","03","25","21:00","-1.9","","-14.1","","39","","","","25","","17","","24.1","","99.76","","","","-7","","NA"
"-63.51","44.88","HALIFAX STANFIELD INT'L A","8202251","2019-03-25 22:00","2019","03","25","22:00","-2.1","","-13.8","","41","","","","26","","17","","24.1","","99.84","","","","-7","","NA"
"-63.51","44.88","HALIFAX STANFIELD INT'L A","8202251","2019-03-25 23:00","2019","03","25","23:00","-2.9","","-12.5","","48","","","","27","","15","","24.1","","99.86","","","","-8","","Clear"
"-63.51","44.88","HALIFAX STANFIELD INT'L A","8202251","2019-03-26 00:00","2019","03","26","00:00","-3.4","","-12.2","","51","","","","27","","13","","24.1","","99.90","","","","-8","","NA"
"-63.51","44.88","HALIFAX STANFIELD INT'L A","8202251","2019-03-26 01:00","2019","03","26","01:00","-4.3","","-11.6","","57","","","","32","","13","","24.1","","99.91","","","","-9","","NA"
"-63.51","44.88","HALIFAX STANFIELD INT'L A","8202251","2019-03-26 02:00","2019","03","26","02:00","-4.9","","-12.2","","57","","","","31","","9","","24.1","","99.93","","","","-9","","Clear"
"-63.51","44.88","HALIFAX STANFIELD INT'L A","8202251","2019-03-26 03:00","2019","03","26","03:00","-4.9","","-14.1","","49","","","","30","","7","","24.1","","99.95","","","","-8","","NA"
"-63.51","44.88","HALIFAX STANFIELD INT'L A","8202251","2019-03-26 04:00","2019","03","26","04:00","-5.5","","-12.2","","60","","","","28","","10","","24.1","","99.99","","","","-10","","NA"
"-63.51","44.88","HALIFAX STANFIELD INT'L A","8202251","2019-03-26 05:00","2019","03","26","05:00","-5.8","","-12.8","","58","","","","30","","10","","24.1","","100.05","","","","-10","","Mainly Clear"
"-63.51","44.88","HALIFAX STANFIELD INT'L A","8202251","2019-03-26 06:00","2019","03","26","06:00","-6.2","","-12.9","","59","","","","26","","7","","24.1","","100.07","","","","-10","","NA"
"-63.51","44.88","HALIFAX STANFIELD INT'L A","8202251","2019-03-26 07:00","2019","03","26","07:00","-4.9","","-14.1","","49","","","","26","","9","","24.1","","100.13","","","","-9","","NA"
"-63.51","44.88","HALIFAX STANFIELD INT'L A","8202251","2019-03-26 08:00","2019","03","26","08:00","-2.7","","-15.3","","38","","","","27","","12","","24.1","","100.18","","","","-7","","Clear"
"-63.51","44.88","HALIFAX STANFIELD INT'L A","8202251","2019-03-26 09:00","2019","03","26","09:00","-1.3","","-14.0","","38","","","","25","","21","","24.1","","100.19","","","","-7","","NA"
"-63.51","44.88","HALIFAX STANFIELD INT'L A","8202251","2019-03-26 10:00","2019","03","26","10:00","-0.1","","-15.4","","31","","","","30","","23","","24.1","","100.17","","","","-6","","NA"
"-63.51","44.88","HALIFAX STANFIELD INT'L A","8202251","2019-03-26 11:00","2019","03","26","11:00","0.3","","-16.1","","28","","","","33","","35","","24.1","","100.10","","","","","","Clear"
"-63.51","44.88","HALIFAX STANFIELD INT'L A","8202251","2019-03-26 12:00","2019","03","26","12:00","1.3","","-14.2","","31","","","","29","","20","","24.1","","100.08","","","","","","NA"
"-63.51","44.88","HALIFAX STANFIELD INT'L A","8202251","2019-03-26 13:00","2019","03","26","13:00","1.8","","-15.2","","27","","","","30","","32","","24.1","","100.05","","","","","","NA"
"-63.51","44.88","HALIFAX STANFIELD INT'L A","8202251","2019-03-26 14:00","2019","03","26","14:00","1.1","","-14.5","","30","","","","30","","21","","24.1","","100.05","","","","","","Clear"
"-63.51","44.88","HALIFAX STANFIELD INT'L A","8202251","2019-03-26 15:00","2019","03","26","15:00","1.4","","-14.9","","29","","","","31","","17","","24.1","","100.02","","","","","","NA"
"-63.51","44.88","HALIFAX STANFIELD INT'L A","8202251","2019-03-26 16:00","2019","03","26","16:00","1.1","","-15.3","","29","","","","28","","22","","24.1","","99.99","","","","","","NA"
"-63.51","44.88","HALIFAX STANFIELD INT'L A","8202251","2019-03-26 17:00","2019","03","26","17:00","0.4","","-14.7","","32","","","","29","","25","","24.1","","100.03","","","","","","Mainly Clear"
"-63.51","44.88","HALIFAX STANFIELD INT'L A","8202251","2019-03-26 18:00","2019","03","26","18:00","-0.7","","-15.8","","31","","","","31","","25","","24.1","","100.12","","","","-7","","NA"
"-63.51","44.88","HALIFAX STANFIELD INT'L A","8202251","2019-03-26 19:00","2019","03","26","19:00","-2.5","","-15.2","","37","","","","31","","17","","24.1","","100.20","","","","-8","","NA"
"-63.51","44.88","HALIFAX STANFIELD INT'L A","8202251","2019-03-26 20:00","2019","03","26","20:00","-3.2","","-14.9","","40","","","","30","","17","","24.1","","100.34","","","","-9","","Clear"
"-63.51","44.88","HALIFAX STANFIELD INT'L A","8202251","2019-03-26 21:00","2019","03","26","21:00","-3.5","","-14.0","","44","","","","30","","17","","24.1","","100.42","","","","-9","","NA"
"-63.51","44.88","HALIFAX STANFIELD INT'L A","8202251","2019-03-26 22:00","2019","03","26","22:00","-3.9","","-12.5","","51","","","","32","","14","","24.1","","100.51","","","","-9","","NA"
"-63.51","44.88","HALIFAX STANFIELD INT'L A","8202251","2019-03-26 23:00","2019","03","26","23:00","-4.6","","-13.0","","52","","","","33","","16","","24.1","","100.57","","","","-10","","Clear"
"-63.51","44.88","HALIFAX STANFIELD INT'L A","8202251","2019-03-27 00:00","2019","03","27","00:00","-5.8","","-12.6","","59","","","","33","","8","","24.1","","100.61","","","","-10","","NA"
"-63.51","44.88","HALIFAX STANFIELD INT'L A","8202251","2019-03-27 01:00","2019","03","27","01:00","-6.4","","-12.2","","64","","","","33","","14","","24.1","","100.64","","","","-12","","NA"
"-63.51","44.88","HALIFAX STANFIELD INT'L A","8202251","2019-03-27 02:00","2019","03","27","02:00","-6.4","","-13.1","","59","","","","35","","17","","24.1","","100.70","","","","-13","","Clear"
"-63.51","44.88","HALIFAX STANFIELD INT'L A","8202251","2019-03-27 03:00","2019","03","27","03:00","-7.0","","-12.5","","65","","","","35","","14","","24.1","","100.75","","","","-13","","NA"
"-63.51","44.88","HALIFAX STANFIELD INT'L A","8202251","2019-03-27 04:00","2019","03","27","04:00","-7.5","","-12.2","","69","","","","35","","7","","24.1","","100.81","","","","-11","","NA"
"-63.51","44.88","HALIFAX STANFIELD INT'L A","8202251","2019-03-27 05:00","2019","03","27","05:00","-8.4","","-12.6","","72","","","","35","","8","","24.1","","100.89","","","","-13","","Clear"
"-63.51","44.88","HALIFAX STANFIELD INT'L A","8202251","2019-03-27 06:00","2019","03","27","06:00","-8.9","","-12.7","","74","","","","35","","7","","24.1","","100.97","","","","-13","","NA"
"-63.51","44.88","HALIFAX STANFIELD INT'L A","8202251","2019-03-27 07:00","2019","03","27","07:00","-7.7","","-12.4","","69","","","","34","","10","","24.1","","101.06","","","","-13","","NA"
"-63.51","44.88","HALIFAX STANFIELD INT'L A","8202251","2019-03-27 08:00","2019","03","27","08:00","-5.4","","-12.3","","58","","","","35","","13","","24.1","","101.13","","","","-11","","Clear"
"-63.51","44.88","HALIFAX STANFIELD INT'L A","8202251","2019-03-27 09:00","2019","03","27","09:00","-3.8","","-13.0","","49","","","","36","","22","","24.1","","101.20","","","","-10","","NA"
"-63.51","44.88","HALIFAX STANFIELD INT'L A","8202251","2019-03-27 10:00","2019","03","27","10:00","-2.6","","-13.2","","44","","","","35","","22","","24.1","","101.26","","","","-9","","NA"
"-63.51","44.88","HALIFAX STANFIELD INT'L A","8202251","2019-03-27 11:00","2019","03","27","11:00","-2.0","","-13.5","","41","","","","33","","18","","24.1","","101.30","","","","-7","","Clear"
"-63.51","44.88","HALIFAX STANFIELD INT'L A","8202251","2019-03-27 12:00","2019","03","27","12:00","-1.2","","-13.3","","40","","","","4","","14","","24.1","","101.29","","","","-6","","NA"
"-63.51","44.88","HALIFAX STANFIELD INT'L A","8202251","2019-03-27 13:00","2019","03","27","13:00","-0.1","","-11.5","","42","","","","36","","9","","24.1","","101.27","","","","-3","","NA"
"-63.51","44.88","HALIFAX STANFIELD INT'L A","8202251","2019-03-27 14:00","2019","03","27","14:00","0.8","","-13.3","","34","","","","34","","10","","24.1","","101.23","","","","","","Clear"
"-63.51","44.88","HALIFAX STANFIELD INT'L A","8202251","2019-03-27 15:00","2019","03","27","15:00","1.1","","-12.8","","35","","","","2","","10","","24.1","","101.23","","","","","","NA"
"-63.51","44.88","HALIFAX STANFIELD INT'L A","8202251","2019-03-27 16:00","2019","03","27","16:00","2.0","","-13.0","","32","","","","1","","13","","24.1","","101.21","","","","","","NA"
"-63.51","44.88","HALIFAX STANFIELD INT'L A","8202251","2019-03-27 17:00","2019","03","27","17:00","2.1","","-13.4","","31","","","","4","","4","","24.1","","101.23","","","","","","Clear"
"-63.51","44.88","HALIFAX STANFIELD INT'L A","8202251","2019-03-27 18:00","2019","03","27","18:00","1.4","","-14.2","","31","","","","33","","7","","24.1","","101.26","","","","","","NA"
"-63.51","44.88","HALIFAX STANFIELD INT'L A","8202251","2019-03-27 19:00","2019","03","27","19:00","-2.1","","-8.3","","63","","","","16","","11","","24.1","","101.31","","","","-6","","NA"
"-63.51","44.88","HALIFAX STANFIELD INT'L A","8202251","2019-03-27 20:00","2019","03","27","20:00","-2.7","","-7.8","","68","","","","21","","18","","24.1","","101.40","","","","-8","","Clear"
"-63.51","44.88","HALIFAX STANFIELD INT'L A","8202251","2019-03-27 21:00","2019","03","27","21:00","-3.4","","-7.8","","72","","","","21","","15","","24.1","","101.46","","","","-9","","NA"
"-63.51","44.88","HALIFAX STANFIELD INT'L A","8202251","2019-03-27 22:00","2019","03","27","22:00","-3.8","","-7.4","","76","","","","21","","14","","24.1","","101.49","","","","-9","","NA"
"-63.51","44.88","HALIFAX STANFIELD INT'L A","8202251","2019-03-27 23:00","2019","03","27","23:00","-4.2","","-7.5","","78","","","","20","","15","","24.1","","101.49","","","","-10","","Clear"
"-63.51","44.88","HALIFAX STANFIELD INT'L A","8202251","2019-03-28 00:00","2019","03","28","00:00","-5.0","","-7.6","","82","","","","17","","12","","24.1","","101.48","","","","-10","","NA"
"-63.51","44.88","HALIFAX STANFIELD INT'L A","8202251","2019-03-28 01:00","2019","03","28","01:00","-5.4","","-7.6","","85","","","","18","","12","","24.1","","101.52","","","","-10","","NA"
"-63.51","44.88","HALIFAX STANFIELD INT'L A","8202251","2019-03-28 02:00","2019","03","28","02:00","-5.6","","-7.4","","87","","","","19","","12","","24.1","","101.54","","","","-11","","Clear"
"-63.51","44.88","HALIFAX STANFIELD INT'L A","8202251","2019-03-28 03:00","2019","03","28","03:00","-5.5","","-7.0","","89","","","","17","","13","","24.1","","101.52","","","","-11","","NA"
"-63.51","44.88","HALIFAX STANFIELD INT'L A","8202251","2019-03-28 04:00","2019","03","28","04:00","-5.9","","-7.2","","90","","","","17","","11","","24.1","","101.50","","","","-11","","NA"
"-63.51","44.88","HALIFAX STANFIELD INT'L A","8202251","2019-03-28 05:00","2019","03","28","05:00","-5.8","","-6.9","","92","","","","17","","12","","24.1","","101.52","","","","-11","","Clear"
"-63.51","44.88","HALIFAX STANFIELD INT'L A","8202251","2019-03-28 06:00","2019","03","28","06:00","-5.5","","-6.5","","93","","","","18","","13","","24.1","","101.55","","","","-11","","NA"
"-63.51","44.88","HALIFAX STANFIELD INT'L A","8202251","2019-03-28 07:00","2019","03","28","07:00","-3.7","","-5.1","","90","","","","17","","12","","24.1","","101.58","","","","-8","","NA"
"-63.51","44.88","HALIFAX STANFIELD INT'L A","8202251","2019-03-28 08:00","2019","03","28","08:00","-1.3","","-3.8","","83","","","","20","","14","","24.1","","101.61","","","","-6","","Mostly Cloudy"
"-63.51","44.88","HALIFAX STANFIELD INT'L A","8202251","2019-03-28 09:00","2019","03","28","09:00","0.1","","-3.7","","76","","","","21","","19","","24.1","","101.63","","","","","","NA"
"-63.51","44.88","HALIFAX STANFIELD INT'L A","8202251","2019-03-28 10:00","2019","03","28","10:00","1.5","","-6.0","","57","","","","19","","28","","24.1","","101.60","","","","","","NA"
"-63.51","44.88","HALIFAX STANFIELD INT'L A","8202251","2019-03-28 11:00","2019","03","28","11:00","2.9","","-7.0","","48","","","","18","","27","","24.1","","101.53","","","","","","Clear"
"-63.51","44.88","HALIFAX STANFIELD INT'L A","8202251","2019-03-28 12:00","2019","03","28","12:00","2.0","","-7.2","","51","","","","19","","23","","24.1","","101.42","","","","","","NA"
"-63.51","44.88","HALIFAX STANFIELD INT'L A","8202251","2019-03-28 13:00","2019","03","28","13:00","2.3","","-6.5","","52","","","","20","","30","","24.1","","101.36","","","","","","NA"
"-63.51","44.88","HALIFAX STANFIELD INT'L A","8202251","2019-03-28 14:00","2019","03","28","14:00","2.5","","-5.5","","56","","","","18","","26","","24.1","","101.26","","","","","","Mostly Cloudy"
"-63.51","44.88","HALIFAX STANFIELD INT'L A","8202251","2019-03-28 15:00","2019","03","28","15:00","2.6","","-5.8","","54","","","","21","","34","","24.1","","101.17","","","","","","NA"
"-63.51","44.88","HALIFAX STANFIELD INT'L A","8202251","2019-03-28 16:00","2019","03","28","16:00","1.8","","-5.6","","58","","","","18","","34","","24.1","","101.09","","","","","","NA"
"-63.51","44.88","HALIFAX STANFIELD INT'L A","8202251","2019-03-28 17:00","2019","03","28","17:00","0.8","","-4.7","","67","","","","19","","35","","24.1","","101.04","","","","","","Mostly Cloudy"
"-63.51","44.88","HALIFAX STANFIELD INT'L A","8202251","2019-03-28 18:00","2019","03","28","18:00","-0.3","","-4.7","","73","","","","18","","26","","24.1","","101.03","","","","-6","","NA"
"-63.51","44.88","HALIFAX STANFIELD INT'L A","8202251","2019-03-28 19:00","2019","03","28","19:00","-1.6","","-4.0","","84","","","","18","","23","","24.1","","100.99","","","","-8","","NA"
"-63.51","44.88","HALIFAX STANFIELD INT'L A","8202251","2019-03-28 20:00","2019","03","28","20:00","-1.7","","-3.4","","88","","","","17","","20","","24.1","","101.02","","","","-7","","Mostly Cloudy"
"-63.51","44.88","HALIFAX STANFIELD INT'L A","8202251","2019-03-28 21:00","2019","03","28","21:00","-1.6","","-2.9","","91","","","","17","","18","","24.1","","101.01","","","","-7","","NA"
"-63.51","44.88","HALIFAX STANFIELD INT'L A","8202251","2019-03-28 22:00","2019","03","28","22:00","-1.4","","-2.5","","92","","","","18","","19","","24.1","","101.00","","","","-7","","NA"
"-63.51","44.88","HALIFAX STANFIELD INT'L A","8202251","2019-03-28 23:00","2019","03","28","23:00","-0.8","","-1.4","","96","","","","17","","16","","24.1","","100.92","","","","-6","","Cloudy"
"-63.51","44.88","HALIFAX STANFIELD INT'L A","8202251","2019-03-29 00:00","2019","03","29","00:00","-0.3","","-0.6","","98","","","","18","","16","","24.1","","100.90","","","","-5","","NA"
"-63.51","44.88","HALIFAX STANFIELD INT'L A","8202251","2019-03-29 01:00","2019","03","29","01:00","0.2","","0.1","","99","","","","18","","15","","24.1","","100.85","","","","","","NA"
"-63.51","44.88","HALIFAX STANFIELD INT'L A","8202251","2019-03-29 02:00","2019","03","29","02:00","0.2","","0.2","","100","","","","16","","16","","24.1","","100.78","","","","","","Mostly Cloudy"
"-63.51","44.88","HALIFAX STANFIELD INT'L A","8202251","2019-03-29 03:00","2019","03","29","03:00","0.6","","0.6","","100","","","","17","","15","","24.1","","100.70","","","","","","NA"
"-63.51","44.88","HALIFAX STANFIELD INT'L A","8202251","2019-03-29 04:00","2019","03","29","04:00","0.7","","0.7","","100","","","","18","","14","","19.3","","100.64","","","","","","NA"
"-63.51","44.88","HALIFAX STANFIELD INT'L A","8202251","2019-03-29 05:00","2019","03","29","05:00","1.3","","1.3","","100","","","","17","","13","","24.1","","100.60","","","","","","Cloudy"
"-63.51","44.88","HALIFAX STANFIELD INT'L A","8202251","2019-03-29 06:00","2019","03","29","06:00","1.4","","1.4","","100","","","","16","","11","","19.3","","100.56","","","","","","NA"
"-63.51","44.88","HALIFAX STANFIELD INT'L A","8202251","2019-03-29 07:00","2019","03","29","07:00","2.1","","2.1","","100","","","","14","","14","","19.3","","100.53","","","","","","NA"
"-63.51","44.88","HALIFAX STANFIELD INT'L A","8202251","2019-03-29 08:00","2019","03","29","08:00","3.3","","3.2","","99","","","","17","","12","","19.3","","100.51","","","","","","Cloudy"
"-63.51","44.88","HALIFAX STANFIELD INT'L A","8202251","2019-03-29 09:00","2019","03","29","09:00","5.0","","3.8","","92","","","","20","","23","","24.1","","100.49","","","","","","NA"
"-63.51","44.88","HALIFAX STANFIELD INT'L A","8202251","2019-03-29 10:00","2019","03","29","10:00","6.6","","4.8","","88","","","","19","","20","","24.1","","100.44","","","","","","NA"
"-63.51","44.88","HALIFAX STANFIELD INT'L A","8202251","2019-03-29 11:00","2019","03","29","11:00","8.0","","4.2","","77","","","","20","","22","","24.1","","100.33","","","","","","Mostly Cloudy"
"-63.51","44.88","HALIFAX STANFIELD INT'L A","8202251","2019-03-29 12:00","2019","03","29","12:00","8.4","","4.1","","74","","","","20","","35","","24.1","","100.29","","","","","","NA"
"-63.51","44.88","HALIFAX STANFIELD INT'L A","8202251","2019-03-29 13:00","2019","03","29","13:00","8.9","","1.1","","58","","","","21","","26","","24.1","","100.23","","","","","","NA"
"-63.51","44.88","HALIFAX STANFIELD INT'L A","8202251","2019-03-29 14:00","2019","03","29","14:00","9.3","","2.4","","62","","","","20","","36","","24.1","","100.15","","","","","","Mostly Cloudy"
"-63.51","44.88","HALIFAX STANFIELD INT'L A","8202251","2019-03-29 15:00","2019","03","29","15:00","9.2","","3.6","","68","","","","19","","30","","24.1","","100.12","","","","","","NA"
"-63.51","44.88","HALIFAX STANFIELD INT'L A","8202251","2019-03-29 16:00","2019","03","29","16:00","9.4","","3.4","","66","","","","19","","23","","24.1","","100.09","","","","","","NA"
"-63.51","44.88","HALIFAX STANFIELD INT'L A","8202251","2019-03-29 17:00","2019","03","29","17:00","7.5","","2.6","","71","","","","19","","26","","24.1","","100.08","","","","","","Cloudy"
"-63.51","44.88","HALIFAX STANFIELD INT'L A","8202251","2019-03-29 18:00","2019","03","29","18:00","6.6","","2.5","","75","","","","19","","19","","16.1","","100.14","","","","","","NA"
"-63.51","44.88","HALIFAX STANFIELD INT'L A","8202251","2019-03-29 19:00","2019","03","29","19:00","5.1","","4.4","","95","","","","19","","16","","16.1","","100.15","","","","","","Rain Showers"
"-63.51","44.88","HALIFAX STANFIELD INT'L A","8202251","2019-03-29 20:00","2019","03","29","20:00","5.3","","4.9","","97","","","","20","","25","","24.1","","100.23","","","","","","Cloudy"
"-63.51","44.88","HALIFAX STANFIELD INT'L A","8202251","2019-03-29 21:00","2019","03","29","21:00","5.2","","4.6","","96","","","","19","","22","","24.1","","100.21","","","","","","NA"
"-63.51","44.88","HALIFAX STANFIELD INT'L A","8202251","2019-03-29 22:00","2019","03","29","22:00","5.1","","4.7","","97","","","","20","","25","","24.1","","100.20","","","","","","NA"
"-63.51","44.88","HALIFAX STANFIELD INT'L A","8202251","2019-03-29 23:00","2019","03","29","23:00","5.4","","5.0","","97","","","","20","","24","","24.1","","100.16","","","","","","Rain"
"-63.51","44.88","HALIFAX STANFIELD INT'L A","8202251","2019-03-30 00:00","2019","03","30","00:00","5.0","","5.0","","100","","","","21","","18","","9.7","","100.21","","","","","","Rain"
"-63.51","44.88","HALIFAX STANFIELD INT'L A","8202251","2019-03-30 01:00","2019","03","30","01:00","4.8","","4.8","","100","","","","21","","13","","4.8","","100.24","","","","","","Rain,Fog"
"-63.51","44.88","HALIFAX STANFIELD INT'L A","8202251","2019-03-30 02:00","2019","03","30","02:00","4.7","","4.7","","100","","","","20","","12","","3.2","","100.24","","","","","","Rain,Fog"
"-63.51","44.88","HALIFAX STANFIELD INT'L A","8202251","2019-03-30 03:00","2019","03","30","03:00","4.7","","4.7","","100","","","","22","","8","","3.2","","100.30","","","","","","Rain,Fog"
"-63.51","44.88","HALIFAX STANFIELD INT'L A","8202251","2019-03-30 04:00","2019","03","30","04:00","4.6","","4.6","","100","","","","35","","10","","1.2","","100.31","","","","","","Drizzle,Fog"
"-63.51","44.88","HALIFAX STANFIELD INT'L A","8202251","2019-03-30 05:00","2019","03","30","05:00","4.3","","4.3","","100","","","","36","","8","","0.4","","100.39","","","","","","Drizzle,Fog"
"-63.51","44.88","HALIFAX STANFIELD INT'L A","8202251","2019-03-30 06:00","2019","03","30","06:00","4.1","","4.1","","100","","","","36","","10","","2.0","","100.46","","","","","","Fog"
"-63.51","44.88","HALIFAX STANFIELD INT'L A","8202251","2019-03-30 07:00","2019","03","30","07:00","4.0","","4.0","","100","","","","1","","12","","2.0","","100.53","","","","","","Fog"
"-63.51","44.88","HALIFAX STANFIELD INT'L A","8202251","2019-03-30 08:00","2019","03","30","08:00","4.0","","4.0","","100","","","","2","","14","","0.4","","100.62","","","","","","Fog"
"-63.51","44.88","HALIFAX STANFIELD INT'L A","8202251","2019-03-30 09:00","2019","03","30","09:00","4.1","","4.1","","100","","","","4","","12","","0.6","","100.66","","","","","","Fog"
"-63.51","44.88","HALIFAX STANFIELD INT'L A","8202251","2019-03-30 10:00","2019","03","30","10:00","4.8","","4.8","","100","","","","6","","17","","6.4","","100.66","","","","","","Fog"
"-63.51","44.88","HALIFAX STANFIELD INT'L A","8202251","2019-03-30 11:00","2019","03","30","11:00","4.8","","4.8","","100","","","","5","","11","","9.7","","100.69","","","","","","Fog"
"-63.51","44.88","HALIFAX STANFIELD INT'L A","8202251","2019-03-30 12:00","2019","03","30","12:00","5.2","","5.2","","100","","","","6","","10","","9.7","","100.67","","","","","","Fog"
"-63.51","44.88","HALIFAX STANFIELD INT'L A","8202251","2019-03-30 13:00","2019","03","30","13:00","5.4","","5.4","","100","","","","12","","9","","9.7","","100.62","","","","","","Fog"
"-63.51","44.88","HALIFAX STANFIELD INT'L A","8202251","2019-03-30 14:00","2019","03","30","14:00","6.0","","6.0","","100","","","","12","","9","","9.7","","100.57","","","","","","Fog"
"-63.51","44.88","HALIFAX STANFIELD INT'L A","8202251","2019-03-30 15:00","2019","03","30","15:00","6.4","","6.4","","100","","","","12","","8","","4.8","","100.55","","","","","","Fog"
"-63.51","44.88","HALIFAX STANFIELD INT'L A","8202251","2019-03-30 16:00","2019","03","30","16:00","6.6","","6.6","","100","","","","15","","9","","3.2","","100.54","","","","","","Drizzle,Fog"
"-63.51","44.88","HALIFAX STANFIELD INT'L A","8202251","2019-03-30 17:00","2019","03","30","17:00","6.2","","6.2","","100","","","","15","","13","","3.2","","100.53","","","","","","Drizzle,Fog"
"-63.51","44.88","HALIFAX STANFIELD INT'L A","8202251","2019-03-30 18:00","2019","03","30","18:00","5.4","","5.4","","100","","","","17","","9","","0.8","","100.55","","","","","","Fog"
"-63.51","44.88","HALIFAX STANFIELD INT'L A","8202251","2019-03-30 19:00","2019","03","30","19:00","4.7","","4.7","","100","","","","15","","11","","0.8","","100.55","","","","","","Fog"
"-63.51","44.88","HALIFAX STANFIELD INT'L A","8202251","2019-03-30 20:00","2019","03","30","20:00","4.0","","4.0","","100","","","","15","","9","","0.4","","100.57","","","","","","Fog"
"-63.51","44.88","HALIFAX STANFIELD INT'L A","8202251","2019-03-30 21:00","2019","03","30","21:00","3.3","","3.3","","100","","","","14","","15","","0.4","","100.53","","","","","","Fog"
"-63.51","44.88","HALIFAX STANFIELD INT'L A","8202251","2019-03-30 22:00","2019","03","30","22:00","2.6","","2.6","","100","","","","15","","14","","0.6","","100.50","","","","","","Fog"
"-63.51","44.88","HALIFAX STANFIELD INT'L A","8202251","2019-03-30 23:00","2019","03","30","23:00","1.8","","1.8","","100","","","","15","","20","","0.4","","100.43","","","","","","Fog"
"-63.51","44.88","HALIFAX STANFIELD INT'L A","8202251","2019-03-31 00:00","2019","03","31","00:00","1.6","","1.6","","100","","","","15","","20","","0.4","","100.39","","","","","","Fog"
"-63.51","44.88","HALIFAX STANFIELD INT'L A","8202251","2019-03-31 01:00","2019","03","31","01:00","1.5","","1.5","","100","","","","15","","22","","0.4","","100.38","","","","","","Fog"
"-63.51","44.88","HALIFAX STANFIELD INT'L A","8202251","2019-03-31 02:00","2019","03","31","02:00","1.7","","1.7","","100","","","","15","","19","","0.4","","100.34","","","","","","Fog"
"-63.51","44.88","HALIFAX STANFIELD INT'L A","8202251","2019-03-31 03:00","2019","03","31","03:00","2.0","","2.0","","100","","","","14","","22","","0.4","","100.25","","","","","","Fog"
"-63.51","44.88","HALIFAX STANFIELD INT'L A","8202251","2019-03-31 04:00","2019","03","31","04:00","2.4","","2.4","","100","","","","15","","19","","0.6","","100.22","","","","","","Fog"
"-63.51","44.88","HALIFAX STANFIELD INT'L A","8202251","2019-03-31 05:00","2019","03","31","05:00","3.0","","3.0","","100","","","","15","","15","","0.8","","100.20","","","","","","Fog"
"-63.51","44.88","HALIFAX STANFIELD INT'L A","8202251","2019-03-31 06:00","2019","03","31","06:00","3.7","","3.7","","100","","","","17","","18","","0.6","","100.16","","","","","","Fog"
"-63.51","44.88","HALIFAX STANFIELD INT'L A","8202251","2019-03-31 07:00","2019","03","31","07:00","5.9","","5.9","","100","","","","16","","18","","16.1","","100.18","","","","","","NA"
"-63.51","44.88","HALIFAX STANFIELD INT'L A","8202251","2019-03-31 08:00","2019","03","31","08:00","7.0","","7.0","","100","","","","17","","18","","2.4","","100.16","","","","","","Fog"
"-63.51","44.88","HALIFAX STANFIELD INT'L A","8202251","2019-03-31 09:00","2019","03","31","09:00","8.4","","8.4","","100","","","","17","","22","","4.8","","100.11","","","","","","Fog"
"-63.51","44.88","HALIFAX STANFIELD INT'L A","8202251","2019-03-31 10:00","2019","03","31","10:00","10.7","","10.2","","97","","","","18","","29","","24.1","","100.05","","","","","","NA"
"-63.51","44.88","HALIFAX STANFIELD INT'L A","8202251","2019-03-31 11:00","2019","03","31","11:00","13.1","","9.2","","77","","","","18","","27","","24.1","","99.99","","","","","","Mostly Cloudy"
"-63.51","44.88","HALIFAX STANFIELD INT'L A","8202251","2019-03-31 12:00","2019","03","31","12:00","12.5","","8.1","","74","","","","16","","24","","24.1","","99.89","","","","","","NA"
"-63.51","44.88","HALIFAX STANFIELD INT'L A","8202251","2019-03-31 13:00","2019","03","31","13:00","13.1","","7.8","","70","","","","17","","27","","24.1","","99.78","","","","","","NA"
"-63.51","44.88","HALIFAX STANFIELD INT'L A","8202251","2019-03-31 14:00","2019","03","31","14:00","12.9","","7.1","","68","","","","16","","25","","24.1","","99.68","","","","","","Mostly Cloudy"
"-63.51","44.88","HALIFAX STANFIELD INT'L A","8202251","2019-03-31 15:00","2019","03","31","15:00","12.2","","7.5","","73","","","","17","","25","","24.1","","99.59","","","","","","NA"
"-63.51","44.88","HALIFAX STANFIELD INT'L A","8202251","2019-03-31 16:00","2019","03","31","16:00","10.0","","7.5","","85","","","","16","","19","","24.1","","99.45","","","","","","NA"
"-63.51","44.88","HALIFAX STANFIELD INT'L A","8202251","2019-03-31 17:00","2019","03","31","17:00","7.3","","7.2","","99","","","","15","","22","","0.8","","99.35","","","","","","Fog"
"-63.51","44.88","HALIFAX STANFIELD INT'L A","8202251","2019-03-31 18:00","2019","03","31","18:00","5.6","","5.6","","100","","","","15","","16","","0.2","","99.32","","","","","","Fog"
"-63.51","44.88","HALIFAX STANFIELD INT'L A","8202251","2019-03-31 19:00","2019","03","31","19:00","4.8","","4.8","","100","","","","14","","22","","0.2","","99.27","","","","","","Fog"
"-63.51","44.88","HALIFAX STANFIELD INT'L A","8202251","2019-03-31 20:00","2019","03","31","20:00","4.2","","4.2","","100","","","","14","","18","","0.2","","99.19","","","","","","Fog"
"-63.51","44.88","HALIFAX STANFIELD INT'L A","8202251","2019-03-31 21:00","2019","03","31","21:00","4.3","","4.3","","100","","","","16","","13","","0.2","","99.13","","","","","","Fog"
"-63.51","44.88","HALIFAX STANFIELD INT'L A","8202251","2019-03-31 22:00","2019","03","31","22:00","5.1","","5.1","","100","","","","15","","18","","0.6","","98.99","","","","","","Fog"
"-63.51","44.88","HALIFAX STANFIELD INT'L A","8202251","2019-03-31 23:00","2019","03","31","23:00","5.1","","5.1","","100","","","","14","","17","","0.6","","98.86","","","","","","Fog"
