"Longitude (x)","Latitude (y)","Station Name","Climate ID","Date/Time (LST)","Year","Month","Day","Time (LST)","Temp (°C)","Temp Flag","Dew Point Temp (°C)","Dew Point Temp Flag","Rel Hum (%)","Rel Hum Flag","Precip. Amount (mm)","Precip. Amount Flag","Wind Dir (10s deg)","Wind Dir Flag","Wind Spd (km/h)","Wind Spd Flag","Visibility (km)","Visibility Flag","Stn Press (kPa)","Stn Press Flag","Hmdx","Hmdx Flag","Wind Chill","Wind Chill Flag","Weather"
"-63.51","44.88","HALIFAX STANFIELD INT'L A","8202251","2019-02-01 00:00","2019","02","01","00:00","-12.6","","-16.8","","71","","","","25","","20","","24.1","","100.05","","","","-21","","NA"
"-63.51","44.88","HALIFAX STANFIELD INT'L A","8202251","2019-02-01 01:00","2019","02","01","01:00","-12.8","","-16.5","","74","","","","25","","19","","22.5","","100.07","","","","-21","","NA"
"-63.51","44.88","HALIFAX STANFIELD INT'L A","8202251","2019-02-01 02:00","2019","02","01","02:00","-12.3","","-14.2","","86","","","","29","","22","","3.2","","100.10","","","","-21","","Snow"
"-63.51","44.88","HALIFAX STANFIELD INT'L A","8202251","2019-02-01 03:00","2019","02","01","03:00","-13.1","","-18.0","","67","","","","30","","23","","24.1","","100.10","","","","-22","","NA"
"-63.51","44.88","HALIFAX STANFIELD INT'L A","8202251","2019-02-01 04:00","2019","02","01","04:00","-13.5","","-18.4","","67","","","","26","","14","","24.1","","100.08","","","","-21","","NA"
"-63.51","44.88","HALIFAX STANFIELD INT'L A","8202251","2019-02-01 05:00","2019","02","01","05:00","-14.8","","-17.5","","80","","","","21","","14","","24.1","","100.11","","","","-22","","Mainly Clear"
"-63.51","44.88","HALIFAX STANFIELD INT'L A","8202251","2019-02-01 06:00","2019","02","01","06:00","-15.1","","-17.5","","82","","","","20","","13","","24.1","","100.09","","","","-22","","NA"
"-63.51","44.88","HALIFAX STANFIELD INT'L A","8202251","2019-02-01 07:00","2019","02","01","07:00","-14.6","","-17.0","","82","","","","22","","16","","24.1","","100.10","","","","-23","","NA"
"-63.51","44.88","HALIFAX STANFIELD INT'L A","8202251","2019-02-01 08:00","2019","02","01","08:00","-14.2","","-16.3","","84","","","","22","","16","","24.1","","100.14","","","","-22","","Mainly Clear"
"-63.51","44.88","HALIFAX STANFIELD INT'L A","8202251","2019-02-01 09:00","2019","02","01","09:00","-12.2","","-14.8","","81","","","","23","","21","","24.1","","100.16","","","","-21","","NA"
"-63.51","44.88","HALIFAX STANFIELD INT'L A","8202251","2019-02-01 10:00","2019","02","01","10:00","-10.3","","-13.9","","75","","","","26","","23","","24.1","","100.16","","","","-19","","NA"
"-63.51","44.88","HALIFAX STANFIELD INT'L A","8202251","2019-02-01 11:00","2019","02","01","11:00","-9.5","","-14.9","","65","","","","26","","35","","24.1","","100.16","","","","-20","","Mostly Cloudy"
"-63.51","44.88","HALIFAX STANFIELD INT'L A","8202251","2019-02-01 12:00","2019","02","01","12:00","-8.9","","-12.9","","73","","","","26","","32","","4.8","","100.07","","","","-18","","Snow Showers"
"-63.51","44.88","HALIFAX STANFIELD INT'L A","8202251","2019-02-01 13:00","2019","02","01","13:00","-9.2","","-15.7","","60","","","","28","","25","","16.1","","99.98","","","","-18","","Snow Showers"
"-63.51","44.88","HALIFAX STANFIELD INT'L A","8202251","2019-02-01 14:00","2019","02","01","14:00","-8.0","","-16.4","","51","","","","25","","36","","24.1","","99.91","","","","-18","","Mostly Cloudy"
"-63.51","44.88","HALIFAX STANFIELD INT'L A","8202251","2019-02-01 15:00","2019","02","01","15:00","-8.3","","-16.0","","54","","","","28","","30","","24.1","","99.88","","","","-17","","NA"
"-63.51","44.88","HALIFAX STANFIELD INT'L A","8202251","2019-02-01 16:00","2019","02","01","16:00","-8.6","","-14.5","","63","","","","29","","25","","24.1","","99.90","","","","-17","","NA"
"-63.51","44.88","HALIFAX STANFIELD INT'L A","8202251","2019-02-01 17:00","2019","02","01","17:00","-9.0","","-14.2","","66","","","","27","","21","","24.1","","99.93","","","","-17","","Mostly Cloudy"
"-63.51","44.88","HALIFAX STANFIELD INT'L A","8202251","2019-02-01 18:00","2019","02","01","18:00","-9.3","","-14.6","","66","","","","25","","26","","24.1","","99.98","","","","-18","","NA"
"-63.51","44.88","HALIFAX STANFIELD INT'L A","8202251","2019-02-01 19:00","2019","02","01","19:00","-10.2","","-14.2","","73","","","","25","","24","","24.1","","99.98","","","","-19","","NA"
"-63.51","44.88","HALIFAX STANFIELD INT'L A","8202251","2019-02-01 20:00","2019","02","01","20:00","-10.4","","-14.5","","72","","","","24","","23","","24.1","","99.99","","","","-19","","Mainly Clear"
"-63.51","44.88","HALIFAX STANFIELD INT'L A","8202251","2019-02-01 21:00","2019","02","01","21:00","-10.6","","-14.4","","74","","","","24","","24","","24.1","","100.01","","","","-19","","NA"
"-63.51","44.88","HALIFAX STANFIELD INT'L A","8202251","2019-02-01 22:00","2019","02","01","22:00","-10.9","","-14.0","","78","","","","24","","23","","24.1","","99.98","","","","-20","","NA"
"-63.51","44.88","HALIFAX STANFIELD INT'L A","8202251","2019-02-01 23:00","2019","02","01","23:00","-10.9","","-14.0","","78","","","","25","","24","","24.1","","99.95","","","","-20","","Mainly Clear"
"-63.51","44.88","HALIFAX STANFIELD INT'L A","8202251","2019-02-02 00:00","2019","02","02","00:00","-10.8","","-14.3","","76","","","","24","","25","","24.1","","99.95","","","","-20","","NA"
"-63.51","44.88","HALIFAX STANFIELD INT'L A","8202251","2019-02-02 01:00","2019","02","02","01:00","-11.0","","-14.4","","76","","","","24","","19","","24.1","","99.95","","","","-19","","NA"
"-63.51","44.88","HALIFAX STANFIELD INT'L A","8202251","2019-02-02 02:00","2019","02","02","02:00","-11.5","","-14.6","","78","","","","25","","20","","24.1","","99.94","","","","-20","","Clear"
"-63.51","44.88","HALIFAX STANFIELD INT'L A","8202251","2019-02-02 03:00","2019","02","02","03:00","-11.6","","-14.9","","77","","","","28","","20","","24.1","","99.97","","","","-20","","NA"
"-63.51","44.88","HALIFAX STANFIELD INT'L A","8202251","2019-02-02 04:00","2019","02","02","04:00","-11.4","","-16.7","","65","","","","29","","30","","24.1","","99.97","","","","-21","","NA"
"-63.51","44.88","HALIFAX STANFIELD INT'L A","8202251","2019-02-02 05:00","2019","02","02","05:00","-11.9","","-16.9","","67","","","","29","","22","","24.1","","99.98","","","","-21","","Clear"
"-63.51","44.88","HALIFAX STANFIELD INT'L A","8202251","2019-02-02 06:00","2019","02","02","06:00","-12.1","","-16.7","","69","","","","28","","23","","24.1","","99.98","","","","-21","","NA"
"-63.51","44.88","HALIFAX STANFIELD INT'L A","8202251","2019-02-02 07:00","2019","02","02","07:00","-12.5","","-16.7","","71","","","","28","","22","","24.1","","100.00","","","","-21","","NA"
"-63.51","44.88","HALIFAX STANFIELD INT'L A","8202251","2019-02-02 08:00","2019","02","02","08:00","-12.4","","-16.6","","71","","","","29","","21","","24.1","","100.06","","","","-21","","Mainly Clear"
"-63.51","44.88","HALIFAX STANFIELD INT'L A","8202251","2019-02-02 09:00","2019","02","02","09:00","-11.3","","-16.2","","68","","","","27","","22","","24.1","","100.08","","","","-20","","NA"
"-63.51","44.88","HALIFAX STANFIELD INT'L A","8202251","2019-02-02 10:00","2019","02","02","10:00","-10.1","","-15.7","","64","","","","28","","24","","24.1","","100.01","","","","-19","","NA"
"-63.51","44.88","HALIFAX STANFIELD INT'L A","8202251","2019-02-02 11:00","2019","02","02","11:00","-8.6","","-16.4","","54","","","","26","","22","","24.1","","99.95","","","","-16","","Mostly Cloudy"
"-63.51","44.88","HALIFAX STANFIELD INT'L A","8202251","2019-02-02 12:00","2019","02","02","12:00","-7.1","","-15.3","","52","","","","25","","16","","24.1","","99.84","","","","-13","","NA"
"-63.51","44.88","HALIFAX STANFIELD INT'L A","8202251","2019-02-02 13:00","2019","02","02","13:00","-5.9","","-15.3","","48","","","","27","","30","","24.1","","99.68","","","","-14","","NA"
"-63.51","44.88","HALIFAX STANFIELD INT'L A","8202251","2019-02-02 14:00","2019","02","02","14:00","-5.6","","-14.1","","52","","","","24","","28","","24.1","","99.57","","","","-14","","Mostly Cloudy"
"-63.51","44.88","HALIFAX STANFIELD INT'L A","8202251","2019-02-02 15:00","2019","02","02","15:00","-5.5","","-14.9","","48","","","","25","","30","","24.1","","99.49","","","","-14","","NA"
"-63.51","44.88","HALIFAX STANFIELD INT'L A","8202251","2019-02-02 16:00","2019","02","02","16:00","-5.8","","-14.5","","51","","","","26","","28","","24.1","","99.42","","","","-14","","NA"
"-63.51","44.88","HALIFAX STANFIELD INT'L A","8202251","2019-02-02 17:00","2019","02","02","17:00","-6.2","","-12.0","","64","","","","25","","35","","24.1","","99.36","","","","-15","","Cloudy"
"-63.51","44.88","HALIFAX STANFIELD INT'L A","8202251","2019-02-02 18:00","2019","02","02","18:00","-6.4","","-10.5","","73","","","","23","","20","","24.1","","99.22","","","","-13","","Snow"
"-63.51","44.88","HALIFAX STANFIELD INT'L A","8202251","2019-02-02 19:00","2019","02","02","19:00","-6.9","","-8.4","","89","","","","20","","13","","3.2","","99.09","","","","-12","","Snow"
"-63.51","44.88","HALIFAX STANFIELD INT'L A","8202251","2019-02-02 20:00","2019","02","02","20:00","-6.6","","-7.7","","92","","","","20","","18","","4.8","","98.94","","","","-13","","Snow"
"-63.51","44.88","HALIFAX STANFIELD INT'L A","8202251","2019-02-02 21:00","2019","02","02","21:00","-5.5","","-6.2","","95","","","","23","","22","","4.8","","98.83","","","","-13","","Snow"
"-63.51","44.88","HALIFAX STANFIELD INT'L A","8202251","2019-02-02 22:00","2019","02","02","22:00","-5.1","","-6.5","","90","","","","25","","22","","8.1","","98.81","","","","-12","","Snow"
"-63.51","44.88","HALIFAX STANFIELD INT'L A","8202251","2019-02-02 23:00","2019","02","02","23:00","-6.4","","-7.6","","91","","","","30","","36","","2.4","","98.92","","","","-16","","Snow,Blowing Snow"
"-63.51","44.88","HALIFAX STANFIELD INT'L A","8202251","2019-02-03 00:00","2019","02","03","00:00","-8.2","","-9.4","","91","","","","33","","28","","3.2","","99.00","","","","-17","","Snow"
"-63.51","44.88","HALIFAX STANFIELD INT'L A","8202251","2019-02-03 01:00","2019","02","03","01:00","-8.9","","-10.4","","89","","","","33","","34","","2.8","","99.11","","","","-19","","Snow"
"-63.51","44.88","HALIFAX STANFIELD INT'L A","8202251","2019-02-03 02:00","2019","02","03","02:00","-9.6","","-12.0","","83","","","","32","","24","","24.1","","99.23","","","","-18","","Snow"
"-63.51","44.88","HALIFAX STANFIELD INT'L A","8202251","2019-02-03 03:00","2019","02","03","03:00","-10.6","","-13.4","","80","","","","32","","29","","24.1","","99.34","","","","-20","","NA"
"-63.51","44.88","HALIFAX STANFIELD INT'L A","8202251","2019-02-03 04:00","2019","02","03","04:00","-11.5","","-14.0","","82","","","","30","","22","","24.1","","99.44","","","","-20","","NA"
"-63.51","44.88","HALIFAX STANFIELD INT'L A","8202251","2019-02-03 05:00","2019","02","03","05:00","-11.8","","-14.3","","82","","","","30","","23","","24.1","","99.56","","","","-21","","Clear"
"-63.51","44.88","HALIFAX STANFIELD INT'L A","8202251","2019-02-03 06:00","2019","02","03","06:00","-12.5","","-14.6","","85","","","","27","","15","","24.1","","99.67","","","","-20","","NA"
"-63.51","44.88","HALIFAX STANFIELD INT'L A","8202251","2019-02-03 07:00","2019","02","03","07:00","-12.2","","-14.8","","81","","","","30","","23","","24.1","","99.77","","","","-21","","NA"
"-63.51","44.88","HALIFAX STANFIELD INT'L A","8202251","2019-02-03 08:00","2019","02","03","08:00","-12.1","","-15.7","","75","","","","32","","35","","24.1","","99.83","","","","-23","","Mainly Clear"
"-63.51","44.88","HALIFAX STANFIELD INT'L A","8202251","2019-02-03 09:00","2019","02","03","09:00","-11.2","","-15.0","","74","","","","32","","28","","24.1","","99.83","","","","-21","","NA"
"-63.51","44.88","HALIFAX STANFIELD INT'L A","8202251","2019-02-03 10:00","2019","02","03","10:00","-9.4","","-13.8","","71","","","","31","","39","","24.1","","99.84","","","","-20","","NA"
"-63.51","44.88","HALIFAX STANFIELD INT'L A","8202251","2019-02-03 11:00","2019","02","03","11:00","-7.8","","-13.7","","63","","","","31","","35","","24.1","","99.91","","","","-17","","Mainly Clear"
"-63.51","44.88","HALIFAX STANFIELD INT'L A","8202251","2019-02-03 12:00","2019","02","03","12:00","-6.8","","-13.7","","58","","","","29","","20","","24.1","","99.95","","","","-14","","NA"
"-63.51","44.88","HALIFAX STANFIELD INT'L A","8202251","2019-02-03 13:00","2019","02","03","13:00","-5.7","","-13.0","","57","","","","30","","23","","24.1","","99.93","","","","-13","","NA"
"-63.51","44.88","HALIFAX STANFIELD INT'L A","8202251","2019-02-03 14:00","2019","02","03","14:00","-5.1","","-13.4","","53","","","","31","","23","","24.1","","99.93","","","","-12","","Mainly Clear"
"-63.51","44.88","HALIFAX STANFIELD INT'L A","8202251","2019-02-03 15:00","2019","02","03","15:00","-4.6","","-13.7","","49","","","","29","","19","","24.1","","99.95","","","","-11","","NA"
"-63.51","44.88","HALIFAX STANFIELD INT'L A","8202251","2019-02-03 16:00","2019","02","03","16:00","-4.5","","-13.1","","52","","","","30","","20","","24.1","","100.03","","","","-11","","NA"
"-63.51","44.88","HALIFAX STANFIELD INT'L A","8202251","2019-02-03 17:00","2019","02","03","17:00","-5.3","","-12.8","","56","","","","31","","17","","24.1","","100.09","","","","-11","","Mainly Clear"
"-63.51","44.88","HALIFAX STANFIELD INT'L A","8202251","2019-02-03 18:00","2019","02","03","18:00","-6.5","","-12.6","","62","","","","30","","13","","24.1","","100.18","","","","-12","","NA"
"-63.51","44.88","HALIFAX STANFIELD INT'L A","8202251","2019-02-03 19:00","2019","02","03","19:00","-6.9","","-12.0","","67","","","","30","","10","","24.1","","100.30","","","","-12","","NA"
"-63.51","44.88","HALIFAX STANFIELD INT'L A","8202251","2019-02-03 20:00","2019","02","03","20:00","-6.5","","-11.5","","68","","","","29","","16","","24.1","","100.38","","","","-13","","Cloudy"
"-63.51","44.88","HALIFAX STANFIELD INT'L A","8202251","2019-02-03 21:00","2019","02","03","21:00","-6.7","","-11.4","","70","","","","26","","10","","24.1","","100.39","","","","-11","","NA"
"-63.51","44.88","HALIFAX STANFIELD INT'L A","8202251","2019-02-03 22:00","2019","02","03","22:00","-6.6","","-10.8","","72","","","","26","","8","","24.1","","100.44","","","","-10","","NA"
"-63.51","44.88","HALIFAX STANFIELD INT'L A","8202251","2019-02-03 23:00","2019","02","03","23:00","-6.9","","-10.1","","78","","","","10","","5","","24.1","","100.42","","","","-9","","Cloudy"
"-63.51","44.88","HALIFAX STANFIELD INT'L A","8202251","2019-02-04 00:00","2019","02","04","00:00","-7.3","","-10.5","","78","","","","11","","13","","24.1","","100.45","","","","-13","","NA"
"-63.51","44.88","HALIFAX STANFIELD INT'L A","8202251","2019-02-04 01:00","2019","02","04","01:00","-7.4","","-10.5","","79","","","","13","","10","","24.1","","100.47","","","","-12","","NA"
"-63.51","44.88","HALIFAX STANFIELD INT'L A","8202251","2019-02-04 02:00","2019","02","04","02:00","-7.2","","-10.6","","77","","","","15","","13","","24.1","","100.41","","","","-13","","Cloudy"
"-63.51","44.88","HALIFAX STANFIELD INT'L A","8202251","2019-02-04 03:00","2019","02","04","03:00","-7.0","","-10.7","","75","","","","15","","10","","24.1","","100.45","","","","-12","","NA"
"-63.51","44.88","HALIFAX STANFIELD INT'L A","8202251","2019-02-04 04:00","2019","02","04","04:00","-6.6","","-9.7","","79","","","","16","","10","","24.1","","100.37","","","","-11","","NA"
"-63.51","44.88","HALIFAX STANFIELD INT'L A","8202251","2019-02-04 05:00","2019","02","04","05:00","-5.8","","-8.9","","79","","","","16","","10","","24.1","","100.34","","","","-10","","Snow"
"-63.51","44.88","HALIFAX STANFIELD INT'L A","8202251","2019-02-04 06:00","2019","02","04","06:00","-5.1","","-8.2","","79","","","","16","","11","","24.1","","100.28","","","","-10","","Snow"
"-63.51","44.88","HALIFAX STANFIELD INT'L A","8202251","2019-02-04 07:00","2019","02","04","07:00","-3.9","","-6.9","","80","","","","17","","14","","24.1","","100.19","","","","-9","","Snow"
"-63.51","44.88","HALIFAX STANFIELD INT'L A","8202251","2019-02-04 08:00","2019","02","04","08:00","-3.6","","-6.7","","79","","","","18","","17","","24.1","","100.18","","","","-9","","Cloudy"
"-63.51","44.88","HALIFAX STANFIELD INT'L A","8202251","2019-02-04 09:00","2019","02","04","09:00","-2.9","","-5.7","","81","","","","18","","22","","16.1","","100.13","","","","-9","","Snow,Ice Pellets"
"-63.51","44.88","HALIFAX STANFIELD INT'L A","8202251","2019-02-04 10:00","2019","02","04","10:00","-2.3","","-4.0","","88","","","","17","","18","","24.1","","100.06","","","","-8","","Snow"
"-63.51","44.88","HALIFAX STANFIELD INT'L A","8202251","2019-02-04 11:00","2019","02","04","11:00","-1.4","","-2.8","","90","","","","19","","20","","24.1","","100.07","","","","-7","","Cloudy"
"-63.51","44.88","HALIFAX STANFIELD INT'L A","8202251","2019-02-04 12:00","2019","02","04","12:00","-0.3","","-2.0","","88","","","","20","","22","","24.1","","99.98","","","","-6","","NA"
"-63.51","44.88","HALIFAX STANFIELD INT'L A","8202251","2019-02-04 13:00","2019","02","04","13:00","0.9","","-0.7","","89","","","","20","","28","","24.1","","99.86","","","","","","NA"
"-63.51","44.88","HALIFAX STANFIELD INT'L A","8202251","2019-02-04 14:00","2019","02","04","14:00","1.3","","0.7","","96","","","","21","","23","","16.1","","99.77","","","","","","Rain"
"-63.51","44.88","HALIFAX STANFIELD INT'L A","8202251","2019-02-04 15:00","2019","02","04","15:00","3.5","","0.9","","83","","","","23","","21","","24.1","","99.52","","","","","","NA"
"-63.51","44.88","HALIFAX STANFIELD INT'L A","8202251","2019-02-04 16:00","2019","02","04","16:00","2.6","","0.8","","88","","","","24","","18","","24.1","","99.56","","","","","","NA"
"-63.51","44.88","HALIFAX STANFIELD INT'L A","8202251","2019-02-04 17:00","2019","02","04","17:00","2.7","","1.5","","92","","","","25","","17","","24.1","","99.78","","","","","","Cloudy"
"-63.51","44.88","HALIFAX STANFIELD INT'L A","8202251","2019-02-04 18:00","2019","02","04","18:00","2.5","","1.6","","94","","","","24","","6","","24.1","","99.82","","","","","","NA"
"-63.51","44.88","HALIFAX STANFIELD INT'L A","8202251","2019-02-04 19:00","2019","02","04","19:00","2.7","","1.8","","94","","","","23","","6","","24.1","","99.87","","","","","","NA"
"-63.51","44.88","HALIFAX STANFIELD INT'L A","8202251","2019-02-04 20:00","2019","02","04","20:00","2.4","","1.7","","95","","","","26","","5","","24.1","","99.90","","","","","","Cloudy"
"-63.51","44.88","HALIFAX STANFIELD INT'L A","8202251","2019-02-04 21:00","2019","02","04","21:00","2.1","","1.5","","96","","","","20","","9","","24.1","","99.91","","","","","","NA"
"-63.51","44.88","HALIFAX STANFIELD INT'L A","8202251","2019-02-04 22:00","2019","02","04","22:00","2.4","","2.0","","97","","","","26","","7","","24.1","","99.96","","","","","","NA"
"-63.51","44.88","HALIFAX STANFIELD INT'L A","8202251","2019-02-04 23:00","2019","02","04","23:00","1.9","","1.9","","100","","","","23","","4","","8.1","","99.97","","","","","","Fog"
"-63.51","44.88","HALIFAX STANFIELD INT'L A","8202251","2019-02-05 00:00","2019","02","05","00:00","0.9","","0.9","","100","","","","18","","6","","16.1","","99.98","","","","","","NA"
"-63.51","44.88","HALIFAX STANFIELD INT'L A","8202251","2019-02-05 01:00","2019","02","05","01:00","2.3","","2.3","","100","","","","10","","5","","16.1","","100.01","","","","","","NA"
"-63.51","44.88","HALIFAX STANFIELD INT'L A","8202251","2019-02-05 02:00","2019","02","05","02:00","1.1","","1.1","","100","","","","17","","12","","3.2","","100.00","","","","","","Fog"
"-63.51","44.88","HALIFAX STANFIELD INT'L A","8202251","2019-02-05 03:00","2019","02","05","03:00","1.7","","1.7","","100","","","","15","","10","","2.4","","99.97","","","","","","Fog"
"-63.51","44.88","HALIFAX STANFIELD INT'L A","8202251","2019-02-05 04:00","2019","02","05","04:00","1.5","","1.5","","100","","","","14","","17","","2.0","","99.90","","","","","","Fog"
"-63.51","44.88","HALIFAX STANFIELD INT'L A","8202251","2019-02-05 05:00","2019","02","05","05:00","1.5","","1.5","","100","","","","12","","18","","2.0","","99.81","","","","","","Fog"
"-63.51","44.88","HALIFAX STANFIELD INT'L A","8202251","2019-02-05 06:00","2019","02","05","06:00","1.5","","1.5","","100","","","","14","","22","","0.4","","99.82","","","","","","Fog"
"-63.51","44.88","HALIFAX STANFIELD INT'L A","8202251","2019-02-05 07:00","2019","02","05","07:00","1.5","","1.5","","100","","","","14","","28","","1.6","","99.80","","","","","","Fog"
"-63.51","44.88","HALIFAX STANFIELD INT'L A","8202251","2019-02-05 08:00","2019","02","05","08:00","1.1","","1.1","","100","","","","15","","27","","0.4","","99.89","","","","","","Fog"
"-63.51","44.88","HALIFAX STANFIELD INT'L A","8202251","2019-02-05 09:00","2019","02","05","09:00","1.3","","1.3","","100","","","","15","","28","","0.4","","99.85","","","","","","Fog"
"-63.51","44.88","HALIFAX STANFIELD INT'L A","8202251","2019-02-05 10:00","2019","02","05","10:00","1.3","","1.3","","100","","","","15","","23","","0.4","","99.79","","","","","","Rain,Fog"
"-63.51","44.88","HALIFAX STANFIELD INT'L A","8202251","2019-02-05 11:00","2019","02","05","11:00","1.8","","1.8","","100","","","","16","","23","","0.4","","99.69","","","","","","Drizzle,Fog"
"-63.51","44.88","HALIFAX STANFIELD INT'L A","8202251","2019-02-05 12:00","2019","02","05","12:00","2.7","","2.7","","100","","","","15","","14","","0.2","","99.56","","","","","","Rain,Fog"
"-63.51","44.88","HALIFAX STANFIELD INT'L A","8202251","2019-02-05 13:00","2019","02","05","13:00","4.5","","4.5","","100","","","","17","","18","","0.2","","99.44","","","","","","Rain,Fog"
"-63.51","44.88","HALIFAX STANFIELD INT'L A","8202251","2019-02-05 14:00","2019","02","05","14:00","6.4","","6.4","","100","","","","20","","22","","0.8","","99.36","","","","","","Rain,Fog"
"-63.51","44.88","HALIFAX STANFIELD INT'L A","8202251","2019-02-05 15:00","2019","02","05","15:00","8.1","","8.1","","100","","","","21","","29","","0.4","","99.28","","","","","","Drizzle,Fog"
"-63.51","44.88","HALIFAX STANFIELD INT'L A","8202251","2019-02-05 16:00","2019","02","05","16:00","8.7","","8.7","","100","","","","21","","22","","0.6","","99.25","","","","","","Rain,Fog"
"-63.51","44.88","HALIFAX STANFIELD INT'L A","8202251","2019-02-05 17:00","2019","02","05","17:00","8.3","","8.3","","100","","","","21","","25","","0.6","","99.23","","","","","","Rain,Fog"
"-63.51","44.88","HALIFAX STANFIELD INT'L A","8202251","2019-02-05 18:00","2019","02","05","18:00","7.7","","7.7","","100","","","","20","","23","","0.8","","99.19","","","","","","Rain,Fog"
"-63.51","44.88","HALIFAX STANFIELD INT'L A","8202251","2019-02-05 19:00","2019","02","05","19:00","7.3","","7.3","","100","","","","20","","19","","0.6","","99.19","","","","","","Fog"
"-63.51","44.88","HALIFAX STANFIELD INT'L A","8202251","2019-02-05 20:00","2019","02","05","20:00","7.6","","7.6","","100","","","","20","","21","","0.6","","99.17","","","","","","Fog"
"-63.51","44.88","HALIFAX STANFIELD INT'L A","8202251","2019-02-05 21:00","2019","02","05","21:00","7.7","","7.7","","100","","","","21","","23","","0.6","","99.13","","","","","","Fog"
"-63.51","44.88","HALIFAX STANFIELD INT'L A","8202251","2019-02-05 22:00","2019","02","05","22:00","5.9","","5.9","","100","","","","22","","16","","0.6","","99.13","","","","","","Fog"
"-63.51","44.88","HALIFAX STANFIELD INT'L A","8202251","2019-02-05 23:00","2019","02","05","23:00","5.1","","5.1","","100","","","","24","","16","","24.1","","99.10","","","","","","Mainly Clear"
"-63.51","44.88","HALIFAX STANFIELD INT'L A","8202251","2019-02-06 00:00","2019","02","06","00:00","5.0","","5.0","","100","","","","31","","21","","24.1","","99.26","","","","","","NA"
"-63.51","44.88","HALIFAX STANFIELD INT'L A","8202251","2019-02-06 01:00","2019","02","06","01:00","3.7","","3.7","","100","","","","31","","21","","24.1","","99.30","","","","","","NA"
"-63.51","44.88","HALIFAX STANFIELD INT'L A","8202251","2019-02-06 02:00","2019","02","06","02:00","3.1","","3.1","","100","","","","32","","23","","24.1","","99.35","","","","","","Mainly Clear"
"-63.51","44.88","HALIFAX STANFIELD INT'L A","8202251","2019-02-06 03:00","2019","02","06","03:00","2.8","","2.8","","100","","","","33","","29","","24.1","","99.41","","","","","","NA"
"-63.51","44.88","HALIFAX STANFIELD INT'L A","8202251","2019-02-06 04:00","2019","02","06","04:00","0.0","","0.0","","100","","","","36","","25","","24.1","","99.51","","","","-6","","NA"
"-63.51","44.88","HALIFAX STANFIELD INT'L A","8202251","2019-02-06 05:00","2019","02","06","05:00","-0.8","","-1.1","","98","","","","35","","26","","24.1","","99.62","","","","-7","","Cloudy"
"-63.51","44.88","HALIFAX STANFIELD INT'L A","8202251","2019-02-06 06:00","2019","02","06","06:00","-1.6","","-2.3","","95","","","","36","","32","","24.1","","99.72","","","","-9","","NA"
"-63.51","44.88","HALIFAX STANFIELD INT'L A","8202251","2019-02-06 07:00","2019","02","06","07:00","-2.6","","-3.6","","93","","","","35","","29","","24.1","","99.91","","","","-10","","NA"
"-63.51","44.88","HALIFAX STANFIELD INT'L A","8202251","2019-02-06 08:00","2019","02","06","08:00","-3.0","","-4.0","","93","","","","35","","26","","24.1","","100.02","","","","-10","","Cloudy"
"-63.51","44.88","HALIFAX STANFIELD INT'L A","8202251","2019-02-06 09:00","2019","02","06","09:00","-2.8","","-5.2","","84","","","","36","","33","","24.1","","100.11","","","","-10","","NA"
"-63.51","44.88","HALIFAX STANFIELD INT'L A","8202251","2019-02-06 10:00","2019","02","06","10:00","-2.8","","-5.6","","81","","","","36","","33","","24.1","","100.16","","","","-10","","NA"
"-63.51","44.88","HALIFAX STANFIELD INT'L A","8202251","2019-02-06 11:00","2019","02","06","11:00","-2.9","","-5.4","","83","","","","36","","35","","24.1","","100.26","","","","-11","","Cloudy"
"-63.51","44.88","HALIFAX STANFIELD INT'L A","8202251","2019-02-06 12:00","2019","02","06","12:00","-3.3","","-5.6","","84","","","","35","","29","","24.1","","100.31","","","","-11","","NA"
"-63.51","44.88","HALIFAX STANFIELD INT'L A","8202251","2019-02-06 13:00","2019","02","06","13:00","-3.2","","-6.3","","79","","","","35","","23","","24.1","","100.32","","","","-10","","NA"
"-63.51","44.88","HALIFAX STANFIELD INT'L A","8202251","2019-02-06 14:00","2019","02","06","14:00","-3.1","","-7.0","","75","","","","34","","27","","24.1","","100.41","","","","-10","","Mostly Cloudy"
"-63.51","44.88","HALIFAX STANFIELD INT'L A","8202251","2019-02-06 15:00","2019","02","06","15:00","-3.9","","-6.9","","80","","","","35","","27","","24.1","","100.40","","","","-11","","NA"
"-63.51","44.88","HALIFAX STANFIELD INT'L A","8202251","2019-02-06 16:00","2019","02","06","16:00","-4.2","","-6.7","","83","","","","36","","23","","24.1","","100.48","","","","-11","","NA"
"-63.51","44.88","HALIFAX STANFIELD INT'L A","8202251","2019-02-06 17:00","2019","02","06","17:00","-4.5","","-7.3","","81","","","","36","","22","","24.1","","100.57","","","","-11","","Cloudy"
"-63.51","44.88","HALIFAX STANFIELD INT'L A","8202251","2019-02-06 18:00","2019","02","06","18:00","-4.5","","-6.8","","84","","","","1","","19","","24.1","","100.55","","","","-11","","NA"
"-63.51","44.88","HALIFAX STANFIELD INT'L A","8202251","2019-02-06 19:00","2019","02","06","19:00","-4.9","","-7.2","","84","","","","35","","21","","24.1","","100.63","","","","-12","","NA"
"-63.51","44.88","HALIFAX STANFIELD INT'L A","8202251","2019-02-06 20:00","2019","02","06","20:00","-5.5","","-7.6","","85","","","","36","","18","","24.1","","100.72","","","","-12","","Cloudy"
"-63.51","44.88","HALIFAX STANFIELD INT'L A","8202251","2019-02-06 21:00","2019","02","06","21:00","-6.1","","-8.1","","86","","","","2","","17","","24.1","","100.67","","","","-12","","NA"
"-63.51","44.88","HALIFAX STANFIELD INT'L A","8202251","2019-02-06 22:00","2019","02","06","22:00","-6.9","","-8.9","","86","","","","3","","16","","24.1","","100.71","","","","-13","","NA"
"-63.51","44.88","HALIFAX STANFIELD INT'L A","8202251","2019-02-06 23:00","2019","02","06","23:00","-6.7","","-8.6","","86","","","","4","","12","","24.1","","100.73","","","","-12","","Cloudy"
"-63.51","44.88","HALIFAX STANFIELD INT'L A","8202251","2019-02-07 00:00","2019","02","07","00:00","-6.9","","-8.7","","87","","","","1","","8","","24.1","","100.74","","","","-11","","NA"
"-63.51","44.88","HALIFAX STANFIELD INT'L A","8202251","2019-02-07 01:00","2019","02","07","01:00","-7.0","","-8.6","","89","","","","3","","9","","24.1","","100.72","","","","-11","","NA"
"-63.51","44.88","HALIFAX STANFIELD INT'L A","8202251","2019-02-07 02:00","2019","02","07","02:00","-7.1","","-8.6","","89","","","","9","","5","","24.1","","100.72","","","","-10","","Cloudy"
"-63.51","44.88","HALIFAX STANFIELD INT'L A","8202251","2019-02-07 03:00","2019","02","07","03:00","-6.9","","-8.6","","88","","","","36","","1","","24.1","","100.76","","","","-7","","NA"
"-63.51","44.88","HALIFAX STANFIELD INT'L A","8202251","2019-02-07 04:00","2019","02","07","04:00","-6.8","","-8.3","","89","","","","8","","5","","24.1","","100.71","","","","-9","","NA"
"-63.51","44.88","HALIFAX STANFIELD INT'L A","8202251","2019-02-07 05:00","2019","02","07","05:00","-6.6","","-8.0","","90","","","","9","","4","","24.1","","100.72","","","","-9","","Cloudy"
"-63.51","44.88","HALIFAX STANFIELD INT'L A","8202251","2019-02-07 06:00","2019","02","07","06:00","-6.4","","-7.9","","89","","","","6","","7","","4.8","","100.69","","","","-10","","Snow"
"-63.51","44.88","HALIFAX STANFIELD INT'L A","8202251","2019-02-07 07:00","2019","02","07","07:00","-6.4","","-7.3","","93","","","","16","","4","","4.8","","100.77","","","","-8","","Snow"
"-63.51","44.88","HALIFAX STANFIELD INT'L A","8202251","2019-02-07 08:00","2019","02","07","08:00","-6.2","","-7.2","","93","","","","36","","3","","24.1","","100.81","","","","-8","","Cloudy"
"-63.51","44.88","HALIFAX STANFIELD INT'L A","8202251","2019-02-07 09:00","2019","02","07","09:00","-5.9","","-7.1","","91","","","","36","","3","","24.1","","100.81","","","","-7","","Snow"
"-63.51","44.88","HALIFAX STANFIELD INT'L A","8202251","2019-02-07 10:00","2019","02","07","10:00","-5.1","","-6.5","","90","","","","9","","4","","24.1","","100.86","","","","-7","","NA"
"-63.51","44.88","HALIFAX STANFIELD INT'L A","8202251","2019-02-07 11:00","2019","02","07","11:00","-4.3","","-6.2","","87","","","","36","","2","","24.1","","100.85","","","","-5","","Cloudy"
"-63.51","44.88","HALIFAX STANFIELD INT'L A","8202251","2019-02-07 12:00","2019","02","07","12:00","-3.5","","-5.7","","85","","","","11","","8","","24.1","","100.77","","","","-7","","NA"
"-63.51","44.88","HALIFAX STANFIELD INT'L A","8202251","2019-02-07 13:00","2019","02","07","13:00","-2.6","","-5.4","","81","","","","36","","2","","24.1","","100.71","","","","-3","","NA"
"-63.51","44.88","HALIFAX STANFIELD INT'L A","8202251","2019-02-07 14:00","2019","02","07","14:00","-2.0","","-5.2","","79","","","","29","","3","","24.1","","100.74","","","","-3","","Cloudy"
"-63.51","44.88","HALIFAX STANFIELD INT'L A","8202251","2019-02-07 15:00","2019","02","07","15:00","-1.6","","-4.5","","81","","","","33","","8","","24.1","","100.77","","","","-5","","NA"
"-63.51","44.88","HALIFAX STANFIELD INT'L A","8202251","2019-02-07 16:00","2019","02","07","16:00","-1.8","","-4.8","","80","","","","35","","4","","24.1","","100.78","","","","-3","","NA"
"-63.51","44.88","HALIFAX STANFIELD INT'L A","8202251","2019-02-07 17:00","2019","02","07","17:00","-1.6","","-4.9","","78","","","","36","","2","","24.1","","100.82","","","","-2","","Mostly Cloudy"
"-63.51","44.88","HALIFAX STANFIELD INT'L A","8202251","2019-02-07 18:00","2019","02","07","18:00","-1.6","","-4.5","","81","","","","36","","5","","24.1","","100.85","","","","-3","","NA"
"-63.51","44.88","HALIFAX STANFIELD INT'L A","8202251","2019-02-07 19:00","2019","02","07","19:00","-1.8","","-4.7","","81","","","","3","","5","","24.1","","100.77","","","","-4","","NA"
"-63.51","44.88","HALIFAX STANFIELD INT'L A","8202251","2019-02-07 20:00","2019","02","07","20:00","-1.9","","-4.6","","82","","","","8","","5","","24.1","","100.74","","","","-4","","Cloudy"
"-63.51","44.88","HALIFAX STANFIELD INT'L A","8202251","2019-02-07 21:00","2019","02","07","21:00","-1.8","","-4.5","","82","","","","8","","5","","24.1","","100.86","","","","-4","","NA"
"-63.51","44.88","HALIFAX STANFIELD INT'L A","8202251","2019-02-07 22:00","2019","02","07","22:00","-1.9","","-4.4","","83","","","","12","","7","","24.1","","100.87","","","","-5","","NA"
"-63.51","44.88","HALIFAX STANFIELD INT'L A","8202251","2019-02-07 23:00","2019","02","07","23:00","-2.2","","-4.4","","85","","","","10","","17","","24.1","","100.71","","","","-8","","Cloudy"
"-63.51","44.88","HALIFAX STANFIELD INT'L A","8202251","2019-02-08 00:00","2019","02","08","00:00","-2.4","","-4.3","","87","","","","12","","13","","24.1","","100.68","","","","-7","","NA"
"-63.51","44.88","HALIFAX STANFIELD INT'L A","8202251","2019-02-08 01:00","2019","02","08","01:00","-2.6","","-3.9","","91","","","","12","","15","","24.1","","100.70","","","","-8","","NA"
"-63.51","44.88","HALIFAX STANFIELD INT'L A","8202251","2019-02-08 02:00","2019","02","08","02:00","-2.9","","-3.2","","98","","","","13","","18","","4.8","","100.61","","","","-9","","Freezing Drizzle,Fog"
"-63.51","44.88","HALIFAX STANFIELD INT'L A","8202251","2019-02-08 03:00","2019","02","08","03:00","-2.9","","-2.9","","100","","","","13","","21","","4.8","","100.49","","","","-9","","Freezing Drizzle,Fog"
"-63.51","44.88","HALIFAX STANFIELD INT'L A","8202251","2019-02-08 04:00","2019","02","08","04:00","-2.6","","-2.6","","100","","","","13","","23","","3.2","","100.34","","","","-9","","Freezing Drizzle,Fog"
"-63.51","44.88","HALIFAX STANFIELD INT'L A","8202251","2019-02-08 05:00","2019","02","08","05:00","-2.5","","-2.5","","100","","","","12","","31","","3.2","","100.21","","","","-10","","Freezing Rain,Fog"
"-63.51","44.88","HALIFAX STANFIELD INT'L A","8202251","2019-02-08 06:00","2019","02","08","06:00","-2.2","","-2.2","","100","","","","13","","28","","2.4","","100.13","","","","-9","","Freezing Drizzle,Fog"
"-63.51","44.88","HALIFAX STANFIELD INT'L A","8202251","2019-02-08 07:00","2019","02","08","07:00","-1.3","","-1.3","","100","","","","13","","27","","2.4","","99.97","","","","-8","","Freezing Rain,Fog"
"-63.51","44.88","HALIFAX STANFIELD INT'L A","8202251","2019-02-08 08:00","2019","02","08","08:00","-0.3","","-0.3","","100","","","","13","","32","","3.2","","99.81","","","","-7","","Freezing Drizzle,Fog"
"-63.51","44.88","HALIFAX STANFIELD INT'L A","8202251","2019-02-08 09:00","2019","02","08","09:00","0.2","","0.2","","100","","","","13","","32","","2.4","","99.63","","","","","","Drizzle,Fog"
"-63.51","44.88","HALIFAX STANFIELD INT'L A","8202251","2019-02-08 10:00","2019","02","08","10:00","0.5","","0.5","","100","","","","13","","34","","2.0","","99.48","","","","","","Rain,Fog"
"-63.51","44.88","HALIFAX STANFIELD INT'L A","8202251","2019-02-08 11:00","2019","02","08","11:00","1.1","","1.1","","100","","","","14","","28","","1.2","","99.31","","","","","","Rain,Fog"
"-63.51","44.88","HALIFAX STANFIELD INT'L A","8202251","2019-02-08 12:00","2019","02","08","12:00","3.2","","3.2","","100","","","","15","","28","","0.8","","99.04","","","","","","Rain,Fog"
"-63.51","44.88","HALIFAX STANFIELD INT'L A","8202251","2019-02-08 13:00","2019","02","08","13:00","5.7","","5.7","","100","","","","17","","24","","2.4","","98.83","","","","","","Rain,Fog"
"-63.51","44.88","HALIFAX STANFIELD INT'L A","8202251","2019-02-08 14:00","2019","02","08","14:00","5.8","","5.8","","100","","","","21","","27","","2.8","","98.71","","","","","","Drizzle,Fog"
"-63.51","44.88","HALIFAX STANFIELD INT'L A","8202251","2019-02-08 15:00","2019","02","08","15:00","5.1","","5.1","","100","","","","21","","21","","0.4","","98.65","","","","","","Fog"
"-63.51","44.88","HALIFAX STANFIELD INT'L A","8202251","2019-02-08 16:00","2019","02","08","16:00","4.3","","4.3","","100","","","","19","","21","","0.4","","98.58","","","","","","Fog"
"-63.51","44.88","HALIFAX STANFIELD INT'L A","8202251","2019-02-08 17:00","2019","02","08","17:00","4.3","","4.3","","100","","","","20","","28","","0.4","","98.47","","","","","","Rain Showers,Fog"
"-63.51","44.88","HALIFAX STANFIELD INT'L A","8202251","2019-02-08 18:00","2019","02","08","18:00","4.9","","4.9","","100","","","","21","","27","","12.9","","98.41","","","","","","NA"
"-63.51","44.88","HALIFAX STANFIELD INT'L A","8202251","2019-02-08 19:00","2019","02","08","19:00","4.1","","4.1","","100","","","","21","","23","","1.6","","98.45","","","","","","Fog"
"-63.51","44.88","HALIFAX STANFIELD INT'L A","8202251","2019-02-08 20:00","2019","02","08","20:00","3.9","","3.9","","100","","","","22","","24","","0.8","","98.43","","","","","","Fog"
"-63.51","44.88","HALIFAX STANFIELD INT'L A","8202251","2019-02-08 21:00","2019","02","08","21:00","4.0","","4.0","","100","","","","21","","18","","0.4","","98.40","","","","","","Fog"
"-63.51","44.88","HALIFAX STANFIELD INT'L A","8202251","2019-02-08 22:00","2019","02","08","22:00","4.2","","4.2","","100","","","","25","","22","","16.1","","98.42","","","","","","NA"
"-63.51","44.88","HALIFAX STANFIELD INT'L A","8202251","2019-02-08 23:00","2019","02","08","23:00","4.0","","4.0","","100","","","","25","","16","","24.1","","98.35","","","","","","Cloudy"
"-63.51","44.88","HALIFAX STANFIELD INT'L A","8202251","2019-02-09 00:00","2019","02","09","00:00","3.4","","3.1","","98","","","","27","","21","","24.1","","98.35","","","","","","NA"
"-63.51","44.88","HALIFAX STANFIELD INT'L A","8202251","2019-02-09 01:00","2019","02","09","01:00","1.9","","-1.4","","79","","","","27","","30","","24.1","","98.44","","","","","","NA"
"-63.51","44.88","HALIFAX STANFIELD INT'L A","8202251","2019-02-09 02:00","2019","02","09","02:00","0.5","","-2.0","","83","","","","28","","21","","24.1","","98.50","","","","","","Cloudy"
"-63.51","44.88","HALIFAX STANFIELD INT'L A","8202251","2019-02-09 03:00","2019","02","09","03:00","-0.4","","-3.6","","79","","","","27","","31","","24.1","","98.57","","","","-7","","NA"
"-63.51","44.88","HALIFAX STANFIELD INT'L A","8202251","2019-02-09 04:00","2019","02","09","04:00","-1.9","","-8.8","","59","","","","29","","34","","24.1","","98.63","","","","-9","","NA"
"-63.51","44.88","HALIFAX STANFIELD INT'L A","8202251","2019-02-09 05:00","2019","02","09","05:00","-2.0","","-7.8","","65","","","","27","","24","","24.1","","98.66","","","","-8","","Mostly Cloudy"
"-63.51","44.88","HALIFAX STANFIELD INT'L A","8202251","2019-02-09 06:00","2019","02","09","06:00","-2.9","","-7.8","","69","","","","28","","33","","24.1","","98.76","","","","-11","","Snow Showers"
"-63.51","44.88","HALIFAX STANFIELD INT'L A","8202251","2019-02-09 07:00","2019","02","09","07:00","-4.1","","-11.1","","59","","","","29","","45","","24.1","","98.86","","","","-13","","NA"
"-63.51","44.88","HALIFAX STANFIELD INT'L A","8202251","2019-02-09 08:00","2019","02","09","08:00","-5.1","","-12.6","","56","","","","29","","40","","24.1","","98.98","","","","-14","","Mostly Cloudy"
"-63.51","44.88","HALIFAX STANFIELD INT'L A","8202251","2019-02-09 09:00","2019","02","09","09:00","-5.2","","-14.3","","49","","","","29","","46","","24.1","","99.03","","","","-15","","NA"
"-63.51","44.88","HALIFAX STANFIELD INT'L A","8202251","2019-02-09 10:00","2019","02","09","10:00","-5.2","","-15.1","","46","","","","28","","31","","24.1","","99.12","","","","-13","","NA"
"-63.51","44.88","HALIFAX STANFIELD INT'L A","8202251","2019-02-09 11:00","2019","02","09","11:00","-5.9","","-14.1","","53","","","","29","","33","","24.1","","99.14","","","","-15","","Mostly Cloudy"
"-63.51","44.88","HALIFAX STANFIELD INT'L A","8202251","2019-02-09 12:00","2019","02","09","12:00","-7.1","","-15.9","","50","","","","28","","45","","24.1","","99.19","","","","-17","","NA"
"-63.51","44.88","HALIFAX STANFIELD INT'L A","8202251","2019-02-09 13:00","2019","02","09","13:00","-7.7","","-15.1","","56","","","","28","","45","","19.3","","99.17","","","","-18","","NA"
"-63.51","44.88","HALIFAX STANFIELD INT'L A","8202251","2019-02-09 14:00","2019","02","09","14:00","-7.4","","-14.6","","57","","","","29","","40","","12.9","","99.19","","","","-17","","Snow Showers"
"-63.51","44.88","HALIFAX STANFIELD INT'L A","8202251","2019-02-09 15:00","2019","02","09","15:00","-8.6","","-16.4","","54","","","","30","","36","","24.1","","99.27","","","","-18","","Snow Showers"
"-63.51","44.88","HALIFAX STANFIELD INT'L A","8202251","2019-02-09 16:00","2019","02","09","16:00","-9.1","","-18.0","","49","","","","31","","44","","24.1","","99.34","","","","-20","","NA"
"-63.51","44.88","HALIFAX STANFIELD INT'L A","8202251","2019-02-09 17:00","2019","02","09","17:00","-9.7","","-17.6","","53","","","","29","","48","","24.1","","99.46","","","","-21","","Mostly Cloudy"
"-63.51","44.88","HALIFAX STANFIELD INT'L A","8202251","2019-02-09 18:00","2019","02","09","18:00","-10.3","","-17.9","","54","","","","30","","40","","24.1","","99.60","","","","-21","","NA"
"-63.51","44.88","HALIFAX STANFIELD INT'L A","8202251","2019-02-09 19:00","2019","02","09","19:00","-10.4","","-19.0","","50","","","","31","","42","","24.1","","99.73","","","","-22","","NA"
"-63.51","44.88","HALIFAX STANFIELD INT'L A","8202251","2019-02-09 20:00","2019","02","09","20:00","-9.7","","-17.3","","54","","","","30","","37","","24.1","","99.79","","","","-20","","Clear"
"-63.51","44.88","HALIFAX STANFIELD INT'L A","8202251","2019-02-09 21:00","2019","02","09","21:00","-8.9","","-17.9","","49","","","","30","","45","","24.1","","99.83","","","","-20","","NA"
"-63.51","44.88","HALIFAX STANFIELD INT'L A","8202251","2019-02-09 22:00","2019","02","09","22:00","-8.7","","-17.7","","49","","","","30","","49","","24.1","","99.88","","","","-20","","NA"
"-63.51","44.88","HALIFAX STANFIELD INT'L A","8202251","2019-02-09 23:00","2019","02","09","23:00","-8.5","","-17.8","","48","","","","30","","41","","24.1","","99.97","","","","-19","","Clear"
"-63.51","44.88","HALIFAX STANFIELD INT'L A","8202251","2019-02-10 00:00","2019","02","10","00:00","-8.7","","-17.6","","49","","","","30","","43","","24.1","","100.01","","","","-19","","NA"
"-63.51","44.88","HALIFAX STANFIELD INT'L A","8202251","2019-02-10 01:00","2019","02","10","01:00","-8.7","","-16.9","","52","","","","29","","48","","24.1","","100.06","","","","-20","","NA"
"-63.51","44.88","HALIFAX STANFIELD INT'L A","8202251","2019-02-10 02:00","2019","02","10","02:00","-9.0","","-16.6","","55","","","","29","","39","","24.1","","100.16","","","","-19","","Clear"
"-63.51","44.88","HALIFAX STANFIELD INT'L A","8202251","2019-02-10 03:00","2019","02","10","03:00","-8.9","","-16.9","","53","","","","29","","33","","24.1","","100.20","","","","-18","","NA"
"-63.51","44.88","HALIFAX STANFIELD INT'L A","8202251","2019-02-10 04:00","2019","02","10","04:00","-9.1","","-17.2","","52","","","","29","","36","","24.1","","100.20","","","","-19","","NA"
"-63.51","44.88","HALIFAX STANFIELD INT'L A","8202251","2019-02-10 05:00","2019","02","10","05:00","-9.2","","-17.2","","53","","","","28","","30","","24.1","","100.23","","","","-18","","Clear"
"-63.51","44.88","HALIFAX STANFIELD INT'L A","8202251","2019-02-10 06:00","2019","02","10","06:00","-9.3","","-16.6","","56","","","","28","","24","","24.1","","100.25","","","","-18","","NA"
"-63.51","44.88","HALIFAX STANFIELD INT'L A","8202251","2019-02-10 07:00","2019","02","10","07:00","-9.3","","-17.0","","54","","","","29","","35","","24.1","","100.23","","","","-19","","NA"
"-63.51","44.88","HALIFAX STANFIELD INT'L A","8202251","2019-02-10 08:00","2019","02","10","08:00","-9.2","","-17.1","","53","","","","29","","35","","24.1","","100.25","","","","-19","","Mainly Clear"
"-63.51","44.88","HALIFAX STANFIELD INT'L A","8202251","2019-02-10 09:00","2019","02","10","09:00","-8.8","","-17.2","","51","","","","29","","40","","24.1","","100.28","","","","-19","","NA"
"-63.51","44.88","HALIFAX STANFIELD INT'L A","8202251","2019-02-10 10:00","2019","02","10","10:00","-8.3","","-17.8","","47","","","","29","","54","","24.1","","100.26","","","","-20","","NA"
"-63.51","44.88","HALIFAX STANFIELD INT'L A","8202251","2019-02-10 11:00","2019","02","10","11:00","-7.7","","-17.0","","48","","","","28","","40","","24.1","","100.26","","","","-18","","Clear"
"-63.51","44.88","HALIFAX STANFIELD INT'L A","8202251","2019-02-10 12:00","2019","02","10","12:00","-7.3","","-17.2","","46","","","","29","","39","","24.1","","100.25","","","","-17","","NA"
"-63.51","44.88","HALIFAX STANFIELD INT'L A","8202251","2019-02-10 13:00","2019","02","10","13:00","-6.1","","-16.9","","43","","","","29","","37","","24.1","","100.21","","","","-15","","NA"
"-63.51","44.88","HALIFAX STANFIELD INT'L A","8202251","2019-02-10 14:00","2019","02","10","14:00","-5.7","","-17.4","","40","","","","29","","36","","24.1","","100.16","","","","-15","","Mainly Clear"
"-63.51","44.88","HALIFAX STANFIELD INT'L A","8202251","2019-02-10 15:00","2019","02","10","15:00","-5.3","","-17.6","","38","","","","30","","37","","24.1","","100.14","","","","-14","","NA"
"-63.51","44.88","HALIFAX STANFIELD INT'L A","8202251","2019-02-10 16:00","2019","02","10","16:00","-5.8","","-17.1","","41","","","","29","","43","","24.1","","100.10","","","","-15","","NA"
"-63.51","44.88","HALIFAX STANFIELD INT'L A","8202251","2019-02-10 17:00","2019","02","10","17:00","-6.2","","-17.4","","41","","","","27","","31","","24.1","","100.06","","","","-15","","Clear"
"-63.51","44.88","HALIFAX STANFIELD INT'L A","8202251","2019-02-10 18:00","2019","02","10","18:00","-6.9","","-18.4","","40","","","","28","","27","","24.1","","100.07","","","","-15","","NA"
"-63.51","44.88","HALIFAX STANFIELD INT'L A","8202251","2019-02-10 19:00","2019","02","10","19:00","-7.5","","-18.5","","42","","","","28","","17","","24.1","","100.10","","","","-14","","NA"
"-63.51","44.88","HALIFAX STANFIELD INT'L A","8202251","2019-02-10 20:00","2019","02","10","20:00","-8.1","","-18.2","","45","","","","27","","18","","24.1","","100.10","","","","-15","","Clear"
"-63.51","44.88","HALIFAX STANFIELD INT'L A","8202251","2019-02-10 21:00","2019","02","10","21:00","-7.7","","-18.7","","42","","","","30","","25","","24.1","","100.08","","","","-16","","NA"
"-63.51","44.88","HALIFAX STANFIELD INT'L A","8202251","2019-02-10 22:00","2019","02","10","22:00","-7.6","","-19.0","","40","","","","30","","28","","24.1","","100.09","","","","-16","","NA"
"-63.51","44.88","HALIFAX STANFIELD INT'L A","8202251","2019-02-10 23:00","2019","02","10","23:00","-8.0","","-18.8","","42","","","","30","","37","","24.1","","100.08","","","","-18","","Clear"
"-63.51","44.88","HALIFAX STANFIELD INT'L A","8202251","2019-02-11 00:00","2019","02","11","00:00","-8.6","","-17.8","","48","","","","29","","36","","24.1","","100.04","","","","-18","","NA"
"-63.51","44.88","HALIFAX STANFIELD INT'L A","8202251","2019-02-11 01:00","2019","02","11","01:00","-9.5","","-17.9","","51","","","","30","","30","","24.1","","100.03","","","","-19","","NA"
"-63.51","44.88","HALIFAX STANFIELD INT'L A","8202251","2019-02-11 02:00","2019","02","11","02:00","-10.0","","-18.6","","50","","","","30","","35","","24.1","","100.01","","","","-20","","Mainly Clear"
"-63.51","44.88","HALIFAX STANFIELD INT'L A","8202251","2019-02-11 03:00","2019","02","11","03:00","-10.2","","-18.5","","51","","","","31","","34","","24.1","","99.93","","","","-20","","NA"
"-63.51","44.88","HALIFAX STANFIELD INT'L A","8202251","2019-02-11 04:00","2019","02","11","04:00","-10.1","","-17.9","","53","","","","31","","37","","24.1","","99.87","","","","-21","","NA"
"-63.51","44.88","HALIFAX STANFIELD INT'L A","8202251","2019-02-11 05:00","2019","02","11","05:00","-10.6","","-18.4","","53","","","","30","","40","","24.1","","99.84","","","","-22","","Mostly Cloudy"
"-63.51","44.88","HALIFAX STANFIELD INT'L A","8202251","2019-02-11 06:00","2019","02","11","06:00","-11.0","","-18.6","","54","","","","30","","30","","24.1","","99.83","","","","-21","","NA"
"-63.51","44.88","HALIFAX STANFIELD INT'L A","8202251","2019-02-11 07:00","2019","02","11","07:00","-11.2","","-17.3","","61","","","","29","","44","","24.1","","99.82","","","","-23","","NA"
"-63.51","44.88","HALIFAX STANFIELD INT'L A","8202251","2019-02-11 08:00","2019","02","11","08:00","-11.2","","-17.5","","60","","","","30","","35","","24.1","","99.85","","","","-22","","Clear"
"-63.51","44.88","HALIFAX STANFIELD INT'L A","8202251","2019-02-11 09:00","2019","02","11","09:00","-10.5","","-17.8","","55","","","","31","","45","","24.1","","99.84","","","","-22","","NA"
"-63.51","44.88","HALIFAX STANFIELD INT'L A","8202251","2019-02-11 10:00","2019","02","11","10:00","-9.6","","-17.7","","52","","","","31","","37","","24.1","","99.76","","","","-20","","NA"
"-63.51","44.88","HALIFAX STANFIELD INT'L A","8202251","2019-02-11 11:00","2019","02","11","11:00","-8.5","","-17.7","","48","","","","30","","30","","24.1","","99.76","","","","-18","","Clear"
"-63.51","44.88","HALIFAX STANFIELD INT'L A","8202251","2019-02-11 12:00","2019","02","11","12:00","-7.9","","-17.7","","46","","","","29","","43","","24.1","","99.71","","","","-18","","NA"
"-63.51","44.88","HALIFAX STANFIELD INT'L A","8202251","2019-02-11 13:00","2019","02","11","13:00","-7.4","","-18.8","","40","","","","29","","37","","24.1","","99.63","","","","-17","","NA"
"-63.51","44.88","HALIFAX STANFIELD INT'L A","8202251","2019-02-11 14:00","2019","02","11","14:00","-7.4","","-19.2","","39","","","","31","","46","","24.1","","99.60","","","","-18","","Clear"
"-63.51","44.88","HALIFAX STANFIELD INT'L A","8202251","2019-02-11 15:00","2019","02","11","15:00","-7.4","","-18.7","","41","","","","31","","52","","24.1","","99.53","","","","-18","","NA"
"-63.51","44.88","HALIFAX STANFIELD INT'L A","8202251","2019-02-11 16:00","2019","02","11","16:00","-7.6","","-19.3","","39","","","","31","","36","","24.1","","99.62","","","","-17","","NA"
"-63.51","44.88","HALIFAX STANFIELD INT'L A","8202251","2019-02-11 17:00","2019","02","11","17:00","-8.2","","-18.7","","43","","","","31","","37","","24.1","","99.68","","","","-18","","Clear"
"-63.51","44.88","HALIFAX STANFIELD INT'L A","8202251","2019-02-11 18:00","2019","02","11","18:00","-8.9","","-19.0","","44","","","","31","","45","","24.1","","99.75","","","","-20","","NA"
"-63.51","44.88","HALIFAX STANFIELD INT'L A","8202251","2019-02-11 19:00","2019","02","11","19:00","-9.4","","-18.0","","50","","","","31","","35","","24.1","","99.85","","","","-19","","NA"
"-63.51","44.88","HALIFAX STANFIELD INT'L A","8202251","2019-02-11 20:00","2019","02","11","20:00","-9.8","","-18.5","","50","","","","31","","29","","24.1","","99.95","","","","-19","","Clear"
"-63.51","44.88","HALIFAX STANFIELD INT'L A","8202251","2019-02-11 21:00","2019","02","11","21:00","-10.2","","-19.0","","49","","","","32","","29","","24.1","","100.05","","","","-20","","NA"
"-63.51","44.88","HALIFAX STANFIELD INT'L A","8202251","2019-02-11 22:00","2019","02","11","22:00","-10.7","","-18.7","","52","","","","33","","31","","24.1","","100.12","","","","-21","","NA"
"-63.51","44.88","HALIFAX STANFIELD INT'L A","8202251","2019-02-11 23:00","2019","02","11","23:00","-11.4","","-18.3","","57","","","","32","","35","","24.1","","100.23","","","","-22","","Clear"
"-63.51","44.88","HALIFAX STANFIELD INT'L A","8202251","2019-02-12 00:00","2019","02","12","00:00","-12.3","","-18.4","","61","","","","33","","25","","24.1","","100.31","","","","-22","","NA"
"-63.51","44.88","HALIFAX STANFIELD INT'L A","8202251","2019-02-12 01:00","2019","02","12","01:00","-12.9","","-18.4","","64","","","","33","","33","","24.1","","100.35","","","","-24","","NA"
"-63.51","44.88","HALIFAX STANFIELD INT'L A","8202251","2019-02-12 02:00","2019","02","12","02:00","-13.6","","-18.7","","66","","","","33","","35","","24.1","","100.41","","","","-25","","Clear"
"-63.51","44.88","HALIFAX STANFIELD INT'L A","8202251","2019-02-12 03:00","2019","02","12","03:00","-14.0","","-18.7","","68","","","","33","","30","","24.1","","100.49","","","","-25","","NA"
"-63.51","44.88","HALIFAX STANFIELD INT'L A","8202251","2019-02-12 04:00","2019","02","12","04:00","-14.2","","-18.4","","71","","","","32","","26","","24.1","","100.52","","","","-24","","NA"
"-63.51","44.88","HALIFAX STANFIELD INT'L A","8202251","2019-02-12 05:00","2019","02","12","05:00","-14.3","","-18.3","","72","","","","32","","23","","24.1","","100.58","","","","-24","","Clear"
"-63.51","44.88","HALIFAX STANFIELD INT'L A","8202251","2019-02-12 06:00","2019","02","12","06:00","-13.8","","-17.6","","74","","","","32","","23","","24.1","","100.65","","","","-23","","NA"
"-63.51","44.88","HALIFAX STANFIELD INT'L A","8202251","2019-02-12 07:00","2019","02","12","07:00","-13.8","","-17.2","","76","","","","31","","18","","24.1","","100.80","","","","-22","","NA"
"-63.51","44.88","HALIFAX STANFIELD INT'L A","8202251","2019-02-12 08:00","2019","02","12","08:00","-12.5","","-16.6","","72","","","","30","","23","","24.1","","100.91","","","","-22","","Clear"
"-63.51","44.88","HALIFAX STANFIELD INT'L A","8202251","2019-02-12 09:00","2019","02","12","09:00","-10.2","","-15.5","","66","","","","33","","25","","24.1","","100.94","","","","-19","","NA"
"-63.51","44.88","HALIFAX STANFIELD INT'L A","8202251","2019-02-12 10:00","2019","02","12","10:00","-8.0","","-15.3","","56","","","","33","","30","","24.1","","101.00","","","","-17","","NA"
"-63.51","44.88","HALIFAX STANFIELD INT'L A","8202251","2019-02-12 11:00","2019","02","12","11:00","-6.3","","-15.3","","49","","","","32","","27","","24.1","","101.07","","","","-14","","Clear"
"-63.51","44.88","HALIFAX STANFIELD INT'L A","8202251","2019-02-12 12:00","2019","02","12","12:00","-4.5","","-16.1","","40","","","","33","","28","","24.1","","101.08","","","","-12","","NA"
"-63.51","44.88","HALIFAX STANFIELD INT'L A","8202251","2019-02-12 13:00","2019","02","12","13:00","-3.0","","-16.1","","36","","","","33","","22","","24.1","","101.00","","","","-9","","NA"
"-63.51","44.88","HALIFAX STANFIELD INT'L A","8202251","2019-02-12 14:00","2019","02","12","14:00","-1.5","","-16.0","","33","","","","34","","22","","24.1","","100.99","","","","-7","","Mainly Clear"
"-63.51","44.88","HALIFAX STANFIELD INT'L A","8202251","2019-02-12 15:00","2019","02","12","15:00","-1.8","","-16.0","","33","","","","34","","26","","24.1","","100.97","","","","-8","","NA"
"-63.51","44.88","HALIFAX STANFIELD INT'L A","8202251","2019-02-12 16:00","2019","02","12","16:00","-2.1","","-15.8","","35","","","","32","","23","","24.1","","101.02","","","","-8","","NA"
"-63.51","44.88","HALIFAX STANFIELD INT'L A","8202251","2019-02-12 17:00","2019","02","12","17:00","-3.4","","-15.9","","38","","","","33","","13","","24.1","","101.00","","","","-8","","Mostly Cloudy"
"-63.51","44.88","HALIFAX STANFIELD INT'L A","8202251","2019-02-12 18:00","2019","02","12","18:00","-4.5","","-15.1","","44","","","","32","","11","","24.1","","101.04","","","","-9","","NA"
"-63.51","44.88","HALIFAX STANFIELD INT'L A","8202251","2019-02-12 19:00","2019","02","12","19:00","-4.6","","-14.0","","48","","","","31","","12","","24.1","","101.09","","","","-9","","NA"
"-63.51","44.88","HALIFAX STANFIELD INT'L A","8202251","2019-02-12 20:00","2019","02","12","20:00","-5.5","","-13.7","","53","","","","33","","7","","24.1","","101.07","","","","-9","","Cloudy"
"-63.51","44.88","HALIFAX STANFIELD INT'L A","8202251","2019-02-12 21:00","2019","02","12","21:00","-5.8","","-12.6","","59","","","","35","","4","","24.1","","101.06","","","","-8","","NA"
"-63.51","44.88","HALIFAX STANFIELD INT'L A","8202251","2019-02-12 22:00","2019","02","12","22:00","-6.1","","-12.1","","63","","","","1","","7","","24.1","","101.01","","","","-9","","NA"
"-63.51","44.88","HALIFAX STANFIELD INT'L A","8202251","2019-02-12 23:00","2019","02","12","23:00","-6.2","","-13.9","","55","","","","4","","7","","24.1","","100.96","","","","-10","","Cloudy"
"-63.51","44.88","HALIFAX STANFIELD INT'L A","8202251","2019-02-13 00:00","2019","02","13","00:00","-6.4","","-15.0","","51","","","","7","","10","","24.1","","100.89","","","","-11","","NA"
"-63.51","44.88","HALIFAX STANFIELD INT'L A","8202251","2019-02-13 01:00","2019","02","13","01:00","-6.6","","-14.8","","53","","","","11","","12","","24.1","","100.85","","","","-12","","NA"
"-63.51","44.88","HALIFAX STANFIELD INT'L A","8202251","2019-02-13 02:00","2019","02","13","02:00","-6.8","","-15.1","","52","","","","11","","15","","24.1","","100.80","","","","-13","","Cloudy"
"-63.51","44.88","HALIFAX STANFIELD INT'L A","8202251","2019-02-13 03:00","2019","02","13","03:00","-6.9","","-15.0","","53","","","","12","","13","","24.1","","100.81","","","","-12","","NA"
"-63.51","44.88","HALIFAX STANFIELD INT'L A","8202251","2019-02-13 04:00","2019","02","13","04:00","-6.9","","-14.8","","54","","","","11","","14","","24.1","","100.65","","","","-13","","NA"
"-63.51","44.88","HALIFAX STANFIELD INT'L A","8202251","2019-02-13 05:00","2019","02","13","05:00","-7.3","","-13.7","","60","","","","11","","18","","9.7","","100.57","","","","-14","","Snow"
"-63.51","44.88","HALIFAX STANFIELD INT'L A","8202251","2019-02-13 06:00","2019","02","13","06:00","-8.2","","-9.6","","90","","","","10","","24","","1.6","","100.36","","","","-16","","Snow"
"-63.51","44.88","HALIFAX STANFIELD INT'L A","8202251","2019-02-13 07:00","2019","02","13","07:00","-8.3","","-9.4","","92","","","","9","","25","","0.8","","100.23","","","","-17","","Moderate Snow,Blowing Snow"
"-63.51","44.88","HALIFAX STANFIELD INT'L A","8202251","2019-02-13 08:00","2019","02","13","08:00","-8.0","","-9.1","","92","","","","10","","25","","1.0","","100.07","","","","-16","","Snow,Blowing Snow"
"-63.51","44.88","HALIFAX STANFIELD INT'L A","8202251","2019-02-13 09:00","2019","02","13","09:00","-8.2","","-9.3","","92","","","","10","","31","","1.6","","99.87","","","","-17","","Snow,Blowing Snow"
"-63.51","44.88","HALIFAX STANFIELD INT'L A","8202251","2019-02-13 10:00","2019","02","13","10:00","-7.6","","-8.8","","91","","","","9","","33","","2.0","","99.60","","","","-17","","Snow,Blowing Snow"
"-63.51","44.88","HALIFAX STANFIELD INT'L A","8202251","2019-02-13 11:00","2019","02","13","11:00","-6.3","","-7.0","","95","","","","10","","32","","2.0","","99.31","","","","-15","","Snow,Ice Pellets,Blowing Snow"
"-63.51","44.88","HALIFAX STANFIELD INT'L A","8202251","2019-02-13 12:00","2019","02","13","12:00","-4.5","","-4.9","","97","","","","11","","39","","1.0","","98.93","","","","-13","","Snow,Ice Pellets,Blowing Snow"
"-63.51","44.88","HALIFAX STANFIELD INT'L A","8202251","2019-02-13 13:00","2019","02","13","13:00","-3.5","","-3.9","","97","","","","11","","39","","1.0","","98.65","","","","-12","","Freezing Rain,Ice Pellets,Blowing Snow"
"-63.51","44.88","HALIFAX STANFIELD INT'L A","8202251","2019-02-13 14:00","2019","02","13","14:00","-3.0","","-3.3","","98","","","","10","","38","","0.8","","98.46","","","","-11","","Moderate Snow,Ice Pellets,Blowing Snow"
"-63.51","44.88","HALIFAX STANFIELD INT'L A","8202251","2019-02-13 15:00","2019","02","13","15:00","-2.6","","-2.9","","98","","","","9","","34","","1.2","","98.36","","","","-10","","Snow,Ice Pellets,Blowing Snow"
"-63.51","44.88","HALIFAX STANFIELD INT'L A","8202251","2019-02-13 16:00","2019","02","13","16:00","-2.0","","-2.3","","98","","","","10","","43","","2.4","","98.05","","","","-10","","Freezing Drizzle,Snow Grains"
"-63.51","44.88","HALIFAX STANFIELD INT'L A","8202251","2019-02-13 17:00","2019","02","13","17:00","-1.2","","-1.3","","99","","","","11","","29","","2.4","","97.91","","","","-8","","Freezing Drizzle,Snow Grains"
"-63.51","44.88","HALIFAX STANFIELD INT'L A","8202251","2019-02-13 18:00","2019","02","13","18:00","-0.7","","-0.7","","100","","","","12","","40","","3.2","","97.66","","","","-8","","Freezing Drizzle,Fog"
"-63.51","44.88","HALIFAX STANFIELD INT'L A","8202251","2019-02-13 19:00","2019","02","13","19:00","0.0","","0.0","","100","","","","13","","25","","2.4","","97.74","","","","-6","","Drizzle,Fog"
"-63.51","44.88","HALIFAX STANFIELD INT'L A","8202251","2019-02-13 20:00","2019","02","13","20:00","0.3","","0.3","","100","","","","15","","20","","1.0","","97.71","","","","","","Drizzle,Fog"
"-63.51","44.88","HALIFAX STANFIELD INT'L A","8202251","2019-02-13 21:00","2019","02","13","21:00","1.0","","1.0","","100","","","","19","","17","","3.2","","97.72","","","","","","Drizzle,Fog"
"-63.51","44.88","HALIFAX STANFIELD INT'L A","8202251","2019-02-13 22:00","2019","02","13","22:00","1.4","","1.4","","100","","","","23","","28","","19.3","","97.68","","","","","","NA"
"-63.51","44.88","HALIFAX STANFIELD INT'L A","8202251","2019-02-13 23:00","2019","02","13","23:00","1.1","","0.7","","97","","","","24","","30","","19.3","","97.67","","","","","","Cloudy"
"-63.51","44.88","HALIFAX STANFIELD INT'L A","8202251","2019-02-14 00:00","2019","02","14","00:00","0.6","","-0.8","","90","","","","26","","30","","24.1","","97.72","","","","","","NA"
"-63.51","44.88","HALIFAX STANFIELD INT'L A","8202251","2019-02-14 01:00","2019","02","14","01:00","-1.4","","-3.6","","85","","","","27","","34","","24.1","","97.87","","","","-9","","NA"
"-63.51","44.88","HALIFAX STANFIELD INT'L A","8202251","2019-02-14 02:00","2019","02","14","02:00","-3.3","","-6.3","","80","","","","30","","35","","19.3","","97.99","","","","-11","","Cloudy"
"-63.51","44.88","HALIFAX STANFIELD INT'L A","8202251","2019-02-14 03:00","2019","02","14","03:00","-4.8","","-7.4","","82","","","","28","","27","","24.1","","98.05","","","","-12","","NA"
"-63.51","44.88","HALIFAX STANFIELD INT'L A","8202251","2019-02-14 04:00","2019","02","14","04:00","-5.7","","-8.0","","84","","","","28","","23","","24.1","","98.11","","","","-13","","NA"
"-63.51","44.88","HALIFAX STANFIELD INT'L A","8202251","2019-02-14 05:00","2019","02","14","05:00","-5.5","","-8.1","","82","","","","28","","28","","24.1","","98.15","","","","-13","","Mostly Cloudy"
"-63.51","44.88","HALIFAX STANFIELD INT'L A","8202251","2019-02-14 06:00","2019","02","14","06:00","-5.8","","-8.7","","80","","","","27","","26","","24.1","","98.20","","","","-14","","NA"
"-63.51","44.88","HALIFAX STANFIELD INT'L A","8202251","2019-02-14 07:00","2019","02","14","07:00","-5.7","","-8.1","","83","","","","27","","28","","24.1","","98.27","","","","-14","","NA"
"-63.51","44.88","HALIFAX STANFIELD INT'L A","8202251","2019-02-14 08:00","2019","02","14","08:00","-5.8","","-7.9","","85","","","","27","","22","","24.1","","98.38","","","","-13","","Mainly Clear"
"-63.51","44.88","HALIFAX STANFIELD INT'L A","8202251","2019-02-14 09:00","2019","02","14","09:00","-5.4","","-7.7","","84","","","","28","","24","","24.1","","98.44","","","","-13","","NA"
"-63.51","44.88","HALIFAX STANFIELD INT'L A","8202251","2019-02-14 10:00","2019","02","14","10:00","-3.5","","-7.0","","77","","","","28","","31","","24.1","","98.48","","","","-11","","NA"
"-63.51","44.88","HALIFAX STANFIELD INT'L A","8202251","2019-02-14 11:00","2019","02","14","11:00","-2.9","","-7.3","","72","","","","28","","37","","24.1","","98.49","","","","-11","","Mostly Cloudy"
"-63.51","44.88","HALIFAX STANFIELD INT'L A","8202251","2019-02-14 12:00","2019","02","14","12:00","-2.3","","-7.5","","68","","","","28","","35","","24.1","","98.53","","","","-10","","NA"
"-63.51","44.88","HALIFAX STANFIELD INT'L A","8202251","2019-02-14 13:00","2019","02","14","13:00","-2.5","","-7.8","","67","","","","28","","35","","24.1","","98.52","","","","-10","","NA"
"-63.51","44.88","HALIFAX STANFIELD INT'L A","8202251","2019-02-14 14:00","2019","02","14","14:00","-2.2","","-8.3","","63","","","","28","","28","","24.1","","98.53","","","","-9","","Mainly Clear"
"-63.51","44.88","HALIFAX STANFIELD INT'L A","8202251","2019-02-14 15:00","2019","02","14","15:00","-2.1","","-8.2","","63","","","","30","","36","","24.1","","98.62","","","","-10","","NA"
"-63.51","44.88","HALIFAX STANFIELD INT'L A","8202251","2019-02-14 16:00","2019","02","14","16:00","-3.1","","-9.1","","64","","","","29","","34","","24.1","","98.80","","","","-11","","NA"
"-63.51","44.88","HALIFAX STANFIELD INT'L A","8202251","2019-02-14 17:00","2019","02","14","17:00","-4.5","","-9.7","","67","","","","30","","34","","24.1","","98.96","","","","-13","","Mainly Clear"
"-63.51","44.88","HALIFAX STANFIELD INT'L A","8202251","2019-02-14 18:00","2019","02","14","18:00","-5.1","","-10.0","","69","","","","29","","32","","24.1","","99.12","","","","-13","","NA"
"-63.51","44.88","HALIFAX STANFIELD INT'L A","8202251","2019-02-14 19:00","2019","02","14","19:00","-5.7","","-10.7","","68","","","","30","","26","","24.1","","99.31","","","","-13","","NA"
"-63.51","44.88","HALIFAX STANFIELD INT'L A","8202251","2019-02-14 20:00","2019","02","14","20:00","-5.7","","-10.0","","72","","","","29","","16","","24.1","","99.43","","","","-12","","Mostly Cloudy"
"-63.51","44.88","HALIFAX STANFIELD INT'L A","8202251","2019-02-14 21:00","2019","02","14","21:00","-5.6","","-10.3","","70","","","","30","","24","","24.1","","99.57","","","","-13","","Snow Showers"
"-63.51","44.88","HALIFAX STANFIELD INT'L A","8202251","2019-02-14 22:00","2019","02","14","22:00","-5.7","","-10.2","","71","","","","31","","18","","24.1","","99.69","","","","-12","","Snow Showers"
"-63.51","44.88","HALIFAX STANFIELD INT'L A","8202251","2019-02-14 23:00","2019","02","14","23:00","-6.2","","-10.6","","71","","","","30","","18","","24.1","","99.81","","","","-13","","Snow Showers"
"-63.51","44.88","HALIFAX STANFIELD INT'L A","8202251","2019-02-15 00:00","2019","02","15","00:00","-6.8","","-11.2","","71","","","","30","","14","","24.1","","99.97","","","","-13","","NA"
"-63.51","44.88","HALIFAX STANFIELD INT'L A","8202251","2019-02-15 01:00","2019","02","15","01:00","-7.7","","-11.4","","75","","","","30","","11","","24.1","","100.06","","","","-13","","NA"
"-63.51","44.88","HALIFAX STANFIELD INT'L A","8202251","2019-02-15 02:00","2019","02","15","02:00","-8.2","","-11.8","","76","","","","30","","10","","24.1","","100.14","","","","-13","","Mainly Clear"
"-63.51","44.88","HALIFAX STANFIELD INT'L A","8202251","2019-02-15 03:00","2019","02","15","03:00","-8.4","","-12.1","","75","","","","27","","9","","24.1","","100.20","","","","-13","","NA"
"-63.51","44.88","HALIFAX STANFIELD INT'L A","8202251","2019-02-15 04:00","2019","02","15","04:00","-8.9","","-12.4","","76","","","","35","","5","","24.1","","100.23","","","","-12","","NA"
"-63.51","44.88","HALIFAX STANFIELD INT'L A","8202251","2019-02-15 05:00","2019","02","15","05:00","-9.5","","-12.5","","79","","","","26","","3","","24.1","","100.34","","","","-11","","Clear"
"-63.51","44.88","HALIFAX STANFIELD INT'L A","8202251","2019-02-15 06:00","2019","02","15","06:00","-9.2","","-12.5","","77","","","","25","","4","","24.1","","100.45","","","","-11","","NA"
"-63.51","44.88","HALIFAX STANFIELD INT'L A","8202251","2019-02-15 07:00","2019","02","15","07:00","-9.2","","-12.5","","77","","","","32","","3","","24.1","","100.51","","","","-11","","NA"
"-63.51","44.88","HALIFAX STANFIELD INT'L A","8202251","2019-02-15 08:00","2019","02","15","08:00","-9.1","","-12.4","","77","","","","36","","3","","24.1","","100.66","","","","-11","","Mainly Clear"
"-63.51","44.88","HALIFAX STANFIELD INT'L A","8202251","2019-02-15 09:00","2019","02","15","09:00","-8.2","","-12.1","","74","","","","9","","5","","24.1","","100.67","","","","-11","","NA"
"-63.51","44.88","HALIFAX STANFIELD INT'L A","8202251","2019-02-15 10:00","2019","02","15","10:00","-6.2","","-12.5","","61","","","","16","","10","","24.1","","100.73","","","","-11","","NA"
"-63.51","44.88","HALIFAX STANFIELD INT'L A","8202251","2019-02-15 11:00","2019","02","15","11:00","-4.4","","-11.2","","60","","","","18","","11","","24.1","","100.76","","","","-9","","Mainly Clear"
"-63.51","44.88","HALIFAX STANFIELD INT'L A","8202251","2019-02-15 12:00","2019","02","15","12:00","-3.1","","-10.7","","56","","","","17","","10","","24.1","","100.71","","","","-7","","NA"
"-63.51","44.88","HALIFAX STANFIELD INT'L A","8202251","2019-02-15 13:00","2019","02","15","13:00","-2.6","","-8.8","","63","","","","19","","16","","24.1","","100.68","","","","-8","","NA"
"-63.51","44.88","HALIFAX STANFIELD INT'L A","8202251","2019-02-15 14:00","2019","02","15","14:00","-2.4","","-7.5","","68","","","","16","","17","","24.1","","100.55","","","","-8","","Cloudy"
"-63.51","44.88","HALIFAX STANFIELD INT'L A","8202251","2019-02-15 15:00","2019","02","15","15:00","-2.5","","-7.2","","70","","","","14","","25","","24.1","","100.46","","","","-9","","NA"
"-63.51","44.88","HALIFAX STANFIELD INT'L A","8202251","2019-02-15 16:00","2019","02","15","16:00","-3.3","","-6.8","","77","","","","13","","36","","24.1","","100.25","","","","-11","","NA"
"-63.51","44.88","HALIFAX STANFIELD INT'L A","8202251","2019-02-15 17:00","2019","02","15","17:00","-3.2","","-5.8","","82","","","","15","","31","","24.1","","100.26","","","","-11","","Cloudy"
"-63.51","44.88","HALIFAX STANFIELD INT'L A","8202251","2019-02-15 18:00","2019","02","15","18:00","-2.8","","-4.7","","87","","","","14","","38","","24.1","","100.16","","","","-11","","NA"
"-63.51","44.88","HALIFAX STANFIELD INT'L A","8202251","2019-02-15 19:00","2019","02","15","19:00","-1.9","","-3.3","","90","","","","15","","29","","24.1","","100.19","","","","-9","","NA"
"-63.51","44.88","HALIFAX STANFIELD INT'L A","8202251","2019-02-15 20:00","2019","02","15","20:00","-1.6","","-2.3","","95","","","","14","","26","","24.1","","100.18","","","","-8","","Cloudy"
"-63.51","44.88","HALIFAX STANFIELD INT'L A","8202251","2019-02-15 21:00","2019","02","15","21:00","-0.7","","-1.3","","96","","","","14","","27","","16.1","","100.08","","","","-7","","NA"
"-63.51","44.88","HALIFAX STANFIELD INT'L A","8202251","2019-02-15 22:00","2019","02","15","22:00","-0.3","","-0.6","","98","","","","14","","35","","12.9","","99.96","","","","-7","","NA"
"-63.51","44.88","HALIFAX STANFIELD INT'L A","8202251","2019-02-15 23:00","2019","02","15","23:00","0.3","","0.0","","98","","","","14","","37","","12.9","","99.74","","","","","","Cloudy"
"-63.51","44.88","HALIFAX STANFIELD INT'L A","8202251","2019-02-16 00:00","2019","02","16","00:00","0.8","","0.4","","97","","","","14","","42","","12.9","","99.61","","","","","","NA"
"-63.51","44.88","HALIFAX STANFIELD INT'L A","8202251","2019-02-16 01:00","2019","02","16","01:00","2.0","","1.6","","97","","","","15","","37","","12.9","","99.44","","","","","","NA"
"-63.51","44.88","HALIFAX STANFIELD INT'L A","8202251","2019-02-16 02:00","2019","02","16","02:00","3.1","","2.7","","97","","","","15","","36","","12.9","","99.33","","","","","","Cloudy"
"-63.51","44.88","HALIFAX STANFIELD INT'L A","8202251","2019-02-16 03:00","2019","02","16","03:00","3.7","","3.6","","99","","","","15","","34","","12.9","","99.13","","","","","","NA"
"-63.51","44.88","HALIFAX STANFIELD INT'L A","8202251","2019-02-16 04:00","2019","02","16","04:00","4.7","","4.7","","100","","","","15","","39","","3.2","","98.94","","","","","","Rain,Fog"
"-63.51","44.88","HALIFAX STANFIELD INT'L A","8202251","2019-02-16 05:00","2019","02","16","05:00","5.4","","5.4","","100","","","","16","","40","","2.4","","98.82","","","","","","Rain,Fog"
"-63.51","44.88","HALIFAX STANFIELD INT'L A","8202251","2019-02-16 06:00","2019","02","16","06:00","6.2","","6.2","","100","","","","16","","36","","3.2","","98.72","","","","","","Rain,Fog"
"-63.51","44.88","HALIFAX STANFIELD INT'L A","8202251","2019-02-16 07:00","2019","02","16","07:00","6.2","","6.2","","100","","","","17","","35","","3.2","","98.69","","","","","","Rain,Fog"
"-63.51","44.88","HALIFAX STANFIELD INT'L A","8202251","2019-02-16 08:00","2019","02","16","08:00","6.2","","6.2","","100","","","","17","","27","","4.8","","98.68","","","","","","Rain,Fog"
"-63.51","44.88","HALIFAX STANFIELD INT'L A","8202251","2019-02-16 09:00","2019","02","16","09:00","5.9","","5.9","","100","","","","17","","34","","3.2","","98.63","","","","","","Rain,Fog"
"-63.51","44.88","HALIFAX STANFIELD INT'L A","8202251","2019-02-16 10:00","2019","02","16","10:00","6.1","","6.1","","100","","","","19","","22","","4.0","","98.55","","","","","","Rain,Fog"
"-63.51","44.88","HALIFAX STANFIELD INT'L A","8202251","2019-02-16 11:00","2019","02","16","11:00","7.5","","7.5","","100","","","","19","","26","","4.8","","98.44","","","","","","Rain,Fog"
"-63.51","44.88","HALIFAX STANFIELD INT'L A","8202251","2019-02-16 12:00","2019","02","16","12:00","7.0","","7.0","","100","","","","19","","20","","8.1","","98.35","","","","","","Rain,Fog"
"-63.51","44.88","HALIFAX STANFIELD INT'L A","8202251","2019-02-16 13:00","2019","02","16","13:00","6.6","","6.6","","100","","","","21","","19","","4.0","","98.24","","","","","","Rain,Fog"
"-63.51","44.88","HALIFAX STANFIELD INT'L A","8202251","2019-02-16 14:00","2019","02","16","14:00","5.9","","5.9","","100","","","","18","","14","","4.0","","98.16","","","","","","Rain,Fog"
"-63.51","44.88","HALIFAX STANFIELD INT'L A","8202251","2019-02-16 15:00","2019","02","16","15:00","5.4","","5.4","","100","","","","28","","12","","2.0","","98.19","","","","","","Rain,Fog"
"-63.51","44.88","HALIFAX STANFIELD INT'L A","8202251","2019-02-16 16:00","2019","02","16","16:00","2.5","","2.5","","100","","","","34","","17","","2.0","","98.26","","","","","","Drizzle,Fog"
"-63.51","44.88","HALIFAX STANFIELD INT'L A","8202251","2019-02-16 17:00","2019","02","16","17:00","1.6","","1.6","","100","","","","32","","26","","24.1","","98.32","","","","","","Mostly Cloudy"
"-63.51","44.88","HALIFAX STANFIELD INT'L A","8202251","2019-02-16 18:00","2019","02","16","18:00","0.4","","0.4","","100","","","","32","","15","","24.1","","98.39","","","","","","NA"
"-63.51","44.88","HALIFAX STANFIELD INT'L A","8202251","2019-02-16 19:00","2019","02","16","19:00","-0.1","","-0.1","","100","","","","31","","22","","24.1","","98.47","","","","-6","","NA"
"-63.51","44.88","HALIFAX STANFIELD INT'L A","8202251","2019-02-16 20:00","2019","02","16","20:00","-0.7","","-0.7","","100","","","","30","","22","","24.1","","98.54","","","","-6","","Mainly Clear"
"-63.51","44.88","HALIFAX STANFIELD INT'L A","8202251","2019-02-16 21:00","2019","02","16","21:00","-0.9","","-1.0","","99","","","","31","","23","","24.1","","98.59","","","","-7","","NA"
"-63.51","44.88","HALIFAX STANFIELD INT'L A","8202251","2019-02-16 22:00","2019","02","16","22:00","-1.4","","-2.4","","93","","","","32","","25","","24.1","","98.69","","","","-8","","NA"
"-63.51","44.88","HALIFAX STANFIELD INT'L A","8202251","2019-02-16 23:00","2019","02","16","23:00","-1.6","","-3.6","","86","","","","32","","19","","24.1","","98.75","","","","-7","","Mostly Cloudy"
"-63.51","44.88","HALIFAX STANFIELD INT'L A","8202251","2019-02-17 00:00","2019","02","17","00:00","-1.8","","-4.3","","83","","","","30","","23","","24.1","","98.79","","","","-8","","NA"
"-63.51","44.88","HALIFAX STANFIELD INT'L A","8202251","2019-02-17 01:00","2019","02","17","01:00","-2.4","","-4.9","","83","","","","30","","21","","24.1","","98.86","","","","-8","","NA"
"-63.51","44.88","HALIFAX STANFIELD INT'L A","8202251","2019-02-17 02:00","2019","02","17","02:00","-2.8","","-5.2","","83","","","","31","","23","","24.1","","98.87","","","","-9","","Clear"
"-63.51","44.88","HALIFAX STANFIELD INT'L A","8202251","2019-02-17 03:00","2019","02","17","03:00","-3.3","","-5.5","","85","","","","30","","21","","24.1","","98.91","","","","-10","","NA"
"-63.51","44.88","HALIFAX STANFIELD INT'L A","8202251","2019-02-17 04:00","2019","02","17","04:00","-3.7","","-6.0","","84","","","","30","","21","","24.1","","98.98","","","","-10","","NA"
"-63.51","44.88","HALIFAX STANFIELD INT'L A","8202251","2019-02-17 05:00","2019","02","17","05:00","-4.4","","-6.2","","87","","","","30","","14","","24.1","","99.06","","","","-10","","Mainly Clear"
"-63.51","44.88","HALIFAX STANFIELD INT'L A","8202251","2019-02-17 06:00","2019","02","17","06:00","-4.4","","-6.8","","83","","","","29","","19","","24.1","","99.16","","","","-11","","NA"
"-63.51","44.88","HALIFAX STANFIELD INT'L A","8202251","2019-02-17 07:00","2019","02","17","07:00","-4.8","","-7.6","","81","","","","30","","26","","24.1","","99.26","","","","-12","","NA"
"-63.51","44.88","HALIFAX STANFIELD INT'L A","8202251","2019-02-17 08:00","2019","02","17","08:00","-5.1","","-7.5","","83","","","","30","","27","","24.1","","99.37","","","","-13","","Snow Showers"
"-63.51","44.88","HALIFAX STANFIELD INT'L A","8202251","2019-02-17 09:00","2019","02","17","09:00","-5.1","","-7.7","","82","","","","31","","22","","24.1","","99.42","","","","-12","","Snow Showers"
"-63.51","44.88","HALIFAX STANFIELD INT'L A","8202251","2019-02-17 10:00","2019","02","17","10:00","-5.1","","-8.2","","79","","","","31","","26","","24.1","","99.46","","","","-13","","NA"
"-63.51","44.88","HALIFAX STANFIELD INT'L A","8202251","2019-02-17 11:00","2019","02","17","11:00","-4.4","","-8.5","","73","","","","31","","23","","24.1","","99.48","","","","-11","","Mainly Clear"
"-63.51","44.88","HALIFAX STANFIELD INT'L A","8202251","2019-02-17 12:00","2019","02","17","12:00","-3.2","","-8.4","","68","","","","32","","25","","24.1","","99.50","","","","-10","","NA"
"-63.51","44.88","HALIFAX STANFIELD INT'L A","8202251","2019-02-17 13:00","2019","02","17","13:00","-2.4","","-9.3","","60","","","","29","","24","","24.1","","99.50","","","","-9","","NA"
"-63.51","44.88","HALIFAX STANFIELD INT'L A","8202251","2019-02-17 14:00","2019","02","17","14:00","-2.4","","-10.8","","53","","","","30","","26","","24.1","","99.46","","","","-9","","Mainly Clear"
"-63.51","44.88","HALIFAX STANFIELD INT'L A","8202251","2019-02-17 15:00","2019","02","17","15:00","-2.0","","-11.2","","50","","","","29","","28","","24.1","","99.43","","","","-9","","NA"
"-63.51","44.88","HALIFAX STANFIELD INT'L A","8202251","2019-02-17 16:00","2019","02","17","16:00","-2.6","","-12.1","","49","","","","32","","27","","24.1","","99.50","","","","-10","","NA"
"-63.51","44.88","HALIFAX STANFIELD INT'L A","8202251","2019-02-17 17:00","2019","02","17","17:00","-3.8","","-12.4","","52","","","","30","","20","","24.1","","99.55","","","","-10","","Mainly Clear"
"-63.51","44.88","HALIFAX STANFIELD INT'L A","8202251","2019-02-17 18:00","2019","02","17","18:00","-5.2","","-12.2","","58","","","","29","","17","","24.1","","99.62","","","","-11","","NA"
"-63.51","44.88","HALIFAX STANFIELD INT'L A","8202251","2019-02-17 19:00","2019","02","17","19:00","-5.9","","-12.3","","61","","","","30","","18","","24.1","","99.74","","","","-12","","NA"
"-63.51","44.88","HALIFAX STANFIELD INT'L A","8202251","2019-02-17 20:00","2019","02","17","20:00","-6.2","","-12.6","","61","","","","30","","12","","24.1","","99.77","","","","-11","","Mostly Cloudy"
"-63.51","44.88","HALIFAX STANFIELD INT'L A","8202251","2019-02-17 21:00","2019","02","17","21:00","-6.3","","-12.7","","61","","","","29","","15","","24.1","","99.76","","","","-12","","NA"
"-63.51","44.88","HALIFAX STANFIELD INT'L A","8202251","2019-02-17 22:00","2019","02","17","22:00","-6.2","","-12.2","","63","","","","31","","13","","24.1","","99.75","","","","-12","","NA"
"-63.51","44.88","HALIFAX STANFIELD INT'L A","8202251","2019-02-17 23:00","2019","02","17","23:00","-7.0","","-11.9","","69","","","","32","","13","","24.1","","99.74","","","","-13","","Mostly Cloudy"
"-63.51","44.88","HALIFAX STANFIELD INT'L A","8202251","2019-02-18 00:00","2019","02","18","00:00","-7.9","","-12.0","","72","","","","32","","12","","24.1","","99.81","","","","-13","","NA"
"-63.51","44.88","HALIFAX STANFIELD INT'L A","8202251","2019-02-18 01:00","2019","02","18","01:00","-8.6","","-13.6","","68","","","","32","","17","","24.1","","99.83","","","","-15","","NA"
"-63.51","44.88","HALIFAX STANFIELD INT'L A","8202251","2019-02-18 02:00","2019","02","18","02:00","-9.3","","-14.0","","69","","","","32","","11","","24.1","","99.82","","","","-15","","Mainly Clear"
"-63.51","44.88","HALIFAX STANFIELD INT'L A","8202251","2019-02-18 03:00","2019","02","18","03:00","-9.1","","-14.3","","66","","","","31","","11","","24.1","","99.82","","","","-15","","NA"
"-63.51","44.88","HALIFAX STANFIELD INT'L A","8202251","2019-02-18 04:00","2019","02","18","04:00","-10.1","","-13.6","","76","","","","33","","9","","24.1","","99.73","","","","-15","","NA"
"-63.51","44.88","HALIFAX STANFIELD INT'L A","8202251","2019-02-18 05:00","2019","02","18","05:00","-10.4","","-13.7","","77","","","","34","","9","","24.1","","99.72","","","","-15","","Mainly Clear"
"-63.51","44.88","HALIFAX STANFIELD INT'L A","8202251","2019-02-18 06:00","2019","02","18","06:00","-10.5","","-14.3","","74","","","","30","","7","","24.1","","99.80","","","","-15","","NA"
"-63.51","44.88","HALIFAX STANFIELD INT'L A","8202251","2019-02-18 07:00","2019","02","18","07:00","-10.8","","-15.3","","70","","","","32","","10","","24.1","","99.75","","","","-16","","NA"
"-63.51","44.88","HALIFAX STANFIELD INT'L A","8202251","2019-02-18 08:00","2019","02","18","08:00","-10.6","","-14.7","","72","","","","31","","7","","24.1","","99.77","","","","-15","","Mostly Cloudy"
"-63.51","44.88","HALIFAX STANFIELD INT'L A","8202251","2019-02-18 09:00","2019","02","18","09:00","-10.0","","-15.2","","66","","","","31","","10","","24.1","","99.76","","","","-15","","NA"
"-63.51","44.88","HALIFAX STANFIELD INT'L A","8202251","2019-02-18 10:00","2019","02","18","10:00","-9.6","","-14.6","","67","","","","32","","9","","24.1","","99.67","","","","-14","","NA"
"-63.51","44.88","HALIFAX STANFIELD INT'L A","8202251","2019-02-18 11:00","2019","02","18","11:00","-8.8","","-14.8","","62","","","","28","","9","","24.1","","99.59","","","","-13","","Mostly Cloudy"
"-63.51","44.88","HALIFAX STANFIELD INT'L A","8202251","2019-02-18 12:00","2019","02","18","12:00","-7.8","","-14.8","","58","","","","32","","4","","24.1","","99.50","","","","-10","","NA"
"-63.51","44.88","HALIFAX STANFIELD INT'L A","8202251","2019-02-18 13:00","2019","02","18","13:00","-6.4","","-14.4","","53","","","","26","","7","","24.1","","99.35","","","","-10","","NA"
"-63.51","44.88","HALIFAX STANFIELD INT'L A","8202251","2019-02-18 14:00","2019","02","18","14:00","-5.5","","-14.6","","49","","","","36","","3","","24.1","","99.22","","","","-7","","Mostly Cloudy"
"-63.51","44.88","HALIFAX STANFIELD INT'L A","8202251","2019-02-18 15:00","2019","02","18","15:00","-4.6","","-15.4","","43","","","","36","","1","","24.1","","99.13","","","","-5","","NA"
"-63.51","44.88","HALIFAX STANFIELD INT'L A","8202251","2019-02-18 16:00","2019","02","18","16:00","-4.5","","-16.0","","41","","","","36","","3","","24.1","","99.01","","","","-6","","NA"
"-63.51","44.88","HALIFAX STANFIELD INT'L A","8202251","2019-02-18 17:00","2019","02","18","17:00","-4.6","","-17.4","","37","","","","36","","13","","24.1","","98.94","","","","-10","","Mostly Cloudy"
"-63.51","44.88","HALIFAX STANFIELD INT'L A","8202251","2019-02-18 18:00","2019","02","18","18:00","-5.3","","-18.6","","35","","","","34","","17","","24.1","","98.90","","","","-11","","NA"
"-63.51","44.88","HALIFAX STANFIELD INT'L A","8202251","2019-02-18 19:00","2019","02","18","19:00","-5.6","","-17.1","","40","","","","34","","19","","24.1","","98.88","","","","-12","","NA"
"-63.51","44.88","HALIFAX STANFIELD INT'L A","8202251","2019-02-18 20:00","2019","02","18","20:00","-6.3","","-16.0","","47","","","","33","","25","","24.1","","98.88","","","","-14","","Cloudy"
"-63.51","44.88","HALIFAX STANFIELD INT'L A","8202251","2019-02-18 21:00","2019","02","18","21:00","-6.7","","-15.1","","52","","","","33","","22","","24.1","","98.92","","","","-14","","NA"
"-63.51","44.88","HALIFAX STANFIELD INT'L A","8202251","2019-02-18 22:00","2019","02","18","22:00","-7.6","","-17.1","","47","","","","33","","21","","24.1","","98.95","","","","-15","","NA"
"-63.51","44.88","HALIFAX STANFIELD INT'L A","8202251","2019-02-18 23:00","2019","02","18","23:00","-7.9","","-15.9","","53","","","","33","","15","","24.1","","99.00","","","","-14","","Cloudy"
"-63.51","44.88","HALIFAX STANFIELD INT'L A","8202251","2019-02-19 00:00","2019","02","19","00:00","-8.7","","-15.2","","60","","","","32","","21","","24.1","","99.04","","","","-16","","NA"
"-63.51","44.88","HALIFAX STANFIELD INT'L A","8202251","2019-02-19 01:00","2019","02","19","01:00","-8.8","","-14.6","","63","","","","32","","23","","24.1","","99.11","","","","-17","","NA"
"-63.51","44.88","HALIFAX STANFIELD INT'L A","8202251","2019-02-19 02:00","2019","02","19","02:00","-9.9","","-14.7","","68","","","","32","","25","","24.1","","99.20","","","","-19","","Cloudy"
"-63.51","44.88","HALIFAX STANFIELD INT'L A","8202251","2019-02-19 03:00","2019","02","19","03:00","-10.2","","-14.7","","70","","","","33","","24","","24.1","","99.29","","","","-19","","NA"
"-63.51","44.88","HALIFAX STANFIELD INT'L A","8202251","2019-02-19 04:00","2019","02","19","04:00","-11.0","","-15.4","","71","","","","31","","33","","24.1","","99.39","","","","-21","","Snow Showers"
"-63.51","44.88","HALIFAX STANFIELD INT'L A","8202251","2019-02-19 05:00","2019","02","19","05:00","-12.3","","-16.7","","70","","","","34","","30","","24.1","","99.52","","","","-23","","Snow Showers"
"-63.51","44.88","HALIFAX STANFIELD INT'L A","8202251","2019-02-19 06:00","2019","02","19","06:00","-13.0","","-17.0","","72","","","","32","","23","","24.1","","99.63","","","","-22","","NA"
"-63.51","44.88","HALIFAX STANFIELD INT'L A","8202251","2019-02-19 07:00","2019","02","19","07:00","-13.2","","-16.9","","74","","","","32","","24","","24.1","","99.71","","","","-23","","NA"
"-63.51","44.88","HALIFAX STANFIELD INT'L A","8202251","2019-02-19 08:00","2019","02","19","08:00","-12.7","","-16.9","","71","","","","32","","35","","24.1","","99.85","","","","-24","","Mainly Clear"
"-63.51","44.88","HALIFAX STANFIELD INT'L A","8202251","2019-02-19 09:00","2019","02","19","09:00","-11.7","","-16.0","","71","","","","31","","33","","24.1","","99.89","","","","-22","","NA"
"-63.51","44.88","HALIFAX STANFIELD INT'L A","8202251","2019-02-19 10:00","2019","02","19","10:00","-10.1","","-15.5","","65","","","","31","","31","","24.1","","99.93","","","","-20","","NA"
"-63.51","44.88","HALIFAX STANFIELD INT'L A","8202251","2019-02-19 11:00","2019","02","19","11:00","-9.2","","-15.3","","62","","","","32","","32","","24.1","","99.99","","","","-19","","Mainly Clear"
"-63.51","44.88","HALIFAX STANFIELD INT'L A","8202251","2019-02-19 12:00","2019","02","19","12:00","-8.2","","-15.7","","55","","","","32","","36","","24.1","","100.03","","","","-18","","NA"
"-63.51","44.88","HALIFAX STANFIELD INT'L A","8202251","2019-02-19 13:00","2019","02","19","13:00","-8.0","","-15.6","","55","","","","30","","36","","24.1","","100.02","","","","-18","","NA"
"-63.51","44.88","HALIFAX STANFIELD INT'L A","8202251","2019-02-19 14:00","2019","02","19","14:00","-7.5","","-16.6","","49","","","","31","","43","","24.1","","100.01","","","","-18","","Mainly Clear"
"-63.51","44.88","HALIFAX STANFIELD INT'L A","8202251","2019-02-19 15:00","2019","02","19","15:00","-6.7","","-17.2","","44","","","","32","","31","","24.1","","100.05","","","","-15","","NA"
"-63.51","44.88","HALIFAX STANFIELD INT'L A","8202251","2019-02-19 16:00","2019","02","19","16:00","-7.1","","-18.5","","40","","","","30","","34","","24.1","","100.09","","","","-16","","NA"
"-63.51","44.88","HALIFAX STANFIELD INT'L A","8202251","2019-02-19 17:00","2019","02","19","17:00","-7.5","","-19.4","","39","","","","31","","32","","24.1","","100.12","","","","-17","","Clear"
"-63.51","44.88","HALIFAX STANFIELD INT'L A","8202251","2019-02-19 18:00","2019","02","19","18:00","-8.9","","-20.3","","40","","","","31","","30","","24.1","","100.22","","","","-18","","NA"
"-63.51","44.88","HALIFAX STANFIELD INT'L A","8202251","2019-02-19 19:00","2019","02","19","19:00","-9.8","","-20.4","","42","","","","31","","30","","24.1","","100.31","","","","-19","","NA"
"-63.51","44.88","HALIFAX STANFIELD INT'L A","8202251","2019-02-19 20:00","2019","02","19","20:00","-10.6","","-20.9","","43","","","","32","","39","","24.1","","100.36","","","","-21","","Clear"
"-63.51","44.88","HALIFAX STANFIELD INT'L A","8202251","2019-02-19 21:00","2019","02","19","21:00","-11.2","","-20.6","","46","","","","31","","32","","24.1","","100.42","","","","-21","","NA"
"-63.51","44.88","HALIFAX STANFIELD INT'L A","8202251","2019-02-19 22:00","2019","02","19","22:00","-11.5","","-20.0","","50","","","","31","","43","","24.1","","100.50","","","","-23","","NA"
"-63.51","44.88","HALIFAX STANFIELD INT'L A","8202251","2019-02-19 23:00","2019","02","19","23:00","-11.6","","-20.4","","49","","","","31","","38","","24.1","","100.55","","","","-23","","Mainly Clear"
"-63.51","44.88","HALIFAX STANFIELD INT'L A","8202251","2019-02-20 00:00","2019","02","20","00:00","-12.1","","-21.5","","46","","","","32","","43","","24.1","","100.57","","","","-24","","NA"
"-63.51","44.88","HALIFAX STANFIELD INT'L A","8202251","2019-02-20 01:00","2019","02","20","01:00","-12.2","","-20.6","","50","","","","32","","44","","24.1","","100.57","","","","-24","","NA"
"-63.51","44.88","HALIFAX STANFIELD INT'L A","8202251","2019-02-20 02:00","2019","02","20","02:00","-12.6","","-20.6","","52","","","","31","","47","","24.1","","100.58","","","","-25","","Clear"
"-63.51","44.88","HALIFAX STANFIELD INT'L A","8202251","2019-02-20 03:00","2019","02","20","03:00","-13.2","","-21.3","","51","","","","32","","39","","24.1","","100.66","","","","-25","","NA"
"-63.51","44.88","HALIFAX STANFIELD INT'L A","8202251","2019-02-20 04:00","2019","02","20","04:00","-13.6","","-21.5","","52","","","","31","","35","","24.1","","100.71","","","","-25","","NA"
"-63.51","44.88","HALIFAX STANFIELD INT'L A","8202251","2019-02-20 05:00","2019","02","20","05:00","-14.4","","-21.9","","54","","","","33","","32","","24.1","","100.75","","","","-26","","Mainly Clear"
"-63.51","44.88","HALIFAX STANFIELD INT'L A","8202251","2019-02-20 06:00","2019","02","20","06:00","-14.9","","-21.6","","57","","","","33","","23","","24.1","","100.80","","","","-25","","NA"
"-63.51","44.88","HALIFAX STANFIELD INT'L A","8202251","2019-02-20 07:00","2019","02","20","07:00","-15.1","","-21.6","","58","","","","33","","20","","24.1","","100.84","","","","-24","","NA"
"-63.51","44.88","HALIFAX STANFIELD INT'L A","8202251","2019-02-20 08:00","2019","02","20","08:00","-14.3","","-22.4","","51","","","","32","","35","","24.1","","100.90","","","","-26","","Mainly Clear"
"-63.51","44.88","HALIFAX STANFIELD INT'L A","8202251","2019-02-20 09:00","2019","02","20","09:00","-13.4","","-22.4","","47","","","","31","","39","","24.1","","100.87","","","","-25","","NA"
"-63.51","44.88","HALIFAX STANFIELD INT'L A","8202251","2019-02-20 10:00","2019","02","20","10:00","-12.5","","-22.8","","43","","","","32","","40","","24.1","","100.76","","","","-24","","NA"
"-63.51","44.88","HALIFAX STANFIELD INT'L A","8202251","2019-02-20 11:00","2019","02","20","11:00","-11.3","","-22.3","","40","","","","33","","34","","24.1","","100.77","","","","-22","","Clear"
"-63.51","44.88","HALIFAX STANFIELD INT'L A","8202251","2019-02-20 12:00","2019","02","20","12:00","-10.4","","-22.7","","36","","","","32","","32","","24.1","","100.78","","","","-20","","NA"
"-63.51","44.88","HALIFAX STANFIELD INT'L A","8202251","2019-02-20 13:00","2019","02","20","13:00","-9.3","","-22.2","","35","","","","31","","30","","24.1","","100.77","","","","-19","","NA"
"-63.51","44.88","HALIFAX STANFIELD INT'L A","8202251","2019-02-20 14:00","2019","02","20","14:00","-8.8","","-21.8","","35","","","","32","","30","","24.1","","100.74","","","","-18","","Mainly Clear"
"-63.51","44.88","HALIFAX STANFIELD INT'L A","8202251","2019-02-20 15:00","2019","02","20","15:00","-8.2","","-22.0","","33","","","","31","","35","","24.1","","100.70","","","","-18","","NA"
"-63.51","44.88","HALIFAX STANFIELD INT'L A","8202251","2019-02-20 16:00","2019","02","20","16:00","-8.1","","-21.7","","33","","","","30","","33","","24.1","","100.74","","","","-17","","NA"
"-63.51","44.88","HALIFAX STANFIELD INT'L A","8202251","2019-02-20 17:00","2019","02","20","17:00","-8.9","","-20.0","","41","","","","29","","36","","24.1","","100.75","","","","-19","","Mainly Clear"
"-63.51","44.88","HALIFAX STANFIELD INT'L A","8202251","2019-02-20 18:00","2019","02","20","18:00","-9.6","","-19.1","","46","","","","31","","28","","24.1","","100.79","","","","-19","","NA"
"-63.51","44.88","HALIFAX STANFIELD INT'L A","8202251","2019-02-20 19:00","2019","02","20","19:00","-9.8","","-18.7","","49","","","","30","","23","","24.1","","100.85","","","","-18","","NA"
"-63.51","44.88","HALIFAX STANFIELD INT'L A","8202251","2019-02-20 20:00","2019","02","20","20:00","-10.0","","-18.3","","51","","","","29","","21","","24.1","","100.89","","","","-18","","Clear"
"-63.51","44.88","HALIFAX STANFIELD INT'L A","8202251","2019-02-20 21:00","2019","02","20","21:00","-10.0","","-18.3","","51","","","","30","","21","","24.1","","100.88","","","","-18","","NA"
"-63.51","44.88","HALIFAX STANFIELD INT'L A","8202251","2019-02-20 22:00","2019","02","20","22:00","-9.9","","-18.8","","49","","","","31","","14","","24.1","","100.90","","","","-16","","NA"
"-63.51","44.88","HALIFAX STANFIELD INT'L A","8202251","2019-02-20 23:00","2019","02","20","23:00","-10.3","","-18.4","","52","","","","31","","13","","24.1","","100.81","","","","-17","","Mainly Clear"
"-63.51","44.88","HALIFAX STANFIELD INT'L A","8202251","2019-02-21 00:00","2019","02","21","00:00","-10.4","","-18.1","","54","","","","30","","13","","24.1","","100.79","","","","-17","","NA"
"-63.51","44.88","HALIFAX STANFIELD INT'L A","8202251","2019-02-21 01:00","2019","02","21","01:00","-10.4","","-17.6","","56","","","","30","","11","","24.1","","100.75","","","","-16","","NA"
"-63.51","44.88","HALIFAX STANFIELD INT'L A","8202251","2019-02-21 02:00","2019","02","21","02:00","-10.7","","-17.4","","58","","","","29","","10","","24.1","","100.80","","","","-16","","Mainly Clear"
"-63.51","44.88","HALIFAX STANFIELD INT'L A","8202251","2019-02-21 03:00","2019","02","21","03:00","-11.8","","-16.9","","66","","","","7","","3","","24.1","","100.60","","","","-14","","NA"
"-63.51","44.88","HALIFAX STANFIELD INT'L A","8202251","2019-02-21 04:00","2019","02","21","04:00","-11.5","","-16.5","","67","","","","20","","9","","24.1","","100.52","","","","-17","","NA"
"-63.51","44.88","HALIFAX STANFIELD INT'L A","8202251","2019-02-21 05:00","2019","02","21","05:00","-11.2","","-16.2","","67","","","","18","","9","","24.1","","100.40","","","","-16","","Cloudy"
"-63.51","44.88","HALIFAX STANFIELD INT'L A","8202251","2019-02-21 06:00","2019","02","21","06:00","-10.5","","-16.3","","63","","","","17","","7","","24.1","","100.38","","","","-15","","NA"
"-63.51","44.88","HALIFAX STANFIELD INT'L A","8202251","2019-02-21 07:00","2019","02","21","07:00","-10.6","","-16.5","","62","","","","15","","12","","24.1","","100.22","","","","-17","","NA"
"-63.51","44.88","HALIFAX STANFIELD INT'L A","8202251","2019-02-21 08:00","2019","02","21","08:00","-10.5","","-16.1","","64","","","","14","","12","","24.1","","100.16","","","","-17","","Cloudy"
"-63.51","44.88","HALIFAX STANFIELD INT'L A","8202251","2019-02-21 09:00","2019","02","21","09:00","-10.6","","-12.8","","84","","","","15","","11","","0.8","","100.18","","","","-16","","Moderate Snow"
"-63.51","44.88","HALIFAX STANFIELD INT'L A","8202251","2019-02-21 10:00","2019","02","21","10:00","-10.2","","-11.5","","90","","","","13","","15","","0.8","","100.05","","","","-17","","Moderate Snow"
"-63.51","44.88","HALIFAX STANFIELD INT'L A","8202251","2019-02-21 11:00","2019","02","21","11:00","-8.9","","-10.3","","89","","","","13","","14","","1.6","","99.85","","","","-15","","Snow"
"-63.51","44.88","HALIFAX STANFIELD INT'L A","8202251","2019-02-21 12:00","2019","02","21","12:00","-7.5","","-9.3","","87","","","","13","","18","","4.8","","99.65","","","","-14","","Snow"
"-63.51","44.88","HALIFAX STANFIELD INT'L A","8202251","2019-02-21 13:00","2019","02","21","13:00","-7.2","","-8.7","","89","","","","12","","24","","3.2","","99.38","","","","-15","","Freezing Drizzle,Snow,Blowing Snow"
"-63.51","44.88","HALIFAX STANFIELD INT'L A","8202251","2019-02-21 14:00","2019","02","21","14:00","-7.0","","-8.6","","88","","","","13","","22","","4.8","","99.20","","","","-14","","Freezing Drizzle,Snow,Blowing Snow"
"-63.51","44.88","HALIFAX STANFIELD INT'L A","8202251","2019-02-21 15:00","2019","02","21","15:00","-6.7","","-8.1","","90","","","","12","","18","","4.0","","99.06","","","","-13","","Freezing Drizzle,Snow"
"-63.51","44.88","HALIFAX STANFIELD INT'L A","8202251","2019-02-21 16:00","2019","02","21","16:00","-6.8","","-8.2","","90","","","","12","","18","","3.6","","99.02","","","","-13","","Snow"
"-63.51","44.88","HALIFAX STANFIELD INT'L A","8202251","2019-02-21 17:00","2019","02","21","17:00","-6.8","","-8.0","","91","","","","12","","21","","6.4","","98.93","","","","-14","","Snow"
"-63.51","44.88","HALIFAX STANFIELD INT'L A","8202251","2019-02-21 18:00","2019","02","21","18:00","-6.9","","-7.6","","95","","","","12","","14","","12.9","","98.86","","","","-13","","Snow"
"-63.51","44.88","HALIFAX STANFIELD INT'L A","8202251","2019-02-21 19:00","2019","02","21","19:00","-6.9","","-7.7","","94","","","","12","","8","","16.1","","98.88","","","","-11","","Snow"
"-63.51","44.88","HALIFAX STANFIELD INT'L A","8202251","2019-02-21 20:00","2019","02","21","20:00","-7.0","","-7.5","","96","","","","14","","11","","19.3","","98.84","","","","-12","","Snow"
"-63.51","44.88","HALIFAX STANFIELD INT'L A","8202251","2019-02-21 21:00","2019","02","21","21:00","-7.0","","-7.4","","97","","","","13","","14","","24.1","","98.80","","","","-13","","Snow"
"-63.51","44.88","HALIFAX STANFIELD INT'L A","8202251","2019-02-21 22:00","2019","02","21","22:00","-6.8","","-7.2","","97","","","","16","","8","","12.9","","98.78","","","","-11","","Snow"
"-63.51","44.88","HALIFAX STANFIELD INT'L A","8202251","2019-02-21 23:00","2019","02","21","23:00","-6.2","","-6.5","","98","","","","19","","9","","2.4","","98.78","","","","-10","","Snow"
"-63.51","44.88","HALIFAX STANFIELD INT'L A","8202251","2019-02-22 00:00","2019","02","22","00:00","-5.5","","-5.8","","98","","","","18","","11","","2.4","","98.80","","","","-10","","Snow"
"-63.51","44.88","HALIFAX STANFIELD INT'L A","8202251","2019-02-22 01:00","2019","02","22","01:00","-4.3","","-4.4","","99","","","","29","","12","","3.2","","98.90","","","","-9","","Snow"
"-63.51","44.88","HALIFAX STANFIELD INT'L A","8202251","2019-02-22 02:00","2019","02","22","02:00","-5.8","","-5.9","","99","","","","32","","17","","24.1","","98.96","","","","-12","","Cloudy"
"-63.51","44.88","HALIFAX STANFIELD INT'L A","8202251","2019-02-22 03:00","2019","02","22","03:00","-5.5","","-6.0","","96","","","","32","","30","","24.1","","99.11","","","","-14","","NA"
"-63.51","44.88","HALIFAX STANFIELD INT'L A","8202251","2019-02-22 04:00","2019","02","22","04:00","-5.7","","-6.8","","92","","","","31","","22","","24.1","","99.26","","","","-13","","NA"
"-63.51","44.88","HALIFAX STANFIELD INT'L A","8202251","2019-02-22 05:00","2019","02","22","05:00","-6.7","","-7.8","","92","","","","34","","22","","9.7","","99.40","","","","-14","","Snow"
"-63.51","44.88","HALIFAX STANFIELD INT'L A","8202251","2019-02-22 06:00","2019","02","22","06:00","-7.3","","-8.1","","94","","","","34","","21","","4.8","","99.54","","","","-15","","Snow"
"-63.51","44.88","HALIFAX STANFIELD INT'L A","8202251","2019-02-22 07:00","2019","02","22","07:00","-8.4","","-9.9","","89","","","","34","","24","","12.9","","99.63","","","","-17","","Snow"
"-63.51","44.88","HALIFAX STANFIELD INT'L A","8202251","2019-02-22 08:00","2019","02","22","08:00","-8.4","","-9.9","","89","","","","35","","21","","19.3","","99.81","","","","-16","","Snow"
"-63.51","44.88","HALIFAX STANFIELD INT'L A","8202251","2019-02-22 09:00","2019","02","22","09:00","-8.4","","-10.3","","86","","","","35","","21","","24.1","","99.91","","","","-16","","NA"
"-63.51","44.88","HALIFAX STANFIELD INT'L A","8202251","2019-02-22 10:00","2019","02","22","10:00","-7.8","","-10.8","","79","","","","36","","19","","19.3","","99.99","","","","-15","","NA"
"-63.51","44.88","HALIFAX STANFIELD INT'L A","8202251","2019-02-22 11:00","2019","02","22","11:00","-7.0","","-10.2","","78","","","","32","","26","","24.1","","100.05","","","","-15","","Mostly Cloudy"
"-63.51","44.88","HALIFAX STANFIELD INT'L A","8202251","2019-02-22 12:00","2019","02","22","12:00","-6.1","","-10.1","","74","","","","33","","19","","24.1","","100.08","","","","-13","","NA"
"-63.51","44.88","HALIFAX STANFIELD INT'L A","8202251","2019-02-22 13:00","2019","02","22","13:00","-6.0","","-10.9","","69","","","","32","","26","","24.1","","100.17","","","","-14","","NA"
"-63.51","44.88","HALIFAX STANFIELD INT'L A","8202251","2019-02-22 14:00","2019","02","22","14:00","-5.1","","-10.3","","67","","","","32","","25","","24.1","","100.17","","","","-12","","Mostly Cloudy"
"-63.51","44.88","HALIFAX STANFIELD INT'L A","8202251","2019-02-22 15:00","2019","02","22","15:00","-4.5","","-10.1","","65","","","","31","","24","","24.1","","100.17","","","","-12","","NA"
"-63.51","44.88","HALIFAX STANFIELD INT'L A","8202251","2019-02-22 16:00","2019","02","22","16:00","-3.8","","-9.9","","63","","","","29","","24","","24.1","","100.22","","","","-11","","NA"
"-63.51","44.88","HALIFAX STANFIELD INT'L A","8202251","2019-02-22 17:00","2019","02","22","17:00","-4.0","","-9.9","","64","","","","31","","23","","24.1","","100.24","","","","-11","","Mainly Clear"
"-63.51","44.88","HALIFAX STANFIELD INT'L A","8202251","2019-02-22 18:00","2019","02","22","18:00","-5.1","","-9.7","","71","","","","29","","14","","24.1","","100.32","","","","-10","","NA"
"-63.51","44.88","HALIFAX STANFIELD INT'L A","8202251","2019-02-22 19:00","2019","02","22","19:00","-4.9","","-8.8","","74","","","","28","","19","","24.1","","100.43","","","","-11","","Snow"
"-63.51","44.88","HALIFAX STANFIELD INT'L A","8202251","2019-02-22 20:00","2019","02","22","20:00","-6.1","","-9.3","","78","","","","27","","11","","24.1","","100.48","","","","-11","","Mainly Clear"
"-63.51","44.88","HALIFAX STANFIELD INT'L A","8202251","2019-02-22 21:00","2019","02","22","21:00","-6.5","","-9.4","","80","","","","29","","12","","24.1","","100.50","","","","-12","","NA"
"-63.51","44.88","HALIFAX STANFIELD INT'L A","8202251","2019-02-22 22:00","2019","02","22","22:00","-6.6","","-9.2","","82","","","","31","","22","","24.1","","100.50","","","","-14","","NA"
"-63.51","44.88","HALIFAX STANFIELD INT'L A","8202251","2019-02-22 23:00","2019","02","22","23:00","-6.9","","-9.8","","80","","","","32","","20","","24.1","","100.55","","","","-14","","Clear"
"-63.51","44.88","HALIFAX STANFIELD INT'L A","8202251","2019-02-23 00:00","2019","02","23","00:00","-7.5","","-10.4","","80","","","","32","","21","","24.1","","100.55","","","","-15","","NA"
"-63.51","44.88","HALIFAX STANFIELD INT'L A","8202251","2019-02-23 01:00","2019","02","23","01:00","-7.7","","-11.0","","77","","","","32","","20","","24.1","","100.61","","","","-15","","NA"
"-63.51","44.88","HALIFAX STANFIELD INT'L A","8202251","2019-02-23 02:00","2019","02","23","02:00","-8.7","","-12.0","","77","","","","32","","22","","24.1","","100.68","","","","-17","","Clear"
"-63.51","44.88","HALIFAX STANFIELD INT'L A","8202251","2019-02-23 03:00","2019","02","23","03:00","-8.9","","-12.4","","76","","","","30","","19","","24.1","","100.77","","","","-16","","NA"
"-63.51","44.88","HALIFAX STANFIELD INT'L A","8202251","2019-02-23 04:00","2019","02","23","04:00","-9.4","","-13.0","","75","","","","31","","19","","24.1","","100.73","","","","-17","","NA"
"-63.51","44.88","HALIFAX STANFIELD INT'L A","8202251","2019-02-23 05:00","2019","02","23","05:00","-9.6","","-13.4","","74","","","","31","","17","","24.1","","100.78","","","","-17","","Clear"
"-63.51","44.88","HALIFAX STANFIELD INT'L A","8202251","2019-02-23 06:00","2019","02","23","06:00","-10.1","","-13.6","","76","","","","30","","16","","24.1","","100.83","","","","-17","","NA"
"-63.51","44.88","HALIFAX STANFIELD INT'L A","8202251","2019-02-23 07:00","2019","02","23","07:00","-10.4","","-14.0","","75","","","","31","","18","","24.1","","100.83","","","","-18","","NA"
"-63.51","44.88","HALIFAX STANFIELD INT'L A","8202251","2019-02-23 08:00","2019","02","23","08:00","-9.8","","-13.9","","72","","","","31","","17","","24.1","","100.86","","","","-17","","Clear"
"-63.51","44.88","HALIFAX STANFIELD INT'L A","8202251","2019-02-23 09:00","2019","02","23","09:00","-8.3","","-13.8","","65","","","","32","","19","","24.1","","100.89","","","","-16","","NA"
"-63.51","44.88","HALIFAX STANFIELD INT'L A","8202251","2019-02-23 10:00","2019","02","23","10:00","-7.0","","-13.9","","58","","","","31","","22","","24.1","","100.85","","","","-14","","NA"
"-63.51","44.88","HALIFAX STANFIELD INT'L A","8202251","2019-02-23 11:00","2019","02","23","11:00","-5.7","","-14.1","","52","","","","30","","17","","24.1","","100.82","","","","-12","","Clear"
"-63.51","44.88","HALIFAX STANFIELD INT'L A","8202251","2019-02-23 12:00","2019","02","23","12:00","-4.3","","-14.8","","44","","","","28","","27","","24.1","","100.78","","","","-12","","NA"
"-63.51","44.88","HALIFAX STANFIELD INT'L A","8202251","2019-02-23 13:00","2019","02","23","13:00","-3.7","","-13.9","","45","","","","32","","26","","24.1","","100.69","","","","-11","","NA"
"-63.51","44.88","HALIFAX STANFIELD INT'L A","8202251","2019-02-23 14:00","2019","02","23","14:00","-3.4","","-15.0","","41","","","","30","","35","","24.1","","100.63","","","","-11","","Mainly Clear"
"-63.51","44.88","HALIFAX STANFIELD INT'L A","8202251","2019-02-23 15:00","2019","02","23","15:00","-3.5","","-13.3","","47","","","","29","","39","","24.1","","100.63","","","","-12","","NA"
"-63.51","44.88","HALIFAX STANFIELD INT'L A","8202251","2019-02-23 16:00","2019","02","23","16:00","-3.7","","-11.6","","54","","","","31","","35","","24.1","","100.67","","","","-12","","NA"
"-63.51","44.88","HALIFAX STANFIELD INT'L A","8202251","2019-02-23 17:00","2019","02","23","17:00","-3.5","","-11.7","","53","","","","31","","27","","24.1","","100.65","","","","-11","","Clear"
"-63.51","44.88","HALIFAX STANFIELD INT'L A","8202251","2019-02-23 18:00","2019","02","23","18:00","-4.5","","-11.8","","57","","","","31","","27","","24.1","","100.66","","","","-12","","NA"
"-63.51","44.88","HALIFAX STANFIELD INT'L A","8202251","2019-02-23 19:00","2019","02","23","19:00","-5.5","","-11.9","","61","","","","32","","22","","24.1","","100.74","","","","-13","","NA"
"-63.51","44.88","HALIFAX STANFIELD INT'L A","8202251","2019-02-23 20:00","2019","02","23","20:00","-6.1","","-12.2","","62","","","","31","","16","","24.1","","100.78","","","","-12","","Clear"
"-63.51","44.88","HALIFAX STANFIELD INT'L A","8202251","2019-02-23 21:00","2019","02","23","21:00","-6.9","","-12.1","","67","","","","27","","14","","24.1","","100.81","","","","-13","","NA"
"-63.51","44.88","HALIFAX STANFIELD INT'L A","8202251","2019-02-23 22:00","2019","02","23","22:00","-7.4","","-11.8","","71","","","","29","","15","","24.1","","100.79","","","","-14","","NA"
"-63.51","44.88","HALIFAX STANFIELD INT'L A","8202251","2019-02-23 23:00","2019","02","23","23:00","-7.3","","-11.8","","71","","","","30","","18","","24.1","","100.83","","","","-14","","Clear"
"-63.51","44.88","HALIFAX STANFIELD INT'L A","8202251","2019-02-24 00:00","2019","02","24","00:00","-7.5","","-11.5","","73","","","","30","","18","","24.1","","100.85","","","","-14","","NA"
"-63.51","44.88","HALIFAX STANFIELD INT'L A","8202251","2019-02-24 01:00","2019","02","24","01:00","-8.6","","-12.4","","74","","","","32","","15","","24.1","","100.90","","","","-15","","NA"
"-63.51","44.88","HALIFAX STANFIELD INT'L A","8202251","2019-02-24 02:00","2019","02","24","02:00","-8.1","","-12.3","","72","","","","31","","11","","24.1","","100.90","","","","-13","","Mostly Cloudy"
"-63.51","44.88","HALIFAX STANFIELD INT'L A","8202251","2019-02-24 03:00","2019","02","24","03:00","-8.5","","-12.3","","74","","","","34","","12","","24.1","","100.82","","","","-14","","NA"
"-63.51","44.88","HALIFAX STANFIELD INT'L A","8202251","2019-02-24 04:00","2019","02","24","04:00","-8.3","","-11.9","","75","","","","28","","9","","24.1","","100.86","","","","-13","","NA"
"-63.51","44.88","HALIFAX STANFIELD INT'L A","8202251","2019-02-24 05:00","2019","02","24","05:00","-8.3","","-12.0","","75","","","","30","","4","","24.1","","100.94","","","","-10","","Cloudy"
"-63.51","44.88","HALIFAX STANFIELD INT'L A","8202251","2019-02-24 06:00","2019","02","24","06:00","-8.9","","-12.1","","78","","","","2","","9","","24.1","","100.92","","","","-14","","NA"
"-63.51","44.88","HALIFAX STANFIELD INT'L A","8202251","2019-02-24 07:00","2019","02","24","07:00","-9.4","","-12.1","","81","","","","1","","5","","24.1","","100.90","","","","-12","","NA"
"-63.51","44.88","HALIFAX STANFIELD INT'L A","8202251","2019-02-24 08:00","2019","02","24","08:00","-8.8","","-12.3","","76","","","","7","","8","","24.1","","100.82","","","","-13","","Mostly Cloudy"
"-63.51","44.88","HALIFAX STANFIELD INT'L A","8202251","2019-02-24 09:00","2019","02","24","09:00","-7.9","","-11.6","","75","","","","12","","8","","24.1","","100.80","","","","-12","","NA"
"-63.51","44.88","HALIFAX STANFIELD INT'L A","8202251","2019-02-24 10:00","2019","02","24","10:00","-6.1","","-11.8","","64","","","","12","","10","","24.1","","100.74","","","","-11","","NA"
"-63.51","44.88","HALIFAX STANFIELD INT'L A","8202251","2019-02-24 11:00","2019","02","24","11:00","-5.1","","-12.0","","59","","","","12","","11","","24.1","","100.68","","","","-10","","Mostly Cloudy"
"-63.51","44.88","HALIFAX STANFIELD INT'L A","8202251","2019-02-24 12:00","2019","02","24","12:00","-4.0","","-11.2","","58","","","","16","","9","","24.1","","100.59","","","","-8","","NA"
"-63.51","44.88","HALIFAX STANFIELD INT'L A","8202251","2019-02-24 13:00","2019","02","24","13:00","-2.8","","-11.1","","53","","","","14","","4","","24.1","","100.48","","","","-4","","NA"
"-63.51","44.88","HALIFAX STANFIELD INT'L A","8202251","2019-02-24 14:00","2019","02","24","14:00","-3.3","","-10.1","","60","","","","14","","18","","24.1","","100.34","","","","-9","","Cloudy"
"-63.51","44.88","HALIFAX STANFIELD INT'L A","8202251","2019-02-24 15:00","2019","02","24","15:00","-4.3","","-10.4","","63","","","","15","","22","","24.1","","100.22","","","","-11","","NA"
"-63.51","44.88","HALIFAX STANFIELD INT'L A","8202251","2019-02-24 16:00","2019","02","24","16:00","-4.4","","-10.2","","64","","","","12","","28","","24.1","","100.04","","","","-12","","NA"
"-63.51","44.88","HALIFAX STANFIELD INT'L A","8202251","2019-02-24 17:00","2019","02","24","17:00","-5.0","","-10.0","","68","","","","13","","29","","24.1","","99.87","","","","-13","","Cloudy"
"-63.51","44.88","HALIFAX STANFIELD INT'L A","8202251","2019-02-24 18:00","2019","02","24","18:00","-5.6","","-10.0","","72","","","","13","","30","","24.1","","99.71","","","","-14","","NA"
"-63.51","44.88","HALIFAX STANFIELD INT'L A","8202251","2019-02-24 19:00","2019","02","24","19:00","-5.6","","-10.3","","69","","","","13","","36","","24.1","","99.55","","","","-14","","NA"
"-63.51","44.88","HALIFAX STANFIELD INT'L A","8202251","2019-02-24 20:00","2019","02","24","20:00","-5.6","","-9.1","","77","","","","12","","34","","12.9","","99.31","","","","-14","","Snow"
"-63.51","44.88","HALIFAX STANFIELD INT'L A","8202251","2019-02-24 21:00","2019","02","24","21:00","-6.1","","-7.3","","91","","","","12","","40","","0.8","","98.90","","","","-16","","Moderate Snow"
"-63.51","44.88","HALIFAX STANFIELD INT'L A","8202251","2019-02-24 22:00","2019","02","24","22:00","-5.6","","-6.8","","91","","","","13","","41","","2.4","","98.61","","","","-15","","Freezing Rain,Snow"
"-63.51","44.88","HALIFAX STANFIELD INT'L A","8202251","2019-02-24 23:00","2019","02","24","23:00","-5.0","","-5.8","","94","","","","13","","42","","1.6","","98.36","","","","-14","","Freezing Rain,Snow,Blowing Snow"
"-63.51","44.88","HALIFAX STANFIELD INT'L A","8202251","2019-02-25 00:00","2019","02","25","00:00","-4.3","","-5.1","","94","","","","12","","61","","3.2","","97.88","","","","-15","","Freezing Rain,Snow,Blowing Snow"
"-63.51","44.88","HALIFAX STANFIELD INT'L A","8202251","2019-02-25 01:00","2019","02","25","01:00","-3.4","","-4.0","","96","","","","12","","53","","2.8","","97.50","","","","-13","","Freezing Rain,Snow,Blowing Snow"
"-63.51","44.88","HALIFAX STANFIELD INT'L A","8202251","2019-02-25 02:00","2019","02","25","02:00","-2.0","","-2.4","","97","","","","13","","54","","2.0","","97.23","","","","-11","","Freezing Rain,Fog"
"-63.51","44.88","HALIFAX STANFIELD INT'L A","8202251","2019-02-25 03:00","2019","02","25","03:00","-0.2","","-0.5","","98","","","","13","","56","","2.8","","96.97","","","","-9","","Freezing Rain,Ice Pellets,Fog"
"-63.51","44.88","HALIFAX STANFIELD INT'L A","8202251","2019-02-25 04:00","2019","02","25","04:00","0.3","","0.3","","100","","","","13","","46","","3.2","","96.67","","","","","","Rain,Fog"
"-63.51","44.88","HALIFAX STANFIELD INT'L A","8202251","2019-02-25 05:00","2019","02","25","05:00","0.8","","0.8","","100","","","","13","","32","","3.2","","96.49","","","","","","Rain,Fog"
"-63.51","44.88","HALIFAX STANFIELD INT'L A","8202251","2019-02-25 06:00","2019","02","25","06:00","1.9","","1.9","","100","","","","20","","23","","2.8","","96.37","","","","","","Fog"
"-63.51","44.88","HALIFAX STANFIELD INT'L A","8202251","2019-02-25 07:00","2019","02","25","07:00","2.3","","2.3","","100","","","","21","","26","","4.0","","96.28","","","","","","Rain,Fog"
"-63.51","44.88","HALIFAX STANFIELD INT'L A","8202251","2019-02-25 08:00","2019","02","25","08:00","1.8","","1.8","","100","","","","22","","40","","9.7","","96.28","","","","","","Fog"
"-63.51","44.88","HALIFAX STANFIELD INT'L A","8202251","2019-02-25 09:00","2019","02","25","09:00","0.9","","0.8","","99","","","","26","","38","","19.3","","96.46","","","","","","NA"
"-63.51","44.88","HALIFAX STANFIELD INT'L A","8202251","2019-02-25 10:00","2019","02","25","10:00","0.9","","-0.4","","91","","","","26","","45","","24.1","","96.56","","","","","","NA"
"-63.51","44.88","HALIFAX STANFIELD INT'L A","8202251","2019-02-25 11:00","2019","02","25","11:00","1.5","","-1.3","","82","","","","26","","34","","24.1","","96.62","","","","","","Cloudy"
"-63.51","44.88","HALIFAX STANFIELD INT'L A","8202251","2019-02-25 12:00","2019","02","25","12:00","1.8","","-2.0","","76","","","","27","","40","","24.1","","96.66","","","","","","NA"
"-63.51","44.88","HALIFAX STANFIELD INT'L A","8202251","2019-02-25 13:00","2019","02","25","13:00","1.6","","-2.5","","74","","","","28","","35","","24.1","","96.66","","","","","","NA"
"-63.51","44.88","HALIFAX STANFIELD INT'L A","8202251","2019-02-25 14:00","2019","02","25","14:00","1.6","","-4.2","","65","","","","27","","36","","24.1","","96.66","","","","","","Cloudy"
"-63.51","44.88","HALIFAX STANFIELD INT'L A","8202251","2019-02-25 15:00","2019","02","25","15:00","1.3","","-4.7","","64","","","","28","","33","","24.1","","96.72","","","","","","NA"
"-63.51","44.88","HALIFAX STANFIELD INT'L A","8202251","2019-02-25 16:00","2019","02","25","16:00","1.2","","-5.8","","60","","","","27","","36","","24.1","","96.76","","","","","","NA"
"-63.51","44.88","HALIFAX STANFIELD INT'L A","8202251","2019-02-25 17:00","2019","02","25","17:00","0.2","","-3.8","","75","","","","26","","40","","24.1","","96.82","","","","","","Mostly Cloudy"
"-63.51","44.88","HALIFAX STANFIELD INT'L A","8202251","2019-02-25 18:00","2019","02","25","18:00","-1.5","","-3.4","","87","","","","26","","28","","24.1","","96.87","","","","-8","","NA"
"-63.51","44.88","HALIFAX STANFIELD INT'L A","8202251","2019-02-25 19:00","2019","02","25","19:00","-1.7","","-3.1","","90","","","","26","","23","","19.3","","96.97","","","","-8","","Snow Showers"
"-63.51","44.88","HALIFAX STANFIELD INT'L A","8202251","2019-02-25 20:00","2019","02","25","20:00","-1.6","","-3.4","","87","","","","27","","26","","19.3","","97.03","","","","-8","","Snow Showers"
"-63.51","44.88","HALIFAX STANFIELD INT'L A","8202251","2019-02-25 21:00","2019","02","25","21:00","-1.6","","-4.3","","82","","","","28","","26","","12.9","","97.09","","","","-8","","Snow Showers"
"-63.51","44.88","HALIFAX STANFIELD INT'L A","8202251","2019-02-25 22:00","2019","02","25","22:00","-2.6","","-5.5","","81","","","","28","","40","","12.9","","97.17","","","","-11","","Snow Showers,Blowing Snow"
"-63.51","44.88","HALIFAX STANFIELD INT'L A","8202251","2019-02-25 23:00","2019","02","25","23:00","-3.6","","-6.4","","81","","","","27","","36","","6.4","","97.25","","","","-12","","Snow Showers,Blowing Snow"
"-63.51","44.88","HALIFAX STANFIELD INT'L A","8202251","2019-02-26 00:00","2019","02","26","00:00","-4.3","","-7.1","","81","","","","28","","31","","6.4","","97.32","","","","-12","","Snow Showers"
"-63.51","44.88","HALIFAX STANFIELD INT'L A","8202251","2019-02-26 01:00","2019","02","26","01:00","-5.7","","-8.1","","83","","","","28","","44","","4.8","","97.44","","","","-15","","Snow Showers"
"-63.51","44.88","HALIFAX STANFIELD INT'L A","8202251","2019-02-26 02:00","2019","02","26","02:00","-6.4","","-9.3","","80","","","","29","","40","","12.9","","97.55","","","","-16","","Snow Showers"
"-63.51","44.88","HALIFAX STANFIELD INT'L A","8202251","2019-02-26 03:00","2019","02","26","03:00","-7.6","","-10.0","","83","","","","29","","45","","4.8","","97.65","","","","-18","","Snow Showers"
"-63.51","44.88","HALIFAX STANFIELD INT'L A","8202251","2019-02-26 04:00","2019","02","26","04:00","-8.6","","-11.6","","79","","","","29","","45","","16.1","","97.78","","","","-19","","Snow Showers"
"-63.51","44.88","HALIFAX STANFIELD INT'L A","8202251","2019-02-26 05:00","2019","02","26","05:00","-9.5","","-12.5","","79","","","","29","","43","","16.1","","97.91","","","","-20","","Snow Showers"
"-63.51","44.88","HALIFAX STANFIELD INT'L A","8202251","2019-02-26 06:00","2019","02","26","06:00","-10.4","","-13.7","","77","","","","29","","41","","16.1","","98.03","","","","-21","","Snow Showers"
"-63.51","44.88","HALIFAX STANFIELD INT'L A","8202251","2019-02-26 07:00","2019","02","26","07:00","-10.7","","-14.3","","75","","","","29","","46","","19.3","","98.13","","","","-22","","NA"
"-63.51","44.88","HALIFAX STANFIELD INT'L A","8202251","2019-02-26 08:00","2019","02","26","08:00","-11.0","","-15.3","","71","","","","30","","37","","24.1","","98.27","","","","-22","","Mostly Cloudy"
"-63.51","44.88","HALIFAX STANFIELD INT'L A","8202251","2019-02-26 09:00","2019","02","26","09:00","-11.2","","-15.8","","69","","","","28","","39","","16.1","","98.38","","","","-22","","NA"
"-63.51","44.88","HALIFAX STANFIELD INT'L A","8202251","2019-02-26 10:00","2019","02","26","10:00","-11.0","","-16.8","","63","","","","28","","54","","16.1","","98.42","","","","-23","","Snow Showers"
"-63.51","44.88","HALIFAX STANFIELD INT'L A","8202251","2019-02-26 11:00","2019","02","26","11:00","-11.2","","-15.4","","71","","","","28","","41","","4.8","","98.41","","","","-22","","Snow Showers"
"-63.51","44.88","HALIFAX STANFIELD INT'L A","8202251","2019-02-26 12:00","2019","02","26","12:00","-10.7","","-15.3","","69","","","","29","","36","","12.9","","98.40","","","","-21","","Snow Showers"
"-63.51","44.88","HALIFAX STANFIELD INT'L A","8202251","2019-02-26 13:00","2019","02","26","13:00","-10.5","","-15.3","","68","","","","30","","37","","16.1","","98.39","","","","-21","","Snow Showers"
"-63.51","44.88","HALIFAX STANFIELD INT'L A","8202251","2019-02-26 14:00","2019","02","26","14:00","-9.6","","-15.6","","62","","","","30","","44","","24.1","","98.36","","","","-21","","Mostly Cloudy"
"-63.51","44.88","HALIFAX STANFIELD INT'L A","8202251","2019-02-26 15:00","2019","02","26","15:00","-9.0","","-15.9","","58","","","","29","","47","","24.1","","98.34","","","","-20","","NA"
"-63.51","44.88","HALIFAX STANFIELD INT'L A","8202251","2019-02-26 16:00","2019","02","26","16:00","-9.6","","-17.3","","54","","","","28","","52","","24.1","","98.39","","","","-21","","NA"
"-63.51","44.88","HALIFAX STANFIELD INT'L A","8202251","2019-02-26 17:00","2019","02","26","17:00","-9.7","","-18.1","","51","","","","29","","52","","24.1","","98.42","","","","-22","","Mostly Cloudy"
"-63.51","44.88","HALIFAX STANFIELD INT'L A","8202251","2019-02-26 18:00","2019","02","26","18:00","-10.4","","-19.2","","49","","","","29","","43","","24.1","","98.49","","","","-22","","NA"
"-63.51","44.88","HALIFAX STANFIELD INT'L A","8202251","2019-02-26 19:00","2019","02","26","19:00","-11.1","","-18.6","","54","","","","29","","50","","24.1","","98.55","","","","-23","","NA"
"-63.51","44.88","HALIFAX STANFIELD INT'L A","8202251","2019-02-26 20:00","2019","02","26","20:00","-11.8","","-19.0","","56","","","","30","","41","","16.1","","98.62","","","","-23","","Snow"
"-63.51","44.88","HALIFAX STANFIELD INT'L A","8202251","2019-02-26 21:00","2019","02","26","21:00","-13.1","","-20.2","","56","","","","30","","49","","19.3","","98.71","","","","-26","","Snow"
"-63.51","44.88","HALIFAX STANFIELD INT'L A","8202251","2019-02-26 22:00","2019","02","26","22:00","-13.9","","-20.5","","58","","","","28","","50","","19.3","","98.75","","","","-27","","Snow"
"-63.51","44.88","HALIFAX STANFIELD INT'L A","8202251","2019-02-26 23:00","2019","02","26","23:00","-14.7","","-20.3","","63","","","","29","","58","","16.1","","98.76","","","","-29","","Snow"
"-63.51","44.88","HALIFAX STANFIELD INT'L A","8202251","2019-02-27 00:00","2019","02","27","00:00","-15.2","","-19.1","","72","","","","29","","39","","4.8","","98.81","","","","-28","","Snow"
"-63.51","44.88","HALIFAX STANFIELD INT'L A","8202251","2019-02-27 01:00","2019","02","27","01:00","-15.5","","-18.5","","78","","","","29","","39","","2.8","","98.88","","","","-28","","Snow"
"-63.51","44.88","HALIFAX STANFIELD INT'L A","8202251","2019-02-27 02:00","2019","02","27","02:00","-15.7","","-17.8","","84","","","","29","","38","","2.0","","98.92","","","","-28","","Snow"
"-63.51","44.88","HALIFAX STANFIELD INT'L A","8202251","2019-02-27 03:00","2019","02","27","03:00","-15.9","","-18.2","","83","","","","29","","39","","2.0","","98.95","","","","-29","","Snow"
"-63.51","44.88","HALIFAX STANFIELD INT'L A","8202251","2019-02-27 04:00","2019","02","27","04:00","-16.1","","-18.2","","84","","","","30","","32","","2.8","","98.99","","","","-28","","Snow"
"-63.51","44.88","HALIFAX STANFIELD INT'L A","8202251","2019-02-27 05:00","2019","02","27","05:00","-16.2","","-18.4","","83","","","","29","","32","","2.8","","99.13","","","","-28","","Snow"
"-63.51","44.88","HALIFAX STANFIELD INT'L A","8202251","2019-02-27 06:00","2019","02","27","06:00","-16.2","","-19.0","","79","","","","30","","35","","12.9","","99.18","","","","-28","","Snow"
"-63.51","44.88","HALIFAX STANFIELD INT'L A","8202251","2019-02-27 07:00","2019","02","27","07:00","-16.3","","-19.0","","80","","","","29","","36","","12.9","","99.24","","","","-29","","Snow"
"-63.51","44.88","HALIFAX STANFIELD INT'L A","8202251","2019-02-27 08:00","2019","02","27","08:00","-16.2","","-19.2","","78","","","","30","","46","","19.3","","99.33","","","","-30","","Snow,Blowing Snow"
"-63.51","44.88","HALIFAX STANFIELD INT'L A","8202251","2019-02-27 09:00","2019","02","27","09:00","-15.4","","-18.8","","76","","","","30","","34","","19.3","","99.39","","","","-27","","Snow,Snow Grains,Blowing Snow"
"-63.51","44.88","HALIFAX STANFIELD INT'L A","8202251","2019-02-27 10:00","2019","02","27","10:00","-14.6","","-18.9","","70","","","","31","","45","","14.5","","99.39","","","","-28","","Snow,Blowing Snow"
"-63.51","44.88","HALIFAX STANFIELD INT'L A","8202251","2019-02-27 11:00","2019","02","27","11:00","-13.6","","-18.3","","68","","","","30","","43","","24.1","","99.40","","","","-26","","Blowing Snow"
"-63.51","44.88","HALIFAX STANFIELD INT'L A","8202251","2019-02-27 12:00","2019","02","27","12:00","-12.3","","-17.6","","65","","","","29","","38","","24.1","","99.45","","","","-24","","Blowing Snow"
"-63.51","44.88","HALIFAX STANFIELD INT'L A","8202251","2019-02-27 13:00","2019","02","27","13:00","-10.9","","-16.8","","62","","","","29","","30","","24.1","","99.42","","","","-21","","NA"
"-63.51","44.88","HALIFAX STANFIELD INT'L A","8202251","2019-02-27 14:00","2019","02","27","14:00","-10.2","","-16.7","","59","","","","30","","36","","24.1","","99.35","","","","-21","","Mainly Clear"
"-63.51","44.88","HALIFAX STANFIELD INT'L A","8202251","2019-02-27 15:00","2019","02","27","15:00","-9.5","","-16.3","","58","","","","29","","36","","24.1","","99.35","","","","-20","","NA"
"-63.51","44.88","HALIFAX STANFIELD INT'L A","8202251","2019-02-27 16:00","2019","02","27","16:00","-9.1","","-16.5","","55","","","","31","","42","","24.1","","99.40","","","","-20","","NA"
"-63.51","44.88","HALIFAX STANFIELD INT'L A","8202251","2019-02-27 17:00","2019","02","27","17:00","-9.0","","-16.6","","54","","","","30","","26","","24.1","","99.43","","","","-18","","Mainly Clear"
"-63.51","44.88","HALIFAX STANFIELD INT'L A","8202251","2019-02-27 18:00","2019","02","27","18:00","-9.7","","-17.0","","56","","","","29","","23","","24.1","","99.50","","","","-18","","NA"
"-63.51","44.88","HALIFAX STANFIELD INT'L A","8202251","2019-02-27 19:00","2019","02","27","19:00","-9.9","","-17.3","","55","","","","28","","25","","24.1","","99.58","","","","-19","","NA"
"-63.51","44.88","HALIFAX STANFIELD INT'L A","8202251","2019-02-27 20:00","2019","02","27","20:00","-9.9","","-17.6","","54","","","","29","","27","","24.1","","99.63","","","","-19","","Cloudy"
"-63.51","44.88","HALIFAX STANFIELD INT'L A","8202251","2019-02-27 21:00","2019","02","27","21:00","-10.2","","-17.8","","54","","","","29","","28","","24.1","","99.64","","","","-19","","NA"
"-63.51","44.88","HALIFAX STANFIELD INT'L A","8202251","2019-02-27 22:00","2019","02","27","22:00","-10.8","","-18.6","","53","","","","29","","15","","24.1","","99.69","","","","-18","","NA"
"-63.51","44.88","HALIFAX STANFIELD INT'L A","8202251","2019-02-27 23:00","2019","02","27","23:00","-11.2","","-18.7","","54","","","","30","","23","","24.1","","99.67","","","","-20","","Clear"
"-63.51","44.88","HALIFAX STANFIELD INT'L A","8202251","2019-02-28 00:00","2019","02","28","00:00","-11.7","","-19.0","","55","","","","30","","23","","24.1","","99.64","","","","-21","","NA"
"-63.51","44.88","HALIFAX STANFIELD INT'L A","8202251","2019-02-28 01:00","2019","02","28","01:00","-12.2","","-18.9","","58","","","","30","","28","","24.1","","99.63","","","","-22","","NA"
"-63.51","44.88","HALIFAX STANFIELD INT'L A","8202251","2019-02-28 02:00","2019","02","28","02:00","-12.9","","-20.1","","55","","","","30","","26","","24.1","","99.61","","","","-23","","Clear"
"-63.51","44.88","HALIFAX STANFIELD INT'L A","8202251","2019-02-28 03:00","2019","02","28","03:00","-13.5","","-19.9","","59","","","","30","","18","","24.1","","99.59","","","","-22","","NA"
"-63.51","44.88","HALIFAX STANFIELD INT'L A","8202251","2019-02-28 04:00","2019","02","28","04:00","-13.8","","-19.6","","62","","","","31","","22","","24.1","","99.58","","","","-23","","NA"
"-63.51","44.88","HALIFAX STANFIELD INT'L A","8202251","2019-02-28 05:00","2019","02","28","05:00","-13.9","","-19.3","","64","","","","31","","14","","24.1","","99.59","","","","-21","","Mostly Cloudy"
"-63.51","44.88","HALIFAX STANFIELD INT'L A","8202251","2019-02-28 06:00","2019","02","28","06:00","-14.1","","-19.1","","66","","","","28","","14","","24.1","","99.57","","","","-22","","NA"
"-63.51","44.88","HALIFAX STANFIELD INT'L A","8202251","2019-02-28 07:00","2019","02","28","07:00","-14.4","","-19.1","","68","","","","30","","16","","24.1","","99.58","","","","-22","","NA"
"-63.51","44.88","HALIFAX STANFIELD INT'L A","8202251","2019-02-28 08:00","2019","02","28","08:00","-13.8","","-18.9","","66","","","","27","","12","","24.1","","99.61","","","","-21","","Mainly Clear"
"-63.51","44.88","HALIFAX STANFIELD INT'L A","8202251","2019-02-28 09:00","2019","02","28","09:00","-12.3","","-18.2","","62","","","","29","","18","","24.1","","99.62","","","","-20","","NA"
"-63.51","44.88","HALIFAX STANFIELD INT'L A","8202251","2019-02-28 10:00","2019","02","28","10:00","-11.0","","-18.6","","54","","","","29","","18","","24.1","","99.59","","","","-19","","NA"
"-63.51","44.88","HALIFAX STANFIELD INT'L A","8202251","2019-02-28 11:00","2019","02","28","11:00","-9.7","","-19.1","","47","","","","29","","22","","24.1","","99.52","","","","-18","","Clear"
"-63.51","44.88","HALIFAX STANFIELD INT'L A","8202251","2019-02-28 12:00","2019","02","28","12:00","-8.8","","-18.5","","46","","","","28","","20","","24.1","","99.48","","","","-16","","NA"
"-63.51","44.88","HALIFAX STANFIELD INT'L A","8202251","2019-02-28 13:00","2019","02","28","13:00","-8.0","","-19.2","","41","","","","31","","27","","24.1","","99.41","","","","-16","","NA"
"-63.51","44.88","HALIFAX STANFIELD INT'L A","8202251","2019-02-28 14:00","2019","02","28","14:00","-7.2","","-19.6","","37","","","","29","","27","","24.1","","99.40","","","","-15","","Clear"
"-63.51","44.88","HALIFAX STANFIELD INT'L A","8202251","2019-02-28 15:00","2019","02","28","15:00","-7.4","","-18.9","","40","","","","30","","35","","24.1","","99.41","","","","-17","","NA"
"-63.51","44.88","HALIFAX STANFIELD INT'L A","8202251","2019-02-28 16:00","2019","02","28","16:00","-7.7","","-18.0","","44","","","","29","","35","","24.1","","99.43","","","","-17","","NA"
"-63.51","44.88","HALIFAX STANFIELD INT'L A","8202251","2019-02-28 17:00","2019","02","28","17:00","-8.3","","-17.6","","48","","","","29","","29","","24.1","","99.49","","","","-17","","Clear"
"-63.51","44.88","HALIFAX STANFIELD INT'L A","8202251","2019-02-28 18:00","2019","02","28","18:00","-8.8","","-17.8","","49","","","","30","","35","","24.1","","99.56","","","","-19","","NA"
"-63.51","44.88","HALIFAX STANFIELD INT'L A","8202251","2019-02-28 19:00","2019","02","28","19:00","-9.3","","-17.7","","51","","","","29","","24","","24.1","","99.67","","","","-18","","NA"
"-63.51","44.88","HALIFAX STANFIELD INT'L A","8202251","2019-02-28 20:00","2019","02","28","20:00","-9.6","","-17.6","","53","","","","29","","18","","24.1","","99.79","","","","-17","","Clear"
"-63.51","44.88","HALIFAX STANFIELD INT'L A","8202251","2019-02-28 21:00","2019","02","28","21:00","-9.6","","-17.7","","52","","","","31","","22","","24.1","","99.82","","","","-18","","NA"
"-63.51","44.88","HALIFAX STANFIELD INT'L A","8202251","2019-02-28 22:00","2019","02","28","22:00","-10.1","","-17.8","","54","","","","31","","27","","24.1","","99.90","","","","-19","","NA"
"-63.51","44.88","HALIFAX STANFIELD INT'L A","8202251","2019-02-28 23:00","2019","02","28","23:00","-10.2","","-18.2","","52","","","","31","","26","","24.1","","99.95","","","","-19","","Clear"
