"Longitude (x)","Latitude (y)","Station Name","Climate ID","Date/Time (LST)","Year","Month","Day","Time (LST)","Temp (°C)","Temp Flag","Dew Point Temp (°C)","Dew Point Temp Flag","Rel Hum (%)","Rel Hum Flag","Precip. Amount (mm)","Precip. Amount Flag","Wind Dir (10s deg)","Wind Dir Flag","Wind Spd (km/h)","Wind Spd Flag","Visibility (km)","Visibility Flag","Stn Press (kPa)","Stn Press Flag","Hmdx","Hmdx Flag","Wind Chill","Wind Chill Flag","Weather"
"-63.51","44.88","HALIFAX STANFIELD INT'L A","8202251","2018-04-01 00:00","2018","04","01","00:00","0.3","","-6.8","","59","","","","23","","18","","24.1","","100.23","","","","","","NA"
"-63.51","44.88","HALIFAX STANFIELD INT'L A","8202251","2018-04-01 01:00","2018","04","01","01:00","0.0","","-6.6","","61","","","","23","","17","","24.1","","100.29","","","","-5","","NA"
"-63.51","44.88","HALIFAX STANFIELD INT'L A","8202251","2018-04-01 02:00","2018","04","01","02:00","-0.4","","-6.4","","64","","","","21","","14","","24.1","","100.27","","","","-5","","Mostly Cloudy"
"-63.51","44.88","HALIFAX STANFIELD INT'L A","8202251","2018-04-01 03:00","2018","04","01","03:00","-0.3","","-5.9","","66","","","","20","","19","","24.1","","100.22","","","","-5","","NA"
"-63.51","44.88","HALIFAX STANFIELD INT'L A","8202251","2018-04-01 04:00","2018","04","01","04:00","0.0","","-5.5","","67","","","","22","","20","","24.1","","100.20","","","","-5","","NA"
"-63.51","44.88","HALIFAX STANFIELD INT'L A","8202251","2018-04-01 05:00","2018","04","01","05:00","-0.5","","-5.3","","70","","","","22","","20","","24.1","","100.17","","","","-6","","Mostly Cloudy"
"-63.51","44.88","HALIFAX STANFIELD INT'L A","8202251","2018-04-01 06:00","2018","04","01","06:00","-0.2","","-6.0","","65","","","","18","","15","","24.1","","100.10","","","","-5","","NA"
"-63.51","44.88","HALIFAX STANFIELD INT'L A","8202251","2018-04-01 07:00","2018","04","01","07:00","0.6","","-5.4","","64","","","","18","","18","","24.1","","100.08","","","","","","NA"
"-63.51","44.88","HALIFAX STANFIELD INT'L A","8202251","2018-04-01 08:00","2018","04","01","08:00","2.5","","-2.2","","71","","","","20","","21","","24.1","","100.01","","","","","","Cloudy"
"-63.51","44.88","HALIFAX STANFIELD INT'L A","8202251","2018-04-01 09:00","2018","04","01","09:00","3.9","","-2.5","","63","","","","19","","23","","24.1","","99.91","","","","","","NA"
"-63.51","44.88","HALIFAX STANFIELD INT'L A","8202251","2018-04-01 10:00","2018","04","01","10:00","5.0","","-2.2","","59","","","","20","","34","","24.1","","99.84","","","","","","NA"
"-63.51","44.88","HALIFAX STANFIELD INT'L A","8202251","2018-04-01 11:00","2018","04","01","11:00","5.6","","0.4","","69","","","","21","","41","","24.1","","99.75","","","","","","Cloudy"
"-63.51","44.88","HALIFAX STANFIELD INT'L A","8202251","2018-04-01 12:00","2018","04","01","12:00","6.1","","2.1","","75","","","","20","","39","","24.1","","99.58","","","","","","NA"
"-63.51","44.88","HALIFAX STANFIELD INT'L A","8202251","2018-04-01 13:00","2018","04","01","13:00","5.6","","4.1","","90","","","","21","","24","","19.3","","99.49","","","","","","Rain Showers"
"-63.51","44.88","HALIFAX STANFIELD INT'L A","8202251","2018-04-01 14:00","2018","04","01","14:00","5.6","","4.6","","93","","","","20","","34","","16.1","","99.32","","","","","","Rain Showers"
"-63.51","44.88","HALIFAX STANFIELD INT'L A","8202251","2018-04-01 15:00","2018","04","01","15:00","6.4","","4.8","","90","","","","20","","37","","24.1","","99.20","","","","","","Rain"
"-63.51","44.88","HALIFAX STANFIELD INT'L A","8202251","2018-04-01 16:00","2018","04","01","16:00","6.1","","5.1","","93","","","","20","","29","","19.3","","99.11","","","","","","Rain"
"-63.51","44.88","HALIFAX STANFIELD INT'L A","8202251","2018-04-01 17:00","2018","04","01","17:00","6.4","","5.5","","94","","","","22","","37","","16.1","","99.00","","","","","","Rain"
"-63.51","44.88","HALIFAX STANFIELD INT'L A","8202251","2018-04-01 18:00","2018","04","01","18:00","6.2","","5.5","","95","","","","21","","25","","19.3","","98.99","","","","","","Rain"
"-63.51","44.88","HALIFAX STANFIELD INT'L A","8202251","2018-04-01 19:00","2018","04","01","19:00","5.9","","4.9","","93","","","","23","","19","","19.3","","99.03","","","","","","NA"
"-63.51","44.88","HALIFAX STANFIELD INT'L A","8202251","2018-04-01 20:00","2018","04","01","20:00","5.5","","4.5","","94","","","","22","","16","","24.1","","99.07","","","","","","Mostly Cloudy"
"-63.51","44.88","HALIFAX STANFIELD INT'L A","8202251","2018-04-01 21:00","2018","04","01","21:00","4.6","","4.0","","96","","","","22","","18","","24.1","","99.10","","","","","","NA"
"-63.51","44.88","HALIFAX STANFIELD INT'L A","8202251","2018-04-01 22:00","2018","04","01","22:00","3.5","","3.5","","100","","","","25","","21","","24.1","","99.16","","","","","","NA"
"-63.51","44.88","HALIFAX STANFIELD INT'L A","8202251","2018-04-01 23:00","2018","04","01","23:00","3.9","","2.7","","92","","","","29","","21","","24.1","","99.23","","","","","","Mainly Clear"
"-63.51","44.88","HALIFAX STANFIELD INT'L A","8202251","2018-04-02 00:00","2018","04","02","00:00","2.6","","-1.2","","76","","","","31","","24","","24.1","","99.34","","","","","","NA"
"-63.51","44.88","HALIFAX STANFIELD INT'L A","8202251","2018-04-02 01:00","2018","04","02","01:00","1.5","","-4.0","","67","","","","31","","25","","24.1","","99.45","","","","","","NA"
"-63.51","44.88","HALIFAX STANFIELD INT'L A","8202251","2018-04-02 02:00","2018","04","02","02:00","0.2","","-5.7","","65","","","","30","","23","","24.1","","99.57","","","","","","Clear"
"-63.51","44.88","HALIFAX STANFIELD INT'L A","8202251","2018-04-02 03:00","2018","04","02","03:00","-0.6","","-7.0","","62","","","","31","","24","","24.1","","99.62","","","","-7","","NA"
"-63.51","44.88","HALIFAX STANFIELD INT'L A","8202251","2018-04-02 04:00","2018","04","02","04:00","-1.1","","-7.2","","63","","","","31","","21","","24.1","","99.69","","","","-7","","NA"
"-63.51","44.88","HALIFAX STANFIELD INT'L A","8202251","2018-04-02 05:00","2018","04","02","05:00","-1.7","","-7.4","","65","","","","31","","17","","24.1","","99.76","","","","-7","","Mainly Clear"
"-63.51","44.88","HALIFAX STANFIELD INT'L A","8202251","2018-04-02 06:00","2018","04","02","06:00","-2.5","","-7.5","","69","","","","31","","12","","24.1","","99.85","","","","-7","","NA"
"-63.51","44.88","HALIFAX STANFIELD INT'L A","8202251","2018-04-02 07:00","2018","04","02","07:00","-1.6","","-7.9","","62","","","","32","","13","","24.1","","99.91","","","","-6","","NA"
"-63.51","44.88","HALIFAX STANFIELD INT'L A","8202251","2018-04-02 08:00","2018","04","02","08:00","-0.3","","-8.5","","54","","","","33","","21","","24.1","","99.96","","","","-6","","Mainly Clear"
"-63.51","44.88","HALIFAX STANFIELD INT'L A","8202251","2018-04-02 09:00","2018","04","02","09:00","0.4","","-8.7","","51","","","","32","","18","","24.1","","100.01","","","","","","NA"
"-63.51","44.88","HALIFAX STANFIELD INT'L A","8202251","2018-04-02 10:00","2018","04","02","10:00","0.4","","-7.6","","55","","","","32","","12","","24.1","","100.01","","","","","","NA"
"-63.51","44.88","HALIFAX STANFIELD INT'L A","8202251","2018-04-02 11:00","2018","04","02","11:00","1.0","","-8.5","","49","","","","29","","4","","24.1","","100.00","","","","","","Cloudy"
"-63.51","44.88","HALIFAX STANFIELD INT'L A","8202251","2018-04-02 12:00","2018","04","02","12:00","1.8","","-9.1","","45","","","","30","","13","","24.1","","99.97","","","","","","NA"
"-63.51","44.88","HALIFAX STANFIELD INT'L A","8202251","2018-04-02 13:00","2018","04","02","13:00","1.8","","-9.3","","44","","","","26","","21","","24.1","","99.94","","","","","","NA"
"-63.51","44.88","HALIFAX STANFIELD INT'L A","8202251","2018-04-02 14:00","2018","04","02","14:00","2.1","","-8.5","","45","","","","32","","13","","24.1","","99.91","","","","","","Cloudy"
"-63.51","44.88","HALIFAX STANFIELD INT'L A","8202251","2018-04-02 15:00","2018","04","02","15:00","2.6","","-7.8","","46","","","","31","","17","","24.1","","99.89","","","","","","NA"
"-63.51","44.88","HALIFAX STANFIELD INT'L A","8202251","2018-04-02 16:00","2018","04","02","16:00","2.7","","-8.6","","43","","","","31","","21","","24.1","","99.89","","","","","","NA"
"-63.51","44.88","HALIFAX STANFIELD INT'L A","8202251","2018-04-02 17:00","2018","04","02","17:00","2.6","","-9.5","","41","","","","29","","14","","24.1","","99.89","","","","","","Cloudy"
"-63.51","44.88","HALIFAX STANFIELD INT'L A","8202251","2018-04-02 18:00","2018","04","02","18:00","1.9","","-10.0","","41","","","","34","","16","","24.1","","99.96","","","","","","NA"
"-63.51","44.88","HALIFAX STANFIELD INT'L A","8202251","2018-04-02 19:00","2018","04","02","19:00","0.0","","-10.1","","47","","","","33","","14","","24.1","","99.98","","","","-4","","NA"
"-63.51","44.88","HALIFAX STANFIELD INT'L A","8202251","2018-04-02 20:00","2018","04","02","20:00","-0.9","","-9.8","","51","","","","34","","15","","24.1","","100.01","","","","-6","","Mainly Clear"
"-63.51","44.88","HALIFAX STANFIELD INT'L A","8202251","2018-04-02 21:00","2018","04","02","21:00","-1.7","","-9.8","","54","","","","33","","9","","24.1","","100.09","","","","-5","","NA"
"-63.51","44.88","HALIFAX STANFIELD INT'L A","8202251","2018-04-02 22:00","2018","04","02","22:00","-2.4","","-7.5","","68","","","","32","","10","","24.1","","100.12","","","","-6","","NA"
"-63.51","44.88","HALIFAX STANFIELD INT'L A","8202251","2018-04-02 23:00","2018","04","02","23:00","-1.8","","-6.8","","69","","","","29","","11","","24.1","","100.16","","","","-6","","Clear"
"-63.51","44.88","HALIFAX STANFIELD INT'L A","8202251","2018-04-03 00:00","2018","04","03","00:00","-2.3","","-7.0","","70","","","","28","","11","","24.1","","100.21","","","","-6","","NA"
"-63.51","44.88","HALIFAX STANFIELD INT'L A","8202251","2018-04-03 01:00","2018","04","03","01:00","-2.5","","-6.7","","73","","","","28","","12","","24.1","","100.27","","","","-7","","NA"
"-63.51","44.88","HALIFAX STANFIELD INT'L A","8202251","2018-04-03 02:00","2018","04","03","02:00","-2.4","","-6.0","","76","","","","28","","10","","24.1","","100.28","","","","-6","","Clear"
"-63.51","44.88","HALIFAX STANFIELD INT'L A","8202251","2018-04-03 03:00","2018","04","03","03:00","-2.5","","-5.5","","80","","","","29","","11","","24.1","","100.24","","","","-7","","NA"
"-63.51","44.88","HALIFAX STANFIELD INT'L A","8202251","2018-04-03 04:00","2018","04","03","04:00","-3.2","","-5.7","","83","","","","26","","6","","24.1","","100.29","","","","-6","","NA"
"-63.51","44.88","HALIFAX STANFIELD INT'L A","8202251","2018-04-03 05:00","2018","04","03","05:00","-3.2","","-5.4","","85","","","","27","","8","","24.1","","100.35","","","","-6","","Mainly Clear"
"-63.51","44.88","HALIFAX STANFIELD INT'L A","8202251","2018-04-03 06:00","2018","04","03","06:00","-2.8","","-5.0","","85","","","","28","","9","","24.1","","100.48","","","","-6","","NA"
"-63.51","44.88","HALIFAX STANFIELD INT'L A","8202251","2018-04-03 07:00","2018","04","03","07:00","-1.3","","-3.5","","85","","","","22","","3","","24.1","","100.55","","","","-2","","NA"
"-63.51","44.88","HALIFAX STANFIELD INT'L A","8202251","2018-04-03 08:00","2018","04","03","08:00","0.3","","-2.6","","81","","","","21","","6","","24.1","","100.56","","","","","","Mostly Cloudy"
"-63.51","44.88","HALIFAX STANFIELD INT'L A","8202251","2018-04-03 09:00","2018","04","03","09:00","2.0","","-3.9","","65","","","","36","","3","","24.1","","100.58","","","","","","NA"
"-63.51","44.88","HALIFAX STANFIELD INT'L A","8202251","2018-04-03 10:00","2018","04","03","10:00","3.9","","-6.0","","49","","","","22","","14","","24.1","","100.57","","","","","","NA"
"-63.51","44.88","HALIFAX STANFIELD INT'L A","8202251","2018-04-03 11:00","2018","04","03","11:00","4.5","","-6.6","","44","","","","26","","14","","24.1","","100.54","","","","","","Mostly Cloudy"
"-63.51","44.88","HALIFAX STANFIELD INT'L A","8202251","2018-04-03 12:00","2018","04","03","12:00","6.1","","-6.4","","40","","","","23","","26","","24.1","","100.46","","","","","","NA"
"-63.51","44.88","HALIFAX STANFIELD INT'L A","8202251","2018-04-03 13:00","2018","04","03","13:00","6.8","","-6.2","","39","","","","28","","10","","24.1","","100.40","","","","","","NA"
"-63.51","44.88","HALIFAX STANFIELD INT'L A","8202251","2018-04-03 14:00","2018","04","03","14:00","7.2","","-7.9","","33","","","","32","","23","","24.1","","100.43","","","","","","Mostly Cloudy"
"-63.51","44.88","HALIFAX STANFIELD INT'L A","8202251","2018-04-03 15:00","2018","04","03","15:00","7.3","","-6.7","","36","","","","29","","17","","24.1","","100.38","","","","","","NA"
"-63.51","44.88","HALIFAX STANFIELD INT'L A","8202251","2018-04-03 16:00","2018","04","03","16:00","6.4","","-4.0","","48","","","","22","","35","","24.1","","100.37","","","","","","NA"
"-63.51","44.88","HALIFAX STANFIELD INT'L A","8202251","2018-04-03 17:00","2018","04","03","17:00","4.7","","-3.8","","54","","","","21","","26","","24.1","","100.40","","","","","","Cloudy"
"-63.51","44.88","HALIFAX STANFIELD INT'L A","8202251","2018-04-03 18:00","2018","04","03","18:00","3.3","","-5.9","","51","","","","22","","27","","24.1","","100.48","","","","","","NA"
"-63.51","44.88","HALIFAX STANFIELD INT'L A","8202251","2018-04-03 19:00","2018","04","03","19:00","1.8","","-4.9","","61","","","","21","","20","","24.1","","100.48","","","","","","NA"
"-63.51","44.88","HALIFAX STANFIELD INT'L A","8202251","2018-04-03 20:00","2018","04","03","20:00","1.5","","-4.6","","64","","","","20","","23","","24.1","","100.45","","","","","","Cloudy"
"-63.51","44.88","HALIFAX STANFIELD INT'L A","8202251","2018-04-03 21:00","2018","04","03","21:00","1.7","","-5.7","","58","","","","20","","20","","24.1","","100.45","","","","","","NA"
"-63.51","44.88","HALIFAX STANFIELD INT'L A","8202251","2018-04-03 22:00","2018","04","03","22:00","1.2","","-5.5","","61","","","","17","","13","","24.1","","100.40","","","","","","NA"
"-63.51","44.88","HALIFAX STANFIELD INT'L A","8202251","2018-04-03 23:00","2018","04","03","23:00","1.0","","-4.2","","68","","","","16","","9","","24.1","","100.39","","","","","","Cloudy"
"-63.51","44.88","HALIFAX STANFIELD INT'L A","8202251","2018-04-04 00:00","2018","04","04","00:00","1.1","","-2.8","","75","","","","16","","9","","24.1","","100.34","","","","","","NA"
"-63.51","44.88","HALIFAX STANFIELD INT'L A","8202251","2018-04-04 01:00","2018","04","04","01:00","1.3","","-1.6","","81","","","","19","","17","","16.1","","100.29","","","","","","Snow"
"-63.51","44.88","HALIFAX STANFIELD INT'L A","8202251","2018-04-04 02:00","2018","04","04","02:00","0.4","","0.4","","100","","","","17","","10","","2.4","","100.25","","","","","","Snow"
"-63.51","44.88","HALIFAX STANFIELD INT'L A","8202251","2018-04-04 03:00","2018","04","04","03:00","0.2","","0.2","","100","","","","14","","15","","2.4","","100.18","","","","","","Snow"
"-63.51","44.88","HALIFAX STANFIELD INT'L A","8202251","2018-04-04 04:00","2018","04","04","04:00","0.2","","0.2","","100","","","","13","","17","","2.4","","100.04","","","","","","Snow,Fog"
"-63.51","44.88","HALIFAX STANFIELD INT'L A","8202251","2018-04-04 05:00","2018","04","04","05:00","0.3","","0.3","","100","","","","12","","18","","2.4","","99.86","","","","","","Snow,Fog"
"-63.51","44.88","HALIFAX STANFIELD INT'L A","8202251","2018-04-04 06:00","2018","04","04","06:00","0.4","","0.4","","100","","","","13","","28","","2.4","","99.76","","","","","","Snow,Fog"
"-63.51","44.88","HALIFAX STANFIELD INT'L A","8202251","2018-04-04 07:00","2018","04","04","07:00","0.5","","0.5","","100","","","","13","","26","","2.4","","99.64","","","","","","Rain,Fog"
"-63.51","44.88","HALIFAX STANFIELD INT'L A","8202251","2018-04-04 08:00","2018","04","04","08:00","0.9","","0.9","","100","","","","12","","26","","2.8","","99.44","","","","","","Rain,Fog"
"-63.51","44.88","HALIFAX STANFIELD INT'L A","8202251","2018-04-04 09:00","2018","04","04","09:00","1.8","","1.8","","100","","","","12","","32","","2.8","","99.22","","","","","","Rain,Fog"
"-63.51","44.88","HALIFAX STANFIELD INT'L A","8202251","2018-04-04 10:00","2018","04","04","10:00","3.0","","3.0","","100","","","","14","","29","","2.8","","99.04","","","","","","Rain,Fog"
"-63.51","44.88","HALIFAX STANFIELD INT'L A","8202251","2018-04-04 11:00","2018","04","04","11:00","3.6","","3.6","","100","","","","13","","33","","2.4","","98.85","","","","","","Rain,Fog"
"-63.51","44.88","HALIFAX STANFIELD INT'L A","8202251","2018-04-04 12:00","2018","04","04","12:00","4.4","","4.4","","100","","","","14","","31","","0.8","","98.69","","","","","","Rain,Fog"
"-63.51","44.88","HALIFAX STANFIELD INT'L A","8202251","2018-04-04 13:00","2018","04","04","13:00","5.4","","5.4","","100","","","","15","","17","","1.0","","98.57","","","","","","Rain,Fog"
"-63.51","44.88","HALIFAX STANFIELD INT'L A","8202251","2018-04-04 14:00","2018","04","04","14:00","7.6","","7.6","","100","","","","18","","27","","0.8","","98.41","","","","","","Fog"
"-63.51","44.88","HALIFAX STANFIELD INT'L A","8202251","2018-04-04 15:00","2018","04","04","15:00","8.3","","8.3","","100","","","","19","","28","","1.2","","98.30","","","","","","Drizzle,Fog"
"-63.51","44.88","HALIFAX STANFIELD INT'L A","8202251","2018-04-04 16:00","2018","04","04","16:00","9.4","","9.4","","100","","","","20","","30","","0.8","","98.17","","","","","","Drizzle,Fog"
"-63.51","44.88","HALIFAX STANFIELD INT'L A","8202251","2018-04-04 17:00","2018","04","04","17:00","10.3","","10.3","","100","","","","21","","41","","0.4","","98.08","","","","","","Drizzle,Fog"
"-63.51","44.88","HALIFAX STANFIELD INT'L A","8202251","2018-04-04 18:00","2018","04","04","18:00","10.4","","10.4","","100","","","","20","","38","","1.6","","98.02","","","","","","Fog"
"-63.51","44.88","HALIFAX STANFIELD INT'L A","8202251","2018-04-04 19:00","2018","04","04","19:00","10.9","","10.9","","100","","","","20","","39","","2.4","","97.92","","","","","","Fog"
"-63.51","44.88","HALIFAX STANFIELD INT'L A","8202251","2018-04-04 20:00","2018","04","04","20:00","11.1","","11.1","","100","","","","20","","39","","3.2","","97.81","","","","","","Rain Showers,Fog"
"-63.51","44.88","HALIFAX STANFIELD INT'L A","8202251","2018-04-04 21:00","2018","04","04","21:00","10.7","","10.7","","100","","","","20","","41","","4.8","","97.75","","","","","","Rain Showers,Fog"
"-63.51","44.88","HALIFAX STANFIELD INT'L A","8202251","2018-04-04 22:00","2018","04","04","22:00","10.6","","10.6","","100","","","","20","","31","","8.1","","97.66","","","","","","Rain Showers,Fog"
"-63.51","44.88","HALIFAX STANFIELD INT'L A","8202251","2018-04-04 23:00","2018","04","04","23:00","11.6","","11.6","","100","","","","21","","50","","6.4","","97.52","","","","","","Rain Showers"
"-63.51","44.88","HALIFAX STANFIELD INT'L A","8202251","2018-04-05 00:00","2018","04","05","00:00","10.1","","10.1","","100","","","","20","","34","","8.1","","97.45","","","","","","Rain Showers"
"-63.51","44.88","HALIFAX STANFIELD INT'L A","8202251","2018-04-05 01:00","2018","04","05","01:00","9.1","","9.1","","100","","","","19","","27","","11.3","","97.42","","","","","","Rain"
"-63.51","44.88","HALIFAX STANFIELD INT'L A","8202251","2018-04-05 02:00","2018","04","05","02:00","7.9","","7.9","","100","","","","22","","28","","4.8","","97.45","","","","","","Fog"
"-63.51","44.88","HALIFAX STANFIELD INT'L A","8202251","2018-04-05 03:00","2018","04","05","03:00","7.9","","7.9","","100","","","","27","","32","","16.1","","97.60","","","","","","NA"
"-63.51","44.88","HALIFAX STANFIELD INT'L A","8202251","2018-04-05 04:00","2018","04","05","04:00","5.9","","4.2","","89","","","","25","","26","","24.1","","97.70","","","","","","NA"
"-63.51","44.88","HALIFAX STANFIELD INT'L A","8202251","2018-04-05 05:00","2018","04","05","05:00","5.0","","3.5","","90","","","","24","","34","","24.1","","97.75","","","","","","Cloudy"
"-63.51","44.88","HALIFAX STANFIELD INT'L A","8202251","2018-04-05 06:00","2018","04","05","06:00","3.2","","-0.6","","76","","","","25","","45","","24.1","","97.87","","","","","","NA"
"-63.51","44.88","HALIFAX STANFIELD INT'L A","8202251","2018-04-05 07:00","2018","04","05","07:00","2.5","","-0.5","","81","","","","24","","33","","24.1","","97.96","","","","","","NA"
"-63.51","44.88","HALIFAX STANFIELD INT'L A","8202251","2018-04-05 08:00","2018","04","05","08:00","1.0","","-0.2","","92","","","","26","","32","","19.3","","98.11","","","","","","Mostly Cloudy"
"-63.51","44.88","HALIFAX STANFIELD INT'L A","8202251","2018-04-05 09:00","2018","04","05","09:00","1.2","","-3.6","","70","","","","27","","40","","24.1","","98.21","","","","","","NA"
"-63.51","44.88","HALIFAX STANFIELD INT'L A","8202251","2018-04-05 10:00","2018","04","05","10:00","2.3","","-4.2","","62","","","","25","","37","","24.1","","98.22","","","","","","NA"
"-63.51","44.88","HALIFAX STANFIELD INT'L A","8202251","2018-04-05 11:00","2018","04","05","11:00","2.1","","-5.0","","59","","","","28","","41","","24.1","","98.28","","","","","","Mainly Clear"
"-63.51","44.88","HALIFAX STANFIELD INT'L A","8202251","2018-04-05 12:00","2018","04","05","12:00","2.1","","-5.1","","59","","","","28","","28","","24.1","","98.33","","","","","","NA"
"-63.51","44.88","HALIFAX STANFIELD INT'L A","8202251","2018-04-05 13:00","2018","04","05","13:00","2.9","","-5.4","","54","","","","25","","27","","24.1","","98.35","","","","","","NA"
"-63.51","44.88","HALIFAX STANFIELD INT'L A","8202251","2018-04-05 14:00","2018","04","05","14:00","2.4","","-7.1","","50","","","","28","","37","","24.1","","98.45","","","","","","Mainly Clear"
"-63.51","44.88","HALIFAX STANFIELD INT'L A","8202251","2018-04-05 15:00","2018","04","05","15:00","2.2","","-8.0","","47","","","","27","","33","","24.1","","98.51","","","","","","NA"
"-63.51","44.88","HALIFAX STANFIELD INT'L A","8202251","2018-04-05 16:00","2018","04","05","16:00","1.4","","-8.9","","47","","","","26","","40","","24.1","","98.53","","","","","","NA"
"-63.51","44.88","HALIFAX STANFIELD INT'L A","8202251","2018-04-05 17:00","2018","04","05","17:00","0.3","","-8.5","","52","","","","28","","31","","24.1","","98.65","","","","","","Mainly Clear"
"-63.51","44.88","HALIFAX STANFIELD INT'L A","8202251","2018-04-05 18:00","2018","04","05","18:00","-0.7","","-9.5","","52","","","","26","","28","","24.1","","98.73","","","","-7","","NA"
"-63.51","44.88","HALIFAX STANFIELD INT'L A","8202251","2018-04-05 19:00","2018","04","05","19:00","-1.1","","-9.5","","53","","","","26","","30","","24.1","","98.84","","","","-8","","NA"
"-63.51","44.88","HALIFAX STANFIELD INT'L A","8202251","2018-04-05 20:00","2018","04","05","20:00","-1.2","","-9.3","","54","","","","25","","22","","24.1","","98.96","","","","-7","","Mostly Cloudy"
"-63.51","44.88","HALIFAX STANFIELD INT'L A","8202251","2018-04-05 21:00","2018","04","05","21:00","-1.4","","-11.7","","46","","","","27","","44","","24.1","","99.06","","","","-10","","NA"
"-63.51","44.88","HALIFAX STANFIELD INT'L A","8202251","2018-04-05 22:00","2018","04","05","22:00","-1.8","","-10.8","","51","","","","29","","23","","24.1","","99.15","","","","-8","","NA"
"-63.51","44.88","HALIFAX STANFIELD INT'L A","8202251","2018-04-05 23:00","2018","04","05","23:00","-2.5","","-10.8","","53","","","","30","","26","","24.1","","99.20","","","","-9","","Mainly Clear"
"-63.51","44.88","HALIFAX STANFIELD INT'L A","8202251","2018-04-06 00:00","2018","04","06","00:00","-3.0","","-11.6","","52","","","","29","","33","","24.1","","99.30","","","","-11","","NA"
"-63.51","44.88","HALIFAX STANFIELD INT'L A","8202251","2018-04-06 01:00","2018","04","06","01:00","-3.9","","-12.0","","54","","","","29","","23","","24.1","","99.39","","","","-11","","NA"
"-63.51","44.88","HALIFAX STANFIELD INT'L A","8202251","2018-04-06 02:00","2018","04","06","02:00","-4.6","","-13.1","","52","","","","28","","25","","24.1","","99.42","","","","-12","","Clear"
"-63.51","44.88","HALIFAX STANFIELD INT'L A","8202251","2018-04-06 03:00","2018","04","06","03:00","-5.1","","-13.0","","54","","","","29","","19","","24.1","","99.50","","","","-12","","NA"
"-63.51","44.88","HALIFAX STANFIELD INT'L A","8202251","2018-04-06 04:00","2018","04","06","04:00","-5.6","","-13.9","","52","","","","28","","25","","24.1","","99.58","","","","-13","","NA"
"-63.51","44.88","HALIFAX STANFIELD INT'L A","8202251","2018-04-06 05:00","2018","04","06","05:00","-5.9","","-13.5","","55","","","","27","","23","","24.1","","99.65","","","","-13","","Mainly Clear"
"-63.51","44.88","HALIFAX STANFIELD INT'L A","8202251","2018-04-06 06:00","2018","04","06","06:00","-6.1","","-13.5","","56","","","","27","","22","","24.1","","99.73","","","","-13","","NA"
"-63.51","44.88","HALIFAX STANFIELD INT'L A","8202251","2018-04-06 07:00","2018","04","06","07:00","-5.2","","-13.6","","52","","","","27","","25","","24.1","","99.82","","","","-13","","NA"
"-63.51","44.88","HALIFAX STANFIELD INT'L A","8202251","2018-04-06 08:00","2018","04","06","08:00","-4.5","","-13.4","","50","","","","29","","30","","24.1","","99.88","","","","-12","","Mainly Clear"
"-63.51","44.88","HALIFAX STANFIELD INT'L A","8202251","2018-04-06 09:00","2018","04","06","09:00","-3.4","","-14.5","","42","","","","27","","39","","24.1","","99.89","","","","-12","","NA"
"-63.51","44.88","HALIFAX STANFIELD INT'L A","8202251","2018-04-06 10:00","2018","04","06","10:00","-2.4","","-13.2","","44","","","","28","","23","","24.1","","99.93","","","","-9","","NA"
"-63.51","44.88","HALIFAX STANFIELD INT'L A","8202251","2018-04-06 11:00","2018","04","06","11:00","-1.3","","-13.8","","38","","","","30","","33","","24.1","","99.93","","","","-8","","Mainly Clear"
"-63.51","44.88","HALIFAX STANFIELD INT'L A","8202251","2018-04-06 12:00","2018","04","06","12:00","-0.4","","-12.5","","40","","","","28","","33","","24.1","","99.91","","","","-7","","NA"
"-63.51","44.88","HALIFAX STANFIELD INT'L A","8202251","2018-04-06 13:00","2018","04","06","13:00","0.8","","-13.5","","34","","","","28","","32","","24.1","","99.89","","","","","","NA"
"-63.51","44.88","HALIFAX STANFIELD INT'L A","8202251","2018-04-06 14:00","2018","04","06","14:00","1.5","","-13.4","","32","","","","30","","23","","24.1","","99.89","","","","","","Mainly Clear"
"-63.51","44.88","HALIFAX STANFIELD INT'L A","8202251","2018-04-06 15:00","2018","04","06","15:00","2.4","","-14.4","","28","","","","23","","23","","24.1","","99.82","","","","","","NA"
"-63.51","44.88","HALIFAX STANFIELD INT'L A","8202251","2018-04-06 16:00","2018","04","06","16:00","2.9","","-14.3","","27","","","","24","","28","","24.1","","99.78","","","","","","NA"
"-63.51","44.88","HALIFAX STANFIELD INT'L A","8202251","2018-04-06 17:00","2018","04","06","17:00","2.7","","-13.6","","29","","","","22","","23","","24.1","","99.74","","","","","","Mainly Clear"
"-63.51","44.88","HALIFAX STANFIELD INT'L A","8202251","2018-04-06 18:00","2018","04","06","18:00","1.1","","-9.1","","47","","","","19","","20","","24.1","","99.74","","","","","","NA"
"-63.51","44.88","HALIFAX STANFIELD INT'L A","8202251","2018-04-06 19:00","2018","04","06","19:00","0.1","","-5.3","","67","","","","19","","28","","24.1","","99.68","","","","","","NA"
"-63.51","44.88","HALIFAX STANFIELD INT'L A","8202251","2018-04-06 20:00","2018","04","06","20:00","-0.2","","-5.0","","70","","","","20","","20","","24.1","","99.65","","","","-5","","Cloudy"
"-63.51","44.88","HALIFAX STANFIELD INT'L A","8202251","2018-04-06 21:00","2018","04","06","21:00","-0.1","","-4.5","","72","","","","20","","22","","8.1","","99.69","","","","-6","","Snow"
"-63.51","44.88","HALIFAX STANFIELD INT'L A","8202251","2018-04-06 22:00","2018","04","06","22:00","-1.5","","-1.6","","99","","","","17","","18","","2.4","","99.62","","","","-7","","Snow"
"-63.51","44.88","HALIFAX STANFIELD INT'L A","8202251","2018-04-06 23:00","2018","04","06","23:00","-1.2","","-1.2","","100","","","","16","","12","","1.6","","99.44","","","","-5","","Snow"
"-63.51","44.88","HALIFAX STANFIELD INT'L A","8202251","2018-04-07 00:00","2018","04","07","00:00","-0.9","","-0.9","","100","","","","15","","17","","1.2","","99.26","","","","-6","","Snow"
"-63.51","44.88","HALIFAX STANFIELD INT'L A","8202251","2018-04-07 01:00","2018","04","07","01:00","-0.3","","-0.3","","100","","","","19","","20","","3.2","","99.09","","","","-6","","Snow"
"-63.51","44.88","HALIFAX STANFIELD INT'L A","8202251","2018-04-07 02:00","2018","04","07","02:00","0.1","","0.1","","100","","","","14","","26","","0.8","","98.92","","","","","","Fog"
"-63.51","44.88","HALIFAX STANFIELD INT'L A","8202251","2018-04-07 03:00","2018","04","07","03:00","0.3","","0.3","","100","","","","14","","20","","1.0","","98.79","","","","","","Fog"
"-63.51","44.88","HALIFAX STANFIELD INT'L A","8202251","2018-04-07 04:00","2018","04","07","04:00","0.6","","0.6","","100","","","","15","","11","","0.6","","98.75","","","","","","Fog"
"-63.51","44.88","HALIFAX STANFIELD INT'L A","8202251","2018-04-07 05:00","2018","04","07","05:00","1.0","","1.0","","100","","","","19","","10","","3.2","","98.72","","","","","","Rain,Fog"
"-63.51","44.88","HALIFAX STANFIELD INT'L A","8202251","2018-04-07 06:00","2018","04","07","06:00","1.3","","1.3","","100","","","","22","","16","","6.4","","98.69","","","","","","Rain,Fog"
"-63.51","44.88","HALIFAX STANFIELD INT'L A","8202251","2018-04-07 07:00","2018","04","07","07:00","1.0","","1.0","","100","","","","23","","15","","6.4","","98.67","","","","","","Rain,Fog"
"-63.51","44.88","HALIFAX STANFIELD INT'L A","8202251","2018-04-07 08:00","2018","04","07","08:00","1.1","","1.1","","100","","","","22","","16","","6.4","","98.63","","","","","","Rain,Snow,Fog"
"-63.51","44.88","HALIFAX STANFIELD INT'L A","8202251","2018-04-07 09:00","2018","04","07","09:00","0.9","","0.9","","100","","","","21","","13","","3.2","","98.58","","","","","","Rain,Snow,Fog"
"-63.51","44.88","HALIFAX STANFIELD INT'L A","8202251","2018-04-07 10:00","2018","04","07","10:00","1.4","","1.4","","100","","","","20","","19","","4.8","","98.52","","","","","","Rain,Snow,Fog"
"-63.51","44.88","HALIFAX STANFIELD INT'L A","8202251","2018-04-07 11:00","2018","04","07","11:00","1.9","","1.9","","100","","","","20","","19","","6.4","","98.50","","","","","","Rain,Fog"
"-63.51","44.88","HALIFAX STANFIELD INT'L A","8202251","2018-04-07 12:00","2018","04","07","12:00","2.7","","2.7","","100","","","","23","","24","","24.1","","98.52","","","","","","NA"
"-63.51","44.88","HALIFAX STANFIELD INT'L A","8202251","2018-04-07 13:00","2018","04","07","13:00","2.8","","2.8","","100","","","","24","","25","","19.3","","98.51","","","","","","Rain"
"-63.51","44.88","HALIFAX STANFIELD INT'L A","8202251","2018-04-07 14:00","2018","04","07","14:00","2.7","","2.7","","100","","","","25","","25","","24.1","","98.56","","","","","","Rain"
"-63.51","44.88","HALIFAX STANFIELD INT'L A","8202251","2018-04-07 15:00","2018","04","07","15:00","3.3","","2.7","","96","","","","27","","17","","24.1","","98.64","","","","","","Rain Showers"
"-63.51","44.88","HALIFAX STANFIELD INT'L A","8202251","2018-04-07 16:00","2018","04","07","16:00","3.5","","1.5","","87","","","","26","","17","","24.1","","98.67","","","","","","NA"
"-63.51","44.88","HALIFAX STANFIELD INT'L A","8202251","2018-04-07 17:00","2018","04","07","17:00","3.0","","0.7","","85","","","","27","","17","","24.1","","98.75","","","","","","Cloudy"
"-63.51","44.88","HALIFAX STANFIELD INT'L A","8202251","2018-04-07 18:00","2018","04","07","18:00","2.9","","0.7","","85","","","","26","","12","","24.1","","98.80","","","","","","NA"
"-63.51","44.88","HALIFAX STANFIELD INT'L A","8202251","2018-04-07 19:00","2018","04","07","19:00","1.7","","0.4","","91","","","","25","","13","","24.1","","98.87","","","","","","NA"
"-63.51","44.88","HALIFAX STANFIELD INT'L A","8202251","2018-04-07 20:00","2018","04","07","20:00","1.1","","0.4","","95","","","","23","","14","","24.1","","99.00","","","","","","Mainly Clear"
"-63.51","44.88","HALIFAX STANFIELD INT'L A","8202251","2018-04-07 21:00","2018","04","07","21:00","0.5","","-0.1","","96","","","","23","","12","","24.1","","99.15","","","","","","NA"
"-63.51","44.88","HALIFAX STANFIELD INT'L A","8202251","2018-04-07 22:00","2018","04","07","22:00","0.4","","-0.4","","94","","","","25","","16","","24.1","","99.13","","","","","","NA"
"-63.51","44.88","HALIFAX STANFIELD INT'L A","8202251","2018-04-07 23:00","2018","04","07","23:00","0.3","","-0.6","","94","","","","26","","16","","24.1","","99.17","","","","","","Clear"
"-63.51","44.88","HALIFAX STANFIELD INT'L A","8202251","2018-04-08 00:00","2018","04","08","00:00","0.2","","-0.6","","94","","","","25","","15","","24.1","","99.18","","","","","","NA"
"-63.51","44.88","HALIFAX STANFIELD INT'L A","8202251","2018-04-08 01:00","2018","04","08","01:00","-0.5","","-0.9","","97","","","","24","","14","","24.1","","99.20","","","","-5","","NA"
"-63.51","44.88","HALIFAX STANFIELD INT'L A","8202251","2018-04-08 02:00","2018","04","08","02:00","-0.5","","-0.8","","98","","","","23","","9","","24.1","","99.23","","","","-4","","Mainly Clear"
"-63.51","44.88","HALIFAX STANFIELD INT'L A","8202251","2018-04-08 03:00","2018","04","08","03:00","-0.5","","-1.1","","96","","","","25","","8","","24.1","","99.24","","","","-3","","NA"
"-63.51","44.88","HALIFAX STANFIELD INT'L A","8202251","2018-04-08 04:00","2018","04","08","04:00","0.0","","-1.6","","89","","","","28","","13","","24.1","","99.24","","","","-4","","NA"
"-63.51","44.88","HALIFAX STANFIELD INT'L A","8202251","2018-04-08 05:00","2018","04","08","05:00","0.0","","-1.9","","87","","","","29","","9","","24.1","","99.27","","","","-3","","Cloudy"
"-63.51","44.88","HALIFAX STANFIELD INT'L A","8202251","2018-04-08 06:00","2018","04","08","06:00","0.1","","-2.5","","83","","","","27","","7","","24.1","","99.31","","","","","","NA"
"-63.51","44.88","HALIFAX STANFIELD INT'L A","8202251","2018-04-08 07:00","2018","04","08","07:00","0.5","","-2.6","","80","","","","30","","9","","24.1","","99.26","","","","","","NA"
"-63.51","44.88","HALIFAX STANFIELD INT'L A","8202251","2018-04-08 08:00","2018","04","08","08:00","0.5","","-2.6","","80","","","","34","","5","","24.1","","99.25","","","","","","Cloudy"
"-63.51","44.88","HALIFAX STANFIELD INT'L A","8202251","2018-04-08 09:00","2018","04","08","09:00","0.9","","-2.4","","79","","","","3","","6","","24.1","","99.22","","","","","","NA"
"-63.51","44.88","HALIFAX STANFIELD INT'L A","8202251","2018-04-08 10:00","2018","04","08","10:00","1.4","","-2.3","","76","","","","4","","5","","24.1","","99.18","","","","","","NA"
"-63.51","44.88","HALIFAX STANFIELD INT'L A","8202251","2018-04-08 11:00","2018","04","08","11:00","1.8","","-1.4","","80","","","","5","","5","","24.1","","99.12","","","","","","Cloudy"
"-63.51","44.88","HALIFAX STANFIELD INT'L A","8202251","2018-04-08 12:00","2018","04","08","12:00","1.5","","-1.8","","79","","","","3","","12","","4.8","","99.00","","","","","","Snow"
"-63.51","44.88","HALIFAX STANFIELD INT'L A","8202251","2018-04-08 13:00","2018","04","08","13:00","0.2","","-0.7","","94","","","","5","","12","","2.4","","98.83","","","","","","Snow"
"-63.51","44.88","HALIFAX STANFIELD INT'L A","8202251","2018-04-08 14:00","2018","04","08","14:00","-0.1","","-0.1","","100","","","","6","","14","","2.0","","98.74","","","","-4","","Snow"
"-63.51","44.88","HALIFAX STANFIELD INT'L A","8202251","2018-04-08 15:00","2018","04","08","15:00","-0.3","","-0.3","","100","","","","1","","19","","1.6","","98.58","","","","-5","","Snow"
"-63.51","44.88","HALIFAX STANFIELD INT'L A","8202251","2018-04-08 16:00","2018","04","08","16:00","-0.6","","-0.6","","100","","","","1","","22","","1.6","","98.49","","","","-6","","Snow"
"-63.51","44.88","HALIFAX STANFIELD INT'L A","8202251","2018-04-08 17:00","2018","04","08","17:00","-0.8","","-0.8","","100","","","","1","","31","","1.0","","98.43","","","","-8","","Snow"
"-63.51","44.88","HALIFAX STANFIELD INT'L A","8202251","2018-04-08 18:00","2018","04","08","18:00","-1.6","","-1.6","","100","","","","36","","29","","1.0","","98.32","","","","-8","","Snow,Blowing Snow"
"-63.51","44.88","HALIFAX STANFIELD INT'L A","8202251","2018-04-08 19:00","2018","04","08","19:00","-1.8","","-1.8","","100","","","","34","","27","","1.0","","98.23","","","","-8","","Snow,Blowing Snow"
"-63.51","44.88","HALIFAX STANFIELD INT'L A","8202251","2018-04-08 20:00","2018","04","08","20:00","-1.7","","-1.7","","100","","","","35","","35","","1.6","","98.15","","","","-9","","Snow"
"-63.51","44.88","HALIFAX STANFIELD INT'L A","8202251","2018-04-08 21:00","2018","04","08","21:00","-1.9","","-1.9","","100","","","","34","","33","","2.0","","98.07","","","","-9","","Snow"
"-63.51","44.88","HALIFAX STANFIELD INT'L A","8202251","2018-04-08 22:00","2018","04","08","22:00","-1.9","","-1.9","","100","","","","33","","33","","1.6","","98.02","","","","-9","","Snow,Blowing Snow"
"-63.51","44.88","HALIFAX STANFIELD INT'L A","8202251","2018-04-08 23:00","2018","04","08","23:00","-1.9","","-1.9","","100","","","","33","","35","","1.6","","97.98","","","","-9","","Snow,Blowing Snow"
"-63.51","44.88","HALIFAX STANFIELD INT'L A","8202251","2018-04-09 00:00","2018","04","09","00:00","-2.3","","-2.3","","100","","","","32","","38","","3.2","","97.99","","","","-10","","Snow"
"-63.51","44.88","HALIFAX STANFIELD INT'L A","8202251","2018-04-09 01:00","2018","04","09","01:00","-2.6","","-2.9","","98","","","","32","","40","","4.8","","98.12","","","","-11","","Snow"
"-63.51","44.88","HALIFAX STANFIELD INT'L A","8202251","2018-04-09 02:00","2018","04","09","02:00","-2.4","","-3.5","","92","","","","32","","38","","19.3","","98.22","","","","-10","","Snow,Blowing Snow"
"-63.51","44.88","HALIFAX STANFIELD INT'L A","8202251","2018-04-09 03:00","2018","04","09","03:00","-2.7","","-4.1","","90","","","","32","","45","","4.8","","98.34","","","","-11","","Snow,Blowing Snow"
"-63.51","44.88","HALIFAX STANFIELD INT'L A","8202251","2018-04-09 04:00","2018","04","09","04:00","-3.1","","-4.5","","90","","","","31","","31","","19.3","","98.49","","","","-11","","Snow,Blowing Snow"
"-63.51","44.88","HALIFAX STANFIELD INT'L A","8202251","2018-04-09 05:00","2018","04","09","05:00","-3.8","","-6.3","","83","","","","30","","28","","24.1","","98.58","","","","-11","","Mainly Clear"
"-63.51","44.88","HALIFAX STANFIELD INT'L A","8202251","2018-04-09 06:00","2018","04","09","06:00","-4.9","","-9.6","","70","","","","30","","31","","24.1","","98.73","","","","-13","","NA"
"-63.51","44.88","HALIFAX STANFIELD INT'L A","8202251","2018-04-09 07:00","2018","04","09","07:00","-4.7","","-9.9","","67","","","","28","","21","","24.1","","98.88","","","","-11","","NA"
"-63.51","44.88","HALIFAX STANFIELD INT'L A","8202251","2018-04-09 08:00","2018","04","09","08:00","-3.6","","-9.7","","63","","","","29","","23","","24.1","","98.96","","","","-10","","Clear"
"-63.51","44.88","HALIFAX STANFIELD INT'L A","8202251","2018-04-09 09:00","2018","04","09","09:00","-3.1","","-11.6","","52","","","","29","","40","","24.1","","99.03","","","","-12","","NA"
"-63.51","44.88","HALIFAX STANFIELD INT'L A","8202251","2018-04-09 10:00","2018","04","09","10:00","-2.8","","-11.3","","52","","","","29","","31","","24.1","","99.07","","","","-10","","NA"
"-63.51","44.88","HALIFAX STANFIELD INT'L A","8202251","2018-04-09 11:00","2018","04","09","11:00","-2.4","","-11.6","","50","","","","30","","37","","24.1","","99.10","","","","-10","","Mostly Cloudy"
"-63.51","44.88","HALIFAX STANFIELD INT'L A","8202251","2018-04-09 12:00","2018","04","09","12:00","-2.2","","-11.0","","51","","","","28","","37","","24.1","","99.13","","","","-10","","NA"
"-63.51","44.88","HALIFAX STANFIELD INT'L A","8202251","2018-04-09 13:00","2018","04","09","13:00","-1.8","","-11.8","","47","","","","29","","32","","24.1","","99.18","","","","-9","","NA"
"-63.51","44.88","HALIFAX STANFIELD INT'L A","8202251","2018-04-09 14:00","2018","04","09","14:00","-1.0","","-12.0","","43","","","","27","","45","","24.1","","99.20","","","","-9","","Mainly Clear"
"-63.51","44.88","HALIFAX STANFIELD INT'L A","8202251","2018-04-09 15:00","2018","04","09","15:00","-0.4","","-12.2","","41","","","","29","","42","","24.1","","99.26","","","","-8","","NA"
"-63.51","44.88","HALIFAX STANFIELD INT'L A","8202251","2018-04-09 16:00","2018","04","09","16:00","-1.0","","-11.3","","46","","","","30","","39","","24.1","","99.34","","","","-9","","NA"
"-63.51","44.88","HALIFAX STANFIELD INT'L A","8202251","2018-04-09 17:00","2018","04","09","17:00","-1.2","","-11.6","","45","","","","28","","33","","24.1","","99.45","","","","-8","","Mostly Cloudy"
"-63.51","44.88","HALIFAX STANFIELD INT'L A","8202251","2018-04-09 18:00","2018","04","09","18:00","-2.1","","-9.1","","59","","","","31","","43","","24.1","","99.56","","","","-10","","NA"
"-63.51","44.88","HALIFAX STANFIELD INT'L A","8202251","2018-04-09 19:00","2018","04","09","19:00","-2.0","","-11.7","","48","","","","31","","30","","24.1","","99.66","","","","-9","","NA"
"-63.51","44.88","HALIFAX STANFIELD INT'L A","8202251","2018-04-09 20:00","2018","04","09","20:00","-2.5","","-13.4","","43","","","","29","","21","","24.1","","99.83","","","","-9","","Mainly Clear"
"-63.51","44.88","HALIFAX STANFIELD INT'L A","8202251","2018-04-09 21:00","2018","04","09","21:00","-2.9","","-12.5","","48","","","","28","","12","","24.1","","99.95","","","","-7","","NA"
"-63.51","44.88","HALIFAX STANFIELD INT'L A","8202251","2018-04-09 22:00","2018","04","09","22:00","-3.7","","-12.1","","53","","","","28","","15","","24.1","","100.00","","","","-9","","NA"
"-63.51","44.88","HALIFAX STANFIELD INT'L A","8202251","2018-04-09 23:00","2018","04","09","23:00","-4.3","","-12.2","","55","","","","27","","12","","24.1","","100.06","","","","-9","","Clear"
"-63.51","44.88","HALIFAX STANFIELD INT'L A","8202251","2018-04-10 00:00","2018","04","10","00:00","-4.2","","-12.5","","53","","","","29","","15","","24.1","","100.11","","","","-10","","NA"
"-63.51","44.88","HALIFAX STANFIELD INT'L A","8202251","2018-04-10 01:00","2018","04","10","01:00","-4.4","","-12.2","","55","","","","28","","13","","24.1","","100.15","","","","-9","","NA"
"-63.51","44.88","HALIFAX STANFIELD INT'L A","8202251","2018-04-10 02:00","2018","04","10","02:00","-5.2","","-12.3","","58","","","","27","","13","","24.1","","100.19","","","","-10","","Clear"
"-63.51","44.88","HALIFAX STANFIELD INT'L A","8202251","2018-04-10 03:00","2018","04","10","03:00","-5.2","","-11.8","","60","","","","27","","15","","24.1","","100.21","","","","-11","","NA"
"-63.51","44.88","HALIFAX STANFIELD INT'L A","8202251","2018-04-10 04:00","2018","04","10","04:00","-5.5","","-11.7","","62","","","","26","","14","","24.1","","100.25","","","","-11","","NA"
"-63.51","44.88","HALIFAX STANFIELD INT'L A","8202251","2018-04-10 05:00","2018","04","10","05:00","-5.9","","-11.6","","64","","","","27","","14","","24.1","","100.31","","","","-11","","Mainly Clear"
"-63.51","44.88","HALIFAX STANFIELD INT'L A","8202251","2018-04-10 06:00","2018","04","10","06:00","-5.9","","-11.2","","66","","","","27","","15","","24.1","","100.36","","","","-12","","NA"
"-63.51","44.88","HALIFAX STANFIELD INT'L A","8202251","2018-04-10 07:00","2018","04","10","07:00","-4.0","","-10.2","","62","","","","25","","15","","24.1","","100.45","","","","-9","","NA"
"-63.51","44.88","HALIFAX STANFIELD INT'L A","8202251","2018-04-10 08:00","2018","04","10","08:00","-2.8","","-9.8","","59","","","","27","","16","","24.1","","100.49","","","","-8","","Mainly Clear"
"-63.51","44.88","HALIFAX STANFIELD INT'L A","8202251","2018-04-10 09:00","2018","04","10","09:00","-1.3","","-10.0","","52","","","","26","","17","","24.1","","100.52","","","","-6","","NA"
"-63.51","44.88","HALIFAX STANFIELD INT'L A","8202251","2018-04-10 10:00","2018","04","10","10:00","-0.2","","-9.5","","50","","","","27","","11","","24.1","","100.52","","","","-4","","NA"
"-63.51","44.88","HALIFAX STANFIELD INT'L A","8202251","2018-04-10 11:00","2018","04","10","11:00","1.5","","-10.4","","41","","","","27","","18","","24.1","","100.47","","","","","","Mainly Clear"
"-63.51","44.88","HALIFAX STANFIELD INT'L A","8202251","2018-04-10 12:00","2018","04","10","12:00","2.3","","-12.0","","34","","","","24","","7","","24.1","","100.40","","","","","","NA"
"-63.51","44.88","HALIFAX STANFIELD INT'L A","8202251","2018-04-10 13:00","2018","04","10","13:00","3.3","","-10.5","","36","","","","31","","14","","24.1","","100.37","","","","","","NA"
"-63.51","44.88","HALIFAX STANFIELD INT'L A","8202251","2018-04-10 14:00","2018","04","10","14:00","4.4","","-10.0","","34","","","","25","","16","","24.1","","100.33","","","","","","Mainly Clear"
"-63.51","44.88","HALIFAX STANFIELD INT'L A","8202251","2018-04-10 15:00","2018","04","10","15:00","5.0","","-10.1","","33","","","","26","","11","","24.1","","100.28","","","","","","NA"
"-63.51","44.88","HALIFAX STANFIELD INT'L A","8202251","2018-04-10 16:00","2018","04","10","16:00","4.0","","-6.6","","46","","","","21","","26","","24.1","","100.29","","","","","","NA"
"-63.51","44.88","HALIFAX STANFIELD INT'L A","8202251","2018-04-10 17:00","2018","04","10","17:00","3.5","","-7.1","","46","","","","22","","24","","24.1","","100.29","","","","","","Mainly Clear"
"-63.51","44.88","HALIFAX STANFIELD INT'L A","8202251","2018-04-10 18:00","2018","04","10","18:00","2.2","","-6.0","","55","","","","22","","25","","24.1","","100.31","","","","","","NA"
"-63.51","44.88","HALIFAX STANFIELD INT'L A","8202251","2018-04-10 19:00","2018","04","10","19:00","0.7","","-4.7","","67","","","","21","","18","","24.1","","100.33","","","","","","NA"
"-63.51","44.88","HALIFAX STANFIELD INT'L A","8202251","2018-04-10 20:00","2018","04","10","20:00","0.0","","-3.7","","76","","","","20","","10","","24.1","","100.38","","","","-3","","Mostly Cloudy"
"-63.51","44.88","HALIFAX STANFIELD INT'L A","8202251","2018-04-10 21:00","2018","04","10","21:00","-0.4","","-3.3","","81","","","","17","","8","","24.1","","100.36","","","","-3","","NA"
"-63.51","44.88","HALIFAX STANFIELD INT'L A","8202251","2018-04-10 22:00","2018","04","10","22:00","-1.0","","-3.7","","82","","","","9","","7","","24.1","","100.34","","","","-4","","NA"
"-63.51","44.88","HALIFAX STANFIELD INT'L A","8202251","2018-04-10 23:00","2018","04","10","23:00","-1.5","","-3.4","","87","","","","8","","5","","24.1","","100.32","","","","-3","","Mainly Clear"
"-63.51","44.88","HALIFAX STANFIELD INT'L A","8202251","2018-04-11 00:00","2018","04","11","00:00","-0.8","","-3.3","","83","","","","36","","2","","24.1","","100.33","","","","-1","","NA"
"-63.51","44.88","HALIFAX STANFIELD INT'L A","8202251","2018-04-11 01:00","2018","04","11","01:00","-2.9","","-3.7","","94","","","","2","","8","","24.1","","100.30","","","","-6","","NA"
"-63.51","44.88","HALIFAX STANFIELD INT'L A","8202251","2018-04-11 02:00","2018","04","11","02:00","-2.3","","-4.1","","87","","","","6","","8","","24.1","","100.30","","","","-5","","Clear"
"-63.51","44.88","HALIFAX STANFIELD INT'L A","8202251","2018-04-11 03:00","2018","04","11","03:00","-1.8","","-4.2","","84","","","","7","","8","","24.1","","100.25","","","","-5","","NA"
"-63.51","44.88","HALIFAX STANFIELD INT'L A","8202251","2018-04-11 04:00","2018","04","11","04:00","-1.7","","-4.5","","81","","","","3","","4","","24.1","","100.21","","","","-3","","NA"
"-63.51","44.88","HALIFAX STANFIELD INT'L A","8202251","2018-04-11 05:00","2018","04","11","05:00","-2.7","","-4.5","","87","","","","36","","2","","24.1","","100.22","","","","-3","","Clear"
"-63.51","44.88","HALIFAX STANFIELD INT'L A","8202251","2018-04-11 06:00","2018","04","11","06:00","-2.9","","-4.5","","89","","","","35","","6","","24.1","","100.26","","","","-5","","NA"
"-63.51","44.88","HALIFAX STANFIELD INT'L A","8202251","2018-04-11 07:00","2018","04","11","07:00","-2.1","","-3.4","","91","","","","3","","5","","24.1","","100.31","","","","-4","","NA"
"-63.51","44.88","HALIFAX STANFIELD INT'L A","8202251","2018-04-11 08:00","2018","04","11","08:00","0.0","","-4.0","","74","","","","36","","9","","24.1","","100.34","","","","-3","","Clear"
"-63.51","44.88","HALIFAX STANFIELD INT'L A","8202251","2018-04-11 09:00","2018","04","11","09:00","1.4","","-4.4","","66","","","","35","","18","","24.1","","100.30","","","","","","NA"
"-63.51","44.88","HALIFAX STANFIELD INT'L A","8202251","2018-04-11 10:00","2018","04","11","10:00","3.0","","-7.5","","46","","","","35","","18","","24.1","","100.25","","","","","","NA"
"-63.51","44.88","HALIFAX STANFIELD INT'L A","8202251","2018-04-11 11:00","2018","04","11","11:00","3.9","","-6.4","","47","","","","4","","13","","24.1","","100.25","","","","","","Mainly Clear"
"-63.51","44.88","HALIFAX STANFIELD INT'L A","8202251","2018-04-11 12:00","2018","04","11","12:00","4.9","","-10.1","","33","","","","32","","6","","24.1","","100.23","","","","","","NA"
"-63.51","44.88","HALIFAX STANFIELD INT'L A","8202251","2018-04-11 13:00","2018","04","11","13:00","6.0","","-7.7","","37","","","","32","","17","","24.1","","100.11","","","","","","NA"
"-63.51","44.88","HALIFAX STANFIELD INT'L A","8202251","2018-04-11 14:00","2018","04","11","14:00","6.8","","-7.4","","36","","","","2","","18","","24.1","","100.05","","","","","","Mainly Clear"
"-63.51","44.88","HALIFAX STANFIELD INT'L A","8202251","2018-04-11 15:00","2018","04","11","15:00","7.2","","-6.0","","39","","","","1","","12","","24.1","","100.06","","","","","","NA"
"-63.51","44.88","HALIFAX STANFIELD INT'L A","8202251","2018-04-11 16:00","2018","04","11","16:00","7.2","","-9.2","","30","","","","36","","12","","24.1","","100.03","","","","","","NA"
"-63.51","44.88","HALIFAX STANFIELD INT'L A","8202251","2018-04-11 17:00","2018","04","11","17:00","6.9","","-7.8","","34","","","","1","","13","","24.1","","100.00","","","","","","Mostly Cloudy"
"-63.51","44.88","HALIFAX STANFIELD INT'L A","8202251","2018-04-11 18:00","2018","04","11","18:00","5.6","","-4.1","","50","","","","12","","22","","24.1","","100.00","","","","","","NA"
"-63.51","44.88","HALIFAX STANFIELD INT'L A","8202251","2018-04-11 19:00","2018","04","11","19:00","2.5","","-5.8","","54","","","","15","","19","","24.1","","100.06","","","","","","NA"
"-63.51","44.88","HALIFAX STANFIELD INT'L A","8202251","2018-04-11 20:00","2018","04","11","20:00","1.1","","-5.4","","62","","","","16","","11","","24.1","","100.18","","","","","","Mainly Clear"
"-63.51","44.88","HALIFAX STANFIELD INT'L A","8202251","2018-04-11 21:00","2018","04","11","21:00","0.2","","-3.5","","76","","","","14","","11","","24.1","","100.17","","","","","","NA"
"-63.51","44.88","HALIFAX STANFIELD INT'L A","8202251","2018-04-11 22:00","2018","04","11","22:00","-0.3","","-2.6","","85","","","","15","","11","","24.1","","100.17","","","","-4","","NA"
"-63.51","44.88","HALIFAX STANFIELD INT'L A","8202251","2018-04-11 23:00","2018","04","11","23:00","0.2","","-2.5","","82","","","","18","","11","","24.1","","100.18","","","","","","Cloudy"
"-63.51","44.88","HALIFAX STANFIELD INT'L A","8202251","2018-04-12 00:00","2018","04","12","00:00","-0.9","","-2.6","","88","","","","12","","12","","24.1","","100.16","","","","-5","","NA"
"-63.51","44.88","HALIFAX STANFIELD INT'L A","8202251","2018-04-12 01:00","2018","04","12","01:00","-1.3","","-1.9","","96","","","","14","","13","","24.1","","100.15","","","","-6","","NA"
"-63.51","44.88","HALIFAX STANFIELD INT'L A","8202251","2018-04-12 02:00","2018","04","12","02:00","-1.4","","-1.7","","98","","","","15","","13","","24.1","","100.10","","","","-6","","Mainly Clear"
"-63.51","44.88","HALIFAX STANFIELD INT'L A","8202251","2018-04-12 03:00","2018","04","12","03:00","-1.6","","-1.9","","98","","","","14","","14","","24.1","","100.05","","","","-6","","NA"
"-63.51","44.88","HALIFAX STANFIELD INT'L A","8202251","2018-04-12 04:00","2018","04","12","04:00","-1.9","","-2.0","","99","","","","13","","14","","24.1","","100.02","","","","-7","","NA"
"-63.51","44.88","HALIFAX STANFIELD INT'L A","8202251","2018-04-12 05:00","2018","04","12","05:00","-1.9","","-1.9","","100","","","","17","","11","","24.1","","100.03","","","","-6","","Mainly Clear"
"-63.51","44.88","HALIFAX STANFIELD INT'L A","8202251","2018-04-12 06:00","2018","04","12","06:00","-2.0","","-2.0","","100","","","","36","","3","","24.1","","100.06","","","","-3","","NA"
"-63.51","44.88","HALIFAX STANFIELD INT'L A","8202251","2018-04-12 07:00","2018","04","12","07:00","-0.6","","-1.0","","97","","","","17","","9","","24.1","","100.07","","","","-4","","NA"
"-63.51","44.88","HALIFAX STANFIELD INT'L A","8202251","2018-04-12 08:00","2018","04","12","08:00","0.7","","0.1","","96","","","","24","","8","","24.1","","100.15","","","","","","Mostly Cloudy"
"-63.51","44.88","HALIFAX STANFIELD INT'L A","8202251","2018-04-12 09:00","2018","04","12","09:00","3.2","","-3.6","","61","","","","22","","13","","24.1","","100.16","","","","","","NA"
"-63.51","44.88","HALIFAX STANFIELD INT'L A","8202251","2018-04-12 10:00","2018","04","12","10:00","4.3","","-2.1","","63","","","","25","","19","","24.1","","100.19","","","","","","NA"
"-63.51","44.88","HALIFAX STANFIELD INT'L A","8202251","2018-04-12 11:00","2018","04","12","11:00","4.8","","-2.4","","60","","","","23","","4","","24.1","","100.16","","","","","","Mostly Cloudy"
"-63.51","44.88","HALIFAX STANFIELD INT'L A","8202251","2018-04-12 12:00","2018","04","12","12:00","5.9","","-1.8","","58","","","","14","","11","","24.1","","100.12","","","","","","NA"
"-63.51","44.88","HALIFAX STANFIELD INT'L A","8202251","2018-04-12 13:00","2018","04","12","13:00","6.5","","-4.1","","47","","","","24","","13","","24.1","","100.07","","","","","","NA"
"-63.51","44.88","HALIFAX STANFIELD INT'L A","8202251","2018-04-12 14:00","2018","04","12","14:00","5.2","","0.6","","72","","","","13","","19","","24.1","","100.08","","","","","","Snow Showers"
"-63.51","44.88","HALIFAX STANFIELD INT'L A","8202251","2018-04-12 15:00","2018","04","12","15:00","6.9","","-3.1","","49","","","","22","","17","","24.1","","100.03","","","","","","NA"
"-63.51","44.88","HALIFAX STANFIELD INT'L A","8202251","2018-04-12 16:00","2018","04","12","16:00","6.7","","-0.9","","58","","","","19","","21","","24.1","","100.01","","","","","","NA"
"-63.51","44.88","HALIFAX STANFIELD INT'L A","8202251","2018-04-12 17:00","2018","04","12","17:00","6.3","","-0.8","","61","","","","20","","29","","24.1","","100.02","","","","","","Mostly Cloudy"
"-63.51","44.88","HALIFAX STANFIELD INT'L A","8202251","2018-04-12 18:00","2018","04","12","18:00","5.6","","-0.2","","66","","","","21","","17","","24.1","","100.09","","","","","","NA"
"-63.51","44.88","HALIFAX STANFIELD INT'L A","8202251","2018-04-12 19:00","2018","04","12","19:00","3.6","","0.3","","79","","","","20","","18","","24.1","","100.12","","","","","","NA"
"-63.51","44.88","HALIFAX STANFIELD INT'L A","8202251","2018-04-12 20:00","2018","04","12","20:00","2.5","","0.2","","85","","","","20","","20","","24.1","","100.15","","","","","","Mainly Clear"
"-63.51","44.88","HALIFAX STANFIELD INT'L A","8202251","2018-04-12 21:00","2018","04","12","21:00","2.0","","0.7","","91","","","","19","","19","","24.1","","100.19","","","","","","NA"
"-63.51","44.88","HALIFAX STANFIELD INT'L A","8202251","2018-04-12 22:00","2018","04","12","22:00","2.0","","0.8","","92","","","","20","","18","","24.1","","100.16","","","","","","NA"
"-63.51","44.88","HALIFAX STANFIELD INT'L A","8202251","2018-04-12 23:00","2018","04","12","23:00","1.9","","0.7","","92","","","","20","","17","","24.1","","100.18","","","","","","Cloudy"
"-63.51","44.88","HALIFAX STANFIELD INT'L A","8202251","2018-04-13 00:00","2018","04","13","00:00","1.7","","1.0","","95","","","","18","","18","","24.1","","100.18","","","","","","NA"
"-63.51","44.88","HALIFAX STANFIELD INT'L A","8202251","2018-04-13 01:00","2018","04","13","01:00","1.5","","0.8","","95","","","","15","","14","","24.1","","100.09","","","","","","NA"
"-63.51","44.88","HALIFAX STANFIELD INT'L A","8202251","2018-04-13 02:00","2018","04","13","02:00","1.8","","0.8","","93","","","","16","","18","","24.1","","99.93","","","","","","Cloudy"
"-63.51","44.88","HALIFAX STANFIELD INT'L A","8202251","2018-04-13 03:00","2018","04","13","03:00","2.6","","2.2","","97","","","","17","","23","","12.9","","99.84","","","","","","Rain"
"-63.51","44.88","HALIFAX STANFIELD INT'L A","8202251","2018-04-13 04:00","2018","04","13","04:00","3.2","","2.9","","98","","","","17","","35","","4.8","","99.63","","","","","","Rain,Fog"
"-63.51","44.88","HALIFAX STANFIELD INT'L A","8202251","2018-04-13 05:00","2018","04","13","05:00","3.5","","3.2","","98","","","","16","","39","","6.4","","99.40","","","","","","Rain,Fog"
"-63.51","44.88","HALIFAX STANFIELD INT'L A","8202251","2018-04-13 06:00","2018","04","13","06:00","3.6","","3.5","","99","","","","16","","36","","6.4","","99.24","","","","","","Moderate Rain,Fog"
"-63.51","44.88","HALIFAX STANFIELD INT'L A","8202251","2018-04-13 07:00","2018","04","13","07:00","3.8","","3.8","","100","","","","16","","40","","4.8","","99.17","","","","","","Rain,Fog"
"-63.51","44.88","HALIFAX STANFIELD INT'L A","8202251","2018-04-13 08:00","2018","04","13","08:00","4.6","","4.6","","100","","","","17","","29","","3.2","","99.08","","","","","","Rain,Fog"
"-63.51","44.88","HALIFAX STANFIELD INT'L A","8202251","2018-04-13 09:00","2018","04","13","09:00","5.7","","5.7","","100","","","","19","","23","","1.6","","98.95","","","","","","Drizzle,Fog"
"-63.51","44.88","HALIFAX STANFIELD INT'L A","8202251","2018-04-13 10:00","2018","04","13","10:00","6.9","","6.9","","100","","","","21","","23","","1.6","","98.91","","","","","","Drizzle,Fog"
"-63.51","44.88","HALIFAX STANFIELD INT'L A","8202251","2018-04-13 11:00","2018","04","13","11:00","7.6","","7.6","","100","","","","24","","20","","4.0","","98.92","","","","","","Fog"
"-63.51","44.88","HALIFAX STANFIELD INT'L A","8202251","2018-04-13 12:00","2018","04","13","12:00","8.2","","8.2","","100","","","","27","","22","","12.9","","98.96","","","","","","NA"
"-63.51","44.88","HALIFAX STANFIELD INT'L A","8202251","2018-04-13 13:00","2018","04","13","13:00","8.0","","7.7","","98","","","","29","","26","","19.3","","99.01","","","","","","NA"
"-63.51","44.88","HALIFAX STANFIELD INT'L A","8202251","2018-04-13 14:00","2018","04","13","14:00","9.2","","7.2","","88","","","","28","","34","","24.1","","99.06","","","","","","Mostly Cloudy"
"-63.51","44.88","HALIFAX STANFIELD INT'L A","8202251","2018-04-13 15:00","2018","04","13","15:00","9.3","","5.5","","77","","","","29","","28","","24.1","","99.12","","","","","","NA"
"-63.51","44.88","HALIFAX STANFIELD INT'L A","8202251","2018-04-13 16:00","2018","04","13","16:00","10.0","","5.8","","75","","","","31","","26","","24.1","","99.21","","","","","","NA"
"-63.51","44.88","HALIFAX STANFIELD INT'L A","8202251","2018-04-13 17:00","2018","04","13","17:00","8.3","","5.0","","80","","","","31","","28","","24.1","","99.30","","","","","","Mostly Cloudy"
"-63.51","44.88","HALIFAX STANFIELD INT'L A","8202251","2018-04-13 18:00","2018","04","13","18:00","7.3","","3.9","","79","","","","30","","22","","24.1","","99.40","","","","","","NA"
"-63.51","44.88","HALIFAX STANFIELD INT'L A","8202251","2018-04-13 19:00","2018","04","13","19:00","6.3","","2.9","","79","","","","29","","22","","24.1","","99.53","","","","","","NA"
"-63.51","44.88","HALIFAX STANFIELD INT'L A","8202251","2018-04-13 20:00","2018","04","13","20:00","5.1","","2.8","","85","","","","31","","16","","24.1","","99.64","","","","","","Mostly Cloudy"
"-63.51","44.88","HALIFAX STANFIELD INT'L A","8202251","2018-04-13 21:00","2018","04","13","21:00","4.5","","2.2","","85","","","","28","","10","","24.1","","99.68","","","","","","NA"
"-63.51","44.88","HALIFAX STANFIELD INT'L A","8202251","2018-04-13 22:00","2018","04","13","22:00","3.9","","2.3","","89","","","","23","","8","","24.1","","99.71","","","","","","NA"
"-63.51","44.88","HALIFAX STANFIELD INT'L A","8202251","2018-04-13 23:00","2018","04","13","23:00","4.4","","2.7","","89","","","","23","","13","","24.1","","99.74","","","","","","Cloudy"
"-63.51","44.88","HALIFAX STANFIELD INT'L A","8202251","2018-04-14 00:00","2018","04","14","00:00","4.5","","2.5","","87","","","","23","","12","","24.1","","99.70","","","","","","NA"
"-63.51","44.88","HALIFAX STANFIELD INT'L A","8202251","2018-04-14 01:00","2018","04","14","01:00","4.4","","2.4","","87","","","","21","","13","","24.1","","99.66","","","","","","NA"
"-63.51","44.88","HALIFAX STANFIELD INT'L A","8202251","2018-04-14 02:00","2018","04","14","02:00","4.9","","2.4","","84","","","","22","","14","","24.1","","99.61","","","","","","Cloudy"
"-63.51","44.88","HALIFAX STANFIELD INT'L A","8202251","2018-04-14 03:00","2018","04","14","03:00","4.7","","3.2","","90","","","","21","","17","","24.1","","99.52","","","","","","Rain"
"-63.51","44.88","HALIFAX STANFIELD INT'L A","8202251","2018-04-14 04:00","2018","04","14","04:00","4.7","","3.7","","93","","","","22","","16","","24.1","","99.46","","","","","","NA"
"-63.51","44.88","HALIFAX STANFIELD INT'L A","8202251","2018-04-14 05:00","2018","04","14","05:00","4.4","","4.3","","99","","","","22","","17","","4.8","","99.44","","","","","","Rain,Fog"
"-63.51","44.88","HALIFAX STANFIELD INT'L A","8202251","2018-04-14 06:00","2018","04","14","06:00","4.3","","4.3","","100","","","","21","","13","","9.7","","99.43","","","","","","Rain,Fog"
"-63.51","44.88","HALIFAX STANFIELD INT'L A","8202251","2018-04-14 07:00","2018","04","14","07:00","4.6","","4.6","","100","","","","26","","8","","3.2","","99.46","","","","","","Rain,Fog"
"-63.51","44.88","HALIFAX STANFIELD INT'L A","8202251","2018-04-14 08:00","2018","04","14","08:00","5.0","","5.0","","100","","","","32","","18","","3.2","","99.46","","","","","","Rain,Fog"
"-63.51","44.88","HALIFAX STANFIELD INT'L A","8202251","2018-04-14 09:00","2018","04","14","09:00","4.4","","4.3","","99","","","","32","","23","","8.1","","99.48","","","","","","Rain,Fog"
"-63.51","44.88","HALIFAX STANFIELD INT'L A","8202251","2018-04-14 10:00","2018","04","14","10:00","3.7","","3.6","","99","","","","33","","24","","8.1","","99.47","","","","","","Rain,Fog"
"-63.51","44.88","HALIFAX STANFIELD INT'L A","8202251","2018-04-14 11:00","2018","04","14","11:00","4.5","","4.1","","97","","","","33","","22","","24.1","","99.48","","","","","","Cloudy"
"-63.51","44.88","HALIFAX STANFIELD INT'L A","8202251","2018-04-14 12:00","2018","04","14","12:00","4.6","","3.2","","91","","","","34","","26","","24.1","","99.51","","","","","","NA"
"-63.51","44.88","HALIFAX STANFIELD INT'L A","8202251","2018-04-14 13:00","2018","04","14","13:00","4.8","","2.7","","86","","","","32","","26","","24.1","","99.57","","","","","","NA"
"-63.51","44.88","HALIFAX STANFIELD INT'L A","8202251","2018-04-14 14:00","2018","04","14","14:00","4.7","","2.0","","83","","","","35","","17","","24.1","","99.60","","","","","","Cloudy"
"-63.51","44.88","HALIFAX STANFIELD INT'L A","8202251","2018-04-14 15:00","2018","04","14","15:00","4.6","","-0.1","","72","","","","34","","17","","24.1","","99.69","","","","","","NA"
"-63.51","44.88","HALIFAX STANFIELD INT'L A","8202251","2018-04-14 16:00","2018","04","14","16:00","2.8","","-3.1","","65","","","","1","","26","","24.1","","99.78","","","","","","NA"
"-63.51","44.88","HALIFAX STANFIELD INT'L A","8202251","2018-04-14 17:00","2018","04","14","17:00","1.6","","-5.8","","58","","","","1","","20","","24.1","","100.06","","","","","","Cloudy"
"-63.51","44.88","HALIFAX STANFIELD INT'L A","8202251","2018-04-14 18:00","2018","04","14","18:00","0.3","","-8.9","","50","","","","1","","25","","24.1","","100.20","","","","","","NA"
"-63.51","44.88","HALIFAX STANFIELD INT'L A","8202251","2018-04-14 19:00","2018","04","14","19:00","-0.2","","-10.9","","45","","","","35","","20","","24.1","","100.36","","","","-5","","NA"
"-63.51","44.88","HALIFAX STANFIELD INT'L A","8202251","2018-04-14 20:00","2018","04","14","20:00","-0.7","","-11.3","","45","","","","1","","25","","24.1","","100.51","","","","-7","","Mostly Cloudy"
"-63.51","44.88","HALIFAX STANFIELD INT'L A","8202251","2018-04-14 21:00","2018","04","14","21:00","-1.3","","-11.9","","44","","","","35","","23","","24.1","","100.67","","","","-7","","NA"
"-63.51","44.88","HALIFAX STANFIELD INT'L A","8202251","2018-04-14 22:00","2018","04","14","22:00","-1.8","","-12.3","","45","","","","34","","23","","24.1","","100.72","","","","-8","","NA"
"-63.51","44.88","HALIFAX STANFIELD INT'L A","8202251","2018-04-14 23:00","2018","04","14","23:00","-2.1","","-12.8","","44","","","","35","","22","","24.1","","100.82","","","","-8","","Cloudy"
"-63.51","44.88","HALIFAX STANFIELD INT'L A","8202251","2018-04-15 00:00","2018","04","15","00:00","-2.4","","-12.3","","47","","","","35","","23","","24.1","","100.89","","","","-9","","NA"
"-63.51","44.88","HALIFAX STANFIELD INT'L A","8202251","2018-04-15 01:00","2018","04","15","01:00","-2.8","","-13.0","","46","","","","35","","19","","24.1","","100.94","","","","-9","","NA"
"-63.51","44.88","HALIFAX STANFIELD INT'L A","8202251","2018-04-15 02:00","2018","04","15","02:00","-3.4","","-14.5","","42","","","","34","","25","","24.1","","101.04","","","","-10","","Cloudy"
"-63.51","44.88","HALIFAX STANFIELD INT'L A","8202251","2018-04-15 03:00","2018","04","15","03:00","-3.8","","-13.1","","49","","","","35","","22","","24.1","","101.08","","","","-10","","NA"
"-63.51","44.88","HALIFAX STANFIELD INT'L A","8202251","2018-04-15 04:00","2018","04","15","04:00","-4.4","","-13.6","","49","","","","35","","22","","24.1","","101.10","","","","-11","","NA"
"-63.51","44.88","HALIFAX STANFIELD INT'L A","8202251","2018-04-15 05:00","2018","04","15","05:00","-4.6","","-13.6","","50","","","","35","","20","","24.1","","101.21","","","","-11","","Mostly Cloudy"
"-63.51","44.88","HALIFAX STANFIELD INT'L A","8202251","2018-04-15 06:00","2018","04","15","06:00","-4.8","","-13.0","","53","","","","34","","13","","24.1","","101.31","","","","-10","","NA"
"-63.51","44.88","HALIFAX STANFIELD INT'L A","8202251","2018-04-15 07:00","2018","04","15","07:00","-4.9","","-13.0","","53","","","","35","","22","","24.1","","101.38","","","","-12","","NA"
"-63.51","44.88","HALIFAX STANFIELD INT'L A","8202251","2018-04-15 08:00","2018","04","15","08:00","-4.5","","-13.6","","49","","","","34","","26","","24.1","","101.39","","","","-12","","Mostly Cloudy"
"-63.51","44.88","HALIFAX STANFIELD INT'L A","8202251","2018-04-15 09:00","2018","04","15","09:00","-3.9","","-13.2","","49","","","","35","","25","","24.1","","101.44","","","","-11","","NA"
"-63.51","44.88","HALIFAX STANFIELD INT'L A","8202251","2018-04-15 10:00","2018","04","15","10:00","-3.2","","-13.1","","47","","","","35","","21","","24.1","","101.48","","","","-9","","NA"
"-63.51","44.88","HALIFAX STANFIELD INT'L A","8202251","2018-04-15 11:00","2018","04","15","11:00","-1.9","","-12.2","","46","","","","1","","19","","24.1","","101.45","","","","-7","","Mostly Cloudy"
"-63.51","44.88","HALIFAX STANFIELD INT'L A","8202251","2018-04-15 12:00","2018","04","15","12:00","-0.1","","-11.9","","41","","","","32","","17","","24.1","","101.48","","","","-5","","NA"
"-63.51","44.88","HALIFAX STANFIELD INT'L A","8202251","2018-04-15 13:00","2018","04","15","13:00","0.5","","-11.7","","40","","","","34","","19","","24.1","","101.45","","","","","","NA"
"-63.51","44.88","HALIFAX STANFIELD INT'L A","8202251","2018-04-15 14:00","2018","04","15","14:00","1.7","","-12.0","","36","","","","32","","18","","24.1","","101.43","","","","","","Mostly Cloudy"
"-63.51","44.88","HALIFAX STANFIELD INT'L A","8202251","2018-04-15 15:00","2018","04","15","15:00","1.4","","-11.4","","38","","","","35","","21","","24.1","","101.46","","","","","","NA"
"-63.51","44.88","HALIFAX STANFIELD INT'L A","8202251","2018-04-15 16:00","2018","04","15","16:00","1.1","","-11.2","","40","","","","36","","17","","24.1","","101.49","","","","","","NA"
"-63.51","44.88","HALIFAX STANFIELD INT'L A","8202251","2018-04-15 17:00","2018","04","15","17:00","1.1","","-11.2","","40","","","","1","","23","","24.1","","101.58","","","","","","Mostly Cloudy"
"-63.51","44.88","HALIFAX STANFIELD INT'L A","8202251","2018-04-15 18:00","2018","04","15","18:00","-0.4","","-12.8","","39","","","","36","","19","","24.1","","101.63","","","","-6","","NA"
"-63.51","44.88","HALIFAX STANFIELD INT'L A","8202251","2018-04-15 19:00","2018","04","15","19:00","-1.7","","-10.7","","51","","","","3","","27","","24.1","","101.68","","","","-8","","NA"
"-63.51","44.88","HALIFAX STANFIELD INT'L A","8202251","2018-04-15 20:00","2018","04","15","20:00","-3.1","","-10.6","","57","","","","3","","17","","24.1","","101.75","","","","-9","","Mainly Clear"
"-63.51","44.88","HALIFAX STANFIELD INT'L A","8202251","2018-04-15 21:00","2018","04","15","21:00","-3.7","","-8.8","","68","","","","2","","18","","24.1","","101.77","","","","-10","","NA"
"-63.51","44.88","HALIFAX STANFIELD INT'L A","8202251","2018-04-15 22:00","2018","04","15","22:00","-4.1","","-8.6","","71","","","","3","","16","","24.1","","101.81","","","","-10","","NA"
"-63.51","44.88","HALIFAX STANFIELD INT'L A","8202251","2018-04-15 23:00","2018","04","15","23:00","-4.3","","-9.8","","65","","","","1","","19","","24.1","","101.85","","","","-10","","Cloudy"
"-63.51","44.88","HALIFAX STANFIELD INT'L A","8202251","2018-04-16 00:00","2018","04","16","00:00","-4.5","","-9.2","","70","","","","3","","18","","24.1","","101.86","","","","-11","","NA"
"-63.51","44.88","HALIFAX STANFIELD INT'L A","8202251","2018-04-16 01:00","2018","04","16","01:00","-5.0","","-9.1","","73","","","","3","","12","","24.1","","101.89","","","","-10","","NA"
"-63.51","44.88","HALIFAX STANFIELD INT'L A","8202251","2018-04-16 02:00","2018","04","16","02:00","-5.7","","-9.1","","77","","","","2","","9","","24.1","","101.84","","","","-10","","Mainly Clear"
"-63.51","44.88","HALIFAX STANFIELD INT'L A","8202251","2018-04-16 03:00","2018","04","16","03:00","-5.7","","-8.9","","78","","","","4","","15","","24.1","","101.74","","","","-11","","NA"
"-63.51","44.88","HALIFAX STANFIELD INT'L A","8202251","2018-04-16 04:00","2018","04","16","04:00","-5.4","","-8.0","","82","","","","4","","17","","24.1","","101.75","","","","-11","","NA"
"-63.51","44.88","HALIFAX STANFIELD INT'L A","8202251","2018-04-16 05:00","2018","04","16","05:00","-5.1","","-7.5","","84","","","","5","","12","","24.1","","101.74","","","","-10","","Mostly Cloudy"
"-63.51","44.88","HALIFAX STANFIELD INT'L A","8202251","2018-04-16 06:00","2018","04","16","06:00","-4.7","","-6.8","","85","","","","6","","14","","24.1","","101.75","","","","-10","","NA"
"-63.51","44.88","HALIFAX STANFIELD INT'L A","8202251","2018-04-16 07:00","2018","04","16","07:00","-3.9","","-6.3","","83","","","","8","","9","","24.1","","101.73","","","","-8","","NA"
"-63.51","44.88","HALIFAX STANFIELD INT'L A","8202251","2018-04-16 08:00","2018","04","16","08:00","-2.5","","-6.0","","77","","","","10","","17","","24.1","","101.71","","","","-8","","Cloudy"
"-63.51","44.88","HALIFAX STANFIELD INT'L A","8202251","2018-04-16 09:00","2018","04","16","09:00","-1.3","","-5.6","","73","","","","11","","13","","24.1","","101.67","","","","-6","","NA"
"-63.51","44.88","HALIFAX STANFIELD INT'L A","8202251","2018-04-16 10:00","2018","04","16","10:00","0.9","","-5.7","","62","","","","12","","21","","24.1","","101.61","","","","","","NA"
"-63.51","44.88","HALIFAX STANFIELD INT'L A","8202251","2018-04-16 11:00","2018","04","16","11:00","2.9","","-6.0","","52","","","","12","","15","","24.1","","101.55","","","","","","Mostly Cloudy"
"-63.51","44.88","HALIFAX STANFIELD INT'L A","8202251","2018-04-16 12:00","2018","04","16","12:00","3.8","","-5.9","","49","","","","12","","23","","24.1","","101.44","","","","","","NA"
"-63.51","44.88","HALIFAX STANFIELD INT'L A","8202251","2018-04-16 13:00","2018","04","16","13:00","4.0","","-5.7","","49","","","","12","","28","","24.1","","101.36","","","","","","NA"
"-63.51","44.88","HALIFAX STANFIELD INT'L A","8202251","2018-04-16 14:00","2018","04","16","14:00","4.0","","-5.0","","52","","","","13","","23","","24.1","","101.28","","","","","","Cloudy"
"-63.51","44.88","HALIFAX STANFIELD INT'L A","8202251","2018-04-16 15:00","2018","04","16","15:00","3.4","","-5.7","","52","","","","13","","27","","24.1","","101.20","","","","","","NA"
"-63.51","44.88","HALIFAX STANFIELD INT'L A","8202251","2018-04-16 16:00","2018","04","16","16:00","1.9","","-3.9","","66","","","","13","","24","","24.1","","101.12","","","","","","NA"
"-63.51","44.88","HALIFAX STANFIELD INT'L A","8202251","2018-04-16 17:00","2018","04","16","17:00","1.5","","-2.6","","74","","","","13","","21","","24.1","","101.03","","","","","","Cloudy"
"-63.51","44.88","HALIFAX STANFIELD INT'L A","8202251","2018-04-16 18:00","2018","04","16","18:00","1.0","","-2.3","","79","","","","13","","25","","24.1","","101.01","","","","","","NA"
"-63.51","44.88","HALIFAX STANFIELD INT'L A","8202251","2018-04-16 19:00","2018","04","16","19:00","0.5","","-1.9","","84","","","","12","","23","","24.1","","100.90","","","","","","Rain Showers"
"-63.51","44.88","HALIFAX STANFIELD INT'L A","8202251","2018-04-16 20:00","2018","04","16","20:00","0.6","","-1.8","","84","","","","11","","28","","24.1","","100.80","","","","","","Cloudy"
"-63.51","44.88","HALIFAX STANFIELD INT'L A","8202251","2018-04-16 21:00","2018","04","16","21:00","0.5","","-0.8","","91","","","","12","","29","","24.1","","100.70","","","","","","NA"
"-63.51","44.88","HALIFAX STANFIELD INT'L A","8202251","2018-04-16 22:00","2018","04","16","22:00","1.0","","-0.2","","92","","","","12","","25","","24.1","","100.57","","","","","","NA"
"-63.51","44.88","HALIFAX STANFIELD INT'L A","8202251","2018-04-16 23:00","2018","04","16","23:00","1.8","","0.3","","90","","","","13","","28","","24.1","","100.44","","","","","","Cloudy"
"-63.51","44.88","HALIFAX STANFIELD INT'L A","8202251","2018-04-17 00:00","2018","04","17","00:00","2.3","","0.8","","90","","","","13","","34","","24.1","","100.33","","","","","","NA"
"-63.51","44.88","HALIFAX STANFIELD INT'L A","8202251","2018-04-17 01:00","2018","04","17","01:00","2.1","","1.8","","98","","","","12","","30","","6.4","","100.21","","","","","","Rain,Fog"
"-63.51","44.88","HALIFAX STANFIELD INT'L A","8202251","2018-04-17 02:00","2018","04","17","02:00","2.5","","2.5","","100","","","","12","","36","","3.2","","99.99","","","","","","Rain,Fog"
"-63.51","44.88","HALIFAX STANFIELD INT'L A","8202251","2018-04-17 03:00","2018","04","17","03:00","2.9","","2.9","","100","","","","12","","41","","3.2","","99.86","","","","","","Rain,Fog"
"-63.51","44.88","HALIFAX STANFIELD INT'L A","8202251","2018-04-17 04:00","2018","04","17","04:00","3.2","","3.2","","100","","","","12","","51","","4.0","","99.72","","","","","","Rain,Fog"
"-63.51","44.88","HALIFAX STANFIELD INT'L A","8202251","2018-04-17 05:00","2018","04","17","05:00","3.2","","3.2","","100","","","","12","","46","","4.0","","99.61","","","","","","Rain,Fog"
"-63.51","44.88","HALIFAX STANFIELD INT'L A","8202251","2018-04-17 06:00","2018","04","17","06:00","3.4","","3.4","","100","","","","12","","48","","3.2","","99.47","","","","","","Rain,Fog"
"-63.51","44.88","HALIFAX STANFIELD INT'L A","8202251","2018-04-17 07:00","2018","04","17","07:00","3.6","","3.6","","100","","","","12","","44","","2.4","","99.39","","","","","","Rain,Fog"
"-63.51","44.88","HALIFAX STANFIELD INT'L A","8202251","2018-04-17 08:00","2018","04","17","08:00","3.8","","3.8","","100","","","","12","","48","","2.4","","99.31","","","","","","Rain,Fog"
"-63.51","44.88","HALIFAX STANFIELD INT'L A","8202251","2018-04-17 09:00","2018","04","17","09:00","4.4","","4.4","","100","","","","12","","40","","3.2","","99.16","","","","","","Rain,Fog"
"-63.51","44.88","HALIFAX STANFIELD INT'L A","8202251","2018-04-17 10:00","2018","04","17","10:00","5.0","","5.0","","100","","","","11","","43","","2.4","","99.00","","","","","","Rain,Fog"
"-63.51","44.88","HALIFAX STANFIELD INT'L A","8202251","2018-04-17 11:00","2018","04","17","11:00","5.7","","5.7","","100","","","","11","","43","","3.2","","98.81","","","","","","Moderate Rain,Fog"
"-63.51","44.88","HALIFAX STANFIELD INT'L A","8202251","2018-04-17 12:00","2018","04","17","12:00","6.9","","6.9","","100","","","","11","","41","","3.2","","98.65","","","","","","Moderate Rain,Fog"
"-63.51","44.88","HALIFAX STANFIELD INT'L A","8202251","2018-04-17 13:00","2018","04","17","13:00","7.9","","7.9","","100","","","","13","","41","","24.1","","98.46","","","","","","Rain"
"-63.51","44.88","HALIFAX STANFIELD INT'L A","8202251","2018-04-17 14:00","2018","04","17","14:00","8.0","","8.0","","100","","","","12","","35","","3.2","","98.27","","","","","","Rain,Fog"
"-63.51","44.88","HALIFAX STANFIELD INT'L A","8202251","2018-04-17 15:00","2018","04","17","15:00","9.0","","9.0","","100","","","","13","","26","","2.0","","98.09","","","","","","Rain,Fog"
"-63.51","44.88","HALIFAX STANFIELD INT'L A","8202251","2018-04-17 16:00","2018","04","17","16:00","9.1","","9.1","","100","","","","14","","37","","2.0","","97.93","","","","","","Rain,Fog"
"-63.51","44.88","HALIFAX STANFIELD INT'L A","8202251","2018-04-17 17:00","2018","04","17","17:00","8.5","","8.5","","100","","","","14","","23","","2.0","","97.86","","","","","","Drizzle,Fog"
"-63.51","44.88","HALIFAX STANFIELD INT'L A","8202251","2018-04-17 18:00","2018","04","17","18:00","8.4","","8.4","","100","","","","17","","18","","0.2","","97.87","","","","","","Fog"
"-63.51","44.88","HALIFAX STANFIELD INT'L A","8202251","2018-04-17 19:00","2018","04","17","19:00","8.2","","8.2","","100","","","","21","","18","","1.2","","97.96","","","","","","Rain,Fog"
"-63.51","44.88","HALIFAX STANFIELD INT'L A","8202251","2018-04-17 20:00","2018","04","17","20:00","7.9","","7.9","","100","","","","26","","12","","6.4","","98.03","","","","","","Rain,Fog"
"-63.51","44.88","HALIFAX STANFIELD INT'L A","8202251","2018-04-17 21:00","2018","04","17","21:00","7.4","","7.2","","99","","","","23","","8","","24.1","","98.06","","","","","","Rain Showers"
"-63.51","44.88","HALIFAX STANFIELD INT'L A","8202251","2018-04-17 22:00","2018","04","17","22:00","7.1","","7.1","","100","","","","22","","25","","16.1","","98.16","","","","","","NA"
"-63.51","44.88","HALIFAX STANFIELD INT'L A","8202251","2018-04-17 23:00","2018","04","17","23:00","6.0","","5.9","","99","","","","21","","21","","16.1","","98.17","","","","","","Cloudy"
"-63.51","44.88","HALIFAX STANFIELD INT'L A","8202251","2018-04-18 00:00","2018","04","18","00:00","4.3","","4.2","","99","","","","20","","14","","24.1","","98.20","","","","","","NA"
"-63.51","44.88","HALIFAX STANFIELD INT'L A","8202251","2018-04-18 01:00","2018","04","18","01:00","3.4","","3.3","","99","","","","21","","14","","16.1","","98.21","","","","","","NA"
"-63.51","44.88","HALIFAX STANFIELD INT'L A","8202251","2018-04-18 02:00","2018","04","18","02:00","2.9","","2.9","","100","","","","21","","18","","16.1","","98.22","","","","","","Cloudy"
"-63.51","44.88","HALIFAX STANFIELD INT'L A","8202251","2018-04-18 03:00","2018","04","18","03:00","2.8","","2.8","","100","","","","19","","15","","16.1","","98.20","","","","","","NA"
"-63.51","44.88","HALIFAX STANFIELD INT'L A","8202251","2018-04-18 04:00","2018","04","18","04:00","2.8","","2.8","","100","","","","19","","14","","24.1","","98.19","","","","","","NA"
"-63.51","44.88","HALIFAX STANFIELD INT'L A","8202251","2018-04-18 05:00","2018","04","18","05:00","2.9","","2.9","","100","","","","20","","16","","24.1","","98.17","","","","","","Cloudy"
"-63.51","44.88","HALIFAX STANFIELD INT'L A","8202251","2018-04-18 06:00","2018","04","18","06:00","3.1","","3.0","","99","","","","21","","11","","16.1","","98.14","","","","","","NA"
"-63.51","44.88","HALIFAX STANFIELD INT'L A","8202251","2018-04-18 07:00","2018","04","18","07:00","3.4","","3.3","","99","","","","20","","21","","16.1","","98.18","","","","","","NA"
"-63.51","44.88","HALIFAX STANFIELD INT'L A","8202251","2018-04-18 08:00","2018","04","18","08:00","3.7","","3.4","","98","","","","19","","19","","12.9","","98.19","","","","","","Cloudy"
"-63.51","44.88","HALIFAX STANFIELD INT'L A","8202251","2018-04-18 09:00","2018","04","18","09:00","4.0","","3.6","","97","","","","22","","22","","16.1","","98.20","","","","","","Rain,Fog"
"-63.51","44.88","HALIFAX STANFIELD INT'L A","8202251","2018-04-18 10:00","2018","04","18","10:00","4.3","","3.7","","96","","","","21","","21","","16.1","","98.17","","","","","","Rain Showers"
"-63.51","44.88","HALIFAX STANFIELD INT'L A","8202251","2018-04-18 11:00","2018","04","18","11:00","4.5","","3.2","","91","","","","22","","21","","19.3","","98.14","","","","","","Rain Showers,Fog"
"-63.51","44.88","HALIFAX STANFIELD INT'L A","8202251","2018-04-18 12:00","2018","04","18","12:00","4.9","","4.1","","95","","","","21","","26","","19.3","","98.09","","","","","","Rain Showers"
"-63.51","44.88","HALIFAX STANFIELD INT'L A","8202251","2018-04-18 13:00","2018","04","18","13:00","6.2","","3.2","","81","","","","22","","28","","24.1","","98.04","","","","","","NA"
"-63.51","44.88","HALIFAX STANFIELD INT'L A","8202251","2018-04-18 14:00","2018","04","18","14:00","6.0","","3.2","","82","","","","22","","27","","24.1","","98.03","","","","","","Rain Showers"
"-63.51","44.88","HALIFAX STANFIELD INT'L A","8202251","2018-04-18 15:00","2018","04","18","15:00","7.3","","","M","","M","","","","","","M","19.3","","98.00","","","","","","NA"
"-63.51","44.88","HALIFAX STANFIELD INT'L A","8202251","2018-04-18 16:00","2018","04","18","16:00","5.8","","3.7","","86","","","","23","","27","","19.3","","98.07","","","","","","Rain Showers"
"-63.51","44.88","HALIFAX STANFIELD INT'L A","8202251","2018-04-18 17:00","2018","04","18","17:00","5.5","","4.3","","92","","","","23","","20","","19.3","","98.17","","","","","","Rain Showers"
"-63.51","44.88","HALIFAX STANFIELD INT'L A","8202251","2018-04-18 18:00","2018","04","18","18:00","4.8","","3.1","","89","","","","25","","23","","24.1","","98.25","","","","","","NA"
"-63.51","44.88","HALIFAX STANFIELD INT'L A","8202251","2018-04-18 19:00","2018","04","18","19:00","4.0","","1.2","","82","","","","24","","20","","24.1","","98.30","","","","","","NA"
"-63.51","44.88","HALIFAX STANFIELD INT'L A","8202251","2018-04-18 20:00","2018","04","18","20:00","3.6","","1.5","","86","","","","22","","18","","24.1","","98.40","","","","","","Mostly Cloudy"
"-63.51","44.88","HALIFAX STANFIELD INT'L A","8202251","2018-04-18 21:00","2018","04","18","21:00","3.3","","0.5","","82","","","","25","","22","","24.1","","98.47","","","","","","NA"
"-63.51","44.88","HALIFAX STANFIELD INT'L A","8202251","2018-04-18 22:00","2018","04","18","22:00","3.3","","0.7","","83","","","","24","","20","","24.1","","98.47","","","","","","NA"
"-63.51","44.88","HALIFAX STANFIELD INT'L A","8202251","2018-04-18 23:00","2018","04","18","23:00","3.0","","0.7","","85","","","","22","","18","","24.1","","98.49","","","","","","Cloudy"
"-63.51","44.88","HALIFAX STANFIELD INT'L A","8202251","2018-04-19 00:00","2018","04","19","00:00","2.7","","1.1","","89","","","","22","","21","","24.1","","98.53","","","","","","NA"
"-63.51","44.88","HALIFAX STANFIELD INT'L A","8202251","2018-04-19 01:00","2018","04","19","01:00","2.9","","1.1","","88","","","","23","","24","","24.1","","98.57","","","","","","NA"
"-63.51","44.88","HALIFAX STANFIELD INT'L A","8202251","2018-04-19 02:00","2018","04","19","02:00","2.7","","1.5","","92","","","","23","","17","","24.1","","98.55","","","","","","Cloudy"
"-63.51","44.88","HALIFAX STANFIELD INT'L A","8202251","2018-04-19 03:00","2018","04","19","03:00","2.2","","1.3","","94","","","","23","","19","","24.1","","98.61","","","","","","NA"
"-63.51","44.88","HALIFAX STANFIELD INT'L A","8202251","2018-04-19 04:00","2018","04","19","04:00","1.5","","1.4","","99","","","","23","","16","","24.1","","98.62","","","","","","NA"
"-63.51","44.88","HALIFAX STANFIELD INT'L A","8202251","2018-04-19 05:00","2018","04","19","05:00","1.3","","1.3","","100","","","","22","","13","","24.1","","98.67","","","","","","Mainly Clear"
"-63.51","44.88","HALIFAX STANFIELD INT'L A","8202251","2018-04-19 06:00","2018","04","19","06:00","1.3","","1.3","","100","","","","20","","17","","24.1","","98.74","","","","","","NA"
"-63.51","44.88","HALIFAX STANFIELD INT'L A","8202251","2018-04-19 07:00","2018","04","19","07:00","2.5","","2.1","","97","","","","21","","17","","24.1","","98.78","","","","","","NA"
"-63.51","44.88","HALIFAX STANFIELD INT'L A","8202251","2018-04-19 08:00","2018","04","19","08:00","2.9","","2.3","","96","","","","21","","18","","24.1","","98.82","","","","","","Cloudy"
"-63.51","44.88","HALIFAX STANFIELD INT'L A","8202251","2018-04-19 09:00","2018","04","19","09:00","4.1","","2.8","","91","","","","23","","10","","24.1","","98.88","","","","","","NA"
"-63.51","44.88","HALIFAX STANFIELD INT'L A","8202251","2018-04-19 10:00","2018","04","19","10:00","5.7","","3.0","","83","","","","21","","18","","24.1","","98.88","","","","","","NA"
"-63.51","44.88","HALIFAX STANFIELD INT'L A","8202251","2018-04-19 11:00","2018","04","19","11:00","7.4","","3.0","","73","","","","23","","17","","24.1","","98.90","","","","","","Mostly Cloudy"
"-63.51","44.88","HALIFAX STANFIELD INT'L A","8202251","2018-04-19 12:00","2018","04","19","12:00","8.1","","1.4","","63","","","","24","","19","","24.1","","98.87","","","","","","NA"
"-63.51","44.88","HALIFAX STANFIELD INT'L A","8202251","2018-04-19 13:00","2018","04","19","13:00","8.5","","1.7","","62","","","","25","","22","","24.1","","98.90","","","","","","NA"
"-63.51","44.88","HALIFAX STANFIELD INT'L A","8202251","2018-04-19 14:00","2018","04","19","14:00","8.8","","1.5","","60","","","","22","","10","","24.1","","98.89","","","","","","Cloudy"
"-63.51","44.88","HALIFAX STANFIELD INT'L A","8202251","2018-04-19 15:00","2018","04","19","15:00","8.7","","2.5","","65","","","","18","","15","","24.1","","98.84","","","","","","NA"
"-63.51","44.88","HALIFAX STANFIELD INT'L A","8202251","2018-04-19 16:00","2018","04","19","16:00","7.6","","2.3","","69","","","","17","","15","","24.1","","98.85","","","","","","NA"
"-63.51","44.88","HALIFAX STANFIELD INT'L A","8202251","2018-04-19 17:00","2018","04","19","17:00","5.2","","2.6","","83","","","","21","","17","","16.1","","98.85","","","","","","Rain"
"-63.51","44.88","HALIFAX STANFIELD INT'L A","8202251","2018-04-19 18:00","2018","04","19","18:00","4.2","","3.5","","95","","","","16","","9","","16.1","","98.78","","","","","","Rain"
"-63.51","44.88","HALIFAX STANFIELD INT'L A","8202251","2018-04-19 19:00","2018","04","19","19:00","3.6","","3.6","","100","","","","16","","12","","8.1","","98.79","","","","","","Rain,Fog"
"-63.51","44.88","HALIFAX STANFIELD INT'L A","8202251","2018-04-19 20:00","2018","04","19","20:00","3.0","","3.0","","100","","","","15","","7","","8.1","","98.68","","","","","","Rain,Fog"
"-63.51","44.88","HALIFAX STANFIELD INT'L A","8202251","2018-04-19 21:00","2018","04","19","21:00","3.0","","3.0","","100","","","","31","","10","","8.1","","98.81","","","","","","Rain"
"-63.51","44.88","HALIFAX STANFIELD INT'L A","8202251","2018-04-19 22:00","2018","04","19","22:00","2.1","","2.1","","100","","","","2","","10","","8.1","","98.64","","","","","","Rain"
"-63.51","44.88","HALIFAX STANFIELD INT'L A","8202251","2018-04-19 23:00","2018","04","19","23:00","2.0","","2.0","","100","","","","1","","12","","4.8","","98.56","","","","","","Snow"
"-63.51","44.88","HALIFAX STANFIELD INT'L A","8202251","2018-04-20 00:00","2018","04","20","00:00","2.1","","2.1","","100","","","","3","","13","","4.8","","98.50","","","","","","Rain,Snow"
"-63.51","44.88","HALIFAX STANFIELD INT'L A","8202251","2018-04-20 01:00","2018","04","20","01:00","1.9","","1.9","","100","","","","1","","13","","4.8","","98.46","","","","","","Rain,Snow"
"-63.51","44.88","HALIFAX STANFIELD INT'L A","8202251","2018-04-20 02:00","2018","04","20","02:00","1.6","","1.6","","100","","","","1","","13","","4.8","","98.47","","","","","","Rain,Snow"
"-63.51","44.88","HALIFAX STANFIELD INT'L A","8202251","2018-04-20 03:00","2018","04","20","03:00","0.7","","0.7","","100","","","","36","","6","","4.0","","98.51","","","","","","Snow"
"-63.51","44.88","HALIFAX STANFIELD INT'L A","8202251","2018-04-20 04:00","2018","04","20","04:00","1.1","","1.1","","100","","","","35","","9","","9.7","","98.54","","","","","","Snow"
"-63.51","44.88","HALIFAX STANFIELD INT'L A","8202251","2018-04-20 05:00","2018","04","20","05:00","0.9","","0.9","","100","","","","35","","9","","4.8","","98.52","","","","","","Snow"
"-63.51","44.88","HALIFAX STANFIELD INT'L A","8202251","2018-04-20 06:00","2018","04","20","06:00","0.9","","0.9","","100","","","","36","","12","","2.0","","98.52","","","","","","Drizzle,Fog"
"-63.51","44.88","HALIFAX STANFIELD INT'L A","8202251","2018-04-20 07:00","2018","04","20","07:00","1.0","","1.0","","100","","","","36","","12","","2.0","","98.61","","","","","","Drizzle,Fog"
"-63.51","44.88","HALIFAX STANFIELD INT'L A","8202251","2018-04-20 08:00","2018","04","20","08:00","0.6","","0.6","","100","","","","35","","5","","1.6","","98.66","","","","","","Snow,Fog"
"-63.51","44.88","HALIFAX STANFIELD INT'L A","8202251","2018-04-20 09:00","2018","04","20","09:00","0.4","","0.4","","100","","","","33","","12","","0.8","","98.71","","","","","","Moderate Snow"
"-63.51","44.88","HALIFAX STANFIELD INT'L A","8202251","2018-04-20 10:00","2018","04","20","10:00","0.6","","0.6","","100","","","","34","","16","","0.8","","98.73","","","","","","Moderate Snow"
"-63.51","44.88","HALIFAX STANFIELD INT'L A","8202251","2018-04-20 11:00","2018","04","20","11:00","2.0","","2.0","","100","","","","34","","21","","16.1","","98.73","","","","","","Snow"
"-63.51","44.88","HALIFAX STANFIELD INT'L A","8202251","2018-04-20 12:00","2018","04","20","12:00","2.4","","2.4","","100","","","","34","","23","","19.3","","98.80","","","","","","Rain"
"-63.51","44.88","HALIFAX STANFIELD INT'L A","8202251","2018-04-20 13:00","2018","04","20","13:00","3.1","","3.0","","99","","","","33","","29","","24.1","","98.88","","","","","","NA"
"-63.51","44.88","HALIFAX STANFIELD INT'L A","8202251","2018-04-20 14:00","2018","04","20","14:00","3.3","","2.7","","96","","","","34","","23","","24.1","","98.97","","","","","","Cloudy"
"-63.51","44.88","HALIFAX STANFIELD INT'L A","8202251","2018-04-20 15:00","2018","04","20","15:00","3.5","","2.6","","94","","","","33","","28","","24.1","","99.01","","","","","","Rain Showers"
"-63.51","44.88","HALIFAX STANFIELD INT'L A","8202251","2018-04-20 16:00","2018","04","20","16:00","4.0","","1.6","","85","","","","34","","35","","24.1","","99.08","","","","","","Rain Showers"
"-63.51","44.88","HALIFAX STANFIELD INT'L A","8202251","2018-04-20 17:00","2018","04","20","17:00","3.0","","-0.3","","79","","","","34","","28","","24.1","","99.23","","","","","","Mostly Cloudy"
"-63.51","44.88","HALIFAX STANFIELD INT'L A","8202251","2018-04-20 18:00","2018","04","20","18:00","1.8","","-0.5","","85","","","","36","","27","","19.3","","99.37","","","","","","Snow Showers"
"-63.51","44.88","HALIFAX STANFIELD INT'L A","8202251","2018-04-20 19:00","2018","04","20","19:00","0.6","","-0.8","","90","","","","35","","28","","24.1","","99.51","","","","","","Snow Showers"
"-63.51","44.88","HALIFAX STANFIELD INT'L A","8202251","2018-04-20 20:00","2018","04","20","20:00","0.0","","-0.8","","94","","","","34","","21","","24.1","","99.63","","","","-5","","Snow Showers"
"-63.51","44.88","HALIFAX STANFIELD INT'L A","8202251","2018-04-20 21:00","2018","04","20","21:00","-1.0","","-1.4","","97","","","","33","","15","","24.1","","99.68","","","","-6","","NA"
"-63.51","44.88","HALIFAX STANFIELD INT'L A","8202251","2018-04-20 22:00","2018","04","20","22:00","-0.9","","-1.9","","93","","","","33","","19","","24.1","","99.73","","","","-6","","NA"
"-63.51","44.88","HALIFAX STANFIELD INT'L A","8202251","2018-04-20 23:00","2018","04","20","23:00","-1.5","","-1.9","","97","","","","27","","15","","24.1","","99.76","","","","-6","","Mainly Clear"
"-63.51","44.88","HALIFAX STANFIELD INT'L A","8202251","2018-04-21 00:00","2018","04","21","00:00","-0.8","","-1.4","","96","","","","28","","8","","24.1","","99.82","","","","-4","","NA"
"-63.51","44.88","HALIFAX STANFIELD INT'L A","8202251","2018-04-21 01:00","2018","04","21","01:00","-0.5","","-1.1","","96","","","","30","","10","","19.3","","99.83","","","","-4","","NA"
"-63.51","44.88","HALIFAX STANFIELD INT'L A","8202251","2018-04-21 02:00","2018","04","21","02:00","-0.5","","-0.8","","98","","","","29","","8","","19.3","","99.83","","","","-3","","Snow Showers"
"-63.51","44.88","HALIFAX STANFIELD INT'L A","8202251","2018-04-21 03:00","2018","04","21","03:00","-0.3","","-0.3","","100","","","","24","","9","","16.1","","99.83","","","","-3","","Snow Showers"
"-63.51","44.88","HALIFAX STANFIELD INT'L A","8202251","2018-04-21 04:00","2018","04","21","04:00","-0.4","","-0.4","","100","","","","26","","7","","19.3","","99.80","","","","-3","","Snow Showers"
"-63.51","44.88","HALIFAX STANFIELD INT'L A","8202251","2018-04-21 05:00","2018","04","21","05:00","-0.2","","-0.2","","100","","","","26","","7","","24.1","","99.82","","","","-3","","Cloudy"
"-63.51","44.88","HALIFAX STANFIELD INT'L A","8202251","2018-04-21 06:00","2018","04","21","06:00","0.1","","0.1","","100","","","","30","","14","","24.1","","99.86","","","","","","NA"
"-63.51","44.88","HALIFAX STANFIELD INT'L A","8202251","2018-04-21 07:00","2018","04","21","07:00","0.6","","0.6","","100","","","","31","","14","","24.1","","99.90","","","","","","NA"
"-63.51","44.88","HALIFAX STANFIELD INT'L A","8202251","2018-04-21 08:00","2018","04","21","08:00","1.4","","0.0","","91","","","","31","","19","","24.1","","99.94","","","","","","Mostly Cloudy"
"-63.51","44.88","HALIFAX STANFIELD INT'L A","8202251","2018-04-21 09:00","2018","04","21","09:00","2.9","","-0.7","","77","","","","30","","17","","24.1","","99.96","","","","","","NA"
"-63.51","44.88","HALIFAX STANFIELD INT'L A","8202251","2018-04-21 10:00","2018","04","21","10:00","3.6","","-1.5","","69","","","","32","","26","","24.1","","99.93","","","","","","NA"
"-63.51","44.88","HALIFAX STANFIELD INT'L A","8202251","2018-04-21 11:00","2018","04","21","11:00","5.2","","-2.0","","60","","","","31","","24","","24.1","","99.91","","","","","","Mostly Cloudy"
"-63.51","44.88","HALIFAX STANFIELD INT'L A","8202251","2018-04-21 12:00","2018","04","21","12:00","5.3","","-2.7","","56","","","","32","","21","","24.1","","99.88","","","","","","NA"
"-63.51","44.88","HALIFAX STANFIELD INT'L A","8202251","2018-04-21 13:00","2018","04","21","13:00","6.1","","-3.5","","50","","","","30","","26","","24.1","","99.87","","","","","","NA"
"-63.51","44.88","HALIFAX STANFIELD INT'L A","8202251","2018-04-21 14:00","2018","04","21","14:00","6.3","","-3.1","","51","","","","34","","21","","24.1","","99.89","","","","","","Mostly Cloudy"
"-63.51","44.88","HALIFAX STANFIELD INT'L A","8202251","2018-04-21 15:00","2018","04","21","15:00","6.5","","-3.9","","47","","","","28","","21","","24.1","","99.91","","","","","","NA"
"-63.51","44.88","HALIFAX STANFIELD INT'L A","8202251","2018-04-21 16:00","2018","04","21","16:00","6.4","","-4.4","","46","","","","31","","15","","24.1","","99.92","","","","","","NA"
"-63.51","44.88","HALIFAX STANFIELD INT'L A","8202251","2018-04-21 17:00","2018","04","21","17:00","7.2","","-5.1","","41","","","","29","","22","","24.1","","99.92","","","","","","Mostly Cloudy"
"-63.51","44.88","HALIFAX STANFIELD INT'L A","8202251","2018-04-21 18:00","2018","04","21","18:00","7.0","","-4.6","","43","","","","32","","17","","24.1","","99.92","","","","","","NA"
"-63.51","44.88","HALIFAX STANFIELD INT'L A","8202251","2018-04-21 19:00","2018","04","21","19:00","6.3","","-4.7","","45","","","","32","","9","","24.1","","99.97","","","","","","NA"
"-63.51","44.88","HALIFAX STANFIELD INT'L A","8202251","2018-04-21 20:00","2018","04","21","20:00","4.8","","-2.7","","58","","","","5","","10","","24.1","","100.08","","","","","","Mostly Cloudy"
"-63.51","44.88","HALIFAX STANFIELD INT'L A","8202251","2018-04-21 21:00","2018","04","21","21:00","3.6","","-2.4","","65","","","","4","","7","","24.1","","100.13","","","","","","NA"
"-63.51","44.88","HALIFAX STANFIELD INT'L A","8202251","2018-04-21 22:00","2018","04","21","22:00","2.3","","-2.5","","70","","","","19","","8","","24.1","","100.15","","","","","","NA"
"-63.51","44.88","HALIFAX STANFIELD INT'L A","8202251","2018-04-21 23:00","2018","04","21","23:00","2.3","","-2.2","","72","","","","36","","2","","24.1","","100.18","","","","","","Mostly Cloudy"
"-63.51","44.88","HALIFAX STANFIELD INT'L A","8202251","2018-04-22 00:00","2018","04","22","00:00","1.5","","-2.0","","78","","","","3","","7","","24.1","","100.22","","","","","","NA"
"-63.51","44.88","HALIFAX STANFIELD INT'L A","8202251","2018-04-22 01:00","2018","04","22","01:00","2.2","","-2.5","","71","","","","8","","7","","24.1","","100.21","","","","","","NA"
"-63.51","44.88","HALIFAX STANFIELD INT'L A","8202251","2018-04-22 02:00","2018","04","22","02:00","1.1","","-2.7","","76","","","","32","","6","","24.1","","100.20","","","","","","Mainly Clear"
"-63.51","44.88","HALIFAX STANFIELD INT'L A","8202251","2018-04-22 03:00","2018","04","22","03:00","2.2","","-5.2","","58","","","","7","","4","","24.1","","100.19","","","","","","NA"
"-63.51","44.88","HALIFAX STANFIELD INT'L A","8202251","2018-04-22 04:00","2018","04","22","04:00","0.9","","-4.1","","69","","","","36","","1","","24.1","","100.19","","","","","","NA"
"-63.51","44.88","HALIFAX STANFIELD INT'L A","8202251","2018-04-22 05:00","2018","04","22","05:00","1.6","","-4.9","","62","","","","27","","7","","24.1","","100.22","","","","","","Mainly Clear"
"-63.51","44.88","HALIFAX STANFIELD INT'L A","8202251","2018-04-22 06:00","2018","04","22","06:00","1.4","","-4.0","","67","","","","27","","11","","24.1","","100.28","","","","","","NA"
"-63.51","44.88","HALIFAX STANFIELD INT'L A","8202251","2018-04-22 07:00","2018","04","22","07:00","2.6","","-3.2","","66","","","","28","","10","","24.1","","100.31","","","","","","NA"
"-63.51","44.88","HALIFAX STANFIELD INT'L A","8202251","2018-04-22 08:00","2018","04","22","08:00","4.2","","-3.6","","57","","","","30","","17","","24.1","","100.33","","","","","","Mainly Clear"
"-63.51","44.88","HALIFAX STANFIELD INT'L A","8202251","2018-04-22 09:00","2018","04","22","09:00","6.1","","-6.1","","41","","","","28","","23","","24.1","","100.32","","","","","","NA"
"-63.51","44.88","HALIFAX STANFIELD INT'L A","8202251","2018-04-22 10:00","2018","04","22","10:00","7.0","","-6.1","","39","","","","33","","21","","24.1","","100.34","","","","","","NA"
"-63.51","44.88","HALIFAX STANFIELD INT'L A","8202251","2018-04-22 11:00","2018","04","22","11:00","8.3","","-4.8","","39","","","","32","","21","","24.1","","100.29","","","","","","Mainly Clear"
"-63.51","44.88","HALIFAX STANFIELD INT'L A","8202251","2018-04-22 12:00","2018","04","22","12:00","8.9","","-4.7","","38","","","","33","","14","","24.1","","100.29","","","","","","NA"
"-63.51","44.88","HALIFAX STANFIELD INT'L A","8202251","2018-04-22 13:00","2018","04","22","13:00","9.5","","-3.7","","39","","","","36","","11","","24.1","","100.30","","","","","","NA"
"-63.51","44.88","HALIFAX STANFIELD INT'L A","8202251","2018-04-22 14:00","2018","04","22","14:00","10.5","","-3.6","","37","","","","32","","27","","24.1","","100.28","","","","","","Mostly Cloudy"
"-63.51","44.88","HALIFAX STANFIELD INT'L A","8202251","2018-04-22 15:00","2018","04","22","15:00","9.9","","-5.5","","33","","","","34","","19","","24.1","","100.29","","","","","","NA"
"-63.51","44.88","HALIFAX STANFIELD INT'L A","8202251","2018-04-22 16:00","2018","04","22","16:00","10.4","","-5.6","","32","","","","33","","11","","24.1","","100.32","","","","","","NA"
"-63.51","44.88","HALIFAX STANFIELD INT'L A","8202251","2018-04-22 17:00","2018","04","22","17:00","10.4","","-5.0","","33","","","","31","","28","","24.1","","100.36","","","","","","Mainly Clear"
"-63.51","44.88","HALIFAX STANFIELD INT'L A","8202251","2018-04-22 18:00","2018","04","22","18:00","9.1","","-5.5","","35","","","","35","","15","","24.1","","100.42","","","","","","NA"
"-63.51","44.88","HALIFAX STANFIELD INT'L A","8202251","2018-04-22 19:00","2018","04","22","19:00","6.8","","-5.5","","41","","","","3","","13","","24.1","","100.49","","","","","","NA"
"-63.51","44.88","HALIFAX STANFIELD INT'L A","8202251","2018-04-22 20:00","2018","04","22","20:00","5.0","","-5.7","","46","","","","4","","8","","24.1","","100.56","","","","","","Clear"
"-63.51","44.88","HALIFAX STANFIELD INT'L A","8202251","2018-04-22 21:00","2018","04","22","21:00","4.4","","-6.8","","44","","","","4","","8","","24.1","","100.64","","","","","","NA"
"-63.51","44.88","HALIFAX STANFIELD INT'L A","8202251","2018-04-22 22:00","2018","04","22","22:00","4.6","","-8.2","","39","","","","6","","7","","24.1","","100.68","","","","","","NA"
"-63.51","44.88","HALIFAX STANFIELD INT'L A","8202251","2018-04-22 23:00","2018","04","22","23:00","4.1","","-9.3","","37","","","","11","","8","","24.1","","100.71","","","","","","Clear"
"-63.51","44.88","HALIFAX STANFIELD INT'L A","8202251","2018-04-23 00:00","2018","04","23","00:00","4.6","","-9.2","","36","","","","14","","7","","24.1","","100.72","","","","","","NA"
"-63.51","44.88","HALIFAX STANFIELD INT'L A","8202251","2018-04-23 01:00","2018","04","23","01:00","1.9","","-8.5","","46","","","","21","","8","","24.1","","100.74","","","","","","NA"
"-63.51","44.88","HALIFAX STANFIELD INT'L A","8202251","2018-04-23 02:00","2018","04","23","02:00","1.2","","-5.0","","63","","","","22","","8","","24.1","","100.74","","","","","","Clear"
"-63.51","44.88","HALIFAX STANFIELD INT'L A","8202251","2018-04-23 03:00","2018","04","23","03:00","1.4","","-5.4","","61","","","","21","","12","","24.1","","100.76","","","","","","NA"
"-63.51","44.88","HALIFAX STANFIELD INT'L A","8202251","2018-04-23 04:00","2018","04","23","04:00","1.9","","-5.6","","58","","","","28","","5","","24.1","","100.78","","","","","","NA"
"-63.51","44.88","HALIFAX STANFIELD INT'L A","8202251","2018-04-23 05:00","2018","04","23","05:00","2.3","","-5.6","","56","","","","29","","6","","24.1","","100.81","","","","","","Clear"
"-63.51","44.88","HALIFAX STANFIELD INT'L A","8202251","2018-04-23 06:00","2018","04","23","06:00","1.9","","-4.2","","64","","","","31","","10","","24.1","","100.88","","","","","","NA"
"-63.51","44.88","HALIFAX STANFIELD INT'L A","8202251","2018-04-23 07:00","2018","04","23","07:00","2.4","","-3.4","","66","","","","35","","9","","24.1","","100.96","","","","","","NA"
"-63.51","44.88","HALIFAX STANFIELD INT'L A","8202251","2018-04-23 08:00","2018","04","23","08:00","4.5","","-4.1","","54","","","","31","","10","","24.1","","101.01","","","","","","Mainly Clear"
"-63.51","44.88","HALIFAX STANFIELD INT'L A","8202251","2018-04-23 09:00","2018","04","23","09:00","7.2","","-4.9","","42","","","","31","","14","","24.1","","101.03","","","","","","NA"
"-63.51","44.88","HALIFAX STANFIELD INT'L A","8202251","2018-04-23 10:00","2018","04","23","10:00","9.3","","-7.8","","29","","","","34","","10","","24.1","","101.07","","","","","","NA"
"-63.51","44.88","HALIFAX STANFIELD INT'L A","8202251","2018-04-23 11:00","2018","04","23","11:00","10.5","","-7.8","","27","","","","36","","12","","24.1","","101.06","","","","","","Clear"
"-63.51","44.88","HALIFAX STANFIELD INT'L A","8202251","2018-04-23 12:00","2018","04","23","12:00","12.1","","-5.6","","29","","","","36","","13","","24.1","","101.04","","","","","","NA"
"-63.51","44.88","HALIFAX STANFIELD INT'L A","8202251","2018-04-23 13:00","2018","04","23","13:00","13.2","","-8.7","","21","","","","33","","19","","24.1","","101.00","","","","","","NA"
"-63.51","44.88","HALIFAX STANFIELD INT'L A","8202251","2018-04-23 14:00","2018","04","23","14:00","13.7","","-7.7","","22","","","","26","","14","","24.1","","100.97","","","","","","Clear"
"-63.51","44.88","HALIFAX STANFIELD INT'L A","8202251","2018-04-23 15:00","2018","04","23","15:00","13.9","","-7.7","","22","","","","27","","12","","24.1","","100.93","","","","","","NA"
"-63.51","44.88","HALIFAX STANFIELD INT'L A","8202251","2018-04-23 16:00","2018","04","23","16:00","14.6","","-7.4","","21","","","","27","","20","","24.1","","100.91","","","","","","NA"
"-63.51","44.88","HALIFAX STANFIELD INT'L A","8202251","2018-04-23 17:00","2018","04","23","17:00","14.4","","-8.3","","20","","","","29","","19","","24.1","","100.92","","","","","","Clear"
"-63.51","44.88","HALIFAX STANFIELD INT'L A","8202251","2018-04-23 18:00","2018","04","23","18:00","13.6","","-8.2","","21","","","","30","","16","","24.1","","100.94","","","","","","NA"
"-63.51","44.88","HALIFAX STANFIELD INT'L A","8202251","2018-04-23 19:00","2018","04","23","19:00","11.3","","-5.0","","31","","","","22","","17","","24.1","","100.99","","","","","","NA"
"-63.51","44.88","HALIFAX STANFIELD INT'L A","8202251","2018-04-23 20:00","2018","04","23","20:00","7.9","","-5.6","","38","","","","22","","17","","24.1","","101.02","","","","","","Mainly Clear"
"-63.51","44.88","HALIFAX STANFIELD INT'L A","8202251","2018-04-23 21:00","2018","04","23","21:00","7.2","","-6.8","","36","","","","22","","17","","24.1","","101.05","","","","","","NA"
"-63.51","44.88","HALIFAX STANFIELD INT'L A","8202251","2018-04-23 22:00","2018","04","23","22:00","6.5","","-5.7","","41","","","","22","","13","","24.1","","101.05","","","","","","NA"
"-63.51","44.88","HALIFAX STANFIELD INT'L A","8202251","2018-04-23 23:00","2018","04","23","23:00","6.5","","-4.8","","44","","","","23","","13","","24.1","","101.06","","","","","","Clear"
"-63.51","44.88","HALIFAX STANFIELD INT'L A","8202251","2018-04-24 00:00","2018","04","24","00:00","5.8","","-4.5","","48","","","","25","","12","","24.1","","101.09","","","","","","NA"
"-63.51","44.88","HALIFAX STANFIELD INT'L A","8202251","2018-04-24 01:00","2018","04","24","01:00","5.8","","-5.5","","44","","","","28","","7","","24.1","","101.10","","","","","","NA"
"-63.51","44.88","HALIFAX STANFIELD INT'L A","8202251","2018-04-24 02:00","2018","04","24","02:00","4.9","","-5.8","","46","","","","25","","5","","24.1","","101.08","","","","","","Clear"
"-63.51","44.88","HALIFAX STANFIELD INT'L A","8202251","2018-04-24 03:00","2018","04","24","03:00","4.7","","-7.2","","42","","","","27","","17","","24.1","","101.10","","","","","","NA"
"-63.51","44.88","HALIFAX STANFIELD INT'L A","8202251","2018-04-24 04:00","2018","04","24","04:00","4.6","","-8.0","","40","","","","26","","14","","24.1","","101.08","","","","","","NA"
"-63.51","44.88","HALIFAX STANFIELD INT'L A","8202251","2018-04-24 05:00","2018","04","24","05:00","4.9","","-7.9","","39","","","","25","","16","","24.1","","101.05","","","","","","Mainly Clear"
"-63.51","44.88","HALIFAX STANFIELD INT'L A","8202251","2018-04-24 06:00","2018","04","24","06:00","2.7","","-5.5","","55","","","","21","","12","","40.2","","101.07","","","","","","NA"
"-63.51","44.88","HALIFAX STANFIELD INT'L A","8202251","2018-04-24 07:00","2018","04","24","07:00","4.5","","-5.1","","50","","","","21","","16","","24.1","","101.09","","","","","","NA"
"-63.51","44.88","HALIFAX STANFIELD INT'L A","8202251","2018-04-24 08:00","2018","04","24","08:00","8.3","","-6.0","","36","","","","25","","10","","24.1","","101.05","","","","","","Mainly Clear"
"-63.51","44.88","HALIFAX STANFIELD INT'L A","8202251","2018-04-24 09:00","2018","04","24","09:00","10.6","","-5.1","","33","","","","22","","19","","24.1","","101.00","","","","","","NA"
"-63.51","44.88","HALIFAX STANFIELD INT'L A","8202251","2018-04-24 10:00","2018","04","24","10:00","13.5","","-4.0","","29","","","","23","","22","","24.1","","100.99","","","","","","NA"
"-63.51","44.88","HALIFAX STANFIELD INT'L A","8202251","2018-04-24 11:00","2018","04","24","11:00","15.3","","-3.8","","27","","","","24","","23","","24.1","","100.93","","","","","","Mostly Cloudy"
"-63.51","44.88","HALIFAX STANFIELD INT'L A","8202251","2018-04-24 12:00","2018","04","24","12:00","16.4","","-3.2","","26","","","","20","","23","","24.1","","100.85","","","","","","NA"
"-63.51","44.88","HALIFAX STANFIELD INT'L A","8202251","2018-04-24 13:00","2018","04","24","13:00","16.5","","-1.1","","30","","","","22","","23","","24.1","","100.76","","","","","","NA"
"-63.51","44.88","HALIFAX STANFIELD INT'L A","8202251","2018-04-24 14:00","2018","04","24","14:00","16.2","","-1.1","","30","","","","22","","30","","24.1","","100.71","","","","","","Mostly Cloudy"
"-63.51","44.88","HALIFAX STANFIELD INT'L A","8202251","2018-04-24 15:00","2018","04","24","15:00","17.1","","-1.9","","27","","","","20","","28","","24.1","","100.66","","","","","","NA"
"-63.51","44.88","HALIFAX STANFIELD INT'L A","8202251","2018-04-24 16:00","2018","04","24","16:00","16.8","","-0.9","","30","","","","19","","26","","24.1","","100.62","","","","","","NA"
"-63.51","44.88","HALIFAX STANFIELD INT'L A","8202251","2018-04-24 17:00","2018","04","24","17:00","15.9","","-1.5","","30","","","","21","","21","","24.1","","100.61","","","","","","Mainly Clear"
"-63.51","44.88","HALIFAX STANFIELD INT'L A","8202251","2018-04-24 18:00","2018","04","24","18:00","13.3","","-2.2","","34","","","","20","","27","","24.1","","100.63","","","","","","NA"
"-63.51","44.88","HALIFAX STANFIELD INT'L A","8202251","2018-04-24 19:00","2018","04","24","19:00","10.9","","-2.8","","38","","","","21","","24","","24.1","","100.67","","","","","","NA"
"-63.51","44.88","HALIFAX STANFIELD INT'L A","8202251","2018-04-24 20:00","2018","04","24","20:00","10.0","","-3.3","","39","","","","22","","22","","24.1","","100.73","","","","","","Mainly Clear"
"-63.51","44.88","HALIFAX STANFIELD INT'L A","8202251","2018-04-24 21:00","2018","04","24","21:00","7.9","","-2.4","","48","","","","22","","20","","24.1","","100.77","","","","","","NA"
"-63.51","44.88","HALIFAX STANFIELD INT'L A","8202251","2018-04-24 22:00","2018","04","24","22:00","7.4","","-2.1","","51","","","","22","","18","","24.1","","100.76","","","","","","NA"
"-63.51","44.88","HALIFAX STANFIELD INT'L A","8202251","2018-04-24 23:00","2018","04","24","23:00","5.6","","-1.6","","60","","","","18","","12","","24.1","","100.78","","","","","","Mostly Cloudy"
"-63.51","44.88","HALIFAX STANFIELD INT'L A","8202251","2018-04-25 00:00","2018","04","25","00:00","4.7","","-1.5","","64","","","","20","","16","","24.1","","100.77","","","","","","NA"
"-63.51","44.88","HALIFAX STANFIELD INT'L A","8202251","2018-04-25 01:00","2018","04","25","01:00","3.7","","-1.9","","67","","","","20","","12","","24.1","","100.76","","","","","","NA"
"-63.51","44.88","HALIFAX STANFIELD INT'L A","8202251","2018-04-25 02:00","2018","04","25","02:00","3.0","","-2.1","","69","","","","21","","16","","24.1","","100.74","","","","","","Mostly Cloudy"
"-63.51","44.88","HALIFAX STANFIELD INT'L A","8202251","2018-04-25 03:00","2018","04","25","03:00","2.6","","-1.4","","75","","","","20","","15","","24.1","","100.77","","","","","","NA"
"-63.51","44.88","HALIFAX STANFIELD INT'L A","8202251","2018-04-25 04:00","2018","04","25","04:00","2.4","","-1.0","","78","","","","19","","13","","24.1","","100.74","","","","","","NA"
"-63.51","44.88","HALIFAX STANFIELD INT'L A","8202251","2018-04-25 05:00","2018","04","25","05:00","2.5","","-0.8","","79","","","","20","","18","","24.1","","100.72","","","","","","Mostly Cloudy"
"-63.51","44.88","HALIFAX STANFIELD INT'L A","8202251","2018-04-25 06:00","2018","04","25","06:00","2.8","","-0.3","","80","","","","20","","17","","24.1","","100.76","","","","","","NA"
"-63.51","44.88","HALIFAX STANFIELD INT'L A","8202251","2018-04-25 07:00","2018","04","25","07:00","4.9","","1.0","","76","","","","20","","16","","24.1","","100.77","","","","","","NA"
"-63.51","44.88","HALIFAX STANFIELD INT'L A","8202251","2018-04-25 08:00","2018","04","25","08:00","7.8","","3.0","","72","","","","21","","17","","24.1","","100.78","","","","","","Mostly Cloudy"
"-63.51","44.88","HALIFAX STANFIELD INT'L A","8202251","2018-04-25 09:00","2018","04","25","09:00","11.0","","5.1","","67","","","","22","","27","","24.1","","100.75","","","","","","NA"
"-63.51","44.88","HALIFAX STANFIELD INT'L A","8202251","2018-04-25 10:00","2018","04","25","10:00","13.6","","5.6","","58","","","","23","","23","","24.1","","100.74","","","","","","NA"
"-63.51","44.88","HALIFAX STANFIELD INT'L A","8202251","2018-04-25 11:00","2018","04","25","11:00","14.1","","5.9","","58","","","","22","","26","","24.1","","100.72","","","","","","Mostly Cloudy"
"-63.51","44.88","HALIFAX STANFIELD INT'L A","8202251","2018-04-25 12:00","2018","04","25","12:00","14.5","","5.6","","55","","","","21","","34","","24.1","","100.69","","","","","","NA"
"-63.51","44.88","HALIFAX STANFIELD INT'L A","8202251","2018-04-25 13:00","2018","04","25","13:00","14.5","","6.2","","57","","","","20","","28","","24.1","","100.67","","","","","","NA"
"-63.51","44.88","HALIFAX STANFIELD INT'L A","8202251","2018-04-25 14:00","2018","04","25","14:00","15.1","","7.4","","60","","","","22","","37","","24.1","","100.61","","","","","","Mostly Cloudy"
"-63.51","44.88","HALIFAX STANFIELD INT'L A","8202251","2018-04-25 15:00","2018","04","25","15:00","14.9","","7.1","","59","","","","20","","34","","24.1","","100.58","","","","","","NA"
"-63.51","44.88","HALIFAX STANFIELD INT'L A","8202251","2018-04-25 16:00","2018","04","25","16:00","15.0","","6.8","","58","","","","20","","39","","24.1","","100.56","","","","","","NA"
"-63.51","44.88","HALIFAX STANFIELD INT'L A","8202251","2018-04-25 17:00","2018","04","25","17:00","13.8","","6.6","","62","","","","21","","31","","24.1","","100.55","","","","","","Mostly Cloudy"
"-63.51","44.88","HALIFAX STANFIELD INT'L A","8202251","2018-04-25 18:00","2018","04","25","18:00","12.9","","6.3","","64","","","","21","","24","","24.1","","100.55","","","","","","NA"
"-63.51","44.88","HALIFAX STANFIELD INT'L A","8202251","2018-04-25 19:00","2018","04","25","19:00","12.1","","6.4","","68","","","","20","","17","","24.1","","100.55","","","","","","NA"
"-63.51","44.88","HALIFAX STANFIELD INT'L A","8202251","2018-04-25 20:00","2018","04","25","20:00","11.4","","6.6","","72","","","","17","","11","","24.1","","100.55","","","","","","Cloudy"
"-63.51","44.88","HALIFAX STANFIELD INT'L A","8202251","2018-04-25 21:00","2018","04","25","21:00","11.2","","7.3","","77","","","","18","","12","","24.1","","100.54","","","","","","NA"
"-63.51","44.88","HALIFAX STANFIELD INT'L A","8202251","2018-04-25 22:00","2018","04","25","22:00","11.1","","7.8","","80","","","","18","","19","","24.1","","100.47","","","","","","NA"
"-63.51","44.88","HALIFAX STANFIELD INT'L A","8202251","2018-04-25 23:00","2018","04","25","23:00","10.8","","8.2","","84","","","","18","","17","","24.1","","100.40","","","","","","Cloudy"
"-63.51","44.88","HALIFAX STANFIELD INT'L A","8202251","2018-04-26 00:00","2018","04","26","00:00","10.8","","8.2","","84","","","","15","","15","","24.1","","100.34","","","","","","NA"
"-63.51","44.88","HALIFAX STANFIELD INT'L A","8202251","2018-04-26 01:00","2018","04","26","01:00","10.8","","8.6","","86","","","","16","","21","","24.1","","100.24","","","","","","NA"
"-63.51","44.88","HALIFAX STANFIELD INT'L A","8202251","2018-04-26 02:00","2018","04","26","02:00","10.6","","8.5","","87","","","","16","","16","","24.1","","100.13","","","","","","Cloudy"
"-63.51","44.88","HALIFAX STANFIELD INT'L A","8202251","2018-04-26 03:00","2018","04","26","03:00","9.6","","8.2","","91","","","","14","","17","","24.1","","100.07","","","","","","NA"
"-63.51","44.88","HALIFAX STANFIELD INT'L A","8202251","2018-04-26 04:00","2018","04","26","04:00","10.3","","9.1","","92","","","","14","","17","","24.1","","99.97","","","","","","NA"
"-63.51","44.88","HALIFAX STANFIELD INT'L A","8202251","2018-04-26 05:00","2018","04","26","05:00","11.1","","9.7","","91","","","","15","","21","","24.1","","99.89","","","","","","Cloudy"
"-63.51","44.88","HALIFAX STANFIELD INT'L A","8202251","2018-04-26 06:00","2018","04","26","06:00","11.5","","10.1","","91","","","","14","","24","","24.1","","99.85","","","","","","NA"
"-63.51","44.88","HALIFAX STANFIELD INT'L A","8202251","2018-04-26 07:00","2018","04","26","07:00","11.3","","10.5","","95","","","","15","","30","","9.7","","99.79","","","","","","Rain Showers,Fog"
"-63.51","44.88","HALIFAX STANFIELD INT'L A","8202251","2018-04-26 08:00","2018","04","26","08:00","11.9","","11.8","","99","","","","16","","30","","6.4","","99.70","","","","","","Rain,Fog"
"-63.51","44.88","HALIFAX STANFIELD INT'L A","8202251","2018-04-26 09:00","2018","04","26","09:00","11.9","","11.9","","100","","","","15","","45","","2.8","","99.56","","","","","","Rain,Fog"
"-63.51","44.88","HALIFAX STANFIELD INT'L A","8202251","2018-04-26 10:00","2018","04","26","10:00","11.9","","11.9","","100","","","","15","","37","","2.4","","99.44","","","","","","Moderate Rain,Fog"
"-63.51","44.88","HALIFAX STANFIELD INT'L A","8202251","2018-04-26 11:00","2018","04","26","11:00","12.1","","12.1","","100","","","","16","","45","","2.4","","99.27","","","","","","Moderate Rain,Fog"
"-63.51","44.88","HALIFAX STANFIELD INT'L A","8202251","2018-04-26 12:00","2018","04","26","12:00","12.1","","12.1","","100","","","","16","","44","","2.4","","99.15","","","","","","Rain,Fog"
"-63.51","44.88","HALIFAX STANFIELD INT'L A","8202251","2018-04-26 13:00","2018","04","26","13:00","12.1","","12.1","","100","","","","16","","41","","4.0","","98.99","","","","","","Rain,Fog"
"-63.51","44.88","HALIFAX STANFIELD INT'L A","8202251","2018-04-26 14:00","2018","04","26","14:00","12.2","","12.2","","100","","","","17","","37","","4.8","","98.94","","","","","","Moderate Rain,Fog"
"-63.51","44.88","HALIFAX STANFIELD INT'L A","8202251","2018-04-26 15:00","2018","04","26","15:00","12.2","","12.2","","100","","","","18","","45","","0.8","","98.80","","","","","","Rain,Fog"
"-63.51","44.88","HALIFAX STANFIELD INT'L A","8202251","2018-04-26 16:00","2018","04","26","16:00","11.5","","11.5","","100","","","","19","","31","","2.4","","98.83","","","","","","Drizzle,Fog"
"-63.51","44.88","HALIFAX STANFIELD INT'L A","8202251","2018-04-26 17:00","2018","04","26","17:00","11.8","","11.8","","100","","","","19","","29","","0.8","","98.86","","","","","","Drizzle,Fog"
"-63.51","44.88","HALIFAX STANFIELD INT'L A","8202251","2018-04-26 18:00","2018","04","26","18:00","11.6","","11.6","","100","","","","19","","24","","1.6","","98.88","","","","","","Drizzle,Fog"
"-63.51","44.88","HALIFAX STANFIELD INT'L A","8202251","2018-04-26 19:00","2018","04","26","19:00","11.4","","11.4","","100","","","","17","","18","","1.2","","98.88","","","","","","Drizzle,Fog"
"-63.51","44.88","HALIFAX STANFIELD INT'L A","8202251","2018-04-26 20:00","2018","04","26","20:00","10.6","","10.6","","100","","","","18","","18","","0.6","","98.89","","","","","","Drizzle,Fog"
"-63.51","44.88","HALIFAX STANFIELD INT'L A","8202251","2018-04-26 21:00","2018","04","26","21:00","10.5","","10.5","","100","","","","19","","18","","0.6","","98.87","","","","","","Drizzle,Fog"
"-63.51","44.88","HALIFAX STANFIELD INT'L A","8202251","2018-04-26 22:00","2018","04","26","22:00","9.3","","9.3","","100","","","","20","","28","","1.6","","98.87","","","","","","Drizzle,Fog"
"-63.51","44.88","HALIFAX STANFIELD INT'L A","8202251","2018-04-26 23:00","2018","04","26","23:00","8.4","","8.4","","100","","","","20","","27","","0.8","","98.87","","","","","","Fog"
"-63.51","44.88","HALIFAX STANFIELD INT'L A","8202251","2018-04-27 00:00","2018","04","27","00:00","8.0","","8.0","","100","","","","19","","23","","0.6","","98.93","","","","","","Fog"
"-63.51","44.88","HALIFAX STANFIELD INT'L A","8202251","2018-04-27 01:00","2018","04","27","01:00","8.1","","8.1","","100","","","","19","","17","","0.6","","98.92","","","","","","Fog"
"-63.51","44.88","HALIFAX STANFIELD INT'L A","8202251","2018-04-27 02:00","2018","04","27","02:00","7.2","","7.2","","100","","","","20","","23","","0.4","","98.96","","","","","","Fog"
"-63.51","44.88","HALIFAX STANFIELD INT'L A","8202251","2018-04-27 03:00","2018","04","27","03:00","6.8","","6.8","","100","","","","21","","19","","0.4","","98.99","","","","","","Fog"
"-63.51","44.88","HALIFAX STANFIELD INT'L A","8202251","2018-04-27 04:00","2018","04","27","04:00","7.4","","7.4","","100","","","","21","","19","","3.2","","99.07","","","","","","Fog"
"-63.51","44.88","HALIFAX STANFIELD INT'L A","8202251","2018-04-27 05:00","2018","04","27","05:00","7.7","","7.7","","100","","","","23","","17","","8.1","","99.15","","","","","","Fog"
"-63.51","44.88","HALIFAX STANFIELD INT'L A","8202251","2018-04-27 06:00","2018","04","27","06:00","7.7","","7.7","","100","","","","22","","24","","8.1","","99.31","","","","","","Fog"
"-63.51","44.88","HALIFAX STANFIELD INT'L A","8202251","2018-04-27 07:00","2018","04","27","07:00","8.2","","8.2","","100","","","","22","","18","","24.1","","99.39","","","","","","NA"
"-63.51","44.88","HALIFAX STANFIELD INT'L A","8202251","2018-04-27 08:00","2018","04","27","08:00","9.3","","9.3","","100","","","","24","","21","","24.1","","99.48","","","","","","Mostly Cloudy"
"-63.51","44.88","HALIFAX STANFIELD INT'L A","8202251","2018-04-27 09:00","2018","04","27","09:00","10.9","","9.8","","93","","","","23","","17","","24.1","","99.54","","","","","","NA"
"-63.51","44.88","HALIFAX STANFIELD INT'L A","8202251","2018-04-27 10:00","2018","04","27","10:00","12.7","","10.2","","85","","","","23","","18","","24.1","","99.57","","","","","","NA"
"-63.51","44.88","HALIFAX STANFIELD INT'L A","8202251","2018-04-27 11:00","2018","04","27","11:00","14.7","","10.0","","73","","","","22","","12","","24.1","","99.59","","","","","","Mostly Cloudy"
"-63.51","44.88","HALIFAX STANFIELD INT'L A","8202251","2018-04-27 12:00","2018","04","27","12:00","16.1","","10.2","","68","","","","22","","16","","24.1","","99.59","","","","","","NA"
"-63.51","44.88","HALIFAX STANFIELD INT'L A","8202251","2018-04-27 13:00","2018","04","27","13:00","17.3","","10.6","","64","","","","23","","18","","24.1","","99.57","","","","","","NA"
"-63.51","44.88","HALIFAX STANFIELD INT'L A","8202251","2018-04-27 14:00","2018","04","27","14:00","17.9","","10.1","","60","","","","22","","27","","24.1","","99.60","","","","","","Mostly Cloudy"
"-63.51","44.88","HALIFAX STANFIELD INT'L A","8202251","2018-04-27 15:00","2018","04","27","15:00","16.2","","8.4","","60","","","","22","","28","","24.1","","99.61","","","","","","NA"
"-63.51","44.88","HALIFAX STANFIELD INT'L A","8202251","2018-04-27 16:00","2018","04","27","16:00","15.6","","7.2","","57","","","","21","","27","","24.1","","99.61","","","","","","NA"
"-63.51","44.88","HALIFAX STANFIELD INT'L A","8202251","2018-04-27 17:00","2018","04","27","17:00","14.9","","6.1","","55","","","","21","","24","","24.1","","99.64","","","","","","Mostly Cloudy"
"-63.51","44.88","HALIFAX STANFIELD INT'L A","8202251","2018-04-27 18:00","2018","04","27","18:00","13.1","","5.8","","61","","","","21","","27","","24.1","","99.69","","","","","","NA"
"-63.51","44.88","HALIFAX STANFIELD INT'L A","8202251","2018-04-27 19:00","2018","04","27","19:00","11.7","","5.7","","66","","","","19","","15","","24.1","","99.72","","","","","","NA"
"-63.51","44.88","HALIFAX STANFIELD INT'L A","8202251","2018-04-27 20:00","2018","04","27","20:00","9.0","","5.6","","79","","","","17","","15","","24.1","","99.77","","","","","","Mainly Clear"
"-63.51","44.88","HALIFAX STANFIELD INT'L A","8202251","2018-04-27 21:00","2018","04","27","21:00","6.8","","5.1","","89","","","","15","","18","","24.1","","99.82","","","","","","NA"
"-63.51","44.88","HALIFAX STANFIELD INT'L A","8202251","2018-04-27 22:00","2018","04","27","22:00","5.7","","4.8","","94","","","","16","","17","","24.1","","99.84","","","","","","NA"
"-63.51","44.88","HALIFAX STANFIELD INT'L A","8202251","2018-04-27 23:00","2018","04","27","23:00","5.3","","4.9","","97","","","","15","","15","","24.1","","99.82","","","","","","Mostly Cloudy"
"-63.51","44.88","HALIFAX STANFIELD INT'L A","8202251","2018-04-28 00:00","2018","04","28","00:00","5.5","","5.5","","100","","","","15","","22","","0.8","","99.79","","","","","","Fog"
"-63.51","44.88","HALIFAX STANFIELD INT'L A","8202251","2018-04-28 01:00","2018","04","28","01:00","6.5","","6.5","","100","","","","15","","21","","0.2","","99.71","","","","","","Fog"
"-63.51","44.88","HALIFAX STANFIELD INT'L A","8202251","2018-04-28 02:00","2018","04","28","02:00","7.0","","7.0","","100","","","","14","","17","","0.8","","99.67","","","","","","Fog"
"-63.51","44.88","HALIFAX STANFIELD INT'L A","8202251","2018-04-28 03:00","2018","04","28","03:00","8.4","","8.4","","100","","","","14","","23","","1.2","","99.63","","","","","","Fog"
"-63.51","44.88","HALIFAX STANFIELD INT'L A","8202251","2018-04-28 04:00","2018","04","28","04:00","9.0","","9.0","","100","","","","13","","16","","0.2","","99.63","","","","","","Fog"
"-63.51","44.88","HALIFAX STANFIELD INT'L A","8202251","2018-04-28 05:00","2018","04","28","05:00","10.1","","10.1","","100","","","","15","","13","","0.2","","99.58","","","","","","Fog"
"-63.51","44.88","HALIFAX STANFIELD INT'L A","8202251","2018-04-28 06:00","2018","04","28","06:00","10.3","","10.3","","100","","","","13","","21","","0.2","","99.52","","","","","","Fog"
"-63.51","44.88","HALIFAX STANFIELD INT'L A","8202251","2018-04-28 07:00","2018","04","28","07:00","10.5","","10.5","","100","","","","14","","20","","0.4","","99.53","","","","","","Rain,Fog"
"-63.51","44.88","HALIFAX STANFIELD INT'L A","8202251","2018-04-28 08:00","2018","04","28","08:00","11.7","","11.7","","100","","","","15","","19","","0.4","","99.49","","","","","","Rain,Fog"
"-63.51","44.88","HALIFAX STANFIELD INT'L A","8202251","2018-04-28 09:00","2018","04","28","09:00","12.1","","12.1","","100","","","","20","","13","","0.8","","99.53","","","","","","Thunderstorms,Rain Showers,Fog"
"-63.51","44.88","HALIFAX STANFIELD INT'L A","8202251","2018-04-28 10:00","2018","04","28","10:00","13.6","","13.6","","100","","","","18","","21","","8.1","","99.45","","","","","","Thunderstorms,Rain Showers,Fog"
"-63.51","44.88","HALIFAX STANFIELD INT'L A","8202251","2018-04-28 11:00","2018","04","28","11:00","14.0","","14.0","","100","","","","18","","25","","0.8","","99.52","","","","","","Fog"
"-63.51","44.88","HALIFAX STANFIELD INT'L A","8202251","2018-04-28 12:00","2018","04","28","12:00","13.8","","13.8","","100","","","","19","","21","","0.8","","99.53","","","","","","Rain Showers,Fog"
"-63.51","44.88","HALIFAX STANFIELD INT'L A","8202251","2018-04-28 13:00","2018","04","28","13:00","13.9","","13.9","","100","","","","19","","23","","1.6","","99.54","","","","","","Rain Showers,Fog"
"-63.51","44.88","HALIFAX STANFIELD INT'L A","8202251","2018-04-28 14:00","2018","04","28","14:00","14.2","","14.2","","100","","","","18","","20","","2.0","","99.49","","","","","","Drizzle,Fog"
"-63.51","44.88","HALIFAX STANFIELD INT'L A","8202251","2018-04-28 15:00","2018","04","28","15:00","13.1","","13.1","","100","","","","18","","25","","0.6","","99.52","","","","","","Drizzle,Fog"
"-63.51","44.88","HALIFAX STANFIELD INT'L A","8202251","2018-04-28 16:00","2018","04","28","16:00","12.5","","12.5","","100","","","","19","","16","","0.8","","99.51","","","","","","Drizzle,Fog"
"-63.51","44.88","HALIFAX STANFIELD INT'L A","8202251","2018-04-28 17:00","2018","04","28","17:00","12.2","","12.2","","100","","","","17","","17","","0.4","","99.52","","","","","","Fog"
"-63.51","44.88","HALIFAX STANFIELD INT'L A","8202251","2018-04-28 18:00","2018","04","28","18:00","11.7","","11.7","","100","","","","16","","16","","0.2","","99.55","","","","","","Fog"
"-63.51","44.88","HALIFAX STANFIELD INT'L A","8202251","2018-04-28 19:00","2018","04","28","19:00","10.7","","10.7","","100","","","","15","","19","","0.4","","99.57","","","","","","Fog"
"-63.51","44.88","HALIFAX STANFIELD INT'L A","8202251","2018-04-28 20:00","2018","04","28","20:00","10.7","","10.7","","100","","","","17","","12","","0.4","","99.56","","","","","","Fog"
"-63.51","44.88","HALIFAX STANFIELD INT'L A","8202251","2018-04-28 21:00","2018","04","28","21:00","10.5","","10.5","","100","","","","16","","7","","0.4","","99.57","","","","","","Fog"
"-63.51","44.88","HALIFAX STANFIELD INT'L A","8202251","2018-04-28 22:00","2018","04","28","22:00","10.0","","10.0","","100","","","","15","","9","","0.4","","99.62","","","","","","Fog"
"-63.51","44.88","HALIFAX STANFIELD INT'L A","8202251","2018-04-28 23:00","2018","04","28","23:00","9.8","","9.8","","100","","","","36","","3","","0.4","","99.65","","","","","","Fog"
"-63.51","44.88","HALIFAX STANFIELD INT'L A","8202251","2018-04-29 00:00","2018","04","29","00:00","10.5","","10.5","","100","","","","32","","8","","0.4","","99.71","","","","","","Fog"
"-63.51","44.88","HALIFAX STANFIELD INT'L A","8202251","2018-04-29 01:00","2018","04","29","01:00","10.3","","10.3","","100","","","","34","","8","","0.4","","99.63","","","","","","Fog"
"-63.51","44.88","HALIFAX STANFIELD INT'L A","8202251","2018-04-29 02:00","2018","04","29","02:00","10.5","","10.5","","100","","","","7","","7","","0.4","","99.55","","","","","","Fog"
"-63.51","44.88","HALIFAX STANFIELD INT'L A","8202251","2018-04-29 03:00","2018","04","29","03:00","10.8","","10.8","","100","","","","6","","8","","1.6","","99.49","","","","","","Rain,Fog"
"-63.51","44.88","HALIFAX STANFIELD INT'L A","8202251","2018-04-29 04:00","2018","04","29","04:00","10.7","","10.7","","100","","","","10","","10","","16.1","","99.43","","","","","","Rain"
"-63.51","44.88","HALIFAX STANFIELD INT'L A","8202251","2018-04-29 05:00","2018","04","29","05:00","10.3","","10.3","","100","","","","3","","7","","0.4","","99.40","","","","","","Rain,Fog"
"-63.51","44.88","HALIFAX STANFIELD INT'L A","8202251","2018-04-29 06:00","2018","04","29","06:00","10.6","","10.6","","100","","","","1","","10","","0.8","","99.33","","","","","","Rain,Fog"
"-63.51","44.88","HALIFAX STANFIELD INT'L A","8202251","2018-04-29 07:00","2018","04","29","07:00","10.7","","10.7","","100","","","","1","","14","","0.6","","99.28","","","","","","Rain,Fog"
"-63.51","44.88","HALIFAX STANFIELD INT'L A","8202251","2018-04-29 08:00","2018","04","29","08:00","11.3","","11.3","","100","","","","3","","14","","2.4","","99.20","","","","","","Rain,Fog"
"-63.51","44.88","HALIFAX STANFIELD INT'L A","8202251","2018-04-29 09:00","2018","04","29","09:00","11.9","","11.9","","100","","","","34","","15","","0.8","","99.20","","","","","","Rain,Fog"
"-63.51","44.88","HALIFAX STANFIELD INT'L A","8202251","2018-04-29 10:00","2018","04","29","10:00","12.1","","12.1","","100","","","","2","","24","","9.7","","99.03","","","","","","Rain,Fog"
"-63.51","44.88","HALIFAX STANFIELD INT'L A","8202251","2018-04-29 11:00","2018","04","29","11:00","12.3","","12.3","","100","","","","36","","26","","19.3","","98.98","","","","","","Cloudy"
"-63.51","44.88","HALIFAX STANFIELD INT'L A","8202251","2018-04-29 12:00","2018","04","29","12:00","12.9","","12.9","","100","","","","34","","22","","24.1","","98.99","","","","","","NA"
"-63.51","44.88","HALIFAX STANFIELD INT'L A","8202251","2018-04-29 13:00","2018","04","29","13:00","12.4","","12.2","","99","","","","35","","25","","24.1","","99.02","","","","","","NA"
"-63.51","44.88","HALIFAX STANFIELD INT'L A","8202251","2018-04-29 14:00","2018","04","29","14:00","13.7","","11.8","","88","","","","35","","22","","24.1","","99.08","","","","","","Cloudy"
"-63.51","44.88","HALIFAX STANFIELD INT'L A","8202251","2018-04-29 15:00","2018","04","29","15:00","14.4","","11.2","","81","","","","34","","26","","24.1","","99.16","","","","","","NA"
"-63.51","44.88","HALIFAX STANFIELD INT'L A","8202251","2018-04-29 16:00","2018","04","29","16:00","13.7","","11.0","","84","","","","32","","23","","24.1","","99.29","","","","","","NA"
"-63.51","44.88","HALIFAX STANFIELD INT'L A","8202251","2018-04-29 17:00","2018","04","29","17:00","13.9","","10.6","","80","","","","36","","25","","24.1","","99.38","","","","","","Mostly Cloudy"
"-63.51","44.88","HALIFAX STANFIELD INT'L A","8202251","2018-04-29 18:00","2018","04","29","18:00","12.8","","10.0","","83","","","","36","","17","","24.1","","99.46","","","","","","NA"
"-63.51","44.88","HALIFAX STANFIELD INT'L A","8202251","2018-04-29 19:00","2018","04","29","19:00","10.7","","9.5","","92","","","","36","","16","","24.1","","99.56","","","","","","NA"
"-63.51","44.88","HALIFAX STANFIELD INT'L A","8202251","2018-04-29 20:00","2018","04","29","20:00","10.0","","9.2","","95","","","","2","","14","","24.1","","99.69","","","","","","Cloudy"
"-63.51","44.88","HALIFAX STANFIELD INT'L A","8202251","2018-04-29 21:00","2018","04","29","21:00","9.9","","9.1","","95","","","","5","","8","","24.1","","99.76","","","","","","NA"
"-63.51","44.88","HALIFAX STANFIELD INT'L A","8202251","2018-04-29 22:00","2018","04","29","22:00","9.8","","9.3","","97","","","","6","","7","","24.1","","99.83","","","","","","NA"
"-63.51","44.88","HALIFAX STANFIELD INT'L A","8202251","2018-04-29 23:00","2018","04","29","23:00","9.1","","8.7","","97","","","","7","","13","","24.1","","99.85","","","","","","Cloudy"
"-63.51","44.88","HALIFAX STANFIELD INT'L A","8202251","2018-04-30 00:00","2018","04","30","00:00","9.0","","8.8","","99","","","","6","","10","","24.1","","99.90","","","","","","NA"
"-63.51","44.88","HALIFAX STANFIELD INT'L A","8202251","2018-04-30 01:00","2018","04","30","01:00","8.4","","8.4","","100","","","","8","","10","","2.4","","99.87","","","","","","Fog"
"-63.51","44.88","HALIFAX STANFIELD INT'L A","8202251","2018-04-30 02:00","2018","04","30","02:00","8.0","","8.0","","100","","","","9","","15","","2.4","","99.89","","","","","","Fog"
"-63.51","44.88","HALIFAX STANFIELD INT'L A","8202251","2018-04-30 03:00","2018","04","30","03:00","7.8","","7.8","","100","","","","11","","12","","0.8","","99.90","","","","","","Fog"
"-63.51","44.88","HALIFAX STANFIELD INT'L A","8202251","2018-04-30 04:00","2018","04","30","04:00","7.9","","7.9","","100","","","","11","","14","","0.4","","99.89","","","","","","Fog"
"-63.51","44.88","HALIFAX STANFIELD INT'L A","8202251","2018-04-30 05:00","2018","04","30","05:00","8.2","","8.2","","100","","","","11","","19","","0.4","","99.89","","","","","","Fog"
"-63.51","44.88","HALIFAX STANFIELD INT'L A","8202251","2018-04-30 06:00","2018","04","30","06:00","8.2","","8.2","","100","","","","11","","17","","2.4","","99.87","","","","","","Fog"
"-63.51","44.88","HALIFAX STANFIELD INT'L A","8202251","2018-04-30 07:00","2018","04","30","07:00","8.8","","8.8","","100","","","","13","","21","","24.1","","99.86","","","","","","NA"
"-63.51","44.88","HALIFAX STANFIELD INT'L A","8202251","2018-04-30 08:00","2018","04","30","08:00","10.0","","8.4","","90","","","","13","","29","","24.1","","99.86","","","","","","Mostly Cloudy"
"-63.51","44.88","HALIFAX STANFIELD INT'L A","8202251","2018-04-30 09:00","2018","04","30","09:00","11.1","","8.6","","84","","","","12","","32","","24.1","","99.83","","","","","","NA"
"-63.51","44.88","HALIFAX STANFIELD INT'L A","8202251","2018-04-30 10:00","2018","04","30","10:00","9.4","","8.5","","94","","","","12","","30","","6.4","","99.85","","","","","","Rain,Fog"
"-63.51","44.88","HALIFAX STANFIELD INT'L A","8202251","2018-04-30 11:00","2018","04","30","11:00","8.5","","8.5","","100","","","","14","","27","","4.8","","99.87","","","","","","Moderate Rain,Fog"
"-63.51","44.88","HALIFAX STANFIELD INT'L A","8202251","2018-04-30 12:00","2018","04","30","12:00","8.8","","8.8","","100","","","","12","","32","","4.8","","99.80","","","","","","Rain,Fog"
"-63.51","44.88","HALIFAX STANFIELD INT'L A","8202251","2018-04-30 13:00","2018","04","30","13:00","8.4","","8.4","","100","","","","13","","17","","2.8","","99.79","","","","","","Rain,Fog"
"-63.51","44.88","HALIFAX STANFIELD INT'L A","8202251","2018-04-30 14:00","2018","04","30","14:00","8.5","","8.5","","100","","","","12","","31","","4.0","","99.75","","","","","","Rain,Fog"
"-63.51","44.88","HALIFAX STANFIELD INT'L A","8202251","2018-04-30 15:00","2018","04","30","15:00","8.4","","8.4","","100","","","","11","","36","","6.4","","99.58","","","","","","Rain,Fog"
"-63.51","44.88","HALIFAX STANFIELD INT'L A","8202251","2018-04-30 16:00","2018","04","30","16:00","8.7","","8.7","","100","","","","13","","26","","19.3","","99.63","","","","","","NA"
"-63.51","44.88","HALIFAX STANFIELD INT'L A","8202251","2018-04-30 17:00","2018","04","30","17:00","7.8","","7.8","","100","","","","12","","31","","1.2","","99.68","","","","","","Fog"
"-63.51","44.88","HALIFAX STANFIELD INT'L A","8202251","2018-04-30 18:00","2018","04","30","18:00","7.2","","7.2","","100","","","","14","","19","","0.4","","99.71","","","","","","Fog"
"-63.51","44.88","HALIFAX STANFIELD INT'L A","8202251","2018-04-30 19:00","2018","04","30","19:00","6.6","","6.6","","100","","","","12","","23","","0.4","","99.74","","","","","","Fog"
"-63.51","44.88","HALIFAX STANFIELD INT'L A","8202251","2018-04-30 20:00","2018","04","30","20:00","6.0","","6.0","","100","","","","13","","20","","0.6","","99.77","","","","","","Fog"
"-63.51","44.88","HALIFAX STANFIELD INT'L A","8202251","2018-04-30 21:00","2018","04","30","21:00","5.6","","5.6","","100","","","","15","","14","","0.8","","99.77","","","","","","Fog"
"-63.51","44.88","HALIFAX STANFIELD INT'L A","8202251","2018-04-30 22:00","2018","04","30","22:00","5.3","","5.3","","100","","","","13","","14","","0.4","","99.75","","","","","","Fog"
"-63.51","44.88","HALIFAX STANFIELD INT'L A","8202251","2018-04-30 23:00","2018","04","30","23:00","5.1","","5.1","","100","","","","16","","8","","0.4","","99.76","","","","","","Fog"
