"Longitude (x)","Latitude (y)","Station Name","Climate ID","Date/Time (LST)","Year","Month","Day","Time (LST)","Temp (°C)","Temp Flag","Dew Point Temp (°C)","Dew Point Temp Flag","Rel Hum (%)","Rel Hum Flag","Precip. Amount (mm)","Precip. Amount Flag","Wind Dir (10s deg)","Wind Dir Flag","Wind Spd (km/h)","Wind Spd Flag","Visibility (km)","Visibility Flag","Stn Press (kPa)","Stn Press Flag","Hmdx","Hmdx Flag","Wind Chill","Wind Chill Flag","Weather"
"-133.48","68.30","INUVIK AWOS A","2202575","2012-02-01 00:00","2012","02","01","00:00","-39.8","","-45.1","","57","","","","","","0","","15.0","","99.68","","","","","",""
"-133.48","68.30","INUVIK AWOS A","2202575","2012-02-01 01:00","2012","02","01","01:00","-40.0","","-45.1","","58","","","","","","0","","15.0","","99.74","","","","","",""
"-133.48","68.30","INUVIK AWOS A","2202575","2012-02-01 02:00","2012","02","01","02:00","-38.9","","-45.1","","52","","","","","","0","","15.0","","99.78","","","","","",""
"-133.48","68.30","INUVIK AWOS A","2202575","2012-02-01 03:00","2012","02","01","03:00","-40.7","","-45.1","","63","","","","","","0","","15.0","","99.84","","","","","",""
"-133.48","68.30","INUVIK AWOS A","2202575","2012-02-01 04:00","2012","02","01","04:00","-38.8","","-45.1","","51","","","","","","0","","15.0","","99.88","","","","","",""
"-133.48","68.30","INUVIK AWOS A","2202575","2012-02-01 05:00","2012","02","01","05:00","-37.7","","-45.1","","46","","","","","","0","","15.0","","99.91","","","","","",""
"-133.48","68.30","INUVIK AWOS A","2202575","2012-02-01 06:00","2012","02","01","06:00","-38.0","","-44.9","","48","","","","","","0","","15.0","","99.93","","","","","",""
"-133.48","68.30","INUVIK AWOS A","2202575","2012-02-01 07:00","2012","02","01","07:00","-36.8","","-44.4","","45","","","","8","","6","","15.0","","99.94","","","","-44","",""
"-133.48","68.30","INUVIK AWOS A","2202575","2012-02-01 08:00","2012","02","01","08:00","-36.1","","-43.3","","47","","","","9","","7","","15.0","","99.96","","","","-44","",""
"-133.48","68.30","INUVIK AWOS A","2202575","2012-02-01 09:00","2012","02","01","09:00","-35.8","","-43.2","","47","","","","9","","9","","15.0","","99.95","","","","-45","",""
"-133.48","68.30","INUVIK AWOS A","2202575","2012-02-01 10:00","2012","02","01","10:00","-35.8","","-43.3","","46","","","","9","","6","","15.0","","99.96","","","","-43","",""
"-133.48","68.30","INUVIK AWOS A","2202575","2012-02-01 11:00","2012","02","01","11:00","-35.5","","-42.9","","47","","","","12","","6","","15.0","","99.97","","","","-43","",""
"-133.48","68.30","INUVIK AWOS A","2202575","2012-02-01 12:00","2012","02","01","12:00","-35.6","","-43.0","","47","","","","8","","6","","15.0","","100.01","","","","-43","",""
"-133.48","68.30","INUVIK AWOS A","2202575","2012-02-01 13:00","2012","02","01","13:00"
"-133.48","68.30","INUVIK AWOS A","2202575","2012-02-01 14:00","2012","02","01","14:00","-32.7","","-40.2","","47","","","","11","","4","","15.0","","99.98","","","","-37","",""
"-133.48","68.30","INUVIK AWOS A","2202575","2012-02-01 15:00","2012","02","01","15:00","-31.8","","-39.6","","46","","","","11","","4","","15.0","","100.00","","","","-36","",""
"-133.48","68.30","INUVIK AWOS A","2202575","2012-02-01 16:00","2012","02","01","16:00","-31.6","","-39.3","","47","","","","22","","4","","15.0","","99.99","","","","-36","",""
"-133.48","68.30","INUVIK AWOS A","2202575","2012-02-01 17:00","2012","02","01","17:00","-32.0","","-39.8","","46","","","","12","","4","","15.0","","99.93","","","","-37","",""
"-133.48","68.30","INUVIK AWOS A","2202575","2012-02-01 18:00","2012","02","01","18:00","-33.7","","-40.8","","49","","","","","","0","","15.0","","99.85","","","","","",""
"-133.48","68.30","INUVIK AWOS A","2202575","2012-02-01 19:00","2012","02","01","19:00","-33.6","","-40.8","","48","","","","","","0","","15.0","","99.82","","","","","",""
"-133.48","68.30","INUVIK AWOS A","2202575","2012-02-01 20:00","2012","02","01","20:00","-34.4","","-41.5","","49","","","","11","","4","","15.0","","99.73","","","","-39","",""
"-133.48","68.30","INUVIK AWOS A","2202575","2012-02-01 21:00","2012","02","01","21:00","-33.7","","-41.0","","48","","","","","","0","","15.0","","99.61","","","","","",""
"-133.48","68.30","INUVIK AWOS A","2202575","2012-02-01 22:00","2012","02","01","22:00","-33.2","","-40.5","","48","","","","","","0","","15.0","","99.55","","","","","",""
"-133.48","68.30","INUVIK AWOS A","2202575","2012-02-01 23:00","2012","02","01","23:00","-33.2","","-40.6","","47","","","","20","","4","","15.0","","99.30","","","","-38","",""
"-133.48","68.30","INUVIK AWOS A","2202575","2012-02-02 00:00","2012","02","02","00:00","-32.0","","-39.5","","47","","","","","","0","","15.0","","99.14","","","","","",""
"-133.48","68.30","INUVIK AWOS A","2202575","2012-02-02 01:00","2012","02","02","01:00","-29.6","","-37.2","","48","","","","34","","6","","15.0","","99.09","","","","-36","",""
"-133.48","68.30","INUVIK AWOS A","2202575","2012-02-02 02:00","2012","02","02","02:00","-28.8","","-36.8","","46","","","","36","","7","","15.0","","99.00","","","","-36","",""
"-133.48","68.30","INUVIK AWOS A","2202575","2012-02-02 03:00","2012","02","02","03:00","-28.7","","-36.6","","47","","","","3","","7","","5.6","","98.84","","","","-36","","Snow"
"-133.48","68.30","INUVIK AWOS A","2202575","2012-02-02 04:00","2012","02","02","04:00","-28.3","","-36.1","","47","","","","","","0","","15.0","","98.73","","","","","","Snow"
"-133.48","68.30","INUVIK AWOS A","2202575","2012-02-02 05:00","2012","02","02","05:00","-27.7","","-35.6","","47","","","","31","","7","","15.0","","98.65","","","","-35","",""
"-133.48","68.30","INUVIK AWOS A","2202575","2012-02-02 06:00","2012","02","02","06:00","-28.1","","-36.0","","47","","","","30","","7","","15.0","","98.59","","","","-35","",""
"-133.48","68.30","INUVIK AWOS A","2202575","2012-02-02 07:00","2012","02","02","07:00","-28.2","","-36.1","","47","","","","29","","13","","15.0","","98.58","","","","-38","",""
"-133.48","68.30","INUVIK AWOS A","2202575","2012-02-02 08:00","2012","02","02","08:00","-29.9","","-37.3","","49","","","","29","","9","","15.0","","98.54","","","","-38","",""
"-133.48","68.30","INUVIK AWOS A","2202575","2012-02-02 09:00","2012","02","02","09:00","-30.9","","-38.2","","49","","","","27","","7","","15.0","","98.57","","","","-38","",""
"-133.48","68.30","INUVIK AWOS A","2202575","2012-02-02 10:00","2012","02","02","10:00","-31.6","","-38.8","","49","","","","28","","4","","15.0","","98.55","","","","-36","",""
"-133.48","68.30","INUVIK AWOS A","2202575","2012-02-02 11:00","2012","02","02","11:00","-31.9","","-39.4","","47","","","","26","","7","","15.0","","98.63","","","","-39","",""
"-133.48","68.30","INUVIK AWOS A","2202575","2012-02-02 12:00","2012","02","02","12:00","-31.4","","-38.9","","48","","","","30","","4","","15.0","","98.72","","","","-36","",""
"-133.48","68.30","INUVIK AWOS A","2202575","2012-02-02 13:00","2012","02","02","13:00","-30.4","","-37.9","","48","","","","25","","4","","15.0","","98.78","","","","-35","",""
"-133.48","68.30","INUVIK AWOS A","2202575","2012-02-02 14:00","2012","02","02","14:00","-30.4","","-37.9","","48","","","","25","","7","","15.0","","98.88","","","","-38","",""
"-133.48","68.30","INUVIK AWOS A","2202575","2012-02-02 15:00","2012","02","02","15:00","-30.1","","-37.7","","48","","","","25","","9","","15.0","","99.07","","","","-39","",""
"-133.48","68.30","INUVIK AWOS A","2202575","2012-02-02 16:00","2012","02","02","16:00","-30.2","","-37.7","","48","","","","23","","4","","15.0","","99.10","","","","-35","",""
"-133.48","68.30","INUVIK AWOS A","2202575","2012-02-02 17:00","2012","02","02","17:00","-29.9","","-37.5","","48","","","","24","","7","","15.0","","99.20","","","","-37","",""
"-133.48","68.30","INUVIK AWOS A","2202575","2012-02-02 18:00","2012","02","02","18:00","-30.0","","-37.7","","47","","","","22","","9","","15.0","","99.32","","","","-39","",""
"-133.48","68.30","INUVIK AWOS A","2202575","2012-02-02 19:00","2012","02","02","19:00","-30.1","","-37.7","","48","","","","","","0","","15.0","","99.38","","","","","",""
"-133.48","68.30","INUVIK AWOS A","2202575","2012-02-02 20:00","2012","02","02","20:00","-29.6","","-37.3","","47","","","","18","","4","","15.0","","99.38","","","","-34","",""
"-133.48","68.30","INUVIK AWOS A","2202575","2012-02-02 21:00","2012","02","02","21:00","-28.9","","-36.6","","47","","","","","","0","","15.0","","99.39","","","","","",""
"-133.48","68.30","INUVIK AWOS A","2202575","2012-02-02 22:00","2012","02","02","22:00","-28.4","","-36.4","","46","","","","","","0","","15.0","","99.45","","","","","",""
"-133.48","68.30","INUVIK AWOS A","2202575","2012-02-02 23:00","2012","02","02","23:00","-28.2","","-36.2","","46","","","","17","","7","","15.0","","99.47","","","","-35","",""
"-133.48","68.30","INUVIK AWOS A","2202575","2012-02-03 00:00","2012","02","03","00:00","-29.0","","-36.8","","47","","","","11","","6","","15.0","","99.50","","","","-35","",""
"-133.48","68.30","INUVIK AWOS A","2202575","2012-02-03 01:00","2012","02","03","01:00","-29.9","","-37.7","","47","","","","","","0","","15.0","","99.57","","","","","",""
"-133.48","68.30","INUVIK AWOS A","2202575","2012-02-03 02:00","2012","02","03","02:00","-30.5","","-38.2","","47","","","","7","","9","","15.0","","99.58","","","","-39","",""
"-133.48","68.30","INUVIK AWOS A","2202575","2012-02-03 03:00","2012","02","03","03:00","-30.4","","-38.1","","47","","","","8","","7","","15.0","","99.61","","","","-38","",""
"-133.48","68.30","INUVIK AWOS A","2202575","2012-02-03 04:00","2012","02","03","04:00","-30.2","","-37.8","","47","","","","8","","11","","15.0","","99.59","","","","-40","",""
"-133.48","68.30","INUVIK AWOS A","2202575","2012-02-03 05:00","2012","02","03","05:00","-29.6","","-37.4","","47","","","","7","","7","","15.0","","99.64","","","","-37","",""
"-133.48","68.30","INUVIK AWOS A","2202575","2012-02-03 06:00","2012","02","03","06:00","-29.5","","-37.3","","47","","","","8","","11","","15.0","","99.65","","","","-39","",""
"-133.48","68.30","INUVIK AWOS A","2202575","2012-02-03 07:00","2012","02","03","07:00","-28.8","","-36.9","","46","","","","7","","11","","15.0","","99.55","","","","-38","",""
"-133.48","68.30","INUVIK AWOS A","2202575","2012-02-03 08:00","2012","02","03","08:00","-28.4","","-36.7","","45","","","","8","","9","","15.0","","99.50","","","","-37","",""
"-133.48","68.30","INUVIK AWOS A","2202575","2012-02-03 09:00","2012","02","03","09:00","-28.5","","-36.9","","44","","","","10","","6","","15.0","","99.43","","","","-35","",""
"-133.48","68.30","INUVIK AWOS A","2202575","2012-02-03 10:00","2012","02","03","10:00","-29.0","","-36.9","","46","","","","15","","7","","15.0","","99.40","","","","-36","",""
"-133.48","68.30","INUVIK AWOS A","2202575","2012-02-03 11:00","2012","02","03","11:00","-26.8","","-35.5","","44","","","","10","","9","","15.0","","99.18","","","","-35","",""
"-133.48","68.30","INUVIK AWOS A","2202575","2012-02-03 12:00","2012","02","03","12:00","-26.0","","-34.8","","43","","","","9","","15","","15.0","","98.94","","","","-36","",""
"-133.48","68.30","INUVIK AWOS A","2202575","2012-02-03 13:00","2012","02","03","13:00","-25.5","","-33.7","","46","","","","29","","6","","15.0","","98.75","","","","-31","",""
"-133.48","68.30","INUVIK AWOS A","2202575","2012-02-03 14:00","2012","02","03","14:00","-24.7","","-32.9","","47","","","","","","0","","15.0","","98.69","","","","","",""
"-133.48","68.30","INUVIK AWOS A","2202575","2012-02-03 15:00","2012","02","03","15:00","-23.8","","-31.8","","48","","","","","","0","","15.0","","98.56","","","","","","Snow"
"-133.48","68.30","INUVIK AWOS A","2202575","2012-02-03 16:00","2012","02","03","16:00","-23.1","","-30.9","","49","","","","25","","13","","15.0","","98.45","","","","-32","",""
"-133.48","68.30","INUVIK AWOS A","2202575","2012-02-03 17:00","2012","02","03","17:00","-22.9","","-30.5","","50","","","","33","","15","","15.0","","98.37","","","","-33","","Snow"
"-133.48","68.30","INUVIK AWOS A","2202575","2012-02-03 18:00","2012","02","03","18:00","-22.7","","-30.2","","50","","","","33","","9","","1.0","","98.36","","","","-30","","Snow"
"-133.48","68.30","INUVIK AWOS A","2202575","2012-02-03 19:00","2012","02","03","19:00","-22.1","","-29.5","","51","","","","27","","9","","15.0","","98.41","","","","-29","","Snow"
"-133.48","68.30","INUVIK AWOS A","2202575","2012-02-03 20:00","2012","02","03","20:00","-22.9","","-30.2","","51","","","","29","","20","","15.0","","98.55","","","","-34","","Snow"
"-133.48","68.30","INUVIK AWOS A","2202575","2012-02-03 21:00","2012","02","03","21:00","-23.5","","-31.0","","50","","","","30","","22","","12.9","","98.73","","","","-35","","Snow"
"-133.48","68.30","INUVIK AWOS A","2202575","2012-02-03 22:00","2012","02","03","22:00","-22.5","","-30.1","","50","","","","31","","19","","8.0","","98.89","","","","-33","","Snow"
"-133.48","68.30","INUVIK AWOS A","2202575","2012-02-03 23:00","2012","02","03","23:00","-23.5","","-31.4","","48","","","","31","","33","","1.9","","99.13","","","","-38","","Snow"
"-133.48","68.30","INUVIK AWOS A","2202575","2012-02-04 00:00","2012","02","04","00:00","-24.5","","-32.4","","48","","","","30","","26","","4.0","","99.39","","","","-38","","Snow"
"-133.48","68.30","INUVIK AWOS A","2202575","2012-02-04 01:00","2012","02","04","01:00","-25.1","","-33.2","","47","","","","31","","32","","6.4","","99.61","","","","-40","",""
"-133.48","68.30","INUVIK AWOS A","2202575","2012-02-04 02:00","2012","02","04","02:00","-24.9","","-33.1","","46","","","","30","","22","","8.0","","99.89","","","","-37","",""
"-133.48","68.30","INUVIK AWOS A","2202575","2012-02-04 03:00","2012","02","04","03:00","-24.2","","-32.4","","47","","","","30","","28","","15.0","","100.10","","","","-38","",""
"-133.48","68.30","INUVIK AWOS A","2202575","2012-02-04 04:00","2012","02","04","04:00","-24.2","","-32.4","","47","","","","30","","19","","15.0","","100.34","","","","-36","",""
"-133.48","68.30","INUVIK AWOS A","2202575","2012-02-04 05:00","2012","02","04","05:00","-24.1","","-32.3","","47","","","","31","","20","","15.0","","100.47","","","","-36","",""
"-133.48","68.30","INUVIK AWOS A","2202575","2012-02-04 06:00","2012","02","04","06:00","-24.2","","-32.9","","44","","","","32","","11","","15.0","","100.63","","","","-33","",""
"-133.48","68.30","INUVIK AWOS A","2202575","2012-02-04 07:00","2012","02","04","07:00","-24.3","","-32.8","","45","","","","30","","11","","15.0","","100.83","","","","-33","",""
"-133.48","68.30","INUVIK AWOS A","2202575","2012-02-04 08:00","2012","02","04","08:00","-24.9","","-33.2","","46","","","","28","","7","","15.0","","101.00","","","","-31","",""
"-133.48","68.30","INUVIK AWOS A","2202575","2012-02-04 09:00","2012","02","04","09:00","-25.8","","-33.6","","48","","","","28","","6","","15.0","","101.11","","","","-32","",""
"-133.48","68.30","INUVIK AWOS A","2202575","2012-02-04 10:00","2012","02","04","10:00","-27.3","","-34.7","","49","","","","25","","6","","15.0","","101.23","","","","-33","",""
"-133.48","68.30","INUVIK AWOS A","2202575","2012-02-04 11:00","2012","02","04","11:00","-27.1","","-34.7","","49","","","","29","","6","","15.0","","101.37","","","","-33","",""
"-133.48","68.30","INUVIK AWOS A","2202575","2012-02-04 12:00","2012","02","04","12:00","-26.5","","-34.1","","49","","","","25","","7","","15.0","","101.52","","","","-33","",""
"-133.48","68.30","INUVIK AWOS A","2202575","2012-02-04 13:00","2012","02","04","13:00","-25.2","","-33.1","","48","","","","26","","6","","15.0","","101.67","","","","-31","",""
"-133.48","68.30","INUVIK AWOS A","2202575","2012-02-04 14:00","2012","02","04","14:00","-24.3","","-32.6","","46","","","","25","","9","","15.0","","101.76","","","","-32","",""
"-133.48","68.30","INUVIK AWOS A","2202575","2012-02-04 15:00","2012","02","04","15:00","-25.1","","-33.3","","46","","","","23","","9","","15.0","","101.89","","","","-33","",""
"-133.48","68.30","INUVIK AWOS A","2202575","2012-02-04 16:00","2012","02","04","16:00","-24.6","","-33.1","","45","","","","22","","6","","15.0","","101.98","","","","-30","",""
"-133.48","68.30","INUVIK AWOS A","2202575","2012-02-04 17:00","2012","02","04","17:00","-24.9","","-33.6","","44","","","","22","","6","","15.0","","102.08","","","","-31","",""
"-133.48","68.30","INUVIK AWOS A","2202575","2012-02-04 18:00","2012","02","04","18:00","-24.8","","-33.5","","44","","","","4","","4","","15.0","","102.16","","","","-29","",""
"-133.48","68.30","INUVIK AWOS A","2202575","2012-02-04 19:00","2012","02","04","19:00","-23.9","","-32.8","","44","","","","","M","","M","15.0","","102.23","","","","","",""
"-133.48","68.30","INUVIK AWOS A","2202575","2012-02-04 20:00","2012","02","04","20:00","-22.7","","-31.8","","43","","","","19","","6","","15.0","","102.30","","","","-28","",""
"-133.48","68.30","INUVIK AWOS A","2202575","2012-02-04 21:00","2012","02","04","21:00","-24.3","","-33.0","","44","","","","18","","7","","15.0","","102.33","","","","-31","",""
"-133.48","68.30","INUVIK AWOS A","2202575","2012-02-04 22:00","2012","02","04","22:00","-22.5","","-31.4","","44","","","","","","0","","15.0","","102.33","","","","","",""
"-133.48","68.30","INUVIK AWOS A","2202575","2012-02-04 23:00","2012","02","04","23:00","-23.7","","-32.1","","46","","","","16","","6","","15.0","","102.31","","","","-29","",""
"-133.48","68.30","INUVIK AWOS A","2202575","2012-02-05 00:00","2012","02","05","00:00","-23.3","","-31.8","","46","","","","10","","7","","15.0","","102.32","","","","-29","",""
"-133.48","68.30","INUVIK AWOS A","2202575","2012-02-05 01:00","2012","02","05","01:00","-23.7","","-32.0","","46","","","","16","","11","","15.0","","102.35","","","","-32","",""
"-133.48","68.30","INUVIK AWOS A","2202575","2012-02-05 02:00","2012","02","05","02:00","-23.8","","-31.9","","47","","","","13","","17","","15.0","","102.27","","","","-34","",""
"-133.48","68.30","INUVIK AWOS A","2202575","2012-02-05 03:00","2012","02","05","03:00","-21.4","","-30.0","","46","","","","13","","17","","15.0","","102.28","","","","-31","",""
"-133.48","68.30","INUVIK AWOS A","2202575","2012-02-05 04:00","2012","02","05","04:00","-21.2","","-30.0","","45","","","","11","","15","","15.0","","102.24","","","","-31","",""
"-133.48","68.30","INUVIK AWOS A","2202575","2012-02-05 05:00","2012","02","05","05:00","-19.5","","-28.8","","43","","","","17","","24","","15.0","","102.14","","","","-31","",""
"-133.48","68.30","INUVIK AWOS A","2202575","2012-02-05 06:00","2012","02","05","06:00","-18.9","","-28.3","","43","","","","17","","11","","15.0","","102.03","","","","-26","",""
"-133.48","68.30","INUVIK AWOS A","2202575","2012-02-05 07:00","2012","02","05","07:00","-17.7","","-27.5","","42","","","","18","","15","","15.0","","101.97","","","","-26","",""
"-133.48","68.30","INUVIK AWOS A","2202575","2012-02-05 08:00","2012","02","05","08:00","-18.7","","-27.2","","47","","","","22","","11","","15.0","","101.93","","","","-26","",""
"-133.48","68.30","INUVIK AWOS A","2202575","2012-02-05 09:00","2012","02","05","09:00","-16.9","","-25.7","","46","","","","17","","24","","15.0","","101.81","","","","-27","",""
"-133.48","68.30","INUVIK AWOS A","2202575","2012-02-05 10:00","2012","02","05","10:00","-15.5","","-24.4","","46","","","","19","","15","","15.0","","101.76","","","","-24","",""
"-133.48","68.30","INUVIK AWOS A","2202575","2012-02-05 11:00","2012","02","05","11:00","-14.3","","-22.8","","48","","","","21","","6","","15.0","","101.73","","","","-18","",""
"-133.48","68.30","INUVIK AWOS A","2202575","2012-02-05 12:00","2012","02","05","12:00","-12.7","","-21.6","","47","","","","23","","7","","15.0","","101.72","","","","-17","",""
"-133.48","68.30","INUVIK AWOS A","2202575","2012-02-05 13:00","2012","02","05","13:00","-11.4","","-20.8","","46","","","","19","","13","","15.0","","101.67","","","","-18","",""
"-133.48","68.30","INUVIK AWOS A","2202575","2012-02-05 14:00","2012","02","05","14:00","-11.2","","-20.6","","46","","","","20","","11","","15.0","","101.62","","","","-17","",""
"-133.48","68.30","INUVIK AWOS A","2202575","2012-02-05 15:00","2012","02","05","15:00","-12.3","","-21.2","","47","","","","10","","11","","15.0","","101.57","","","","-18","",""
"-133.48","68.30","INUVIK AWOS A","2202575","2012-02-05 16:00","2012","02","05","16:00","-12.4","","-21.3","","47","","","","11","","9","","15.0","","101.50","","","","-18","",""
"-133.48","68.30","INUVIK AWOS A","2202575","2012-02-05 17:00","2012","02","05","17:00","-12.3","","-21.5","","46","","","","11","","13","","15.0","","101.39","","","","-19","",""
"-133.48","68.30","INUVIK AWOS A","2202575","2012-02-05 18:00","2012","02","05","18:00","-12.7","","-24.7","","36","","","","8","","7","","15.0","","101.30","","","","-17","",""
"-133.48","68.30","INUVIK AWOS A","2202575","2012-02-05 19:00","2012","02","05","19:00","-12.9","","-22.2","","46","","","","12","","7","","15.0","","101.20","","","","-17","",""
"-133.48","68.30","INUVIK AWOS A","2202575","2012-02-05 20:00","2012","02","05","20:00","-13.0","","-22.1","","46","","","","11","","11","","15.0","","101.09","","","","-19","",""
"-133.48","68.30","INUVIK AWOS A","2202575","2012-02-05 21:00","2012","02","05","21:00","-13.2","","-22.2","","47","","","","14","","9","","15.0","","100.99","","","","-19","",""
"-133.48","68.30","INUVIK AWOS A","2202575","2012-02-05 22:00","2012","02","05","22:00","-13.1","","-22.3","","46","","","","12","","4","","15.0","","100.91","","","","-16","",""
"-133.48","68.30","INUVIK AWOS A","2202575","2012-02-05 23:00","2012","02","05","23:00","-13.7","","-22.6","","47","","","","","","0","","15.0","","100.86","","","","","",""
"-133.48","68.30","INUVIK AWOS A","2202575","2012-02-06 00:00","2012","02","06","00:00","-11.5","","-21.6","","43","","","","27","","4","","15.0","","100.79","","","","-14","",""
"-133.48","68.30","INUVIK AWOS A","2202575","2012-02-06 01:00","2012","02","06","01:00","-9.9","","-20.4","","42","","","","18","","44","","15.0","","100.63","","","","-21","",""
"-133.48","68.30","INUVIK AWOS A","2202575","2012-02-06 02:00","2012","02","06","02:00"
"-133.48","68.30","INUVIK AWOS A","2202575","2012-02-06 03:00","2012","02","06","03:00","-8.4","","-20.4","","37","","","","17","","6","","15.0","","100.65","","","","-12","",""
"-133.48","68.30","INUVIK AWOS A","2202575","2012-02-06 04:00","2012","02","06","04:00","-10.3","","-20.9","","41","","","","33","","6","","15.0","","100.69","","","","-14","",""
"-133.48","68.30","INUVIK AWOS A","2202575","2012-02-06 05:00","2012","02","06","05:00","-9.9","","-20.9","","40","","","","16","","7","","15.0","","100.68","","","","-14","",""
"-133.48","68.30","INUVIK AWOS A","2202575","2012-02-06 06:00","2012","02","06","06:00","-9.7","","-20.6","","41","","","","29","","6","","15.0","","100.73","","","","-13","",""
"-133.48","68.30","INUVIK AWOS A","2202575","2012-02-06 07:00","2012","02","06","07:00","-10.3","","-20.6","","43","","","","14","","9","","15.0","","100.72","","","","-15","",""
"-133.48","68.30","INUVIK AWOS A","2202575","2012-02-06 08:00","2012","02","06","08:00","-9.7","","-20.2","","42","","","","12","","9","","15.0","","100.74","","","","-15","",""
"-133.48","68.30","INUVIK AWOS A","2202575","2012-02-06 09:00","2012","02","06","09:00","-10.3","","-20.2","","44","","","","11","","7","","15.0","","100.82","","","","-14","",""
"-133.48","68.30","INUVIK AWOS A","2202575","2012-02-06 10:00","2012","02","06","10:00","-9.6","","-19.9","","43","","","","12","","11","","15.0","","100.87","","","","-15","",""
"-133.48","68.30","INUVIK AWOS A","2202575","2012-02-06 11:00","2012","02","06","11:00","-11.7","","-20.9","","46","","","","8","","11","","15.0","","100.95","","","","-18","",""
"-133.48","68.30","INUVIK AWOS A","2202575","2012-02-06 12:00","2012","02","06","12:00","-9.6","","-19.5","","44","","","","7","","13","","15.0","","101.06","","","","-16","",""
"-133.48","68.30","INUVIK AWOS A","2202575","2012-02-06 13:00","2012","02","06","13:00","-8.5","","-18.8","","43","","","","8","","11","","15.0","","101.08","","","","-14","",""
"-133.48","68.30","INUVIK AWOS A","2202575","2012-02-06 14:00","2012","02","06","14:00","-6.4","","-17.9","","40","","","","5","","13","","15.0","","101.15","","","","-12","",""
"-133.48","68.30","INUVIK AWOS A","2202575","2012-02-06 15:00","2012","02","06","15:00","-6.1","","-17.6","","40","","","","8","","11","","15.0","","101.22","","","","-11","",""
"-133.48","68.30","INUVIK AWOS A","2202575","2012-02-06 16:00","2012","02","06","16:00","-4.8","","-17.0","","38","","","","11","","7","","15.0","","101.26","","","","-8","",""
"-133.48","68.30","INUVIK AWOS A","2202575","2012-02-06 17:00","2012","02","06","17:00","-8.7","","-18.6","","45","","","","9","","4","","15.0","","101.33","","","","-11","",""
"-133.48","68.30","INUVIK AWOS A","2202575","2012-02-06 18:00","2012","02","06","18:00","-12.1","","-20.0","","52","","","","9","","7","","15.0","","101.34","","","","-16","",""
"-133.48","68.30","INUVIK AWOS A","2202575","2012-02-06 19:00","2012","02","06","19:00","-13.7","","-21.3","","53","","","","","","0","","15.0","","101.33","","","","","",""
"-133.48","68.30","INUVIK AWOS A","2202575","2012-02-06 20:00","2012","02","06","20:00","-15.2","","-22.9","","52","","","","16","","4","","15.0","","101.33","","","","-18","",""
"-133.48","68.30","INUVIK AWOS A","2202575","2012-02-06 21:00","2012","02","06","21:00","-13.3","","-20.2","","56","","","","7","","6","","15.0","","101.32","","","","-17","",""
"-133.48","68.30","INUVIK AWOS A","2202575","2012-02-06 22:00","2012","02","06","22:00","-12.7","","-20.8","","51","","","","32","","4","","15.0","","101.37","","","","-15","",""
"-133.48","68.30","INUVIK AWOS A","2202575","2012-02-06 23:00","2012","02","06","23:00","-14.5","","-21.3","","56","","","","","","0","","15.0","","101.37","","","","","",""
"-133.48","68.30","INUVIK AWOS A","2202575","2012-02-07 00:00","2012","02","07","00:00","-16.3","","-22.5","","59","","","","","","0","","15.0","","101.38","","","","","",""
"-133.48","68.30","INUVIK AWOS A","2202575","2012-02-07 01:00","2012","02","07","01:00","-16.7","","-23.0","","58","","","","12","","7","","15.0","","101.41","","","","-22","",""
"-133.48","68.30","INUVIK AWOS A","2202575","2012-02-07 02:00","2012","02","07","02:00","-16.9","","-23.3","","58","","","","8","","9","","15.0","","101.39","","","","-23","",""
"-133.48","68.30","INUVIK AWOS A","2202575","2012-02-07 03:00","2012","02","07","03:00","-15.7","","-22.3","","57","","","","9","","11","","15.0","","101.39","","","","-22","",""
"-133.48","68.30","INUVIK AWOS A","2202575","2012-02-07 04:00","2012","02","07","04:00","-17.2","","-23.6","","57","","","","9","","13","","15.0","","101.41","","","","-25","",""
"-133.48","68.30","INUVIK AWOS A","2202575","2012-02-07 05:00","2012","02","07","05:00","-18.9","","-25.5","","56","","","","7","","9","","15.0","","101.43","","","","-25","",""
"-133.48","68.30","INUVIK AWOS A","2202575","2012-02-07 06:00","2012","02","07","06:00","-17.2","","-23.8","","56","","","","6","","13","","15.0","","101.43","","","","-25","",""
"-133.48","68.30","INUVIK AWOS A","2202575","2012-02-07 07:00","2012","02","07","07:00","-19.0","","-25.4","","57","","","","8","","13","","15.0","","101.43","","","","-27","",""
"-133.48","68.30","INUVIK AWOS A","2202575","2012-02-07 08:00","2012","02","07","08:00","-16.0","","-22.5","","57","","","","7","","11","","15.0","","101.39","","","","-23","",""
"-133.48","68.30","INUVIK AWOS A","2202575","2012-02-07 09:00","2012","02","07","09:00","-16.8","","-23.5","","56","","","","8","","9","","15.0","","101.41","","","","-23","",""
"-133.48","68.30","INUVIK AWOS A","2202575","2012-02-07 10:00","2012","02","07","10:00","-18.2","","-24.9","","56","","","","8","","9","","15.0","","101.42","","","","-25","",""
"-133.48","68.30","INUVIK AWOS A","2202575","2012-02-07 11:00","2012","02","07","11:00","-19.7","","-26.2","","56","","","","7","","9","","15.0","","101.43","","","","-26","",""
"-133.48","68.30","INUVIK AWOS A","2202575","2012-02-07 12:00","2012","02","07","12:00","-19.3","","-25.9","","56","","","","9","","9","","15.0","","101.46","","","","-26","",""
"-133.48","68.30","INUVIK AWOS A","2202575","2012-02-07 13:00","2012","02","07","13:00","-16.6","","-23.2","","57","","","","11","","9","","15.0","","101.49","","","","-23","",""
"-133.48","68.30","INUVIK AWOS A","2202575","2012-02-07 14:00","2012","02","07","14:00","-15.4","","-22.4","","55","","","","8","","6","","15.0","","101.48","","","","-20","",""
"-133.48","68.30","INUVIK AWOS A","2202575","2012-02-07 15:00","2012","02","07","15:00","-13.3","","-20.8","","53","","","","8","","6","","15.0","","101.45","","","","-17","",""
"-133.48","68.30","INUVIK AWOS A","2202575","2012-02-07 16:00","2012","02","07","16:00","-12.7","","-20.8","","51","","","","8","","4","","15.0","","101.47","","","","-15","",""
"-133.48","68.30","INUVIK AWOS A","2202575","2012-02-07 17:00","2012","02","07","17:00","-14.2","","-21.6","","53","","","","9","","13","","15.0","","101.47","","","","-21","",""
"-133.48","68.30","INUVIK AWOS A","2202575","2012-02-07 18:00","2012","02","07","18:00","-15.5","","-22.4","","55","","","","9","","9","","15.0","","101.48","","","","-21","",""
"-133.48","68.30","INUVIK AWOS A","2202575","2012-02-07 19:00","2012","02","07","19:00","-18.0","","-24.7","","56","","","","9","","19","","15.0","","101.49","","","","-28","",""
"-133.48","68.30","INUVIK AWOS A","2202575","2012-02-07 20:00","2012","02","07","20:00","-18.1","","-24.7","","56","","","","8","","13","","15.0","","101.50","","","","-26","",""
"-133.48","68.30","INUVIK AWOS A","2202575","2012-02-07 21:00","2012","02","07","21:00","-18.5","","-24.9","","57","","","","8","","13","","15.0","","101.55","","","","-27","",""
"-133.48","68.30","INUVIK AWOS A","2202575","2012-02-07 22:00","2012","02","07","22:00","-18.0","","-24.7","","56","","","","11","","15","","15.0","","101.55","","","","-27","",""
"-133.48","68.30","INUVIK AWOS A","2202575","2012-02-07 23:00","2012","02","07","23:00","-16.9","","-24.3","","53","","","","7","","11","","15.0","","101.56","","","","-24","",""
"-133.48","68.30","INUVIK AWOS A","2202575","2012-02-08 00:00","2012","02","08","00:00","-17.3","","-24.4","","54","","","","9","","7","","15.0","","101.55","","","","-23","",""
"-133.48","68.30","INUVIK AWOS A","2202575","2012-02-08 01:00","2012","02","08","01:00","-17.3","","-24.7","","53","","","","11","","20","","15.0","","101.56","","","","-27","",""
"-133.48","68.30","INUVIK AWOS A","2202575","2012-02-08 02:00","2012","02","08","02:00","-17.7","","-25.1","","52","","","","11","","17","","15.0","","101.57","","","","-27","",""
"-133.48","68.30","INUVIK AWOS A","2202575","2012-02-08 03:00","2012","02","08","03:00","-17.0","","-25.0","","50","","","","11","","17","","15.0","","101.60","","","","-26","",""
"-133.48","68.30","INUVIK AWOS A","2202575","2012-02-08 04:00","2012","02","08","04:00","-17.7","","-25.2","","52","","","","10","","15","","15.0","","101.60","","","","-26","",""
"-133.48","68.30","INUVIK AWOS A","2202575","2012-02-08 05:00","2012","02","08","05:00","-16.8","","-24.8","","50","","","","11","","6","","15.0","","101.58","","","","-21","",""
"-133.48","68.30","INUVIK AWOS A","2202575","2012-02-08 06:00","2012","02","08","06:00","-17.2","","-25.2","","50","","","","10","","15","","15.0","","101.59","","","","-26","",""
"-133.48","68.30","INUVIK AWOS A","2202575","2012-02-08 07:00","2012","02","08","07:00","-18.0","","-25.6","","51","","","","10","","13","","15.0","","101.57","","","","-26","",""
"-133.48","68.30","INUVIK AWOS A","2202575","2012-02-08 08:00","2012","02","08","08:00","-17.5","","-25.4","","50","","","","10","","9","","15.0","","101.58","","","","-24","",""
"-133.48","68.30","INUVIK AWOS A","2202575","2012-02-08 09:00","2012","02","08","09:00","-17.3","","-25.2","","50","","","","14","","19","","15.0","","101.55","","","","-27","",""
"-133.48","68.30","INUVIK AWOS A","2202575","2012-02-08 10:00","2012","02","08","10:00","-17.5","","-25.2","","51","","","","13","","15","","15.0","","101.57","","","","-26","",""
"-133.48","68.30","INUVIK AWOS A","2202575","2012-02-08 11:00","2012","02","08","11:00","-16.8","","-24.9","","49","","","","11","","11","","15.0","","101.57","","","","-24","",""
"-133.48","68.30","INUVIK AWOS A","2202575","2012-02-08 12:00","2012","02","08","12:00","-16.4","","-24.7","","49","","","","11","","15","","15.0","","101.52","","","","-25","",""
"-133.48","68.30","INUVIK AWOS A","2202575","2012-02-08 13:00","2012","02","08","13:00","-17.3","","-25.3","","50","","","","16","","13","","15.0","","101.49","","","","-25","",""
"-133.48","68.30","INUVIK AWOS A","2202575","2012-02-08 14:00","2012","02","08","14:00","-15.5","","-24.5","","46","","","","16","","13","","15.0","","101.45","","","","-23","",""
"-133.48","68.30","INUVIK AWOS A","2202575","2012-02-08 15:00","2012","02","08","15:00","-14.7","","-23.9","","45","","","","14","","17","","15.0","","101.40","","","","-23","",""
"-133.48","68.30","INUVIK AWOS A","2202575","2012-02-08 16:00","2012","02","08","16:00","-15.4","","-24.2","","47","","","","15","","9","","15.0","","101.39","","","","-21","",""
"-133.48","68.30","INUVIK AWOS A","2202575","2012-02-08 17:00","2012","02","08","17:00","-15.0","","-23.8","","47","","","","15","","13","","15.0","","101.31","","","","-22","",""
"-133.48","68.30","INUVIK AWOS A","2202575","2012-02-08 18:00","2012","02","08","18:00","-15.2","","-23.7","","48","","","","14","","9","","15.0","","101.25","","","","-21","",""
"-133.48","68.30","INUVIK AWOS A","2202575","2012-02-08 19:00","2012","02","08","19:00","-16.9","","-24.6","","51","","","","17","","7","","15.0","","101.19","","","","-22","",""
"-133.48","68.30","INUVIK AWOS A","2202575","2012-02-08 20:00","2012","02","08","20:00","-13.5","","-22.3","","47","","","","16","","22","","15.0","","101.17","","","","-23","",""
"-133.48","68.30","INUVIK AWOS A","2202575","2012-02-08 21:00","2012","02","08","21:00","-12.7","","-21.9","","46","","","","15","","19","","15.0","","101.11","","","","-21","",""
"-133.48","68.30","INUVIK AWOS A","2202575","2012-02-08 22:00","2012","02","08","22:00","-12.1","","-21.5","","45","","","","16","","22","","15.0","","101.06","","","","-21","",""
"-133.48","68.30","INUVIK AWOS A","2202575","2012-02-08 23:00","2012","02","08","23:00","-12.1","","-21.5","","45","","","","17","","20","","15.0","","101.02","","","","-21","",""
"-133.48","68.30","INUVIK AWOS A","2202575","2012-02-09 00:00","2012","02","09","00:00","-14.2","","-22.5","","49","","","","17","","11","","15.0","","101.01","","","","-21","",""
"-133.48","68.30","INUVIK AWOS A","2202575","2012-02-09 01:00","2012","02","09","01:00","-14.0","","-22.3","","49","","","","15","","13","","15.0","","100.98","","","","-21","",""
"-133.48","68.30","INUVIK AWOS A","2202575","2012-02-09 02:00","2012","02","09","02:00","-13.2","","-21.7","","49","","","","16","","19","","15.0","","100.93","","","","-22","",""
"-133.48","68.30","INUVIK AWOS A","2202575","2012-02-09 03:00","2012","02","09","03:00","-12.4","","-21.3","","47","","","","13","","7","","15.0","","100.88","","","","-17","",""
"-133.48","68.30","INUVIK AWOS A","2202575","2012-02-09 04:00","2012","02","09","04:00","-12.7","","-21.4","","48","","","","16","","13","","15.0","","100.84","","","","-20","",""
"-133.48","68.30","INUVIK AWOS A","2202575","2012-02-09 05:00","2012","02","09","05:00","-12.7","","-21.4","","48","","","","16","","20","","15.0","","100.80","","","","-21","",""
"-133.48","68.30","INUVIK AWOS A","2202575","2012-02-09 06:00","2012","02","09","06:00","-12.8","","-21.6","","48","","","","16","","17","","15.0","","100.75","","","","-21","",""
"-133.48","68.30","INUVIK AWOS A","2202575","2012-02-09 07:00","2012","02","09","07:00","-13.0","","-21.6","","48","","","","15","","17","","15.0","","100.70","","","","-21","",""
"-133.48","68.30","INUVIK AWOS A","2202575","2012-02-09 08:00","2012","02","09","08:00","-13.4","","-21.8","","49","","","","14","","9","","15.0","","100.65","","","","-19","",""
"-133.48","68.30","INUVIK AWOS A","2202575","2012-02-09 09:00","2012","02","09","09:00","-12.4","","-21.3","","47","","","","13","","7","","15.0","","100.62","","","","-17","",""
"-133.48","68.30","INUVIK AWOS A","2202575","2012-02-09 10:00","2012","02","09","10:00","-12.1","","-21.0","","47","","","","15","","4","","15.0","","100.60","","","","-15","",""
"-133.48","68.30","INUVIK AWOS A","2202575","2012-02-09 11:00","2012","02","09","11:00","-13.2","","-21.5","","50","","","","23","","7","","15.0","","100.59","","","","-18","",""
"-133.48","68.30","INUVIK AWOS A","2202575","2012-02-09 12:00","2012","02","09","12:00","-12.7","","-21.4","","48","","","","21","","13","","15.0","","100.59","","","","-20","",""
"-133.48","68.30","INUVIK AWOS A","2202575","2012-02-09 13:00","2012","02","09","13:00","-10.5","","-20.5","","44","","","","18","","13","","15.0","","100.55","","","","-17","",""
"-133.48","68.30","INUVIK AWOS A","2202575","2012-02-09 14:00","2012","02","09","14:00","-8.1","","-18.6","","43","","","","19","","26","","15.0","","100.50","","","","-16","",""
"-133.48","68.30","INUVIK AWOS A","2202575","2012-02-09 15:00","2012","02","09","15:00","-7.1","","-18.1","","41","","","","18","","22","","15.0","","100.55","","","","-15","",""
"-133.48","68.30","INUVIK AWOS A","2202575","2012-02-09 16:00","2012","02","09","16:00","-6.6","","-17.7","","41","","","","18","","30","","15.0","","100.54","","","","-15","",""
"-133.48","68.30","INUVIK AWOS A","2202575","2012-02-09 17:00","2012","02","09","17:00","-6.7","","-17.4","","42","","","","21","","6","","15.0","","100.56","","","","-10","",""
"-133.48","68.30","INUVIK AWOS A","2202575","2012-02-09 18:00","2012","02","09","18:00","-7.2","","-17.4","","44","","","","8","","9","","15.0","","100.59","","","","-12","",""
"-133.48","68.30","INUVIK AWOS A","2202575","2012-02-09 19:00","2012","02","09","19:00","-6.2","","-16.9","","42","","","","12","","9","","15.0","","100.56","","","","-10","",""
"-133.48","68.30","INUVIK AWOS A","2202575","2012-02-09 20:00","2012","02","09","20:00","-6.1","","-16.7","","43","","","","23","","6","","15.0","","100.56","","","","-9","",""
"-133.48","68.30","INUVIK AWOS A","2202575","2012-02-09 21:00","2012","02","09","21:00","-7.7","","-17.8","","44","","","","","","0","","15.0","","100.58","","","","","",""
"-133.48","68.30","INUVIK AWOS A","2202575","2012-02-09 22:00","2012","02","09","22:00","-7.8","","-18.1","","43","","","","19","","22","","15.0","","100.58","","","","-15","",""
"-133.48","68.30","INUVIK AWOS A","2202575","2012-02-09 23:00","2012","02","09","23:00","-8.5","","-18.6","","44","","","","","","0","","15.0","","100.52","","","","","",""
"-133.48","68.30","INUVIK AWOS A","2202575","2012-02-10 00:00","2012","02","10","00:00","-9.9","","-19.5","","45","","","","22","","9","","15.0","","100.50","","","","-15","",""
"-133.48","68.30","INUVIK AWOS A","2202575","2012-02-10 01:00","2012","02","10","01:00","-10.8","","-20.2","","46","","","","24","","4","","15.0","","100.49","","","","-13","",""
"-133.48","68.30","INUVIK AWOS A","2202575","2012-02-10 02:00","2012","02","10","02:00","-11.4","","-20.5","","47","","","","22","","6","","15.0","","100.45","","","","-15","",""
"-133.48","68.30","INUVIK AWOS A","2202575","2012-02-10 03:00","2012","02","10","03:00","-14.7","","-22.4","","52","","","","19","","7","","15.0","","100.40","","","","-19","",""
"-133.48","68.30","INUVIK AWOS A","2202575","2012-02-10 04:00","2012","02","10","04:00","-14.1","","-22.0","","51","","","","15","","9","","15.0","","100.36","","","","-20","",""
"-133.48","68.30","INUVIK AWOS A","2202575","2012-02-10 05:00","2012","02","10","05:00","-12.3","","-20.8","","49","","","","9","","4","","15.0","","100.26","","","","-15","",""
"-133.48","68.30","INUVIK AWOS A","2202575","2012-02-10 06:00","2012","02","10","06:00","-13.1","","-21.5","","49","","","","10","","13","","15.0","","100.19","","","","-20","",""
"-133.48","68.30","INUVIK AWOS A","2202575","2012-02-10 07:00","2012","02","10","07:00","-13.7","","-22.0","","50","","","","9","","9","","15.0","","100.11","","","","-19","",""
"-133.48","68.30","INUVIK AWOS A","2202575","2012-02-10 08:00","2012","02","10","08:00","-13.9","","-22.2","","49","","","","12","","11","","15.0","","100.13","","","","-20","",""
"-133.48","68.30","INUVIK AWOS A","2202575","2012-02-10 09:00","2012","02","10","09:00","-13.9","","-22.3","","49","","","","8","","9","","15.0","","100.03","","","","-20","",""
"-133.48","68.30","INUVIK AWOS A","2202575","2012-02-10 10:00","2012","02","10","10:00","-14.3","","-22.5","","50","","","","10","","17","","15.0","","99.95","","","","-23","",""
"-133.48","68.30","INUVIK AWOS A","2202575","2012-02-10 11:00","2012","02","10","11:00","-14.1","","-22.5","","49","","","","9","","9","","15.0","","99.90","","","","-20","",""
"-133.48","68.30","INUVIK AWOS A","2202575","2012-02-10 12:00","2012","02","10","12:00","-12.7","","-21.7","","47","","","","10","","7","","15.0","","99.84","","","","-17","",""
"-133.48","68.30","INUVIK AWOS A","2202575","2012-02-10 13:00","2012","02","10","13:00","-12.9","","-21.8","","47","","","","11","","11","","15.0","","99.78","","","","-19","",""
"-133.48","68.30","INUVIK AWOS A","2202575","2012-02-10 14:00","2012","02","10","14:00","-12.3","","-21.3","","47","","","","13","","13","","15.0","","99.73","","","","-19","",""
"-133.48","68.30","INUVIK AWOS A","2202575","2012-02-10 15:00","2012","02","10","15:00","-10.6","","-20.4","","44","","","","18","","9","","15.0","","99.67","","","","-16","",""
"-133.48","68.30","INUVIK AWOS A","2202575","2012-02-10 16:00","2012","02","10","16:00","-10.5","","-20.3","","44","","","","17","","9","","15.0","","99.59","","","","-15","",""
"-133.48","68.30","INUVIK AWOS A","2202575","2012-02-10 17:00","2012","02","10","17:00","-9.2","","-18.9","","45","","","","18","","9","","15.0","","99.53","","","","-14","",""
"-133.48","68.30","INUVIK AWOS A","2202575","2012-02-10 18:00","2012","02","10","18:00","-11.2","","-19.9","","49","","","","14","","7","","15.0","","99.50","","","","-15","",""
"-133.48","68.30","INUVIK AWOS A","2202575","2012-02-10 19:00","2012","02","10","19:00","-12.0","","-19.2","","55","","","","","","0","","15.0","","99.47","","","","","",""
"-133.48","68.30","INUVIK AWOS A","2202575","2012-02-10 20:00","2012","02","10","20:00","-9.0","","-17.8","","49","","","","","","0","","15.0","","99.40","","","","","",""
"-133.48","68.30","INUVIK AWOS A","2202575","2012-02-10 21:00","2012","02","10","21:00","-6.3","","-16.4","","45","","","","20","","17","","15.0","","99.37","","","","-13","",""
"-133.48","68.30","INUVIK AWOS A","2202575","2012-02-10 22:00","2012","02","10","22:00","-5.8","","-16.4","","43","","","","18","","15","","15.0","","99.35","","","","-12","",""
"-133.48","68.30","INUVIK AWOS A","2202575","2012-02-10 23:00","2012","02","10","23:00","-6.9","","-16.7","","46","","","","25","","6","","15.0","","99.37","","","","-10","",""
"-133.48","68.30","INUVIK AWOS A","2202575","2012-02-11 00:00","2012","02","11","00:00","-8.0","","-17.2","","48","","","","21","","7","","15.0","","99.40","","","","-12","",""
"-133.48","68.30","INUVIK AWOS A","2202575","2012-02-11 01:00","2012","02","11","01:00","-6.1","","-15.8","","46","","","","22","","4","","15.0","","99.41","","","","-8","",""
"-133.48","68.30","INUVIK AWOS A","2202575","2012-02-11 02:00","2012","02","11","02:00","-3.6","","-14.6","","42","","","","13","","7","","15.0","","99.43","","","","-7","",""
"-133.48","68.30","INUVIK AWOS A","2202575","2012-02-11 03:00","2012","02","11","03:00","-2.1","","-13.8","","40","","","","18","","22","","15.0","","99.38","","","","-8","",""
"-133.48","68.30","INUVIK AWOS A","2202575","2012-02-11 04:00","2012","02","11","04:00","-1.0","","-13.2","","39","","","","7","","6","","15.0","","99.32","","","","-3","",""
"-133.48","68.30","INUVIK AWOS A","2202575","2012-02-11 05:00","2012","02","11","05:00","-0.9","","-12.8","","40","","","","30","","6","","15.0","","99.30","","","","-3","",""
"-133.48","68.30","INUVIK AWOS A","2202575","2012-02-11 06:00","2012","02","11","06:00","-2.4","","-13.3","","43","","","","17","","9","","15.0","","99.25","","","","-6","",""
"-133.48","68.30","INUVIK AWOS A","2202575","2012-02-11 07:00","2012","02","11","07:00","-1.2","","-12.5","","42","","","","","","0","","15.0","","99.19","","","","","",""
"-133.48","68.30","INUVIK AWOS A","2202575","2012-02-11 08:00","2012","02","11","08:00","-1.9","","-13.1","","42","","","","21","","6","","15.0","","99.18","","","","-4","",""
"-133.48","68.30","INUVIK AWOS A","2202575","2012-02-11 09:00","2012","02","11","09:00","-1.5","","-13.0","","41","","","","25","","6","","15.0","","99.15","","","","-4","",""
"-133.48","68.30","INUVIK AWOS A","2202575","2012-02-11 10:00","2012","02","11","10:00","-2.0","","-13.6","","41","","","","22","","9","","15.0","","99.12","","","","-5","",""
"-133.48","68.30","INUVIK AWOS A","2202575","2012-02-11 11:00","2012","02","11","11:00","-3.4","","-14.3","","43","","","","29","","6","","15.0","","99.13","","","","-6","",""
"-133.48","68.30","INUVIK AWOS A","2202575","2012-02-11 12:00","2012","02","11","12:00","-3.0","","-14.2","","42","","","","22","","7","","15.0","","99.13","","","","-6","",""
"-133.48","68.30","INUVIK AWOS A","2202575","2012-02-11 13:00","2012","02","11","13:00","-3.3","","-14.6","","41","","","","26","","4","","15.0","","99.10","","","","-5","",""
"-133.48","68.30","INUVIK AWOS A","2202575","2012-02-11 14:00","2012","02","11","14:00","-4.7","","-15.0","","44","","","","30","","6","","15.0","","99.14","","","","-7","",""
"-133.48","68.30","INUVIK AWOS A","2202575","2012-02-11 15:00","2012","02","11","15:00","-9.2","","-17.9","","49","","","","28","","9","","15.0","","99.15","","","","-14","",""
"-133.48","68.30","INUVIK AWOS A","2202575","2012-02-11 16:00","2012","02","11","16:00","-11.3","","-19.5","","51","","","","26","","4","","15.0","","99.18","","","","-14","",""
"-133.48","68.30","INUVIK AWOS A","2202575","2012-02-11 17:00","2012","02","11","17:00","-12.8","","-20.2","","54","","","","30","","6","","15.0","","99.21","","","","-17","",""
"-133.48","68.30","INUVIK AWOS A","2202575","2012-02-11 18:00","2012","02","11","18:00","-15.8","","-22.3","","57","","","","","","0","","15.0","","99.19","","","","","",""
"-133.48","68.30","INUVIK AWOS A","2202575","2012-02-11 19:00","2012","02","11","19:00","-17.7","","-24.0","","58","","","","22","","4","","15.0","","99.20","","","","-21","",""
"-133.48","68.30","INUVIK AWOS A","2202575","2012-02-11 20:00","2012","02","11","20:00","-18.7","","-25.3","","56","","","","","","0","","15.0","","99.23","","","","","",""
"-133.48","68.30","INUVIK AWOS A","2202575","2012-02-11 21:00","2012","02","11","21:00","-19.6","","-26.1","","56","","","","","","0","","15.0","","99.23","","","","","",""
"-133.48","68.30","INUVIK AWOS A","2202575","2012-02-11 22:00","2012","02","11","22:00","-16.0","","-22.1","","59","","","","32","","6","","1.1","","99.22","","","","-20","",""
"-133.48","68.30","INUVIK AWOS A","2202575","2012-02-11 23:00","2012","02","11","23:00","-18.0","","-24.2","","58","","","","","","0","","15.0","","99.19","","","","","",""
"-133.48","68.30","INUVIK AWOS A","2202575","2012-02-12 00:00","2012","02","12","00:00","-19.2","","-25.5","","57","","","","36","","4","","6.4","","99.18","","","","-23","",""
"-133.48","68.30","INUVIK AWOS A","2202575","2012-02-12 01:00","2012","02","12","01:00","-19.1","","-25.2","","58","","","","15","","6","","15.0","","99.18","","","","-24","",""
"-133.48","68.30","INUVIK AWOS A","2202575","2012-02-12 02:00","2012","02","12","02:00","-17.8","","-23.6","","60","","","","5","","11","","15.0","","99.16","","","","-25","",""
"-133.48","68.30","INUVIK AWOS A","2202575","2012-02-12 03:00","2012","02","12","03:00","-17.6","","-23.3","","61","","","","","","0","","15.0","","99.23","","","","","",""
"-133.48","68.30","INUVIK AWOS A","2202575","2012-02-12 04:00","2012","02","12","04:00","-15.4","","-20.8","","63","","","","","","0","","15.0","","99.15","","","","","",""
"-133.48","68.30","INUVIK AWOS A","2202575","2012-02-12 05:00","2012","02","12","05:00","-16.0","","-21.5","","63","","","","","","0","","15.0","","99.08","","","","","",""
"-133.48","68.30","INUVIK AWOS A","2202575","2012-02-12 06:00","2012","02","12","06:00","-15.2","","-20.6","","63","","","","","","0","","15.0","","99.06","","","","","",""
"-133.48","68.30","INUVIK AWOS A","2202575","2012-02-12 07:00","2012","02","12","07:00","-14.8","","-20.1","","64","","","","","","0","","15.0","","99.03","","","","","",""
"-133.48","68.30","INUVIK AWOS A","2202575","2012-02-12 08:00","2012","02","12","08:00","-14.6","","-19.7","","65","","","","","","0","","9.7","","98.99","","","","","",""
"-133.48","68.30","INUVIK AWOS A","2202575","2012-02-12 09:00","2012","02","12","09:00","-12.6","","-17.6","","66","","","","7","","6","","9.7","","98.95","","","","-17","",""
"-133.48","68.30","INUVIK AWOS A","2202575","2012-02-12 10:00","2012","02","12","10:00","-13.7","","-18.8","","65","","","","","","0","","1.0","","98.98","","","","","",""
"-133.48","68.30","INUVIK AWOS A","2202575","2012-02-12 11:00","2012","02","12","11:00","-13.9","","-19.2","","64","","","","31","","4","","4.0","","99.00","","","","-17","","Snow"
"-133.48","68.30","INUVIK AWOS A","2202575","2012-02-12 12:00","2012","02","12","12:00","-13.1","","-18.6","","63","","","","","","0","","4.8","","99.01","","","","","",""
"-133.48","68.30","INUVIK AWOS A","2202575","2012-02-12 13:00","2012","02","12","13:00","-12.6","","-18.1","","63","","","","","","0","","3.1","","98.99","","","","","",""
"-133.48","68.30","INUVIK AWOS A","2202575","2012-02-12 14:00","2012","02","12","14:00","-12.0","","-17.6","","63","","","","9","","4","","15.0","","98.97","","","","-15","",""
"-133.48","68.30","INUVIK AWOS A","2202575","2012-02-12 15:00","2012","02","12","15:00","-11.8","","-17.5","","63","","","","1","","4","","11.3","","99.00","","","","-14","",""
"-133.48","68.30","INUVIK AWOS A","2202575","2012-02-12 16:00","2012","02","12","16:00","-11.7","","-17.4","","63","","","","1","","4","","2.6","","99.02","","","","-14","","Snow"
"-133.48","68.30","INUVIK AWOS A","2202575","2012-02-12 17:00","2012","02","12","17:00","-12.0","","-17.8","","62","","","","","","0","","4.0","","99.03","","","","","","Snow"
"-133.48","68.30","INUVIK AWOS A","2202575","2012-02-12 18:00","2012","02","12","18:00","-12.2","","-18.0","","62","","","","34","","4","","9.7","","99.06","","","","-15","","Snow"
"-133.48","68.30","INUVIK AWOS A","2202575","2012-02-12 19:00","2012","02","12","19:00","-12.2","","-18.1","","61","","","","","","0","","9.7","","99.08","","","","","","Snow"
"-133.48","68.30","INUVIK AWOS A","2202575","2012-02-12 20:00","2012","02","12","20:00","-12.1","","-18.1","","61","","","","","","0","","2.6","","99.13","","","","","","Snow"
"-133.48","68.30","INUVIK AWOS A","2202575","2012-02-12 21:00","2012","02","12","21:00","-12.6","","-18.5","","61","","","","31","","6","","4.0","","99.18","","","","-17","","Snow"
"-133.48","68.30","INUVIK AWOS A","2202575","2012-02-12 22:00","2012","02","12","22:00","-12.7","","-18.5","","62","","","","34","","4","","4.8","","99.23","","","","-15","","Snow"
"-133.48","68.30","INUVIK AWOS A","2202575","2012-02-12 23:00","2012","02","12","23:00","-13.2","","-19.1","","61","","","","","","0","","3.7","","99.29","","","","","","Snow"
"-133.48","68.30","INUVIK AWOS A","2202575","2012-02-13 00:00","2012","02","13","00:00","-13.4","","-19.4","","61","","","","","","0","","4.0","","99.34","","","","","","Snow"
"-133.48","68.30","INUVIK AWOS A","2202575","2012-02-13 01:00","2012","02","13","01:00","-13.8","","-19.8","","60","","","","29","","4","","15.0","","99.39","","","","-17","",""
"-133.48","68.30","INUVIK AWOS A","2202575","2012-02-13 02:00","2012","02","13","02:00","-13.2","","-19.2","","61","","","","30","","4","","15.0","","99.46","","","","-16","","Snow"
"-133.48","68.30","INUVIK AWOS A","2202575","2012-02-13 03:00","2012","02","13","03:00","-13.3","","-19.2","","61","","","","","","0","","15.0","","99.49","","","","","",""
"-133.48","68.30","INUVIK AWOS A","2202575","2012-02-13 04:00","2012","02","13","04:00","-13.4","","-19.4","","61","","","","","","0","","15.0","","99.54","","","","","",""
"-133.48","68.30","INUVIK AWOS A","2202575","2012-02-13 05:00","2012","02","13","05:00","-13.1","","-19.2","","60","","","","","","0","","11.3","","99.58","","","","","","Snow"
"-133.48","68.30","INUVIK AWOS A","2202575","2012-02-13 06:00","2012","02","13","06:00","-13.2","","-19.3","","60","","","","","","0","","3.5","","99.60","","","","","",""
"-133.48","68.30","INUVIK AWOS A","2202575","2012-02-13 07:00","2012","02","13","07:00","-13.3","","-19.5","","60","","","","","","0","","15.0","","99.61","","","","","",""
"-133.48","68.30","INUVIK AWOS A","2202575","2012-02-13 08:00","2012","02","13","08:00","-13.3","","-19.4","","60","","","","","","0","","3.4","","99.64","","","","","","Snow"
"-133.48","68.30","INUVIK AWOS A","2202575","2012-02-13 09:00","2012","02","13","09:00","-13.2","","-19.4","","60","","","","12","","4","","2.3","","99.66","","","","-16","","Snow"
"-133.48","68.30","INUVIK AWOS A","2202575","2012-02-13 10:00","2012","02","13","10:00","-14.0","","-20.2","","59","","","","11","","6","","0.5","","99.68","","","","-18","","Snow"
"-133.48","68.30","INUVIK AWOS A","2202575","2012-02-13 11:00","2012","02","13","11:00","-14.5","","-20.6","","60","","","","14","","4","","1.1","","99.72","","","","-17","","Snow"
"-133.48","68.30","INUVIK AWOS A","2202575","2012-02-13 12:00","2012","02","13","12:00","-14.6","","-20.8","","59","","","","9","","4","","4.8","","99.71","","","","-17","","Snow"
"-133.48","68.30","INUVIK AWOS A","2202575","2012-02-13 13:00","2012","02","13","13:00","-14.2","","-20.5","","59","","","","9","","7","","15.0","","99.75","","","","-19","",""
"-133.48","68.30","INUVIK AWOS A","2202575","2012-02-13 14:00","2012","02","13","14:00","-13.3","","-19.6","","59","","","","10","","6","","15.0","","99.74","","","","-17","",""
"-133.48","68.30","INUVIK AWOS A","2202575","2012-02-13 15:00","2012","02","13","15:00","-12.9","","-19.3","","59","","","","10","","6","","15.0","","99.76","","","","-17","",""
"-133.48","68.30","INUVIK AWOS A","2202575","2012-02-13 16:00","2012","02","13","16:00","-13.1","","-19.5","","59","","","","9","","9","","15.0","","99.76","","","","-19","",""
"-133.48","68.30","INUVIK AWOS A","2202575","2012-02-13 17:00","2012","02","13","17:00","-13.9","","-20.4","","58","","","","9","","13","","15.0","","99.71","","","","-21","",""
"-133.48","68.30","INUVIK AWOS A","2202575","2012-02-13 18:00","2012","02","13","18:00","-15.7","","-22.2","","57","","","","7","","4","","15.0","","99.79","","","","-19","",""
"-133.48","68.30","INUVIK AWOS A","2202575","2012-02-13 19:00","2012","02","13","19:00","-15.9","","-22.4","","57","","","","9","","11","","15.0","","99.75","","","","-23","",""
"-133.48","68.30","INUVIK AWOS A","2202575","2012-02-13 20:00","2012","02","13","20:00","-16.2","","-22.7","","57","","","","10","","17","","15.0","","99.74","","","","-25","",""
"-133.48","68.30","INUVIK AWOS A","2202575","2012-02-13 21:00","2012","02","13","21:00","-16.6","","-23.0","","58","","","","8","","9","","15.0","","99.72","","","","-23","",""
"-133.48","68.30","INUVIK AWOS A","2202575","2012-02-13 22:00","2012","02","13","22:00","-15.9","","-22.3","","58","","","","8","","17","","15.0","","99.69","","","","-25","",""
"-133.48","68.30","INUVIK AWOS A","2202575","2012-02-13 23:00","2012","02","13","23:00","-15.4","","-21.7","","58","","","","10","","15","","15.0","","99.74","","","","-23","",""
"-133.48","68.30","INUVIK AWOS A","2202575","2012-02-14 00:00","2012","02","14","00:00","-15.1","","-21.5","","58","","","","10","","15","","15.0","","99.71","","","","-23","",""
"-133.48","68.30","INUVIK AWOS A","2202575","2012-02-14 01:00","2012","02","14","01:00","-14.9","","-21.2","","59","","","","8","","11","","15.0","","99.70","","","","-21","",""
"-133.48","68.30","INUVIK AWOS A","2202575","2012-02-14 02:00","2012","02","14","02:00","-15.1","","-21.4","","59","","","","9","","11","","15.0","","99.70","","","","-22","",""
"-133.48","68.30","INUVIK AWOS A","2202575","2012-02-14 03:00","2012","02","14","03:00","-14.7","","-21.0","","59","","","","9","","7","","15.0","","99.70","","","","-19","",""
"-133.48","68.30","INUVIK AWOS A","2202575","2012-02-14 04:00","2012","02","14","04:00","-14.2","","-20.6","","58","","","","8","","7","","15.0","","99.70","","","","-19","",""
"-133.48","68.30","INUVIK AWOS A","2202575","2012-02-14 05:00","2012","02","14","05:00","-14.1","","-20.3","","59","","","","13","","9","","15.0","","99.68","","","","-20","",""
"-133.48","68.30","INUVIK AWOS A","2202575","2012-02-14 06:00","2012","02","14","06:00","-13.8","","-20.1","","59","","","","12","","7","","15.0","","99.66","","","","-18","",""
"-133.48","68.30","INUVIK AWOS A","2202575","2012-02-14 07:00","2012","02","14","07:00","-14.1","","-20.4","","59","","","","7","","4","","15.0","","99.66","","","","-17","",""
"-133.48","68.30","INUVIK AWOS A","2202575","2012-02-14 08:00","2012","02","14","08:00","-14.4","","-20.8","","58","","","","10","","9","","15.0","","99.62","","","","-20","",""
"-133.48","68.30","INUVIK AWOS A","2202575","2012-02-14 09:00","2012","02","14","09:00","-14.7","","-21.1","","58","","","","10","","9","","15.0","","99.64","","","","-20","",""
"-133.48","68.30","INUVIK AWOS A","2202575","2012-02-14 10:00","2012","02","14","10:00","-14.2","","-20.7","","58","","","","","","0","","4.8","","99.62","","","","","",""
"-133.48","68.30","INUVIK AWOS A","2202575","2012-02-14 11:00","2012","02","14","11:00","-14.5","","-20.9","","58","","","","","","0","","1.6","","99.63","","","","","",""
"-133.48","68.30","INUVIK AWOS A","2202575","2012-02-14 12:00","2012","02","14","12:00","-14.1","","-20.6","","58","","","","","","0","","2.1","","99.61","","","","","",""
"-133.48","68.30","INUVIK AWOS A","2202575","2012-02-14 13:00","2012","02","14","13:00","-13.6","","-20.0","","58","","","","","","0","","2.7","","99.63","","","","","",""
"-133.48","68.30","INUVIK AWOS A","2202575","2012-02-14 14:00","2012","02","14","14:00","-14.0","","-20.4","","58","","","","36","","6","","3.2","","99.66","","","","-18","",""
"-133.48","68.30","INUVIK AWOS A","2202575","2012-02-14 15:00","2012","02","14","15:00","-14.1","","-20.5","","58","","","","1","","4","","4.8","","99.70","","","","-17","",""
"-133.48","68.30","INUVIK AWOS A","2202575","2012-02-14 16:00","2012","02","14","16:00","-14.4","","-20.8","","58","","","","36","","4","","15.0","","99.72","","","","-17","",""
"-133.48","68.30","INUVIK AWOS A","2202575","2012-02-14 17:00","2012","02","14","17:00","-14.4","","-20.7","","59","","","","35","","6","","15.0","","99.77","","","","-19","",""
"-133.48","68.30","INUVIK AWOS A","2202575","2012-02-14 18:00","2012","02","14","18:00","-14.2","","-20.6","","58","","","","33","","4","","15.0","","99.82","","","","-17","",""
"-133.48","68.30","INUVIK AWOS A","2202575","2012-02-14 19:00","2012","02","14","19:00","-14.1","","-20.5","","58","","","","32","","6","","15.0","","99.86","","","","-18","",""
"-133.48","68.30","INUVIK AWOS A","2202575","2012-02-14 20:00","2012","02","14","20:00","-14.0","","-20.4","","58","","","","34","","4","","15.0","","99.91","","","","-17","",""
"-133.48","68.30","INUVIK AWOS A","2202575","2012-02-14 21:00","2012","02","14","21:00","-14.0","","-20.3","","59","","","","34","","4","","12.9","","99.94","","","","-17","",""
"-133.48","68.30","INUVIK AWOS A","2202575","2012-02-14 22:00","2012","02","14","22:00","-14.0","","-20.3","","59","","","","31","","6","","11.3","","99.99","","","","-18","",""
"-133.48","68.30","INUVIK AWOS A","2202575","2012-02-14 23:00","2012","02","14","23:00","-13.8","","-20.3","","58","","","","","","0","","12.9","","100.05","","","","","",""
"-133.48","68.30","INUVIK AWOS A","2202575","2012-02-15 00:00","2012","02","15","00:00","-14.0","","-20.4","","58","","","","34","","4","","15.0","","100.11","","","","-17","",""
"-133.48","68.30","INUVIK AWOS A","2202575","2012-02-15 01:00","2012","02","15","01:00","-14.1","","-20.4","","59","","","","","","0","","12.9","","100.14","","","","","",""
"-133.48","68.30","INUVIK AWOS A","2202575","2012-02-15 02:00","2012","02","15","02:00","-14.1","","-20.5","","58","","","","","","0","","12.9","","100.20","","","","","",""
"-133.48","68.30","INUVIK AWOS A","2202575","2012-02-15 03:00","2012","02","15","03:00","-14.2","","-20.6","","58","","","","","","0","","15.0","","100.26","","","","","",""
"-133.48","68.30","INUVIK AWOS A","2202575","2012-02-15 04:00","2012","02","15","04:00","-14.2","","-20.6","","58","","","","","","0","","12.9","","100.30","","","","","",""
"-133.48","68.30","INUVIK AWOS A","2202575","2012-02-15 05:00","2012","02","15","05:00","-14.1","","-20.5","","58","","","","","","0","","3.7","","100.31","","","","","","Snow"
"-133.48","68.30","INUVIK AWOS A","2202575","2012-02-15 06:00","2012","02","15","06:00","-14.2","","-20.6","","58","","","","","","0","","2.6","","100.31","","","","","","Snow"
"-133.48","68.30","INUVIK AWOS A","2202575","2012-02-15 07:00","2012","02","15","07:00","-14.0","","-20.4","","58","","","","","","0","","8.0","","100.33","","","","","","Snow"
"-133.48","68.30","INUVIK AWOS A","2202575","2012-02-15 08:00","2012","02","15","08:00","-14.1","","-20.4","","59","","","","18","","4","","14.5","","100.35","","","","-17","","Snow"
"-133.48","68.30","INUVIK AWOS A","2202575","2012-02-15 09:00","2012","02","15","09:00","-14.1","","-20.4","","59","","","","12","","6","","12.9","","100.29","","","","-18","","Snow"
"-133.48","68.30","INUVIK AWOS A","2202575","2012-02-15 10:00","2012","02","15","10:00","-14.1","","-20.5","","58","","","","16","","4","","15.0","","100.31","","","","-17","",""
"-133.48","68.30","INUVIK AWOS A","2202575","2012-02-15 11:00","2012","02","15","11:00","-13.7","","-20.1","","58","","","","11","","7","","11.3","","100.31","","","","-18","","Snow"
"-133.48","68.30","INUVIK AWOS A","2202575","2012-02-15 12:00","2012","02","15","12:00","-13.5","","-20.0","","58","","","","11","","9","","12.9","","100.28","","","","-19","","Snow"
"-133.48","68.30","INUVIK AWOS A","2202575","2012-02-15 13:00","2012","02","15","13:00","-13.3","","-19.7","","59","","","","12","","4","","15.0","","100.30","","","","-16","",""
"-133.48","68.30","INUVIK AWOS A","2202575","2012-02-15 14:00","2012","02","15","14:00","-13.1","","-19.6","","58","","","","12","","4","","15.0","","100.29","","","","-16","",""
"-133.48","68.30","INUVIK AWOS A","2202575","2012-02-15 15:00","2012","02","15","15:00","-13.7","","-20.2","","58","","","","11","","7","","15.0","","100.24","","","","-18","",""
"-133.48","68.30","INUVIK AWOS A","2202575","2012-02-15 16:00","2012","02","15","16:00","-13.1","","-19.5","","59","","","","10","","6","","15.0","","100.20","","","","-17","",""
"-133.48","68.30","INUVIK AWOS A","2202575","2012-02-15 17:00","2012","02","15","17:00","-13.2","","-19.7","","58","","","","8","","6","","15.0","","100.16","","","","-17","",""
"-133.48","68.30","INUVIK AWOS A","2202575","2012-02-15 18:00","2012","02","15","18:00","-14.7","","-21.2","","58","","","","9","","9","","15.0","","100.14","","","","-20","",""
"-133.48","68.30","INUVIK AWOS A","2202575","2012-02-15 19:00","2012","02","15","19:00","-16.4","","-23.0","","57","","","","9","","9","","15.0","","100.12","","","","-22","",""
"-133.48","68.30","INUVIK AWOS A","2202575","2012-02-15 20:00","2012","02","15","20:00","-16.3","","-22.9","","57","","","","9","","9","","15.0","","100.13","","","","-22","",""
"-133.48","68.30","INUVIK AWOS A","2202575","2012-02-15 21:00","2012","02","15","21:00","-15.2","","-21.8","","57","","","","9","","9","","15.0","","100.07","","","","-21","",""
"-133.48","68.30","INUVIK AWOS A","2202575","2012-02-15 22:00","2012","02","15","22:00","-14.2","","-20.5","","59","","","","13","","7","","15.0","","100.04","","","","-19","",""
"-133.48","68.30","INUVIK AWOS A","2202575","2012-02-15 23:00","2012","02","15","23:00","-13.2","","-19.5","","59","","","","10","","11","","15.0","","99.98","","","","-19","",""
"-133.48","68.30","INUVIK AWOS A","2202575","2012-02-16 00:00","2012","02","16","00:00","-13.2","","-19.6","","59","","","","9","","9","","15.0","","99.92","","","","-19","",""
"-133.48","68.30","INUVIK AWOS A","2202575","2012-02-16 01:00","2012","02","16","01:00","-13.2","","-19.5","","59","","","","9","","11","","15.0","","99.88","","","","-19","",""
"-133.48","68.30","INUVIK AWOS A","2202575","2012-02-16 02:00","2012","02","16","02:00","-13.5","","-19.8","","59","","","","9","","15","","15.0","","99.83","","","","-21","",""
"-133.48","68.30","INUVIK AWOS A","2202575","2012-02-16 03:00","2012","02","16","03:00","-13.7","","-20.0","","59","","","","9","","11","","15.0","","99.78","","","","-20","",""
"-133.48","68.30","INUVIK AWOS A","2202575","2012-02-16 04:00","2012","02","16","04:00","-13.0","","-19.3","","59","","","","10","","13","","15.0","","99.75","","","","-20","",""
"-133.48","68.30","INUVIK AWOS A","2202575","2012-02-16 05:00","2012","02","16","05:00","-12.2","","-18.5","","59","","","","8","","11","","15.0","","99.68","","","","-18","",""
"-133.48","68.30","INUVIK AWOS A","2202575","2012-02-16 06:00","2012","02","16","06:00","-11.7","","-18.0","","59","","","","13","","9","","15.0","","99.64","","","","-17","",""
"-133.48","68.30","INUVIK AWOS A","2202575","2012-02-16 07:00","2012","02","16","07:00","-11.1","","-17.4","","60","","","","7","","7","","15.0","","99.58","","","","-15","",""
"-133.48","68.30","INUVIK AWOS A","2202575","2012-02-16 08:00","2012","02","16","08:00","-9.9","","-16.1","","60","","","","7","","7","","2.1","","99.53","","","","-14","","Snow"
"-133.48","68.30","INUVIK AWOS A","2202575","2012-02-16 09:00","2012","02","16","09:00","-9.1","","-15.1","","62","","","","9","","7","","1.8","","99.51","","","","-13","","Snow"
"-133.48","68.30","INUVIK AWOS A","2202575","2012-02-16 10:00","2012","02","16","10:00","-8.2","","-14.1","","62","","","","8","","7","","1.0","","99.44","","","","-12","","Snow"
"-133.48","68.30","INUVIK AWOS A","2202575","2012-02-16 11:00","2012","02","16","11:00","-7.6","","-13.5","","63","","","","17","","6","","2.9","","99.42","","","","-11","","Snow"
"-133.48","68.30","INUVIK AWOS A","2202575","2012-02-16 12:00","2012","02","16","12:00","-8.2","","-14.3","","61","","","","14","","4","","1.8","","99.45","","","","-10","","Snow"
"-133.48","68.30","INUVIK AWOS A","2202575","2012-02-16 13:00","2012","02","16","13:00","-8.3","","-14.3","","62","","","","","","0","","8.0","","99.45","","","","","","Snow"
"-133.48","68.30","INUVIK AWOS A","2202575","2012-02-16 14:00","2012","02","16","14:00","-8.4","","-14.4","","62","","","","","","0","","4.8","","99.45","","","","","","Snow"
"-133.48","68.30","INUVIK AWOS A","2202575","2012-02-16 15:00","2012","02","16","15:00","-8.6","","-15.0","","60","","","","24","","7","","5.6","","99.45","","","","-12","","Snow"
"-133.48","68.30","INUVIK AWOS A","2202575","2012-02-16 16:00","2012","02","16","16:00","-9.2","","-15.3","","61","","","","28","","9","","1.9","","99.46","","","","-14","","Snow"
"-133.48","68.30","INUVIK AWOS A","2202575","2012-02-16 17:00","2012","02","16","17:00","-9.7","","-16.0","","60","","","","28","","7","","3.1","","99.47","","","","-14","","Snow"
"-133.48","68.30","INUVIK AWOS A","2202575","2012-02-16 18:00","2012","02","16","18:00","-10.1","","-16.4","","60","","","","25","","6","","3.4","","99.52","","","","-14","","Snow"
"-133.48","68.30","INUVIK AWOS A","2202575","2012-02-16 19:00","2012","02","16","19:00","-10.4","","-16.7","","60","","","","27","","9","","2.4","","99.56","","","","-15","","Snow"
"-133.48","68.30","INUVIK AWOS A","2202575","2012-02-16 20:00","2012","02","16","20:00","-12.1","","-18.4","","59","","","","30","","15","","11.3","","99.58","","","","-19","","Snow"
"-133.48","68.30","INUVIK AWOS A","2202575","2012-02-16 21:00","2012","02","16","21:00","-13.3","","-19.7","","59","","","","28","","11","","15.0","","99.64","","","","-20","",""
"-133.48","68.30","INUVIK AWOS A","2202575","2012-02-16 22:00","2012","02","16","22:00","-13.1","","-19.4","","59","","","","","","0","","15.0","","99.68","","","","","",""
"-133.48","68.30","INUVIK AWOS A","2202575","2012-02-16 23:00","2012","02","16","23:00","-12.8","","-19.2","","59","","","","28","","7","","4.0","","99.74","","","","-17","","Snow"
"-133.48","68.30","INUVIK AWOS A","2202575","2012-02-17 00:00","2012","02","17","00:00","-13.6","","-19.9","","59","","","","28","","7","","9.7","","99.78","","","","-18","",""
"-133.48","68.30","INUVIK AWOS A","2202575","2012-02-17 01:00","2012","02","17","01:00","-14.4","","-20.7","","59","","","","29","","9","","15.0","","99.83","","","","-20","",""
"-133.48","68.30","INUVIK AWOS A","2202575","2012-02-17 02:00","2012","02","17","02:00","-15.7","","-22.0","","58","","","","28","","7","","15.0","","99.90","","","","-21","","Snow"
"-133.48","68.30","INUVIK AWOS A","2202575","2012-02-17 03:00","2012","02","17","03:00","-16.2","","-22.5","","58","","","","27","","7","","15.0","","99.95","","","","-21","",""
"-133.48","68.30","INUVIK AWOS A","2202575","2012-02-17 04:00","2012","02","17","04:00","-16.0","","-22.3","","58","","","","27","","6","","15.0","","100.00","","","","-20","","Snow"
"-133.48","68.30","INUVIK AWOS A","2202575","2012-02-17 05:00","2012","02","17","05:00","-15.6","","-22.0","","58","","","","29","","6","","11.3","","100.00","","","","-20","","Snow"
"-133.48","68.30","INUVIK AWOS A","2202575","2012-02-17 06:00","2012","02","17","06:00","-16.5","","-22.7","","59","","","","27","","9","","11.3","","100.04","","","","-23","","Snow"
"-133.48","68.30","INUVIK AWOS A","2202575","2012-02-17 07:00","2012","02","17","07:00","-17.1","","-23.2","","59","","","","","","0","","15.0","","100.08","","","","","",""
"-133.48","68.30","INUVIK AWOS A","2202575","2012-02-17 08:00","2012","02","17","08:00","-17.0","","-23.3","","58","","","","29","","6","","9.7","","100.12","","","","-22","","Snow"
"-133.48","68.30","INUVIK AWOS A","2202575","2012-02-17 09:00","2012","02","17","09:00","-17.9","","-24.0","","59","","","","32","","4","","15.0","","100.16","","","","-21","",""
"-133.48","68.30","INUVIK AWOS A","2202575","2012-02-17 10:00","2012","02","17","10:00","-19.1","","-25.7","","56","","","","28","","6","","15.0","","100.20","","","","-24","",""
"-133.48","68.30","INUVIK AWOS A","2202575","2012-02-17 11:00","2012","02","17","11:00","-17.3","","-23.5","","58","","","","30","","6","","8.0","","100.23","","","","-22","",""
"-133.48","68.30","INUVIK AWOS A","2202575","2012-02-17 12:00","2012","02","17","12:00","-16.8","","-22.9","","59","","","","30","","6","","14.5","","100.28","","","","-21","",""
"-133.48","68.30","INUVIK AWOS A","2202575","2012-02-17 13:00","2012","02","17","13:00","-16.6","","-22.7","","59","","","","24","","4","","15.0","","100.32","","","","-20","",""
"-133.48","68.30","INUVIK AWOS A","2202575","2012-02-17 14:00","2012","02","17","14:00","-16.5","","-22.5","","60","","","","27","","4","","2.1","","100.33","","","","-20","",""
"-133.48","68.30","INUVIK AWOS A","2202575","2012-02-17 15:00","2012","02","17","15:00","-16.9","","-23.0","","59","","","","","","0","","15.0","","100.36","","","","","",""
"-133.48","68.30","INUVIK AWOS A","2202575","2012-02-17 16:00","2012","02","17","16:00","-16.9","","-23.0","","59","","","","29","","4","","1.8","","100.41","","","","-20","",""
"-133.48","68.30","INUVIK AWOS A","2202575","2012-02-17 17:00","2012","02","17","17:00","-16.9","","-22.9","","60","","","","","","0","","8.0","","100.41","","","","","",""
"-133.48","68.30","INUVIK AWOS A","2202575","2012-02-17 18:00","2012","02","17","18:00","-17.1","","-23.1","","60","","","","","","0","","15.0","","100.42","","","","","",""
"-133.48","68.30","INUVIK AWOS A","2202575","2012-02-17 19:00","2012","02","17","19:00","-17.9","","-23.9","","59","","","","8","","4","","15.0","","100.44","","","","-21","",""
"-133.48","68.30","INUVIK AWOS A","2202575","2012-02-17 20:00","2012","02","17","20:00","-17.6","","-23.4","","61","","","","7","","6","","6.4","","100.45","","","","-22","",""
"-133.48","68.30","INUVIK AWOS A","2202575","2012-02-17 21:00","2012","02","17","21:00","-17.6","","-23.7","","59","","","","8","","6","","4.8","","100.47","","","","-22","",""
"-133.48","68.30","INUVIK AWOS A","2202575","2012-02-17 22:00","2012","02","17","22:00","-17.7","","-24.1","","57","","","","9","","7","","1.4","","100.47","","","","-23","",""
"-133.48","68.30","INUVIK AWOS A","2202575","2012-02-17 23:00","2012","02","17","23:00","-18.0","","-24.4","","57","","","","8","","6","","1.0","","100.48","","","","-23","",""
"-133.48","68.30","INUVIK AWOS A","2202575","2012-02-18 00:00","2012","02","18","00:00","-18.7","","-25.1","","57","","","","8","","6","","0.6","","100.49","","","","-24","",""
"-133.48","68.30","INUVIK AWOS A","2202575","2012-02-18 01:00","2012","02","18","01:00","-19.5","","-26.0","","56","","","","7","","6","","15.0","","100.50","","","","-24","",""
"-133.48","68.30","INUVIK AWOS A","2202575","2012-02-18 02:00","2012","02","18","02:00","-19.7","","-26.1","","57","","","","8","","6","","15.0","","100.50","","","","-25","","Snow"
"-133.48","68.30","INUVIK AWOS A","2202575","2012-02-18 03:00","2012","02","18","03:00","-19.3","","-25.7","","57","","","","7","","6","","15.0","","100.53","","","","-24","",""
"-133.48","68.30","INUVIK AWOS A","2202575","2012-02-18 04:00","2012","02","18","04:00","-19.8","","-26.2","","57","","","","8","","7","","15.0","","100.51","","","","-25","","Snow"
"-133.48","68.30","INUVIK AWOS A","2202575","2012-02-18 05:00","2012","02","18","05:00","-19.7","","-26.0","","57","","","","10","","6","","15.0","","100.52","","","","-25","",""
"-133.48","68.30","INUVIK AWOS A","2202575","2012-02-18 06:00","2012","02","18","06:00","-19.6","","-26.0","","57","","","","7","","6","","2.6","","100.49","","","","-25","","Snow"
"-133.48","68.30","INUVIK AWOS A","2202575","2012-02-18 07:00","2012","02","18","07:00","-19.0","","-25.3","","57","","","","9","","4","","2.3","","100.49","","","","-22","","Snow"
"-133.48","68.30","INUVIK AWOS A","2202575","2012-02-18 08:00","2012","02","18","08:00","-18.9","","-25.2","","58","","","","7","","4","","2.3","","100.49","","","","-22","","Snow"
"-133.48","68.30","INUVIK AWOS A","2202575","2012-02-18 09:00","2012","02","18","09:00","-19.1","","-25.4","","57","","","","8","","6","","1.4","","100.47","","","","-24","",""
"-133.48","68.30","INUVIK AWOS A","2202575","2012-02-18 10:00","2012","02","18","10:00","-18.3","","-24.7","","57","","","","8","","4","","2.9","","100.49","","","","-22","",""
"-133.48","68.30","INUVIK AWOS A","2202575","2012-02-18 11:00","2012","02","18","11:00","-17.3","","-23.6","","58","","","","7","","6","","15.0","","100.47","","","","-22","","Snow"
"-133.48","68.30","INUVIK AWOS A","2202575","2012-02-18 12:00","2012","02","18","12:00","-16.9","","-23.2","","58","","","","9","","6","","15.0","","100.46","","","","-21","",""
"-133.48","68.30","INUVIK AWOS A","2202575","2012-02-18 13:00","2012","02","18","13:00","-17.3","","-23.6","","58","","","","8","","4","","15.0","","100.41","","","","-20","",""
"-133.48","68.30","INUVIK AWOS A","2202575","2012-02-18 14:00","2012","02","18","14:00","-17.4","","-24.0","","56","","","","9","","4","","15.0","","100.43","","","","-21","",""
"-133.48","68.30","INUVIK AWOS A","2202575","2012-02-18 15:00","2012","02","18","15:00","-15.7","","-23.3","","52","","","","9","","6","","15.0","","100.42","","","","-20","",""
"-133.48","68.30","INUVIK AWOS A","2202575","2012-02-18 16:00","2012","02","18","16:00","-16.6","","-23.6","","55","","","","9","","7","","15.0","","100.42","","","","-22","",""
"-133.48","68.30","INUVIK AWOS A","2202575","2012-02-18 17:00","2012","02","18","17:00","-18.4","","-25.5","","54","","","","9","","7","","15.0","","100.40","","","","-24","",""
"-133.48","68.30","INUVIK AWOS A","2202575","2012-02-18 18:00","2012","02","18","18:00","-18.8","","-25.9","","54","","","","7","","6","","15.0","","100.40","","","","-24","",""
"-133.48","68.30","INUVIK AWOS A","2202575","2012-02-18 19:00","2012","02","18","19:00","-18.3","","-25.4","","54","","","","9","","6","","15.0","","100.40","","","","-23","",""
"-133.48","68.30","INUVIK AWOS A","2202575","2012-02-18 20:00","2012","02","18","20:00","-18.9","","-26.0","","53","","","","8","","6","","15.0","","100.39","","","","-24","",""
"-133.48","68.30","INUVIK AWOS A","2202575","2012-02-18 21:00","2012","02","18","21:00","-19.7","","-26.8","","53","","","","10","","6","","15.0","","100.37","","","","-25","",""
"-133.48","68.30","INUVIK AWOS A","2202575","2012-02-18 22:00","2012","02","18","22:00","-21.3","","-28.5","","52","","","","8","","6","","15.0","","100.37","","","","-27","",""
"-133.48","68.30","INUVIK AWOS A","2202575","2012-02-18 23:00","2012","02","18","23:00","-21.0","","-28.2","","52","","","","9","","6","","15.0","","100.37","","","","-26","",""
"-133.48","68.30","INUVIK AWOS A","2202575","2012-02-19 00:00","2012","02","19","00:00","-20.6","","-27.8","","52","","","","8","","7","","15.0","","100.37","","","","-26","",""
"-133.48","68.30","INUVIK AWOS A","2202575","2012-02-19 01:00","2012","02","19","01:00","-20.4","","-27.5","","53","","","","6","","7","","15.0","","100.38","","","","-26","",""
"-133.48","68.30","INUVIK AWOS A","2202575","2012-02-19 02:00","2012","02","19","02:00","-19.3","","-26.4","","53","","","","6","","6","","15.0","","100.38","","","","-24","","Snow"
"-133.48","68.30","INUVIK AWOS A","2202575","2012-02-19 03:00","2012","02","19","03:00","-17.7","","-24.7","","54","","","","7","","4","","8.0","","100.39","","","","-21","","Snow"
"-133.48","68.30","INUVIK AWOS A","2202575","2012-02-19 04:00","2012","02","19","04:00","-17.1","","-24.0","","55","","","","7","","4","","2.9","","100.37","","","","-20","","Snow"
"-133.48","68.30","INUVIK AWOS A","2202575","2012-02-19 05:00","2012","02","19","05:00","-16.6","","-23.6","","55","","","","6","","4","","15.0","","100.38","","","","-20","",""
"-133.48","68.30","INUVIK AWOS A","2202575","2012-02-19 06:00","2012","02","19","06:00","-16.4","","-23.3","","55","","","","","","0","","15.0","","100.38","","","","","",""
"-133.48","68.30","INUVIK AWOS A","2202575","2012-02-19 07:00","2012","02","19","07:00","-16.2","","-23.0","","56","","","","11","","6","","15.0","","100.36","","","","-21","",""
"-133.48","68.30","INUVIK AWOS A","2202575","2012-02-19 08:00","2012","02","19","08:00","-16.6","","-23.4","","56","","","","10","","6","","15.0","","100.36","","","","-21","",""
"-133.48","68.30","INUVIK AWOS A","2202575","2012-02-19 09:00","2012","02","19","09:00","-16.5","","-23.4","","55","","","","8","","4","","15.0","","100.37","","","","-20","",""
"-133.48","68.30","INUVIK AWOS A","2202575","2012-02-19 10:00","2012","02","19","10:00","-16.7","","-23.6","","55","","","","","","0","","2.4","","100.38","","","","","",""
"-133.48","68.30","INUVIK AWOS A","2202575","2012-02-19 11:00","2012","02","19","11:00","-16.0","","-22.8","","56","","","","","","0","","4.8","","100.38","","","","","",""
"-133.48","68.30","INUVIK AWOS A","2202575","2012-02-19 12:00","2012","02","19","12:00","-15.8","","-22.6","","56","","","","","","0","","4.8","","100.37","","","","","",""
"-133.48","68.30","INUVIK AWOS A","2202575","2012-02-19 13:00","2012","02","19","13:00","-15.7","","-22.5","","56","","","","19","","4","","5.6","","100.38","","","","-19","",""
"-133.48","68.30","INUVIK AWOS A","2202575","2012-02-19 14:00","2012","02","19","14:00","-15.8","","-22.6","","56","","","","19","","6","","15.0","","100.39","","","","-20","",""
"-133.48","68.30","INUVIK AWOS A","2202575","2012-02-19 15:00","2012","02","19","15:00","-16.0","","-22.9","","55","","","","19","","6","","15.0","","100.39","","","","-20","",""
"-133.48","68.30","INUVIK AWOS A","2202575","2012-02-19 16:00","2012","02","19","16:00","-16.0","","-23.0","","55","","","","19","","7","","8.0","","100.39","","","","-21","","Snow"
"-133.48","68.30","INUVIK AWOS A","2202575","2012-02-19 17:00","2012","02","19","17:00","-16.6","","-23.6","","55","","","","15","","4","","15.0","","100.35","","","","-20","",""
"-133.48","68.30","INUVIK AWOS A","2202575","2012-02-19 18:00","2012","02","19","18:00","-16.8","","-23.9","","54","","","","14","","6","","15.0","","100.34","","","","-21","",""
"-133.48","68.30","INUVIK AWOS A","2202575","2012-02-19 19:00","2012","02","19","19:00","-17.7","","-24.9","","53","","","","13","","4","","15.0","","100.34","","","","-21","",""
"-133.48","68.30","INUVIK AWOS A","2202575","2012-02-19 20:00","2012","02","19","20:00","-17.7","","-24.7","","54","","","","14","","6","","15.0","","100.33","","","","-22","",""
"-133.48","68.30","INUVIK AWOS A","2202575","2012-02-19 21:00","2012","02","19","21:00","-17.5","","-24.5","","54","","","","15","","6","","15.0","","100.31","","","","-22","",""
"-133.48","68.30","INUVIK AWOS A","2202575","2012-02-19 22:00","2012","02","19","22:00","-17.7","","-24.7","","54","","","","13","","6","","15.0","","100.28","","","","-22","",""
"-133.48","68.30","INUVIK AWOS A","2202575","2012-02-19 23:00","2012","02","19","23:00","-17.7","","-24.7","","54","","","","16","","6","","15.0","","100.25","","","","-22","",""
"-133.48","68.30","INUVIK AWOS A","2202575","2012-02-20 00:00","2012","02","20","00:00","-17.9","","-24.9","","54","","","","14","","4","","15.0","","100.24","","","","-21","",""
"-133.48","68.30","INUVIK AWOS A","2202575","2012-02-20 01:00","2012","02","20","01:00","-17.9","","-24.9","","54","","","","14","","6","","15.0","","100.21","","","","-23","",""
"-133.48","68.30","INUVIK AWOS A","2202575","2012-02-20 02:00","2012","02","20","02:00","-18.2","","-25.3","","54","","","","13","","7","","15.0","","100.17","","","","-24","",""
"-133.48","68.30","INUVIK AWOS A","2202575","2012-02-20 03:00","2012","02","20","03:00","-19.0","","-26.1","","53","","","","14","","7","","15.0","","100.13","","","","-24","",""
"-133.48","68.30","INUVIK AWOS A","2202575","2012-02-20 04:00","2012","02","20","04:00","-21.0","","-28.2","","52","","","","12","","6","","15.0","","100.08","","","","-26","",""
"-133.48","68.30","INUVIK AWOS A","2202575","2012-02-20 05:00","2012","02","20","05:00","-22.6","","-30.2","","50","","","","10","","6","","15.0","","100.03","","","","-28","",""
"-133.48","68.30","INUVIK AWOS A","2202575","2012-02-20 06:00","2012","02","20","06:00","-22.5","","-30.0","","50","","","","9","","4","","15.0","","99.97","","","","-26","",""
"-133.48","68.30","INUVIK AWOS A","2202575","2012-02-20 07:00","2012","02","20","07:00","-22.2","","-29.5","","52","","","","9","","4","","15.0","","99.93","","","","-26","",""
"-133.48","68.30","INUVIK AWOS A","2202575","2012-02-20 08:00","2012","02","20","08:00","-21.1","","-28.4","","52","","","","8","","4","","15.0","","99.88","","","","-25","",""
"-133.48","68.30","INUVIK AWOS A","2202575","2012-02-20 09:00","2012","02","20","09:00","-22.2","","-29.6","","51","","","","9","","6","","15.0","","99.84","","","","-28","",""
"-133.48","68.30","INUVIK AWOS A","2202575","2012-02-20 10:00","2012","02","20","10:00","-20.5","","-27.8","","52","","","","10","","7","","15.0","","99.77","","","","-26","",""
"-133.48","68.30","INUVIK AWOS A","2202575","2012-02-20 11:00","2012","02","20","11:00","-20.3","","-27.6","","52","","","","11","","7","","12.9","","99.70","","","","-26","",""
"-133.48","68.30","INUVIK AWOS A","2202575","2012-02-20 12:00","2012","02","20","12:00","-19.3","","-26.9","","51","","","","10","","6","","14.5","","99.66","","","","-24","",""
"-133.48","68.30","INUVIK AWOS A","2202575","2012-02-20 13:00","2012","02","20","13:00","-19.3","","-27.0","","51","","","","11","","6","","15.0","","99.61","","","","-24","",""
"-133.48","68.30","INUVIK AWOS A","2202575","2012-02-20 14:00","2012","02","20","14:00","-19.0","","-26.6","","51","","","","9","","6","","15.0","","99.54","","","","-24","",""
"-133.48","68.30","INUVIK AWOS A","2202575","2012-02-20 15:00","2012","02","20","15:00","-18.8","","-26.1","","53","","","","9","","7","","15.0","","99.47","","","","-24","",""
"-133.48","68.30","INUVIK AWOS A","2202575","2012-02-20 16:00","2012","02","20","16:00","-19.0","","-26.6","","51","","","","9","","9","","15.0","","99.40","","","","-26","",""
"-133.48","68.30","INUVIK AWOS A","2202575","2012-02-20 17:00","2012","02","20","17:00","-19.8","","-27.2","","52","","","","8","","9","","15.0","","99.31","","","","-27","",""
"-133.48","68.30","INUVIK AWOS A","2202575","2012-02-20 18:00","2012","02","20","18:00","-20.7","","-28.0","","52","","","","8","","9","","15.0","","99.24","","","","-28","",""
"-133.48","68.30","INUVIK AWOS A","2202575","2012-02-20 19:00","2012","02","20","19:00","-21.5","","-29.0","","51","","","","7","","6","","15.0","","99.17","","","","-27","",""
"-133.48","68.30","INUVIK AWOS A","2202575","2012-02-20 20:00","2012","02","20","20:00","-23.1","","-30.7","","50","","","","","","0","","15.0","","99.12","","","","","",""
"-133.48","68.30","INUVIK AWOS A","2202575","2012-02-20 21:00","2012","02","20","21:00","-24.9","","-32.5","","49","","","","","","0","","15.0","","99.11","","","","","",""
"-133.48","68.30","INUVIK AWOS A","2202575","2012-02-20 22:00","2012","02","20","22:00","-26.6","","-35.0","","45","","","","","","0","","15.0","","99.08","","","","","",""
"-133.48","68.30","INUVIK AWOS A","2202575","2012-02-20 23:00","2012","02","20","23:00","-23.5","","-31.0","","50","","","","8","","7","","15.0","","99.02","","","","-30","",""
"-133.48","68.30","INUVIK AWOS A","2202575","2012-02-21 00:00","2012","02","21","00:00","-20.3","","-27.6","","52","","","","5","","4","","15.0","","98.96","","","","-24","",""
"-133.48","68.30","INUVIK AWOS A","2202575","2012-02-21 01:00","2012","02","21","01:00","-22.0","","-29.4","","51","","","","","","0","","15.0","","98.98","","","","","",""
"-133.48","68.30","INUVIK AWOS A","2202575","2012-02-21 02:00","2012","02","21","02:00","-23.6","","-31.1","","50","","","","","","0","","15.0","","98.98","","","","","",""
"-133.48","68.30","INUVIK AWOS A","2202575","2012-02-21 03:00","2012","02","21","03:00","-23.1","","-30.5","","51","","","","","","0","","0.5","","98.93","","","","","",""
"-133.48","68.30","INUVIK AWOS A","2202575","2012-02-21 04:00","2012","02","21","04:00","-23.3","","-30.7","","51","","","","","","0","","1.6","","98.95","","","","","",""
"-133.48","68.30","INUVIK AWOS A","2202575","2012-02-21 05:00","2012","02","21","05:00","-23.0","","-30.4","","51","","","","","","0","","15.0","","98.98","","","","","",""
"-133.48","68.30","INUVIK AWOS A","2202575","2012-02-21 06:00","2012","02","21","06:00","-21.7","","-29.1","","51","","","","32","","4","","15.0","","99.00","","","","-25","",""
"-133.48","68.30","INUVIK AWOS A","2202575","2012-02-21 07:00","2012","02","21","07:00","-24.3","","-32.0","","49","","","","32","","4","","15.0","","99.01","","","","-28","",""
"-133.48","68.30","INUVIK AWOS A","2202575","2012-02-21 08:00","2012","02","21","08:00","-23.2","","-30.7","","50","","","","","","0","","15.0","","99.04","","","","","",""
"-133.48","68.30","INUVIK AWOS A","2202575","2012-02-21 09:00","2012","02","21","09:00","-23.6","","-31.3","","49","","","","","","0","","15.0","","99.06","","","","","",""
"-133.48","68.30","INUVIK AWOS A","2202575","2012-02-21 10:00","2012","02","21","10:00","-25.8","","-33.0","","51","","","","10","","4","","3.2","","99.09","","","","-30","",""
"-133.48","68.30","INUVIK AWOS A","2202575","2012-02-21 11:00","2012","02","21","11:00","-26.7","","-33.1","","55","","","","","","0","","12.9","","99.09","","","","","",""
"-133.48","68.30","INUVIK AWOS A","2202575","2012-02-21 12:00","2012","02","21","12:00","-23.8","","-27.6","","71","","","","","","0","","15.0","","99.12","","","","","",""
"-133.48","68.30","INUVIK AWOS A","2202575","2012-02-21 13:00","2012","02","21","13:00","-23.5","","-27.7","","68","","","","","","0","","4.8","","99.19","","","","","",""
"-133.48","68.30","INUVIK AWOS A","2202575","2012-02-21 14:00","2012","02","21","14:00","-22.8","","-26.9","","69","","","","","","0","","3.7","","99.22","","","","","",""
"-133.48","68.30","INUVIK AWOS A","2202575","2012-02-21 15:00","2012","02","21","15:00","-22.9","","-26.9","","70","","","","2","","6","","","M","99.27","","","","-28","",""
"-133.48","68.30","INUVIK AWOS A","2202575","2012-02-21 16:00","2012","02","21","16:00","-22.7","","-26.7","","70","","","","1","","4","","15.0","","99.32","","","","-26","",""
"-133.48","68.30","INUVIK AWOS A","2202575","2012-02-21 17:00","2012","02","21","17:00","-23.0","","-27.1","","69","","","","","","0","","15.0","","99.34","","","","","",""
"-133.48","68.30","INUVIK AWOS A","2202575","2012-02-21 18:00","2012","02","21","18:00","-25.3","","-29.7","","67","","","","34","","6","","15.0","","99.39","","","","-31","",""
"-133.48","68.30","INUVIK AWOS A","2202575","2012-02-21 19:00","2012","02","21","19:00","-26.9","","-31.3","","66","","","","4","","6","","15.0","","99.46","","","","-33","",""
"-133.48","68.30","INUVIK AWOS A","2202575","2012-02-21 20:00","2012","02","21","20:00","-29.0","","-34.5","","59","","","","","","0","","15.0","","99.51","","","","","",""
"-133.48","68.30","INUVIK AWOS A","2202575","2012-02-21 21:00","2012","02","21","21:00","-27.6","","-31.6","","69","","","","6","","6","","15.0","","99.53","","","","-34","",""
"-133.48","68.30","INUVIK AWOS A","2202575","2012-02-21 22:00","2012","02","21","22:00","-29.3","","-33.8","","65","","","","","","0","","15.0","","99.56","","","","","",""
"-133.48","68.30","INUVIK AWOS A","2202575","2012-02-21 23:00","2012","02","21","23:00","-28.4","","-33.0","","65","","","","32","","6","","14.5","","99.62","","","","-35","",""
"-133.48","68.30","INUVIK AWOS A","2202575","2012-02-22 00:00","2012","02","22","00:00","-27.4","","-31.8","","66","","","","30","","4","","15.0","","99.67","","","","-32","",""
"-133.48","68.30","INUVIK AWOS A","2202575","2012-02-22 01:00","2012","02","22","01:00","-27.5","","-31.8","","67","","","","27","","6","","15.0","","99.72","","","","-34","",""
"-133.48","68.30","INUVIK AWOS A","2202575","2012-02-22 02:00","2012","02","22","02:00"
"-133.48","68.30","INUVIK AWOS A","2202575","2012-02-22 03:00","2012","02","22","03:00","-25.8","","-30.0","","68","","","","","","0","","15.0","","99.88","","","","","",""
"-133.48","68.30","INUVIK AWOS A","2202575","2012-02-22 04:00","2012","02","22","04:00"
"-133.48","68.30","INUVIK AWOS A","2202575","2012-02-22 05:00","2012","02","22","05:00","-27.1","","-31.5","","66","","","","7","","4","","15.0","","100.05","","","","-31","",""
"-133.48","68.30","INUVIK AWOS A","2202575","2012-02-22 06:00","2012","02","22","06:00"
"-133.48","68.30","INUVIK AWOS A","2202575","2012-02-22 07:00","2012","02","22","07:00","-29.3","","-34.1","","63","","","","7","","4","","15.0","","100.20","","","","-34","",""
"-133.48","68.30","INUVIK AWOS A","2202575","2012-02-22 08:00","2012","02","22","08:00","-28.7","","-33.2","","65","","","","7","","4","","15.0","","100.28","","","","-33","",""
"-133.48","68.30","INUVIK AWOS A","2202575","2012-02-22 09:00","2012","02","22","09:00","-29.9","","-34.7","","63","","","","8","","4","","11.3","","100.32","","","","-34","",""
"-133.48","68.30","INUVIK AWOS A","2202575","2012-02-22 10:00","2012","02","22","10:00","-29.4","","-34.0","","64","","","","8","","6","","15.0","","100.35","","","","-36","",""
"-133.48","68.30","INUVIK AWOS A","2202575","2012-02-22 11:00","2012","02","22","11:00","-27.9","","-32.4","","65","","","","6","","6","","15.0","","100.41","","","","-34","",""
"-133.48","68.30","INUVIK AWOS A","2202575","2012-02-22 12:00","2012","02","22","12:00","-26.4","","-30.7","","67","","","","","","0","","12.9","","100.48","","","","","",""
"-133.48","68.30","INUVIK AWOS A","2202575","2012-02-22 13:00","2012","02","22","13:00","-24.7","","-29.0","","67","","","","","","0","","15.0","","100.57","","","","","",""
"-133.48","68.30","INUVIK AWOS A","2202575","2012-02-22 14:00","2012","02","22","14:00","-24.4","","-29.0","","66","","","","","","0","","15.0","","100.62","","","","","",""
"-133.48","68.30","INUVIK AWOS A","2202575","2012-02-22 15:00","2012","02","22","15:00","-22.5","","-26.6","","69","","","","","","0","","15.0","","100.68","","","","","",""
"-133.48","68.30","INUVIK AWOS A","2202575","2012-02-22 16:00","2012","02","22","16:00","-23.8","","-28.2","","67","","","","","","0","","15.0","","100.75","","","","","",""
"-133.48","68.30","INUVIK AWOS A","2202575","2012-02-22 17:00","2012","02","22","17:00","-23.7","","-28.4","","65","","","","","","0","","15.0","","100.80","","","","","",""
"-133.48","68.30","INUVIK AWOS A","2202575","2012-02-22 18:00","2012","02","22","18:00","-26.4","","-31.0","","65","","","","13","","4","","15.0","","100.83","","","","-31","",""
"-133.48","68.30","INUVIK AWOS A","2202575","2012-02-22 19:00","2012","02","22","19:00","-26.9","","-31.3","","66","","","","7","","9","","15.0","","100.86","","","","-35","",""
"-133.48","68.30","INUVIK AWOS A","2202575","2012-02-22 20:00","2012","02","22","20:00","-26.3","","-30.6","","67","","","","7","","6","","15.0","","100.90","","","","-32","",""
"-133.48","68.30","INUVIK AWOS A","2202575","2012-02-22 21:00","2012","02","22","21:00","-26.3","","-30.7","","66","","","","7","","7","","15.0","","100.95","","","","-33","",""
"-133.48","68.30","INUVIK AWOS A","2202575","2012-02-22 22:00","2012","02","22","22:00","-25.5","","-29.8","","67","","","","8","","6","","15.0","","100.97","","","","-31","",""
"-133.48","68.30","INUVIK AWOS A","2202575","2012-02-22 23:00","2012","02","22","23:00","-25.2","","-29.5","","67","","","","9","","7","","15.0","","100.97","","","","-32","",""
"-133.48","68.30","INUVIK AWOS A","2202575","2012-02-23 00:00","2012","02","23","00:00","-25.7","","-30.1","","67","","","","9","","9","","6.4","","100.98","","","","-33","","Snow"
"-133.48","68.30","INUVIK AWOS A","2202575","2012-02-23 01:00","2012","02","23","01:00","-25.5","","-29.8","","67","","","","8","","6","","6.4","","101.05","","","","-31","","Snow"
"-133.48","68.30","INUVIK AWOS A","2202575","2012-02-23 02:00","2012","02","23","02:00","-24.9","","-29.2","","67","","","","7","","9","","6.4","","101.08","","","","-33","","Snow"
"-133.48","68.30","INUVIK AWOS A","2202575","2012-02-23 03:00","2012","02","23","03:00","-25.2","","-29.7","","66","","","","9","","7","","8.0","","101.14","","","","-32","","Snow"
"-133.48","68.30","INUVIK AWOS A","2202575","2012-02-23 04:00","2012","02","23","04:00","-25.6","","-30.0","","67","","","","8","","7","","8.0","","101.19","","","","-32","","Snow"
"-133.48","68.30","INUVIK AWOS A","2202575","2012-02-23 05:00","2012","02","23","05:00","-25.3","","-29.8","","66","","","","11","","7","","8.0","","101.22","","","","-32","","Snow"
"-133.48","68.30","INUVIK AWOS A","2202575","2012-02-23 06:00","2012","02","23","06:00","-25.8","","-30.2","","67","","","","13","","6","","11.3","","101.26","","","","-32","","Snow"
"-133.48","68.30","INUVIK AWOS A","2202575","2012-02-23 07:00","2012","02","23","07:00","-27.2","","-31.7","","66","","","","8","","7","","15.0","","101.29","","","","-34","","Snow"
"-133.48","68.30","INUVIK AWOS A","2202575","2012-02-23 08:00","2012","02","23","08:00","-27.3","","-31.8","","66","","","","11","","7","","15.0","","101.31","","","","-34","",""
"-133.48","68.30","INUVIK AWOS A","2202575","2012-02-23 09:00","2012","02","23","09:00","-26.5","","-30.9","","66","","","","10","","4","","12.9","","101.36","","","","-31","","Snow"
"-133.48","68.30","INUVIK AWOS A","2202575","2012-02-23 10:00","2012","02","23","10:00","-25.5","","-29.9","","67","","","","","","0","","11.3","","101.40","","","","","","Snow"
"-133.48","68.30","INUVIK AWOS A","2202575","2012-02-23 11:00","2012","02","23","11:00","-25.1","","","M","","M","","","","","0","","","M","101.44","","","","","","NA"
"-133.48","68.30","INUVIK AWOS A","2202575","2012-02-23 12:00","2012","02","23","12:00","-24.8","","-28.4","","72","","","","","","0","","","M","101.49","","","","","","NA"
"-133.48","68.30","INUVIK AWOS A","2202575","2012-02-23 13:00","2012","02","23","13:00","-24.3","","-28.7","","67","","","","","","0","","","M","101.56","","","","","","NA"
"-133.48","68.30","INUVIK AWOS A","2202575","2012-02-23 14:00","2012","02","23","14:00","-23.8","","-28.3","","66","","","","26","","4","","8.0","","101.61","","","","-28","",""
"-133.48","68.30","INUVIK AWOS A","2202575","2012-02-23 15:00","2012","02","23","15:00","-24.3","","-28.7","","67","","","","30","","6","","9.7","","101.66","","","","-30","",""
"-133.48","68.30","INUVIK AWOS A","2202575","2012-02-23 16:00","2012","02","23","16:00","-24.4","","-29.0","","66","","","","31","","6","","12.9","","101.70","","","","-30","",""
"-133.48","68.30","INUVIK AWOS A","2202575","2012-02-23 17:00","2012","02","23","17:00","-24.9","","-29.5","","65","","","","30","","9","","14.5","","101.75","","","","-33","",""
"-133.48","68.30","INUVIK AWOS A","2202575","2012-02-23 18:00","2012","02","23","18:00","-25.2","","-29.8","","65","","","","32","","6","","12.9","","101.78","","","","-31","",""
"-133.48","68.30","INUVIK AWOS A","2202575","2012-02-23 19:00","2012","02","23","19:00","-26.0","","-30.7","","65","","","","34","","4","","15.0","","101.81","","","","-30","",""
"-133.48","68.30","INUVIK AWOS A","2202575","2012-02-23 20:00","2012","02","23","20:00","-27.6","","-32.5","","63","","","","33","","4","","15.0","","101.85","","","","-32","","Snow"
"-133.48","68.30","INUVIK AWOS A","2202575","2012-02-23 21:00","2012","02","23","21:00","-29.9","","-34.9","","62","","","","","","0","","15.0","","101.92","","","","","",""
"-133.48","68.30","INUVIK AWOS A","2202575","2012-02-23 22:00","2012","02","23","22:00","-30.6","","-35.4","","63","","","","29","","4","","15.0","","101.97","","","","-35","",""
"-133.48","68.30","INUVIK AWOS A","2202575","2012-02-23 23:00","2012","02","23","23:00","-31.2","","-36.1","","62","","","","","","0","","15.0","","102.00","","","","","",""
"-133.48","68.30","INUVIK AWOS A","2202575","2012-02-24 00:00","2012","02","24","00:00","-31.8","","-36.7","","62","","","","","","0","","15.0","","102.01","","","","","",""
"-133.48","68.30","INUVIK AWOS A","2202575","2012-02-24 01:00","2012","02","24","01:00","-32.0","","-36.8","","62","","","","","","0","","15.0","","102.06","","","","","","Snow"
"-133.48","68.30","INUVIK AWOS A","2202575","2012-02-24 02:00","2012","02","24","02:00","-31.7","","-36.8","","61","","","","28","","4","","15.0","","102.13","","","","-36","",""
"-133.48","68.30","INUVIK AWOS A","2202575","2012-02-24 03:00","2012","02","24","03:00","-32.3","","-37.2","","62","","","","27","","4","","15.0","","102.17","","","","-37","",""
"-133.48","68.30","INUVIK AWOS A","2202575","2012-02-24 04:00","2012","02","24","04:00","-31.8","","-36.7","","62","","","","","","0","","15.0","","102.21","","","","","",""
"-133.48","68.30","INUVIK AWOS A","2202575","2012-02-24 05:00","2012","02","24","05:00","-31.4","","-36.0","","64","","","","26","","4","","15.0","","102.23","","","","-36","",""
"-133.48","68.30","INUVIK AWOS A","2202575","2012-02-24 06:00","2012","02","24","06:00","-30.9","","-35.5","","64","","","","","","0","","15.0","","102.26","","","","","",""
"-133.48","68.30","INUVIK AWOS A","2202575","2012-02-24 07:00","2012","02","24","07:00","-31.0","","-35.7","","63","","","","29","","4","","12.9","","102.28","","","","-36","",""
"-133.48","68.30","INUVIK AWOS A","2202575","2012-02-24 08:00","2012","02","24","08:00","-31.0","","-35.8","","63","","","","","","0","","11.3","","102.30","","","","","",""
"-133.48","68.30","INUVIK AWOS A","2202575","2012-02-24 09:00","2012","02","24","09:00","-31.3","","-36.1","","63","","","","31","","4","","15.0","","102.33","","","","-36","",""
"-133.48","68.30","INUVIK AWOS A","2202575","2012-02-24 10:00","2012","02","24","10:00","-32.0","","-36.9","","62","","","","30","","4","","15.0","","102.35","","","","-37","",""
"-133.48","68.30","INUVIK AWOS A","2202575","2012-02-24 11:00","2012","02","24","11:00","-32.3","","-37.2","","62","","","","","","0","","15.0","","102.38","","","","","",""
"-133.48","68.30","INUVIK AWOS A","2202575","2012-02-24 12:00","2012","02","24","12:00","-29.3","","-34.0","","64","","","","","","0","","15.0","","102.41","","","","","",""
"-133.48","68.30","INUVIK AWOS A","2202575","2012-02-24 13:00","2012","02","24","13:00","-28.2","","-33.2","","62","","","","","","0","","15.0","","102.42","","","","","",""
"-133.48","68.30","INUVIK AWOS A","2202575","2012-02-24 14:00","2012","02","24","14:00","-27.1","","-32.1","","62","","","","25","","4","","15.0","","102.45","","","","-31","",""
"-133.48","68.30","INUVIK AWOS A","2202575","2012-02-24 15:00","2012","02","24","15:00","-26.6","","-31.6","","63","","","","25","","4","","15.0","","102.47","","","","-31","",""
"-133.48","68.30","INUVIK AWOS A","2202575","2012-02-24 16:00","2012","02","24","16:00","-25.8","","-30.7","","63","","","","25","","4","","15.0","","102.49","","","","-30","",""
"-133.48","68.30","INUVIK AWOS A","2202575","2012-02-24 17:00","2012","02","24","17:00","-25.7","","-30.4","","65","","","","26","","4","","15.0","","102.49","","","","-30","",""
"-133.48","68.30","INUVIK AWOS A","2202575","2012-02-24 18:00","2012","02","24","18:00","-27.2","","-31.8","","65","","","","","","0","","15.0","","102.46","","","","","",""
"-133.48","68.30","INUVIK AWOS A","2202575","2012-02-24 19:00","2012","02","24","19:00","-30.4","","-35.1","","63","","","","","","0","","15.0","","102.46","","","","","",""
"-133.48","68.30","INUVIK AWOS A","2202575","2012-02-24 20:00","2012","02","24","20:00","-32.1","","-37.1","","61","","","","","","0","","15.0","","102.47","","","","","",""
"-133.48","68.30","INUVIK AWOS A","2202575","2012-02-24 21:00","2012","02","24","21:00","-31.5","","-35.5","","68","","","","","","0","","15.0","","102.47","","","","","",""
"-133.48","68.30","INUVIK AWOS A","2202575","2012-02-24 22:00","2012","02","24","22:00","-31.6","","-36.1","","64","","","","","","0","","15.0","","102.44","","","","","",""
"-133.48","68.30","INUVIK AWOS A","2202575","2012-02-24 23:00","2012","02","24","23:00","-30.6","","-35.2","","64","","","","","","0","","15.0","","102.43","","","","","",""
"-133.48","68.30","INUVIK AWOS A","2202575","2012-02-25 00:00","2012","02","25","00:00","-29.5","","-34.7","","61","","","","","","0","","15.0","","102.46","","","","","",""
"-133.48","68.30","INUVIK AWOS A","2202575","2012-02-25 01:00","2012","02","25","01:00","-28.8","","-33.6","","63","","","","","","0","","11.3","","102.46","","","","","",""
"-133.48","68.30","INUVIK AWOS A","2202575","2012-02-25 02:00","2012","02","25","02:00","-29.1","","-33.7","","64","","","","","","0","","15.0","","102.44","","","","","",""
"-133.48","68.30","INUVIK AWOS A","2202575","2012-02-25 03:00","2012","02","25","03:00","-28.4","","-33.1","","64","","","","6","","4","","15.0","","102.45","","","","-33","",""
"-133.48","68.30","INUVIK AWOS A","2202575","2012-02-25 04:00","2012","02","25","04:00","-29.3","","-34.1","","63","","","","","","0","","12.9","","102.44","","","","","",""
"-133.48","68.30","INUVIK AWOS A","2202575","2012-02-25 05:00","2012","02","25","05:00","-31.1","","-36.3","","60","","","","","","0","","15.0","","102.44","","","","","",""
"-133.48","68.30","INUVIK AWOS A","2202575","2012-02-25 06:00","2012","02","25","06:00","-29.3","","-34.0","","64","","","","7","","4","","9.7","","102.42","","","","-34","","Snow"
"-133.48","68.30","INUVIK AWOS A","2202575","2012-02-25 07:00","2012","02","25","07:00","-30.9","","-36.4","","58","","","","8","","4","","15.0","","102.40","","","","-35","",""
"-133.48","68.30","INUVIK AWOS A","2202575","2012-02-25 08:00","2012","02","25","08:00","-30.1","","-35.2","","61","","","","8","","4","","15.0","","102.37","","","","-35","",""
"-133.48","68.30","INUVIK AWOS A","2202575","2012-02-25 09:00","2012","02","25","09:00","-29.2","","-33.8","","64","","","","8","","6","","15.0","","102.35","","","","-36","",""
"-133.48","68.30","INUVIK AWOS A","2202575","2012-02-25 10:00","2012","02","25","10:00","-29.0","","-33.6","","64","","","","8","","6","","15.0","","102.32","","","","-35","",""
"-133.48","68.30","INUVIK AWOS A","2202575","2012-02-25 11:00","2012","02","25","11:00","-28.8","","-33.5","","64","","","","7","","7","","15.0","","102.31","","","","-36","",""
"-133.48","68.30","INUVIK AWOS A","2202575","2012-02-25 12:00","2012","02","25","12:00","-27.4","","-32.5","","62","","","","9","","4","","15.0","","102.30","","","","-32","",""
"-133.48","68.30","INUVIK AWOS A","2202575","2012-02-25 13:00","2012","02","25","13:00","-26.5","","-31.3","","64","","","","9","","4","","15.0","","102.27","","","","-31","",""
"-133.48","68.30","INUVIK AWOS A","2202575","2012-02-25 14:00","2012","02","25","14:00","-25.3","","-30.2","","64","","","","10","","6","","9.7","","102.24","","","","-31","",""
"-133.48","68.30","INUVIK AWOS A","2202575","2012-02-25 15:00","2012","02","25","15:00","-25.4","","-30.0","","65","","","","10","","6","","8.0","","102.19","","","","-31","",""
"-133.48","68.30","INUVIK AWOS A","2202575","2012-02-25 16:00","2012","02","25","16:00","-25.0","","-29.7","","65","","","","10","","7","","3.2","","102.15","","","","-31","","Snow"
"-133.48","68.30","INUVIK AWOS A","2202575","2012-02-25 17:00","2012","02","25","17:00","-25.3","","-29.9","","65","","","","10","","4","","4.8","","102.11","","","","-29","","Snow"
"-133.48","68.30","INUVIK AWOS A","2202575","2012-02-25 18:00","2012","02","25","18:00","-25.6","","-30.2","","65","","","","9","","4","","6.4","","102.09","","","","-30","","Snow"
"-133.48","68.30","INUVIK AWOS A","2202575","2012-02-25 19:00","2012","02","25","19:00","-26.1","","-30.6","","66","","","","9","","6","","2.1","","102.05","","","","-32","","Snow"
"-133.48","68.30","INUVIK AWOS A","2202575","2012-02-25 20:00","2012","02","25","20:00","-26.5","","-31.1","","65","","","","7","","4","","4.8","","102.03","","","","-31","","Snow"
"-133.48","68.30","INUVIK AWOS A","2202575","2012-02-25 21:00","2012","02","25","21:00","-26.7","","-31.3","","65","","","","9","","4","","4.8","","101.99","","","","-31","","Snow"
"-133.48","68.30","INUVIK AWOS A","2202575","2012-02-25 22:00","2012","02","25","22:00","-26.5","","-31.1","","65","","","","","","0","","8.0","","101.97","","","","","","Snow"
"-133.48","68.30","INUVIK AWOS A","2202575","2012-02-25 23:00","2012","02","25","23:00","-26.2","","-30.8","","65","","","","","","0","","2.7","","101.94","","","","","","Snow"
"-133.48","68.30","INUVIK AWOS A","2202575","2012-02-26 00:00","2012","02","26","00:00","-28.0","","-32.6","","65","","","","27","","6","","5.6","","101.90","","","","-34","",""
"-133.48","68.30","INUVIK AWOS A","2202575","2012-02-26 01:00","2012","02","26","01:00","-29.0","","-33.6","","64","","","","28","","6","","6.4","","101.88","","","","-35","","Snow"
"-133.48","68.30","INUVIK AWOS A","2202575","2012-02-26 02:00","2012","02","26","02:00","-29.5","","-34.2","","64","","","","28","","4","","15.0","","101.87","","","","-34","",""
"-133.48","68.30","INUVIK AWOS A","2202575","2012-02-26 03:00","2012","02","26","03:00","-30.1","","-34.8","","64","","","","28","","4","","15.0","","101.84","","","","-35","",""
"-133.48","68.30","INUVIK AWOS A","2202575","2012-02-26 04:00","2012","02","26","04:00","-30.7","","-35.3","","64","","","","","","0","","15.0","","101.79","","","","","",""
"-133.48","68.30","INUVIK AWOS A","2202575","2012-02-26 05:00","2012","02","26","05:00","-31.4","","-36.1","","63","","","","28","","4","","15.0","","101.74","","","","-36","",""
"-133.48","68.30","INUVIK AWOS A","2202575","2012-02-26 06:00","2012","02","26","06:00","-31.7","","-36.4","","63","","","","","","0","","15.0","","101.67","","","","","",""
"-133.48","68.30","INUVIK AWOS A","2202575","2012-02-26 07:00","2012","02","26","07:00","-32.6","","-37.4","","62","","","","","","0","","15.0","","101.61","","","","","",""
"-133.48","68.30","INUVIK AWOS A","2202575","2012-02-26 08:00","2012","02","26","08:00","-35.5","","-40.1","","63","","","","","","0","","15.0","","101.52","","","","","",""
"-133.48","68.30","INUVIK AWOS A","2202575","2012-02-26 09:00","2012","02","26","09:00","-36.6","","-41.6","","60","","","","","","0","","15.0","","101.44","","","","","",""
"-133.48","68.30","INUVIK AWOS A","2202575","2012-02-26 10:00","2012","02","26","10:00","-37.9","","-41.2","","71","","","","","","0","","15.0","","101.37","","","","","",""
"-133.48","68.30","INUVIK AWOS A","2202575","2012-02-26 11:00","2012","02","26","11:00","-33.6","","-37.9","","65","","","","","","0","","15.0","","101.30","","","","","",""
"-133.48","68.30","INUVIK AWOS A","2202575","2012-02-26 12:00","2012","02","26","12:00","-30.3","","-35.2","","62","","","","","","0","","15.0","","101.21","","","","","",""
"-133.48","68.30","INUVIK AWOS A","2202575","2012-02-26 13:00","2012","02","26","13:00","-29.4","","-34.4","","62","","","","","","0","","12.9","","101.14","","","","","",""
"-133.48","68.30","INUVIK AWOS A","2202575","2012-02-26 14:00","2012","02","26","14:00","-28.5","","-34.5","","56","","","","","","0","","9.7","","101.08","","","","","",""
"-133.48","68.30","INUVIK AWOS A","2202575","2012-02-26 15:00","2012","02","26","15:00","-28.6","","-33.5","","63","","","","8","","4","","15.0","","100.94","","","","-33","",""
"-133.48","68.30","INUVIK AWOS A","2202575","2012-02-26 16:00","2012","02","26","16:00","-27.7","","-33.5","","58","","","","10","","9","","15.0","","100.84","","","","-36","",""
"-133.48","68.30","INUVIK AWOS A","2202575","2012-02-26 17:00","2012","02","26","17:00","-29.0","","-34.1","","61","","","","9","","4","","15.0","","100.78","","","","-33","",""
"-133.48","68.30","INUVIK AWOS A","2202575","2012-02-26 18:00","2012","02","26","18:00","-29.9","","-34.9","","62","","","","9","","7","","15.0","","100.68","","","","-37","",""
"-133.48","68.30","INUVIK AWOS A","2202575","2012-02-26 19:00","2012","02","26","19:00","-30.9","","-35.8","","62","","","","7","","11","","15.0","","100.58","","","","-41","",""
"-133.48","68.30","INUVIK AWOS A","2202575","2012-02-26 20:00","2012","02","26","20:00","-30.0","","-34.7","","64","","","","9","","9","","15.0","","100.50","","","","-39","",""
"-133.48","68.30","INUVIK AWOS A","2202575","2012-02-26 21:00","2012","02","26","21:00","-30.9","","-35.9","","61","","","","7","","7","","15.0","","100.43","","","","-38","",""
"-133.48","68.30","INUVIK AWOS A","2202575","2012-02-26 22:00","2012","02","26","22:00","-30.9","","-35.7","","63","","","","9","","6","","15.0","","100.36","","","","-38","",""
"-133.48","68.30","INUVIK AWOS A","2202575","2012-02-26 23:00","2012","02","26","23:00","-29.7","","-34.4","","64","","","","10","","9","","15.0","","100.32","","","","-38","","Snow"
"-133.48","68.30","INUVIK AWOS A","2202575","2012-02-27 00:00","2012","02","27","00:00","-28.7","","-33.5","","63","","","","10","","7","","6.4","","100.29","","","","-36","","Snow"
"-133.48","68.30","INUVIK AWOS A","2202575","2012-02-27 01:00","2012","02","27","01:00","-28.1","","-32.9","","63","","","","8","","6","","9.7","","100.23","","","","-34","",""
"-133.48","68.30","INUVIK AWOS A","2202575","2012-02-27 02:00","2012","02","27","02:00","-27.4","","-32.1","","64","","","","8","","4","","11.3","","100.21","","","","-32","","Snow"
"-133.48","68.30","INUVIK AWOS A","2202575","2012-02-27 03:00","2012","02","27","03:00","-27.7","","-32.5","","64","","","","8","","4","","5.6","","100.23","","","","-32","","Snow"
"-133.48","68.30","INUVIK AWOS A","2202575","2012-02-27 04:00","2012","02","27","04:00","-28.3","","-33.0","","64","","","","","","0","","12.9","","100.23","","","","","","Snow"
"-133.48","68.30","INUVIK AWOS A","2202575","2012-02-27 05:00","2012","02","27","05:00","-28.3","","-33.0","","64","","","","","","0","","4.0","","100.26","","","","","","Snow"
"-133.48","68.30","INUVIK AWOS A","2202575","2012-02-27 06:00","2012","02","27","06:00","-28.9","","-33.7","","63","","","","","","0","","8.0","","100.23","","","","","","Snow"
"-133.48","68.30","INUVIK AWOS A","2202575","2012-02-27 07:00","2012","02","27","07:00","-29.4","","-34.3","","62","","","","35","","4","","9.7","","100.27","","","","-34","","Snow"
"-133.48","68.30","INUVIK AWOS A","2202575","2012-02-27 08:00","2012","02","27","08:00","-29.6","","-34.7","","61","","","","35","","7","","8.0","","100.32","","","","-37","","Snow"
"-133.48","68.30","INUVIK AWOS A","2202575","2012-02-27 09:00","2012","02","27","09:00","-29.7","","-34.8","","61","","","","33","","6","","3.9","","100.34","","","","-36","","Snow"
"-133.48","68.30","INUVIK AWOS A","2202575","2012-02-27 10:00","2012","02","27","10:00","-29.1","","-34.3","","61","","","","34","","9","","3.2","","100.38","","","","-38","","Snow"
"-133.48","68.30","INUVIK AWOS A","2202575","2012-02-27 11:00","2012","02","27","11:00","-28.3","","-33.6","","60","","","","34","","9","","11.3","","100.46","","","","-37","","Snow"
"-133.48","68.30","INUVIK AWOS A","2202575","2012-02-27 12:00","2012","02","27","12:00","-28.5","","-33.7","","61","","","","34","","17","","4.0","","100.53","","","","-40","","Snow"
"-133.48","68.30","INUVIK AWOS A","2202575","2012-02-27 13:00","2012","02","27","13:00","-28.2","","-33.6","","60","","","","34","","20","","6.4","","100.59","","","","-41","","Snow"
"-133.48","68.30","INUVIK AWOS A","2202575","2012-02-27 14:00","2012","02","27","14:00","-28.1","","-33.6","","59","","","","35","","20","","4.8","","100.68","","","","-41","","Snow"
"-133.48","68.30","INUVIK AWOS A","2202575","2012-02-27 15:00","2012","02","27","15:00","-27.8","","-33.3","","59","","","","35","","20","","3.5","","100.79","","","","-40","","Snow"
"-133.48","68.30","INUVIK AWOS A","2202575","2012-02-27 16:00","2012","02","27","16:00","-27.7","","-33.1","","60","","","","34","","20","","4.8","","100.86","","","","-40","","Snow"
"-133.48","68.30","INUVIK AWOS A","2202575","2012-02-27 17:00","2012","02","27","17:00","-28.1","","-33.5","","60","","","","33","","17","","2.9","","100.94","","","","-40","","Snow"
"-133.48","68.30","INUVIK AWOS A","2202575","2012-02-27 18:00","2012","02","27","18:00","-28.6","","-34.1","","59","","","","34","","24","","5.6","","101.02","","","","-42","","Snow"
"-133.48","68.30","INUVIK AWOS A","2202575","2012-02-27 19:00","2012","02","27","19:00","-29.3","","-34.8","","59","","","","34","","19","","8.0","","101.11","","","","-42","","Snow"
"-133.48","68.30","INUVIK AWOS A","2202575","2012-02-27 20:00","2012","02","27","20:00","-29.4","","-34.8","","59","","","","33","","19","","6.4","","101.20","","","","-42","","Snow"
"-133.48","68.30","INUVIK AWOS A","2202575","2012-02-27 21:00","2012","02","27","21:00","-29.5","","-34.9","","59","","","","34","","17","","9.7","","101.29","","","","-42","","Snow"
"-133.48","68.30","INUVIK AWOS A","2202575","2012-02-27 22:00","2012","02","27","22:00","-29.7","","-35.0","","60","","","","34","","17","","12.9","","101.39","","","","-42","","Snow"
"-133.48","68.30","INUVIK AWOS A","2202575","2012-02-27 23:00","2012","02","27","23:00","-29.7","","-35.1","","59","","","","34","","24","","15.0","","101.45","","","","-44","","Snow"
"-133.48","68.30","INUVIK AWOS A","2202575","2012-02-28 00:00","2012","02","28","00:00","-30.1","","-35.4","","60","","","","34","","15","","8.0","","101.56","","","","-42","","Snow"
"-133.48","68.30","INUVIK AWOS A","2202575","2012-02-28 01:00","2012","02","28","01:00","-30.3","","-35.8","","59","","","","34","","13","","8.0","","101.66","","","","-41","","Snow"
"-133.48","68.30","INUVIK AWOS A","2202575","2012-02-28 02:00","2012","02","28","02:00","-30.7","","-36.0","","60","","","","34","","15","","12.9","","101.74","","","","-42","",""
"-133.48","68.30","INUVIK AWOS A","2202575","2012-02-28 03:00","2012","02","28","03:00","-30.8","","-36.2","","59","","","","33","","15","","15.0","","101.79","","","","-42","",""
"-133.48","68.30","INUVIK AWOS A","2202575","2012-02-28 04:00","2012","02","28","04:00","-31.7","","-37.5","","56","","","","33","","13","","9.7","","101.89","","","","-43","",""
"-133.48","68.30","INUVIK AWOS A","2202575","2012-02-28 05:00","2012","02","28","05:00","-32.1","","-37.4","","59","","","","33","","9","","2.9","","101.97","","","","-41","",""
"-133.48","68.30","INUVIK AWOS A","2202575","2012-02-28 06:00","2012","02","28","06:00","-32.6","","-38.1","","58","","","","33","","9","","15.0","","102.03","","","","-42","",""
"-133.48","68.30","INUVIK AWOS A","2202575","2012-02-28 07:00","2012","02","28","07:00","-33.3","","-38.4","","60","","","","32","","11","","3.4","","102.13","","","","-44","",""
"-133.48","68.30","INUVIK AWOS A","2202575","2012-02-28 08:00","2012","02","28","08:00","-34.0","","-38.9","","61","","","","30","","7","","5.6","","102.19","","","","-42","",""
"-133.48","68.30","INUVIK AWOS A","2202575","2012-02-28 09:00","2012","02","28","09:00","-34.1","","-39.1","","61","","","","32","","9","","9.7","","102.25","","","","-43","",""
"-133.48","68.30","INUVIK AWOS A","2202575","2012-02-28 10:00","2012","02","28","10:00","-33.9","","-39.1","","59","","","","31","","7","","15.0","","102.28","","","","-42","",""
"-133.48","68.30","INUVIK AWOS A","2202575","2012-02-28 11:00","2012","02","28","11:00","-33.5","","-38.8","","59","","","","33","","11","","15.0","","102.33","","","","-44","",""
"-133.48","68.30","INUVIK AWOS A","2202575","2012-02-28 12:00","2012","02","28","12:00","-32.8","","-38.2","","58","","","","33","","17","","11.3","","102.35","","","","-46","",""
"-133.48","68.30","INUVIK AWOS A","2202575","2012-02-28 13:00","2012","02","28","13:00","-32.7","","-38.5","","56","","","","32","","9","","15.0","","102.37","","","","-42","",""
"-133.48","68.30","INUVIK AWOS A","2202575","2012-02-28 14:00","2012","02","28","14:00","-32.2","","-37.8","","57","","","","33","","17","","15.0","","102.39","","","","-45","",""
"-133.48","68.30","INUVIK AWOS A","2202575","2012-02-28 15:00","2012","02","28","15:00","-31.5","","-37.2","","57","","","","32","","15","","15.0","","102.40","","","","-43","",""
"-133.48","68.30","INUVIK AWOS A","2202575","2012-02-28 16:00","2012","02","28","16:00","-31.5","","-37.2","","57","","","","33","","9","","15.0","","102.39","","","","-40","",""
"-133.48","68.30","INUVIK AWOS A","2202575","2012-02-28 17:00","2012","02","28","17:00","-31.5","","-37.1","","58","","","","31","","15","","15.0","","102.39","","","","-43","",""
"-133.48","68.30","INUVIK AWOS A","2202575","2012-02-28 18:00","2012","02","28","18:00","-32.2","","-37.6","","59","","","","31","","11","","15.0","","102.37","","","","-42","",""
"-133.48","68.30","INUVIK AWOS A","2202575","2012-02-28 19:00","2012","02","28","19:00","-33.6","","-38.4","","62","","","","28","","6","","15.0","","102.36","","","","-41","",""
"-133.48","68.30","INUVIK AWOS A","2202575","2012-02-28 20:00","2012","02","28","20:00","-35.4","","-40.6","","59","","","","28","","4","","15.0","","102.35","","","","-40","",""
"-133.48","68.30","INUVIK AWOS A","2202575","2012-02-28 21:00","2012","02","28","21:00","-36.3","","-40.9","","62","","","","27","","4","","15.0","","102.34","","","","-41","",""
"-133.48","68.30","INUVIK AWOS A","2202575","2012-02-28 22:00","2012","02","28","22:00","-37.3","","-42.0","","62","","","","","","0","","15.0","","102.31","","","","","",""
"-133.48","68.30","INUVIK AWOS A","2202575","2012-02-28 23:00","2012","02","28","23:00","-37.5","","-42.9","","57","","","","29","","6","","9.7","","102.28","","","","-45","",""
"-133.48","68.30","INUVIK AWOS A","2202575","2012-02-29 00:00","2012","02","29","00:00","-36.3","","-41.0","","62","","","","28","","4","","15.0","","102.29","","","","-41","",""
"-133.48","68.30","INUVIK AWOS A","2202575","2012-02-29 01:00","2012","02","29","01:00","-36.2","","-40.7","","63","","","","32","","6","","15.0","","102.28","","","","-44","",""
"-133.48","68.30","INUVIK AWOS A","2202575","2012-02-29 02:00","2012","02","29","02:00","-36.3","","-41.5","","59","","","","33","","4","","9.7","","102.26","","","","-41","",""
"-133.48","68.30","INUVIK AWOS A","2202575","2012-02-29 03:00","2012","02","29","03:00","-38.2","","-43.8","","56","","","","","","0","","15.0","","102.28","","","","","",""
"-133.48","68.30","INUVIK AWOS A","2202575","2012-02-29 04:00","2012","02","29","04:00","-39.1","","-43.7","","62","","","","","","0","","15.0","","102.29","","","","","",""
"-133.48","68.30","INUVIK AWOS A","2202575","2012-02-29 05:00","2012","02","29","05:00","-39.5","","-45.0","","56","","","","","","0","","15.0","","102.25","","","","","",""
"-133.48","68.30","INUVIK AWOS A","2202575","2012-02-29 06:00","2012","02","29","06:00","-40.4","","-44.8","","63","","","","","","0","","15.0","","102.22","","","","","",""
"-133.48","68.30","INUVIK AWOS A","2202575","2012-02-29 07:00","2012","02","29","07:00","-40.2","","-44.3","","65","","","","31","","4","","15.0","","102.23","","","","-46","",""
"-133.48","68.30","INUVIK AWOS A","2202575","2012-02-29 08:00","2012","02","29","08:00","-40.5","","-45.1","","61","","","","","","0","","15.0","","102.21","","","","","",""
"-133.48","68.30","INUVIK AWOS A","2202575","2012-02-29 09:00","2012","02","29","09:00","-40.3","","-44.7","","63","","","","","","0","","9.7","","102.21","","","","","",""
"-133.48","68.30","INUVIK AWOS A","2202575","2012-02-29 10:00","2012","02","29","10:00","-41.1","","-45.1","","65","","","","","","0","","15.0","","102.20","","","","","",""
"-133.48","68.30","INUVIK AWOS A","2202575","2012-02-29 11:00","2012","02","29","11:00","-36.9","","-41.5","","62","","","","","","0","","1.6","","102.20","","","","","",""
"-133.48","68.30","INUVIK AWOS A","2202575","2012-02-29 12:00","2012","02","29","12:00","-36.6","","-41.0","","64","","","","27","","7","","15.0","","102.20","","","","-45","",""
"-133.48","68.30","INUVIK AWOS A","2202575","2012-02-29 13:00","2012","02","29","13:00","-35.8","","-40.4","","63","","","","24","","4","","4.8","","102.22","","","","-41","",""
"-133.48","68.30","INUVIK AWOS A","2202575","2012-02-29 14:00","2012","02","29","14:00","-34.9","","-39.6","","62","","","","22","","6","","4.8","","102.22","","","","-42","",""
"-133.48","68.30","INUVIK AWOS A","2202575","2012-02-29 15:00","2012","02","29","15:00","-33.8","","-39.0","","59","","","","25","","6","","12.9","","102.23","","","","-41","",""
"-133.48","68.30","INUVIK AWOS A","2202575","2012-02-29 16:00","2012","02","29","16:00","-33.6","","-38.6","","61","","","","30","","7","","15.0","","102.22","","","","-41","",""
"-133.48","68.30","INUVIK AWOS A","2202575","2012-02-29 17:00","2012","02","29","17:00","-33.2","","-38.2","","61","","","","","","0","","15.0","","102.22","","","","","",""
"-133.48","68.30","INUVIK AWOS A","2202575","2012-02-29 18:00","2012","02","29","18:00","-33.8","","-38.9","","60","","","","19","","4","","15.0","","102.22","","","","-39","",""
"-133.48","68.30","INUVIK AWOS A","2202575","2012-02-29 19:00","2012","02","29","19:00","-35.9","","-40.7","","61","","","","","","0","","15.0","","102.22","","","","","",""
"-133.48","68.30","INUVIK AWOS A","2202575","2012-02-29 20:00","2012","02","29","20:00","-39.3","","-44.3","","59","","","","","","0","","15.0","","102.22","","","","","",""
"-133.48","68.30","INUVIK AWOS A","2202575","2012-02-29 21:00","2012","02","29","21:00","-38.2","","-42.2","","66","","","","","","0","","15.0","","102.21","","","","","",""
"-133.48","68.30","INUVIK AWOS A","2202575","2012-02-29 22:00","2012","02","29","22:00","-40.1","","-45.1","","59","","","","","","0","","8.0","","102.21","","","","","",""
"-133.48","68.30","INUVIK AWOS A","2202575","2012-02-29 23:00","2012","02","29","23:00","-39.8","","-45.1","","57","","","","","","0","","15.0","","102.21","","","","","",""
